<?xml version="1.0" encoding="UTF-8"?>
<osm version="0.6" generator="osmapis">
	<node lat="60.79032088456204" lon="8.728481594631658" id="-31691">
		<tag k="name" v="Bergheim" />
		<tag k="place" v="farm" />
		<tag k="ssr:stedsnr" v="8007" />
	</node>
	<node lat="60.87263888963532" lon="8.82962777364141" id="-31692">
		<tag k="historic" v="shieling" />
		<tag k="name" v="Bubakken" />
		<tag k="place" v="isolated_dwelling" />
		<tag k="ssr:stedsnr" v="8158" />
	</node>
	<node lat="60.82694444573144" lon="8.639788883294413" id="-31693">
		<tag k="alt_name" v="Myte, nedre" />
		<tag k="name" v="Nedre Myte" />
		<tag k="place" v="isolated_dwelling" />
		<tag k="ssr:stedsnr" v="8243" />
	</node>
	<node lat="60.81435000438604" lon="8.723866675500282" id="-31694">
		<tag k="name" v="Høgehaug" />
		<tag k="place" v="farm" />
		<tag k="ssr:stedsnr" v="8256" />
	</node>
	<node lat="60.843969441363804" lon="8.458969449998266" id="-31697">
		<tag k="alt_name" v="Fløgastølen" />
		<tag k="historic" v="shieling" />
		<tag k="name" v="Flogastølen" />
		<tag k="place" v="isolated_dwelling" />
		<tag k="ssr:stedsnr" v="8909" />
	</node>
	<node lat="60.86933683249879" lon="8.507078273922968" id="-31698">
		<tag k="loc_name" v="Ondredal" />
		<tag k="name" v="Øndredal" />
		<tag k="place" v="hamlet" />
		<tag k="ssr:stedsnr" v="9098" />
	</node>
	<node lat="60.87186111410141" lon="8.5258555504586" id="-31699">
		<tag k="name" v="Dokk" />
		<tag k="place" v="farm" />
		<tag k="ssr:stedsnr" v="9106" />
	</node>
	<node lat="60.809255560080786" lon="8.670919449227842" id="-31700">
		<tag k="name" v="Hjelmen" />
		<tag k="place" v="farm" />
		<tag k="ssr:stedsnr" v="9199" />
	</node>
	<node lat="60.917033335527464" lon="8.219152778880732" id="-31701">
		<tag k="alt_name" v="Hestehaugstølane" />
		<tag k="historic" v="shieling" />
		<tag k="name" v="Hestehaugstølen" />
		<tag k="place" v="isolated_dwelling" />
		<tag k="ssr:stedsnr" v="9602" />
	</node>
	<node lat="60.87733333056487" lon="8.755580555471496" id="-31705">
		<tag k="alt_name" v="Langehaugstølane" />
		<tag k="historic" v="shieling" />
		<tag k="name" v="Haugestølane" />
		<tag k="place" v="isolated_dwelling" />
		<tag k="ssr:stedsnr" v="9806" />
	</node>
	<node lat="60.879863886811705" lon="8.513619441671612" id="-31706">
		<tag k="name" v="Rusto" />
		<tag k="place" v="farm" />
		<tag k="ssr:stedsnr" v="9815" />
	</node>
	<node lat="60.85573889335763" lon="8.51583332576069" id="-31709">
		<tag k="aerialway" v="drag_lift" />
		<tag k="fixme" v="consider the other aerialway types" />
		<tag k="name" v="Tottenheisen" />
		<tag k="ssr:stedsnr" v="32006" />
	</node>
	<node lat="60.843205556589204" lon="8.501686115126573" id="-31711">
		<tag k="aerialway" v="drag_lift" />
		<tag k="fixme" v="consider the other aerialway types" />
		<tag k="name" v="Hamarheisen" />
		<tag k="ssr:stedsnr" v="32372" />
	</node>
	<node lat="60.936717902147336" lon="8.399625847186705" id="-31712">
		<tag k="name" v="Snikkerhuset" />
		<tag k="place" v="farm" />
		<tag k="ssr:stedsnr" v="32377" />
	</node>
	<node lat="60.93169166922487" lon="8.44794443968116" id="-31713">
		<tag k="historic" v="shieling" />
		<tag k="name" v="Dekkostølen" />
		<tag k="place" v="isolated_dwelling" />
		<tag k="ssr:stedsnr" v="32378" />
	</node>
	<node lat="60.83203610669789" lon="8.647955548753426" id="-31715">
		<tag k="name" v="Myte" />
		<tag k="place" v="farm" />
		<tag k="ssr:stedsnr" v="32596" />
	</node>
	<node lat="60.87943333056014" lon="8.478816659675301" id="-31721">
		<tag k="name" v="Bergheim" />
		<tag k="place" v="farm" />
		<tag k="ssr:stedsnr" v="32776" />
	</node>
	<node lat="60.878813124944074" lon="8.458985560245743" id="-31722">
		<tag k="fixme" v="consider place=hamlet" />
		<tag k="name" v="Reiarsletten" />
		<tag k="place" v="farm" />
		<tag k="ssr:stedsnr" v="32789" />
	</node>
	<node lat="60.883152781229164" lon="8.497922216054802" id="-31723">
		<tag k="name" v="Nordre Hulbak" />
		<tag k="place" v="farm" />
		<tag k="ssr:stedsnr" v="32908" />
	</node>
	<node lat="60.86954444710328" lon="8.555250001384126" id="-31733">
		<tag k="alt_name" v="Gjuven" />
		<tag k="name" v="Juven" />
		<tag k="place" v="farm" />
		<tag k="ssr:stedsnr" v="69134" />
	</node>
	<node lat="60.842266664786294" lon="8.612211119418621" id="-31736">
		<tag k="alt_name" v="Svarteberg" />
		<tag k="name" v="Sorteberg" />
		<tag k="place" v="farm" />
		<tag k="ssr:stedsnr" v="69193" />
	</node>
	<node lat="60.89146111382971" lon="8.331019450558234" id="-31741">
		<tag k="alt_name" v="Fløgastølen" />
		<tag k="historic" v="shieling" />
		<tag k="name" v="Flogastølen" />
		<tag k="place" v="isolated_dwelling" />
		<tag k="ssr:stedsnr" v="69613" />
	</node>
	<node lat="60.97077500004282" lon="8.503708338250823" id="-31743">
		<tag k="alt_name" v="Slettene" />
		<tag k="historic" v="shieling" />
		<tag k="name" v="Slettane" />
		<tag k="place" v="isolated_dwelling" />
		<tag k="ssr:stedsnr" v="69789" />
	</node>
	<node lat="60.838410351446846" lon="8.450185339004305" id="-31744">
		<tag k="alt_name" v="Fekjavollen" />
		<tag k="historic" v="shieling" />
		<tag k="name" v="Fetjavollen" />
		<tag k="place" v="isolated_dwelling" />
		<tag k="ssr:stedsnr" v="69907" />
	</node>
	<node lat="60.93235000060547" lon="8.660177769179425" id="-31748">
		<tag k="historic" v="shieling" />
		<tag k="name" v="Lægeret" />
		<tag k="place" v="isolated_dwelling" />
		<tag k="ssr:stedsnr" v="69878" />
	</node>
	<node lat="60.85613333114696" lon="8.515772230676776" id="-31749">
		<tag k="aerialway" v="drag_lift" />
		<tag k="fixme" v="consider the other aerialway types" />
		<tag k="name" v="Parallellheisen" />
		<tag k="ssr:stedsnr" v="93002" />
	</node>
	<node lat="60.883147220438794" lon="8.848536109141667" id="-31753">
		<tag k="name" v="Søre Løkken" />
		<tag k="place" v="farm" />
		<tag k="ssr:stedsnr" v="93512" />
	</node>
	<node lat="60.84862221910217" lon="8.627063883037588" id="-31754">
		<tag k="historic" v="shieling" />
		<tag k="name" v="Bakkerud" />
		<tag k="place" v="isolated_dwelling" />
		<tag k="ssr:stedsnr" v="93573" />
	</node>
	<node lat="60.84492500257606" lon="8.628011115676095" id="-31758">
		<tag k="name" v="Nedre Løken" />
		<tag k="place" v="farm" />
		<tag k="ssr:stedsnr" v="93680" />
	</node>
	<node lat="60.86797499796602" lon="8.680641666597088" id="-31759">
		<tag k="historic" v="shieling" />
		<tag k="name" v="Steinslette" />
		<tag k="place" v="isolated_dwelling" />
		<tag k="ssr:stedsnr" v="93814" />
	</node>
	<node lat="60.90435833663575" lon="8.437905547420298" id="-31765">
		<tag k="alt_name" v="Brandvollstølen;Brannvolstølen" />
		<tag k="historic" v="shieling" />
		<tag k="name" v="Brandvolstølen" />
		<tag k="place" v="isolated_dwelling" />
		<tag k="ssr:stedsnr" v="251640" />
	</node>
	<node lat="60.77990563778752" lon="8.701907917133225" id="-31768">
		<tag k="historic" v="shieling" />
		<tag k="name" v="Krosstølane" />
		<tag k="old_name" v="Krosstølen" />
		<tag k="place" v="isolated_dwelling" />
		<tag k="ssr:stedsnr" v="251029" />
	</node>
	<node lat="60.86828234150548" lon="8.531266148796423" id="-31769">
		<tag k="name" v="Fetjo" />
		<tag k="place" v="locality" />
		<tag k="ssr:stedsnr" v="251144" />
	</node>
	<node lat="60.84633138506509" lon="8.626980279107425" id="-31770">
		<tag k="alt_name" v="Øvre Løken" />
		<tag k="fixme" v="consider place=hamlet" />
		<tag k="name" v="Løken" />
		<tag k="place" v="farm" />
		<tag k="ssr:stedsnr" v="251189" />
	</node>
	<node lat="60.8636444438454" lon="8.564991663329367" id="-31771">
		<tag k="name" v="Haugen" />
		<tag k="place" v="farm" />
		<tag k="ssr:stedsnr" v="251155" />
	</node>
	<node lat="60.85532499827402" lon="8.798808336423502" id="-31772">
		<tag k="historic" v="shieling" />
		<tag k="name" v="Blomeslettane" />
		<tag k="place" v="isolated_dwelling" />
		<tag k="ssr:stedsnr" v="251161" />
	</node>
	<node lat="60.84065495541524" lon="8.653200933658391" id="-31775">
		<tag k="fixme" v="consider place=hamlet" />
		<tag k="name" v="Markegard" />
		<tag k="place" v="farm" />
		<tag k="ssr:stedsnr" v="251197" />
	</node>
	<node lat="60.80681388618765" lon="8.760180553701808" id="-31783">
		<tag k="name" v="Furuhaug" />
		<tag k="place" v="farm" />
		<tag k="ssr:stedsnr" v="251267" />
	</node>
	<node lat="60.97466756008845" lon="8.341239097689115" id="-31786">
		<tag k="name" v="Fossen" />
		<tag k="place" v="locality" />
		<tag k="ssr:stedsnr" v="251569" />
	</node>
	<node lat="60.88266389221902" lon="8.33745278194184" id="-31789">
		<tag k="historic" v="shieling" />
		<tag k="name" v="Sjåheimvollen" />
		<tag k="place" v="isolated_dwelling" />
		<tag k="ssr:stedsnr" v="251585" />
	</node>
	<node lat="60.891133331036706" lon="8.433005549250126" id="-31790">
		<tag k="historic" v="shieling" />
		<tag k="name" v="Kollevik" />
		<tag k="place" v="isolated_dwelling" />
		<tag k="ssr:stedsnr" v="251588" />
	</node>
	<node lat="60.87320277842966" lon="8.417355563725538" id="-31794">
		<tag k="name" v="Flaten" />
		<tag k="place" v="farm" />
		<tag k="ssr:stedsnr" v="251606" />
	</node>
	<node lat="60.87694166935037" lon="8.729274992667266" id="-31805">
		<tag k="historic" v="shieling" />
		<tag k="name" v="Joleimsstølen" />
		<tag k="old_name" v="Jordheim" />
		<tag k="place" v="isolated_dwelling" />
		<tag k="ssr:stedsnr" v="251855" />
	</node>
	<node lat="60.786811112275444" lon="8.735988881483346" id="-31808">
		<tag k="name" v="Olaugbu" />
		<tag k="place" v="isolated_dwelling" />
		<tag k="ssr:stedsnr" v="129008" />
	</node>
	<node lat="60.78345000100361" lon="8.638838883785384" id="-31809">
		<tag k="historic" v="shieling" />
		<tag k="name" v="Hovdestølen" />
		<tag k="place" v="isolated_dwelling" />
		<tag k="ssr:stedsnr" v="129012" />
	</node>
	<node lat="60.94488055719206" lon="8.383283326348014" id="-31810">
		<tag k="name" v="Tubba" />
		<tag k="place" v="farm" />
		<tag k="ssr:stedsnr" v="129519" />
	</node>
	<node lat="60.951133336859826" lon="8.316124993489105" id="-31811">
		<tag k="historic" v="shieling" />
		<tag k="name" v="Preinsrud" />
		<tag k="place" v="isolated_dwelling" />
		<tag k="ssr:stedsnr" v="129522" />
	</node>
	<node lat="60.8708722214816" lon="8.42187776970646" id="-31812">
		<tag k="name" v="Lien" />
		<tag k="place" v="farm" />
		<tag k="ssr:stedsnr" v="129926" />
	</node>
	<node lat="60.8685083344104" lon="8.66778056125845" id="-31813">
		<tag k="historic" v="shieling" />
		<tag k="name" v="Løkjestølane" />
		<tag k="old_name" v="Løkjestølann" />
		<tag k="place" v="isolated_dwelling" />
		<tag k="ssr:stedsnr" v="130106" />
	</node>
	<node lat="60.881049999005974" lon="8.83362499294592" id="-31817">
		<tag k="name" v="Haugen" />
		<tag k="place" v="farm" />
		<tag k="ssr:stedsnr" v="130098" />
	</node>
	<node lat="60.8131277806002" lon="8.66518333642578" id="-31818">
		<tag k="name" v="Harahaug" />
		<tag k="place" v="farm" />
		<tag k="ssr:stedsnr" v="130206" />
	</node>
	<node lat="60.843458329601816" lon="8.50894999447362" id="-31821">
		<tag k="landuse" v="winter_sports" />
		<tag k="name" v="Fjellheisen" />
		<tag k="piste:type" v="downhill" />
		<tag k="ssr:stedsnr" v="153006" />
	</node>
	<node lat="60.86931666243403" lon="8.549138895045113" id="-31822">
		<tag k="fixme" v="consider place=hamlet" />
		<tag k="name" v="Skadengården" />
		<tag k="place" v="farm" />
		<tag k="ssr:stedsnr" v="153070" />
	</node>
	<node lat="60.85705296290601" lon="8.55810517374647" id="-31833">
		<tag k="alt_name" v="Bråten;Nyork" />
		<tag k="name" v="Snikkarbråten" />
		<tag k="old_name" v="Snedkerbråten" />
		<tag k="place" v="farm" />
		<tag k="ssr:stedsnr" v="176160" />
	</node>
	<node lat="60.862705182547415" lon="8.55533144854011" id="-31835">
		<tag k="alt_name" v="Trøim" />
		<tag k="name" v="Trøym" />
		<tag k="place" v="village" />
		<tag k="ssr:stedsnr" v="178171" />
	</node>
	<node lat="60.87576077805716" lon="8.524370689857708" id="-31836">
		<tag k="alt_name" v="Søre Finset" />
		<tag k="name" v="Søre Finnset" />
		<tag k="place" v="farm" />
		<tag k="ssr:stedsnr" v="182206" />
	</node>
	<node lat="60.83001944694224" lon="8.673236112708278" id="-31841">
		<tag k="name" v="Ormerud" />
		<tag k="place" v="farm" />
		<tag k="ssr:stedsnr" v="190207" />
	</node>
	<node lat="60.88374444280206" lon="8.441319453158505" id="-31845">
		<tag k="name" v="Stupulen" />
		<tag k="place" v="locality" />
		<tag k="ssr:stedsnr" v="190561" />
	</node>
	<node lat="60.84773888952403" lon="8.442913880896844" id="-31847">
		<tag k="historic" v="shieling" />
		<tag k="name" v="Hollestølen" />
		<tag k="place" v="isolated_dwelling" />
		<tag k="ssr:stedsnr" v="190922" />
	</node>
	<node lat="60.80746666659784" lon="8.757247215203678" id="-31851">
		<tag k="name" v="Gjerde" />
		<tag k="place" v="farm" />
		<tag k="ssr:stedsnr" v="191214" />
	</node>
	<node lat="60.933688887485275" lon="8.437986111298853" id="-31853">
		<tag k="historic" v="shieling" />
		<tag k="name" v="Ragnhildset" />
		<tag k="place" v="isolated_dwelling" />
		<tag k="ssr:stedsnr" v="191561" />
	</node>
	<node lat="60.86000998501032" lon="8.525470344836169" id="-31857">
		<tag k="historic" v="shieling" />
		<tag k="name" v="Vårstølen" />
		<tag k="place" v="isolated_dwelling" />
		<tag k="ssr:stedsnr" v="214095" />
	</node>
	<node lat="60.93462097306278" lon="8.397264469455456" id="-31859">
		<tag k="historic" v="shieling" />
		<tag k="name" v="Stakkestøet" />
		<tag k="place" v="isolated_dwelling" />
		<tag k="ssr:stedsnr" v="214393" />
	</node>
	<node lat="60.930636112513696" lon="8.40322222200985" id="-31873">
		<tag k="historic" v="shieling" />
		<tag k="name" v="Stølen" />
		<tag k="place" v="isolated_dwelling" />
		<tag k="ssr:stedsnr" v="457571" />
	</node>
	<node lat="60.867761107452665" lon="8.379136104706475" id="-31875">
		<tag k="historic" v="shieling" />
		<tag k="name" v="Nordre Lauset" />
		<tag k="place" v="isolated_dwelling" />
		<tag k="ssr:stedsnr" v="457185" />
	</node>
	<node lat="60.86630833446912" lon="8.591841663587278" id="-31890">
		<tag k="historic" v="shieling" />
		<tag k="name" v="Nilsonskarstølen" />
		<tag k="place" v="isolated_dwelling" />
		<tag k="ssr:stedsnr" v="275074" />
	</node>
	<node lat="60.785358335585364" lon="8.652166662320464" id="-31891">
		<tag k="historic" v="shieling" />
		<tag k="name" v="Leinestølen" />
		<tag k="place" v="isolated_dwelling" />
		<tag k="ssr:stedsnr" v="275217" />
	</node>
	<node lat="60.94329166897188" lon="8.374391670122245" id="-31893">
		<tag k="historic" v="shieling" />
		<tag k="name" v="Høltostølen" />
		<tag k="place" v="isolated_dwelling" />
		<tag k="ssr:stedsnr" v="275281" />
	</node>
	<node lat="60.958347548036784" lon="8.357441021375134" id="-31895">
		<tag k="historic" v="shieling" />
		<tag k="name" v="Haugastølen" />
		<tag k="place" v="isolated_dwelling" />
		<tag k="ssr:stedsnr" v="275290" />
	</node>
	<node lat="60.94052816206276" lon="8.405900211892465" id="-31901">
		<tag k="historic" v="shieling" />
		<tag k="name" v="Lie" />
		<tag k="place" v="isolated_dwelling" />
		<tag k="ssr:stedsnr" v="275377" />
	</node>
	<node lat="60.84067221926766" lon="8.449191668660383" id="-31904">
		<tag k="historic" v="shieling" />
		<tag k="name" v="Haugavollen" />
		<tag k="place" v="isolated_dwelling" />
		<tag k="ssr:stedsnr" v="275603" />
	</node>
	<node lat="60.844169440100494" lon="8.62373888141932" id="-31905">
		<tag k="name" v="Grohaugen" />
		<tag k="place" v="farm" />
		<tag k="ssr:stedsnr" v="275608" />
	</node>
	<node lat="60.88372499928514" lon="8.829336107690038" id="-31906">
		<tag k="name" v="Hagen" />
		<tag k="place" v="farm" />
		<tag k="ssr:stedsnr" v="275581" />
	</node>
	<node lat="60.842932205278736" lon="8.617316315729415" id="-31909">
		<tag k="name" v="Prestegårdshus" />
		<tag k="old_name" v="Prestegådshus" />
		<tag k="place" v="farm" />
		<tag k="ssr:stedsnr" v="275992" />
	</node>
	<node lat="60.856691498026215" lon="8.605098907437293" id="-31914">
		<tag k="name" v="Søre Grøto" />
		<tag k="place" v="farm" />
		<tag k="ssr:stedsnr" v="311191" />
	</node>
	<node lat="60.86433333282495" lon="8.719300005209998" id="-31916">
		<tag k="historic" v="shieling" />
		<tag k="name" v="Grøtestølane" />
		<tag k="place" v="isolated_dwelling" />
		<tag k="ssr:stedsnr" v="311199" />
	</node>
	<node lat="60.87659999993776" lon="8.452344438283326" id="-31921">
		<tag k="name" v="Sjåheim" />
		<tag k="place" v="farm" />
		<tag k="ssr:stedsnr" v="311608" />
	</node>
	<node lat="60.87228611425688" lon="8.49957500766437" id="-31924">
		<tag k="name" v="Haugen" />
		<tag k="place" v="farm" />
		<tag k="ssr:stedsnr" v="312104" />
	</node>
	<node lat="60.86962464951385" lon="8.710406824722178" id="-31925">
		<tag k="alt_name" v="Ulsåkstølane" />
		<tag k="historic" v="shieling" />
		<tag k="name" v="Ullsåkstølane" />
		<tag k="place" v="isolated_dwelling" />
		<tag k="ssr:stedsnr" v="312119" />
	</node>
	<node lat="60.82810555580299" lon="8.680150005804457" id="-31926">
		<tag k="alt_name" v="Dokken" />
		<tag k="name" v="Dokki" />
		<tag k="place" v="farm" />
		<tag k="ssr:stedsnr" v="312210" />
	</node>
	<node lat="60.8158583303725" lon="8.696519452638729" id="-31928">
		<tag k="loc_name" v="Pålhuso" />
		<tag k="name" v="Pålhus" />
		<tag k="place" v="locality" />
		<tag k="ssr:stedsnr" v="312222" />
	</node>
	<node lat="60.80564444809784" lon="8.654463888732026" id="-31929">
		<tag k="alt_name" v="Dokken" />
		<tag k="historic" v="shieling" />
		<tag k="name" v="Dokki" />
		<tag k="place" v="isolated_dwelling" />
		<tag k="ssr:stedsnr" v="312225" />
	</node>
	<node lat="60.80557222573986" lon="8.740730558209448" id="-31930">
		<tag k="name" v="Medgarden" />
		<tag k="place" v="farm" />
		<tag k="ssr:stedsnr" v="312228" />
	</node>
	<node lat="60.97315225049252" lon="8.52013570409263" id="-31940">
		<tag k="historic" v="shieling" />
		<tag k="name" v="Nord-Hydalen" />
		<tag k="place" v="isolated_dwelling" />
		<tag k="ssr:stedsnr" v="312740" />
	</node>
	<node lat="60.81792500409998" lon="8.634719450625239" id="-31945">
		<tag k="historic" v="shieling" />
		<tag k="name" v="Høgavollen" />
		<tag k="place" v="isolated_dwelling" />
		<tag k="ssr:stedsnr" v="335598" />
	</node>
	<node lat="60.833565515981036" lon="8.601551358168676" id="-31950">
		<tag k="name" v="Stølsmyre" />
		<tag k="place" v="farm" />
		<tag k="ssr:stedsnr" v="335963" />
	</node>
	<node lat="60.83688055618995" lon="8.608091660633436" id="-31952">
		<tag k="name" v="Hauglund" />
		<tag k="place" v="farm" />
		<tag k="ssr:stedsnr" v="336000" />
	</node>
	<node lat="60.85937222284688" lon="8.802577778632664" id="-31957">
		<tag k="historic" v="shieling" />
		<tag k="name" v="Øvre Eikrestølane" />
		<tag k="place" v="isolated_dwelling" />
		<tag k="ssr:stedsnr" v="336760" />
	</node>
	<node lat="60.88319722463291" lon="8.823033332564943" id="-31960">
		<tag k="name" v="Hagen" />
		<tag k="place" v="farm" />
		<tag k="ssr:stedsnr" v="494794" />
	</node>
	<node lat="60.86165113087267" lon="8.580885027125053" id="-31961">
		<tag k="fixme" v="consider place=hamlet" />
		<tag k="name" v="Store Joleim" />
		<tag k="place" v="farm" />
		<tag k="ssr:stedsnr" v="357205" />
	</node>
	<node lat="60.860552148174435" lon="8.589494869610451" id="-31962">
		<tag k="alt_name" v="Joleim" />
		<tag k="fixme" v="consider place=hamlet" />
		<tag k="name" v="Vesle Joleim" />
		<tag k="place" v="farm" />
		<tag k="ssr:stedsnr" v="357206" />
	</node>
	<node lat="60.86361667034846" lon="8.643150000474591" id="-31965">
		<tag k="alt_name" v="Fetjastølane" />
		<tag k="historic" v="shieling" />
		<tag k="name" v="Fetjane" />
		<tag k="place" v="isolated_dwelling" />
		<tag k="ssr:stedsnr" v="372154" />
	</node>
	<node lat="60.84790833401142" lon="8.62333054757139" id="-31967">
		<tag k="alt_name" v="Engene;Engjane" />
		<tag k="name" v="Engjo" />
		<tag k="place" v="farm" />
		<tag k="ssr:stedsnr" v="372165" />
	</node>
	<node lat="60.81764757577198" lon="8.638047125672713" id="-31971">
		<tag k="alt_name" v="Hødnset" />
		<tag k="historic" v="shieling" />
		<tag k="name" v="Hornset" />
		<tag k="place" v="isolated_dwelling" />
		<tag k="ssr:stedsnr" v="372223" />
	</node>
	<node lat="60.911252778779605" lon="8.234138882163506" id="-31976">
		<tag k="historic" v="shieling" />
		<tag k="name" v="Viljugreinstølen" />
		<tag k="place" v="isolated_dwelling" />
		<tag k="ssr:stedsnr" v="372608" />
	</node>
	<node lat="60.933297225656844" lon="8.411683332434174" id="-31977">
		<tag k="name" v="Haugen" />
		<tag k="place" v="farm" />
		<tag k="ssr:stedsnr" v="372610" />
	</node>
	<node lat="60.92958611319413" lon="8.398444446969215" id="-31978">
		<tag k="name" v="Heggestad" />
		<tag k="place" v="farm" />
		<tag k="ssr:stedsnr" v="372613" />
	</node>
	<node lat="60.87080832963983" lon="8.531530554826073" id="-31983">
		<tag k="alt_name" v="Hølto" />
		<tag k="name" v="Holto" />
		<tag k="place" v="farm" />
		<tag k="ssr:stedsnr" v="373109" />
	</node>
	<node lat="60.8562777774852" lon="8.505999994025224" id="-31984">
		<tag k="landuse" v="winter_sports" />
		<tag k="name" v="Såhaugløypa" />
		<tag k="piste:type" v="downhill" />
		<tag k="ssr:stedsnr" v="396002" />
	</node>
	<node lat="60.898988891872754" lon="8.264386117506342" id="-31987">
		<tag k="historic" v="shieling" />
		<tag k="name" v="Hallestølen" />
		<tag k="place" v="isolated_dwelling" />
		<tag k="ssr:stedsnr" v="396233" />
	</node>
	<node lat="60.93166763506484" lon="8.399072457453293" id="-31989">
		<tag k="historic" v="shieling" />
		<tag k="name" v="Kvelve" />
		<tag k="place" v="isolated_dwelling" />
		<tag k="ssr:stedsnr" v="396384" />
	</node>
	<node lat="60.93577391225778" lon="8.40728214161014" id="-31990">
		<tag k="historic" v="shieling" />
		<tag k="name" v="Haugastølen" />
		<tag k="place" v="isolated_dwelling" />
		<tag k="ssr:stedsnr" v="396389" />
	</node>
	<node lat="60.9253638925132" lon="8.429772228420184" id="-31991">
		<tag k="name" v="Søre Grøndalen" />
		<tag k="place" v="farm" />
		<tag k="ssr:stedsnr" v="396541" />
	</node>
	<node lat="60.858338888037764" lon="8.509319453332797" id="-31993">
		<tag k="landuse" v="winter_sports" />
		<tag k="name" v="Hemsedalsløypa" />
		<tag k="piste:type" v="downhill" />
		<tag k="ssr:stedsnr" v="396707" />
	</node>
	<node lat="60.8788361102598" lon="8.402186107759704" id="-31995">
		<tag k="historic" v="shieling" />
		<tag k="name" v="Øystølen" />
		<tag k="place" v="isolated_dwelling" />
		<tag k="ssr:stedsnr" v="396727" />
	</node>
	<node lat="60.8777499967613" lon="8.498088884090729" id="-31997">
		<tag k="name" v="Nørdre Hustad" />
		<tag k="place" v="farm" />
		<tag k="ssr:stedsnr" v="396800" />
	</node>
	<node lat="60.85140685782243" lon="8.594557464804327" id="-31999">
		<tag k="name" v="Grønåsen" />
		<tag k="place" v="locality" />
		<tag k="ssr:stedsnr" v="396901" />
	</node>
	<node lat="60.8446750021107" lon="8.617925005780897" id="-32006">
		<tag k="name" v="Moen" />
		<tag k="ssr:stedsnr" v="433177" />
		<tag k="tourism" v="camp_site" />
	</node>
	<node lat="60.84060816136438" lon="8.648290032570076" id="-32007">
		<tag k="alt_name" v="Ålstvedt" />
		<tag k="fixme" v="consider place=hamlet" />
		<tag k="name" v="Ålstveit" />
		<tag k="place" v="farm" />
		<tag k="ssr:stedsnr" v="433180" />
	</node>
	<node lat="60.833413887910304" lon="8.668263887645551" id="-32008">
		<tag k="alt_name" v="Jodok" />
		<tag k="name" v="Jodokk" />
		<tag k="place" v="farm" />
		<tag k="ssr:stedsnr" v="433191" />
	</node>
	<node lat="60.83861388702958" lon="8.615850007776851" id="-32009">
		<tag k="alt_name" v="Dokken" />
		<tag k="name" v="Dokki" />
		<tag k="place" v="farm" />
		<tag k="ssr:stedsnr" v="433196" />
	</node>
	<node lat="60.85441666607779" lon="8.411625002395029" id="-32020">
		<tag k="alt_name" v="Halso, nedre" />
		<tag k="historic" v="shieling" />
		<tag k="name" v="Nedre Halso" />
		<tag k="place" v="isolated_dwelling" />
		<tag k="ssr:stedsnr" v="433914" />
	</node>
	<node lat="60.88318561809689" lon="8.488468797745325" id="-32021">
		<tag k="alt_name" v="Brandvoll" />
		<tag k="fixme" v="consider place=hamlet" />
		<tag k="name" v="Brandvol" />
		<tag k="place" v="farm" />
		<tag k="ssr:stedsnr" v="434803" />
	</node>
	<node lat="60.87690277434646" lon="8.357555561918605" id="-32030">
		<tag k="historic" v="shieling" />
		<tag k="name" v="Sjåstadstølen" />
		<tag k="place" v="isolated_dwelling" />
		<tag k="ssr:stedsnr" v="493595" />
	</node>
	<node lat="60.79869444142469" lon="8.67380277887884" id="-32031">
		<tag k="alt_name" v="Gjuvestølen, nedre" />
		<tag k="name" v="Nedre Gjuvestølen" />
		<tag k="place" v="locality" />
		<tag k="ssr:stedsnr" v="494018" />
	</node>
	<node lat="60.82270555111086" lon="8.684638882464714" id="-32033">
		<tag k="alt_name" v="Skolt, s" />
		<tag k="name" v="Søre Skolt" />
		<tag k="place" v="farm" />
		<tag k="ssr:stedsnr" v="494193" />
	</node>
	<node lat="60.924074997768265" lon="8.433005552532379" id="-32036">
		<tag k="alt_name" v="Dokken" />
		<tag k="name" v="Dokki" />
		<tag k="place" v="farm" />
		<tag k="ssr:stedsnr" v="494555" />
	</node>
	<node lat="60.92843333307353" lon="8.425383329788959" id="-32039">
		<tag k="name" v="Træet" />
		<tag k="place" v="farm" />
		<tag k="ssr:stedsnr" v="494564" />
	</node>
	<node lat="60.89991111423206" lon="8.251516663972314" id="-32040">
		<tag k="historic" v="shieling" />
		<tag k="name" v="Sildegjerdet" />
		<tag k="place" v="isolated_dwelling" />
		<tag k="ssr:stedsnr" v="494591" />
	</node>
	<node lat="60.946341670548335" lon="8.375441675652993" id="-32048">
		<tag k="alt_name" v="Trøimstølen" />
		<tag k="historic" v="shieling" />
		<tag k="name" v="Trøymstølen" />
		<tag k="place" v="isolated_dwelling" />
		<tag k="ssr:stedsnr" v="457276" />
	</node>
	<node lat="60.92572777478465" lon="8.411663881812931" id="-32051">
		<tag k="historic" v="shieling" />
		<tag k="name" v="Storestølen" />
		<tag k="place" v="isolated_dwelling" />
		<tag k="ssr:stedsnr" v="457560" />
	</node>
	<node lat="60.86877222061051" lon="8.689169441391162" id="-32053">
		<tag k="historic" v="shieling" />
		<tag k="name" v="Sørestølen" />
		<tag k="place" v="isolated_dwelling" />
		<tag k="ssr:stedsnr" v="457662" />
	</node>
	<node lat="60.8415523159192" lon="8.589010400371354" id="-32064">
		<tag k="alt_name" v="Torset" />
		<tag k="name" v="Nordre Torset" />
		<tag k="place" v="farm" />
		<tag k="ssr:stedsnr" v="675208" />
	</node>
	<node lat="60.86381742606107" lon="8.812505263895607" id="-32065">
		<tag k="historic" v="shieling" />
		<tag k="name" v="Eikrestølane" />
		<tag k="place" v="isolated_dwelling" />
		<tag k="ssr:stedsnr" v="675180" />
	</node>
	<node lat="60.85150555950199" lon="8.617963896915887" id="-32067">
		<tag k="name" v="Søre Ulsåker" />
		<tag k="place" v="farm" />
		<tag k="ssr:stedsnr" v="675190" />
	</node>
	<node lat="60.86854166225618" lon="8.52933056054035" id="-32068">
		<tag k="alt_name" v="Nordre Fekene;Fekjene;Fekene" />
		<tag k="name" v="Nørdre Fetjo" />
		<tag k="place" v="farm" />
		<tag k="ssr:stedsnr" v="467924" />
	</node>
	<node lat="60.89339165339963" lon="8.326969410612811" id="-32071">
		<tag k="alt_name" v="Storeskar Fjellstue" />
		<tag k="historic" v="shieling" />
		<tag k="name" v="Storeskard" />
		<tag k="place" v="isolated_dwelling" />
		<tag k="ssr:stedsnr" v="675581" />
	</node>
	<node lat="60.898152779085045" lon="8.324133334114569" id="-32072">
		<tag k="historic" v="shieling" />
		<tag k="name" v="Sjåstadstølen" />
		<tag k="place" v="isolated_dwelling" />
		<tag k="ssr:stedsnr" v="675583" />
	</node>
	<node lat="60.90102499822606" lon="8.423825007930429" id="-32074">
		<tag k="historic" v="shieling" />
		<tag k="name" v="Resastølen" />
		<tag k="place" v="isolated_dwelling" />
		<tag k="ssr:stedsnr" v="675587" />
	</node>
	<node lat="60.901563892748555" lon="8.30901944244983" id="-32077">
		<tag k="historic" v="shieling" />
		<tag k="name" v="Bakkestølen" />
		<tag k="place" v="isolated_dwelling" />
		<tag k="ssr:stedsnr" v="675638" />
	</node>
	<node lat="60.8722904517804" lon="8.541842345933835" id="-32079">
		<tag k="fixme" v="consider place=hamlet" />
		<tag k="name" v="Haug" />
		<tag k="place" v="farm" />
		<tag k="ssr:stedsnr" v="676134" />
	</node>
	<node lat="60.806236115605095" lon="8.736469444982328" id="-32080">
		<tag k="name" v="Eikregardane" />
		<tag k="place" v="hamlet" />
		<tag k="ssr:stedsnr" v="676226" />
	</node>
	<node lat="60.88717777956723" lon="8.46113611892503" id="-32083">
		<tag k="name" v="Nordre Vøllo" />
		<tag k="place" v="farm" />
		<tag k="ssr:stedsnr" v="676571" />
	</node>
	<node lat="60.88541944195027" lon="8.78954443941109" id="-32085">
		<tag k="historic" v="shieling" />
		<tag k="name" v="Jonsstølane" />
		<tag k="place" v="isolated_dwelling" />
		<tag k="ssr:stedsnr" v="676822" />
	</node>
	<node lat="60.871513889561804" lon="8.425433338727547" id="-32089">
		<tag k="name" v="Søre Lien" />
		<tag k="place" v="farm" />
		<tag k="ssr:stedsnr" v="676926" />
	</node>
	<node lat="60.87755429088509" lon="8.498549346803426" id="-32091">
		<tag k="fixme" v="consider place=hamlet" />
		<tag k="name" v="Hustad" />
		<tag k="place" v="farm" />
		<tag k="ssr:stedsnr" v="477357" />
	</node>
	<node lat="60.859614342155375" lon="8.58599316429392" id="-32092">
		<tag k="name" v="Joleim" />
		<tag k="place" v="hamlet" />
		<tag k="ssr:stedsnr" v="479769" />
	</node>
	<node lat="60.78608055908226" lon="8.680038897825753" id="-32094">
		<tag k="alt_name" v="Nedrestølane" />
		<tag k="name" v="Nedrestølen" />
		<tag k="place" v="locality" />
		<tag k="ssr:stedsnr" v="493011" />
	</node>
	<node lat="60.852202779672126" lon="8.58075276855979" id="-32096">
		<tag k="name" v="Haugen" />
		<tag k="place" v="farm" />
		<tag k="ssr:stedsnr" v="493174" />
	</node>
	<node lat="60.84610832948267" lon="8.575850006568322" id="-32097">
		<tag k="name" v="Snertehaugen" />
		<tag k="place" v="farm" />
		<tag k="ssr:stedsnr" v="493175" />
	</node>
	<node lat="60.85405278110954" lon="8.782088882528194" id="-32099">
		<tag k="alt_name" v="Urdene" />
		<tag k="name" v="Urdin" />
		<tag k="place" v="hamlet" />
		<tag k="ssr:stedsnr" v="493184" />
	</node>
	<node lat="60.842410848841645" lon="8.585153802668506" id="-32101">
		<tag k="name" v="Teigen" />
		<tag k="place" v="farm" />
		<tag k="ssr:stedsnr" v="493186" />
	</node>
	<node lat="60.844150760996435" lon="8.631438840905911" id="-32102">
		<tag k="alt_name" v="Halbjørhus" />
		<tag k="fixme" v="consider place=hamlet" />
		<tag k="name" v="Hallbjørhus" />
		<tag k="place" v="farm" />
		<tag k="ssr:stedsnr" v="493189" />
	</node>
	<node lat="60.89835555885049" lon="8.262352771765986" id="-32104">
		<tag k="historic" v="shieling" />
		<tag k="name" v="Støytestølen" />
		<tag k="place" v="isolated_dwelling" />
		<tag k="ssr:stedsnr" v="493614" />
	</node>
	<node lat="60.86807500100775" lon="8.366786112981003" id="-32106">
		<tag k="historic" v="shieling" />
		<tag k="name" v="Hjelmen" />
		<tag k="place" v="isolated_dwelling" />
		<tag k="ssr:stedsnr" v="493935" />
	</node>
	<node lat="60.87018611522006" lon="8.718700003958563" id="-32109">
		<tag k="historic" v="shieling" />
		<tag k="name" v="Nedrestølen" />
		<tag k="place" v="isolated_dwelling" />
		<tag k="ssr:stedsnr" v="494125" />
	</node>
	<node lat="60.825698621705996" lon="8.780075411774314" id="-32110">
		<tag k="historic" v="shieling" />
		<tag k="name" v="Heggeruste" />
		<tag k="place" v="isolated_dwelling" />
		<tag k="ssr:stedsnr" v="494185" />
	</node>
	<node lat="60.88795833604588" lon="8.869830553477733" id="-32114">
		<tag k="historic" v="shieling" />
		<tag k="name" v="Nystølen" />
		<tag k="place" v="isolated_dwelling" />
		<tag k="ssr:stedsnr" v="494405" />
	</node>
	<node lat="60.9530472262728" lon="8.291441664593812" id="-32116">
		<tag k="historic" v="shieling" />
		<tag k="name" v="Bulie" />
		<tag k="old_name" v="Bulia" />
		<tag k="place" v="isolated_dwelling" />
		<tag k="ssr:stedsnr" v="494482" />
	</node>
	<node lat="60.87936117156601" lon="8.485145651726787" id="-32117">
		<tag k="name" v="Tuv" />
		<tag k="place" v="village" />
		<tag k="ssr:stedsnr" v="494803" />
	</node>
	<node lat="60.85650277679439" lon="8.55505277395524" id="-32121">
		<tag k="name" v="Skeieøygarden" />
		<tag k="place" v="farm" />
		<tag k="ssr:stedsnr" v="517104" />
	</node>
	<node lat="60.84772134919413" lon="8.5553428320068" id="-32123">
		<tag k="historic" v="shieling" />
		<tag k="name" v="Martestølen" />
		<tag k="place" v="isolated_dwelling" />
		<tag k="ssr:stedsnr" v="517107" />
	</node>
	<node lat="60.86378333410784" lon="8.561036110933788" id="-32124">
		<tag k="alt_name" v="Trøim" />
		<tag k="name" v="Trøym" />
		<tag k="place" v="farm" />
		<tag k="ssr:stedsnr" v="517109" />
	</node>
	<node lat="60.959691256069995" lon="8.35664188150716" id="-32128">
		<tag k="historic" v="shieling" />
		<tag k="name" v="Klypestølen" />
		<tag k="place" v="isolated_dwelling" />
		<tag k="ssr:stedsnr" v="517284" />
	</node>
	<node lat="60.844169440100494" lon="8.62373888141932" id="-32130">
		<tag k="name" v="Søre Grøv" />
		<tag k="place" v="farm" />
		<tag k="ssr:stedsnr" v="517522" />
	</node>
	<node lat="60.87143888468673" lon="8.41882221398607" id="-32132">
		<tag k="name" v="Presthaugen" />
		<tag k="place" v="isolated_dwelling" />
		<tag k="ssr:stedsnr" v="517764" />
	</node>
	<node lat="60.85418888622221" lon="8.574505552886576" id="-32134">
		<tag k="name" v="Skruvedokk" />
		<tag k="place" v="isolated_dwelling" />
		<tag k="ssr:stedsnr" v="517922" />
	</node>
	<node lat="60.840068561221614" lon="8.59574352364363" id="-32136">
		<tag k="name" v="Mellom-Torset" />
		<tag k="place" v="farm" />
		<tag k="ssr:stedsnr" v="517984" />
	</node>
	<node lat="60.88163055776023" lon="8.829536101924676" id="-32140">
		<tag k="name" v="Veslestølen" />
		<tag k="place" v="farm" />
		<tag k="ssr:stedsnr" v="518767" />
	</node>
	<node lat="60.84273333550054" lon="8.76665000538591" id="-32146">
		<tag k="alt_name" v="Dokki seter" />
		<tag k="historic" v="shieling" />
		<tag k="name" v="Dokki" />
		<tag k="place" v="isolated_dwelling" />
		<tag k="ssr:stedsnr" v="554200" />
	</node>
	<node lat="60.82664166274273" lon="8.683313890963714" id="-32147">
		<tag k="alt_name" v="Bakken" />
		<tag k="name" v="Bakko" />
		<tag k="place" v="farm" />
		<tag k="ssr:stedsnr" v="554229" />
	</node>
	<node lat="60.984555551547345" lon="8.355236111182741" id="-32152">
		<tag k="historic" v="shieling" />
		<tag k="name" v="Trøymstølen" />
		<tag k="place" v="isolated_dwelling" />
		<tag k="ssr:stedsnr" v="554594" />
	</node>
	<node lat="60.88280555200623" lon="8.859580561328258" id="-32155">
		<tag k="name" v="Engebretgarden" />
		<tag k="place" v="farm" />
		<tag k="ssr:stedsnr" v="555377" />
	</node>
	<node lat="60.92460000015706" lon="8.430711108180319" id="-32157">
		<tag k="name" v="Mellomdokken" />
		<tag k="place" v="locality" />
		<tag k="ssr:stedsnr" v="578556" />
	</node>
	<node lat="60.8726805527698" lon="8.831155560166708" id="-32160">
		<tag k="alt_name" v="Søndre Bubakken" />
		<tag k="name" v="Søre Bubakken" />
		<tag k="place" v="isolated_dwelling" />
		<tag k="ssr:stedsnr" v="578602" />
	</node>
	<node lat="60.86472221782725" lon="8.686849994642778" id="-32161">
		<tag k="historic" v="shieling" />
		<tag k="name" v="Vebjørnstølen" />
		<tag k="place" v="isolated_dwelling" />
		<tag k="ssr:stedsnr" v="578706" />
	</node>
	<node lat="60.855299414599266" lon="8.783178449051318" id="-32165">
		<tag k="historic" v="shieling" />
		<tag k="name" v="Skoltevollen" />
		<tag k="place" v="isolated_dwelling" />
		<tag k="ssr:stedsnr" v="578713" />
	</node>
	<node lat="60.8575805596972" lon="8.561608334747284" id="-32167">
		<tag k="name" v="Fiskum" />
		<tag k="place" v="farm" />
		<tag k="ssr:stedsnr" v="578920" />
	</node>
	<node lat="60.86505676199468" lon="8.568427825766827" id="-32168">
		<tag k="name" v="Bergerud" />
		<tag k="place" v="locality" />
		<tag k="ssr:stedsnr" v="578921" />
	</node>
	<node lat="60.8737138862119" lon="8.495441672227406" id="-32169">
		<tag k="name" v="Strand" />
		<tag k="place" v="farm" />
		<tag k="ssr:stedsnr" v="578951" />
	</node>
	<node lat="60.867900003208945" lon="8.673572223818997" id="-32172">
		<tag k="historic" v="shieling" />
		<tag k="name" v="Hensrudstølen" />
		<tag k="place" v="isolated_dwelling" />
		<tag k="ssr:stedsnr" v="578825" />
	</node>
	<node lat="60.931130199850514" lon="8.420767621245975" id="-32177">
		<tag k="name" v="Sygarden" />
		<tag k="place" v="farm" />
		<tag k="ssr:stedsnr" v="699392" />
	</node>
	<node lat="60.88186111531036" lon="8.485655551126387" id="-32180">
		<tag k="name" v="Nedre Bakke" />
		<tag k="place" v="farm" />
		<tag k="ssr:stedsnr" v="699806" />
	</node>
	<node lat="60.99348888942373" lon="8.327230562821251" id="-32183">
		<tag k="historic" v="shieling" />
		<tag k="name" v="Søteli" />
		<tag k="place" v="isolated_dwelling" />
		<tag k="ssr:stedsnr" v="700283" />
	</node>
	<node lat="60.88333055539852" lon="8.760186117666752" id="-32188">
		<tag k="historic" v="shieling" />
		<tag k="name" v="Steinstølen" />
		<tag k="place" v="isolated_dwelling" />
		<tag k="ssr:stedsnr" v="700800" />
	</node>
	<node lat="60.83968332939943" lon="8.52552500353083" id="-32190">
		<tag k="aerialway" v="drag_lift" />
		<tag k="fixme" v="consider the other aerialway types" />
		<tag k="name" v="Totten II-Heisen" />
		<tag k="ssr:stedsnr" v="700899" />
	</node>
	<node lat="60.789599996716376" lon="8.646725005443125" id="-32194">
		<tag k="historic" v="shieling" />
		<tag k="name" v="Leinestølane" />
		<tag k="place" v="isolated_dwelling" />
		<tag k="ssr:stedsnr" v="614002" />
	</node>
	<node lat="60.9050083330006" lon="8.425199996114745" id="-32195">
		<tag k="historic" v="shieling" />
		<tag k="name" v="Bjørnebergstølen" />
		<tag k="place" v="isolated_dwelling" />
		<tag k="ssr:stedsnr" v="614620" />
	</node>
	<node lat="60.79224999894171" lon="8.660027772305812" id="-32198">
		<tag k="historic" v="shieling" />
		<tag k="name" v="Gjuvestølane" />
		<tag k="place" v="isolated_dwelling" />
		<tag k="ssr:stedsnr" v="615013" />
	</node>
	<node lat="60.815030557219465" lon="8.719775000640462" id="-32200">
		<tag k="name" v="Slette" />
		<tag k="place" v="farm" />
		<tag k="ssr:stedsnr" v="615208" />
	</node>
	<node lat="60.8090444446221" lon="8.727852778029588" id="-32201">
		<tag k="name" v="Dalo" />
		<tag k="place" v="farm" />
		<tag k="ssr:stedsnr" v="615215" />
	</node>
	<node lat="60.90520277470775" lon="8.241030563234554" id="-32204">
		<tag k="historic" v="shieling" />
		<tag k="name" v="Persstølane" />
		<tag k="place" v="isolated_dwelling" />
		<tag k="ssr:stedsnr" v="615603" />
	</node>
	<node lat="60.850100001804975" lon="8.616380560226176" id="-32208">
		<tag k="fixme" v="consider place=hamlet" />
		<tag k="name" v="Hemsedal" />
		<tag k="place" v="village" />
		<tag k="ssr:stedsnr" v="630842" />
	</node>
	<node lat="60.85523656730488" lon="8.608028876573593" id="-32209">
		<tag k="name" v="Søre Grøte" />
		<tag k="place" v="farm" />
		<tag k="ssr:stedsnr" v="638035" />
	</node>
	<node lat="60.840920533013275" lon="8.652343167912948" id="-32211">
		<tag k="name" v="Nørdre Markegard" />
		<tag k="place" v="farm" />
		<tag k="ssr:stedsnr" v="638475" />
	</node>
	<node lat="60.83586666367241" lon="8.652638889832403" id="-32212">
		<tag k="name" v="Langehaug" />
		<tag k="place" v="farm" />
		<tag k="ssr:stedsnr" v="638613" />
	</node>
	<node lat="60.83849693499794" lon="8.596642125434444" id="-32220">
		<tag k="name" v="Nedre Torset" />
		<tag k="place" v="farm" />
		<tag k="ssr:stedsnr" v="638974" />
	</node>
	<node lat="60.843835257822306" lon="8.586477635038428" id="-32221">
		<tag k="name" v="Jordet" />
		<tag k="place" v="farm" />
		<tag k="ssr:stedsnr" v="638983" />
	</node>
	<node lat="60.83679633179293" lon="8.605534803663662" id="-32222">
		<tag k="name" v="Haugen" />
		<tag k="place" v="farm" />
		<tag k="ssr:stedsnr" v="638999" />
	</node>
	<node lat="60.88996111123499" lon="8.806638897911544" id="-32226">
		<tag k="historic" v="shieling" />
		<tag k="name" v="Bakkestølen" />
		<tag k="place" v="isolated_dwelling" />
		<tag k="ssr:stedsnr" v="639305" />
	</node>
	<node lat="60.80463611347015" lon="8.748783328442485" id="-32230">
		<tag k="name" v="Søre Eikre" />
		<tag k="place" v="farm" />
		<tag k="ssr:stedsnr" v="639530" />
	</node>
	<node lat="60.88230277833044" lon="8.778366675273075" id="-32232">
		<tag k="historic" v="shieling" />
		<tag k="name" v="Slettostølen" />
		<tag k="place" v="isolated_dwelling" />
		<tag k="ssr:stedsnr" v="639811" />
	</node>
	<node lat="60.8434600005275" lon="8.634780279190501" id="-32234">
		<tag k="alt_name" v="Intilhus;Intelhus" />
		<tag k="fixme" v="consider place=hamlet" />
		<tag k="name" v="Inntilhus" />
		<tag k="place" v="farm" />
		<tag k="ssr:stedsnr" v="647681" />
	</node>
	<node lat="60.860393382042126" lon="8.589181750802343" id="-32237">
		<tag k="name" v="Vesle Joleim" />
		<tag k="place" v="farm" />
		<tag k="ssr:stedsnr" v="675165" />
	</node>
	<node lat="60.950003941897286" lon="8.338761925919444" id="-32244">
		<tag k="historic" v="shieling" />
		<tag k="name" v="Krossleino" />
		<tag k="place" v="isolated_dwelling" />
		<tag k="ssr:stedsnr" v="676536" />
	</node>
	<node lat="60.950336112076954" lon="8.375477772521526" id="-32245">
		<tag k="historic" v="shieling" />
		<tag k="name" v="Enden" />
		<tag k="place" v="isolated_dwelling" />
		<tag k="ssr:stedsnr" v="676541" />
	</node>
	<node lat="60.87807777374458" lon="8.354941658894669" id="-32246">
		<tag k="historic" v="shieling" />
		<tag k="name" v="Øygardstølen" />
		<tag k="place" v="isolated_dwelling" />
		<tag k="ssr:stedsnr" v="676589" />
	</node>
	<node lat="60.8749972184095" lon="8.359511103728163" id="-32247">
		<tag k="historic" v="shieling" />
		<tag k="name" v="Grimsgardstølen" />
		<tag k="place" v="isolated_dwelling" />
		<tag k="ssr:stedsnr" v="676590" />
	</node>
	<node lat="60.87510277643776" lon="8.36315555494854" id="-32248">
		<tag k="historic" v="shieling" />
		<tag k="name" v="Husestølen" />
		<tag k="place" v="isolated_dwelling" />
		<tag k="ssr:stedsnr" v="676592" />
	</node>
	<node lat="60.875225003085816" lon="8.720677773359359" id="-32249">
		<tag k="historic" v="shieling" />
		<tag k="name" v="Høgestølen" />
		<tag k="place" v="isolated_dwelling" />
		<tag k="ssr:stedsnr" v="676804" />
	</node>
	<node lat="60.87868889264099" lon="8.494755556015575" id="-32250">
		<tag k="name" v="Rese" />
		<tag k="place" v="farm" />
		<tag k="ssr:stedsnr" v="676813" />
	</node>
	<node lat="60.876018761609664" lon="8.524976349712333" id="-32251">
		<tag k="fixme" v="consider place=hamlet" />
		<tag k="name" v="Finnset" />
		<tag k="place" v="farm" />
		<tag k="ssr:stedsnr" v="676817" />
	</node>
	<node lat="60.83044166529089" lon="8.392727777355207" id="-32252">
		<tag k="name" v="Flævassdammen" />
		<tag k="place" v="isolated_dwelling" />
		<tag k="ssr:stedsnr" v="676914" />
	</node>
	<node lat="60.84059166564629" lon="8.451191661775214" id="-32253">
		<tag k="alt_name" v="Hollestølen, nordre" />
		<tag k="historic" v="shieling" />
		<tag k="name" v="Nordrestølen" />
		<tag k="place" v="isolated_dwelling" />
		<tag k="ssr:stedsnr" v="676919" />
	</node>
	<node lat="60.870558330747556" lon="8.354047213533343" id="-32255">
		<tag k="historic" v="shieling" />
		<tag k="name" v="Nystølen" />
		<tag k="place" v="isolated_dwelling" />
		<tag k="ssr:stedsnr" v="699174" />
	</node>
	<node lat="60.94934378116446" lon="8.330088286844775" id="-32256">
		<tag k="historic" v="shieling" />
		<tag k="name" v="Rustehaugstølen" />
		<tag k="place" v="isolated_dwelling" />
		<tag k="ssr:stedsnr" v="699283" />
	</node>
	<node lat="60.8851361150188" lon="8.409258332044764" id="-32258">
		<tag k="name" v="Fagerset sameie" />
		<tag k="place" v="locality" />
		<tag k="ssr:stedsnr" v="699769" />
	</node>
	<node lat="60.848819442744436" lon="8.506600003482902" id="-32259">
		<tag k="landuse" v="winter_sports" />
		<tag k="name" v="Hamarløypa" />
		<tag k="piste:type" v="downhill" />
		<tag k="ssr:stedsnr" v="700009" />
	</node>
	<node lat="60.88324641612633" lon="8.826056634245647" id="-32262">
		<tag k="name" v="Lykkjaheim" />
		<tag k="place" v="farm" />
		<tag k="ssr:stedsnr" v="700623" />
	</node>
	<node lat="60.84810833051766" lon="8.753061106978127" id="-32270">
		<tag k="historic" v="shieling" />
		<tag k="name" v="Grytestølane" />
		<tag k="place" v="isolated_dwelling" />
		<tag k="ssr:stedsnr" v="736181" />
	</node>
	<node lat="60.836953330149385" lon="8.600900713406933" id="-32271">
		<tag k="alt_name" v="Rydningen" />
		<tag k="name" v="Rudningen" />
		<tag k="place" v="farm" />
		<tag k="ssr:stedsnr" v="736215" />
	</node>
	<node lat="60.869572226345106" lon="8.369619444077584" id="-32275">
		<tag k="historic" v="shieling" />
		<tag k="name" v="Dokk" />
		<tag k="place" v="isolated_dwelling" />
		<tag k="ssr:stedsnr" v="736924" />
	</node>
	<node lat="60.87535000045453" lon="8.55469166860807" id="-32279">
		<tag k="historic" v="shieling" />
		<tag k="name" v="Kyrkjebøstølane" />
		<tag k="place" v="isolated_dwelling" />
		<tag k="ssr:stedsnr" v="737816" />
	</node>
	<node lat="60.877325000199015" lon="8.498663896335202" id="-32280">
		<tag k="name" v="Søre Hustad" />
		<tag k="place" v="farm" />
		<tag k="ssr:stedsnr" v="737823" />
	</node>
	<node lat="60.95544444362103" lon="8.29367777191644" id="-32287">
		<tag k="historic" v="shieling" />
		<tag k="name" v="Træesstølen" />
		<tag k="place" v="isolated_dwelling" />
		<tag k="ssr:stedsnr" v="760254" />
	</node>
	<node lat="60.862673164618656" lon="8.520779267037456" id="-32292">
		<tag k="name" v="Haugen" />
		<tag k="place" v="farm" />
		<tag k="ssr:stedsnr" v="760117" />
	</node>
	<node lat="60.89381002577545" lon="8.320002689470277" id="-32293">
		<tag k="alt_name" v="Vestre Storeskar" />
		<tag k="name" v="Vestre Storeskard" />
		<tag k="place" v="farm" />
		<tag k="ssr:stedsnr" v="760196" />
	</node>
	<node lat="60.88274721978619" lon="8.831477776528718" id="-32297">
		<tag k="name" v="Jorde" />
		<tag k="place" v="farm" />
		<tag k="ssr:stedsnr" v="760614" />
	</node>
	<node lat="60.882669442376844" lon="8.75988333143324" id="-32303">
		<tag k="historic" v="shieling" />
		<tag k="name" v="Nedrestølen" />
		<tag k="place" v="isolated_dwelling" />
		<tag k="ssr:stedsnr" v="760794" />
	</node>
	<node lat="60.883008335679904" lon="8.487997218257433" id="-32304">
		<tag k="alt_name" v="Nordre Brandvoll" />
		<tag k="name" v="Nordre Brandvol" />
		<tag k="place" v="farm" />
		<tag k="ssr:stedsnr" v="760909" />
	</node>
	<node lat="60.83305001725131" lon="8.606932325777377" id="-32305">
		<tag k="name" v="Nilsehaugstronde" />
		<tag k="place" v="farm" />
		<tag k="ssr:stedsnr" v="760958" />
	</node>
	<node lat="60.87798611305884" lon="8.483874991424003" id="-32306">
		<tag k="amenity" v="school" />
		<tag k="name" v="Skule" />
		<tag k="ssr:stedsnr" v="760701" />
	</node>
	<node lat="60.861691668548715" lon="8.575250003492668" id="-32307">
		<tag k="name" v="Evang" />
		<tag k="place" v="farm" />
		<tag k="ssr:stedsnr" v="760898" />
	</node>
	<node lat="60.83870600447029" lon="8.60509504761915" id="-32308">
		<tag k="name" v="Skarstad" />
		<tag k="place" v="farm" />
		<tag k="ssr:stedsnr" v="760991" />
	</node>
	<node lat="60.888783335427796" lon="8.813124994754673" id="-32309">
		<tag k="historic" v="shieling" />
		<tag k="name" v="Grøvergardstølen" />
		<tag k="place" v="isolated_dwelling" />
		<tag k="ssr:stedsnr" v="761503" />
	</node>
	<node lat="60.84672500211618" lon="8.580224997077318" id="-32311">
		<tag k="name" v="Åsen" />
		<tag k="place" v="farm" />
		<tag k="ssr:stedsnr" v="797162" />
	</node>
	<node lat="60.8498000037275" lon="8.782752773910325" id="-32312">
		<tag k="historic" v="shieling" />
		<tag k="name" v="Hovdestølen" />
		<tag k="place" v="isolated_dwelling" />
		<tag k="ssr:stedsnr" v="797174" />
	</node>
	<node lat="60.81308333469052" lon="8.641922217932157" id="-32316">
		<tag k="name" v="Langeset" />
		<tag k="place" v="isolated_dwelling" />
		<tag k="ssr:stedsnr" v="797222" />
	</node>
	<node lat="60.955119440737505" lon="8.372688892194699" id="-32318">
		<tag k="alt_name" v="Torsbue" />
		<tag k="historic" v="shieling" />
		<tag k="name" v="Torsbu" />
		<tag k="place" v="isolated_dwelling" />
		<tag k="ssr:stedsnr" v="797506" />
	</node>
	<node lat="60.94858189547092" lon="8.376810074092749" id="-32320">
		<tag k="name" v="Sletto" />
		<tag k="place" v="farm" />
		<tag k="ssr:stedsnr" v="797532" />
	</node>
	<node lat="60.88056666946472" lon="8.34055277241875" id="-32321">
		<tag k="alt_name" v="Kvelvestølane" />
		<tag k="historic" v="shieling" />
		<tag k="name" v="Kvelve" />
		<tag k="place" v="isolated_dwelling" />
		<tag k="ssr:stedsnr" v="797601" />
	</node>
	<node lat="60.91383055386452" lon="8.675924992595435" id="-32322">
		<tag k="historic" v="shieling" />
		<tag k="name" v="Kvannegrøstølen" />
		<tag k="place" v="isolated_dwelling" />
		<tag k="ssr:stedsnr" v="797854" />
	</node>
	<node lat="60.86334999804318" lon="8.55210556420644" id="-32327">
		<tag k="name" v="Skogstad" />
		<tag k="ssr:stedsnr" v="918150" />
		<tag k="tourism" v="hotel" />
	</node>
	<node lat="60.84853333674753" lon="8.76108610443576" id="-32328">
		<tag k="historic" v="shieling" />
		<tag k="name" v="Skoltevollen" />
		<tag k="place" v="isolated_dwelling" />
		<tag k="ssr:stedsnr" v="918183" />
	</node>
	<node lat="60.842785761657545" lon="8.640378361860071" id="-32330">
		<tag k="alt_name" v="Grøv" />
		<tag k="fixme" v="consider place=hamlet" />
		<tag k="name" v="Grov" />
		<tag k="place" v="farm" />
		<tag k="ssr:stedsnr" v="918198" />
	</node>
	<node lat="60.81818333349621" lon="8.663633340137515" id="-32340">
		<tag k="historic" v="shieling" />
		<tag k="name" v="Mørk" />
		<tag k="place" v="isolated_dwelling" />
		<tag k="ssr:stedsnr" v="919218" />
	</node>
	<node lat="60.808852781015965" lon="8.73150000704086" id="-32341">
		<tag k="name" v="Hagen" />
		<tag k="place" v="farm" />
		<tag k="ssr:stedsnr" v="919226" />
	</node>
	<node lat="60.80075833271068" lon="8.497380553059893" id="-32342">
		<tag k="historic" v="shieling" />
		<tag k="name" v="Hjallestølen" />
		<tag k="place" v="isolated_dwelling" />
		<tag k="ssr:stedsnr" v="919233" />
	</node>
	<node lat="60.94589999669254" lon="8.44479722918403" id="-32346">
		<tag k="name" v="Oset" />
		<tag k="place" v="isolated_dwelling" />
		<tag k="ssr:stedsnr" v="919525" />
	</node>
	<node lat="60.94973055292447" lon="8.35342499914744" id="-32348">
		<tag k="alt_name" v="Fekjastølen" />
		<tag k="historic" v="shieling" />
		<tag k="name" v="Fetjastølen" />
		<tag k="place" v="isolated_dwelling" />
		<tag k="ssr:stedsnr" v="919536" />
	</node>
	<node lat="60.969625003150064" lon="8.6213999937577" id="-32351">
		<tag k="name" v="Vadbakkane" />
		<tag k="place" v="locality" />
		<tag k="ssr:stedsnr" v="919737" />
	</node>
	<node lat="60.848819442744436" lon="8.506600003482902" id="-32356">
		<tag k="landuse" v="winter_sports" />
		<tag k="name" v="Tottenløypa" />
		<tag k="piste:type" v="downhill" />
		<tag k="ssr:stedsnr" v="821007" />
	</node>
	<node lat="60.962591670655236" lon="8.351233340664315" id="-32361">
		<tag k="historic" v="shieling" />
		<tag k="name" v="Stakkestøstølen" />
		<tag k="place" v="isolated_dwelling" />
		<tag k="ssr:stedsnr" v="821303" />
	</node>
	<node lat="60.88728055650226" lon="8.833750008057322" id="-32362">
		<tag k="historic" v="shieling" />
		<tag k="name" v="Bergstølslåtta" />
		<tag k="place" v="isolated_dwelling" />
		<tag k="ssr:stedsnr" v="821271" />
	</node>
	<node lat="60.88784721936941" lon="8.802966670079662" id="-32363">
		<tag k="historic" v="shieling" />
		<tag k="name" v="Engstølen" />
		<tag k="place" v="isolated_dwelling" />
		<tag k="ssr:stedsnr" v="821274" />
	</node>
	<node lat="60.94799014500601" lon="8.33244643100373" id="-32364">
		<tag k="historic" v="shieling" />
		<tag k="name" v="Rustostølen" />
		<tag k="place" v="isolated_dwelling" />
		<tag k="ssr:stedsnr" v="821285" />
	</node>
	<node lat="60.94236265867336" lon="8.390329995298334" id="-32365">
		<tag k="name" v="Nordre Hjelmen" />
		<tag k="place" v="farm" />
		<tag k="ssr:stedsnr" v="821409" />
	</node>
	<node lat="60.84267911664312" lon="8.642150957477902" id="-32366">
		<tag k="name" v="Mellom-Grøv" />
		<tag k="place" v="farm" />
		<tag k="ssr:stedsnr" v="821510" />
	</node>
	<node lat="60.8202416701712" lon="8.706891667040367" id="-32370">
		<tag k="name" v="Øvre Ålrust" />
		<tag k="place" v="farm" />
		<tag k="ssr:stedsnr" v="821590" />
	</node>
	<node lat="60.883233331719104" lon="8.476544450441898" id="-32371">
		<tag k="name" v="Bekkestad" />
		<tag k="place" v="farm" />
		<tag k="ssr:stedsnr" v="821714" />
	</node>
	<node lat="60.87871111249259" lon="8.472997219028404" id="-32372">
		<tag k="name" v="Ødegarden" />
		<tag k="place" v="farm" />
		<tag k="ssr:stedsnr" v="821804" />
	</node>
	<node lat="60.87722221968461" lon="8.458044442078137" id="-32374">
		<tag k="name" v="Sletthaug" />
		<tag k="place" v="farm" />
		<tag k="ssr:stedsnr" v="821816" />
	</node>
	<node lat="60.84481388638846" lon="8.585174991860477" id="-32375">
		<tag k="name" v="Jordet" />
		<tag k="place" v="farm" />
		<tag k="ssr:stedsnr" v="821909" />
	</node>
	<node lat="60.83983110602533" lon="8.597989515941498" id="-32377">
		<tag k="name" v="Søre Torset" />
		<tag k="place" v="farm" />
		<tag k="ssr:stedsnr" v="821973" />
	</node>
	<node lat="60.99678962727093" lon="8.32844404506288" id="-32380">
		<tag k="historic" v="shieling" />
		<tag k="name" v="Nørdre Søtelistølane" />
		<tag k="place" v="isolated_dwelling" />
		<tag k="ssr:stedsnr" v="856735" />
	</node>
	<node lat="60.782475002831646" lon="8.66147500214448" id="-32382">
		<tag k="historic" v="shieling" />
		<tag k="name" v="Øvrestølen" />
		<tag k="place" v="isolated_dwelling" />
		<tag k="ssr:stedsnr" v="858028" />
	</node>
	<node lat="60.83203610669789" lon="8.647955548753426" id="-32383">
		<tag k="name" v="Myte" />
		<tag k="place" v="farm" />
		<tag k="ssr:stedsnr" v="858204" />
	</node>
	<node lat="60.83601501812597" lon="8.633984067781702" id="-32384">
		<tag k="name" v="Hensrud" />
		<tag k="place" v="locality" />
		<tag k="ssr:stedsnr" v="858206" />
	</node>
	<node lat="60.837244196002864" lon="8.76550473058709" id="-32386">
		<tag k="historic" v="shieling" />
		<tag k="name" v="Nystølane" />
		<tag k="place" v="isolated_dwelling" />
		<tag k="ssr:stedsnr" v="858213" />
	</node>
	<node lat="60.84707778095313" lon="8.761424999570384" id="-32387">
		<tag k="historic" v="shieling" />
		<tag k="name" v="Myrevollen" />
		<tag k="place" v="isolated_dwelling" />
		<tag k="ssr:stedsnr" v="858176" />
	</node>
	<node lat="60.83070000049378" lon="8.540063886741729" id="-32388">
		<tag k="name" v="Feten" />
		<tag k="place" v="locality" />
		<tag k="ssr:stedsnr" v="858191" />
	</node>
	<node lat="60.92303611084329" lon="8.438341666332057" id="-32389">
		<tag k="alt_name" v="Dækko" />
		<tag k="name" v="Dekko" />
		<tag k="place" v="farm" />
		<tag k="ssr:stedsnr" v="858603" />
	</node>
	<node lat="60.90690133418447" lon="8.287564854258292" id="-32400">
		<tag k="historic" v="shieling" />
		<tag k="name" v="Sjåheimstølen" />
		<tag k="place" v="isolated_dwelling" />
		<tag k="ssr:stedsnr" v="882162" />
	</node>
	<node lat="60.88068333745909" lon="8.743452779122714" id="-32401">
		<tag k="alt_name" v="Nyseterstølane;Nysetstølane" />
		<tag k="historic" v="shieling" />
		<tag k="name" v="Nyset" />
		<tag k="place" v="isolated_dwelling" />
		<tag k="ssr:stedsnr" v="882305" />
	</node>
	<node lat="60.95479166769668" lon="8.296022221647798" id="-32403">
		<tag k="historic" v="shieling" />
		<tag k="name" v="Grosetstølen" />
		<tag k="place" v="isolated_dwelling" />
		<tag k="ssr:stedsnr" v="882219" />
	</node>
	<node lat="60.88852778031649" lon="8.820066667391403" id="-32404">
		<tag k="historic" v="shieling" />
		<tag k="name" v="Torstølen" />
		<tag k="place" v="isolated_dwelling" />
		<tag k="ssr:stedsnr" v="882248" />
	</node>
	<node lat="60.92049722327978" lon="8.431791664837295" id="-32411">
		<tag k="historic" v="shieling" />
		<tag k="name" v="Slåtta" />
		<tag k="place" v="isolated_dwelling" />
		<tag k="ssr:stedsnr" v="882514" />
	</node>
	<node lat="60.92237500100642" lon="8.428108334172057" id="-32412">
		<tag k="historic" v="shieling" />
		<tag k="name" v="Vårstølen" />
		<tag k="place" v="isolated_dwelling" />
		<tag k="ssr:stedsnr" v="882517" />
	</node>
	<node lat="60.925555559289684" lon="8.409580556341755" id="-32413">
		<tag k="historic" v="shieling" />
		<tag k="name" v="Sørestølen" />
		<tag k="place" v="isolated_dwelling" />
		<tag k="ssr:stedsnr" v="882518" />
	</node>
	<node lat="60.888877775226774" lon="8.458547228948591" id="-32414">
		<tag k="name" v="Brekkheim" />
		<tag k="place" v="farm" />
		<tag k="ssr:stedsnr" v="882555" />
	</node>
	<node lat="60.85358055210089" lon="8.500930552190585" id="-32418">
		<tag k="aerialway" v="drag_lift" />
		<tag k="fixme" v="consider the other aerialway types" />
		<tag k="name" v="Olaheisen" />
		<tag k="ssr:stedsnr" v="882650" />
	</node>
	<node lat="60.849564892478426" lon="8.624012993052247" id="-32419">
		<tag k="name" v="Øvre Ulsåker" />
		<tag k="place" v="farm" />
		<tag k="ssr:stedsnr" v="882652" />
	</node>
	<node lat="60.87818610734055" lon="8.757675004548204" id="-32420">
		<tag k="historic" v="shieling" />
		<tag k="name" v="Mytestølen" />
		<tag k="place" v="isolated_dwelling" />
		<tag k="ssr:stedsnr" v="882653" />
	</node>
	<node lat="60.879850000341" lon="8.486644441596289" id="-32424">
		<tag k="name" v="Nedre Tuv" />
		<tag k="place" v="farm" />
		<tag k="ssr:stedsnr" v="882960" />
	</node>
	<node lat="60.839003933647255" lon="8.609049967897022" id="-32425">
		<tag k="fixme" v="consider place=hamlet" />
		<tag k="name" v="Skar" />
		<tag k="place" v="farm" />
		<tag k="ssr:stedsnr" v="882999" />
	</node>
	<node lat="60.81480555326323" lon="8.748602784216443" id="-32427">
		<tag k="historic" v="shieling" />
		<tag k="name" v="Medgardsheimstølen" />
		<tag k="place" v="isolated_dwelling" />
		<tag k="ssr:stedsnr" v="883560" />
	</node>
	<node lat="60.882558398057874" lon="8.5001635970803" id="-32428">
		<tag k="alt_name" v="Hulebak" />
		<tag k="fixme" v="consider place=hamlet" />
		<tag k="name" v="Hulbak" />
		<tag k="place" v="farm" />
		<tag k="ssr:stedsnr" v="900403" />
	</node>
	<node lat="61.07991666431266" lon="8.2950361197856" id="-32429">
		<tag k="name" v="Fossegrov" />
		<tag k="place" v="isolated_dwelling" />
		<tag k="ssr:stedsnr" v="917608" />
	</node>
	<node lat="60.856574996192876" lon="8.57962778003496" id="-32431">
		<tag k="name" v="Solstad" />
		<tag k="place" v="farm" />
		<tag k="ssr:stedsnr" v="918157" />
	</node>
	<node lat="60.84125555720886" lon="8.768733342473622" id="-32434">
		<tag k="historic" v="shieling" />
		<tag k="name" v="Bekkestølen" />
		<tag k="place" v="isolated_dwelling" />
		<tag k="ssr:stedsnr" v="918212" />
	</node>
	<node lat="60.83761944886125" lon="8.65188056277815" id="-32437">
		<tag k="name" v="Langehaug" />
		<tag k="place" v="farm" />
		<tag k="ssr:stedsnr" v="918225" />
	</node>
	<node lat="60.824049588681994" lon="8.622300551766855" id="-32438">
		<tag k="alt_name" v="Hornet" />
		<tag k="name" v="Horn" />
		<tag k="old_name" v="Horne" />
		<tag k="place" v="farm" />
		<tag k="ssr:stedsnr" v="918232" />
	</node>
	<node lat="60.97966666507426" lon="8.574994442212285" id="-32441">
		<tag k="historic" v="shieling" />
		<tag k="name" v="Hulbakstølen" />
		<tag k="old_name" v="Ulsåkstølen" />
		<tag k="place" v="isolated_dwelling" />
		<tag k="ssr:stedsnr" v="919742" />
	</node>
	<node lat="60.87847500058241" lon="8.80330556248612" id="-32445">
		<tag k="historic" v="shieling" />
		<tag k="name" v="Bubakkstølen" />
		<tag k="place" v="isolated_dwelling" />
		<tag k="ssr:stedsnr" v="919795" />
	</node>
	<node lat="60.84444167036732" lon="8.449769441089416" id="-32446">
		<tag k="name" v="Nybuvollen" />
		<tag k="place" v="isolated_dwelling" />
		<tag k="ssr:stedsnr" v="919899" />
	</node>
	<node lat="60.81879874356009" lon="8.70012757373358" id="-32447">
		<tag k="name" v="Nedre Ålrust" />
		<tag k="place" v="farm" />
		<tag k="ssr:stedsnr" v="980789" />
	</node>
	<node lat="60.849013864275086" lon="8.621919073258146" id="-32448">
		<tag k="name" v="Huso" />
		<tag k="place" v="farm" />
		<tag k="ssr:stedsnr" v="980975" />
	</node>
	<node lat="60.97358878728041" lon="8.525308071516932" id="-32449">
		<tag k="historic" v="shieling" />
		<tag k="name" v="Sørlie" />
		<tag k="place" v="isolated_dwelling" />
		<tag k="ssr:stedsnr" v="980999" />
	</node>
	<node lat="60.87116815176893" lon="8.424286527118468" id="-32453">
		<tag k="name" v="Søre Tjøstelslien" />
		<tag k="place" v="locality" />
		<tag k="ssr:stedsnr" v="981353" />
	</node>
	<node lat="60.84470000262503" lon="8.716105559662175" id="-32454">
		<tag k="alt_name" v="Vanneviken" />
		<tag k="name" v="Vanneviki" />
		<tag k="place" v="farm" />
		<tag k="ssr:stedsnr" v="8200" />
	</node>
	<node lat="60.85080264528728" lon="8.554091763429895" id="-32455">
		<tag k="alt_name" v="Fløgo" />
		<tag k="name" v="Flogo" />
		<tag k="place" v="farm" />
		<tag k="ssr:stedsnr" v="8166" />
	</node>
	<node lat="60.85346389191468" lon="8.680452775874167" id="-32457">
		<tag k="historic" v="shieling" />
		<tag k="name" v="Helsinglie" />
		<tag k="old_name" v="Helsinglia" />
		<tag k="place" v="isolated_dwelling" />
		<tag k="ssr:stedsnr" v="8177" />
	</node>
	<node lat="60.93988722964133" lon="8.393904131614283" id="-32464">
		<tag k="name" v="Søre Hjelmen" />
		<tag k="place" v="farm" />
		<tag k="ssr:stedsnr" v="8547" />
	</node>
	<node lat="60.90420277516489" lon="8.296194447568984" id="-32468">
		<tag k="alt_name" v="Ershovd" />
		<tag k="historic" v="shieling" />
		<tag k="name" v="Ershovdstølane" />
		<tag k="old_name" v="Ershovdstølan" />
		<tag k="place" v="isolated_dwelling" />
		<tag k="ssr:stedsnr" v="8636" />
	</node>
	<node lat="60.838461107495995" lon="8.624983337466315" id="-32478">
		<tag k="name" v="Svøo" />
		<tag k="place" v="quarter" />
		<tag k="ssr:stedsnr" v="24869" />
	</node>
	<node lat="60.86716389312219" lon="8.522694451957815" id="-32480">
		<tag k="name" v="Hollvin" />
		<tag k="place" v="farm" />
		<tag k="ssr:stedsnr" v="32060" />
	</node>
	<node lat="60.906276472713856" lon="8.291342918381737" id="-32483">
		<tag k="historic" v="shieling" />
		<tag k="name" v="Hustadstølen" />
		<tag k="place" v="isolated_dwelling" />
		<tag k="ssr:stedsnr" v="32153" />
	</node>
	<node lat="60.89546401238093" lon="8.311574009878248" id="-32484">
		<tag k="historic" v="shieling" />
		<tag k="name" v="Veslegjerde" />
		<tag k="place" v="isolated_dwelling" />
		<tag k="ssr:stedsnr" v="32156" />
	</node>
	<node lat="60.85008610796939" lon="8.494444452582435" id="-32490">
		<tag k="landuse" v="winter_sports" />
		<tag k="name" v="Veslestølløypa" />
		<tag k="piste:type" v="downhill" />
		<tag k="ssr:stedsnr" v="32702" />
	</node>
	<node lat="60.930661110894285" lon="8.42227222116511" id="-32491">
		<tag k="name" v="Søpågarden" />
		<tag k="place" v="farm" />
		<tag k="ssr:stedsnr" v="32511" />
	</node>
	<node lat="60.879291664326885" lon="8.489569442854615" id="-32499">
		<tag k="name" v="Nordre Viljugrein" />
		<tag k="place" v="farm" />
		<tag k="ssr:stedsnr" v="32928" />
	</node>
	<node lat="60.87307500230901" lon="8.361938882599716" id="-32502">
		<tag k="historic" v="shieling" />
		<tag k="name" v="Fetjo" />
		<tag k="place" v="isolated_dwelling" />
		<tag k="ssr:stedsnr" v="53619" />
	</node>
	<node lat="60.840137896629535" lon="8.653760262886287" id="-32503">
		<tag k="name" v="Søre Markegard" />
		<tag k="old_name" v="Søre Markegardan" />
		<tag k="place" v="farm" />
		<tag k="ssr:stedsnr" v="57143" />
	</node>
	<node lat="61.02669999861712" lon="8.31653888743139" id="-32504">
		<tag k="historic" v="shieling" />
		<tag k="name" v="Kljåstølen" />
		<tag k="place" v="isolated_dwelling" />
		<tag k="ssr:stedsnr" v="67659" />
	</node>
	<node lat="60.92540902767986" lon="8.435007017727289" id="-32507">
		<tag k="name" v="Groset" />
		<tag k="place" v="farm" />
		<tag k="ssr:stedsnr" v="69634" />
	</node>
	<node lat="60.850944447504844" lon="8.479966673524245" id="-32509">
		<tag k="historic" v="shieling" />
		<tag k="name" v="Heimre Holleskardet" />
		<tag k="old_name" v="Holleskardet;Holleskaret;Hølleskardet" />
		<tag k="place" v="isolated_dwelling" />
		<tag k="ssr:stedsnr" v="69166" />
	</node>
	<node lat="60.80832500259451" lon="8.749525002277583" id="-32512">
		<tag k="name" v="Huso" />
		<tag k="place" v="farm" />
		<tag k="ssr:stedsnr" v="69240" />
	</node>
	<node lat="60.88702500204331" lon="8.879158341491014" id="-32517">
		<tag k="historic" v="shieling" />
		<tag k="name" v="Sørevollen" />
		<tag k="place" v="isolated_dwelling" />
		<tag k="ssr:stedsnr" v="70398" />
	</node>
	<node lat="60.91954722424399" lon="8.207174995475114" id="-32518">
		<tag k="historic" v="shieling" />
		<tag k="name" v="Geitastølen" />
		<tag k="place" v="isolated_dwelling" />
		<tag k="ssr:stedsnr" v="69643" />
	</node>
	<node lat="60.92910833379239" lon="8.451111106537653" id="-32520">
		<tag k="historic" v="shieling" />
		<tag k="name" v="Fjellstølane" />
		<tag k="place" v="isolated_dwelling" />
		<tag k="ssr:stedsnr" v="69646" />
	</node>
	<node lat="60.908750003938756" lon="8.437483339277568" id="-32521">
		<tag k="historic" v="shieling" />
		<tag k="name" v="Bergastølen" />
		<tag k="place" v="isolated_dwelling" />
		<tag k="ssr:stedsnr" v="69660" />
	</node>
	<node lat="60.8827527799727" lon="8.49951944746951" id="-32525">
		<tag k="name" v="Søre Hulbak" />
		<tag k="place" v="farm" />
		<tag k="ssr:stedsnr" v="69854" />
	</node>
	<node lat="60.85776307145777" lon="8.600655623688253" id="-32529">
		<tag k="name" v="Nordre Grøte" />
		<tag k="place" v="farm" />
		<tag k="ssr:stedsnr" v="93034" />
	</node>
	<node lat="60.861688884411535" lon="8.570502769449586" id="-32534">
		<tag k="name" v="Nordre Imre" />
		<tag k="place" v="farm" />
		<tag k="ssr:stedsnr" v="93046" />
	</node>
	<node lat="60.86842265424544" lon="8.506915742649783" id="-32537">
		<tag k="fixme" v="consider place=hamlet" />
		<tag k="name" v="Søre Øndredal" />
		<tag k="place" v="farm" />
		<tag k="ssr:stedsnr" v="93151" />
	</node>
	<node lat="60.862750962158884" lon="8.515157739421117" id="-32539">
		<tag k="name" v="Hollemoen" />
		<tag k="place" v="locality" />
		<tag k="ssr:stedsnr" v="93091" />
	</node>
	<node lat="60.92698889220443" lon="8.421991669585518" id="-32543">
		<tag k="name" v="Træesmoen" />
		<tag k="place" v="farm" />
		<tag k="ssr:stedsnr" v="93515" />
	</node>
	<node lat="60.88288333595463" lon="8.814483325239452" id="-32544">
		<tag k="historic" v="shieling" />
		<tag k="name" v="Rustberggardlie" />
		<tag k="place" v="isolated_dwelling" />
		<tag k="ssr:stedsnr" v="93532" />
	</node>
	<node lat="60.902755560077836" lon="8.429133340153534" id="-32545">
		<tag k="name" v="Oddene" />
		<tag k="place" v="locality" />
		<tag k="ssr:stedsnr" v="93537" />
	</node>
	<node lat="60.88306071602511" lon="8.480885438502085" id="-32547">
		<tag k="alt_name" v="Bekkestad" />
		<tag k="name" v="Øvre Bakke" />
		<tag k="place" v="farm" />
		<tag k="ssr:stedsnr" v="93758" />
	</node>
	<node lat="60.86767102715323" lon="8.522579941425224" id="-32552">
		<tag k="fixme" v="consider place=hamlet" />
		<tag k="name" v="Holle" />
		<tag k="place" v="farm" />
		<tag k="ssr:stedsnr" v="103141" />
	</node>
	<node lat="60.83818888614905" lon="8.602238881973463" id="-32554">
		<tag k="name" v="Hagen" />
		<tag k="place" v="farm" />
		<tag k="ssr:stedsnr" v="129196" />
	</node>
	<node lat="60.99092700271001" lon="8.33338066666225" id="-32559">
		<tag k="alt_name" v="Søtelistølane" />
		<tag k="historic" v="shieling" />
		<tag k="name" v="Søre Søtelistølane" />
		<tag k="place" v="isolated_dwelling" />
		<tag k="ssr:stedsnr" v="129553" />
	</node>
	<node lat="60.89596667019296" lon="8.449819442583687" id="-32560">
		<tag k="historic" v="shieling" />
		<tag k="name" v="Teigastølen" />
		<tag k="place" v="isolated_dwelling" />
		<tag k="ssr:stedsnr" v="129565" />
	</node>
	<node lat="60.87268055554997" lon="8.412999996780679" id="-32561">
		<tag k="name" v="Løvehaugen" />
		<tag k="place" v="farm" />
		<tag k="ssr:stedsnr" v="129570" />
	</node>
	<node lat="60.873827774584356" lon="8.402150003438589" id="-32562">
		<tag k="name" v="Huso" />
		<tag k="place" v="farm" />
		<tag k="ssr:stedsnr" v="129571" />
	</node>
	<node lat="60.87901944578698" lon="8.350411111201804" id="-32563">
		<tag k="historic" v="shieling" />
		<tag k="name" v="Liastølen" />
		<tag k="place" v="isolated_dwelling" />
		<tag k="ssr:stedsnr" v="129577" />
	</node>
	<node lat="60.84059722296023" lon="8.453549991237896" id="-32569">
		<tag k="historic" v="shieling" />
		<tag k="name" v="Dokkstølen" />
		<tag k="place" v="isolated_dwelling" />
		<tag k="ssr:stedsnr" v="129919" />
	</node>
	<node lat="60.86461110862722" lon="8.379283339264575" id="-32571">
		<tag k="historic" v="shieling" />
		<tag k="name" v="Skriustølane" />
		<tag k="place" v="isolated_dwelling" />
		<tag k="ssr:stedsnr" v="129935" />
	</node>
	<node lat="60.889902779740105" lon="8.811300004191601" id="-32572">
		<tag k="alt_name" v="Nordre Lykkjestølane" />
		<tag k="historic" v="shieling" />
		<tag k="name" v="Lykkjestølane" />
		<tag k="old_name" v="Lykkjestølann" />
		<tag k="place" v="isolated_dwelling" />
		<tag k="ssr:stedsnr" v="130797" />
	</node>
	<node lat="60.857404570076675" lon="8.602467417206414" id="-32576">
		<tag k="name" v="Nordre Grøte" />
		<tag k="place" v="farm" />
		<tag k="ssr:stedsnr" v="153028" />
	</node>
	<node lat="60.83464047373963" lon="8.593871786416035" id="-32578">
		<tag k="name" v="Hovda" />
		<tag k="place" v="locality" />
		<tag k="ssr:stedsnr" v="153968" />
	</node>
	<node lat="60.95649444013875" lon="8.291052776797942" id="-32582">
		<tag k="historic" v="shieling" />
		<tag k="name" v="Ørjanshaugstølen" />
		<tag k="place" v="isolated_dwelling" />
		<tag k="ssr:stedsnr" v="153246" />
	</node>
	<node lat="60.840897222572565" lon="8.466958331635135" id="-32589">
		<tag k="historic" v="shieling" />
		<tag k="name" v="Sprikevollen" />
		<tag k="place" v="isolated_dwelling" />
		<tag k="ssr:stedsnr" v="153648" />
	</node>
	<node lat="60.877469447195196" lon="8.461486105383841" id="-32592">
		<tag k="name" v="Støyten" />
		<tag k="place" v="farm" />
		<tag k="ssr:stedsnr" v="153839" />
	</node>
	<node lat="60.84707778095313" lon="8.761424999570384" id="-32596">
		<tag k="historic" v="shieling" />
		<tag k="name" v="Bakkevollen" />
		<tag k="place" v="isolated_dwelling" />
		<tag k="ssr:stedsnr" v="154781" />
	</node>
	<node lat="60.88255000402744" lon="8.488530550248317" id="-32597">
		<tag k="alt_name" v="Søre Brandvoll" />
		<tag k="name" v="Søre Brandvol" />
		<tag k="place" v="farm" />
		<tag k="ssr:stedsnr" v="161895" />
	</node>
	<node lat="60.86638611066365" lon="8.52035555980575" id="-32598">
		<tag k="name" v="Nørdre Holle" />
		<tag k="place" v="farm" />
		<tag k="ssr:stedsnr" v="163942" />
	</node>
	<node lat="60.77847499626292" lon="8.636305561565205" id="-32606">
		<tag k="historic" v="shieling" />
		<tag k="name" v="Skarsvollen" />
		<tag k="place" v="isolated_dwelling" />
		<tag k="ssr:stedsnr" v="190034" />
	</node>
	<node lat="60.83842778227786" lon="8.606949998772569" id="-32607">
		<tag k="alt_name" v="Skard" />
		<tag k="name" v="Nordre Skar" />
		<tag k="place" v="farm" />
		<tag k="ssr:stedsnr" v="190188" />
	</node>
	<node lat="60.841874997409874" lon="8.651216675515746" id="-32608">
		<tag k="name" v="Rundtopp" />
		<tag k="place" v="farm" />
		<tag k="ssr:stedsnr" v="190196" />
	</node>
	<node lat="60.869373562502474" lon="8.50453654958111" id="-32611">
		<tag k="name" v="Nedre Ødegården" />
		<tag k="place" v="farm" />
		<tag k="ssr:stedsnr" v="191098" />
	</node>
	<node lat="60.87900278134359" lon="8.774055557015817" id="-32617">
		<tag k="alt_name" v="Jodokstølen" />
		<tag k="historic" v="shieling" />
		<tag k="name" v="Jodokkstølen" />
		<tag k="place" v="isolated_dwelling" />
		<tag k="ssr:stedsnr" v="191778" />
	</node>
	<node lat="60.84990277998052" lon="8.618869443277715" id="-32619">
		<tag k="name" v="Teigen" />
		<tag k="place" v="farm" />
		<tag k="ssr:stedsnr" v="214038" />
	</node>
	<node lat="60.87607778056925" lon="8.523269435909638" id="-32622">
		<tag k="alt_name" v="Nordre Finset" />
		<tag k="name" v="Nordre Finnset" />
		<tag k="place" v="farm" />
		<tag k="ssr:stedsnr" v="214143" />
	</node>
	<node lat="60.7836250023813" lon="8.64835277193609" id="-32624">
		<tag k="historic" v="shieling" />
		<tag k="name" v="Hovdestølen" />
		<tag k="place" v="isolated_dwelling" />
		<tag k="ssr:stedsnr" v="214217" />
	</node>
	<node lat="60.8068194472254" lon="8.730786115015436" id="-32631">
		<tag k="name" v="Fjellstad" />
		<tag k="place" v="farm" />
		<tag k="ssr:stedsnr" v="214464" />
	</node>
	<node lat="60.92924166667948" lon="8.424280561096753" id="-32632">
		<tag k="name" v="Grønheim" />
		<tag k="place" v="farm" />
		<tag k="ssr:stedsnr" v="214534" />
	</node>
	<node lat="60.84470277487702" lon="8.636413892965743" id="-32635">
		<tag k="name" v="Bakko" />
		<tag k="place" v="farm" />
		<tag k="ssr:stedsnr" v="214768" />
	</node>
	<node lat="60.84420529266373" lon="8.63503882407108" id="-32642">
		<tag k="alt_name" v="Intilhus;Intelhus" />
		<tag k="fixme" v="multiple name tags, choose one and add the other to alt_name" />
		<tag k="name" v="Inntilhus;Bakko" />
		<tag k="old_name" v="Bakkann;Inntilhusbakko" />
		<tag k="place" v="farm" />
		<tag k="ssr:stedsnr" v="223194" />
	</node>
	<node lat="60.85234478692354" lon="8.61617555739449" id="-32643">
		<tag k="name" v="Nedre Ulsåker" />
		<tag k="place" v="farm" />
		<tag k="ssr:stedsnr" v="275039" />
	</node>
	<node lat="60.86814166588882" lon="8.534022214001311" id="-32647">
		<tag k="alt_name" v="Søre Fekene;Fekjene;Fekene" />
		<tag k="name" v="Søre Fetjo" />
		<tag k="place" v="farm" />
		<tag k="ssr:stedsnr" v="275151" />
	</node>
	<node lat="60.80823055534966" lon="8.67164443782033" id="-32650">
		<tag k="name" v="Søre Hjelmen" />
		<tag k="place" v="farm" />
		<tag k="ssr:stedsnr" v="275561" />
	</node>
	<node lat="60.86683055540552" lon="8.813624993384684" id="-32651">
		<tag k="historic" v="shieling" />
		<tag k="name" v="Brøtastølen" />
		<tag k="place" v="isolated_dwelling" />
		<tag k="ssr:stedsnr" v="275562" />
	</node>
	<node lat="60.876775004250725" lon="8.73882499555252" id="-32652">
		<tag k="historic" v="shieling" />
		<tag k="name" v="Nilsongårdstølen" />
		<tag k="place" v="isolated_dwelling" />
		<tag k="ssr:stedsnr" v="275635" />
	</node>
	<node lat="60.87546110761382" lon="8.729955556834028" id="-32653">
		<tag k="historic" v="shieling" />
		<tag k="name" v="Imrestølen" />
		<tag k="place" v="isolated_dwelling" />
		<tag k="ssr:stedsnr" v="275636" />
	</node>
	<node lat="60.87335278088474" lon="8.497983340159903" id="-32655">
		<tag k="name" v="Haugo" />
		<tag k="place" v="farm" />
		<tag k="ssr:stedsnr" v="275779" />
	</node>
	<node lat="60.88240555647642" lon="8.478605553381268" id="-32656">
		<tag k="name" v="Steinsrud" />
		<tag k="place" v="farm" />
		<tag k="ssr:stedsnr" v="275801" />
	</node>
	<node lat="60.85133239687074" lon="8.61889101067341" id="-32660">
		<tag k="fixme" v="consider place=hamlet" />
		<tag k="name" v="Ullsåk" />
		<tag k="place" v="farm" />
		<tag k="ssr:stedsnr" v="284253" />
	</node>
	<node lat="60.850672221298815" lon="8.6188027712129" id="-32661">
		<tag k="name" v="Nedre Ulsåker" />
		<tag k="place" v="farm" />
		<tag k="ssr:stedsnr" v="284255" />
	</node>
	<node lat="60.782830555102045" lon="8.64095555666639" id="-32668">
		<tag k="historic" v="shieling" />
		<tag k="name" v="Sireslettane" />
		<tag k="place" v="isolated_dwelling" />
		<tag k="ssr:stedsnr" v="311040" />
	</node>
	<node lat="60.84378888948002" lon="8.586625003564157" id="-32670">
		<tag k="name" v="Jordet" />
		<tag k="place" v="farm" />
		<tag k="ssr:stedsnr" v="311222" />
	</node>
	<node lat="60.9003638850177" lon="8.444386105813843" id="-32673">
		<tag k="historic" v="shieling" />
		<tag k="name" v="Muren" />
		<tag k="place" v="isolated_dwelling" />
		<tag k="ssr:stedsnr" v="311656" />
	</node>
	<node lat="60.83169444291144" lon="8.61359166201022" id="-32674">
		<tag k="alt_name" v="Skarstølen" />
		<tag k="name" v="Skardstølen" />
		<tag k="place" v="locality" />
		<tag k="ssr:stedsnr" v="312193" />
	</node>
	<node lat="60.96665833062224" lon="8.356172225076044" id="-32675">
		<tag k="name" v="Klanten" />
		<tag k="place" v="isolated_dwelling" />
		<tag k="ssr:stedsnr" v="312508" />
	</node>
	<node lat="60.93160833447897" lon="8.209958330709298" id="-32676">
		<tag k="historic" v="shieling" />
		<tag k="name" v="Stølsstølen" />
		<tag k="place" v="isolated_dwelling" />
		<tag k="ssr:stedsnr" v="312525" />
	</node>
	<node lat="60.882030557736485" lon="8.740005556248024" id="-32679">
		<tag k="historic" v="shieling" />
		<tag k="name" v="Nygardsstølen" />
		<tag k="place" v="isolated_dwelling" />
		<tag k="ssr:stedsnr" v="312790" />
	</node>
	<node lat="60.880658617322695" lon="8.483294663986092" id="-32680">
		<tag k="alt_name" v="Fauske" />
		<tag k="fixme" v="consider place=hamlet" />
		<tag k="name" v="Fausko" />
		<tag k="place" v="farm" />
		<tag k="ssr:stedsnr" v="312794" />
	</node>
	<node lat="60.88067476980393" lon="8.487018707492696" id="-32681">
		<tag k="alt_name" v="Øvre Tuv" />
		<tag k="fixme" v="consider place=hamlet" />
		<tag k="name" v="Tuv" />
		<tag k="place" v="farm" />
		<tag k="ssr:stedsnr" v="312795" />
	</node>
	<node lat="60.887855552925494" lon="8.87249167130501" id="-32682">
		<tag k="alt_name" v="Robølesætri" />
		<tag k="name" v="Robøle" />
		<tag k="place" v="locality" />
		<tag k="ssr:stedsnr" v="313410" />
	</node>
	<node lat="61.026933335876045" lon="8.315605558351267" id="-32683">
		<tag k="fixme" v="consider tourism=alpine_hut or tourism=chalet" />
		<tag k="name" v="Kljåen" />
		<tag k="ssr:stedsnr" v="333881" />
		<tag k="tourism" v="wilderness_hut" />
	</node>
	<node lat="60.86866402504387" lon="8.5569752292547" id="-32684">
		<tag k="name" v="Kven" />
		<tag k="place" v="farm" />
		<tag k="ssr:stedsnr" v="335064" />
	</node>
	<node lat="60.87039326133158" lon="8.525287810959181" id="-32685">
		<tag k="name" v="Sprike" />
		<tag k="place" v="farm" />
		<tag k="ssr:stedsnr" v="335157" />
	</node>
	<node lat="60.8456777792104" lon="8.627355548328357" id="-32694">
		<tag k="name" v="Mellom-Løken" />
		<tag k="place" v="farm" />
		<tag k="ssr:stedsnr" v="335764" />
	</node>
	<node lat="60.87622222533846" lon="8.418588896425971" id="-32697">
		<tag k="historic" v="shieling" />
		<tag k="name" v="Eilevstølen" />
		<tag k="place" v="isolated_dwelling" />
		<tag k="ssr:stedsnr" v="335788" />
	</node>
	<node lat="60.782572223875924" lon="8.662736109904772" id="-32703">
		<tag k="historic" v="shieling" />
		<tag k="name" v="Hagavollen" />
		<tag k="place" v="isolated_dwelling" />
		<tag k="ssr:stedsnr" v="336261" />
	</node>
	<node lat="60.8849416631349" lon="8.838636105008563" id="-32708">
		<tag k="name" v="Dekko" />
		<tag k="place" v="locality" />
		<tag k="ssr:stedsnr" v="336566" />
	</node>
	<node lat="60.866758330820176" lon="8.687383328267414" id="-32709">
		<tag k="historic" v="shieling" />
		<tag k="name" v="Bakkovollen" />
		<tag k="place" v="isolated_dwelling" />
		<tag k="ssr:stedsnr" v="336662" />
	</node>
	<node lat="60.86593055388125" lon="8.55887499085467" id="-32712">
		<tag k="alt_name" v="Øvre Trøim" />
		<tag k="name" v="Øvre Trøym" />
		<tag k="place" v="farm" />
		<tag k="ssr:stedsnr" v="360152" />
	</node>
	<node lat="60.839511110577014" lon="8.70689721932195" id="-32715">
		<tag k="name" v="Gravset" />
		<tag k="place" v="isolated_dwelling" />
		<tag k="ssr:stedsnr" v="372195" />
	</node>
	<node lat="60.85917777979939" lon="8.596624999832478" id="-32717">
		<tag k="name" v="Nordhagen" />
		<tag k="place" v="farm" />
		<tag k="ssr:stedsnr" v="372151" />
	</node>
	<node lat="60.811863888173505" lon="8.688855551804831" id="-32718">
		<tag k="alt_name" v="Mørken" />
		<tag k="name" v="Mørki" />
		<tag k="place" v="farm" />
		<tag k="ssr:stedsnr" v="372238" />
	</node>
	<node lat="60.93770555761587" lon="8.39519443967843" id="-32723">
		<tag k="name" v="Stunde" />
		<tag k="place" v="farm" />
		<tag k="ssr:stedsnr" v="372542" />
	</node>
	<node lat="60.87347666291968" lon="8.397564038035535" id="-32725">
		<tag k="fixme" v="consider place=hamlet" />
		<tag k="name" v="Bjørnebergstølen" />
		<tag k="place" v="farm" />
		<tag k="ssr:stedsnr" v="372585" />
	</node>
	<node lat="60.98083960396938" lon="8.56582093139251" id="-32727">
		<tag k="historic" v="shieling" />
		<tag k="name" v="Sør-Hydalen" />
		<tag k="place" v="isolated_dwelling" />
		<tag k="ssr:stedsnr" v="372796" />
	</node>
	<node lat="60.8697555572994" lon="8.437944439179324" id="-32728">
		<tag k="name" v="Bakko" />
		<tag k="place" v="farm" />
		<tag k="ssr:stedsnr" v="372936" />
	</node>
	<node lat="60.869600003268594" lon="8.398155556814322" id="-32729">
		<tag k="name" v="Lio" />
		<tag k="place" v="hamlet" />
		<tag k="ssr:stedsnr" v="372940" />
	</node>
	<node lat="60.88066110786161" lon="8.845050004216263" id="-32730">
		<tag k="name" v="Bergo" />
		<tag k="place" v="farm" />
		<tag k="ssr:stedsnr" v="373436" />
	</node>
	<node lat="60.88232430824856" lon="8.853343004106263" id="-32731">
		<tag k="alt_name" v="Lykkja, s;Søre Løkken" />
		<tag k="name" v="Søre Lykkja" />
		<tag k="place" v="farm" />
		<tag k="ssr:stedsnr" v="373437" />
	</node>
	<node lat="60.86291388944868" lon="8.566461115511611" id="-32733">
		<tag k="name" v="Øvre Bråten" />
		<tag k="place" v="farm" />
		<tag k="ssr:stedsnr" v="396044" />
	</node>
	<node lat="60.888005556317665" lon="8.8401166720229" id="-32735">
		<tag k="alt_name" v="Hovedstølen" />
		<tag k="historic" v="shieling" />
		<tag k="name" v="Hovdestølen" />
		<tag k="place" v="isolated_dwelling" />
		<tag k="ssr:stedsnr" v="396254" />
	</node>
	<node lat="60.90954722462925" lon="8.438375002265355" id="-32740">
		<tag k="historic" v="shieling" />
		<tag k="name" v="Vårstølen" />
		<tag k="place" v="isolated_dwelling" />
		<tag k="ssr:stedsnr" v="396546" />
	</node>
	<node lat="60.883337532131776" lon="8.845357879420622" id="-32742">
		<tag k="alt_name" v="Løkken" />
		<tag k="fixme" v="consider place=hamlet" />
		<tag k="name" v="Lykkja" />
		<tag k="place" v="farm" />
		<tag k="ssr:stedsnr" v="396554" />
	</node>
	<node lat="60.88274721978619" lon="8.831477776528718" id="-32744">
		<tag k="name" v="Veslejordet" />
		<tag k="place" v="farm" />
		<tag k="ssr:stedsnr" v="396561" />
	</node>
	<node lat="60.879275450140874" lon="8.481135672353808" id="-32749">
		<tag k="name" v="Tuvshagen" />
		<tag k="place" v="farm" />
		<tag k="ssr:stedsnr" v="396775" />
	</node>
	<node lat="60.83388774867678" lon="8.60407452757158" id="-32751">
		<tag k="name" v="Nybuslette" />
		<tag k="place" v="farm" />
		<tag k="ssr:stedsnr" v="396953" />
	</node>
	<node lat="60.872854585555224" lon="8.450812821735592" id="-32764">
		<tag k="alt_name" v="Søre Venåsen" />
		<tag k="fixme" v="consider place=hamlet" />
		<tag k="name" v="Venåsen" />
		<tag k="place" v="farm" />
		<tag k="ssr:stedsnr" v="433558" />
	</node>
	<node lat="60.87094012943463" lon="8.550132980154627" id="-32766">
		<tag k="fixme" v="consider place=hamlet" />
		<tag k="name" v="Kyrkjebøen" />
		<tag k="place" v="farm" />
		<tag k="ssr:stedsnr" v="434111" />
	</node>
	<node lat="60.96324444039734" lon="8.361777771909304" id="-32770">
		<tag k="alt_name" v="Megardsstølen" />
		<tag k="historic" v="shieling" />
		<tag k="name" v="Megardstølen" />
		<tag k="place" v="isolated_dwelling" />
		<tag k="ssr:stedsnr" v="433498" />
	</node>
	<node lat="60.90325277877975" lon="8.424547228643185" id="-32771">
		<tag k="historic" v="shieling" />
		<tag k="name" v="Flinkestølen" />
		<tag k="place" v="isolated_dwelling" />
		<tag k="ssr:stedsnr" v="433591" />
	</node>
	<node lat="60.86718889237318" lon="8.433836119917922" id="-32780">
		<tag k="historic" v="shieling" />
		<tag k="name" v="Venåsstølane" />
		<tag k="place" v="isolated_dwelling" />
		<tag k="ssr:stedsnr" v="433927" />
	</node>
	<node lat="60.879855556637615" lon="8.760844442504583" id="-32782">
		<tag k="alt_name" v="Båstøstølen" />
		<tag k="historic" v="shieling" />
		<tag k="name" v="Bosstøstølen" />
		<tag k="place" v="isolated_dwelling" />
		<tag k="ssr:stedsnr" v="434772" />
	</node>
	<node lat="60.879643484637356" lon="8.493253102139615" id="-32783">
		<tag k="alt_name" v="Søre Viljugrein" />
		<tag k="fixme" v="consider place=hamlet" />
		<tag k="name" v="Viljugrein" />
		<tag k="place" v="farm" />
		<tag k="ssr:stedsnr" v="434776" />
	</node>
	<node lat="60.87494142956911" lon="8.496841710293607" id="-32785">
		<tag k="fixme" v="consider place=hamlet" />
		<tag k="name" v="Purkestad" />
		<tag k="place" v="farm" />
		<tag k="ssr:stedsnr" v="434783" />
	</node>
	<node lat="60.885250001343174" lon="8.471255562964574" id="-32787">
		<tag k="name" v="Teigen" />
		<tag k="place" v="farm" />
		<tag k="ssr:stedsnr" v="434801" />
	</node>
	<node lat="60.95649444013875" lon="8.291052776797942" id="-32788">
		<tag k="historic" v="shieling" />
		<tag k="name" v="Anderdalstølen" />
		<tag k="place" v="isolated_dwelling" />
		<tag k="ssr:stedsnr" v="517229" />
	</node>
	<node lat="60.837758217651675" lon="8.609848994717945" id="-32798">
		<tag k="name" v="Ulvedokk" />
		<tag k="place" v="farm" />
		<tag k="ssr:stedsnr" v="517997" />
	</node>
	<node lat="60.865235504384735" lon="8.814170311802398" id="-32799">
		<tag k="historic" v="shieling" />
		<tag k="name" v="Nedre Eikrestølane" />
		<tag k="place" v="isolated_dwelling" />
		<tag k="ssr:stedsnr" v="518185" />
	</node>
	<node lat="60.781463886011146" lon="8.669463884114963" id="-32800">
		<tag k="historic" v="shieling" />
		<tag k="name" v="Rudningsvollen" />
		<tag k="place" v="isolated_dwelling" />
		<tag k="ssr:stedsnr" v="518249" />
	</node>
	<node lat="60.88794444393918" lon="8.825858335395434" id="-32802">
		<tag k="historic" v="shieling" />
		<tag k="name" v="Natteluteigen" />
		<tag k="place" v="isolated_dwelling" />
		<tag k="ssr:stedsnr" v="518295" />
	</node>
	<node lat="60.864870588615815" lon="8.559248775540272" id="-32807">
		<tag k="fixme" v="consider place=hamlet" />
		<tag k="name" v="Trøym" />
		<tag k="place" v="farm" />
		<tag k="ssr:stedsnr" v="540141" />
	</node>
	<node lat="60.842475003582855" lon="8.639475001105867" id="-32808">
		<tag k="name" v="Nordre Grøv" />
		<tag k="place" v="farm" />
		<tag k="ssr:stedsnr" v="544540" />
	</node>
	<node lat="60.829788891897415" lon="8.676377783016513" id="-32811">
		<tag k="alt_name" v="Skolt, nedre" />
		<tag k="name" v="Nedre Skolt" />
		<tag k="place" v="farm" />
		<tag k="ssr:stedsnr" v="554205" />
	</node>
	<node lat="60.836130558342006" lon="8.664702786186895" id="-32812">
		<tag k="alt_name" v="Båstø" />
		<tag k="name" v="Bosstø" />
		<tag k="old_name" v="Baadstø;Bossto" />
		<tag k="place" v="farm" />
		<tag k="ssr:stedsnr" v="554206" />
	</node>
	<node lat="60.86007777899103" lon="8.517030546845465" id="-32814">
		<tag k="aerialway" v="drag_lift" />
		<tag k="fixme" v="consider the other aerialway types" />
		<tag k="name" v="Hemsedal Skisenter" />
		<tag k="old_name" v="Hemsedal Skiheiser" />
		<tag k="ssr:stedsnr" v="554147" />
	</node>
	<node lat="60.86230277767468" lon="8.573275009168361" id="-32815">
		<tag k="name" v="Søre Imre" />
		<tag k="place" v="farm" />
		<tag k="ssr:stedsnr" v="554152" />
	</node>
	<node lat="60.85378314434576" lon="8.555621237775476" id="-32816">
		<tag k="name" v="Storøygarden" />
		<tag k="place" v="farm" />
		<tag k="ssr:stedsnr" v="554166" />
	</node>
	<node lat="60.81185000125936" lon="8.482741662609875" id="-32817">
		<tag k="name" v="Venebotn" />
		<tag k="place" v="isolated_dwelling" />
		<tag k="ssr:stedsnr" v="554247" />
	</node>
	<node lat="60.80508611543373" lon="8.75320833667258" id="-32818">
		<tag k="name" v="Bekkestad" />
		<tag k="place" v="farm" />
		<tag k="ssr:stedsnr" v="554263" />
	</node>
	<node lat="60.87370858766768" lon="8.407469228049697" id="-32819">
		<tag k="name" v="Nørdre Tjøstelslien" />
		<tag k="place" v="locality" />
		<tag k="ssr:stedsnr" v="554614" />
	</node>
	<node lat="60.933772221664846" lon="8.193594449257754" id="-32825">
		<tag k="alt_name" v="Bjøberg Fjellstue" />
		<tag k="name" v="Bjøberg" />
		<tag k="ssr:stedsnr" v="554562" />
		<tag k="tourism" v="hotel" />
	</node>
	<node lat="60.91786111561884" lon="8.436952784334515" id="-32827">
		<tag k="historic" v="shieling" />
		<tag k="name" v="Helgeset" />
		<tag k="place" v="isolated_dwelling" />
		<tag k="ssr:stedsnr" v="554661" />
	</node>
	<node lat="60.84821388662638" lon="8.43883056108503" id="-32830">
		<tag k="historic" v="shieling" />
		<tag k="name" v="Mølnarplasstølen" />
		<tag k="place" v="isolated_dwelling" />
		<tag k="ssr:stedsnr" v="554930" />
	</node>
	<node lat="60.85692769593017" lon="8.603996343429662" id="-32833">
		<tag k="name" v="Mellom-Grøte" />
		<tag k="place" v="farm" />
		<tag k="ssr:stedsnr" v="578036" />
	</node>
	<node lat="60.81121111283847" lon="8.644147226455141" id="-32834">
		<tag k="name" v="Hemsil I" />
		<tag k="place" v="farm" />
		<tag k="ssr:stedsnr" v="578574" />
	</node>
	<node lat="60.949322445062364" lon="8.337409386246533" id="-32838">
		<tag k="historic" v="shieling" />
		<tag k="name" v="Haugstølen" />
		<tag k="place" v="isolated_dwelling" />
		<tag k="ssr:stedsnr" v="578279" />
	</node>
	<node lat="60.931280552832234" lon="8.418380551469824" id="-32841">
		<tag k="name" v="Medgarden" />
		<tag k="place" v="farm" />
		<tag k="ssr:stedsnr" v="578376" />
	</node>
	<node lat="60.839907848063504" lon="8.464622318136422" id="-32844">
		<tag k="historic" v="shieling" />
		<tag k="name" v="Myljostølen" />
		<tag k="place" v="isolated_dwelling" />
		<tag k="ssr:stedsnr" v="578615" />
	</node>
	<node lat="60.87777222470227" lon="8.470049993423018" id="-32849">
		<tag k="name" v="Nymoen" />
		<tag k="place" v="farm" />
		<tag k="ssr:stedsnr" v="578762" />
	</node>
	<node lat="60.838663757760514" lon="8.614431289464967" id="-32850">
		<tag k="name" v="Solheim" />
		<tag k="place" v="farm" />
		<tag k="ssr:stedsnr" v="578982" />
	</node>
	<node lat="60.876462413082464" lon="8.733532004429762" id="-32856">
		<tag k="historic" v="shieling" />
		<tag k="name" v="Joleimsstølane" />
		<tag k="old_name" v="Jolheimstølann;Jordheimstølane" />
		<tag k="place" v="isolated_dwelling" />
		<tag k="ssr:stedsnr" v="600232" />
	</node>
	<node lat="60.86795000205477" lon="8.384897220486797" id="-32867">
		<tag k="name" v="Lauvset" />
		<tag k="place" v="isolated_dwelling" />
		<tag k="ssr:stedsnr" v="614928" />
	</node>
	<node lat="60.84355000191098" lon="8.637052786630942" id="-32868">
		<tag k="name" v="Bakko" />
		<tag k="place" v="farm" />
		<tag k="ssr:stedsnr" v="614177" />
	</node>
	<node lat="60.99893055852333" lon="8.333605546704671" id="-32869">
		<tag k="historic" v="shieling" />
		<tag k="name" v="Brendeslettane" />
		<tag k="place" v="isolated_dwelling" />
		<tag k="ssr:stedsnr" v="614543" />
	</node>
	<node lat="60.887597217806615" lon="8.435577785828025" id="-32871">
		<tag k="historic" v="shieling" />
		<tag k="name" v="Bakkestølen" />
		<tag k="place" v="isolated_dwelling" />
		<tag k="ssr:stedsnr" v="614582" />
	</node>
	<node lat="60.88652032045826" lon="8.44855451938846" id="-32872">
		<tag k="alt_name" v="Hovde" />
		<tag k="fixme" v="consider place=hamlet" />
		<tag k="name" v="Hovda" />
		<tag k="place" v="farm" />
		<tag k="ssr:stedsnr" v="614583" />
	</node>
	<node lat="60.84494722212364" lon="8.781663883689852" id="-32874">
		<tag k="historic" v="shieling" />
		<tag k="name" v="Pålvollen" />
		<tag k="place" v="isolated_dwelling" />
		<tag k="ssr:stedsnr" v="615170" />
	</node>
	<node lat="60.83514999962509" lon="8.590427775306294" id="-32875">
		<tag k="name" v="Jegerhaugen" />
		<tag k="place" v="isolated_dwelling" />
		<tag k="ssr:stedsnr" v="615181" />
	</node>
	<node lat="60.93211708020827" lon="8.416998834374144" id="-32878">
		<tag k="fixme" v="consider place=hamlet" />
		<tag k="name" v="Grøndalen" />
		<tag k="place" v="farm" />
		<tag k="ssr:stedsnr" v="615586" />
	</node>
	<node lat="60.88544978936452" lon="8.475961788821415" id="-32883">
		<tag k="fixme" v="consider place=hamlet" />
		<tag k="name" v="Berg" />
		<tag k="place" v="farm" />
		<tag k="ssr:stedsnr" v="615820" />
	</node>
	<node lat="60.943852777388635" lon="8.17486388565336" id="-32886">
		<tag k="historic" v="shieling" />
		<tag k="name" v="Steinbustølen" />
		<tag k="place" v="isolated_dwelling" />
		<tag k="ssr:stedsnr" v="627133" />
	</node>
	<node lat="60.875499997458796" lon="8.454911106333055" id="-32888">
		<tag k="name" v="Venåsmyre" />
		<tag k="place" v="farm" />
		<tag k="ssr:stedsnr" v="638795" />
	</node>
	<node lat="60.8719014904296" lon="8.502898853125606" id="-32889">
		<tag k="fixme" v="consider place=hamlet" />
		<tag k="name" v="Nordre Øndredal" />
		<tag k="place" v="farm" />
		<tag k="ssr:stedsnr" v="638799" />
	</node>
	<node lat="60.886202776208414" lon="8.463441664972324" id="-32890">
		<tag k="name" v="Mellom-Vøllo" />
		<tag k="place" v="farm" />
		<tag k="ssr:stedsnr" v="638816" />
	</node>
	<node lat="60.870262642238096" lon="8.503496391093577" id="-32891">
		<tag k="name" v="Øvre Ødegården" />
		<tag k="place" v="farm" />
		<tag k="ssr:stedsnr" v="638152" />
	</node>
	<node lat="60.904134914055504" lon="8.29783597206276" id="-32892">
		<tag k="historic" v="shieling" />
		<tag k="name" v="Øndredalstølen" />
		<tag k="place" v="isolated_dwelling" />
		<tag k="ssr:stedsnr" v="638171" />
	</node>
	<node lat="60.88797500406392" lon="8.805341663594826" id="-32894">
		<tag k="historic" v="shieling" />
		<tag k="name" v="Bergstølen" />
		<tag k="place" v="isolated_dwelling" />
		<tag k="ssr:stedsnr" v="638264" />
	</node>
	<node lat="60.920738890909824" lon="8.437138883790531" id="-32896">
		<tag k="name" v="Hemsedal feriesenter" />
		<tag k="place" v="neighbourhood" />
		<tag k="ssr:stedsnr" v="638508" />
	</node>
	<node lat="60.83401202386923" lon="8.713978220760234" id="-32898">
		<tag k="historic" v="shieling" />
		<tag k="name" v="Skoltheimstølen" />
		<tag k="place" v="isolated_dwelling" />
		<tag k="ssr:stedsnr" v="638574" />
	</node>
	<node lat="60.87164722104222" lon="8.44159166096701" id="-32900">
		<tag k="name" v="Nordre Venåsen" />
		<tag k="place" v="farm" />
		<tag k="ssr:stedsnr" v="638721" />
	</node>
	<node lat="60.849586112852045" lon="8.490983339310235" id="-32905">
		<tag k="aerialway" v="drag_lift" />
		<tag k="fixme" v="consider the other aerialway types" />
		<tag k="name" v="Tindenheisen" />
		<tag k="ssr:stedsnr" v="638738" />
	</node>
	<node lat="60.837286111099814" lon="8.762150005221349" id="-32911">
		<tag k="historic" v="shieling" />
		<tag k="name" v="Høgehaugstølen" />
		<tag k="place" v="isolated_dwelling" />
		<tag k="ssr:stedsnr" v="639500" />
	</node>
	<node lat="60.85365555270934" lon="8.781458340693929" id="-32913">
		<tag k="historic" v="shieling" />
		<tag k="name" v="Vannevikvollen" />
		<tag k="place" v="isolated_dwelling" />
		<tag k="ssr:stedsnr" v="639749" />
	</node>
	<node lat="60.85976903489722" lon="8.592113260724412" id="-32916">
		<tag k="name" v="Vesle Joleim" />
		<tag k="place" v="farm" />
		<tag k="ssr:stedsnr" v="661199" />
	</node>
	<node lat="60.77725000408898" lon="8.726975006537534" id="-32920">
		<tag k="name" v="Brennhovdbråten" />
		<tag k="place" v="isolated_dwelling" />
		<tag k="ssr:stedsnr" v="736038" />
	</node>
	<node lat="60.86162499579804" lon="8.576400001471654" id="-32922">
		<tag k="name" v="Nygard" />
		<tag k="place" v="farm" />
		<tag k="ssr:stedsnr" v="736151" />
	</node>
	<node lat="60.81937282199542" lon="8.703771818205725" id="-32924">
		<tag k="fixme" v="consider place=hamlet" />
		<tag k="name" v="Ålrust" />
		<tag k="place" v="farm" />
		<tag k="ssr:stedsnr" v="736240" />
	</node>
	<node lat="60.84642500421111" lon="8.790124993875551" id="-32926">
		<tag k="alt_name" v="Mørkenvollen" />
		<tag k="historic" v="shieling" />
		<tag k="name" v="Mørkevollen" />
		<tag k="place" v="isolated_dwelling" />
		<tag k="ssr:stedsnr" v="736202" />
	</node>
	<node lat="60.915644442932354" lon="8.229588886670218" id="-32933">
		<tag k="historic" v="shieling" />
		<tag k="name" v="Resastølen" />
		<tag k="place" v="isolated_dwelling" />
		<tag k="ssr:stedsnr" v="737598" />
	</node>
	<node lat="60.80542777671499" lon="8.504583333929688" id="-32934">
		<tag k="name" v="Driftehytta" />
		<tag k="place" v="isolated_dwelling" />
		<tag k="ssr:stedsnr" v="737218" />
	</node>
	<node lat="60.90469507685591" lon="8.301849874938473" id="-32940">
		<tag k="historic" v="shieling" />
		<tag k="name" v="Rundgjerde" />
		<tag k="place" v="isolated_dwelling" />
		<tag k="ssr:stedsnr" v="760191" />
	</node>
	<node lat="60.8546138912973" lon="8.66225000611753" id="-32947">
		<tag k="historic" v="shieling" />
		<tag k="name" v="Livstølen" />
		<tag k="place" v="isolated_dwelling" />
		<tag k="ssr:stedsnr" v="760720" />
	</node>
	<node lat="60.86974999739535" lon="8.672980557127646" id="-32948">
		<tag k="historic" v="shieling" />
		<tag k="name" v="Bjødnestølen" />
		<tag k="place" v="isolated_dwelling" />
		<tag k="ssr:stedsnr" v="760814" />
	</node>
	<node lat="61.01585833306975" lon="8.328905560710687" id="-32960">
		<tag k="historic" v="shieling" />
		<tag k="name" v="Kyrkjebøslette" />
		<tag k="place" v="isolated_dwelling" />
		<tag k="ssr:stedsnr" v="795738" />
	</node>
	<node lat="60.86451111335935" lon="8.798925004286303" id="-32963">
		<tag k="historic" v="shieling" />
		<tag k="name" v="Bergastølane" />
		<tag k="place" v="isolated_dwelling" />
		<tag k="ssr:stedsnr" v="797142" />
	</node>
	<node lat="60.86023055761567" lon="8.584975002362013" id="-32965">
		<tag k="name" v="Jordet" />
		<tag k="place" v="farm" />
		<tag k="ssr:stedsnr" v="797145" />
	</node>
	<node lat="60.84621666497614" lon="8.786497230345512" id="-32967">
		<tag k="alt_name" v="Nygjerda" />
		<tag k="historic" v="shieling" />
		<tag k="name" v="Nygjerde" />
		<tag k="place" v="isolated_dwelling" />
		<tag k="ssr:stedsnr" v="797197" />
	</node>
	<node lat="60.986641665815064" lon="8.352475000375508" id="-32970">
		<tag k="alt_name" v="Mørekvamstølen" />
		<tag k="historic" v="shieling" />
		<tag k="name" v="Mørekvam" />
		<tag k="place" v="isolated_dwelling" />
		<tag k="ssr:stedsnr" v="797566" />
	</node>
	<node lat="60.89613610907238" lon="8.424969436207643" id="-32972">
		<tag k="historic" v="shieling" />
		<tag k="name" v="Fagerset" />
		<tag k="place" v="isolated_dwelling" />
		<tag k="ssr:stedsnr" v="797586" />
	</node>
	<node lat="60.87993889079971" lon="8.517725001431247" id="-32976">
		<tag k="name" v="Rustehaug" />
		<tag k="place" v="farm" />
		<tag k="ssr:stedsnr" v="798786" />
	</node>
	<node lat="60.8804287562488" lon="8.528612756250698" id="-32977">
		<tag k="name" v="Finnsetbotn" />
		<tag k="place" v="locality" />
		<tag k="ssr:stedsnr" v="798787" />
	</node>
	<node lat="60.886305558760775" lon="8.503177786060304" id="-32978">
		<tag k="alt_name" v="Hulebakstølen" />
		<tag k="historic" v="shieling" />
		<tag k="name" v="Hulbakstølen" />
		<tag k="place" v="isolated_dwelling" />
		<tag k="ssr:stedsnr" v="798791" />
	</node>
	<node lat="60.934788893090825" lon="8.45239444563419" id="-32979">
		<tag k="name" v="Klanten" />
		<tag k="place" v="hamlet" />
		<tag k="ssr:stedsnr" v="809135" />
	</node>
	<node lat="60.85541670027379" lon="8.604903488782009" id="-32982">
		<tag k="name" v="Grøterud" />
		<tag k="place" v="farm" />
		<tag k="ssr:stedsnr" v="821029" />
	</node>
	<node lat="60.78346944081936" lon="8.663147226802018" id="-32986">
		<tag k="historic" v="shieling" />
		<tag k="name" v="Haugavollen" />
		<tag k="place" v="isolated_dwelling" />
		<tag k="ssr:stedsnr" v="821230" />
	</node>
	<node lat="60.89104722086068" lon="8.419099997677943" id="-32994">
		<tag k="historic" v="shieling" />
		<tag k="name" v="Storestølane" />
		<tag k="place" v="isolated_dwelling" />
		<tag k="ssr:stedsnr" v="821655" />
	</node>
	<node lat="60.824033335569254" lon="8.622088880159158" id="-32997">
		<tag k="name" v="Hornet" />
		<tag k="place" v="farm" />
		<tag k="ssr:stedsnr" v="821555" />
	</node>
	<node lat="60.86628611150787" lon="8.701349999696637" id="-32999">
		<tag k="historic" v="shieling" />
		<tag k="name" v="Olaset" />
		<tag k="place" v="isolated_dwelling" />
		<tag k="ssr:stedsnr" v="821695" />
	</node>
	<node lat="60.873755556985586" lon="8.405016665337973" id="-33000">
		<tag k="name" v="Sletten" />
		<tag k="place" v="farm" />
		<tag k="ssr:stedsnr" v="821700" />
	</node>
	<node lat="60.864603612295085" lon="8.521875948703212" id="-33007">
		<tag k="name" v="Hollebakken" />
		<tag k="place" v="locality" />
		<tag k="ssr:stedsnr" v="831928" />
	</node>
	<node lat="60.87360555145818" lon="8.730702770719727" id="-33008">
		<tag k="historic" v="shieling" />
		<tag k="name" v="Joleimsstølen" />
		<tag k="place" v="isolated_dwelling" />
		<tag k="ssr:stedsnr" v="843233" />
	</node>
	<node lat="60.88561944529708" lon="8.77032222876633" id="-33011">
		<tag k="historic" v="shieling" />
		<tag k="name" v="Storestølen" />
		<tag k="place" v="isolated_dwelling" />
		<tag k="ssr:stedsnr" v="858844" />
	</node>
	<node lat="60.88691666613732" lon="8.777538883183226" id="-33012">
		<tag k="historic" v="shieling" />
		<tag k="name" v="Grøvstølen" />
		<tag k="place" v="isolated_dwelling" />
		<tag k="ssr:stedsnr" v="858846" />
	</node>
	<node lat="60.922605555897725" lon="8.496124991103866" id="-33015">
		<tag k="historic" v="shieling" />
		<tag k="name" v="Holsteinstølen" />
		<tag k="place" v="isolated_dwelling" />
		<tag k="ssr:stedsnr" v="858863" />
	</node>
	<node lat="60.84216388485699" lon="8.400444450881006" id="-33017">
		<tag k="alt_name" v="Halso, øvre" />
		<tag k="historic" v="shieling" />
		<tag k="name" v="Øvre Halso" />
		<tag k="place" v="isolated_dwelling" />
		<tag k="ssr:stedsnr" v="858923" />
	</node>
	<node lat="60.850072225446" lon="8.616161110001201" id="-33022">
		<tag k="alt_name" v="Ulsåk" />
		<tag k="fixme" v="consider place=hamlet" />
		<tag k="name" v="Ullsåk" />
		<tag k="place" v="village" />
		<tag k="ssr:stedsnr" v="858167" />
	</node>
	<node lat="60.87934444649136" lon="8.360377769594988" id="-33024">
		<tag k="historic" v="shieling" />
		<tag k="name" v="Fuglehaugen" />
		<tag k="place" v="isolated_dwelling" />
		<tag k="ssr:stedsnr" v="858599" />
	</node>
	<node lat="60.87909444035919" lon="8.351413889146084" id="-33025">
		<tag k="alt_name" v="Hølutn" />
		<tag k="historic" v="shieling" />
		<tag k="name" v="Holun" />
		<tag k="place" v="isolated_dwelling" />
		<tag k="ssr:stedsnr" v="858600" />
	</node>
	<node lat="60.964975002677555" lon="8.167019441077338" id="-33030">
		<tag k="historic" v="shieling" />
		<tag k="name" v="Slettane" />
		<tag k="place" v="isolated_dwelling" />
		<tag k="ssr:stedsnr" v="858541" />
	</node>
	<node lat="60.973166663848346" lon="8.454633326670999" id="-33032">
		<tag k="alt_name" v="Vabuleinane" />
		<tag k="historic" v="shieling" />
		<tag k="name" v="Vabuleino" />
		<tag k="place" v="isolated_dwelling" />
		<tag k="ssr:stedsnr" v="858563" />
	</node>
	<node lat="60.90047564243762" lon="8.316624679831971" id="-33033">
		<tag k="historic" v="shieling" />
		<tag k="name" v="Liastølane" />
		<tag k="place" v="isolated_dwelling" />
		<tag k="ssr:stedsnr" v="858629" />
	</node>
	<node lat="60.91174444680663" lon="8.427952779044917" id="-33035">
		<tag k="historic" v="shieling" />
		<tag k="name" v="Slette" />
		<tag k="place" v="isolated_dwelling" />
		<tag k="ssr:stedsnr" v="858635" />
	</node>
	<node lat="60.899947222874275" lon="8.270369442703052" id="-33036">
		<tag k="alt_name" v="Bakkestøl" />
		<tag k="historic" v="shieling" />
		<tag k="name" v="Bakkestølen" />
		<tag k="place" v="isolated_dwelling" />
		<tag k="ssr:stedsnr" v="858640" />
	</node>
	<node lat="60.88319722463291" lon="8.823033332564943" id="-33038">
		<tag k="name" v="Bakko" />
		<tag k="place" v="farm" />
		<tag k="ssr:stedsnr" v="859398" />
	</node>
	<node lat="60.88323888993169" lon="8.82974722046794" id="-33039">
		<tag k="fixme" v="consider place=hamlet" />
		<tag k="name" v="Lykkja" />
		<tag k="place" v="village" />
		<tag k="ssr:stedsnr" v="874570" />
	</node>
	<node lat="60.88690555290164" lon="8.87470554874438" id="-33040">
		<tag k="historic" v="shieling" />
		<tag k="name" v="Nedrevollen" />
		<tag k="place" v="isolated_dwelling" />
		<tag k="ssr:stedsnr" v="883493" />
	</node>
	<node lat="60.93528492816788" lon="8.402135224616776" id="-33043">
		<tag k="historic" v="shieling" />
		<tag k="name" v="Myrebuluo" />
		<tag k="place" v="isolated_dwelling" />
		<tag k="ssr:stedsnr" v="882370" />
	</node>
	<node lat="60.886263892374686" lon="8.806758340036845" id="-33048">
		<tag k="historic" v="shieling" />
		<tag k="name" v="Nedrestølen" />
		<tag k="place" v="isolated_dwelling" />
		<tag k="ssr:stedsnr" v="882532" />
	</node>
	<node lat="60.84981944278354" lon="8.621408327862166" id="-33051">
		<tag k="name" v="Nordre Ulsåker" />
		<tag k="place" v="farm" />
		<tag k="ssr:stedsnr" v="882640" />
	</node>
	<node lat="60.87032777357863" lon="8.500347222267576" id="-33053">
		<tag k="name" v="Øen" />
		<tag k="place" v="farm" />
		<tag k="ssr:stedsnr" v="882733" />
	</node>
	<node lat="60.874588730793825" lon="8.741375624143492" id="-33054">
		<tag k="historic" v="shieling" />
		<tag k="name" v="Engestølen" />
		<tag k="place" v="isolated_dwelling" />
		<tag k="ssr:stedsnr" v="882741" />
	</node>
	<node lat="60.83413005922487" lon="8.60421062396931" id="-33055">
		<tag k="name" v="Persstronde" />
		<tag k="place" v="farm" />
		<tag k="ssr:stedsnr" v="882946" />
	</node>
	<node lat="60.873383334565226" lon="8.44892221871611" id="-33056">
		<tag k="name" v="Nordre Venåsen" />
		<tag k="place" v="farm" />
		<tag k="ssr:stedsnr" v="882764" />
	</node>
	<node lat="60.840180557732864" lon="8.593641667332362" id="-33057">
		<tag k="name" v="Søre Torset" />
		<tag k="place" v="farm" />
		<tag k="ssr:stedsnr" v="882986" />
	</node>
	<node lat="60.86529056962473" lon="8.525945973537667" id="-33061">
		<tag k="name" v="Mølnarplassen" />
		<tag k="place" v="farm" />
		<tag k="ssr:stedsnr" v="942100" />
	</node>
	<node lat="60.94475277729683" lon="8.371438880062346" id="-33063">
		<tag k="historic" v="shieling" />
		<tag k="name" v="Træesstølen" />
		<tag k="place" v="isolated_dwelling" />
		<tag k="ssr:stedsnr" v="942269" />
	</node>
	<node lat="60.806738886517465" lon="8.734422228748757" id="-33065">
		<tag k="alt_name" v="Nordre Eiker" />
		<tag k="name" v="Nordre Eikre" />
		<tag k="place" v="farm" />
		<tag k="ssr:stedsnr" v="942449" />
	</node>
	<node lat="60.88782221854612" lon="8.454658337323595" id="-33073">
		<tag k="name" v="Hallen" />
		<tag k="place" v="locality" />
		<tag k="ssr:stedsnr" v="942616" />
	</node>
	<node lat="60.83288169190531" lon="8.604233150004422" id="-33074">
		<tag k="name" v="Rudningsmyre" />
		<tag k="place" v="farm" />
		<tag k="ssr:stedsnr" v="942957" />
	</node>
	<node lat="60.8699194413797" lon="8.430066662216179" id="-33077">
		<tag k="alt_name" v="Skjøyten" />
		<tag k="name" v="Skøyten" />
		<tag k="place" v="farm" />
		<tag k="ssr:stedsnr" v="942760" />
	</node>
	<node lat="60.88044444720444" lon="8.45401666667668" id="-33080">
		<tag k="historic" v="shieling" />
		<tag k="name" v="Slettestølen" />
		<tag k="place" v="isolated_dwelling" />
		<tag k="ssr:stedsnr" v="942796" />
	</node>
	<node lat="60.87553333336676" lon="8.499702778377186" id="-33081">
		<tag k="name" v="Sjåstad" />
		<tag k="place" v="farm" />
		<tag k="ssr:stedsnr" v="942802" />
	</node>
	<node lat="60.88574166805258" lon="8.468025008781467" id="-33082">
		<tag k="name" v="Søre Vøllo" />
		<tag k="place" v="farm" />
		<tag k="ssr:stedsnr" v="942813" />
	</node>
	<node lat="60.85177778222731" lon="8.585475000397075" id="-33083">
		<tag k="name" v="Haugen" />
		<tag k="place" v="farm" />
		<tag k="ssr:stedsnr" v="942914" />
	</node>
	<node lat="60.83929072039487" lon="8.610006523833478" id="-33086">
		<tag k="name" v="Endredokk" />
		<tag k="place" v="farm" />
		<tag k="ssr:stedsnr" v="942987" />
	</node>
	<node lat="60.86055000144394" lon="8.58284444646266" id="-33087">
		<tag k="name" v="Nørdre Joleim" />
		<tag k="place" v="farm" />
		<tag k="ssr:stedsnr" v="943021" />
	</node>
	<node lat="60.86678611258457" lon="8.556286104866727" id="-33088">
		<tag k="alt_name" v="Rydningen" />
		<tag k="name" v="Rudningen" />
		<tag k="place" v="farm" />
		<tag k="ssr:stedsnr" v="943079" />
	</node>
	<node lat="60.782188884914035" lon="8.670480560463147" id="-33091">
		<tag k="historic" v="shieling" />
		<tag k="name" v="Dokkvollen" />
		<tag k="place" v="isolated_dwelling" />
		<tag k="ssr:stedsnr" v="943270" />
	</node>
	<node lat="60.86798055845325" lon="8.524063890833366" id="-33095">
		<tag k="name" v="Søre Holle" />
		<tag k="old_name" v="Holle;Holde;Hølle" />
		<tag k="place" v="farm" />
		<tag k="ssr:stedsnr" v="943195" />
	</node>
	<node lat="60.88942777509108" lon="8.80493888369449" id="-33098">
		<tag k="historic" v="shieling" />
		<tag k="name" v="Jordevollen" />
		<tag k="place" v="isolated_dwelling" />
		<tag k="ssr:stedsnr" v="943308" />
	</node>
	<node lat="60.79023333291417" lon="8.71687500356021" id="-33100">
		<tag k="name" v="Vestreengi" />
		<tag k="place" v="farm" />
		<tag k="ssr:stedsnr" v="943318" />
	</node>
	<node lat="60.868083335870324" lon="8.667555550134615" id="-33104">
		<tag k="historic" v="shieling" />
		<tag k="name" v="Nordrestølen" />
		<tag k="place" v="isolated_dwelling" />
		<tag k="ssr:stedsnr" v="943801" />
	</node>
	<node lat="60.878494445086766" lon="8.732877772698775" id="-33109">
		<tag k="historic" v="shieling" />
		<tag k="name" v="Jordestølen" />
		<tag k="place" v="isolated_dwelling" />
		<tag k="ssr:stedsnr" v="943669" />
	</node>
	<node lat="60.84730599873666" lon="8.625985458072511" id="-33112">
		<tag k="name" v="Øvre Løken" />
		<tag k="place" v="farm" />
		<tag k="ssr:stedsnr" v="981110" />
	</node>
	<node lat="60.841808377235175" lon="8.447492315832843" id="-33113">
		<tag k="historic" v="shieling" />
		<tag k="name" v="Holleskardet" />
		<tag k="place" v="isolated_dwelling" />
		<tag k="ssr:stedsnr" v="981248" />
	</node>
	<node lat="60.87351434090628" lon="8.41387615704196" id="-33115">
		<tag k="fixme" v="consider place=hamlet" />
		<tag k="name" v="Tjøstelslien" />
		<tag k="place" v="farm" />
		<tag k="ssr:stedsnr" v="981283" />
	</node>
	<node lat="60.87369855355269" lon="8.40955507208488" id="-33116">
		<tag k="name" v="Medlien" />
		<tag k="place" v="farm" />
		<tag k="ssr:stedsnr" v="982832" />
	</node>
	<node lat="60.86974542904965" lon="8.504367307612775" id="-33117">
		<tag k="fixme" v="consider place=hamlet" />
		<tag k="name" v="Øygarden" />
		<tag k="place" v="farm" />
		<tag k="ssr:stedsnr" v="990930" />
	</node>
	<node lat="60.804862386837925" lon="8.75046691038411" id="-33278">
		<tag k="fixme" v="consider place=hamlet" />
		<tag k="name" v="Eikre" />
		<tag k="place" v="farm" />
		<tag k="ssr:stedsnr" v="1072345" />
	</node>
	<node lat="60.84077325745586" lon="8.589889970036857" id="-33279">
		<tag k="fixme" v="consider place=hamlet" />
		<tag k="name" v="Torset" />
		<tag k="place" v="farm" />
		<tag k="ssr:stedsnr" v="1072346" />
	</node>
	<node lat="60.85614898781624" lon="8.606231232748236" id="-33280">
		<tag k="fixme" v="consider place=hamlet" />
		<tag k="name" v="Grøto" />
		<tag k="place" v="farm" />
		<tag k="ssr:stedsnr" v="1072348" />
	</node>
	<node lat="60.86147555950079" lon="8.572480360887596" id="-33281">
		<tag k="fixme" v="consider place=hamlet" />
		<tag k="name" v="Imre" />
		<tag k="place" v="farm" />
		<tag k="ssr:stedsnr" v="1072349" />
	</node>
	<node lat="60.887465242041486" lon="8.461478369215124" id="-33282">
		<tag k="fixme" v="consider place=hamlet" />
		<tag k="name" v="Vollo" />
		<tag k="place" v="farm" />
		<tag k="ssr:stedsnr" v="1072350" />
	</node>
	<node lat="60.879207294759276" lon="8.471026795183095" id="-33283">
		<tag k="fixme" v="consider place=hamlet" />
		<tag k="name" v="Kariset" />
		<tag k="place" v="farm" />
		<tag k="ssr:stedsnr" v="1072351" />
	</node>
	<node lat="60.94114696387229" lon="8.391938497384041" id="-33288">
		<tag k="name" v="Hjelmen" />
		<tag k="place" v="locality" />
		<tag k="ssr:stedsnr" v="1080325" />
	</node>
</osm>
