<?xml version="1.0" encoding="UTF-8"?>
<osm version="0.6" generator="osmapis">
	<node lat="60.85358888584493" lon="8.683986118338868" id="-20944">
		<tag k="historic" v="shieling" />
		<tag k="name" v="Ragnevollen" />
		<tag k="place" v="locality" />
		<tag k="ssr:stedsnr" v="32664" />
	</node>
	<node lat="60.8324565107651" lon="8.608738806531418" id="-20951">
		<tag k="name" v="Rødningen" />
		<tag k="place" v="locality" />
		<tag k="ssr:stedsnr" v="32963" />
	</node>
	<node lat="60.86187221789885" lon="8.53868610482222" id="-20975">
		<tag k="name" v="Storemyr" />
		<tag k="natural" v="wetland" />
		<tag k="ssr:stedsnr" v="93103" />
	</node>
	<node lat="60.794966662371415" lon="8.704308330687832" id="-20976">
		<tag k="name" v="Toretangslåtta" />
		<tag k="place" v="locality" />
		<tag k="ssr:stedsnr" v="93263" />
	</node>
	<node lat="60.78866110930649" lon="8.720402769454262" id="-20991">
		<tag k="name" v="Furuhaugslåtta" />
		<tag k="place" v="locality" />
		<tag k="ssr:stedsnr" v="251003" />
	</node>
	<node lat="60.80730000074012" lon="8.77425278070317" id="-21076">
		<tag k="name" v="Dammyre" />
		<tag k="natural" v="wetland" />
		<tag k="ssr:stedsnr" v="191215" />
	</node>
	<node lat="60.825950000138555" lon="8.64353056099855" id="-21084">
		<tag k="name" v="Markegardsskogane" />
		<tag k="place" v="locality" />
		<tag k="ssr:stedsnr" v="214518" />
	</node>
	<node lat="60.88495555982419" lon="8.820366672960883" id="-21085">
		<tag k="historic" v="shieling" />
		<tag k="name" v="Grindeslåtta" />
		<tag k="place" v="locality" />
		<tag k="ssr:stedsnr" v="214610" />
	</node>
	<node lat="60.8710777758036" lon="8.713158333298592" id="-21087">
		<tag k="name" v="Storegjerda" />
		<tag k="place" v="locality" />
		<tag k="ssr:stedsnr" v="214684" />
	</node>
	<node lat="60.86961388658484" lon="8.69777499760373" id="-21088">
		<tag k="historic" v="shieling" />
		<tag k="name" v="Nordigardsvollen" />
		<tag k="place" v="locality" />
		<tag k="ssr:stedsnr" v="214686" />
	</node>
	<node lat="60.865844445765106" lon="8.815711119119547" id="-21094">
		<tag k="historic" v="shieling" />
		<tag k="name" v="Flatavollen" />
		<tag k="place" v="locality" />
		<tag k="ssr:stedsnr" v="457565" />
	</node>
	<node lat="60.897366670250506" lon="8.444455563062936" id="-21101">
		<tag k="name" v="Nystølmyrane" />
		<tag k="natural" v="wetland" />
		<tag k="ssr:stedsnr" v="457573" />
	</node>
	<node lat="60.85136388715278" lon="8.704458337639087" id="-21103">
		<tag k="historic" v="shieling" />
		<tag k="name" v="Slætte" />
		<tag k="place" v="locality" />
		<tag k="ssr:stedsnr" v="457674" />
	</node>
	<node lat="60.795091670861076" lon="8.708458334409475" id="-21116">
		<tag k="name" v="Eikreslåttene" />
		<tag k="place" v="locality" />
		<tag k="ssr:stedsnr" v="275282" />
	</node>
	<node lat="60.87823611107923" lon="8.345808335021797" id="-21119">
		<tag k="name" v="Martinslåtta" />
		<tag k="place" v="locality" />
		<tag k="ssr:stedsnr" v="275182" />
	</node>
	<node lat="60.872450003580326" lon="8.353749998118886" id="-21163">
		<tag k="name" v="Skytjumyrane" />
		<tag k="natural" v="wetland" />
		<tag k="ssr:stedsnr" v="335194" />
	</node>
	<node lat="60.863305553897284" lon="8.646422230467945" id="-21175">
		<tag k="name" v="Sebjørggjerda" />
		<tag k="place" v="locality" />
		<tag k="ssr:stedsnr" v="336603" />
	</node>
	<node lat="60.91380277846723" lon="8.301086116286047" id="-21193">
		<tag k="name" v="Flåamyrane" />
		<tag k="natural" v="wetland" />
		<tag k="ssr:stedsnr" v="372606" />
	</node>
	<node lat="60.85366666219809" lon="8.576691660358216" id="-21217">
		<tag k="name" v="Reiardokk" />
		<tag k="place" v="locality" />
		<tag k="ssr:stedsnr" v="396904" />
	</node>
	<node lat="61.00930668162937" lon="8.331670442291278" id="-21221">
		<tag k="alt_name" v="Skriustølen" />
		<tag k="historic" v="shieling" />
		<tag k="name" v="Skridustølen" />
		<tag k="place" v="locality" />
		<tag k="ssr:stedsnr" v="432711" />
	</node>
	<node lat="60.84400000431568" lon="8.571438884914931" id="-21222">
		<tag k="name" v="Snertemyre" />
		<tag k="natural" v="wetland" />
		<tag k="ssr:stedsnr" v="433174" />
	</node>
	<node lat="60.81983888837947" lon="8.717894453389167" id="-21267">
		<tag k="name" v="Veslestølmyrane" />
		<tag k="natural" v="wetland" />
		<tag k="ssr:stedsnr" v="457380" />
	</node>
	<node lat="60.85381111216281" lon="8.668588892405204" id="-21272">
		<tag k="historic" v="shieling" />
		<tag k="name" v="Nedigardsvollen" />
		<tag k="place" v="locality" />
		<tag k="ssr:stedsnr" v="457705" />
	</node>
	<node lat="60.88446695546624" lon="8.348767370987343" id="-21287">
		<tag k="historic" v="shieling" />
		<tag k="name" v="Vårstølen" />
		<tag k="place" v="locality" />
		<tag k="ssr:stedsnr" v="675575" />
	</node>
	<node lat="60.940697226016596" lon="8.389702781853359" id="-21299">
		<tag k="historic" v="shieling" />
		<tag k="name" v="Vente" />
		<tag k="place" v="locality" />
		<tag k="ssr:stedsnr" v="676528" />
	</node>
	<node lat="60.89804999648353" lon="8.442061106440987" id="-21320">
		<tag k="alt_name" v="Murenmyrane" />
		<tag k="name" v="Murmyrane" />
		<tag k="natural" v="wetland" />
		<tag k="ssr:stedsnr" v="493572" />
	</node>
	<node lat="60.87688611439739" lon="8.531336110857799" id="-21337">
		<tag k="historic" v="shieling" />
		<tag k="name" v="Vårstølen" />
		<tag k="place" v="locality" />
		<tag k="ssr:stedsnr" v="517072" />
	</node>
	<node lat="60.85376666780989" lon="8.677363886006205" id="-21355">
		<tag k="historic" v="shieling" />
		<tag k="name" v="Øyevollen" />
		<tag k="place" v="locality" />
		<tag k="ssr:stedsnr" v="518709" />
	</node>
	<node lat="60.84683611361052" lon="8.758491671052658" id="-21390">
		<tag k="name" v="Tryteurde" />
		<tag k="natural" v="scree" />
		<tag k="ssr:stedsnr" v="579144" />
	</node>
	<node lat="60.871644448444144" lon="8.358133325703616" id="-21391">
		<tag k="name" v="Stakkestøet" />
		<tag k="place" v="locality" />
		<tag k="ssr:stedsnr" v="699176" />
	</node>
	<node lat="60.82200277379449" lon="8.73552499346021" id="-21400">
		<tag k="name" v="Søhellsteinen" />
		<tag k="natural" v="stone" />
		<tag k="ssr:stedsnr" v="700430" />
	</node>
	<node lat="60.845458336642984" lon="8.6534888938031" id="-21401">
		<tag k="historic" v="shieling" />
		<tag k="name" v="Bakkevollen" />
		<tag k="place" v="locality" />
		<tag k="ssr:stedsnr" v="700648" />
	</node>
	<node lat="60.876641669955845" lon="8.50313056172541" id="-21430">
		<tag k="name" v="Svøajordet" />
		<tag k="place" v="locality" />
		<tag k="ssr:stedsnr" v="638698" />
	</node>
	<node lat="60.871402773926164" lon="8.477819437363202" id="-21431">
		<tag k="name" v="Jøkulsvaet" />
		<tag k="place" v="locality" />
		<tag k="ssr:stedsnr" v="638803" />
	</node>
	<node lat="60.87690555149589" lon="8.834177770725066" id="-21434">
		<tag k="name" v="Feten" />
		<tag k="place" v="locality" />
		<tag k="ssr:stedsnr" v="638588" />
	</node>
	<node lat="60.79818611319016" lon="8.6765138814915" id="-21438">
		<tag k="historic" v="shieling" />
		<tag k="name" v="Gjuveslåtta" />
		<tag k="place" v="locality" />
		<tag k="ssr:stedsnr" v="639275" />
	</node>
	<node lat="60.780141671164564" lon="8.696066675188861" id="-21442">
		<tag k="name" v="Hulbakvollen" />
		<tag k="place" v="locality" />
		<tag k="ssr:stedsnr" v="639326" />
	</node>
	<node lat="60.78060277625185" lon="8.693813881803942" id="-21443">
		<tag k="name" v="Skarsvollen" />
		<tag k="place" v="locality" />
		<tag k="ssr:stedsnr" v="639330" />
	</node>
	<node lat="60.88230277833044" lon="8.778366675273075" id="-21446">
		<tag k="name" v="Øddeslåtta" />
		<tag k="place" v="locality" />
		<tag k="ssr:stedsnr" v="639809" />
	</node>
	<node lat="60.79811666654788" lon="8.696772213600447" id="-21452">
		<tag k="name" v="Flåmyre" />
		<tag k="natural" v="wetland" />
		<tag k="ssr:stedsnr" v="676006" />
	</node>
	<node lat="60.880922225940445" lon="8.492777786534747" id="-21471">
		<tag k="name" v="Torgerteigen" />
		<tag k="place" v="locality" />
		<tag k="ssr:stedsnr" v="699664" />
	</node>
	<node lat="60.79687777874478" lon="8.679827786116148" id="-21474">
		<tag k="name" v="Sveinsvollen" />
		<tag k="place" v="locality" />
		<tag k="ssr:stedsnr" v="700324" />
	</node>
	<node lat="60.835498205321194" lon="8.576306568901161" id="-21478">
		<tag k="name" v="Øvreslette" />
		<tag k="place" v="locality" />
		<tag k="ssr:stedsnr" v="700963" />
	</node>
	<node lat="60.93578333204383" lon="8.456383335726647" id="-21487">
		<tag k="name" v="Fjellstølmyrane" />
		<tag k="natural" v="wetland" />
		<tag k="ssr:stedsnr" v="736506" />
	</node>
	<node lat="60.86128698580748" lon="8.528036354819118" id="-21502">
		<tag k="historic" v="shieling" />
		<tag k="name" v="Rudningen" />
		<tag k="place" v="locality" />
		<tag k="ssr:stedsnr" v="760116" />
	</node>
	<node lat="60.884786113623264" lon="8.753866659086013" id="-21513">
		<tag k="historic" v="shieling" />
		<tag k="name" v="Trefta" />
		<tag k="place" v="locality" />
		<tag k="ssr:stedsnr" v="760793" />
	</node>
	<node lat="60.898147221687886" lon="8.446538892649261" id="-21547">
		<tag k="historic" v="shieling" />
		<tag k="name" v="Nystølen" />
		<tag k="place" v="locality" />
		<tag k="ssr:stedsnr" v="918635" />
	</node>
	<node lat="60.93362221892815" lon="8.383649997272421" id="-21561">
		<tag k="name" v="Ventemyrane" />
		<tag k="natural" v="wetland" />
		<tag k="ssr:stedsnr" v="919585" />
	</node>
	<node lat="60.82643888792684" lon="8.62664166828913" id="-21596">
		<tag k="name" v="Hornsmyrane" />
		<tag k="natural" v="wetland" />
		<tag k="ssr:stedsnr" v="858211" />
	</node>
	<node lat="60.87845555751719" lon="8.874897216368899" id="-21606">
		<tag k="name" v="Halvgrettmyre" />
		<tag k="natural" v="wetland" />
		<tag k="ssr:stedsnr" v="859407" />
	</node>
	<node lat="60.85300798814908" lon="8.554483859032938" id="-21609">
		<tag k="name" v="Vesleøygarden" />
		<tag k="place" v="locality" />
		<tag k="ssr:stedsnr" v="882103" />
	</node>
	<node lat="60.81109166943268" lon="8.730777772441797" id="-21613">
		<tag k="name" v="Ruste" />
		<tag k="place" v="locality" />
		<tag k="ssr:stedsnr" v="882360" />
	</node>
	<node lat="60.799476393215535" lon="8.661117017134172" id="-21617">
		<tag k="name" v="Jordflata" />
		<tag k="place" v="locality" />
		<tag k="ssr:stedsnr" v="882257" />
	</node>
	<node lat="60.79457778228451" lon="8.69717778274199" id="-21618">
		<tag k="name" v="Stakkestøet" />
		<tag k="place" v="locality" />
		<tag k="ssr:stedsnr" v="882266" />
	</node>
	<node lat="60.87395000095718" lon="8.420830548817438" id="-21632">
		<tag k="name" v="Tremarkslåtta" />
		<tag k="place" v="locality" />
		<tag k="ssr:stedsnr" v="882654" />
	</node>
	<node lat="60.89356667060501" lon="8.294430558775105" id="-21653">
		<tag k="alt_name" v="Flåmyrane" />
		<tag k="name" v="Flåamyrane" />
		<tag k="natural" v="wetland" />
		<tag k="ssr:stedsnr" v="919751" />
	</node>
	<node lat="60.81180916149532" lon="8.679733093664321" id="-21661">
		<tag k="name" v="Ålrustmørki" />
		<tag k="place" v="locality" />
		<tag k="ssr:stedsnr" v="981004" />
	</node>
	<node lat="60.80015000089196" lon="8.671777771470252" id="-21680">
		<tag k="name" v="Gjuvestølmyrane" />
		<tag k="natural" v="wetland" />
		<tag k="ssr:stedsnr" v="9006" />
	</node>
	<node lat="60.777016668633834" lon="8.708133331255453" id="-21695">
		<tag k="name" v="Åsevollen" />
		<tag k="place" v="locality" />
		<tag k="ssr:stedsnr" v="32242" />
	</node>
	<node lat="60.87745277917587" lon="8.410100001805237" id="-21707">
		<tag k="name" v="Storeslåtta" />
		<tag k="place" v="locality" />
		<tag k="ssr:stedsnr" v="32731" />
	</node>
	<node lat="60.98035253422907" lon="8.557211724549035" id="-21745">
		<tag k="name" v="Feten" />
		<tag k="place" v="locality" />
		<tag k="ssr:stedsnr" v="93112" />
	</node>
	<node lat="60.87453055389064" lon="8.51602778536922" id="-21748">
		<tag k="name" v="Øvre Hagatræet" />
		<tag k="place" v="locality" />
		<tag k="ssr:stedsnr" v="93159" />
	</node>
	<node lat="60.837598101160516" lon="8.579261973625723" id="-21758">
		<tag k="name" v="Øygardsslette" />
		<tag k="place" v="locality" />
		<tag k="ssr:stedsnr" v="93938" />
	</node>
	<node lat="60.838327741073215" lon="8.572129079776888" id="-21759">
		<tag k="historic" v="shieling" />
		<tag k="name" v="Gamlestølen" />
		<tag k="place" v="locality" />
		<tag k="ssr:stedsnr" v="93958" />
	</node>
	<node lat="60.79446667048016" lon="8.637955562860736" id="-21783">
		<tag k="name" v="Brendemyre" />
		<tag k="natural" v="wetland" />
		<tag k="ssr:stedsnr" v="153253" />
	</node>
	<node lat="60.88767500417103" lon="8.828727780705576" id="-21793">
		<tag k="name" v="Veslejordeslåtta" />
		<tag k="place" v="locality" />
		<tag k="ssr:stedsnr" v="153279" />
	</node>
	<node lat="60.79128333518989" lon="8.716886108956519" id="-21794">
		<tag k="name" v="Sygardslåtta" />
		<tag k="place" v="locality" />
		<tag k="ssr:stedsnr" v="153286" />
	</node>
	<node lat="60.78309722098426" lon="8.701786104901608" id="-21795">
		<tag k="name" v="Mørkeslåtta" />
		<tag k="place" v="locality" />
		<tag k="ssr:stedsnr" v="153294" />
	</node>
	<node lat="60.809866669656465" lon="8.765688887145952" id="-21803">
		<tag k="name" v="Furuhaugmyr" />
		<tag k="natural" v="wetland" />
		<tag k="ssr:stedsnr" v="154546" />
	</node>
	<node lat="60.8338673103189" lon="8.729200690143129" id="-21832">
		<tag k="historic" v="shieling" />
		<tag k="name" v="Vannestølen" />
		<tag k="place" v="locality" />
		<tag k="ssr:stedsnr" v="214589" />
	</node>
	<node lat="60.9241333291384" lon="8.429069453683775" id="-21833">
		<tag k="name" v="Myre" />
		<tag k="place" v="locality" />
		<tag k="ssr:stedsnr" v="214590" />
	</node>
	<node lat="60.82422093264037" lon="8.721544578253516" id="-21856">
		<tag k="historic" v="shieling" />
		<tag k="name" v="Brynhildstølen" />
		<tag k="place" v="locality" />
		<tag k="ssr:stedsnr" v="275551" />
	</node>
	<node lat="60.83579015022643" lon="8.574305577098778" id="-21865">
		<tag k="name" v="Øvreruste" />
		<tag k="place" v="locality" />
		<tag k="ssr:stedsnr" v="275960" />
	</node>
	<node lat="60.78993055156926" lon="8.75017777156723" id="-21873">
		<tag k="name" v="Leggingsmyre" />
		<tag k="natural" v="wetland" />
		<tag k="ssr:stedsnr" v="311035" />
	</node>
	<node lat="60.87496666949164" lon="8.510194444952157" id="-21892">
		<tag k="name" v="Nordhagen" />
		<tag k="place" v="locality" />
		<tag k="ssr:stedsnr" v="335160" />
	</node>
	<node lat="60.894931985444856" lon="8.315995255157013" id="-21896">
		<tag k="historic" v="shieling" />
		<tag k="name" v="Myrjovollen" />
		<tag k="place" v="locality" />
		<tag k="ssr:stedsnr" v="335178" />
	</node>
	<node lat="60.86488863522567" lon="8.64733342755495" id="-21902">
		<tag k="historic" v="shieling" />
		<tag k="name" v="Høluvollen" />
		<tag k="place" v="locality" />
		<tag k="ssr:stedsnr" v="335772" />
	</node>
	<node lat="60.80031666573825" lon="8.68397223030101" id="-21911">
		<tag k="name" v="Grohaugskogen" />
		<tag k="place" v="locality" />
		<tag k="ssr:stedsnr" v="336316" />
	</node>
	<node lat="60.82200833297515" lon="8.722072227873738" id="-21944">
		<tag k="name" v="Slettemyre" />
		<tag k="natural" v="wetland" />
		<tag k="ssr:stedsnr" v="396374" />
	</node>
	<node lat="60.87643611351955" lon="8.424827774567307" id="-21945">
		<tag k="name" v="Presthaugslåtta" />
		<tag k="place" v="locality" />
		<tag k="ssr:stedsnr" v="396719" />
	</node>
	<node lat="60.92739534381128" lon="8.39957098861374" id="-21951">
		<tag k="historic" v="shieling" />
		<tag k="name" v="Storeslette" />
		<tag k="place" v="locality" />
		<tag k="ssr:stedsnr" v="396566" />
	</node>
	<node lat="60.83047777574553" lon="8.605825000996097" id="-21956">
		<tag k="name" v="Stakken" />
		<tag k="place" v="locality" />
		<tag k="ssr:stedsnr" v="396944" />
	</node>
	<node lat="60.79530277585894" lon="8.738799995046678" id="-21959">
		<tag k="name" v="Åsmyre" />
		<tag k="natural" v="wetland" />
		<tag k="ssr:stedsnr" v="397525" />
	</node>
	<node lat="60.852802779139935" lon="8.756169449267487" id="-21966">
		<tag k="name" v="Grytestølmyrane" />
		<tag k="natural" v="wetland" />
		<tag k="ssr:stedsnr" v="433165" />
	</node>
	<node lat="60.88108333619395" lon="8.84103055414176" id="-21996">
		<tag k="name" v="Svang" />
		<tag k="place" v="locality" />
		<tag k="ssr:stedsnr" v="517586" />
	</node>
	<node lat="60.8843111069844" lon="8.817466658884952" id="-22040">
		<tag k="historic" v="shieling" />
		<tag k="name" v="Myreslåtta" />
		<tag k="place" v="locality" />
		<tag k="ssr:stedsnr" v="578586" />
	</node>
	<node lat="60.853016670175364" lon="8.683466675712719" id="-22041">
		<tag k="alt_name" v="Ulsåkvollen" />
		<tag k="historic" v="shieling" />
		<tag k="name" v="Ullsåkvollen" />
		<tag k="place" v="locality" />
		<tag k="ssr:stedsnr" v="578674" />
	</node>
	<node lat="60.79827222553384" lon="8.686930564362557" id="-22044">
		<tag k="name" v="Ytreslåtta" />
		<tag k="place" v="locality" />
		<tag k="ssr:stedsnr" v="578282" />
	</node>
	<node lat="60.8614666683131" lon="8.642066669569752" id="-22049">
		<tag k="historic" v="shieling" />
		<tag k="name" v="Myrevollen" />
		<tag k="place" v="locality" />
		<tag k="ssr:stedsnr" v="578617" />
	</node>
	<node lat="61.00749999721408" lon="8.327388881634082" id="-22096">
		<tag k="historic" v="shieling" />
		<tag k="name" v="Strondavollen" />
		<tag k="place" v="locality" />
		<tag k="ssr:stedsnr" v="638235" />
	</node>
	<node lat="60.82683552831508" lon="8.734804992347764" id="-22102">
		<tag k="historic" v="shieling" />
		<tag k="name" v="Uppigardsheimstølen" />
		<tag k="place" v="locality" />
		<tag k="ssr:stedsnr" v="638575" />
	</node>
	<node lat="60.83996389090872" lon="8.630897213139976" id="-22104">
		<tag k="name" v="Gørrmyre" />
		<tag k="natural" v="wetland" />
		<tag k="ssr:stedsnr" v="638471" />
	</node>
	<node lat="60.92578611005455" lon="8.4254555580342" id="-22105">
		<tag k="name" v="Feten" />
		<tag k="place" v="locality" />
		<tag k="ssr:stedsnr" v="638571" />
	</node>
	<node lat="60.84783140067476" lon="8.642379132227388" id="-22107">
		<tag k="historic" v="shieling" />
		<tag k="name" v="Bakkestølen" />
		<tag k="place" v="locality" />
		<tag k="ssr:stedsnr" v="638639" />
	</node>
	<node lat="60.78149166968056" lon="8.69004166775574" id="-22145">
		<tag k="name" v="Jegervollen" />
		<tag k="place" v="locality" />
		<tag k="ssr:stedsnr" v="760310" />
	</node>
	<node lat="60.8221123118152" lon="8.662143364923715" id="-22147">
		<tag k="name" v="Nordbygdingsskogane" />
		<tag k="place" v="locality" />
		<tag k="ssr:stedsnr" v="760593" />
	</node>
	<node lat="60.92363333504612" lon="8.42161944904794" id="-22151">
		<tag k="historic" v="shieling" />
		<tag k="name" v="Grøndalsslåttene" />
		<tag k="place" v="locality" />
		<tag k="ssr:stedsnr" v="760565" />
	</node>
	<node lat="60.88588333327069" lon="8.835627775098219" id="-22153">
		<tag k="name" v="Bakkoslåtta" />
		<tag k="place" v="locality" />
		<tag k="ssr:stedsnr" v="760587" />
	</node>
	<node lat="60.85655349871583" lon="8.54588118580479" id="-22179">
		<tag k="historic" v="shieling" />
		<tag k="name" v="Skeieslåtta" />
		<tag k="place" v="locality" />
		<tag k="ssr:stedsnr" v="821095" />
	</node>
	<node lat="60.79956666757685" lon="8.681266663421153" id="-22187">
		<tag k="name" v="Toreslåtta" />
		<tag k="place" v="locality" />
		<tag k="ssr:stedsnr" v="821297" />
	</node>
	<node lat="60.87631388463099" lon="8.40813055580185" id="-22199">
		<tag k="name" v="Dalateigen" />
		<tag k="place" v="locality" />
		<tag k="ssr:stedsnr" v="821764" />
	</node>
	<node lat="60.797661107270784" lon="8.749091663900376" id="-22203">
		<tag k="name" v="Skreddarslåtta" />
		<tag k="place" v="locality" />
		<tag k="ssr:stedsnr" v="822539" />
	</node>
	<node lat="60.79366388864991" lon="8.74713611811089" id="-22240">
		<tag k="name" v="Kommuneskogen" />
		<tag k="place" v="locality" />
		<tag k="ssr:stedsnr" v="883577" />
	</node>
	<node lat="60.80807500337419" lon="8.712888881762854" id="-22245">
		<tag k="name" v="Røyrputtmyre" />
		<tag k="natural" v="wetland" />
		<tag k="ssr:stedsnr" v="882521" />
	</node>
	<node lat="60.883377778290416" lon="8.339761106235995" id="-22260">
		<tag k="historic" v="shieling" />
		<tag k="name" v="Gunvorvollen" />
		<tag k="place" v="locality" />
		<tag k="ssr:stedsnr" v="942181" />
	</node>
	<node lat="60.816230554352146" lon="8.710269449971637" id="-22262">
		<tag k="name" v="Rudningsmyre" />
		<tag k="natural" v="wetland" />
		<tag k="ssr:stedsnr" v="942379" />
	</node>
	<node lat="60.80968333148232" lon="8.708861117579838" id="-22266">
		<tag k="name" v="Ljoshaugmyrane" />
		<tag k="natural" v="wetland" />
		<tag k="ssr:stedsnr" v="942589" />
	</node>
	<node lat="60.84717778169845" lon="8.660749997978952" id="-22277">
		<tag k="historic" v="shieling" />
		<tag k="name" v="Lusestølen" />
		<tag k="place" v="locality" />
		<tag k="ssr:stedsnr" v="943629" />
	</node>
	<node lat="60.865188916265055" lon="8.59750358836201" id="-22283">
		<tag k="historic" v="shieling" />
		<tag k="name" v="Torstølen" />
		<tag k="place" v="locality" />
		<tag k="ssr:stedsnr" v="942928" />
	</node>
	<node lat="60.85329537106606" lon="8.540425911810605" id="-22288">
		<tag k="historic" v="shieling" />
		<tag k="name" v="Tottestølen" />
		<tag k="place" v="locality" />
		<tag k="ssr:stedsnr" v="943124" />
	</node>
	<node lat="60.87500555437361" lon="8.518183339815176" id="-22294">
		<tag k="name" v="Nedre Hagatræet" />
		<tag k="place" v="locality" />
		<tag k="ssr:stedsnr" v="943207" />
	</node>
	<node lat="60.79655555617834" lon="8.692644441771227" id="-22299">
		<tag k="name" v="Ålrustslåttene" />
		<tag k="place" v="locality" />
		<tag k="ssr:stedsnr" v="943323" />
	</node>
	<node lat="60.88498333676539" lon="8.811324996759343" id="-22303">
		<tag k="historic" v="shieling" />
		<tag k="name" v="Vipeslåtta" />
		<tag k="place" v="locality" />
		<tag k="ssr:stedsnr" v="943600" />
	</node>
</osm>
