<?xml version="1.0" encoding="UTF-8"?>
<osm generator="osmapis" version="0.6">
	<node id="-267104" lat="60.9697250031" lon="8.46588888901">
		<tag k="name" v="Primstøyten" />
		<tag k="place" v="locality" />
		<tag k="ssr:stedsnr" v="858537" />
	</node>
	<node id="-266687" lat="60.8268388865" lon="8.7556694502">
		<tag k="name" v="Bjørnaspranget" />
		<tag k="place" v="locality" />
		<tag k="ssr:stedsnr" v="215554" />
	</node>
	<node id="-266749" lat="60.8778916695" lon="8.4063833327">
		<tag k="name" v="Oksejøta" />
		<tag k="place" v="locality" />
		<tag k="ssr:stedsnr" v="335801" />
	</node>
	<node id="-267034" lat="60.875324996" lon="8.41113056388">
		<tag k="name" v="Nilsekjølva" />
		<tag k="place" v="locality" />
		<tag k="ssr:stedsnr" v="760746" />
	</node>
	<node id="-265919" lat="60.838450004" lon="8.66679999354">
		<tag k="name" v="Nasabøl" />
		<tag k="place" v="locality" />
		<tag k="ssr:stedsnr" v="335522" />
	</node>
	<node id="-266260" lat="60.8473805578" lon="8.63053334225">
		<tag k="alt_name" v="Hemsedal bygdatun" />
		<tag k="name" v="Hemsedal bygdetun" />
		<tag k="ssr:stedsnr" v="918176" />
		<tag k="tourism" v="attraction" />
	</node>
	<node id="-266478" lat="60.7990592106" lon="8.72499855203">
		<tag k="name" v="Mottaket" />
		<tag k="place" v="locality" />
		<tag k="ssr:stedsnr" v="32267" />
	</node>
	<node id="-266130" lat="60.883205559" lon="8.82977223029">
		<tag k="amenity" v="community_centre" />
		<tag k="name" v="Grendehus" />
		<tag k="ssr:stedsnr" v="578740" />
	</node>
	<node id="-266641" lat="60.861813888" lon="8.56344721973">
		<tag k="alt_name" v="Hemsedal" />
		<tag k="amenity" v="place_of_worship" />
		<tag k="denomination" v="lutheran" />
		<tag k="name" v="Hemsedal kyrkje" />
		<tag k="religion" v="christian" />
		<tag k="ssr:stedsnr" v="190150" />
	</node>
	<node id="-266734" lat="60.8041250024" lon="8.63371388185">
		<tag k="name" v="Tverrslaget" />
		<tag k="place" v="locality" />
		<tag k="ssr:stedsnr" v="335466" />
	</node>
	<node id="-266685" lat="60.8829472226" lon="8.87724166614">
		<tag k="name" v="Ripsaskålen" />
		<tag k="place" v="locality" />
		<tag k="ssr:stedsnr" v="215440" />
	</node>
	<node id="-267084" lat="60.8579805544" lon="8.6293222168">
		<tag k="name" v="Såtegjerde" />
		<tag k="place" v="locality" />
		<tag k="ssr:stedsnr" v="821634" />
	</node>
	<node id="-266505" lat="60.8200611088" lon="8.77284999786">
		<tag k="name" v="Steinvadet" />
		<tag k="place" v="locality" />
		<tag k="ssr:stedsnr" v="33542" />
	</node>
	<node id="-266208" lat="60.8693749966" lon="8.40584445184">
		<tag k="name" v="Liheim" />
		<tag k="place" v="locality" />
		<tag k="ssr:stedsnr" v="882635" />
	</node>
	<node id="-266375" lat="60.7948888917" lon="8.68689722783">
		<tag k="name" v="Avlaupet" />
		<tag k="place" v="locality" />
		<tag k="ssr:stedsnr" v="943325" />
	</node>
	<node id="-266918" lat="60.8067083298" lon="8.75242500007">
		<tag k="name" v="Plassen" />
		<tag k="place" v="locality" />
		<tag k="ssr:stedsnr" v="579567" />
	</node>
	<node id="-266757" lat="60.8325055552" lon="8.77369722593">
		<tag k="name" v="Halvfaret" />
		<tag k="place" v="locality" />
		<tag k="ssr:stedsnr" v="336466" />
	</node>
	<node id="-265824" lat="60.8496499966" lon="8.75685000637">
		<tag k="name" v="Krikken" />
		<tag k="place" v="locality" />
		<tag k="ssr:stedsnr" v="275729" />
	</node>
	<node id="-266147" lat="60.883638886" lon="8.84087221956">
		<tag k="alt_name" v="Lykkja" />
		<tag k="amenity" v="place_of_worship" />
		<tag k="denomination" v="lutheran" />
		<tag k="name" v="Lykkja kapell" />
		<tag k="religion" v="christian" />
		<tag k="ssr:stedsnr" v="615805" />
	</node>
	<node id="-265863" lat="60.9724000023" lon="8.44920278135">
		<tag k="name" v="Steinbu" />
		<tag k="place" v="locality" />
		<tag k="ssr:stedsnr" v="457421" />
	</node>
</osm>
