<?xml version="1.0" encoding="UTF-8"?>
<<<<<<< HEAD
<osm version="0.6" generator="osmapis">
	<node lat="61.028088886254" lon="8.376094451740931" id="-15241">
		<tag k="name" v="Storebottskardet" />
		<tag k="natural" v="valley" />
=======
<osm generator="osmapis" version="0.6">
	<node id="-274431" lat="60.8744611116" lon="8.34872221652">
		<tag k="name" v="Kampenhaug" />
		<tag k="natural" v="hill" />
		<tag k="place" v="locality" />
		<tag k="ssr:stedsnr" v="275183" />
	</node>
	<node id="-274410" lat="60.9122999994" lon="8.50362778435">
		<tag k="name" v="Holsteinskardet" />
		<tag k="natural" v="valley" />
		<tag k="place" v="locality" />
		<tag k="ssr:stedsnr" v="251895" />
	</node>
	<node id="-274408" lat="60.9207555582" lon="8.55133888952">
		<tag k="name" v="Vestrebotn" />
		<tag k="natural" v="valley" />
		<tag k="place" v="locality" />
		<tag k="ssr:stedsnr" v="251889" />
	</node>
	<node id="-274407" lat="60.9209777816" lon="8.57040556025">
		<tag k="fixme" v="consider natural=peak for the most distinct mountains in the district" />
		<tag k="name" v="Miljonøse" />
		<tag k="natural" v="hill" />
		<tag k="place" v="locality" />
		<tag k="ssr:stedsnr" v="251887" />
	</node>
	<node id="-274406" lat="60.9044250015" lon="8.57962500011">
		<tag k="name" v="Trøymsbotn" />
		<tag k="natural" v="valley" />
		<tag k="place" v="locality" />
		<tag k="ssr:stedsnr" v="251885" />
	</node>
	<node id="-274405" lat="60.9113083377" lon="8.51195832582">
		<tag k="fixme" v="consider natural=peak for the most distinct mountains in the district" />
		<tag k="name" v="Holsteintinden" />
		<tag k="natural" v="hill" />
		<tag k="place" v="locality" />
		<tag k="ssr:stedsnr" v="251879" />
	</node>
	<node id="-274403" lat="60.9917611078" lon="8.47184166241">
		<tag k="alt_name" v="Lysebotnen" />
		<tag k="name" v="Lysebotn" />
		<tag k="natural" v="valley" />
		<tag k="place" v="locality" />
		<tag k="ssr:stedsnr" v="251808" />
	</node>
	<node id="-274401" lat="60.9173444476" lon="8.1788694363">
		<tag k="name" v="Hyttebotn" />
		<tag k="natural" v="valley" />
		<tag k="place" v="locality" />
		<tag k="ssr:stedsnr" v="251635" />
	</node>
	<node id="-274398" lat="60.8788583365" lon="8.39288333468">
		<tag k="fixme" v="consider natural=peak for the most distinct mountains in the district" />
		<tag k="name" v="Øystølnøse" />
		<tag k="natural" v="hill" />
		<tag k="place" v="locality" />
		<tag k="ssr:stedsnr" v="251613" />
	</node>
	<node id="-274397" lat="60.8751388867" lon="8.17357777945">
		<tag k="alt_name" v="Langebottfjell" />
		<tag k="fixme" v="consider natural=peak for the most distinct mountains in the district" />
		<tag k="name" v="Langebottfjellet" />
		<tag k="natural" v="hill" />
		<tag k="place" v="locality" />
		<tag k="ssr:stedsnr" v="251608" />
	</node>
	<node id="-274395" lat="60.8777694487" lon="8.43392499931">
		<tag k="alt_name" v="Mjellhovd" />
		<tag k="fixme" v="consider natural=peak for the most distinct mountains in the district" />
		<tag k="name" v="Mjellhovda" />
		<tag k="natural" v="hill" />
		<tag k="place" v="locality" />
		<tag k="ssr:stedsnr" v="251605" />
	</node>
	<node id="-274390" lat="60.9834138898" lon="8.24925556205">
		<tag k="name" v="Råskardet" />
		<tag k="natural" v="valley" />
		<tag k="place" v="locality" />
		<tag k="ssr:stedsnr" v="251577" />
	</node>
	<node id="-274388" lat="60.9399166693" lon="8.36361110815">
		<tag k="name" v="Fetalie" />
		<tag k="natural" v="slope" />
		<tag k="place" v="locality" />
		<tag k="ssr:stedsnr" v="251541" />
	</node>
	<node id="-274386" lat="60.9577590696" lon="8.35782378104">
		<tag k="name" v="Heggeslettane" />
		<tag k="natural" v="slope" />
		<tag k="place" v="locality" />
		<tag k="ssr:stedsnr" v="251524" />
	</node>
	<node id="-274385" lat="60.8151361068" lon="8.74559445219">
		<tag k="name" v="Heimstølhøgde" />
		<tag k="natural" v="hill" />
		<tag k="place" v="locality" />
		<tag k="ssr:stedsnr" v="251249" />
	</node>
	<node id="-274384" lat="60.8149777816" lon="8.5954861116">
		<tag k="fixme" v="consider natural=peak for the most distinct mountains in the district" />
		<tag k="name" v="Storehorn" />
		<tag k="natural" v="hill" />
		<tag k="old_name" v="st. Horne" />
		<tag k="place" v="locality" />
		<tag k="ssr:stedsnr" v="251240" />
	</node>
	<node id="-274381" lat="60.8450166664" lon="8.70104999434">
		<tag k="fixme" v="consider natural=peak for the most distinct mountains in the district" />
		<tag k="name" v="Gravsetåsen" />
		<tag k="natural" v="hill" />
		<tag k="place" v="locality" />
		<tag k="ssr:stedsnr" v="251198" />
	</node>
	<node id="-274378" lat="60.8549277809" lon="8.81440555692">
		<tag k="name" v="Svarahovda" />
		<tag k="natural" v="hill" />
		<tag k="place" v="locality" />
		<tag k="ssr:stedsnr" v="251172" />
	</node>
	<node id="-274373" lat="60.7696111084" lon="8.7226916633">
		<tag k="name" v="Sauehovda" />
		<tag k="natural" v="hill" />
		<tag k="place" v="locality" />
		<tag k="ssr:stedsnr" v="251015" />
	</node>
	<node id="-274370" lat="60.9543194416" lon="8.48076666549">
		<tag k="name" v="Ljotebotn" />
		<tag k="natural" v="valley" />
		<tag k="place" v="locality" />
		<tag k="ssr:stedsnr" v="70647" />
	</node>
	<node id="-274367" lat="60.9181972197" lon="8.33476111504">
		<tag k="name" v="Raudberg" />
		<tag k="natural" v="hill" />
		<tag k="place" v="locality" />
		<tag k="ssr:stedsnr" v="69644" />
	</node>
	<node id="-274364" lat="60.8643194464" lon="8.34236111965">
		<tag k="fixme" v="consider natural=peak for the most distinct mountains in the district" />
		<tag k="name" v="Grøneleinhovda" />
		<tag k="natural" v="hill" />
		<tag k="place" v="locality" />
		<tag k="ssr:stedsnr" v="69630" />
	</node>
	<node id="-274362" lat="60.8992666638" lon="8.39706667445">
		<tag k="fixme" v="consider natural=peak for the most distinct mountains in the district" />
		<tag k="name" v="Storestølnøse" />
		<tag k="natural" v="hill" />
		<tag k="place" v="locality" />
		<tag k="ssr:stedsnr" v="69618" />
	</node>
	<node id="-274360" lat="60.9800250004" lon="8.2831138875">
		<tag k="name" v="Strypen" />
		<tag k="natural" v="cliff" />
		<tag k="ssr:stedsnr" v="69604" />
	</node>
	<node id="-274358" lat="60.8609055585" lon="8.76960278058">
		<tag k="name" v="Svarteberg" />
		<tag k="natural" v="hill" />
		<tag k="place" v="locality" />
		<tag k="ssr:stedsnr" v="33119" />
	</node>
	<node id="-274352" lat="60.8852805591" lon="8.800750002">
		<tag k="name" v="Storhovda" />
		<tag k="natural" v="hill" />
		<tag k="place" v="locality" />
		<tag k="ssr:stedsnr" v="9818" />
	</node>
	<node id="-274349" lat="60.9235749963" lon="8.3200777747">
		<tag k="name" v="Grønleinbotn" />
		<tag k="natural" v="valley" />
		<tag k="place" v="locality" />
		<tag k="ssr:stedsnr" v="9603" />
	</node>
	<node id="-275766" lat="60.991746189" lon="8.58504538894">
		<tag k="fixme" v="consider natural=peak for the most distinct mountains in the district" />
		<tag k="name" v="Ranastongeggi" />
		<tag k="natural" v="hill" />
		<tag k="place" v="locality" />
		<tag k="ssr:stedsnr" v="9770" />
	</node>
	<node id="-275763" lat="60.767877775" lon="8.64581388167">
		<tag k="fixme" v="consider natural=peak for the most distinct mountains in the district" />
		<tag k="name" v="Valhovd" />
		<tag k="natural" v="hill" />
		<tag k="ssr:stedsnr" v="372015" />
	</node>
	<node id="-275761" lat="61.0539120148" lon="8.21443084736">
		<tag k="fixme" v="consider natural=peak for the most distinct mountains in the district" />
		<tag k="name" v="Høgeloft" />
		<tag k="natural" v="hill" />
		<tag k="place" v="locality" />
		<tag k="ssr:stedsnr" v="674629" />
	</node>
	<node id="-275753" lat="60.8122190078" lon="8.72500925901">
		<tag k="name" v="Kalveslette" />
>>>>>>> e1d4bc35ff8a6074a6f2e91616a996b547c36f15
		<tag k="place" v="locality" />
		<tag k="ssr:stedsnr" v="7617" />
	</node>
<<<<<<< HEAD
	<node lat="61.0043138875762" lon="8.36849999335959" id="-15242">
		<tag k="name" v="Mørekvamberget" />
=======
	<node id="-275752" lat="60.85455989" lon="8.44236842559">
		<tag k="name" v="Rupehovda" />
>>>>>>> e1d4bc35ff8a6074a6f2e91616a996b547c36f15
		<tag k="natural" v="hill" />
		<tag k="place" v="locality" />
		<tag k="ssr:stedsnr" v="7707" />
	</node>
<<<<<<< HEAD
	<node lat="60.968938888950845" lon="8.183980560554511" id="-15247">
		<tag k="alt_name" v="Slettetind" />
=======
	<node id="-275746" lat="60.8833000014" lon="8.37773055692">
>>>>>>> e1d4bc35ff8a6074a6f2e91616a996b547c36f15
		<tag k="fixme" v="consider natural=peak for the most distinct mountains in the district" />
		<tag k="name" v="Slettind" />
		<tag k="natural" v="hill" />
		<tag k="old_name" v="Slettinden" />
		<tag k="place" v="locality" />
		<tag k="ssr:stedsnr" v="8568" />
	</node>
<<<<<<< HEAD
	<node lat="60.858202774894984" lon="8.411430556725056" id="-15248">
		<tag k="name" v="Svarthamaren" />
=======
	<node id="-275743" lat="60.8987750011" lon="8.50863055266">
		<tag k="fixme" v="consider natural=peak for the most distinct mountains in the district" />
		<tag k="name" v="Flæin" />
>>>>>>> e1d4bc35ff8a6074a6f2e91616a996b547c36f15
		<tag k="natural" v="hill" />
		<tag k="place" v="locality" />
		<tag k="ssr:stedsnr" v="8940" />
	</node>
<<<<<<< HEAD
	<node lat="60.92357499630783" lon="8.320077774700694" id="-15254">
		<tag k="name" v="Grønleinbotn" />
		<tag k="natural" v="valley" />
=======
	<node id="-275738" lat="60.8750805569" lon="8.47889722807">
		<tag k="name" v="Lauvhaugen" />
		<tag k="natural" v="hill" />
>>>>>>> e1d4bc35ff8a6074a6f2e91616a996b547c36f15
		<tag k="place" v="locality" />
		<tag k="ssr:stedsnr" v="9603" />
	</node>
<<<<<<< HEAD
	<node lat="60.88528055912476" lon="8.800750002002559" id="-15258">
		<tag k="name" v="Storhovda" />
=======
	<node id="-275734" lat="60.9296111095" lon="8.30516944995">
		<tag k="name" v="Grønleinberget" />
>>>>>>> e1d4bc35ff8a6074a6f2e91616a996b547c36f15
		<tag k="natural" v="hill" />
		<tag k="place" v="locality" />
		<tag k="ssr:stedsnr" v="9818" />
	</node>
<<<<<<< HEAD
	<node lat="60.85394284225507" lon="8.512480323697988" id="-15259">
		<tag k="name" v="Bjødnahovda" />
=======
	<node id="-275732" lat="60.9658055527" lon="8.21559444939">
		<tag k="fixme" v="consider natural=peak for the most distinct mountains in the district" />
		<tag k="name" v="Bandenøse" />
>>>>>>> e1d4bc35ff8a6074a6f2e91616a996b547c36f15
		<tag k="natural" v="hill" />
		<tag k="place" v="locality" />
		<tag k="ssr:stedsnr" v="32004" />
	</node>
<<<<<<< HEAD
	<node lat="60.85519166880126" lon="8.525424995982425" id="-15261">
		<tag k="name" v="Svarteberg" />
=======
	<node id="-275730" lat="60.8955111086" lon="8.48595555075">
		<tag k="fixme" v="consider natural=peak for the most distinct mountains in the district" />
		<tag k="name" v="Kvitingane" />
>>>>>>> e1d4bc35ff8a6074a6f2e91616a996b547c36f15
		<tag k="natural" v="hill" />
		<tag k="place" v="locality" />
		<tag k="ssr:stedsnr" v="32074" />
	</node>
<<<<<<< HEAD
	<node lat="60.931291115299246" lon="8.412686953880103" id="-15265">
		<tag k="name" v="Nordigarden" />
		<tag k="place" v="locality" />
		<tag k="ssr:stedsnr" v="32380" />
	</node>
	<node lat="60.909086110844584" lon="8.415705558595544" id="-15267">
		<tag k="name" v="Bjørnebergstølnuten" />
=======
	<node id="-275724" lat="60.8678833305" lon="8.58196667344">
		<tag k="alt_name" v="Imrestinden" />
		<tag k="fixme" v="consider natural=peak for the most distinct mountains in the district" />
		<tag k="name" v="Imrestind" />
>>>>>>> e1d4bc35ff8a6074a6f2e91616a996b547c36f15
		<tag k="natural" v="hill" />
		<tag k="place" v="locality" />
		<tag k="ssr:stedsnr" v="32602" />
	</node>
<<<<<<< HEAD
	<node lat="60.896163887070855" lon="8.411052781386795" id="-15268">
		<tag k="name" v="Nøse" />
=======
	<node id="-275723" lat="60.8643888932" lon="8.62792778658">
		<tag k="fixme" v="consider natural=peak for the most distinct mountains in the district" />
		<tag k="name" v="Såta" />
>>>>>>> e1d4bc35ff8a6074a6f2e91616a996b547c36f15
		<tag k="natural" v="hill" />
		<tag k="place" v="locality" />
		<tag k="ssr:stedsnr" v="32608" />
	</node>
<<<<<<< HEAD
	<node lat="60.85399166630315" lon="8.680880553847222" id="-15270">
		<tag k="name" v="Ragnehaugen" />
=======
	<node id="-275722" lat="60.87280278" lon="8.56708611073">
		<tag k="name" v="Synehovda" />
>>>>>>> e1d4bc35ff8a6074a6f2e91616a996b547c36f15
		<tag k="natural" v="hill" />
		<tag k="place" v="locality" />
		<tag k="ssr:stedsnr" v="32665" />
	</node>
<<<<<<< HEAD
	<node lat="60.89630555579884" lon="8.418200003033945" id="-15271">
		<tag k="name" v="Bandstøyptklanten" />
=======
	<node id="-275721" lat="60.8700611131" lon="8.51578888288">
		<tag k="name" v="Hollekolten" />
>>>>>>> e1d4bc35ff8a6074a6f2e91616a996b547c36f15
		<tag k="natural" v="hill" />
		<tag k="place" v="locality" />
		<tag k="ssr:stedsnr" v="32613" />
	</node>
<<<<<<< HEAD
	<node lat="61.06526111194553" lon="8.312299997474245" id="-15280">
		<tag k="fixme" v="consider natural=peak for the most distinct mountains in the district" />
		<tag k="name" v="Bjørnånøse" />
		<tag k="natural" v="hill" />
=======
	<node id="-275715" lat="60.8459861139" lon="8.79817500222">
		<tag k="name" v="Nystøllie" />
		<tag k="natural" v="slope" />
>>>>>>> e1d4bc35ff8a6074a6f2e91616a996b547c36f15
		<tag k="place" v="locality" />
		<tag k="ssr:stedsnr" v="67642" />
	</node>
<<<<<<< HEAD
	<node lat="61.08259444275237" lon="8.30278055750045" id="-15281">
		<tag k="name" v="Grøndalsbotnen" />
		<tag k="natural" v="valley" />
=======
	<node id="-275713" lat="60.8646666192" lon="8.60893589601">
		<tag k="name" v="Bjørkeskørritn" />
>>>>>>> e1d4bc35ff8a6074a6f2e91616a996b547c36f15
		<tag k="place" v="locality" />
		<tag k="ssr:stedsnr" v="67648" />
	</node>
<<<<<<< HEAD
	<node lat="60.79469721938445" lon="8.644586113356683" id="-15282">
		<tag k="name" v="Rishovd" />
=======
	<node id="-275704" lat="60.8312388923" lon="8.72711389323">
		<tag k="name" v="Vannestølhøgde" />
>>>>>>> e1d4bc35ff8a6074a6f2e91616a996b547c36f15
		<tag k="natural" v="hill" />
		<tag k="place" v="locality" />
		<tag k="ssr:stedsnr" v="69004" />
	</node>
<<<<<<< HEAD
	<node lat="60.85473889057319" lon="8.644861109005511" id="-15284">
		<tag k="name" v="Stegbakkhovda" />
=======
	<node id="-275703" lat="60.9698361145" lon="8.37308611376">
		<tag k="name" v="Bekkeklantane" />
>>>>>>> e1d4bc35ff8a6074a6f2e91616a996b547c36f15
		<tag k="natural" v="hill" />
		<tag k="place" v="locality" />
		<tag k="ssr:stedsnr" v="69180" />
	</node>
<<<<<<< HEAD
	<node lat="60.85013055555692" lon="8.764361102702477" id="-15285">
		<tag k="name" v="Skoltehovda" />
=======
	<node id="-275697" lat="60.8511916679" lon="8.53858055483">
		<tag k="name" v="Jøkulen" />
>>>>>>> e1d4bc35ff8a6074a6f2e91616a996b547c36f15
		<tag k="natural" v="hill" />
		<tag k="place" v="locality" />
		<tag k="ssr:stedsnr" v="69184" />
	</node>
<<<<<<< HEAD
	<node lat="60.83244722186906" lon="8.78788888402682" id="-15288">
		<tag k="name" v="Høgehaug" />
=======
	<node id="-275694" lat="60.874933332" lon="8.52573055939">
		<tag k="fixme" v="consider natural=peak for the most distinct mountains in the district" />
		<tag k="name" v="Kvennaberg" />
>>>>>>> e1d4bc35ff8a6074a6f2e91616a996b547c36f15
		<tag k="natural" v="hill" />
		<tag k="place" v="locality" />
		<tag k="ssr:stedsnr" v="69214" />
	</node>
	<node lat="60.98002500042712" lon="8.283113887499063" id="-15290">
		<tag k="name" v="Strypen" />
		<tag k="natural" v="cliff" />
		<tag k="ssr:stedsnr" v="69604" />
	</node>
<<<<<<< HEAD
	<node lat="60.89926666383605" lon="8.397066674451983" id="-15292">
=======
	<node id="-275691" lat="60.8898333357" lon="8.67238611936">
>>>>>>> e1d4bc35ff8a6074a6f2e91616a996b547c36f15
		<tag k="fixme" v="consider natural=peak for the most distinct mountains in the district" />
		<tag k="name" v="Storestølnøse" />
		<tag k="natural" v="hill" />
		<tag k="place" v="locality" />
		<tag k="ssr:stedsnr" v="69618" />
	</node>
<<<<<<< HEAD
	<node lat="60.86869162452104" lon="8.414719745484458" id="-15296">
		<tag k="name" v="Moane" />
=======
	<node id="-275686" lat="60.8797500001" lon="8.53722222493">
		<tag k="alt_name" v="Haugsbotnen" />
		<tag k="name" v="Haugsbotn" />
		<tag k="natural" v="valley" />
>>>>>>> e1d4bc35ff8a6074a6f2e91616a996b547c36f15
		<tag k="place" v="locality" />
		<tag k="ssr:stedsnr" v="69939" />
	</node>
<<<<<<< HEAD
	<node lat="60.86431944639993" lon="8.342361119646782" id="-15297">
=======
	<node id="-275685" lat="60.8814978352" lon="8.69483449814">
>>>>>>> e1d4bc35ff8a6074a6f2e91616a996b547c36f15
		<tag k="fixme" v="consider natural=peak for the most distinct mountains in the district" />
		<tag k="name" v="Grøneleinhovda" />
		<tag k="natural" v="hill" />
		<tag k="place" v="locality" />
		<tag k="ssr:stedsnr" v="69630" />
	</node>
<<<<<<< HEAD
	<node lat="60.89204166576547" lon="8.272000002121453" id="-15302">
		<tag k="name" v="Grasskriu" />
		<tag k="natural" v="slope" />
=======
	<node id="-275682" lat="60.9300861087" lon="8.13376944427">
		<tag k="name" v="Bjøbergdalen" />
		<tag k="natural" v="valley" />
>>>>>>> e1d4bc35ff8a6074a6f2e91616a996b547c36f15
		<tag k="place" v="locality" />
		<tag k="ssr:stedsnr" v="93168" />
	</node>
<<<<<<< HEAD
	<node lat="60.84610833784511" lon="8.694383338895706" id="-15306">
		<tag k="name" v="Stakkestøhovda" />
=======
	<node id="-275680" lat="60.9133750017" lon="8.41184444587">
		<tag k="fixme" v="consider natural=peak for the most distinct mountains in the district" />
		<tag k="name" v="Slettenøse" />
>>>>>>> e1d4bc35ff8a6074a6f2e91616a996b547c36f15
		<tag k="natural" v="hill" />
		<tag k="place" v="locality" />
		<tag k="ssr:stedsnr" v="93620" />
	</node>
<<<<<<< HEAD
	<node lat="60.85008610796939" lon="8.494444452582435" id="-15307">
		<tag k="name" v="Tinden" />
=======
	<node id="-275671" lat="61.0547499984" lon="8.35975554887">
		<tag k="fixme" v="consider natural=peak for the most distinct mountains in the district" />
		<tag k="name" v="Hamarskredtinden" />
>>>>>>> e1d4bc35ff8a6074a6f2e91616a996b547c36f15
		<tag k="natural" v="hill" />
		<tag k="place" v="locality" />
		<tag k="ssr:stedsnr" v="93671" />
	</node>
<<<<<<< HEAD
	<node lat="60.84152416441474" lon="8.57159453591154" id="-15311">
		<tag k="name" v="Omfarhaugen" />
		<tag k="natural" v="hill" />
=======
	<node id="-275667" lat="60.8390728444" lon="8.56832300636">
		<tag k="name" v="Jøta" />
>>>>>>> e1d4bc35ff8a6074a6f2e91616a996b547c36f15
		<tag k="place" v="locality" />
		<tag k="ssr:stedsnr" v="93967" />
	</node>
<<<<<<< HEAD
	<node lat="60.917344447628984" lon="8.178869436301996" id="-15314">
		<tag k="name" v="Hyttebotn" />
		<tag k="natural" v="valley" />
=======
	<node id="-275657" lat="60.8825611078" lon="8.80321111806">
		<tag k="name" v="Sørehjallen" />
		<tag k="natural" v="slope" />
>>>>>>> e1d4bc35ff8a6074a6f2e91616a996b547c36f15
		<tag k="place" v="locality" />
		<tag k="ssr:stedsnr" v="251635" />
	</node>
<<<<<<< HEAD
	<node lat="60.76961110839287" lon="8.722691663301077" id="-15317">
		<tag k="name" v="Sauehovda" />
=======
	<node id="-275652" lat="60.8700222187" lon="8.68353055655">
		<tag k="name" v="Kariberg" />
>>>>>>> e1d4bc35ff8a6074a6f2e91616a996b547c36f15
		<tag k="natural" v="hill" />
		<tag k="place" v="locality" />
		<tag k="ssr:stedsnr" v="251015" />
	</node>
<<<<<<< HEAD
	<node lat="60.85492778089142" lon="8.814405556916187" id="-15323">
		<tag k="name" v="Svarahovda" />
=======
	<node id="-275651" lat="60.8675888875" lon="8.7440083393">
		<tag k="name" v="Maurhaugane" />
>>>>>>> e1d4bc35ff8a6074a6f2e91616a996b547c36f15
		<tag k="natural" v="hill" />
		<tag k="place" v="locality" />
		<tag k="ssr:stedsnr" v="251172" />
	</node>
<<<<<<< HEAD
	<node lat="60.81497778158592" lon="8.595486111598992" id="-15324">
		<tag k="fixme" v="consider natural=peak for the most distinct mountains in the district" />
		<tag k="name" v="Storehorn" />
		<tag k="natural" v="hill" />
		<tag k="old_name" v="st. Horne" />
=======
	<node id="-275650" lat="60.9101583372" lon="8.43658888229">
		<tag k="name" v="Teigatræet" />
>>>>>>> e1d4bc35ff8a6074a6f2e91616a996b547c36f15
		<tag k="place" v="locality" />
		<tag k="ssr:stedsnr" v="251240" />
	</node>
<<<<<<< HEAD
	<node lat="60.845016666376225" lon="8.70104999433712" id="-15326">
		<tag k="fixme" v="consider natural=peak for the most distinct mountains in the district" />
		<tag k="name" v="Gravsetåsen" />
		<tag k="natural" v="hill" />
=======
	<node id="-275646" lat="60.7854861151" lon="8.69376943991">
		<tag k="name" v="Hølene" />
		<tag k="natural" v="slope" />
>>>>>>> e1d4bc35ff8a6074a6f2e91616a996b547c36f15
		<tag k="place" v="locality" />
		<tag k="ssr:stedsnr" v="251198" />
	</node>
<<<<<<< HEAD
	<node lat="60.815136106769" lon="8.745594452194874" id="-15329">
		<tag k="name" v="Heimstølhøgde" />
=======
	<node id="-275644" lat="60.8960361104" lon="8.7980972253">
		<tag k="name" v="Trommehøgde" />
>>>>>>> e1d4bc35ff8a6074a6f2e91616a996b547c36f15
		<tag k="natural" v="hill" />
		<tag k="place" v="locality" />
		<tag k="ssr:stedsnr" v="251249" />
	</node>
<<<<<<< HEAD
	<node lat="60.957759069561895" lon="8.357823781040997" id="-15334">
		<tag k="name" v="Heggeslettane" />
		<tag k="natural" v="slope" />
		<tag k="place" v="locality" />
		<tag k="ssr:stedsnr" v="251524" />
	</node>
	<node lat="60.93991666926823" lon="8.363611108145463" id="-15335">
		<tag k="name" v="Fetalie" />
		<tag k="natural" v="slope" />
=======
	<node id="-275643" lat="61.0043027793" lon="8.32534444018">
		<tag k="name" v="Leinene" />
		<tag k="natural" v="slope" />
		<tag k="place" v="locality" />
		<tag k="ssr:stedsnr" v="760268" />
	</node>
	<node id="-275642" lat="60.8571563238" lon="8.50834094748">
		<tag k="name" v="Såhaug" />
		<tag k="natural" v="hill" />
		<tag k="place" v="locality" />
		<tag k="ssr:stedsnr" v="760012" />
	</node>
	<node id="-275640" lat="60.8148277815" lon="8.46538333297">
		<tag k="fixme" v="consider natural=peak for the most distinct mountains in the district" />
		<tag k="name" v="Storebottnuten" />
		<tag k="natural" v="hill" />
>>>>>>> e1d4bc35ff8a6074a6f2e91616a996b547c36f15
		<tag k="place" v="locality" />
		<tag k="ssr:stedsnr" v="251541" />
	</node>
<<<<<<< HEAD
	<node lat="60.983413889781346" lon="8.249255562049436" id="-15337">
		<tag k="name" v="Råskardet" />
=======
	<node id="-275635" lat="60.9270194402" lon="8.40100834176">
		<tag k="name" v="Grøndalen" />
>>>>>>> e1d4bc35ff8a6074a6f2e91616a996b547c36f15
		<tag k="natural" v="valley" />
		<tag k="place" v="locality" />
		<tag k="ssr:stedsnr" v="251577" />
	</node>
<<<<<<< HEAD
	<node lat="60.87776944871633" lon="8.433924999309761" id="-15343">
		<tag k="alt_name" v="Mjellhovd" />
=======
	<node id="-275634" lat="60.9319194434" lon="8.27500556364">
>>>>>>> e1d4bc35ff8a6074a6f2e91616a996b547c36f15
		<tag k="fixme" v="consider natural=peak for the most distinct mountains in the district" />
		<tag k="name" v="Mjellhovda" />
		<tag k="natural" v="hill" />
		<tag k="place" v="locality" />
		<tag k="ssr:stedsnr" v="251605" />
	</node>
<<<<<<< HEAD
	<node lat="60.87513888672464" lon="8.173577779449161" id="-15345">
		<tag k="alt_name" v="Langebottfjell" />
		<tag k="fixme" v="consider natural=peak for the most distinct mountains in the district" />
		<tag k="name" v="Langebottfjellet" />
=======
	<node id="-275629" lat="60.8010250026" lon="8.77058334116">
		<tag k="name" v="Fuglehaug" />
>>>>>>> e1d4bc35ff8a6074a6f2e91616a996b547c36f15
		<tag k="natural" v="hill" />
		<tag k="place" v="locality" />
		<tag k="ssr:stedsnr" v="251608" />
	</node>
<<<<<<< HEAD
	<node lat="60.87885833645434" lon="8.39288333468051" id="-15346">
=======
	<node id="-275627" lat="60.8421583326" lon="8.37633611516">
>>>>>>> e1d4bc35ff8a6074a6f2e91616a996b547c36f15
		<tag k="fixme" v="consider natural=peak for the most distinct mountains in the district" />
		<tag k="name" v="Øystølnøse" />
		<tag k="natural" v="hill" />
		<tag k="place" v="locality" />
		<tag k="ssr:stedsnr" v="251613" />
	</node>
<<<<<<< HEAD
	<node lat="60.99176110775793" lon="8.471841662414416" id="-15349">
		<tag k="alt_name" v="Lysebotnen" />
		<tag k="name" v="Lysebotn" />
=======
	<node id="-275626" lat="60.8803749998" lon="8.35119999895">
		<tag k="name" v="Heimdalen" />
>>>>>>> e1d4bc35ff8a6074a6f2e91616a996b547c36f15
		<tag k="natural" v="valley" />
		<tag k="place" v="locality" />
		<tag k="ssr:stedsnr" v="251808" />
	</node>
<<<<<<< HEAD
	<node lat="60.904425001505416" lon="8.579625000105533" id="-15350">
		<tag k="name" v="Trøymsbotn" />
		<tag k="natural" v="valley" />
=======
	<node id="-275625" lat="60.8882222211" lon="8.33461667371">
		<tag k="fixme" v="consider natural=peak for the most distinct mountains in the district" />
		<tag k="name" v="Galden" />
		<tag k="natural" v="hill" />
>>>>>>> e1d4bc35ff8a6074a6f2e91616a996b547c36f15
		<tag k="place" v="locality" />
		<tag k="ssr:stedsnr" v="251885" />
	</node>
<<<<<<< HEAD
	<node lat="60.920977781633816" lon="8.570405560246664" id="-15351">
=======
	<node id="-275622" lat="60.9530722199" lon="8.39998334121">
		<tag k="alt_name" v="Nøse" />
>>>>>>> e1d4bc35ff8a6074a6f2e91616a996b547c36f15
		<tag k="fixme" v="consider natural=peak for the most distinct mountains in the district" />
		<tag k="name" v="Miljonøse" />
		<tag k="natural" v="hill" />
		<tag k="place" v="locality" />
		<tag k="ssr:stedsnr" v="251887" />
	</node>
<<<<<<< HEAD
	<node lat="60.920755558199495" lon="8.551338889519789" id="-15352">
		<tag k="name" v="Vestrebotn" />
		<tag k="natural" v="valley" />
=======
	<node id="-275621" lat="60.9577444449" lon="8.19745833822">
		<tag k="fixme" v="consider natural=peak for the most distinct mountains in the district" />
		<tag k="name" v="Trongebottfjellet" />
		<tag k="natural" v="hill" />
>>>>>>> e1d4bc35ff8a6074a6f2e91616a996b547c36f15
		<tag k="place" v="locality" />
		<tag k="ssr:stedsnr" v="251889" />
	</node>
<<<<<<< HEAD
	<node lat="60.91229999937895" lon="8.503627784346138" id="-15354">
		<tag k="name" v="Holsteinskardet" />
		<tag k="natural" v="valley" />
=======
	<node id="-275609" lat="60.8788305524" lon="8.9007277733">
		<tag k="name" v="Krokhølen" />
>>>>>>> e1d4bc35ff8a6074a6f2e91616a996b547c36f15
		<tag k="place" v="locality" />
		<tag k="ssr:stedsnr" v="251895" />
	</node>
<<<<<<< HEAD
	<node lat="60.91130833773601" lon="8.511958325821919" id="-15356">
		<tag k="fixme" v="consider natural=peak for the most distinct mountains in the district" />
		<tag k="name" v="Holsteintinden" />
		<tag k="natural" v="hill" />
		<tag k="place" v="locality" />
		<tag k="ssr:stedsnr" v="251879" />
	</node>
	<node lat="60.87978888725423" lon="8.52742777239667" id="-15373">
		<tag k="name" v="Bøttoklanten" />
=======
	<node id="-275605" lat="60.8452130427" lon="8.79242578481">
		<tag k="name" v="Nystøllie" />
>>>>>>> e1d4bc35ff8a6074a6f2e91616a996b547c36f15
		<tag k="natural" v="slope" />
		<tag k="place" v="locality" />
		<tag k="ssr:stedsnr" v="153072" />
	</node>
<<<<<<< HEAD
	<node lat="60.81445277781217" lon="8.710177781685994" id="-15375">
		<tag k="name" v="Nedre Rudningshaugen" />
		<tag k="natural" v="hill" />
=======
	<node id="-275601" lat="60.8326028081" lon="8.58775542986">
		<tag k="name" v="Hovdeslette" />
>>>>>>> e1d4bc35ff8a6074a6f2e91616a996b547c36f15
		<tag k="place" v="locality" />
		<tag k="ssr:stedsnr" v="153407" />
	</node>
<<<<<<< HEAD
	<node lat="60.81846111498338" lon="8.726702771129691" id="-15376">
		<tag k="name" v="Haugahallene" />
=======
	<node id="-275596" lat="60.8500999959" lon="8.69556110401">
		<tag k="name" v="Langedokklanten" />
>>>>>>> e1d4bc35ff8a6074a6f2e91616a996b547c36f15
		<tag k="natural" v="slope" />
		<tag k="place" v="locality" />
		<tag k="ssr:stedsnr" v="153411" />
	</node>
<<<<<<< HEAD
	<node lat="60.87511388682603" lon="8.824580562120042" id="-15377">
		<tag k="name" v="Haugane" />
=======
	<node id="-275593" lat="60.8470388893" lon="8.65427500187">
		<tag k="name" v="Finntopp" />
>>>>>>> e1d4bc35ff8a6074a6f2e91616a996b547c36f15
		<tag k="natural" v="hill" />
		<tag k="place" v="locality" />
		<tag k="ssr:stedsnr" v="153612" />
	</node>
<<<<<<< HEAD
	<node lat="60.92920797898795" lon="8.404726173859647" id="-15378">
		<tag k="name" v="Nordre Moen" />
=======
	<node id="-275589" lat="60.8797722261" lon="8.854177773">
		<tag k="name" v="Kvernahaugen" />
		<tag k="natural" v="hill" />
>>>>>>> e1d4bc35ff8a6074a6f2e91616a996b547c36f15
		<tag k="place" v="locality" />
		<tag k="ssr:stedsnr" v="153600" />
	</node>
<<<<<<< HEAD
	<node lat="60.84852777645773" lon="8.692622215591728" id="-15379">
		<tag k="name" v="Dugurdsnatten" />
=======
	<node id="-275588" lat="60.9275388879" lon="8.41006110623">
		<tag k="name" v="Sveinemyre" />
		<tag k="place" v="locality" />
		<tag k="ssr:stedsnr" v="638577" />
	</node>
	<node id="-275584" lat="60.9298416639" lon="8.45469167008">
		<tag k="name" v="Fjellstølklanten" />
>>>>>>> e1d4bc35ff8a6074a6f2e91616a996b547c36f15
		<tag k="natural" v="hill" />
		<tag k="place" v="locality" />
		<tag k="ssr:stedsnr" v="153711" />
	</node>
<<<<<<< HEAD
	<node lat="60.86229563088626" lon="8.612080355979781" id="-15380">
		<tag k="name" v="Grøtenuten" />
=======
	<node id="-275580" lat="60.9719416688" lon="8.46779722335">
		<tag k="name" v="Munnen" />
>>>>>>> e1d4bc35ff8a6074a6f2e91616a996b547c36f15
		<tag k="natural" v="valley" />
		<tag k="place" v="locality" />
		<tag k="ssr:stedsnr" v="153948" />
	</node>
<<<<<<< HEAD
	<node lat="60.856050003325215" lon="8.814569450297867" id="-15381">
		<tag k="name" v="Eikrestøllie" />
		<tag k="natural" v="slope" />
=======
	<node id="-275572" lat="60.9570361083" lon="8.60515278149">
		<tag k="name" v="Øyrebratte" />
		<tag k="natural" v="hill" />
>>>>>>> e1d4bc35ff8a6074a6f2e91616a996b547c36f15
		<tag k="place" v="locality" />
		<tag k="ssr:stedsnr" v="154802" />
	</node>
<<<<<<< HEAD
	<node lat="60.85598333763065" lon="8.804191663806417" id="-15382">
		<tag k="name" v="Nordre Hovda" />
=======
	<node id="-275567" lat="60.9381555579" lon="8.19109444768">
		<tag k="fixme" v="consider natural=peak for the most distinct mountains in the district" />
		<tag k="name" v="Bjøbergnøse" />
>>>>>>> e1d4bc35ff8a6074a6f2e91616a996b547c36f15
		<tag k="natural" v="hill" />
		<tag k="place" v="locality" />
		<tag k="ssr:stedsnr" v="154803" />
	</node>
<<<<<<< HEAD
	<node lat="60.96780832960059" lon="8.389949994201128" id="-15393">
		<tag k="fixme" v="consider natural=peak for the most distinct mountains in the district" />
		<tag k="name" v="Lågfjellet" />
=======
	<node id="-275566" lat="60.93744167" lon="8.4340277842">
		<tag k="name" v="Grosetnøse" />
>>>>>>> e1d4bc35ff8a6074a6f2e91616a996b547c36f15
		<tag k="natural" v="hill" />
		<tag k="place" v="locality" />
		<tag k="ssr:stedsnr" v="190519" />
	</node>
<<<<<<< HEAD
	<node lat="60.99422499712595" lon="8.537775002255222" id="-15395">
		<tag k="name" v="Trongebytta" />
		<tag k="natural" v="valley" />
=======
	<node id="-275565" lat="60.9525138884" lon="8.15621945129">
		<tag k="alt_name" v="Støngenuten" />
		<tag k="fixme" v="consider natural=peak for the most distinct mountains in the district" />
		<tag k="name" v="Stongenuten" />
		<tag k="natural" v="hill" />
>>>>>>> e1d4bc35ff8a6074a6f2e91616a996b547c36f15
		<tag k="place" v="locality" />
		<tag k="ssr:stedsnr" v="190808" />
	</node>
<<<<<<< HEAD
	<node lat="60.86942500178327" lon="8.602069440409648" id="-15398">
=======
	<node id="-275560" lat="60.8256583351" lon="8.47989723031">
>>>>>>> e1d4bc35ff8a6074a6f2e91616a996b547c36f15
		<tag k="fixme" v="consider natural=peak for the most distinct mountains in the district" />
		<tag k="name" v="Myljofjell" />
		<tag k="natural" v="hill" />
		<tag k="place" v="locality" />
		<tag k="ssr:stedsnr" v="191106" />
	</node>
<<<<<<< HEAD
	<node lat="60.92332499596668" lon="8.13141666397365" id="-15403">
		<tag k="alt_name" v="I Syningen" />
=======
	<node id="-275558" lat="60.889366664" lon="8.44972500406">
>>>>>>> e1d4bc35ff8a6074a6f2e91616a996b547c36f15
		<tag k="fixme" v="consider natural=peak for the most distinct mountains in the district" />
		<tag k="name" v="Vesle Syningen" />
		<tag k="natural" v="hill" />
		<tag k="place" v="locality" />
		<tag k="ssr:stedsnr" v="191564" />
	</node>
<<<<<<< HEAD
	<node lat="60.98781944632123" lon="8.355436117821375" id="-15407">
		<tag k="name" v="Mørekvamlie" />
		<tag k="natural" v="slope" />
=======
	<node id="-275554" lat="60.8561305591" lon="8.65209999556">
		<tag k="alt_name" v="Skalberget" />
		<tag k="name" v="Skardberget" />
		<tag k="natural" v="hill" />
>>>>>>> e1d4bc35ff8a6074a6f2e91616a996b547c36f15
		<tag k="place" v="locality" />
		<tag k="ssr:stedsnr" v="214236" />
	</node>
<<<<<<< HEAD
	<node lat="60.860133333570964" lon="8.703222225660221" id="-15411">
		<tag k="name" v="Langehaugenåtnatten" />
		<tag k="natural" v="hill" />
		<tag k="place" v="locality" />
		<tag k="ssr:stedsnr" v="214727" />
	</node>
	<node lat="60.88054722558462" lon="8.727174995483127" id="-15414">
		<tag k="name" v="Rundhaugane" />
		<tag k="natural" v="hill" />
=======
	<node id="-275550" lat="61.0393638862" lon="8.33261111023">
		<tag k="fixme" v="consider natural=peak for the most distinct mountains in the district" />
		<tag k="name" v="Buaknuppen" />
		<tag k="natural" v="hill" />
		<tag k="place" v="locality" />
		<tag k="ssr:stedsnr" v="613644" />
	</node>
	<node id="-275548" lat="61.0273611141" lon="8.33843333449">
		<tag k="name" v="Nevreskardet" />
		<tag k="natural" v="valley" />
		<tag k="place" v="locality" />
		<tag k="ssr:stedsnr" v="613632" />
	</node>
	<node id="-275547" lat="61.0578750042" lon="8.22890000029">
		<tag k="name" v="Bjørnabotnen" />
		<tag k="natural" v="valley" />
>>>>>>> e1d4bc35ff8a6074a6f2e91616a996b547c36f15
		<tag k="place" v="locality" />
		<tag k="ssr:stedsnr" v="214689" />
	</node>
<<<<<<< HEAD
	<node lat="60.84899722578526" lon="8.752077769280842" id="-15415">
		<tag k="name" v="Grytestølshovdene" />
		<tag k="natural" v="hill" />
=======
	<node id="-275544" lat="60.8928750013" lon="8.89194445054">
		<tag k="name" v="Oddane" />
>>>>>>> e1d4bc35ff8a6074a6f2e91616a996b547c36f15
		<tag k="place" v="locality" />
		<tag k="ssr:stedsnr" v="215101" />
	</node>
<<<<<<< HEAD
	<node lat="60.84422222368426" lon="8.749358329176324" id="-15416">
		<tag k="name" v="Skarprisa" />
=======
	<node id="-275543" lat="60.8784555575" lon="8.87489721637">
		<tag k="name" v="Mørken" />
>>>>>>> e1d4bc35ff8a6074a6f2e91616a996b547c36f15
		<tag k="place" v="locality" />
		<tag k="ssr:stedsnr" v="215805" />
	</node>
<<<<<<< HEAD
	<node lat="60.85463792448292" lon="8.543250705630252" id="-15421">
		<tag k="name" v="Langedokk" />
		<tag k="natural" v="valley" />
=======
	<node id="-275541" lat="60.8886972267" lon="8.86808333055">
		<tag k="name" v="Nødde" />
>>>>>>> e1d4bc35ff8a6074a6f2e91616a996b547c36f15
		<tag k="place" v="locality" />
		<tag k="ssr:stedsnr" v="457096" />
	</node>
<<<<<<< HEAD
	<node lat="60.957488885374815" lon="8.375733330425852" id="-15423">
		<tag k="name" v="Torsbulie" />
		<tag k="natural" v="slope" />
		<tag k="place" v="locality" />
		<tag k="ssr:stedsnr" v="457284" />
	</node>
	<node lat="60.97207499945607" lon="8.260630562019207" id="-15425">
		<tag k="fixme" v="consider natural=peak for the most distinct mountains in the district" />
		<tag k="name" v="Bubotnnøsi" />
=======
	<node id="-275535" lat="60.8700194411" lon="8.63642778051">
		<tag k="name" v="Fetjalie" />
		<tag k="natural" v="slope" />
		<tag k="place" v="locality" />
		<tag k="ssr:stedsnr" v="578819" />
	</node>
	<node id="-275533" lat="60.849027778" lon="8.67325555994">
		<tag k="name" v="Bjødnahovda" />
		<tag k="natural" v="hill" />
		<tag k="place" v="locality" />
		<tag k="ssr:stedsnr" v="578694" />
	</node>
	<node id="-275526" lat="60.9283972247" lon="8.43176667327">
		<tag k="name" v="Grosetklanten" />
>>>>>>> e1d4bc35ff8a6074a6f2e91616a996b547c36f15
		<tag k="natural" v="hill" />
		<tag k="place" v="locality" />
		<tag k="ssr:stedsnr" v="457335" />
	</node>
<<<<<<< HEAD
	<node lat="60.84902777796014" lon="8.67325555994298" id="-15429">
		<tag k="name" v="Lågåsen" />
=======
	<node id="-275525" lat="60.8335944452" lon="8.62527777855">
		<tag k="name" v="Brendehaugane" />
		<tag k="natural" v="hill" />
>>>>>>> e1d4bc35ff8a6074a6f2e91616a996b547c36f15
		<tag k="place" v="locality" />
		<tag k="ssr:stedsnr" v="457701" />
	</node>
<<<<<<< HEAD
	<node lat="60.84577646166542" lon="8.647763715650141" id="-15430">
		<tag k="name" v="Grøvsberg" />
=======
	<node id="-275524" lat="60.8436861098" lon="8.64685278273">
		<tag k="name" v="Bakkene" />
		<tag k="natural" v="slope" />
>>>>>>> e1d4bc35ff8a6074a6f2e91616a996b547c36f15
		<tag k="place" v="locality" />
		<tag k="ssr:stedsnr" v="457626" />
	</node>
<<<<<<< HEAD
	<node lat="60.86466585539271" lon="8.571343917288393" id="-15431">
		<tag k="name" v="Kleivi" />
=======
	<node id="-275519" lat="60.774752775" lon="8.62644167414">
		<tag k="name" v="Gjuvedalen" />
>>>>>>> e1d4bc35ff8a6074a6f2e91616a996b547c36f15
		<tag k="natural" v="valley" />
		<tag k="place" v="locality" />
		<tag k="ssr:stedsnr" v="457930" />
	</node>
<<<<<<< HEAD
	<node lat="60.889222218397016" lon="8.864316672609867" id="-15432">
		<tag k="name" v="Bleikefeten" />
		<tag k="natural" v="slope" />
=======
	<node id="-275518" lat="60.86721667" lon="8.54158056284">
		<tag k="name" v="Bekkedalen" />
		<tag k="natural" v="valley" />
>>>>>>> e1d4bc35ff8a6074a6f2e91616a996b547c36f15
		<tag k="place" v="locality" />
		<tag k="ssr:stedsnr" v="458427" />
	</node>
<<<<<<< HEAD
	<node lat="60.83918055580241" lon="8.748177769663602" id="-15436">
		<tag k="name" v="Oddane" />
=======
	<node id="-275515" lat="60.8560361135" lon="8.35431389574">
		<tag k="fixme" v="consider natural=peak for the most distinct mountains in the district" />
		<tag k="name" v="Hestebottfjellet" />
		<tag k="natural" v="hill" />
>>>>>>> e1d4bc35ff8a6074a6f2e91616a996b547c36f15
		<tag k="place" v="locality" />
		<tag k="ssr:stedsnr" v="458549" />
	</node>
<<<<<<< HEAD
	<node lat="60.964400001922435" lon="8.484688896539017" id="-15443">
		<tag k="name" v="Hovda" />
		<tag k="natural" v="cliff" />
		<tag k="ssr:stedsnr" v="275407" />
	</node>
	<node lat="60.87446111155854" lon="8.348722216522283" id="-15445">
		<tag k="name" v="Kampenhaug" />
=======
	<node id="-275512" lat="60.974355554" lon="8.55741389014">
		<tag k="name" v="Hydalen" />
		<tag k="natural" v="valley" />
		<tag k="place" v="locality" />
		<tag k="ssr:stedsnr" v="554796" />
	</node>
	<node id="-275511" lat="60.9192111124" lon="8.39829166464">
		<tag k="name" v="Surreberget" />
>>>>>>> e1d4bc35ff8a6074a6f2e91616a996b547c36f15
		<tag k="natural" v="hill" />
		<tag k="place" v="locality" />
		<tag k="ssr:stedsnr" v="275183" />
	</node>
<<<<<<< HEAD
	<node lat="60.81706389133494" lon="8.718324991784494" id="-15446">
		<tag k="name" v="Djupedalen" />
=======
	<node id="-275506" lat="60.9700277769" lon="8.39330554894">
		<tag k="name" v="Klanteskardet" />
>>>>>>> e1d4bc35ff8a6074a6f2e91616a996b547c36f15
		<tag k="natural" v="valley" />
		<tag k="place" v="locality" />
		<tag k="ssr:stedsnr" v="275371" />
	</node>
<<<<<<< HEAD
	<node lat="60.81651388797668" lon="8.715233341597852" id="-15447">
		<tag k="name" v="Bjørnabakken" />
		<tag k="natural" v="slope" />
=======
	<node id="-275505" lat="60.9582361079" lon="8.23411945012">
		<tag k="name" v="Rundebotn" />
		<tag k="natural" v="valley" />
>>>>>>> e1d4bc35ff8a6074a6f2e91616a996b547c36f15
		<tag k="place" v="locality" />
		<tag k="ssr:stedsnr" v="275372" />
	</node>
<<<<<<< HEAD
	<node lat="60.934377774048826" lon="8.407630546994783" id="-15449">
		<tag k="name" v="Fuglehaugen" />
=======
	<node id="-275502" lat="60.8148555517" lon="8.61718888736">
		<tag k="fixme" v="consider natural=peak for the most distinct mountains in the district" />
		<tag k="name" v="Veslehorn" />
>>>>>>> e1d4bc35ff8a6074a6f2e91616a996b547c36f15
		<tag k="natural" v="hill" />
		<tag k="place" v="locality" />
		<tag k="ssr:stedsnr" v="275383" />
	</node>
<<<<<<< HEAD
	<node lat="60.83080555660472" lon="8.62798055125339" id="-15450">
		<tag k="name" v="Styrmannsøyne" />
=======
	<node id="-275491" lat="60.7929250026" lon="8.73962499718">
		<tag k="fixme" v="consider natural=peak for the most distinct mountains in the district" />
		<tag k="name" v="Åsen" />
		<tag k="natural" v="hill" />
>>>>>>> e1d4bc35ff8a6074a6f2e91616a996b547c36f15
		<tag k="place" v="locality" />
		<tag k="ssr:stedsnr" v="275492" />
	</node>
<<<<<<< HEAD
	<node lat="60.85628610989467" lon="8.670027784409811" id="-15454">
		<tag k="name" v="Brendeberget" />
		<tag k="natural" v="hill" />
		<tag k="place" v="locality" />
		<tag k="ssr:stedsnr" v="275703" />
	</node>
	<node lat="61.007150003086586" lon="8.495827775623168" id="-15458">
=======
	<node id="-275490" lat="61.018433333" lon="8.50946388562">
		<tag k="fixme" v="consider natural=peak for the most distinct mountains in the district" />
		<tag k="name" v="Ranastongi" />
		<tag k="natural" v="hill" />
		<tag k="place" v="locality" />
		<tag k="ssr:stedsnr" v="553410" />
	</node>
	<node id="-275481" lat="60.8943305532" lon="8.86416944713">
		<tag k="name" v="Baklie" />
		<tag k="natural" v="slope" />
		<tag k="place" v="locality" />
		<tag k="ssr:stedsnr" v="434384" />
	</node>
	<node id="-275480" lat="60.9975249964" lon="8.56637778243">
>>>>>>> e1d4bc35ff8a6074a6f2e91616a996b547c36f15
		<tag k="fixme" v="consider natural=peak for the most distinct mountains in the district" />
		<tag k="name" v="Lysebottskarvet" />
		<tag k="natural" v="hill" />
		<tag k="place" v="locality" />
		<tag k="ssr:stedsnr" v="310428" />
	</node>
<<<<<<< HEAD
	<node lat="61.06374444488184" lon="8.276294443787577" id="-15459">
=======
	<node id="-275479" lat="60.9610361097" lon="8.48460556085">
>>>>>>> e1d4bc35ff8a6074a6f2e91616a996b547c36f15
		<tag k="fixme" v="consider natural=peak for the most distinct mountains in the district" />
		<tag k="name" v="Hardeggi" />
		<tag k="natural" v="hill" />
		<tag k="place" v="locality" />
		<tag k="ssr:stedsnr" v="310632" />
	</node>
<<<<<<< HEAD
	<node lat="60.9927111077173" lon="8.341277784658976" id="-15466">
		<tag k="alt_name" v="Gofabakken" />
		<tag k="name" v="Godfarbakken" />
		<tag k="natural" v="slope" />
=======
	<node id="-275478" lat="60.961605558" lon="8.55140833355">
		<tag k="fixme" v="consider natural=peak for the most distinct mountains in the district" />
		<tag k="name" v="Hydalsbergi" />
		<tag k="natural" v="hill" />
>>>>>>> e1d4bc35ff8a6074a6f2e91616a996b547c36f15
		<tag k="place" v="locality" />
		<tag k="ssr:stedsnr" v="311594" />
	</node>
<<<<<<< HEAD
	<node lat="60.879766667844315" lon="8.465036115258354" id="-15468">
		<tag k="name" v="Karisetberget" />
=======
	<node id="-275477" lat="60.8281833317" lon="8.45353611134">
		<tag k="fixme" v="consider natural=peak for the most distinct mountains in the district" />
		<tag k="name" v="Buaklanten" />
>>>>>>> e1d4bc35ff8a6074a6f2e91616a996b547c36f15
		<tag k="natural" v="hill" />
		<tag k="place" v="locality" />
		<tag k="ssr:stedsnr" v="311613" />
	</node>
<<<<<<< HEAD
	<node lat="60.7993999992513" lon="8.73177500518366" id="-15469">
		<tag k="alt_name" v="Nøse" />
		<tag k="name" v="Nosi" />
=======
	<node id="-275476" lat="60.9384861116" lon="8.64440834217">
		<tag k="fixme" v="consider natural=peak for the most distinct mountains in the district" />
		<tag k="name" v="Lægernøse" />
>>>>>>> e1d4bc35ff8a6074a6f2e91616a996b547c36f15
		<tag k="natural" v="hill" />
		<tag k="place" v="locality" />
		<tag k="ssr:stedsnr" v="312009" />
	</node>
<<<<<<< HEAD
	<node lat="60.81538055383513" lon="8.574474996226902" id="-15473">
		<tag k="name" v="Skyrvedalen" />
=======
	<node id="-275473" lat="60.8946027818" lon="8.18315832837">
		<tag k="name" v="Råskardbotn" />
>>>>>>> e1d4bc35ff8a6074a6f2e91616a996b547c36f15
		<tag k="natural" v="valley" />
		<tag k="place" v="locality" />
		<tag k="ssr:stedsnr" v="312212" />
	</node>
<<<<<<< HEAD
	<node lat="60.84890555356548" lon="8.809486112710365" id="-15477">
		<tag k="alt_name" v="Vihovd" />
		<tag k="name" v="Vidhovd" />
		<tag k="natural" v="hill" />
=======
	<node id="-275472" lat="60.8902888911" lon="8.25557499614">
		<tag k="alt_name" v="Myrkedalen" />
		<tag k="name" v="Mørkedalen" />
		<tag k="natural" v="valley" />
>>>>>>> e1d4bc35ff8a6074a6f2e91616a996b547c36f15
		<tag k="place" v="locality" />
		<tag k="ssr:stedsnr" v="312183" />
	</node>
<<<<<<< HEAD
	<node lat="60.88882499815892" lon="8.607502782095349" id="-15479">
=======
	<node id="-275469" lat="60.91419167" lon="8.3546305579">
		<tag k="alt_name" v="Storeskardnøsin" />
>>>>>>> e1d4bc35ff8a6074a6f2e91616a996b547c36f15
		<tag k="fixme" v="consider natural=peak for the most distinct mountains in the district" />
		<tag k="name" v="Skurvefjellet" />
		<tag k="natural" v="hill" />
		<tag k="place" v="locality" />
		<tag k="ssr:stedsnr" v="312803" />
	</node>
<<<<<<< HEAD
	<node lat="60.886000000416615" lon="8.524894435304086" id="-15480">
=======
	<node id="-275464" lat="60.9440083337" lon="8.13308889136">
>>>>>>> e1d4bc35ff8a6074a6f2e91616a996b547c36f15
		<tag k="fixme" v="consider natural=peak for the most distinct mountains in the district" />
		<tag k="name" v="Rustehaugnøse" />
		<tag k="natural" v="hill" />
		<tag k="place" v="locality" />
<<<<<<< HEAD
		<tag k="ssr:stedsnr" v="312809" />
	</node>
	<node lat="60.898483334907866" lon="8.787902774092311" id="-15482">
		<tag k="name" v="Trommehaugane" />
=======
		<tag k="ssr:stedsnr" v="433493" />
	</node>
	<node id="-275458" lat="60.8387444429" lon="8.49163055573">
		<tag k="name" v="Breiddalen" />
		<tag k="natural" v="valley" />
		<tag k="place" v="locality" />
		<tag k="ssr:stedsnr" v="433170" />
	</node>
	<node id="-275456" lat="60.8478777776" lon="8.66515277874">
		<tag k="name" v="Lusestølhovda" />
>>>>>>> e1d4bc35ff8a6074a6f2e91616a996b547c36f15
		<tag k="natural" v="hill" />
		<tag k="place" v="locality" />
		<tag k="ssr:stedsnr" v="312823" />
	</node>
<<<<<<< HEAD
	<node lat="60.90066944090418" lon="8.764291675122355" id="-15483">
=======
	<node id="-275455" lat="61.0821805591" lon="8.27698610446">
>>>>>>> e1d4bc35ff8a6074a6f2e91616a996b547c36f15
		<tag k="fixme" v="consider natural=peak for the most distinct mountains in the district" />
		<tag k="name" v="Kjølen" />
		<tag k="natural" v="hill" />
		<tag k="place" v="locality" />
		<tag k="ssr:stedsnr" v="312828" />
	</node>
<<<<<<< HEAD
	<node lat="60.94681388807956" lon="8.506749993051143" id="-15484">
		<tag k="name" v="Federskardet" />
=======
	<node id="-275454" lat="61.0481194489" lon="8.29261943685">
		<tag k="name" v="Kljådalen" />
>>>>>>> e1d4bc35ff8a6074a6f2e91616a996b547c36f15
		<tag k="natural" v="valley" />
		<tag k="place" v="locality" />
		<tag k="ssr:stedsnr" v="312727" />
	</node>
<<<<<<< HEAD
	<node lat="60.81023611042611" lon="8.725199992590174" id="-15487">
		<tag k="name" v="Kalveslettbakken" />
		<tag k="natural" v="slope" />
=======
	<node id="-275453" lat="61.0525166664" lon="8.31320276895">
		<tag k="name" v="Kljåflæane" />
		<tag k="natural" v="hill" />
>>>>>>> e1d4bc35ff8a6074a6f2e91616a996b547c36f15
		<tag k="place" v="locality" />
		<tag k="ssr:stedsnr" v="335402" />
	</node>
<<<<<<< HEAD
	<node lat="60.82026111041919" lon="8.6906083244303" id="-15493">
		<tag k="name" v="Brendehaugen" />
=======
	<node id="-275451" lat="60.8797583353" lon="8.81223332688">
		<tag k="name" v="Ørnehatten" />
>>>>>>> e1d4bc35ff8a6074a6f2e91616a996b547c36f15
		<tag k="natural" v="hill" />
		<tag k="place" v="locality" />
		<tag k="ssr:stedsnr" v="335601" />
	</node>
<<<<<<< HEAD
	<node lat="60.863672130403465" lon="8.591186747045066" id="-15495">
		<tag k="name" v="Skriudalen" />
		<tag k="natural" v="valley" />
=======
	<node id="-275449" lat="60.8292083296" lon="8.7714888815">
		<tag k="name" v="Venebakk" />
		<tag k="natural" v="slope" />
>>>>>>> e1d4bc35ff8a6074a6f2e91616a996b547c36f15
		<tag k="place" v="locality" />
		<tag k="ssr:stedsnr" v="335946" />
	</node>
<<<<<<< HEAD
	<node lat="60.837049108196176" lon="8.562948797047664" id="-15497">
		<tag k="name" v="Skriuluo" />
		<tag k="natural" v="slope" />
=======
	<node id="-275442" lat="60.8804500034" lon="8.40780277446">
		<tag k="name" v="Hovda" />
		<tag k="natural" v="hill" />
>>>>>>> e1d4bc35ff8a6074a6f2e91616a996b547c36f15
		<tag k="place" v="locality" />
		<tag k="ssr:stedsnr" v="335975" />
	</node>
<<<<<<< HEAD
	<node lat="60.86328055905799" lon="8.66445832860014" id="-15501">
		<tag k="name" v="Vipehaugane" />
=======
	<node id="-275441" lat="60.8743083298" lon="8.42223055667">
		<tag k="name" v="Vesleberget" />
>>>>>>> e1d4bc35ff8a6074a6f2e91616a996b547c36f15
		<tag k="natural" v="hill" />
		<tag k="place" v="locality" />
		<tag k="ssr:stedsnr" v="336605" />
	</node>
<<<<<<< HEAD
	<node lat="60.85592777574907" lon="8.807502780022025" id="-15504">
		<tag k="name" v="Søre Hovda" />
=======
	<node id="-275438" lat="60.8656666657" lon="8.68161388604">
		<tag k="name" v="Langehaugen" />
>>>>>>> e1d4bc35ff8a6074a6f2e91616a996b547c36f15
		<tag k="natural" v="hill" />
		<tag k="place" v="locality" />
		<tag k="ssr:stedsnr" v="336761" />
	</node>
<<<<<<< HEAD
	<node lat="60.767910617356165" lon="8.645772953711733" id="-15509">
		<tag k="fixme" v="consider natural=peak for the most distinct mountains in the district" />
		<tag k="loc_name" v="Volhovd" />
		<tag k="name" v="Valhovd" />
=======
	<node id="-275436" lat="60.8465694477" lon="8.68517222186">
		<tag k="name" v="Storhovda" />
>>>>>>> e1d4bc35ff8a6074a6f2e91616a996b547c36f15
		<tag k="natural" v="hill" />
		<tag k="place" v="locality" />
		<tag k="ssr:stedsnr" v="372015" />
	</node>
	<node lat="60.823772222585" lon="8.581847220410465" id="-15514">
		<tag k="alt_name" v="Bjødnahovda" />
		<tag k="name" v="Bjørnahovda" />
		<tag k="natural" v="hill" />
		<tag k="place" v="locality" />
		<tag k="ssr:stedsnr" v="372211" />
	</node>
	<node lat="60.91697499979994" lon="8.463469446230203" id="-15519">
		<tag k="name" v="Skardsberget" />
		<tag k="natural" v="hill" />
		<tag k="place" v="locality" />
		<tag k="ssr:stedsnr" v="372607" />
	</node>
	<node lat="60.88374722212813" lon="8.76211944915913" id="-15524">
		<tag k="name" v="Markegardsliane" />
		<tag k="natural" v="slope" />
		<tag k="place" v="locality" />
		<tag k="ssr:stedsnr" v="372851" />
	</node>
	<node lat="60.89983333061393" lon="8.550749997148314" id="-15526">
		<tag k="fixme" v="consider natural=peak for the most distinct mountains in the district" />
		<tag k="name" v="Kyrkjebønøse" />
		<tag k="natural" v="hill" />
		<tag k="place" v="locality" />
		<tag k="ssr:stedsnr" v="372869" />
	</node>
<<<<<<< HEAD
	<node lat="60.81415278022066" lon="8.730405562949342" id="-15532">
=======
	<node id="-275433" lat="60.8141527802" lon="8.73040556295">
>>>>>>> e1d4bc35ff8a6074a6f2e91616a996b547c36f15
		<tag k="name" v="Trolldalo" />
		<tag k="natural" v="valley" />
		<tag k="place" v="locality" />
		<tag k="ssr:stedsnr" v="396379" />
	</node>
<<<<<<< HEAD
	<node lat="60.868633334817396" lon="8.694597220713558" id="-15536">
		<tag k="name" v="Knipenberg" />
		<tag k="natural" v="hill" />
=======
	<node id="-275431" lat="60.8439166699" lon="8.38513889397">
		<tag k="name" v="Hauganøse" />
		<tag k="natural" v="ridge" />
>>>>>>> e1d4bc35ff8a6074a6f2e91616a996b547c36f15
		<tag k="place" v="locality" />
		<tag k="ssr:stedsnr" v="396629" />
	</node>
<<<<<<< HEAD
	<node lat="60.86566666571585" lon="8.681613886041315" id="-15538">
		<tag k="name" v="Langehaugen" />
=======
	<node id="-275425" lat="60.8712871878" lon="8.51205304491">
		<tag k="name" v="Maurhaugen" />
>>>>>>> e1d4bc35ff8a6074a6f2e91616a996b547c36f15
		<tag k="natural" v="hill" />
		<tag k="place" v="locality" />
		<tag k="ssr:stedsnr" v="396710" />
	</node>
<<<<<<< HEAD
	<node lat="60.874308329766656" lon="8.42223055666617" id="-15540">
		<tag k="name" v="Vesleberget" />
=======
	<node id="-275419" lat="60.8507888894" lon="8.76723889402">
		<tag k="name" v="Storehovda" />
>>>>>>> e1d4bc35ff8a6074a6f2e91616a996b547c36f15
		<tag k="natural" v="hill" />
		<tag k="place" v="locality" />
		<tag k="ssr:stedsnr" v="396731" />
	</node>
<<<<<<< HEAD
	<node lat="60.87975833528857" lon="8.812233326883836" id="-15544">
		<tag k="name" v="Ørnehatten" />
		<tag k="natural" v="hill" />
=======
	<node id="-275414" lat="60.9359999968" lon="8.60314999778">
		<tag k="name" v="Guteskardet" />
		<tag k="natural" v="valley" />
>>>>>>> e1d4bc35ff8a6074a6f2e91616a996b547c36f15
		<tag k="place" v="locality" />
		<tag k="ssr:stedsnr" v="397803" />
	</node>
<<<<<<< HEAD
	<node lat="61.05251666635172" lon="8.313202768951923" id="-15545">
		<tag k="name" v="Kljåflæane" />
=======
	<node id="-275413" lat="60.8998333306" lon="8.55074999715">
		<tag k="fixme" v="consider natural=peak for the most distinct mountains in the district" />
		<tag k="name" v="Kyrkjebønøse" />
>>>>>>> e1d4bc35ff8a6074a6f2e91616a996b547c36f15
		<tag k="natural" v="hill" />
		<tag k="place" v="locality" />
		<tag k="ssr:stedsnr" v="431651" />
	</node>
<<<<<<< HEAD
	<node lat="60.80097777454428" lon="8.712447216089748" id="-15554">
		<tag k="alt_name" v="Raudberg" />
		<tag k="name" v="Raudberget" />
		<tag k="natural" v="hill" />
=======
	<node id="-275410" lat="60.8837472221" lon="8.76211944916">
		<tag k="name" v="Markegardsliane" />
		<tag k="natural" v="slope" />
>>>>>>> e1d4bc35ff8a6074a6f2e91616a996b547c36f15
		<tag k="place" v="locality" />
		<tag k="ssr:stedsnr" v="433225" />
	</node>
<<<<<<< HEAD
	<node lat="60.97275555530664" lon="8.138350007225931" id="-15556">
=======
	<node id="-275406" lat="60.8937722202" lon="8.35640555702">
>>>>>>> e1d4bc35ff8a6074a6f2e91616a996b547c36f15
		<tag k="fixme" v="consider natural=peak for the most distinct mountains in the district" />
		<tag k="name" v="Kjølbergtind" />
		<tag k="natural" v="hill" />
		<tag k="place" v="locality" />
		<tag k="ssr:stedsnr" v="433536" />
	</node>
<<<<<<< HEAD
	<node lat="60.91419166999753" lon="8.354630557903647" id="-15557">
		<tag k="alt_name" v="Storeskardnøsin" />
		<tag k="fixme" v="consider natural=peak for the most distinct mountains in the district" />
		<tag k="loc_name" v="Storeskardnesane" />
		<tag k="name" v="Storeskardnosene" />
=======
	<node id="-275402" lat="60.9432083358" lon="8.41125277095">
		<tag k="name" v="Øygardsberget" />
>>>>>>> e1d4bc35ff8a6074a6f2e91616a996b547c36f15
		<tag k="natural" v="hill" />
		<tag k="old_name" v="Storeskarnesann" />
		<tag k="place" v="locality" />
		<tag k="ssr:stedsnr" v="433578" />
	</node>
<<<<<<< HEAD
	<node lat="60.96160555804536" lon="8.551408333548455" id="-15559">
		<tag k="fixme" v="consider natural=peak for the most distinct mountains in the district" />
		<tag k="name" v="Hydalsbergi" />
		<tag k="natural" v="hill" />
=======
	<node id="-275401" lat="60.969030553" lon="8.27667777241">
		<tag k="name" v="Bubotn" />
		<tag k="natural" v="valley" />
>>>>>>> e1d4bc35ff8a6074a6f2e91616a996b547c36f15
		<tag k="place" v="locality" />
		<tag k="ssr:stedsnr" v="433771" />
	</node>
<<<<<<< HEAD
	<node lat="60.961036109687015" lon="8.484605560845127" id="-15560">
=======
	<node id="-275400" lat="60.964186109" lon="8.24472499445">
>>>>>>> e1d4bc35ff8a6074a6f2e91616a996b547c36f15
		<tag k="fixme" v="consider natural=peak for the most distinct mountains in the district" />
		<tag k="name" v="Hydalshjallen" />
		<tag k="natural" v="hill" />
		<tag k="place" v="locality" />
		<tag k="ssr:stedsnr" v="433772" />
	</node>
<<<<<<< HEAD
	<node lat="60.85374721992504" lon="8.371183324560736" id="-15561">
		<tag k="name" v="Hestebotn" />
		<tag k="natural" v="valley" />
		<tag k="place" v="locality" />
		<tag k="ssr:stedsnr" v="433913" />
	</node>
	<node lat="60.90602500192206" lon="8.47563056352576" id="-15564">
		<tag k="fixme" v="consider natural=peak for the most distinct mountains in the district" />
		<tag k="name" v="Leinenøsane" />
=======
	<node id="-275399" lat="60.9707444485" lon="8.35067778389">
		<tag k="name" v="Fuglehaugen" />
>>>>>>> e1d4bc35ff8a6074a6f2e91616a996b547c36f15
		<tag k="natural" v="hill" />
		<tag k="place" v="locality" />
		<tag k="ssr:stedsnr" v="434809" />
	</node>
<<<<<<< HEAD
	<node lat="60.90062778113145" lon="8.536399994954744" id="-15565">
		<tag k="fixme" v="consider natural=peak for the most distinct mountains in the district" />
		<tag k="name" v="Leinenøse" />
=======
	<node id="-275388" lat="60.8559277757" lon="8.80750278002">
		<tag k="name" v="Søre Hovda" />
>>>>>>> e1d4bc35ff8a6074a6f2e91616a996b547c36f15
		<tag k="natural" v="hill" />
		<tag k="place" v="locality" />
		<tag k="ssr:stedsnr" v="434811" />
	</node>
<<<<<<< HEAD
	<node lat="60.83168055419894" lon="8.490797219511798" id="-15567">
		<tag k="name" v="Hamarskardet" />
		<tag k="natural" v="valley" />
=======
	<node id="-275380" lat="60.8005333255" lon="8.71530520201">
		<tag k="name" v="Rensla" />
		<tag k="natural" v="slope" />
>>>>>>> e1d4bc35ff8a6074a6f2e91616a996b547c36f15
		<tag k="place" v="locality" />
		<tag k="ssr:stedsnr" v="493196" />
	</node>
<<<<<<< HEAD
	<node lat="60.98574444634578" lon="8.423849999539343" id="-15568">
		<tag k="name" v="Nedre Storebotn" />
=======
	<node id="-275379" lat="60.8636721304" lon="8.59118674705">
		<tag k="name" v="Skriudalen" />
>>>>>>> e1d4bc35ff8a6074a6f2e91616a996b547c36f15
		<tag k="natural" v="valley" />
		<tag k="place" v="locality" />
		<tag k="ssr:stedsnr" v="493550" />
	</node>
<<<<<<< HEAD
	<node lat="60.8716388901371" lon="8.303300004512133" id="-15570">
		<tag k="fixme" v="consider natural=peak for the most distinct mountains in the district" />
		<tag k="name" v="Flæfjellet" />
		<tag k="natural" v="hill" />
=======
	<node id="-275377" lat="60.8370491082" lon="8.56294879705">
		<tag k="name" v="Skriuluo" />
		<tag k="natural" v="slope" />
>>>>>>> e1d4bc35ff8a6074a6f2e91616a996b547c36f15
		<tag k="place" v="locality" />
		<tag k="ssr:stedsnr" v="493583" />
	</node>
<<<<<<< HEAD
	<node lat="60.911550001997874" lon="8.668936118155363" id="-15577">
		<tag k="fixme" v="consider natural=peak for the most distinct mountains in the district" />
		<tag k="name" v="Kvannegrønøse" />
		<tag k="natural" v="hill" />
=======
	<node id="-275373" lat="60.8542095715" lon="8.63908064559">
		<tag k="alt_name" v="Ulsåkskaret" />
		<tag k="name" v="Ullsåkskardet" />
		<tag k="natural" v="valley" />
>>>>>>> e1d4bc35ff8a6074a6f2e91616a996b547c36f15
		<tag k="place" v="locality" />
		<tag k="ssr:stedsnr" v="494834" />
	</node>
<<<<<<< HEAD
	<node lat="60.9365361142023" lon="8.159875003185874" id="-15579">
		<tag k="fixme" v="consider natural=peak for the most distinct mountains in the district" />
		<tag k="name" v="Bjøbergnuten" />
=======
	<node id="-275371" lat="60.8202611104" lon="8.69060832443">
		<tag k="name" v="Brendehaugen" />
>>>>>>> e1d4bc35ff8a6074a6f2e91616a996b547c36f15
		<tag k="natural" v="hill" />
		<tag k="place" v="locality" />
		<tag k="ssr:stedsnr" v="494503" />
	</node>
<<<<<<< HEAD
	<node lat="60.90922499874946" lon="8.258963898123708" id="-15580">
=======
	<node id="-275364" lat="60.8762138851" lon="8.44150832924">
>>>>>>> e1d4bc35ff8a6074a6f2e91616a996b547c36f15
		<tag k="fixme" v="consider natural=peak for the most distinct mountains in the district" />
		<tag k="name" v="Bakkestølnøse" />
		<tag k="natural" v="hill" />
		<tag k="place" v="locality" />
		<tag k="ssr:stedsnr" v="494561" />
	</node>
<<<<<<< HEAD
	<node lat="60.94757500233415" lon="8.625811113389958" id="-15584">
		<tag k="name" v="Veslenøse" />
=======
	<node id="-275363" lat="60.8799916676" lon="8.41553334048">
		<tag k="name" v="Krægderudhovda" />
>>>>>>> e1d4bc35ff8a6074a6f2e91616a996b547c36f15
		<tag k="natural" v="hill" />
		<tag k="place" v="locality" />
		<tag k="ssr:stedsnr" v="494723" />
	</node>
<<<<<<< HEAD
	<node lat="60.87618333572935" lon="8.533597216055547" id="-15587">
		<tag k="name" v="Vestlie" />
=======
	<node id="-275362" lat="60.8486805521" lon="8.6357472241">
		<tag k="name" v="Øvrekvelv" />
>>>>>>> e1d4bc35ff8a6074a6f2e91616a996b547c36f15
		<tag k="natural" v="slope" />
		<tag k="place" v="locality" />
		<tag k="ssr:stedsnr" v="457148" />
	</node>
<<<<<<< HEAD
	<node lat="60.872112076753055" lon="8.57700958174021" id="-15588">
		<tag k="name" v="Øvre Rona" />
=======
	<node id="-275358" lat="60.9280805542" lon="8.17419166633">
		<tag k="name" v="Bjøbergdalen" />
>>>>>>> e1d4bc35ff8a6074a6f2e91616a996b547c36f15
		<tag k="natural" v="valley" />
		<tag k="place" v="locality" />
		<tag k="ssr:stedsnr" v="457067" />
	</node>
<<<<<<< HEAD
	<node lat="60.884832980085584" lon="8.57004296802671" id="-15589">
		<tag k="name" v="Gjureslåtta" />
=======
	<node id="-275347" lat="60.9366861114" lon="8.55515555237">
		<tag k="name" v="Øvre Skardet" />
		<tag k="natural" v="valley" />
>>>>>>> e1d4bc35ff8a6074a6f2e91616a996b547c36f15
		<tag k="place" v="locality" />
		<tag k="ssr:stedsnr" v="457074" />
	</node>
<<<<<<< HEAD
	<node lat="60.854900998367356" lon="8.672989120385328" id="-15596">
		<tag k="name" v="Teigeklanten" />
		<tag k="natural" v="hill" />
		<tag k="place" v="locality" />
		<tag k="ssr:stedsnr" v="457704" />
	</node>
	<node lat="60.85433333339853" lon="8.47834166637026" id="-15598">
		<tag k="name" v="Roni" />
=======
	<node id="-275341" lat="60.8153805538" lon="8.57447499623">
		<tag k="name" v="Skyrvedalen" />
>>>>>>> e1d4bc35ff8a6074a6f2e91616a996b547c36f15
		<tag k="natural" v="valley" />
		<tag k="place" v="locality" />
		<tag k="ssr:stedsnr" v="457707" />
	</node>
<<<<<<< HEAD
	<node lat="60.853327776335085" lon="8.791719447612003" id="-15603">
		<tag k="name" v="Store Svarhovda" />
=======
	<node id="-275338" lat="60.8489055536" lon="8.80948611271">
		<tag k="alt_name" v="Vihovd" />
		<tag k="name" v="Vidhovd" />
>>>>>>> e1d4bc35ff8a6074a6f2e91616a996b547c36f15
		<tag k="natural" v="hill" />
		<tag k="place" v="locality" />
		<tag k="ssr:stedsnr" v="458161" />
	</node>
<<<<<<< HEAD
	<node lat="60.88324166448765" lon="8.897336110771493" id="-15604">
		<tag k="name" v="Kvissel" />
=======
	<node id="-275335" lat="60.7993999993" lon="8.73177500518">
		<tag k="alt_name" v="Nøse" />
		<tag k="name" v="Nosi" />
		<tag k="natural" v="hill" />
>>>>>>> e1d4bc35ff8a6074a6f2e91616a996b547c36f15
		<tag k="place" v="locality" />
		<tag k="ssr:stedsnr" v="458463" />
	</node>
<<<<<<< HEAD
	<node lat="61.05391201480944" lon="8.21443084735691" id="-15605">
		<tag k="fixme" v="consider natural=peak for the most distinct mountains in the district" />
		<tag k="name" v="Høgeloft" />
=======
	<node id="-275333" lat="60.8797666678" lon="8.46503611526">
		<tag k="name" v="Karisetberget" />
>>>>>>> e1d4bc35ff8a6074a6f2e91616a996b547c36f15
		<tag k="natural" v="hill" />
		<tag k="place" v="locality" />
		<tag k="ssr:stedsnr" v="674629" />
	</node>
<<<<<<< HEAD
	<node lat="60.847077774930675" lon="8.476524995989857" id="-15608">
		<tag k="name" v="Kjelhovda" />
		<tag k="natural" v="hill" />
=======
	<node id="-275331" lat="60.9927111077" lon="8.34127778466">
		<tag k="alt_name" v="Gofabakken" />
		<tag k="name" v="Godfarbakken" />
		<tag k="natural" v="slope" />
>>>>>>> e1d4bc35ff8a6074a6f2e91616a996b547c36f15
		<tag k="place" v="locality" />
		<tag k="ssr:stedsnr" v="675185" />
	</node>
<<<<<<< HEAD
	<node lat="60.88137499824667" lon="8.314541670530506" id="-15611">
=======
	<node id="-275329" lat="60.9689305528" lon="8.31811944091">
>>>>>>> e1d4bc35ff8a6074a6f2e91616a996b547c36f15
		<tag k="fixme" v="consider natural=peak for the most distinct mountains in the district" />
		<tag k="name" v="Storeskardnøse" />
		<tag k="natural" v="hill" />
		<tag k="place" v="locality" />
		<tag k="ssr:stedsnr" v="675572" />
	</node>
<<<<<<< HEAD
	<node lat="60.90682500345135" lon="8.392555548594821" id="-15617">
		<tag k="name" v="Tuftene" />
		<tag k="natural" v="slope" />
=======
	<node id="-275328" lat="60.9658305552" lon="8.2531083276">
		<tag k="name" v="Skrengjabotn" />
		<tag k="natural" v="valley" />
>>>>>>> e1d4bc35ff8a6074a6f2e91616a996b547c36f15
		<tag k="place" v="locality" />
		<tag k="ssr:stedsnr" v="675624" />
	</node>
<<<<<<< HEAD
	<node lat="60.905569448423314" lon="8.332222215726745" id="-15618">
=======
	<node id="-275320" lat="61.033261113" lon="8.28261667394">
>>>>>>> e1d4bc35ff8a6074a6f2e91616a996b547c36f15
		<tag k="fixme" v="consider natural=peak for the most distinct mountains in the district" />
		<tag k="name" v="Steinbunøse" />
		<tag k="natural" v="hill" />
		<tag k="place" v="locality" />
		<tag k="ssr:stedsnr" v="675629" />
	</node>
<<<<<<< HEAD
	<node lat="60.956844442767064" lon="8.34251111058267" id="-15623">
=======
	<node id="-275319" lat="61.0637444449" lon="8.27629444379">
>>>>>>> e1d4bc35ff8a6074a6f2e91616a996b547c36f15
		<tag k="fixme" v="consider natural=peak for the most distinct mountains in the district" />
		<tag k="name" v="Halsane" />
		<tag k="natural" v="hill" />
		<tag k="place" v="locality" />
		<tag k="ssr:stedsnr" v="676521" />
	</node>
<<<<<<< HEAD
	<node lat="60.971438885509954" lon="8.625424998476618" id="-15626">
=======
	<node id="-275318" lat="61.0071500031" lon="8.49582777562">
>>>>>>> e1d4bc35ff8a6074a6f2e91616a996b547c36f15
		<tag k="fixme" v="consider natural=peak for the most distinct mountains in the district" />
		<tag k="name" v="Hydalsrova" />
		<tag k="natural" v="hill" />
		<tag k="place" v="locality" />
		<tag k="ssr:stedsnr" v="676760" />
	</node>
<<<<<<< HEAD
	<node lat="60.89734999745017" lon="8.64951111578854" id="-15628">
		<tag k="fixme" v="consider natural=peak for the most distinct mountains in the district" />
		<tag k="name" v="Grunnane" />
		<tag k="natural" v="hill" />
		<tag k="place" v="locality" />
		<tag k="ssr:stedsnr" v="676831" />
	</node>
	<node lat="60.92315277498866" lon="8.585280549281038" id="-15630">
		<tag k="name" v="Austrebotn" />
=======
	<node id="-275317" lat="60.9477305514" lon="8.30346667346">
		<tag k="name" v="Bulidalen" />
>>>>>>> e1d4bc35ff8a6074a6f2e91616a996b547c36f15
		<tag k="natural" v="valley" />
		<tag k="place" v="locality" />
		<tag k="ssr:stedsnr" v="676842" />
	</node>
<<<<<<< HEAD
	<node lat="60.79920833347572" lon="8.470430549925096" id="-15655">
		<tag k="name" v="Blomestølberget" />
=======
	<node id="-275310" lat="60.8489972258" lon="8.75207776928">
		<tag k="name" v="Grytestølshovdene" />
>>>>>>> e1d4bc35ff8a6074a6f2e91616a996b547c36f15
		<tag k="natural" v="hill" />
		<tag k="place" v="locality" />
		<tag k="ssr:stedsnr" v="494222" />
	</node>
<<<<<<< HEAD
	<node lat="60.88037499978415" lon="8.351199998946818" id="-15661">
		<tag k="name" v="Heimdalen" />
		<tag k="natural" v="valley" />
=======
	<node id="-275309" lat="60.8730777754" lon="8.42556111219">
		<tag k="name" v="Liahaugen" />
		<tag k="natural" v="ridge" />
>>>>>>> e1d4bc35ff8a6074a6f2e91616a996b547c36f15
		<tag k="place" v="locality" />
		<tag k="ssr:stedsnr" v="736570" />
	</node>
<<<<<<< HEAD
	<node lat="60.853923003633994" lon="8.550433696356615" id="-15664">
		<tag k="name" v="Øygardshaugen" />
		<tag k="natural" v="hill" />
=======
	<node id="-275307" lat="60.8680138913" lon="8.45756388834">
		<tag k="name" v="Røggelie" />
		<tag k="natural" v="slope" />
>>>>>>> e1d4bc35ff8a6074a6f2e91616a996b547c36f15
		<tag k="place" v="locality" />
		<tag k="ssr:stedsnr" v="517106" />
	</node>
<<<<<<< HEAD
	<node lat="60.87156943557232" lon="8.517326416720184" id="-15668">
		<tag k="name" v="Kolten" />
=======
	<node id="-275306" lat="60.8805472256" lon="8.72717499548">
		<tag k="name" v="Rundhaugane" />
>>>>>>> e1d4bc35ff8a6074a6f2e91616a996b547c36f15
		<tag k="natural" v="hill" />
		<tag k="place" v="locality" />
		<tag k="ssr:stedsnr" v="517167" />
	</node>
<<<<<<< HEAD
	<node lat="60.936461112509264" lon="8.382730562016773" id="-15669">
		<tag k="name" v="Ventehovda" />
		<tag k="natural" v="hill" />
=======
	<node id="-275303" lat="60.897013893" lon="8.42094721439">
		<tag k="name" v="Hølu" />
>>>>>>> e1d4bc35ff8a6074a6f2e91616a996b547c36f15
		<tag k="place" v="locality" />
		<tag k="ssr:stedsnr" v="517277" />
	</node>
<<<<<<< HEAD
	<node lat="60.95705717453761" lon="8.36178714458187" id="-15671">
		<tag k="name" v="Tubbehaugen" />
=======
	<node id="-275295" lat="60.8697795323" lon="8.52833963463">
		<tag k="name" v="Syngerberg" />
>>>>>>> e1d4bc35ff8a6074a6f2e91616a996b547c36f15
		<tag k="natural" v="hill" />
		<tag k="place" v="locality" />
		<tag k="ssr:stedsnr" v="517286" />
	</node>
<<<<<<< HEAD
	<node lat="60.879441669015705" lon="8.424444442898684" id="-15675">
		<tag k="name" v="Småhovda" />
		<tag k="natural" v="hill" />
=======
	<node id="-275293" lat="60.9878194463" lon="8.35543611782">
		<tag k="name" v="Mørekvamlie" />
		<tag k="natural" v="slope" />
>>>>>>> e1d4bc35ff8a6074a6f2e91616a996b547c36f15
		<tag k="place" v="locality" />
		<tag k="ssr:stedsnr" v="517775" />
	</node>
<<<<<<< HEAD
	<node lat="60.82736388842274" lon="8.605636110831036" id="-15677">
		<tag k="name" v="Fuglehovda" />
		<tag k="natural" v="hill" />
=======
	<node id="-275290" lat="60.8706085716" lon="8.5740513957">
		<tag k="name" v="Nedre Rona" />
		<tag k="natural" v="valley" />
>>>>>>> e1d4bc35ff8a6074a6f2e91616a996b547c36f15
		<tag k="place" v="locality" />
		<tag k="ssr:stedsnr" v="517960" />
	</node>
<<<<<<< HEAD
	<node lat="60.88569166695507" lon="8.860855556155538" id="-15679">
		<tag k="name" v="Engebretgardlie" />
=======
	<node id="-275289" lat="60.8784138919" lon="8.52887500717">
		<tag k="name" v="Skaroklanten" />
>>>>>>> e1d4bc35ff8a6074a6f2e91616a996b547c36f15
		<tag k="natural" v="slope" />
		<tag k="place" v="locality" />
		<tag k="ssr:stedsnr" v="518383" />
	</node>
<<<<<<< HEAD
	<node lat="61.01843333304281" lon="8.509463885618203" id="-15684">
		<tag k="fixme" v="consider natural=peak for the most distinct mountains in the district" />
		<tag k="name" v="Ranastongi" />
=======
	<node id="-275287" lat="60.8814666689" lon="8.57160833301">
		<tag k="name" v="Halleinklanten" />
>>>>>>> e1d4bc35ff8a6074a6f2e91616a996b547c36f15
		<tag k="natural" v="hill" />
		<tag k="place" v="locality" />
		<tag k="ssr:stedsnr" v="553410" />
	</node>
<<<<<<< HEAD
	<node lat="60.79292500260869" lon="8.739624997180663" id="-15685">
=======
	<node id="-275286" lat="60.8765749964" lon="8.63949722648">
>>>>>>> e1d4bc35ff8a6074a6f2e91616a996b547c36f15
		<tag k="fixme" v="consider natural=peak for the most distinct mountains in the district" />
		<tag k="name" v="Åsen" />
		<tag k="natural" v="hill" />
		<tag k="place" v="locality" />
<<<<<<< HEAD
		<tag k="ssr:stedsnr" v="554005" />
	</node>
	<node lat="60.81485555171781" lon="8.617188887361616" id="-15690">
=======
		<tag k="ssr:stedsnr" v="191770" />
	</node>
	<node id="-275284" lat="60.9112277777" lon="8.39375832538">
		<tag k="name" v="Nonskardet" />
		<tag k="natural" v="valley" />
		<tag k="place" v="locality" />
		<tag k="ssr:stedsnr" v="191577" />
	</node>
	<node id="-275283" lat="60.923324996" lon="8.13141666397">
		<tag k="alt_name" v="I Syningen" />
>>>>>>> e1d4bc35ff8a6074a6f2e91616a996b547c36f15
		<tag k="fixme" v="consider natural=peak for the most distinct mountains in the district" />
		<tag k="name" v="Veslehorn" />
		<tag k="natural" v="hill" />
		<tag k="old_name" v="lille Horne" />
		<tag k="place" v="locality" />
<<<<<<< HEAD
		<tag k="ssr:stedsnr" v="554238" />
	</node>
	<node lat="60.99015278086167" lon="8.39513889645667" id="-15691">
		<tag k="fixme" v="consider natural=peak for the most distinct mountains in the district" />
		<tag k="name" v="Såta" />
=======
		<tag k="ssr:stedsnr" v="191564" />
	</node>
	<node id="-275263" lat="61.0018111121" lon="8.24804445099">
		<tag k="name" v="Breidnøsdalen" />
		<tag k="natural" v="valley" />
		<tag k="place" v="locality" />
		<tag k="ssr:stedsnr" v="189699" />
	</node>
	<node id="-275254" lat="60.8559833376" lon="8.80419166381">
		<tag k="name" v="Nordre Hovda" />
>>>>>>> e1d4bc35ff8a6074a6f2e91616a996b547c36f15
		<tag k="natural" v="hill" />
		<tag k="place" v="locality" />
		<tag k="ssr:stedsnr" v="554602" />
	</node>
<<<<<<< HEAD
	<node lat="60.8945583330612" lon="8.300286119539576" id="-15692">
		<tag k="fixme" v="consider natural=peak for the most distinct mountains in the district" />
		<tag k="name" v="Hovda" />
		<tag k="natural" v="hill" />
=======
	<node id="-275253" lat="60.8560500033" lon="8.8145694503">
		<tag k="name" v="Eikrestøllie" />
		<tag k="natural" v="slope" />
>>>>>>> e1d4bc35ff8a6074a6f2e91616a996b547c36f15
		<tag k="place" v="locality" />
		<tag k="ssr:stedsnr" v="554610" />
	</node>
<<<<<<< HEAD
	<node lat="60.97435555397056" lon="8.55741389014085" id="-15696">
		<tag k="name" v="Hydalen" />
		<tag k="natural" v="valley" />
=======
	<node id="-275250" lat="60.8555222253" lon="8.78994444253">
		<tag k="name" v="Vesle Svarahovda" />
		<tag k="natural" v="hill" />
>>>>>>> e1d4bc35ff8a6074a6f2e91616a996b547c36f15
		<tag k="place" v="locality" />
		<tag k="ssr:stedsnr" v="554796" />
	</node>
<<<<<<< HEAD
	<node lat="60.867216669957855" lon="8.541580562835607" id="-15698">
		<tag k="name" v="Bekkedalen" />
		<tag k="natural" v="valley" />
=======
	<node id="-275249" lat="60.8419732685" lon="8.56345389011">
		<tag k="name" v="Søreslette" />
>>>>>>> e1d4bc35ff8a6074a6f2e91616a996b547c36f15
		<tag k="place" v="locality" />
		<tag k="ssr:stedsnr" v="578154" />
	</node>
<<<<<<< HEAD
	<node lat="60.86381379143785" lon="8.680059904633161" id="-15703">
		<tag k="name" v="Storeklanten" />
=======
	<node id="-275248" lat="60.8327178668" lon="8.57703469535">
		<tag k="name" v="Åseluo" />
>>>>>>> e1d4bc35ff8a6074a6f2e91616a996b547c36f15
		<tag k="natural" v="slope" />
		<tag k="place" v="locality" />
		<tag k="ssr:stedsnr" v="578707" />
	</node>
<<<<<<< HEAD
	<node lat="60.8480638848616" lon="8.471408338151925" id="-15704">
		<tag k="name" v="Strupen" />
=======
	<node id="-275246" lat="60.8267364354" lon="8.57086190515">
		<tag k="name" v="Klanten" />
		<tag k="natural" v="slope" />
>>>>>>> e1d4bc35ff8a6074a6f2e91616a996b547c36f15
		<tag k="place" v="locality" />
		<tag k="ssr:stedsnr" v="578709" />
	</node>
<<<<<<< HEAD
	<node lat="60.84587222332768" lon="8.63463887981122" id="-15705">
		<tag k="name" v="Leirhaugen" />
		<tag k="natural" v="hill" />
=======
	<node id="-275245" lat="60.8622956309" lon="8.61208035598">
		<tag k="name" v="Grøtenuten" />
		<tag k="natural" v="valley" />
>>>>>>> e1d4bc35ff8a6074a6f2e91616a996b547c36f15
		<tag k="place" v="locality" />
		<tag k="ssr:stedsnr" v="578712" />
	</node>
<<<<<<< HEAD
	<node lat="60.84902777796014" lon="8.67325555994298" id="-15711">
		<tag k="name" v="Bjødnahovda" />
=======
	<node id="-275241" lat="60.8485277765" lon="8.69262221559">
		<tag k="name" v="Dugurdsnatten" />
>>>>>>> e1d4bc35ff8a6074a6f2e91616a996b547c36f15
		<tag k="natural" v="hill" />
		<tag k="place" v="locality" />
		<tag k="ssr:stedsnr" v="578694" />
	</node>
<<<<<<< HEAD
	<node lat="60.87001944112853" lon="8.636427780505942" id="-15712">
		<tag k="name" v="Fetjalie" />
=======
	<node id="-275240" lat="60.8813722187" lon="8.72381389715">
		<tag k="name" v="Høgebraute" />
>>>>>>> e1d4bc35ff8a6074a6f2e91616a996b547c36f15
		<tag k="natural" v="slope" />
		<tag k="place" v="locality" />
		<tag k="ssr:stedsnr" v="578819" />
	</node>
<<<<<<< HEAD
	<node lat="60.879177780379635" lon="8.49895832501255" id="-15719">
		<tag k="name" v="Hustadberget" />
=======
	<node id="-275238" lat="60.8751138868" lon="8.82458056212">
		<tag k="name" v="Haugane" />
>>>>>>> e1d4bc35ff8a6074a6f2e91616a996b547c36f15
		<tag k="natural" v="hill" />
		<tag k="place" v="locality" />
		<tag k="ssr:stedsnr" v="699789" />
	</node>
<<<<<<< HEAD
	<node lat="60.868087753155294" lon="8.5866202637366" id="-15721">
		<tag k="name" v="Nygardsslette" />
		<tag k="natural" v="valley" />
=======
	<node id="-275237" lat="60.929207979" lon="8.40472617386">
		<tag k="name" v="Nordre Moen" />
>>>>>>> e1d4bc35ff8a6074a6f2e91616a996b547c36f15
		<tag k="place" v="locality" />
		<tag k="ssr:stedsnr" v="700099" />
	</node>
<<<<<<< HEAD
	<node lat="60.87528055469607" lon="8.530591662933983" id="-15722">
		<tag k="fixme" v="consider natural=peak for the most distinct mountains in the district" />
		<tag k="name" v="Hataberget" />
		<tag k="natural" v="hill" />
=======
	<node id="-275236" lat="60.8630424904" lon="8.59012825595">
		<tag k="name" v="Helleberg" />
>>>>>>> e1d4bc35ff8a6074a6f2e91616a996b547c36f15
		<tag k="place" v="locality" />
		<tag k="ssr:stedsnr" v="700193" />
	</node>
<<<<<<< HEAD
	<node lat="60.886041668476516" lon="8.895152775703748" id="-15724">
		<tag k="name" v="Greinehaugen" />
		<tag k="natural" v="hill" />
=======
	<node id="-275232" lat="60.8933333337" lon="8.78415556057">
		<tag k="name" v="Storesteinslette" />
>>>>>>> e1d4bc35ff8a6074a6f2e91616a996b547c36f15
		<tag k="place" v="locality" />
		<tag k="ssr:stedsnr" v="700402" />
	</node>
<<<<<<< HEAD
	<node lat="60.86064444029183" lon="8.80036943803167" id="-15727">
		<tag k="name" v="Klantane" />
=======
	<node id="-275228" lat="60.7856472239" lon="8.64726667085">
		<tag k="name" v="Lundehaug" />
>>>>>>> e1d4bc35ff8a6074a6f2e91616a996b547c36f15
		<tag k="natural" v="hill" />
		<tag k="place" v="locality" />
		<tag k="ssr:stedsnr" v="700774" />
	</node>
<<<<<<< HEAD
	<node lat="60.83006388949339" lon="8.503863882657745" id="-15729">
		<tag k="name" v="Dyrjebakkane" />
=======
	<node id="-275226" lat="60.8797888873" lon="8.5274277724">
		<tag k="name" v="Bøttoklanten" />
>>>>>>> e1d4bc35ff8a6074a6f2e91616a996b547c36f15
		<tag k="natural" v="slope" />
		<tag k="place" v="locality" />
		<tag k="ssr:stedsnr" v="700898" />
	</node>
<<<<<<< HEAD
	<node lat="60.83408852168897" lon="8.611059184361919" id="-15731">
		<tag k="name" v="Krokløppe" />
=======
	<node id="-275213" lat="60.9600361101" lon="8.37621389135">
		<tag k="name" v="Kvelveberget" />
		<tag k="natural" v="hill" />
>>>>>>> e1d4bc35ff8a6074a6f2e91616a996b547c36f15
		<tag k="place" v="locality" />
		<tag k="ssr:stedsnr" v="700947" />
	</node>
<<<<<<< HEAD
	<node lat="60.825065228504975" lon="8.576579698039009" id="-15732">
		<tag k="name" v="Skyrvedalen" />
=======
	<node id="-275208" lat="60.8184000038" lon="8.47494999827">
		<tag k="name" v="Systerskardet" />
>>>>>>> e1d4bc35ff8a6074a6f2e91616a996b547c36f15
		<tag k="natural" v="valley" />
		<tag k="place" v="locality" />
		<tag k="ssr:stedsnr" v="700950" />
	</node>
<<<<<<< HEAD
	<node lat="60.84728611326964" lon="8.786547213864283" id="-15733">
		<tag k="name" v="Nygjerdhovda" />
=======
	<node id="-275203" lat="60.8415241644" lon="8.57159453591">
		<tag k="name" v="Omfarhaugen" />
>>>>>>> e1d4bc35ff8a6074a6f2e91616a996b547c36f15
		<tag k="natural" v="hill" />
		<tag k="place" v="locality" />
		<tag k="ssr:stedsnr" v="701151" />
	</node>
<<<<<<< HEAD
	<node lat="60.986833329999186" lon="8.284069447620602" id="-15736">
		<tag k="fixme" v="consider natural=peak for the most distinct mountains in the district" />
		<tag k="name" v="Søtelifjellet" />
		<tag k="natural" v="hill" />
=======
	<node id="-275200" lat="60.863558864" lon="8.61460413086">
		<tag k="alt_name" v="Nuteskaret" />
		<tag k="name" v="Nuteskardet" />
		<tag k="natural" v="valley" />
>>>>>>> e1d4bc35ff8a6074a6f2e91616a996b547c36f15
		<tag k="place" v="locality" />
		<tag k="ssr:stedsnr" v="614566" />
	</node>
<<<<<<< HEAD
	<node lat="60.80059722186174" lon="8.627716665690393" id="-15737">
		<tag k="name" v="Hornslie" />
		<tag k="natural" v="slope" />
=======
	<node id="-275195" lat="60.850086108" lon="8.49444445258">
		<tag k="name" v="Tinden" />
		<tag k="natural" v="hill" />
>>>>>>> e1d4bc35ff8a6074a6f2e91616a996b547c36f15
		<tag k="place" v="locality" />
		<tag k="ssr:stedsnr" v="615012" />
	</node>
<<<<<<< HEAD
	<node lat="60.93744167000243" lon="8.43402778420345" id="-15742">
		<tag k="name" v="Grosetnøse" />
=======
	<node id="-275194" lat="60.8461083378" lon="8.6943833389">
		<tag k="name" v="Stakkestøhovda" />
>>>>>>> e1d4bc35ff8a6074a6f2e91616a996b547c36f15
		<tag k="natural" v="hill" />
		<tag k="place" v="locality" />
		<tag k="ssr:stedsnr" v="615504" />
	</node>
<<<<<<< HEAD
	<node lat="60.93815555791899" lon="8.191094447683485" id="-15743">
		<tag k="fixme" v="consider natural=peak for the most distinct mountains in the district" />
		<tag k="name" v="Bjøbergnøse" />
=======
	<node id="-275188" lat="60.8293194446" lon="8.72692778185">
		<tag k="name" v="Nausthaugen" />
>>>>>>> e1d4bc35ff8a6074a6f2e91616a996b547c36f15
		<tag k="natural" v="hill" />
		<tag k="place" v="locality" />
		<tag k="ssr:stedsnr" v="615515" />
	</node>
<<<<<<< HEAD
	<node lat="60.957036108311954" lon="8.605152781487254" id="-15746">
		<tag k="name" v="Øyrebratte" />
=======
	<node id="-275186" lat="60.8160555551" lon="8.7125999984">
		<tag k="name" v="Øvre Rudningshaugen" />
>>>>>>> e1d4bc35ff8a6074a6f2e91616a996b547c36f15
		<tag k="natural" v="hill" />
		<tag k="place" v="locality" />
		<tag k="ssr:stedsnr" v="615746" />
	</node>
<<<<<<< HEAD
	<node lat="60.84703888927477" lon="8.654275001874428" id="-15753">
		<tag k="name" v="Finntopp" />
		<tag k="natural" v="hill" />
=======
	<node id="-275184" lat="60.7765138847" lon="8.73374721529">
		<tag k="name" v="Mårklantane" />
		<tag k="natural" v="slope" />
>>>>>>> e1d4bc35ff8a6074a6f2e91616a996b547c36f15
		<tag k="place" v="locality" />
		<tag k="ssr:stedsnr" v="638634" />
	</node>
<<<<<<< HEAD
	<node lat="60.8500999959439" lon="8.695561104007167" id="-15754">
		<tag k="name" v="Langedokklanten" />
=======
	<node id="-275183" lat="60.8920416658" lon="8.27200000212">
		<tag k="name" v="Grasskriu" />
>>>>>>> e1d4bc35ff8a6074a6f2e91616a996b547c36f15
		<tag k="natural" v="slope" />
		<tag k="place" v="locality" />
		<tag k="ssr:stedsnr" v="638690" />
	</node>
<<<<<<< HEAD
	<node lat="60.927538887850694" lon="8.410061106228483" id="-15757">
		<tag k="name" v="Sveinemyre" />
=======
	<node id="-275180" lat="60.882725004" lon="8.50526943561">
		<tag k="name" v="Hulbakkleive" />
>>>>>>> e1d4bc35ff8a6074a6f2e91616a996b547c36f15
		<tag k="place" v="locality" />
		<tag k="ssr:stedsnr" v="638577" />
	</node>
<<<<<<< HEAD
	<node lat="60.87977222606511" lon="8.854177772999353" id="-15758">
		<tag k="name" v="Kvernahaugen" />
		<tag k="natural" v="hill" />
=======
	<node id="-275175" lat="60.8735629024" lon="8.57025617694">
		<tag k="name" v="Hjelmen" />
		<tag k="natural" v="slope" />
>>>>>>> e1d4bc35ff8a6074a6f2e91616a996b547c36f15
		<tag k="place" v="locality" />
		<tag k="ssr:stedsnr" v="638579" />
	</node>
<<<<<<< HEAD
	<node lat="60.87883055242199" lon="8.90072777330065" id="-15764">
		<tag k="name" v="Krokhølen" />
=======
	<node id="-275174" lat="60.8679138912" lon="8.56613889115">
		<tag k="name" v="Gopledalen" />
		<tag k="natural" v="valley" />
>>>>>>> e1d4bc35ff8a6074a6f2e91616a996b547c36f15
		<tag k="place" v="locality" />
		<tag k="ssr:stedsnr" v="639426" />
	</node>
<<<<<<< HEAD
	<node lat="60.88986388810067" lon="8.782288896314059" id="-15765">
		<tag k="name" v="Sjåhaug" />
		<tag k="natural" v="hill" />
=======
	<node id="-275173" lat="60.8674583316" lon="8.57079167187">
		<tag k="name" v="Bergeruddalen" />
		<tag k="natural" v="valley" />
>>>>>>> e1d4bc35ff8a6074a6f2e91616a996b547c36f15
		<tag k="place" v="locality" />
		<tag k="ssr:stedsnr" v="639303" />
	</node>
<<<<<<< HEAD
	<node lat="60.87358611302908" lon="8.759575009084301" id="-15775">
		<tag k="name" v="Hyndestronde" />
=======
	<node id="-275168" lat="60.8686916245" lon="8.41471974548">
		<tag k="name" v="Moane" />
>>>>>>> e1d4bc35ff8a6074a6f2e91616a996b547c36f15
		<tag k="place" v="locality" />
		<tag k="ssr:stedsnr" v="675157" />
	</node>
<<<<<<< HEAD
	<node lat="60.79966111224197" lon="8.614088890041254" id="-15781">
=======
	<node id="-275165" lat="60.9174333347" lon="8.73969166747">
>>>>>>> e1d4bc35ff8a6074a6f2e91616a996b547c36f15
		<tag k="fixme" v="consider natural=peak for the most distinct mountains in the district" />
		<tag k="name" v="Slettefjell" />
		<tag k="natural" v="hill" />
		<tag k="place" v="locality" />
		<tag k="ssr:stedsnr" v="676237" />
	</node>
<<<<<<< HEAD
	<node lat="60.854155555877284" lon="8.399830553694581" id="-15793">
		<tag k="fixme" v="consider natural=peak for the most distinct mountains in the district" />
		<tag k="name" v="Hauganøse" />
		<tag k="natural" v="hill" />
=======
	<node id="-275162" lat="60.8906500037" lon="8.62592499619">
		<tag k="name" v="Øvrebotn" />
		<tag k="natural" v="valley" />
>>>>>>> e1d4bc35ff8a6074a6f2e91616a996b547c36f15
		<tag k="place" v="locality" />
		<tag k="ssr:stedsnr" v="676936" />
	</node>
<<<<<<< HEAD
	<node lat="60.833315295813925" lon="8.573403016673451" id="-15804">
		<tag k="name" v="Røyvoni" />
		<tag k="natural" v="slope" />
=======
	<node id="-275161" lat="60.8803722198" lon="8.80866943924">
		<tag k="name" v="Natten" />
		<tag k="natural" v="hill" />
>>>>>>> e1d4bc35ff8a6074a6f2e91616a996b547c36f15
		<tag k="place" v="locality" />
		<tag k="ssr:stedsnr" v="700966" />
	</node>
<<<<<<< HEAD
	<node lat="61.08020555880427" lon="8.268502772895893" id="-15806">
		<tag k="name" v="Kyrkjeporten" />
		<tag k="natural" v="valley" />
=======
	<node id="-275159" lat="60.9451861106" lon="8.63525277177">
		<tag k="name" v="Lusterslettene" />
>>>>>>> e1d4bc35ff8a6074a6f2e91616a996b547c36f15
		<tag k="place" v="locality" />
		<tag k="ssr:stedsnr" v="735630" />
	</node>
<<<<<<< HEAD
	<node lat="61.0031249970051" lon="8.31228888331099" id="-15807">
		<tag k="fixme" v="consider natural=peak for the most distinct mountains in the district" />
		<tag k="name" v="Søtelifjellet" />
=======
	<node id="-275156" lat="60.9440138907" lon="8.42590277016">
		<tag k="name" v="Solgladberget" />
>>>>>>> e1d4bc35ff8a6074a6f2e91616a996b547c36f15
		<tag k="natural" v="hill" />
		<tag k="place" v="locality" />
		<tag k="ssr:stedsnr" v="735718" />
	</node>
<<<<<<< HEAD
	<node lat="60.95307221987693" lon="8.399983341214918" id="-15813">
		<tag k="alt_name" v="Nøse" />
=======
	<node id="-275155" lat="60.9367388849" lon="8.34784445317">
>>>>>>> e1d4bc35ff8a6074a6f2e91616a996b547c36f15
		<tag k="fixme" v="consider natural=peak for the most distinct mountains in the district" />
		<tag k="name" v="Nosi" />
		<tag k="natural" v="hill" />
		<tag k="place" v="locality" />
		<tag k="ssr:stedsnr" v="736515" />
	</node>
<<<<<<< HEAD
	<node lat="60.80102500256433" lon="8.770583341157815" id="-15815">
		<tag k="name" v="Fuglehaug" />
=======
	<node id="-275154" lat="60.7991750005" lon="8.56212500815">
		<tag k="name" v="Veslesåta" />
>>>>>>> e1d4bc35ff8a6074a6f2e91616a996b547c36f15
		<tag k="natural" v="hill" />
		<tag k="place" v="locality" />
		<tag k="ssr:stedsnr" v="737008" />
	</node>
<<<<<<< HEAD
	<node lat="60.78709722046669" lon="8.634813897537876" id="-15824">
		<tag k="name" v="Midtlina" />
=======
	<node id="-275153" lat="60.8036750025" lon="8.54517499098">
		<tag k="fixme" v="consider natural=peak for the most distinct mountains in the district" />
		<tag k="name" v="Såta" />
		<tag k="natural" v="hill" />
		<tag k="old_name" v="Værsjøfjeld" />
>>>>>>> e1d4bc35ff8a6074a6f2e91616a996b547c36f15
		<tag k="place" v="locality" />
		<tag k="ssr:stedsnr" v="760259" />
	</node>
<<<<<<< HEAD
	<node lat="60.84864602932182" lon="8.521746240865964" id="-15826">
		<tag k="name" v="Sollaust" />
		<tag k="natural" v="valley" />
=======
	<node id="-275150" lat="60.8324472219" lon="8.78788888403">
		<tag k="name" v="Høgehaug" />
		<tag k="natural" v="hill" />
>>>>>>> e1d4bc35ff8a6074a6f2e91616a996b547c36f15
		<tag k="place" v="locality" />
		<tag k="ssr:stedsnr" v="760113" />
	</node>
<<<<<<< HEAD
	<node lat="60.78548611511445" lon="8.693769439905322" id="-15831">
		<tag k="name" v="Hølene" />
		<tag k="natural" v="slope" />
=======
	<node id="-275148" lat="60.8501305556" lon="8.7643611027">
		<tag k="name" v="Skoltehovda" />
		<tag k="natural" v="hill" />
>>>>>>> e1d4bc35ff8a6074a6f2e91616a996b547c36f15
		<tag k="place" v="locality" />
		<tag k="ssr:stedsnr" v="760308" />
	</node>
<<<<<<< HEAD
	<node lat="60.82078610972049" lon="8.715608340235441" id="-15832">
		<tag k="name" v="Veslestølhalle" />
		<tag k="natural" v="slope" />
=======
	<node id="-275147" lat="60.8547388906" lon="8.64486110901">
		<tag k="name" v="Stegbakkhovda" />
		<tag k="natural" v="hill" />
>>>>>>> e1d4bc35ff8a6074a6f2e91616a996b547c36f15
		<tag k="place" v="locality" />
		<tag k="ssr:stedsnr" v="760406" />
	</node>
<<<<<<< HEAD
	<node lat="60.88256110778325" lon="8.803211118062396" id="-15834">
		<tag k="name" v="Sørehjallen" />
		<tag k="natural" v="slope" />
=======
	<node id="-275146" lat="60.8534666624" lon="8.52746111125">
		<tag k="fixme" v="consider natural=peak for the most distinct mountains in the district" />
		<tag k="name" v="Vesletotten" />
		<tag k="natural" v="hill" />
>>>>>>> e1d4bc35ff8a6074a6f2e91616a996b547c36f15
		<tag k="place" v="locality" />
		<tag k="ssr:stedsnr" v="760615" />
	</node>
<<<<<<< HEAD
	<node lat="61.05474999840745" lon="8.359755548870094" id="-15846">
=======
	<node id="-275145" lat="60.8513027755" lon="8.47303056398">
		<tag k="alt_name" v="Skarsnuten" />
>>>>>>> e1d4bc35ff8a6074a6f2e91616a996b547c36f15
		<tag k="fixme" v="consider natural=peak for the most distinct mountains in the district" />
		<tag k="name" v="Hamarskredtinden" />
		<tag k="natural" v="hill" />
		<tag k="place" v="locality" />
		<tag k="ssr:stedsnr" v="795675" />
	</node>
<<<<<<< HEAD
	<node lat="60.80019166715732" lon="8.759644440691524" id="-15849">
		<tag k="alt_name" v="Svaberga" />
		<tag k="name" v="Svabergi" />
=======
	<node id="-275140" lat="60.7946972194" lon="8.64458611336">
		<tag k="name" v="Rishovd" />
>>>>>>> e1d4bc35ff8a6074a6f2e91616a996b547c36f15
		<tag k="natural" v="hill" />
		<tag k="place" v="locality" />
		<tag k="ssr:stedsnr" v="797021" />
	</node>
<<<<<<< HEAD
	<node lat="60.834180551725375" lon="8.698497227020988" id="-15853">
		<tag k="name" v="Brendehaugane" />
=======
	<node id="-275138" lat="61.0825944428" lon="8.3027805575">
		<tag k="name" v="Grøndalsbotnen" />
		<tag k="natural" v="valley" />
		<tag k="place" v="locality" />
		<tag k="ssr:stedsnr" v="67648" />
	</node>
	<node id="-275137" lat="61.0652611119" lon="8.31229999747">
		<tag k="fixme" v="consider natural=peak for the most distinct mountains in the district" />
		<tag k="name" v="Bjørnånøse" />
>>>>>>> e1d4bc35ff8a6074a6f2e91616a996b547c36f15
		<tag k="natural" v="hill" />
		<tag k="place" v="locality" />
		<tag k="ssr:stedsnr" v="797201" />
	</node>
<<<<<<< HEAD
	<node lat="60.93008610866285" lon="8.133769444274337" id="-15855">
		<tag k="name" v="Bjøbergdalen" />
		<tag k="natural" v="valley" />
=======
	<node id="-275130" lat="60.8643583067" lon="8.58496806418">
		<tag k="name" v="Hamaren" />
>>>>>>> e1d4bc35ff8a6074a6f2e91616a996b547c36f15
		<tag k="place" v="locality" />
		<tag k="ssr:stedsnr" v="797519" />
	</node>
<<<<<<< HEAD
	<node lat="60.889833335652376" lon="8.672386119364054" id="-15860">
		<tag k="fixme" v="consider natural=peak for the most distinct mountains in the district" />
		<tag k="name" v="Skarvanfjellet" />
=======
	<node id="-275121" lat="60.8539916663" lon="8.68088055385">
		<tag k="name" v="Ragnehaugen" />
>>>>>>> e1d4bc35ff8a6074a6f2e91616a996b547c36f15
		<tag k="natural" v="hill" />
		<tag k="place" v="locality" />
		<tag k="ssr:stedsnr" v="798797" />
	</node>
<<<<<<< HEAD
	<node lat="60.86492499944329" lon="8.711838898095543" id="-15862">
		<tag k="name" v="Grøtehovda" />
=======
	<node id="-275119" lat="60.8963055558" lon="8.41820000303">
		<tag k="name" v="Bandstøyptklanten" />
>>>>>>> e1d4bc35ff8a6074a6f2e91616a996b547c36f15
		<tag k="natural" v="hill" />
		<tag k="place" v="locality" />
		<tag k="ssr:stedsnr" v="918144" />
	</node>
<<<<<<< HEAD
	<node lat="60.839383332800324" lon="8.558919448422007" id="-15865">
		<tag k="name" v="Vesletotten" />
=======
	<node id="-275118" lat="60.8961638871" lon="8.41105278139">
		<tag k="name" v="Nøse" />
>>>>>>> e1d4bc35ff8a6074a6f2e91616a996b547c36f15
		<tag k="natural" v="hill" />
		<tag k="place" v="locality" />
		<tag k="ssr:stedsnr" v="918190" />
	</node>
<<<<<<< HEAD
	<node lat="60.98846944008723" lon="8.341669447246039" id="-15867">
		<tag k="name" v="Mørekvamdalen" />
		<tag k="natural" v="valley" />
=======
	<node id="-275117" lat="60.9090861108" lon="8.4157055586">
		<tag k="name" v="Bjørnebergstølnuten" />
		<tag k="natural" v="hill" />
>>>>>>> e1d4bc35ff8a6074a6f2e91616a996b547c36f15
		<tag k="place" v="locality" />
		<tag k="ssr:stedsnr" v="918566" />
	</node>
<<<<<<< HEAD
	<node lat="60.96486666949076" lon="8.30811388516766" id="-15868">
		<tag k="fixme" v="consider natural=peak for the most distinct mountains in the district" />
		<tag k="name" v="Preinsrudtind" />
=======
	<node id="-275115" lat="60.8855166639" lon="8.82967499133">
		<tag k="name" v="Grøveberget" />
>>>>>>> e1d4bc35ff8a6074a6f2e91616a996b547c36f15
		<tag k="natural" v="hill" />
		<tag k="place" v="locality" />
		<tag k="ssr:stedsnr" v="918572" />
	</node>
<<<<<<< HEAD
	<node lat="60.97632777586908" lon="8.250899993451469" id="-15869">
		<tag k="fixme" v="consider natural=peak for the most distinct mountains in the district" />
		<tag k="name" v="Bubottnøse" />
=======
	<node id="-275114" lat="60.8203916701" lon="8.69992778279">
		<tag k="name" v="Kvednahushaugen" />
>>>>>>> e1d4bc35ff8a6074a6f2e91616a996b547c36f15
		<tag k="natural" v="hill" />
		<tag k="place" v="locality" />
		<tag k="ssr:stedsnr" v="918606" />
	</node>
<<<<<<< HEAD
	<node lat="60.9734805549617" lon="8.306874999445704" id="-15870">
		<tag k="name" v="Fossebotn" />
		<tag k="natural" v="valley" />
=======
	<node id="-275113" lat="60.8076638909" lon="8.7156583401">
		<tag k="name" v="Røyrputthøgde" />
		<tag k="natural" v="hill" />
>>>>>>> e1d4bc35ff8a6074a6f2e91616a996b547c36f15
		<tag k="place" v="locality" />
		<tag k="ssr:stedsnr" v="918608" />
	</node>
<<<<<<< HEAD
	<node lat="60.882486110949365" lon="8.217547215375596" id="-15873">
		<tag k="name" v="Bakkestølbotn" />
		<tag k="natural" v="valley" />
=======
	<node id="-275112" lat="60.9275388879" lon="8.41006110623">
		<tag k="name" v="Søre Moen" />
>>>>>>> e1d4bc35ff8a6074a6f2e91616a996b547c36f15
		<tag k="place" v="locality" />
		<tag k="ssr:stedsnr" v="918638" />
	</node>
<<<<<<< HEAD
	<node lat="60.87254444522937" lon="8.383791674332008" id="-15875">
		<tag k="fixme" v="consider natural=peak for the most distinct mountains in the district" />
		<tag k="name" v="Stølsnøse" />
		<tag k="natural" v="hill" />
		<tag k="place" v="locality" />
		<tag k="ssr:stedsnr" v="918940" />
	</node>
	<node lat="60.92897499727062" lon="8.519275004551785" id="-15879">
		<tag k="name" v="Blomeviarane" />
		<tag k="natural" v="slope" />
		<tag k="place" v="locality" />
		<tag k="ssr:stedsnr" v="919854" />
	</node>
	<node lat="60.942183334643" lon="8.312108342161952" id="-15881">
		<tag k="fixme" v="consider natural=peak for the most distinct mountains in the district" />
		<tag k="name" v="Grønleinhovda" />
=======
	<node id="-275110" lat="60.9444499999" lon="8.38795277451">
		<tag k="name" v="Bregneberget" />
		<tag k="natural" v="hill" />
		<tag k="place" v="locality" />
		<tag k="ssr:stedsnr" v="32396" />
	</node>
	<node id="-275109" lat="60.9312911153" lon="8.41268695388">
		<tag k="name" v="Nordigarden" />
		<tag k="place" v="locality" />
		<tag k="ssr:stedsnr" v="32380" />
	</node>
	<node id="-275106" lat="60.9650611099" lon="8.36376666031">
		<tag k="name" v="Klantelie" />
		<tag k="natural" v="slope" />
		<tag k="place" v="locality" />
		<tag k="ssr:stedsnr" v="32272" />
	</node>
	<node id="-275102" lat="60.8783000023" lon="8.51596945067">
		<tag k="name" v="Rustereset" />
		<tag k="natural" v="hill" />
		<tag k="place" v="locality" />
		<tag k="ssr:stedsnr" v="32137" />
	</node>
	<node id="-275101" lat="60.8551916688" lon="8.52542499598">
		<tag k="name" v="Svarteberg" />
		<tag k="natural" v="hill" />
		<tag k="place" v="locality" />
		<tag k="ssr:stedsnr" v="32074" />
	</node>
	<node id="-275097" lat="60.8539428423" lon="8.5124803237">
		<tag k="name" v="Bjødnahovda" />
>>>>>>> e1d4bc35ff8a6074a6f2e91616a996b547c36f15
		<tag k="natural" v="hill" />
		<tag k="place" v="locality" />
		<tag k="ssr:stedsnr" v="919522" />
	</node>
<<<<<<< HEAD
	<node lat="60.94691111320038" lon="8.137677770790704" id="-15883">
		<tag k="alt_name" v="Støngeskaret" />
		<tag k="name" v="Stongeskardet" />
		<tag k="natural" v="valley" />
=======
	<node id="-275092" lat="60.9044833378" lon="8.62340555294">
		<tag k="fixme" v="consider natural=peak for the most distinct mountains in the district" />
		<tag k="name" v="Bjørnbakknøse" />
		<tag k="natural" v="hill" />
>>>>>>> e1d4bc35ff8a6074a6f2e91616a996b547c36f15
		<tag k="place" v="locality" />
		<tag k="ssr:stedsnr" v="919534" />
	</node>
<<<<<<< HEAD
	<node lat="60.874861113194356" lon="8.602313880760134" id="-15889">
		<tag k="alt_name" v="Skurvefjell" />
		<tag k="name" v="Skurvefjellet" />
=======
	<node id="-275091" lat="60.984474996" lon="8.50614999569">
		<tag k="name" v="Hydalsberget" />
>>>>>>> e1d4bc35ff8a6074a6f2e91616a996b547c36f15
		<tag k="natural" v="hill" />
		<tag k="place" v="locality" />
		<tag k="ssr:stedsnr" v="919789" />
	</node>
<<<<<<< HEAD
	<node lat="60.85428333385314" lon="8.45830555619305" id="-15890">
		<tag k="alt_name" v="Rygdin" />
=======
	<node id="-275090" lat="60.9853972233" lon="8.53086110921">
>>>>>>> e1d4bc35ff8a6074a6f2e91616a996b547c36f15
		<tag k="fixme" v="consider natural=peak for the most distinct mountains in the district" />
		<tag k="name" v="Røgjin" />
		<tag k="natural" v="hill" />
		<tag k="place" v="locality" />
		<tag k="ssr:stedsnr" v="919927" />
	</node>
<<<<<<< HEAD
	<node lat="60.88311388737252" lon="8.575375001221667" id="-15893">
		<tag k="name" v="Skåleinene" />
=======
	<node id="-275089" lat="60.9554500035" lon="8.58565278169">
		<tag k="name" v="Kneikene" />
>>>>>>> e1d4bc35ff8a6074a6f2e91616a996b547c36f15
		<tag k="natural" v="slope" />
		<tag k="place" v="locality" />
		<tag k="ssr:stedsnr" v="821068" />
	</node>
<<<<<<< HEAD
	<node lat="60.85041209739833" lon="8.550791814254948" id="-15894">
		<tag k="name" v="Høgeleine" />
		<tag k="natural" v="valley" />
=======
	<node id="-275086" lat="60.8582027749" lon="8.41143055673">
		<tag k="name" v="Svarthamaren" />
		<tag k="natural" v="hill" />
>>>>>>> e1d4bc35ff8a6074a6f2e91616a996b547c36f15
		<tag k="place" v="locality" />
		<tag k="ssr:stedsnr" v="821106" />
	</node>
<<<<<<< HEAD
	<node lat="60.84749655417621" lon="8.546723044191003" id="-15895">
		<tag k="name" v="Myljobergi" />
=======
	<node id="-275085" lat="60.9802111108" lon="8.30456665956">
		<tag k="name" v="Fosseberget" />
>>>>>>> e1d4bc35ff8a6074a6f2e91616a996b547c36f15
		<tag k="natural" v="hill" />
		<tag k="place" v="locality" />
		<tag k="ssr:stedsnr" v="821107" />
	</node>
<<<<<<< HEAD
	<node lat="60.831238892346846" lon="8.727113893228651" id="-15903">
		<tag k="name" v="Vannestølhøgde" />
=======
	<node id="-275083" lat="60.968938889" lon="8.18398056055">
		<tag k="alt_name" v="Slettetind" />
		<tag k="fixme" v="consider natural=peak for the most distinct mountains in the district" />
		<tag k="name" v="Slettind" />
>>>>>>> e1d4bc35ff8a6074a6f2e91616a996b547c36f15
		<tag k="natural" v="hill" />
		<tag k="place" v="locality" />
		<tag k="ssr:stedsnr" v="821576" />
	</node>
<<<<<<< HEAD
	<node lat="60.864666619150036" lon="8.608935896010731" id="-15912">
		<tag k="name" v="Bjørkeskørritn" />
=======
	<node id="-275080" lat="60.9524916683" lon="8.21396666789">
		<tag k="fixme" v="consider natural=peak for the most distinct mountains in the district" />
		<tag k="name" v="Rundfunuten" />
		<tag k="natural" v="hill" />
>>>>>>> e1d4bc35ff8a6074a6f2e91616a996b547c36f15
		<tag k="place" v="locality" />
		<tag k="ssr:stedsnr" v="821925" />
	</node>
<<<<<<< HEAD
	<node lat="60.8840527743998" lon="8.876761118144561" id="-15915">
		<tag k="name" v="Øvre Haugane" />
=======
	<node id="-275073" lat="60.8388027796" lon="8.53511943584">
		<tag k="fixme" v="consider natural=peak for the most distinct mountains in the district" />
		<tag k="name" v="Totten" />
>>>>>>> e1d4bc35ff8a6074a6f2e91616a996b547c36f15
		<tag k="natural" v="hill" />
		<tag k="place" v="locality" />
		<tag k="ssr:stedsnr" v="822426" />
	</node>
<<<<<<< HEAD
	<node lat="60.870061113089484" lon="8.515788882879239" id="-15917">
		<tag k="name" v="Hollekolten" />
=======
	<node id="-275072" lat="60.8519527751" lon="8.64744999641">
		<tag k="alt_name" v="Ulsåknuten" />
		<tag k="name" v="Ullsåknuten" />
>>>>>>> e1d4bc35ff8a6074a6f2e91616a996b547c36f15
		<tag k="natural" v="hill" />
		<tag k="place" v="locality" />
		<tag k="ssr:stedsnr" v="858126" />
	</node>
<<<<<<< HEAD
	<node lat="60.92614166698836" lon="8.366177782848988" id="-15926">
		<tag k="name" v="Svullberget" />
=======
	<node id="-275070" lat="60.8520750016" lon="8.62945000768">
		<tag k="alt_name" v="Geiteberg" />
		<tag k="name" v="Geiteberget" />
>>>>>>> e1d4bc35ff8a6074a6f2e91616a996b547c36f15
		<tag k="natural" v="hill" />
		<tag k="place" v="locality" />
		<tag k="ssr:stedsnr" v="858605" />
	</node>
<<<<<<< HEAD
	<node lat="60.88330000143412" lon="8.377730556921472" id="-15932">
		<tag k="fixme" v="consider natural=peak for the most distinct mountains in the district" />
		<tag k="name" v="Fuglehaugnøse" />
=======
	<node id="-275066" lat="61.0043138876" lon="8.36849999336">
		<tag k="name" v="Mørekvamberget" />
>>>>>>> e1d4bc35ff8a6074a6f2e91616a996b547c36f15
		<tag k="natural" v="hill" />
		<tag k="old_name" v="Veikinnøse;Veikinnosi" />
		<tag k="place" v="locality" />
		<tag k="ssr:stedsnr" v="870080" />
	</node>
<<<<<<< HEAD
	<node lat="60.86855979052047" lon="8.544589671288762" id="-15933">
		<tag k="name" v="Linlykkjedalen" />
=======
	<node id="-275065" lat="61.0280888863" lon="8.37609445174">
		<tag k="name" v="Storebottskardet" />
>>>>>>> e1d4bc35ff8a6074a6f2e91616a996b547c36f15
		<tag k="natural" v="valley" />
		<tag k="place" v="locality" />
		<tag k="ssr:stedsnr" v="882058" />
	</node>
<<<<<<< HEAD
	<node lat="60.8679361114302" lon="8.550900911096226" id="-15935">
		<tag k="name" v="Stupulhaugen" />
		<tag k="natural" v="hill" />
=======
	<node id="-275042" lat="60.8804249988" lon="8.57182222566">
		<tag k="name" v="Skeiehalleinene" />
		<tag k="natural" v="slope" />
>>>>>>> e1d4bc35ff8a6074a6f2e91616a996b547c36f15
		<tag k="place" v="locality" />
		<tag k="ssr:stedsnr" v="882150" />
	</node>
<<<<<<< HEAD
	<node lat="60.799251083015086" lon="8.655858652741811" id="-15941">
		<tag k="name" v="Brendeskogen" />
		<tag k="natural" v="wood" />
		<tag k="ssr:stedsnr" v="882255" />
	</node>
	<node lat="60.85419444885829" lon="8.647877769402314" id="-15944">
		<tag k="name" v="Stegbakkane" />
		<tag k="natural" v="slope" />
=======
	<node id="-275039" lat="60.9289749973" lon="8.51927500455">
		<tag k="name" v="Blomeviarane" />
		<tag k="natural" v="slope" />
		<tag k="place" v="locality" />
		<tag k="ssr:stedsnr" v="919854" />
	</node>
	<node id="-275038" lat="60.872655558" lon="8.62223611419">
		<tag k="name" v="Øvredalen" />
		<tag k="natural" v="valley" />
>>>>>>> e1d4bc35ff8a6074a6f2e91616a996b547c36f15
		<tag k="place" v="locality" />
		<tag k="ssr:stedsnr" v="882450" />
	</node>
<<<<<<< HEAD
	<node lat="60.85298888852165" lon="8.63456667120955" id="-15945">
		<tag k="name" v="Skarberg" />
		<tag k="natural" v="hill" />
=======
	<node id="-275035" lat="60.973480555" lon="8.30687499945">
		<tag k="name" v="Fossebotn" />
		<tag k="natural" v="valley" />
>>>>>>> e1d4bc35ff8a6074a6f2e91616a996b547c36f15
		<tag k="place" v="locality" />
		<tag k="ssr:stedsnr" v="882454" />
	</node>
<<<<<<< HEAD
	<node lat="60.847488890488265" lon="8.63880833051907" id="-15951">
		<tag k="name" v="Ospedokk" />
		<tag k="natural" v="slope" />
=======
	<node id="-275034" lat="60.9763277759" lon="8.25089999345">
		<tag k="fixme" v="consider natural=peak for the most distinct mountains in the district" />
		<tag k="name" v="Bubottnøse" />
		<tag k="natural" v="hill" />
>>>>>>> e1d4bc35ff8a6074a6f2e91616a996b547c36f15
		<tag k="place" v="locality" />
		<tag k="ssr:stedsnr" v="882571" />
	</node>
<<<<<<< HEAD
	<node lat="60.88715555696149" lon="8.3874361148656" id="-15952">
		<tag k="name" v="Veikinnbotn" />
=======
	<node id="-275029" lat="60.9199750028" lon="8.598877779">
		<tag k="name" v="Veslebotn" />
>>>>>>> e1d4bc35ff8a6074a6f2e91616a996b547c36f15
		<tag k="natural" v="valley" />
		<tag k="place" v="locality" />
		<tag k="ssr:stedsnr" v="882708" />
	</node>
<<<<<<< HEAD
	<node lat="60.88499444541633" lon="8.389922228632358" id="-15953">
		<tag k="name" v="Langeranden" />
		<tag k="natural" v="ridge" />
=======
	<node id="-275022" lat="60.926141667" lon="8.36617778285">
		<tag k="name" v="Svullberget" />
		<tag k="natural" v="hill" />
>>>>>>> e1d4bc35ff8a6074a6f2e91616a996b547c36f15
		<tag k="place" v="locality" />
		<tag k="ssr:stedsnr" v="882718" />
	</node>
<<<<<<< HEAD
	<node lat="60.86747778200439" lon="8.647211103119885" id="-15958">
		<tag k="name" v="Kvitbergi" />
=======
	<node id="-275012" lat="60.8682888866" lon="8.65454444228">
		<tag k="name" v="Djuplie" />
>>>>>>> e1d4bc35ff8a6074a6f2e91616a996b547c36f15
		<tag k="natural" v="slope" />
		<tag k="place" v="locality" />
		<tag k="ssr:stedsnr" v="882807" />
	</node>
<<<<<<< HEAD
	<node lat="60.852216664378425" lon="8.743616663868945" id="-15962">
		<tag k="name" v="Nausthaugen" />
=======
	<node id="-275010" lat="60.8858111132" lon="8.74647499786">
		<tag k="name" v="Hyndehaugane" />
>>>>>>> e1d4bc35ff8a6074a6f2e91616a996b547c36f15
		<tag k="natural" v="hill" />
		<tag k="place" v="locality" />
		<tag k="ssr:stedsnr" v="883099" />
	</node>
<<<<<<< HEAD
	<node lat="60.86015555891631" lon="8.626524997421585" id="-15968">
		<tag k="name" v="Grøtenuten" />
=======
	<node id="-275004" lat="60.8857138904" lon="8.84870277756">
		<tag k="name" v="Hovdene" />
>>>>>>> e1d4bc35ff8a6074a6f2e91616a996b547c36f15
		<tag k="natural" v="hill" />
		<tag k="place" v="locality" />
		<tag k="ssr:stedsnr" v="918165" />
	</node>
<<<<<<< HEAD
	<node lat="60.82508610964982" lon="8.731063882987035" id="-15975">
		<tag k="name" v="Rishaugen" />
		<tag k="natural" v="hill" />
=======
	<node id="-274999" lat="60.8958944486" lon="8.84755834185">
		<tag k="name" v="Baklie" />
		<tag k="natural" v="slope" />
>>>>>>> e1d4bc35ff8a6074a6f2e91616a996b547c36f15
		<tag k="place" v="locality" />
		<tag k="ssr:stedsnr" v="919197" />
	</node>
<<<<<<< HEAD
	<node lat="60.87265555803081" lon="8.622236114191598" id="-15979">
		<tag k="name" v="Øvredalen" />
		<tag k="natural" v="valley" />
		<tag k="place" v="locality" />
		<tag k="ssr:stedsnr" v="919809" />
	</node>
	<node lat="60.85455988997307" lon="8.442368425594276" id="-15987">
		<tag k="name" v="Rupehovda" />
=======
	<node id="-274997" lat="60.7738916671" lon="8.65071389707">
		<tag k="name" v="Valhovddalen" />
		<tag k="natural" v="valley" />
		<tag k="place" v="locality" />
		<tag k="ssr:stedsnr" v="943305" />
	</node>
	<node id="-274996" lat="60.7870972205" lon="8.63481389754">
		<tag k="name" v="Langeranden" />
		<tag k="natural" v="slope" />
		<tag k="place" v="locality" />
		<tag k="ssr:stedsnr" v="943275" />
	</node>
	<node id="-274992" lat="60.9840833305" lon="8.5635888932">
		<tag k="name" v="Oksehaugen" />
>>>>>>> e1d4bc35ff8a6074a6f2e91616a996b547c36f15
		<tag k="natural" v="hill" />
		<tag k="place" v="locality" />
		<tag k="ssr:stedsnr" v="981005" />
	</node>
<<<<<<< HEAD
	<node lat="60.81221900778636" lon="8.725009259012758" id="-15988">
		<tag k="name" v="Kalveslette" />
=======
	<node id="-274990" lat="60.8693444434" lon="8.58394444136">
		<tag k="name" v="Tindermyljo" />
>>>>>>> e1d4bc35ff8a6074a6f2e91616a996b547c36f15
		<tag k="place" v="locality" />
		<tag k="ssr:stedsnr" v="981007" />
	</node>
<<<<<<< HEAD
	<node lat="60.85207500160318" lon="8.629450007677418" id="-15992">
		<tag k="alt_name" v="Geiteberg" />
		<tag k="name" v="Geiteberget" />
=======
	<node id="-274981" lat="60.8753027739" lon="8.42832499306">
		<tag k="name" v="Brennhovd" />
>>>>>>> e1d4bc35ff8a6074a6f2e91616a996b547c36f15
		<tag k="natural" v="hill" />
		<tag k="place" v="locality" />
		<tag k="ssr:stedsnr" v="8173" />
	</node>
<<<<<<< HEAD
	<node lat="60.85195277505138" lon="8.647449996412918" id="-15994">
		<tag k="alt_name" v="Ulsåknuten" />
		<tag k="name" v="Ullsåknuten" />
=======
	<node id="-274979" lat="60.8560055545" lon="8.38638888135">
		<tag k="name" v="Storeskriu" />
>>>>>>> e1d4bc35ff8a6074a6f2e91616a996b547c36f15
		<tag k="natural" v="hill" />
		<tag k="place" v="locality" />
		<tag k="ssr:stedsnr" v="8180" />
	</node>
<<<<<<< HEAD
	<node lat="60.83880277962867" lon="8.535119435842311" id="-15995">
		<tag k="fixme" v="consider natural=peak for the most distinct mountains in the district" />
		<tag k="name" v="Totten" />
		<tag k="natural" v="hill" />
=======
	<node id="-274977" lat="60.8745833292" lon="8.45420834179">
		<tag k="name" v="Veneli" />
>>>>>>> e1d4bc35ff8a6074a6f2e91616a996b547c36f15
		<tag k="place" v="locality" />
		<tag k="ssr:stedsnr" v="8190" />
	</node>
<<<<<<< HEAD
	<node lat="60.95249166834677" lon="8.213966667886117" id="-15999">
		<tag k="fixme" v="consider natural=peak for the most distinct mountains in the district" />
		<tag k="name" v="Rundfunuten" />
=======
	<node id="-274976" lat="60.8991249973" lon="8.41862778635">
		<tag k="name" v="Hovdeklanten" />
>>>>>>> e1d4bc35ff8a6074a6f2e91616a996b547c36f15
		<tag k="natural" v="hill" />
		<tag k="place" v="locality" />
		<tag k="ssr:stedsnr" v="8533" />
	</node>
<<<<<<< HEAD
	<node lat="60.980211110819766" lon="8.304566659555904" id="-16003">
		<tag k="name" v="Fosseberget" />
=======
	<node id="-274975" lat="60.8908888847" lon="8.40784445146">
		<tag k="name" v="Fjellbakklanten" />
>>>>>>> e1d4bc35ff8a6074a6f2e91616a996b547c36f15
		<tag k="natural" v="hill" />
		<tag k="place" v="locality" />
		<tag k="ssr:stedsnr" v="8572" />
	</node>
<<<<<<< HEAD
	<node lat="60.904483337803235" lon="8.623405552940008" id="-16007">
		<tag k="fixme" v="consider natural=peak for the most distinct mountains in the district" />
		<tag k="name" v="Bjørnbakknøse" />
		<tag k="natural" v="hill" />
		<tag k="place" v="locality" />
		<tag k="ssr:stedsnr" v="9834" />
	</node>
	<node lat="60.95545000352155" lon="8.58565278168545" id="-16008">
		<tag k="name" v="Kneikene" />
=======
	<node id="-274972" lat="60.825866746" lon="8.72233099029">
		<tag k="name" v="Brynhildstølhalle" />
		<tag k="natural" v="hill" />
		<tag k="place" v="locality" />
		<tag k="ssr:stedsnr" v="942580" />
	</node>
	<node id="-274968" lat="60.9689583338" lon="8.4725527698">
		<tag k="name" v="Lysebotn" />
		<tag k="natural" v="valley" />
		<tag k="place" v="locality" />
		<tag k="ssr:stedsnr" v="942415" />
	</node>
	<node id="-274963" lat="60.8787912905" lon="8.56759727049">
		<tag k="name" v="Halleinene" />
>>>>>>> e1d4bc35ff8a6074a6f2e91616a996b547c36f15
		<tag k="natural" v="slope" />
		<tag k="place" v="locality" />
		<tag k="ssr:stedsnr" v="9753" />
	</node>
<<<<<<< HEAD
	<node lat="60.991746189046694" lon="8.585045388936958" id="-16009">
		<tag k="fixme" v="consider natural=peak for the most distinct mountains in the district" />
		<tag k="name" v="Ranastongeggi" />
=======
	<node id="-274962" lat="60.8840527744" lon="8.87676111814">
		<tag k="name" v="Øvre Haugane" />
>>>>>>> e1d4bc35ff8a6074a6f2e91616a996b547c36f15
		<tag k="natural" v="hill" />
		<tag k="place" v="locality" />
		<tag k="ssr:stedsnr" v="9770" />
	</node>
<<<<<<< HEAD
	<node lat="60.98539722328147" lon="8.530861109208901" id="-16010">
		<tag k="fixme" v="consider natural=peak for the most distinct mountains in the district" />
		<tag k="name" v="Steinbunøse" />
		<tag k="natural" v="hill" />
=======
	<node id="-274960" lat="60.8604944482" lon="8.79329999534">
		<tag k="name" v="Bergastøllie" />
		<tag k="natural" v="slope" />
>>>>>>> e1d4bc35ff8a6074a6f2e91616a996b547c36f15
		<tag k="place" v="locality" />
		<tag k="ssr:stedsnr" v="9773" />
	</node>
<<<<<<< HEAD
	<node lat="60.984474995979014" lon="8.506149995694622" id="-16011">
		<tag k="name" v="Hydalsberget" />
=======
	<node id="-274954" lat="60.8658083301" lon="8.66066944058">
		<tag k="name" v="Svinehovda" />
>>>>>>> e1d4bc35ff8a6074a6f2e91616a996b547c36f15
		<tag k="natural" v="hill" />
		<tag k="place" v="locality" />
		<tag k="ssr:stedsnr" v="9774" />
	</node>
<<<<<<< HEAD
	<node lat="60.87830000225565" lon="8.515969450669596" id="-16017">
		<tag k="name" v="Rustereset" />
=======
	<node id="-274950" lat="60.8392527785" lon="8.42822500623">
		<tag k="name" v="Skoghovda" />
>>>>>>> e1d4bc35ff8a6074a6f2e91616a996b547c36f15
		<tag k="natural" v="hill" />
		<tag k="place" v="locality" />
		<tag k="ssr:stedsnr" v="32137" />
	</node>
<<<<<<< HEAD
	<node lat="60.965061109885056" lon="8.363766660312892" id="-16022">
		<tag k="name" v="Klantelie" />
		<tag k="natural" v="slope" />
=======
	<node id="-274949" lat="60.8715000036" lon="8.68941666561">
		<tag k="name" v="Maurhaugane" />
		<tag k="natural" v="hill" />
>>>>>>> e1d4bc35ff8a6074a6f2e91616a996b547c36f15
		<tag k="place" v="locality" />
		<tag k="ssr:stedsnr" v="32272" />
	</node>
<<<<<<< HEAD
	<node lat="60.94444999988806" lon="8.387952774506145" id="-16023">
		<tag k="name" v="Bregneberget" />
=======
	<node id="-274948" lat="60.8680194439" lon="8.70110832983">
		<tag k="name" v="Engehovda" />
>>>>>>> e1d4bc35ff8a6074a6f2e91616a996b547c36f15
		<tag k="natural" v="hill" />
		<tag k="place" v="locality" />
		<tag k="ssr:stedsnr" v="32396" />
	</node>
<<<<<<< HEAD
	<node lat="60.885516663850815" lon="8.829674991331748" id="-16024">
		<tag k="name" v="Grøveberget" />
=======
	<node id="-274944" lat="60.8709888899" lon="8.52225278682">
		<tag k="name" v="Kråkehaugen" />
>>>>>>> e1d4bc35ff8a6074a6f2e91616a996b547c36f15
		<tag k="natural" v="hill" />
		<tag k="place" v="locality" />
		<tag k="ssr:stedsnr" v="32576" />
	</node>
<<<<<<< HEAD
	<node lat="60.927538887850694" lon="8.410061106228483" id="-16029">
		<tag k="name" v="Søre Moen" />
=======
	<node id="-274939" lat="60.8831138874" lon="8.57537500122">
		<tag k="name" v="Skåleinene" />
		<tag k="natural" v="slope" />
>>>>>>> e1d4bc35ff8a6074a6f2e91616a996b547c36f15
		<tag k="place" v="locality" />
		<tag k="ssr:stedsnr" v="32547" />
	</node>
<<<<<<< HEAD
	<node lat="60.8076638908557" lon="8.71565834010142" id="-16030">
		<tag k="name" v="Røyrputthøgde" />
=======
	<node id="-274936" lat="60.8474965542" lon="8.54672304419">
		<tag k="name" v="Myljobergi" />
>>>>>>> e1d4bc35ff8a6074a6f2e91616a996b547c36f15
		<tag k="natural" v="hill" />
		<tag k="place" v="locality" />
		<tag k="ssr:stedsnr" v="32557" />
	</node>
<<<<<<< HEAD
	<node lat="60.8203916701358" lon="8.699927782794203" id="-16031">
		<tag k="name" v="Kvednahushaugen" />
		<tag k="natural" v="hill" />
=======
	<node id="-274935" lat="60.8504120974" lon="8.55079181425">
		<tag k="name" v="Høgeleine" />
		<tag k="natural" v="valley" />
>>>>>>> e1d4bc35ff8a6074a6f2e91616a996b547c36f15
		<tag k="place" v="locality" />
		<tag k="ssr:stedsnr" v="32561" />
	</node>
<<<<<<< HEAD
	<node lat="60.86435830669128" lon="8.584968064178398" id="-16035">
		<tag k="name" v="Hamaren" />
=======
	<node id="-274933" lat="60.8888444459" lon="8.14833611198">
		<tag k="name" v="Langebotn" />
		<tag k="natural" v="valley" />
>>>>>>> e1d4bc35ff8a6074a6f2e91616a996b547c36f15
		<tag k="place" v="locality" />
		<tag k="ssr:stedsnr" v="32932" />
	</node>
<<<<<<< HEAD
	<node lat="60.860905558541006" lon="8.769602780578841" id="-16036">
		<tag k="name" v="Svarteberg" />
=======
	<node id="-274930" lat="60.8341805517" lon="8.69849722702">
		<tag k="name" v="Brendehaugane" />
>>>>>>> e1d4bc35ff8a6074a6f2e91616a996b547c36f15
		<tag k="natural" v="hill" />
		<tag k="place" v="locality" />
		<tag k="ssr:stedsnr" v="33119" />
	</node>
<<<<<<< HEAD
	<node lat="60.936738884884946" lon="8.347844453167026" id="-16040">
=======
	<node id="-274928" lat="60.8423259706" lon="8.60140037218">
>>>>>>> e1d4bc35ff8a6074a6f2e91616a996b547c36f15
		<tag k="fixme" v="consider natural=peak for the most distinct mountains in the district" />
		<tag k="name" v="Nonshovda" />
		<tag k="natural" v="hill" />
		<tag k="place" v="locality" />
		<tag k="ssr:stedsnr" v="69556" />
	</node>
<<<<<<< HEAD
	<node lat="60.94401389067625" lon="8.425902770162873" id="-16041">
		<tag k="name" v="Solgladberget" />
=======
	<node id="-274923" lat="60.8001916672" lon="8.75964444069">
		<tag k="alt_name" v="Svaberga" />
		<tag k="name" v="Svabergi" />
>>>>>>> e1d4bc35ff8a6074a6f2e91616a996b547c36f15
		<tag k="natural" v="hill" />
		<tag k="place" v="locality" />
		<tag k="ssr:stedsnr" v="69560" />
	</node>
<<<<<<< HEAD
	<node lat="60.85130277547924" lon="8.473030563983512" id="-16045">
		<tag k="alt_name" v="Skarsnuten" />
=======
	<node id="-274922" lat="60.8542833339" lon="8.45830555619">
		<tag k="alt_name" v="Rygdin" />
>>>>>>> e1d4bc35ff8a6074a6f2e91616a996b547c36f15
		<tag k="fixme" v="consider natural=peak for the most distinct mountains in the district" />
		<tag k="name" v="Skardsnuten" />
		<tag k="natural" v="hill" />
		<tag k="place" v="locality" />
		<tag k="ssr:stedsnr" v="69168" />
	</node>
<<<<<<< HEAD
	<node lat="60.8534666624067" lon="8.52746111125403" id="-16046">
		<tag k="fixme" v="consider natural=peak for the most distinct mountains in the district" />
		<tag k="name" v="Vesletotten" />
		<tag k="natural" v="hill" />
		<tag k="place" v="locality" />
		<tag k="ssr:stedsnr" v="69174" />
	</node>
	<node lat="60.80367500253708" lon="8.545174990984831" id="-16048">
=======
	<node id="-274919" lat="60.8748611132" lon="8.60231388076">
		<tag k="alt_name" v="Skurvefjell" />
		<tag k="name" v="Skurvefjellet" />
		<tag k="natural" v="hill" />
		<tag k="place" v="locality" />
		<tag k="ssr:stedsnr" v="919789" />
	</node>
	<node id="-274909" lat="60.9469111132" lon="8.13767777079">
		<tag k="alt_name" v="Støngeskaret" />
		<tag k="name" v="Stongeskardet" />
		<tag k="natural" v="valley" />
		<tag k="place" v="locality" />
		<tag k="ssr:stedsnr" v="919534" />
	</node>
	<node id="-274907" lat="60.9421833346" lon="8.31210834216">
>>>>>>> e1d4bc35ff8a6074a6f2e91616a996b547c36f15
		<tag k="fixme" v="consider natural=peak for the most distinct mountains in the district" />
		<tag k="name" v="Såta" />
		<tag k="natural" v="hill" />
		<tag k="old_name" v="Værsjøfjeld" />
		<tag k="place" v="locality" />
		<tag k="ssr:stedsnr" v="69245" />
	</node>
<<<<<<< HEAD
	<node lat="60.79917500045734" lon="8.56212500815132" id="-16049">
		<tag k="name" v="Veslesåta" />
=======
	<node id="-274905" lat="60.8250861096" lon="8.73106388299">
		<tag k="name" v="Rishaugen" />
>>>>>>> e1d4bc35ff8a6074a6f2e91616a996b547c36f15
		<tag k="natural" v="hill" />
		<tag k="place" v="locality" />
		<tag k="ssr:stedsnr" v="69250" />
	</node>
<<<<<<< HEAD
	<node lat="60.9181972197304" lon="8.334761115041129" id="-16054">
		<tag k="name" v="Raudberg" />
=======
	<node id="-274903" lat="60.8725444452" lon="8.38379167433">
		<tag k="fixme" v="consider natural=peak for the most distinct mountains in the district" />
		<tag k="name" v="Stølsnøse" />
>>>>>>> e1d4bc35ff8a6074a6f2e91616a996b547c36f15
		<tag k="natural" v="hill" />
		<tag k="place" v="locality" />
		<tag k="ssr:stedsnr" v="69644" />
	</node>
<<<<<<< HEAD
	<node lat="60.945186110588914" lon="8.635252771766998" id="-16057">
		<tag k="name" v="Lusterslettene" />
=======
	<node id="-274902" lat="60.8824861109" lon="8.21754721538">
		<tag k="name" v="Bakkestølbotn" />
		<tag k="natural" v="valley" />
>>>>>>> e1d4bc35ff8a6074a6f2e91616a996b547c36f15
		<tag k="place" v="locality" />
		<tag k="ssr:stedsnr" v="69772" />
	</node>
<<<<<<< HEAD
	<node lat="60.8803722197846" lon="8.808669439239297" id="-16058">
		<tag k="name" v="Natten" />
=======
	<node id="-274900" lat="60.9648666695" lon="8.30811388517">
		<tag k="fixme" v="consider natural=peak for the most distinct mountains in the district" />
		<tag k="name" v="Preinsrudtind" />
>>>>>>> e1d4bc35ff8a6074a6f2e91616a996b547c36f15
		<tag k="natural" v="hill" />
		<tag k="place" v="locality" />
		<tag k="ssr:stedsnr" v="69845" />
	</node>
<<<<<<< HEAD
	<node lat="60.8906500036653" lon="8.625924996192628" id="-16059">
		<tag k="name" v="Øvrebotn" />
=======
	<node id="-274899" lat="60.9884694401" lon="8.34166944725">
		<tag k="name" v="Mørekvamdalen" />
>>>>>>> e1d4bc35ff8a6074a6f2e91616a996b547c36f15
		<tag k="natural" v="valley" />
		<tag k="place" v="locality" />
		<tag k="ssr:stedsnr" v="69852" />
	</node>
<<<<<<< HEAD
	<node lat="60.91743333466242" lon="8.739691667472682" id="-16062">
		<tag k="fixme" v="consider natural=peak for the most distinct mountains in the district" />
		<tag k="name" v="Skruvlehovda" />
=======
	<node id="-274896" lat="60.8393833328" lon="8.55891944842">
		<tag k="name" v="Vesletotten" />
>>>>>>> e1d4bc35ff8a6074a6f2e91616a996b547c36f15
		<tag k="natural" v="hill" />
		<tag k="place" v="locality" />
		<tag k="ssr:stedsnr" v="69867" />
	</node>
<<<<<<< HEAD
	<node lat="60.95431944164581" lon="8.480766665486007" id="-16063">
		<tag k="name" v="Ljotebotn" />
		<tag k="natural" v="valley" />
=======
	<node id="-274888" lat="60.8649249994" lon="8.7118388981">
		<tag k="name" v="Grøtehovda" />
		<tag k="natural" v="hill" />
>>>>>>> e1d4bc35ff8a6074a6f2e91616a996b547c36f15
		<tag k="place" v="locality" />
		<tag k="ssr:stedsnr" v="70647" />
	</node>
<<<<<<< HEAD
	<node lat="60.86745833161521" lon="8.570791671868868" id="-16066">
		<tag k="name" v="Bergeruddalen" />
		<tag k="natural" v="valley" />
=======
	<node id="-274885" lat="60.8601555589" lon="8.62652499742">
		<tag k="name" v="Grøtenuten" />
		<tag k="natural" v="hill" />
>>>>>>> e1d4bc35ff8a6074a6f2e91616a996b547c36f15
		<tag k="place" v="locality" />
		<tag k="ssr:stedsnr" v="93063" />
	</node>
<<<<<<< HEAD
	<node lat="60.86791389115348" lon="8.566138891148652" id="-16067">
		<tag k="name" v="Gopledalen" />
		<tag k="natural" v="valley" />
=======
	<node id="-274877" lat="60.8207861097" lon="8.71560834024">
		<tag k="name" v="Veslestølhalle" />
		<tag k="natural" v="slope" />
>>>>>>> e1d4bc35ff8a6074a6f2e91616a996b547c36f15
		<tag k="place" v="locality" />
		<tag k="ssr:stedsnr" v="93065" />
	</node>
<<<<<<< HEAD
	<node lat="60.87356290242082" lon="8.570256176941283" id="-16068">
		<tag k="name" v="Hjelmen" />
		<tag k="natural" v="slope" />
=======
	<node id="-274875" lat="60.7870972205" lon="8.63481389754">
		<tag k="name" v="Midtlina" />
>>>>>>> e1d4bc35ff8a6074a6f2e91616a996b547c36f15
		<tag k="place" v="locality" />
		<tag k="ssr:stedsnr" v="93069" />
	</node>
<<<<<<< HEAD
	<node lat="60.88272500404048" lon="8.505269435608087" id="-16071">
		<tag k="name" v="Hulbakkleive" />
=======
	<node id="-274871" lat="60.8486460293" lon="8.52174624087">
		<tag k="name" v="Sollaust" />
		<tag k="natural" v="valley" />
>>>>>>> e1d4bc35ff8a6074a6f2e91616a996b547c36f15
		<tag k="place" v="locality" />
		<tag k="ssr:stedsnr" v="93147" />
	</node>
<<<<<<< HEAD
	<node lat="60.77651388474392" lon="8.733747215291896" id="-16076">
		<tag k="name" v="Mårklantane" />
=======
	<node id="-274867" lat="60.8333152958" lon="8.57340301667">
		<tag k="name" v="Røyvoni" />
>>>>>>> e1d4bc35ff8a6074a6f2e91616a996b547c36f15
		<tag k="natural" v="slope" />
		<tag k="place" v="locality" />
		<tag k="ssr:stedsnr" v="93239" />
	</node>
<<<<<<< HEAD
	<node lat="60.81605555508334" lon="8.71259999839764" id="-16077">
		<tag k="name" v="Øvre Rudningshaugen" />
=======
	<node id="-274865" lat="60.8606444403" lon="8.80036943803">
		<tag k="name" v="Klantane" />
>>>>>>> e1d4bc35ff8a6074a6f2e91616a996b547c36f15
		<tag k="natural" v="hill" />
		<tag k="place" v="locality" />
		<tag k="ssr:stedsnr" v="93335" />
	</node>
<<<<<<< HEAD
	<node lat="60.829319444587625" lon="8.726927781847783" id="-16081">
=======
	<node id="-274853" lat="60.8522166644" lon="8.74361666387">
>>>>>>> e1d4bc35ff8a6074a6f2e91616a996b547c36f15
		<tag k="name" v="Nausthaugen" />
		<tag k="natural" v="hill" />
		<tag k="place" v="locality" />
		<tag k="ssr:stedsnr" v="93510" />
	</node>
<<<<<<< HEAD
	<node lat="60.86355886399098" lon="8.61460413086257" id="-16085">
		<tag k="alt_name" v="Nuteskaret" />
		<tag k="name" v="Nuteskardet" />
		<tag k="natural" v="valley" />
=======
	<node id="-274847" lat="60.867477782" lon="8.64721110312">
		<tag k="name" v="Kvitbergi" />
		<tag k="natural" v="slope" />
>>>>>>> e1d4bc35ff8a6074a6f2e91616a996b547c36f15
		<tag k="place" v="locality" />
		<tag k="ssr:stedsnr" v="93901" />
	</node>
<<<<<<< HEAD
	<node lat="60.81840000378181" lon="8.474949998270082" id="-16091">
		<tag k="name" v="Systerskardet" />
		<tag k="natural" v="valley" />
=======
	<node id="-274843" lat="60.8776972231" lon="8.78188055236">
		<tag k="name" v="Storhaugen" />
		<tag k="natural" v="hill" />
>>>>>>> e1d4bc35ff8a6074a6f2e91616a996b547c36f15
		<tag k="place" v="locality" />
		<tag k="ssr:stedsnr" v="129225" />
	</node>
<<<<<<< HEAD
	<node lat="60.96003611011787" lon="8.376213891346973" id="-16099">
		<tag k="name" v="Kvelveberget" />
		<tag k="natural" v="hill" />
=======
	<node id="-274842" lat="60.8849944454" lon="8.38992222863">
		<tag k="name" v="Langeranden" />
		<tag k="natural" v="ridge" />
>>>>>>> e1d4bc35ff8a6074a6f2e91616a996b547c36f15
		<tag k="place" v="locality" />
		<tag k="ssr:stedsnr" v="129499" />
	</node>
<<<<<<< HEAD
	<node lat="60.826736435418155" lon="8.570861905145904" id="-16111">
		<tag k="name" v="Klanten" />
		<tag k="natural" v="slope" />
=======
	<node id="-274841" lat="60.887155557" lon="8.38743611487">
		<tag k="name" v="Veikinnbotn" />
		<tag k="natural" v="valley" />
>>>>>>> e1d4bc35ff8a6074a6f2e91616a996b547c36f15
		<tag k="place" v="locality" />
		<tag k="ssr:stedsnr" v="153960" />
	</node>
<<<<<<< HEAD
	<node lat="60.83271786682057" lon="8.577034695354792" id="-16113">
		<tag k="name" v="Åseluo" />
=======
	<node id="-274834" lat="60.8731444469" lon="8.71183611765">
		<tag k="name" v="Bakkevollen" />
>>>>>>> e1d4bc35ff8a6074a6f2e91616a996b547c36f15
		<tag k="natural" v="slope" />
		<tag k="place" v="locality" />
		<tag k="ssr:stedsnr" v="153978" />
	</node>
<<<<<<< HEAD
	<node lat="60.84197326849536" lon="8.56345389010621" id="-16114">
		<tag k="name" v="Søreslette" />
=======
	<node id="-274833" lat="60.8474888905" lon="8.63880833052">
		<tag k="name" v="Ospedokk" />
		<tag k="natural" v="slope" />
>>>>>>> e1d4bc35ff8a6074a6f2e91616a996b547c36f15
		<tag k="place" v="locality" />
		<tag k="ssr:stedsnr" v="153987" />
	</node>
<<<<<<< HEAD
	<node lat="60.78564722386166" lon="8.64726667084749" id="-16115">
		<tag k="name" v="Lundehaug" />
=======
	<node id="-274825" lat="60.8529888885" lon="8.63456667121">
		<tag k="name" v="Skarberg" />
>>>>>>> e1d4bc35ff8a6074a6f2e91616a996b547c36f15
		<tag k="natural" v="hill" />
		<tag k="place" v="locality" />
		<tag k="ssr:stedsnr" v="153244" />
	</node>
<<<<<<< HEAD
	<node lat="60.89333333368647" lon="8.784155560573378" id="-16117">
		<tag k="name" v="Storesteinslette" />
		<tag k="place" v="locality" />
		<tag k="ssr:stedsnr" v="153275" />
	</node>
	<node lat="60.881372218659266" lon="8.723813897151432" id="-16121">
		<tag k="name" v="Høgebraute" />
=======
	<node id="-274824" lat="60.8541944489" lon="8.6478777694">
		<tag k="name" v="Stegbakkane" />
>>>>>>> e1d4bc35ff8a6074a6f2e91616a996b547c36f15
		<tag k="natural" v="slope" />
		<tag k="place" v="locality" />
		<tag k="ssr:stedsnr" v="153698" />
	</node>
<<<<<<< HEAD
	<node lat="60.863042490372294" lon="8.59012825594909" id="-16126">
		<tag k="name" v="Helleberg" />
=======
	<node id="-274818" lat="60.9714388855" lon="8.62542499848">
		<tag k="fixme" v="consider natural=peak for the most distinct mountains in the district" />
		<tag k="name" v="Hydalsrova" />
		<tag k="natural" v="hill" />
>>>>>>> e1d4bc35ff8a6074a6f2e91616a996b547c36f15
		<tag k="place" v="locality" />
		<tag k="ssr:stedsnr" v="153944" />
	</node>
<<<<<<< HEAD
	<node lat="60.85552222525819" lon="8.789944442533931" id="-16127">
		<tag k="name" v="Vesle Svarahovda" />
=======
	<node id="-274807" lat="60.8813749982" lon="8.31454167053">
		<tag k="fixme" v="consider natural=peak for the most distinct mountains in the district" />
		<tag k="name" v="Storeskardnøse" />
>>>>>>> e1d4bc35ff8a6074a6f2e91616a996b547c36f15
		<tag k="natural" v="hill" />
		<tag k="place" v="locality" />
		<tag k="ssr:stedsnr" v="154182" />
	</node>
<<<<<<< HEAD
	<node lat="61.00181111205791" lon="8.248044450990099" id="-16135">
		<tag k="name" v="Breidnøsdalen" />
		<tag k="natural" v="valley" />
		<tag k="place" v="locality" />
		<tag k="ssr:stedsnr" v="189699" />
	</node>
	<node lat="60.91122777767756" lon="8.393758325376599" id="-16144">
		<tag k="name" v="Nonskardet" />
		<tag k="natural" v="valley" />
=======
	<node id="-274804" lat="60.799251083" lon="8.65585865274">
		<tag k="name" v="Brendeskogen" />
		<tag k="natural" v="wood" />
		<tag k="ssr:stedsnr" v="882255" />
	</node>
	<node id="-274800" lat="60.873586113" lon="8.75957500908">
		<tag k="name" v="Hyndestronde" />
>>>>>>> e1d4bc35ff8a6074a6f2e91616a996b547c36f15
		<tag k="place" v="locality" />
		<tag k="ssr:stedsnr" v="191577" />
	</node>
<<<<<<< HEAD
	<node lat="60.915933331053395" lon="8.651502769565838" id="-16145">
		<tag k="fixme" v="consider natural=peak for the most distinct mountains in the district" />
		<tag k="name" v="Nibbi" />
=======
	<node id="-274796" lat="60.8679361114" lon="8.5509009111">
		<tag k="name" v="Stupulhaugen" />
>>>>>>> e1d4bc35ff8a6074a6f2e91616a996b547c36f15
		<tag k="natural" v="hill" />
		<tag k="place" v="locality" />
		<tag k="ssr:stedsnr" v="191811" />
	</node>
<<<<<<< HEAD
	<node lat="60.87657499642797" lon="8.639497226476825" id="-16147">
		<tag k="fixme" v="consider natural=peak for the most distinct mountains in the district" />
		<tag k="name" v="Nibbi" />
=======
	<node id="-274795" lat="60.9802972259" lon="8.60579166191">
		<tag k="name" v="Hydalsrova" />
>>>>>>> e1d4bc35ff8a6074a6f2e91616a996b547c36f15
		<tag k="natural" v="hill" />
		<tag k="place" v="locality" />
		<tag k="ssr:stedsnr" v="191770" />
	</node>
<<<<<<< HEAD
	<node lat="60.88146666891781" lon="8.571608333008967" id="-16148">
		<tag k="name" v="Halleinklanten" />
		<tag k="natural" v="hill" />
=======
	<node id="-274794" lat="60.9840750026" lon="8.57066389543">
		<tag k="name" v="Hjallepallane" />
		<tag k="natural" v="slope" />
>>>>>>> e1d4bc35ff8a6074a6f2e91616a996b547c36f15
		<tag k="place" v="locality" />
		<tag k="ssr:stedsnr" v="191773" />
	</node>
<<<<<<< HEAD
	<node lat="60.939483335982885" lon="8.494327771756042" id="-16150">
		<tag k="fixme" v="consider natural=peak for the most distinct mountains in the district" />
		<tag k="name" v="Harahorn" />
=======
	<node id="-274792" lat="60.8666249995" lon="8.61276943749">
		<tag k="name" v="Nutelihøgde" />
>>>>>>> e1d4bc35ff8a6074a6f2e91616a996b547c36f15
		<tag k="natural" v="hill" />
		<tag k="place" v="locality" />
		<tag k="ssr:stedsnr" v="191831" />
	</node>
<<<<<<< HEAD
	<node lat="60.87841389188686" lon="8.52887500716719" id="-16152">
		<tag k="name" v="Skaroklanten" />
		<tag k="natural" v="slope" />
		<tag k="place" v="locality" />
		<tag k="ssr:stedsnr" v="214065" />
	</node>
	<node lat="60.87060857155725" lon="8.574051395702538" id="-16153">
		<tag k="name" v="Nedre Rona" />
=======
	<node id="-274791" lat="60.8685597905" lon="8.54458967129">
		<tag k="name" v="Linlykkjedalen" />
>>>>>>> e1d4bc35ff8a6074a6f2e91616a996b547c36f15
		<tag k="natural" v="valley" />
		<tag k="place" v="locality" />
		<tag k="ssr:stedsnr" v="214068" />
	</node>
<<<<<<< HEAD
	<node lat="60.86977953227493" lon="8.528339634625741" id="-16155">
		<tag k="name" v="Syngerberg" />
=======
	<node id="-274789" lat="61.003124997" lon="8.31228888331">
		<tag k="fixme" v="consider natural=peak for the most distinct mountains in the district" />
		<tag k="name" v="Søtelifjellet" />
>>>>>>> e1d4bc35ff8a6074a6f2e91616a996b547c36f15
		<tag k="natural" v="hill" />
		<tag k="place" v="locality" />
		<tag k="ssr:stedsnr" v="214153" />
	</node>
<<<<<<< HEAD
	<node lat="60.866630558731906" lon="8.680186115010141" id="-16162">
		<tag k="name" v="Gjartrudhaugen" />
		<tag k="natural" v="hill" />
=======
	<node id="-274788" lat="61.0802055588" lon="8.2685027729">
		<tag k="name" v="Kyrkjeporten" />
		<tag k="natural" v="valley" />
>>>>>>> e1d4bc35ff8a6074a6f2e91616a996b547c36f15
		<tag k="place" v="locality" />
		<tag k="ssr:stedsnr" v="214714" />
	</node>
<<<<<<< HEAD
	<node lat="60.897013892961944" lon="8.420947214394076" id="-16165">
		<tag k="name" v="Hølu" />
=======
	<node id="-274785" lat="60.8898638881" lon="8.78228889631">
		<tag k="name" v="Sjåhaug" />
		<tag k="natural" v="hill" />
>>>>>>> e1d4bc35ff8a6074a6f2e91616a996b547c36f15
		<tag k="place" v="locality" />
		<tag k="ssr:stedsnr" v="214657" />
	</node>
<<<<<<< HEAD
	<node lat="60.87307777542923" lon="8.425561112190294" id="-16168">
		<tag k="name" v="Liahaugen" />
		<tag k="natural" v="ridge" />
		<tag k="place" v="locality" />
		<tag k="ssr:stedsnr" v="214773" />
	</node>
	<node lat="60.868013891323514" lon="8.45756388833942" id="-16169">
		<tag k="name" v="Røggelie" />
=======
	<node id="-274782" lat="60.8774416633" lon="8.41860832743">
		<tag k="name" v="Eikro" />
>>>>>>> e1d4bc35ff8a6074a6f2e91616a996b547c36f15
		<tag k="natural" v="slope" />
		<tag k="place" v="locality" />
		<tag k="ssr:stedsnr" v="214837" />
	</node>
<<<<<<< HEAD
	<node lat="60.877377782011784" lon="8.568694438640115" id="-16176">
		<tag k="name" v="Finntopphola" />
=======
	<node id="-274781" lat="60.8680083318" lon="8.42228055125">
		<tag k="name" v="Måfåhaugen" />
>>>>>>> e1d4bc35ff8a6074a6f2e91616a996b547c36f15
		<tag k="natural" v="hill" />
		<tag k="place" v="locality" />
		<tag k="ssr:stedsnr" v="275058" />
	</node>
<<<<<<< HEAD
	<node lat="60.879263884742635" lon="8.521955557163512" id="-16178">
		<tag k="name" v="Rustedokki" />
=======
	<node id="-274767" lat="60.8005972219" lon="8.62771666569">
		<tag k="name" v="Hornslie" />
>>>>>>> e1d4bc35ff8a6074a6f2e91616a996b547c36f15
		<tag k="natural" v="slope" />
		<tag k="place" v="locality" />
		<tag k="ssr:stedsnr" v="275150" />
	</node>
<<<<<<< HEAD
	<node lat="60.82950555268853" lon="8.494872227414634" id="-16186">
		<tag k="name" v="Dyrjebakknøse" />
		<tag k="natural" v="ridge" />
=======
	<node id="-274766" lat="60.98683333" lon="8.28406944762">
		<tag k="fixme" v="consider natural=peak for the most distinct mountains in the district" />
		<tag k="name" v="Søtelifjellet" />
		<tag k="natural" v="hill" />
>>>>>>> e1d4bc35ff8a6074a6f2e91616a996b547c36f15
		<tag k="place" v="locality" />
		<tag k="ssr:stedsnr" v="275601" />
	</node>
<<<<<<< HEAD
	<node lat="60.862277893434246" lon="8.593437387830523" id="-16189">
		<tag k="name" v="Stakkestø" />
		<tag k="place" v="locality" />
		<tag k="ssr:stedsnr" v="275928" />
	</node>
	<node lat="60.83339757913709" lon="8.562610272822118" id="-16191">
		<tag k="name" v="Bekkeluo" />
=======
	<node id="-274765" lat="60.9074527793" lon="8.27292221569">
		<tag k="name" v="Ershovdleinene" />
>>>>>>> e1d4bc35ff8a6074a6f2e91616a996b547c36f15
		<tag k="natural" v="slope" />
		<tag k="old_name" v="Bakkeluo" />
		<tag k="place" v="locality" />
		<tag k="ssr:stedsnr" v="275975" />
	</node>
<<<<<<< HEAD
	<node lat="61.03326111299352" lon="8.282616673936547" id="-16197">
		<tag k="fixme" v="consider natural=peak for the most distinct mountains in the district" />
		<tag k="name" v="Kljåbandet" />
		<tag k="natural" v="hill" />
		<tag k="place" v="locality" />
		<tag k="ssr:stedsnr" v="310656" />
	</node>
	<node lat="60.9366861113757" lon="8.555155552366326" id="-16200">
		<tag k="name" v="Øvre Skardet" />
=======
	<node id="-274763" lat="60.7935999993" lon="8.69202221453">
		<tag k="name" v="Hemsedal" />
>>>>>>> e1d4bc35ff8a6074a6f2e91616a996b547c36f15
		<tag k="natural" v="valley" />
		<tag k="place" v="locality" />
		<tag k="ssr:stedsnr" v="312846" />
	</node>
<<<<<<< HEAD
	<node lat="60.965830555195744" lon="8.253108327603675" id="-16202">
		<tag k="name" v="Skrengjabotn" />
=======
	<node id="-274761" lat="61.0079361122" lon="8.40489999313">
		<tag k="name" v="Øvre Storebotnen" />
>>>>>>> e1d4bc35ff8a6074a6f2e91616a996b547c36f15
		<tag k="natural" v="valley" />
		<tag k="place" v="locality" />
		<tag k="ssr:stedsnr" v="311550" />
	</node>
<<<<<<< HEAD
	<node lat="60.96893055283388" lon="8.318119440913883" id="-16203">
		<tag k="fixme" v="consider natural=peak for the most distinct mountains in the district" />
		<tag k="name" v="Svarthetta" />
=======
	<node id="-274755" lat="60.8458722233" lon="8.63463887981">
		<tag k="name" v="Leirhaugen" />
>>>>>>> e1d4bc35ff8a6074a6f2e91616a996b547c36f15
		<tag k="natural" v="hill" />
		<tag k="place" v="locality" />
		<tag k="ssr:stedsnr" v="311553" />
	</node>
<<<<<<< HEAD
	<node lat="60.947730551427895" lon="8.303466673456748" id="-16208">
		<tag k="name" v="Bulidalen" />
		<tag k="natural" v="valley" />
=======
	<node id="-274754" lat="60.8480638849" lon="8.47140833815">
		<tag k="name" v="Strupen" />
>>>>>>> e1d4bc35ff8a6074a6f2e91616a996b547c36f15
		<tag k="place" v="locality" />
		<tag k="ssr:stedsnr" v="312539" />
	</node>
<<<<<<< HEAD
	<node lat="60.848680552127504" lon="8.635747224101916" id="-16219">
		<tag k="name" v="Øvrekvelv" />
=======
	<node id="-274753" lat="60.8638137914" lon="8.68005990463">
		<tag k="name" v="Storeklanten" />
>>>>>>> e1d4bc35ff8a6074a6f2e91616a996b547c36f15
		<tag k="natural" v="slope" />
		<tag k="place" v="locality" />
		<tag k="ssr:stedsnr" v="335666" />
	</node>
<<<<<<< HEAD
	<node lat="60.92808055415587" lon="8.17419166633211" id="-16222">
		<tag k="name" v="Bjøbergdalen" />
		<tag k="natural" v="valley" />
=======
	<node id="-274751" lat="60.9047972207" lon="8.41658888399">
		<tag k="name" v="Hamaren" />
		<tag k="natural" v="hill" />
>>>>>>> e1d4bc35ff8a6074a6f2e91616a996b547c36f15
		<tag k="place" v="locality" />
		<tag k="ssr:stedsnr" v="335329" />
	</node>
<<<<<<< HEAD
	<node lat="60.854209571469504" lon="8.639080645588297" id="-16226">
		<tag k="alt_name" v="Ulsåkskaret" />
		<tag k="name" v="Ullsåkskardet" />
		<tag k="natural" v="valley" />
		<tag k="place" v="locality" />
		<tag k="ssr:stedsnr" v="335770" />
	</node>
	<node lat="60.900694448722106" lon="8.415847229655677" id="-16229">
		<tag k="name" v="Resaklanten" />
=======
	<node id="-274746" lat="60.8870027815" lon="8.84899722241">
		<tag k="alt_name" v="Hovedstølnatten" />
		<tag k="name" v="Hovdestølnatten" />
>>>>>>> e1d4bc35ff8a6074a6f2e91616a996b547c36f15
		<tag k="natural" v="hill" />
		<tag k="place" v="locality" />
		<tag k="ssr:stedsnr" v="335642" />
	</node>
<<<<<<< HEAD
	<node lat="60.87999166762904" lon="8.415533340481836" id="-16231">
		<tag k="name" v="Krægderudhovda" />
=======
	<node id="-274745" lat="60.8472861133" lon="8.78654721386">
		<tag k="name" v="Nygjerdhovda" />
>>>>>>> e1d4bc35ff8a6074a6f2e91616a996b547c36f15
		<tag k="natural" v="hill" />
		<tag k="place" v="locality" />
		<tag k="ssr:stedsnr" v="335820" />
	</node>
<<<<<<< HEAD
	<node lat="60.87621388511443" lon="8.441508329241683" id="-16232">
=======
	<node id="-274743" lat="60.9055944425" lon="8.18353610494">
		<tag k="alt_name" v="Hestebottfjell" />
>>>>>>> e1d4bc35ff8a6074a6f2e91616a996b547c36f15
		<tag k="fixme" v="consider natural=peak for the most distinct mountains in the district" />
		<tag k="name" v="Venåshovda" />
		<tag k="natural" v="hill" />
		<tag k="place" v="locality" />
		<tag k="ssr:stedsnr" v="335830" />
	</node>
<<<<<<< HEAD
	<node lat="60.800533325541416" lon="8.715305202011114" id="-16235">
		<tag k="name" v="Rensla" />
=======
	<node id="-274741" lat="60.8690999985" lon="8.34854167117">
		<tag k="name" v="Nystøllie" />
>>>>>>> e1d4bc35ff8a6074a6f2e91616a996b547c36f15
		<tag k="natural" v="slope" />
		<tag k="place" v="locality" />
		<tag k="ssr:stedsnr" v="336310" />
	</node>
<<<<<<< HEAD
	<node lat="60.97074444851573" lon="8.350677783887605" id="-16250">
		<tag k="name" v="Fuglehaugen" />
=======
	<node id="-274739" lat="60.8945583331" lon="8.30028611954">
		<tag k="fixme" v="consider natural=peak for the most distinct mountains in the district" />
		<tag k="name" v="Hovda" />
>>>>>>> e1d4bc35ff8a6074a6f2e91616a996b547c36f15
		<tag k="natural" v="hill" />
		<tag k="place" v="locality" />
		<tag k="ssr:stedsnr" v="372530" />
	</node>
<<<<<<< HEAD
	<node lat="60.964186109036625" lon="8.24472499444519" id="-16251">
=======
	<node id="-274738" lat="60.9901527809" lon="8.39513889646">
>>>>>>> e1d4bc35ff8a6074a6f2e91616a996b547c36f15
		<tag k="fixme" v="consider natural=peak for the most distinct mountains in the district" />
		<tag k="name" v="Grønebakkfjellet" />
		<tag k="natural" v="hill" />
		<tag k="place" v="locality" />
		<tag k="ssr:stedsnr" v="372535" />
	</node>
<<<<<<< HEAD
	<node lat="60.969030553029945" lon="8.276677772405728" id="-16252">
		<tag k="name" v="Bubotn" />
		<tag k="natural" v="valley" />
		<tag k="place" v="locality" />
		<tag k="ssr:stedsnr" v="372536" />
	</node>
	<node lat="60.94320833581204" lon="8.411252770950963" id="-16253">
		<tag k="name" v="Øygardsberget" />
=======
	<node id="-274737" lat="60.8250652285" lon="8.57657969804">
		<tag k="name" v="Skyrvedalen" />
		<tag k="natural" v="valley" />
		<tag k="place" v="locality" />
		<tag k="ssr:stedsnr" v="700950" />
	</node>
	<node id="-274736" lat="60.8340885217" lon="8.61105918436">
		<tag k="name" v="Krokløppe" />
		<tag k="place" v="locality" />
		<tag k="ssr:stedsnr" v="700947" />
	</node>
	<node id="-274734" lat="60.8300638895" lon="8.50386388266">
		<tag k="name" v="Dyrjebakkane" />
		<tag k="natural" v="slope" />
		<tag k="place" v="locality" />
		<tag k="ssr:stedsnr" v="700898" />
	</node>
	<node id="-274729" lat="60.8860416685" lon="8.8951527757">
		<tag k="name" v="Greinehaugen" />
>>>>>>> e1d4bc35ff8a6074a6f2e91616a996b547c36f15
		<tag k="natural" v="hill" />
		<tag k="place" v="locality" />
		<tag k="ssr:stedsnr" v="372541" />
	</node>
<<<<<<< HEAD
	<node lat="60.89377222016453" lon="8.35640555701785" id="-16255">
=======
	<node id="-274727" lat="60.8752805547" lon="8.53059166293">
>>>>>>> e1d4bc35ff8a6074a6f2e91616a996b547c36f15
		<tag k="fixme" v="consider natural=peak for the most distinct mountains in the district" />
		<tag k="name" v="Galdenøse" />
		<tag k="natural" v="hill" />
		<tag k="place" v="locality" />
		<tag k="ssr:stedsnr" v="372577" />
	</node>
<<<<<<< HEAD
	<node lat="60.93599999683131" lon="8.603149997783374" id="-16257">
		<tag k="name" v="Guteskardet" />
=======
	<node id="-274725" lat="60.8680877532" lon="8.58662026374">
		<tag k="name" v="Nygardsslette" />
>>>>>>> e1d4bc35ff8a6074a6f2e91616a996b547c36f15
		<tag k="natural" v="valley" />
		<tag k="place" v="locality" />
		<tag k="ssr:stedsnr" v="372885" />
	</node>
<<<<<<< HEAD
	<node lat="60.929512356279645" lon="8.615877513286597" id="-16263">
		<tag k="fixme" v="multiple name tags, choose one and add the other to alt_name; consider natural=peak for the most distinct mountains in the district" />
		<tag k="name" v="Trøymsfjellet;Veslebotnskarvet" />
=======
	<node id="-274724" lat="60.8791777804" lon="8.49895832501">
		<tag k="name" v="Hustadberget" />
>>>>>>> e1d4bc35ff8a6074a6f2e91616a996b547c36f15
		<tag k="natural" v="hill" />
		<tag k="place" v="locality" />
		<tag k="ssr:stedsnr" v="494858" />
	</node>
<<<<<<< HEAD
	<node lat="60.87128718775102" lon="8.512053044906928" id="-16265">
		<tag k="name" v="Maurhaugen" />
=======
	<node id="-274717" lat="60.8595583363" lon="8.41080555971">
		<tag k="name" v="Hamaren" />
>>>>>>> e1d4bc35ff8a6074a6f2e91616a996b547c36f15
		<tag k="natural" v="hill" />
		<tag k="place" v="locality" />
		<tag k="ssr:stedsnr" v="396140" />
	</node>
<<<<<<< HEAD
	<node lat="60.84391666990347" lon="8.385138893966822" id="-16268">
		<tag k="name" v="Hauganøse" />
		<tag k="natural" v="ridge" />
		<tag k="place" v="locality" />
		<tag k="ssr:stedsnr" v="396353" />
	</node>
	<node lat="60.85078888944822" lon="8.76723889402255" id="-16272">
		<tag k="name" v="Storehovda" />
=======
	<node id="-274714" lat="60.8539230036" lon="8.55043369636">
		<tag k="name" v="Øygardshaugen" />
>>>>>>> e1d4bc35ff8a6074a6f2e91616a996b547c36f15
		<tag k="natural" v="hill" />
		<tag k="place" v="locality" />
		<tag k="ssr:stedsnr" v="396550" />
	</node>
<<<<<<< HEAD
	<node lat="60.8465694477403" lon="8.68517222186163" id="-16278">
		<tag k="name" v="Storhovda" />
=======
	<node id="-274710" lat="60.9295123563" lon="8.61587751329">
		<tag k="fixme" v="multiple name tags, choose one and add the other to alt_name; consider natural=peak for the most distinct mountains in the district" />
		<tag k="name" v="Trøymsfjellet;Veslebotnskarvet" />
>>>>>>> e1d4bc35ff8a6074a6f2e91616a996b547c36f15
		<tag k="natural" v="hill" />
		<tag k="place" v="locality" />
		<tag k="ssr:stedsnr" v="396661" />
	</node>
<<<<<<< HEAD
	<node lat="60.880450003352614" lon="8.407802774456329" id="-16279">
		<tag k="name" v="Hovda" />
=======
	<node id="-274706" lat="60.8541555559" lon="8.39983055369">
		<tag k="fixme" v="consider natural=peak for the most distinct mountains in the district" />
		<tag k="name" v="Hauganøse" />
>>>>>>> e1d4bc35ff8a6074a6f2e91616a996b547c36f15
		<tag k="natural" v="hill" />
		<tag k="place" v="locality" />
		<tag k="ssr:stedsnr" v="396767" />
	</node>
<<<<<<< HEAD
	<node lat="60.82920832962521" lon="8.771488881495316" id="-16283">
		<tag k="name" v="Venebakk" />
		<tag k="natural" v="slope" />
=======
	<node id="-274702" lat="60.923152775" lon="8.58528054928">
		<tag k="name" v="Austrebotn" />
		<tag k="natural" v="valley" />
>>>>>>> e1d4bc35ff8a6074a6f2e91616a996b547c36f15
		<tag k="place" v="locality" />
		<tag k="ssr:stedsnr" v="397521" />
	</node>
<<<<<<< HEAD
	<node lat="61.04811944887353" lon="8.292619436845321" id="-16286">
		<tag k="name" v="Kljådalen" />
		<tag k="natural" v="valley" />
=======
	<node id="-274700" lat="60.8973499975" lon="8.64951111579">
		<tag k="fixme" v="consider natural=peak for the most distinct mountains in the district" />
		<tag k="name" v="Grunnane" />
		<tag k="natural" v="hill" />
>>>>>>> e1d4bc35ff8a6074a6f2e91616a996b547c36f15
		<tag k="place" v="locality" />
		<tag k="ssr:stedsnr" v="431680" />
	</node>
<<<<<<< HEAD
	<node lat="61.08218055913052" lon="8.276986104461367" id="-16287">
=======
	<node id="-274696" lat="60.9568444428" lon="8.34251111058">
>>>>>>> e1d4bc35ff8a6074a6f2e91616a996b547c36f15
		<tag k="fixme" v="consider natural=peak for the most distinct mountains in the district" />
		<tag k="name" v="Kyrkjenøse" />
		<tag k="natural" v="hill" />
		<tag k="place" v="locality" />
		<tag k="ssr:stedsnr" v="432438" />
	</node>
<<<<<<< HEAD
	<node lat="60.871055559833515" lon="8.781400007081475" id="-16288">
		<tag k="alt_name" v="Ranin" />
		<tag k="name" v="Ranen" />
=======
	<node id="-274691" lat="60.7996611122" lon="8.61408889004">
		<tag k="fixme" v="consider natural=peak for the most distinct mountains in the district" />
		<tag k="name" v="Slettefjell" />
>>>>>>> e1d4bc35ff8a6074a6f2e91616a996b547c36f15
		<tag k="natural" v="hill" />
		<tag k="place" v="locality" />
		<tag k="ssr:stedsnr" v="433143" />
	</node>
<<<<<<< HEAD
	<node lat="60.84787777757572" lon="8.665152778741236" id="-16290">
		<tag k="name" v="Lusestølhovda" />
=======
	<node id="-274688" lat="60.9055694484" lon="8.33222221573">
		<tag k="fixme" v="consider natural=peak for the most distinct mountains in the district" />
		<tag k="name" v="Steinbunøse" />
>>>>>>> e1d4bc35ff8a6074a6f2e91616a996b547c36f15
		<tag k="natural" v="hill" />
		<tag k="place" v="locality" />
		<tag k="ssr:stedsnr" v="433162" />
	</node>
<<<<<<< HEAD
	<node lat="60.8387444429216" lon="8.49163055572748" id="-16296">
		<tag k="name" v="Breiddalen" />
		<tag k="natural" v="valley" />
=======
	<node id="-274687" lat="60.9068250035" lon="8.39255554859">
		<tag k="name" v="Tuftene" />
		<tag k="natural" v="slope" />
>>>>>>> e1d4bc35ff8a6074a6f2e91616a996b547c36f15
		<tag k="place" v="locality" />
		<tag k="ssr:stedsnr" v="433170" />
	</node>
<<<<<<< HEAD
	<node lat="60.94400833370677" lon="8.133088891362213" id="-16298">
		<tag k="fixme" v="consider natural=peak for the most distinct mountains in the district" />
		<tag k="name" v="Hyttenøse" />
=======
	<node id="-274681" lat="60.8470777749" lon="8.47652499599">
		<tag k="name" v="Kjelhovda" />
>>>>>>> e1d4bc35ff8a6074a6f2e91616a996b547c36f15
		<tag k="natural" v="hill" />
		<tag k="place" v="locality" />
		<tag k="ssr:stedsnr" v="433493" />
	</node>
<<<<<<< HEAD
	<node lat="60.89028889114749" lon="8.255574996136422" id="-16304">
		<tag k="alt_name" v="Myrkedalen" />
		<tag k="name" v="Mørkedalen" />
		<tag k="natural" v="valley" />
=======
	<node id="-274670" lat="60.869072222" lon="8.73638611604">
		<tag k="name" v="Liasethovda" />
		<tag k="natural" v="hill" />
>>>>>>> e1d4bc35ff8a6074a6f2e91616a996b547c36f15
		<tag k="place" v="locality" />
		<tag k="ssr:stedsnr" v="433595" />
	</node>
<<<<<<< HEAD
	<node lat="60.894602781798035" lon="8.183158328366149" id="-16305">
		<tag k="name" v="Råskardbotn" />
		<tag k="natural" v="valley" />
=======
	<node id="-274664" lat="60.885691667" lon="8.86085555616">
		<tag k="name" v="Engebretgardlie" />
		<tag k="natural" v="slope" />
>>>>>>> e1d4bc35ff8a6074a6f2e91616a996b547c36f15
		<tag k="place" v="locality" />
		<tag k="ssr:stedsnr" v="433598" />
	</node>
<<<<<<< HEAD
	<node lat="60.91739444593013" lon="8.389694448328731" id="-16306">
=======
	<node id="-274663" lat="60.9006277811" lon="8.53639999495">
>>>>>>> e1d4bc35ff8a6074a6f2e91616a996b547c36f15
		<tag k="fixme" v="consider natural=peak for the most distinct mountains in the district" />
		<tag k="name" v="Tuftenosene" />
		<tag k="natural" v="hill" />
		<tag k="place" v="locality" />
		<tag k="ssr:stedsnr" v="433602" />
	</node>
<<<<<<< HEAD
	<node lat="60.9975249964405" lon="8.566377782425121" id="-16308">
=======
	<node id="-274662" lat="60.9060250019" lon="8.47563056353">
>>>>>>> e1d4bc35ff8a6074a6f2e91616a996b547c36f15
		<tag k="fixme" v="consider natural=peak for the most distinct mountains in the district" />
		<tag k="name" v="Ranastongnøse" />
		<tag k="natural" v="hill" />
		<tag k="place" v="locality" />
<<<<<<< HEAD
		<tag k="ssr:stedsnr" v="433800" />
	</node>
	<node lat="60.93848611159562" lon="8.644408342173381" id="-16309">
		<tag k="fixme" v="consider natural=peak for the most distinct mountains in the district" />
		<tag k="name" v="Lægernøse" />
		<tag k="natural" v="hill" />
		<tag k="place" v="locality" />
		<tag k="ssr:stedsnr" v="433875" />
	</node>
	<node lat="60.82818333170945" lon="8.453536111335882" id="-16310">
=======
		<tag k="ssr:stedsnr" v="434809" />
	</node>
	<node id="-274660" lat="60.7935681806" lon="8.73466817977">
		<tag k="name" v="Kommuneskogen" />
		<tag k="natural" v="wood" />
		<tag k="ssr:stedsnr" v="518301" />
	</node>
	<node id="-274652" lat="60.8537472199" lon="8.37118332456">
		<tag k="name" v="Hestebotn" />
		<tag k="natural" v="valley" />
		<tag k="place" v="locality" />
		<tag k="ssr:stedsnr" v="433913" />
	</node>
	<node id="-274650" lat="60.9727555553" lon="8.13835000723">
>>>>>>> e1d4bc35ff8a6074a6f2e91616a996b547c36f15
		<tag k="fixme" v="consider natural=peak for the most distinct mountains in the district" />
		<tag k="name" v="Buaklanten" />
		<tag k="natural" v="hill" />
		<tag k="place" v="locality" />
		<tag k="ssr:stedsnr" v="433896" />
	</node>
<<<<<<< HEAD
	<node lat="60.89433055316075" lon="8.864169447126562" id="-16312">
		<tag k="name" v="Baklie" />
		<tag k="natural" v="slope" />
=======
	<node id="-274648" lat="60.9173944459" lon="8.38969444833">
		<tag k="fixme" v="consider natural=peak for the most distinct mountains in the district" />
		<tag k="name" v="Tuftenosene" />
		<tag k="natural" v="hill" />
>>>>>>> e1d4bc35ff8a6074a6f2e91616a996b547c36f15
		<tag k="place" v="locality" />
		<tag k="ssr:stedsnr" v="434384" />
	</node>
<<<<<<< HEAD
	<node lat="60.89207221936744" lon="8.256216661894241" id="-16320">
		<tag k="name" v="Sandskriu" />
		<tag k="natural" v="valley" />
=======
	<node id="-274647" lat="60.8009777745" lon="8.71244721609">
		<tag k="alt_name" v="Raudberg" />
		<tag k="name" v="Raudberget" />
		<tag k="natural" v="hill" />
>>>>>>> e1d4bc35ff8a6074a6f2e91616a996b547c36f15
		<tag k="place" v="locality" />
		<tag k="ssr:stedsnr" v="517247" />
	</node>
<<<<<<< HEAD
	<node lat="60.85955833625907" lon="8.410805559713442" id="-16323">
		<tag k="name" v="Hamaren" />
=======
	<node id="-274640" lat="60.8273638884" lon="8.60563611083">
		<tag k="name" v="Fuglehovda" />
>>>>>>> e1d4bc35ff8a6074a6f2e91616a996b547c36f15
		<tag k="natural" v="hill" />
		<tag k="place" v="locality" />
		<tag k="ssr:stedsnr" v="517736" />
	</node>
<<<<<<< HEAD
	<node lat="60.855475001866665" lon="8.625163891865732" id="-16324">
		<tag k="name" v="Djuphagen" />
		<tag k="place" v="locality" />
		<tag k="ssr:stedsnr" v="517630" />
	</node>
	<node lat="60.8653722185637" lon="8.663924991302139" id="-16325">
		<tag k="fixme" v="consider natural=peak for the most distinct mountains in the district" />
		<tag k="name" v="Engevollen" />
=======
	<node id="-274639" lat="60.8232867877" lon="8.56772794273">
		<tag k="name" v="Ølmennatten" />
>>>>>>> e1d4bc35ff8a6074a6f2e91616a996b547c36f15
		<tag k="natural" v="hill" />
		<tag k="place" v="locality" />
		<tag k="ssr:stedsnr" v="517641" />
	</node>
<<<<<<< HEAD
	<node lat="60.82328678772248" lon="8.56772794272656" id="-16327">
		<tag k="name" v="Ølmennatten" />
=======
	<node id="-274637" lat="60.8710555598" lon="8.78140000708">
		<tag k="alt_name" v="Ranin" />
		<tag k="name" v="Ranen" />
>>>>>>> e1d4bc35ff8a6074a6f2e91616a996b547c36f15
		<tag k="natural" v="hill" />
		<tag k="place" v="locality" />
		<tag k="ssr:stedsnr" v="517952" />
	</node>
<<<<<<< HEAD
	<node lat="60.82874167045" lon="8.525330555438105" id="-16328">
=======
	<node id="-274635" lat="60.8287416705" lon="8.52533055544">
>>>>>>> e1d4bc35ff8a6074a6f2e91616a996b547c36f15
		<tag k="name" v="Tuftitn" />
		<tag k="natural" v="hill" />
		<tag k="place" v="locality" />
		<tag k="ssr:stedsnr" v="517905" />
	</node>
<<<<<<< HEAD
	<node lat="60.793568180611075" lon="8.73466817976944" id="-16334">
		<tag k="name" v="Kommuneskogen" />
		<tag k="natural" v="wood" />
		<tag k="ssr:stedsnr" v="518301" />
	</node>
	<node lat="60.869099998471945" lon="8.348541671174317" id="-16350">
		<tag k="name" v="Nystøllie" />
		<tag k="natural" v="slope" />
=======
	<node id="-274633" lat="60.879441669" lon="8.4244444429">
		<tag k="name" v="Småhovda" />
		<tag k="natural" v="hill" />
>>>>>>> e1d4bc35ff8a6074a6f2e91616a996b547c36f15
		<tag k="place" v="locality" />
		<tag k="ssr:stedsnr" v="554619" />
	</node>
<<<<<<< HEAD
	<node lat="60.856036113531914" lon="8.354313895735949" id="-16351">
=======
	<node id="-274629" lat="60.8653722186" lon="8.6639249913">
>>>>>>> e1d4bc35ff8a6074a6f2e91616a996b547c36f15
		<tag k="fixme" v="consider natural=peak for the most distinct mountains in the district" />
		<tag k="name" v="Hestebottfjellet" />
		<tag k="natural" v="hill" />
		<tag k="place" v="locality" />
		<tag k="ssr:stedsnr" v="554815" />
	</node>
<<<<<<< HEAD
	<node lat="60.958236107917884" lon="8.234119450116953" id="-16352">
		<tag k="name" v="Rundebotn" />
		<tag k="natural" v="valley" />
=======
	<node id="-274628" lat="60.8554750019" lon="8.62516389187">
		<tag k="name" v="Djuphagen" />
>>>>>>> e1d4bc35ff8a6074a6f2e91616a996b547c36f15
		<tag k="place" v="locality" />
		<tag k="ssr:stedsnr" v="554549" />
	</node>
<<<<<<< HEAD
	<node lat="60.97002777687048" lon="8.39330554893797" id="-16353">
		<tag k="name" v="Klanteskardet" />
		<tag k="natural" v="valley" />
=======
	<node id="-274625" lat="60.9570571745" lon="8.36178714458">
		<tag k="name" v="Tubbehaugen" />
		<tag k="natural" v="hill" />
>>>>>>> e1d4bc35ff8a6074a6f2e91616a996b547c36f15
		<tag k="place" v="locality" />
		<tag k="ssr:stedsnr" v="554552" />
	</node>
<<<<<<< HEAD
	<node lat="60.91921111242916" lon="8.398291664637625" id="-16356">
		<tag k="name" v="Surreberget" />
=======
	<node id="-274623" lat="60.9364611125" lon="8.38273056202">
		<tag k="name" v="Ventehovda" />
>>>>>>> e1d4bc35ff8a6074a6f2e91616a996b547c36f15
		<tag k="natural" v="hill" />
		<tag k="place" v="locality" />
		<tag k="ssr:stedsnr" v="554632" />
	</node>
<<<<<<< HEAD
	<node lat="60.90559444247637" lon="8.183536104938506" id="-16358">
		<tag k="alt_name" v="Hestebottfjell" />
		<tag k="fixme" v="consider natural=peak for the most distinct mountains in the district" />
		<tag k="name" v="Hestebottfjellet" />
		<tag k="natural" v="hill" />
=======
	<node id="-274622" lat="60.8920722194" lon="8.25621666189">
		<tag k="name" v="Sandskriu" />
		<tag k="natural" v="valley" />
>>>>>>> e1d4bc35ff8a6074a6f2e91616a996b547c36f15
		<tag k="place" v="locality" />
		<tag k="ssr:stedsnr" v="554667" />
	</node>
<<<<<<< HEAD
	<node lat="60.887002781487" lon="8.848997222406993" id="-16362">
		<tag k="alt_name" v="Hovedstølnatten" />
		<tag k="name" v="Hovdestølnatten" />
=======
	<node id="-274620" lat="60.8715694356" lon="8.51732641672">
		<tag k="name" v="Kolten" />
>>>>>>> e1d4bc35ff8a6074a6f2e91616a996b547c36f15
		<tag k="natural" v="hill" />
		<tag k="place" v="locality" />
		<tag k="ssr:stedsnr" v="555363" />
	</node>
<<<<<<< HEAD
	<node lat="60.77475277501591" lon="8.626441674136942" id="-16367">
		<tag k="name" v="Gjuvedalen" />
		<tag k="natural" v="valley" />
=======
	<node id="-274617" lat="60.8686333348" lon="8.69459722071">
		<tag k="name" v="Knipenberg" />
		<tag k="natural" v="hill" />
>>>>>>> e1d4bc35ff8a6074a6f2e91616a996b547c36f15
		<tag k="place" v="locality" />
		<tag k="ssr:stedsnr" v="578257" />
	</node>
<<<<<<< HEAD
	<node lat="60.92839722471775" lon="8.431766673266454" id="-16371">
		<tag k="name" v="Grosetklanten" />
=======
	<node id="-274610" lat="60.9169749998" lon="8.46346944623">
		<tag k="name" v="Skardsberget" />
>>>>>>> e1d4bc35ff8a6074a6f2e91616a996b547c36f15
		<tag k="natural" v="hill" />
		<tag k="place" v="locality" />
		<tag k="ssr:stedsnr" v="578501" />
	</node>
<<<<<<< HEAD
	<node lat="60.904797220675626" lon="8.416588883986272" id="-16375">
		<tag k="name" v="Hamaren" />
=======
	<node id="-274605" lat="60.8237722226" lon="8.58184722041">
		<tag k="alt_name" v="Bjødnahovda" />
		<tag k="name" v="Bjørnahovda" />
>>>>>>> e1d4bc35ff8a6074a6f2e91616a996b547c36f15
		<tag k="natural" v="hill" />
		<tag k="place" v="locality" />
		<tag k="ssr:stedsnr" v="578620" />
	</node>
<<<<<<< HEAD
	<node lat="60.843686109848946" lon="8.646852782727368" id="-16376">
		<tag k="name" v="Bakkene" />
		<tag k="natural" v="slope" />
=======
	<node id="-274598" lat="60.911550002" lon="8.66893611816">
		<tag k="fixme" v="consider natural=peak for the most distinct mountains in the district" />
		<tag k="name" v="Kvannegrønøse" />
		<tag k="natural" v="hill" />
>>>>>>> e1d4bc35ff8a6074a6f2e91616a996b547c36f15
		<tag k="place" v="locality" />
		<tag k="ssr:stedsnr" v="578478" />
	</node>
<<<<<<< HEAD
	<node lat="60.83359444518179" lon="8.625277778545726" id="-16377">
		<tag k="name" v="Brendehaugane" />
=======
	<node id="-274593" lat="60.9475750023" lon="8.62581111339">
		<tag k="name" v="Veslenøse" />
>>>>>>> e1d4bc35ff8a6074a6f2e91616a996b547c36f15
		<tag k="natural" v="hill" />
		<tag k="place" v="locality" />
		<tag k="ssr:stedsnr" v="578488" />
	</node>
<<<<<<< HEAD
	<node lat="60.888697226702384" lon="8.86808333055059" id="-16381">
		<tag k="name" v="Nødde" />
=======
	<node id="-274589" lat="60.9092249987" lon="8.25896389812">
		<tag k="fixme" v="consider natural=peak for the most distinct mountains in the district" />
		<tag k="name" v="Bakkestølnøse" />
		<tag k="natural" v="hill" />
>>>>>>> e1d4bc35ff8a6074a6f2e91616a996b547c36f15
		<tag k="place" v="locality" />
		<tag k="ssr:stedsnr" v="579414" />
	</node>
<<<<<<< HEAD
	<node lat="60.87845555751719" lon="8.874897216368899" id="-16383">
		<tag k="name" v="Mørken" />
=======
	<node id="-274587" lat="60.9365361142" lon="8.15987500319">
		<tag k="fixme" v="consider natural=peak for the most distinct mountains in the district" />
		<tag k="name" v="Bjøbergnuten" />
		<tag k="natural" v="hill" />
>>>>>>> e1d4bc35ff8a6074a6f2e91616a996b547c36f15
		<tag k="place" v="locality" />
		<tag k="ssr:stedsnr" v="579429" />
	</node>
<<<<<<< HEAD
	<node lat="60.89287500131584" lon="8.891944450538233" id="-16384">
		<tag k="name" v="Oddane" />
=======
	<node id="-274583" lat="60.7992083335" lon="8.47043054993">
		<tag k="name" v="Blomestølberget" />
		<tag k="natural" v="hill" />
>>>>>>> e1d4bc35ff8a6074a6f2e91616a996b547c36f15
		<tag k="place" v="locality" />
		<tag k="ssr:stedsnr" v="579435" />
	</node>
<<<<<<< HEAD
	<node lat="60.85613055907598" lon="8.652099995562939" id="-16388">
		<tag k="alt_name" v="Skalberget" />
		<tag k="name" v="Skardberget" />
=======
	<node id="-274568" lat="60.8716388901" lon="8.30330000451">
		<tag k="fixme" v="consider natural=peak for the most distinct mountains in the district" />
		<tag k="name" v="Flæfjellet" />
>>>>>>> e1d4bc35ff8a6074a6f2e91616a996b547c36f15
		<tag k="natural" v="hill" />
		<tag k="place" v="locality" />
		<tag k="ssr:stedsnr" v="614148" />
	</node>
<<<<<<< HEAD
	<node lat="61.0578750042108" lon="8.228900000289956" id="-16389">
		<tag k="name" v="Bjørnabotnen" />
=======
	<node id="-274565" lat="60.9857444463" lon="8.42384999954">
		<tag k="name" v="Nedre Storebotn" />
>>>>>>> e1d4bc35ff8a6074a6f2e91616a996b547c36f15
		<tag k="natural" v="valley" />
		<tag k="place" v="locality" />
		<tag k="ssr:stedsnr" v="613623" />
	</node>
<<<<<<< HEAD
	<node lat="61.02736111410741" lon="8.338433334488592" id="-16390">
		<tag k="name" v="Nevreskardet" />
=======
	<node id="-274564" lat="60.8316805542" lon="8.49079721951">
		<tag k="name" v="Hamarskardet" />
>>>>>>> e1d4bc35ff8a6074a6f2e91616a996b547c36f15
		<tag k="natural" v="valley" />
		<tag k="place" v="locality" />
		<tag k="ssr:stedsnr" v="613632" />
	</node>
<<<<<<< HEAD
	<node lat="61.00793611215225" lon="8.404899993133558" id="-16391">
		<tag k="name" v="Øvre Storebotnen" />
		<tag k="natural" v="valley" />
=======
	<node id="-274554" lat="60.8632805591" lon="8.6644583286">
		<tag k="name" v="Vipehaugane" />
		<tag k="natural" v="hill" />
>>>>>>> e1d4bc35ff8a6074a6f2e91616a996b547c36f15
		<tag k="place" v="locality" />
		<tag k="ssr:stedsnr" v="613715" />
	</node>
<<<<<<< HEAD
	<node lat="60.79359999927838" lon="8.692022214529013" id="-16392">
		<tag k="name" v="Hemsedal" />
		<tag k="natural" v="valley" />
		<tag k="place" v="locality" />
		<tag k="ssr:stedsnr" v="614011" />
	</node>
	<node lat="61.03936388615385" lon="8.33261111022741" id="-16394">
		<tag k="fixme" v="consider natural=peak for the most distinct mountains in the district" />
		<tag k="name" v="Buaknuppen" />
=======
	<node id="-274549" lat="60.9006944487" lon="8.41584722966">
		<tag k="name" v="Resaklanten" />
>>>>>>> e1d4bc35ff8a6074a6f2e91616a996b547c36f15
		<tag k="natural" v="hill" />
		<tag k="place" v="locality" />
		<tag k="ssr:stedsnr" v="613644" />
	</node>
<<<<<<< HEAD
	<node lat="60.90745277929604" lon="8.27292221568934" id="-16398">
		<tag k="name" v="Ershovdleinene" />
=======
	<node id="-274546" lat="60.8102361104" lon="8.72519999259">
		<tag k="name" v="Kalveslettbakken" />
>>>>>>> e1d4bc35ff8a6074a6f2e91616a996b547c36f15
		<tag k="natural" v="slope" />
		<tag k="place" v="locality" />
		<tag k="ssr:stedsnr" v="614634" />
	</node>
<<<<<<< HEAD
	<node lat="60.889366663981704" lon="8.449725004060944" id="-16401">
		<tag k="fixme" v="consider natural=peak for the most distinct mountains in the district" />
		<tag k="name" v="Hallenuten" />
=======
	<node id="-274544" lat="60.9006694409" lon="8.76429167512">
		<tag k="fixme" v="consider natural=peak for the most distinct mountains in the district" />
		<tag k="name" v="Kjølen" />
		<tag k="natural" v="hill" />
		<tag k="place" v="locality" />
		<tag k="ssr:stedsnr" v="312828" />
	</node>
	<node id="-274543" lat="60.8984833349" lon="8.78790277409">
		<tag k="name" v="Trommehaugane" />
>>>>>>> e1d4bc35ff8a6074a6f2e91616a996b547c36f15
		<tag k="natural" v="hill" />
		<tag k="place" v="locality" />
		<tag k="ssr:stedsnr" v="614585" />
	</node>
<<<<<<< HEAD
	<node lat="60.82565833510459" lon="8.479897230306987" id="-16404">
=======
	<node id="-274541" lat="60.8860000004" lon="8.5248944353">
>>>>>>> e1d4bc35ff8a6074a6f2e91616a996b547c36f15
		<tag k="fixme" v="consider natural=peak for the most distinct mountains in the district" />
		<tag k="name" v="Systerskardfjellet" />
		<tag k="natural" v="hill" />
		<tag k="place" v="locality" />
		<tag k="ssr:stedsnr" v="615186" />
	</node>
<<<<<<< HEAD
	<node lat="60.95251388840589" lon="8.156219451289683" id="-16409">
		<tag k="alt_name" v="Støngenuten" />
=======
	<node id="-274540" lat="60.8888249982" lon="8.6075027821">
>>>>>>> e1d4bc35ff8a6074a6f2e91616a996b547c36f15
		<tag k="fixme" v="consider natural=peak for the most distinct mountains in the district" />
		<tag k="name" v="Stongenuten" />
		<tag k="natural" v="hill" />
		<tag k="place" v="locality" />
		<tag k="ssr:stedsnr" v="615487" />
	</node>
<<<<<<< HEAD
	<node lat="60.97194166883313" lon="8.46779722335015" id="-16423">
		<tag k="name" v="Munnen" />
		<tag k="natural" v="valley" />
		<tag k="place" v="locality" />
		<tag k="ssr:stedsnr" v="638393" />
	</node>
	<node lat="60.92984166391748" lon="8.454691670079125" id="-16425">
		<tag k="name" v="Fjellstølklanten" />
		<tag k="natural" v="hill" />
		<tag k="place" v="locality" />
		<tag k="ssr:stedsnr" v="638520" />
	</node>
	<node lat="60.8680083317957" lon="8.422280551247688" id="-16434">
		<tag k="name" v="Måfåhaugen" />
=======
	<node id="-274539" lat="60.9468138881" lon="8.50674999305">
		<tag k="name" v="Federskardet" />
		<tag k="natural" v="valley" />
		<tag k="place" v="locality" />
		<tag k="ssr:stedsnr" v="312727" />
	</node>
	<node id="-274528" lat="60.8333975791" lon="8.56261027282">
		<tag k="name" v="Bekkeluo" />
		<tag k="natural" v="slope" />
		<tag k="old_name" v="Bakkeluo" />
		<tag k="place" v="locality" />
		<tag k="ssr:stedsnr" v="275975" />
	</node>
	<node id="-274524" lat="60.8562861099" lon="8.67002778441">
		<tag k="name" v="Brendeberget" />
		<tag k="natural" v="hill" />
		<tag k="place" v="locality" />
		<tag k="ssr:stedsnr" v="275703" />
	</node>
	<node id="-274521" lat="60.9644000019" lon="8.48468889654">
		<tag k="name" v="Hovda" />
		<tag k="natural" v="cliff" />
		<tag k="ssr:stedsnr" v="275407" />
	</node>
	<node id="-274518" lat="60.877377782" lon="8.56869443864">
		<tag k="name" v="Finntopphola" />
>>>>>>> e1d4bc35ff8a6074a6f2e91616a996b547c36f15
		<tag k="natural" v="hill" />
		<tag k="place" v="locality" />
		<tag k="ssr:stedsnr" v="638749" />
	</node>
<<<<<<< HEAD
	<node lat="60.87744166327977" lon="8.418608327426876" id="-16435">
		<tag k="name" v="Eikro" />
		<tag k="natural" v="slope" />
=======
	<node id="-274517" lat="60.8391805558" lon="8.74817776966">
		<tag k="name" v="Oddane" />
>>>>>>> e1d4bc35ff8a6074a6f2e91616a996b547c36f15
		<tag k="place" v="locality" />
		<tag k="ssr:stedsnr" v="638756" />
	</node>
<<<<<<< HEAD
	<node lat="60.832602808110224" lon="8.587755429861417" id="-16436">
		<tag k="name" v="Hovdeslette" />
=======
	<node id="-274515" lat="60.8832416645" lon="8.89733611077">
		<tag k="name" v="Kvissel" />
>>>>>>> e1d4bc35ff8a6074a6f2e91616a996b547c36f15
		<tag k="place" v="locality" />
		<tag k="ssr:stedsnr" v="638964" />
	</node>
<<<<<<< HEAD
	<node lat="60.84521304272404" lon="8.792425784806754" id="-16437">
		<tag k="name" v="Nystøllie" />
=======
	<node id="-274512" lat="60.8892222184" lon="8.86431667261">
		<tag k="name" v="Bleikefeten" />
>>>>>>> e1d4bc35ff8a6074a6f2e91616a996b547c36f15
		<tag k="natural" v="slope" />
		<tag k="place" v="locality" />
		<tag k="ssr:stedsnr" v="639158" />
	</node>
<<<<<<< HEAD
	<node lat="60.84215833256385" lon="8.376336115157494" id="-16446">
		<tag k="fixme" v="consider natural=peak for the most distinct mountains in the district" />
		<tag k="name" v="Nosi" />
=======
	<node id="-274511" lat="60.8533277763" lon="8.79171944761">
		<tag k="name" v="Store Svarhovda" />
>>>>>>> e1d4bc35ff8a6074a6f2e91616a996b547c36f15
		<tag k="natural" v="hill" />
		<tag k="place" v="locality" />
		<tag k="ssr:stedsnr" v="736902" />
	</node>
<<<<<<< HEAD
	<node lat="60.8690722219532" lon="8.736386116036957" id="-16448">
		<tag k="name" v="Liasethovda" />
		<tag k="natural" v="hill" />
=======
	<node id="-274508" lat="60.8646658554" lon="8.57134391729">
		<tag k="name" v="Kleivi" />
		<tag k="natural" v="valley" />
>>>>>>> e1d4bc35ff8a6074a6f2e91616a996b547c36f15
		<tag k="place" v="locality" />
		<tag k="ssr:stedsnr" v="736146" />
	</node>
<<<<<<< HEAD
	<node lat="60.957744444927116" lon="8.197458338221441" id="-16454">
		<tag k="fixme" v="consider natural=peak for the most distinct mountains in the district" />
		<tag k="name" v="Trongebottfjellet" />
		<tag k="natural" v="hill" />
=======
	<node id="-274505" lat="60.8543333334" lon="8.47834166637">
		<tag k="name" v="Roni" />
		<tag k="natural" v="valley" />
>>>>>>> e1d4bc35ff8a6074a6f2e91616a996b547c36f15
		<tag k="place" v="locality" />
		<tag k="ssr:stedsnr" v="736493" />
	</node>
<<<<<<< HEAD
	<node lat="60.8882222210967" lon="8.334616673707323" id="-16457">
		<tag k="fixme" v="consider natural=peak for the most distinct mountains in the district" />
		<tag k="name" v="Galden" />
=======
	<node id="-274503" lat="60.8549009984" lon="8.67298912039">
		<tag k="name" v="Teigeklanten" />
>>>>>>> e1d4bc35ff8a6074a6f2e91616a996b547c36f15
		<tag k="natural" v="hill" />
		<tag k="place" v="locality" />
		<tag k="ssr:stedsnr" v="736546" />
	</node>
<<<<<<< HEAD
	<node lat="60.93191944336367" lon="8.27500556363749" id="-16458">
		<tag k="fixme" v="consider natural=peak for the most distinct mountains in the district" />
		<tag k="name" v="Høgesyningen" />
		<tag k="natural" v="hill" />
=======
	<node id="-274502" lat="60.849027778" lon="8.67325555994">
		<tag k="name" v="Lågåsen" />
>>>>>>> e1d4bc35ff8a6074a6f2e91616a996b547c36f15
		<tag k="place" v="locality" />
		<tag k="ssr:stedsnr" v="737502" />
	</node>
<<<<<<< HEAD
	<node lat="60.92701944016604" lon="8.401008341761404" id="-16459">
		<tag k="name" v="Grøndalen" />
		<tag k="natural" v="valley" />
=======
	<node id="-274499" lat="60.8457764617" lon="8.64776371565">
		<tag k="name" v="Grøvsberg" />
>>>>>>> e1d4bc35ff8a6074a6f2e91616a996b547c36f15
		<tag k="place" v="locality" />
		<tag k="ssr:stedsnr" v="737592" />
	</node>
<<<<<<< HEAD
	<node lat="60.8148277814904" lon="8.465383332965045" id="-16463">
=======
	<node id="-274489" lat="60.9720749995" lon="8.26063056202">
>>>>>>> e1d4bc35ff8a6074a6f2e91616a996b547c36f15
		<tag k="fixme" v="consider natural=peak for the most distinct mountains in the district" />
		<tag k="name" v="Storebottnuten" />
		<tag k="natural" v="hill" />
		<tag k="place" v="locality" />
		<tag k="ssr:stedsnr" v="737900" />
	</node>
<<<<<<< HEAD
	<node lat="60.87002221867521" lon="8.68353055654776" id="-16465">
		<tag k="name" v="Kariberg" />
		<tag k="natural" v="hill" />
=======
	<node id="-274487" lat="60.9574888854" lon="8.37573333043">
		<tag k="name" v="Torsbulie" />
		<tag k="natural" v="slope" />
>>>>>>> e1d4bc35ff8a6074a6f2e91616a996b547c36f15
		<tag k="place" v="locality" />
		<tag k="ssr:stedsnr" v="760680" />
	</node>
<<<<<<< HEAD
	<node lat="60.857156323773275" lon="8.508340947481733" id="-16466">
		<tag k="name" v="Såhaug" />
		<tag k="natural" v="hill" />
=======
	<node id="-274484" lat="60.8761833357" lon="8.53359721606">
		<tag k="name" v="Vestlie" />
		<tag k="natural" v="slope" />
>>>>>>> e1d4bc35ff8a6074a6f2e91616a996b547c36f15
		<tag k="place" v="locality" />
		<tag k="ssr:stedsnr" v="760012" />
	</node>
<<<<<<< HEAD
	<node lat="61.00430277934697" lon="8.325344440176606" id="-16468">
		<tag k="name" v="Leinene" />
		<tag k="natural" v="slope" />
=======
	<node id="-274482" lat="60.8546379245" lon="8.54325070563">
		<tag k="name" v="Langedokk" />
		<tag k="natural" v="valley" />
>>>>>>> e1d4bc35ff8a6074a6f2e91616a996b547c36f15
		<tag k="place" v="locality" />
		<tag k="ssr:stedsnr" v="760268" />
	</node>
<<<<<<< HEAD
	<node lat="60.89603611038531" lon="8.79809722530449" id="-16469">
		<tag k="name" v="Trommehøgde" />
		<tag k="natural" v="hill" />
=======
	<node id="-274481" lat="60.8848329801" lon="8.57004296803">
		<tag k="name" v="Gjureslåtta" />
>>>>>>> e1d4bc35ff8a6074a6f2e91616a996b547c36f15
		<tag k="place" v="locality" />
		<tag k="ssr:stedsnr" v="760294" />
	</node>
<<<<<<< HEAD
	<node lat="60.86758888750162" lon="8.744008339295874" id="-16471">
		<tag k="name" v="Maurhaugane" />
		<tag k="natural" v="hill" />
=======
	<node id="-274480" lat="60.8721120768" lon="8.57700958174">
		<tag k="name" v="Øvre Rona" />
		<tag k="natural" v="valley" />
>>>>>>> e1d4bc35ff8a6074a6f2e91616a996b547c36f15
		<tag k="place" v="locality" />
		<tag k="ssr:stedsnr" v="760318" />
	</node>
<<<<<<< HEAD
	<node lat="60.910158337242436" lon="8.43658888228791" id="-16477">
		<tag k="name" v="Teigatræet" />
=======
	<node id="-274475" lat="60.8442222237" lon="8.74935832918">
		<tag k="name" v="Skarprisa" />
>>>>>>> e1d4bc35ff8a6074a6f2e91616a996b547c36f15
		<tag k="place" v="locality" />
		<tag k="ssr:stedsnr" v="760567" />
	</node>
<<<<<<< HEAD
	<node lat="60.83907284444459" lon="8.568323006364514" id="-16480">
		<tag k="name" v="Jøta" />
=======
	<node id="-274473" lat="60.8601333336" lon="8.70322222566">
		<tag k="name" v="Langehaugenåtnatten" />
		<tag k="natural" v="hill" />
>>>>>>> e1d4bc35ff8a6074a6f2e91616a996b547c36f15
		<tag k="place" v="locality" />
		<tag k="ssr:stedsnr" v="760972" />
	</node>
<<<<<<< HEAD
	<node lat="60.84232597061545" lon="8.601400372182182" id="-16490">
		<tag k="fixme" v="consider natural=peak for the most distinct mountains in the district" />
		<tag k="name" v="Torsetåsen" />
=======
	<node id="-274472" lat="60.8666305587" lon="8.68018611501">
		<tag k="name" v="Gjartrudhaugen" />
>>>>>>> e1d4bc35ff8a6074a6f2e91616a996b547c36f15
		<tag k="natural" v="hill" />
		<tag k="place" v="locality" />
		<tag k="ssr:stedsnr" v="797179" />
	</node>
<<<<<<< HEAD
	<node lat="60.913375001687385" lon="8.411844445872873" id="-16493">
=======
	<node id="-274465" lat="60.939483336" lon="8.49432777176">
>>>>>>> e1d4bc35ff8a6074a6f2e91616a996b547c36f15
		<tag k="fixme" v="consider natural=peak for the most distinct mountains in the district" />
		<tag k="name" v="Slettenøse" />
		<tag k="natural" v="hill" />
		<tag k="place" v="locality" />
		<tag k="ssr:stedsnr" v="797624" />
	</node>
<<<<<<< HEAD
	<node lat="60.88884444586272" lon="8.148336111977896" id="-16496">
		<tag k="name" v="Langebotn" />
		<tag k="natural" v="valley" />
=======
	<node id="-274463" lat="60.9159333311" lon="8.65150276957">
		<tag k="fixme" v="consider natural=peak for the most distinct mountains in the district" />
		<tag k="name" v="Nibbi" />
		<tag k="natural" v="hill" />
>>>>>>> e1d4bc35ff8a6074a6f2e91616a996b547c36f15
		<tag k="place" v="locality" />
		<tag k="ssr:stedsnr" v="797590" />
	</node>
<<<<<<< HEAD
	<node lat="60.88149783524126" lon="8.69483449814473" id="-16497">
=======
	<node id="-274462" lat="60.8694250018" lon="8.60206944041">
>>>>>>> e1d4bc35ff8a6074a6f2e91616a996b547c36f15
		<tag k="fixme" v="consider natural=peak for the most distinct mountains in the district" />
		<tag k="name" v="Skogshorn" />
		<tag k="natural" v="hill" />
		<tag k="place" v="locality" />
		<tag k="ssr:stedsnr" v="798764" />
	</node>
<<<<<<< HEAD
	<node lat="60.87975000014661" lon="8.537222224927426" id="-16498">
		<tag k="alt_name" v="Haugsbotnen" />
		<tag k="name" v="Haugsbotn" />
=======
	<node id="-274461" lat="60.9942249971" lon="8.53777500226">
		<tag k="name" v="Trongebytta" />
>>>>>>> e1d4bc35ff8a6074a6f2e91616a996b547c36f15
		<tag k="natural" v="valley" />
		<tag k="place" v="locality" />
		<tag k="ssr:stedsnr" v="798780" />
	</node>
<<<<<<< HEAD
	<node lat="60.851191667948704" lon="8.538580554831508" id="-16503">
		<tag k="name" v="Jøkulen" />
=======
	<node id="-274460" lat="60.9678083296" lon="8.3899499942">
		<tag k="fixme" v="consider natural=peak for the most distinct mountains in the district" />
		<tag k="name" v="Lågfjellet" />
>>>>>>> e1d4bc35ff8a6074a6f2e91616a996b547c36f15
		<tag k="natural" v="hill" />
		<tag k="place" v="locality" />
		<tag k="ssr:stedsnr" v="821094" />
	</node>
<<<<<<< HEAD
	<node lat="60.870988889882604" lon="8.522252786817871" id="-16507">
		<tag k="name" v="Kråkehaugen" />
		<tag k="natural" v="hill" />
=======
	<node id="-274455" lat="60.818461115" lon="8.72670277113">
		<tag k="name" v="Haugahallene" />
		<tag k="natural" v="slope" />
>>>>>>> e1d4bc35ff8a6074a6f2e91616a996b547c36f15
		<tag k="place" v="locality" />
		<tag k="ssr:stedsnr" v="821155" />
	</node>
<<<<<<< HEAD
	<node lat="60.87493333200045" lon="8.525730559385611" id="-16508">
		<tag k="fixme" v="consider natural=peak for the most distinct mountains in the district" />
		<tag k="name" v="Kvennaberg" />
=======
	<node id="-274454" lat="60.8144527778" lon="8.71017778169">
		<tag k="name" v="Nedre Rudningshaugen" />
>>>>>>> e1d4bc35ff8a6074a6f2e91616a996b547c36f15
		<tag k="natural" v="hill" />
		<tag k="place" v="locality" />
		<tag k="ssr:stedsnr" v="821157" />
	</node>
<<<<<<< HEAD
	<node lat="60.96983611447406" lon="8.373086113761184" id="-16513">
		<tag k="name" v="Bekkeklantane" />
		<tag k="natural" v="hill" />
=======
	<node id="-274453" lat="60.8622778934" lon="8.59343738783">
		<tag k="name" v="Stakkestø" />
>>>>>>> e1d4bc35ff8a6074a6f2e91616a996b547c36f15
		<tag k="place" v="locality" />
		<tag k="ssr:stedsnr" v="821300" />
	</node>
<<<<<<< HEAD
	<node lat="60.839252778458544" lon="8.428225006232276" id="-16514">
		<tag k="name" v="Skoghovda" />
		<tag k="natural" v="hill" />
=======
	<node id="-274446" lat="60.8295055527" lon="8.49487222741">
		<tag k="name" v="Dyrjebakknøse" />
		<tag k="natural" v="ridge" />
>>>>>>> e1d4bc35ff8a6074a6f2e91616a996b547c36f15
		<tag k="place" v="locality" />
		<tag k="ssr:stedsnr" v="821678" />
	</node>
<<<<<<< HEAD
	<node lat="60.868019443930024" lon="8.701108329830863" id="-16518">
		<tag k="name" v="Engehovda" />
=======
	<node id="-274444" lat="60.934377774" lon="8.40763054699">
		<tag k="name" v="Fuglehaugen" />
>>>>>>> e1d4bc35ff8a6074a6f2e91616a996b547c36f15
		<tag k="natural" v="hill" />
		<tag k="place" v="locality" />
		<tag k="ssr:stedsnr" v="821662" />
	</node>
<<<<<<< HEAD
	<node lat="60.871500003599074" lon="8.689416665612752" id="-16519">
		<tag k="name" v="Maurhaugane" />
		<tag k="natural" v="hill" />
=======
	<node id="-274442" lat="60.816513888" lon="8.7152333416">
		<tag k="name" v="Bjørnabakken" />
		<tag k="natural" v="slope" />
>>>>>>> e1d4bc35ff8a6074a6f2e91616a996b547c36f15
		<tag k="place" v="locality" />
		<tag k="ssr:stedsnr" v="821664" />
	</node>
<<<<<<< HEAD
	<node lat="60.8658083300745" lon="8.660669440575102" id="-16525">
		<tag k="name" v="Svinehovda" />
		<tag k="natural" v="hill" />
=======
	<node id="-274441" lat="60.8170638913" lon="8.71832499178">
		<tag k="name" v="Djupedalen" />
		<tag k="natural" v="valley" />
>>>>>>> e1d4bc35ff8a6074a6f2e91616a996b547c36f15
		<tag k="place" v="locality" />
		<tag k="ssr:stedsnr" v="821859" />
	</node>
<<<<<<< HEAD
	<node lat="60.8604944482165" lon="8.79329999534435" id="-16526">
		<tag k="name" v="Bergastøllie" />
		<tag k="natural" v="slope" />
=======
	<node id="-274439" lat="60.8308055566" lon="8.62798055125">
		<tag k="name" v="Styrmannsøyne" />
>>>>>>> e1d4bc35ff8a6074a6f2e91616a996b547c36f15
		<tag k="place" v="locality" />
		<tag k="ssr:stedsnr" v="822155" />
	</node>
<<<<<<< HEAD
	<node lat="60.84598611385105" lon="8.798175002223376" id="-16529">
		<tag k="name" v="Nystøllie" />
=======
	<node id="-274433" lat="60.8792638847" lon="8.52195555716">
		<tag k="name" v="Rustedokki" />
>>>>>>> e1d4bc35ff8a6074a6f2e91616a996b547c36f15
		<tag k="natural" v="slope" />
		<tag k="place" v="locality" />
		<tag k="ssr:stedsnr" v="822789" />
	</node>
<<<<<<< HEAD
	<node lat="60.87508055685037" lon="8.47889722806868" id="-16532">
		<tag k="name" v="Lauvhaugen" />
		<tag k="natural" v="hill" />
		<tag k="place" v="locality" />
		<tag k="ssr:stedsnr" v="858835" />
	</node>
	<node lat="60.89877500110436" lon="8.508630552658058" id="-16537">
		<tag k="fixme" v="consider natural=peak for the most distinct mountains in the district" />
		<tag k="name" v="Flæin" />
		<tag k="natural" v="hill" />
		<tag k="place" v="locality" />
		<tag k="ssr:stedsnr" v="858850" />
	</node>
	<node lat="60.91997500280618" lon="8.598877778999665" id="-16539">
		<tag k="name" v="Veslebotn" />
		<tag k="natural" v="valley" />
		<tag k="place" v="locality" />
		<tag k="ssr:stedsnr" v="858864" />
	</node>
	<node lat="60.872802780039386" lon="8.567086110730548" id="-16542">
		<tag k="name" v="Synehovda" />
		<tag k="natural" v="hill" />
		<tag k="place" v="locality" />
		<tag k="ssr:stedsnr" v="858131" />
	</node>
	<node lat="60.86438889320352" lon="8.627927786584534" id="-16543">
		<tag k="fixme" v="consider natural=peak for the most distinct mountains in the district" />
		<tag k="name" v="Såta" />
		<tag k="natural" v="hill" />
		<tag k="place" v="locality" />
		<tag k="ssr:stedsnr" v="858138" />
	</node>
	<node lat="60.86788333046478" lon="8.581966673444768" id="-16544">
		<tag k="alt_name" v="Imrestinden" />
		<tag k="fixme" v="consider natural=peak for the most distinct mountains in the district" />
		<tag k="name" v="Imrestind" />
		<tag k="natural" v="hill" />
		<tag k="place" v="locality" />
		<tag k="ssr:stedsnr" v="858141" />
	</node>
	<node lat="60.965805552717974" lon="8.215594449390347" id="-16552">
		<tag k="fixme" v="consider natural=peak for the most distinct mountains in the district" />
		<tag k="name" v="Bandenøse" />
		<tag k="natural" v="hill" />
		<tag k="place" v="locality" />
		<tag k="ssr:stedsnr" v="858540" />
	</node>
	<node lat="60.92961110945665" lon="8.305169449950027" id="-16554">
		<tag k="name" v="Grønleinberget" />
		<tag k="natural" v="hill" />
		<tag k="place" v="locality" />
		<tag k="ssr:stedsnr" v="858544" />
	</node>
	<node lat="60.895511108575576" lon="8.485955550749729" id="-16557">
		<tag k="fixme" v="consider natural=peak for the most distinct mountains in the district" />
		<tag k="name" v="Kvitingane" />
		<tag k="natural" v="hill" />
		<tag k="place" v="locality" />
		<tag k="ssr:stedsnr" v="858633" />
	</node>
	<node lat="60.984075002600314" lon="8.570663895432457" id="-16567">
		<tag k="name" v="Hjallepallane" />
		<tag k="natural" v="slope" />
		<tag k="place" v="locality" />
		<tag k="ssr:stedsnr" v="882135" />
	</node>
	<node lat="60.980297225890894" lon="8.605791661908707" id="-16568">
		<tag k="name" v="Hydalsrova" />
		<tag k="natural" v="hill" />
		<tag k="place" v="locality" />
		<tag k="ssr:stedsnr" v="882136" />
	</node>
	<node lat="60.86662499949145" lon="8.61276943749443" id="-16569">
		<tag k="name" v="Nutelihøgde" />
		<tag k="natural" v="hill" />
		<tag k="place" v="locality" />
		<tag k="ssr:stedsnr" v="882088" />
	</node>
	<node lat="60.873144446888475" lon="8.711836117647106" id="-16572">
		<tag k="name" v="Bakkevollen" />
		<tag k="natural" v="slope" />
		<tag k="place" v="locality" />
		<tag k="ssr:stedsnr" v="882577" />
	</node>
	<node lat="60.87769722309134" lon="8.781880552364628" id="-16575">
		<tag k="name" v="Storhaugen" />
		<tag k="natural" v="hill" />
		<tag k="place" v="locality" />
		<tag k="ssr:stedsnr" v="882731" />
	</node>
	<node lat="60.87458332916884" lon="8.45420834179251" id="-16581">
		<tag k="name" v="Veneli" />
		<tag k="place" v="locality" />
		<tag k="ssr:stedsnr" v="942702" />
	</node>
	<node lat="60.878791290539084" lon="8.56759727049091" id="-16582">
		<tag k="name" v="Halleinene" />
		<tag k="natural" v="slope" />
		<tag k="place" v="locality" />
		<tag k="ssr:stedsnr" v="942051" />
	</node>
	<node lat="60.88042499881955" lon="8.57182222566469" id="-16583">
		<tag k="name" v="Skeiehalleinene" />
		<tag k="natural" v="slope" />
		<tag k="place" v="locality" />
		<tag k="ssr:stedsnr" v="942053" />
	</node>
	<node lat="60.968958333837676" lon="8.472552769796607" id="-16589">
		<tag k="name" v="Lysebotn" />
		<tag k="natural" v="valley" />
		<tag k="place" v="locality" />
		<tag k="ssr:stedsnr" v="942415" />
	</node>
	<node lat="60.82586674595191" lon="8.722330990285966" id="-16590">
		<tag k="name" v="Brynhildstølhalle" />
		<tag k="natural" v="hill" />
		<tag k="place" v="locality" />
		<tag k="ssr:stedsnr" v="942580" />
	</node>
	<node lat="60.89088888474814" lon="8.407844451461719" id="-16594">
		<tag k="name" v="Fjellbakklanten" />
		<tag k="natural" v="hill" />
		<tag k="place" v="locality" />
		<tag k="ssr:stedsnr" v="942634" />
	</node>
	<node lat="60.89912499727875" lon="8.418627786350475" id="-16595">
		<tag k="name" v="Hovdeklanten" />
		<tag k="natural" v="hill" />
		<tag k="place" v="locality" />
		<tag k="ssr:stedsnr" v="942639" />
	</node>
	<node lat="60.85600555445929" lon="8.386388881346036" id="-16599">
		<tag k="name" v="Storeskriu" />
		<tag k="natural" v="hill" />
		<tag k="old_name" v="Storeskrui" />
		<tag k="place" v="locality" />
		<tag k="ssr:stedsnr" v="942748" />
	</node>
	<node lat="60.8753027738876" lon="8.42832499306324" id="-16601">
		<tag k="name" v="Brennhovd" />
		<tag k="natural" v="hill" />
		<tag k="place" v="locality" />
		<tag k="ssr:stedsnr" v="942765" />
	</node>
	<node lat="60.86934444342675" lon="8.583944441364414" id="-16612">
		<tag k="name" v="Tindermyljo" />
		<tag k="place" v="locality" />
		<tag k="ssr:stedsnr" v="943089" />
	</node>
	<node lat="60.78709722046669" lon="8.634813897537876" id="-16615">
		<tag k="name" v="Langeranden" />
		<tag k="natural" v="slope" />
		<tag k="place" v="locality" />
		<tag k="ssr:stedsnr" v="943275" />
	</node>
	<node lat="60.984083330524996" lon="8.563588893202638" id="-16617">
		<tag k="name" v="Oksehaugen" />
		<tag k="natural" v="hill" />
		<tag k="place" v="locality" />
		<tag k="ssr:stedsnr" v="943186" />
	</node>
	<node lat="60.77389166711473" lon="8.650713897071594" id="-16620">
		<tag k="name" v="Valhovddalen" />
		<tag k="natural" v="valley" />
		<tag k="place" v="locality" />
		<tag k="ssr:stedsnr" v="943305" />
	</node>
	<node lat="60.8958944486307" lon="8.847558341848195" id="-16622">
		<tag k="name" v="Baklie" />
		<tag k="natural" v="slope" />
		<tag k="place" v="locality" />
		<tag k="ssr:stedsnr" v="943315" />
	</node>
	<node lat="60.88571389040655" lon="8.848702777561202" id="-16626">
		<tag k="name" v="Hovdene" />
		<tag k="natural" v="hill" />
		<tag k="place" v="locality" />
		<tag k="ssr:stedsnr" v="943581" />
	</node>
	<node lat="60.88581111316729" lon="8.74647499786478" id="-16631">
		<tag k="name" v="Hyndehaugane" />
		<tag k="natural" v="hill" />
		<tag k="place" v="locality" />
		<tag k="ssr:stedsnr" v="943777" />
	</node>
	<node lat="60.8682888865555" lon="8.654544442282544" id="-16633">
		<tag k="name" v="Djuplie" />
		<tag k="natural" v="slope" />
		<tag k="place" v="locality" />
		<tag k="ssr:stedsnr" v="943828" />
	</node>
=======
>>>>>>> e1d4bc35ff8a6074a6f2e91616a996b547c36f15
</osm>
