<?xml version="1.0" encoding="UTF-8"?>
<osm version="0.6" generator="osmapis">
	<node lat="60.85721516595288" lon="8.567445807620864" id="-31595">
		<tag k="name" v="Storøyne" />
		<tag k="natural" v="cape" />
		<tag k="ssr:stedsnr" v="32920" />
	</node>
	<node lat="60.84647499958522" lon="8.755691671628584" id="-31597">
		<tag k="name" v="Hundodden" />
		<tag k="natural" v="cape" />
		<tag k="ssr:stedsnr" v="33118" />
	</node>
	<node lat="60.841538785934816" lon="8.753055571478555" id="-31608">
		<tag k="name" v="Grytevatnet" />
		<tag k="natural" v="water" />
		<tag k="ssr:stedsnr" v="69201" />
		<tag k="water" v="lake" />
	</node>
	<node lat="60.82482070832232" lon="8.75737966620578" id="-31610">
		<tag k="name" v="Nausttjerne" />
		<tag k="natural" v="water" />
		<tag k="ssr:stedsnr" v="69218" />
	</node>
	<node lat="60.840986107083374" lon="8.423133336465579" id="-31616">
		<tag k="alt_name" v="Kvislefossen" />
		<tag k="name" v="Kvislefoss" />
		<tag k="natural" v="waterfall" />
		<tag k="ssr:stedsnr" v="69927" />
	</node>
	<node lat="60.910883331208574" lon="8.442099991323095" id="-31626">
		<tag k="name" v="Fossen" />
		<tag k="ssr:stedsnr" v="93466" />
		<tag k="waterway" v="river" />
	</node>
	<node lat="61.02704166373898" lon="8.336730557237097" id="-31634">
		<tag k="name" v="Slurpa" />
		<tag k="ssr:stedsnr" v="249639" />
		<tag k="waterway" v="stream" />
	</node>
	<node lat="60.84641392426307" lon="8.738075455689266" id="-31648">
		<tag k="name" v="Myrjostjerne" />
		<tag k="natural" v="water" />
		<tag k="ssr:stedsnr" v="251213" />
	</node>
	<node lat="60.820788887675185" lon="8.648413885536407" id="-31649">
		<tag k="name" v="Gravsetbekken" />
		<tag k="ssr:stedsnr" v="251234" />
		<tag k="waterway" v="stream" />
	</node>
	<node lat="60.82416389123666" lon="8.792275004274568" id="-31651">
		<tag k="name" v="Brenneløkbekken" />
		<tag k="ssr:stedsnr" v="251254" />
		<tag k="waterway" v="stream" />
	</node>
	<node lat="60.816202781563554" lon="8.6870055592941" id="-31652">
		<tag k="alt_name" v="Sagabekken" />
		<tag k="name" v="Sagbekken" />
		<tag k="ssr:stedsnr" v="251255" />
		<tag k="waterway" v="stream" />
	</node>
	<node lat="60.81187777424281" lon="8.623280552043138" id="-31653">
		<tag k="name" v="Hydnefossen" />
		<tag k="natural" v="waterfall" />
		<tag k="ssr:stedsnr" v="251257" />
	</node>
	<node lat="60.88857221815314" lon="8.413238889232867" id="-31662">
		<tag k="name" v="Veikinnbekken" />
		<tag k="ssr:stedsnr" v="251589" />
		<tag k="waterway" v="stream" />
	</node>
	<node lat="60.89056110834325" lon="8.454994452704732" id="-31663">
		<tag k="name" v="Bekkefoss" />
		<tag k="natural" v="waterfall" />
		<tag k="ssr:stedsnr" v="251595" />
	</node>
	<node lat="60.9238805549366" lon="8.377127768716303" id="-31669">
		<tag k="name" v="Surrebekken" />
		<tag k="ssr:stedsnr" v="251620" />
		<tag k="waterway" v="stream" />
	</node>
	<node lat="60.925474996441146" lon="8.688805552751795" id="-31674">
		<tag k="name" v="Trolltjerne" />
		<tag k="natural" v="water" />
		<tag k="ssr:stedsnr" v="251891" />
	</node>
	<node lat="60.86823611075996" lon="8.461888892699584" id="-31678">
		<tag k="name" v="Skriubekken" />
		<tag k="ssr:stedsnr" v="251945" />
		<tag k="waterway" v="stream" />
	</node>
	<node lat="60.869124999188365" lon="8.624511114823187" id="-31685">
		<tag k="name" v="Fetjaåne" />
		<tag k="ssr:stedsnr" v="130107" />
		<tag k="waterway" v="stream" />
	</node>
	<node lat="60.79830277394661" lon="8.7474638815806" id="-31686">
		<tag k="name" v="Eikrebekken" />
		<tag k="ssr:stedsnr" v="130010" />
		<tag k="waterway" v="stream" />
	</node>
	<node lat="60.798305551115625" lon="8.732733335961937" id="-31687">
		<tag k="name" v="Nøstjerne" />
		<tag k="natural" v="water" />
		<tag k="ssr:stedsnr" v="130011" />
	</node>
	<node lat="60.988633329127765" lon="8.555077783236309" id="-31690">
		<tag k="name" v="Trongebyttåne" />
		<tag k="ssr:stedsnr" v="130732" />
		<tag k="waterway" v="stream" />
	</node>
	<node lat="60.967713885618124" lon="8.61840832660327" id="-31695">
		<tag k="name" v="Hydalsåne" />
		<tag k="ssr:stedsnr" v="153155" />
		<tag k="waterway" v="river" />
	</node>
	<node lat="60.77263611065299" lon="8.684286110042699" id="-31709">
		<tag k="name" v="Krossbekken" />
		<tag k="ssr:stedsnr" v="190031" />
		<tag k="waterway" v="stream" />
	</node>
	<node lat="60.83884444265578" lon="8.729730554112505" id="-31710">
		<tag k="alt_name" v="Vannin" />
		<tag k="name" v="Vannen" />
		<tag k="natural" v="water" />
		<tag k="ssr:stedsnr" v="190204" />
		<tag k="water" v="lake" />
	</node>
	<node lat="60.83009444857176" lon="8.722486108334827" id="-31711">
		<tag k="name" v="Gampetjerne" />
		<tag k="natural" v="water" />
		<tag k="ssr:stedsnr" v="190205" />
	</node>
	<node lat="60.826512162503235" lon="8.727113864425451" id="-31713">
		<tag k="name" v="Rishaugtjerne" />
		<tag k="natural" v="water" />
		<tag k="ssr:stedsnr" v="190217" />
	</node>
	<node lat="60.79500000081155" lon="8.516049991479862" id="-31721">
		<tag k="loc_name" v="Værsjøen" />
		<tag k="name" v="Versjøen" />
		<tag k="natural" v="water" />
		<tag k="old_name" v="Vers-søen" />
		<tag k="ssr:stedsnr" v="191213" />
		<tag k="water" v="lake" />
	</node>
	<node lat="60.971924996792715" lon="8.592977769937358" id="-31726">
		<tag k="name" v="Mjåsundet" />
		<tag k="natural" v="strait" />
		<tag k="ssr:stedsnr" v="191720" />
	</node>
	<node lat="60.96072499659766" lon="8.62677776958064" id="-31727">
		<tag k="name" v="Kaldåne" />
		<tag k="ssr:stedsnr" v="191699" />
		<tag k="waterway" v="stream" />
	</node>
	<node lat="60.874074999801415" lon="8.78664166802604" id="-31748">
		<tag k="name" v="Søre Ranavik" />
		<tag k="natural" v="bay" />
		<tag k="ssr:stedsnr" v="457292" />
	</node>
	<node lat="60.89355000366506" lon="8.896008327077881" id="-31758">
		<tag k="name" v="Høgefoss" />
		<tag k="natural" v="waterfall" />
		<tag k="ssr:stedsnr" v="458449" />
	</node>
	<node lat="60.83867222144544" lon="8.757625002283561" id="-31759">
		<tag k="name" v="Trytesteinen" />
		<tag k="natural" v="cape" />
		<tag k="ssr:stedsnr" v="458547" />
	</node>
	<node lat="60.852558332792434" lon="8.743233332332132" id="-31781">
		<tag k="name" v="Hestanåne" />
		<tag k="ssr:stedsnr" v="276116" />
		<tag k="waterway" v="river" />
	</node>
	<node lat="60.85847777334061" lon="8.764836113355999" id="-31786">
		<tag k="name" v="Sølevikodden" />
		<tag k="natural" v="cape" />
		<tag k="ssr:stedsnr" v="311196" />
	</node>
	<node lat="60.86132499995129" lon="8.75394999932475" id="-31788">
		<tag k="name" v="Digreneset" />
		<tag k="natural" v="cape" />
		<tag k="ssr:stedsnr" v="311201" />
	</node>
	<node lat="60.85254628465114" lon="8.723539305984865" id="-31789">
		<tag k="name" v="Storodden" />
		<tag k="natural" v="cape" />
		<tag k="ssr:stedsnr" v="311214" />
	</node>
	<node lat="60.88318888854465" lon="8.508033329960996" id="-31806">
		<tag k="name" v="Rustobekken" />
		<tag k="ssr:stedsnr" v="312811" />
		<tag k="waterway" v="stream" />
	</node>
	<node lat="60.972631905585885" lon="8.534094046479035" id="-31810">
		<tag k="alt_name" v="Hydalsvatnet, nordre" />
		<tag k="name" v="Nord-Hydalsvatnet" />
		<tag k="natural" v="water" />
		<tag k="ssr:stedsnr" v="312739" />
		<tag k="water" v="lake" />
	</node>
	<node lat="60.83195556229435" lon="8.730672665681952" id="-31814">
		<tag k="name" v="Vannestølodden" />
		<tag k="natural" v="cape" />
		<tag k="ssr:stedsnr" v="335594" />
	</node>
	<node lat="60.92779999780465" lon="8.403350006260519" id="-31817">
		<tag k="name" v="Øyne" />
		<tag k="natural" v="cape" />
		<tag k="ssr:stedsnr" v="335599" />
	</node>
	<node lat="60.92833888921267" lon="8.393208330014616" id="-31819">
		<tag k="name" v="Surrebekken" />
		<tag k="ssr:stedsnr" v="335603" />
		<tag k="waterway" v="river" />
	</node>
	<node lat="60.8497138902527" lon="8.743350003183558" id="-31824">
		<tag k="name" v="Ødnerskilen" />
		<tag k="ssr:stedsnr" v="336100" />
		<tag k="waterway" v="river" />
	</node>
	<node lat="60.85654444236735" lon="8.687252784701665" id="-31827">
		<tag k="name" v="Odden" />
		<tag k="natural" v="cape" />
		<tag k="ssr:stedsnr" v="336715" />
	</node>
	<node lat="60.852036113461764" lon="8.537497217646626" id="-31837">
		<tag k="name" v="Sollaustbekken" />
		<tag k="ssr:stedsnr" v="372161" />
		<tag k="waterway" v="stream" />
	</node>
	<node lat="60.846863888519444" lon="8.7679472295839" id="-31839">
		<tag k="name" v="Huldretjerne" />
		<tag k="natural" v="water" />
		<tag k="ssr:stedsnr" v="372175" />
	</node>
	<node lat="60.81808594637419" lon="8.496326197210331" id="-31841">
		<tag k="name" v="Svartevatnet" />
		<tag k="natural" v="water" />
		<tag k="ssr:stedsnr" v="372221" />
		<tag k="water" v="lake" />
	</node>
	<node lat="60.796477777210896" lon="8.591163886885122" id="-31843">
		<tag k="name" v="Grytingtjerne" />
		<tag k="natural" v="water" />
		<tag k="ssr:stedsnr" v="372255" />
	</node>
	<node lat="60.900388886500124" lon="8.228747224531288" id="-31850">
		<tag k="name" v="Råskardåne" />
		<tag k="ssr:stedsnr" v="372628" />
		<tag k="waterway" v="stream" />
	</node>
	<node lat="60.890436111546094" lon="8.492091658327034" id="-31852">
		<tag k="name" v="Leinebekken" />
		<tag k="ssr:stedsnr" v="372855" />
		<tag k="waterway" v="stream" />
	</node>
	<node lat="60.9551722232564" lon="8.276791667915882" id="-31856">
		<tag k="name" v="Buliåne" />
		<tag k="ssr:stedsnr" v="396202" />
		<tag k="waterway" v="river" />
	</node>
	<node lat="60.98317778012851" lon="8.347497214978485" id="-31857">
		<tag k="name" v="Kringleøyne" />
		<tag k="place" v="island" />
		<tag k="ssr:stedsnr" v="396213" />
	</node>
	<node lat="60.830241663579535" lon="8.786686106123986" id="-31881">
		<tag k="name" v="Venebakkbekken" />
		<tag k="ssr:stedsnr" v="433205" />
		<tag k="waterway" v="stream" />
	</node>
	<node lat="60.82732499771769" lon="8.704349997053063" id="-31882">
		<tag k="name" v="Ormetjerne" />
		<tag k="natural" v="water" />
		<tag k="ssr:stedsnr" v="433212" />
	</node>
	<node lat="60.94369166538151" lon="8.331108332529498" id="-31884">
		<tag k="name" v="Kvannebekken" />
		<tag k="ssr:stedsnr" v="433512" />
		<tag k="waterway" v="stream" />
	</node>
	<node lat="60.910080559881855" lon="8.582450005226766" id="-31887">
		<tag k="name" v="Guteskardåne" />
		<tag k="ssr:stedsnr" v="433843" />
		<tag k="waterway" v="stream" />
	</node>
	<node lat="61.05911111137425" lon="8.293200001787998" id="-31895">
		<tag k="name" v="Tverråne" />
		<tag k="ssr:stedsnr" v="492598" />
		<tag k="waterway" v="river" />
	</node>
	<node lat="60.87430833409659" lon="8.321511106447398" id="-31900">
		<tag k="alt_name" v="Kvannalbekken" />
		<tag k="name" v="Kvannolbekken" />
		<tag k="ssr:stedsnr" v="493587" />
		<tag k="waterway" v="stream" />
	</node>
	<node lat="60.79731944862498" lon="8.682894441797838" id="-31903">
		<tag k="name" v="Gjuva" />
		<tag k="ssr:stedsnr" v="494011" />
		<tag k="waterway" v="river" />
	</node>
	<node lat="60.95263333551361" lon="8.537061116459883" id="-31914">
		<tag k="name" v="Langetjerne" />
		<tag k="natural" v="water" />
		<tag k="ssr:stedsnr" v="494727" />
		<tag k="water" v="lake" />
	</node>
	<node lat="60.830622132588" lon="8.735333330373344" id="-31923">
		<tag k="name" v="Dritarodden" />
		<tag k="natural" v="cape" />
		<tag k="ssr:stedsnr" v="457562" />
	</node>
	<node lat="60.8560472253339" lon="8.747927780194777" id="-31930">
		<tag k="name" v="Sundet" />
		<tag k="natural" v="strait" />
		<tag k="ssr:stedsnr" v="458109" />
	</node>
	<node lat="60.86466666714836" lon="8.749699996344946" id="-31931">
		<tag k="name" v="Elviksundet" />
		<tag k="natural" v="strait" />
		<tag k="ssr:stedsnr" v="458110" />
	</node>
	<node lat="60.89629167038172" lon="8.320122219087404" id="-31944">
		<tag k="alt_name" v="Storeskarvatn" />
		<tag k="name" v="Storeskardvatnet" />
		<tag k="natural" v="water" />
		<tag k="ssr:stedsnr" v="675584" />
		<tag k="water" v="lake" />
	</node>
	<node lat="60.91000000370268" lon="8.572286103516607" id="-31958">
		<tag k="name" v="Vardenosåne" />
		<tag k="ssr:stedsnr" v="676834" />
		<tag k="waterway" v="stream" />
	</node>
	<node lat="60.94193333147627" lon="8.590663889162883" id="-31961">
		<tag k="name" v="Tortjerne" />
		<tag k="natural" v="water" />
		<tag k="ssr:stedsnr" v="676859" />
	</node>
	<node lat="60.77826666226334" lon="8.653725001265341" id="-31964">
		<tag k="alt_name" v="Gjuva, vesle" />
		<tag k="name" v="Vesle Gjuva" />
		<tag k="ssr:stedsnr" v="493010" />
		<tag k="waterway" v="stream" />
	</node>
	<node lat="60.842699998388284" lon="8.734227785984514" id="-31966">
		<tag k="name" v="Ostjerne" />
		<tag k="natural" v="water" />
		<tag k="ssr:stedsnr" v="493203" />
	</node>
	<node lat="60.8515416683709" lon="8.798263897717822" id="-31969">
		<tag k="name" v="Kroktjerne" />
		<tag k="natural" v="water" />
		<tag k="ssr:stedsnr" v="493182" />
	</node>
	<node lat="60.83850277385469" lon="8.50988610266788" id="-31971">
		<tag k="name" v="Tottetjerne" />
		<tag k="natural" v="water" />
		<tag k="ssr:stedsnr" v="493185" />
	</node>
	<node lat="60.8752972201267" lon="8.46431666713099" id="-31976">
		<tag k="alt_name" v="Rjukanfossen" />
		<tag k="name" v="Rjukandefoss" />
		<tag k="natural" v="waterfall" />
		<tag k="ssr:stedsnr" v="493932" />
	</node>
	<node lat="60.87501666277559" lon="8.83933054649365" id="-31978">
		<tag k="name" v="Tisleifjorden" />
		<tag k="natural" v="water" />
		<tag k="old_name" v="Tisleifjord;Tesleien" />
		<tag k="ssr:stedsnr" v="494116" />
		<tag k="water" v="lake" />
	</node>
	<node lat="60.86521666898659" lon="8.588322221694346" id="-31979">
		<tag k="name" v="Skørrsbekken" />
		<tag k="ssr:stedsnr" v="494121" />
		<tag k="waterway" v="stream" />
	</node>
	<node lat="60.827488887285625" lon="8.752688894483645" id="-31982">
		<tag k="name" v="Bjørnatjerne" />
		<tag k="natural" v="water" />
		<tag k="ssr:stedsnr" v="494186" />
	</node>
	<node lat="60.81345000413997" lon="8.488008336811049" id="-31983">
		<tag k="name" v="Venebottvatnet" />
		<tag k="natural" v="water" />
		<tag k="ssr:stedsnr" v="494202" />
	</node>
	<node lat="60.86486666584801" lon="8.556016659780713" id="-31989">
		<tag k="name" v="Trøymsåne" />
		<tag k="ssr:stedsnr" v="494815" />
		<tag k="waterway" v="river" />
	</node>
	<node lat="60.97473610800336" lon="8.544830560387066" id="-31996">
		<tag k="name" v="Geitevatnet" />
		<tag k="natural" v="water" />
		<tag k="ssr:stedsnr" v="517123" />
	</node>
	<node lat="60.88661389128953" lon="8.47817499520809" id="-32002">
		<tag k="name" v="Bergabekken" />
		<tag k="ssr:stedsnr" v="517836" />
		<tag k="waterway" v="stream" />
	</node>
	<node lat="60.798949997179896" lon="8.76523333791386" id="-32015">
		<tag k="name" v="Fuglehaugtjerne" />
		<tag k="natural" v="water" />
		<tag k="ssr:stedsnr" v="554011" />
	</node>
	<node lat="60.83925779900609" lon="8.722860516176965" id="-32016">
		<tag k="name" v="Purkeodden" />
		<tag k="natural" v="cape" />
		<tag k="ssr:stedsnr" v="554196" />
	</node>
	<node lat="60.98839166357098" lon="8.328072230464382" id="-32024">
		<tag k="name" v="Søteliåne" />
		<tag k="ssr:stedsnr" v="554596" />
		<tag k="waterway" v="stream" />
	</node>
	<node lat="60.837024140730904" lon="8.731894423825985" id="-32029">
		<tag k="name" v="Killingøya" />
		<tag k="place" v="island" />
		<tag k="ssr:stedsnr" v="578558" />
	</node>
	<node lat="60.89536944686797" lon="8.436769444128181" id="-32048">
		<tag k="name" v="Sukkebøøyne" />
		<tag k="place" v="island" />
		<tag k="ssr:stedsnr" v="699620" />
	</node>
	<node lat="60.874022224967014" lon="8.512288882487463" id="-32069">
		<tag k="name" v="Hagatjerne" />
		<tag k="natural" v="water" />
		<tag k="ssr:stedsnr" v="615119" />
	</node>
	<node lat="60.93598055343179" lon="8.514827778500079" id="-32077">
		<tag k="name" v="Kringletjerne" />
		<tag k="natural" v="water" />
		<tag k="ssr:stedsnr" v="615842" />
	</node>
	<node lat="60.98114166591199" lon="8.350602773756927" id="-32080">
		<tag k="name" v="Gulliktangen" />
		<tag k="place" v="island" />
		<tag k="ssr:stedsnr" v="638233" />
	</node>
	<node lat="60.8322867509525" lon="8.753562031278927" id="-32099">
		<tag k="name" v="Skjærodden" />
		<tag k="natural" v="cape" />
		<tag k="ssr:stedsnr" v="639508" />
	</node>
	<node lat="60.87641389062902" lon="8.746683340417" id="-32103">
		<tag k="name" v="Bukonebekken" />
		<tag k="ssr:stedsnr" v="639813" />
		<tag k="waterway" v="stream" />
	</node>
	<node lat="60.83132777493365" lon="8.748147218510436" id="-32109">
		<tag k="name" v="Gammen" />
		<tag k="natural" v="water" />
		<tag k="ssr:stedsnr" v="676204" />
	</node>
	<node lat="60.82263620355775" lon="8.695017539025562" id="-32110">
		<tag k="name" v="Søre Damtjerne" />
		<tag k="natural" v="water" />
		<tag k="ssr:stedsnr" v="676214" />
	</node>
	<node lat="60.833224996475245" lon="8.614961113943062" id="-32111">
		<tag k="alt_name" v="Dyrja" />
		<tag k="name" v="Dyrgja" />
		<tag k="ssr:stedsnr" v="676187" />
		<tag k="waterway" v="river" />
	</node>
	<node lat="60.891294443267945" lon="8.894516658936" id="-32131">
		<tag k="name" v="Store Stilla" />
		<tag k="natural" v="water" />
		<tag k="ssr:stedsnr" v="700415" />
		<tag k="water" v="lake" />
	</node>
	<node lat="60.80208333488349" lon="8.750719452907756" id="-32133">
		<tag k="name" v="Eikrebekken" />
		<tag k="ssr:stedsnr" v="700504" />
		<tag k="waterway" v="stream" />
	</node>
	<node lat="60.830593558040185" lon="8.731446678951192" id="-32142">
		<tag k="alt_name" v="Naustvika" />
		<tag k="name" v="Naustviki" />
		<tag k="natural" v="bay" />
		<tag k="ssr:stedsnr" v="736226" />
	</node>
	<node lat="60.868810246999494" lon="8.619610719457123" id="-32147">
		<tag k="name" v="Såtetjerne" />
		<tag k="natural" v="water" />
		<tag k="ssr:stedsnr" v="737120" />
	</node>
	<node lat="60.887788886358784" lon="8.895772231388975" id="-32148">
		<tag k="name" v="Flya" />
		<tag k="ssr:stedsnr" v="737410" />
		<tag k="waterway" v="river" />
	</node>
	<node lat="60.9076277821375" lon="8.692205559907023" id="-32151">
		<tag k="name" v="Vesle Sandåne" />
		<tag k="ssr:stedsnr" v="737845" />
		<tag k="waterway" v="stream" />
	</node>
	<node lat="60.90784478098769" lon="8.725912312216636" id="-32152">
		<tag k="name" v="Hundsennvatnet" />
		<tag k="natural" v="water" />
		<tag k="ssr:stedsnr" v="737847" />
		<tag k="water" v="lake" />
	</node>
	<node lat="60.975589620650766" lon="8.58143613302761" id="-32153">
		<tag k="alt_name" v="Hydalsvatnet, s;Hydalsvatnet" />
		<tag k="name" v="Sør-Hydalsvatnet" />
		<tag k="natural" v="water" />
		<tag k="ssr:stedsnr" v="737764" />
		<tag k="water" v="lake" />
	</node>
	<node lat="60.97731110825606" lon="8.369186107071826" id="-32159">
		<tag k="name" v="Sandslettbekken" />
		<tag k="ssr:stedsnr" v="760262" />
		<tag k="waterway" v="stream" />
	</node>
	<node lat="60.89644999967313" lon="8.415880560082186" id="-32169">
		<tag k="name" v="Hølubekken" />
		<tag k="ssr:stedsnr" v="760645" />
		<tag k="waterway" v="stream" />
	</node>
	<node lat="60.89745833647724" lon="8.437066660808249" id="-32170">
		<tag k="name" v="Tangen" />
		<tag k="place" v="locality" />
		<tag k="ssr:stedsnr" v="760658" />
	</node>
	<node lat="60.827422225480184" lon="8.578855553365514" id="-32184">
		<tag k="name" v="Skyrvedøla" />
		<tag k="ssr:stedsnr" v="797206" />
		<tag k="waterway" v="stream" />
	</node>
	<node lat="60.82453333287205" lon="8.708674998822742" id="-32185">
		<tag k="name" v="Dyssetjerne" />
		<tag k="natural" v="water" />
		<tag k="ssr:stedsnr" v="797213" />
	</node>
	<node lat="60.879433334490656" lon="8.751116663638415" id="-32193">
		<tag k="name" v="Hynda" />
		<tag k="ssr:stedsnr" v="798796" />
		<tag k="waterway" v="river" />
	</node>
	<node lat="60.88307499909937" lon="8.469141674459687" id="-32205">
		<tag k="name" v="Grøndøla" />
		<tag k="ssr:stedsnr" v="918612" />
		<tag k="waterway" v="river" />
	</node>
	<node lat="60.87372777781994" lon="8.890077773528446" id="-32208">
		<tag k="name" v="Inngangshaugane" />
		<tag k="place" v="island" />
		<tag k="ssr:stedsnr" v="920366" />
	</node>
	<node lat="60.927938886800696" lon="8.677924998873175" id="-32214">
		<tag k="name" v="Nordretjerne" />
		<tag k="natural" v="water" />
		<tag k="ssr:stedsnr" v="919856" />
	</node>
	<node lat="60.871794443053254" lon="8.669538894860988" id="-32222">
		<tag k="name" v="Bjørnstølåne" />
		<tag k="ssr:stedsnr" v="919787" />
		<tag k="waterway" v="stream" />
	</node>
	<node lat="60.892955553896186" lon="8.73931666793675" id="-32225">
		<tag k="name" v="Skarvanåne" />
		<tag k="ssr:stedsnr" v="919838" />
		<tag k="waterway" v="stream" />
	</node>
	<node lat="60.975849997271425" lon="8.572908340480353" id="-32230">
		<tag k="name" v="Fingen" />
		<tag k="natural" v="cape" />
		<tag k="ssr:stedsnr" v="821123" />
	</node>
	<node lat="60.80077222308504" lon="8.676594441836842" id="-32238">
		<tag k="name" v="Gjuvestølmyrkanalen" />
		<tag k="ssr:stedsnr" v="821586" />
		<tag k="waterway" v="stream" />
	</node>
	<node lat="60.803758333575665" lon="8.664700006497293" id="-32239">
		<tag k="name" v="Langebekk" />
		<tag k="ssr:stedsnr" v="821588" />
		<tag k="waterway" v="stream" />
	</node>
	<node lat="60.8722501993083" lon="8.740597209633915" id="-32243">
		<tag k="name" v="Kjerringbekken" />
		<tag k="ssr:stedsnr" v="821807" />
		<tag k="waterway" v="stream" />
	</node>
	<node lat="60.846155557353384" lon="8.758005554402963" id="-32248">
		<tag k="name" v="Myrevika" />
		<tag k="natural" v="bay" />
		<tag k="ssr:stedsnr" v="822105" />
	</node>
	<node lat="60.924158329610606" lon="8.438305551676516" id="-32261">
		<tag k="name" v="Gjuva" />
		<tag k="ssr:stedsnr" v="858809" />
		<tag k="waterway" v="river" />
	</node>
	<node lat="60.98326944606625" lon="8.362052776836213" id="-32262">
		<tag k="name" v="Storebekken" />
		<tag k="ssr:stedsnr" v="858571" />
		<tag k="waterway" v="stream" />
	</node>
	<node lat="60.895369442850026" lon="8.431038885764634" id="-32263">
		<tag k="alt_name" v="Fagersetvatn" />
		<tag k="name" v="Fagersetvatnet" />
		<tag k="natural" v="water" />
		<tag k="ssr:stedsnr" v="858585" />
		<tag k="water" v="lake" />
	</node>
	<node lat="60.841719031102784" lon="8.732654678042746" id="-32280">
		<tag k="name" v="Oset" />
		<tag k="natural" v="bay" />
		<tag k="ssr:stedsnr" v="882513" />
	</node>
	<node lat="60.87190555347624" lon="8.663463884581708" id="-32293">
		<tag k="name" v="Nordrestølbekken" />
		<tag k="ssr:stedsnr" v="882815" />
		<tag k="waterway" v="stream" />
	</node>
	<node lat="60.78346892839732" lon="8.74420100078453" id="-32300">
		<tag k="name" v="Eikredammen" />
		<tag k="ssr:stedsnr" v="918023" />
		<tag k="waterway" v="dam" />
	</node>
	<node lat="60.85719721937758" lon="8.766302778219977" id="-32303">
		<tag k="alt_name" v="Sølevik" />
		<tag k="name" v="Søleviki" />
		<tag k="natural" v="bay" />
		<tag k="ssr:stedsnr" v="918171" />
	</node>
	<node lat="60.843327774422605" lon="8.741347225163285" id="-32305">
		<tag k="name" v="Lomtjerne" />
		<tag k="natural" v="water" />
		<tag k="ssr:stedsnr" v="918217" />
	</node>
	<node lat="60.824758333993955" lon="8.691761114938616" id="-32310">
		<tag k="name" v="Nordre Damtjerne" />
		<tag k="natural" v="water" />
		<tag k="ssr:stedsnr" v="919199" />
	</node>
	<node lat="60.915230551271264" lon="8.552983329236856" id="-32314">
		<tag k="name" v="Vestrebotntjerne" />
		<tag k="natural" v="water" />
		<tag k="ssr:stedsnr" v="919841" />
	</node>
	<node lat="60.847163885176734" lon="8.731600008092128" id="-32330">
		<tag k="name" v="Helgetjerne" />
		<tag k="natural" v="water" />
		<tag k="ssr:stedsnr" v="8208" />
	</node>
	<node lat="60.81840277532534" lon="8.742500005047633" id="-32331">
		<tag k="name" v="Brennetjerne" />
		<tag k="natural" v="water" />
		<tag k="ssr:stedsnr" v="8232" />
	</node>
	<node lat="60.86399709828041" lon="8.65319867135634" id="-32340">
		<tag k="name" v="Hølutjerne" />
		<tag k="natural" v="water" />
		<tag k="ssr:stedsnr" v="9107" />
	</node>
	<node lat="60.938277781585775" lon="8.569824995163247" id="-32347">
		<tag k="name" v="Isbretjerne" />
		<tag k="natural" v="water" />
		<tag k="ssr:stedsnr" v="9855" />
	</node>
	<node lat="60.87599999613052" lon="8.338061113841475" id="-32349">
		<tag k="name" v="Kvannolbekken" />
		<tag k="ssr:stedsnr" v="32172" />
		<tag k="waterway" v="stream" />
	</node>
	<node lat="60.87057221891214" lon="8.564955564177785" id="-32351">
		<tag k="name" v="Kvenabekken" />
		<tag k="ssr:stedsnr" v="32061" />
		<tag k="waterway" v="stream" />
	</node>
	<node lat="60.86032500207219" lon="8.68284999496215" id="-32378">
		<tag k="name" v="Hamartjerne" />
		<tag k="natural" v="water" />
		<tag k="ssr:stedsnr" v="69157" />
	</node>
	<node lat="60.966927777977766" lon="8.160227779296266" id="-32385">
		<tag k="name" v="Slettevatnet" />
		<tag k="natural" v="water" />
		<tag k="ssr:stedsnr" v="69590" />
		<tag k="water" v="lake" />
	</node>
	<node lat="60.89305277738255" lon="8.449477775937911" id="-32386">
		<tag k="alt_name" v="Flatsjøen" />
		<tag k="name" v="Flatsjø" />
		<tag k="natural" v="water" />
		<tag k="ssr:stedsnr" v="69621" />
	</node>
	<node lat="60.87941666365361" lon="8.50341666467598" id="-32396">
		<tag k="alt_name" v="Hulebakbekken" />
		<tag k="name" v="Hulbakbekken" />
		<tag k="ssr:stedsnr" v="69863" />
		<tag k="waterway" v="stream" />
	</node>
	<node lat="60.8428999997432" lon="8.750758332003544" id="-32421">
		<tag k="name" v="Skarprisa" />
		<tag k="natural" v="cape" />
		<tag k="ssr:stedsnr" v="94550" />
	</node>
	<node lat="60.855261112560655" lon="8.703044448358296" id="-32423">
		<tag k="alt_name" v="Helsingvatn" />
		<tag k="name" v="Helsingvatnet" />
		<tag k="natural" v="water" />
		<tag k="ssr:stedsnr" v="129186" />
		<tag k="water" v="lake" />
	</node>
	<node lat="60.835665110184834" lon="8.70950867012544" id="-32425">
		<tag k="name" v="Ytretjerne" />
		<tag k="natural" v="water" />
		<tag k="ssr:stedsnr" v="129216" />
	</node>
	<node lat="60.83668055380963" lon="8.756702785144814" id="-32427">
		<tag k="name" v="Kilen" />
		<tag k="ssr:stedsnr" v="129229" />
		<tag k="waterway" v="stream" />
	</node>
	<node lat="60.97321388944468" lon="8.344277770813191" id="-32428">
		<tag k="name" v="Fossebekken" />
		<tag k="ssr:stedsnr" v="129540" />
		<tag k="waterway" v="stream" />
	</node>
	<node lat="60.94738849193833" lon="8.09420157209765" id="-32436">
		<tag k="alt_name" v="Øljusjøen" />
		<tag k="name" v="Øljusjøane" />
		<tag k="natural" v="water" />
		<tag k="old_name" v="Ørjusjøen" />
		<tag k="ssr:stedsnr" v="129685" />
		<tag k="water" v="lake" />
	</node>
	<node lat="60.91273605944519" lon="8.084033553831175" id="-32437">
		<tag k="name" v="Raudbergsholtjerne" />
		<tag k="natural" v="water" />
		<tag k="ssr:stedsnr" v="129616" />
	</node>
	<node lat="60.81575832908842" lon="8.63242500573224" id="-32440">
		<tag k="name" v="Hydna" />
		<tag k="ssr:stedsnr" v="130192" />
		<tag k="waterway" v="stream" />
	</node>
	<node lat="60.89320277570564" lon="8.264905562813528" id="-32445">
		<tag k="name" v="Vierbekken" />
		<tag k="ssr:stedsnr" v="153264" />
		<tag k="waterway" v="stream" />
	</node>
	<node lat="60.84488611458484" lon="8.434891674353356" id="-32460">
		<tag k="name" v="Svarteløken" />
		<tag k="ssr:stedsnr" v="153743" />
		<tag k="waterway" v="river" />
	</node>
	<node lat="60.87729166880412" lon="8.776408326519887" id="-32461">
		<tag k="name" v="Hølubekken" />
		<tag k="ssr:stedsnr" v="153835" />
		<tag k="waterway" v="stream" />
	</node>
	<node lat="60.76065000214886" lon="8.815552772789697" id="-32472">
		<tag k="name" v="Hemsil" />
		<tag k="ssr:stedsnr" v="189112" />
		<tag k="waterway" v="river" />
	</node>
	<node lat="60.85151667001163" lon="8.488194439575198" id="-32474">
		<tag k="name" v="Skrukkebekken" />
		<tag k="ssr:stedsnr" v="190148" />
		<tag k="waterway" v="stream" />
	</node>
	<node lat="60.84020592144392" lon="8.701150322232351" id="-32479">
		<tag k="name" v="Gravsettjerne" />
		<tag k="natural" v="water" />
		<tag k="ssr:stedsnr" v="190198" />
	</node>
	<node lat="60.81861110749972" lon="8.705166669443477" id="-32480">
		<tag k="alt_name" v="Kvednahusbekken" />
		<tag k="name" v="Kvernhusbekken" />
		<tag k="ssr:stedsnr" v="190240" />
		<tag k="waterway" v="stream" />
	</node>
	<node lat="60.913850003005216" lon="8.631149992153707" id="-32484">
		<tag k="name" v="Søre Grunntjerne" />
		<tag k="natural" v="water" />
		<tag k="ssr:stedsnr" v="191812" />
	</node>
	<node lat="60.81183333521247" lon="8.657602771759352" id="-32498">
		<tag k="name" v="Krokhølen" />
		<tag k="place" v="locality" />
		<tag k="ssr:stedsnr" v="214595" />
	</node>
	<node lat="60.8793027736568" lon="8.825391659392313" id="-32499">
		<tag k="name" v="Kælkbekken" />
		<tag k="ssr:stedsnr" v="214623" />
		<tag k="waterway" v="stream" />
	</node>
	<node lat="60.85780000027356" lon="8.679958333797131" id="-32504">
		<tag k="name" v="Helsingåne" />
		<tag k="ssr:stedsnr" v="214752" />
		<tag k="waterway" v="river" />
	</node>
	<node lat="60.846489930213295" lon="8.76434896668184" id="-32508">
		<tag k="name" v="Myrebekken" />
		<tag k="ssr:stedsnr" v="215151" />
		<tag k="waterway" v="stream" />
	</node>
	<node lat="60.829352779818436" lon="8.741819443246873" id="-32510">
		<tag k="name" v="Langevika" />
		<tag k="natural" v="bay" />
		<tag k="ssr:stedsnr" v="215552" />
	</node>
	<node lat="60.85435833588543" lon="8.806763892794349" id="-32535">
		<tag k="name" v="Dugurdstjerne" />
		<tag k="natural" v="water" />
		<tag k="ssr:stedsnr" v="311219" />
	</node>
	<node lat="60.875908333704274" lon="8.574411119064816" id="-32548">
		<tag k="name" v="Synebekken" />
		<tag k="ssr:stedsnr" v="312786" />
		<tag k="waterway" v="stream" />
	</node>
	<node lat="60.84028147345617" lon="8.734949188627592" id="-32557">
		<tag k="name" v="Fiskeodden" />
		<tag k="natural" v="cape" />
		<tag k="ssr:stedsnr" v="335592" />
	</node>
	<node lat="60.8939083321999" lon="8.262580550312572" id="-32559">
		<tag k="name" v="Svartebekken" />
		<tag k="ssr:stedsnr" v="335270" />
		<tag k="waterway" v="stream" />
	</node>
	<node lat="60.88166388804066" lon="8.488249992733799" id="-32572">
		<tag k="alt_name" v="Brandvollsbekken" />
		<tag k="name" v="Brandvolsbekken" />
		<tag k="ssr:stedsnr" v="335838" />
		<tag k="waterway" v="stream" />
	</node>
	<node lat="60.83024999708346" lon="8.742324994340512" id="-32577">
		<tag k="name" v="Sundodden" />
		<tag k="natural" v="cape" />
		<tag k="ssr:stedsnr" v="336473" />
	</node>
	<node lat="61.074416669665574" lon="8.289061102270402" id="-32583">
		<tag k="name" v="Grøndalsbottvatnet" />
		<tag k="natural" v="water" />
		<tag k="ssr:stedsnr" v="370651" />
		<tag k="water" v="lake" />
	</node>
	<node lat="61.01297500201691" lon="8.298852770364862" id="-32584">
		<tag k="name" v="Jukletjerne" />
		<tag k="natural" v="water" />
		<tag k="ssr:stedsnr" v="371743" />
	</node>
	<node lat="60.87316389080093" lon="8.774138895821912" id="-32586">
		<tag k="name" v="Notodden" />
		<tag k="natural" v="cape" />
		<tag k="ssr:stedsnr" v="372145" />
	</node>
	<node lat="60.79755278118346" lon="8.695352778821297" id="-32606">
		<tag k="name" v="Flåmyrkanalen" />
		<tag k="ssr:stedsnr" v="396262" />
		<tag k="waterway" v="stream" />
	</node>
	<node lat="60.83814988095631" lon="8.724458207134822" id="-32613">
		<tag k="name" v="Herbrandvika" />
		<tag k="natural" v="bay" />
		<tag k="ssr:stedsnr" v="396556" />
	</node>
	<node lat="60.81067777656351" lon="8.664738892568442" id="-32616">
		<tag k="name" v="Skarsstronde" />
		<tag k="natural" v="beach" />
		<tag k="ssr:stedsnr" v="396570" />
	</node>
	<node lat="60.86108257609954" lon="8.728825736176661" id="-32628">
		<tag k="name" v="Attjerne" />
		<tag k="natural" v="water" />
		<tag k="ssr:stedsnr" v="433150" />
	</node>
	<node lat="60.812688590900876" lon="8.609222412155711" id="-32631">
		<tag k="name" v="Horntjerne" />
		<tag k="natural" v="water" />
		<tag k="ssr:stedsnr" v="433217" />
	</node>
	<node lat="60.807855554043215" lon="8.722144451069392" id="-32632">
		<tag k="name" v="Djupedalsbekken" />
		<tag k="ssr:stedsnr" v="433222" />
		<tag k="waterway" v="stream" />
	</node>
	<node lat="60.88325833601729" lon="8.260358328807333" id="-32633">
		<tag k="name" v="Svartebekken" />
		<tag k="ssr:stedsnr" v="433547" />
		<tag k="waterway" v="stream" />
	</node>
	<node lat="60.89654166292996" lon="8.333827778341753" id="-32642">
		<tag k="name" v="Storeskardbekken" />
		<tag k="ssr:stedsnr" v="433594" />
		<tag k="waterway" v="stream" />
	</node>
	<node lat="60.91737499777585" lon="8.619655564063352" id="-32646">
		<tag k="name" v="Nordre Grunntjerne" />
		<tag k="natural" v="water" />
		<tag k="ssr:stedsnr" v="433849" />
	</node>
	<node lat="60.877280553799515" lon="8.539458328922812" id="-32654">
		<tag k="name" v="Haugsbekken" />
		<tag k="ssr:stedsnr" v="434779" />
		<tag k="waterway" v="stream" />
	</node>
	<node lat="60.891750001935215" lon="8.472674998914878" id="-32656">
		<tag k="name" v="Kvitingtjerne" />
		<tag k="natural" v="water" />
		<tag k="ssr:stedsnr" v="434793" />
	</node>
	<node lat="60.83281111198062" lon="8.413711108176487" id="-32661">
		<tag k="name" v="Fagerdøla" />
		<tag k="ssr:stedsnr" v="517677" />
		<tag k="waterway" v="river" />
	</node>
	<node lat="60.90218888997075" lon="8.436502771088952" id="-32665">
		<tag k="name" v="Løgnåne" />
		<tag k="ssr:stedsnr" v="517653" />
		<tag k="waterway" v="river" />
	</node>
	<node lat="60.856513891844706" lon="8.71970832752902" id="-32675">
		<tag k="name" v="Killingøyne" />
		<tag k="place" v="island" />
		<tag k="ssr:stedsnr" v="518676" />
	</node>
	<node lat="60.84470705322956" lon="8.470360717416474" id="-32679">
		<tag k="name" v="Kjeltjerne" />
		<tag k="natural" v="water" />
		<tag k="ssr:stedsnr" v="554180" />
	</node>
	<node lat="60.82542063728959" lon="8.745305058906041" id="-32683">
		<tag k="name" v="Vestretjerne" />
		<tag k="natural" v="water" />
		<tag k="ssr:stedsnr" v="554223" />
	</node>
	<node lat="60.945741669061015" lon="8.376769446886906" id="-32694">
		<tag k="name" v="Feten" />
		<tag k="place" v="island" />
		<tag k="ssr:stedsnr" v="554560" />
	</node>
	<node lat="60.850524998199255" lon="8.381127784146864" id="-32699">
		<tag k="name" v="Botnabekken" />
		<tag k="ssr:stedsnr" v="554929" />
		<tag k="waterway" v="stream" />
	</node>
	<node lat="60.839999996357875" lon="8.412577772214787" id="-32701">
		<tag k="name" v="Stilla" />
		<tag k="natural" v="water" />
		<tag k="ssr:stedsnr" v="554936" />
		<tag k="water" v="lake" />
	</node>
	<node lat="60.88559167096984" lon="8.893247221525689" id="-32723">
		<tag k="name" v="Greineløken" />
		<tag k="ssr:stedsnr" v="579425" />
		<tag k="waterway" v="stream" />
	</node>
	<node lat="60.85706944172352" lon="8.68469999201805" id="-32728">
		<tag k="name" v="Løkjevadtjerne" />
		<tag k="natural" v="water" />
		<tag k="ssr:stedsnr" v="614145" />
	</node>
	<node lat="60.858675000549965" lon="8.638358342227347" id="-32729">
		<tag k="name" v="Olatjerne" />
		<tag k="natural" v="water" />
		<tag k="ssr:stedsnr" v="614147" />
	</node>
	<node lat="61.04204166865231" lon="8.349975000731494" id="-32735">
		<tag k="name" v="Nevreskardtjerne" />
		<tag k="natural" v="water" />
		<tag k="ssr:stedsnr" v="613641" />
	</node>
	<node lat="60.91626389125493" lon="8.214213896649454" id="-32747">
		<tag k="alt_name" v="Myrkedøla" />
		<tag k="name" v="Mørkedøla" />
		<tag k="ssr:stedsnr" v="615583" />
		<tag k="waterway" v="river" />
	</node>
	<node lat="60.90810000207085" lon="8.675313890879798" id="-32752">
		<tag k="name" v="Store Sandåne" />
		<tag k="ssr:stedsnr" v="615815" />
		<tag k="waterway" v="stream" />
	</node>
	<node lat="60.86160555137603" lon="8.385561119589312" id="-32754">
		<tag k="name" v="Storskriubekken" />
		<tag k="ssr:stedsnr" v="615933" />
		<tag k="waterway" v="stream" />
	</node>
	<node lat="60.870600000192475" lon="8.908405562975048" id="-32755">
		<tag k="name" v="Flyberg" />
		<tag k="place" v="island" />
		<tag k="ssr:stedsnr" v="616394" />
	</node>
	<node lat="60.88656388790222" lon="8.460402771188276" id="-32757">
		<tag k="name" v="Kroken" />
		<tag k="natural" v="cape" />
		<tag k="ssr:stedsnr" v="638792" />
	</node>
	<node lat="60.89460555613209" lon="8.438333325682924" id="-32773">
		<tag k="name" v="Oset" />
		<tag k="natural" v="bay" />
		<tag k="ssr:stedsnr" v="638635" />
	</node>
	<node lat="60.840547226359526" lon="8.764083339166753" id="-32780">
		<tag k="name" v="Dokkbekken" />
		<tag k="ssr:stedsnr" v="639497" />
		<tag k="waterway" v="stream" />
	</node>
	<node lat="60.87495278180883" lon="8.867066672210559" id="-32782">
		<tag k="name" v="Tømmervika" />
		<tag k="natural" v="bay" />
		<tag k="ssr:stedsnr" v="639399" />
	</node>
	<node lat="60.87836111129682" lon="8.481969445629847" id="-32788">
		<tag k="name" v="Evju" />
		<tag k="ssr:stedsnr" v="725455" />
		<tag k="waterway" v="river" />
	</node>
	<node lat="60.8587527780777" lon="8.666241670237087" id="-32793">
		<tag k="name" v="Lintjerne" />
		<tag k="natural" v="water" />
		<tag k="ssr:stedsnr" v="736153" />
	</node>
	<node lat="60.83900931181599" lon="8.695767953565376" id="-32795">
		<tag k="name" v="Gørrtjerne" />
		<tag k="natural" v="water" />
		<tag k="ssr:stedsnr" v="736194" />
	</node>
	<node lat="60.80678332914913" lon="8.587208332884227" id="-32805">
		<tag k="name" v="Mellomtjerne" />
		<tag k="natural" v="water" />
		<tag k="ssr:stedsnr" v="737220" />
	</node>
	<node lat="60.8649416692107" lon="8.7300083389501" id="-32807">
		<tag k="name" v="Bukonebekken" />
		<tag k="ssr:stedsnr" v="760663" />
		<tag k="waterway" v="stream" />
	</node>
	<node lat="60.87668611503214" lon="8.832241667752461" id="-32816">
		<tag k="name" v="Kælkenden" />
		<tag k="natural" v="bay" />
		<tag k="ssr:stedsnr" v="760600" />
	</node>
	<node lat="60.83323121069789" lon="8.584102375865408" id="-32822">
		<tag k="name" v="Gamledøla" />
		<tag k="ssr:stedsnr" v="760971" />
		<tag k="waterway" v="stream" />
	</node>
	<node lat="60.831308331916546" lon="8.745883325984721" id="-32824">
		<tag k="name" v="Halvfarøyne" />
		<tag k="place" v="islet" />
		<tag k="ssr:stedsnr" v="761539" />
	</node>
	<node lat="60.86319722356978" lon="8.76850832818268" id="-32831">
		<tag k="alt_name" v="Storevatn" />
		<tag k="name" v="Storevatnet" />
		<tag k="natural" v="water" />
		<tag k="ssr:stedsnr" v="797139" />
		<tag k="water" v="lake" />
	</node>
	<node lat="60.86431939051252" lon="8.744465408272506" id="-32832">
		<tag k="alt_name" v="Elvik" />
		<tag k="name" v="Elvikvatnet" />
		<tag k="natural" v="water" />
		<tag k="ssr:stedsnr" v="797140" />
		<tag k="water" v="lake" />
	</node>
	<node lat="60.87111666665929" lon="8.839894440081915" id="-32834">
		<tag k="name" v="Nøra" />
		<tag k="ssr:stedsnr" v="797143" />
		<tag k="waterway" v="river" />
	</node>
	<node lat="60.97194166830246" lon="8.516491674124456" id="-32853">
		<tag k="name" v="Lysebotnåne" />
		<tag k="ssr:stedsnr" v="821145" />
		<tag k="waterway" v="river" />
	</node>
	<node lat="60.78318610805106" lon="8.623363894116736" id="-32857">
		<tag k="name" v="Rundhaugtjerne" />
		<tag k="natural" v="water" />
		<tag k="ssr:stedsnr" v="821237" />
	</node>
	<node lat="60.79346111013437" lon="8.703486110496659" id="-32858">
		<tag k="name" v="Bagøyne" />
		<tag k="place" v="island" />
		<tag k="ssr:stedsnr" v="821294" />
	</node>
	<node lat="60.778238886055654" lon="8.624852776322275" id="-32862">
		<tag k="name" v="Fløbekken" />
		<tag k="ssr:stedsnr" v="821259" />
		<tag k="waterway" v="stream" />
	</node>
	<node lat="60.842416667848795" lon="8.45973334063955" id="-32868">
		<tag k="name" v="Fløgatjerne" />
		<tag k="natural" v="water" />
		<tag k="ssr:stedsnr" v="821689" />
	</node>
	<node lat="60.84283610933719" lon="8.757433341229824" id="-32874">
		<tag k="name" v="Nystølodden" />
		<tag k="natural" v="cape" />
		<tag k="ssr:stedsnr" v="822524" />
	</node>
	<node lat="60.87751666913239" lon="8.527049999377216" id="-32880">
		<tag k="name" v="Finndøla" />
		<tag k="ssr:stedsnr" v="858837" />
		<tag k="waterway" v="stream" />
	</node>
	<node lat="60.896505555682175" lon="8.474500001590247" id="-32883">
		<tag k="alt_name" v="Brandvollsleintjerne" />
		<tag k="name" v="Brandvolsleintjerne" />
		<tag k="natural" v="water" />
		<tag k="ssr:stedsnr" v="858848" />
	</node>
	<node lat="61.0606750034055" lon="8.324900000002174" id="-32888">
		<tag k="name" v="Bjørnatjerne" />
		<tag k="natural" v="water" />
		<tag k="ssr:stedsnr" v="856663" />
	</node>
	<node lat="60.828700002327395" lon="8.765313895653746" id="-32893">
		<tag k="name" v="Tryteholone" />
		<tag k="natural" v="bay" />
		<tag k="ssr:stedsnr" v="858217" />
	</node>
	<node lat="60.85764166500214" lon="8.421649997412397" id="-32907">
		<tag k="name" v="Lauvdøla" />
		<tag k="ssr:stedsnr" v="858933" />
		<tag k="waterway" v="river" />
	</node>
	<node lat="60.82946666963731" lon="8.762941671532941" id="-32911">
		<tag k="name" v="Toriodden" />
		<tag k="natural" v="cape" />
		<tag k="ssr:stedsnr" v="883570" />
	</node>
	<node lat="60.836043654119486" lon="8.729047602998579" id="-32939">
		<tag k="name" v="Trytevika" />
		<tag k="natural" v="bay" />
		<tag k="ssr:stedsnr" v="942573" />
	</node>
	<node lat="60.83918576922216" lon="8.736983930444381" id="-32940">
		<tag k="name" v="Steinarodden" />
		<tag k="natural" v="cape" />
		<tag k="ssr:stedsnr" v="942577" />
	</node>
	<node lat="60.84790555787358" lon="8.420105547443155" id="-32945">
		<tag k="name" v="Botnabekken" />
		<tag k="ssr:stedsnr" v="942739" />
		<tag k="waterway" v="river" />
	</node>
	<node lat="60.858470666025895" lon="8.56689685562864" id="-32954">
		<tag k="name" v="Langøyne" />
		<tag k="natural" v="cape" />
		<tag k="ssr:stedsnr" v="942925" />
	</node>
	<node lat="60.87324444589252" lon="8.77569722995181" id="-32963">
		<tag k="name" v="Nordre Ranavik" />
		<tag k="natural" v="bay" />
		<tag k="ssr:stedsnr" v="943331" />
	</node>
	<node lat="60.87617500392701" lon="8.850958333355715" id="-32976">
		<tag k="name" v="Nedre Lomtjerne" />
		<tag k="natural" v="water" />
		<tag k="ssr:stedsnr" v="943747" />
	</node>
	<node lat="60.87866657469146" lon="8.854318398132179" id="-33156">
		<tag k="name" v="Øvre Lomtjerne" />
		<tag k="natural" v="water" />
		<tag k="ssr:stedsnr" v="1076424" />
	</node>
</osm>
