<?xml version="1.0" encoding="UTF-8"?>
<osm generator="osmapis" version="0.6">
	<node id="-210687" lat="68.1701083367" lon="15.677111106">
		<tag k="fixme" v="consider boundary=protected_area and relevant protect_class if not nature reserve" />
		<tag k="leisure" v="nature_reserve" />
		<tag k="name" v="Steinosen/Sjømyrpollen naturreservat" />
		<tag k="name:no" v="Steinosen/Sjømyrpollen naturreservat" />
		<tag k="ssr:stedsnr" v="898189" />
	</node>
	<node id="-210590" lat="68.01690556" lon="15.419236101">
		<tag k="fixme" v="consider boundary=protected_area and relevant protect_class if not nature reserve" />
		<tag k="leisure" v="nature_reserve" />
		<tag k="name" v="Steinslandsvatnet naturreservat" />
		<tag k="name:no" v="Steinslandsvatnet naturreservat" />
		<tag k="ssr:stedsnr" v="655076" />
	</node>
	<node id="-209852" lat="67.945224512" lon="16.8333188699">
		<tag k="historic" v="boundary_stone" />
		<tag k="man_made" v="cairn" />
		<tag k="name" v="Perne Olleki-røysa" />
		<tag k="name:no" v="Perne Olleki-røysa" />
		<tag k="old_name:no" v="Perne Olleki Røset;Perni Ollekti røys" />
		<tag k="place" v="locality" />
		<tag k="ssr:stedsnr" v="231164" />
	</node>
	<node id="-211412" lat="67.6491444431" lon="16.553119437">
		<tag k="historic" v="boundary_stone" />
		<tag k="man_made" v="cairn" />
		<tag k="name" v="Sávzzas - Savzasvarre" />
		<tag k="name:no" v="Savzasvarre" />
		<tag k="name:smj" v="Sávzzas" />
		<tag k="place" v="locality" />
		<tag k="ssr:stedsnr" v="101133" />
	</node>
	<node id="-209651" lat="67.9142138869" lon="16.7381277867">
		<tag k="historic" v="boundary_stone" />
		<tag k="man_made" v="cairn" />
		<tag k="name" v="Rikkehkrøysa" />
		<tag k="name:no" v="Rikkehkrøysa" />
		<tag k="old_name:no" v="Letnavardo Røset;Letnavarddo røys" />
		<tag k="place" v="locality" />
		<tag k="ssr:stedsnr" v="292124" />
	</node>
	<node id="-210440" lat="68.0035277778" lon="15.3680583412">
		<tag k="fixme" v="consider boundary=protected_area and relevant protect_class if not nature reserve" />
		<tag k="leisure" v="nature_reserve" />
		<tag k="name" v="Steinlandsosen naturreservat" />
		<tag k="name:no" v="Steinlandsosen naturreservat" />
		<tag k="ssr:stedsnr" v="534606" />
	</node>
	<node id="-210669" lat="68.2037333337" lon="15.9640333255">
		<tag k="fixme" v="consider boundary=protected_area and relevant protect_class if not nature reserve" />
		<tag k="leisure" v="nature_reserve" />
		<tag k="name" v="Tiltvika naturreservat" />
		<tag k="name:no" v="Tiltvika naturreservat" />
		<tag k="ssr:stedsnr" v="715389" />
	</node>
	<node id="-209342" lat="67.5341222256" lon="16.4076638939">
		<tag k="historic" v="boundary_stone" />
		<tag k="man_made" v="cairn" />
		<tag k="name" v="Hurrerøysa" />
		<tag k="name:no" v="Hurrerøysa" />
		<tag k="old_name:no" v="Hurri Røset;Hurre røys" />
		<tag k="place" v="locality" />
		<tag k="ssr:stedsnr" v="231753" />
	</node>
	<node id="-210728" lat="68.0008222202" lon="16.0016027855">
		<tag k="fixme" v="consider boundary=protected_area and relevant protect_class if not nature reserve" />
		<tag k="leisure" v="nature_reserve" />
		<tag k="name" v="Trollpollen naturreservat" />
		<tag k="name:no" v="Trollpollen naturreservat" />
		<tag k="ssr:stedsnr" v="899713" />
	</node>
	<node id="-213218" lat="68.0339638859" lon="15.9686861097">
		<tag k="fixme" v="consider boundary=protected_area and relevant protect_class if not nature reserve" />
		<tag k="leisure" v="nature_reserve" />
		<tag k="name" v="Kvannskogen naturreservat" />
		<tag k="name:no" v="Kvannskogen naturreservat" />
		<tag k="ssr:stedsnr" v="838133" />
	</node>
</osm>
