<?xml version="1.0" encoding="UTF-8"?>
<osm version="0.6" generator="osmapis">
	<node lat="68.18274722243906" lon="15.635344455850666" id="-22762">
		<tag k="name" v="Langtjønna" />
		<tag k="natural" v="water" />
		<tag k="ssr:stedsnr" v="230075" />
	</node>
	<node lat="68.07469721912528" lon="15.877991654008289" id="-22765">
		<tag k="name" v="Roparneset" />
		<tag k="natural" v="cape" />
		<tag k="ssr:stedsnr" v="230251" />
	</node>
	<node lat="68.06764166701842" lon="15.868083341820936" id="-22766">
		<tag k="name" v="Tverråssanden" />
		<tag k="natural" v="beach" />
		<tag k="ssr:stedsnr" v="230258" />
	</node>
	<node lat="68.14075278112429" lon="15.996255544950131" id="-22776">
		<tag k="name" v="Kjosholmen" />
		<tag k="place" v="islet" />
		<tag k="ssr:stedsnr" v="230661" />
	</node>
	<node lat="67.84931388826985" lon="15.833900000109105" id="-22797">
		<tag k="name" v="Storbukta" />
		<tag k="natural" v="bay" />
		<tag k="ssr:stedsnr" v="231215" />
	</node>
	<node lat="67.82843611215996" lon="15.968797231110074" id="-22799">
		<tag k="name" v="Leirelva" />
		<tag k="ssr:stedsnr" v="231284" />
		<tag k="waterway" v="stream" />
	</node>
	<node lat="67.8321416628004" lon="15.981874991162144" id="-22801">
		<tag k="alt_name" v="Likkjholmen" />
		<tag k="name" v="Litlholmen" />
		<tag k="place" v="islet" />
		<tag k="ssr:stedsnr" v="231289" />
	</node>
	<node lat="68.05783888649493" lon="15.47528056441853" id="-22808">
		<tag k="name" v="Teinhola" />
		<tag k="place" v="locality" />
		<tag k="ssr:stedsnr" v="231365" />
	</node>
	<node lat="68.0728416687579" lon="15.970102784343196" id="-22815">
		<tag k="name" v="Andersvika" />
		<tag k="natural" v="bay" />
		<tag k="ssr:stedsnr" v="231758" />
	</node>
	<node lat="67.80593332938798" lon="16.37391388972905" id="-22826">
		<tag k="name" v="Hujtakjávrre" />
		<tag k="name:smj" v="Hujtakjávrre" />
		<tag k="natural" v="water" />
		<tag k="old_name:smj" v="Huittagjávri" />
		<tag k="ssr:stedsnr" v="17155" />
		<tag k="water" v="lake" />
	</node>
	<node lat="68.06853888599488" lon="15.886036100011976" id="-22830">
		<tag k="name" v="Smørvika" />
		<tag k="natural" v="bay" />
		<tag k="ssr:stedsnr" v="17608" />
	</node>
	<node lat="67.93320833434974" lon="15.92115833281137" id="-22836">
		<tag k="name" v="Djupvatnet" />
		<tag k="natural" v="water" />
		<tag k="ssr:stedsnr" v="17660" />
	</node>
	<node lat="67.68218055584504" lon="16.41675000480989" id="-22837">
		<tag k="name" v="Hierggejávrre - Reinoksvatnet" />
		<tag k="name:no" v="Reinoksvatnet" />
		<tag k="name:smj" v="Hierggejávrre" />
		<tag k="natural" v="water" />
		<tag k="old_name:smj" v="Heargejávri" />
		<tag k="ssr:stedsnr" v="17661" />
		<tag k="water" v="lake" />
	</node>
	<node lat="68.1350138872207" lon="15.684108322713493" id="-22844">
		<tag k="name" v="Storvatnet" />
		<tag k="natural" v="water" />
		<tag k="ssr:stedsnr" v="17736" />
	</node>
	<node lat="67.69956111428473" lon="16.165019443395312" id="-22845">
		<tag k="name" v="Stillelva" />
		<tag k="ssr:stedsnr" v="17744" />
		<tag k="waterway" v="river" />
	</node>
	<node lat="68.05812221991116" lon="15.472316665671014" id="-22859">
		<tag k="name" v="Haukåselva" />
		<tag k="ssr:stedsnr" v="17957" />
		<tag k="waterway" v="stream" />
	</node>
	<node lat="68.06228889198789" lon="15.611744448296886" id="-22860">
		<tag k="name" v="Litlvatnet" />
		<tag k="natural" v="water" />
		<tag k="ssr:stedsnr" v="17961" />
	</node>
	<node lat="67.76089722404723" lon="16.033061101025528" id="-22883">
		<tag k="name" v="Nerholmen" />
		<tag k="place" v="islet" />
		<tag k="ssr:stedsnr" v="48806" />
	</node>
	<node lat="67.8306888905308" lon="15.978869454571992" id="-22892">
		<tag k="name" v="Storholmen" />
		<tag k="place" v="islet" />
		<tag k="ssr:stedsnr" v="49309" />
	</node>
	<node lat="67.85701111255213" lon="16.007574994312698" id="-22896">
		<tag k="name" v="Løelva" />
		<tag k="ssr:stedsnr" v="49270" />
		<tag k="waterway" v="stream" />
	</node>
	<node lat="68.03162500156544" lon="15.361397212485805" id="-22897">
		<tag k="name" v="Storholmen" />
		<tag k="place" v="islet" />
		<tag k="ssr:stedsnr" v="49220" />
	</node>
	<node lat="67.75609999829517" lon="16.02431388982366" id="-22911">
		<tag k="alt_name" v="Fiskgrunnen" />
		<tag k="name" v="Feskgrunnen" />
		<tag k="natural" v="shoal" />
		<tag k="place" v="locality" />
		<tag k="ssr:stedsnr" v="77254" />
	</node>
	<node lat="67.77145278211532" lon="15.98955278146028" id="-22912">
		<tag k="name" v="Sjuendvasselva" />
		<tag k="ssr:stedsnr" v="77262" />
		<tag k="waterway" v="river" />
	</node>
	<node lat="67.88976111060082" lon="15.80714722109905" id="-22913">
		<tag k="alt_name" v="Raudhellvatnet" />
		<tag k="name" v="Rødhellvatnet" />
		<tag k="natural" v="water" />
		<tag k="ssr:stedsnr" v="77402" />
	</node>
	<node lat="68.03956388663505" lon="15.38191389514201" id="-22926">
		<tag k="name" v="Mørkvatnet" />
		<tag k="natural" v="water" />
		<tag k="ssr:stedsnr" v="77906" />
	</node>
	<node lat="68.11625833609762" lon="15.53568055218054" id="-22928">
		<tag k="name" v="Per Olsavatnet" />
		<tag k="natural" v="water" />
		<tag k="ssr:stedsnr" v="78011" />
	</node>
	<node lat="68.11903333552367" lon="15.662827789143167" id="-22929">
		<tag k="name" v="Brennvikvatnet" />
		<tag k="natural" v="water" />
		<tag k="ssr:stedsnr" v="78001" />
		<tag k="water" v="lake" />
	</node>
	<node lat="67.91077499977645" lon="16.37596943170745" id="-22933">
		<tag k="name" v="Runndagåpjávrre" />
		<tag k="name:smj" v="Runndagåpjávrre" />
		<tag k="natural" v="water" />
		<tag k="old_name:smj" v="Rundagobejávri" />
		<tag k="ssr:stedsnr" v="78319" />
		<tag k="water" v="lake" />
	</node>
	<node lat="67.87089166319198" lon="15.897752772392897" id="-22937">
		<tag k="name" v="Nerstraumhalsen" />
		<tag k="natural" v="cape" />
		<tag k="ssr:stedsnr" v="78406" />
	</node>
	<node lat="67.99066110745764" lon="15.842622227896255" id="-22944">
		<tag k="name" v="Oterågelva" />
		<tag k="ssr:stedsnr" v="78649" />
		<tag k="waterway" v="stream" />
	</node>
	<node lat="68.13553332950659" lon="15.799755560948839" id="-22949">
		<tag k="name" v="Ospvikvatnet" />
		<tag k="natural" v="water" />
		<tag k="ssr:stedsnr" v="78699" />
	</node>
	<node lat="68.10706111369892" lon="15.848150003977612" id="-23001">
		<tag k="name" v="Grimsoselva" />
		<tag k="ssr:stedsnr" v="109304" />
		<tag k="waterway" v="stream" />
	</node>
	<node lat="68.11162500069639" lon="15.535063896493014" id="-23006">
		<tag k="name" v="Mølnbekken" />
		<tag k="ssr:stedsnr" v="109426" />
		<tag k="waterway" v="stream" />
	</node>
	<node lat="68.12331944324356" lon="15.478038891975467" id="-23007">
		<tag k="name" v="Mjåsundelva" />
		<tag k="ssr:stedsnr" v="109472" />
		<tag k="waterway" v="river" />
	</node>
	<node lat="67.76261666458639" lon="16.014961102873567" id="-23025">
		<tag k="name" v="Skuhtjamjávrre - Sjuendvatnet" />
		<tag k="name:no" v="Sjuendvatnet" />
		<tag k="name:smj" v="Skuhtjamjávrre" />
		<tag k="natural" v="water" />
		<tag k="old_name:smj" v="Skuhččamjávri" />
		<tag k="ssr:stedsnr" v="137225" />
		<tag k="water" v="lake" />
	</node>
	<node lat="67.79520555186248" lon="16.156688883252485" id="-23030">
		<tag k="name" v="Sluŋkásuoloj" />
		<tag k="name:smj" v="Sluŋkásuoloj" />
		<tag k="old_name:smj" v="Šluŋkkasuolui" />
		<tag k="place" v="island" />
		<tag k="ssr:stedsnr" v="138303" />
	</node>
	<node lat="68.05481666742367" lon="15.85664445011809" id="-23033">
		<tag k="name" v="Skarpheivatnet" />
		<tag k="natural" v="water" />
		<tag k="ssr:stedsnr" v="138607" />
	</node>
	<node lat="67.90603333593293" lon="15.864233339690752" id="-23040">
		<tag k="name" v="Sagforsen" />
		<tag k="natural" v="waterfall" />
		<tag k="ssr:stedsnr" v="138398" />
	</node>
	<node lat="68.10106666421746" lon="15.890172213700763" id="-23044">
		<tag k="name" v="Eriktjørna" />
		<tag k="natural" v="water" />
		<tag k="ssr:stedsnr" v="138697" />
	</node>
	<node lat="68.23443888655487" lon="16.04705834080494" id="-23047">
		<tag k="name" v="Leikneselva" />
		<tag k="ssr:stedsnr" v="138844" />
		<tag k="waterway" v="stream" />
	</node>
	<node lat="68.01667499549339" lon="16.34361111579339" id="-23052">
		<tag k="name" v="Kjerrvatnet" />
		<tag k="natural" v="water" />
		<tag k="ssr:stedsnr" v="138747" />
	</node>
	<node lat="68.03010833010244" lon="15.385022220431626" id="-23058">
		<tag k="fixme" v="multiple name tags, choose one and add the other to alt_name" />
		<tag k="name" v="Vågsvatnet;Lanstøvatnet" />
		<tag k="natural" v="water" />
		<tag k="ssr:stedsnr" v="138911" />
	</node>
	<node lat="67.7525555528326" lon="16.039919431796843" id="-23098">
		<tag k="name" v="Daudmannselva" />
		<tag k="ssr:stedsnr" v="259231" />
		<tag k="waterway" v="river" />
	</node>
	<node lat="67.83126111423978" lon="16.41927500750109" id="-23099">
		<tag k="name" v="Stuornjirám" />
		<tag k="name:smj" v="Stuornjirám" />
		<tag k="old_name:smj" v="Stuornjiram" />
		<tag k="ssr:stedsnr" v="259341" />
		<tag k="waterway" v="stream" />
	</node>
	<node lat="67.82588888910351" lon="16.58423889628006" id="-23100">
		<tag k="name" v="Gussavágjávrre" />
		<tag k="name:smj" v="Gussavágjávrre" />
		<tag k="natural" v="water" />
		<tag k="old_name:smj" v="Gussavakkejávri" />
		<tag k="ssr:stedsnr" v="259342" />
		<tag k="water" v="lake" />
	</node>
	<node lat="67.83627499733758" lon="16.507797211083663" id="-23101">
		<tag k="name" v="Gállotjåhkjávrre" />
		<tag k="name:smj" v="Gállotjåhkjávrre" />
		<tag k="natural" v="water" />
		<tag k="old_name:smj" v="Gállocohkajávri" />
		<tag k="ssr:stedsnr" v="259344" />
	</node>
	<node lat="68.06492778075484" lon="15.707238891310288" id="-23105">
		<tag k="alt_name" v="Hansvatnan" />
		<tag k="name" v="Hansvatnet" />
		<tag k="natural" v="water" />
		<tag k="ssr:stedsnr" v="259578" />
	</node>
	<node lat="67.64245000338177" lon="16.33637778594888" id="-23110">
		<tag k="name" v="Boartejávrre" />
		<tag k="name:smj" v="Boartejávrre" />
		<tag k="natural" v="water" />
		<tag k="old_name:smj" v="Boartajávri" />
		<tag k="ssr:stedsnr" v="259609" />
		<tag k="water" v="lake" />
	</node>
	<node lat="68.095972221199" lon="15.627163899944357" id="-23112">
		<tag k="fixme" v="multiple name tags, choose one and add the other to alt_name" />
		<tag k="name" v="Djupvikosen;Djupvika" />
		<tag k="natural" v="bay" />
		<tag k="ssr:stedsnr" v="259611" />
	</node>
	<node lat="68.07047500375629" lon="15.832277782242613" id="-23116">
		<tag k="name" v="Vassøya" />
		<tag k="place" v="island" />
		<tag k="ssr:stedsnr" v="259633" />
	</node>
	<node lat="67.74052222060467" lon="16.55756666787477" id="-23117">
		<tag k="name" v="Ræhtjájåhkå" />
		<tag k="name:smj" v="Ræhtjájåhkå" />
		<tag k="old_name:smj" v="Hievstenjohka" />
		<tag k="ssr:stedsnr" v="259635" />
		<tag k="waterway" v="stream" />
	</node>
	<node lat="67.9877222240987" lon="15.856811106046013" id="-23118">
		<tag k="name" v="Mølnvatnet" />
		<tag k="natural" v="water" />
		<tag k="ssr:stedsnr" v="259639" />
	</node>
	<node lat="67.99702222600119" lon="15.911750003595662" id="-23119">
		<tag k="alt_name" v="Buktelva" />
		<tag k="name" v="Buktaelva" />
		<tag k="ssr:stedsnr" v="259642" />
		<tag k="waterway" v="stream" />
	</node>
	<node lat="67.98404722453982" lon="16.16727778545423" id="-23120">
		<tag k="loc_name:no" v="Tennsvatnet;Helland-Tennvatnet" />
		<tag k="loc_name:smj" v="Suolojjávrre" />
		<tag k="name" v="Tennvatnet" />
		<tag k="name:no" v="Tennvatnet" />
		<tag k="natural" v="water" />
		<tag k="ssr:stedsnr" v="259656" />
	</node>
	<node lat="68.10135833331083" lon="15.982091658717838" id="-23121">
		<tag k="alt_name" v="Lomtjørna" />
		<tag k="name" v="Lomtjønna" />
		<tag k="natural" v="water" />
		<tag k="ssr:stedsnr" v="259668" />
	</node>
	<node lat="68.05774444054813" lon="15.830955563915461" id="-23133">
		<tag k="name" v="Skjevågelva" />
		<tag k="ssr:stedsnr" v="259583" />
		<tag k="waterway" v="stream" />
	</node>
	<node lat="68.11755833440694" lon="15.594144438254926" id="-23140">
		<tag k="name" v="Øyjordskogvatnet" />
		<tag k="natural" v="water" />
		<tag k="ssr:stedsnr" v="260018" />
	</node>
	<node lat="68.12385833309678" lon="15.599119441627742" id="-23141">
		<tag k="alt_name" v="Lomtjørna" />
		<tag k="name" v="Lomtjønna" />
		<tag k="natural" v="water" />
		<tag k="ssr:stedsnr" v="260033" />
	</node>
	<node lat="68.11278611135585" lon="15.607747217819943" id="-23142">
		<tag k="name" v="Hesskogosen" />
		<tag k="natural" v="bay" />
		<tag k="ssr:stedsnr" v="260042" />
	</node>
	<node lat="67.85479444280291" lon="16.673824992836387" id="-23147">
		<tag k="loc_name:smj" v="Sválesvákjávrre" />
		<tag k="name" v="Badje-Sválasvágjávrre" />
		<tag k="name:smj" v="Badje-Sválasvágjávrre" />
		<tag k="natural" v="water" />
		<tag k="old_name:smj" v="Sválesvakkejávri, bajimus" />
		<tag k="ssr:stedsnr" v="260397" />
		<tag k="water" v="lake" />
	</node>
	<node lat="67.99126944661256" lon="16.768858334619967" id="-23148">
		<tag k="name" v="Forsen" />
		<tag k="natural" v="waterfall" />
		<tag k="ssr:stedsnr" v="260486" />
	</node>
	<node lat="67.93482222280542" lon="15.965177784186567" id="-23150">
		<tag k="name" v="Steinbakkvatnet" />
		<tag k="natural" v="water" />
		<tag k="ssr:stedsnr" v="260657" />
	</node>
	<node lat="68.12674722304958" lon="15.978802787988855" id="-23159">
		<tag k="name" v="Knutholmen" />
		<tag k="place" v="islet" />
		<tag k="ssr:stedsnr" v="260750" />
	</node>
	<node lat="67.5883888901116" lon="16.379327775732456" id="-23167">
		<tag k="name" v="Gasskajåhkå - Mellomelva" />
		<tag k="name:no" v="Mellomelva" />
		<tag k="name:smj" v="Gasskajåhkå" />
		<tag k="old_name:smj" v="Gaskajohka" />
		<tag k="ssr:stedsnr" v="260777" />
		<tag k="waterway" v="stream" />
	</node>
	<node lat="67.60135000419886" lon="16.36264999720063" id="-23169">
		<tag k="name" v="Ridoalgejávrre" />
		<tag k="name:smj" v="Ridoalgejávrre" />
		<tag k="natural" v="water" />
		<tag k="old_name:smj" v="Ridoalggijávri" />
		<tag k="ssr:stedsnr" v="260791" />
		<tag k="water" v="lake" />
	</node>
	<node lat="67.5944499971849" lon="16.472624993647635" id="-23170">
		<tag k="name" v="Luoppar - Elvkjosen" />
		<tag k="name:no" v="Elvkjosen" />
		<tag k="name:smj" v="Luoppar" />
		<tag k="natural" v="water" />
		<tag k="old_name:smj" v="Luoppal" />
		<tag k="ssr:stedsnr" v="260792" />
	</node>
	<node lat="67.8394555528434" lon="15.836127766813219" id="-23175">
		<tag k="name" v="Langodden" />
		<tag k="natural" v="cape" />
		<tag k="ssr:stedsnr" v="170219" />
	</node>
	<node lat="67.8511333329705" lon="15.93601389154841" id="-23178">
		<tag k="name" v="Lamelva" />
		<tag k="ssr:stedsnr" v="170265" />
		<tag k="waterway" v="stream" />
	</node>
	<node lat="67.85221110751908" lon="15.961491666348357" id="-23179">
		<tag k="name" v="Gardsnes" />
		<tag k="natural" v="cape" />
		<tag k="ssr:stedsnr" v="170267" />
	</node>
	<node lat="68.05430278037822" lon="15.469575010694752" id="-23184">
		<tag k="name" v="Damman" />
		<tag k="natural" v="water" />
		<tag k="ssr:stedsnr" v="170315" />
		<tag k="water" v="pond" />
	</node>
	<node lat="68.04886944566353" lon="15.288399994647419" id="-23188">
		<tag k="name" v="Storelva" />
		<tag k="ssr:stedsnr" v="260867" />
		<tag k="waterway" v="stream" />
	</node>
	<node lat="68.13407777383537" lon="16.010608332657252" id="-23189">
		<tag k="name" v="Tennsteinskjeran" />
		<tag k="place" v="islet" />
		<tag k="ssr:stedsnr" v="170461" />
	</node>
	<node lat="68.12816111373331" lon="16.006097210447606" id="-23191">
		<tag k="name" v="Sundodden" />
		<tag k="natural" v="cape" />
		<tag k="ssr:stedsnr" v="170469" />
	</node>
	<node lat="68.00042778055303" lon="15.619436113560306" id="-23193">
		<tag k="name" v="Djupbekkan" />
		<tag k="ssr:stedsnr" v="170668" />
		<tag k="waterway" v="stream" />
	</node>
	<node lat="68.079450002141" lon="15.873752777177264" id="-23201">
		<tag k="name" v="Djupvikodden" />
		<tag k="natural" v="cape" />
		<tag k="ssr:stedsnr" v="170959" />
	</node>
	<node lat="68.11778611200961" lon="15.574447219975438" id="-23227">
		<tag k="name" v="Kulvågtjørna" />
		<tag k="natural" v="water" />
		<tag k="ssr:stedsnr" v="199016" />
	</node>
	<node lat="67.8172777817112" lon="16.606063891028803" id="-23228">
		<tag k="name" v="Gussalusspe" />
		<tag k="name:smj" v="Gussalusspe" />
		<tag k="natural" v="bay" />
		<tag k="old_name:smj" v="Gussaluspi" />
		<tag k="ssr:stedsnr" v="199156" />
	</node>
	<node lat="67.87381943985636" lon="15.864805561720434" id="-23238">
		<tag k="name" v="Storholmen" />
		<tag k="place" v="islet" />
		<tag k="ssr:stedsnr" v="199411" />
	</node>
	<node lat="67.87263888869616" lon="15.888402771843335" id="-23239">
		<tag k="alt_name" v="Ingebrigtodden" />
		<tag k="name" v="Ingebregtodden" />
		<tag k="natural" v="cape" />
		<tag k="ssr:stedsnr" v="199412" />
	</node>
	<node lat="67.86534721884763" lon="16.11276389236128" id="-23240">
		<tag k="alt_name:no" v="Kuvatnan øvre" />
		<tag k="name" v="Bajep Gussagåpjávrre - Øvre Kuvatnan" />
		<tag k="name:no" v="Øvre Kuvatnan" />
		<tag k="name:smj" v="Bajep Gussagåpjávrre" />
		<tag k="natural" v="water" />
		<tag k="old_name:smj" v="Gussagobejavri, bajit" />
		<tag k="ssr:stedsnr" v="199416" />
		<tag k="water" v="lake" />
	</node>
	<node lat="67.74226666520582" lon="16.149738877420805" id="-23245">
		<tag k="name" v="Hierggegåpjávrre - Oksereindalvatnet" />
		<tag k="name:no" v="Oksereindalvatnet" />
		<tag k="name:smj" v="Hierggegåpjávrre" />
		<tag k="natural" v="water" />
		<tag k="old_name:smj" v="Heargegobejávri" />
		<tag k="ssr:stedsnr" v="199563" />
	</node>
	<node lat="68.14058055759125" lon="15.947372232266634" id="-23253">
		<tag k="alt_name" v="Nøkkvatn" />
		<tag k="name" v="Nøkkvatnet" />
		<tag k="natural" v="water" />
		<tag k="ssr:stedsnr" v="199756" />
	</node>
	<node lat="67.82625555978932" lon="15.929194451247312" id="-23254">
		<tag k="name" v="Krokelva" />
		<tag k="ssr:stedsnr" v="199456" />
		<tag k="waterway" v="stream" />
	</node>
	<node lat="67.9452916667371" lon="16.002594440383977" id="-23258">
		<tag k="name" v="Langodden" />
		<tag k="natural" v="cape" />
		<tag k="ssr:stedsnr" v="199653" />
	</node>
	<node lat="67.68095000067316" lon="16.230177768673943" id="-23259">
		<tag k="name" v="Jierddajåhkå" />
		<tag k="name:smj" v="Jierddajåhkå" />
		<tag k="old_name:smj" v="Jierdájohka" />
		<tag k="ssr:stedsnr" v="199656" />
		<tag k="waterway" v="stream" />
	</node>
	<node lat="67.9501250028547" lon="15.795233345520973" id="-23261">
		<tag k="name" v="Pissarelva" />
		<tag k="ssr:stedsnr" v="199668" />
		<tag k="waterway" v="stream" />
	</node>
	<node lat="68.18339166370136" lon="16.125705554678785" id="-23264">
		<tag k="name" v="Stongnesvatnet" />
		<tag k="natural" v="water" />
		<tag k="ssr:stedsnr" v="199805" />
	</node>
	<node lat="67.99439444152308" lon="15.64476667658673" id="-23265">
		<tag k="name" v="Mølnelva" />
		<tag k="ssr:stedsnr" v="199903" />
		<tag k="waterway" v="stream" />
	</node>
	<node lat="67.7161416707073" lon="16.374761105247952" id="-23289">
		<tag k="name" v="Bajep Slædovágjávrre" />
		<tag k="name:smj" v="Bajep Slædovágjávrre" />
		<tag k="natural" v="water" />
		<tag k="ssr:stedsnr" v="220822" />
	</node>
	<node lat="67.8845638890018" lon="15.852316678087723" id="-23291">
		<tag k="name" v="Bergsnes" />
		<tag k="natural" v="cape" />
		<tag k="ssr:stedsnr" v="230033" />
	</node>
	<node lat="68.08043055189135" lon="15.487094443427834" id="-23296">
		<tag k="fixme" v="multiple name tags, choose one and add the other to alt_name" />
		<tag k="name" v="Mølnhågelva;Hansbakkelva" />
		<tag k="ssr:stedsnr" v="230208" />
		<tag k="waterway" v="stream" />
	</node>
	<node lat="68.12049999984318" lon="15.452752769583435" id="-23303">
		<tag k="name" v="Røyrstø" />
		<tag k="natural" v="bay" />
		<tag k="ssr:stedsnr" v="230486" />
	</node>
	<node lat="68.01671667042062" lon="15.780180545302708" id="-23316">
		<tag k="name" v="Svartvasselva" />
		<tag k="ssr:stedsnr" v="231001" />
		<tag k="waterway" v="stream" />
	</node>
	<node lat="68.09658055349139" lon="15.534147211200423" id="-23320">
		<tag k="name" v="Skjellelva" />
		<tag k="ssr:stedsnr" v="231342" />
		<tag k="waterway" v="stream" />
	</node>
	<node lat="67.97100833452481" lon="15.979983326905312" id="-23325">
		<tag k="name" v="Bjørntjønna" />
		<tag k="natural" v="water" />
		<tag k="ssr:stedsnr" v="231799" />
	</node>
	<node lat="67.99866944419139" lon="15.803572218979516" id="-23326">
		<tag k="name" v="Lomtjønnen" />
		<tag k="natural" v="water" />
		<tag k="ssr:stedsnr" v="231685" />
	</node>
	<node lat="68.12651111294244" lon="15.549930551264989" id="-23330">
		<tag k="name" v="Trollvatnet" />
		<tag k="natural" v="water" />
		<tag k="ssr:stedsnr" v="259003" />
	</node>
	<node lat="67.9287444401589" lon="16.369899999543676" id="-23332">
		<tag k="name" v="Belgajávvre" />
		<tag k="name:smj" v="Belgajávvre" />
		<tag k="natural" v="water" />
		<tag k="old_name:smj" v="Bealggajávri" />
		<tag k="ssr:stedsnr" v="259322" />
		<tag k="water" v="lake" />
	</node>
	<node lat="67.87987777799837" lon="15.861655545714914" id="-23344">
		<tag k="fixme" v="multiple name:no tags, choose one and add the other to alt_name:no" />
		<tag k="name" v="Ruohtsajávrre" />
		<tag k="name:no" v="Rotvatnet;Nervatnet" />
		<tag k="name:smj" v="Ruohtsajávrre" />
		<tag k="natural" v="water" />
		<tag k="old_name:smj" v="Ruohcajávri" />
		<tag k="ssr:stedsnr" v="259420" />
		<tag k="water" v="lake" />
	</node>
	<node lat="67.8884444479777" lon="15.85202499463156" id="-23345">
		<tag k="alt_name" v="Liholmen" />
		<tag k="name" v="Liholman" />
		<tag k="place" v="islet" />
		<tag k="ssr:stedsnr" v="259423" />
	</node>
	<node lat="67.86562499563708" lon="15.906130561113615" id="-23346">
		<tag k="name" v="Tjoalmejávrre - Strindvatnet" />
		<tag k="name:no" v="Strindvatnet" />
		<tag k="name:smj" v="Tjoalmejávrre" />
		<tag k="natural" v="water" />
		<tag k="old_name:smj" v="Čoalmejávri" />
		<tag k="ssr:stedsnr" v="259453" />
		<tag k="water" v="lake" />
	</node>
	<node lat="67.82236389140527" lon="16.031397232277122" id="-23348">
		<tag k="name" v="Lusspe" />
		<tag k="name:smj" v="Lusspe" />
		<tag k="old_name:smj" v="Luspi" />
		<tag k="place" v="locality" />
		<tag k="ssr:stedsnr" v="259464" />
	</node>
	<node lat="68.03178888885694" lon="16.661508343892457" id="-23349">
		<tag k="alt_name:no" v="Kjerringvatnet, litle" />
		<tag k="name" v="Unnep Áhkásjjávrre - Litle Kjerringvatnet" />
		<tag k="name:no" v="Litle Kjerringvatnet" />
		<tag k="name:smj" v="Unnep Áhkásjjávrre" />
		<tag k="natural" v="water" />
		<tag k="old_name:smj" v="Áhkašjávrrit" />
		<tag k="ssr:stedsnr" v="259509" />
		<tag k="water" v="lake" />
	</node>
	<node lat="68.07469999594194" lon="16.234350004234432" id="-23353">
		<tag k="name" v="Sommarsetelva" />
		<tag k="ssr:stedsnr" v="259523" />
		<tag k="waterway" v="stream" />
	</node>
	<node lat="68.06395000422424" lon="15.603858338446651" id="-23360">
		<tag k="fixme" v="multiple name tags, choose one and add the other to alt_name" />
		<tag k="name" v="Kallstadvatnet;Storvatnet" />
		<tag k="natural" v="water" />
		<tag k="ssr:stedsnr" v="259950" />
	</node>
	<node lat="68.0656527805887" lon="15.3297333397209" id="-23363">
		<tag k="name" v="Dalsosen" />
		<tag k="natural" v="bay" />
		<tag k="ssr:stedsnr" v="259960" />
	</node>
	<node lat="68.09232221902951" lon="15.96436388940888" id="-23366">
		<tag k="name" v="Krokelva" />
		<tag k="ssr:stedsnr" v="259831" />
		<tag k="waterway" v="stream" />
	</node>
	<node lat="67.87161944576546" lon="16.410755559654955" id="-23370">
		<tag k="name" v="Skåhpejåhkå - Skoppi" />
		<tag k="name:no" v="Skoppi" />
		<tag k="name:smj" v="Skåhpejåhkå" />
		<tag k="old_name:smj" v="Skohppejohka" />
		<tag k="ssr:stedsnr" v="260408" />
		<tag k="waterway" v="stream" />
	</node>
	<node lat="67.97049999600799" lon="16.74124999922873" id="-23371">
		<tag k="name" v="Nordvatnet" />
		<tag k="natural" v="water" />
		<tag k="ssr:stedsnr" v="260500" />
		<tag k="water" v="lake" />
	</node>
	<node lat="68.01439999689644" lon="15.67073888299665" id="-23375">
		<tag k="name" v="Forneselva" />
		<tag k="ssr:stedsnr" v="260553" />
		<tag k="waterway" v="stream" />
	</node>
	<node lat="68.00773889017901" lon="16.161169449098406" id="-23376">
		<tag k="name" v="Middagsvatnet" />
		<tag k="natural" v="water" />
		<tag k="ssr:stedsnr" v="260563" />
	</node>
	<node lat="68.01661944310766" lon="15.37462499965665" id="-23381">
		<tag k="name" v="Steinslandsosen" />
		<tag k="natural" v="bay" />
		<tag k="ssr:stedsnr" v="260900" />
	</node>
	<node lat="68.018572218105" lon="15.669636103801228" id="-23400">
		<tag k="name" v="Senntjønnen" />
		<tag k="natural" v="water" />
		<tag k="ssr:stedsnr" v="291029" />
	</node>
	<node lat="67.87030000087884" lon="15.890358332626846" id="-23402">
		<tag k="name" v="Smalhalsen" />
		<tag k="natural" v="cape" />
		<tag k="ssr:stedsnr" v="291080" />
	</node>
	<node lat="68.11792500173254" lon="15.468080562968211" id="-23406">
		<tag k="name" v="Storfosselva" />
		<tag k="ssr:stedsnr" v="291531" />
		<tag k="waterway" v="stream" />
	</node>
	<node lat="68.14920555159853" lon="15.889349996944649" id="-23414">
		<tag k="name" v="Kvalviktjønna" />
		<tag k="natural" v="water" />
		<tag k="ssr:stedsnr" v="291688" />
	</node>
	<node lat="68.1263055518791" lon="15.417019453141343" id="-23429">
		<tag k="fixme" v="multiple name tags, choose one and add the other to alt_name" />
		<tag k="name" v="Leira;Hopleira" />
		<tag k="natural" v="bay" />
		<tag k="ssr:stedsnr" v="320123" />
	</node>
	<node lat="68.1614888898887" lon="15.610916655250387" id="-23437">
		<tag k="name" v="Fartøyosen" />
		<tag k="natural" v="bay" />
		<tag k="ssr:stedsnr" v="320078" />
	</node>
	<node lat="68.13381110998876" lon="15.907519443979782" id="-23457">
		<tag k="name" v="Anderselva" />
		<tag k="ssr:stedsnr" v="320684" />
		<tag k="waterway" v="stream" />
	</node>
	<node lat="68.00480833331225" lon="15.472691661282651" id="-23462">
		<tag k="name" v="Kjosen" />
		<tag k="natural" v="bay" />
		<tag k="ssr:stedsnr" v="320841" />
	</node>
	<node lat="68.06284166293376" lon="16.068824990266663" id="-23466">
		<tag k="name" v="Selbuelva" />
		<tag k="ssr:stedsnr" v="320587" />
		<tag k="waterway" v="stream" />
	</node>
	<node lat="67.65001110768935" lon="16.168341674722882" id="-23468">
		<tag k="name" v="Gasskajávrre" />
		<tag k="name:smj" v="Gasskajávrre" />
		<tag k="natural" v="water" />
		<tag k="old_name:smj" v="Gaskajávri" />
		<tag k="ssr:stedsnr" v="320596" />
	</node>
	<node lat="68.109641669432" lon="15.506608322840307" id="-23494">
		<tag k="name" v="Knokelva" />
		<tag k="ssr:stedsnr" v="472440" />
		<tag k="waterway" v="stream" />
	</node>
	<node lat="68.06979444874968" lon="15.46895832660916" id="-23518">
		<tag k="name" v="Bremmerelva" />
		<tag k="ssr:stedsnr" v="473346" />
		<tag k="waterway" v="stream" />
	</node>
	<node lat="68.06910555080316" lon="15.410900008268474" id="-23519">
		<tag k="name" v="Småvatnan" />
		<tag k="natural" v="water" />
		<tag k="ssr:stedsnr" v="473391" />
	</node>
	<node lat="68.13052500418235" lon="16.00687222697705" id="-23522">
		<tag k="name" v="Kilnesodden" />
		<tag k="natural" v="cape" />
		<tag k="ssr:stedsnr" v="473473" />
	</node>
	<node lat="67.65861666551064" lon="16.246536119508388" id="-23529">
		<tag k="name" v="Bajep Gasskajávrre" />
		<tag k="name:smj" v="Bajep Gasskajávrre" />
		<tag k="natural" v="water" />
		<tag k="ssr:stedsnr" v="348275" />
		<tag k="water" v="lake" />
	</node>
	<node lat="67.78780278196898" lon="15.95975554476824" id="-23535">
		<tag k="name" v="Femtvasstjønna" />
		<tag k="natural" v="water" />
		<tag k="ssr:stedsnr" v="473881" />
	</node>
	<node lat="67.76921666837848" lon="15.989283332509356" id="-23537">
		<tag k="name" v="Sjuendevasselva" />
		<tag k="ssr:stedsnr" v="473830" />
		<tag k="waterway" v="stream" />
	</node>
	<node lat="68.0235250022548" lon="15.73750554933986" id="-23551">
		<tag k="name" v="Lomtjønnen" />
		<tag k="natural" v="water" />
		<tag k="ssr:stedsnr" v="352014" />
	</node>
	<node lat="68.06165000309161" lon="16.259380544104694" id="-23577">
		<tag k="name" v="Nøkkvatnet" />
		<tag k="natural" v="water" />
		<tag k="ssr:stedsnr" v="380527" />
	</node>
	<node lat="68.05408611454699" lon="16.29864444360323" id="-23578">
		<tag k="name" v="Storelva" />
		<tag k="ssr:stedsnr" v="380543" />
		<tag k="waterway" v="stream" />
	</node>
	<node lat="68.09973889032045" lon="15.941094434276646" id="-23580">
		<tag k="name" v="Djupdalsvatnan" />
		<tag k="natural" v="water" />
		<tag k="ssr:stedsnr" v="380705" />
	</node>
	<node lat="67.84837777453968" lon="15.808752775492211" id="-23581">
		<tag k="fixme" v="multiple name tags, choose one and add the other to alt_name" />
		<tag k="name" v="Rundtjørnene;Storrundtjønna" />
		<tag k="natural" v="water" />
		<tag k="ssr:stedsnr" v="380462" />
	</node>
	<node lat="67.6295388919907" lon="16.47860278813276" id="-23583">
		<tag k="name" v="Sjnasjkasjávrre" />
		<tag k="name:smj" v="Sjnasjkasjávrre" />
		<tag k="natural" v="water" />
		<tag k="old_name:smj" v="Njaskasjávri;Njasskasjávrre" />
		<tag k="ssr:stedsnr" v="380666" />
		<tag k="water" v="lake" />
	</node>
	<node lat="68.0828972203776" lon="15.802699995329304" id="-23584">
		<tag k="name" v="Svartvatnet" />
		<tag k="natural" v="water" />
		<tag k="ssr:stedsnr" v="380669" />
	</node>
	<node lat="67.62868056014065" lon="16.304644433399055" id="-23585">
		<tag k="name" v="Linnajávrre" />
		<tag k="name:smj" v="Linnajávrre" />
		<tag k="natural" v="water" />
		<tag k="old_name:smj" v="Linájávri;Linnájávrre;Linajávri" />
		<tag k="ssr:stedsnr" v="380670" />
		<tag k="water" v="lake" />
	</node>
	<node lat="67.66772222107244" lon="16.24948056139957" id="-23586">
		<tag k="name" v="Juoksajávrre" />
		<tag k="name:smj" v="Juoksajávrre" />
		<tag k="natural" v="water" />
		<tag k="old_name:smj" v="Juoksajávri" />
		<tag k="ssr:stedsnr" v="380674" />
	</node>
	<node lat="68.16066944670622" lon="15.989802776299475" id="-23587">
		<tag k="name" v="Småvatnan" />
		<tag k="natural" v="water" />
		<tag k="ssr:stedsnr" v="380758" />
		<tag k="water" v="lake" />
	</node>
	<node lat="68.14610555867314" lon="15.648105560271965" id="-23588">
		<tag k="name" v="Trollvatnet" />
		<tag k="natural" v="water" />
		<tag k="ssr:stedsnr" v="380761" />
	</node>
	<node lat="68.07616666791614" lon="15.517397227752818" id="-23593">
		<tag k="alt_name" v="Sjøbuosen" />
		<tag k="name" v="Sjybuosen" />
		<tag k="natural" v="bay" />
		<tag k="ssr:stedsnr" v="380966" />
	</node>
	<node lat="68.07019166342633" lon="15.504752784851854" id="-23594">
		<tag k="name" v="Langholmen" />
		<tag k="place" v="islet" />
		<tag k="ssr:stedsnr" v="380970" />
	</node>
	<node lat="68.11974722447893" lon="15.536500002378625" id="-23599">
		<tag k="name" v="Rotlivatnet" />
		<tag k="natural" v="water" />
		<tag k="ssr:stedsnr" v="381011" />
	</node>
	<node lat="68.11585000294087" lon="15.600097213429724" id="-23600">
		<tag k="name" v="Gårdsvatnet" />
		<tag k="natural" v="water" />
		<tag k="ssr:stedsnr" v="381013" />
	</node>
	<node lat="68.10175833715122" lon="15.579052769308113" id="-23603">
		<tag k="name" v="Kulbekken" />
		<tag k="ssr:stedsnr" v="381064" />
		<tag k="waterway" v="stream" />
	</node>
	<node lat="67.80383610844169" lon="16.193336121044627" id="-23605">
		<tag k="name" v="Čappagjohka" />
		<tag k="name:smj" v="Čappagjohka" />
		<tag k="ssr:stedsnr" v="381473" />
		<tag k="waterway" v="river" />
	</node>
	<node lat="67.8093555572197" lon="15.973627773910756" id="-23606">
		<tag k="fixme" v="multiple name tags, choose one and add the other to alt_name" />
		<tag k="name" v="Knutbekken;Knutelva" />
		<tag k="ssr:stedsnr" v="381478" />
		<tag k="waterway" v="stream" />
	</node>
	<node lat="68.1470750031481" lon="15.991561117013356" id="-23610">
		<tag k="name" v="Kjosneset" />
		<tag k="natural" v="cape" />
		<tag k="ssr:stedsnr" v="381727" />
	</node>
	<node lat="68.11447221963307" lon="15.83913889612938" id="-23611">
		<tag k="name" v="Grimsosen" />
		<tag k="natural" v="bay" />
		<tag k="ssr:stedsnr" v="381729" />
	</node>
	<node lat="67.96384722188373" lon="15.958416658973752" id="-23617">
		<tag k="name" v="Litlvatnet" />
		<tag k="natural" v="water" />
		<tag k="ssr:stedsnr" v="381666" />
	</node>
	<node lat="68.07360277831002" lon="15.718669455294366" id="-23619">
		<tag k="fixme" v="multiple name tags, choose one and add the other to alt_name" />
		<tag k="name" v="Litlvatnet;Nordtuvvatnet" />
		<tag k="natural" v="water" />
		<tag k="ssr:stedsnr" v="381674" />
	</node>
	<node lat="67.84343889240556" lon="15.983575010410648" id="-23660">
		<tag k="name" v="Roparnesbukta" />
		<tag k="natural" v="bay" />
		<tag k="ssr:stedsnr" v="413248" />
	</node>
	<node lat="67.85384444071663" lon="15.903441664865602" id="-23698">
		<tag k="alt_name" v="Småvasselvene" />
		<tag k="name" v="Småvasselva" />
		<tag k="ssr:stedsnr" v="441457" />
		<tag k="waterway" v="stream" />
	</node>
	<node lat="68.14831944090821" lon="15.99029443348268" id="-23701">
		<tag k="name" v="Kjosen" />
		<tag k="natural" v="bay" />
		<tag k="ssr:stedsnr" v="441729" />
	</node>
	<node lat="68.15483889277547" lon="15.784047221649283" id="-23703">
		<tag k="name" v="Markosen" />
		<tag k="natural" v="bay" />
		<tag k="ssr:stedsnr" v="441734" />
	</node>
	<node lat="68.09426388905834" lon="15.942238876366641" id="-23704">
		<tag k="name" v="Djupdalselva" />
		<tag k="ssr:stedsnr" v="441685" />
		<tag k="waterway" v="stream" />
	</node>
	<node lat="68.07246111193912" lon="15.377641666077139" id="-23711">
		<tag k="name" v="Kollvatnet" />
		<tag k="natural" v="water" />
		<tag k="ssr:stedsnr" v="441990" />
	</node>
	<node lat="67.8860166624383" lon="16.435236105775182" id="-23717">
		<tag k="name" v="Gaskanjunjávri" />
		<tag k="name:smj" v="Gaskanjunjávri" />
		<tag k="natural" v="water" />
		<tag k="ssr:stedsnr" v="442341" />
		<tag k="water" v="lake" />
	</node>
	<node lat="67.81541111464719" lon="15.950544452059967" id="-23721">
		<tag k="name" v="Nattmålselva" />
		<tag k="ssr:stedsnr" v="442491" />
		<tag k="waterway" v="stream" />
	</node>
	<node lat="68.0635999962324" lon="15.83669722683535" id="-23731">
		<tag k="name" v="Revet" />
		<tag k="natural" v="cape" />
		<tag k="ssr:stedsnr" v="442599" />
	</node>
	<node lat="68.13930555241201" lon="15.920983324411544" id="-23732">
		<tag k="alt_name" v="Gårdselva" />
		<tag k="name" v="Gardselva" />
		<tag k="ssr:stedsnr" v="442703" />
		<tag k="waterway" v="river" />
	</node>
	<node lat="68.01516389283294" lon="16.693027768085912" id="-23734">
		<tag k="name" v="Svartelva" />
		<tag k="ssr:stedsnr" v="442761" />
		<tag k="waterway" v="stream" />
	</node>
	<node lat="67.59668610830249" lon="16.427841655653673" id="-23736">
		<tag k="name" v="Tjåhkkuljávrre" />
		<tag k="name:smj" v="Tjåhkkuljávrre" />
		<tag k="natural" v="water" />
		<tag k="old_name:smj" v="Čohkuljávri;Tjohkoljávrre" />
		<tag k="ssr:stedsnr" v="442789" />
	</node>
	<node lat="67.72034166567018" lon="16.34997222776421" id="-23763">
		<tag k="name" v="Vuolep Slædovágjávrre" />
		<tag k="name:smj" v="Vuolep Slædovágjávrre" />
		<tag k="natural" v="water" />
		<tag k="ssr:stedsnr" v="463768" />
	</node>
	<node lat="68.09123333007896" lon="15.9045861004452" id="-23764">
		<tag k="name" v="Skjelltjønna" />
		<tag k="natural" v="water" />
		<tag k="ssr:stedsnr" v="463954" />
	</node>
	<node lat="67.85874166709604" lon="15.916808333869563" id="-23773">
		<tag k="alt_name" v="Strindnes" />
		<tag k="name" v="Strindneset" />
		<tag k="natural" v="cape" />
		<tag k="ssr:stedsnr" v="473206" />
	</node>
	<node lat="67.8524361068315" lon="15.79561944202569" id="-23774">
		<tag k="name" v="Snyholelva" />
		<tag k="ssr:stedsnr" v="473222" />
		<tag k="waterway" v="stream" />
	</node>
	<node lat="68.06467221926913" lon="15.699147221181002" id="-23776">
		<tag k="name" v="Olsbuvatnet" />
		<tag k="natural" v="water" />
		<tag k="ssr:stedsnr" v="473263" />
		<tag k="water" v="lake" />
	</node>
	<node lat="68.12150277982731" lon="15.461849997684478" id="-23800">
		<tag k="name" v="Storvatnet" />
		<tag k="natural" v="water" />
		<tag k="ssr:stedsnr" v="502016" />
		<tag k="water" v="lake" />
	</node>
	<node lat="68.12931666440014" lon="15.464372226045796" id="-23807">
		<tag k="name" v="Vassåsvatnet" />
		<tag k="natural" v="water" />
		<tag k="ssr:stedsnr" v="502107" />
	</node>
	<node lat="67.99785278170667" lon="16.589822217578597" id="-23810">
		<tag k="alt_name" v="Mannfjellvatnet, store" />
		<tag k="name" v="Store Mannfjellvatnet" />
		<tag k="natural" v="water" />
		<tag k="ssr:stedsnr" v="502281" />
		<tag k="water" v="lake" />
	</node>
	<node lat="67.87503888573131" lon="15.8464194432866" id="-23816">
		<tag k="fixme" v="multiple name tags, choose one and add the other to alt_name" />
		<tag k="name" v="Holmodden;Holmen" />
		<tag k="natural" v="cape" />
		<tag k="ssr:stedsnr" v="502410" />
	</node>
	<node lat="67.87192500094116" lon="15.890455544948347" id="-23817">
		<tag k="alt_name" v="Tjørna" />
		<tag k="name" v="Tjønna" />
		<tag k="natural" v="bay" />
		<tag k="ssr:stedsnr" v="502415" />
	</node>
	<node lat="67.88308611020271" lon="15.87522499909562" id="-23818">
		<tag k="name" v="Hellarvika" />
		<tag k="natural" v="bay" />
		<tag k="ssr:stedsnr" v="502429" />
	</node>
	<node lat="67.80539444817742" lon="16.50760278946498" id="-23819">
		<tag k="name" v="Sørelva" />
		<tag k="name:no" v="Sørelva" />
		<tag k="name:smj" v="Rávggajåhkå" />
		<tag k="ssr:stedsnr" v="502176" />
		<tag k="waterway" v="river" />
	</node>
	<node lat="67.81186944259811" lon="16.117288897026086" id="-23820">
		<tag k="name" v="Vielggisgiergejåhkå - Kvitsteinelva" />
		<tag k="name:no" v="Kvitsteinelva" />
		<tag k="name:smj" v="Vielggisgiergejåhkå" />
		<tag k="old_name:smj" v="Vilgesgeađggejohka" />
		<tag k="ssr:stedsnr" v="502182" />
		<tag k="waterway" v="river" />
	</node>
	<node lat="67.91291389012514" lon="16.084908328704866" id="-23822">
		<tag k="alt_name:no" v="Stolovatnet, øvre" />
		<tag k="name" v="Bajep Stuollo - Øvre Stolovatnet" />
		<tag k="name:no" v="Øvre Stolovatnet" />
		<tag k="name:smj" v="Bajep Stuollo" />
		<tag k="natural" v="water" />
		<tag k="old_name:smj" v="Stuollu bajit" />
		<tag k="ssr:stedsnr" v="502378" />
	</node>
	<node lat="67.89638333121762" lon="15.724072230869954" id="-23823">
		<tag k="name" v="Trollvatnet" />
		<tag k="natural" v="water" />
		<tag k="ssr:stedsnr" v="502382" />
		<tag k="water" v="lake" />
	</node>
	<node lat="68.04666944079116" lon="16.555722213095223" id="-23824">
		<tag k="name" v="Austerskardvatnet" />
		<tag k="natural" v="water" />
		<tag k="ssr:stedsnr" v="502504" />
	</node>
	<node lat="67.8359638926172" lon="16.09216110062556" id="-23825">
		<tag k="alt_name:no" v="Rekvatnet, l" />
		<tag k="name" v="Unnagåjvusj - Litle Rekvatnet" />
		<tag k="name:no" v="Litle Rekvatnet" />
		<tag k="name:smj" v="Unnagåjvusj" />
		<tag k="natural" v="water" />
		<tag k="old_name:smj" v="unna Goivvoš" />
		<tag k="ssr:stedsnr" v="502483" />
		<tag k="water" v="lake" />
	</node>
	<node lat="67.9765694459201" lon="16.05329444574162" id="-23834">
		<tag k="name" v="Svartvatnet" />
		<tag k="natural" v="water" />
		<tag k="ssr:stedsnr" v="502677" />
		<tag k="water" v="lake" />
	</node>
	<node lat="67.97950000166696" lon="15.983544446450356" id="-23835">
		<tag k="name" v="Notvatnet" />
		<tag k="natural" v="water" />
		<tag k="ssr:stedsnr" v="502682" />
	</node>
	<node lat="68.06838889024525" lon="15.884399987881633" id="-23842">
		<tag k="alt_name" v="Støtlappneset" />
		<tag k="name" v="Støttlappneset" />
		<tag k="natural" v="cape" />
		<tag k="ssr:stedsnr" v="502594" />
	</node>
	<node lat="68.14448333452412" lon="16.010758331424423" id="-23843">
		<tag k="name" v="Smånesodden" />
		<tag k="natural" v="cape" />
		<tag k="ssr:stedsnr" v="502710" />
	</node>
	<node lat="68.12996666333507" lon="15.817252771827585" id="-23845">
		<tag k="name" v="Hundosen" />
		<tag k="natural" v="bay" />
		<tag k="ssr:stedsnr" v="502730" />
	</node>
	<node lat="68.07432221848755" lon="15.367505558683789" id="-23851">
		<tag k="name" v="Buksvatnet" />
		<tag k="natural" v="water" />
		<tag k="ssr:stedsnr" v="502987" />
	</node>
	<node lat="68.10826389162762" lon="15.541969433810678" id="-23868">
		<tag k="name" v="Slettbakkvatnet" />
		<tag k="natural" v="water" />
		<tag k="ssr:stedsnr" v="684027" />
	</node>
	<node lat="67.81246111480321" lon="16.28973611237846" id="-23873">
		<tag k="name" v="Gasska-Rumbojávrre" />
		<tag k="name:smj" v="Gasska-Rumbojávrre" />
		<tag k="natural" v="water" />
		<tag k="old_name:smj" v="Rumbojávri, gaska;Gaska Rumbojávrre" />
		<tag k="ssr:stedsnr" v="684135" />
	</node>
	<node lat="67.79511666955638" lon="16.525516675335382" id="-23881">
		<tag k="name" v="Riebiijåhkå" />
		<tag k="name:smj" v="Riebiijåhkå" />
		<tag k="old_name:smj" v="Riebiijohka" />
		<tag k="ssr:stedsnr" v="684147" />
		<tag k="waterway" v="stream" />
	</node>
	<node lat="67.83917499735405" lon="16.240277778564998" id="-23886">
		<tag k="name" v="Bajep Niejdavágjávrre" />
		<tag k="name:smj" v="Bajep Niejdavágjávrre" />
		<tag k="natural" v="water" />
		<tag k="old_name:smj" v="Nieidavákkejávri, bajit" />
		<tag k="ssr:stedsnr" v="684346" />
		<tag k="water" v="lake" />
	</node>
	<node lat="67.84932499944271" lon="15.91978889855523" id="-23887">
		<tag k="name" v="Storelva" />
		<tag k="ssr:stedsnr" v="684426" />
		<tag k="waterway" v="stream" />
	</node>
	<node lat="67.85334444472286" lon="16.18490834390629" id="-23888">
		<tag k="name" v="Gåjgijåhkå" />
		<tag k="name:smj" v="Gåjgijåhkå" />
		<tag k="old_name:smj" v="Goigejohka" />
		<tag k="ssr:stedsnr" v="684427" />
		<tag k="waterway" v="river" />
	</node>
	<node lat="67.8081666639308" lon="16.00256387641061" id="-23896">
		<tag k="name" v="Bikkjebekken" />
		<tag k="ssr:stedsnr" v="684474" />
		<tag k="waterway" v="stream" />
	</node>
	<node lat="67.82956111092335" lon="16.001774999528656" id="-23899">
		<tag k="name" v="Falkelva" />
		<tag k="ssr:stedsnr" v="684493" />
		<tag k="waterway" v="river" />
	</node>
	<node lat="68.02130555383458" lon="15.659774990185523" id="-23900">
		<tag k="alt_name" v="Vetvatnet" />
		<tag k="name" v="Vettvatnet" />
		<tag k="natural" v="water" />
		<tag k="ssr:stedsnr" v="684578" />
	</node>
	<node lat="67.71720833438532" lon="16.20507777649608" id="-23903">
		<tag k="name" v="Livsejåhkå" />
		<tag k="name:smj" v="Livsejåhkå" />
		<tag k="old_name:smj" v="Livssejohka" />
		<tag k="ssr:stedsnr" v="684539" />
		<tag k="waterway" v="river" />
	</node>
	<node lat="67.95961944811421" lon="16.06856111832834" id="-23908">
		<tag k="alt_name" v="Stoloelva;Stuolloelva" />
		<tag k="name" v="Stolloelva" />
		<tag k="ssr:stedsnr" v="684627" />
		<tag k="waterway" v="stream" />
	</node>
	<node lat="67.95864722339037" lon="15.788327769201302" id="-23909">
		<tag k="alt_name" v="Kvitsteinelva" />
		<tag k="name" v="Kvitsteinselva" />
		<tag k="ssr:stedsnr" v="684629" />
		<tag k="waterway" v="stream" />
	</node>
	<node lat="68.04492222388429" lon="15.303283340600785" id="-23933">
		<tag k="alt_name" v="Kvanndalsvatnet, nedre;Kvandalsvatnet" />
		<tag k="fixme" v="multiple name tags, choose one and add the other to alt_name" />
		<tag k="name" v="Nedre Kvanndalsvatnet;Kvanndalsvatnet" />
		<tag k="natural" v="water" />
		<tag k="ssr:stedsnr" v="684927" />
	</node>
	<node lat="68.0208666634404" lon="15.422386116808468" id="-23940">
		<tag k="name" v="Storvatnet" />
		<tag k="natural" v="water" />
		<tag k="ssr:stedsnr" v="684890" />
	</node>
	<node lat="68.08529444653956" lon="15.575399995052841" id="-23950">
		<tag k="fixme" v="multiple name tags, choose one and add the other to alt_name" />
		<tag k="name" v="Mølnelva;Hjellsengelva" />
		<tag k="ssr:stedsnr" v="684992" />
		<tag k="waterway" v="stream" />
	</node>
	<node lat="67.94654166427041" lon="16.779222212721745" id="-23955">
		<tag k="name" v="Unnaskájdásjjávrre" />
		<tag k="name:smj" v="Unnaskájdásjjávrre" />
		<tag k="natural" v="water" />
		<tag k="old_name:smj" v="Skaiddašjávri, unna" />
		<tag k="ssr:stedsnr" v="685441" />
	</node>
	<node lat="68.06876944827282" lon="15.92141389926137" id="-23956">
		<tag k="name" v="Langvika" />
		<tag k="natural" v="bay" />
		<tag k="ssr:stedsnr" v="524924" />
	</node>
	<node lat="67.86953333427478" lon="15.85888054623379" id="-23961">
		<tag k="name" v="Rokkvikodden" />
		<tag k="natural" v="cape" />
		<tag k="ssr:stedsnr" v="533075" />
	</node>
	<node lat="68.01475277892452" lon="15.788197231722847" id="-23966">
		<tag k="name" v="Svartvatnet" />
		<tag k="natural" v="water" />
		<tag k="ssr:stedsnr" v="534013" />
		<tag k="water" v="lake" />
	</node>
	<node lat="68.00131666871724" lon="15.925080560723657" id="-23993">
		<tag k="name" v="Sommarsettjønna" />
		<tag k="natural" v="water" />
		<tag k="ssr:stedsnr" v="534723" />
	</node>
	<node lat="68.00083889173729" lon="15.636727766873527" id="-23999">
		<tag k="name" v="Litlvatnet" />
		<tag k="natural" v="water" />
		<tag k="ssr:stedsnr" v="534673" />
	</node>
	<node lat="68.0588361088831" lon="15.829875007119519" id="-24045">
		<tag k="name" v="Stenginga" />
		<tag k="ssr:stedsnr" v="594254" />
		<tag k="waterway" v="dam" />
	</node>
	<node lat="68.06801388650584" lon="15.85307778417787" id="-24046">
		<tag k="name" v="Tverråsvatnet" />
		<tag k="natural" v="water" />
		<tag k="ssr:stedsnr" v="594265" />
		<tag k="water" v="lake" />
	</node>
	<node lat="68.12103889221773" lon="15.66582223366286" id="-24047">
		<tag k="name" v="Småskjeran" />
		<tag k="place" v="islet" />
		<tag k="ssr:stedsnr" v="594421" />
	</node>
	<node lat="67.89687777745154" lon="15.831363884717282" id="-24067">
		<tag k="name" v="Liforsen" />
		<tag k="natural" v="waterfall" />
		<tag k="ssr:stedsnr" v="594953" />
	</node>
	<node lat="67.79620277607673" lon="16.21491666045467" id="-24078">
		<tag k="fixme" v="multiple name tags, choose one and add the other to alt_name" />
		<tag k="name" v="Råggejávrre;Tjáppagjávrre" />
		<tag k="name:smj" v="Råggejávrre;Tjáppagjávrre" />
		<tag k="natural" v="water" />
		<tag k="old_name:smj" v="Roggejávri;Čáppagjávri;Roggejávrre" />
		<tag k="ssr:stedsnr" v="623268" />
		<tag k="water" v="lake" />
	</node>
	<node lat="67.89738611118963" lon="16.383588877427275" id="-24084">
		<tag k="name" v="Juoksajávrre" />
		<tag k="name:smj" v="Juoksajávrre" />
		<tag k="natural" v="water" />
		<tag k="old_name:smj" v="Juoksajávri" />
		<tag k="ssr:stedsnr" v="623319" />
		<tag k="water" v="lake" />
	</node>
	<node lat="67.85706666843423" lon="15.819136120333614" id="-24090">
		<tag k="alt_name" v="Langtjønna" />
		<tag k="name" v="Langtjørna" />
		<tag k="natural" v="water" />
		<tag k="ssr:stedsnr" v="623459" />
	</node>
	<node lat="67.86025833645658" lon="15.8015749969727" id="-24091">
		<tag k="name" v="Løelva" />
		<tag k="ssr:stedsnr" v="623460" />
		<tag k="waterway" v="stream" />
	</node>
	<node lat="67.85863888807171" lon="15.771638894471048" id="-24093">
		<tag k="name" v="Løelvvatnet" />
		<tag k="natural" v="water" />
		<tag k="ssr:stedsnr" v="623464" />
	</node>
	<node lat="68.07117222641594" lon="15.960108340745062" id="-24096">
		<tag k="name" v="Nertorpelvatnet" />
		<tag k="natural" v="water" />
		<tag k="ssr:stedsnr" v="623657" />
		<tag k="water" v="lake" />
	</node>
	<node lat="68.01820277986917" lon="15.68398610441059" id="-24097">
		<tag k="alt_name" v="Skilelva" />
		<tag k="name" v="Skjellelva" />
		<tag k="ssr:stedsnr" v="623610" />
		<tag k="waterway" v="stream" />
	</node>
	<node lat="68.05828610807853" lon="15.978869448341616" id="-24098">
		<tag k="name" v="Kjerringvatnet" />
		<tag k="natural" v="water" />
		<tag k="ssr:stedsnr" v="623614" />
		<tag k="water" v="lake" />
	</node>
	<node lat="68.06253889238208" lon="15.804269448285671" id="-24100">
		<tag k="fixme" v="multiple name tags, choose one and add the other to alt_name" />
		<tag k="name" v="Tealøkelva;Tealauken" />
		<tag k="ssr:stedsnr" v="623618" />
		<tag k="waterway" v="stream" />
	</node>
	<node lat="68.06408333384503" lon="15.783894452315737" id="-24101">
		<tag k="name" v="Tealøken" />
		<tag k="natural" v="water" />
		<tag k="ssr:stedsnr" v="623619" />
		<tag k="water" v="lake" />
	</node>
	<node lat="68.00724999643649" lon="15.839344432355343" id="-24103">
		<tag k="alt_name" v="Karlsøyvatnet, øvre;Øverkarlsøyvatnet" />
		<tag k="name" v="Øvre Karlsøyvatnet" />
		<tag k="natural" v="water" />
		<tag k="ssr:stedsnr" v="623559" />
	</node>
	<node lat="68.12979999977571" lon="15.465038876584075" id="-24128">
		<tag k="name" v="Ospneset" />
		<tag k="natural" v="cape" />
		<tag k="ssr:stedsnr" v="654734" />
	</node>
	<node lat="67.87056282665966" lon="15.918738322168256" id="-24134">
		<tag k="name" v="Forrneselva" />
		<tag k="ssr:stedsnr" v="655087" />
		<tag k="waterway" v="stream" />
	</node>
	<node lat="67.85471944839256" lon="16.009680567610527" id="-24138">
		<tag k="name" v="Hesbukta" />
		<tag k="natural" v="bay" />
		<tag k="ssr:stedsnr" v="655239" />
	</node>
	<node lat="68.12014166846674" lon="15.67301112027109" id="-24146">
		<tag k="name" v="Sigridskjeran" />
		<tag k="place" v="islet" />
		<tag k="ssr:stedsnr" v="655411" />
	</node>
	<node lat="67.76036944348088" lon="16.039825006802342" id="-24155">
		<tag k="name" v="Øverholmen" />
		<tag k="place" v="islet" />
		<tag k="ssr:stedsnr" v="655833" />
	</node>
	<node lat="68.13776944361572" lon="15.49125278789854" id="-24169">
		<tag k="alt_name" v="Tørrisvatnet" />
		<tag k="name" v="Torrisvatnet" />
		<tag k="natural" v="water" />
		<tag k="ssr:stedsnr" v="684106" />
	</node>
	<node lat="68.13085277613231" lon="15.421341671822285" id="-24170">
		<tag k="name" v="Langosen" />
		<tag k="natural" v="bay" />
		<tag k="ssr:stedsnr" v="684110" />
	</node>
	<node lat="68.13327777806917" lon="15.610708343152433" id="-24171">
		<tag k="name" v="Blomstervatnet" />
		<tag k="natural" v="water" />
		<tag k="ssr:stedsnr" v="684114" />
	</node>
	<node lat="67.87539444644281" lon="16.009719440830786" id="-24177">
		<tag k="name" v="Kvannelva" />
		<tag k="ssr:stedsnr" v="684413" />
		<tag k="waterway" v="stream" />
	</node>
	<node lat="67.88487222080258" lon="15.752302777417636" id="-24180">
		<tag k="name" v="Gjetarholvatnet" />
		<tag k="natural" v="water" />
		<tag k="ssr:stedsnr" v="684421" />
		<tag k="water" v="lake" />
	</node>
	<node lat="67.9914416685689" lon="15.996080564284235" id="-24181">
		<tag k="name" v="Svartvasselva" />
		<tag k="ssr:stedsnr" v="684199" />
		<tag k="waterway" v="river" />
	</node>
	<node lat="67.8805916655268" lon="16.39028889231212" id="-24183">
		<tag k="name" v="Juoksajåhkå" />
		<tag k="name:smj" v="Juoksajåhkå" />
		<tag k="old_name:smj" v="Juoksajohka" />
		<tag k="ssr:stedsnr" v="684368" />
		<tag k="waterway" v="stream" />
	</node>
	<node lat="67.92526944527506" lon="16.087613899211146" id="-24184">
		<tag k="name" v="Stuolojåhkå" />
		<tag k="name:smj" v="Stuolojåhkå" />
		<tag k="old_name:smj" v="Stuollojohka" />
		<tag k="ssr:stedsnr" v="684398" />
		<tag k="waterway" v="stream" />
	</node>
	<node lat="67.70463333048953" lon="16.203841670218956" id="-24186">
		<tag k="name" v="Hierggejåhkå - Reinokselva" />
		<tag k="name:no" v="Reinokselva" />
		<tag k="name:smj" v="Hierggejåhkå" />
		<tag k="old_name:smj" v="Heargejohka" />
		<tag k="ssr:stedsnr" v="684508" />
		<tag k="waterway" v="river" />
	</node>
	<node lat="68.03959444293203" lon="15.755872214431225" id="-24193">
		<tag k="alt_name" v="Hoptjørn" />
		<tag k="name" v="Hoptjønna" />
		<tag k="natural" v="water" />
		<tag k="ssr:stedsnr" v="684554" />
	</node>
	<node lat="68.0747277745286" lon="15.957905560008816" id="-24202">
		<tag k="name" v="Sundet" />
		<tag k="natural" v="strait" />
		<tag k="ssr:stedsnr" v="684619" />
	</node>
	<node lat="68.19700833089533" lon="15.873205551336245" id="-24207">
		<tag k="alt_name" v="Ytrevatnet" />
		<tag k="name" v="Yttervatnet" />
		<tag k="natural" v="water" />
		<tag k="ssr:stedsnr" v="684812" />
	</node>
	<node lat="68.02262778033814" lon="15.41126110788341" id="-24239">
		<tag k="name" v="Maristats" />
		<tag k="natural" v="water" />
		<tag k="ssr:stedsnr" v="898070" />
	</node>
	<node lat="68.08545832964795" lon="15.70436388805235" id="-24241">
		<tag k="name" v="Hamneelva" />
		<tag k="ssr:stedsnr" v="898076" />
		<tag k="waterway" v="stream" />
	</node>
	<node lat="68.0334694425982" lon="15.352222220928093" id="-24246">
		<tag k="name" v="Vasshågen" />
		<tag k="natural" v="cape" />
		<tag k="ssr:stedsnr" v="898174" />
	</node>
	<node lat="68.08089999577689" lon="15.498994445024357" id="-24251">
		<tag k="name" v="Nordelva" />
		<tag k="ssr:stedsnr" v="898201" />
		<tag k="waterway" v="stream" />
	</node>
	<node lat="68.06185833392786" lon="15.771274992597293" id="-24254">
		<tag k="name" v="Grunnvågelva" />
		<tag k="ssr:stedsnr" v="898257" />
		<tag k="waterway" v="stream" />
	</node>
	<node lat="68.08009166548575" lon="15.898536119109531" id="-24260">
		<tag k="name" v="Langbergan" />
		<tag k="natural" v="cape" />
		<tag k="ssr:stedsnr" v="898336" />
	</node>
	<node lat="68.12312777931865" lon="15.4755277666545" id="-24266">
		<tag k="name" v="Mjåsundet" />
		<tag k="natural" v="bay" />
		<tag k="ssr:stedsnr" v="898500" />
	</node>
	<node lat="68.14934444669237" lon="15.992022232712698" id="-24272">
		<tag k="name" v="Kjosbotn" />
		<tag k="natural" v="bay" />
		<tag k="ssr:stedsnr" v="898695" />
	</node>
	<node lat="67.83965833397653" lon="15.790611109235597" id="-24282">
		<tag k="name" v="Skjellelva" />
		<tag k="ssr:stedsnr" v="716222" />
		<tag k="waterway" v="river" />
	</node>
	<node lat="67.85675277713189" lon="15.8961666729708" id="-24284">
		<tag k="alt_name" v="Likkjelva" />
		<tag k="name" v="Litlelva" />
		<tag k="ssr:stedsnr" v="716209" />
		<tag k="waterway" v="stream" />
	</node>
	<node lat="68.03398611335591" lon="15.365552786216762" id="-24285">
		<tag k="name" v="Tennholmen" />
		<tag k="place" v="islet" />
		<tag k="ssr:stedsnr" v="716218" />
	</node>
	<node lat="68.0330805595444" lon="15.356652778550714" id="-24286">
		<tag k="name" v="Månen" />
		<tag k="place" v="islet" />
		<tag k="ssr:stedsnr" v="716221" />
	</node>
	<node lat="67.91048333193547" lon="15.861594435197286" id="-24304">
		<tag k="name" v="Lomtjønna" />
		<tag k="natural" v="water" />
		<tag k="ssr:stedsnr" v="716974" />
	</node>
	<node lat="67.75486388861518" lon="16.610761118015713" id="-24310">
		<tag k="name" v="Amásvágjávrre" />
		<tag k="name:smj" v="Amásvágjávrre" />
		<tag k="natural" v="water" />
		<tag k="old_name:smj" v="Amasvákkejavri;Amasvákkejávri;Amásvákjávrre" />
		<tag k="ssr:stedsnr" v="744609" />
		<tag k="water" v="lake" />
	</node>
	<node lat="68.12742222133376" lon="15.597436099148851" id="-24311">
		<tag k="alt_name" v="Tverrutskogvatnet" />
		<tag k="name" v="Tverråsskogvatnet" />
		<tag k="natural" v="water" />
		<tag k="ssr:stedsnr" v="745006" />
	</node>
	<node lat="68.11021388549341" lon="15.459433337592253" id="-24314">
		<tag k="name" v="Drakvatnet" />
		<tag k="natural" v="water" />
		<tag k="ssr:stedsnr" v="745022" />
	</node>
	<node lat="67.78940833679803" lon="16.56714167675028" id="-24321">
		<tag k="name" v="Amasvákkegorži" />
		<tag k="name:smj" v="Amasvákkegorži" />
		<tag k="natural" v="waterfall" />
		<tag k="ssr:stedsnr" v="745191" />
	</node>
	<node lat="67.79868610873838" lon="16.105891666194267" id="-24323">
		<tag k="name" v="Steffenelva" />
		<tag k="ssr:stedsnr" v="745310" />
		<tag k="waterway" v="stream" />
	</node>
	<node lat="67.8802777760799" lon="16.71133610560504" id="-24327">
		<tag k="name" v="Jiegŋajávrásj" />
		<tag k="name:smj" v="Jiegŋajávrásj" />
		<tag k="natural" v="water" />
		<tag k="old_name:smj" v="Jiekŋajávrraš" />
		<tag k="ssr:stedsnr" v="745403" />
		<tag k="water" v="lake" />
	</node>
	<node lat="67.83753888480553" lon="15.93229444288516" id="-24330">
		<tag k="name" v="Skogholvatnet" />
		<tag k="natural" v="water" />
		<tag k="ssr:stedsnr" v="745480" />
	</node>
	<node lat="67.66824999935977" lon="16.16995832577435" id="-24333">
		<tag k="name" v="Jårbbåjávrre" />
		<tag k="name:smj" v="Jårbbåjávrre" />
		<tag k="natural" v="water" />
		<tag k="old_name:smj" v="Jorbajávri" />
		<tag k="ssr:stedsnr" v="745489" />
		<tag k="water" v="lake" />
	</node>
	<node lat="67.95665832938407" lon="16.145669448392177" id="-24341">
		<tag k="name" v="Guhkesjávrre - Langvatnet" />
		<tag k="name:no" v="Langvatnet" />
		<tag k="name:smj" v="Guhkesjávrre" />
		<tag k="natural" v="water" />
		<tag k="old_name:smj" v="Guhkesj'avri" />
		<tag k="ssr:stedsnr" v="745625" />
		<tag k="water" v="lake" />
	</node>
	<node lat="68.06441666492788" lon="15.928413876022509" id="-24348">
		<tag k="fixme" v="multiple name tags, choose one and add the other to alt_name" />
		<tag k="name" v="Mellomelva;Mellomvasselva" />
		<tag k="ssr:stedsnr" v="745589" />
		<tag k="waterway" v="stream" />
	</node>
	<node lat="68.1584749989329" lon="15.681036099702773" id="-24361">
		<tag k="name" v="Sommerselvatnet" />
		<tag k="natural" v="water" />
		<tag k="ssr:stedsnr" v="745775" />
	</node>
	<node lat="68.0721555589466" lon="15.497913895276877" id="-24370">
		<tag k="name" v="Lilandsvatnet" />
		<tag k="natural" v="water" />
		<tag k="ssr:stedsnr" v="745975" />
		<tag k="water" v="lake" />
	</node>
	<node lat="67.96341388879137" lon="16.75041389088028" id="-24387">
		<tag k="name" v="Tjoallebatjåhkå" />
		<tag k="name:smj" v="Tjoallebatjåhkå" />
		<tag k="old_name:smj" v="Čoallebadajohka" />
		<tag k="ssr:stedsnr" v="766471" />
		<tag k="waterway" v="river" />
	</node>
	<node lat="67.86638333024732" lon="15.923502767052325" id="-24391">
		<tag k="name" v="Forrnesbukta" />
		<tag k="natural" v="bay" />
		<tag k="ssr:stedsnr" v="776069" />
	</node>
	<node lat="68.02199722614459" lon="15.668380557414118" id="-24394">
		<tag k="name" v="Vettvatntjønna" />
		<tag k="natural" v="water" />
		<tag k="ssr:stedsnr" v="777010" />
	</node>
	<node lat="68.02258333682462" lon="15.32373611221029" id="-24395">
		<tag k="name" v="Vannbassenget" />
		<tag k="natural" v="water" />
		<tag k="ssr:stedsnr" v="777110" />
	</node>
	<node lat="68.12623332953892" lon="16.01439443950338" id="-24401">
		<tag k="name" v="Kjeldodden" />
		<tag k="natural" v="cape" />
		<tag k="ssr:stedsnr" v="777453" />
	</node>
	<node lat="68.13009166815345" lon="16.00138333228865" id="-24403">
		<tag k="name" v="Innersanden" />
		<tag k="natural" v="beach" />
		<tag k="ssr:stedsnr" v="777459" />
	</node>
	<node lat="68.13269166999369" lon="16.0096527839308" id="-24404">
		<tag k="name" v="Huskestuodden" />
		<tag k="natural" v="cape" />
		<tag k="ssr:stedsnr" v="777461" />
	</node>
	<node lat="67.98870000155031" lon="15.615083343515556" id="-24408">
		<tag k="name" v="Heilågelva" />
		<tag k="ssr:stedsnr" v="777661" />
		<tag k="waterway" v="stream" />
	</node>
	<node lat="67.88964721838651" lon="15.840547210022347" id="-24432">
		<tag k="name" v="Falkforrelva" />
		<tag k="ssr:stedsnr" v="837026" />
		<tag k="waterway" v="stream" />
	</node>
	<node lat="67.86926389004263" lon="15.886644454380445" id="-24433">
		<tag k="name" v="Nerstraumen" />
		<tag k="natural" v="strait" />
		<tag k="ssr:stedsnr" v="837075" />
	</node>
	<node lat="67.87136388870239" lon="15.849144445607065" id="-24434">
		<tag k="name" v="Græsholmen" />
		<tag k="place" v="islet" />
		<tag k="ssr:stedsnr" v="837077" />
	</node>
	<node lat="68.0179027761587" lon="15.54210277693213" id="-24445">
		<tag k="name" v="Skagkrikla" />
		<tag k="ssr:stedsnr" v="838032" />
		<tag k="waterway" v="stream" />
	</node>
	<node lat="67.82741667068046" lon="15.972183342562575" id="-24455">
		<tag k="name" v="Gammelskjåodden" />
		<tag k="natural" v="cape" />
		<tag k="ssr:stedsnr" v="838303" />
	</node>
	<node lat="68.0788888858328" lon="15.90134721545528" id="-24457">
		<tag k="name" v="Laksvikodden" />
		<tag k="natural" v="cape" />
		<tag k="ssr:stedsnr" v="838378" />
	</node>
	<node lat="67.78328056009876" lon="15.968983328414657" id="-24469">
		<tag k="name" v="Sjettvassanden" />
		<tag k="natural" v="beach" />
		<tag k="ssr:stedsnr" v="838892" />
	</node>
	<node lat="68.09296944044554" lon="15.38061111559836" id="-24473">
		<tag k="name" v="Vedvika" />
		<tag k="natural" v="bay" />
		<tag k="ssr:stedsnr" v="927045" />
	</node>
	<node lat="67.99019166764369" lon="16.69412501036403" id="-24482">
		<tag k="name" v="Krokvatnet" />
		<tag k="natural" v="water" />
		<tag k="ssr:stedsnr" v="927324" />
	</node>
	<node lat="67.96647499908019" lon="15.977580558810986" id="-24485">
		<tag k="name" v="Sagelva" />
		<tag k="ssr:stedsnr" v="927197" />
		<tag k="waterway" v="river" />
	</node>
	<node lat="67.82275555379621" lon="15.967644438195583" id="-24486">
		<tag k="name" v="Storbukta" />
		<tag k="natural" v="bay" />
		<tag k="ssr:stedsnr" v="927202" />
	</node>
	<node lat="67.86720277555254" lon="15.90189443632353" id="-24490">
		<tag k="name" v="Nerstraumen" />
		<tag k="natural" v="strait" />
		<tag k="ssr:stedsnr" v="927431" />
	</node>
	<node lat="67.88343611011557" lon="15.862669449972529" id="-24492">
		<tag k="name" v="Bergodden" />
		<tag k="natural" v="cape" />
		<tag k="ssr:stedsnr" v="927440" />
	</node>
	<node lat="68.0882000016717" lon="16.276272223902332" id="-24495">
		<tag k="name" v="Korvikvatna" />
		<tag k="natural" v="water" />
		<tag k="ssr:stedsnr" v="927531" />
		<tag k="water" v="lake" />
	</node>
	<node lat="68.0791499998553" lon="15.67807777393095" id="-24501">
		<tag k="name" v="Bleivatnet" />
		<tag k="natural" v="water" />
		<tag k="ssr:stedsnr" v="927630" />
	</node>
	<node lat="68.11027500408049" lon="15.943366657485269" id="-24504">
		<tag k="name" v="Tuvvatnet" />
		<tag k="natural" v="water" />
		<tag k="ssr:stedsnr" v="927677" />
	</node>
	<node lat="67.93345000040917" lon="15.821116675963287" id="-24509">
		<tag k="fixme" v="multiple name tags, choose one and add the other to alt_name" />
		<tag k="name" v="Dønsåga;Dønselva" />
		<tag k="ssr:stedsnr" v="927635" />
		<tag k="waterway" v="stream" />
	</node>
	<node lat="67.95796944516964" lon="16.09313054578114" id="-24512">
		<tag k="name" v="Ráhpukjávrre - Kilvatnet" />
		<tag k="name:no" v="Kilvatnet" />
		<tag k="name:smj" v="Ráhpukjávrre" />
		<tag k="natural" v="water" />
		<tag k="old_name:smj" v="Ráhpokjávri" />
		<tag k="ssr:stedsnr" v="927644" />
		<tag k="water" v="lake" />
	</node>
	<node lat="67.9712277766625" lon="16.000513888930936" id="-24513">
		<tag k="alt_name" v="Krokvasselva" />
		<tag k="name" v="Krokelva" />
		<tag k="ssr:stedsnr" v="927647" />
		<tag k="waterway" v="stream" />
	</node>
	<node lat="68.13958333627465" lon="15.769658328143771" id="-24515">
		<tag k="name" v="Støvikvatnan" />
		<tag k="natural" v="water" />
		<tag k="ssr:stedsnr" v="927696" />
	</node>
	<node lat="68.16854721890452" lon="16.075694454833734" id="-24526">
		<tag k="name" v="Sandvasselva" />
		<tag k="ssr:stedsnr" v="927730" />
		<tag k="waterway" v="stream" />
	</node>
	<node lat="68.00686944791144" lon="16.624052776527268" id="-24530">
		<tag k="alt_name" v="Mannfjellvatnet, l" />
		<tag k="name" v="Litle Mannfjellvatnet" />
		<tag k="natural" v="water" />
		<tag k="ssr:stedsnr" v="927749" />
	</node>
	<node lat="67.95529166372246" lon="16.825605549585095" id="-24542">
		<tag k="name" v="Muvrrajávrre - Røysvatnet" />
		<tag k="name:no" v="Røysvatnet" />
		<tag k="name:smj" v="Muvrrajávrre" />
		<tag k="natural" v="water" />
		<tag k="old_name:smj" v="Muvrajávri" />
		<tag k="ssr:stedsnr" v="928434" />
		<tag k="water" v="lake" />
	</node>
	<node lat="68.1628472196197" lon="16.071594436577318" id="-24565">
		<tag k="name" v="Sandvassneset" />
		<tag k="natural" v="cape" />
		<tag k="ssr:stedsnr" v="876954" />
	</node>
	<node lat="67.84333611440138" lon="16.01383889619116" id="-24592">
		<tag k="name" v="Hammarelva" />
		<tag k="ssr:stedsnr" v="898216" />
		<tag k="waterway" v="stream" />
	</node>
	<node lat="67.83966666686872" lon="15.983766669433997" id="-24593">
		<tag k="name" v="Fjerdvasseidet" />
		<tag k="place" v="locality" />
		<tag k="ssr:stedsnr" v="898219" />
	</node>
	<node lat="68.13598055323172" lon="15.950544439132132" id="-24598">
		<tag k="name" v="Langåstjønna" />
		<tag k="natural" v="water" />
		<tag k="ssr:stedsnr" v="898458" />
	</node>
	<node lat="68.08123610831173" lon="15.872858323518948" id="-24611">
		<tag k="name" v="Olaodden" />
		<tag k="natural" v="cape" />
		<tag k="ssr:stedsnr" v="898959" />
	</node>
	<node lat="68.00423333178277" lon="16.010441659125544" id="-24613">
		<tag k="name" v="Hillingspolltjønna" />
		<tag k="natural" v="water" />
		<tag k="ssr:stedsnr" v="899707" />
	</node>
	<node lat="68.00496666678796" lon="15.997019440994759" id="-24614">
		<tag k="name" v="Litltjønna" />
		<tag k="natural" v="water" />
		<tag k="ssr:stedsnr" v="899710" />
	</node>
	<node lat="68.11926111462574" lon="15.587144438036185" id="-24616">
		<tag k="name" v="Dikmyrtjørna" />
		<tag k="natural" v="water" />
		<tag k="ssr:stedsnr" v="927013" />
	</node>
	<node lat="67.82097499751298" lon="16.042266670838146" id="-24628">
		<tag k="name" v="Langodden" />
		<tag k="natural" v="cape" />
		<tag k="ssr:stedsnr" v="927210" />
	</node>
	<node lat="67.8292500030217" lon="16.284583344985915" id="-24633">
		<tag k="name" v="Vuolle-Rumbojávrre" />
		<tag k="name:smj" v="Vuolle-Rumbojávrre" />
		<tag k="natural" v="water" />
		<tag k="old_name:smj" v="Rumbojávri, vuolit" />
		<tag k="ssr:stedsnr" v="927358" />
		<tag k="water" v="lake" />
	</node>
	<node lat="68.00493610890238" lon="15.784619431487815" id="-24641">
		<tag k="name" v="Karlsøyvatnet" />
		<tag k="natural" v="water" />
		<tag k="ssr:stedsnr" v="927555" />
		<tag k="water" v="lake" />
	</node>
	<node lat="67.85155278195755" lon="16.01766665851523" id="-24644">
		<tag k="name" v="Rønnelva" />
		<tag k="ssr:stedsnr" v="927454" />
		<tag k="waterway" v="stream" />
	</node>
	<node lat="67.84564999764348" lon="16.020400006227742" id="-24645">
		<tag k="name" v="Durmålselva" />
		<tag k="ssr:stedsnr" v="927455" />
		<tag k="waterway" v="stream" />
	</node>
	<node lat="68.06809444714119" lon="15.82894444480851" id="-24647">
		<tag k="alt_name" v="Kallvågvatnet" />
		<tag k="name" v="Kaldvågvatnet" />
		<tag k="natural" v="water" />
		<tag k="ssr:stedsnr" v="927604" />
		<tag k="water" v="lake" />
	</node>
	<node lat="67.9872111115677" lon="15.84268333586498" id="-24652">
		<tag k="name" v="Oterågvatnet" />
		<tag k="natural" v="water" />
		<tag k="ssr:stedsnr" v="927651" />
	</node>
	<node lat="68.1022749967832" lon="15.846288887549067" id="-24657">
		<tag k="name" v="Mølnvatnet" />
		<tag k="natural" v="water" />
		<tag k="ssr:stedsnr" v="927665" />
	</node>
	<node lat="68.0260833378635" lon="15.404641656486204" id="-24673">
		<tag k="name" v="Mølndammen" />
		<tag k="natural" v="water" />
		<tag k="ssr:stedsnr" v="927915" />
	</node>
	<node lat="67.89263333765292" lon="15.8592166664751" id="-24694">
		<tag k="name" v="Eliasneset" />
		<tag k="natural" v="cape" />
		<tag k="ssr:stedsnr" v="958021" />
	</node>
	<node lat="68.12307778198443" lon="15.6374888777708" id="-24700">
		<tag k="name" v="Lomholmen" />
		<tag k="place" v="islet" />
		<tag k="ssr:stedsnr" v="958544" />
	</node>
	<node lat="68.11912777391765" lon="15.640588883574983" id="-24702">
		<tag k="name" v="Lappkonneset" />
		<tag k="natural" v="cape" />
		<tag k="ssr:stedsnr" v="958548" />
	</node>
	<node lat="68.0825722221585" lon="15.585275006844013" id="-24705">
		<tag k="name" v="Nakkelva" />
		<tag k="ssr:stedsnr" v="959105" />
		<tag k="waterway" v="stream" />
	</node>
	<node lat="67.85493055600568" lon="15.953922233425056" id="-24713">
		<tag k="name" v="Sandøyra" />
		<tag k="natural" v="cape" />
		<tag k="ssr:stedsnr" v="959220" />
	</node>
	<node lat="68.06818610717656" lon="15.507916662185053" id="-24717">
		<tag k="name" v="Åsvatnet" />
		<tag k="natural" v="water" />
		<tag k="ssr:stedsnr" v="959284" />
		<tag k="water" v="lake" />
	</node>
	<node lat="68.12302778038705" lon="15.490391675756026" id="-24727">
		<tag k="name" v="Mølnelva" />
		<tag k="ssr:stedsnr" v="959505" />
		<tag k="waterway" v="stream" />
	</node>
	<node lat="68.12955833481956" lon="15.705316661156258" id="-24729">
		<tag k="name" v="Slettelva" />
		<tag k="ssr:stedsnr" v="959599" />
		<tag k="waterway" v="stream" />
	</node>
	<node lat="67.77668611191557" lon="15.980455544522554" id="-24742">
		<tag k="name" v="Gudátjávrre - Sjettvatnet" />
		<tag k="name:no" v="Sjettvatnet" />
		<tag k="name:smj" v="Gudátjávrre" />
		<tag k="natural" v="water" />
		<tag k="old_name:smj" v="Gudatjávri" />
		<tag k="ssr:stedsnr" v="16223" />
		<tag k="water" v="lake" />
	</node>
	<node lat="67.74066110779253" lon="16.277886111065285" id="-24743">
		<tag k="name" v="Livsejávrre" />
		<tag k="name:smj" v="Livsejávrre" />
		<tag k="natural" v="water" />
		<tag k="old_name:smj" v="Livssejávri" />
		<tag k="ssr:stedsnr" v="16613" />
		<tag k="water" v="lake" />
	</node>
	<node lat="68.12189722159341" lon="15.484974996271806" id="-24745">
		<tag k="name" v="Åslivatnet" />
		<tag k="natural" v="water" />
		<tag k="ssr:stedsnr" v="17012" />
	</node>
	<node lat="67.87049999727003" lon="16.273008322469433" id="-24753">
		<tag k="name" v="Tjuoldrijdjåhkå" />
		<tag k="name:smj" v="Tjuoldrijdjåhkå" />
		<tag k="old_name:smj" v="Čuoldajohka" />
		<tag k="ssr:stedsnr" v="17398" />
		<tag k="waterway" v="stream" />
	</node>
	<node lat="68.036630553793" lon="15.363197215187723" id="-24763">
		<tag k="name" v="Digerneset" />
		<tag k="natural" v="cape" />
		<tag k="ssr:stedsnr" v="17933" />
	</node>
	<node lat="67.75776666801507" lon="16.059838896718695" id="-24766">
		<tag k="name" v="Sluŋkájåhkå - Slunkaelva" />
		<tag k="name:no" v="Slunkaelva" />
		<tag k="name:smj" v="Sluŋkájåhkå" />
		<tag k="old_name:smj" v="Šluŋkkajohka" />
		<tag k="ssr:stedsnr" v="17294" />
		<tag k="waterway" v="river" />
	</node>
	<node lat="68.00039444504723" lon="16.692022227255574" id="-24768">
		<tag k="name" v="Dáppájávrre - Småsvartvatnan" />
		<tag k="name:no" v="Småsvartvatnan" />
		<tag k="name:smj" v="Dáppájávrre" />
		<tag k="natural" v="water" />
		<tag k="old_name:smj" v="Dáppajávri" />
		<tag k="ssr:stedsnr" v="17346" />
		<tag k="water" v="lake" />
	</node>
	<node lat="67.96339166464121" lon="16.07952221707665" id="-24781">
		<tag k="name" v="Ankersvatnet" />
		<tag k="natural" v="water" />
		<tag k="ssr:stedsnr" v="17673" />
	</node>
	<node lat="67.84751666981461" lon="16.161500002394938" id="-24783">
		<tag k="name" v="Skuŋkijávrre" />
		<tag k="name:smj" v="Skuŋkijávrre" />
		<tag k="natural" v="water" />
		<tag k="old_name:smj" v="Skuŋkajávri" />
		<tag k="ssr:stedsnr" v="17468" />
	</node>
	<node lat="68.01653333360167" lon="15.4288250090436" id="-24786">
		<tag k="name" v="Litlvatnet" />
		<tag k="natural" v="water" />
		<tag k="ssr:stedsnr" v="17889" />
	</node>
	<node lat="68.158302775076" lon="15.912833333320435" id="-24788">
		<tag k="name" v="Osen" />
		<tag k="natural" v="bay" />
		<tag k="ssr:stedsnr" v="17752" />
	</node>
	<node lat="68.00093611260164" lon="16.692055565919325" id="-24790">
		<tag k="name" v="Dáppájávrre - Svartvatnet" />
		<tag k="name:no" v="Svartvatnet" />
		<tag k="name:smj" v="Dáppájávrre" />
		<tag k="natural" v="water" />
		<tag k="old_name:smj" v="Dappajávri, store" />
		<tag k="ssr:stedsnr" v="17774" />
		<tag k="water" v="lake" />
	</node>
	<node lat="67.99641389269802" lon="15.55298888191095" id="-24820">
		<tag k="name" v="Ytterelva" />
		<tag k="ssr:stedsnr" v="48518" />
		<tag k="waterway" v="stream" />
	</node>
	<node lat="68.01804999831539" lon="15.625363882379192" id="-24830">
		<tag k="name" v="Fekovvasselva" />
		<tag k="ssr:stedsnr" v="49045" />
		<tag k="waterway" v="stream" />
	</node>
	<node lat="67.91069166701082" lon="15.756911114655477" id="-24833">
		<tag k="name" v="Forsanvassboten" />
		<tag k="natural" v="bay" />
		<tag k="ssr:stedsnr" v="48857" />
	</node>
	<node lat="68.05968610749927" lon="15.949400004336939" id="-24845">
		<tag k="name" v="Langodden" />
		<tag k="natural" v="cape" />
		<tag k="ssr:stedsnr" v="49278" />
	</node>
	<node lat="67.85403888972228" lon="15.95780554921267" id="-24847">
		<tag k="name" v="Neroddan" />
		<tag k="natural" v="cape" />
		<tag k="ssr:stedsnr" v="49289" />
	</node>
	<node lat="68.09513889113958" lon="15.899933330223513" id="-24857">
		<tag k="name" v="Jakobtjønna" />
		<tag k="natural" v="water" />
		<tag k="ssr:stedsnr" v="49443" />
	</node>
	<node lat="68.13564999581494" lon="15.701058342047965" id="-24860">
		<tag k="name" v="Steinelva" />
		<tag k="ssr:stedsnr" v="49609" />
		<tag k="waterway" v="stream" />
	</node>
	<node lat="68.15575833581889" lon="15.939311117301543" id="-24863">
		<tag k="name" v="Mølnelva" />
		<tag k="ssr:stedsnr" v="49726" />
		<tag k="waterway" v="stream" />
	</node>
	<node lat="68.14406944346251" lon="15.451016666600493" id="-24869">
		<tag k="name" v="Kommelelva" />
		<tag k="ssr:stedsnr" v="49917" />
		<tag k="waterway" v="stream" />
	</node>
	<node lat="68.0752583332207" lon="16.268319440672958" id="-24871">
		<tag k="name" v="Småvatnan" />
		<tag k="natural" v="water" />
		<tag k="ssr:stedsnr" v="77565" />
		<tag k="water" v="lake" />
	</node>
	<node lat="67.82379444040889" lon="16.020194449574443" id="-24876">
		<tag k="alt_name" v="Rekvasstjørnane" />
		<tag k="name" v="Rekvasstjønnen" />
		<tag k="natural" v="water" />
		<tag k="ssr:stedsnr" v="78474" />
	</node>
	<node lat="67.90113888768263" lon="15.85998332071188" id="-24886">
		<tag k="name" v="Sagelva" />
		<tag k="ssr:stedsnr" v="77394" />
		<tag k="waterway" v="stream" />
	</node>
	<node lat="68.06338055154308" lon="16.281522231439446" id="-24890">
		<tag k="name" v="Kaffevatnet" />
		<tag k="natural" v="water" />
		<tag k="ssr:stedsnr" v="77520" />
	</node>
	<node lat="67.8552305545337" lon="15.973388880644338" id="-24893">
		<tag k="name" v="Sáttonjárgjávrre - Sandnesvatnet" />
		<tag k="name:no" v="Sandnesvatnet" />
		<tag k="name:smj" v="Sáttonjárgjávrre" />
		<tag k="natural" v="water" />
		<tag k="old_name:smj" v="Sáttonjárggjávri" />
		<tag k="ssr:stedsnr" v="77474" />
		<tag k="water" v="lake" />
	</node>
	<node lat="68.08722500010951" lon="15.747747211490895" id="-24897">
		<tag k="name" v="Pollelva" />
		<tag k="ssr:stedsnr" v="77643" />
		<tag k="waterway" v="stream" />
	</node>
	<node lat="68.07456666267993" lon="15.391894451246598" id="-24905">
		<tag k="name" v="Skjellivatnet" />
		<tag k="natural" v="water" />
		<tag k="ssr:stedsnr" v="77987" />
	</node>
	<node lat="68.09665555965277" lon="15.494883335432716" id="-24908">
		<tag k="alt_name" v="Hamsumpelva" />
		<tag k="name" v="Hamsundelva" />
		<tag k="ssr:stedsnr" v="78033" />
		<tag k="waterway" v="stream" />
	</node>
	<node lat="68.09496388522986" lon="15.390936098966456" id="-24909">
		<tag k="alt_name" v="Straumsvatnet" />
		<tag k="name" v="Straumvatnet" />
		<tag k="natural" v="water" />
		<tag k="ssr:stedsnr" v="78039" />
		<tag k="water" v="lake" />
	</node>
	<node lat="68.12943611081988" lon="15.487808327478415" id="-24911">
		<tag k="fixme" v="multiple name tags, choose one and add the other to alt_name" />
		<tag k="name" v="Forbergnesvatnet;Fårbærnesvatnet" />
		<tag k="natural" v="water" />
		<tag k="ssr:stedsnr" v="78119" />
	</node>
	<node lat="67.76458055295322" lon="16.037327782322055" id="-24912">
		<tag k="name" v="Slåttelva" />
		<tag k="ssr:stedsnr" v="78216" />
		<tag k="waterway" v="stream" />
	</node>
	<node lat="67.88061666707267" lon="16.608766668278445" id="-24920">
		<tag k="name" v="Årojriepvágjávrre" />
		<tag k="name:smj" v="Årojriepvágjávrre" />
		<tag k="natural" v="water" />
		<tag k="old_name:smj" v="Oruiriehpejávri" />
		<tag k="ssr:stedsnr" v="78369" />
		<tag k="water" v="lake" />
	</node>
	<node lat="67.87766943996698" lon="16.250766673693118" id="-24921">
		<tag k="name" v="Råggejávrre" />
		<tag k="name:smj" v="Råggejávrre" />
		<tag k="natural" v="water" />
		<tag k="old_name:smj" v="Roggejávri" />
		<tag k="ssr:stedsnr" v="78372" />
		<tag k="water" v="lake" />
	</node>
	<node lat="68.00018888631196" lon="16.164044454931396" id="-24926">
		<tag k="name" v="Småvatnan" />
		<tag k="natural" v="water" />
		<tag k="ssr:stedsnr" v="78542" />
	</node>
	<node lat="67.95653610771322" lon="16.04578054597442" id="-24927">
		<tag k="name" v="Krokvatnet" />
		<tag k="natural" v="water" />
		<tag k="ssr:stedsnr" v="78611" />
	</node>
	<node lat="67.94398610853142" lon="15.930441663536957" id="-24928">
		<tag k="name" v="Steinbakkelva" />
		<tag k="ssr:stedsnr" v="78612" />
		<tag k="waterway" v="stream" />
	</node>
	<node lat="67.94010833576998" lon="16.075702768091418" id="-24931">
		<tag k="alt_name:no" v="Stolovatnet, nedre" />
		<tag k="loc_name:no" v="Stolovatnet" />
		<tag k="name" v="Vuolep Stuollo - Nedre Stuollovatnet" />
		<tag k="name:no" v="Nedre Stuollovatnet" />
		<tag k="name:smj" v="Vuolep Stuollo" />
		<tag k="natural" v="water" />
		<tag k="old_name:smj" v="Stuollu vuolit;Stuollo" />
		<tag k="ssr:stedsnr" v="78621" />
		<tag k="water" v="lake" />
	</node>
	<node lat="67.80875555855056" lon="16.08166943529613" id="-24932">
		<tag k="name" v="Goajvojávrre - Rekvatnet" />
		<tag k="name:no" v="Rekvatnet" />
		<tag k="name:smj" v="Goajvojávrre" />
		<tag k="natural" v="water" />
		<tag k="old_name:smj" v="Goaivojávri" />
		<tag k="ssr:stedsnr" v="78481" />
		<tag k="water" v="lake" />
	</node>
	<node lat="68.0226972238232" lon="15.785663898844467" id="-24935">
		<tag k="alt_name" v="Mølnvatnet;Møllevatnet" />
		<tag k="name" v="Møllnvatnet" />
		<tag k="natural" v="water" />
		<tag k="ssr:stedsnr" v="78575" />
	</node>
	<node lat="68.06080833172662" lon="15.66826945014604" id="-24937">
		<tag k="name" v="Tuvelva" />
		<tag k="ssr:stedsnr" v="78583" />
		<tag k="waterway" v="stream" />
	</node>
	<node lat="68.06819444003915" lon="15.971538895184525" id="-24941">
		<tag k="name" v="Torpelvasselva" />
		<tag k="ssr:stedsnr" v="78627" />
		<tag k="waterway" v="stream" />
	</node>
	<node lat="68.06973611500952" lon="15.894147234357154" id="-24942">
		<tag k="name" v="Helmerøya" />
		<tag k="place" v="island" />
		<tag k="ssr:stedsnr" v="78628" />
	</node>
	<node lat="68.06604444150983" lon="15.407816664301969" id="-24960">
		<tag k="name" v="Kalvåselva" />
		<tag k="ssr:stedsnr" v="78970" />
		<tag k="waterway" v="stream" />
	</node>
	<node lat="68.06817222267705" lon="15.384163879673144" id="-24961">
		<tag k="name" v="Bjørndalsvatnet" />
		<tag k="natural" v="water" />
		<tag k="ssr:stedsnr" v="78975" />
	</node>
	<node lat="68.07528610833162" lon="15.461791664388135" id="-24962">
		<tag k="name" v="Nordelva" />
		<tag k="ssr:stedsnr" v="78978" />
		<tag k="waterway" v="stream" />
	</node>
	<node lat="67.65207499662728" lon="16.233930555838345" id="-24991">
		<tag k="name" v="Vuolep Gasskajávrre" />
		<tag k="name:smj" v="Vuolep Gasskajávrre" />
		<tag k="natural" v="water" />
		<tag k="ssr:stedsnr" v="105327" />
		<tag k="water" v="lake" />
	</node>
	<node lat="68.13536110864462" lon="15.961827766719674" id="-25001">
		<tag k="name" v="Sanden" />
		<tag k="natural" v="beach" />
		<tag k="ssr:stedsnr" v="109435" />
	</node>
	<node lat="67.88627500057879" lon="15.861900003468604" id="-25005">
		<tag k="name" v="Nersandnesodden" />
		<tag k="natural" v="cape" />
		<tag k="ssr:stedsnr" v="109008" />
	</node>
	<node lat="67.98978055534708" lon="15.897355561261797" id="-25034">
		<tag k="name" v="Innerjordselva" />
		<tag k="ssr:stedsnr" v="110736" />
		<tag k="waterway" v="stream" />
	</node>
	<node lat="67.92413055819466" lon="16.151686120425865" id="-25045">
		<tag k="alt_name:no" v="Tennvatnet, øvre" />
		<tag k="name" v="Bajep Tjierregjávrre - Øvre Tennvatnet" />
		<tag k="name:no" v="Øvre Tennvatnet" />
		<tag k="name:smj" v="Bajep Tjierregjávrre" />
		<tag k="natural" v="water" />
		<tag k="old_name:smj" v="Čierregjavri bajit" />
		<tag k="ssr:stedsnr" v="137372" />
	</node>
	<node lat="68.02747499687284" lon="16.53659723051212" id="-25053">
		<tag k="name" v="Måskejåhkå - Muskvikelva" />
		<tag k="name:no" v="Muskvikelva" />
		<tag k="name:smj" v="Måskejåhkå" />
		<tag k="old_name:smj" v="Moskejohka" />
		<tag k="ssr:stedsnr" v="137775" />
		<tag k="waterway" v="river" />
	</node>
	<node lat="67.80175833192797" lon="16.453449990367556" id="-25059">
		<tag k="name" v="Biekkertjávrásj" />
		<tag k="name:smj" v="Biekkertjávrásj" />
		<tag k="natural" v="water" />
		<tag k="old_name:smj" v="Biekkertjávrraš" />
		<tag k="ssr:stedsnr" v="138163" />
	</node>
	<node lat="68.10018888983183" lon="15.365605545632329" id="-25061">
		<tag k="alt_name" v="Røykfjellvatnet" />
		<tag k="name" v="Røykvatnet" />
		<tag k="natural" v="water" />
		<tag k="ssr:stedsnr" v="138051" />
	</node>
	<node lat="68.0915916665974" lon="15.41626945385793" id="-25062">
		<tag k="name" v="Storelva" />
		<tag k="ssr:stedsnr" v="138063" />
		<tag k="waterway" v="stream" />
	</node>
	<node lat="67.92330000117671" lon="16.63185555954209" id="-25064">
		<tag k="name" v="Tjoaddnejávrre - Langvatnet" />
		<tag k="name:no" v="Langvatnet" />
		<tag k="name:smj" v="Tjoaddnejávrre" />
		<tag k="natural" v="water" />
		<tag k="old_name:smj" v="Čoadnejávri" />
		<tag k="ssr:stedsnr" v="138358" />
		<tag k="water" v="lake" />
	</node>
	<node lat="67.85369722070244" lon="15.948180546215204" id="-25066">
		<tag k="name" v="Lappneset" />
		<tag k="natural" v="cape" />
		<tag k="ssr:stedsnr" v="138462" />
	</node>
	<node lat="67.85586666550745" lon="15.812761102270406" id="-25067">
		<tag k="name" v="Djupelva" />
		<tag k="ssr:stedsnr" v="138466" />
		<tag k="waterway" v="stream" />
	</node>
	<node lat="67.78434999733211" lon="16.24664445439174" id="-25069">
		<tag k="name" v="Juvvánisjåhkå" />
		<tag k="name:smj" v="Juvvánisjåhkå" />
		<tag k="old_name:smj" v="Juvvanisjohka" />
		<tag k="ssr:stedsnr" v="138173" />
		<tag k="waterway" v="stream" />
	</node>
	<node lat="67.86360000061394" lon="15.847969432382424" id="-25075">
		<tag k="name" v="Kjerringvatnet" />
		<tag k="natural" v="water" />
		<tag k="ssr:stedsnr" v="138422" />
	</node>
	<node lat="67.88319999958256" lon="15.850238880613322" id="-25076">
		<tag k="fixme" v="multiple name tags, choose one and add the other to alt_name" />
		<tag k="name" v="Oddan;Øverodden" />
		<tag k="natural" v="cape" />
		<tag k="ssr:stedsnr" v="138427" />
	</node>
	<node lat="68.0501444424299" lon="15.889683321146373" id="-25081">
		<tag k="name" v="Kløttervatnet" />
		<tag k="natural" v="water" />
		<tag k="ssr:stedsnr" v="138633" />
		<tag k="water" v="lake" />
	</node>
	<node lat="68.07265833753064" lon="15.982766659459383" id="-25085">
		<tag k="name" v="Nyfiskvatnet" />
		<tag k="natural" v="water" />
		<tag k="ssr:stedsnr" v="138657" />
	</node>
	<node lat="68.07425833235136" lon="15.62229998877383" id="-25090">
		<tag k="name" v="Sandøysjøen" />
		<tag k="natural" v="water" />
		<tag k="ssr:stedsnr" v="138667" />
		<tag k="water" v="lake" />
	</node>
	<node lat="68.00596944780277" lon="15.778336107510315" id="-25091">
		<tag k="name" v="Kroken" />
		<tag k="natural" v="bay" />
		<tag k="ssr:stedsnr" v="138554" />
	</node>
	<node lat="68.1065611097195" lon="16.01926666321259" id="-25096">
		<tag k="name" v="Kvannkjoselva" />
		<tag k="ssr:stedsnr" v="138704" />
		<tag k="waterway" v="stream" />
	</node>
	<node lat="68.04407499929485" lon="15.311258342720327" id="-25117">
		<tag k="alt_name" v="Kvanndalsvatnet, l" />
		<tag k="name" v="Litl Kvanndalsvatnet" />
		<tag k="natural" v="water" />
		<tag k="ssr:stedsnr" v="138932" />
	</node>
	<node lat="68.03205833450623" lon="16.027180547977878" id="-25143">
		<tag k="name" v="Trangsundodden" />
		<tag k="natural" v="cape" />
		<tag k="ssr:stedsnr" v="160934" />
	</node>
	<node lat="68.11491666744689" lon="15.880072217492433" id="-25149">
		<tag k="name" v="Trolltjønna" />
		<tag k="natural" v="water" />
		<tag k="ssr:stedsnr" v="170336" />
	</node>
	<node lat="68.09682221858554" lon="15.937683325697488" id="-25156">
		<tag k="name" v="Djupdalstjønna" />
		<tag k="natural" v="water" />
		<tag k="ssr:stedsnr" v="170415" />
	</node>
	<node lat="68.12506944756205" lon="16.01633888963408" id="-25162">
		<tag k="name" v="Steinklubben" />
		<tag k="natural" v="cape" />
		<tag k="ssr:stedsnr" v="169442" />
	</node>
	<node lat="68.01769444334863" lon="15.845086099311773" id="-25163">
		<tag k="name" v="Kløttervatnet" />
		<tag k="natural" v="water" />
		<tag k="ssr:stedsnr" v="169497" />
	</node>
	<node lat="68.07383055540276" lon="15.83434443792412" id="-25174">
		<tag k="name" v="Kvellro" />
		<tag k="natural" v="cape" />
		<tag k="ssr:stedsnr" v="170291" />
	</node>
	<node lat="67.85438611335287" lon="15.830558342666142" id="-25179">
		<tag k="name" v="Hundtjønna" />
		<tag k="natural" v="water" />
		<tag k="ssr:stedsnr" v="170224" />
	</node>
	<node lat="67.90952222223845" lon="15.877024994947392" id="-25200">
		<tag k="name" v="Kjerringvasselva" />
		<tag k="ssr:stedsnr" v="170985" />
		<tag k="waterway" v="river" />
	</node>
	<node lat="67.78193055396385" lon="16.14539443482315" id="-25204">
		<tag k="name" v="Sluŋkajávrre" />
		<tag k="name:smj" v="Sluŋkajávrre" />
		<tag k="natural" v="water" />
		<tag k="old_name:smj" v="Šluŋkkajávri" />
		<tag k="ssr:stedsnr" v="198233" />
		<tag k="water" v="lake" />
	</node>
	<node lat="67.82113333348478" lon="16.629955562638397" id="-25226">
		<tag k="name" v="Gussajávrre" />
		<tag k="name:smj" v="Gussajávrre" />
		<tag k="natural" v="water" />
		<tag k="old_name:smj" v="Gussajávri" />
		<tag k="ssr:stedsnr" v="199347" />
		<tag k="water" v="lake" />
	</node>
	<node lat="67.83896388747944" lon="15.825008333268364" id="-25229">
		<tag k="name" v="Makkvatnet - Suoksavuomjávrre" />
		<tag k="name:no" v="Makkvatnet" />
		<tag k="name:smj" v="Suoksavuomjávrre" />
		<tag k="natural" v="water" />
		<tag k="old_name:smj" v="Suoksavuomejávri" />
		<tag k="ssr:stedsnr" v="199433" />
		<tag k="water" v="lake" />
	</node>
	<node lat="67.78991666582822" lon="15.944030544860423" id="-25230">
		<tag k="name" v="Slåttelva" />
		<tag k="ssr:stedsnr" v="199295" />
		<tag k="waterway" v="stream" />
	</node>
	<node lat="67.79485832880708" lon="15.966016672752316" id="-25231">
		<tag k="fixme" v="multiple name:no tags, choose one and add the other to alt_name:no" />
		<tag k="name" v="Skilggajåhkå" />
		<tag k="name:no" v="Femtvasselva;Storelva" />
		<tag k="name:smj" v="Skilggajåhkå" />
		<tag k="old_name:smj" v="Skilggajohka" />
		<tag k="ssr:stedsnr" v="199298" />
		<tag k="waterway" v="river" />
	</node>
	<node lat="67.8295666652728" lon="16.101980553908273" id="-25237">
		<tag k="name" v="Osen" />
		<tag k="natural" v="bay" />
		<tag k="ssr:stedsnr" v="199484" />
	</node>
	<node lat="68.03992500181673" lon="16.603447213261568" id="-25239">
		<tag k="name" v="Sandelva" />
		<tag k="ssr:stedsnr" v="199518" />
		<tag k="waterway" v="stream" />
	</node>
	<node lat="67.94969166653" lon="15.760011114521461" id="-25244">
		<tag k="name" v="Kvitsteinvatnet" />
		<tag k="natural" v="water" />
		<tag k="ssr:stedsnr" v="199642" />
	</node>
	<node lat="68.02793888892784" lon="15.98469722086667" id="-25250">
		<tag k="alt_name" v="Varpvatn" />
		<tag k="name" v="Varpvatnet" />
		<tag k="natural" v="water" />
		<tag k="ssr:stedsnr" v="199591" />
		<tag k="water" v="lake" />
	</node>
	<node lat="68.16723333049805" lon="16.053922232739144" id="-25256">
		<tag k="alt_name" v="Fuglvatnet" />
		<tag k="name" v="Fuglevatnet" />
		<tag k="natural" v="water" />
		<tag k="ssr:stedsnr" v="199798" />
	</node>
	<node lat="68.18506944267436" lon="15.64476388940593" id="-25308">
		<tag k="name" v="Steinsosen" />
		<tag k="natural" v="bay" />
		<tag k="ssr:stedsnr" v="291076" />
	</node>
	<node lat="68.04452778157827" lon="15.737755559158336" id="-25310">
		<tag k="name" v="Vatnet" />
		<tag k="natural" v="water" />
		<tag k="ssr:stedsnr" v="291121" />
	</node>
	<node lat="67.8596055548208" lon="15.911400004207064" id="-25311">
		<tag k="name" v="Strindnes-Sørbukta" />
		<tag k="natural" v="bay" />
		<tag k="ssr:stedsnr" v="291215" />
	</node>
	<node lat="68.0147694407925" lon="15.653852766496007" id="-25316">
		<tag k="name" v="Halltjønna" />
		<tag k="natural" v="water" />
		<tag k="ssr:stedsnr" v="291041" />
	</node>
	<node lat="68.02619999947203" lon="15.617041673098946" id="-25317">
		<tag k="name" v="Ervikelva" />
		<tag k="ssr:stedsnr" v="291044" />
		<tag k="waterway" v="stream" />
	</node>
	<node lat="67.86144166521974" lon="15.928033339780617" id="-25319">
		<tag k="name" v="Straumodden" />
		<tag k="natural" v="cape" />
		<tag k="ssr:stedsnr" v="291069" />
	</node>
	<node lat="68.05928333415387" lon="15.465791659601937" id="-25329">
		<tag k="name" v="Sjylaksforsen" />
		<tag k="natural" v="waterfall" />
		<tag k="ssr:stedsnr" v="291357" />
	</node>
	<node lat="68.13333333238765" lon="16.01220000802619" id="-25332">
		<tag k="name" v="Tennsteinan" />
		<tag k="place" v="islet" />
		<tag k="ssr:stedsnr" v="291461" />
	</node>
	<node lat="68.12273888615972" lon="15.642674993300167" id="-25333">
		<tag k="name" v="Langnesholmen" />
		<tag k="place" v="islet" />
		<tag k="ssr:stedsnr" v="291540" />
	</node>
	<node lat="68.0218972255396" lon="15.88176111101996" id="-25340">
		<tag k="name" v="Mølnvatnet" />
		<tag k="natural" v="water" />
		<tag k="ssr:stedsnr" v="291518" />
	</node>
	<node lat="68.004599999698" lon="15.636000001754145" id="-25341">
		<tag k="name" v="Fekovelva" />
		<tag k="ssr:stedsnr" v="291662" />
		<tag k="waterway" v="stream" />
	</node>
	<node lat="68.08236388863718" lon="15.86503333305863" id="-25345">
		<tag k="name" v="Svarttjønna" />
		<tag k="natural" v="water" />
		<tag k="ssr:stedsnr" v="291949" />
	</node>
	<node lat="67.75572778080264" lon="16.544705550459053" id="-25359">
		<tag k="name" v="Hievsttinjávrre" />
		<tag k="name:smj" v="Hievsttinjávrre" />
		<tag k="natural" v="water" />
		<tag k="old_name:smj" v="Hievstenjávri" />
		<tag k="ssr:stedsnr" v="320168" />
		<tag k="water" v="lake" />
	</node>
	<node lat="67.65673055822344" lon="16.3148611032374" id="-25372">
		<tag k="name" v="Linnavágjávrre" />
		<tag k="name:smj" v="Linnavágjávrre" />
		<tag k="natural" v="water" />
		<tag k="old_name:smj" v="Linávákkejávrrit" />
		<tag k="ssr:stedsnr" v="320617" />
	</node>
	<node lat="67.97411944318208" lon="15.986569434847684" id="-25376">
		<tag k="name" v="Krokan" />
		<tag k="place" v="locality" />
		<tag k="ssr:stedsnr" v="320625" />
	</node>
	<node lat="67.95821944479503" lon="15.95720277427126" id="-25378">
		<tag k="name" v="Mølnelva" />
		<tag k="ssr:stedsnr" v="320628" />
		<tag k="waterway" v="stream" />
	</node>
	<node lat="68.11385000435406" lon="15.936208331746602" id="-25389">
		<tag k="name" v="Pinholtjørna" />
		<tag k="natural" v="water" />
		<tag k="ssr:stedsnr" v="320649" />
	</node>
	<node lat="68.10644444235164" lon="15.924908324463688" id="-25392">
		<tag k="name" v="Roaldvatnet" />
		<tag k="natural" v="water" />
		<tag k="ssr:stedsnr" v="320664" />
	</node>
	<node lat="67.59454166414163" lon="16.39828888070484" id="-25395">
		<tag k="name" v="Tjåhkkuljåhkå" />
		<tag k="name:smj" v="Tjåhkkuljåhkå" />
		<tag k="old_name:smj" v="Čohkuljohka" />
		<tag k="ssr:stedsnr" v="320750" />
		<tag k="waterway" v="river" />
	</node>
	<node lat="68.00987778046648" lon="16.51629167547461" id="-25402">
		<tag k="name" v="Tjævrrájåhkå" />
		<tag k="name:smj" v="Tjævrrájåhkå" />
		<tag k="old_name:smj" v="Čeavrajohka" />
		<tag k="ssr:stedsnr" v="320724" />
		<tag k="waterway" v="stream" />
	</node>
	<node lat="68.02391110862466" lon="15.393580545717347" id="-25407">
		<tag k="alt_name" v="Nesvatnan" />
		<tag k="name" v="Nesvatnet" />
		<tag k="natural" v="water" />
		<tag k="ssr:stedsnr" v="320889" />
	</node>
	<node lat="68.06871944554103" lon="15.425650004430384" id="-25422">
		<tag k="name" v="Øvstvatnet" />
		<tag k="natural" v="water" />
		<tag k="ssr:stedsnr" v="320962" />
	</node>
	<node lat="67.9679027824542" lon="16.83700277136275" id="-25424">
		<tag k="name" v="Biernajávrre - Bjørnvatnet" />
		<tag k="name:no" v="Bjørnvatnet" />
		<tag k="name:smj" v="Biernajávrre" />
		<tag k="natural" v="water" />
		<tag k="old_name:smj" v="Biertnajávri" />
		<tag k="ssr:stedsnr" v="321445" />
		<tag k="water" v="lake" />
	</node>
	<node lat="67.95172221799822" lon="16.734438897828973" id="-25466">
		<tag k="name" v="Skájdejávrre" />
		<tag k="name:smj" v="Skájdejávrre" />
		<tag k="natural" v="water" />
		<tag k="old_name:smj" v="Skáiddejávri" />
		<tag k="ssr:stedsnr" v="341523" />
		<tag k="water" v="lake" />
	</node>
	<node lat="67.86106388761824" lon="15.932211108893805" id="-25470">
		<tag k="name" v="Kilodden" />
		<tag k="natural" v="cape" />
		<tag k="ssr:stedsnr" v="351071" />
	</node>
	<node lat="67.8888388882041" lon="15.861836116741367" id="-25473">
		<tag k="name" v="Johannesberget" />
		<tag k="natural" v="cape" />
		<tag k="ssr:stedsnr" v="351027" />
	</node>
	<node lat="68.13473889233826" lon="15.695258342994851" id="-25479">
		<tag k="name" v="Litlvatnet" />
		<tag k="natural" v="water" />
		<tag k="ssr:stedsnr" v="351543" />
	</node>
	<node lat="68.02256666832871" lon="15.394458327827863" id="-25482">
		<tag k="name" v="Kronbergholmen" />
		<tag k="natural" v="cape" />
		<tag k="ssr:stedsnr" v="352071" />
	</node>
	<node lat="68.11678333313681" lon="15.877466662725277" id="-25491">
		<tag k="name" v="Krengelmyrelva" />
		<tag k="ssr:stedsnr" v="352299" />
		<tag k="waterway" v="stream" />
	</node>
	<node lat="68.02934721759087" lon="15.406663895827913" id="-25494">
		<tag k="name" v="Storholmen" />
		<tag k="place" v="islet" />
		<tag k="ssr:stedsnr" v="352170" />
	</node>
	<node lat="67.8388111121143" lon="15.793858333749556" id="-25497">
		<tag k="name" v="Skjellelvforsen" />
		<tag k="natural" v="waterfall" />
		<tag k="ssr:stedsnr" v="352183" />
	</node>
	<node lat="68.12242778063536" lon="15.658633334419449" id="-25504">
		<tag k="name" v="Langholmen" />
		<tag k="place" v="islet" />
		<tag k="ssr:stedsnr" v="352423" />
	</node>
	<node lat="67.98349166903311" lon="15.862925011174712" id="-25535">
		<tag k="name" v="Mølnelva" />
		<tag k="ssr:stedsnr" v="352795" />
		<tag k="waterway" v="stream" />
	</node>
	<node lat="67.77265555400832" lon="15.993224987345917" id="-25536">
		<tag k="name" v="Lomtjønna" />
		<tag k="natural" v="water" />
		<tag k="ssr:stedsnr" v="352798" />
	</node>
	<node lat="68.18267777513717" lon="16.131988889787394" id="-25539">
		<tag k="name" v="Stongneselva" />
		<tag k="ssr:stedsnr" v="352885" />
		<tag k="waterway" v="stream" />
	</node>
	<node lat="67.91188889155016" lon="15.958641658831395" id="-25543">
		<tag k="name" v="Lagmannsvikvatnet" />
		<tag k="natural" v="water" />
		<tag k="ssr:stedsnr" v="380383" />
	</node>
	<node lat="67.90342777653888" lon="15.900038887703944" id="-25546">
		<tag k="name" v="Tennvasselva" />
		<tag k="ssr:stedsnr" v="380397" />
		<tag k="waterway" v="stream" />
	</node>
	<node lat="67.89885833741403" lon="15.92896387778436" id="-25547">
		<tag k="name" v="Tennvatnet" />
		<tag k="natural" v="water" />
		<tag k="ssr:stedsnr" v="380399" />
		<tag k="water" v="lake" />
	</node>
	<node lat="67.83149444511386" lon="16.36178889966253" id="-25560">
		<tag k="name" v="Gielddajávrre" />
		<tag k="name:smj" v="Gielddajávrre" />
		<tag k="natural" v="water" />
		<tag k="old_name:smj" v="Gielddajávri" />
		<tag k="ssr:stedsnr" v="380358" />
		<tag k="water" v="lake" />
	</node>
	<node lat="67.86133333499052" lon="15.926327773235425" id="-25561">
		<tag k="name" v="Strindstraumen" />
		<tag k="natural" v="strait" />
		<tag k="ssr:stedsnr" v="380485" />
	</node>
	<node lat="68.15364444594809" lon="15.802111122837148" id="-25564">
		<tag k="name" v="Mølnvatnet" />
		<tag k="natural" v="water" />
		<tag k="ssr:stedsnr" v="380751" />
		<tag k="water" v="lake" />
	</node>
	<node lat="68.12591388705135" lon="15.97192221117476" id="-25567">
		<tag k="name" v="Langodden" />
		<tag k="natural" v="cape" />
		<tag k="ssr:stedsnr" v="380832" />
	</node>
	<node lat="68.00380833219506" lon="15.389252782966539" id="-25569">
		<tag k="fixme" v="multiple name tags, choose one and add the other to alt_name" />
		<tag k="name" v="Sørlandsosen;Litltrollosen" />
		<tag k="natural" v="bay" />
		<tag k="ssr:stedsnr" v="380854" />
	</node>
	<node lat="67.99664722071466" lon="15.58588609977037" id="-25570">
		<tag k="name" v="Innerelva" />
		<tag k="ssr:stedsnr" v="380889" />
		<tag k="waterway" v="stream" />
	</node>
	<node lat="68.11206388478408" lon="15.52663054655767" id="-25575">
		<tag k="name" v="Lapposen" />
		<tag k="natural" v="bay" />
		<tag k="ssr:stedsnr" v="381038" />
	</node>
	<node lat="68.11213333417268" lon="15.588961104640644" id="-25576">
		<tag k="name" v="Kulvatnet" />
		<tag k="natural" v="water" />
		<tag k="ssr:stedsnr" v="381041" />
	</node>
	<node lat="67.92570833280833" lon="16.403883320434137" id="-25582">
		<tag k="name" v="Bealgajåhkå" />
		<tag k="name:smj" v="Bealgajåhkå" />
		<tag k="old_name:smj" v="Bealggajohka" />
		<tag k="ssr:stedsnr" v="381339" />
		<tag k="waterway" v="stream" />
	</node>
	<node lat="67.77986666244176" lon="15.927027774643337" id="-25585">
		<tag k="name" v="Telegrafelva" />
		<tag k="ssr:stedsnr" v="381292" />
		<tag k="waterway" v="stream" />
	</node>
	<node lat="67.87636388760211" lon="16.511174987604953" id="-25590">
		<tag k="name" v="Tjierrekjávrre" />
		<tag k="name:smj" v="Tjierrekjávrre" />
		<tag k="natural" v="water" />
		<tag k="old_name:smj" v="Čierregjávri" />
		<tag k="ssr:stedsnr" v="381379" />
	</node>
	<node lat="68.04310000477432" lon="16.578111103193248" id="-25591">
		<tag k="name" v="Sandvatnet" />
		<tag k="natural" v="water" />
		<tag k="ssr:stedsnr" v="381513" />
	</node>
	<node lat="67.86460555845123" lon="15.979083343520049" id="-25596">
		<tag k="alt_name" v="Skilelva" />
		<tag k="name" v="Skjellelva" />
		<tag k="ssr:stedsnr" v="381457" />
		<tag k="waterway" v="stream" />
	</node>
	<node lat="67.86714722544333" lon="15.95302778793342" id="-25597">
		<tag k="name" v="Strindelva" />
		<tag k="ssr:stedsnr" v="381458" />
		<tag k="waterway" v="stream" />
	</node>
	<node lat="67.81799166901806" lon="16.209047210782877" id="-25600">
		<tag k="name" v="Gåjgijávrre" />
		<tag k="name:smj" v="Gåjgijávrre" />
		<tag k="natural" v="water" />
		<tag k="old_name:smj" v="Goigejávri, bajit;Goigej'avri, bajit;Bajep Gåjgijávrre" />
		<tag k="ssr:stedsnr" v="381495" />
		<tag k="water" v="lake" />
	</node>
	<node lat="67.60483611576379" lon="16.264397219710517" id="-25611">
		<tag k="name" v="Gårttjejávrre - Forsvatnet" />
		<tag k="name:no" v="Forsvatnet" />
		<tag k="name:smj" v="Gårttjejávrre" />
		<tag k="natural" v="water" />
		<tag k="old_name:smj" v="Goržejávri" />
		<tag k="ssr:stedsnr" v="381783" />
		<tag k="water" v="lake" />
	</node>
	<node lat="67.5553916703593" lon="16.38709445203448" id="-25655">
		<tag k="name" v="Niennajávrre" />
		<tag k="name:smj" v="Niennajávrre" />
		<tag k="natural" v="water" />
		<tag k="ssr:stedsnr" v="402820" />
		<tag k="water" v="lake" />
	</node>
	<node lat="68.1122833332621" lon="15.492124987992375" id="-25658">
		<tag k="name" v="Egerdalselva" />
		<tag k="ssr:stedsnr" v="412415" />
		<tag k="waterway" v="stream" />
	</node>
	<node lat="67.89394444476702" lon="15.857991654910013" id="-25662">
		<tag k="name" v="Klubben" />
		<tag k="natural" v="cape" />
		<tag k="ssr:stedsnr" v="412025" />
	</node>
	<node lat="67.99401666623783" lon="15.52302499528797" id="-25667">
		<tag k="name" v="Dønshågvatnet" />
		<tag k="natural" v="water" />
		<tag k="ssr:stedsnr" v="412635" />
		<tag k="water" v="lake" />
	</node>
	<node lat="68.03345833546292" lon="15.363791664385115" id="-25676">
		<tag k="name" v="Brattholmen" />
		<tag k="place" v="islet" />
		<tag k="ssr:stedsnr" v="413212" />
	</node>
	<node lat="67.84512777808595" lon="15.80653334451008" id="-25678">
		<tag k="name" v="Litlrundtjønna" />
		<tag k="natural" v="water" />
		<tag k="ssr:stedsnr" v="413224" />
	</node>
	<node lat="67.84789722567989" lon="15.967388879450679" id="-25683">
		<tag k="name" v="Innerelva" />
		<tag k="ssr:stedsnr" v="413268" />
		<tag k="waterway" v="stream" />
	</node>
	<node lat="68.12275000346786" lon="15.660730555610035" id="-25688">
		<tag k="name" v="Litlholmen" />
		<tag k="place" v="islet" />
		<tag k="ssr:stedsnr" v="413456" />
	</node>
	<node lat="68.08045833514474" lon="15.892355545579907" id="-25691">
		<tag k="name" v="Karenoddan" />
		<tag k="natural" v="cape" />
		<tag k="ssr:stedsnr" v="413370" />
	</node>
	<node lat="68.07692778083691" lon="15.910452783178624" id="-25692">
		<tag k="name" v="Flåttvika" />
		<tag k="natural" v="bay" />
		<tag k="ssr:stedsnr" v="413372" />
	</node>
	<node lat="67.77247777945944" lon="16.005097214970288" id="-25698">
		<tag k="name" v="Jonasbekken" />
		<tag k="ssr:stedsnr" v="413826" />
		<tag k="waterway" v="stream" />
	</node>
	<node lat="67.80433888483421" lon="16.433563886417346" id="-25717">
		<tag k="name" v="Biekkertjávrre" />
		<tag k="name:smj" v="Biekkertjávrre" />
		<tag k="natural" v="water" />
		<tag k="old_name:smj" v="Biekkertjávri" />
		<tag k="ssr:stedsnr" v="441130" />
		<tag k="water" v="lake" />
	</node>
	<node lat="68.07270555817634" lon="15.833883321943432" id="-25721">
		<tag k="name" v="Øysundet" />
		<tag k="natural" v="strait" />
		<tag k="ssr:stedsnr" v="442655" />
	</node>
	<node lat="68.07575555468644" lon="15.697083333010418" id="-25722">
		<tag k="name" v="Finnvikvatnet" />
		<tag k="natural" v="water" />
		<tag k="ssr:stedsnr" v="442660" />
	</node>
	<node lat="67.90700555264357" lon="15.88044721942327" id="-25729">
		<tag k="name" v="Kjerringvatnet" />
		<tag k="natural" v="water" />
		<tag k="ssr:stedsnr" v="441374" />
		<tag k="water" v="lake" />
	</node>
	<node lat="67.9004972254014" lon="15.816983329027968" id="-25730">
		<tag k="name" v="Lielvvatnet" />
		<tag k="natural" v="water" />
		<tag k="ssr:stedsnr" v="441375" />
	</node>
	<node lat="67.85540277939134" lon="15.828324990074965" id="-25734">
		<tag k="alt_name" v="Tømmertjørna" />
		<tag k="name" v="Tømmertjønna" />
		<tag k="natural" v="water" />
		<tag k="ssr:stedsnr" v="441461" />
	</node>
	<node lat="67.65865833168976" lon="16.24660834209328" id="-25739">
		<tag k="name" v="Gasskajávrrit" />
		<tag k="name:smj" v="Gasskajávrrit" />
		<tag k="natural" v="water" />
		<tag k="old_name:smj" v="Gaskajávrrit" />
		<tag k="ssr:stedsnr" v="441640" />
		<tag k="water" v="lake" />
	</node>
	<node lat="67.7142611112889" lon="16.52541666371072" id="-25742">
		<tag k="name" v="Gihtsejåhkå" />
		<tag k="name:smj" v="Gihtsejåhkå" />
		<tag k="old_name:smj" v="Gihcijohka" />
		<tag k="ssr:stedsnr" v="441653" />
		<tag k="waterway" v="river" />
	</node>
	<node lat="67.6198611094885" lon="16.368647213009194" id="-25749">
		<tag k="name" v="Linnajávrásj" />
		<tag k="name:smj" v="Linnajávrásj" />
		<tag k="natural" v="water" />
		<tag k="old_name:smj" v="Linájávrráš" />
		<tag k="ssr:stedsnr" v="441630" />
	</node>
	<node lat="67.63530555646727" lon="16.495558329411097" id="-25750">
		<tag k="name" v="Sjnasjkasluoppar" />
		<tag k="name:smj" v="Sjnasjkasluoppar" />
		<tag k="natural" v="water" />
		<tag k="old_name:smj" v="Njaskasluoppal" />
		<tag k="ssr:stedsnr" v="441631" />
	</node>
	<node lat="67.86923610959444" lon="15.918891655437577" id="-25759">
		<tag k="alt_name" v="Forneset" />
		<tag k="name" v="Forrneset" />
		<tag k="natural" v="cape" />
		<tag k="ssr:stedsnr" v="442224" />
	</node>
	<node lat="67.78552222141094" lon="15.959133338085282" id="-25760">
		<tag k="name" v="Sjettvasselva" />
		<tag k="ssr:stedsnr" v="442314" />
		<tag k="waterway" v="river" />
	</node>
	<node lat="67.79535278088848" lon="16.067872216979588" id="-25761">
		<tag k="name" v="Grunnen" />
		<tag k="natural" v="shoal" />
		<tag k="place" v="locality" />
		<tag k="ssr:stedsnr" v="442322" />
	</node>
	<node lat="67.87528055184933" lon="16.620186098342007" id="-25764">
		<tag k="name" v="Vuolle-Sválasvágjávrre" />
		<tag k="name:smj" v="Vuolle-Sválasvágjávrre" />
		<tag k="natural" v="water" />
		<tag k="old_name:smj" v="Sválesvakkejávri, vuolimus" />
		<tag k="ssr:stedsnr" v="442373" />
		<tag k="water" v="lake" />
	</node>
	<node lat="67.87000277541804" lon="16.63477776669967" id="-25765">
		<tag k="name" v="Gasska-Sválasvágjávrre" />
		<tag k="name:smj" v="Gasska-Sválasvágjávrre" />
		<tag k="natural" v="water" />
		<tag k="old_name:smj" v="Sválesvakkejávri, gaska" />
		<tag k="ssr:stedsnr" v="442375" />
		<tag k="water" v="lake" />
	</node>
	<node lat="67.86350833475912" lon="16.260663876733894" id="-25766">
		<tag k="name" v="Vuolep Niejdavágjávrre" />
		<tag k="name:smj" v="Vuolep Niejdavágjávrre" />
		<tag k="natural" v="water" />
		<tag k="old_name:smj" v="Nieidavákkejávri, vuolit" />
		<tag k="ssr:stedsnr" v="442377" />
		<tag k="water" v="lake" />
	</node>
	<node lat="68.00653889127939" lon="15.808588896192989" id="-25767">
		<tag k="name" v="Vassdalselva" />
		<tag k="ssr:stedsnr" v="442543" />
		<tag k="waterway" v="stream" />
	</node>
	<node lat="68.00963888892241" lon="16.03511387937081" id="-25768">
		<tag k="name" v="Botelvatnet" />
		<tag k="natural" v="water" />
		<tag k="ssr:stedsnr" v="442544" />
	</node>
	<node lat="68.0080416713372" lon="16.135755547698505" id="-25769">
		<tag k="name" v="Kråvatnet" />
		<tag k="natural" v="water" />
		<tag k="ssr:stedsnr" v="442545" />
	</node>
	<node lat="68.02525833288875" lon="16.01837777610839" id="-25781">
		<tag k="loc_name:smj" v="Ájluovtjávre" />
		<tag k="name" v="Dragsvatnan" />
		<tag k="name:no" v="Dragsvatnan" />
		<tag k="natural" v="water" />
		<tag k="ssr:stedsnr" v="442574" />
		<tag k="water" v="lake" />
	</node>
	<node lat="68.02301667091582" lon="15.957805552364661" id="-25782">
		<tag k="name" v="Varpelva" />
		<tag k="ssr:stedsnr" v="442582" />
		<tag k="waterway" v="stream" />
	</node>
	<node lat="68.01820278008272" lon="16.57251388828903" id="-25785">
		<tag k="name" v="Unna Dáppájávrre - Dappavatnet" />
		<tag k="name:no" v="Dappavatnet" />
		<tag k="name:smj" v="Unna Dáppájávrre" />
		<tag k="natural" v="water" />
		<tag k="old_name:smj" v="Dappajávri, unna" />
		<tag k="ssr:stedsnr" v="442766" />
	</node>
	<node lat="68.19618888864004" lon="15.888261098840506" id="-25788">
		<tag k="name" v="Mellomvatnet" />
		<tag k="natural" v="water" />
		<tag k="ssr:stedsnr" v="442824" />
	</node>
	<node lat="68.02670277481369" lon="15.368355549915151" id="-25791">
		<tag k="alt_name" v="Stenslandsvatnet" />
		<tag k="name" v="Steinslandsvatnet" />
		<tag k="natural" v="water" />
		<tag k="ssr:stedsnr" v="442926" />
	</node>
	<node lat="68.06499444231787" lon="15.513336120659051" id="-25793">
		<tag k="alt_name" v="Lapptjørna" />
		<tag k="name" v="Lapptjønna" />
		<tag k="natural" v="water" />
		<tag k="ssr:stedsnr" v="442960" />
	</node>
	<node lat="67.91240833322414" lon="16.5334166664212" id="-25811">
		<tag k="name" v="Guovddelisjávvre" />
		<tag k="name:smj" v="Guovddelisjávvre" />
		<tag k="natural" v="water" />
		<tag k="old_name:smj" v="Guovdelisjávri" />
		<tag k="ssr:stedsnr" v="502318" />
		<tag k="water" v="lake" />
	</node>
	<node lat="67.87254444763565" lon="15.806013890308991" id="-25812">
		<tag k="alt_name" v="Gråorelva" />
		<tag k="name" v="Gråurdelva" />
		<tag k="ssr:stedsnr" v="502416" />
		<tag k="waterway" v="stream" />
	</node>
	<node lat="67.85895000179913" lon="15.837247217426343" id="-25813">
		<tag k="name" v="Suoksavuomjåhkå - Makkvasselva" />
		<tag k="name:no" v="Makkvasselva" />
		<tag k="name:smj" v="Suoksavuomjåhkå" />
		<tag k="old_name:smj" v="Suoksavuomejohka" />
		<tag k="ssr:stedsnr" v="502419" />
		<tag k="waterway" v="river" />
	</node>
	<node lat="67.86840000140889" lon="15.86404445619564" id="-25814">
		<tag k="name" v="Rokkvika" />
		<tag k="natural" v="bay" />
		<tag k="ssr:stedsnr" v="502420" />
	</node>
	<node lat="67.82315555194037" lon="16.185238894123895" id="-25815">
		<tag k="name" v="Gåjgijávrre" />
		<tag k="name:smj" v="Gåjgijávrre" />
		<tag k="natural" v="water" />
		<tag k="old_name:smj" v="Goigej'avri, vuolit;Vuolep Gåjgijávrre" />
		<tag k="ssr:stedsnr" v="502489" />
		<tag k="water" v="lake" />
	</node>
	<node lat="67.58314444221782" lon="16.477566657858123" id="-25830">
		<tag k="name" v="Gáiccasjávri" />
		<tag k="natural" v="water" />
		<tag k="ssr:stedsnr" v="502752" />
	</node>
	<node lat="67.58178611029501" lon="16.2942750014523" id="-25831">
		<tag k="name" v="Alemusjåhkå - Vestrelva" />
		<tag k="name:no" v="Vestrelva" />
		<tag k="name:smj" v="Alemusjåhkå" />
		<tag k="old_name:smj" v="Alimusjohka" />
		<tag k="ssr:stedsnr" v="502754" />
		<tag k="waterway" v="stream" />
	</node>
	<node lat="67.76274166856132" lon="16.46621387828715" id="-25839">
		<tag k="name" v="Gierisluoppar" />
		<tag k="name:smj" v="Gierisluoppar" />
		<tag k="natural" v="water" />
		<tag k="old_name:smj" v="Gieresluoppal" />
		<tag k="ssr:stedsnr" v="502142" />
	</node>
	<node lat="67.76648055237816" lon="16.380108338941334" id="-25840">
		<tag k="name" v="Rumbogierjávrre" />
		<tag k="name:smj" v="Rumbogierjávrre" />
		<tag k="natural" v="water" />
		<tag k="old_name:smj" v="Rumbogierjávri" />
		<tag k="ssr:stedsnr" v="502143" />
		<tag k="water" v="lake" />
	</node>
	<node lat="67.95646111039511" lon="16.71263054450766" id="-25842">
		<tag k="name" v="Skájdejávrre" />
		<tag k="name:smj" v="Skájdejávrre" />
		<tag k="natural" v="water" />
		<tag k="old_name:smj" v="Skáiddejávri" />
		<tag k="ssr:stedsnr" v="502262" />
		<tag k="water" v="lake" />
	</node>
	<node lat="67.9729944476932" lon="16.412633342159772" id="-25843">
		<tag k="name" v="Suolojávrre" />
		<tag k="name:smj" v="Suolojávrre" />
		<tag k="natural" v="water" />
		<tag k="old_name:smj" v="Suolojávri" />
		<tag k="ssr:stedsnr" v="502268" />
		<tag k="water" v="lake" />
	</node>
	<node lat="67.84795555209695" lon="16.52112221799466" id="-25848">
		<tag k="name" v="Gálmmagálddo" />
		<tag k="name:smj" v="Gálmmagálddo" />
		<tag k="natural" v="spring" />
		<tag k="old_name:smj" v="Galmagáldu" />
		<tag k="ssr:stedsnr" v="502346" />
	</node>
	<node lat="67.84188888484228" lon="16.37213333944901" id="-25849">
		<tag k="name" v="Vásjájåhkå" />
		<tag k="name:smj" v="Vásjájåhkå" />
		<tag k="old_name:smj" v="Váššajohka" />
		<tag k="ssr:stedsnr" v="502350" />
		<tag k="waterway" v="stream" />
	</node>
	<node lat="67.88220555413687" lon="15.995363881170828" id="-25852">
		<tag k="name" v="Rundvatnet" />
		<tag k="natural" v="water" />
		<tag k="ssr:stedsnr" v="502432" />
	</node>
	<node lat="67.874208330896" lon="15.768169446285723" id="-25853">
		<tag k="name" v="Lysverkvatnet" />
		<tag k="natural" v="water" />
		<tag k="ssr:stedsnr" v="502436" />
		<tag k="water" v="lake" />
	</node>
	<node lat="68.00579722263268" lon="16.166966655667956" id="-25861">
		<tag k="name" v="Mølnelva" />
		<tag k="ssr:stedsnr" v="502544" />
		<tag k="waterway" v="stream" />
	</node>
	<node lat="67.96946944185383" lon="16.0859111051698" id="-25873">
		<tag k="alt_name" v="Gevaelva" />
		<tag k="name" v="Gievaelva" />
		<tag k="ssr:stedsnr" v="502646" />
		<tag k="waterway" v="stream" />
	</node>
	<node lat="68.19395833086018" lon="15.899980555761818" id="-25881">
		<tag k="name" v="Mølnvatnet" />
		<tag k="natural" v="water" />
		<tag k="ssr:stedsnr" v="502798" />
	</node>
	<node lat="67.71978611223663" lon="16.41840278190361" id="-25882">
		<tag k="name" v="Gihtsejávrre" />
		<tag k="name:smj" v="Gihtsejávrre" />
		<tag k="natural" v="water" />
		<tag k="old_name:smj" v="Gihcijávri" />
		<tag k="ssr:stedsnr" v="502651" />
		<tag k="water" v="lake" />
	</node>
	<node lat="67.96720000130173" lon="16.119841669530363" id="-25886">
		<tag k="loc_name:no" v="Gievvavatnet" />
		<tag k="loc_name:smj" v="Gievvajávrre" />
		<tag k="name" v="Gevavatnet" />
		<tag k="name:no" v="Gevavatnet" />
		<tag k="natural" v="water" />
		<tag k="ssr:stedsnr" v="502659" />
	</node>
	<node lat="68.06832777929874" lon="15.437252786578814" id="-25903">
		<tag k="name" v="Rundvatnet" />
		<tag k="natural" v="water" />
		<tag k="ssr:stedsnr" v="502959" />
	</node>
	<node lat="68.06767500403356" lon="15.444011111258012" id="-25904">
		<tag k="name" v="Hoffmannsfjellvatnet" />
		<tag k="natural" v="water" />
		<tag k="ssr:stedsnr" v="502962" />
	</node>
	<node lat="68.06481111226385" lon="15.341980556655125" id="-25905">
		<tag k="name" v="Innerleira" />
		<tag k="natural" v="bay" />
		<tag k="ssr:stedsnr" v="502963" />
	</node>
	<node lat="68.25287499887904" lon="16.03554443434705" id="-25924">
		<tag k="name" v="Mølndammen" />
		<tag k="natural" v="water" />
		<tag k="ssr:stedsnr" v="510233" />
	</node>
	<node lat="67.99994166377738" lon="16.02051667461514" id="-25945">
		<tag k="name" v="Merkforrtjønna" />
		<tag k="natural" v="water" />
		<tag k="ssr:stedsnr" v="524938" />
	</node>
	<node lat="68.13961944731909" lon="15.431083339735642" id="-25957">
		<tag k="name" v="Fikkeelva" />
		<tag k="ssr:stedsnr" v="533882" />
		<tag k="waterway" v="river" />
	</node>
	<node lat="67.8966361110748" lon="15.848516669073241" id="-25961">
		<tag k="name" v="Sandvika" />
		<tag k="natural" v="bay" />
		<tag k="ssr:stedsnr" v="533963" />
	</node>
	<node lat="68.03155278153676" lon="15.367988877680565" id="-25962">
		<tag k="name" v="Perodden" />
		<tag k="natural" v="cape" />
		<tag k="ssr:stedsnr" v="534191" />
	</node>
	<node lat="68.0336500036512" lon="15.3610472247145" id="-25963">
		<tag k="name" v="Grisholmen" />
		<tag k="place" v="islet" />
		<tag k="ssr:stedsnr" v="534195" />
	</node>
	<node lat="68.0864361069672" lon="15.590769439876231" id="-25971">
		<tag k="name" v="Stokklandselva" />
		<tag k="ssr:stedsnr" v="534112" />
		<tag k="waterway" v="stream" />
	</node>
	<node lat="68.07977222000277" lon="15.906397219970513" id="-25985">
		<tag k="name" v="Laksvika" />
		<tag k="natural" v="bay" />
		<tag k="ssr:stedsnr" v="534343" />
	</node>
	<node lat="68.12155277641313" lon="15.44472777238027" id="-25988">
		<tag k="name" v="Vesterelva" />
		<tag k="ssr:stedsnr" v="534530" />
		<tag k="waterway" v="stream" />
	</node>
	<node lat="68.14055833483592" lon="15.935825001376532" id="-25999">
		<tag k="name" v="Nøkkvasselva" />
		<tag k="ssr:stedsnr" v="534696" />
		<tag k="waterway" v="stream" />
	</node>
	<node lat="68.1149583300589" lon="15.89797221711461" id="-26009">
		<tag k="name" v="Orendalselva" />
		<tag k="ssr:stedsnr" v="563689" />
		<tag k="waterway" v="stream" />
	</node>
	<node lat="68.13295833538018" lon="15.538066678732573" id="-26012">
		<tag k="name" v="Skratnesvatnet" />
		<tag k="natural" v="water" />
		<tag k="ssr:stedsnr" v="562005" />
	</node>
	<node lat="68.13207778041061" lon="15.45355832499729" id="-26015">
		<tag k="name" v="Hamnesvatnet" />
		<tag k="natural" v="water" />
		<tag k="ssr:stedsnr" v="562101" />
	</node>
	<node lat="67.82206666876782" lon="16.66209998839235" id="-26020">
		<tag k="name" v="Váldajávrre" />
		<tag k="name:smj" v="Váldajávrre" />
		<tag k="natural" v="water" />
		<tag k="old_name:smj" v="Válddajávri" />
		<tag k="ssr:stedsnr" v="562115" />
		<tag k="water" v="lake" />
	</node>
	<node lat="67.7967444485446" lon="16.306422227157523" id="-26022">
		<tag k="name" v="Badje-Rumbojávrre" />
		<tag k="name:smj" v="Badje-Rumbojávrre" />
		<tag k="natural" v="water" />
		<tag k="old_name:smj" v="Rumbojávri, bajit;Bajep Rumbojávrre" />
		<tag k="ssr:stedsnr" v="562126" />
		<tag k="water" v="lake" />
	</node>
	<node lat="67.77917777792291" lon="16.2768277874035" id="-26023">
		<tag k="name" v="Juvvánisjávrre" />
		<tag k="name:smj" v="Juvvánisjávrre" />
		<tag k="natural" v="water" />
		<tag k="old_name:smj" v="Juvvanisjavri" />
		<tag k="ssr:stedsnr" v="562137" />
		<tag k="water" v="lake" />
	</node>
	<node lat="67.89267222499059" lon="16.52980833378686" id="-26029">
		<tag k="name" v="Gåddetjåkjávre" />
		<tag k="name:smj" v="Gåddetjåkjávre" />
		<tag k="natural" v="water" />
		<tag k="old_name:smj" v="Goddečohkajávrrih" />
		<tag k="ssr:stedsnr" v="562301" />
	</node>
	<node lat="67.87654722583359" lon="15.930361116819213" id="-26036">
		<tag k="name" v="Revelva" />
		<tag k="ssr:stedsnr" v="562396" />
		<tag k="waterway" v="stream" />
	</node>
	<node lat="67.87741944254209" lon="16.09189721348714" id="-26037">
		<tag k="alt_name:no" v="Kuvatnan nedre" />
		<tag k="name" v="Vuolep Gussagåpjávrre - Nedre Kuvatnan" />
		<tag k="name:no" v="Nedre Kuvatnan" />
		<tag k="name:smj" v="Vuolep Gussagåpjávrre" />
		<tag k="natural" v="water" />
		<tag k="old_name:smj" v="Gussagobejavri, vuolit" />
		<tag k="ssr:stedsnr" v="562401" />
		<tag k="water" v="lake" />
	</node>
	<node lat="67.89681111364611" lon="15.839175000013535" id="-26050">
		<tag k="name" v="Lielva" />
		<tag k="ssr:stedsnr" v="562374" />
		<tag k="waterway" v="stream" />
	</node>
	<node lat="67.86011667083582" lon="16.009502785640485" id="-26051">
		<tag k="name" v="Lappjordelva" />
		<tag k="ssr:stedsnr" v="562434" />
		<tag k="waterway" v="stream" />
	</node>
	<node lat="67.84700555571827" lon="16.17520276927159" id="-26052">
		<tag k="name" v="Skuŋkijåhkå" />
		<tag k="name:smj" v="Skuŋkijåhkå" />
		<tag k="old_name:smj" v="Skuŋkajohka" />
		<tag k="ssr:stedsnr" v="562437" />
		<tag k="waterway" v="stream" />
	</node>
	<node lat="67.78008611327861" lon="15.97547500335247" id="-26056">
		<tag k="name" v="Sagvatnan" />
		<tag k="natural" v="water" />
		<tag k="ssr:stedsnr" v="562463" />
		<tag k="water" v="lake" />
	</node>
	<node lat="67.86077777983454" lon="15.936244454618054" id="-26057">
		<tag k="name" v="Gilldanjárgga" />
		<tag k="name:smj" v="Gilldanjárgga" />
		<tag k="natural" v="cape" />
		<tag k="old_name:smj" v="Gildanjarga" />
		<tag k="ssr:stedsnr" v="562465" />
	</node>
	<node lat="67.82460832979426" lon="16.11615276821156" id="-26059">
		<tag k="name" v="Rikanderstjørna" />
		<tag k="natural" v="water" />
		<tag k="ssr:stedsnr" v="562488" />
	</node>
	<node lat="68.06238889219571" lon="15.988827767164246" id="-26064">
		<tag k="name" v="Kjerrelva" />
		<tag k="ssr:stedsnr" v="562595" />
		<tag k="waterway" v="stream" />
	</node>
	<node lat="68.04421111514571" lon="15.937141658061707" id="-26077">
		<tag k="alt_name" v="Småtjørnan" />
		<tag k="name" v="Småtjønnen" />
		<tag k="natural" v="water" />
		<tag k="ssr:stedsnr" v="562629" />
		<tag k="water" v="lake" />
	</node>
	<node lat="68.06392499947461" lon="15.895322221443005" id="-26080">
		<tag k="name" v="Skilvatnet" />
		<tag k="natural" v="water" />
		<tag k="ssr:stedsnr" v="562638" />
		<tag k="water" v="lake" />
	</node>
	<node lat="67.73467778136508" lon="16.23584165592511" id="-26082">
		<tag k="name" v="Jávrregasska" />
		<tag k="name:smj" v="Jávrregasska" />
		<tag k="natural" v="water" />
		<tag k="old_name:smj" v="Jávregaska" />
		<tag k="ssr:stedsnr" v="562642" />
	</node>
	<node lat="68.09881049484048" lon="15.893341943599141" id="-26087">
		<tag k="name" v="Jensvatnet" />
		<tag k="natural" v="water" />
		<tag k="ssr:stedsnr" v="562665" />
	</node>
	<node lat="67.9939444432886" lon="15.812058338014674" id="-26088">
		<tag k="alt_name" v="Oteråga, l;Litl Oteråga" />
		<tag k="name" v="Litloteråga" />
		<tag k="ssr:stedsnr" v="562672" />
		<tag k="waterway" v="stream" />
	</node>
	<node lat="68.152352776429" lon="15.779630548255703" id="-26092">
		<tag k="name" v="Langosen" />
		<tag k="natural" v="bay" />
		<tag k="ssr:stedsnr" v="562819" />
	</node>
	<node lat="68.05083333479043" lon="15.592744433225654" id="-26097">
		<tag k="name" v="Mølnvatnet" />
		<tag k="natural" v="water" />
		<tag k="ssr:stedsnr" v="562925" />
	</node>
	<node lat="68.04929999651942" lon="15.472341672189879" id="-26100">
		<tag k="name" v="Osen" />
		<tag k="natural" v="bay" />
		<tag k="ssr:stedsnr" v="562931" />
	</node>
	<node lat="68.0570111142324" lon="15.49296388164423" id="-26102">
		<tag k="name" v="Haukåssjøen" />
		<tag k="natural" v="bay" />
		<tag k="ssr:stedsnr" v="562944" />
	</node>
	<node lat="67.79095278237547" lon="15.959019435856975" id="-26119">
		<tag k="name" v="Vidátjávrre - Femtvatnet" />
		<tag k="name:no" v="Femtvatnet" />
		<tag k="name:smj" v="Vidátjávrre" />
		<tag k="natural" v="water" />
		<tag k="old_name:smj" v="Vidatjávri" />
		<tag k="ssr:stedsnr" v="563277" />
	</node>
	<node lat="67.8668305525274" lon="16.48360000889838" id="-26120">
		<tag k="name" v="Biehtselåptjávrre - Fordalvatnet" />
		<tag k="name:no" v="Fordalvatnet" />
		<tag k="name:smj" v="Biehtselåptjávrre" />
		<tag k="natural" v="water" />
		<tag k="old_name:smj" v="Beahceloptjávri" />
		<tag k="ssr:stedsnr" v="563343" />
		<tag k="water" v="lake" />
	</node>
	<node lat="67.99193055222896" lon="16.733119438178072" id="-26125">
		<tag k="name" v="Svartelva" />
		<tag k="ssr:stedsnr" v="563444" />
		<tag k="waterway" v="river" />
	</node>
	<node lat="67.79923333050128" lon="15.948466662081158" id="-26126">
		<tag k="name" v="Kvannelva" />
		<tag k="ssr:stedsnr" v="563463" />
		<tag k="waterway" v="stream" />
	</node>
	<node lat="68.01645277579932" lon="16.010336103940958" id="-26129">
		<tag k="alt_name" v="Småtjørnan" />
		<tag k="name" v="Småtjønnan" />
		<tag k="natural" v="water" />
		<tag k="ssr:stedsnr" v="563569" />
		<tag k="water" v="lake" />
	</node>
	<node lat="67.93142221987132" lon="15.792144443939117" id="-26130">
		<tag k="alt_name" v="Dønsågvatnet" />
		<tag k="name" v="Dønselvvatnet" />
		<tag k="natural" v="water" />
		<tag k="ssr:stedsnr" v="563642" />
		<tag k="water" v="lake" />
	</node>
	<node lat="67.60038055557192" lon="16.324908330525425" id="-26135">
		<tag k="name" v="Unnajávrásj - Litlevatnet" />
		<tag k="name:no" v="Litlevatnet" />
		<tag k="name:smj" v="Unnajávrásj" />
		<tag k="natural" v="water" />
		<tag k="old_name:smj" v="Unnajávrráš" />
		<tag k="ssr:stedsnr" v="563778" />
	</node>
	<node lat="67.58431666490286" lon="16.441222219005635" id="-26141">
		<tag k="name" v="Lulemusjåhkå - Austrelva" />
		<tag k="name:no" v="Austrelva" />
		<tag k="name:smj" v="Lulemusjåhkå" />
		<tag k="old_name:smj" v="Lulimusjohka" />
		<tag k="ssr:stedsnr" v="563766" />
		<tag k="waterway" v="stream" />
	</node>
	<node lat="68.07652222394962" lon="15.906458335457884" id="-26177">
		<tag k="name" v="Flåttvikodden" />
		<tag k="natural" v="cape" />
		<tag k="ssr:stedsnr" v="584965" />
	</node>
	<node lat="68.13598055920303" lon="15.68220554591135" id="-26185">
		<tag k="name" v="Åselva" />
		<tag k="ssr:stedsnr" v="594548" />
		<tag k="waterway" v="stream" />
	</node>
	<node lat="68.01839722273046" lon="15.728619450808798" id="-26193">
		<tag k="name" v="Botnelva" />
		<tag k="ssr:stedsnr" v="594035" />
		<tag k="waterway" v="stream" />
	</node>
	<node lat="67.87774721895701" lon="15.867747231484913" id="-26194">
		<tag k="name" v="Småholman" />
		<tag k="place" v="islet" />
		<tag k="ssr:stedsnr" v="594053" />
	</node>
	<node lat="67.86814721940142" lon="15.851047226559242" id="-26198">
		<tag k="name" v="Tømmerbukta" />
		<tag k="natural" v="bay" />
		<tag k="ssr:stedsnr" v="594088" />
	</node>
	<node lat="68.05481388602944" lon="15.95216388074383" id="-26205">
		<tag k="name" v="Skjelldalselva" />
		<tag k="ssr:stedsnr" v="594248" />
		<tag k="waterway" v="stream" />
	</node>
	<node lat="68.03035555162315" lon="15.383322216723066" id="-26207">
		<tag k="name" v="Bjørnholmen" />
		<tag k="natural" v="cape" />
		<tag k="ssr:stedsnr" v="594186" />
	</node>
	<node lat="67.85696388574446" lon="15.824475003337543" id="-26210">
		<tag k="name" v="Roaldtjønna" />
		<tag k="natural" v="water" />
		<tag k="ssr:stedsnr" v="594198" />
	</node>
	<node lat="67.83856666555853" lon="16.000624987556783" id="-26211">
		<tag k="name" v="Dammen" />
		<tag k="natural" v="water" />
		<tag k="ssr:stedsnr" v="594271" />
		<tag k="water" v="pond" />
	</node>
	<node lat="68.0608444479207" lon="15.863733328665752" id="-26213">
		<tag k="name" v="Lomtjønna" />
		<tag k="natural" v="water" />
		<tag k="ssr:stedsnr" v="594281" />
	</node>
	<node lat="68.12570833152239" lon="15.978349994270369" id="-26217">
		<tag k="name" v="Knutholmsundet" />
		<tag k="natural" v="strait" />
		<tag k="ssr:stedsnr" v="594437" />
	</node>
	<node lat="68.1290222213093" lon="16.001111103517523" id="-26218">
		<tag k="name" v="Sundet" />
		<tag k="natural" v="strait" />
		<tag k="ssr:stedsnr" v="594439" />
	</node>
	<node lat="68.13677499811351" lon="15.948274995017249" id="-26220">
		<tag k="name" v="Okselva" />
		<tag k="ssr:stedsnr" v="594463" />
		<tag k="waterway" v="stream" />
	</node>
	<node lat="67.80742500031076" lon="15.974627776311054" id="-26223">
		<tag k="name" v="Holmen" />
		<tag k="place" v="islet" />
		<tag k="ssr:stedsnr" v="594484" />
	</node>
	<node lat="68.14156666757582" lon="16.001227779825008" id="-26231">
		<tag k="name" v="Helenaholmen" />
		<tag k="place" v="islet" />
		<tag k="ssr:stedsnr" v="594674" />
	</node>
	<node lat="68.07804166296465" lon="15.766869435595916" id="-26236">
		<tag k="name" v="Pollfjelltjønnan" />
		<tag k="natural" v="water" />
		<tag k="ssr:stedsnr" v="594960" />
	</node>
	<node lat="68.08051667096623" lon="15.807255554798202" id="-26237">
		<tag k="name" v="Svartvasselva" />
		<tag k="ssr:stedsnr" v="594961" />
		<tag k="waterway" v="stream" />
	</node>
	<node lat="68.08849721809796" lon="15.849300009163517" id="-26239">
		<tag k="name" v="Ivartjønna" />
		<tag k="natural" v="water" />
		<tag k="ssr:stedsnr" v="594985" />
	</node>
	<node lat="68.13137222428755" lon="15.492877777667374" id="-26249">
		<tag k="name" v="Tennvatnet" />
		<tag k="natural" v="water" />
		<tag k="ssr:stedsnr" v="623139" />
	</node>
	<node lat="68.09655278071921" lon="15.379024990617552" id="-26254">
		<tag k="name" v="Mølnosen" />
		<tag k="natural" v="bay" />
		<tag k="ssr:stedsnr" v="623052" />
	</node>
	<node lat="67.76730555372603" lon="16.556730562371776" id="-26259">
		<tag k="name" v="Tjuolakjávrre" />
		<tag k="name:smj" v="Tjuolakjávrre" />
		<tag k="natural" v="water" />
		<tag k="old_name:smj" v="Čuolakjávri" />
		<tag k="ssr:stedsnr" v="623188" />
	</node>
	<node lat="67.80662777529481" lon="15.990927778043204" id="-26260">
		<tag k="name" v="Mølnelva" />
		<tag k="ssr:stedsnr" v="623274" />
		<tag k="waterway" v="stream" />
	</node>
	<node lat="67.61438610713614" lon="16.393508338156504" id="-26271">
		<tag k="name" v="Vielggisbáktejávrre - Kvitbergvatnet" />
		<tag k="name:no" v="Kvitbergvatnet" />
		<tag k="name:smj" v="Vielggisbáktejávrre" />
		<tag k="natural" v="water" />
		<tag k="old_name:smj" v="Vilgesbáktjávri" />
		<tag k="ssr:stedsnr" v="623768" />
	</node>
	<node lat="67.59941944465365" lon="16.343080562905577" id="-26272">
		<tag k="name" v="Suolojjávrre - Øyvatnet" />
		<tag k="name:no" v="Øyvatnet" />
		<tag k="name:smj" v="Suolojjávrre" />
		<tag k="natural" v="water" />
		<tag k="old_name:smj" v="Suolojávri" />
		<tag k="ssr:stedsnr" v="623769" />
	</node>
	<node lat="68.03274444660802" lon="15.358394454072394" id="-26277">
		<tag k="name" v="Fjellvatnet" />
		<tag k="natural" v="water" />
		<tag k="ssr:stedsnr" v="623917" />
		<tag k="water" v="lake" />
	</node>
	<node lat="68.05300277510491" lon="15.484300008250813" id="-26283">
		<tag k="name" v="Arnesosen" />
		<tag k="natural" v="bay" />
		<tag k="ssr:stedsnr" v="623948" />
	</node>
	<node lat="68.07916944418905" lon="15.847555554158184" id="-26289">
		<tag k="name" v="Svanvatnet" />
		<tag k="natural" v="water" />
		<tag k="ssr:stedsnr" v="623666" />
	</node>
	<node lat="68.11003333063076" lon="15.622747223598157" id="-26290">
		<tag k="alt_name" v="Bjørnosen" />
		<tag k="name" v="Bjøllosen" />
		<tag k="natural" v="bay" />
		<tag k="ssr:stedsnr" v="623670" />
	</node>
	<node lat="67.87158333011463" lon="16.19067222097413" id="-26298">
		<tag k="name" v="Hejdijåhkå" />
		<tag k="name:smj" v="Hejdijåhkå" />
		<tag k="old_name:smj" v="Heiddejohka" />
		<tag k="ssr:stedsnr" v="623425" />
		<tag k="waterway" v="river" />
	</node>
	<node lat="67.86921944233774" lon="15.836352768500394" id="-26299">
		<tag k="fixme" v="multiple name tags, choose one and add the other to alt_name" />
		<tag k="name" v="Røtelva;Fjellelva" />
		<tag k="ssr:stedsnr" v="623429" />
		<tag k="waterway" v="stream" />
	</node>
	<node lat="67.85720555785669" lon="16.09336666163653" id="-26301">
		<tag k="name" v="Skorrelva" />
		<tag k="ssr:stedsnr" v="623450" />
		<tag k="waterway" v="stream" />
	</node>
	<node lat="67.65213889217338" lon="16.198686103464816" id="-26304">
		<tag k="name" v="Hálljejávrre" />
		<tag k="name:smj" v="Hálljejávrre" />
		<tag k="natural" v="water" />
		<tag k="old_name:smj" v="Háljejávri" />
		<tag k="ssr:stedsnr" v="623629" />
	</node>
	<node lat="67.63071666384495" lon="16.525386102759022" id="-26308">
		<tag k="name" v="Sjnasjkasjåhkå" />
		<tag k="name:smj" v="Sjnasjkasjåhkå" />
		<tag k="old_name:smj" v="Njaskasjohka" />
		<tag k="ssr:stedsnr" v="623640" />
		<tag k="waterway" v="river" />
	</node>
	<node lat="68.091166665251" lon="15.901919441498542" id="-26310">
		<tag k="name" v="Skiltjørnan" />
		<tag k="natural" v="water" />
		<tag k="ssr:stedsnr" v="623643" />
		<tag k="water" v="lake" />
	</node>
	<node lat="67.63725277428519" lon="16.34273610503688" id="-26311">
		<tag k="name" v="Boartejåhkå" />
		<tag k="name:smj" v="Boartejåhkå" />
		<tag k="old_name:smj" v="Boartajohka" />
		<tag k="ssr:stedsnr" v="623644" />
		<tag k="waterway" v="river" />
	</node>
	<node lat="67.6726861072159" lon="16.23398611220196" id="-26313">
		<tag k="name" v="Jierddajávrre" />
		<tag k="name:smj" v="Jierddajávrre" />
		<tag k="natural" v="water" />
		<tag k="old_name:smj" v="Jierdájávri" />
		<tag k="ssr:stedsnr" v="623649" />
		<tag k="water" v="lake" />
	</node>
	<node lat="67.67860278081292" lon="16.487247233154637" id="-26314">
		<tag k="name" v="Gierggejávrre - Steinvatnet" />
		<tag k="name:no" v="Steinvatnet" />
		<tag k="name:smj" v="Gierggejávrre" />
		<tag k="natural" v="water" />
		<tag k="old_name:smj" v="Geađgejávri" />
		<tag k="ssr:stedsnr" v="623651" />
		<tag k="water" v="lake" />
	</node>
	<node lat="68.01469444026628" lon="15.553441669183465" id="-26333">
		<tag k="alt_name" v="Lomtjørna" />
		<tag k="name" v="Lomtjønnen" />
		<tag k="natural" v="water" />
		<tag k="ssr:stedsnr" v="624837" />
	</node>
	<node lat="68.12474166490279" lon="15.988844453084175" id="-26357">
		<tag k="name" v="Storvika" />
		<tag k="natural" v="bay" />
		<tag k="ssr:stedsnr" v="654449" />
	</node>
	<node lat="68.02284444407044" lon="15.382733326222517" id="-26367">
		<tag k="name" v="Mølnvatnet" />
		<tag k="natural" v="water" />
		<tag k="ssr:stedsnr" v="655077" />
	</node>
	<node lat="67.8288750039248" lon="15.85291110348551" id="-26372">
		<tag k="name" v="Austerkrågelva" />
		<tag k="ssr:stedsnr" v="655228" />
		<tag k="waterway" v="river" />
	</node>
	<node lat="68.1392194485202" lon="15.991383340453917" id="-26377">
		<tag k="name" v="Kilneskjosen" />
		<tag k="natural" v="bay" />
		<tag k="ssr:stedsnr" v="655423" />
	</node>
	<node lat="67.83728333449294" lon="16.007108323925443" id="-26382">
		<tag k="name" v="Djupelva" />
		<tag k="ssr:stedsnr" v="655267" />
		<tag k="waterway" v="stream" />
	</node>
	<node lat="67.9987083304333" lon="15.572994439870113" id="-26393">
		<tag k="name" v="Ringvollelva" />
		<tag k="ssr:stedsnr" v="655567" />
		<tag k="waterway" v="stream" />
	</node>
	<node lat="67.99562777422416" lon="15.574363878720867" id="-26394">
		<tag k="name" v="Medalselva" />
		<tag k="ssr:stedsnr" v="655568" />
		<tag k="waterway" v="stream" />
	</node>
	<node lat="67.9919833290276" lon="15.88169722523592" id="-26400">
		<tag k="name" v="Buktelva" />
		<tag k="ssr:stedsnr" v="655717" />
		<tag k="waterway" v="stream" />
	</node>
	<node lat="68.00794721818508" lon="15.607180565140704" id="-26407">
		<tag k="name" v="Ådalselva" />
		<tag k="ssr:stedsnr" v="655668" />
		<tag k="waterway" v="stream" />
	</node>
	<node lat="67.79296666512424" lon="15.96113888845376" id="-26411">
		<tag k="name" v="Sennodden" />
		<tag k="natural" v="cape" />
		<tag k="ssr:stedsnr" v="655845" />
	</node>
	<node lat="68.07015277350621" lon="15.882677785728747" id="-26416">
		<tag k="name" v="Smørvikodden" />
		<tag k="natural" v="cape" />
		<tag k="ssr:stedsnr" v="715282" />
	</node>
	<node lat="68.07173610906969" lon="15.842019433812196" id="-26417">
		<tag k="name" v="Furulund" />
		<tag k="natural" v="cape" />
		<tag k="ssr:stedsnr" v="715288" />
	</node>
	<node lat="68.13145555820941" lon="15.972061115748998" id="-26423">
		<tag k="name" v="Mikkjelneset" />
		<tag k="natural" v="cape" />
		<tag k="ssr:stedsnr" v="715470" />
	</node>
	<node lat="67.87501388743594" lon="15.851955556402833" id="-26426">
		<tag k="name" v="Kvitberget" />
		<tag k="natural" v="cape" />
		<tag k="ssr:stedsnr" v="716034" />
	</node>
	<node lat="68.13199999831478" lon="15.464422224134836" id="-26431">
		<tag k="name" v="Hamnestjønna" />
		<tag k="natural" v="water" />
		<tag k="ssr:stedsnr" v="715734" />
	</node>
	<node lat="67.8400694408565" lon="15.978883341404012" id="-26440">
		<tag k="name" v="Roparneselva" />
		<tag k="ssr:stedsnr" v="716247" />
		<tag k="waterway" v="stream" />
	</node>
	<node lat="67.830761112131" lon="15.990094455600236" id="-26444">
		<tag k="name" v="Vinterlendinga" />
		<tag k="natural" v="cape" />
		<tag k="ssr:stedsnr" v="716288" />
	</node>
	<node lat="68.03116388513997" lon="16.003191672430237" id="-26453">
		<tag k="name" v="Triumselva" />
		<tag k="ssr:stedsnr" v="716640" />
		<tag k="waterway" v="river" />
	</node>
	<node lat="68.00478611344789" lon="15.671605565915105" id="-26456">
		<tag k="name" v="Lomtjønnen" />
		<tag k="natural" v="water" />
		<tag k="ssr:stedsnr" v="716665" />
	</node>
	<node lat="67.92592500274745" lon="15.75938610063938" id="-26463">
		<tag k="name" v="Litltjønnan" />
		<tag k="natural" v="water" />
		<tag k="ssr:stedsnr" v="716855" />
	</node>
	<node lat="67.81610555829266" lon="16.661558331039362" id="-26481">
		<tag k="name" v="Njallajávrre" />
		<tag k="name:smj" v="Njallajávrre" />
		<tag k="natural" v="water" />
		<tag k="old_name:smj" v="Njallajávri" />
		<tag k="ssr:stedsnr" v="745156" />
		<tag k="water" v="lake" />
	</node>
	<node lat="67.9105861125143" lon="16.564522221007202" id="-26486">
		<tag k="name" v="Runndajávrre" />
		<tag k="name:smj" v="Runndajávrre" />
		<tag k="natural" v="water" />
		<tag k="old_name:smj" v="Rundajávri;Rundajávrre" />
		<tag k="ssr:stedsnr" v="745357" />
		<tag k="water" v="lake" />
	</node>
	<node lat="67.85660555681561" lon="16.520175006245356" id="-26493">
		<tag k="name" v="Gálmmagáldjåhkå" />
		<tag k="name:smj" v="Gálmmagáldjåhkå" />
		<tag k="old_name:smj" v="Galmagáldojohka" />
		<tag k="ssr:stedsnr" v="745385" />
		<tag k="waterway" v="stream" />
	</node>
	<node lat="67.87276944543929" lon="16.559125001947915" id="-26495">
		<tag k="fixme" v="multiple name tags, choose one and add the other to alt_name" />
		<tag k="name" v="Gierggebuodjávrre;Tjielumjávrre" />
		<tag k="name:smj" v="Gierggebuodjávrre;Tjielumjávrre" />
		<tag k="natural" v="water" />
		<tag k="old_name:smj" v="Čielomjávri;Geargebuodojavri" />
		<tag k="ssr:stedsnr" v="745400" />
		<tag k="water" v="lake" />
	</node>
	<node lat="67.86080555323969" lon="15.96058054544406" id="-26506">
		<tag k="name" v="Ediasneset" />
		<tag k="natural" v="cape" />
		<tag k="ssr:stedsnr" v="745455" />
	</node>
	<node lat="67.85469444009146" lon="15.916311118056429" id="-26507">
		<tag k="name" v="Sørbukta" />
		<tag k="natural" v="bay" />
		<tag k="ssr:stedsnr" v="745458" />
	</node>
	<node lat="67.8242027775822" lon="15.977913896100917" id="-26508">
		<tag k="fixme" v="multiple name:no tags, choose one and add the other to alt_name:no" />
		<tag k="name" v="Skilgájávrre" />
		<tag k="name:no" v="Kråkmovatnet;Fjerdvatnet" />
		<tag k="name:smj" v="Skilgájávrre" />
		<tag k="natural" v="water" />
		<tag k="old_name:smj" v="Skilggajávri" />
		<tag k="ssr:stedsnr" v="745463" />
		<tag k="water" v="lake" />
	</node>
	<node lat="68.0076555596697" lon="16.107097211911118" id="-26510">
		<tag k="name" v="Skilvatnet" />
		<tag k="natural" v="water" />
		<tag k="ssr:stedsnr" v="745528" />
	</node>
	<node lat="67.94647499729824" lon="16.12209723003873" id="-26522">
		<tag k="name" v="Ráhpukjåhkå" />
		<tag k="name:smj" v="Ráhpukjåhkå" />
		<tag k="old_name:smj" v="Ráhpokjohka" />
		<tag k="ssr:stedsnr" v="745634" />
		<tag k="waterway" v="river" />
	</node>
	<node lat="68.06761388918626" lon="15.622991659293973" id="-26524">
		<tag k="name" v="Skjelosen" />
		<tag k="natural" v="bay" />
		<tag k="ssr:stedsnr" v="745648" />
	</node>
	<node lat="68.15846388890064" lon="15.793255554188171" id="-26538">
		<tag k="name" v="Mølnosen" />
		<tag k="natural" v="bay" />
		<tag k="ssr:stedsnr" v="745802" />
	</node>
	<node lat="68.01753889216549" lon="15.611388888131312" id="-26540">
		<tag k="alt_name" v="Grønåsvatnan" />
		<tag k="name" v="Grønåsvatnene" />
		<tag k="natural" v="water" />
		<tag k="ssr:stedsnr" v="745901" />
	</node>
	<node lat="67.862363885103" lon="15.826036103231754" id="-26579">
		<tag k="name" v="Langtjønnelva" />
		<tag k="ssr:stedsnr" v="776085" />
		<tag k="waterway" v="stream" />
	</node>
	<node lat="68.12318333616116" lon="15.64087223238093" id="-26587">
		<tag k="name" v="Langneset" />
		<tag k="natural" v="cape" />
		<tag k="ssr:stedsnr" v="776498" />
	</node>
	<node lat="68.02489444418828" lon="15.765616655661251" id="-26591">
		<tag k="name" v="Møllnelva" />
		<tag k="ssr:stedsnr" v="777013" />
		<tag k="waterway" v="river" />
	</node>
	<node lat="68.01126944517533" lon="15.63358056203888" id="-26593">
		<tag k="name" v="Vannskjelltjønna" />
		<tag k="natural" v="water" />
		<tag k="ssr:stedsnr" v="777026" />
	</node>
	<node lat="68.07981111435181" lon="15.68843054497997" id="-26600">
		<tag k="name" v="Elvkrokan" />
		<tag k="ssr:stedsnr" v="777086" />
		<tag k="waterway" v="stream" />
	</node>
	<node lat="67.8543416708023" lon="15.948383322558627" id="-26602">
		<tag k="name" v="Eggneset" />
		<tag k="natural" v="cape" />
		<tag k="ssr:stedsnr" v="777172" />
	</node>
	<node lat="68.03294166626046" lon="15.368974994950358" id="-26604">
		<tag k="name" v="Rognholmen" />
		<tag k="place" v="islet" />
		<tag k="ssr:stedsnr" v="777181" />
	</node>
	<node lat="68.03387778167094" lon="15.355641675433612" id="-26605">
		<tag k="name" v="Soløya" />
		<tag k="place" v="islet" />
		<tag k="ssr:stedsnr" v="777184" />
	</node>
	<node lat="67.85846389266932" lon="15.891600004531423" id="-26606">
		<tag k="name" v="Hømmerodden" />
		<tag k="natural" v="cape" />
		<tag k="ssr:stedsnr" v="777188" />
	</node>
	<node lat="68.03844999658536" lon="15.370072232850772" id="-26607">
		<tag k="name" v="Hellodden" />
		<tag k="natural" v="cape" />
		<tag k="ssr:stedsnr" v="777194" />
	</node>
	<node lat="68.02459444449423" lon="15.964941675353222" id="-26623">
		<tag k="name" v="Revet" />
		<tag k="natural" v="cape" />
		<tag k="ssr:stedsnr" v="777623" />
	</node>
	<node lat="68.09475277775354" lon="15.578663895378336" id="-26648">
		<tag k="name" v="Lomtjørna" />
		<tag k="natural" v="water" />
		<tag k="ssr:stedsnr" v="805043" />
	</node>
	<node lat="68.09292777747645" lon="15.877144447325662" id="-26653">
		<tag k="alt_name" v="Jenstjørna" />
		<tag k="name" v="Jenstjønna" />
		<tag k="natural" v="water" />
		<tag k="ssr:stedsnr" v="805630" />
	</node>
	<node lat="68.08126389320852" lon="15.94064999628398" id="-26655">
		<tag k="alt_name" v="Langtjørna" />
		<tag k="name" v="Langtjønna" />
		<tag k="natural" v="water" />
		<tag k="ssr:stedsnr" v="805640" />
	</node>
	<node lat="68.13868055724306" lon="15.499083325615166" id="-26678">
		<tag k="name" v="Mølnvatnet" />
		<tag k="natural" v="water" />
		<tag k="ssr:stedsnr" v="806099" />
	</node>
	<node lat="67.96692499531254" lon="16.156861119350346" id="-26688">
		<tag k="loc_name:smj" v="Goahttsejávrre" />
		<tag k="name" v="Goahtejávrre - Husvatnet" />
		<tag k="name:no" v="Husvatnet" />
		<tag k="name:smj" v="Goahtejávrre" />
		<tag k="natural" v="water" />
		<tag k="old_name:smj" v="Goahcejávri" />
		<tag k="ssr:stedsnr" v="806646" />
	</node>
	<node lat="67.8906555582114" lon="15.970458334982292" id="-26703">
		<tag k="name" v="Bjørnvatnet" />
		<tag k="natural" v="water" />
		<tag k="ssr:stedsnr" v="806376" />
	</node>
	<node lat="67.87658055401641" lon="15.884808323475" id="-26706">
		<tag k="name" v="Slåttvika" />
		<tag k="natural" v="bay" />
		<tag k="ssr:stedsnr" v="806399" />
	</node>
	<node lat="67.89072619911678" lon="16.214507403709174" id="-26709">
		<tag k="name" v="Muskenelva" />
		<tag k="name:no" v="Muskenelva" />
		<tag k="name:smj" v="Måskejåhkå" />
		<tag k="ssr:stedsnr" v="806411" />
		<tag k="waterway" v="river" />
	</node>
	<node lat="67.85036388858417" lon="15.912072230121288" id="-26711">
		<tag k="name" v="Rapelva" />
		<tag k="ssr:stedsnr" v="806421" />
		<tag k="waterway" v="stream" />
	</node>
	<node lat="68.03004722155498" lon="16.02591665429859" id="-26730">
		<tag k="alt_name" v="Trangsundet" />
		<tag k="name" v="Trongsundet" />
		<tag k="natural" v="strait" />
		<tag k="ssr:stedsnr" v="806568" />
	</node>
	<node lat="67.94327628525807" lon="15.826406070089167" id="-26740">
		<tag k="name" v="Sølvelva" />
		<tag k="ssr:stedsnr" v="806632" />
		<tag k="waterway" v="stream" />
	</node>
	<node lat="67.95034166672131" lon="15.996874991588905" id="-26742">
		<tag k="name" v="Storvatnet" />
		<tag k="natural" v="water" />
		<tag k="ssr:stedsnr" v="806642" />
		<tag k="water" v="lake" />
	</node>
	<node lat="68.13736944158855" lon="15.816797228333327" id="-26745">
		<tag k="name" v="Langosen" />
		<tag k="natural" v="bay" />
		<tag k="ssr:stedsnr" v="806712" />
	</node>
	<node lat="68.17029167038349" lon="15.769980544859473" id="-26752">
		<tag k="name" v="Langosen" />
		<tag k="natural" v="bay" />
		<tag k="ssr:stedsnr" v="806791" />
	</node>
	<node lat="67.99938055639676" lon="15.650122210519717" id="-26760">
		<tag k="name" v="Mølnvatnet" />
		<tag k="natural" v="water" />
		<tag k="ssr:stedsnr" v="806911" />
	</node>
	<node lat="67.9994583304334" lon="15.665716657896763" id="-26761">
		<tag k="fixme" v="multiple name tags, choose one and add the other to alt_name" />
		<tag k="name" v="Håkonhalsvatnet;Møllnvatnet" />
		<tag k="natural" v="water" />
		<tag k="ssr:stedsnr" v="806912" />
	</node>
	<node lat="68.04040832892458" lon="15.32698056395951" id="-26764">
		<tag k="alt_name" v="Kvanndalsvatnet, øvre" />
		<tag k="fixme" v="multiple name tags, choose one and add the other to alt_name" />
		<tag k="name" v="Øvre Kvanndalsvatnet;Øvstvatnet" />
		<tag k="natural" v="water" />
		<tag k="ssr:stedsnr" v="806927" />
	</node>
	<node lat="68.06835833463266" lon="15.59557778169261" id="-26765">
		<tag k="alt_name" v="Digerelva" />
		<tag k="name" v="Digerelv" />
		<tag k="ssr:stedsnr" v="806954" />
		<tag k="waterway" v="stream" />
	</node>
	<node lat="68.12201111177467" lon="15.645863886307893" id="-26804">
		<tag k="name" v="Forrbarneset" />
		<tag k="natural" v="cape" />
		<tag k="ssr:stedsnr" v="837524" />
	</node>
	<node lat="67.86434999997066" lon="15.926869445553397" id="-26805">
		<tag k="name" v="Stranda" />
		<tag k="natural" v="beach" />
		<tag k="ssr:stedsnr" v="837068" />
	</node>
	<node lat="68.01628888604661" lon="15.796713894097534" id="-26809">
		<tag k="name" v="Djupdalselva" />
		<tag k="ssr:stedsnr" v="838002" />
		<tag k="waterway" v="stream" />
	</node>
	<node lat="68.01569166710807" lon="15.626663881909959" id="-26813">
		<tag k="name" v="Fekovvatnet" />
		<tag k="natural" v="water" />
		<tag k="ssr:stedsnr" v="838045" />
	</node>
	<node lat="68.020841664056" lon="15.635097232241268" id="-26815">
		<tag k="name" v="Storskogelva" />
		<tag k="ssr:stedsnr" v="838052" />
		<tag k="waterway" v="stream" />
	</node>
	<node lat="67.82487222542208" lon="15.95706945066334" id="-26824">
		<tag k="name" v="Krokelva" />
		<tag k="ssr:stedsnr" v="838279" />
		<tag k="waterway" v="river" />
	</node>
	<node lat="68.06833333482011" lon="15.719441658148124" id="-26825">
		<tag k="name" v="Småtjønnan" />
		<tag k="natural" v="water" />
		<tag k="ssr:stedsnr" v="838286" />
	</node>
	<node lat="67.85881944814822" lon="15.888447223625896" id="-26828">
		<tag k="name" v="Sørbukta" />
		<tag k="natural" v="bay" />
		<tag k="ssr:stedsnr" v="838238" />
	</node>
	<node lat="67.84280833404898" lon="15.98596666124172" id="-26830">
		<tag k="name" v="Roparnesodden" />
		<tag k="natural" v="cape" />
		<tag k="ssr:stedsnr" v="838259" />
	</node>
	<node lat="67.85256110639286" lon="15.955955564895016" id="-26834">
		<tag k="name" v="Jordbruelva" />
		<tag k="ssr:stedsnr" v="838274" />
		<tag k="waterway" v="stream" />
	</node>
	<node lat="68.00754166855235" lon="15.600002781185632" id="-26841">
		<tag k="name" v="Stielva" />
		<tag k="ssr:stedsnr" v="838697" />
		<tag k="waterway" v="stream" />
	</node>
	<node lat="68.12171667091158" lon="15.663119439533641" id="-26843">
		<tag k="name" v="Krokholmen" />
		<tag k="place" v="islet" />
		<tag k="ssr:stedsnr" v="838465" />
	</node>
	<node lat="67.80936388689702" lon="15.993147221010954" id="-26847">
		<tag k="name" v="Bikkjebekken" />
		<tag k="ssr:stedsnr" v="838541" />
		<tag k="waterway" v="stream" />
	</node>
	<node lat="67.80243611402817" lon="15.983597222285777" id="-26849">
		<tag k="name" v="Myrbekken" />
		<tag k="ssr:stedsnr" v="838548" />
		<tag k="waterway" v="stream" />
	</node>
	<node lat="67.81261944818172" lon="15.996130556813462" id="-26850">
		<tag k="name" v="Oddbekken" />
		<tag k="ssr:stedsnr" v="838555" />
		<tag k="waterway" v="stream" />
	</node>
	<node lat="67.79931944538455" lon="15.966836120638972" id="-26851">
		<tag k="name" v="Dammen" />
		<tag k="place" v="locality" />
		<tag k="ssr:stedsnr" v="838558" />
	</node>
	<node lat="68.00836389191431" lon="15.863952786354506" id="-26856">
		<tag k="name" v="Olavvatnet" />
		<tag k="natural" v="water" />
		<tag k="ssr:stedsnr" v="838756" />
	</node>
	<node lat="67.77186944635497" lon="15.993988896950498" id="-26858">
		<tag k="name" v="Sjuendevasseidet" />
		<tag k="place" v="locality" />
		<tag k="ssr:stedsnr" v="838841" />
	</node>
	<node lat="68.14452500447119" lon="15.971347219317563" id="-26861">
		<tag k="name" v="Kjostjønna" />
		<tag k="natural" v="water" />
		<tag k="ssr:stedsnr" v="838716" />
	</node>
	<node lat="67.91158889142962" lon="15.877650003281827" id="-26864">
		<tag k="name" v="Kjerringvasstjønna" />
		<tag k="natural" v="water" />
		<tag k="ssr:stedsnr" v="838984" />
	</node>
	<node lat="67.96890833692508" lon="15.735308330870938" id="-26868">
		<tag k="name" v="Småelven" />
		<tag k="ssr:stedsnr" v="845435" />
		<tag k="waterway" v="stream" />
	</node>
	<node lat="68.13724444854097" lon="15.499183323814961" id="-26879">
		<tag k="name" v="Mosevatnet" />
		<tag k="natural" v="water" />
		<tag k="ssr:stedsnr" v="866074" />
	</node>
	<node lat="68.13697222601685" lon="15.604086100956383" id="-26880">
		<tag k="alt_name" v="Røsnesvatnet" />
		<tag k="name" v="Røssnesvatnet" />
		<tag k="natural" v="water" />
		<tag k="ssr:stedsnr" v="866085" />
		<tag k="water" v="lake" />
	</node>
	<node lat="67.75407499899197" lon="16.123247217549117" id="-26885">
		<tag k="name" v="Ájajåhkå" />
		<tag k="name:smj" v="Ájajåhkå" />
		<tag k="old_name:smj" v="Ájajohka" />
		<tag k="ssr:stedsnr" v="866226" />
		<tag k="waterway" v="river" />
	</node>
	<node lat="68.07989721842662" lon="15.929308339007303" id="-26892">
		<tag k="alt_name" v="Figentjørna" />
		<tag k="name" v="Figentjønna" />
		<tag k="natural" v="water" />
		<tag k="ssr:stedsnr" v="866634" />
	</node>
	<node lat="67.95363055535014" lon="16.29111944887561" id="-26894">
		<tag k="name" v="Hoarssajåhkå" />
		<tag k="name:smj" v="Hoarssajåhkå" />
		<tag k="old_name:smj" v="Hoarsajohka" />
		<tag k="ssr:stedsnr" v="866254" />
		<tag k="waterway" v="stream" />
	</node>
	<node lat="67.87985277653965" lon="15.841930560651928" id="-26900">
		<tag k="fixme" v="multiple name tags, choose one and add the other to alt_name" />
		<tag k="name" v="Storbukta;Bukta" />
		<tag k="natural" v="bay" />
		<tag k="ssr:stedsnr" v="866382" />
	</node>
	<node lat="67.85393610746414" lon="16.14186944895259" id="-26903">
		<tag k="name" v="Gierdojávrre" />
		<tag k="name:smj" v="Gierdojávrre" />
		<tag k="natural" v="water" />
		<tag k="old_name:smj" v="Gierddojávri" />
		<tag k="ssr:stedsnr" v="866420" />
	</node>
	<node lat="68.04594444711365" lon="16.309897224411092" id="-26907">
		<tag k="name" v="Hulløyvatnet" />
		<tag k="natural" v="water" />
		<tag k="ssr:stedsnr" v="866500" />
	</node>
	<node lat="68.05809722010618" lon="15.70700555308854" id="-26909">
		<tag k="name" v="Tuvvatnet" />
		<tag k="natural" v="water" />
		<tag k="ssr:stedsnr" v="866587" />
	</node>
	<node lat="67.6187750043542" lon="16.38153610579411" id="-26911">
		<tag k="name" v="Boartejávrre" />
		<tag k="name:smj" v="Boartejávrre" />
		<tag k="natural" v="water" />
		<tag k="old_name:smj" v="Boartajávri" />
		<tag k="ssr:stedsnr" v="866606" />
	</node>
	<node lat="67.64931111137201" lon="16.50107777872872" id="-26913">
		<tag k="name" v="Sávtsasjávrre" />
		<tag k="name:smj" v="Sávtsasjávrre" />
		<tag k="natural" v="water" />
		<tag k="old_name:smj" v="Sávzzasjávrrit" />
		<tag k="ssr:stedsnr" v="866612" />
	</node>
	<node lat="68.08185277774949" lon="15.663666671258369" id="-26915">
		<tag k="name" v="Bleielva" />
		<tag k="ssr:stedsnr" v="866614" />
		<tag k="waterway" v="stream" />
	</node>
	<node lat="68.02613889296444" lon="16.589636114302852" id="-26918">
		<tag k="name" v="Riehppejåhkå" />
		<tag k="name:smj" v="Riehppejåhkå" />
		<tag k="old_name:smj" v="Riehppejohka" />
		<tag k="ssr:stedsnr" v="866505" />
		<tag k="waterway" v="river" />
	</node>
	<node lat="68.1340555554316" lon="15.816316668056238" id="-26930">
		<tag k="name" v="Hundosvatnet" />
		<tag k="natural" v="water" />
		<tag k="ssr:stedsnr" v="866674" />
	</node>
	<node lat="68.15559999959115" lon="15.979302778626488" id="-26931">
		<tag k="name" v="Trollvatnet" />
		<tag k="natural" v="water" />
		<tag k="ssr:stedsnr" v="866702" />
	</node>
	<node lat="68.03106388509588" lon="16.688172209270537" id="-26935">
		<tag k="alt_name:no" v="Kjerringvatnet, store" />
		<tag k="name" v="Stuoráp Áhkásjjávrre - Store Kjerringvatnet" />
		<tag k="name:no" v="Store Kjerringvatnet" />
		<tag k="name:smj" v="Stuoráp Áhkásjjávrre" />
		<tag k="natural" v="water" />
		<tag k="old_name:smj" v="Áhkašjávrrit" />
		<tag k="ssr:stedsnr" v="866802" />
		<tag k="water" v="lake" />
	</node>
	<node lat="68.07611389076887" lon="15.494333327101668" id="-26949">
		<tag k="name" v="Mølnhaugelva" />
		<tag k="ssr:stedsnr" v="866982" />
		<tag k="waterway" v="stream" />
	</node>
	<node lat="68.08695833631734" lon="15.615997216155865" id="-26951">
		<tag k="name" v="Oppeidvatnet" />
		<tag k="natural" v="water" />
		<tag k="ssr:stedsnr" v="866992" />
	</node>
	<node lat="68.11549999726675" lon="15.552438884261873" id="-26953">
		<tag k="name" v="Hølkesvatnet" />
		<tag k="natural" v="water" />
		<tag k="ssr:stedsnr" v="867013" />
	</node>
	<node lat="68.11026944037182" lon="15.602144437398659" id="-26955">
		<tag k="name" v="Kulpollen" />
		<tag k="natural" v="bay" />
		<tag k="ssr:stedsnr" v="867034" />
	</node>
	<node lat="67.95943610880329" lon="15.977499994877657" id="-26958">
		<tag k="name" v="Storvasselva" />
		<tag k="ssr:stedsnr" v="867217" />
		<tag k="waterway" v="river" />
	</node>
	<node lat="67.9364694466925" lon="16.1424277767488" id="-26976">
		<tag k="alt_name:no" v="Tennvatnet, nedre" />
		<tag k="name" v="Vuolep Tjierregjávrre - Nedre Tennvatnet" />
		<tag k="name:no" v="Nedre Tennvatnet" />
		<tag k="name:smj" v="Vuolep Tjierregjávrre" />
		<tag k="natural" v="water" />
		<tag k="old_name:smj" v="Čierregjávri voulit" />
		<tag k="ssr:stedsnr" v="867646" />
	</node>
	<node lat="67.96364444434812" lon="16.187149991092152" id="-26977">
		<tag k="loc_name:smj" v="Råggejávrre" />
		<tag k="name" v="Nálakjávrre" />
		<tag k="name:smj" v="Nálakjávrre" />
		<tag k="natural" v="water" />
		<tag k="old_name:smj" v="Nálakjávri" />
		<tag k="ssr:stedsnr" v="867661" />
	</node>
	<node lat="67.95844721977713" lon="15.74327777897102" id="-26978">
		<tag k="name" v="Steinnesvatnet" />
		<tag k="natural" v="water" />
		<tag k="ssr:stedsnr" v="867665" />
	</node>
	<node lat="68.1187999966516" lon="16.02405555356962" id="-26979">
		<tag k="name" v="Kvannkjosen" />
		<tag k="natural" v="bay" />
		<tag k="ssr:stedsnr" v="867667" />
	</node>
	<node lat="68.11329999833409" lon="15.873816657704275" id="-26984">
		<tag k="name" v="Krokelva" />
		<tag k="ssr:stedsnr" v="867688" />
		<tag k="waterway" v="stream" />
	</node>
	<node lat="68.00895277425047" lon="16.549027770856576" id="-26986">
		<tag k="name" v="Gåhpejávrre" />
		<tag k="name:smj" v="Gåhpejávrre" />
		<tag k="natural" v="water" />
		<tag k="old_name:smj" v="Gohpejávri" />
		<tag k="ssr:stedsnr" v="867768" />
	</node>
	<node lat="68.18391944880166" lon="16.136463888503975" id="-27027">
		<tag k="name" v="Stongnestjønna" />
		<tag k="natural" v="water" />
		<tag k="ssr:stedsnr" v="937961" />
	</node>
	<node lat="67.88485555705438" lon="15.829030563718396" id="-27033">
		<tag k="name" v="Skjellelva" />
		<tag k="ssr:stedsnr" v="958028" />
		<tag k="waterway" v="stream" />
	</node>
	<node lat="67.86999722598495" lon="15.897836110751198" id="-27035">
		<tag k="name" v="Tyttebærneset" />
		<tag k="natural" v="cape" />
		<tag k="ssr:stedsnr" v="958064" />
	</node>
	<node lat="68.13435555367367" lon="15.956600006254106" id="-27062">
		<tag k="name" v="Vasskråa" />
		<tag k="natural" v="bay" />
		<tag k="ssr:stedsnr" v="959445" />
	</node>
	<node lat="68.0051638860479" lon="15.65606111676787" id="-27069">
		<tag k="name" v="Kjoselva" />
		<tag k="ssr:stedsnr" v="959654" />
		<tag k="waterway" v="stream" />
	</node>
	<node lat="67.90631944465842" lon="15.862349998291219" id="-27078">
		<tag k="name" v="Sagtjønna" />
		<tag k="natural" v="water" />
		<tag k="ssr:stedsnr" v="959995" />
	</node>
	<node lat="68.14768333445366" lon="15.984577775484144" id="-27080">
		<tag k="name" v="Innerkjosen" />
		<tag k="natural" v="bay" />
		<tag k="ssr:stedsnr" v="959678" />
	</node>
</osm>
