<?xml version="1.0" encoding="UTF-8"?>
<<<<<<< HEAD
<osm version="0.6" generator="osmapis">
	<node lat="68.02345177571338" lon="16.138411698974817" id="-7988">
		<tag k="cemetery" v="grave" />
		<tag k="name" v="Helland kirkegård" />
		<tag k="name:no" v="Helland kirkegård" />
		<tag k="place" v="locality" />
		<tag k="ssr:stedsnr" v="142542" />
	</node>
	<node lat="68.15447778122139" lon="15.652608340883324" id="-8924">
		<tag k="amenity" v="community_centre" />
		<tag k="name" v="Lyngheim" />
		<tag k="name:no" v="Lyngheim" />
		<tag k="ssr:stedsnr" v="534682" />
	</node>
	<node lat="68.162941662986" lon="15.710341659607792" id="-8966">
		<tag k="name" v="Tjærmila" />
		<tag k="name:no" v="Tjærmila" />
=======
<osm generator="osmapis" version="0.6">
	<node id="-211648" lat="68.0220083317" lon="15.3824277878">
		<tag k="name" v="Mølna" />
		<tag k="name:no" v="Mølna" />
>>>>>>> e1d4bc35ff8a6074a6f2e91616a996b547c36f15
		<tag k="place" v="locality" />
		<tag k="ssr:stedsnr" v="594202" />
	</node>
<<<<<<< HEAD
	<node lat="68.12853333464318" lon="15.885180560992676" id="-9444">
		<tag k="name" v="Utsikten" />
		<tag k="name:no" v="Utsikten" />
		<tag k="ssr:stedsnr" v="927708" />
		<tag k="tourism" v="attraction" />
	</node>
	<node lat="68.06964721855844" lon="16.084402769375362" id="-10005">
=======
	<node id="-211583" lat="68.0236833325" lon="16.1384027771">
		<tag k="cemetery" v="grave" />
		<tag k="name" v="Helland kirkegård" />
		<tag k="name:no" v="Helland kirkegård" />
		<tag k="place" v="locality" />
		<tag k="ssr:stedsnr" v="142542" />
	</node>
	<node id="-212412" lat="68.1544777812" lon="15.6526083409">
		<tag k="amenity" v="community_centre" />
		<tag k="name" v="Lyngheim" />
		<tag k="name:no" v="Lyngheim" />
		<tag k="ssr:stedsnr" v="534682" />
	</node>
	<node id="-209563" lat="68.0696472186" lon="16.0844027694">
>>>>>>> e1d4bc35ff8a6074a6f2e91616a996b547c36f15
		<tag k="name" v="Sommarset" />
		<tag k="name:no" v="Sommarset" />
		<tag k="place" v="locality" />
		<tag k="ssr:stedsnr" v="138659" />
	</node>
<<<<<<< HEAD
	<node lat="68.0220083317123" lon="15.382427787809256" id="-10084">
		<tag k="name" v="Mølna" />
		<tag k="name:no" v="Mølna" />
		<tag k="place" v="locality" />
		<tag k="ssr:stedsnr" v="170070" />
	</node>
	<node lat="68.14831111458611" lon="15.453502766721641" id="-10382">
		<tag k="name" v="Buvåg" />
		<tag k="name:no" v="Buvåg" />
		<tag k="place" v="locality" />
		<tag k="ssr:stedsnr" v="339973" />
	</node>
	<node lat="67.89616944053424" lon="15.861083327694102" id="-10579">
=======
	<node id="-212248" lat="67.8961694405" lon="15.8610833277">
>>>>>>> e1d4bc35ff8a6074a6f2e91616a996b547c36f15
		<tag k="cemetery" v="grave" />
		<tag k="loc_name:smj" v="Vuohpe hávddádimsadje" />
		<tag k="name" v="Tømmerneset kirkegård" />
		<tag k="name:no" v="Tømmerneset kirkegård" />
		<tag k="place" v="locality" />
		<tag k="ssr:stedsnr" v="412017" />
	</node>
<<<<<<< HEAD
	<node lat="68.25210832965973" lon="16.054058320764373" id="-10928">
		<tag k="alt_name:no" v="Korsnes;Korsneskirka" />
=======
	<node id="-211987" lat="68.1483111146" lon="15.4535027667">
		<tag k="name" v="Buvåg" />
		<tag k="name:no" v="Buvåg" />
		<tag k="place" v="locality" />
		<tag k="ssr:stedsnr" v="339973" />
	</node>
	<node id="-212528" lat="67.9997972198" lon="15.7677694528">
		<tag k="amenity" v="place_of_worship" />
		<tag k="denomination" v="lutheran" />
		<tag k="fixme" v="multiple name tags, choose one and add the other to alt_name" />
		<tag k="name" v="Karlsøy kapell;Sagfjord kirke" />
		<tag k="name:no" v="Karlsøy kapell;Sagfjord kirke" />
		<tag k="religion" v="christian" />
		<tag k="ssr:stedsnr" v="563524" />
	</node>
	<node id="-210888" lat="68.0837694469" lon="15.6381166765">
		<tag k="amenity" v="place_of_worship" />
		<tag k="denomination" v="lutheran" />
		<tag k="name" v="Hamarøy kirke" />
		<tag k="name:no" v="Hamarøy kirke" />
		<tag k="religion" v="christian" />
		<tag k="ssr:stedsnr" v="805619" />
	</node>
	<node id="-212653" lat="68.162941663" lon="15.7103416596">
		<tag k="name" v="Tjærmila" />
		<tag k="name:no" v="Tjærmila" />
		<tag k="place" v="locality" />
		<tag k="ssr:stedsnr" v="594202" />
	</node>
	<node id="-210955" lat="68.1285333346" lon="15.885180561">
		<tag k="name" v="Utsikten" />
		<tag k="name:no" v="Utsikten" />
		<tag k="ssr:stedsnr" v="927708" />
		<tag k="tourism" v="attraction" />
	</node>
	<node id="-212520" lat="68.2521083297" lon="16.0540583208">
		<tag k="alt_name:no" v="Korsneskirka" />
>>>>>>> e1d4bc35ff8a6074a6f2e91616a996b547c36f15
		<tag k="amenity" v="place_of_worship" />
		<tag k="denomination" v="lutheran" />
		<tag k="name" v="Hierenjárgga - Korsnes kirke" />
		<tag k="name:no" v="Korsnes kirke" />
		<tag k="name:smj" v="Hierenjárgga" />
		<tag k="religion" v="christian" />
		<tag k="ssr:stedsnr" v="563383" />
	</node>
<<<<<<< HEAD
	<node lat="67.89685555525877" lon="15.863100007955081" id="-10949">
=======
	<node id="-212451" lat="67.8968555553" lon="15.863100008">
>>>>>>> e1d4bc35ff8a6074a6f2e91616a996b547c36f15
		<tag k="alt_name:no" v="Tømmerneset" />
		<tag k="amenity" v="place_of_worship" />
		<tag k="denomination" v="lutheran" />
		<tag k="name" v="Tømmerneset kirke" />
		<tag k="name:no" v="Tømmerneset kirke" />
		<tag k="religion" v="christian" />
		<tag k="ssr:stedsnr" v="562375" />
	</node>
<<<<<<< HEAD
	<node lat="67.99979721983577" lon="15.767769452819774" id="-11044">
		<tag k="alt_name:no" v="Karlsøy kapell" />
		<tag k="amenity" v="place_of_worship" />
		<tag k="denomination" v="lutheran" />
		<tag k="name" v="Sagfjord kirke" />
		<tag k="name:no" v="Sagfjord kirke" />
		<tag k="religion" v="christian" />
		<tag k="ssr:stedsnr" v="563524" />
	</node>
	<node lat="68.08376944690126" lon="15.638116676460541" id="-11567">
		<tag k="amenity" v="place_of_worship" />
		<tag k="denomination" v="lutheran" />
		<tag k="name" v="Hamarøy kirke" />
		<tag k="name:no" v="Hamarøy kirke" />
		<tag k="religion" v="christian" />
		<tag k="ssr:stedsnr" v="805619" />
	</node>
	<node lat="68.02376629607863" lon="16.139028311653323" id="-12022">
		<tag k="amenity" v="place_of_worship" />
		<tag k="denomination" v="lutheran" />
		<tag k="name" v="Drag/Helland kirke" />
		<tag k="name:no" v="Drag/Helland kirke" />
		<tag k="religion" v="christian" />
		<tag k="ssr:stedsnr" v="1082590" />
	</node>
=======
>>>>>>> e1d4bc35ff8a6074a6f2e91616a996b547c36f15
</osm>
