<?xml version="1.0" encoding="UTF-8"?>
<<<<<<< HEAD
<osm version="0.6" generator="osmapis">
	<node lat="68.07659166552767" lon="15.504772223863956" id="-7710">
		<tag k="ford" v="yes" />
		<tag k="name" v="Åsmundvaet" />
		<tag k="name:no" v="Åsmundvaet" />
		<tag k="place" v="locality" />
		<tag k="ssr:stedsnr" v="231018" />
	</node>
	<node lat="67.8072555529856" lon="16.5343138825755" id="-7796">
		<tag k="ford" v="yes" />
		<tag k="name" v="Jærtáråvve" />
		<tag k="name:smj" v="Jærtáråvve" />
		<tag k="place" v="locality" />
		<tag k="ssr:stedsnr" v="22935" />
	</node>
	<node lat="68.0149388874015" lon="15.754947209646723" id="-7814">
		<tag k="highway" v="path" />
		<tag k="name" v="Geitstien" />
		<tag k="name:no" v="Geitstien" />
		<tag k="ssr:stedsnr" v="49012" />
	</node>
	<node lat="68.08163055407138" lon="15.698272228730566" id="-7911">
		<tag k="highway" v="path" />
		<tag k="name" v="Kallvågvegen" />
		<tag k="name:no" v="Kallvågvegen" />
		<tag k="ssr:stedsnr" v="109077" />
	</node>
	<node lat="68.05816666683437" lon="15.409297221743682" id="-7940">
		<tag k="fixme" v="consider highway=path" />
		<tag k="highway" v="track" />
		<tag k="name" v="Tømmermelen" />
		<tag k="name:no" v="Tømmermelen" />
		<tag k="ssr:stedsnr" v="110308" />
	</node>
	<node lat="68.06679444899379" lon="15.48319721732655" id="-7942">
		<tag k="highway" v="path" />
		<tag k="name" v="Åsvegen" />
		<tag k="name:no" v="Åsvegen" />
		<tag k="ssr:stedsnr" v="110336" />
	</node>
	<node lat="68.06386666518831" lon="15.488916665863032" id="-8112">
		<tag k="highway" v="path" />
		<tag k="name" v="Bjønskogvegen" />
		<tag k="name:no" v="Bjønskogvegen" />
		<tag k="ssr:stedsnr" v="170355" />
	</node>
	<node lat="68.04800278146722" lon="15.441033330531885" id="-8437">
		<tag k="highway" v="path" />
		<tag k="name" v="Røsvikvegen" />
		<tag k="name:no" v="Røsvikvegen" />
		<tag k="ssr:stedsnr" v="473196" />
	</node>
	<node lat="68.11455000312029" lon="16.107552784320184" id="-8559">
		<tag k="highway" v="path" />
		<tag k="name" v="Stien" />
		<tag k="name:no" v="Stien" />
		<tag k="ssr:stedsnr" v="386525" />
	</node>
	<node lat="67.99154722380702" lon="15.999327777910539" id="-8718">
		<tag k="fixme" v="consider highway=path" />
		<tag k="highway" v="track" />
		<tag k="name" v="Svartdalsvegen" />
		<tag k="name:no" v="Svartdalsvegen" />
		<tag k="ssr:stedsnr" v="473707" />
	</node>
	<node lat="68.08056110788553" lon="15.47163056417079" id="-8899">
		<tag k="highway" v="path" />
		<tag k="name" v="Buvegen" />
		<tag k="name:no" v="Buvegen" />
		<tag k="ssr:stedsnr" v="534205" />
	</node>
	<node lat="68.12995555985248" lon="15.67256389286281" id="-8903">
		<tag k="man_made" v="cairn" />
		<tag k="name" v="Varden" />
		<tag k="name:no" v="Varden" />
		<tag k="place" v="locality" />
		<tag k="ssr:stedsnr" v="534425" />
	</node>
	<node lat="67.86472500385568" lon="15.967055546543172" id="-8965">
		<tag k="highway" v="path" />
		<tag k="name" v="Mellavegen" />
		<tag k="name:no" v="Mellavegen" />
		<tag k="ssr:stedsnr" v="594126" />
	</node>
	<node lat="68.1401444420672" lon="15.889744434195" id="-9076">
		<tag k="junction" v="yes" />
		<tag k="name" v="Orvikhalsen" />
		<tag k="name:no" v="Orvikhalsen" />
		<tag k="place" v="locality" />
		<tag k="ssr:stedsnr" v="655684" />
	</node>
	<node lat="67.85971388986867" lon="15.999747214156512" id="-9156">
		<tag k="highway" v="path" />
		<tag k="name" v="Buvegen" />
		<tag k="name:no" v="Buvegen" />
		<tag k="ssr:stedsnr" v="898235" />
	</node>
	<node lat="68.18101110842608" lon="15.671883327178277" id="-9170">
		<tag k="man_made" v="quay" />
		<tag k="name" v="Tranøykaia" />
		<tag k="name:no" v="Tranøykaia" />
		<tag k="place" v="locality" />
		<tag k="ssr:stedsnr" v="898181" />
	</node>
	<node lat="68.06076388668073" lon="15.464908332212662" id="-9321">
=======
<osm generator="osmapis" version="0.6">
	<node id="-212607" lat="67.8647250039" lon="15.9670555465">
		<tag k="highway" v="path" />
		<tag k="name" v="Mellavegen" />
		<tag k="name:no" v="Mellavegen" />
		<tag k="ssr:stedsnr" v="594126" />
	</node>
	<node id="-210429" lat="68.0805611079" lon="15.4716305642">
>>>>>>> e1d4bc35ff8a6074a6f2e91616a996b547c36f15
		<tag k="highway" v="path" />
		<tag k="name" v="Skottestadvegen" />
		<tag k="name:no" v="Skottestadvegen" />
		<tag k="ssr:stedsnr" v="777320" />
	</node>
<<<<<<< HEAD
	<node lat="68.02324722294709" lon="15.352563889867263" id="-9737">
		<tag k="ford" v="yes" />
		<tag k="name" v="Vaet" />
		<tag k="name:no" v="Vaet" />
		<tag k="place" v="locality" />
		<tag k="ssr:stedsnr" v="49081" />
	</node>
	<node lat="68.14282500347917" lon="15.93245833426236" id="-9748">
		<tag k="highway" v="path" />
		<tag k="name" v="Snevegen" />
		<tag k="name:no" v="Snevegen" />
		<tag k="ssr:stedsnr" v="48658" />
	</node>
	<node lat="68.06030000456668" lon="16.320811106529565" id="-9809">
		<tag k="name" v="Hulløyhamn" />
		<tag k="name:no" v="Hulløyhamn" />
		<tag k="place" v="locality" />
		<tag k="ssr:stedsnr" v="77518" />
	</node>
	<node lat="68.01704167030745" lon="16.1685222126838" id="-10042">
		<tag k="man_made" v="quay" />
		<tag k="name" v="Helland ekspedisjon" />
		<tag k="name:no" v="Helland ekspedisjon" />
		<tag k="place" v="locality" />
		<tag k="ssr:stedsnr" v="142551" />
	</node>
	<node lat="68.07774722132118" lon="16.074922218666483" id="-10188">
		<tag k="highway" v="path" />
		<tag k="name" v="Fjellveien" />
		<tag k="name:no" v="Fjellveien" />
		<tag k="ssr:stedsnr" v="203586" />
	</node>
	<node lat="68.06009444432767" lon="15.485163899881798" id="-10246">
		<tag k="highway" v="path" />
		<tag k="name" v="Sjyvegen" />
		<tag k="name:no" v="Sjyvegen" />
		<tag k="ssr:stedsnr" v="291350" />
	</node>
	<node lat="68.00255000365294" lon="15.394483323088522" id="-10335">
		<tag k="alt_name:no" v="Olstøa" />
		<tag k="leisure" v="marina" />
		<tag k="name" v="Olstø" />
		<tag k="name:no" v="Olstø" />
		<tag k="ssr:stedsnr" v="320863" />
	</node>
	<node lat="68.02659444154506" lon="16.150777769516143" id="-10356">
		<tag k="highway" v="path" />
		<tag k="name" v="Handelsvegen" />
		<tag k="name:no" v="Handelsvegen" />
		<tag k="ssr:stedsnr" v="325562" />
	</node>
	<node lat="67.83555277831402" lon="15.979438886833062" id="-10403">
=======
	<node id="-212857" lat="68.0496555512" lon="15.9918194459">
		<tag k="highway" v="path" />
		<tag k="name" v="Storbakkvegen" />
		<tag k="name:no" v="Storbakkvegen" />
		<tag k="ssr:stedsnr" v="627772" />
	</node>
	<node id="-212213" lat="68.1372805588" lon="16.0891000024">
		<tag k="bridge" v="yes" />
		<tag k="layer" v="1" />
		<tag k="name" v="Tjuosskombrygga" />
		<tag k="name:no" v="Tjuosskombrygga" />
		<tag k="ssr:stedsnr" v="385632" />
	</node>
	<node id="-209518" lat="68.066794449" lon="15.4831972173">
		<tag k="highway" v="path" />
		<tag k="name" v="Åsvegen" />
		<tag k="name:no" v="Åsvegen" />
		<tag k="ssr:stedsnr" v="110336" />
	</node>
	<node id="-212847" lat="68.1127055532" lon="15.6923166615">
		<tag k="fixme" v="consider highway=path" />
		<tag k="highway" v="track" />
		<tag k="name" v="Tømmeråsvegen" />
		<tag k="name:no" v="Tømmeråsvegen" />
		<tag k="ssr:stedsnr" v="655348" />
	</node>
	<node id="-211182" lat="68.0149388874" lon="15.7549472096">
		<tag k="highway" v="path" />
		<tag k="name" v="Geitstien" />
		<tag k="name:no" v="Geitstien" />
		<tag k="ssr:stedsnr" v="49012" />
	</node>
	<node id="-209516" lat="68.0581666668" lon="15.4092972217">
		<tag k="fixme" v="consider highway=path" />
		<tag k="highway" v="track" />
		<tag k="name" v="Tømmermelen" />
		<tag k="name:no" v="Tømmermelen" />
		<tag k="ssr:stedsnr" v="110308" />
	</node>
	<node id="-212583" lat="68.0054166621" lon="16.4282416711">
		<tag k="fixme" v="verify maritime location" />
		<tag k="mooring" v="yes" />
		<tag k="name" v="Lappstøa" />
		<tag k="name:no" v="Lappstøa" />
		<tag k="place" v="locality" />
		<tag k="ssr:stedsnr" v="589033" />
	</node>
	<node id="-211430" lat="68.0816305541" lon="15.6982722287">
		<tag k="highway" v="path" />
		<tag k="name" v="Kallvågvegen" />
		<tag k="name:no" v="Kallvågvegen" />
		<tag k="ssr:stedsnr" v="109077" />
	</node>
	<node id="-211684" lat="68.0638666652" lon="15.4889166659">
		<tag k="highway" v="path" />
		<tag k="name" v="Bjønskogvegen" />
		<tag k="name:no" v="Bjønskogvegen" />
		<tag k="ssr:stedsnr" v="170355" />
	</node>
	<node id="-210144" lat="68.1145500031" lon="16.1075527843">
		<tag k="highway" v="path" />
		<tag k="name" v="Stien" />
		<tag k="name:no" v="Stien" />
		<tag k="ssr:stedsnr" v="386525" />
	</node>
	<node id="-209627" lat="68.0600944443" lon="15.4851638999">
>>>>>>> e1d4bc35ff8a6074a6f2e91616a996b547c36f15
		<tag k="highway" v="path" />
		<tag k="name" v="Vintervegen" />
		<tag k="name:no" v="Vintervegen" />
		<tag k="ssr:stedsnr" v="352238" />
	</node>
	<node lat="68.1372805588177" lon="16.089100002367736" id="-10558">
		<tag k="bridge" v="yes" />
		<tag k="layer" v="1" />
		<tag k="name" v="Tjuosskombrygga" />
		<tag k="name:no" v="Tjuosskombrygga" />
		<tag k="ssr:stedsnr" v="385632" />
	</node>
<<<<<<< HEAD
	<node lat="67.8640611145879" lon="15.946541665851482" id="-10581">
=======
	<node id="-212569" lat="68.1550166663" lon="16.1311416621">
		<tag k="man_made" v="pier" />
		<tag k="name" v="Moloen" />
		<tag k="name:no" v="Moloen" />
		<tag k="place" v="locality" />
		<tag k="ssr:stedsnr" v="567894" />
	</node>
	<node id="-211798" lat="68.0777472213" lon="16.0749222187">
>>>>>>> e1d4bc35ff8a6074a6f2e91616a996b547c36f15
		<tag k="highway" v="path" />
		<tag k="name" v="Fjellveien" />
		<tag k="name:no" v="Fjellveien" />
		<tag k="ssr:stedsnr" v="203586" />
	</node>
<<<<<<< HEAD
	<node lat="68.22489166635212" lon="16.075838878154656" id="-10663">
=======
	<node id="-209877" lat="67.8005138861" lon="16.5103777873">
		<tag k="highway" v="path" />
		<tag k="name" v="Gussabálges" />
		<tag k="name:smj" v="Gussabálges" />
		<tag k="ssr:stedsnr" v="446939" />
	</node>
	<node id="-212434" lat="68.1299555599" lon="15.6725638929">
		<tag k="man_made" v="cairn" />
		<tag k="name" v="Varden" />
		<tag k="name:no" v="Varden" />
		<tag k="place" v="locality" />
		<tag k="ssr:stedsnr" v="534425" />
	</node>
	<node id="-209738" lat="68.2248916664" lon="16.0758388782">
>>>>>>> e1d4bc35ff8a6074a6f2e91616a996b547c36f15
		<tag k="amenity" v="ferry_terminal" />
		<tag k="loc_name:smj" v="Bognássje" />
		<tag k="name" v="Bognes" />
		<tag k="name:no" v="Bognes" />
		<tag k="ssr:stedsnr" v="441834" />
	</node>
<<<<<<< HEAD
	<node lat="67.80051388605412" lon="16.510377787293915" id="-10726">
=======
	<node id="-209350" lat="68.1428250035" lon="15.9324583343">
>>>>>>> e1d4bc35ff8a6074a6f2e91616a996b547c36f15
		<tag k="highway" v="path" />
		<tag k="name" v="Gussabálges" />
		<tag k="name:smj" v="Gussabálges" />
		<tag k="ssr:stedsnr" v="446939" />
	</node>
<<<<<<< HEAD
	<node lat="68.15501666628329" lon="16.13114166211803" id="-11085">
		<tag k="man_made" v="pier" />
		<tag k="name" v="Moloen" />
		<tag k="name:no" v="Moloen" />
		<tag k="place" v="locality" />
		<tag k="ssr:stedsnr" v="567894" />
	</node>
	<node lat="68.00541666210195" lon="16.428241671066942" id="-11095">
		<tag k="fixme" v="verify maritime location" />
		<tag k="mooring" v="yes" />
		<tag k="name" v="Lappstøa" />
		<tag k="name:no" v="Lappstøa" />
=======
	<node id="-211269" lat="68.0603000046" lon="16.3208111065">
		<tag k="name" v="Hulløyhamn" />
		<tag k="name:no" v="Hulløyhamn" />
		<tag k="place" v="locality" />
		<tag k="ssr:stedsnr" v="77518" />
	</node>
	<node id="-212672" lat="68.1566500009" lon="15.6373444441">
		<tag k="man_made" v="cairn" />
		<tag k="name" v="Varden" />
		<tag k="name:no" v="Varden" />
		<tag k="place" v="locality" />
		<tag k="ssr:stedsnr" v="594627" />
	</node>
	<node id="-209980" lat="67.9915472238" lon="15.9993277779">
		<tag k="fixme" v="consider highway=path" />
		<tag k="highway" v="track" />
		<tag k="name" v="Svartdalsvegen" />
		<tag k="name:no" v="Svartdalsvegen" />
		<tag k="ssr:stedsnr" v="473707" />
	</node>
	<node id="-211895" lat="68.0265944415" lon="16.1507777695">
		<tag k="highway" v="path" />
		<tag k="name" v="Handelsvegen" />
		<tag k="name:no" v="Handelsvegen" />
		<tag k="ssr:stedsnr" v="325562" />
	</node>
	<node id="-209846" lat="68.0765916655" lon="15.5047722239">
		<tag k="ford" v="yes" />
		<tag k="name" v="Åsmundvaet" />
		<tag k="name:no" v="Åsmundvaet" />
>>>>>>> e1d4bc35ff8a6074a6f2e91616a996b547c36f15
		<tag k="place" v="locality" />
		<tag k="ssr:stedsnr" v="589033" />
	</node>
<<<<<<< HEAD
	<node lat="68.15665000086182" lon="15.63734444414985" id="-11104">
		<tag k="man_made" v="cairn" />
		<tag k="name" v="Varden" />
		<tag k="name:no" v="Varden" />
=======
	<node id="-212661" lat="67.8083250014" lon="16.0080333438">
		<tag k="highway" v="path" />
		<tag k="name" v="Lappvegen" />
		<tag k="name:no" v="Lappvegen" />
		<tag k="ssr:stedsnr" v="594477" />
	</node>
	<node id="-213241" lat="67.8076666709" lon="15.9957277668">
		<tag k="highway" v="path" />
		<tag k="name" v="Brattbakkvegen" />
		<tag k="name:no" v="Brattbakkvegen" />
		<tag k="ssr:stedsnr" v="838542" />
	</node>
	<node id="-209288" lat="67.807255553" lon="16.5343138826">
		<tag k="ford" v="yes" />
		<tag k="name" v="Jærtáråvve" />
		<tag k="name:smj" v="Jærtáråvve" />
		<tag k="place" v="locality" />
		<tag k="ssr:stedsnr" v="22935" />
	</node>
	<node id="-211244" lat="68.0232472229" lon="15.3525638899">
		<tag k="ford" v="yes" />
		<tag k="name" v="Vaet" />
		<tag k="name:no" v="Vaet" />
>>>>>>> e1d4bc35ff8a6074a6f2e91616a996b547c36f15
		<tag k="place" v="locality" />
		<tag k="ssr:stedsnr" v="594627" />
	</node>
	<node lat="67.8083250013873" lon="16.008033343786064" id="-11138">
		<tag k="highway" v="path" />
		<tag k="name" v="Lappvegen" />
		<tag k="name:no" v="Lappvegen" />
		<tag k="ssr:stedsnr" v="594477" />
	</node>
<<<<<<< HEAD
	<node lat="68.02834444188744" lon="15.830361120489505" id="-11143">
		<tag k="highway" v="path" />
		<tag k="name" v="Stien" />
		<tag k="name:no" v="Stien" />
		<tag k="ssr:stedsnr" v="594496" />
	</node>
	<node lat="68.11270555324933" lon="15.692316661490365" id="-11303">
		<tag k="fixme" v="consider highway=path" />
		<tag k="highway" v="track" />
		<tag k="name" v="Tømmeråsvegen" />
		<tag k="name:no" v="Tømmeråsvegen" />
		<tag k="ssr:stedsnr" v="655348" />
	</node>
	<node lat="67.80766667091376" lon="15.995727766761064" id="-11762">
		<tag k="highway" v="path" />
		<tag k="name" v="Brattbakkvegen" />
		<tag k="name:no" v="Brattbakkvegen" />
		<tag k="ssr:stedsnr" v="838542" />
	</node>
	<node lat="67.90498611095931" lon="15.842808335627845" id="-11781">
=======
	<node id="-211880" lat="68.0025500037" lon="15.3944833231">
		<tag k="alt_name:no" v="Olstøa" />
		<tag k="leisure" v="marina" />
		<tag k="name" v="Olstø" />
		<tag k="name:no" v="Olstø" />
		<tag k="ssr:stedsnr" v="320863" />
	</node>
	<node id="-213030" lat="68.0607638867" lon="15.4649083322">
		<tag k="highway" v="path" />
		<tag k="name" v="Skottestadvegen" />
		<tag k="name:no" v="Skottestadvegen" />
		<tag k="ssr:stedsnr" v="777320" />
	</node>
	<node id="-212249" lat="67.8640611146" lon="15.9465416659">
		<tag k="highway" v="path" />
		<tag k="name" v="Vegskiftet" />
		<tag k="name:no" v="Vegskiftet" />
		<tag k="ssr:stedsnr" v="412090" />
	</node>
	<node id="-213269" lat="67.904986111" lon="15.8428083356">
>>>>>>> e1d4bc35ff8a6074a6f2e91616a996b547c36f15
		<tag k="highway" v="path" />
		<tag k="name" v="Fjellvegen" />
		<tag k="name:no" v="Fjellvegen" />
		<tag k="ssr:stedsnr" v="838973" />
<<<<<<< HEAD
	</node>
	<node lat="68.15178610826153" lon="15.675477765453675" id="-11992">
=======
	</node>
	<node id="-212078" lat="67.8355527783" lon="15.9794388868">
		<tag k="highway" v="path" />
		<tag k="name" v="Vintervegen" />
		<tag k="name:no" v="Vintervegen" />
		<tag k="ssr:stedsnr" v="352238" />
	</node>
	<node id="-210698" lat="67.8597138899" lon="15.9997472142">
		<tag k="highway" v="path" />
		<tag k="name" v="Buvegen" />
		<tag k="name:no" v="Buvegen" />
		<tag k="ssr:stedsnr" v="898235" />
	</node>
	<node id="-209945" lat="68.0480027815" lon="15.4410333305">
		<tag k="highway" v="path" />
		<tag k="name" v="Røsvikvegen" />
		<tag k="name:no" v="Røsvikvegen" />
		<tag k="ssr:stedsnr" v="473196" />
	</node>
	<node id="-210184" lat="68.1401444421" lon="15.8897444342">
		<tag k="junction" v="yes" />
		<tag k="name" v="Orvikhalsen" />
		<tag k="name:no" v="Orvikhalsen" />
		<tag k="place" v="locality" />
		<tag k="ssr:stedsnr" v="655684" />
	</node>
	<node id="-213484" lat="68.1517861083" lon="15.6754777655">
>>>>>>> e1d4bc35ff8a6074a6f2e91616a996b547c36f15
		<tag k="fixme" v="consider highway=path" />
		<tag k="highway" v="track" />
		<tag k="name" v="Jøssvågvegen" />
		<tag k="name:no" v="Jøssvågvegen" />
		<tag k="ssr:stedsnr" v="959668" />
	</node>
<<<<<<< HEAD
=======
	<node id="-212614" lat="68.0283444419" lon="15.8303611205">
		<tag k="highway" v="path" />
		<tag k="name" v="Stien" />
		<tag k="name:no" v="Stien" />
		<tag k="ssr:stedsnr" v="594496" />
	</node>
	<node id="-210692" lat="68.1810111084" lon="15.6718833272">
		<tag k="man_made" v="quay" />
		<tag k="name" v="Tranøykaia" />
		<tag k="name:no" v="Tranøykaia" />
		<tag k="place" v="locality" />
		<tag k="ssr:stedsnr" v="898181" />
	</node>
	<node id="-211585" lat="68.0170416703" lon="16.1685222127">
		<tag k="man_made" v="quay" />
		<tag k="name" v="Helland ekspedisjon" />
		<tag k="name:no" v="Helland ekspedisjon" />
		<tag k="place" v="locality" />
		<tag k="ssr:stedsnr" v="142551" />
	</node>
>>>>>>> e1d4bc35ff8a6074a6f2e91616a996b547c36f15
</osm>
