<?xml version="1.0" encoding="UTF-8"?>
<osm generator="osmapis" version="0.6">
	<node id="-212992" lat="68.0749066035" lon="15.3832755996">
		<tag k="fixme" v="consider place=hamlet" />
		<tag k="name" v="Vasseng" />
		<tag k="name:no" v="Vasseng" />
		<tag k="place" v="farm" />
		<tag k="ssr:stedsnr" v="764183" />
	</node>
	<node id="-212991" lat="68.1776222263" lon="16.0991916617">
		<tag k="name" v="Luren" />
		<tag k="name:no" v="Luren" />
		<tag k="place" v="farm" />
		<tag k="ssr:stedsnr" v="764182" />
	</node>
	<node id="-210939" lat="68.001933095" lon="15.494463272">
		<tag k="alt_name:no" v="Finnøy" />
		<tag k="fixme" v="consider place=hamlet" />
		<tag k="name" v="Finnøya" />
		<tag k="name:no" v="Finnøya" />
		<tag k="place" v="farm" />
		<tag k="ssr:stedsnr" v="927844" />
	</node>
	<node id="-210934" lat="68.204105553" lon="16.0770722171">
		<tag k="fixme" v="consider place=hamlet" />
		<tag k="name" v="Storjorda" />
		<tag k="name:no" v="Storjorda" />
		<tag k="place" v="farm" />
		<tag k="ssr:stedsnr" v="927805" />
	</node>
	<node id="-210922" lat="68.1529722218" lon="16.0939638915">
		<tag k="name" v="Hustoften" />
		<tag k="name:no" v="Hustoften" />
		<tag k="place" v="isolated_dwelling" />
		<tag k="ssr:stedsnr" v="927756" />
	</node>
	<node id="-212966" lat="68.1773388882" lon="16.0308111101">
		<tag k="name" v="Myrvang" />
		<tag k="name:no" v="Myrvang" />
		<tag k="place" v="farm" />
		<tag k="ssr:stedsnr" v="749741" />
	</node>
	<node id="-213247" lat="67.998727778" lon="15.5039972294">
		<tag k="amenity" v="school" />
		<tag k="name" v="Finnøy skole" />
		<tag k="name:no" v="Finnøy skole" />
		<tag k="ssr:stedsnr" v="838618" />
	</node>
	<node id="-212961" lat="68.0553722196" lon="16.225058326">
		<tag k="name" v="Njallem - Jalmaus" />
		<tag k="name:no" v="Jalmaus" />
		<tag k="name:smj" v="Njallem" />
		<tag k="place" v="isolated_dwelling" />
		<tag k="ssr:stedsnr" v="745490" />
	</node>
	<node id="-210910" lat="68.1390777755" lon="15.8837555477">
		<tag k="name" v="Solstad" />
		<tag k="name:no" v="Solstad" />
		<tag k="place" v="farm" />
		<tag k="ssr:stedsnr" v="927690" />
	</node>
	<node id="-212953" lat="67.8900222174" lon="16.3041750089">
		<tag k="name" v="Nåråldahka" />
		<tag k="name:smj" v="Nåråldahka" />
		<tag k="old_name:smj" v="Noroldahka" />
		<tag k="place" v="locality" />
		<tag k="ssr:stedsnr" v="745347" />
	</node>
	<node id="-212949" lat="67.9728416705" lon="16.3707138927">
		<tag k="name" v="Rávnno - Råna" />
		<tag k="name:no" v="Råna" />
		<tag k="name:smj" v="Rávnno" />
		<tag k="place" v="farm" />
		<tag k="ssr:stedsnr" v="745317" />
	</node>
	<node id="-210897" lat="67.9725093284" lon="15.9265214233">
		<tag k="alt_name:no" v="Strømsnes" />
		<tag k="fixme" v="consider place=hamlet" />
		<tag k="name" v="Straumsnes" />
		<tag k="name:no" v="Straumsnes" />
		<tag k="place" v="farm" />
		<tag k="ssr:stedsnr" v="927638" />
	</node>
	<node id="-212943" lat="68.0496305543" lon="15.4200305576">
		<tag k="name" v="Lian" />
		<tag k="name:no" v="Lian" />
		<tag k="place" v="farm" />
		<tag k="ssr:stedsnr" v="745943" />
	</node>
	<node id="-212938" lat="67.9491166664" lon="15.8972305542">
		<tag k="name" v="Steinbakken" />
		<tag k="name:no" v="Steinbakken" />
		<tag k="place" v="farm" />
		<tag k="ssr:stedsnr" v="745629" />
	</node>
	<node id="-212937" lat="68.0891250007" lon="16.0987805604">
		<tag k="name" v="Storvika" />
		<tag k="name:no" v="Storvika" />
		<tag k="place" v="farm" />
		<tag k="ssr:stedsnr" v="745627" />
	</node>
	<node id="-212934" lat="68.0436388918" lon="15.7473249937">
		<tag k="alt_name:no" v="Kaldvåg, austre" />
		<tag k="fixme" v="multiple name tags, choose one and add the other to alt_name" />
		<tag k="name" v="Brobakk;Austre Kaldvåg" />
		<tag k="name:no" v="Brobakk;Austre Kaldvåg" />
		<tag k="place" v="farm" />
		<tag k="ssr:stedsnr" v="745617" />
	</node>
	<node id="-212933" lat="68.0518027808" lon="16.0597805526">
		<tag k="name" v="Skoglund" />
		<tag k="name:no" v="Skoglund" />
		<tag k="place" v="farm" />
		<tag k="ssr:stedsnr" v="745613" />
	</node>
	<node id="-210884" lat="68.0160444465" lon="15.7346972134">
		<tag k="alt_name:no" v="Karlsøybotn, in" />
		<tag k="fixme" v="multiple name tags, choose one and add the other to alt_name" />
		<tag k="name" v="Østre Karlsøybotn;Indre Karlsøybotn" />
		<tag k="name:no" v="Østre Karlsøybotn;Indre Karlsøybotn" />
		<tag k="place" v="farm" />
		<tag k="ssr:stedsnr" v="927595" />
	</node>
	<node id="-212924" lat="68.0350282142" lon="15.9252846589">
		<tag k="alt_name:no" v="Korsvik" />
		<tag k="name" v="Korsvika" />
		<tag k="name:no" v="Korsvika" />
		<tag k="place" v="locality" />
		<tag k="ssr:stedsnr" v="745552" />
	</node>
	<node id="-212921" lat="68.0024147217" lon="15.6964211398">
		<tag k="fixme" v="consider place=hamlet" />
		<tag k="name" v="Håkonhals" />
		<tag k="name:no" v="Håkonhals" />
		<tag k="place" v="farm" />
		<tag k="ssr:stedsnr" v="745531" />
	</node>
	<node id="-212912" lat="68.172658163" lon="15.6650928117">
		<tag k="alt_name:no" v="Steinsos" />
		<tag k="fixme" v="consider place=hamlet" />
		<tag k="name" v="Steinosen" />
		<tag k="name:no" v="Steinosen" />
		<tag k="place" v="farm" />
		<tag k="ssr:stedsnr" v="745814" />
	</node>
	<node id="-212911" lat="68.159068718" lon="15.9212412311">
		<tag k="fixme" v="consider place=hamlet" />
		<tag k="name" v="Nordkil" />
		<tag k="name:no" v="Nordkil" />
		<tag k="place" v="farm" />
		<tag k="ssr:stedsnr" v="745808" />
	</node>
	<node id="-212909" lat="68.1685888871" lon="16.1289555563">
		<tag k="alt_name:no" v="Vikjord" />
		<tag k="name" v="Vikjorda" />
		<tag k="name:no" v="Vikjorda" />
		<tag k="place" v="isolated_dwelling" />
		<tag k="ssr:stedsnr" v="745799" />
	</node>
	<node id="-212907" lat="68.1420516697" lon="15.6772815034">
		<tag k="fixme" v="consider place=hamlet" />
		<tag k="name" v="Hellandsåsen" />
		<tag k="name:no" v="Hellandsåsen" />
		<tag k="place" v="farm" />
		<tag k="ssr:stedsnr" v="745792" />
	</node>
	<node id="-210858" lat="67.9887027791" lon="16.3480750053">
		<tag k="name" v="Lásluokta - Lossvika" />
		<tag k="name:no" v="Lossvika" />
		<tag k="name:smj" v="Lásluokta" />
		<tag k="place" v="farm" />
		<tag k="ssr:stedsnr" v="927321" />
	</node>
	<node id="-210857" lat="67.9813666682" lon="16.4904250098">
		<tag k="name" v="Lávrra" />
		<tag k="name:smj" v="Lávrra" />
		<tag k="place" v="isolated_dwelling" />
		<tag k="ssr:stedsnr" v="927316" />
	</node>
	<node id="-212900" lat="68.1248984996" lon="15.7115445309">
		<tag k="fixme" v="consider place=hamlet" />
		<tag k="name" v="Hamlot" />
		<tag k="name:no" v="Hamlot" />
		<tag k="place" v="farm" />
		<tag k="ssr:stedsnr" v="745751" />
	</node>
	<node id="-212895" lat="68.1150277769" lon="15.8682916549">
		<tag k="name" v="Solhaug" />
		<tag k="name:no" v="Solhaug" />
		<tag k="place" v="farm" />
		<tag k="ssr:stedsnr" v="745686" />
	</node>
	<node id="-212894" lat="68.1156750038" lon="15.8691888971">
		<tag k="name" v="Skogmo" />
		<tag k="name:no" v="Skogmo" />
		<tag k="place" v="farm" />
		<tag k="ssr:stedsnr" v="745683" />
	</node>
	<node id="-212893" lat="67.8639460231" lon="15.9341922865">
		<tag k="name" v="Tjoalmme - Strinda" />
		<tag k="name:no" v="Strinda" />
		<tag k="name:smj" v="Tjoalmme" />
		<tag k="old_name:smj" v="Čoalmi" />
		<tag k="place" v="farm" />
		<tag k="ssr:stedsnr" v="745452" />
	</node>
	<node id="-212889" lat="67.8936861102" lon="15.7811611064">
		<tag k="alt_name:no" v="Lapplægeret" />
		<tag k="name" v="Lapplægret" />
		<tag k="name:no" v="Lapplægret" />
		<tag k="place" v="locality" />
		<tag k="ssr:stedsnr" v="745430" />
	</node>
	<node id="-212880" lat="68.0822651372" lon="15.3297466011">
		<tag k="fixme" v="consider place=hamlet" />
		<tag k="name" v="Nordland" />
		<tag k="name:no" v="Nordland" />
		<tag k="place" v="farm" />
		<tag k="ssr:stedsnr" v="745081" />
	</node>
	<node id="-212879" lat="68.0863986919" lon="15.398235104">
		<tag k="name" v="Sand" />
		<tag k="name:no" v="Sand" />
		<tag k="place" v="locality" />
		<tag k="ssr:stedsnr" v="745078" />
	</node>
	<node id="-212877" lat="67.8673777787" lon="16.316375005">
		<tag k="name" v="Davve-Vássjá - Ytre Vasja" />
		<tag k="name:no" v="Ytre Vasja" />
		<tag k="name:smj" v="Davve-Vássjá" />
		<tag k="old_name:smj" v="Davvevášša" />
		<tag k="place" v="isolated_dwelling" />
		<tag k="ssr:stedsnr" v="745398" />
	</node>
	<node id="-212871" lat="68.0217694467" lon="16.1572555493">
		<tag k="fixme" v="consider place=hamlet" />
		<tag k="name" v="Ájládde - Helland" />
		<tag k="name:no" v="Helland" />
		<tag k="name:smj" v="Ájládde" />
		<tag k="place" v="village" />
		<tag k="ssr:stedsnr" v="875937" />
	</node>
	<node id="-210816" lat="68.1530499995" lon="15.6510472253">
		<tag k="amenity" v="school" />
		<tag k="name" v="Helland skole" />
		<tag k="name:no" v="Helland skole" />
		<tag k="ssr:stedsnr" v="777679" />
	</node>
	<node id="-212862" lat="68.1681194452" lon="15.7022694406">
		<tag k="name" v="Nesteigen" />
		<tag k="name:no" v="Nesteigen" />
		<tag k="place" v="isolated_dwelling" />
		<tag k="ssr:stedsnr" v="654195" />
	</node>
	<node id="-210810" lat="68.1377499977" lon="15.710019435">
		<tag k="name" v="Nymoen" />
		<tag k="name:no" v="Nymoen" />
		<tag k="place" v="farm" />
		<tag k="ssr:stedsnr" v="777659" />
	</node>
	<node id="-212855" lat="68.0049055584" lon="15.3990916791">
		<tag k="name" v="Olstø" />
		<tag k="name:no" v="Olstø" />
		<tag k="place" v="locality" />
		<tag k="ssr:stedsnr" v="655579" />
	</node>
	<node id="-210804" lat="68.112758337" lon="15.5957999906">
		<tag k="name" v="Hopland" />
		<tag k="name:no" v="Hopland" />
		<tag k="place" v="farm" />
		<tag k="ssr:stedsnr" v="777283" />
	</node>
	<node id="-210802" lat="67.9080611119" lon="15.801511116">
		<tag k="name" v="Gjetarhytta" />
		<tag k="name:no" v="Gjetarhytta" />
		<tag k="place" v="locality" />
		<tag k="ssr:stedsnr" v="776857" />
	</node>
	<node id="-212849" lat="68.108238887" lon="15.5877166702">
		<tag k="name" v="Mellomkulen" />
		<tag k="name:no" v="Mellomkulen" />
		<tag k="place" v="farm" />
		<tag k="ssr:stedsnr" v="655362" />
	</node>
	<node id="-210794" lat="68.1509861117" lon="15.6237888894">
		<tag k="name" v="Bennesvikskallen" />
		<tag k="name:no" v="Bennesvikskallen" />
		<tag k="place" v="farm" />
		<tag k="ssr:stedsnr" v="764255" />
	</node>
	<node id="-212841" lat="68.0515055573" lon="15.4563000046">
		<tag k="name" v="Leite" />
		<tag k="name:no" v="Leite" />
		<tag k="place" v="farm" />
		<tag k="ssr:stedsnr" v="655287" />
	</node>
	<node id="-210784" lat="68.1073527781" lon="16.0985777722">
		<tag k="name" v="Gállá - Kjerr" />
		<tag k="name:no" v="Kjerr" />
		<tag k="name:smj" v="Gállá" />
		<tag k="place" v="farm" />
		<tag k="ssr:stedsnr" v="749708" />
	</node>
	<node id="-210779" lat="68.245144445" lon="16.0601194521">
		<tag k="name" v="Oldervika" />
		<tag k="name:no" v="Oldervika" />
		<tag k="place" v="isolated_dwelling" />
		<tag k="ssr:stedsnr" v="745864" />
	</node>
	<node id="-210776" lat="68.0571284109" lon="15.5977187262">
		<tag k="fixme" v="consider place=hamlet" />
		<tag k="name" v="Kallstad" />
		<tag k="name:no" v="Kallstad" />
		<tag k="place" v="farm" />
		<tag k="ssr:stedsnr" v="745953" />
	</node>
	<node id="-210775" lat="68.0303250021" lon="15.3412444511">
		<tag k="fixme" v="multiple name tags, choose one and add the other to alt_name" />
		<tag k="name" v="Hjelman;Hjemgan" />
		<tag k="name:no" v="Hjelman;Hjemgan" />
		<tag k="place" v="farm" />
		<tag k="ssr:stedsnr" v="745924" />
	</node>
	<node id="-210771" lat="67.9929972264" lon="15.6095388837">
		<tag k="alt_name:no" v="Troskog" />
		<tag k="name" v="Troskogen" />
		<tag k="name:no" v="Troskogen" />
		<tag k="place" v="farm" />
		<tag k="ssr:stedsnr" v="745916" />
	</node>
	<node id="-210770" lat="67.9988666647" lon="15.5294583399">
		<tag k="name" v="Einsletta" />
		<tag k="name:no" v="Einsletta" />
		<tag k="place" v="farm" />
		<tag k="ssr:stedsnr" v="745913" />
	</node>
	<node id="-210766" lat="68.1211374473" lon="15.8781671854">
		<tag k="alt_name:no" v="Ulsvåg" />
		<tag k="fixme" v="consider place=hamlet" />
		<tag k="name" v="Ulvsvåg" />
		<tag k="name:no" v="Ulvsvåg" />
		<tag k="place" v="farm" />
		<tag k="ssr:stedsnr" v="745678" />
	</node>
	<node id="-212813" lat="68.1041865366" lon="15.5907280352">
		<tag k="alt_name:no" v="Brulten;Brutlen" />
		<tag k="fixme" v="consider place=hamlet" />
		<tag k="name" v="Brattli" />
		<tag k="name:no" v="Brattli" />
		<tag k="place" v="farm" />
		<tag k="ssr:stedsnr" v="623054" />
	</node>
	<node id="-212811" lat="68.1048794368" lon="15.5167671318">
		<tag k="name" v="Hamsund" />
		<tag k="name:no" v="Hamsund" />
		<tag k="place" v="hamlet" />
		<tag k="ssr:stedsnr" v="623040" />
	</node>
	<node id="-212809" lat="68.0850027779" lon="15.4842083305">
		<tag k="name" v="Moa" />
		<tag k="name:no" v="Moa" />
		<tag k="place" v="farm" />
		<tag k="ssr:stedsnr" v="623997" />
	</node>
	<node id="-212808" lat="68.0852222213" lon="15.609419436">
		<tag k="alt_name:no" v="Oppeide" />
		<tag k="fixme" v="consider place=suburb, village or hamlet" />
		<tag k="name" v="Oppeid" />
		<tag k="name:no" v="Oppeid" />
		<tag k="place" v="quarter" />
		<tag k="ssr:stedsnr" v="623987" />
	</node>
	<node id="-212807" lat="68.0713970578" lon="15.3960671452">
		<tag k="fixme" v="consider place=hamlet" />
		<tag k="name" v="Halsen" />
		<tag k="name:no" v="Halsen" />
		<tag k="place" v="farm" />
		<tag k="ssr:stedsnr" v="623983" />
	</node>
	<node id="-210758" lat="68.1365186657" lon="15.8952157805">
		<tag k="fixme" v="consider place=hamlet" />
		<tag k="name" v="Sørkil" />
		<tag k="name:no" v="Sørkil" />
		<tag k="place" v="farm" />
		<tag k="ssr:stedsnr" v="745713" />
	</node>
	<node id="-210755" lat="68.0323527757" lon="15.9996916564">
		<tag k="name" v="Sommarset" />
		<tag k="name:no" v="Sommarset" />
		<tag k="place" v="farm" />
		<tag k="ssr:stedsnr" v="745568" />
	</node>
	<node id="-210754" lat="68.031972218" lon="16.1069277828">
		<tag k="name" v="Veiland" />
		<tag k="name:no" v="Veiland" />
		<tag k="place" v="farm" />
		<tag k="ssr:stedsnr" v="745563" />
	</node>
	<node id="-210753" lat="68.030177779" lon="15.7077555614">
		<tag k="fixme" v="multiple name tags, choose one and add the other to alt_name" />
		<tag k="name" v="Heia;Nyheim" />
		<tag k="name:no" v="Heia;Nyheim" />
		<tag k="place" v="isolated_dwelling" />
		<tag k="ssr:stedsnr" v="745562" />
	</node>
	<node id="-212799" lat="68.0357163883" lon="15.3475857203">
		<tag k="alt_name:no" v="Steinslandsfjellet" />
		<tag k="fixme" v="consider place=hamlet" />
		<tag k="name" v="Steinslandsfjell" />
		<tag k="name:no" v="Steinslandsfjell" />
		<tag k="place" v="farm" />
		<tag k="ssr:stedsnr" v="623937" />
	</node>
	<node id="-212791" lat="68.1789500033" lon="16.029505557">
		<tag k="loc_name:smj" v="Båddnå" />
		<tag k="name" v="Botn" />
		<tag k="name:no" v="Botn" />
		<tag k="place" v="farm" />
		<tag k="ssr:stedsnr" v="623787" />
	</node>
	<node id="-210737" lat="68.1137346547" lon="15.490292446">
		<tag k="fixme" v="consider place=hamlet" />
		<tag k="name" v="Egedalen" />
		<tag k="name:no" v="Egedalen" />
		<tag k="place" v="farm" />
		<tag k="ssr:stedsnr" v="745024" />
	</node>
	<node id="-212783" lat="68.1375388852" lon="15.8873805659">
		<tag k="name" v="Steinholt" />
		<tag k="name:no" v="Steinholt" />
		<tag k="place" v="farm" />
		<tag k="ssr:stedsnr" v="623709" />
	</node>
	<node id="-212782" lat="68.0982340586" lon="15.6195983803">
		<tag k="alt_name:no" v="Dypvik" />
		<tag k="fixme" v="consider place=hamlet" />
		<tag k="name" v="Djupvika" />
		<tag k="name:no" v="Djupvika" />
		<tag k="place" v="farm" />
		<tag k="ssr:stedsnr" v="623700" />
	</node>
	<node id="-212774" lat="68.1487083769" lon="15.5041309925">
		<tag k="alt_name:no" v="Kyllingmark" />
		<tag k="fixme" v="consider place=hamlet" />
		<tag k="name" v="Kjukkelmarka" />
		<tag k="name:no" v="Kjukkelmarka" />
		<tag k="old_name:no" v="Kjakkelmarka;Kjyllingmark" />
		<tag k="place" v="farm" />
		<tag k="ssr:stedsnr" v="623110" />
	</node>
	<node id="-210724" lat="67.9122361118" lon="15.8665444342">
		<tag k="name" v="Elvenes" />
		<tag k="name:no" v="Elvenes" />
		<tag k="place" v="farm" />
		<tag k="ssr:stedsnr" v="898990" />
	</node>
	<node id="-212761" lat="68.0523805534" lon="16.0675499897">
		<tag k="name" v="Nordnes" />
		<tag k="name:no" v="Nordnes" />
		<tag k="place" v="farm" />
		<tag k="ssr:stedsnr" v="623838" />
	</node>
	<node id="-212758" lat="68.1194673812" lon="16.0132783794">
		<tag k="name" v="Åmo" />
		<tag k="name:no" v="Åmo" />
		<tag k="place" v="locality" />
		<tag k="ssr:stedsnr" v="623679" />
	</node>
	<node id="-210707" lat="68.105775004" lon="15.5170527667">
		<tag k="name" v="Nystad" />
		<tag k="name:no" v="Nystad" />
		<tag k="place" v="farm" />
		<tag k="ssr:stedsnr" v="898283" />
	</node>
	<node id="-210694" lat="68.1632138924" lon="15.7070499986">
		<tag k="name" v="Fjøshågen" />
		<tag k="name:no" v="Fjøshågen" />
		<tag k="place" v="farm" />
		<tag k="ssr:stedsnr" v="898198" />
	</node>
	<node id="-212732" lat="68.0372250011" lon="16.0980750042">
		<tag k="name" v="Moa" />
		<tag k="name:no" v="Moa" />
		<tag k="place" v="farm" />
		<tag k="ssr:stedsnr" v="623590" />
	</node>
	<node id="-212728" lat="68.0852972211" lon="16.2360499928">
		<tag k="name" v="Aspheim" />
		<tag k="name:no" v="Aspheim" />
		<tag k="place" v="isolated_dwelling" />
		<tag k="ssr:stedsnr" v="623557" />
	</node>
	<node id="-212725" lat="67.8203472206" lon="16.1085944472">
		<tag k="name" v="Rikandersjorda" />
		<tag k="name:no" v="Rikandersjorda" />
		<tag k="place" v="locality" />
		<tag k="ssr:stedsnr" v="623480" />
	</node>
	<node id="-210671" lat="68.1067916661" lon="15.6686944387">
		<tag k="name" v="Stranden" />
		<tag k="name:no" v="Stranden" />
		<tag k="place" v="locality" />
		<tag k="ssr:stedsnr" v="716334" />
	</node>
	<node id="-210663" lat="68.0244472213" lon="16.5134388914">
		<tag k="name" v="Elvenes" />
		<tag k="name:no" v="Elvenes" />
		<tag k="place" v="isolated_dwelling" />
		<tag k="ssr:stedsnr" v="892219" />
	</node>
	<node id="-210661" lat="68.0016916695" lon="15.6965861173">
		<tag k="name" v="Klingenberg" />
		<tag k="name:no" v="Klingenberg" />
		<tag k="place" v="farm" />
		<tag k="ssr:stedsnr" v="703607" />
	</node>
	<node id="-210657" lat="67.9606083334" lon="16.8331277696">
		<tag k="fixme" v="consider tourism=alpine_hut or tourism=chalet" />
		<tag k="name" v="Røysvatn" />
		<tag k="name:no" v="Røysvatn" />
		<tag k="old_name:no" v="Røysvatnhytta" />
		<tag k="ssr:stedsnr" v="890593" />
		<tag k="tourism" v="wilderness_hut" />
	</node>
	<node id="-210651" lat="68.0782361123" lon="16.0998583304">
		<tag k="name" v="Strummbo - Strumpvika" />
		<tag k="name:no" v="Strumpvika" />
		<tag k="name:smj" v="Strummbo" />
		<tag k="place" v="hamlet" />
		<tag k="ssr:stedsnr" v="688627" />
	</node>
	<node id="-210646" lat="68.0813611106" lon="15.6254722159">
		<tag k="name" v="Herset" />
		<tag k="name:no" v="Herset" />
		<tag k="place" v="farm" />
		<tag k="ssr:stedsnr" v="885116" />
	</node>
	<node id="-210642" lat="68.2312972197" lon="16.0593527663">
		<tag k="name" v="Kleiva" />
		<tag k="name:no" v="Kleiva" />
		<tag k="place" v="farm" />
		<tag k="ssr:stedsnr" v="684827" />
	</node>
	<node id="-212686" lat="68.0284694472" lon="15.3374916742">
		<tag k="name" v="Haugen" />
		<tag k="name:no" v="Haugen" />
		<tag k="place" v="farm" />
		<tag k="ssr:stedsnr" v="594228" />
	</node>
	<node id="-212682" lat="68.0874555519" lon="15.8709027725">
		<tag k="name" v="Heggli" />
		<tag k="name:no" v="Heggli" />
		<tag k="place" v="farm" />
		<tag k="ssr:stedsnr" v="594951" />
	</node>
	<node id="-210631" lat="68.027341664" lon="16.3367777713">
		<tag k="name" v="Tjårro - Tjårrnes" />
		<tag k="name:no" v="Tjårrnes" />
		<tag k="name:smj" v="Tjårro" />
		<tag k="place" v="hamlet" />
		<tag k="ssr:stedsnr" v="684513" />
	</node>
	<node id="-210630" lat="68.0437055545" lon="16.3050416655">
		<tag k="name" v="Solhaug" />
		<tag k="name:no" v="Solhaug" />
		<tag k="place" v="farm" />
		<tag k="ssr:stedsnr" v="684511" />
	</node>
	<node id="-210624" lat="67.8739361142" lon="15.8864444494">
		<tag k="name" v="Strindberg" />
		<tag k="name:no" v="Strindberg" />
		<tag k="place" v="farm" />
		<tag k="ssr:stedsnr" v="684407" />
	</node>
	<node id="-210618" lat="68.1349138857" lon="15.4252555631">
		<tag k="alt_name:no" v="Trondhamn" />
		<tag k="name" v="Tronhamn" />
		<tag k="name:no" v="Tronhamn" />
		<tag k="place" v="farm" />
		<tag k="ssr:stedsnr" v="684099" />
	</node>
	<node id="-212555" lat="68.0174852162" lon="15.3232763835">
		<tag k="alt_name:no" v="Rørvik" />
		<tag k="fixme" v="consider place=hamlet" />
		<tag k="name" v="Rørvika" />
		<tag k="name:no" v="Rørvika" />
		<tag k="place" v="farm" />
		<tag k="ssr:stedsnr" v="563920" />
	</node>
	<node id="-210614" lat="68.12952778" lon="15.6120916554">
		<tag k="name" v="Formo" />
		<tag k="name:no" v="Formo" />
		<tag k="place" v="farm" />
		<tag k="ssr:stedsnr" v="684009" />
	</node>
	<node id="-210613" lat="68.1783142326" lon="16.0295969124">
		<tag k="name" v="Båddnå - Botn" />
		<tag k="name:no" v="Botn" />
		<tag k="name:smj" v="Båddnå" />
		<tag k="place" v="hamlet" />
		<tag k="ssr:stedsnr" v="666306" />
	</node>
	<node id="-212645" lat="68.1387972199" lon="15.4666722142">
		<tag k="name" v="Nordgård" />
		<tag k="name:no" v="Nordgård" />
		<tag k="place" v="farm" />
		<tag k="ssr:stedsnr" v="593584" />
	</node>
	<node id="-210594" lat="68.0076138882" lon="15.4080805454">
		<tag k="name" v="Borg" />
		<tag k="name:no" v="Borg" />
		<tag k="place" v="farm" />
		<tag k="ssr:stedsnr" v="655086" />
	</node>
	<node id="-212639" lat="68.078013889" lon="15.9137666637">
		<tag k="name" v="Solvang" />
		<tag k="name:no" v="Solvang" />
		<tag k="place" v="farm" />
		<tag k="ssr:stedsnr" v="595322" />
	</node>
	<node id="-212638" lat="68.0819027822" lon="15.8940666632">
		<tag k="name" v="Skogheim" />
		<tag k="name:no" v="Skogheim" />
		<tag k="place" v="farm" />
		<tag k="ssr:stedsnr" v="595319" />
	</node>
	<node id="-212637" lat="68.0845722212" lon="15.8872805574">
		<tag k="name" v="Karenjord" />
		<tag k="name:no" v="Karenjord" />
		<tag k="place" v="farm" />
		<tag k="ssr:stedsnr" v="595315" />
	</node>
	<node id="-210581" lat="68.116069443" lon="15.4944916616">
		<tag k="name" v="Strand" />
		<tag k="name:no" v="Strand" />
		<tag k="place" v="farm" />
		<tag k="ssr:stedsnr" v="654511" />
	</node>
	<node id="-210579" lat="68.1137027786" lon="15.4955500103">
		<tag k="name" v="Nergården" />
		<tag k="name:no" v="Nergården" />
		<tag k="place" v="farm" />
		<tag k="ssr:stedsnr" v="654460" />
	</node>
	<node id="-210573" lat="68.2365805591" lon="16.0599416706">
		<tag k="name" v="Leiknes" />
		<tag k="name:no" v="Leiknes" />
		<tag k="place" v="farm" />
		<tag k="ssr:stedsnr" v="632954" />
	</node>
	<node id="-212596" lat="68.0360472184" lon="15.3868805628">
		<tag k="name" v="Toftan" />
		<tag k="name:no" v="Toftan" />
		<tag k="place" v="farm" />
		<tag k="ssr:stedsnr" v="594217" />
	</node>
	<node id="-210540" lat="68.1328638914" lon="15.4024527832">
		<tag k="name" v="Ramnevika" />
		<tag k="name:no" v="Ramnevika" />
		<tag k="place" v="locality" />
		<tag k="ssr:stedsnr" v="716720" />
	</node>
	<node id="-212586" lat="68.0566055597" lon="15.7805444476">
		<tag k="name" v="Grunnvågen" />
		<tag k="name:no" v="Grunnvågen" />
		<tag k="place" v="locality" />
		<tag k="ssr:stedsnr" v="581137" />
	</node>
	<node id="-212582" lat="68.1651888865" lon="15.9594000073">
		<tag k="name" v="Borterstua" />
		<tag k="name:no" v="Borterstua" />
		<tag k="place" v="farm" />
		<tag k="ssr:stedsnr" v="567697" />
	</node>
	<node id="-213265" lat="68.0888555524" lon="15.8591277878">
		<tag k="name" v="Skogvang" />
		<tag k="name:no" v="Skogvang" />
		<tag k="place" v="farm" />
		<tag k="ssr:stedsnr" v="838958" />
	</node>
	<node id="-212577" lat="68.0486416672" lon="16.0517722236">
		<tag k="name" v="Øyvollen" />
		<tag k="name:no" v="Øyvollen" />
		<tag k="place" v="farm" />
		<tag k="ssr:stedsnr" v="567652" />
	</node>
	<node id="-210514" lat="68.1307111151" lon="15.7138916563">
		<tag k="name" v="Buneset" />
		<tag k="name:no" v="Buneset" />
		<tag k="place" v="farm" />
		<tag k="ssr:stedsnr" v="716639" />
	</node>
	<node id="-212557" lat="68.0295638864" lon="16.1146388913">
		<tag k="name" v="Bjørkvik" />
		<tag k="name:no" v="Bjørkvik" />
		<tag k="place" v="farm" />
		<tag k="ssr:stedsnr" v="567549" />
	</node>
	<node id="-210507" lat="68.0803805559" lon="15.6251666656">
		<tag k="name" v="Presteidskogen" />
		<tag k="name:no" v="Presteidskogen" />
		<tag k="place" v="quarter" />
		<tag k="ssr:stedsnr" v="716131" />
	</node>
	<node id="-210505" lat="68.1832027817" lon="15.6591111189">
		<tag k="name" v="Loshågen" />
		<tag k="name:no" v="Loshågen" />
		<tag k="place" v="farm" />
		<tag k="ssr:stedsnr" v="716089" />
	</node>
	<node id="-212544" lat="68.1631777777" lon="15.6404777811">
		<tag k="name" v="Solvoll" />
		<tag k="name:no" v="Solvoll" />
		<tag k="place" v="farm" />
		<tag k="ssr:stedsnr" v="563783" />
	</node>
	<node id="-210493" lat="68.1040833327" lon="15.5130444394">
		<tag k="name" v="Åsen" />
		<tag k="name:no" v="Åsen" />
		<tag k="place" v="farm" />
		<tag k="ssr:stedsnr" v="715316" />
	</node>
	<node id="-210484" lat="68.1461722259" lon="15.4618833452">
		<tag k="name" v="Einan" />
		<tag k="name:no" v="Einan" />
		<tag k="place" v="farm" />
		<tag k="ssr:stedsnr" v="594911" />
	</node>
	<node id="-210482" lat="68.0779666713" lon="15.578947219">
		<tag k="name" v="Uteidsjøen" />
		<tag k="name:no" v="Uteidsjøen" />
		<tag k="place" v="isolated_dwelling" />
		<tag k="ssr:stedsnr" v="581479" />
	</node>
	<node id="-210478" lat="68.1069724202" lon="15.6845305909">
		<tag k="name" v="Store Tømmerås" />
		<tag k="name:no" v="Store Tømmerås" />
		<tag k="place" v="farm" />
		<tag k="ssr:stedsnr" v="703027" />
	</node>
	<node id="-212523" lat="68.0877194415" lon="15.5807833236">
		<tag k="name" v="Skogstad" />
		<tag k="name:no" v="Skogstad" />
		<tag k="place" v="farm" />
		<tag k="ssr:stedsnr" v="655022" />
	</node>
	<node id="-212509" lat="68.1462472217" lon="15.9076194451">
		<tag k="name" v="Veum" />
		<tag k="name:no" v="Veum" />
		<tag k="place" v="farm" />
		<tag k="ssr:stedsnr" v="562715" />
	</node>
	<node id="-212502" lat="68.0788763779" lon="15.5070663203">
		<tag k="fixme" v="consider place=hamlet" />
		<tag k="name" v="Liland" />
		<tag k="name:no" v="Liland" />
		<tag k="place" v="farm" />
		<tag k="ssr:stedsnr" v="562972" />
	</node>
	<node id="-212500" lat="68.0628805548" lon="15.5932360993">
		<tag k="name" v="Lendstø" />
		<tag k="name:no" v="Lendstø" />
		<tag k="place" v="locality" />
		<tag k="ssr:stedsnr" v="562951" />
	</node>
	<node id="-212473" lat="68.0181555568" lon="15.7284333283">
		<tag k="alt_name:no" v="Karlsøybotn, yt" />
		<tag k="fixme" v="multiple name tags, choose one and add the other to alt_name" />
		<tag k="name" v="Vestre Karlsøybotn;Ytre Karlsøybotn" />
		<tag k="name:no" v="Vestre Karlsøybotn;Ytre Karlsøybotn" />
		<tag k="place" v="farm" />
		<tag k="ssr:stedsnr" v="562590" />
	</node>
	<node id="-212472" lat="68.0268277769" lon="16.0313361073">
		<tag k="name" v="Sommarset" />
		<tag k="name:no" v="Sommarset" />
		<tag k="place" v="isolated_dwelling" />
		<tag k="ssr:stedsnr" v="562582" />
	</node>
	<node id="-212469" lat="67.9655722215" lon="16.3560166614">
		<tag k="name" v="Rásjvássjá - Grasvik" />
		<tag k="name:no" v="Grasvik" />
		<tag k="name:smj" v="Rásjvássjá" />
		<tag k="place" v="farm" />
		<tag k="ssr:stedsnr" v="562273" />
	</node>
	<node id="-212463" lat="67.9537555601" lon="16.408955551">
		<tag k="alt_name:no" v="Vik" />
		<tag k="name" v="Luokta - Vika" />
		<tag k="name:no" v="Vika" />
		<tag k="name:smj" v="Luokta" />
		<tag k="place" v="isolated_dwelling" />
		<tag k="ssr:stedsnr" v="562265" />
	</node>
	<node id="-210407" lat="68.2363083323" lon="15.9652055604">
		<tag k="name" v="Molvika" />
		<tag k="name:no" v="Molvika" />
		<tag k="place" v="farm" />
		<tag k="ssr:stedsnr" v="689482" />
	</node>
	<node id="-212454" lat="67.9241833376" lon="15.89083889">
		<tag k="name" v="Storlagmannnsvika" />
		<tag k="name:no" v="Storlagmannnsvika" />
		<tag k="place" v="farm" />
		<tag k="ssr:stedsnr" v="562389" />
	</node>
	<node id="-210402" lat="68.0086888867" lon="15.3989944433">
		<tag k="name" v="Frydenlund" />
		<tag k="name:no" v="Frydenlund" />
		<tag k="place" v="farm" />
		<tag k="ssr:stedsnr" v="685873" />
	</node>
	<node id="-212449" lat="67.9022111125" lon="16.1981222335">
		<tag k="name" v="Smájlle - Leirelva" />
		<tag k="name:no" v="Leirelva" />
		<tag k="name:smj" v="Smájlle" />
		<tag k="place" v="farm" />
		<tag k="ssr:stedsnr" v="562368" />
	</node>
	<node id="-212444" lat="68.0309647396" lon="15.302177685">
		<tag k="fixme" v="consider place=hamlet" />
		<tag k="name" v="Utåker" />
		<tag k="name:no" v="Utåker" />
		<tag k="place" v="farm" />
		<tag k="ssr:stedsnr" v="562898" />
	</node>
	<node id="-212443" lat="67.9509416642" lon="16.40248056">
		<tag k="name" v="Rudnavuotna - Grunnfjorden" />
		<tag k="name:no" v="Grunnfjorden" />
		<tag k="name:smj" v="Rudnavuotna" />
		<tag k="place" v="isolated_dwelling" />
		<tag k="ssr:stedsnr" v="562261" />
	</node>
	<node id="-210393" lat="68.0722173864" lon="15.4441187898">
		<tag k="alt_name:no" v="Hoffmannsfjellet" />
		<tag k="fixme" v="multiple name tags, choose one and add the other to alt_name; consider place=hamlet" />
		<tag k="name" v="Fjell;Hoffmannsfjell" />
		<tag k="name:no" v="Fjell;Hoffmannsfjell" />
		<tag k="place" v="farm" />
		<tag k="ssr:stedsnr" v="684984" />
	</node>
	<node id="-210392" lat="68.0715527784" lon="15.4641666674">
		<tag k="name" v="Nymoen" />
		<tag k="name:no" v="Nymoen" />
		<tag k="place" v="farm" />
		<tag k="ssr:stedsnr" v="684980" />
	</node>
	<node id="-210386" lat="68.0463611128" lon="15.4188250106">
		<tag k="name" v="Ekra" />
		<tag k="name:no" v="Ekra" />
		<tag k="place" v="farm" />
		<tag k="ssr:stedsnr" v="684938" />
	</node>
	<node id="-210385" lat="68.0402463424" lon="15.4113340116">
		<tag k="alt_name:no" v="Søre Finnset;Finset" />
		<tag k="fixme" v="consider place=hamlet" />
		<tag k="name" v="Finnset" />
		<tag k="name:no" v="Finnset" />
		<tag k="place" v="farm" />
		<tag k="ssr:stedsnr" v="684934" />
	</node>
	<node id="-212430" lat="68.1444666694" lon="15.4500527882">
		<tag k="name" v="Stranda" />
		<tag k="name:no" v="Stranda" />
		<tag k="place" v="quarter" />
		<tag k="ssr:stedsnr" v="534920" />
	</node>
	<node id="-210379" lat="67.9965527803" lon="15.5132861051">
		<tag k="alt_name:no" v="Dønshaugen" />
		<tag k="name" v="Dønshågen" />
		<tag k="name:no" v="Dønshågen" />
		<tag k="place" v="farm" />
		<tag k="ssr:stedsnr" v="684898" />
	</node>
	<node id="-212421" lat="67.9917749978" lon="15.9124194537">
		<tag k="name" v="Buktelva Hytteområde" />
		<tag k="name:no" v="Buktelva Hytteområde" />
		<tag k="place" v="neighbourhood" />
		<tag k="ssr:stedsnr" v="534725" />
	</node>
	<node id="-210371" lat="68.2366583295" lon="15.965708333">
		<tag k="name" v="Molvika" />
		<tag k="name:no" v="Molvika" />
		<tag k="place" v="hamlet" />
		<tag k="ssr:stedsnr" v="684849" />
	</node>
	<node id="-210369" lat="68.0043559005" lon="15.4130213511">
		<tag k="fixme" v="consider place=hamlet" />
		<tag k="name" v="Nes" />
		<tag k="name:no" v="Nes" />
		<tag k="place" v="farm" />
		<tag k="ssr:stedsnr" v="684845" />
	</node>
	<node id="-212416" lat="68.1482055548" lon="15.9804416764">
		<tag k="name" v="Lelljorda" />
		<tag k="name:no" v="Lelljorda" />
		<tag k="place" v="locality" />
		<tag k="ssr:stedsnr" v="534699" />
	</node>
	<node id="-210365" lat="68.1608111144" lon="15.9168611152">
		<tag k="name" v="Høgtun" />
		<tag k="name:no" v="Høgtun" />
		<tag k="place" v="farm" />
		<tag k="ssr:stedsnr" v="684765" />
	</node>
	<node id="-210359" lat="68.1357111104" lon="16.1140472161">
		<tag k="name" v="Ráluokta - Rørvika" />
		<tag k="name:no" v="Rørvika" />
		<tag k="name:smj" v="Ráluokta" />
		<tag k="place" v="hamlet" />
		<tag k="ssr:stedsnr" v="684675" />
	</node>
	<node id="-210357" lat="67.9890083342" lon="15.8334083409">
		<tag k="alt_name:no" v="Oterågan" />
		<tag k="name" v="Oteråga" />
		<tag k="name:no" v="Oteråga" />
		<tag k="place" v="locality" />
		<tag k="ssr:stedsnr" v="684670" />
	</node>
	<node id="-210356" lat="68.0996060177" lon="15.8103650778">
		<tag k="alt_name:no" v="Jørenvik;Jørnvik" />
		<tag k="fixme" v="consider place=hamlet" />
		<tag k="name" v="Jørenvika" />
		<tag k="name:no" v="Jørenvika" />
		<tag k="place" v="farm" />
		<tag k="ssr:stedsnr" v="684652" />
	</node>
	<node id="-210353" lat="68.11888056" lon="15.8634527689">
		<tag k="name" v="Stranda" />
		<tag k="name:no" v="Stranda" />
		<tag k="place" v="farm" />
		<tag k="ssr:stedsnr" v="684642" />
	</node>
	<node id="-210349" lat="68.0787833301" lon="16.1011305439">
		<tag k="name" v="Strumpvika" />
		<tag k="name:no" v="Strumpvika" />
		<tag k="place" v="farm" />
		<tag k="ssr:stedsnr" v="684626" />
	</node>
	<node id="-212394" lat="68.0852222203" lon="15.885427772">
		<tag k="name" v="Skarvold" />
		<tag k="name:no" v="Skarvold" />
		<tag k="place" v="farm" />
		<tag k="ssr:stedsnr" v="534338" />
	</node>
	<node id="-212389" lat="68.0564833333" lon="15.6030999888">
		<tag k="name" v="Mellomgarden" />
		<tag k="name:no" v="Mellomgarden" />
		<tag k="place" v="farm" />
		<tag k="ssr:stedsnr" v="534290" />
	</node>
	<node id="-212388" lat="68.0585722203" lon="15.6067222103">
		<tag k="name" v="Nordmark" />
		<tag k="name:no" v="Nordmark" />
		<tag k="place" v="farm" />
		<tag k="ssr:stedsnr" v="534278" />
	</node>
	<node id="-210336" lat="68.0496083324" lon="16.0576416571">
		<tag k="name" v="Drag" />
		<tag k="name:no" v="Drag" />
		<tag k="place" v="farm" />
		<tag k="ssr:stedsnr" v="684593" />
	</node>
	<node id="-212374" lat="68.104822222" lon="15.5146583236">
		<tag k="name" v="Elvegård" />
		<tag k="name:no" v="Elvegård" />
		<tag k="place" v="farm" />
		<tag k="ssr:stedsnr" v="533290" />
	</node>
	<node id="-210322" lat="68.0107388878" lon="16.3390944548">
		<tag k="alt_name:no" v="Kjerrvika" />
		<tag k="name" v="Slihppe - Kjerr" />
		<tag k="name:no" v="Kjerr" />
		<tag k="name:smj" v="Slihppe" />
		<tag k="place" v="hamlet" />
		<tag k="ssr:stedsnr" v="684730" />
	</node>
	<node id="-212353" lat="68.0364361103" lon="15.8747444326">
		<tag k="alt_name:no" v="Kløtter" />
		<tag k="name" v="Kløtran" />
		<tag k="name:no" v="Kløtran" />
		<tag k="place" v="locality" />
		<tag k="ssr:stedsnr" v="521181" />
	</node>
	<node id="-212350" lat="68.0446722219" lon="15.4154111118">
		<tag k="alt_name:no" v="Sletten" />
		<tag k="name" v="Sletta" />
		<tag k="name:no" v="Sletta" />
		<tag k="place" v="farm" />
		<tag k="ssr:stedsnr" v="520047" />
	</node>
	<node id="-212349" lat="68.0455944473" lon="15.4081138886">
		<tag k="alt_name:no" v="Nordre Finset" />
		<tag k="name" v="Nordre Finnset" />
		<tag k="name:no" v="Nordre Finnset" />
		<tag k="place" v="farm" />
		<tag k="ssr:stedsnr" v="520045" />
	</node>
	<node id="-212345" lat="68.0644472231" lon="15.9466472315">
		<tag k="name" v="Vang" />
		<tag k="name:no" v="Vang" />
		<tag k="place" v="farm" />
		<tag k="ssr:stedsnr" v="524932" />
	</node>
	<node id="-212342" lat="68.0435944415" lon="16.3051388843">
		<tag k="name" v="Vesterlid" />
		<tag k="name:no" v="Vesterlid" />
		<tag k="place" v="isolated_dwelling" />
		<tag k="ssr:stedsnr" v="524192" />
	</node>
	<node id="-212340" lat="67.9903472248" lon="15.6500722322">
		<tag k="name" v="Stormyrvik" />
		<tag k="name:no" v="Stormyrvik" />
		<tag k="place" v="locality" />
		<tag k="ssr:stedsnr" v="521452" />
	</node>
	<node id="-210291" lat="68.0912175111" lon="15.5562029264">
		<tag k="alt_name:no" v="Gurdal;Guradal" />
		<tag k="fixme" v="consider place=hamlet" />
		<tag k="name" v="Guradalen" />
		<tag k="name:no" v="Guradalen" />
		<tag k="place" v="farm" />
		<tag k="ssr:stedsnr" v="684047" />
	</node>
	<node id="-210290" lat="68.0915777823" lon="15.5719222187">
		<tag k="alt_name:no" v="Langvollen" />
		<tag k="name" v="Langvoll" />
		<tag k="name:no" v="Langvoll" />
		<tag k="place" v="isolated_dwelling" />
		<tag k="ssr:stedsnr" v="684046" />
	</node>
	<node id="-212331" lat="68.1537138861" lon="15.6586194376">
		<tag k="name" v="Leite" />
		<tag k="name:no" v="Leite" />
		<tag k="place" v="isolated_dwelling" />
		<tag k="ssr:stedsnr" v="413695" />
	</node>
	<node id="-210282" lat="68.1086611076" lon="15.5103444321">
		<tag k="name" v="Nålnes" />
		<tag k="name:no" v="Nålnes" />
		<tag k="place" v="farm" />
		<tag k="ssr:stedsnr" v="684026" />
	</node>
	<node id="-210281" lat="68.1072344675" lon="15.5860329022">
		<tag k="alt_name:no" v="Kulveslett" />
		<tag k="fixme" v="consider place=hamlet" />
		<tag k="name" v="Kulverslett" />
		<tag k="name:no" v="Kulverslett" />
		<tag k="place" v="farm" />
		<tag k="ssr:stedsnr" v="684022" />
	</node>
	<node id="-212323" lat="68.0875111075" lon="15.8635083339">
		<tag k="name" v="Fredheim" />
		<tag k="name:no" v="Fredheim" />
		<tag k="place" v="farm" />
		<tag k="ssr:stedsnr" v="413954" />
	</node>
	<node id="-212316" lat="68.0021583304" lon="15.501352788">
		<tag k="name" v="Bringa" />
		<tag k="name:no" v="Bringa" />
		<tag k="place" v="farm" />
		<tag k="ssr:stedsnr" v="413613" />
	</node>
	<node id="-210266" lat="67.9970499986" lon="15.9547388999">
		<tag k="name" v="Sommarset" />
		<tag k="name:no" v="Sommarset" />
		<tag k="place" v="farm" />
		<tag k="ssr:stedsnr" v="502671" />
	</node>
	<node id="-210257" lat="68.1468333353" lon="15.8984055476">
		<tag k="name" v="Formo" />
		<tag k="name:no" v="Formo" />
		<tag k="place" v="isolated_dwelling" />
		<tag k="ssr:stedsnr" v="502751" />
	</node>
	<node id="-210256" lat="68.1538548078" lon="15.6664618459">
		<tag k="fixme" v="consider place=hamlet" />
		<tag k="name" v="Helland" />
		<tag k="name:no" v="Helland" />
		<tag k="place" v="farm" />
		<tag k="ssr:stedsnr" v="502744" />
	</node>
	<node id="-212296" lat="68.0047080001" lon="15.490605847">
		<tag k="name" v="Nordsjyen" />
		<tag k="name:no" v="Nordsjyen" />
		<tag k="place" v="locality" />
		<tag k="ssr:stedsnr" v="413598" />
	</node>
	<node id="-212278" lat="68.0469249977" lon="15.4207555439">
		<tag k="name" v="Bjørkheim" />
		<tag k="name:no" v="Bjørkheim" />
		<tag k="place" v="farm" />
		<tag k="ssr:stedsnr" v="413238" />
	</node>
	<node id="-212277" lat="68.0482361087" lon="15.4237861124">
		<tag k="name" v="Øldran" />
		<tag k="name:no" v="Øldran" />
		<tag k="place" v="farm" />
		<tag k="ssr:stedsnr" v="413236" />
	</node>
	<node id="-210216" lat="67.8104999974" lon="15.9893083393">
		<tag k="name" v="Skogly" />
		<tag k="name:no" v="Skogly" />
		<tag k="place" v="farm" />
		<tag k="ssr:stedsnr" v="473512" />
	</node>
	<node id="-212247" lat="68.1859007015" lon="16.1018913169">
		<tag k="name" v="Nedre Kaldvik" />
		<tag k="name:no" v="Nedre Kaldvik" />
		<tag k="place" v="farm" />
		<tag k="ssr:stedsnr" v="400199" />
	</node>
	<node id="-210191" lat="68.0872833348" lon="15.8734083445">
		<tag k="name" v="Gamhaugan" />
		<tag k="name:no" v="Gamhaugan" />
		<tag k="place" v="farm" />
		<tag k="ssr:stedsnr" v="655955" />
	</node>
	<node id="-212235" lat="68.0841444487" lon="15.6050305596">
		<tag k="name" v="Teigen" />
		<tag k="name:no" v="Teigen" />
		<tag k="place" v="isolated_dwelling" />
		<tag k="ssr:stedsnr" v="399478" />
	</node>
	<node id="-212225" lat="68.0403722194" lon="16.0811361146">
		<tag k="amenity" v="school" />
		<tag k="name" v="Drag skole" />
		<tag k="name:no" v="Drag skole" />
		<tag k="ssr:stedsnr" v="385680" />
	</node>
	<node id="-210169" lat="68.2507694417" lon="16.0559055655">
		<tag k="name" v="Vika" />
		<tag k="name:no" v="Vika" />
		<tag k="place" v="farm" />
		<tag k="ssr:stedsnr" v="510238" />
	</node>
	<node id="-210168" lat="68.251780551" lon="16.0576944532">
		<tag k="name" v="Moa" />
		<tag k="name:no" v="Moa" />
		<tag k="place" v="farm" />
		<tag k="ssr:stedsnr" v="510236" />
	</node>
	<node id="-212194" lat="67.9840171568" lon="15.890253941">
		<tag k="alt_name:no" v="Rødtangen" />
		<tag k="fixme" v="consider place=hamlet" />
		<tag k="name" v="Røttangan" />
		<tag k="name:no" v="Røttangan" />
		<tag k="place" v="farm" />
		<tag k="ssr:stedsnr" v="381688" />
	</node>
	<node id="-212191" lat="67.9571773885" lon="15.81040281">
		<tag k="fixme" v="multiple name tags, choose one and add the other to alt_name; consider place=hamlet" />
		<tag k="name" v="Fornesveggen;Veggen" />
		<tag k="name:no" v="Fornesveggen;Veggen" />
		<tag k="place" v="farm" />
		<tag k="ssr:stedsnr" v="381668" />
	</node>
	<node id="-212182" lat="68.1728138892" lon="15.6621666667">
		<tag k="name" v="Myrvoll" />
		<tag k="name:no" v="Myrvoll" />
		<tag k="place" v="farm" />
		<tag k="ssr:stedsnr" v="381803" />
	</node>
	<node id="-210133" lat="67.9044250003" lon="16.1966555471">
		<tag k="name" v="Vuolle-Smájlle" />
		<tag k="name:smj" v="Vuolle-Smájlle" />
		<tag k="place" v="hamlet" />
		<tag k="ssr:stedsnr" v="385614" />
	</node>
	<node id="-212180" lat="68.1617437759" lon="15.6310602909">
		<tag k="fixme" v="consider place=hamlet" />
		<tag k="name" v="Skogvoll" />
		<tag k="name:no" v="Skogvoll" />
		<tag k="place" v="farm" />
		<tag k="ssr:stedsnr" v="381788" />
	</node>
	<node id="-210129" lat="68.0886732821" lon="15.5826343024">
		<tag k="fixme" v="multiple name tags, choose one and add the other to alt_name; consider place=hamlet" />
		<tag k="name" v="Gjelseng;Hjelsenga" />
		<tag k="name:no" v="Gjelseng;Hjelsenga" />
		<tag k="place" v="farm" />
		<tag k="ssr:stedsnr" v="502997" />
	</node>
	<node id="-212174" lat="68.1474583357" lon="16.1174694466">
		<tag k="name" v="Tjukkskogen" />
		<tag k="name:no" v="Tjukkskogen" />
		<tag k="place" v="locality" />
		<tag k="ssr:stedsnr" v="381723" />
	</node>
	<node id="-212172" lat="68.0350999996" lon="16.1034611122">
		<tag k="name" v="Skogly" />
		<tag k="name:no" v="Skogly" />
		<tag k="place" v="farm" />
		<tag k="ssr:stedsnr" v="381575" />
	</node>
	<node id="-212170" lat="68.0008749994" lon="15.7654916761">
		<tag k="fixme" v="consider place=hamlet" />
		<tag k="name" v="Karlsøy" />
		<tag k="name:no" v="Karlsøy" />
		<tag k="place" v="farm" />
		<tag k="ssr:stedsnr" v="381541" />
	</node>
	<node id="-210117" lat="68.0594146589" lon="15.4247746897">
		<tag k="alt_name:no" v="Langbakken" />
		<tag k="name" v="Langbakkan" />
		<tag k="name:no" v="Langbakkan" />
		<tag k="place" v="farm" />
		<tag k="ssr:stedsnr" v="502950" />
	</node>
	<node id="-210115" lat="68.0501460987" lon="15.4279025184">
		<tag k="alt_name:no" v="Røsvik" />
		<tag k="fixme" v="consider place=hamlet" />
		<tag k="name" v="Røssvika" />
		<tag k="name:no" v="Røssvika" />
		<tag k="place" v="farm" />
		<tag k="ssr:stedsnr" v="502937" />
	</node>
	<node id="-212157" lat="67.7926250001" lon="16.0878805576">
		<tag k="name" v="Bannetlægeret" />
		<tag k="name:no" v="Bannetlægeret" />
		<tag k="place" v="locality" />
		<tag k="ssr:stedsnr" v="381299" />
	</node>
	<node id="-212149" lat="68.1245134354" lon="15.4191608071">
		<tag k="alt_name:no" v="Bjørnvåg" />
		<tag k="fixme" v="consider place=hamlet" />
		<tag k="name" v="Bjørnvågen" />
		<tag k="name:no" v="Bjørnvågen" />
		<tag k="place" v="farm" />
		<tag k="ssr:stedsnr" v="381004" />
	</node>
	<node id="-212148" lat="68.0875527754" lon="15.567866676">
		<tag k="fixme" v="multiple name tags, choose one and add the other to alt_name" />
		<tag k="name" v="Reset;Vesterli" />
		<tag k="name:no" v="Reset;Vesterli" />
		<tag k="place" v="farm" />
		<tag k="ssr:stedsnr" v="380992" />
	</node>
	<node id="-212146" lat="68.0716433732" lon="15.3456064937">
		<tag k="fixme" v="consider place=hamlet" />
		<tag k="name" v="Sørdal" />
		<tag k="name:no" v="Sørdal" />
		<tag k="place" v="farm" />
		<tag k="ssr:stedsnr" v="380985" />
	</node>
	<node id="-212145" lat="68.0731796835" lon="15.4043160362">
		<tag k="alt_name:no" v="Frulia" />
		<tag k="fixme" v="consider place=hamlet" />
		<tag k="name" v="Fruli" />
		<tag k="name:no" v="Fruli" />
		<tag k="place" v="farm" />
		<tag k="ssr:stedsnr" v="380980" />
	</node>
	<node id="-210092" lat="67.9860279163" lon="15.4720379777">
		<tag k="fixme" v="consider place=hamlet" />
		<tag k="name" v="Husøya" />
		<tag k="name:no" v="Husøya" />
		<tag k="place" v="farm" />
		<tag k="ssr:stedsnr" v="502627" />
	</node>
	<node id="-212133" lat="68.0523999985" lon="16.3181527821">
		<tag k="name" v="Furuheim" />
		<tag k="name:no" v="Furuheim" />
		<tag k="place" v="farm" />
		<tag k="ssr:stedsnr" v="380544" />
	</node>
	<node id="-210081" lat="68.0445944484" lon="16.079638899">
		<tag k="name" v="Ájluokta - Drag" />
		<tag k="name:no" v="Drag" />
		<tag k="name:smj" v="Ájluokta" />
		<tag k="place" v="village" />
		<tag k="ssr:stedsnr" v="502559" />
	</node>
	<node id="-212127" lat="67.9754777792" lon="16.5399055565">
		<tag k="name" v="Spællábahta - Mannfjorden" />
		<tag k="name:no" v="Mannfjorden" />
		<tag k="name:smj" v="Spællábahta" />
		<tag k="place" v="farm" />
		<tag k="ssr:stedsnr" v="380293" />
	</node>
	<node id="-213189" lat="68.1935194462" lon="16.0555055573">
		<tag k="name" v="Fortun" />
		<tag k="name:no" v="Fortun" />
		<tag k="place" v="isolated_dwelling" />
		<tag k="ssr:stedsnr" v="810655" />
	</node>
	<node id="-212122" lat="67.9311944464" lon="16.4109194449">
		<tag k="name" v="Davve-Bælgga - Ytter-Bælka" />
		<tag k="name:no" v="Ytter-Bælka" />
		<tag k="name:smj" v="Davve-Bælgga" />
		<tag k="place" v="locality" />
		<tag k="ssr:stedsnr" v="381343" />
	</node>
	<node id="-210073" lat="68.1644138882" lon="15.6550000029">
		<tag k="name" v="Varhaug" />
		<tag k="name:no" v="Varhaug" />
		<tag k="place" v="farm" />
		<tag k="ssr:stedsnr" v="502773" />
	</node>
	<node id="-210072" lat="68.1619166649" lon="15.6337472282">
		<tag k="name" v="Fredheim" />
		<tag k="name:no" v="Fredheim" />
		<tag k="place" v="farm" />
		<tag k="ssr:stedsnr" v="502772" />
	</node>
	<node id="-210071" lat="68.1480527757" lon="15.8925277854">
		<tag k="name" v="Skoglund" />
		<tag k="name:no" v="Skoglund" />
		<tag k="place" v="farm" />
		<tag k="ssr:stedsnr" v="502760" />
	</node>
	<node id="-212117" lat="67.9170111122" lon="16.4679666645">
		<tag k="name" v="Utsvuodna - Grunnfjordbotn" />
		<tag k="name:no" v="Grunnfjordbotn" />
		<tag k="name:smj" v="Utsvuodna" />
		<tag k="place" v="farm" />
		<tag k="ssr:stedsnr" v="381334" />
	</node>
	<node id="-212112" lat="68.0478978323" lon="15.4500386732">
		<tag k="fixme" v="consider place=hamlet" />
		<tag k="name" v="Haugen" />
		<tag k="name:no" v="Haugen" />
		<tag k="place" v="farm" />
		<tag k="ssr:stedsnr" v="380922" />
	</node>
	<node id="-212111" lat="68.0405311772" lon="15.3943101686">
		<tag k="fixme" v="consider place=hamlet" />
		<tag k="name" v="Nordvåg" />
		<tag k="name:no" v="Nordvåg" />
		<tag k="place" v="farm" />
		<tag k="ssr:stedsnr" v="380913" />
	</node>
	<node id="-210054" lat="68.044563892" lon="16.2901499904">
		<tag k="name" v="Såma" />
		<tag k="name:no" v="Såma" />
		<tag k="place" v="isolated_dwelling" />
		<tag k="ssr:stedsnr" v="502516" />
	</node>
	<node id="-210050" lat="67.8515611112" lon="15.9612805497">
		<tag k="name" v="Sørsandøyra" />
		<tag k="name:no" v="Sørsandøyra" />
		<tag k="place" v="farm" />
		<tag k="ssr:stedsnr" v="502464" />
	</node>
	<node id="-210763" lat="68.0060694404" lon="15.41181389">
		<tag k="name" v="Karlsberg" />
		<tag k="name:no" v="Karlsberg" />
		<tag k="place" v="farm" />
		<tag k="ssr:stedsnr" v="745860" />
	</node>
	<node id="-210036" lat="68.0895124805" lon="15.4093871923">
		<tag k="alt_name:no" v="Kopparstraumen" />
		<tag k="name" v="Kobbestraumen" />
		<tag k="name:no" v="Kobbestraumen" />
		<tag k="place" v="locality" />
		<tag k="ssr:stedsnr" v="502044" />
	</node>
	<node id="-212082" lat="68.251994759" lon="16.0566925809">
		<tag k="fixme" v="consider place=suburb, village or hamlet" />
		<tag k="name" v="Hierenjárgga - Korsnes" />
		<tag k="name:no" v="Korsnes" />
		<tag k="name:smj" v="Hierenjárgga" />
		<tag k="place" v="quarter" />
		<tag k="ssr:stedsnr" v="356737" />
	</node>
	<node id="-210109" lat="68.002622219" lon="15.4210055576">
		<tag k="name" v="Nesberg" />
		<tag k="name:no" v="Nesberg" />
		<tag k="place" v="farm" />
		<tag k="ssr:stedsnr" v="502845" />
	</node>
	<node id="-209931" lat="68.087361112" lon="15.5886527675">
		<tag k="name" v="Brubrekka" />
		<tag k="name:no" v="Brubrekka" />
		<tag k="place" v="isolated_dwelling" />
		<tag k="ssr:stedsnr" v="473024" />
	</node>
	<node id="-210012" lat="68.0162833332" lon="16.2017277718">
		<tag k="name" v="Hestnes" />
		<tag k="name:no" v="Hestnes" />
		<tag k="place" v="isolated_dwelling" />
		<tag k="ssr:stedsnr" v="346903" />
	</node>
	<node id="-210009" lat="68.1363997904" lon="15.6246770188">
		<tag k="loc_name:no" v="Rossvoll" />
		<tag k="name" v="Rosvoll" />
		<tag k="name:no" v="Rosvoll" />
		<tag k="place" v="farm" />
		<tag k="ssr:stedsnr" v="484192" />
	</node>
	<node id="-209996" lat="67.8710484649" lon="15.8421034941">
		<tag k="fixme" v="consider place=hamlet" />
		<tag k="name" v="Rota" />
		<tag k="name:no" v="Rota" />
		<tag k="place" v="farm" />
		<tag k="ssr:stedsnr" v="320408" />
	</node>
	<node id="-209989" lat="68.0887805592" lon="15.8644833238">
		<tag k="name" v="Fjellstad" />
		<tag k="name:no" v="Fjellstad" />
		<tag k="place" v="farm" />
		<tag k="ssr:stedsnr" v="473950" />
	</node>
	<node id="-210079" lat="68.0692999962" lon="16.3215416685">
		<tag k="name" v="Vássjá" />
		<tag k="name:smj" v="Vássjá" />
		<tag k="old_name:smj" v="Vášša" />
		<tag k="place" v="isolated_dwelling" />
		<tag k="ssr:stedsnr" v="502550" />
	</node>
	<node id="-212027" lat="68.0791722217" lon="15.9109583368">
		<tag k="name" v="Nyheim" />
		<tag k="name:no" v="Nyheim" />
		<tag k="place" v="farm" />
		<tag k="ssr:stedsnr" v="352336" />
	</node>
	<node id="-209977" lat="67.9982472231" lon="15.518566662">
		<tag k="name" v="Bjørklund" />
		<tag k="name:no" v="Bjørklund" />
		<tag k="place" v="farm" />
		<tag k="ssr:stedsnr" v="473686" />
	</node>
	<node id="-209975" lat="68.1542749958" lon="15.6386777835">
		<tag k="name" v="Sørvoll" />
		<tag k="name:no" v="Sørvoll" />
		<tag k="place" v="farm" />
		<tag k="ssr:stedsnr" v="473644" />
	</node>
	<node id="-209972" lat="68.1311222246" lon="15.7110333438">
		<tag k="name" v="Elveland" />
		<tag k="name:no" v="Elveland" />
		<tag k="place" v="farm" />
		<tag k="ssr:stedsnr" v="473562" />
	</node>
	<node id="-213420" lat="68.1068916633" lon="15.5175388923">
		<tag k="name" v="Nordåsen" />
		<tag k="name:no" v="Nordåsen" />
		<tag k="place" v="farm" />
		<tag k="ssr:stedsnr" v="958301" />
	</node>
	<node id="-209965" lat="68.1085277786" lon="15.5893583295">
		<tag k="name" v="Nerkulen" />
		<tag k="name:no" v="Nerkulen" />
		<tag k="place" v="farm" />
		<tag k="ssr:stedsnr" v="473403" />
	</node>
	<node id="-210098" lat="68.0949722197" lon="15.7309083302">
		<tag k="name" v="Nordheim" />
		<tag k="name:no" v="Nordheim" />
		<tag k="place" v="farm" />
		<tag k="ssr:stedsnr" v="502640" />
	</node>
	<node id="-209960" lat="68.0662194425" lon="15.8178083251">
		<tag k="name" v="Glennbua" />
		<tag k="name:no" v="Glennbua" />
		<tag k="place" v="isolated_dwelling" />
		<tag k="ssr:stedsnr" v="473289" />
	</node>
	<node id="-212001" lat="67.8062666663" lon="15.9792499881">
		<tag k="name" v="Høgda" />
		<tag k="name:no" v="Høgda" />
		<tag k="place" v="farm" />
		<tag k="ssr:stedsnr" v="351489" />
	</node>
	<node id="-212000" lat="68.1111472227" lon="15.5054611061">
		<tag k="name" v="Heim" />
		<tag k="name:no" v="Heim" />
		<tag k="place" v="farm" />
		<tag k="ssr:stedsnr" v="351457" />
	</node>
	<node id="-211999" lat="68.1024750001" lon="15.5225333358">
		<tag k="name" v="Nyheim" />
		<tag k="name:no" v="Nyheim" />
		<tag k="place" v="farm" />
		<tag k="ssr:stedsnr" v="351452" />
	</node>
	<node id="-213509" lat="68.0857964829" lon="15.611770835">
		<tag k="name" v="Oppeid" />
		<tag k="name:no" v="Oppeid" />
		<tag k="place" v="hamlet" />
		<tag k="ssr:stedsnr" v="990143" />
	</node>
	<node id="-209946" lat="68.0473222237" lon="15.4300527738">
		<tag k="name" v="Solstad" />
		<tag k="name:no" v="Solstad" />
		<tag k="place" v="farm" />
		<tag k="ssr:stedsnr" v="473198" />
	</node>
	<node id="-211988" lat="68.0357444424" lon="16.1008555434">
		<tag k="name" v="Moa" />
		<tag k="name:no" v="Moa" />
		<tag k="place" v="farm" />
		<tag k="ssr:stedsnr" v="340875" />
	</node>
	<node id="-213507" lat="68.0871125441" lon="15.5850863911">
		<tag k="name" v="Hjelseng" />
		<tag k="name:no" v="Hjelseng" />
		<tag k="place" v="farm" />
		<tag k="ssr:stedsnr" v="990139" />
	</node>
	<node id="-211981" lat="68.0440166689" lon="15.9674805638">
		<tag k="name" v="Kvannlia" />
		<tag k="name:no" v="Kvannlia" />
		<tag k="place" v="farm" />
		<tag k="ssr:stedsnr" v="324755" />
	</node>
	<node id="-211979" lat="68.0092916665" lon="16.3398972139">
		<tag k="name" v="Osen" />
		<tag k="name:no" v="Osen" />
		<tag k="place" v="farm" />
		<tag k="ssr:stedsnr" v="325895" />
	</node>
	<node id="-211978" lat="68.0109111102" lon="16.3337583241">
		<tag k="name" v="Berg" />
		<tag k="name:no" v="Berg" />
		<tag k="place" v="farm" />
		<tag k="ssr:stedsnr" v="325887" />
	</node>
	<node id="-211976" lat="68.1363999978" lon="16.1171777668">
		<tag k="name" v="Nergården" />
		<tag k="name:no" v="Nergården" />
		<tag k="place" v="farm" />
		<tag k="ssr:stedsnr" v="325874" />
	</node>
	<node id="-209924" lat="68.1130749999" lon="15.4990472163">
		<tag k="name" v="Ura" />
		<tag k="name:no" v="Ura" />
		<tag k="place" v="farm" />
		<tag k="ssr:stedsnr" v="472426" />
	</node>
	<node id="-209914" lat="68.1108083346" lon="15.4885138779">
		<tag k="name" v="Fjelli" />
		<tag k="name:no" v="Fjelli" />
		<tag k="place" v="farm" />
		<tag k="ssr:stedsnr" v="290406" />
	</node>
	<node id="-213503" lat="68.1807713703" lon="16.1047736685">
		<tag k="name" v="Kaldvik øvre" />
		<tag k="name:no" v="Kaldvik øvre" />
		<tag k="place" v="farm" />
		<tag k="ssr:stedsnr" v="981933" />
	</node>
	<node id="-211960" lat="67.9926194475" lon="15.6029027834">
		<tag k="name" v="Nygårdvoll" />
		<tag k="name:no" v="Nygårdvoll" />
		<tag k="place" v="farm" />
		<tag k="ssr:stedsnr" v="320906" />
	</node>
	<node id="-211959" lat="67.9948333343" lon="15.5647249923">
		<tag k="name" v="Teinvollen" />
		<tag k="name:no" v="Teinvollen" />
		<tag k="place" v="farm" />
		<tag k="ssr:stedsnr" v="320905" />
	</node>
	<node id="-209910" lat="68.078422223" lon="15.4880610995">
		<tag k="name" v="Dalland" />
		<tag k="name:no" v="Dalland" />
		<tag k="place" v="farm" />
		<tag k="ssr:stedsnr" v="460986" />
	</node>
	<node id="-213501" lat="68.187141819" lon="16.1044908503">
		<tag k="fixme" v="consider place=hamlet" />
		<tag k="name" v="Nedre Kalvik" />
		<tag k="name:no" v="Nedre Kalvik" />
		<tag k="place" v="farm" />
		<tag k="ssr:stedsnr" v="981932" />
	</node>
	<node id="-209900" lat="68.0441212363" lon="15.7400048915">
		<tag k="alt_name:no" v="Kallvåg" />
		<tag k="loc_name:smj" v="Gálldaváhke" />
		<tag k="name" v="Kaldvågen" />
		<tag k="name:no" v="Kaldvågen" />
		<tag k="place" v="hamlet" />
		<tag k="ssr:stedsnr" v="278640" />
	</node>
	<node id="-209899" lat="68.004386115" lon="15.7017388965">
		<tag k="name" v="Litlneset" />
		<tag k="name:no" v="Litlneset" />
		<tag k="place" v="farm" />
		<tag k="ssr:stedsnr" v="278618" />
	</node>
	<node id="-209898" lat="68.1507083327" lon="15.8882944423">
		<tag k="name" v="Kvalvik" />
		<tag k="name:no" v="Kvalvik" />
		<tag k="place" v="farm" />
		<tag k="ssr:stedsnr" v="278611" />
	</node>
	<node id="-211945" lat="68.0696777788" lon="15.8639499931">
		<tag k="name" v="Tverråsen" />
		<tag k="name:no" v="Tverråsen" />
		<tag k="place" v="farm" />
		<tag k="ssr:stedsnr" v="320624" />
	</node>
	<node id="-211944" lat="67.9722388898" lon="16.217224995">
		<tag k="loc_name:smj" v="Svenjunnjá" />
		<tag k="name" v="Svienjunnjá - Pålsommarset" />
		<tag k="name:no" v="Pålsommarset" />
		<tag k="name:smj" v="Svienjunnjá" />
		<tag k="old_name:smj" v="Svenjunnja" />
		<tag k="place" v="farm" />
		<tag k="ssr:stedsnr" v="320622" />
	</node>
	<node id="-209889" lat="68.1579962487" lon="15.8177660556">
		<tag k="fixme" v="consider place=hamlet" />
		<tag k="name" v="Tannøya" />
		<tag k="name:no" v="Tannøya" />
		<tag k="place" v="farm" />
		<tag k="ssr:stedsnr" v="259717" />
	</node>
	<node id="-209879" lat="68.0547611096" lon="16.3189111143">
		<tag k="name" v="Strand" />
		<tag k="name:no" v="Strand" />
		<tag k="place" v="isolated_dwelling" />
		<tag k="ssr:stedsnr" v="450600" />
	</node>
	<node id="-209878" lat="67.9639611071" lon="16.3597361025">
		<tag k="name" v="Lønes" />
		<tag k="name:no" v="Lønes" />
		<tag k="place" v="farm" />
		<tag k="ssr:stedsnr" v="446900" />
	</node>
	<node id="-211925" lat="67.9504194471" lon="16.4551333289">
		<tag k="name" v="Vuohpenjárgga - Nes" />
		<tag k="name:no" v="Nes" />
		<tag k="name:smj" v="Vuohpenjárgga" />
		<tag k="place" v="isolated_dwelling" />
		<tag k="ssr:stedsnr" v="320344" />
	</node>
	<node id="-211922" lat="67.9835388875" lon="16.2875444516">
		<tag k="name" v="Ibboluokta - Tømmervika" />
		<tag k="name:no" v="Tømmervika" />
		<tag k="name:smj" v="Ibboluokta" />
		<tag k="place" v="farm" />
		<tag k="ssr:stedsnr" v="320297" />
	</node>
	<node id="-209858" lat="68.0480666691" lon="15.410808334">
		<tag k="name" v="Åsheim" />
		<tag k="name:no" v="Åsheim" />
		<tag k="place" v="farm" />
		<tag k="ssr:stedsnr" v="231257" />
	</node>
	<node id="-211905" lat="68.0613388853" lon="16.6532611049">
		<tag k="name" v="Dalhaug" />
		<tag k="name:no" v="Dalhaug" />
		<tag k="place" v="farm" />
		<tag k="ssr:stedsnr" v="325759" />
	</node>
	<node id="-211902" lat="68.0631666675" lon="16.6520444529">
		<tag k="name" v="Hågen" />
		<tag k="name:no" v="Hågen" />
		<tag k="place" v="farm" />
		<tag k="ssr:stedsnr" v="325738" />
	</node>
	<node id="-209851" lat="68.0464000027" lon="15.7182277842">
		<tag k="name" v="Lysjord" />
		<tag k="name:no" v="Lysjord" />
		<tag k="place" v="farm" />
		<tag k="ssr:stedsnr" v="231152" />
	</node>
	<node id="-209849" lat="68.0870527763" lon="15.8767305522">
		<tag k="name" v="Vestre Skilvassbakk" />
		<tag k="name:no" v="Vestre Skilvassbakk" />
		<tag k="place" v="farm" />
		<tag k="ssr:stedsnr" v="230961" />
	</node>
	<node id="-211888" lat="68.0342277756" lon="16.0092305506">
		<tag k="name" v="Forra" />
		<tag k="name:no" v="Forra" />
		<tag k="place" v="farm" />
		<tag k="ssr:stedsnr" v="324807" />
	</node>
	<node id="-211884" lat="68.081580557" lon="15.4501777831">
		<tag k="alt_name:no" v="Pålan, øvre" />
		<tag k="name" v="Øvre Pålan" />
		<tag k="name:no" v="Øvre Pålan" />
		<tag k="place" v="locality" />
		<tag k="ssr:stedsnr" v="321000" />
	</node>
	<node id="-209834" lat="68.0810500014" lon="15.4901055646">
		<tag k="name" v="Høgtun" />
		<tag k="name:no" v="Høgtun" />
		<tag k="place" v="farm" />
		<tag k="ssr:stedsnr" v="230214" />
	</node>
	<node id="-211869" lat="68.1945694482" lon="16.0288305605">
		<tag k="name" v="Skogvoll" />
		<tag k="name:no" v="Skogvoll" />
		<tag k="place" v="farm" />
		<tag k="ssr:stedsnr" v="320822" />
	</node>
	<node id="-209819" lat="68.0092749967" lon="15.4142416665">
		<tag k="name" v="Moa" />
		<tag k="name:no" v="Moa" />
		<tag k="place" v="farm" />
		<tag k="ssr:stedsnr" v="442894" />
	</node>
	<node id="-211866" lat="68.1732333301" lon="15.6662861047">
		<tag k="name" v="Nordvoll" />
		<tag k="name:no" v="Nordvoll" />
		<tag k="place" v="isolated_dwelling" />
		<tag k="ssr:stedsnr" v="320783" />
	</node>
	<node id="-211865" lat="68.1784194473" lon="16.0374361182">
		<tag k="name" v="Nerbotn" />
		<tag k="name:no" v="Nerbotn" />
		<tag k="place" v="farm" />
		<tag k="ssr:stedsnr" v="320779" />
	</node>
	<node id="-211863" lat="68.1597666649" lon="15.9116777875">
		<tag k="name" v="Vangen" />
		<tag k="name:no" v="Vangen" />
		<tag k="place" v="farm" />
		<tag k="ssr:stedsnr" v="320769" />
	</node>
	<node id="-211859" lat="68.1415250006" lon="15.9284055447">
		<tag k="name" v="Åsheim" />
		<tag k="name:no" v="Åsheim" />
		<tag k="place" v="locality" />
		<tag k="ssr:stedsnr" v="320742" />
	</node>
	<node id="-211858" lat="68.1560024669" lon="15.6324228904">
		<tag k="alt_name:no" v="Nokkvik" />
		<tag k="fixme" v="consider place=hamlet" />
		<tag k="name" v="Nokkvika" />
		<tag k="name:no" v="Nokkvika" />
		<tag k="place" v="farm" />
		<tag k="ssr:stedsnr" v="320738" />
	</node>
	<node id="-209806" lat="68.1223805583" lon="16.1062805444">
		<tag k="name" v="Biesseluokta - Nevervika" />
		<tag k="name:no" v="Nevervika" />
		<tag k="name:smj" v="Biesseluokta" />
		<tag k="place" v="hamlet" />
		<tag k="ssr:stedsnr" v="442736" />
	</node>
	<node id="-212802" lat="68.0664472181" lon="15.4856027834">
		<tag k="name" v="Skogan" />
		<tag k="name:no" v="Skogan" />
		<tag k="place" v="farm" />
		<tag k="ssr:stedsnr" v="623959" />
	</node>
	<node id="-211847" lat="68.1117583381" lon="16.0326777673">
		<tag k="name" v="Kvannkjosen" />
		<tag k="name:no" v="Kvannkjosen" />
		<tag k="place" v="locality" />
		<tag k="ssr:stedsnr" v="320669" />
	</node>
	<node id="-209798" lat="68.1114055539" lon="15.8522027795">
		<tag k="name" v="Grimstad" />
		<tag k="name:no" v="Grimstad" />
		<tag k="place" v="farm" />
		<tag k="ssr:stedsnr" v="442674" />
	</node>
	<node id="-209797" lat="68.1108999978" lon="15.6447833244">
		<tag k="alt_name:no" v="Litl Tømmerås;Tømmerås" />
		<tag k="name" v="Lille Tømmerås" />
		<tag k="name:no" v="Lille Tømmerås" />
		<tag k="place" v="farm" />
		<tag k="ssr:stedsnr" v="442669" />
	</node>
	<node id="-210069" lat="67.8587612684" lon="15.9781571836">
		<tag k="fixme" v="consider place=hamlet" />
		<tag k="name" v="Sáttonjárgga - Sandnes" />
		<tag k="name:no" v="Sandnes" />
		<tag k="name:smj" v="Sáttonjárgga" />
		<tag k="old_name:smj" v="Sáttonjárga" />
		<tag k="place" v="farm" />
		<tag k="ssr:stedsnr" v="502443" />
	</node>
	<node id="-213139" lat="68.0640166711" lon="16.6502611029">
		<tag k="name" v="Nygård" />
		<tag k="name:no" v="Nygård" />
		<tag k="place" v="farm" />
		<tag k="ssr:stedsnr" v="810785" />
	</node>
	<node id="-211820" lat="67.8989083375" lon="15.8594083275">
		<tag k="loc_name:smj" v="Vuohppe" />
		<tag k="name" v="Tømmerneset" />
		<tag k="name:no" v="Tømmerneset" />
		<tag k="place" v="hamlet" />
		<tag k="ssr:stedsnr" v="207400" />
	</node>
	<node id="-211808" lat="67.9024194409" lon="16.1965222088">
		<tag k="name" v="Baddje-Smájlle" />
		<tag k="name:smj" v="Baddje-Smájlle" />
		<tag k="place" v="hamlet" />
		<tag k="ssr:stedsnr" v="204562" />
	</node>
	<node id="-211805" lat="68.1943805579" lon="16.0400083408">
		<tag k="name" v="Sommarset" />
		<tag k="name:no" v="Sommarset" />
		<tag k="place" v="hamlet" />
		<tag k="ssr:stedsnr" v="204628" />
	</node>
	<node id="-209749" lat="68.0849416682" lon="15.5877333385">
		<tag k="name" v="Nakken" />
		<tag k="name:no" v="Nakken" />
		<tag k="place" v="farm" />
		<tag k="ssr:stedsnr" v="441994" />
	</node>
	<node id="-209747" lat="68.0718682929" lon="15.4514845225">
		<tag k="alt_name:no" v="Hestbakken" />
		<tag k="fixme" v="consider place=hamlet" />
		<tag k="name" v="Hestbakkan" />
		<tag k="name:no" v="Hestbakkan" />
		<tag k="place" v="farm" />
		<tag k="ssr:stedsnr" v="441985" />
	</node>
	<node id="-211792" lat="68.0790777808" lon="15.4492333413">
		<tag k="alt_name:no" v="Pålan, nedre" />
		<tag k="name" v="Nedre Pålan" />
		<tag k="name:no" v="Nedre Pålan" />
		<tag k="place" v="locality" />
		<tag k="ssr:stedsnr" v="199999" />
	</node>
	<node id="-209743" lat="67.9930694439" lon="15.6095916709">
		<tag k="name" v="Grønning" />
		<tag k="name:no" v="Grønning" />
		<tag k="place" v="farm" />
		<tag k="ssr:stedsnr" v="441907" />
	</node>
	<node id="-211786" lat="68.0698611127" lon="15.4046861119">
		<tag k="name" v="Fredhaug" />
		<tag k="name:no" v="Fredhaug" />
		<tag k="place" v="farm" />
		<tag k="ssr:stedsnr" v="199967" />
	</node>
	<node id="-211785" lat="68.0523999973" lon="15.5867388794">
		<tag k="alt_name:no" v="Nausthaugen" />
		<tag k="name" v="Nausthågen" />
		<tag k="name:no" v="Nausthågen" />
		<tag k="place" v="isolated_dwelling" />
		<tag k="ssr:stedsnr" v="199948" />
	</node>
	<node id="-211784" lat="67.994816667" lon="15.5943500071">
		<tag k="name" v="Fagerheim" />
		<tag k="name:no" v="Fagerheim" />
		<tag k="place" v="farm" />
		<tag k="ssr:stedsnr" v="199900" />
	</node>
	<node id="-211779" lat="68.0154277771" lon="15.3319083221">
		<tag k="alt_name:no" v="Skutvika" />
		<tag k="name" v="Skutvik" />
		<tag k="name:no" v="Skutvik" />
		<tag k="place" v="village" />
		<tag k="ssr:stedsnr" v="199859" />
	</node>
	<node id="-209727" lat="68.0947777753" lon="15.6256861195">
		<tag k="fixme" v="multiple name tags, choose one and add the other to alt_name" />
		<tag k="name" v="Bakken;Kleiva" />
		<tag k="name:no" v="Bakken;Kleiva" />
		<tag k="place" v="farm" />
		<tag k="ssr:stedsnr" v="441638" />
	</node>
	<node id="-211766" lat="68.1735960713" lon="15.8944273458">
		<tag k="alt_name:no" v="Skardvika" />
		<tag k="fixme" v="consider place=hamlet" />
		<tag k="name" v="Skarvika" />
		<tag k="name:no" v="Skarvika" />
		<tag k="place" v="farm" />
		<tag k="ssr:stedsnr" v="199795" />
	</node>
	<node id="-209715" lat="67.8936777815" lon="16.2045666659">
		<tag k="name" v="Davve-Måsske - Ytter-Musken" />
		<tag k="name:no" v="Ytter-Musken" />
		<tag k="name:smj" v="Davve-Måsske" />
		<tag k="place" v="hamlet" />
		<tag k="ssr:stedsnr" v="441422" />
	</node>
	<node id="-209713" lat="67.9194377963" lon="15.8865012654">
		<tag k="fixme" v="consider place=hamlet" />
		<tag k="name" v="Vuohppe - Tømmerneset" />
		<tag k="name:no" v="Tømmerneset" />
		<tag k="name:smj" v="Vuohppe" />
		<tag k="old_name:smj" v="Vuohppi" />
		<tag k="place" v="farm" />
		<tag k="ssr:stedsnr" v="441390" />
	</node>
	<node id="-211757" lat="68.1462833312" lon="15.9117666688">
		<tag k="name" v="Skogvoll" />
		<tag k="name:no" v="Skogvoll" />
		<tag k="place" v="farm" />
		<tag k="ssr:stedsnr" v="199755" />
	</node>
	<node id="-211754" lat="67.8083850947" lon="15.9839321595">
		<tag k="alt_name:no" v="Kråkmo" />
		<tag k="fixme" v="consider place=hamlet" />
		<tag k="name" v="Skilggá - Kråkmoen" />
		<tag k="name:no" v="Kråkmoen" />
		<tag k="name:smj" v="Skilggá" />
		<tag k="old_name:smj" v="Skilga" />
		<tag k="place" v="farm" />
		<tag k="ssr:stedsnr" v="199471" />
	</node>
	<node id="-211742" lat="68.0451583322" lon="16.3126111095">
		<tag k="alt_name:no" v="Hulløy" />
		<tag k="fixme" v="consider place=hamlet" />
		<tag k="name" v="Hulløya" />
		<tag k="name:no" v="Hulløya" />
		<tag k="place" v="farm" />
		<tag k="ssr:stedsnr" v="199523" />
	</node>
	<node id="-211738" lat="67.8892527813" lon="16.2133638813">
		<tag k="name" v="Sis-Måsske - Inner-Musken" />
		<tag k="name:no" v="Inner-Musken" />
		<tag k="name:smj" v="Sis-Måsske" />
		<tag k="place" v="hamlet" />
		<tag k="ssr:stedsnr" v="199420" />
	</node>
	<node id="-209689" lat="68.1207666644" lon="15.561747214">
		<tag k="name" v="Kulvåg" />
		<tag k="name:no" v="Kulvåg" />
		<tag k="place" v="locality" />
		<tag k="ssr:stedsnr" v="218435" />
	</node>
	<node id="-209688" lat="68.1870972192" lon="16.0188722221">
		<tag k="name" v="Litl Botn" />
		<tag k="name:no" v="Litl Botn" />
		<tag k="place" v="farm" />
		<tag k="ssr:stedsnr" v="218207" />
	</node>
	<node id="-209680" lat="68.123437193" lon="15.6700305887">
		<tag k="fixme" v="consider place=hamlet" />
		<tag k="name" v="Vassbotn" />
		<tag k="name:no" v="Vassbotn" />
		<tag k="place" v="farm" />
		<tag k="ssr:stedsnr" v="199735" />
	</node>
	<node id="-209677" lat="68.1392169403" lon="15.6306452983">
		<tag k="alt_name:no" v="Brennvik" />
		<tag k="fixme" v="consider place=hamlet" />
		<tag k="name" v="Brennvika" />
		<tag k="name:no" v="Brennvika" />
		<tag k="place" v="farm" />
		<tag k="ssr:stedsnr" v="199716" />
	</node>
	<node id="-209676" lat="68.133063886" lon="15.9922972166">
		<tag k="alt_name:no" v="Kilneset" />
		<tag k="name" v="Kilnes" />
		<tag k="name:no" v="Kilnes" />
		<tag k="place" v="farm" />
		<tag k="ssr:stedsnr" v="199708" />
	</node>
	<node id="-211723" lat="68.1010992166" lon="15.5385406156">
		<tag k="alt_name:no" v="Slettbakk" />
		<tag k="fixme" v="consider place=hamlet" />
		<tag k="loc_name:no" v="Slettbakkan" />
		<tag k="name" v="Slettbakken" />
		<tag k="name:no" v="Slettbakken" />
		<tag k="place" v="farm" />
		<tag k="ssr:stedsnr" v="199049" />
	</node>
	<node id="-211721" lat="68.1154346535" lon="15.6037878198">
		<tag k="alt_name:no" v="Hesskog" />
		<tag k="fixme" v="consider place=hamlet" />
		<tag k="name" v="Hesskogen" />
		<tag k="name:no" v="Hesskogen" />
		<tag k="place" v="farm" />
		<tag k="ssr:stedsnr" v="199032" />
	</node>
	<node id="-211714" lat="68.0834027739" lon="16.3078694429">
		<tag k="name" v="Stáloluokta - Risvika" />
		<tag k="name:no" v="Risvika" />
		<tag k="name:smj" v="Stáloluokta" />
		<tag k="place" v="isolated_dwelling" />
		<tag k="ssr:stedsnr" v="198530" />
	</node>
	<node id="-209665" lat="68.0551027801" lon="16.3190500067">
		<tag k="name" v="Lyngmoen" />
		<tag k="name:no" v="Lyngmoen" />
		<tag k="place" v="isolated_dwelling" />
		<tag k="ssr:stedsnr" v="199511" />
	</node>
	<node id="-211709" lat="67.9095111106" lon="15.8651166559">
		<tag k="name" v="Sagmoa" />
		<tag k="name:no" v="Sagmoa" />
		<tag k="place" v="farm" />
		<tag k="ssr:stedsnr" v="170980" />
	</node>
	<node id="-211685" lat="68.1047138858" lon="15.5830611218">
		<tag k="alt_name:no" v="Urdahl" />
		<tag k="name" v="Urdal" />
		<tag k="name:no" v="Urdal" />
		<tag k="place" v="farm" />
		<tag k="ssr:stedsnr" v="170383" />
	</node>
	<node id="-209634" lat="68.0046388883" lon="15.405327783">
		<tag k="name" v="Sjøvoll" />
		<tag k="name:no" v="Sjøvoll" />
		<tag k="place" v="farm" />
		<tag k="ssr:stedsnr" v="291579" />
	</node>
	<node id="-209633" lat="68.0049722255" lon="15.4136083406">
		<tag k="name" v="Haugen" />
		<tag k="name:no" v="Haugen" />
		<tag k="place" v="farm" />
		<tag k="ssr:stedsnr" v="291577" />
	</node>
	<node id="-209632" lat="68.0059999972" lon="15.4082777654">
		<tag k="name" v="Fredlund" />
		<tag k="name:no" v="Fredlund" />
		<tag k="place" v="farm" />
		<tag k="ssr:stedsnr" v="291576" />
	</node>
	<node id="-211667" lat="68.0436805561" lon="15.3998277687">
		<tag k="name" v="Lilleås" />
		<tag k="name:no" v="Lilleås" />
		<tag k="place" v="locality" />
		<tag k="ssr:stedsnr" v="170253" />
	</node>
	<node id="-211663" lat="68.0579333306" lon="15.5981750059">
		<tag k="name" v="Vollen" />
		<tag k="name:no" v="Vollen" />
		<tag k="place" v="farm" />
		<tag k="ssr:stedsnr" v="170319" />
	</node>
	<node id="-211662" lat="68.1101999981" lon="15.5979138783">
		<tag k="name" v="Risskaråsen" />
		<tag k="name:no" v="Risskaråsen" />
		<tag k="place" v="farm" />
		<tag k="ssr:stedsnr" v="170318" />
	</node>
	<node id="-209613" lat="68.13612222" lon="15.6242055609">
		<tag k="alt_name:no" v="Lunngård" />
		<tag k="name" v="Lundgård" />
		<tag k="name:no" v="Lundgård" />
		<tag k="place" v="farm" />
		<tag k="ssr:stedsnr" v="291554" />
	</node>
	<node id="-211656" lat="68.0869277792" lon="15.5702416549">
		<tag k="name" v="Brennmo" />
		<tag k="name:no" v="Brennmo" />
		<tag k="place" v="isolated_dwelling" />
		<tag k="ssr:stedsnr" v="170223" />
	</node>
	<node id="-211650" lat="68.0099027827" lon="15.4162833246">
		<tag k="name" v="Vestre Moen" />
		<tag k="name:no" v="Vestre Moen" />
		<tag k="place" v="farm" />
		<tag k="ssr:stedsnr" v="170075" />
	</node>
	<node id="-209593" lat="68.1831194459" lon="15.6635750057">
		<tag k="name" v="Vollen" />
		<tag k="name:no" v="Vollen" />
		<tag k="place" v="farm" />
		<tag k="ssr:stedsnr" v="290090" />
	</node>
	<node id="-211637" lat="68.1174333366" lon="15.4923916596">
		<tag k="name" v="Åsli" />
		<tag k="name:no" v="Åsli" />
		<tag k="place" v="farm" />
		<tag k="ssr:stedsnr" v="169517" />
	</node>
	<node id="-211635" lat="68.1079361157" lon="15.5129333281">
		<tag k="name" v="Åsheim" />
		<tag k="name:no" v="Åsheim" />
		<tag k="place" v="farm" />
		<tag k="ssr:stedsnr" v="169264" />
	</node>
	<node id="-209586" lat="68.0445222261" lon="16.2886999894">
		<tag k="name" v="Sommarset" />
		<tag k="name:no" v="Sommarset" />
		<tag k="place" v="isolated_dwelling" />
		<tag k="ssr:stedsnr" v="282202" />
	</node>
	<node id="-213107" lat="68.1004055586" lon="15.7395527869">
		<tag k="name" v="Nygård" />
		<tag k="name:no" v="Nygård" />
		<tag k="place" v="isolated_dwelling" />
		<tag k="ssr:stedsnr" v="806686" />
	</node>
	<node id="-209584" lat="67.8143888869" lon="15.9884250035">
		<tag k="name" v="Solvoll" />
		<tag k="name:no" v="Solvoll" />
		<tag k="place" v="isolated_dwelling" />
		<tag k="ssr:stedsnr" v="170516" />
	</node>
	<node id="-213448" lat="68.0797666676" lon="15.4941666768">
		<tag k="name" v="Solbakk" />
		<tag k="name:no" v="Solbakk" />
		<tag k="place" v="farm" />
		<tag k="ssr:stedsnr" v="959183" />
	</node>
	<node id="-209581" lat="68.12098611" lon="15.8814888902">
		<tag k="name" v="Ulvsvåg Hovedgård" />
		<tag k="name:no" v="Ulvsvåg Hovedgård" />
		<tag k="place" v="farm" />
		<tag k="ssr:stedsnr" v="170404" />
	</node>
	<node id="-211619" lat="68.0863583333" lon="15.9659388794">
		<tag k="name" v="Tørpelvatnet" />
		<tag k="name:no" v="Tørpelvatnet" />
		<tag k="place" v="isolated_dwelling" />
		<tag k="ssr:stedsnr" v="157023" />
	</node>
	<node id="-211615" lat="68.1759444425" lon="16.0494166741">
		<tag k="name" v="Elvegård" />
		<tag k="name:no" v="Elvegård" />
		<tag k="place" v="farm" />
		<tag k="ssr:stedsnr" v="147945" />
	</node>
	<node id="-211612" lat="68.0433083348" lon="15.7430861092">
		<tag k="alt_name:no" v="Kaldvåg" />
		<tag k="fixme" v="consider place=hamlet" />
		<tag k="loc_name:smj" v="Gálldaváhke" />
		<tag k="name" v="Kaldvågen" />
		<tag k="name:no" v="Kaldvågen" />
		<tag k="place" v="village" />
		<tag k="ssr:stedsnr" v="146777" />
	</node>
	<node id="-209561" lat="67.9634277822" lon="15.9309222165">
		<tag k="fixme" v="consider place=hamlet" />
		<tag k="name" v="Strávnjunnje - Innhavet" />
		<tag k="name:no" v="Innhavet" />
		<tag k="name:smj" v="Strávnjunnje" />
		<tag k="place" v="village" />
		<tag k="ssr:stedsnr" v="138654" />
	</node>
	<node id="-211602" lat="67.8908916704" lon="16.2052638984">
		<tag k="amenity" v="school" />
		<tag k="name" v="Måske skåvllå" />
		<tag k="name:smj" v="Måske skåvllå" />
		<tag k="ssr:stedsnr" v="143601" />
	</node>
	<node id="-209544" lat="67.9917333309" lon="16.3445666674">
		<tag k="name" v="Elvebakken" />
		<tag k="name:no" v="Elvebakken" />
		<tag k="place" v="farm" />
		<tag k="ssr:stedsnr" v="264907" />
	</node>
	<node id="-209543" lat="67.9774833301" lon="16.5016833199">
		<tag k="name" v="Nábár - Navaren" />
		<tag k="name:no" v="Navaren" />
		<tag k="name:smj" v="Nábár" />
		<tag k="place" v="locality" />
		<tag k="ssr:stedsnr" v="264904" />
	</node>
	<node id="-211581" lat="68.1847833293" lon="16.0251861087">
		<tag k="name" v="Vollan" />
		<tag k="name:no" v="Vollan" />
		<tag k="place" v="farm" />
		<tag k="ssr:stedsnr" v="142662" />
	</node>
	<node id="-211579" lat="68.0937888926" lon="15.6238555671">
		<tag k="alt_name:no" v="Moen" />
		<tag k="name" v="Moa" />
		<tag k="name:no" v="Moa" />
		<tag k="place" v="farm" />
		<tag k="ssr:stedsnr" v="138643" />
	</node>
	<node id="-209529" lat="68.0236611156" lon="16.1581361077">
		<tag k="name" v="Vindheim" />
		<tag k="name:no" v="Vindheim" />
		<tag k="place" v="farm" />
		<tag k="ssr:stedsnr" v="264564" />
	</node>
	<node id="-211575" lat="68.0842472241" lon="15.649958345">
		<tag k="fixme" v="consider place=hamlet" />
		<tag k="name" v="Presteid" />
		<tag k="name:no" v="Presteid" />
		<tag k="place" v="village" />
		<tag k="ssr:stedsnr" v="138635" />
	</node>
	<node id="-211572" lat="68.0185888868" lon="16.1540083277">
		<tag k="alt_name:no" v="Helland, in" />
		<tag k="name" v="Indre Helland" />
		<tag k="name:no" v="Indre Helland" />
		<tag k="place" v="farm" />
		<tag k="ssr:stedsnr" v="138597" />
	</node>
	<node id="-211571" lat="68.0367972237" lon="16.1030888889">
		<tag k="name" v="Sørås" />
		<tag k="name:no" v="Sørås" />
		<tag k="place" v="farm" />
		<tag k="ssr:stedsnr" v="138582" />
	</node>
	<node id="-211566" lat="68.0758596349" lon="15.4838369929">
		<tag k="alt_name:no" v="Lilandsås" />
		<tag k="fixme" v="consider place=hamlet" />
		<tag k="name" v="Lilandsåsen" />
		<tag k="name:no" v="Lilandsåsen" />
		<tag k="place" v="farm" />
		<tag k="ssr:stedsnr" v="138975" />
	</node>
	<node id="-211565" lat="68.0786249506" lon="15.4983248727">
		<tag k="fixme" v="consider place=hamlet" />
		<tag k="name" v="Løding" />
		<tag k="name:no" v="Løding" />
		<tag k="place" v="farm" />
		<tag k="ssr:stedsnr" v="138973" />
	</node>
	<node id="-211535" lat="68.194486114" lon="16.1234277751">
		<tag k="name" v="Tjeldhamn" />
		<tag k="name:no" v="Tjeldhamn" />
		<tag k="place" v="isolated_dwelling" />
		<tag k="ssr:stedsnr" v="138793" />
	</node>
	<node id="-211534" lat="68.1802639871" lon="16.104434566">
		<tag k="alt_name:no" v="Kaldvika" />
		<tag k="fixme" v="multiple name tags, choose one and add the other to alt_name; consider place=hamlet" />
		<tag k="name" v="Øvre Kaldvik;Kalvik" />
		<tag k="name:no" v="Øvre Kaldvik;Kalvik" />
		<tag k="place" v="farm" />
		<tag k="ssr:stedsnr" v="138781" />
	</node>
	<node id="-209477" lat="68.1008722255" lon="15.6279333396">
		<tag k="alt_name:no" v="Myrset" />
		<tag k="name" v="Myrneset" />
		<tag k="name:no" v="Myrneset" />
		<tag k="place" v="farm" />
		<tag k="ssr:stedsnr" v="260717" />
	</node>
	<node id="-209471" lat="68.0140527747" lon="16.1639555654">
		<tag k="name" v="Fredly" />
		<tag k="name:no" v="Fredly" />
		<tag k="place" v="farm" />
		<tag k="ssr:stedsnr" v="260550" />
	</node>
	<node id="-211513" lat="67.910961113" lon="16.1956666616">
		<tag k="name" v="Gábmásadje" />
		<tag k="name:smj" v="Gábmásadje" />
		<tag k="old_name:smj" v="Gápmasadji" />
		<tag k="place" v="isolated_dwelling" />
		<tag k="ssr:stedsnr" v="138397" />
	</node>
	<node id="-211511" lat="68.0452111088" lon="16.2750722278">
		<tag k="name" v="Borg" />
		<tag k="name:no" v="Borg" />
		<tag k="place" v="farm" />
		<tag k="ssr:stedsnr" v="138531" />
	</node>
	<node id="-211510" lat="67.8401097752" lon="15.9919182515">
		<tag k="alt_name:no" v="Hofmannselva;Hofmandselv" />
		<tag k="fixme" v="consider place=hamlet" />
		<tag k="name" v="Jåhkågasska - Hoffmannselva" />
		<tag k="name:no" v="Hoffmannselva" />
		<tag k="name:smj" v="Jåhkågasska" />
		<tag k="old_name:smj" v="Johkagaska" />
		<tag k="place" v="farm" />
		<tag k="ssr:stedsnr" v="138487" />
	</node>
	<node id="-211502" lat="67.9630861065" lon="16.3946027825">
		<tag k="name" v="Njoaskásj - Sommarset" />
		<tag k="name:no" v="Sommarset" />
		<tag k="name:smj" v="Njoaskásj" />
		<tag k="place" v="locality" />
		<tag k="ssr:stedsnr" v="138319" />
	</node>
	<node id="-209451" lat="68.0500135196" lon="15.4084072244">
		<tag k="alt_name:no" v="Rødli" />
		<tag k="fixme" v="consider place=hamlet" />
		<tag k="name" v="Rødlia" />
		<tag k="name:no" v="Rødlia" />
		<tag k="place" v="farm" />
		<tag k="ssr:stedsnr" v="259937" />
	</node>
	<node id="-209449" lat="67.9905718362" lon="15.628823198">
		<tag k="alt_name:no" v="Fikkestad" />
		<tag k="fixme" v="consider place=hamlet" />
		<tag k="name" v="Fitjestad" />
		<tag k="name:no" v="Fitjestad" />
		<tag k="place" v="farm" />
		<tag k="ssr:stedsnr" v="259903" />
	</node>
	<node id="-209447" lat="68.1654500033" lon="15.9594388865">
		<tag k="fixme" v="consider place=hamlet" />
		<tag k="name" v="Tortenåsen" />
		<tag k="name:no" v="Tortenåsen" />
		<tag k="place" v="farm" />
		<tag k="ssr:stedsnr" v="259766" />
	</node>
	<node id="-211494" lat="68.1373901812" lon="15.4668807859">
		<tag k="fixme" v="consider place=hamlet" />
		<tag k="name" v="Hamnes" />
		<tag k="name:no" v="Hamnes" />
		<tag k="place" v="farm" />
		<tag k="ssr:stedsnr" v="138112" />
	</node>
	<node id="-211491" lat="68.1608861123" lon="15.9479277834">
		<tag k="name" v="Lundås" />
		<tag k="name:no" v="Lundås" />
		<tag k="place" v="farm" />
		<tag k="ssr:stedsnr" v="137727" />
	</node>
	<node id="-211488" lat="67.9185583373" lon="16.2044527699">
		<tag k="name" v="Gidádibme - Josommarset" />
		<tag k="name:no" v="Josommarset" />
		<tag k="name:smj" v="Gidádibme" />
		<tag k="old_name:smj" v="Gidadipmi" />
		<tag k="place" v="farm" />
		<tag k="ssr:stedsnr" v="137385" />
	</node>
	<node id="-211486" lat="68.1483361095" lon="15.4698222295">
		<tag k="name" v="Buvåg" />
		<tag k="name:no" v="Buvåg" />
		<tag k="place" v="farm" />
		<tag k="ssr:stedsnr" v="137063" />
	</node>
	<node id="-213530" lat="67.8867217781" lon="15.8729500641">
		<tag k="name" v="Rotvatnet" />
		<tag k="name:no" v="Rotvatnet" />
		<tag k="place" v="locality" />
		<tag k="ssr:stedsnr" v="1076457" />
	</node>
	<node id="-209433" lat="68.0868666668" lon="15.8798777654">
		<tag k="alt_name:no" v="Skilvassbakk" />
		<tag k="name" v="Østre Skilvassbakk" />
		<tag k="name:no" v="Østre Skilvassbakk" />
		<tag k="place" v="farm" />
		<tag k="ssr:stedsnr" v="259632" />
	</node>
	<node id="-213528" lat="67.8643338689" lon="15.9426326115">
		<tag k="fixme" v="consider place=hamlet" />
		<tag k="name" v="Sagvatnet" />
		<tag k="name:no" v="Sagvatnet" />
		<tag k="place" v="farm" />
		<tag k="ssr:stedsnr" v="1076455" />
	</node>
	<node id="-213527" lat="68.0205035862" lon="15.724078877">
		<tag k="name" v="Karlsøybotn" />
		<tag k="name:no" v="Karlsøybotn" />
		<tag k="place" v="hamlet" />
		<tag k="ssr:stedsnr" v="1076451" />
	</node>
	<node id="-213526" lat="68.0216174247" lon="15.9506080805">
		<tag k="name" v="Hillingspollen" />
		<tag k="place" v="locality" />
		<tag k="ssr:stedsnr" v="1076449" />
	</node>
	<node id="-213525" lat="68.0875035099" lon="15.8752359252">
		<tag k="fixme" v="consider place=hamlet" />
		<tag k="name" v="Skilvassbakk" />
		<tag k="place" v="farm" />
		<tag k="ssr:stedsnr" v="1076446" />
	</node>
	<node id="-213524" lat="68.0438903855" lon="15.7387608777">
		<tag k="name" v="Kaldvågen" />
		<tag k="name:no" v="Kaldvågen" />
		<tag k="place" v="hamlet" />
		<tag k="ssr:stedsnr" v="1076445" />
	</node>
	<node id="-213523" lat="68.1148888702" lon="15.4065585294">
		<tag k="alt_name" v="Bjørndal" />
		<tag k="name" v="Bjørndalen" />
		<tag k="place" v="locality" />
		<tag k="ssr:stedsnr" v="1076443" />
	</node>
	<node id="-213522" lat="68.1803800074" lon="15.6651344586">
		<tag k="alt_name" v="Tranøy" />
		<tag k="fixme" v="consider place=hamlet" />
		<tag k="name" v="Tranøya" />
		<tag k="place" v="farm" />
		<tag k="ssr:stedsnr" v="1076442" />
	</node>
	<node id="-213521" lat="68.110442837" lon="15.6627788484">
		<tag k="name" v="Tømmeråsen" />
		<tag k="name:no" v="Tømmeråsen" />
		<tag k="place" v="hamlet" />
		<tag k="ssr:stedsnr" v="1076441" />
	</node>
	<node id="-211472" lat="68.0813000047" lon="15.9178277701">
		<tag k="name" v="Østgård" />
		<tag k="name:no" v="Østgård" />
		<tag k="place" v="farm" />
		<tag k="ssr:stedsnr" v="110352" />
	</node>
	<node id="-213517" lat="68.0848760536" lon="15.6423971501">
		<tag k="fixme" v="consider place=hamlet" />
		<tag k="name" v="Presteid" />
		<tag k="name:no" v="Presteid" />
		<tag k="place" v="farm" />
		<tag k="ssr:stedsnr" v="1076440" />
	</node>
	<node id="-213513" lat="68.1651575611" lon="15.9561475623">
		<tag k="name" v="Tortenås" />
		<tag k="name:no" v="Tortenås" />
		<tag k="place" v="farm" />
		<tag k="ssr:stedsnr" v="990203" />
	</node>
	<node id="-213512" lat="68.165702964" lon="15.9599626918">
		<tag k="name" v="Tortenås" />
		<tag k="name:no" v="Tortenås" />
		<tag k="place" v="farm" />
		<tag k="ssr:stedsnr" v="990201" />
	</node>
	<node id="-213511" lat="68.1652210697" lon="15.9589944665">
		<tag k="name" v="Tortenås" />
		<tag k="name:no" v="Tortenås" />
		<tag k="place" v="farm" />
		<tag k="ssr:stedsnr" v="990200" />
	</node>
	<node id="-213510" lat="68.0860047827" lon="15.6945419204">
		<tag k="alt_name:no" v="Finvik" />
		<tag k="name" v="Finnvika" />
		<tag k="name:no" v="Finnvika" />
		<tag k="place" v="farm" />
		<tag k="ssr:stedsnr" v="990146" />
	</node>
	<node id="-209413" lat="68.0443249962" lon="16.0604916695">
		<tag k="alt_name:no" v="Hamna" />
		<tag k="name" v="Hamn" />
		<tag k="name:no" v="Hamn" />
		<tag k="place" v="farm" />
		<tag k="ssr:stedsnr" v="259550" />
	</node>
	<node id="-213508" lat="67.9202467443" lon="15.8783328059">
		<tag k="name" v="Tømmerneset" />
		<tag k="name:no" v="Tømmerneset" />
		<tag k="place" v="farm" />
		<tag k="ssr:stedsnr" v="985364" />
	</node>
	<node id="-209411" lat="68.0798694412" lon="16.2204083277">
		<tag k="name" v="Sommarset" />
		<tag k="name:no" v="Sommarset" />
		<tag k="place" v="isolated_dwelling" />
		<tag k="ssr:stedsnr" v="259521" />
	</node>
	<node id="-213506" lat="68.1784385469" lon="16.101385109">
		<tag k="name" v="Kaldvik øvre" />
		<tag k="name:no" v="Kaldvik øvre" />
		<tag k="place" v="farm" />
		<tag k="ssr:stedsnr" v="981936" />
	</node>
	<node id="-213505" lat="68.1786725031" lon="16.1024514312">
		<tag k="name" v="Kaldvik øvre" />
		<tag k="name:no" v="Kaldvik øvre" />
		<tag k="place" v="farm" />
		<tag k="ssr:stedsnr" v="981935" />
	</node>
	<node id="-213504" lat="68.1795360264" lon="16.1051585118">
		<tag k="name" v="Kalvik mellem" />
		<tag k="name:no" v="Kalvik mellem" />
		<tag k="place" v="farm" />
		<tag k="ssr:stedsnr" v="981934" />
	</node>
	<node id="-209407" lat="67.8386527744" lon="16.0035888972">
		<tag k="alt_name:no" v="Falkelva" />
		<tag k="name" v="Falkelv" />
		<tag k="name:no" v="Falkelv" />
		<tag k="place" v="farm" />
		<tag k="ssr:stedsnr" v="259475" />
	</node>
	<node id="-213502" lat="68.2237265561" lon="16.0757563906">
		<tag k="name" v="Bognássje - Bognes" />
		<tag k="name:no" v="Bognes" />
		<tag k="name:smj" v="Bognássje" />
		<tag k="place" v="hamlet" />
		<tag k="ssr:stedsnr" v="975424" />
	</node>
	<node id="-209405" lat="67.8603805544" lon="15.9366111006">
		<tag k="name" v="Litlsandnes" />
		<tag k="name:no" v="Litlsandnes" />
		<tag k="place" v="isolated_dwelling" />
		<tag k="ssr:stedsnr" v="259457" />
	</node>
	<node id="-209403" lat="68.1157055549" lon="15.8658055467">
		<tag k="alt_name:no" v="Ulsvåg" />
		<tag k="fixme" v="consider place=hamlet" />
		<tag k="name" v="Ulsváhke - Ulvsvåg" />
		<tag k="name:no" v="Ulvsvåg" />
		<tag k="name:smj" v="Ulsváhke" />
		<tag k="place" v="village" />
		<tag k="ssr:stedsnr" v="260684" />
	</node>
	<node id="-209402" lat="68.1181944473" lon="16.0397499913">
		<tag k="name" v="Akkasokka" />
		<tag k="name:no" v="Akkasokka" />
		<tag k="place" v="isolated_dwelling" />
		<tag k="ssr:stedsnr" v="260675" />
	</node>
	<node id="-209398" lat="67.9119902945" lon="15.8487087591">
		<tag k="fixme" v="consider place=hamlet" />
		<tag k="name" v="Lia" />
		<tag k="name:no" v="Lia" />
		<tag k="place" v="farm" />
		<tag k="ssr:stedsnr" v="259395" />
	</node>
	<node id="-209395" lat="67.8478638905" lon="16.3772555559">
		<tag k="name" v="Sis-Vássjá - Indre Vasja" />
		<tag k="name:no" v="Indre Vasja" />
		<tag k="name:smj" v="Sis-Vássjá" />
		<tag k="old_name:smj" v="Sisvášša" />
		<tag k="place" v="isolated_dwelling" />
		<tag k="ssr:stedsnr" v="259350" />
	</node>
	<node id="-211439" lat="68.1040999968" lon="15.5228694392">
		<tag k="name" v="Skarheim" />
		<tag k="name:no" v="Skarheim" />
		<tag k="place" v="farm" />
		<tag k="ssr:stedsnr" v="109421" />
	</node>
	<node id="-209390" lat="67.8564250021" lon="16.0086416618">
		<tag k="name" v="Lappjorda" />
		<tag k="name:no" v="Lappjorda" />
		<tag k="place" v="farm" />
		<tag k="ssr:stedsnr" v="259440" />
	</node>
	<node id="-211432" lat="68.177452778" lon="15.6637083358">
		<tag k="name" v="Vikran" />
		<tag k="name:no" v="Vikran" />
		<tag k="place" v="farm" />
		<tag k="ssr:stedsnr" v="109186" />
	</node>
	<node id="-211426" lat="68.1145024606" lon="15.4938892111">
		<tag k="name" v="Dalen" />
		<tag k="name:no" v="Dalen" />
		<tag k="place" v="farm" />
		<tag k="ssr:stedsnr" v="108457" />
	</node>
	<node id="-213467" lat="68.1335111071" lon="15.710141672">
		<tag k="name" v="Berg" />
		<tag k="name:no" v="Berg" />
		<tag k="place" v="farm" />
		<tag k="ssr:stedsnr" v="959553" />
	</node>
	<node id="-211418" lat="68.0888666659" lon="15.5797111219">
		<tag k="name" v="Ytterstad" />
		<tag k="name:no" v="Ytterstad" />
		<tag k="place" v="farm" />
		<tag k="ssr:stedsnr" v="109021" />
	</node>
	<node id="-209368" lat="68.0749583342" lon="16.3263555488">
		<tag k="name" v="Kongsnes" />
		<tag k="name:no" v="Kongsnes" />
		<tag k="place" v="farm" />
		<tag k="ssr:stedsnr" v="82916" />
	</node>
	<node id="-213463" lat="68.051905554" lon="15.4252333423">
		<tag k="name" v="Bjørshaug" />
		<tag k="name:no" v="Bjørshaug" />
		<tag k="place" v="farm" />
		<tag k="ssr:stedsnr" v="959273" />
	</node>
	<node id="-211409" lat="68.2324166651" lon="16.0606083264">
		<tag k="name" v="Stranda" />
		<tag k="name:no" v="Stranda" />
		<tag k="place" v="hamlet" />
		<tag k="ssr:stedsnr" v="87944" />
	</node>
	<node id="-213451" lat="68.0476027789" lon="15.4122527822">
		<tag k="name" v="Gammelgården" />
		<tag k="name:no" v="Gammelgården" />
		<tag k="place" v="locality" />
		<tag k="ssr:stedsnr" v="959205" />
	</node>
	<node id="-209352" lat="67.9942361078" lon="16.3401166753">
		<tag k="name" v="Skarvbergvika" />
		<tag k="name:no" v="Skarvbergvika" />
		<tag k="place" v="isolated_dwelling" />
		<tag k="ssr:stedsnr" v="77311" />
	</node>
	<node id="-211398" lat="68.2079527781" lon="16.0926194335">
		<tag k="name" v="Østvika" />
		<tag k="name:no" v="Østvika" />
		<tag k="place" v="farm" />
		<tag k="ssr:stedsnr" v="82691" />
	</node>
	<node id="-209346" lat="68.0056444475" lon="15.413588878">
		<tag k="name" v="Solheim" />
		<tag k="name:no" v="Solheim" />
		<tag k="place" v="farm" />
		<tag k="ssr:stedsnr" v="231651" />
	</node>
	<node id="-211391" lat="68.090566669" lon="16.0963138871">
		<tag k="name" v="Stuorluokta - Storvika" />
		<tag k="name:no" v="Storvika" />
		<tag k="name:smj" v="Stuorluokta" />
		<tag k="place" v="hamlet" />
		<tag k="ssr:stedsnr" v="81640" />
	</node>
	<node id="-211389" lat="67.888058338" lon="16.2242999938">
		<tag k="name" v="Måsske - Musken" />
		<tag k="name:no" v="Musken" />
		<tag k="name:smj" v="Måsske" />
		<tag k="place" v="hamlet" />
		<tag k="ssr:stedsnr" v="81303" />
	</node>
	<node id="-211385" lat="68.1518027811" lon="16.1141833231">
		<tag k="name" v="Fossum" />
		<tag k="name:no" v="Fossum" />
		<tag k="place" v="farm" />
		<tag k="ssr:stedsnr" v="78750" />
	</node>
	<node id="-213429" lat="68.1038583324" lon="15.5404444363">
		<tag k="name" v="Nordmark" />
		<tag k="name:no" v="Nordmark" />
		<tag k="place" v="farm" />
		<tag k="ssr:stedsnr" v="958481" />
	</node>
	<node id="-213428" lat="68.1136222201" lon="15.4937527877">
		<tag k="name" v="Haugen" />
		<tag k="name:no" v="Haugen" />
		<tag k="place" v="farm" />
		<tag k="ssr:stedsnr" v="958472" />
	</node>
	<node id="-213406" lat="68.0553555543" lon="15.7696500025">
		<tag k="name" v="Solli" />
		<tag k="name:no" v="Solli" />
		<tag k="place" v="farm" />
		<tag k="ssr:stedsnr" v="866582" />
	</node>
	<node id="-211378" lat="68.1489166697" lon="15.8845833312">
		<tag k="name" v="Frydenlund" />
		<tag k="name:no" v="Frydenlund" />
		<tag k="place" v="farm" />
		<tag k="ssr:stedsnr" v="78736" />
	</node>
	<node id="-211377" lat="68.0274777776" lon="16.5172944423">
		<tag k="alt_name:no" v="Mosken" />
		<tag k="name" v="Spællámåsske - Musken" />
		<tag k="name:no" v="Musken" />
		<tag k="name:smj" v="Spællámåsske" />
		<tag k="old_name:smj" v="Moski;Måsske" />
		<tag k="place" v="farm" />
		<tag k="ssr:stedsnr" v="78732" />
	</node>
	<node id="-211376" lat="68.0727457741" lon="15.4565550513">
		<tag k="alt_name:no" v="Eideslia" />
		<tag k="fixme" v="consider place=hamlet" />
		<tag k="name" v="Eidislia" />
		<tag k="name:no" v="Eidislia" />
		<tag k="place" v="farm" />
		<tag k="ssr:stedsnr" v="78980" />
	</node>
	<node id="-211372" lat="68.1328563505" lon="15.7069779093">
		<tag k="alt_name:no" v="Leirvågen" />
		<tag k="fixme" v="consider place=hamlet" />
		<tag k="name" v="Leirvåg" />
		<tag k="name:no" v="Leirvåg" />
		<tag k="place" v="farm" />
		<tag k="ssr:stedsnr" v="78704" />
	</node>
	<node id="-209320" lat="68.0822333313" lon="15.5146361207">
		<tag k="name" v="Hyttebo" />
		<tag k="name:no" v="Hyttebo" />
		<tag k="place" v="isolated_dwelling" />
		<tag k="ssr:stedsnr" v="231039" />
	</node>
	<node id="-209443" lat="68.147011111" lon="16.0420583398">
		<tag k="name" v="Láŋásse - Langåsen" />
		<tag k="name:no" v="Langåsen" />
		<tag k="name:smj" v="Láŋásse" />
		<tag k="place" v="farm" />
		<tag k="ssr:stedsnr" v="259693" />
	</node>
	<node id="-209316" lat="68.1651083338" lon="15.9564361105">
		<tag k="name" v="Nerstua" />
		<tag k="name:no" v="Nerstua" />
		<tag k="place" v="farm" />
		<tag k="ssr:stedsnr" v="230896" />
	</node>
	<node id="-213410" lat="68.0865672637" lon="15.6950333998">
		<tag k="alt_name:no" v="Finnvik" />
		<tag k="fixme" v="consider place=hamlet" />
		<tag k="name" v="Finnvika" />
		<tag k="name:no" v="Finnvika" />
		<tag k="place" v="farm" />
		<tag k="ssr:stedsnr" v="866611" />
	</node>
	<node id="-211358" lat="68.2221527804" lon="16.0475833402">
		<tag k="name" v="Bogen" />
		<tag k="name:no" v="Bogen" />
		<tag k="place" v="farm" />
		<tag k="ssr:stedsnr" v="78824" />
	</node>
	<node id="-213399" lat="68.0866888902" lon="16.2941527845">
		<tag k="name" v="Haugen" />
		<tag k="name:no" v="Haugen" />
		<tag k="place" v="isolated_dwelling" />
		<tag k="ssr:stedsnr" v="953368" />
	</node>
	<node id="-209300" lat="68.1005888512" lon="15.5374591832">
		<tag k="name" v="Brattheim" />
		<tag k="name:no" v="Brattheim" />
		<tag k="place" v="farm" />
		<tag k="ssr:stedsnr" v="230446" />
	</node>
	<node id="-209299" lat="68.0993416693" lon="15.5222138832">
		<tag k="name" v="Solhaug" />
		<tag k="name:no" v="Solhaug" />
		<tag k="place" v="farm" />
		<tag k="ssr:stedsnr" v="230437" />
	</node>
	<node id="-209296" lat="68.104294448" lon="15.5190138776">
		<tag k="alt_name:no" v="Steinseth" />
		<tag k="name" v="Steinset" />
		<tag k="name:no" v="Steinset" />
		<tag k="place" v="farm" />
		<tag k="ssr:stedsnr" v="230278" />
	</node>
	<node id="-209295" lat="68.0851027808" lon="15.6402694446">
		<tag k="name" v="Prestegården" />
		<tag k="name:no" v="Prestegården" />
		<tag k="place" v="farm" />
		<tag k="ssr:stedsnr" v="230128" />
	</node>
	<node id="-211336" lat="68.060844442" lon="15.661411105">
		<tag k="name" v="Tuva" />
		<tag k="name:no" v="Tuva" />
		<tag k="place" v="isolated_dwelling" />
		<tag k="ssr:stedsnr" v="78594" />
	</node>
	<node id="-213376" lat="68.0234416644" lon="15.3031083229">
		<tag k="name" v="Utvåg" />
		<tag k="name:no" v="Utvåg" />
		<tag k="place" v="isolated_dwelling" />
		<tag k="ssr:stedsnr" v="867905" />
	</node>
	<node id="-209278" lat="67.9936805594" lon="15.6156277728">
		<tag k="name" v="Lynghaug" />
		<tag k="name:no" v="Lynghaug" />
		<tag k="place" v="farm" />
		<tag k="ssr:stedsnr" v="17913" />
	</node>
	<node id="-209277" lat="67.9921333308" lon="15.5838138992">
		<tag k="alt_name:no" v="Austgård" />
		<tag k="name" v="Østgård" />
		<tag k="name:no" v="Østgård" />
		<tag k="place" v="farm" />
		<tag k="ssr:stedsnr" v="17912" />
	</node>
	<node id="-213372" lat="68.0178638886" lon="16.2908444502">
		<tag k="name" v="Fagernesstrand" />
		<tag k="name:no" v="Fagernesstrand" />
		<tag k="place" v="isolated_dwelling" />
		<tag k="ssr:stedsnr" v="867759" />
	</node>
	<node id="-211323" lat="67.8843000026" lon="16.1939638822">
		<tag k="name" v="Hejdigiedde - Hedningjorda" />
		<tag k="name:no" v="Hedningjorda" />
		<tag k="name:smj" v="Hejdigiedde" />
		<tag k="place" v="locality" />
		<tag k="ssr:stedsnr" v="78432" />
	</node>
	<node id="-209273" lat="68.2016162272" lon="15.9521899266">
		<tag k="fixme" v="consider place=hamlet" />
		<tag k="name" v="Tiltvika" />
		<tag k="name:no" v="Tiltvika" />
		<tag k="place" v="farm" />
		<tag k="ssr:stedsnr" v="17832" />
	</node>
	<node id="-211317" lat="67.9164527739" lon="16.4228111192">
		<tag k="name" v="Bealggaš, unna" />
		<tag k="name:smj" v="Bealggaš, unna" />
		<tag k="place" v="locality" />
		<tag k="ssr:stedsnr" v="78326" />
	</node>
	<node id="-209268" lat="68.1835388863" lon="15.6622166689">
		<tag k="alt_name:no" v="Tranøy" />
		<tag k="fixme" v="consider place=hamlet" />
		<tag k="name" v="Tranøya" />
		<tag k="name:no" v="Tranøya" />
		<tag k="place" v="village" />
		<tag k="ssr:stedsnr" v="17819" />
	</node>
	<node id="-213362" lat="68.1098527783" lon="15.8416416771">
		<tag k="name" v="Grimsosen" />
		<tag k="name:no" v="Grimsosen" />
		<tag k="place" v="farm" />
		<tag k="ssr:stedsnr" v="867673" />
	</node>
	<node id="-213357" lat="68.0302555567" lon="15.8234972116">
		<tag k="alt_name:no" v="Kallvågstraumen" />
		<tag k="name" v="Kaldvågstraumen" />
		<tag k="name:no" v="Kaldvågstraumen" />
		<tag k="place" v="locality" />
		<tag k="ssr:stedsnr" v="867600" />
	</node>
	<node id="-211307" lat="68.2595998309" lon="15.9538477957">
		<tag k="name" v="Diksná - Tysnes" />
		<tag k="name:no" v="Tysnes" />
		<tag k="name:smj" v="Diksná" />
		<tag k="place" v="hamlet" />
		<tag k="ssr:stedsnr" v="78386" />
	</node>
	<node id="-213354" lat="68.0028427157" lon="15.9299536103">
		<tag k="name" v="Sommarset" />
		<tag k="name:no" v="Sommarset" />
		<tag k="place" v="locality" />
		<tag k="ssr:stedsnr" v="867562" />
	</node>
	<node id="-211298" lat="68.0369492605" lon="15.388486171">
		<tag k="fixme" v="consider place=hamlet" />
		<tag k="name" v="Sørvåg" />
		<tag k="name:no" v="Sørvåg" />
		<tag k="place" v="farm" />
		<tag k="ssr:stedsnr" v="77924" />
	</node>
	<node id="-209248" lat="68.2251972233" lon="16.0498472169">
		<tag k="name" v="Ytre Leiknesbø" />
		<tag k="name:no" v="Ytre Leiknesbø" />
		<tag k="place" v="farm" />
		<tag k="ssr:stedsnr" v="218094" />
	</node>
	<node id="-211294" lat="68.007202779" lon="15.4008638981">
		<tag k="name" v="Ryen" />
		<tag k="name:no" v="Ryen" />
		<tag k="place" v="farm" />
		<tag k="ssr:stedsnr" v="77829" />
	</node>
	<node id="-213338" lat="68.0756888872" lon="15.3545055531">
		<tag k="name" v="Dalsmælen" />
		<tag k="name:no" v="Dalsmælen" />
		<tag k="place" v="locality" />
		<tag k="ssr:stedsnr" v="866991" />
	</node>
	<node id="-209238" lat="67.9748027785" lon="16.5334972264">
		<tag k="name" v="Storjorda" />
		<tag k="name:no" v="Storjorda" />
		<tag k="place" v="farm" />
		<tag k="ssr:stedsnr" v="932903" />
	</node>
	<node id="-213333" lat="68.0501708669" lon="15.4526142512">
		<tag k="fixme" v="consider place=hamlet" />
		<tag k="name" v="Skottestad" />
		<tag k="name:no" v="Skottestad" />
		<tag k="place" v="farm" />
		<tag k="ssr:stedsnr" v="866932" />
	</node>
	<node id="-211284" lat="68.1521444459" lon="16.1103277717">
		<tag k="name" v="Lund" />
		<tag k="name:no" v="Lund" />
		<tag k="place" v="isolated_dwelling" />
		<tag k="ssr:stedsnr" v="77756" />
	</node>
	<node id="-213330" lat="68.0267294195" lon="15.3320844473">
		<tag k="fixme" v="consider place=hamlet" />
		<tag k="name" v="Øvereng" />
		<tag k="name:no" v="Øvereng" />
		<tag k="place" v="farm" />
		<tag k="ssr:stedsnr" v="866911" />
	</node>
	<node id="-213328" lat="67.994275879" lon="15.5696781358">
		<tag k="fixme" v="consider place=hamlet" />
		<tag k="name" v="Øverås" />
		<tag k="name:no" v="Øverås" />
		<tag k="place" v="farm" />
		<tag k="ssr:stedsnr" v="866892" />
	</node>
	<node id="-213327" lat="67.9969194417" lon="15.5490277763">
		<tag k="name" v="Nylenda" />
		<tag k="name:no" v="Nylenda" />
		<tag k="place" v="farm" />
		<tag k="ssr:stedsnr" v="866890" />
	</node>
	<node id="-213324" lat="68.0002555559" lon="15.6085972177">
		<tag k="name" v="Tronstad" />
		<tag k="name:no" v="Tronstad" />
		<tag k="place" v="farm" />
		<tag k="ssr:stedsnr" v="866829" />
	</node>
	<node id="-211271" lat="68.0452277771" lon="16.0122805535">
		<tag k="building" v="industrial" />
		<tag k="industrial" v="factory" />
		<tag k="name" v="Svenskgruva" />
		<tag k="name:no" v="Svenskgruva" />
		<tag k="ssr:stedsnr" v="77633" />
	</node>
	<node id="-213315" lat="68.1535555535" lon="16.1220888821">
		<tag k="name" v="Forsa" />
		<tag k="name:no" v="Forsa" />
		<tag k="place" v="farm" />
		<tag k="ssr:stedsnr" v="866733" />
	</node>
	<node id="-211263" lat="67.8511429502" lon="15.9593487869">
		<tag k="fixme" v="consider place=hamlet" />
		<tag k="name" v="Girkkovárre - Kjerkfjell" />
		<tag k="name:no" v="Kjerkfjell" />
		<tag k="name:smj" v="Girkkovárre" />
		<tag k="old_name:smj" v="Girkovárri" />
		<tag k="place" v="farm" />
		<tag k="ssr:stedsnr" v="77472" />
	</node>
	<node id="-211259" lat="67.8140583302" lon="16.5161111052">
		<tag k="name" v="Vuodnabahta - Hellmobotn" />
		<tag k="name:no" v="Hellmobotn" />
		<tag k="name:smj" v="Vuodnabahta" />
		<tag k="place" v="hamlet" />
		<tag k="ssr:stedsnr" v="77135" />
	</node>
	<node id="-211258" lat="68.1498000037" lon="15.4905805593">
		<tag k="name" v="Moa" />
		<tag k="name:no" v="Moa" />
		<tag k="place" v="farm" />
		<tag k="ssr:stedsnr" v="77083" />
	</node>
	<node id="-211256" lat="68.0892166715" lon="15.5592833231">
		<tag k="alt_name:no" v="Elsbakken" />
		<tag k="name" v="Elsbakk" />
		<tag k="name:no" v="Elsbakk" />
		<tag k="place" v="isolated_dwelling" />
		<tag k="ssr:stedsnr" v="77045" />
	</node>
	<node id="-213302" lat="67.8940527804" lon="15.8608444494">
		<tag k="alt_name:no" v="Vassmo" />
		<tag k="name" v="Vassmoa" />
		<tag k="name:no" v="Vassmoa" />
		<tag k="place" v="farm" />
		<tag k="ssr:stedsnr" v="866366" />
	</node>
	<node id="-209201" lat="68.0658500043" lon="15.8626472166">
		<tag k="name" v="Strandbua" />
		<tag k="name:no" v="Strandbua" />
		<tag k="place" v="isolated_dwelling" />
		<tag k="ssr:stedsnr" v="898271" />
	</node>
	<node id="-213295" lat="67.9538583344" lon="16.4517444508">
		<tag k="name" v="Grunnfjorden" />
		<tag k="name:no" v="Grunnfjorden" />
		<tag k="place" v="isolated_dwelling" />
		<tag k="ssr:stedsnr" v="866260" />
	</node>
	<node id="-211246" lat="68.0274583332" lon="15.333869434">
		<tag k="name" v="Uthaug" />
		<tag k="name:no" v="Uthaug" />
		<tag k="place" v="farm" />
		<tag k="ssr:stedsnr" v="49099" />
	</node>
	<node id="-211240" lat="68.1628166693" lon="15.9539277882">
		<tag k="name" v="Åsgård" />
		<tag k="name:no" v="Åsgård" />
		<tag k="place" v="farm" />
		<tag k="ssr:stedsnr" v="49892" />
	</node>
	<node id="-213286" lat="68.1396744476" lon="15.4420175854">
		<tag k="alt_name:no" v="Fikke" />
		<tag k="fixme" v="consider place=hamlet" />
		<tag k="name" v="Fitje" />
		<tag k="name:no" v="Fitje" />
		<tag k="place" v="farm" />
		<tag k="ssr:stedsnr" v="866071" />
	</node>
	<node id="-209188" lat="68.1298944466" lon="15.4093249967">
		<tag k="name" v="Bjørnvågen" />
		<tag k="name:no" v="Bjørnvågen" />
		<tag k="place" v="farm" />
		<tag k="ssr:stedsnr" v="502102" />
	</node>
	<node id="-213276" lat="68.2019805586" lon="16.0685749898">
		<tag k="name" v="Stuorgiedde - Storjorda" />
		<tag k="name:no" v="Storjorda" />
		<tag k="name:smj" v="Stuorgiedde" />
		<tag k="place" v="hamlet" />
		<tag k="ssr:stedsnr" v="846253" />
	</node>
	<node id="-211223" lat="68.0594944465" lon="15.4223527827">
		<tag k="alt_name:no" v="Langbakk" />
		<tag k="name" v="Langbakkan" />
		<tag k="name:no" v="Langbakkan" />
		<tag k="place" v="farm" />
		<tag k="ssr:stedsnr" v="49357" />
	</node>
	<node id="-211217" lat="68.0895888895" lon="15.8533083379">
		<tag k="name" v="Heimdal" />
		<tag k="name:no" v="Heimdal" />
		<tag k="place" v="farm" />
		<tag k="ssr:stedsnr" v="49965" />
	</node>
	<node id="-213264" lat="67.764212736" lon="16.0303165299">
		<tag k="name" v="Sjuendevasstua" />
		<tag k="name:no" v="Sjuendevasstua" />
		<tag k="place" v="locality" />
		<tag k="ssr:stedsnr" v="838843" />
	</node>
	<node id="-211328" lat="67.833794448" lon="15.8446583312">
		<tag k="name" v="Makkvatnet" />
		<tag k="name:no" v="Makkvatnet" />
		<tag k="place" v="locality" />
		<tag k="ssr:stedsnr" v="78484" />
	</node>
	<node id="-213529" lat="67.6652754026" lon="16.3287719571">
		<tag k="name" v="Reinoksfjellet" />
		<tag k="name:no" v="Reinoksfjellet" />
		<tag k="place" v="locality" />
		<tag k="ssr:stedsnr" v="1076456" />
	</node>
	<node id="-210801" lat="68.1074055571" lon="15.5190444453">
		<tag k="name" v="Langmark" />
		<tag k="name:no" v="Langmark" />
		<tag k="place" v="farm" />
		<tag k="ssr:stedsnr" v="776257" />
	</node>
	<node id="-213233" lat="68.0978222223" lon="15.6183722305">
		<tag k="name" v="Haugly" />
		<tag k="name:no" v="Haugly" />
		<tag k="place" v="farm" />
		<tag k="ssr:stedsnr" v="838396" />
	</node>
	<node id="-213216" lat="68.0101972236" lon="15.4192805671">
		<tag k="name" v="Kirknes" />
		<tag k="name:no" v="Kirknes" />
		<tag k="place" v="farm" />
		<tag k="ssr:stedsnr" v="838091" />
	</node>
	<node id="-213214" lat="68.0240138922" lon="15.3547638831">
		<tag k="name" v="Solheim" />
		<tag k="name:no" v="Solheim" />
		<tag k="place" v="farm" />
		<tag k="ssr:stedsnr" v="838079" />
	</node>
	<node id="-213213" lat="68.11284722" lon="15.495313895">
		<tag k="name" v="Elvegård" />
		<tag k="name:no" v="Elvegård" />
		<tag k="place" v="farm" />
		<tag k="ssr:stedsnr" v="837452" />
	</node>
	<node id="-211160" lat="68.0514944405" lon="16.3181972156">
		<tag k="name" v="Lyngmo" />
		<tag k="name:no" v="Lyngmo" />
		<tag k="place" v="isolated_dwelling" />
		<tag k="ssr:stedsnr" v="39177" />
	</node>
	<node id="-213205" lat="68.0686055534" lon="15.8674666712">
		<tag k="name" v="Losbua" />
		<tag k="name:no" v="Losbua" />
		<tag k="place" v="isolated_dwelling" />
		<tag k="ssr:stedsnr" v="837258" />
	</node>
	<node id="-213202" lat="68.0950416633" lon="16.2766999916">
		<tag k="name" v="Kårvik" />
		<tag k="name:no" v="Kårvik" />
		<tag k="place" v="locality" />
		<tag k="ssr:stedsnr" v="832338" />
	</node>
	<node id="-213190" lat="68.190424997" lon="16.017055565">
		<tag k="name" v="Dalheim" />
		<tag k="name:no" v="Dalheim" />
		<tag k="place" v="farm" />
		<tag k="ssr:stedsnr" v="810660" />
	</node>
	<node id="-209953" lat="68.0402777809" lon="15.4084777803">
		<tag k="name" v="Gården" />
		<tag k="name:no" v="Gården" />
		<tag k="place" v="locality" />
		<tag k="ssr:stedsnr" v="473242" />
	</node>
	<node id="-211139" lat="68.0841523352" lon="15.5921619801">
		<tag k="fixme" v="consider place=hamlet" />
		<tag k="name" v="Uteid" />
		<tag k="name:no" v="Uteid" />
		<tag k="place" v="farm" />
		<tag k="ssr:stedsnr" v="17992" />
	</node>
	<node id="-211137" lat="68.0688777778" lon="15.4526888913">
		<tag k="name" v="Bjørkli" />
		<tag k="name:no" v="Bjørkli" />
		<tag k="place" v="farm" />
		<tag k="ssr:stedsnr" v="17970" />
	</node>
	<node id="-209952" lat="68.0472333337" lon="15.4168777741">
		<tag k="name" v="Thune" />
		<tag k="name:no" v="Thune" />
		<tag k="place" v="farm" />
		<tag k="ssr:stedsnr" v="473234" />
	</node>
	<node id="-213365" lat="68.087230556" lon="16.2979777684">
		<tag k="name" v="Sámeluokta - Lapplægran" />
		<tag k="name:no" v="Lapplægran" />
		<tag k="name:smj" v="Sámeluokta" />
		<tag k="place" v="isolated_dwelling" />
		<tag k="ssr:stedsnr" v="866511" />
	</node>
	<node id="-213179" lat="68.1657027801" lon="15.7008944458">
		<tag k="name" v="Sjømyr" />
		<tag k="name:no" v="Sjømyr" />
		<tag k="place" v="farm" />
		<tag k="ssr:stedsnr" v="806780" />
	</node>
	<node id="-213178" lat="68.1652249979" lon="15.6272916623">
		<tag k="alt_name:no" v="Hellevik" />
		<tag k="name" v="Hellevika" />
		<tag k="name:no" v="Hellevika" />
		<tag k="place" v="farm" />
		<tag k="ssr:stedsnr" v="806779" />
	</node>
	<node id="-213169" lat="68.0553916687" lon="15.7693277706">
		<tag k="name" v="Grunnvåg" />
		<tag k="name:no" v="Grunnvåg" />
		<tag k="place" v="farm" />
		<tag k="ssr:stedsnr" v="806587" />
	</node>
	<node id="-211120" lat="68.0473277811" lon="16.0310472235">
		<tag k="name" v="Nordvoll" />
		<tag k="name:no" v="Nordvoll" />
		<tag k="place" v="farm" />
		<tag k="ssr:stedsnr" v="17642" />
	</node>
	<node id="-213167" lat="68.0250805603" lon="16.1556249893">
		<tag k="name" v="Ytter-Helland" />
		<tag k="name:no" v="Ytter-Helland" />
		<tag k="place" v="farm" />
		<tag k="ssr:stedsnr" v="806575" />
	</node>
	<node id="-211117" lat="68.044852776" lon="15.7315666758">
		<tag k="alt_name:no" v="Kaldvåg, vestre" />
		<tag k="fixme" v="multiple name tags, choose one and add the other to alt_name" />
		<tag k="name" v="Rolfsbo;Vestre Kaldvåg" />
		<tag k="name:no" v="Rolfsbo;Vestre Kaldvåg" />
		<tag k="place" v="farm" />
		<tag k="ssr:stedsnr" v="17631" />
	</node>
	<node id="-213156" lat="67.8584279897" lon="15.9119786673">
		<tag k="alt_name:no" v="Strindnes" />
		<tag k="fixme" v="consider place=hamlet" />
		<tag k="name" v="Gilda - Strindneset" />
		<tag k="name:no" v="Strindneset" />
		<tag k="name:smj" v="Gilda" />
		<tag k="place" v="farm" />
		<tag k="ssr:stedsnr" v="806449" />
	</node>
	<node id="-213155" lat="67.9356277781" lon="16.2616166726">
		<tag k="name" v="Tjielloabme - Kjelomi" />
		<tag k="name:no" v="Kjelomi" />
		<tag k="name:smj" v="Tjielloabme" />
		<tag k="old_name:smj" v="Čielloapmi" />
		<tag k="place" v="locality" />
		<tag k="ssr:stedsnr" v="806340" />
	</node>
	<node id="-213151" lat="68.1430452605" lon="15.5788916822">
		<tag k="alt_name:no" v="Røsnes" />
		<tag k="fixme" v="consider place=hamlet" />
		<tag k="name" v="Røssnes" />
		<tag k="name:no" v="Røssnes" />
		<tag k="place" v="farm" />
		<tag k="ssr:stedsnr" v="805097" />
	</node>
	<node id="-213148" lat="68.1444055566" lon="15.4657388937">
		<tag k="name" v="Åsan" />
		<tag k="name:no" v="Åsan" />
		<tag k="place" v="farm" />
		<tag k="ssr:stedsnr" v="805086" />
	</node>
	<node id="-213145" lat="68.2243756488" lon="16.078293338">
		<tag k="name" v="Bognes" />
		<tag k="name:no" v="Bognes" />
		<tag k="place" v="farm" />
		<tag k="ssr:stedsnr" v="826816" />
	</node>
	<node id="-211091" lat="68.1588472207" lon="15.9004305632">
		<tag k="fixme" v="multiple name tags, choose one and add the other to alt_name" />
		<tag k="name" v="Skogly;Ytstedal" />
		<tag k="name:no" v="Skogly;Ytstedal" />
		<tag k="place" v="farm" />
		<tag k="ssr:stedsnr" v="17786" />
	</node>
	<node id="-211089" lat="68.1648767395" lon="15.702649097">
		<tag k="alt_name:no" v="Sommersel" />
		<tag k="name" v="Sommarsel" />
		<tag k="name:no" v="Sommarsel" />
		<tag k="place" v="farm" />
		<tag k="ssr:stedsnr" v="17782" />
	</node>
	<node id="-209602" lat="68.1816805517" lon="15.6084305465">
		<tag k="name" v="Fyrvika" />
		<tag k="name:no" v="Fyrvika" />
		<tag k="place" v="locality" />
		<tag k="ssr:stedsnr" v="291063" />
	</node>
	<node id="-211078" lat="67.9327861114" lon="16.4039389">
		<tag k="name" v="Stuorbealga" />
		<tag k="name:smj" v="Stuorbealga" />
		<tag k="place" v="locality" />
		<tag k="ssr:stedsnr" v="17369" />
	</node>
	<node id="-213122" lat="68.0652470361" lon="15.4736604058">
		<tag k="fixme" v="consider place=hamlet" />
		<tag k="name" v="Haukås" />
		<tag k="name:no" v="Haukås" />
		<tag k="place" v="farm" />
		<tag k="ssr:stedsnr" v="806961" />
	</node>
	<node id="-213117" lat="68.0445472243" lon="15.4014722197">
		<tag k="name" v="Stensrud" />
		<tag k="name:no" v="Stensrud" />
		<tag k="place" v="farm" />
		<tag k="ssr:stedsnr" v="806944" />
	</node>
	<node id="-211059" lat="68.223708329" lon="16.0583138954">
		<tag k="name" v="Myra" />
		<tag k="name:no" v="Myra" />
		<tag k="place" v="farm" />
		<tag k="ssr:stedsnr" v="871677" />
	</node>
	<node id="-213106" lat="68.1071916639" lon="15.8162333231">
		<tag k="name" v="Gjertrudslottet" />
		<tag k="name:no" v="Gjertrudslottet" />
		<tag k="place" v="farm" />
		<tag k="ssr:stedsnr" v="806673" />
	</node>
	<node id="-213105" lat="67.9908631157" lon="15.9515275942">
		<tag k="fixme" v="consider place=hamlet" />
		<tag k="name" v="Hillingan" />
		<tag k="name:no" v="Hillingan" />
		<tag k="place" v="farm" />
		<tag k="ssr:stedsnr" v="806669" />
	</node>
	<node id="-213101" lat="68.0741000014" lon="15.9126972336">
		<tag k="name" v="Breidvika" />
		<tag k="name:no" v="Breidvika" />
		<tag k="place" v="farm" />
		<tag k="ssr:stedsnr" v="806651" />
	</node>
	<node id="-211039" lat="68.2186305528" lon="16.0611638818">
		<tag k="name" v="Leiknesbø" />
		<tag k="name:no" v="Leiknesbø" />
		<tag k="place" v="farm" />
		<tag k="ssr:stedsnr" v="946079" />
	</node>
	<node id="-213086" lat="67.9259916892" lon="15.8965182893">
		<tag k="alt_name:no" v="Lagmannsvik" />
		<tag k="fixme" v="consider place=hamlet" />
		<tag k="name" v="Lagmannsvika" />
		<tag k="name:no" v="Lagmannsvika" />
		<tag k="place" v="farm" />
		<tag k="ssr:stedsnr" v="806382" />
	</node>
	<node id="-213070" lat="68.1210444474" lon="15.4906472108">
		<tag k="alt_name:no" v="Børvika" />
		<tag k="name" v="Børvik" />
		<tag k="name:no" v="Børvik" />
		<tag k="place" v="farm" />
		<tag k="ssr:stedsnr" v="806018" />
	</node>
	<node id="-211009" lat="68.0621638892" lon="16.6525111034">
		<tag k="name" v="Brakka" />
		<tag k="name:no" v="Brakka" />
		<tag k="place" v="farm" />
		<tag k="ssr:stedsnr" v="932728" />
	</node>
	<node id="-211004" lat="68.13552222" lon="16.1114583408">
		<tag k="name" v="Rørvikgården" />
		<tag k="name:no" v="Rørvikgården" />
		<tag k="place" v="farm" />
		<tag k="ssr:stedsnr" v="932582" />
	</node>
	<node id="-213046" lat="68.165399998" lon="15.9539916702">
		<tag k="name" v="Ranheim" />
		<tag k="name:no" v="Ranheim" />
		<tag k="place" v="isolated_dwelling" />
		<tag k="ssr:stedsnr" v="777873" />
	</node>
	<node id="-209246" lat="68.1795683342" lon="16.1018558106">
		<tag k="loc_name:smj" v="Gálbbeluokta" />
		<tag k="name" v="Kaldvik" />
		<tag k="name:no" v="Kaldvik" />
		<tag k="place" v="hamlet" />
		<tag k="ssr:stedsnr" v="981931" />
	</node>
	<node id="-210992" lat="68.0559166648" lon="15.4304555577">
		<tag k="alt_name:no" v="Nævernesvoll" />
		<tag k="name" v="Vollan" />
		<tag k="name:no" v="Vollan" />
		<tag k="place" v="isolated_dwelling" />
		<tag k="ssr:stedsnr" v="927968" />
	</node>
	<node id="-213000" lat="67.9933222216" lon="15.5666527725">
		<tag k="name" v="Teinvoll" />
		<tag k="name:no" v="Teinvoll" />
		<tag k="place" v="farm" />
		<tag k="ssr:stedsnr" v="776541" />
	</node>
	<node id="-210983" lat="68.1972722242" lon="16.0601027796">
		<tag k="name" v="Sjøvoll" />
		<tag k="name:no" v="Sjøvoll" />
		<tag k="place" v="isolated_dwelling" />
		<tag k="ssr:stedsnr" v="806832" />
	</node>
	<node id="-210970" lat="67.8602611119" lon="16.4641833343">
		<tag k="fixme" v="consider place=hamlet" />
		<tag k="name" v="Tjierrekluokta - Nordbukta" />
		<tag k="name:no" v="Nordbukta" />
		<tag k="name:smj" v="Tjierrekluokta" />
		<tag k="old_name:smj" v="Čierregluokta" />
		<tag k="place" v="farm" />
		<tag k="ssr:stedsnr" v="806356" />
	</node>
	<node id="-210963" lat="68.0871009902" lon="15.4778773008">
		<tag k="alt_name:no" v="Hansbakk" />
		<tag k="fixme" v="consider place=hamlet" />
		<tag k="name" v="Hansbakkan" />
		<tag k="name:no" v="Hansbakkan" />
		<tag k="place" v="farm" />
		<tag k="ssr:stedsnr" v="805996" />
	</node>
	<node id="-213010" lat="68.111069445" lon="15.4907111049">
		<tag k="name" v="Heim" />
		<tag k="name:no" v="Heim" />
		<tag k="place" v="farm" />
		<tag k="ssr:stedsnr" v="776434" />
	</node>
	<node id="-213005" lat="68.0085777798" lon="15.4037361098">
		<tag k="name" v="Øvergården" />
		<tag k="name:no" v="Øvergården" />
		<tag k="place" v="farm" />
		<tag k="ssr:stedsnr" v="777081" />
	</node>
	<node id="-210952" lat="67.9915277788" lon="15.6111194428">
		<tag k="name" v="Myrland" />
		<tag k="name:no" v="Myrland" />
		<tag k="place" v="farm" />
		<tag k="ssr:stedsnr" v="927914" />
	</node>
	<node id="-209361" lat="68.0873999965" lon="16.1132750049">
		<tag k="name" v="Bjørkeneset" />
		<tag k="name:no" v="Bjørkeneset" />
		<tag k="place" v="farm" />
		<tag k="ssr:stedsnr" v="82561" />
	</node>
	<node id="-210950" lat="68.0189010843" lon="15.3652549821">
		<tag k="fixme" v="consider place=hamlet" />
		<tag k="name" v="Steinsland" />
		<tag k="name:no" v="Steinsland" />
		<tag k="place" v="farm" />
		<tag k="ssr:stedsnr" v="927909" />
	</node>
</osm>
