<?xml version="1.0" encoding="UTF-8"?>
<osm generator="osmapis" version="0.6">
	<node id="-201215" lat="68.1351805599" lon="15.950094443">
		<tag k="name" v="Langåsmyra" />
		<tag k="name:no" v="Langåsmyra" />
		<tag k="natural" v="wetland" />
		<tag k="ssr:stedsnr" v="49518" />
	</node>
	<node id="-201725" lat="67.9074222247" lon="16.1928666737">
		<tag k="name" v="Gasskaládo" />
		<tag k="name:smj" v="Gasskaládo" />
		<tag k="old_name:smj" v="Gaskaládu" />
		<tag k="place" v="locality" />
		<tag k="ssr:stedsnr" v="199387" />
	</node>
	<node id="-201724" lat="67.853558335" lon="16.3558749984">
		<tag k="name" v="Skápjuovva" />
		<tag k="name:smj" v="Skápjuovva" />
		<tag k="natural" v="scree" />
		<tag k="old_name:smj" v="Skábejuovva" />
		<tag k="ssr:stedsnr" v="199359" />
	</node>
	<node id="-201211" lat="68.0920888872" lon="15.9602305535">
		<tag k="name" v="Stormyra" />
		<tag k="name:no" v="Stormyra" />
		<tag k="natural" v="wetland" />
		<tag k="ssr:stedsnr" v="49439" />
	</node>
	<node id="-203256" lat="68.1398194415" lon="15.7008416553">
		<tag k="name" v="Leirvågmyran" />
		<tag k="name:no" v="Leirvågmyran" />
		<tag k="natural" v="wetland" />
		<tag k="ssr:stedsnr" v="838684" />
	</node>
	<node id="-200532" lat="67.8041888917" lon="15.9795916688">
		<tag k="name" v="Langmyra" />
		<tag k="name:no" v="Langmyra" />
		<tag k="natural" v="wetland" />
		<tag k="ssr:stedsnr" v="655488" />
	</node>
	<node id="-201206" lat="68.067233332" lon="15.4673638931">
		<tag k="name" v="Steinura" />
		<tag k="name:no" v="Steinura" />
		<tag k="natural" v="scree" />
		<tag k="ssr:stedsnr" v="49374" />
	</node>
	<node id="-200617" lat="68.0250666712" lon="15.6894999942">
		<tag k="name" v="Lappstakkmyra" />
		<tag k="name:no" v="Lappstakkmyra" />
		<tag k="natural" v="wetland" />
		<tag k="ssr:stedsnr" v="898014" />
	</node>
	<node id="-201204" lat="68.0544388929" lon="15.590649989">
		<tag k="name" v="Herset" />
		<tag k="name:no" v="Herset" />
		<tag k="place" v="locality" />
		<tag k="ssr:stedsnr" v="49355" />
	</node>
	<node id="-202739" lat="68.0413194414" lon="16.0325277798">
		<tag k="name" v="Jernmyra" />
		<tag k="name:no" v="Jernmyra" />
		<tag k="natural" v="wetland" />
		<tag k="ssr:stedsnr" v="623592" />
	</node>
	<node id="-201198" lat="67.8375444425" lon="15.9810944549">
		<tag k="name" v="Lomtjønnmyra" />
		<tag k="name:no" v="Lomtjønnmyra" />
		<tag k="natural" v="wetland" />
		<tag k="ssr:stedsnr" v="49302" />
	</node>
	<node id="-201213" lat="68.1277916649" lon="15.6757333334">
		<tag k="name" v="Kuskarmyra" />
		<tag k="name:no" v="Kuskarmyra" />
		<tag k="natural" v="wetland" />
		<tag k="ssr:stedsnr" v="49467" />
	</node>
	<node id="-201707" lat="68.1228472222" lon="15.5867250053">
		<tag k="name" v="Reinmyra" />
		<tag k="name:no" v="Reinmyra" />
		<tag k="natural" v="wetland" />
		<tag k="ssr:stedsnr" v="199027" />
	</node>
	<node id="-200168" lat="67.7586999985" lon="16.2766916757">
		<tag k="name" v="Livsejuovva" />
		<tag k="name:smj" v="Livsejuovva" />
		<tag k="natural" v="scree" />
		<tag k="old_name:smj" v="Livssejuovva" />
		<tag k="ssr:stedsnr" v="502150" />
	</node>
	<node id="-201189" lat="68.0891527789" lon="15.5460111046">
		<tag k="name" v="Stormyra" />
		<tag k="name:no" v="Stormyra" />
		<tag k="natural" v="wetland" />
		<tag k="ssr:stedsnr" v="49234" />
	</node>
	<node id="-203236" lat="68.1306388894" lon="15.937052775">
		<tag k="name" v="Salen" />
		<tag k="name:no" v="Salen" />
		<tag k="natural" v="wetland" />
		<tag k="ssr:stedsnr" v="838522" />
	</node>
	<node id="-201187" lat="68.0804111102" lon="15.59804445">
		<tag k="name" v="Uteidmyran" />
		<tag k="name:no" v="Uteidmyran" />
		<tag k="natural" v="wetland" />
		<tag k="ssr:stedsnr" v="49143" />
	</node>
	<node id="-199675" lat="68.0455500035" lon="15.4469388942">
		<tag k="alt_name:no" v="Skjøråsen" />
		<tag k="name" v="Sjyråsen" />
		<tag k="name:no" v="Sjyråsen" />
		<tag k="place" v="locality" />
		<tag k="ssr:stedsnr" v="441935" />
	</node>
	<node id="-202207" lat="68.1581805573" lon="16.0945361015">
		<tag k="name" v="Blomen" />
		<tag k="name:no" v="Blomen" />
		<tag k="place" v="locality" />
		<tag k="ssr:stedsnr" v="385579" />
	</node>
	<node id="-202205" lat="68.1455227354" lon="16.1019641181">
		<tag k="name" v="Suojnnejiegge - Sennmyra" />
		<tag k="name:no" v="Sennmyra" />
		<tag k="name:smj" v="Suojnnejiegge" />
		<tag k="natural" v="wetland" />
		<tag k="ssr:stedsnr" v="385576" />
	</node>
	<node id="-202716" lat="67.9656750007" lon="16.4172500071">
		<tag k="name" v="Bájsájiegge" />
		<tag k="name:smj" v="Bájsájiegge" />
		<tag k="natural" v="wetland" />
		<tag k="old_name:smj" v="Báiccajeaggi" />
		<tag k="ssr:stedsnr" v="623289" />
	</node>
	<node id="-202201" lat="68.1923416637" lon="16.0428666567">
		<tag k="name" v="Sommarsetøyra" />
		<tag k="name:no" v="Sommarsetøyra" />
		<tag k="place" v="locality" />
		<tag k="ssr:stedsnr" v="385672" />
	</node>
	<node id="-202200" lat="68.0933555529" lon="16.0147527812">
		<tag k="name" v="Ibmejiegge" />
		<tag k="name:smj" v="Ibmejiegge" />
		<tag k="natural" v="wetland" />
		<tag k="ssr:stedsnr" v="385535" />
	</node>
	<node id="-202199" lat="68.0896611135" lon="16.0178944491">
		<tag k="name" v="Áhkkojiegge" />
		<tag k="name:smj" v="Áhkkojiegge" />
		<tag k="natural" v="wetland" />
		<tag k="ssr:stedsnr" v="385534" />
	</node>
	<node id="-199637" lat="67.8437527757" lon="16.3950500078">
		<tag k="name" v="Soarvve" />
		<tag k="name:smj" v="Soarvve" />
		<tag k="old_name:smj" v="Soarvi" />
		<tag k="place" v="locality" />
		<tag k="ssr:stedsnr" v="441359" />
	</node>
	<node id="-200148" lat="67.7963666704" lon="15.9488666779">
		<tag k="name" v="Johannesmyra" />
		<tag k="name:no" v="Johannesmyra" />
		<tag k="natural" v="wetland" />
		<tag k="ssr:stedsnr" v="473513" />
	</node>
	<node id="-201720" lat="67.9331194462" lon="16.4083416717">
		<tag k="name" v="Álmenik - Allmenningen" />
		<tag k="name:no" v="Allmenningen" />
		<tag k="name:smj" v="Álmenik" />
		<tag k="old_name:smj" v="Álmennik" />
		<tag k="place" v="locality" />
		<tag k="ssr:stedsnr" v="199340" />
	</node>
	<node id="-203213" lat="68.0255805522" lon="15.3154388776">
		<tag k="name" v="Rørvikmarka" />
		<tag k="name:no" v="Rørvikmarka" />
		<tag k="place" v="locality" />
		<tag k="ssr:stedsnr" v="838139" />
	</node>
	<node id="-201676" lat="68.0002305579" lon="15.412905567">
		<tag k="name" v="Kvitmyra" />
		<tag k="name:no" v="Kvitmyra" />
		<tag k="natural" v="wetland" />
		<tag k="ssr:stedsnr" v="170588" />
	</node>
	<node id="-203209" lat="68.0215944438" lon="15.3549500065">
		<tag k="name" v="Stenslandsmyran" />
		<tag k="name:no" v="Stenslandsmyran" />
		<tag k="natural" v="wetland" />
		<tag k="ssr:stedsnr" v="838084" />
	</node>
	<node id="-201548" lat="68.0044749994" lon="15.6103611069">
		<tag k="name" v="Stimyra" />
		<tag k="name:no" v="Stimyra" />
		<tag k="natural" v="wetland" />
		<tag k="ssr:stedsnr" v="138847" />
	</node>
	<node id="-201158" lat="67.805669442" lon="15.9750277753">
		<tag k="name" v="Forrhågmyra" />
		<tag k="name:no" v="Forrhågmyra" />
		<tag k="natural" v="wetland" />
		<tag k="ssr:stedsnr" v="48461" />
	</node>
	<node id="-202689" lat="68.1237472212" lon="15.6067972324">
		<tag k="name" v="Tverråsskogan" />
		<tag k="name:no" v="Tverråsskogan" />
		<tag k="place" v="locality" />
		<tag k="ssr:stedsnr" v="623001" />
	</node>
	<node id="-200636" lat="68.0672194453" lon="15.4087916681">
		<tag k="name" v="Åsmyran" />
		<tag k="name:no" v="Åsmyran" />
		<tag k="natural" v="wetland" />
		<tag k="ssr:stedsnr" v="898349" />
	</node>
	<node id="-203195" lat="68.1677388918" lon="15.6536527821">
		<tag k="name" v="Stormyra" />
		<tag k="name:no" v="Stormyra" />
		<tag k="natural" v="wetland" />
		<tag k="ssr:stedsnr" v="837192" />
	</node>
	<node id="-201657" lat="67.8531277813" lon="15.9491694346">
		<tag k="name" v="Båtlottmyra" />
		<tag k="name:no" v="Båtlottmyra" />
		<tag k="natural" v="wetland" />
		<tag k="ssr:stedsnr" v="170272" />
	</node>
	<node id="-200118" lat="67.7688555523" lon="15.980797227">
		<tag k="name" v="Johanslåtta" />
		<tag k="name:no" v="Johanslåtta" />
		<tag k="natural" v="wetland" />
		<tag k="ssr:stedsnr" v="655807" />
	</node>
	<node id="-201141" lat="67.9181277797" lon="16.4361138839">
		<tag k="name" v="Sis-Bælgga - Inner-Bælka" />
		<tag k="name:no" v="Inner-Bælka" />
		<tag k="name:smj" v="Sis-Bælgga" />
		<tag k="place" v="locality" />
		<tag k="ssr:stedsnr" v="22898" />
	</node>
	<node id="-201140" lat="68.0772305586" lon="16.2128500079">
		<tag k="historic" v="shieling" />
		<tag k="name" v="Setran" />
		<tag k="name:no" v="Setran" />
		<tag k="place" v="locality" />
		<tag k="ssr:stedsnr" v="22880" />
	</node>
	<node id="-200606" lat="68.1313250003" lon="15.6625111025">
		<tag k="name" v="Åsmyra" />
		<tag k="name:no" v="Åsmyra" />
		<tag k="natural" v="wetland" />
		<tag k="ssr:stedsnr" v="716445" />
	</node>
	<node id="-201645" lat="68.0744916708" lon="15.4918222251">
		<tag k="name" v="Løngsmyran" />
		<tag k="name:no" v="Løngsmyran" />
		<tag k="natural" v="wetland" />
		<tag k="ssr:stedsnr" v="170222" />
	</node>
	<node id="-200108" lat="67.8520499999" lon="15.9487611024">
		<tag k="name" v="Ospmyra" />
		<tag k="name:no" v="Ospmyra" />
		<tag k="natural" v="wetland" />
		<tag k="ssr:stedsnr" v="413271" />
	</node>
	<node id="-203179" lat="68.1483499975" lon="16.1203638892">
		<tag k="historic" v="shieling" />
		<tag k="name" v="Pemparjorda" />
		<tag k="name:no" v="Pemparjorda" />
		<tag k="place" v="locality" />
		<tag k="ssr:stedsnr" v="810893" />
	</node>
	<node id="-201641" lat="68.0821805549" lon="15.5857777734">
		<tag k="name" v="Nakkmyra" />
		<tag k="name:no" v="Nakkmyra" />
		<tag k="natural" v="wetland" />
		<tag k="ssr:stedsnr" v="170116" />
	</node>
	<node id="-200104" lat="68.0709416663" lon="15.4699666587">
		<tag k="name" v="Gropdalsmyra" />
		<tag k="name:no" v="Gropdalsmyra" />
		<tag k="natural" v="wetland" />
		<tag k="ssr:stedsnr" v="413344" />
	</node>
	<node id="-200103" lat="68.0712472216" lon="15.4351138809">
		<tag k="name" v="Holten" />
		<tag k="name:no" v="Holten" />
		<tag k="place" v="locality" />
		<tag k="ssr:stedsnr" v="413336" />
	</node>
	<node id="-201125" lat="68.0631583315" lon="15.4846666766">
		<tag k="alt_name:no" v="Bjørnskogen" />
		<tag k="name" v="Bjønskogan" />
		<tag k="name:no" v="Bjønskogan" />
		<tag k="place" v="locality" />
		<tag k="ssr:stedsnr" v="17966" />
	</node>
	<node id="-203172" lat="68.0447833335" lon="16.0044444324">
		<tag k="landuse" v="quarry" />
		<tag k="name" v="Lapplægergruva" />
		<tag k="name:no" v="Lapplægergruva" />
		<tag k="ssr:stedsnr" v="810773" />
	</node>
	<node id="-202659" lat="68.1582416652" lon="15.9068000023">
		<tag k="name" v="Hamnsteinen" />
		<tag k="name:no" v="Hamnsteinen" />
		<tag k="natural" v="stone" />
		<tag k="ssr:stedsnr" v="594642" />
	</node>
	<node id="-201121" lat="68.0191777813" lon="15.3843972306">
		<tag k="name" v="Valan" />
		<tag k="name:no" v="Valan" />
		<tag k="natural" v="wetland" />
		<tag k="ssr:stedsnr" v="17899" />
	</node>
	<node id="-201632" lat="68.1412805573" lon="15.4304000082">
		<tag k="name" v="Sørsjyåkran" />
		<tag k="name:no" v="Sørsjyåkran" />
		<tag k="place" v="locality" />
		<tag k="ssr:stedsnr" v="169855" />
	</node>
	<node id="-200095" lat="68.1077472188" lon="16.0984388959">
		<tag k="name" v="Kjerran" />
		<tag k="name:no" v="Kjerran" />
		<tag k="natural" v="scree" />
		<tag k="ssr:stedsnr" v="508578" />
	</node>
	<node id="-203166" lat="68.0461583349" lon="16.0396722207">
		<tag k="landuse" v="quarry" />
		<tag k="name" v="Burma" />
		<tag k="name:no" v="Burma" />
		<tag k="ssr:stedsnr" v="810670" />
	</node>
	<node id="-201629" lat="68.1224722222" lon="15.9884055441">
		<tag k="name" v="Ingerura" />
		<tag k="name:no" v="Ingerura" />
		<tag k="natural" v="scree" />
		<tag k="ssr:stedsnr" v="169438" />
	</node>
	<node id="-202651" lat="68.0071666701" lon="15.7708305523">
		<tag k="landuse" v="quarry" />
		<tag k="name" v="Kartsøygruva" />
		<tag k="name:no" v="Kartsøygruva" />
		<tag k="ssr:stedsnr" v="594606" />
	</node>
	<node id="-200090" lat="67.8948388863" lon="16.1997722289">
		<tag k="name" v="Tjuhppagállo" />
		<tag k="name:smj" v="Tjuhppagállo" />
		<tag k="natural" v="stone" />
		<tag k="ssr:stedsnr" v="507605" />
	</node>
	<node id="-201625" lat="68.160969444" lon="15.711813887">
		<tag k="name" v="Gårdsmyran" />
		<tag k="name:no" v="Gårdsmyran" />
		<tag k="natural" v="wetland" />
		<tag k="ssr:stedsnr" v="169194" />
	</node>
	<node id="-203159" lat="68.0824694451" lon="16.06330833">
		<tag k="name" v="Langosmyra" />
		<tag k="name:no" v="Langosmyra" />
		<tag k="natural" v="wetland" />
		<tag k="ssr:stedsnr" v="810582" />
	</node>
	<node id="-199861" lat="68.0753861113" lon="15.5053972334">
		<tag k="name" v="Lilandsmyran" />
		<tag k="name:no" v="Lilandsmyran" />
		<tag k="natural" v="wetland" />
		<tag k="ssr:stedsnr" v="473020" />
	</node>
	<node id="-203156" lat="68.0123916635" lon="16.1637166754">
		<tag k="name" v="Middagsskogen" />
		<tag k="name:no" v="Middagsskogen" />
		<tag k="place" v="locality" />
		<tag k="ssr:stedsnr" v="810567" />
	</node>
	<node id="-199571" lat="68.1319277757" lon="15.4304388849">
		<tag k="name" v="Stormyra" />
		<tag k="name:no" v="Stormyra" />
		<tag k="natural" v="wetland" />
		<tag k="ssr:stedsnr" v="291722" />
	</node>
	<node id="-199568" lat="68.1520833348" lon="15.7167722102">
		<tag k="name" v="Gullevikmyra" />
		<tag k="name:no" v="Gullevikmyra" />
		<tag k="natural" v="wetland" />
		<tag k="ssr:stedsnr" v="291685" />
	</node>
	<node id="-201197" lat="67.8533805574" lon="15.9543638889">
		<tag k="name" v="Stormyra" />
		<tag k="name:no" v="Stormyra" />
		<tag k="natural" v="wetland" />
		<tag k="ssr:stedsnr" v="49292" />
	</node>
	<node id="-200257" lat="67.8246777765" lon="15.9484388981">
		<tag k="name" v="Fjellmyran" />
		<tag k="name:no" v="Fjellmyran" />
		<tag k="natural" v="wetland" />
		<tag k="ssr:stedsnr" v="684465" />
	</node>
	<node id="-200579" lat="68.1248833356" lon="15.6475194365">
		<tag k="name" v="Forskog" />
		<tag k="name:no" v="Forskog" />
		<tag k="place" v="locality" />
		<tag k="ssr:stedsnr" v="885450" />
	</node>
	<node id="-199553" lat="68.0535277817" lon="15.3980416669">
		<tag k="name" v="Rødlimarka" />
		<tag k="name:no" v="Rødlimarka" />
		<tag k="place" v="locality" />
		<tag k="ssr:stedsnr" v="291329" />
	</node>
	<node id="-200063" lat="67.8940333302" lon="16.2579944523">
		<tag k="name" v="Slahpagállo" />
		<tag k="name:smj" v="Slahpagállo" />
		<tag k="natural" v="stone" />
		<tag k="ssr:stedsnr" v="385607" />
	</node>
	<node id="-200530" lat="67.8049999962" lon="15.9853944383">
		<tag k="name" v="Stormyra" />
		<tag k="name:no" v="Stormyra" />
		<tag k="natural" v="wetland" />
		<tag k="ssr:stedsnr" v="655482" />
	</node>
	<node id="-202619" lat="68.1060777741" lon="15.5178500017">
		<tag k="name" v="Skarvoll" />
		<tag k="name:no" v="Skarvoll" />
		<tag k="place" v="locality" />
		<tag k="ssr:stedsnr" v="594292" />
	</node>
	<node id="-201023" lat="68.115594441" lon="15.8769194478">
		<tag k="name" v="Krengelmyra" />
		<tag k="name:no" v="Krengelmyra" />
		<tag k="natural" v="wetland" />
		<tag k="ssr:stedsnr" v="898310" />
	</node>
	<node id="-199544" lat="68.0369305597" lon="15.3953750075">
		<tag k="name" v="Åmundsteinen" />
		<tag k="name:no" v="Åmundsteinen" />
		<tag k="natural" v="stone" />
		<tag k="ssr:stedsnr" v="291229" />
	</node>
	<node id="-199543" lat="67.9946277804" lon="15.5529000025">
		<tag k="name" v="Moan" />
		<tag k="name:no" v="Moan" />
		<tag k="place" v="locality" />
		<tag k="ssr:stedsnr" v="291568" />
	</node>
	<node id="-199542" lat="68.1366055588" lon="15.6916750062">
		<tag k="name" v="Gulskogen" />
		<tag k="name:no" v="Gulskogen" />
		<tag k="place" v="locality" />
		<tag k="ssr:stedsnr" v="291566" />
	</node>
	<node id="-200053" lat="68.0623027801" lon="15.498577775">
		<tag k="name" v="Myran" />
		<tag k="name:no" v="Myran" />
		<tag k="natural" v="wetland" />
		<tag k="ssr:stedsnr" v="502956" />
	</node>
	<node id="-199212" lat="68.0910944446" lon="16.0028361094">
		<tag k="name" v="Stormyra" />
		<tag k="name:no" v="Stormyra" />
		<tag k="natural" v="wetland" />
		<tag k="ssr:stedsnr" v="22534" />
	</node>
	<node id="-201586" lat="68.0474777774" lon="16.1844138781">
		<tag k="historic" v="shieling" />
		<tag k="name" v="Litl-Hulløyjorda" />
		<tag k="name:no" v="Litl-Hulløyjorda" />
		<tag k="place" v="locality" />
		<tag k="ssr:stedsnr" v="142879" />
	</node>
	<node id="-203119" lat="67.9742833356" lon="15.973833329">
		<tag k="name" v="Grønskogen" />
		<tag k="name:no" v="Grønskogen" />
		<tag k="place" v="locality" />
		<tag k="ssr:stedsnr" v="806652" />
	</node>
	<node id="-199532" lat="68.0803777738" lon="15.6738111092">
		<tag k="name" v="Stengningsmyra" />
		<tag k="name:no" v="Stengningsmyra" />
		<tag k="natural" v="wetland" />
		<tag k="ssr:stedsnr" v="291072" />
	</node>
	<node id="-201066" lat="67.8905833316" lon="16.2450694401">
		<tag k="name" v="Tjájnne" />
		<tag k="name:smj" v="Tjájnne" />
		<tag k="place" v="locality" />
		<tag k="ssr:stedsnr" v="17360" />
	</node>
	<node id="-201064" lat="68.0883027762" lon="15.3388194548">
		<tag k="name" v="Ballsteinurda" />
		<tag k="name:no" v="Ballsteinurda" />
		<tag k="natural" v="scree" />
		<tag k="ssr:stedsnr" v="17078" />
	</node>
	<node id="-199527" lat="68.0172361139" lon="15.6482166552">
		<tag k="name" v="Skjellsteinen" />
		<tag k="name:no" v="Skjellsteinen" />
		<tag k="natural" v="stone" />
		<tag k="ssr:stedsnr" v="291040" />
	</node>
	<node id="-202596" lat="68.0451416643" lon="15.9509749931">
		<tag k="name" v="Kvannskogen" />
		<tag k="name:no" v="Kvannskogen" />
		<tag k="place" v="locality" />
		<tag k="ssr:stedsnr" v="594105" />
	</node>
	<node id="-202080" lat="67.8066138918" lon="16.6180499958">
		<tag k="name" v="Sjiellajuovva" />
		<tag k="name:smj" v="Sjiellajuovva" />
		<tag k="natural" v="scree" />
		<tag k="old_name:smj" v="Šiellajuovva" />
		<tag k="ssr:stedsnr" v="380140" />
	</node>
	<node id="-200080" lat="68.0402277809" lon="16.0144166736">
		<tag k="name" v="Lapplægerskogen" />
		<tag k="name:no" v="Lapplægerskogen" />
		<tag k="place" v="locality" />
		<tag k="ssr:stedsnr" v="506799" />
	</node>
	<node id="-200539" lat="67.9783722264" lon="15.8950222233">
		<tag k="name" v="Stormyra" />
		<tag k="name:no" v="Stormyra" />
		<tag k="natural" v="wetland" />
		<tag k="ssr:stedsnr" v="655739" />
	</node>
	<node id="-199513" lat="67.8139333317" lon="15.9713138915">
		<tag k="name" v="Kvernsteinan" />
		<tag k="name:no" v="Kvernsteinan" />
		<tag k="natural" v="stone" />
		<tag k="ssr:stedsnr" v="170526" />
	</node>
	<node id="-201048" lat="67.7918000029" lon="16.5433638824">
		<tag k="name" v="Bráhkkajiegge" />
		<tag k="name:smj" v="Bráhkkajiegge" />
		<tag k="natural" v="wetland" />
		<tag k="ssr:stedsnr" v="932919" />
	</node>
	<node id="-202068" lat="67.9276027758" lon="15.8391916569">
		<tag k="name" v="Storsteinan" />
		<tag k="name:no" v="Storsteinan" />
		<tag k="natural" v="stone" />
		<tag k="ssr:stedsnr" v="352830" />
	</node>
	<node id="-199506" lat="68.0183611098" lon="15.7569583334">
		<tag k="name" v="Kjerkmyra" />
		<tag k="name:no" v="Kjerkmyra" />
		<tag k="natural" v="wetland" />
		<tag k="ssr:stedsnr" v="170022" />
	</node>
	<node id="-200163" lat="67.8060333321" lon="16.5441444417">
		<tag k="name" v="Buvrásj" />
		<tag k="name:smj" v="Buvrásj" />
		<tag k="place" v="locality" />
		<tag k="ssr:stedsnr" v="502127" />
	</node>
	<node id="-201039" lat="68.0510999962" lon="16.0437860995">
		<tag k="landuse" v="quarry" />
		<tag k="name" v="Per-Jongruva" />
		<tag k="name:no" v="Per-Jongruva" />
		<tag k="ssr:stedsnr" v="932629" />
	</node>
	<node id="-200333" lat="68.0077527819" lon="15.3908972186">
		<tag k="name" v="Johaugmyra" />
		<tag k="name:no" v="Johaugmyra" />
		<tag k="natural" v="wetland" />
		<tag k="ssr:stedsnr" v="685871" />
	</node>
	<node id="-202572" lat="67.8021527765" lon="16.542594439">
		<tag k="name" v="Sájvajiegge" />
		<tag k="name:smj" v="Sájvajiegge" />
		<tag k="natural" v="wetland" />
		<tag k="ssr:stedsnr" v="567943" />
	</node>
	<node id="-202059" lat="68.1455722193" lon="15.9455333395">
		<tag k="name" v="Olamyra" />
		<tag k="name:no" v="Olamyra" />
		<tag k="natural" v="wetland" />
		<tag k="ssr:stedsnr" v="352706" />
	</node>
	<node id="-200522" lat="68.0858722238" lon="15.7182888808">
		<tag k="name" v="Hestmarka" />
		<tag k="name:no" v="Hestmarka" />
		<tag k="place" v="locality" />
		<tag k="ssr:stedsnr" v="655089" />
	</node>
	<node id="-202569" lat="67.9989888865" lon="16.3375583308">
		<tag k="name" v="Munkeskogen" />
		<tag k="name:no" v="Munkeskogen" />
		<tag k="place" v="locality" />
		<tag k="ssr:stedsnr" v="567915" />
	</node>
	<node id="-201031" lat="67.9928611076" lon="15.796122232">
		<tag k="name" v="Kolskogen" />
		<tag k="name:no" v="Kolskogen" />
		<tag k="place" v="locality" />
		<tag k="ssr:stedsnr" v="898724" />
	</node>
	<node id="-203077" lat="68.1347166638" lon="15.4565999961">
		<tag k="name" v="Svartmyra" />
		<tag k="name:no" v="Svartmyra" />
		<tag k="natural" v="wetland" />
		<tag k="ssr:stedsnr" v="806093" />
	</node>
	<node id="-202564" lat="68.0416833333" lon="16.0341472331">
		<tag k="name" v="Brentåsmyran" />
		<tag k="name:no" v="Brentåsmyran" />
		<tag k="natural" v="wetland" />
		<tag k="ssr:stedsnr" v="567794" />
	</node>
	<node id="-202563" lat="68.0468277757" lon="16.0098277827">
		<tag k="name" v="Trettbakkmyran" />
		<tag k="name:no" v="Trettbakkmyran" />
		<tag k="natural" v="wetland" />
		<tag k="ssr:stedsnr" v="567745" />
	</node>
	<node id="-201025" lat="68.1567999973" lon="15.6576111192">
		<tag k="name" v="Skråmyra" />
		<tag k="name:no" v="Skråmyra" />
		<tag k="natural" v="wetland" />
		<tag k="ssr:stedsnr" v="898673" />
	</node>
	<node id="-202047" lat="68.0050416638" lon="15.6591555521">
		<tag k="name" v="Håkonhals-storskogen" />
		<tag k="name:no" v="Håkonhals-storskogen" />
		<tag k="place" v="locality" />
		<tag k="ssr:stedsnr" v="352636" />
	</node>
	<node id="-202558" lat="68.0502166691" lon="16.0429416563">
		<tag k="landuse" v="quarry" />
		<tag k="name" v="Øver-Øyvollgruva" />
		<tag k="name:no" v="Øver-Øyvollgruva" />
		<tag k="ssr:stedsnr" v="567653" />
	</node>
	<node id="-202556" lat="68.0464083299" lon="16.0415555438">
		<tag k="landuse" v="quarry" />
		<tag k="name" v="Kvartsbruddet" />
		<tag k="name:no" v="Kvartsbruddet" />
		<tag k="ssr:stedsnr" v="567651" />
	</node>
	<node id="-201183" lat="68.015591668" lon="15.4017055644">
		<tag k="name" v="Lønnskogen" />
		<tag k="name:no" v="Lønnskogen" />
		<tag k="place" v="locality" />
		<tag k="ssr:stedsnr" v="49094" />
	</node>
	<node id="-202040" lat="67.9965166695" lon="15.8077138853">
		<tag k="landuse" v="quarry" />
		<tag k="name" v="Litlgjotenåggruva" />
		<tag k="name:no" v="Litlgjotenåggruva" />
		<tag k="ssr:stedsnr" v="352610" />
	</node>
	<node id="-201012" lat="68.0179500043" lon="15.3157916655">
		<tag k="name" v="Nylendet" />
		<tag k="name:no" v="Nylendet" />
		<tag k="place" v="locality" />
		<tag k="ssr:stedsnr" v="898056" />
	</node>
	<node id="-202038" lat="68.1311583346" lon="15.9135111025">
		<tag k="name" v="Smakarmyra" />
		<tag k="name:no" v="Smakarmyra" />
		<tag k="natural" v="wetland" />
		<tag k="ssr:stedsnr" v="352484" />
	</node>
	<node id="-202548" lat="68.0886611144" lon="15.9954138777">
		<tag k="name" v="Storsteinen" />
		<tag k="name:no" v="Storsteinen" />
		<tag k="natural" v="stone" />
		<tag k="ssr:stedsnr" v="567562" />
	</node>
	<node id="-201011" lat="68.1259000012" lon="15.6868694546">
		<tag k="name" v="Stormyra" />
		<tag k="name:no" v="Stormyra" />
		<tag k="natural" v="wetland" />
		<tag k="ssr:stedsnr" v="898413" />
	</node>
	<node id="-200499" lat="67.8806805574" lon="16.1532694455">
		<tag k="name" v="Hántsigállo" />
		<tag k="name:smj" v="Hántsigállo" />
		<tag k="natural" v="stone" />
		<tag k="ssr:stedsnr" v="623444" />
	</node>
	<node id="-202032" lat="68.1389861145" lon="15.8971805456">
		<tag k="name" v="Ospeskogen" />
		<tag k="name:no" v="Ospeskogen" />
		<tag k="place" v="locality" />
		<tag k="ssr:stedsnr" v="352380" />
	</node>
	<node id="-201006" lat="67.8328000027" lon="15.9729222216">
		<tag k="name" v="Skjellmyra" />
		<tag k="name:no" v="Skjellmyra" />
		<tag k="natural" v="wetland" />
		<tag k="ssr:stedsnr" v="898254" />
	</node>
	<node id="-201949" lat="68.1481000009" lon="16.1091805557">
		<tag k="name" v="Langmyra" />
		<tag k="name:no" v="Langmyra" />
		<tag k="natural" v="wetland" />
		<tag k="ssr:stedsnr" v="325575" />
	</node>
	<node id="-199980" lat="67.8665333339" lon="15.9601861122">
		<tag k="alt_name:no" v="Stongsethaugen" />
		<tag k="name" v="Stongsethågan" />
		<tag k="name:no" v="Stongsethågan" />
		<tag k="place" v="locality" />
		<tag k="ssr:stedsnr" v="502456" />
	</node>
	<node id="-202027" lat="68.0806249992" lon="15.9126250109">
		<tag k="name" v="Laksvikmyra" />
		<tag k="name:no" v="Laksvikmyra" />
		<tag k="natural" v="wetland" />
		<tag k="ssr:stedsnr" v="352329" />
	</node>
	<node id="-200714" lat="68.0432972179" lon="16.025272223">
		<tag k="landuse" v="quarry" />
		<tag k="name" v="Litlbakkgruva" />
		<tag k="name:no" v="Litlbakkgruva" />
		<tag k="ssr:stedsnr" v="749829" />
	</node>
	<node id="-199226" lat="68.1323499991" lon="15.981500006">
		<tag k="name" v="Småmyran" />
		<tag k="name:no" v="Småmyran" />
		<tag k="natural" v="wetland" />
		<tag k="ssr:stedsnr" v="230427" />
	</node>
	<node id="-201436" lat="67.8147277806" lon="15.9967138913">
		<tag k="name" v="Kjerksteinen" />
		<tag k="name:no" v="Kjerksteinen" />
		<tag k="natural" v="stone" />
		<tag k="ssr:stedsnr" v="109453" />
	</node>
	<node id="-199473" lat="67.7949666664" lon="16.5484611214">
		<tag k="name" v="Gámájiegge" />
		<tag k="name:smj" v="Gámájiegge" />
		<tag k="natural" v="wetland" />
		<tag k="ssr:stedsnr" v="264916" />
	</node>
	<node id="-199971" lat="67.8348249967" lon="16.454166671">
		<tag k="name" v="Gihttá" />
		<tag k="name:smj" v="Gihttá" />
		<tag k="old_name:smj" v="Gihtta" />
		<tag k="place" v="locality" />
		<tag k="ssr:stedsnr" v="502343" />
	</node>
	<node id="-203042" lat="67.7797916668" lon="15.9862472247">
		<tag k="name" v="Krestianslåtta" />
		<tag k="name:no" v="Krestianslåtta" />
		<tag k="natural" v="wetland" />
		<tag k="ssr:stedsnr" v="777837" />
	</node>
	<node id="-200993" lat="68.0447388853" lon="16.0369333396">
		<tag k="landuse" v="quarry" />
		<tag k="name" v="Jennygruven" />
		<tag k="name:no" v="Jennygruven" />
		<tag k="ssr:stedsnr" v="871772" />
	</node>
	<node id="-199455" lat="68.021366665" lon="16.1334222306">
		<tag k="name" v="Stormyran" />
		<tag k="name:no" v="Stormyran" />
		<tag k="natural" v="wetland" />
		<tag k="ssr:stedsnr" v="264559" />
	</node>
	<node id="-199453" lat="68.0900499971" lon="15.9901750045">
		<tag k="name" v="Lijggejiegge" />
		<tag k="name:smj" v="Lijggejiegge" />
		<tag k="natural" v="wetland" />
		<tag k="ssr:stedsnr" v="264527" />
	</node>
	<node id="-200988" lat="67.8829527823" lon="16.2112333226">
		<tag k="name" v="Skåhpebuollda" />
		<tag k="name:smj" v="Skåhpebuollda" />
		<tag k="place" v="locality" />
		<tag k="ssr:stedsnr" v="871561" />
	</node>
	<node id="-200607" lat="68.1188222192" lon="15.7150749999">
		<tag k="name" v="Småmyren" />
		<tag k="name:no" v="Småmyren" />
		<tag k="natural" v="wetland" />
		<tag k="ssr:stedsnr" v="716456" />
	</node>
	<node id="-199448" lat="67.8460972198" lon="15.9778888875">
		<tag k="name" v="Kjerkfjelloran" />
		<tag k="name:no" v="Kjerkfjelloran" />
		<tag k="natural" v="scree" />
		<tag k="ssr:stedsnr" v="110202" />
	</node>
	<node id="-202007" lat="68.0829694417" lon="15.7024027742">
		<tag k="name" v="Matismyra" />
		<tag k="name:no" v="Matismyra" />
		<tag k="natural" v="wetland" />
		<tag k="ssr:stedsnr" v="352081" />
	</node>
	<node id="-203030" lat="68.1268055601" lon="15.7143805492">
		<tag k="name" v="Røddan" />
		<tag k="name:no" v="Røddan" />
		<tag k="place" v="locality" />
		<tag k="ssr:stedsnr" v="777621" />
	</node>
	<node id="-203029" lat="68.0027999995" lon="15.4860777844">
		<tag k="name" v="Stormyra" />
		<tag k="name:no" v="Stormyra" />
		<tag k="natural" v="wetland" />
		<tag k="ssr:stedsnr" v="777596" />
	</node>
	<node id="-200605" lat="68.1306972235" lon="15.6696138937">
		<tag k="name" v="Vardmyra" />
		<tag k="name:no" v="Vardmyra" />
		<tag k="natural" v="wetland" />
		<tag k="ssr:stedsnr" v="716443" />
	</node>
	<node id="-203027" lat="68.1382222186" lon="15.9071972179">
		<tag k="name" v="Flåtmyra" />
		<tag k="name:no" v="Flåtmyra" />
		<tag k="natural" v="wetland" />
		<tag k="ssr:stedsnr" v="777383" />
	</node>
	<node id="-199441" lat="68.1591722259" lon="15.6987583432">
		<tag k="name" v="Elskovbakkmyra" />
		<tag k="name:no" v="Elskovbakkmyra" />
		<tag k="natural" v="wetland" />
		<tag k="ssr:stedsnr" v="109623" />
	</node>
	<node id="-202510" lat="68.0227333357" lon="15.6590749958">
		<tag k="landuse" v="quarry" />
		<tag k="name" v="Svenskgruva" />
		<tag k="name:no" v="Svenskgruva" />
		<tag k="ssr:stedsnr" v="655005" />
	</node>
	<node id="-203021" lat="68.128905556" lon="15.9571555516">
		<tag k="name" v="Heimerura" />
		<tag k="name:no" v="Heimerura" />
		<tag k="natural" v="scree" />
		<tag k="ssr:stedsnr" v="777490" />
	</node>
	<node id="-201993" lat="68.0862611083" lon="15.7431138822">
		<tag k="name" v="Pollmyra" />
		<tag k="name:no" v="Pollmyra" />
		<tag k="natural" v="wetland" />
		<tag k="ssr:stedsnr" v="352958" />
	</node>
	<node id="-201772" lat="68.0104055592" lon="15.5288861235">
		<tag k="name" v="Gullskogen" />
		<tag k="name:no" v="Gullskogen" />
		<tag k="place" v="locality" />
		<tag k="ssr:stedsnr" v="199854" />
	</node>
	<node id="-200966" lat="67.8529527754" lon="16.0147138881">
		<tag k="name" v="Rønnelvmyra" />
		<tag k="name:no" v="Rønnelvmyra" />
		<tag k="natural" v="wetland" />
		<tag k="ssr:stedsnr" v="838263" />
	</node>
	<node id="-201989" lat="67.8632166702" lon="15.9891305467">
		<tag k="name" v="Reinsvaet" />
		<tag k="name:no" v="Reinsvaet" />
		<tag k="place" v="locality" />
		<tag k="ssr:stedsnr" v="351099" />
	</node>
	<node id="-203008" lat="67.8582083316" lon="15.9010944499">
		<tag k="name" v="Likkjmyra" />
		<tag k="name:no" v="Likkjmyra" />
		<tag k="natural" v="wetland" />
		<tag k="ssr:stedsnr" v="777171" />
	</node>
	<node id="-203004" lat="68.0104222239" lon="15.6364500091">
		<tag k="name" v="Vannskjellmyra" />
		<tag k="name:no" v="Vannskjellmyra" />
		<tag k="natural" v="wetland" />
		<tag k="ssr:stedsnr" v="777023" />
	</node>
	<node id="-201466" lat="68.0062416682" lon="15.6746388932">
		<tag k="name" v="Tortenhola" />
		<tag k="name:no" v="Tortenhola" />
		<tag k="natural" v="wetland" />
		<tag k="ssr:stedsnr" v="110665" />
	</node>
	<node id="-200439" lat="68.080630554" lon="15.6874527745">
		<tag k="name" v="Suggamyra" />
		<tag k="name:no" v="Suggamyra" />
		<tag k="natural" v="wetland" />
		<tag k="ssr:stedsnr" v="716083" />
	</node>
	<node id="-202845" lat="68.0686972263" lon="15.417522229">
		<tag k="name" v="Skarmyra" />
		<tag k="name:no" v="Skarmyra" />
		<tag k="natural" v="wetland" />
		<tag k="ssr:stedsnr" v="655355" />
	</node>
	<node id="-203163" lat="68.1385999977" lon="16.0547722305">
		<tag k="name" v="Gullikmyra" />
		<tag k="name:no" v="Gullikmyra" />
		<tag k="natural" v="wetland" />
		<tag k="ssr:stedsnr" v="810610" />
	</node>
	<node id="-201456" lat="68.0856861116" lon="15.7326277804">
		<tag k="name" v="Pollora" />
		<tag k="name:no" v="Pollora" />
		<tag k="natural" v="scree" />
		<tag k="ssr:stedsnr" v="109962" />
	</node>
	<node id="-202990" lat="67.9986416655" lon="15.5780666717">
		<tag k="name" v="Storbakkmyra" />
		<tag k="name:no" v="Storbakkmyra" />
		<tag k="natural" v="wetland" />
		<tag k="ssr:stedsnr" v="776533" />
	</node>
	<node id="-199917" lat="67.9889888871" lon="15.8704750104">
		<tag k="name" v="Stormyra" />
		<tag k="name:no" v="Stormyra" />
		<tag k="natural" v="wetland" />
		<tag k="ssr:stedsnr" v="473817" />
	</node>
	<node id="-199404" lat="68.1057999961" lon="15.8929944309">
		<tag k="name" v="Sennmyran" />
		<tag k="name:no" v="Sennmyran" />
		<tag k="natural" v="wetland" />
		<tag k="ssr:stedsnr" v="260709" />
	</node>
	<node id="-199915" lat="68.1320694441" lon="15.4190027886">
		<tag k="name" v="Slåttmyra" />
		<tag k="name:no" v="Slåttmyra" />
		<tag k="natural" v="wetland" />
		<tag k="ssr:stedsnr" v="473737" />
	</node>
	<node id="-199914" lat="68.0014916629" lon="15.8212083342">
		<tag k="name" v="Hegghola" />
		<tag k="name:no" v="Hegghola" />
		<tag k="natural" v="wetland" />
		<tag k="ssr:stedsnr" v="473732" />
	</node>
	<node id="-200937" lat="68.0709555583" lon="16.6432583359">
		<tag k="name" v="Dinessteinen" />
		<tag k="name:no" v="Dinessteinen" />
		<tag k="natural" v="stone" />
		<tag k="ssr:stedsnr" v="932730" />
	</node>
	<node id="-202984" lat="68.0725027748" lon="15.9433055617">
		<tag k="name" v="Langvikmyran" />
		<tag k="name:no" v="Langvikmyran" />
		<tag k="natural" v="wetland" />
		<tag k="ssr:stedsnr" v="767937" />
	</node>
	<node id="-202471" lat="68.0482249975" lon="15.6767861058">
		<tag k="name" v="Hestmarka" />
		<tag k="name:no" v="Hestmarka" />
		<tag k="place" v="locality" />
		<tag k="ssr:stedsnr" v="562609" />
	</node>
	<node id="-201445" lat="68.0066638928" lon="15.7591805598">
		<tag k="name" v="Hamnmyran" />
		<tag k="name:no" v="Hamnmyran" />
		<tag k="natural" v="wetland" />
		<tag k="ssr:stedsnr" v="109573" />
	</node>
	<node id="-203488" lat="67.761822223" lon="16.0381638873">
		<tag k="name" v="Larsslåtta" />
		<tag k="name:no" v="Larsslåtta" />
		<tag k="natural" v="wetland" />
		<tag k="ssr:stedsnr" v="959812" />
	</node>
	<node id="-201439" lat="68.1251472235" lon="15.426419446">
		<tag k="name" v="Kirksteinan" />
		<tag k="name:no" v="Kirksteinan" />
		<tag k="natural" v="stone" />
		<tag k="ssr:stedsnr" v="109468" />
	</node>
	<node id="-202973" lat="68.1490138885" lon="16.1182722261">
		<tag k="name" v="Pemparmyra" />
		<tag k="name:no" v="Pemparmyra" />
		<tag k="natural" v="wetland" />
		<tag k="ssr:stedsnr" v="750861" />
	</node>
	<node id="-202972" lat="68.1454972233" lon="16.1142972294">
		<tag k="name" v="Bjørnmyra" />
		<tag k="name:no" v="Bjørnmyra" />
		<tag k="natural" v="wetland" />
		<tag k="ssr:stedsnr" v="750857" />
	</node>
	<node id="-203483" lat="68.0009083374" lon="15.8577777879">
		<tag k="name" v="Sennmyra" />
		<tag k="name:no" v="Sennmyra" />
		<tag k="natural" v="wetland" />
		<tag k="ssr:stedsnr" v="959714" />
	</node>
	<node id="-200919" lat="68.0819000025" lon="15.4597444567">
		<tag k="name" v="Tortenåsmyra" />
		<tag k="name:no" v="Tortenåsmyra" />
		<tag k="natural" v="wetland" />
		<tag k="ssr:stedsnr" v="928000" />
	</node>
	<node id="-202966" lat="68.15755" lon="16.0501861124">
		<tag k="name" v="Stolpmyra" />
		<tag k="name:no" v="Stolpmyra" />
		<tag k="natural" v="wetland" />
		<tag k="ssr:stedsnr" v="750567" />
	</node>
	<node id="-201429" lat="68.113858333" lon="15.6139083423">
		<tag k="name" v="Sjurnesskogen" />
		<tag k="name:no" v="Sjurnesskogen" />
		<tag k="place" v="locality" />
		<tag k="ssr:stedsnr" v="109298" />
	</node>
	<node id="-201427" lat="68.0833277773" lon="15.6700305591">
		<tag k="name" v="Hestbakkmyra" />
		<tag k="name:no" v="Hestbakkmyra" />
		<tag k="natural" v="wetland" />
		<tag k="ssr:stedsnr" v="109080" />
	</node>
	<node id="-199890" lat="67.8269749994" lon="15.9945611039">
		<tag k="name" v="Skreddarora" />
		<tag k="name:no" v="Skreddarora" />
		<tag k="natural" v="scree" />
		<tag k="ssr:stedsnr" v="473284" />
	</node>
	<node id="-201935" lat="68.0808361087" lon="16.0792749922">
		<tag k="landuse" v="quarry" />
		<tag k="name" v="Storvikfjellet" />
		<tag k="name:no" v="Storvikfjellet" />
		<tag k="ssr:stedsnr" v="324563" />
	</node>
	<node id="-201133" lat="68.102788892" lon="16.0081027847">
		<tag k="name" v="Buoládak" />
		<tag k="name:smj" v="Buoládak" />
		<tag k="place" v="locality" />
		<tag k="ssr:stedsnr" v="22553" />
	</node>
	<node id="-200653" lat="67.9312305565" lon="15.8978722115">
		<tag k="name" v="Storhola" />
		<tag k="name:no" v="Storhola" />
		<tag k="natural" v="wetland" />
		<tag k="ssr:stedsnr" v="898861" />
	</node>
	<node id="-203468" lat="67.9902333326" lon="15.627788891">
		<tag k="name" v="Nattmålsmyra" />
		<tag k="name:no" v="Nattmålsmyra" />
		<tag k="natural" v="wetland" />
		<tag k="ssr:stedsnr" v="959624" />
	</node>
	<node id="-199458" lat="68.1532833347" lon="16.0794916758">
		<tag k="name" v="Hansenmyra" />
		<tag k="name:no" v="Hansenmyra" />
		<tag k="natural" v="wetland" />
		<tag k="ssr:stedsnr" v="264565" />
	</node>
	<node id="-201417" lat="68.0894249971" lon="15.5696666563">
		<tag k="name" v="Skjellmyra" />
		<tag k="name:no" v="Skjellmyra" />
		<tag k="natural" v="wetland" />
		<tag k="ssr:stedsnr" v="109042" />
	</node>
	<node id="-202952" lat="68.2196111091" lon="16.0857444433">
		<tag k="name" v="Stormyra" />
		<tag k="name:no" v="Stormyra" />
		<tag k="natural" v="wetland" />
		<tag k="ssr:stedsnr" v="749734" />
	</node>
	<node id="-200652" lat="67.921263893" lon="15.8004638892">
		<tag k="name" v="Reinloftet" />
		<tag k="name:no" v="Reinloftet" />
		<tag k="place" v="locality" />
		<tag k="ssr:stedsnr" v="898859" />
	</node>
	<node id="-200902" lat="67.9992166662" lon="15.5712194495">
		<tag k="alt_name:no" v="Ringvoll" />
		<tag k="name" v="Ringvollen" />
		<tag k="name:no" v="Ringvollen" />
		<tag k="place" v="locality" />
		<tag k="ssr:stedsnr" v="927905" />
	</node>
	<node id="-201411" lat="68.0890083319" lon="15.6114416588">
		<tag k="name" v="Vassmyra" />
		<tag k="name:no" v="Vassmyra" />
		<tag k="natural" v="wetland" />
		<tag k="ssr:stedsnr" v="109011" />
	</node>
	<node id="-203458" lat="67.8069472241" lon="16.0050749985">
		<tag k="name" v="Tømmermyra" />
		<tag k="name:no" v="Tømmermyra" />
		<tag k="natural" v="wetland" />
		<tag k="ssr:stedsnr" v="959475" />
	</node>
	<node id="-200385" lat="68.1096222209" lon="15.3884527683">
		<tag k="name" v="Vikmyra" />
		<tag k="name:no" v="Vikmyra" />
		<tag k="natural" v="wetland" />
		<tag k="ssr:stedsnr" v="562021" />
	</node>
	<node id="-201919" lat="68.018711114" lon="15.5523722244">
		<tag k="alt_name:no" v="Byggholmurda" />
		<tag k="name" v="Byggholmura" />
		<tag k="name:no" v="Byggholmura" />
		<tag k="natural" v="scree" />
		<tag k="ssr:stedsnr" v="320898" />
	</node>
	<node id="-203454" lat="68.1178361091" lon="15.7063527701">
		<tag k="name" v="Litlskjåmyra" />
		<tag k="name:no" v="Litlskjåmyra" />
		<tag k="natural" v="wetland" />
		<tag k="ssr:stedsnr" v="959394" />
	</node>
	<node id="-203453" lat="68.1292777764" lon="15.6939805657">
		<tag k="name" v="Grønmyra" />
		<tag k="name:no" v="Grønmyra" />
		<tag k="natural" v="wetland" />
		<tag k="ssr:stedsnr" v="959376" />
	</node>
	<node id="-203451" lat="68.0617638861" lon="15.4769333203">
		<tag k="name" v="Nermarka" />
		<tag k="name:no" v="Nermarka" />
		<tag k="place" v="locality" />
		<tag k="ssr:stedsnr" v="959296" />
	</node>
	<node id="-200377" lat="67.9916888898" lon="15.665122232">
		<tag k="name" v="Stormyra" />
		<tag k="name:no" v="Stormyra" />
		<tag k="natural" v="wetland" />
		<tag k="ssr:stedsnr" v="534642" />
	</node>
	<node id="-199864" lat="68.0163611071" lon="15.732575005">
		<tag k="name" v="Småmyran" />
		<tag k="name:no" v="Småmyran" />
		<tag k="natural" v="wetland" />
		<tag k="ssr:stedsnr" v="473040" />
	</node>
	<node id="-199863" lat="68.0179083323" lon="15.7052138842">
		<tag k="name" v="Ura" />
		<tag k="name:no" v="Ura" />
		<tag k="natural" v="scree" />
		<tag k="ssr:stedsnr" v="473031" />
	</node>
	<node id="-200373" lat="68.1283722203" lon="15.6989083276">
		<tag k="name" v="Langmyra" />
		<tag k="name:no" v="Langmyra" />
		<tag k="natural" v="wetland" />
		<tag k="ssr:stedsnr" v="534617" />
	</node>
	<node id="-199860" lat="68.0148888882" lon="15.7489916735">
		<tag k="name" v="Kusletta" />
		<tag k="name:no" v="Kusletta" />
		<tag k="natural" v="wetland" />
		<tag k="ssr:stedsnr" v="473012" />
	</node>
	<node id="-202419" lat="68.0040166666" lon="15.845800003">
		<tag k="name" v="Langdalsmyra" />
		<tag k="name:no" v="Langdalsmyra" />
		<tag k="natural" v="wetland" />
		<tag k="ssr:stedsnr" v="534736" />
	</node>
	<node id="-199858" lat="68.1273861095" lon="15.4629055608">
		<tag k="name" v="Vassåsmyra" />
		<tag k="name:no" v="Vassåsmyra" />
		<tag k="natural" v="wetland" />
		<tag k="ssr:stedsnr" v="473519" />
	</node>
	<node id="-199857" lat="68.1086166666" lon="15.5301222332">
		<tag k="name" v="Hamsundmyren" />
		<tag k="name:no" v="Hamsundmyren" />
		<tag k="natural" v="wetland" />
		<tag k="ssr:stedsnr" v="472441" />
	</node>
	<node id="-200433" lat="68.1371333315" lon="15.4543833354">
		<tag k="name" v="Hamnesmyra" />
		<tag k="name:no" v="Hamnesmyra" />
		<tag k="natural" v="wetland" />
		<tag k="ssr:stedsnr" v="715639" />
	</node>
	<node id="-200367" lat="67.8447277796" lon="16.0143333285">
		<tag k="name" v="Gamsletta" />
		<tag k="name:no" v="Gamsletta" />
		<tag k="place" v="locality" />
		<tag k="ssr:stedsnr" v="534226" />
	</node>
	<node id="-200364" lat="67.8464583297" lon="15.9782777865">
		<tag k="name" v="Krambusteinen" />
		<tag k="name:no" v="Krambusteinen" />
		<tag k="natural" v="stone" />
		<tag k="ssr:stedsnr" v="534222" />
	</node>
	<node id="-200393" lat="67.8930166676" lon="16.1255638828">
		<tag k="name" v="Goasstejiegŋa" />
		<tag k="name:smj" v="Goasstejiegŋa" />
		<tag k="natural" v="glacier" />
		<tag k="old_name:smj" v="Goastejiekŋa" />
		<tag k="ssr:stedsnr" v="562414" />
	</node>
	<node id="-203435" lat="68.0645472193" lon="15.7144527663">
		<tag k="name" v="Ånemyran" />
		<tag k="name:no" v="Ånemyran" />
		<tag k="natural" v="wetland" />
		<tag k="ssr:stedsnr" v="959224" />
	</node>
	<node id="-201386" lat="67.8033249978" lon="16.5373388858">
		<tag k="landuse" v="meadow" />
		<tag k="name" v="Subásjgiedde" />
		<tag k="name:smj" v="Subásjgiedde" />
		<tag k="ssr:stedsnr" v="82930" />
	</node>
	<node id="-200135" lat="68.1389222256" lon="16.0760055539">
		<tag k="name" v="Langmyra" />
		<tag k="name:no" v="Langmyra" />
		<tag k="natural" v="wetland" />
		<tag k="ssr:stedsnr" v="446616" />
	</node>
	<node id="-200360" lat="68.0909416701" lon="15.4911388889">
		<tag k="name" v="Storsletta" />
		<tag k="name:no" v="Storsletta" />
		<tag k="natural" v="wetland" />
		<tag k="ssr:stedsnr" v="534203" />
	</node>
	<node id="-200519" lat="68.010180556" lon="15.3844666625">
		<tag k="name" v="Brennskogen" />
		<tag k="name:no" v="Brennskogen" />
		<tag k="place" v="locality" />
		<tag k="ssr:stedsnr" v="655083" />
	</node>
	<node id="-200646" lat="68.0129972226" lon="15.8035222279">
		<tag k="name" v="Sennskarmyra" />
		<tag k="name:no" v="Sennskarmyra" />
		<tag k="natural" v="wetland" />
		<tag k="ssr:stedsnr" v="898524" />
	</node>
	<node id="-203424" lat="68.0889944454" lon="15.596963894">
		<tag k="name" v="Vakkerjorda" />
		<tag k="name:no" v="Vakkerjorda" />
		<tag k="natural" v="wetland" />
		<tag k="ssr:stedsnr" v="959015" />
	</node>
	<node id="-202967" lat="68.1501222231" lon="16.0548611026">
		<tag k="name" v="Slettmomyra" />
		<tag k="name:no" v="Slettmomyra" />
		<tag k="natural" v="wetland" />
		<tag k="ssr:stedsnr" v="750568" />
	</node>
	<node id="-202052" lat="68.1572916681" lon="15.7015527894">
		<tag k="name" v="Langåsmyra" />
		<tag k="name:no" v="Langåsmyra" />
		<tag k="natural" v="wetland" />
		<tag k="ssr:stedsnr" v="352664" />
	</node>
	<node id="-201372" lat="68.0235805525" lon="15.3789055512">
		<tag k="name" v="Driplan" />
		<tag k="name:no" v="Driplan" />
		<tag k="natural" v="wetland" />
		<tag k="ssr:stedsnr" v="78899" />
	</node>
	<node id="-201369" lat="68.0092972261" lon="15.5152527771">
		<tag k="name" v="Lunden" />
		<tag k="name:no" v="Lunden" />
		<tag k="place" v="locality" />
		<tag k="ssr:stedsnr" v="78878" />
	</node>
	<node id="-202392" lat="68.067824998" lon="15.4820555569">
		<tag k="name" v="Nordmarka" />
		<tag k="name:no" v="Nordmarka" />
		<tag k="place" v="locality" />
		<tag k="ssr:stedsnr" v="534323" />
	</node>
	<node id="-202391" lat="68.0649083317" lon="15.438247233">
		<tag k="name" v="Sjettdikmyra" />
		<tag k="name:no" v="Sjettdikmyra" />
		<tag k="natural" v="wetland" />
		<tag k="ssr:stedsnr" v="534308" />
	</node>
	<node id="-200342" lat="68.0134777748" lon="16.169580548">
		<tag k="name" v="Småelvskogen" />
		<tag k="name:no" v="Småelvskogen" />
		<tag k="place" v="locality" />
		<tag k="ssr:stedsnr" v="689524" />
	</node>
	<node id="-200091" lat="68.1246833352" lon="16.1020388878">
		<tag k="name" v="Skredmyra" />
		<tag k="name:no" v="Skredmyra" />
		<tag k="natural" v="wetland" />
		<tag k="ssr:stedsnr" v="507611" />
	</node>
	<node id="-199312" lat="68.0910333299" lon="15.4960416754">
		<tag k="name" v="Lilandsmarka" />
		<tag k="name:no" v="Lilandsmarka" />
		<tag k="place" v="locality" />
		<tag k="ssr:stedsnr" v="259036" />
	</node>
	<node id="-202383" lat="68.0449777804" lon="15.7355749976">
		<tag k="name" v="Vasletta" />
		<tag k="name:no" v="Vasletta" />
		<tag k="place" v="locality" />
		<tag k="ssr:stedsnr" v="534134" />
	</node>
	<node id="-203405" lat="67.8931277771" lon="15.8463888781">
		<tag k="name" v="Kumyra" />
		<tag k="name:no" v="Kumyra" />
		<tag k="natural" v="wetland" />
		<tag k="ssr:stedsnr" v="958025" />
	</node>
	<node id="-200500" lat="68.0368694487" lon="15.9723888816">
		<tag k="name" v="Kvannskogan" />
		<tag k="name:no" v="Kvannskogan" />
		<tag k="place" v="locality" />
		<tag k="ssr:stedsnr" v="627820" />
	</node>
	<node id="-201410" lat="68.0140472187" lon="15.7633916763">
		<tag k="name" v="Botnbrenna" />
		<tag k="name:no" v="Botnbrenna" />
		<tag k="place" v="locality" />
		<tag k="ssr:stedsnr" v="109009" />
	</node>
	<node id="-202326" lat="67.8422027754" lon="15.9739305603">
		<tag k="name" v="Brennmyra" />
		<tag k="name:no" v="Brennmyra" />
		<tag k="natural" v="wetland" />
		<tag k="ssr:stedsnr" v="655230" />
	</node>
	<node id="-201689" lat="67.7798277823" lon="15.962511111">
		<tag k="name" v="Andreasslåtta" />
		<tag k="name:no" v="Andreasslåtta" />
		<tag k="natural" v="wetland" />
		<tag k="ssr:stedsnr" v="170885" />
	</node>
	<node id="-203397" lat="68.0490833322" lon="16.042202773">
		<tag k="landuse" v="quarry" />
		<tag k="name" v="Ner-Øyvollgruva" />
		<tag k="name:no" v="Ner-Øyvollgruva" />
		<tag k="ssr:stedsnr" v="871643" />
	</node>
	<node id="-203396" lat="68.0420944461" lon="16.063805551">
		<tag k="name" v="Båtstømyran" />
		<tag k="name:no" v="Båtstømyran" />
		<tag k="natural" v="wetland" />
		<tag k="ssr:stedsnr" v="871635" />
	</node>
	<node id="-199298" lat="68.1136277765" lon="15.6237749944">
		<tag k="name" v="Skoglund" />
		<tag k="name:no" v="Skoglund" />
		<tag k="place" v="locality" />
		<tag k="ssr:stedsnr" v="96459" />
	</node>
	<node id="-199806" lat="67.8189055535" lon="16.5188333264">
		<tag k="name" v="Stuorjuovva" />
		<tag k="name:smj" v="Stuorjuovva" />
		<tag k="natural" v="scree" />
		<tag k="ssr:stedsnr" v="446924" />
	</node>
	<node id="-199445" lat="68.055555558" lon="15.408050002">
		<tag k="name" v="Brennsteinen" />
		<tag k="name:no" v="Brennsteinen" />
		<tag k="natural" v="stone" />
		<tag k="ssr:stedsnr" v="110310" />
	</node>
	<node id="-202364" lat="68.0174138922" lon="15.6161583248">
		<tag k="name" v="Storskogen" />
		<tag k="name:no" v="Storskogen" />
		<tag k="place" v="locality" />
		<tag k="ssr:stedsnr" v="534018" />
	</node>
	<node id="-201335" lat="67.9672722233" lon="15.7640750029">
		<tag k="name" v="Steinnesbenken" />
		<tag k="name:no" v="Steinnesbenken" />
		<tag k="natural" v="stone" />
		<tag k="ssr:stedsnr" v="78634" />
	</node>
	<node id="-201846" lat="68.0884416705" lon="16.2488749886">
		<tag k="name" v="Kiura" />
		<tag k="name:no" v="Kiura" />
		<tag k="natural" v="scree" />
		<tag k="ssr:stedsnr" v="320512" />
	</node>
	<node id="-201842" lat="67.8715777781" lon="15.8371250114">
		<tag k="name" v="Tjukkskogen" />
		<tag k="name:no" v="Tjukkskogen" />
		<tag k="place" v="locality" />
		<tag k="ssr:stedsnr" v="320434" />
	</node>
	<node id="-201181" lat="68.0113527741" lon="15.5484916715">
		<tag k="name" v="Drippelskogmyra" />
		<tag k="name:no" v="Drippelskogmyra" />
		<tag k="natural" v="wetland" />
		<tag k="ssr:stedsnr" v="49056" />
	</node>
	<node id="-199789" lat="67.8593777746" lon="15.9877083238">
		<tag k="name" v="Myra" />
		<tag k="name:no" v="Myra" />
		<tag k="natural" v="wetland" />
		<tag k="ssr:stedsnr" v="231267" />
	</node>
	<node id="-200925" lat="68.1356388861" lon="16.1191055421">
		<tag k="landuse" v="meadow" />
		<tag k="name" v="Skjellåkeren" />
		<tag k="name:no" v="Skjellåkeren" />
		<tag k="ssr:stedsnr" v="810910" />
	</node>
	<node id="-200465" lat="68.0836277811" lon="15.8900805455">
		<tag k="name" v="Skogteigen" />
		<tag k="name:no" v="Skogteigen" />
		<tag k="place" v="locality" />
		<tag k="ssr:stedsnr" v="716364" />
	</node>
	<node id="-199267" lat="68.115069442" lon="15.6994750106">
		<tag k="name" v="Kausholet" />
		<tag k="name:no" v="Kausholet" />
		<tag k="natural" v="wetland" />
		<tag k="ssr:stedsnr" v="231394" />
	</node>
	<node id="-199778" lat="68.1459722263" lon="15.4480805451">
		<tag k="name" v="Buvågleira" />
		<tag k="name:no" v="Buvågleira" />
		<tag k="place" v="locality" />
		<tag k="ssr:stedsnr" v="230924" />
	</node>
	<node id="-203361" lat="67.8039750003" lon="16.0062055483">
		<tag k="name" v="Fjellmyran" />
		<tag k="name:no" v="Fjellmyran" />
		<tag k="natural" v="wetland" />
		<tag k="ssr:stedsnr" v="867499" />
	</node>
	<node id="-200287" lat="68.119722223" lon="15.9679861051">
		<tag k="alt_name:no" v="Middagsurda" />
		<tag k="name" v="Middagsura" />
		<tag k="name:no" v="Middagsura" />
		<tag k="natural" v="scree" />
		<tag k="ssr:stedsnr" v="684646" />
	</node>
	<node id="-201385" lat="68.0333583318" lon="16.0778861018">
		<tag k="landuse" v="quarry" />
		<tag k="name" v="Hammondgruva" />
		<tag k="name:no" v="Hammondgruva" />
		<tag k="ssr:stedsnr" v="82648" />
	</node>
	<node id="-199261" lat="68.0937027746" lon="15.5486499942">
		<tag k="name" v="Gurendalsmarka" />
		<tag k="name:no" v="Gurendalsmarka" />
		<tag k="place" v="locality" />
		<tag k="ssr:stedsnr" v="231224" />
	</node>
	<node id="-199770" lat="67.9984166678" lon="15.5151861161">
		<tag k="name" v="Tranmyra" />
		<tag k="name:no" v="Tranmyra" />
		<tag k="place" v="locality" />
		<tag k="ssr:stedsnr" v="230652" />
	</node>
	<node id="-202839" lat="68.0590194443" lon="15.6020222332">
		<tag k="name" v="Spanna" />
		<tag k="name:no" v="Spanna" />
		<tag k="place" v="locality" />
		<tag k="ssr:stedsnr" v="655293" />
	</node>
	<node id="-201814" lat="68.0997166664" lon="15.4951694348">
		<tag k="name" v="Hamsundmyra" />
		<tag k="name:no" v="Hamsundmyra" />
		<tag k="natural" v="wetland" />
		<tag k="ssr:stedsnr" v="320030" />
	</node>
	<node id="-199950" lat="67.8502555552" lon="15.9316555436">
		<tag k="name" v="Sveinelvmyra" />
		<tag k="name:no" v="Sveinelvmyra" />
		<tag k="natural" v="wetland" />
		<tag k="ssr:stedsnr" v="352215" />
	</node>
	<node id="-200273" lat="68.0895277761" lon="15.639549997">
		<tag k="name" v="Olderskogen" />
		<tag k="name:no" v="Olderskogen" />
		<tag k="place" v="locality" />
		<tag k="ssr:stedsnr" v="684608" />
	</node>
	<node id="-202318" lat="67.9247694416" lon="15.8403694518">
		<tag k="name" v="Flatsteinen" />
		<tag k="name:no" v="Flatsteinen" />
		<tag k="natural" v="stone" />
		<tag k="ssr:stedsnr" v="413861" />
	</node>
	<node id="-200461" lat="68.1069555581" lon="15.6004027811">
		<tag k="name" v="Kulsjømyra" />
		<tag k="name:no" v="Kulsjømyra" />
		<tag k="natural" v="wetland" />
		<tag k="ssr:stedsnr" v="716277" />
	</node>
	<node id="-202828" lat="68.1060583295" lon="15.5059833303">
		<tag k="name" v="Nålnesmyren" />
		<tag k="name:no" v="Nålnesmyren" />
		<tag k="natural" v="wetland" />
		<tag k="ssr:stedsnr" v="654288" />
	</node>
	<node id="-203345" lat="68.0614777769" lon="15.4417972305">
		<tag k="alt_name:no" v="Stensmyr" />
		<tag k="name" v="Stenmyra" />
		<tag k="name:no" v="Stenmyra" />
		<tag k="natural" v="wetland" />
		<tag k="ssr:stedsnr" v="866968" />
	</node>
	<node id="-199475" lat="67.8037555561" lon="16.5242194486">
		<tag k="name" v="Muorddo" />
		<tag k="name:smj" v="Muorddo" />
		<tag k="place" v="locality" />
		<tag k="ssr:stedsnr" v="264931" />
	</node>
	<node id="-202311" lat="67.9596527746" lon="15.9352388797">
		<tag k="name" v="Middagsmyra" />
		<tag k="name:no" v="Middagsmyra" />
		<tag k="natural" v="wetland" />
		<tag k="ssr:stedsnr" v="413778" />
	</node>
	<node id="-201793" lat="68.10688611" lon="16.0985388962">
		<tag k="name" v="Nordmarka" />
		<tag k="name:no" v="Nordmarka" />
		<tag k="place" v="locality" />
		<tag k="ssr:stedsnr" v="204485" />
	</node>
	<node id="-202304" lat="68.1567166681" lon="15.7150166674">
		<tag k="name" v="Hestvikmyra" />
		<tag k="name:no" v="Hestvikmyra" />
		<tag k="natural" v="wetland" />
		<tag k="ssr:stedsnr" v="413702" />
	</node>
	<node id="-199850" lat="68.0729638921" lon="15.4883639014">
		<tag k="name" v="Asmyran" />
		<tag k="name:no" v="Asmyran" />
		<tag k="natural" v="wetland" />
		<tag k="ssr:stedsnr" v="291217" />
	</node>
	<node id="-202813" lat="67.9775694459" lon="16.3701749952">
		<tag k="name" v="Rávnovuobme" />
		<tag k="name:smj" v="Rávnovuobme" />
		<tag k="place" v="locality" />
		<tag k="ssr:stedsnr" v="627921" />
	</node>
	<node id="-202299" lat="68.1388472217" lon="15.6817166678">
		<tag k="name" v="Dikmyra" />
		<tag k="name:no" v="Dikmyra" />
		<tag k="natural" v="wetland" />
		<tag k="ssr:stedsnr" v="413683" />
	</node>
	<node id="-202513" lat="68.017897224" lon="15.5304722292">
		<tag k="name" v="Ramnesmyra" />
		<tag k="name:no" v="Ramnesmyra" />
		<tag k="natural" v="wetland" />
		<tag k="ssr:stedsnr" v="655034" />
	</node>
	<node id="-199775" lat="68.0160555527" lon="15.7622638813">
		<tag k="name" v="Blomdalsmyra" />
		<tag k="name:no" v="Blomdalsmyra" />
		<tag k="natural" v="wetland" />
		<tag k="ssr:stedsnr" v="231007" />
	</node>
	<node id="-199262" lat="67.8354888889" lon="15.9679249964">
		<tag k="name" v="Gjerdsvaet" />
		<tag k="name:no" v="Gjerdsvaet" />
		<tag k="place" v="locality" />
		<tag k="ssr:stedsnr" v="231239" />
	</node>
	<node id="-200371" lat="68.1386277782" lon="15.9228416753">
		<tag k="name" v="Stormyra" />
		<tag k="name:no" v="Stormyra" />
		<tag k="natural" v="wetland" />
		<tag k="ssr:stedsnr" v="534406" />
	</node>
	<node id="-202287" lat="68.1376944446" lon="15.6945527876">
		<tag k="name" v="Leirvågmyra" />
		<tag k="name:no" v="Leirvågmyra" />
		<tag k="natural" v="wetland" />
		<tag k="ssr:stedsnr" v="413591" />
	</node>
	<node id="-202986" lat="68.1800555575" lon="15.6590388965">
		<tag k="name" v="Stormyra" />
		<tag k="name:no" v="Stormyra" />
		<tag k="natural" v="wetland" />
		<tag k="ssr:stedsnr" v="776186" />
	</node>
	<node id="-199508" lat="68.0221833318" lon="15.6465611096">
		<tag k="landuse" v="quarry" />
		<tag k="name" v="Grunnargruva" />
		<tag k="name:no" v="Grunnargruva" />
		<tag k="ssr:stedsnr" v="170045" />
	</node>
	<node id="-202284" lat="68.126436115" lon="15.4453833371">
		<tag k="name" v="Hopmyran" />
		<tag k="name:no" v="Hopmyran" />
		<tag k="natural" v="wetland" />
		<tag k="ssr:stedsnr" v="413550" />
	</node>
	<node id="-201771" lat="68.0110777813" lon="15.6120361053">
		<tag k="name" v="Langblåmyra" />
		<tag k="name:no" v="Langblåmyra" />
		<tag k="natural" v="wetland" />
		<tag k="ssr:stedsnr" v="199853" />
	</node>
	<node id="-201035" lat="68.0522638909" lon="15.4221416753">
		<tag k="name" v="Storsteinekra" />
		<tag k="name:no" v="Storsteinekra" />
		<tag k="place" v="locality" />
		<tag k="ssr:stedsnr" v="899317" />
	</node>
	<node id="-200228" lat="67.79345" lon="16.4747916647">
		<tag k="name" v="Barájiegge" />
		<tag k="name:smj" v="Barájiegge" />
		<tag k="natural" v="wetland" />
		<tag k="ssr:stedsnr" v="684149" />
	</node>
	<node id="-199715" lat="68.0196833299" lon="15.7934416574">
		<tag k="alt_name:no" v="Vassurda" />
		<tag k="name" v="Vassura" />
		<tag k="name:no" v="Vassura" />
		<tag k="natural" v="scree" />
		<tag k="ssr:stedsnr" v="442585" />
	</node>
	<node id="-202274" lat="68.0646027809" lon="15.4545027816">
		<tag k="name" v="Tersmyra" />
		<tag k="name:no" v="Tersmyra" />
		<tag k="natural" v="wetland" />
		<tag k="ssr:stedsnr" v="413296" />
	</node>
	<node id="-199515" lat="68.0675972243" lon="16.0529944549">
		<tag k="landuse" v="quarry" />
		<tag k="name" v="Fjellgruvene" />
		<tag k="name:no" v="Fjellgruvene" />
		<tag k="ssr:stedsnr" v="282956" />
	</node>
	<node id="-200368" lat="67.8518833298" lon="15.9310194499">
		<tag k="name" v="Vanskeliora" />
		<tag k="name:no" v="Vanskeliora" />
		<tag k="natural" v="scree" />
		<tag k="ssr:stedsnr" v="534236" />
	</node>
	<node id="-202298" lat="68.1415527789" lon="15.5016111045">
		<tag k="name" v="Gullkistmyra" />
		<tag k="name:no" v="Gullkistmyra" />
		<tag k="natural" v="wetland" />
		<tag k="ssr:stedsnr" v="413678" />
	</node>
	<node id="-202261" lat="68.0804833316" lon="15.6038000035">
		<tag k="name" v="Oppeidmyran" />
		<tag k="name:no" v="Oppeidmyran" />
		<tag k="natural" v="wetland" />
		<tag k="ssr:stedsnr" v="413124" />
	</node>
	<node id="-202258" lat="68.0184222242" lon="15.4013555638">
		<tag k="name" v="Gronnmyra" />
		<tag k="name:no" v="Gronnmyra" />
		<tag k="place" v="locality" />
		<tag k="ssr:stedsnr" v="413074" />
	</node>
	<node id="-200721" lat="67.7987472215" lon="16.5263833301">
		<tag k="name" v="Buoládak" />
		<tag k="name:smj" v="Buoládak" />
		<tag k="place" v="locality" />
		<tag k="ssr:stedsnr" v="750915" />
	</node>
	<node id="-201229" lat="68.1578194486" lon="15.9564666706">
		<tag k="name" v="Lysvollmyra" />
		<tag k="name:no" v="Lysvollmyra" />
		<tag k="natural" v="wetland" />
		<tag k="ssr:stedsnr" v="49731" />
	</node>
	<node id="-200716" lat="68.2129222234" lon="16.0897444494">
		<tag k="name" v="Langmyra" />
		<tag k="name:no" v="Langmyra" />
		<tag k="natural" v="wetland" />
		<tag k="ssr:stedsnr" v="749730" />
	</node>
	<node id="-201226" lat="68.1542638877" lon="15.655411104">
		<tag k="name" v="Grønndiket" />
		<tag k="name:no" v="Grønndiket" />
		<tag k="natural" v="wetland" />
		<tag k="ssr:stedsnr" v="49710" />
	</node>
	<node id="-202248" lat="68.1370777744" lon="15.6813055538">
		<tag k="name" v="Engmyra" />
		<tag k="name:no" v="Engmyra" />
		<tag k="natural" v="wetland" />
		<tag k="ssr:stedsnr" v="412524" />
	</node>
	<node id="-200620" lat="68.0255694469" lon="15.599238878">
		<tag k="name" v="Hellmyra" />
		<tag k="name:no" v="Hellmyra" />
		<tag k="natural" v="wetland" />
		<tag k="ssr:stedsnr" v="898037" />
	</node>
	<node id="-199766" lat="68.133013885" lon="15.6544583429">
		<tag k="name" v="Tuvmyra" />
		<tag k="name:no" v="Tuvmyra" />
		<tag k="natural" v="wetland" />
		<tag k="ssr:stedsnr" v="230555" />
	</node>
	<node id="-201131" lat="68.0404277765" lon="15.9658277651">
		<tag k="name" v="Stormyra" />
		<tag k="name:no" v="Stormyra" />
		<tag k="natural" v="wetland" />
		<tag k="ssr:stedsnr" v="21765" />
	</node>
</osm>
