<?xml version="1.0" encoding="UTF-8"?>
<osm version="0.6" generator="osmapis">
	<node lat="59.22804722196756" lon="5.392383330640452" id="-2672">
		<tag k="alt_name" v="Breidvik" />
		<tag k="name" v="Breivik" />
		<tag k="place" v="farm" />
		<tag k="ssr:date" v="2016-05-10" />
		<tag k="ssr:gruppe" v="gardsbebyggelse" />
		<tag k="ssr:hovedgruppe" v="bebyggelse" />
		<tag k="ssr:stedsnr" v="1003" />
		<tag k="ssr:type" v="bruk" />
	</node>
	<node lat="59.23109444871263" lon="5.4393805524602294" id="-2673">
		<tag k="alt_name" v="Vigjå" />
		<tag k="name" v="Føresvik" />
		<tag k="place" v="village" />
		<tag k="ssr:date" v="2016-05-10" />
		<tag k="ssr:gruppe" v="bebyggelsesområder" />
		<tag k="ssr:hovedgruppe" v="bebyggelse" />
		<tag k="ssr:stedsnr" v="1004" />
		<tag k="ssr:type" v="tettsted" />
	</node>
	<node lat="59.20134722344273" lon="5.374861112824671" id="-2674">
		<tag k="name" v="Tjørnaviga" />
		<tag k="natural" v="bay" />
		<tag k="ssr:date" v="2021-06-08" />
		<tag k="ssr:gruppe" v="kystkontur" />
		<tag k="ssr:hovedgruppe" v="sjø" />
		<tag k="ssr:stedsnr" v="1100" />
		<tag k="ssr:type" v="vikISjø" />
	</node>
	<node lat="59.29722222658022" lon="5.326388896975932" id="-2675">
		<tag k="name" v="Karmsundet" />
		<tag k="natural" v="strait" />
		<tag k="ssr:date" v="2021-06-08" />
		<tag k="ssr:gruppe" v="kystkontur" />
		<tag k="ssr:hovedgruppe" v="sjø" />
		<tag k="ssr:stedsnr" v="1101" />
		<tag k="ssr:type" v="sundISjø" />
	</node>
	<node lat="59.17816944583879" lon="5.416513893522185" id="-2676">
		<tag k="name" v="Litla Kjeøya" />
		<tag k="place" v="islet" />
		<tag k="ssr:date" v="2021-06-08" />
		<tag k="ssr:gruppe" v="kystkontur" />
		<tag k="ssr:hovedgruppe" v="sjø" />
		<tag k="ssr:stedsnr" v="1407" />
		<tag k="ssr:type" v="holmeISjø" />
	</node>
	<node lat="59.11931944110125" lon="5.406113880687622" id="-2677">
		<tag k="bay" v="fjord" />
		<tag k="name" v="Boknafjorden" />
		<tag k="natural" v="bay" />
		<tag k="ssr:date" v="2019-12-27" />
		<tag k="ssr:gruppe" v="farvann" />
		<tag k="ssr:hovedgruppe" v="sjø" />
		<tag k="ssr:stedsnr" v="1388" />
		<tag k="ssr:type" v="fjord" />
	</node>
	<node lat="59.21679556037692" lon="5.448411951085191" id="-2678">
		<tag k="fixme" v="consider place=hamlet" />
		<tag k="name" v="Alvestad" />
		<tag k="place" v="farm" />
		<tag k="ssr:date" v="2019-06-26" />
		<tag k="ssr:gruppe" v="gardsbebyggelse" />
		<tag k="ssr:hovedgruppe" v="bebyggelse" />
		<tag k="ssr:stedsnr" v="2102" />
		<tag k="ssr:type" v="gard" />
	</node>
	<node lat="59.27222222573013" lon="5.4813888931829" id="-2679">
		<tag k="name" v="Frekasundet" />
		<tag k="natural" v="strait" />
		<tag k="ssr:date" v="2021-06-08" />
		<tag k="ssr:gruppe" v="kystkontur" />
		<tag k="ssr:hovedgruppe" v="sjø" />
		<tag k="ssr:stedsnr" v="2230" />
		<tag k="ssr:type" v="sundISjø" />
	</node>
	<node lat="59.26319166741051" lon="5.379686117849475" id="-2680">
		<tag k="bay" v="fjord" />
		<tag k="name" v="Austdjupet" />
		<tag k="natural" v="bay" />
		<tag k="ssr:date" v="2019-12-27" />
		<tag k="ssr:gruppe" v="farvann" />
		<tag k="ssr:hovedgruppe" v="sjø" />
		<tag k="ssr:stedsnr" v="2872" />
		<tag k="ssr:type" v="fjord" />
	</node>
	<node lat="59.251047222761024" lon="5.409586115104448" id="-2681">
		<tag k="fixme" v="consider seamark:type=rock or natural=shoal" />
		<tag k="name" v="Persloen" />
		<tag k="place" v="islet" />
		<tag k="ssr:date" v="2016-05-10" />
		<tag k="ssr:gruppe" v="grunnerISjø" />
		<tag k="ssr:hovedgruppe" v="sjø" />
		<tag k="ssr:stedsnr" v="26124" />
		<tag k="ssr:type" v="skjærISjø" />
	</node>
	<node lat="59.173491665118924" lon="5.42317778541764" id="-2682">
		<tag k="name" v="Klubbholmen" />
		<tag k="place" v="islet" />
		<tag k="ssr:date" v="2016-05-10" />
		<tag k="ssr:gruppe" v="kystkontur" />
		<tag k="ssr:hovedgruppe" v="sjø" />
		<tag k="ssr:stedsnr" v="235420" />
		<tag k="ssr:type" v="holmeISjø" />
	</node>
	<node lat="59.19272500156204" lon="5.449686107716142" id="-2683">
		<tag k="name" v="Vandåg" />
		<tag k="natural" v="hill" />
		<tag k="place" v="locality" />
		<tag k="ssr:date" v="2016-05-10" />
		<tag k="ssr:gruppe" v="høyder" />
		<tag k="ssr:hovedgruppe" v="terreng" />
		<tag k="ssr:stedsnr" v="235523" />
		<tag k="ssr:type" v="høyde" />
	</node>
	<node lat="59.1870944479412" lon="5.397666667902881" id="-2684">
		<tag k="name" v="Straumastykket" />
		<tag k="place" v="locality" />
		<tag k="ssr:date" v="2016-05-10" />
		<tag k="ssr:gruppe" v="dyrkamark" />
		<tag k="ssr:hovedgruppe" v="markslag" />
		<tag k="ssr:stedsnr" v="53489" />
		<tag k="ssr:type" v="utmark" />
	</node>
	<node lat="59.17839722345514" lon="5.4247638950532915" id="-2685">
		<tag k="fixme" v="verify maritime location" />
		<tag k="mooring" v="yes" />
		<tag k="name" v="Sørenstøa" />
		<tag k="place" v="locality" />
		<tag k="ssr:date" v="2016-05-10" />
		<tag k="ssr:gruppe" v="sjøfart" />
		<tag k="ssr:hovedgruppe" v="infrastruktur" />
		<tag k="ssr:stedsnr" v="54382" />
		<tag k="ssr:type" v="stø" />
	</node>
	<node lat="59.17968610885744" lon="5.406347230258266" id="-2686">
		<tag k="name" v="Linderabben" />
		<tag k="natural" v="hill" />
		<tag k="place" v="locality" />
		<tag k="ssr:date" v="2016-05-10" />
		<tag k="ssr:gruppe" v="høyder" />
		<tag k="ssr:hovedgruppe" v="terreng" />
		<tag k="ssr:stedsnr" v="54386" />
		<tag k="ssr:type" v="haug" />
	</node>
	<node lat="59.241127780498445" lon="5.4664222293439755" id="-2687">
		<tag k="fixme" v="consider natural=peak for the most distinct mountains in the district" />
		<tag k="name" v="Håklepp" />
		<tag k="natural" v="hill" />
		<tag k="place" v="locality" />
		<tag k="ssr:date" v="2016-05-10" />
		<tag k="ssr:gruppe" v="høyder" />
		<tag k="ssr:hovedgruppe" v="terreng" />
		<tag k="ssr:stedsnr" v="59974" />
		<tag k="ssr:type" v="ås" />
	</node>
	<node lat="59.22376944877912" lon="5.456436106060249" id="-2688">
		<tag k="name" v="Fyren" />
		<tag k="natural" v="cape" />
		<tag k="ssr:date" v="2016-05-10" />
		<tag k="ssr:gruppe" v="kystkontur" />
		<tag k="ssr:hovedgruppe" v="sjø" />
		<tag k="ssr:stedsnr" v="59978" />
		<tag k="ssr:type" v="nesISjø" />
	</node>
	<node lat="59.212658333266006" lon="5.488861110325195" id="-2689">
		<tag k="name" v="Litlaneset" />
		<tag k="natural" v="cape" />
		<tag k="ssr:date" v="2016-05-10" />
		<tag k="ssr:gruppe" v="kystkontur" />
		<tag k="ssr:hovedgruppe" v="sjø" />
		<tag k="ssr:stedsnr" v="59985" />
		<tag k="ssr:type" v="nesISjø" />
	</node>
	<node lat="59.21021666641897" lon="5.438158331878075" id="-2690">
		<tag k="name" v="Nordra Hålandstjørna" />
		<tag k="natural" v="water" />
		<tag k="ssr:date" v="2016-05-10" />
		<tag k="ssr:gruppe" v="stilleståendeVann" />
		<tag k="ssr:hovedgruppe" v="ferskvann" />
		<tag k="ssr:stedsnr" v="59992" />
		<tag k="ssr:type" v="tjern" />
	</node>
	<node lat="59.243728554857334" lon="5.454386814290803" id="-2691">
		<tag k="name" v="Krovågen" />
		<tag k="natural" v="bay" />
		<tag k="ssr:date" v="2019-04-17" />
		<tag k="ssr:gruppe" v="kystkontur" />
		<tag k="ssr:hovedgruppe" v="sjø" />
		<tag k="ssr:stedsnr" v="60910" />
		<tag k="ssr:type" v="vågISjø" />
	</node>
	<node lat="59.22810349418083" lon="5.443815789847576" id="-2692">
		<tag k="fixme" v="consider place=hamlet" />
		<tag k="name" v="Sæbø" />
		<tag k="place" v="farm" />
		<tag k="ssr:date" v="2019-06-26" />
		<tag k="ssr:gruppe" v="gardsbebyggelse" />
		<tag k="ssr:hovedgruppe" v="bebyggelse" />
		<tag k="ssr:stedsnr" v="62016" />
		<tag k="ssr:type" v="gard" />
	</node>
	<node lat="59.18716388981083" lon="5.387891674524715" id="-2693">
		<tag k="fixme" v="consider natural=peak for the most distinct mountains in the district" />
		<tag k="name" v="Arafjellet" />
		<tag k="natural" v="hill" />
		<tag k="place" v="locality" />
		<tag k="ssr:date" v="2021-06-08" />
		<tag k="ssr:gruppe" v="høyder" />
		<tag k="ssr:hovedgruppe" v="terreng" />
		<tag k="ssr:stedsnr" v="62069" />
		<tag k="ssr:type" v="fjell" />
	</node>
	<node lat="59.21403295060069" lon="5.387087132127375" id="-2694">
		<tag k="fixme" v="consider place=hamlet" />
		<tag k="name" v="Trosnavåg" />
		<tag k="place" v="farm" />
		<tag k="ssr:date" v="2019-06-26" />
		<tag k="ssr:gruppe" v="gardsbebyggelse" />
		<tag k="ssr:hovedgruppe" v="bebyggelse" />
		<tag k="ssr:stedsnr" v="62088" />
		<tag k="ssr:type" v="gard" />
	</node>
	<node lat="59.1928499957567" lon="5.473122217595084" id="-2695">
		<tag k="alt_name" v="Låderskjer" />
		<tag k="fixme" v="consider seamark:type=rock or natural=shoal" />
		<tag k="name" v="Låderskjera" />
		<tag k="place" v="islet" />
		<tag k="ssr:date" v="2016-05-10" />
		<tag k="ssr:gruppe" v="grunnerISjø" />
		<tag k="ssr:hovedgruppe" v="sjø" />
		<tag k="ssr:stedsnr" v="62278" />
		<tag k="ssr:type" v="skjærISjø" />
	</node>
	<node lat="59.18842221844354" lon="5.473116671611013" id="-2696">
		<tag k="name" v="Oksabåsen" />
		<tag k="place" v="farm" />
		<tag k="ssr:date" v="2016-05-10" />
		<tag k="ssr:gruppe" v="gardsbebyggelse" />
		<tag k="ssr:hovedgruppe" v="bebyggelse" />
		<tag k="ssr:stedsnr" v="62280" />
		<tag k="ssr:type" v="bruk" />
	</node>
	<node lat="59.22405555289335" lon="5.498063888319048" id="-2697">
		<tag k="alt_name" v="Subanskallen" />
		<tag k="name" v="Supanskallen" />
		<tag k="natural" v="cape" />
		<tag k="ssr:date" v="2016-05-10" />
		<tag k="ssr:gruppe" v="kystkontur" />
		<tag k="ssr:hovedgruppe" v="sjø" />
		<tag k="ssr:stedsnr" v="62468" />
		<tag k="ssr:type" v="nesISjø" />
	</node>
	<node lat="59.213708337191264" lon="5.381677775091845" id="-2698">
		<tag k="landuse" v="meadow" />
		<tag k="name" v="Træet" />
		<tag k="ssr:date" v="2016-05-10" />
		<tag k="ssr:gruppe" v="dyrkamark" />
		<tag k="ssr:hovedgruppe" v="markslag" />
		<tag k="ssr:stedsnr" v="241972" />
		<tag k="ssr:type" v="eng" />
	</node>
	<node lat="59.237736109512426" lon="5.389199996523404" id="-2699">
		<tag k="name" v="Bekkjarvik" />
		<tag k="natural" v="bay" />
		<tag k="ssr:date" v="2016-05-10" />
		<tag k="ssr:gruppe" v="kystkontur" />
		<tag k="ssr:hovedgruppe" v="sjø" />
		<tag k="ssr:stedsnr" v="242876" />
		<tag k="ssr:type" v="vikISjø" />
	</node>
	<node lat="59.22277222467431" lon="5.457580559740396" id="-2700">
		<tag k="name" v="Boknasundet" />
		<tag k="natural" v="strait" />
		<tag k="ssr:date" v="2021-06-08" />
		<tag k="ssr:gruppe" v="kystkontur" />
		<tag k="ssr:hovedgruppe" v="sjø" />
		<tag k="ssr:stedsnr" v="244016" />
		<tag k="ssr:type" v="sundISjø" />
	</node>
	<node lat="59.223777781473295" lon="5.440458334792368" id="-2701">
		<tag k="amenity" v="place_of_worship" />
		<tag k="denomination" v="lutheran" />
		<tag k="name" v="Bokn kyrkje" />
		<tag k="religion" v="christian" />
		<tag k="ssr:date" v="2016-05-10" />
		<tag k="ssr:gruppe" v="kulturinstitusjoner" />
		<tag k="ssr:hovedgruppe" v="kultur" />
		<tag k="ssr:stedsnr" v="244127" />
		<tag k="ssr:type" v="kirke" />
	</node>
	<node lat="59.175266665541386" lon="5.42107221908124" id="-2702">
		<tag k="name" v="Røssholmen" />
		<tag k="place" v="islet" />
		<tag k="ssr:date" v="2021-06-08" />
		<tag k="ssr:gruppe" v="kystkontur" />
		<tag k="ssr:hovedgruppe" v="sjø" />
		<tag k="ssr:stedsnr" v="244420" />
		<tag k="ssr:type" v="holmeISjø" />
	</node>
	<node lat="59.23344999995441" lon="5.556527775754511" id="-2703">
		<tag k="alt_name" v="Tåa, austre" />
		<tag k="name" v="Austre Tåa" />
		<tag k="natural" v="cape" />
		<tag k="ssr:date" v="2016-05-10" />
		<tag k="ssr:gruppe" v="kystkontur" />
		<tag k="ssr:hovedgruppe" v="sjø" />
		<tag k="ssr:stedsnr" v="244448" />
		<tag k="ssr:type" v="nesISjø" />
	</node>
	<node lat="59.21989999746384" lon="5.497875003623169" id="-2704">
		<tag k="fixme" v="multiple name tags, choose one and add the other to alt_name; consider natural=peak for the most distinct mountains in the district" />
		<tag k="name" v="Nipa;Storafjellet" />
		<tag k="natural" v="hill" />
		<tag k="place" v="locality" />
		<tag k="ssr:date" v="2016-05-10" />
		<tag k="ssr:gruppe" v="høyder" />
		<tag k="ssr:hovedgruppe" v="terreng" />
		<tag k="ssr:stedsnr" v="244467" />
		<tag k="ssr:type" v="ås" />
	</node>
	<node lat="59.173583334608566" lon="5.378497213941763" id="-2705">
		<tag k="name" v="Kjølevigneset" />
		<tag k="natural" v="cape" />
		<tag k="ssr:date" v="2021-06-08" />
		<tag k="ssr:gruppe" v="kystkontur" />
		<tag k="ssr:hovedgruppe" v="sjø" />
		<tag k="ssr:stedsnr" v="85628" />
		<tag k="ssr:type" v="nesISjø" />
	</node>
	<node lat="59.19329727788583" lon="5.387123897209488" id="-2706">
		<tag k="fixme" v="consider seamark:type=rock or natural=shoal" />
		<tag k="name" v="Skibaskjeret" />
		<tag k="place" v="islet" />
		<tag k="ssr:date" v="2021-06-08" />
		<tag k="ssr:gruppe" v="grunnerISjø" />
		<tag k="ssr:hovedgruppe" v="sjø" />
		<tag k="ssr:stedsnr" v="85608" />
		<tag k="ssr:type" v="skjærISjø" />
	</node>
	<node lat="59.26426666894894" lon="5.482961109928263" id="-2707">
		<tag k="alt_name" v="Svartaskjeret" />
		<tag k="fixme" v="consider seamark:type=rock or natural=shoal" />
		<tag k="name" v="Svartaskjer" />
		<tag k="place" v="islet" />
		<tag k="ssr:date" v="2016-05-10" />
		<tag k="ssr:gruppe" v="grunnerISjø" />
		<tag k="ssr:hovedgruppe" v="sjø" />
		<tag k="ssr:stedsnr" v="87624" />
		<tag k="ssr:type" v="skjærISjø" />
	</node>
	<node lat="59.16488611442705" lon="5.406150002913574" id="-2708">
		<tag k="fixme" v="consider seamark:type=rock or natural=shoal" />
		<tag k="name" v="Godjen" />
		<tag k="place" v="islet" />
		<tag k="ssr:date" v="2016-05-10" />
		<tag k="ssr:gruppe" v="grunnerISjø" />
		<tag k="ssr:hovedgruppe" v="sjø" />
		<tag k="ssr:stedsnr" v="114406" />
		<tag k="ssr:type" v="skjærISjø" />
	</node>
	<node lat="59.16038055758386" lon="5.443941668588086" id="-2709">
		<tag k="name" v="Avløybvika" />
		<tag k="natural" v="bay" />
		<tag k="ssr:date" v="2016-05-10" />
		<tag k="ssr:gruppe" v="kystkontur" />
		<tag k="ssr:hovedgruppe" v="sjø" />
		<tag k="ssr:stedsnr" v="114821" />
		<tag k="ssr:type" v="vikISjø" />
	</node>
	<node lat="59.23954999693403" lon="5.465236118022129" id="-2710">
		<tag k="name" v="Litla Håklepp" />
		<tag k="natural" v="hill" />
		<tag k="place" v="locality" />
		<tag k="ssr:date" v="2016-05-10" />
		<tag k="ssr:gruppe" v="høyder" />
		<tag k="ssr:hovedgruppe" v="terreng" />
		<tag k="ssr:stedsnr" v="120979" />
		<tag k="ssr:type" v="haug" />
	</node>
	<node lat="59.203333626795285" lon="5.430879333556526" id="-2711">
		<tag k="fixme" v="consider place=hamlet" />
		<tag k="name" v="Dagsland" />
		<tag k="place" v="farm" />
		<tag k="ssr:date" v="2019-06-26" />
		<tag k="ssr:gruppe" v="gardsbebyggelse" />
		<tag k="ssr:hovedgruppe" v="bebyggelse" />
		<tag k="ssr:stedsnr" v="122082" />
		<tag k="ssr:type" v="gard" />
	</node>
	<node lat="59.21690000101755" lon="5.376594440563329" id="-2712">
		<tag k="name" v="Trosnavågneset" />
		<tag k="natural" v="cape" />
		<tag k="ssr:date" v="2021-06-08" />
		<tag k="ssr:gruppe" v="kystkontur" />
		<tag k="ssr:hovedgruppe" v="sjø" />
		<tag k="ssr:stedsnr" v="123123" />
		<tag k="ssr:type" v="nesISjø" />
	</node>
	<node lat="59.22180547061447" lon="5.439325456109454" id="-2713">
		<tag k="fixme" v="consider place=hamlet" />
		<tag k="name" v="Boknaberg" />
		<tag k="place" v="farm" />
		<tag k="ssr:date" v="2019-06-26" />
		<tag k="ssr:gruppe" v="gardsbebyggelse" />
		<tag k="ssr:hovedgruppe" v="bebyggelse" />
		<tag k="ssr:stedsnr" v="123130" />
		<tag k="ssr:type" v="gard" />
	</node>
	<node lat="59.253486107252996" lon="5.4465194472083605" id="-2714">
		<tag k="alt_name" v="Fløysundholmane" />
		<tag k="name" v="Fløsundholmane" />
		<tag k="place" v="islet" />
		<tag k="ssr:date" v="2016-05-10" />
		<tag k="ssr:gruppe" v="kystkontur" />
		<tag k="ssr:hovedgruppe" v="sjø" />
		<tag k="ssr:stedsnr" v="124864" />
		<tag k="ssr:type" v="holmeISjø" />
	</node>
	<node lat="59.161188885428444" lon="5.417794438050363" id="-2715">
		<tag k="name" v="Dyna" />
		<tag k="place" v="locality" />
		<tag k="seamark:type" v="rock" />
		<tag k="ssr:date" v="2021-06-08" />
		<tag k="ssr:gruppe" v="grunnerISjø" />
		<tag k="ssr:hovedgruppe" v="sjø" />
		<tag k="ssr:stedsnr" v="145669" />
		<tag k="ssr:type" v="båeISjø" />
	</node>
	<node lat="59.161298955307885" lon="5.431412078410066" id="-2716">
		<tag k="name" v="Stongholmen" />
		<tag k="place" v="islet" />
		<tag k="ssr:date" v="2021-06-08" />
		<tag k="ssr:gruppe" v="kystkontur" />
		<tag k="ssr:hovedgruppe" v="sjø" />
		<tag k="ssr:stedsnr" v="145679" />
		<tag k="ssr:type" v="holmeISjø" />
	</node>
	<node lat="59.25313889284739" lon="5.479361119057784" id="-2717">
		<tag k="alt_name" v="Djupavika" />
		<tag k="name" v="Djubevik" />
		<tag k="natural" v="bay" />
		<tag k="ssr:date" v="2016-05-10" />
		<tag k="ssr:gruppe" v="kystkontur" />
		<tag k="ssr:hovedgruppe" v="sjø" />
		<tag k="ssr:stedsnr" v="148677" />
		<tag k="ssr:type" v="vikISjø" />
	</node>
	<node lat="59.179572219054705" lon="5.458477776150009" id="-2718">
		<tag k="name" v="Djubavika" />
		<tag k="natural" v="bay" />
		<tag k="ssr:date" v="2016-05-10" />
		<tag k="ssr:gruppe" v="kystkontur" />
		<tag k="ssr:hovedgruppe" v="sjø" />
		<tag k="ssr:stedsnr" v="175064" />
		<tag k="ssr:type" v="vikISjø" />
	</node>
	<node lat="59.16522778109466" lon="5.398080563658661" id="-2719">
		<tag k="landuse" v="meadow" />
		<tag k="name" v="Stemmen" />
		<tag k="ssr:date" v="2016-05-10" />
		<tag k="ssr:gruppe" v="dyrkamark" />
		<tag k="ssr:hovedgruppe" v="markslag" />
		<tag k="ssr:stedsnr" v="175370" />
		<tag k="ssr:type" v="eng" />
	</node>
	<node lat="59.21385000351852" lon="5.3790499955242534" id="-2720">
		<tag k="name" v="Tjødnå" />
		<tag k="natural" v="water" />
		<tag k="ssr:date" v="2016-05-10" />
		<tag k="ssr:gruppe" v="stilleståendeVann" />
		<tag k="ssr:hovedgruppe" v="ferskvann" />
		<tag k="ssr:stedsnr" v="181934" />
		<tag k="ssr:type" v="tjern" />
	</node>
	<node lat="59.17150750133745" lon="5.446944412395802" id="-2721">
		<tag k="fixme" v="consider place=hamlet" />
		<tag k="name" v="Are" />
		<tag k="place" v="farm" />
		<tag k="ssr:date" v="2019-06-26" />
		<tag k="ssr:gruppe" v="gardsbebyggelse" />
		<tag k="ssr:hovedgruppe" v="bebyggelse" />
		<tag k="ssr:stedsnr" v="184439" />
		<tag k="ssr:type" v="gard" />
	</node>
	<node lat="59.18077777583736" lon="5.378611116901425" id="-2722">
		<tag k="name" v="Dalhavnen" />
		<tag k="natural" v="bay" />
		<tag k="ssr:date" v="2021-06-08" />
		<tag k="ssr:gruppe" v="kystkontur" />
		<tag k="ssr:hovedgruppe" v="sjø" />
		<tag k="ssr:stedsnr" v="267658" />
		<tag k="ssr:type" v="vågISjø" />
	</node>
	<node lat="59.175522220703385" lon="5.383547217908518" id="-2723">
		<tag k="fixme" v="consider natural=peak for the most distinct mountains in the district" />
		<tag k="name" v="Hagafjellet" />
		<tag k="natural" v="hill" />
		<tag k="place" v="locality" />
		<tag k="ssr:date" v="2021-06-08" />
		<tag k="ssr:gruppe" v="høyder" />
		<tag k="ssr:hovedgruppe" v="terreng" />
		<tag k="ssr:stedsnr" v="206653" />
		<tag k="ssr:type" v="fjell" />
	</node>
	<node lat="59.17127778211686" lon="5.425422222421675" id="-2724">
		<tag k="name" v="Fladholmen" />
		<tag k="place" v="islet" />
		<tag k="ssr:date" v="2021-06-08" />
		<tag k="ssr:gruppe" v="kystkontur" />
		<tag k="ssr:hovedgruppe" v="sjø" />
		<tag k="ssr:stedsnr" v="206658" />
		<tag k="ssr:type" v="holmeISjø" />
	</node>
	<node lat="59.20835277704641" lon="5.484836107743495" id="-2725">
		<tag k="name" v="Aksdalsneset" />
		<tag k="natural" v="cape" />
		<tag k="ssr:date" v="2016-05-10" />
		<tag k="ssr:gruppe" v="kystkontur" />
		<tag k="ssr:hovedgruppe" v="sjø" />
		<tag k="ssr:stedsnr" v="206942" />
		<tag k="ssr:type" v="nesISjø" />
	</node>
	<node lat="59.224449996755" lon="5.4967861039570565" id="-2726">
		<tag k="name" v="Barsvika" />
		<tag k="natural" v="bay" />
		<tag k="ssr:date" v="2016-05-10" />
		<tag k="ssr:gruppe" v="kystkontur" />
		<tag k="ssr:hovedgruppe" v="sjø" />
		<tag k="ssr:stedsnr" v="268927" />
		<tag k="ssr:type" v="vikISjø" />
	</node>
	<node lat="59.254947223090554" lon="5.426338895493462" id="-2727">
		<tag k="name" v="Svartøyna" />
		<tag k="place" v="islet" />
		<tag k="ssr:date" v="2016-05-10" />
		<tag k="ssr:gruppe" v="kystkontur" />
		<tag k="ssr:hovedgruppe" v="sjø" />
		<tag k="ssr:stedsnr" v="209046" />
		<tag k="ssr:type" v="holmeISjø" />
	</node>
	<node lat="59.25250833318481" lon="5.455141658424741" id="-2728">
		<tag k="name" v="Tagvika" />
		<tag k="natural" v="bay" />
		<tag k="ssr:date" v="2016-05-10" />
		<tag k="ssr:gruppe" v="kystkontur" />
		<tag k="ssr:hovedgruppe" v="sjø" />
		<tag k="ssr:stedsnr" v="209687" />
		<tag k="ssr:type" v="vikISjø" />
	</node>
	<node lat="59.26321666819732" lon="5.407169437345546" id="-2730">
		<tag k="name" v="Breisund" />
		<tag k="natural" v="strait" />
		<tag k="ssr:date" v="2016-05-10" />
		<tag k="ssr:gruppe" v="kystkontur" />
		<tag k="ssr:hovedgruppe" v="sjø" />
		<tag k="ssr:stedsnr" v="451077" />
		<tag k="ssr:type" v="sundISjø" />
	</node>
	<node lat="59.17378055899412" lon="5.3924361124968865" id="-2731">
		<tag k="name" v="Loten" />
		<tag k="place" v="farm" />
		<tag k="ssr:date" v="2021-06-08" />
		<tag k="ssr:gruppe" v="gardsbebyggelse" />
		<tag k="ssr:hovedgruppe" v="bebyggelse" />
		<tag k="ssr:stedsnr" v="449793" />
		<tag k="ssr:type" v="bruk" />
	</node>
	<node lat="59.24653889197397" lon="5.389250004350434" id="-2732">
		<tag k="alt_name" v="Boknehove;Boknahove;Boknahovudet" />
		<tag k="name" v="Boknahovet" />
		<tag k="natural" v="cape" />
		<tag k="ssr:date" v="2016-05-10" />
		<tag k="ssr:gruppe" v="kystkontur" />
		<tag k="ssr:hovedgruppe" v="sjø" />
		<tag k="ssr:stedsnr" v="450079" />
		<tag k="ssr:type" v="nesISjø" />
	</node>
	<node lat="59.22684166895704" lon="5.439000006911271" id="-2733">
		<tag k="name" v="Longhammar" />
		<tag k="natural" v="hill" />
		<tag k="place" v="locality" />
		<tag k="ssr:date" v="2016-05-10" />
		<tag k="ssr:gruppe" v="høyder" />
		<tag k="ssr:hovedgruppe" v="terreng" />
		<tag k="ssr:stedsnr" v="241978" />
		<tag k="ssr:type" v="berg" />
	</node>
	<node lat="59.18763889214752" lon="5.373966665127889" id="-2734">
		<tag k="name" v="Røyrvigneset" />
		<tag k="natural" v="cape" />
		<tag k="ssr:date" v="2021-06-08" />
		<tag k="ssr:gruppe" v="kystkontur" />
		<tag k="ssr:hovedgruppe" v="sjø" />
		<tag k="ssr:stedsnr" v="244083" />
		<tag k="ssr:type" v="nesISjø" />
	</node>
	<node lat="59.16341388503979" lon="5.406241670995862" id="-2735">
		<tag k="name" v="Drevsundholmen" />
		<tag k="place" v="islet" />
		<tag k="ssr:date" v="2021-06-08" />
		<tag k="ssr:gruppe" v="kystkontur" />
		<tag k="ssr:hovedgruppe" v="sjø" />
		<tag k="ssr:stedsnr" v="244433" />
		<tag k="ssr:type" v="holmeISjø" />
	</node>
	<node lat="59.16870277491987" lon="5.382083331816602" id="-2736">
		<tag k="name" v="Nordra Auseviga" />
		<tag k="natural" v="bay" />
		<tag k="ssr:date" v="2021-06-08" />
		<tag k="ssr:gruppe" v="kystkontur" />
		<tag k="ssr:hovedgruppe" v="sjø" />
		<tag k="ssr:stedsnr" v="244437" />
		<tag k="ssr:type" v="vikISjø" />
	</node>
	<node lat="59.22896111228986" lon="5.540213882538221" id="-2737">
		<tag k="alt_name" v="Rova, store;Stora Roå" />
		<tag k="fixme" v="consider seamark:type=rock or natural=shoal" />
		<tag k="name" v="Stora Rova" />
		<tag k="place" v="islet" />
		<tag k="ssr:date" v="2016-05-10" />
		<tag k="ssr:gruppe" v="grunnerISjø" />
		<tag k="ssr:hovedgruppe" v="sjø" />
		<tag k="ssr:stedsnr" v="244481" />
		<tag k="ssr:type" v="skjærISjø" />
	</node>
	<node lat="59.25942778095215" lon="5.458419450940196" id="-2738">
		<tag k="name" v="Ognahamn" />
		<tag k="natural" v="bay" />
		<tag k="ssr:date" v="2016-05-10" />
		<tag k="ssr:gruppe" v="kystkontur" />
		<tag k="ssr:hovedgruppe" v="sjø" />
		<tag k="ssr:stedsnr" v="452657" />
		<tag k="ssr:type" v="vikISjø" />
	</node>
	<node lat="59.17806111260132" lon="5.3817027743987005" id="-2740">
		<tag k="name" v="Loten" />
		<tag k="place" v="farm" />
		<tag k="ssr:date" v="2021-06-08" />
		<tag k="ssr:gruppe" v="gardsbebyggelse" />
		<tag k="ssr:hovedgruppe" v="bebyggelse" />
		<tag k="ssr:stedsnr" v="267817" />
		<tag k="ssr:type" v="bruk" />
	</node>
	<node lat="59.15987221884945" lon="5.4359249948382145" id="-2741">
		<tag k="name" v="Drevsundholmen" />
		<tag k="natural" v="bay" />
		<tag k="ssr:date" v="2016-05-10" />
		<tag k="ssr:gruppe" v="kystkontur" />
		<tag k="ssr:hovedgruppe" v="sjø" />
		<tag k="ssr:stedsnr" v="296429" />
		<tag k="ssr:type" v="vikISjø" />
	</node>
	<node lat="59.19175833554619" lon="5.390450008139795" id="-2742">
		<tag k="name" v="Steinsvika" />
		<tag k="natural" v="bay" />
		<tag k="ssr:date" v="2016-05-10" />
		<tag k="ssr:gruppe" v="kystkontur" />
		<tag k="ssr:hovedgruppe" v="sjø" />
		<tag k="ssr:stedsnr" v="296440" />
		<tag k="ssr:type" v="vikISjø" />
	</node>
	<node lat="59.19842222319186" lon="5.38575000440034" id="-2743">
		<tag k="name" v="Breivik" />
		<tag k="natural" v="bay" />
		<tag k="ssr:date" v="2016-05-10" />
		<tag k="ssr:gruppe" v="kystkontur" />
		<tag k="ssr:hovedgruppe" v="sjø" />
		<tag k="ssr:stedsnr" v="296449" />
		<tag k="ssr:type" v="vikISjø" />
	</node>
	<node lat="59.194852776135946" lon="5.456824996663619" id="-2744">
		<tag k="name" v="Longamyr" />
		<tag k="natural" v="wetland" />
		<tag k="ssr:date" v="2016-05-10" />
		<tag k="ssr:gruppe" v="våtmark" />
		<tag k="ssr:hovedgruppe" v="markslag" />
		<tag k="ssr:stedsnr" v="296457" />
		<tag k="ssr:type" v="myr" />
	</node>
	<node lat="59.16243332915192" lon="5.449624994946303" id="-2745">
		<tag k="name" v="Sjebavik" />
		<tag k="natural" v="bay" />
		<tag k="ssr:date" v="2016-05-10" />
		<tag k="ssr:gruppe" v="kystkontur" />
		<tag k="ssr:hovedgruppe" v="sjø" />
		<tag k="ssr:stedsnr" v="296805" />
		<tag k="ssr:type" v="vikISjø" />
	</node>
	<node lat="59.173927776626215" lon="5.449572215983219" id="-2746">
		<tag k="name" v="Arsvatnet" />
		<tag k="natural" v="water" />
		<tag k="ssr:date" v="2016-05-10" />
		<tag k="ssr:gruppe" v="stilleståendeVann" />
		<tag k="ssr:hovedgruppe" v="ferskvann" />
		<tag k="ssr:stedsnr" v="297090" />
		<tag k="ssr:type" v="vann" />
		<tag k="water" v="lake" />
	</node>
	<node lat="59.214780556199905" lon="5.410000002291947" id="-2747">
		<tag k="name" v="Ulvåghaugane" />
		<tag k="natural" v="hill" />
		<tag k="place" v="locality" />
		<tag k="ssr:date" v="2016-05-10" />
		<tag k="ssr:gruppe" v="høyder" />
		<tag k="ssr:hovedgruppe" v="terreng" />
		<tag k="ssr:stedsnr" v="302972" />
		<tag k="ssr:type" v="haug" />
	</node>
	<node lat="59.21680833308297" lon="5.482125003074546" id="-2748">
		<tag k="name" v="Krågeskarpytten" />
		<tag k="natural" v="water" />
		<tag k="ssr:date" v="2016-05-10" />
		<tag k="ssr:gruppe" v="stilleståendeVann" />
		<tag k="ssr:hovedgruppe" v="ferskvann" />
		<tag k="ssr:stedsnr" v="302980" />
		<tag k="ssr:type" v="pytt" />
		<tag k="water" v="pond" />
	</node>
	<node lat="59.223294440322434" lon="5.466094444384829" id="-2749">
		<tag k="landuse" v="meadow" />
		<tag k="name" v="Træet" />
		<tag k="ssr:date" v="2016-05-10" />
		<tag k="ssr:gruppe" v="dyrkamark" />
		<tag k="ssr:hovedgruppe" v="markslag" />
		<tag k="ssr:stedsnr" v="302984" />
		<tag k="ssr:type" v="eng" />
	</node>
	<node lat="59.22744166950629" lon="5.385869447046493" id="-2750">
		<tag k="name" v="Breiviktjørna" />
		<tag k="natural" v="water" />
		<tag k="ssr:date" v="2016-05-10" />
		<tag k="ssr:gruppe" v="stilleståendeVann" />
		<tag k="ssr:hovedgruppe" v="ferskvann" />
		<tag k="ssr:stedsnr" v="303885" />
		<tag k="ssr:type" v="tjern" />
	</node>
	<node lat="59.23816111144453" lon="5.419127782480981" id="-2751">
		<tag k="name" v="Leirbotn" />
		<tag k="natural" v="bay" />
		<tag k="ssr:date" v="2016-05-10" />
		<tag k="ssr:gruppe" v="kystkontur" />
		<tag k="ssr:hovedgruppe" v="sjø" />
		<tag k="ssr:stedsnr" v="304038" />
		<tag k="ssr:type" v="vikISjø" />
	</node>
	<node lat="59.1677527758856" lon="5.38803334207806" id="-2752">
		<tag k="fixme" v="consider natural=peak for the most distinct mountains in the district" />
		<tag k="name" v="Vardafjellet" />
		<tag k="natural" v="hill" />
		<tag k="place" v="locality" />
		<tag k="ssr:date" v="2021-06-08" />
		<tag k="ssr:gruppe" v="høyder" />
		<tag k="ssr:hovedgruppe" v="terreng" />
		<tag k="ssr:stedsnr" v="305445" />
		<tag k="ssr:type" v="ås" />
	</node>
	<node lat="59.234617590410835" lon="5.551455653534283" id="-2753">
		<tag k="alt_name" v="Naudøyna" />
		<tag k="name" v="Nautøya" />
		<tag k="place" v="island" />
		<tag k="ssr:date" v="2019-06-26" />
		<tag k="ssr:gruppe" v="kystkontur" />
		<tag k="ssr:hovedgruppe" v="sjø" />
		<tag k="ssr:stedsnr" v="305468" />
		<tag k="ssr:type" v="øyISjø" />
	</node>
	<node lat="59.22798611438148" lon="5.495913882961978" id="-2754">
		<tag k="fixme" v="consider natural=peak for the most distinct mountains in the district" />
		<tag k="name" v="Liafjellet" />
		<tag k="natural" v="hill" />
		<tag k="place" v="locality" />
		<tag k="ssr:date" v="2016-05-10" />
		<tag k="ssr:gruppe" v="høyder" />
		<tag k="ssr:hovedgruppe" v="terreng" />
		<tag k="ssr:stedsnr" v="329870" />
		<tag k="ssr:type" v="fjell" />
	</node>
	<node lat="59.2136611098088" lon="5.511722218723435" id="-2755">
		<tag k="name" v="Søra Vågsholmsundet" />
		<tag k="natural" v="strait" />
		<tag k="ssr:date" v="2016-05-10" />
		<tag k="ssr:gruppe" v="kystkontur" />
		<tag k="ssr:hovedgruppe" v="sjø" />
		<tag k="ssr:stedsnr" v="329915" />
		<tag k="ssr:type" v="sundISjø" />
	</node>
	<node lat="59.16658610859552" lon="5.429674999400972" id="-2756">
		<tag k="name" v="Torvvika" />
		<tag k="natural" v="bay" />
		<tag k="ssr:date" v="2016-05-10" />
		<tag k="ssr:gruppe" v="kystkontur" />
		<tag k="ssr:hovedgruppe" v="sjø" />
		<tag k="ssr:stedsnr" v="356408" />
		<tag k="ssr:type" v="vikISjø" />
	</node>
	<node lat="59.16150277772864" lon="5.4458194358426235" id="-2757">
		<tag k="name" v="Munkhamn" />
		<tag k="natural" v="bay" />
		<tag k="ssr:date" v="2016-05-10" />
		<tag k="ssr:gruppe" v="kystkontur" />
		<tag k="ssr:hovedgruppe" v="sjø" />
		<tag k="ssr:stedsnr" v="356825" />
		<tag k="ssr:type" v="vikISjø" />
	</node>
	<node lat="59.191569448623866" lon="5.460966665027895" id="-2758">
		<tag k="name" v="Høghaug" />
		<tag k="natural" v="hill" />
		<tag k="place" v="locality" />
		<tag k="ssr:date" v="2016-05-10" />
		<tag k="ssr:gruppe" v="høyder" />
		<tag k="ssr:hovedgruppe" v="terreng" />
		<tag k="ssr:stedsnr" v="357464" />
		<tag k="ssr:type" v="haug" />
	</node>
	<node lat="59.160505557456375" lon="5.387900001926259" id="-2759">
		<tag k="name" v="Stintenessundet" />
		<tag k="natural" v="strait" />
		<tag k="ssr:date" v="2016-05-10" />
		<tag k="ssr:gruppe" v="kystkontur" />
		<tag k="ssr:hovedgruppe" v="sjø" />
		<tag k="ssr:stedsnr" v="357811" />
		<tag k="ssr:type" v="sundISjø" />
	</node>
	<node lat="59.177113889246186" lon="5.41435833637042" id="-2760">
		<tag k="name" v="Trollhavet" />
		<tag k="natural" v="strait" />
		<tag k="ssr:date" v="2016-05-10" />
		<tag k="ssr:gruppe" v="kystkontur" />
		<tag k="ssr:hovedgruppe" v="sjø" />
		<tag k="ssr:stedsnr" v="478386" />
		<tag k="ssr:type" v="sundISjø" />
	</node>
	<node lat="59.17037777707758" lon="5.434533338436612" id="-2761">
		<tag k="name" v="Vierholmen" />
		<tag k="place" v="islet" />
		<tag k="ssr:date" v="2016-05-10" />
		<tag k="ssr:gruppe" v="kystkontur" />
		<tag k="ssr:hovedgruppe" v="sjø" />
		<tag k="ssr:stedsnr" v="478388" />
		<tag k="ssr:type" v="holmeISjø" />
	</node>
	<node lat="59.167516670364016" lon="5.415800007594188" id="-2762">
		<tag k="name" v="Midbrog" />
		<tag k="place" v="islet" />
		<tag k="ssr:date" v="2016-05-10" />
		<tag k="ssr:gruppe" v="kystkontur" />
		<tag k="ssr:hovedgruppe" v="sjø" />
		<tag k="ssr:stedsnr" v="478389" />
		<tag k="ssr:type" v="holmeISjø" />
	</node>
	<node lat="59.200183331277856" lon="5.403233338617442" id="-2763">
		<tag k="name" v="Grønnestadvatnet" />
		<tag k="natural" v="water" />
		<tag k="ssr:date" v="2021-06-08" />
		<tag k="ssr:gruppe" v="stilleståendeVann" />
		<tag k="ssr:hovedgruppe" v="ferskvann" />
		<tag k="ssr:stedsnr" v="365092" />
		<tag k="ssr:type" v="vann" />
		<tag k="water" v="lake" />
	</node>
	<node lat="59.1976722207736" lon="5.378511118088953" id="-2764">
		<tag k="alt_name" v="Ådnaneset" />
		<tag k="name" v="Ådnanes" />
		<tag k="natural" v="cape" />
		<tag k="ssr:date" v="2016-05-10" />
		<tag k="ssr:gruppe" v="kystkontur" />
		<tag k="ssr:hovedgruppe" v="sjø" />
		<tag k="ssr:stedsnr" v="365093" />
		<tag k="ssr:type" v="nesISjø" />
	</node>
	<node lat="59.19533333339605" lon="5.424430553631149" id="-2765">
		<tag k="name" v="Kleivå" />
		<tag k="place" v="farm" />
		<tag k="ssr:date" v="2016-05-10" />
		<tag k="ssr:gruppe" v="gardsbebyggelse" />
		<tag k="ssr:hovedgruppe" v="bebyggelse" />
		<tag k="ssr:stedsnr" v="478492" />
		<tag k="ssr:type" v="bruk" />
	</node>
	<node lat="59.18376110870974" lon="5.471133329271459" id="-2766">
		<tag k="alt_name" v="Svartaholmen" />
		<tag k="name" v="Svartholmen" />
		<tag k="place" v="islet" />
		<tag k="ssr:date" v="2016-05-10" />
		<tag k="ssr:gruppe" v="kystkontur" />
		<tag k="ssr:hovedgruppe" v="sjø" />
		<tag k="ssr:stedsnr" v="366298" />
		<tag k="ssr:type" v="holmeISjø" />
	</node>
	<node lat="59.24003332996286" lon="5.3983944380032005" id="-2767">
		<tag k="fixme" v="consider natural=peak for the most distinct mountains in the district" />
		<tag k="name" v="Halvarsfjellet" />
		<tag k="natural" v="hill" />
		<tag k="place" v="locality" />
		<tag k="ssr:date" v="2016-05-10" />
		<tag k="ssr:gruppe" v="høyder" />
		<tag k="ssr:hovedgruppe" v="terreng" />
		<tag k="ssr:stedsnr" v="485884" />
		<tag k="ssr:type" v="ås" />
	</node>
	<node lat="59.17741111095698" lon="5.386849998376727" id="-2768">
		<tag k="name" v="Jøsenvågen" />
		<tag k="natural" v="bay" />
		<tag k="ssr:date" v="2021-06-08" />
		<tag k="ssr:gruppe" v="kystkontur" />
		<tag k="ssr:hovedgruppe" v="sjø" />
		<tag k="ssr:stedsnr" v="388652" />
		<tag k="ssr:type" v="vågISjø" />
	</node>
	<node lat="59.18667499707335" lon="5.373486117045087" id="-2769">
		<tag k="name" v="Røyrvikodden" />
		<tag k="natural" v="cape" />
		<tag k="ssr:date" v="2016-05-10" />
		<tag k="ssr:gruppe" v="kystkontur" />
		<tag k="ssr:hovedgruppe" v="sjø" />
		<tag k="ssr:stedsnr" v="484926" />
		<tag k="ssr:type" v="nesISjø" />
	</node>
	<node lat="59.191372225337794" lon="5.3746333410256035" id="-2770">
		<tag k="name" v="Fuglanes" />
		<tag k="natural" v="cape" />
		<tag k="ssr:date" v="2016-05-10" />
		<tag k="ssr:gruppe" v="kystkontur" />
		<tag k="ssr:hovedgruppe" v="sjø" />
		<tag k="ssr:stedsnr" v="484929" />
		<tag k="ssr:type" v="nesISjø" />
	</node>
	<node lat="59.21813055507814" lon="5.4808833362074125" id="-2771">
		<tag k="name" v="Krågeskarhaugane" />
		<tag k="natural" v="hill" />
		<tag k="place" v="locality" />
		<tag k="ssr:date" v="2016-05-10" />
		<tag k="ssr:gruppe" v="høyder" />
		<tag k="ssr:hovedgruppe" v="terreng" />
		<tag k="ssr:stedsnr" v="484988" />
		<tag k="ssr:type" v="haug" />
	</node>
	<node lat="59.222863891598166" lon="5.462211117720336" id="-2772">
		<tag k="name" v="Øyren" />
		<tag k="natural" v="cape" />
		<tag k="ssr:date" v="2016-05-10" />
		<tag k="ssr:gruppe" v="kystkontur" />
		<tag k="ssr:hovedgruppe" v="sjø" />
		<tag k="ssr:stedsnr" v="484990" />
		<tag k="ssr:type" v="nesISjø" />
	</node>
	<node lat="59.222594442209584" lon="5.494661110309327" id="-2773">
		<tag k="name" v="Litlafjellet" />
		<tag k="natural" v="hill" />
		<tag k="place" v="locality" />
		<tag k="ssr:date" v="2016-05-10" />
		<tag k="ssr:gruppe" v="høyder" />
		<tag k="ssr:hovedgruppe" v="terreng" />
		<tag k="ssr:stedsnr" v="484999" />
		<tag k="ssr:type" v="berg" />
	</node>
	<node lat="59.2388813162936" lon="5.383351115894084" id="-2774">
		<tag k="name" v="Lammaneset" />
		<tag k="natural" v="cape" />
		<tag k="ssr:date" v="2018-08-31" />
		<tag k="ssr:gruppe" v="kystkontur" />
		<tag k="ssr:hovedgruppe" v="sjø" />
		<tag k="ssr:stedsnr" v="547037" />
		<tag k="ssr:type" v="nesISjø" />
	</node>
	<node lat="59.242919447206184" lon="5.416347214888053" id="-2775">
		<tag k="alt_name" v="Vågmulen" />
		<tag k="name" v="Vågsmulen" />
		<tag k="natural" v="cape" />
		<tag k="ssr:date" v="2016-05-10" />
		<tag k="ssr:gruppe" v="kystkontur" />
		<tag k="ssr:hovedgruppe" v="sjø" />
		<tag k="ssr:stedsnr" v="486025" />
		<tag k="ssr:type" v="nesISjø" />
	</node>
	<node lat="59.20361110946109" lon="5.403961111121852" id="-2776">
		<tag k="name" v="Stemmevatnet" />
		<tag k="natural" v="water" />
		<tag k="ssr:date" v="2016-05-10" />
		<tag k="ssr:gruppe" v="stilleståendeVann" />
		<tag k="ssr:hovedgruppe" v="ferskvann" />
		<tag k="ssr:stedsnr" v="486064" />
		<tag k="ssr:type" v="vann" />
		<tag k="water" v="lake" />
	</node>
	<node lat="59.24886047821081" lon="5.473087054511913" id="-2777">
		<tag k="name" v="Regaviga" />
		<tag k="natural" v="bay" />
		<tag k="ssr:date" v="2021-06-08" />
		<tag k="ssr:gruppe" v="kystkontur" />
		<tag k="ssr:hovedgruppe" v="sjø" />
		<tag k="ssr:stedsnr" v="486348" />
		<tag k="ssr:type" v="vikISjø" />
	</node>
	<node lat="59.20481389182478" lon="5.5073000035074156" id="-2778">
		<tag k="alt_name" v="Vågholmen, søre" />
		<tag k="name" v="Søre Vågholmen" />
		<tag k="place" v="islet" />
		<tag k="ssr:date" v="2016-05-10" />
		<tag k="ssr:gruppe" v="kystkontur" />
		<tag k="ssr:hovedgruppe" v="sjø" />
		<tag k="ssr:stedsnr" v="487292" />
		<tag k="ssr:type" v="holmeISjø" />
	</node>
	<node lat="59.17115555295891" lon="5.452730561310165" id="-2779">
		<tag k="alt_name" v="Arsvågen, austre" />
		<tag k="name" v="Austre Arsvågen" />
		<tag k="natural" v="bay" />
		<tag k="ssr:date" v="2016-05-10" />
		<tag k="ssr:gruppe" v="kystkontur" />
		<tag k="ssr:hovedgruppe" v="sjø" />
		<tag k="ssr:stedsnr" v="487420" />
		<tag k="ssr:type" v="vikISjø" />
	</node>
	<node lat="59.16404166922154" lon="5.3887027809189805" id="-2780">
		<tag k="name" v="Søra Auseviga" />
		<tag k="natural" v="bay" />
		<tag k="ssr:date" v="2021-06-08" />
		<tag k="ssr:gruppe" v="kystkontur" />
		<tag k="ssr:hovedgruppe" v="sjø" />
		<tag k="ssr:stedsnr" v="487454" />
		<tag k="ssr:type" v="vikISjø" />
	</node>
	<node lat="59.22823333181683" lon="5.47302778148002" id="-2781">
		<tag k="alt_name" v="Varafjellet" />
		<tag k="fixme" v="consider natural=peak for the most distinct mountains in the district" />
		<tag k="name" v="Vardefjellet" />
		<tag k="natural" v="hill" />
		<tag k="place" v="locality" />
		<tag k="ssr:date" v="2016-05-10" />
		<tag k="ssr:gruppe" v="høyder" />
		<tag k="ssr:hovedgruppe" v="terreng" />
		<tag k="ssr:stedsnr" v="487468" />
		<tag k="ssr:type" v="ås" />
	</node>
	<node lat="59.22995555801168" lon="5.501458325589499" id="-2782">
		<tag k="name" v="Våganeset" />
		<tag k="natural" v="cape" />
		<tag k="ssr:date" v="2016-05-10" />
		<tag k="ssr:gruppe" v="kystkontur" />
		<tag k="ssr:hovedgruppe" v="sjø" />
		<tag k="ssr:stedsnr" v="487474" />
		<tag k="ssr:type" v="nesISjø" />
	</node>
	<node lat="59.16953611489676" lon="5.431030562507927" id="-2783">
		<tag k="name" v="Steinsholmen" />
		<tag k="place" v="islet" />
		<tag k="ssr:date" v="2016-05-10" />
		<tag k="ssr:gruppe" v="kystkontur" />
		<tag k="ssr:hovedgruppe" v="sjø" />
		<tag k="ssr:stedsnr" v="417437" />
		<tag k="ssr:type" v="holmeISjø" />
	</node>
	<node lat="59.16928055836549" lon="5.396427777265225" id="-2784">
		<tag k="name" v="Tøgjevika" />
		<tag k="natural" v="bay" />
		<tag k="ssr:date" v="2016-05-10" />
		<tag k="ssr:gruppe" v="kystkontur" />
		<tag k="ssr:hovedgruppe" v="sjø" />
		<tag k="ssr:stedsnr" v="418346" />
		<tag k="ssr:type" v="vikISjø" />
	</node>
	<node lat="59.16068611170632" lon="5.437013891368993" id="-2785">
		<tag k="name" v="Teistholmen" />
		<tag k="place" v="islet" />
		<tag k="ssr:date" v="2016-05-10" />
		<tag k="ssr:gruppe" v="kystkontur" />
		<tag k="ssr:hovedgruppe" v="sjø" />
		<tag k="ssr:stedsnr" v="424912" />
		<tag k="ssr:type" v="holmeISjø" />
	</node>
	<node lat="59.23522500385378" lon="5.475919445562026" id="-2786">
		<tag k="alt_name" v="Hetlebrekk" />
		<tag k="name" v="Hellebrekka" />
		<tag k="natural" v="slope" />
		<tag k="place" v="locality" />
		<tag k="ssr:date" v="2016-05-10" />
		<tag k="ssr:gruppe" v="skråninger" />
		<tag k="ssr:hovedgruppe" v="terreng" />
		<tag k="ssr:stedsnr" v="426418" />
		<tag k="ssr:type" v="li" />
	</node>
	<node lat="59.232475000072576" lon="5.552994440988765" id="-2787">
		<tag k="name" v="Sørevika" />
		<tag k="natural" v="bay" />
		<tag k="ssr:date" v="2016-05-10" />
		<tag k="ssr:gruppe" v="kystkontur" />
		<tag k="ssr:hovedgruppe" v="sjø" />
		<tag k="ssr:stedsnr" v="426427" />
		<tag k="ssr:type" v="vikISjø" />
	</node>
	<node lat="59.211866662815325" lon="5.413172221641256" id="-2788">
		<tag k="alt_name" v="Ulvåvatnet" />
		<tag k="name" v="Ulvåna" />
		<tag k="natural" v="water" />
		<tag k="ssr:date" v="2016-05-10" />
		<tag k="ssr:gruppe" v="stilleståendeVann" />
		<tag k="ssr:hovedgruppe" v="ferskvann" />
		<tag k="ssr:stedsnr" v="427105" />
		<tag k="ssr:type" v="vann" />
		<tag k="water" v="lake" />
	</node>
	<node lat="59.22204999913641" lon="5.400527772796609" id="-2789">
		<tag k="name" v="Stølen" />
		<tag k="place" v="farm" />
		<tag k="ssr:date" v="2016-05-10" />
		<tag k="ssr:gruppe" v="gardsbebyggelse" />
		<tag k="ssr:hovedgruppe" v="bebyggelse" />
		<tag k="ssr:stedsnr" v="427118" />
		<tag k="ssr:type" v="bruk" />
	</node>
	<node lat="59.180897219955426" lon="5.393627780268685" id="-2790">
		<tag k="name" v="Loten" />
		<tag k="place" v="farm" />
		<tag k="ssr:date" v="2021-06-08" />
		<tag k="ssr:gruppe" v="gardsbebyggelse" />
		<tag k="ssr:hovedgruppe" v="bebyggelse" />
		<tag k="ssr:stedsnr" v="449790" />
		<tag k="ssr:type" v="bruk" />
	</node>
	<node lat="59.21489166549519" lon="5.475116672006806" id="-2791">
		<tag k="alt_name" v="Strandvig;Strandvik" />
		<tag k="name" v="Strandavika" />
		<tag k="natural" v="bay" />
		<tag k="ssr:date" v="2016-05-10" />
		<tag k="ssr:gruppe" v="kystkontur" />
		<tag k="ssr:hovedgruppe" v="sjø" />
		<tag k="ssr:stedsnr" v="449905" />
		<tag k="ssr:type" v="vikISjø" />
	</node>
	<node lat="59.17946111075755" lon="5.46424999595827" id="-2792">
		<tag k="fixme" v="consider seamark:type=rock or natural=shoal" />
		<tag k="name" v="Ringskjeret" />
		<tag k="place" v="islet" />
		<tag k="ssr:date" v="2016-05-10" />
		<tag k="ssr:gruppe" v="grunnerISjø" />
		<tag k="ssr:hovedgruppe" v="sjø" />
		<tag k="ssr:stedsnr" v="465613" />
		<tag k="ssr:type" v="skjærISjø" />
	</node>
	<node lat="59.17021110778441" lon="5.414466658486033" id="-2793">
		<tag k="name" v="Litla Sauøyna" />
		<tag k="place" v="islet" />
		<tag k="ssr:date" v="2016-05-10" />
		<tag k="ssr:gruppe" v="kystkontur" />
		<tag k="ssr:hovedgruppe" v="sjø" />
		<tag k="ssr:stedsnr" v="478107" />
		<tag k="ssr:type" v="holmeISjø" />
	</node>
	<node lat="59.17016666973422" lon="5.455372216387271" id="-2794">
		<tag k="name" v="Laksaberget" />
		<tag k="natural" v="hill" />
		<tag k="place" v="locality" />
		<tag k="ssr:date" v="2016-05-10" />
		<tag k="ssr:gruppe" v="høyder" />
		<tag k="ssr:hovedgruppe" v="terreng" />
		<tag k="ssr:stedsnr" v="478058" />
		<tag k="ssr:type" v="høyde" />
	</node>
	<node lat="59.173102776676245" lon="5.384836115760917" id="-2795">
		<tag k="name" v="Lodalandet" />
		<tag k="natural" v="cape" />
		<tag k="ssr:date" v="2016-05-10" />
		<tag k="ssr:gruppe" v="kystkontur" />
		<tag k="ssr:hovedgruppe" v="sjø" />
		<tag k="ssr:stedsnr" v="478371" />
		<tag k="ssr:type" v="halvøyISjø" />
	</node>
	<node lat="59.16946388519409" lon="5.40524999200161" id="-2796">
		<tag k="name" v="Midtre Vierholmen" />
		<tag k="place" v="islet" />
		<tag k="ssr:date" v="2016-05-10" />
		<tag k="ssr:gruppe" v="kystkontur" />
		<tag k="ssr:hovedgruppe" v="sjø" />
		<tag k="ssr:stedsnr" v="478378" />
		<tag k="ssr:type" v="holmeISjø" />
	</node>
	<node lat="59.195144445398874" lon="5.452344446099703" id="-2797">
		<tag k="name" v="Enebor" />
		<tag k="natural" v="hill" />
		<tag k="place" v="locality" />
		<tag k="ssr:date" v="2016-05-10" />
		<tag k="ssr:gruppe" v="høyder" />
		<tag k="ssr:hovedgruppe" v="terreng" />
		<tag k="ssr:stedsnr" v="478503" />
		<tag k="ssr:type" v="berg" />
	</node>
	<node lat="59.15987222293312" lon="5.435933325816218" id="-2798">
		<tag k="name" v="Teistholmen" />
		<tag k="place" v="islet" />
		<tag k="ssr:date" v="2016-05-10" />
		<tag k="ssr:gruppe" v="kystkontur" />
		<tag k="ssr:hovedgruppe" v="sjø" />
		<tag k="ssr:stedsnr" v="487408" />
		<tag k="ssr:type" v="holmeISjø" />
	</node>
	<node lat="59.16313611404436" lon="5.445755547766981" id="-2799">
		<tag k="name" v="Arsneset" />
		<tag k="natural" v="cape" />
		<tag k="ssr:date" v="2016-05-10" />
		<tag k="ssr:gruppe" v="kystkontur" />
		<tag k="ssr:hovedgruppe" v="sjø" />
		<tag k="ssr:stedsnr" v="487409" />
		<tag k="ssr:type" v="nesISjø" />
	</node>
	<node lat="59.266638889978054" lon="5.4307611083185146" id="-2800">
		<tag k="alt_name" v="Bokneflæet" />
		<tag k="bay" v="fjord" />
		<tag k="name" v="Boknaflæet" />
		<tag k="natural" v="bay" />
		<tag k="ssr:date" v="2019-12-27" />
		<tag k="ssr:gruppe" v="farvann" />
		<tag k="ssr:hovedgruppe" v="sjø" />
		<tag k="ssr:stedsnr" v="487906" />
		<tag k="ssr:type" v="fjord" />
	</node>
	<node lat="59.25431111321277" lon="5.460424997793069" id="-2801">
		<tag k="fixme" v="consider seamark:type=rock or natural=shoal" />
		<tag k="name" v="Vardnesskjeret" />
		<tag k="place" v="islet" />
		<tag k="ssr:date" v="2016-05-10" />
		<tag k="ssr:gruppe" v="grunnerISjø" />
		<tag k="ssr:hovedgruppe" v="sjø" />
		<tag k="ssr:stedsnr" v="509603" />
		<tag k="ssr:type" v="skjærISjø" />
	</node>
	<node lat="59.2323388921394" lon="5.462069441646683" id="-2802">
		<tag k="bridge" v="yes" />
		<tag k="layer" v="1" />
		<tag k="name" v="Kro" />
		<tag k="ssr:date" v="2016-05-10" />
		<tag k="ssr:gruppe" v="samferdselsanlegg" />
		<tag k="ssr:hovedgruppe" v="infrastruktur" />
		<tag k="ssr:stedsnr" v="533510" />
		<tag k="ssr:type" v="bru" />
	</node>
	<node lat="59.24596666253333" lon="5.393855555260877" id="-2803">
		<tag k="name" v="Irshamn" />
		<tag k="natural" v="bay" />
		<tag k="ssr:date" v="2016-05-10" />
		<tag k="ssr:gruppe" v="kystkontur" />
		<tag k="ssr:hovedgruppe" v="sjø" />
		<tag k="ssr:stedsnr" v="545875" />
		<tag k="ssr:type" v="vikISjø" />
	</node>
	<node lat="59.229666662583156" lon="5.382144441640419" id="-2804">
		<tag k="fixme" v="consider natural=peak for the most distinct mountains in the district" />
		<tag k="name" v="Vierfjellet" />
		<tag k="natural" v="hill" />
		<tag k="place" v="locality" />
		<tag k="ssr:date" v="2016-05-10" />
		<tag k="ssr:gruppe" v="høyder" />
		<tag k="ssr:hovedgruppe" v="terreng" />
		<tag k="ssr:stedsnr" v="545880" />
		<tag k="ssr:type" v="ås" />
	</node>
	<node lat="59.17967777426795" lon="5.3765250028282505" id="-2805">
		<tag k="name" v="Neset" />
		<tag k="natural" v="cape" />
		<tag k="ssr:date" v="2016-05-10" />
		<tag k="ssr:gruppe" v="kystkontur" />
		<tag k="ssr:hovedgruppe" v="sjø" />
		<tag k="ssr:stedsnr" v="545924" />
		<tag k="ssr:type" v="nesISjø" />
	</node>
	<node lat="59.20855833512746" lon="5.396263882598381" id="-2806">
		<tag k="fixme" v="consider natural=peak for the most distinct mountains in the district" />
		<tag k="name" v="Håmannsnuten" />
		<tag k="natural" v="hill" />
		<tag k="place" v="locality" />
		<tag k="ssr:date" v="2016-05-10" />
		<tag k="ssr:gruppe" v="høyder" />
		<tag k="ssr:hovedgruppe" v="terreng" />
		<tag k="ssr:stedsnr" v="545975" />
		<tag k="ssr:type" v="ås" />
	</node>
	<node lat="59.18887720652103" lon="5.405609722271615" id="-2807">
		<tag k="alt_name" v="Sønnaland" />
		<tag k="fixme" v="consider place=hamlet" />
		<tag k="name" v="Sunnaland" />
		<tag k="place" v="farm" />
		<tag k="ssr:date" v="2019-06-26" />
		<tag k="ssr:gruppe" v="gardsbebyggelse" />
		<tag k="ssr:hovedgruppe" v="bebyggelse" />
		<tag k="ssr:stedsnr" v="547075" />
		<tag k="ssr:type" v="gard" />
	</node>
	<node lat="59.196992459145456" lon="5.443717694150293" id="-2808">
		<tag k="fixme" v="consider place=hamlet" />
		<tag k="name" v="Vatnaland" />
		<tag k="place" v="farm" />
		<tag k="ssr:date" v="2019-06-26" />
		<tag k="ssr:gruppe" v="gardsbebyggelse" />
		<tag k="ssr:hovedgruppe" v="bebyggelse" />
		<tag k="ssr:stedsnr" v="547078" />
		<tag k="ssr:type" v="gard" />
	</node>
	<node lat="59.23268332923987" lon="5.494450000639577" id="-2809">
		<tag k="alt_name" v="Søra Makrellvika" />
		<tag k="name" v="Makrellvika" />
		<tag k="natural" v="bay" />
		<tag k="ssr:date" v="2016-05-10" />
		<tag k="ssr:gruppe" v="kystkontur" />
		<tag k="ssr:hovedgruppe" v="sjø" />
		<tag k="ssr:stedsnr" v="547477" />
		<tag k="ssr:type" v="vikISjø" />
	</node>
	<node lat="59.15690277658296" lon="5.404474994406521" id="-2811">
		<tag k="name" v="Langholmen" />
		<tag k="place" v="islet" />
		<tag k="ssr:date" v="2021-06-08" />
		<tag k="ssr:gruppe" v="kystkontur" />
		<tag k="ssr:hovedgruppe" v="sjø" />
		<tag k="ssr:stedsnr" v="548404" />
		<tag k="ssr:type" v="holmeISjø" />
	</node>
	<node lat="59.19332499957967" lon="5.377283336794508" id="-2812">
		<tag k="fixme" v="consider seamark:type=rock or natural=shoal" />
		<tag k="name" v="Nibbaskjeret" />
		<tag k="place" v="islet" />
		<tag k="ssr:date" v="2021-06-08" />
		<tag k="ssr:gruppe" v="grunnerISjø" />
		<tag k="ssr:hovedgruppe" v="sjø" />
		<tag k="ssr:stedsnr" v="692658" />
		<tag k="ssr:type" v="skjærISjø" />
	</node>
	<node lat="59.20722222629141" lon="5.508333334030159" id="-2813">
		<tag k="name" v="Hillervågen" />
		<tag k="natural" v="bay" />
		<tag k="ssr:date" v="2016-05-10" />
		<tag k="ssr:gruppe" v="kystkontur" />
		<tag k="ssr:hovedgruppe" v="sjø" />
		<tag k="ssr:stedsnr" v="571938" />
		<tag k="ssr:type" v="vågISjø" />
	</node>
	<node lat="59.27255833455007" lon="5.473044448972804" id="-2814">
		<tag k="name" v="Brattholmen" />
		<tag k="place" v="islet" />
		<tag k="ssr:date" v="2016-05-10" />
		<tag k="ssr:gruppe" v="kystkontur" />
		<tag k="ssr:hovedgruppe" v="sjø" />
		<tag k="ssr:stedsnr" v="572645" />
		<tag k="ssr:type" v="holmeISjø" />
	</node>
	<node lat="59.21200833623807" lon="5.552891658378352" id="-2815">
		<tag k="name" v="Rovetærgrunnen" />
		<tag k="natural" v="shoal" />
		<tag k="place" v="locality" />
		<tag k="ssr:date" v="2016-05-11" />
		<tag k="ssr:gruppe" v="grunnerISjø" />
		<tag k="ssr:hovedgruppe" v="sjø" />
		<tag k="ssr:stedsnr" v="693951" />
		<tag k="ssr:type" v="grunneISjø" />
	</node>
	<node lat="59.2537194475685" lon="5.482952782381397" id="-2816">
		<tag k="alt_name" v="Ognatongjen" />
		<tag k="name" v="Ognatangen" />
		<tag k="natural" v="cape" />
		<tag k="ssr:date" v="2016-05-11" />
		<tag k="ssr:gruppe" v="kystkontur" />
		<tag k="ssr:hovedgruppe" v="sjø" />
		<tag k="ssr:stedsnr" v="694629" />
		<tag k="ssr:type" v="nesISjø" />
	</node>
	<node lat="59.203130557853555" lon="5.502861115771694" id="-2818">
		<tag k="name" v="Skolten" />
		<tag k="place" v="locality" />
		<tag k="seamark:type" v="rock" />
		<tag k="ssr:date" v="2016-05-10" />
		<tag k="ssr:gruppe" v="grunnerISjø" />
		<tag k="ssr:hovedgruppe" v="sjø" />
		<tag k="ssr:stedsnr" v="586616" />
		<tag k="ssr:type" v="båeISjø" />
	</node>
	<node lat="59.17036110775583" lon="5.402022216749139" id="-2819">
		<tag k="fixme" v="consider seamark:type=rock or natural=shoal" />
		<tag k="name" v="Varholmen" />
		<tag k="place" v="islet" />
		<tag k="ssr:date" v="2016-05-10" />
		<tag k="ssr:gruppe" v="grunnerISjø" />
		<tag k="ssr:hovedgruppe" v="sjø" />
		<tag k="ssr:stedsnr" v="599351" />
		<tag k="ssr:type" v="skjærISjø" />
	</node>
	<node lat="59.175397218209" lon="5.402102772603731" id="-2820">
		<tag k="name" v="Stuttanes" />
		<tag k="natural" v="cape" />
		<tag k="ssr:date" v="2016-05-10" />
		<tag k="ssr:gruppe" v="kystkontur" />
		<tag k="ssr:hovedgruppe" v="sjø" />
		<tag k="ssr:stedsnr" v="599359" />
		<tag k="ssr:type" v="nesISjø" />
	</node>
	<node lat="59.182163888390576" lon="5.418855558244624" id="-2821">
		<tag k="name" v="Bakkavika" />
		<tag k="natural" v="bay" />
		<tag k="ssr:date" v="2016-05-10" />
		<tag k="ssr:gruppe" v="kystkontur" />
		<tag k="ssr:hovedgruppe" v="sjø" />
		<tag k="ssr:stedsnr" v="599365" />
		<tag k="ssr:type" v="vikISjø" />
	</node>
	<node lat="59.20110833421069" lon="5.3901444357835935" id="-2822">
		<tag k="name" v="Otrahaugane" />
		<tag k="natural" v="hill" />
		<tag k="place" v="locality" />
		<tag k="ssr:date" v="2016-05-10" />
		<tag k="ssr:gruppe" v="høyder" />
		<tag k="ssr:hovedgruppe" v="terreng" />
		<tag k="ssr:stedsnr" v="599467" />
		<tag k="ssr:type" v="høyde" />
	</node>
	<node lat="59.15902222070332" lon="5.3914861102168485" id="-2823">
		<tag k="name" v="Kleppogn" />
		<tag k="natural" v="strait" />
		<tag k="ssr:date" v="2016-05-10" />
		<tag k="ssr:gruppe" v="kystkontur" />
		<tag k="ssr:hovedgruppe" v="sjø" />
		<tag k="ssr:stedsnr" v="600807" />
		<tag k="ssr:type" v="sundISjø" />
	</node>
	<node lat="59.24785000269261" lon="5.4588138829962105" id="-2824">
		<tag k="name" v="Krovatnet" />
		<tag k="natural" v="water" />
		<tag k="ssr:date" v="2016-05-10" />
		<tag k="ssr:gruppe" v="stilleståendeVann" />
		<tag k="ssr:hovedgruppe" v="ferskvann" />
		<tag k="ssr:stedsnr" v="606898" />
		<tag k="ssr:type" v="tjern" />
	</node>
	<node lat="59.19324167021558" lon="5.379522222476459" id="-2825">
		<tag k="name" v="Ringpynten" />
		<tag k="natural" v="cape" />
		<tag k="ssr:date" v="2021-06-08" />
		<tag k="ssr:gruppe" v="kystkontur" />
		<tag k="ssr:hovedgruppe" v="sjø" />
		<tag k="ssr:stedsnr" v="608054" />
		<tag k="ssr:type" v="nesISjø" />
	</node>
	<node lat="59.216622225226494" lon="5.4446000007676405" id="-2826">
		<tag k="alt_name" v="Boknabergsvatnet" />
		<tag k="name" v="Boknabergvatnet" />
		<tag k="natural" v="water" />
		<tag k="ssr:date" v="2016-05-10" />
		<tag k="ssr:gruppe" v="stilleståendeVann" />
		<tag k="ssr:hovedgruppe" v="ferskvann" />
		<tag k="ssr:stedsnr" v="608091" />
		<tag k="ssr:type" v="tjern" />
	</node>
	<node lat="59.22446944162533" lon="5.540652786347419" id="-2827">
		<tag k="fixme" v="consider seamark:type=rock or natural=shoal" />
		<tag k="name" v="Rovetærne" />
		<tag k="place" v="islet" />
		<tag k="ssr:date" v="2016-05-10" />
		<tag k="ssr:gruppe" v="grunnerISjø" />
		<tag k="ssr:hovedgruppe" v="sjø" />
		<tag k="ssr:stedsnr" v="608492" />
		<tag k="ssr:type" v="skjærISjø" />
	</node>
	<node lat="59.25338055578002" lon="5.479633334714396" id="-2828">
		<tag k="name" v="Båsen" />
		<tag k="natural" v="bay" />
		<tag k="ssr:date" v="2016-05-10" />
		<tag k="ssr:gruppe" v="kystkontur" />
		<tag k="ssr:hovedgruppe" v="sjø" />
		<tag k="ssr:stedsnr" v="629911" />
		<tag k="ssr:type" v="vikISjø" />
	</node>
	<node lat="59.1935194483779" lon="5.384269444089318" id="-2829">
		<tag k="name" v="Skibaflua" />
		<tag k="place" v="locality" />
		<tag k="seamark:type" v="rock" />
		<tag k="ssr:date" v="2021-06-08" />
		<tag k="ssr:gruppe" v="grunnerISjø" />
		<tag k="ssr:hovedgruppe" v="sjø" />
		<tag k="ssr:stedsnr" v="630607" />
		<tag k="ssr:type" v="båeISjø" />
	</node>
	<node lat="59.173730558327506" lon="5.396694439403606" id="-2830">
		<tag k="name" v="Storevågen" />
		<tag k="natural" v="bay" />
		<tag k="ssr:date" v="2021-06-08" />
		<tag k="ssr:gruppe" v="kystkontur" />
		<tag k="ssr:hovedgruppe" v="sjø" />
		<tag k="ssr:stedsnr" v="630618" />
		<tag k="ssr:type" v="vågISjø" />
	</node>
	<node lat="59.194391666106704" lon="5.38591389707024" id="-2831">
		<tag k="name" v="Skibaflua" />
		<tag k="place" v="locality" />
		<tag k="seamark:type" v="rock" />
		<tag k="ssr:date" v="2016-05-10" />
		<tag k="ssr:gruppe" v="grunnerISjø" />
		<tag k="ssr:hovedgruppe" v="sjø" />
		<tag k="ssr:stedsnr" v="647625" />
		<tag k="ssr:type" v="båeISjø" />
	</node>
	<node lat="59.17061667000397" lon="5.45350000406961" id="-2832">
		<tag k="alt_name" v="Arsvågen" />
		<tag k="amenity" v="ferry_terminal" />
		<tag k="name" v="Arsvågen ferjekai" />
		<tag k="ssr:date" v="2016-05-10" />
		<tag k="ssr:gruppe" v="sjøfart" />
		<tag k="ssr:hovedgruppe" v="infrastruktur" />
		<tag k="ssr:stedsnr" v="654513" />
		<tag k="ssr:type" v="ferjekai" />
	</node>
	<node lat="59.182061115700094" lon="5.4151333365747" id="-2833">
		<tag k="name" v="Bakkjen" />
		<tag k="place" v="farm" />
		<tag k="ssr:date" v="2016-05-10" />
		<tag k="ssr:gruppe" v="gardsbebyggelse" />
		<tag k="ssr:hovedgruppe" v="bebyggelse" />
		<tag k="ssr:stedsnr" v="660395" />
		<tag k="ssr:type" v="bruk" />
	</node>
	<node lat="59.17024721780896" lon="5.420591663681121" id="-2834">
		<tag k="name" v="Skyttarholmen" />
		<tag k="place" v="islet" />
		<tag k="ssr:date" v="2016-05-10" />
		<tag k="ssr:gruppe" v="kystkontur" />
		<tag k="ssr:hovedgruppe" v="sjø" />
		<tag k="ssr:stedsnr" v="660399" />
		<tag k="ssr:type" v="holmeISjø" />
	</node>
	<node lat="59.198033335600606" lon="5.441599991321494" id="-2835">
		<tag k="name" v="Husafjellet" />
		<tag k="natural" v="hill" />
		<tag k="place" v="locality" />
		<tag k="ssr:date" v="2016-05-10" />
		<tag k="ssr:gruppe" v="høyder" />
		<tag k="ssr:hovedgruppe" v="terreng" />
		<tag k="ssr:stedsnr" v="660504" />
		<tag k="ssr:type" v="høyde" />
	</node>
	<node lat="59.185455556959795" lon="5.401361102486552" id="-2836">
		<tag k="name" v="Kvednavika" />
		<tag k="natural" v="bay" />
		<tag k="ssr:date" v="2016-05-10" />
		<tag k="ssr:gruppe" v="kystkontur" />
		<tag k="ssr:hovedgruppe" v="sjø" />
		<tag k="ssr:stedsnr" v="660480" />
		<tag k="ssr:type" v="vikISjø" />
	</node>
	<node lat="59.19208333703612" lon="5.432758337146293" id="-2837">
		<tag k="name" v="Pålavika" />
		<tag k="natural" v="bay" />
		<tag k="ssr:date" v="2016-05-10" />
		<tag k="ssr:gruppe" v="ferskvannskontur" />
		<tag k="ssr:hovedgruppe" v="ferskvann" />
		<tag k="ssr:stedsnr" v="660487" />
		<tag k="ssr:type" v="vik" />
	</node>
	<node lat="59.195438886640844" lon="5.433566664560379" id="-2838">
		<tag k="name" v="Vatlandsvatnet" />
		<tag k="natural" v="water" />
		<tag k="ssr:date" v="2016-05-10" />
		<tag k="ssr:gruppe" v="stilleståendeVann" />
		<tag k="ssr:hovedgruppe" v="ferskvann" />
		<tag k="ssr:stedsnr" v="660491" />
		<tag k="ssr:type" v="vann" />
		<tag k="water" v="lake" />
	</node>
	<node lat="59.187491664778406" lon="5.423061114045528" id="-2839">
		<tag k="name" v="Tveidane" />
		<tag k="place" v="farm" />
		<tag k="ssr:date" v="2016-05-10" />
		<tag k="ssr:gruppe" v="gardsbebyggelse" />
		<tag k="ssr:hovedgruppe" v="bebyggelse" />
		<tag k="ssr:stedsnr" v="660498" />
		<tag k="ssr:type" v="bruk" />
	</node>
	<node lat="59.161525002528386" lon="5.4302916646879185" id="-2840">
		<tag k="name" v="Stongholmsvika" />
		<tag k="natural" v="bay" />
		<tag k="ssr:date" v="2016-05-10" />
		<tag k="ssr:gruppe" v="kystkontur" />
		<tag k="ssr:hovedgruppe" v="sjø" />
		<tag k="ssr:stedsnr" v="660804" />
		<tag k="ssr:type" v="vikISjø" />
	</node>
	<node lat="59.23452499962338" lon="5.441911118908508" id="-2841">
		<tag k="fixme" v="consider seamark:type=rock or natural=shoal" />
		<tag k="name" v="Tå" />
		<tag k="place" v="islet" />
		<tag k="ssr:date" v="2016-05-10" />
		<tag k="ssr:gruppe" v="grunnerISjø" />
		<tag k="ssr:hovedgruppe" v="sjø" />
		<tag k="ssr:stedsnr" v="668008" />
		<tag k="ssr:type" v="skjærISjø" />
	</node>
	<node lat="59.21150277558919" lon="5.3890694470454354" id="-2842">
		<tag k="name" v="Vintrastø" />
		<tag k="place" v="farm" />
		<tag k="ssr:date" v="2021-06-08" />
		<tag k="ssr:gruppe" v="gardsbebyggelse" />
		<tag k="ssr:hovedgruppe" v="bebyggelse" />
		<tag k="ssr:stedsnr" v="669078" />
		<tag k="ssr:type" v="bruk" />
	</node>
	<node lat="59.218722224467996" lon="5.458322225738959" id="-2843">
		<tag k="name" v="Alvestadkroken" />
		<tag k="natural" v="cape" />
		<tag k="ssr:date" v="2016-05-10" />
		<tag k="ssr:gruppe" v="kystkontur" />
		<tag k="ssr:hovedgruppe" v="sjø" />
		<tag k="ssr:stedsnr" v="669084" />
		<tag k="ssr:type" v="nesISjø" />
	</node>
	<node lat="59.17353888937258" lon="5.416436119726813" id="-2844">
		<tag k="name" v="Stora Kjeøya" />
		<tag k="place" v="islet" />
		<tag k="ssr:date" v="2021-06-08" />
		<tag k="ssr:gruppe" v="kystkontur" />
		<tag k="ssr:hovedgruppe" v="sjø" />
		<tag k="ssr:stedsnr" v="669416" />
		<tag k="ssr:type" v="holmeISjø" />
	</node>
	<node lat="59.16128889016241" lon="5.427936117040781" id="-2845">
		<tag k="name" v="Stumpen" />
		<tag k="place" v="locality" />
		<tag k="seamark:type" v="rock" />
		<tag k="ssr:date" v="2021-06-08" />
		<tag k="ssr:gruppe" v="grunnerISjø" />
		<tag k="ssr:hovedgruppe" v="sjø" />
		<tag k="ssr:stedsnr" v="692681" />
		<tag k="ssr:type" v="båeISjø" />
	</node>
	<node lat="59.22728611090244" lon="5.499686110716996" id="-2846">
		<tag k="alt_name" v="Skjersund" />
		<tag k="name" v="Skjersundet" />
		<tag k="natural" v="strait" />
		<tag k="ssr:date" v="2016-05-11" />
		<tag k="ssr:gruppe" v="kystkontur" />
		<tag k="ssr:hovedgruppe" v="sjø" />
		<tag k="ssr:stedsnr" v="693872" />
		<tag k="ssr:type" v="sundISjø" />
	</node>
	<node lat="59.26498888603791" lon="5.450552785091462" id="-2847">
		<tag k="name" v="Brattholmen" />
		<tag k="place" v="islet" />
		<tag k="ssr:date" v="2016-05-11" />
		<tag k="ssr:gruppe" v="kystkontur" />
		<tag k="ssr:hovedgruppe" v="sjø" />
		<tag k="ssr:stedsnr" v="694624" />
		<tag k="ssr:type" v="holmeISjø" />
	</node>
	<node lat="59.20982221852463" lon="5.457336111177077" id="-2848">
		<tag k="bridge" v="yes" />
		<tag k="layer" v="1" />
		<tag k="name" v="Industrivegen" />
		<tag k="ssr:date" v="2016-05-11" />
		<tag k="ssr:gruppe" v="samferdselsanlegg" />
		<tag k="ssr:hovedgruppe" v="infrastruktur" />
		<tag k="ssr:stedsnr" v="897477" />
		<tag k="ssr:type" v="bru" />
	</node>
	<node lat="59.15311389099583" lon="5.43925277043292" id="-2849">
		<tag k="name" v="Skolleflua" />
		<tag k="place" v="locality" />
		<tag k="seamark:type" v="rock" />
		<tag k="ssr:date" v="2016-05-11" />
		<tag k="ssr:gruppe" v="grunnerISjø" />
		<tag k="ssr:hovedgruppe" v="sjø" />
		<tag k="ssr:stedsnr" v="708668" />
		<tag k="ssr:type" v="båeISjø" />
	</node>
	<node lat="59.18530278061914" lon="5.404141671451139" id="-2850">
		<tag k="bridge" v="yes" />
		<tag k="layer" v="1" />
		<tag k="name" v="Sønderlandstraumen" />
		<tag k="ssr:date" v="2016-05-11" />
		<tag k="ssr:gruppe" v="samferdselsanlegg" />
		<tag k="ssr:hovedgruppe" v="infrastruktur" />
		<tag k="ssr:stedsnr" v="715523" />
		<tag k="ssr:type" v="bru" />
	</node>
	<node lat="59.170008336979784" lon="5.405174995394912" id="-2851">
		<tag k="name" v="Nordre Vierholmen" />
		<tag k="place" v="islet" />
		<tag k="ssr:date" v="2016-05-11" />
		<tag k="ssr:gruppe" v="kystkontur" />
		<tag k="ssr:hovedgruppe" v="sjø" />
		<tag k="ssr:stedsnr" v="721371" />
		<tag k="ssr:type" v="holmeISjø" />
	</node>
	<node lat="59.1881027781558" lon="5.412258339762512" id="-2852">
		<tag k="name" v="Sunnalandsvatnet" />
		<tag k="natural" v="water" />
		<tag k="ssr:date" v="2016-05-11" />
		<tag k="ssr:gruppe" v="stilleståendeVann" />
		<tag k="ssr:hovedgruppe" v="ferskvann" />
		<tag k="ssr:stedsnr" v="721472" />
		<tag k="ssr:type" v="vann" />
		<tag k="water" v="lake" />
	</node>
	<node lat="59.24612499698034" lon="5.386924992105608" id="-2853">
		<tag k="name" v="Boknahovsholmen" />
		<tag k="place" v="islet" />
		<tag k="ssr:date" v="2016-05-11" />
		<tag k="ssr:gruppe" v="kystkontur" />
		<tag k="ssr:hovedgruppe" v="sjø" />
		<tag k="ssr:stedsnr" v="727876" />
		<tag k="ssr:type" v="holmeISjø" />
	</node>
	<node lat="59.23050555704832" lon="5.388422230805712" id="-2854">
		<tag k="name" v="Nordre Breivik" />
		<tag k="place" v="farm" />
		<tag k="ssr:date" v="2016-05-11" />
		<tag k="ssr:gruppe" v="gardsbebyggelse" />
		<tag k="ssr:hovedgruppe" v="bebyggelse" />
		<tag k="ssr:stedsnr" v="727887" />
		<tag k="ssr:type" v="bruk" />
	</node>
	<node lat="59.233338887877444" lon="5.41046943613732" id="-2855">
		<tag k="fixme" v="consider natural=peak for the most distinct mountains in the district" />
		<tag k="name" v="Spikfjell" />
		<tag k="natural" v="hill" />
		<tag k="place" v="locality" />
		<tag k="ssr:date" v="2016-05-11" />
		<tag k="ssr:gruppe" v="høyder" />
		<tag k="ssr:hovedgruppe" v="terreng" />
		<tag k="ssr:stedsnr" v="727889" />
		<tag k="ssr:type" v="ås" />
	</node>
	<node lat="59.23776666471045" lon="5.411055561828947" id="-2856">
		<tag k="fixme" v="consider natural=peak for the most distinct mountains in the district" />
		<tag k="name" v="Stoggfjell" />
		<tag k="natural" v="hill" />
		<tag k="place" v="locality" />
		<tag k="ssr:date" v="2016-05-11" />
		<tag k="ssr:gruppe" v="høyder" />
		<tag k="ssr:hovedgruppe" v="terreng" />
		<tag k="ssr:stedsnr" v="727891" />
		<tag k="ssr:type" v="ås" />
	</node>
	<node lat="59.22096111102748" lon="5.408263882613426" id="-2857">
		<tag k="fixme" v="consider natural=peak for the most distinct mountains in the district" />
		<tag k="name" v="Varen" />
		<tag k="natural" v="hill" />
		<tag k="place" v="locality" />
		<tag k="ssr:date" v="2016-05-11" />
		<tag k="ssr:gruppe" v="høyder" />
		<tag k="ssr:hovedgruppe" v="terreng" />
		<tag k="ssr:stedsnr" v="727977" />
		<tag k="ssr:type" v="ås" />
	</node>
	<node lat="59.212702777247365" lon="5.420016664478855" id="-2858">
		<tag k="name" v="Olahaugane" />
		<tag k="natural" v="hill" />
		<tag k="place" v="locality" />
		<tag k="ssr:date" v="2016-05-11" />
		<tag k="ssr:gruppe" v="høyder" />
		<tag k="ssr:hovedgruppe" v="terreng" />
		<tag k="ssr:stedsnr" v="727980" />
		<tag k="ssr:type" v="haug" />
	</node>
	<node lat="59.21537777888883" lon="5.49968055833438" id="-2859">
		<tag k="name" v="Sjuraodden" />
		<tag k="natural" v="cape" />
		<tag k="ssr:date" v="2016-05-11" />
		<tag k="ssr:gruppe" v="kystkontur" />
		<tag k="ssr:hovedgruppe" v="sjø" />
		<tag k="ssr:stedsnr" v="727998" />
		<tag k="ssr:type" v="nesISjø" />
	</node>
	<node lat="59.20448889123261" lon="5.382816660713641" id="-2860">
		<tag k="name" v="Ådnaneset" />
		<tag k="natural" v="cape" />
		<tag k="ssr:date" v="2021-06-08" />
		<tag k="ssr:gruppe" v="kystkontur" />
		<tag k="ssr:hovedgruppe" v="sjø" />
		<tag k="ssr:stedsnr" v="729081" />
		<tag k="ssr:type" v="nesISjø" />
	</node>
	<node lat="59.21045719894622" lon="5.4261590018283705" id="-2861">
		<tag k="fixme" v="consider place=hamlet" />
		<tag k="name" v="Torland" />
		<tag k="place" v="farm" />
		<tag k="ssr:date" v="2019-06-26" />
		<tag k="ssr:gruppe" v="gardsbebyggelse" />
		<tag k="ssr:hovedgruppe" v="bebyggelse" />
		<tag k="ssr:stedsnr" v="730088" />
		<tag k="ssr:type" v="gard" />
	</node>
	<node lat="59.22626388977043" lon="5.384230547657463" id="-2862">
		<tag k="fixme" v="multiple name tags, choose one and add the other to alt_name" />
		<tag k="name" v="Flatberget;Ørnå" />
		<tag k="natural" v="hill" />
		<tag k="place" v="locality" />
		<tag k="ssr:date" v="2016-05-11" />
		<tag k="ssr:gruppe" v="høyder" />
		<tag k="ssr:hovedgruppe" v="terreng" />
		<tag k="ssr:stedsnr" v="730106" />
		<tag k="ssr:type" v="berg" />
	</node>
	<node lat="59.17345833400864" lon="5.403855557065033" id="-2863">
		<tag k="name" v="Langanes" />
		<tag k="natural" v="cape" />
		<tag k="ssr:date" v="2021-06-08" />
		<tag k="ssr:gruppe" v="kystkontur" />
		<tag k="ssr:hovedgruppe" v="sjø" />
		<tag k="ssr:stedsnr" v="730422" />
		<tag k="ssr:type" v="nesISjø" />
	</node>
	<node lat="59.25646666427164" lon="5.403375006630095" id="-2864">
		<tag k="alt_name" v="Mekjerøya, store;stora Megjarøyna;Stora Megerøy" />
		<tag k="name" v="Stora Mekjerøya" />
		<tag k="place" v="islet" />
		<tag k="ssr:date" v="2016-05-11" />
		<tag k="ssr:gruppe" v="kystkontur" />
		<tag k="ssr:hovedgruppe" v="sjø" />
		<tag k="ssr:stedsnr" v="730892" />
		<tag k="ssr:type" v="holmeISjø" />
	</node>
	<node lat="59.268063889206005" lon="5.4534583275651975" id="-2865">
		<tag k="alt_name" v="Lamholmen" />
		<tag k="name" v="Lamholmane" />
		<tag k="place" v="islet" />
		<tag k="ssr:date" v="2016-05-11" />
		<tag k="ssr:gruppe" v="kystkontur" />
		<tag k="ssr:hovedgruppe" v="sjø" />
		<tag k="ssr:stedsnr" v="730904" />
		<tag k="ssr:type" v="holmeISjø" />
	</node>
	<node lat="59.167077781556635" lon="5.4200999950715705" id="-2866">
		<tag k="name" v="Austre Brog" />
		<tag k="place" v="islet" />
		<tag k="ssr:date" v="2016-05-11" />
		<tag k="ssr:gruppe" v="kystkontur" />
		<tag k="ssr:hovedgruppe" v="sjø" />
		<tag k="ssr:stedsnr" v="903391" />
		<tag k="ssr:type" v="holmeISjø" />
	</node>
	<node lat="59.19511388833769" lon="5.406124993639438" id="-2867">
		<tag k="name" v="Håfjellet" />
		<tag k="natural" v="hill" />
		<tag k="place" v="locality" />
		<tag k="ssr:date" v="2016-05-11" />
		<tag k="ssr:gruppe" v="høyder" />
		<tag k="ssr:hovedgruppe" v="terreng" />
		<tag k="ssr:stedsnr" v="903455" />
		<tag k="ssr:type" v="berg" />
	</node>
	<node lat="59.198436108247385" lon="5.452352785836301" id="-2868">
		<tag k="fixme" v="consider natural=peak for the most distinct mountains in the district" />
		<tag k="name" v="Søra Hatlefjellet" />
		<tag k="natural" v="hill" />
		<tag k="place" v="locality" />
		<tag k="ssr:date" v="2016-05-11" />
		<tag k="ssr:gruppe" v="høyder" />
		<tag k="ssr:hovedgruppe" v="terreng" />
		<tag k="ssr:stedsnr" v="903466" />
		<tag k="ssr:type" v="fjell" />
	</node>
	<node lat="59.186636111462946" lon="5.466977778630366" id="-2869">
		<tag k="alt_name" v="Krokvågen" />
		<tag k="name" v="Kråkevågen" />
		<tag k="natural" v="bay" />
		<tag k="ssr:date" v="2016-05-11" />
		<tag k="ssr:gruppe" v="kystkontur" />
		<tag k="ssr:hovedgruppe" v="sjø" />
		<tag k="ssr:stedsnr" v="903472" />
		<tag k="ssr:type" v="vågISjø" />
	</node>
	<node lat="59.160836112652326" lon="5.400152779707372" id="-2870">
		<tag k="name" v="Regavik" />
		<tag k="natural" v="bay" />
		<tag k="ssr:date" v="2016-05-11" />
		<tag k="ssr:gruppe" v="kystkontur" />
		<tag k="ssr:hovedgruppe" v="sjø" />
		<tag k="ssr:stedsnr" v="903811" />
		<tag k="ssr:type" v="vikISjø" />
	</node>
	<node lat="59.23662500402459" lon="5.485324999919377" id="-2871">
		<tag k="name" v="Nordra Makrellvika" />
		<tag k="natural" v="bay" />
		<tag k="ssr:date" v="2016-05-11" />
		<tag k="ssr:gruppe" v="kystkontur" />
		<tag k="ssr:hovedgruppe" v="sjø" />
		<tag k="ssr:stedsnr" v="909972" />
		<tag k="ssr:type" v="vikISjø" />
	</node>
	<node lat="59.24714999882068" lon="5.4684666688462995" id="-2872">
		<tag k="name" v="Reinafjellet" />
		<tag k="natural" v="cliff" />
		<tag k="ssr:date" v="2016-05-11" />
		<tag k="ssr:gruppe" v="terrengdetaljer" />
		<tag k="ssr:hovedgruppe" v="terreng" />
		<tag k="ssr:stedsnr" v="909973" />
		<tag k="ssr:type" v="stup" />
	</node>
	<node lat="59.20661944675771" lon="5.395380555985942" id="-2873">
		<tag k="name" v="Håmannsvatnet" />
		<tag k="natural" v="water" />
		<tag k="ssr:date" v="2016-05-11" />
		<tag k="ssr:gruppe" v="stilleståendeVann" />
		<tag k="ssr:hovedgruppe" v="ferskvann" />
		<tag k="ssr:stedsnr" v="909981" />
		<tag k="ssr:type" v="tjern" />
	</node>
	<node lat="59.19798333519404" lon="5.416950004664" id="-2874">
		<tag k="fixme" v="consider natural=peak for the most distinct mountains in the district" />
		<tag k="name" v="Grønestadfjellet" />
		<tag k="natural" v="hill" />
		<tag k="place" v="locality" />
		<tag k="ssr:date" v="2016-05-11" />
		<tag k="ssr:gruppe" v="høyder" />
		<tag k="ssr:hovedgruppe" v="terreng" />
		<tag k="ssr:stedsnr" v="782447" />
		<tag k="ssr:type" v="fjell" />
	</node>
	<node lat="59.22776667094166" lon="5.469613895574037" id="-2875">
		<tag k="name" v="Orrehammaren" />
		<tag k="natural" v="cliff" />
		<tag k="ssr:date" v="2016-05-11" />
		<tag k="ssr:gruppe" v="terrengdetaljer" />
		<tag k="ssr:hovedgruppe" v="terreng" />
		<tag k="ssr:stedsnr" v="787891" />
		<tag k="ssr:type" v="stup" />
	</node>
	<node lat="59.21813055507814" lon="5.4808833362074125" id="-2876">
		<tag k="name" v="Ospehaugane" />
		<tag k="natural" v="hill" />
		<tag k="place" v="locality" />
		<tag k="ssr:date" v="2016-05-11" />
		<tag k="ssr:gruppe" v="høyder" />
		<tag k="ssr:hovedgruppe" v="terreng" />
		<tag k="ssr:stedsnr" v="787986" />
		<tag k="ssr:type" v="haug" />
	</node>
	<node lat="59.21343888967205" lon="5.461030554058849" id="-2877">
		<tag k="name" v="Hålandssjøen" />
		<tag k="natural" v="bay" />
		<tag k="ssr:date" v="2016-05-11" />
		<tag k="ssr:gruppe" v="kystkontur" />
		<tag k="ssr:hovedgruppe" v="sjø" />
		<tag k="ssr:stedsnr" v="787989" />
		<tag k="ssr:type" v="vikISjø" />
	</node>
	<node lat="59.21008888672122" lon="5.451247230031792" id="-2878">
		<tag k="fixme" v="consider natural=peak for the most distinct mountains in the district" />
		<tag k="name" v="Linefjellet" />
		<tag k="natural" v="hill" />
		<tag k="place" v="locality" />
		<tag k="ssr:date" v="2016-05-11" />
		<tag k="ssr:gruppe" v="høyder" />
		<tag k="ssr:hovedgruppe" v="terreng" />
		<tag k="ssr:stedsnr" v="787992" />
		<tag k="ssr:type" v="ås" />
	</node>
	<node lat="59.185043724364995" lon="5.446319481330605" id="-2879">
		<tag k="fixme" v="consider place=hamlet" />
		<tag k="name" v="Laupland" />
		<tag k="place" v="farm" />
		<tag k="ssr:date" v="2019-06-26" />
		<tag k="ssr:gruppe" v="gardsbebyggelse" />
		<tag k="ssr:hovedgruppe" v="bebyggelse" />
		<tag k="ssr:stedsnr" v="790415" />
		<tag k="ssr:type" v="gard" />
	</node>
	<node lat="59.19564492418766" lon="5.42944543856945" id="-2880">
		<tag k="alt_name" v="Økland" />
		<tag k="fixme" v="consider place=hamlet" />
		<tag k="name" v="Aukland" />
		<tag k="place" v="farm" />
		<tag k="ssr:date" v="2019-06-26" />
		<tag k="ssr:gruppe" v="gardsbebyggelse" />
		<tag k="ssr:hovedgruppe" v="bebyggelse" />
		<tag k="ssr:stedsnr" v="912060" />
		<tag k="ssr:type" v="gard" />
	</node>
	<node lat="59.17433611371399" lon="5.45472222259752" id="-2881">
		<tag k="name" v="Kvernavika" />
		<tag k="natural" v="bay" />
		<tag k="ssr:date" v="2016-05-11" />
		<tag k="ssr:gruppe" v="kystkontur" />
		<tag k="ssr:hovedgruppe" v="sjø" />
		<tag k="ssr:stedsnr" v="912447" />
		<tag k="ssr:type" v="vikISjø" />
	</node>
	<node lat="59.1838749959688" lon="5.457061104152292" id="-2882">
		<tag k="name" v="Vågskjeften" />
		<tag k="natural" v="bay" />
		<tag k="ssr:date" v="2016-05-11" />
		<tag k="ssr:gruppe" v="kystkontur" />
		<tag k="ssr:hovedgruppe" v="sjø" />
		<tag k="ssr:stedsnr" v="912450" />
		<tag k="ssr:type" v="vikISjø" />
	</node>
	<node lat="59.23453611321141" lon="5.489005553966401" id="-2883">
		<tag k="alt_name" v="Ormestøa" />
		<tag k="name" v="Ormastø" />
		<tag k="natural" v="bay" />
		<tag k="ssr:date" v="2016-05-11" />
		<tag k="ssr:gruppe" v="kystkontur" />
		<tag k="ssr:hovedgruppe" v="sjø" />
		<tag k="ssr:stedsnr" v="912457" />
		<tag k="ssr:type" v="vikISjø" />
	</node>
	<node lat="59.15965555453401" lon="5.3948500023809745" id="-2885">
		<tag k="name" v="Regaviga" />
		<tag k="natural" v="bay" />
		<tag k="ssr:date" v="2021-06-08" />
		<tag k="ssr:gruppe" v="kystkontur" />
		<tag k="ssr:hovedgruppe" v="sjø" />
		<tag k="ssr:stedsnr" v="813678" />
		<tag k="ssr:type" v="vikISjø" />
	</node>
	<node lat="59.158722220987336" lon="5.409825000257031" id="-2886">
		<tag k="fixme" v="consider seamark:type=rock or natural=shoal" />
		<tag k="name" v="Olaskjeret" />
		<tag k="place" v="islet" />
		<tag k="ssr:date" v="2021-06-08" />
		<tag k="ssr:gruppe" v="grunnerISjø" />
		<tag k="ssr:hovedgruppe" v="sjø" />
		<tag k="ssr:stedsnr" v="813685" />
		<tag k="ssr:type" v="skjærISjø" />
	</node>
	<node lat="59.21664999655464" lon="5.498333333836586" id="-2887">
		<tag k="name" v="Torvberget" />
		<tag k="natural" v="hill" />
		<tag k="place" v="locality" />
		<tag k="ssr:date" v="2016-05-11" />
		<tag k="ssr:gruppe" v="høyder" />
		<tag k="ssr:hovedgruppe" v="terreng" />
		<tag k="ssr:stedsnr" v="814919" />
		<tag k="ssr:type" v="høyde" />
	</node>
	<node lat="59.21939764543304" lon="5.487667604642798" id="-2888">
		<tag k="name" v="Våga" />
		<tag k="place" v="hamlet" />
		<tag k="ssr:date" v="2019-06-26" />
		<tag k="ssr:gruppe" v="gardsbebyggelse" />
		<tag k="ssr:hovedgruppe" v="bebyggelse" />
		<tag k="ssr:stedsnr" v="814922" />
		<tag k="ssr:type" v="navnegard" />
	</node>
	<node lat="59.1820555580666" lon="5.463808338945839" id="-2889">
		<tag k="fixme" v="consider seamark:type=rock or natural=shoal" />
		<tag k="name" v="Hedleskjer" />
		<tag k="place" v="islet" />
		<tag k="ssr:date" v="2016-05-11" />
		<tag k="ssr:gruppe" v="grunnerISjø" />
		<tag k="ssr:hovedgruppe" v="sjø" />
		<tag k="ssr:stedsnr" v="843078" />
		<tag k="ssr:type" v="skjærISjø" />
	</node>
	<node lat="59.18194999669286" lon="5.409524995124676" id="-2890">
		<tag k="name" v="Djubevika" />
		<tag k="natural" v="bay" />
		<tag k="ssr:date" v="2016-05-11" />
		<tag k="ssr:gruppe" v="kystkontur" />
		<tag k="ssr:hovedgruppe" v="sjø" />
		<tag k="ssr:stedsnr" v="843374" />
		<tag k="ssr:type" v="vikISjø" />
	</node>
	<node lat="59.228180558075934" lon="5.460344438039478" id="-2891">
		<tag k="name" v="Tåganes" />
		<tag k="natural" v="cape" />
		<tag k="ssr:date" v="2016-05-11" />
		<tag k="ssr:gruppe" v="kystkontur" />
		<tag k="ssr:hovedgruppe" v="sjø" />
		<tag k="ssr:stedsnr" v="848895" />
		<tag k="ssr:type" v="nesISjø" />
	</node>
	<node lat="59.21614722598762" lon="5.486961109903994" id="-2892">
		<tag k="name" v="Rabben" />
		<tag k="place" v="farm" />
		<tag k="ssr:date" v="2016-05-11" />
		<tag k="ssr:gruppe" v="gardsbebyggelse" />
		<tag k="ssr:hovedgruppe" v="bebyggelse" />
		<tag k="ssr:stedsnr" v="848979" />
		<tag k="ssr:type" v="bruk" />
	</node>
	<node lat="59.246113885946194" lon="5.391472219944636" id="-2893">
		<tag k="name" v="Djubavik" />
		<tag k="natural" v="bay" />
		<tag k="ssr:date" v="2016-05-11" />
		<tag k="ssr:gruppe" v="kystkontur" />
		<tag k="ssr:hovedgruppe" v="sjø" />
		<tag k="ssr:stedsnr" v="849887" />
		<tag k="ssr:type" v="vikISjø" />
	</node>
	<node lat="59.2408159427212" lon="5.393786243291541" id="-2894">
		<tag k="name" v="Søra Boknahovstjørna" />
		<tag k="natural" v="water" />
		<tag k="ssr:date" v="2017-02-28" />
		<tag k="ssr:gruppe" v="stilleståendeVann" />
		<tag k="ssr:hovedgruppe" v="ferskvann" />
		<tag k="ssr:stedsnr" v="849890" />
		<tag k="ssr:type" v="tjern" />
	</node>
	<node lat="59.21561667094511" lon="5.404816664923349" id="-2895">
		<tag k="name" v="Gunnarstadvatnet" />
		<tag k="natural" v="water" />
		<tag k="ssr:date" v="2021-06-08" />
		<tag k="ssr:gruppe" v="stilleståendeVann" />
		<tag k="ssr:hovedgruppe" v="ferskvann" />
		<tag k="ssr:stedsnr" v="851109" />
		<tag k="ssr:type" v="vann" />
		<tag k="water" v="lake" />
	</node>
	<node lat="59.18703333208275" lon="5.400955549702363" id="-2896">
		<tag k="name" v="Sunnalandsstraumen" />
		<tag k="natural" v="strait" />
		<tag k="ssr:date" v="2021-06-08" />
		<tag k="ssr:gruppe" v="kystkontur" />
		<tag k="ssr:hovedgruppe" v="sjø" />
		<tag k="ssr:stedsnr" v="851077" />
		<tag k="ssr:type" v="sundISjø" />
	</node>
	<node lat="59.206480555780004" lon="5.465677773264849" id="-2897">
		<tag k="alt_name" v="Sponevig;Sponevik" />
		<tag k="name" v="Sponavika" />
		<tag k="natural" v="bay" />
		<tag k="ssr:date" v="2016-05-11" />
		<tag k="ssr:gruppe" v="kystkontur" />
		<tag k="ssr:hovedgruppe" v="sjø" />
		<tag k="ssr:stedsnr" v="851086" />
		<tag k="ssr:type" v="vikISjø" />
	</node>
	<node lat="59.21036944883246" lon="5.466216663985323" id="-2898">
		<tag k="alt_name" v="Knarrholmen" />
		<tag k="name" v="Knarholmen" />
		<tag k="place" v="islet" />
		<tag k="ssr:date" v="2016-05-11" />
		<tag k="ssr:gruppe" v="kystkontur" />
		<tag k="ssr:hovedgruppe" v="sjø" />
		<tag k="ssr:stedsnr" v="851087" />
		<tag k="ssr:type" v="holmeISjø" />
	</node>
	<node lat="59.234691669357396" lon="5.555000005780942" id="-2899">
		<tag k="name" v="Laksavika" />
		<tag k="natural" v="bay" />
		<tag k="ssr:date" v="2016-05-11" />
		<tag k="ssr:gruppe" v="kystkontur" />
		<tag k="ssr:hovedgruppe" v="sjø" />
		<tag k="ssr:stedsnr" v="851407" />
		<tag k="ssr:type" v="vikISjø" />
	</node>
	<node lat="59.217777777308754" lon="5.499166666003426" id="-2900">
		<tag k="name" v="Båshilleren" />
		<tag k="place" v="farm" />
		<tag k="ssr:date" v="2016-05-11" />
		<tag k="ssr:gruppe" v="gardsbebyggelse" />
		<tag k="ssr:hovedgruppe" v="bebyggelse" />
		<tag k="ssr:stedsnr" v="875907" />
		<tag k="ssr:type" v="bruk" />
	</node>
	<node lat="59.26083333406297" lon="5.471649999142609" id="-2901">
		<tag k="name" v="Stemmen" />
		<tag k="natural" v="water" />
		<tag k="ssr:date" v="2016-05-11" />
		<tag k="ssr:gruppe" v="stilleståendeVann" />
		<tag k="ssr:hovedgruppe" v="ferskvann" />
		<tag k="ssr:stedsnr" v="876653" />
		<tag k="ssr:type" v="tjern" />
	</node>
	<node lat="59.253130553500824" lon="5.473075000309049" id="-2902">
		<tag k="name" v="Bukkatøkje" />
		<tag k="natural" v="bay" />
		<tag k="ssr:date" v="2016-05-11" />
		<tag k="ssr:gruppe" v="kystkontur" />
		<tag k="ssr:hovedgruppe" v="sjø" />
		<tag k="ssr:stedsnr" v="876656" />
		<tag k="ssr:type" v="vikISjø" />
	</node>
	<node lat="59.25461389165803" lon="5.466674999702114" id="-2903">
		<tag k="name" v="Kvidatong" />
		<tag k="natural" v="cape" />
		<tag k="ssr:date" v="2016-05-11" />
		<tag k="ssr:gruppe" v="kystkontur" />
		<tag k="ssr:hovedgruppe" v="sjø" />
		<tag k="ssr:stedsnr" v="876658" />
		<tag k="ssr:type" v="nesISjø" />
	</node>
	<node lat="59.19705555940501" lon="5.3821444360581" id="-2904">
		<tag k="name" v="Kjelsflua" />
		<tag k="place" v="locality" />
		<tag k="seamark:type" v="rock" />
		<tag k="ssr:date" v="2021-06-08" />
		<tag k="ssr:gruppe" v="grunnerISjø" />
		<tag k="ssr:hovedgruppe" v="sjø" />
		<tag k="ssr:stedsnr" v="934629" />
		<tag k="ssr:type" v="båeISjø" />
	</node>
	<node lat="59.26683888580919" lon="5.485863882338447" id="-2905">
		<tag k="fixme" v="consider seamark:type=rock or natural=shoal" />
		<tag k="name" v="Ognakalvskjeret" />
		<tag k="place" v="islet" />
		<tag k="ssr:date" v="2016-05-11" />
		<tag k="ssr:gruppe" v="grunnerISjø" />
		<tag k="ssr:hovedgruppe" v="sjø" />
		<tag k="ssr:stedsnr" v="934886" />
		<tag k="ssr:type" v="skjærISjø" />
	</node>
	<node lat="59.228149996765964" lon="5.4453888819381175" id="-2906">
		<tag k="name" v="Sæbbøhaugen" />
		<tag k="natural" v="hill" />
		<tag k="place" v="locality" />
		<tag k="ssr:date" v="2016-05-11" />
		<tag k="ssr:gruppe" v="høyder" />
		<tag k="ssr:hovedgruppe" v="terreng" />
		<tag k="ssr:stedsnr" v="909909" />
		<tag k="ssr:type" v="haug" />
	</node>
	<node lat="59.233549995829144" lon="5.462138883322272" id="-2907">
		<tag k="name" v="Bakkane" />
		<tag k="natural" v="slope" />
		<tag k="place" v="locality" />
		<tag k="ssr:date" v="2016-05-11" />
		<tag k="ssr:gruppe" v="skråninger" />
		<tag k="ssr:hovedgruppe" v="terreng" />
		<tag k="ssr:stedsnr" v="909910" />
		<tag k="ssr:type" v="bakke" />
	</node>
	<node lat="59.19293333111728" lon="5.378724994388155" id="-2908">
		<tag k="name" v="Stora Drauavika" />
		<tag k="natural" v="bay" />
		<tag k="ssr:date" v="2016-05-11" />
		<tag k="ssr:gruppe" v="kystkontur" />
		<tag k="ssr:hovedgruppe" v="sjø" />
		<tag k="ssr:stedsnr" v="910942" />
		<tag k="ssr:type" v="vikISjø" />
	</node>
	<node lat="59.22771666487489" lon="5.395108338284398" id="-2909">
		<tag k="name" v="Sandvatnet" />
		<tag k="natural" v="water" />
		<tag k="ssr:date" v="2016-05-11" />
		<tag k="ssr:gruppe" v="stilleståendeVann" />
		<tag k="ssr:hovedgruppe" v="ferskvann" />
		<tag k="ssr:stedsnr" v="911006" />
		<tag k="ssr:type" v="tjern" />
	</node>
	<node lat="59.23179539554803" lon="5.403737150549055" id="-2910">
		<tag k="alt_name" v="Halvardsvatnet" />
		<tag k="name" v="Buarvatnet" />
		<tag k="natural" v="water" />
		<tag k="ssr:date" v="2019-10-23" />
		<tag k="ssr:gruppe" v="stilleståendeVann" />
		<tag k="ssr:hovedgruppe" v="ferskvann" />
		<tag k="ssr:stedsnr" v="911008" />
		<tag k="ssr:type" v="vann" />
		<tag k="water" v="lake" />
	</node>
	<node lat="59.240986113005526" lon="5.422850002414791" id="-2911">
		<tag k="name" v="Kongshamn" />
		<tag k="natural" v="bay" />
		<tag k="ssr:date" v="2016-05-11" />
		<tag k="ssr:gruppe" v="kystkontur" />
		<tag k="ssr:hovedgruppe" v="sjø" />
		<tag k="ssr:stedsnr" v="911038" />
		<tag k="ssr:type" v="vikISjø" />
	</node>
	<node lat="59.21307222149692" lon="5.3753361028491495" id="-2912">
		<tag k="name" v="Bergsuggenakken" />
		<tag k="natural" v="cape" />
		<tag k="ssr:date" v="2021-06-08" />
		<tag k="ssr:gruppe" v="kystkontur" />
		<tag k="ssr:hovedgruppe" v="sjø" />
		<tag k="ssr:stedsnr" v="912097" />
		<tag k="ssr:type" v="nesISjø" />
	</node>
	<node lat="59.16193610807667" lon="5.455130551235489" id="-2913">
		<tag k="alt_name" v="Solholmen, s" />
		<tag k="name" v="Søre Solholmen" />
		<tag k="place" v="islet" />
		<tag k="ssr:date" v="2016-05-11" />
		<tag k="ssr:gruppe" v="kystkontur" />
		<tag k="ssr:hovedgruppe" v="sjø" />
		<tag k="ssr:stedsnr" v="912390" />
		<tag k="ssr:type" v="holmeISjø" />
	</node>
	<node lat="59.167500000589826" lon="5.4617833300948835" id="-2914">
		<tag k="alt_name" v="Knudskjeret" />
		<tag k="fixme" v="consider seamark:type=rock or natural=shoal" />
		<tag k="name" v="Knutskjer" />
		<tag k="place" v="islet" />
		<tag k="ssr:date" v="2016-05-11" />
		<tag k="ssr:gruppe" v="grunnerISjø" />
		<tag k="ssr:hovedgruppe" v="sjø" />
		<tag k="ssr:stedsnr" v="912408" />
		<tag k="ssr:type" v="skjærISjø" />
	</node>
	<node lat="59.17678888885488" lon="5.411088890695061" id="-2915">
		<tag k="name" v="Lindraken" />
		<tag k="natural" v="cape" />
		<tag k="ssr:date" v="2016-05-11" />
		<tag k="ssr:gruppe" v="kystkontur" />
		<tag k="ssr:hovedgruppe" v="sjø" />
		<tag k="ssr:stedsnr" v="912430" />
		<tag k="ssr:type" v="nesISjø" />
	</node>
	<node lat="59.22343515204639" lon="5.489696017943683" id="-2916">
		<tag k="alt_name" v="Våga" />
		<tag k="fixme" v="consider place=hamlet" />
		<tag k="name" v="Nordre Våga" />
		<tag k="place" v="farm" />
		<tag k="ssr:date" v="2019-06-26" />
		<tag k="ssr:gruppe" v="gardsbebyggelse" />
		<tag k="ssr:hovedgruppe" v="bebyggelse" />
		<tag k="ssr:stedsnr" v="912493" />
		<tag k="ssr:type" v="gard" />
	</node>
	<node lat="59.253577775500986" lon="5.398313888383111" id="-2917">
		<tag k="alt_name" v="Mekjerøya, l;litla Megjarøyna;Litla Megerøy" />
		<tag k="name" v="Litla Mekjerøya" />
		<tag k="place" v="islet" />
		<tag k="ssr:date" v="2016-05-11" />
		<tag k="ssr:gruppe" v="kystkontur" />
		<tag k="ssr:hovedgruppe" v="sjø" />
		<tag k="ssr:stedsnr" v="913884" />
		<tag k="ssr:type" v="holmeISjø" />
	</node>
	<node lat="59.25546110792786" lon="5.389041674693126" id="-2918">
		<tag k="alt_name" v="Tollaksholmane" />
		<tag k="name" v="Tallaksholmane" />
		<tag k="place" v="islet" />
		<tag k="ssr:date" v="2016-05-11" />
		<tag k="ssr:gruppe" v="kystkontur" />
		<tag k="ssr:hovedgruppe" v="sjø" />
		<tag k="ssr:stedsnr" v="913885" />
		<tag k="ssr:type" v="holmeISjø" />
	</node>
	<node lat="59.231536110199514" lon="5.378297227334011" id="-2919">
		<tag k="name" v="Vierflua" />
		<tag k="natural" v="shoal" />
		<tag k="place" v="locality" />
		<tag k="ssr:date" v="2016-05-11" />
		<tag k="ssr:gruppe" v="grunnerISjø" />
		<tag k="ssr:hovedgruppe" v="sjø" />
		<tag k="ssr:stedsnr" v="936035" />
		<tag k="ssr:type" v="grunneISjø" />
	</node>
	<node lat="59.252902774875565" lon="5.45889167192914" id="-2920">
		<tag k="name" v="Varaneset" />
		<tag k="natural" v="cape" />
		<tag k="ssr:date" v="2016-05-11" />
		<tag k="ssr:gruppe" v="kystkontur" />
		<tag k="ssr:hovedgruppe" v="sjø" />
		<tag k="ssr:stedsnr" v="937706" />
		<tag k="ssr:type" v="nesISjø" />
	</node>
	<node lat="59.19924722186139" lon="5.470963896320764" id="-2921">
		<tag k="name" v="Sandvikneset" />
		<tag k="natural" v="cape" />
		<tag k="ssr:date" v="2016-05-11" />
		<tag k="ssr:gruppe" v="kystkontur" />
		<tag k="ssr:hovedgruppe" v="sjø" />
		<tag k="ssr:stedsnr" v="963547" />
		<tag k="ssr:type" v="nesISjø" />
	</node>
	<node lat="59.20002500301495" lon="5.472127773410166" id="-2922">
		<tag k="name" v="Seiavikane" />
		<tag k="natural" v="bay" />
		<tag k="ssr:date" v="2016-05-11" />
		<tag k="ssr:gruppe" v="kystkontur" />
		<tag k="ssr:hovedgruppe" v="sjø" />
		<tag k="ssr:stedsnr" v="963548" />
		<tag k="ssr:type" v="vikISjø" />
	</node>
	<node lat="59.16194721971006" lon="5.4384916696192604" id="-2923">
		<tag k="name" v="Hedleholmen" />
		<tag k="place" v="islet" />
		<tag k="ssr:date" v="2016-05-11" />
		<tag k="ssr:gruppe" v="kystkontur" />
		<tag k="ssr:hovedgruppe" v="sjø" />
		<tag k="ssr:stedsnr" v="963844" />
		<tag k="ssr:type" v="holmeISjø" />
	</node>
	<node lat="59.22808055413365" lon="5.493763888175467" id="-2924">
		<tag k="fixme" v="consider natural=peak for the most distinct mountains in the district" />
		<tag k="name" v="Heigrafjellet" />
		<tag k="natural" v="hill" />
		<tag k="place" v="locality" />
		<tag k="ssr:date" v="2016-05-11" />
		<tag k="ssr:gruppe" v="høyder" />
		<tag k="ssr:hovedgruppe" v="terreng" />
		<tag k="ssr:stedsnr" v="969975" />
		<tag k="ssr:type" v="ås" />
	</node>
	<node lat="59.24060833026677" lon="5.384808333667054" id="-2925">
		<tag k="name" v="Nordra Lammanesvika" />
		<tag k="natural" v="bay" />
		<tag k="ssr:date" v="2016-05-11" />
		<tag k="ssr:gruppe" v="kystkontur" />
		<tag k="ssr:hovedgruppe" v="sjø" />
		<tag k="ssr:stedsnr" v="970597" />
		<tag k="ssr:type" v="vikISjø" />
	</node>
	<node lat="59.23241944761077" lon="5.414599995317776" id="-2926">
		<tag k="name" v="Søllbrekk" />
		<tag k="place" v="farm" />
		<tag k="ssr:date" v="2016-05-11" />
		<tag k="ssr:gruppe" v="gardsbebyggelse" />
		<tag k="ssr:hovedgruppe" v="bebyggelse" />
		<tag k="ssr:stedsnr" v="970610" />
		<tag k="ssr:type" v="bruk" />
	</node>
	<node lat="59.23136281228922" lon="5.391912907864712" id="-2927">
		<tag k="name" v="Nordre Bornevik" />
		<tag k="place" v="farm" />
		<tag k="ssr:date" v="2017-01-06" />
		<tag k="ssr:gruppe" v="gardsbebyggelse" />
		<tag k="ssr:hovedgruppe" v="bebyggelse" />
		<tag k="ssr:stedsnr" v="973797" />
		<tag k="ssr:type" v="bruk" />
	</node>
	<node lat="59.24448333033075" lon="5.439941664701071" id="-2929">
		<tag k="alt_name" v="Bleika;Bleigjå" />
		<tag k="fixme" v="consider seamark:type=rock or natural=shoal" />
		<tag k="name" v="Bleikjo" />
		<tag k="place" v="islet" />
		<tag k="ssr:date" v="2016-05-10" />
		<tag k="ssr:gruppe" v="grunnerISjø" />
		<tag k="ssr:hovedgruppe" v="sjø" />
		<tag k="ssr:stedsnr" v="1035" />
		<tag k="ssr:type" v="skjærISjø" />
	</node>
	<node lat="59.19956388492604" lon="5.465333332525366" id="-2930">
		<tag k="alt_name" v="Sandviga;Sandvik" />
		<tag k="name" v="Sandvika" />
		<tag k="natural" v="bay" />
		<tag k="ssr:date" v="2016-05-10" />
		<tag k="ssr:gruppe" v="kystkontur" />
		<tag k="ssr:hovedgruppe" v="sjø" />
		<tag k="ssr:stedsnr" v="1326" />
		<tag k="ssr:type" v="vikISjø" />
	</node>
	<node lat="59.187086112632706" lon="5.454819450743136" id="-2931">
		<tag k="name" v="Vågshaug" />
		<tag k="place" v="farm" />
		<tag k="ssr:date" v="2016-05-10" />
		<tag k="ssr:gruppe" v="gardsbebyggelse" />
		<tag k="ssr:hovedgruppe" v="bebyggelse" />
		<tag k="ssr:stedsnr" v="1423" />
		<tag k="ssr:type" v="bruk" />
	</node>
	<node lat="59.17842500053211" lon="5.463516664805787" id="-2932">
		<tag k="name" v="Lauplandsholmen" />
		<tag k="place" v="islet" />
		<tag k="ssr:date" v="2016-05-10" />
		<tag k="ssr:gruppe" v="kystkontur" />
		<tag k="ssr:hovedgruppe" v="sjø" />
		<tag k="ssr:stedsnr" v="1440" />
		<tag k="ssr:type" v="holmeISjø" />
	</node>
	<node lat="59.23879444424686" lon="5.482988893755605" id="-2933">
		<tag k="alt_name" v="Viervik" />
		<tag k="name" v="Viervika" />
		<tag k="natural" v="bay" />
		<tag k="ssr:date" v="2016-05-10" />
		<tag k="ssr:gruppe" v="kystkontur" />
		<tag k="ssr:hovedgruppe" v="sjø" />
		<tag k="ssr:stedsnr" v="1457" />
		<tag k="ssr:type" v="vikISjø" />
	</node>
	<node lat="59.22764999847975" lon="5.538925007927386" id="-2934">
		<tag k="fixme" v="consider seamark:type=rock or natural=shoal" />
		<tag k="name" v="Hompane" />
		<tag k="place" v="islet" />
		<tag k="ssr:date" v="2016-05-10" />
		<tag k="ssr:gruppe" v="grunnerISjø" />
		<tag k="ssr:hovedgruppe" v="sjø" />
		<tag k="ssr:stedsnr" v="1473" />
		<tag k="ssr:type" v="skjærISjø" />
	</node>
	<node lat="59.22090832953897" lon="5.502300003123512" id="-2935">
		<tag k="name" v="Eikevika" />
		<tag k="natural" v="bay" />
		<tag k="ssr:date" v="2016-05-10" />
		<tag k="ssr:gruppe" v="kystkontur" />
		<tag k="ssr:hovedgruppe" v="sjø" />
		<tag k="ssr:stedsnr" v="1477" />
		<tag k="ssr:type" v="vikISjø" />
	</node>
	<node lat="59.156650002921566" lon="5.415894448977842" id="-2936">
		<tag k="fixme" v="consider seamark:type=rock or natural=shoal" />
		<tag k="name" v="Terneskjeret" />
		<tag k="place" v="islet" />
		<tag k="ssr:date" v="2021-06-08" />
		<tag k="ssr:gruppe" v="grunnerISjø" />
		<tag k="ssr:hovedgruppe" v="sjø" />
		<tag k="ssr:stedsnr" v="2392" />
		<tag k="ssr:type" v="skjærISjø" />
	</node>
	<node lat="59.16229999870431" lon="5.423880563803916" id="-2937">
		<tag k="fixme" v="consider seamark:type=rock or natural=shoal" />
		<tag k="name" v="Krabbaskjer" />
		<tag k="place" v="islet" />
		<tag k="ssr:date" v="2021-06-08" />
		<tag k="ssr:gruppe" v="grunnerISjø" />
		<tag k="ssr:hovedgruppe" v="sjø" />
		<tag k="ssr:stedsnr" v="2397" />
		<tag k="ssr:type" v="skjærISjø" />
	</node>
	<node lat="59.229119442462604" lon="5.4588611117101244" id="-2939">
		<tag k="name" v="Træsbåflua" />
		<tag k="natural" v="shoal" />
		<tag k="place" v="locality" />
		<tag k="ssr:date" v="2016-05-10" />
		<tag k="ssr:gruppe" v="grunnerISjø" />
		<tag k="ssr:hovedgruppe" v="sjø" />
		<tag k="ssr:stedsnr" v="24638" />
		<tag k="ssr:type" v="grunneISjø" />
	</node>
	<node lat="59.25270832937266" lon="5.418652785643604" id="-2940">
		<tag k="alt_name" v="Gulebleken" />
		<tag k="fixme" v="consider seamark:type=rock or natural=shoal" />
		<tag k="name" v="Gula Bleigjå" />
		<tag k="place" v="islet" />
		<tag k="ssr:date" v="2016-05-10" />
		<tag k="ssr:gruppe" v="grunnerISjø" />
		<tag k="ssr:hovedgruppe" v="sjø" />
		<tag k="ssr:stedsnr" v="27040" />
		<tag k="ssr:type" v="skjærISjø" />
	</node>
	<node lat="59.27119444613169" lon="5.447016667590716" id="-2941">
		<tag k="fixme" v="consider seamark:type=rock or natural=shoal" />
		<tag k="name" v="Rauholmflua" />
		<tag k="place" v="islet" />
		<tag k="ssr:date" v="2016-05-10" />
		<tag k="ssr:gruppe" v="grunnerISjø" />
		<tag k="ssr:hovedgruppe" v="sjø" />
		<tag k="ssr:stedsnr" v="27653" />
		<tag k="ssr:type" v="skjærISjø" />
	</node>
	<node lat="59.26944444718837" lon="5.475277771266831" id="-2942">
		<tag k="alt_name" v="Kalvsundet" />
		<tag k="name" v="Ognakalvsundet" />
		<tag k="natural" v="strait" />
		<tag k="ssr:date" v="2016-05-10" />
		<tag k="ssr:gruppe" v="kystkontur" />
		<tag k="ssr:hovedgruppe" v="sjø" />
		<tag k="ssr:stedsnr" v="27666" />
		<tag k="ssr:type" v="sundISjø" />
	</node>
	<node lat="59.18211111279996" lon="5.461977783079021" id="-2943">
		<tag k="bridge" v="yes" />
		<tag k="layer" v="1" />
		<tag k="name" v="Lauplandsvågen" />
		<tag k="ssr:date" v="2016-05-10" />
		<tag k="ssr:gruppe" v="samferdselsanlegg" />
		<tag k="ssr:hovedgruppe" v="infrastruktur" />
		<tag k="ssr:stedsnr" v="47499" />
		<tag k="ssr:type" v="bru" />
	</node>
	<node lat="59.221611113665496" lon="5.453324996846674" id="-2944">
		<tag k="bridge" v="yes" />
		<tag k="layer" v="1" />
		<tag k="name" v="Alvestadkroken" />
		<tag k="ssr:date" v="2016-05-10" />
		<tag k="ssr:gruppe" v="samferdselsanlegg" />
		<tag k="ssr:hovedgruppe" v="infrastruktur" />
		<tag k="ssr:stedsnr" v="47500" />
		<tag k="ssr:type" v="bru" />
	</node>
	<node lat="59.20517801966486" lon="5.388704187188663" id="-2945">
		<tag k="name" v="Middagsvatnet" />
		<tag k="natural" v="water" />
		<tag k="ssr:date" v="2019-10-23" />
		<tag k="ssr:gruppe" v="stilleståendeVann" />
		<tag k="ssr:hovedgruppe" v="ferskvann" />
		<tag k="ssr:stedsnr" v="54490" />
		<tag k="ssr:type" v="vann" />
		<tag k="water" v="lake" />
	</node>
	<node lat="59.202597220765085" lon="5.436602769814974" id="-2946">
		<tag k="fixme" v="consider natural=peak for the most distinct mountains in the district" />
		<tag k="name" v="Skarstadfjellet" />
		<tag k="natural" v="hill" />
		<tag k="place" v="locality" />
		<tag k="ssr:date" v="2016-05-10" />
		<tag k="ssr:gruppe" v="høyder" />
		<tag k="ssr:hovedgruppe" v="terreng" />
		<tag k="ssr:stedsnr" v="54500" />
		<tag k="ssr:type" v="fjell" />
	</node>
	<node lat="59.15950000385037" lon="5.438377785839577" id="-2947">
		<tag k="name" v="Sørasundet" />
		<tag k="natural" v="strait" />
		<tag k="ssr:date" v="2016-05-10" />
		<tag k="ssr:gruppe" v="kystkontur" />
		<tag k="ssr:hovedgruppe" v="sjø" />
		<tag k="ssr:stedsnr" v="53841" />
		<tag k="ssr:type" v="sundISjø" />
	</node>
	<node lat="59.21541388848557" lon="5.39199721883704" id="-2948">
		<tag k="alt_name" v="Vaet" />
		<tag k="ford" v="yes" />
		<tag k="name" v="Vadet" />
		<tag k="place" v="locality" />
		<tag k="ssr:date" v="2016-05-10" />
		<tag k="ssr:gruppe" v="veg" />
		<tag k="ssr:hovedgruppe" v="infrastruktur" />
		<tag k="ssr:stedsnr" v="59964" />
		<tag k="ssr:type" v="vad" />
	</node>
	<node lat="59.24264444060881" lon="5.389802779987838" id="-2949">
		<tag k="name" v="Nordra Boknahovstjørna" />
		<tag k="natural" v="water" />
		<tag k="ssr:date" v="2016-05-10" />
		<tag k="ssr:gruppe" v="stilleståendeVann" />
		<tag k="ssr:hovedgruppe" v="ferskvann" />
		<tag k="ssr:stedsnr" v="60897" />
		<tag k="ssr:type" v="tjern" />
	</node>
	<node lat="59.198283333250856" lon="5.376844438795425" id="-2950">
		<tag k="name" v="Hattahola" />
		<tag k="natural" v="bay" />
		<tag k="ssr:date" v="2016-05-10" />
		<tag k="ssr:gruppe" v="kystkontur" />
		<tag k="ssr:hovedgruppe" v="sjø" />
		<tag k="ssr:stedsnr" v="60942" />
		<tag k="ssr:type" v="vikISjø" />
	</node>
	<node lat="59.26287777633957" lon="5.4672361078144425" id="-2951">
		<tag k="name" v="Ognøya" />
		<tag k="place" v="island" />
		<tag k="ssr:date" v="2021-06-08" />
		<tag k="ssr:gruppe" v="kystkontur" />
		<tag k="ssr:hovedgruppe" v="sjø" />
		<tag k="ssr:stedsnr" v="63876" />
		<tag k="ssr:type" v="øyISjø" />
	</node>
	<node lat="59.270388890511924" lon="5.467252785254811" id="-2952">
		<tag k="name" v="Buvika" />
		<tag k="natural" v="bay" />
		<tag k="ssr:date" v="2016-05-10" />
		<tag k="ssr:gruppe" v="kystkontur" />
		<tag k="ssr:hovedgruppe" v="sjø" />
		<tag k="ssr:stedsnr" v="85560" />
		<tag k="ssr:type" v="vikISjø" />
	</node>
	<node lat="59.25648888661277" lon="5.4489000035206425" id="-2953">
		<tag k="alt_name" v="Skarvaskjeret" />
		<tag k="fixme" v="consider seamark:type=rock or natural=shoal" />
		<tag k="name" v="Skarvaskjer" />
		<tag k="place" v="islet" />
		<tag k="ssr:date" v="2016-05-10" />
		<tag k="ssr:gruppe" v="grunnerISjø" />
		<tag k="ssr:hovedgruppe" v="sjø" />
		<tag k="ssr:stedsnr" v="87659" />
		<tag k="ssr:type" v="skjærISjø" />
	</node>
	<node lat="59.1686333334456" lon="5.411305557206991" id="-2954">
		<tag k="fixme" v="consider seamark:type=rock or natural=shoal" />
		<tag k="name" v="Syssen" />
		<tag k="place" v="islet" />
		<tag k="ssr:date" v="2016-05-10" />
		<tag k="ssr:gruppe" v="grunnerISjø" />
		<tag k="ssr:hovedgruppe" v="sjø" />
		<tag k="ssr:stedsnr" v="114400" />
		<tag k="ssr:type" v="skjærISjø" />
	</node>
	<node lat="59.19996944456045" lon="5.419144436238096" id="-2955">
		<tag k="name" v="Dagslandsdalen" />
		<tag k="natural" v="valley" />
		<tag k="place" v="locality" />
		<tag k="ssr:date" v="2016-05-10" />
		<tag k="ssr:gruppe" v="senkninger" />
		<tag k="ssr:hovedgruppe" v="terreng" />
		<tag k="ssr:stedsnr" v="114508" />
		<tag k="ssr:type" v="dal" />
	</node>
	<node lat="59.197486108452615" lon="5.44298888293692" id="-2956">
		<tag k="junction" v="yes" />
		<tag k="name" v="Vatlandskrossen" />
		<tag k="place" v="locality" />
		<tag k="ssr:date" v="2016-05-10" />
		<tag k="ssr:gruppe" v="veg" />
		<tag k="ssr:hovedgruppe" v="infrastruktur" />
		<tag k="ssr:stedsnr" v="114516" />
		<tag k="ssr:type" v="vegkryss" />
	</node>
	<node lat="59.16040000172484" lon="5.401633329110485" id="-2957">
		<tag k="name" v="Kjøresundodden" />
		<tag k="natural" v="cape" />
		<tag k="ssr:date" v="2016-05-10" />
		<tag k="ssr:gruppe" v="kystkontur" />
		<tag k="ssr:hovedgruppe" v="sjø" />
		<tag k="ssr:stedsnr" v="114830" />
		<tag k="ssr:type" v="nesISjø" />
	</node>
	<node lat="59.232724997729065" lon="5.38771388568818" id="-2958">
		<tag k="name" v="Måkholmen" />
		<tag k="place" v="islet" />
		<tag k="ssr:date" v="2016-05-10" />
		<tag k="ssr:gruppe" v="kystkontur" />
		<tag k="ssr:hovedgruppe" v="sjø" />
		<tag k="ssr:stedsnr" v="121893" />
		<tag k="ssr:type" v="holmeISjø" />
	</node>
	<node lat="59.2366944453949" lon="5.408624997624384" id="-2959">
		<tag k="name" v="Stoggdalen" />
		<tag k="natural" v="valley" />
		<tag k="place" v="locality" />
		<tag k="ssr:date" v="2016-05-10" />
		<tag k="ssr:gruppe" v="senkninger" />
		<tag k="ssr:hovedgruppe" v="terreng" />
		<tag k="ssr:stedsnr" v="121898" />
		<tag k="ssr:type" v="dal" />
	</node>
	<node lat="59.245369445353646" lon="5.420397229551688" id="-2960">
		<tag k="name" v="Store Brattholmen" />
		<tag k="place" v="islet" />
		<tag k="ssr:date" v="2016-05-10" />
		<tag k="ssr:gruppe" v="kystkontur" />
		<tag k="ssr:hovedgruppe" v="sjø" />
		<tag k="ssr:stedsnr" v="121901" />
		<tag k="ssr:type" v="holmeISjø" />
	</node>
	<node lat="59.242547217886745" lon="5.5134166631092425" id="-2961">
		<tag k="bay" v="fjord" />
		<tag k="name" v="Falkeidflæet" />
		<tag k="natural" v="bay" />
		<tag k="ssr:date" v="2016-05-10" />
		<tag k="ssr:gruppe" v="farvann" />
		<tag k="ssr:hovedgruppe" v="sjø" />
		<tag k="ssr:stedsnr" v="122437" />
		<tag k="ssr:type" v="fjord" />
	</node>
	<node lat="59.15017499895058" lon="5.421244438937491" id="-2962">
		<tag k="name" v="Kråga" />
		<tag k="place" v="islet" />
		<tag k="ssr:date" v="2021-06-08" />
		<tag k="ssr:gruppe" v="kystkontur" />
		<tag k="ssr:hovedgruppe" v="sjø" />
		<tag k="ssr:stedsnr" v="122401" />
		<tag k="ssr:type" v="holmeISjø" />
	</node>
	<node lat="59.16069444797459" lon="5.392080554471159" id="-2963">
		<tag k="name" v="Klepphaugen" />
		<tag k="natural" v="hill" />
		<tag k="place" v="locality" />
		<tag k="ssr:date" v="2016-05-10" />
		<tag k="ssr:gruppe" v="høyder" />
		<tag k="ssr:hovedgruppe" v="terreng" />
		<tag k="ssr:stedsnr" v="123416" />
		<tag k="ssr:type" v="haug" />
	</node>
	<node lat="59.165833329023236" lon="5.432738886387054" id="-2964">
		<tag k="name" v="Geida" />
		<tag k="natural" v="cape" />
		<tag k="ssr:date" v="2021-06-08" />
		<tag k="ssr:gruppe" v="kystkontur" />
		<tag k="ssr:hovedgruppe" v="sjø" />
		<tag k="ssr:stedsnr" v="123473" />
		<tag k="ssr:type" v="halvøyISjø" />
	</node>
	<node lat="59.17809166508881" lon="5.435513891283561" id="-2965">
		<tag k="fixme" v="consider natural=peak for the most distinct mountains in the district" />
		<tag k="name" v="Hognåsen" />
		<tag k="natural" v="hill" />
		<tag k="place" v="locality" />
		<tag k="ssr:date" v="2016-05-10" />
		<tag k="ssr:gruppe" v="høyder" />
		<tag k="ssr:hovedgruppe" v="terreng" />
		<tag k="ssr:stedsnr" v="123483" />
		<tag k="ssr:type" v="fjell" />
	</node>
	<node lat="59.15772618025176" lon="5.391314953883794" id="-2966">
		<tag k="fixme" v="consider seamark:type=rock or natural=shoal" />
		<tag k="name" v="Kleppskjeret" />
		<tag k="place" v="islet" />
		<tag k="ssr:date" v="2021-06-08" />
		<tag k="ssr:gruppe" v="grunnerISjø" />
		<tag k="ssr:hovedgruppe" v="sjø" />
		<tag k="ssr:stedsnr" v="123424" />
		<tag k="ssr:type" v="skjærISjø" />
	</node>
	<node lat="59.16894444330419" lon="5.462702779975074" id="-2967">
		<tag k="alt_name" v="Solholmen, nordre" />
		<tag k="name" v="Nordre Solholmen" />
		<tag k="place" v="islet" />
		<tag k="ssr:date" v="2016-05-10" />
		<tag k="ssr:gruppe" v="kystkontur" />
		<tag k="ssr:hovedgruppe" v="sjø" />
		<tag k="ssr:stedsnr" v="123437" />
		<tag k="ssr:type" v="holmeISjø" />
	</node>
	<node lat="59.175346145544246" lon="5.40435001232767" id="-2968">
		<tag k="name" v="Langanesvågen" />
		<tag k="natural" v="bay" />
		<tag k="ssr:date" v="2021-06-08" />
		<tag k="ssr:gruppe" v="kystkontur" />
		<tag k="ssr:hovedgruppe" v="sjø" />
		<tag k="ssr:stedsnr" v="145660" />
		<tag k="ssr:type" v="vågISjø" />
	</node>
	<node lat="59.21981110951597" lon="5.3762249938385205" id="-2969">
		<tag k="name" v="Skruholmen" />
		<tag k="place" v="islet" />
		<tag k="ssr:date" v="2021-06-08" />
		<tag k="ssr:gruppe" v="kystkontur" />
		<tag k="ssr:hovedgruppe" v="sjø" />
		<tag k="ssr:stedsnr" v="146648" />
		<tag k="ssr:type" v="holmeISjø" />
	</node>
	<node lat="59.217638890168296" lon="5.378911107853845" id="-2970">
		<tag k="fixme" v="consider seamark:type=rock or natural=shoal" />
		<tag k="name" v="Purkesteinane" />
		<tag k="place" v="islet" />
		<tag k="ssr:date" v="2021-06-08" />
		<tag k="ssr:gruppe" v="grunnerISjø" />
		<tag k="ssr:hovedgruppe" v="sjø" />
		<tag k="ssr:stedsnr" v="146650" />
		<tag k="ssr:type" v="skjærISjø" />
	</node>
	<node lat="59.252933333609484" lon="5.411252783156082" id="-2971">
		<tag k="name" v="Litle Vindholmen" />
		<tag k="place" v="islet" />
		<tag k="ssr:date" v="2016-05-10" />
		<tag k="ssr:gruppe" v="kystkontur" />
		<tag k="ssr:hovedgruppe" v="sjø" />
		<tag k="ssr:stedsnr" v="148048" />
		<tag k="ssr:type" v="holmeISjø" />
	</node>
	<node lat="59.25090277820499" lon="5.457591671365584" id="-2972">
		<tag k="name" v="Varanesvatnet" />
		<tag k="natural" v="water" />
		<tag k="ssr:date" v="2016-05-10" />
		<tag k="ssr:gruppe" v="stilleståendeVann" />
		<tag k="ssr:hovedgruppe" v="ferskvann" />
		<tag k="ssr:stedsnr" v="148701" />
		<tag k="ssr:type" v="tjern" />
	</node>
	<node lat="59.16080278076914" lon="5.403830546802279" id="-2973">
		<tag k="fixme" v="consider seamark:type=rock or natural=shoal" />
		<tag k="name" v="Bergsuggenakkjen" />
		<tag k="place" v="islet" />
		<tag k="ssr:date" v="2016-05-10" />
		<tag k="ssr:gruppe" v="grunnerISjø" />
		<tag k="ssr:hovedgruppe" v="sjø" />
		<tag k="ssr:stedsnr" v="175824" />
		<tag k="ssr:type" v="skjærISjø" />
	</node>
	<node lat="59.161852774018534" lon="5.388230564145518" id="-2974">
		<tag k="name" v="Stintenesodden" />
		<tag k="natural" v="cape" />
		<tag k="ssr:date" v="2016-05-10" />
		<tag k="ssr:gruppe" v="kystkontur" />
		<tag k="ssr:hovedgruppe" v="sjø" />
		<tag k="ssr:stedsnr" v="175831" />
		<tag k="ssr:type" v="nesISjø" />
	</node>
	<node lat="59.22748888630943" lon="5.376288887965846" id="-2975">
		<tag k="name" v="Fladberg" />
		<tag k="natural" v="hill" />
		<tag k="place" v="locality" />
		<tag k="ssr:date" v="2016-05-10" />
		<tag k="ssr:gruppe" v="høyder" />
		<tag k="ssr:hovedgruppe" v="terreng" />
		<tag k="ssr:stedsnr" v="181884" />
		<tag k="ssr:type" v="berg" />
	</node>
	<node lat="59.233338887877444" lon="5.41046943613732" id="-2976">
		<tag k="fixme" v="consider natural=peak for the most distinct mountains in the district" />
		<tag k="name" v="Kodlefjell" />
		<tag k="natural" v="hill" />
		<tag k="place" v="locality" />
		<tag k="ssr:date" v="2016-05-10" />
		<tag k="ssr:gruppe" v="høyder" />
		<tag k="ssr:hovedgruppe" v="terreng" />
		<tag k="ssr:stedsnr" v="181895" />
		<tag k="ssr:type" v="ås" />
	</node>
	<node lat="59.21928055817444" lon="5.446102784421383" id="-2977">
		<tag k="fixme" v="consider natural=peak for the most distinct mountains in the district" />
		<tag k="name" v="Glette" />
		<tag k="natural" v="hill" />
		<tag k="place" v="locality" />
		<tag k="ssr:date" v="2016-05-10" />
		<tag k="ssr:gruppe" v="høyder" />
		<tag k="ssr:hovedgruppe" v="terreng" />
		<tag k="ssr:stedsnr" v="181982" />
		<tag k="ssr:type" v="ås" />
	</node>
	<node lat="59.2378111092688" lon="5.426674998432477" id="-2978">
		<tag k="alt_name" v="Døvik" />
		<tag k="name" v="Døvika" />
		<tag k="natural" v="bay" />
		<tag k="ssr:date" v="2016-05-10" />
		<tag k="ssr:gruppe" v="kystkontur" />
		<tag k="ssr:hovedgruppe" v="sjø" />
		<tag k="ssr:stedsnr" v="183026" />
		<tag k="ssr:type" v="vikISjø" />
	</node>
	<node lat="59.20792778129792" lon="5.4079416683128505" id="-2979">
		<tag k="name" v="Hagavatnet" />
		<tag k="natural" v="water" />
		<tag k="ssr:date" v="2019-11-11" />
		<tag k="ssr:gruppe" v="stilleståendeVann" />
		<tag k="ssr:hovedgruppe" v="ferskvann" />
		<tag k="ssr:stedsnr" v="183084" />
		<tag k="ssr:type" v="vann" />
		<tag k="water" v="lake" />
	</node>
	<node lat="59.2477944468434" lon="5.465394441979377" id="-2980">
		<tag k="name" v="Nydal" />
		<tag k="place" v="farm" />
		<tag k="ssr:date" v="2016-05-10" />
		<tag k="ssr:gruppe" v="gardsbebyggelse" />
		<tag k="ssr:hovedgruppe" v="bebyggelse" />
		<tag k="ssr:stedsnr" v="183039" />
		<tag k="ssr:type" v="bruk" />
	</node>
	<node lat="59.24264167035821" lon="5.406902779962274" id="-2981">
		<tag k="alt_name" v="Hallvardsvik" />
		<tag k="name" v="Halvardsvika" />
		<tag k="natural" v="bay" />
		<tag k="ssr:date" v="2016-05-10" />
		<tag k="ssr:gruppe" v="kystkontur" />
		<tag k="ssr:hovedgruppe" v="sjø" />
		<tag k="ssr:stedsnr" v="183042" />
		<tag k="ssr:type" v="vikISjø" />
	</node>
	<node lat="59.19937499565761" lon="5.47343055448692" id="-2982">
		<tag k="alt_name" v="Sandvigskjeret" />
		<tag k="fixme" v="consider seamark:type=rock or natural=shoal" />
		<tag k="name" v="Sandvikskjeret" />
		<tag k="place" v="islet" />
		<tag k="ssr:date" v="2016-05-10" />
		<tag k="ssr:gruppe" v="grunnerISjø" />
		<tag k="ssr:hovedgruppe" v="sjø" />
		<tag k="ssr:stedsnr" v="184277" />
		<tag k="ssr:type" v="skjærISjø" />
	</node>
	<node lat="59.164247223690886" lon="5.437472229884123" id="-2983">
		<tag k="alt_name" v="Skodehamn" />
		<tag k="name" v="Skottahamn" />
		<tag k="natural" v="bay" />
		<tag k="ssr:date" v="2016-05-10" />
		<tag k="ssr:gruppe" v="kystkontur" />
		<tag k="ssr:hovedgruppe" v="sjø" />
		<tag k="ssr:stedsnr" v="184383" />
		<tag k="ssr:type" v="vikISjø" />
	</node>
	<node lat="59.16031944555258" lon="5.386377785714828" id="-2984">
		<tag k="fixme" v="consider seamark:type=rock or natural=shoal" />
		<tag k="name" v="Austevigskjeret" />
		<tag k="place" v="islet" />
		<tag k="ssr:date" v="2021-06-08" />
		<tag k="ssr:gruppe" v="grunnerISjø" />
		<tag k="ssr:hovedgruppe" v="sjø" />
		<tag k="ssr:stedsnr" v="206666" />
		<tag k="ssr:type" v="skjærISjø" />
	</node>
	<node lat="59.155022219399314" lon="5.413205552515379" id="-2985">
		<tag k="name" v="Bussholmane" />
		<tag k="place" v="islet" />
		<tag k="ssr:date" v="2021-06-08" />
		<tag k="ssr:gruppe" v="kystkontur" />
		<tag k="ssr:hovedgruppe" v="sjø" />
		<tag k="ssr:stedsnr" v="206672" />
		<tag k="ssr:type" v="holmegruppeISjø" />
	</node>
	<node lat="59.22633333353253" lon="5.49666110322059" id="-2986">
		<tag k="name" v="Likvika" />
		<tag k="natural" v="bay" />
		<tag k="ssr:date" v="2016-05-10" />
		<tag k="ssr:gruppe" v="kystkontur" />
		<tag k="ssr:hovedgruppe" v="sjø" />
		<tag k="ssr:stedsnr" v="207874" />
		<tag k="ssr:type" v="vikISjø" />
	</node>
	<node lat="59.214999996790674" lon="5.509166674617796" id="-2987">
		<tag k="name" v="Humrabrunnen" />
		<tag k="natural" v="water" />
		<tag k="ssr:date" v="2016-05-10" />
		<tag k="ssr:gruppe" v="stilleståendeVann" />
		<tag k="ssr:hovedgruppe" v="ferskvann" />
		<tag k="ssr:stedsnr" v="207909" />
		<tag k="ssr:type" v="vann" />
		<tag k="water" v="lake" />
	</node>
	<node lat="59.25216110730237" lon="5.40458611739224" id="-2988">
		<tag k="name" v="Teistholmen" />
		<tag k="place" v="islet" />
		<tag k="ssr:date" v="2016-05-10" />
		<tag k="ssr:gruppe" v="kystkontur" />
		<tag k="ssr:hovedgruppe" v="sjø" />
		<tag k="ssr:stedsnr" v="209050" />
		<tag k="ssr:type" v="holmeISjø" />
	</node>
	<node lat="59.24969722482821" lon="5.465091665539241" id="-2989">
		<tag k="name" v="Krossnes" />
		<tag k="natural" v="cape" />
		<tag k="ssr:date" v="2016-05-10" />
		<tag k="ssr:gruppe" v="kystkontur" />
		<tag k="ssr:hovedgruppe" v="sjø" />
		<tag k="ssr:stedsnr" v="209690" />
		<tag k="ssr:type" v="nesISjø" />
	</node>
	<node lat="59.16959444357795" lon="5.391858330665528" id="-2990">
		<tag k="name" v="Husafjellet" />
		<tag k="natural" v="hill" />
		<tag k="place" v="locality" />
		<tag k="ssr:date" v="2016-05-10" />
		<tag k="ssr:gruppe" v="høyder" />
		<tag k="ssr:hovedgruppe" v="terreng" />
		<tag k="ssr:stedsnr" v="296331" />
		<tag k="ssr:type" v="høyde" />
	</node>
	<node lat="59.17806666448891" lon="5.418600008593227" id="-2991">
		<tag k="name" v="Fårå" />
		<tag k="place" v="islet" />
		<tag k="ssr:date" v="2016-05-10" />
		<tag k="ssr:gruppe" v="kystkontur" />
		<tag k="ssr:hovedgruppe" v="sjø" />
		<tag k="ssr:stedsnr" v="296346" />
		<tag k="ssr:type" v="holmeISjø" />
	</node>
	<node lat="59.17578611083147" lon="5.431813896600792" id="-2992">
		<tag k="name" v="Hognåsvika" />
		<tag k="natural" v="bay" />
		<tag k="ssr:date" v="2016-05-10" />
		<tag k="ssr:gruppe" v="kystkontur" />
		<tag k="ssr:hovedgruppe" v="sjø" />
		<tag k="ssr:stedsnr" v="296348" />
		<tag k="ssr:type" v="vikISjø" />
	</node>
	<node lat="59.24665278136633" lon="5.394002781256146" id="-2993">
		<tag k="alt_name" v="Irståni" />
		<tag k="name" v="Irståna" />
		<tag k="place" v="island" />
		<tag k="ssr:date" v="2016-05-10" />
		<tag k="ssr:gruppe" v="kystkontur" />
		<tag k="ssr:hovedgruppe" v="sjø" />
		<tag k="ssr:stedsnr" v="304049" />
		<tag k="ssr:type" v="øyISjø" />
	</node>
	<node lat="59.23609999705323" lon="5.464355564366722" id="-2994">
		<tag k="alt_name" v="Bokn, austre" />
		<tag k="name" v="Austre Bokn" />
		<tag k="place" v="island" />
		<tag k="ssr:date" v="2016-05-10" />
		<tag k="ssr:gruppe" v="kystkontur" />
		<tag k="ssr:hovedgruppe" v="sjø" />
		<tag k="ssr:stedsnr" v="304015" />
		<tag k="ssr:type" v="øyISjø" />
	</node>
	<node lat="59.234361760420114" lon="5.460160830476915" id="-2995">
		<tag k="alt_name" v="Nerabø" />
		<tag k="fixme" v="consider place=hamlet" />
		<tag k="name" v="Nedrabø" />
		<tag k="place" v="farm" />
		<tag k="ssr:date" v="2019-06-26" />
		<tag k="ssr:gruppe" v="gardsbebyggelse" />
		<tag k="ssr:hovedgruppe" v="bebyggelse" />
		<tag k="ssr:stedsnr" v="304017" />
		<tag k="ssr:type" v="gard" />
	</node>
	<node lat="59.137669447440516" lon="5.439511103827489" id="-2996">
		<tag k="name" v="Arsgrunnen" />
		<tag k="natural" v="shoal" />
		<tag k="place" v="locality" />
		<tag k="ssr:date" v="2016-05-10" />
		<tag k="ssr:gruppe" v="grunnerISjø" />
		<tag k="ssr:hovedgruppe" v="sjø" />
		<tag k="ssr:stedsnr" v="304393" />
		<tag k="ssr:type" v="grunneISjø" />
	</node>
	<node lat="59.269241665508105" lon="5.478997216479201" id="-2997">
		<tag k="name" v="Ognakalven" />
		<tag k="place" v="islet" />
		<tag k="ssr:date" v="2016-05-10" />
		<tag k="ssr:gruppe" v="kystkontur" />
		<tag k="ssr:hovedgruppe" v="sjø" />
		<tag k="ssr:stedsnr" v="305226" />
		<tag k="ssr:type" v="holmeISjø" />
	</node>
	<node lat="59.195677776503636" lon="5.387230550386298" id="-2998">
		<tag k="name" v="Grønnestadvågen" />
		<tag k="natural" v="bay" />
		<tag k="ssr:date" v="2021-06-08" />
		<tag k="ssr:gruppe" v="kystkontur" />
		<tag k="ssr:hovedgruppe" v="sjø" />
		<tag k="ssr:stedsnr" v="305088" />
		<tag k="ssr:type" v="vikISjø" />
	</node>
	<node lat="59.21718055461922" lon="5.508480555439788" id="-2999">
		<tag k="alt_name" v="Vågholmen, nordre" />
		<tag k="name" v="Nordre Vågholmen" />
		<tag k="place" v="islet" />
		<tag k="ssr:date" v="2016-05-10" />
		<tag k="ssr:gruppe" v="kystkontur" />
		<tag k="ssr:hovedgruppe" v="sjø" />
		<tag k="ssr:stedsnr" v="305292" />
		<tag k="ssr:type" v="holmeISjø" />
	</node>
	<node lat="59.15710000185142" lon="5.383744442100709" id="-3001">
		<tag k="name" v="Skolten" />
		<tag k="natural" v="shoal" />
		<tag k="place" v="locality" />
		<tag k="ssr:date" v="2021-06-08" />
		<tag k="ssr:gruppe" v="grunnerISjø" />
		<tag k="ssr:hovedgruppe" v="sjø" />
		<tag k="ssr:stedsnr" v="327643" />
		<tag k="ssr:type" v="grunneISjø" />
	</node>
	<node lat="59.272375001229925" lon="5.470005558719871" id="-3003">
		<tag k="name" v="Risholmen" />
		<tag k="place" v="islet" />
		<tag k="ssr:date" v="2016-05-10" />
		<tag k="ssr:gruppe" v="kystkontur" />
		<tag k="ssr:hovedgruppe" v="sjø" />
		<tag k="ssr:stedsnr" v="330679" />
		<tag k="ssr:type" v="holmeISjø" />
	</node>
	<node lat="59.26804758870769" lon="5.475450634680115" id="-3004">
		<tag k="name" v="Steinsvik" />
		<tag k="natural" v="bay" />
		<tag k="ssr:date" v="2019-04-17" />
		<tag k="ssr:gruppe" v="kystkontur" />
		<tag k="ssr:hovedgruppe" v="sjø" />
		<tag k="ssr:stedsnr" v="330681" />
		<tag k="ssr:type" v="vikISjø" />
	</node>
	<node lat="59.25994166489384" lon="5.484174999059603" id="-3005">
		<tag k="name" v="Regaviga" />
		<tag k="natural" v="bay" />
		<tag k="ssr:date" v="2021-06-08" />
		<tag k="ssr:gruppe" v="kystkontur" />
		<tag k="ssr:hovedgruppe" v="sjø" />
		<tag k="ssr:stedsnr" v="330683" />
		<tag k="ssr:type" v="vikISjø" />
	</node>
	<node lat="59.16412500027959" lon="5.458238884809215" id="-3006">
		<tag k="name" v="Eriksgrunnen" />
		<tag k="natural" v="shoal" />
		<tag k="place" v="locality" />
		<tag k="ssr:date" v="2016-05-10" />
		<tag k="ssr:gruppe" v="grunnerISjø" />
		<tag k="ssr:hovedgruppe" v="sjø" />
		<tag k="ssr:stedsnr" v="344675" />
		<tag k="ssr:type" v="grunneISjø" />
	</node>
	<node lat="59.18455555920108" lon="5.4678222206047655" id="-3007">
		<tag k="fixme" v="consider seamark:type=rock or natural=shoal" />
		<tag k="name" v="Ringskjer" />
		<tag k="place" v="islet" />
		<tag k="ssr:date" v="2016-05-10" />
		<tag k="ssr:gruppe" v="grunnerISjø" />
		<tag k="ssr:hovedgruppe" v="sjø" />
		<tag k="ssr:stedsnr" v="344639" />
		<tag k="ssr:type" v="skjærISjø" />
	</node>
	<node lat="59.15554721962211" lon="5.410683328043045" id="-3008">
		<tag k="name" v="Djubasundet" />
		<tag k="natural" v="strait" />
		<tag k="ssr:date" v="2016-05-10" />
		<tag k="ssr:gruppe" v="kystkontur" />
		<tag k="ssr:hovedgruppe" v="sjø" />
		<tag k="ssr:stedsnr" v="356836" />
		<tag k="ssr:type" v="sundISjø" />
	</node>
	<node lat="59.15588333098127" lon="5.405327784254897" id="-3009">
		<tag k="name" v="Longholmane" />
		<tag k="place" v="islet" />
		<tag k="ssr:date" v="2016-05-10" />
		<tag k="ssr:gruppe" v="kystkontur" />
		<tag k="ssr:hovedgruppe" v="sjø" />
		<tag k="ssr:stedsnr" v="356838" />
		<tag k="ssr:type" v="holmegruppeISjø" />
	</node>
	<node lat="59.15931944560355" lon="5.410305556347702" id="-3010">
		<tag k="fixme" v="consider seamark:type=rock or natural=shoal" />
		<tag k="name" v="Olaskjera" />
		<tag k="place" v="islet" />
		<tag k="ssr:date" v="2016-05-10" />
		<tag k="ssr:gruppe" v="grunnerISjø" />
		<tag k="ssr:hovedgruppe" v="sjø" />
		<tag k="ssr:stedsnr" v="356839" />
		<tag k="ssr:type" v="skjærISjø" />
	</node>
	<node lat="59.18341388956241" lon="5.4576055478515295" id="-3011">
		<tag k="name" v="Lauplandsvågen" />
		<tag k="natural" v="bay" />
		<tag k="ssr:date" v="2016-05-10" />
		<tag k="ssr:gruppe" v="kystkontur" />
		<tag k="ssr:hovedgruppe" v="sjø" />
		<tag k="ssr:stedsnr" v="357080" />
		<tag k="ssr:type" v="vågISjø" />
	</node>
	<node lat="59.18265858583878" lon="5.383878918500579" id="-3012">
		<tag k="name" v="Søra Jøsenvatnet" />
		<tag k="natural" v="water" />
		<tag k="ssr:date" v="2019-10-23" />
		<tag k="ssr:gruppe" v="stilleståendeVann" />
		<tag k="ssr:hovedgruppe" v="ferskvann" />
		<tag k="ssr:stedsnr" v="357347" />
		<tag k="ssr:type" v="vann" />
		<tag k="water" v="lake" />
	</node>
	<node lat="59.1682916647039" lon="5.3989638807712454" id="-3013">
		<tag k="name" v="Kvidanes" />
		<tag k="natural" v="cape" />
		<tag k="ssr:date" v="2016-05-10" />
		<tag k="ssr:gruppe" v="kystkontur" />
		<tag k="ssr:hovedgruppe" v="sjø" />
		<tag k="ssr:stedsnr" v="357349" />
		<tag k="ssr:type" v="nesISjø" />
	</node>
	<node lat="59.16320833173746" lon="5.401741660190464" id="-3014">
		<tag k="name" v="Røydehamn" />
		<tag k="natural" v="bay" />
		<tag k="ssr:date" v="2016-05-10" />
		<tag k="ssr:gruppe" v="kystkontur" />
		<tag k="ssr:hovedgruppe" v="sjø" />
		<tag k="ssr:stedsnr" v="357356" />
		<tag k="ssr:type" v="vikISjø" />
	</node>
	<node lat="59.16521944147313" lon="5.402963884431925" id="-3015">
		<tag k="fixme" v="consider seamark:type=rock or natural=shoal" />
		<tag k="name" v="Brennevinsskjeret" />
		<tag k="place" v="islet" />
		<tag k="ssr:date" v="2016-05-10" />
		<tag k="ssr:gruppe" v="grunnerISjø" />
		<tag k="ssr:hovedgruppe" v="sjø" />
		<tag k="ssr:stedsnr" v="357357" />
		<tag k="ssr:type" v="skjærISjø" />
	</node>
	<node lat="59.185152775570586" lon="5.4712277732427905" id="-3016">
		<tag k="name" v="Varholmen" />
		<tag k="place" v="islet" />
		<tag k="ssr:date" v="2016-05-10" />
		<tag k="ssr:gruppe" v="kystkontur" />
		<tag k="ssr:hovedgruppe" v="sjø" />
		<tag k="ssr:stedsnr" v="357470" />
		<tag k="ssr:type" v="holmeISjø" />
	</node>
	<node lat="59.2305305586928" lon="5.394469450911403" id="-3017">
		<tag k="name" v="Søre Bornevik" />
		<tag k="place" v="farm" />
		<tag k="ssr:date" v="2016-05-10" />
		<tag k="ssr:gruppe" v="gardsbebyggelse" />
		<tag k="ssr:hovedgruppe" v="bebyggelse" />
		<tag k="ssr:stedsnr" v="363874" />
		<tag k="ssr:type" v="bruk" />
	</node>
	<node lat="59.234499997375714" lon="5.418083335116175" id="-3018">
		<tag k="name" v="Stolltjørna" />
		<tag k="natural" v="water" />
		<tag k="ssr:date" v="2016-05-10" />
		<tag k="ssr:gruppe" v="stilleståendeVann" />
		<tag k="ssr:hovedgruppe" v="ferskvann" />
		<tag k="ssr:stedsnr" v="363877" />
		<tag k="ssr:type" v="tjern" />
	</node>
	<node lat="59.21814166877261" lon="5.395988883421684" id="-3019">
		<tag k="name" v="Løgjen" />
		<tag k="natural" v="water" />
		<tag k="ssr:date" v="2016-05-10" />
		<tag k="ssr:gruppe" v="rennendeVann" />
		<tag k="ssr:hovedgruppe" v="ferskvann" />
		<tag k="ssr:stedsnr" v="363966" />
		<tag k="ssr:type" v="lon" />
		<tag k="water" v="lake" />
	</node>
	<node lat="59.24741111217489" lon="5.473388888993976" id="-3020">
		<tag k="name" v="Otrahaugen" />
		<tag k="natural" v="hill" />
		<tag k="place" v="locality" />
		<tag k="ssr:date" v="2016-05-10" />
		<tag k="ssr:gruppe" v="høyder" />
		<tag k="ssr:hovedgruppe" v="terreng" />
		<tag k="ssr:stedsnr" v="363970" />
		<tag k="ssr:type" v="haug" />
	</node>
	<node lat="59.216655559075356" lon="5.402983331671123" id="-3021">
		<tag k="name" v="Neset" />
		<tag k="natural" v="cape" />
		<tag k="ssr:date" v="2016-05-10" />
		<tag k="ssr:gruppe" v="ferskvannskontur" />
		<tag k="ssr:hovedgruppe" v="ferskvann" />
		<tag k="ssr:stedsnr" v="363981" />
		<tag k="ssr:type" v="nes" />
	</node>
	<node lat="59.214344444569875" lon="5.500030555503888" id="-3022">
		<tag k="fixme" v="consider seamark:type=rock or natural=shoal" />
		<tag k="name" v="Innjedel" />
		<tag k="place" v="islet" />
		<tag k="ssr:date" v="2016-05-10" />
		<tag k="ssr:gruppe" v="grunnerISjø" />
		<tag k="ssr:hovedgruppe" v="sjø" />
		<tag k="ssr:stedsnr" v="364000" />
		<tag k="ssr:type" v="skjærISjø" />
	</node>
	<node lat="59.19498611388241" lon="5.4370194396168845" id="-3023">
		<tag k="name" v="Vatnalandsvatnet" />
		<tag k="natural" v="water" />
		<tag k="ssr:date" v="2016-05-10" />
		<tag k="ssr:gruppe" v="stilleståendeVann" />
		<tag k="ssr:hovedgruppe" v="ferskvann" />
		<tag k="ssr:stedsnr" v="365076" />
		<tag k="ssr:type" v="vann" />
		<tag k="water" v="lake" />
	</node>
	<node lat="59.236647219679604" lon="5.391427781473546" id="-3024">
		<tag k="alt_name" v="Breivik" />
		<tag k="name" v="Breidvika" />
		<tag k="natural" v="bay" />
		<tag k="ssr:date" v="2016-05-10" />
		<tag k="ssr:gruppe" v="kystkontur" />
		<tag k="ssr:hovedgruppe" v="sjø" />
		<tag k="ssr:stedsnr" v="365033" />
		<tag k="ssr:type" v="vikISjø" />
	</node>
	<node lat="59.185977778135936" lon="5.42622221474018" id="-3025">
		<tag k="name" v="Hognalandsvatnet" />
		<tag k="natural" v="water" />
		<tag k="ssr:date" v="2016-05-10" />
		<tag k="ssr:gruppe" v="stilleståendeVann" />
		<tag k="ssr:hovedgruppe" v="ferskvann" />
		<tag k="ssr:stedsnr" v="365085" />
		<tag k="ssr:type" v="vann" />
		<tag k="water" v="lake" />
	</node>
	<node lat="59.20532777499159" lon="5.377097227204623" id="-3026">
		<tag k="alt_name" v="Rekavika;Rekevik;Regavika" />
		<tag k="name" v="Regaviga" />
		<tag k="natural" v="bay" />
		<tag k="ssr:date" v="2016-05-10" />
		<tag k="ssr:gruppe" v="kystkontur" />
		<tag k="ssr:hovedgruppe" v="sjø" />
		<tag k="ssr:stedsnr" v="365087" />
		<tag k="ssr:type" v="vikISjø" />
	</node>
	<node lat="59.17438888696536" lon="5.379047220076442" id="-3027">
		<tag k="name" v="Kjølevig" />
		<tag k="natural" v="bay" />
		<tag k="ssr:date" v="2021-06-08" />
		<tag k="ssr:gruppe" v="kystkontur" />
		<tag k="ssr:hovedgruppe" v="sjø" />
		<tag k="ssr:stedsnr" v="365422" />
		<tag k="ssr:type" v="vikISjø" />
	</node>
	<node lat="59.18136762467206" lon="5.424877148929864" id="-3028">
		<tag k="fixme" v="consider place=hamlet" />
		<tag k="name" v="Hognaland" />
		<tag k="place" v="farm" />
		<tag k="ssr:date" v="2019-06-26" />
		<tag k="ssr:gruppe" v="gardsbebyggelse" />
		<tag k="ssr:hovedgruppe" v="bebyggelse" />
		<tag k="ssr:stedsnr" v="365424" />
		<tag k="ssr:type" v="gard" />
	</node>
	<node lat="59.16855555387281" lon="5.404038884330514" id="-3029">
		<tag k="name" v="Vierholmane" />
		<tag k="place" v="islet" />
		<tag k="ssr:date" v="2021-06-08" />
		<tag k="ssr:gruppe" v="kystkontur" />
		<tag k="ssr:hovedgruppe" v="sjø" />
		<tag k="ssr:stedsnr" v="365437" />
		<tag k="ssr:type" v="holmegruppeISjø" />
	</node>
	<node lat="59.2179313307103" lon="5.487340354964246" id="-3030">
		<tag k="alt_name" v="Våga" />
		<tag k="fixme" v="consider place=hamlet" />
		<tag k="name" v="Søre Våga" />
		<tag k="place" v="farm" />
		<tag k="ssr:date" v="2019-06-26" />
		<tag k="ssr:gruppe" v="gardsbebyggelse" />
		<tag k="ssr:hovedgruppe" v="bebyggelse" />
		<tag k="ssr:stedsnr" v="365471" />
		<tag k="ssr:type" v="gard" />
	</node>
	<node lat="59.22444999948705" lon="5.493219445402908" id="-3031">
		<tag k="name" v="Vågavågen" />
		<tag k="natural" v="bay" />
		<tag k="ssr:date" v="2016-05-10" />
		<tag k="ssr:gruppe" v="kystkontur" />
		<tag k="ssr:hovedgruppe" v="sjø" />
		<tag k="ssr:stedsnr" v="365487" />
		<tag k="ssr:type" v="vikISjø" />
	</node>
	<node lat="59.217156336020125" lon="5.412663984983846" id="-3032">
		<tag k="fixme" v="consider place=hamlet" />
		<tag k="name" v="Gunnarstad" />
		<tag k="place" v="farm" />
		<tag k="ssr:date" v="2019-06-26" />
		<tag k="ssr:gruppe" v="gardsbebyggelse" />
		<tag k="ssr:hovedgruppe" v="bebyggelse" />
		<tag k="ssr:stedsnr" v="366083" />
		<tag k="ssr:type" v="gard" />
	</node>
	<node lat="59.22642221985979" lon="5.395805558700993" id="-3033">
		<tag k="alt_name" v="Kleivane" />
		<tag k="name" v="Kleiva" />
		<tag k="place" v="farm" />
		<tag k="ssr:date" v="2016-05-10" />
		<tag k="ssr:gruppe" v="gardsbebyggelse" />
		<tag k="ssr:hovedgruppe" v="bebyggelse" />
		<tag k="ssr:stedsnr" v="366106" />
		<tag k="ssr:type" v="bruk" />
	</node>
	<node lat="59.21675277655946" lon="5.383902775990255" id="-3034">
		<tag k="name" v="Trosnavågen" />
		<tag k="natural" v="bay" />
		<tag k="ssr:date" v="2021-06-08" />
		<tag k="ssr:gruppe" v="kystkontur" />
		<tag k="ssr:hovedgruppe" v="sjø" />
		<tag k="ssr:stedsnr" v="366107" />
		<tag k="ssr:type" v="vikISjø" />
	</node>
	<node lat="59.21801389352544" lon="5.420661118150863" id="-3035">
		<tag k="fixme" v="consider natural=peak for the most distinct mountains in the district" />
		<tag k="name" v="Boknafjellet" />
		<tag k="natural" v="hill" />
		<tag k="place" v="locality" />
		<tag k="ssr:date" v="2016-05-10" />
		<tag k="ssr:gruppe" v="høyder" />
		<tag k="ssr:hovedgruppe" v="terreng" />
		<tag k="ssr:stedsnr" v="366113" />
		<tag k="ssr:type" v="fjell" />
	</node>
	<node lat="59.204636115207215" lon="5.510569441038362" id="-3036">
		<tag k="alt_name" v="Koppskjera;Kobbeskjera;Kobbskjer" />
		<tag k="fixme" v="consider seamark:type=rock or natural=shoal" />
		<tag k="name" v="Kobbskjeret" />
		<tag k="place" v="islet" />
		<tag k="ssr:date" v="2016-05-10" />
		<tag k="ssr:gruppe" v="grunnerISjø" />
		<tag k="ssr:hovedgruppe" v="sjø" />
		<tag k="ssr:stedsnr" v="366279" />
		<tag k="ssr:type" v="skjærISjø" />
	</node>
	<node lat="59.26187778105478" lon="5.411891671850049" id="-3037">
		<tag k="name" v="Lamholmen" />
		<tag k="place" v="islet" />
		<tag k="ssr:date" v="2016-05-10" />
		<tag k="ssr:gruppe" v="kystkontur" />
		<tag k="ssr:hovedgruppe" v="sjø" />
		<tag k="ssr:stedsnr" v="366872" />
		<tag k="ssr:type" v="holmeISjø" />
	</node>
	<node lat="59.25148058980887" lon="5.4484284860615455" id="-3038">
		<tag k="alt_name" v="Fløsund" />
		<tag k="name" v="Fløysundet" />
		<tag k="natural" v="strait" />
		<tag k="ssr:date" v="2017-02-21" />
		<tag k="ssr:gruppe" v="kystkontur" />
		<tag k="ssr:hovedgruppe" v="sjø" />
		<tag k="ssr:stedsnr" v="388622" />
		<tag k="ssr:type" v="sundISjø" />
	</node>
	<node lat="59.16708055309443" lon="5.418211107581074" id="-3039">
		<tag k="name" v="Brøgene" />
		<tag k="place" v="islet" />
		<tag k="ssr:date" v="2021-06-08" />
		<tag k="ssr:gruppe" v="kystkontur" />
		<tag k="ssr:hovedgruppe" v="sjø" />
		<tag k="ssr:stedsnr" v="388671" />
		<tag k="ssr:type" v="holmeISjø" />
	</node>
	<node lat="59.25830000263831" lon="5.465002770099864" id="-3041">
		<tag k="fixme" v="consider natural=peak for the most distinct mountains in the district" />
		<tag k="name" v="Liafjellet" />
		<tag k="natural" v="hill" />
		<tag k="place" v="locality" />
		<tag k="ssr:date" v="2016-05-10" />
		<tag k="ssr:gruppe" v="høyder" />
		<tag k="ssr:hovedgruppe" v="terreng" />
		<tag k="ssr:stedsnr" v="391666" />
		<tag k="ssr:type" v="fjell" />
	</node>
	<node lat="59.24941111418844" lon="5.4715138964681715" id="-3042">
		<tag k="alt_name" v="Håtang" />
		<tag k="name" v="Håtong" />
		<tag k="natural" v="cape" />
		<tag k="ssr:date" v="2016-05-10" />
		<tag k="ssr:gruppe" v="kystkontur" />
		<tag k="ssr:hovedgruppe" v="sjø" />
		<tag k="ssr:stedsnr" v="391670" />
		<tag k="ssr:type" v="nesISjø" />
	</node>
	<node lat="59.172050002544275" lon="5.450383332814826" id="-3043">
		<tag k="bridge" v="yes" />
		<tag k="layer" v="1" />
		<tag k="name" v="Are" />
		<tag k="ssr:date" v="2016-05-10" />
		<tag k="ssr:gruppe" v="samferdselsanlegg" />
		<tag k="ssr:hovedgruppe" v="infrastruktur" />
		<tag k="ssr:stedsnr" v="411499" />
		<tag k="ssr:type" v="bru" />
	</node>
	<node lat="59.16360277582749" lon="5.404988894840705" id="-3044">
		<tag k="name" v="Drevsund" />
		<tag k="natural" v="strait" />
		<tag k="ssr:date" v="2016-05-10" />
		<tag k="ssr:gruppe" v="kystkontur" />
		<tag k="ssr:hovedgruppe" v="sjø" />
		<tag k="ssr:stedsnr" v="418362" />
		<tag k="ssr:type" v="sundISjø" />
	</node>
	<node lat="59.18113055973195" lon="5.417561110651386" id="-3045">
		<tag k="fixme" v="consider seamark:type=rock or natural=shoal" />
		<tag k="name" v="Bakkaskjeret" />
		<tag k="place" v="islet" />
		<tag k="ssr:date" v="2016-05-10" />
		<tag k="ssr:gruppe" v="grunnerISjø" />
		<tag k="ssr:hovedgruppe" v="sjø" />
		<tag k="ssr:stedsnr" v="418364" />
		<tag k="ssr:type" v="skjærISjø" />
	</node>
	<node lat="59.17138333430662" lon="5.418774997188085" id="-3046">
		<tag k="name" v="Kjøyvågen" />
		<tag k="natural" v="bay" />
		<tag k="ssr:date" v="2016-05-10" />
		<tag k="ssr:gruppe" v="kystkontur" />
		<tag k="ssr:hovedgruppe" v="sjø" />
		<tag k="ssr:stedsnr" v="418379" />
		<tag k="ssr:type" v="vikISjø" />
	</node>
	<node lat="59.183000002661146" lon="5.464497215214935" id="-3047">
		<tag k="name" v="Kjøynå" />
		<tag k="place" v="islet" />
		<tag k="ssr:date" v="2016-05-10" />
		<tag k="ssr:gruppe" v="kystkontur" />
		<tag k="ssr:hovedgruppe" v="sjø" />
		<tag k="ssr:stedsnr" v="418067" />
		<tag k="ssr:type" v="holmeISjø" />
	</node>
	<node lat="59.19852777699321" lon="5.3824444378047405" id="-3048">
		<tag k="name" v="Kilshaugen" />
		<tag k="natural" v="hill" />
		<tag k="place" v="locality" />
		<tag k="ssr:date" v="2016-05-10" />
		<tag k="ssr:gruppe" v="høyder" />
		<tag k="ssr:hovedgruppe" v="terreng" />
		<tag k="ssr:stedsnr" v="418460" />
		<tag k="ssr:type" v="høyde" />
	</node>
	<node lat="59.19726944271794" lon="5.3885861158549995" id="-3049">
		<tag k="name" v="Baståsen" />
		<tag k="natural" v="hill" />
		<tag k="place" v="locality" />
		<tag k="ssr:date" v="2016-05-10" />
		<tag k="ssr:gruppe" v="høyder" />
		<tag k="ssr:hovedgruppe" v="terreng" />
		<tag k="ssr:stedsnr" v="418463" />
		<tag k="ssr:type" v="høyde" />
	</node>
	<node lat="59.21398332907796" lon="5.376722228500089" id="-3050">
		<tag k="name" v="Vintrastø" />
		<tag k="natural" v="bay" />
		<tag k="ssr:date" v="2016-05-10" />
		<tag k="ssr:gruppe" v="kystkontur" />
		<tag k="ssr:hovedgruppe" v="sjø" />
		<tag k="ssr:stedsnr" v="424921" />
		<tag k="ssr:type" v="vikISjø" />
	</node>
	<node lat="59.233013889866555" lon="5.397136117234377" id="-3051">
		<tag k="fixme" v="consider natural=peak for the most distinct mountains in the district" />
		<tag k="name" v="Buarfjellet" />
		<tag k="natural" v="hill" />
		<tag k="place" v="locality" />
		<tag k="ssr:date" v="2016-05-10" />
		<tag k="ssr:gruppe" v="høyder" />
		<tag k="ssr:hovedgruppe" v="terreng" />
		<tag k="ssr:stedsnr" v="424883" />
		<tag k="ssr:type" v="ås" />
	</node>
	<node lat="59.22147500140201" lon="5.391374992899279" id="-3052">
		<tag k="name" v="Nordra Kobbervatnet" />
		<tag k="natural" v="water" />
		<tag k="ssr:date" v="2019-11-11" />
		<tag k="ssr:gruppe" v="stilleståendeVann" />
		<tag k="ssr:hovedgruppe" v="ferskvann" />
		<tag k="ssr:stedsnr" v="424969" />
		<tag k="ssr:type" v="vann" />
		<tag k="water" v="lake" />
	</node>
	<node lat="59.22619166832447" lon="5.412727784668079" id="-3053">
		<tag k="name" v="Djubadalen" />
		<tag k="natural" v="valley" />
		<tag k="place" v="locality" />
		<tag k="ssr:date" v="2016-05-10" />
		<tag k="ssr:gruppe" v="senkninger" />
		<tag k="ssr:hovedgruppe" v="terreng" />
		<tag k="ssr:stedsnr" v="424972" />
		<tag k="ssr:type" v="dal" />
	</node>
	<node lat="59.21462500321446" lon="5.401477770851537" id="-3054">
		<tag k="name" v="Holmen" />
		<tag k="natural" v="cape" />
		<tag k="ssr:date" v="2016-05-10" />
		<tag k="ssr:gruppe" v="ferskvannskontur" />
		<tag k="ssr:hovedgruppe" v="ferskvann" />
		<tag k="ssr:stedsnr" v="424977" />
		<tag k="ssr:type" v="halvøy" />
	</node>
	<node lat="59.21478333378513" lon="5.4896611054565065" id="-3055">
		<tag k="name" v="Donevika" />
		<tag k="natural" v="bay" />
		<tag k="ssr:date" v="2016-05-10" />
		<tag k="ssr:gruppe" v="kystkontur" />
		<tag k="ssr:hovedgruppe" v="sjø" />
		<tag k="ssr:stedsnr" v="424988" />
		<tag k="ssr:type" v="vikISjø" />
	</node>
	<node lat="59.23169722425329" lon="5.393075003858134" id="-3056">
		<tag k="alt_name" v="Borgenvik" />
		<tag k="name" v="Bornevik" />
		<tag k="place" v="locality" />
		<tag k="ssr:date" v="2017-01-06" />
		<tag k="ssr:gruppe" v="gardsbebyggelse" />
		<tag k="ssr:hovedgruppe" v="bebyggelse" />
		<tag k="ssr:stedsnr" v="426001" />
		<tag k="ssr:type" v="eiendom" />
	</node>
	<node lat="59.25370277543548" lon="5.462894442540205" id="-3057">
		<tag k="name" v="Ognasundet" />
		<tag k="natural" v="strait" />
		<tag k="ssr:date" v="2021-06-08" />
		<tag k="ssr:gruppe" v="kystkontur" />
		<tag k="ssr:hovedgruppe" v="sjø" />
		<tag k="ssr:stedsnr" v="427850" />
		<tag k="ssr:type" v="sundISjø" />
	</node>
	<node lat="59.261047218015186" lon="5.418188880777327" id="-3058">
		<tag k="alt_name" v="Skolbuholmen" />
		<tag k="name" v="Skolbuholmane" />
		<tag k="place" v="islet" />
		<tag k="ssr:date" v="2016-05-10" />
		<tag k="ssr:gruppe" v="kystkontur" />
		<tag k="ssr:hovedgruppe" v="sjø" />
		<tag k="ssr:stedsnr" v="427851" />
		<tag k="ssr:type" v="holmeISjø" />
	</node>
	<node lat="59.25509166423426" lon="5.409680560636139" id="-3059">
		<tag k="alt_name" v="Vindholmen;Vindholmane" />
		<tag k="name" v="Store Vindholmen" />
		<tag k="place" v="islet" />
		<tag k="ssr:date" v="2016-05-10" />
		<tag k="ssr:gruppe" v="kystkontur" />
		<tag k="ssr:hovedgruppe" v="sjø" />
		<tag k="ssr:stedsnr" v="427855" />
		<tag k="ssr:type" v="holmeISjø" />
	</node>
	<node lat="59.16284166575634" lon="5.396263890610981" id="-3060">
		<tag k="name" v="Kjøresundsodden" />
		<tag k="natural" v="cape" />
		<tag k="ssr:date" v="2021-06-08" />
		<tag k="ssr:gruppe" v="kystkontur" />
		<tag k="ssr:hovedgruppe" v="sjø" />
		<tag k="ssr:stedsnr" v="509643" />
		<tag k="ssr:type" v="nesISjø" />
	</node>
	<node lat="59.24924444365909" lon="5.4750750046505665" id="-3061">
		<tag k="name" v="Regaviggrunnen" />
		<tag k="natural" v="shoal" />
		<tag k="place" v="locality" />
		<tag k="ssr:date" v="2021-06-08" />
		<tag k="ssr:gruppe" v="grunnerISjø" />
		<tag k="ssr:hovedgruppe" v="sjø" />
		<tag k="ssr:stedsnr" v="509852" />
		<tag k="ssr:type" v="grunneISjø" />
	</node>
	<node lat="59.2504222194587" lon="5.472213893520972" id="-3063">
		<tag k="fixme" v="consider seamark:type=rock or natural=shoal" />
		<tag k="name" v="Svartaskjer" />
		<tag k="place" v="islet" />
		<tag k="ssr:date" v="2016-05-10" />
		<tag k="ssr:gruppe" v="grunnerISjø" />
		<tag k="ssr:hovedgruppe" v="sjø" />
		<tag k="ssr:stedsnr" v="512681" />
		<tag k="ssr:type" v="skjærISjø" />
	</node>
	<node lat="59.18111666703386" lon="5.3927277700905805" id="-3064">
		<tag k="name" v="Jøsenfjellet" />
		<tag k="natural" v="hill" />
		<tag k="place" v="locality" />
		<tag k="ssr:date" v="2016-05-10" />
		<tag k="ssr:gruppe" v="høyder" />
		<tag k="ssr:hovedgruppe" v="terreng" />
		<tag k="ssr:stedsnr" v="539318" />
		<tag k="ssr:type" v="høyde" />
	</node>
	<node lat="59.1829138856546" lon="5.39535833646436" id="-3065">
		<tag k="name" v="Mellevatnet" />
		<tag k="natural" v="water" />
		<tag k="ssr:date" v="2016-05-10" />
		<tag k="ssr:gruppe" v="stilleståendeVann" />
		<tag k="ssr:hovedgruppe" v="ferskvann" />
		<tag k="ssr:stedsnr" v="539324" />
		<tag k="ssr:type" v="vann" />
		<tag k="water" v="lake" />
	</node>
	<node lat="59.16726944081484" lon="5.408141666991364" id="-3066">
		<tag k="name" v="Brattholmen" />
		<tag k="place" v="islet" />
		<tag k="ssr:date" v="2016-05-10" />
		<tag k="ssr:gruppe" v="kystkontur" />
		<tag k="ssr:hovedgruppe" v="sjø" />
		<tag k="ssr:stedsnr" v="539328" />
		<tag k="ssr:type" v="holmeISjø" />
	</node>
	<node lat="59.17117222412927" lon="5.411111117089105" id="-3067">
		<tag k="name" v="Eiderholmen" />
		<tag k="place" v="islet" />
		<tag k="ssr:date" v="2016-05-10" />
		<tag k="ssr:gruppe" v="kystkontur" />
		<tag k="ssr:hovedgruppe" v="sjø" />
		<tag k="ssr:stedsnr" v="539330" />
		<tag k="ssr:type" v="holmeISjø" />
	</node>
	<node lat="59.16663889083191" lon="5.400013883415854" id="-3068">
		<tag k="name" v="Lyngnes" />
		<tag k="natural" v="cape" />
		<tag k="ssr:date" v="2016-05-10" />
		<tag k="ssr:gruppe" v="kystkontur" />
		<tag k="ssr:hovedgruppe" v="sjø" />
		<tag k="ssr:stedsnr" v="539333" />
		<tag k="ssr:type" v="nesISjø" />
	</node>
	<node lat="59.163002777165545" lon="5.428491662830461" id="-3069">
		<tag k="name" v="Stongholmsskjeret" />
		<tag k="place" v="islet" />
		<tag k="ssr:date" v="2016-05-10" />
		<tag k="ssr:gruppe" v="kystkontur" />
		<tag k="ssr:hovedgruppe" v="sjø" />
		<tag k="ssr:stedsnr" v="539343" />
		<tag k="ssr:type" v="holmeISjø" />
	</node>
	<node lat="59.168597221475125" lon="5.450877777107103" id="-3070">
		<tag k="name" v="Valberg" />
		<tag k="natural" v="hill" />
		<tag k="place" v="locality" />
		<tag k="ssr:date" v="2016-05-10" />
		<tag k="ssr:gruppe" v="høyder" />
		<tag k="ssr:hovedgruppe" v="terreng" />
		<tag k="ssr:stedsnr" v="539051" />
		<tag k="ssr:type" v="høyde" />
	</node>
	<node lat="59.17908611470844" lon="5.384377780705696" id="-3071">
		<tag k="name" v="Sævartjørna" />
		<tag k="natural" v="water" />
		<tag k="ssr:date" v="2016-05-10" />
		<tag k="ssr:gruppe" v="stilleståendeVann" />
		<tag k="ssr:hovedgruppe" v="ferskvann" />
		<tag k="ssr:stedsnr" v="539313" />
		<tag k="ssr:type" v="tjern" />
	</node>
	<node lat="59.1658944414396" lon="5.414675000285583" id="-3072">
		<tag k="name" v="Vestre Brog" />
		<tag k="place" v="islet" />
		<tag k="ssr:date" v="2016-05-10" />
		<tag k="ssr:gruppe" v="kystkontur" />
		<tag k="ssr:hovedgruppe" v="sjø" />
		<tag k="ssr:stedsnr" v="539354" />
		<tag k="ssr:type" v="holmeISjø" />
	</node>
	<node lat="59.19273333513693" lon="5.382216673049205" id="-3073">
		<tag k="name" v="Studahola" />
		<tag k="natural" v="bay" />
		<tag k="ssr:date" v="2016-05-10" />
		<tag k="ssr:gruppe" v="kystkontur" />
		<tag k="ssr:hovedgruppe" v="sjø" />
		<tag k="ssr:stedsnr" v="539430" />
		<tag k="ssr:type" v="vikISjø" />
	</node>
	<node lat="59.19189722124539" lon="5.383530559645417" id="-3074">
		<tag k="name" v="Sjebavika" />
		<tag k="natural" v="bay" />
		<tag k="ssr:date" v="2016-05-10" />
		<tag k="ssr:gruppe" v="kystkontur" />
		<tag k="ssr:hovedgruppe" v="sjø" />
		<tag k="ssr:stedsnr" v="539431" />
		<tag k="ssr:type" v="vikISjø" />
	</node>
	<node lat="59.20057778060576" lon="5.440633339536391" id="-3075">
		<tag k="fixme" v="consider natural=peak for the most distinct mountains in the district" />
		<tag k="name" v="Steinfjellet" />
		<tag k="natural" v="hill" />
		<tag k="place" v="locality" />
		<tag k="ssr:date" v="2016-05-10" />
		<tag k="ssr:gruppe" v="høyder" />
		<tag k="ssr:hovedgruppe" v="terreng" />
		<tag k="ssr:stedsnr" v="539451" />
		<tag k="ssr:type" v="fjell" />
	</node>
	<node lat="59.19220278117774" lon="5.424074993347595" id="-3076">
		<tag k="name" v="Bragabakkane" />
		<tag k="natural" v="slope" />
		<tag k="place" v="locality" />
		<tag k="ssr:date" v="2016-05-10" />
		<tag k="ssr:gruppe" v="skråninger" />
		<tag k="ssr:hovedgruppe" v="terreng" />
		<tag k="ssr:stedsnr" v="539453" />
		<tag k="ssr:type" v="bakke" />
	</node>
	<node lat="59.233347224124" lon="5.4323583285103165" id="-3077">
		<tag k="name" v="Sæbøstølane" />
		<tag k="natural" v="slope" />
		<tag k="place" v="locality" />
		<tag k="ssr:date" v="2016-05-10" />
		<tag k="ssr:gruppe" v="skråninger" />
		<tag k="ssr:hovedgruppe" v="terreng" />
		<tag k="ssr:stedsnr" v="545891" />
		<tag k="ssr:type" v="li" />
	</node>
	<node lat="59.24281666826434" lon="5.453580550562682" id="-3078">
		<tag k="name" v="Lammanes" />
		<tag k="natural" v="cape" />
		<tag k="ssr:date" v="2016-05-10" />
		<tag k="ssr:gruppe" v="kystkontur" />
		<tag k="ssr:hovedgruppe" v="sjø" />
		<tag k="ssr:stedsnr" v="545893" />
		<tag k="ssr:type" v="nesISjø" />
	</node>
	<node lat="59.22591666745171" lon="5.3766138947850495" id="-3079">
		<tag k="name" v="Rabnajoda" />
		<tag k="natural" v="bay" />
		<tag k="ssr:date" v="2016-05-10" />
		<tag k="ssr:gruppe" v="kystkontur" />
		<tag k="ssr:hovedgruppe" v="sjø" />
		<tag k="ssr:stedsnr" v="545870" />
		<tag k="ssr:type" v="vikISjø" />
	</node>
	<node lat="59.22172499654516" lon="5.414372215907145" id="-3080">
		<tag k="name" v="Svenshidleren" />
		<tag k="natural" v="valley" />
		<tag k="place" v="locality" />
		<tag k="ssr:date" v="2016-05-10" />
		<tag k="ssr:gruppe" v="senkninger" />
		<tag k="ssr:hovedgruppe" v="terreng" />
		<tag k="ssr:stedsnr" v="545969" />
		<tag k="ssr:type" v="botn" />
	</node>
	<node lat="59.24527777518627" lon="5.420433328180032" id="-3081">
		<tag k="name" v="Brattholmen" />
		<tag k="place" v="islet" />
		<tag k="ssr:date" v="2016-05-10" />
		<tag k="ssr:gruppe" v="kystkontur" />
		<tag k="ssr:hovedgruppe" v="sjø" />
		<tag k="ssr:stedsnr" v="547057" />
		<tag k="ssr:type" v="holmeISjø" />
	</node>
	<node lat="59.18024751407638" lon="5.391301708531454" id="-3082">
		<tag k="fixme" v="consider place=hamlet" />
		<tag k="name" v="Jøsen" />
		<tag k="place" v="farm" />
		<tag k="ssr:date" v="2019-06-26" />
		<tag k="ssr:gruppe" v="gardsbebyggelse" />
		<tag k="ssr:hovedgruppe" v="bebyggelse" />
		<tag k="ssr:stedsnr" v="547435" />
		<tag k="ssr:type" v="gard" />
	</node>
	<node lat="59.21011635669639" lon="5.448436928593269" id="-3083">
		<tag k="fixme" v="consider place=hamlet" />
		<tag k="name" v="Håland" />
		<tag k="place" v="farm" />
		<tag k="ssr:date" v="2019-06-26" />
		<tag k="ssr:gruppe" v="gardsbebyggelse" />
		<tag k="ssr:hovedgruppe" v="bebyggelse" />
		<tag k="ssr:stedsnr" v="548089" />
		<tag k="ssr:type" v="gard" />
	</node>
	<node lat="59.20632500372034" lon="5.506733341391788" id="-3084">
		<tag k="name" v="Hillervika" />
		<tag k="natural" v="bay" />
		<tag k="ssr:date" v="2016-05-10" />
		<tag k="ssr:gruppe" v="kystkontur" />
		<tag k="ssr:hovedgruppe" v="sjø" />
		<tag k="ssr:stedsnr" v="548295" />
		<tag k="ssr:type" v="vikISjø" />
	</node>
	<node lat="59.26769738396273" lon="5.478115753952641" id="-3085">
		<tag k="name" v="Steinsvikvågen" />
		<tag k="natural" v="bay" />
		<tag k="ssr:date" v="2019-04-17" />
		<tag k="ssr:gruppe" v="kystkontur" />
		<tag k="ssr:hovedgruppe" v="sjø" />
		<tag k="ssr:stedsnr" v="569858" />
		<tag k="ssr:type" v="vågISjø" />
	</node>
	<node lat="59.23916666859029" lon="5.4816666594358825" id="-3086">
		<tag k="alt_name" v="Straen" />
		<tag k="name" v="Viervikstraen" />
		<tag k="natural" v="slope" />
		<tag k="place" v="locality" />
		<tag k="ssr:date" v="2016-05-10" />
		<tag k="ssr:gruppe" v="skråninger" />
		<tag k="ssr:hovedgruppe" v="terreng" />
		<tag k="ssr:stedsnr" v="570593" />
		<tag k="ssr:type" v="li" />
	</node>
	<node lat="59.239998710816415" lon="5.453540351158769" id="-3087">
		<tag k="name" v="Øvrabøvågen" />
		<tag k="natural" v="bay" />
		<tag k="ssr:date" v="2019-04-17" />
		<tag k="ssr:gruppe" v="kystkontur" />
		<tag k="ssr:hovedgruppe" v="sjø" />
		<tag k="ssr:stedsnr" v="570594" />
		<tag k="ssr:type" v="vågISjø" />
	</node>
	<node lat="59.15793888677396" lon="5.441797230181907" id="-3088">
		<tag k="fixme" v="consider seamark:type=rock or natural=shoal" />
		<tag k="name" v="Meleskjeret" />
		<tag k="place" v="islet" />
		<tag k="ssr:date" v="2016-05-10" />
		<tag k="ssr:gruppe" v="grunnerISjø" />
		<tag k="ssr:hovedgruppe" v="sjø" />
		<tag k="ssr:stedsnr" v="586664" />
		<tag k="ssr:type" v="skjærISjø" />
	</node>
	<node lat="59.1825027751861" lon="5.447227781410288" id="-3089">
		<tag k="name" v="Dybing" />
		<tag k="place" v="farm" />
		<tag k="ssr:date" v="2016-05-10" />
		<tag k="ssr:gruppe" v="gardsbebyggelse" />
		<tag k="ssr:hovedgruppe" v="bebyggelse" />
		<tag k="ssr:stedsnr" v="600067" />
		<tag k="ssr:type" v="bruk" />
	</node>
	<node lat="59.17634166282213" lon="5.456027770764429" id="-3090">
		<tag k="name" v="Stølsvika" />
		<tag k="natural" v="bay" />
		<tag k="ssr:date" v="2016-05-10" />
		<tag k="ssr:gruppe" v="kystkontur" />
		<tag k="ssr:hovedgruppe" v="sjø" />
		<tag k="ssr:stedsnr" v="600077" />
		<tag k="ssr:type" v="vikISjø" />
	</node>
	<node lat="59.192700000449854" lon="5.421202781620981" id="-3091">
		<tag k="name" v="Mellevatnet" />
		<tag k="place" v="locality" />
		<tag k="ssr:date" v="2016-05-10" />
		<tag k="ssr:gruppe" v="detaljerIFerskvann" />
		<tag k="ssr:hovedgruppe" v="ferskvann" />
		<tag k="ssr:stedsnr" v="599472" />
		<tag k="ssr:type" v="annenVanndetalj" />
	</node>
	<node lat="59.19819689025223" lon="5.410844034363246" id="-3092">
		<tag k="fixme" v="consider place=hamlet" />
		<tag k="name" v="Søre Grønestad" />
		<tag k="place" v="farm" />
		<tag k="ssr:date" v="2019-06-26" />
		<tag k="ssr:gruppe" v="gardsbebyggelse" />
		<tag k="ssr:hovedgruppe" v="bebyggelse" />
		<tag k="ssr:stedsnr" v="599481" />
		<tag k="ssr:type" v="gard" />
	</node>
	<node lat="59.1899222253485" lon="5.40954444878587" id="-3093">
		<tag k="name" v="Træsdalen" />
		<tag k="place" v="locality" />
		<tag k="ssr:date" v="2016-05-10" />
		<tag k="ssr:gruppe" v="dyrkamark" />
		<tag k="ssr:hovedgruppe" v="markslag" />
		<tag k="ssr:stedsnr" v="599482" />
		<tag k="ssr:type" v="utmark" />
	</node>
	<node lat="59.161116663532006" lon="5.421686110604816" id="-3094">
		<tag k="name" v="Osen" />
		<tag k="natural" v="strait" />
		<tag k="ssr:date" v="2016-05-10" />
		<tag k="ssr:gruppe" v="kystkontur" />
		<tag k="ssr:hovedgruppe" v="sjø" />
		<tag k="ssr:stedsnr" v="599826" />
		<tag k="ssr:type" v="sundISjø" />
	</node>
	<node lat="59.16231944092757" lon="5.404038887652304" id="-3095">
		<tag k="name" v="Søra Drevsund" />
		<tag k="natural" v="strait" />
		<tag k="ssr:date" v="2016-05-10" />
		<tag k="ssr:gruppe" v="kystkontur" />
		<tag k="ssr:hovedgruppe" v="sjø" />
		<tag k="ssr:stedsnr" v="599828" />
		<tag k="ssr:type" v="sundISjø" />
	</node>
	<node lat="59.22034999708076" lon="5.474797217898617" id="-3096">
		<tag k="landuse" v="meadow" />
		<tag k="name" v="Øygardsbrota" />
		<tag k="ssr:date" v="2016-05-10" />
		<tag k="ssr:gruppe" v="dyrkamark" />
		<tag k="ssr:hovedgruppe" v="markslag" />
		<tag k="ssr:stedsnr" v="605983" />
		<tag k="ssr:type" v="eng" />
	</node>
	<node lat="59.22175000396524" lon="5.481019445437361" id="-3097">
		<tag k="name" v="Kastdal" />
		<tag k="natural" v="valley" />
		<tag k="place" v="locality" />
		<tag k="ssr:date" v="2016-05-10" />
		<tag k="ssr:gruppe" v="senkninger" />
		<tag k="ssr:hovedgruppe" v="terreng" />
		<tag k="ssr:stedsnr" v="605986" />
		<tag k="ssr:type" v="dal" />
	</node>
	<node lat="59.20880000382336" lon="5.429183331028014" id="-3098">
		<tag k="name" v="Torlandsvatnet" />
		<tag k="natural" v="water" />
		<tag k="ssr:date" v="2019-11-11" />
		<tag k="ssr:gruppe" v="stilleståendeVann" />
		<tag k="ssr:hovedgruppe" v="ferskvann" />
		<tag k="ssr:stedsnr" v="607080" />
		<tag k="ssr:type" v="vann" />
		<tag k="water" v="lake" />
	</node>
	<node lat="59.20336944219069" lon="5.451394441079252" id="-3099">
		<tag k="alt_name" v="Kodlefjellet" />
		<tag k="fixme" v="consider natural=peak for the most distinct mountains in the district" />
		<tag k="name" v="Hatlefjellet" />
		<tag k="natural" v="hill" />
		<tag k="place" v="locality" />
		<tag k="ssr:date" v="2016-05-10" />
		<tag k="ssr:gruppe" v="høyder" />
		<tag k="ssr:hovedgruppe" v="terreng" />
		<tag k="ssr:stedsnr" v="607081" />
		<tag k="ssr:type" v="fjell" />
	</node>
	<node lat="59.239141664776234" lon="5.40552500270471" id="-3100">
		<tag k="name" v="Halvarsbekken" />
		<tag k="ssr:date" v="2016-05-10" />
		<tag k="ssr:gruppe" v="rennendeVann" />
		<tag k="ssr:hovedgruppe" v="ferskvann" />
		<tag k="ssr:stedsnr" v="606882" />
		<tag k="ssr:type" v="bekk" />
		<tag k="waterway" v="stream" />
	</node>
	<node lat="59.240191667473354" lon="5.451249992218169" id="-3101">
		<tag k="name" v="Øvrabøneset" />
		<tag k="natural" v="cape" />
		<tag k="ssr:date" v="2016-05-10" />
		<tag k="ssr:gruppe" v="kystkontur" />
		<tag k="ssr:hovedgruppe" v="sjø" />
		<tag k="ssr:stedsnr" v="607031" />
		<tag k="ssr:type" v="nesISjø" />
	</node>
	<node lat="59.186644441526276" lon="5.376630563454689" id="-3102">
		<tag k="name" v="Røyrviga" />
		<tag k="natural" v="bay" />
		<tag k="ssr:date" v="2021-06-08" />
		<tag k="ssr:gruppe" v="kystkontur" />
		<tag k="ssr:hovedgruppe" v="sjø" />
		<tag k="ssr:stedsnr" v="608071" />
		<tag k="ssr:type" v="vikISjø" />
	</node>
	<node lat="59.218405555392536" lon="5.512161109692029" id="-3103">
		<tag k="alt_name" v="Svartaskjeret" />
		<tag k="fixme" v="consider seamark:type=rock or natural=shoal" />
		<tag k="name" v="Svartaskjer" />
		<tag k="place" v="islet" />
		<tag k="ssr:date" v="2016-05-10" />
		<tag k="ssr:gruppe" v="grunnerISjø" />
		<tag k="ssr:hovedgruppe" v="sjø" />
		<tag k="ssr:stedsnr" v="608279" />
		<tag k="ssr:type" v="skjærISjø" />
	</node>
	<node lat="59.18538889179264" lon="5.472841665263623" id="-3104">
		<tag k="name" v="Lamholmen" />
		<tag k="place" v="islet" />
		<tag k="ssr:date" v="2016-05-10" />
		<tag k="ssr:gruppe" v="kystkontur" />
		<tag k="ssr:hovedgruppe" v="sjø" />
		<tag k="ssr:stedsnr" v="608303" />
		<tag k="ssr:type" v="holmeISjø" />
	</node>
	<node lat="59.159600001851416" lon="5.440722220940691" id="-3105">
		<tag k="alt_name" v="Avløybet" />
		<tag k="name" v="Avløypsnibba" />
		<tag k="place" v="islet" />
		<tag k="ssr:date" v="2016-05-10" />
		<tag k="ssr:gruppe" v="kystkontur" />
		<tag k="ssr:hovedgruppe" v="sjø" />
		<tag k="ssr:stedsnr" v="608387" />
		<tag k="ssr:type" v="holmeISjø" />
	</node>
	<node lat="59.20985000081161" lon="5.484619443245532" id="-3106">
		<tag k="name" v="Grønehilleren" />
		<tag k="natural" v="cape" />
		<tag k="ssr:date" v="2016-05-10" />
		<tag k="ssr:gruppe" v="kystkontur" />
		<tag k="ssr:hovedgruppe" v="sjø" />
		<tag k="ssr:stedsnr" v="608479" />
		<tag k="ssr:type" v="nesISjø" />
	</node>
	<node lat="59.21594999829674" lon="5.4734555601326695" id="-3107">
		<tag k="name" v="Strandavika" />
		<tag k="place" v="farm" />
		<tag k="ssr:date" v="2016-05-10" />
		<tag k="ssr:gruppe" v="gardsbebyggelse" />
		<tag k="ssr:hovedgruppe" v="bebyggelse" />
		<tag k="ssr:stedsnr" v="608481" />
		<tag k="ssr:type" v="bruk" />
	</node>
	<node lat="59.22239722375049" lon="5.474458328217675" id="-3108">
		<tag k="name" v="Aksdalsstemmen" />
		<tag k="natural" v="water" />
		<tag k="ssr:date" v="2016-05-10" />
		<tag k="ssr:gruppe" v="stilleståendeVann" />
		<tag k="ssr:hovedgruppe" v="ferskvann" />
		<tag k="ssr:stedsnr" v="608486" />
		<tag k="ssr:type" v="pytt" />
		<tag k="water" v="pond" />
	</node>
	<node lat="59.262147220314205" lon="5.453094453024489" id="-3109">
		<tag k="alt_name" v="Kjøynå" />
		<tag k="name" v="Kjeøya" />
		<tag k="place" v="islet" />
		<tag k="ssr:date" v="2016-05-10" />
		<tag k="ssr:gruppe" v="kystkontur" />
		<tag k="ssr:hovedgruppe" v="sjø" />
		<tag k="ssr:stedsnr" v="609863" />
		<tag k="ssr:type" v="holmeISjø" />
	</node>
	<node lat="59.16689444050727" lon="5.429099998985605" id="-3110">
		<tag k="name" v="Galten" />
		<tag k="place" v="locality" />
		<tag k="seamark:type" v="rock" />
		<tag k="ssr:date" v="2021-06-08" />
		<tag k="ssr:gruppe" v="grunnerISjø" />
		<tag k="ssr:hovedgruppe" v="sjø" />
		<tag k="ssr:stedsnr" v="630628" />
		<tag k="ssr:type" v="båeISjø" />
	</node>
	<node lat="59.154683336337925" lon="5.385747229476195" id="-3111">
		<tag k="name" v="Kleppflua" />
		<tag k="place" v="locality" />
		<tag k="seamark:type" v="rock" />
		<tag k="ssr:date" v="2021-06-08" />
		<tag k="ssr:gruppe" v="grunnerISjø" />
		<tag k="ssr:hovedgruppe" v="sjø" />
		<tag k="ssr:stedsnr" v="630629" />
		<tag k="ssr:type" v="båeISjø" />
	</node>
	<node lat="59.21830833122273" lon="5.505427782691464" id="-3112">
		<tag k="name" v="Nordra Vågholmsundet" />
		<tag k="natural" v="strait" />
		<tag k="ssr:date" v="2016-05-10" />
		<tag k="ssr:gruppe" v="kystkontur" />
		<tag k="ssr:hovedgruppe" v="sjø" />
		<tag k="ssr:stedsnr" v="630924" />
		<tag k="ssr:type" v="sundISjø" />
	</node>
	<node lat="59.26858610655179" lon="5.4753055498916545" id="-3113">
		<tag k="name" v="Steinsvikneset" />
		<tag k="natural" v="cape" />
		<tag k="ssr:date" v="2016-05-10" />
		<tag k="ssr:gruppe" v="kystkontur" />
		<tag k="ssr:hovedgruppe" v="sjø" />
		<tag k="ssr:stedsnr" v="630856" />
		<tag k="ssr:type" v="nesISjø" />
	</node>
	<node lat="59.233205553978564" lon="5.490555558345729" id="-3114">
		<tag k="alt_name" v="Straen" />
		<tag k="name" v="Vågastraen" />
		<tag k="natural" v="slope" />
		<tag k="place" v="locality" />
		<tag k="ssr:date" v="2016-05-10" />
		<tag k="ssr:gruppe" v="skråninger" />
		<tag k="ssr:hovedgruppe" v="terreng" />
		<tag k="ssr:stedsnr" v="632845" />
		<tag k="ssr:type" v="li" />
	</node>
	<node lat="59.25574126700353" lon="5.4711430913023875" id="-3115">
		<tag k="fixme" v="consider place=hamlet" />
		<tag k="name" v="Ogn" />
		<tag k="place" v="farm" />
		<tag k="ssr:date" v="2019-06-26" />
		<tag k="ssr:gruppe" v="gardsbebyggelse" />
		<tag k="ssr:hovedgruppe" v="bebyggelse" />
		<tag k="ssr:stedsnr" v="633671" />
		<tag k="ssr:type" v="gard" />
	</node>
	<node lat="59.17771389186818" lon="5.443347229561029" id="-3116">
		<tag k="name" v="Tollakstjørna" />
		<tag k="natural" v="water" />
		<tag k="ssr:date" v="2016-05-10" />
		<tag k="ssr:gruppe" v="stilleståendeVann" />
		<tag k="ssr:hovedgruppe" v="ferskvann" />
		<tag k="ssr:stedsnr" v="660066" />
		<tag k="ssr:type" v="tjern" />
	</node>
	<node lat="59.192600001100125" lon="5.376780556895266" id="-3117">
		<tag k="name" v="Litla Drauavika" />
		<tag k="natural" v="bay" />
		<tag k="ssr:date" v="2016-05-10" />
		<tag k="ssr:gruppe" v="kystkontur" />
		<tag k="ssr:hovedgruppe" v="sjø" />
		<tag k="ssr:stedsnr" v="666930" />
		<tag k="ssr:type" v="vikISjø" />
	</node>
	<node lat="59.24560832941553" lon="5.469538885793344" id="-3118">
		<tag k="name" v="Krostimyr" />
		<tag k="natural" v="wetland" />
		<tag k="ssr:date" v="2016-05-10" />
		<tag k="ssr:gruppe" v="våtmark" />
		<tag k="ssr:hovedgruppe" v="markslag" />
		<tag k="ssr:stedsnr" v="666971" />
		<tag k="ssr:type" v="myr" />
	</node>
	<node lat="59.21896389049191" lon="5.419905556225228" id="-3119">
		<tag k="fixme" v="consider natural=peak for the most distinct mountains in the district" />
		<tag k="name" v="Nip" />
		<tag k="natural" v="hill" />
		<tag k="place" v="locality" />
		<tag k="ssr:date" v="2016-05-10" />
		<tag k="ssr:gruppe" v="høyder" />
		<tag k="ssr:hovedgruppe" v="terreng" />
		<tag k="ssr:stedsnr" v="666977" />
		<tag k="ssr:type" v="ås" />
	</node>
	<node lat="59.1585277748557" lon="5.419699994339263" id="-3120">
		<tag k="name" v="Sauøya" />
		<tag k="place" v="islet" />
		<tag k="ssr:date" v="2021-06-08" />
		<tag k="ssr:gruppe" v="kystkontur" />
		<tag k="ssr:hovedgruppe" v="sjø" />
		<tag k="ssr:stedsnr" v="668358" />
		<tag k="ssr:type" v="holmeISjø" />
	</node>
	<node lat="59.23944166336731" lon="5.383263888932241" id="-3121">
		<tag k="name" v="Søra Lammanesvika" />
		<tag k="natural" v="bay" />
		<tag k="ssr:date" v="2016-05-10" />
		<tag k="ssr:gruppe" v="kystkontur" />
		<tag k="ssr:hovedgruppe" v="sjø" />
		<tag k="ssr:stedsnr" v="667871" />
		<tag k="ssr:type" v="vikISjø" />
	</node>
	<node lat="59.23127777720323" lon="5.382883329319295" id="-3122">
		<tag k="name" v="Kvidaneset" />
		<tag k="natural" v="cape" />
		<tag k="ssr:date" v="2016-05-10" />
		<tag k="ssr:gruppe" v="kystkontur" />
		<tag k="ssr:hovedgruppe" v="sjø" />
		<tag k="ssr:stedsnr" v="667879" />
		<tag k="ssr:type" v="nesISjø" />
	</node>
	<node lat="59.246605554347326" lon="5.417372229808303" id="-3123">
		<tag k="name" v="Litle Brattholmen" />
		<tag k="place" v="islet" />
		<tag k="ssr:date" v="2016-05-10" />
		<tag k="ssr:gruppe" v="kystkontur" />
		<tag k="ssr:hovedgruppe" v="sjø" />
		<tag k="ssr:stedsnr" v="667885" />
		<tag k="ssr:type" v="holmeISjø" />
	</node>
	<node lat="59.18944444037665" lon="5.374474998805031" id="-3124">
		<tag k="name" v="Stolviga" />
		<tag k="natural" v="bay" />
		<tag k="ssr:date" v="2021-06-08" />
		<tag k="ssr:gruppe" v="kystkontur" />
		<tag k="ssr:hovedgruppe" v="sjø" />
		<tag k="ssr:stedsnr" v="669045" />
		<tag k="ssr:type" v="vikISjø" />
	</node>
	<node lat="59.19531653466088" lon="5.4017252437985395" id="-3125">
		<tag k="alt_name" v="Gregulsvatnet" />
		<tag k="name" v="Gregersvatnet" />
		<tag k="natural" v="water" />
		<tag k="ssr:date" v="2019-10-23" />
		<tag k="ssr:gruppe" v="stilleståendeVann" />
		<tag k="ssr:hovedgruppe" v="ferskvann" />
		<tag k="ssr:stedsnr" v="669046" />
		<tag k="ssr:type" v="vann" />
		<tag k="water" v="lake" />
	</node>
	<node lat="59.25193889019154" lon="5.4720833386784165" id="-3126">
		<tag k="alt_name" v="Ognaskjer" />
		<tag k="fixme" v="consider seamark:type=rock or natural=shoal" />
		<tag k="name" v="Ognaskjeret" />
		<tag k="place" v="islet" />
		<tag k="ssr:date" v="2016-05-10" />
		<tag k="ssr:gruppe" v="grunnerISjø" />
		<tag k="ssr:hovedgruppe" v="sjø" />
		<tag k="ssr:stedsnr" v="669241" />
		<tag k="ssr:type" v="skjærISjø" />
	</node>
	<node lat="59.167130551758746" lon="5.440394437892131" id="-3127">
		<tag k="alt_name" v="Arsvågen, vestre" />
		<tag k="name" v="Vestre Arsvågen" />
		<tag k="natural" v="bay" />
		<tag k="ssr:date" v="2016-05-10" />
		<tag k="ssr:gruppe" v="kystkontur" />
		<tag k="ssr:hovedgruppe" v="sjø" />
		<tag k="ssr:stedsnr" v="669387" />
		<tag k="ssr:type" v="vikISjø" />
	</node>
	<node lat="59.24587500400591" lon="5.474874996589074" id="-3128">
		<tag k="alt_name" v="Grønevik" />
		<tag k="name" v="Grønevika" />
		<tag k="natural" v="bay" />
		<tag k="ssr:date" v="2016-05-10" />
		<tag k="ssr:gruppe" v="kystkontur" />
		<tag k="ssr:hovedgruppe" v="sjø" />
		<tag k="ssr:stedsnr" v="669466" />
		<tag k="ssr:type" v="vikISjø" />
	</node>
	<node lat="59.17857222336847" lon="5.404763888550454" id="-3129">
		<tag k="name" v="Jøsenlandet" />
		<tag k="natural" v="cape" />
		<tag k="ssr:date" v="2016-05-11" />
		<tag k="ssr:gruppe" v="kystkontur" />
		<tag k="ssr:hovedgruppe" v="sjø" />
		<tag k="ssr:stedsnr" v="721377" />
		<tag k="ssr:type" v="nesISjø" />
	</node>
	<node lat="59.18563055583486" lon="5.38477221771197" id="-3130">
		<tag k="name" v="Noravatnet" />
		<tag k="natural" v="water" />
		<tag k="ssr:date" v="2016-05-11" />
		<tag k="ssr:gruppe" v="stilleståendeVann" />
		<tag k="ssr:hovedgruppe" v="ferskvann" />
		<tag k="ssr:stedsnr" v="721456" />
		<tag k="ssr:type" v="vann" />
		<tag k="water" v="lake" />
	</node>
	<node lat="59.194547225435244" lon="5.394430554718674" id="-3131">
		<tag k="name" v="Skiftesvika" />
		<tag k="natural" v="bay" />
		<tag k="ssr:date" v="2016-05-11" />
		<tag k="ssr:gruppe" v="kystkontur" />
		<tag k="ssr:hovedgruppe" v="sjø" />
		<tag k="ssr:stedsnr" v="721462" />
		<tag k="ssr:type" v="vikISjø" />
	</node>
	<node lat="59.168527777653885" lon="5.404261104778281" id="-3132">
		<tag k="name" v="Store Vierholmen" />
		<tag k="place" v="islet" />
		<tag k="ssr:date" v="2016-05-11" />
		<tag k="ssr:gruppe" v="kystkontur" />
		<tag k="ssr:hovedgruppe" v="sjø" />
		<tag k="ssr:stedsnr" v="721367" />
		<tag k="ssr:type" v="holmeISjø" />
	</node>
	<node lat="59.23789721774395" lon="5.453091664318273" id="-3133">
		<tag k="fixme" v="verify maritime location" />
		<tag k="mooring" v="yes" />
		<tag k="name" v="Gongstø" />
		<tag k="place" v="locality" />
		<tag k="ssr:date" v="2016-05-11" />
		<tag k="ssr:gruppe" v="sjøfart" />
		<tag k="ssr:hovedgruppe" v="infrastruktur" />
		<tag k="ssr:stedsnr" v="727895" />
		<tag k="ssr:type" v="stø" />
	</node>
	<node lat="59.199250001083136" lon="5.422766657926955" id="-3134">
		<tag k="fixme" v="consider natural=peak for the most distinct mountains in the district" />
		<tag k="name" v="Rindafjellet" />
		<tag k="natural" v="hill" />
		<tag k="place" v="locality" />
		<tag k="ssr:date" v="2016-05-11" />
		<tag k="ssr:gruppe" v="høyder" />
		<tag k="ssr:hovedgruppe" v="terreng" />
		<tag k="ssr:stedsnr" v="729068" />
		<tag k="ssr:type" v="ås" />
	</node>
	<node lat="59.17646388515322" lon="5.377111106263348" id="-3135">
		<tag k="name" v="Båsen" />
		<tag k="natural" v="cape" />
		<tag k="ssr:date" v="2016-05-11" />
		<tag k="ssr:gruppe" v="kystkontur" />
		<tag k="ssr:hovedgruppe" v="sjø" />
		<tag k="ssr:stedsnr" v="730429" />
		<tag k="ssr:type" v="nesISjø" />
	</node>
	<node lat="59.17133966402687" lon="5.391826431421569" id="-3136">
		<tag k="fixme" v="consider place=hamlet" />
		<tag k="name" v="Loten" />
		<tag k="place" v="farm" />
		<tag k="ssr:date" v="2021-06-08" />
		<tag k="ssr:gruppe" v="gardsbebyggelse" />
		<tag k="ssr:hovedgruppe" v="bebyggelse" />
		<tag k="ssr:stedsnr" v="730437" />
		<tag k="ssr:type" v="gard" />
	</node>
	<node lat="59.21212777553444" lon="5.4950611190373815" id="-3137">
		<tag k="alt_name" v="Langetangen;Longatonga" />
		<tag k="name" v="Langetunga" />
		<tag k="natural" v="cape" />
		<tag k="ssr:date" v="2016-05-11" />
		<tag k="ssr:gruppe" v="kystkontur" />
		<tag k="ssr:hovedgruppe" v="sjø" />
		<tag k="ssr:stedsnr" v="730284" />
		<tag k="ssr:type" v="nesISjø" />
	</node>
	<node lat="59.16037500125799" lon="5.446636116207005" id="-3139">
		<tag k="name" v="Munkehausneset" />
		<tag k="natural" v="cape" />
		<tag k="ssr:date" v="2016-05-11" />
		<tag k="ssr:gruppe" v="kystkontur" />
		<tag k="ssr:hovedgruppe" v="sjø" />
		<tag k="ssr:stedsnr" v="769665" />
		<tag k="ssr:type" v="nesISjø" />
	</node>
	<node lat="59.190363888607685" lon="5.391366670654823" id="-3140">
		<tag k="name" v="Eithidlersundet" />
		<tag k="natural" v="strait" />
		<tag k="ssr:date" v="2016-05-11" />
		<tag k="ssr:gruppe" v="kystkontur" />
		<tag k="ssr:hovedgruppe" v="sjø" />
		<tag k="ssr:stedsnr" v="782435" />
		<tag k="ssr:type" v="sundISjø" />
	</node>
	<node lat="59.21895000183794" lon="5.392080548192024" id="-3141">
		<tag k="name" v="Søra Kobbervatnet" />
		<tag k="natural" v="water" />
		<tag k="ssr:date" v="2019-11-11" />
		<tag k="ssr:gruppe" v="stilleståendeVann" />
		<tag k="ssr:hovedgruppe" v="ferskvann" />
		<tag k="ssr:stedsnr" v="787971" />
		<tag k="ssr:type" v="vann" />
		<tag k="water" v="lake" />
	</node>
	<node lat="59.21264166994443" lon="5.439411105633552" id="-3142">
		<tag k="fixme" v="consider natural=peak for the most distinct mountains in the district" />
		<tag k="name" v="Hest" />
		<tag k="natural" v="hill" />
		<tag k="place" v="locality" />
		<tag k="ssr:date" v="2016-05-11" />
		<tag k="ssr:gruppe" v="høyder" />
		<tag k="ssr:hovedgruppe" v="terreng" />
		<tag k="ssr:stedsnr" v="787978" />
		<tag k="ssr:type" v="ås" />
	</node>
	<node lat="59.2359694422725" lon="5.397386103815204" id="-3143">
		<tag k="name" v="Lindemyra" />
		<tag k="natural" v="wetland" />
		<tag k="ssr:date" v="2016-05-11" />
		<tag k="ssr:gruppe" v="våtmark" />
		<tag k="ssr:hovedgruppe" v="markslag" />
		<tag k="ssr:stedsnr" v="788877" />
		<tag k="ssr:type" v="myr" />
	</node>
	<node lat="59.23641666326437" lon="5.394725003442877" id="-3144">
		<tag k="fixme" v="consider natural=peak for the most distinct mountains in the district" />
		<tag k="name" v="Linderabben" />
		<tag k="natural" v="hill" />
		<tag k="place" v="locality" />
		<tag k="ssr:date" v="2016-05-11" />
		<tag k="ssr:gruppe" v="høyder" />
		<tag k="ssr:hovedgruppe" v="terreng" />
		<tag k="ssr:stedsnr" v="788878" />
		<tag k="ssr:type" v="ås" />
	</node>
	<node lat="59.23209166217029" lon="5.387272216500342" id="-3145">
		<tag k="name" v="Krekjeberholmen" />
		<tag k="place" v="islet" />
		<tag k="ssr:date" v="2016-05-11" />
		<tag k="ssr:gruppe" v="kystkontur" />
		<tag k="ssr:hovedgruppe" v="sjø" />
		<tag k="ssr:stedsnr" v="788880" />
		<tag k="ssr:type" v="holmeISjø" />
	</node>
	<node lat="59.241216664865114" lon="5.4129388955704485" id="-3146">
		<tag k="name" v="Kongshabntjørna" />
		<tag k="natural" v="water" />
		<tag k="ssr:date" v="2016-05-11" />
		<tag k="ssr:gruppe" v="stilleståendeVann" />
		<tag k="ssr:hovedgruppe" v="ferskvann" />
		<tag k="ssr:stedsnr" v="788887" />
		<tag k="ssr:type" v="tjern" />
	</node>
	<node lat="59.19943888859199" lon="5.3748111042754125" id="-3147">
		<tag k="name" v="Svartodden" />
		<tag k="natural" v="cape" />
		<tag k="ssr:date" v="2016-05-11" />
		<tag k="ssr:gruppe" v="kystkontur" />
		<tag k="ssr:hovedgruppe" v="sjø" />
		<tag k="ssr:stedsnr" v="788937" />
		<tag k="ssr:type" v="nesISjø" />
	</node>
	<node lat="59.24350867351395" lon="5.463342377702478" id="-3148">
		<tag k="fixme" v="consider place=hamlet" />
		<tag k="name" v="Kro" />
		<tag k="place" v="farm" />
		<tag k="ssr:date" v="2019-06-26" />
		<tag k="ssr:gruppe" v="gardsbebyggelse" />
		<tag k="ssr:hovedgruppe" v="bebyggelse" />
		<tag k="ssr:stedsnr" v="790023" />
		<tag k="ssr:type" v="gard" />
	</node>
	<node lat="59.238558968109196" lon="5.460335097518754" id="-3149">
		<tag k="fixme" v="consider place=hamlet" />
		<tag k="name" v="Øvrabø" />
		<tag k="place" v="farm" />
		<tag k="ssr:date" v="2019-06-26" />
		<tag k="ssr:gruppe" v="gardsbebyggelse" />
		<tag k="ssr:hovedgruppe" v="bebyggelse" />
		<tag k="ssr:stedsnr" v="790024" />
		<tag k="ssr:type" v="gard" />
	</node>
	<node lat="59.24492221883666" lon="5.45239167540597" id="-3150">
		<tag k="name" v="Kroholmen" />
		<tag k="place" v="islet" />
		<tag k="ssr:date" v="2016-05-11" />
		<tag k="ssr:gruppe" v="kystkontur" />
		<tag k="ssr:hovedgruppe" v="sjø" />
		<tag k="ssr:stedsnr" v="790042" />
		<tag k="ssr:type" v="holmeISjø" />
	</node>
	<node lat="59.20126320542974" lon="5.40975609813296" id="-3151">
		<tag k="alt_name" v="Grønnestad" />
		<tag k="name" v="Grønestad" />
		<tag k="place" v="hamlet" />
		<tag k="ssr:date" v="2020-06-23" />
		<tag k="ssr:gruppe" v="gardsbebyggelse" />
		<tag k="ssr:hovedgruppe" v="bebyggelse" />
		<tag k="ssr:stedsnr" v="790071" />
		<tag k="ssr:type" v="navnegard" />
	</node>
	<node lat="59.19399722255506" lon="5.42203054996682" id="-3152">
		<tag k="name" v="Vestre Bokn" />
		<tag k="place" v="island" />
		<tag k="ssr:date" v="2021-06-08" />
		<tag k="ssr:gruppe" v="kystkontur" />
		<tag k="ssr:hovedgruppe" v="sjø" />
		<tag k="ssr:stedsnr" v="790073" />
		<tag k="ssr:type" v="øyISjø" />
	</node>
	<node lat="59.18820807801249" lon="5.444757987871548" id="-3153">
		<tag k="alt_name" v="Hodl" />
		<tag k="fixme" v="consider place=hamlet" />
		<tag k="name" v="Trælhaug" />
		<tag k="place" v="farm" />
		<tag k="ssr:date" v="2019-06-26" />
		<tag k="ssr:gruppe" v="gardsbebyggelse" />
		<tag k="ssr:hovedgruppe" v="bebyggelse" />
		<tag k="ssr:stedsnr" v="790418" />
		<tag k="ssr:type" v="gard" />
	</node>
	<node lat="59.219950980635666" lon="5.471538570615428" id="-3155">
		<tag k="fixme" v="consider place=hamlet" />
		<tag k="name" v="Aksdal" />
		<tag k="place" v="farm" />
		<tag k="ssr:date" v="2019-06-26" />
		<tag k="ssr:gruppe" v="gardsbebyggelse" />
		<tag k="ssr:hovedgruppe" v="bebyggelse" />
		<tag k="ssr:stedsnr" v="790468" />
		<tag k="ssr:type" v="gard" />
	</node>
	<node lat="59.22509444551606" lon="5.5419250085922265" id="-3156">
		<tag k="alt_name" v="Flaterova;Flada Roå" />
		<tag k="fixme" v="consider seamark:type=rock or natural=shoal" />
		<tag k="name" v="Flatarova" />
		<tag k="place" v="islet" />
		<tag k="ssr:date" v="2016-05-11" />
		<tag k="ssr:gruppe" v="grunnerISjø" />
		<tag k="ssr:hovedgruppe" v="sjø" />
		<tag k="ssr:stedsnr" v="790478" />
		<tag k="ssr:type" v="skjærISjø" />
	</node>
	<node lat="59.251161113203885" lon="5.395516670104425" id="-3157">
		<tag k="fixme" v="consider seamark:type=rock or natural=shoal" />
		<tag k="name" v="Seieklubben" />
		<tag k="place" v="islet" />
		<tag k="ssr:date" v="2016-05-11" />
		<tag k="ssr:gruppe" v="grunnerISjø" />
		<tag k="ssr:hovedgruppe" v="sjø" />
		<tag k="ssr:stedsnr" v="815099" />
		<tag k="ssr:type" v="skjærISjø" />
	</node>
	<node lat="59.26039166908935" lon="5.399969452585503" id="-3158">
		<tag k="alt_name" v="Barlundholmen" />
		<tag k="name" v="Barlon" />
		<tag k="place" v="islet" />
		<tag k="ssr:date" v="2016-05-11" />
		<tag k="ssr:gruppe" v="kystkontur" />
		<tag k="ssr:hovedgruppe" v="sjø" />
		<tag k="ssr:stedsnr" v="816063" />
		<tag k="ssr:type" v="holmeISjø" />
	</node>
	<node lat="59.259661113594234" lon="5.443602776087564" id="-3159">
		<tag k="name" v="Brattholmen" />
		<tag k="place" v="islet" />
		<tag k="ssr:date" v="2016-05-11" />
		<tag k="ssr:gruppe" v="kystkontur" />
		<tag k="ssr:hovedgruppe" v="sjø" />
		<tag k="ssr:stedsnr" v="816693" />
		<tag k="ssr:type" v="holmeISjø" />
	</node>
	<node lat="59.16044166640168" lon="5.433361119600016" id="-3160">
		<tag k="name" v="Sjebasundet" />
		<tag k="natural" v="strait" />
		<tag k="ssr:date" v="2016-05-11" />
		<tag k="ssr:gruppe" v="kystkontur" />
		<tag k="ssr:hovedgruppe" v="sjø" />
		<tag k="ssr:stedsnr" v="842834" />
		<tag k="ssr:type" v="sundISjø" />
	</node>
	<node lat="59.16734999589663" lon="5.401969448426308" id="-3161">
		<tag k="fixme" v="consider seamark:type=rock or natural=shoal" />
		<tag k="name" v="Lamholmen" />
		<tag k="place" v="islet" />
		<tag k="ssr:date" v="2016-05-11" />
		<tag k="ssr:gruppe" v="grunnerISjø" />
		<tag k="ssr:hovedgruppe" v="sjø" />
		<tag k="ssr:stedsnr" v="843361" />
		<tag k="ssr:type" v="skjærISjø" />
	</node>
	<node lat="59.18867499606977" lon="5.417663887695096" id="-3162">
		<tag k="name" v="Vallberg" />
		<tag k="natural" v="hill" />
		<tag k="place" v="locality" />
		<tag k="ssr:date" v="2016-05-11" />
		<tag k="ssr:gruppe" v="høyder" />
		<tag k="ssr:hovedgruppe" v="terreng" />
		<tag k="ssr:stedsnr" v="843490" />
		<tag k="ssr:type" v="høyde" />
	</node>
	<node lat="59.199547223859994" lon="5.452972214315221" id="-3163">
		<tag k="fixme" v="consider natural=peak for the most distinct mountains in the district" />
		<tag k="name" v="Nordra Hatlefjellet" />
		<tag k="natural" v="hill" />
		<tag k="place" v="locality" />
		<tag k="ssr:date" v="2016-05-11" />
		<tag k="ssr:gruppe" v="høyder" />
		<tag k="ssr:hovedgruppe" v="terreng" />
		<tag k="ssr:stedsnr" v="843494" />
		<tag k="ssr:type" v="fjell" />
	</node>
	<node lat="59.229972222739484" lon="5.4371138819724045" id="-3164">
		<tag k="amenity" v="school" />
		<tag k="name" v="Bokn" />
		<tag k="ssr:date" v="2016-05-11" />
		<tag k="ssr:gruppe" v="institusjoner" />
		<tag k="ssr:hovedgruppe" v="bebyggelse" />
		<tag k="ssr:stedsnr" v="848897" />
		<tag k="ssr:type" v="skole" />
	</node>
	<node lat="59.20829444791033" lon="5.441180552205259" id="-3165">
		<tag k="name" v="Søra Hålandstjørna" />
		<tag k="natural" v="water" />
		<tag k="ssr:date" v="2016-05-11" />
		<tag k="ssr:gruppe" v="stilleståendeVann" />
		<tag k="ssr:hovedgruppe" v="ferskvann" />
		<tag k="ssr:stedsnr" v="848984" />
		<tag k="ssr:type" v="tjern" />
	</node>
	<node lat="59.21257499780992" lon="5.391402782464083" id="-3166">
		<tag k="fixme" v="consider natural=peak for the most distinct mountains in the district" />
		<tag k="name" v="Trosnavågfjellet" />
		<tag k="natural" v="hill" />
		<tag k="place" v="locality" />
		<tag k="ssr:date" v="2016-05-11" />
		<tag k="ssr:gruppe" v="høyder" />
		<tag k="ssr:hovedgruppe" v="terreng" />
		<tag k="ssr:stedsnr" v="848964" />
		<tag k="ssr:type" v="ås" />
	</node>
	<node lat="59.217600001897154" lon="5.385280550858637" id="-3167">
		<tag k="name" v="Mjelkestøhompen" />
		<tag k="natural" v="hill" />
		<tag k="place" v="locality" />
		<tag k="ssr:date" v="2016-05-11" />
		<tag k="ssr:gruppe" v="høyder" />
		<tag k="ssr:hovedgruppe" v="terreng" />
		<tag k="ssr:stedsnr" v="848966" />
		<tag k="ssr:type" v="haug" />
	</node>
	<node lat="59.22716389050055" lon="5.543008325495905" id="-3168">
		<tag k="fixme" v="consider seamark:type=rock or natural=shoal" />
		<tag k="name" v="Bergsuggeskjera" />
		<tag k="place" v="islet" />
		<tag k="ssr:date" v="2016-05-11" />
		<tag k="ssr:gruppe" v="grunnerISjø" />
		<tag k="ssr:hovedgruppe" v="sjø" />
		<tag k="ssr:stedsnr" v="851424" />
		<tag k="ssr:type" v="skjærISjø" />
	</node>
	<node lat="59.169333334109325" lon="5.4249499979181754" id="-3169">
		<tag k="name" v="Sauøya" />
		<tag k="place" v="islet" />
		<tag k="ssr:date" v="2021-06-08" />
		<tag k="ssr:gruppe" v="kystkontur" />
		<tag k="ssr:hovedgruppe" v="sjø" />
		<tag k="ssr:stedsnr" v="851397" />
		<tag k="ssr:type" v="holmeISjø" />
	</node>
	<node lat="59.21226666259805" lon="5.487394445925617" id="-3170">
		<tag k="alt_name" v="Rabbevig;Rabbevik" />
		<tag k="name" v="Rabbavika" />
		<tag k="natural" v="bay" />
		<tag k="ssr:date" v="2016-05-11" />
		<tag k="ssr:gruppe" v="kystkontur" />
		<tag k="ssr:hovedgruppe" v="sjø" />
		<tag k="ssr:stedsnr" v="874917" />
		<tag k="ssr:type" v="vikISjø" />
	</node>
	<node lat="59.21508610685173" lon="5.4961861153616365" id="-3171">
		<tag k="alt_name" v="Ablavika" />
		<tag k="name" v="Apallevika" />
		<tag k="natural" v="bay" />
		<tag k="ssr:date" v="2016-05-11" />
		<tag k="ssr:gruppe" v="kystkontur" />
		<tag k="ssr:hovedgruppe" v="sjø" />
		<tag k="ssr:stedsnr" v="875900" />
		<tag k="ssr:type" v="vikISjø" />
	</node>
	<node lat="59.24926110868074" lon="5.4667833269135375" id="-3172">
		<tag k="alt_name" v="Kallabergvika" />
		<tag k="name" v="Kallabergvik" />
		<tag k="natural" v="bay" />
		<tag k="ssr:date" v="2016-05-11" />
		<tag k="ssr:gruppe" v="kystkontur" />
		<tag k="ssr:hovedgruppe" v="sjø" />
		<tag k="ssr:stedsnr" v="876296" />
		<tag k="ssr:type" v="vikISjø" />
	</node>
	<node lat="59.249886107015406" lon="5.463091659150227" id="-3173">
		<tag k="name" v="Stidlevik" />
		<tag k="natural" v="bay" />
		<tag k="ssr:date" v="2016-05-11" />
		<tag k="ssr:gruppe" v="kystkontur" />
		<tag k="ssr:hovedgruppe" v="sjø" />
		<tag k="ssr:stedsnr" v="876679" />
		<tag k="ssr:type" v="vikISjø" />
	</node>
	<node lat="59.259149997828956" lon="5.4081083406402115" id="-3174">
		<tag k="name" v="Bryggholmen" />
		<tag k="place" v="islet" />
		<tag k="ssr:date" v="2016-05-11" />
		<tag k="ssr:gruppe" v="kystkontur" />
		<tag k="ssr:hovedgruppe" v="sjø" />
		<tag k="ssr:stedsnr" v="937066" />
		<tag k="ssr:type" v="holmeISjø" />
	</node>
	<node lat="59.25788888913932" lon="5.417699996905327" id="-3175">
		<tag k="name" v="Porsholmane" />
		<tag k="place" v="islet" />
		<tag k="ssr:date" v="2016-05-11" />
		<tag k="ssr:gruppe" v="kystkontur" />
		<tag k="ssr:hovedgruppe" v="sjø" />
		<tag k="ssr:stedsnr" v="937080" />
		<tag k="ssr:type" v="holmeISjø" />
	</node>
	<node lat="59.26413611064006" lon="5.454994440909234" id="-3176">
		<tag k="alt_name" v="Kjeøyvågen" />
		<tag k="name" v="Kjøyvågen" />
		<tag k="natural" v="bay" />
		<tag k="ssr:date" v="2016-05-11" />
		<tag k="ssr:gruppe" v="kystkontur" />
		<tag k="ssr:hovedgruppe" v="sjø" />
		<tag k="ssr:stedsnr" v="937679" />
		<tag k="ssr:type" v="vikISjø" />
	</node>
	<node lat="59.21534765632588" lon="5.380933907478364" id="-3177">
		<tag k="name" v="Vestrevåg" />
		<tag k="natural" v="bay" />
		<tag k="ssr:date" v="2019-04-17" />
		<tag k="ssr:gruppe" v="kystkontur" />
		<tag k="ssr:hovedgruppe" v="sjø" />
		<tag k="ssr:stedsnr" v="969959" />
		<tag k="ssr:type" v="vågISjø" />
	</node>
	<node lat="59.22091388723108" lon="5.402638880535471" id="-3178">
		<tag k="fixme" v="consider natural=peak for the most distinct mountains in the district" />
		<tag k="name" v="Skjenet" />
		<tag k="natural" v="hill" />
		<tag k="place" v="locality" />
		<tag k="ssr:date" v="2016-05-11" />
		<tag k="ssr:gruppe" v="høyder" />
		<tag k="ssr:hovedgruppe" v="terreng" />
		<tag k="ssr:stedsnr" v="969961" />
		<tag k="ssr:type" v="ås" />
	</node>
	<node lat="59.24003333541755" lon="5.384447213529753" id="-3179">
		<tag k="name" v="Lammaneshaugen" />
		<tag k="natural" v="hill" />
		<tag k="place" v="locality" />
		<tag k="ssr:date" v="2016-05-11" />
		<tag k="ssr:gruppe" v="høyder" />
		<tag k="ssr:hovedgruppe" v="terreng" />
		<tag k="ssr:stedsnr" v="970591" />
		<tag k="ssr:type" v="haug" />
	</node>
	<node lat="59.23398823157561" lon="5.551963640831251" id="-3180">
		<tag k="fixme" v="consider place=hamlet" />
		<tag k="name" v="Nautøya" />
		<tag k="place" v="farm" />
		<tag k="ssr:date" v="2019-06-26" />
		<tag k="ssr:gruppe" v="gardsbebyggelse" />
		<tag k="ssr:hovedgruppe" v="bebyggelse" />
		<tag k="ssr:stedsnr" v="1072026" />
		<tag k="ssr:type" v="gard" />
	</node>
	<node lat="59.20507463539833" lon="5.406868538381306" id="-3181">
		<tag k="alt_name" v="Nordre Grønnestad" />
		<tag k="fixme" v="consider place=hamlet" />
		<tag k="name" v="Nordre Grønestad" />
		<tag k="place" v="farm" />
		<tag k="ssr:date" v="2020-06-23" />
		<tag k="ssr:gruppe" v="gardsbebyggelse" />
		<tag k="ssr:hovedgruppe" v="bebyggelse" />
		<tag k="ssr:stedsnr" v="1077468" />
		<tag k="ssr:type" v="gard" />
	</node>
</osm>
