<?xml version="1.0" encoding="UTF-8"?>
<osm generator="osmapis" version="0.6">
	<node id="-36415" lat="59.137571455" lon="5.43880355953">
		<tag k="name" v="Arsgrunnen lanterne" />
		<tag k="ssr:date" v="2016-12-28" />
		<tag k="ssr:gruppe" v="navigasjon" />
		<tag k="ssr:hovedgruppe" v="infrastruktur" />
		<tag k="ssr:stedsnr" v="583723" />
		<tag k="ssr:type" v="lanterne" />
	</node>
	<node id="-36797" lat="69.6388889725" lon="30.5666644427">
		<tag k="fixme" v="multiple name tags, choose one and add the other to alt_name" />
		<tag k="loc_name:se" v="Norgga gonagasriika" />
		<tag k="loc_name:sma" v="Nöörjen gånkarïjhke" />
		<tag k="loc_name:smj" v="Vuona gånågisrijkka" />
		<tag k="name" v="Noreg;Norge" />
		<tag k="name:en" v="Norway" />
		<tag k="name:no" v="Noreg;Norge" />
		<tag k="ssr:date" v="2020-06-04" />
		<tag k="ssr:gruppe" v="administrativeIndelinger" />
		<tag k="ssr:hovedgruppe" v="offentligAdministrasjon" />
		<tag k="ssr:stedsnr" v="26330" />
		<tag k="ssr:type" v="nasjon" />
	</node>
	<node id="-36762" lat="59.2514777754" lon="5.47189722767">
		<tag k="alt_name" v="Ogneskjær" />
		<tag k="name" v="Ognaskjeret" />
		<tag k="ssr:date" v="2016-05-11" />
		<tag k="ssr:gruppe" v="navigasjon" />
		<tag k="ssr:hovedgruppe" v="infrastruktur" />
		<tag k="ssr:stedsnr" v="813611" />
		<tag k="ssr:type" v="fyrlykt" />
	</node>
	<node id="-36311" lat="59.1732777806" lon="5.37851389208">
		<tag k="loc_name" v="Klepp" />
		<tag k="name" v="Klepp lykt" />
		<tag k="ssr:date" v="2016-05-10" />
		<tag k="ssr:gruppe" v="navigasjon" />
		<tag k="ssr:hovedgruppe" v="infrastruktur" />
		<tag k="ssr:stedsnr" v="269747" />
		<tag k="ssr:type" v="fyrlykt" />
	</node>
	<node id="-36532" lat="59.2087620663" lon="5.48424565892">
		<tag k="alt_name" v="Aksdalsneset" />
		<tag k="name" v="Aksdalsneset lykt" />
		<tag k="old_name" v="Aksdalnes" />
		<tag k="ssr:date" v="2018-05-28" />
		<tag k="ssr:gruppe" v="navigasjon" />
		<tag k="ssr:hovedgruppe" v="infrastruktur" />
		<tag k="ssr:stedsnr" v="21971" />
		<tag k="ssr:type" v="fyrlykt" />
	</node>
	<node id="-36333" lat="59.2306055541" lon="5.43529166891">
		<tag k="alt_name" v="Bokn" />
		<tag k="name" v="Bokn kommune" />
		<tag k="ssr:date" v="2017-03-24" />
		<tag k="ssr:gruppe" v="administrativeIndelinger" />
		<tag k="ssr:hovedgruppe" v="offentligAdministrasjon" />
		<tag k="ssr:stedsnr" v="267802" />
		<tag k="ssr:type" v="kommune" />
	</node>
	<node id="-36496" lat="59.1622111074" lon="5.42293888128">
		<tag k="alt_name" v="Drivsund" />
		<tag k="name" v="Drivsund lykt" />
		<tag k="ssr:date" v="2016-05-11" />
		<tag k="ssr:gruppe" v="navigasjon" />
		<tag k="ssr:hovedgruppe" v="infrastruktur" />
		<tag k="ssr:stedsnr" v="790373" />
		<tag k="ssr:type" v="fyrlykt" />
	</node>
	<node id="-36621" lat="59.2468083297" lon="5.41591111985">
		<tag k="alt_name" v="Brattholmskjeret" />
		<tag k="name" v="Brattholmskjeret lykt" />
		<tag k="ssr:date" v="2016-05-10" />
		<tag k="ssr:gruppe" v="navigasjon" />
		<tag k="ssr:hovedgruppe" v="infrastruktur" />
		<tag k="ssr:stedsnr" v="329032" />
		<tag k="ssr:type" v="fyrlykt" />
	</node>
	<node id="-36748" lat="59.2240138906" lon="5.54030554933">
		<tag k="alt_name" v="Rovetærne" />
		<tag k="name" v="Rovetærne lykt" />
		<tag k="ssr:date" v="2016-05-11" />
		<tag k="ssr:gruppe" v="navigasjon" />
		<tag k="ssr:hovedgruppe" v="infrastruktur" />
		<tag k="ssr:stedsnr" v="754943" />
		<tag k="ssr:type" v="fyrlykt" />
	</node>
	<node id="-36619" lat="59.2708138899" lon="5.44759445137">
		<tag k="alt_name" v="Raudholmflu" />
		<tag k="name" v="Raudholmflu lykt" />
		<tag k="ssr:date" v="2016-05-10" />
		<tag k="ssr:gruppe" v="navigasjon" />
		<tag k="ssr:hovedgruppe" v="infrastruktur" />
		<tag k="ssr:stedsnr" v="306894" />
		<tag k="ssr:type" v="fyrlykt" />
	</node>
	<node id="-36362" lat="59.2184861128" lon="5.51780555653">
		<tag k="alt_name" v="Austre Vågholmflua" />
		<tag k="name" v="Austre Vågholmflua lykt" />
		<tag k="old_name" v="Austra Vågholmflua" />
		<tag k="ssr:date" v="2016-05-10" />
		<tag k="ssr:gruppe" v="navigasjon" />
		<tag k="ssr:hovedgruppe" v="infrastruktur" />
		<tag k="ssr:stedsnr" v="388921" />
		<tag k="ssr:type" v="fyrlykt" />
	</node>
	<node id="-36709" lat="59.2231222264" lon="5.46049444972">
		<tag k="name" v="Austboen" />
		<tag k="ssr:date" v="2016-05-10" />
		<tag k="ssr:gruppe" v="navigasjon" />
		<tag k="ssr:hovedgruppe" v="infrastruktur" />
		<tag k="ssr:stedsnr" v="548116" />
		<tag k="ssr:type" v="fyrlykt" />
	</node>
	<node id="-36516" lat="59.2466583347" lon="5.38971111822">
		<tag k="alt_name" v="Boknahovud;Boknahovud lykt" />
		<tag k="name" v="Boknahovet lykt" />
		<tag k="ssr:date" v="2016-05-10" />
		<tag k="ssr:gruppe" v="navigasjon" />
		<tag k="ssr:hovedgruppe" v="infrastruktur" />
		<tag k="ssr:stedsnr" v="1064" />
		<tag k="ssr:type" v="fyrlykt" />
	</node>
</osm>
