<?xml version="1.0" encoding="UTF-8"?>
<osm generator="osmapis" version="0.6">
	<node id="-788475" lat="63.7185666648" lon="9.71517221286">
		<tag k="name" v="Stamselva" />
		<tag k="ssr:stedsnr" v="945751" />
		<tag k="waterway" v="river" />
	</node>
	<node id="-788471" lat="63.7318666675" lon="9.62433332501">
		<tag k="name" v="Kråktjørna" />
		<tag k="natural" v="water" />
		<tag k="ssr:stedsnr" v="945717" />
	</node>
	<node id="-788452" lat="63.7054694454" lon="9.75519167517">
		<tag k="name" v="Sandbergbekken" />
		<tag k="ssr:stedsnr" v="944948" />
		<tag k="waterway" v="stream" />
	</node>
	<node id="-788449" lat="63.811516671" lon="9.85472499697">
		<tag k="name" v="Jøvatnet" />
		<tag k="natural" v="water" />
		<tag k="ssr:stedsnr" v="862041" />
	</node>
	<node id="-788393" lat="63.7860388934" lon="10.0269777751">
		<tag k="name" v="Karidalsbekken" />
		<tag k="ssr:stedsnr" v="940596" />
		<tag k="waterway" v="stream" />
	</node>
	<node id="-788384" lat="63.8423972255" lon="9.82824444524">
		<tag k="name" v="Valatjønna" />
		<tag k="natural" v="water" />
		<tag k="ssr:stedsnr" v="940550" />
	</node>
	<node id="-788383" lat="63.8147805557" lon="10.0846805521">
		<tag k="name" v="Svartdalsdammen" />
		<tag k="ssr:stedsnr" v="940548" />
		<tag k="waterway" v="dam" />
	</node>
	<node id="-788382" lat="63.8055000024" lon="10.166866666">
		<tag k="name" v="Øver Høgsetelva" />
		<tag k="ssr:stedsnr" v="940535" />
		<tag k="waterway" v="river" />
	</node>
	<node id="-788381" lat="63.8629611131" lon="9.94478332425">
		<tag k="name" v="Melvasselva" />
		<tag k="ssr:stedsnr" v="940529" />
		<tag k="waterway" v="river" />
	</node>
	<node id="-788379" lat="63.7849111087" lon="9.60660555891">
		<tag k="name" v="Hellemsbekken" />
		<tag k="ssr:stedsnr" v="940495" />
		<tag k="waterway" v="stream" />
	</node>
	<node id="-788370" lat="63.8283388867" lon="9.80788888629">
		<tag k="name" v="Barsetbekken" />
		<tag k="ssr:stedsnr" v="940368" />
		<tag k="waterway" v="stream" />
	</node>
	<node id="-790165" lat="63.834733329" lon="9.90994443682">
		<tag k="name" v="Tennskjæret" />
		<tag k="natural" v="shoal" />
		<tag k="place" v="locality" />
		<tag k="ssr:stedsnr" v="819052" />
	</node>
	<node id="-788342" lat="63.8177388898" lon="10.0804111146">
		<tag k="name" v="Olalibekken" />
		<tag k="ssr:stedsnr" v="940092" />
		<tag k="waterway" v="stream" />
	</node>
	<node id="-788339" lat="63.8237638926" lon="10.1323083314">
		<tag k="name" v="Perholfossen" />
		<tag k="natural" v="waterfall" />
		<tag k="ssr:stedsnr" v="940073" />
	</node>
	<node id="-788338" lat="63.8258722195" lon="9.97690277256">
		<tag k="name" v="Langtjønnbekken" />
		<tag k="ssr:stedsnr" v="940037" />
		<tag k="waterway" v="stream" />
	</node>
	<node id="-790163" lat="63.8202333329" lon="10.0241833233">
		<tag k="name" v="Gammelbubukta" />
		<tag k="natural" v="bay" />
		<tag k="ssr:stedsnr" v="819048" />
	</node>
	<node id="-788309" lat="63.7674361114" lon="9.97365834033">
		<tag k="name" v="Aundalsbekken" />
		<tag k="ssr:stedsnr" v="819594" />
		<tag k="waterway" v="stream" />
	</node>
	<node id="-788308" lat="63.7821722254" lon="9.969902778">
		<tag k="name" v="Kammatjønnbekken" />
		<tag k="ssr:stedsnr" v="819589" />
		<tag k="waterway" v="stream" />
	</node>
	<node id="-788301" lat="63.7984444477" lon="10.0136222272">
		<tag k="name" v="Eidet" />
		<tag k="natural" v="strait" />
		<tag k="ssr:stedsnr" v="819553" />
	</node>
	<node id="-788285" lat="63.8294500014" lon="10.1541277721">
		<tag k="name" v="Nedre Storfisktjønna" />
		<tag k="natural" v="water" />
		<tag k="ssr:stedsnr" v="819123" />
	</node>
	<node id="-788284" lat="63.8568916669" lon="10.0773027826">
		<tag k="name" v="Tomasvasselva" />
		<tag k="ssr:stedsnr" v="819114" />
		<tag k="waterway" v="river" />
	</node>
	<node id="-788280" lat="63.7938333324" lon="10.0799361036">
		<tag k="fixme" v="multiple name tags, choose one and add the other to alt_name" />
		<tag k="name" v="Almtjønna;Nedre Almtjønna" />
		<tag k="natural" v="water" />
		<tag k="ssr:stedsnr" v="802272" />
	</node>
	<node id="-788278" lat="63.778258334" lon="9.73137776894">
		<tag k="name" v="Torsidalselva" />
		<tag k="ssr:stedsnr" v="802258" />
		<tag k="waterway" v="stream" />
	</node>
	<node id="-788271" lat="63.8166666699" lon="9.9094222231">
		<tag k="name" v="Kjerkøya" />
		<tag k="natural" v="cape" />
		<tag k="ssr:stedsnr" v="924032" />
	</node>
	<node id="-788266" lat="63.777280558" lon="9.70983055128">
		<tag k="name" v="Steinhølen" />
		<tag k="ssr:stedsnr" v="923753" />
		<tag k="waterway" v="stream" />
	</node>
	<node id="-789127" lat="63.7745250044" lon="9.66288889425">
		<tag k="name" v="Baklivatnet" />
		<tag k="natural" v="water" />
		<tag k="ssr:stedsnr" v="195642" />
	</node>
	<node id="-788260" lat="63.8725194472" lon="9.99079167562">
		<tag k="name" v="Mellomvatnet" />
		<tag k="natural" v="water" />
		<tag k="ssr:stedsnr" v="923598" />
	</node>
	<node id="-788252" lat="63.7308722226" lon="9.75931667654">
		<tag k="name" v="Ole Olsavatnet" />
		<tag k="natural" v="water" />
		<tag k="ssr:stedsnr" v="923235" />
	</node>
	<node id="-790298" lat="63.780283335" lon="9.95761110772">
		<tag k="name" v="Kammatjønna" />
		<tag k="natural" v="water" />
		<tag k="ssr:stedsnr" v="863225" />
	</node>
	<node id="-788249" lat="63.8667333358" lon="9.95326666348">
		<tag k="name" v="Oldelva" />
		<tag k="ssr:stedsnr" v="923149" />
		<tag k="waterway" v="stream" />
	</node>
	<node id="-788247" lat="63.8648833309" lon="10.0882166713">
		<tag k="name" v="Pertjønna" />
		<tag k="natural" v="water" />
		<tag k="ssr:stedsnr" v="923135" />
	</node>
	<node id="-790294" lat="63.7769666644" lon="9.99671111922">
		<tag k="name" v="Litl-Gjøljavatnet" />
		<tag k="natural" v="water" />
		<tag k="old_name" v="Gjølgavatnet, l" />
		<tag k="ssr:stedsnr" v="863212" />
	</node>
	<node id="-788245" lat="63.8488138924" lon="9.92760556397">
		<tag k="alt_name" v="Dummeltjønnen" />
		<tag k="name" v="Dumbeltjønnen" />
		<tag k="natural" v="water" />
		<tag k="ssr:stedsnr" v="923114" />
	</node>
	<node id="-790292" lat="63.7375833329" lon="9.75984165949">
		<tag k="name" v="Grøntjønna" />
		<tag k="natural" v="water" />
		<tag k="ssr:stedsnr" v="863200" />
	</node>
	<node id="-788241" lat="63.8277527769" lon="9.88454166049">
		<tag k="fixme" v="multiple name tags, choose one and add the other to alt_name" />
		<tag k="name" v="Inner Setertjønna;Rognlitjønna" />
		<tag k="natural" v="water" />
		<tag k="ssr:stedsnr" v="923073" />
	</node>
	<node id="-790286" lat="63.8415138895" lon="10.1684583366">
		<tag k="name" v="Torsengtjønna" />
		<tag k="natural" v="water" />
		<tag k="ssr:stedsnr" v="863082" />
	</node>
	<node id="-790283" lat="63.8315027745" lon="9.97243887905">
		<tag k="name" v="Gammelgårdstjønna" />
		<tag k="natural" v="water" />
		<tag k="ssr:stedsnr" v="863065" />
	</node>
	<node id="-788225" lat="63.8068777809" lon="10.1561194488">
		<tag k="alt_name" v="Ner Høgsetvatnet;Høgsetvatnet, nedre" />
		<tag k="name" v="Nedre Høgsetvatnet" />
		<tag k="natural" v="water" />
		<tag k="ssr:stedsnr" v="923012" />
	</node>
	<node id="-789120" lat="63.7439333376" lon="9.77204722638">
		<tag k="alt_name" v="Klakkselva" />
		<tag k="name" v="Klakksbekken" />
		<tag k="ssr:stedsnr" v="195192" />
		<tag k="waterway" v="stream" />
	</node>
	<node id="-790266" lat="63.7551138885" lon="9.8777888873">
		<tag k="alt_name" v="Grindbakkbekken" />
		<tag k="name" v="Grinddalsbekken" />
		<tag k="ssr:stedsnr" v="862227" />
		<tag k="waterway" v="stream" />
	</node>
	<node id="-788200" lat="63.7620499988" lon="9.86373888332">
		<tag k="name" v="Haugaelva" />
		<tag k="ssr:stedsnr" v="758515" />
		<tag k="waterway" v="river" />
	</node>
	<node id="-788193" lat="63.726769447" lon="9.84061944448">
		<tag k="name" v="Eidselva" />
		<tag k="ssr:stedsnr" v="758463" />
		<tag k="waterway" v="river" />
	</node>
	<node id="-788165" lat="63.8162722202" lon="9.97384445172">
		<tag k="name" v="Storholmen" />
		<tag k="place" v="islet" />
		<tag k="ssr:stedsnr" v="741054" />
	</node>
	<node id="-788164" lat="63.8438388921" lon="9.88537222401">
		<tag k="name" v="Teksdalselva" />
		<tag k="ssr:stedsnr" v="741118" />
		<tag k="waterway" v="stream" />
	</node>
	<node id="-789110" lat="63.8625972192" lon="10.0035055651">
		<tag k="name" v="Flaugtjønna" />
		<tag k="natural" v="water" />
		<tag k="ssr:stedsnr" v="195126" />
	</node>
	<node id="-788162" lat="63.8423777738" lon="10.0707750048">
		<tag k="name" v="Røyrtjønna" />
		<tag k="natural" v="water" />
		<tag k="ssr:stedsnr" v="741109" />
	</node>
	<node id="-788161" lat="63.7971555534" lon="9.98175000276">
		<tag k="name" v="Gjøljavatnet" />
		<tag k="natural" v="water" />
		<tag k="ssr:stedsnr" v="741009" />
		<tag k="water" v="lake" />
	</node>
	<node id="-790207" lat="63.824369447" lon="9.86297777155">
		<tag k="name" v="Fagerdalsbekken" />
		<tag k="ssr:stedsnr" v="819688" />
		<tag k="waterway" v="stream" />
	</node>
	<node id="-788085" lat="63.7971527736" lon="9.90388333395">
		<tag k="name" v="Elgtjønna" />
		<tag k="natural" v="water" />
		<tag k="ssr:stedsnr" v="680260" />
	</node>
	<node id="-790191" lat="63.7916833296" lon="10.1758416684">
		<tag k="name" v="Rundhølen" />
		<tag k="place" v="locality" />
		<tag k="ssr:stedsnr" v="819627" />
	</node>
	<node id="-788141" lat="63.8011944474" lon="10.0129861083">
		<tag k="name" v="Tømmerbekken" />
		<tag k="ssr:stedsnr" v="698509" />
		<tag k="waterway" v="stream" />
	</node>
	<node id="-788131" lat="63.8328027741" lon="10.0437666696">
		<tag k="name" v="Lomtjønna" />
		<tag k="natural" v="water" />
		<tag k="ssr:stedsnr" v="698279" />
	</node>
	<node id="-790175" lat="63.8529694422" lon="9.98838332572">
		<tag k="name" v="Storvassneset" />
		<tag k="natural" v="cape" />
		<tag k="ssr:stedsnr" v="819328" />
	</node>
	<node id="-790127" lat="63.8697638875" lon="10.1305361205">
		<tag k="name" v="Lonen" />
		<tag k="natural" v="water" />
		<tag k="ssr:stedsnr" v="802149" />
		<tag k="water" v="lake" />
	</node>
	<node id="-788119" lat="63.8345833304" lon="10.1829555636">
		<tag k="name" v="Golidammen" />
		<tag k="ssr:stedsnr" v="698107" />
		<tag k="waterway" v="dam" />
	</node>
	<node id="-790166" lat="63.8104444482" lon="9.4161138887">
		<tag k="name" v="Hestdammen" />
		<tag k="natural" v="water" />
		<tag k="ssr:stedsnr" v="819184" />
	</node>
	<node id="-788117" lat="63.7938111104" lon="10.1087083265">
		<tag k="name" v="Fusslidammen" />
		<tag k="ssr:stedsnr" v="697663" />
		<tag k="waterway" v="dam" />
	</node>
	<node id="-788115" lat="63.7693027782" lon="9.88897778072">
		<tag k="name" v="Svartskogbekken" />
		<tag k="ssr:stedsnr" v="697657" />
		<tag k="waterway" v="stream" />
	</node>
	<node id="-788112" lat="63.8084472182" lon="9.79773332458">
		<tag k="name" v="Storbuktneset" />
		<tag k="natural" v="cape" />
		<tag k="ssr:stedsnr" v="697219" />
	</node>
	<node id="-790159" lat="63.8543916654" lon="10.1830444542">
		<tag k="name" v="Laugatjønnen" />
		<tag k="natural" v="water" />
		<tag k="ssr:stedsnr" v="819077" />
	</node>
	<node id="-790158" lat="63.8294055544" lon="9.92923333234">
		<tag k="name" v="Storbuktbekken" />
		<tag k="ssr:stedsnr" v="819065" />
		<tag k="waterway" v="stream" />
	</node>
	<node id="-790157" lat="63.7928194439" lon="9.88132499089">
		<tag k="name" v="Langtjønna" />
		<tag k="natural" v="water" />
		<tag k="ssr:stedsnr" v="819026" />
	</node>
	<node id="-788100" lat="63.7161111156" lon="9.76517500086">
		<tag k="name" v="Karlsengbekken" />
		<tag k="ssr:stedsnr" v="885741" />
		<tag k="waterway" v="stream" />
	</node>
	<node id="-790133" lat="63.7732416671" lon="9.70103055227">
		<tag k="name" v="Rotbakktjønna" />
		<tag k="natural" v="water" />
		<tag k="ssr:stedsnr" v="802773" />
	</node>
	<node id="-790132" lat="63.7792499999" lon="9.98449721258">
		<tag k="name" v="Damtjønna" />
		<tag k="natural" v="water" />
		<tag k="ssr:stedsnr" v="802236" />
	</node>
	<node id="-788079" lat="63.8058583317" lon="10.0827305533">
		<tag k="name" v="Storelva" />
		<tag k="ssr:stedsnr" v="680023" />
		<tag k="waterway" v="river" />
	</node>
	<node id="-790117" lat="63.8288805596" lon="10.1442583302">
		<tag k="name" v="Storelva" />
		<tag k="ssr:stedsnr" v="802084" />
		<tag k="waterway" v="stream" />
	</node>
	<node id="-790116" lat="63.8302722212" lon="10.2007555651">
		<tag k="name" v="Fisktjønna" />
		<tag k="natural" v="water" />
		<tag k="ssr:stedsnr" v="802081" />
	</node>
	<node id="-790107" lat="63.8099222208" lon="9.80260833393">
		<tag k="name" v="Barsetvatnet" />
		<tag k="natural" v="water" />
		<tag k="ssr:stedsnr" v="802049" />
		<tag k="water" v="lake" />
	</node>
	<node id="-790106" lat="63.8128861096" lon="9.77395276827">
		<tag k="alt_name" v="Molarlivatnet" />
		<tag k="name" v="Mordrvatnet" />
		<tag k="natural" v="water" />
		<tag k="ssr:stedsnr" v="802046" />
	</node>
	<node id="-790105" lat="63.8103944419" lon="9.96035833335">
		<tag k="name" v="Kleivtjønna" />
		<tag k="natural" v="water" />
		<tag k="ssr:stedsnr" v="802044" />
	</node>
	<node id="-790104" lat="63.8140333363" lon="9.9680194536">
		<tag k="name" v="Båtsmedholmen" />
		<tag k="place" v="islet" />
		<tag k="ssr:stedsnr" v="802037" />
	</node>
	<node id="-790101" lat="63.8019555585" lon="9.81783056056">
		<tag k="name" v="Furuneset" />
		<tag k="natural" v="cape" />
		<tag k="ssr:stedsnr" v="802022" />
	</node>
	<node id="-788038" lat="63.8083138853" lon="10.1658777693">
		<tag k="name" v="Blanktjønnbekken" />
		<tag k="ssr:stedsnr" v="880711" />
		<tag k="waterway" v="stream" />
	</node>
	<node id="-788036" lat="63.8230388897" lon="9.85475277224">
		<tag k="name" v="Sagdalsbekken" />
		<tag k="ssr:stedsnr" v="880707" />
		<tag k="waterway" v="stream" />
	</node>
	<node id="-788030" lat="63.7909999964" lon="10.036288885">
		<tag k="name" v="Litlgrandalen" />
		<tag k="natural" v="bay" />
		<tag k="ssr:stedsnr" v="880664" />
	</node>
	<node id="-788027" lat="63.7877305597" lon="10.0242777764">
		<tag k="name" v="Grandalsosen" />
		<tag k="natural" v="bay" />
		<tag k="ssr:stedsnr" v="880648" />
	</node>
	<node id="-788017" lat="63.8097166696" lon="10.0961638936">
		<tag k="name" v="Storrholet" />
		<tag k="natural" v="water" />
		<tag k="ssr:stedsnr" v="880587" />
		<tag k="water" v="lake" />
	</node>
	<node id="-788014" lat="63.8667527796" lon="9.97856666522">
		<tag k="name" v="Svartdalsbekken" />
		<tag k="ssr:stedsnr" v="880559" />
		<tag k="waterway" v="stream" />
	</node>
	<node id="-790040" lat="63.7695777738" lon="9.90549167475">
		<tag k="name" v="Tverrelva" />
		<tag k="ssr:stedsnr" v="758694" />
		<tag k="waterway" v="river" />
	</node>
	<node id="-787982" lat="63.810047223" lon="9.7636361209">
		<tag k="name" v="Bunstlitjønna" />
		<tag k="natural" v="water" />
		<tag k="ssr:stedsnr" v="880189" />
	</node>
	<node id="-790026" lat="63.7946500037" lon="10.051516664">
		<tag k="name" v="Varghiosen" />
		<tag k="natural" v="bay" />
		<tag k="ssr:stedsnr" v="758574" />
	</node>
	<node id="-787970" lat="63.8250194482" lon="9.91995278551">
		<tag k="name" v="Storholman" />
		<tag k="place" v="islet" />
		<tag k="ssr:stedsnr" v="880061" />
	</node>
	<node id="-787969" lat="63.8231055547" lon="9.909608336">
		<tag k="name" v="Tjønnvalneset" />
		<tag k="place" v="islet" />
		<tag k="ssr:stedsnr" v="880055" />
	</node>
	<node id="-787712" lat="63.8050444441" lon="9.97048888802">
		<tag k="name" v="Granlibukta" />
		<tag k="natural" v="bay" />
		<tag k="ssr:stedsnr" v="515020" />
	</node>
	<node id="-787966" lat="63.7965249989" lon="9.91455277757">
		<tag k="name" v="Ytre Raudhammartjønna" />
		<tag k="natural" v="water" />
		<tag k="ssr:stedsnr" v="880027" />
	</node>
	<node id="-789999" lat="63.8285083367" lon="9.91014165758">
		<tag k="name" v="Grunnodden" />
		<tag k="natural" v="cape" />
		<tag k="ssr:stedsnr" v="758049" />
	</node>
	<node id="-789998" lat="63.7978416629" lon="9.99162222472">
		<tag k="name" v="Midtiholmen" />
		<tag k="place" v="islet" />
		<tag k="ssr:stedsnr" v="758017" />
	</node>
	<node id="-789997" lat="63.798186114" lon="9.98524167447">
		<tag k="name" v="Litlholmen" />
		<tag k="place" v="islet" />
		<tag k="ssr:stedsnr" v="758015" />
	</node>
	<node id="-789996" lat="63.802349997" lon="9.97855833653">
		<tag k="name" v="Lianeset" />
		<tag k="natural" v="cape" />
		<tag k="ssr:stedsnr" v="758013" />
	</node>
	<node id="-789994" lat="63.8171805561" lon="9.89128054866">
		<tag k="name" v="Langdalsneset" />
		<tag k="natural" v="cape" />
		<tag k="ssr:stedsnr" v="758009" />
	</node>
	<node id="-787942" lat="63.7838861089" lon="10.1210305608">
		<tag k="name" v="Øra" />
		<tag k="natural" v="beach" />
		<tag k="ssr:stedsnr" v="636619" />
	</node>
	<node id="-787940" lat="63.7664388921" lon="9.98929166576">
		<tag k="name" v="Vamyrbekken" />
		<tag k="ssr:stedsnr" v="636612" />
		<tag k="waterway" v="stream" />
	</node>
	<node id="-787936" lat="63.8708694434" lon="9.93091388853">
		<tag k="name" v="Sagdammen" />
		<tag k="natural" v="water" />
		<tag k="ssr:stedsnr" v="636604" />
		<tag k="water" v="lake" />
	</node>
	<node id="-789983" lat="63.7676694457" lon="9.66838610928">
		<tag k="fixme" v="multiple name tags, choose one and add the other to alt_name" />
		<tag k="name" v="Bomtjønna;Pomtjønna" />
		<tag k="natural" v="water" />
		<tag k="ssr:stedsnr" v="741782" />
	</node>
	<node id="-789977" lat="63.7822583298" lon="9.66741388859">
		<tag k="name" v="Steinvikvatnet" />
		<tag k="natural" v="water" />
		<tag k="ssr:stedsnr" v="741702" />
	</node>
	<node id="-787927" lat="63.8181611122" lon="10.1581305567">
		<tag k="name" v="Litlelva" />
		<tag k="ssr:stedsnr" v="636122" />
		<tag k="waterway" v="river" />
	</node>
	<node id="-789970" lat="63.7917472255" lon="9.94093056258">
		<tag k="name" v="Svartvatnet" />
		<tag k="natural" v="water" />
		<tag k="ssr:stedsnr" v="741290" />
	</node>
	<node id="-789962" lat="63.8130055578" lon="10.087066675">
		<tag k="name" v="Svartdalselva" />
		<tag k="ssr:stedsnr" v="741025" />
		<tag k="waterway" v="stream" />
	</node>
	<node id="-787913" lat="63.8099694439" lon="10.000352782">
		<tag k="name" v="Almfjelltjønnen" />
		<tag k="natural" v="water" />
		<tag k="ssr:stedsnr" v="619022" />
	</node>
	<node id="-789960" lat="63.8342361135" lon="9.95293888795">
		<tag k="name" v="Svartholstjønna" />
		<tag k="natural" v="water" />
		<tag k="ssr:stedsnr" v="741096" />
	</node>
	<node id="-787910" lat="63.8068111123" lon="9.81799166308">
		<tag k="name" v="Seterbukta" />
		<tag k="natural" v="bay" />
		<tag k="ssr:stedsnr" v="619007" />
	</node>
	<node id="-789955" lat="63.8277666685" lon="9.98751110648">
		<tag k="name" v="Langtjønna" />
		<tag k="natural" v="water" />
		<tag k="ssr:stedsnr" v="741072" />
	</node>
	<node id="-787906" lat="63.80981944" lon="10.1481305619">
		<tag k="name" v="Høgsetelva" />
		<tag k="ssr:stedsnr" v="710891" />
		<tag k="waterway" v="river" />
	</node>
	<node id="-787887" lat="63.7679749984" lon="9.57273055071">
		<tag k="name" v="Osen" />
		<tag k="natural" v="bay" />
		<tag k="ssr:stedsnr" v="576529" />
	</node>
	<node id="-787875" lat="63.8459194445" lon="10.168102776">
		<tag k="name" v="Laugaelva" />
		<tag k="ssr:stedsnr" v="576077" />
		<tag k="waterway" v="river" />
	</node>
	<node id="-787870" lat="63.8782500016" lon="10.0376805487">
		<tag k="name" v="Svartvasselva" />
		<tag k="ssr:stedsnr" v="576113" />
		<tag k="waterway" v="river" />
	</node>
	<node id="-787861" lat="63.7306416649" lon="9.75837778501">
		<tag k="name" v="Ol Olsavatnet" />
		<tag k="natural" v="water" />
		<tag k="ssr:stedsnr" v="702959" />
		<tag k="water" v="lake" />
	</node>
	<node id="-789891" lat="63.8559916643" lon="9.94194444812">
		<tag k="name" v="Sørvassneset" />
		<tag k="natural" v="cape" />
		<tag k="ssr:stedsnr" v="636549" />
	</node>
	<node id="-787842" lat="63.7131194487" lon="9.57155555847">
		<tag k="name" v="Leirbekken" />
		<tag k="ssr:stedsnr" v="702861" />
		<tag k="waterway" v="stream" />
	</node>
	<node id="-789882" lat="63.8482861074" lon="9.72698334084">
		<tag k="name" v="Drilsvatnet" />
		<tag k="natural" v="water" />
		<tag k="ssr:stedsnr" v="636381" />
		<tag k="water" v="lake" />
	</node>
	<node id="-787833" lat="63.7870416681" lon="10.1461750079">
		<tag k="name" v="Nordelva" />
		<tag k="ssr:stedsnr" v="560811" />
		<tag k="waterway" v="river" />
	</node>
	<node id="-789879" lat="63.8015777736" lon="9.40901388408">
		<tag k="name" v="Holbekken" />
		<tag k="ssr:stedsnr" v="636189" />
		<tag k="waterway" v="stream" />
	</node>
	<node id="-787830" lat="63.7320472201" lon="9.79448610742">
		<tag k="name" v="Lomtjønna" />
		<tag k="natural" v="water" />
		<tag k="ssr:stedsnr" v="559216" />
	</node>
	<node id="-789874" lat="63.83578333" lon="10.0105722296">
		<tag k="name" v="Skjervassneset" />
		<tag k="natural" v="cape" />
		<tag k="ssr:stedsnr" v="636039" />
	</node>
	<node id="-787347" lat="63.7708694405" lon="9.84749445068">
		<tag k="name" v="Krukeidet" />
		<tag k="natural" v="strait" />
		<tag k="ssr:stedsnr" v="273403" />
	</node>
	<node id="-789866" lat="63.7879388913" lon="9.73903610387">
		<tag k="alt_name" v="Råmarkbekken" />
		<tag k="name" v="Råmarksbekken" />
		<tag k="ssr:stedsnr" v="620240" />
		<tag k="waterway" v="stream" />
	</node>
	<node id="-789862" lat="63.7748749976" lon="9.75410832682">
		<tag k="name" v="Kottengsvatnet" />
		<tag k="natural" v="water" />
		<tag k="ssr:stedsnr" v="620227" />
		<tag k="water" v="lake" />
	</node>
	<node id="-789860" lat="63.7885583372" lon="9.8636305527">
		<tag k="name" v="Duhaugtjønna" />
		<tag k="natural" v="water" />
		<tag k="ssr:stedsnr" v="620216" />
	</node>
	<node id="-789859" lat="63.7617138849" lon="9.84093333598">
		<tag k="name" v="Brekkvatnet" />
		<tag k="natural" v="water" />
		<tag k="ssr:stedsnr" v="620212" />
	</node>
	<node id="-789857" lat="63.7520499972" lon="9.90031389136">
		<tag k="name" v="Damtjønna" />
		<tag k="natural" v="water" />
		<tag k="ssr:stedsnr" v="620162" />
	</node>
	<node id="-789853" lat="63.8370111148" lon="10.0032833324">
		<tag k="name" v="Skjervatnet" />
		<tag k="natural" v="water" />
		<tag k="ssr:stedsnr" v="620068" />
		<tag k="water" v="lake" />
	</node>
	<node id="-789852" lat="63.8325277799" lon="9.84548611683">
		<tag k="fixme" v="multiple name tags, choose one and add the other to alt_name" />
		<tag k="name" v="Kvennavatnet;Valavatnet" />
		<tag k="natural" v="water" />
		<tag k="ssr:stedsnr" v="620065" />
		<tag k="water" v="lake" />
	</node>
	<node id="-789850" lat="63.8262694439" lon="9.94988612067">
		<tag k="name" v="Øvre Svanatjønna" />
		<tag k="natural" v="water" />
		<tag k="ssr:stedsnr" v="620058" />
	</node>
	<node id="-787364" lat="63.8697333331" lon="9.95977222371">
		<tag k="name" v="Gammelkvennfossen" />
		<tag k="natural" v="waterfall" />
		<tag k="ssr:stedsnr" v="273554" />
	</node>
	<node id="-787788" lat="63.7725833323" lon="9.89926112023">
		<tag k="name" v="Liabekken" />
		<tag k="ssr:stedsnr" v="698549" />
		<tag k="waterway" v="stream" />
	</node>
	<node id="-789834" lat="63.7306777739" lon="9.78723611244">
		<tag k="name" v="Kalvåtjørna" />
		<tag k="natural" v="water" />
		<tag k="ssr:stedsnr" v="619260" />
	</node>
	<node id="-789833" lat="63.8482888875" lon="9.951972213">
		<tag k="name" v="Søvatnet" />
		<tag k="natural" v="water" />
		<tag k="ssr:stedsnr" v="619099" />
		<tag k="water" v="lake" />
	</node>
	<node id="-789831" lat="63.843624999" lon="10.1053305633">
		<tag k="alt_name" v="Ner Tomasvatnet;Tomasvatnet, nedre" />
		<tag k="name" v="Nedre Tomasvatnet" />
		<tag k="natural" v="water" />
		<tag k="ssr:stedsnr" v="619087" />
	</node>
	<node id="-787779" lat="63.7356666685" lon="9.83728332997">
		<tag k="name" v="Heggdalsbekken" />
		<tag k="ssr:stedsnr" v="698386" />
		<tag k="waterway" v="stream" />
	</node>
	<node id="-789825" lat="63.8168583312" lon="9.94251944327">
		<tag k="name" v="Strauman" />
		<tag k="natural" v="strait" />
		<tag k="ssr:stedsnr" v="619041" />
	</node>
	<node id="-787757" lat="63.8290166678" lon="10.144241662">
		<tag k="name" v="Breiåa" />
		<tag k="ssr:stedsnr" v="698095" />
		<tag k="waterway" v="river" />
	</node>
	<node id="-787734" lat="63.7411666696" lon="9.83008611095">
		<tag k="name" v="Langkastneset" />
		<tag k="natural" v="cape" />
		<tag k="ssr:stedsnr" v="516431" />
	</node>
	<node id="-787731" lat="63.78825278" lon="9.99552223217">
		<tag k="name" v="Langneset" />
		<tag k="natural" v="cape" />
		<tag k="ssr:stedsnr" v="515623" />
	</node>
	<node id="-787729" lat="63.7896638896" lon="10.0217138909">
		<tag k="name" v="Grandalsgrunnen" />
		<tag k="natural" v="shoal" />
		<tag k="place" v="locality" />
		<tag k="ssr:stedsnr" v="515620" />
	</node>
	<node id="-787726" lat="63.8461972252" lon="9.9865055463">
		<tag k="name" v="Skjervassbekken" />
		<tag k="ssr:stedsnr" v="515528" />
		<tag k="waterway" v="stream" />
	</node>
	<node id="-789765" lat="63.7911722258" lon="10.0072944521">
		<tag k="name" v="Seterholmen" />
		<tag k="place" v="islet" />
		<tag k="ssr:stedsnr" v="576617" />
	</node>
	<node id="-789760" lat="63.7888833296" lon="10.1188777812">
		<tag k="name" v="Skardsetertjønna" />
		<tag k="natural" v="water" />
		<tag k="ssr:stedsnr" v="576606" />
	</node>
	<node id="-789758" lat="63.7555833301" lon="9.95156388955">
		<tag k="name" v="Steggabekken" />
		<tag k="ssr:stedsnr" v="576593" />
		<tag k="waterway" v="stream" />
	</node>
	<node id="-789755" lat="63.797361115" lon="10.0713361161">
		<tag k="name" v="Almtjønnbekken" />
		<tag k="ssr:stedsnr" v="576566" />
		<tag k="waterway" v="stream" />
	</node>
	<node id="-787704" lat="63.8200000042" lon="9.88683889689">
		<tag k="name" v="Rognlivatnet" />
		<tag k="natural" v="water" />
		<tag k="ssr:stedsnr" v="681040" />
		<tag k="water" v="lake" />
	</node>
	<node id="-789745" lat="63.7783138901" lon="9.86186388227">
		<tag k="name" v="Botnelva" />
		<tag k="ssr:stedsnr" v="576423" />
		<tag k="waterway" v="river" />
	</node>
	<node id="-787696" lat="63.8396111098" lon="9.95864999671">
		<tag k="name" v="Sofustjønna" />
		<tag k="natural" v="water" />
		<tag k="ssr:stedsnr" v="498086" />
	</node>
	<node id="-787694" lat="63.8360638859" lon="10.087144448">
		<tag k="name" v="Fiskløysan" />
		<tag k="natural" v="water" />
		<tag k="ssr:stedsnr" v="498079" />
	</node>
	<node id="-787693" lat="63.8313444402" lon="9.91448888596">
		<tag k="name" v="Teksdalsvatnet" />
		<tag k="natural" v="water" />
		<tag k="ssr:stedsnr" v="498073" />
		<tag k="water" v="lake" />
	</node>
	<node id="-789740" lat="63.8364638858" lon="9.82609444988">
		<tag k="name" v="Råkabekken" />
		<tag k="ssr:stedsnr" v="576382" />
		<tag k="waterway" v="stream" />
	</node>
	<node id="-787687" lat="63.8535666661" lon="10.1542111088">
		<tag k="name" v="Laugen" />
		<tag k="natural" v="water" />
		<tag k="ssr:stedsnr" v="498104" />
		<tag k="water" v="lake" />
	</node>
	<node id="-789727" lat="63.874033331" lon="9.98657223073">
		<tag k="name" v="Vester Mjøsundet" />
		<tag k="natural" v="strait" />
		<tag k="ssr:stedsnr" v="576553" />
	</node>
	<node id="-787677" lat="63.7728388869" lon="9.652444451">
		<tag k="name" v="Brudalsvatna" />
		<tag k="natural" v="water" />
		<tag k="ssr:stedsnr" v="680684" />
	</node>
	<node id="-787673" lat="63.7395111131" lon="9.83919999696">
		<tag k="name" v="Eidsvatnet" />
		<tag k="natural" v="water" />
		<tag k="ssr:stedsnr" v="680199" />
		<tag k="water" v="lake" />
	</node>
	<node id="-789712" lat="63.8273333309" lon="10.0104388929">
		<tag k="name" v="Jensneset" />
		<tag k="natural" v="cape" />
		<tag k="ssr:stedsnr" v="576043" />
	</node>
	<node id="-787663" lat="63.8222638906" lon="10.2096000099">
		<tag k="name" v="Blanktjønna" />
		<tag k="natural" v="water" />
		<tag k="ssr:stedsnr" v="680038" />
	</node>
	<node id="-789709" lat="63.7988583349" lon="9.99744166026">
		<tag k="name" v="Storholmen" />
		<tag k="place" v="islet" />
		<tag k="ssr:stedsnr" v="576024" />
	</node>
	<node id="-789707" lat="63.8112555592" lon="9.79900278181">
		<tag k="name" v="Langneset" />
		<tag k="natural" v="cape" />
		<tag k="ssr:stedsnr" v="576180" />
	</node>
	<node id="-788246" lat="63.8594166649" lon="10.0166777876">
		<tag k="name" v="Setertjønna" />
		<tag k="natural" v="water" />
		<tag k="ssr:stedsnr" v="923133" />
	</node>
	<node id="-789699" lat="63.7307055536" lon="9.80015000315">
		<tag k="name" v="Krulltjønna" />
		<tag k="natural" v="water" />
		<tag k="ssr:stedsnr" v="576130" />
	</node>
	<node id="-789697" lat="63.8514583313" lon="10.0162944434">
		<tag k="name" v="Rekstertjønna" />
		<tag k="natural" v="water" />
		<tag k="ssr:stedsnr" v="576096" />
	</node>
	<node id="-789690" lat="63.8713750038" lon="9.89604721996">
		<tag k="name" v="Klårtjønna" />
		<tag k="natural" v="water" />
		<tag k="ssr:stedsnr" v="567175" />
	</node>
	<node id="-789682" lat="63.7242249994" lon="9.75510834005">
		<tag k="name" v="Ørnlibekken" />
		<tag k="ssr:stedsnr" v="559231" />
		<tag k="waterway" v="stream" />
	</node>
	<node id="-789681" lat="63.79745278" lon="9.81729443651">
		<tag k="name" v="Langstrandneset" />
		<tag k="natural" v="cape" />
		<tag k="ssr:stedsnr" v="559228" />
	</node>
	<node id="-789672" lat="63.8246861132" lon="10.0661416731">
		<tag k="name" v="Svarttjønna" />
		<tag k="natural" v="water" />
		<tag k="ssr:stedsnr" v="559064" />
	</node>
	<node id="-789671" lat="63.8279972188" lon="10.1229861125">
		<tag k="name" v="Perholbekken" />
		<tag k="ssr:stedsnr" v="559062" />
		<tag k="waterway" v="stream" />
	</node>
	<node id="-789669" lat="63.7747638891" lon="9.83647499856">
		<tag k="name" v="Litlkruktjønna" />
		<tag k="natural" v="water" />
		<tag k="ssr:stedsnr" v="559186" />
	</node>
	<node id="-787615" lat="63.7663611104" lon="9.86605833554">
		<tag k="name" v="Hermanneset" />
		<tag k="natural" v="cape" />
		<tag k="ssr:stedsnr" v="516463" />
	</node>
	<node id="-789660" lat="63.8651000008" lon="9.89857499735">
		<tag k="name" v="Vikavatnet" />
		<tag k="natural" v="water" />
		<tag k="ssr:stedsnr" v="558140" />
	</node>
	<node id="-789657" lat="63.8209527787" lon="10.0098027772">
		<tag k="name" v="Hildremsvatnet" />
		<tag k="natural" v="water" />
		<tag k="ssr:stedsnr" v="558039" />
		<tag k="water" v="lake" />
	</node>
	<node id="-789655" lat="63.8615527775" lon="9.95756666619">
		<tag k="name" v="Melvatnet" />
		<tag k="natural" v="water" />
		<tag k="ssr:stedsnr" v="558126" />
	</node>
	<node id="-787584" lat="63.7751138884" lon="9.90405277272">
		<tag k="name" v="Gråsteinbekken" />
		<tag k="ssr:stedsnr" v="515576" />
		<tag k="waterway" v="stream" />
	</node>
	<node id="-787578" lat="63.8748277768" lon="9.99298055269">
		<tag k="name" v="Øyster Mjøsundet" />
		<tag k="natural" v="strait" />
		<tag k="ssr:stedsnr" v="515545" />
	</node>
	<node id="-787567" lat="63.7958750041" lon="9.61718889242">
		<tag k="name" v="Stokkbekken" />
		<tag k="ssr:stedsnr" v="515355" />
		<tag k="waterway" v="stream" />
	</node>
	<node id="-789612" lat="63.7963194465" lon="9.75031666798">
		<tag k="name" v="Koppartjønna" />
		<tag k="natural" v="water" />
		<tag k="ssr:stedsnr" v="438225" />
	</node>
	<node id="-787562" lat="63.7390383521" lon="9.87945660358">
		<tag k="name" v="Kjerkbekken" />
		<tag k="ssr:stedsnr" v="515339" />
		<tag k="waterway" v="stream" />
	</node>
	<node id="-789604" lat="63.7654194432" lon="9.8878027699">
		<tag k="name" v="Djupelva" />
		<tag k="ssr:stedsnr" v="438174" />
		<tag k="waterway" v="stream" />
	</node>
	<node id="-789602" lat="63.8571833368" lon="10.0480861042">
		<tag k="name" v="Nyvassdalsvatnet" />
		<tag k="natural" v="water" />
		<tag k="ssr:stedsnr" v="438093" />
	</node>
	<node id="-787553" lat="63.7376555591" lon="9.75989166628">
		<tag k="name" v="Grønvatnet" />
		<tag k="natural" v="water" />
		<tag k="ssr:stedsnr" v="515172" />
		<tag k="water" v="lake" />
	</node>
	<node id="-787551" lat="63.7404944462" lon="9.77294722763">
		<tag k="name" v="Pissaren" />
		<tag k="ssr:stedsnr" v="515158" />
		<tag k="waterway" v="stream" />
	</node>
	<node id="-789597" lat="63.8435999971" lon="10.0609194402">
		<tag k="name" v="Lakstjønna" />
		<tag k="natural" v="water" />
		<tag k="ssr:stedsnr" v="438068" />
	</node>
	<node id="-789596" lat="63.8431638919" lon="10.0478916642">
		<tag k="name" v="Høgtjønna" />
		<tag k="natural" v="water" />
		<tag k="ssr:stedsnr" v="438067" />
	</node>
	<node id="-787642" lat="63.8029611123" lon="9.99628054745">
		<tag k="name" v="Tyssbotnbukta" />
		<tag k="natural" v="bay" />
		<tag k="ssr:stedsnr" v="455023" />
	</node>
	<node id="-789594" lat="63.8371499994" lon="9.93825832909">
		<tag k="alt_name" v="Klumptjønna" />
		<tag k="name" v="Klumptjønnen" />
		<tag k="natural" v="water" />
		<tag k="ssr:stedsnr" v="438065" />
	</node>
	<node id="-787543" lat="63.8575916698" lon="10.1637666717">
		<tag k="name" v="Laugabekken" />
		<tag k="ssr:stedsnr" v="515077" />
		<tag k="waterway" v="stream" />
	</node>
	<node id="-789586" lat="63.873849996" lon="10.0711805494">
		<tag k="name" v="Svartvasstjønna" />
		<tag k="natural" v="water" />
		<tag k="ssr:stedsnr" v="437574" />
	</node>
	<node id="-787527" lat="63.8771388902" lon="9.84795833171">
		<tag k="name" v="Bergabekken" />
		<tag k="ssr:stedsnr" v="394359" />
		<tag k="waterway" v="stream" />
	</node>
	<node id="-789561" lat="63.7041222219" lon="9.67299445101">
		<tag k="name" v="Biskopbekken" />
		<tag k="ssr:stedsnr" v="399850" />
		<tag k="waterway" v="stream" />
	</node>
	<node id="-789554" lat="63.7025527819" lon="9.71046111552">
		<tag k="name" v="Fuggelbekken" />
		<tag k="ssr:stedsnr" v="399770" />
		<tag k="waterway" v="stream" />
	</node>
	<node id="-787500" lat="63.7240277739" lon="9.72372221706">
		<tag k="name" v="Rusasetvatnet" />
		<tag k="natural" v="water" />
		<tag k="ssr:stedsnr" v="377230" />
	</node>
	<node id="-787496" lat="63.7915000001" lon="9.71292777685">
		<tag k="name" v="Ryvatnet" />
		<tag k="natural" v="water" />
		<tag k="ssr:stedsnr" v="498682" />
		<tag k="water" v="lake" />
	</node>
	<node id="-787486" lat="63.7606388906" lon="9.92998333895">
		<tag k="name" v="Søtvikvatnet" />
		<tag k="natural" v="water" />
		<tag k="ssr:stedsnr" v="498245" />
	</node>
	<node id="-789510" lat="63.7765861084" lon="9.91875278758">
		<tag k="name" v="Råbekken" />
		<tag k="ssr:stedsnr" v="394679" />
		<tag k="waterway" v="stream" />
	</node>
	<node id="-789504" lat="63.7694583378" lon="9.79949443582">
		<tag k="name" v="Okelva" />
		<tag k="ssr:stedsnr" v="394494" />
		<tag k="waterway" v="river" />
	</node>
	<node id="-789502" lat="63.7669444479" lon="9.74586111218">
		<tag k="name" v="Soffibekken" />
		<tag k="ssr:stedsnr" v="394476" />
		<tag k="waterway" v="stream" />
	</node>
	<node id="-789496" lat="63.7870861156" lon="9.86591943646">
		<tag k="name" v="Kattjønnen" />
		<tag k="natural" v="water" />
		<tag k="ssr:stedsnr" v="394444" />
	</node>
	<node id="-787446" lat="63.7165916661" lon="9.80390832726">
		<tag k="name" v="Fossen" />
		<tag k="natural" v="waterfall" />
		<tag k="ssr:stedsnr" v="333110" />
	</node>
	<node id="-787440" lat="63.7831861145" lon="9.65497778771">
		<tag k="name" v="Jørnlivatnet" />
		<tag k="natural" v="water" />
		<tag k="ssr:stedsnr" v="316672" />
	</node>
	<node id="-787435" lat="63.7961027804" lon="10.1747805584">
		<tag k="name" v="Måssåtjønna" />
		<tag k="natural" v="water" />
		<tag k="ssr:stedsnr" v="316256" />
	</node>
	<node id="-789482" lat="63.7843444449" lon="9.87760276984">
		<tag k="name" v="Luna" />
		<tag k="ssr:stedsnr" v="394574" />
		<tag k="waterway" v="river" />
	</node>
	<node id="-789477" lat="63.7963444487" lon="10.1425166631">
		<tag k="name" v="Jutultjønna" />
		<tag k="natural" v="water" />
		<tag k="ssr:stedsnr" v="394547" />
	</node>
	<node id="-787424" lat="63.8232972209" lon="9.96478054616">
		<tag k="fixme" v="multiple name tags, choose one and add the other to alt_name" />
		<tag k="name" v="Svanatjønna;Nedre Svanatjønna" />
		<tag k="natural" v="water" />
		<tag k="ssr:stedsnr" v="316064" />
	</node>
	<node id="-789462" lat="63.802033329" lon="9.77706110708">
		<tag k="name" v="Sandtjønna" />
		<tag k="natural" v="water" />
		<tag k="ssr:stedsnr" v="394184" />
	</node>
	<node id="-789461" lat="63.7463777819" lon="9.76553056504">
		<tag k="name" v="Raudsteintjønna" />
		<tag k="natural" v="water" />
		<tag k="ssr:stedsnr" v="394141" />
	</node>
	<node id="-787411" lat="63.6794305536" lon="9.63406945345">
		<tag k="name" v="Åa" />
		<tag k="ssr:stedsnr" v="460953" />
		<tag k="waterway" v="stream" />
	</node>
	<node id="-789457" lat="63.7830416624" lon="9.7732750041">
		<tag k="name" v="Kottengselva" />
		<tag k="ssr:stedsnr" v="394327" />
		<tag k="waterway" v="river" />
	</node>
	<node id="-787408" lat="63.7039250035" lon="9.6851000055">
		<tag k="name" v="Leirdalsbekken" />
		<tag k="ssr:stedsnr" v="460806" />
		<tag k="waterway" v="stream" />
	</node>
	<node id="-789452" lat="63.8312722204" lon="9.91814999463">
		<tag k="name" v="Buaholmen" />
		<tag k="place" v="islet" />
		<tag k="ssr:stedsnr" v="394047" />
	</node>
	<node id="-789450" lat="63.8161583331" lon="9.98962499959">
		<tag k="name" v="Hildremselva" />
		<tag k="ssr:stedsnr" v="394034" />
		<tag k="waterway" v="river" />
	</node>
	<node id="-787397" lat="63.7005111098" lon="9.71311666581">
		<tag k="name" v="Fuggelbekken" />
		<tag k="ssr:stedsnr" v="459722" />
		<tag k="waterway" v="stream" />
	</node>
	<node id="-789428" lat="63.856919447" lon="9.99386387946">
		<tag k="name" v="Storvatnet" />
		<tag k="natural" v="water" />
		<tag k="ssr:stedsnr" v="377102" />
		<tag k="water" v="lake" />
	</node>
	<node id="-789427" lat="63.8416250042" lon="9.9713666733">
		<tag k="name" v="Åltjønna" />
		<tag k="natural" v="water" />
		<tag k="ssr:stedsnr" v="377089" />
	</node>
	<node id="-789424" lat="63.8276666635" lon="9.92381944559">
		<tag k="name" v="Buen" />
		<tag k="natural" v="cape" />
		<tag k="ssr:stedsnr" v="377057" />
	</node>
	<node id="-789422" lat="63.8205833338" lon="9.75758610801">
		<tag k="name" v="Gravdalsbekken" />
		<tag k="ssr:stedsnr" v="377050" />
		<tag k="waterway" v="stream" />
	</node>
	<node id="-789415" lat="63.8206861123" lon="9.49308055163">
		<tag k="name" v="Storvatnet" />
		<tag k="natural" v="water" />
		<tag k="ssr:stedsnr" v="376674" />
	</node>
	<node id="-789414" lat="63.8761972257" lon="9.98353055718">
		<tag k="name" v="Blåvatnet" />
		<tag k="natural" v="water" />
		<tag k="ssr:stedsnr" v="376574" />
	</node>
	<node id="-789412" lat="63.8200944476" lon="10.0360416609">
		<tag k="alt_name" v="Hildremstjønnen" />
		<tag k="name" v="Hildremstjønna" />
		<tag k="natural" v="water" />
		<tag k="ssr:stedsnr" v="376051" />
	</node>
	<node id="-789407" lat="63.8099444489" lon="9.88660556347">
		<tag k="name" v="Setertjønna" />
		<tag k="natural" v="water" />
		<tag k="ssr:stedsnr" v="376037" />
	</node>
	<node id="-789405" lat="63.8071666625" lon="10.0439138851">
		<tag k="name" v="Småtjønnen" />
		<tag k="natural" v="water" />
		<tag k="ssr:stedsnr" v="376029" />
	</node>
	<node id="-787355" lat="63.7841888884" lon="9.98305277603">
		<tag k="name" v="Gjøljaelva" />
		<tag k="ssr:stedsnr" v="273620" />
		<tag k="waterway" v="river" />
	</node>
	<node id="-787349" lat="63.772394446" lon="9.75433055733">
		<tag k="name" v="Mølnargårdselva" />
		<tag k="ssr:stedsnr" v="273468" />
		<tag k="waterway" v="river" />
	</node>
	<node id="-789395" lat="63.7196277769" lon="9.77324721826">
		<tag k="name" v="Osplibekken" />
		<tag k="ssr:stedsnr" v="338947" />
		<tag k="waterway" v="stream" />
	</node>
	<node id="-787949" lat="63.803741665" lon="10.0486222278">
		<tag k="name" v="Grobekken" />
		<tag k="ssr:stedsnr" v="636557" />
		<tag k="waterway" v="stream" />
	</node>
	<node id="-789314" lat="63.8211694401" lon="9.90684166265">
		<tag k="name" v="Tjønnvalen" />
		<tag k="natural" v="strait" />
		<tag k="ssr:stedsnr" v="333664" />
	</node>
	<node id="-789381" lat="63.7122166674" lon="9.56318888017">
		<tag k="name" v="Leirbekkosen" />
		<tag k="natural" v="bay" />
		<tag k="ssr:stedsnr" v="337996" />
	</node>
	<node id="-787328" lat="63.8187555538" lon="9.93261943472">
		<tag k="name" v="Elgsneset" />
		<tag k="natural" v="cape" />
		<tag k="ssr:stedsnr" v="273068" />
	</node>
	<node id="-787323" lat="63.794377779" lon="9.91895555113">
		<tag k="name" v="Oksbåsen" />
		<tag k="natural" v="bay" />
		<tag k="ssr:stedsnr" v="273003" />
	</node>
	<node id="-787322" lat="63.8575749965" lon="10.0651888984">
		<tag k="name" v="Sagfossen" />
		<tag k="natural" v="waterfall" />
		<tag k="ssr:stedsnr" v="273110" />
	</node>
	<node id="-789362" lat="63.8605583358" lon="9.96396389015">
		<tag k="name" v="Nyvassdalselva" />
		<tag k="ssr:stedsnr" v="334542" />
		<tag k="waterway" v="river" />
	</node>
	<node id="-789351" lat="63.7963305544" lon="10.0446000026">
		<tag k="name" v="Øratangen" />
		<tag k="natural" v="cape" />
		<tag k="ssr:stedsnr" v="334516" />
	</node>
	<node id="-789330" lat="63.8314083373" lon="9.88501110161">
		<tag k="name" v="Seterbekken" />
		<tag k="ssr:stedsnr" v="334012" />
		<tag k="waterway" v="stream" />
	</node>
	<node id="-787271" lat="63.8494583294" lon="9.98936945265">
		<tag k="name" v="Skjervasslineset" />
		<tag k="natural" v="cape" />
		<tag k="ssr:stedsnr" v="455500" />
	</node>
	<node id="-787266" lat="63.7581311858" lon="9.80889789201">
		<tag k="name" v="Sæterbekken" />
		<tag k="ssr:stedsnr" v="455462" />
		<tag k="waterway" v="stream" />
	</node>
	<node id="-789310" lat="63.7612055599" lon="9.64780833032">
		<tag k="name" v="Risvikbekken" />
		<tag k="ssr:stedsnr" v="333597" />
		<tag k="waterway" v="stream" />
	</node>
	<node id="-789307" lat="63.7872305567" lon="9.87412777336">
		<tag k="name" v="Damtjønna" />
		<tag k="natural" v="water" />
		<tag k="ssr:stedsnr" v="333582" />
	</node>
	<node id="-786909" lat="63.7347277766" lon="9.68764999102">
		<tag k="name" v="Storhaugbekken" />
		<tag k="ssr:stedsnr" v="217849" />
		<tag k="waterway" v="stream" />
	</node>
	<node id="-787236" lat="63.8334027792" lon="10.0647555574">
		<tag k="name" v="Fiskløysbekken" />
		<tag k="ssr:stedsnr" v="455096" />
		<tag k="waterway" v="stream" />
	</node>
	<node id="-787235" lat="63.8288972234" lon="10.0295166653">
		<tag k="name" v="Øvre Storslættjønna" />
		<tag k="natural" v="water" />
		<tag k="ssr:stedsnr" v="455088" />
	</node>
	<node id="-787233" lat="63.8475638867" lon="10.1661805593">
		<tag k="name" v="Laugadammen" />
		<tag k="ssr:stedsnr" v="455080" />
		<tag k="waterway" v="dam" />
	</node>
	<node id="-789279" lat="63.8164249976" lon="9.95974999633">
		<tag k="name" v="Sagdammen" />
		<tag k="ssr:stedsnr" v="333063" />
		<tag k="waterway" v="dam" />
	</node>
	<node id="-789278" lat="63.8220611154" lon="9.91203334325">
		<tag k="name" v="Daumannsholmen" />
		<tag k="place" v="islet" />
		<tag k="ssr:stedsnr" v="333056" />
	</node>
	<node id="-787229" lat="63.8204638885" lon="9.89762222042">
		<tag k="name" v="Storvalen" />
		<tag k="natural" v="shoal" />
		<tag k="place" v="locality" />
		<tag k="ssr:stedsnr" v="455045" />
	</node>
	<node id="-789275" lat="63.8205444439" lon="10.0755361201">
		<tag k="name" v="Søre Svarttjønna" />
		<tag k="natural" v="water" />
		<tag k="ssr:stedsnr" v="326901" />
	</node>
	<node id="-789274" lat="63.7160888914" lon="9.73693888772">
		<tag k="alt_name" v="Dalaelva;Dalelva" />
		<tag k="name" v="Dalabekken" />
		<tag k="ssr:stedsnr" v="317746" />
		<tag k="waterway" v="stream" />
	</node>
	<node id="-787223" lat="63.819436112" lon="9.78611943551">
		<tag k="name" v="Sørfjelldalstjønna" />
		<tag k="natural" v="water" />
		<tag k="ssr:stedsnr" v="256052" />
	</node>
	<node id="-787221" lat="63.8013055532" lon="9.98804721403">
		<tag k="name" v="Tyssbotnneset" />
		<tag k="natural" v="cape" />
		<tag k="ssr:stedsnr" v="256013" />
	</node>
	<node id="-787220" lat="63.7975027778" lon="9.92664999205">
		<tag k="name" v="Raudhammartjønna" />
		<tag k="natural" v="water" />
		<tag k="ssr:stedsnr" v="256011" />
	</node>
	<node id="-787216" lat="63.8146000025" lon="10.2104277817">
		<tag k="alt_name" v="Hammeldalstjønna" />
		<tag k="name" v="Hammardalstjønna" />
		<tag k="natural" v="water" />
		<tag k="ssr:stedsnr" v="255021" />
	</node>
	<node id="-787214" lat="63.8030499962" lon="10.1789888966">
		<tag k="alt_name" v="Høgsetvatnet, øvre;Øver Høgsetvatnet" />
		<tag k="name" v="Øvre Høgsetvatnet" />
		<tag k="natural" v="water" />
		<tag k="ssr:stedsnr" v="255018" />
	</node>
	<node id="-789260" lat="63.8714694446" lon="9.96696110426">
		<tag k="name" v="Kvennavatnet" />
		<tag k="natural" v="water" />
		<tag k="ssr:stedsnr" v="316606" />
	</node>
	<node id="-789975" lat="63.7356416692" lon="9.7786861056">
		<tag k="name" v="Pissarvatnet" />
		<tag k="natural" v="water" />
		<tag k="ssr:stedsnr" v="741238" />
	</node>
	<node id="-789255" lat="63.7865638932" lon="9.92509444038">
		<tag k="alt_name" v="Tvillingtjønnen" />
		<tag k="name" v="Tvillingtjønna" />
		<tag k="natural" v="water" />
		<tag k="ssr:stedsnr" v="316242" />
	</node>
	<node id="-789248" lat="63.8297277811" lon="10.1586833368">
		<tag k="fixme" v="multiple name tags, choose one and add the other to alt_name" />
		<tag k="name" v="Storfisktjønna;Søre Storfisktjønna" />
		<tag k="natural" v="water" />
		<tag k="ssr:stedsnr" v="316051" />
	</node>
	<node id="-787188" lat="63.7787694473" lon="9.98856665954">
		<tag k="name" v="Luna" />
		<tag k="ssr:stedsnr" v="212615" />
		<tag k="waterway" v="river" />
	</node>
	<node id="-787171" lat="63.7950694435" lon="9.81314444105">
		<tag k="name" v="Eidskardbukta" />
		<tag k="natural" v="bay" />
		<tag k="ssr:stedsnr" v="212002" />
	</node>
	<node id="-787168" lat="63.8311472198" lon="10.1503944374">
		<tag k="name" v="Elvasvingen" />
		<tag k="natural" v="water" />
		<tag k="ssr:stedsnr" v="212107" />
		<tag k="water" v="lake" />
	</node>
	<node id="-787162" lat="63.8034222259" lon="9.87669443452">
		<tag k="name" v="Dragavatnet" />
		<tag k="natural" v="water" />
		<tag k="ssr:stedsnr" v="195013" />
	</node>
	<node id="-787159" lat="63.8021138856" lon="10.1419499944">
		<tag k="name" v="Fusslibekken" />
		<tag k="ssr:stedsnr" v="285884" />
		<tag k="waterway" v="stream" />
	</node>
	<node id="-787158" lat="63.7965166669" lon="10.1972222239">
		<tag k="name" v="Luna" />
		<tag k="natural" v="water" />
		<tag k="ssr:stedsnr" v="180212" />
		<tag k="water" v="lake" />
	</node>
	<node id="-789203" lat="63.7709277821" lon="9.90135556106">
		<tag k="name" v="Flakamyrbekken" />
		<tag k="ssr:stedsnr" v="212667" />
		<tag k="waterway" v="stream" />
	</node>
	<node id="-789191" lat="63.7583638908" lon="9.96972499439">
		<tag k="name" v="Akseldalsbekken" />
		<tag k="ssr:stedsnr" v="212594" />
		<tag k="waterway" v="stream" />
	</node>
	<node id="-787139" lat="63.7289083313" lon="9.71645833202">
		<tag k="name" v="Litlvatnet" />
		<tag k="natural" v="water" />
		<tag k="ssr:stedsnr" v="277764" />
		<tag k="water" v="lake" />
	</node>
	<node id="-789181" lat="63.7837777805" lon="9.92761388453">
		<tag k="name" v="Reinstjønna" />
		<tag k="natural" v="water" />
		<tag k="ssr:stedsnr" v="212560" />
	</node>
	<node id="-789178" lat="63.8656861131" lon="9.94936388392">
		<tag k="name" v="Kvennavasselva" />
		<tag k="ssr:stedsnr" v="212550" />
		<tag k="waterway" v="river" />
	</node>
	<node id="-789177" lat="63.8746138877" lon="9.97520278245">
		<tag k="name" v="Blåvasselva" />
		<tag k="ssr:stedsnr" v="212540" />
		<tag k="waterway" v="river" />
	</node>
	<node id="-789176" lat="63.8762916629" lon="9.98952500248">
		<tag k="name" v="Gammelseterneset" />
		<tag k="natural" v="cape" />
		<tag k="ssr:stedsnr" v="212537" />
	</node>
	<node id="-787230" lat="63.8286972196" lon="10.1215388813">
		<tag k="name" v="Perholdammen" />
		<tag k="ssr:stedsnr" v="455066" />
		<tag k="waterway" v="dam" />
	</node>
	<node id="-787120" lat="63.7992166693" lon="10.0551611093">
		<tag k="name" v="Breiosen" />
		<tag k="natural" v="bay" />
		<tag k="ssr:stedsnr" v="151546" />
	</node>
	<node id="-789277" lat="63.8306555596" lon="9.90731944111">
		<tag k="name" v="Merkesodden" />
		<tag k="place" v="islet" />
		<tag k="ssr:stedsnr" v="333048" />
	</node>
	<node id="-787108" lat="63.8301305564" lon="10.1776166616">
		<tag k="name" v="Golibekken" />
		<tag k="ssr:stedsnr" v="151139" />
		<tag k="waterway" v="stream" />
	</node>
	<node id="-787107" lat="63.8597111098" lon="10.0559472297">
		<tag k="name" v="Tverrbekken" />
		<tag k="ssr:stedsnr" v="151131" />
		<tag k="waterway" v="stream" />
	</node>
	<node id="-789154" lat="63.7699666689" lon="9.75783888565">
		<tag k="name" v="Mølnargårdselva" />
		<tag k="ssr:stedsnr" v="212332" />
		<tag k="waterway" v="river" />
	</node>
	<node id="-789148" lat="63.8232305518" lon="10.0064805531">
		<tag k="name" v="Storholmen" />
		<tag k="place" v="islet" />
		<tag k="ssr:stedsnr" v="212035" />
	</node>
	<node id="-789133" lat="63.8126305559" lon="9.43355555927">
		<tag k="name" v="Åkervikvatnet" />
		<tag k="natural" v="water" />
		<tag k="ssr:stedsnr" v="195673" />
	</node>
	<node id="-789128" lat="63.7851361139" lon="9.71130833608">
		<tag k="name" v="Koltjønna" />
		<tag k="natural" v="water" />
		<tag k="ssr:stedsnr" v="195646" />
	</node>
	<node id="-787079" lat="63.7957833328" lon="9.95661389141">
		<tag k="name" v="Liaelva" />
		<tag k="ssr:stedsnr" v="273538" />
		<tag k="waterway" v="river" />
	</node>
	<node id="-789125" lat="63.7919222208" lon="10.1417861069">
		<tag k="name" v="Ramsbakktjønna" />
		<tag k="natural" v="water" />
		<tag k="ssr:stedsnr" v="195281" />
	</node>
	<node id="-787076" lat="63.7994333355" lon="10.0086277702">
		<tag k="name" v="Trollbukta" />
		<tag k="natural" v="bay" />
		<tag k="ssr:stedsnr" v="273527" />
	</node>
	<node id="-787075" lat="63.8500805526" lon="9.94003611769">
		<tag k="name" v="Middagsskardtjønna" />
		<tag k="natural" v="water" />
		<tag k="ssr:stedsnr" v="273521" />
	</node>
	<node id="-787072" lat="63.7601861093" lon="9.8868555468">
		<tag k="name" v="Bjønnadalsbekken" />
		<tag k="ssr:stedsnr" v="273640" />
		<tag k="waterway" v="stream" />
	</node>
	<node id="-789118" lat="63.8423083312" lon="10.1215222218">
		<tag k="alt_name" v="Øver Tomasvatnet;Tomasvatnet, øvre" />
		<tag k="name" v="Øvre Tomasvatnet" />
		<tag k="natural" v="water" />
		<tag k="ssr:stedsnr" v="195093" />
	</node>
	<node id="-789116" lat="63.8350694423" lon="9.88432499211">
		<tag k="name" v="Setertjønna" />
		<tag k="natural" v="water" />
		<tag k="ssr:stedsnr" v="195079" />
	</node>
	<node id="-789115" lat="63.8351416673" lon="10.1839888846">
		<tag k="name" v="Golitjønna" />
		<tag k="natural" v="water" />
		<tag k="ssr:stedsnr" v="195071" />
	</node>
	<node id="-787062" lat="63.763991667" lon="9.95668611988">
		<tag k="name" v="Butlibekken" />
		<tag k="ssr:stedsnr" v="273578" />
		<tag k="waterway" v="stream" />
	</node>
	<node id="-787059" lat="63.7874861125" lon="9.87302500491">
		<tag k="name" v="Damhølen" />
		<tag k="natural" v="water" />
		<tag k="ssr:stedsnr" v="273431" />
	</node>
	<node id="-787048" lat="63.8654388898" lon="9.94331110128">
		<tag k="name" v="Hyllfossen" />
		<tag k="natural" v="waterfall" />
		<tag k="ssr:stedsnr" v="273340" />
	</node>
	<node id="-787046" lat="63.7399666639" lon="9.85533611192">
		<tag k="name" v="Volladalsbekken" />
		<tag k="ssr:stedsnr" v="273332" />
		<tag k="waterway" v="stream" />
	</node>
	<node id="-787043" lat="63.8751805596" lon="10.0077638805">
		<tag k="name" v="Sandtjønnelva" />
		<tag k="ssr:stedsnr" v="273126" />
		<tag k="waterway" v="river" />
	</node>
	<node id="-787042" lat="63.8322083335" lon="10.1576888851">
		<tag k="name" v="Nordre Storfisktjønna" />
		<tag k="natural" v="water" />
		<tag k="ssr:stedsnr" v="273122" />
	</node>
	<node id="-789086" lat="63.704136115" lon="9.69055556171">
		<tag k="alt_name" v="Balsneselva" />
		<tag k="name" v="Ballsneselva" />
		<tag k="ssr:stedsnr" v="156763" />
		<tag k="waterway" v="river" />
	</node>
	<node id="-787031" lat="63.8698805531" lon="10.1002555641">
		<tag k="name" v="Tremannsvatna" />
		<tag k="natural" v="water" />
		<tag k="ssr:stedsnr" v="134603" />
	</node>
	<node id="-787028" lat="63.8525277766" lon="10.0263944396">
		<tag k="name" v="Langtjønna" />
		<tag k="natural" v="water" />
		<tag k="ssr:stedsnr" v="134121" />
	</node>
	<node id="-787027" lat="63.8471361072" lon="10.069472212">
		<tag k="name" v="Sundtjønna" />
		<tag k="natural" v="water" />
		<tag k="ssr:stedsnr" v="134103" />
	</node>
	<node id="-787026" lat="63.8470277772" lon="10.0620666759">
		<tag k="name" v="Holmtjønna" />
		<tag k="natural" v="water" />
		<tag k="ssr:stedsnr" v="134102" />
	</node>
	<node id="-787011" lat="63.8777611067" lon="10.0345833307">
		<tag k="name" v="Sandtjønna" />
		<tag k="natural" v="water" />
		<tag k="ssr:stedsnr" v="256539" />
	</node>
	<node id="-787007" lat="63.7950249958" lon="9.8881444381">
		<tag k="name" v="Stortjønna" />
		<tag k="natural" v="water" />
		<tag k="ssr:stedsnr" v="256245" />
	</node>
	<node id="-787006" lat="63.7989694411" lon="10.133788896">
		<tag k="alt_name" v="Fusslitjønna" />
		<tag k="name" v="Fuslitjønna" />
		<tag k="natural" v="water" />
		<tag k="ssr:stedsnr" v="256243" />
	</node>
	<node id="-787001" lat="63.7378055574" lon="9.72150277458">
		<tag k="name" v="Reitbekken" />
		<tag k="ssr:stedsnr" v="256195" />
		<tag k="waterway" v="stream" />
	</node>
	<node id="-786999" lat="63.7489805531" lon="9.73556666603">
		<tag k="name" v="Storlibekken" />
		<tag k="ssr:stedsnr" v="256181" />
		<tag k="waterway" v="stream" />
	</node>
	<node id="-789257" lat="63.7798083374" lon="10.0528833428">
		<tag k="name" v="Dueskardtjønna" />
		<tag k="natural" v="water" />
		<tag k="ssr:stedsnr" v="316248" />
	</node>
	<node id="-786994" lat="63.8245611088" lon="9.93355277402">
		<tag k="name" v="Storbukta" />
		<tag k="natural" v="bay" />
		<tag k="ssr:stedsnr" v="256049" />
	</node>
	<node id="-786993" lat="63.8545083319" lon="10.040502772">
		<tag k="name" v="Steinvatnet" />
		<tag k="natural" v="water" />
		<tag k="ssr:stedsnr" v="256089" />
	</node>
	<node id="-786970" lat="63.7864166631" lon="10.125744451">
		<tag k="name" v="Ramsbakktjønnbekken" />
		<tag k="ssr:stedsnr" v="91615" />
		<tag k="waterway" v="stream" />
	</node>
	<node id="-786966" lat="63.7735166654" lon="9.65541111428">
		<tag k="name" v="Brudalslivatnet" />
		<tag k="natural" v="water" />
		<tag k="ssr:stedsnr" v="91528" />
		<tag k="water" v="lake" />
	</node>
	<node id="-789002" lat="63.8411666654" lon="9.85576110478">
		<tag k="name" v="Audalsbekken" />
		<tag k="ssr:stedsnr" v="151391" />
		<tag k="waterway" v="stream" />
	</node>
	<node id="-788997" lat="63.7425083331" lon="9.81770833376">
		<tag k="name" v="Skavdalsbekken" />
		<tag k="ssr:stedsnr" v="151328" />
		<tag k="waterway" v="stream" />
	</node>
	<node id="-786934" lat="63.8154138866" lon="9.94497499378">
		<tag k="name" v="Sagneset" />
		<tag k="natural" v="cape" />
		<tag k="ssr:stedsnr" v="30077" />
	</node>
	<node id="-786929" lat="63.8295333343" lon="10.025761121">
		<tag k="name" v="Storslættjønna" />
		<tag k="natural" v="water" />
		<tag k="ssr:stedsnr" v="30051" />
	</node>
	<node id="-788971" lat="63.8393805588" lon="9.84071667595">
		<tag k="name" v="Kvennabekken" />
		<tag k="ssr:stedsnr" v="151571" />
		<tag k="waterway" v="stream" />
	</node>
	<node id="-788970" lat="63.7981083295" lon="10.1092638906">
		<tag k="name" v="Fusslibekken" />
		<tag k="ssr:stedsnr" v="151567" />
		<tag k="waterway" v="stream" />
	</node>
	<node id="-786921" lat="63.8553972215" lon="9.9721055489">
		<tag k="name" v="Storvasstjønna" />
		<tag k="natural" v="water" />
		<tag k="ssr:stedsnr" v="13128" />
	</node>
	<node id="-788964" lat="63.8159222262" lon="9.9393777819">
		<tag k="name" v="Trollholet" />
		<tag k="natural" v="strait" />
		<tag k="ssr:stedsnr" v="151075" />
	</node>
	<node id="-788963" lat="63.8199833293" lon="9.96233610419">
		<tag k="name" v="Svanabekken" />
		<tag k="ssr:stedsnr" v="151068" />
		<tag k="waterway" v="stream" />
	</node>
	<node id="-788962" lat="63.822375" lon="9.93012223047">
		<tag k="name" v="Storbuktneset" />
		<tag k="natural" v="cape" />
		<tag k="ssr:stedsnr" v="151060" />
	</node>
	<node id="-788961" lat="63.8206305531" lon="9.89075276769">
		<tag k="name" v="Okslikromneset" />
		<tag k="natural" v="cape" />
		<tag k="ssr:stedsnr" v="151053" />
	</node>
	<node id="-788957" lat="63.817938888" lon="9.88758332832">
		<tag k="name" v="Rognlineset" />
		<tag k="place" v="islet" />
		<tag k="ssr:stedsnr" v="151016" />
	</node>
	<node id="-788932" lat="63.8768666646" lon="9.99839444385">
		<tag k="alt_name" v="Gammalsætervatnet" />
		<tag k="name" v="Gammelsetervatnet" />
		<tag k="natural" v="water" />
		<tag k="ssr:stedsnr" v="134606" />
	</node>
	<node id="-788929" lat="63.7283000023" lon="9.78879165742">
		<tag k="name" v="Kalvåbekken" />
		<tag k="ssr:stedsnr" v="134278" />
		<tag k="waterway" v="stream" />
	</node>
	<node id="-788920" lat="63.8262444483" lon="9.85631110742">
		<tag k="name" v="Audalsvatnet" />
		<tag k="natural" v="water" />
		<tag k="ssr:stedsnr" v="134082" />
	</node>
	<node id="-788915" lat="63.8265055597" lon="10.0380055605">
		<tag k="name" v="Amunddalselva" />
		<tag k="ssr:stedsnr" v="134072" />
		<tag k="waterway" v="stream" />
	</node>
	<node id="-787946" lat="63.7729499972" lon="9.65259444011">
		<tag k="name" v="Hopparsteinvatnet" />
		<tag k="natural" v="water" />
		<tag k="ssr:stedsnr" v="636517" />
		<tag k="water" v="lake" />
	</node>
	<node id="-786922" lat="63.8619277764" lon="10.143100004">
		<tag k="name" v="Hauktjønna" />
		<tag k="natural" v="water" />
		<tag k="ssr:stedsnr" v="13130" />
	</node>
	<node id="-788835" lat="63.8183055586" lon="9.99704166883">
		<tag k="name" v="Hildremsdammen" />
		<tag k="ssr:stedsnr" v="91696" />
		<tag k="waterway" v="dam" />
	</node>
	<node id="-788818" lat="63.8617694408" lon="9.93832777323">
		<tag k="name" v="Sørvassbekken" />
		<tag k="ssr:stedsnr" v="91563" />
		<tag k="waterway" v="stream" />
	</node>
	<node id="-788815" lat="63.7941416697" lon="10.0462138954">
		<tag k="name" v="Båtstøa" />
		<tag k="natural" v="bay" />
		<tag k="ssr:stedsnr" v="91555" />
	</node>
	<node id="-788776" lat="63.7410833327" lon="9.78172777406">
		<tag k="name" v="Lomstjønna" />
		<tag k="natural" v="water" />
		<tag k="ssr:stedsnr" v="91148" />
	</node>
	<node id="-788772" lat="63.8369583314" lon="10.0083083335">
		<tag k="name" v="Bjønnaneset" />
		<tag k="natural" v="cape" />
		<tag k="ssr:stedsnr" v="91099" />
	</node>
	<node id="-788752" lat="63.7802499971" lon="9.74252777834">
		<tag k="name" v="Ryelva" />
		<tag k="ssr:stedsnr" v="74249" />
		<tag k="waterway" v="stream" />
	</node>
	<node id="-788751" lat="63.78801111" lon="10.0904694518">
		<tag k="name" v="Øvre Almtjønna" />
		<tag k="natural" v="water" />
		<tag k="ssr:stedsnr" v="74245" />
	</node>
	<node id="-789207" lat="63.8211138928" lon="9.78107222152">
		<tag k="name" v="Kaldkleivbekken" />
		<tag k="ssr:stedsnr" v="212811" />
		<tag k="waterway" v="stream" />
	</node>
	<node id="-788742" lat="63.7706527799" lon="9.8546666719">
		<tag k="name" v="Solemsvatnet" />
		<tag k="natural" v="water" />
		<tag k="ssr:stedsnr" v="74194" />
	</node>
	<node id="-788741" lat="63.771072218" lon="9.84289722355">
		<tag k="alt_name" v="Kruktjønna" />
		<tag k="name" v="Storkruktjønna" />
		<tag k="natural" v="water" />
		<tag k="ssr:stedsnr" v="74190" />
	</node>
	<node id="-788739" lat="63.7708277778" lon="10.0045250001">
		<tag k="name" v="Stallvikvatnet" />
		<tag k="natural" v="water" />
		<tag k="ssr:stedsnr" v="74175" />
	</node>
	<node id="-788735" lat="63.8309055532" lon="10.0540611154">
		<tag k="name" v="Amunddalstjønna" />
		<tag k="natural" v="water" />
		<tag k="ssr:stedsnr" v="74054" />
	</node>
	<node id="-788734" lat="63.8252361143" lon="10.1624000061">
		<tag k="name" v="Smådammen" />
		<tag k="place" v="locality" />
		<tag k="ssr:stedsnr" v="74048" />
	</node>
	<node id="-788727" lat="63.8139055551" lon="9.82337777608">
		<tag k="fixme" v="multiple name tags, choose one and add the other to alt_name" />
		<tag k="name" v="Slønglivatnet;Slønglitjønna" />
		<tag k="natural" v="water" />
		<tag k="ssr:stedsnr" v="73038" />
	</node>
	<node id="-788725" lat="63.8112027739" lon="9.93010555571">
		<tag k="name" v="Sørbotnan" />
		<tag k="natural" v="water" />
		<tag k="ssr:stedsnr" v="73033" />
		<tag k="water" v="lake" />
	</node>
	<node id="-788711" lat="63.7101027769" lon="9.78446944914">
		<tag k="name" v="Sjølibekken" />
		<tag k="ssr:stedsnr" v="35799" />
		<tag k="waterway" v="stream" />
	</node>
	<node id="-788704" lat="63.7145194442" lon="9.58651944236">
		<tag k="name" v="Dalatjørna" />
		<tag k="natural" v="water" />
		<tag k="ssr:stedsnr" v="34830" />
	</node>
	<node id="-788664" lat="63.89048611" lon="9.80006667192">
		<tag k="name" v="Nøkktjønna" />
		<tag k="natural" v="water" />
		<tag k="ssr:stedsnr" v="30648" />
	</node>
	<node id="-788634" lat="63.7506305582" lon="9.72565833859">
		<tag k="name" v="Kjølbekken" />
		<tag k="ssr:stedsnr" v="30411" />
		<tag k="waterway" v="stream" />
	</node>
	<node id="-788628" lat="63.8395722222" lon="9.77740833878">
		<tag k="name" v="Vikabekken" />
		<tag k="ssr:stedsnr" v="30378" />
		<tag k="waterway" v="stream" />
	</node>
	<node id="-788625" lat="63.7634472252" lon="9.77721389578">
		<tag k="name" v="Stuanesbekken" />
		<tag k="ssr:stedsnr" v="30355" />
		<tag k="waterway" v="stream" />
	</node>
	<node id="-788572" lat="63.7831833351" lon="9.82057500458">
		<tag k="name" v="Liavatnet" />
		<tag k="natural" v="water" />
		<tag k="ssr:stedsnr" v="13240" />
		<tag k="water" v="lake" />
	</node>
	<node id="-788569" lat="63.7483222185" lon="9.87879444222">
		<tag k="name" v="Rotbakktjønna" />
		<tag k="natural" v="water" />
		<tag k="ssr:stedsnr" v="13214" />
	</node>
	<node id="-788567" lat="63.742616671" lon="9.83155277596">
		<tag k="name" v="Furunes" />
		<tag k="natural" v="cape" />
		<tag k="ssr:stedsnr" v="13206" />
	</node>
	<node id="-787128" lat="63.7569888894" lon="9.93596389119">
		<tag k="name" v="Søtvikelva" />
		<tag k="ssr:stedsnr" v="151634" />
		<tag k="waterway" v="river" />
	</node>
	<node id="-788558" lat="63.7989166688" lon="9.84687500863">
		<tag k="name" v="Dragabekken" />
		<tag k="ssr:stedsnr" v="13011" />
		<tag k="waterway" v="stream" />
	</node>
	<node id="-788556" lat="63.8046305514" lon="9.98986944641">
		<tag k="name" v="Nordbukta" />
		<tag k="natural" v="bay" />
		<tag k="ssr:stedsnr" v="13005" />
	</node>
	<node id="-788543" lat="63.7599777794" lon="9.94115000619">
		<tag k="name" v="Gammeldamselva" />
		<tag k="ssr:stedsnr" v="940569" />
		<tag k="waterway" v="river" />
	</node>
	<node id="-788533" lat="63.7900888932" lon="10.0389861083">
		<tag k="name" v="Litlgrandalsbekken" />
		<tag k="ssr:stedsnr" v="940608" />
		<tag k="waterway" v="stream" />
	</node>
	<node id="-788530" lat="63.8287083343" lon="9.87891388133">
		<tag k="name" v="Merkesbekken" />
		<tag k="ssr:stedsnr" v="940013" />
		<tag k="waterway" v="stream" />
	</node>
	<node id="-788529" lat="63.7963972218" lon="9.83187222483">
		<tag k="name" v="Liafallet" />
		<tag k="ssr:stedsnr" v="940009" />
		<tag k="waterway" v="stream" />
	</node>
	<node id="-788521" lat="63.8090833338" lon="9.41266667617">
		<tag k="name" v="Gårdsvatnet" />
		<tag k="natural" v="water" />
		<tag k="ssr:stedsnr" v="923682" />
	</node>
	<node id="-787661" lat="63.8143277771" lon="9.91706944024">
		<tag k="alt_name" v="Klingertjønna" />
		<tag k="name" v="Klingra" />
		<tag k="natural" v="bay" />
		<tag k="ssr:stedsnr" v="680033" />
	</node>
	<node id="-788498" lat="63.7628999975" lon="9.77293611475">
		<tag k="name" v="Sarabekken" />
		<tag k="ssr:stedsnr" v="880461" />
		<tag k="waterway" v="stream" />
	</node>
</osm>
