<?xml version="1.0" encoding="UTF-8"?>
<osm version="0.6" generator="osmapis">
	<node lat="63.805033329703505" lon="10.031183329481074" id="-94015">
		<tag k="name" v="Flymyra" />
		<tag k="natural" v="wetland" />
		<tag k="ssr:stedsnr" v="13001" />
	</node>
	<node lat="63.80435555580793" lon="9.773191672059506" id="-94018">
		<tag k="name" v="Kopparmyra" />
		<tag k="natural" v="wetland" />
		<tag k="ssr:stedsnr" v="13007" />
	</node>
	<node lat="63.87009444766801" lon="9.946700007216" id="-94053">
		<tag k="name" v="Brenna" />
		<tag k="place" v="locality" />
		<tag k="ssr:stedsnr" v="30541" />
	</node>
	<node lat="63.88330555805936" lon="9.914769442313496" id="-94059">
		<tag k="name" v="Torvmoen" />
		<tag k="place" v="locality" />
		<tag k="ssr:stedsnr" v="30615" />
	</node>
	<node lat="63.8485694467817" lon="9.78568334142434" id="-94063">
		<tag k="name" v="Jøssundmyran" />
		<tag k="natural" v="wetland" />
		<tag k="ssr:stedsnr" v="30708" />
	</node>
	<node lat="63.746386109592066" lon="9.843066663076742" id="-94116">
		<tag k="name" v="Furunesmyran" />
		<tag k="natural" v="wetland" />
		<tag k="ssr:stedsnr" v="91363" />
	</node>
	<node lat="63.8192888871055" lon="9.746466675327424" id="-94135">
		<tag k="name" v="Gravdalsmyran" />
		<tag k="natural" v="wetland" />
		<tag k="ssr:stedsnr" v="91803" />
	</node>
	<node lat="63.67573333316422" lon="9.412033323860946" id="-94153">
		<tag k="name" v="Gårdsmyra" />
		<tag k="natural" v="wetland" />
		<tag k="ssr:stedsnr" v="95820" />
	</node>
	<node lat="63.726944446480736" lon="9.627780553915189" id="-94159">
		<tag k="name" v="Fjøsrabban" />
		<tag k="place" v="locality" />
		<tag k="ssr:stedsnr" v="96879" />
	</node>
	<node lat="63.804172226470705" lon="9.400961102432602" id="-94196">
		<tag k="name" v="Stallmyra" />
		<tag k="natural" v="wetland" />
		<tag k="ssr:stedsnr" v="255655" />
	</node>
	<node lat="63.81618888811191" lon="9.409330549338087" id="-94217">
		<tag k="name" v="Gråsteinmyra" />
		<tag k="natural" v="wetland" />
		<tag k="ssr:stedsnr" v="151215" />
	</node>
	<node lat="63.79879166560523" lon="9.629027784001023" id="-94230">
		<tag k="name" v="Gråsteinmyra" />
		<tag k="natural" v="wetland" />
		<tag k="ssr:stedsnr" v="151506" />
	</node>
	<node lat="63.75454722167966" lon="9.857338882015553" id="-94248">
		<tag k="name" v="Furunesmyran" />
		<tag k="natural" v="wetland" />
		<tag k="ssr:stedsnr" v="151462" />
	</node>
	<node lat="63.766394440624495" lon="9.931769434201753" id="-94250">
		<tag k="historic" v="shieling" />
		<tag k="name" v="Søtviksetra" />
		<tag k="place" v="locality" />
		<tag k="ssr:stedsnr" v="151670" />
	</node>
	<node lat="63.8116638931934" lon="9.404341663900876" id="-94294">
		<tag k="name" v="Måsmyra" />
		<tag k="natural" v="wetland" />
		<tag k="ssr:stedsnr" v="212192" />
	</node>
	<node lat="63.85547222178732" lon="9.742733342240836" id="-94313">
		<tag k="name" v="Nebben" />
		<tag k="place" v="locality" />
		<tag k="ssr:stedsnr" v="212734" />
	</node>
	<node lat="63.7281805557662" lon="9.719816673567165" id="-94354">
		<tag k="name" v="Hammarmyra" />
		<tag k="natural" v="wetland" />
		<tag k="ssr:stedsnr" v="217877" />
	</node>
	<node lat="63.86784167030897" lon="9.747911114405035" id="-94359">
		<tag k="name" v="Vallingen" />
		<tag k="place" v="locality" />
		<tag k="ssr:stedsnr" v="234405" />
	</node>
	<node lat="63.740294442954806" lon="9.788538881338019" id="-94378">
		<tag k="name" v="Stjernmyra" />
		<tag k="natural" v="wetland" />
		<tag k="ssr:stedsnr" v="455133" />
	</node>
	<node lat="63.737997218593364" lon="9.791469448544031" id="-94379">
		<tag k="name" v="Råmyra" />
		<tag k="natural" v="wetland" />
		<tag k="ssr:stedsnr" v="455135" />
	</node>
	<node lat="63.87902777493174" lon="9.987908333049706" id="-94386">
		<tag k="historic" v="shieling" />
		<tag k="name" v="Gammelsetra" />
		<tag k="place" v="locality" />
		<tag k="ssr:stedsnr" v="455529" />
	</node>
	<node lat="63.774555552620335" lon="9.905244453043217" id="-94388">
		<tag k="name" v="Gråsteinen" />
		<tag k="natural" v="stone" />
		<tag k="ssr:stedsnr" v="455543" />
	</node>
	<node lat="63.89453611442261" lon="9.922733336453721" id="-94395">
		<tag k="name" v="Vorpa" />
		<tag k="place" v="locality" />
		<tag k="ssr:stedsnr" v="455595" />
	</node>
	<node lat="63.74182777608943" lon="9.877372231785309" id="-94397">
		<tag k="name" v="Liagardan" />
		<tag k="place" v="locality" />
		<tag k="ssr:stedsnr" v="455432" />
	</node>
	<node lat="63.88462777496064" lon="9.837322215138308" id="-94407">
		<tag k="name" v="Stranda" />
		<tag k="place" v="locality" />
		<tag k="ssr:stedsnr" v="455492" />
	</node>
	<node lat="63.79537222540315" lon="9.640808335468304" id="-94465">
		<tag k="name" v="Saumyran" />
		<tag k="natural" v="wetland" />
		<tag k="ssr:stedsnr" v="273485" />
	</node>
	<node lat="63.76376389012375" lon="9.592886111975327" id="-94469">
		<tag k="name" v="Nes" />
		<tag k="place" v="locality" />
		<tag k="ssr:stedsnr" v="273512" />
	</node>
	<node lat="63.87123333720902" lon="9.905777773931352" id="-94475">
		<tag k="name" v="Lindsetet" />
		<tag k="place" v="locality" />
		<tag k="ssr:stedsnr" v="273587" />
	</node>
	<node lat="63.81874444090101" lon="9.85086389694715" id="-94491">
		<tag k="name" v="Masterlimyra" />
		<tag k="natural" v="wetland" />
		<tag k="ssr:stedsnr" v="273702" />
	</node>
	<node lat="63.666141662944824" lon="9.380613893280676" id="-94507">
		<tag k="landuse" v="meadow" />
		<tag k="name" v="Skogselskapet" />
		<tag k="ssr:stedsnr" v="459853" />
	</node>
	<node lat="63.66919722249501" lon="9.388919451240136" id="-94515">
		<tag k="name" v="Vestermyran" />
		<tag k="natural" v="wetland" />
		<tag k="ssr:stedsnr" v="278804" />
	</node>
	<node lat="63.704841664059835" lon="9.723252778037391" id="-94551">
		<tag k="alt_name" v="Austråttlunden" />
		<tag k="name" v="Austråttskogen" />
		<tag k="place" v="locality" />
		<tag k="ssr:stedsnr" v="316844" />
	</node>
	<node lat="63.83301944236618" lon="9.860013882828786" id="-94576">
		<tag k="name" v="Flaklimyra" />
		<tag k="natural" v="wetland" />
		<tag k="ssr:stedsnr" v="333652" />
	</node>
	<node lat="63.83527500105411" lon="9.668416659330381" id="-94584">
		<tag k="name" v="Sørvika" />
		<tag k="place" v="locality" />
		<tag k="ssr:stedsnr" v="334464" />
	</node>
	<node lat="63.88198055240327" lon="9.918897231948726" id="-94587">
		<tag k="name" v="Ingerreitan" />
		<tag k="place" v="locality" />
		<tag k="ssr:stedsnr" v="334609" />
	</node>
	<node lat="63.72034444739544" lon="9.628591662566018" id="-94604">
		<tag k="name" v="Litlmyra" />
		<tag k="natural" v="wetland" />
		<tag k="ssr:stedsnr" v="337860" />
	</node>
	<node lat="63.737602779072624" lon="9.651775007577127" id="-94613">
		<tag k="name" v="Rundøra" />
		<tag k="place" v="locality" />
		<tag k="ssr:stedsnr" v="338854" />
	</node>
	<node lat="63.739516667087884" lon="9.885783325376368" id="-94640">
		<tag k="name" v="Bryggholet" />
		<tag k="place" v="locality" />
		<tag k="ssr:stedsnr" v="394295" />
	</node>
	<node lat="63.78814999684102" lon="9.855197218861703" id="-94644">
		<tag k="name" v="Duhaugmyra" />
		<tag k="natural" v="wetland" />
		<tag k="ssr:stedsnr" v="394420" />
	</node>
	<node lat="63.8078888929744" lon="10.011519445265844" id="-94651">
		<tag k="name" v="Tyssbotnmarka" />
		<tag k="place" v="locality" />
		<tag k="ssr:stedsnr" v="394534" />
	</node>
	<node lat="63.872019446506485" lon="9.978711112047023" id="-94652">
		<tag k="name" v="Mjøsundteigen" />
		<tag k="place" v="locality" />
		<tag k="ssr:stedsnr" v="394537" />
	</node>
	<node lat="63.832897222722096" lon="9.736913887831248" id="-94671">
		<tag k="name" v="Flysjan" />
		<tag k="place" v="locality" />
		<tag k="ssr:stedsnr" v="394802" />
	</node>
	<node lat="63.641211113147854" lon="9.508166660814666" id="-94690">
		<tag k="name" v="Rabben" />
		<tag k="place" v="locality" />
		<tag k="ssr:stedsnr" v="399760" />
	</node>
	<node lat="63.71360277604879" lon="9.670175006383662" id="-94693">
		<tag k="name" v="Mordskogen" />
		<tag k="place" v="locality" />
		<tag k="ssr:stedsnr" v="399777" />
	</node>
	<node lat="63.68153055899789" lon="9.64118610825548" id="-94770">
		<tag k="name" v="Ulsetmyran" />
		<tag k="natural" v="wetland" />
		<tag k="ssr:stedsnr" v="680037" />
	</node>
	<node lat="63.80347778202611" lon="9.426624991052936" id="-94821">
		<tag k="name" v="Måsmyra" />
		<tag k="natural" v="wetland" />
		<tag k="ssr:stedsnr" v="515176" />
	</node>
	<node lat="63.8065555551593" lon="9.422788896587376" id="-94823">
		<tag k="name" v="Gammelgården" />
		<tag k="place" v="locality" />
		<tag k="ssr:stedsnr" v="515179" />
	</node>
	<node lat="63.78323610845788" lon="9.766088882500732" id="-94855">
		<tag k="landuse" v="meadow" />
		<tag k="name" v="Kottenget" />
		<tag k="ssr:stedsnr" v="516472" />
	</node>
	<node lat="63.74878610928995" lon="9.920694438445892" id="-94908">
		<tag k="name" v="Tømmervika" />
		<tag k="place" v="locality" />
		<tag k="ssr:stedsnr" v="576456" />
	</node>
	<node lat="63.865386110192276" lon="9.746841669451259" id="-94917">
		<tag k="name" v="Urda" />
		<tag k="natural" v="scree" />
		<tag k="ssr:stedsnr" v="576646" />
	</node>
	<node lat="63.86623610679729" lon="9.975608334060743" id="-94925">
		<tag k="name" v="Seterhesten" />
		<tag k="place" v="locality" />
		<tag k="ssr:stedsnr" v="576554" />
	</node>
	<node lat="63.83794166927118" lon="9.785975003206007" id="-94929">
		<tag k="name" v="Kveita" />
		<tag k="place" v="locality" />
		<tag k="ssr:stedsnr" v="576743" />
	</node>
	<node lat="63.81817222524716" lon="9.90516111265947" id="-94931">
		<tag k="historic" v="shieling" />
		<tag k="name" v="Gammelsetervollen" />
		<tag k="place" v="locality" />
		<tag k="ssr:stedsnr" v="576697" />
	</node>
	<node lat="63.67034721879034" lon="9.387700008805083" id="-94947">
		<tag k="name" v="Grønntuva" />
		<tag k="natural" v="wetland" />
		<tag k="ssr:stedsnr" v="580847" />
	</node>
	<node lat="63.664302776428165" lon="9.406099992821758" id="-94955">
		<tag k="name" v="Trøvollen" />
		<tag k="place" v="locality" />
		<tag k="ssr:stedsnr" v="581804" />
	</node>
	<node lat="63.77242222350997" lon="9.598744441762097" id="-94973">
		<tag k="name" v="Ålbåsen" />
		<tag k="place" v="locality" />
		<tag k="ssr:stedsnr" v="698483" />
	</node>
	<node lat="63.817866663336275" lon="9.964380548633766" id="-94977">
		<tag k="name" v="Sagplassen" />
		<tag k="place" v="locality" />
		<tag k="ssr:stedsnr" v="698047" />
	</node>
	<node lat="63.72623332894845" lon="9.823675003126946" id="-94997">
		<tag k="name" v="Trøamyra" />
		<tag k="natural" v="wetland" />
		<tag k="ssr:stedsnr" v="698356" />
	</node>
	<node lat="63.72944166307424" lon="9.811650004475656" id="-94999">
		<tag k="name" v="Breilineset" />
		<tag k="place" v="locality" />
		<tag k="ssr:stedsnr" v="698401" />
	</node>
	<node lat="63.78833055131124" lon="9.606794441486413" id="-95003">
		<tag k="name" v="Brusletta" />
		<tag k="place" v="locality" />
		<tag k="ssr:stedsnr" v="698488" />
	</node>
	<node lat="63.766344439983115" lon="10.026386114333148" id="-95006">
		<tag k="name" v="Ørnklova" />
		<tag k="natural" v="scree" />
		<tag k="ssr:stedsnr" v="698573" />
	</node>
	<node lat="63.82451110994951" lon="9.871505562071105" id="-95010">
		<tag k="name" v="Kalkbergmyra" />
		<tag k="natural" v="wetland" />
		<tag k="ssr:stedsnr" v="698649" />
	</node>
	<node lat="63.84655000258562" lon="9.755586109386519" id="-95015">
		<tag k="name" v="Ner Tussamyra" />
		<tag k="natural" v="wetland" />
		<tag k="ssr:stedsnr" v="698692" />
	</node>
	<node lat="63.83511389261219" lon="9.860380556001964" id="-95051">
		<tag k="name" v="Flakalimyran" />
		<tag k="natural" v="wetland" />
		<tag k="ssr:stedsnr" v="620078" />
	</node>
	<node lat="63.73831388511014" lon="9.654625007663482" id="-95082">
		<tag k="name" v="Langøra" />
		<tag k="place" v="locality" />
		<tag k="ssr:stedsnr" v="702991" />
	</node>
	<node lat="63.81523889298402" lon="9.4165416763374" id="-95086">
		<tag k="name" v="Stråmyra" />
		<tag k="natural" v="wetland" />
		<tag k="ssr:stedsnr" v="636208" />
	</node>
	<node lat="63.800155556779444" lon="9.4223749969923" id="-95089">
		<tag k="landuse" v="meadow" />
		<tag k="name" v="Sand" />
		<tag k="ssr:stedsnr" v="636182" />
	</node>
	<node lat="63.76409999739783" lon="9.692916669964074" id="-95095">
		<tag k="name" v="Strupen" />
		<tag k="place" v="locality" />
		<tag k="ssr:stedsnr" v="636388" />
	</node>
	<node lat="63.811366663515045" lon="10.040452776344175" id="-95137">
		<tag k="name" v="Trenetatesmyra" />
		<tag k="natural" v="wetland" />
		<tag k="ssr:stedsnr" v="680022" />
	</node>
	<node lat="63.76628611081687" lon="9.953036101716433" id="-95152">
		<tag k="historic" v="shieling" />
		<tag k="name" v="Setervollen" />
		<tag k="place" v="locality" />
		<tag k="ssr:stedsnr" v="697613" />
	</node>
	<node lat="63.752563888944664" lon="9.814774999252686" id="-95165">
		<tag k="name" v="Sætermyra" />
		<tag k="natural" v="wetland" />
		<tag k="ssr:stedsnr" v="698413" />
	</node>
	<node lat="63.87313888569002" lon="9.901977774646685" id="-95178">
		<tag k="name" v="Flymyra" />
		<tag k="natural" v="wetland" />
		<tag k="ssr:stedsnr" v="698567" />
	</node>
	<node lat="63.80537222668955" lon="9.420916659765522" id="-95235">
		<tag k="name" v="Steffenkåret" />
		<tag k="place" v="locality" />
		<tag k="ssr:stedsnr" v="758208" />
	</node>
	<node lat="63.78374166589951" lon="9.914572230255343" id="-95262">
		<tag k="name" v="Skogtoppen" />
		<tag k="place" v="locality" />
		<tag k="ssr:stedsnr" v="758608" />
	</node>
	<node lat="63.66261666666707" lon="9.420036106384469" id="-95284">
		<tag k="name" v="Myra" />
		<tag k="natural" v="wetland" />
		<tag k="ssr:stedsnr" v="763793" />
	</node>
	<node lat="63.78788055513149" lon="10.14440278142358" id="-95285">
		<tag k="name" v="Petterholet" />
		<tag k="place" v="locality" />
		<tag k="ssr:stedsnr" v="770908" />
	</node>
	<node lat="63.77493333045908" lon="9.572183341399365" id="-95325">
		<tag k="landuse" v="meadow" />
		<tag k="name" v="Hesthagan" />
		<tag k="ssr:stedsnr" v="819528" />
	</node>
	<node lat="63.79017222490624" lon="10.107650004079819" id="-95335">
		<tag k="historic" v="shieling" />
		<tag k="name" v="Skardsetra" />
		<tag k="place" v="locality" />
		<tag k="ssr:stedsnr" v="819617" />
	</node>
	<node lat="63.76905278109723" lon="9.933641657389893" id="-95342">
		<tag k="name" v="Vilhelmskogen" />
		<tag k="place" v="locality" />
		<tag k="ssr:stedsnr" v="819680" />
	</node>
	<node lat="63.832688891233396" lon="9.714449989949243" id="-95346">
		<tag k="name" v="Stolpmyra" />
		<tag k="natural" v="wetland" />
		<tag k="ssr:stedsnr" v="819709" />
	</node>
	<node lat="63.72276388957361" lon="9.602827768104232" id="-95361">
		<tag k="name" v="Kalvrabben" />
		<tag k="place" v="locality" />
		<tag k="ssr:stedsnr" v="823825" />
	</node>
	<node lat="63.67922499980503" lon="9.402511102957408" id="-95379">
		<tag k="name" v="Dalahamna" />
		<tag k="place" v="locality" />
		<tag k="ssr:stedsnr" v="923037" />
	</node>
	<node lat="63.8169027776565" lon="9.855044453407869" id="-95446">
		<tag k="name" v="Skogsmyra" />
		<tag k="natural" v="wetland" />
		<tag k="ssr:stedsnr" v="880355" />
	</node>
	<node lat="63.78255555108429" lon="9.857233336713783" id="-95456">
		<tag k="name" v="Gråsteinen" />
		<tag k="natural" v="stone" />
		<tag k="ssr:stedsnr" v="880404" />
	</node>
	<node lat="63.75948888560741" lon="9.873705558282952" id="-95460">
		<tag k="name" v="Svean" />
		<tag k="place" v="locality" />
		<tag k="ssr:stedsnr" v="880469" />
	</node>
	<node lat="63.73737222395305" lon="9.654336118563915" id="-95495">
		<tag k="name" v="Litløra" />
		<tag k="place" v="locality" />
		<tag k="ssr:stedsnr" v="885852" />
	</node>
	<node lat="63.79302222126994" lon="9.779497219308507" id="-95513">
		<tag k="name" v="Langmyra" />
		<tag k="natural" v="wetland" />
		<tag k="ssr:stedsnr" v="923269" />
	</node>
	<node lat="63.87189444563826" lon="9.755199997506281" id="-95516">
		<tag k="name" v="Valsøyneset" />
		<tag k="place" v="locality" />
		<tag k="ssr:stedsnr" v="923606" />
	</node>
	<node lat="63.83616666576964" lon="10.046952787357466" id="-95528">
		<tag k="name" v="Olamonslåtten" />
		<tag k="place" v="locality" />
		<tag k="ssr:stedsnr" v="940086" />
	</node>
	<node lat="63.85363610738754" lon="10.040313880778431" id="-95531">
		<tag k="name" v="Steinvassholet" />
		<tag k="place" v="locality" />
		<tag k="ssr:stedsnr" v="940102" />
	</node>
	<node lat="63.73440277943968" lon="9.635636102723588" id="-95533">
		<tag k="name" v="Sagsteinøra" />
		<tag k="place" v="locality" />
		<tag k="ssr:stedsnr" v="945709" />
	</node>
	<node lat="63.68211944615293" lon="9.407625004584302" id="-95539">
		<tag k="name" v="Grønnmyra" />
		<tag k="natural" v="wetland" />
		<tag k="ssr:stedsnr" v="945811" />
	</node>
	<node lat="63.74259166961352" lon="9.894522224447533" id="-95594">
		<tag k="name" v="Kongsvollen" />
		<tag k="place" v="locality" />
		<tag k="ssr:stedsnr" v="30449" />
	</node>
	<node lat="63.745891669374146" lon="9.870952781320316" id="-95598">
		<tag k="name" v="Saglimyra" />
		<tag k="natural" v="wetland" />
		<tag k="ssr:stedsnr" v="30341" />
	</node>
	<node lat="63.88498889110598" lon="9.895383342806502" id="-95602">
		<tag k="name" v="Rabben" />
		<tag k="place" v="locality" />
		<tag k="ssr:stedsnr" v="30358" />
	</node>
	<node lat="63.77751111135383" lon="9.925152767919387" id="-95617">
		<tag k="name" v="Råa" />
		<tag k="place" v="locality" />
		<tag k="ssr:stedsnr" v="30571" />
	</node>
	<node lat="63.87262222060063" lon="9.865250007821716" id="-95625">
		<tag k="name" v="Gaupurda" />
		<tag k="natural" v="scree" />
		<tag k="ssr:stedsnr" v="30595" />
	</node>
	<node lat="63.75983889258818" lon="9.88119165728317" id="-95633">
		<tag k="name" v="Sibir" />
		<tag k="place" v="locality" />
		<tag k="ssr:stedsnr" v="30664" />
	</node>
	<node lat="63.72601944505241" lon="9.636955554231868" id="-95668">
		<tag k="name" v="Revrabben" />
		<tag k="place" v="locality" />
		<tag k="ssr:stedsnr" v="35980" />
	</node>
	<node lat="63.71622777983893" lon="9.619672221003288" id="-95669">
		<tag k="name" v="Stormyra" />
		<tag k="natural" v="wetland" />
		<tag k="ssr:stedsnr" v="35981" />
	</node>
	<node lat="63.80053611123291" lon="10.202163883034434" id="-95674">
		<tag k="name" v="Melbugjøta" />
		<tag k="place" v="locality" />
		<tag k="ssr:stedsnr" v="42970" />
	</node>
	<node lat="63.76174166253164" lon="9.989280546891834" id="-95701">
		<tag k="name" v="Stallvikmarka" />
		<tag k="place" v="locality" />
		<tag k="ssr:stedsnr" v="74177" />
	</node>
	<node lat="63.81668610977094" lon="10.068008342786941" id="-95718">
		<tag k="landuse" v="meadow" />
		<tag k="name" v="Skjeftslættet" />
		<tag k="ssr:stedsnr" v="91097" />
	</node>
	<node lat="63.72326388841969" lon="9.816341662838617" id="-95728">
		<tag k="name" v="Fabrikkmyra" />
		<tag k="natural" v="wetland" />
		<tag k="ssr:stedsnr" v="91433" />
	</node>
	<node lat="63.7622861106288" lon="9.71556111712868" id="-95730">
		<tag k="name" v="Skarpnæringen" />
		<tag k="place" v="locality" />
		<tag k="ssr:stedsnr" v="91437" />
	</node>
	<node lat="63.74399166726844" lon="9.886988893040566" id="-95732">
		<tag k="name" v="Hønsteinmyra" />
		<tag k="natural" v="wetland" />
		<tag k="ssr:stedsnr" v="91457" />
	</node>
	<node lat="63.822588886111824" lon="9.971891663008334" id="-95734">
		<tag k="name" v="Nordmyran" />
		<tag k="natural" v="wetland" />
		<tag k="ssr:stedsnr" v="91036" />
	</node>
	<node lat="63.78871666516607" lon="9.953338881448515" id="-95757">
		<tag k="name" v="Torvmyran" />
		<tag k="natural" v="wetland" />
		<tag k="ssr:stedsnr" v="91593" />
	</node>
	<node lat="63.7617805575996" lon="9.866522213722783" id="-95767">
		<tag k="name" v="Karttrøa" />
		<tag k="place" v="locality" />
		<tag k="ssr:stedsnr" v="91501" />
	</node>
	<node lat="63.765399995623156" lon="9.659386114331795" id="-95768">
		<tag k="name" v="Risvikholet" />
		<tag k="place" v="locality" />
		<tag k="ssr:stedsnr" v="91537" />
	</node>
	<node lat="63.76111666744404" lon="9.658755551859729" id="-95769">
		<tag k="name" v="Storrisvika" />
		<tag k="place" v="locality" />
		<tag k="ssr:stedsnr" v="91539" />
	</node>
	<node lat="63.764852778518694" lon="9.607052777113577" id="-95770">
		<tag k="name" v="Andersskogen" />
		<tag k="place" v="locality" />
		<tag k="ssr:stedsnr" v="91545" />
	</node>
	<node lat="63.848711110619405" lon="9.71948888906881" id="-95789">
		<tag k="name" v="Drilsvika" />
		<tag k="place" v="locality" />
		<tag k="ssr:stedsnr" v="91756" />
	</node>
	<node lat="63.66353333185762" lon="9.382002768668858" id="-95806">
		<tag k="landuse" v="meadow" />
		<tag k="name" v="Gullgresset" />
		<tag k="ssr:stedsnr" v="95839" />
	</node>
	<node lat="63.828575002500415" lon="9.844188889170571" id="-95830">
		<tag k="name" v="Årmyra" />
		<tag k="natural" v="wetland" />
		<tag k="ssr:stedsnr" v="134080" />
	</node>
	<node lat="63.77212222605292" lon="9.895272220588934" id="-95840">
		<tag k="name" v="Solemsmyran" />
		<tag k="natural" v="wetland" />
		<tag k="ssr:stedsnr" v="134241" />
	</node>
	<node lat="63.780524999514526" lon="9.69070000632824" id="-95846">
		<tag k="alt_name" v="Brandvikgårdamyran" />
		<tag k="name" v="Brandvikgårdsmyran" />
		<tag k="natural" v="wetland" />
		<tag k="ssr:stedsnr" v="134669" />
	</node>
	<node lat="63.72923888937659" lon="9.85410278085922" id="-95863">
		<tag k="name" v="Vargmyra" />
		<tag k="natural" v="wetland" />
		<tag k="ssr:stedsnr" v="151451" />
	</node>
	<node lat="63.815738893095165" lon="9.998955558140553" id="-95872">
		<tag k="name" v="Langmyra" />
		<tag k="natural" v="wetland" />
		<tag k="ssr:stedsnr" v="151040" />
	</node>
	<node lat="63.76037500449649" lon="9.671652774749873" id="-95895">
		<tag k="name" v="Abrahamsrommet" />
		<tag k="place" v="locality" />
		<tag k="ssr:stedsnr" v="151523" />
	</node>
	<node lat="63.89007222474114" lon="9.938394443023856" id="-95900">
		<tag k="name" v="Sandvikhalsen" />
		<tag k="place" v="locality" />
		<tag k="ssr:stedsnr" v="151543" />
	</node>
	<node lat="63.76538055139333" lon="9.649516665861164" id="-95905">
		<tag k="name" v="Brudalsmyra" />
		<tag k="natural" v="wetland" />
		<tag k="ssr:stedsnr" v="151605" />
	</node>
	<node lat="63.82732222089239" lon="9.971013891330365" id="-95963">
		<tag k="name" v="Nordmarka" />
		<tag k="place" v="locality" />
		<tag k="ssr:stedsnr" v="273050" />
	</node>
	<node lat="63.81718888727045" lon="10.007102774733012" id="-96020">
		<tag k="name" v="Siverthogsten" />
		<tag k="place" v="locality" />
		<tag k="ssr:stedsnr" v="273064" />
	</node>
	<node lat="63.74276388605569" lon="9.780699994726714" id="-96028">
		<tag k="name" v="Lomstjønnmyra" />
		<tag k="natural" v="wetland" />
		<tag k="ssr:stedsnr" v="212140" />
	</node>
	<node lat="63.739977776236344" lon="9.742336113839903" id="-96029">
		<tag k="name" v="Helvetesmyra" />
		<tag k="natural" v="wetland" />
		<tag k="ssr:stedsnr" v="212157" />
	</node>
	<node lat="63.739591665574125" lon="9.805044436673432" id="-96038">
		<tag k="name" v="Kvernhusrabben" />
		<tag k="place" v="locality" />
		<tag k="ssr:stedsnr" v="212120" />
	</node>
	<node lat="63.76796389183359" lon="9.703927784576296" id="-96043">
		<tag k="name" v="Høgmyran" />
		<tag k="natural" v="wetland" />
		<tag k="ssr:stedsnr" v="212385" />
	</node>
	<node lat="63.75611666775284" lon="9.864566664539147" id="-96059">
		<tag k="name" v="Gollikken" />
		<tag k="place" v="locality" />
		<tag k="ssr:stedsnr" v="212465" />
	</node>
	<node lat="63.789341665338824" lon="9.92013333491782" id="-96067">
		<tag k="name" v="Rogndalsholet" />
		<tag k="place" v="locality" />
		<tag k="ssr:stedsnr" v="212563" />
	</node>
	<node lat="63.705574996779625" lon="9.588347231259554" id="-96100">
		<tag k="name" v="Djupdalen" />
		<tag k="place" v="locality" />
		<tag k="ssr:stedsnr" v="216849" />
	</node>
	<node lat="63.82440555799271" lon="9.808586112654503" id="-96124">
		<tag k="name" v="Nyheim" />
		<tag k="place" v="locality" />
		<tag k="ssr:stedsnr" v="273364" />
	</node>
	<node lat="63.8861722245911" lon="9.884438892292495" id="-96134">
		<tag k="name" v="Trettvikmyran" />
		<tag k="natural" v="wetland" />
		<tag k="ssr:stedsnr" v="273613" />
	</node>
	<node lat="63.79286944386271" lon="9.991080558861432" id="-96136">
		<tag k="name" v="Vårhaug" />
		<tag k="place" v="locality" />
		<tag k="ssr:stedsnr" v="273619" />
	</node>
	<node lat="63.762930554616574" lon="9.889813886147003" id="-96138">
		<tag k="name" v="Stormyra" />
		<tag k="natural" v="wetland" />
		<tag k="ssr:stedsnr" v="273699" />
	</node>
	<node lat="63.89387777419214" lon="9.948591668788445" id="-96146">
		<tag k="name" v="Aunet" />
		<tag k="place" v="locality" />
		<tag k="ssr:stedsnr" v="273535" />
	</node>
	<node lat="63.79976110851402" lon="10.201152787293418" id="-96149">
		<tag k="name" v="Lunbrua" />
		<tag k="place" v="locality" />
		<tag k="ssr:stedsnr" v="273542" />
	</node>
	<node lat="63.89058332910922" lon="9.930052775718798" id="-96153">
		<tag k="name" v="Munken" />
		<tag k="place" v="locality" />
		<tag k="ssr:stedsnr" v="273633" />
	</node>
	<node lat="63.71421666805368" lon="9.546797221386921" id="-96195">
		<tag k="name" v="Rundøra" />
		<tag k="place" v="locality" />
		<tag k="ssr:stedsnr" v="278792" />
	</node>
	<node lat="63.81469721962783" lon="10.074680554803727" id="-96221">
		<tag k="name" v="Rundhaugmyran" />
		<tag k="natural" v="wetland" />
		<tag k="ssr:stedsnr" v="316036" />
	</node>
	<node lat="63.739425002062546" lon="9.741880551276884" id="-96225">
		<tag k="name" v="Helvetetesmyra" />
		<tag k="natural" v="wetland" />
		<tag k="ssr:stedsnr" v="316220" />
	</node>
	<node lat="63.76758333268171" lon="9.833791657838052" id="-96260">
		<tag k="name" v="Botngårdsmyran" />
		<tag k="natural" v="wetland" />
		<tag k="ssr:stedsnr" v="333368" />
	</node>
	<node lat="63.77179721994631" lon="9.896849995907125" id="-96261">
		<tag k="name" v="Flakamyra" />
		<tag k="natural" v="wetland" />
		<tag k="ssr:stedsnr" v="333567" />
	</node>
	<node lat="63.86382777515091" lon="9.755236117443959" id="-96286">
		<tag k="name" v="Breivika" />
		<tag k="place" v="locality" />
		<tag k="ssr:stedsnr" v="334351" />
	</node>
	<node lat="63.66174444173651" lon="9.545983340907906" id="-96314">
		<tag k="name" v="Nordbakken" />
		<tag k="place" v="locality" />
		<tag k="ssr:stedsnr" v="338730" />
	</node>
	<node lat="63.7285888876065" lon="9.620066666313226" id="-96315">
		<tag k="name" v="Rundøra" />
		<tag k="place" v="locality" />
		<tag k="ssr:stedsnr" v="338738" />
	</node>
	<node lat="63.66580277970172" lon="9.40888888887046" id="-96317">
		<tag k="name" v="Pilen" />
		<tag k="place" v="locality" />
		<tag k="ssr:stedsnr" v="338822" />
	</node>
	<node lat="63.81905277406395" lon="9.721669441285162" id="-96344">
		<tag k="name" v="Tørrem" />
		<tag k="place" v="locality" />
		<tag k="ssr:stedsnr" v="377048" />
	</node>
	<node lat="63.76440555661013" lon="9.838197215747446" id="-96351">
		<tag k="name" v="Vasskogen" />
		<tag k="place" v="locality" />
		<tag k="ssr:stedsnr" v="377200" />
	</node>
	<node lat="63.83042777503638" lon="10.028988885642065" id="-96378">
		<tag k="name" v="Tømmerbrua" />
		<tag k="place" v="locality" />
		<tag k="ssr:stedsnr" v="394068" />
	</node>
	<node lat="63.84566111502154" lon="9.994224998702286" id="-96393">
		<tag k="name" v="Skjervasslihalsen" />
		<tag k="place" v="locality" />
		<tag k="ssr:stedsnr" v="394517" />
	</node>
	<node lat="63.868533333317444" lon="9.734630555631703" id="-96405">
		<tag k="name" v="Korsvollen" />
		<tag k="place" v="locality" />
		<tag k="ssr:stedsnr" v="394378" />
	</node>
	<node lat="63.86929722248363" lon="9.885611110627574" id="-96419">
		<tag k="name" v="Levikmyra" />
		<tag k="place" v="locality" />
		<tag k="ssr:stedsnr" v="394572" />
	</node>
	<node lat="63.76731944611299" lon="9.883866671137223" id="-96421">
		<tag k="name" v="Svartskogen" />
		<tag k="place" v="locality" />
		<tag k="ssr:stedsnr" v="394662" />
	</node>
	<node lat="63.66775555136148" lon="9.42203332984264" id="-96434">
		<tag k="name" v="Permyra" />
		<tag k="place" v="locality" />
		<tag k="ssr:stedsnr" v="398815" />
	</node>
	<node lat="63.77681666582731" lon="10.020741662974654" id="-96517">
		<tag k="name" v="Stormyra" />
		<tag k="natural" v="wetland" />
		<tag k="ssr:stedsnr" v="498260" />
	</node>
	<node lat="63.78981944079255" lon="9.736527780161824" id="-96521">
		<tag k="name" v="Råmarka" />
		<tag k="place" v="locality" />
		<tag k="ssr:stedsnr" v="498285" />
	</node>
	<node lat="63.86650277838787" lon="9.747516663658853" id="-96568">
		<tag k="name" v="Plassen" />
		<tag k="place" v="locality" />
		<tag k="ssr:stedsnr" v="515389" />
	</node>
	<node lat="63.74040277505464" lon="9.885050004958904" id="-96571">
		<tag k="name" v="Holekra" />
		<tag k="place" v="locality" />
		<tag k="ssr:stedsnr" v="515458" />
	</node>
	<node lat="63.77932222642251" lon="9.595224996352904" id="-96575">
		<tag k="name" v="Hellemsmyran" />
		<tag k="natural" v="wetland" />
		<tag k="ssr:stedsnr" v="515519" />
	</node>
	<node lat="63.78972222432438" lon="9.907688895935687" id="-96584">
		<tag k="name" v="Langlineset" />
		<tag k="place" v="locality" />
		<tag k="ssr:stedsnr" v="515570" />
	</node>
	<node lat="63.783188885553685" lon="9.93499167358287" id="-96587">
		<tag k="name" v="Granholet" />
		<tag k="place" v="locality" />
		<tag k="ssr:stedsnr" v="515585" />
	</node>
	<node lat="63.78478333109822" lon="9.715227772803438" id="-96611">
		<tag k="name" v="Ryskogen" />
		<tag k="place" v="locality" />
		<tag k="ssr:stedsnr" v="516468" />
	</node>
	<node lat="63.828477780376666" lon="9.84471389480622" id="-96613">
		<tag k="name" v="Orrmyran" />
		<tag k="natural" v="wetland" />
		<tag k="ssr:stedsnr" v="516660" />
	</node>
	<node lat="63.84188888665868" lon="10.127038887078726" id="-96659">
		<tag k="historic" v="shieling" />
		<tag k="name" v="Torsengsetra" />
		<tag k="place" v="locality" />
		<tag k="ssr:stedsnr" v="559081" />
	</node>
	<node lat="63.73551111111908" lon="9.802380560571782" id="-96661">
		<tag k="name" v="Vikanmyran" />
		<tag k="natural" v="wetland" />
		<tag k="ssr:stedsnr" v="559173" />
	</node>
	<node lat="63.774894440342926" lon="9.685574993774061" id="-96670">
		<tag k="name" v="Stormyra" />
		<tag k="place" v="locality" />
		<tag k="ssr:stedsnr" v="559733" />
	</node>
	<node lat="63.73573055870363" lon="9.800269450040714" id="-96696">
		<tag k="name" v="Vikamyra" />
		<tag k="natural" v="wetland" />
		<tag k="ssr:stedsnr" v="576132" />
	</node>
	<node lat="63.7371694446587" lon="9.803383325738844" id="-96697">
		<tag k="name" v="Pålmyra" />
		<tag k="natural" v="wetland" />
		<tag k="ssr:stedsnr" v="576133" />
	</node>
	<node lat="63.74634444571586" lon="9.783558333448234" id="-96698">
		<tag k="name" v="Litlfrødalsholet" />
		<tag k="place" v="locality" />
		<tag k="ssr:stedsnr" v="576138" />
	</node>
	<node lat="63.74228055861456" lon="9.736505552959095" id="-96699">
		<tag k="name" v="Vester Langmyra" />
		<tag k="natural" v="wetland" />
		<tag k="ssr:stedsnr" v="576142" />
	</node>
	<node lat="63.889608331796545" lon="9.793011104621556" id="-96710">
		<tag k="name" v="Skjåbergmyra" />
		<tag k="natural" v="wetland" />
		<tag k="ssr:stedsnr" v="576377" />
	</node>
	<node lat="63.77598333179016" lon="9.888252785766932" id="-96719">
		<tag k="name" v="Stakkstongmyra" />
		<tag k="natural" v="wetland" />
		<tag k="ssr:stedsnr" v="576576" />
	</node>
	<node lat="63.77557222461112" lon="9.857952771752288" id="-96722">
		<tag k="name" v="Botnsaga" />
		<tag k="place" v="locality" />
		<tag k="ssr:stedsnr" v="576421" />
	</node>
	<node lat="63.77469722176381" lon="9.627305556371134" id="-96731">
		<tag k="name" v="Nesurda" />
		<tag k="natural" v="scree" />
		<tag k="ssr:stedsnr" v="576540" />
	</node>
	<node lat="63.843788892981976" lon="9.956591662576612" id="-96732">
		<tag k="name" v="Sauholet" />
		<tag k="place" v="locality" />
		<tag k="ssr:stedsnr" v="576542" />
	</node>
	<node lat="63.88350555729884" lon="9.782791673939064" id="-96735">
		<tag k="name" v="Sørmyra" />
		<tag k="natural" v="wetland" />
		<tag k="ssr:stedsnr" v="576673" />
	</node>
	<node lat="63.88106111309548" lon="9.781122228152938" id="-96738">
		<tag k="name" v="Tinnan" />
		<tag k="place" v="locality" />
		<tag k="ssr:stedsnr" v="576682" />
	</node>
	<node lat="63.83759444747081" lon="9.688936119949323" id="-96741">
		<tag k="name" v="Oksmyra" />
		<tag k="place" v="locality" />
		<tag k="ssr:stedsnr" v="576769" />
	</node>
	<node lat="63.74055555549284" lon="9.66640000563064" id="-96763">
		<tag k="name" v="Hollnesøra" />
		<tag k="place" v="locality" />
		<tag k="ssr:stedsnr" v="581885" />
	</node>
	<node lat="63.81542778135505" lon="9.434544445527347" id="-96820">
		<tag k="name" v="Åkervikmyran" />
		<tag k="natural" v="wetland" />
		<tag k="ssr:stedsnr" v="636223" />
	</node>
	<node lat="63.82558889051742" lon="10.122213896777055" id="-96826">
		<tag k="name" v="Ner Perholet" />
		<tag k="place" v="locality" />
		<tag k="ssr:stedsnr" v="636072" />
	</node>
	<node lat="63.78481666830797" lon="9.942388880804174" id="-96831">
		<tag k="name" v="Granholmyran" />
		<tag k="natural" v="wetland" />
		<tag k="ssr:stedsnr" v="636593" />
	</node>
	<node lat="63.87017500155253" lon="9.914150005403727" id="-96833">
		<tag k="name" v="Moen" />
		<tag k="place" v="locality" />
		<tag k="ssr:stedsnr" v="636605" />
	</node>
	<node lat="63.8589999974882" lon="9.925938879067221" id="-96834">
		<tag k="name" v="Helstian" />
		<tag k="place" v="locality" />
		<tag k="ssr:stedsnr" v="636608" />
	</node>
	<node lat="63.74825000234534" lon="9.774380561430252" id="-96836">
		<tag k="name" v="Svartmyra" />
		<tag k="natural" v="wetland" />
		<tag k="ssr:stedsnr" v="636158" />
	</node>
	<node lat="63.73506388618211" lon="9.815152783502633" id="-96845">
		<tag k="name" v="Skavdalsbrekka" />
		<tag k="place" v="locality" />
		<tag k="ssr:stedsnr" v="636440" />
	</node>
	<node lat="63.75468610693216" lon="9.777933324698616" id="-96847">
		<tag k="name" v="Svartmyra" />
		<tag k="natural" v="wetland" />
		<tag k="ssr:stedsnr" v="636470" />
	</node>
	<node lat="63.786408331811074" lon="10.046458329212934" id="-96865">
		<tag k="name" v="Aneplassen" />
		<tag k="place" v="locality" />
		<tag k="ssr:stedsnr" v="636650" />
	</node>
	<node lat="63.66009999916875" lon="9.546063883216975" id="-96883">
		<tag k="name" v="Nerbakken" />
		<tag k="place" v="locality" />
		<tag k="ssr:stedsnr" v="641718" />
	</node>
	<node lat="63.72982222587925" lon="9.713472214630107" id="-96890">
		<tag k="name" v="Vassmyra" />
		<tag k="natural" v="wetland" />
		<tag k="ssr:stedsnr" v="641871" />
	</node>
	<node lat="63.830452776733566" lon="10.11865833531457" id="-96929">
		<tag k="name" v="Perholhytta" />
		<tag k="place" v="locality" />
		<tag k="ssr:stedsnr" v="758070" />
	</node>
	<node lat="63.80383333703056" lon="9.411466656827267" id="-96935">
		<tag k="name" v="Botnet" />
		<tag k="place" v="locality" />
		<tag k="ssr:stedsnr" v="758209" />
	</node>
	<node lat="63.73243055153881" lon="9.79351388573667" id="-96939">
		<tag k="name" v="Lomtjønnmyra" />
		<tag k="natural" v="wetland" />
		<tag k="ssr:stedsnr" v="758162" />
	</node>
	<node lat="63.79775277883459" lon="9.637752786544931" id="-96953">
		<tag k="name" v="Steinvikmyran" />
		<tag k="natural" v="wetland" />
		<tag k="ssr:stedsnr" v="758541" />
	</node>
	<node lat="63.86760555219758" lon="9.746725008096819" id="-96967">
		<tag k="name" v="Maritparken" />
		<tag k="place" v="locality" />
		<tag k="ssr:stedsnr" v="758665" />
	</node>
	<node lat="63.67671944748951" lon="9.424711112697148" id="-97002">
		<tag k="name" v="Albertsmyra" />
		<tag k="natural" v="wetland" />
		<tag k="ssr:stedsnr" v="762838" />
	</node>
	<node lat="63.71872500120842" lon="9.63436110922886" id="-97009">
		<tag k="name" v="Ryggamyra" />
		<tag k="natural" v="wetland" />
		<tag k="ssr:stedsnr" v="763978" />
	</node>
	<node lat="63.75301111278906" lon="9.860336116953807" id="-97036">
		<tag k="name" v="Hellandsmyran" />
		<tag k="natural" v="wetland" />
		<tag k="ssr:stedsnr" v="802229" />
	</node>
	<node lat="63.72710833778947" lon="9.812569448228055" id="-97040">
		<tag k="name" v="Langmyran" />
		<tag k="natural" v="wetland" />
		<tag k="ssr:stedsnr" v="802254" />
	</node>
	<node lat="63.7885750036282" lon="9.692522218149762" id="-97053">
		<tag k="name" v="Åskleivmyran" />
		<tag k="natural" v="wetland" />
		<tag k="ssr:stedsnr" v="802698" />
	</node>
	<node lat="63.824813885908554" lon="10.044077774394434" id="-97080">
		<tag k="name" v="Storrognholmyra" />
		<tag k="natural" v="wetland" />
		<tag k="ssr:stedsnr" v="819084" />
	</node>
	<node lat="63.74554444734909" lon="9.776455555221508" id="-97083">
		<tag k="name" v="Svartskogan" />
		<tag k="place" v="locality" />
		<tag k="ssr:stedsnr" v="819154" />
	</node>
	<node lat="63.77514166886488" lon="9.612769436434304" id="-97105">
		<tag k="name" v="Langmyran" />
		<tag k="natural" v="wetland" />
		<tag k="ssr:stedsnr" v="819562" />
	</node>
	<node lat="63.66865555740405" lon="9.407619437353071" id="-97140">
		<tag k="name" v="Grandmyra" />
		<tag k="place" v="locality" />
		<tag k="ssr:stedsnr" v="823796" />
	</node>
	<node lat="63.70065555654779" lon="9.724780548131408" id="-97146">
		<tag k="name" v="Fitjan hamnelag" />
		<tag k="place" v="locality" />
		<tag k="ssr:stedsnr" v="824788" />
	</node>
	<node lat="63.668094444859214" lon="9.411041659511188" id="-97148">
		<tag k="name" v="Damskardekra" />
		<tag k="place" v="locality" />
		<tag k="ssr:stedsnr" v="824802" />
	</node>
	<node lat="63.83159721879668" lon="10.002013881212413" id="-97173">
		<tag k="name" v="Selja" />
		<tag k="place" v="locality" />
		<tag k="ssr:stedsnr" v="863061" />
	</node>
	<node lat="63.7463555599005" lon="9.892163880651916" id="-97187">
		<tag k="name" v="Grønnvollen" />
		<tag k="place" v="locality" />
		<tag k="ssr:stedsnr" v="880446" />
	</node>
	<node lat="63.799705555751785" lon="9.417238890456376" id="-97209">
		<tag k="name" v="Melkstan" />
		<tag k="place" v="locality" />
		<tag k="ssr:stedsnr" v="880173" />
	</node>
	<node lat="63.84723333547119" lon="9.812419441091642" id="-97219">
		<tag k="name" v="Steggan" />
		<tag k="place" v="locality" />
		<tag k="ssr:stedsnr" v="880342" />
	</node>
	<node lat="63.749574998797755" lon="9.728958333781874" id="-97230">
		<tag k="name" v="Brandmoen" />
		<tag k="place" v="locality" />
		<tag k="ssr:stedsnr" v="880395" />
	</node>
	<node lat="63.84061389191517" lon="9.88861943621878" id="-97234">
		<tag k="name" v="Vargspranget" />
		<tag k="place" v="locality" />
		<tag k="ssr:stedsnr" v="880597" />
	</node>
	<node lat="63.666111106936356" lon="9.392508330632424" id="-97262">
		<tag k="name" v="Svarttuvan" />
		<tag k="place" v="locality" />
		<tag k="ssr:stedsnr" v="884792" />
	</node>
	<node lat="63.67977500115161" lon="9.414444440619645" id="-97273">
		<tag k="name" v="Grønnrabben" />
		<tag k="natural" v="wetland" />
		<tag k="ssr:stedsnr" v="885785" />
	</node>
	<node lat="63.735902781011625" lon="9.641783339461735" id="-97278">
		<tag k="name" v="Båtøra" />
		<tag k="place" v="locality" />
		<tag k="ssr:stedsnr" v="885990" />
	</node>
	<node lat="63.856033332662314" lon="10.083524996346554" id="-97283">
		<tag k="name" v="Seksortmyra" />
		<tag k="natural" v="wetland" />
		<tag k="ssr:stedsnr" v="940116" />
	</node>
	<node lat="63.875894611559616" lon="10.03616326933223" id="-97284">
		<tag k="historic" v="shieling" />
		<tag k="name" v="Sandtjønnvollen" />
		<tag k="place" v="locality" />
		<tag k="ssr:stedsnr" v="940130" />
	</node>
	<node lat="63.816647224" lon="9.726211104254606" id="-97286">
		<tag k="name" v="Rørmyra" />
		<tag k="natural" v="wetland" />
		<tag k="ssr:stedsnr" v="940682" />
	</node>
	<node lat="63.73543333028451" lon="9.791533330135607" id="-97291">
		<tag k="name" v="Bekkakrokan" />
		<tag k="place" v="locality" />
		<tag k="ssr:stedsnr" v="940142" />
	</node>
	<node lat="63.81542499810627" lon="9.406216657487192" id="-97301">
		<tag k="name" v="Lommyra" />
		<tag k="natural" v="wetland" />
		<tag k="ssr:stedsnr" v="940202" />
	</node>
	<node lat="63.81314722444817" lon="9.427197216371841" id="-97303">
		<tag k="name" v="Langmyra" />
		<tag k="natural" v="wetland" />
		<tag k="ssr:stedsnr" v="940219" />
	</node>
	<node lat="63.77938055759217" lon="9.713430555585889" id="-97310">
		<tag k="name" v="Mølnargårdsmyran" />
		<tag k="natural" v="wetland" />
		<tag k="ssr:stedsnr" v="940349" />
	</node>
	<node lat="63.76433333262012" lon="9.690336113478134" id="-97315">
		<tag k="name" v="Bergvollen" />
		<tag k="place" v="locality" />
		<tag k="ssr:stedsnr" v="940387" />
	</node>
	<node lat="63.733283336208174" lon="9.837844443393156" id="-97319">
		<tag k="name" v="Litlheggdalsmyra" />
		<tag k="natural" v="wetland" />
		<tag k="ssr:stedsnr" v="940418" />
	</node>
	<node lat="63.84096666239751" lon="9.876433330184868" id="-97331">
		<tag k="name" v="Oksdiket" />
		<tag k="place" v="locality" />
		<tag k="ssr:stedsnr" v="940560" />
	</node>
	<node lat="63.761205551405055" lon="9.976377768426646" id="-97336">
		<tag k="name" v="Gardmyra" />
		<tag k="natural" v="wetland" />
		<tag k="ssr:stedsnr" v="940577" />
	</node>
	<node lat="63.82749444023467" lon="9.834994441501493" id="-97339">
		<tag k="name" v="Granskardmyra" />
		<tag k="natural" v="wetland" />
		<tag k="ssr:stedsnr" v="940666" />
	</node>
	<node lat="63.75871944510512" lon="9.851436114525274" id="-97380">
		<tag k="name" v="Slættemyra" />
		<tag k="natural" v="wetland" />
		<tag k="ssr:stedsnr" v="941441" />
	</node>
</osm>
