<?xml version="1.0" encoding="UTF-8"?>
<osm version="0.6" generator="osmapis">
	<node lat="63.65533889094214" lon="9.519233336143282" id="-36227">
		<tag k="fixme" v="consider seamark:type=rock or natural=shoal" />
		<tag k="name" v="Gartskjæra" />
		<tag k="place" v="islet" />
		<tag k="ssr:stedsnr" v="13067" />
	</node>
	<node lat="63.73864721899826" lon="9.977816668187842" id="-36234">
		<tag k="bay" v="fjord" />
		<tag k="name" v="Nordfjorden" />
		<tag k="natural" v="bay" />
		<tag k="ssr:stedsnr" v="13216" />
	</node>
	<node lat="63.84428611367814" lon="9.830955552334913" id="-36236">
		<tag k="name" v="Eidet" />
		<tag k="place" v="locality" />
		<tag k="ssr:stedsnr" v="13109" />
	</node>
	<node lat="63.846927778396676" lon="9.813077776097254" id="-36238">
		<tag k="alt_name" v="Straumen" />
		<tag k="name" v="Jøssundstraumen" />
		<tag k="natural" v="strait" />
		<tag k="ssr:stedsnr" v="13120" />
	</node>
	<node lat="63.959155552894046" lon="9.542472231225515" id="-36241">
		<tag k="alt_name" v="Flatholmen, store" />
		<tag k="name" v="Store Flatholmen" />
		<tag k="place" v="islet" />
		<tag k="ssr:stedsnr" v="13816" />
	</node>
	<node lat="63.858475000207356" lon="9.620294453352264" id="-36242">
		<tag k="fixme" v="consider seamark:type=rock or natural=shoal" />
		<tag k="name" v="Kverna" />
		<tag k="place" v="islet" />
		<tag k="ssr:stedsnr" v="13827" />
	</node>
	<node lat="63.75834721853693" lon="9.418172218554156" id="-36247">
		<tag k="name" v="Konradsgrunnen" />
		<tag k="natural" v="shoal" />
		<tag k="place" v="locality" />
		<tag k="ssr:stedsnr" v="30069" />
	</node>
	<node lat="63.786572224006896" lon="9.353922224584133" id="-36248">
		<tag k="fixme" v="consider seamark:type=rock or natural=shoal" />
		<tag k="name" v="Buaskjæret" />
		<tag k="place" v="islet" />
		<tag k="ssr:stedsnr" v="30074" />
	</node>
	<node lat="63.822416668631966" lon="9.409566668272868" id="-36251">
		<tag k="name" v="Joneset" />
		<tag k="natural" v="cape" />
		<tag k="ssr:stedsnr" v="30217" />
	</node>
	<node lat="63.78958055533208" lon="9.435455549370257" id="-36252">
		<tag k="name" v="Fårøytaren" />
		<tag k="natural" v="shoal" />
		<tag k="place" v="locality" />
		<tag k="ssr:stedsnr" v="30223" />
	</node>
	<node lat="63.89669722443154" lon="9.95918333394" id="-36258">
		<tag k="name" v="Åfjordsstraumen" />
		<tag k="natural" v="strait" />
		<tag k="ssr:stedsnr" v="30532" />
	</node>
	<node lat="63.89135833257892" lon="9.938583324224155" id="-36259">
		<tag k="name" v="Ytter Sandvika" />
		<tag k="natural" v="bay" />
		<tag k="ssr:stedsnr" v="30538" />
	</node>
	<node lat="63.835405551980124" lon="9.557366667629832" id="-36262">
		<tag k="name" v="Kobbholmgrunnen" />
		<tag k="natural" v="shoal" />
		<tag k="place" v="locality" />
		<tag k="ssr:stedsnr" v="30607" />
	</node>
	<node lat="63.862388892774334" lon="9.541625002691356" id="-36263">
		<tag k="name" v="Høgskjærtaran" />
		<tag k="natural" v="shoal" />
		<tag k="place" v="locality" />
		<tag k="ssr:stedsnr" v="30611" />
	</node>
	<node lat="63.90243055252415" lon="9.64962778721914" id="-36265">
		<tag k="name" v="Ranen" />
		<tag k="natural" v="shoal" />
		<tag k="place" v="locality" />
		<tag k="ssr:stedsnr" v="30614" />
	</node>
	<node lat="63.89088889127942" lon="9.707138887714224" id="-36267">
		<tag k="name" v="Stortaren" />
		<tag k="natural" v="shoal" />
		<tag k="place" v="locality" />
		<tag k="ssr:stedsnr" v="30616" />
	</node>
	<node lat="63.97309722604328" lon="9.574322227359383" id="-36282">
		<tag k="name" v="Børøyflua" />
		<tag k="natural" v="shoal" />
		<tag k="place" v="locality" />
		<tag k="ssr:stedsnr" v="30964" />
	</node>
	<node lat="63.88653333478487" lon="9.940833323452306" id="-36283">
		<tag k="name" v="Skammingen" />
		<tag k="natural" v="strait" />
		<tag k="ssr:stedsnr" v="31113" />
	</node>
	<node lat="63.63082777492085" lon="9.455258334482027" id="-36284">
		<tag k="name" v="Våggrunnen" />
		<tag k="natural" v="shoal" />
		<tag k="place" v="locality" />
		<tag k="ssr:stedsnr" v="31278" />
	</node>
	<node lat="63.65172500377205" lon="9.37291389379941" id="-36289">
		<tag k="name" v="Purkholmen" />
		<tag k="place" v="islet" />
		<tag k="ssr:stedsnr" v="34810" />
	</node>
	<node lat="63.73290833410151" lon="9.624086107146045" id="-36291">
		<tag k="name" v="Storkråka" />
		<tag k="natural" v="cape" />
		<tag k="ssr:stedsnr" v="35770" />
	</node>
	<node lat="63.63690000097823" lon="9.336658328491637" id="-36299">
		<tag k="name" v="Kalvholmen" />
		<tag k="place" v="islet" />
		<tag k="ssr:stedsnr" v="73069" />
	</node>
	<node lat="63.819355553284986" lon="9.46695555001026" id="-36300">
		<tag k="name" v="Grindøya" />
		<tag k="place" v="island" />
		<tag k="ssr:stedsnr" v="73666" />
	</node>
	<node lat="63.905122220497034" lon="9.845916661689362" id="-36306">
		<tag k="name" v="Skjelholmen" />
		<tag k="place" v="islet" />
		<tag k="ssr:stedsnr" v="74615" />
	</node>
	<node lat="63.879355559076686" lon="9.612286101572144" id="-36307">
		<tag k="name" v="Tristeinodden" />
		<tag k="place" v="islet" />
		<tag k="ssr:stedsnr" v="74812" />
	</node>
	<node lat="63.85397500415291" lon="9.675052776618967" id="-36308">
		<tag k="fixme" v="multiple name tags, choose one and add the other to alt_name; consider seamark:type=rock or natural=shoal" />
		<tag k="name" v="Torramuren;Torraskjæret" />
		<tag k="place" v="islet" />
		<tag k="ssr:stedsnr" v="74818" />
	</node>
	<node lat="63.93919166828523" lon="9.769722218867058" id="-36309">
		<tag k="name" v="Vågsøya" />
		<tag k="place" v="islet" />
		<tag k="ssr:stedsnr" v="75558" />
	</node>
	<node lat="63.81917221860419" lon="9.396152778223103" id="-36315">
		<tag k="name" v="Verholmen" />
		<tag k="place" v="islet" />
		<tag k="ssr:stedsnr" v="91214" />
	</node>
	<node lat="63.82121388574362" lon="9.410455553690362" id="-36316">
		<tag k="name" v="Vestervågen" />
		<tag k="natural" v="bay" />
		<tag k="ssr:stedsnr" v="91216" />
	</node>
	<node lat="63.8195583349555" lon="9.435777777836854" id="-36317">
		<tag k="name" v="Skanken" />
		<tag k="natural" v="cape" />
		<tag k="ssr:stedsnr" v="91225" />
	</node>
	<node lat="63.87859444397698" lon="9.735513890003435" id="-36318">
		<tag k="name" v="Lamholmstøtta" />
		<tag k="natural" v="shoal" />
		<tag k="place" v="locality" />
		<tag k="ssr:stedsnr" v="91227" />
	</node>
	<node lat="63.8285194416291" lon="9.77603055065451" id="-36330">
		<tag k="name" v="Sundsetstranda" />
		<tag k="natural" v="beach" />
		<tag k="ssr:stedsnr" v="91418" />
	</node>
	<node lat="63.81515277970392" lon="9.62508611692548" id="-36331">
		<tag k="name" v="Storbukta" />
		<tag k="natural" v="bay" />
		<tag k="ssr:stedsnr" v="91427" />
	</node>
	<node lat="63.714719440262975" lon="9.814427768082728" id="-36333">
		<tag k="name" v="Markbuktneset" />
		<tag k="natural" v="cape" />
		<tag k="ssr:stedsnr" v="91431" />
	</node>
	<node lat="63.86401111510786" lon="9.773352778335214" id="-36337">
		<tag k="fixme" v="consider seamark:type=rock or natural=shoal" />
		<tag k="name" v="Langskjæret" />
		<tag k="place" v="islet" />
		<tag k="ssr:stedsnr" v="91766" />
	</node>
	<node lat="63.823019446669925" lon="9.650005564208547" id="-36338">
		<tag k="name" v="Kråkvikbukta" />
		<tag k="natural" v="bay" />
		<tag k="ssr:stedsnr" v="91785" />
	</node>
	<node lat="63.82377777468557" lon="9.745863886502415" id="-36342">
		<tag k="name" v="Gravdalsbukta" />
		<tag k="natural" v="bay" />
		<tag k="ssr:stedsnr" v="91804" />
	</node>
	<node lat="63.642605555085844" lon="9.474166664995035" id="-36347">
		<tag k="name" v="Tjuvholmen" />
		<tag k="place" v="islet" />
		<tag k="ssr:stedsnr" v="92014" />
	</node>
	<node lat="63.625936107313365" lon="9.489038879753293" id="-36348">
		<tag k="name" v="Smellingsflua" />
		<tag k="natural" v="shoal" />
		<tag k="place" v="locality" />
		<tag k="ssr:stedsnr" v="92272" />
	</node>
	<node lat="63.65853611120617" lon="9.486869445366768" id="-36349">
		<tag k="name" v="Kjellgrunnen" />
		<tag k="natural" v="shoal" />
		<tag k="place" v="locality" />
		<tag k="ssr:stedsnr" v="92280" />
	</node>
	<node lat="63.69759444543696" lon="9.3696388817097" id="-36350">
		<tag k="name" v="Nilsetaren" />
		<tag k="natural" v="shoal" />
		<tag k="place" v="locality" />
		<tag k="ssr:stedsnr" v="92365" />
	</node>
	<node lat="63.68734444285958" lon="9.38456944999124" id="-36351">
		<tag k="name" v="Hausen" />
		<tag k="natural" v="shoal" />
		<tag k="place" v="locality" />
		<tag k="ssr:stedsnr" v="92367" />
	</node>
	<node lat="63.70991666625962" lon="9.531722215316499" id="-36363">
		<tag k="fixme" v="consider seamark:type=rock or natural=shoal" />
		<tag k="name" v="Olaskjæret" />
		<tag k="place" v="islet" />
		<tag k="ssr:stedsnr" v="96860" />
	</node>
	<node lat="63.652630558776856" lon="9.329897219399752" id="-36373">
		<tag k="name" v="Litlslåttøya" />
		<tag k="place" v="islet" />
		<tag k="ssr:stedsnr" v="134064" />
	</node>
	<node lat="63.71582500152757" lon="9.826902785498689" id="-36388">
		<tag k="alt_name" v="Storholmen" />
		<tag k="name" v="Brattingen" />
		<tag k="place" v="islet" />
		<tag k="ssr:stedsnr" v="134810" />
	</node>
	<node lat="63.86203611304453" lon="9.715630557890547" id="-36389">
		<tag k="name" v="Valsøya" />
		<tag k="place" v="island" />
		<tag k="ssr:stedsnr" v="134852" />
	</node>
	<node lat="63.87017777390504" lon="9.71726111378903" id="-36390">
		<tag k="name" v="Kvaløya" />
		<tag k="place" v="islet" />
		<tag k="ssr:stedsnr" v="134853" />
	</node>
	<node lat="63.90873333181181" lon="9.671944445033152" id="-36391">
		<tag k="name" v="Fallråsa" />
		<tag k="natural" v="strait" />
		<tag k="ssr:stedsnr" v="134858" />
	</node>
	<node lat="63.886858333717385" lon="9.659344448539851" id="-36392">
		<tag k="fixme" v="consider seamark:type=rock or natural=shoal" />
		<tag k="name" v="Svartskjæra" />
		<tag k="place" v="islet" />
		<tag k="ssr:stedsnr" v="134865" />
	</node>
	<node lat="63.669227775653134" lon="9.331827786643927" id="-36395">
		<tag k="name" v="Skjåholmen" />
		<tag k="place" v="islet" />
		<tag k="ssr:stedsnr" v="255048" />
	</node>
	<node lat="63.656094443145165" lon="9.348458341674817" id="-36396">
		<tag k="name" v="Kråkvågsvaet" />
		<tag k="natural" v="strait" />
		<tag k="ssr:stedsnr" v="255049" />
	</node>
	<node lat="63.81472777842837" lon="9.368683334909957" id="-36399">
		<tag k="name" v="Bukklingen" />
		<tag k="natural" v="bay" />
		<tag k="ssr:stedsnr" v="255684" />
	</node>
	<node lat="63.80681944503571" lon="9.453041671867751" id="-36400">
		<tag k="alt_name" v="Store Svinøya" />
		<tag k="name" v="Svinøya" />
		<tag k="place" v="islet" />
		<tag k="ssr:stedsnr" v="255649" />
	</node>
	<node lat="63.83165833143253" lon="9.800933328693954" id="-36433">
		<tag k="name" v="Josopvika" />
		<tag k="natural" v="bay" />
		<tag k="ssr:stedsnr" v="151414" />
	</node>
	<node lat="63.84569166236284" lon="9.659583324870777" id="-36434">
		<tag k="fixme" v="consider seamark:type=rock or natural=shoal" />
		<tag k="name" v="Hystaren" />
		<tag k="place" v="islet" />
		<tag k="ssr:stedsnr" v="151416" />
	</node>
	<node lat="63.928666663346114" lon="9.720469442645621" id="-36435">
		<tag k="fixme" v="consider seamark:type=rock or natural=shoal" />
		<tag k="name" v="Langskjæret" />
		<tag k="place" v="islet" />
		<tag k="ssr:stedsnr" v="256490" />
	</node>
	<node lat="63.89421110906724" lon="9.838894439872771" id="-36438">
		<tag k="fixme" v="consider seamark:type=rock or natural=shoal" />
		<tag k="name" v="Lensmannskjæret" />
		<tag k="place" v="islet" />
		<tag k="ssr:stedsnr" v="151509" />
	</node>
	<node lat="63.941313892374936" lon="9.75182777172456" id="-36449">
		<tag k="alt_name" v="Auholmen, søre" />
		<tag k="fixme" v="multiple name tags, choose one and add the other to alt_name" />
		<tag k="name" v="Indre Auholmen;Søre Auholmen" />
		<tag k="place" v="islet" />
		<tag k="ssr:stedsnr" v="256519" />
	</node>
	<node lat="63.879669447743055" lon="9.768522215051076" id="-36451">
		<tag k="name" v="Svinøya" />
		<tag k="place" v="islet" />
		<tag k="ssr:stedsnr" v="256547" />
	</node>
	<node lat="63.827372218671854" lon="9.72011666778997" id="-36458">
		<tag k="name" v="Eriksteinan" />
		<tag k="natural" v="shoal" />
		<tag k="place" v="locality" />
		<tag k="ssr:stedsnr" v="151698" />
	</node>
	<node lat="63.82205555844227" lon="9.722183334746829" id="-36459">
		<tag k="name" v="Langstranda" />
		<tag k="natural" v="beach" />
		<tag k="ssr:stedsnr" v="151700" />
	</node>
	<node lat="63.82578333545682" lon="9.712261117313759" id="-36460">
		<tag k="name" v="Raueidet" />
		<tag k="natural" v="cape" />
		<tag k="ssr:stedsnr" v="151701" />
	</node>
	<node lat="63.84922777478906" lon="9.708572213972875" id="-36465">
		<tag k="name" v="Melemsvika" />
		<tag k="natural" v="cape" />
		<tag k="ssr:stedsnr" v="256653" />
	</node>
	<node lat="63.69072222271266" lon="9.388961107167422" id="-36466">
		<tag k="name" v="Jekttaren" />
		<tag k="natural" v="shoal" />
		<tag k="place" v="locality" />
		<tag k="ssr:stedsnr" v="152406" />
	</node>
	<node lat="63.709841667962195" lon="9.370100009523107" id="-36467">
		<tag k="name" v="Stortaren" />
		<tag k="natural" v="shoal" />
		<tag k="place" v="locality" />
		<tag k="ssr:stedsnr" v="152456" />
	</node>
	<node lat="63.70511666234915" lon="9.368763878918818" id="-36468">
		<tag k="name" v="Litletaren" />
		<tag k="natural" v="shoal" />
		<tag k="place" v="locality" />
		<tag k="ssr:stedsnr" v="152457" />
	</node>
	<node lat="63.694986115313036" lon="9.430019448741536" id="-36469">
		<tag k="fixme" v="consider seamark:type=rock or natural=shoal" />
		<tag k="name" v="Båvikskjæret" />
		<tag k="place" v="islet" />
		<tag k="ssr:stedsnr" v="152461" />
	</node>
	<node lat="63.69041389168928" lon="9.416361101880966" id="-36470">
		<tag k="name" v="Lyngholmen" />
		<tag k="place" v="islet" />
		<tag k="ssr:stedsnr" v="152465" />
	</node>
	<node lat="63.79611666229807" lon="9.590833323420956" id="-36471">
		<tag k="fixme" v="consider seamark:type=rock or natural=shoal" />
		<tag k="name" v="Tindskjæret" />
		<tag k="place" v="islet" />
		<tag k="ssr:stedsnr" v="152151" />
	</node>
	<node lat="63.87137222217423" lon="9.596136110230114" id="-36472">
		<tag k="fixme" v="consider seamark:type=rock or natural=shoal" />
		<tag k="name" v="Tristeinskjæra" />
		<tag k="place" v="islet" />
		<tag k="ssr:stedsnr" v="256787" />
	</node>
	<node lat="63.91709999743008" lon="9.523741668577777" id="-36473">
		<tag k="name" v="Ufsfluryggen" />
		<tag k="natural" v="shoal" />
		<tag k="place" v="locality" />
		<tag k="ssr:stedsnr" v="256799" />
	</node>
	<node lat="63.75501111493048" lon="9.669161113210343" id="-36475">
		<tag k="name" v="Bjugnholmen" />
		<tag k="place" v="islet" />
		<tag k="ssr:stedsnr" v="256714" />
	</node>
	<node lat="63.65473333752571" lon="9.434122231066466" id="-36483">
		<tag k="name" v="Munken" />
		<tag k="natural" v="bay" />
		<tag k="ssr:stedsnr" v="156803" />
	</node>
	<node lat="63.662719442870014" lon="9.43374167279184" id="-36484">
		<tag k="name" v="Kilaneset" />
		<tag k="natural" v="cape" />
		<tag k="ssr:stedsnr" v="156805" />
	</node>
	<node lat="63.74567777536445" lon="9.67813888124034" id="-36486">
		<tag k="name" v="Tjuvholet" />
		<tag k="natural" v="bay" />
		<tag k="ssr:stedsnr" v="156868" />
	</node>
	<node lat="63.89079444268777" lon="9.850963888943834" id="-36489">
		<tag k="name" v="Lysøyvågen" />
		<tag k="natural" v="bay" />
		<tag k="ssr:stedsnr" v="195591" />
	</node>
	<node lat="63.89108333474146" lon="9.879222227344071" id="-36490">
		<tag k="name" v="Trettvika" />
		<tag k="natural" v="bay" />
		<tag k="ssr:stedsnr" v="195598" />
	</node>
	<node lat="63.784602777731514" lon="9.583875006449526" id="-36491">
		<tag k="name" v="Islandsvika" />
		<tag k="natural" v="bay" />
		<tag k="ssr:stedsnr" v="195636" />
	</node>
	<node lat="63.83677777735731" lon="9.521211114056545" id="-36492">
		<tag k="name" v="Burøya" />
		<tag k="place" v="islet" />
		<tag k="ssr:stedsnr" v="195684" />
	</node>
	<node lat="63.881913884880845" lon="9.809038889590717" id="-36509">
		<tag k="name" v="Litlholmen" />
		<tag k="place" v="islet" />
		<tag k="ssr:stedsnr" v="212505" />
	</node>
	<node lat="63.757591671197666" lon="9.604377771136619" id="-36511">
		<tag k="name" v="Rødnesøra" />
		<tag k="natural" v="beach" />
		<tag k="ssr:stedsnr" v="212529" />
	</node>
	<node lat="63.755405555844796" lon="9.966986103061915" id="-36513">
		<tag k="name" v="Akseldalsbukta" />
		<tag k="natural" v="bay" />
		<tag k="ssr:stedsnr" v="212580" />
	</node>
	<node lat="63.87033610893559" lon="9.88379166793585" id="-36522">
		<tag k="name" v="Kvennavika" />
		<tag k="natural" v="bay" />
		<tag k="ssr:stedsnr" v="212607" />
	</node>
	<node lat="63.86882500312812" lon="9.763447214794978" id="-36524">
		<tag k="fixme" v="consider seamark:type=rock or natural=shoal" />
		<tag k="name" v="Tranøygalten" />
		<tag k="place" v="islet" />
		<tag k="ssr:stedsnr" v="212624" />
	</node>
	<node lat="63.86019444384543" lon="9.736794453350306" id="-36525">
		<tag k="name" v="Hylla" />
		<tag k="natural" v="beach" />
		<tag k="ssr:stedsnr" v="212634" />
	</node>
	<node lat="63.715652782010665" lon="9.5044083236753" id="-36532">
		<tag k="name" v="Styrmannsflua" />
		<tag k="natural" v="shoal" />
		<tag k="place" v="locality" />
		<tag k="ssr:stedsnr" v="213106" />
	</node>
	<node lat="63.82372499792071" lon="9.629158324083823" id="-36533">
		<tag k="name" v="Guri Kunna-holet" />
		<tag k="natural" v="shoal" />
		<tag k="place" v="locality" />
		<tag k="ssr:stedsnr" v="212825" />
	</node>
	<node lat="63.7816722215125" lon="9.354002767679475" id="-36535">
		<tag k="fixme" v="consider seamark:type=rock or natural=shoal" />
		<tag k="name" v="Skarvskjæret" />
		<tag k="place" v="islet" />
		<tag k="ssr:stedsnr" v="213077" />
	</node>
	<node lat="63.697944441184774" lon="9.486899993410148" id="-36536">
		<tag k="name" v="Espelandstaren" />
		<tag k="natural" v="shoal" />
		<tag k="place" v="locality" />
		<tag k="ssr:stedsnr" v="213084" />
	</node>
	<node lat="63.69093332974259" lon="9.477172223973595" id="-36537">
		<tag k="name" v="Urdseggtaren" />
		<tag k="natural" v="shoal" />
		<tag k="place" v="locality" />
		<tag k="ssr:stedsnr" v="213085" />
	</node>
	<node lat="63.82074722526463" lon="9.546755549771483" id="-36538">
		<tag k="fixme" v="consider seamark:type=rock or natural=shoal" />
		<tag k="name" v="Steinskjæra" />
		<tag k="place" v="islet" />
		<tag k="ssr:stedsnr" v="213233" />
	</node>
	<node lat="63.644044444397544" lon="9.359252781999817" id="-36539">
		<tag k="name" v="Nidarostaren" />
		<tag k="natural" v="shoal" />
		<tag k="place" v="locality" />
		<tag k="ssr:stedsnr" v="213407" />
	</node>
	<node lat="63.707633334605404" lon="9.569258333477853" id="-36540">
		<tag k="alt_name" v="Lakskløholmen" />
		<tag k="name" v="Lakskloholmen" />
		<tag k="natural" v="cape" />
		<tag k="ssr:stedsnr" v="213386" />
	</node>
	<node lat="63.68600555619599" lon="9.41787222206523" id="-36548">
		<tag k="name" v="Grønnøra" />
		<tag k="natural" v="beach" />
		<tag k="ssr:stedsnr" v="216806" />
	</node>
	<node lat="63.68940555538199" lon="9.412058341802354" id="-36549">
		<tag k="name" v="Osen" />
		<tag k="natural" v="bay" />
		<tag k="ssr:stedsnr" v="216809" />
	</node>
	<node lat="63.6455583289337" lon="9.459955559622905" id="-36550">
		<tag k="name" v="Ramsbolet" />
		<tag k="natural" v="cape" />
		<tag k="ssr:stedsnr" v="216814" />
	</node>
	<node lat="63.65691944091954" lon="9.368983340958518" id="-36551">
		<tag k="name" v="Nordvika" />
		<tag k="natural" v="bay" />
		<tag k="ssr:stedsnr" v="216823" />
	</node>
	<node lat="63.89950000438618" lon="9.792144452953632" id="-36570">
		<tag k="name" v="Oterholmen" />
		<tag k="place" v="islet" />
		<tag k="ssr:stedsnr" v="455027" />
	</node>
	<node lat="63.79709999591442" lon="9.4058944383371" id="-36575">
		<tag k="name" v="Straumen" />
		<tag k="natural" v="strait" />
		<tag k="ssr:stedsnr" v="455177" />
	</node>
	<node lat="63.818538887300974" lon="9.39179444352976" id="-36578">
		<tag k="name" v="Sør Gabrielholmen" />
		<tag k="place" v="islet" />
		<tag k="ssr:stedsnr" v="455200" />
	</node>
	<node lat="63.8335999989416" lon="9.66990000369373" id="-36588">
		<tag k="name" v="Osen" />
		<tag k="natural" v="bay" />
		<tag k="ssr:stedsnr" v="455363" />
	</node>
	<node lat="63.71365000303991" lon="9.812458337665392" id="-36589">
		<tag k="fixme" v="consider seamark:type=rock or natural=shoal" />
		<tag k="name" v="Markbuktskjæret" />
		<tag k="place" v="islet" />
		<tag k="ssr:stedsnr" v="455371" />
	</node>
	<node lat="63.85648333210775" lon="9.856488884712942" id="-36595">
		<tag k="name" v="Holmen" />
		<tag k="place" v="islet" />
		<tag k="ssr:stedsnr" v="455549" />
	</node>
	<node lat="63.73993055291849" lon="9.893566668290255" id="-36602">
		<tag k="name" v="Båtvika" />
		<tag k="natural" v="bay" />
		<tag k="ssr:stedsnr" v="455429" />
	</node>
	<node lat="63.766852778696396" lon="9.776452779290729" id="-36605">
		<tag k="fixme" v="consider seamark:type=rock or natural=shoal" />
		<tag k="name" v="Karlestrandskjeret" />
		<tag k="place" v="islet" />
		<tag k="ssr:stedsnr" v="455440" />
	</node>
	<node lat="63.87635555872402" lon="9.681288886555185" id="-36610">
		<tag k="name" v="Brattaren" />
		<tag k="natural" v="shoal" />
		<tag k="place" v="locality" />
		<tag k="ssr:stedsnr" v="455397" />
	</node>
	<node lat="63.80836110752599" lon="9.646663887967271" id="-36612">
		<tag k="name" v="Steinvikneset" />
		<tag k="natural" v="cape" />
		<tag k="ssr:stedsnr" v="455486" />
	</node>
	<node lat="63.87870833423307" lon="9.822775007919521" id="-36614">
		<tag k="name" v="Madsøyholet" />
		<tag k="natural" v="strait" />
		<tag k="ssr:stedsnr" v="455498" />
	</node>
	<node lat="63.83222222065343" lon="9.66211111996451" id="-36620">
		<tag k="name" v="Sandvika" />
		<tag k="natural" v="bay" />
		<tag k="ssr:stedsnr" v="455747" />
	</node>
	<node lat="63.8193055542693" lon="9.639322214017543" id="-36621">
		<tag k="name" v="Fagervika" />
		<tag k="natural" v="bay" />
		<tag k="ssr:stedsnr" v="455750" />
	</node>
	<node lat="63.8227083310585" lon="9.655136112481529" id="-36622">
		<tag k="name" v="Litlvika" />
		<tag k="natural" v="bay" />
		<tag k="ssr:stedsnr" v="455754" />
	</node>
	<node lat="63.833708333118096" lon="9.745725009816022" id="-36626">
		<tag k="name" v="Fagervollvika" />
		<tag k="natural" v="bay" />
		<tag k="ssr:stedsnr" v="455782" />
	</node>
	<node lat="63.9713250041291" lon="9.738313884069385" id="-36633">
		<tag k="name" v="Båflua" />
		<tag k="natural" v="shoal" />
		<tag k="place" v="locality" />
		<tag k="ssr:stedsnr" v="455949" />
	</node>
	<node lat="63.72245277862954" lon="9.496063898552741" id="-36634">
		<tag k="alt_name" v="Flatøya" />
		<tag k="name" v="Store Flatøya" />
		<tag k="place" v="islet" />
		<tag k="ssr:stedsnr" v="255013" />
	</node>
	<node lat="63.70587221984584" lon="9.467875000204435" id="-36638">
		<tag k="name" v="Grandholman" />
		<tag k="place" v="islet" />
		<tag k="ssr:stedsnr" v="255032" />
	</node>
	<node lat="63.67766944622069" lon="9.479599990105749" id="-36639">
		<tag k="name" v="Grandstorflua" />
		<tag k="natural" v="shoal" />
		<tag k="place" v="locality" />
		<tag k="ssr:stedsnr" v="456283" />
	</node>
	<node lat="63.8779749967671" lon="9.76320277841988" id="-36641">
		<tag k="fixme" v="consider seamark:type=rock or natural=shoal" />
		<tag k="name" v="Svinøyflua" />
		<tag k="place" v="islet" />
		<tag k="ssr:stedsnr" v="255580" />
	</node>
	<node lat="63.816886108568454" lon="9.624316669679818" id="-36642">
		<tag k="name" v="Valsneset" />
		<tag k="natural" v="cape" />
		<tag k="ssr:stedsnr" v="255662" />
	</node>
	<node lat="63.66988241279286" lon="9.3635709062073" id="-36652">
		<tag k="name" v="Stongdraget" />
		<tag k="place" v="islet" />
		<tag k="ssr:stedsnr" v="266536" />
	</node>
	<node lat="63.9046250033935" lon="9.751494445477869" id="-36656">
		<tag k="fixme" v="consider seamark:type=rock or natural=shoal" />
		<tag k="name" v="Hatten" />
		<tag k="place" v="islet" />
		<tag k="ssr:stedsnr" v="273076" />
	</node>
	<node lat="63.81289722564112" lon="9.384433328196401" id="-36658">
		<tag k="fixme" v="consider seamark:type=rock or natural=shoal" />
		<tag k="name" v="Grønnskjæra" />
		<tag k="place" v="islet" />
		<tag k="ssr:stedsnr" v="273203" />
	</node>
	<node lat="63.780547224868116" lon="9.530419438872997" id="-36664">
		<tag k="name" v="Haukviktaren" />
		<tag k="natural" v="shoal" />
		<tag k="place" v="locality" />
		<tag k="ssr:stedsnr" v="273226" />
	</node>
	<node lat="63.756963888084584" lon="9.983680563058527" id="-36682">
		<tag k="name" v="Stallvikbukta" />
		<tag k="natural" v="bay" />
		<tag k="ssr:stedsnr" v="273588" />
	</node>
	<node lat="63.828499996294575" lon="9.3960666698732" id="-36683">
		<tag k="name" v="Lamholmflua" />
		<tag k="natural" v="shoal" />
		<tag k="place" v="locality" />
		<tag k="ssr:stedsnr" v="273591" />
	</node>
	<node lat="63.89248889207239" lon="9.913000006484918" id="-36686">
		<tag k="name" v="Fjæra" />
		<tag k="natural" v="beach" />
		<tag k="ssr:stedsnr" v="273624" />
	</node>
	<node lat="63.88038055756627" lon="9.924661103220735" id="-36688">
		<tag k="name" v="Oldneset" />
		<tag k="natural" v="cape" />
		<tag k="ssr:stedsnr" v="273628" />
	</node>
	<node lat="63.85728888553024" lon="9.710702780829882" id="-36690">
		<tag k="name" v="Storøyvalen" />
		<tag k="place" v="locality" />
		<tag k="ssr:stedsnr" v="273677" />
	</node>
	<node lat="63.831794441189516" lon="9.80531944633831" id="-36694">
		<tag k="name" v="Rauhammaren" />
		<tag k="natural" v="cape" />
		<tag k="ssr:stedsnr" v="273809" />
	</node>
	<node lat="63.6556027822181" lon="9.429338883456818" id="-36712">
		<tag k="name" v="Valen" />
		<tag k="natural" v="bay" />
		<tag k="ssr:stedsnr" v="459834" />
	</node>
	<node lat="63.65741111106137" lon="9.432894440556995" id="-36716">
		<tag k="name" v="Årsanden" />
		<tag k="natural" v="shoal" />
		<tag k="place" v="locality" />
		<tag k="ssr:stedsnr" v="277808" />
	</node>
	<node lat="63.6755027813772" lon="9.39573333366789" id="-36718">
		<tag k="name" v="Nordosen" />
		<tag k="natural" v="bay" />
		<tag k="ssr:stedsnr" v="277830" />
	</node>
	<node lat="63.66059167001989" lon="9.54144165930452" id="-36723">
		<tag k="name" v="Rauskjærøra" />
		<tag k="natural" v="beach" />
		<tag k="ssr:stedsnr" v="278818" />
	</node>
	<node lat="63.641222221736996" lon="9.538675006116765" id="-36725">
		<tag k="name" v="Værneset" />
		<tag k="natural" v="cape" />
		<tag k="ssr:stedsnr" v="460788" />
	</node>
	<node lat="63.686775004092794" lon="9.417183326899167" id="-36727">
		<tag k="name" v="Sandøra" />
		<tag k="natural" v="beach" />
		<tag k="ssr:stedsnr" v="460831" />
	</node>
	<node lat="63.67811111192112" lon="9.5568138973198" id="-36729">
		<tag k="name" v="Rausigrunnen" />
		<tag k="natural" v="shoal" />
		<tag k="place" v="locality" />
		<tag k="ssr:stedsnr" v="460951" />
	</node>
	<node lat="63.638477778309536" lon="9.313624992970958" id="-36738">
		<tag k="name" v="Kråkøya" />
		<tag k="natural" v="cape" />
		<tag k="ssr:stedsnr" v="316057" />
	</node>
	<node lat="63.854308337793476" lon="9.868166660184972" id="-36743">
		<tag k="name" v="Straumen" />
		<tag k="natural" v="strait" />
		<tag k="ssr:stedsnr" v="316105" />
	</node>
	<node lat="63.82022777893996" lon="9.422661119139269" id="-36756">
		<tag k="name" v="Myravågen" />
		<tag k="natural" v="bay" />
		<tag k="ssr:stedsnr" v="316708" />
	</node>
	<node lat="63.83718055540551" lon="9.652472228389549" id="-36757">
		<tag k="name" v="Kråka" />
		<tag k="place" v="islet" />
		<tag k="ssr:stedsnr" v="316713" />
	</node>
	<node lat="63.8266777815416" lon="9.69329445003169" id="-36758">
		<tag k="name" v="Leirvika" />
		<tag k="natural" v="bay" />
		<tag k="ssr:stedsnr" v="316722" />
	</node>
	<node lat="63.833247221568826" lon="9.648966670397778" id="-36775">
		<tag k="name" v="Skipparvikholmen" />
		<tag k="place" v="islet" />
		<tag k="ssr:stedsnr" v="333748" />
	</node>
	<node lat="63.7581777752981" lon="9.381886103022174" id="-36784">
		<tag k="name" v="Stabbflua" />
		<tag k="natural" v="shoal" />
		<tag k="place" v="locality" />
		<tag k="ssr:stedsnr" v="334052" />
	</node>
	<node lat="63.88850277784952" lon="9.614013888809462" id="-36792">
		<tag k="name" v="Oddtaren" />
		<tag k="natural" v="shoal" />
		<tag k="place" v="locality" />
		<tag k="ssr:stedsnr" v="334395" />
	</node>
	<node lat="63.707952780396354" lon="9.398647224994935" id="-36794">
		<tag k="name" v="Tørrskjærtaren" />
		<tag k="natural" v="shoal" />
		<tag k="place" v="locality" />
		<tag k="ssr:stedsnr" v="334401" />
	</node>
	<node lat="63.80222500048458" lon="9.21777499955643" id="-36825">
		<tag k="name" v="Tarvahavet" />
		<tag k="place" v="sea" />
		<tag k="ssr:stedsnr" v="389151" />
	</node>
	<node lat="63.9373666689852" lon="9.78848055137679" id="-36826">
		<tag k="name" v="Lønngrunnen" />
		<tag k="natural" v="shoal" />
		<tag k="place" v="locality" />
		<tag k="ssr:stedsnr" v="394003" />
	</node>
	<node lat="63.81563610698243" lon="9.387283329896707" id="-36831">
		<tag k="name" v="Sølvhundvika" />
		<tag k="natural" v="bay" />
		<tag k="ssr:stedsnr" v="394191" />
	</node>
	<node lat="63.82358610934745" lon="9.44191111652934" id="-36834">
		<tag k="fixme" v="consider seamark:type=rock or natural=shoal" />
		<tag k="name" v="Skankskjæra" />
		<tag k="place" v="islet" />
		<tag k="ssr:stedsnr" v="394208" />
	</node>
	<node lat="63.823305552396384" lon="9.429433338381719" id="-36835">
		<tag k="fixme" v="consider seamark:type=rock or natural=shoal" />
		<tag k="name" v="Kuskjæra" />
		<tag k="place" v="islet" />
		<tag k="ssr:stedsnr" v="394209" />
	</node>
	<node lat="63.81284999787409" lon="9.654408328442143" id="-36841">
		<tag k="name" v="Olsvikpynten" />
		<tag k="natural" v="cape" />
		<tag k="ssr:stedsnr" v="394238" />
	</node>
	<node lat="63.84037777898711" lon="9.654233341784465" id="-36844">
		<tag k="name" v="Kråkungan" />
		<tag k="natural" v="shoal" />
		<tag k="place" v="locality" />
		<tag k="ssr:stedsnr" v="394408" />
	</node>
	<node lat="63.76156944419058" lon="9.713175009906966" id="-36845">
		<tag k="name" v="Krokvikneset" />
		<tag k="natural" v="cape" />
		<tag k="ssr:stedsnr" v="394415" />
	</node>
	<node lat="63.85784444881711" lon="9.606122218760799" id="-36848">
		<tag k="name" v="Kvernflua" />
		<tag k="natural" v="shoal" />
		<tag k="place" v="locality" />
		<tag k="ssr:stedsnr" v="394421" />
	</node>
	<node lat="63.85450555575646" lon="9.631577773324658" id="-36849">
		<tag k="name" v="Tristeinflua" />
		<tag k="natural" v="shoal" />
		<tag k="place" v="locality" />
		<tag k="ssr:stedsnr" v="394423" />
	</node>
	<node lat="63.80528610779986" lon="9.631375008164436" id="-36852">
		<tag k="name" v="Tiltervågen" />
		<tag k="natural" v="bay" />
		<tag k="ssr:stedsnr" v="394511" />
	</node>
	<node lat="63.864338888469184" lon="9.714558326900143" id="-36867">
		<tag k="name" v="Kvalvikern" />
		<tag k="natural" v="bay" />
		<tag k="ssr:stedsnr" v="394629" />
	</node>
	<node lat="63.76188610796863" lon="9.710566670483292" id="-36886">
		<tag k="name" v="Krokvika" />
		<tag k="natural" v="bay" />
		<tag k="ssr:stedsnr" v="395231" />
	</node>
	<node lat="63.69991110856149" lon="9.253661110832706" id="-36887">
		<tag k="name" v="Svissaflua" />
		<tag k="natural" v="shoal" />
		<tag k="place" v="locality" />
		<tag k="ssr:stedsnr" v="395380" />
	</node>
	<node lat="63.677074997206006" lon="9.29771944433259" id="-36888">
		<tag k="name" v="Øysterflua" />
		<tag k="natural" v="shoal" />
		<tag k="place" v="locality" />
		<tag k="ssr:stedsnr" v="395381" />
	</node>
	<node lat="63.70033333067763" lon="9.448786102352145" id="-36889">
		<tag k="name" v="Sandholman" />
		<tag k="place" v="islet" />
		<tag k="ssr:stedsnr" v="396998" />
	</node>
	<node lat="63.68573610724556" lon="9.405327773812493" id="-36898">
		<tag k="name" v="Grønnmyrfjæra" />
		<tag k="natural" v="shoal" />
		<tag k="place" v="locality" />
		<tag k="ssr:stedsnr" v="399792" />
	</node>
	<node lat="63.67473889183134" lon="9.665974994778548" id="-36902">
		<tag k="name" v="Hovdtåa" />
		<tag k="natural" v="cape" />
		<tag k="ssr:stedsnr" v="437055" />
	</node>
	<node lat="63.66271111549323" lon="9.430519447556517" id="-36903">
		<tag k="name" v="Kilen" />
		<tag k="natural" v="bay" />
		<tag k="ssr:stedsnr" v="437063" />
	</node>
	<node lat="63.63910833283932" lon="9.340377785065153" id="-36904">
		<tag k="name" v="Spissholmen" />
		<tag k="place" v="islet" />
		<tag k="ssr:stedsnr" v="437069" />
	</node>
	<node lat="63.823844445847406" lon="9.621361110044864" id="-36905">
		<tag k="name" v="Spanskholmen" />
		<tag k="place" v="islet" />
		<tag k="ssr:stedsnr" v="437658" />
	</node>
	<node lat="63.738380552658015" lon="9.659369434771598" id="-36906">
		<tag k="name" v="Ørsleie" />
		<tag k="natural" v="cape" />
		<tag k="ssr:stedsnr" v="438006" />
	</node>
	<node lat="63.910205559669755" lon="9.84046389844586" id="-36912">
		<tag k="name" v="Knubben" />
		<tag k="place" v="islet" />
		<tag k="ssr:stedsnr" v="438608" />
	</node>
	<node lat="63.69764722570323" lon="9.7385638879026" id="-36913">
		<tag k="name" v="Jektvikan" />
		<tag k="natural" v="cape" />
		<tag k="ssr:stedsnr" v="438764" />
	</node>
	<node lat="63.90545555618941" lon="9.72971388538718" id="-36916">
		<tag k="name" v="Årværtaren" />
		<tag k="natural" v="shoal" />
		<tag k="place" v="locality" />
		<tag k="ssr:stedsnr" v="455015" />
	</node>
	<node lat="63.91498333064512" lon="9.827294445859676" id="-36919">
		<tag k="name" v="Persflua" />
		<tag k="natural" v="shoal" />
		<tag k="place" v="locality" />
		<tag k="ssr:stedsnr" v="455076" />
	</node>
	<node lat="63.87863055643226" lon="9.746305563804349" id="-36921">
		<tag k="fixme" v="consider seamark:type=rock or natural=shoal" />
		<tag k="name" v="Hysskjæret" />
		<tag k="place" v="islet" />
		<tag k="ssr:stedsnr" v="455207" />
	</node>
	<node lat="63.79214999750202" lon="9.42996667116144" id="-36923">
		<tag k="fixme" v="consider seamark:type=rock or natural=shoal" />
		<tag k="name" v="Fårøyskjæret" />
		<tag k="place" v="islet" />
		<tag k="ssr:stedsnr" v="455161" />
	</node>
	<node lat="63.76376110726011" lon="9.78689165646465" id="-36925">
		<tag k="name" v="Klakkbukta" />
		<tag k="natural" v="bay" />
		<tag k="ssr:stedsnr" v="455312" />
	</node>
	<node lat="63.72688082885552" lon="9.53021963804076" id="-36926">
		<tag k="fixme" v="consider seamark:type=rock or natural=shoal" />
		<tag k="name" v="Kjeungskjæret" />
		<tag k="place" v="islet" />
		<tag k="ssr:stedsnr" v="455327" />
	</node>
	<node lat="63.890411107685395" lon="9.9008222169791" id="-36927">
		<tag k="name" v="Hellesvikbukta" />
		<tag k="natural" v="bay" />
		<tag k="ssr:stedsnr" v="455328" />
	</node>
	<node lat="63.7379722213442" lon="9.63462499869114" id="-36928">
		<tag k="fixme" v="consider seamark:type=rock or natural=shoal" />
		<tag k="name" v="Bymannen" />
		<tag k="place" v="islet" />
		<tag k="ssr:stedsnr" v="455335" />
	</node>
	<node lat="63.86448611103949" lon="9.762394444113088" id="-36934">
		<tag k="name" v="Kattholmen" />
		<tag k="place" v="islet" />
		<tag k="ssr:stedsnr" v="455607" />
	</node>
	<node lat="63.87008610667683" lon="9.736100003518239" id="-36935">
		<tag k="name" v="Nordvika" />
		<tag k="natural" v="bay" />
		<tag k="ssr:stedsnr" v="455613" />
	</node>
	<node lat="63.97804444868206" lon="9.587599999995927" id="-36951">
		<tag k="fixme" v="consider seamark:type=rock or natural=shoal" />
		<tag k="name" v="Oddskjæra" />
		<tag k="place" v="islet" />
		<tag k="ssr:stedsnr" v="455968" />
	</node>
	<node lat="63.67701389064844" lon="9.313200008143133" id="-36952">
		<tag k="name" v="Fillgrunnen" />
		<tag k="natural" v="shoal" />
		<tag k="place" v="locality" />
		<tag k="ssr:stedsnr" v="456360" />
	</node>
	<node lat="63.66227500217897" lon="9.335380548366095" id="-36953">
		<tag k="fixme" v="consider seamark:type=rock or natural=shoal" />
		<tag k="name" v="Sandskjæret" />
		<tag k="place" v="islet" />
		<tag k="ssr:stedsnr" v="456364" />
	</node>
	<node lat="63.73342499774431" lon="9.63549723056766" id="-36961">
		<tag k="name" v="Sagsteinosen" />
		<tag k="natural" v="bay" />
		<tag k="ssr:stedsnr" v="460775" />
	</node>
	<node lat="63.783763885689034" lon="9.546244452603727" id="-36966">
		<tag k="name" v="Flutaren" />
		<tag k="natural" v="shoal" />
		<tag k="place" v="locality" />
		<tag k="ssr:stedsnr" v="680683" />
	</node>
	<node lat="63.8534527733703" lon="9.820913898649913" id="-36983">
		<tag k="name" v="Vedøya" />
		<tag k="place" v="islet" />
		<tag k="ssr:stedsnr" v="680134" />
	</node>
	<node lat="63.83552500024779" lon="9.793091658827478" id="-36984">
		<tag k="name" v="Jøssundøya" />
		<tag k="place" v="islet" />
		<tag k="ssr:stedsnr" v="680091" />
	</node>
	<node lat="63.738250003192725" lon="9.951508333532646" id="-36988">
		<tag k="alt_name" v="Hoøya" />
		<tag k="name" v="Håøya" />
		<tag k="place" v="islet" />
		<tag k="ssr:stedsnr" v="680238" />
	</node>
	<node lat="63.900936111458435" lon="9.824641664729786" id="-36992">
		<tag k="name" v="Gangløysa" />
		<tag k="place" v="islet" />
		<tag k="ssr:stedsnr" v="680656" />
	</node>
	<node lat="63.822919442885485" lon="9.67940834067572" id="-36993">
		<tag k="name" v="Dynnvika" />
		<tag k="natural" v="bay" />
		<tag k="ssr:stedsnr" v="680700" />
	</node>
	<node lat="63.66055000411211" lon="9.3245555544523" id="-37002">
		<tag k="name" v="Storslåttøya" />
		<tag k="place" v="island" />
		<tag k="ssr:stedsnr" v="498049" />
	</node>
	<node lat="63.86051944736944" lon="9.875541673595395" id="-37004">
		<tag k="name" v="Lislandet" />
		<tag k="natural" v="cape" />
		<tag k="ssr:stedsnr" v="498117" />
	</node>
	<node lat="63.97186111101402" lon="9.59782499633117" id="-37009">
		<tag k="name" v="Melsteinodden" />
		<tag k="place" v="islet" />
		<tag k="ssr:stedsnr" v="498842" />
	</node>
	<node lat="63.96178333352214" lon="9.559652768561106" id="-37010">
		<tag k="alt_name" v="Flatholmen, l" />
		<tag k="name" v="Litle Flatholmen" />
		<tag k="place" v="islet" />
		<tag k="ssr:stedsnr" v="498843" />
	</node>
	<node lat="64.01096666861217" lon="9.687961118706708" id="-37011">
		<tag k="name" v="Stabbflua" />
		<tag k="natural" v="shoal" />
		<tag k="place" v="locality" />
		<tag k="ssr:stedsnr" v="499972" />
	</node>
	<node lat="64.00591111047622" lon="9.663908329027683" id="-37012">
		<tag k="name" v="Steltfluen" />
		<tag k="natural" v="shoal" />
		<tag k="place" v="locality" />
		<tag k="ssr:stedsnr" v="499973" />
	</node>
	<node lat="63.89341944638008" lon="9.93056388424757" id="-37014">
		<tag k="name" v="Tiltremsvika" />
		<tag k="natural" v="bay" />
		<tag k="ssr:stedsnr" v="681592" />
	</node>
	<node lat="63.86822222401746" lon="9.609011116801668" id="-37015">
		<tag k="name" v="Tristeinen" />
		<tag k="place" v="islet" />
		<tag k="ssr:stedsnr" v="681837" />
	</node>
	<node lat="63.82044444111926" lon="9.405761108566148" id="-37019">
		<tag k="name" v="Bukklingen" />
		<tag k="place" v="islet" />
		<tag k="ssr:stedsnr" v="515219" />
	</node>
	<node lat="63.820899998326276" lon="9.392780552688949" id="-37020">
		<tag k="name" v="Nord Gabrielholmen" />
		<tag k="place" v="islet" />
		<tag k="ssr:stedsnr" v="515222" />
	</node>
	<node lat="63.82348888561578" lon="9.40425833814956" id="-37021">
		<tag k="name" v="Singsholmen" />
		<tag k="place" v="islet" />
		<tag k="ssr:stedsnr" v="515223" />
	</node>
	<node lat="63.85763610778362" lon="9.883050003600275" id="-37029">
		<tag k="name" v="Naustbukta" />
		<tag k="natural" v="bay" />
		<tag k="ssr:stedsnr" v="515374" />
	</node>
	<node lat="63.847902777218636" lon="9.855450009314383" id="-37030">
		<tag k="name" v="Strandabukta" />
		<tag k="natural" v="bay" />
		<tag k="ssr:stedsnr" v="515380" />
	</node>
	<node lat="63.831808329504696" lon="9.792274998455014" id="-37032">
		<tag k="name" v="Jektvika" />
		<tag k="natural" v="bay" />
		<tag k="ssr:stedsnr" v="515403" />
	</node>
	<node lat="63.857161115060315" lon="9.764413885022773" id="-37040">
		<tag k="name" v="Nesaodden" />
		<tag k="natural" v="cape" />
		<tag k="ssr:stedsnr" v="515642" />
	</node>
	<node lat="63.7546861111262" lon="9.961494454059695" id="-37042">
		<tag k="name" v="Kuppelvikneset" />
		<tag k="natural" v="cape" />
		<tag k="ssr:stedsnr" v="515591" />
	</node>
	<node lat="63.86316944883579" lon="9.800086102934308" id="-37046">
		<tag k="name" v="Kjerkneset" />
		<tag k="natural" v="cape" />
		<tag k="ssr:stedsnr" v="515765" />
	</node>
	<node lat="63.92953888849305" lon="9.521280552363146" id="-37053">
		<tag k="name" v="Ufsflua" />
		<tag k="natural" v="shoal" />
		<tag k="place" v="locality" />
		<tag k="ssr:stedsnr" v="515863" />
	</node>
	<node lat="63.8033972257426" lon="9.362438881692496" id="-37055">
		<tag k="name" v="Karlsøybåen" />
		<tag k="natural" v="shoal" />
		<tag k="place" v="locality" />
		<tag k="ssr:stedsnr" v="516205" />
	</node>
	<node lat="63.76690277734487" lon="9.452808332784524" id="-37056">
		<tag k="name" v="Jonsflua" />
		<tag k="natural" v="shoal" />
		<tag k="place" v="locality" />
		<tag k="ssr:stedsnr" v="516223" />
	</node>
	<node lat="63.898027776692274" lon="9.638261112232877" id="-37058">
		<tag k="name" v="Storflua" />
		<tag k="natural" v="shoal" />
		<tag k="place" v="locality" />
		<tag k="ssr:stedsnr" v="516614" />
	</node>
	<node lat="63.899347218092196" lon="9.851225006732516" id="-37059">
		<tag k="name" v="Åkerskardflua" />
		<tag k="natural" v="shoal" />
		<tag k="place" v="locality" />
		<tag k="ssr:stedsnr" v="516962" />
	</node>
	<node lat="63.68822222281287" lon="9.407824993563608" id="-37063">
		<tag k="name" v="Kuppelvika" />
		<tag k="natural" v="bay" />
		<tag k="ssr:stedsnr" v="520804" />
	</node>
	<node lat="63.64025277612654" lon="9.505919442826848" id="-37069">
		<tag k="name" v="Rabbsjøen" />
		<tag k="natural" v="bay" />
		<tag k="ssr:stedsnr" v="520967" />
	</node>
	<node lat="63.724522225746675" lon="9.522811114312503" id="-37071">
		<tag k="fixme" v="consider seamark:type=rock or natural=shoal" />
		<tag k="name" v="Kjeungan" />
		<tag k="place" v="islet" />
		<tag k="ssr:stedsnr" v="558010" />
	</node>
	<node lat="63.65478333689329" lon="9.370880565482596" id="-37076">
		<tag k="name" v="Holmen" />
		<tag k="place" v="islet" />
		<tag k="ssr:stedsnr" v="558054" />
	</node>
	<node lat="63.8112194403769" lon="9.376650000535722" id="-37078">
		<tag k="name" v="Hegersteinen" />
		<tag k="place" v="islet" />
		<tag k="ssr:stedsnr" v="558691" />
	</node>
	<node lat="63.84233055982294" lon="9.516819451089077" id="-37079">
		<tag k="name" v="Kråkøya" />
		<tag k="place" v="islet" />
		<tag k="ssr:stedsnr" v="558695" />
	</node>
	<node lat="63.82243888990502" lon="9.396222231888798" id="-37080">
		<tag k="name" v="Lamholman" />
		<tag k="place" v="islet" />
		<tag k="ssr:stedsnr" v="558706" />
	</node>
	<node lat="63.82878333039146" lon="9.63512500276483" id="-37081">
		<tag k="name" v="Bangvalholmen" />
		<tag k="place" v="islet" />
		<tag k="ssr:stedsnr" v="558711" />
	</node>
	<node lat="63.742644446992806" lon="9.904449997006745" id="-37085">
		<tag k="name" v="Berget" />
		<tag k="natural" v="cape" />
		<tag k="ssr:stedsnr" v="559206" />
	</node>
	<node lat="63.770974997734214" lon="9.37443056110984" id="-37086">
		<tag k="name" v="Gyltingen" />
		<tag k="place" v="islet" />
		<tag k="ssr:stedsnr" v="559737" />
	</node>
	<node lat="63.752186110175835" lon="9.653488898060225" id="-37087">
		<tag k="fixme" v="consider seamark:type=rock or natural=shoal" />
		<tag k="name" v="Gåsskjæret" />
		<tag k="place" v="islet" />
		<tag k="ssr:stedsnr" v="559744" />
	</node>
	<node lat="63.67874166608115" lon="9.388655552800516" id="-37093">
		<tag k="name" v="Slottholmen" />
		<tag k="place" v="islet" />
		<tag k="ssr:stedsnr" v="691533" />
	</node>
	<node lat="63.826597223591726" lon="9.708147220022475" id="-37099">
		<tag k="name" v="Bekkavika" />
		<tag k="natural" v="bay" />
		<tag k="ssr:stedsnr" v="576306" />
	</node>
	<node lat="63.75666111313927" lon="9.715458324946319" id="-37100">
		<tag k="fixme" v="consider seamark:type=rock or natural=shoal" />
		<tag k="name" v="Galten" />
		<tag k="place" v="islet" />
		<tag k="ssr:stedsnr" v="576308" />
	</node>
	<node lat="63.82152222384651" lon="9.393036114144333" id="-37107">
		<tag k="name" v="Ane-leia" />
		<tag k="natural" v="strait" />
		<tag k="ssr:stedsnr" v="576202" />
	</node>
	<node lat="63.83401666824987" lon="9.425105554081297" id="-37113">
		<tag k="name" v="Kvitingsodden" />
		<tag k="natural" v="cape" />
		<tag k="ssr:stedsnr" v="576607" />
	</node>
	<node lat="63.83329722171299" lon="9.44009444865613" id="-37114">
		<tag k="name" v="Bøtna" />
		<tag k="natural" v="shoal" />
		<tag k="place" v="locality" />
		<tag k="ssr:stedsnr" v="576610" />
	</node>
	<node lat="63.70298611281664" lon="9.757841670416573" id="-37120">
		<tag k="fixme" v="consider seamark:type=rock or natural=shoal" />
		<tag k="name" v="Sandskjæret" />
		<tag k="place" v="islet" />
		<tag k="ssr:stedsnr" v="576657" />
	</node>
	<node lat="63.85948332997891" lon="9.719144451079364" id="-37121">
		<tag k="fixme" v="consider seamark:type=rock or natural=shoal" />
		<tag k="name" v="Kobbskjæra" />
		<tag k="place" v="islet" />
		<tag k="ssr:stedsnr" v="576660" />
	</node>
	<node lat="63.80598610945319" lon="9.649963883168276" id="-37123">
		<tag k="name" v="Steinvikbukta" />
		<tag k="natural" v="bay" />
		<tag k="ssr:stedsnr" v="576510" />
	</node>
	<node lat="63.7564333375857" lon="9.612347215482343" id="-37124">
		<tag k="name" v="Engnesøra" />
		<tag k="natural" v="beach" />
		<tag k="ssr:stedsnr" v="576549" />
	</node>
	<node lat="63.96191388593983" lon="9.630627776316613" id="-37132">
		<tag k="name" v="Ytter Haglryggen" />
		<tag k="natural" v="shoal" />
		<tag k="place" v="locality" />
		<tag k="ssr:stedsnr" v="576747" />
	</node>
	<node lat="63.69994167078695" lon="9.37466388084768" id="-37139">
		<tag k="fixme" v="consider seamark:type=rock or natural=shoal" />
		<tag k="name" v="Søre Tørrskjæret" />
		<tag k="place" v="islet" />
		<tag k="ssr:stedsnr" v="577106" />
	</node>
	<node lat="63.9304111105357" lon="9.780577781716064" id="-37140">
		<tag k="name" v="Nautflua" />
		<tag k="natural" v="shoal" />
		<tag k="place" v="locality" />
		<tag k="ssr:stedsnr" v="578755" />
	</node>
	<node lat="63.66232192574526" lon="9.368977710032473" id="-37147">
		<tag k="name" v="Neset" />
		<tag k="natural" v="cape" />
		<tag k="ssr:stedsnr" v="580839" />
	</node>
	<node lat="63.67606110741124" lon="9.383705550229331" id="-37148">
		<tag k="name" v="Småholman" />
		<tag k="place" v="islet" />
		<tag k="ssr:stedsnr" v="580844" />
	</node>
	<node lat="63.67028055712234" lon="9.381102784295202" id="-37150">
		<tag k="name" v="Vadosen" />
		<tag k="natural" v="bay" />
		<tag k="ssr:stedsnr" v="580848" />
	</node>
	<node lat="63.70414444850044" lon="9.771136101491416" id="-37155">
		<tag k="fixme" v="consider seamark:type=rock or natural=shoal" />
		<tag k="name" v="Rosenlundskjæret" />
		<tag k="place" v="islet" />
		<tag k="ssr:stedsnr" v="581796" />
	</node>
	<node lat="63.650105554632766" lon="9.408233338226626" id="-37158">
		<tag k="name" v="Oksbåsneset" />
		<tag k="natural" v="cape" />
		<tag k="ssr:stedsnr" v="581811" />
	</node>
	<node lat="63.824194445990514" lon="9.43652221781255" id="-37163">
		<tag k="fixme" v="consider seamark:type=rock or natural=shoal" />
		<tag k="name" v="Nordbuskjæret" />
		<tag k="place" v="islet" />
		<tag k="ssr:stedsnr" v="697243" />
	</node>
	<node lat="63.89120833367313" lon="9.824880547278665" id="-37172">
		<tag k="name" v="Lysøyhundan" />
		<tag k="place" v="islet" />
		<tag k="ssr:stedsnr" v="698473" />
	</node>
	<node lat="63.88190832973373" lon="9.82540000254925" id="-37173">
		<tag k="name" v="Galdskjeret" />
		<tag k="natural" v="cape" />
		<tag k="ssr:stedsnr" v="698475" />
	</node>
	<node lat="63.958027773396005" lon="9.705097223844032" id="-37176">
		<tag k="name" v="Storfluen" />
		<tag k="natural" v="shoal" />
		<tag k="place" v="locality" />
		<tag k="ssr:stedsnr" v="697947" />
	</node>
	<node lat="63.941397220568625" lon="9.719266660566689" id="-37177">
		<tag k="name" v="Grunnfluen" />
		<tag k="natural" v="shoal" />
		<tag k="place" v="locality" />
		<tag k="ssr:stedsnr" v="697950" />
	</node>
	<node lat="63.77348055935386" lon="9.414380556310363" id="-37180">
		<tag k="name" v="Flatøybakken" />
		<tag k="natural" v="shoal" />
		<tag k="place" v="locality" />
		<tag k="ssr:stedsnr" v="698048" />
	</node>
	<node lat="63.80604722608099" lon="9.36399444691708" id="-37187">
		<tag k="name" v="Karlsøyflua" />
		<tag k="natural" v="shoal" />
		<tag k="place" v="locality" />
		<tag k="ssr:stedsnr" v="698174" />
	</node>
	<node lat="63.832344447179935" lon="9.420930548500198" id="-37189">
		<tag k="name" v="Kvitingen" />
		<tag k="place" v="islet" />
		<tag k="ssr:stedsnr" v="698179" />
	</node>
	<node lat="63.758841663734884" lon="9.447308343127599" id="-37190">
		<tag k="name" v="Tørrskjærflua" />
		<tag k="natural" v="shoal" />
		<tag k="place" v="locality" />
		<tag k="ssr:stedsnr" v="698187" />
	</node>
	<node lat="63.64510555663823" lon="9.464999998132917" id="-37202">
		<tag k="name" v="Sjøpungtaren" />
		<tag k="natural" v="shoal" />
		<tag k="place" v="locality" />
		<tag k="ssr:stedsnr" v="698443" />
	</node>
	<node lat="63.6491583334884" lon="9.459411103372707" id="-37203">
		<tag k="name" v="Oteroltaren" />
		<tag k="natural" v="shoal" />
		<tag k="place" v="locality" />
		<tag k="ssr:stedsnr" v="698445" />
	</node>
	<node lat="63.88377778005683" lon="9.793019442951701" id="-37210">
		<tag k="name" v="Maritvika" />
		<tag k="natural" v="bay" />
		<tag k="ssr:stedsnr" v="698635" />
	</node>
	<node lat="63.81687222118667" lon="9.693086119752813" id="-37214">
		<tag k="name" v="Jøvika" />
		<tag k="natural" v="bay" />
		<tag k="ssr:stedsnr" v="698677" />
	</node>
	<node lat="63.83760278066097" lon="9.776558328723539" id="-37218">
		<tag k="name" v="Vikabukta" />
		<tag k="natural" v="bay" />
		<tag k="ssr:stedsnr" v="698695" />
	</node>
	<node lat="63.83321110734489" lon="9.454177787801271" id="-37221">
		<tag k="fixme" v="consider seamark:type=rock or natural=shoal" />
		<tag k="name" v="Oddskjæret" />
		<tag k="place" v="islet" />
		<tag k="ssr:stedsnr" v="698581" />
	</node>
	<node lat="63.69672778224891" lon="9.50144166293152" id="-37237">
		<tag k="name" v="Håflua" />
		<tag k="natural" v="shoal" />
		<tag k="place" v="locality" />
		<tag k="ssr:stedsnr" v="699062" />
	</node>
	<node lat="63.843297226438494" lon="9.647197231372152" id="-37238">
		<tag k="name" v="Kråktaren" />
		<tag k="natural" v="shoal" />
		<tag k="place" v="locality" />
		<tag k="ssr:stedsnr" v="699333" />
	</node>
	<node lat="63.65843889231459" lon="9.320388880318612" id="-37239">
		<tag k="name" v="Bukkholmen" />
		<tag k="place" v="islet" />
		<tag k="ssr:stedsnr" v="699355" />
	</node>
	<node lat="63.67776389175277" lon="9.288630548185616" id="-37240">
		<tag k="name" v="Nordtaren" />
		<tag k="natural" v="shoal" />
		<tag k="place" v="locality" />
		<tag k="ssr:stedsnr" v="699361" />
	</node>
	<node lat="63.83816388947192" lon="9.802611107734132" id="-37243">
		<tag k="name" v="Nøklan" />
		<tag k="place" v="islet" />
		<tag k="ssr:stedsnr" v="619073" />
	</node>
	<node lat="63.82609166616678" lon="9.476533335452983" id="-37246">
		<tag k="name" v="Været" />
		<tag k="place" v="island" />
		<tag k="ssr:stedsnr" v="619682" />
	</node>
	<node lat="63.88299166790272" lon="9.66683055193759" id="-37255">
		<tag k="fixme" v="consider seamark:type=rock or natural=shoal" />
		<tag k="name" v="Flatskjæra" />
		<tag k="place" v="islet" />
		<tag k="ssr:stedsnr" v="620827" />
	</node>
	<node lat="63.647913890137794" lon="9.326863881265615" id="-37266">
		<tag k="name" v="Perholmen" />
		<tag k="place" v="islet" />
		<tag k="ssr:stedsnr" v="702749" />
	</node>
	<node lat="63.707058329697915" lon="9.779736112891863" id="-37267">
		<tag k="alt_name" v="Ottersbogen" />
		<tag k="name" v="Ottarsbubukta" />
		<tag k="natural" v="bay" />
		<tag k="ssr:stedsnr" v="702754" />
	</node>
	<node lat="63.68477777408586" lon="9.399497218486895" id="-37272">
		<tag k="fixme" v="consider seamark:type=rock or natural=shoal" />
		<tag k="name" v="Nubban" />
		<tag k="place" v="islet" />
		<tag k="ssr:stedsnr" v="702849" />
	</node>
	<node lat="63.71885112292806" lon="9.537970291397682" id="-37275">
		<tag k="name" v="Tørresholmen" />
		<tag k="place" v="islet" />
		<tag k="ssr:stedsnr" v="702877" />
	</node>
	<node lat="63.714241664275185" lon="9.532952779649014" id="-37278">
		<tag k="name" v="Gjesebukta" />
		<tag k="natural" v="bay" />
		<tag k="ssr:stedsnr" v="702954" />
	</node>
	<node lat="63.87697777366" lon="9.786830551317093" id="-37288">
		<tag k="name" v="Leiskjærflua" />
		<tag k="natural" v="shoal" />
		<tag k="place" v="locality" />
		<tag k="ssr:stedsnr" v="636105" />
	</node>
	<node lat="63.755447217870596" lon="9.713799992161933" id="-37303">
		<tag k="name" v="Ervikøra" />
		<tag k="natural" v="shoal" />
		<tag k="place" v="locality" />
		<tag k="ssr:stedsnr" v="636407" />
	</node>
	<node lat="63.75309167013103" lon="9.723386109491987" id="-37304">
		<tag k="name" v="Ervikstranda" />
		<tag k="natural" v="beach" />
		<tag k="ssr:stedsnr" v="636413" />
	</node>
	<node lat="63.762438887295474" lon="9.79745555160528" id="-37306">
		<tag k="name" v="Skafthammaren" />
		<tag k="natural" v="cape" />
		<tag k="ssr:stedsnr" v="636495" />
	</node>
	<node lat="63.82569444209328" lon="9.548538879895935" id="-37309">
		<tag k="fixme" v="consider seamark:type=rock or natural=shoal" />
		<tag k="name" v="Burøyskjæret" />
		<tag k="place" v="islet" />
		<tag k="ssr:stedsnr" v="636635" />
	</node>
	<node lat="63.88580833721369" lon="9.799283333559544" id="-37310">
		<tag k="name" v="Eabenken" />
		<tag k="natural" v="cape" />
		<tag k="ssr:stedsnr" v="636675" />
	</node>
	<node lat="63.87879166550897" lon="9.803319437248339" id="-37311">
		<tag k="name" v="Valholmen" />
		<tag k="place" v="islet" />
		<tag k="ssr:stedsnr" v="636677" />
	</node>
	<node lat="63.918375000747616" lon="9.702122219818346" id="-37316">
		<tag k="name" v="Ytter Leirbakkfalla" />
		<tag k="natural" v="shoal" />
		<tag k="place" v="locality" />
		<tag k="ssr:stedsnr" v="636731" />
	</node>
	<node lat="63.802591669508395" lon="9.515016663187149" id="-37318">
		<tag k="fixme" v="consider seamark:type=rock or natural=shoal" />
		<tag k="name" v="Undtarva" />
		<tag k="place" v="islet" />
		<tag k="ssr:stedsnr" v="637226" />
	</node>
	<node lat="63.796877773412234" lon="9.579419454257573" id="-37319">
		<tag k="name" v="Vettabåen" />
		<tag k="natural" v="shoal" />
		<tag k="place" v="locality" />
		<tag k="ssr:stedsnr" v="638226" />
	</node>
	<node lat="63.639336110618885" lon="9.434288892194399" id="-37325">
		<tag k="name" v="Daumannsvika" />
		<tag k="natural" v="bay" />
		<tag k="ssr:stedsnr" v="641805" />
	</node>
	<node lat="63.65239444155772" lon="9.556244442039313" id="-37327">
		<tag k="fixme" v="consider seamark:type=rock or natural=shoal" />
		<tag k="name" v="Rønsholmskjæret" />
		<tag k="place" v="islet" />
		<tag k="ssr:stedsnr" v="641927" />
	</node>
	<node lat="63.72821944419037" lon="9.602669444231612" id="-37330">
		<tag k="name" v="Likskjæret" />
		<tag k="natural" v="cape" />
		<tag k="ssr:stedsnr" v="641987" />
	</node>
	<node lat="63.857547225980426" lon="9.833277775269108" id="-37340">
		<tag k="name" v="Flatøya" />
		<tag k="place" v="islet" />
		<tag k="ssr:stedsnr" v="680124" />
	</node>
	<node lat="63.9000861080077" lon="9.918030556409338" id="-37343">
		<tag k="alt_name" v="Rognan;Rognen" />
		<tag k="name" v="Rogna" />
		<tag k="place" v="islet" />
		<tag k="ssr:stedsnr" v="680660" />
	</node>
	<node lat="63.90955555886575" lon="9.853263881831893" id="-37344">
		<tag k="fixme" v="consider seamark:type=rock or natural=shoal" />
		<tag k="name" v="Børskjæret" />
		<tag k="place" v="islet" />
		<tag k="ssr:stedsnr" v="680668" />
	</node>
	<node lat="63.82349167006984" lon="9.417916668684153" id="-37345">
		<tag k="alt_name" v="Valøy" />
		<tag k="name" v="Valøya" />
		<tag k="natural" v="cape" />
		<tag k="ssr:stedsnr" v="680704" />
	</node>
	<node lat="63.836761110071556" lon="9.503344435057535" id="-37346">
		<tag k="name" v="Tryggholmen" />
		<tag k="place" v="islet" />
		<tag k="ssr:stedsnr" v="680714" />
	</node>
	<node lat="63.6671499994931" lon="9.467219438937594" id="-37349">
		<tag k="name" v="Grandvika" />
		<tag k="natural" v="bay" />
		<tag k="ssr:stedsnr" v="895094" />
	</node>
	<node lat="63.99073055114014" lon="9.618605557968387" id="-37354">
		<tag k="name" v="Sør Avbregda" />
		<tag k="natural" v="shoal" />
		<tag k="place" v="locality" />
		<tag k="ssr:stedsnr" v="697705" />
	</node>
	<node lat="63.739488892135185" lon="9.888397225369642" id="-37366">
		<tag k="name" v="Garnesbukta" />
		<tag k="natural" v="bay" />
		<tag k="ssr:stedsnr" v="698421" />
	</node>
	<node lat="63.70946666251848" lon="9.530116665820167" id="-37369">
		<tag k="fixme" v="consider seamark:type=rock or natural=shoal" />
		<tag k="name" v="Hoøyskjæret" />
		<tag k="place" v="islet" />
		<tag k="ssr:stedsnr" v="698324" />
	</node>
	<node lat="63.891686111810344" lon="9.604002782184995" id="-37370">
		<tag k="name" v="Hørflua" />
		<tag k="natural" v="shoal" />
		<tag k="place" v="locality" />
		<tag k="ssr:stedsnr" v="698376" />
	</node>
	<node lat="63.87237777699058" lon="9.751097224372947" id="-37377">
		<tag k="name" v="Bremvika" />
		<tag k="natural" v="bay" />
		<tag k="ssr:stedsnr" v="698618" />
	</node>
	<node lat="63.87627777599811" lon="9.800166660570216" id="-37379">
		<tag k="name" v="Sør-Madsøybukta" />
		<tag k="natural" v="bay" />
		<tag k="ssr:stedsnr" v="698717" />
	</node>
	<node lat="63.862377773772955" lon="9.775969441204992" id="-37380">
		<tag k="fixme" v="consider seamark:type=rock or natural=shoal" />
		<tag k="name" v="Småskjæra" />
		<tag k="place" v="islet" />
		<tag k="ssr:stedsnr" v="698725" />
	</node>
	<node lat="63.81423888538553" lon="9.613708327195601" id="-37383">
		<tag k="name" v="Skåholmen" />
		<tag k="place" v="islet" />
		<tag k="ssr:stedsnr" v="698783" />
	</node>
	<node lat="63.83193055166656" lon="9.739844437806678" id="-37404">
		<tag k="alt_name" v="Flysjaskjæret" />
		<tag k="fixme" v="consider seamark:type=rock or natural=shoal" />
		<tag k="name" v="Kvislan" />
		<tag k="place" v="islet" />
		<tag k="ssr:stedsnr" v="741085" />
	</node>
	<node lat="63.72396944847579" lon="9.50623611864262" id="-37407">
		<tag k="alt_name" v="Flatøya" />
		<tag k="name" v="Litle Flatøya" />
		<tag k="place" v="islet" />
		<tag k="ssr:stedsnr" v="741210" />
	</node>
	<node lat="63.85755555149406" lon="9.762141664664993" id="-37409">
		<tag k="alt_name" v="Bergsfjordneset" />
		<tag k="name" v="Bålfjordnes" />
		<tag k="natural" v="cape" />
		<tag k="ssr:stedsnr" v="741146" />
	</node>
	<node lat="63.78164166252459" lon="9.383236117620452" id="-37415">
		<tag k="name" v="Annsteinen" />
		<tag k="place" v="islet" />
		<tag k="ssr:stedsnr" v="741705" />
	</node>
	<node lat="63.77890000124771" lon="9.367294439954511" id="-37417">
		<tag k="name" v="Valsholmen" />
		<tag k="place" v="islet" />
		<tag k="ssr:stedsnr" v="741711" />
	</node>
	<node lat="63.879063888715635" lon="9.602852771656737" id="-37419">
		<tag k="fixme" v="consider seamark:type=rock or natural=shoal" />
		<tag k="name" v="Storskjæra" />
		<tag k="place" v="islet" />
		<tag k="ssr:stedsnr" v="741881" />
	</node>
	<node lat="63.85014999735709" lon="9.602091671701949" id="-37420">
		<tag k="fixme" v="consider seamark:type=rock or natural=shoal" />
		<tag k="name" v="Medfjordskjæra" />
		<tag k="place" v="islet" />
		<tag k="ssr:stedsnr" v="741736" />
	</node>
	<node lat="63.686325003364956" lon="9.403677782774244" id="-37426">
		<tag k="name" v="Grønnmyrskjæra" />
		<tag k="place" v="islet" />
		<tag k="ssr:stedsnr" v="751574" />
	</node>
	<node lat="63.81403333077318" lon="9.397347223755064" id="-37435">
		<tag k="name" v="Stranda" />
		<tag k="natural" v="beach" />
		<tag k="ssr:stedsnr" v="758247" />
	</node>
	<node lat="63.82080278159171" lon="9.399974992769152" id="-37438">
		<tag k="fixme" v="consider seamark:type=rock or natural=shoal" />
		<tag k="name" v="Krona" />
		<tag k="place" v="islet" />
		<tag k="ssr:stedsnr" v="758253" />
	</node>
	<node lat="63.818097220233625" lon="9.398194448797218" id="-37439">
		<tag k="fixme" v="consider seamark:type=rock or natural=shoal" />
		<tag k="name" v="Gustavskjæret" />
		<tag k="place" v="islet" />
		<tag k="ssr:stedsnr" v="758254" />
	</node>
	<node lat="63.81848333223479" lon="9.515755556791975" id="-37440">
		<tag k="fixme" v="consider seamark:type=rock or natural=shoal" />
		<tag k="name" v="Bangskjæret" />
		<tag k="place" v="islet" />
		<tag k="ssr:stedsnr" v="758261" />
	</node>
	<node lat="63.75674166705312" lon="9.722202773241523" id="-37444">
		<tag k="name" v="Ospneshammaren" />
		<tag k="natural" v="cape" />
		<tag k="ssr:stedsnr" v="758448" />
	</node>
	<node lat="63.784319447230814" lon="9.363913894563774" id="-37446">
		<tag k="name" v="Brusværvalen" />
		<tag k="natural" v="strait" />
		<tag k="ssr:stedsnr" v="758148" />
	</node>
	<node lat="63.793816670870676" lon="9.594094448926606" id="-37447">
		<tag k="fixme" v="consider seamark:type=rock or natural=shoal" />
		<tag k="name" v="Larsskjæret" />
		<tag k="place" v="islet" />
		<tag k="ssr:stedsnr" v="758156" />
	</node>
	<node lat="63.810672220652826" lon="9.653519450105962" id="-37453">
		<tag k="name" v="Aunholmen" />
		<tag k="place" v="islet" />
		<tag k="ssr:stedsnr" v="758544" />
	</node>
	<node lat="63.76102777904144" lon="9.5871388986791" id="-37457">
		<tag k="name" v="Storsnelløra" />
		<tag k="natural" v="beach" />
		<tag k="ssr:stedsnr" v="758562" />
	</node>
	<node lat="63.85434722365305" lon="9.846997227309167" id="-37462">
		<tag k="name" v="Prestvika" />
		<tag k="natural" v="bay" />
		<tag k="ssr:stedsnr" v="758611" />
	</node>
	<node lat="63.86276388786341" lon="9.806669445294752" id="-37465">
		<tag k="name" v="Manndalsbukta" />
		<tag k="natural" v="bay" />
		<tag k="ssr:stedsnr" v="758652" />
	</node>
	<node lat="63.68134999997546" lon="9.321941674962247" id="-37468">
		<tag k="name" v="Skjåholmflua" />
		<tag k="natural" v="shoal" />
		<tag k="place" v="locality" />
		<tag k="ssr:stedsnr" v="759347" />
	</node>
	<node lat="63.64503055947676" lon="9.544291658602644" id="-37482">
		<tag k="name" v="Korsvika" />
		<tag k="natural" v="bay" />
		<tag k="ssr:stedsnr" v="763749" />
	</node>
	<node lat="63.65130555801782" lon="9.316452777667283" id="-37493">
		<tag k="name" v="Lyngøya" />
		<tag k="place" v="island" />
		<tag k="ssr:stedsnr" v="802070" />
	</node>
	<node lat="63.85093611100188" lon="9.851366663767633" id="-37504">
		<tag k="name" v="Brannøya" />
		<tag k="place" v="islet" />
		<tag k="ssr:stedsnr" v="802116" />
	</node>
	<node lat="63.85320555444144" lon="9.53221388975158" id="-37507">
		<tag k="fixme" v="consider seamark:type=rock or natural=shoal" />
		<tag k="name" v="Knubban" />
		<tag k="place" v="islet" />
		<tag k="ssr:stedsnr" v="802864" />
	</node>
	<node lat="63.856211110943725" lon="9.706572229282981" id="-37508">
		<tag k="alt_name" v="Storøy" />
		<tag k="name" v="Storøya" />
		<tag k="natural" v="cape" />
		<tag k="ssr:stedsnr" v="802865" />
	</node>
	<node lat="63.89032499775969" lon="9.666658331716599" id="-37509">
		<tag k="fixme" v="consider seamark:type=rock or natural=shoal" />
		<tag k="name" v="Seiskjæra" />
		<tag k="place" v="islet" />
		<tag k="ssr:stedsnr" v="802873" />
	</node>
	<node lat="63.998611112650735" lon="9.647222226421361" id="-37512">
		<tag k="name" v="Nord Avbregda" />
		<tag k="natural" v="shoal" />
		<tag k="place" v="locality" />
		<tag k="ssr:stedsnr" v="803962" />
	</node>
	<node lat="63.80809444370933" lon="9.543811118410856" id="-37514">
		<tag k="name" v="Markusflua" />
		<tag k="natural" v="shoal" />
		<tag k="place" v="locality" />
		<tag k="ssr:stedsnr" v="819228" />
	</node>
	<node lat="63.7746416644555" lon="9.513575002768658" id="-37515">
		<tag k="fixme" v="consider seamark:type=rock or natural=shoal" />
		<tag k="name" v="Taraskjæret" />
		<tag k="place" v="islet" />
		<tag k="ssr:stedsnr" v="819229" />
	</node>
	<node lat="63.748902777541474" lon="9.626361105546195" id="-37517">
		<tag k="name" v="Tønnølsflua" />
		<tag k="natural" v="shoal" />
		<tag k="place" v="locality" />
		<tag k="ssr:stedsnr" v="819237" />
	</node>
	<node lat="63.84070277784919" lon="9.675611104626528" id="-37520">
		<tag k="name" v="Nordneset" />
		<tag k="natural" v="cape" />
		<tag k="ssr:stedsnr" v="819511" />
	</node>
	<node lat="63.809913885966544" lon="9.65634999165497" id="-37521">
		<tag k="name" v="Aunbukta" />
		<tag k="natural" v="bay" />
		<tag k="ssr:stedsnr" v="819512" />
	</node>
	<node lat="63.758083335781365" lon="9.725236110160045" id="-37524">
		<tag k="fixme" v="consider seamark:type=rock or natural=shoal" />
		<tag k="name" v="Purka" />
		<tag k="place" v="islet" />
		<tag k="ssr:stedsnr" v="819419" />
	</node>
	<node lat="63.84642778099505" lon="9.63119444626368" id="-37526">
		<tag k="name" v="Medflua" />
		<tag k="natural" v="shoal" />
		<tag k="place" v="locality" />
		<tag k="ssr:stedsnr" v="819423" />
	</node>
	<node lat="63.73930832912585" lon="9.893180560439145" id="-37528">
		<tag k="name" v="Båtvikklubben" />
		<tag k="natural" v="cape" />
		<tag k="ssr:stedsnr" v="819471" />
	</node>
	<node lat="63.729424995727584" lon="9.88122222466495" id="-37529">
		<tag k="name" v="Saltneset" />
		<tag k="natural" v="cape" />
		<tag k="ssr:stedsnr" v="819473" />
	</node>
	<node lat="63.7834583307162" lon="10.1107388811732" id="-37535">
		<tag k="name" v="Pettersvikbukta" />
		<tag k="natural" v="bay" />
		<tag k="ssr:stedsnr" v="819619" />
	</node>
	<node lat="63.8615861119021" lon="9.832149999338256" id="-37537">
		<tag k="name" v="Litl-Flatøya" />
		<tag k="place" v="island" />
		<tag k="ssr:stedsnr" v="819621" />
	</node>
	<node lat="63.690572221810314" lon="9.732091658896616" id="-37538">
		<tag k="name" v="Skjegghaugflua" />
		<tag k="natural" v="shoal" />
		<tag k="place" v="locality" />
		<tag k="ssr:stedsnr" v="819668" />
	</node>
	<node lat="63.84434166274334" lon="9.8438138966098" id="-37541">
		<tag k="fixme" v="consider seamark:type=rock or natural=shoal" />
		<tag k="name" v="Kjellskjæret" />
		<tag k="place" v="islet" />
		<tag k="ssr:stedsnr" v="819578" />
	</node>
	<node lat="63.82345555589779" lon="9.767405564160628" id="-37548">
		<tag k="name" v="Purkvika" />
		<tag k="natural" v="bay" />
		<tag k="ssr:stedsnr" v="819812" />
	</node>
	<node lat="63.82189722049747" lon="9.624722228716418" id="-37549">
		<tag k="name" v="Hesvadholmen" />
		<tag k="place" v="islet" />
		<tag k="ssr:stedsnr" v="819822" />
	</node>
	<node lat="63.813452775452966" lon="9.618572222973969" id="-37550">
		<tag k="fixme" v="consider seamark:type=rock or natural=shoal" />
		<tag k="name" v="Gjemsøyskjæra" />
		<tag k="place" v="islet" />
		<tag k="ssr:stedsnr" v="819825" />
	</node>
	<node lat="63.933066667217275" lon="9.563913878822714" id="-37553">
		<tag k="name" v="Nordavindflua" />
		<tag k="natural" v="shoal" />
		<tag k="place" v="locality" />
		<tag k="ssr:stedsnr" v="819975" />
	</node>
	<node lat="63.65363611161854" lon="9.3669277794118" id="-37555">
		<tag k="name" v="Flatholmen" />
		<tag k="place" v="islet" />
		<tag k="ssr:stedsnr" v="820375" />
	</node>
	<node lat="63.66847222206929" lon="9.430897220547301" id="-37557">
		<tag k="fixme" v="multiple name tags, choose one and add the other to alt_name" />
		<tag k="name" v="Kåret;Tennvika" />
		<tag k="natural" v="bay" />
		<tag k="ssr:stedsnr" v="823809" />
	</node>
	<node lat="63.72621666243128" lon="9.578441663255008" id="-37558">
		<tag k="fixme" v="consider seamark:type=rock or natural=shoal" />
		<tag k="name" v="Rognskjæret" />
		<tag k="place" v="islet" />
		<tag k="ssr:stedsnr" v="823814" />
	</node>
	<node lat="63.656216667036674" lon="9.376549996036132" id="-37562">
		<tag k="name" v="Holmvalen" />
		<tag k="place" v="locality" />
		<tag k="ssr:stedsnr" v="824803" />
	</node>
	<node lat="63.680805555272826" lon="9.389733331359619" id="-37564">
		<tag k="name" v="Litldalhamna" />
		<tag k="place" v="islet" />
		<tag k="ssr:stedsnr" v="824809" />
	</node>
	<node lat="63.710224997460955" lon="9.450566660138877" id="-37572">
		<tag k="fixme" v="consider seamark:type=rock or natural=shoal" />
		<tag k="name" v="Kobbskjæra" />
		<tag k="place" v="islet" />
		<tag k="ssr:stedsnr" v="923018" />
	</node>
	<node lat="63.706322311710544" lon="9.340971075204452" id="-37574">
		<tag k="alt_name" v="Tårnet" />
		<tag k="name" v="Store Tårnet" />
		<tag k="place" v="islet" />
		<tag k="ssr:stedsnr" v="923027" />
	</node>
	<node lat="63.67770555286767" lon="9.279152769739158" id="-37579">
		<tag k="fixme" v="consider seamark:type=rock or natural=shoal" />
		<tag k="name" v="Uggsteinskjæra" />
		<tag k="place" v="islet" />
		<tag k="ssr:stedsnr" v="923040" />
	</node>
	<node lat="63.66924722336713" lon="9.2982027794034" id="-37580">
		<tag k="name" v="Uggsteinen" />
		<tag k="place" v="islet" />
		<tag k="ssr:stedsnr" v="923045" />
	</node>
	<node lat="63.67007500144229" lon="9.631147223340843" id="-37581">
		<tag k="fixme" v="consider seamark:type=rock or natural=shoal" />
		<tag k="name" v="Kannaskjæret" />
		<tag k="place" v="islet" />
		<tag k="ssr:stedsnr" v="923051" />
	</node>
	<node lat="63.655719441588595" lon="9.406680553354894" id="-37583">
		<tag k="name" v="Vågen" />
		<tag k="natural" v="bay" />
		<tag k="ssr:stedsnr" v="923064" />
	</node>
	<node lat="63.845238890453786" lon="9.53881389214813" id="-37591">
		<tag k="name" v="Oterholmen" />
		<tag k="place" v="islet" />
		<tag k="ssr:stedsnr" v="923692" />
	</node>
	<node lat="63.81248889325295" lon="9.420736103353686" id="-37592">
		<tag k="name" v="Tarva" />
		<tag k="place" v="island" />
		<tag k="ssr:stedsnr" v="923694" />
	</node>
	<node lat="63.88969166523845" lon="9.782297223988206" id="-37597">
		<tag k="name" v="Purkholmen" />
		<tag k="place" v="islet" />
		<tag k="ssr:stedsnr" v="923614" />
	</node>
	<node lat="63.806091665983864" lon="9.4835472257013" id="-37600">
		<tag k="name" v="Passholmen" />
		<tag k="place" v="islet" />
		<tag k="ssr:stedsnr" v="923659" />
	</node>
	<node lat="63.76793055750537" lon="9.572216672054477" id="-37602">
		<tag k="name" v="Festholmbukta" />
		<tag k="natural" v="bay" />
		<tag k="ssr:stedsnr" v="923755" />
	</node>
	<node lat="63.85475278107483" lon="9.695147225931713" id="-37604">
		<tag k="name" v="Halsøya" />
		<tag k="place" v="islet" />
		<tag k="ssr:stedsnr" v="923852" />
	</node>
	<node lat="63.89349166843534" lon="9.67646945424315" id="-37605">
		<tag k="name" v="Teistholman" />
		<tag k="place" v="islet" />
		<tag k="ssr:stedsnr" v="923856" />
	</node>
	<node lat="63.87175000233386" lon="9.759513899070416" id="-37610">
		<tag k="name" v="Malenevika" />
		<tag k="natural" v="bay" />
		<tag k="ssr:stedsnr" v="842424" />
	</node>
	<node lat="63.72041111108628" lon="9.549130556005643" id="-37614">
		<tag k="name" v="Neset" />
		<tag k="natural" v="cape" />
		<tag k="ssr:stedsnr" v="862018" />
	</node>
	<node lat="63.81369167071281" lon="9.461966662525805" id="-37616">
		<tag k="name" v="Fårøya" />
		<tag k="place" v="islet" />
		<tag k="ssr:stedsnr" v="862648" />
	</node>
	<node lat="63.8428305558458" lon="9.532566667827496" id="-37618">
		<tag k="fixme" v="consider seamark:type=rock or natural=shoal" />
		<tag k="name" v="Klauvskjæret" />
		<tag k="place" v="islet" />
		<tag k="ssr:stedsnr" v="862665" />
	</node>
	<node lat="63.85364444671881" lon="9.761669438754426" id="-37629">
		<tag k="name" v="Sandnesvågen" />
		<tag k="natural" v="bay" />
		<tag k="ssr:stedsnr" v="863113" />
	</node>
	<node lat="63.897441667802994" lon="9.801397225320848" id="-37632">
		<tag k="name" v="Persholmen" />
		<tag k="place" v="islet" />
		<tag k="ssr:stedsnr" v="863617" />
	</node>
	<node lat="63.64361388820124" lon="9.537041667004239" id="-37636">
		<tag k="name" v="Breivika" />
		<tag k="natural" v="bay" />
		<tag k="ssr:stedsnr" v="931479" />
	</node>
	<node lat="63.8209083297953" lon="9.694861115772479" id="-37640">
		<tag k="name" v="Kaukholet" />
		<tag k="natural" v="bay" />
		<tag k="ssr:stedsnr" v="880227" />
	</node>
	<node lat="63.66446666836677" lon="9.608213881681076" id="-37643">
		<tag k="name" v="Flustøtta" />
		<tag k="natural" v="shoal" />
		<tag k="place" v="locality" />
		<tag k="ssr:stedsnr" v="880353" />
	</node>
	<node lat="63.87325000006174" lon="9.748869445617697" id="-37645">
		<tag k="name" v="Mosholmen" />
		<tag k="place" v="islet" />
		<tag k="ssr:stedsnr" v="880363" />
	</node>
	<node lat="63.75396666495955" lon="9.681108325812362" id="-37647">
		<tag k="fixme" v="consider seamark:type=rock or natural=shoal" />
		<tag k="name" v="Kannaskjæret" />
		<tag k="place" v="islet" />
		<tag k="ssr:stedsnr" v="880369" />
	</node>
	<node lat="63.862719444915605" lon="9.620166675535817" id="-37649">
		<tag k="name" v="Litltaren" />
		<tag k="natural" v="shoal" />
		<tag k="place" v="locality" />
		<tag k="ssr:stedsnr" v="880402" />
	</node>
	<node lat="63.71886389083464" lon="9.847805558900465" id="-37655">
		<tag k="fixme" v="consider seamark:type=rock or natural=shoal" />
		<tag k="name" v="Seiskjæret" />
		<tag k="place" v="islet" />
		<tag k="ssr:stedsnr" v="880408" />
	</node>
	<node lat="63.85543055527773" lon="9.819208331707962" id="-37660">
		<tag k="fixme" v="consider seamark:type=rock or natural=shoal" />
		<tag k="name" v="Vedøyskjæret" />
		<tag k="place" v="islet" />
		<tag k="ssr:stedsnr" v="880615" />
	</node>
	<node lat="63.83787499931934" lon="9.91320554722505" id="-37666">
		<tag k="name" v="Krekkaneset" />
		<tag k="natural" v="cape" />
		<tag k="ssr:stedsnr" v="880714" />
	</node>
	<node lat="63.848900004073144" lon="9.700575007380532" id="-37668">
		<tag k="name" v="Ormhaugneset" />
		<tag k="natural" v="cape" />
		<tag k="ssr:stedsnr" v="880761" />
	</node>
	<node lat="63.84957222143699" lon="9.708216672440987" id="-37669">
		<tag k="name" v="Nausthylla" />
		<tag k="natural" v="cape" />
		<tag k="ssr:stedsnr" v="880764" />
	</node>
	<node lat="63.824658330855094" lon="9.760438894736803" id="-37671">
		<tag k="name" v="Kaldkleivneset" />
		<tag k="natural" v="cape" />
		<tag k="ssr:stedsnr" v="880801" />
	</node>
	<node lat="63.96467222445411" lon="9.5877277688768" id="-37679">
		<tag k="name" v="Korsholmen" />
		<tag k="place" v="islet" />
		<tag k="ssr:stedsnr" v="880957" />
	</node>
	<node lat="63.75026944287959" lon="9.960933325963428" id="-37681">
		<tag k="name" v="Søtvikflua" />
		<tag k="natural" v="shoal" />
		<tag k="place" v="locality" />
		<tag k="ssr:stedsnr" v="881553" />
	</node>
	<node lat="63.8646472194906" lon="9.810922224437036" id="-37704">
		<tag k="name" v="Digerneset" />
		<tag k="natural" v="cape" />
		<tag k="ssr:stedsnr" v="923144" />
	</node>
	<node lat="63.819172218288585" lon="11.107808335679117" id="-37707">
		<tag k="bay" v="fjord" />
		<tag k="name" v="Trondheimsfjorden" />
		<tag k="natural" v="bay" />
		<tag k="ssr:stedsnr" v="923078" />
	</node>
	<node lat="63.90048055497421" lon="9.734008341099576" id="-37712">
		<tag k="name" v="Årvær" />
		<tag k="place" v="islet" />
		<tag k="ssr:stedsnr" v="923627" />
	</node>
	<node lat="63.64209999810292" lon="9.33855555443557" id="-37735">
		<tag k="name" v="Båtvika" />
		<tag k="natural" v="bay" />
		<tag k="ssr:stedsnr" v="945832" />
	</node>
	<node lat="63.866697224472524" lon="9.879741661914869" id="-37749">
		<tag k="name" v="Holkeila" />
		<tag k="natural" v="bay" />
		<tag k="ssr:stedsnr" v="13137" />
	</node>
	<node lat="63.71831111463639" lon="9.836447219683945" id="-37754">
		<tag k="name" v="Småholmen" />
		<tag k="place" v="islet" />
		<tag k="ssr:stedsnr" v="13261" />
	</node>
	<node lat="63.89657222322208" lon="9.922822220656052" id="-37755">
		<tag k="name" v="Hestneset" />
		<tag k="natural" v="cape" />
		<tag k="ssr:stedsnr" v="13623" />
	</node>
	<node lat="63.7812277812373" lon="9.49289999236206" id="-37757">
		<tag k="bay" v="fjord" />
		<tag k="name" v="Tarvafjorden" />
		<tag k="natural" v="bay" />
		<tag k="ssr:stedsnr" v="13649" />
	</node>
	<node lat="63.83153611197195" lon="9.419152786227487" id="-37763">
		<tag k="name" v="Kvitingan" />
		<tag k="place" v="islet" />
		<tag k="ssr:stedsnr" v="13700" />
	</node>
	<node lat="63.85537499954721" lon="9.549930551671592" id="-37765">
		<tag k="fixme" v="consider seamark:type=rock or natural=shoal" />
		<tag k="name" v="Høgskjæra" />
		<tag k="place" v="islet" />
		<tag k="ssr:stedsnr" v="13830" />
	</node>
	<node lat="63.85748888810686" lon="9.683536108759428" id="-37766">
		<tag k="name" v="Torra" />
		<tag k="place" v="islet" />
		<tag k="ssr:stedsnr" v="13832" />
	</node>
	<node lat="63.82599722593849" lon="9.440744438665568" id="-37773">
		<tag k="alt_name" v="Hokka" />
		<tag k="fixme" v="consider seamark:type=rock or natural=shoal" />
		<tag k="name" v="Litl-Håkka" />
		<tag k="place" v="islet" />
		<tag k="ssr:stedsnr" v="30161" />
	</node>
	<node lat="63.74351388755865" lon="9.91014999495753" id="-37786">
		<tag k="name" v="Råddavika" />
		<tag k="natural" v="bay" />
		<tag k="ssr:stedsnr" v="30447" />
	</node>
	<node lat="63.73650555323577" lon="9.875566673178337" id="-37788">
		<tag k="name" v="Sanden" />
		<tag k="natural" v="beach" />
		<tag k="ssr:stedsnr" v="30454" />
	</node>
	<node lat="63.76484999612341" lon="9.76926388416923" id="-37789">
		<tag k="name" v="Grønvikmelen" />
		<tag k="natural" v="cape" />
		<tag k="ssr:stedsnr" v="30461" />
	</node>
	<node lat="63.82144444882739" lon="9.710283334051917" id="-37800">
		<tag k="name" v="Buvika" />
		<tag k="natural" v="bay" />
		<tag k="ssr:stedsnr" v="30395" />
	</node>
	<node lat="63.83807222583944" lon="9.905152780319671" id="-37806">
		<tag k="name" v="Vasslineset" />
		<tag k="natural" v="cape" />
		<tag k="ssr:stedsnr" v="30682" />
	</node>
	<node lat="63.85765000106075" lon="9.831358329754197" id="-37814">
		<tag k="name" v="Stor-Flatøya" />
		<tag k="place" v="island" />
		<tag k="ssr:stedsnr" v="30589" />
	</node>
	<node lat="63.87876944720866" lon="9.797091674912265" id="-37819">
		<tag k="fixme" v="consider seamark:type=rock or natural=shoal" />
		<tag k="name" v="Holmskjæret" />
		<tag k="place" v="islet" />
		<tag k="ssr:stedsnr" v="30653" />
	</node>
	<node lat="63.74999444638541" lon="9.92675832804078" id="-37822">
		<tag k="name" v="Vorpneset" />
		<tag k="natural" v="cape" />
		<tag k="ssr:stedsnr" v="30658" />
	</node>
	<node lat="63.8494361089681" lon="9.691469449568025" id="-37829">
		<tag k="name" v="Banvalen" />
		<tag k="place" v="islet" />
		<tag k="ssr:stedsnr" v="30749" />
	</node>
	<node lat="63.86135000090231" lon="9.797461102624714" id="-37830">
		<tag k="name" v="Kjempabukta" />
		<tag k="natural" v="bay" />
		<tag k="ssr:stedsnr" v="30755" />
	</node>
	<node lat="63.82059722063477" lon="9.654747215128047" id="-37831">
		<tag k="name" v="Litlkrinsholmen" />
		<tag k="place" v="islet" />
		<tag k="ssr:stedsnr" v="30763" />
	</node>
	<node lat="63.963605622405645" lon="9.58305917962534" id="-37837">
		<tag k="fixme" v="consider seamark:type=rock or natural=shoal" />
		<tag k="name" v="Tennskjæret" />
		<tag k="place" v="islet" />
		<tag k="ssr:stedsnr" v="30963" />
	</node>
	<node lat="63.94240833527977" lon="9.538394451638053" id="-37839">
		<tag k="name" v="Brattaren" />
		<tag k="natural" v="shoal" />
		<tag k="place" v="locality" />
		<tag k="ssr:stedsnr" v="30983" />
	</node>
	<node lat="63.82000833706266" lon="9.608041668175357" id="-37840">
		<tag k="fixme" v="consider seamark:type=rock or natural=shoal" />
		<tag k="name" v="Hauråsskjæret" />
		<tag k="place" v="islet" />
		<tag k="ssr:stedsnr" v="32184" />
	</node>
	<node lat="63.6874416659905" lon="9.404597223491587" id="-37852">
		<tag k="name" v="Smålyngholman" />
		<tag k="place" v="islet" />
		<tag k="ssr:stedsnr" v="34798" />
	</node>
	<node lat="63.72244166398355" lon="9.574236118933591" id="-37854">
		<tag k="name" v="Skarbukta" />
		<tag k="natural" v="bay" />
		<tag k="ssr:stedsnr" v="34839" />
	</node>
	<node lat="63.882291662382684" lon="9.749333324094675" id="-37892">
		<tag k="name" v="Lamholmen" />
		<tag k="place" v="islet" />
		<tag k="ssr:stedsnr" v="74580" />
	</node>
	<node lat="63.706352775201054" lon="9.049102781556769" id="-37893">
		<tag k="name" v="Frohavet" />
		<tag k="place" v="sea" />
		<tag k="ssr:stedsnr" v="74684" />
	</node>
	<node lat="63.94421388492326" lon="9.748252785747532" id="-37894">
		<tag k="alt_name" v="Auholmen, nordre" />
		<tag k="fixme" v="multiple name tags, choose one and add the other to alt_name" />
		<tag k="name" v="Nordre Auholmen;Ytre Auholmen" />
		<tag k="place" v="islet" />
		<tag k="ssr:stedsnr" v="74544" />
	</node>
	<node lat="63.850886109424124" lon="9.528466666820613" id="-37899">
		<tag k="name" v="Vågholmen" />
		<tag k="place" v="islet" />
		<tag k="ssr:stedsnr" v="74824" />
	</node>
	<node lat="63.79355833674036" lon="9.42786388118282" id="-37901">
		<tag k="name" v="Fårøya" />
		<tag k="place" v="islet" />
		<tag k="ssr:stedsnr" v="75843" />
	</node>
	<node lat="63.871194445053256" lon="9.787605552826525" id="-37902">
		<tag k="name" v="Rauskjerråsa" />
		<tag k="natural" v="strait" />
		<tag k="ssr:stedsnr" v="82171" />
	</node>
	<node lat="63.801055555503304" lon="9.368955555606973" id="-37907">
		<tag k="fixme" v="consider seamark:type=rock or natural=shoal" />
		<tag k="name" v="Karlsøyskjæra" />
		<tag k="place" v="islet" />
		<tag k="ssr:stedsnr" v="91187" />
	</node>
	<node lat="63.821422224746655" lon="9.416519434361199" id="-37910">
		<tag k="name" v="Mastervika" />
		<tag k="natural" v="bay" />
		<tag k="ssr:stedsnr" v="91203" />
	</node>
	<node lat="63.8251222243984" lon="9.446041659438496" id="-37911">
		<tag k="name" v="Skankflua" />
		<tag k="natural" v="shoal" />
		<tag k="place" v="locality" />
		<tag k="ssr:stedsnr" v="91212" />
	</node>
	<node lat="63.83483055622992" lon="9.635811116252071" id="-37918">
		<tag k="name" v="Litlflua" />
		<tag k="natural" v="shoal" />
		<tag k="place" v="locality" />
		<tag k="ssr:stedsnr" v="91438" />
	</node>
	<node lat="63.91561666819305" lon="9.794188880303977" id="-37923">
		<tag k="fixme" v="consider seamark:type=rock or natural=shoal" />
		<tag k="name" v="Håskallen" />
		<tag k="place" v="islet" />
		<tag k="ssr:stedsnr" v="91057" />
	</node>
	<node lat="63.798441667009335" lon="9.597580555562795" id="-37925">
		<tag k="fixme" v="consider seamark:type=rock or natural=shoal" />
		<tag k="name" v="Langskjæret" />
		<tag k="place" v="islet" />
		<tag k="ssr:stedsnr" v="91130" />
	</node>
	<node lat="63.965863885184326" lon="9.726019440061071" id="-37939">
		<tag k="fixme" v="consider seamark:type=rock or natural=shoal" />
		<tag k="name" v="Båan" />
		<tag k="place" v="islet" />
		<tag k="ssr:stedsnr" v="91961" />
	</node>
	<node lat="63.807097221214676" lon="9.642125003262834" id="-37940">
		<tag k="name" v="Mannbukta" />
		<tag k="natural" v="bay" />
		<tag k="ssr:stedsnr" v="91378" />
	</node>
	<node lat="63.880158334681305" lon="9.800852777544685" id="-37946">
		<tag k="name" v="Lyngholmen" />
		<tag k="place" v="islet" />
		<tag k="ssr:stedsnr" v="91671" />
	</node>
	<node lat="63.87888055830103" lon="9.776880553278282" id="-37947">
		<tag k="name" v="Svinøystøtta" />
		<tag k="place" v="locality" />
		<tag k="seamark:type" v="rock" />
		<tag k="ssr:stedsnr" v="91672" />
	</node>
	<node lat="63.89450000086729" lon="9.791850008518617" id="-37948">
		<tag k="name" v="Vondholmen" />
		<tag k="place" v="islet" />
		<tag k="ssr:stedsnr" v="91675" />
	</node>
	<node lat="63.86279444526142" lon="9.529527773929013" id="-37961">
		<tag k="name" v="Oddflua" />
		<tag k="natural" v="shoal" />
		<tag k="place" v="locality" />
		<tag k="ssr:stedsnr" v="91628" />
	</node>
	<node lat="63.86241388665219" lon="9.558816659913798" id="-37962">
		<tag k="name" v="Storflua" />
		<tag k="natural" v="shoal" />
		<tag k="place" v="locality" />
		<tag k="ssr:stedsnr" v="91630" />
	</node>
	<node lat="63.85281110982484" lon="9.767244438139462" id="-37974">
		<tag k="name" v="Øsefjæra" />
		<tag k="natural" v="shoal" />
		<tag k="place" v="locality" />
		<tag k="ssr:stedsnr" v="91735" />
	</node>
	<node lat="63.66094166913432" lon="9.440875003860857" id="-37986">
		<tag k="name" v="Kilflua" />
		<tag k="natural" v="shoal" />
		<tag k="place" v="locality" />
		<tag k="ssr:stedsnr" v="92485" />
	</node>
	<node lat="63.672238887221866" lon="9.292413885591213" id="-37987">
		<tag k="name" v="Litleflua" />
		<tag k="natural" v="shoal" />
		<tag k="place" v="locality" />
		<tag k="ssr:stedsnr" v="92362" />
	</node>
	<node lat="63.7112416655062" lon="9.359941665482246" id="-37988">
		<tag k="name" v="Vettabåen" />
		<tag k="natural" v="shoal" />
		<tag k="place" v="locality" />
		<tag k="ssr:stedsnr" v="92428" />
	</node>
	<node lat="63.63456944891896" lon="9.32371666608876" id="-37991">
		<tag k="fixme" v="consider seamark:type=rock or natural=shoal" />
		<tag k="name" v="Tennskjeret" />
		<tag k="place" v="islet" />
		<tag k="ssr:stedsnr" v="95828" />
	</node>
	<node lat="63.650486109504406" lon="9.323366672520008" id="-37992">
		<tag k="name" v="Valholmen" />
		<tag k="place" v="islet" />
		<tag k="ssr:stedsnr" v="95829" />
	</node>
	<node lat="63.747663890870925" lon="9.683150003493951" id="-37997">
		<tag k="name" v="Maritbukta" />
		<tag k="natural" v="bay" />
		<tag k="ssr:stedsnr" v="96749" />
	</node>
	<node lat="63.65433610718827" lon="9.358491663728143" id="-37999">
		<tag k="name" v="Svaet" />
		<tag k="natural" v="strait" />
		<tag k="ssr:stedsnr" v="96787" />
	</node>
	<node lat="63.86698055576691" lon="9.833211115612272" id="-38014">
		<tag k="name" v="Høgholmen" />
		<tag k="place" v="islet" />
		<tag k="ssr:stedsnr" v="134145" />
	</node>
	<node lat="63.82726944589902" lon="9.740533339399331" id="-38018">
		<tag k="name" v="Gravdalsholmen" />
		<tag k="place" v="islet" />
		<tag k="ssr:stedsnr" v="134088" />
	</node>
	<node lat="63.84168611429584" lon="9.803430548511201" id="-38019">
		<tag k="name" v="Rønningsbukta" />
		<tag k="natural" v="bay" />
		<tag k="ssr:stedsnr" v="134097" />
	</node>
	<node lat="63.64915277742792" lon="9.342677778461004" id="-38020">
		<tag k="alt_name" v="Kråkvågneset" />
		<tag k="name" v="Neset" />
		<tag k="natural" v="cape" />
		<tag k="ssr:stedsnr" v="134200" />
	</node>
	<node lat="63.88376388534946" lon="9.945516673497357" id="-38028">
		<tag k="name" v="Oldøya" />
		<tag k="place" v="islet" />
		<tag k="ssr:stedsnr" v="134624" />
	</node>
	<node lat="63.87948611504645" lon="9.94761111180166" id="-38029">
		<tag k="bay" v="fjord" />
		<tag k="name" v="Oldfjorden" />
		<tag k="natural" v="bay" />
		<tag k="ssr:stedsnr" v="134626" />
	</node>
	<node lat="63.88924444004929" lon="9.836741667759375" id="-38030">
		<tag k="name" v="Lysøya" />
		<tag k="place" v="island" />
		<tag k="ssr:stedsnr" v="134628" />
	</node>
	<node lat="63.89731666481836" lon="9.910524990129801" id="-38031">
		<tag k="fixme" v="consider seamark:type=rock or natural=shoal" />
		<tag k="name" v="Rognsteinan" />
		<tag k="place" v="islet" />
		<tag k="ssr:stedsnr" v="134643" />
	</node>
	<node lat="63.80523593704498" lon="9.409527898576034" id="-38033">
		<tag k="alt_name" v="Resøya" />
		<tag k="name" v="Husøya" />
		<tag k="place" v="island" />
		<tag k="ssr:stedsnr" v="134674" />
	</node>
	<node lat="63.821172217956175" lon="9.415505558664952" id="-38034">
		<tag k="name" v="Valøyvågen" />
		<tag k="natural" v="bay" />
		<tag k="ssr:stedsnr" v="134688" />
	</node>
	<node lat="63.809569441612744" lon="9.636988879379953" id="-38037">
		<tag k="bay" v="fjord" />
		<tag k="name" v="Valsfjorden" />
		<tag k="natural" v="bay" />
		<tag k="ssr:stedsnr" v="134692" />
	</node>
	<node lat="63.82261944874278" lon="9.710138892549791" id="-38038">
		<tag k="bay" v="fjord" />
		<tag k="name" v="Koet" />
		<tag k="natural" v="bay" />
		<tag k="ssr:stedsnr" v="134693" />
	</node>
	<node lat="63.84634722362802" lon="9.676861102935355" id="-38039">
		<tag k="name" v="Naglen" />
		<tag k="place" v="islet" />
		<tag k="ssr:stedsnr" v="134698" />
	</node>
	<node lat="63.863794444211536" lon="9.592638882413137" id="-38040">
		<tag k="fixme" v="consider seamark:type=rock or natural=shoal" />
		<tag k="name" v="Svartskjæret" />
		<tag k="place" v="islet" />
		<tag k="ssr:stedsnr" v="134850" />
	</node>
	<node lat="63.936874995803656" lon="9.759888898529042" id="-38041">
		<tag k="name" v="Nautsundet" />
		<tag k="natural" v="strait" />
		<tag k="ssr:stedsnr" v="135515" />
	</node>
	<node lat="63.88213888998656" lon="9.964802775977127" id="-38043">
		<tag k="alt_name" v="Gjøvika" />
		<tag k="name" v="Jøvika" />
		<tag k="natural" v="bay" />
		<tag k="ssr:stedsnr" v="135781" />
	</node>
	<node lat="63.851566670262606" lon="9.67613334230458" id="-38044">
		<tag k="name" v="Torraflua" />
		<tag k="natural" v="shoal" />
		<tag k="place" v="locality" />
		<tag k="ssr:stedsnr" v="151420" />
	</node>
	<node lat="63.89148333596772" lon="9.57670554936025" id="-38047">
		<tag k="name" v="Tristeingrunnen" />
		<tag k="natural" v="shoal" />
		<tag k="place" v="locality" />
		<tag k="ssr:stedsnr" v="151440" />
	</node>
	<node lat="63.83657222325675" lon="9.779802773328775" id="-38051">
		<tag k="name" v="Vikagrunnen" />
		<tag k="natural" v="shoal" />
		<tag k="place" v="locality" />
		<tag k="ssr:stedsnr" v="151731" />
	</node>
	<node lat="63.87666667120097" lon="9.797711102156592" id="-38053">
		<tag k="name" v="Holmtåa" />
		<tag k="natural" v="cape" />
		<tag k="ssr:stedsnr" v="151748" />
	</node>
	<node lat="63.74972778002646" lon="9.692975000576414" id="-38064">
		<tag k="name" v="Nervikstranda" />
		<tag k="natural" v="beach" />
		<tag k="ssr:stedsnr" v="151323" />
	</node>
	<node lat="63.792952774231125" lon="9.382166658770862" id="-38071">
		<tag k="fixme" v="consider seamark:type=rock or natural=shoal" />
		<tag k="name" v="Karlsøyskjæret" />
		<tag k="place" v="islet" />
		<tag k="ssr:stedsnr" v="151196" />
	</node>
	<node lat="63.8071361112194" lon="9.373474992218078" id="-38072">
		<tag k="fixme" v="consider seamark:type=rock or natural=shoal" />
		<tag k="name" v="Hegersteinskjæra" />
		<tag k="place" v="islet" />
		<tag k="ssr:stedsnr" v="151199" />
	</node>
	<node lat="63.788388886973614" lon="9.412833332727494" id="-38073">
		<tag k="name" v="Tryggholmen" />
		<tag k="place" v="islet" />
		<tag k="ssr:stedsnr" v="151200" />
	</node>
	<node lat="63.89287777805421" lon="9.944444450469517" id="-38088">
		<tag k="name" v="Tiltremsstranda" />
		<tag k="natural" v="beach" />
		<tag k="ssr:stedsnr" v="151550" />
	</node>
	<node lat="63.84814166964903" lon="9.48492221218659" id="-38090">
		<tag k="name" v="Balan" />
		<tag k="natural" v="shoal" />
		<tag k="place" v="locality" />
		<tag k="ssr:stedsnr" v="151602" />
	</node>
	<node lat="63.783888890454115" lon="10.11953056489992" id="-38092">
		<tag k="name" v="Keila" />
		<tag k="natural" v="bay" />
		<tag k="ssr:stedsnr" v="151607" />
	</node>
	<node lat="63.8696361121841" lon="9.767913893134148" id="-38094">
		<tag k="name" v="Toskillingen" />
		<tag k="place" v="islet" />
		<tag k="ssr:stedsnr" v="151624" />
	</node>
	<node lat="63.654455559047236" lon="9.583116666748646" id="-38099">
		<tag k="name" v="Vorpholmflua" />
		<tag k="natural" v="shoal" />
		<tag k="place" v="locality" />
		<tag k="ssr:stedsnr" v="151396" />
	</node>
	<node lat="63.641805553227385" lon="9.458708335579946" id="-38102">
		<tag k="fixme" v="consider seamark:type=rock or natural=shoal" />
		<tag k="name" v="Vågskjæret" />
		<tag k="place" v="islet" />
		<tag k="ssr:stedsnr" v="151495" />
	</node>
	<node lat="63.849524996171745" lon="9.847919452537658" id="-38104">
		<tag k="name" v="Brandøyholmen" />
		<tag k="place" v="islet" />
		<tag k="ssr:stedsnr" v="151574" />
	</node>
	<node lat="63.854383329732606" lon="9.854580564170938" id="-38107">
		<tag k="name" v="Korssundet" />
		<tag k="natural" v="strait" />
		<tag k="ssr:stedsnr" v="151579" />
	</node>
	<node lat="63.864619441581496" lon="9.848691657211804" id="-38108">
		<tag k="name" v="Gammelnaustbukta" />
		<tag k="natural" v="bay" />
		<tag k="ssr:stedsnr" v="151599" />
	</node>
	<node lat="63.86458611279351" lon="9.777808328522942" id="-38113">
		<tag k="name" v="Høgholmen" />
		<tag k="place" v="islet" />
		<tag k="ssr:stedsnr" v="151761" />
	</node>
	<node lat="63.819774997843076" lon="9.661400004194101" id="-38114">
		<tag k="name" v="Storkrinsholmen" />
		<tag k="place" v="islet" />
		<tag k="ssr:stedsnr" v="151769" />
	</node>
	<node lat="63.83076944829161" lon="9.786783338767037" id="-38115">
		<tag k="name" v="Sundsetodden" />
		<tag k="natural" v="cape" />
		<tag k="ssr:stedsnr" v="151810" />
	</node>
	<node lat="63.82380833601616" lon="9.632161111803047" id="-38117">
		<tag k="name" v="Vågabukta" />
		<tag k="natural" v="bay" />
		<tag k="ssr:stedsnr" v="151826" />
	</node>
	<node lat="63.815383330039964" lon="9.613116665441172" id="-38119">
		<tag k="fixme" v="consider seamark:type=rock or natural=shoal" />
		<tag k="name" v="Eleseusskjæret" />
		<tag k="place" v="islet" />
		<tag k="ssr:stedsnr" v="151830" />
	</node>
	<node lat="63.80997499671135" lon="9.460322219803533" id="-38123">
		<tag k="name" v="Litl Svinøya" />
		<tag k="place" v="islet" />
		<tag k="ssr:stedsnr" v="152220" />
	</node>
	<node lat="63.970133333140986" lon="9.601524992541004" id="-38126">
		<tag k="fixme" v="consider seamark:type=rock or natural=shoal" />
		<tag k="name" v="Kråka" />
		<tag k="place" v="islet" />
		<tag k="ssr:stedsnr" v="151965" />
	</node>
	<node lat="63.98439444805968" lon="9.603772223054483" id="-38127">
		<tag k="name" v="Oddtaren" />
		<tag k="natural" v="shoal" />
		<tag k="place" v="locality" />
		<tag k="ssr:stedsnr" v="151969" />
	</node>
	<node lat="63.736663890983834" lon="9.884836116630268" id="-38128">
		<tag k="name" v="Kjerkfluen" />
		<tag k="natural" v="shoal" />
		<tag k="place" v="locality" />
		<tag k="ssr:stedsnr" v="152546" />
	</node>
	<node lat="63.85680555478186" lon="9.768041667863132" id="-38129">
		<tag k="fixme" v="consider seamark:type=rock or natural=shoal" />
		<tag k="name" v="Fauskaskjæret" />
		<tag k="place" v="islet" />
		<tag k="ssr:stedsnr" v="153961" />
	</node>
	<node lat="63.63847222539044" lon="9.34301389404052" id="-38139">
		<tag k="name" v="Stabbursholmen" />
		<tag k="place" v="islet" />
		<tag k="ssr:stedsnr" v="156776" />
	</node>
	<node lat="63.73247221882815" lon="9.621597227309397" id="-38143">
		<tag k="name" v="Litlkråka" />
		<tag k="natural" v="cape" />
		<tag k="ssr:stedsnr" v="156738" />
	</node>
	<node lat="63.65256389143625" lon="9.576050001950534" id="-38158">
		<tag k="name" v="Vorpholmen" />
		<tag k="place" v="islet" />
		<tag k="ssr:stedsnr" v="195049" />
	</node>
	<node lat="63.73579166719333" lon="9.50547500719754" id="-38160">
		<tag k="name" v="Kisteinen" />
		<tag k="place" v="islet" />
		<tag k="ssr:stedsnr" v="195011" />
	</node>
	<node lat="63.71863611101265" lon="9.478127785809702" id="-38163">
		<tag k="name" v="Juldagan" />
		<tag k="place" v="islet" />
		<tag k="ssr:stedsnr" v="195019" />
	</node>
	<node lat="63.7100999990663" lon="9.863766665793058" id="-38184">
		<tag k="bay" v="fjord" />
		<tag k="name" v="Stjørnfjorden" />
		<tag k="natural" v="bay" />
		<tag k="ssr:stedsnr" v="195268" />
	</node>
	<node lat="63.78270000120627" lon="9.36559999678226" id="-38189">
		<tag k="name" v="Brusværet" />
		<tag k="place" v="islet" />
		<tag k="ssr:stedsnr" v="195656" />
	</node>
	<node lat="63.79159444457346" lon="9.382336118649711" id="-38190">
		<tag k="name" v="Karlsøyvalen" />
		<tag k="natural" v="strait" />
		<tag k="ssr:stedsnr" v="195662" />
	</node>
	<node lat="63.84986111376096" lon="9.571786105252967" id="-38196">
		<tag k="fixme" v="consider seamark:type=rock or natural=shoal" />
		<tag k="name" v="Kronborgskjæra" />
		<tag k="place" v="islet" />
		<tag k="ssr:stedsnr" v="195689" />
	</node>
	<node lat="63.867238889073306" lon="9.709149999183664" id="-38199">
		<tag k="name" v="Litlkvaløya" />
		<tag k="place" v="islet" />
		<tag k="ssr:stedsnr" v="195834" />
	</node>
	<node lat="63.90871388729652" lon="9.527008323984962" id="-38200">
		<tag k="name" v="Kopparfluen" />
		<tag k="natural" v="shoal" />
		<tag k="place" v="locality" />
		<tag k="ssr:stedsnr" v="195837" />
	</node>
	<node lat="63.945097223336255" lon="9.557933342616094" id="-38201">
		<tag k="name" v="Annsteinen" />
		<tag k="place" v="islet" />
		<tag k="ssr:stedsnr" v="195839" />
	</node>
	<node lat="63.88149722308621" lon="9.692447229816237" id="-38202">
		<tag k="name" v="Gjæsingholman" />
		<tag k="place" v="islet" />
		<tag k="ssr:stedsnr" v="195847" />
	</node>
	<node lat="63.9106250036492" lon="9.788138890551615" id="-38205">
		<tag k="name" v="Lønntaren" />
		<tag k="natural" v="shoal" />
		<tag k="place" v="locality" />
		<tag k="ssr:stedsnr" v="273065" />
	</node>
	<node lat="63.9087305581095" lon="9.814272227439362" id="-38206">
		<tag k="name" v="Lørdagsflua" />
		<tag k="natural" v="shoal" />
		<tag k="place" v="locality" />
		<tag k="ssr:stedsnr" v="273067" />
	</node>
	<node lat="63.91168889095079" lon="9.800541663896956" id="-38208">
		<tag k="name" v="Flatøygrunnan" />
		<tag k="natural" v="shoal" />
		<tag k="place" v="locality" />
		<tag k="ssr:stedsnr" v="273070" />
	</node>
	<node lat="63.78282499917631" lon="9.37195833569999" id="-38209">
		<tag k="name" v="Brusværholmen" />
		<tag k="place" v="islet" />
		<tag k="ssr:stedsnr" v="273134" />
	</node>
	<node lat="63.79499722611573" lon="9.42543332961567" id="-38214">
		<tag k="name" v="Tunga" />
		<tag k="place" v="island" />
		<tag k="ssr:stedsnr" v="212172" />
	</node>
	<node lat="63.862536107671026" lon="9.85744166326036" id="-38224">
		<tag k="name" v="Leikvangbukta" />
		<tag k="natural" v="bay" />
		<tag k="ssr:stedsnr" v="212359" />
	</node>
	<node lat="63.83501666282392" lon="9.613661114972231" id="-38228">
		<tag k="name" v="Hestvadfluen" />
		<tag k="natural" v="shoal" />
		<tag k="place" v="locality" />
		<tag k="ssr:stedsnr" v="212415" />
	</node>
	<node lat="63.719138893083056" lon="9.850083338481422" id="-38230">
		<tag k="name" v="Trillsteinvika" />
		<tag k="natural" v="bay" />
		<tag k="ssr:stedsnr" v="212422" />
	</node>
	<node lat="63.84227500082909" lon="9.473597220212497" id="-38233">
		<tag k="name" v="Langtaren" />
		<tag k="natural" v="shoal" />
		<tag k="place" v="locality" />
		<tag k="ssr:stedsnr" v="212600" />
	</node>
	<node lat="63.891616664724985" lon="9.890119441549238" id="-38235">
		<tag k="name" v="Håmannvika" />
		<tag k="natural" v="bay" />
		<tag k="ssr:stedsnr" v="212617" />
	</node>
	<node lat="63.88382499794033" lon="9.58408332442704" id="-38239">
		<tag k="name" v="Seiskjærfluen" />
		<tag k="natural" v="shoal" />
		<tag k="place" v="locality" />
		<tag k="ssr:stedsnr" v="212426" />
	</node>
	<node lat="63.893911111504806" lon="9.645805552529595" id="-38241">
		<tag k="name" v="Stabbflua" />
		<tag k="natural" v="shoal" />
		<tag k="place" v="locality" />
		<tag k="ssr:stedsnr" v="212436" />
	</node>
	<node lat="63.851655551659924" lon="9.84140833007332" id="-38250">
		<tag k="name" v="Korssundet" />
		<tag k="natural" v="strait" />
		<tag k="ssr:stedsnr" v="212562" />
	</node>
	<node lat="63.861652781498684" lon="9.792833331199578" id="-38264">
		<tag k="name" v="Veianeset" />
		<tag k="natural" v="cape" />
		<tag k="ssr:stedsnr" v="212753" />
	</node>
	<node lat="63.908938886956456" lon="9.656991667648862" id="-38272">
		<tag k="name" v="Litlgrunnen" />
		<tag k="natural" v="shoal" />
		<tag k="place" v="locality" />
		<tag k="ssr:stedsnr" v="212951" />
	</node>
	<node lat="63.6469444401453" lon="9.496463887133537" id="-38274">
		<tag k="alt_name" v="Kanaskjæret" />
		<tag k="fixme" v="consider seamark:type=rock or natural=shoal" />
		<tag k="name" v="Kanvasskjæret" />
		<tag k="place" v="islet" />
		<tag k="ssr:stedsnr" v="213301" />
	</node>
	<node lat="63.79616111181746" lon="9.60216110864716" id="-38276">
		<tag k="fixme" v="consider seamark:type=rock or natural=shoal" />
		<tag k="name" v="Raudskjæret" />
		<tag k="place" v="islet" />
		<tag k="ssr:stedsnr" v="213144" />
	</node>
	<node lat="63.80038333392662" lon="9.473077771331187" id="-38278">
		<tag k="name" v="Gjelværhauflua" />
		<tag k="natural" v="shoal" />
		<tag k="place" v="locality" />
		<tag k="ssr:stedsnr" v="213236" />
	</node>
	<node lat="63.70583888462454" lon="9.350141657540672" id="-38279">
		<tag k="name" v="Langtaren" />
		<tag k="natural" v="shoal" />
		<tag k="place" v="locality" />
		<tag k="ssr:stedsnr" v="213461" />
	</node>
	<node lat="63.68016111048547" lon="9.4324999900462" id="-38283">
		<tag k="name" v="Markneset" />
		<tag k="natural" v="cape" />
		<tag k="ssr:stedsnr" v="216833" />
	</node>
	<node lat="63.728844446201585" lon="9.603613898698459" id="-38285">
		<tag k="fixme" v="consider seamark:type=rock or natural=shoal" />
		<tag k="name" v="Likskjærstøtta" />
		<tag k="place" v="islet" />
		<tag k="ssr:stedsnr" v="216852" />
	</node>
	<node lat="63.63978333244227" lon="9.323775003446348" id="-38287">
		<tag k="name" v="Hestneset" />
		<tag k="natural" v="cape" />
		<tag k="ssr:stedsnr" v="216819" />
	</node>
	<node lat="63.72365277561681" lon="9.583186105146662" id="-38288">
		<tag k="name" v="Rundøra" />
		<tag k="natural" v="beach" />
		<tag k="ssr:stedsnr" v="216997" />
	</node>
	<node lat="63.79208333744864" lon="9.486433339447967" id="-38298">
		<tag k="name" v="Tørrisholmflua" />
		<tag k="natural" v="shoal" />
		<tag k="place" v="locality" />
		<tag k="ssr:stedsnr" v="273231" />
	</node>
	<node lat="63.734269444945696" lon="9.548263880889738" id="-38306">
		<tag k="name" v="Nygrunnen" />
		<tag k="natural" v="shoal" />
		<tag k="place" v="locality" />
		<tag k="ssr:stedsnr" v="273352" />
	</node>
	<node lat="63.88563055238747" lon="9.835358336139501" id="-38307">
		<tag k="name" v="Eidsbukta" />
		<tag k="natural" v="bay" />
		<tag k="ssr:stedsnr" v="273356" />
	</node>
	<node lat="63.856594440351145" lon="9.732344454473004" id="-38311">
		<tag k="fixme" v="consider seamark:type=rock or natural=shoal" />
		<tag k="name" v="Bryggskjæret" />
		<tag k="place" v="islet" />
		<tag k="ssr:stedsnr" v="273316" />
	</node>
	<node lat="63.76001110949426" lon="9.735563886140234" id="-38313">
		<tag k="name" v="Kjerkøra" />
		<tag k="natural" v="shoal" />
		<tag k="place" v="locality" />
		<tag k="ssr:stedsnr" v="273400" />
	</node>
	<node lat="63.86963333162009" lon="9.734102770427533" id="-38341">
		<tag k="name" v="Gryta" />
		<tag k="natural" v="bay" />
		<tag k="ssr:stedsnr" v="273663" />
	</node>
	<node lat="63.85853611268803" lon="9.732683341171214" id="-38343">
		<tag k="name" v="Kortneset" />
		<tag k="natural" v="cape" />
		<tag k="ssr:stedsnr" v="273669" />
	</node>
	<node lat="63.82141666596823" lon="9.701450006307494" id="-38345">
		<tag k="name" v="Grimstranda" />
		<tag k="natural" v="beach" />
		<tag k="ssr:stedsnr" v="273736" />
	</node>
	<node lat="63.84841666900253" lon="9.742205554323874" id="-38347">
		<tag k="name" v="Bålfjordvågen" />
		<tag k="natural" v="bay" />
		<tag k="ssr:stedsnr" v="273751" />
	</node>
	<node lat="63.872727775548405" lon="9.793730558574106" id="-38348">
		<tag k="fixme" v="consider seamark:type=rock or natural=shoal" />
		<tag k="name" v="Ørnvikskjæra" />
		<tag k="place" v="islet" />
		<tag k="ssr:stedsnr" v="273758" />
	</node>
	<node lat="63.86939166295602" lon="9.782508323746063" id="-38350">
		<tag k="fixme" v="consider seamark:type=rock or natural=shoal" />
		<tag k="name" v="Raudskjæret" />
		<tag k="place" v="islet" />
		<tag k="ssr:stedsnr" v="273770" />
	</node>
	<node lat="63.63899167073736" lon="9.494002774371518" id="-38361">
		<tag k="name" v="Nebbtaren" />
		<tag k="natural" v="shoal" />
		<tag k="place" v="locality" />
		<tag k="ssr:stedsnr" v="274253" />
	</node>
	<node lat="63.63838333454893" lon="9.46169722473042" id="-38362">
		<tag k="fixme" v="consider seamark:type=rock or natural=shoal" />
		<tag k="name" v="Eliasskjæret" />
		<tag k="place" v="islet" />
		<tag k="ssr:stedsnr" v="274256" />
	</node>
	<node lat="63.64138610888431" lon="9.409461118635146" id="-38364">
		<tag k="name" v="Storsundtaren" />
		<tag k="natural" v="shoal" />
		<tag k="place" v="locality" />
		<tag k="ssr:stedsnr" v="274353" />
	</node>
	<node lat="63.812197223332845" lon="9.58280277179477" id="-38365">
		<tag k="name" v="Valsholmflua" />
		<tag k="place" v="locality" />
		<tag k="seamark:type" v="rock" />
		<tag k="ssr:stedsnr" v="275232" />
	</node>
	<node lat="63.76146944439833" lon="9.457383327189627" id="-38366">
		<tag k="fixme" v="consider seamark:type=rock or natural=shoal" />
		<tag k="name" v="Tørrskjæret" />
		<tag k="place" v="islet" />
		<tag k="ssr:stedsnr" v="275255" />
	</node>
	<node lat="63.71182777931615" lon="9.535827771952853" id="-38381">
		<tag k="name" v="Nordbukta" />
		<tag k="natural" v="bay" />
		<tag k="ssr:stedsnr" v="278881" />
	</node>
	<node lat="63.66359444500714" lon="9.548191662072533" id="-38384">
		<tag k="fixme" v="consider seamark:type=rock or natural=shoal" />
		<tag k="name" v="Grunnskjæret" />
		<tag k="place" v="islet" />
		<tag k="ssr:stedsnr" v="278963" />
	</node>
	<node lat="63.712844442560396" lon="9.539836113161641" id="-38390">
		<tag k="alt_name" v="Hoøya" />
		<tag k="name" v="Øya" />
		<tag k="natural" v="cape" />
		<tag k="ssr:stedsnr" v="316017" />
	</node>
	<node lat="63.698205557602684" lon="9.431058334897191" id="-38391">
		<tag k="bay" v="fjord" />
		<tag k="name" v="Lyngholmråsa" />
		<tag k="natural" v="bay" />
		<tag k="ssr:stedsnr" v="316018" />
	</node>
	<node lat="63.63504722305251" lon="9.330844442906363" id="-38394">
		<tag k="alt_name" v="Kommerøya" />
		<tag k="name" v="Kommersøya" />
		<tag k="place" v="island" />
		<tag k="ssr:stedsnr" v="316073" />
	</node>
	<node lat="63.691358330682306" lon="9.552208327275435" id="-38401">
		<tag k="name" v="Grandvika" />
		<tag k="natural" v="bay" />
		<tag k="ssr:stedsnr" v="316027" />
	</node>
	<node lat="63.676841669726294" lon="9.360597228156358" id="-38402">
		<tag k="fixme" v="consider seamark:type=rock or natural=shoal" />
		<tag k="name" v="Maltsekken" />
		<tag k="place" v="islet" />
		<tag k="ssr:stedsnr" v="316033" />
	</node>
	<node lat="63.65930277891574" lon="9.436669443453379" id="-38405">
		<tag k="alt_name" v="Neset" />
		<tag k="name" v="Kuppelvikneset" />
		<tag k="natural" v="cape" />
		<tag k="ssr:stedsnr" v="316045" />
	</node>
	<node lat="63.65899444212369" lon="9.588341664033983" id="-38406">
		<tag k="fixme" v="consider seamark:type=rock or natural=shoal" />
		<tag k="name" v="Kvitsandskjæra" />
		<tag k="place" v="islet" />
		<tag k="ssr:stedsnr" v="316047" />
	</node>
	<node lat="63.79430832993169" lon="9.371494444524405" id="-38418">
		<tag k="name" v="Karlsøya" />
		<tag k="place" v="island" />
		<tag k="ssr:stedsnr" v="316693" />
	</node>
	<node lat="63.96567778027672" lon="9.580111111584493" id="-38419">
		<tag k="name" v="Melsteinen" />
		<tag k="place" v="islet" />
		<tag k="ssr:stedsnr" v="316861" />
	</node>
	<node lat="63.860097225901846" lon="9.53541388362118" id="-38420">
		<tag k="fixme" v="consider seamark:type=rock or natural=shoal" />
		<tag k="name" v="Oddskjæra" />
		<tag k="place" v="islet" />
		<tag k="ssr:stedsnr" v="316873" />
	</node>
	<node lat="63.83021110909723" lon="9.442158332728296" id="-38427">
		<tag k="fixme" v="consider seamark:type=rock or natural=shoal" />
		<tag k="name" v="Stor-Håkka" />
		<tag k="place" v="islet" />
		<tag k="ssr:stedsnr" v="333192" />
	</node>
	<node lat="63.82853333073192" lon="9.421066674846722" id="-38428">
		<tag k="name" v="Kvitingskeila" />
		<tag k="natural" v="strait" />
		<tag k="ssr:stedsnr" v="333231" />
	</node>
	<node lat="63.770675002886875" lon="9.365197213437746" id="-38430">
		<tag k="name" v="Storgyltingen" />
		<tag k="place" v="island" />
		<tag k="ssr:stedsnr" v="333143" />
	</node>
	<node lat="63.76506666592788" lon="9.80022499507502" id="-38434">
		<tag k="name" v="Botngårdsleira" />
		<tag k="natural" v="shoal" />
		<tag k="place" v="locality" />
		<tag k="ssr:stedsnr" v="333345" />
	</node>
	<node lat="63.85722500386626" lon="9.736672221640234" id="-38436">
		<tag k="name" v="Øset" />
		<tag k="natural" v="bay" />
		<tag k="ssr:stedsnr" v="333628" />
	</node>
	<node lat="63.907847220883724" lon="9.762158341203502" id="-38440">
		<tag k="name" v="Bruntaren" />
		<tag k="natural" v="shoal" />
		<tag k="place" v="locality" />
		<tag k="ssr:stedsnr" v="333285" />
	</node>
	<node lat="63.85633610819872" lon="9.878452768245522" id="-38444">
		<tag k="name" v="Øren" />
		<tag k="natural" v="shoal" />
		<tag k="place" v="locality" />
		<tag k="ssr:stedsnr" v="333571" />
	</node>
	<node lat="63.85454444682637" lon="9.857605555290718" id="-38445">
		<tag k="name" v="Valavågen" />
		<tag k="natural" v="bay" />
		<tag k="ssr:stedsnr" v="333573" />
	</node>
	<node lat="63.87143332994301" lon="9.782155565358122" id="-38458">
		<tag k="name" v="Litl-Tranøya" />
		<tag k="place" v="islet" />
		<tag k="ssr:stedsnr" v="333743" />
	</node>
	<node lat="63.977302774819236" lon="9.63559167155944" id="-38460">
		<tag k="name" v="Austflua" />
		<tag k="natural" v="shoal" />
		<tag k="place" v="locality" />
		<tag k="ssr:stedsnr" v="333956" />
	</node>
	<node lat="63.990422222073114" lon="9.652036109895208" id="-38461">
		<tag k="name" v="Kristskallfluen" />
		<tag k="natural" v="shoal" />
		<tag k="place" v="locality" />
		<tag k="ssr:stedsnr" v="333957" />
	</node>
	<node lat="63.9496333321178" lon="9.538330562816467" id="-38462">
		<tag k="name" v="Vidflua" />
		<tag k="natural" v="shoal" />
		<tag k="place" v="locality" />
		<tag k="ssr:stedsnr" v="333976" />
	</node>
	<node lat="63.67357499629978" lon="9.510975003468987" id="-38467">
		<tag k="name" v="Raudsidgrunnen" />
		<tag k="natural" v="shoal" />
		<tag k="place" v="locality" />
		<tag k="ssr:stedsnr" v="334270" />
	</node>
	<node lat="63.67149444674963" lon="9.281233324875286" id="-38469">
		<tag k="name" v="Vesterflua" />
		<tag k="natural" v="shoal" />
		<tag k="place" v="locality" />
		<tag k="ssr:stedsnr" v="334359" />
	</node>
	<node lat="63.677502776988696" lon="9.334736111856085" id="-38470">
		<tag k="name" v="Larsgrunnen" />
		<tag k="natural" v="shoal" />
		<tag k="place" v="locality" />
		<tag k="ssr:stedsnr" v="334366" />
	</node>
	<node lat="63.715913888579" lon="9.821511112603956" id="-38471">
		<tag k="fixme" v="consider seamark:type=rock or natural=shoal" />
		<tag k="name" v="Geitskjæret" />
		<tag k="place" v="islet" />
		<tag k="ssr:stedsnr" v="334375" />
	</node>
	<node lat="63.84794721894081" lon="9.661180557037204" id="-38472">
		<tag k="fixme" v="consider seamark:type=rock or natural=shoal" />
		<tag k="name" v="Langtaren" />
		<tag k="place" v="islet" />
		<tag k="ssr:stedsnr" v="334380" />
	</node>
	<node lat="63.71909166717501" lon="9.837780565584053" id="-38473">
		<tag k="fixme" v="consider seamark:type=rock or natural=shoal" />
		<tag k="name" v="Bryggskjæret" />
		<tag k="place" v="islet" />
		<tag k="ssr:stedsnr" v="334383" />
	</node>
	<node lat="63.75476111295102" lon="9.71588888108714" id="-38474">
		<tag k="name" v="Ervikneset" />
		<tag k="natural" v="cape" />
		<tag k="ssr:stedsnr" v="334387" />
	</node>
	<node lat="63.687333332527054" lon="9.453255550397866" id="-38475">
		<tag k="name" v="Bertegrunnen" />
		<tag k="natural" v="shoal" />
		<tag k="place" v="locality" />
		<tag k="ssr:stedsnr" v="334392" />
	</node>
	<node lat="63.88432777456167" lon="9.940936118525457" id="-38478">
		<tag k="name" v="Øyabukta" />
		<tag k="natural" v="bay" />
		<tag k="ssr:stedsnr" v="334519" />
	</node>
	<node lat="63.73356667073631" lon="9.889397231993835" id="-38481">
		<tag k="name" v="Storflua" />
		<tag k="natural" v="shoal" />
		<tag k="place" v="locality" />
		<tag k="ssr:stedsnr" v="334475" />
	</node>
	<node lat="63.78401944378616" lon="9.580941659015249" id="-38483">
		<tag k="name" v="Raunesa" />
		<tag k="natural" v="cape" />
		<tag k="ssr:stedsnr" v="334485" />
	</node>
	<node lat="63.87116389174946" lon="9.828855546612498" id="-38486">
		<tag k="name" v="Stangholmen" />
		<tag k="place" v="islet" />
		<tag k="ssr:stedsnr" v="334580" />
	</node>
	<node lat="63.87232222650706" lon="9.827638896121645" id="-38487">
		<tag k="fixme" v="consider seamark:type=rock or natural=shoal" />
		<tag k="name" v="Svartvikskjæret" />
		<tag k="place" v="islet" />
		<tag k="ssr:stedsnr" v="334581" />
	</node>
	<node lat="63.648033329951744" lon="9.336091665620382" id="-38495">
		<tag k="fixme" v="consider seamark:type=rock or natural=shoal" />
		<tag k="name" v="Martinskjeret" />
		<tag k="place" v="islet" />
		<tag k="ssr:stedsnr" v="337841" />
	</node>
	<node lat="63.643925200439874" lon="9.32706261697244" id="-38518">
		<tag k="name" v="Kråkvåg" />
		<tag k="place" v="island" />
		<tag k="ssr:stedsnr" v="376062" />
	</node>
	<node lat="63.632080558019304" lon="9.505005547625938" id="-38528">
		<tag k="name" v="Smellingen" />
		<tag k="place" v="islet" />
		<tag k="ssr:stedsnr" v="377067" />
	</node>
	<node lat="63.80241666392285" lon="9.47938334232407" id="-38537">
		<tag k="name" v="Tørrisholmen" />
		<tag k="place" v="islet" />
		<tag k="ssr:stedsnr" v="377644" />
	</node>
	<node lat="63.80811111443473" lon="9.443822220172349" id="-38539">
		<tag k="name" v="Havsundet" />
		<tag k="natural" v="strait" />
		<tag k="ssr:stedsnr" v="377647" />
	</node>
	<node lat="63.945805555723" lon="9.772966670577269" id="-38541">
		<tag k="fixme" v="consider seamark:type=rock or natural=shoal" />
		<tag k="name" v="Vågsøyskjæra" />
		<tag k="place" v="islet" />
		<tag k="ssr:stedsnr" v="377540" />
	</node>
	<node lat="63.955341664612476" lon="9.755324991201341" id="-38542">
		<tag k="fixme" v="consider seamark:type=rock or natural=shoal" />
		<tag k="name" v="Langskjæret" />
		<tag k="place" v="islet" />
		<tag k="ssr:stedsnr" v="377547" />
	</node>
	<node lat="63.8946527761901" lon="9.866297219436722" id="-38543">
		<tag k="alt_name" v="Varpbukta" />
		<tag k="name" v="Vorpbukta" />
		<tag k="natural" v="bay" />
		<tag k="ssr:stedsnr" v="377573" />
	</node>
	<node lat="63.89307777868963" lon="9.744669454128065" id="-38544">
		<tag k="fixme" v="consider seamark:type=rock or natural=shoal" />
		<tag k="name" v="Leiaskjæra" />
		<tag k="place" v="islet" />
		<tag k="ssr:stedsnr" v="377595" />
	</node>
	<node lat="63.770038892953885" lon="9.354161106524142" id="-38545">
		<tag k="fixme" v="consider seamark:type=rock or natural=shoal" />
		<tag k="name" v="Gyltingsskjæra" />
		<tag k="place" v="islet" />
		<tag k="ssr:stedsnr" v="377717" />
	</node>
	<node lat="63.753416670858726" lon="9.668738884199064" id="-38548">
		<tag k="name" v="Merraskjeret" />
		<tag k="place" v="islet" />
		<tag k="ssr:stedsnr" v="377700" />
	</node>
	<node lat="63.892105553383374" lon="9.69083333133194" id="-38549">
		<tag k="name" v="Moholmen" />
		<tag k="place" v="islet" />
		<tag k="ssr:stedsnr" v="377829" />
	</node>
	<node lat="63.881355555979596" lon="9.643580561786683" id="-38550">
		<tag k="name" v="Asenleia" />
		<tag k="natural" v="bay" />
		<tag k="ssr:stedsnr" v="377833" />
	</node>
	<node lat="63.95078888744735" lon="9.552963881780633" id="-38551">
		<tag k="fixme" v="consider seamark:type=rock or natural=shoal" />
		<tag k="name" v="Andsteinskjæra" />
		<tag k="place" v="islet" />
		<tag k="ssr:stedsnr" v="377798" />
	</node>
	<node lat="63.81883333177918" lon="9.565611118188125" id="-38559">
		<tag k="fixme" v="consider seamark:type=rock or natural=shoal" />
		<tag k="name" v="Melumskjæret" />
		<tag k="place" v="islet" />
		<tag k="ssr:stedsnr" v="394140" />
	</node>
	<node lat="63.796880552384074" lon="9.543188884795851" id="-38564">
		<tag k="name" v="Vidflua" />
		<tag k="natural" v="shoal" />
		<tag k="place" v="locality" />
		<tag k="ssr:stedsnr" v="394199" />
	</node>
	<node lat="63.82149444324712" lon="9.401975000646233" id="-38565">
		<tag k="fixme" v="consider seamark:type=rock or natural=shoal" />
		<tag k="name" v="Lyngskjæret" />
		<tag k="place" v="islet" />
		<tag k="ssr:stedsnr" v="394200" />
	</node>
	<node lat="63.78072221859143" lon="9.577019443365826" id="-38571">
		<tag k="name" v="Djupfestvågen" />
		<tag k="natural" v="bay" />
		<tag k="ssr:stedsnr" v="394515" />
	</node>
	<node lat="63.88933055804821" lon="9.811483336936254" id="-38572">
		<tag k="name" v="Skipparvika" />
		<tag k="natural" v="bay" />
		<tag k="ssr:stedsnr" v="394516" />
	</node>
	<node lat="63.88069444693039" lon="9.842330558875885" id="-38575">
		<tag k="name" v="Gåsholmen" />
		<tag k="natural" v="cape" />
		<tag k="ssr:stedsnr" v="394524" />
	</node>
	<node lat="63.76213333320074" lon="9.58397221653242" id="-38577">
		<tag k="name" v="Leiteøra" />
		<tag k="natural" v="beach" />
		<tag k="ssr:stedsnr" v="394528" />
	</node>
	<node lat="63.878133335085394" lon="9.70026388532222" id="-38587">
		<tag k="name" v="Gjæsingfluen" />
		<tag k="natural" v="shoal" />
		<tag k="place" v="locality" />
		<tag k="ssr:stedsnr" v="394443" />
	</node>
	<node lat="63.89360277544218" lon="9.666369452420822" id="-38589">
		<tag k="fixme" v="consider seamark:type=rock or natural=shoal" />
		<tag k="name" v="Seiskjæret" />
		<tag k="place" v="islet" />
		<tag k="ssr:stedsnr" v="394445" />
	</node>
	<node lat="63.76748610893613" lon="9.758247225490939" id="-38592">
		<tag k="fixme" v="consider seamark:type=rock or natural=shoal" />
		<tag k="name" v="Smeplasskjæret" />
		<tag k="place" v="islet" />
		<tag k="ssr:stedsnr" v="394472" />
	</node>
	<node lat="63.729219441222995" lon="9.508416668787728" id="-38609">
		<tag k="fixme" v="consider seamark:type=rock or natural=shoal" />
		<tag k="name" v="Soldaterskjæret" />
		<tag k="place" v="islet" />
		<tag k="ssr:stedsnr" v="395099" />
	</node>
	<node lat="63.686061114202055" lon="9.400902768464034" id="-38614">
		<tag k="fixme" v="consider seamark:type=rock or natural=shoal" />
		<tag k="name" v="Grønnmyrskjæra" />
		<tag k="place" v="islet" />
		<tag k="ssr:stedsnr" v="398821" />
	</node>
	<node lat="63.723883330751676" lon="9.576841656726044" id="-38615">
		<tag k="fixme" v="consider seamark:type=rock or natural=shoal" />
		<tag k="name" v="Leksaskjæret" />
		<tag k="place" v="islet" />
		<tag k="ssr:stedsnr" v="398860" />
	</node>
	<node lat="63.64604444241503" lon="9.501233340712878" id="-38617">
		<tag k="name" v="Valholman" />
		<tag k="place" v="islet" />
		<tag k="ssr:stedsnr" v="399945" />
	</node>
	<node lat="63.66149444772264" lon="9.538119447819676" id="-38618">
		<tag k="name" v="Rauholmøra" />
		<tag k="natural" v="beach" />
		<tag k="ssr:stedsnr" v="399948" />
	</node>
	<node lat="63.71732777542881" lon="9.465899997155924" id="-38635">
		<tag k="fixme" v="consider seamark:type=rock or natural=shoal" />
		<tag k="name" v="Juldagsskjæra" />
		<tag k="place" v="islet" />
		<tag k="ssr:stedsnr" v="437025" />
	</node>
	<node lat="63.8306500024361" lon="9.427797213092878" id="-38646">
		<tag k="fixme" v="consider seamark:type=rock or natural=shoal" />
		<tag k="name" v="Valøyskjæra" />
		<tag k="place" v="islet" />
		<tag k="ssr:stedsnr" v="437683" />
	</node>
	<node lat="63.84744166937546" lon="9.831472221540583" id="-38650">
		<tag k="name" v="Asserøya" />
		<tag k="natural" v="cape" />
		<tag k="ssr:stedsnr" v="438075" />
	</node>
	<node lat="63.87888333583831" lon="9.918702772495536" id="-38664">
		<tag k="name" v="Skammingen" />
		<tag k="natural" v="bay" />
		<tag k="ssr:stedsnr" v="438570" />
	</node>
	<node lat="63.891791665520266" lon="9.870344436089663" id="-38665">
		<tag k="name" v="Breidvika" />
		<tag k="natural" v="cape" />
		<tag k="ssr:stedsnr" v="438573" />
	</node>
	<node lat="63.89456111082598" lon="9.7746722147899" id="-38666">
		<tag k="name" v="Treholmen" />
		<tag k="place" v="islet" />
		<tag k="ssr:stedsnr" v="438574" />
	</node>
	<node lat="63.78776944208544" lon="9.586252787455008" id="-38669">
		<tag k="name" v="Skjelholmen" />
		<tag k="place" v="islet" />
		<tag k="ssr:stedsnr" v="438644" />
	</node>
	<node lat="63.76815277955489" lon="9.55916111771114" id="-38670">
		<tag k="name" v="Festholmen" />
		<tag k="place" v="islet" />
		<tag k="ssr:stedsnr" v="438737" />
	</node>
	<node lat="63.79559444783642" lon="9.416386108612588" id="-38672">
		<tag k="name" v="Haugen" />
		<tag k="natural" v="cape" />
		<tag k="ssr:stedsnr" v="438669" />
	</node>
	<node lat="63.71011666318555" lon="9.800205559497433" id="-38673">
		<tag k="alt_name" v="Tømmerliskjeret" />
		<tag k="fixme" v="consider seamark:type=rock or natural=shoal" />
		<tag k="name" v="Tømmerliskjæret" />
		<tag k="place" v="islet" />
		<tag k="ssr:stedsnr" v="438795" />
	</node>
	<node lat="63.673126420898456" lon="9.373979650922019" id="-38676">
		<tag k="name" v="Kuholman" />
		<tag k="place" v="islet" />
		<tag k="ssr:stedsnr" v="448582" />
	</node>
</osm>
