<?xml version="1.0" encoding="UTF-8"?>
<<<<<<< HEAD
<osm version="0.6" generator="osmapis">
	<node lat="63.650591662542546" lon="9.561502767685438" id="-31843">
=======
<osm generator="osmapis" version="0.6">
	<node id="-812544" lat="63.6505916625" lon="9.56150276769">
>>>>>>> e1d4bc35ff8a6074a6f2e91616a996b547c36f15
		<tag k="man_made" v="quay" />
		<tag k="name" v="Beian kai" />
		<tag k="place" v="locality" />
		<tag k="ssr:stedsnr" v="96768" />
<<<<<<< HEAD
	</node>
	<node lat="63.71656111204346" lon="9.710811107448198" id="-31848">
		<tag k="bridge" v="yes" />
		<tag k="layer" v="1" />
		<tag k="name" v="Dalabrua" />
		<tag k="ssr:stedsnr" v="107825" />
	</node>
	<node lat="63.76930555873966" lon="9.795816676683783" id="-31849">
		<tag k="bridge" v="yes" />
		<tag k="layer" v="1" />
		<tag k="name" v="Mebostadbrua" />
		<tag k="ssr:stedsnr" v="110570" />
	</node>
	<node lat="63.77007500158629" lon="9.36911945434814" id="-31979">
		<tag k="landuse" v="harbour" />
		<tag k="name" v="Gyltingshamna" />
		<tag k="seamark:type" v="harbour" />
		<tag k="ssr:stedsnr" v="212130" />
	</node>
	<node lat="63.775191662753734" lon="9.853038883327635" id="-31988">
		<tag k="highway" v="path" />
		<tag k="name" v="Botnkleiva" />
		<tag k="ssr:stedsnr" v="212413" />
	</node>
	<node lat="63.677977779791995" lon="9.406808327354009" id="-32040">
		<tag k="highway" v="path" />
		<tag k="name" v="Russivegen" />
		<tag k="ssr:stedsnr" v="217779" />
	</node>
	<node lat="63.78059444793514" lon="9.386625000089563" id="-32064">
		<tag k="landuse" v="harbour" />
		<tag k="name" v="Flatøyhamna" />
		<tag k="seamark:type" v="harbour" />
		<tag k="ssr:stedsnr" v="455128" />
	</node>
	<node lat="63.69993332887762" lon="9.746208334946573" id="-32200">
=======
	</node>
	<node id="-813694" lat="63.7339138902" lon="9.87570556425">
>>>>>>> e1d4bc35ff8a6074a6f2e91616a996b547c36f15
		<tag k="man_made" v="quay" />
		<tag k="name" v="Austrått kai" />
		<tag k="place" v="locality" />
<<<<<<< HEAD
		<tag k="ssr:stedsnr" v="277970" />
	</node>
	<node lat="63.69900833707968" lon="9.604016661471945" id="-32241">
=======
		<tag k="ssr:stedsnr" v="698425" />
	</node>
	<node id="-814461" lat="63.7693055587" lon="9.79581667668">
		<tag k="bridge" v="yes" />
		<tag k="layer" v="1" />
		<tag k="name" v="Mebostadbrua" />
		<tag k="ssr:stedsnr" v="110570" />
	</node>
	<node id="-814460" lat="63.716561112" lon="9.71081110745">
		<tag k="bridge" v="yes" />
		<tag k="layer" v="1" />
		<tag k="name" v="Dalabrua" />
		<tag k="ssr:stedsnr" v="107825" />
	</node>
	<node id="-812714" lat="63.658880553" lon="9.43663610786">
		<tag k="amenity" v="ferry_terminal" />
		<tag k="name" v="Munken ferjekai" />
		<tag k="ssr:stedsnr" v="279863" />
	</node>
	<node id="-814456" lat="63.6455388883" lon="9.51695555036">
		<tag k="leisure" v="marina" />
		<tag k="name" v="Garthamna" />
		<tag k="ssr:stedsnr" v="96747" />
	</node>
	<node id="-814070" lat="63.6861777808" lon="9.67105556503">
		<tag k="landuse" v="harbour" />
		<tag k="name" v="Brekstad havn" />
		<tag k="seamark:type" v="harbour" />
		<tag k="ssr:stedsnr" v="885953" />
	</node>
	<node id="-813428" lat="63.6864749979" lon="9.66775833927">
		<tag k="amenity" v="ferry_terminal" />
		<tag k="name" v="Brekstad ferjekai" />
		<tag k="ssr:stedsnr" v="704849" />
	</node>
	<node id="-814833" lat="63.6990083371" lon="9.60401666147">
>>>>>>> e1d4bc35ff8a6074a6f2e91616a996b547c36f15
		<tag k="aeroway" v="aerodrome" />
		<tag k="name" v="Ørland lufthavn" />
		<tag k="old_name" v="Ørland hovedflystasjon" />
		<tag k="ssr:stedsnr" v="328167" />
	</node>
<<<<<<< HEAD
	<node lat="63.756280553903956" lon="9.799600006017288" id="-32405">
		<tag k="fixme" v="consider highway=path" />
		<tag k="highway" v="track" />
		<tag k="name" v="Haslavegen" />
		<tag k="ssr:stedsnr" v="455310" />
	</node>
	<node lat="63.64512222279219" lon="9.521247217263648" id="-32444">
		<tag k="amenity" v="ferry_terminal" />
		<tag k="name" v="Garten ferjekai" />
		<tag k="ssr:stedsnr" v="461867" />
	</node>
	<node lat="63.70882499730884" lon="9.673475007139531" id="-32555">
		<tag k="alt_name" v="Skiftkroken" />
=======
	<node id="-814182" lat="63.7567032789" lon="9.78694565596">
		<tag k="bridge" v="yes" />
		<tag k="layer" v="1" />
		<tag k="name" v="Klakkabrua" />
		<tag k="ssr:stedsnr" v="30351" />
	</node>
	<node id="-813537" lat="63.7959875605" lon="9.42737361279">
		<tag k="leisure" v="marina" />
		<tag k="name" v="Tarva hamn" />
		<tag k="ssr:stedsnr" v="880164" />
	</node>
	<node id="-812891" lat="63.8667222236" lon="9.89030554829">
>>>>>>> e1d4bc35ff8a6074a6f2e91616a996b547c36f15
		<tag k="junction" v="yes" />
		<tag k="name" v="Skiftkrokan" />
		<tag k="place" v="locality" />
		<tag k="ssr:stedsnr" v="558018" />
	</node>
<<<<<<< HEAD
	<node lat="63.726963885808516" lon="9.595152774241383" id="-32754">
=======
	<node id="-813400" lat="63.7269638858" lon="9.59515277424">
>>>>>>> e1d4bc35ff8a6074a6f2e91616a996b547c36f15
		<tag k="man_made" v="quay" />
		<tag k="name" v="Sjøgata" />
		<tag k="place" v="locality" />
		<tag k="ssr:stedsnr" v="702853" />
	</node>
<<<<<<< HEAD
	<node lat="63.686474997885746" lon="9.667758339267266" id="-32766">
		<tag k="amenity" v="ferry_terminal" />
		<tag k="name" v="Brekstad ferjekai" />
		<tag k="ssr:stedsnr" v="704849" />
	</node>
	<node lat="63.72673333532323" lon="9.584769452550585" id="-32807">
=======
	<node id="-812473" lat="63.6779777798" lon="9.40680832735">
		<tag k="highway" v="path" />
		<tag k="name" v="Russivegen" />
		<tag k="ssr:stedsnr" v="217779" />
	</node>
	<node id="-813522" lat="63.8124555572" lon="9.84340556511">
		<tag k="highway" v="path" />
		<tag k="name" v="Finnstien" />
		<tag k="ssr:stedsnr" v="880010" />
	</node>
	<node id="-813519" lat="63.7267333353" lon="9.58476945255">
>>>>>>> e1d4bc35ff8a6074a6f2e91616a996b547c36f15
		<tag k="landuse" v="harbour" />
		<tag k="name" v="Uthaug havn" />
		<tag k="seamark:type" v="harbour" />
		<tag k="ssr:stedsnr" v="641831" />
	</node>
<<<<<<< HEAD
	<node lat="63.7339138901738" lon="9.875705564248186" id="-32848">
=======
	<node id="-815565" lat="63.7962611095" lon="9.42835832548">
>>>>>>> e1d4bc35ff8a6074a6f2e91616a996b547c36f15
		<tag k="man_made" v="quay" />
		<tag k="name" v="Kaineset" />
		<tag k="place" v="locality" />
		<tag k="ssr:stedsnr" v="698425" />
	</node>
<<<<<<< HEAD
	<node lat="63.68617778078576" lon="9.671055565029633" id="-33172">
		<tag k="landuse" v="harbour" />
		<tag k="name" v="Brekstad havn" />
		<tag k="seamark:type" v="harbour" />
		<tag k="ssr:stedsnr" v="885953" />
	</node>
	<node lat="63.756703278907224" lon="9.786945655955398" id="-33274">
		<tag k="bridge" v="yes" />
		<tag k="layer" v="1" />
		<tag k="name" v="Klakkabrua" />
		<tag k="ssr:stedsnr" v="30351" />
	</node>
	<node lat="63.85281666640676" lon="9.909422218201664" id="-33453">
=======
	<node id="-815816" lat="63.8000000013" lon="10.2025277729">
		<tag k="bridge" v="yes" />
		<tag k="layer" v="1" />
		<tag k="name" v="Lunbrua" />
		<tag k="ssr:stedsnr" v="831975" />
	</node>
	<node id="-813381" lat="63.7088249973" lon="9.67347500714">
		<tag k="alt_name" v="Skiftkroken" />
		<tag k="junction" v="yes" />
		<tag k="name" v="Skiftkrokan" />
		<tag k="place" v="locality" />
		<tag k="ssr:stedsnr" v="558018" />
	</node>
	<node id="-812738" lat="63.7751916628" lon="9.85303888333">
>>>>>>> e1d4bc35ff8a6074a6f2e91616a996b547c36f15
		<tag k="highway" v="path" />
		<tag k="name" v="Helstian" />
		<tag k="ssr:stedsnr" v="91700" />
	</node>
<<<<<<< HEAD
	<node lat="63.64553888831609" lon="9.516955550363262" id="-33477">
		<tag k="leisure" v="marina" />
		<tag k="name" v="Garthamna" />
		<tag k="ssr:stedsnr" v="96747" />
	</node>
	<node lat="63.73115555245374" lon="9.833033327962301" id="-33707">
=======
	<node id="-812733" lat="63.7311555525" lon="9.83303332796">
>>>>>>> e1d4bc35ff8a6074a6f2e91616a996b547c36f15
		<tag k="fixme" v="consider highway=path" />
		<tag k="highway" v="track" />
		<tag k="name" v="Storråa" />
		<tag k="ssr:stedsnr" v="212312" />
	</node>
<<<<<<< HEAD
	<node lat="63.87538889170175" lon="9.970888890336916" id="-33729">
=======
	<node id="-814395" lat="63.8528166664" lon="9.9094222182">
>>>>>>> e1d4bc35ff8a6074a6f2e91616a996b547c36f15
		<tag k="highway" v="path" />
		<tag k="name" v="Jøvikbakken" />
		<tag k="ssr:stedsnr" v="212558" />
	</node>
<<<<<<< HEAD
	<node lat="63.790302778045444" lon="9.599716660763791" id="-33742">
		<tag k="man_made" v="quay" />
		<tag k="name" v="Hellem kai" />
		<tag k="place" v="locality" />
		<tag k="ssr:stedsnr" v="212669" />
	</node>
	<node lat="63.86672222359393" lon="9.890305548291957" id="-33793">
		<tag k="junction" v="yes" />
		<tag k="name" v="Oldkrysset" />
		<tag k="place" v="locality" />
		<tag k="ssr:stedsnr" v="273317" />
	</node>
	<node lat="63.65888055302075" lon="9.436636107862208" id="-33867">
		<tag k="amenity" v="ferry_terminal" />
		<tag k="name" v="Munken ferjekai" />
		<tag k="ssr:stedsnr" v="279863" />
	</node>
	<node lat="63.73293952834192" lon="9.878697141050482" id="-33958">
=======
	<node id="-812729" lat="63.7700750016" lon="9.36911945435">
		<tag k="landuse" v="harbour" />
		<tag k="name" v="Gyltingshamna" />
		<tag k="seamark:type" v="harbour" />
		<tag k="ssr:stedsnr" v="212130" />
	</node>
	<node id="-814895" lat="63.7329395283" lon="9.87869714105">
>>>>>>> e1d4bc35ff8a6074a6f2e91616a996b547c36f15
		<tag k="landuse" v="harbour" />
		<tag k="name" v="Høybakken havn" />
		<tag k="seamark:type" v="harbour" />
		<tag k="ssr:stedsnr" v="334431" />
	</node>
<<<<<<< HEAD
	<node lat="63.743777778942246" lon="9.676247226142396" id="-34104">
=======
	<node id="-814762" lat="63.790302778" lon="9.59971666076">
		<tag k="man_made" v="quay" />
		<tag k="name" v="Hellem kai" />
		<tag k="place" v="locality" />
		<tag k="ssr:stedsnr" v="212669" />
	</node>
	<node id="-813599" lat="63.8339222214" lon="9.70867777024">
		<tag k="fixme" v="consider highway=path" />
		<tag k="highway" v="track" />
		<tag k="name" v="Buskarvegen" />
		<tag k="ssr:stedsnr" v="880729" />
	</node>
	<node id="-812699" lat="63.6999333289" lon="9.74620833495">
		<tag k="man_made" v="quay" />
		<tag k="name" v="Austrått kai" />
		<tag k="place" v="locality" />
		<tag k="ssr:stedsnr" v="277970" />
	</node>
	<node id="-812975" lat="63.6451222228" lon="9.52124721726">
		<tag k="amenity" v="ferry_terminal" />
		<tag k="name" v="Garten ferjekai" />
		<tag k="ssr:stedsnr" v="461867" />
	</node>
	<node id="-813204" lat="63.7562805539" lon="9.79960000602">
		<tag k="fixme" v="consider highway=path" />
		<tag k="highway" v="track" />
		<tag k="name" v="Haslavegen" />
		<tag k="ssr:stedsnr" v="455310" />
	</node>
	<node id="-814738" lat="63.8753888917" lon="9.97088889034">
		<tag k="highway" v="path" />
		<tag k="name" v="Jøvikbakken" />
		<tag k="ssr:stedsnr" v="212558" />
	</node>
	<node id="-815119" lat="63.7437777789" lon="9.67624722614">
>>>>>>> e1d4bc35ff8a6074a6f2e91616a996b547c36f15
		<tag k="landuse" v="harbour" />
		<tag k="name" v="Døsvik havn" />
		<tag k="seamark:type" v="harbour" />
		<tag k="ssr:stedsnr" v="399851" />
<<<<<<< HEAD
=======
	</node>
	<node id="-812804" lat="63.7805944479" lon="9.38662500009">
		<tag k="landuse" v="harbour" />
		<tag k="name" v="Flatøyhamna" />
		<tag k="seamark:type" v="harbour" />
		<tag k="ssr:stedsnr" v="455128" />
>>>>>>> e1d4bc35ff8a6074a6f2e91616a996b547c36f15
	</node>
</osm>
