<?xml version="1.0" encoding="UTF-8"?>
<osm version="0.6" generator="osmapis">
	<node lat="63.829836114108886" lon="10.117613879030873" id="-53744">
		<tag k="name" v="Perholet" />
		<tag k="natural" v="valley" />
		<tag k="place" v="locality" />
		<tag k="ssr:stedsnr" v="13064" />
	</node>
	<node lat="63.83101944460037" lon="10.02887500295705" id="-53746">
		<tag k="alt_name" v="Storslette" />
		<tag k="name" v="Storslættet" />
		<tag k="place" v="locality" />
		<tag k="ssr:stedsnr" v="13071" />
	</node>
	<node lat="63.73563888494186" lon="9.754177787298204" id="-53753">
		<tag k="name" v="Rundbø" />
		<tag k="natural" v="hill" />
		<tag k="place" v="locality" />
		<tag k="ssr:stedsnr" v="13221" />
	</node>
	<node lat="63.8501277739202" lon="9.881277773861418" id="-53755">
		<tag k="fixme" v="consider natural=peak for the most distinct mountains in the district" />
		<tag k="name" v="Aunfjellet" />
		<tag k="natural" v="hill" />
		<tag k="place" v="locality" />
		<tag k="ssr:stedsnr" v="13112" />
	</node>
	<node lat="63.794116669619775" lon="9.388908327055924" id="-53763">
		<tag k="name" v="Karlsøysletta" />
		<tag k="place" v="locality" />
		<tag k="ssr:stedsnr" v="30185" />
	</node>
	<node lat="63.82865278034362" lon="10.130011117058286" id="-53768">
		<tag k="name" v="Perholhaugan" />
		<tag k="natural" v="hill" />
		<tag k="place" v="locality" />
		<tag k="ssr:stedsnr" v="30086" />
	</node>
	<node lat="63.77801389042532" lon="9.65075832584473" id="-53773">
		<tag k="name" v="Jørnlia" />
		<tag k="natural" v="slope" />
		<tag k="place" v="locality" />
		<tag k="ssr:stedsnr" v="30506" />
	</node>
	<node lat="63.78175833212231" lon="9.584500006045227" id="-53774">
		<tag k="name" v="Storhaugen" />
		<tag k="natural" v="hill" />
		<tag k="place" v="locality" />
		<tag k="ssr:stedsnr" v="30511" />
	</node>
	<node lat="63.86543332997685" lon="9.983766660474753" id="-53775">
		<tag k="name" v="Storvassheia" />
		<tag k="natural" v="hill" />
		<tag k="place" v="locality" />
		<tag k="ssr:stedsnr" v="30530" />
	</node>
	<node lat="63.766469445719075" lon="9.873777771696757" id="-53779">
		<tag k="name" v="Middagshaugen" />
		<tag k="natural" v="hill" />
		<tag k="place" v="locality" />
		<tag k="ssr:stedsnr" v="30473" />
	</node>
	<node lat="63.87893333624412" lon="9.901647222557202" id="-53782">
		<tag k="name" v="Brekka" />
		<tag k="natural" v="slope" />
		<tag k="place" v="locality" />
		<tag k="ssr:stedsnr" v="30613" />
	</node>
	<node lat="63.866675002292354" lon="9.720169442933148" id="-53786">
		<tag k="name" v="Kvalvikhaugen" />
		<tag k="natural" v="hill" />
		<tag k="place" v="locality" />
		<tag k="ssr:stedsnr" v="30641" />
	</node>
	<node lat="63.82815555569793" lon="9.818661106062475" id="-53787">
		<tag k="fixme" v="consider natural=peak for the most distinct mountains in the district" />
		<tag k="name" v="Jakobsfjellet" />
		<tag k="natural" v="hill" />
		<tag k="place" v="locality" />
		<tag k="ssr:stedsnr" v="30673" />
	</node>
	<node lat="63.83737222119815" lon="9.753969449636584" id="-53789">
		<tag k="fixme" v="consider natural=peak for the most distinct mountains in the district" />
		<tag k="name" v="Tømmervikklumpen" />
		<tag k="natural" v="hill" />
		<tag k="place" v="locality" />
		<tag k="ssr:stedsnr" v="30716" />
	</node>
	<node lat="63.639686112569436" lon="9.51018054676398" id="-53808">
		<tag k="name" v="Moltberget" />
		<tag k="natural" v="hill" />
		<tag k="place" v="locality" />
		<tag k="ssr:stedsnr" v="35769" />
	</node>
	<node lat="63.71112222059746" lon="9.542286107662663" id="-53810">
		<tag k="name" v="Storhaugen" />
		<tag k="natural" v="hill" />
		<tag k="place" v="locality" />
		<tag k="ssr:stedsnr" v="35774" />
	</node>
	<node lat="63.81324999729822" lon="10.160719440995148" id="-53814">
		<tag k="name" v="Bjønnadalen" />
		<tag k="natural" v="valley" />
		<tag k="place" v="locality" />
		<tag k="ssr:stedsnr" v="42885" />
	</node>
	<node lat="63.82266389075274" lon="9.761319441816322" id="-53820">
		<tag k="name" v="Kaldkleiva" />
		<tag k="natural" v="slope" />
		<tag k="place" v="locality" />
		<tag k="ssr:stedsnr" v="74042" />
	</node>
	<node lat="63.781763889989094" lon="9.891744436067428" id="-53823">
		<tag k="name" v="Vardheia" />
		<tag k="natural" v="hill" />
		<tag k="place" v="locality" />
		<tag k="ssr:stedsnr" v="74210" />
	</node>
	<node lat="63.73034166558621" lon="9.789613880889469" id="-53829">
		<tag k="fixme" v="consider natural=peak for the most distinct mountains in the district" />
		<tag k="name" v="Kalvåfjellet" />
		<tag k="natural" v="hill" />
		<tag k="place" v="locality" />
		<tag k="ssr:stedsnr" v="91139" />
	</node>
	<node lat="63.7971972179306" lon="9.397833338111761" id="-53830">
		<tag k="name" v="Lamberget" />
		<tag k="natural" v="hill" />
		<tag k="place" v="locality" />
		<tag k="ssr:stedsnr" v="91179" />
	</node>
	<node lat="63.80604722429627" lon="9.949880549338316" id="-53831">
		<tag k="name" v="Sørbotnhøgda" />
		<tag k="natural" v="hill" />
		<tag k="place" v="locality" />
		<tag k="ssr:stedsnr" v="91014" />
	</node>
	<node lat="63.81354444264895" lon="9.985186109418983" id="-53832">
		<tag k="name" v="Baklia" />
		<tag k="natural" v="slope" />
		<tag k="place" v="locality" />
		<tag k="ssr:stedsnr" v="91020" />
	</node>
	<node lat="63.748313889224974" lon="9.68861110336448" id="-53839">
		<tag k="name" v="Skutberget" />
		<tag k="natural" v="hill" />
		<tag k="place" v="locality" />
		<tag k="ssr:stedsnr" v="91321" />
	</node>
	<node lat="63.80640278123249" lon="9.658430556347088" id="-53841">
		<tag k="name" v="Stihaugan" />
		<tag k="natural" v="hill" />
		<tag k="place" v="locality" />
		<tag k="ssr:stedsnr" v="91374" />
	</node>
	<node lat="63.794255557769745" lon="9.656047220991985" id="-53842">
		<tag k="name" v="Ormlian" />
		<tag k="natural" v="slope" />
		<tag k="place" v="locality" />
		<tag k="ssr:stedsnr" v="91515" />
	</node>
	<node lat="63.81076388642802" lon="9.674550003133739" id="-53843">
		<tag k="name" v="Myrahaugan" />
		<tag k="natural" v="hill" />
		<tag k="place" v="locality" />
		<tag k="ssr:stedsnr" v="91518" />
	</node>
	<node lat="63.89466389131242" lon="9.845622213403905" id="-53846">
		<tag k="name" v="Akimskoret" />
		<tag k="natural" v="valley" />
		<tag k="place" v="locality" />
		<tag k="ssr:stedsnr" v="91533" />
	</node>
	<node lat="63.81034166534186" lon="9.683111105559" id="-53850">
		<tag k="name" v="Nebbeten" />
		<tag k="natural" v="hill" />
		<tag k="place" v="locality" />
		<tag k="ssr:stedsnr" v="91428" />
	</node>
	<node lat="63.76225833359706" lon="9.644505563955908" id="-53853">
		<tag k="name" v="Litlrisvika" />
		<tag k="place" v="locality" />
		<tag k="ssr:stedsnr" v="91620" />
	</node>
	<node lat="63.81795833480543" lon="9.756808335185209" id="-53858">
		<tag k="name" v="Kleivhaugen" />
		<tag k="natural" v="hill" />
		<tag k="place" v="locality" />
		<tag k="ssr:stedsnr" v="91802" />
	</node>
	<node lat="63.66628333474874" lon="9.411294447345949" id="-53875">
		<tag k="name" v="Damskardet" />
		<tag k="natural" v="valley" />
		<tag k="place" v="locality" />
		<tag k="ssr:stedsnr" v="95813" />
	</node>
	<node lat="63.649733336487365" lon="9.390222219647804" id="-53876">
		<tag k="name" v="Klumpen" />
		<tag k="natural" v="hill" />
		<tag k="place" v="locality" />
		<tag k="ssr:stedsnr" v="95818" />
	</node>
	<node lat="63.658544448459864" lon="9.435313883006438" id="-53878">
		<tag k="name" v="Svartberget" />
		<tag k="natural" v="hill" />
		<tag k="place" v="locality" />
		<tag k="ssr:stedsnr" v="95823" />
	</node>
	<node lat="63.63885277361321" lon="9.525311111946172" id="-53882">
		<tag k="name" v="Hamnaberget" />
		<tag k="natural" v="hill" />
		<tag k="place" v="locality" />
		<tag k="ssr:stedsnr" v="96861" />
	</node>
	<node lat="63.8176249994703" lon="9.867138890935252" id="-53890">
		<tag k="name" v="Rognlia" />
		<tag k="natural" v="slope" />
		<tag k="place" v="locality" />
		<tag k="ssr:stedsnr" v="134063" />
	</node>
	<node lat="63.648205554399404" lon="9.40397221957016" id="-53892">
		<tag k="alt_name" v="Kalven" />
		<tag k="name" v="Vågakalven" />
		<tag k="natural" v="hill" />
		<tag k="place" v="locality" />
		<tag k="ssr:stedsnr" v="134070" />
	</node>
	<node lat="63.82976666984936" lon="10.078202768644529" id="-53894">
		<tag k="name" v="Lauvkammen" />
		<tag k="natural" v="hill" />
		<tag k="place" v="locality" />
		<tag k="ssr:stedsnr" v="134073" />
	</node>
	<node lat="63.87459722007235" lon="10.047819444954268" id="-53902">
		<tag k="name" v="Sandtjønnaksla" />
		<tag k="natural" v="hill" />
		<tag k="place" v="locality" />
		<tag k="ssr:stedsnr" v="134604" />
	</node>
	<node lat="63.80795556007752" lon="9.831263886101217" id="-53911">
		<tag k="alt_name" v="Toftheia;Toftheian" />
		<tag k="name" v="Tofteheia" />
		<tag k="natural" v="hill" />
		<tag k="place" v="locality" />
		<tag k="ssr:stedsnr" v="255039" />
	</node>
	<node lat="63.81833055489031" lon="10.139238897959244" id="-53912">
		<tag k="fixme" v="consider natural=peak for the most distinct mountains in the district" />
		<tag k="name" v="Torsengkammen" />
		<tag k="natural" v="hill" />
		<tag k="place" v="locality" />
		<tag k="ssr:stedsnr" v="255044" />
	</node>
	<node lat="63.75560277496266" lon="9.842836107794323" id="-53915">
		<tag k="name" v="Sæterlian" />
		<tag k="natural" v="slope" />
		<tag k="place" v="locality" />
		<tag k="ssr:stedsnr" v="255201" />
	</node>
	<node lat="63.80348055322181" lon="9.827538886598308" id="-53916">
		<tag k="name" v="Barsetlibrotet" />
		<tag k="natural" v="hill" />
		<tag k="place" v="locality" />
		<tag k="ssr:stedsnr" v="256018" />
	</node>
	<node lat="63.84792221821852" lon="9.876199994136396" id="-53921">
		<tag k="fixme" v="multiple name tags, choose one and add the other to alt_name; consider natural=peak for the most distinct mountains in the district" />
		<tag k="name" v="Kamfjellet;Strandafjellet" />
		<tag k="natural" v="hill" />
		<tag k="place" v="locality" />
		<tag k="ssr:stedsnr" v="256082" />
	</node>
	<node lat="63.855200000390724" lon="10.072383324787268" id="-53922">
		<tag k="name" v="Nyvassdalen" />
		<tag k="natural" v="valley" />
		<tag k="place" v="locality" />
		<tag k="ssr:stedsnr" v="256084" />
	</node>
	<node lat="63.78050277940322" lon="9.84204167632596" id="-53929">
		<tag k="fixme" v="consider natural=peak for the most distinct mountains in the district" />
		<tag k="name" v="Seterfjellet" />
		<tag k="natural" v="hill" />
		<tag k="place" v="locality" />
		<tag k="ssr:stedsnr" v="256200" />
	</node>
	<node lat="63.78296388528345" lon="10.06193055691962" id="-53932">
		<tag k="alt_name" v="Indre Dueskardfjellet" />
		<tag k="fixme" v="consider natural=peak for the most distinct mountains in the district" />
		<tag k="name" v="Dueskardheia" />
		<tag k="natural" v="hill" />
		<tag k="old_name" v="Duskardheia" />
		<tag k="place" v="locality" />
		<tag k="ssr:stedsnr" v="256236" />
	</node>
	<node lat="63.802772224197014" lon="9.850402785820686" id="-53936">
		<tag k="name" v="Nyseterlibakken" />
		<tag k="natural" v="slope" />
		<tag k="place" v="locality" />
		<tag k="ssr:stedsnr" v="151011" />
	</node>
	<node lat="63.80736110923685" lon="9.663247213999712" id="-53938">
		<tag k="name" v="Skjulberget" />
		<tag k="natural" v="hill" />
		<tag k="place" v="locality" />
		<tag k="ssr:stedsnr" v="151355" />
	</node>
	<node lat="63.79894721966286" lon="9.756788894757461" id="-53940">
		<tag k="fixme" v="consider natural=peak for the most distinct mountains in the district" />
		<tag k="name" v="Bjønnakammen" />
		<tag k="natural" v="hill" />
		<tag k="place" v="locality" />
		<tag k="ssr:stedsnr" v="151210" />
	</node>
	<node lat="63.822786114627306" lon="9.640469448742717" id="-53950">
		<tag k="name" v="Hestberga" />
		<tag k="natural" v="hill" />
		<tag k="place" v="locality" />
		<tag k="ssr:stedsnr" v="151411" />
	</node>
	<node lat="63.887144446577864" lon="9.833580564827095" id="-53955">
		<tag k="name" v="Buktakallen" />
		<tag k="natural" v="hill" />
		<tag k="place" v="locality" />
		<tag k="ssr:stedsnr" v="151508" />
	</node>
	<node lat="63.87158055911065" lon="9.971580549314096" id="-53959">
		<tag k="fixme" v="consider natural=peak for the most distinct mountains in the district" />
		<tag k="name" v="Kvennavassteigen" />
		<tag k="natural" v="hill" />
		<tag k="place" v="locality" />
		<tag k="ssr:stedsnr" v="151561" />
	</node>
	<node lat="63.87747222138657" lon="9.950791666374073" id="-53960">
		<tag k="name" v="Vannaskardet" />
		<tag k="natural" v="valley" />
		<tag k="place" v="locality" />
		<tag k="ssr:stedsnr" v="151563" />
	</node>
	<node lat="63.82154166263111" lon="9.73749445196963" id="-53963">
		<tag k="name" v="Håkadalen" />
		<tag k="natural" v="valley" />
		<tag k="place" v="locality" />
		<tag k="ssr:stedsnr" v="151704" />
	</node>
	<node lat="63.816355552692116" lon="9.68469721853963" id="-53964">
		<tag k="name" v="Sjøhaugan" />
		<tag k="natural" v="hill" />
		<tag k="place" v="locality" />
		<tag k="ssr:stedsnr" v="151708" />
	</node>
	<node lat="63.814202781849104" lon="9.687233335191046" id="-53965">
		<tag k="name" v="Storhaugen" />
		<tag k="natural" v="hill" />
		<tag k="place" v="locality" />
		<tag k="ssr:stedsnr" v="151714" />
	</node>
	<node lat="63.85497778112892" lon="9.797244435157934" id="-53966">
		<tag k="name" v="Bjønnadalen" />
		<tag k="natural" v="valley" />
		<tag k="place" v="locality" />
		<tag k="ssr:stedsnr" v="151722" />
	</node>
	<node lat="63.74810000095531" lon="9.857761114955018" id="-53970">
		<tag k="name" v="Eidsskardet" />
		<tag k="natural" v="valley" />
		<tag k="place" v="locality" />
		<tag k="ssr:stedsnr" v="151452" />
	</node>
	<node lat="63.74577777793225" lon="9.887036108996059" id="-53971">
		<tag k="fixme" v="consider natural=peak for the most distinct mountains in the district" />
		<tag k="name" v="Novafjellet" />
		<tag k="natural" v="hill" />
		<tag k="place" v="locality" />
		<tag k="ssr:stedsnr" v="151454" />
	</node>
	<node lat="63.76221944299024" lon="9.90667499386876" id="-53973">
		<tag k="name" v="Blankheidalen" />
		<tag k="natural" v="valley" />
		<tag k="place" v="locality" />
		<tag k="ssr:stedsnr" v="151665" />
	</node>
	<node lat="63.764752775778405" lon="9.600083336409948" id="-53975">
		<tag k="name" v="Lauvskardbakken" />
		<tag k="natural" v="slope" />
		<tag k="place" v="locality" />
		<tag k="ssr:stedsnr" v="151697" />
	</node>
	<node lat="63.882105556751476" lon="9.77612221824026" id="-54006">
		<tag k="alt_name" v="Skjørøyhauet, s" />
		<tag k="fixme" v="multiple name tags, choose one and add the other to alt_name" />
		<tag k="name" v="Søre Skjørøyhauet;Vassdalshaugen" />
		<tag k="natural" v="hill" />
		<tag k="place" v="locality" />
		<tag k="ssr:stedsnr" v="195588" />
	</node>
	<node lat="63.82890278036051" lon="9.957686108746833" id="-54012">
		<tag k="name" v="Tømmerholan" />
		<tag k="place" v="locality" />
		<tag k="ssr:stedsnr" v="204108" />
	</node>
	<node lat="63.818991670298736" lon="10.187661108827395" id="-54014">
		<tag k="name" v="Blanktjønnhøgda" />
		<tag k="natural" v="hill" />
		<tag k="place" v="locality" />
		<tag k="ssr:stedsnr" v="212106" />
	</node>
	<node lat="63.804702781452136" lon="9.392508325903078" id="-54017">
		<tag k="name" v="Kvalvika" />
		<tag k="place" v="locality" />
		<tag k="ssr:stedsnr" v="212188" />
	</node>
	<node lat="63.795013892626514" lon="9.387811113773823" id="-54021">
		<tag k="name" v="Margidohaugen" />
		<tag k="natural" v="hill" />
		<tag k="place" v="locality" />
		<tag k="ssr:stedsnr" v="212202" />
	</node>
	<node lat="63.8614972232563" lon="9.998208338421273" id="-54030">
		<tag k="name" v="Storflauget" />
		<tag k="natural" v="cliff" />
		<tag k="ssr:stedsnr" v="212533" />
	</node>
	<node lat="63.75457500016706" lon="9.947600003306793" id="-54032">
		<tag k="name" v="Notneshaugen" />
		<tag k="natural" v="hill" />
		<tag k="place" v="locality" />
		<tag k="ssr:stedsnr" v="212581" />
	</node>
	<node lat="63.76996666804756" lon="9.98271388524844" id="-54033">
		<tag k="fixme" v="consider natural=peak for the most distinct mountains in the district" />
		<tag k="name" v="Søykjkammen" />
		<tag k="natural" v="hill" />
		<tag k="place" v="locality" />
		<tag k="ssr:stedsnr" v="212590" />
	</node>
	<node lat="63.82583611201461" lon="9.684288891126055" id="-54035">
		<tag k="name" v="Valskardhaugen" />
		<tag k="natural" v="hill" />
		<tag k="place" v="locality" />
		<tag k="ssr:stedsnr" v="212703" />
	</node>
	<node lat="63.78943055305939" lon="9.753016669456475" id="-54038">
		<tag k="name" v="Grasheia" />
		<tag k="natural" v="hill" />
		<tag k="place" v="locality" />
		<tag k="ssr:stedsnr" v="212478" />
	</node>
	<node lat="63.868700004142475" lon="9.854261102803832" id="-54039">
		<tag k="name" v="Grønholet" />
		<tag k="natural" v="slope" />
		<tag k="place" v="locality" />
		<tag k="ssr:stedsnr" v="212602" />
	</node>
	<node lat="63.83299999599477" lon="9.83339723076911" id="-54044">
		<tag k="fixme" v="consider natural=peak for the most distinct mountains in the district" />
		<tag k="name" v="Kattafjellet" />
		<tag k="natural" v="hill" />
		<tag k="place" v="locality" />
		<tag k="ssr:stedsnr" v="212675" />
	</node>
	<node lat="63.84013610926257" lon="10.208363886096343" id="-54080">
		<tag k="name" v="Godliheia" />
		<tag k="natural" v="hill" />
		<tag k="place" v="locality" />
		<tag k="ssr:stedsnr" v="224216" />
	</node>
	<node lat="63.81167556446489" lon="10.16233572605507" id="-54081">
		<tag k="alt_name" v="Sør Bjønndalshøgda" />
		<tag k="name" v="Sør Bjønnadalshøgda" />
		<tag k="natural" v="hill" />
		<tag k="place" v="locality" />
		<tag k="ssr:stedsnr" v="224905" />
	</node>
	<node lat="63.832833784924986" lon="10.215576887744017" id="-54082">
		<tag k="name" v="Nordseterheia" />
		<tag k="natural" v="hill" />
		<tag k="old_name" v="Nordsæterheia" />
		<tag k="place" v="locality" />
		<tag k="ssr:stedsnr" v="225596" />
	</node>
	<node lat="63.83190555876061" lon="10.055038883390047" id="-54089">
		<tag k="name" v="Bjønnastokken" />
		<tag k="natural" v="slope" />
		<tag k="place" v="locality" />
		<tag k="ssr:stedsnr" v="455086" />
	</node>
	<node lat="63.809158332559235" lon="9.39989166623717" id="-54092">
		<tag k="name" v="Kråkhaugen" />
		<tag k="natural" v="hill" />
		<tag k="place" v="locality" />
		<tag k="ssr:stedsnr" v="455171" />
	</node>
	<node lat="63.800366668740715" lon="9.3903583318359" id="-54094">
		<tag k="name" v="Stallhaugan" />
		<tag k="natural" v="hill" />
		<tag k="place" v="locality" />
		<tag k="ssr:stedsnr" v="455186" />
	</node>
	<node lat="63.824897218544" lon="9.415058324803633" id="-54095">
		<tag k="name" v="Valøyhaugen" />
		<tag k="natural" v="hill" />
		<tag k="place" v="locality" />
		<tag k="ssr:stedsnr" v="455194" />
	</node>
	<node lat="63.81885555977485" lon="9.98344444293357" id="-54099">
		<tag k="name" v="Skjenngrasholet" />
		<tag k="place" v="locality" />
		<tag k="ssr:stedsnr" v="455035" />
	</node>
	<node lat="63.741322226231254" lon="9.710938897517318" id="-54104">
		<tag k="name" v="Grønnbakkhaugan" />
		<tag k="natural" v="hill" />
		<tag k="place" v="locality" />
		<tag k="ssr:stedsnr" v="455146" />
	</node>
	<node lat="63.85109721830587" lon="9.878427782603588" id="-54109">
		<tag k="fixme" v="consider natural=peak for the most distinct mountains in the district" />
		<tag k="name" v="Aunafjellet" />
		<tag k="natural" v="hill" />
		<tag k="place" v="locality" />
		<tag k="ssr:stedsnr" v="455348" />
	</node>
	<node lat="63.86793610864296" lon="9.961041675624628" id="-54111">
		<tag k="name" v="Litlhollia" />
		<tag k="natural" v="slope" />
		<tag k="place" v="locality" />
		<tag k="ssr:stedsnr" v="455542" />
	</node>
	<node lat="63.85248055683811" lon="9.855880557660154" id="-54114">
		<tag k="name" v="Bryggberget" />
		<tag k="natural" v="hill" />
		<tag k="place" v="locality" />
		<tag k="ssr:stedsnr" v="455551" />
	</node>
	<node lat="63.78267500292295" lon="10.095747218944352" id="-54115">
		<tag k="fixme" v="consider natural=peak for the most distinct mountains in the district" />
		<tag k="name" v="Holan" />
		<tag k="natural" v="hill" />
		<tag k="place" v="locality" />
		<tag k="ssr:stedsnr" v="455585" />
	</node>
	<node lat="63.78788333356616" lon="10.144436114632697" id="-54116">
		<tag k="fixme" v="consider natural=peak for the most distinct mountains in the district" />
		<tag k="name" v="Petterholet" />
		<tag k="natural" v="hill" />
		<tag k="place" v="locality" />
		<tag k="ssr:stedsnr" v="455589" />
	</node>
	<node lat="63.78584166736488" lon="10.051808334060162" id="-54118">
		<tag k="name" v="Kvennhusbakkan" />
		<tag k="natural" v="slope" />
		<tag k="place" v="locality" />
		<tag k="ssr:stedsnr" v="455594" />
	</node>
	<node lat="63.753816662431305" lon="9.871524997200298" id="-54124">
		<tag k="name" v="Krylskardet" />
		<tag k="natural" v="valley" />
		<tag k="place" v="locality" />
		<tag k="ssr:stedsnr" v="455446" />
	</node>
	<node lat="63.87692020226306" lon="10.045116782123793" id="-54125">
		<tag k="name" v="Stasheia" />
		<tag k="natural" v="hill" />
		<tag k="place" v="locality" />
		<tag k="ssr:stedsnr" v="456084" />
	</node>
	<node lat="63.72090833543171" lon="9.859458329016437" id="-54126">
		<tag k="name" v="Risvikklumpen" />
		<tag k="natural" v="hill" />
		<tag k="place" v="locality" />
		<tag k="ssr:stedsnr" v="455389" />
	</node>
	<node lat="63.777488889598146" lon="9.826363890226789" id="-54127">
		<tag k="name" v="Rundklumpen" />
		<tag k="natural" v="hill" />
		<tag k="place" v="locality" />
		<tag k="ssr:stedsnr" v="455394" />
	</node>
	<node lat="63.887000003455206" lon="9.796130551820854" id="-54134">
		<tag k="name" v="Bastuhaugen" />
		<tag k="natural" v="hill" />
		<tag k="place" v="locality" />
		<tag k="ssr:stedsnr" v="455627" />
	</node>
	<node lat="63.770305560011714" lon="9.89456389237236" id="-54135">
		<tag k="name" v="Setervollhaugen" />
		<tag k="natural" v="hill" />
		<tag k="place" v="locality" />
		<tag k="ssr:stedsnr" v="455651" />
	</node>
	<node lat="63.84793610687573" lon="9.760111102459115" id="-54136">
		<tag k="name" v="Langskardet" />
		<tag k="natural" v="valley" />
		<tag k="place" v="locality" />
		<tag k="ssr:stedsnr" v="455698" />
	</node>
	<node lat="63.83976389241661" lon="9.725719449810288" id="-54137">
		<tag k="name" v="Espeskardet" />
		<tag k="natural" v="valley" />
		<tag k="place" v="locality" />
		<tag k="ssr:stedsnr" v="455722" />
	</node>
	<node lat="63.775702780239186" lon="9.677147215448715" id="-54141">
		<tag k="name" v="Budalen" />
		<tag k="natural" v="valley" />
		<tag k="place" v="locality" />
		<tag k="ssr:stedsnr" v="455658" />
	</node>
	<node lat="63.81913888994743" lon="9.73615555969002" id="-54145">
		<tag k="name" v="Håkadalsletta" />
		<tag k="place" v="locality" />
		<tag k="ssr:stedsnr" v="455783" />
	</node>
	<node lat="63.71556388960083" lon="9.674141669932727" id="-54154">
		<tag k="name" v="Lerberen" />
		<tag k="natural" v="hill" />
		<tag k="place" v="locality" />
		<tag k="ssr:stedsnr" v="255020" />
	</node>
	<node lat="63.87641111139776" lon="9.898141669703993" id="-54158">
		<tag k="name" v="Breidskardet" />
		<tag k="natural" v="valley" />
		<tag k="place" v="locality" />
		<tag k="ssr:stedsnr" v="255566" />
	</node>
	<node lat="63.83017500228619" lon="10.018080548207928" id="-54163">
		<tag k="name" v="Høylasset" />
		<tag k="natural" v="hill" />
		<tag k="place" v="locality" />
		<tag k="ssr:stedsnr" v="256063" />
	</node>
	<node lat="63.77697222310278" lon="10.040524999246973" id="-54166">
		<tag k="fixme" v="consider natural=peak for the most distinct mountains in the district" />
		<tag k="name" v="Ytre Dueskardfjellet" />
		<tag k="natural" v="hill" />
		<tag k="place" v="locality" />
		<tag k="ssr:stedsnr" v="256214" />
	</node>
	<node lat="63.746399998753965" lon="9.794119434797661" id="-54167">
		<tag k="name" v="Klakkshaugen" />
		<tag k="natural" v="hill" />
		<tag k="place" v="locality" />
		<tag k="ssr:stedsnr" v="256174" />
	</node>
	<node lat="63.81033007046255" lon="10.226493252169977" id="-54168">
		<tag k="name" v="Krinsliheia" />
		<tag k="natural" v="hill" />
		<tag k="place" v="locality" />
		<tag k="ssr:stedsnr" v="256403" />
	</node>
	<node lat="63.8215638899871" lon="9.934327773571322" id="-54173">
		<tag k="name" v="Langliheia" />
		<tag k="natural" v="hill" />
		<tag k="place" v="locality" />
		<tag k="ssr:stedsnr" v="273071" />
	</node>
	<node lat="63.85625555340878" lon="10.142788892608944" id="-54175">
		<tag k="name" v="Laugalia" />
		<tag k="natural" v="slope" />
		<tag k="place" v="locality" />
		<tag k="ssr:stedsnr" v="273096" />
	</node>
	<node lat="63.80276666455938" lon="9.41744444506009" id="-54180">
		<tag k="name" v="Kaukarhaugen" />
		<tag k="natural" v="hill" />
		<tag k="place" v="locality" />
		<tag k="ssr:stedsnr" v="273181" />
	</node>
	<node lat="63.808811107081176" lon="9.42800556391371" id="-54181">
		<tag k="name" v="Brunhaugen" />
		<tag k="natural" v="hill" />
		<tag k="place" v="locality" />
		<tag k="ssr:stedsnr" v="273189" />
	</node>
	<node lat="63.79420555221584" lon="9.664936107096857" id="-54188">
		<tag k="name" v="Høglia" />
		<tag k="natural" v="slope" />
		<tag k="place" v="locality" />
		<tag k="ssr:stedsnr" v="273479" />
	</node>
	<node lat="63.765519447119736" lon="9.71621666322054" id="-54190">
		<tag k="fixme" v="consider natural=peak for the most distinct mountains in the district" />
		<tag k="name" v="Fruskolten" />
		<tag k="natural" v="hill" />
		<tag k="place" v="locality" />
		<tag k="ssr:stedsnr" v="273322" />
	</node>
	<node lat="63.856655555597385" lon="9.797086119534278" id="-54191">
		<tag k="fixme" v="consider natural=peak for the most distinct mountains in the district" />
		<tag k="name" v="Langåsen" />
		<tag k="natural" v="hill" />
		<tag k="place" v="locality" />
		<tag k="ssr:stedsnr" v="273373" />
	</node>
	<node lat="63.831583332952526" lon="9.66524166987504" id="-54192">
		<tag k="name" v="Gangstøa" />
		<tag k="natural" v="hill" />
		<tag k="place" v="locality" />
		<tag k="ssr:stedsnr" v="273376" />
	</node>
	<node lat="63.76415277664966" lon="9.968961112328095" id="-54196">
		<tag k="fixme" v="consider natural=peak for the most distinct mountains in the district" />
		<tag k="name" v="Jobrenna" />
		<tag k="natural" v="hill" />
		<tag k="place" v="locality" />
		<tag k="ssr:stedsnr" v="273577" />
	</node>
	<node lat="63.87550833251051" lon="9.92598055594242" id="-54198">
		<tag k="name" v="Storhaugen" />
		<tag k="natural" v="hill" />
		<tag k="place" v="locality" />
		<tag k="ssr:stedsnr" v="273581" />
	</node>
	<node lat="63.762825003248416" lon="9.637633335830033" id="-54202">
		<tag k="name" v="Vettan" />
		<tag k="natural" v="hill" />
		<tag k="place" v="locality" />
		<tag k="ssr:stedsnr" v="273603" />
	</node>
	<node lat="63.886813888018004" lon="9.908705563385176" id="-54203">
		<tag k="name" v="Øysterskardet" />
		<tag k="natural" v="valley" />
		<tag k="place" v="locality" />
		<tag k="ssr:stedsnr" v="273623" />
	</node>
	<node lat="63.890530555723515" lon="9.922013882058687" id="-54205">
		<tag k="fixme" v="consider natural=peak for the most distinct mountains in the district" />
		<tag k="name" v="Liafjellet" />
		<tag k="natural" v="hill" />
		<tag k="place" v="locality" />
		<tag k="ssr:stedsnr" v="273627" />
	</node>
	<node lat="63.76698610857024" lon="9.918600009626926" id="-54209">
		<tag k="name" v="Granlikammen" />
		<tag k="natural" v="hill" />
		<tag k="place" v="locality" />
		<tag k="ssr:stedsnr" v="273686" />
	</node>
	<node lat="63.76901944459169" lon="9.944344450344637" id="-54210">
		<tag k="name" v="Storlia" />
		<tag k="natural" v="slope" />
		<tag k="place" v="locality" />
		<tag k="ssr:stedsnr" v="273690" />
	</node>
	<node lat="63.88629166801032" lon="9.77819999443277" id="-54211">
		<tag k="name" v="Singstrandhaugen" />
		<tag k="natural" v="hill" />
		<tag k="place" v="locality" />
		<tag k="ssr:stedsnr" v="273692" />
	</node>
	<node lat="63.82753610969946" lon="9.796152786590582" id="-54213">
		<tag k="name" v="Skardet" />
		<tag k="natural" v="valley" />
		<tag k="place" v="locality" />
		<tag k="ssr:stedsnr" v="273810" />
	</node>
	<node lat="63.64065277892604" lon="9.442375001432861" id="-54229">
		<tag k="name" v="Hagan" />
		<tag k="natural" v="hill" />
		<tag k="place" v="locality" />
		<tag k="ssr:stedsnr" v="459831" />
	</node>
	<node lat="63.716377775061105" lon="9.670158324789881" id="-54246">
		<tag k="name" v="Storskardet" />
		<tag k="natural" v="valley" />
		<tag k="place" v="locality" />
		<tag k="ssr:stedsnr" v="460976" />
	</node>
	<node lat="63.714052774149415" lon="9.537899997758128" id="-54249">
		<tag k="name" v="Heimhaugen" />
		<tag k="natural" v="hill" />
		<tag k="place" v="locality" />
		<tag k="ssr:stedsnr" v="460957" />
	</node>
	<node lat="63.63965277845481" lon="9.44343055121285" id="-54259">
		<tag k="name" v="Bukkhallaren" />
		<tag k="natural" v="hill" />
		<tag k="place" v="locality" />
		<tag k="ssr:stedsnr" v="316068" />
	</node>
	<node lat="63.858791666965715" lon="9.929519440929738" id="-54260">
		<tag k="alt_name" v="Sørvasslia" />
		<tag k="name" v="Søvasslia" />
		<tag k="natural" v="slope" />
		<tag k="place" v="locality" />
		<tag k="ssr:stedsnr" v="316104" />
	</node>
	<node lat="63.72828888810167" lon="9.86563889253234" id="-54264">
		<tag k="fixme" v="consider natural=peak for the most distinct mountains in the district" />
		<tag k="name" v="Saltnesfjellet" />
		<tag k="natural" v="hill" />
		<tag k="place" v="locality" />
		<tag k="ssr:stedsnr" v="316247" />
	</node>
	<node lat="63.732188892622425" lon="9.769922212658901" id="-54266">
		<tag k="name" v="Pelkushatten" />
		<tag k="natural" v="hill" />
		<tag k="place" v="locality" />
		<tag k="ssr:stedsnr" v="316254" />
	</node>
	<node lat="63.87658055356727" lon="9.960927781986397" id="-54270">
		<tag k="fixme" v="consider natural=peak for the most distinct mountains in the district" />
		<tag k="name" v="Grønnlifjellet" />
		<tag k="natural" v="hill" />
		<tag k="place" v="locality" />
		<tag k="ssr:stedsnr" v="316608" />
	</node>
	<node lat="63.79112778225293" lon="9.678377781557852" id="-54271">
		<tag k="fixme" v="consider natural=peak for the most distinct mountains in the district" />
		<tag k="name" v="Tindan" />
		<tag k="natural" v="hill" />
		<tag k="place" v="locality" />
		<tag k="ssr:stedsnr" v="316696" />
	</node>
	<node lat="63.82397222529944" lon="9.944841663598664" id="-54282">
		<tag k="name" v="Teksdalsseterklumpen" />
		<tag k="natural" v="hill" />
		<tag k="place" v="locality" />
		<tag k="ssr:stedsnr" v="333065" />
	</node>
	<node lat="63.82922499760161" lon="10.069058339199195" id="-54283">
		<tag k="name" v="Stordalen" />
		<tag k="natural" v="valley" />
		<tag k="place" v="locality" />
		<tag k="ssr:stedsnr" v="333099" />
	</node>
	<node lat="63.71959167019865" lon="9.808969435379533" id="-54285">
		<tag k="name" v="Reinsklumpen" />
		<tag k="natural" v="hill" />
		<tag k="place" v="locality" />
		<tag k="ssr:stedsnr" v="333111" />
	</node>
	<node lat="63.744813892970065" lon="9.782758337481432" id="-54286">
		<tag k="name" v="Litlfrødalsklumpen" />
		<tag k="natural" v="hill" />
		<tag k="place" v="locality" />
		<tag k="ssr:stedsnr" v="333167" />
	</node>
	<node lat="63.74965277981406" lon="9.711613891358466" id="-54287">
		<tag k="name" v="Ørnhaugen" />
		<tag k="natural" v="hill" />
		<tag k="place" v="locality" />
		<tag k="ssr:stedsnr" v="333354" />
	</node>
	<node lat="63.774533336403366" lon="10.002200010166218" id="-54288">
		<tag k="name" v="Blomdalen" />
		<tag k="natural" v="valley" />
		<tag k="place" v="locality" />
		<tag k="ssr:stedsnr" v="333609" />
	</node>
	<node lat="63.869136109506094" lon="9.863036115996417" id="-54289">
		<tag k="fixme" v="consider natural=peak for the most distinct mountains in the district" />
		<tag k="name" v="Trøfjellet" />
		<tag k="natural" v="hill" />
		<tag k="place" v="locality" />
		<tag k="ssr:stedsnr" v="333596" />
	</node>
	<node lat="63.870911109106345" lon="9.856613898849716" id="-54291">
		<tag k="fixme" v="consider natural=peak for the most distinct mountains in the district" />
		<tag k="name" v="Litlrømmesfjellet" />
		<tag k="natural" v="hill" />
		<tag k="place" v="locality" />
		<tag k="ssr:stedsnr" v="333600" />
	</node>
	<node lat="63.84103055532543" lon="9.76597776972509" id="-54292">
		<tag k="fixme" v="consider natural=peak for the most distinct mountains in the district" />
		<tag k="name" v="Innertussen" />
		<tag k="natural" v="hill" />
		<tag k="place" v="locality" />
		<tag k="ssr:stedsnr" v="333704" />
	</node>
	<node lat="63.82026944022847" lon="9.636097227973544" id="-54294">
		<tag k="name" v="Vorphaugen" />
		<tag k="natural" v="hill" />
		<tag k="place" v="locality" />
		<tag k="ssr:stedsnr" v="333751" />
	</node>
	<node lat="63.80240832968139" lon="9.917752782265485" id="-54301">
		<tag k="name" v="Støttingdalen" />
		<tag k="natural" v="valley" />
		<tag k="place" v="locality" />
		<tag k="ssr:stedsnr" v="334002" />
	</node>
	<node lat="63.746544442349396" lon="9.865991666672587" id="-54304">
		<tag k="name" v="Småliklumpan" />
		<tag k="natural" v="hill" />
		<tag k="place" v="locality" />
		<tag k="ssr:stedsnr" v="334402" />
	</node>
	<node lat="63.80851944087921" lon="9.669436113345588" id="-54306">
		<tag k="name" v="Brandmodalan" />
		<tag k="natural" v="valley" />
		<tag k="place" v="locality" />
		<tag k="ssr:stedsnr" v="334465" />
	</node>
	<node lat="63.88017778110872" lon="9.987919447080774" id="-54307">
		<tag k="name" v="Gammelseterlia" />
		<tag k="natural" v="slope" />
		<tag k="place" v="locality" />
		<tag k="ssr:stedsnr" v="334495" />
	</node>
	<node lat="63.831766663327535" lon="9.839774991569383" id="-54309">
		<tag k="name" v="Felia" />
		<tag k="natural" v="slope" />
		<tag k="place" v="locality" />
		<tag k="ssr:stedsnr" v="334652" />
	</node>
	<node lat="63.87213055728439" lon="9.988269447534305" id="-54313">
		<tag k="fixme" v="consider natural=peak for the most distinct mountains in the district" />
		<tag k="name" v="Bjønnastokken" />
		<tag k="natural" v="hill" />
		<tag k="place" v="locality" />
		<tag k="ssr:stedsnr" v="334512" />
	</node>
	<node lat="63.81473333307026" lon="10.088416673687295" id="-54315">
		<tag k="name" v="Svartdalskammen" />
		<tag k="natural" v="hill" />
		<tag k="place" v="locality" />
		<tag k="ssr:stedsnr" v="334546" />
	</node>
	<node lat="63.88751389012033" lon="9.894616663027753" id="-54316">
		<tag k="fixme" v="consider natural=peak for the most distinct mountains in the district" />
		<tag k="name" v="Husfjellet" />
		<tag k="natural" v="hill" />
		<tag k="place" v="locality" />
		<tag k="ssr:stedsnr" v="334599" />
	</node>
	<node lat="63.72519166745188" lon="9.593636114979065" id="-54326">
		<tag k="name" v="Uthaugshaugen" />
		<tag k="natural" v="hill" />
		<tag k="place" v="locality" />
		<tag k="ssr:stedsnr" v="337992" />
	</node>
	<node lat="63.73546666643456" lon="9.726172212822636" id="-54330">
		<tag k="fixme" v="consider natural=peak for the most distinct mountains in the district" />
		<tag k="name" v="Torshammaren" />
		<tag k="natural" v="hill" />
		<tag k="place" v="locality" />
		<tag k="ssr:stedsnr" v="338722" />
	</node>
	<node lat="63.72912222282289" lon="9.73509166113703" id="-54338">
		<tag k="fixme" v="consider natural=peak for the most distinct mountains in the district" />
		<tag k="name" v="Rusasetfjellet" />
		<tag k="natural" v="hill" />
		<tag k="place" v="locality" />
		<tag k="ssr:stedsnr" v="338950" />
	</node>
	<node lat="63.76081388608861" lon="9.912288881242041" id="-54342">
		<tag k="fixme" v="consider natural=peak for the most distinct mountains in the district" />
		<tag k="name" v="Blankheia" />
		<tag k="natural" v="hill" />
		<tag k="place" v="locality" />
		<tag k="ssr:stedsnr" v="376206" />
	</node>
	<node lat="63.80834444831398" lon="9.95314722223063" id="-54345">
		<tag k="fixme" v="consider natural=peak for the most distinct mountains in the district" />
		<tag k="name" v="Gudafjellet" />
		<tag k="natural" v="hill" />
		<tag k="place" v="locality" />
		<tag k="ssr:stedsnr" v="394017" />
	</node>
	<node lat="63.81742777829036" lon="9.988516666293144" id="-54346">
		<tag k="name" v="Hildremslia" />
		<tag k="natural" v="slope" />
		<tag k="place" v="locality" />
		<tag k="ssr:stedsnr" v="394031" />
	</node>
	<node lat="63.79113888445611" lon="9.820047227218199" id="-54350">
		<tag k="name" v="Eidsskardet" />
		<tag k="natural" v="valley" />
		<tag k="place" v="locality" />
		<tag k="ssr:stedsnr" v="394308" />
	</node>
	<node lat="63.74869166525016" lon="9.716694436145255" id="-54364">
		<tag k="name" v="Rishaugen" />
		<tag k="natural" v="hill" />
		<tag k="place" v="locality" />
		<tag k="ssr:stedsnr" v="394416" />
	</node>
	<node lat="63.82724166470108" lon="9.660691667943702" id="-54368">
		<tag k="name" v="Bakkavarden" />
		<tag k="natural" v="hill" />
		<tag k="place" v="locality" />
		<tag k="ssr:stedsnr" v="394389" />
	</node>
	<node lat="63.83723055144144" lon="9.669744444582715" id="-54369">
		<tag k="name" v="Oterhaugen" />
		<tag k="natural" v="hill" />
		<tag k="place" v="locality" />
		<tag k="ssr:stedsnr" v="394503" />
	</node>
	<node lat="63.85345278160983" lon="9.94852221375914" id="-54371">
		<tag k="name" v="Sørvassvikern" />
		<tag k="natural" v="slope" />
		<tag k="place" v="locality" />
		<tag k="ssr:stedsnr" v="394530" />
	</node>
	<node lat="63.795944445062275" lon="10.057675003082771" id="-54374">
		<tag k="name" v="Vargolliklumpen" />
		<tag k="natural" v="hill" />
		<tag k="place" v="locality" />
		<tag k="ssr:stedsnr" v="394538" />
	</node>
	<node lat="63.7755361137228" lon="10.071555552211224" id="-54375">
		<tag k="name" v="Løkholberga" />
		<tag k="natural" v="hill" />
		<tag k="place" v="locality" />
		<tag k="ssr:stedsnr" v="394585" />
	</node>
	<node lat="63.78001388670687" lon="10.075813895297756" id="-54376">
		<tag k="fixme" v="consider natural=peak for the most distinct mountains in the district" />
		<tag k="name" v="Fjellet" />
		<tag k="natural" v="hill" />
		<tag k="place" v="locality" />
		<tag k="ssr:stedsnr" v="394586" />
	</node>
	<node lat="63.865338893374606" lon="9.863924993587522" id="-54377">
		<tag k="name" v="Hannaskardhaugan" />
		<tag k="natural" v="hill" />
		<tag k="place" v="locality" />
		<tag k="ssr:stedsnr" v="394588" />
	</node>
	<node lat="63.876952773988485" lon="9.867944447063287" id="-54378">
		<tag k="name" v="Kulia" />
		<tag k="natural" v="slope" />
		<tag k="place" v="locality" />
		<tag k="ssr:stedsnr" v="394594" />
	</node>
	<node lat="63.82937499806156" lon="9.69015000107422" id="-54379">
		<tag k="name" v="Herstaskardet" />
		<tag k="natural" v="valley" />
		<tag k="place" v="locality" />
		<tag k="ssr:stedsnr" v="394703" />
	</node>
	<node lat="63.84150555803106" lon="9.779355562744797" id="-54380">
		<tag k="name" v="Staurhylla" />
		<tag k="natural" v="hill" />
		<tag k="place" v="locality" />
		<tag k="ssr:stedsnr" v="394710" />
	</node>
	<node lat="63.78123055431784" lon="9.866419453507644" id="-54381">
		<tag k="name" v="Høgseterhaugen" />
		<tag k="natural" v="hill" />
		<tag k="place" v="locality" />
		<tag k="ssr:stedsnr" v="394430" />
	</node>
	<node lat="63.75716389007968" lon="9.8046388791075" id="-54384">
		<tag k="name" v="Nonshaugen" />
		<tag k="natural" v="hill" />
		<tag k="place" v="locality" />
		<tag k="ssr:stedsnr" v="394497" />
	</node>
	<node lat="63.8528694459582" lon="9.92381389508344" id="-54386">
		<tag k="name" v="Moltheia" />
		<tag k="natural" v="hill" />
		<tag k="place" v="locality" />
		<tag k="ssr:stedsnr" v="394682" />
	</node>
	<node lat="63.84774722401897" lon="9.907352775910322" id="-54387">
		<tag k="name" v="Brandhaugen" />
		<tag k="natural" v="hill" />
		<tag k="place" v="locality" />
		<tag k="ssr:stedsnr" v="394684" />
	</node>
	<node lat="63.856894440530965" lon="9.895986118244126" id="-54388">
		<tag k="name" v="Porten" />
		<tag k="natural" v="hill" />
		<tag k="place" v="locality" />
		<tag k="ssr:stedsnr" v="394685" />
	</node>
	<node lat="63.82194444237866" lon="9.703622215711375" id="-54389">
		<tag k="name" v="Masterberget" />
		<tag k="natural" v="hill" />
		<tag k="place" v="locality" />
		<tag k="ssr:stedsnr" v="394692" />
	</node>
	<node lat="63.81378333649814" lon="9.729786107654908" id="-54390">
		<tag k="fixme" v="consider natural=peak for the most distinct mountains in the district" />
		<tag k="name" v="Grønholan" />
		<tag k="natural" v="hill" />
		<tag k="place" v="locality" />
		<tag k="ssr:stedsnr" v="394697" />
	</node>
	<node lat="63.81883888813209" lon="9.723819446615243" id="-54391">
		<tag k="name" v="Ørnhaugen" />
		<tag k="natural" v="hill" />
		<tag k="place" v="locality" />
		<tag k="ssr:stedsnr" v="394700" />
	</node>
	<node lat="63.651422225092674" lon="9.56993887928992" id="-54412">
		<tag k="name" v="Beihaugen" />
		<tag k="natural" v="hill" />
		<tag k="place" v="locality" />
		<tag k="ssr:stedsnr" v="399762" />
	</node>
	<node lat="63.84669722093521" lon="10.033380565204729" id="-54426">
		<tag k="alt_name" v="Oldskorda" />
		<tag k="fixme" v="consider natural=peak for the most distinct mountains in the district" />
		<tag k="name" v="Oldskora" />
		<tag k="natural" v="hill" />
		<tag k="place" v="locality" />
		<tag k="ssr:stedsnr" v="438066" />
	</node>
	<node lat="63.78501388816086" lon="10.00513054796756" id="-54429">
		<tag k="fixme" v="consider natural=peak for the most distinct mountains in the district" />
		<tag k="name" v="Gjøljakammen" />
		<tag k="natural" v="hill" />
		<tag k="old_name" v="Gjølgakammen" />
		<tag k="place" v="locality" />
		<tag k="ssr:stedsnr" v="438214" />
	</node>
	<node lat="63.72283611024212" lon="9.66403054700993" id="-54433">
		<tag k="name" v="Kleivan" />
		<tag k="natural" v="slope" />
		<tag k="place" v="locality" />
		<tag k="ssr:stedsnr" v="449478" />
	</node>
	<node lat="63.85660555913719" lon="10.019724991881523" id="-54440">
		<tag k="name" v="Kubenken" />
		<tag k="natural" v="slope" />
		<tag k="place" v="locality" />
		<tag k="ssr:stedsnr" v="455102" />
	</node>
	<node lat="63.89122221950357" lon="9.887180556559212" id="-54447">
		<tag k="name" v="Håmannvikberga" />
		<tag k="natural" v="hill" />
		<tag k="place" v="locality" />
		<tag k="ssr:stedsnr" v="455338" />
	</node>
	<node lat="63.77278888584025" lon="9.762386118641867" id="-54448">
		<tag k="name" v="Smedheia" />
		<tag k="natural" v="hill" />
		<tag k="place" v="locality" />
		<tag k="ssr:stedsnr" v="455457" />
	</node>
	<node lat="63.753616670628176" lon="9.796891658078161" id="-54450">
		<tag k="name" v="Grønvollaksla" />
		<tag k="natural" v="hill" />
		<tag k="place" v="locality" />
		<tag k="ssr:stedsnr" v="455465" />
	</node>
	<node lat="63.840436109143944" lon="9.97391665892446" id="-54454">
		<tag k="name" v="Øvre Åltjønnbakken" />
		<tag k="natural" v="slope" />
		<tag k="place" v="locality" />
		<tag k="ssr:stedsnr" v="455517" />
	</node>
	<node lat="63.772091670027905" lon="9.623330562314221" id="-54455">
		<tag k="name" v="Duhallarholet" />
		<tag k="natural" v="valley" />
		<tag k="place" v="locality" />
		<tag k="ssr:stedsnr" v="455519" />
	</node>
	<node lat="63.763855551389106" lon="10.010780565113619" id="-54457">
		<tag k="name" v="Bekkadalen" />
		<tag k="natural" v="valley" />
		<tag k="place" v="locality" />
		<tag k="ssr:stedsnr" v="455569" />
	</node>
	<node lat="63.76863611422511" lon="10.027547212943505" id="-54458">
		<tag k="fixme" v="consider natural=peak for the most distinct mountains in the district" />
		<tag k="name" v="Kippnesklumpen" />
		<tag k="natural" v="hill" />
		<tag k="place" v="locality" />
		<tag k="ssr:stedsnr" v="455571" />
	</node>
	<node lat="63.837777778123694" lon="9.718861116335727" id="-54460">
		<tag k="name" v="Selliskardet" />
		<tag k="natural" v="valley" />
		<tag k="place" v="locality" />
		<tag k="ssr:stedsnr" v="455714" />
	</node>
	<node lat="63.80229722663985" lon="9.713769437085062" id="-54461">
		<tag k="name" v="Eldskardet" />
		<tag k="natural" v="valley" />
		<tag k="place" v="locality" />
		<tag k="ssr:stedsnr" v="455804" />
	</node>
	<node lat="63.80559166365731" lon="10.138027779032285" id="-54482">
		<tag k="name" v="Fusslia" />
		<tag k="natural" v="slope" />
		<tag k="place" v="locality" />
		<tag k="ssr:stedsnr" v="467909" />
	</node>
	<node lat="63.80022499621885" lon="9.390166666575615" id="-54486">
		<tag k="alt_name" v="Stallhaugen, nordre" />
		<tag k="name" v="Nordre Stallhaugen" />
		<tag k="natural" v="hill" />
		<tag k="place" v="locality" />
		<tag k="ssr:stedsnr" v="680693" />
	</node>
	<node lat="63.81590000227058" lon="9.87045834062427" id="-54488">
		<tag k="name" v="Raudholtuva" />
		<tag k="natural" v="hill" />
		<tag k="place" v="locality" />
		<tag k="ssr:stedsnr" v="680027" />
	</node>
	<node lat="63.8114777737265" lon="9.871438884811496" id="-54489">
		<tag k="name" v="Jøvassheian" />
		<tag k="natural" v="hill" />
		<tag k="place" v="locality" />
		<tag k="ssr:stedsnr" v="680028" />
	</node>
	<node lat="63.6472277821406" lon="9.547352767873209" id="-54493">
		<tag k="fixme" v="consider natural=peak for the most distinct mountains in the district" />
		<tag k="name" v="Synnørsfjellet" />
		<tag k="natural" v="hill" />
		<tag k="place" v="locality" />
		<tag k="ssr:stedsnr" v="680068" />
	</node>
	<node lat="63.639041662893874" lon="9.513766672425563" id="-54494">
		<tag k="name" v="Hamnaberget" />
		<tag k="natural" v="hill" />
		<tag k="place" v="locality" />
		<tag k="ssr:stedsnr" v="680071" />
	</node>
	<node lat="63.66680000295995" lon="9.380755564325193" id="-54496">
		<tag k="name" v="Storhaugen" />
		<tag k="natural" v="hill" />
		<tag k="place" v="locality" />
		<tag k="ssr:stedsnr" v="680043" />
	</node>
	<node lat="63.817400000989416" lon="10.05473332611904" id="-54497">
		<tag k="name" v="Bjørkliheia" />
		<tag k="natural" v="hill" />
		<tag k="place" v="locality" />
		<tag k="ssr:stedsnr" v="680044" />
	</node>
	<node lat="63.82143333065411" lon="9.988588886657768" id="-54498">
		<tag k="alt_name" v="Raufjellet" />
		<tag k="fixme" v="consider natural=peak for the most distinct mountains in the district" />
		<tag k="name" v="Raudfjellet" />
		<tag k="natural" v="hill" />
		<tag k="place" v="locality" />
		<tag k="ssr:stedsnr" v="680046" />
	</node>
	<node lat="63.860361108533034" lon="9.950547223068787" id="-54500">
		<tag k="name" v="Melvassheia" />
		<tag k="natural" v="hill" />
		<tag k="place" v="locality" />
		<tag k="ssr:stedsnr" v="680129" />
	</node>
	<node lat="63.73600277664639" lon="9.783536112038432" id="-54508">
		<tag k="fixme" v="consider natural=peak for the most distinct mountains in the district" />
		<tag k="name" v="Råfjellet" />
		<tag k="natural" v="hill" />
		<tag k="place" v="locality" />
		<tag k="ssr:stedsnr" v="680254" />
	</node>
	<node lat="63.76976388894358" lon="9.71625278480041" id="-54512">
		<tag k="fixme" v="consider natural=peak for the most distinct mountains in the district" />
		<tag k="name" v="Jørnåsen" />
		<tag k="natural" v="hill" />
		<tag k="place" v="locality" />
		<tag k="ssr:stedsnr" v="680790" />
	</node>
	<node lat="63.7925777774811" lon="10.095413886165083" id="-54524">
		<tag k="name" v="Almtjønnkollen" />
		<tag k="natural" v="hill" />
		<tag k="place" v="locality" />
		<tag k="ssr:stedsnr" v="498290" />
	</node>
	<node lat="63.72467777945788" lon="9.81061667553257" id="-54525">
		<tag k="alt_name" v="Tvartforhaugen" />
		<tag k="name" v="Tvertforhaugen" />
		<tag k="natural" v="hill" />
		<tag k="place" v="locality" />
		<tag k="ssr:stedsnr" v="498291" />
	</node>
	<node lat="63.893066664424964" lon="9.814736102519799" id="-54531">
		<tag k="alt_name" v="Skjørøyhauet, nordre" />
		<tag k="fixme" v="multiple name tags, choose one and add the other to alt_name" />
		<tag k="name" v="Nordre Skjørøyhauet;Vardfjellet" />
		<tag k="natural" v="hill" />
		<tag k="place" v="locality" />
		<tag k="ssr:stedsnr" v="681587" />
	</node>
	<node lat="63.83001110863732" lon="10.094677772267595" id="-54534">
		<tag k="name" v="Fiskløysskardet" />
		<tag k="natural" v="valley" />
		<tag k="place" v="locality" />
		<tag k="ssr:stedsnr" v="515105" />
	</node>
	<node lat="63.8485888905582" lon="10.025880549011116" id="-54535">
		<tag k="fixme" v="consider natural=peak for the most distinct mountains in the district" />
		<tag k="name" v="Svarttrappen" />
		<tag k="natural" v="hill" />
		<tag k="place" v="locality" />
		<tag k="ssr:stedsnr" v="515115" />
	</node>
	<node lat="63.82316666863062" lon="9.876541671792523" id="-54536">
		<tag k="name" v="Rognlihaugen" />
		<tag k="natural" v="hill" />
		<tag k="place" v="locality" />
		<tag k="ssr:stedsnr" v="515014" />
	</node>
	<node lat="63.75991389101093" lon="9.764950009396626" id="-54545">
		<tag k="fixme" v="consider natural=peak for the most distinct mountains in the district" />
		<tag k="name" v="Kleivafjellet" />
		<tag k="natural" v="hill" />
		<tag k="place" v="locality" />
		<tag k="ssr:stedsnr" v="515314" />
	</node>
	<node lat="63.737108337461756" lon="9.82387500198158" id="-54546">
		<tag k="name" v="Eidsbrekka" />
		<tag k="natural" v="valley" />
		<tag k="place" v="locality" />
		<tag k="ssr:stedsnr" v="515326" />
	</node>
	<node lat="63.83954722477156" lon="9.835936109394765" id="-54549">
		<tag k="fixme" v="consider natural=peak for the most distinct mountains in the district" />
		<tag k="name" v="Stangfjellet" />
		<tag k="natural" v="hill" />
		<tag k="place" v="locality" />
		<tag k="ssr:stedsnr" v="515382" />
	</node>
	<node lat="63.85165833751092" lon="9.806969445551168" id="-54551">
		<tag k="name" v="Stormyrhaugen" />
		<tag k="natural" v="hill" />
		<tag k="place" v="locality" />
		<tag k="ssr:stedsnr" v="515602" />
	</node>
	<node lat="63.86889444148071" lon="9.874986108259353" id="-54552">
		<tag k="name" v="Stokkmyrlia" />
		<tag k="natural" v="slope" />
		<tag k="place" v="locality" />
		<tag k="ssr:stedsnr" v="515614" />
	</node>
	<node lat="63.7811666702712" lon="9.983455563169647" id="-54554">
		<tag k="name" v="Kråkhaugen" />
		<tag k="natural" v="hill" />
		<tag k="place" v="locality" />
		<tag k="ssr:stedsnr" v="515621" />
	</node>
	<node lat="63.891211109231406" lon="9.929952785782968" id="-54556">
		<tag k="name" v="Nausthaugen" />
		<tag k="natural" v="hill" />
		<tag k="place" v="locality" />
		<tag k="ssr:stedsnr" v="515631" />
	</node>
	<node lat="63.78729722198166" lon="10.03901389034649" id="-54557">
		<tag k="name" v="Kvolva" />
		<tag k="place" v="locality" />
		<tag k="ssr:stedsnr" v="515632" />
	</node>
	<node lat="63.87946388925562" lon="9.869152787858065" id="-54559">
		<tag k="name" v="Klaven" />
		<tag k="natural" v="ridge" />
		<tag k="place" v="locality" />
		<tag k="ssr:stedsnr" v="515512" />
	</node>
	<node lat="63.8453194463855" lon="9.816219443791383" id="-54563">
		<tag k="name" v="Straumhaugan" />
		<tag k="natural" v="hill" />
		<tag k="place" v="locality" />
		<tag k="ssr:stedsnr" v="515601" />
	</node>
	<node lat="63.824497219681746" lon="9.651980551814356" id="-54565">
		<tag k="name" v="Kråkberget" />
		<tag k="natural" v="hill" />
		<tag k="place" v="locality" />
		<tag k="ssr:stedsnr" v="515770" />
	</node>
	<node lat="63.81365277686454" lon="9.657466676411685" id="-54566">
		<tag k="name" v="Sandahaugan" />
		<tag k="natural" v="hill" />
		<tag k="place" v="locality" />
		<tag k="ssr:stedsnr" v="515778" />
	</node>
	<node lat="63.824027779609466" lon="9.79872500252215" id="-54568">
		<tag k="fixme" v="consider natural=peak for the most distinct mountains in the district" />
		<tag k="name" v="Bekkpynten" />
		<tag k="natural" v="hill" />
		<tag k="place" v="locality" />
		<tag k="ssr:stedsnr" v="515802" />
	</node>
	<node lat="63.82206388824349" lon="9.769727778547775" id="-54569">
		<tag k="name" v="Kleivan" />
		<tag k="natural" v="valley" />
		<tag k="place" v="locality" />
		<tag k="ssr:stedsnr" v="515807" />
	</node>
	<node lat="63.82095277611366" lon="9.633958324751443" id="-54570">
		<tag k="name" v="Martahaugen" />
		<tag k="natural" v="hill" />
		<tag k="place" v="locality" />
		<tag k="ssr:stedsnr" v="515816" />
	</node>
	<node lat="63.65187499914457" lon="9.439336106853572" id="-54582">
		<tag k="name" v="Kleiva" />
		<tag k="natural" v="valley" />
		<tag k="place" v="locality" />
		<tag k="ssr:stedsnr" v="520819" />
	</node>
	<node lat="63.66921388463677" lon="9.430869437024125" id="-54583">
		<tag k="name" v="Nausthaugen" />
		<tag k="natural" v="hill" />
		<tag k="place" v="locality" />
		<tag k="ssr:stedsnr" v="520829" />
	</node>
	<node lat="63.655644445313506" lon="9.572347214203356" id="-54584">
		<tag k="name" v="Nauthaugen" />
		<tag k="natural" v="hill" />
		<tag k="place" v="locality" />
		<tag k="ssr:stedsnr" v="520760" />
	</node>
	<node lat="63.812744444082746" lon="9.894997223154562" id="-54590">
		<tag k="name" v="Langdalen" />
		<tag k="natural" v="valley" />
		<tag k="place" v="locality" />
		<tag k="ssr:stedsnr" v="558016" />
	</node>
	<node lat="63.85486944727918" lon="9.982683340383817" id="-54602">
		<tag k="name" v="Storvassheia" />
		<tag k="natural" v="hill" />
		<tag k="place" v="locality" />
		<tag k="ssr:stedsnr" v="559101" />
	</node>
	<node lat="63.76887222107071" lon="9.912463880950035" id="-54614">
		<tag k="name" v="Granlia" />
		<tag k="natural" v="slope" />
		<tag k="place" v="locality" />
		<tag k="ssr:stedsnr" v="567673" />
	</node>
	<node lat="63.73383055180759" lon="9.767230550325088" id="-54615">
		<tag k="name" v="Hatten" />
		<tag k="natural" v="hill" />
		<tag k="place" v="locality" />
		<tag k="ssr:stedsnr" v="576150" />
	</node>
	<node lat="63.810783332415554" lon="9.40897222531164" id="-54616">
		<tag k="name" v="Måsmyrskardet" />
		<tag k="natural" v="valley" />
		<tag k="place" v="locality" />
		<tag k="ssr:stedsnr" v="576155" />
	</node>
	<node lat="63.788083333318305" lon="9.748641659915707" id="-54621">
		<tag k="name" v="Leitarheia" />
		<tag k="natural" v="hill" />
		<tag k="place" v="locality" />
		<tag k="ssr:stedsnr" v="576343" />
	</node>
	<node lat="63.77621111019909" lon="9.79061665735653" id="-54623">
		<tag k="name" v="Nordhaugen" />
		<tag k="natural" v="hill" />
		<tag k="place" v="locality" />
		<tag k="ssr:stedsnr" v="576359" />
	</node>
	<node lat="63.76647222606536" lon="9.627419445430645" id="-54633">
		<tag k="name" v="Steinskardet" />
		<tag k="natural" v="valley" />
		<tag k="place" v="locality" />
		<tag k="ssr:stedsnr" v="576614" />
	</node>
	<node lat="63.86143888982113" lon="9.754991669423022" id="-54636">
		<tag k="name" v="Vallersundvarden" />
		<tag k="natural" v="hill" />
		<tag k="place" v="locality" />
		<tag k="ssr:stedsnr" v="576644" />
	</node>
	<node lat="63.803980555629046" lon="9.697047230395443" id="-54640">
		<tag k="name" v="Stolan" />
		<tag k="natural" v="hill" />
		<tag k="place" v="locality" />
		<tag k="ssr:stedsnr" v="576400" />
	</node>
	<node lat="63.81043055789567" lon="10.101811119630407" id="-54643">
		<tag k="name" v="Storrholkammen" />
		<tag k="natural" v="hill" />
		<tag k="place" v="locality" />
		<tag k="ssr:stedsnr" v="576550" />
	</node>
	<node lat="63.80034444735551" lon="9.945066673768368" id="-54646">
		<tag k="name" v="Liaskardet" />
		<tag k="natural" v="valley" />
		<tag k="place" v="locality" />
		<tag k="ssr:stedsnr" v="576558" />
	</node>
	<node lat="63.75504722202509" lon="9.975930551477205" id="-54647">
		<tag k="name" v="Leverberget" />
		<tag k="natural" v="hill" />
		<tag k="place" v="locality" />
		<tag k="ssr:stedsnr" v="576601" />
	</node>
	<node lat="63.8385055565134" lon="9.91704723229784" id="-54648">
		<tag k="name" v="Krekkan" />
		<tag k="natural" v="slope" />
		<tag k="place" v="locality" />
		<tag k="ssr:stedsnr" v="576704" />
	</node>
	<node lat="63.728538889826304" lon="9.587202768978837" id="-54664">
		<tag k="name" v="Holmhaugen" />
		<tag k="natural" v="hill" />
		<tag k="place" v="locality" />
		<tag k="ssr:stedsnr" v="581000" />
	</node>
	<node lat="63.69698611029715" lon="9.735116661623286" id="-54672">
		<tag k="name" v="Skjegghaugan" />
		<tag k="natural" v="hill" />
		<tag k="place" v="locality" />
		<tag k="ssr:stedsnr" v="581792" />
	</node>
	<node lat="63.7201472188505" lon="9.659730549110018" id="-54674">
		<tag k="name" v="Ryggaunberget" />
		<tag k="natural" v="hill" />
		<tag k="place" v="locality" />
		<tag k="ssr:stedsnr" v="581798" />
	</node>
	<node lat="63.80980832957894" lon="10.186188893198665" id="-54677">
		<tag k="name" v="Hammerdalshøgda" />
		<tag k="natural" v="hill" />
		<tag k="place" v="locality" />
		<tag k="ssr:stedsnr" v="588914" />
	</node>
	<node lat="63.738186113279255" lon="9.753191665831144" id="-54678">
		<tag k="name" v="Kammersholan" />
		<tag k="natural" v="valley" />
		<tag k="place" v="locality" />
		<tag k="ssr:stedsnr" v="697175" />
	</node>
	<node lat="63.80863333686186" lon="9.39453610310668" id="-54679">
		<tag k="name" v="Lyngøyvalen" />
		<tag k="place" v="locality" />
		<tag k="ssr:stedsnr" v="697197" />
	</node>
	<node lat="63.81926944214803" lon="9.427708328435761" id="-54680">
		<tag k="name" v="Nausthaugen" />
		<tag k="natural" v="hill" />
		<tag k="place" v="locality" />
		<tag k="ssr:stedsnr" v="697238" />
	</node>
	<node lat="63.79124721868678" lon="9.757538898645752" id="-54684">
		<tag k="fixme" v="consider natural=peak for the most distinct mountains in the district" />
		<tag k="name" v="Husfjellet" />
		<tag k="natural" v="hill" />
		<tag k="place" v="locality" />
		<tag k="ssr:stedsnr" v="697347" />
	</node>
	<node lat="63.761944443622426" lon="9.81016665702846" id="-54685">
		<tag k="name" v="Ulvstuhaugen" />
		<tag k="natural" v="hill" />
		<tag k="place" v="locality" />
		<tag k="ssr:stedsnr" v="697349" />
	</node>
	<node lat="63.740024999353004" lon="9.716333329199406" id="-54686">
		<tag k="name" v="Nålhaugen" />
		<tag k="natural" v="hill" />
		<tag k="place" v="locality" />
		<tag k="ssr:stedsnr" v="697653" />
	</node>
	<node lat="63.771758334006265" lon="9.581619437961399" id="-54692">
		<tag k="name" v="Åberget" />
		<tag k="natural" v="hill" />
		<tag k="place" v="locality" />
		<tag k="ssr:stedsnr" v="698477" />
	</node>
	<node lat="63.83439722574138" lon="10.130419436984843" id="-54699">
		<tag k="name" v="Perholknoppen" />
		<tag k="natural" v="hill" />
		<tag k="place" v="locality" />
		<tag k="ssr:stedsnr" v="698051" />
	</node>
	<node lat="63.8465944486375" lon="10.180002771672434" id="-54700">
		<tag k="name" v="Torsenglia" />
		<tag k="natural" v="slope" />
		<tag k="place" v="locality" />
		<tag k="ssr:stedsnr" v="698061" />
	</node>
	<node lat="63.7993111112391" lon="9.422150007643335" id="-54701">
		<tag k="name" v="Svineshaugen" />
		<tag k="natural" v="hill" />
		<tag k="place" v="locality" />
		<tag k="ssr:stedsnr" v="698151" />
	</node>
	<node lat="63.810408331992186" lon="9.406350008372666" id="-54702">
		<tag k="name" v="Stormåsmyrhaugen" />
		<tag k="natural" v="hill" />
		<tag k="place" v="locality" />
		<tag k="ssr:stedsnr" v="698155" />
	</node>
	<node lat="63.79438332892736" lon="9.374894453686142" id="-54703">
		<tag k="name" v="Storskarsøyhaugen" />
		<tag k="natural" v="hill" />
		<tag k="place" v="locality" />
		<tag k="ssr:stedsnr" v="698159" />
	</node>
	<node lat="63.78901388459538" lon="9.386105549976735" id="-54704">
		<tag k="name" v="Ressøyhaugen" />
		<tag k="natural" v="hill" />
		<tag k="place" v="locality" />
		<tag k="ssr:stedsnr" v="698164" />
	</node>
	<node lat="63.79723611123448" lon="9.770666665923605" id="-54706">
		<tag k="name" v="Bjønnadalen" />
		<tag k="natural" v="valley" />
		<tag k="place" v="locality" />
		<tag k="ssr:stedsnr" v="698176" />
	</node>
	<node lat="63.85884722419046" lon="10.032255562806707" id="-54710">
		<tag k="name" v="Øverlia" />
		<tag k="natural" v="slope" />
		<tag k="place" v="locality" />
		<tag k="ssr:stedsnr" v="698097" />
	</node>
	<node lat="63.85740555436599" lon="10.00886667098872" id="-54711">
		<tag k="name" v="Seterheian" />
		<tag k="natural" v="hill" />
		<tag k="place" v="locality" />
		<tag k="ssr:stedsnr" v="698099" />
	</node>
	<node lat="63.767611110865" lon="9.68224999528637" id="-54713">
		<tag k="name" v="Vikamoen" />
		<tag k="place" v="locality" />
		<tag k="ssr:stedsnr" v="698337" />
	</node>
	<node lat="63.816802781102005" lon="9.674688885893703" id="-54714">
		<tag k="fixme" v="consider natural=peak for the most distinct mountains in the district" />
		<tag k="name" v="Oksvollvarden" />
		<tag k="natural" v="hill" />
		<tag k="place" v="locality" />
		<tag k="ssr:stedsnr" v="698339" />
	</node>
	<node lat="63.73181944526072" lon="9.814263887090888" id="-54718">
		<tag k="name" v="Riarskardet" />
		<tag k="natural" v="valley" />
		<tag k="place" v="locality" />
		<tag k="ssr:stedsnr" v="698399" />
	</node>
	<node lat="63.84410555964313" lon="9.961908342278544" id="-54724">
		<tag k="name" v="Nedre Åltjønnbakken" />
		<tag k="natural" v="slope" />
		<tag k="place" v="locality" />
		<tag k="ssr:stedsnr" v="698501" />
	</node>
	<node lat="63.87482222013758" lon="9.91395554926195" id="-54725">
		<tag k="name" v="Tjyvlihaugan" />
		<tag k="natural" v="hill" />
		<tag k="place" v="locality" />
		<tag k="ssr:stedsnr" v="698570" />
	</node>
	<node lat="63.83864166636659" lon="9.899772222634311" id="-54730">
		<tag k="name" v="Vasslia" />
		<tag k="natural" v="slope" />
		<tag k="place" v="locality" />
		<tag k="ssr:stedsnr" v="698669" />
	</node>
	<node lat="63.85334722149062" lon="9.898488895551493" id="-54731">
		<tag k="name" v="Storhaugen" />
		<tag k="natural" v="hill" />
		<tag k="place" v="locality" />
		<tag k="ssr:stedsnr" v="698670" />
	</node>
	<node lat="63.84881389238749" lon="9.798399998218738" id="-54733">
		<tag k="name" v="Mogårdshaugan" />
		<tag k="natural" v="hill" />
		<tag k="place" v="locality" />
		<tag k="ssr:stedsnr" v="698688" />
	</node>
	<node lat="63.83715278180128" lon="9.782080563778296" id="-54735">
		<tag k="name" v="Ørnhaugen" />
		<tag k="natural" v="hill" />
		<tag k="place" v="locality" />
		<tag k="ssr:stedsnr" v="698694" />
	</node>
	<node lat="63.84116388815767" lon="9.769833332227405" id="-54737">
		<tag k="fixme" v="consider natural=peak for the most distinct mountains in the district" />
		<tag k="name" v="Tussakallen" />
		<tag k="natural" v="hill" />
		<tag k="place" v="locality" />
		<tag k="ssr:stedsnr" v="698696" />
	</node>
	<node lat="63.766363889412155" lon="9.650044446264571" id="-54738">
		<tag k="name" v="Brudalsrabban" />
		<tag k="natural" v="hill" />
		<tag k="place" v="locality" />
		<tag k="ssr:stedsnr" v="698579" />
	</node>
	<node lat="63.79126666294708" lon="10.041738885582298" id="-54740">
		<tag k="name" v="Inner Grandalshaugen" />
		<tag k="natural" v="hill" />
		<tag k="place" v="locality" />
		<tag k="ssr:stedsnr" v="698593" />
	</node>
	<node lat="63.79140555940943" lon="9.80928610530647" id="-54762">
		<tag k="fixme" v="consider natural=peak for the most distinct mountains in the district" />
		<tag k="name" v="Liafjellet" />
		<tag k="natural" v="hill" />
		<tag k="place" v="locality" />
		<tag k="ssr:stedsnr" v="619271" />
	</node>
	<node lat="63.7889833372292" lon="10.126224990879393" id="-54763">
		<tag k="name" v="Jutulheia" />
		<tag k="natural" v="hill" />
		<tag k="place" v="locality" />
		<tag k="ssr:stedsnr" v="619278" />
	</node>
	<node lat="63.831030553427" lon="10.09855555413699" id="-54768">
		<tag k="alt_name" v="Vakkerseterliheia" />
		<tag k="name" v="Vakkersæterliheia" />
		<tag k="natural" v="hill" />
		<tag k="place" v="locality" />
		<tag k="ssr:stedsnr" v="620069" />
	</node>
	<node lat="63.65675277353469" lon="9.371216674690343" id="-54772">
		<tag k="name" v="Nordhaugen" />
		<tag k="natural" v="hill" />
		<tag k="place" v="locality" />
		<tag k="ssr:stedsnr" v="702837" />
	</node>
	<node lat="63.67639166699832" lon="9.651519444768468" id="-54780">
		<tag k="name" v="Ysthaugen" />
		<tag k="natural" v="hill" />
		<tag k="place" v="locality" />
		<tag k="ssr:stedsnr" v="702728" />
	</node>
	<node lat="63.69076944646902" lon="9.646438896230856" id="-54781">
		<tag k="name" v="Kjerkhaugen" />
		<tag k="natural" v="hill" />
		<tag k="place" v="locality" />
		<tag k="ssr:stedsnr" v="702737" />
	</node>
	<node lat="63.745850000726726" lon="9.685597224616806" id="-54782">
		<tag k="name" v="Marithaugen" />
		<tag k="natural" v="hill" />
		<tag k="place" v="locality" />
		<tag k="ssr:stedsnr" v="702739" />
	</node>
	<node lat="63.70541667050353" lon="9.756311104734827" id="-54783">
		<tag k="name" v="Sandberghaugen" />
		<tag k="natural" v="hill" />
		<tag k="place" v="locality" />
		<tag k="ssr:stedsnr" v="702745" />
	</node>
	<node lat="63.64364722170923" lon="9.335822214249706" id="-54788">
		<tag k="name" v="Ovehaugen" />
		<tag k="natural" v="hill" />
		<tag k="place" v="locality" />
		<tag k="ssr:stedsnr" v="702842" />
	</node>
	<node lat="63.672613891324275" lon="9.433469441715939" id="-54789">
		<tag k="name" v="Jakobsberget" />
		<tag k="natural" v="hill" />
		<tag k="place" v="locality" />
		<tag k="ssr:stedsnr" v="702847" />
	</node>
	<node lat="63.72301666442937" lon="9.579411110472053" id="-54792">
		<tag k="name" v="Bukthaugen" />
		<tag k="natural" v="hill" />
		<tag k="place" v="locality" />
		<tag k="ssr:stedsnr" v="702866" />
	</node>
	<node lat="63.71296666573487" lon="9.534830545517506" id="-54794">
		<tag k="name" v="Litlhaugen" />
		<tag k="natural" v="hill" />
		<tag k="place" v="locality" />
		<tag k="ssr:stedsnr" v="702878" />
	</node>
	<node lat="63.67009444177165" lon="9.566283336302535" id="-54795">
		<tag k="name" v="Grandfjæra" />
		<tag k="place" v="locality" />
		<tag k="ssr:stedsnr" v="702945" />
	</node>
	<node lat="63.81217499986403" lon="9.43298888483376" id="-54807">
		<tag k="name" v="Vasshaugan" />
		<tag k="natural" v="hill" />
		<tag k="place" v="locality" />
		<tag k="ssr:stedsnr" v="636180" />
	</node>
	<node lat="63.84059167087179" lon="9.909897215088034" id="-54810">
		<tag k="fixme" v="consider natural=peak for the most distinct mountains in the district" />
		<tag k="name" v="Vasskardklumpen" />
		<tag k="natural" v="hill" />
		<tag k="place" v="locality" />
		<tag k="ssr:stedsnr" v="636327" />
	</node>
	<node lat="63.85591666796136" lon="9.859047232234222" id="-54811">
		<tag k="name" v="Bryggberget" />
		<tag k="natural" v="hill" />
		<tag k="place" v="locality" />
		<tag k="ssr:stedsnr" v="636380" />
	</node>
	<node lat="63.84352777564342" lon="9.694347214686843" id="-54813">
		<tag k="name" v="Skardaheia" />
		<tag k="natural" v="hill" />
		<tag k="place" v="locality" />
		<tag k="ssr:stedsnr" v="636382" />
	</node>
	<node lat="63.802111112182175" lon="9.690030565335302" id="-54815">
		<tag k="name" v="Ryskardet" />
		<tag k="natural" v="valley" />
		<tag k="place" v="locality" />
		<tag k="ssr:stedsnr" v="636394" />
	</node>
	<node lat="63.778694442185866" lon="9.585149993919075" id="-54817">
		<tag k="name" v="Moberget" />
		<tag k="natural" v="hill" />
		<tag k="place" v="locality" />
		<tag k="ssr:stedsnr" v="636526" />
	</node>
	<node lat="63.811333334349705" lon="10.0741833387195" id="-54818">
		<tag k="name" v="Svartdalshøgda" />
		<tag k="natural" v="hill" />
		<tag k="place" v="locality" />
		<tag k="ssr:stedsnr" v="636575" />
	</node>
	<node lat="63.878013891419556" lon="9.960036109330568" id="-54819">
		<tag k="name" v="Grønnlia" />
		<tag k="natural" v="slope" />
		<tag k="place" v="locality" />
		<tag k="ssr:stedsnr" v="636577" />
	</node>
	<node lat="63.78700278150262" lon="9.779469437772118" id="-54823">
		<tag k="name" v="Ratdalshaugen" />
		<tag k="natural" v="hill" />
		<tag k="place" v="locality" />
		<tag k="ssr:stedsnr" v="636486" />
	</node>
	<node lat="63.81793333484108" lon="9.844108331055272" id="-54830">
		<tag k="name" v="Bualia" />
		<tag k="natural" v="slope" />
		<tag k="place" v="locality" />
		<tag k="ssr:stedsnr" v="636692" />
	</node>
	<node lat="63.872869444348076" lon="10.041738891262101" id="-54835">
		<tag k="name" v="Sandtjønnskardet" />
		<tag k="natural" v="valley" />
		<tag k="place" v="locality" />
		<tag k="ssr:stedsnr" v="637076" />
	</node>
	<node lat="63.66647221925559" lon="9.400230558377752" id="-54839">
		<tag k="name" v="Reksterhaugen" />
		<tag k="natural" v="hill" />
		<tag k="place" v="locality" />
		<tag k="ssr:stedsnr" v="640831" />
	</node>
	<node lat="63.650755554857874" lon="9.565344453528624" id="-54846">
		<tag k="name" v="Buktenhaugen" />
		<tag k="natural" v="hill" />
		<tag k="place" v="locality" />
		<tag k="ssr:stedsnr" v="641928" />
	</node>
	<node lat="63.806786107980116" lon="9.952397222587203" id="-54852">
		<tag k="name" v="Sørbotnheia" />
		<tag k="natural" v="hill" />
		<tag k="place" v="locality" />
		<tag k="ssr:stedsnr" v="680007" />
	</node>
	<node lat="63.80407499945313" lon="9.920672229706778" id="-54853">
		<tag k="name" v="Slåttheia" />
		<tag k="natural" v="hill" />
		<tag k="place" v="locality" />
		<tag k="ssr:stedsnr" v="680008" />
	</node>
	<node lat="63.810122224471655" lon="10.188708337928812" id="-54854">
		<tag k="name" v="Bjørndalsklumpen" />
		<tag k="natural" v="hill" />
		<tag k="place" v="locality" />
		<tag k="ssr:stedsnr" v="680013" />
	</node>
	<node lat="63.8557668138471" lon="10.196774285305418" id="-54857">
		<tag k="alt_name" v="Laugheia" />
		<tag k="name" v="Laugaheia" />
		<tag k="natural" v="hill" />
		<tag k="place" v="locality" />
		<tag k="ssr:stedsnr" v="680111" />
	</node>
	<node lat="63.73813888737274" lon="9.83000556075307" id="-54859">
		<tag k="name" v="Vikastiklumpen" />
		<tag k="natural" v="hill" />
		<tag k="place" v="locality" />
		<tag k="ssr:stedsnr" v="680203" />
	</node>
	<node lat="63.78006667109933" lon="9.8836722260001" id="-54868">
		<tag k="fixme" v="consider natural=peak for the most distinct mountains in the district" />
		<tag k="name" v="Slettåsen" />
		<tag k="natural" v="hill" />
		<tag k="place" v="locality" />
		<tag k="ssr:stedsnr" v="697610" />
	</node>
	<node lat="63.777688885836994" lon="9.876219440621412" id="-54869">
		<tag k="fixme" v="consider natural=peak for the most distinct mountains in the district" />
		<tag k="name" v="Lauvåsen" />
		<tag k="natural" v="hill" />
		<tag k="place" v="locality" />
		<tag k="ssr:stedsnr" v="697612" />
	</node>
	<node lat="63.789686108848166" lon="10.048936102020818" id="-54871">
		<tag k="name" v="Varghihalsen" />
		<tag k="place" v="locality" />
		<tag k="ssr:stedsnr" v="697668" />
	</node>
	<node lat="63.80984444109568" lon="9.965652767618717" id="-54873">
		<tag k="fixme" v="consider natural=peak for the most distinct mountains in the district" />
		<tag k="name" v="Merrakleiva" />
		<tag k="natural" v="hill" />
		<tag k="place" v="locality" />
		<tag k="ssr:stedsnr" v="698015" />
	</node>
	<node lat="63.80592499931241" lon="9.963686104310419" id="-54874">
		<tag k="name" v="Granlia" />
		<tag k="natural" v="slope" />
		<tag k="place" v="locality" />
		<tag k="ssr:stedsnr" v="698016" />
	</node>
	<node lat="63.79442499869346" lon="9.992013889184804" id="-54875">
		<tag k="name" v="Digermulen" />
		<tag k="natural" v="hill" />
		<tag k="place" v="locality" />
		<tag k="ssr:stedsnr" v="698019" />
	</node>
	<node lat="63.804516665475795" lon="9.891936103313126" id="-54876">
		<tag k="name" v="Dragan" />
		<tag k="natural" v="hill" />
		<tag k="place" v="locality" />
		<tag k="ssr:stedsnr" v="698024" />
	</node>
	<node lat="63.74259722659912" lon="9.79650277998583" id="-54877">
		<tag k="fixme" v="consider natural=peak for the most distinct mountains in the district" />
		<tag k="name" v="Anderslegda" />
		<tag k="natural" v="hill" />
		<tag k="place" v="locality" />
		<tag k="ssr:stedsnr" v="698118" />
	</node>
	<node lat="63.730744447007744" lon="9.801849990427064" id="-54878">
		<tag k="name" v="Krulltjønntoppen" />
		<tag k="natural" v="hill" />
		<tag k="place" v="locality" />
		<tag k="ssr:stedsnr" v="698125" />
	</node>
	<node lat="63.754200002939186" lon="9.701038895167969" id="-54879">
		<tag k="name" v="Klukstadberget" />
		<tag k="natural" v="hill" />
		<tag k="place" v="locality" />
		<tag k="ssr:stedsnr" v="698274" />
	</node>
	<node lat="63.73816944715499" lon="9.826961114065002" id="-54881">
		<tag k="fixme" v="consider natural=peak for the most distinct mountains in the district" />
		<tag k="name" v="Vikastiklumpen" />
		<tag k="natural" v="hill" />
		<tag k="place" v="locality" />
		<tag k="ssr:stedsnr" v="698407" />
	</node>
	<node lat="63.85979444515308" lon="9.812297212196041" id="-54886">
		<tag k="fixme" v="consider natural=peak for the most distinct mountains in the district" />
		<tag k="name" v="Kamfjellet" />
		<tag k="natural" v="hill" />
		<tag k="place" v="locality" />
		<tag k="ssr:stedsnr" v="698323" />
	</node>
	<node lat="63.77726944466319" lon="9.815827786144654" id="-54889">
		<tag k="name" v="Brattliklumpen" />
		<tag k="natural" v="hill" />
		<tag k="place" v="locality" />
		<tag k="ssr:stedsnr" v="698378" />
	</node>
	<node lat="63.767572219025524" lon="9.605930551012612" id="-54891">
		<tag k="name" v="Prekstolen" />
		<tag k="natural" v="hill" />
		<tag k="place" v="locality" />
		<tag k="ssr:stedsnr" v="698506" />
	</node>
	<node lat="63.803305553935026" lon="10.120536115624677" id="-54892">
		<tag k="name" v="Fusslia" />
		<tag k="natural" v="slope" />
		<tag k="place" v="locality" />
		<tag k="ssr:stedsnr" v="698507" />
	</node>
	<node lat="63.80481388832366" lon="10.022841674216382" id="-54894">
		<tag k="name" v="Dammyrråa" />
		<tag k="place" v="locality" />
		<tag k="ssr:stedsnr" v="698513" />
	</node>
	<node lat="63.861141664247846" lon="9.794499991953082" id="-54899">
		<tag k="name" v="Kjempaberga" />
		<tag k="natural" v="hill" />
		<tag k="place" v="locality" />
		<tag k="ssr:stedsnr" v="698729" />
	</node>
	<node lat="63.8195972180745" lon="9.796250000033414" id="-54900">
		<tag k="name" v="Stokknesheia" />
		<tag k="natural" v="hill" />
		<tag k="place" v="locality" />
		<tag k="ssr:stedsnr" v="698765" />
	</node>
	<node lat="63.801858335010884" lon="9.737633324304005" id="-54902">
		<tag k="name" v="Kopparlia" />
		<tag k="natural" v="slope" />
		<tag k="place" v="locality" />
		<tag k="ssr:stedsnr" v="698785" />
	</node>
	<node lat="63.64480555543879" lon="9.5386722133779" id="-54914">
		<tag k="fixme" v="consider natural=peak for the most distinct mountains in the district" />
		<tag k="name" v="Mefjellet" />
		<tag k="natural" v="hill" />
		<tag k="place" v="locality" />
		<tag k="ssr:stedsnr" v="702703" />
	</node>
	<node lat="63.7362666706904" lon="9.703777769284514" id="-54915">
		<tag k="name" v="Stokksletthaugen" />
		<tag k="natural" v="hill" />
		<tag k="place" v="locality" />
		<tag k="ssr:stedsnr" v="702714" />
	</node>
	<node lat="63.6691055564224" lon="9.425552784742296" id="-54916">
		<tag k="name" v="Skolhaugen" />
		<tag k="natural" v="hill" />
		<tag k="place" v="locality" />
		<tag k="ssr:stedsnr" v="702782" />
	</node>
	<node lat="63.80070555804066" lon="9.948944434767476" id="-54920">
		<tag k="name" v="Liaheia" />
		<tag k="natural" v="hill" />
		<tag k="place" v="locality" />
		<tag k="ssr:stedsnr" v="741006" />
	</node>
	<node lat="63.83513333441049" lon="9.734461115935144" id="-54923">
		<tag k="fixme" v="consider natural=peak for the most distinct mountains in the district" />
		<tag k="name" v="Middagsfjellet" />
		<tag k="natural" v="hill" />
		<tag k="place" v="locality" />
		<tag k="ssr:stedsnr" v="741089" />
	</node>
	<node lat="63.718950002025736" lon="9.803147231923692" id="-54931">
		<tag k="name" v="Karthaugen" />
		<tag k="natural" v="hill" />
		<tag k="place" v="locality" />
		<tag k="ssr:stedsnr" v="741296" />
	</node>
	<node lat="63.78050555864708" lon="9.671813885728993" id="-54934">
		<tag k="fixme" v="consider natural=peak for the most distinct mountains in the district" />
		<tag k="name" v="Tømmeråsen" />
		<tag k="natural" v="hill" />
		<tag k="place" v="locality" />
		<tag k="ssr:stedsnr" v="741707" />
	</node>
	<node lat="63.79396943999093" lon="9.795355565185613" id="-54943">
		<tag k="fixme" v="consider natural=peak for the most distinct mountains in the district" />
		<tag k="name" v="Lauvåsen" />
		<tag k="natural" v="hill" />
		<tag k="place" v="locality" />
		<tag k="ssr:stedsnr" v="742784" />
	</node>
	<node lat="63.817897221131695" lon="9.403016658688989" id="-54955">
		<tag k="name" v="Grønhaugen" />
		<tag k="natural" v="hill" />
		<tag k="place" v="locality" />
		<tag k="ssr:stedsnr" v="758251" />
	</node>
	<node lat="63.84603888880513" lon="9.781274997674243" id="-54960">
		<tag k="fixme" v="consider natural=peak for the most distinct mountains in the district" />
		<tag k="name" v="Varden" />
		<tag k="natural" v="hill" />
		<tag k="place" v="locality" />
		<tag k="ssr:stedsnr" v="758414" />
	</node>
	<node lat="63.855438887182856" lon="9.73659443467949" id="-54961">
		<tag k="name" v="Drilsvalen" />
		<tag k="natural" v="hill" />
		<tag k="place" v="locality" />
		<tag k="ssr:stedsnr" v="758416" />
	</node>
	<node lat="63.834538891689526" lon="10.192525007020013" id="-54963">
		<tag k="name" v="Golia" />
		<tag k="natural" v="slope" />
		<tag k="place" v="locality" />
		<tag k="ssr:stedsnr" v="758146" />
	</node>
	<node lat="63.75235833368517" lon="9.698166676400291" id="-54969">
		<tag k="name" v="Storvarden" />
		<tag k="natural" v="hill" />
		<tag k="place" v="locality" />
		<tag k="ssr:stedsnr" v="758363" />
	</node>
	<node lat="63.89589444042879" lon="9.810822223931119" id="-54972">
		<tag k="name" v="Skjørøyhauet" />
		<tag k="natural" v="hill" />
		<tag k="place" v="locality" />
		<tag k="ssr:stedsnr" v="758551" />
	</node>
	<node lat="63.881025001149446" lon="9.85882777612031" id="-54973">
		<tag k="name" v="Varghaugen" />
		<tag k="natural" v="hill" />
		<tag k="place" v="locality" />
		<tag k="ssr:stedsnr" v="758556" />
	</node>
	<node lat="63.765947218802516" lon="9.673005559655996" id="-54974">
		<tag k="name" v="Tørberliklimpen" />
		<tag k="natural" v="hill" />
		<tag k="place" v="locality" />
		<tag k="ssr:stedsnr" v="758559" />
	</node>
	<node lat="63.85649166688769" lon="9.900736115506422" id="-54976">
		<tag k="fixme" v="consider natural=peak for the most distinct mountains in the district" />
		<tag k="name" v="Støren" />
		<tag k="natural" v="hill" />
		<tag k="place" v="locality" />
		<tag k="ssr:stedsnr" v="758704" />
	</node>
	<node lat="63.78675555812181" lon="10.129186109000521" id="-54977">
		<tag k="name" v="Ramsbakken" />
		<tag k="natural" v="slope" />
		<tag k="place" v="locality" />
		<tag k="ssr:stedsnr" v="758706" />
	</node>
	<node lat="63.76810555867508" lon="9.601955565088666" id="-54978">
		<tag k="fixme" v="consider natural=peak for the most distinct mountains in the district" />
		<tag k="name" v="Spanskfjellet" />
		<tag k="natural" v="hill" />
		<tag k="place" v="locality" />
		<tag k="ssr:stedsnr" v="758709" />
	</node>
	<node lat="63.77321388785601" lon="9.975411107218008" id="-54981">
		<tag k="name" v="Ramsen" />
		<tag k="natural" v="hill" />
		<tag k="place" v="locality" />
		<tag k="ssr:stedsnr" v="758613" />
	</node>
	<node lat="63.80712221781953" lon="9.721413888982362" id="-54984">
		<tag k="name" v="Kjerralia" />
		<tag k="natural" v="slope" />
		<tag k="place" v="locality" />
		<tag k="ssr:stedsnr" v="758798" />
	</node>
	<node lat="63.72093055335762" lon="9.56775833153676" id="-54991">
		<tag k="name" v="Nøkkelhaugen" />
		<tag k="natural" v="hill" />
		<tag k="place" v="locality" />
		<tag k="ssr:stedsnr" v="762854" />
	</node>
	<node lat="63.80655000390326" lon="10.194819444220682" id="-55003">
		<tag k="name" v="Hammerdalsheian" />
		<tag k="natural" v="hill" />
		<tag k="place" v="locality" />
		<tag k="ssr:stedsnr" v="770910" />
	</node>
	<node lat="63.79719999614921" lon="9.806527779567777" id="-55007">
		<tag k="name" v="Rognhaugen" />
		<tag k="natural" v="hill" />
		<tag k="place" v="locality" />
		<tag k="ssr:stedsnr" v="802017" />
	</node>
	<node lat="63.79964721790561" lon="9.870241667626445" id="-55008">
		<tag k="alt_name" v="Dragaheian" />
		<tag k="fixme" v="consider natural=peak for the most distinct mountains in the district" />
		<tag k="name" v="Dragaheia" />
		<tag k="natural" v="hill" />
		<tag k="place" v="locality" />
		<tag k="ssr:stedsnr" v="802020" />
	</node>
	<node lat="63.82530277377515" lon="9.821880553511841" id="-55012">
		<tag k="name" v="Granskardet" />
		<tag k="natural" v="valley" />
		<tag k="place" v="locality" />
		<tag k="ssr:stedsnr" v="802072" />
	</node>
	<node lat="63.7940999986451" lon="9.674152773182355" id="-55040">
		<tag k="fixme" v="consider natural=peak for the most distinct mountains in the district" />
		<tag k="name" v="Sal-lifjellet" />
		<tag k="natural" v="hill" />
		<tag k="place" v="locality" />
		<tag k="ssr:stedsnr" v="819518" />
	</node>
	<node lat="63.74246944431636" lon="9.898111120220294" id="-55045">
		<tag k="name" v="Kuppelvikdalen" />
		<tag k="natural" v="valley" />
		<tag k="place" v="locality" />
		<tag k="ssr:stedsnr" v="819469" />
	</node>
	<node lat="63.75862777612243" lon="9.789249992510376" id="-55048">
		<tag k="fixme" v="consider natural=peak for the most distinct mountains in the district" />
		<tag k="name" v="Dårfjellet" />
		<tag k="natural" v="hill" />
		<tag k="place" v="locality" />
		<tag k="ssr:stedsnr" v="819477" />
	</node>
	<node lat="63.78469721845155" lon="9.884163886593896" id="-55050">
		<tag k="name" v="Langlien" />
		<tag k="natural" v="slope" />
		<tag k="place" v="locality" />
		<tag k="ssr:stedsnr" v="819606" />
	</node>
	<node lat="63.78591944020729" lon="10.107461100965098" id="-55052">
		<tag k="name" v="Pettersvikskardet" />
		<tag k="natural" v="valley" />
		<tag k="place" v="locality" />
		<tag k="ssr:stedsnr" v="819618" />
	</node>
	<node lat="63.86916388519369" lon="9.842163892493378" id="-55054">
		<tag k="name" v="Gullvika" />
		<tag k="natural" v="slope" />
		<tag k="place" v="locality" />
		<tag k="ssr:stedsnr" v="819620" />
	</node>
	<node lat="63.88574444353709" lon="9.786338897867875" id="-55057">
		<tag k="name" v="Storgardshaugen" />
		<tag k="natural" v="hill" />
		<tag k="place" v="locality" />
		<tag k="ssr:stedsnr" v="819672" />
	</node>
	<node lat="63.855238891659965" lon="9.894833328799812" id="-55060">
		<tag k="fixme" v="consider natural=peak for the most distinct mountains in the district" />
		<tag k="name" v="Skorafjellet" />
		<tag k="natural" v="hill" />
		<tag k="place" v="locality" />
		<tag k="ssr:stedsnr" v="819705" />
	</node>
	<node lat="63.82976389012161" lon="9.722294443830444" id="-55061">
		<tag k="name" v="Lian" />
		<tag k="natural" v="slope" />
		<tag k="place" v="locality" />
		<tag k="ssr:stedsnr" v="819707" />
	</node>
	<node lat="63.816447226107194" lon="9.731236105427232" id="-55063">
		<tag k="name" v="Langmyrhaugen" />
		<tag k="natural" v="hill" />
		<tag k="place" v="locality" />
		<tag k="ssr:stedsnr" v="819714" />
	</node>
	<node lat="63.65046666224607" lon="9.382461108478426" id="-55081">
		<tag k="name" v="Halsaslettan" />
		<tag k="place" v="locality" />
		<tag k="ssr:stedsnr" v="824807" />
	</node>
	<node lat="63.694169448280704" lon="9.645388898198618" id="-55085">
		<tag k="name" v="Kleivhaugen" />
		<tag k="natural" v="hill" />
		<tag k="place" v="locality" />
		<tag k="ssr:stedsnr" v="824963" />
	</node>
	<node lat="63.801373272871956" lon="10.195670957901452" id="-55088">
		<tag k="name" v="Lunbakken" />
		<tag k="natural" v="slope" />
		<tag k="place" v="locality" />
		<tag k="ssr:stedsnr" v="831893" />
	</node>
	<node lat="63.8111305520543" lon="9.898988890677588" id="-55093">
		<tag k="name" v="Skurvheia" />
		<tag k="natural" v="hill" />
		<tag k="place" v="locality" />
		<tag k="ssr:stedsnr" v="923029" />
	</node>
	<node lat="63.820941666975" lon="10.180611119901254" id="-55096">
		<tag k="name" v="Mydalsklumpen" />
		<tag k="natural" v="hill" />
		<tag k="place" v="locality" />
		<tag k="ssr:stedsnr" v="923038" />
	</node>
	<node lat="63.758019442351085" lon="9.74735556513696" id="-55104">
		<tag k="name" v="Ramberget" />
		<tag k="natural" v="hill" />
		<tag k="place" v="locality" />
		<tag k="ssr:stedsnr" v="923229" />
	</node>
	<node lat="63.727938893358115" lon="9.76266111830514" id="-55108">
		<tag k="fixme" v="consider natural=peak for the most distinct mountains in the district" />
		<tag k="name" v="Osplikammen" />
		<tag k="natural" v="hill" />
		<tag k="place" v="locality" />
		<tag k="ssr:stedsnr" v="923263" />
	</node>
	<node lat="63.83023889094855" lon="9.715433332234397" id="-55112">
		<tag k="fixme" v="consider natural=peak for the most distinct mountains in the district" />
		<tag k="name" v="Båtfjellet" />
		<tag k="natural" v="hill" />
		<tag k="place" v="locality" />
		<tag k="ssr:stedsnr" v="923699" />
	</node>
	<node lat="63.82581388927352" lon="9.684516659536984" id="-55113">
		<tag k="name" v="Malihaugen" />
		<tag k="natural" v="hill" />
		<tag k="place" v="locality" />
		<tag k="ssr:stedsnr" v="923702" />
	</node>
	<node lat="63.78563889274883" lon="9.600838885454921" id="-55116">
		<tag k="name" v="Vetta" />
		<tag k="natural" v="hill" />
		<tag k="place" v="locality" />
		<tag k="ssr:stedsnr" v="923650" />
	</node>
	<node lat="63.7115388887234" lon="9.792655552042213" id="-55126">
		<tag k="alt_name" v="Borgklinten" />
		<tag k="name" v="Borgklintan" />
		<tag k="natural" v="hill" />
		<tag k="place" v="locality" />
		<tag k="ssr:stedsnr" v="924791" />
	</node>
	<node lat="63.86934166642746" lon="10.027047223660807" id="-55133">
		<tag k="fixme" v="consider natural=peak for the most distinct mountains in the district" />
		<tag k="name" v="Sandtjønnheian" />
		<tag k="natural" v="hill" />
		<tag k="place" v="locality" />
		<tag k="ssr:stedsnr" v="862554" />
	</node>
	<node lat="63.84079444747912" lon="9.904569454657992" id="-55139">
		<tag k="fixme" v="consider natural=peak for the most distinct mountains in the district" />
		<tag k="name" v="Dyrfjellet" />
		<tag k="natural" v="hill" />
		<tag k="place" v="locality" />
		<tag k="ssr:stedsnr" v="863081" />
	</node>
	<node lat="63.844488885140414" lon="9.874330554967651" id="-55141">
		<tag k="fixme" v="consider natural=peak for the most distinct mountains in the district" />
		<tag k="name" v="Årfjellet" />
		<tag k="natural" v="hill" />
		<tag k="place" v="locality" />
		<tag k="ssr:stedsnr" v="863084" />
	</node>
	<node lat="63.85145555733998" lon="9.965622213628599" id="-55142">
		<tag k="alt_name" v="Mellomfjella" />
		<tag k="fixme" v="consider natural=peak for the most distinct mountains in the district" />
		<tag k="name" v="Mellømfjella" />
		<tag k="natural" v="hill" />
		<tag k="place" v="locality" />
		<tag k="ssr:stedsnr" v="863085" />
	</node>
	<node lat="63.861769442074156" lon="10.123194444175558" id="-55143">
		<tag k="fixme" v="consider natural=peak for the most distinct mountains in the district" />
		<tag k="name" v="Nyvassdalsheian" />
		<tag k="natural" v="hill" />
		<tag k="place" v="locality" />
		<tag k="ssr:stedsnr" v="863090" />
	</node>
	<node lat="63.772377774475025" lon="9.98954999010959" id="-55144">
		<tag k="name" v="Stallvikheia" />
		<tag k="natural" v="hill" />
		<tag k="place" v="locality" />
		<tag k="ssr:stedsnr" v="863211" />
	</node>
	<node lat="63.77939722026826" lon="9.633061116832593" id="-55152">
		<tag k="name" v="Olaklova" />
		<tag k="natural" v="valley" />
		<tag k="place" v="locality" />
		<tag k="ssr:stedsnr" v="863652" />
	</node>
	<node lat="63.85245277713588" lon="10.091980563883967" id="-55155">
		<tag k="name" v="Nyvassdalsskardet" />
		<tag k="natural" v="valley" />
		<tag k="place" v="locality" />
		<tag k="ssr:stedsnr" v="880109" />
	</node>
	<node lat="63.82225555546121" lon="10.134369440044921" id="-55156">
		<tag k="name" v="Avkroken" />
		<tag k="natural" v="slope" />
		<tag k="place" v="locality" />
		<tag k="ssr:stedsnr" v="880121" />
	</node>
	<node lat="63.741786112504116" lon="9.779133341800376" id="-55157">
		<tag k="name" v="Høyfjellsklumpen" />
		<tag k="natural" v="hill" />
		<tag k="place" v="locality" />
		<tag k="ssr:stedsnr" v="880143" />
	</node>
	<node lat="63.779658333677425" lon="9.848236107276165" id="-55166">
		<tag k="name" v="Kronglidalen" />
		<tag k="natural" v="valley" />
		<tag k="place" v="locality" />
		<tag k="ssr:stedsnr" v="880401" />
	</node>
	<node lat="63.77284722247395" lon="9.576080561730025" id="-55168">
		<tag k="name" v="Klaskarberget" />
		<tag k="natural" v="hill" />
		<tag k="place" v="locality" />
		<tag k="ssr:stedsnr" v="880515" />
	</node>
	<node lat="63.788958329074745" lon="9.604516672117466" id="-55170">
		<tag k="name" v="Strandahaugen" />
		<tag k="natural" v="hill" />
		<tag k="place" v="locality" />
		<tag k="ssr:stedsnr" v="880524" />
	</node>
	<node lat="63.78606388456688" lon="9.86919445400297" id="-55171">
		<tag k="name" v="Damhaugen" />
		<tag k="natural" v="hill" />
		<tag k="place" v="locality" />
		<tag k="ssr:stedsnr" v="880302" />
	</node>
	<node lat="63.7515972187361" lon="9.794161118958877" id="-55174">
		<tag k="fixme" v="consider natural=peak for the most distinct mountains in the district" />
		<tag k="name" v="Rundklumpen" />
		<tag k="natural" v="hill" />
		<tag k="place" v="locality" />
		<tag k="ssr:stedsnr" v="880455" />
	</node>
	<node lat="63.788341665739935" lon="10.116352774707222" id="-55179">
		<tag k="name" v="Jutulen" />
		<tag k="natural" v="hill" />
		<tag k="place" v="locality" />
		<tag k="ssr:stedsnr" v="880618" />
	</node>
	<node lat="63.75505833503465" lon="9.884597215863678" id="-55180">
		<tag k="name" v="Søtvikskardet" />
		<tag k="natural" v="valley" />
		<tag k="place" v="locality" />
		<tag k="ssr:stedsnr" v="880705" />
	</node>
	<node lat="63.76580277573745" lon="9.895038896372647" id="-55182">
		<tag k="name" v="Skabakken" />
		<tag k="natural" v="slope" />
		<tag k="place" v="locality" />
		<tag k="ssr:stedsnr" v="880709" />
	</node>
	<node lat="63.84978332937054" lon="9.719205553521823" id="-55185">
		<tag k="name" v="Lia" />
		<tag k="natural" v="hill" />
		<tag k="place" v="locality" />
		<tag k="ssr:stedsnr" v="880756" />
	</node>
	<node lat="63.81972222367663" lon="9.764405559088065" id="-55188">
		<tag k="name" v="Smørskardet" />
		<tag k="natural" v="valley" />
		<tag k="place" v="locality" />
		<tag k="ssr:stedsnr" v="880800" />
	</node>
	<node lat="63.69081111348759" lon="9.417049990703651" id="-55203">
		<tag k="name" v="Villsauklova" />
		<tag k="natural" v="slope" />
		<tag k="place" v="locality" />
		<tag k="ssr:stedsnr" v="884805" />
	</node>
	<node lat="63.71852777973989" lon="9.570375003971682" id="-55204">
		<tag k="name" v="Skrubbrabben" />
		<tag k="natural" v="hill" />
		<tag k="place" v="locality" />
		<tag k="ssr:stedsnr" v="884997" />
	</node>
	<node lat="63.6777999995676" lon="9.657394437819795" id="-55206">
		<tag k="name" v="Trøhaugen" />
		<tag k="natural" v="hill" />
		<tag k="place" v="locality" />
		<tag k="ssr:stedsnr" v="885923" />
	</node>
	<node lat="63.80386944462935" lon="9.727027776206228" id="-55216">
		<tag k="name" v="Fjøshaugen" />
		<tag k="natural" v="hill" />
		<tag k="place" v="locality" />
		<tag k="ssr:stedsnr" v="923013" />
	</node>
	<node lat="63.834025001617235" lon="9.893316668866186" id="-55224">
		<tag k="fixme" v="consider natural=peak for the most distinct mountains in the district" />
		<tag k="name" v="Middagsfjellet" />
		<tag k="natural" v="hill" />
		<tag k="place" v="locality" />
		<tag k="ssr:stedsnr" v="923074" />
	</node>
	<node lat="63.78397777521939" lon="9.785941659172476" id="-55228">
		<tag k="name" v="Skurvheia" />
		<tag k="natural" v="hill" />
		<tag k="place" v="locality" />
		<tag k="ssr:stedsnr" v="923275" />
	</node>
	<node lat="63.93251666245726" lon="9.75410000157708" id="-55236">
		<tag k="fixme" v="consider natural=peak for the most distinct mountains in the district" />
		<tag k="name" v="Storfjellet" />
		<tag k="natural" v="hill" />
		<tag k="place" v="locality" />
		<tag k="ssr:stedsnr" v="924510" />
	</node>
	<node lat="63.80457222054109" lon="9.935652769247714" id="-55238">
		<tag k="name" v="Trolldalen" />
		<tag k="natural" v="valley" />
		<tag k="place" v="locality" />
		<tag k="ssr:stedsnr" v="940005" />
	</node>
	<node lat="63.73315555636944" lon="9.703463879307684" id="-55247">
		<tag k="name" v="Langberget" />
		<tag k="natural" v="hill" />
		<tag k="place" v="locality" />
		<tag k="ssr:stedsnr" v="945714" />
	</node>
	<node lat="63.8702166650578" lon="10.000886120219668" id="-55259">
		<tag k="name" v="Olaskardet" />
		<tag k="natural" v="valley" />
		<tag k="place" v="locality" />
		<tag k="ssr:stedsnr" v="13586" />
	</node>
	<node lat="63.78410555969419" lon="9.641830557146132" id="-55274">
		<tag k="fixme" v="consider natural=peak for the most distinct mountains in the district" />
		<tag k="name" v="Tønnølsfjellet" />
		<tag k="natural" v="hill" />
		<tag k="place" v="locality" />
		<tag k="ssr:stedsnr" v="13646" />
	</node>
	<node lat="63.795099997491654" lon="9.387802777297885" id="-55278">
		<tag k="alt_name" v="Stallhaugen, s" />
		<tag k="name" v="Søre Stallhaugen" />
		<tag k="natural" v="hill" />
		<tag k="place" v="locality" />
		<tag k="ssr:stedsnr" v="13674" />
	</node>
	<node lat="63.80007777746955" lon="9.711602779231033" id="-55279">
		<tag k="fixme" v="consider natural=peak for the most distinct mountains in the district" />
		<tag k="name" v="Litlkopparen" />
		<tag k="natural" v="hill" />
		<tag k="place" v="locality" />
		<tag k="ssr:stedsnr" v="13675" />
	</node>
	<node lat="63.80259722465472" lon="9.697413882241642" id="-55280">
		<tag k="name" v="Oksbåsen" />
		<tag k="natural" v="valley" />
		<tag k="place" v="locality" />
		<tag k="ssr:stedsnr" v="13676" />
	</node>
	<node lat="63.81511110806645" lon="9.903055548452514" id="-55288">
		<tag k="name" v="Svartdalen" />
		<tag k="natural" v="valley" />
		<tag k="place" v="locality" />
		<tag k="ssr:stedsnr" v="30059" />
	</node>
	<node lat="63.748213889217546" lon="9.786758336402839" id="-55290">
		<tag k="fixme" v="consider natural=peak for the most distinct mountains in the district" />
		<tag k="name" v="Middagskammen" />
		<tag k="natural" v="hill" />
		<tag k="place" v="locality" />
		<tag k="ssr:stedsnr" v="30149" />
	</node>
	<node lat="63.82098888700361" lon="9.43449444051887" id="-55292">
		<tag k="name" v="Stordamhaugen" />
		<tag k="natural" v="hill" />
		<tag k="place" v="locality" />
		<tag k="ssr:stedsnr" v="30225" />
	</node>
	<node lat="63.838224996950956" lon="9.877186116343447" id="-55314">
		<tag k="name" v="Heimalia" />
		<tag k="natural" v="slope" />
		<tag k="place" v="locality" />
		<tag k="ssr:stedsnr" v="30370" />
	</node>
	<node lat="63.8596111092098" lon="9.74836389220918" id="-55316">
		<tag k="name" v="Barholten" />
		<tag k="place" v="locality" />
		<tag k="ssr:stedsnr" v="30382" />
	</node>
	<node lat="63.857933329372685" lon="9.758022222790354" id="-55317">
		<tag k="name" v="Nesavarden" />
		<tag k="natural" v="hill" />
		<tag k="place" v="locality" />
		<tag k="ssr:stedsnr" v="30385" />
	</node>
	<node lat="63.82045277419648" lon="9.642750001916296" id="-55319">
		<tag k="name" v="Harraberga" />
		<tag k="natural" v="hill" />
		<tag k="place" v="locality" />
		<tag k="ssr:stedsnr" v="30400" />
	</node>
	<node lat="63.75017777851625" lon="9.742083338417238" id="-55320">
		<tag k="name" v="Storhaugen" />
		<tag k="natural" v="hill" />
		<tag k="place" v="locality" />
		<tag k="ssr:stedsnr" v="30404" />
	</node>
	<node lat="63.877722223046355" lon="9.967350008291639" id="-55323">
		<tag k="name" v="Jøvikklumpen" />
		<tag k="natural" v="hill" />
		<tag k="place" v="locality" />
		<tag k="ssr:stedsnr" v="30548" />
	</node>
	<node lat="63.87653055883145" lon="9.8972805528638" id="-55330">
		<tag k="name" v="Vasskardet" />
		<tag k="natural" v="valley" />
		<tag k="place" v="locality" />
		<tag k="ssr:stedsnr" v="30575" />
	</node>
	<node lat="63.86654721963983" lon="9.92466665819739" id="-55331">
		<tag k="fixme" v="consider natural=peak for the most distinct mountains in the district" />
		<tag k="name" v="Litlfjellet" />
		<tag k="natural" v="hill" />
		<tag k="place" v="locality" />
		<tag k="ssr:stedsnr" v="30586" />
	</node>
	<node lat="63.79234444530195" lon="10.083158328642947" id="-55333">
		<tag k="name" v="Almtjønndalen" />
		<tag k="natural" v="valley" />
		<tag k="place" v="locality" />
		<tag k="ssr:stedsnr" v="30591" />
	</node>
	<node lat="63.76531666372257" lon="9.628863888772948" id="-55334">
		<tag k="name" v="Skansen" />
		<tag k="natural" v="hill" />
		<tag k="place" v="locality" />
		<tag k="ssr:stedsnr" v="30593" />
	</node>
	<node lat="63.75755833379804" lon="9.913983332050382" id="-55338">
		<tag k="name" v="Bjønnheia" />
		<tag k="natural" v="hill" />
		<tag k="place" v="locality" />
		<tag k="ssr:stedsnr" v="30656" />
	</node>
	<node lat="63.76565555326916" lon="9.927594439865546" id="-55339">
		<tag k="name" v="Slåttalia" />
		<tag k="natural" v="slope" />
		<tag k="place" v="locality" />
		<tag k="ssr:stedsnr" v="30657" />
	</node>
	<node lat="63.7461666623063" lon="9.689194449549268" id="-55341">
		<tag k="name" v="Middagshaugen" />
		<tag k="natural" v="hill" />
		<tag k="place" v="locality" />
		<tag k="ssr:stedsnr" v="30661" />
	</node>
	<node lat="63.81597499647419" lon="9.870766666651715" id="-55342">
		<tag k="fixme" v="consider natural=peak for the most distinct mountains in the district" />
		<tag k="name" v="Rauurdfjellet" />
		<tag k="natural" v="hill" />
		<tag k="place" v="locality" />
		<tag k="ssr:stedsnr" v="30662" />
	</node>
	<node lat="63.84321110753168" lon="9.743038888053524" id="-55344">
		<tag k="fixme" v="consider natural=peak for the most distinct mountains in the district" />
		<tag k="name" v="Kristianfjellet" />
		<tag k="natural" v="hill" />
		<tag k="place" v="locality" />
		<tag k="ssr:stedsnr" v="30731" />
	</node>
	<node lat="63.84086666652148" lon="9.753483333786047" id="-55345">
		<tag k="fixme" v="consider natural=peak for the most distinct mountains in the district" />
		<tag k="name" v="Osplifjellet" />
		<tag k="natural" v="hill" />
		<tag k="place" v="locality" />
		<tag k="ssr:stedsnr" v="30734" />
	</node>
	<node lat="63.873394441850934" lon="9.798122212471217" id="-55346">
		<tag k="name" v="Litl-Ørnvikhaugan" />
		<tag k="natural" v="hill" />
		<tag k="place" v="locality" />
		<tag k="ssr:stedsnr" v="30747" />
	</node>
	<node lat="63.788122226472204" lon="9.926827787228174" id="-55395">
		<tag k="name" v="Svartvasskollen" />
		<tag k="natural" v="hill" />
		<tag k="place" v="locality" />
		<tag k="ssr:stedsnr" v="74217" />
	</node>
	<node lat="63.768511112762795" lon="9.639286111638645" id="-55414">
		<tag k="name" v="Brudalslia" />
		<tag k="natural" v="slope" />
		<tag k="place" v="locality" />
		<tag k="ssr:stedsnr" v="74720" />
	</node>
	<node lat="63.79961944450648" lon="9.790777774920754" id="-55426">
		<tag k="fixme" v="consider natural=peak for the most distinct mountains in the district" />
		<tag k="name" v="Langmyrstrupen" />
		<tag k="natural" v="hill" />
		<tag k="place" v="locality" />
		<tag k="ssr:stedsnr" v="91196" />
	</node>
	<node lat="63.80086389322698" lon="9.765652779724936" id="-55427">
		<tag k="fixme" v="consider natural=peak for the most distinct mountains in the district" />
		<tag k="name" v="Knoppen" />
		<tag k="natural" v="hill" />
		<tag k="place" v="locality" />
		<tag k="ssr:stedsnr" v="91200" />
	</node>
	<node lat="63.72142500028213" lon="9.820911114464282" id="-55434">
		<tag k="name" v="Nonsklumpen" />
		<tag k="natural" v="hill" />
		<tag k="place" v="locality" />
		<tag k="ssr:stedsnr" v="91435" />
	</node>
	<node lat="63.74149444524077" lon="9.883275006332312" id="-55438">
		<tag k="name" v="Olderlia" />
		<tag k="natural" v="slope" />
		<tag k="place" v="locality" />
		<tag k="ssr:stedsnr" v="91458" />
	</node>
	<node lat="63.82299444280371" lon="9.980694436748282" id="-55440">
		<tag k="name" v="Tverrlia" />
		<tag k="natural" v="slope" />
		<tag k="place" v="locality" />
		<tag k="ssr:stedsnr" v="91040" />
	</node>
	<node lat="63.81636666555643" lon="9.918999992623078" id="-55442">
		<tag k="name" v="Tømmerløyfta" />
		<tag k="natural" v="valley" />
		<tag k="place" v="locality" />
		<tag k="ssr:stedsnr" v="91060" />
	</node>
	<node lat="63.74154444430565" lon="9.79485556339489" id="-55444">
		<tag k="name" v="Stortrengselsborg" />
		<tag k="natural" v="hill" />
		<tag k="place" v="locality" />
		<tag k="ssr:stedsnr" v="91135" />
	</node>
	<node lat="63.848980559656304" lon="9.807869443097514" id="-55459">
		<tag k="fixme" v="consider natural=peak for the most distinct mountains in the district" />
		<tag k="name" v="Lauvåsen" />
		<tag k="natural" v="hill" />
		<tag k="place" v="locality" />
		<tag k="ssr:stedsnr" v="91390" />
	</node>
	<node lat="63.85684167041818" lon="9.889702772372566" id="-55460">
		<tag k="fixme" v="consider natural=peak for the most distinct mountains in the district" />
		<tag k="name" v="Åstøfjellet" />
		<tag k="natural" v="hill" />
		<tag k="place" v="locality" />
		<tag k="ssr:stedsnr" v="91399" />
	</node>
	<node lat="63.89432500077197" lon="9.802525001063373" id="-55463">
		<tag k="name" v="Storhaugen" />
		<tag k="natural" v="hill" />
		<tag k="place" v="locality" />
		<tag k="ssr:stedsnr" v="91666" />
	</node>
	<node lat="63.75470277367225" lon="9.896113882832076" id="-55467">
		<tag k="name" v="Hellandsdalen" />
		<tag k="natural" v="valley" />
		<tag k="place" v="locality" />
		<tag k="ssr:stedsnr" v="91677" />
	</node>
	<node lat="63.754886110733416" lon="9.915699990444661" id="-55468">
		<tag k="name" v="Tuvheia" />
		<tag k="natural" v="hill" />
		<tag k="place" v="locality" />
		<tag k="ssr:stedsnr" v="91680" />
	</node>
	<node lat="63.770522223782" lon="9.954927773910622" id="-55469">
		<tag k="name" v="Brotta" />
		<tag k="natural" v="hill" />
		<tag k="place" v="locality" />
		<tag k="ssr:stedsnr" v="91684" />
	</node>
	<node lat="63.76788611313963" lon="9.817586110833009" id="-55470">
		<tag k="name" v="Århaugen" />
		<tag k="natural" v="hill" />
		<tag k="place" v="locality" />
		<tag k="ssr:stedsnr" v="91476" />
	</node>
	<node lat="63.78256110744282" lon="10.029272217582571" id="-55482">
		<tag k="name" v="Karidalsbrottet" />
		<tag k="natural" v="valley" />
		<tag k="place" v="locality" />
		<tag k="ssr:stedsnr" v="91638" />
	</node>
	<node lat="63.85726944569273" lon="9.752411121061055" id="-55485">
		<tag k="name" v="Hummelvarden" />
		<tag k="natural" v="hill" />
		<tag k="place" v="locality" />
		<tag k="ssr:stedsnr" v="91648" />
	</node>
	<node lat="63.828172226268514" lon="9.841999993467407" id="-55486">
		<tag k="name" v="Gåshaugen" />
		<tag k="natural" v="hill" />
		<tag k="place" v="locality" />
		<tag k="ssr:stedsnr" v="91689" />
	</node>
	<node lat="63.81501666586592" lon="9.816361120006547" id="-55487">
		<tag k="fixme" v="consider natural=peak for the most distinct mountains in the district" />
		<tag k="name" v="Kleivfjellet" />
		<tag k="natural" v="hill" />
		<tag k="place" v="locality" />
		<tag k="ssr:stedsnr" v="91694" />
	</node>
	<node lat="63.84108611200596" lon="9.91475832528443" id="-55489">
		<tag k="fixme" v="consider natural=peak for the most distinct mountains in the district" />
		<tag k="name" v="Solløysklumpen" />
		<tag k="natural" v="hill" />
		<tag k="place" v="locality" />
		<tag k="ssr:stedsnr" v="91698" />
	</node>
	<node lat="63.836869448908736" lon="9.736713897035711" id="-55493">
		<tag k="fixme" v="consider natural=peak for the most distinct mountains in the district" />
		<tag k="name" v="Flysjafjellet" />
		<tag k="natural" v="hill" />
		<tag k="place" v="locality" />
		<tag k="ssr:stedsnr" v="91737" />
	</node>
	<node lat="63.682769444170205" lon="9.394925002771718" id="-55512">
		<tag k="name" v="Dalahamnhaugen" />
		<tag k="natural" v="hill" />
		<tag k="place" v="locality" />
		<tag k="ssr:stedsnr" v="95845" />
	</node>
	<node lat="63.728783334086025" lon="9.707480552638534" id="-55516">
		<tag k="name" v="Esvikhaugen" />
		<tag k="natural" v="hill" />
		<tag k="place" v="locality" />
		<tag k="ssr:stedsnr" v="96755" />
	</node>
	<node lat="63.666313891484" lon="9.38517221321248" id="-55519">
		<tag k="name" v="Hesthaugen" />
		<tag k="natural" v="hill" />
		<tag k="place" v="locality" />
		<tag k="ssr:stedsnr" v="96801" />
	</node>
	<node lat="63.64374722216969" lon="9.532172227246633" id="-55520">
		<tag k="name" v="Steinskardet" />
		<tag k="natural" v="valley" />
		<tag k="place" v="locality" />
		<tag k="ssr:stedsnr" v="96947" />
	</node>
	<node lat="63.79823610672763" lon="9.757858339594156" id="-55524">
		<tag k="name" v="Knappen" />
		<tag k="natural" v="hill" />
		<tag k="place" v="locality" />
		<tag k="ssr:stedsnr" v="134024" />
	</node>
	<node lat="63.80780555626466" lon="10.076916660087209" id="-55527">
		<tag k="name" v="Hansslettlia" />
		<tag k="natural" v="slope" />
		<tag k="place" v="locality" />
		<tag k="ssr:stedsnr" v="134040" />
	</node>
	<node lat="63.8066277744202" lon="9.736744452152823" id="-55528">
		<tag k="fixme" v="consider natural=peak for the most distinct mountains in the district" />
		<tag k="name" v="Kopparen" />
		<tag k="natural" v="hill" />
		<tag k="place" v="locality" />
		<tag k="ssr:stedsnr" v="134046" />
	</node>
	<node lat="63.860547218734425" lon="10.171244445608817" id="-55530">
		<tag k="alt_name" v="Laugadalen, indre;Inner Laugadalen" />
		<tag k="name" v="Indre Laugadalen" />
		<tag k="natural" v="valley" />
		<tag k="place" v="locality" />
		<tag k="ssr:stedsnr" v="134137" />
	</node>
	<node lat="63.78168333412793" lon="10.035647220344222" id="-55539">
		<tag k="name" v="Karidalsheia" />
		<tag k="natural" v="hill" />
		<tag k="place" v="locality" />
		<tag k="ssr:stedsnr" v="134270" />
	</node>
	<node lat="63.73203333274509" lon="9.83818888653035" id="-55540">
		<tag k="name" v="Ørnklumpen" />
		<tag k="natural" v="hill" />
		<tag k="place" v="locality" />
		<tag k="ssr:stedsnr" v="134272" />
	</node>
	<node lat="63.732669443543664" lon="9.729208342112882" id="-55543">
		<tag k="name" v="Torshammaren" />
		<tag k="natural" v="hill" />
		<tag k="place" v="locality" />
		<tag k="ssr:stedsnr" v="134235" />
	</node>
	<node lat="63.77704722194841" lon="9.861841657268695" id="-55564">
		<tag k="name" v="Kjerringdalen" />
		<tag k="natural" v="valley" />
		<tag k="place" v="locality" />
		<tag k="ssr:stedsnr" v="151439" />
	</node>
	<node lat="63.772922219746725" lon="9.813552784894338" id="-55566">
		<tag k="name" v="Kamhaugen" />
		<tag k="natural" v="hill" />
		<tag k="place" v="locality" />
		<tag k="ssr:stedsnr" v="151446" />
	</node>
	<node lat="63.84680833429824" lon="9.760436101160913" id="-55568">
		<tag k="name" v="Gråheia" />
		<tag k="natural" v="hill" />
		<tag k="place" v="locality" />
		<tag k="ssr:stedsnr" v="151727" />
	</node>
	<node lat="63.839861109597116" lon="9.728174998172177" id="-55570">
		<tag k="fixme" v="consider natural=peak for the most distinct mountains in the district" />
		<tag k="name" v="Espefjellet" />
		<tag k="natural" v="hill" />
		<tag k="place" v="locality" />
		<tag k="ssr:stedsnr" v="151742" />
	</node>
	<node lat="63.82758611515121" lon="9.968466660575498" id="-55575">
		<tag k="name" v="Svanaklumpen" />
		<tag k="natural" v="hill" />
		<tag k="place" v="locality" />
		<tag k="ssr:stedsnr" v="151037" />
	</node>
	<node lat="63.82317499883641" lon="10.092797216442175" id="-55584">
		<tag k="name" v="Olalia" />
		<tag k="natural" v="slope" />
		<tag k="place" v="locality" />
		<tag k="ssr:stedsnr" v="151099" />
	</node>
	<node lat="63.825847220732406" lon="9.430961109370056" id="-55585">
		<tag k="name" v="Otersteinen" />
		<tag k="natural" v="hill" />
		<tag k="place" v="locality" />
		<tag k="ssr:stedsnr" v="151180" />
	</node>
	<node lat="63.812483331239335" lon="9.419247217293156" id="-55586">
		<tag k="name" v="Sellikjerhaugen" />
		<tag k="natural" v="hill" />
		<tag k="place" v="locality" />
		<tag k="ssr:stedsnr" v="151184" />
	</node>
	<node lat="63.792516670846446" lon="9.409050008372555" id="-55587">
		<tag k="name" v="Ramnberget" />
		<tag k="natural" v="hill" />
		<tag k="place" v="locality" />
		<tag k="ssr:stedsnr" v="151187" />
	</node>
	<node lat="63.79502222027799" lon="9.40625556282946" id="-55588">
		<tag k="name" v="Meithaugan" />
		<tag k="natural" v="hill" />
		<tag k="place" v="locality" />
		<tag k="ssr:stedsnr" v="151195" />
	</node>
	<node lat="63.8832527754258" lon="9.904063881519132" id="-55596">
		<tag k="fixme" v="consider natural=peak for the most distinct mountains in the district" />
		<tag k="name" v="Dyrfjellet" />
		<tag k="natural" v="hill" />
		<tag k="place" v="locality" />
		<tag k="ssr:stedsnr" v="151372" />
	</node>
	<node lat="63.754136107873165" lon="9.86478888930055" id="-55598">
		<tag k="name" v="Slættskardet" />
		<tag k="natural" v="valley" />
		<tag k="place" v="locality" />
		<tag k="ssr:stedsnr" v="151338" />
	</node>
	<node lat="63.77300000016285" lon="9.624875009882526" id="-55600">
		<tag k="name" v="Duhallaren" />
		<tag k="place" v="locality" />
		<tag k="ssr:stedsnr" v="151534" />
	</node>
	<node lat="63.843833331696565" lon="9.949536110087731" id="-55601">
		<tag k="name" v="Granskardet" />
		<tag k="natural" v="valley" />
		<tag k="place" v="locality" />
		<tag k="ssr:stedsnr" v="151535" />
	</node>
	<node lat="63.79945833191806" lon="10.120699996232867" id="-55602">
		<tag k="name" v="Fusslikollen" />
		<tag k="natural" v="hill" />
		<tag k="place" v="locality" />
		<tag k="ssr:stedsnr" v="151537" />
	</node>
	<node lat="63.86214722153601" lon="9.979377778076147" id="-55603">
		<tag k="name" v="Storvassbakken" />
		<tag k="natural" v="slope" />
		<tag k="place" v="locality" />
		<tag k="ssr:stedsnr" v="151538" />
	</node>
	<node lat="63.797275003540975" lon="9.9401777706896" id="-55607">
		<tag k="name" v="Rauhammarheia" />
		<tag k="natural" v="hill" />
		<tag k="place" v="locality" />
		<tag k="ssr:stedsnr" v="151551" />
	</node>
	<node lat="63.78835833242997" lon="10.028258336941745" id="-55611">
		<tag k="name" v="Ytter Grandalshaugen" />
		<tag k="natural" v="hill" />
		<tag k="place" v="locality" />
		<tag k="ssr:stedsnr" v="151620" />
	</node>
	<node lat="63.84090555919476" lon="9.86466944817021" id="-55616">
		<tag k="fixme" v="consider natural=peak for the most distinct mountains in the district" />
		<tag k="name" v="Strandafjellet" />
		<tag k="natural" v="hill" />
		<tag k="place" v="locality" />
		<tag k="ssr:stedsnr" v="151394" />
	</node>
	<node lat="63.77555278216357" lon="9.781716667931278" id="-55619">
		<tag k="name" v="Sjåhaugen" />
		<tag k="natural" v="hill" />
		<tag k="place" v="locality" />
		<tag k="ssr:stedsnr" v="151493" />
	</node>
	<node lat="63.772625003589155" lon="9.75024722180364" id="-55621">
		<tag k="name" v="Merrahaugen" />
		<tag k="natural" v="hill" />
		<tag k="place" v="locality" />
		<tag k="ssr:stedsnr" v="151499" />
	</node>
	<node lat="63.77878332949044" lon="9.97863055377001" id="-55623">
		<tag k="name" v="Stoppskarda" />
		<tag k="natural" v="valley" />
		<tag k="place" v="locality" />
		<tag k="ssr:stedsnr" v="151577" />
	</node>
	<node lat="63.81886666893278" lon="9.963216674963295" id="-55627">
		<tag k="name" v="Saghaugen" />
		<tag k="natural" v="hill" />
		<tag k="place" v="locality" />
		<tag k="ssr:stedsnr" v="151679" />
	</node>
	<node lat="63.78820555381222" lon="9.943250001748181" id="-55628">
		<tag k="name" v="Kollen" />
		<tag k="natural" v="hill" />
		<tag k="place" v="locality" />
		<tag k="ssr:stedsnr" v="151683" />
	</node>
	<node lat="63.854074996963746" lon="9.88929721807745" id="-55629">
		<tag k="name" v="Kolmilhaugen" />
		<tag k="natural" v="hill" />
		<tag k="place" v="locality" />
		<tag k="ssr:stedsnr" v="151689" />
	</node>
	<node lat="63.84875277664086" lon="9.71145833710542" id="-55630">
		<tag k="name" v="Nordhaugen" />
		<tag k="natural" v="hill" />
		<tag k="place" v="locality" />
		<tag k="ssr:stedsnr" v="151755" />
	</node>
	<node lat="63.7934083375466" lon="9.691383336681891" id="-55634">
		<tag k="fixme" v="consider natural=peak for the most distinct mountains in the district" />
		<tag k="name" v="Gråsteinfjellet" />
		<tag k="natural" v="hill" />
		<tag k="place" v="locality" />
		<tag k="ssr:stedsnr" v="151823" />
	</node>
	<node lat="63.80688055315" lon="9.737091661213379" id="-55638">
		<tag k="fixme" v="consider natural=peak for the most distinct mountains in the district" />
		<tag k="name" v="Stor-Kopparen" />
		<tag k="natural" v="hill" />
		<tag k="place" v="locality" />
		<tag k="ssr:stedsnr" v="151832" />
	</node>
	<node lat="63.74234444223478" lon="9.693099999482907" id="-55648">
		<tag k="name" v="Asperhaugen" />
		<tag k="natural" v="hill" />
		<tag k="place" v="locality" />
		<tag k="ssr:stedsnr" v="155869" />
	</node>
	<node lat="63.66273611214884" lon="9.426422231852143" id="-55652">
		<tag k="name" v="Tinnheia" />
		<tag k="natural" v="hill" />
		<tag k="place" v="locality" />
		<tag k="ssr:stedsnr" v="155839" />
	</node>
	<node lat="63.639288886403776" lon="9.51491666728416" id="-55653">
		<tag k="fixme" v="consider natural=peak for the most distinct mountains in the district" />
		<tag k="name" v="Svartfjellet" />
		<tag k="natural" v="hill" />
		<tag k="place" v="locality" />
		<tag k="ssr:stedsnr" v="155782" />
	</node>
	<node lat="63.72498333771028" lon="9.70436388628209" id="-55658">
		<tag k="name" v="Søtberget" />
		<tag k="natural" v="hill" />
		<tag k="place" v="locality" />
		<tag k="ssr:stedsnr" v="156781" />
	</node>
	<node lat="63.67563610769421" lon="9.393263895275622" id="-55659">
		<tag k="name" v="Holmhaugen" />
		<tag k="natural" v="hill" />
		<tag k="place" v="locality" />
		<tag k="ssr:stedsnr" v="156787" />
	</node>
	<node lat="63.80251666821352" lon="9.889133335889692" id="-55666">
		<tag k="name" v="Slåttheia" />
		<tag k="natural" v="hill" />
		<tag k="place" v="locality" />
		<tag k="ssr:stedsnr" v="273044" />
	</node>
	<node lat="63.79801944875211" lon="9.93338056276121" id="-55670">
		<tag k="fixme" v="consider natural=peak for the most distinct mountains in the district" />
		<tag k="name" v="Rauhammaren" />
		<tag k="natural" v="hill" />
		<tag k="place" v="locality" />
		<tag k="ssr:stedsnr" v="273006" />
	</node>
	<node lat="63.816791662942116" lon="10.017027775918008" id="-55673">
		<tag k="name" v="Grasdalskollen" />
		<tag k="natural" v="hill" />
		<tag k="place" v="locality" />
		<tag k="ssr:stedsnr" v="195035" />
	</node>
	<node lat="63.82668055714161" lon="10.151180557819027" id="-55675">
		<tag k="alt_name" v="Avkrokhaugan" />
		<tag k="name" v="Avkrokhaugen" />
		<tag k="natural" v="hill" />
		<tag k="place" v="locality" />
		<tag k="ssr:stedsnr" v="195047" />
	</node>
	<node lat="63.80806597693473" lon="10.190556909004057" id="-55680">
		<tag k="alt_name" v="Hammeldalen;Hammerdalen" />
		<tag k="name" v="Hammardalen" />
		<tag k="natural" v="valley" />
		<tag k="place" v="locality" />
		<tag k="ssr:stedsnr" v="195015" />
	</node>
	<node lat="63.81439444077822" lon="9.777041661311767" id="-55682">
		<tag k="alt_name" v="Flatheian" />
		<tag k="name" v="Flatheia" />
		<tag k="natural" v="hill" />
		<tag k="place" v="locality" />
		<tag k="ssr:stedsnr" v="195026" />
	</node>
	<node lat="63.81168055238788" lon="10.181744438545696" id="-55683">
		<tag k="name" v="Blanktjønndalen" />
		<tag k="natural" v="valley" />
		<tag k="place" v="locality" />
		<tag k="ssr:stedsnr" v="195028" />
	</node>
	<node lat="63.83764999592667" lon="10.065555565410424" id="-55684">
		<tag k="name" v="Amunddalsklumpen" />
		<tag k="natural" v="hill" />
		<tag k="place" v="locality" />
		<tag k="ssr:stedsnr" v="195069" />
	</node>
	<node lat="63.847094443926345" lon="10.002483323311626" id="-55687">
		<tag k="name" v="Vikern" />
		<tag k="natural" v="slope" />
		<tag k="place" v="locality" />
		<tag k="ssr:stedsnr" v="195090" />
	</node>
	<node lat="63.85262499796114" lon="10.111541667242479" id="-55689">
		<tag k="fixme" v="consider natural=peak for the most distinct mountains in the district" />
		<tag k="name" v="Seksortklumpen" />
		<tag k="natural" v="hill" />
		<tag k="place" v="locality" />
		<tag k="ssr:stedsnr" v="195104" />
	</node>
	<node lat="63.85193611428028" lon="9.790319444111194" id="-55691">
		<tag k="fixme" v="consider natural=peak for the most distinct mountains in the district" />
		<tag k="name" v="Ursfjellet" />
		<tag k="natural" v="hill" />
		<tag k="place" v="locality" />
		<tag k="ssr:stedsnr" v="195113" />
	</node>
	<node lat="63.86707500133241" lon="9.969211109985732" id="-55692">
		<tag k="fixme" v="consider natural=peak for the most distinct mountains in the district" />
		<tag k="name" v="Litlhollifjellet" />
		<tag k="natural" v="hill" />
		<tag k="place" v="locality" />
		<tag k="ssr:stedsnr" v="195125" />
	</node>
	<node lat="63.725533335259584" lon="9.743380558086914" id="-55694">
		<tag k="name" v="Vardheia" />
		<tag k="natural" v="hill" />
		<tag k="place" v="locality" />
		<tag k="ssr:stedsnr" v="195278" />
	</node>
	<node lat="63.774433330028224" lon="9.931511117944638" id="-55700">
		<tag k="name" v="Murudalen" />
		<tag k="natural" v="valley" />
		<tag k="place" v="locality" />
		<tag k="ssr:stedsnr" v="195231" />
	</node>
	<node lat="63.73279166473614" lon="9.759672228765389" id="-55701">
		<tag k="name" v="Pellkus" />
		<tag k="natural" v="hill" />
		<tag k="place" v="locality" />
		<tag k="ssr:stedsnr" v="195264" />
	</node>
	<node lat="65.11002777597567" lon="13.085422216082504" id="-55721">
		<tag k="fixme" v="consider natural=peak for the most distinct mountains in the district" />
		<tag k="name" v="Kløftfjellet - Sloeptjenguevtele" />
		<tag k="name:no" v="Kløftfjellet" />
		<tag k="name:sma" v="Sloeptjenguevtele" />
		<tag k="natural" v="hill" />
		<tag k="place" v="locality" />
		<tag k="ssr:stedsnr" v="196523" />
	</node>
	<node lat="63.74628333483774" lon="9.767600002107875" id="-55728">
		<tag k="name" v="Honnadørklumpen" />
		<tag k="natural" v="hill" />
		<tag k="place" v="locality" />
		<tag k="ssr:stedsnr" v="273152" />
	</node>
	<node lat="63.7451388927706" lon="9.795608327644207" id="-55729">
		<tag k="fixme" v="consider natural=peak for the most distinct mountains in the district" />
		<tag k="name" v="Liafjellet" />
		<tag k="natural" v="hill" />
		<tag k="place" v="locality" />
		<tag k="ssr:stedsnr" v="273157" />
	</node>
	<node lat="63.801080556139304" lon="9.405566666824411" id="-55735">
		<tag k="name" v="Smørhaugen" />
		<tag k="natural" v="hill" />
		<tag k="place" v="locality" />
		<tag k="ssr:stedsnr" v="273196" />
	</node>
	<node lat="63.82923888644291" lon="9.943194447590336" id="-55737">
		<tag k="name" v="Øver Svanalia" />
		<tag k="natural" v="slope" />
		<tag k="place" v="locality" />
		<tag k="ssr:stedsnr" v="212050" />
	</node>
	<node lat="63.81840000089637" lon="10.128216659615832" id="-55738">
		<tag k="name" v="Nord Øyan" />
		<tag k="place" v="locality" />
		<tag k="ssr:stedsnr" v="212062" />
	</node>
	<node lat="63.85265000433427" lon="10.182447213871736" id="-55739">
		<tag k="name" v="Inner Laugaheian" />
		<tag k="natural" v="hill" />
		<tag k="place" v="locality" />
		<tag k="ssr:stedsnr" v="212068" />
	</node>
	<node lat="63.84043611437602" lon="9.734638891505574" id="-55743">
		<tag k="fixme" v="consider natural=peak for the most distinct mountains in the district" />
		<tag k="name" v="Salfjellet" />
		<tag k="natural" v="hill" />
		<tag k="place" v="locality" />
		<tag k="ssr:stedsnr" v="212369" />
	</node>
	<node lat="63.77325000395754" lon="9.862891668004298" id="-55747">
		<tag k="name" v="Solemslia" />
		<tag k="natural" v="slope" />
		<tag k="place" v="locality" />
		<tag k="ssr:stedsnr" v="212417" />
	</node>
	<node lat="63.801225003004454" lon="9.631736121327375" id="-55749">
		<tag k="name" v="Bekkavikhaugan" />
		<tag k="natural" v="hill" />
		<tag k="place" v="locality" />
		<tag k="ssr:stedsnr" v="212497" />
	</node>
	<node lat="63.78591944716918" lon="9.601291668092182" id="-55750">
		<tag k="name" v="Vettahaugen" />
		<tag k="natural" v="hill" />
		<tag k="place" v="locality" />
		<tag k="ssr:stedsnr" v="212516" />
	</node>
	<node lat="63.75844444795628" lon="9.762791668378437" id="-55760">
		<tag k="name" v="Hatten" />
		<tag k="natural" v="hill" />
		<tag k="place" v="locality" />
		<tag k="ssr:stedsnr" v="212462" />
	</node>
	<node lat="63.78789166742572" lon="9.90782221505829" id="-55770">
		<tag k="name" v="Marikollen" />
		<tag k="natural" v="hill" />
		<tag k="place" v="locality" />
		<tag k="ssr:stedsnr" v="212565" />
	</node>
	<node lat="63.85412222157994" lon="9.881691671097325" id="-55771">
		<tag k="fixme" v="consider natural=peak for the most distinct mountains in the district" />
		<tag k="name" v="Skarafjellet" />
		<tag k="natural" v="hill" />
		<tag k="place" v="locality" />
		<tag k="ssr:stedsnr" v="212568" />
	</node>
	<node lat="63.85626944687567" lon="9.883944436126216" id="-55772">
		<tag k="name" v="Litl Neshaugen" />
		<tag k="natural" v="hill" />
		<tag k="place" v="locality" />
		<tag k="ssr:stedsnr" v="212571" />
	</node>
	<node lat="63.86094166343137" lon="9.905444449811348" id="-55773">
		<tag k="name" v="Trollholan" />
		<tag k="natural" v="valley" />
		<tag k="place" v="locality" />
		<tag k="ssr:stedsnr" v="212573" />
	</node>
	<node lat="63.86341110976987" lon="9.724111116022348" id="-55774">
		<tag k="name" v="Falkberget" />
		<tag k="natural" v="hill" />
		<tag k="place" v="locality" />
		<tag k="ssr:stedsnr" v="212639" />
	</node>
	<node lat="63.888430557557875" lon="9.784255547808632" id="-55775">
		<tag k="name" v="Nausthaugen" />
		<tag k="natural" v="hill" />
		<tag k="place" v="locality" />
		<tag k="ssr:stedsnr" v="212654" />
	</node>
	<node lat="63.83316944744431" lon="9.865880552652692" id="-55776">
		<tag k="name" v="Seterskardet" />
		<tag k="natural" v="valley" />
		<tag k="place" v="locality" />
		<tag k="ssr:stedsnr" v="212657" />
	</node>
	<node lat="63.7686499994039" lon="9.88768055815874" id="-55777">
		<tag k="name" v="Svartskoghaugen" />
		<tag k="natural" v="hill" />
		<tag k="place" v="locality" />
		<tag k="ssr:stedsnr" v="212665" />
	</node>
	<node lat="63.817433336643816" lon="9.825663884862076" id="-55780">
		<tag k="name" v="Sløngliheia" />
		<tag k="natural" v="hill" />
		<tag k="place" v="locality" />
		<tag k="ssr:stedsnr" v="212670" />
	</node>
	<node lat="63.83100278139458" lon="9.658294436703349" id="-55784">
		<tag k="name" v="Gangstøhaugen" />
		<tag k="natural" v="hill" />
		<tag k="place" v="locality" />
		<tag k="ssr:stedsnr" v="212762" />
	</node>
	<node lat="63.822458329194085" lon="9.653033325258466" id="-55785">
		<tag k="name" v="Bryggberget" />
		<tag k="natural" v="hill" />
		<tag k="place" v="locality" />
		<tag k="ssr:stedsnr" v="212765" />
	</node>
	<node lat="63.72467499624214" lon="9.780852783308218" id="-55804">
		<tag k="name" v="Langdalen" />
		<tag k="natural" v="valley" />
		<tag k="place" v="locality" />
		<tag k="ssr:stedsnr" v="216940" />
	</node>
	<node lat="63.72233055802213" lon="9.568255565096644" id="-55807">
		<tag k="name" v="Vorphaugen" />
		<tag k="natural" v="hill" />
		<tag k="place" v="locality" />
		<tag k="ssr:stedsnr" v="216999" />
	</node>
	<node lat="63.645130557286386" lon="9.509791660512589" id="-55808">
		<tag k="name" v="Nesvikhaugen" />
		<tag k="natural" v="hill" />
		<tag k="place" v="locality" />
		<tag k="ssr:stedsnr" v="217737" />
	</node>
	<node lat="63.72091691457916" lon="9.79759760149739" id="-55809">
		<tag k="name" v="Reksterhaugen" />
		<tag k="natural" v="hill" />
		<tag k="place" v="locality" />
		<tag k="ssr:stedsnr" v="217768" />
	</node>
	<node lat="63.71036666780504" lon="9.53613610797446" id="-55810">
		<tag k="name" v="Sørhaugen" />
		<tag k="natural" v="hill" />
		<tag k="place" v="locality" />
		<tag k="ssr:stedsnr" v="217840" />
	</node>
	<node lat="63.81628888691584" lon="9.425630565073243" id="-55814">
		<tag k="name" v="Brattberget" />
		<tag k="natural" v="hill" />
		<tag k="place" v="locality" />
		<tag k="ssr:stedsnr" v="273228" />
	</node>
	<node lat="63.769763890075716" lon="9.847002783732599" id="-55819">
		<tag k="fixme" v="consider natural=peak for the most distinct mountains in the district" />
		<tag k="name" v="Krukfjellet" />
		<tag k="natural" v="hill" />
		<tag k="place" v="locality" />
		<tag k="ssr:stedsnr" v="273328" />
	</node>
	<node lat="63.77339444294466" lon="9.775341659977997" id="-55821">
		<tag k="name" v="Vardheia" />
		<tag k="natural" v="hill" />
		<tag k="place" v="locality" />
		<tag k="ssr:stedsnr" v="273333" />
	</node>
	<node lat="63.85189444306297" lon="9.937077779419411" id="-55832">
		<tag k="name" v="Middagsskardet" />
		<tag k="natural" v="valley" />
		<tag k="place" v="locality" />
		<tag k="ssr:stedsnr" v="273519" />
	</node>
	<node lat="63.78433889246357" lon="10.076222229430114" id="-55834">
		<tag k="name" v="Råadalen" />
		<tag k="natural" v="valley" />
		<tag k="place" v="locality" />
		<tag k="ssr:stedsnr" v="273596" />
	</node>
	<node lat="63.763986111340444" lon="9.623766669591449" id="-55835">
		<tag k="name" v="Toreskardet" />
		<tag k="natural" v="valley" />
		<tag k="place" v="locality" />
		<tag k="ssr:stedsnr" v="273606" />
	</node>
	<node lat="63.78340833713787" lon="10.01564444450189" id="-55837">
		<tag k="name" v="Sørlia" />
		<tag k="natural" v="slope" />
		<tag k="place" v="locality" />
		<tag k="ssr:stedsnr" v="273614" />
	</node>
	<node lat="63.82242777687836" lon="10.042611112162941" id="-55841">
		<tag k="name" v="Storrognholhøgden" />
		<tag k="natural" v="hill" />
		<tag k="place" v="locality" />
		<tag k="ssr:stedsnr" v="273712" />
	</node>
	<node lat="63.7864833359148" lon="9.998833327401366" id="-55842">
		<tag k="name" v="Nordlia" />
		<tag k="natural" v="slope" />
		<tag k="place" v="locality" />
		<tag k="ssr:stedsnr" v="273717" />
	</node>
	<node lat="63.76023611251344" lon="9.83955555205656" id="-55844">
		<tag k="fixme" v="consider natural=peak for the most distinct mountains in the district" />
		<tag k="name" v="Skjenstallen" />
		<tag k="natural" v="hill" />
		<tag k="place" v="locality" />
		<tag k="ssr:stedsnr" v="273440" />
	</node>
	<node lat="63.896255552343554" lon="9.94856665743893" id="-55847">
		<tag k="name" v="Øysterberga" />
		<tag k="natural" v="hill" />
		<tag k="place" v="locality" />
		<tag k="ssr:stedsnr" v="273534" />
	</node>
	<node lat="63.77526111273446" lon="9.606133334871634" id="-55850">
		<tag k="fixme" v="consider natural=peak for the most distinct mountains in the district" />
		<tag k="name" v="Høystakkfjellet" />
		<tag k="natural" v="hill" />
		<tag k="place" v="locality" />
		<tag k="ssr:stedsnr" v="273540" />
	</node>
	<node lat="63.84463888938132" lon="9.85280833360121" id="-55853">
		<tag k="name" v="Varden" />
		<tag k="natural" v="hill" />
		<tag k="place" v="locality" />
		<tag k="ssr:stedsnr" v="273557" />
	</node>
	<node lat="63.78079444222497" lon="9.88399445345265" id="-55854">
		<tag k="name" v="Grasholet" />
		<tag k="place" v="locality" />
		<tag k="ssr:stedsnr" v="273563" />
	</node>
	<node lat="63.86237777956413" lon="9.747597217664174" id="-55858">
		<tag k="name" v="Brygghaugen" />
		<tag k="natural" v="hill" />
		<tag k="place" v="locality" />
		<tag k="ssr:stedsnr" v="273652" />
	</node>
	<node lat="63.865549998208465" lon="9.728813890945677" id="-55860">
		<tag k="name" v="Brandhaugen" />
		<tag k="natural" v="hill" />
		<tag k="place" v="locality" />
		<tag k="ssr:stedsnr" v="273667" />
	</node>
	<node lat="63.82968610710797" lon="9.707141658111393" id="-55862">
		<tag k="name" v="Bekkavikskardet" />
		<tag k="natural" v="valley" />
		<tag k="place" v="locality" />
		<tag k="ssr:stedsnr" v="273734" />
	</node>
	<node lat="63.839219442494496" lon="9.756749995005523" id="-55864">
		<tag k="name" v="Slåttaklova" />
		<tag k="natural" v="valley" />
		<tag k="place" v="locality" />
		<tag k="ssr:stedsnr" v="273746" />
	</node>
	<node lat="63.87237778067018" lon="9.800516673637055" id="-55867">
		<tag k="name" v="Moahaugan" />
		<tag k="natural" v="hill" />
		<tag k="place" v="locality" />
		<tag k="ssr:stedsnr" v="273761" />
	</node>
	<node lat="63.72432500348563" lon="9.590761104165315" id="-55894">
		<tag k="name" v="Stakkfjærhaugen" />
		<tag k="natural" v="hill" />
		<tag k="place" v="locality" />
		<tag k="ssr:stedsnr" v="277864" />
	</node>
	<node lat="63.708141665672194" lon="9.72168054805429" id="-55895">
		<tag k="name" v="Lundahaugen" />
		<tag k="natural" v="hill" />
		<tag k="place" v="locality" />
		<tag k="ssr:stedsnr" v="278788" />
	</node>
	<node lat="63.71048332952786" lon="9.647999993961841" id="-55898">
		<tag k="name" v="Skimmelsberget" />
		<tag k="natural" v="hill" />
		<tag k="place" v="locality" />
		<tag k="ssr:stedsnr" v="278880" />
	</node>
	<node lat="63.83844167089041" lon="10.020513880203705" id="-55911">
		<tag k="name" v="Snøholet" />
		<tag k="natural" v="valley" />
		<tag k="place" v="locality" />
		<tag k="ssr:stedsnr" v="316069" />
	</node>
	<node lat="63.840008330159684" lon="9.760444440314847" id="-55913">
		<tag k="fixme" v="consider natural=peak for the most distinct mountains in the district" />
		<tag k="name" v="Jofjellet" />
		<tag k="natural" v="hill" />
		<tag k="place" v="locality" />
		<tag k="ssr:stedsnr" v="316074" />
	</node>
	<node lat="63.86251666979794" lon="10.049038880004101" id="-55916">
		<tag k="name" v="Tverrbekklia" />
		<tag k="natural" v="slope" />
		<tag k="place" v="locality" />
		<tag k="ssr:stedsnr" v="316123" />
	</node>
	<node lat="63.79393610818166" lon="10.139088883267066" id="-55928">
		<tag k="fixme" v="consider natural=peak for the most distinct mountains in the district" />
		<tag k="name" v="Fuslikammen" />
		<tag k="natural" v="hill" />
		<tag k="place" v="locality" />
		<tag k="ssr:stedsnr" v="316267" />
	</node>
	<node lat="63.87678055938807" lon="9.878530565484333" id="-55930">
		<tag k="fixme" v="consider natural=peak for the most distinct mountains in the district" />
		<tag k="name" v="Rømmesfjellet" />
		<tag k="natural" v="hill" />
		<tag k="place" v="locality" />
		<tag k="ssr:stedsnr" v="316618" />
	</node>
	<node lat="63.768772226547135" lon="9.65529443675585" id="-55931">
		<tag k="fixme" v="multiple name tags, choose one and add the other to alt_name; consider natural=peak for the most distinct mountains in the district" />
		<tag k="name" v="Brudalskallen;Brudalsfjellet" />
		<tag k="natural" v="hill" />
		<tag k="place" v="locality" />
		<tag k="ssr:stedsnr" v="316779" />
	</node>
	<node lat="63.7779194407151" lon="9.609680559082708" id="-55934">
		<tag k="fixme" v="consider natural=peak for the most distinct mountains in the district" />
		<tag k="name" v="Middagsfjellet" />
		<tag k="natural" v="hill" />
		<tag k="place" v="locality" />
		<tag k="ssr:stedsnr" v="316680" />
	</node>
	<node lat="63.74285833548954" lon="9.713761101714589" id="-55943">
		<tag k="name" v="Ervikhaugen" />
		<tag k="natural" v="hill" />
		<tag k="place" v="locality" />
		<tag k="ssr:stedsnr" v="333177" />
	</node>
	<node lat="63.743280556053016" lon="9.739650003201335" id="-55944">
		<tag k="name" v="Langmyrhaugan" />
		<tag k="natural" v="hill" />
		<tag k="place" v="locality" />
		<tag k="ssr:stedsnr" v="333182" />
	</node>
	<node lat="63.820508334974285" lon="9.408886115927023" id="-55947">
		<tag k="name" v="Boklingshaugen" />
		<tag k="natural" v="hill" />
		<tag k="place" v="locality" />
		<tag k="ssr:stedsnr" v="333238" />
	</node>
	<node lat="63.76586111064329" lon="9.972624994233934" id="-55953">
		<tag k="name" v="Aundalen" />
		<tag k="natural" v="valley" />
		<tag k="place" v="locality" />
		<tag k="ssr:stedsnr" v="333626" />
	</node>
	<node lat="63.75758333232744" lon="9.994566656803679" id="-55966">
		<tag k="name" v="Stallvikberga" />
		<tag k="natural" v="hill" />
		<tag k="place" v="locality" />
		<tag k="ssr:stedsnr" v="333587" />
	</node>
	<node lat="63.81930555613627" lon="9.683411104619518" id="-55968">
		<tag k="name" v="Eidshaugen" />
		<tag k="natural" v="hill" />
		<tag k="place" v="locality" />
		<tag k="ssr:stedsnr" v="333684" />
	</node>
	<node lat="63.822850004144" lon="9.753208327575813" id="-55972">
		<tag k="name" v="Haltlan" />
		<tag k="natural" v="hill" />
		<tag k="place" v="locality" />
		<tag k="ssr:stedsnr" v="333789" />
	</node>
	<node lat="63.844941666891025" lon="9.745680559609642" id="-55974">
		<tag k="name" v="Barskardet" />
		<tag k="natural" v="valley" />
		<tag k="place" v="locality" />
		<tag k="ssr:stedsnr" v="333713" />
	</node>
	<node lat="63.86796944329529" lon="9.77356667433286" id="-55975">
		<tag k="name" v="Grytberget" />
		<tag k="natural" v="hill" />
		<tag k="place" v="locality" />
		<tag k="ssr:stedsnr" v="333740" />
	</node>
	<node lat="63.8683666667314" lon="10.002913895926326" id="-55981">
		<tag k="name" v="Øver Olaskardet" />
		<tag k="natural" v="valley" />
		<tag k="place" v="locality" />
		<tag k="ssr:stedsnr" v="334071" />
	</node>
	<node lat="63.88409166272734" lon="9.979533337880248" id="-55983">
		<tag k="name" v="Seterskardet" />
		<tag k="natural" v="valley" />
		<tag k="place" v="locality" />
		<tag k="ssr:stedsnr" v="334336" />
	</node>
	<node lat="63.74555833682527" lon="9.88159445009517" id="-55984">
		<tag k="name" v="Rundhaugen" />
		<tag k="natural" v="hill" />
		<tag k="place" v="locality" />
		<tag k="ssr:stedsnr" v="334405" />
	</node>
	<node lat="63.759847219603735" lon="9.828949995453446" id="-55994">
		<tag k="name" v="Djupdalen" />
		<tag k="natural" v="valley" />
		<tag k="place" v="locality" />
		<tag k="ssr:stedsnr" v="334423" />
	</node>
	<node lat="63.87865833223258" lon="9.997950009966033" id="-55997">
		<tag k="name" v="Gammelseterflauget" />
		<tag k="natural" v="cliff" />
		<tag k="ssr:stedsnr" v="334522" />
	</node>
	<node lat="63.7760722216072" lon="9.603038883168514" id="-56000">
		<tag k="name" v="Grønskardet" />
		<tag k="natural" v="valley" />
		<tag k="place" v="locality" />
		<tag k="ssr:stedsnr" v="334482" />
	</node>
	<node lat="63.88440555269558" lon="9.844800007812456" id="-56002">
		<tag k="name" v="Varden" />
		<tag k="natural" v="hill" />
		<tag k="place" v="locality" />
		<tag k="ssr:stedsnr" v="334487" />
	</node>
	<node lat="63.877255551689885" lon="9.906172230532624" id="-56003">
		<tag k="name" v="Skammingslia" />
		<tag k="natural" v="slope" />
		<tag k="place" v="locality" />
		<tag k="ssr:stedsnr" v="334573" />
	</node>
	<node lat="63.641894445639494" lon="9.505374996509888" id="-56019">
		<tag k="name" v="Tjuvneshaugen" />
		<tag k="natural" v="hill" />
		<tag k="place" v="locality" />
		<tag k="ssr:stedsnr" v="338941" />
	</node>
	<node lat="63.8144083351402" lon="9.855830565216236" id="-56034">
		<tag k="name" v="Osplia" />
		<tag k="natural" v="slope" />
		<tag k="place" v="locality" />
		<tag k="ssr:stedsnr" v="376042" />
	</node>
	<node lat="63.84464722133331" lon="10.197994443546362" id="-56039">
		<tag k="name" v="Torsengheia" />
		<tag k="natural" v="hill" />
		<tag k="place" v="locality" />
		<tag k="ssr:stedsnr" v="377079" />
	</node>
	<node lat="63.82057222363882" lon="9.834866668280934" id="-56041">
		<tag k="name" v="Slønglidalen" />
		<tag k="natural" v="valley" />
		<tag k="place" v="locality" />
		<tag k="ssr:stedsnr" v="377044" />
	</node>
	<node lat="63.81620833387957" lon="9.753366664003291" id="-56044">
		<tag k="alt_name" v="Bolinskardet" />
		<tag k="name" v="Bolingskardet" />
		<tag k="natural" v="valley" />
		<tag k="place" v="locality" />
		<tag k="ssr:stedsnr" v="377051" />
	</node>
	<node lat="63.73852222219584" lon="9.763675005578088" id="-56048">
		<tag k="name" v="Frødalen" />
		<tag k="natural" v="valley" />
		<tag k="place" v="locality" />
		<tag k="ssr:stedsnr" v="377172" />
	</node>
	<node lat="63.817983331291856" lon="9.926000005226685" id="-56073">
		<tag k="name" v="Kjerkøyflauget" />
		<tag k="natural" v="cliff" />
		<tag k="ssr:stedsnr" v="394046" />
	</node>
	<node lat="63.823041664462096" lon="10.206308323607285" id="-56075">
		<tag k="name" v="Blanktjønnbrotta" />
		<tag k="place" v="locality" />
		<tag k="ssr:stedsnr" v="394053" />
	</node>
	<node lat="63.80461944494512" lon="9.900580555287545" id="-56079">
		<tag k="name" v="Røybakklumpen" />
		<tag k="natural" v="hill" />
		<tag k="place" v="locality" />
		<tag k="ssr:stedsnr" v="394029" />
	</node>
	<node lat="63.737238885369734" lon="9.787708340820508" id="-56081">
		<tag k="name" v="Råa" />
		<tag k="natural" v="slope" />
		<tag k="place" v="locality" />
		<tag k="ssr:stedsnr" v="394123" />
	</node>
	<node lat="63.800566670763715" lon="9.613861114974496" id="-56085">
		<tag k="name" v="Rauberghammaren" />
		<tag k="natural" v="hill" />
		<tag k="place" v="locality" />
		<tag k="ssr:stedsnr" v="394339" />
	</node>
	<node lat="63.89630833156759" lon="9.850722220267276" id="-56092">
		<tag k="name" v="Larsskoret" />
		<tag k="natural" v="valley" />
		<tag k="place" v="locality" />
		<tag k="ssr:stedsnr" v="394518" />
	</node>
	<node lat="63.76722500199459" lon="9.67587778235842" id="-56094">
		<tag k="name" v="Nephaugen" />
		<tag k="natural" v="hill" />
		<tag k="place" v="locality" />
		<tag k="ssr:stedsnr" v="394526" />
	</node>
	<node lat="63.88224721866559" lon="9.883497229482956" id="-56096">
		<tag k="name" v="Breiskardet" />
		<tag k="natural" v="valley" />
		<tag k="place" v="locality" />
		<tag k="ssr:stedsnr" v="394600" />
	</node>
	<node lat="63.87970000021675" lon="9.912083336016005" id="-56097">
		<tag k="name" v="Olderdalen" />
		<tag k="natural" v="valley" />
		<tag k="place" v="locality" />
		<tag k="ssr:stedsnr" v="394601" />
	</node>
	<node lat="63.8504472238989" lon="9.735813891046979" id="-56100">
		<tag k="name" v="Bålfjordvalen" />
		<tag k="natural" v="hill" />
		<tag k="place" v="locality" />
		<tag k="ssr:stedsnr" v="394724" />
	</node>
	<node lat="63.724813887751786" lon="9.859744453300632" id="-56104">
		<tag k="fixme" v="consider natural=peak for the most distinct mountains in the district" />
		<tag k="name" v="Piksteinen" />
		<tag k="natural" v="hill" />
		<tag k="place" v="locality" />
		<tag k="ssr:stedsnr" v="394434" />
	</node>
	<node lat="63.74963611043076" lon="9.860952768821011" id="-56108">
		<tag k="name" v="Tjuvskardet" />
		<tag k="natural" v="valley" />
		<tag k="place" v="locality" />
		<tag k="ssr:stedsnr" v="394455" />
	</node>
	<node lat="63.85990277654893" lon="9.940208332824605" id="-56114">
		<tag k="name" v="Sørvasshøgda" />
		<tag k="natural" v="hill" />
		<tag k="place" v="locality" />
		<tag k="ssr:stedsnr" v="394551" />
	</node>
	<node lat="63.81853055117627" lon="9.638661101676169" id="-56121">
		<tag k="name" v="Laksgarnberget" />
		<tag k="natural" v="hill" />
		<tag k="place" v="locality" />
		<tag k="ssr:stedsnr" v="394760" />
	</node>
	<node lat="63.80184722323013" lon="9.721519443691246" id="-56125">
		<tag k="name" v="Tørremheia" />
		<tag k="natural" v="hill" />
		<tag k="place" v="locality" />
		<tag k="ssr:stedsnr" v="394815" />
	</node>
	<node lat="63.88957222580118" lon="9.940097228908702" id="-56128">
		<tag k="name" v="Sandvikhalsen" />
		<tag k="natural" v="valley" />
		<tag k="place" v="locality" />
		<tag k="ssr:stedsnr" v="395349" />
	</node>
	<node lat="63.666091662866876" lon="9.404311102261078" id="-56130">
		<tag k="name" v="Valberget" />
		<tag k="natural" v="hill" />
		<tag k="place" v="locality" />
		<tag k="ssr:stedsnr" v="398814" />
	</node>
	<node lat="63.67566111434206" lon="9.664988897936515" id="-56134">
		<tag k="name" v="Holmhaugen" />
		<tag k="natural" v="hill" />
		<tag k="place" v="locality" />
		<tag k="ssr:stedsnr" v="399937" />
	</node>
	<node lat="63.64369444633585" lon="9.32758332430135" id="-56139">
		<tag k="name" v="Gjelhaugen" />
		<tag k="natural" v="hill" />
		<tag k="place" v="locality" />
		<tag k="ssr:stedsnr" v="399773" />
	</node>
	<node lat="63.64636111018455" lon="9.436369440114566" id="-56150">
		<tag k="fixme" v="consider natural=peak for the most distinct mountains in the district" />
		<tag k="name" v="Fosenfjellet" />
		<tag k="natural" v="hill" />
		<tag k="place" v="locality" />
		<tag k="ssr:stedsnr" v="437072" />
	</node>
	<node lat="63.80867500390991" lon="9.755702786193456" id="-56158">
		<tag k="fixme" v="consider natural=peak for the most distinct mountains in the district" />
		<tag k="name" v="Kopparaksla" />
		<tag k="natural" v="hill" />
		<tag k="place" v="locality" />
		<tag k="ssr:stedsnr" v="437044" />
	</node>
	<node lat="63.81018610986095" lon="9.727391663086621" id="-56159">
		<tag k="name" v="Dyrhatten" />
		<tag k="natural" v="hill" />
		<tag k="place" v="locality" />
		<tag k="ssr:stedsnr" v="437046" />
	</node>
	<node lat="63.82279444316585" lon="10.114672228810436" id="-56161">
		<tag k="name" v="Tverrlia" />
		<tag k="natural" v="slope" />
		<tag k="place" v="locality" />
		<tag k="ssr:stedsnr" v="438046" />
	</node>
	<node lat="63.841491668095905" lon="9.917827776410386" id="-56169">
		<tag k="name" v="Klumpan" />
		<tag k="natural" v="hill" />
		<tag k="place" v="locality" />
		<tag k="ssr:stedsnr" v="438078" />
	</node>
	<node lat="63.84475555680257" lon="9.764630550463124" id="-56170">
		<tag k="fixme" v="consider natural=peak for the most distinct mountains in the district" />
		<tag k="name" v="Tussan" />
		<tag k="natural" v="hill" />
		<tag k="place" v="locality" />
		<tag k="ssr:stedsnr" v="438083" />
	</node>
	<node lat="63.734650296741854" lon="9.816673511203252" id="-56175">
		<tag k="alt_name" v="Bjønnakammen" />
		<tag k="name" v="Bjørnakammen" />
		<tag k="natural" v="hill" />
		<tag k="place" v="locality" />
		<tag k="ssr:stedsnr" v="438180" />
	</node>
	<node lat="63.7303222219338" lon="9.749661102328847" id="-56178">
		<tag k="name" v="Stinnsvarden" />
		<tag k="natural" v="hill" />
		<tag k="place" v="locality" />
		<tag k="ssr:stedsnr" v="438224" />
	</node>
	<node lat="63.78121944557881" lon="9.595125006699492" id="-56186">
		<tag k="alt_name" v="Selliberget" />
		<tag k="name" v="Selleberget" />
		<tag k="natural" v="hill" />
		<tag k="place" v="locality" />
		<tag k="ssr:stedsnr" v="438640" />
	</node>
	<node lat="63.761516670597786" lon="9.95685278185232" id="-56192">
		<tag k="name" v="Butlia" />
		<tag k="natural" v="slope" />
		<tag k="place" v="locality" />
		<tag k="ssr:stedsnr" v="447668" />
	</node>
	<node lat="63.81618055891386" lon="9.770211102613974" id="-56200">
		<tag k="name" v="Smørhatten" />
		<tag k="natural" v="hill" />
		<tag k="place" v="locality" />
		<tag k="ssr:stedsnr" v="498031" />
	</node>
	<node lat="63.844524998812474" lon="9.985800009309518" id="-56204">
		<tag k="name" v="Skjervasslia" />
		<tag k="natural" v="slope" />
		<tag k="place" v="locality" />
		<tag k="ssr:stedsnr" v="498089" />
	</node>
	<node lat="63.770333334958764" lon="9.601305564886054" id="-56211">
		<tag k="fixme" v="consider natural=peak for the most distinct mountains in the district" />
		<tag k="name" v="Makersfjellet" />
		<tag k="natural" v="hill" />
		<tag k="place" v="locality" />
		<tag k="ssr:stedsnr" v="498763" />
	</node>
	<node lat="63.77724167044643" lon="9.786669435107774" id="-56215">
		<tag k="name" v="Nordhaugan" />
		<tag k="natural" v="hill" />
		<tag k="place" v="locality" />
		<tag k="ssr:stedsnr" v="498283" />
	</node>
	<node lat="63.75142777954511" lon="9.834872223193935" id="-56234">
		<tag k="fixme" v="consider natural=peak for the most distinct mountains in the district" />
		<tag k="name" v="Almfjellet" />
		<tag k="natural" v="hill" />
		<tag k="place" v="locality" />
		<tag k="ssr:stedsnr" v="499132" />
	</node>
	<node lat="63.859444441760445" lon="9.782780556828138" id="-56239">
		<tag k="name" v="Århaugen" />
		<tag k="natural" v="hill" />
		<tag k="place" v="locality" />
		<tag k="ssr:stedsnr" v="515758" />
	</node>
	<node lat="63.835194444513675" lon="9.992686110372585" id="-56242">
		<tag k="name" v="Keipen" />
		<tag k="natural" v="hill" />
		<tag k="place" v="locality" />
		<tag k="ssr:stedsnr" v="515049" />
	</node>
	<node lat="63.833811106799736" lon="9.927625005094054" id="-56243">
		<tag k="name" v="Krekkanheia" />
		<tag k="natural" v="hill" />
		<tag k="place" v="locality" />
		<tag k="ssr:stedsnr" v="515059" />
	</node>
	<node lat="63.84673611251396" lon="10.138594453904016" id="-56245">
		<tag k="name" v="Ytter Laugaheian" />
		<tag k="natural" v="hill" />
		<tag k="place" v="locality" />
		<tag k="ssr:stedsnr" v="515083" />
	</node>
	<node lat="63.835941668461174" lon="10.024263883626281" id="-56246">
		<tag k="name" v="Snøholet" />
		<tag k="natural" v="valley" />
		<tag k="place" v="locality" />
		<tag k="ssr:stedsnr" v="515098" />
	</node>
	<node lat="63.826205557959995" lon="10.035005559154072" id="-56247">
		<tag k="name" v="Amunddalen" />
		<tag k="natural" v="valley" />
		<tag k="place" v="locality" />
		<tag k="ssr:stedsnr" v="515100" />
	</node>
	<node lat="63.7344527818701" lon="9.807963891841618" id="-56249">
		<tag k="fixme" v="consider natural=peak for the most distinct mountains in the district" />
		<tag k="name" v="Middagsfjellet" />
		<tag k="natural" v="hill" />
		<tag k="place" v="locality" />
		<tag k="ssr:stedsnr" v="515154" />
	</node>
	<node lat="63.74740277598592" lon="9.768533340727126" id="-56251">
		<tag k="name" v="Ervikskardet" />
		<tag k="natural" v="valley" />
		<tag k="place" v="locality" />
		<tag k="ssr:stedsnr" v="515159" />
	</node>
	<node lat="63.72698333625075" lon="9.873058336618149" id="-56252">
		<tag k="fixme" v="consider natural=peak for the most distinct mountains in the district" />
		<tag k="name" v="Skarvskjettet" />
		<tag k="natural" v="hill" />
		<tag k="place" v="locality" />
		<tag k="ssr:stedsnr" v="515330" />
	</node>
	<node lat="63.75723610821983" lon="9.7686083401284" id="-56254">
		<tag k="name" v="Brandskardheia" />
		<tag k="natural" v="hill" />
		<tag k="place" v="locality" />
		<tag k="ssr:stedsnr" v="515348" />
	</node>
	<node lat="63.793975003018495" lon="9.644736106939751" id="-56255">
		<tag k="name" v="Dallen" />
		<tag k="natural" v="hill" />
		<tag k="place" v="locality" />
		<tag k="ssr:stedsnr" v="515351" />
	</node>
	<node lat="63.80020555820271" lon="9.641922230248971" id="-56256">
		<tag k="name" v="Tinnberget" />
		<tag k="natural" v="hill" />
		<tag k="place" v="locality" />
		<tag k="ssr:stedsnr" v="515353" />
	</node>
	<node lat="63.791669444053156" lon="9.643769438022945" id="-56257">
		<tag k="name" v="Middagsreva" />
		<tag k="natural" v="valley" />
		<tag k="place" v="locality" />
		<tag k="ssr:stedsnr" v="515354" />
	</node>
	<node lat="63.83771389326299" lon="9.675661112384658" id="-56264">
		<tag k="name" v="Kleiva" />
		<tag k="natural" v="hill" />
		<tag k="place" v="locality" />
		<tag k="ssr:stedsnr" v="515491" />
	</node>
	<node lat="63.73928610785516" lon="9.875463886193499" id="-56265">
		<tag k="name" v="Kjerkdalen" />
		<tag k="natural" v="valley" />
		<tag k="place" v="locality" />
		<tag k="ssr:stedsnr" v="515446" />
	</node>
	<node lat="63.89325833531048" lon="9.859591669880636" id="-56268">
		<tag k="fixme" v="consider natural=peak for the most distinct mountains in the district" />
		<tag k="name" v="Lysøyfjellet" />
		<tag k="natural" v="hill" />
		<tag k="place" v="locality" />
		<tag k="ssr:stedsnr" v="515515" />
	</node>
	<node lat="63.894191668879834" lon="9.848933339482478" id="-56269">
		<tag k="name" v="Stanghaugen" />
		<tag k="natural" v="hill" />
		<tag k="place" v="locality" />
		<tag k="ssr:stedsnr" v="515516" />
	</node>
	<node lat="63.76670277929567" lon="9.602538880915843" id="-56272">
		<tag k="name" v="Olahaugen" />
		<tag k="natural" v="hill" />
		<tag k="place" v="locality" />
		<tag k="ssr:stedsnr" v="515526" />
	</node>
	<node lat="63.789886107789336" lon="9.930625003623563" id="-56277">
		<tag k="name" v="Svartvasslia" />
		<tag k="natural" v="slope" />
		<tag k="place" v="locality" />
		<tag k="ssr:stedsnr" v="515567" />
	</node>
	<node lat="63.77082222284036" lon="9.880133324659665" id="-56285">
		<tag k="name" v="Torvbuhaugen" />
		<tag k="natural" v="hill" />
		<tag k="place" v="locality" />
		<tag k="ssr:stedsnr" v="515676" />
	</node>
	<node lat="63.75529722344573" lon="9.665458325009142" id="-56286">
		<tag k="name" v="Sauberget" />
		<tag k="natural" v="hill" />
		<tag k="place" v="locality" />
		<tag k="ssr:stedsnr" v="515687" />
	</node>
	<node lat="63.83047777468651" lon="9.715383324254082" id="-56287">
		<tag k="fixme" v="consider natural=peak for the most distinct mountains in the district" />
		<tag k="name" v="Skjervikfjellet" />
		<tag k="natural" v="hill" />
		<tag k="place" v="locality" />
		<tag k="ssr:stedsnr" v="515691" />
	</node>
	<node lat="63.821161109243995" lon="9.743294438995596" id="-56290">
		<tag k="name" v="Gravdalshauan" />
		<tag k="natural" v="hill" />
		<tag k="place" v="locality" />
		<tag k="ssr:stedsnr" v="515799" />
	</node>
	<node lat="63.78612500056036" lon="9.860066660620502" id="-56302">
		<tag k="name" v="Litl-Duhaugen" />
		<tag k="natural" v="hill" />
		<tag k="place" v="locality" />
		<tag k="ssr:stedsnr" v="516400" />
	</node>
	<node lat="63.75063055379088" lon="9.866900001344334" id="-56304">
		<tag k="fixme" v="consider natural=peak for the most distinct mountains in the district" />
		<tag k="name" v="Middagsfjellet" />
		<tag k="natural" v="hill" />
		<tag k="place" v="locality" />
		<tag k="ssr:stedsnr" v="516435" />
	</node>
	<node lat="63.858222225662075" lon="9.904641660776127" id="-56336">
		<tag k="fixme" v="consider natural=peak for the most distinct mountains in the district" />
		<tag k="name" v="Steggafjellet" />
		<tag k="natural" v="hill" />
		<tag k="place" v="locality" />
		<tag k="ssr:stedsnr" v="558122" />
	</node>
	<node lat="63.86276666876567" lon="9.919863889619696" id="-56338">
		<tag k="fixme" v="consider natural=peak for the most distinct mountains in the district" />
		<tag k="name" v="Bakkafjellet" />
		<tag k="natural" v="hill" />
		<tag k="place" v="locality" />
		<tag k="ssr:stedsnr" v="558139" />
	</node>
	<node lat="63.87301667097489" lon="9.948919440356258" id="-56342">
		<tag k="alt_name" v="Nesafjellet" />
		<tag k="fixme" v="consider natural=peak for the most distinct mountains in the district" />
		<tag k="name" v="Nessafjellet" />
		<tag k="natural" v="hill" />
		<tag k="place" v="locality" />
		<tag k="ssr:stedsnr" v="558590" />
	</node>
	<node lat="63.83752500410978" lon="9.977830555058095" id="-56350">
		<tag k="fixme" v="consider natural=peak for the most distinct mountains in the district" />
		<tag k="name" v="Keipen" />
		<tag k="natural" v="hill" />
		<tag k="place" v="locality" />
		<tag k="ssr:stedsnr" v="559070" />
	</node>
	<node lat="63.74842778182344" lon="9.855372216080983" id="-56357">
		<tag k="name" v="Eidskarklumpen" />
		<tag k="natural" v="hill" />
		<tag k="place" v="locality" />
		<tag k="ssr:stedsnr" v="559177" />
	</node>
	<node lat="63.723927774404224" lon="9.853641668790369" id="-56359">
		<tag k="fixme" v="consider natural=peak for the most distinct mountains in the district" />
		<tag k="name" v="Eidsfjellet" />
		<tag k="natural" v="hill" />
		<tag k="place" v="locality" />
		<tag k="ssr:stedsnr" v="559225" />
	</node>
	<node lat="63.793602780610925" lon="9.905466662931898" id="-56370">
		<tag k="name" v="Tjønnliheia" />
		<tag k="natural" v="hill" />
		<tag k="place" v="locality" />
		<tag k="ssr:stedsnr" v="576037" />
	</node>
	<node lat="63.82055833167672" lon="9.971091675641219" id="-56371">
		<tag k="name" v="Aunhalsen" />
		<tag k="natural" v="valley" />
		<tag k="place" v="locality" />
		<tag k="ssr:stedsnr" v="576038" />
	</node>
	<node lat="63.78027500365809" lon="9.998747218319254" id="-56373">
		<tag k="name" v="Finnkjerringhaugen" />
		<tag k="natural" v="hill" />
		<tag k="place" v="locality" />
		<tag k="ssr:stedsnr" v="576624" />
	</node>
	<node lat="63.88796666831198" lon="9.914369435063701" id="-56374">
		<tag k="fixme" v="consider natural=peak for the most distinct mountains in the district" />
		<tag k="name" v="Nøklafjellet" />
		<tag k="natural" v="hill" />
		<tag k="place" v="locality" />
		<tag k="ssr:stedsnr" v="576625" />
	</node>
	<node lat="63.75100000178902" lon="9.912186105849175" id="-56376">
		<tag k="name" v="Tømmerdalen" />
		<tag k="natural" v="valley" />
		<tag k="place" v="locality" />
		<tag k="ssr:stedsnr" v="576634" />
	</node>
	<node lat="63.85947222006994" lon="9.761405551768387" id="-56377">
		<tag k="name" v="Hammaren" />
		<tag k="natural" v="ridge" />
		<tag k="place" v="locality" />
		<tag k="ssr:stedsnr" v="576641" />
	</node>
	<node lat="63.826616663207446" lon="10.05219999216603" id="-56379">
		<tag k="name" v="Storrognholknoppan" />
		<tag k="natural" v="hill" />
		<tag k="place" v="locality" />
		<tag k="ssr:stedsnr" v="576080" />
	</node>
	<node lat="63.81984166357793" lon="10.042186118665697" id="-56380">
		<tag k="name" v="Hildremskråa" />
		<tag k="natural" v="valley" />
		<tag k="place" v="locality" />
		<tag k="ssr:stedsnr" v="576084" />
	</node>
	<node lat="63.83366944744597" lon="10.096463894081602" id="-56381">
		<tag k="name" v="Finnknoppen" />
		<tag k="natural" v="hill" />
		<tag k="place" v="locality" />
		<tag k="ssr:stedsnr" v="576088" />
	</node>
	<node lat="63.798577773842894" lon="9.77266944301775" id="-56384">
		<tag k="name" v="Knoppen" />
		<tag k="natural" v="hill" />
		<tag k="place" v="locality" />
		<tag k="ssr:stedsnr" v="576186" />
	</node>
	<node lat="63.727155556242366" lon="9.826113894054588" id="-56387">
		<tag k="name" v="Sandmoen" />
		<tag k="place" v="locality" />
		<tag k="ssr:stedsnr" v="576409" />
	</node>
	<node lat="63.81541111055053" lon="9.41285833615356" id="-56396">
		<tag k="name" v="Gråsteinen" />
		<tag k="place" v="locality" />
		<tag k="ssr:stedsnr" v="576197" />
	</node>
	<node lat="63.77923610732868" lon="9.77545000809275" id="-56400">
		<tag k="name" v="Brandheia" />
		<tag k="natural" v="hill" />
		<tag k="place" v="locality" />
		<tag k="ssr:stedsnr" v="576341" />
	</node>
	<node lat="63.891369448190076" lon="9.836236119726356" id="-56402">
		<tag k="name" v="Heimskoret" />
		<tag k="natural" v="valley" />
		<tag k="place" v="locality" />
		<tag k="ssr:stedsnr" v="576363" />
	</node>
	<node lat="63.66834999983302" lon="9.40280277639371" id="-56409">
		<tag k="name" v="Geitklovskardet" />
		<tag k="natural" v="valley" />
		<tag k="place" v="locality" />
		<tag k="ssr:stedsnr" v="576472" />
	</node>
	<node lat="63.75437778001092" lon="9.754297216029554" id="-56410">
		<tag k="name" v="Åsen" />
		<tag k="place" v="locality" />
		<tag k="ssr:stedsnr" v="576479" />
	</node>
	<node lat="63.752377775840124" lon="9.806452773974417" id="-56411">
		<tag k="name" v="Skinnstakkhaugan" />
		<tag k="natural" v="hill" />
		<tag k="place" v="locality" />
		<tag k="ssr:stedsnr" v="576492" />
	</node>
	<node lat="63.872580551658096" lon="9.958777782205926" id="-56413">
		<tag k="name" v="Kvennavasslia" />
		<tag k="natural" v="slope" />
		<tag k="place" v="locality" />
		<tag k="ssr:stedsnr" v="576571" />
	</node>
	<node lat="63.78504722635879" lon="9.850544436686452" id="-56416">
		<tag k="name" v="Langhaugen" />
		<tag k="natural" v="hill" />
		<tag k="place" v="locality" />
		<tag k="ssr:stedsnr" v="576419" />
	</node>
	<node lat="63.767797220354254" lon="9.585286106718168" id="-56424">
		<tag k="name" v="Varden" />
		<tag k="natural" v="hill" />
		<tag k="place" v="locality" />
		<tag k="ssr:stedsnr" v="576530" />
	</node>
	<node lat="63.76810555629151" lon="9.59490276987347" id="-56425">
		<tag k="name" v="Lauvskardhaugen" />
		<tag k="natural" v="hill" />
		<tag k="place" v="locality" />
		<tag k="ssr:stedsnr" v="576535" />
	</node>
	<node lat="63.862299995932844" lon="9.709038887310609" id="-56429">
		<tag k="name" v="Valan" />
		<tag k="natural" v="hill" />
		<tag k="place" v="locality" />
		<tag k="ssr:stedsnr" v="576668" />
	</node>
	<node lat="63.76640000056234" lon="9.948938895602595" id="-56434">
		<tag k="name" v="Granlia" />
		<tag k="natural" v="slope" />
		<tag k="place" v="locality" />
		<tag k="ssr:stedsnr" v="576683" />
	</node>
	<node lat="63.8513722244998" lon="9.716538897129649" id="-56435">
		<tag k="name" v="Hestbergflauget" />
		<tag k="natural" v="hill" />
		<tag k="place" v="locality" />
		<tag k="ssr:stedsnr" v="576763" />
	</node>
	<node lat="63.8114388857083" lon="9.738677772010124" id="-56440">
		<tag k="fixme" v="consider natural=peak for the most distinct mountains in the district" />
		<tag k="name" v="Bjønnastokken" />
		<tag k="natural" v="hill" />
		<tag k="place" v="locality" />
		<tag k="ssr:stedsnr" v="576832" />
	</node>
	<node lat="63.64804999748906" lon="9.401761115176866" id="-56454">
		<tag k="fixme" v="consider natural=peak for the most distinct mountains in the district" />
		<tag k="name" v="Kalven" />
		<tag k="natural" v="hill" />
		<tag k="place" v="locality" />
		<tag k="ssr:stedsnr" v="580831" />
	</node>
	<node lat="63.724719448396925" lon="9.757991668248698" id="-56455">
		<tag k="fixme" v="consider natural=peak for the most distinct mountains in the district" />
		<tag k="name" v="Ørnliklumpen" />
		<tag k="natural" v="hill" />
		<tag k="place" v="locality" />
		<tag k="ssr:stedsnr" v="581778" />
	</node>
	<node lat="63.67683888515699" lon="9.652311105724733" id="-56456">
		<tag k="name" v="Sankthanshaugen" />
		<tag k="natural" v="hill" />
		<tag k="place" v="locality" />
		<tag k="ssr:stedsnr" v="581783" />
	</node>
	<node lat="63.79679444799575" lon="10.066752784034763" id="-56469">
		<tag k="name" v="Halsen" />
		<tag k="natural" v="hill" />
		<tag k="place" v="locality" />
		<tag k="ssr:stedsnr" v="619004" />
	</node>
	<node lat="63.644844444273886" lon="9.315552783077328" id="-56478">
		<tag k="fixme" v="consider natural=peak for the most distinct mountains in the district" />
		<tag k="name" v="Høgfjellet" />
		<tag k="natural" v="hill" />
		<tag k="place" v="locality" />
		<tag k="ssr:stedsnr" v="619058" />
	</node>
	<node lat="63.72627499871797" lon="9.78326665840136" id="-56485">
		<tag k="name" v="Kalvåhaugan" />
		<tag k="natural" v="hill" />
		<tag k="place" v="locality" />
		<tag k="ssr:stedsnr" v="620235" />
	</node>
	<node lat="63.786230552206156" lon="9.66227221772464" id="-56490">
		<tag k="fixme" v="consider natural=peak for the most distinct mountains in the district" />
		<tag k="name" v="Steinvikfjellet" />
		<tag k="natural" v="hill" />
		<tag k="place" v="locality" />
		<tag k="ssr:stedsnr" v="619648" />
	</node>
	<node lat="63.771694446732376" lon="9.629786110482081" id="-56492">
		<tag k="fixme" v="consider natural=peak for the most distinct mountains in the district" />
		<tag k="name" v="Duehellaren" />
		<tag k="natural" v="hill" />
		<tag k="place" v="locality" />
		<tag k="ssr:stedsnr" v="619654" />
	</node>
	<node lat="63.830844441504794" lon="9.822794447801192" id="-56499">
		<tag k="fixme" v="consider natural=peak for the most distinct mountains in the district" />
		<tag k="name" v="Kufjellet" />
		<tag k="natural" v="hill" />
		<tag k="place" v="locality" />
		<tag k="ssr:stedsnr" v="620064" />
	</node>
	<node lat="63.88214722557118" lon="9.978100009635838" id="-56505">
		<tag k="fixme" v="consider natural=peak for the most distinct mountains in the district" />
		<tag k="name" v="Blåvassfjellet" />
		<tag k="natural" v="hill" />
		<tag k="place" v="locality" />
		<tag k="ssr:stedsnr" v="620553" />
	</node>
	<node lat="63.816708330922246" lon="9.407436115499568" id="-56510">
		<tag k="name" v="Valhaugen" />
		<tag k="natural" v="hill" />
		<tag k="place" v="locality" />
		<tag k="ssr:stedsnr" v="636213" />
	</node>
	<node lat="63.83433889141804" lon="9.992077771190853" id="-56516">
		<tag k="name" v="Simendalen" />
		<tag k="natural" v="valley" />
		<tag k="place" v="locality" />
		<tag k="ssr:stedsnr" v="636041" />
	</node>
	<node lat="63.83282222272918" lon="10.01958611940923" id="-56517">
		<tag k="name" v="Oterstokkdalen" />
		<tag k="natural" v="valley" />
		<tag k="place" v="locality" />
		<tag k="ssr:stedsnr" v="636043" />
	</node>
	<node lat="63.8255388861104" lon="10.207155563060573" id="-56518">
		<tag k="name" v="Blanktjønnheia" />
		<tag k="natural" v="hill" />
		<tag k="place" v="locality" />
		<tag k="ssr:stedsnr" v="636071" />
	</node>
	<node lat="63.771155559832025" lon="9.962591666245364" id="-56525">
		<tag k="name" v="Svartskardet" />
		<tag k="natural" v="valley" />
		<tag k="place" v="locality" />
		<tag k="ssr:stedsnr" v="636597" />
	</node>
	<node lat="63.809147218929105" lon="10.191499992419468" id="-56544">
		<tag k="name" v="Elgholet" />
		<tag k="natural" v="valley" />
		<tag k="place" v="locality" />
		<tag k="ssr:stedsnr" v="636571" />
	</node>
	<node lat="63.78237221972271" lon="10.052436103462727" id="-56547">
		<tag k="name" v="Kamneset" />
		<tag k="natural" v="ridge" />
		<tag k="place" v="locality" />
		<tag k="ssr:stedsnr" v="636644" />
	</node>
	<node lat="63.87182499715212" lon="9.832863892174204" id="-56549">
		<tag k="name" v="Varden" />
		<tag k="natural" v="hill" />
		<tag k="place" v="locality" />
		<tag k="ssr:stedsnr" v="636616" />
	</node>
	<node lat="63.82011110674146" lon="9.976505551928602" id="-56553">
		<tag k="name" v="Aunlia" />
		<tag k="natural" v="slope" />
		<tag k="place" v="locality" />
		<tag k="ssr:stedsnr" v="636701" />
	</node>
	<node lat="63.8596777761785" lon="9.738297222972982" id="-56559">
		<tag k="name" v="Høgberga" />
		<tag k="natural" v="hill" />
		<tag k="place" v="locality" />
		<tag k="ssr:stedsnr" v="636665" />
	</node>
	<node lat="63.83454722254714" lon="9.708308333746572" id="-56561">
		<tag k="name" v="Buskardet" />
		<tag k="natural" v="valley" />
		<tag k="place" v="locality" />
		<tag k="ssr:stedsnr" v="636740" />
	</node>
	<node lat="63.822680555600094" lon="9.652616670705731" id="-56563">
		<tag k="name" v="Småhaugan" />
		<tag k="natural" v="hill" />
		<tag k="place" v="locality" />
		<tag k="ssr:stedsnr" v="636767" />
	</node>
	<node lat="63.66198611106082" lon="9.395875000218869" id="-56581">
		<tag k="name" v="Klungerhaugen" />
		<tag k="natural" v="hill" />
		<tag k="place" v="locality" />
		<tag k="ssr:stedsnr" v="641800" />
	</node>
	<node lat="63.662825000634975" lon="9.37291666443326" id="-56582">
		<tag k="name" v="Tinnhaugen" />
		<tag k="natural" v="hill" />
		<tag k="place" v="locality" />
		<tag k="ssr:stedsnr" v="641814" />
	</node>
	<node lat="63.742094441203825" lon="9.690152768617699" id="-56583">
		<tag k="name" v="Branthaugen" />
		<tag k="natural" v="hill" />
		<tag k="place" v="locality" />
		<tag k="ssr:stedsnr" v="641844" />
	</node>
	<node lat="63.72403333724945" lon="9.746313888855239" id="-56586">
		<tag k="fixme" v="consider natural=peak for the most distinct mountains in the district" />
		<tag k="name" v="Nypen" />
		<tag k="natural" v="hill" />
		<tag k="place" v="locality" />
		<tag k="ssr:stedsnr" v="641946" />
	</node>
	<node lat="63.72188333198392" lon="9.706183329938764" id="-56588">
		<tag k="name" v="Rønsberget" />
		<tag k="natural" v="hill" />
		<tag k="place" v="locality" />
		<tag k="ssr:stedsnr" v="641969" />
	</node>
	<node lat="63.790822224622175" lon="10.168872226750421" id="-56591">
		<tag k="name" v="Finnkjerringberget" />
		<tag k="natural" v="hill" />
		<tag k="place" v="locality" />
		<tag k="ssr:stedsnr" v="648912" />
	</node>
	<node lat="63.64591944635014" lon="9.425438885841816" id="-56593">
		<tag k="fixme" v="multiple name tags, choose one and add the other to alt_name; consider natural=peak for the most distinct mountains in the district" />
		<tag k="name" v="Fosenheia;Vettaheia" />
		<tag k="natural" v="hill" />
		<tag k="place" v="locality" />
		<tag k="ssr:stedsnr" v="667775" />
	</node>
	<node lat="63.80906666746601" lon="10.055619434981036" id="-56597">
		<tag k="name" v="Rundhaugen" />
		<tag k="natural" v="hill" />
		<tag k="place" v="locality" />
		<tag k="ssr:stedsnr" v="741032" />
	</node>
	<node lat="63.84780277561459" lon="10.185477780326444" id="-56598">
		<tag k="name" v="Torsengdalen" />
		<tag k="natural" v="valley" />
		<tag k="place" v="locality" />
		<tag k="ssr:stedsnr" v="741113" />
	</node>
	<node lat="63.84945000164176" lon="10.120647214345395" id="-56600">
		<tag k="alt_name" v="Laugadalen, ytre;Ytter Laugadalen" />
		<tag k="name" v="Ytre Laugadalen" />
		<tag k="natural" v="valley" />
		<tag k="place" v="locality" />
		<tag k="ssr:stedsnr" v="741131" />
	</node>
	<node lat="63.839852776397656" lon="10.21094444491083" id="-56605">
		<tag k="alt_name" v="Godliheia" />
		<tag k="name" v="Goliheia" />
		<tag k="natural" v="hill" />
		<tag k="place" v="locality" />
		<tag k="ssr:stedsnr" v="741083" />
	</node>
	<node lat="63.74569999929471" lon="9.881855547109277" id="-56608">
		<tag k="name" v="Storhaugen" />
		<tag k="natural" v="hill" />
		<tag k="place" v="locality" />
		<tag k="ssr:stedsnr" v="741245" />
	</node>
	<node lat="63.78258888725968" lon="9.949816667988067" id="-56610">
		<tag k="fixme" v="consider natural=peak for the most distinct mountains in the district" />
		<tag k="name" v="Kammen" />
		<tag k="natural" v="hill" />
		<tag k="place" v="locality" />
		<tag k="ssr:stedsnr" v="741277" />
	</node>
	<node lat="63.83638055990496" lon="10.16487776980938" id="-56620">
		<tag k="alt_name" v="Torsengheia, Ytter" />
		<tag k="name" v="Ytter Torsengheia" />
		<tag k="natural" v="hill" />
		<tag k="place" v="locality" />
		<tag k="ssr:stedsnr" v="750871" />
	</node>
	<node lat="63.83935555330144" lon="10.123324996757077" id="-56622">
		<tag k="name" v="Tomasvasskollen" />
		<tag k="natural" v="hill" />
		<tag k="place" v="locality" />
		<tag k="ssr:stedsnr" v="758118" />
	</node>
	<node lat="63.84526944460169" lon="10.124213890244672" id="-56623">
		<tag k="name" v="Tomasvasslia" />
		<tag k="natural" v="slope" />
		<tag k="place" v="locality" />
		<tag k="ssr:stedsnr" v="758120" />
	</node>
	<node lat="63.82061944367433" lon="10.17956666871802" id="-56624">
		<tag k="name" v="Mydalshøgda" />
		<tag k="natural" v="hill" />
		<tag k="place" v="locality" />
		<tag k="ssr:stedsnr" v="758125" />
	</node>
	<node lat="63.8167194480166" lon="10.168211103039818" id="-56625">
		<tag k="name" v="Bjønnadalshøgda" />
		<tag k="natural" v="hill" />
		<tag k="place" v="locality" />
		<tag k="ssr:stedsnr" v="758129" />
	</node>
	<node lat="63.80987500083368" lon="9.4274888989013" id="-56629">
		<tag k="name" v="Gammelgårdsholet" />
		<tag k="place" v="locality" />
		<tag k="ssr:stedsnr" v="758218" />
	</node>
	<node lat="63.77684999675685" lon="9.848019446632913" id="-56637">
		<tag k="fixme" v="consider natural=peak for the most distinct mountains in the district" />
		<tag k="name" v="Botnåsen" />
		<tag k="natural" v="hill" />
		<tag k="place" v="locality" />
		<tag k="ssr:stedsnr" v="758368" />
	</node>
	<node lat="63.75892222088525" lon="9.740302782419642" id="-56638">
		<tag k="name" v="Ustaberget" />
		<tag k="natural" v="hill" />
		<tag k="place" v="locality" />
		<tag k="ssr:stedsnr" v="758369" />
	</node>
	<node lat="63.847358334895354" lon="9.825302769496155" id="-56639">
		<tag k="fixme" v="consider natural=peak for the most distinct mountains in the district" />
		<tag k="name" v="Rugåsen" />
		<tag k="natural" v="hill" />
		<tag k="place" v="locality" />
		<tag k="ssr:stedsnr" v="758402" />
	</node>
	<node lat="63.84728333444023" lon="9.804611110835149" id="-56640">
		<tag k="name" v="Storskardet" />
		<tag k="natural" v="valley" />
		<tag k="place" v="locality" />
		<tag k="ssr:stedsnr" v="758429" />
	</node>
	<node lat="63.810388893345404" lon="9.66969167164056" id="-56643">
		<tag k="name" v="Kletten" />
		<tag k="natural" v="hill" />
		<tag k="place" v="locality" />
		<tag k="ssr:stedsnr" v="758534" />
	</node>
	<node lat="63.80343055163432" lon="9.642386106239874" id="-56644">
		<tag k="name" v="Varden" />
		<tag k="natural" v="hill" />
		<tag k="place" v="locality" />
		<tag k="ssr:stedsnr" v="758537" />
	</node>
	<node lat="63.87101110753347" lon="9.866072225237328" id="-56648">
		<tag k="name" v="Andbuskardet" />
		<tag k="natural" v="valley" />
		<tag k="place" v="locality" />
		<tag k="ssr:stedsnr" v="758629" />
	</node>
	<node lat="63.76526944211511" lon="9.613499997058696" id="-56652">
		<tag k="name" v="Burshaugen" />
		<tag k="natural" v="hill" />
		<tag k="place" v="locality" />
		<tag k="ssr:stedsnr" v="758564" />
	</node>
	<node lat="63.803119447358675" lon="10.036541662027053" id="-56654">
		<tag k="name" v="Goholkollen" />
		<tag k="natural" v="hill" />
		<tag k="place" v="locality" />
		<tag k="ssr:stedsnr" v="758575" />
	</node>
	<node lat="63.828661109569495" lon="9.670449999583774" id="-56665">
		<tag k="name" v="Laugåshaugen" />
		<tag k="natural" v="hill" />
		<tag k="place" v="locality" />
		<tag k="ssr:stedsnr" v="758772" />
	</node>
	<node lat="63.88966944587608" lon="9.80406388122139" id="-56672">
		<tag k="name" v="Staurhallaren" />
		<tag k="natural" v="hill" />
		<tag k="place" v="locality" />
		<tag k="ssr:stedsnr" v="758677" />
	</node>
	<node lat="63.72443889004153" lon="9.63600278519813" id="-56692">
		<tag k="name" v="Ryggasletta" />
		<tag k="place" v="locality" />
		<tag k="ssr:stedsnr" v="762860" />
	</node>
	<node lat="63.66831666932405" lon="9.394880565441905" id="-56695">
		<tag k="name" v="Singshaugan" />
		<tag k="natural" v="hill" />
		<tag k="place" v="locality" />
		<tag k="ssr:stedsnr" v="762840" />
	</node>
	<node lat="63.67479444124351" lon="9.656344450706493" id="-56696">
		<tag k="name" v="Sandbergshaugen" />
		<tag k="natural" v="hill" />
		<tag k="place" v="locality" />
		<tag k="ssr:stedsnr" v="763760" />
	</node>
	<node lat="63.73448888652168" lon="9.726188895580133" id="-56698">
		<tag k="name" v="Juldagsskardet" />
		<tag k="natural" v="valley" />
		<tag k="place" v="locality" />
		<tag k="ssr:stedsnr" v="763885" />
	</node>
	<node lat="63.687738885497104" lon="9.65177499698906" id="-56699">
		<tag k="name" v="Fjøshaugen" />
		<tag k="natural" v="hill" />
		<tag k="place" v="locality" />
		<tag k="ssr:stedsnr" v="763958" />
	</node>
	<node lat="63.728319442369916" lon="9.579749999509808" id="-56703">
		<tag k="name" v="Uthaugrogna" />
		<tag k="place" v="locality" />
		<tag k="ssr:stedsnr" v="763985" />
	</node>
	<node lat="63.854149996535696" lon="10.00745554596213" id="-56709">
		<tag k="alt_name" v="Roliholet" />
		<tag k="name" v="Roligholet" />
		<tag k="natural" v="valley" />
		<tag k="place" v="locality" />
		<tag k="ssr:stedsnr" v="802135" />
	</node>
	<node lat="63.643388890043035" lon="9.529813887626565" id="-56712">
		<tag k="name" v="Gartkviga" />
		<tag k="natural" v="hill" />
		<tag k="place" v="locality" />
		<tag k="ssr:stedsnr" v="802090" />
	</node>
	<node lat="63.81089444732597" lon="9.983549990532877" id="-56715">
		<tag k="fixme" v="consider natural=peak for the most distinct mountains in the district" />
		<tag k="name" v="Almfjellet" />
		<tag k="natural" v="hill" />
		<tag k="place" v="locality" />
		<tag k="ssr:stedsnr" v="802036" />
	</node>
	<node lat="63.81551666619926" lon="10.150055564811565" id="-56721">
		<tag k="name" v="Mydalen" />
		<tag k="natural" v="valley" />
		<tag k="place" v="locality" />
		<tag k="ssr:stedsnr" v="802054" />
	</node>
	<node lat="63.772663890125855" lon="9.812786112634225" id="-56728">
		<tag k="fixme" v="consider natural=peak for the most distinct mountains in the district" />
		<tag k="name" v="Brattlia" />
		<tag k="natural" v="hill" />
		<tag k="place" v="locality" />
		<tag k="ssr:stedsnr" v="802233" />
	</node>
	<node lat="63.786858337265926" lon="9.652302770199782" id="-56738">
		<tag k="name" v="Steinvikskardet" />
		<tag k="natural" v="valley" />
		<tag k="place" v="locality" />
		<tag k="ssr:stedsnr" v="802675" />
	</node>
	<node lat="63.76873055878487" lon="9.92874444140803" id="-56755">
		<tag k="name" v="Tronholet" />
		<tag k="natural" v="valley" />
		<tag k="place" v="locality" />
		<tag k="ssr:stedsnr" v="819682" />
	</node>
	<node lat="63.81450555925388" lon="9.853047222933547" id="-56757">
		<tag k="fixme" v="consider natural=peak for the most distinct mountains in the district" />
		<tag k="name" v="Snellifjellet" />
		<tag k="natural" v="hill" />
		<tag k="place" v="locality" />
		<tag k="ssr:stedsnr" v="819685" />
	</node>
	<node lat="63.819955551440806" lon="9.847822220760547" id="-56760">
		<tag k="name" v="Masterliklumpen" />
		<tag k="natural" v="hill" />
		<tag k="place" v="locality" />
		<tag k="ssr:stedsnr" v="819692" />
	</node>
	<node lat="63.847958331938415" lon="9.931211111734967" id="-56761">
		<tag k="fixme" v="consider natural=peak for the most distinct mountains in the district" />
		<tag k="name" v="Brattflauget" />
		<tag k="natural" v="hill" />
		<tag k="place" v="locality" />
		<tag k="ssr:stedsnr" v="819696" />
	</node>
	<node lat="63.77900277756141" lon="9.974244453664834" id="-56762">
		<tag k="name" v="Granaksla" />
		<tag k="natural" v="ridge" />
		<tag k="place" v="locality" />
		<tag k="ssr:stedsnr" v="819699" />
	</node>
	<node lat="63.84949444421177" lon="9.914986105351906" id="-56763">
		<tag k="name" v="Bjønnaheia" />
		<tag k="natural" v="hill" />
		<tag k="place" v="locality" />
		<tag k="ssr:stedsnr" v="819702" />
	</node>
	<node lat="63.81195277930422" lon="9.991886113737761" id="-56764">
		<tag k="name" v="Trolldalen" />
		<tag k="natural" v="valley" />
		<tag k="place" v="locality" />
		<tag k="ssr:stedsnr" v="819025" />
	</node>
	<node lat="63.849238890345276" lon="10.026494453329004" id="-56772">
		<tag k="fixme" v="consider natural=peak for the most distinct mountains in the district" />
		<tag k="name" v="Søndagsbenken" />
		<tag k="natural" v="hill" />
		<tag k="place" v="locality" />
		<tag k="ssr:stedsnr" v="819107" />
	</node>
	<node lat="63.714902775050874" lon="9.805297231361422" id="-56775">
		<tag k="name" v="Kvernaholet" />
		<tag k="natural" v="valley" />
		<tag k="place" v="locality" />
		<tag k="ssr:stedsnr" v="819159" />
	</node>
	<node lat="63.73629999629144" lon="9.71134166567934" id="-56776">
		<tag k="name" v="Kakkelhaugen" />
		<tag k="natural" v="hill" />
		<tag k="place" v="locality" />
		<tag k="ssr:stedsnr" v="819166" />
	</node>
	<node lat="63.797347219470254" lon="9.413513895461831" id="-56778">
		<tag k="name" v="Stanghaugan" />
		<tag k="natural" v="hill" />
		<tag k="place" v="locality" />
		<tag k="ssr:stedsnr" v="819189" />
	</node>
	<node lat="63.75798610999538" lon="9.860619446634674" id="-56780">
		<tag k="name" v="Bustbakken" />
		<tag k="natural" v="slope" />
		<tag k="place" v="locality" />
		<tag k="ssr:stedsnr" v="819347" />
	</node>
	<node lat="63.761799998603045" lon="9.825361120653342" id="-56781">
		<tag k="fixme" v="consider natural=peak for the most distinct mountains in the district" />
		<tag k="name" v="Brekkfjellet" />
		<tag k="natural" v="hill" />
		<tag k="place" v="locality" />
		<tag k="ssr:stedsnr" v="819352" />
	</node>
	<node lat="63.7692138874704" lon="9.803313893534312" id="-56782">
		<tag k="fixme" v="consider natural=peak for the most distinct mountains in the district" />
		<tag k="name" v="Sjulafjellet" />
		<tag k="natural" v="hill" />
		<tag k="place" v="locality" />
		<tag k="ssr:stedsnr" v="819500" />
	</node>
	<node lat="63.78009166758519" lon="9.877405563892768" id="-56783">
		<tag k="name" v="Eksdalen" />
		<tag k="natural" v="valley" />
		<tag k="place" v="locality" />
		<tag k="ssr:stedsnr" v="819583" />
	</node>
	<node lat="63.77260555660924" lon="9.979399996744455" id="-56784">
		<tag k="name" v="Osphaugen" />
		<tag k="natural" v="hill" />
		<tag k="place" v="locality" />
		<tag k="ssr:stedsnr" v="819586" />
	</node>
	<node lat="63.72527499948943" lon="9.866752783377954" id="-56788">
		<tag k="fixme" v="consider natural=peak for the most distinct mountains in the district" />
		<tag k="name" v="Råddavika" />
		<tag k="natural" v="hill" />
		<tag k="place" v="locality" />
		<tag k="ssr:stedsnr" v="819437" />
	</node>
	<node lat="63.7320611107927" lon="9.824197215376769" id="-56789">
		<tag k="name" v="Heggdalen" />
		<tag k="natural" v="valley" />
		<tag k="place" v="locality" />
		<tag k="ssr:stedsnr" v="819455" />
	</node>
	<node lat="63.81064444548196" lon="10.017519448241016" id="-56793">
		<tag k="name" v="Høgden" />
		<tag k="natural" v="hill" />
		<tag k="place" v="locality" />
		<tag k="ssr:stedsnr" v="819551" />
	</node>
	<node lat="63.85863610694617" lon="9.953116672341588" id="-56797">
		<tag k="name" v="Melvasslia" />
		<tag k="natural" v="slope" />
		<tag k="place" v="locality" />
		<tag k="ssr:stedsnr" v="819564" />
	</node>
	<node lat="63.86011666263273" lon="9.714830560118203" id="-56803">
		<tag k="name" v="Kobbskjerhaugen" />
		<tag k="natural" v="hill" />
		<tag k="place" v="locality" />
		<tag k="ssr:stedsnr" v="819661" />
	</node>
	<node lat="63.85504722430631" lon="9.785772214108079" id="-56804">
		<tag k="name" v="Herskardheia" />
		<tag k="natural" v="hill" />
		<tag k="place" v="locality" />
		<tag k="ssr:stedsnr" v="819728" />
	</node>
	<node lat="63.85325555170692" lon="9.783372230766973" id="-56805">
		<tag k="name" v="Herskardet" />
		<tag k="natural" v="valley" />
		<tag k="place" v="locality" />
		<tag k="ssr:stedsnr" v="819730" />
	</node>
	<node lat="63.84313889178676" lon="9.765783336987738" id="-56808">
		<tag k="fixme" v="consider natural=peak for the most distinct mountains in the district" />
		<tag k="name" v="Tussakjerringa" />
		<tag k="natural" v="hill" />
		<tag k="place" v="locality" />
		<tag k="ssr:stedsnr" v="819746" />
	</node>
	<node lat="63.84276666710769" lon="9.753113888143176" id="-56809">
		<tag k="fixme" v="consider natural=peak for the most distinct mountains in the district" />
		<tag k="name" v="Middagsfjellet" />
		<tag k="natural" v="hill" />
		<tag k="place" v="locality" />
		<tag k="ssr:stedsnr" v="819753" />
	</node>
	<node lat="63.850152779557476" lon="9.73086388228609" id="-56810">
		<tag k="fixme" v="consider natural=peak for the most distinct mountains in the district" />
		<tag k="name" v="Vassfjellet" />
		<tag k="natural" v="hill" />
		<tag k="place" v="locality" />
		<tag k="ssr:stedsnr" v="819762" />
	</node>
	<node lat="63.720394440397016" lon="9.791005547207167" id="-56822">
		<tag k="name" v="Småmyrhaugen" />
		<tag k="natural" v="hill" />
		<tag k="place" v="locality" />
		<tag k="ssr:stedsnr" v="823935" />
	</node>
	<node lat="63.71402778151882" lon="9.77470555016071" id="-56833">
		<tag k="name" v="Skalbakken" />
		<tag k="natural" v="slope" />
		<tag k="place" v="locality" />
		<tag k="ssr:stedsnr" v="824767" />
	</node>
	<node lat="63.73416388447272" lon="9.70874999797187" id="-56835">
		<tag k="name" v="Reithaugen" />
		<tag k="natural" v="hill" />
		<tag k="place" v="locality" />
		<tag k="ssr:stedsnr" v="824778" />
	</node>
	<node lat="63.652222221263955" lon="9.551077773457441" id="-56836">
		<tag k="name" v="Rønsholmhaugen" />
		<tag k="natural" v="hill" />
		<tag k="place" v="locality" />
		<tag k="ssr:stedsnr" v="824782" />
	</node>
	<node lat="63.743041667361155" lon="9.678752775759182" id="-56841">
		<tag k="name" v="Nausthaugen" />
		<tag k="natural" v="hill" />
		<tag k="place" v="locality" />
		<tag k="ssr:stedsnr" v="824886" />
	</node>
	<node lat="63.82008055774199" lon="10.110399990502255" id="-56855">
		<tag k="alt_name" v="Høgåskamman" />
		<tag k="fixme" v="consider natural=peak for the most distinct mountains in the district" />
		<tag k="name" v="Høgåskammen" />
		<tag k="natural" v="hill" />
		<tag k="place" v="locality" />
		<tag k="ssr:stedsnr" v="862046" />
	</node>
	<node lat="63.80683560104936" lon="9.425661938116782" id="-56859">
		<tag k="name" v="Gammalgårdshaugen" />
		<tag k="natural" v="hill" />
		<tag k="place" v="locality" />
		<tag k="ssr:stedsnr" v="862626" />
	</node>
	<node lat="63.82355277745934" lon="9.944002780457577" id="-56860">
		<tag k="name" v="Seterheia" />
		<tag k="natural" v="hill" />
		<tag k="place" v="locality" />
		<tag k="ssr:stedsnr" v="863048" />
	</node>
	<node lat="63.815288890632324" lon="9.834222219701603" id="-56861">
		<tag k="fixme" v="consider natural=peak for the most distinct mountains in the district" />
		<tag k="name" v="Finnstifjellet" />
		<tag k="natural" v="hill" />
		<tag k="place" v="locality" />
		<tag k="ssr:stedsnr" v="863051" />
	</node>
	<node lat="63.82191666346889" lon="9.792058325679948" id="-56862">
		<tag k="fixme" v="consider natural=peak for the most distinct mountains in the district" />
		<tag k="name" v="Stongfjellet" />
		<tag k="natural" v="hill" />
		<tag k="place" v="locality" />
		<tag k="ssr:stedsnr" v="863054" />
	</node>
	<node lat="63.74131944651661" lon="9.892211113740625" id="-56867">
		<tag k="name" v="Klubben" />
		<tag k="natural" v="hill" />
		<tag k="place" v="locality" />
		<tag k="ssr:stedsnr" v="863219" />
	</node>
	<node lat="63.78675832966547" lon="9.856980563355231" id="-56868">
		<tag k="name" v="Duhaugen" />
		<tag k="natural" v="hill" />
		<tag k="place" v="locality" />
		<tag k="ssr:stedsnr" v="863220" />
	</node>
	<node lat="63.78819444505102" lon="9.790972224159313" id="-56869">
		<tag k="name" v="Åkgårdshaugen" />
		<tag k="natural" v="hill" />
		<tag k="place" v="locality" />
		<tag k="ssr:stedsnr" v="863223" />
	</node>
	<node lat="63.757544444681606" lon="9.842619447396377" id="-56875">
		<tag k="name" v="Bol" />
		<tag k="natural" v="hill" />
		<tag k="place" v="locality" />
		<tag k="ssr:stedsnr" v="880435" />
	</node>
	<node lat="63.74548333539263" lon="9.902844443532429" id="-56876">
		<tag k="name" v="Merraberget" />
		<tag k="natural" v="hill" />
		<tag k="place" v="locality" />
		<tag k="ssr:stedsnr" v="880444" />
	</node>
	<node lat="63.78825277539793" lon="10.018930562599362" id="-56880">
		<tag k="name" v="Helvetet" />
		<tag k="natural" v="cliff" />
		<tag k="ssr:stedsnr" v="880642" />
	</node>
	<node lat="63.88121111528148" lon="9.896716657340132" id="-56881">
		<tag k="name" v="Hellesvikskardet" />
		<tag k="natural" v="valley" />
		<tag k="place" v="locality" />
		<tag k="ssr:stedsnr" v="880647" />
	</node>
	<node lat="63.82571944833812" lon="9.698083342545388" id="-56885">
		<tag k="name" v="Herstan" />
		<tag k="natural" v="hill" />
		<tag k="place" v="locality" />
		<tag k="ssr:stedsnr" v="880730" />
	</node>
	<node lat="63.800941667172886" lon="9.8822000067008" id="-56887">
		<tag k="name" v="Granholskardet" />
		<tag k="natural" v="valley" />
		<tag k="place" v="locality" />
		<tag k="ssr:stedsnr" v="880026" />
	</node>
	<node lat="63.827111110768215" lon="9.976827776075389" id="-56889">
		<tag k="name" v="Langtjønnlia" />
		<tag k="natural" v="slope" />
		<tag k="place" v="locality" />
		<tag k="ssr:stedsnr" v="880032" />
	</node>
	<node lat="63.83549722067788" lon="10.025452778986423" id="-56890">
		<tag k="name" v="Snøholhøgden" />
		<tag k="natural" v="hill" />
		<tag k="place" v="locality" />
		<tag k="ssr:stedsnr" v="880045" />
	</node>
	<node lat="63.83924166714357" lon="10.153116671388634" id="-56893">
		<tag k="name" v="Elgholet" />
		<tag k="natural" v="valley" />
		<tag k="place" v="locality" />
		<tag k="ssr:stedsnr" v="880079" />
	</node>
	<node lat="63.824269445849005" lon="10.050894436318265" id="-56895">
		<tag k="name" v="Storrognholet" />
		<tag k="natural" v="valley" />
		<tag k="place" v="locality" />
		<tag k="ssr:stedsnr" v="880086" />
	</node>
	<node lat="63.82277222022836" lon="10.084763898410447" id="-56896">
		<tag k="name" v="Stinusdalen" />
		<tag k="natural" v="valley" />
		<tag k="place" v="locality" />
		<tag k="ssr:stedsnr" v="880090" />
	</node>
	<node lat="63.81743611142892" lon="9.428361107941939" id="-56903">
		<tag k="name" v="Rundhaugen" />
		<tag k="natural" v="hill" />
		<tag k="place" v="locality" />
		<tag k="ssr:stedsnr" v="880202" />
	</node>
	<node lat="63.800102776453656" lon="9.664127781908757" id="-56908">
		<tag k="name" v="Rundhaugen" />
		<tag k="natural" v="hill" />
		<tag k="place" v="locality" />
		<tag k="ssr:stedsnr" v="880327" />
	</node>
	<node lat="63.83775277727099" lon="9.81534444928101" id="-56910">
		<tag k="name" v="Bryggberget" />
		<tag k="natural" v="hill" />
		<tag k="place" v="locality" />
		<tag k="ssr:stedsnr" v="880343" />
	</node>
	<node lat="63.804788889504366" lon="10.051599996252492" id="-56914">
		<tag k="name" v="Småtjønndalen" />
		<tag k="natural" v="valley" />
		<tag k="place" v="locality" />
		<tag k="ssr:stedsnr" v="880562" />
	</node>
	<node lat="63.80396111186025" lon="10.080866670729474" id="-56915">
		<tag k="name" v="Langgraslia" />
		<tag k="natural" v="slope" />
		<tag k="place" v="locality" />
		<tag k="ssr:stedsnr" v="880584" />
	</node>
	<node lat="63.83953055990085" lon="9.7972638899649" id="-56916">
		<tag k="fixme" v="consider natural=peak for the most distinct mountains in the district" />
		<tag k="name" v="Hammaren" />
		<tag k="natural" v="hill" />
		<tag k="place" v="locality" />
		<tag k="ssr:stedsnr" v="880378" />
	</node>
	<node lat="63.76273889099397" lon="9.718849997905869" id="-56918">
		<tag k="name" v="Fruvika" />
		<tag k="natural" v="slope" />
		<tag k="place" v="locality" />
		<tag k="ssr:stedsnr" v="880390" />
	</node>
	<node lat="63.85613888580311" lon="9.867866671490086" id="-56921">
		<tag k="name" v="Storhaugen" />
		<tag k="natural" v="hill" />
		<tag k="place" v="locality" />
		<tag k="ssr:stedsnr" v="880588" />
	</node>
	<node lat="63.77554722380888" lon="10.064561114332065" id="-56924">
		<tag k="name" v="Dueskardbakken" />
		<tag k="natural" v="slope" />
		<tag k="place" v="locality" />
		<tag k="ssr:stedsnr" v="880661" />
	</node>
	<node lat="63.75719166304801" lon="9.893711114810216" id="-56930">
		<tag k="name" v="Bjønnadalen" />
		<tag k="natural" v="valley" />
		<tag k="place" v="locality" />
		<tag k="ssr:stedsnr" v="880696" />
	</node>
	<node lat="63.74631944479326" lon="9.681586106989785" id="-56945">
		<tag k="name" v="Nervikhaugen" />
		<tag k="natural" v="hill" />
		<tag k="place" v="locality" />
		<tag k="ssr:stedsnr" v="884867" />
	</node>
	<node lat="63.704947225284315" lon="9.74784167207528" id="-56952">
		<tag k="name" v="Merrahaugen" />
		<tag k="natural" v="hill" />
		<tag k="place" v="locality" />
		<tag k="ssr:stedsnr" v="884940" />
	</node>
	<node lat="63.72510833623007" lon="9.782769454302196" id="-56954">
		<tag k="name" v="Langdalsheia" />
		<tag k="natural" v="hill" />
		<tag k="place" v="locality" />
		<tag k="ssr:stedsnr" v="884943" />
	</node>
	<node lat="63.738869444745596" lon="9.685619443530264" id="-56957">
		<tag k="name" v="Storhaugen" />
		<tag k="natural" v="hill" />
		<tag k="place" v="locality" />
		<tag k="ssr:stedsnr" v="885756" />
	</node>
	<node lat="63.71265833500885" lon="9.529769449963384" id="-56963">
		<tag k="name" v="Berithaugen" />
		<tag k="natural" v="hill" />
		<tag k="place" v="locality" />
		<tag k="ssr:stedsnr" v="885939" />
	</node>
	<node lat="63.73178333014921" lon="9.779438879952224" id="-56964">
		<tag k="name" v="Tortlia" />
		<tag k="natural" v="slope" />
		<tag k="place" v="locality" />
		<tag k="ssr:stedsnr" v="885940" />
	</node>
	<node lat="63.81514166277781" lon="9.873899993300641" id="-56970">
		<tag k="name" v="Rognliheia" />
		<tag k="natural" v="hill" />
		<tag k="place" v="locality" />
		<tag k="ssr:stedsnr" v="940014" />
	</node>
	<node lat="63.81293055196605" lon="9.878147216550188" id="-56971">
		<tag k="name" v="Jøvassheia" />
		<tag k="natural" v="hill" />
		<tag k="place" v="locality" />
		<tag k="ssr:stedsnr" v="940027" />
	</node>
	<node lat="63.83424444226535" lon="9.733188889326751" id="-56976">
		<tag k="fixme" v="consider natural=peak for the most distinct mountains in the district" />
		<tag k="name" v="Båtvikfjellet" />
		<tag k="natural" v="hill" />
		<tag k="place" v="locality" />
		<tag k="ssr:stedsnr" v="940684" />
	</node>
	<node lat="63.7480083373307" lon="9.788244454008796" id="-56981">
		<tag k="name" v="Grønskogskarda" />
		<tag k="natural" v="valley" />
		<tag k="place" v="locality" />
		<tag k="ssr:stedsnr" v="940157" />
	</node>
	<node lat="63.746011112239934" lon="9.715652786577085" id="-56982">
		<tag k="name" v="Reksterberget" />
		<tag k="natural" v="hill" />
		<tag k="place" v="locality" />
		<tag k="ssr:stedsnr" v="940160" />
	</node>
	<node lat="63.74198611240961" lon="9.764686120459828" id="-56983">
		<tag k="name" v="Flatheia" />
		<tag k="natural" v="hill" />
		<tag k="place" v="locality" />
		<tag k="ssr:stedsnr" v="940162" />
	</node>
	<node lat="63.739569442494826" lon="9.769647223350812" id="-56984">
		<tag k="name" v="Storkleiva" />
		<tag k="natural" v="hill" />
		<tag k="place" v="locality" />
		<tag k="ssr:stedsnr" v="940163" />
	</node>
	<node lat="63.804361111751085" lon="9.43216667424204" id="-56985">
		<tag k="name" v="Nausthaugan" />
		<tag k="natural" v="hill" />
		<tag k="place" v="locality" />
		<tag k="ssr:stedsnr" v="940168" />
	</node>
	<node lat="63.87628889223792" lon="9.974955556857894" id="-56995">
		<tag k="name" v="Blåvasslia" />
		<tag k="natural" v="slope" />
		<tag k="place" v="locality" />
		<tag k="ssr:stedsnr" v="940314" />
	</node>
	<node lat="63.75319722055704" lon="9.73227500131632" id="-56997">
		<tag k="name" v="Tårndalen" />
		<tag k="natural" v="valley" />
		<tag k="place" v="locality" />
		<tag k="ssr:stedsnr" v="940328" />
	</node>
	<node lat="63.7490083292018" lon="9.76691945177381" id="-56998">
		<tag k="fixme" v="consider natural=peak for the most distinct mountains in the district" />
		<tag k="name" v="Hundfjellet" />
		<tag k="natural" v="hill" />
		<tag k="place" v="locality" />
		<tag k="ssr:stedsnr" v="940345" />
	</node>
	<node lat="63.834525002204074" lon="9.67399167250879" id="-57003">
		<tag k="name" v="Maridalen" />
		<tag k="natural" v="valley" />
		<tag k="place" v="locality" />
		<tag k="ssr:stedsnr" v="940469" />
	</node>
	<node lat="63.766319445501516" lon="9.688216663501606" id="-57005">
		<tag k="name" v="Luktsteinan" />
		<tag k="natural" v="hill" />
		<tag k="place" v="locality" />
		<tag k="ssr:stedsnr" v="940389" />
	</node>
	<node lat="63.74301666711805" lon="9.882825003299349" id="-57009">
		<tag k="fixme" v="consider natural=peak for the most distinct mountains in the district" />
		<tag k="name" v="Olderlifjellet" />
		<tag k="natural" v="hill" />
		<tag k="place" v="locality" />
		<tag k="ssr:stedsnr" v="940423" />
	</node>
	<node lat="63.78665278002313" lon="9.96724722876132" id="-57018">
		<tag k="name" v="Kammalia" />
		<tag k="natural" v="slope" />
		<tag k="place" v="locality" />
		<tag k="ssr:stedsnr" v="940556" />
	</node>
	<node lat="63.781919440966995" lon="9.960680557982029" id="-57019">
		<tag k="name" v="Kammahaugen" />
		<tag k="natural" v="hill" />
		<tag k="place" v="locality" />
		<tag k="ssr:stedsnr" v="940558" />
	</node>
	<node lat="63.850974999965494" lon="9.875788894652594" id="-57021">
		<tag k="name" v="Rasmusdalen" />
		<tag k="natural" v="valley" />
		<tag k="place" v="locality" />
		<tag k="ssr:stedsnr" v="940562" />
	</node>
	<node lat="63.86750833108925" lon="9.895916661397388" id="-57022">
		<tag k="name" v="Storhammaren" />
		<tag k="natural" v="hill" />
		<tag k="place" v="locality" />
		<tag k="ssr:stedsnr" v="940563" />
	</node>
	<node lat="63.772997217879094" lon="9.607905561499264" id="-57027">
		<tag k="fixme" v="consider natural=peak for the most distinct mountains in the district" />
		<tag k="name" v="Futfjellet" />
		<tag k="natural" v="hill" />
		<tag k="place" v="locality" />
		<tag k="ssr:stedsnr" v="940664" />
	</node>
	<node lat="63.82864722313193" lon="10.106936111668734" id="-57029">
		<tag k="name" v="Ytter Vakkerseterlia" />
		<tag k="natural" v="slope" />
		<tag k="place" v="locality" />
		<tag k="ssr:stedsnr" v="940670" />
	</node>
	<node lat="63.874963891917254" lon="9.86826945456312" id="-57030">
		<tag k="fixme" v="consider natural=peak for the most distinct mountains in the district" />
		<tag k="name" v="Storrømmesfjellet" />
		<tag k="natural" v="hill" />
		<tag k="place" v="locality" />
		<tag k="ssr:stedsnr" v="940585" />
	</node>
	<node lat="63.76437777593498" lon="9.620122224022127" id="-57031">
		<tag k="name" v="Sankthanshaugen" />
		<tag k="natural" v="hill" />
		<tag k="place" v="locality" />
		<tag k="ssr:stedsnr" v="940590" />
	</node>
	<node lat="63.88926944467894" lon="9.875125007464737" id="-57032">
		<tag k="fixme" v="consider natural=peak for the most distinct mountains in the district" />
		<tag k="name" v="Trettvikhammaren" />
		<tag k="natural" v="hill" />
		<tag k="place" v="locality" />
		<tag k="ssr:stedsnr" v="940593" />
	</node>
	<node lat="63.88330277730895" lon="9.887677767821469" id="-57033">
		<tag k="fixme" v="consider natural=peak for the most distinct mountains in the district" />
		<tag k="name" v="Brandfjellet" />
		<tag k="natural" v="hill" />
		<tag k="place" v="locality" />
		<tag k="ssr:stedsnr" v="940595" />
	</node>
	<node lat="63.78946111487373" lon="10.058436117737335" id="-57035">
		<tag k="name" v="Barelia" />
		<tag k="natural" v="slope" />
		<tag k="place" v="locality" />
		<tag k="ssr:stedsnr" v="940603" />
	</node>
	<node lat="63.89131666696525" lon="9.926511114655337" id="-57037">
		<tag k="name" v="Sjøbakken" />
		<tag k="natural" v="slope" />
		<tag k="place" v="locality" />
		<tag k="ssr:stedsnr" v="940610" />
	</node>
	<node lat="63.78533611037461" lon="10.037397213780451" id="-57038">
		<tag k="name" v="Seterlia" />
		<tag k="natural" v="slope" />
		<tag k="place" v="locality" />
		<tag k="ssr:stedsnr" v="940611" />
	</node>
	<node lat="63.78657222147418" lon="9.902686114039858" id="-57039">
		<tag k="name" v="Marikollskardet" />
		<tag k="natural" v="valley" />
		<tag k="place" v="locality" />
		<tag k="ssr:stedsnr" v="940617" />
	</node>
	<node lat="63.81529721907301" lon="9.745263880031555" id="-57042">
		<tag k="name" v="Håkadalsskarda" />
		<tag k="natural" v="valley" />
		<tag k="place" v="locality" />
		<tag k="ssr:stedsnr" v="940787" />
	</node>
	<node lat="63.82874722011051" lon="9.800338882061707" id="-57043">
		<tag k="fixme" v="consider natural=peak for the most distinct mountains in the district" />
		<tag k="name" v="Sellifjellet" />
		<tag k="natural" v="hill" />
		<tag k="place" v="locality" />
		<tag k="ssr:stedsnr" v="940789" />
	</node>
	<node lat="63.79737222625801" lon="9.71654443579121" id="-57045">
		<tag k="name" v="Oksvolldalen" />
		<tag k="natural" v="valley" />
		<tag k="place" v="locality" />
		<tag k="ssr:stedsnr" v="940801" />
	</node>
	<node lat="63.79395833149386" lon="9.704552777064457" id="-57046">
		<tag k="name" v="Munken" />
		<tag k="natural" v="hill" />
		<tag k="place" v="locality" />
		<tag k="ssr:stedsnr" v="940802" />
	</node>
	<node lat="63.83666111536582" lon="9.761613888592123" id="-57053">
		<tag k="name" v="Svartholbakken" />
		<tag k="natural" v="slope" />
		<tag k="place" v="locality" />
		<tag k="ssr:stedsnr" v="940705" />
	</node>
	<node lat="63.837847221254926" lon="9.740499998802262" id="-57054">
		<tag k="fixme" v="consider natural=peak for the most distinct mountains in the district" />
		<tag k="name" v="Kronfjellet" />
		<tag k="natural" v="hill" />
		<tag k="place" v="locality" />
		<tag k="ssr:stedsnr" v="940711" />
	</node>
	<node lat="63.84055555182774" lon="9.702869446051233" id="-57055">
		<tag k="fixme" v="consider natural=peak for the most distinct mountains in the district" />
		<tag k="name" v="Lunkavalen" />
		<tag k="natural" v="hill" />
		<tag k="place" v="locality" />
		<tag k="ssr:stedsnr" v="940721" />
	</node>
	<node lat="63.77884166444585" lon="9.732836111023875" id="-57071">
		<tag k="name" v="Torsidalen" />
		<tag k="natural" v="valley" />
		<tag k="place" v="locality" />
		<tag k="ssr:stedsnr" v="941471" />
	</node>
	<node lat="63.87869999618416" lon="9.964169452141766" id="-57074">
		<tag k="name" v="Slåttaklova" />
		<tag k="natural" v="ridge" />
		<tag k="place" v="locality" />
		<tag k="ssr:stedsnr" v="941553" />
	</node>
	<node lat="63.87107500313225" lon="9.846458325029264" id="-57075">
		<tag k="name" v="Petterbakken" />
		<tag k="natural" v="slope" />
		<tag k="place" v="locality" />
		<tag k="ssr:stedsnr" v="941587" />
	</node>
	<node lat="63.86601944104919" lon="9.856072224517275" id="-57076">
		<tag k="name" v="Fanghushaugen" />
		<tag k="natural" v="hill" />
		<tag k="place" v="locality" />
		<tag k="ssr:stedsnr" v="941592" />
	</node>
	<node lat="63.72383889277804" lon="9.773763890682241" id="-57096">
		<tag k="name" v="Sankthansholet" />
		<tag k="natural" v="valley" />
		<tag k="place" v="locality" />
		<tag k="ssr:stedsnr" v="945718" />
	</node>
	<node lat="63.6553194463178" lon="9.390061108541945" id="-57098">
		<tag k="name" v="Heia" />
		<tag k="natural" v="hill" />
		<tag k="place" v="locality" />
		<tag k="ssr:stedsnr" v="945827" />
	</node>
	<node lat="63.73211666849058" lon="9.708194453216105" id="-57099">
		<tag k="name" v="Esvikhaugan" />
		<tag k="natural" v="hill" />
		<tag k="place" v="locality" />
		<tag k="ssr:stedsnr" v="945890" />
	</node>
	<node lat="63.71430555946146" lon="9.659172224187797" id="-57100">
		<tag k="name" v="Følsberget" />
		<tag k="natural" v="hill" />
		<tag k="place" v="locality" />
		<tag k="ssr:stedsnr" v="945746" />
	</node>
	<node lat="63.72345833555885" lon="9.670722219889896" id="-57102">
		<tag k="fixme" v="consider natural=peak for the most distinct mountains in the district" />
		<tag k="name" v="Kleivan" />
		<tag k="natural" v="hill" />
		<tag k="place" v="locality" />
		<tag k="ssr:stedsnr" v="945754" />
	</node>
	<node lat="63.66394999881698" lon="9.41214721608205" id="-57103">
		<tag k="name" v="Damskardhaugan" />
		<tag k="natural" v="hill" />
		<tag k="place" v="locality" />
		<tag k="ssr:stedsnr" v="945756" />
	</node>
	<node lat="63.661875002411364" lon="9.379880556232282" id="-57105">
		<tag k="name" v="Valtuva" />
		<tag k="natural" v="hill" />
		<tag k="place" v="locality" />
		<tag k="ssr:stedsnr" v="945759" />
	</node>
	<node lat="63.66356110800696" lon="9.38449999341395" id="-57108">
		<tag k="name" v="Brandhaugen" />
		<tag k="natural" v="hill" />
		<tag k="place" v="locality" />
		<tag k="ssr:stedsnr" v="945844" />
	</node>
	<node lat="63.84975555859933" lon="10.203774999033788" id="-57114">
		<tag k="name" v="Torsengdalen" />
		<tag k="natural" v="valley" />
		<tag k="place" v="locality" />
		<tag k="ssr:stedsnr" v="952536" />
	</node>
</osm>
