<?xml version="1.0" encoding="UTF-8"?>
<osm version="0.6" generator="osmapis">
	<node lat="63.80076389104093" lon="10.006402777290202" id="-49995">
		<tag k="name" v="Nybråten" />
		<tag k="place" v="farm" />
		<tag k="ssr:stedsnr" v="13003" />
	</node>
	<node lat="63.64241666666937" lon="9.326225004705195" id="-50001">
		<tag k="name" v="Kjerkvika" />
		<tag k="place" v="farm" />
		<tag k="ssr:stedsnr" v="13073" />
	</node>
	<node lat="63.74126666660034" lon="9.821141664002372" id="-50004">
		<tag k="name" v="Vikan" />
		<tag k="place" v="farm" />
		<tag k="ssr:stedsnr" v="13207" />
	</node>
	<node lat="63.84517777468629" lon="9.726261102819443" id="-50011">
		<tag k="name" v="Skiftet" />
		<tag k="place" v="farm" />
		<tag k="ssr:stedsnr" v="13121" />
	</node>
	<node lat="63.880238886177196" lon="9.83449999541407" id="-50012">
		<tag k="name" v="Øya" />
		<tag k="place" v="farm" />
		<tag k="ssr:stedsnr" v="13604" />
	</node>
	<node lat="63.65986666405196" lon="9.383955549353756" id="-50015">
		<tag k="name" v="Skålvika" />
		<tag k="place" v="farm" />
		<tag k="ssr:stedsnr" v="20041" />
	</node>
	<node lat="63.73842221842958" lon="9.678127769050318" id="-50016">
		<tag k="fixme" v="consider place=hamlet" />
		<tag k="loc_name" v="Døsvik" />
		<tag k="name" v="Døsvika" />
		<tag k="place" v="farm" />
		<tag k="ssr:stedsnr" v="25188" />
	</node>
	<node lat="63.76563055920384" lon="9.596480562193834" id="-50025">
		<tag k="name" v="Lauvskardet" />
		<tag k="place" v="farm" />
		<tag k="ssr:stedsnr" v="30266" />
	</node>
	<node lat="63.76981388809856" lon="9.587352783049353" id="-50026">
		<tag k="name" v="Nesgården" />
		<tag k="place" v="farm" />
		<tag k="ssr:stedsnr" v="30273" />
	</node>
	<node lat="63.754133331770504" lon="9.704505557570446" id="-50044">
		<tag k="name" v="Vedneset" />
		<tag k="place" v="farm" />
		<tag k="ssr:stedsnr" v="30781" />
	</node>
	<node lat="63.81088889054947" lon="9.705869439702514" id="-50045">
		<tag k="name" v="Tørrem" />
		<tag k="place" v="farm" />
		<tag k="ssr:stedsnr" v="30901" />
	</node>
	<node lat="63.870780559705274" lon="9.934211110814996" id="-50046">
		<tag k="name" v="Olden" />
		<tag k="place" v="farm" />
		<tag k="ssr:stedsnr" v="30908" />
	</node>
	<node lat="63.86036666447906" lon="9.858952774361768" id="-50047">
		<tag k="name" v="Neset" />
		<tag k="place" v="farm" />
		<tag k="ssr:stedsnr" v="30911" />
	</node>
	<node lat="63.863613885547764" lon="9.86054167607122" id="-50048">
		<tag k="name" v="Leikvang" />
		<tag k="place" v="farm" />
		<tag k="ssr:stedsnr" v="30913" />
	</node>
	<node lat="63.82316944659999" lon="9.812097213889942" id="-50049">
		<tag k="name" v="Moan" />
		<tag k="place" v="farm" />
		<tag k="ssr:stedsnr" v="30922" />
	</node>
	<node lat="63.787297226315346" lon="9.805666666750753" id="-50050">
		<tag k="name" v="Solli" />
		<tag k="place" v="farm" />
		<tag k="ssr:stedsnr" v="30818" />
	</node>
	<node lat="63.78344999693269" lon="9.804513894745597" id="-50051">
		<tag k="name" v="Tonakken" />
		<tag k="place" v="farm" />
		<tag k="ssr:stedsnr" v="30820" />
	</node>
	<node lat="63.777875004376895" lon="9.749052775095965" id="-50052">
		<tag k="name" v="Naustan" />
		<tag k="place" v="farm" />
		<tag k="ssr:stedsnr" v="30867" />
	</node>
	<node lat="63.85135278057542" lon="9.777722228518194" id="-50053">
		<tag k="name" v="Hvileberget" />
		<tag k="place" v="farm" />
		<tag k="ssr:stedsnr" v="30880" />
	</node>
	<node lat="63.72630277717218" lon="9.695427785445332" id="-50057">
		<tag k="name" v="Røstad" />
		<tag k="place" v="farm" />
		<tag k="ssr:stedsnr" v="34590" />
	</node>
	<node lat="63.705452778706004" lon="9.706458336856693" id="-50058">
		<tag k="name" v="Vangenlund" />
		<tag k="place" v="farm" />
		<tag k="ssr:stedsnr" v="34597" />
	</node>
	<node lat="63.67708888732275" lon="9.619983335212632" id="-50059">
		<tag k="name" v="Ørteigen" />
		<tag k="place" v="farm" />
		<tag k="ssr:stedsnr" v="34611" />
	</node>
	<node lat="63.677355552390296" lon="9.654883324948178" id="-50060">
		<tag k="name" v="Hovde" />
		<tag k="place" v="farm" />
		<tag k="ssr:stedsnr" v="34613" />
	</node>
	<node lat="63.717019444129896" lon="9.765463886016486" id="-50065">
		<tag k="name" v="Karlsenget" />
		<tag k="place" v="farm" />
		<tag k="ssr:stedsnr" v="35960" />
	</node>
	<node lat="63.69380833003047" lon="9.657138894884868" id="-50066">
		<tag k="name" v="Prestbakken" />
		<tag k="place" v="farm" />
		<tag k="ssr:stedsnr" v="35963" />
	</node>
	<node lat="63.66179722085936" lon="9.387013879903105" id="-50067">
		<tag k="name" v="Lunde" />
		<tag k="place" v="farm" />
		<tag k="ssr:stedsnr" v="35810" />
	</node>
	<node lat="63.770919445308735" lon="9.816752786704832" id="-50070">
		<tag k="name" v="Kamhaugfeltet" />
		<tag k="place" v="quarter" />
		<tag k="ssr:stedsnr" v="241101" />
	</node>
	<node lat="63.72634999578775" lon="9.59283888498778" id="-50073">
		<tag k="fixme" v="consider place=suburb, village or hamlet" />
		<tag k="name" v="Uthaug" />
		<tag k="place" v="quarter" />
		<tag k="ssr:stedsnr" v="74016" />
	</node>
	<node lat="63.84902500195436" lon="9.73854445315617" id="-50075">
		<tag k="fixme" v="consider place=hamlet" />
		<tag k="name" v="Bålfjorden" />
		<tag k="place" v="farm" />
		<tag k="ssr:stedsnr" v="74101" />
	</node>
	<node lat="63.813508330979246" lon="9.707149993098195" id="-50082">
		<tag k="name" v="Tørrem" />
		<tag k="place" v="hamlet" />
		<tag k="ssr:stedsnr" v="86174" />
	</node>
	<node lat="63.7717249981169" lon="9.567083339145352" id="-50091">
		<tag k="name" v="Haugvika" />
		<tag k="place" v="farm" />
		<tag k="ssr:stedsnr" v="91229" />
	</node>
	<node lat="63.73890833014935" lon="9.71064166506534" id="-50092">
		<tag k="name" v="Haugtun" />
		<tag k="place" v="farm" />
		<tag k="ssr:stedsnr" v="91307" />
	</node>
	<node lat="63.66174372735617" lon="9.369363900106642" id="-50098">
		<tag k="name" v="Neset" />
		<tag k="place" v="farm" />
		<tag k="ssr:stedsnr" v="91521" />
	</node>
	<node lat="63.8685472222793" lon="9.86793610534863" id="-50108">
		<tag k="name" v="Rømmen" />
		<tag k="place" v="farm" />
		<tag k="ssr:stedsnr" v="91622" />
	</node>
	<node lat="63.828190675688504" lon="9.675212863250398" id="-50111">
		<tag k="name" v="Val" />
		<tag k="place" v="farm" />
		<tag k="ssr:stedsnr" v="91907" />
	</node>
	<node lat="63.74320277577092" lon="9.905663887334699" id="-50115">
		<tag k="fixme" v="consider place=hamlet" />
		<tag k="name" v="Berge" />
		<tag k="place" v="farm" />
		<tag k="ssr:stedsnr" v="91873" />
	</node>
	<node lat="63.733747218721845" lon="9.860850003770528" id="-50116">
		<tag k="name" v="Torkilstad" />
		<tag k="place" v="farm" />
		<tag k="ssr:stedsnr" v="91874" />
	</node>
	<node lat="63.78056944207952" lon="9.755955555418428" id="-50117">
		<tag k="name" v="Nordheim" />
		<tag k="place" v="farm" />
		<tag k="ssr:stedsnr" v="91882" />
	</node>
	<node lat="63.82969166982587" lon="9.806402778926726" id="-50118">
		<tag k="name" v="Barsetbakken" />
		<tag k="place" v="farm" />
		<tag k="ssr:stedsnr" v="91890" />
	</node>
	<node lat="63.73729166455359" lon="9.663088879868074" id="-50124">
		<tag k="name" v="Ørsleie" />
		<tag k="place" v="farm" />
		<tag k="ssr:stedsnr" v="95610" />
	</node>
	<node lat="63.73663055452582" lon="9.673911113738283" id="-50125">
		<tag k="name" v="Kløften" />
		<tag k="place" v="farm" />
		<tag k="ssr:stedsnr" v="95618" />
	</node>
	<node lat="63.72113055446435" lon="9.657355555314338" id="-50126">
		<tag k="name" v="Aks" />
		<tag k="place" v="farm" />
		<tag k="ssr:stedsnr" v="95567" />
	</node>
	<node lat="63.717122221591815" lon="9.685211110161644" id="-50127">
		<tag k="name" v="Hov" />
		<tag k="place" v="farm" />
		<tag k="ssr:stedsnr" v="95572" />
	</node>
	<node lat="63.706816666278016" lon="9.70221111701167" id="-50128">
		<tag k="name" v="Vangenstein" />
		<tag k="place" v="farm" />
		<tag k="ssr:stedsnr" v="95582" />
	</node>
	<node lat="63.72751388530052" lon="9.694847228340981" id="-50133">
		<tag k="name" v="Geilvollen" />
		<tag k="place" v="farm" />
		<tag k="ssr:stedsnr" v="95882" />
	</node>
	<node lat="63.71804470099202" lon="9.70636056874922" id="-50138">
		<tag k="fixme" v="consider place=hamlet" />
		<tag k="name" v="Røstad" />
		<tag k="place" v="farm" />
		<tag k="ssr:stedsnr" v="96981" />
	</node>
	<node lat="63.739963890623" lon="9.678266662498013" id="-50143">
		<tag k="name" v="Døsvika" />
		<tag k="place" v="hamlet" />
		<tag k="ssr:stedsnr" v="134011" />
	</node>
	<node lat="63.74831303053485" lon="9.82364005287269" id="-50149">
		<tag k="name" v="Smååkran" />
		<tag k="place" v="farm" />
		<tag k="ssr:stedsnr" v="134204" />
	</node>
	<node lat="63.786249999247374" lon="9.813480558852085" id="-50151">
		<tag k="fixme" v="consider place=hamlet" />
		<tag k="name" v="Lia" />
		<tag k="place" v="farm" />
		<tag k="ssr:stedsnr" v="134258" />
	</node>
	<node lat="63.76271455113416" lon="9.713788169620857" id="-50158">
		<tag k="name" v="Krokvika" />
		<tag k="place" v="farm" />
		<tag k="ssr:stedsnr" v="134759" />
	</node>
	<node lat="63.75192778090736" lon="9.72941111500631" id="-50159">
		<tag k="fixme" v="consider place=hamlet" />
		<tag k="name" v="Ervika" />
		<tag k="place" v="village" />
		<tag k="ssr:stedsnr" v="134761" />
	</node>
	<node lat="63.80228610812243" lon="9.415044444922778" id="-50173">
		<tag k="fixme" v="consider place=hamlet" />
		<tag k="name" v="Tarva" />
		<tag k="place" v="farm" />
		<tag k="ssr:stedsnr" v="255650" />
	</node>
	<node lat="63.74369167071364" lon="9.856283325577207" id="-50181">
		<tag k="name" v="Lyngset" />
		<tag k="place" v="farm" />
		<tag k="ssr:stedsnr" v="256186" />
	</node>
	<node lat="63.73060909413252" lon="9.851923683620983" id="-50184">
		<tag k="name" v="Nyheim" />
		<tag k="place" v="farm" />
		<tag k="ssr:stedsnr" v="256229" />
	</node>
	<node lat="63.731005554148624" lon="9.844802777144903" id="-50185">
		<tag k="name" v="Vassaunet" />
		<tag k="place" v="farm" />
		<tag k="ssr:stedsnr" v="256234" />
	</node>
	<node lat="63.79361111165188" lon="10.073797231306678" id="-50189">
		<tag k="name" v="Nordli" />
		<tag k="place" v="farm" />
		<tag k="ssr:stedsnr" v="256247" />
	</node>
	<node lat="63.78868889114522" lon="10.002286116799954" id="-50196">
		<tag k="name" v="Heggøya" />
		<tag k="place" v="farm" />
		<tag k="ssr:stedsnr" v="151253" />
	</node>
	<node lat="63.78683611281276" lon="9.978033332136633" id="-50197">
		<tag k="name" v="Buåsen" />
		<tag k="place" v="farm" />
		<tag k="ssr:stedsnr" v="151254" />
	</node>
	<node lat="63.78889722004346" lon="9.96891110102993" id="-50198">
		<tag k="name" v="Åsbakk" />
		<tag k="place" v="farm" />
		<tag k="ssr:stedsnr" v="151258" />
	</node>
	<node lat="63.789294444979696" lon="9.974641669884408" id="-50199">
		<tag k="name" v="Haugen" />
		<tag k="place" v="farm" />
		<tag k="ssr:stedsnr" v="151259" />
	</node>
	<node lat="63.75883055755675" lon="9.971919452491003" id="-50200">
		<tag k="name" v="Asplund" />
		<tag k="place" v="farm" />
		<tag k="ssr:stedsnr" v="151266" />
	</node>
	<node lat="63.75653055938609" lon="9.952227768746084" id="-50201">
		<tag k="name" v="Steggan" />
		<tag k="place" v="farm" />
		<tag k="ssr:stedsnr" v="151269" />
	</node>
	<node lat="63.75565833076917" lon="9.936811115596033" id="-50202">
		<tag k="name" v="Kvennhusoldren" />
		<tag k="place" v="isolated_dwelling" />
		<tag k="ssr:stedsnr" v="151271" />
	</node>
	<node lat="63.76151111291651" lon="9.698524997715685" id="-50203">
		<tag k="name" v="Bertelsvikan" />
		<tag k="place" v="isolated_dwelling" />
		<tag k="ssr:stedsnr" v="151403" />
	</node>
	<node lat="63.869382994924" lon="9.93808022772649" id="-50211">
		<tag k="alt_name" v="Olden øvre" />
		<tag k="name" v="Øvre Olden" />
		<tag k="place" v="farm" />
		<tag k="ssr:stedsnr" v="151555" />
	</node>
	<node lat="63.85626111263462" lon="9.814016672329336" id="-50233">
		<tag k="name" v="Engedal" />
		<tag k="place" v="farm" />
		<tag k="ssr:stedsnr" v="151910" />
	</node>
	<node lat="63.869947219704656" lon="9.891127787183953" id="-50234">
		<tag k="name" v="Håbrekke" />
		<tag k="place" v="farm" />
		<tag k="ssr:stedsnr" v="151916" />
	</node>
	<node lat="63.88498055125929" lon="9.879608335279018" id="-50235">
		<tag k="name" v="Sletten" />
		<tag k="place" v="farm" />
		<tag k="ssr:stedsnr" v="151852" />
	</node>
	<node lat="63.760108330680026" lon="9.863188896669083" id="-50236">
		<tag k="name" v="Elvemo" />
		<tag k="place" v="farm" />
		<tag k="ssr:stedsnr" v="151866" />
	</node>
	<node lat="63.764077190773044" lon="9.702870589559426" id="-50246">
		<tag k="name" v="Bjørkly" />
		<tag k="place" v="farm" />
		<tag k="ssr:stedsnr" v="256710" />
	</node>
	<node lat="63.7081250041567" lon="9.67564444807461" id="-50248">
		<tag k="name" v="Hovsvangen" />
		<tag k="place" v="farm" />
		<tag k="ssr:stedsnr" v="155714" />
	</node>
	<node lat="63.70478333683667" lon="9.665483324656712" id="-50249">
		<tag k="name" v="Sommerset" />
		<tag k="place" v="farm" />
		<tag k="ssr:stedsnr" v="155611" />
	</node>
	<node lat="63.69170832919575" lon="9.591147223019089" id="-50250">
		<tag k="name" v="Langrabben" />
		<tag k="place" v="farm" />
		<tag k="ssr:stedsnr" v="155647" />
	</node>
	<node lat="63.725702779400045" lon="9.620102770464324" id="-50251">
		<tag k="name" v="Haugløkkan" />
		<tag k="place" v="farm" />
		<tag k="ssr:stedsnr" v="155649" />
	</node>
	<node lat="63.6738694460649" lon="9.394055556050727" id="-50252">
		<tag k="name" v="Stranda" />
		<tag k="place" v="isolated_dwelling" />
		<tag k="ssr:stedsnr" v="155701" />
	</node>
	<node lat="63.7202055580127" lon="9.703561117422572" id="-50253">
		<tag k="alt_name" v="Skalandet søre" />
		<tag k="name" v="Søre Skalandet" />
		<tag k="place" v="farm" />
		<tag k="ssr:stedsnr" v="155803" />
	</node>
	<node lat="63.66086388963483" lon="9.425508323847204" id="-50257">
		<tag k="name" v="Kilen" />
		<tag k="place" v="farm" />
		<tag k="ssr:stedsnr" v="156807" />
	</node>
	<node lat="63.720650000067025" lon="9.582336102145227" id="-50265">
		<tag k="fixme" v="multiple name tags, choose one and add the other to alt_name" />
		<tag k="name" v="Gardan;Ytre Uthaug" />
		<tag k="place" v="farm" />
		<tag k="ssr:stedsnr" v="266872" />
	</node>
	<node lat="63.82991111324799" lon="10.062480556267005" id="-50274">
		<tag k="name" v="Amunddalshytta" />
		<tag k="place" v="isolated_dwelling" />
		<tag k="ssr:stedsnr" v="212084" />
	</node>
	<node lat="63.78176389106512" lon="10.048477775513822" id="-50276">
		<tag k="name" v="Neset" />
		<tag k="place" v="farm" />
		<tag k="ssr:stedsnr" v="212227" />
	</node>
	<node lat="63.74683888786481" lon="9.701811101487403" id="-50277">
		<tag k="name" v="Østerheim" />
		<tag k="place" v="farm" />
		<tag k="ssr:stedsnr" v="212279" />
	</node>
	<node lat="63.74762778092179" lon="9.68920278579271" id="-50278">
		<tag k="name" v="Skutberg" />
		<tag k="place" v="farm" />
		<tag k="ssr:stedsnr" v="212281" />
	</node>
	<node lat="63.78241666573287" lon="9.590458333135361" id="-50282">
		<tag k="leisure" v="pitch" />
		<tag k="name" v="Nes idrettsplass" />
		<tag k="ssr:stedsnr" v="212511" />
	</node>
	<node lat="63.85104444226952" lon="9.776466663638422" id="-50290">
		<tag k="alt_name" v="Fauskangrenda" />
		<tag k="name" v="Fauskagrenda" />
		<tag k="place" v="hamlet" />
		<tag k="ssr:stedsnr" v="212715" />
	</node>
	<node lat="63.85780833712272" lon="9.77565556236627" id="-50299">
		<tag k="name" v="Fauskan" />
		<tag k="place" v="farm" />
		<tag k="ssr:stedsnr" v="212903" />
	</node>
	<node lat="63.86928888530735" lon="9.935636115361739" id="-50300">
		<tag k="name" v="Øverås" />
		<tag k="place" v="farm" />
		<tag k="ssr:stedsnr" v="212924" />
	</node>
	<node lat="63.8714999961929" lon="9.926358328207275" id="-50301">
		<tag k="name" v="Aunet" />
		<tag k="place" v="farm" />
		<tag k="ssr:stedsnr" v="212926" />
	</node>
	<node lat="63.86239444782726" lon="9.815202781648214" id="-50302">
		<tag k="name" v="Otervika" />
		<tag k="place" v="farm" />
		<tag k="ssr:stedsnr" v="212932" />
	</node>
	<node lat="63.865372226395166" lon="9.75819445149157" id="-50303">
		<tag k="name" v="Hambåra" />
		<tag k="place" v="farm" />
		<tag k="ssr:stedsnr" v="212933" />
	</node>
	<node lat="63.743913890090546" lon="9.84478332573389" id="-50306">
		<tag k="name" v="Furuly" />
		<tag k="place" v="farm" />
		<tag k="ssr:stedsnr" v="212878" />
	</node>
	<node lat="63.67557499806661" lon="9.3982138789406" id="-50313">
		<tag k="alt_name" v="Tinnen" />
		<tag k="name" v="Tinden" />
		<tag k="place" v="farm" />
		<tag k="ssr:stedsnr" v="213507" />
	</node>
	<node lat="63.67598610747248" lon="9.657836116903956" id="-50314">
		<tag k="name" v="Bergland" />
		<tag k="place" v="farm" />
		<tag k="ssr:stedsnr" v="216610" />
	</node>
	<node lat="63.68137500140991" lon="9.400269446035253" id="-50315">
		<tag k="name" v="Berg" />
		<tag k="place" v="isolated_dwelling" />
		<tag k="ssr:stedsnr" v="216614" />
	</node>
	<node lat="63.72849999755563" lon="9.639841658759229" id="-50316">
		<tag k="name" v="Solvang" />
		<tag k="old_name" v="Solstad" />
		<tag k="place" v="farm" />
		<tag k="ssr:stedsnr" v="216626" />
	</node>
	<node lat="63.72257777746319" lon="9.581752776212923" id="-50317">
		<tag k="name" v="Bukta" />
		<tag k="place" v="farm" />
		<tag k="ssr:stedsnr" v="216629" />
	</node>
	<node lat="63.650997218038135" lon="9.393080554610973" id="-50318">
		<tag k="name" v="Vintervoll" />
		<tag k="place" v="farm" />
		<tag k="ssr:stedsnr" v="216687" />
	</node>
	<node lat="63.6639527791266" lon="9.415841671958516" id="-50319">
		<tag k="name" v="Myra" />
		<tag k="place" v="farm" />
		<tag k="ssr:stedsnr" v="216691" />
	</node>
	<node lat="63.72061944880526" lon="9.641366676796753" id="-50324">
		<tag k="name" v="Helgebu" />
		<tag k="place" v="farm" />
		<tag k="ssr:stedsnr" v="216581" />
	</node>
	<node lat="63.71944166811656" lon="9.710311112393118" id="-50325">
		<tag k="name" v="Røstad" />
		<tag k="place" v="farm" />
		<tag k="ssr:stedsnr" v="216587" />
	</node>
	<node lat="63.71843333271062" lon="9.711097224076648" id="-50326">
		<tag k="name" v="Bakketun" />
		<tag k="place" v="farm" />
		<tag k="ssr:stedsnr" v="216588" />
	</node>
	<node lat="63.65561944687225" lon="9.559047213238538" id="-50327">
		<tag k="name" v="Storteigen" />
		<tag k="place" v="farm" />
		<tag k="ssr:stedsnr" v="216776" />
	</node>
	<node lat="63.677972217868735" lon="9.627311112842037" id="-50328">
		<tag k="name" v="Hovdeland" />
		<tag k="place" v="farm" />
		<tag k="ssr:stedsnr" v="216782" />
	</node>
	<node lat="63.692955557424916" lon="9.594236120100534" id="-50329">
		<tag k="name" v="Nystykket" />
		<tag k="place" v="farm" />
		<tag k="ssr:stedsnr" v="216990" />
	</node>
	<node lat="63.69364722309307" lon="9.585986118935631" id="-50330">
		<tag k="name" v="Vesterheim" />
		<tag k="place" v="farm" />
		<tag k="ssr:stedsnr" v="216991" />
	</node>
	<node lat="63.81227221884766" lon="9.657399998919992" id="-50333">
		<tag k="name" v="Sanden hyttefelt" />
		<tag k="place" v="neighbourhood" />
		<tag k="ssr:stedsnr" v="223023" />
	</node>
	<node lat="63.8040583299479" lon="10.10349443809643" id="-50338">
		<tag k="name" v="Elveng" />
		<tag k="place" v="hamlet" />
		<tag k="ssr:stedsnr" v="452066" />
	</node>
	<node lat="63.74282221940515" lon="9.71098889743864" id="-50339">
		<tag k="name" v="Solvang" />
		<tag k="place" v="farm" />
		<tag k="ssr:stedsnr" v="455265" />
	</node>
	<node lat="63.74759444497981" lon="9.72380277753776" id="-50340">
		<tag k="name" v="Fjellheim" />
		<tag k="place" v="farm" />
		<tag k="ssr:stedsnr" v="455273" />
	</node>
	<node lat="63.7896861099122" lon="9.977411101874171" id="-50351">
		<tag k="name" v="Skårås" />
		<tag k="place" v="farm" />
		<tag k="ssr:stedsnr" v="455224" />
	</node>
	<node lat="63.757983336301514" lon="9.96249999835495" id="-50352">
		<tag k="name" v="Tonstad" />
		<tag k="place" v="farm" />
		<tag k="ssr:stedsnr" v="455228" />
	</node>
	<node lat="63.80852222362514" lon="10.125966669903981" id="-50362">
		<tag k="name" v="Sørli" />
		<tag k="place" v="farm" />
		<tag k="ssr:stedsnr" v="455245" />
	</node>
	<node lat="63.888675000154116" lon="9.882430559208693" id="-50371">
		<tag k="name" v="Trettvika" />
		<tag k="place" v="farm" />
		<tag k="ssr:stedsnr" v="455590" />
	</node>
	<node lat="63.758663891487785" lon="9.792066669172147" id="-50376">
		<tag k="name" v="Klakkagrenda" />
		<tag k="place" v="hamlet" />
		<tag k="ssr:stedsnr" v="455433" />
	</node>
	<node lat="63.744633330555445" lon="9.830686111785239" id="-50383">
		<tag k="name" v="Vestre Furuneset" />
		<tag k="place" v="farm" />
		<tag k="ssr:stedsnr" v="455406" />
	</node>
	<node lat="63.782052777961056" lon="9.723799997352662" id="-50396">
		<tag k="name" v="Lund" />
		<tag k="place" v="farm" />
		<tag k="ssr:stedsnr" v="455820" />
	</node>
	<node lat="63.757908334793065" lon="9.736386102197498" id="-50397">
		<tag k="name" v="Prestgården" />
		<tag k="place" v="farm" />
		<tag k="ssr:stedsnr" v="455773" />
	</node>
	<node lat="63.890888889737305" lon="9.894763893006122" id="-50400">
		<tag k="name" v="Nordgården" />
		<tag k="place" v="farm" />
		<tag k="ssr:stedsnr" v="455836" />
	</node>
	<node lat="63.78801667084972" lon="9.815847221055177" id="-50401">
		<tag k="name" v="Lia" />
		<tag k="place" v="farm" />
		<tag k="ssr:stedsnr" v="455847" />
	</node>
	<node lat="63.74628611241508" lon="9.838166673450278" id="-50402">
		<tag k="name" v="Furuhaugen" />
		<tag k="place" v="farm" />
		<tag k="ssr:stedsnr" v="455852" />
	</node>
	<node lat="63.86945278004497" lon="9.748430551576" id="-50403">
		<tag k="fixme" v="consider place=hamlet" />
		<tag k="name" v="Valsøya" />
		<tag k="place" v="farm" />
		<tag k="ssr:stedsnr" v="455929" />
	</node>
	<node lat="63.84376388875019" lon="9.868444441430618" id="-50404">
		<tag k="name" v="Solli" />
		<tag k="place" v="farm" />
		<tag k="ssr:stedsnr" v="455938" />
	</node>
	<node lat="63.72700555993638" lon="9.731127783990662" id="-50418">
		<tag k="name" v="Rusaset" />
		<tag k="place" v="farm" />
		<tag k="ssr:stedsnr" v="256205" />
	</node>
	<node lat="63.777880556873846" lon="10.061555563932597" id="-50419">
		<tag k="name" v="Indre Dueskard" />
		<tag k="place" v="farm" />
		<tag k="ssr:stedsnr" v="256213" />
	</node>
	<node lat="63.71176666755702" lon="9.769044441859108" id="-50423">
		<tag k="name" v="Moen" />
		<tag k="place" v="farm" />
		<tag k="ssr:stedsnr" v="256765" />
	</node>
	<node lat="63.78309999601171" lon="9.992402767551633" id="-50425">
		<tag k="fixme" v="consider place=hamlet" />
		<tag k="name" v="Gjølja" />
		<tag k="old_name" v="Gjølga" />
		<tag k="place" v="village" />
		<tag k="ssr:stedsnr" v="268227" />
	</node>
	<node lat="63.79271666991184" lon="9.829958330460592" id="-50437">
		<tag k="name" v="Brulia" />
		<tag k="place" v="farm" />
		<tag k="ssr:stedsnr" v="273282" />
	</node>
	<node lat="63.795863885400934" lon="9.96183610145279" id="-50438">
		<tag k="name" v="Gjøljalia" />
		<tag k="old_name" v="Gjølgali" />
		<tag k="place" v="farm" />
		<tag k="ssr:stedsnr" v="273285" />
	</node>
	<node lat="63.74597221975244" lon="9.697363880472688" id="-50439">
		<tag k="name" v="Sørheim" />
		<tag k="place" v="farm" />
		<tag k="ssr:stedsnr" v="273289" />
	</node>
	<node lat="63.746722219599576" lon="9.719761117762603" id="-50440">
		<tag k="name" v="Slettmarka" />
		<tag k="place" v="farm" />
		<tag k="ssr:stedsnr" v="273292" />
	</node>
	<node lat="63.74763055382617" lon="9.814994450669897" id="-50468">
		<tag k="name" v="Skogen" />
		<tag k="place" v="farm" />
		<tag k="ssr:stedsnr" v="273872" />
	</node>
	<node lat="63.76243888936068" lon="9.705544445483737" id="-50470">
		<tag k="name" v="Abelvika" />
		<tag k="place" v="farm" />
		<tag k="ssr:stedsnr" v="273785" />
	</node>
	<node lat="63.74905278194982" lon="9.697800007132795" id="-50471">
		<tag k="name" v="Fauskan" />
		<tag k="place" v="farm" />
		<tag k="ssr:stedsnr" v="273788" />
	</node>
	<node lat="63.84360278135563" lon="9.824141664765337" id="-50472">
		<tag k="name" v="Leset" />
		<tag k="place" v="farm" />
		<tag k="ssr:stedsnr" v="273925" />
	</node>
	<node lat="63.682799996883745" lon="9.63342778059825" id="-50473">
		<tag k="name" v="Ytrebø" />
		<tag k="place" v="farm" />
		<tag k="ssr:stedsnr" v="459627" />
	</node>
	<node lat="63.70721944474536" lon="9.632805559589038" id="-50474">
		<tag k="name" v="Nøysomheten" />
		<tag k="place" v="farm" />
		<tag k="ssr:stedsnr" v="459594" />
	</node>
	<node lat="63.72282778155682" lon="9.674991673392794" id="-50475">
		<tag k="name" v="Berg" />
		<tag k="place" v="farm" />
		<tag k="ssr:stedsnr" v="459598" />
	</node>
	<node lat="63.727693603758354" lon="9.688953642077829" id="-50476">
		<tag k="fixme" v="consider place=hamlet" />
		<tag k="name" v="Opphaug" />
		<tag k="place" v="farm" />
		<tag k="ssr:stedsnr" v="459643" />
	</node>
	<node lat="63.737069445259785" lon="9.705252771000724" id="-50477">
		<tag k="name" v="Stokksletta" />
		<tag k="place" v="farm" />
		<tag k="ssr:stedsnr" v="459646" />
	</node>
	<node lat="63.67449722639573" lon="9.422716669012292" id="-50478">
		<tag k="name" v="Sletta" />
		<tag k="place" v="farm" />
		<tag k="ssr:stedsnr" v="459647" />
	</node>
	<node lat="63.6532583371336" lon="9.427705545873076" id="-50479">
		<tag k="name" v="Sanden" />
		<tag k="place" v="farm" />
		<tag k="ssr:stedsnr" v="459696" />
	</node>
	<node lat="63.72883333265558" lon="9.683427771626274" id="-50480">
		<tag k="name" v="Opphaug" />
		<tag k="place" v="farm" />
		<tag k="ssr:stedsnr" v="459885" />
	</node>
	<node lat="63.70176944428577" lon="9.665913886400128" id="-50481">
		<tag k="name" v="Breiosen" />
		<tag k="place" v="farm" />
		<tag k="ssr:stedsnr" v="459801" />
	</node>
	<node lat="63.721797219808195" lon="9.658697229144833" id="-50482">
		<tag k="name" v="Ryggaune" />
		<tag k="place" v="farm" />
		<tag k="ssr:stedsnr" v="459819" />
	</node>
	<node lat="63.64198888642416" lon="9.511566659471" id="-50486">
		<tag k="name" v="Garten" />
		<tag k="place" v="farm" />
		<tag k="ssr:stedsnr" v="277714" />
	</node>
	<node lat="63.65981666506115" lon="9.571397215045293" id="-50487">
		<tag k="name" v="Kvitsanden" />
		<tag k="place" v="farm" />
		<tag k="ssr:stedsnr" v="277717" />
	</node>
	<node lat="63.71005833660967" lon="9.733291676359254" id="-50489">
		<tag k="name" v="Lundabakken" />
		<tag k="place" v="isolated_dwelling" />
		<tag k="ssr:stedsnr" v="277823" />
	</node>
	<node lat="63.691013892312576" lon="9.664983323665034" id="-50492">
		<tag k="building" v="industrial" />
		<tag k="industrial" v="factory" />
		<tag k="loc_name" v="Meieriet" />
		<tag k="name" v="Ørland meieri" />
		<tag k="ssr:stedsnr" v="278787" />
	</node>
	<node lat="63.661869440496325" lon="9.410727776087912" id="-50494">
		<tag k="name" v="Overdjupmyra" />
		<tag k="place" v="farm" />
		<tag k="ssr:stedsnr" v="278809" />
	</node>
	<node lat="63.67255833176635" lon="9.427091661741695" id="-50496">
		<tag k="name" v="Slettbakken" />
		<tag k="place" v="farm" />
		<tag k="ssr:stedsnr" v="278823" />
	</node>
	<node lat="63.68443332917549" lon="9.65376389710179" id="-50498">
		<tag k="amenity" v="school" />
		<tag k="name" v="Fosen yrkesskole" />
		<tag k="ssr:stedsnr" v="460795" />
	</node>
	<node lat="63.71774444229977" lon="9.713975001432857" id="-50504">
		<tag k="building" v="industrial" />
		<tag k="industrial" v="factory" />
		<tag k="name" v="Dalabakken mølle" />
		<tag k="ssr:stedsnr" v="460982" />
	</node>
	<node lat="63.75943611017288" lon="9.806447222490423" id="-50507">
		<tag k="name" v="Sæter" />
		<tag k="place" v="farm" />
		<tag k="ssr:stedsnr" v="303997" />
	</node>
	<node lat="63.81594166914397" lon="9.671155565161293" id="-50508">
		<tag k="name" v="Rabben boligfelt" />
		<tag k="place" v="quarter" />
		<tag k="ssr:stedsnr" v="466034" />
	</node>
	<node lat="63.63907499671531" lon="9.338783330479425" id="-50512">
		<tag k="name" v="Hylla" />
		<tag k="place" v="isolated_dwelling" />
		<tag k="ssr:stedsnr" v="316066" />
	</node>
	<node lat="63.85276388909227" lon="10.008341670087496" id="-50516">
		<tag k="historic" v="shieling" />
		<tag k="name" v="Oldsetra" />
		<tag k="place" v="isolated_dwelling" />
		<tag k="ssr:stedsnr" v="316112" />
	</node>
	<node lat="63.73886388936072" lon="9.854738882542714" id="-50517">
		<tag k="name" v="Volladal" />
		<tag k="place" v="farm" />
		<tag k="ssr:stedsnr" v="316207" />
	</node>
	<node lat="63.8037555590556" lon="10.110263892169728" id="-50522">
		<tag k="name" v="Ny Jord" />
		<tag k="place" v="farm" />
		<tag k="ssr:stedsnr" v="316257" />
	</node>
	<node lat="63.7508388887465" lon="9.704338886021569" id="-50549">
		<tag k="name" v="Gråstein" />
		<tag k="place" v="farm" />
		<tag k="ssr:stedsnr" v="333757" />
	</node>
	<node lat="63.753883335878854" lon="9.708322220109372" id="-50550">
		<tag k="name" v="Bergly" />
		<tag k="place" v="farm" />
		<tag k="ssr:stedsnr" v="333767" />
	</node>
	<node lat="63.786722226021695" lon="9.838444445266505" id="-50552">
		<tag k="name" v="Ekset" />
		<tag k="place" v="farm" />
		<tag k="ssr:stedsnr" v="333846" />
	</node>
	<node lat="63.792163893337715" lon="9.833424995865002" id="-50553">
		<tag k="name" v="Grovahalsen" />
		<tag k="place" v="farm" />
		<tag k="ssr:stedsnr" v="333848" />
	</node>
	<node lat="63.74567222424904" lon="9.829091667228715" id="-50554">
		<tag k="name" v="Skåkhaugen" />
		<tag k="place" v="farm" />
		<tag k="ssr:stedsnr" v="333856" />
	</node>
	<node lat="63.78148055373205" lon="9.82506110823846" id="-50565">
		<tag k="name" v="Vassmo" />
		<tag k="place" v="farm" />
		<tag k="ssr:stedsnr" v="334399" />
	</node>
	<node lat="63.88878333479621" lon="9.836072225891309" id="-50571">
		<tag k="name" v="Haugen" />
		<tag k="place" v="farm" />
		<tag k="ssr:stedsnr" v="334815" />
	</node>
	<node lat="63.73706944578839" lon="9.866236117039188" id="-50572">
		<tag k="name" v="Kammen" />
		<tag k="place" v="farm" />
		<tag k="ssr:stedsnr" v="334850" />
	</node>
	<node lat="63.750875003214695" lon="9.77127221984525" id="-50573">
		<tag k="name" v="Åsdal" />
		<tag k="place" v="farm" />
		<tag k="ssr:stedsnr" v="334859" />
	</node>
	<node lat="63.86693610895274" lon="9.848925002469727" id="-50574">
		<tag k="name" v="Gullvika" />
		<tag k="place" v="farm" />
		<tag k="ssr:stedsnr" v="334901" />
	</node>
	<node lat="63.85663888735532" lon="9.76278333088772" id="-50575">
		<tag k="name" v="Bålfjordneset" />
		<tag k="place" v="farm" />
		<tag k="ssr:stedsnr" v="334908" />
	</node>
	<node lat="63.84696111446272" lon="9.901927782339365" id="-50576">
		<tag k="name" v="Fosseng" />
		<tag k="place" v="farm" />
		<tag k="ssr:stedsnr" v="334915" />
	</node>
	<node lat="63.65530192992053" lon="9.56709218658472" id="-50577">
		<tag k="fixme" v="consider place=hamlet" />
		<tag k="name" v="Bakken" />
		<tag k="place" v="farm" />
		<tag k="ssr:stedsnr" v="337711" />
	</node>
	<node lat="63.737469441992125" lon="9.679919442742575" id="-50578">
		<tag k="name" v="Vollan" />
		<tag k="place" v="farm" />
		<tag k="ssr:stedsnr" v="337650" />
	</node>
	<node lat="63.68526944602374" lon="9.595972224379409" id="-50582">
		<tag k="name" v="Revlan" />
		<tag k="place" v="farm" />
		<tag k="ssr:stedsnr" v="338595" />
	</node>
	<node lat="63.67309166835093" lon="9.401144440519802" id="-50583">
		<tag k="name" v="Haugland" />
		<tag k="place" v="farm" />
		<tag k="ssr:stedsnr" v="338702" />
	</node>
	<node lat="63.727736115055954" lon="9.679336103581766" id="-50585">
		<tag k="name" v="Hov" />
		<tag k="place" v="isolated_dwelling" />
		<tag k="ssr:stedsnr" v="338618" />
	</node>
	<node lat="63.717686107881555" lon="9.563602781010083" id="-50586">
		<tag k="name" v="Hoøya" />
		<tag k="place" v="farm" />
		<tag k="ssr:stedsnr" v="338626" />
	</node>
	<node lat="63.67324722061247" lon="9.596561105708405" id="-50587">
		<tag k="name" v="Grande" />
		<tag k="place" v="farm" />
		<tag k="ssr:stedsnr" v="338802" />
	</node>
	<node lat="63.675005554673625" lon="9.43399999565738" id="-50589">
		<tag k="name" v="Reitan" />
		<tag k="place" v="locality" />
		<tag k="ssr:stedsnr" v="338797" />
	</node>
	<node lat="63.72809166805377" lon="9.635741660675613" id="-50590">
		<tag k="name" v="Vollan" />
		<tag k="place" v="farm" />
		<tag k="ssr:stedsnr" v="338800" />
	</node>
	<node lat="63.82954117972335" lon="9.67389467140941" id="-50593">
		<tag k="fixme" v="consider place=hamlet" />
		<tag k="name" v="Val" />
		<tag k="place" v="farm" />
		<tag k="ssr:stedsnr" v="355292" />
	</node>
	<node lat="63.86748055327373" lon="9.862424992736454" id="-50595">
		<tag k="fixme" v="consider place=hamlet" />
		<tag k="name" v="Rømmen" />
		<tag k="place" v="village" />
		<tag k="ssr:stedsnr" v="376124" />
	</node>
	<node lat="63.766913890604215" lon="9.57820556053906" id="-50608">
		<tag k="name" v="Rabben" />
		<tag k="place" v="farm" />
		<tag k="ssr:stedsnr" v="394215" />
	</node>
	<node lat="63.76740555529038" lon="9.581308335227922" id="-50609">
		<tag k="name" v="Berg" />
		<tag k="place" v="farm" />
		<tag k="ssr:stedsnr" v="394216" />
	</node>
	<node lat="63.77838889148949" lon="10.077736120389996" id="-50610">
		<tag k="name" v="Solstad" />
		<tag k="place" v="farm" />
		<tag k="ssr:stedsnr" v="394222" />
	</node>
	<node lat="63.78513055468522" lon="10.024827774559366" id="-50611">
		<tag k="alt_name" v="Grandalen øvre" />
		<tag k="name" v="Øvre Grandalen" />
		<tag k="place" v="farm" />
		<tag k="ssr:stedsnr" v="394227" />
	</node>
	<node lat="63.78293055546689" lon="9.98979721223348" id="-50612">
		<tag k="name" v="Bjørklund" />
		<tag k="place" v="farm" />
		<tag k="ssr:stedsnr" v="394231" />
	</node>
	<node lat="63.76203888917515" lon="9.974550000507667" id="-50614">
		<tag k="name" v="Øyan" />
		<tag k="place" v="farm" />
		<tag k="ssr:stedsnr" v="394242" />
	</node>
	<node lat="63.779127781962536" lon="9.781152772215387" id="-50636">
		<tag k="name" v="Stokkeng" />
		<tag k="place" v="farm" />
		<tag k="ssr:stedsnr" v="394490" />
	</node>
	<node lat="63.844869441638174" lon="9.71003056319575" id="-50647">
		<tag k="name" v="Melemsvika" />
		<tag k="place" v="hamlet" />
		<tag k="ssr:stedsnr" v="394731" />
	</node>
	<node lat="63.83056388766219" lon="9.674586110151695" id="-50648">
		<tag k="name" v="Haugen" />
		<tag k="place" v="farm" />
		<tag k="ssr:stedsnr" v="394909" />
	</node>
	<node lat="63.84736666970481" lon="9.857519444313295" id="-50649">
		<tag k="name" v="Stranda" />
		<tag k="place" v="farm" />
		<tag k="ssr:stedsnr" v="394939" />
	</node>
	<node lat="63.75954167059541" lon="9.646199998152397" id="-50650">
		<tag k="name" v="Tønnølsstranda hyttefelt" />
		<tag k="place" v="neighbourhood" />
		<tag k="ssr:stedsnr" v="484088" />
	</node>
	<node lat="63.73133055704015" lon="9.87564166275498" id="-50651">
		<tag k="name" v="Saltneshaugen" />
		<tag k="place" v="farm" />
		<tag k="ssr:stedsnr" v="394879" />
	</node>
	<node lat="63.75799722479339" lon="9.873099990855486" id="-50652">
		<tag k="name" v="Grindbakken" />
		<tag k="place" v="farm" />
		<tag k="ssr:stedsnr" v="394880" />
	</node>
	<node lat="63.76216946284328" lon="9.860312544539994" id="-50653">
		<tag k="name" v="Haugen" />
		<tag k="place" v="farm" />
		<tag k="ssr:stedsnr" v="394881" />
	</node>
	<node lat="63.76651111155977" lon="9.856649997743903" id="-50654">
		<tag k="name" v="Einhaugen" />
		<tag k="place" v="farm" />
		<tag k="ssr:stedsnr" v="394884" />
	</node>
	<node lat="63.78109999701799" lon="9.758919449758524" id="-50655">
		<tag k="name" v="Grønbukta" />
		<tag k="place" v="farm" />
		<tag k="ssr:stedsnr" v="394891" />
	</node>
	<node lat="63.77863611063963" lon="9.74762776948879" id="-50656">
		<tag k="name" v="Setermoen" />
		<tag k="place" v="farm" />
		<tag k="ssr:stedsnr" v="394894" />
	</node>
	<node lat="63.8150166685022" lon="9.703369448739693" id="-50657">
		<tag k="name" v="Tørrem" />
		<tag k="place" v="farm" />
		<tag k="ssr:stedsnr" v="394899" />
	</node>
	<node lat="63.70695555628291" lon="9.698502774565087" id="-50662">
		<tag k="name" v="Skardet" />
		<tag k="place" v="farm" />
		<tag k="ssr:stedsnr" v="398605" />
	</node>
	<node lat="63.6971527755658" lon="9.642358328809829" id="-50663">
		<tag k="name" v="Hårberg" />
		<tag k="place" v="farm" />
		<tag k="ssr:stedsnr" v="398610" />
	</node>
	<node lat="63.726277780487116" lon="9.689072212422028" id="-50664">
		<tag k="name" v="Opphaug" />
		<tag k="place" v="farm" />
		<tag k="ssr:stedsnr" v="398806" />
	</node>
	<node lat="63.679711111215404" lon="9.42363333438666" id="-50669">
		<tag k="name" v="Nordheim" />
		<tag k="place" v="farm" />
		<tag k="ssr:stedsnr" v="399790" />
	</node>
	<node lat="63.7249166667245" lon="9.695311102685045" id="-50671">
		<tag k="name" v="Heim" />
		<tag k="place" v="farm" />
		<tag k="ssr:stedsnr" v="399979" />
	</node>
	<node lat="63.814908337183226" lon="10.105911115385661" id="-50673">
		<tag k="name" v="Buås" />
		<tag k="place" v="farm" />
		<tag k="ssr:stedsnr" v="437052" />
	</node>
	<node lat="63.73973094769235" lon="9.881472550699824" id="-50682">
		<tag k="fixme" v="consider place=hamlet" />
		<tag k="name" v="Heggvik" />
		<tag k="place" v="farm" />
		<tag k="ssr:stedsnr" v="438202" />
	</node>
	<node lat="63.71372499812261" lon="9.805083326321402" id="-50686">
		<tag k="alt_name" v="Kalvåa" />
		<tag k="name" v="Kalvå" />
		<tag k="place" v="farm" />
		<tag k="ssr:stedsnr" v="438796" />
	</node>
	<node lat="63.75980833765971" lon="9.984013885093228" id="-50705">
		<tag k="name" v="Birkeli" />
		<tag k="place" v="farm" />
		<tag k="ssr:stedsnr" v="455606" />
	</node>
	<node lat="63.76400555592048" lon="9.976808326268479" id="-50710">
		<tag k="name" v="Litlmyra" />
		<tag k="place" v="isolated_dwelling" />
		<tag k="ssr:stedsnr" v="455561" />
	</node>
	<node lat="63.85084721835475" lon="9.75137221546094" id="-50713">
		<tag k="name" v="Stor-Sandnes" />
		<tag k="place" v="farm" />
		<tag k="ssr:stedsnr" v="455708" />
	</node>
	<node lat="63.824863888840895" lon="9.640083329012448" id="-50716">
		<tag k="name" v="Øver Vågan" />
		<tag k="place" v="farm" />
		<tag k="ssr:stedsnr" v="455808" />
	</node>
	<node lat="63.76413889022235" lon="9.721333340424675" id="-50717">
		<tag k="name" v="Voltersvika" />
		<tag k="place" v="farm" />
		<tag k="ssr:stedsnr" v="455762" />
	</node>
	<node lat="63.74835000038828" lon="9.715002776664509" id="-50718">
		<tag k="alt_name" v="Ervikhaug" />
		<tag k="name" v="Ervikhaugen" />
		<tag k="place" v="farm" />
		<tag k="ssr:stedsnr" v="455767" />
	</node>
	<node lat="63.825124998109466" lon="9.649619442518018" id="-50719">
		<tag k="name" v="Valstad" />
		<tag k="place" v="farm" />
		<tag k="ssr:stedsnr" v="455904" />
	</node>
	<node lat="63.82557288838393" lon="9.669912541421297" id="-50720">
		<tag k="name" v="Val" />
		<tag k="place" v="farm" />
		<tag k="ssr:stedsnr" v="455907" />
	</node>
	<node lat="63.84908055897412" lon="9.832463889099945" id="-50721">
		<tag k="name" v="Vangen" />
		<tag k="place" v="farm" />
		<tag k="ssr:stedsnr" v="455913" />
	</node>
	<node lat="63.876897222380215" lon="9.889252769848966" id="-50722">
		<tag k="name" v="Brenna" />
		<tag k="place" v="farm" />
		<tag k="ssr:stedsnr" v="455920" />
	</node>
	<node lat="63.709413892742226" lon="9.683525004622046" id="-50726">
		<tag k="name" v="Hovland" />
		<tag k="place" v="farm" />
		<tag k="ssr:stedsnr" v="459602" />
	</node>
	<node lat="63.716761107569944" lon="9.732966671294296" id="-50727">
		<tag k="name" v="Lunddal" />
		<tag k="place" v="farm" />
		<tag k="ssr:stedsnr" v="459606" />
	</node>
	<node lat="63.709724998518844" lon="9.707663890634601" id="-50728">
		<tag k="name" v="Bjørkmo" />
		<tag k="place" v="farm" />
		<tag k="ssr:stedsnr" v="459608" />
	</node>
	<node lat="63.68238610962665" lon="9.396233340689781" id="-50729">
		<tag k="name" v="Dalahamna" />
		<tag k="place" v="isolated_dwelling" />
		<tag k="ssr:stedsnr" v="459710" />
	</node>
	<node lat="63.6440194483447" lon="9.522063883569375" id="-50731">
		<tag k="name" v="Kleiva" />
		<tag k="place" v="farm" />
		<tag k="ssr:stedsnr" v="459804" />
	</node>
	<node lat="63.71191110711675" lon="9.678147215309501" id="-50734">
		<tag k="name" v="Bergly" />
		<tag k="place" v="farm" />
		<tag k="ssr:stedsnr" v="460972" />
	</node>
	<node lat="63.87047222676783" lon="9.933266662679731" id="-50737">
		<tag k="fixme" v="consider place=hamlet" />
		<tag k="name" v="Olden" />
		<tag k="place" v="farm" />
		<tag k="ssr:stedsnr" v="485974" />
	</node>
	<node lat="63.82504722536942" lon="9.650200004090102" id="-50741">
		<tag k="alt_name" v="Kråkvika" />
		<tag k="name" v="Kråkvik" />
		<tag k="place" v="farm" />
		<tag k="ssr:stedsnr" v="680699" />
	</node>
	<node lat="63.68698333194183" lon="9.665394441415351" id="-50749">
		<tag k="name" v="Brekstad" />
		<tag k="place" v="town" />
		<tag k="ssr:stedsnr" v="680040" />
	</node>
	<node lat="63.65116111505254" lon="9.392925007862939" id="-50753">
		<tag k="name" v="Aunet" />
		<tag k="place" v="farm" />
		<tag k="ssr:stedsnr" v="680056" />
	</node>
	<node lat="63.74251944608552" lon="9.811111117244216" id="-50757">
		<tag k="fixme" v="consider place=hamlet" />
		<tag k="name" v="Skavdalen" />
		<tag k="place" v="farm" />
		<tag k="ssr:stedsnr" v="680187" />
	</node>
	<node lat="63.7474722201937" lon="9.778199996018643" id="-50758">
		<tag k="name" v="Bustad" />
		<tag k="place" v="farm" />
		<tag k="ssr:stedsnr" v="680190" />
	</node>
	<node lat="63.78699721804758" lon="9.878211102560542" id="-50761">
		<tag k="name" v="Tjønnstua" />
		<tag k="place" v="farm" />
		<tag k="ssr:stedsnr" v="680243" />
	</node>
	<node lat="63.705063887867375" lon="9.761780561265931" id="-50769">
		<tag k="alt_name" v="Skjæret" />
		<tag k="name" v="Skjeret" />
		<tag k="place" v="farm" />
		<tag k="ssr:stedsnr" v="680838" />
	</node>
	<node lat="63.733974995525365" lon="9.65596667362071" id="-50771">
		<tag k="name" v="Innstrand" />
		<tag k="place" v="hamlet" />
		<tag k="ssr:stedsnr" v="498011" />
	</node>
	<node lat="63.82023888963592" lon="9.951452776041936" id="-50773">
		<tag k="name" v="Teksdalssetra" />
		<tag k="place" v="isolated_dwelling" />
		<tag k="ssr:stedsnr" v="498048" />
	</node>
	<node lat="63.713719446711146" lon="9.747563882884245" id="-50780">
		<tag k="name" v="Vangen" />
		<tag k="place" v="farm" />
		<tag k="ssr:stedsnr" v="498839" />
	</node>
	<node lat="63.78435555990166" lon="9.992902785684876" id="-50794">
		<tag k="name" v="Ner-Gjølja" />
		<tag k="place" v="farm" />
		<tag k="ssr:stedsnr" v="515250" />
	</node>
	<node lat="63.873163889819736" lon="9.923911106669115" id="-50815">
		<tag k="name" v="Olden" />
		<tag k="place" v="farm" />
		<tag k="ssr:stedsnr" v="515594" />
	</node>
	<node lat="63.755058335958175" lon="9.945419454499786" id="-50816">
		<tag k="name" v="Støa" />
		<tag k="place" v="isolated_dwelling" />
		<tag k="ssr:stedsnr" v="515596" />
	</node>
	<node lat="63.75517499758701" lon="9.725277777756713" id="-50821">
		<tag k="name" v="Ospneset" />
		<tag k="place" v="farm" />
		<tag k="ssr:stedsnr" v="515781" />
	</node>
	<node lat="63.765291669366675" lon="9.821419435853157" id="-50826">
		<tag k="fixme" v="consider place=hamlet" />
		<tag k="name" v="Botngården" />
		<tag k="place" v="farm" />
		<tag k="ssr:stedsnr" v="515867" />
	</node>
	<node lat="63.73761389242747" lon="9.69131389859976" id="-50832">
		<tag k="name" v="Nygård" />
		<tag k="place" v="farm" />
		<tag k="ssr:stedsnr" v="519671" />
	</node>
	<node lat="63.727247224332295" lon="9.623583331612098" id="-50833">
		<tag k="name" v="Sandan" />
		<tag k="place" v="farm" />
		<tag k="ssr:stedsnr" v="519673" />
	</node>
	<node lat="63.720825003334184" lon="9.557455564757598" id="-50834">
		<tag k="name" v="Rundbukta" />
		<tag k="place" v="farm" />
		<tag k="ssr:stedsnr" v="520675" />
	</node>
	<node lat="63.68292222584489" lon="9.66016111107357" id="-50839">
		<tag k="alt_name" v="Hovde husmorskole" />
		<tag k="name" v="Hovde Gård" />
		<tag k="ssr:stedsnr" v="520775" />
		<tag k="tourism" v="hotel" />
	</node>
	<node lat="63.643255551643335" lon="9.517216666730874" id="-50840">
		<tag k="name" v="Nordsjøstykket" />
		<tag k="place" v="farm" />
		<tag k="ssr:stedsnr" v="520966" />
	</node>
	<node lat="63.847513885095644" lon="9.705074996650424" id="-50842">
		<tag k="name" v="Nausthylla hyttefelt" />
		<tag k="place" v="neighbourhood" />
		<tag k="ssr:stedsnr" v="526024" />
	</node>
	<node lat="63.700825001567935" lon="9.663847216746078" id="-50845">
		<tag k="name" v="Fjæra" />
		<tag k="place" v="farm" />
		<tag k="ssr:stedsnr" v="558017" />
	</node>
	<node lat="63.652302778348435" lon="9.444874996220596" id="-50847">
		<tag k="name" v="Munken" />
		<tag k="place" v="farm" />
		<tag k="ssr:stedsnr" v="558049" />
	</node>
	<node lat="63.85159444452467" lon="9.892449990026075" id="-50855">
		<tag k="fixme" v="consider place=hamlet" />
		<tag k="loc_name" v="Teksdalen" />
		<tag k="name" v="Teksdal" />
		<tag k="place" v="farm" />
		<tag k="ssr:stedsnr" v="559087" />
	</node>
	<node lat="63.713319440332086" lon="9.720594448227322" id="-50860">
		<tag k="name" v="Lundset" />
		<tag k="place" v="farm" />
		<tag k="ssr:stedsnr" v="559795" />
	</node>
	<node lat="63.70982499790591" lon="9.766219436490621" id="-50861">
		<tag k="name" v="Borg" />
		<tag k="place" v="farm" />
		<tag k="ssr:stedsnr" v="559802" />
	</node>
	<node lat="63.71279999635255" lon="9.743147227766165" id="-50862">
		<tag k="alt_name" v="Skjærstad" />
		<tag k="name" v="Skjerstad" />
		<tag k="place" v="farm" />
		<tag k="ssr:stedsnr" v="559803" />
	</node>
	<node lat="63.751997225477126" lon="9.92384722787352" id="-50864">
		<tag k="name" v="Vakkermoen" />
		<tag k="place" v="isolated_dwelling" />
		<tag k="ssr:stedsnr" v="689638" />
	</node>
	<node lat="63.66462222355565" lon="9.574822230759175" id="-50866">
		<tag k="name" v="Rædergården" />
		<tag k="place" v="farm" />
		<tag k="ssr:stedsnr" v="691535" />
	</node>
	<node lat="63.76746944441964" lon="9.740733335902716" id="-50874">
		<tag k="name" v="Myrskardet" />
		<tag k="place" v="hamlet" />
		<tag k="ssr:stedsnr" v="576324" />
	</node>
	<node lat="63.75888055582317" lon="9.631611115538393" id="-50880">
		<tag k="name" v="Feta" />
		<tag k="place" v="farm" />
		<tag k="ssr:stedsnr" v="576218" />
	</node>
	<node lat="63.772469444590094" lon="9.589883331424344" id="-50881">
		<tag k="name" v="Mjølven" />
		<tag k="place" v="farm" />
		<tag k="ssr:stedsnr" v="576243" />
	</node>
	<node lat="63.75939999830574" lon="9.79973611133498" id="-50883">
		<tag k="name" v="Setergrenda" />
		<tag k="place" v="hamlet" />
		<tag k="ssr:stedsnr" v="576496" />
	</node>
	<node lat="63.86555833261329" lon="9.889424997825017" id="-50888">
		<tag k="name" v="Vikvang" />
		<tag k="place" v="farm" />
		<tag k="ssr:stedsnr" v="576615" />
	</node>
	<node lat="63.795113890534665" lon="9.625722227126351" id="-50906">
		<tag k="name" v="Stokkbekken" />
		<tag k="place" v="farm" />
		<tag k="ssr:stedsnr" v="576846" />
	</node>
	<node lat="63.885822223836534" lon="9.840441670109044" id="-50907">
		<tag k="name" v="Nygård" />
		<tag k="place" v="farm" />
		<tag k="ssr:stedsnr" v="576852" />
	</node>
	<node lat="63.894963890311736" lon="9.853655557944515" id="-50908">
		<tag k="name" v="Lysøy" />
		<tag k="place" v="farm" />
		<tag k="ssr:stedsnr" v="576855" />
	</node>
	<node lat="63.892744448865976" lon="9.845516672223248" id="-50909">
		<tag k="name" v="Lysøy" />
		<tag k="place" v="farm" />
		<tag k="ssr:stedsnr" v="576857" />
	</node>
	<node lat="63.720686113263724" lon="9.571463880629734" id="-50913">
		<tag k="name" v="Skardet" />
		<tag k="place" v="farm" />
		<tag k="ssr:stedsnr" v="580601" />
	</node>
	<node lat="63.67110277406549" lon="9.403125005915355" id="-50914">
		<tag k="name" v="Bergheim" />
		<tag k="place" v="farm" />
		<tag k="ssr:stedsnr" v="580608" />
	</node>
	<node lat="63.659277778987395" lon="9.42106110566969" id="-50915">
		<tag k="alt_name" v="Breivik" />
		<tag k="name" v="Breivika" />
		<tag k="place" v="farm" />
		<tag k="ssr:stedsnr" v="580618" />
	</node>
	<node lat="63.720091670869614" lon="9.59792222310828" id="-50916">
		<tag k="name" v="Trøa" />
		<tag k="place" v="farm" />
		<tag k="ssr:stedsnr" v="580640" />
	</node>
	<node lat="63.68315555219328" lon="9.592688880402873" id="-50917">
		<tag k="name" v="Grindvollen" />
		<tag k="place" v="farm" />
		<tag k="ssr:stedsnr" v="580642" />
	</node>
	<node lat="63.65811944364308" lon="9.56909721218394" id="-50923">
		<tag k="name" v="Nordbakken" />
		<tag k="place" v="farm" />
		<tag k="ssr:stedsnr" v="581947" />
	</node>
	<node lat="63.67980027823055" lon="9.59298458617972" id="-50924">
		<tag k="fixme" v="consider place=hamlet" />
		<tag k="name" v="Grande" />
		<tag k="place" v="farm" />
		<tag k="ssr:stedsnr" v="581950" />
	</node>
	<node lat="63.673413891710446" lon="9.587333341786783" id="-50925">
		<tag k="name" v="Grande" />
		<tag k="place" v="farm" />
		<tag k="ssr:stedsnr" v="581951" />
	</node>
	<node lat="63.76913333397404" lon="9.583063892272317" id="-50936">
		<tag k="name" v="Nergården" />
		<tag k="place" v="farm" />
		<tag k="ssr:stedsnr" v="697281" />
	</node>
	<node lat="63.789905552409586" lon="9.605069443012168" id="-50937">
		<tag k="name" v="Stranda" />
		<tag k="place" v="farm" />
		<tag k="ssr:stedsnr" v="697288" />
	</node>
	<node lat="63.80587499730271" lon="10.116727774961484" id="-50942">
		<tag k="name" v="Myrmo" />
		<tag k="place" v="farm" />
		<tag k="ssr:stedsnr" v="697661" />
	</node>
	<node lat="63.81635555502454" lon="10.088138892345064" id="-50950">
		<tag k="historic" v="shieling" />
		<tag k="name" v="Jakobsetra" />
		<tag k="place" v="isolated_dwelling" />
		<tag k="ssr:stedsnr" v="698072" />
	</node>
	<node lat="63.76470555112125" lon="9.699686120995137" id="-50969">
		<tag k="name" v="Brandvik" />
		<tag k="place" v="farm" />
		<tag k="ssr:stedsnr" v="698341" />
	</node>
	<node lat="63.81193889257118" lon="9.663322229125129" id="-50976">
		<tag k="name" v="Sanden" />
		<tag k="place" v="farm" />
		<tag k="ssr:stedsnr" v="698462" />
	</node>
	<node lat="63.75000555405111" lon="9.710550001266752" id="-50995">
		<tag k="name" v="Haug" />
		<tag k="place" v="farm" />
		<tag k="ssr:stedsnr" v="698746" />
	</node>
	<node lat="63.785363889748304" lon="9.813213885905467" id="-50996">
		<tag k="name" v="Lia" />
		<tag k="place" v="farm" />
		<tag k="ssr:stedsnr" v="698753" />
	</node>
	<node lat="63.80170277944776" lon="9.642877779899669" id="-50997">
		<tag k="name" v="Rabben" />
		<tag k="place" v="farm" />
		<tag k="ssr:stedsnr" v="698802" />
	</node>
	<node lat="63.84643888880174" lon="9.79453611323293" id="-50998">
		<tag k="name" v="Mogården" />
		<tag k="place" v="farm" />
		<tag k="ssr:stedsnr" v="698882" />
	</node>
	<node lat="63.76404444784654" lon="9.824338891774802" id="-50999">
		<tag k="name" v="Moen" />
		<tag k="place" v="farm" />
		<tag k="ssr:stedsnr" v="698850" />
	</node>
	<node lat="63.75139722046481" lon="9.777050010063975" id="-51000">
		<tag k="name" v="Åsbakken" />
		<tag k="place" v="farm" />
		<tag k="ssr:stedsnr" v="698855" />
	</node>
	<node lat="63.78020833270457" lon="9.751913893623936" id="-51001">
		<tag k="name" v="Nordheim" />
		<tag k="place" v="farm" />
		<tag k="ssr:stedsnr" v="698859" />
	</node>
	<node lat="63.758269443153516" lon="9.800488894748089" id="-51002">
		<tag k="name" v="Storbakken" />
		<tag k="place" v="farm" />
		<tag k="ssr:stedsnr" v="698862" />
	</node>
	<node lat="63.85019444842921" lon="9.888516670682819" id="-51003">
		<tag k="name" v="Aunet" />
		<tag k="place" v="farm" />
		<tag k="ssr:stedsnr" v="698926" />
	</node>
	<node lat="63.84890832896956" lon="9.779797217078137" id="-51004">
		<tag k="name" v="Nygården" />
		<tag k="place" v="farm" />
		<tag k="ssr:stedsnr" v="698884" />
	</node>
	<node lat="63.82695555612298" lon="9.676852784683858" id="-51005">
		<tag k="name" v="Litlhaugen" />
		<tag k="place" v="farm" />
		<tag k="ssr:stedsnr" v="698891" />
	</node>
	<node lat="63.821672221567944" lon="9.640105561932614" id="-51006">
		<tag k="name" v="Moen" />
		<tag k="place" v="farm" />
		<tag k="ssr:stedsnr" v="698895" />
	</node>
	<node lat="63.81875278135771" lon="9.626650003832479" id="-51007">
		<tag k="name" v="Vestheim" />
		<tag k="place" v="farm" />
		<tag k="ssr:stedsnr" v="698902" />
	</node>
	<node lat="63.84260277579027" lon="9.84403056483904" id="-51008">
		<tag k="name" v="Øra" />
		<tag k="place" v="farm" />
		<tag k="ssr:stedsnr" v="698932" />
	</node>
	<node lat="63.84297499933032" lon="9.786633328265184" id="-51013">
		<tag k="fixme" v="consider place=hamlet" />
		<tag k="name" v="Jøssund" />
		<tag k="place" v="farm" />
		<tag k="ssr:stedsnr" v="606960" />
	</node>
	<node lat="63.762827779357266" lon="9.615419442287953" id="-51020">
		<tag k="fixme" v="consider place=hamlet" />
		<tag k="name" v="Tønnøl" />
		<tag k="place" v="farm" />
		<tag k="ssr:stedsnr" v="619771" />
	</node>
	<node lat="63.82834166224748" lon="9.811830561184067" id="-51023">
		<tag k="alt_name" v="Nedre Barset;Barset, nedre" />
		<tag k="name" v="Barset" />
		<tag k="place" v="farm" />
		<tag k="ssr:stedsnr" v="620072" />
	</node>
	<node lat="63.78389721857856" lon="9.96223889265697" id="-51025">
		<tag k="fixme" v="multiple name tags, choose one and add the other to alt_name" />
		<tag k="name" v="Åsheim;Kammen" />
		<tag k="place" v="farm" />
		<tag k="ssr:stedsnr" v="620221" />
	</node>
	<node lat="63.717433331333986" lon="9.768672214597995" id="-51028">
		<tag k="name" v="Karlsenget" />
		<tag k="place" v="farm" />
		<tag k="ssr:stedsnr" v="620782" />
	</node>
	<node lat="63.67916666921221" lon="9.658775007730867" id="-51029">
		<tag k="name" v="Flåten" />
		<tag k="place" v="farm" />
		<tag k="ssr:stedsnr" v="702621" />
	</node>
	<node lat="63.71006388617397" lon="9.639688897569702" id="-51030">
		<tag k="name" v="Vårtun" />
		<tag k="place" v="farm" />
		<tag k="ssr:stedsnr" v="702590" />
	</node>
	<node lat="63.706933335825305" lon="9.649300004984264" id="-51031">
		<tag k="name" v="Austbø" />
		<tag k="place" v="farm" />
		<tag k="ssr:stedsnr" v="702626" />
	</node>
	<node lat="63.67267777386068" lon="9.429988895601316" id="-51032">
		<tag k="name" v="Grønnvoll" />
		<tag k="place" v="farm" />
		<tag k="ssr:stedsnr" v="702631" />
	</node>
	<node lat="63.71581389321909" lon="9.56763333526988" id="-51033">
		<tag k="name" v="Tinnveden" />
		<tag k="place" v="farm" />
		<tag k="ssr:stedsnr" v="702647" />
	</node>
	<node lat="63.71597777406161" lon="9.667155562996024" id="-51040">
		<tag k="name" v="Furuly" />
		<tag k="place" v="farm" />
		<tag k="ssr:stedsnr" v="702972" />
	</node>
	<node lat="63.708663889268614" lon="9.693038890058146" id="-51041">
		<tag k="name" v="Brubakken" />
		<tag k="place" v="farm" />
		<tag k="ssr:stedsnr" v="702798" />
	</node>
	<node lat="63.7162222189623" lon="9.632902767740621" id="-51052">
		<tag k="name" v="Skogan" />
		<tag k="place" v="farm" />
		<tag k="ssr:stedsnr" v="702973" />
	</node>
	<node lat="63.71369444284529" lon="9.650688882384152" id="-51053">
		<tag k="name" v="Neraune" />
		<tag k="place" v="farm" />
		<tag k="ssr:stedsnr" v="702976" />
	</node>
	<node lat="63.738719447515116" lon="9.671100009600522" id="-51054">
		<tag k="name" v="Døsvika" />
		<tag k="place" v="farm" />
		<tag k="ssr:stedsnr" v="702985" />
	</node>
	<node lat="63.72083333089536" lon="9.576038891812424" id="-51056">
		<tag k="name" v="Skånberget" />
		<tag k="place" v="farm" />
		<tag k="ssr:stedsnr" v="703000" />
	</node>
	<node lat="63.81508611328657" lon="9.986708324665393" id="-51058">
		<tag k="name" v="Jeriko" />
		<tag k="place" v="isolated_dwelling" />
		<tag k="ssr:stedsnr" v="636034" />
	</node>
	<node lat="63.74556944823177" lon="9.716541663368124" id="-51074">
		<tag k="name" v="Fjellset" />
		<tag k="place" v="farm" />
		<tag k="ssr:stedsnr" v="636298" />
	</node>
	<node lat="63.75980833418132" lon="9.96161943482293" id="-51079">
		<tag k="name" v="Kukleiva" />
		<tag k="place" v="isolated_dwelling" />
		<tag k="ssr:stedsnr" v="636603" />
	</node>
	<node lat="63.803674997801274" lon="9.651144450851012" id="-51085">
		<tag k="name" v="Klungervollen" />
		<tag k="place" v="farm" />
		<tag k="ssr:stedsnr" v="636834" />
	</node>
	<node lat="63.8526416650136" lon="9.748808339176566" id="-51086">
		<tag k="name" v="Strømsvika" />
		<tag k="place" v="farm" />
		<tag k="ssr:stedsnr" v="636877" />
	</node>
	<node lat="63.79281389276533" lon="10.052008334257955" id="-51087">
		<tag k="building" v="industrial" />
		<tag k="name" v="Grøtan Sagbruk" />
		<tag k="ssr:stedsnr" v="636710" />
	</node>
	<node lat="63.72424444732159" lon="9.695108332980292" id="-51092">
		<tag k="name" v="Trøen" />
		<tag k="place" v="farm" />
		<tag k="ssr:stedsnr" v="640827" />
	</node>
	<node lat="63.718127778225565" lon="9.618761114789638" id="-51094">
		<tag k="name" v="Jarlheim" />
		<tag k="place" v="farm" />
		<tag k="ssr:stedsnr" v="640976" />
	</node>
	<node lat="63.724511111554605" lon="9.602688892850896" id="-51095">
		<tag k="name" v="Ulriksborg" />
		<tag k="place" v="farm" />
		<tag k="ssr:stedsnr" v="640994" />
	</node>
	<node lat="63.7250388907554" lon="9.607024998338517" id="-51096">
		<tag k="name" v="Uthaug" />
		<tag k="place" v="farm" />
		<tag k="ssr:stedsnr" v="641604" />
	</node>
	<node lat="63.733016662458766" lon="9.673388890082853" id="-51101">
		<tag k="name" v="Rabban" />
		<tag k="place" v="farm" />
		<tag k="ssr:stedsnr" v="641983" />
	</node>
	<node lat="63.80002500152187" lon="10.076822214460233" id="-51105">
		<tag k="name" v="Fagerli" />
		<tag k="place" v="farm" />
		<tag k="ssr:stedsnr" v="680003" />
	</node>
	<node lat="63.87401944879806" lon="9.835822228654788" id="-51114">
		<tag k="name" v="Svartvika" />
		<tag k="place" v="farm" />
		<tag k="ssr:stedsnr" v="680626" />
	</node>
	<node lat="63.83169166318185" lon="9.672911105555164" id="-51119">
		<tag k="name" v="Rabben" />
		<tag k="place" v="farm" />
		<tag k="ssr:stedsnr" v="680720" />
	</node>
	<node lat="63.763327777586056" lon="9.830216664349656" id="-51136">
		<tag k="name" v="Damman" />
		<tag k="place" v="farm" />
		<tag k="ssr:stedsnr" v="698412" />
	</node>
	<node lat="63.84772222402561" lon="9.809963880072118" id="-51157">
		<tag k="name" v="Strømsli" />
		<tag k="place" v="farm" />
		<tag k="ssr:stedsnr" v="698906" />
	</node>
	<node lat="63.8606305565134" lon="9.808649997559876" id="-51158">
		<tag k="name" v="Manndal" />
		<tag k="place" v="farm" />
		<tag k="ssr:stedsnr" v="698916" />
	</node>
	<node lat="63.83005832990591" lon="9.790544440775115" id="-51159">
		<tag k="name" v="Sundset" />
		<tag k="place" v="farm" />
		<tag k="ssr:stedsnr" v="698865" />
	</node>
	<node lat="63.81552778139609" lon="9.707308330540027" id="-51160">
		<tag k="name" v="Indergård" />
		<tag k="place" v="farm" />
		<tag k="ssr:stedsnr" v="698868" />
	</node>
	<node lat="63.82805833437005" lon="9.806111108221335" id="-51161">
		<tag k="name" v="Trettenget" />
		<tag k="place" v="farm" />
		<tag k="ssr:stedsnr" v="698870" />
	</node>
	<node lat="63.84237777852491" lon="9.797838898454417" id="-51162">
		<tag k="name" v="Rønningan" />
		<tag k="place" v="farm" />
		<tag k="ssr:stedsnr" v="698875" />
	</node>
	<node lat="63.71157222553013" lon="9.702711115715887" id="-51163">
		<tag k="name" v="Vesterheim" />
		<tag k="place" v="farm" />
		<tag k="ssr:stedsnr" v="702604" />
	</node>
	<node lat="63.69494166975343" lon="9.651663885103048" id="-51164">
		<tag k="name" v="Trettenget" />
		<tag k="place" v="farm" />
		<tag k="ssr:stedsnr" v="702613" />
	</node>
	<node lat="63.669644442005996" lon="9.430016671205237" id="-51165">
		<tag k="name" v="Lauvset" />
		<tag k="place" v="isolated_dwelling" />
		<tag k="ssr:stedsnr" v="702675" />
	</node>
	<node lat="63.68123611151137" lon="9.594711114945765" id="-51166">
		<tag k="name" v="Grandgården" />
		<tag k="place" v="farm" />
		<tag k="ssr:stedsnr" v="702682" />
	</node>
	<node lat="63.703897222404265" lon="9.670583341305248" id="-51171">
		<tag k="name" v="Biskopvoll" />
		<tag k="place" v="farm" />
		<tag k="ssr:stedsnr" v="702965" />
	</node>
	<node lat="63.8557888884302" lon="9.726722228697485" id="-51172">
		<tag k="name" v="Avkrokhaugen hyttefelt" />
		<tag k="place" v="neighbourhood" />
		<tag k="ssr:stedsnr" v="709017" />
	</node>
	<node lat="63.82794166902865" lon="9.655633324329992" id="-51173">
		<tag k="name" v="Valstad hyttefelt" />
		<tag k="place" v="neighbourhood" />
		<tag k="ssr:stedsnr" v="709028" />
	</node>
	<node lat="63.72276666361178" lon="9.829819438857525" id="-51183">
		<tag k="fixme" v="multiple name tags, choose one and add the other to alt_name" />
		<tag k="name" v="Eidsvoll;Trøa" />
		<tag k="place" v="farm" />
		<tag k="ssr:stedsnr" v="741294" />
	</node>
	<node lat="63.71833333609509" lon="9.813938895811951" id="-51184">
		<tag k="name" v="Solberg" />
		<tag k="place" v="farm" />
		<tag k="ssr:stedsnr" v="741295" />
	</node>
	<node lat="63.79091666970231" lon="9.993955552107895" id="-51186">
		<tag k="name" v="Gjøljasetra" />
		<tag k="place" v="farm" />
		<tag k="ssr:stedsnr" v="741298" />
	</node>
	<node lat="63.76895555697995" lon="9.686930563257144" id="-51194">
		<tag k="name" v="Høgtun" />
		<tag k="place" v="farm" />
		<tag k="ssr:stedsnr" v="741784" />
	</node>
	<node lat="63.76050000257234" lon="9.6581805558919" id="-51195">
		<tag k="name" v="Risvika" />
		<tag k="place" v="isolated_dwelling" />
		<tag k="ssr:stedsnr" v="741789" />
	</node>
	<node lat="63.76044722059579" lon="9.638011112214492" id="-51196">
		<tag k="name" v="Tønnølsstranda" />
		<tag k="place" v="farm" />
		<tag k="ssr:stedsnr" v="741790" />
	</node>
	<node lat="63.820252781061804" lon="9.418274991073561" id="-51208">
		<tag k="name" v="Husøya" />
		<tag k="place" v="hamlet" />
		<tag k="ssr:stedsnr" v="758250" />
	</node>
	<node lat="63.76891389105367" lon="9.572488898016248" id="-51213">
		<tag k="name" v="Innlegget" />
		<tag k="place" v="farm" />
		<tag k="ssr:stedsnr" v="758299" />
	</node>
	<node lat="63.78956944600372" lon="9.610580548300264" id="-51220">
		<tag k="name" v="Skjerpingen" />
		<tag k="place" v="farm" />
		<tag k="ssr:stedsnr" v="758305" />
	</node>
	<node lat="63.74769444416845" lon="9.706155565415578" id="-51221">
		<tag k="name" v="Moen" />
		<tag k="place" v="farm" />
		<tag k="ssr:stedsnr" v="758319" />
	</node>
	<node lat="63.74007222301648" lon="9.712988886737019" id="-51222">
		<tag k="name" v="Engan" />
		<tag k="place" v="farm" />
		<tag k="ssr:stedsnr" v="758325" />
	</node>
	<node lat="63.76001944655413" lon="9.747397231718315" id="-51224">
		<tag k="building" v="industrial" />
		<tag k="name" v="Salteriet" />
		<tag k="ssr:stedsnr" v="758506" />
	</node>
	<node lat="63.83155833423499" lon="9.672666663569863" id="-51239">
		<tag k="name" v="Knarvika" />
		<tag k="place" v="farm" />
		<tag k="ssr:stedsnr" v="758904" />
	</node>
	<node lat="63.72652500222073" lon="9.612552787718169" id="-51241">
		<tag k="name" v="Utstrand" />
		<tag k="place" v="farm" />
		<tag k="ssr:stedsnr" v="762641" />
	</node>
	<node lat="63.72058333631605" lon="9.561977781826009" id="-51242">
		<tag k="name" v="Brynhildsbukta" />
		<tag k="place" v="farm" />
		<tag k="ssr:stedsnr" v="762648" />
	</node>
	<node lat="63.70261388694091" lon="9.693627781771353" id="-51243">
		<tag k="name" v="Nausthaugen" />
		<tag k="place" v="farm" />
		<tag k="ssr:stedsnr" v="762804" />
	</node>
	<node lat="63.71656111204346" lon="9.710811107448198" id="-51244">
		<tag k="name" v="Dalabrua" />
		<tag k="place" v="farm" />
		<tag k="ssr:stedsnr" v="762809" />
	</node>
	<node lat="63.7069805578879" lon="9.770902784375467" id="-51246">
		<tag k="name" v="Nøysomhet" />
		<tag k="place" v="farm" />
		<tag k="ssr:stedsnr" v="762595" />
	</node>
	<node lat="63.70083332903322" lon="9.664355559940166" id="-51247">
		<tag k="name" v="Røsvik" />
		<tag k="place" v="farm" />
		<tag k="ssr:stedsnr" v="762598" />
	</node>
	<node lat="63.69861666457909" lon="9.675250002280126" id="-51248">
		<tag k="name" v="Bruholmen" />
		<tag k="place" v="farm" />
		<tag k="ssr:stedsnr" v="762602" />
	</node>
	<node lat="63.71350555646374" lon="9.539699995904195" id="-51249">
		<tag k="name" v="Hoøya" />
		<tag k="place" v="farm" />
		<tag k="ssr:stedsnr" v="762704" />
	</node>
	<node lat="63.66135277648697" lon="9.382352774528753" id="-51250">
		<tag k="name" v="Skålvika" />
		<tag k="place" v="farm" />
		<tag k="ssr:stedsnr" v="762711" />
	</node>
	<node lat="63.7312194469862" lon="9.653733331215351" id="-51251">
		<tag k="fixme" v="consider place=hamlet" />
		<tag k="name" v="Innstrand" />
		<tag k="place" v="farm" />
		<tag k="ssr:stedsnr" v="762791" />
	</node>
	<node lat="63.64384999574871" lon="9.51712777121073" id="-51252">
		<tag k="name" v="Litlnesvika" />
		<tag k="place" v="farm" />
		<tag k="ssr:stedsnr" v="762794" />
	</node>
	<node lat="63.72869722589064" lon="9.690594443733088" id="-51253">
		<tag k="name" v="Opphaug" />
		<tag k="place" v="farm" />
		<tag k="ssr:stedsnr" v="762796" />
	</node>
	<node lat="63.76056388479133" lon="9.658530564856319" id="-51259">
		<tag k="name" v="Storrisvika hyttefelt" />
		<tag k="place" v="neighbourhood" />
		<tag k="ssr:stedsnr" v="787112" />
	</node>
	<node lat="63.757908334793065" lon="9.736386102197498" id="-51260">
		<tag k="fixme" v="consider place=hamlet" />
		<tag k="name" v="Erisvik" />
		<tag k="place" v="farm" />
		<tag k="ssr:stedsnr" v="788968" />
	</node>
	<node lat="63.66560555665558" lon="9.426380563836917" id="-51264">
		<tag k="alt_name" v="Langtinnen" />
		<tag k="name" v="Langtinden" />
		<tag k="place" v="farm" />
		<tag k="ssr:stedsnr" v="802069" />
	</node>
	<node lat="63.65553333667733" lon="9.569525008312977" id="-51269">
		<tag k="fixme" v="consider place=hamlet" />
		<tag k="name" v="Beian" />
		<tag k="place" v="village" />
		<tag k="ssr:stedsnr" v="802086" />
	</node>
	<node lat="63.7663083311487" lon="9.985811110999284" id="-51270">
		<tag k="name" v="Vadmyra" />
		<tag k="place" v="farm" />
		<tag k="ssr:stedsnr" v="802218" />
	</node>
	<node lat="63.73695833428884" lon="9.85227221675344" id="-51271">
		<tag k="name" v="Grøneng" />
		<tag k="place" v="farm" />
		<tag k="ssr:stedsnr" v="802220" />
	</node>
	<node lat="63.725291668584525" lon="9.83371944337793" id="-51272">
		<tag k="name" v="Sørgården" />
		<tag k="place" v="farm" />
		<tag k="ssr:stedsnr" v="802270" />
	</node>
	<node lat="63.84030555505344" lon="9.83057499086263" id="-51274">
		<tag k="fixme" v="consider place=hamlet" />
		<tag k="name" v="Valan" />
		<tag k="place" v="farm" />
		<tag k="ssr:stedsnr" v="802107" />
	</node>
	<node lat="63.848225000517644" lon="9.835627781910869" id="-51275">
		<tag k="name" v="Asserøya" />
		<tag k="place" v="farm" />
		<tag k="ssr:stedsnr" v="802114" />
	</node>
	<node lat="63.700280558320976" lon="9.744577775024402" id="-51277">
		<tag k="name" v="Austrått" />
		<tag k="place" v="isolated_dwelling" />
		<tag k="ssr:stedsnr" v="802803" />
	</node>
	<node lat="63.708011113914736" lon="9.740613884148447" id="-51278">
		<tag k="name" v="Austheim" />
		<tag k="place" v="farm" />
		<tag k="ssr:stedsnr" v="802817" />
	</node>
	<node lat="63.76028610746027" lon="9.62399722294451" id="-51283">
		<tag k="name" v="Lunden" />
		<tag k="place" v="farm" />
		<tag k="ssr:stedsnr" v="802782" />
	</node>
	<node lat="63.76757221794955" lon="9.589855558929877" id="-51288">
		<tag k="name" v="Berg" />
		<tag k="place" v="farm" />
		<tag k="ssr:stedsnr" v="819235" />
	</node>
	<node lat="63.766055552922026" lon="9.575119442788127" id="-51290">
		<tag k="name" v="Sjøhaugen" />
		<tag k="place" v="farm" />
		<tag k="ssr:stedsnr" v="819241" />
	</node>
	<node lat="63.78812777559175" lon="9.971263884344955" id="-51291">
		<tag k="name" v="Åsvang" />
		<tag k="place" v="farm" />
		<tag k="ssr:stedsnr" v="819255" />
	</node>
	<node lat="63.78440833090117" lon="9.84019999315628" id="-51297">
		<tag k="name" v="Bekkhaugen" />
		<tag k="place" v="isolated_dwelling" />
		<tag k="ssr:stedsnr" v="819422" />
	</node>
	<node lat="63.87838055996734" lon="9.929663894353473" id="-51318">
		<tag k="name" v="Oldneset" />
		<tag k="place" v="farm" />
		<tag k="ssr:stedsnr" v="819914" />
	</node>
	<node lat="63.86702777853434" lon="9.85916110860294" id="-51319">
		<tag k="fixme" v="consider place=hamlet" />
		<tag k="name" v="Rømmen" />
		<tag k="place" v="farm" />
		<tag k="ssr:stedsnr" v="819916" />
	</node>
	<node lat="63.75483889007146" lon="9.818430561779266" id="-51323">
		<tag k="name" v="Solbakken" />
		<tag k="place" v="farm" />
		<tag k="ssr:stedsnr" v="819877" />
	</node>
	<node lat="63.75725278063856" lon="9.798819436189762" id="-51324">
		<tag k="name" v="Grønvollen" />
		<tag k="place" v="farm" />
		<tag k="ssr:stedsnr" v="819885" />
	</node>
	<node lat="63.71499722492602" lon="9.631216663419334" id="-51328">
		<tag k="name" v="Sørteigen" />
		<tag k="place" v="farm" />
		<tag k="ssr:stedsnr" v="823575" />
	</node>
	<node lat="63.73098055699193" lon="9.677094451693156" id="-51332">
		<tag k="name" v="Falkhytta" />
		<tag k="place" v="isolated_dwelling" />
		<tag k="ssr:stedsnr" v="823783" />
	</node>
	<node lat="63.7185249993724" lon="9.706491670433154" id="-51333">
		<tag k="name" v="Vesterset" />
		<tag k="place" v="farm" />
		<tag k="ssr:stedsnr" v="823785" />
	</node>
	<node lat="63.66319444657398" lon="9.37700556387514" id="-51337">
		<tag k="name" v="Nordskaget" />
		<tag k="place" v="farm" />
		<tag k="ssr:stedsnr" v="824815" />
	</node>
	<node lat="63.668666666229214" lon="9.404761106766975" id="-51338">
		<tag k="name" v="Haugan" />
		<tag k="place" v="farm" />
		<tag k="ssr:stedsnr" v="824816" />
	</node>
	<node lat="63.72497642942708" lon="9.67860540543424" id="-51340">
		<tag k="fixme" v="consider place=hamlet" />
		<tag k="name" v="Berg" />
		<tag k="place" v="farm" />
		<tag k="ssr:stedsnr" v="824968" />
	</node>
	<node lat="63.717780553841365" lon="9.640669451793151" id="-51341">
		<tag k="name" v="Nytun" />
		<tag k="place" v="farm" />
		<tag k="ssr:stedsnr" v="824973" />
	</node>
	<node lat="63.719974554321475" lon="9.685129916157209" id="-51343">
		<tag k="fixme" v="consider place=hamlet" />
		<tag k="name" v="Hov" />
		<tag k="place" v="farm" />
		<tag k="ssr:stedsnr" v="923017" />
	</node>
	<node lat="63.81132222265811" lon="10.133330548717257" id="-51345">
		<tag k="name" v="Tangen" />
		<tag k="place" v="farm" />
		<tag k="ssr:stedsnr" v="923019" />
	</node>
	<node lat="63.68843611315982" lon="9.593522231999389" id="-51348">
		<tag k="name" v="Gjertsgarden" />
		<tag k="old_name" v="Meldal;Meldalen" />
		<tag k="place" v="farm" />
		<tag k="ssr:stedsnr" v="923034" />
	</node>
	<node lat="63.663058335557594" lon="9.407233340450176" id="-51354">
		<tag k="fixme" v="consider place=hamlet" />
		<tag k="name" v="Storfosna" />
		<tag k="place" v="village" />
		<tag k="ssr:stedsnr" v="923060" />
	</node>
	<node lat="63.73578332970581" lon="9.85515277163108" id="-51356">
		<tag k="name" v="Romstad" />
		<tag k="place" v="farm" />
		<tag k="ssr:stedsnr" v="923227" />
	</node>
	<node lat="63.783813884849586" lon="10.109219446419905" id="-51360">
		<tag k="name" v="Pettersvika" />
		<tag k="place" v="farm" />
		<tag k="ssr:stedsnr" v="923260" />
	</node>
	<node lat="63.77995555512128" lon="10.059869446686642" id="-51361">
		<tag k="name" v="Råa" />
		<tag k="place" v="farm" />
		<tag k="ssr:stedsnr" v="923261" />
	</node>
	<node lat="63.84677499692032" lon="9.692794435913912" id="-51365">
		<tag k="name" v="Haldorhamn" />
		<tag k="place" v="farm" />
		<tag k="ssr:stedsnr" v="923697" />
	</node>
	<node lat="63.80489722030837" lon="9.670019440623497" id="-51371">
		<tag k="name" v="Sandstad" />
		<tag k="place" v="farm" />
		<tag k="ssr:stedsnr" v="923657" />
	</node>
	<node lat="63.70688611459738" lon="9.758349998927235" id="-51375">
		<tag k="alt_name" v="Skjærset" />
		<tag k="name" v="Skjerset" />
		<tag k="place" v="farm" />
		<tag k="ssr:stedsnr" v="923823" />
	</node>
	<node lat="63.762365846772425" lon="9.86122366200894" id="-51379">
		<tag k="fixme" v="consider place=hamlet" />
		<tag k="name" v="Haugen" />
		<tag k="place" v="farm" />
		<tag k="ssr:stedsnr" v="924192" />
	</node>
	<node lat="63.71488333402954" lon="9.760222225971445" id="-51381">
		<tag k="alt_name" v="Trellskogen" />
		<tag k="name" v="Trælskogan" />
		<tag k="place" v="farm" />
		<tag k="ssr:stedsnr" v="924792" />
	</node>
	<node lat="63.76010277635397" lon="9.870972212812113" id="-51383">
		<tag k="alt_name" v="Helland ned." />
		<tag k="name" v="Helland" />
		<tag k="place" v="farm" />
		<tag k="ssr:stedsnr" v="849895" />
	</node>
	<node lat="63.77060833548968" lon="9.587622215773857" id="-51384">
		<tag k="fixme" v="consider place=hamlet" />
		<tag k="name" v="Nes" />
		<tag k="place" v="village" />
		<tag k="ssr:stedsnr" v="849902" />
	</node>
	<node lat="63.73641111401935" lon="9.71302221479398" id="-51385">
		<tag k="name" v="Reitan" />
		<tag k="place" v="farm" />
		<tag k="ssr:stedsnr" v="862014" />
	</node>
	<node lat="63.70731111566775" lon="9.763277770640201" id="-51391">
		<tag k="name" v="Aunet" />
		<tag k="place" v="farm" />
		<tag k="ssr:stedsnr" v="862817" />
	</node>
	<node lat="63.82881944219398" lon="9.785424993094837" id="-51392">
		<tag k="fixme" v="consider place=hamlet" />
		<tag k="name" v="Sundset" />
		<tag k="place" v="farm" />
		<tag k="ssr:stedsnr" v="863078" />
	</node>
	<node lat="63.86075833296234" lon="9.80682500963738" id="-51400">
		<tag k="fixme" v="consider place=hamlet" />
		<tag k="name" v="Manndal" />
		<tag k="place" v="farm" />
		<tag k="ssr:stedsnr" v="863110" />
	</node>
	<node lat="63.74935555257884" lon="9.780563893171271" id="-51402">
		<tag k="name" v="Moberg" />
		<tag k="place" v="farm" />
		<tag k="ssr:stedsnr" v="863184" />
	</node>
	<node lat="63.738863886054446" lon="9.851863898489585" id="-51403">
		<tag k="name" v="Sørmyr" />
		<tag k="place" v="farm" />
		<tag k="ssr:stedsnr" v="863198" />
	</node>
	<node lat="63.758791667692655" lon="9.619080563417073" id="-51407">
		<tag k="name" v="Engsnes" />
		<tag k="place" v="farm" />
		<tag k="ssr:stedsnr" v="863741" />
	</node>
	<node lat="63.81451111004965" lon="9.667811101498529" id="-51413">
		<tag k="name" v="Olsvika" />
		<tag k="place" v="farm" />
		<tag k="ssr:stedsnr" v="880229" />
	</node>
	<node lat="63.757786108301936" lon="9.971219448585309" id="-51414">
		<tag k="name" v="Stallvik" />
		<tag k="place" v="farm" />
		<tag k="ssr:stedsnr" v="880232" />
	</node>
	<node lat="63.89235000081776" lon="9.869819445726197" id="-51423">
		<tag k="name" v="Vika" />
		<tag k="place" v="farm" />
		<tag k="ssr:stedsnr" v="880518" />
	</node>
	<node lat="63.756452781977046" lon="9.966716657895338" id="-51431">
		<tag k="name" v="Akseldalen" />
		<tag k="place" v="isolated_dwelling" />
		<tag k="ssr:stedsnr" v="880605" />
	</node>
	<node lat="63.818019447283255" lon="9.62343055012051" id="-51444">
		<tag k="name" v="Solheim" />
		<tag k="place" v="farm" />
		<tag k="ssr:stedsnr" v="880905" />
	</node>
	<node lat="63.86922500425726" lon="9.930533338690024" id="-51445">
		<tag k="name" v="Oldbakken" />
		<tag k="place" v="farm" />
		<tag k="ssr:stedsnr" v="880914" />
	</node>
	<node lat="63.86530000225195" lon="9.813541669757104" id="-51446">
		<tag k="name" v="Manndalsvika" />
		<tag k="place" v="farm" />
		<tag k="ssr:stedsnr" v="880921" />
	</node>
	<node lat="63.804480556930486" lon="9.6853972263636" id="-51447">
		<tag k="name" v="Skillestad" />
		<tag k="place" v="farm" />
		<tag k="ssr:stedsnr" v="880812" />
	</node>
	<node lat="63.890613891306664" lon="9.861322226686354" id="-51448">
		<tag k="name" v="Lauvika" />
		<tag k="place" v="farm" />
		<tag k="ssr:stedsnr" v="880850" />
	</node>
	<node lat="63.74178055245565" lon="9.81177778419578" id="-51449">
		<tag k="name" v="Skavdalen" />
		<tag k="place" v="farm" />
		<tag k="ssr:stedsnr" v="880858" />
	</node>
	<node lat="63.73578611548816" lon="9.85526111958484" id="-51450">
		<tag k="name" v="Fredheim" />
		<tag k="place" v="farm" />
		<tag k="ssr:stedsnr" v="880864" />
	</node>
	<node lat="63.65687777526291" lon="9.42247222307761" id="-51452">
		<tag k="name" v="Halsen" />
		<tag k="place" v="farm" />
		<tag k="ssr:stedsnr" v="881470" />
	</node>
	<node lat="63.663850003107264" lon="9.388102780782658" id="-51454">
		<tag k="fixme" v="multiple name tags, choose one and add the other to alt_name" />
		<tag k="name" v="Fagerhaug;Slottet" />
		<tag k="place" v="farm" />
		<tag k="ssr:stedsnr" v="884608" />
	</node>
	<node lat="63.73191110692468" lon="9.695444445595275" id="-51455">
		<tag k="name" v="Elvteigen" />
		<tag k="place" v="farm" />
		<tag k="ssr:stedsnr" v="884613" />
	</node>
	<node lat="63.730022220582285" lon="9.64797222032056" id="-51456">
		<tag k="name" v="Grinden" />
		<tag k="place" v="farm" />
		<tag k="ssr:stedsnr" v="884617" />
	</node>
	<node lat="63.683086112307954" lon="9.645550007149335" id="-51459">
		<tag k="name" v="Reksterberget" />
		<tag k="place" v="farm" />
		<tag k="ssr:stedsnr" v="885921" />
	</node>
	<node lat="63.679866669584634" lon="9.658919438547132" id="-51461">
		<tag k="name" v="Hovde" />
		<tag k="place" v="farm" />
		<tag k="ssr:stedsnr" v="885927" />
	</node>
	<node lat="63.70876111166385" lon="9.686763894693451" id="-51462">
		<tag k="name" v="Størset" />
		<tag k="place" v="farm" />
		<tag k="ssr:stedsnr" v="885947" />
	</node>
	<node lat="63.69528888632977" lon="9.640991675701963" id="-51464">
		<tag k="name" v="Hårberg" />
		<tag k="place" v="farm" />
		<tag k="ssr:stedsnr" v="885958" />
	</node>
	<node lat="63.847869443721926" lon="9.819147229654858" id="-51466">
		<tag k="name" v="Leset" />
		<tag k="place" v="farm" />
		<tag k="ssr:stedsnr" v="905025" />
	</node>
	<node lat="63.763930559841945" lon="9.687297219395901" id="-51467">
		<tag k="name" v="Brandvika" />
		<tag k="place" v="hamlet" />
		<tag k="ssr:stedsnr" v="910914" />
	</node>
	<node lat="63.783797222108355" lon="9.810049993630058" id="-51468">
		<tag k="fixme" v="consider place=hamlet" />
		<tag k="name" v="Lia" />
		<tag k="place" v="village" />
		<tag k="ssr:stedsnr" v="910917" />
	</node>
	<node lat="63.72511944258008" lon="9.67461112027784" id="-51471">
		<tag k="name" v="Berg" />
		<tag k="place" v="farm" />
		<tag k="ssr:stedsnr" v="923015" />
	</node>
	<node lat="63.84136110993623" lon="9.722544445108833" id="-51472">
		<tag k="name" v="Birkeli" />
		<tag k="place" v="farm" />
		<tag k="ssr:stedsnr" v="923104" />
	</node>
	<node lat="63.71863055260291" lon="9.797308333903205" id="-51481">
		<tag k="name" v="Vindset" />
		<tag k="place" v="farm" />
		<tag k="ssr:stedsnr" v="923274" />
	</node>
	<node lat="63.80785832967577" lon="9.685747229419428" id="-51485">
		<tag k="name" v="Korsgata" />
		<tag k="place" v="farm" />
		<tag k="ssr:stedsnr" v="923673" />
	</node>
	<node lat="63.820130555913295" lon="9.70749721989968" id="-51486">
		<tag k="name" v="Buvika" />
		<tag k="place" v="farm" />
		<tag k="ssr:stedsnr" v="923675" />
	</node>
	<node lat="63.819324998855386" lon="9.4189722251211" id="-51487">
		<tag k="name" v="Myra" />
		<tag k="place" v="farm" />
		<tag k="ssr:stedsnr" v="923676" />
	</node>
	<node lat="63.813050001074515" lon="9.703908335154367" id="-51489">
		<tag k="fixme" v="consider place=hamlet" />
		<tag k="name" v="Tørrem" />
		<tag k="place" v="farm" />
		<tag k="ssr:stedsnr" v="923686" />
	</node>
	<node lat="63.88876110946451" lon="9.926561111986043" id="-51491">
		<tag k="fixme" v="consider place=hamlet" />
		<tag k="name" v="Tiltrem" />
		<tag k="place" v="farm" />
		<tag k="ssr:stedsnr" v="924577" />
	</node>
	<node lat="63.81881666248746" lon="9.974102771712932" id="-51493">
		<tag k="name" v="Aunhytta" />
		<tag k="place" v="isolated_dwelling" />
		<tag k="ssr:stedsnr" v="940035" />
	</node>
	<node lat="63.82218333716244" lon="10.034613890837404" id="-51496">
		<tag k="name" v="Hildremshytta" />
		<tag k="place" v="isolated_dwelling" />
		<tag k="ssr:stedsnr" v="940090" />
	</node>
	<node lat="63.70905000146933" lon="9.699688880649067" id="-51499">
		<tag k="alt_name" v="Sandan nordre" />
		<tag k="name" v="Nordre Sandan" />
		<tag k="place" v="farm" />
		<tag k="ssr:stedsnr" v="945581" />
	</node>
	<node lat="63.724491671113604" lon="9.619027773130984" id="-51502">
		<tag k="name" v="Haugløkkan" />
		<tag k="place" v="farm" />
		<tag k="ssr:stedsnr" v="945605" />
	</node>
	<node lat="63.72007500001293" lon="9.59346111717328" id="-51503">
		<tag k="name" v="Trøa" />
		<tag k="place" v="farm" />
		<tag k="ssr:stedsnr" v="945640" />
	</node>
	<node lat="63.673488887238534" lon="9.42644723118997" id="-51504">
		<tag k="name" v="Strandheim" />
		<tag k="place" v="farm" />
		<tag k="ssr:stedsnr" v="945679" />
	</node>
	<node lat="63.652397223138195" lon="9.435430554147008" id="-51505">
		<tag k="name" v="Ola" />
		<tag k="place" v="isolated_dwelling" />
		<tag k="ssr:stedsnr" v="945680" />
	</node>
	<node lat="63.72389721923177" lon="9.689255549585155" id="-51508">
		<tag k="name" v="Breiteigen" />
		<tag k="place" v="farm" />
		<tag k="ssr:stedsnr" v="945792" />
	</node>
	<node lat="63.714322226668806" lon="9.666366657531485" id="-51509">
		<tag k="name" v="Lerbergen" />
		<tag k="place" v="isolated_dwelling" />
		<tag k="ssr:stedsnr" v="945981" />
	</node>
	<node lat="63.68778055346355" lon="9.656152780235436" id="-51510">
		<tag k="amenity" v="school" />
		<tag k="name" v="Ørland ungdomsskole" />
		<tag k="ssr:stedsnr" v="952851" />
	</node>
	<node lat="63.73986666970016" lon="9.880783340894448" id="-51511">
		<tag k="name" v="Heggvik" />
		<tag k="place" v="farm" />
		<tag k="ssr:stedsnr" v="967247" />
	</node>
	<node lat="63.78703888533425" lon="9.711049995297962" id="-51514">
		<tag k="name" v="Myrset" />
		<tag k="place" v="farm" />
		<tag k="ssr:stedsnr" v="13662" />
	</node>
	<node lat="63.70275555985206" lon="9.590563878913557" id="-51516">
		<tag k="name" v="Djupdalen" />
		<tag k="place" v="farm" />
		<tag k="ssr:stedsnr" v="13025" />
	</node>
	<node lat="63.675502574550976" lon="9.60701082566526" id="-51517">
		<tag k="fixme" v="consider place=hamlet" />
		<tag k="name" v="Flatneset" />
		<tag k="place" v="farm" />
		<tag k="ssr:stedsnr" v="13037" />
	</node>
	<node lat="63.67914861180809" lon="9.654303661553824" id="-51518">
		<tag k="fixme" v="consider place=hamlet" />
		<tag k="name" v="Hovde" />
		<tag k="place" v="farm" />
		<tag k="ssr:stedsnr" v="13045" />
	</node>
	<node lat="63.7846694489563" lon="9.993327769524281" id="-51523">
		<tag k="fixme" v="consider place=hamlet" />
		<tag k="name" v="Gjølja" />
		<tag k="place" v="farm" />
		<tag k="ssr:stedsnr" v="13243" />
	</node>
	<node lat="63.78541666908296" lon="10.026775004802564" id="-51524">
		<tag k="alt_name" v="Grandalen ned." />
		<tag k="name" v="Grandalen" />
		<tag k="place" v="farm" />
		<tag k="ssr:stedsnr" v="13244" />
	</node>
	<node lat="63.72554322054792" lon="9.838010891330935" id="-51525">
		<tag k="alt_name" v="Eid" />
		<tag k="fixme" v="consider place=hamlet" />
		<tag k="name" v="Eide" />
		<tag k="place" v="farm" />
		<tag k="ssr:stedsnr" v="13251" />
	</node>
	<node lat="63.77046944893753" lon="9.70055555579474" id="-51530">
		<tag k="name" v="Østervoll" />
		<tag k="place" v="farm" />
		<tag k="ssr:stedsnr" v="13757" />
	</node>
	<node lat="63.79685277697854" lon="9.697497229158799" id="-51531">
		<tag k="alt_name" v="Vassmyra" />
		<tag k="name" v="Vassmyr" />
		<tag k="place" v="farm" />
		<tag k="ssr:stedsnr" v="13671" />
	</node>
	<node lat="63.712158331653654" lon="9.73517776936123" id="-51536">
		<tag k="name" v="Borgestad" />
		<tag k="place" v="farm" />
		<tag k="ssr:stedsnr" v="13796" />
	</node>
	<node lat="63.875575001952214" lon="9.84175278132978" id="-51539">
		<tag k="name" v="Moen" />
		<tag k="place" v="farm" />
		<tag k="ssr:stedsnr" v="25163" />
	</node>
	<node lat="63.81786666898396" lon="10.028627781572215" id="-51541">
		<tag k="name" v="Andersbua" />
		<tag k="place" v="isolated_dwelling" />
		<tag k="ssr:stedsnr" v="30054" />
	</node>
	<node lat="63.77675277543727" lon="9.743777779392277" id="-51543">
		<tag k="name" v="Elvegård" />
		<tag k="place" v="farm" />
		<tag k="ssr:stedsnr" v="30829" />
	</node>
	<node lat="63.7642083320265" lon="9.605941666569787" id="-51547">
		<tag k="name" v="Tønnøl" />
		<tag k="place" v="farm" />
		<tag k="ssr:stedsnr" v="30226" />
	</node>
	<node lat="63.78064444678029" lon="9.993933324112282" id="-51548">
		<tag k="name" v="Lauvhaug" />
		<tag k="place" v="farm" />
		<tag k="ssr:stedsnr" v="30243" />
	</node>
	<node lat="63.78886111426611" lon="9.960474995278338" id="-51549">
		<tag k="name" v="Kleiva" />
		<tag k="place" v="farm" />
		<tag k="ssr:stedsnr" v="30253" />
	</node>
	<node lat="63.75835277392446" lon="9.98153889651538" id="-51550">
		<tag k="name" v="Stallvik" />
		<tag k="place" v="farm" />
		<tag k="ssr:stedsnr" v="30257" />
	</node>
	<node lat="63.80244444797522" lon="10.10578055949669" id="-51551">
		<tag k="name" v="Myr" />
		<tag k="place" v="farm" />
		<tag k="ssr:stedsnr" v="30287" />
	</node>
	<node lat="63.79913888580715" lon="9.968516659734561" id="-51552">
		<tag k="name" v="Gammelgården" />
		<tag k="place" v="farm" />
		<tag k="ssr:stedsnr" v="30291" />
	</node>
	<node lat="63.79869999783287" lon="10.044886104753331" id="-51553">
		<tag k="name" v="Vimo" />
		<tag k="place" v="farm" />
		<tag k="ssr:stedsnr" v="30293" />
	</node>
	<node lat="63.79851110897881" lon="10.027419435804715" id="-51554">
		<tag k="name" v="Kaldvollen" />
		<tag k="place" v="farm" />
		<tag k="ssr:stedsnr" v="30294" />
	</node>
	<node lat="63.74059167063283" lon="9.708961115897727" id="-51555">
		<tag k="name" v="Nyheim" />
		<tag k="place" v="farm" />
		<tag k="ssr:stedsnr" v="30303" />
	</node>
	<node lat="63.745469443610894" lon="9.807872212845247" id="-51556">
		<tag k="name" v="Skavdalslia" />
		<tag k="place" v="farm" />
		<tag k="ssr:stedsnr" v="30308" />
	</node>
	<node lat="63.79958888934782" lon="9.43033611196557" id="-51557">
		<tag k="name" v="Nordvika" />
		<tag k="place" v="farm" />
		<tag k="ssr:stedsnr" v="30310" />
	</node>
	<node lat="63.75244444637298" lon="9.717883326768355" id="-51562">
		<tag k="fixme" v="consider place=hamlet" />
		<tag k="name" v="Ervik" />
		<tag k="place" v="farm" />
		<tag k="ssr:stedsnr" v="30326" />
	</node>
	<node lat="63.73458889171137" lon="9.870411114023566" id="-51564">
		<tag k="name" v="Tussegrend" />
		<tag k="place" v="hamlet" />
		<tag k="ssr:stedsnr" v="30346" />
	</node>
	<node lat="63.78550833272426" lon="9.714874998880049" id="-51576">
		<tag k="name" v="Ryset" />
		<tag k="place" v="farm" />
		<tag k="ssr:stedsnr" v="30479" />
	</node>
	<node lat="63.7679222265977" lon="9.736766670074454" id="-51579">
		<tag k="name" v="Smedstua" />
		<tag k="place" v="farm" />
		<tag k="ssr:stedsnr" v="30790" />
	</node>
	<node lat="63.81127777490641" lon="9.699725007899312" id="-51580">
		<tag k="name" v="Rønningen" />
		<tag k="place" v="farm" />
		<tag k="ssr:stedsnr" v="30899" />
	</node>
	<node lat="63.75770555798704" lon="9.967736109688015" id="-51583">
		<tag k="name" v="Sauholet" />
		<tag k="place" v="isolated_dwelling" />
		<tag k="ssr:stedsnr" v="30574" />
	</node>
	<node lat="63.87772499166671" lon="9.810023505469687" id="-51604">
		<tag k="name" v="Madsøya" />
		<tag k="place" v="farm" />
		<tag k="ssr:stedsnr" v="30844" />
	</node>
	<node lat="63.781588887640495" lon="9.832297213892918" id="-51605">
		<tag k="name" v="Nordvang" />
		<tag k="place" v="farm" />
		<tag k="ssr:stedsnr" v="30846" />
	</node>
	<node lat="63.74756111011904" lon="9.823888884110545" id="-51606">
		<tag k="name" v="Søraker" />
		<tag k="place" v="farm" />
		<tag k="ssr:stedsnr" v="30848" />
	</node>
	<node lat="63.732441690650035" lon="9.856232472803866" id="-51607">
		<tag k="name" v="Vassbukta" />
		<tag k="place" v="farm" />
		<tag k="ssr:stedsnr" v="30851" />
	</node>
	<node lat="63.85518055469138" lon="9.887883337768548" id="-51608">
		<tag k="name" v="Åstøa" />
		<tag k="place" v="farm" />
		<tag k="ssr:stedsnr" v="30925" />
	</node>
	<node lat="63.75556389040931" lon="9.947188885839424" id="-51613">
		<tag k="name" v="Søtvika" />
		<tag k="place" v="farm" />
		<tag k="ssr:stedsnr" v="32717" />
	</node>
	<node lat="63.728727773557125" lon="9.612013890932031" id="-51614">
		<tag k="name" v="Utstrand" />
		<tag k="place" v="farm" />
		<tag k="ssr:stedsnr" v="34624" />
	</node>
	<node lat="63.719838887112836" lon="9.55109444691559" id="-51615">
		<tag k="name" v="Neset" />
		<tag k="place" v="farm" />
		<tag k="ssr:stedsnr" v="34643" />
	</node>
	<node lat="63.684752778245404" lon="9.600052769773487" id="-51616">
		<tag k="name" v="Vamman" />
		<tag k="place" v="farm" />
		<tag k="ssr:stedsnr" v="34645" />
	</node>
	<node lat="63.7120194483285" lon="9.65513055973638" id="-51617">
		<tag k="name" v="Solheim" />
		<tag k="place" v="farm" />
		<tag k="ssr:stedsnr" v="34578" />
	</node>
	<node lat="63.70921944860762" lon="9.659063885958865" id="-51618">
		<tag k="name" v="Rønneberg" />
		<tag k="place" v="farm" />
		<tag k="ssr:stedsnr" v="34581" />
	</node>
	<node lat="63.70904722215253" lon="9.780175007542727" id="-51619">
		<tag k="name" v="Ottarsbu" />
		<tag k="place" v="farm" />
		<tag k="ssr:stedsnr" v="34602" />
	</node>
	<node lat="63.704883330799404" lon="9.759472226965038" id="-51620">
		<tag k="name" v="Postmyra" />
		<tag k="place" v="isolated_dwelling" />
		<tag k="ssr:stedsnr" v="34609" />
	</node>
	<node lat="63.710222220609324" lon="9.539308331161985" id="-51621">
		<tag k="name" v="Sauvika" />
		<tag k="place" v="farm" />
		<tag k="ssr:stedsnr" v="34690" />
	</node>
	<node lat="63.7048211961853" lon="9.63975648438553" id="-51622">
		<tag k="name" v="Vik" />
		<tag k="place" v="farm" />
		<tag k="ssr:stedsnr" v="34771" />
	</node>
	<node lat="63.68173889057167" lon="9.601736112965975" id="-51623">
		<tag k="name" v="Grande" />
		<tag k="place" v="farm" />
		<tag k="ssr:stedsnr" v="34776" />
	</node>
	<node lat="63.703530551982155" lon="9.711855547203355" id="-51627">
		<tag k="name" v="Sørstrand" />
		<tag k="place" v="farm" />
		<tag k="ssr:stedsnr" v="34966" />
	</node>
	<node lat="63.72224166863444" lon="9.586502779021338" id="-51628">
		<tag k="name" v="Austheim" />
		<tag k="place" v="farm" />
		<tag k="ssr:stedsnr" v="34999" />
	</node>
	<node lat="63.73571388535513" lon="9.706144435559713" id="-51630">
		<tag k="name" v="Vonheim" />
		<tag k="place" v="farm" />
		<tag k="ssr:stedsnr" v="35895" />
	</node>
	<node lat="63.73528611362205" lon="9.650130559392666" id="-51633">
		<tag k="name" v="Graven" />
		<tag k="place" v="farm" />
		<tag k="ssr:stedsnr" v="35989" />
	</node>
	<node lat="63.68112777571011" lon="9.60426666122959" id="-51634">
		<tag k="name" v="Rabben" />
		<tag k="place" v="farm" />
		<tag k="ssr:stedsnr" v="35947" />
	</node>
	<node lat="63.765919447917184" lon="9.818716674106719" id="-51635">
		<tag k="amenity" v="school" />
		<tag k="name" v="Fosen videregående skole" />
		<tag k="ssr:stedsnr" v="42010" />
	</node>
	<node lat="63.761080554709395" lon="9.655074991138388" id="-51637">
		<tag k="name" v="Risvika hyttefelt" />
		<tag k="place" v="neighbourhood" />
		<tag k="ssr:stedsnr" v="59094" />
	</node>
	<node lat="63.8278250035424" lon="9.811144436916098" id="-51638">
		<tag k="fixme" v="consider place=hamlet" />
		<tag k="name" v="Barset" />
		<tag k="place" v="farm" />
		<tag k="ssr:stedsnr" v="60965" />
	</node>
	<node lat="63.704759066114704" lon="9.634866637720583" id="-51639">
		<tag k="fixme" v="consider place=hamlet" />
		<tag k="name" v="Vik" />
		<tag k="place" v="farm" />
		<tag k="ssr:stedsnr" v="73031" />
	</node>
	<node lat="63.67990277672752" lon="9.593424999511587" id="-51643">
		<tag k="fixme" v="consider place=hamlet" />
		<tag k="name" v="Grande" />
		<tag k="place" v="village" />
		<tag k="ssr:stedsnr" v="73041" />
	</node>
	<node lat="63.65242222499579" lon="9.420852781770744" id="-51644">
		<tag k="name" v="Våa" />
		<tag k="place" v="farm" />
		<tag k="ssr:stedsnr" v="73049" />
	</node>
	<node lat="63.85623889330255" lon="9.74083054845201" id="-51645">
		<tag k="fixme" v="consider place=hamlet" />
		<tag k="name" v="Drilen" />
		<tag k="place" v="farm" />
		<tag k="ssr:stedsnr" v="73127" />
	</node>
	<node lat="63.75694722583423" lon="9.969958343147383" id="-51647">
		<tag k="fixme" v="consider place=hamlet" />
		<tag k="name" v="Stallvika" />
		<tag k="place" v="village" />
		<tag k="ssr:stedsnr" v="73196" />
	</node>
	<node lat="63.7862972264474" lon="9.836311103092886" id="-51648">
		<tag k="fixme" v="consider place=hamlet" />
		<tag k="name" v="Ekset" />
		<tag k="place" v="farm" />
		<tag k="ssr:stedsnr" v="74213" />
	</node>
	<node lat="63.73175647345107" lon="9.855388232487478" id="-51650">
		<tag k="name" v="Nordheim" />
		<tag k="place" v="farm" />
		<tag k="ssr:stedsnr" v="74221" />
	</node>
	<node lat="63.732936115268274" lon="9.862966664645478" id="-51651">
		<tag k="name" v="Saltnes" />
		<tag k="place" v="farm" />
		<tag k="ssr:stedsnr" v="74223" />
	</node>
	<node lat="63.720663888605586" lon="9.854391668156062" id="-51652">
		<tag k="name" v="Risvika" />
		<tag k="place" v="isolated_dwelling" />
		<tag k="ssr:stedsnr" v="74235" />
	</node>
	<node lat="63.71937222564116" lon="9.823686117428535" id="-51653">
		<tag k="name" v="Eidsaunet" />
		<tag k="place" v="farm" />
		<tag k="ssr:stedsnr" v="74237" />
	</node>
	<node lat="63.82264166671488" lon="9.805230550458926" id="-51658">
		<tag k="alt_name" v="Barset;Barset, øvre" />
		<tag k="name" v="Øvre Barset" />
		<tag k="place" v="farm" />
		<tag k="ssr:stedsnr" v="74079" />
	</node>
	<node lat="63.85067499878066" lon="9.758058330986783" id="-51659">
		<tag k="fixme" v="consider place=hamlet" />
		<tag k="name" v="Sandnes" />
		<tag k="place" v="village" />
		<tag k="ssr:stedsnr" v="74098" />
	</node>
	<node lat="63.7709305571976" lon="10.045780547282872" id="-51663">
		<tag k="name" v="Ytre Dueskard" />
		<tag k="place" v="farm" />
		<tag k="ssr:stedsnr" v="74198" />
	</node>
	<node lat="63.771949998316344" lon="9.684102771768323" id="-51667">
		<tag k="name" v="Nordbo" />
		<tag k="place" v="farm" />
		<tag k="ssr:stedsnr" v="74717" />
	</node>
	<node lat="63.763930559841945" lon="9.687297219395901" id="-51670">
		<tag k="alt_name" v="Brandvik" />
		<tag k="fixme" v="consider place=hamlet" />
		<tag k="name" v="Brandvika" />
		<tag k="place" v="farm" />
		<tag k="ssr:stedsnr" v="74727" />
	</node>
	<node lat="63.71590833053278" lon="9.810752773618551" id="-51672">
		<tag k="name" v="Myrstad" />
		<tag k="place" v="farm" />
		<tag k="ssr:stedsnr" v="74785" />
	</node>
	<node lat="63.68007398330227" lon="9.606336868278282" id="-51675">
		<tag k="name" v="Leirbakken" />
		<tag k="place" v="farm" />
		<tag k="ssr:stedsnr" v="84565" />
	</node>
	<node lat="63.64286389124242" lon="9.521549991092538" id="-51676">
		<tag k="fixme" v="consider place=hamlet" />
		<tag k="name" v="Garten" />
		<tag k="place" v="village" />
		<tag k="ssr:stedsnr" v="86238" />
	</node>
	<node lat="63.77497777856461" lon="9.584855547030031" id="-51684">
		<tag k="name" v="Nordgård" />
		<tag k="place" v="farm" />
		<tag k="ssr:stedsnr" v="91273" />
	</node>
	<node lat="63.77271389168457" lon="9.592305551201862" id="-51685">
		<tag k="name" v="Bakkteigan" />
		<tag k="place" v="farm" />
		<tag k="ssr:stedsnr" v="91276" />
	</node>
	<node lat="63.798836114397965" lon="10.082402770999963" id="-51686">
		<tag k="name" v="Oppheim" />
		<tag k="place" v="farm" />
		<tag k="ssr:stedsnr" v="91284" />
	</node>
	<node lat="63.782288890723414" lon="10.001211119853705" id="-51700">
		<tag k="name" v="Nydalen" />
		<tag k="place" v="farm" />
		<tag k="ssr:stedsnr" v="91251" />
	</node>
	<node lat="63.77211388539967" lon="9.875513888572344" id="-51701">
		<tag k="name" v="Solbu" />
		<tag k="place" v="farm" />
		<tag k="ssr:stedsnr" v="91258" />
	</node>
	<node lat="63.751994443818965" lon="9.71673889624581" id="-51703">
		<tag k="name" v="Ervik" />
		<tag k="place" v="farm" />
		<tag k="ssr:stedsnr" v="91793" />
	</node>
	<node lat="63.74986389283336" lon="9.722586119521411" id="-51704">
		<tag k="name" v="Øvergård" />
		<tag k="place" v="farm" />
		<tag k="ssr:stedsnr" v="91795" />
	</node>
	<node lat="63.768913887468216" lon="9.73869721910741" id="-51705">
		<tag k="name" v="Moen" />
		<tag k="place" v="farm" />
		<tag k="ssr:stedsnr" v="91800" />
	</node>
	<node lat="63.84683055163583" lon="9.893191668214023" id="-51706">
		<tag k="name" v="Moen" />
		<tag k="place" v="farm" />
		<tag k="ssr:stedsnr" v="91946" />
	</node>
	<node lat="63.85192777717117" lon="9.867016667781783" id="-51707">
		<tag k="name" v="Stranda" />
		<tag k="place" v="farm" />
		<tag k="ssr:stedsnr" v="91949" />
	</node>
	<node lat="63.855238890906506" lon="9.877794453579522" id="-51708">
		<tag k="name" v="Skardet" />
		<tag k="place" v="farm" />
		<tag k="ssr:stedsnr" v="91951" />
	</node>
	<node lat="63.842630557980385" lon="9.856305550224976" id="-51709">
		<tag k="name" v="Audalen" />
		<tag k="place" v="farm" />
		<tag k="ssr:stedsnr" v="91952" />
	</node>
	<node lat="63.844702777760226" lon="9.866647214813918" id="-51710">
		<tag k="name" v="Nordli" />
		<tag k="place" v="farm" />
		<tag k="ssr:stedsnr" v="91954" />
	</node>
	<node lat="63.768541668294304" lon="9.872075006053942" id="-51725">
		<tag k="alt_name" v="Solem øvre" />
		<tag k="name" v="Øvre Solem" />
		<tag k="place" v="farm" />
		<tag k="ssr:stedsnr" v="91497" />
	</node>
	<node lat="63.80712222629129" lon="9.941286104593786" id="-51731">
		<tag k="name" v="Sørbotnhytta" />
		<tag k="place" v="isolated_dwelling" />
		<tag k="ssr:stedsnr" v="91557" />
	</node>
	<node lat="63.7816777799249" lon="9.99769721268875" id="-51735">
		<tag k="amenity" v="school" />
		<tag k="name" v="Gjølja skole" />
		<tag k="ssr:stedsnr" v="91633" />
	</node>
	<node lat="63.75295555208174" lon="9.930038891090977" id="-51737">
		<tag k="name" v="Høgberget" />
		<tag k="place" v="isolated_dwelling" />
		<tag k="ssr:stedsnr" v="91640" />
	</node>
	<node lat="63.757236108175135" lon="9.95855000427475" id="-51738">
		<tag k="name" v="Aunet" />
		<tag k="place" v="farm" />
		<tag k="ssr:stedsnr" v="91647" />
	</node>
	<node lat="63.85511666366776" lon="9.77025555521731" id="-51745">
		<tag k="name" v="Fauskan" />
		<tag k="place" v="farm" />
		<tag k="ssr:stedsnr" v="91731" />
	</node>
	<node lat="63.7877638927985" lon="9.77502222596573" id="-51749">
		<tag k="name" v="Fosshaug" />
		<tag k="place" v="farm" />
		<tag k="ssr:stedsnr" v="91829" />
	</node>
	<node lat="63.789991667203736" lon="9.710761103961673" id="-51750">
		<tag k="name" v="Holten" />
		<tag k="place" v="farm" />
		<tag k="ssr:stedsnr" v="91834" />
	</node>
	<node lat="63.79346666385711" lon="9.650194436558976" id="-51751">
		<tag k="name" v="Heia" />
		<tag k="place" v="farm" />
		<tag k="ssr:stedsnr" v="91839" />
	</node>
	<node lat="63.802400001809126" lon="9.664202785096041" id="-51752">
		<tag k="name" v="Fagerheim" />
		<tag k="place" v="farm" />
		<tag k="ssr:stedsnr" v="91840" />
	</node>
	<node lat="63.835774997031955" lon="9.673072217218754" id="-51753">
		<tag k="name" v="Rabben" />
		<tag k="place" v="farm" />
		<tag k="ssr:stedsnr" v="91843" />
	</node>
	<node lat="63.887519443404784" lon="9.853905564214502" id="-51754">
		<tag k="name" v="Øra" />
		<tag k="place" v="farm" />
		<tag k="ssr:stedsnr" v="91847" />
	</node>
	<node lat="63.88894722370395" lon="9.866422223065024" id="-51755">
		<tag k="name" v="Valvika" />
		<tag k="place" v="farm" />
		<tag k="ssr:stedsnr" v="91851" />
	</node>
	<node lat="63.88406388658058" lon="9.893374990018797" id="-51756">
		<tag k="name" v="Nymoen" />
		<tag k="place" v="farm" />
		<tag k="ssr:stedsnr" v="91855" />
	</node>
	<node lat="63.78241111128649" lon="9.829088891623472" id="-51757">
		<tag k="name" v="Kvolva" />
		<tag k="place" v="farm" />
		<tag k="ssr:stedsnr" v="91858" />
	</node>
	<node lat="63.6849138920733" lon="9.660736119684286" id="-51761">
		<tag k="fixme" v="consider place=hamlet" />
		<tag k="name" v="Brekstad" />
		<tag k="place" v="farm" />
		<tag k="ssr:stedsnr" v="95589" />
	</node>
	<node lat="63.69647500340831" lon="9.598411107437661" id="-51762">
		<tag k="name" v="Meldalen" />
		<tag k="place" v="farm" />
		<tag k="ssr:stedsnr" v="95636" />
	</node>
	<node lat="63.65526666959649" lon="9.372569435108627" id="-51767">
		<tag k="name" v="Holmen" />
		<tag k="place" v="farm" />
		<tag k="ssr:stedsnr" v="95684" />
	</node>
	<node lat="63.67493333134334" lon="9.401594445652709" id="-51772">
		<tag k="name" v="Solheim" />
		<tag k="place" v="farm" />
		<tag k="ssr:stedsnr" v="96797" />
	</node>
	<node lat="63.847547224585675" lon="9.818141670766561" id="-51775">
		<tag k="name" v="Leset" />
		<tag k="place" v="farm" />
		<tag k="ssr:stedsnr" v="116022" />
	</node>
	<node lat="63.75244444637298" lon="9.717883326768355" id="-51776">
		<tag k="fixme" v="consider place=hamlet" />
		<tag k="name" v="Ervik" />
		<tag k="place" v="village" />
		<tag k="ssr:stedsnr" v="121896" />
	</node>
	<node lat="63.73309722394563" lon="9.676927780563437" id="-51777">
		<tag k="name" v="Grøtan" />
		<tag k="place" v="farm" />
		<tag k="ssr:stedsnr" v="134017" />
	</node>
	<node lat="63.722647223849044" lon="9.699919444226698" id="-51779">
		<tag k="name" v="Røstad" />
		<tag k="place" v="farm" />
		<tag k="ssr:stedsnr" v="134028" />
	</node>
	<node lat="63.813138888262806" lon="10.125949990739068" id="-51780">
		<tag k="alt_name" v="Torseng" />
		<tag k="name" v="Torsenget" />
		<tag k="place" v="farm" />
		<tag k="ssr:stedsnr" v="134032" />
	</node>
	<node lat="63.679399997410584" lon="9.422950009761243" id="-51783">
		<tag k="name" v="Mønsterplassen" />
		<tag k="place" v="farm" />
		<tag k="ssr:stedsnr" v="134048" />
	</node>
	<node lat="63.8604750000885" lon="9.749522221184309" id="-51785">
		<tag k="fixme" v="consider place=hamlet" />
		<tag k="name" v="Vallersund" />
		<tag k="place" v="village" />
		<tag k="ssr:stedsnr" v="134143" />
	</node>
	<node lat="63.79941389322973" lon="10.040113892868721" id="-51787">
		<tag k="name" v="Nygård" />
		<tag k="place" v="farm" />
		<tag k="ssr:stedsnr" v="134001" />
	</node>
	<node lat="63.72273333403784" lon="9.803738884452448" id="-51796">
		<tag k="name" v="Vårtun" />
		<tag k="place" v="farm" />
		<tag k="ssr:stedsnr" v="134290" />
	</node>
	<node lat="63.87374704936776" lon="9.88534802976724" id="-51799">
		<tag k="amenity" v="school" />
		<tag k="name" v="Fagerenget Montessoriskole" />
		<tag k="ssr:stedsnr" v="134597" />
	</node>
	<node lat="63.81630833482258" lon="9.443444442148015" id="-51807">
		<tag k="name" v="Åkervika" />
		<tag k="place" v="isolated_dwelling" />
		<tag k="ssr:stedsnr" v="134689" />
	</node>
	<node lat="63.81130555998838" lon="9.664383340647158" id="-51808">
		<tag k="fixme" v="consider place=hamlet" />
		<tag k="name" v="Aune" />
		<tag k="place" v="farm" />
		<tag k="ssr:stedsnr" v="134690" />
	</node>
	<node lat="63.81268888937112" lon="9.700202781641567" id="-51814">
		<tag k="name" v="Tørrem" />
		<tag k="place" v="farm" />
		<tag k="ssr:stedsnr" v="135771" />
	</node>
	<node lat="63.75880277668219" lon="9.73086388126694" id="-51817">
		<tag k="name" v="Stranda" />
		<tag k="place" v="isolated_dwelling" />
		<tag k="ssr:stedsnr" v="151427" />
	</node>
	<node lat="63.85961944118377" lon="9.801911104187477" id="-51826">
		<tag k="name" v="Myra" />
		<tag k="place" v="farm" />
		<tag k="ssr:stedsnr" v="151890" />
	</node>
	<node lat="63.84281110770406" lon="9.689577777629607" id="-51827">
		<tag k="name" v="Skardet" />
		<tag k="place" v="farm" />
		<tag k="ssr:stedsnr" v="151891" />
	</node>
	<node lat="63.76036667026465" lon="9.616227769351411" id="-51835">
		<tag k="name" v="Tønnøl" />
		<tag k="place" v="farm" />
		<tag k="ssr:stedsnr" v="151237" />
	</node>
	<node lat="63.78354166841047" lon="9.598019435808853" id="-51846">
		<tag k="name" v="Hellem" />
		<tag k="place" v="farm" />
		<tag k="ssr:stedsnr" v="151283" />
	</node>
	<node lat="63.80804722536109" lon="10.147133333354626" id="-51847">
		<tag k="name" v="Høgset" />
		<tag k="place" v="farm" />
		<tag k="ssr:stedsnr" v="151288" />
	</node>
	<node lat="63.8010194486238" lon="10.101488883340147" id="-51848">
		<tag k="name" v="Austerli" />
		<tag k="place" v="farm" />
		<tag k="ssr:stedsnr" v="151289" />
	</node>
	<node lat="63.7961805588758" lon="10.072055562691306" id="-51849">
		<tag k="name" v="Alm" />
		<tag k="place" v="farm" />
		<tag k="ssr:stedsnr" v="151290" />
	</node>
	<node lat="63.7927111132002" lon="9.964913892447095" id="-51878">
		<tag k="name" v="Gjøljalia" />
		<tag k="place" v="farm" />
		<tag k="ssr:stedsnr" v="151578" />
	</node>
	<node lat="63.819533333610046" lon="9.631475009755166" id="-51890">
		<tag k="name" v="Valsnes" />
		<tag k="place" v="farm" />
		<tag k="ssr:stedsnr" v="151828" />
	</node>
	<node lat="63.78318611084305" lon="9.776066671507541" id="-51893">
		<tag k="name" v="Øyvang" />
		<tag k="place" v="farm" />
		<tag k="ssr:stedsnr" v="151835" />
	</node>
	<node lat="63.78175555912096" lon="9.805947229632379" id="-51894">
		<tag k="name" v="Rotbakken" />
		<tag k="place" v="farm" />
		<tag k="ssr:stedsnr" v="151838" />
	</node>
	<node lat="63.848240065381006" lon="9.85878213594163" id="-51896">
		<tag k="name" v="Asserøystranda" />
		<tag k="place" v="farm" />
		<tag k="ssr:stedsnr" v="151934" />
	</node>
	<node lat="63.842944443052716" lon="9.836722216694056" id="-51897">
		<tag k="name" v="Bakken" />
		<tag k="place" v="farm" />
		<tag k="ssr:stedsnr" v="151940" />
	</node>
	<node lat="63.738877773356265" lon="9.691730559727619" id="-51903">
		<tag k="name" v="Østmarka" />
		<tag k="place" v="farm" />
		<tag k="ssr:stedsnr" v="155870" />
	</node>
	<node lat="63.67408055753954" lon="9.399686113206544" id="-51904">
		<tag k="name" v="Nordskardet" />
		<tag k="place" v="farm" />
		<tag k="ssr:stedsnr" v="155630" />
	</node>
	<node lat="63.65193055240933" lon="9.568841664643704" id="-51905">
		<tag k="fixme" v="consider place=hamlet" />
		<tag k="name" v="Beian" />
		<tag k="place" v="farm" />
		<tag k="ssr:stedsnr" v="155693" />
	</node>
	<node lat="63.742505555933974" lon="9.688844449002767" id="-51908">
		<tag k="name" v="Østvik" />
		<tag k="place" v="farm" />
		<tag k="ssr:stedsnr" v="155872" />
	</node>
	<node lat="63.71511110771329" lon="9.63821944424048" id="-51909">
		<tag k="name" v="Røyne" />
		<tag k="place" v="farm" />
		<tag k="ssr:stedsnr" v="155973" />
	</node>
	<node lat="63.68557222515409" lon="9.605150005651648" id="-51910">
		<tag k="name" v="Falkhyttmyra" />
		<tag k="place" v="farm" />
		<tag k="ssr:stedsnr" v="155996" />
	</node>
	<node lat="63.740466667695664" lon="9.699386111289147" id="-51914">
		<tag k="name" v="Seljevollhaugen" />
		<tag k="place" v="farm" />
		<tag k="ssr:stedsnr" v="156887" />
	</node>
	<node lat="63.64367499958227" lon="9.52457499897575" id="-51916">
		<tag k="name" v="Garten" />
		<tag k="place" v="farm" />
		<tag k="ssr:stedsnr" v="156943" />
	</node>
	<node lat="63.6769166652837" lon="9.623755548479622" id="-51917">
		<tag k="name" v="Strand" />
		<tag k="place" v="farm" />
		<tag k="ssr:stedsnr" v="156958" />
	</node>
	<node lat="63.685597220704075" lon="9.650863891788845" id="-51918">
		<tag k="alt_name" v="Brekstad vestre" />
		<tag k="name" v="Vestre Brekstad" />
		<tag k="place" v="farm" />
		<tag k="ssr:stedsnr" v="156960" />
	</node>
	<node lat="63.698636112896594" lon="9.647747219684938" id="-51919">
		<tag k="name" v="Tunga" />
		<tag k="place" v="farm" />
		<tag k="ssr:stedsnr" v="156962" />
	</node>
	<node lat="63.828144440722035" lon="9.65986389656005" id="-51922">
		<tag k="name" v="Bakkavarden hyttefelt" />
		<tag k="place" v="neighbourhood" />
		<tag k="ssr:stedsnr" v="162022" />
	</node>
	<node lat="63.75725277558292" lon="9.987361117968339" id="-51923">
		<tag k="name" v="Stallvikberga hyttefelt" />
		<tag k="place" v="neighbourhood" />
		<tag k="ssr:stedsnr" v="180114" />
	</node>
	<node lat="63.670483337590994" lon="9.427888894926433" id="-51928">
		<tag k="name" v="Bertelsvika" />
		<tag k="place" v="farm" />
		<tag k="ssr:stedsnr" v="195041" />
	</node>
	<node lat="63.80442499652596" lon="10.001333343315714" id="-51931">
		<tag k="name" v="Tyssbotn" />
		<tag k="place" v="farm" />
		<tag k="ssr:stedsnr" v="195002" />
	</node>
	<node lat="63.84563055540876" lon="9.794475006125309" id="-51944">
		<tag k="name" v="Jøssund" />
		<tag k="place" v="hamlet" />
		<tag k="ssr:stedsnr" v="195111" />
	</node>
	<node lat="63.74204722282843" lon="9.844402781740413" id="-51951">
		<tag k="alt_name" v="Nordpolen" />
		<tag k="name" v="Nordpol" />
		<tag k="place" v="farm" />
		<tag k="ssr:stedsnr" v="195208" />
	</node>
	<node lat="63.75867778038992" lon="9.869413894117343" id="-51952">
		<tag k="fixme" v="consider place=hamlet" />
		<tag k="name" v="Helland" />
		<tag k="place" v="farm" />
		<tag k="ssr:stedsnr" v="195220" />
	</node>
	<node lat="63.75563055870093" lon="9.940013894201602" id="-51953">
		<tag k="fixme" v="consider place=hamlet" />
		<tag k="name" v="Søtvika" />
		<tag k="place" v="farm" />
		<tag k="ssr:stedsnr" v="195225" />
	</node>
	<node lat="63.79108333270257" lon="10.0504027827915" id="-51957">
		<tag k="fixme" v="consider place=hamlet" />
		<tag k="name" v="Varghiet" />
		<tag k="place" v="farm" />
		<tag k="ssr:stedsnr" v="195271" />
	</node>
	<node lat="63.78594444830809" lon="9.769361108676085" id="-51958">
		<tag k="fixme" v="consider place=hamlet" />
		<tag k="name" v="Kottenget" />
		<tag k="place" v="farm" />
		<tag k="ssr:stedsnr" v="195276" />
	</node>
	<node lat="63.823025004408336" lon="9.636358328836181" id="-51963">
		<tag k="name" v="Vågan" />
		<tag k="place" v="farm" />
		<tag k="ssr:stedsnr" v="195669" />
	</node>
	<node lat="63.8183083349275" lon="9.429011116850011" id="-51964">
		<tag k="alt_name" v="Nordbuen" />
		<tag k="name" v="Nordbuan" />
		<tag k="place" v="farm" />
		<tag k="ssr:stedsnr" v="195670" />
	</node>
	<node lat="63.80896110775006" lon="9.439288888603958" id="-51966">
		<tag k="name" v="Sørstøa" />
		<tag k="place" v="farm" />
		<tag k="ssr:stedsnr" v="195676" />
	</node>
	<node lat="63.75040555920059" lon="9.820899996487734" id="-51967">
		<tag k="name" v="Hegglia" />
		<tag k="place" v="farm" />
		<tag k="ssr:stedsnr" v="196183" />
	</node>
	<node lat="63.699699997052676" lon="9.737402767808643" id="-51969">
		<tag k="name" v="Skjegghaugen" />
		<tag k="place" v="farm" />
		<tag k="ssr:stedsnr" v="195794" />
	</node>
	<node lat="63.76695833597031" lon="9.69197222969986" id="-51970">
		<tag k="name" v="Solvang" />
		<tag k="place" v="farm" />
		<tag k="ssr:stedsnr" v="195753" />
	</node>
	<node lat="63.77075555556742" lon="9.562641674752" id="-51987">
		<tag k="name" v="Kjemphaugan" />
		<tag k="place" v="farm" />
		<tag k="ssr:stedsnr" v="212256" />
	</node>
	<node lat="63.815655553441" lon="10.183155555284895" id="-51988">
		<tag k="name" v="Blanktjønnhytta" />
		<tag k="place" v="isolated_dwelling" />
		<tag k="ssr:stedsnr" v="273120" />
	</node>
	<node lat="63.8835694403891" lon="9.834161108598012" id="-51995">
		<tag k="name" v="Erikplassen" />
		<tag k="place" v="isolated_dwelling" />
		<tag k="ssr:stedsnr" v="212352" />
	</node>
	<node lat="63.75340555901687" lon="9.706819451678303" id="-52008">
		<tag k="name" v="Skoglund" />
		<tag k="place" v="farm" />
		<tag k="ssr:stedsnr" v="212783" />
	</node>
	<node lat="63.72554166297322" lon="9.838005560574008" id="-52009">
		<tag k="name" v="Eid" />
		<tag k="place" v="farm" />
		<tag k="ssr:stedsnr" v="212789" />
	</node>
	<node lat="63.742627774704864" lon="9.837169453640273" id="-52012">
		<tag k="name" v="Østre Furuneset" />
		<tag k="place" v="farm" />
		<tag k="ssr:stedsnr" v="212435" />
	</node>
	<node lat="63.82746944308198" lon="9.64871943630688" id="-52037">
		<tag k="name" v="Rabben" />
		<tag k="place" v="farm" />
		<tag k="ssr:stedsnr" v="212759" />
	</node>
	<node lat="63.86826110676264" lon="9.941036118943924" id="-52040">
		<tag k="name" v="Romsgården" />
		<tag k="place" v="farm" />
		<tag k="ssr:stedsnr" v="212842" />
	</node>
	<node lat="63.891838887872105" lon="9.842594445200826" id="-52041">
		<tag k="name" v="Lysøybakken" />
		<tag k="place" v="farm" />
		<tag k="ssr:stedsnr" v="212847" />
	</node>
	<node lat="63.78005833069639" lon="9.824194450643144" id="-52042">
		<tag k="name" v="Fjellhaug" />
		<tag k="place" v="farm" />
		<tag k="ssr:stedsnr" v="212862" />
	</node>
	<node lat="63.74895277455063" lon="9.81991388337117" id="-52043">
		<tag k="name" v="Nordaker" />
		<tag k="place" v="farm" />
		<tag k="ssr:stedsnr" v="212873" />
	</node>
	<node lat="63.784369445555384" lon="9.773127770018792" id="-52045">
		<tag k="name" v="Kottenget" />
		<tag k="place" v="farm" />
		<tag k="ssr:stedsnr" v="212967" />
	</node>
	<node lat="63.67270833738665" lon="9.396880549578167" id="-52047">
		<tag k="name" v="Sørskardet" />
		<tag k="place" v="farm" />
		<tag k="ssr:stedsnr" v="213482" />
	</node>
	<node lat="63.71581944111543" lon="9.771155552328556" id="-52052">
		<tag k="name" v="Ottarsbu" />
		<tag k="place" v="farm" />
		<tag k="ssr:stedsnr" v="216596" />
	</node>
	<node lat="63.704390289903245" lon="9.74360083807287" id="-52053">
		<tag k="fixme" v="consider place=hamlet" />
		<tag k="name" v="Austrått" />
		<tag k="place" v="farm" />
		<tag k="ssr:stedsnr" v="216597" />
	</node>
	<node lat="63.706558334696105" lon="9.690919434448944" id="-52054">
		<tag k="name" v="Sandan" />
		<tag k="place" v="farm" />
		<tag k="ssr:stedsnr" v="216790" />
	</node>
	<node lat="63.722286107041946" lon="9.689855561897572" id="-52066">
		<tag k="name" v="Øyateigen" />
		<tag k="place" v="farm" />
		<tag k="ssr:stedsnr" v="217985" />
	</node>
	<node lat="63.72899722221212" lon="9.674827773067886" id="-52067">
		<tag k="name" v="Ner Revelrabben" />
		<tag k="place" v="isolated_dwelling" />
		<tag k="ssr:stedsnr" v="217987" />
	</node>
	<node lat="63.81848888581991" lon="9.424838892588955" id="-52069">
		<tag k="name" v="Nordbuaunet" />
		<tag k="place" v="isolated_dwelling" />
		<tag k="ssr:stedsnr" v="273229" />
	</node>
	<node lat="63.80375277795396" lon="10.098730552380463" id="-52071">
		<tag k="name" v="Berg" />
		<tag k="place" v="farm" />
		<tag k="ssr:stedsnr" v="273256" />
	</node>
	<node lat="63.80906944479604" lon="10.139111109960426" id="-52072">
		<tag k="name" v="Flatabø" />
		<tag k="place" v="farm" />
		<tag k="ssr:stedsnr" v="273264" />
	</node>
	<node lat="63.80102777543049" lon="9.64907777135209" id="-52077">
		<tag k="name" v="Steinvik" />
		<tag k="place" v="hamlet" />
		<tag k="ssr:stedsnr" v="273345" />
	</node>
	<node lat="63.74193611520384" lon="9.806691663910861" id="-52082">
		<tag k="name" v="Geilmyra" />
		<tag k="place" v="farm" />
		<tag k="ssr:stedsnr" v="273295" />
	</node>
	<node lat="63.87789444439972" lon="9.846855546422935" id="-52087">
		<tag k="name" v="Berget" />
		<tag k="place" v="farm" />
		<tag k="ssr:stedsnr" v="273594" />
	</node>
	<node lat="63.78379722279861" lon="9.9942583387557" id="-52097">
		<tag k="name" v="Øver-Gjølja" />
		<tag k="place" v="farm" />
		<tag k="ssr:stedsnr" v="273720" />
	</node>
	<node lat="63.67399721902447" lon="9.432955565148523" id="-52099">
		<tag k="name" v="Nordlandet" />
		<tag k="place" v="farm" />
		<tag k="ssr:stedsnr" v="273456" />
	</node>
	<node lat="63.865333336594546" lon="9.753680557758004" id="-52111">
		<tag k="name" v="Hyllneset" />
		<tag k="place" v="farm" />
		<tag k="ssr:stedsnr" v="273644" />
	</node>
	<node lat="63.78172499993447" lon="9.762752779874043" id="-52123">
		<tag k="name" v="Vassaunet" />
		<tag k="place" v="farm" />
		<tag k="ssr:stedsnr" v="273830" />
	</node>
	<node lat="63.779844441573246" lon="9.796175001836577" id="-52124">
		<tag k="name" v="Vestheim" />
		<tag k="place" v="farm" />
		<tag k="ssr:stedsnr" v="273836" />
	</node>
	<node lat="63.8882499966223" lon="9.899441673644455" id="-52125">
		<tag k="name" v="Sandan" />
		<tag k="place" v="farm" />
		<tag k="ssr:stedsnr" v="273857" />
	</node>
	<node lat="63.74911944450074" lon="9.727919438171417" id="-52126">
		<tag k="name" v="Litllia" />
		<tag k="place" v="farm" />
		<tag k="ssr:stedsnr" v="273799" />
	</node>
	<node lat="63.76315277779888" lon="9.820758342383911" id="-52127">
		<tag k="fixme" v="consider place=hamlet" />
		<tag k="name" v="Brekka" />
		<tag k="place" v="farm" />
		<tag k="ssr:stedsnr" v="273885" />
	</node>
	<node lat="63.81473055177583" lon="9.678824997405085" id="-52128">
		<tag k="fixme" v="consider place=hamlet" />
		<tag k="name" v="Oksvoll" />
		<tag k="place" v="farm" />
		<tag k="ssr:stedsnr" v="273899" />
	</node>
	<node lat="63.826713891136684" lon="9.66562778594779" id="-52129">
		<tag k="name" v="Bakkan" />
		<tag k="place" v="farm" />
		<tag k="ssr:stedsnr" v="273918" />
	</node>
	<node lat="63.86445832980232" lon="9.854574992125418" id="-52130">
		<tag k="name" v="Hersålan" />
		<tag k="place" v="farm" />
		<tag k="ssr:stedsnr" v="273934" />
	</node>
	<node lat="63.887897224891425" lon="9.79556666820162" id="-52131">
		<tag k="fixme" v="consider place=hamlet" />
		<tag k="name" v="Skjørøy" />
		<tag k="place" v="farm" />
		<tag k="ssr:stedsnr" v="273942" />
	</node>
	<node lat="63.84781667048024" lon="9.899238879833216" id="-52132">
		<tag k="name" v="Teksdal" />
		<tag k="place" v="farm" />
		<tag k="ssr:stedsnr" v="273946" />
	</node>
	<node lat="63.652163891159184" lon="9.39148610681366" id="-52135">
		<tag k="name" v="Steinan" />
		<tag k="place" v="farm" />
		<tag k="ssr:stedsnr" v="274401" />
	</node>
	<node lat="63.744633330555445" lon="9.830686111785239" id="-52139">
		<tag k="name" v="Furuneset" />
		<tag k="place" v="farm" />
		<tag k="ssr:stedsnr" v="275949" />
	</node>
	<node lat="63.71521110941354" lon="9.6284055636259" id="-52140">
		<tag k="name" v="Fagertun" />
		<tag k="place" v="farm" />
		<tag k="ssr:stedsnr" v="277599" />
	</node>
	<node lat="63.68929166667392" lon="9.653819445629912" id="-52141">
		<tag k="name" v="Kringsjå" />
		<tag k="place" v="farm" />
		<tag k="ssr:stedsnr" v="277627" />
	</node>
	<node lat="63.71181944895801" lon="9.629822213731245" id="-52142">
		<tag k="name" v="Røyne" />
		<tag k="place" v="farm" />
		<tag k="ssr:stedsnr" v="277648" />
	</node>
	<node lat="63.726742175737705" lon="9.622843868627058" id="-52143">
		<tag k="fixme" v="consider place=hamlet" />
		<tag k="name" v="Utstrand" />
		<tag k="place" v="farm" />
		<tag k="ssr:stedsnr" v="277652" />
	</node>
	<node lat="63.7315611100796" lon="9.696422226757294" id="-52144">
		<tag k="name" v="Opphaug" />
		<tag k="place" v="farm" />
		<tag k="ssr:stedsnr" v="277654" />
	</node>
	<node lat="63.73468333677379" lon="9.678486102100328" id="-52145">
		<tag k="name" v="Småhaugan" />
		<tag k="place" v="farm" />
		<tag k="ssr:stedsnr" v="277663" />
	</node>
	<node lat="63.71300000319661" lon="9.573947216439066" id="-52146">
		<tag k="name" v="Frigård" />
		<tag k="place" v="farm" />
		<tag k="ssr:stedsnr" v="277664" />
	</node>
	<node lat="63.69132777678576" lon="9.657488895415353" id="-52150">
		<tag k="leisure" v="pitch" />
		<tag k="name" v="Ørland stadion" />
		<tag k="ssr:stedsnr" v="278791" />
	</node>
	<node lat="63.710152775942305" lon="9.685533332023935" id="-52154">
		<tag k="name" v="Hovin" />
		<tag k="place" v="farm" />
		<tag k="ssr:stedsnr" v="278986" />
	</node>
	<node lat="63.672836110230676" lon="9.586536107051698" id="-52155">
		<tag k="name" v="Ørland camping" />
		<tag k="old_name" v="Grande skole" />
		<tag k="ssr:stedsnr" v="278958" />
		<tag k="tourism" v="camp_site" />
	</node>
	<node lat="63.73149444508911" lon="9.675555551343558" id="-52157">
		<tag k="name" v="Grøtan" />
		<tag k="place" v="farm" />
		<tag k="ssr:stedsnr" v="278990" />
	</node>
	<node lat="63.75821388857506" lon="9.982022217404351" id="-52159">
		<tag k="fixme" v="consider place=hamlet" />
		<tag k="name" v="Stallvika" />
		<tag k="place" v="farm" />
		<tag k="ssr:stedsnr" v="303967" />
	</node>
	<node lat="63.72587500080549" lon="9.622533336023286" id="-52160">
		<tag k="name" v="Utstrand" />
		<tag k="place" v="hamlet" />
		<tag k="ssr:stedsnr" v="316012" />
	</node>
	<node lat="63.8057027752768" lon="10.1069111205705" id="-52161">
		<tag k="name" v="Elveng" />
		<tag k="place" v="farm" />
		<tag k="ssr:stedsnr" v="316016" />
	</node>
	<node lat="63.70649444285262" lon="9.733916665718088" id="-52164">
		<tag k="alt_name" v="Bogen" />
		<tag k="name" v="Borga" />
		<tag k="place" v="farm" />
		<tag k="ssr:stedsnr" v="316840" />
	</node>
	<node lat="63.84863984837644" lon="9.85980184513183" id="-52168">
		<tag k="name" v="Stranda" />
		<tag k="place" v="hamlet" />
		<tag k="ssr:stedsnr" v="316089" />
	</node>
	<node lat="63.84464722144406" lon="9.736455554596507" id="-52169">
		<tag k="alt_name" v="Kverngjerdet" />
		<tag k="name" v="Kvenngjerdet" />
		<tag k="place" v="isolated_dwelling" />
		<tag k="ssr:stedsnr" v="316100" />
	</node>
	<node lat="63.87047222676783" lon="9.933266662679731" id="-52171">
		<tag k="alt_name" v="Oldgrenda" />
		<tag k="name" v="Olden" />
		<tag k="place" v="hamlet" />
		<tag k="ssr:stedsnr" v="316138" />
	</node>
	<node lat="63.70208888715239" lon="9.714322224633316" id="-52172">
		<tag k="name" v="Fitjan" />
		<tag k="place" v="hamlet" />
		<tag k="ssr:stedsnr" v="316025" />
	</node>
	<node lat="63.662655555101175" lon="9.377144449802612" id="-52176">
		<tag k="name" v="Skaget" />
		<tag k="place" v="farm" />
		<tag k="ssr:stedsnr" v="316039" />
	</node>
	<node lat="63.768802778681945" lon="9.742127784150567" id="-52180">
		<tag k="name" v="Myrskardet" />
		<tag k="place" v="farm" />
		<tag k="ssr:stedsnr" v="316232" />
	</node>
	<node lat="63.718713887387395" lon="9.757108336856232" id="-52183">
		<tag k="name" v="Myrenget" />
		<tag k="place" v="farm" />
		<tag k="ssr:stedsnr" v="316272" />
	</node>
	<node lat="63.7797361084919" lon="9.578036117371644" id="-52187">
		<tag k="fixme" v="consider place=hamlet" />
		<tag k="name" v="Djupfest" />
		<tag k="place" v="farm" />
		<tag k="ssr:stedsnr" v="316679" />
	</node>
	<node lat="63.80412499574752" lon="9.636847218603252" id="-52189">
		<tag k="name" v="Bekkavika" />
		<tag k="place" v="farm" />
		<tag k="ssr:stedsnr" v="316686" />
	</node>
	<node lat="63.751208335934685" lon="9.776358332786947" id="-52193">
		<tag k="name" v="Frødalen" />
		<tag k="place" v="farm" />
		<tag k="ssr:stedsnr" v="317163" />
	</node>
	<node lat="63.70901110776651" lon="9.729733339255917" id="-52194">
		<tag k="name" v="Lundasletta" />
		<tag k="place" v="farm" />
		<tag k="ssr:stedsnr" v="317732" />
	</node>
	<node lat="63.76060277886146" lon="9.850369439048386" id="-52195">
		<tag k="name" v="Slættet" />
		<tag k="place" v="farm" />
		<tag k="ssr:stedsnr" v="317735" />
	</node>
	<node lat="63.80184721988068" lon="10.071516668586193" id="-52204">
		<tag k="name" v="Nordeng" />
		<tag k="place" v="farm" />
		<tag k="ssr:stedsnr" v="333311" />
	</node>
	<node lat="63.80323888927892" lon="10.108908343129071" id="-52205">
		<tag k="name" v="Foss" />
		<tag k="place" v="farm" />
		<tag k="ssr:stedsnr" v="333313" />
	</node>
	<node lat="63.758738889938115" lon="9.632563889928642" id="-52209">
		<tag k="name" v="Tønnølsstranda" />
		<tag k="place" v="farm" />
		<tag k="ssr:stedsnr" v="333267" />
	</node>
	<node lat="63.78241111075347" lon="9.997355555371131" id="-52210">
		<tag k="name" v="Dalberg" />
		<tag k="place" v="farm" />
		<tag k="ssr:stedsnr" v="333274" />
	</node>
	<node lat="63.78960555261971" lon="9.963719447363871" id="-52211">
		<tag k="name" v="Slettvoll" />
		<tag k="place" v="farm" />
		<tag k="ssr:stedsnr" v="333281" />
	</node>
	<node lat="63.814672217897524" lon="10.103200005092539" id="-52213">
		<tag k="name" v="Nordslett" />
		<tag k="place" v="farm" />
		<tag k="ssr:stedsnr" v="333295" />
	</node>
	<node lat="63.755924998499715" lon="9.961886106212068" id="-52218">
		<tag k="name" v="Moan" />
		<tag k="place" v="isolated_dwelling" />
		<tag k="ssr:stedsnr" v="333579" />
	</node>
	<node lat="63.75398332973788" lon="9.711055561054108" id="-52223">
		<tag k="name" v="Bakken" />
		<tag k="place" v="farm" />
		<tag k="ssr:stedsnr" v="333771" />
	</node>
	<node lat="63.786202777446974" lon="9.809758326845547" id="-52224">
		<tag k="name" v="Bergli" />
		<tag k="place" v="farm" />
		<tag k="ssr:stedsnr" v="333773" />
	</node>
	<node lat="63.76563333592593" lon="9.736480555069612" id="-52225">
		<tag k="name" v="Bergheim" />
		<tag k="place" v="farm" />
		<tag k="ssr:stedsnr" v="333779" />
	</node>
	<node lat="63.86334166708145" lon="9.733836121231745" id="-52227">
		<tag k="name" v="Åsheim" />
		<tag k="place" v="farm" />
		<tag k="ssr:stedsnr" v="333633" />
	</node>
	<node lat="63.78378333549025" lon="9.837441670334321" id="-52231">
		<tag k="name" v="Nordset" />
		<tag k="place" v="farm" />
		<tag k="ssr:stedsnr" v="333844" />
	</node>
	<node lat="63.845458330267576" lon="10.181061111268779" id="-52236">
		<tag k="historic" v="shieling" />
		<tag k="name" v="Inner Torsenget" />
		<tag k="place" v="isolated_dwelling" />
		<tag k="ssr:stedsnr" v="334076" />
	</node>
	<node lat="63.81552222607252" lon="9.716666665263746" id="-52260">
		<tag k="name" v="Østheim" />
		<tag k="place" v="farm" />
		<tag k="ssr:stedsnr" v="334865" />
	</node>
	<node lat="63.722413887487356" lon="9.619263891134207" id="-52261">
		<tag k="name" v="Husa" />
		<tag k="place" v="farm" />
		<tag k="ssr:stedsnr" v="337666" />
	</node>
	<node lat="63.69532777751027" lon="9.597405556125313" id="-52262">
		<tag k="name" v="Grønbakken" />
		<tag k="place" v="farm" />
		<tag k="ssr:stedsnr" v="337667" />
	</node>
	<node lat="63.71838333688818" lon="9.65248889668525" id="-52263">
		<tag k="name" v="Aune" />
		<tag k="place" v="farm" />
		<tag k="ssr:stedsnr" v="337611" />
	</node>
	<node lat="63.724730553664095" lon="9.652672229800823" id="-52264">
		<tag k="name" v="Solstad" />
		<tag k="place" v="farm" />
		<tag k="ssr:stedsnr" v="337617" />
	</node>
	<node lat="63.70117499619117" lon="9.639394449674047" id="-52265">
		<tag k="name" v="Vik" />
		<tag k="place" v="farm" />
		<tag k="ssr:stedsnr" v="337627" />
	</node>
	<node lat="63.7021583377271" lon="9.715263893376395" id="-52266">
		<tag k="name" v="Fagerlund" />
		<tag k="place" v="farm" />
		<tag k="ssr:stedsnr" v="337821" />
	</node>
	<node lat="63.68181111008665" lon="9.659777780691053" id="-52270">
		<tag k="name" v="Hovde" />
		<tag k="place" v="farm" />
		<tag k="ssr:stedsnr" v="338806" />
	</node>
	<node lat="63.67779999975873" lon="9.612116669341885" id="-52272">
		<tag k="name" v="Flatneset" />
		<tag k="place" v="farm" />
		<tag k="ssr:stedsnr" v="338935" />
	</node>
	<node lat="63.69998889182093" lon="9.664713894854877" id="-52274">
		<tag k="name" v="Solem" />
		<tag k="place" v="farm" />
		<tag k="ssr:stedsnr" v="338954" />
	</node>
	<node lat="63.70800833749065" lon="9.664236115746338" id="-52275">
		<tag k="name" v="Haug" />
		<tag k="place" v="farm" />
		<tag k="ssr:stedsnr" v="338968" />
	</node>
	<node lat="63.7054638892597" lon="9.635055555832736" id="-52276">
		<tag k="name" v="Vik" />
		<tag k="place" v="farm" />
		<tag k="ssr:stedsnr" v="338973" />
	</node>
	<node lat="63.73826111484063" lon="9.676602774316276" id="-52277">
		<tag k="name" v="Døsvika" />
		<tag k="place" v="farm" />
		<tag k="ssr:stedsnr" v="338988" />
	</node>
	<node lat="63.77111666586307" lon="9.821522219804407" id="-52278">
		<tag k="name" v="Prestdalen boligfelt" />
		<tag k="place" v="quarter" />
		<tag k="ssr:stedsnr" v="362111" />
	</node>
	<node lat="63.7706250003302" lon="9.803622221185229" id="-52279">
		<tag k="name" v="Tjuvskardmyra boligfelt" />
		<tag k="place" v="quarter" />
		<tag k="ssr:stedsnr" v="362114" />
	</node>
	<node lat="63.843142253522004" lon="9.700341440691997" id="-52280">
		<tag k="name" v="Melem" />
		<tag k="place" v="hamlet" />
		<tag k="ssr:stedsnr" v="363942" />
	</node>
	<node lat="63.923555558606914" lon="9.758530547238914" id="-52281">
		<tag k="fixme" v="consider place=hamlet" />
		<tag k="name" v="Asen" />
		<tag k="place" v="farm" />
		<tag k="ssr:stedsnr" v="363943" />
	</node>
	<node lat="63.716899996481565" lon="9.64445833968177" id="-52283">
		<tag k="name" v="Aune" />
		<tag k="place" v="farm" />
		<tag k="ssr:stedsnr" v="376028" />
	</node>
	<node lat="63.71465000026354" lon="9.714963878976071" id="-52285">
		<tag k="name" v="Vestrått" />
		<tag k="place" v="hamlet" />
		<tag k="ssr:stedsnr" v="376030" />
	</node>
	<node lat="63.72081693640643" lon="9.645209544848505" id="-52291">
		<tag k="fixme" v="consider place=hamlet" />
		<tag k="name" v="Ryggen" />
		<tag k="place" v="farm" />
		<tag k="ssr:stedsnr" v="376021" />
	</node>
	<node lat="63.800036111311634" lon="10.094302776808677" id="-52304">
		<tag k="name" v="Haugen" />
		<tag k="place" v="farm" />
		<tag k="ssr:stedsnr" v="377221" />
	</node>
	<node lat="63.79094721781438" lon="9.837625007209393" id="-52305">
		<tag k="fixme" v="consider place=hamlet" />
		<tag k="name" v="Grova" />
		<tag k="place" v="farm" />
		<tag k="ssr:stedsnr" v="377224" />
	</node>
	<node lat="63.71876110914168" lon="9.725369443702185" id="-52307">
		<tag k="alt_name" v="Nydalen" />
		<tag k="name" v="Nydal" />
		<tag k="place" v="farm" />
		<tag k="ssr:stedsnr" v="377232" />
	</node>
	<node lat="63.798483329232745" lon="9.42605277563411" id="-52310">
		<tag k="alt_name" v="Sørvika" />
		<tag k="name" v="Sørvik" />
		<tag k="place" v="farm" />
		<tag k="ssr:stedsnr" v="377646" />
	</node>
	<node lat="63.79570555880836" lon="9.630402768932523" id="-52312">
		<tag k="name" v="Nyvoll" />
		<tag k="place" v="isolated_dwelling" />
		<tag k="ssr:stedsnr" v="377650" />
	</node>
	<node lat="63.70991666471498" lon="9.728036105926275" id="-52318">
		<tag k="alt_name" v="Skogheim" />
		<tag k="name" v="Skoglund" />
		<tag k="place" v="farm" />
		<tag k="ssr:stedsnr" v="377771" />
	</node>
	<node lat="63.716566663151276" lon="9.798888881995754" id="-52319">
		<tag k="name" v="Kalvåbakken" />
		<tag k="place" v="farm" />
		<tag k="ssr:stedsnr" v="377780" />
	</node>
	<node lat="63.68048626987569" lon="9.59148122166529" id="-52324">
		<tag k="name" v="Viken" />
		<tag k="place" v="farm" />
		<tag k="ssr:stedsnr" v="387573" />
	</node>
	<node lat="63.720476636788284" lon="9.602749255629721" id="-52325">
		<tag k="name" v="Hagen" />
		<tag k="place" v="farm" />
		<tag k="ssr:stedsnr" v="387575" />
	</node>
	<node lat="63.713905557056805" lon="9.714538896666848" id="-52326">
		<tag k="name" v="Vestrått" />
		<tag k="place" v="farm" />
		<tag k="ssr:stedsnr" v="389226" />
	</node>
	<node lat="63.80024115960545" lon="10.061907655371593" id="-52338">
		<tag k="name" v="Midtli" />
		<tag k="place" v="farm" />
		<tag k="ssr:stedsnr" v="394273" />
	</node>
	<node lat="63.74825833522465" lon="9.720111101151625" id="-52340">
		<tag k="name" v="Heim" />
		<tag k="place" v="farm" />
		<tag k="ssr:stedsnr" v="394283" />
	</node>
	<node lat="63.73869721806194" lon="9.71255278100967" id="-52341">
		<tag k="name" v="Nysetvollen" />
		<tag k="place" v="farm" />
		<tag k="ssr:stedsnr" v="394284" />
	</node>
	<node lat="63.739277779900505" lon="9.809124992206904" id="-52342">
		<tag k="name" v="Fjellstad" />
		<tag k="place" v="farm" />
		<tag k="ssr:stedsnr" v="394286" />
	</node>
	<node lat="63.721655554722254" lon="9.845108338978068" id="-52357">
		<tag k="name" v="Strandheim" />
		<tag k="place" v="isolated_dwelling" />
		<tag k="ssr:stedsnr" v="394431" />
	</node>
	<node lat="63.67083055778084" lon="9.413911104946589" id="-52365">
		<tag k="name" v="Torbuvoll" />
		<tag k="place" v="farm" />
		<tag k="ssr:stedsnr" v="394475" />
	</node>
	<node lat="63.749394445337714" lon="9.71569443506525" id="-52376">
		<tag k="name" v="Bjørgan" />
		<tag k="place" v="farm" />
		<tag k="ssr:stedsnr" v="394774" />
	</node>
	<node lat="63.88990555879629" lon="9.866025002801429" id="-52377">
		<tag k="name" v="Veavika" />
		<tag k="place" v="farm" />
		<tag k="ssr:stedsnr" v="394852" />
	</node>
	<node lat="63.88352287015455" lon="9.859823008701674" id="-52378">
		<tag k="name" v="Lysøysund" />
		<tag k="place" v="farm" />
		<tag k="ssr:stedsnr" v="394853" />
	</node>
	<node lat="63.866347219721746" lon="9.85386666989175" id="-52380">
		<tag k="name" v="Grindfaret" />
		<tag k="place" v="farm" />
		<tag k="ssr:stedsnr" v="394925" />
	</node>
	<node lat="63.71591944662133" lon="9.642311103017995" id="-52383">
		<tag k="name" v="Røyne" />
		<tag k="place" v="farm" />
		<tag k="ssr:stedsnr" v="398625" />
	</node>
	<node lat="63.72676111436999" lon="9.693308339237802" id="-52391">
		<tag k="amenity" v="school" />
		<tag k="name" v="Opphaug skole" />
		<tag k="ssr:stedsnr" v="399749" />
	</node>
	<node lat="63.711908333770126" lon="9.716508338140379" id="-52392">
		<tag k="leisure" v="pitch" />
		<tag k="name" v="Skoglund travbane" />
		<tag k="ssr:stedsnr" v="399771" />
	</node>
	<node lat="63.73118333350418" lon="9.692524991330991" id="-52396">
		<tag k="name" v="Elvenden" />
		<tag k="place" v="farm" />
		<tag k="ssr:stedsnr" v="399871" />
	</node>
	<node lat="63.729011110897154" lon="9.643005560500766" id="-52397">
		<tag k="name" v="Myrvang" />
		<tag k="place" v="farm" />
		<tag k="ssr:stedsnr" v="399875" />
	</node>
	<node lat="63.81507777586774" lon="10.14376388646065" id="-52399">
		<tag k="name" v="Granås" />
		<tag k="place" v="farm" />
		<tag k="ssr:stedsnr" v="406918" />
	</node>
	<node lat="63.88254268997528" lon="9.860940190747959" id="-52400">
		<tag k="fixme" v="consider place=hamlet" />
		<tag k="name" v="Lysøysund" />
		<tag k="place" v="farm" />
		<tag k="ssr:stedsnr" v="416283" />
	</node>
	<node lat="63.8779139667945" lon="9.810925257916818" id="-52401">
		<tag k="fixme" v="consider place=hamlet" />
		<tag k="name" v="Madsøya" />
		<tag k="place" v="farm" />
		<tag k="ssr:stedsnr" v="420170" />
	</node>
	<node lat="63.76960106065636" lon="9.810943033732503" id="-52402">
		<tag k="name" v="Botngård" />
		<tag k="place" v="farm" />
		<tag k="ssr:stedsnr" v="424876" />
	</node>
	<node lat="63.74505277893472" lon="9.813797223121117" id="-52403">
		<tag k="fixme" v="consider place=hamlet" />
		<tag k="name" v="Skavdalen" />
		<tag k="place" v="village" />
		<tag k="ssr:stedsnr" v="424882" />
	</node>
	<node lat="63.761038885894884" lon="9.776041665816559" id="-52405">
		<tag k="fixme" v="consider place=hamlet" />
		<tag k="name" v="Stuaneset" />
		<tag k="place" v="farm" />
		<tag k="ssr:stedsnr" v="437222" />
	</node>
	<node lat="63.81203610919802" lon="10.094158329804838" id="-52406">
		<tag k="alt_name" v="Stuavoll" />
		<tag k="name" v="Stuevoll" />
		<tag k="place" v="farm" />
		<tag k="ssr:stedsnr" v="437020" />
	</node>
	<node lat="63.713935539470384" lon="9.629911121344554" id="-52408">
		<tag k="fixme" v="consider place=hamlet" />
		<tag k="name" v="Røyne" />
		<tag k="place" v="farm" />
		<tag k="ssr:stedsnr" v="437029" />
	</node>
	<node lat="63.71081883648749" lon="9.693829018120937" id="-52409">
		<tag k="name" v="Balsnes" />
		<tag k="place" v="farm" />
		<tag k="ssr:stedsnr" v="437031" />
	</node>
	<node lat="63.80673333104426" lon="10.11309167435178" id="-52414">
		<tag k="alt_name" v="Lauvli" />
		<tag k="name" v="Løvli" />
		<tag k="place" v="farm" />
		<tag k="ssr:stedsnr" v="438014" />
	</node>
	<node lat="63.70833055771738" lon="9.738152769966536" id="-52419">
		<tag k="name" v="Heimstad" />
		<tag k="place" v="farm" />
		<tag k="ssr:stedsnr" v="437791" />
	</node>
	<node lat="63.705455177536145" lon="9.74596638911827" id="-52420">
		<tag k="alt_name" v="Austrått gård" />
		<tag k="name" v="Austrått" />
		<tag k="place" v="farm" />
		<tag k="ssr:stedsnr" v="437793" />
	</node>
	<node lat="63.856963890091926" lon="9.859502769584706" id="-52425">
		<tag k="name" v="Valen" />
		<tag k="place" v="farm" />
		<tag k="ssr:stedsnr" v="438091" />
	</node>
	<node lat="63.763513884419936" lon="10.028719450734568" id="-52428">
		<tag k="fixme" v="consider place=hamlet" />
		<tag k="name" v="Kippneset" />
		<tag k="place" v="farm" />
		<tag k="ssr:stedsnr" v="438176" />
	</node>
	<node lat="63.73328610709931" lon="9.722744445507253" id="-52430">
		<tag k="name" v="Reitan" />
		<tag k="place" v="farm" />
		<tag k="ssr:stedsnr" v="438196" />
	</node>
	<node lat="63.768150004413506" lon="9.778833329959319" id="-52431">
		<tag k="fixme" v="consider place=hamlet" />
		<tag k="name" v="Karlestranda" />
		<tag k="place" v="farm" />
		<tag k="ssr:stedsnr" v="438201" />
	</node>
	<node lat="63.79228610988755" lon="9.992247226446922" id="-52434">
		<tag k="name" v="Nysæter" />
		<tag k="place" v="farm" />
		<tag k="ssr:stedsnr" v="438235" />
	</node>
	<node lat="63.718038886492046" lon="9.772677776305606" id="-52435">
		<tag k="name" v="Fjellstad" />
		<tag k="place" v="farm" />
		<tag k="ssr:stedsnr" v="438236" />
	</node>
	<node lat="63.798719446626095" lon="9.616750001875198" id="-52439">
		<tag k="alt_name" v="Hellemsvikan" />
		<tag k="name" v="Hellemsvika" />
		<tag k="place" v="farm" />
		<tag k="ssr:stedsnr" v="438668" />
	</node>
	<node lat="63.76652499957339" lon="9.578291669135279" id="-52443">
		<tag k="name" v="Berg" />
		<tag k="place" v="farm" />
		<tag k="ssr:stedsnr" v="438740" />
	</node>
	<node lat="63.71301944547519" lon="9.575788895307255" id="-52447">
		<tag k="name" v="Frigård" />
		<tag k="place" v="farm" />
		<tag k="ssr:stedsnr" v="448580" />
	</node>
	<node lat="63.650080559527744" lon="9.41372500760901" id="-52449">
		<tag k="name" v="Oksbåsen" />
		<tag k="place" v="isolated_dwelling" />
		<tag k="ssr:stedsnr" v="498059" />
	</node>
	<node lat="63.83273333558323" lon="9.881813892496252" id="-52450">
		<tag k="name" v="Setra" />
		<tag k="place" v="farm" />
		<tag k="ssr:stedsnr" v="498072" />
	</node>
	<node lat="63.72203611110795" lon="9.658299994545743" id="-52452">
		<tag k="name" v="Kleiva" />
		<tag k="place" v="farm" />
		<tag k="ssr:stedsnr" v="498019" />
	</node>
	<node lat="63.807630551377464" lon="10.131558340931969" id="-52453">
		<tag k="name" v="Langeng" />
		<tag k="place" v="farm" />
		<tag k="ssr:stedsnr" v="498023" />
	</node>
	<node lat="63.69689166417973" lon="9.639938895491081" id="-52455">
		<tag k="fixme" v="consider place=hamlet" />
		<tag k="name" v="Hårberg" />
		<tag k="place" v="village" />
		<tag k="ssr:stedsnr" v="498032" />
	</node>
	<node lat="63.692077057594965" lon="9.649928933701707" id="-52456">
		<tag k="alt_name" v="Viklem" />
		<tag k="fixme" v="consider place=hamlet" />
		<tag k="name" v="Veklem" />
		<tag k="place" v="farm" />
		<tag k="ssr:stedsnr" v="498035" />
	</node>
	<node lat="63.68466666792276" lon="9.414091664527525" id="-52457">
		<tag k="fixme" v="multiple name tags, choose one and add the other to alt_name" />
		<tag k="name" v="Lyngholmen;Berge" />
		<tag k="place" v="farm" />
		<tag k="ssr:stedsnr" v="498037" />
	</node>
	<node lat="63.84525277734075" lon="10.180997222364828" id="-52459">
		<tag k="name" v="Torsenget" />
		<tag k="place" v="isolated_dwelling" />
		<tag k="ssr:stedsnr" v="498092" />
	</node>
	<node lat="63.8553055532476" lon="9.777975002799893" id="-52460">
		<tag k="fixme" v="consider place=hamlet" />
		<tag k="name" v="Fauskan" />
		<tag k="place" v="village" />
		<tag k="ssr:stedsnr" v="498128" />
	</node>
	<node lat="63.76264444482803" lon="9.97280832365025" id="-52461">
		<tag k="name" v="Oldren" />
		<tag k="place" v="farm" />
		<tag k="ssr:stedsnr" v="498225" />
	</node>
	<node lat="63.734550002328035" lon="9.873730554023613" id="-52467">
		<tag k="fixme" v="consider place=hamlet" />
		<tag k="name" v="Høybakken" />
		<tag k="place" v="village" />
		<tag k="ssr:stedsnr" v="498270" />
	</node>
	<node lat="63.74263888625774" lon="9.864416665663907" id="-52468">
		<tag k="name" v="Bjørnstad" />
		<tag k="place" v="farm" />
		<tag k="ssr:stedsnr" v="498271" />
	</node>
	<node lat="63.79048888896269" lon="9.967794440075336" id="-52471">
		<tag k="name" v="Slættet" />
		<tag k="place" v="farm" />
		<tag k="ssr:stedsnr" v="498287" />
	</node>
	<node lat="63.75673611021837" lon="9.793233336767742" id="-52472">
		<tag k="fixme" v="consider place=hamlet" />
		<tag k="name" v="Klakken" />
		<tag k="place" v="farm" />
		<tag k="ssr:stedsnr" v="498234" />
	</node>
	<node lat="63.75933190283118" lon="9.808033666535279" id="-52473">
		<tag k="fixme" v="consider place=hamlet" />
		<tag k="name" v="Sæter" />
		<tag k="place" v="farm" />
		<tag k="ssr:stedsnr" v="498236" />
	</node>
	<node lat="63.81669167007329" lon="9.401363879902899" id="-52479">
		<tag k="name" v="Grønndalen" />
		<tag k="place" v="farm" />
		<tag k="ssr:stedsnr" v="498705" />
	</node>
	<node lat="63.82895833433113" lon="9.67597778102849" id="-52482">
		<tag k="fixme" v="consider place=hamlet" />
		<tag k="name" v="Val" />
		<tag k="place" v="village" />
		<tag k="ssr:stedsnr" v="498714" />
	</node>
	<node lat="63.67071481521627" lon="9.581271609225269" id="-52490">
		<tag k="name" v="Markagården" />
		<tag k="place" v="farm" />
		<tag k="ssr:stedsnr" v="509487" />
	</node>
	<node lat="63.862811111702804" lon="9.752016665753334" id="-52491">
		<tag k="name" v="Magasinet" />
		<tag k="place" v="locality" />
		<tag k="ssr:stedsnr" v="515648" />
	</node>
	<node lat="63.80045277877716" lon="9.666794452715276" id="-52494">
		<tag k="name" v="Nyheim" />
		<tag k="place" v="farm" />
		<tag k="ssr:stedsnr" v="515836" />
	</node>
	<node lat="63.78889722066557" lon="9.599144435686293" id="-52513">
		<tag k="name" v="Brekkan" />
		<tag k="place" v="farm" />
		<tag k="ssr:stedsnr" v="515270" />
	</node>
	<node lat="63.74758055375339" lon="9.709097224138993" id="-52514">
		<tag k="name" v="Austrått" />
		<tag k="place" v="farm" />
		<tag k="ssr:stedsnr" v="515290" />
	</node>
	<node lat="63.74476388990776" lon="9.6937027836076" id="-52515">
		<tag k="name" v="Aspervoll" />
		<tag k="place" v="farm" />
		<tag k="ssr:stedsnr" v="515291" />
	</node>
	<node lat="63.744136110427455" lon="9.71284444036476" id="-52516">
		<tag k="name" v="Nordheim" />
		<tag k="place" v="farm" />
		<tag k="ssr:stedsnr" v="515295" />
	</node>
	<node lat="63.84694167112877" lon="9.852308341430678" id="-52534">
		<tag k="name" v="Skjeret" />
		<tag k="place" v="farm" />
		<tag k="ssr:stedsnr" v="515575" />
	</node>
	<node lat="63.72188333515218" lon="9.822211115773179" id="-52543">
		<tag k="name" v="Øverås" />
		<tag k="place" v="farm" />
		<tag k="ssr:stedsnr" v="515785" />
	</node>
	<node lat="63.747016665246875" lon="9.817119445880007" id="-52548">
		<tag k="name" v="Skogan" />
		<tag k="place" v="farm" />
		<tag k="ssr:stedsnr" v="515852" />
	</node>
	<node lat="63.80682499682053" lon="9.437061101757603" id="-52555">
		<tag k="name" v="Sørstøa" />
		<tag k="place" v="farm" />
		<tag k="ssr:stedsnr" v="516386" />
	</node>
	<node lat="63.78278333520117" lon="9.71633333415153" id="-52563">
		<tag k="name" v="Solhaug" />
		<tag k="place" v="farm" />
		<tag k="ssr:stedsnr" v="516828" />
	</node>
	<node lat="63.88183610864616" lon="9.853469450554277" id="-52564">
		<tag k="name" v="Lysøysund" />
		<tag k="place" v="farm" />
		<tag k="ssr:stedsnr" v="516842" />
	</node>
	<node lat="63.88878889301911" lon="9.926663896007318" id="-52565">
		<tag k="name" v="Marka" />
		<tag k="place" v="farm" />
		<tag k="ssr:stedsnr" v="516855" />
	</node>
	<node lat="63.840038888094846" lon="9.781436110223561" id="-52566">
		<tag k="name" v="Jøssund" />
		<tag k="place" v="farm" />
		<tag k="ssr:stedsnr" v="516884" />
	</node>
	<node lat="63.83153333119716" lon="9.675586113068348" id="-52567">
		<tag k="name" v="Haugen" />
		<tag k="place" v="farm" />
		<tag k="ssr:stedsnr" v="516896" />
	</node>
	<node lat="63.814819443486634" lon="9.677180554562248" id="-52568">
		<tag k="name" v="Oksvoll" />
		<tag k="place" v="farm" />
		<tag k="ssr:stedsnr" v="516897" />
	</node>
	<node lat="63.717933331666885" lon="9.62318333195373" id="-52570">
		<tag k="name" v="Fagervoll" />
		<tag k="place" v="farm" />
		<tag k="ssr:stedsnr" v="519688" />
	</node>
	<node lat="63.70987500299547" lon="9.635069444771931" id="-52571">
		<tag k="name" v="Røyne" />
		<tag k="place" v="farm" />
		<tag k="ssr:stedsnr" v="519983" />
	</node>
	<node lat="63.697749998787934" lon="9.598094453256724" id="-52572">
		<tag k="name" v="Melbu" />
		<tag k="place" v="farm" />
		<tag k="ssr:stedsnr" v="519995" />
	</node>
	<node lat="63.71094444246228" lon="9.660758343224622" id="-52573">
		<tag k="name" v="Ødegård" />
		<tag k="place" v="farm" />
		<tag k="ssr:stedsnr" v="520613" />
	</node>
	<node lat="63.72022499843441" lon="9.642088898369307" id="-52574">
		<tag k="name" v="Ryggen" />
		<tag k="place" v="farm" />
		<tag k="ssr:stedsnr" v="520617" />
	</node>
	<node lat="63.69903332902809" lon="9.635911108858487" id="-52575">
		<tag k="name" v="Nygården" />
		<tag k="place" v="farm" />
		<tag k="ssr:stedsnr" v="520635" />
	</node>
	<node lat="63.67689444247876" lon="9.647469438709093" id="-52576">
		<tag k="alt_name" v="Hovde vestre" />
		<tag k="name" v="Vestre Hovde" />
		<tag k="place" v="farm" />
		<tag k="ssr:stedsnr" v="520641" />
	</node>
	<node lat="63.69077499767243" lon="9.598558334155465" id="-52577">
		<tag k="name" v="Solem" />
		<tag k="place" v="farm" />
		<tag k="ssr:stedsnr" v="520677" />
	</node>
	<node lat="63.71643333565415" lon="9.627627780321768" id="-52578">
		<tag k="name" v="Gullteigan" />
		<tag k="place" v="farm" />
		<tag k="ssr:stedsnr" v="520678" />
	</node>
	<node lat="63.670872222596394" lon="9.42005277733027" id="-52579">
		<tag k="name" v="Solheim" />
		<tag k="place" v="farm" />
		<tag k="ssr:stedsnr" v="520720" />
	</node>
	<node lat="63.65966666476426" lon="9.40922499460841" id="-52580">
		<tag k="name" v="Brinken" />
		<tag k="place" v="farm" />
		<tag k="ssr:stedsnr" v="520728" />
	</node>
	<node lat="63.6691861152044" lon="9.414102776654946" id="-52581">
		<tag k="name" v="Klauva" />
		<tag k="place" v="farm" />
		<tag k="ssr:stedsnr" v="520734" />
	</node>
	<node lat="63.66038888889014" lon="9.411288883239743" id="-52582">
		<tag k="alt_name" v="Djupmyr" />
		<tag k="name" v="Djupmyra" />
		<tag k="place" v="farm" />
		<tag k="ssr:stedsnr" v="520746" />
	</node>
	<node lat="63.72489999660672" lon="9.685261108980662" id="-52583">
		<tag k="name" v="Hov" />
		<tag k="place" v="farm" />
		<tag k="ssr:stedsnr" v="520989" />
	</node>
	<node lat="63.73350555553176" lon="9.664258339074111" id="-52584">
		<tag k="name" v="Rabban" />
		<tag k="place" v="hamlet" />
		<tag k="ssr:stedsnr" v="520995" />
	</node>
	<node lat="63.67522777660862" lon="9.434852777188874" id="-52585">
		<tag k="name" v="Lavahaugen" />
		<tag k="place" v="isolated_dwelling" />
		<tag k="ssr:stedsnr" v="540256" />
	</node>
	<node lat="63.726149998361265" lon="9.686561112402229" id="-52586">
		<tag k="name" v="Hov" />
		<tag k="place" v="farm" />
		<tag k="ssr:stedsnr" v="544894" />
	</node>
	<node lat="63.844955556478496" lon="9.712533328581731" id="-52588">
		<tag k="fixme" v="consider place=hamlet" />
		<tag k="name" v="Melem" />
		<tag k="place" v="farm" />
		<tag k="ssr:stedsnr" v="545943" />
	</node>
	<node lat="63.80348889250021" lon="9.432908336166289" id="-52597">
		<tag k="name" v="Nausthaug" />
		<tag k="place" v="isolated_dwelling" />
		<tag k="ssr:stedsnr" v="558666" />
	</node>
	<node lat="63.79923611391425" lon="9.692500005829482" id="-52598">
		<tag k="name" v="Myrvang" />
		<tag k="place" v="farm" />
		<tag k="ssr:stedsnr" v="558676" />
	</node>
	<node lat="63.76855277922315" lon="9.753719438884884" id="-52599">
		<tag k="fixme" v="consider place=hamlet" />
		<tag k="name" v="Mølnargården" />
		<tag k="place" v="farm" />
		<tag k="ssr:stedsnr" v="559201" />
	</node>
	<node lat="63.821516669907666" lon="9.720636120993063" id="-52601">
		<tag k="name" v="Skavikan" />
		<tag k="place" v="isolated_dwelling" />
		<tag k="ssr:stedsnr" v="559055" />
	</node>
	<node lat="63.83734166424538" lon="9.82436666504853" id="-52606">
		<tag k="name" v="Einan" />
		<tag k="place" v="farm" />
		<tag k="ssr:stedsnr" v="559074" />
	</node>
	<node lat="63.841905551231385" lon="9.85727221231602" id="-52607">
		<tag k="name" v="Audalen" />
		<tag k="place" v="farm" />
		<tag k="ssr:stedsnr" v="559076" />
	</node>
	<node lat="63.7393000043592" lon="9.847541664268599" id="-52609">
		<tag k="name" v="Vollan" />
		<tag k="place" v="farm" />
		<tag k="ssr:stedsnr" v="559168" />
	</node>
	<node lat="63.88115277928309" lon="9.906541659084334" id="-52616">
		<tag k="name" v="Nygården" />
		<tag k="place" v="farm" />
		<tag k="ssr:stedsnr" v="559579" />
	</node>
	<node lat="63.888019441113926" lon="9.897474992691969" id="-52617">
		<tag k="fixme" v="consider place=hamlet" />
		<tag k="name" v="Hellesvika" />
		<tag k="place" v="farm" />
		<tag k="ssr:stedsnr" v="559580" />
	</node>
	<node lat="63.70363611158254" lon="9.71149445108979" id="-52620">
		<tag k="name" v="Sørstrand" />
		<tag k="place" v="farm" />
		<tag k="ssr:stedsnr" v="569544" />
	</node>
	<node lat="63.69513504382677" lon="9.641883845013568" id="-52622">
		<tag k="fixme" v="consider place=hamlet" />
		<tag k="name" v="Hårberg" />
		<tag k="place" v="farm" />
		<tag k="ssr:stedsnr" v="571194" />
	</node>
	<node lat="63.74324444031399" lon="9.8063638878084" id="-52640">
		<tag k="name" v="Hyllmarka" />
		<tag k="place" v="farm" />
		<tag k="ssr:stedsnr" v="576281" />
	</node>
	<node lat="63.75800833444821" lon="9.982966664604032" id="-52651">
		<tag k="name" v="Stallvik" />
		<tag k="place" v="farm" />
		<tag k="ssr:stedsnr" v="576225" />
	</node>
	<node lat="63.75070277827106" lon="9.716702786908735" id="-52693">
		<tag k="name" v="Myrvang" />
		<tag k="place" v="farm" />
		<tag k="ssr:stedsnr" v="576792" />
	</node>
	<node lat="63.78303889054122" lon="9.805908327396082" id="-52695">
		<tag k="name" v="Veabakken" />
		<tag k="place" v="farm" />
		<tag k="ssr:stedsnr" v="576838" />
	</node>
	<node lat="63.812719448802945" lon="9.695549991350088" id="-52696">
		<tag k="name" v="Nergård" />
		<tag k="place" v="farm" />
		<tag k="ssr:stedsnr" v="576920" />
	</node>
	<node lat="63.84369722604253" lon="9.832449995621067" id="-52697">
		<tag k="name" v="Eidet" />
		<tag k="place" v="farm" />
		<tag k="ssr:stedsnr" v="576923" />
	</node>
	<node lat="63.84529166836814" lon="9.808944434823982" id="-52698">
		<tag k="name" v="Brubakken" />
		<tag k="place" v="farm" />
		<tag k="ssr:stedsnr" v="576928" />
	</node>
	<node lat="63.875202776417396" lon="9.839369444436112" id="-52699">
		<tag k="name" v="Haugen" />
		<tag k="place" v="farm" />
		<tag k="ssr:stedsnr" v="576934" />
	</node>
	<node lat="63.89433611406851" lon="9.950288894300233" id="-52700">
		<tag k="name" v="Aunet" />
		<tag k="place" v="farm" />
		<tag k="ssr:stedsnr" v="577123" />
	</node>
	<node lat="63.71366388870234" lon="9.628666675951797" id="-52702">
		<tag k="name" v="Røyne" />
		<tag k="place" v="farm" />
		<tag k="ssr:stedsnr" v="580563" />
	</node>
	<node lat="63.7152055528846" lon="9.685716662021738" id="-52703">
		<tag k="name" v="Hov" />
		<tag k="place" v="farm" />
		<tag k="ssr:stedsnr" v="580578" />
	</node>
	<node lat="63.71037222370827" lon="9.687950001555764" id="-52704">
		<tag k="name" v="Utne" />
		<tag k="place" v="farm" />
		<tag k="ssr:stedsnr" v="580584" />
	</node>
	<node lat="63.73334722024542" lon="9.639091673013752" id="-52705">
		<tag k="name" v="Strandheim" />
		<tag k="place" v="farm" />
		<tag k="ssr:stedsnr" v="580621" />
	</node>
	<node lat="63.73913333000336" lon="9.667238889008438" id="-52706">
		<tag k="name" v="Ørsleie" />
		<tag k="place" v="farm" />
		<tag k="ssr:stedsnr" v="580635" />
	</node>
	<node lat="63.717699997632785" lon="9.701402778338647" id="-52707">
		<tag k="name" v="Røstad" />
		<tag k="place" v="farm" />
		<tag k="ssr:stedsnr" v="580814" />
	</node>
	<node lat="63.715186108699186" lon="9.75450000430481" id="-52713">
		<tag k="name" v="Solhaug" />
		<tag k="place" v="farm" />
		<tag k="ssr:stedsnr" v="581964" />
	</node>
	<node lat="63.71062777610876" lon="9.69948610644376" id="-52714">
		<tag k="name" v="Balsnessletta" />
		<tag k="place" v="farm" />
		<tag k="ssr:stedsnr" v="581965" />
	</node>
	<node lat="63.67275555681079" lon="9.402666670616957" id="-52715">
		<tag k="name" v="Aune" />
		<tag k="place" v="farm" />
		<tag k="ssr:stedsnr" v="581817" />
	</node>
	<node lat="63.66372500188407" lon="9.403691672696537" id="-52716">
		<tag k="name" v="Storfosen gods" />
		<tag k="place" v="farm" />
		<tag k="ssr:stedsnr" v="581826" />
	</node>
	<node lat="63.724869440610036" lon="9.691258340904628" id="-52717">
		<tag k="name" v="Opphaug" />
		<tag k="place" v="farm" />
		<tag k="ssr:stedsnr" v="581990" />
	</node>
	<node lat="63.83081944245485" lon="9.664052782247735" id="-52718">
		<tag k="name" v="Bakkan hyttefelt" />
		<tag k="place" v="neighbourhood" />
		<tag k="ssr:stedsnr" v="587024" />
	</node>
	<node lat="63.8557888884302" lon="9.726722228697485" id="-52719">
		<tag k="fixme" v="consider place=suburb, village or hamlet" />
		<tag k="name" v="Vasøya" />
		<tag k="place" v="quarter" />
		<tag k="ssr:stedsnr" v="587028" />
	</node>
	<node lat="63.77129722002839" lon="9.808791675179798" id="-52720">
		<tag k="name" v="Solemslistykket" />
		<tag k="place" v="quarter" />
		<tag k="ssr:stedsnr" v="605129" />
	</node>
	<node lat="63.76191110752167" lon="9.767144444919575" id="-52721">
		<tag k="name" v="Stuaneset boligfelt" />
		<tag k="place" v="quarter" />
		<tag k="ssr:stedsnr" v="605134" />
	</node>
	<node lat="63.714836776444734" lon="9.553455777784858" id="-52726">
		<tag k="fixme" v="consider place=hamlet" />
		<tag k="name" v="Hoøya" />
		<tag k="place" v="farm" />
		<tag k="ssr:stedsnr" v="619019" />
	</node>
	<node lat="63.672130559555946" lon="9.401886117927665" id="-52727">
		<tag k="name" v="Melskardet" />
		<tag k="place" v="hamlet" />
		<tag k="ssr:stedsnr" v="619037" />
	</node>
	<node lat="63.84767500338457" lon="9.817469451880182" id="-52734">
		<tag k="fixme" v="consider place=hamlet" />
		<tag k="name" v="Leset" />
		<tag k="place" v="farm" />
		<tag k="ssr:stedsnr" v="619092" />
	</node>
	<node lat="63.770497221170885" lon="9.790841657080993" id="-52738">
		<tag k="fixme" v="consider place=hamlet" />
		<tag k="name" v="Mebostad" />
		<tag k="place" v="farm" />
		<tag k="ssr:stedsnr" v="620230" />
	</node>
	<node lat="63.71886666958919" lon="9.777416665490609" id="-52740">
		<tag k="name" v="Solheim" />
		<tag k="place" v="farm" />
		<tag k="ssr:stedsnr" v="620236" />
	</node>
	<node lat="63.78660277516555" lon="9.604208340248205" id="-52745">
		<tag k="fixme" v="consider place=hamlet" />
		<tag k="name" v="Hellem" />
		<tag k="place" v="farm" />
		<tag k="ssr:stedsnr" v="619649" />
	</node>
	<node lat="63.80101944818972" lon="9.649119441290946" id="-52747">
		<tag k="fixme" v="consider place=hamlet" />
		<tag k="name" v="Steinvik" />
		<tag k="place" v="farm" />
		<tag k="ssr:stedsnr" v="619658" />
	</node>
	<node lat="63.771522221664334" lon="9.686708329193943" id="-52750">
		<tag k="name" v="Norheim" />
		<tag k="place" v="farm" />
		<tag k="ssr:stedsnr" v="619768" />
	</node>
	<node lat="63.775877778137776" lon="9.856244449284857" id="-52756">
		<tag k="name" v="Botnet" />
		<tag k="place" v="farm" />
		<tag k="ssr:stedsnr" v="620205" />
	</node>
	<node lat="63.737247219796124" lon="9.708088895243746" id="-52762">
		<tag k="name" v="Stokksletta" />
		<tag k="place" v="farm" />
		<tag k="ssr:stedsnr" v="630487" />
	</node>
	<node lat="63.77984721837978" lon="9.992005561872528" id="-52786">
		<tag k="name" v="Myra" />
		<tag k="place" v="farm" />
		<tag k="ssr:stedsnr" v="636239" />
	</node>
	<node lat="63.75071110993392" lon="9.924833324219954" id="-52787">
		<tag k="name" v="Vorpstykket" />
		<tag k="place" v="isolated_dwelling" />
		<tag k="ssr:stedsnr" v="636256" />
	</node>
	<node lat="63.773533330695756" lon="9.577858323638532" id="-52788">
		<tag k="name" v="Svølgen" />
		<tag k="place" v="farm" />
		<tag k="ssr:stedsnr" v="636260" />
	</node>
	<node lat="63.769780551177924" lon="9.575230556428679" id="-52789">
		<tag k="name" v="Langvollan" />
		<tag k="place" v="farm" />
		<tag k="ssr:stedsnr" v="636263" />
	</node>
	<node lat="63.773441664121734" lon="9.585505558612558" id="-52790">
		<tag k="name" v="Musgården" />
		<tag k="place" v="farm" />
		<tag k="ssr:stedsnr" v="636268" />
	</node>
	<node lat="63.87840356585423" lon="9.809727603449934" id="-52809">
		<tag k="name" v="Madsøya" />
		<tag k="place" v="farm" />
		<tag k="ssr:stedsnr" v="636836" />
	</node>
	<node lat="63.88662777419295" lon="9.899325007356401" id="-52810">
		<tag k="name" v="Lunnan" />
		<tag k="place" v="farm" />
		<tag k="ssr:stedsnr" v="636841" />
	</node>
	<node lat="63.741233336630295" lon="9.814936114229388" id="-52811">
		<tag k="name" v="Rabben" />
		<tag k="place" v="farm" />
		<tag k="ssr:stedsnr" v="636845" />
	</node>
	<node lat="63.837444446707906" lon="9.707261111024627" id="-52816">
		<tag k="name" v="Melem" />
		<tag k="place" v="hamlet" />
		<tag k="ssr:stedsnr" v="636741" />
	</node>
	<node lat="63.8339305555162" lon="9.673341667752965" id="-52819">
		<tag k="name" v="Skardet" />
		<tag k="place" v="farm" />
		<tag k="ssr:stedsnr" v="636895" />
	</node>
	<node lat="63.80363889028378" lon="9.433602779914294" id="-52824">
		<tag k="name" v="Nausthaugan" />
		<tag k="place" v="farm" />
		<tag k="ssr:stedsnr" v="637211" />
	</node>
	<node lat="63.65882777646919" lon="9.415108330948172" id="-52828">
		<tag k="name" v="Larsvika" />
		<tag k="place" v="isolated_dwelling" />
		<tag k="ssr:stedsnr" v="641686" />
	</node>
	<node lat="63.67501389148791" lon="9.394824999366818" id="-52829">
		<tag k="name" v="Holmen" />
		<tag k="place" v="farm" />
		<tag k="ssr:stedsnr" v="641688" />
	</node>
	<node lat="63.67512778207756" lon="9.436749993488737" id="-52830">
		<tag k="name" v="Nordlandsneset" />
		<tag k="place" v="farm" />
		<tag k="ssr:stedsnr" v="641693" />
	</node>
	<node lat="63.705438886115594" lon="9.670800005936714" id="-52832">
		<tag k="name" v="Solheim" />
		<tag k="place" v="farm" />
		<tag k="ssr:stedsnr" v="641568" />
	</node>
	<node lat="63.689516664441705" lon="9.603488880385969" id="-52833">
		<tag k="name" v="Norset" />
		<tag k="place" v="farm" />
		<tag k="ssr:stedsnr" v="641637" />
	</node>
	<node lat="63.72220000156812" lon="9.616408324614" id="-52834">
		<tag k="name" v="Solset" />
		<tag k="place" v="farm" />
		<tag k="ssr:stedsnr" v="641640" />
	</node>
	<node lat="63.72143670781603" lon="9.699536389571286" id="-52839">
		<tag k="fixme" v="consider place=hamlet" />
		<tag k="name" v="Røstad" />
		<tag k="place" v="village" />
		<tag k="ssr:stedsnr" v="641945" />
	</node>
	<node lat="63.72130000015834" lon="9.700780550921337" id="-52841">
		<tag k="alt_name" v="Skalandet nordre" />
		<tag k="name" v="Nordre Skalandet" />
		<tag k="place" v="farm" />
		<tag k="ssr:stedsnr" v="641964" />
	</node>
	<node lat="63.71813611360271" lon="9.712694437162417" id="-52843">
		<tag k="name" v="Dalabakken" />
		<tag k="place" v="farm" />
		<tag k="ssr:stedsnr" v="641971" />
	</node>
	<node lat="63.85077500109509" lon="9.719127785592995" id="-52844">
		<tag k="name" v="Hestbergflauget hyttefelt" />
		<tag k="place" v="neighbourhood" />
		<tag k="ssr:stedsnr" v="648030" />
	</node>
	<node lat="63.811852773717085" lon="10.148883326759712" id="-52846">
		<tag k="name" v="Bjørnåsen" />
		<tag k="place" v="farm" />
		<tag k="ssr:stedsnr" v="648920" />
	</node>
	<node lat="63.673777775804325" lon="9.424766674463362" id="-52848">
		<tag k="name" v="Nordlandet" />
		<tag k="place" v="hamlet" />
		<tag k="ssr:stedsnr" v="741048" />
	</node>
	<node lat="63.76820832900136" lon="9.873613893723883" id="-52855">
		<tag k="fixme" v="consider place=hamlet" />
		<tag k="name" v="Solem" />
		<tag k="place" v="farm" />
		<tag k="ssr:stedsnr" v="741230" />
	</node>
	<node lat="63.763388892188246" lon="10.022386119443176" id="-52856">
		<tag k="name" v="Brannvika" />
		<tag k="place" v="farm" />
		<tag k="ssr:stedsnr" v="741233" />
	</node>
	<node lat="63.76484302869432" lon="9.808629030926904" id="-52863">
		<tag k="fixme" v="multiple name tags, choose one and add the other to alt_name" />
		<tag k="name" v="Bjugn;Botngård" />
		<tag k="place" v="village" />
		<tag k="ssr:stedsnr" v="741267" />
	</node>
	<node lat="63.88462222040299" lon="9.864277786118711" id="-52866">
		<tag k="name" v="Lysøysundet" />
		<tag k="place" v="village" />
		<tag k="ssr:stedsnr" v="741662" />
	</node>
	<node lat="63.814519443862274" lon="9.67989722137058" id="-52867">
		<tag k="fixme" v="consider place=hamlet" />
		<tag k="name" v="Oksvoll" />
		<tag k="place" v="village" />
		<tag k="ssr:stedsnr" v="741717" />
	</node>
	<node lat="63.82773610999298" lon="9.674524993970874" id="-52868">
		<tag k="name" v="Breidteig" />
		<tag k="place" v="farm" />
		<tag k="ssr:stedsnr" v="741741" />
	</node>
	<node lat="63.8402777745836" lon="9.683236107941298" id="-52869">
		<tag k="name" v="Tollefsvika" />
		<tag k="place" v="farm" />
		<tag k="ssr:stedsnr" v="741745" />
	</node>
	<node lat="63.77060833548968" lon="9.587622215773857" id="-52871">
		<tag k="fixme" v="consider place=hamlet" />
		<tag k="name" v="Nes" />
		<tag k="place" v="farm" />
		<tag k="ssr:stedsnr" v="741781" />
	</node>
	<node lat="63.7799083340735" lon="9.989855554910871" id="-52889">
		<tag k="name" v="Haugen" />
		<tag k="place" v="farm" />
		<tag k="ssr:stedsnr" v="758279" />
	</node>
	<node lat="63.78323332885596" lon="9.993055563944361" id="-52890">
		<tag k="name" v="Gammelgården" />
		<tag k="place" v="farm" />
		<tag k="ssr:stedsnr" v="758282" />
	</node>
	<node lat="63.79793888743889" lon="9.64833889039309" id="-52900">
		<tag k="name" v="Skogen" />
		<tag k="place" v="farm" />
		<tag k="ssr:stedsnr" v="758543" />
	</node>
	<node lat="63.74669444190541" lon="9.81305834299272" id="-52904">
		<tag k="name" v="Midtskogen" />
		<tag k="place" v="farm" />
		<tag k="ssr:stedsnr" v="758478" />
	</node>
	<node lat="63.75809722363102" lon="9.867180548529122" id="-52905">
		<tag k="alt_name" v="Helland øvre" />
		<tag k="name" v="Øvre Helland" />
		<tag k="place" v="farm" />
		<tag k="ssr:stedsnr" v="758490" />
	</node>
	<node lat="63.8000277785722" lon="10.050516662020959" id="-52909">
		<tag k="name" v="Grobekken" />
		<tag k="place" v="isolated_dwelling" />
		<tag k="ssr:stedsnr" v="758579" />
	</node>
	<node lat="63.76119722546427" lon="9.695922232265913" id="-52917">
		<tag k="name" v="Vika" />
		<tag k="place" v="farm" />
		<tag k="ssr:stedsnr" v="758768" />
	</node>
	<node lat="63.89080278138384" lon="9.935624998957852" id="-52920">
		<tag k="name" v="Sandvika" />
		<tag k="place" v="farm" />
		<tag k="ssr:stedsnr" v="758847" />
	</node>
	<node lat="63.758825002891356" lon="9.809752782011092" id="-52921">
		<tag k="name" v="Sæter" />
		<tag k="place" v="farm" />
		<tag k="ssr:stedsnr" v="758862" />
	</node>
	<node lat="63.7610999993114" lon="9.790080553837498" id="-52922">
		<tag k="name" v="Klaksdal" />
		<tag k="place" v="farm" />
		<tag k="ssr:stedsnr" v="758872" />
	</node>
	<node lat="63.80661388649586" lon="9.681400004420412" id="-52923">
		<tag k="name" v="Sagatun" />
		<tag k="place" v="farm" />
		<tag k="ssr:stedsnr" v="758880" />
	</node>
	<node lat="63.84533333544556" lon="9.801138884406074" id="-52924">
		<tag k="name" v="Rønningan" />
		<tag k="place" v="farm" />
		<tag k="ssr:stedsnr" v="758883" />
	</node>
	<node lat="63.89115000298645" lon="9.843308334065263" id="-52930">
		<tag k="name" v="Lysøy" />
		<tag k="place" v="farm" />
		<tag k="ssr:stedsnr" v="758832" />
	</node>
	<node lat="63.88611388672712" lon="9.90198611027083" id="-52931">
		<tag k="name" v="Innlegget" />
		<tag k="place" v="farm" />
		<tag k="ssr:stedsnr" v="758842" />
	</node>
	<node lat="63.84966666907449" lon="9.830727781649927" id="-52932">
		<tag k="fixme" v="consider place=hamlet" />
		<tag k="name" v="Asserøya" />
		<tag k="place" v="farm" />
		<tag k="ssr:stedsnr" v="758909" />
	</node>
	<node lat="63.862588885024785" lon="9.749705564946819" id="-52933">
		<tag k="fixme" v="consider place=hamlet" />
		<tag k="name" v="Vallersund" />
		<tag k="place" v="farm" />
		<tag k="ssr:stedsnr" v="758924" />
	</node>
	<node lat="63.81505833114922" lon="9.862897212149814" id="-52934">
		<tag k="name" v="Osplia" />
		<tag k="place" v="farm" />
		<tag k="ssr:stedsnr" v="758930" />
	</node>
	<node lat="63.820777776102545" lon="9.808336108127248" id="-52935">
		<tag k="name" v="Fagervoll" />
		<tag k="place" v="farm" />
		<tag k="ssr:stedsnr" v="758931" />
	</node>
	<node lat="63.852300001851205" lon="9.884613879422327" id="-52936">
		<tag k="name" v="Aunet" />
		<tag k="place" v="farm" />
		<tag k="ssr:stedsnr" v="758934" />
	</node>
	<node lat="63.85470555377503" lon="9.740930557804408" id="-52937">
		<tag k="name" v="Drilen" />
		<tag k="place" v="farm" />
		<tag k="ssr:stedsnr" v="758888" />
	</node>
	<node lat="63.682616670032616" lon="9.612219440554712" id="-52939">
		<tag k="name" v="Solheim (Utsikten)" />
		<tag k="place" v="farm" />
		<tag k="ssr:stedsnr" v="762613" />
	</node>
	<node lat="63.67238333747814" lon="9.422055564818493" id="-52940">
		<tag k="name" v="Nordlandshøgda" />
		<tag k="place" v="farm" />
		<tag k="ssr:stedsnr" v="762629" />
	</node>
	<node lat="63.70794444733431" lon="9.632025007322651" id="-52941">
		<tag k="name" v="Øveraune" />
		<tag k="place" v="farm" />
		<tag k="ssr:stedsnr" v="762571" />
	</node>
	<node lat="63.72451110861167" lon="9.683036114920332" id="-52942">
		<tag k="name" v="Hov" />
		<tag k="place" v="farm" />
		<tag k="ssr:stedsnr" v="762580" />
	</node>
	<node lat="63.7128694458651" lon="9.690494451516942" id="-52943">
		<tag k="name" v="Korsvad" />
		<tag k="place" v="farm" />
		<tag k="ssr:stedsnr" v="762582" />
	</node>
	<node lat="63.725930555533004" lon="9.69988055850101" id="-52944">
		<tag k="name" v="Geilvollen" />
		<tag k="place" v="farm" />
		<tag k="ssr:stedsnr" v="762585" />
	</node>
	<node lat="63.68404721796446" lon="9.59468888178229" id="-52947">
		<tag k="building" v="commercial" />
		<tag k="name" v="Ørland radio" />
		<tag k="ssr:stedsnr" v="762863" />
	</node>
	<node lat="63.727147223723264" lon="9.69062223033338" id="-52951">
		<tag k="building" v="commercial" />
		<tag k="name" v="Televerket" />
		<tag k="ssr:stedsnr" v="763863" />
	</node>
	<node lat="63.70916944898411" lon="9.668286102611734" id="-52954">
		<tag k="name" v="Utheim" />
		<tag k="place" v="farm" />
		<tag k="ssr:stedsnr" v="763960" />
	</node>
	<node lat="63.71093055747311" lon="9.683263879747965" id="-52956">
		<tag k="name" v="Vårtun" />
		<tag k="place" v="farm" />
		<tag k="ssr:stedsnr" v="763980" />
	</node>
	<node lat="63.7838555529999" lon="9.586905552523682" id="-52960">
		<tag k="name" v="Islandsvika hyttefelt" />
		<tag k="place" v="neighbourhood" />
		<tag k="ssr:stedsnr" v="769019" />
	</node>
	<node lat="63.76414167014629" lon="9.815683338636669" id="-52961">
		<tag k="amenity" v="school" />
		<tag k="name" v="Botngård skole" />
		<tag k="ssr:stedsnr" v="787857" />
	</node>
	<node lat="63.75140832970828" lon="9.69532222049462" id="-52965">
		<tag k="name" v="Nervika" />
		<tag k="place" v="farm" />
		<tag k="ssr:stedsnr" v="802014" />
	</node>
	<node lat="63.72726944131993" lon="9.688797229536043" id="-52968">
		<tag k="fixme" v="consider place=suburb, village or hamlet" />
		<tag k="name" v="Opphaug" />
		<tag k="place" v="quarter" />
		<tag k="ssr:stedsnr" v="802025" />
	</node>
	<node lat="63.81839999903037" lon="10.12126389310787" id="-52976">
		<tag k="name" v="Høgås" />
		<tag k="place" v="farm" />
		<tag k="ssr:stedsnr" v="802058" />
	</node>
	<node lat="63.836808333450925" lon="9.820897217680551" id="-52979">
		<tag k="fixme" v="consider place=hamlet" />
		<tag k="name" v="Råka" />
		<tag k="place" v="farm" />
		<tag k="ssr:stedsnr" v="802101" />
	</node>
	<node lat="63.779650000054396" lon="10.08166667062324" id="-52984">
		<tag k="name" v="Fjellset" />
		<tag k="place" v="farm" />
		<tag k="ssr:stedsnr" v="802252" />
	</node>
	<node lat="63.817927778165945" lon="9.411802775428947" id="-52988">
		<tag k="name" v="Nordbuaunet" />
		<tag k="place" v="farm" />
		<tag k="ssr:stedsnr" v="802719" />
	</node>
	<node lat="63.83829722529039" lon="9.708705560075815" id="-52990">
		<tag k="fixme" v="consider place=hamlet" />
		<tag k="name" v="Melem" />
		<tag k="place" v="farm" />
		<tag k="ssr:stedsnr" v="802733" />
	</node>
	<node lat="63.71553611270456" lon="9.807019443660073" id="-52999">
		<tag k="alt_name" v="Aune" />
		<tag k="name" v="Aunet" />
		<tag k="place" v="farm" />
		<tag k="ssr:stedsnr" v="802831" />
	</node>
	<node lat="63.71009721941765" lon="9.760722221822355" id="-53000">
		<tag k="name" v="Rønningen" />
		<tag k="place" v="farm" />
		<tag k="ssr:stedsnr" v="802834" />
	</node>
	<node lat="63.78015555194419" lon="9.604319435417297" id="-53004">
		<tag k="name" v="Hellem" />
		<tag k="place" v="farm" />
		<tag k="ssr:stedsnr" v="819283" />
	</node>
	<node lat="63.801266669860446" lon="10.06595000723368" id="-53005">
		<tag k="name" v="Skard" />
		<tag k="place" v="farm" />
		<tag k="ssr:stedsnr" v="819290" />
	</node>
	<node lat="63.74222500197819" lon="9.698958332625962" id="-53012">
		<tag k="name" v="Aspmyr" />
		<tag k="place" v="farm" />
		<tag k="ssr:stedsnr" v="819687" />
	</node>
	<node lat="63.885061114823856" lon="9.851049998643449" id="-53045">
		<tag k="name" v="Østerplassen" />
		<tag k="place" v="farm" />
		<tag k="ssr:stedsnr" v="819536" />
	</node>
	<node lat="63.793702780582834" lon="9.949936110838252" id="-53049">
		<tag k="name" v="Svartvasshytta" />
		<tag k="place" v="isolated_dwelling" />
		<tag k="ssr:stedsnr" v="819560" />
	</node>
	<node lat="63.78393055847691" lon="9.777483340628828" id="-53066">
		<tag k="name" v="Ratdalen" />
		<tag k="place" v="farm" />
		<tag k="ssr:stedsnr" v="819833" />
	</node>
	<node lat="63.80509722348833" lon="9.661463898639566" id="-53067">
		<tag k="name" v="Sandstad" />
		<tag k="place" v="farm" />
		<tag k="ssr:stedsnr" v="819839" />
	</node>
	<node lat="63.80915832976277" lon="9.663624994017205" id="-53068">
		<tag k="name" v="Aunet" />
		<tag k="place" v="farm" />
		<tag k="ssr:stedsnr" v="819843" />
	</node>
	<node lat="63.88436111260932" lon="9.898497225278627" id="-53069">
		<tag k="name" v="Hellesvikmoen" />
		<tag k="place" v="farm" />
		<tag k="ssr:stedsnr" v="819851" />
	</node>
	<node lat="63.872155555053375" lon="9.839750005552283" id="-53070">
		<tag k="name" v="Moen" />
		<tag k="place" v="farm" />
		<tag k="ssr:stedsnr" v="819924" />
	</node>
	<node lat="63.70297499962153" lon="9.696855549419343" id="-53077">
		<tag k="name" v="Fjæra" />
		<tag k="place" v="farm" />
		<tag k="ssr:stedsnr" v="823949" />
	</node>
	<node lat="63.70204444105548" lon="9.720430554964567" id="-53078">
		<tag k="name" v="Østlund" />
		<tag k="place" v="farm" />
		<tag k="ssr:stedsnr" v="823954" />
	</node>
	<node lat="63.684613886643604" lon="9.591652768454212" id="-53079">
		<tag k="name" v="Brekken" />
		<tag k="place" v="farm" />
		<tag k="ssr:stedsnr" v="823630" />
	</node>
	<node lat="63.68950555149388" lon="9.649444453561523" id="-53080">
		<tag k="name" v="Slættet" />
		<tag k="place" v="farm" />
		<tag k="ssr:stedsnr" v="823602" />
	</node>
	<node lat="63.657597220554926" lon="9.429569434703163" id="-53081">
		<tag k="name" v="Moa" />
		<tag k="place" v="farm" />
		<tag k="ssr:stedsnr" v="823691" />
	</node>
	<node lat="63.724516664599015" lon="9.616072217980728" id="-53082">
		<tag k="name" v="Utstrand" />
		<tag k="place" v="farm" />
		<tag k="ssr:stedsnr" v="823710" />
	</node>
	<node lat="63.727241665796264" lon="9.655833342540086" id="-53096">
		<tag k="name" v="Skogly" />
		<tag k="place" v="farm" />
		<tag k="ssr:stedsnr" v="824898" />
	</node>
	<node lat="63.736072223172684" lon="9.656511107591097" id="-53097">
		<tag k="name" v="Litlbakken" />
		<tag k="place" v="farm" />
		<tag k="ssr:stedsnr" v="824987" />
	</node>
	<node lat="63.777024998923984" lon="10.0631472309206" id="-53099">
		<tag k="fixme" v="consider place=hamlet" />
		<tag k="name" v="Dueskard" />
		<tag k="place" v="farm" />
		<tag k="ssr:stedsnr" v="849966" />
	</node>
	<node lat="63.86093611109154" lon="9.885319448917524" id="-53101">
		<tag k="name" v="Vikan" />
		<tag k="place" v="farm" />
		<tag k="ssr:stedsnr" v="862152" />
	</node>
	<node lat="63.652294446358" lon="9.429855553363142" id="-53106">
		<tag k="name" v="Litlvika" />
		<tag k="place" v="farm" />
		<tag k="ssr:stedsnr" v="862056" />
	</node>
	<node lat="63.81520555415896" lon="10.143908335315128" id="-53108">
		<tag k="name" v="Granås" />
		<tag k="place" v="farm" />
		<tag k="ssr:stedsnr" v="862045" />
	</node>
	<node lat="63.812580556108244" lon="10.146644448925134" id="-53119">
		<tag k="alt_name" v="Bjørnåsen" />
		<tag k="name" v="Bjørnås" />
		<tag k="place" v="farm" />
		<tag k="ssr:stedsnr" v="863019" />
	</node>
	<node lat="63.731416662559646" lon="9.875455555950582" id="-53125">
		<tag k="alt_name" v="Saltneset" />
		<tag k="name" v="Saltnes" />
		<tag k="place" v="farm" />
		<tag k="ssr:stedsnr" v="863226" />
	</node>
	<node lat="63.85905555579454" lon="9.79930556498276" id="-53127">
		<tag k="name" v="Kjempa" />
		<tag k="place" v="farm" />
		<tag k="ssr:stedsnr" v="871144" />
	</node>
	<node lat="63.8233527787502" lon="9.416574990206934" id="-53128">
		<tag k="name" v="Valøya" />
		<tag k="place" v="hamlet" />
		<tag k="ssr:stedsnr" v="875947" />
	</node>
	<node lat="63.8735083308215" lon="9.884694451049564" id="-53133">
		<tag k="name" v="Fagerenget" />
		<tag k="place" v="farm" />
		<tag k="ssr:stedsnr" v="880637" />
	</node>
	<node lat="63.76879166680141" lon="9.561588887340946" id="-53158">
		<tag k="name" v="Sandvika" />
		<tag k="place" v="farm" />
		<tag k="ssr:stedsnr" v="880241" />
	</node>
	<node lat="63.747624997926685" lon="9.697650003327842" id="-53159">
		<tag k="name" v="Engvik" />
		<tag k="place" v="farm" />
		<tag k="ssr:stedsnr" v="880272" />
	</node>
	<node lat="63.75347500078856" lon="9.727261114970334" id="-53185">
		<tag k="name" v="Solheim" />
		<tag k="place" v="farm" />
		<tag k="ssr:stedsnr" v="880796" />
	</node>
	<node lat="63.76566944731526" lon="9.72991389346356" id="-53186">
		<tag k="name" v="Åsgården" />
		<tag k="place" v="farm" />
		<tag k="ssr:stedsnr" v="880798" />
	</node>
	<node lat="63.83414721837784" lon="9.69223056009481" id="-53187">
		<tag k="name" v="Melgården" />
		<tag k="place" v="farm" />
		<tag k="ssr:stedsnr" v="880883" />
	</node>
	<node lat="63.84411944791811" lon="9.790891658005584" id="-53188">
		<tag k="name" v="Jøssund" />
		<tag k="place" v="farm" />
		<tag k="ssr:stedsnr" v="880735" />
	</node>
	<node lat="63.77945277708321" lon="9.725372221203164" id="-53189">
		<tag k="name" v="Elvebakken" />
		<tag k="place" v="farm" />
		<tag k="ssr:stedsnr" v="880830" />
	</node>
	<node lat="63.866166668940394" lon="9.945363884903411" id="-53190">
		<tag k="name" v="Fossheim" />
		<tag k="place" v="farm" />
		<tag k="ssr:stedsnr" v="880838" />
	</node>
	<node lat="63.86843611422128" lon="9.936861111164337" id="-53191">
		<tag k="name" v="Lund" />
		<tag k="place" v="farm" />
		<tag k="ssr:stedsnr" v="880840" />
	</node>
	<node lat="63.88644999749977" lon="9.841622214473485" id="-53192">
		<tag k="name" v="Bukta" />
		<tag k="place" v="farm" />
		<tag k="ssr:stedsnr" v="880846" />
	</node>
	<node lat="63.894400000549055" lon="9.853172219789352" id="-53193">
		<tag k="fixme" v="consider place=hamlet" />
		<tag k="name" v="Lysøy" />
		<tag k="place" v="farm" />
		<tag k="ssr:stedsnr" v="880848" />
	</node>
	<node lat="63.857044445706215" lon="9.708008326521517" id="-53194">
		<tag k="name" v="Storøya" />
		<tag k="place" v="farm" />
		<tag k="ssr:stedsnr" v="880930" />
	</node>
	<node lat="63.67817499972912" lon="9.629127786613564" id="-53200">
		<tag k="name" v="Sørheim" />
		<tag k="place" v="farm" />
		<tag k="ssr:stedsnr" v="884591" />
	</node>
	<node lat="63.666497225151325" lon="9.427769447280287" id="-53201">
		<tag k="name" v="Tinnvika" />
		<tag k="place" v="farm" />
		<tag k="ssr:stedsnr" v="884672" />
	</node>
	<node lat="63.66051666553673" lon="9.389797213472452" id="-53202">
		<tag k="name" v="Knutenga" />
		<tag k="place" v="farm" />
		<tag k="ssr:stedsnr" v="884682" />
	</node>
	<node lat="63.73351111377988" lon="9.674336116612666" id="-53203">
		<tag k="name" v="Breidablikk" />
		<tag k="place" v="farm" />
		<tag k="ssr:stedsnr" v="884776" />
	</node>
	<node lat="63.703769442730795" lon="9.709366675528251" id="-53204">
		<tag k="name" v="Solstrand" />
		<tag k="place" v="farm" />
		<tag k="ssr:stedsnr" v="884781" />
	</node>
	<node lat="63.70501111177726" lon="9.770461116543492" id="-53207">
		<tag k="name" v="Vika" />
		<tag k="place" v="isolated_dwelling" />
		<tag k="ssr:stedsnr" v="884942" />
	</node>
	<node lat="63.72795555723001" lon="9.684169450712568" id="-53214">
		<tag k="building" v="commercial" />
		<tag k="name" v="Opphaug postkontor" />
		<tag k="ssr:stedsnr" v="885764" />
	</node>
	<node lat="63.72995000257024" lon="9.653352780167932" id="-53220">
		<tag k="name" v="Myråkran" />
		<tag k="place" v="farm" />
		<tag k="ssr:stedsnr" v="885987" />
	</node>
	<node lat="63.77694722120656" lon="9.587594435578998" id="-53241">
		<tag k="name" v="Nes" />
		<tag k="place" v="farm" />
		<tag k="ssr:stedsnr" v="940258" />
	</node>
	<node lat="63.770152776544826" lon="9.585108323225729" id="-53242">
		<tag k="name" v="Trøa" />
		<tag k="place" v="farm" />
		<tag k="ssr:stedsnr" v="940264" />
	</node>
	<node lat="63.79896666321642" lon="10.057866664111806" id="-53247">
		<tag k="name" v="Osen" />
		<tag k="place" v="farm" />
		<tag k="ssr:stedsnr" v="940284" />
	</node>
	<node lat="63.74314722056161" lon="9.71405555320961" id="-53248">
		<tag k="name" v="Erviksletta" />
		<tag k="place" v="farm" />
		<tag k="ssr:stedsnr" v="940298" />
	</node>
	<node lat="63.88708055718481" lon="9.898341662528592" id="-53255">
		<tag k="name" v="Hellesvika" />
		<tag k="place" v="hamlet" />
		<tag k="ssr:stedsnr" v="940355" />
	</node>
	<node lat="63.75134444205276" lon="9.729158334616098" id="-53295">
		<tag k="fixme" v="consider place=hamlet" />
		<tag k="name" v="Storlia" />
		<tag k="place" v="farm" />
		<tag k="ssr:stedsnr" v="940783" />
	</node>
	<node lat="63.76306389054824" lon="9.68855833394876" id="-53304">
		<tag k="alt_name" v="Vikan" />
		<tag k="name" v="Tønnølvikan" />
		<tag k="place" v="farm" />
		<tag k="ssr:stedsnr" v="940762" />
	</node>
	<node lat="63.753224997756774" lon="9.701538881493764" id="-53305">
		<tag k="name" v="Varden" />
		<tag k="place" v="farm" />
		<tag k="ssr:stedsnr" v="940777" />
	</node>
	<node lat="63.783799996679285" lon="9.830038888354727" id="-53311">
		<tag k="name" v="Myrset" />
		<tag k="place" v="farm" />
		<tag k="ssr:stedsnr" v="940858" />
	</node>
	<node lat="63.76026111224467" lon="9.794952779623427" id="-53312">
		<tag k="name" v="Høgsetet" />
		<tag k="place" v="farm" />
		<tag k="ssr:stedsnr" v="940875" />
	</node>
	<node lat="63.74941388728069" lon="9.78084444597676" id="-53313">
		<tag k="name" v="Kvitbergmoen" />
		<tag k="place" v="farm" />
		<tag k="ssr:stedsnr" v="940877" />
	</node>
	<node lat="63.8526083312661" lon="9.805230551507405" id="-53332">
		<tag k="name" v="Sommervoll" />
		<tag k="place" v="farm" />
		<tag k="ssr:stedsnr" v="941870" />
	</node>
	<node lat="63.88737777333886" lon="9.790966671850233" id="-53333">
		<tag k="name" v="Skjørøy" />
		<tag k="place" v="farm" />
		<tag k="ssr:stedsnr" v="941914" />
	</node>
	<node lat="63.837783337136656" lon="9.886283327054826" id="-53334">
		<tag k="name" v="Heimly" />
		<tag k="place" v="farm" />
		<tag k="ssr:stedsnr" v="941923" />
	</node>
	<node lat="63.795550001634474" lon="9.621747213151568" id="-53335">
		<tag k="name" v="Nyvoll" />
		<tag k="place" v="farm" />
		<tag k="ssr:stedsnr" v="941825" />
	</node>
	<node lat="63.857163885017165" lon="9.784177786752199" id="-53336">
		<tag k="name" v="Sletten" />
		<tag k="place" v="farm" />
		<tag k="ssr:stedsnr" v="941879" />
	</node>
	<node lat="63.84164722075306" lon="9.837597213856858" id="-53337">
		<tag k="name" v="Valmyra" />
		<tag k="place" v="farm" />
		<tag k="ssr:stedsnr" v="941934" />
	</node>
	<node lat="63.72338983339657" lon="9.5973293083606" id="-53339">
		<tag k="fixme" v="consider place=hamlet" />
		<tag k="name" v="Uthaug" />
		<tag k="place" v="farm" />
		<tag k="ssr:stedsnr" v="944988" />
	</node>
	<node lat="63.722291663753744" lon="9.61453056541603" id="-53340">
		<tag k="name" v="Kotte" />
		<tag k="place" v="farm" />
		<tag k="ssr:stedsnr" v="944991" />
	</node>
	<node lat="63.69447777350016" lon="9.5939555595459" id="-53342">
		<tag k="name" v="Nordheim" />
		<tag k="place" v="farm" />
		<tag k="ssr:stedsnr" v="944970" />
	</node>
	<node lat="63.70977778085489" lon="9.629058324679113" id="-53343">
		<tag k="name" v="Mikkelhaug" />
		<tag k="place" v="farm" />
		<tag k="ssr:stedsnr" v="945563" />
	</node>
	<node lat="63.7053138850198" lon="9.668488884744503" id="-53344">
		<tag k="name" v="Prestland" />
		<tag k="place" v="farm" />
		<tag k="ssr:stedsnr" v="945567" />
	</node>
	<node lat="63.731536111468564" lon="9.649675004431055" id="-53345">
		<tag k="name" v="Håbakken" />
		<tag k="place" v="farm" />
		<tag k="ssr:stedsnr" v="945616" />
	</node>
	<node lat="63.73444721998514" lon="9.648905556553457" id="-53346">
		<tag k="name" v="Rabben" />
		<tag k="place" v="farm" />
		<tag k="ssr:stedsnr" v="945619" />
	</node>
	<node lat="63.727424996238284" lon="9.63618611411871" id="-53347">
		<tag k="name" v="Haggan" />
		<tag k="place" v="farm" />
		<tag k="ssr:stedsnr" v="945622" />
	</node>
	<node lat="63.73543888508104" lon="9.669202768587338" id="-53348">
		<tag k="name" v="Kløften" />
		<tag k="place" v="farm" />
		<tag k="ssr:stedsnr" v="945625" />
	</node>
	<node lat="63.70338611246881" lon="9.638266669569207" id="-53365">
		<tag k="name" v="Vik" />
		<tag k="place" v="farm" />
		<tag k="ssr:stedsnr" v="945972" />
	</node>
	<node lat="63.713358337328934" lon="9.660391663932144" id="-53366">
		<tag k="name" v="Fredtun" />
		<tag k="place" v="farm" />
		<tag k="ssr:stedsnr" v="945978" />
	</node>
	<node lat="63.859133332657" lon="9.85855278189065" id="-53369">
		<tag k="name" v="Rømmen hyttefelt" />
		<tag k="place" v="neighbourhood" />
		<tag k="ssr:stedsnr" v="969015" />
	</node>
	<node lat="63.80716666450002" lon="9.644913896327754" id="-53370">
		<tag k="name" v="Klungervollen hyttefelt" />
		<tag k="place" v="neighbourhood" />
		<tag k="ssr:stedsnr" v="969116" />
	</node>
	<node lat="63.85150277529667" lon="9.745605553697162" id="-53371">
		<tag k="alt_name" v="Sandnes skole" />
		<tag k="amenity" v="school" />
		<tag k="name" v="Vallersund oppvekstsenter" />
		<tag k="ssr:stedsnr" v="969865" />
	</node>
	<node lat="63.64391453049335" lon="9.333464650069523" id="-53372">
		<tag k="fixme" v="consider place=hamlet" />
		<tag k="name" v="Kråkvåg" />
		<tag k="place" v="farm" />
		<tag k="ssr:stedsnr" v="971016" />
	</node>
	<node lat="63.66344642768544" lon="9.400145168019119" id="-53373">
		<tag k="fixme" v="consider place=hamlet" />
		<tag k="name" v="Storfosna" />
		<tag k="place" v="farm" />
		<tag k="ssr:stedsnr" v="971017" />
	</node>
	<node lat="63.64202736257336" lon="9.520674859071415" id="-53374">
		<tag k="fixme" v="consider place=hamlet" />
		<tag k="name" v="Garten" />
		<tag k="place" v="farm" />
		<tag k="ssr:stedsnr" v="971018" />
	</node>
	<node lat="63.76089075316054" lon="9.803275055830541" id="-53375">
		<tag k="name" v="Sæterstranda" />
		<tag k="place" v="farm" />
		<tag k="ssr:stedsnr" v="973933" />
	</node>
	<node lat="63.76447296329715" lon="9.818253824581372" id="-53401">
		<tag k="amenity" v="school" />
		<tag k="name" v="Bjugn ungdomsskole" />
		<tag k="ssr:stedsnr" v="1077954" />
	</node>
</osm>
