<?xml version="1.0" encoding="UTF-8"?>
<<<<<<< HEAD
<osm version="0.6" generator="osmapis">
	<node lat="63.759097221849956" lon="9.73491666567441" id="-31711">
		<tag k="alt_name" v="Bjugn" />
		<tag k="amenity" v="place_of_worship" />
		<tag k="denomination" v="lutheran" />
		<tag k="name" v="Bjugn kirke" />
		<tag k="religion" v="christian" />
		<tag k="ssr:stedsnr" v="13205" />
	</node>
	<node lat="63.738563892944875" lon="9.879547219280376" id="-31850">
=======
<osm generator="osmapis" version="0.6">
	<node id="-813248" lat="63.7039777795" lon="9.74338332651">
		<tag k="alt_name" v="Austråttborgen" />
		<tag k="name" v="Austråttborga" />
		<tag k="place" v="locality" />
		<tag k="ssr:stedsnr" v="680837" />
	</node>
	<node id="-814559" lat="63.8540666636" lon="9.9000944501">
		<tag k="name" v="Torsholet" />
		<tag k="ssr:stedsnr" v="151386" />
		<tag k="tourism" v="attraction" />
	</node>
	<node id="-814462" lat="63.7385638929" lon="9.87954721928">
>>>>>>> e1d4bc35ff8a6074a6f2e91616a996b547c36f15
		<tag k="cemetery" v="grave" />
		<tag k="name" v="Heggvik kirkegård" />
		<tag k="place" v="locality" />
		<tag k="ssr:stedsnr" v="118276" />
	</node>
<<<<<<< HEAD
	<node lat="63.73840555870716" lon="9.878913883183735" id="-31859">
		<tag k="alt_name" v="Heggvik kirke;Stjørna" />
=======
	<node id="-815160" lat="63.8614851967" lon="9.80955304098">
		<tag k="alt_name" v="Jøssund" />
>>>>>>> e1d4bc35ff8a6074a6f2e91616a996b547c36f15
		<tag k="amenity" v="place_of_worship" />
		<tag k="denomination" v="lutheran" />
		<tag k="name" v="Hegvik kirke" />
		<tag k="religion" v="christian" />
		<tag k="ssr:stedsnr" v="134253" />
	</node>
	<node lat="63.708383337638956" lon="9.722211116404686" id="-32303">
		<tag k="name" v="Austrått fort" />
		<tag k="ssr:stedsnr" v="476979" />
		<tag k="tourism" v="attraction" />
	</node>
	<node lat="63.70397777950645" lon="9.743383326505322" id="-32477">
		<tag k="alt_name" v="Austråttborgen" />
		<tag k="name" v="Austråttborga" />
		<tag k="place" v="locality" />
		<tag k="ssr:stedsnr" v="680837" />
	</node>
<<<<<<< HEAD
	<node lat="63.7848521449226" lon="9.603996241623657" id="-33114">
		<tag k="alt_name" v="Nes kirke" />
		<tag k="amenity" v="place_of_worship" />
		<tag k="denomination" v="lutheran" />
		<tag k="name" v="Nes" />
		<tag k="religion" v="christian" />
		<tag k="ssr:stedsnr" v="863645" />
	</node>
	<node lat="63.69160364110454" lon="9.651110698005189" id="-33350">
		<tag k="alt_name" v="Ørland" />
=======
	<node id="-814483" lat="63.7384055587" lon="9.87891388318">
		<tag k="alt_name" v="Heggvik kirke;Stjørna" />
>>>>>>> e1d4bc35ff8a6074a6f2e91616a996b547c36f15
		<tag k="amenity" v="place_of_worship" />
		<tag k="denomination" v="lutheran" />
		<tag k="name" v="Ørland kirke" />
		<tag k="religion" v="christian" />
		<tag k="ssr:stedsnr" v="73035" />
	</node>
<<<<<<< HEAD
	<node lat="63.759015194853276" lon="9.740179513055057" id="-33355">
		<tag k="name" v="Tinbua" />
		<tag k="place" v="locality" />
		<tag k="ssr:stedsnr" v="73190" />
	</node>
	<node lat="63.802763890644336" lon="10.058305548389187" id="-33441">
		<tag k="name" v="Saga" />
		<tag k="place" v="locality" />
		<tag k="ssr:stedsnr" v="91559" />
	</node>
	<node lat="63.8540666636089" lon="9.90009445010371" id="-33577">
		<tag k="name" v="Torsholet" />
		<tag k="ssr:stedsnr" v="151386" />
		<tag k="tourism" v="attraction" />
	</node>
	<node lat="63.861485196749584" lon="9.809553040979786" id="-34125">
		<tag k="alt_name" v="Jøssund" />
		<tag k="amenity" v="place_of_worship" />
		<tag k="denomination" v="lutheran" />
		<tag k="name" v="Jøssund kirke" />
		<tag k="religion" v="christian" />
		<tag k="ssr:stedsnr" v="438109" />
=======
	<node id="-815858" lat="63.7848521449" lon="9.60399624162">
		<tag k="alt_name" v="Nes kirke" />
		<tag k="amenity" v="place_of_worship" />
		<tag k="denomination" v="lutheran" />
		<tag k="name" v="Nes" />
		<tag k="religion" v="christian" />
		<tag k="ssr:stedsnr" v="863645" />
	</node>
	<node id="-814284" lat="63.6916036411" lon="9.65111069801">
		<tag k="alt_name" v="Ørland" />
		<tag k="amenity" v="place_of_worship" />
		<tag k="denomination" v="lutheran" />
		<tag k="name" v="Ørland kirke" />
		<tag k="religion" v="christian" />
		<tag k="ssr:stedsnr" v="73035" />
	</node>
	<node id="-815819" lat="63.6628611128" lon="9.39763334104">
		<tag k="alt_name" v="Storfosna kapell" />
		<tag k="amenity" v="place_of_worship" />
		<tag k="denomination" v="lutheran" />
		<tag k="name" v="Storfosna kirke" />
		<tag k="religion" v="christian" />
		<tag k="ssr:stedsnr" v="862054" />
	</node>
	<node id="-814375" lat="63.8027638906" lon="10.0583055484">
		<tag k="name" v="Saga" />
		<tag k="place" v="locality" />
		<tag k="ssr:stedsnr" v="91559" />
	</node>
	<node id="-814124" lat="63.7590972218" lon="9.73491666567">
		<tag k="alt_name" v="Bjugn" />
		<tag k="amenity" v="place_of_worship" />
		<tag k="denomination" v="lutheran" />
		<tag k="name" v="Bjugn kirke" />
		<tag k="religion" v="christian" />
		<tag k="ssr:stedsnr" v="13205" />
	</node>
	<node id="-813666" lat="63.7264749998" lon="9.60575554615">
		<tag k="name" v="Kjerkbakken" />
		<tag k="ssr:stedsnr" v="885985" />
		<tag k="tourism" v="attraction" />
	</node>
	<node id="-813003" lat="63.7083833376" lon="9.7222111164">
		<tag k="name" v="Austrått fort" />
		<tag k="ssr:stedsnr" v="476979" />
		<tag k="tourism" v="attraction" />
>>>>>>> e1d4bc35ff8a6074a6f2e91616a996b547c36f15
	</node>
</osm>
