<?xml version="1.0" encoding="UTF-8"?>
<osm generator="osmapis" version="0.6">
	<node id="-41215" lat="60.4691805582" lon="11.2449194474">
		<tag k="name" v="Ulvinmyra" />
		<tag k="ssr:date" v="2016-05-10" />
		<tag k="ssr:gruppe" v="veg" />
		<tag k="ssr:hovedgruppe" v="infrastruktur" />
		<tag k="ssr:stedsnr" v="103964" />
		<tag k="ssr:type" v="vegstrekning" />
	</node>
	<node id="-41023" lat="60.3070436651" lon="11.2496166568">
		<tag k="name" v="Sneisrudvegen" />
		<tag k="ssr:date" v="2019-05-30" />
		<tag k="ssr:gruppe" v="veg" />
		<tag k="ssr:hovedgruppe" v="infrastruktur" />
		<tag k="ssr:stedsnr" v="992970" />
		<tag k="ssr:type" v="adressenavn" />
	</node>
	<node id="-41011" lat="60.3062698437" lon="11.3695704007">
		<tag k="name" v="Sjølystvegen" />
		<tag k="ssr:date" v="2019-05-30" />
		<tag k="ssr:gruppe" v="veg" />
		<tag k="ssr:hovedgruppe" v="infrastruktur" />
		<tag k="ssr:stedsnr" v="992955" />
		<tag k="ssr:type" v="adressenavn" />
	</node>
	<node id="-41009" lat="60.2798558894" lon="11.1553259452">
		<tag k="name" v="Granhaugkroken" />
		<tag k="ssr:date" v="2019-05-30" />
		<tag k="ssr:gruppe" v="veg" />
		<tag k="ssr:hovedgruppe" v="infrastruktur" />
		<tag k="ssr:stedsnr" v="992952" />
		<tag k="ssr:type" v="adressenavn" />
	</node>
	<node id="-41586" lat="60.5472611131" lon="11.1412361129">
		<tag k="name" v="Holmtjennsvegen" />
		<tag k="ssr:date" v="2016-05-10" />
		<tag k="ssr:gruppe" v="veg" />
		<tag k="ssr:hovedgruppe" v="infrastruktur" />
		<tag k="ssr:stedsnr" v="465997" />
		<tag k="ssr:type" v="vegstrekning" />
	</node>
	<node id="-41197" lat="60.3138222191" lon="11.2156333251">
		<tag k="name" v="Dønnumskia" />
		<tag k="ssr:date" v="2016-05-10" />
		<tag k="ssr:gruppe" v="veg" />
		<tag k="ssr:hovedgruppe" v="infrastruktur" />
		<tag k="ssr:stedsnr" v="102363" />
		<tag k="ssr:type" v="vegstrekning" />
	</node>
	<node id="-42475" lat="60.5908609473" lon="9.63819281559">
		<tag k="fixme" v="multiple name tags, choose one and add the other to alt_name" />
		<tag k="name" v="Austlandet;Østlandet" />
		<tag k="ssr:date" v="2018-01-09" />
		<tag k="ssr:gruppe" v="administrativeIndelinger" />
		<tag k="ssr:hovedgruppe" v="offentligAdministrasjon" />
		<tag k="ssr:stedsnr" v="974775" />
		<tag k="ssr:type" v="annenAdministrativInndeling" />
	</node>
	<node id="-42474" lat="60.4145974328" lon="11.2619841746">
		<tag k="name" v="Nedre Holtet" />
		<tag k="ssr:date" v="2019-05-30" />
		<tag k="ssr:gruppe" v="veg" />
		<tag k="ssr:hovedgruppe" v="infrastruktur" />
		<tag k="ssr:stedsnr" v="972310" />
		<tag k="ssr:type" v="adressenavn" />
	</node>
	<node id="-41446" lat="60.3390333294" lon="11.1760083348">
		<tag k="name" v="Kvedalsvegen" />
		<tag k="ssr:date" v="2016-05-10" />
		<tag k="ssr:gruppe" v="veg" />
		<tag k="ssr:hovedgruppe" v="infrastruktur" />
		<tag k="ssr:stedsnr" v="239929" />
		<tag k="ssr:type" v="vegstrekning" />
	</node>
	<node id="-41190" lat="60.3353527807" lon="11.1355777807">
		<tag k="name" v="Djupdalsvegen" />
		<tag k="ssr:date" v="2016-05-10" />
		<tag k="ssr:gruppe" v="veg" />
		<tag k="ssr:hovedgruppe" v="infrastruktur" />
		<tag k="ssr:stedsnr" v="101851" />
		<tag k="ssr:type" v="vegstrekning" />
	</node>
	<node id="-41019" lat="60.4313887353" lon="11.2802829286">
		<tag k="name" v="Dorrsvangvegen" />
		<tag k="ssr:date" v="2019-05-30" />
		<tag k="ssr:gruppe" v="veg" />
		<tag k="ssr:hovedgruppe" v="infrastruktur" />
		<tag k="ssr:stedsnr" v="992966" />
		<tag k="ssr:type" v="adressenavn" />
	</node>
	<node id="-42277" lat="60.4319833321" lon="11.2888944503">
		<tag k="name" v="Dorrsvangvegen" />
		<tag k="ssr:date" v="2016-05-11" />
		<tag k="ssr:gruppe" v="veg" />
		<tag k="ssr:hovedgruppe" v="infrastruktur" />
		<tag k="ssr:stedsnr" v="831967" />
		<tag k="ssr:type" v="vegstrekning" />
	</node>
	<node id="-41935" lat="60.2668305571" lon="11.1180722275">
		<tag k="name" v="Sundbyvegen" />
		<tag k="ssr:date" v="2016-05-10" />
		<tag k="ssr:gruppe" v="veg" />
		<tag k="ssr:hovedgruppe" v="infrastruktur" />
		<tag k="ssr:stedsnr" v="661746" />
		<tag k="ssr:type" v="vegstrekning" />
	</node>
	<node id="-41038" lat="60.4034360581" lon="11.1440957549">
		<tag k="name" v="Mistbergvegen" />
		<tag k="ssr:date" v="2019-05-30" />
		<tag k="ssr:gruppe" v="veg" />
		<tag k="ssr:hovedgruppe" v="infrastruktur" />
		<tag k="ssr:stedsnr" v="992981" />
		<tag k="ssr:type" v="adressenavn" />
	</node>
	<node id="-41042" lat="60.2299464334" lon="11.2279186884">
		<tag k="name" v="Sætrevegen i Ullensaker" />
		<tag k="ssr:date" v="2019-05-30" />
		<tag k="ssr:gruppe" v="veg" />
		<tag k="ssr:hovedgruppe" v="infrastruktur" />
		<tag k="ssr:stedsnr" v="993394" />
		<tag k="ssr:type" v="adressenavn" />
	</node>
	<node id="-41041" lat="60.3288766069" lon="11.124408053">
		<tag k="name" v="Djupdalsvegen" />
		<tag k="ssr:date" v="2019-05-30" />
		<tag k="ssr:gruppe" v="veg" />
		<tag k="ssr:hovedgruppe" v="infrastruktur" />
		<tag k="ssr:stedsnr" v="992985" />
		<tag k="ssr:type" v="adressenavn" />
	</node>
	<node id="-41040" lat="60.4768475559" lon="11.2398854827">
		<tag k="name" v="Gamle Kongevegen" />
		<tag k="ssr:date" v="2019-05-30" />
		<tag k="ssr:gruppe" v="veg" />
		<tag k="ssr:hovedgruppe" v="infrastruktur" />
		<tag k="ssr:stedsnr" v="992984" />
		<tag k="ssr:type" v="adressenavn" />
	</node>
	<node id="-41679" lat="60.4235722255" lon="11.1478277778">
		<tag k="name" v="Rynesvegen" />
		<tag k="ssr:date" v="2016-05-10" />
		<tag k="ssr:gruppe" v="veg" />
		<tag k="ssr:hovedgruppe" v="infrastruktur" />
		<tag k="ssr:stedsnr" v="527870" />
		<tag k="ssr:type" v="vegstrekning" />
	</node>
	<node id="-41934" lat="60.2497694469" lon="11.1367055508">
		<tag k="name" v="Dompavegen" />
		<tag k="ssr:date" v="2016-05-10" />
		<tag k="ssr:gruppe" v="veg" />
		<tag k="ssr:hovedgruppe" v="infrastruktur" />
		<tag k="ssr:stedsnr" v="661744" />
		<tag k="ssr:type" v="vegstrekning" />
	</node>
	<node id="-42445" lat="60.4233833339" lon="11.1771194376">
		<tag k="name" v="Himtjennsvegen" />
		<tag k="ssr:date" v="2016-05-11" />
		<tag k="ssr:gruppe" v="veg" />
		<tag k="ssr:hovedgruppe" v="infrastruktur" />
		<tag k="ssr:stedsnr" v="952865" />
		<tag k="ssr:type" v="vegstrekning" />
	</node>
	<node id="-41036" lat="60.3551451248" lon="11.1903626228">
		<tag k="name" v="Gamle Spetalsvegen" />
		<tag k="ssr:date" v="2019-05-30" />
		<tag k="ssr:gruppe" v="veg" />
		<tag k="ssr:hovedgruppe" v="infrastruktur" />
		<tag k="ssr:stedsnr" v="992979" />
		<tag k="ssr:type" v="adressenavn" />
	</node>
	<node id="-41035" lat="60.2559595271" lon="11.2128768969">
		<tag k="name" v="Skytterblinken" />
		<tag k="ssr:date" v="2019-05-30" />
		<tag k="ssr:gruppe" v="veg" />
		<tag k="ssr:hovedgruppe" v="infrastruktur" />
		<tag k="ssr:stedsnr" v="992934" />
		<tag k="ssr:type" v="adressenavn" />
	</node>
	<node id="-41290" lat="60.3288953409" lon="11.2611876079">
		<tag k="name" v="Eidsvoll kommune" />
		<tag k="ssr:date" v="2018-10-23" />
		<tag k="ssr:gruppe" v="administrativeIndelinger" />
		<tag k="ssr:hovedgruppe" v="offentligAdministrasjon" />
		<tag k="ssr:stedsnr" v="146314" />
		<tag k="ssr:type" v="kommune" />
	</node>
	<node id="-41033" lat="60.4221128565" lon="11.2386584406">
		<tag k="name" v="Ørbekkvegen" />
		<tag k="ssr:date" v="2019-05-30" />
		<tag k="ssr:gruppe" v="veg" />
		<tag k="ssr:hovedgruppe" v="infrastruktur" />
		<tag k="ssr:stedsnr" v="992746" />
		<tag k="ssr:type" v="adressenavn" />
	</node>
	<node id="-41416" lat="60.4135111149" lon="11.2586277755">
		<tag k="name" v="Holtevegen" />
		<tag k="ssr:date" v="2016-05-10" />
		<tag k="ssr:gruppe" v="veg" />
		<tag k="ssr:hovedgruppe" v="infrastruktur" />
		<tag k="ssr:stedsnr" v="224970" />
		<tag k="ssr:type" v="vegstrekning" />
	</node>
	<node id="-41031" lat="60.36507823" lon="11.1417781596">
		<tag k="name" v="Klaravegen" />
		<tag k="ssr:date" v="2019-05-30" />
		<tag k="ssr:gruppe" v="veg" />
		<tag k="ssr:hovedgruppe" v="infrastruktur" />
		<tag k="ssr:stedsnr" v="992978" />
		<tag k="ssr:type" v="adressenavn" />
	</node>
	<node id="-41030" lat="60.4099905702" lon="11.1709009451">
		<tag k="name" v="Dammen" />
		<tag k="ssr:date" v="2019-05-30" />
		<tag k="ssr:gruppe" v="veg" />
		<tag k="ssr:hovedgruppe" v="infrastruktur" />
		<tag k="ssr:stedsnr" v="992977" />
		<tag k="ssr:type" v="adressenavn" />
	</node>
	<node id="-41029" lat="60.3845186935" lon="11.190455581">
		<tag k="name" v="Hesthagan" />
		<tag k="ssr:date" v="2019-05-30" />
		<tag k="ssr:gruppe" v="veg" />
		<tag k="ssr:hovedgruppe" v="infrastruktur" />
		<tag k="ssr:stedsnr" v="992976" />
		<tag k="ssr:type" v="adressenavn" />
	</node>
	<node id="-41028" lat="60.383897274" lon="11.1895736921">
		<tag k="name" v="Julsrudseterbakken" />
		<tag k="ssr:date" v="2019-05-30" />
		<tag k="ssr:gruppe" v="veg" />
		<tag k="ssr:hovedgruppe" v="infrastruktur" />
		<tag k="ssr:stedsnr" v="992975" />
		<tag k="ssr:type" v="adressenavn" />
	</node>
	<node id="-41027" lat="60.4097735933" lon="11.1627635463">
		<tag k="name" v="Rynesvegen" />
		<tag k="ssr:date" v="2019-05-30" />
		<tag k="ssr:gruppe" v="veg" />
		<tag k="ssr:hovedgruppe" v="infrastruktur" />
		<tag k="ssr:stedsnr" v="992974" />
		<tag k="ssr:type" v="adressenavn" />
	</node>
	<node id="-41026" lat="60.4320875989" lon="11.2817494013">
		<tag k="name" v="Trehørningsvegen" />
		<tag k="ssr:date" v="2019-05-30" />
		<tag k="ssr:gruppe" v="veg" />
		<tag k="ssr:hovedgruppe" v="infrastruktur" />
		<tag k="ssr:stedsnr" v="992973" />
		<tag k="ssr:type" v="adressenavn" />
	</node>
	<node id="-41025" lat="60.349378963" lon="11.3655795823">
		<tag k="name" v="Stormyra" />
		<tag k="ssr:date" v="2019-05-30" />
		<tag k="ssr:gruppe" v="veg" />
		<tag k="ssr:hovedgruppe" v="infrastruktur" />
		<tag k="ssr:stedsnr" v="992972" />
		<tag k="ssr:type" v="adressenavn" />
	</node>
	<node id="-41024" lat="60.2750732692" lon="11.175407667">
		<tag k="name" v="Krokroa" />
		<tag k="ssr:date" v="2019-05-30" />
		<tag k="ssr:gruppe" v="veg" />
		<tag k="ssr:hovedgruppe" v="infrastruktur" />
		<tag k="ssr:stedsnr" v="992971" />
		<tag k="ssr:type" v="adressenavn" />
	</node>
	<node id="-41039" lat="60.2816634467" lon="11.1534768686">
		<tag k="name" v="Solbakken" />
		<tag k="ssr:date" v="2019-05-30" />
		<tag k="ssr:gruppe" v="veg" />
		<tag k="ssr:hovedgruppe" v="infrastruktur" />
		<tag k="ssr:stedsnr" v="992983" />
		<tag k="ssr:type" v="adressenavn" />
	</node>
	<node id="-41022" lat="60.3283316686" lon="11.3404074236">
		<tag k="name" v="Karl Johans-vegen" />
		<tag k="ssr:date" v="2019-05-30" />
		<tag k="ssr:gruppe" v="veg" />
		<tag k="ssr:hovedgruppe" v="infrastruktur" />
		<tag k="ssr:stedsnr" v="992969" />
		<tag k="ssr:type" v="adressenavn" />
	</node>
	<node id="-41021" lat="60.4625202061" lon="11.295319905">
		<tag k="name" v="Kobberverksfaret" />
		<tag k="ssr:date" v="2019-05-30" />
		<tag k="ssr:gruppe" v="veg" />
		<tag k="ssr:hovedgruppe" v="infrastruktur" />
		<tag k="ssr:stedsnr" v="992968" />
		<tag k="ssr:type" v="adressenavn" />
	</node>
	<node id="-41020" lat="60.444347986" lon="11.2903632028">
		<tag k="name" v="Korslunddalsvegen" />
		<tag k="ssr:date" v="2019-05-30" />
		<tag k="ssr:gruppe" v="veg" />
		<tag k="ssr:hovedgruppe" v="infrastruktur" />
		<tag k="ssr:stedsnr" v="992967" />
		<tag k="ssr:type" v="adressenavn" />
	</node>
	<node id="-41034" lat="60.3739603514" lon="11.360961859">
		<tag k="name" v="Øvre Rikardsbråtan" />
		<tag k="ssr:date" v="2019-05-30" />
		<tag k="ssr:gruppe" v="veg" />
		<tag k="ssr:hovedgruppe" v="infrastruktur" />
		<tag k="ssr:stedsnr" v="992909" />
		<tag k="ssr:type" v="adressenavn" />
	</node>
	<node id="-41018" lat="60.323284548" lon="11.2916323402">
		<tag k="name" v="Trollåsen" />
		<tag k="ssr:date" v="2019-05-30" />
		<tag k="ssr:gruppe" v="veg" />
		<tag k="ssr:hovedgruppe" v="infrastruktur" />
		<tag k="ssr:stedsnr" v="992963" />
		<tag k="ssr:type" v="adressenavn" />
	</node>
	<node id="-41017" lat="60.3568263416" lon="11.3466259332">
		<tag k="name" v="Smievegen" />
		<tag k="ssr:date" v="2019-05-30" />
		<tag k="ssr:gruppe" v="veg" />
		<tag k="ssr:hovedgruppe" v="infrastruktur" />
		<tag k="ssr:stedsnr" v="992961" />
		<tag k="ssr:type" v="adressenavn" />
	</node>
	<node id="-41016" lat="60.4241110067" lon="11.3281657215">
		<tag k="name" v="Skjerpvegen" />
		<tag k="ssr:date" v="2019-05-30" />
		<tag k="ssr:gruppe" v="veg" />
		<tag k="ssr:hovedgruppe" v="infrastruktur" />
		<tag k="ssr:stedsnr" v="992960" />
		<tag k="ssr:type" v="adressenavn" />
	</node>
	<node id="-41015" lat="60.4350534736" lon="11.2961828095">
		<tag k="name" v="Grønnsjøvegen" />
		<tag k="ssr:date" v="2019-05-30" />
		<tag k="ssr:gruppe" v="veg" />
		<tag k="ssr:hovedgruppe" v="infrastruktur" />
		<tag k="ssr:stedsnr" v="992959" />
		<tag k="ssr:type" v="adressenavn" />
	</node>
	<node id="-41014" lat="60.4467419072" lon="11.3233020652">
		<tag k="name" v="Brøstadvangen" />
		<tag k="ssr:date" v="2019-05-30" />
		<tag k="ssr:gruppe" v="veg" />
		<tag k="ssr:hovedgruppe" v="infrastruktur" />
		<tag k="ssr:stedsnr" v="992958" />
		<tag k="ssr:type" v="adressenavn" />
	</node>
	<node id="-41013" lat="60.4153043796" lon="11.3542318824">
		<tag k="name" v="Fremminvangvegen" />
		<tag k="ssr:date" v="2019-05-30" />
		<tag k="ssr:gruppe" v="veg" />
		<tag k="ssr:hovedgruppe" v="infrastruktur" />
		<tag k="ssr:stedsnr" v="992957" />
		<tag k="ssr:type" v="adressenavn" />
	</node>
	<node id="-41780" lat="60.2644805524" lon="11.1279916647">
		<tag k="name" v="Flatnervegen" />
		<tag k="ssr:date" v="2016-05-10" />
		<tag k="ssr:gruppe" v="veg" />
		<tag k="ssr:hovedgruppe" v="infrastruktur" />
		<tag k="ssr:stedsnr" v="586829" />
		<tag k="ssr:type" v="vegstrekning" />
	</node>
	<node id="-41779" lat="60.2663972182" lon="11.1315500043">
		<tag k="name" v="Dalsvegen" />
		<tag k="ssr:date" v="2016-05-10" />
		<tag k="ssr:gruppe" v="veg" />
		<tag k="ssr:hovedgruppe" v="infrastruktur" />
		<tag k="ssr:stedsnr" v="586824" />
		<tag k="ssr:type" v="vegstrekning" />
	</node>
	<node id="-41010" lat="60.4105734872" lon="11.3574168921">
		<tag k="name" v="Brandtebergvegen" />
		<tag k="ssr:date" v="2019-05-30" />
		<tag k="ssr:gruppe" v="veg" />
		<tag k="ssr:hovedgruppe" v="infrastruktur" />
		<tag k="ssr:stedsnr" v="992954" />
		<tag k="ssr:type" v="adressenavn" />
	</node>
	<node id="-41521" lat="60.3452444412" lon="11.143091668">
		<tag k="name" v="Rømdalsvegen" />
		<tag k="ssr:date" v="2016-05-10" />
		<tag k="ssr:gruppe" v="veg" />
		<tag k="ssr:hovedgruppe" v="infrastruktur" />
		<tag k="ssr:stedsnr" v="421905" />
		<tag k="ssr:type" v="vegstrekning" />
	</node>
	<node id="-41520" lat="60.3411638892" lon="11.1349055494">
		<tag k="name" v="Brennavegen" />
		<tag k="ssr:date" v="2016-05-10" />
		<tag k="ssr:gruppe" v="veg" />
		<tag k="ssr:hovedgruppe" v="infrastruktur" />
		<tag k="ssr:stedsnr" v="421880" />
		<tag k="ssr:type" v="vegstrekning" />
	</node>
	<node id="-41032" lat="60.395192168" lon="11.2306917709">
		<tag k="name" v="Minne stasjon" />
		<tag k="ssr:date" v="2019-05-30" />
		<tag k="ssr:gruppe" v="veg" />
		<tag k="ssr:hovedgruppe" v="infrastruktur" />
		<tag k="ssr:stedsnr" v="992734" />
		<tag k="ssr:type" v="adressenavn" />
	</node>
	<node id="-41006" lat="60.3254175288" lon="11.2709818719">
		<tag k="name" v="Vormvikstubben" />
		<tag k="ssr:date" v="2019-05-30" />
		<tag k="ssr:gruppe" v="veg" />
		<tag k="ssr:hovedgruppe" v="infrastruktur" />
		<tag k="ssr:stedsnr" v="992949" />
		<tag k="ssr:type" v="adressenavn" />
	</node>
	<node id="-41005" lat="60.2854322598" lon="11.1446558497">
		<tag k="name" v="Merravegen" />
		<tag k="ssr:date" v="2019-05-30" />
		<tag k="ssr:gruppe" v="veg" />
		<tag k="ssr:hovedgruppe" v="infrastruktur" />
		<tag k="ssr:stedsnr" v="992948" />
		<tag k="ssr:type" v="adressenavn" />
	</node>
	<node id="-42156" lat="60.4440166709" lon="11.3151222247">
		<tag k="name" v="Grønnsjøvegen" />
		<tag k="ssr:date" v="2016-05-11" />
		<tag k="ssr:gruppe" v="veg" />
		<tag k="ssr:hovedgruppe" v="infrastruktur" />
		<tag k="ssr:stedsnr" v="770969" />
		<tag k="ssr:type" v="vegstrekning" />
	</node>
	<node id="-41771" lat="60.5368583341" lon="11.1356444464">
		<tag k="name" v="Blakervegen" />
		<tag k="ssr:date" v="2016-05-10" />
		<tag k="ssr:gruppe" v="veg" />
		<tag k="ssr:hovedgruppe" v="infrastruktur" />
		<tag k="ssr:stedsnr" v="586015" />
		<tag k="ssr:type" v="vegstrekning" />
	</node>
	<node id="-41002" lat="60.2773094884" lon="11.2227224769">
		<tag k="name" v="Ødegård" />
		<tag k="ssr:date" v="2019-05-30" />
		<tag k="ssr:gruppe" v="veg" />
		<tag k="ssr:hovedgruppe" v="infrastruktur" />
		<tag k="ssr:stedsnr" v="992945" />
		<tag k="ssr:type" v="adressenavn" />
	</node>
	<node id="-41001" lat="60.2967948524" lon="11.1460845551">
		<tag k="name" v="Møllerudgutua" />
		<tag k="ssr:date" v="2019-05-30" />
		<tag k="ssr:gruppe" v="veg" />
		<tag k="ssr:hovedgruppe" v="infrastruktur" />
		<tag k="ssr:stedsnr" v="992944" />
		<tag k="ssr:type" v="adressenavn" />
	</node>
	<node id="-41000" lat="60.2967168949" lon="11.145961812">
		<tag k="name" v="Sundavegen" />
		<tag k="ssr:date" v="2019-05-30" />
		<tag k="ssr:gruppe" v="veg" />
		<tag k="ssr:hovedgruppe" v="infrastruktur" />
		<tag k="ssr:stedsnr" v="992943" />
		<tag k="ssr:type" v="adressenavn" />
	</node>
	<node id="-42278" lat="60.4623138889" lon="11.0963305476">
		<tag k="name" v="Tisjøvegen" />
		<tag k="ssr:date" v="2016-05-11" />
		<tag k="ssr:gruppe" v="veg" />
		<tag k="ssr:hovedgruppe" v="infrastruktur" />
		<tag k="ssr:stedsnr" v="831998" />
		<tag k="ssr:type" v="vegstrekning" />
	</node>
	<node id="-41509" lat="60.2698666624" lon="11.1460444463">
		<tag k="name" v="Rismyrvegen" />
		<tag k="ssr:date" v="2016-05-10" />
		<tag k="ssr:gruppe" v="veg" />
		<tag k="ssr:hovedgruppe" v="infrastruktur" />
		<tag k="ssr:stedsnr" v="479782" />
		<tag k="ssr:type" v="vegstrekning" />
	</node>
	<node id="-40996" lat="60.3284496195" lon="11.2586151011">
		<tag k="name" v="Eidsiva gate" />
		<tag k="ssr:date" v="2019-05-31" />
		<tag k="ssr:gruppe" v="veg" />
		<tag k="ssr:hovedgruppe" v="infrastruktur" />
		<tag k="ssr:stedsnr" v="1070969" />
		<tag k="ssr:type" v="adressenavn" />
	</node>
	<node id="-40995" lat="60.2675771445" lon="11.3235981355">
		<tag k="name" v="Eidsvollvegen i Nes" />
		<tag k="ssr:date" v="2019-05-31" />
		<tag k="ssr:gruppe" v="veg" />
		<tag k="ssr:hovedgruppe" v="infrastruktur" />
		<tag k="ssr:stedsnr" v="1070691" />
		<tag k="ssr:type" v="adressenavn" />
	</node>
	<node id="-40865" lat="60.3449972259" lon="11.2211916722">
		<tag k="name" v="Smedstadgutua" />
		<tag k="ssr:date" v="2016-05-10" />
		<tag k="ssr:gruppe" v="veg" />
		<tag k="ssr:hovedgruppe" v="infrastruktur" />
		<tag k="ssr:stedsnr" v="360918" />
		<tag k="ssr:type" v="vegstrekning" />
	</node>
	<node id="-41008" lat="60.2911764245" lon="11.3103594584">
		<tag k="name" v="Frilsetåsen" />
		<tag k="ssr:date" v="2019-05-30" />
		<tag k="ssr:gruppe" v="veg" />
		<tag k="ssr:hovedgruppe" v="infrastruktur" />
		<tag k="ssr:stedsnr" v="992951" />
		<tag k="ssr:type" v="adressenavn" />
	</node>
	<node id="-41007" lat="60.3257107621" lon="11.2727447995">
		<tag k="name" v="Vormvikhagan" />
		<tag k="ssr:date" v="2019-05-30" />
		<tag k="ssr:gruppe" v="veg" />
		<tag k="ssr:hovedgruppe" v="infrastruktur" />
		<tag k="ssr:stedsnr" v="992950" />
		<tag k="ssr:type" v="adressenavn" />
	</node>
	<node id="-42261" lat="60.2617666706" lon="11.1413555509">
		<tag k="name" v="Dalsvegen" />
		<tag k="ssr:date" v="2016-05-11" />
		<tag k="ssr:gruppe" v="veg" />
		<tag k="ssr:hovedgruppe" v="infrastruktur" />
		<tag k="ssr:stedsnr" v="829832" />
		<tag k="ssr:type" v="vegstrekning" />
	</node>
	<node id="-41012" lat="60.3052686424" lon="11.3651132867">
		<tag k="name" v="Frilsetvangvegen" />
		<tag k="ssr:date" v="2019-05-30" />
		<tag k="ssr:gruppe" v="veg" />
		<tag k="ssr:hovedgruppe" v="infrastruktur" />
		<tag k="ssr:stedsnr" v="992956" />
		<tag k="ssr:type" v="adressenavn" />
	</node>
	<node id="-40977" lat="60.3761638877" lon="11.124425001">
		<tag k="name" v="Spetalsvegen" />
		<tag k="ssr:date" v="2016-05-11" />
		<tag k="ssr:gruppe" v="veg" />
		<tag k="ssr:hovedgruppe" v="infrastruktur" />
		<tag k="ssr:stedsnr" v="890866" />
		<tag k="ssr:type" v="vegstrekning" />
	</node>
	<node id="-41104" lat="60.2439305537" lon="11.253008338">
		<tag k="name" v="Setervegen" />
		<tag k="ssr:date" v="2016-05-10" />
		<tag k="ssr:gruppe" v="veg" />
		<tag k="ssr:hovedgruppe" v="infrastruktur" />
		<tag k="ssr:stedsnr" v="55750" />
		<tag k="ssr:type" v="vegstrekning" />
	</node>
	<node id="-41103" lat="60.2679194475" lon="11.1431500002">
		<tag k="name" v="Statsrådvegen" />
		<tag k="ssr:date" v="2016-05-10" />
		<tag k="ssr:gruppe" v="veg" />
		<tag k="ssr:hovedgruppe" v="infrastruktur" />
		<tag k="ssr:stedsnr" v="55739" />
		<tag k="ssr:type" v="vegstrekning" />
	</node>
	<node id="-40975" lat="60.2550972252" lon="11.1271999968">
		<tag k="name" v="Furuvegen" />
		<tag k="ssr:date" v="2016-05-11" />
		<tag k="ssr:gruppe" v="veg" />
		<tag k="ssr:hovedgruppe" v="infrastruktur" />
		<tag k="ssr:stedsnr" v="890841" />
		<tag k="ssr:type" v="vegstrekning" />
	</node>
	<node id="-41004" lat="60.2872263788" lon="11.1486323607">
		<tag k="name" v="Dalstunet" />
		<tag k="ssr:date" v="2019-05-30" />
		<tag k="ssr:gruppe" v="veg" />
		<tag k="ssr:hovedgruppe" v="infrastruktur" />
		<tag k="ssr:stedsnr" v="992947" />
		<tag k="ssr:type" v="adressenavn" />
	</node>
	<node id="-41037" lat="60.3566278962" lon="11.1903188835">
		<tag k="name" v="Nysetervegen" />
		<tag k="ssr:date" v="2019-05-30" />
		<tag k="ssr:gruppe" v="veg" />
		<tag k="ssr:hovedgruppe" v="infrastruktur" />
		<tag k="ssr:stedsnr" v="992980" />
		<tag k="ssr:type" v="adressenavn" />
	</node>
	<node id="-41003" lat="60.4312885101" lon="11.2801559664">
		<tag k="name" v="Kvernhusvika" />
		<tag k="ssr:date" v="2019-05-30" />
		<tag k="ssr:gruppe" v="veg" />
		<tag k="ssr:hovedgruppe" v="infrastruktur" />
		<tag k="ssr:stedsnr" v="992946" />
		<tag k="ssr:type" v="adressenavn" />
	</node>
</osm>
