<?xml version="1.0" encoding="UTF-8"?>
<osm version="0.6" generator="osmapis">
	<node id="274829166" lat="60.2104081" lon="10.6002117" version="8" timestamp="2022-04-19T05:41:41Z" changeset="119887389" uid="3497659" user="NKA">
		<tag k="alt_name" v="Syljusetra;Syljuseter" />
		<tag k="historic" v="shieling" />
		<tag k="historic:operator" v="Hole;Gunstad;Ballangrud østre" />
		<tag k="name" v="Syljusætra" />
		<tag k="official_name" v="Syljusæter" />
		<tag k="place" v="isolated_dwelling" />
		<tag k="ssr:stedsnr" v="369427" />
	</node>
	<node id="281281104" lat="60.1765336" lon="10.6424194" version="7" timestamp="2022-01-31T06:42:31Z" changeset="116807300" uid="3497659" user="NKA">
		<tag k="bicycle" v="yes" />
		<tag k="information" v="guidepost" />
		<tag k="junction" v="yes" />
		<tag k="name" v="Almedalskrysset" />
		<tag k="operator" v="Skiforeningen" />
		<tag k="ssr:stedsnr" v="828031" />
		<tag k="tourism" v="information" />
	</node>
	<node id="852345521" lat="60.20405" lon="10.6741907" version="8" timestamp="2022-04-19T05:41:41Z" changeset="119887389" uid="3497659" user="NKA">
		<tag k="alt_name" v="Gagnumseter" />
		<tag k="attribution" v="Kart over Nordmarka 1934, Major H. K. Hertzberg, på grunnlag av NGO karter" />
		<tag k="historic" v="shieling" />
		<tag k="historic:operator" v="Gagnum;Holm;Fagerholt" />
		<tag k="name" v="Gagnumsætra" />
		<tag k="place" v="isolated_dwelling" />
		<tag k="source:name" v="Kart Nordmarka 1934 (out of copyright map)" />
		<tag k="ssr:stedsnr" v="855447" />
		<tag k="wikidata" v="Q17775739" />
		<tag k="wikipedia" v="no:Gagnumsætra" />
	</node>
	<node id="1376263103" lat="60.2465507" lon="10.6213552" version="8" timestamp="2022-04-19T05:41:41Z" changeset="119887389" uid="3497659" user="NKA">
		<tag k="alt_name" v="Knippasetra" />
		<tag k="historic" v="shieling" />
		<tag k="historic:operator" v="Narverud;Aaslund;Haga;Kalvsjøhagen;Kalvsjø;Skøien;Askilsrud;Bjella" />
		<tag k="name" v="Knippasætra" />
		<tag k="official_name" v="Knippa" />
		<tag k="place" v="isolated_dwelling" />
		<tag k="ssr:stedsnr" v="551380" />
	</node>
	<node id="1408738009" lat="60.2416168" lon="10.7031298" version="2" timestamp="2022-04-19T05:41:41Z" changeset="119887389" uid="3497659" user="NKA">
		<tag k="name" v="Fjellhammer" />
		<tag k="official_name" v="Fjellhammar" />
		<tag k="place" v="farm" />
		<tag k="ssr:stedsnr" v="309421" />
	</node>
	<node id="1459240392" lat="60.2525712" lon="10.6248828" version="2" timestamp="2022-04-19T05:41:41Z" changeset="119887389" uid="3497659" user="NKA">
		<tag k="name" v="Larmerud" />
		<tag k="place" v="farm" />
		<tag k="ssr:stedsnr" v="856788" />
	</node>
	<node id="1530023431" lat="60.2758734" lon="10.5494545" version="5" timestamp="2022-04-19T05:41:41Z" changeset="119887389" uid="3497659" user="NKA">
		<tag k="name" v="Dæhlin" />
		<tag k="official_name" v="Delin" />
		<tag k="place" v="farm" />
		<tag k="ssr:stedsnr" v="127847" />
	</node>
	<node id="1669129541" lat="60.2242087" lon="10.7598781" version="7" timestamp="2022-04-19T05:41:41Z" changeset="119887389" uid="3497659" user="NKA">
		<tag k="alt_name" v="Søndre Morstadsetra" />
		<tag k="historic" v="shieling" />
		<tag k="historic:operator" v="Råstad;Stubne;Ringdalen;Vøien;Morstad;Kolkinn" />
		<tag k="loc_name" v="Indre Morstadsetra" />
		<tag k="name" v="Morstadsætra" />
		<tag k="official_name" v="Morstadsæter" />
		<tag k="old_name" v="Torpesetra" />
		<tag k="place" v="farm" />
		<tag k="ssr:stedsnr" v="5834" />
	</node>
	<node id="1737293674" lat="60.206619" lon="10.7124285" version="5" timestamp="2022-04-19T05:41:41Z" changeset="119887389" uid="3497659" user="NKA">
		<tag k="name" v="Harestua" />
		<tag k="place" v="village" />
		<tag k="population" v="2376" />
		<tag k="population:date" v="2021-01-01" />
		<tag k="ref:ssb_tettsted" v="1664" />
		<tag k="source:population" v="SSB - befolkning i tettstedet" />
		<tag k="ssr:stedsnr" v="430051" />
	</node>
	<node id="1936775011" lat="60.2910568" lon="10.707615" version="6" timestamp="2022-04-19T05:41:41Z" changeset="119887389" uid="3497659" user="NKA">
		<tag k="historic" v="shieling" />
		<tag k="historic:operator" v="Håkenstad" />
		<tag k="name" v="Håkenstadsætra" />
		<tag k="place" v="isolated_dwelling" />
		<tag k="ssr:stedsnr" v="249860" />
	</node>
	<node id="1936784340" lat="60.2838475" lon="10.681893" version="2" timestamp="2022-04-19T05:41:41Z" changeset="119887389" uid="3497659" user="NKA">
		<tag k="name" v="Bråtån" />
		<tag k="place" v="farm" />
		<tag k="ssr:stedsnr" v="734817" />
	</node>
	<node id="1936784346" lat="60.2831926" lon="10.6716067" version="2" timestamp="2022-04-19T05:41:41Z" changeset="119887389" uid="3497659" user="NKA">
		<tag k="name" v="Munkerud" />
		<tag k="place" v="farm" />
		<tag k="ssr:stedsnr" v="767236" />
	</node>
	<node id="1936789880" lat="60.2857" lon="10.682375" version="2" timestamp="2022-04-19T05:41:41Z" changeset="119887389" uid="3497659" user="NKA">
		<tag k="name" v="Orhagan" />
		<tag k="place" v="farm" />
		<tag k="ssr:stedsnr" v="188840" />
	</node>
	<node id="2092677361" lat="60.2710134" lon="10.6081898" version="3" timestamp="2022-04-19T05:41:41Z" changeset="119887389" uid="3497659" user="NKA">
		<tag k="name" v="Holmen" />
		<tag k="place" v="farm" />
		<tag k="ssr:stedsnr" v="188832" />
	</node>
	<node id="2092677369" lat="60.2761478" lon="10.573521" version="2" timestamp="2022-04-19T05:41:41Z" changeset="119887389" uid="3497659" user="NKA">
		<tag k="name" v="Jonsrud" />
		<tag k="place" v="farm" />
		<tag k="ssr:stedsnr" v="673839" />
	</node>
	<node id="2092677376" lat="60.2531346" lon="10.6472756" version="2" timestamp="2022-04-19T05:41:41Z" changeset="119887389" uid="3497659" user="NKA">
		<tag k="name" v="Larshus" />
		<tag k="place" v="farm" />
		<tag k="ssr:stedsnr" v="612769" />
	</node>
	<node id="2092677381" lat="60.2772875" lon="10.5631486" version="2" timestamp="2022-04-19T05:41:41Z" changeset="119887389" uid="3497659" user="NKA">
		<tag k="name" v="Linstad" />
		<tag k="place" v="farm" />
		<tag k="ssr:stedsnr" v="127849" />
	</node>
	<node id="2092677390" lat="60.2583652" lon="10.6385991" version="3" timestamp="2022-04-19T05:41:41Z" changeset="119887389" uid="3497659" user="NKA">
		<tag k="name" v="Muttabråten" />
		<tag k="official_name" v="Muttabråtån" />
		<tag k="place" v="farm" />
		<tag k="ssr:stedsnr" v="309750" />
	</node>
	<node id="2092677393" lat="60.278651" lon="10.5872246" version="2" timestamp="2022-04-19T05:41:41Z" changeset="119887389" uid="3497659" user="NKA">
		<tag k="alt_name" v="Oppen, øvre" />
		<tag k="name" v="Øvre Oppen" />
		<tag k="place" v="farm" />
		<tag k="ssr:stedsnr" v="795831" />
	</node>
	<node id="2095539576" lat="60.2239076" lon="10.7084151" version="2" timestamp="2022-04-19T05:41:41Z" changeset="119887389" uid="3497659" user="NKA">
		<tag k="alt_name" v="Hanekne" />
		<tag k="name" v="Hanakne" />
		<tag k="place" v="farm" />
		<tag k="ssr:stedsnr" v="187462" />
	</node>
	<node id="2096801310" lat="60.2344926" lon="10.6460305" version="9" timestamp="2022-04-19T05:41:41Z" changeset="119887389" uid="3497659" user="NKA">
		<tag k="historic" v="shieling" />
		<tag k="historic:operator" v="Heier;Håvelsrud;Ulven;Løken;Bråstad" />
		<tag k="name" v="Auretjernsætra" />
		<tag k="place" v="locality" />
		<tag k="ssr:stedsnr" v="794460" />
	</node>
	<node id="2096801311" lat="60.2473358" lon="10.6417827" version="2" timestamp="2022-04-19T05:41:41Z" changeset="119887389" uid="3497659" user="NKA">
		<tag k="name" v="Godlia" />
		<tag k="official_name" v="Godli" />
		<tag k="place" v="farm" />
		<tag k="ssr:stedsnr" v="734429" />
	</node>
	<node id="2098872909" lat="60.1986439" lon="10.5910208" version="2" timestamp="2022-04-19T05:41:41Z" changeset="119887389" uid="3497659" user="NKA">
		<tag k="name" v="Gjerdingen" />
		<tag k="place" v="farm" />
		<tag k="ssr:stedsnr" v="430439" />
	</node>
	<node id="2257419117" lat="60.2333111" lon="10.6111" version="7" timestamp="2022-04-19T05:41:41Z" changeset="119887389" uid="3497659" user="NKA">
		<tag k="end_date" v="1953" />
		<tag k="historic" v="shieling" />
		<tag k="historic:operator" v="Kittilsrud;Espen;Blekkerud;Heier;Grimsrud;Kjekshus;Torgersrud" />
		<tag k="name" v="Bislingsætra" />
		<tag k="place" v="isolated_dwelling" />
		<tag k="ssr:stedsnr" v="855389" />
	</node>
	<node id="2528806700" lat="60.2742218" lon="10.7194772" version="4" timestamp="2022-04-19T05:41:41Z" changeset="119887389" uid="3497659" user="NKA">
		<tag k="alt_name" v="Flåtatjernsetra" />
		<tag k="fixme" v="position" />
		<tag k="historic" v="shieling" />
		<tag k="name" v="Flåtasæter" />
		<tag k="place" v="isolated_dwelling" />
		<tag k="ssr:stedsnr" v="734363" />
	</node>
	<node id="2528806701" lat="60.1795504" lon="10.7445055" version="6" timestamp="2022-04-19T05:41:41Z" changeset="119887389" uid="3497659" user="NKA">
		<tag k="alt_name" v="Rudseter" />
		<tag k="historic" v="shieling" />
		<tag k="name" v="Rudsæter" />
		<tag k="place" v="isolated_dwelling" />
		<tag k="ssr:stedsnr" v="794787" />
	</node>
	<node id="2614952415" lat="60.1937734" lon="10.7336791" version="3" timestamp="2022-04-19T05:41:41Z" changeset="119887389" uid="3497659" user="NKA">
		<tag k="historic" v="shieling" />
		<tag k="name" v="Midtre Lauvlia" />
		<tag k="place" v="isolated_dwelling" />
		<tag k="ssr:stedsnr" v="282654" />
	</node>
	<node id="2614952418" lat="60.196244" lon="10.7349066" version="3" timestamp="2022-04-19T05:41:41Z" changeset="119887389" uid="3497659" user="NKA">
		<tag k="alt_name" v="Lauvlia" />
		<tag k="historic" v="shieling" />
		<tag k="name" v="Nordre Lauvlia" />
		<tag k="place" v="isolated_dwelling" />
		<tag k="ssr:stedsnr" v="187743" />
	</node>
	<node id="2614952420" lat="60.1923507" lon="10.7335391" version="4" timestamp="2022-04-19T05:41:41Z" changeset="119887389" uid="3497659" user="NKA">
		<tag k="alt_name" v="Søndre Løvli" />
		<tag k="historic" v="shieling" />
		<tag k="name" v="Søndre Lauvlia" />
		<tag k="place" v="isolated_dwelling" />
		<tag k="ssr:stedsnr" v="645663" />
	</node>
	<node id="2983282479" lat="60.1725901" lon="10.6157216" version="6" timestamp="2022-04-19T05:41:41Z" changeset="119887389" uid="3497659" user="NKA">
		<tag k="alt_name" v="Båhussætra" />
		<tag k="historic" v="shieling" />
		<tag k="historic:operator" v="Gramstad;Holt;Vestern;Haga;Fellberg;Rustad;Gårdsrud;Vaterud;Kinge;Wirstad" />
		<tag k="name" v="Båhussætra" />
		<tag k="place" v="locality" />
		<tag k="ssr:stedsnr" v="612030" />
	</node>
	<node id="2983282482" lat="60.1621304" lon="10.5792805" version="7" timestamp="2022-04-19T05:41:41Z" changeset="119887389" uid="3497659" user="NKA">
		<tag k="historic" v="shieling" />
		<tag k="historic:operator" v="Bratval;Steinsrud;Skårud;Løyken;Heier" />
		<tag k="name" v="Katnossætra" />
		<tag k="official_name" v="Katnossetra" />
		<tag k="place" v="locality" />
		<tag k="source" v="Grimstad, Sverre (2008). Nordmarka: Merker og mysterier;Sentralt stedsnavnregister, Kartverket" />
		<tag k="ssr:stedsnr" v="882829" />
	</node>
	<node id="2983282483" lat="60.16565" lon="10.6697938" version="6" timestamp="2022-04-19T05:41:41Z" changeset="119887389" uid="3497659" user="NKA">
		<tag k="alt_name" v="Nysætra" />
		<tag k="historic" v="shieling" />
		<tag k="historic:operator" v="Gromstad;Virstad;Ulven;Grindvoll;Ballangrud" />
		<tag k="name" v="Nysætra" />
		<tag k="place" v="isolated_dwelling" />
		<tag k="ssr:stedsnr" v="126020" />
	</node>
	<node id="2983442796" lat="60.2272651" lon="10.5685475" version="7" timestamp="2022-04-19T05:41:41Z" changeset="119887389" uid="3497659" user="NKA">
		<tag k="alt_name" v="Ålsjøseter;Åsjøseter" />
		<tag k="historic" v="shieling" />
		<tag k="historic:operator" v="Bakkehaugen;Enger;Engerødegård;Greftegreff;Klinkenberg;Tronrud" />
		<tag k="name" v="Åssjøsætra" />
		<tag k="official_name" v="Ålsjøsætra" />
		<tag k="old_name" v="Årsjøsætra;Åsjøseter;Aalsjö seter" />
		<tag k="place" v="isolated_dwelling" />
		<tag k="ssr:stedsnr" v="5457" />
	</node>
	<node id="3169023776" lat="60.1926934" lon="10.6685376" version="5" timestamp="2022-04-19T05:41:41Z" changeset="119887389" uid="3497659" user="NKA">
		<tag k="historic" v="shieling" />
		<tag k="historic:operator" v="Kjørven;Ohren" />
		<tag k="name" v="Holoasætra" />
		<tag k="official_name" v="Holoa" />
		<tag k="old_name" v="Lortholseter" />
		<tag k="place" v="isolated_dwelling" />
		<tag k="ssr:stedsnr" v="794043" />
	</node>
	<node id="3170847301" lat="60.2999106" lon="10.746688" version="3" timestamp="2022-04-19T05:41:41Z" changeset="119887389" uid="3497659" user="NKA">
		<tag k="historic" v="shieling" />
		<tag k="historic:operator" v="Børmarken;Lyngstad" />
		<tag k="name" v="Minnestusetra" />
		<tag k="official_name" v="Minnestua" />
		<tag k="place" v="isolated_dwelling" />
		<tag k="ssr:stedsnr" v="916323" />
	</node>
	<node id="3170847302" lat="60.2904562" lon="10.7445861" version="4" timestamp="2022-04-19T05:41:41Z" changeset="119887389" uid="3497659" user="NKA">
		<tag k="alt_name" v="Nordre Morstadsetra" />
		<tag k="historic" v="shieling" />
		<tag k="historic:operator" v="Ulsrud;Råstad;Løken;Skiaker;Haslerud;Morstad" />
		<tag k="name" v="Morstadsetra" />
		<tag k="official_name" v="Morstadsætra" />
		<tag k="place" v="isolated_dwelling" />
		<tag k="ssr:stedsnr" v="249281" />
	</node>
	<node id="3170927624" lat="60.3095583" lon="10.7393499" version="3" timestamp="2022-04-19T05:41:41Z" changeset="119887389" uid="3497659" user="NKA">
		<tag k="historic" v="shieling" />
		<tag k="name" v="Kampesetra" />
		<tag k="place" v="locality" />
		<tag k="ssr:stedsnr" v="962916" />
	</node>
	<node id="3240732590" lat="60.2910036" lon="10.6159594" version="5" timestamp="2022-04-19T05:41:41Z" changeset="119887389" uid="3497659" user="NKA">
		<tag k="name" v="Roa" />
		<tag k="place" v="village" />
		<tag k="population" v="965" />
		<tag k="population:date" v="2021-01-01" />
		<tag k="ref:ssb_tettsted" v="1662" />
		<tag k="source:population" v="SSB - befolkning i tettstedet" />
		<tag k="ssr:stedsnr" v="128806" />
	</node>
	<node id="3530546893" lat="60.2845539" lon="10.5592627" version="2" timestamp="2022-04-19T05:41:41Z" changeset="119887389" uid="3497659" user="NKA">
		<tag k="alt_name" v="Hovelsrud" />
		<tag k="name" v="Håvelsrud" />
		<tag k="place" v="farm" />
		<tag k="ssr:stedsnr" v="6833" />
	</node>
	<node id="3530546895" lat="60.2781145" lon="10.5465532" version="2" timestamp="2022-04-19T05:41:41Z" changeset="119887389" uid="3497659" user="NKA">
		<tag k="name" v="Nordal" />
		<tag k="place" v="farm" />
		<tag k="ssr:stedsnr" v="767081" />
	</node>
	<node id="3727615408" lat="60.26529" lon="10.5416679" version="5" timestamp="2022-04-24T08:38:08Z" changeset="120115150" uid="161619" user="FvGordon">
		<tag k="name" v="Holtevadet" />
		<tag k="place" v="isolated_dwelling" />
		<tag k="ssr:stedsnr" v="673807" />
	</node>
	<node id="3769288378" lat="60.2953514" lon="10.6116737" version="2" timestamp="2022-04-19T05:41:41Z" changeset="119887389" uid="3497659" user="NKA">
		<tag k="name" v="Sand" />
		<tag k="place" v="farm" />
		<tag k="ssr:stedsnr" v="552895" />
	</node>
	<node id="3769288379" lat="60.2771646" lon="10.5703654" version="2" timestamp="2022-04-19T05:41:41Z" changeset="119887389" uid="3497659" user="NKA">
		<tag k="alt_name" v="Svenballerud" />
		<tag k="name" v="Svenbalrud" />
		<tag k="official_name" v="Svenballrud" />
		<tag k="old_name" v="Svenbalrud" />
		<tag k="place" v="farm" />
		<tag k="ssr:stedsnr" v="856839" />
	</node>
	<node id="3773392757" lat="60.2789413" lon="10.5761198" version="2" timestamp="2022-04-19T05:41:41Z" changeset="119887389" uid="3497659" user="NKA">
		<tag k="name" v="Shansi" />
		<tag k="place" v="isolated_dwelling" />
		<tag k="ssr:stedsnr" v="221067" />
	</node>
	<node id="3777348589" lat="60.2879036" lon="10.5866987" version="2" timestamp="2022-04-19T05:41:41Z" changeset="119887389" uid="3497659" user="NKA">
		<tag k="name" v="Bjøralt" />
		<tag k="place" v="hamlet" />
		<tag k="ssr:stedsnr" v="100072" />
	</node>
	<node id="3777348590" lat="60.3034785" lon="10.5747105" version="2" timestamp="2022-04-19T05:41:41Z" changeset="119887389" uid="3497659" user="NKA">
		<tag k="name" v="Haga" />
		<tag k="place" v="farm" />
		<tag k="ssr:stedsnr" v="612905" />
	</node>
	<node id="3777348591" lat="60.3013362" lon="10.5732444" version="2" timestamp="2022-04-19T05:41:41Z" changeset="119887389" uid="3497659" user="NKA">
		<tag k="name" v="Kjørven" />
		<tag k="official_name" v="Kjørrven" />
		<tag k="place" v="hamlet" />
		<tag k="ssr:stedsnr" v="734892" />
	</node>
	<node id="3777348592" lat="60.3178162" lon="10.5943949" version="2" timestamp="2022-04-19T05:41:41Z" changeset="119887389" uid="3497659" user="NKA">
		<tag k="name" v="Nedre Kraggerud" />
		<tag k="place" v="farm" />
		<tag k="ssr:stedsnr" v="160038" />
	</node>
	<node id="3777353269" lat="60.31585" lon="10.5573885" version="3" timestamp="2022-04-19T05:41:41Z" changeset="119887389" uid="3497659" user="NKA">
		<tag k="name" v="Østvoll" />
		<tag k="place" v="farm" />
		<tag k="ssr:stedsnr" v="464061" />
	</node>
	<node id="3778693484" lat="60.2603131" lon="10.5558586" version="4" timestamp="2022-04-19T05:41:41Z" changeset="119887389" uid="3497659" user="NKA">
		<tag k="name" v="Jostadvolla" />
		<tag k="official_name" v="Jørstadvolla" />
		<tag k="old_name" v="Jorstadvolla" />
		<tag k="place" v="farm" />
		<tag k="ssr:stedsnr" v="645097" />
	</node>
	<node id="3779341781" lat="60.2668323" lon="10.5990002" version="2" timestamp="2022-04-19T05:41:41Z" changeset="119887389" uid="3497659" user="NKA">
		<tag k="name" v="Panka" />
		<tag k="place" v="farm" />
		<tag k="ssr:stedsnr" v="127830" />
	</node>
	<node id="3779341784" lat="60.2583949" lon="10.6021763" version="4" timestamp="2022-04-19T05:41:41Z" changeset="119887389" uid="3497659" user="NKA">
		<tag k="alt_name" v="Sveaseter" />
		<tag k="historic" v="shieling" />
		<tag k="name" v="Svesvollen" />
		<tag k="old_name" v="Svea" />
		<tag k="place" v="farm" />
		<tag k="ssr:stedsnr" v="67760" />
	</node>
	<node id="3814473148" lat="60.3044364" lon="10.5789822" version="2" timestamp="2022-04-19T05:41:41Z" changeset="119887389" uid="3497659" user="NKA">
		<tag k="name" v="Lieker" />
		<tag k="place" v="farm" />
		<tag k="ssr:stedsnr" v="221078" />
	</node>
	<node id="3820481678" lat="60.2729604" lon="10.6658643" version="2" timestamp="2022-04-19T05:41:41Z" changeset="119887389" uid="3497659" user="NKA">
		<tag k="name" v="Stålitt" />
		<tag k="place" v="farm" />
		<tag k="ssr:stedsnr" v="856801" />
	</node>
	<node id="3821016797" lat="60.2757303" lon="10.6697047" version="2" timestamp="2022-04-19T05:41:41Z" changeset="119887389" uid="3497659" user="NKA">
		<tag k="name" v="Bilitt" />
		<tag k="place" v="farm" />
		<tag k="ssr:stedsnr" v="431812" />
	</node>
	<node id="3827249461" lat="60.2599343" lon="10.5920932" version="5" timestamp="2022-04-19T05:41:41Z" changeset="119887389" uid="3497659" user="NKA">
		<tag k="alt_name" v="Sørlisetra" />
		<tag k="historic" v="shieling" />
		<tag k="historic:operator" v="Søndre Flatla" />
		<tag k="name" v="Sørlisætra" />
		<tag k="official_name" v="Sørli" />
		<tag k="place" v="isolated_dwelling" />
		<tag k="ssr:stedsnr" v="767098" />
	</node>
	<node id="3846662932" lat="60.3067683" lon="10.5842149" version="6" timestamp="2022-04-19T05:41:41Z" changeset="119887389" uid="3497659" user="NKA">
		<tag k="name" v="Lunner" />
		<tag k="place" v="village" />
		<tag k="population" v="962" />
		<tag k="population:date" v="2021-01-01" />
		<tag k="ref:ssb_tettsted" v="1661" />
		<tag k="source:population" v="SSB - befolkning i tettstedet" />
		<tag k="ssr:stedsnr" v="249889" />
	</node>
	<node id="3861025767" lat="60.3111129" lon="10.5627099" version="2" timestamp="2022-04-19T05:41:41Z" changeset="119887389" uid="3497659" user="NKA">
		<tag k="name" v="Kirkerud" />
		<tag k="place" v="farm" />
		<tag k="ssr:stedsnr" v="248952" />
	</node>
	<node id="3861025768" lat="60.3102651" lon="10.5656609" version="2" timestamp="2022-04-19T05:41:41Z" changeset="119887389" uid="3497659" user="NKA">
		<tag k="name" v="Lund" />
		<tag k="place" v="farm" />
		<tag k="ssr:stedsnr" v="795941" />
	</node>
	<node id="4220265640" lat="60.2655178" lon="10.5837057" version="3" timestamp="2022-04-19T05:41:41Z" changeset="119887389" uid="3497659" user="NKA">
		<tag k="end_date" v="1868" />
		<tag k="historic" v="croft" />
		<tag k="name" v="Karlstad" />
		<tag k="place" v="locality" />
		<tag k="ssr:stedsnr" v="767097" />
	</node>
	<node id="4221269660" lat="60.2607877" lon="10.5972862" version="2" timestamp="2022-04-19T05:41:41Z" changeset="119887389" uid="3497659" user="NKA">
		<tag k="name" v="Brattlia" />
		<tag k="place" v="neighbourhood" />
		<tag k="ssr:stedsnr" v="949097" />
	</node>
	<node id="4225382757" lat="60.2592061" lon="10.5597293" version="2" timestamp="2022-04-19T05:41:41Z" changeset="119887389" uid="3497659" user="NKA">
		<tag k="name" v="Volla" />
		<tag k="place" v="hamlet" />
		<tag k="ssr:stedsnr" v="6772" />
	</node>
	<node id="4317904443" lat="60.2022907" lon="10.6786721" version="2" timestamp="2022-04-19T05:41:41Z" changeset="119887389" uid="3497659" user="NKA">
		<tag k="name" v="Bakken" />
		<tag k="place" v="farm" />
		<tag k="ssr:stedsnr" v="282390" />
	</node>
	<node id="4317904444" lat="60.2064802" lon="10.6799823" version="2" timestamp="2022-04-19T05:41:41Z" changeset="119887389" uid="3497659" user="NKA">
		<tag k="name" v="Engebråten" />
		<tag k="official_name" v="Engebråtan" />
		<tag k="place" v="farm" />
		<tag k="ssr:stedsnr" v="66415" />
	</node>
	<node id="4317904445" lat="60.2087732" lon="10.6773931" version="2" timestamp="2022-04-19T05:41:41Z" changeset="119887389" uid="3497659" user="NKA">
		<tag k="name" v="Harestuenga" />
		<tag k="place" v="farm" />
		<tag k="ssr:stedsnr" v="403376" />
	</node>
	<node id="4317904446" lat="60.2069827" lon="10.6832953" version="2" timestamp="2022-04-19T05:41:41Z" changeset="119887389" uid="3497659" user="NKA">
		<tag k="name" v="Harestuskogen" />
		<tag k="place" v="farm" />
		<tag k="ssr:stedsnr" v="551443" />
	</node>
	<node id="4317904447" lat="60.1933785" lon="10.6795549" version="2" timestamp="2022-04-19T05:41:41Z" changeset="119887389" uid="3497659" user="NKA">
		<tag k="alt_name" v="Sørli" />
		<tag k="name" v="Nedre Sørli" />
		<tag k="place" v="farm" />
		<tag k="ssr:stedsnr" v="5037" />
	</node>
	<node id="4317904448" lat="60.2027881" lon="10.6764185" version="2" timestamp="2022-04-19T05:41:41Z" changeset="119887389" uid="3497659" user="NKA">
		<tag k="name" v="Seter" />
		<tag k="place" v="farm" />
		<tag k="ssr:stedsnr" v="403386" />
	</node>
	<node id="4317904449" lat="60.1952767" lon="10.6779772" version="2" timestamp="2022-04-19T05:41:41Z" changeset="119887389" uid="3497659" user="NKA">
		<tag k="name" v="Øvre Sørli" />
		<tag k="place" v="farm" />
		<tag k="ssr:stedsnr" v="309050" />
	</node>
	<node id="4317912665" lat="60.2085341" lon="10.6926844" version="2" timestamp="2022-04-19T05:41:41Z" changeset="119887389" uid="3497659" user="NKA">
		<tag k="name" v="Kloppa" />
		<tag k="place" v="neighbourhood" />
		<tag k="ssr:stedsnr" v="855427" />
	</node>
	<node id="4317913516" lat="60.2062064" lon="10.6941208" version="2" timestamp="2022-04-19T05:41:41Z" changeset="119887389" uid="3497659" user="NKA">
		<tag k="name" v="Tangen" />
		<tag k="place" v="farm" />
		<tag k="ssr:stedsnr" v="949342" />
	</node>
	<node id="4318719114" lat="60.2181712" lon="10.6736205" version="2" timestamp="2022-04-19T05:41:41Z" changeset="119887389" uid="3497659" user="NKA">
		<tag k="name" v="Friland" />
		<tag k="place" v="isolated_dwelling" />
		<tag k="ssr:stedsnr" v="673516" />
	</node>
	<node id="4319087176" lat="60.176775" lon="10.6725444" version="2" timestamp="2022-04-19T05:41:41Z" changeset="119887389" uid="3497659" user="NKA">
		<tag k="alt_name" v="Ørnebohytta" />
		<tag k="fixme" v="resurvey" />
		<tag k="name" v="Ornbohytta" />
		<tag k="official_name" v="Ørnbohytta" />
		<tag k="place" v="locality" />
		<tag k="ssr:stedsnr" v="403040" />
	</node>
	<node id="4321934380" lat="60.2100972" lon="10.6760472" version="2" timestamp="2022-04-19T05:41:41Z" changeset="119887389" uid="3497659" user="NKA">
		<tag k="name" v="Høgli" />
		<tag k="place" v="farm" />
		<tag k="ssr:stedsnr" v="126448" />
	</node>
	<node id="4321934381" lat="60.2114221" lon="10.6792871" version="2" timestamp="2022-04-19T05:41:41Z" changeset="119887389" uid="3497659" user="NKA">
		<tag k="name" v="Røysa" />
		<tag k="place" v="farm" />
		<tag k="ssr:stedsnr" v="733417" />
	</node>
	<node id="4456069498" lat="60.2734696" lon="10.6097493" version="2" timestamp="2022-04-19T05:41:41Z" changeset="119887389" uid="3497659" user="NKA">
		<tag k="alt_name" v="Kongelv" />
		<tag k="name" v="Kongell" />
		<tag k="place" v="farm" />
		<tag k="ssr:stedsnr" v="828775" />
	</node>
	<node id="5368204355" lat="60.2468185" lon="10.5473039" version="2" timestamp="2022-04-19T05:41:41Z" changeset="119887389" uid="3497659" user="NKA">
		<tag k="name" v="Elsevold" />
		<tag k="official_name" v="Elsevoll" />
		<tag k="place" v="isolated_dwelling" />
		<tag k="ssr:stedsnr" v="188475" />
	</node>
	<node id="6236538501" lat="60.2571307" lon="10.6623615" version="5" timestamp="2022-04-19T05:41:41Z" changeset="119887389" uid="3497659" user="NKA">
		<tag k="name" v="Grua" />
		<tag k="place" v="village" />
		<tag k="population" v="1495" />
		<tag k="population:date" v="2021-01-01" />
		<tag k="ref:ssb_tettsted" v="1663" />
		<tag k="source:population" v="SSB - befolkning i tettstedet" />
		<tag k="ssr:stedsnr" v="916775" />
	</node>
	<node id="6236538512" lat="60.2971798" lon="10.4859534" version="2" timestamp="2022-04-19T05:41:41Z" changeset="119887389" uid="3497659" user="NKA">
		<tag k="name" v="Grindvoll" />
		<tag k="place" v="quarter" />
		<tag k="ssr:stedsnr" v="327953" />
	</node>
	<node id="8671631849" lat="60.3136972" lon="10.8504778" version="1" timestamp="2021-04-27T11:18:55Z" changeset="103702021" uid="435265" user="Ansgar G Grimsrud">
		<tag k="name" v="Hellerhøgda" />
		<tag k="natural" v="hill" />
		<tag k="place" v="locality" />
		<tag k="ssr:stedsnr" v="67287" />
	</node>
	<node id="9676255919" lat="60.2952" lon="10.6154778" version="1" timestamp="2022-04-19T05:41:41Z" changeset="119887389" uid="3497659" user="NKA">
		<tag k="name" v="Myre" />
		<tag k="place" v="farm" />
		<tag k="ssr:stedsnr" v="188882" />
	</node>
	<node id="9676255920" lat="60.2687233" lon="10.6078184" version="1" timestamp="2022-04-19T05:41:41Z" changeset="119887389" uid="3497659" user="NKA">
		<tag k="alt_name" v="Molstad" />
		<tag k="name" v="Moldstad" />
		<tag k="place" v="farm" />
		<tag k="ssr:stedsnr" v="188829" />
	</node>
	<node id="9676255921" lat="60.276579" lon="10.645311" version="1" timestamp="2022-04-19T05:41:41Z" changeset="119887389" uid="3497659" user="NKA">
		<tag k="alt_name" v="Rya, østre" />
		<tag k="name" v="Østre Rya" />
		<tag k="place" v="farm" />
		<tag k="ssr:stedsnr" v="188818" />
	</node>
	<node id="9676255922" lat="60.2650194" lon="10.66445" version="1" timestamp="2022-04-19T05:41:41Z" changeset="119887389" uid="3497659" user="NKA">
		<tag k="name" v="Grualia" />
		<tag k="place" v="neighbourhood" />
		<tag k="ssr:stedsnr" v="101762" />
	</node>
	<node id="9676255923" lat="60.2504041" lon="10.6741276" version="1" timestamp="2022-04-19T05:41:41Z" changeset="119887389" uid="3497659" user="NKA">
		<tag k="name" v="Randen" />
		<tag k="place" v="farm" />
		<tag k="ssr:stedsnr" v="188797" />
	</node>
	<node id="9676255924" lat="60.3096573" lon="10.6151044" version="1" timestamp="2022-04-19T05:41:41Z" changeset="119887389" uid="3497659" user="NKA">
		<tag k="alt_name" v="Råstad" />
		<tag k="name" v="Søndre Råstad" />
		<tag k="place" v="farm" />
		<tag k="ssr:stedsnr" v="90242" />
	</node>
	<node id="9676255925" lat="60.307463" lon="10.6482864" version="1" timestamp="2022-04-19T05:41:41Z" changeset="119887389" uid="3497659" user="NKA">
		<tag k="name" v="Stumne" />
		<tag k="place" v="farm" />
		<tag k="ssr:stedsnr" v="90343" />
	</node>
	<node id="9676255926" lat="60.3220167" lon="10.6407973" version="1" timestamp="2022-04-19T05:41:41Z" changeset="119887389" uid="3497659" user="NKA">
		<tag k="name" v="Søndre Brokerud" />
		<tag k="place" v="farm" />
		<tag k="ssr:stedsnr" v="90239" />
	</node>
	<node id="9676255927" lat="60.2637139" lon="10.6155" version="1" timestamp="2022-04-19T05:41:41Z" changeset="119887389" uid="3497659" user="NKA">
		<tag k="name" v="Vollen" />
		<tag k="place" v="isolated_dwelling" />
		<tag k="ssr:stedsnr" v="67804" />
	</node>
	<node id="9676255928" lat="60.3002985" lon="10.6621926" version="1" timestamp="2022-04-19T05:41:41Z" changeset="119887389" uid="3497659" user="NKA">
		<tag k="name" v="Erstad" />
		<tag k="place" v="farm" />
		<tag k="ssr:stedsnr" v="67901" />
	</node>
	<node id="9676255929" lat="60.277875" lon="10.6110778" version="1" timestamp="2022-04-19T05:41:41Z" changeset="119887389" uid="3497659" user="NKA">
		<tag k="name" v="Nordli" />
		<tag k="place" v="farm" />
		<tag k="ssr:stedsnr" v="6809" />
	</node>
	<node id="9676255930" lat="60.1836129" lon="10.5764654" version="1" timestamp="2022-04-19T05:41:41Z" changeset="119887389" uid="3497659" user="NKA">
		<tag k="name" v="Elgstøa" />
		<tag k="place" v="farm" />
		<tag k="ssr:stedsnr" v="672059" />
	</node>
	<node id="9676255931" lat="60.3121305" lon="10.5481999" version="1" timestamp="2022-04-19T05:41:41Z" changeset="119887389" uid="3497659" user="NKA">
		<tag k="name" v="Erlien" />
		<tag k="place" v="farm" />
		<tag k="ssr:stedsnr" v="612944" />
	</node>
	<node id="9676255932" lat="60.1597029" lon="10.5783121" version="1" timestamp="2022-04-19T05:41:41Z" changeset="119887389" uid="3497659" user="NKA">
		<tag k="loc_name" v="Kattnosa" />
		<tag k="name" v="Katnosa" />
		<tag k="place" v="farm" />
		<tag k="ssr:stedsnr" v="673016" />
	</node>
	<node id="9676255933" lat="60.3179837" lon="10.5671296" version="1" timestamp="2022-04-19T05:41:41Z" changeset="119887389" uid="3497659" user="NKA">
		<tag k="name" v="Vestre Helgeland" />
		<tag k="place" v="farm" />
		<tag k="ssr:stedsnr" v="524042" />
	</node>
	<node id="9676255934" lat="60.3110989" lon="10.5865304" version="1" timestamp="2022-04-19T05:41:41Z" changeset="119887389" uid="3497659" user="NKA">
		<tag k="name" v="Myrstua" />
		<tag k="place" v="farm" />
		<tag k="ssr:stedsnr" v="585068" />
	</node>
	<node id="9676255935" lat="60.3052474" lon="10.5260717" version="1" timestamp="2022-04-19T05:41:41Z" changeset="119887389" uid="3497659" user="NKA">
		<tag k="name" v="Skirstad" />
		<tag k="place" v="farm" />
		<tag k="ssr:stedsnr" v="431900" />
	</node>
	<node id="9676255936" lat="60.2967559" lon="10.5256351" version="1" timestamp="2022-04-19T05:41:41Z" changeset="119887389" uid="3497659" user="NKA">
		<tag k="name" v="Moen" />
		<tag k="place" v="farm" />
		<tag k="ssr:stedsnr" v="431867" />
	</node>
	<node id="9676255937" lat="60.3049225" lon="10.4886299" version="1" timestamp="2022-04-19T05:41:41Z" changeset="119887389" uid="3497659" user="NKA">
		<tag k="alt_name" v="Løyken, øvre;Løken" />
		<tag k="name" v="Øvre Løyken" />
		<tag k="place" v="farm" />
		<tag k="ssr:stedsnr" v="67884" />
	</node>
	<node id="9676255938" lat="60.3078376" lon="10.4894863" version="1" timestamp="2022-04-19T05:41:41Z" changeset="119887389" uid="3497659" user="NKA">
		<tag k="name" v="Svensbråten" />
		<tag k="old_name" v="Dile" />
		<tag k="place" v="farm" />
		<tag k="ssr:stedsnr" v="309887" />
	</node>
	<node id="9676255939" lat="60.3235611" lon="10.5365667" version="1" timestamp="2022-04-19T05:41:41Z" changeset="119887389" uid="3497659" user="NKA">
		<tag k="name" v="Øyskog" />
		<tag k="place" v="farm" />
		<tag k="ssr:stedsnr" v="734908" />
	</node>
	<node id="9676255940" lat="60.2674745" lon="10.5543939" version="1" timestamp="2022-04-19T05:41:41Z" changeset="119887389" uid="3497659" user="NKA">
		<tag k="name" v="Delinhytta" />
		<tag k="place" v="isolated_dwelling" />
		<tag k="ssr:stedsnr" v="584100" />
	</node>
	<node id="9676255941" lat="60.313049" lon="10.4718621" version="1" timestamp="2022-04-19T05:41:41Z" changeset="119887389" uid="3497659" user="NKA">
		<tag k="name" v="Orenhagen" />
		<tag k="place" v="isolated_dwelling" />
		<tag k="ssr:stedsnr" v="454165" />
	</node>
	<node id="9676255942" lat="60.2606717" lon="10.5757014" version="1" timestamp="2022-04-19T05:41:41Z" changeset="119887389" uid="3497659" user="NKA">
		<tag k="name" v="Lunnerhytta" />
		<tag k="place" v="isolated_dwelling" />
		<tag k="ssr:stedsnr" v="585116" />
	</node>
	<node id="9676255943" lat="60.2604669" lon="10.5541735" version="1" timestamp="2022-04-19T05:41:41Z" changeset="119887389" uid="3497659" user="NKA">
		<tag k="name" v="Vestre Volla" />
		<tag k="place" v="farm" />
		<tag k="ssr:stedsnr" v="585114" />
	</node>
	<node id="9676255944" lat="60.3014694" lon="10.8082361" version="1" timestamp="2022-04-19T05:41:41Z" changeset="119887389" uid="3497659" user="NKA">
		<tag k="name" v="Bergtjernshytta" />
		<tag k="place" v="isolated_dwelling" />
		<tag k="ssr:stedsnr" v="465460" />
	</node>
	<node id="9676255945" lat="60.243719" lon="10.5621539" version="1" timestamp="2022-04-19T05:41:41Z" changeset="119887389" uid="3497659" user="NKA">
		<tag k="name" v="Sandvik" />
		<tag k="place" v="farm" />
		<tag k="ssr:stedsnr" v="524092" />
	</node>
	<node id="9676255946" lat="60.2722197" lon="10.6641528" version="1" timestamp="2022-04-19T05:41:41Z" changeset="119887389" uid="3497659" user="NKA">
		<tag k="name" v="Røste" />
		<tag k="place" v="farm" />
		<tag k="ssr:stedsnr" v="248801" />
	</node>
	<node id="9676255947" lat="60.2435306" lon="10.6894862" version="1" timestamp="2022-04-19T05:41:41Z" changeset="119887389" uid="3497659" user="NKA">
		<tag k="name" v="Rundelshytta" />
		<tag k="place" v="isolated_dwelling" />
		<tag k="ssr:stedsnr" v="162310" />
	</node>
	<node id="9676255948" lat="60.3095778" lon="10.5958027" version="1" timestamp="2022-04-19T05:41:41Z" changeset="119887389" uid="3497659" user="NKA">
		<tag k="name" v="Volla" />
		<tag k="place" v="farm" />
		<tag k="ssr:stedsnr" v="67934" />
	</node>
	<node id="9676255949" lat="60.2769693" lon="10.6206081" version="1" timestamp="2022-04-19T05:41:41Z" changeset="119887389" uid="3497659" user="NKA">
		<tag k="name" v="Frågått" />
		<tag k="place" v="hamlet" />
		<tag k="ssr:stedsnr" v="856806" />
	</node>
	<node id="9676255950" lat="60.2971387" lon="10.781176" version="1" timestamp="2022-04-19T05:41:41Z" changeset="119887389" uid="3497659" user="NKA">
		<tag k="name" v="Surka" />
		<tag k="old_name" v="Sorka" />
		<tag k="place" v="isolated_dwelling" />
		<tag k="ssr:stedsnr" v="856324" />
	</node>
	<node id="9676255951" lat="60.232682" lon="10.7119178" version="1" timestamp="2022-04-19T05:41:41Z" changeset="119887389" uid="3497659" user="NKA">
		<tag k="name" v="Dal" />
		<tag k="place" v="hamlet" />
		<tag k="ssr:stedsnr" v="855460" />
	</node>
	<node id="9676255952" lat="60.2158083" lon="10.6804342" version="1" timestamp="2022-04-19T05:41:41Z" changeset="119887389" uid="3497659" user="NKA">
		<tag k="name" v="Jonsrud" />
		<tag k="place" v="farm" />
		<tag k="ssr:stedsnr" v="706369" />
	</node>
	<node id="9676255953" lat="60.2602997" lon="10.6131188" version="1" timestamp="2022-04-19T05:41:41Z" changeset="119887389" uid="3497659" user="NKA">
		<tag k="name" v="Allmenningsgrinna" />
		<tag k="place" v="neighbourhood" />
		<tag k="ssr:stedsnr" v="708308" />
	</node>
	<node id="9676255954" lat="60.2809592" lon="10.6690335" version="1" timestamp="2022-04-19T05:41:41Z" changeset="119887389" uid="3497659" user="NKA">
		<tag k="alt_name" v="Tveita nordre" />
		<tag k="name" v="Nordre Tveita" />
		<tag k="old_name" v="Sandsæter" />
		<tag k="place" v="farm" />
		<tag k="ssr:stedsnr" v="613807" />
	</node>
	<node id="9676255955" lat="60.2330886" lon="10.7275474" version="1" timestamp="2022-04-19T05:41:41Z" changeset="119887389" uid="3497659" user="NKA">
		<tag k="name" v="Fjellet" />
		<tag k="place" v="farm" />
		<tag k="ssr:stedsnr" v="551836" />
	</node>
	<node id="9676255956" lat="60.2334491" lon="10.6938166" version="1" timestamp="2022-04-19T05:41:41Z" changeset="119887389" uid="3497659" user="NKA">
		<tag k="name" v="Klypen" />
		<tag k="place" v="farm" />
		<tag k="ssr:stedsnr" v="551463" />
	</node>
	<node id="9676255957" lat="60.2011334" lon="10.7170333" version="1" timestamp="2022-04-19T05:41:41Z" changeset="119887389" uid="3497659" user="NKA">
		<tag k="name" v="Furumo I" />
		<tag k="place" v="neighbourhood" />
		<tag k="ssr:stedsnr" v="405644" />
	</node>
	<node id="9676255958" lat="60.2161918" lon="10.7289749" version="1" timestamp="2022-04-19T05:41:41Z" changeset="119887389" uid="3497659" user="NKA">
		<tag k="name" v="Skogli" />
		<tag k="place" v="isolated_dwelling" />
		<tag k="ssr:stedsnr" v="283462" />
	</node>
	<node id="9676255959" lat="60.1589689" lon="10.668835" version="1" timestamp="2022-04-19T05:41:41Z" changeset="119887389" uid="3497659" user="NKA">
		<tag k="name" v="Handkleputthytta" />
		<tag k="place" v="isolated_dwelling" />
		<tag k="ssr:stedsnr" v="342036" />
	</node>
	<node id="9676255960" lat="60.2080744" lon="10.6799439" version="1" timestamp="2022-04-19T05:41:41Z" changeset="119887389" uid="3497659" user="NKA">
		<tag k="name" v="Enga" />
		<tag k="place" v="farm" />
		<tag k="ssr:stedsnr" v="342360" />
	</node>
	<node id="9676255963" lat="60.2539254" lon="10.5547197" version="1" timestamp="2022-04-19T05:41:41Z" changeset="119887389" uid="3497659" user="NKA">
		<tag k="name" v="Løkenhytta" />
		<tag k="place" v="isolated_dwelling" />
		<tag k="ssr:stedsnr" v="524069" />
	</node>
	<node id="9676255964" lat="60.2475934" lon="10.5710059" version="1" timestamp="2022-04-19T05:41:41Z" changeset="119887389" uid="3497659" user="NKA">
		<tag k="historic" v="shieling" />
		<tag k="name" v="Gammelsetra" />
		<tag k="place" v="isolated_dwelling" />
		<tag k="ssr:stedsnr" v="524097" />
	</node>
	<node id="9676255965" lat="60.2510773" lon="10.5815617" version="1" timestamp="2022-04-19T05:41:41Z" changeset="119887389" uid="3497659" user="NKA">
		<tag k="name" v="Viggerhaugen" />
		<tag k="place" v="farm" />
		<tag k="ssr:stedsnr" v="100103" />
	</node>
	<node id="9676255966" lat="60.3074025" lon="10.4748128" version="1" timestamp="2022-04-19T05:41:41Z" changeset="119887389" uid="3497659" user="NKA">
		<tag k="name" v="Heier" />
		<tag k="place" v="farm" />
		<tag k="ssr:stedsnr" v="491885" />
	</node>
	<node id="9676255967" lat="60.2943817" lon="10.5076568" version="1" timestamp="2022-04-19T05:41:41Z" changeset="119887389" uid="3497659" user="NKA">
		<tag k="alt_name" v="Nitberg" />
		<tag k="name" v="Netberg" />
		<tag k="place" v="farm" />
		<tag k="ssr:stedsnr" v="491837" />
	</node>
	<node id="9676255968" lat="60.2990521" lon="10.5108414" version="1" timestamp="2022-04-19T05:41:41Z" changeset="119887389" uid="3497659" user="NKA">
		<tag k="name" v="Vestre Ballangrud" />
		<tag k="place" v="farm" />
		<tag k="ssr:stedsnr" v="1074366" />
	</node>
	<node id="9676255969" lat="60.2956804" lon="10.51413" version="1" timestamp="2022-04-19T05:41:41Z" changeset="119887389" uid="3497659" user="NKA">
		<tag k="name" v="Bekken" />
		<tag k="place" v="farm" />
		<tag k="ssr:stedsnr" v="734839" />
	</node>
	<node id="9676255970" lat="60.2936639" lon="10.4815249" version="1" timestamp="2022-04-19T05:41:41Z" changeset="119887389" uid="3497659" user="NKA">
		<tag k="name" v="Steinerud" />
		<tag k="place" v="farm" />
		<tag k="ssr:stedsnr" v="67864" />
	</node>
	<node id="9676255971" lat="60.3120732" lon="10.4972033" version="1" timestamp="2022-04-19T05:41:41Z" changeset="119887389" uid="3497659" user="NKA">
		<tag k="name" v="Virstad" />
		<tag k="place" v="hamlet" />
		<tag k="ssr:stedsnr" v="491930" />
	</node>
	<node id="9676255972" lat="60.2822637" lon="10.5363887" version="1" timestamp="2022-04-19T05:41:41Z" changeset="119887389" uid="3497659" user="NKA">
		<tag k="name" v="Hallum" />
		<tag k="place" v="farm" />
		<tag k="ssr:stedsnr" v="457958" />
	</node>
	<node id="9676255973" lat="60.3275741" lon="10.7093999" version="1" timestamp="2022-04-19T05:41:41Z" changeset="119887389" uid="3497659" user="NKA">
		<tag k="name" v="Søndre Tangen" />
		<tag k="place" v="isolated_dwelling" />
		<tag k="ssr:stedsnr" v="39943" />
	</node>
	<node id="9676255974" lat="60.2321991" lon="10.7146496" version="1" timestamp="2022-04-19T05:41:41Z" changeset="119887389" uid="3497659" user="NKA">
		<tag k="name" v="Dalen" />
		<tag k="place" v="farm" />
		<tag k="ssr:stedsnr" v="464363" />
	</node>
	<node id="9676255975" lat="60.257475" lon="10.7250194" version="1" timestamp="2022-04-19T05:41:41Z" changeset="119887389" uid="3497659" user="NKA">
		<tag k="name" v="Korsvatnhytta" />
		<tag k="place" v="isolated_dwelling" />
		<tag k="ssr:stedsnr" v="890569" />
	</node>
	<node id="9676255976" lat="60.3331249" lon="10.7096772" version="1" timestamp="2022-04-19T05:41:41Z" changeset="119887389" uid="3497659" user="NKA">
		<tag k="name" v="Nordre Tangen" />
		<tag k="place" v="isolated_dwelling" />
		<tag k="ssr:stedsnr" v="342913" />
	</node>
	<node id="9676255977" lat="60.2258123" lon="10.7067089" version="1" timestamp="2022-04-19T05:41:41Z" changeset="119887389" uid="3497659" user="NKA">
		<tag k="name" v="Ringstad" />
		<tag k="place" v="farm" />
		<tag k="ssr:stedsnr" v="223398" />
	</node>
	<node id="9676255978" lat="60.2374416" lon="10.7092416" version="1" timestamp="2022-04-19T05:41:41Z" changeset="119887389" uid="3497659" user="NKA">
		<tag k="name" v="Skredderbråten" />
		<tag k="old_name" v="Skedderbråten" />
		<tag k="place" v="locality" />
		<tag k="ssr:stedsnr" v="160326" />
	</node>
	<node id="9676255979" lat="60.1979083" lon="10.7217889" version="1" timestamp="2022-04-19T05:41:41Z" changeset="119887389" uid="3497659" user="NKA">
		<tag k="name" v="Furumo III" />
		<tag k="place" v="neighbourhood" />
		<tag k="ssr:stedsnr" v="464696" />
	</node>
	<node id="9676255980" lat="60.2334719" lon="10.7035887" version="1" timestamp="2022-04-19T05:41:41Z" changeset="119887389" uid="3497659" user="NKA">
		<tag k="name" v="Sletta" />
		<tag k="place" v="farm" />
		<tag k="ssr:stedsnr" v="100333" />
	</node>
	<node id="9676255981" lat="60.3173853" lon="10.5201081" version="1" timestamp="2022-04-19T05:41:41Z" changeset="119887389" uid="3497659" user="NKA">
		<tag k="name" v="Korsrud" />
		<tag k="place" v="farm" />
		<tag k="ssr:stedsnr" v="576075" />
	</node>
	<node id="9676255982" lat="60.319873" lon="10.5500394" version="1" timestamp="2022-04-19T05:41:41Z" changeset="119887389" uid="3497659" user="NKA">
		<tag k="name" v="Åslund" />
		<tag k="place" v="farm" />
		<tag k="ssr:stedsnr" v="552934" />
	</node>
	<node id="9676255983" lat="60.3039785" lon="10.4799719" version="1" timestamp="2022-04-19T05:41:41Z" changeset="119887389" uid="3497659" user="NKA">
		<tag k="name" v="Vestern" />
		<tag k="place" v="farm" />
		<tag k="ssr:stedsnr" v="403153" />
	</node>
	<node id="9676255984" lat="60.2825503" lon="10.5425126" version="1" timestamp="2022-04-19T05:41:41Z" changeset="119887389" uid="3497659" user="NKA">
		<tag k="alt_name" v="Hallum" />
		<tag k="name" v="Hallom" />
		<tag k="place" v="hamlet" />
		<tag k="ssr:stedsnr" v="431837" />
	</node>
	<node id="9676255985" lat="60.2939421" lon="10.5829648" version="1" timestamp="2022-04-19T05:41:41Z" changeset="119887389" uid="3497659" user="NKA">
		<tag k="name" v="Ringen" />
		<tag k="place" v="farm" />
		<tag k="ssr:stedsnr" v="309853" />
	</node>
	<node id="9676255986" lat="60.2845071" lon="10.534372" version="1" timestamp="2022-04-19T05:41:41Z" changeset="119887389" uid="3497659" user="NKA">
		<tag k="name" v="Klokker-Hallum" />
		<tag k="place" v="farm" />
		<tag k="ssr:stedsnr" v="335967" />
	</node>
	<node id="9676255987" lat="60.3168805" lon="10.5304056" version="1" timestamp="2022-04-19T05:41:41Z" changeset="119887389" uid="3497659" user="NKA">
		<tag k="alt_name" v="Bakken;Korsrudbakken" />
		<tag k="name" v="Lunnerbakken" />
		<tag k="place" v="farm" />
		<tag k="ssr:stedsnr" v="309937" />
	</node>
	<node id="9676255988" lat="60.3148529" lon="10.4800432" version="1" timestamp="2022-04-19T05:41:41Z" changeset="119887389" uid="3497659" user="NKA">
		<tag k="name" v="Oren" />
		<tag k="place" v="farm" />
		<tag k="ssr:stedsnr" v="127927" />
	</node>
	<node id="9676255989" lat="60.3140193" lon="10.5633662" version="1" timestamp="2022-04-19T05:41:41Z" changeset="119887389" uid="3497659" user="NKA">
		<tag k="name" v="Vestre Flatla" />
		<tag k="place" v="farm" />
		<tag k="ssr:stedsnr" v="100047" />
	</node>
	<node id="9676255990" lat="60.2792882" lon="10.5413121" version="1" timestamp="2022-04-19T05:41:41Z" changeset="119887389" uid="3497659" user="NKA">
		<tag k="name" v="Sørenga" />
		<tag k="place" v="farm" />
		<tag k="ssr:stedsnr" v="153967" />
	</node>
	<node id="9676255991" lat="60.3134889" lon="10.468975" version="1" timestamp="2022-04-19T05:41:41Z" changeset="119887389" uid="3497659" user="NKA">
		<tag k="name" v="Tjernslia" />
		<tag k="place" v="locality" />
		<tag k="ssr:stedsnr" v="29174" />
	</node>
	<node id="9676255992" lat="60.2969919" lon="10.5172254" version="1" timestamp="2022-04-19T05:41:41Z" changeset="119887389" uid="3497659" user="NKA">
		<tag k="name" v="Jordet" />
		<tag k="place" v="farm" />
		<tag k="ssr:stedsnr" v="67853" />
	</node>
	<node id="9676255993" lat="60.2964508" lon="10.5106911" version="1" timestamp="2022-04-19T05:41:41Z" changeset="119887389" uid="3497659" user="NKA">
		<tag k="name" v="Søndre Ballangrud" />
		<tag k="place" v="farm" />
		<tag k="ssr:stedsnr" v="882676" />
	</node>
	<node id="9676255994" lat="60.3208504" lon="10.5760158" version="1" timestamp="2022-04-19T05:41:41Z" changeset="119887389" uid="3497659" user="NKA">
		<tag k="name" v="Helgeland" />
		<tag k="place" v="farm" />
		<tag k="ssr:stedsnr" v="734903" />
	</node>
	<node id="9676255995" lat="60.2859111" lon="10.57085" version="1" timestamp="2022-04-19T05:41:41Z" changeset="119887389" uid="3497659" user="NKA">
		<tag k="name" v="Jensrud" />
		<tag k="place" v="isolated_dwelling" />
		<tag k="ssr:stedsnr" v="370844" />
	</node>
	<node id="9676255996" lat="60.3188541" lon="10.4966835" version="1" timestamp="2022-04-19T05:41:41Z" changeset="119887389" uid="3497659" user="NKA">
		<tag k="alt_name" v="Stensrud" />
		<tag k="name" v="Steinsrud" />
		<tag k="place" v="farm" />
		<tag k="ssr:stedsnr" v="552981" />
	</node>
	<node id="9676255997" lat="60.2939101" lon="10.5011843" version="1" timestamp="2022-04-19T05:41:41Z" changeset="119887389" uid="3497659" user="NKA">
		<tag k="name" v="Sundvoll" />
		<tag k="place" v="farm" />
		<tag k="ssr:stedsnr" v="153798" />
	</node>
	<node id="9676255998" lat="60.2949306" lon="10.4780721" version="1" timestamp="2022-04-19T05:41:41Z" changeset="119887389" uid="3497659" user="NKA">
		<tag k="name" v="Haugen Ø" />
		<tag k="place" v="neighbourhood" />
		<tag k="ssr:stedsnr" v="342160" />
	</node>
	<node id="9676255999" lat="60.2867946" lon="10.5843839" version="1" timestamp="2022-04-19T05:41:41Z" changeset="119887389" uid="3497659" user="NKA">
		<tag k="alt_name" v="Bjøralt, vestre" />
		<tag k="name" v="Vestre Bjøralt" />
		<tag k="place" v="farm" />
		<tag k="ssr:stedsnr" v="188844" />
	</node>
	<node id="9676256000" lat="60.301941" lon="10.5208525" version="1" timestamp="2022-04-19T05:41:41Z" changeset="119887389" uid="3497659" user="NKA">
		<tag k="name" v="Vestby" />
		<tag k="place" v="farm" />
		<tag k="ssr:stedsnr" v="188898" />
	</node>
	<node id="9676256001" lat="60.3141231" lon="10.5412993" version="1" timestamp="2022-04-19T05:41:41Z" changeset="119887389" uid="3497659" user="NKA">
		<tag k="name" v="Søvang" />
		<tag k="place" v="farm" />
		<tag k="ssr:stedsnr" v="91810" />
	</node>
	<node id="9676256002" lat="60.2822715" lon="10.5470806" version="1" timestamp="2022-04-19T05:41:41Z" changeset="119887389" uid="3497659" user="NKA">
		<tag k="name" v="Hegglund" />
		<tag k="place" v="farm" />
		<tag k="ssr:stedsnr" v="188845" />
	</node>
	<node id="9676256003" lat="60.3108887" lon="10.5052651" version="1" timestamp="2022-04-19T05:41:41Z" changeset="119887389" uid="3497659" user="NKA">
		<tag k="name" v="Eriksrud" />
		<tag k="place" v="farm" />
		<tag k="ssr:stedsnr" v="66916" />
	</node>
	<node id="9676256004" lat="60.3158313" lon="10.5889518" version="1" timestamp="2022-04-19T05:41:41Z" changeset="119887389" uid="3497659" user="NKA">
		<tag k="name" v="Solum" />
		<tag k="place" v="farm" />
		<tag k="ssr:stedsnr" v="67936" />
	</node>
	<node id="9676256005" lat="60.3023914" lon="10.5258246" version="1" timestamp="2022-04-19T05:41:41Z" changeset="119887389" uid="3497659" user="NKA">
		<tag k="name" v="Kjellstad" />
		<tag k="place" v="farm" />
		<tag k="ssr:stedsnr" v="32735" />
	</node>
	<node id="9676256006" lat="60.1744002" lon="10.7218813" version="1" timestamp="2022-04-19T05:41:41Z" changeset="119887389" uid="3497659" user="NKA">
		<tag k="name" v="Stranda" />
		<tag k="place" v="farm" />
		<tag k="ssr:stedsnr" v="309789" />
	</node>
	<node id="9676256007" lat="60.3089602" lon="10.5048114" version="1" timestamp="2022-04-19T05:41:41Z" changeset="119887389" uid="3497659" user="NKA">
		<tag k="name" v="Heggen" />
		<tag k="place" v="farm" />
		<tag k="ssr:stedsnr" v="30362" />
	</node>
	<node id="9676256008" lat="60.212846" lon="10.7057319" version="1" timestamp="2022-04-19T05:41:41Z" changeset="119887389" uid="3497659" user="NKA">
		<tag k="name" v="Kvernhuset" />
		<tag k="place" v="neighbourhood" />
		<tag k="ssr:stedsnr" v="100391" />
	</node>
	<node id="9676256009" lat="60.2460825" lon="10.6969115" version="1" timestamp="2022-04-19T05:41:41Z" changeset="119887389" uid="3497659" user="NKA">
		<tag k="name" v="Rundelshagen" />
		<tag k="place" v="isolated_dwelling" />
		<tag k="ssr:stedsnr" v="101291" />
	</node>
	<node id="9676256010" lat="60.2041944" lon="10.7021306" version="1" timestamp="2022-04-19T05:41:41Z" changeset="119887389" uid="3497659" user="NKA">
		<tag k="name" v="Gammelhagan" />
		<tag k="place" v="isolated_dwelling" />
		<tag k="ssr:stedsnr" v="39352" />
	</node>
	<node id="9676256011" lat="60.2920052" lon="10.6902968" version="1" timestamp="2022-04-19T05:41:41Z" changeset="119887389" uid="3497659" user="NKA">
		<tag k="name" v="Olstad" />
		<tag k="place" v="isolated_dwelling" />
		<tag k="ssr:stedsnr" v="100924" />
	</node>
	<node id="9676256012" lat="60.2401314" lon="10.6978533" version="1" timestamp="2022-04-19T05:41:41Z" changeset="119887389" uid="3497659" user="NKA">
		<tag k="name" v="Bekkestua" />
		<tag k="place" v="isolated_dwelling" />
		<tag k="ssr:stedsnr" v="889353" />
	</node>
	<node id="9676256013" lat="60.2729658" lon="10.7584842" version="1" timestamp="2022-04-19T05:41:41Z" changeset="119887389" uid="3497659" user="NKA">
		<tag k="alt_name" v="Brovoll" />
		<tag k="name" v="Bruvoll" />
		<tag k="place" v="isolated_dwelling" />
		<tag k="ssr:stedsnr" v="370378" />
	</node>
	<node id="9676256014" lat="60.2613664" lon="10.7783399" version="1" timestamp="2022-04-19T05:41:41Z" changeset="119887389" uid="3497659" user="NKA">
		<tag k="name" v="Nedre Snellingen" />
		<tag k="place" v="isolated_dwelling" />
		<tag k="ssr:stedsnr" v="647576" />
	</node>
	<node id="9676256015" lat="60.2032239" lon="10.714298" version="1" timestamp="2022-04-19T05:41:41Z" changeset="119887389" uid="3497659" user="NKA">
		<tag k="name" v="Harestuvollen" />
		<tag k="place" v="isolated_dwelling" />
		<tag k="ssr:stedsnr" v="403397" />
	</node>
	<node id="9676256016" lat="60.3198994" lon="10.7336138" version="1" timestamp="2022-04-19T05:41:41Z" changeset="119887389" uid="3497659" user="NKA">
		<tag k="name" v="Kampehytta" />
		<tag k="place" v="isolated_dwelling" />
		<tag k="ssr:stedsnr" v="127290" />
	</node>
	<node id="9676264017" lat="60.2110531" lon="10.7014528" version="1" timestamp="2022-04-19T05:41:41Z" changeset="119887389" uid="3497659" user="NKA">
		<tag k="name" v="Stubbenga" />
		<tag k="place" v="farm" />
		<tag k="ssr:stedsnr" v="403381" />
	</node>
	<node id="9676264018" lat="60.1689451" lon="10.7117404" version="1" timestamp="2022-04-19T05:41:41Z" changeset="119887389" uid="3497659" user="NKA">
		<tag k="name" v="Kjøpstad" />
		<tag k="place" v="farm" />
		<tag k="ssr:stedsnr" v="342011" />
	</node>
	<node id="9676264019" lat="60.2083851" lon="10.750789" version="1" timestamp="2022-04-19T05:41:41Z" changeset="119887389" uid="3497659" user="NKA">
		<tag k="alt_name" v="Pipern" />
		<tag k="name" v="Piperen" />
		<tag k="place" v="farm" />
		<tag k="ssr:stedsnr" v="66836" />
	</node>
	<node id="9676264020" lat="60.2599834" lon="10.7504138" version="1" timestamp="2022-04-19T05:41:41Z" changeset="119887389" uid="3497659" user="NKA">
		<tag k="name" v="Gruehyttene" />
		<tag k="place" v="isolated_dwelling" />
		<tag k="ssr:stedsnr" v="40554" />
	</node>
	<node id="9676264021" lat="60.2245457" lon="10.7580142" version="1" timestamp="2022-04-19T05:41:41Z" changeset="119887389" uid="3497659" user="NKA">
		<tag k="historic" v="shieling" />
		<tag k="name" v="Torpesetra" />
		<tag k="place" v="isolated_dwelling" />
		<tag k="ssr:stedsnr" v="41522" />
	</node>
	<node id="9676264022" lat="60.1837635" lon="10.7352811" version="1" timestamp="2022-04-19T05:41:41Z" changeset="119887389" uid="3497659" user="NKA">
		<tag k="name" v="Monsrud" />
		<tag k="place" v="farm" />
		<tag k="ssr:stedsnr" v="490807" />
	</node>
	<node id="9676264023" lat="60.2330545" lon="10.7393902" version="1" timestamp="2022-04-19T05:41:41Z" changeset="119887389" uid="3497659" user="NKA">
		<tag k="alt_name" v="Grønnbråten" />
		<tag k="name" v="Grønbråtan" />
		<tag k="place" v="farm" />
		<tag k="ssr:stedsnr" v="855847" />
	</node>
	<node id="9676264024" lat="60.1608339" lon="10.5893187" version="1" timestamp="2022-04-19T05:41:41Z" changeset="119887389" uid="3497659" user="NKA">
		<tag k="alt_name" v="Østbråten" />
		<tag k="name" v="Østbråtan" />
		<tag k="place" v="farm" />
		<tag k="ssr:stedsnr" v="794012" />
	</node>
	<node id="9676264025" lat="60.2435664" lon="10.6119148" version="1" timestamp="2022-04-19T05:41:41Z" changeset="119887389" uid="3497659" user="NKA">
		<tag k="name" v="Dambo" />
		<tag k="place" v="farm" />
		<tag k="ssr:stedsnr" v="464282" />
	</node>
	<node id="9676264026" lat="60.2220639" lon="10.6201527" version="1" timestamp="2022-04-19T05:41:41Z" changeset="119887389" uid="3497659" user="NKA">
		<tag k="alt_name" v="Svarttjernshytta" />
		<tag k="name" v="Svartbekkhytta" />
		<tag k="place" v="isolated_dwelling" />
		<tag k="ssr:stedsnr" v="430471" />
	</node>
	<node id="9676264027" lat="60.2462027" lon="10.5859402" version="1" timestamp="2022-04-19T05:41:41Z" changeset="119887389" uid="3497659" user="NKA">
		<tag k="alt_name" v="Myllisbråten" />
		<tag k="name" v="Myllsbråtan" />
		<tag k="place" v="farm" />
		<tag k="ssr:stedsnr" v="127452" />
	</node>
	<node id="9676264028" lat="60.2359677" lon="10.703811" version="1" timestamp="2022-04-19T05:41:41Z" changeset="119887389" uid="3497659" user="NKA">
		<tag k="alt_name" v="Bjørgeseter" />
		<tag k="name" v="Bjørgesæter" />
		<tag k="place" v="hamlet" />
		<tag k="ssr:stedsnr" v="308368" />
	</node>
	<node id="9676264029" lat="60.194583" lon="10.6778848" version="1" timestamp="2022-04-19T05:41:41Z" changeset="119887389" uid="3497659" user="NKA">
		<tag k="name" v="Sørli" />
		<tag k="place" v="hamlet" />
		<tag k="ssr:stedsnr" v="988309" />
	</node>
	<node id="9676264030" lat="60.2111152" lon="10.6833447" version="1" timestamp="2022-04-19T05:41:41Z" changeset="119887389" uid="3497659" user="NKA">
		<tag k="name" v="Myra" />
		<tag k="place" v="farm" />
		<tag k="ssr:stedsnr" v="39337" />
	</node>
	<node id="9676264031" lat="60.244575" lon="10.702811" version="1" timestamp="2022-04-19T05:41:41Z" changeset="119887389" uid="3497659" user="NKA">
		<tag k="name" v="Botnet" />
		<tag k="place" v="farm" />
		<tag k="ssr:stedsnr" v="890311" />
	</node>
	<node id="9676264032" lat="60.1929238" lon="10.6410284" version="1" timestamp="2022-04-19T05:41:41Z" changeset="119887389" uid="3497659" user="NKA">
		<tag k="name" v="Fjellsjøhytta" />
		<tag k="place" v="isolated_dwelling" />
		<tag k="ssr:stedsnr" v="706423" />
	</node>
	<node id="9676264033" lat="60.2522334" lon="10.6714998" version="1" timestamp="2022-04-19T05:41:41Z" changeset="119887389" uid="3497659" user="NKA">
		<tag k="alt_name" v="Ødegården" />
		<tag k="name" v="Øgarden" />
		<tag k="place" v="farm" />
		<tag k="ssr:stedsnr" v="612770" />
	</node>
	<node id="9676264034" lat="60.2168761" lon="10.6788078" version="1" timestamp="2022-04-19T05:41:41Z" changeset="119887389" uid="3497659" user="NKA">
		<tag k="name" v="Granås" />
		<tag k="place" v="farm" />
		<tag k="ssr:stedsnr" v="706363" />
	</node>
	<node id="9676264035" lat="60.21" lon="10.6866639" version="1" timestamp="2022-04-19T05:41:41Z" changeset="119887389" uid="3497659" user="NKA">
		<tag k="name" v="Vestbygda" />
		<tag k="place" v="quarter" />
		<tag k="ssr:stedsnr" v="551429" />
	</node>
	<node id="9676264036" lat="60.2424509" lon="10.6129271" version="1" timestamp="2022-04-19T05:41:41Z" changeset="119887389" uid="3497659" user="NKA">
		<tag k="name" v="Sliperiet" />
		<tag k="place" v="farm" />
		<tag k="ssr:stedsnr" v="645263" />
	</node>
	<node id="9676264037" lat="60.2198278" lon="10.6728084" version="1" timestamp="2022-04-19T05:41:41Z" changeset="119887389" uid="3497659" user="NKA">
		<tag k="name" v="Blyverket" />
		<tag k="place" v="isolated_dwelling" />
		<tag k="ssr:stedsnr" v="308455" />
	</node>
	<node id="9676264038" lat="60.2233556" lon="10.6708027" version="1" timestamp="2022-04-19T05:41:41Z" changeset="119887389" uid="3497659" user="NKA">
		<tag k="alt_name" v="Tomåsgjerdet" />
		<tag k="name" v="Tomasgjerdet" />
		<tag k="place" v="farm" />
		<tag k="ssr:stedsnr" v="369430" />
	</node>
	<node id="9676264039" lat="60.2491523" lon="10.5563484" version="1" timestamp="2022-04-19T05:41:41Z" changeset="119887389" uid="3497659" user="NKA">
		<tag k="name" v="Brattholt" />
		<tag k="place" v="farm" />
		<tag k="ssr:stedsnr" v="248404" />
	</node>
	<node id="9676264040" lat="60.1392761" lon="10.6438356" version="1" timestamp="2022-04-19T05:41:41Z" changeset="119887389" uid="3497659" user="NKA">
		<tag k="name" v="Kalven" />
		<tag k="place" v="farm" />
		<tag k="ssr:stedsnr" v="127101" />
	</node>
	<node id="9676264041" lat="60.3223439" lon="10.7021749" version="1" timestamp="2022-04-19T05:41:41Z" changeset="119887389" uid="3497659" user="NKA">
		<tag k="name" v="Skjerva sag" />
		<tag k="place" v="locality" />
		<tag k="ssr:stedsnr" v="221922" />
	</node>
	<node id="9676264042" lat="60.2649278" lon="10.7994306" version="1" timestamp="2022-04-19T05:41:41Z" changeset="119887389" uid="3497659" user="NKA">
		<tag k="name" v="Snellingskverna" />
		<tag k="place" v="locality" />
		<tag k="ssr:stedsnr" v="890503" />
	</node>
	<node id="9676264043" lat="60.1759203" lon="10.6432693" version="1" timestamp="2022-04-19T05:41:41Z" changeset="119887389" uid="3497659" user="NKA">
		<tag k="name" v="Almedalshytta" />
		<tag k="place" v="isolated_dwelling" />
		<tag k="ssr:stedsnr" v="403036" />
	</node>
	<node id="9676264044" lat="60.282225" lon="10.8154278" version="1" timestamp="2022-04-19T05:41:41Z" changeset="119887389" uid="3497659" user="NKA">
		<tag k="name" v="Leirsjøhytta" />
		<tag k="place" v="isolated_dwelling" />
		<tag k="ssr:stedsnr" v="188362" />
	</node>
	<node id="9676264045" lat="60.2903735" lon="10.8175172" version="1" timestamp="2022-04-19T05:41:41Z" changeset="119887389" uid="3497659" user="NKA">
		<tag k="name" v="Bergstjernhytta" />
		<tag k="place" v="isolated_dwelling" />
		<tag k="ssr:stedsnr" v="284499" />
	</node>
	<node id="9676264046" lat="60.3056906" lon="10.5752476" version="1" timestamp="2022-04-19T05:41:41Z" changeset="119887389" uid="3497659" user="NKA">
		<tag k="name" v="Bjerkås" />
		<tag k="place" v="farm" />
		<tag k="ssr:stedsnr" v="828075" />
	</node>
	<node id="9676264047" lat="60.3087977" lon="10.6451579" version="1" timestamp="2022-04-19T05:41:41Z" changeset="119887389" uid="3497659" user="NKA">
		<tag k="name" v="Nordre Oppdalen" />
		<tag k="place" v="hamlet" />
		<tag k="ssr:stedsnr" v="249900" />
	</node>
	<node id="9676264048" lat="60.30331" lon="10.6265246" version="1" timestamp="2022-04-19T05:41:41Z" changeset="119887389" uid="3497659" user="NKA">
		<tag k="name" v="Løyken" />
		<tag k="place" v="hamlet" />
		<tag k="ssr:stedsnr" v="249884" />
	</node>
	<node id="9676264049" lat="60.2985044" lon="10.5961727" version="1" timestamp="2022-04-19T05:41:41Z" changeset="119887389" uid="3497659" user="NKA">
		<tag k="name" v="Haug" />
		<tag k="place" v="farm" />
		<tag k="ssr:stedsnr" v="127883" />
	</node>
	<node id="9676264050" lat="60.2891004" lon="10.573527" version="1" timestamp="2022-04-19T05:41:41Z" changeset="119887389" uid="3497659" user="NKA">
		<tag k="alt_name" v="Kalvsjøhagen" />
		<tag k="name" v="Kalvsjøhagan" />
		<tag k="place" v="farm" />
		<tag k="ssr:stedsnr" v="128821" />
	</node>
	<node id="9676264051" lat="60.2927139" lon="10.6409194" version="1" timestamp="2022-04-19T05:41:41Z" changeset="119887389" uid="3497659" user="NKA">
		<tag k="name" v="Frøyslund" />
		<tag k="place" v="farm" />
		<tag k="ssr:stedsnr" v="67873" />
	</node>
	<node id="9676264052" lat="60.2925785" lon="10.6441429" version="1" timestamp="2022-04-19T05:41:41Z" changeset="119887389" uid="3497659" user="NKA">
		<tag k="name" v="Hovland" />
		<tag k="place" v="hamlet" />
		<tag k="ssr:stedsnr" v="67872" />
	</node>
	<node id="9676264053" lat="60.3016496" lon="10.5862617" version="1" timestamp="2022-04-19T05:41:41Z" changeset="119887389" uid="3497659" user="NKA">
		<tag k="alt_name" v="Kjørrven, nedre;Kjørven" />
		<tag k="name" v="Nedre Kjørrven" />
		<tag k="place" v="farm" />
		<tag k="ssr:stedsnr" v="67894" />
	</node>
	<node id="9676264054" lat="60.2884516" lon="10.6677938" version="1" timestamp="2022-04-19T05:41:41Z" changeset="119887389" uid="3497659" user="NKA">
		<tag k="name" v="Østby" />
		<tag k="place" v="farm" />
		<tag k="ssr:stedsnr" v="67817" />
	</node>
	<node id="9676264055" lat="60.3252906" lon="10.5528632" version="1" timestamp="2022-04-19T05:41:41Z" changeset="119887389" uid="3497659" user="NKA">
		<tag k="name" v="Høyby" />
		<tag k="place" v="farm" />
		<tag k="ssr:stedsnr" v="6924" />
	</node>
	<node id="9676264056" lat="60.3104623" lon="10.578417" version="1" timestamp="2022-04-19T05:41:41Z" changeset="119887389" uid="3497659" user="NKA">
		<tag k="name" v="Flatla" />
		<tag k="place" v="hamlet" />
		<tag k="ssr:stedsnr" v="6946" />
	</node>
	<node id="9676264057" lat="60.3099402" lon="10.613026" version="1" timestamp="2022-04-19T05:41:41Z" changeset="119887389" uid="3497659" user="NKA">
		<tag k="name" v="Råstad" />
		<tag k="place" v="hamlet" />
		<tag k="ssr:stedsnr" v="891447" />
	</node>
	<node id="9676264058" lat="60.2948685" lon="10.6072029" version="1" timestamp="2022-04-19T05:41:41Z" changeset="119887389" uid="3497659" user="NKA">
		<tag k="name" v="Sandberg" />
		<tag k="place" v="farm" />
		<tag k="ssr:stedsnr" v="706800" />
	</node>
	<node id="9676264059" lat="60.3199364" lon="10.5956425" version="1" timestamp="2022-04-19T05:41:41Z" changeset="119887389" uid="3497659" user="NKA">
		<tag k="alt_name" v="Kraggerud" />
		<tag k="name" v="Øvre Kraggerud" />
		<tag k="place" v="farm" />
		<tag k="ssr:stedsnr" v="856925" />
	</node>
	<node id="9676264060" lat="60.3145051" lon="10.5661216" version="1" timestamp="2022-04-19T05:41:41Z" changeset="119887389" uid="3497659" user="NKA">
		<tag k="name" v="Granli" />
		<tag k="place" v="farm" />
		<tag k="ssr:stedsnr" v="706045" />
	</node>
	<node id="9676264061" lat="60.3164805" lon="10.6327139" version="1" timestamp="2022-04-19T05:41:41Z" changeset="119887389" uid="3497659" user="NKA">
		<tag k="name" v="Solli" />
		<tag k="place" v="farm" />
		<tag k="ssr:stedsnr" v="492911" />
	</node>
	<node id="9676264062" lat="60.3018074" lon="10.5830225" version="1" timestamp="2022-04-19T05:41:41Z" changeset="119887389" uid="3497659" user="NKA">
		<tag k="name" v="Solvang" />
		<tag k="place" v="isolated_dwelling" />
		<tag k="ssr:stedsnr" v="645077" />
	</node>
	<node id="9676264063" lat="60.3038373" lon="10.6648728" version="1" timestamp="2022-04-19T05:41:41Z" changeset="119887389" uid="3497659" user="NKA">
		<tag k="name" v="Briskeby" />
		<tag k="place" v="farm" />
		<tag k="ssr:stedsnr" v="491905" />
	</node>
	<node id="9676264064" lat="60.3071638" lon="10.5876232" version="1" timestamp="2022-04-19T05:41:41Z" changeset="119887389" uid="3497659" user="NKA">
		<tag k="name" v="Lieker" />
		<tag k="place" v="farm" />
		<tag k="ssr:stedsnr" v="645041" />
	</node>
	<node id="9676264065" lat="60.3041861" lon="10.6180695" version="1" timestamp="2022-04-19T05:41:41Z" changeset="119887389" uid="3497659" user="NKA">
		<tag k="name" v="Berg" />
		<tag k="place" v="farm" />
		<tag k="ssr:stedsnr" v="309897" />
	</node>
	<node id="9676264066" lat="60.3100148" lon="10.6303148" version="1" timestamp="2022-04-19T05:41:41Z" changeset="119887389" uid="3497659" user="NKA">
		<tag k="name" v="Holst" />
		<tag k="place" v="farm" />
		<tag k="ssr:stedsnr" v="370888" />
	</node>
	<node id="9676264067" lat="60.3031556" lon="10.564237" version="1" timestamp="2022-04-19T05:41:41Z" changeset="119887389" uid="3497659" user="NKA">
		<tag k="name" v="Østre Lunner" />
		<tag k="place" v="farm" />
		<tag k="ssr:stedsnr" v="282097" />
	</node>
	<node id="9676264068" lat="60.292075" lon="10.6602499" version="1" timestamp="2022-04-19T05:41:41Z" changeset="119887389" uid="3497659" user="NKA">
		<tag k="name" v="Haugen" />
		<tag k="place" v="farm" />
		<tag k="ssr:stedsnr" v="370885" />
	</node>
	<node id="9676264069" lat="60.3053068" lon="10.6596623" version="1" timestamp="2022-04-19T05:41:41Z" changeset="119887389" uid="3497659" user="NKA">
		<tag k="alt_name" v="Mørtveit;Mørtveita" />
		<tag k="name" v="Mørtveiten" />
		<tag k="place" v="hamlet" />
		<tag k="ssr:stedsnr" v="188913" />
	</node>
	<node id="9676264070" lat="60.3235028" lon="10.5340501" version="1" timestamp="2022-04-19T05:41:41Z" changeset="119887389" uid="3497659" user="NKA">
		<tag k="name" v="Øystad" />
		<tag k="place" v="farm" />
		<tag k="ssr:stedsnr" v="431923" />
	</node>
	<node id="9676264071" lat="60.3123916" lon="10.5450751" version="1" timestamp="2022-04-19T05:41:41Z" changeset="119887389" uid="3497659" user="NKA">
		<tag k="name" v="Smestad" />
		<tag k="place" v="farm" />
		<tag k="ssr:stedsnr" v="431949" />
	</node>
	<node id="9676264072" lat="60.2920927" lon="10.5440035" version="1" timestamp="2022-04-19T05:41:41Z" changeset="119887389" uid="3497659" user="NKA">
		<tag k="alt_name" v="Askilsrud, nedre" />
		<tag k="name" v="Nedre Askilsrud" />
		<tag k="old_name" v="Akselsrud" />
		<tag k="place" v="farm" />
		<tag k="ssr:stedsnr" v="309851" />
	</node>
	<node id="9676264073" lat="60.3107181" lon="10.5273718" version="1" timestamp="2022-04-19T05:41:41Z" changeset="119887389" uid="3497659" user="NKA">
		<tag k="name" v="Finnlaus" />
		<tag k="place" v="farm" />
		<tag k="ssr:stedsnr" v="248951" />
	</node>
	<node id="9676264074" lat="60.3225642" lon="10.5163272" version="1" timestamp="2022-04-19T05:41:41Z" changeset="119887389" uid="3497659" user="NKA">
		<tag k="name" v="Narverud" />
		<tag k="place" v="farm" />
		<tag k="ssr:stedsnr" v="127969" />
	</node>
	<node id="9676264075" lat="60.3128674" lon="10.5262061" version="1" timestamp="2022-04-19T05:41:41Z" changeset="119887389" uid="3497659" user="NKA">
		<tag k="alt_name" v="Grina" />
		<tag k="name" v="Grinda" />
		<tag k="place" v="farm" />
		<tag k="ssr:stedsnr" v="66926" />
	</node>
	<node id="9676264076" lat="60.3132225" lon="10.5318673" version="1" timestamp="2022-04-19T05:41:41Z" changeset="119887389" uid="3497659" user="NKA">
		<tag k="name" v="Nordbråten" />
		<tag k="place" v="farm" />
		<tag k="ssr:stedsnr" v="515803" />
	</node>
	<node id="9676264077" lat="60.3191638" lon="10.5345541" version="1" timestamp="2022-04-19T05:41:41Z" changeset="119887389" uid="3497659" user="NKA">
		<tag k="alt_name" v="Bråten" />
		<tag k="name" v="Høybybråtån" />
		<tag k="place" v="farm" />
		<tag k="ssr:stedsnr" v="6923" />
	</node>
	<node id="9676264078" lat="60.2590242" lon="10.5719626" version="1" timestamp="2022-04-19T05:41:41Z" changeset="119887389" uid="3497659" user="NKA">
		<tag k="alt_name" v="Skaugerud" />
		<tag k="name" v="Skaurud" />
		<tag k="place" v="farm" />
		<tag k="ssr:stedsnr" v="309753" />
	</node>
	<node id="9676264079" lat="60.2820396" lon="10.5299384" version="1" timestamp="2022-04-19T05:41:41Z" changeset="119887389" uid="3497659" user="NKA">
		<tag k="name" v="Bekkehallum" />
		<tag k="place" v="farm" />
		<tag k="ssr:stedsnr" v="396951" />
	</node>
	<node id="9676264080" lat="60.2632574" lon="10.6501738" version="1" timestamp="2022-04-19T05:41:41Z" changeset="119887389" uid="3497659" user="NKA">
		<tag k="alt_name" v="Nordre Vollstad" />
		<tag k="name" v="Vollstad" />
		<tag k="place" v="farm" />
		<tag k="ssr:stedsnr" v="249788" />
	</node>
	<node id="9676264081" lat="60.2693672" lon="10.6714922" version="1" timestamp="2022-04-19T05:41:41Z" changeset="119887389" uid="3497659" user="NKA">
		<tag k="name" v="Tveitmarka" />
		<tag k="place" v="farm" />
		<tag k="ssr:stedsnr" v="249791" />
	</node>
	<node id="9676264082" lat="60.2760232" lon="10.6643829" version="1" timestamp="2022-04-19T05:41:41Z" changeset="119887389" uid="3497659" user="NKA">
		<tag k="name" v="Sagmoen" />
		<tag k="place" v="isolated_dwelling" />
		<tag k="ssr:stedsnr" v="100219" />
	</node>
	<node id="9676264083" lat="60.2800499" lon="10.642991" version="1" timestamp="2022-04-19T05:41:41Z" changeset="119887389" uid="3497659" user="NKA">
		<tag k="name" v="Lauvlia" />
		<tag k="place" v="farm" />
		<tag k="ssr:stedsnr" v="917804" />
	</node>
	<node id="9676264084" lat="60.2760395" lon="10.6720513" version="1" timestamp="2022-04-19T05:41:41Z" changeset="119887389" uid="3497659" user="NKA">
		<tag k="name" v="Logna" />
		<tag k="place" v="isolated_dwelling" />
		<tag k="ssr:stedsnr" v="889251" />
	</node>
	<node id="9676264085" lat="60.2756822" lon="10.6087573" version="1" timestamp="2022-04-19T05:41:41Z" changeset="119887389" uid="3497659" user="NKA">
		<tag k="name" v="Granum" />
		<tag k="place" v="farm" />
		<tag k="ssr:stedsnr" v="916808" />
	</node>
	<node id="9676264086" lat="60.2674191" lon="10.664361" version="1" timestamp="2022-04-19T05:41:41Z" changeset="119887389" uid="3497659" user="NKA">
		<tag k="name" v="Kleiva" />
		<tag k="place" v="isolated_dwelling" />
		<tag k="ssr:stedsnr" v="768293" />
	</node>
	<node id="9676264087" lat="60.2773222" lon="10.6409241" version="1" timestamp="2022-04-19T05:41:41Z" changeset="119887389" uid="3497659" user="NKA">
		<tag k="alt_name" v="Rya, nedre" />
		<tag k="name" v="Nedre Rya" />
		<tag k="place" v="farm" />
		<tag k="ssr:stedsnr" v="856800" />
	</node>
	<node id="9676264088" lat="60.263788" lon="10.5807772" version="1" timestamp="2022-04-19T05:41:41Z" changeset="119887389" uid="3497659" user="NKA">
		<tag k="name" v="Lunnehytta" />
		<tag k="place" v="isolated_dwelling" />
		<tag k="ssr:stedsnr" v="584099" />
	</node>
	<node id="9676264089" lat="60.2765386" lon="10.6382917" version="1" timestamp="2022-04-19T05:41:41Z" changeset="119887389" uid="3497659" user="NKA">
		<tag k="alt_name" v="Rya, vestre;Rya" />
		<tag k="name" v="Vestre Rya" />
		<tag k="place" v="farm" />
		<tag k="ssr:stedsnr" v="552816" />
	</node>
	<node id="9676264090" lat="60.2456383" lon="10.5791315" version="1" timestamp="2022-04-19T05:41:41Z" changeset="119887389" uid="3497659" user="NKA">
		<tag k="name" v="Storskogen" />
		<tag k="place" v="isolated_dwelling" />
		<tag k="ssr:stedsnr" v="949116" />
	</node>
	<node id="9676264091" lat="60.2706854" lon="10.6692353" version="1" timestamp="2022-04-19T05:41:41Z" changeset="119887389" uid="3497659" user="NKA">
		<tag k="name" v="Søndre Bilitt" />
		<tag k="place" v="farm" />
		<tag k="ssr:stedsnr" v="404246" />
	</node>
	<node id="9676264092" lat="60.2711922" lon="10.6298661" version="1" timestamp="2022-04-19T05:41:41Z" changeset="119887389" uid="3497659" user="NKA">
		<tag k="alt_name" v="Inngjerdingen" />
		<tag k="name" v="Inngjerdinga" />
		<tag k="place" v="isolated_dwelling" />
		<tag k="ssr:stedsnr" v="916815" />
	</node>
	<node id="9676264093" lat="60.255296" lon="10.5823639" version="1" timestamp="2022-04-19T05:41:41Z" changeset="119887389" uid="3497659" user="NKA">
		<tag k="name" v="Skjerplykkja" />
		<tag k="place" v="isolated_dwelling" />
		<tag k="ssr:stedsnr" v="828080" />
	</node>
	<node id="9676264094" lat="60.2740145" lon="10.6187044" version="1" timestamp="2022-04-19T05:41:41Z" changeset="119887389" uid="3497659" user="NKA">
		<tag k="name" v="Skjeggerud" />
		<tag k="place" v="farm" />
		<tag k="ssr:stedsnr" v="795792" />
	</node>
	<node id="9676264095" lat="60.2279683" lon="10.7082161" version="1" timestamp="2022-04-19T05:41:41Z" changeset="119887389" uid="3497659" user="NKA">
		<tag k="name" v="Fjellstad" />
		<tag k="place" v="farm" />
		<tag k="ssr:stedsnr" v="828362" />
	</node>
	<node id="9676264096" lat="60.2795334" lon="10.5515912" version="1" timestamp="2022-04-19T05:41:41Z" changeset="119887389" uid="3497659" user="NKA">
		<tag k="name" v="Kjølset" />
		<tag k="place" v="farm" />
		<tag k="ssr:stedsnr" v="795834" />
	</node>
	<node id="9676264097" lat="60.2660475" lon="10.6660632" version="1" timestamp="2022-04-19T05:41:41Z" changeset="119887389" uid="3497659" user="NKA">
		<tag k="name" v="Kleivenga" />
		<tag k="place" v="farm" />
		<tag k="ssr:stedsnr" v="768291" />
	</node>
	<node id="9676264098" lat="60.2456334" lon="10.5990027" version="1" timestamp="2022-04-19T05:41:41Z" changeset="119887389" uid="3497659" user="NKA">
		<tag k="alt_name" v="Beltern" />
		<tag k="name" v="Belteren" />
		<tag k="place" v="farm" />
		<tag k="ssr:stedsnr" v="794363" />
	</node>
	<node id="9676264099" lat="60.2332055" lon="10.7054001" version="1" timestamp="2022-04-19T05:41:41Z" changeset="119887389" uid="3497659" user="NKA">
		<tag k="name" v="Roås" />
		<tag k="place" v="farm" />
		<tag k="ssr:stedsnr" v="767362" />
	</node>
	<node id="9676264100" lat="60.2440947" lon="10.692184" version="1" timestamp="2022-04-19T05:41:41Z" changeset="119887389" uid="3497659" user="NKA">
		<tag k="name" v="Rundelen" />
		<tag k="place" v="farm" />
		<tag k="ssr:stedsnr" v="733379" />
	</node>
	<node id="9676264101" lat="60.2737986" lon="10.5418331" version="1" timestamp="2022-04-19T05:41:41Z" changeset="119887389" uid="3497659" user="NKA">
		<tag k="name" v="Holt" />
		<tag k="place" v="farm" />
		<tag k="ssr:stedsnr" v="699961" />
	</node>
	<node id="9676264102" lat="60.247931" lon="10.5487751" version="1" timestamp="2022-04-19T05:41:41Z" changeset="119887389" uid="3497659" user="NKA">
		<tag k="name" v="Brattholthytta" />
		<tag k="place" v="isolated_dwelling" />
		<tag k="ssr:stedsnr" v="706077" />
	</node>
	<node id="9676264103" lat="60.2442555" lon="10.5652651" version="1" timestamp="2022-04-19T05:41:41Z" changeset="119887389" uid="3497659" user="NKA">
		<tag k="name" v="Brattholt" />
		<tag k="place" v="farm" />
		<tag k="ssr:stedsnr" v="645112" />
	</node>
	<node id="9676264104" lat="60.2612821" lon="10.7836721" version="1" timestamp="2022-04-19T05:41:41Z" changeset="119887389" uid="3497659" user="NKA">
		<tag k="historic" v="shieling" />
		<tag k="name" v="Snellingen" />
		<tag k="place" v="farm" />
		<tag k="ssr:stedsnr" v="988306" />
	</node>
	<node id="9676264105" lat="60.3309152" lon="10.7113661" version="1" timestamp="2022-04-19T05:41:41Z" changeset="119887389" uid="3497659" user="NKA">
		<tag k="name" v="Tangen" />
		<tag k="place" v="farm" />
		<tag k="ssr:stedsnr" v="988153" />
	</node>
	<node id="9676264106" lat="60.2717818" lon="10.670479" version="1" timestamp="2022-04-19T05:41:41Z" changeset="119887389" uid="3497659" user="NKA">
		<tag k="name" v="Nordre Bilitt" />
		<tag k="place" v="locality" />
		<tag k="ssr:stedsnr" v="283217" />
	</node>
	<node id="9676264107" lat="60.2565192" lon="10.6446166" version="1" timestamp="2022-04-19T05:41:41Z" changeset="119887389" uid="3497659" user="NKA">
		<tag k="name" v="Mutta" />
		<tag k="place" v="farm" />
		<tag k="ssr:stedsnr" v="916776" />
	</node>
	<node id="9676264108" lat="60.2305879" lon="10.7684798" version="1" timestamp="2022-04-19T05:41:41Z" changeset="119887389" uid="3497659" user="NKA">
		<tag k="name" v="Skotjernshytta" />
		<tag k="place" v="isolated_dwelling" />
		<tag k="ssr:stedsnr" v="949422" />
	</node>
	<node id="9676264109" lat="60.2925056" lon="10.6520447" version="1" timestamp="2022-04-19T05:41:41Z" changeset="119887389" uid="3497659" user="NKA">
		<tag k="name" v="Solbjør" />
		<tag k="place" v="farm" />
		<tag k="ssr:stedsnr" v="795880" />
	</node>
	<node id="9676264110" lat="60.3248345" lon="10.5544096" version="1" timestamp="2022-04-19T05:41:41Z" changeset="119887389" uid="3497659" user="NKA">
		<tag k="name" v="Nerby" />
		<tag k="place" v="farm" />
		<tag k="ssr:stedsnr" v="917898" />
	</node>
	<node id="9676264111" lat="60.2953255" lon="10.4813522" version="1" timestamp="2022-04-19T05:41:41Z" changeset="119887389" uid="3497659" user="NKA">
		<tag k="name" v="Solhaugen" />
		<tag k="place" v="neighbourhood" />
		<tag k="ssr:stedsnr" v="767152" />
	</node>
	<node id="9676264112" lat="60.2481657" lon="10.7642605" version="1" timestamp="2022-04-19T05:41:41Z" changeset="119887389" uid="3497659" user="NKA">
		<tag k="name" v="Sølvtjernshytta" />
		<tag k="place" v="isolated_dwelling" />
		<tag k="ssr:stedsnr" v="223604" />
	</node>
	<node id="9676264113" lat="60.2990596" lon="10.51303" version="1" timestamp="2022-04-19T05:41:41Z" changeset="119887389" uid="3497659" user="NKA">
		<tag k="name" v="Ballangrud" />
		<tag k="place" v="hamlet" />
		<tag k="ssr:stedsnr" v="795847" />
	</node>
	<node id="9676264114" lat="60.2483" lon="10.6970112" version="1" timestamp="2022-04-19T05:41:41Z" changeset="119887389" uid="3497659" user="NKA">
		<tag k="name" v="Ellingsrud" />
		<tag k="place" v="locality" />
		<tag k="ssr:stedsnr" v="223321" />
	</node>
	<node id="9676264115" lat="60.2542527" lon="10.6231955" version="1" timestamp="2022-04-19T05:41:41Z" changeset="119887389" uid="3497659" user="NKA">
		<tag k="name" v="Godligrinda" />
		<tag k="place" v="farm" />
		<tag k="ssr:stedsnr" v="223315" />
	</node>
	<node id="9676264116" lat="60.2502372" lon="10.637916" version="1" timestamp="2022-04-19T05:41:41Z" changeset="119887389" uid="3497659" user="NKA">
		<tag k="alt_name" v="Godli, øvre;Godli" />
		<tag k="name" v="Øvre Godli" />
		<tag k="place" v="farm" />
		<tag k="ssr:stedsnr" v="916791" />
	</node>
	<node id="9676264117" lat="60.3111682" lon="10.6710449" version="1" timestamp="2022-04-19T05:41:41Z" changeset="119887389" uid="3497659" user="NKA">
		<tag k="name" v="Larshus" />
		<tag k="place" v="locality" />
		<tag k="ssr:stedsnr" v="734872" />
	</node>
	<node id="9676264118" lat="60.2813891" lon="10.6804774" version="1" timestamp="2022-04-19T05:41:41Z" changeset="119887389" uid="3497659" user="NKA">
		<tag k="name" v="Solhaug" />
		<tag k="place" v="farm" />
		<tag k="ssr:stedsnr" v="221214" />
	</node>
	<node id="9676264119" lat="60.2781028" lon="10.632975" version="1" timestamp="2022-04-19T05:41:41Z" changeset="119887389" uid="3497659" user="NKA">
		<tag k="name" v="Ryenga" />
		<tag k="place" v="farm" />
		<tag k="ssr:stedsnr" v="673790" />
	</node>
	<node id="9676264120" lat="60.2754586" lon="10.697384" version="1" timestamp="2022-04-19T05:41:41Z" changeset="119887389" uid="3497659" user="NKA">
		<tag k="name" v="Østbyhytta" />
		<tag k="place" v="isolated_dwelling" />
		<tag k="ssr:stedsnr" v="706235" />
	</node>
	<node id="9676264121" lat="60.3248836" lon="10.6865938" version="1" timestamp="2022-04-19T05:41:41Z" changeset="119887389" uid="3497659" user="NKA">
		<tag k="name" v="Skjervenga" />
		<tag k="place" v="isolated_dwelling" />
		<tag k="ssr:stedsnr" v="674939" />
	</node>
	<node id="9676264122" lat="60.2882859" lon="10.6334132" version="1" timestamp="2022-04-19T05:41:41Z" changeset="119887389" uid="3497659" user="NKA">
		<tag k="alt_name" v="Vestre Hovland" />
		<tag k="name" v="Hovland" />
		<tag k="place" v="farm" />
		<tag k="ssr:stedsnr" v="795811" />
	</node>
	<node id="9676264123" lat="60.2769616" lon="10.6649215" version="1" timestamp="2022-04-19T05:41:41Z" changeset="119887389" uid="3497659" user="NKA">
		<tag k="name" v="Strand" />
		<tag k="place" v="farm" />
		<tag k="ssr:stedsnr" v="889255" />
	</node>
	<node id="9676264124" lat="60.2537926" lon="10.5638558" version="1" timestamp="2022-04-19T05:41:41Z" changeset="119887389" uid="3497659" user="NKA">
		<tag k="name" v="Putthaug" />
		<tag k="place" v="farm" />
		<tag k="ssr:stedsnr" v="612771" />
	</node>
	<node id="9676264125" lat="60.2066905" lon="10.5887427" version="1" timestamp="2022-04-19T05:41:41Z" changeset="119887389" uid="3497659" user="NKA">
		<tag k="name" v="Syljuseterhytta" />
		<tag k="place" v="isolated_dwelling" />
		<tag k="ssr:stedsnr" v="699336" />
	</node>
	<node id="9676264126" lat="60.2374743" lon="10.731441" version="1" timestamp="2022-04-19T05:41:41Z" changeset="119887389" uid="3497659" user="NKA">
		<tag k="name" v="Arnedal" />
		<tag k="place" v="farm" />
		<tag k="ssr:stedsnr" v="915824" />
	</node>
	<node id="9676264127" lat="60.3027958" lon="10.6352488" version="1" timestamp="2022-04-19T05:41:41Z" changeset="119887389" uid="3497659" user="NKA">
		<tag k="name" v="Bråstad" />
		<tag k="place" v="farm" />
		<tag k="ssr:stedsnr" v="916922" />
	</node>
	<node id="9676264128" lat="60.2569959" lon="10.6649911" version="1" timestamp="2022-04-19T05:41:41Z" changeset="119887389" uid="3497659" user="NKA">
		<tag k="name" v="Malmgruben" />
		<tag k="place" v="farm" />
		<tag k="ssr:stedsnr" v="830280" />
	</node>
	<node id="9676264129" lat="60.2619299" lon="10.7851028" version="1" timestamp="2022-04-19T05:41:41Z" changeset="119887389" uid="3497659" user="NKA">
		<tag k="name" v="Øvre Snellingen" />
		<tag k="place" v="isolated_dwelling" />
		<tag k="ssr:stedsnr" v="830564" />
	</node>
	<node id="9676264130" lat="60.1814778" lon="10.7446888" version="1" timestamp="2022-04-19T05:41:41Z" changeset="119887389" uid="3497659" user="NKA">
		<tag k="historic" v="shieling" />
		<tag k="name" v="Rudseterhytta" />
		<tag k="place" v="isolated_dwelling" />
		<tag k="ssr:stedsnr" v="828677" />
	</node>
	<node id="9676264131" lat="60.2750374" lon="10.7205198" version="1" timestamp="2022-04-19T05:41:41Z" changeset="119887389" uid="3497659" user="NKA">
		<tag k="name" v="Flåtetjernshytta" />
		<tag k="place" v="isolated_dwelling" />
		<tag k="ssr:stedsnr" v="526477" />
	</node>
	<node id="9676264132" lat="60.3036674" lon="10.4929791" version="1" timestamp="2022-04-19T05:41:41Z" changeset="119887389" uid="3497659" user="NKA">
		<tag k="name" v="Løyken" />
		<tag k="place" v="hamlet" />
		<tag k="ssr:stedsnr" v="988033" />
	</node>
	<node id="9676264133" lat="60.2982143" lon="10.5008928" version="1" timestamp="2022-04-19T05:41:41Z" changeset="119887389" uid="3497659" user="NKA">
		<tag k="name" v="Ulven" />
		<tag k="place" v="hamlet" />
		<tag k="ssr:stedsnr" v="795850" />
	</node>
	<node id="9676264134" lat="60.2993441" lon="10.5271354" version="1" timestamp="2022-04-19T05:41:41Z" changeset="119887389" uid="3497659" user="NKA">
		<tag k="name" v="Østre Ballangrud" />
		<tag k="place" v="farm" />
		<tag k="ssr:stedsnr" v="821763" />
	</node>
	<node id="9676264135" lat="60.3164286" lon="10.4883687" version="1" timestamp="2022-04-19T05:41:41Z" changeset="119887389" uid="3497659" user="NKA">
		<tag k="name" v="Grumstad" />
		<tag k="place" v="farm" />
		<tag k="ssr:stedsnr" v="819289" />
	</node>
	<node id="9676264136" lat="60.2935347" lon="10.6247522" version="1" timestamp="2022-04-19T05:41:41Z" changeset="119887389" uid="3497659" user="NKA">
		<tag k="name" v="Frøysli" />
		<tag k="place" v="hamlet" />
		<tag k="ssr:stedsnr" v="795877" />
	</node>
	<node id="9676264137" lat="60.3054785" lon="10.625695" version="1" timestamp="2022-04-19T05:41:41Z" changeset="119887389" uid="3497659" user="NKA">
		<tag k="name" v="Bakken" />
		<tag k="place" v="farm" />
		<tag k="ssr:stedsnr" v="949784" />
	</node>
	<node id="9676264138" lat="60.3150495" lon="10.6476417" version="1" timestamp="2022-04-19T05:41:41Z" changeset="119887389" uid="3497659" user="NKA">
		<tag k="alt_name" v="Stokkødegården" />
		<tag k="name" v="Stokke" />
		<tag k="place" v="locality" />
		<tag k="ssr:stedsnr" v="988152" />
	</node>
	<node id="9676264139" lat="60.3092602" lon="10.6686064" version="1" timestamp="2022-04-19T05:41:41Z" changeset="119887389" uid="3497659" user="NKA">
		<tag k="name" v="Mørtveit" />
		<tag k="place" v="farm" />
		<tag k="ssr:stedsnr" v="949937" />
	</node>
	<node id="9676264140" lat="60.2870303" lon="10.5507694" version="1" timestamp="2022-04-19T05:41:41Z" changeset="119887389" uid="3497659" user="NKA">
		<tag k="name" v="Fjell" />
		<tag k="place" v="farm" />
		<tag k="ssr:stedsnr" v="767080" />
	</node>
	<node id="9676264141" lat="60.306361" lon="10.6098326" version="1" timestamp="2022-04-19T05:41:41Z" changeset="119887389" uid="3497659" user="NKA">
		<tag k="name" v="Nerløkka" />
		<tag k="place" v="farm" />
		<tag k="ssr:stedsnr" v="818334" />
	</node>
	<node id="9676264142" lat="60.3180738" lon="10.6553949" version="1" timestamp="2022-04-19T05:41:41Z" changeset="119887389" uid="3497659" user="NKA">
		<tag k="name" v="Lia" />
		<tag k="place" v="farm" />
		<tag k="ssr:stedsnr" v="734682" />
	</node>
	<node id="9676264143" lat="60.2798321" lon="10.6697171" version="1" timestamp="2022-04-19T05:41:41Z" changeset="119887389" uid="3497659" user="NKA">
		<tag k="alt_name" v="Tveita" />
		<tag k="name" v="Søndre Tveita" />
		<tag k="place" v="farm" />
		<tag k="ssr:stedsnr" v="673775" />
	</node>
	<node id="9676264144" lat="60.2581831" lon="10.54181" version="1" timestamp="2022-04-19T05:41:41Z" changeset="119887389" uid="3497659" user="NKA">
		<tag k="name" v="Løkenhytta" />
		<tag k="place" v="isolated_dwelling" />
		<tag k="ssr:stedsnr" v="699924" />
	</node>
	<node id="9676264145" lat="60.2883861" lon="10.568639" version="1" timestamp="2022-04-19T05:41:41Z" changeset="119887389" uid="3497659" user="NKA">
		<tag k="name" v="Vang" />
		<tag k="place" v="farm" />
		<tag k="ssr:stedsnr" v="6832" />
	</node>
	<node id="9676264146" lat="60.2939652" lon="10.6357606" version="1" timestamp="2022-04-19T05:41:41Z" changeset="119887389" uid="3497659" user="NKA">
		<tag k="name" v="Kilstad" />
		<tag k="place" v="farm" />
		<tag k="ssr:stedsnr" v="795878" />
	</node>
	<node id="9676264147" lat="60.2942502" lon="10.498408" version="1" timestamp="2022-04-19T05:41:41Z" changeset="119887389" uid="3497659" user="NKA">
		<tag k="name" v="Søndre Ulven" />
		<tag k="place" v="farm" />
		<tag k="ssr:stedsnr" v="699745" />
	</node>
	<node id="9676264148" lat="60.3016047" lon="10.5167819" version="1" timestamp="2022-04-19T05:41:41Z" changeset="119887389" uid="3497659" user="NKA">
		<tag k="name" v="Nordre Ballangrud" />
		<tag k="place" v="locality" />
		<tag k="ssr:stedsnr" v="699736" />
	</node>
	<node id="9676264149" lat="60.3203334" lon="10.5684244" version="1" timestamp="2022-04-19T05:41:41Z" changeset="119887389" uid="3497659" user="NKA">
		<tag k="name" v="Høyland" />
		<tag k="place" v="farm" />
		<tag k="ssr:stedsnr" v="674895" />
	</node>
	<node id="9676264150" lat="60.2977123" lon="10.6161073" version="1" timestamp="2022-04-19T05:41:41Z" changeset="119887389" uid="3497659" user="NKA">
		<tag k="alt_name" v="Stubbhytta" />
		<tag k="name" v="Hytta" />
		<tag k="place" v="farm" />
		<tag k="ssr:stedsnr" v="67871" />
	</node>
	<node id="9676264151" lat="60.287786" lon="10.5522624" version="1" timestamp="2022-04-19T05:41:41Z" changeset="119887389" uid="3497659" user="NKA">
		<tag k="alt_name" v="Skøyen" />
		<tag k="name" v="Skøyenenga" />
		<tag k="place" v="farm" />
		<tag k="ssr:stedsnr" v="613819" />
	</node>
	<node id="9676264152" lat="60.2480873" lon="10.6840942" version="1" timestamp="2022-04-19T05:41:41Z" changeset="119887389" uid="3497659" user="NKA">
		<tag k="name" v="Sørås" />
		<tag k="place" v="farm" />
		<tag k="ssr:stedsnr" v="916418" />
	</node>
	<node id="9676264153" lat="60.3030495" lon="10.6296494" version="1" timestamp="2022-04-19T05:41:41Z" changeset="119887389" uid="3497659" user="NKA">
		<tag k="name" v="Huser" />
		<tag k="place" v="farm" />
		<tag k="ssr:stedsnr" v="431920" />
	</node>
	<node id="9676264154" lat="60.2998466" lon="10.497382" version="1" timestamp="2022-04-19T05:41:41Z" changeset="119887389" uid="3497659" user="NKA">
		<tag k="name" v="Norum" />
		<tag k="place" v="farm" />
		<tag k="ssr:stedsnr" v="127896" />
	</node>
	<node id="9676264155" lat="60.3001521" lon="10.5933984" version="1" timestamp="2022-04-19T05:41:41Z" changeset="119887389" uid="3497659" user="NKA">
		<tag k="alt_name" v="Ødegården" />
		<tag k="name" v="Kildal" />
		<tag k="place" v="farm" />
		<tag k="ssr:stedsnr" v="673906" />
	</node>
	<node id="9676264156" lat="60.2870344" lon="10.646226" version="1" timestamp="2022-04-19T05:41:41Z" changeset="119887389" uid="3497659" user="NKA">
		<tag k="name" v="Nordre Håkenstad" />
		<tag k="place" v="farm" />
		<tag k="ssr:stedsnr" v="39775" />
	</node>
	<node id="9676264157" lat="60.2651448" lon="10.6136967" version="1" timestamp="2022-04-19T05:41:41Z" changeset="119887389" uid="3497659" user="NKA">
		<tag k="name" v="Kjørvenvollen" />
		<tag k="place" v="isolated_dwelling" />
		<tag k="ssr:stedsnr" v="282780" />
	</node>
	<node id="9676264158" lat="60.3170792" lon="10.4683381" version="1" timestamp="2022-04-19T05:41:41Z" changeset="119887389" uid="3497659" user="NKA">
		<tag k="name" v="Åsli" />
		<tag k="place" v="farm" />
		<tag k="ssr:stedsnr" v="856940" />
	</node>
	<node id="9676264159" lat="60.3076289" lon="10.6292636" version="1" timestamp="2022-04-19T05:41:41Z" changeset="119887389" uid="3497659" user="NKA">
		<tag k="name" v="Heier" />
		<tag k="place" v="farm" />
		<tag k="ssr:stedsnr" v="612899" />
	</node>
	<node id="9676264160" lat="60.287422" lon="10.6623781" version="1" timestamp="2022-04-19T05:41:41Z" changeset="119887389" uid="3497659" user="NKA">
		<tag k="name" v="Håkenstad" />
		<tag k="place" v="farm" />
		<tag k="ssr:stedsnr" v="889814" />
	</node>
	<node id="9676264161" lat="60.3073105" lon="10.5309496" version="1" timestamp="2022-04-19T05:41:41Z" changeset="119887389" uid="3497659" user="NKA">
		<tag k="name" v="Lier" />
		<tag k="place" v="farm" />
		<tag k="ssr:stedsnr" v="636810" />
	</node>
	<node id="9676264162" lat="60.290275" lon="10.6048333" version="1" timestamp="2022-04-19T05:41:41Z" changeset="119887389" uid="3497659" user="NKA">
		<tag k="name" v="Bjøraltbråtån" />
		<tag k="place" v="farm" />
		<tag k="ssr:stedsnr" v="613804" />
	</node>
	<node id="9676264163" lat="60.2987475" lon="10.6105975" version="1" timestamp="2022-04-19T05:41:41Z" changeset="119887389" uid="3497659" user="NKA">
		<tag k="alt_name" v="Vestre Løken" />
		<tag k="name" v="Løyken" />
		<tag k="place" v="farm" />
		<tag k="ssr:stedsnr" v="370898" />
	</node>
	<node id="9676264164" lat="60.2789064" lon="10.5972377" version="1" timestamp="2022-04-19T05:41:41Z" changeset="119887389" uid="3497659" user="NKA">
		<tag k="name" v="Bjerke" />
		<tag k="place" v="farm" />
		<tag k="ssr:stedsnr" v="370806" />
	</node>
	<node id="9676264165" lat="60.289459" lon="10.6787605" version="1" timestamp="2022-04-19T05:41:41Z" changeset="119887389" uid="3497659" user="NKA">
		<tag k="name" v="Myra" />
		<tag k="place" v="farm" />
		<tag k="ssr:stedsnr" v="370875" />
	</node>
	<node id="9676264166" lat="60.2839308" lon="10.7926347" version="1" timestamp="2022-04-19T05:41:41Z" changeset="119887389" uid="3497659" user="NKA">
		<tag k="name" v="Leirsjøhytta" />
		<tag k="place" v="isolated_dwelling" />
		<tag k="ssr:stedsnr" v="405502" />
	</node>
	<node id="9676264167" lat="60.2186502" lon="10.7263502" version="1" timestamp="2022-04-19T05:41:41Z" changeset="119887389" uid="3497659" user="NKA">
		<tag k="name" v="Myrvoll" />
		<tag k="place" v="farm" />
		<tag k="ssr:stedsnr" v="830503" />
	</node>
	<node id="9676264168" lat="60.2145774" lon="10.6782411" version="1" timestamp="2022-04-19T05:41:41Z" changeset="119887389" uid="3497659" user="NKA">
		<tag k="name" v="Vestbråten" />
		<tag k="place" v="farm" />
		<tag k="ssr:stedsnr" v="282384" />
	</node>
	<node id="9676264169" lat="60.2365298" lon="10.5604355" version="1" timestamp="2022-04-19T05:41:41Z" changeset="119887389" uid="3497659" user="NKA">
		<tag k="alt_name" v="Åsjøvikhytta" />
		<tag k="name" v="Ålsjøvikhytta" />
		<tag k="place" v="isolated_dwelling" />
		<tag k="ssr:stedsnr" v="282153" />
	</node>
	<node id="9676264170" lat="60.2351875" lon="10.7323129" version="1" timestamp="2022-04-19T05:41:41Z" changeset="119887389" uid="3497659" user="NKA">
		<tag k="name" v="Dalabråten" />
		<tag k="place" v="farm" />
		<tag k="ssr:stedsnr" v="524497" />
	</node>
	<node id="9676264171" lat="60.2276759" lon="10.7275209" version="1" timestamp="2022-04-19T05:41:41Z" changeset="119887389" uid="3497659" user="NKA">
		<tag k="name" v="Bjørgeseterhytta" />
		<tag k="place" v="isolated_dwelling" />
		<tag k="ssr:stedsnr" v="828463" />
	</node>
	<node id="9676264172" lat="60.2838611" lon="10.5487916" version="1" timestamp="2022-04-19T05:41:41Z" changeset="119887389" uid="3497659" user="NKA">
		<tag k="name" v="Nygard" />
		<tag k="place" v="farm" />
		<tag k="ssr:stedsnr" v="674817" />
	</node>
	<node id="9676264173" lat="60.315972" lon="10.6597291" version="1" timestamp="2022-04-19T05:41:41Z" changeset="119887389" uid="3497659" user="NKA">
		<tag k="name" v="Torsbakken" />
		<tag k="place" v="farm" />
		<tag k="ssr:stedsnr" v="515276" />
	</node>
	<node id="9676264174" lat="60.3013975" lon="10.4703506" version="1" timestamp="2022-04-19T05:41:41Z" changeset="119887389" uid="3497659" user="NKA">
		<tag k="name" v="Sverige" />
		<tag k="place" v="farm" />
		<tag k="ssr:stedsnr" v="612894" />
	</node>
	<node id="9676264175" lat="60.3236512" lon="10.7012539" version="1" timestamp="2022-04-19T05:41:41Z" changeset="119887389" uid="3497659" user="NKA">
		<tag k="name" v="Kvernstua" />
		<tag k="place" v="isolated_dwelling" />
		<tag k="ssr:stedsnr" v="524936" />
	</node>
	<node id="9676264176" lat="60.3138" lon="10.5416639" version="1" timestamp="2022-04-19T05:41:41Z" changeset="119887389" uid="3497659" user="NKA">
		<tag k="name" v="Lian" />
		<tag k="place" v="farm" />
		<tag k="ssr:stedsnr" v="673940" />
	</node>
	<node id="9676264177" lat="60.319636" lon="10.6412325" version="1" timestamp="2022-04-19T05:41:41Z" changeset="119887389" uid="3497659" user="NKA">
		<tag k="name" v="Morka" />
		<tag k="place" v="farm" />
		<tag k="ssr:stedsnr" v="67925" />
	</node>
	<node id="9676264178" lat="60.2947983" lon="10.5768562" version="1" timestamp="2022-04-19T05:41:41Z" changeset="119887389" uid="3497659" user="NKA">
		<tag k="name" v="Kalvsjø" />
		<tag k="place" v="farm" />
		<tag k="ssr:stedsnr" v="674847" />
	</node>
	<node id="9676264179" lat="60.2785706" lon="10.594807" version="1" timestamp="2022-04-19T05:41:41Z" changeset="119887389" uid="3497659" user="NKA">
		<tag k="name" v="Oppen" />
		<tag k="place" v="farm" />
		<tag k="ssr:stedsnr" v="612831" />
	</node>
	<node id="9676264180" lat="60.2899367" lon="10.6485822" version="1" timestamp="2022-04-19T05:41:41Z" changeset="119887389" uid="3497659" user="NKA">
		<tag k="alt_name" v="Ødegården" />
		<tag k="name" v="Øgarden" />
		<tag k="place" v="farm" />
		<tag k="ssr:stedsnr" v="613870" />
	</node>
	<node id="9676264181" lat="60.2584834" lon="10.6659167" version="1" timestamp="2022-04-19T05:41:41Z" changeset="119887389" uid="3497659" user="NKA">
		<tag k="name" v="Austhagan" />
		<tag k="place" v="isolated_dwelling" />
		<tag k="ssr:stedsnr" v="612753" />
	</node>
	<node id="9676264182" lat="60.2714555" lon="10.67425" version="1" timestamp="2022-04-19T05:41:41Z" changeset="119887389" uid="3497659" user="NKA">
		<tag k="name" v="Tveitbråtån" />
		<tag k="place" v="farm" />
		<tag k="ssr:stedsnr" v="612783" />
	</node>
	<node id="9676264183" lat="60.2635224" lon="10.669358" version="1" timestamp="2022-04-19T05:41:41Z" changeset="119887389" uid="3497659" user="NKA">
		<tag k="name" v="Gruabråten" />
		<tag k="place" v="isolated_dwelling" />
		<tag k="ssr:stedsnr" v="586330" />
	</node>
	<node id="9676264184" lat="60.2518672" lon="10.6676086" version="1" timestamp="2022-04-19T05:41:41Z" changeset="119887389" uid="3497659" user="NKA">
		<tag k="name" v="Harestuødegården" />
		<tag k="place" v="farm" />
		<tag k="ssr:stedsnr" v="586323" />
	</node>
	<node id="9676264185" lat="60.2868917" lon="10.6142436" version="1" timestamp="2022-04-19T05:41:41Z" changeset="119887389" uid="3497659" user="NKA">
		<tag k="name" v="Frøshaug" />
		<tag k="place" v="farm" />
		<tag k="ssr:stedsnr" v="524787" />
	</node>
	<node id="9676264186" lat="60.2528722" lon="10.6582722" version="1" timestamp="2022-04-19T05:41:41Z" changeset="119887389" uid="3497659" user="NKA">
		<tag k="name" v="Granly" />
		<tag k="place" v="locality" />
		<tag k="ssr:stedsnr" v="586314" />
	</node>
	<node id="9676264187" lat="60.3033598" lon="10.6447391" version="1" timestamp="2022-04-19T05:41:41Z" changeset="119887389" uid="3497659" user="NKA">
		<tag k="name" v="Ulven" />
		<tag k="place" v="farm" />
		<tag k="ssr:stedsnr" v="431918" />
	</node>
	<node id="9676264188" lat="60.2778055" lon="10.6562861" version="1" timestamp="2022-04-19T05:41:41Z" changeset="119887389" uid="3497659" user="NKA">
		<tag k="name" v="Ryenga" />
		<tag k="place" v="farm" />
		<tag k="ssr:stedsnr" v="431811" />
	</node>
	<node id="9676264189" lat="60.2501167" lon="10.68055" version="1" timestamp="2022-04-19T05:41:41Z" changeset="119887389" uid="3497659" user="NKA">
		<tag k="name" v="Bakken" />
		<tag k="place" v="isolated_dwelling" />
		<tag k="ssr:stedsnr" v="249754" />
	</node>
	<node id="9676264190" lat="60.2096528" lon="10.6996666" version="1" timestamp="2022-04-19T05:41:41Z" changeset="119887389" uid="3497659" user="NKA">
		<tag k="name" v="Mo" />
		<tag k="place" v="farm" />
		<tag k="ssr:stedsnr" v="430427" />
	</node>
	<node id="9676264191" lat="60.2020584" lon="10.6057222" version="1" timestamp="2022-04-19T05:41:41Z" changeset="119887389" uid="3497659" user="NKA">
		<tag k="alt_name" v="Rajebråtahytta" />
		<tag k="name" v="Rajebråtehytta" />
		<tag k="place" v="isolated_dwelling" />
		<tag k="ssr:stedsnr" v="248430" />
	</node>
	<node id="9676264192" lat="60.140353" lon="10.6495352" version="1" timestamp="2022-04-19T05:41:41Z" changeset="119887389" uid="3497659" user="NKA">
		<tag k="name" v="Kalvehyttene" />
		<tag k="place" v="isolated_dwelling" />
		<tag k="ssr:stedsnr" v="246063" />
	</node>
	<node id="9676264193" lat="60.2757633" lon="10.6404404" version="1" timestamp="2022-04-19T05:41:41Z" changeset="119887389" uid="3497659" user="NKA">
		<tag k="alt_name" v="Rya, s;Rya" />
		<tag k="name" v="Søndre Rya" />
		<tag k="place" v="farm" />
		<tag k="ssr:stedsnr" v="67793" />
	</node>
	<node id="9676264194" lat="60.2840519" lon="10.6785838" version="1" timestamp="2022-04-19T05:41:41Z" changeset="119887389" uid="3497659" user="NKA">
		<tag k="name" v="Nordre Munkerud" />
		<tag k="place" v="farm" />
		<tag k="ssr:stedsnr" v="39199" />
	</node>
	<node id="9676264195" lat="60.2289443" lon="10.6905014" version="1" timestamp="2022-04-19T05:41:41Z" changeset="119887389" uid="3497659" user="NKA">
		<tag k="alt_name" v="Gulliksrud" />
		<tag k="historic" v="shieling" />
		<tag k="name" v="Gulleiksrud" />
		<tag k="place" v="isolated_dwelling" />
		<tag k="ssr:stedsnr" v="5459" />
	</node>
	<node id="9676264196" lat="60.200288" lon="10.7007767" version="1" timestamp="2022-04-19T05:41:41Z" changeset="119887389" uid="3497659" user="NKA">
		<tag k="name" v="Oset" />
		<tag k="place" v="locality" />
		<tag k="ssr:stedsnr" v="988310" />
	</node>
	<node id="9676264197" lat="60.3086914" lon="10.6575344" version="1" timestamp="2022-04-19T05:41:41Z" changeset="119887389" uid="3497659" user="NKA">
		<tag k="name" v="Søbo" />
		<tag k="place" v="farm" />
		<tag k="ssr:stedsnr" v="879377" />
	</node>
	<node id="9676264198" lat="60.2787555" lon="10.6571277" version="1" timestamp="2022-04-19T05:41:41Z" changeset="119887389" uid="3497659" user="NKA">
		<tag k="name" v="Nerenga" />
		<tag k="place" v="farm" />
		<tag k="ssr:stedsnr" v="67792" />
	</node>
	<node id="9676264199" lat="60.3041415" lon="10.6660784" version="1" timestamp="2022-04-19T05:41:41Z" changeset="119887389" uid="3497659" user="NKA">
		<tag k="name" v="Slåttland" />
		<tag k="place" v="isolated_dwelling" />
		<tag k="ssr:stedsnr" v="767804" />
	</node>
	<node id="9676264200" lat="60.286637" lon="10.6516669" version="1" timestamp="2022-04-19T05:41:41Z" changeset="119887389" uid="3497659" user="NKA">
		<tag k="name" v="Løvoll" />
		<tag k="place" v="farm" />
		<tag k="ssr:stedsnr" v="795810" />
	</node>
	<node id="9676264201" lat="60.3006178" lon="10.6300508" version="1" timestamp="2022-04-19T05:41:41Z" changeset="119887389" uid="3497659" user="NKA">
		<tag k="name" v="Elgheim" />
		<tag k="place" v="farm" />
		<tag k="ssr:stedsnr" v="856924" />
	</node>
	<node id="9676264202" lat="60.2763277" lon="10.6412251" version="1" timestamp="2022-04-19T05:41:41Z" changeset="119887389" uid="3497659" user="NKA">
		<tag k="name" v="Rya" />
		<tag k="place" v="hamlet" />
		<tag k="ssr:stedsnr" v="647411" />
	</node>
	<node id="9676264203" lat="60.2236107" lon="10.7583146" version="1" timestamp="2022-04-19T05:41:41Z" changeset="119887389" uid="3497659" user="NKA">
		<tag k="historic" v="shieling" />
		<tag k="name" v="Søndre Morstadsetra" />
		<tag k="place" v="isolated_dwelling" />
		<tag k="ssr:stedsnr" v="708515" />
	</node>
	<node id="9676264204" lat="60.2915666" lon="10.6901612" version="1" timestamp="2022-04-19T05:41:41Z" changeset="119887389" uid="3497659" user="NKA">
		<tag k="name" v="Skogli" />
		<tag k="place" v="isolated_dwelling" />
		<tag k="ssr:stedsnr" v="370876" />
	</node>
	<node id="9676264205" lat="60.2962183" lon="10.5616607" version="1" timestamp="2022-04-19T05:41:41Z" changeset="119887389" uid="3497659" user="NKA">
		<tag k="name" v="Skøyen" />
		<tag k="place" v="hamlet" />
		<tag k="ssr:stedsnr" v="67856" />
	</node>
	<node id="9676264206" lat="60.3133602" lon="10.5152208" version="1" timestamp="2022-04-19T05:41:41Z" changeset="119887389" uid="3497659" user="NKA">
		<tag k="name" v="Bruvoll" />
		<tag k="place" v="farm" />
		<tag k="ssr:stedsnr" v="6940" />
	</node>
	<node id="9676264207" lat="60.306737" lon="10.6688778" version="1" timestamp="2022-04-19T05:41:41Z" changeset="119887389" uid="3497659" user="NKA">
		<tag k="name" v="Slåttland" />
		<tag k="place" v="farm" />
		<tag k="ssr:stedsnr" v="673917" />
	</node>
	<node id="9676264208" lat="60.2926468" lon="10.5414637" version="1" timestamp="2022-04-19T05:41:41Z" changeset="119887389" uid="3497659" user="NKA">
		<tag k="name" v="Askilsrud" />
		<tag k="place" v="farm" />
		<tag k="ssr:stedsnr" v="988313" />
	</node>
	<node id="9676264209" lat="60.1651517" lon="10.717065" version="1" timestamp="2022-04-19T05:41:41Z" changeset="119887389" uid="3497659" user="NKA">
		<tag k="name" v="Stryken" />
		<tag k="place" v="hamlet" />
		<tag k="ssr:stedsnr" v="585025" />
	</node>
	<node id="9676264210" lat="60.1984194" lon="10.7164778" version="1" timestamp="2022-04-19T05:41:41Z" changeset="119887389" uid="3497659" user="NKA">
		<tag k="name" v="Furumo II" />
		<tag k="place" v="neighbourhood" />
		<tag k="ssr:stedsnr" v="403665" />
	</node>
	<node id="9676264211" lat="60.2948565" lon="10.5655264" version="1" timestamp="2022-04-19T05:41:41Z" changeset="119887389" uid="3497659" user="NKA">
		<tag k="name" v="Østre Skøyen" />
		<tag k="place" v="farm" />
		<tag k="ssr:stedsnr" v="949084" />
	</node>
	<node id="9676264212" lat="60.3185711" lon="10.5966697" version="1" timestamp="2022-04-19T05:41:41Z" changeset="119887389" uid="3497659" user="NKA">
		<tag k="name" v="Kraggerud" />
		<tag k="place" v="farm" />
		<tag k="ssr:stedsnr" v="988150" />
	</node>
	<node id="9676264213" lat="60.2931709" lon="10.5400787" version="1" timestamp="2022-04-19T05:41:41Z" changeset="119887389" uid="3497659" user="NKA">
		<tag k="alt_name" v="Askilsrud, øvre" />
		<tag k="name" v="Øvre Askilsrud" />
		<tag k="old_name" v="Akselsrud" />
		<tag k="place" v="farm" />
		<tag k="ssr:stedsnr" v="916861" />
	</node>
	<node id="9676264214" lat="60.3204541" lon="10.5275077" version="1" timestamp="2022-04-19T05:41:41Z" changeset="119887389" uid="3497659" user="NKA">
		<tag k="name" v="Østenga" />
		<tag k="place" v="farm" />
		<tag k="ssr:stedsnr" v="819081" />
	</node>
	<node id="9676264215" lat="60.3207833" lon="10.6884847" version="1" timestamp="2022-04-19T05:41:41Z" changeset="119887389" uid="3497659" user="NKA">
		<tag k="alt_name" v="Skjervedal" />
		<tag k="name" v="Skjerva" />
		<tag k="place" v="farm" />
		<tag k="ssr:stedsnr" v="795924" />
	</node>
	<node id="9676264216" lat="60.315762" lon="10.6611545" version="1" timestamp="2022-04-19T05:41:41Z" changeset="119887389" uid="3497659" user="NKA">
		<tag k="name" v="Koperud" />
		<tag k="place" v="farm" />
		<tag k="ssr:stedsnr" v="795921" />
	</node>
	<node id="9676264217" lat="60.3131588" lon="10.6573995" version="1" timestamp="2022-04-19T05:41:41Z" changeset="119887389" uid="3497659" user="NKA">
		<tag k="name" v="Oppsal" />
		<tag k="place" v="farm" />
		<tag k="ssr:stedsnr" v="795882" />
	</node>
	<node id="9676264218" lat="60.3108126" lon="10.643011" version="1" timestamp="2022-04-19T05:41:41Z" changeset="119887389" uid="3497659" user="NKA">
		<tag k="name" v="Stumne" />
		<tag k="place" v="farm" />
		<tag k="ssr:stedsnr" v="757357" />
	</node>
	<node id="9676264219" lat="60.3067623" lon="10.5522024" version="1" timestamp="2022-04-19T05:41:41Z" changeset="119887389" uid="3497659" user="NKA">
		<tag k="name" v="Lunner" />
		<tag k="place" v="hamlet" />
		<tag k="ssr:stedsnr" v="767050" />
	</node>
	<node id="9676264220" lat="60.3018422" lon="10.5028117" version="1" timestamp="2022-04-19T05:41:41Z" changeset="119887389" uid="3497659" user="NKA">
		<tag k="alt_name" v="Vestre Bolken" />
		<tag k="name" v="Bolken" />
		<tag k="place" v="farm" />
		<tag k="ssr:stedsnr" v="734874" />
	</node>
	<node id="9676264221" lat="60.3195989" lon="10.5376727" version="1" timestamp="2022-04-19T05:41:41Z" changeset="119887389" uid="3497659" user="NKA">
		<tag k="name" v="Hagen" />
		<tag k="place" v="farm" />
		<tag k="ssr:stedsnr" v="758092" />
	</node>
	<node id="9676264222" lat="60.3234325" lon="10.6388186" version="1" timestamp="2022-04-19T05:41:41Z" changeset="119887389" uid="3497659" user="NKA">
		<tag k="name" v="Brokerud" />
		<tag k="place" v="hamlet" />
		<tag k="ssr:stedsnr" v="515285" />
	</node>
	<node id="9676264223" lat="60.2880934" lon="10.6534628" version="1" timestamp="2022-04-19T05:41:41Z" changeset="119887389" uid="3497659" user="NKA">
		<tag k="name" v="Håkenstad" />
		<tag k="place" v="farm" />
		<tag k="ssr:stedsnr" v="734812" />
	</node>
	<node id="9676264224" lat="60.2904745" lon="10.5844867" version="1" timestamp="2022-04-19T05:41:41Z" changeset="119887389" uid="3497659" user="NKA">
		<tag k="name" v="Rud" />
		<tag k="place" v="farm" />
		<tag k="ssr:stedsnr" v="491844" />
	</node>
	<node id="9676264225" lat="60.2977469" lon="10.6077283" version="1" timestamp="2022-04-19T05:41:41Z" changeset="119887389" uid="3497659" user="NKA">
		<tag k="alt_name" v="Sanstad" />
		<tag k="name" v="Sandstad" />
		<tag k="place" v="farm" />
		<tag k="ssr:stedsnr" v="309869" />
	</node>
	<node id="9676264226" lat="60.2883454" lon="10.5912143" version="1" timestamp="2022-04-19T05:41:41Z" changeset="119887389" uid="3497659" user="NKA">
		<tag k="alt_name" v="Bjøralt, østre" />
		<tag k="name" v="Østre Bjøralt" />
		<tag k="place" v="farm" />
		<tag k="ssr:stedsnr" v="552840" />
	</node>
	<node id="9676264227" lat="60.3251805" lon="10.6335499" version="1" timestamp="2022-04-19T05:41:41Z" changeset="119887389" uid="3497659" user="NKA">
		<tag k="name" v="Nordre Brokerud" />
		<tag k="place" v="farm" />
		<tag k="ssr:stedsnr" v="211292" />
	</node>
	<node id="9676264228" lat="60.3004329" lon="10.5277707" version="1" timestamp="2022-04-19T05:41:41Z" changeset="119887389" uid="3497659" user="NKA">
		<tag k="name" v="Solheim" />
		<tag k="place" v="farm" />
		<tag k="ssr:stedsnr" v="283339" />
	</node>
	<node id="9676264229" lat="60.3025084" lon="10.6067889" version="1" timestamp="2022-04-19T05:41:41Z" changeset="119887389" uid="3497659" user="NKA">
		<tag k="name" v="Nerenga" />
		<tag k="place" v="farm" />
		<tag k="ssr:stedsnr" v="403801" />
	</node>
	<node id="9676264230" lat="60.3178172" lon="10.5516757" version="1" timestamp="2022-04-19T05:41:41Z" changeset="119887389" uid="3497659" user="NKA">
		<tag k="name" v="Solheim" />
		<tag k="place" v="farm" />
		<tag k="ssr:stedsnr" v="221052" />
	</node>
	<node id="9676264231" lat="60.3020701" lon="10.4699134" version="1" timestamp="2022-04-19T05:41:41Z" changeset="119887389" uid="3497659" user="NKA">
		<tag k="name" v="Vestby" />
		<tag k="place" v="farm" />
		<tag k="ssr:stedsnr" v="828142" />
	</node>
	<node id="9676264232" lat="60.311848" lon="10.550243" version="1" timestamp="2022-04-19T05:41:41Z" changeset="119887389" uid="3497659" user="NKA">
		<tag k="alt_name" v="Grønnvoll" />
		<tag k="name" v="Grønvoll" />
		<tag k="place" v="farm" />
		<tag k="ssr:stedsnr" v="221044" />
	</node>
	<node id="9676264233" lat="60.2982363" lon="10.4812854" version="1" timestamp="2022-04-19T05:41:41Z" changeset="119887389" uid="3497659" user="NKA">
		<tag k="name" v="Kvernhaugen" />
		<tag k="place" v="farm" />
		<tag k="ssr:stedsnr" v="767149" />
	</node>
	<node id="9676264234" lat="60.3028097" lon="10.488613" version="1" timestamp="2022-04-19T05:41:41Z" changeset="119887389" uid="3497659" user="NKA">
		<tag k="alt_name" v="Løyken, nedre;Løken" />
		<tag k="name" v="Nedre Løyken" />
		<tag k="place" v="farm" />
		<tag k="ssr:stedsnr" v="734882" />
	</node>
	<node id="9676264235" lat="60.3213243" lon="10.5020068" version="1" timestamp="2022-04-19T05:41:41Z" changeset="119887389" uid="3497659" user="NKA">
		<tag k="name" v="Haugerud" />
		<tag k="place" v="farm" />
		<tag k="ssr:stedsnr" v="370975" />
	</node>
	<node id="9676264236" lat="60.3190905" lon="10.4896197" version="1" timestamp="2022-04-19T05:41:41Z" changeset="119887389" uid="3497659" user="NKA">
		<tag k="name" v="Kjekstad" />
		<tag k="place" v="farm" />
		<tag k="ssr:stedsnr" v="491963" />
	</node>
	<node id="9676264237" lat="60.3062666" lon="10.8468079" version="1" timestamp="2022-04-19T05:41:41Z" changeset="119887389" uid="3497659" user="NKA">
		<tag k="name" v="Knapptjernshytta" />
		<tag k="place" v="isolated_dwelling" />
		<tag k="ssr:stedsnr" v="552348" />
	</node>
	<node id="9676264238" lat="60.2907866" lon="10.6717256" version="1" timestamp="2022-04-19T05:41:41Z" changeset="119887389" uid="3497659" user="NKA">
		<tag k="alt_name" v="Brattli" />
		<tag k="name" v="Brattlia" />
		<tag k="place" v="farm" />
		<tag k="ssr:stedsnr" v="491876" />
	</node>
	<node id="9676264239" lat="60.2527135" lon="10.655905" version="1" timestamp="2022-04-19T05:41:41Z" changeset="119887389" uid="3497659" user="NKA">
		<tag k="name" v="Bråten" />
		<tag k="place" v="locality" />
		<tag k="ssr:stedsnr" v="526291" />
	</node>
	<node id="9676264240" lat="60.2969933" lon="10.6580282" version="1" timestamp="2022-04-19T05:41:41Z" changeset="119887389" uid="3497659" user="NKA">
		<tag k="name" v="Hytta" />
		<tag k="place" v="hamlet" />
		<tag k="ssr:stedsnr" v="491874" />
	</node>
	<node id="9676264241" lat="60.3081333" lon="10.6597584" version="1" timestamp="2022-04-19T05:41:41Z" changeset="119887389" uid="3497659" user="NKA">
		<tag k="alt_name" v="Bråstad øvre" />
		<tag k="name" v="Øvre Bråstad" />
		<tag k="old_name" v="Rustad" />
		<tag k="place" v="farm" />
		<tag k="ssr:stedsnr" v="357869" />
	</node>
	<node id="9676264242" lat="60.3107059" lon="10.5997602" version="1" timestamp="2022-04-19T05:41:41Z" changeset="119887389" uid="3497659" user="NKA">
		<tag k="alt_name" v="Krågsrud" />
		<tag k="name" v="Kråksrud" />
		<tag k="place" v="farm" />
		<tag k="ssr:stedsnr" v="248950" />
	</node>
	<node id="9676264243" lat="60.3124668" lon="10.65046" version="1" timestamp="2022-04-19T05:41:41Z" changeset="119887389" uid="3497659" user="NKA">
		<tag k="name" v="Svingen" />
		<tag k="place" v="farm" />
		<tag k="ssr:stedsnr" v="248890" />
	</node>
	<node id="9676264244" lat="60.255369" lon="10.6553728" version="1" timestamp="2022-04-19T05:41:41Z" changeset="119887389" uid="3497659" user="NKA">
		<tag k="name" v="Gruakollen" />
		<tag k="place" v="quarter" />
		<tag k="ssr:stedsnr" v="162307" />
	</node>
	<node id="9676264245" lat="60.308017" lon="10.6512874" version="1" timestamp="2022-04-19T05:41:41Z" changeset="119887389" uid="3497659" user="NKA">
		<tag k="name" v="Midtre Bråstad" />
		<tag k="place" v="farm" />
		<tag k="ssr:stedsnr" v="211373" />
	</node>
	<node id="9676264246" lat="60.3018596" lon="10.6748427" version="1" timestamp="2022-04-19T05:41:41Z" changeset="119887389" uid="3497659" user="NKA">
		<tag k="name" v="Hagan" />
		<tag k="place" v="isolated_dwelling" />
		<tag k="ssr:stedsnr" v="39926" />
	</node>
	<node id="9676264247" lat="60.3041668" lon="10.6277878" version="1" timestamp="2022-04-19T05:41:41Z" changeset="119887389" uid="3497659" user="NKA">
		<tag k="name" v="Øvre Løyken" />
		<tag k="old_name" v="Øvre Løkken" />
		<tag k="place" v="farm" />
		<tag k="ssr:stedsnr" v="100771" />
	</node>
	<node id="9676264248" lat="60.3130018" lon="10.6164468" version="1" timestamp="2022-04-19T05:41:41Z" changeset="119887389" uid="3497659" user="NKA">
		<tag k="name" v="Blistein" />
		<tag k="place" v="farm" />
		<tag k="ssr:stedsnr" v="6948" />
	</node>
	<node id="9676264249" lat="60.282495" lon="10.6649495" version="1" timestamp="2022-04-19T05:41:41Z" changeset="119887389" uid="3497659" user="NKA">
		<tag k="name" v="Enga" />
		<tag k="place" v="farm" />
		<tag k="ssr:stedsnr" v="100222" />
	</node>
	<node id="9676264250" lat="60.2734666" lon="10.6755584" version="1" timestamp="2022-04-19T05:41:41Z" changeset="119887389" uid="3497659" user="NKA">
		<tag k="name" v="Jensrud" />
		<tag k="place" v="farm" />
		<tag k="ssr:stedsnr" v="6800" />
	</node>
	<node id="9676264251" lat="60.2806544" lon="10.6675356" version="1" timestamp="2022-04-19T05:41:41Z" changeset="119887389" uid="3497659" user="NKA">
		<tag k="name" v="Tveita" />
		<tag k="place" v="farm" />
		<tag k="ssr:stedsnr" v="988273" />
	</node>
	<node id="9676264252" lat="60.3053361" lon="10.6097166" version="1" timestamp="2022-04-19T05:41:41Z" changeset="119887389" uid="3497659" user="NKA">
		<tag k="name" v="Haugen" />
		<tag k="place" v="farm" />
		<tag k="ssr:stedsnr" v="856912" />
	</node>
	<node id="9676264253" lat="60.2979426" lon="10.6347961" version="1" timestamp="2022-04-19T05:41:41Z" changeset="119887389" uid="3497659" user="NKA">
		<tag k="name" v="Melås" />
		<tag k="place" v="farm" />
		<tag k="ssr:stedsnr" v="6880" />
	</node>
	<node id="9676264254" lat="60.2860572" lon="10.6527066" version="1" timestamp="2022-04-19T05:41:41Z" changeset="119887389" uid="3497659" user="NKA">
		<tag k="name" v="Midtenga" />
		<tag k="place" v="farm" />
		<tag k="ssr:stedsnr" v="342776" />
	</node>
	<node id="9676264255" lat="60.2891601" lon="10.6504611" version="1" timestamp="2022-04-19T05:41:41Z" changeset="119887389" uid="3497659" user="NKA">
		<tag k="name" v="Søndre Oppdalen" />
		<tag k="place" v="hamlet" />
		<tag k="ssr:stedsnr" v="613809" />
	</node>
	<node id="9676264256" lat="60.2647346" lon="10.64751" version="1" timestamp="2022-04-19T05:41:41Z" changeset="119887389" uid="3497659" user="NKA">
		<tag k="name" v="Malmgruben" />
		<tag k="place" v="farm" />
		<tag k="ssr:stedsnr" v="342769" />
	</node>
	<node id="9676264257" lat="60.3000309" lon="10.6088925" version="1" timestamp="2022-04-19T05:41:41Z" changeset="119887389" uid="3497659" user="NKA">
		<tag k="alt_name" v="Engeli" />
		<tag k="name" v="Engli" />
		<tag k="place" v="farm" />
		<tag k="ssr:stedsnr" v="612902" />
	</node>
	<node id="9676264258" lat="60.3158543" lon="10.6167344" version="1" timestamp="2022-04-19T05:41:41Z" changeset="119887389" uid="3497659" user="NKA">
		<tag k="name" v="Ulsrud" />
		<tag k="place" v="farm" />
		<tag k="ssr:stedsnr" v="127936" />
	</node>
	<node id="9676264259" lat="60.3059139" lon="10.6018583" version="1" timestamp="2022-04-19T05:41:41Z" changeset="119887389" uid="3497659" user="NKA">
		<tag k="name" v="Dale" />
		<tag k="place" v="isolated_dwelling" />
		<tag k="ssr:stedsnr" v="342070" />
	</node>
	<node id="9676264260" lat="60.3102746" lon="10.6047901" version="1" timestamp="2022-04-19T05:41:41Z" changeset="119887389" uid="3497659" user="NKA">
		<tag k="alt_name" v="Råstad nordre" />
		<tag k="name" v="Nordre Råstad" />
		<tag k="place" v="farm" />
		<tag k="ssr:stedsnr" v="272266" />
	</node>
	<node id="3073726433" lat="60.3239033" lon="10.5101109" version="1" timestamp="2014-09-12T17:10:51Z" changeset="25395196" uid="435265" user="Ansgar G Grimsrud" />
	<node id="3073726434" lat="60.3239033" lon="10.5107874" version="1" timestamp="2014-09-12T17:10:52Z" changeset="25395196" uid="435265" user="Ansgar G Grimsrud" />
	<node id="3073726435" lat="60.3239946" lon="10.5097788" version="1" timestamp="2014-09-12T17:10:52Z" changeset="25395196" uid="435265" user="Ansgar G Grimsrud" />
	<node id="3073726436" lat="60.3240715" lon="10.5096608" version="1" timestamp="2014-09-12T17:10:52Z" changeset="25395196" uid="435265" user="Ansgar G Grimsrud" />
	<node id="3073726437" lat="60.3240738" lon="10.5117467" version="1" timestamp="2014-09-12T17:10:52Z" changeset="25395196" uid="435265" user="Ansgar G Grimsrud" />
	<node id="3073726439" lat="60.324226" lon="10.5100617" version="1" timestamp="2014-09-12T17:10:52Z" changeset="25395196" uid="435265" user="Ansgar G Grimsrud" />
	<node id="3073726441" lat="60.3243174" lon="10.5103323" version="1" timestamp="2014-09-12T17:10:52Z" changeset="25395196" uid="435265" user="Ansgar G Grimsrud" />
	<node id="3073726445" lat="60.3244209" lon="10.5108981" version="1" timestamp="2014-09-12T17:10:52Z" changeset="25395196" uid="435265" user="Ansgar G Grimsrud" />
	<node id="3073726448" lat="60.3246096" lon="10.5110334" version="1" timestamp="2014-09-12T17:10:52Z" changeset="25395196" uid="435265" user="Ansgar G Grimsrud" />
	<node id="3073726451" lat="60.3247314" lon="10.5109227" version="1" timestamp="2014-09-12T17:10:52Z" changeset="25395196" uid="435265" user="Ansgar G Grimsrud" />
	<node id="3073726456" lat="60.3249263" lon="10.510812" version="1" timestamp="2014-09-12T17:10:52Z" changeset="25395196" uid="435265" user="Ansgar G Grimsrud" />
	<node id="3073726458" lat="60.3251516" lon="10.5107874" version="1" timestamp="2014-09-12T17:10:52Z" changeset="25395196" uid="435265" user="Ansgar G Grimsrud" />
	<node id="3073726459" lat="60.3252838" lon="10.5110116" version="1" timestamp="2014-09-12T17:10:52Z" changeset="25395196" uid="435265" user="Ansgar G Grimsrud" />
	<node id="3073726460" lat="60.3253585" lon="10.5113038" version="1" timestamp="2014-09-12T17:10:52Z" changeset="25395196" uid="435265" user="Ansgar G Grimsrud" />
	<node id="3073726461" lat="60.3254162" lon="10.5117592" version="1" timestamp="2014-09-12T17:10:52Z" changeset="25395196" uid="435265" user="Ansgar G Grimsrud" />
	<node id="3073726438" lat="60.3242017" lon="10.5125708" version="1" timestamp="2014-09-12T17:10:52Z" changeset="25395196" uid="435265" user="Ansgar G Grimsrud" />
	<node id="3073726440" lat="60.324284" lon="10.5134543" version="1" timestamp="2014-09-12T17:10:52Z" changeset="25395196" uid="435265" user="Ansgar G Grimsrud" />
	<node id="3073726442" lat="60.3243295" lon="10.5150184" version="1" timestamp="2014-09-12T17:10:52Z" changeset="25395196" uid="435265" user="Ansgar G Grimsrud" />
	<node id="3073726443" lat="60.3243295" lon="10.5156334" version="1" timestamp="2014-09-12T17:10:52Z" changeset="25395196" uid="435265" user="Ansgar G Grimsrud" />
	<node id="3073726444" lat="60.3243417" lon="10.5145264" version="1" timestamp="2014-09-12T17:10:52Z" changeset="25395196" uid="435265" user="Ansgar G Grimsrud" />
	<node id="3073726446" lat="60.3245487" lon="10.5160269" version="1" timestamp="2014-09-12T17:10:52Z" changeset="25395196" uid="435265" user="Ansgar G Grimsrud" />
	<node id="3073726447" lat="60.3245853" lon="10.5183515" version="1" timestamp="2014-09-12T17:10:52Z" changeset="25395196" uid="435265" user="Ansgar G Grimsrud" />
	<node id="3073726450" lat="60.3247071" lon="10.5179948" version="1" timestamp="2014-09-12T17:10:52Z" changeset="25395196" uid="435265" user="Ansgar G Grimsrud" />
	<node id="3073726452" lat="60.3248289" lon="10.5174906" version="1" timestamp="2014-09-12T17:10:52Z" changeset="25395196" uid="435265" user="Ansgar G Grimsrud" />
	<node id="3073726453" lat="60.3248532" lon="10.5162975" version="1" timestamp="2014-09-12T17:10:52Z" changeset="25395196" uid="435265" user="Ansgar G Grimsrud" />
	<node id="3073726454" lat="60.3249019" lon="10.5171093" version="1" timestamp="2014-09-12T17:10:52Z" changeset="25395196" uid="435265" user="Ansgar G Grimsrud" />
	<node id="3073726457" lat="60.3249324" lon="10.5166419" version="1" timestamp="2014-09-12T17:10:52Z" changeset="25395196" uid="435265" user="Ansgar G Grimsrud" />
	<node id="3073726462" lat="60.3254203" lon="10.5129727" version="1" timestamp="2014-09-12T17:10:52Z" changeset="25395196" uid="435265" user="Ansgar G Grimsrud" />
	<node id="3073726464" lat="60.3255194" lon="10.5134663" version="1" timestamp="2014-09-12T17:10:52Z" changeset="25395196" uid="435265" user="Ansgar G Grimsrud" />
	<node id="3073726465" lat="60.3255818" lon="10.513777" version="1" timestamp="2014-09-12T17:10:52Z" changeset="25395196" uid="435265" user="Ansgar G Grimsrud" />
	<node id="3073726466" lat="60.3257613" lon="10.5144543" version="1" timestamp="2014-09-12T17:10:52Z" changeset="25395196" uid="435265" user="Ansgar G Grimsrud" />
	<node id="3073726467" lat="60.3257712" lon="10.5144921" version="1" timestamp="2014-09-12T17:10:52Z" changeset="25395196" uid="435265" user="Ansgar G Grimsrud" />
	<node id="3073726468" lat="60.3259276" lon="10.5149521" version="1" timestamp="2014-09-12T17:10:52Z" changeset="25395196" uid="435265" user="Ansgar G Grimsrud" />
	<node id="3073726469" lat="60.3259977" lon="10.5151092" version="1" timestamp="2014-09-12T17:10:52Z" changeset="25395196" uid="435265" user="Ansgar G Grimsrud" />
	<node id="3073726471" lat="60.3260677" lon="10.5152664" version="1" timestamp="2014-09-12T17:10:52Z" changeset="25395196" uid="435265" user="Ansgar G Grimsrud" />
	<node id="3073726472" lat="60.3261817" lon="10.5156942" version="1" timestamp="2014-09-12T17:10:52Z" changeset="25395196" uid="435265" user="Ansgar G Grimsrud" />
	<node id="3073726473" lat="60.3262141" lon="10.5158165" version="1" timestamp="2014-09-12T17:10:52Z" changeset="25395196" uid="435265" user="Ansgar G Grimsrud" />
	<node id="3073726474" lat="60.3262448" lon="10.5158949" version="1" timestamp="2014-09-12T17:10:52Z" changeset="25395196" uid="435265" user="Ansgar G Grimsrud" />
	<node id="3073726475" lat="60.3263362" lon="10.51613" version="1" timestamp="2014-09-12T17:10:52Z" changeset="25395196" uid="435265" user="Ansgar G Grimsrud" />
	<node id="3073726476" lat="60.3263688" lon="10.5162897" version="1" timestamp="2014-09-12T17:10:52Z" changeset="25395196" uid="435265" user="Ansgar G Grimsrud" />
	<node id="3073726477" lat="60.3263958" lon="10.5164226" version="1" timestamp="2014-09-12T17:10:52Z" changeset="25395196" uid="435265" user="Ansgar G Grimsrud" />
	<node id="3073726478" lat="60.3264328" lon="10.5171125" version="1" timestamp="2014-09-12T17:10:52Z" changeset="25395196" uid="435265" user="Ansgar G Grimsrud" />
	<node id="3073726480" lat="60.3265113" lon="10.5173153" version="1" timestamp="2014-09-12T17:10:52Z" changeset="25395196" uid="435265" user="Ansgar G Grimsrud" />
	<node id="3073726481" lat="60.3266804" lon="10.5174681" version="1" timestamp="2014-09-12T17:10:52Z" changeset="25395196" uid="435265" user="Ansgar G Grimsrud" />
	<node id="3073726482" lat="60.3268212" lon="10.5175565" version="1" timestamp="2014-09-12T17:10:52Z" changeset="25395196" uid="435265" user="Ansgar G Grimsrud" />
	<node id="3073726484" lat="60.3269299" lon="10.5176245" version="1" timestamp="2014-09-12T17:10:52Z" changeset="25395196" uid="435265" user="Ansgar G Grimsrud" />
	<node id="3073726485" lat="60.3270994" lon="10.5177229" version="1" timestamp="2014-09-12T17:10:52Z" changeset="25395196" uid="435265" user="Ansgar G Grimsrud" />
	<node id="3073726486" lat="60.3270995" lon="10.5185017" version="1" timestamp="2014-09-12T17:10:52Z" changeset="25395196" uid="435265" user="Ansgar G Grimsrud" />
	<node id="3073726487" lat="60.3271415" lon="10.5182653" version="1" timestamp="2014-09-12T17:10:53Z" changeset="25395196" uid="435265" user="Ansgar G Grimsrud" />
	<node id="3073726489" lat="60.327152" lon="10.5178341" version="1" timestamp="2014-09-12T17:10:53Z" changeset="25395196" uid="435265" user="Ansgar G Grimsrud" />
	<node id="3073726490" lat="60.3271586" lon="10.5178994" version="1" timestamp="2014-09-12T17:10:53Z" changeset="25395196" uid="435265" user="Ansgar G Grimsrud" />
	<node id="3073726491" lat="60.3271715" lon="10.5180239" version="1" timestamp="2014-09-12T17:10:53Z" changeset="25395196" uid="435265" user="Ansgar G Grimsrud" />
	<node id="3073726492" lat="60.3271724" lon="10.5180326" version="1" timestamp="2014-09-12T17:10:53Z" changeset="25395196" uid="435265" user="Ansgar G Grimsrud" />
	<node id="3073726493" lat="60.3271763" lon="10.5180706" version="1" timestamp="2014-09-12T17:10:53Z" changeset="25395196" uid="435265" user="Ansgar G Grimsrud" />
	<node id="313739501" lat="60.3255" lon="10.52475" version="1" timestamp="2008-11-22T15:56:12Z" changeset="780802" uid="71960" user="qwem" />
	<node id="313739502" lat="60.326" lon="10.524" version="1" timestamp="2008-11-22T15:56:12Z" changeset="780802" uid="71960" user="qwem" />
	<node id="313739503" lat="60.3265" lon="10.52425" version="1" timestamp="2008-11-22T15:56:13Z" changeset="780802" uid="71960" user="qwem" />
	<node id="3073726449" lat="60.3246096" lon="10.5186836" version="1" timestamp="2014-09-12T17:10:52Z" changeset="25395196" uid="435265" user="Ansgar G Grimsrud" />
	<node id="3073726455" lat="60.324908" lon="10.5195" version="1" timestamp="2014-09-12T17:10:52Z" changeset="25395196" uid="435265" user="Ansgar G Grimsrud" />
	<node id="3073726463" lat="60.3255" lon="10.5195" version="1" timestamp="2014-09-12T17:10:52Z" changeset="25395196" uid="435265" user="Ansgar G Grimsrud" />
	<node id="3073726470" lat="60.3260257" lon="10.5199205" version="1" timestamp="2014-09-12T17:10:52Z" changeset="25395196" uid="435265" user="Ansgar G Grimsrud" />
	<node id="3073726479" lat="60.3264485" lon="10.5206146" version="1" timestamp="2014-09-12T17:10:52Z" changeset="25395196" uid="435265" user="Ansgar G Grimsrud" />
	<node id="3073726483" lat="60.3269113" lon="10.520959" version="1" timestamp="2014-09-12T17:10:52Z" changeset="25395196" uid="435265" user="Ansgar G Grimsrud" />
	<node id="3073726488" lat="60.3271423" lon="10.5186848" version="1" timestamp="2014-09-12T17:10:53Z" changeset="25395196" uid="435265" user="Ansgar G Grimsrud" />
	<node id="3073726494" lat="60.3272755" lon="10.5188178" version="1" timestamp="2014-09-12T17:10:53Z" changeset="25395196" uid="435265" user="Ansgar G Grimsrud" />
	<node id="3073726495" lat="60.3274097" lon="10.5188602" version="1" timestamp="2014-09-12T17:10:53Z" changeset="25395196" uid="435265" user="Ansgar G Grimsrud" />
	<node id="3073726496" lat="60.3274106" lon="10.5208852" version="1" timestamp="2014-09-12T17:10:53Z" changeset="25395196" uid="435265" user="Ansgar G Grimsrud" />
	<node id="3073726497" lat="60.3275712" lon="10.5188675" version="1" timestamp="2014-09-12T17:10:53Z" changeset="25395196" uid="435265" user="Ansgar G Grimsrud" />
	<node id="3073726498" lat="60.3277163" lon="10.5187475" version="1" timestamp="2014-09-12T17:10:53Z" changeset="25395196" uid="435265" user="Ansgar G Grimsrud" />
	<node id="3073726499" lat="60.3278059" lon="10.5187701" version="1" timestamp="2014-09-12T17:10:53Z" changeset="25395196" uid="435265" user="Ansgar G Grimsrud" />
	<node id="3073726500" lat="60.3278224" lon="10.5213579" version="1" timestamp="2014-09-12T17:10:53Z" changeset="25395196" uid="435265" user="Ansgar G Grimsrud" />
	<node id="3073726501" lat="60.327889" lon="10.5189017" version="1" timestamp="2014-09-12T17:10:53Z" changeset="25395196" uid="435265" user="Ansgar G Grimsrud" />
	<node id="3073726502" lat="60.3280882" lon="10.5192177" version="1" timestamp="2014-09-12T17:10:53Z" changeset="25395196" uid="435265" user="Ansgar G Grimsrud" />
	<node id="3073726503" lat="60.3281781" lon="10.5218563" version="1" timestamp="2014-09-12T17:10:53Z" changeset="25395196" uid="435265" user="Ansgar G Grimsrud" />
	<node id="3073726504" lat="60.3281856" lon="10.5193309" version="1" timestamp="2014-09-12T17:10:53Z" changeset="25395196" uid="435265" user="Ansgar G Grimsrud" />
	<node id="3073726505" lat="60.3283658" lon="10.5200638" version="1" timestamp="2014-09-12T17:10:53Z" changeset="25395196" uid="435265" user="Ansgar G Grimsrud" />
	<node id="3073726506" lat="60.3285233" lon="10.5204335" version="1" timestamp="2014-09-12T17:10:53Z" changeset="25395196" uid="435265" user="Ansgar G Grimsrud" />
	<node id="3073726507" lat="60.3288877" lon="10.5231127" version="1" timestamp="2014-09-12T17:10:53Z" changeset="25395196" uid="435265" user="Ansgar G Grimsrud" />
	<node id="3073726508" lat="60.3289267" lon="10.5212852" version="1" timestamp="2014-09-12T17:10:53Z" changeset="25395196" uid="435265" user="Ansgar G Grimsrud" />
	<node id="3073726509" lat="60.3292055" lon="10.524377" version="1" timestamp="2014-09-12T17:10:53Z" changeset="25395196" uid="435265" user="Ansgar G Grimsrud" />
	<node id="3073726510" lat="60.3292188" lon="10.5246585" version="1" timestamp="2014-09-12T17:10:53Z" changeset="25395196" uid="435265" user="Ansgar G Grimsrud" />
	<node id="3073726511" lat="60.3292191" lon="10.5216248" version="1" timestamp="2014-09-12T17:10:53Z" changeset="25395196" uid="435265" user="Ansgar G Grimsrud" />
	<node id="3073726512" lat="60.3292523" lon="10.5247507" version="1" timestamp="2014-09-12T17:10:53Z" changeset="25395196" uid="435265" user="Ansgar G Grimsrud" />
	<node id="3073726514" lat="60.3293332" lon="10.5218475" version="1" timestamp="2014-09-12T17:10:53Z" changeset="25395196" uid="435265" user="Ansgar G Grimsrud" />
	<node id="3073726518" lat="60.3295828" lon="10.5228009" version="1" timestamp="2014-09-12T17:10:53Z" changeset="25395196" uid="435265" user="Ansgar G Grimsrud" />
	<node id="3073726519" lat="60.3297496" lon="10.5231347" version="1" timestamp="2014-09-12T17:10:53Z" changeset="25395196" uid="435265" user="Ansgar G Grimsrud" />
	<node id="3073726520" lat="60.3298557" lon="10.5232846" version="1" timestamp="2014-09-12T17:10:53Z" changeset="25395196" uid="435265" user="Ansgar G Grimsrud" />
	<node id="3073726522" lat="60.3299571" lon="10.5238327" version="1" timestamp="2014-09-12T17:10:53Z" changeset="25395196" uid="435265" user="Ansgar G Grimsrud" />
	<node id="3073726524" lat="60.3300813" lon="10.5250806" version="1" timestamp="2014-09-12T17:10:53Z" changeset="25395196" uid="435265" user="Ansgar G Grimsrud" />
	<node id="3073726525" lat="60.3300862" lon="10.5243279" version="1" timestamp="2014-09-12T17:10:53Z" changeset="25395196" uid="435265" user="Ansgar G Grimsrud" />
	<node id="3073726526" lat="60.3301033" lon="10.5244814" version="1" timestamp="2014-09-12T17:10:53Z" changeset="25395196" uid="435265" user="Ansgar G Grimsrud" />
	<node id="3073726527" lat="60.3301143" lon="10.5250102" version="1" timestamp="2014-09-12T17:10:53Z" changeset="25395196" uid="435265" user="Ansgar G Grimsrud" />
	<node id="3073726528" lat="60.3301174" lon="10.524739" version="1" timestamp="2014-09-12T17:10:53Z" changeset="25395196" uid="435265" user="Ansgar G Grimsrud" />
	<node id="3073726529" lat="60.3301187" lon="10.5246188" version="1" timestamp="2014-09-12T17:10:53Z" changeset="25395196" uid="435265" user="Ansgar G Grimsrud" />
	<node id="313739499" lat="60.325" lon="10.526" version="1" timestamp="2008-11-22T15:56:12Z" changeset="780802" uid="71960" user="qwem" />
	<node id="313739504" lat="60.32675" lon="10.5255" version="1" timestamp="2008-11-22T15:56:13Z" changeset="780802" uid="71960" user="qwem" />
	<node id="313739506" lat="60.327" lon="10.526" version="1" timestamp="2008-11-22T15:56:13Z" changeset="780802" uid="71960" user="qwem" />
	<node id="313739507" lat="60.32675" lon="10.5265" version="1" timestamp="2008-11-22T15:56:14Z" changeset="780802" uid="71960" user="qwem" />
	<node id="313739508" lat="60.3275" lon="10.52825" version="1" timestamp="2008-11-22T15:56:14Z" changeset="780802" uid="71960" user="qwem" />
	<node id="313739509" lat="60.32775" lon="10.531" version="1" timestamp="2008-11-22T15:56:14Z" changeset="780802" uid="71960" user="qwem" />
	<node id="313739492" lat="60.32525" lon="10.53775" version="1" timestamp="2008-11-22T15:56:11Z" changeset="780802" uid="71960" user="qwem" />
	<node id="313739497" lat="60.325" lon="10.5375" version="1" timestamp="2008-11-22T15:56:11Z" changeset="780802" uid="71960" user="qwem" />
	<node id="313739511" lat="60.328" lon="10.5325" version="1" timestamp="2008-11-22T15:56:14Z" changeset="780802" uid="71960" user="qwem" />
	<node id="313739512" lat="60.3275" lon="10.5345" version="1" timestamp="2008-11-22T15:56:15Z" changeset="780802" uid="71960" user="qwem" />
	<node id="313739513" lat="60.32775" lon="10.5375" version="1" timestamp="2008-11-22T15:56:15Z" changeset="780802" uid="71960" user="qwem" />
	<node id="3073726513" lat="60.3292645" lon="10.5250951" version="1" timestamp="2014-09-12T17:10:53Z" changeset="25395196" uid="435265" user="Ansgar G Grimsrud" />
	<node id="3073726515" lat="60.3293377" lon="10.5253795" version="1" timestamp="2014-09-12T17:10:53Z" changeset="25395196" uid="435265" user="Ansgar G Grimsrud" />
	<node id="3073726516" lat="60.329435" lon="10.5255108" version="1" timestamp="2014-09-12T17:10:53Z" changeset="25395196" uid="435265" user="Ansgar G Grimsrud" />
	<node id="3073726517" lat="60.329571" lon="10.5253904" version="1" timestamp="2014-09-12T17:10:53Z" changeset="25395196" uid="435265" user="Ansgar G Grimsrud" />
	<node id="3073726521" lat="60.3299308" lon="10.5253347" version="1" timestamp="2014-09-12T17:10:53Z" changeset="25395196" uid="435265" user="Ansgar G Grimsrud" />
	<node id="3073726523" lat="60.3300132" lon="10.5252116" version="1" timestamp="2014-09-12T17:10:53Z" changeset="25395196" uid="435265" user="Ansgar G Grimsrud" />
	<node id="313739484" lat="60.3265" lon="10.54375" version="1" timestamp="2008-11-22T15:56:10Z" changeset="780802" uid="71960" user="qwem" />
	<node id="313739487" lat="60.32575" lon="10.5385" version="1" timestamp="2008-11-22T15:56:10Z" changeset="780802" uid="71960" user="qwem" />
	<node id="313739515" lat="60.32725" lon="10.54125" version="1" timestamp="2008-11-22T15:56:15Z" changeset="780802" uid="71960" user="qwem" />
	<node id="4246615534" lat="60.3235905" lon="10.7333109" version="1" timestamp="2016-06-16T13:09:51Z" changeset="40066415" uid="605010" user="Noen" />
	<node id="4246615536" lat="60.3235965" lon="10.7330971" version="1" timestamp="2016-06-16T13:09:51Z" changeset="40066415" uid="605010" user="Noen" />
	<node id="4246615539" lat="60.3236448" lon="10.7334636" version="1" timestamp="2016-06-16T13:09:52Z" changeset="40066415" uid="605010" user="Noen" />
	<node id="4246615540" lat="60.3236639" lon="10.7329766" version="1" timestamp="2016-06-16T13:09:52Z" changeset="40066415" uid="605010" user="Noen" />
	<node id="4246615544" lat="60.3237405" lon="10.7334558" version="1" timestamp="2016-06-16T13:09:52Z" changeset="40066415" uid="605010" user="Noen" />
	<node id="4246615545" lat="60.3237493" lon="10.7329383" version="1" timestamp="2016-06-16T13:09:52Z" changeset="40066415" uid="605010" user="Noen" />
	<node id="4246615547" lat="60.3238109" lon="10.7334296" version="1" timestamp="2016-06-16T13:09:52Z" changeset="40066415" uid="605010" user="Noen" />
	<node id="4246615548" lat="60.3238484" lon="10.7329949" version="1" timestamp="2016-06-16T13:09:52Z" changeset="40066415" uid="605010" user="Noen" />
	<node id="4246615554" lat="60.3239475" lon="10.733531" version="1" timestamp="2016-06-16T13:09:52Z" changeset="40066415" uid="605010" user="Noen" />
	<node id="4246615555" lat="60.3239545" lon="10.7329963" version="1" timestamp="2016-06-16T13:09:52Z" changeset="40066415" uid="605010" user="Noen" />
	<node id="4246615559" lat="60.3240392" lon="10.7335016" version="1" timestamp="2016-06-16T13:09:52Z" changeset="40066415" uid="605010" user="Noen" />
	<node id="4246615560" lat="60.3240396" lon="10.7329794" version="1" timestamp="2016-06-16T13:09:52Z" changeset="40066415" uid="605010" user="Noen" />
	<node id="4246615568" lat="60.3241608" lon="10.7329687" version="1" timestamp="2016-06-16T13:09:52Z" changeset="40066415" uid="605010" user="Noen" />
	<node id="4246615569" lat="60.3241614" lon="10.7334096" version="1" timestamp="2016-06-16T13:09:52Z" changeset="40066415" uid="605010" user="Noen" />
	<node id="4246615578" lat="60.3242922" lon="10.7329842" version="1" timestamp="2016-06-16T13:09:52Z" changeset="40066415" uid="605010" user="Noen" />
	<node id="4246615582" lat="60.324319" lon="10.7333709" version="1" timestamp="2016-06-16T13:09:52Z" changeset="40066415" uid="605010" user="Noen" />
	<node id="4246615587" lat="60.3243714" lon="10.7330954" version="1" timestamp="2016-06-16T13:09:52Z" changeset="40066415" uid="605010" user="Noen" />
	<node id="4246615588" lat="60.3243823" lon="10.7332415" version="1" timestamp="2016-06-16T13:09:52Z" changeset="40066415" uid="605010" user="Noen" />
	<way id="28559541" version="3" timestamp="2021-04-29T16:05:19Z" changeset="103856793" uid="435265" user="Ansgar G Grimsrud">
		<tag k="alt_name" v="Øyskogtjern" />
		<tag k="name" v="Øyskogtjernet" />
		<tag k="natural" v="water" />
		<tag k="ssr:stedsnr" v="249975" />
		<nd ref="313739484" />
		<nd ref="313739487" />
		<nd ref="313739492" />
		<nd ref="313739497" />
		<nd ref="313739499" />
		<nd ref="313739501" />
		<nd ref="313739502" />
		<nd ref="313739503" />
		<nd ref="313739504" />
		<nd ref="313739506" />
		<nd ref="313739507" />
		<nd ref="313739508" />
		<nd ref="313739509" />
		<nd ref="313739511" />
		<nd ref="313739512" />
		<nd ref="313739513" />
		<nd ref="313739515" />
		<nd ref="313739484" />
	</way>
	<way id="303072617" version="2" timestamp="2021-04-29T16:05:19Z" changeset="103856793" uid="435265" user="Ansgar G Grimsrud">
		<tag k="name" v="Rokotjernet" />
		<tag k="natural" v="water" />
		<tag k="ssr:stedsnr" v="92471" />
		<nd ref="3073726515" />
		<nd ref="3073726516" />
		<nd ref="3073726517" />
		<nd ref="3073726521" />
		<nd ref="3073726523" />
		<nd ref="3073726524" />
		<nd ref="3073726527" />
		<nd ref="3073726528" />
		<nd ref="3073726529" />
		<nd ref="3073726526" />
		<nd ref="3073726525" />
		<nd ref="3073726522" />
		<nd ref="3073726520" />
		<nd ref="3073726519" />
		<nd ref="3073726518" />
		<nd ref="3073726514" />
		<nd ref="3073726511" />
		<nd ref="3073726508" />
		<nd ref="3073726506" />
		<nd ref="3073726505" />
		<nd ref="3073726504" />
		<nd ref="3073726502" />
		<nd ref="3073726501" />
		<nd ref="3073726499" />
		<nd ref="3073726498" />
		<nd ref="3073726497" />
		<nd ref="3073726495" />
		<nd ref="3073726494" />
		<nd ref="3073726488" />
		<nd ref="3073726486" />
		<nd ref="3073726487" />
		<nd ref="3073726493" />
		<nd ref="3073726492" />
		<nd ref="3073726491" />
		<nd ref="3073726490" />
		<nd ref="3073726489" />
		<nd ref="3073726485" />
		<nd ref="3073726484" />
		<nd ref="3073726482" />
		<nd ref="3073726481" />
		<nd ref="3073726480" />
		<nd ref="3073726478" />
		<nd ref="3073726477" />
		<nd ref="3073726476" />
		<nd ref="3073726475" />
		<nd ref="3073726474" />
		<nd ref="3073726473" />
		<nd ref="3073726472" />
		<nd ref="3073726471" />
		<nd ref="3073726469" />
		<nd ref="3073726468" />
		<nd ref="3073726467" />
		<nd ref="3073726466" />
		<nd ref="3073726465" />
		<nd ref="3073726464" />
		<nd ref="3073726462" />
		<nd ref="3073726461" />
		<nd ref="3073726460" />
		<nd ref="3073726459" />
		<nd ref="3073726458" />
		<nd ref="3073726456" />
		<nd ref="3073726451" />
		<nd ref="3073726448" />
		<nd ref="3073726445" />
		<nd ref="3073726441" />
		<nd ref="3073726439" />
		<nd ref="3073726436" />
		<nd ref="3073726435" />
		<nd ref="3073726433" />
		<nd ref="3073726434" />
		<nd ref="3073726437" />
		<nd ref="3073726438" />
		<nd ref="3073726440" />
		<nd ref="3073726444" />
		<nd ref="3073726442" />
		<nd ref="3073726443" />
		<nd ref="3073726446" />
		<nd ref="3073726453" />
		<nd ref="3073726457" />
		<nd ref="3073726454" />
		<nd ref="3073726452" />
		<nd ref="3073726450" />
		<nd ref="3073726447" />
		<nd ref="3073726449" />
		<nd ref="3073726455" />
		<nd ref="3073726463" />
		<nd ref="3073726470" />
		<nd ref="3073726479" />
		<nd ref="3073726483" />
		<nd ref="3073726496" />
		<nd ref="3073726500" />
		<nd ref="3073726503" />
		<nd ref="3073726507" />
		<nd ref="3073726509" />
		<nd ref="3073726510" />
		<nd ref="3073726512" />
		<nd ref="3073726513" />
		<nd ref="3073726515" />
	</way>
	<way id="425329154" version="2" timestamp="2021-04-29T17:39:09Z" changeset="103861954" uid="435265" user="Ansgar G Grimsrud">
		<tag k="name" v="Bormarkputtene" />
		<tag k="natural" v="water" />
		<tag k="ssr:stedsnr" v="112591" />
		<nd ref="4246615534" />
		<nd ref="4246615536" />
		<nd ref="4246615540" />
		<nd ref="4246615545" />
		<nd ref="4246615548" />
		<nd ref="4246615555" />
		<nd ref="4246615560" />
		<nd ref="4246615568" />
		<nd ref="4246615578" />
		<nd ref="4246615587" />
		<nd ref="4246615588" />
		<nd ref="4246615582" />
		<nd ref="4246615569" />
		<nd ref="4246615559" />
		<nd ref="4246615554" />
		<nd ref="4246615547" />
		<nd ref="4246615544" />
		<nd ref="4246615539" />
		<nd ref="4246615534" />
	</way>
</osm>
