<?xml version="1.0" encoding="UTF-8"?>
<osm version="0.6" generator="osmapis">
	<node lat="58.93372377773092" lon="7.813781843568427" id="-31902">
		<tag k="alt_name" v="Napestøyl" />
		<tag k="historic" v="shieling" />
		<tag k="name" v="Napestøl" />
		<tag k="place" v="locality" />
		<tag k="ssr:stedsnr" v="644" />
	</node>
	<node lat="58.937322218289985" lon="7.818994439569696" id="-31946">
		<tag k="name" v="Soget" />
		<tag k="natural" v="wetland" />
		<tag k="ssr:stedsnr" v="23186" />
	</node>
	<node lat="58.936652778175386" lon="7.810594446803621" id="-31947">
		<tag k="name" v="Baklidmyri" />
		<tag k="natural" v="wetland" />
		<tag k="ssr:stedsnr" v="23188" />
	</node>
	<node lat="58.86136667044409" lon="7.868466664134782" id="-31979">
		<tag k="name" v="Skarkslåtta" />
		<tag k="natural" v="wetland" />
		<tag k="ssr:stedsnr" v="23500" />
	</node>
	<node lat="58.9854333300986" lon="7.787794440822275" id="-31980">
		<tag k="name" v="Fiskesteinslåtta" />
		<tag k="place" v="locality" />
		<tag k="ssr:stedsnr" v="23885" />
	</node>
	<node lat="58.6570583340281" lon="7.8706055499965935" id="-31996">
		<tag k="name" v="Storemyr" />
		<tag k="natural" v="wetland" />
		<tag k="ssr:stedsnr" v="34911" />
	</node>
	<node lat="59.002880558523934" lon="7.543580561423415" id="-32080">
		<tag k="name" v="Langekre" />
		<tag k="place" v="locality" />
		<tag k="ssr:stedsnr" v="84029" />
	</node>
	<node lat="58.97121666778255" lon="7.499555549736181" id="-32098">
		<tag k="name" v="Fosshommen" />
		<tag k="place" v="locality" />
		<tag k="ssr:stedsnr" v="84188" />
	</node>
	<node lat="58.87943889280495" lon="7.654224999151385" id="-32100">
		<tag k="name" v="Skåmestøylmyran" />
		<tag k="natural" v="wetland" />
		<tag k="ssr:stedsnr" v="84304" />
	</node>
	<node lat="58.887316671159056" lon="7.641675002774563" id="-32107">
		<tag k="name" v="Trandlemyri" />
		<tag k="natural" v="wetland" />
		<tag k="ssr:stedsnr" v="84290" />
	</node>
	<node lat="58.87834722057164" lon="7.771133334976669" id="-32112">
		<tag k="name" v="Pytteslåtta" />
		<tag k="natural" v="wetland" />
		<tag k="ssr:stedsnr" v="84299" />
	</node>
	<node lat="58.71200000292958" lon="7.848736103467439" id="-32178">
		<tag k="name" v="Holmen" />
		<tag k="place" v="locality" />
		<tag k="ssr:stedsnr" v="144017" />
	</node>
	<node lat="58.70898610879733" lon="7.894222229120764" id="-32183">
		<tag k="name" v="Botnan" />
		<tag k="natural" v="wetland" />
		<tag k="ssr:stedsnr" v="144224" />
	</node>
	<node lat="58.70813333325053" lon="7.899761110836503" id="-32184">
		<tag k="name" v="Botnan" />
		<tag k="natural" v="wetland" />
		<tag k="ssr:stedsnr" v="144225" />
	</node>
	<node lat="58.85627222467155" lon="7.687227770486412" id="-32186">
		<tag k="name" v="Kjørgrovslåtton" />
		<tag k="natural" v="wetland" />
		<tag k="ssr:stedsnr" v="144278" />
	</node>
	<node lat="58.87212500366646" lon="7.721750004102221" id="-32195">
		<tag k="name" v="Porsmyr" />
		<tag k="natural" v="wetland" />
		<tag k="ssr:stedsnr" v="144316" />
	</node>
	<node lat="58.72645278066848" lon="7.767286119151023" id="-32200">
		<tag k="name" v="Veresteane" />
		<tag k="natural" v="wetland" />
		<tag k="ssr:stedsnr" v="144331" />
	</node>
	<node lat="58.79490555821078" lon="7.7662250024503585" id="-32202">
		<tag k="name" v="Pyttehagen" />
		<tag k="place" v="locality" />
		<tag k="ssr:stedsnr" v="144362" />
	</node>
	<node lat="58.74156944014779" lon="7.695705558614487" id="-32227">
		<tag k="name" v="Rjupemyr" />
		<tag k="natural" v="wetland" />
		<tag k="ssr:stedsnr" v="155814" />
	</node>
	<node lat="58.96413055419915" lon="7.503513892042787" id="-32282">
		<tag k="name" v="Grønehom" />
		<tag k="place" v="locality" />
		<tag k="ssr:stedsnr" v="266080" />
	</node>
	<node lat="58.814383333477146" lon="7.875766667369572" id="-32283">
		<tag k="name" v="Granholtet" />
		<tag k="place" v="locality" />
		<tag k="ssr:stedsnr" v="266161" />
	</node>
	<node lat="58.74168611451461" lon="7.9030694445226946" id="-32284">
		<tag k="name" v="Longerakshommen" />
		<tag k="place" v="locality" />
		<tag k="ssr:stedsnr" v="266169" />
	</node>
	<node lat="58.98593888601207" lon="7.601055556342054" id="-32285">
		<tag k="name" v="Kåvehagen" />
		<tag k="place" v="locality" />
		<tag k="ssr:stedsnr" v="266171" />
	</node>
	<node lat="58.7324055515084" lon="7.74795554936888" id="-32289">
		<tag k="name" v="Osmyr" />
		<tag k="natural" v="wetland" />
		<tag k="ssr:stedsnr" v="266312" />
	</node>
	<node lat="58.87872222346305" lon="7.734686102594172" id="-32293">
		<tag k="name" v="Kringlemyr" />
		<tag k="natural" v="wetland" />
		<tag k="ssr:stedsnr" v="266274" />
	</node>
	<node lat="58.785955552518864" lon="7.7527805579525815" id="-32296">
		<tag k="name" v="Bommemyr" />
		<tag k="place" v="locality" />
		<tag k="ssr:stedsnr" v="266322" />
	</node>
	<node lat="59.01634722651467" lon="7.545113888746796" id="-32342">
		<tag k="name" v="Kroberget" />
		<tag k="place" v="locality" />
		<tag k="ssr:stedsnr" v="205104" />
	</node>
	<node lat="58.69155832967935" lon="7.906763889901761" id="-32349">
		<tag k="name" v="Hålsan" />
		<tag k="natural" v="wetland" />
		<tag k="ssr:stedsnr" v="205199" />
	</node>
	<node lat="58.70810555807007" lon="7.716755563385182" id="-32375">
		<tag k="name" v="Mjaltehommen" />
		<tag k="place" v="locality" />
		<tag k="ssr:stedsnr" v="216781" />
	</node>
	<node lat="58.75804444776182" lon="7.936086116174535" id="-32377">
		<tag k="name" v="Grimdalslåttane" />
		<tag k="natural" v="wetland" />
		<tag k="ssr:stedsnr" v="216923" />
	</node>
	<node lat="58.89489721982082" lon="7.8955916640468" id="-32378">
		<tag k="name" v="Padeslåtta" />
		<tag k="natural" v="wetland" />
		<tag k="ssr:stedsnr" v="216972" />
	</node>
	<node lat="58.89000000048152" lon="7.949622221403639" id="-32382">
		<tag k="name" v="Mjaltesteinen" />
		<tag k="natural" v="stone" />
		<tag k="ssr:stedsnr" v="216880" />
	</node>
	<node lat="58.99743611476073" lon="7.753366664586807" id="-32441">
		<tag k="name" v="Dei vene slåtton" />
		<tag k="place" v="locality" />
		<tag k="ssr:stedsnr" v="266303" />
	</node>
	<node lat="58.88804999702331" lon="7.667558330125645" id="-32445">
		<tag k="name" v="Vassmyri" />
		<tag k="natural" v="wetland" />
		<tag k="ssr:stedsnr" v="266282" />
	</node>
	<node lat="58.77606666841636" lon="7.761408330939569" id="-32456">
		<tag k="name" v="Stean" />
		<tag k="natural" v="wetland" />
		<tag k="ssr:stedsnr" v="266341" />
	</node>
	<node lat="58.70821389096226" lon="7.829594452269876" id="-32459">
		<tag k="name" v="Holevodd" />
		<tag k="place" v="locality" />
		<tag k="ssr:stedsnr" v="266391" />
	</node>
	<node lat="58.70557500341613" lon="7.8264694442876" id="-32460">
		<tag k="name" v="Harklå" />
		<tag k="place" v="locality" />
		<tag k="ssr:stedsnr" v="266393" />
	</node>
</osm>
