<?xml version="1.0" encoding="UTF-8"?>
<osm version="0.6" generator="osmapis">
	<node lat="58.707117865458116" lon="7.823770816997745" id="-37665">
		<tag k="alt_name" v="Årdal kirke" />
		<tag k="amenity" v="place_of_worship" />
		<tag k="denomination" v="lutheran" />
		<tag k="name" v="Årdal kyrkje" />
		<tag k="religion" v="christian" />
		<tag k="ssr:stedsnr" v="1593" />
	</node>
	<node lat="58.78733247136013" lon="7.773077697224526" id="-37667">
		<tag k="name" v="Mele" />
		<tag k="place" v="locality" />
		<tag k="ssr:stedsnr" v="1780" />
	</node>
	<node lat="58.80665517289791" lon="7.7405145817099426" id="-37754">
		<tag k="name" v="Furestøyl" />
		<tag k="place" v="locality" />
		<tag k="ssr:stedsnr" v="61793" />
	</node>
	<node lat="58.892144447625064" lon="7.312666670765792" id="-37771">
		<tag k="name" v="Lønehommen" />
		<tag k="place" v="locality" />
		<tag k="ssr:stedsnr" v="243154" />
	</node>
	<node lat="58.92107500060118" lon="7.546922214593009" id="-37794">
		<tag k="name" v="Myran" />
		<tag k="place" v="locality" />
		<tag k="ssr:stedsnr" v="243476" />
	</node>
	<node lat="58.834523434031226" lon="7.687324305738816" id="-37798">
		<tag k="name" v="Birkevassbui" />
		<tag k="place" v="locality" />
		<tag k="ssr:stedsnr" v="243514" />
	</node>
	<node lat="58.98011666307631" lon="7.755427775600072" id="-37864">
		<tag k="name" v="Bringa" />
		<tag k="place" v="locality" />
		<tag k="ssr:stedsnr" v="85315" />
	</node>
	<node lat="58.67851944858319" lon="7.903397226579807" id="-37885">
		<tag k="name" v="Steivora" />
		<tag k="place" v="locality" />
		<tag k="ssr:stedsnr" v="94941" />
	</node>
	<node lat="58.93651666833968" lon="7.9674666703623265" id="-37950">
		<tag k="name" v="Krossan" />
		<tag k="place" v="locality" />
		<tag k="ssr:stedsnr" v="144770" />
	</node>
	<node lat="58.78793611232092" lon="7.915800003306656" id="-37976">
		<tag k="name" v="Lunnebu" />
		<tag k="place" v="locality" />
		<tag k="ssr:stedsnr" v="155952" />
	</node>
	<node lat="58.99629958463459" lon="7.581900226596325" id="-37984">
		<tag k="name" v="Bergekvæven" />
		<tag k="place" v="locality" />
		<tag k="ssr:stedsnr" v="182320" />
	</node>
	<node lat="58.93354208992176" lon="7.7414762262437975" id="-37991">
		<tag k="name" v="Åsli" />
		<tag k="place" v="locality" />
		<tag k="ssr:stedsnr" v="182652" />
	</node>
	<node lat="58.9072754314271" lon="7.88856534103503" id="-38001">
		<tag k="name" v="Vøylelii" />
		<tag k="place" v="locality" />
		<tag k="ssr:stedsnr" v="183694" />
	</node>
	<node lat="58.87067421264697" lon="7.893519955855864" id="-38008">
		<tag k="alt_name" v="Kleivstøyl" />
		<tag k="name" v="Kleivstøl" />
		<tag k="place" v="locality" />
		<tag k="ssr:stedsnr" v="183730" />
	</node>
	<node lat="58.952936112391505" lon="7.521836103981255" id="-38017">
		<tag k="name" v="Hestegrept" />
		<tag k="place" v="locality" />
		<tag k="ssr:stedsnr" v="266125" />
	</node>
	<node lat="58.78129167095156" lon="7.760066662293347" id="-38039">
		<tag k="name" v="Austmannsvelta" />
		<tag k="place" v="locality" />
		<tag k="ssr:stedsnr" v="266329" />
	</node>
	<node lat="58.8531333311793" lon="7.739827773345817" id="-38041">
		<tag k="name" v="Klyvi" />
		<tag k="place" v="locality" />
		<tag k="ssr:stedsnr" v="266345" />
	</node>
	<node lat="58.95181666657192" lon="7.684138886951073" id="-38050">
		<tag k="name" v="Låve" />
		<tag k="place" v="locality" />
		<tag k="ssr:stedsnr" v="266469" />
	</node>
	<node lat="58.69181389156111" lon="7.863908337091226" id="-38065">
		<tag k="name" v="Fiskebu" />
		<tag k="place" v="locality" />
		<tag k="ssr:stedsnr" v="205040" />
	</node>
	<node lat="58.880474999250694" lon="7.744577784244076" id="-38073">
		<tag k="name" v="Bjørnskjell" />
		<tag k="place" v="locality" />
		<tag k="ssr:stedsnr" v="205302" />
	</node>
	<node lat="59.01424166528255" lon="7.556094448370332" id="-38085">
		<tag k="name" v="Bronen" />
		<tag k="place" v="locality" />
		<tag k="ssr:stedsnr" v="205117" />
	</node>
	<node lat="58.792233329503006" lon="7.869025005683811" id="-38089">
		<tag k="name" v="Bruledet" />
		<tag k="place" v="locality" />
		<tag k="ssr:stedsnr" v="205148" />
	</node>
	<node lat="58.937327774814214" lon="7.488497224489728" id="-38145">
		<tag k="name" v="Bomse" />
		<tag k="place" v="locality" />
		<tag k="ssr:stedsnr" v="244527" />
	</node>
	<node lat="58.99639946446815" lon="7.769525939558049" id="-38156">
		<tag k="name" v="Kvæven" />
		<tag k="place" v="locality" />
		<tag k="ssr:stedsnr" v="452358" />
	</node>
	<node lat="58.78468888502119" lon="7.737197230046373" id="-38196">
		<tag k="name" v="Flyet" />
		<tag k="place" v="locality" />
		<tag k="ssr:stedsnr" v="266337" />
	</node>
	<node lat="58.85233611016082" lon="7.737572229036449" id="-38285">
		<tag k="name" v="Klyvi" />
		<tag k="place" v="locality" />
		<tag k="ssr:stedsnr" v="326387" />
	</node>
	<node lat="58.98856666535455" lon="7.689294445099043" id="-38426">
		<tag k="name" v="Solli" />
		<tag k="place" v="locality" />
		<tag k="ssr:stedsnr" v="486332" />
	</node>
	<node lat="59.00087221787048" lon="7.591586119032336" id="-38478">
		<tag k="name" v="Ørnekro" />
		<tag k="place" v="locality" />
		<tag k="ssr:stedsnr" v="448008" />
	</node>
	<node lat="58.84309999576932" lon="7.807630560888719" id="-38490">
		<tag k="name" v="Krossen" />
		<tag k="place" v="locality" />
		<tag k="ssr:stedsnr" v="448109" />
	</node>
	<node lat="58.75146110917957" lon="7.983441662613321" id="-38505">
		<tag k="name" v="Tilja" />
		<tag k="place" v="locality" />
		<tag k="ssr:stedsnr" v="448189" />
	</node>
	<node lat="58.93100277546855" lon="7.866308339720299" id="-38542">
		<tag k="name" v="Slåttebu" />
		<tag k="place" v="locality" />
		<tag k="ssr:stedsnr" v="448829" />
	</node>
	<node lat="58.82503333225681" lon="7.989555556822098" id="-38572">
		<tag k="name" v="Barbui" />
		<tag k="place" v="locality" />
		<tag k="ssr:stedsnr" v="459878" />
	</node>
	<node lat="58.69020555308195" lon="7.8362055563199275" id="-38611">
		<tag k="name" v="Stoplestaden" />
		<tag k="place" v="locality" />
		<tag k="ssr:stedsnr" v="508209" />
	</node>
	<node lat="58.898336107150215" lon="7.7578583346493595" id="-38612">
		<tag k="name" v="Suggelætre" />
		<tag k="place" v="locality" />
		<tag k="ssr:stedsnr" v="508257" />
	</node>
	<node lat="58.831874996722235" lon="7.799444440064081" id="-38615">
		<tag k="name" v="Bygland tun" />
		<tag k="ssr:stedsnr" v="508105" />
		<tag k="tourism" v="attraction" />
	</node>
	<node lat="58.69984721974412" lon="7.932569449276569" id="-38618">
		<tag k="name" v="Hunebørhiet" />
		<tag k="place" v="locality" />
		<tag k="ssr:stedsnr" v="508196" />
	</node>
	<node lat="58.92894530847048" lon="7.7724182938685455" id="-38666">
		<tag k="alt_name" v="Lidi" />
		<tag k="name" v="Lia" />
		<tag k="place" v="locality" />
		<tag k="ssr:stedsnr" v="546615" />
	</node>
	<node lat="58.777025000743464" lon="7.803319443402709" id="-38721">
		<tag k="name" v="Smia" />
		<tag k="place" v="locality" />
		<tag k="ssr:stedsnr" v="691100" />
	</node>
	<node lat="58.98659721931928" lon="7.542827776750122" id="-38766">
		<tag k="name" v="Skrøynen" />
		<tag k="place" v="locality" />
		<tag k="ssr:stedsnr" v="568173" />
	</node>
	<node lat="58.79249425864557" lon="7.686555927721292" id="-38804">
		<tag k="name" v="Hukebu" />
		<tag k="place" v="locality" />
		<tag k="ssr:stedsnr" v="573256" />
	</node>
	<node lat="58.75549166518327" lon="7.918011119797332" id="-38809">
		<tag k="name" v="Lauvli" />
		<tag k="place" v="locality" />
		<tag k="ssr:stedsnr" v="579954" />
	</node>
	<node lat="59.030958065546706" lon="7.758848423850319" id="-38845">
		<tag k="name" v="Steisvatn" />
		<tag k="place" v="locality" />
		<tag k="ssr:stedsnr" v="608514" />
	</node>
	<node lat="58.95046944510398" lon="7.687694438140013" id="-38884">
		<tag k="name" v="Ytre Låve" />
		<tag k="place" v="locality" />
		<tag k="ssr:stedsnr" v="629394" />
	</node>
	<node lat="58.91767886902923" lon="7.7382283626789485" id="-38959">
		<tag k="alt_name" v="Sandnes kyrkje" />
		<tag k="amenity" v="place_of_worship" />
		<tag k="denomination" v="lutheran" />
		<tag k="name" v="Sandnes kirke" />
		<tag k="religion" v="christian" />
		<tag k="ssr:stedsnr" v="668703" />
	</node>
	<node lat="58.82698611390953" lon="7.996872223554889" id="-38962">
		<tag k="alt_name" v="Steitjønn" />
		<tag k="name" v="Steitjørn" />
		<tag k="place" v="locality" />
		<tag k="ssr:stedsnr" v="668784" />
	</node>
	<node lat="58.863041666457214" lon="7.8182583363478875" id="-38978">
		<tag k="name" v="Øyestad" />
		<tag k="place" v="locality" />
		<tag k="ssr:stedsnr" v="691028" />
	</node>
	<node lat="58.871500004496085" lon="7.74207222258925" id="-39005">
		<tag k="name" v="Bjørnehiet" />
		<tag k="place" v="locality" />
		<tag k="ssr:stedsnr" v="691301" />
	</node>
	<node lat="58.91969444430391" lon="7.53318333196541" id="-39052">
		<tag k="name" v="Stakkslåtta" />
		<tag k="place" v="locality" />
		<tag k="ssr:stedsnr" v="728469" />
	</node>
	<node lat="58.95595649156983" lon="7.573445331221181" id="-39055">
		<tag k="alt_name" v="Rustfjellstøylen" />
		<tag k="name" v="Rustfjell" />
		<tag k="place" v="locality" />
		<tag k="ssr:stedsnr" v="729310" />
	</node>
	<node lat="59.00294721887111" lon="7.7610333324396565" id="-39105">
		<tag k="name" v="Såti" />
		<tag k="place" v="locality" />
		<tag k="ssr:stedsnr" v="751328" />
	</node>
	<node lat="58.98448888569801" lon="7.739875002292147" id="-39132">
		<tag k="name" v="Sveigen" />
		<tag k="place" v="locality" />
		<tag k="ssr:stedsnr" v="752359" />
	</node>
	<node lat="58.9824333293005" lon="7.720661110739811" id="-39134">
		<tag k="name" v="Kjelde" />
		<tag k="place" v="locality" />
		<tag k="ssr:stedsnr" v="752361" />
	</node>
	<node lat="58.98618055654429" lon="7.725994452497523" id="-39135">
		<tag k="name" v="Storran" />
		<tag k="place" v="locality" />
		<tag k="ssr:stedsnr" v="752364" />
	</node>
	<node lat="59.019841662318875" lon="7.519716674186419" id="-39245">
		<tag k="name" v="Djupedalsglupen" />
		<tag k="place" v="locality" />
		<tag k="ssr:stedsnr" v="812138" />
	</node>
	<node lat="58.74101111346653" lon="7.965436111348784" id="-39356">
		<tag k="name" v="Grimsdalsskorvi" />
		<tag k="place" v="locality" />
		<tag k="ssr:stedsnr" v="933177" />
	</node>
	<node lat="58.67734166476865" lon="7.873697214186221" id="-39507">
		<tag k="name" v="Flæra" />
		<tag k="place" v="locality" />
		<tag k="ssr:stedsnr" v="944905" />
	</node>
	<node lat="58.68582222368868" lon="7.8634166706576645" id="-39525">
		<tag k="name" v="Granen" />
		<tag k="place" v="locality" />
		<tag k="ssr:stedsnr" v="944899" />
	</node>
	<node lat="58.86799221182297" lon="7.627800909828855" id="-39579">
		<tag k="name" v="Lindekroni" />
		<tag k="place" v="locality" />
		<tag k="ssr:stedsnr" v="1418" />
	</node>
	<node lat="58.98823333394508" lon="7.604836110159833" id="-39600">
		<tag k="name" v="Hatten" />
		<tag k="place" v="locality" />
		<tag k="ssr:stedsnr" v="23197" />
	</node>
</osm>
