<?xml version="1.0" encoding="UTF-8"?>
<osm version="0.6" generator="osmapis">
	<node lat="58.78638656371569" lon="7.68926619242959" id="-31895">
		<tag k="alt_name" v="Hukebuvatn" />
		<tag k="name" v="Hukebuvatnet" />
		<tag k="natural" v="water" />
		<tag k="ssr:stedsnr" v="549" />
		<tag k="water" v="lake" />
	</node>
	<node lat="58.716574998407935" lon="7.706186104106858" id="-31897">
		<tag k="alt_name" v="Fisketjønn" />
		<tag k="name" v="Fisketjørni" />
		<tag k="natural" v="water" />
		<tag k="ssr:stedsnr" v="250" />
	</node>
	<node lat="58.938148709074795" lon="7.867999812744564" id="-31903">
		<tag k="name" v="Jotjørnin" />
		<tag k="natural" v="water" />
		<tag k="ssr:stedsnr" v="648" />
		<tag k="water" v="lake" />
	</node>
	<node lat="58.819345226943085" lon="7.986470342710517" id="-31909">
		<tag k="alt_name" v="Hedderstjønn" />
		<tag k="name" v="Hedderstjørn" />
		<tag k="natural" v="water" />
		<tag k="ssr:stedsnr" v="761" />
	</node>
	<node lat="58.748050001123346" lon="7.80751667300864" id="-31910">
		<tag k="name" v="Rossøy" />
		<tag k="place" v="islet" />
		<tag k="ssr:stedsnr" v="912" />
	</node>
	<node lat="59.0013583303487" lon="7.576055557682605" id="-31912">
		<tag k="name" v="Lislestøyltjørni" />
		<tag k="natural" v="water" />
		<tag k="ssr:stedsnr" v="1314" />
	</node>
	<node lat="58.95450080605805" lon="7.547243978383259" id="-31915">
		<tag k="name" v="Lauvtjønn" />
		<tag k="natural" v="water" />
		<tag k="ssr:stedsnr" v="1288" />
	</node>
	<node lat="59.01113889018115" lon="7.461897214038571" id="-31916">
		<tag k="name" v="Fagervatnet" />
		<tag k="natural" v="water" />
		<tag k="ssr:stedsnr" v="1295" />
	</node>
	<node lat="58.96705277410182" lon="7.880066662241333" id="-31919">
		<tag k="name" v="Rossetjørn" />
		<tag k="natural" v="water" />
		<tag k="ssr:stedsnr" v="1625" />
	</node>
	<node lat="58.64955000143212" lon="7.820733332099985" id="-31922">
		<tag k="name" v="Øygardsbekken" />
		<tag k="ssr:stedsnr" v="1517" />
		<tag k="waterway" v="stream" />
	</node>
	<node lat="58.872330839990525" lon="7.927740121316932" id="-31924">
		<tag k="name" v="Krokvatn" />
		<tag k="natural" v="water" />
		<tag k="ssr:stedsnr" v="1729" />
	</node>
	<node lat="58.80849444304663" lon="7.944386114509112" id="-31930">
		<tag k="name" v="Sandsvatn" />
		<tag k="natural" v="water" />
		<tag k="ssr:stedsnr" v="1805" />
		<tag k="water" v="lake" />
	</node>
	<node lat="58.77299793027241" lon="7.816854631974151" id="-31933">
		<tag k="name" v="Fånefjorden" />
		<tag k="natural" v="water" />
		<tag k="ssr:stedsnr" v="1837" />
	</node>
	<node lat="59.017447226330255" lon="7.556005547609598" id="-31934">
		<tag k="name" v="Heknefossen" />
		<tag k="natural" v="waterfall" />
		<tag k="ssr:stedsnr" v="2317" />
	</node>
	<node lat="58.84579444721586" lon="7.8054000011784925" id="-31940">
		<tag k="name" v="Søtebekk" />
		<tag k="ssr:stedsnr" v="23111" />
		<tag k="waterway" v="stream" />
	</node>
	<node lat="59.01950555350175" lon="7.497491661929423" id="-31941">
		<tag k="name" v="Lusetjørn" />
		<tag k="natural" v="water" />
		<tag k="ssr:stedsnr" v="23115" />
	</node>
	<node lat="58.96087777724085" lon="7.5935222154135396" id="-31944">
		<tag k="name" v="Lemamobekken" />
		<tag k="ssr:stedsnr" v="23140" />
		<tag k="waterway" v="stream" />
	</node>
	<node lat="58.8377916665464" lon="7.867350000714395" id="-31945">
		<tag k="name" v="Den fule tjørni" />
		<tag k="natural" v="water" />
		<tag k="ssr:stedsnr" v="23147" />
	</node>
	<node lat="58.98421944604582" lon="7.55103055909957" id="-31952">
		<tag k="name" v="Småstrondi" />
		<tag k="natural" v="beach" />
		<tag k="ssr:stedsnr" v="23094" />
	</node>
	<node lat="58.70004166523671" lon="7.911936105345566" id="-31953">
		<tag k="name" v="Bytingsbekken" />
		<tag k="ssr:stedsnr" v="23248" />
		<tag k="waterway" v="stream" />
	</node>
	<node lat="58.86363333289178" lon="7.854811113462576" id="-31961">
		<tag k="name" v="Loppetjønn" />
		<tag k="natural" v="water" />
		<tag k="ssr:stedsnr" v="23507" />
	</node>
	<node lat="58.96736666775132" lon="7.637188892654373" id="-31962">
		<tag k="name" v="Grasdalstjønnin" />
		<tag k="natural" v="water" />
		<tag k="ssr:stedsnr" v="23508" />
		<tag k="water" v="lake" />
	</node>
	<node lat="58.870547218722905" lon="7.919541663359397" id="-31963">
		<tag k="name" v="Uførstjørn" />
		<tag k="natural" v="water" />
		<tag k="ssr:stedsnr" v="23509" />
	</node>
	<node lat="58.96565277650056" lon="7.676180548357106" id="-31965">
		<tag k="name" v="Krokevja" />
		<tag k="natural" v="bay" />
		<tag k="ssr:stedsnr" v="23537" />
	</node>
	<node lat="59.00448333436903" lon="7.61456388210554" id="-31970">
		<tag k="name" v="Lonin" />
		<tag k="natural" v="water" />
		<tag k="ssr:stedsnr" v="23433" />
		<tag k="water" v="lake" />
	</node>
	<node lat="58.85751944760552" lon="7.917250003253569" id="-31977">
		<tag k="name" v="Øyan" />
		<tag k="place" v="island" />
		<tag k="ssr:stedsnr" v="23491" />
	</node>
	<node lat="59.02082500137392" lon="7.814627786309987" id="-31983">
		<tag k="name" v="Tyskebekken" />
		<tag k="ssr:stedsnr" v="27474" />
		<tag k="waterway" v="stream" />
	</node>
	<node lat="59.06735555777339" lon="7.8352499924657035" id="-31985">
		<tag k="alt_name" v="Torlidalstjønn" />
		<tag k="name" v="Torlidaltjørn" />
		<tag k="natural" v="water" />
		<tag k="ssr:stedsnr" v="28069" />
	</node>
	<node lat="59.0607527750552" lon="7.760408330738154" id="-31986">
		<tag k="name" v="Øvre Gunhildstjønn" />
		<tag k="natural" v="water" />
		<tag k="ssr:stedsnr" v="34714" />
	</node>
	<node lat="58.67941111347386" lon="7.903419452279548" id="-31990">
		<tag k="name" v="Steivortjønn" />
		<tag k="natural" v="water" />
		<tag k="ssr:stedsnr" v="34905" />
	</node>
	<node lat="58.73088610844566" lon="7.662608329310096" id="-31999">
		<tag k="alt_name" v="Tikevik" />
		<tag k="name" v="Tikerviki" />
		<tag k="natural" v="bay" />
		<tag k="ssr:stedsnr" v="60011" />
	</node>
	<node lat="58.87233055240766" lon="7.81941110912679" id="-32001">
		<tag k="name" v="Nordåni" />
		<tag k="ssr:stedsnr" v="61201" />
		<tag k="waterway" v="river" />
	</node>
	<node lat="58.94125000101462" lon="7.981033324766148" id="-32008">
		<tag k="name" v="Furebuvatn" />
		<tag k="natural" v="water" />
		<tag k="ssr:stedsnr" v="61628" />
	</node>
	<node lat="58.733633336294844" lon="7.754058331701833" id="-32013">
		<tag k="alt_name" v="Tjørnstøylvatn" />
		<tag k="name" v="Tjørnstølvatnet" />
		<tag k="natural" v="water" />
		<tag k="ssr:stedsnr" v="61911" />
	</node>
	<node lat="58.724841667724625" lon="7.881744449684732" id="-32014">
		<tag k="name" v="Tortveittjørni" />
		<tag k="natural" v="water" />
		<tag k="ssr:stedsnr" v="61918" />
	</node>
	<node lat="58.946302778773145" lon="7.31416111167311" id="-32017">
		<tag k="name" v="Austevatnet" />
		<tag k="natural" v="water" />
		<tag k="ssr:stedsnr" v="62228" />
	</node>
	<node lat="59.00960277937848" lon="7.5941222250733835" id="-32018">
		<tag k="name" v="Holmetjørn" />
		<tag k="natural" v="water" />
		<tag k="ssr:stedsnr" v="62269" />
	</node>
	<node lat="59.00374238089409" lon="7.392312609037586" id="-32020">
		<tag k="name" v="Kråktjørnin" />
		<tag k="natural" v="water" />
		<tag k="ssr:stedsnr" v="62273" />
		<tag k="water" v="lake" />
	</node>
	<node lat="58.89228055922395" lon="7.969824999072444" id="-32022">
		<tag k="name" v="Turtlivatn" />
		<tag k="natural" v="water" />
		<tag k="ssr:stedsnr" v="62706" />
		<tag k="water" v="lake" />
	</node>
	<node lat="58.877905557868225" lon="7.79008056176973" id="-32024">
		<tag k="alt_name" v="Gunhildstjørn" />
		<tag k="name" v="Gunhildtjørn" />
		<tag k="natural" v="water" />
		<tag k="ssr:stedsnr" v="62719" />
	</node>
	<node lat="58.88626666561411" lon="7.626477769234936" id="-32025">
		<tag k="alt_name" v="Skåvatnet, l" />
		<tag k="name" v="Lisle Skåvatn" />
		<tag k="natural" v="water" />
		<tag k="ssr:stedsnr" v="243444" />
	</node>
	<node lat="58.732236111683065" lon="7.67324999991592" id="-32026">
		<tag k="name" v="Skeiskilen" />
		<tag k="natural" v="bay" />
		<tag k="ssr:stedsnr" v="243017" />
	</node>
	<node lat="58.86348332950616" lon="7.257319437386119" id="-32031">
		<tag k="name" v="Kilen" />
		<tag k="natural" v="bay" />
		<tag k="ssr:stedsnr" v="243131" />
	</node>
	<node lat="58.98015555985383" lon="7.519627777144883" id="-32032">
		<tag k="name" v="Kvernåni" />
		<tag k="ssr:stedsnr" v="243202" />
		<tag k="waterway" v="stream" />
	</node>
	<node lat="58.96911195086782" lon="7.6375375231958715" id="-32033">
		<tag k="name" v="Vrongevjetjønnin" />
		<tag k="natural" v="water" />
		<tag k="ssr:stedsnr" v="243249" />
		<tag k="water" v="lake" />
	</node>
	<node lat="58.961138888571185" lon="7.479291667668597" id="-32035">
		<tag k="name" v="Tjønndalstjønni" />
		<tag k="natural" v="water" />
		<tag k="ssr:stedsnr" v="243260" />
	</node>
	<node lat="58.98688611528201" lon="7.651419443228429" id="-32040">
		<tag k="name" v="Heisevja" />
		<tag k="natural" v="bay" />
		<tag k="ssr:stedsnr" v="243295" />
	</node>
	<node lat="58.98549444595033" lon="7.467499994950139" id="-32041">
		<tag k="name" v="Øyetjønnin" />
		<tag k="natural" v="water" />
		<tag k="ssr:stedsnr" v="243313" />
		<tag k="water" v="lake" />
	</node>
	<node lat="58.826983331438285" lon="7.073644437654359" id="-32043">
		<tag k="name" v="Rukkåni" />
		<tag k="ssr:stedsnr" v="243364" />
		<tag k="waterway" v="stream" />
	</node>
	<node lat="58.85141666279947" lon="7.677038889005552" id="-32044">
		<tag k="name" v="Skåmåne" />
		<tag k="ssr:stedsnr" v="243399" />
		<tag k="waterway" v="river" />
	</node>
	<node lat="58.91310277847306" lon="7.409055555179271" id="-32048">
		<tag k="name" v="Heddebutjønni" />
		<tag k="natural" v="water" />
		<tag k="ssr:stedsnr" v="243467" />
	</node>
	<node lat="58.87194999885196" lon="7.369819439404669" id="-32049">
		<tag k="name" v="Langsvassåni" />
		<tag k="ssr:stedsnr" v="243433" />
		<tag k="waterway" v="stream" />
	</node>
	<node lat="58.65451111205631" lon="7.888700004119221" id="-32057">
		<tag k="alt_name" v="Mørkevatn" />
		<tag k="name" v="Mørkevatnet" />
		<tag k="natural" v="water" />
		<tag k="ssr:stedsnr" v="243521" />
		<tag k="water" v="lake" />
	</node>
	<node lat="58.69475833127894" lon="7.874375006834606" id="-32059">
		<tag k="alt_name" v="Ubergtjørni, vestre" />
		<tag k="name" v="Vestre Ubergtjørn" />
		<tag k="natural" v="water" />
		<tag k="ssr:stedsnr" v="243577" />
	</node>
	<node lat="58.817211113340285" lon="7.956208331131289" id="-32061">
		<tag k="alt_name" v="Drittjønn" />
		<tag k="name" v="Drittjørn" />
		<tag k="natural" v="water" />
		<tag k="ssr:stedsnr" v="243763" />
	</node>
	<node lat="58.82640000022016" lon="8.000183326942654" id="-32062">
		<tag k="alt_name" v="Steitjønn" />
		<tag k="name" v="Steitjørn" />
		<tag k="natural" v="water" />
		<tag k="ssr:stedsnr" v="243765" />
	</node>
	<node lat="58.82337643414733" lon="7.935497086866806" id="-32063">
		<tag k="alt_name" v="Fossetjønnin" />
		<tag k="name" v="Fosstjørnin" />
		<tag k="natural" v="water" />
		<tag k="ssr:stedsnr" v="243766" />
		<tag k="water" v="lake" />
	</node>
	<node lat="58.94916262409291" lon="7.4445760464943325" id="-32065">
		<tag k="name" v="Flåtetjønnin" />
		<tag k="natural" v="water" />
		<tag k="ssr:stedsnr" v="244251" />
		<tag k="water" v="lake" />
	</node>
	<node lat="59.030675000596965" lon="7.6456055527809985" id="-32067">
		<tag k="alt_name" v="Birkenesåne" />
		<tag k="name" v="Birkenesåni" />
		<tag k="ssr:stedsnr" v="244269" />
		<tag k="waterway" v="stream" />
	</node>
	<node lat="58.86230305823432" lon="7.567780905271478" id="-32069">
		<tag k="name" v="Stemtjønnin" />
		<tag k="natural" v="water" />
		<tag k="ssr:stedsnr" v="244419" />
		<tag k="water" v="lake" />
	</node>
	<node lat="59.04128055357388" lon="7.853191658055742" id="-32071">
		<tag k="alt_name" v="Store Nutetjørn;Nutetjønn" />
		<tag k="name" v="Storenuttjørn" />
		<tag k="natural" v="water" />
		<tag k="ssr:stedsnr" v="244501" />
	</node>
	<node lat="58.9688305527316" lon="7.952133325453321" id="-32074">
		<tag k="name" v="Libergstjørn" />
		<tag k="natural" v="water" />
		<tag k="ssr:stedsnr" v="244649" />
	</node>
	<node lat="58.94992500378095" lon="7.782761111402344" id="-32077">
		<tag k="name" v="Hovassåni" />
		<tag k="ssr:stedsnr" v="244674" />
		<tag k="waterway" v="river" />
	</node>
	<node lat="58.783166459658986" lon="7.893573581159801" id="-32079">
		<tag k="alt_name" v="Litjønn" />
		<tag k="name" v="Litjørn" />
		<tag k="natural" v="water" />
		<tag k="ssr:stedsnr" v="244850" />
	</node>
	<node lat="58.97116666937225" lon="7.555602777338629" id="-32088">
		<tag k="name" v="Storbubekken" />
		<tag k="ssr:stedsnr" v="84094" />
		<tag k="waterway" v="stream" />
	</node>
	<node lat="58.974747217753176" lon="7.575488888196675" id="-32089">
		<tag k="name" v="Andenes" />
		<tag k="natural" v="cape" />
		<tag k="ssr:stedsnr" v="84099" />
	</node>
	<node lat="58.77308889259562" lon="7.883133325293149" id="-32090">
		<tag k="name" v="Builtjørn" />
		<tag k="natural" v="water" />
		<tag k="ssr:stedsnr" v="84214" />
	</node>
	<node lat="58.75099721801152" lon="7.815133326486157" id="-32092">
		<tag k="name" v="Sikkomodden" />
		<tag k="natural" v="cape" />
		<tag k="ssr:stedsnr" v="84110" />
	</node>
	<node lat="58.811197225387765" lon="7.79629721746452" id="-32095">
		<tag k="name" v="Bytingsbekken" />
		<tag k="ssr:stedsnr" v="84117" />
		<tag k="waterway" v="stream" />
	</node>
	<node lat="58.93529166758516" lon="7.808352773380872" id="-32097">
		<tag k="name" v="Raudbekk" />
		<tag k="ssr:stedsnr" v="84186" />
		<tag k="waterway" v="stream" />
	</node>
	<node lat="58.846244440639325" lon="7.996372229753602" id="-32102">
		<tag k="name" v="Pramtritjørn" />
		<tag k="natural" v="water" />
		<tag k="ssr:stedsnr" v="84502" />
	</node>
	<node lat="58.878883336157834" lon="7.7418111172959065" id="-32110">
		<tag k="name" v="Bekkemellom" />
		<tag k="ssr:stedsnr" v="84295" />
		<tag k="waterway" v="stream" />
	</node>
	<node lat="58.941413888142975" lon="7.868369446358771" id="-32121">
		<tag k="name" v="Heimre Jotjørn" />
		<tag k="natural" v="water" />
		<tag k="ssr:stedsnr" v="84883" />
	</node>
	<node lat="58.853330553084724" lon="7.597474996819726" id="-32124">
		<tag k="name" v="Nedre Kyrauga" />
		<tag k="natural" v="water" />
		<tag k="ssr:stedsnr" v="88210" />
	</node>
	<node lat="59.02572777515096" lon="7.836441663125266" id="-32126">
		<tag k="name" v="Tyskebukti" />
		<tag k="natural" v="bay" />
		<tag k="ssr:stedsnr" v="94802" />
	</node>
	<node lat="59.00117222171183" lon="7.913844441983663" id="-32127">
		<tag k="name" v="Lisle Kjyddingtjønn" />
		<tag k="natural" v="water" />
		<tag k="ssr:stedsnr" v="94806" />
	</node>
	<node lat="58.97091666221258" lon="7.91420555167127" id="-32131">
		<tag k="name" v="Knipefossen" />
		<tag k="natural" v="waterfall" />
		<tag k="ssr:stedsnr" v="94819" />
	</node>
	<node lat="58.97716666483368" lon="7.866536103778637" id="-32132">
		<tag k="name" v="Sinderodden" />
		<tag k="natural" v="cape" />
		<tag k="ssr:stedsnr" v="94822" />
	</node>
	<node lat="59.00832777360525" lon="7.468075007769087" id="-32133">
		<tag k="name" v="Skarketjønn" />
		<tag k="natural" v="water" />
		<tag k="ssr:stedsnr" v="94832" />
	</node>
	<node lat="58.6975916650505" lon="7.721694443844602" id="-32134">
		<tag k="name" v="Iglepotten" />
		<tag k="natural" v="water" />
		<tag k="ssr:stedsnr" v="94860" />
		<tag k="water" v="pond" />
	</node>
	<node lat="59.05189444453248" lon="7.813825004670692" id="-32135">
		<tag k="name" v="Fiskeodden" />
		<tag k="natural" v="cape" />
		<tag k="ssr:stedsnr" v="94760" />
	</node>
	<node lat="58.894033336253614" lon="7.956994437756945" id="-32137">
		<tag k="name" v="Kattetjønn" />
		<tag k="natural" v="water" />
		<tag k="ssr:stedsnr" v="94916" />
	</node>
	<node lat="58.87751944656951" lon="7.952761118053407" id="-32139">
		<tag k="name" v="Beileitjønnin" />
		<tag k="natural" v="water" />
		<tag k="ssr:stedsnr" v="94926" />
		<tag k="water" v="lake" />
	</node>
	<node lat="58.68570833183146" lon="7.849422217810195" id="-32140">
		<tag k="name" v="Trosketjønn" />
		<tag k="natural" v="water" />
		<tag k="ssr:stedsnr" v="94928" />
	</node>
	<node lat="58.681347218695436" lon="7.921422217743793" id="-32142">
		<tag k="name" v="Svartetjønn" />
		<tag k="natural" v="water" />
		<tag k="ssr:stedsnr" v="94940" />
	</node>
	<node lat="58.66283333174266" lon="7.8980805555398925" id="-32145">
		<tag k="name" v="Fritstjønn" />
		<tag k="natural" v="water" />
		<tag k="ssr:stedsnr" v="94949" />
	</node>
	<node lat="58.90263611005324" lon="7.9123111097908465" id="-32146">
		<tag k="name" v="Stykktjønn" />
		<tag k="natural" v="water" />
		<tag k="ssr:stedsnr" v="95981" />
	</node>
	<node lat="58.7266055577488" lon="7.659455563397832" id="-32148">
		<tag k="name" v="Gyvatn" />
		<tag k="natural" v="water" />
		<tag k="ssr:stedsnr" v="121018" />
		<tag k="water" v="lake" />
	</node>
	<node lat="58.88601389292231" lon="7.317602777275565" id="-32149">
		<tag k="name" v="Øyarvatnet" />
		<tag k="natural" v="water" />
		<tag k="old_name" v="Øyavatn" />
		<tag k="ssr:stedsnr" v="121173" />
		<tag k="water" v="lake" />
	</node>
	<node lat="58.85621944816184" lon="7.2265805623057515" id="-32153">
		<tag k="name" v="Olavsvasstjørnin" />
		<tag k="natural" v="water" />
		<tag k="ssr:stedsnr" v="122118" />
		<tag k="water" v="lake" />
	</node>
	<node lat="58.965305553852055" lon="7.580438880403737" id="-32159">
		<tag k="name" v="Kvernåni" />
		<tag k="ssr:stedsnr" v="122221" />
		<tag k="waterway" v="stream" />
	</node>
	<node lat="59.006241669972304" lon="7.6609999982203645" id="-32163">
		<tag k="name" v="Nyestøylåni" />
		<tag k="ssr:stedsnr" v="122325" />
		<tag k="waterway" v="stream" />
	</node>
	<node lat="58.971944560456606" lon="7.452475033400882" id="-32164">
		<tag k="name" v="Oksetjønn" />
		<tag k="natural" v="water" />
		<tag k="ssr:stedsnr" v="122326" />
	</node>
	<node lat="58.66152500169245" lon="7.836705556045254" id="-32168">
		<tag k="alt_name" v="Njubekk" />
		<tag k="name" v="Njubekken" />
		<tag k="ssr:stedsnr" v="122590" />
		<tag k="waterway" v="stream" />
	</node>
	<node lat="59.078821953830676" lon="7.838524481796408" id="-32172">
		<tag k="name" v="Mjåvatn" />
		<tag k="natural" v="water" />
		<tag k="ssr:stedsnr" v="123502" />
		<tag k="water" v="lake" />
	</node>
	<node lat="58.835180555445774" lon="7.981602776075776" id="-32173">
		<tag k="name" v="Prestvatn" />
		<tag k="natural" v="water" />
		<tag k="ssr:stedsnr" v="304780" />
	</node>
	<node lat="58.69372777798489" lon="7.940905557326626" id="-32182">
		<tag k="name" v="Langetjørnbekken" />
		<tag k="ssr:stedsnr" v="144212" />
		<tag k="waterway" v="stream" />
	</node>
	<node lat="58.833472226089775" lon="7.628358331017946" id="-32188">
		<tag k="alt_name" v="Lognetjønn nedre" />
		<tag k="name" v="Nedre Lognetjønn" />
		<tag k="natural" v="water" />
		<tag k="ssr:stedsnr" v="144292" />
	</node>
	<node lat="58.90086111373023" lon="7.651013887234541" id="-32189">
		<tag k="name" v="Trikanttjønni" />
		<tag k="natural" v="water" />
		<tag k="ssr:stedsnr" v="144298" />
	</node>
	<node lat="58.95476944810513" lon="7.670377773428353" id="-32192">
		<tag k="name" v="Urenes" />
		<tag k="natural" v="cape" />
		<tag k="ssr:stedsnr" v="144404" />
	</node>
	<node lat="58.7367111095039" lon="7.7403916623749" id="-32201">
		<tag k="name" v="Sandviki" />
		<tag k="natural" v="bay" />
		<tag k="ssr:stedsnr" v="144345" />
	</node>
	<node lat="58.77774722180232" lon="7.7330055473556945" id="-32204">
		<tag k="name" v="Heimheibekken" />
		<tag k="ssr:stedsnr" v="144378" />
		<tag k="waterway" v="stream" />
	</node>
	<node lat="58.85704444075143" lon="7.732983330562561" id="-32206">
		<tag k="name" v="Røyodden" />
		<tag k="natural" v="cape" />
		<tag k="ssr:stedsnr" v="144382" />
	</node>
	<node lat="58.685794445020676" lon="7.791502785261716" id="-32207">
		<tag k="name" v="Koddøy" />
		<tag k="place" v="islet" />
		<tag k="ssr:stedsnr" v="144506" />
	</node>
	<node lat="58.685894442987646" lon="7.752819448756026" id="-32211">
		<tag k="name" v="Nykken" />
		<tag k="natural" v="water" />
		<tag k="ssr:stedsnr" v="144491" />
		<tag k="water" v="pond" />
	</node>
	<node lat="58.687169446845" lon="7.800347227905877" id="-32212">
		<tag k="name" v="Skredderstoi" />
		<tag k="natural" v="cape" />
		<tag k="ssr:stedsnr" v="144492" />
	</node>
	<node lat="58.65390555813163" lon="7.810477776250035" id="-32219">
		<tag k="name" v="Surtefossen" />
		<tag k="natural" v="waterfall" />
		<tag k="ssr:stedsnr" v="153457" />
	</node>
	<node lat="59.02056111147156" lon="7.781119445787785" id="-32222">
		<tag k="name" v="Ormartjønn" />
		<tag k="natural" v="water" />
		<tag k="ssr:stedsnr" v="155716" />
	</node>
	<node lat="59.00768333434583" lon="7.477549994370516" id="-32225">
		<tag k="name" v="Øyetjønn" />
		<tag k="natural" v="water" />
		<tag k="ssr:stedsnr" v="155806" />
	</node>
	<node lat="58.71850555146708" lon="7.6868638900858315" id="-32226">
		<tag k="name" v="Sloeøyni" />
		<tag k="place" v="island" />
		<tag k="ssr:stedsnr" v="155807" />
	</node>
	<node lat="58.755208334636414" lon="7.697705554361444" id="-32229">
		<tag k="name" v="Steintjønn" />
		<tag k="natural" v="water" />
		<tag k="ssr:stedsnr" v="155822" />
	</node>
	<node lat="58.85313888887176" lon="7.59784444725844" id="-32230">
		<tag k="name" v="Kyrauga nedre" />
		<tag k="natural" v="water" />
		<tag k="ssr:stedsnr" v="155801" />
	</node>
	<node lat="58.68283333730784" lon="7.939341674968021" id="-32232">
		<tag k="name" v="Hisvassøyri" />
		<tag k="natural" v="cape" />
		<tag k="ssr:stedsnr" v="155904" />
	</node>
	<node lat="58.806249997923196" lon="7.93639167332519" id="-32233">
		<tag k="name" v="Langeliøyi" />
		<tag k="old_name" v="Langaeliøyi" />
		<tag k="place" v="islet" />
		<tag k="ssr:stedsnr" v="155948" />
	</node>
	<node lat="58.68846944632696" lon="7.890177777874841" id="-32235">
		<tag k="name" v="Ubergstjønn austre" />
		<tag k="natural" v="water" />
		<tag k="ssr:stedsnr" v="155900" />
	</node>
	<node lat="58.94697777659234" lon="7.687786112893719" id="-32237">
		<tag k="name" v="Osestryken" />
		<tag k="natural" v="strait" />
		<tag k="ssr:stedsnr" v="326045" />
	</node>
	<node lat="58.86229444709211" lon="7.329863890698784" id="-32239">
		<tag k="name" v="Steigilsvatnet" />
		<tag k="natural" v="water" />
		<tag k="ssr:stedsnr" v="182114" />
		<tag k="water" v="lake" />
	</node>
	<node lat="58.98353888857795" lon="7.397805551955122" id="-32240">
		<tag k="name" v="Sigurdstjønn" />
		<tag k="natural" v="water" />
		<tag k="ssr:stedsnr" v="182312" />
	</node>
	<node lat="58.99876029684682" lon="7.647369874073753" id="-32241">
		<tag k="alt_name" v="Heisvatnet" />
		<tag k="name" v="Heisvatn" />
		<tag k="natural" v="water" />
		<tag k="ssr:stedsnr" v="182316" />
		<tag k="water" v="lake" />
	</node>
	<node lat="58.896783336222796" lon="7.34608332914135" id="-32243">
		<tag k="name" v="Flysgyvatnet" />
		<tag k="natural" v="water" />
		<tag k="ssr:stedsnr" v="182452" />
		<tag k="water" v="lake" />
	</node>
	<node lat="58.94390000254049" lon="7.951166673773812" id="-32248">
		<tag k="alt_name" v="Bjøruvshyl" />
		<tag k="name" v="Bjoruvshyl" />
		<tag k="natural" v="water" />
		<tag k="ssr:stedsnr" v="182651" />
	</node>
	<node lat="59.03462777452629" lon="7.883263895809742" id="-32254">
		<tag k="name" v="Grøssæ" />
		<tag k="natural" v="water" />
		<tag k="ssr:stedsnr" v="183442" />
		<tag k="water" v="lake" />
	</node>
	<node lat="59.050614036571574" lon="7.712295466440124" id="-32258">
		<tag k="alt_name" v="Åsvasstjørni" />
		<tag k="loc_name" v="Åsvasstjønni" />
		<tag k="name" v="Åsvasstjørnin" />
		<tag k="natural" v="water" />
		<tag k="ssr:stedsnr" v="183689" />
	</node>
	<node lat="58.804788893001216" lon="7.954902782452455" id="-32260">
		<tag k="name" v="Langeliodden" />
		<tag k="natural" v="cape" />
		<tag k="ssr:stedsnr" v="183807" />
	</node>
	<node lat="58.88378055123581" lon="7.870122223894364" id="-32263">
		<tag k="alt_name" v="Tjørnstøyltjørn" />
		<tag k="name" v="Tjørnstøltjørn" />
		<tag k="natural" v="water" />
		<tag k="ssr:stedsnr" v="183713" />
	</node>
	<node lat="58.88115833101198" lon="7.914505557866892" id="-32264">
		<tag k="name" v="Fiskebekken" />
		<tag k="ssr:stedsnr" v="183723" />
		<tag k="waterway" v="stream" />
	</node>
	<node lat="58.87636110841843" lon="7.7791222268968045" id="-32265">
		<tag k="alt_name" v="Sandnestjørn" />
		<tag k="name" v="Sandnestjørnin" />
		<tag k="natural" v="water" />
		<tag k="ssr:stedsnr" v="183726" />
		<tag k="water" v="lake" />
	</node>
	<node lat="58.864230556885644" lon="7.804691671117369" id="-32269">
		<tag k="name" v="Skridvarfossen" />
		<tag k="natural" v="waterfall" />
		<tag k="ssr:stedsnr" v="266024" />
	</node>
	<node lat="58.99899999835621" lon="7.538797216562003" id="-32270">
		<tag k="name" v="Nesjane" />
		<tag k="natural" v="cape" />
		<tag k="ssr:stedsnr" v="266026" />
	</node>
	<node lat="58.913352781404384" lon="7.716744449592626" id="-32271">
		<tag k="name" v="Lundarhalsen" />
		<tag k="natural" v="cape" />
		<tag k="ssr:stedsnr" v="266031" />
	</node>
	<node lat="58.93101111515621" lon="7.630405547359935" id="-32276">
		<tag k="name" v="Glypseåni" />
		<tag k="ssr:stedsnr" v="266050" />
		<tag k="waterway" v="river" />
	</node>
	<node lat="58.961297226190844" lon="7.505211110051567" id="-32281">
		<tag k="name" v="Logni" />
		<tag k="ssr:stedsnr" v="266076" />
		<tag k="waterway" v="river" />
	</node>
	<node lat="58.753338887869205" lon="7.890980552905384" id="-32286">
		<tag k="name" v="Lislevatn" />
		<tag k="natural" v="water" />
		<tag k="ssr:stedsnr" v="266174" />
		<tag k="water" v="lake" />
	</node>
	<node lat="58.737525002291775" lon="7.835463895881421" id="-32288">
		<tag k="name" v="Tyribekk" />
		<tag k="ssr:stedsnr" v="266224" />
		<tag k="waterway" v="stream" />
	</node>
	<node lat="58.79896944652158" lon="7.753941674558057" id="-32290">
		<tag k="name" v="Åstjørn" />
		<tag k="natural" v="water" />
		<tag k="ssr:stedsnr" v="266317" />
	</node>
	<node lat="58.894316666337126" lon="7.656124997024525" id="-32294">
		<tag k="name" v="Lopstogtjønni" />
		<tag k="natural" v="water" />
		<tag k="ssr:stedsnr" v="266275" />
	</node>
	<node lat="58.66314166718187" lon="7.817294449391154" id="-32303">
		<tag k="name" v="Ytre Kilen" />
		<tag k="natural" v="bay" />
		<tag k="ssr:stedsnr" v="266363" />
	</node>
	<node lat="58.907044440988834" lon="7.799966668148108" id="-32315">
		<tag k="name" v="Haugåodden" />
		<tag k="natural" v="cape" />
		<tag k="ssr:stedsnr" v="266860" />
	</node>
	<node lat="58.96953055569741" lon="7.80365000249005" id="-32317">
		<tag k="name" v="Djupesund" />
		<tag k="natural" v="strait" />
		<tag k="ssr:stedsnr" v="266866" />
	</node>
	<node lat="58.94014444151003" lon="7.843186104342312" id="-32318">
		<tag k="name" v="Kjeksæstrondi" />
		<tag k="natural" v="beach" />
		<tag k="ssr:stedsnr" v="266868" />
	</node>
	<node lat="58.99327777371468" lon="7.537183337976584" id="-32322">
		<tag k="name" v="Lisleøyna" />
		<tag k="place" v="islet" />
		<tag k="ssr:stedsnr" v="205008" />
	</node>
	<node lat="58.69778333216162" lon="7.8530388834137215" id="-32324">
		<tag k="name" v="Tykklibekken" />
		<tag k="ssr:stedsnr" v="205043" />
		<tag k="waterway" v="stream" />
	</node>
	<node lat="58.71054999574409" lon="7.876652769886183" id="-32325">
		<tag k="alt_name" v="Grasfjelltjørn" />
		<tag k="name" v="Grasfjelltjørni" />
		<tag k="natural" v="water" />
		<tag k="ssr:stedsnr" v="205048" />
	</node>
	<node lat="58.86614444813702" lon="7.727102783455851" id="-32337">
		<tag k="name" v="Bjørgi" />
		<tag k="natural" v="beach" />
		<tag k="ssr:stedsnr" v="205338" />
	</node>
	<node lat="58.72102500082985" lon="7.820686105640189" id="-32341">
		<tag k="name" v="Vikhepte" />
		<tag k="natural" v="cape" />
		<tag k="ssr:stedsnr" v="205353" />
	</node>
	<node lat="58.69470000216406" lon="7.925894445042685" id="-32350">
		<tag k="name" v="Kabrettjørni" />
		<tag k="natural" v="water" />
		<tag k="ssr:stedsnr" v="205200" />
	</node>
	<node lat="58.84877499935281" lon="7.705633337393052" id="-32352">
		<tag k="name" v="Trongedalstjønn" />
		<tag k="natural" v="water" />
		<tag k="ssr:stedsnr" v="205293" />
	</node>
	<node lat="58.845038890519994" lon="7.762180550702355" id="-32355">
		<tag k="name" v="Fosskarøya" />
		<tag k="place" v="island" />
		<tag k="ssr:stedsnr" v="205408" />
	</node>
	<node lat="58.69805277990782" lon="7.751008340949468" id="-32359">
		<tag k="name" v="Stemmtjørn" />
		<tag k="natural" v="water" />
		<tag k="ssr:stedsnr" v="205415" />
	</node>
	<node lat="59.00316389206137" lon="7.805561117754431" id="-32370">
		<tag k="name" v="Austad Hundsdalstjørnin" />
		<tag k="natural" v="water" />
		<tag k="ssr:stedsnr" v="205889" />
		<tag k="water" v="lake" />
	</node>
	<node lat="59.0423851322923" lon="7.7883813142256635" id="-32372">
		<tag k="name" v="Grasdalstjønnin" />
		<tag k="natural" v="water" />
		<tag k="ssr:stedsnr" v="216679" />
		<tag k="water" v="lake" />
	</node>
	<node lat="59.03237222247253" lon="7.79119443654684" id="-32374">
		<tag k="name" v="Torkjellskvævtjønni" />
		<tag k="natural" v="water" />
		<tag k="ssr:stedsnr" v="216705" />
	</node>
	<node lat="58.89719714633032" lon="7.891114091878657" id="-32379">
		<tag k="name" v="Lisle Stivle" />
		<tag k="natural" v="water" />
		<tag k="ssr:stedsnr" v="216974" />
	</node>
	<node lat="58.831338892522865" lon="7.986313889629541" id="-32383">
		<tag k="name" v="Sterketjønn" />
		<tag k="natural" v="water" />
		<tag k="ssr:stedsnr" v="216883" />
	</node>
	<node lat="58.89061944655143" lon="7.994755555332287" id="-32384">
		<tag k="name" v="Turtlibekken" />
		<tag k="ssr:stedsnr" v="270352" />
		<tag k="waterway" v="stream" />
	</node>
	<node lat="58.863357909184415" lon="7.982972898923222" id="-32386">
		<tag k="name" v="Småtjønnin" />
		<tag k="natural" v="water" />
		<tag k="ssr:stedsnr" v="270359" />
		<tag k="water" v="lake" />
	</node>
	<node lat="58.732658330448935" lon="7.645033338861705" id="-32388">
		<tag k="name" v="Gyvatn" />
		<tag k="natural" v="water" />
		<tag k="ssr:stedsnr" v="225393" />
		<tag k="water" v="lake" />
	</node>
	<node lat="58.95013333274422" lon="7.875880562614801" id="-32394">
		<tag k="name" v="Grunnevatni" />
		<tag k="natural" v="water" />
		<tag k="ssr:stedsnr" v="243651" />
		<tag k="water" v="lake" />
	</node>
	<node lat="58.66526667091876" lon="7.857305555925594" id="-32396">
		<tag k="alt_name" v="Øyetjønn" />
		<tag k="name" v="Øytjørni" />
		<tag k="natural" v="water" />
		<tag k="ssr:stedsnr" v="243535" />
	</node>
	<node lat="59.00192777391381" lon="7.432308333598991" id="-32402">
		<tag k="alt_name" v="Grjobudalstjønni" />
		<tag k="name" v="Grjotbudalstjørni" />
		<tag k="natural" v="water" />
		<tag k="ssr:stedsnr" v="244304" />
	</node>
	<node lat="59.051747223100456" lon="7.74862499196001" id="-32404">
		<tag k="alt_name" v="Krokevatni" />
		<tag k="name" v="Krokvatni" />
		<tag k="natural" v="water" />
		<tag k="ssr:stedsnr" v="244487" />
		<tag k="water" v="lake" />
	</node>
	<node lat="58.87520278200578" lon="7.913458326845905" id="-32408">
		<tag k="name" v="Holetjørn" />
		<tag k="natural" v="water" />
		<tag k="ssr:stedsnr" v="244728" />
	</node>
	<node lat="58.87249166532014" lon="7.524466671696416" id="-32415">
		<tag k="name" v="Stormbrottjønni" />
		<tag k="natural" v="water" />
		<tag k="ssr:stedsnr" v="452426" />
	</node>
	<node lat="58.97948333315443" lon="7.585047225266004" id="-32427">
		<tag k="name" v="Brunevja" />
		<tag k="natural" v="bay" />
		<tag k="ssr:stedsnr" v="266100" />
	</node>
	<node lat="58.7731111109081" lon="7.848316672707236" id="-32428">
		<tag k="name" v="Fånebekken" />
		<tag k="ssr:stedsnr" v="266202" />
		<tag k="waterway" v="stream" />
	</node>
	<node lat="58.8291166650062" lon="7.778872223083096" id="-32430">
		<tag k="name" v="Lundeskjær" />
		<tag k="place" v="islet" />
		<tag k="ssr:stedsnr" v="266112" />
	</node>
	<node lat="58.777269446362034" lon="7.863719444284971" id="-32434">
		<tag k="name" v="Nedre Fånetjørn" />
		<tag k="natural" v="water" />
		<tag k="ssr:stedsnr" v="266140" />
	</node>
	<node lat="58.7786305529263" lon="7.874480560190452" id="-32435">
		<tag k="name" v="Øvre Fånetjørn" />
		<tag k="natural" v="water" />
		<tag k="ssr:stedsnr" v="266141" />
	</node>
	<node lat="58.7929312082905" lon="7.858152823248442" id="-32437">
		<tag k="name" v="Kolbladtjørni" />
		<tag k="natural" v="water" />
		<tag k="ssr:stedsnr" v="266149" />
	</node>
	<node lat="58.737011113478715" lon="7.983136112065427" id="-32438">
		<tag k="name" v="Lovotten" />
		<tag k="natural" v="bay" />
		<tag k="ssr:stedsnr" v="266181" />
	</node>
	<node lat="58.7625444466201" lon="7.88208055563586" id="-32439">
		<tag k="name" v="Skjingleitjørn" />
		<tag k="natural" v="water" />
		<tag k="ssr:stedsnr" v="266195" />
	</node>
	<node lat="58.6923527735121" lon="7.9312472229608755" id="-32440">
		<tag k="name" v="Hunebørtjørni" />
		<tag k="natural" v="water" />
		<tag k="ssr:stedsnr" v="266198" />
	</node>
	<node lat="59.027450000366514" lon="7.76488610839255" id="-32449">
		<tag k="name" v="Snjoskartjørni" />
		<tag k="natural" v="water" />
		<tag k="ssr:stedsnr" v="266404" />
	</node>
	<node lat="58.85780277720954" lon="7.575227778688833" id="-32464">
		<tag k="name" v="Stemtjønn" />
		<tag k="natural" v="water" />
		<tag k="ssr:stedsnr" v="458841" />
	</node>
	<node lat="58.72934999921127" lon="7.683116666075475" id="-32465">
		<tag k="name" v="Kotetjønn" />
		<tag k="natural" v="water" />
		<tag k="ssr:stedsnr" v="458846" />
	</node>
	<node lat="58.74617222425585" lon="7.665922227375832" id="-32466">
		<tag k="name" v="Sveigsbekken" />
		<tag k="ssr:stedsnr" v="458851" />
		<tag k="waterway" v="stream" />
	</node>
	<node lat="58.75038055445419" lon="7.69386666687211" id="-32468">
		<tag k="name" v="Slettheitjønn" />
		<tag k="natural" v="water" />
		<tag k="ssr:stedsnr" v="458857" />
	</node>
	<node lat="59.06607499929756" lon="7.811919437660211" id="-32469">
		<tag k="name" v="Leivsstøyltjønni" />
		<tag k="natural" v="water" />
		<tag k="ssr:stedsnr" v="459695" />
	</node>
	<node lat="59.032183333658125" lon="7.822422227726354" id="-32474">
		<tag k="name" v="Tverråni" />
		<tag k="ssr:stedsnr" v="459730" />
		<tag k="waterway" v="stream" />
	</node>
	<node lat="58.982663889422476" lon="7.8839555507326216" id="-32476">
		<tag k="name" v="Vardnesodden" />
		<tag k="natural" v="cape" />
		<tag k="ssr:stedsnr" v="276822" />
	</node>
	<node lat="58.68246944671055" lon="7.9574972198725" id="-32481">
		<tag k="name" v="Gluggvardetjønn" />
		<tag k="natural" v="water" />
		<tag k="ssr:stedsnr" v="276904" />
	</node>
	<node lat="58.70079722407749" lon="7.953827770387357" id="-32482">
		<tag k="name" v="Sigrids Langetjønn" />
		<tag k="natural" v="water" />
		<tag k="ssr:stedsnr" v="276906" />
	</node>
	<node lat="58.7880777745625" lon="7.958216670086564" id="-32484">
		<tag k="name" v="Nedre Vissje" />
		<tag k="natural" v="water" />
		<tag k="ssr:stedsnr" v="276916" />
	</node>
</osm>
