<?xml version="1.0" encoding="UTF-8"?>
<osm version="0.6" generator="osmapis">
	<node lat="58.976483334869265" lon="7.67583333434795" id="-61152">
		<tag k="name" v="Heistad" />
		<tag k="place" v="farm" />
		<tag k="ssr:stedsnr" v="297" />
	</node>
	<node lat="58.88940105036871" lon="7.383932902268435" id="-61154">
		<tag k="name" v="Trogsvassbui" />
		<tag k="place" v="locality" />
		<tag k="ssr:stedsnr" v="465" />
	</node>
	<node lat="58.93351332014668" lon="7.924847328047891" id="-61158">
		<tag k="alt_name" v="Gjuvasstøyl" />
		<tag k="historic" v="shieling" />
		<tag k="name" v="Gjuvasstølen" />
		<tag k="place" v="isolated_dwelling" />
		<tag k="ssr:stedsnr" v="654" />
	</node>
	<node lat="58.905266667353956" lon="7.813069450752373" id="-61160">
		<tag k="historic" v="shieling" />
		<tag k="name" v="Strondi" />
		<tag k="place" v="isolated_dwelling" />
		<tag k="ssr:stedsnr" v="700" />
	</node>
	<node lat="58.756116665194696" lon="7.729666663988264" id="-61161">
		<tag k="name" v="Lii" />
		<tag k="place" v="isolated_dwelling" />
		<tag k="ssr:stedsnr" v="815" />
	</node>
	<node lat="58.673390794295756" lon="7.808473591130905" id="-61163">
		<tag k="name" v="Revsnes" />
		<tag k="place" v="farm" />
		<tag k="ssr:stedsnr" v="595" />
	</node>
	<node lat="58.85740555882095" lon="7.881833332834557" id="-61164">
		<tag k="alt_name" v="Furestøyl" />
		<tag k="historic" v="shieling" />
		<tag k="name" v="Furestøl" />
		<tag k="place" v="isolated_dwelling" />
		<tag k="ssr:stedsnr" v="751" />
	</node>
	<node lat="58.96291944597876" lon="7.664891658073419" id="-61171">
		<tag k="name" v="Dalen" />
		<tag k="place" v="farm" />
		<tag k="ssr:stedsnr" v="1287" />
	</node>
	<node lat="58.860080552655155" lon="7.6447888819453995" id="-61176">
		<tag k="name" v="Haugland" />
		<tag k="place" v="isolated_dwelling" />
		<tag k="ssr:stedsnr" v="1410" />
	</node>
	<node lat="58.79012777601263" lon="7.89935278294037" id="-61183">
		<tag k="name" v="Solbu" />
		<tag k="place" v="isolated_dwelling" />
		<tag k="ssr:stedsnr" v="1784" />
	</node>
	<node lat="58.80052777834471" lon="7.821105558876312" id="-61184">
		<tag k="name" v="Tveit" />
		<tag k="place" v="farm" />
		<tag k="ssr:stedsnr" v="1793" />
	</node>
	<node lat="58.90091535947674" lon="7.7388415503429595" id="-61189">
		<tag k="alt_name" v="Gamle Vikeli" />
		<tag k="name" v="Gamle Vikli" />
		<tag k="place" v="locality" />
		<tag k="ssr:stedsnr" v="1687" />
	</node>
	<node lat="58.721383331169996" lon="7.8612833272301845" id="-61193">
		<tag k="historic" v="shieling" />
		<tag k="name" v="Ålslått" />
		<tag k="place" v="isolated_dwelling" />
		<tag k="ssr:stedsnr" v="22004" />
	</node>
	<node lat="58.74962778002546" lon="7.848294439738224" id="-61204">
		<tag k="name" v="Innistog" />
		<tag k="place" v="farm" />
		<tag k="ssr:stedsnr" v="23280" />
	</node>
	<node lat="58.7850722256575" lon="7.762986109290177" id="-61209">
		<tag k="name" v="Lunden" />
		<tag k="place" v="locality" />
		<tag k="ssr:stedsnr" v="23401" />
	</node>
	<node lat="58.98332777809727" lon="7.601161109682899" id="-61215">
		<tag k="name" v="Nordre Sordal" />
		<tag k="place" v="farm" />
		<tag k="ssr:stedsnr" v="23181" />
	</node>
	<node lat="58.92228055723309" lon="7.742344445203132" id="-61228">
		<tag k="name" v="Åland" />
		<tag k="place" v="farm" />
		<tag k="ssr:stedsnr" v="23334" />
	</node>
	<node lat="58.84772777546186" lon="7.9467638909138705" id="-61238">
		<tag k="historic" v="shieling" />
		<tag k="name" v="Øvre Stutehommen" />
		<tag k="place" v="isolated_dwelling" />
		<tag k="ssr:stedsnr" v="23543" />
	</node>
	<node lat="58.939030554052756" lon="7.88809721470051" id="-61245">
		<tag k="historic" v="shieling" />
		<tag k="name" v="Grunnetjørn" />
		<tag k="place" v="isolated_dwelling" />
		<tag k="ssr:stedsnr" v="23833" />
	</node>
	<node lat="58.92996388941659" lon="7.832519447957678" id="-61246">
		<tag k="historic" v="shieling" />
		<tag k="name" v="Øvre Kaldås" />
		<tag k="place" v="isolated_dwelling" />
		<tag k="ssr:stedsnr" v="23837" />
	</node>
	<node lat="58.94664444719315" lon="7.9469861126072985" id="-61248">
		<tag k="historic" v="shieling" />
		<tag k="name" v="Rosevallmonen" />
		<tag k="place" v="isolated_dwelling" />
		<tag k="ssr:stedsnr" v="27368" />
	</node>
	<node lat="58.84305555890219" lon="7.826938896718234" id="-61249">
		<tag k="name" v="Øvre Lii" />
		<tag k="place" v="farm" />
		<tag k="ssr:stedsnr" v="27392" />
	</node>
	<node lat="58.97416111404854" lon="7.707944450576944" id="-61267">
		<tag k="alt_name" v="Freimedalen" />
		<tag k="historic" v="shieling" />
		<tag k="name" v="Freimdalen" />
		<tag k="place" v="isolated_dwelling" />
		<tag k="ssr:stedsnr" v="61278" />
	</node>
	<node lat="58.967452775679945" lon="7.508555556388529" id="-61268">
		<tag k="alt_name" v="Vonarosstøylen" />
		<tag k="historic" v="shieling" />
		<tag k="name" v="Vonaros" />
		<tag k="place" v="isolated_dwelling" />
		<tag k="ssr:stedsnr" v="61281" />
	</node>
	<node lat="58.886665459850725" lon="7.658039429009593" id="-61273">
		<tag k="alt_name" v="Ormeholt" />
		<tag k="name" v="Ormeholtet" />
		<tag k="place" v="locality" />
		<tag k="ssr:stedsnr" v="61430" />
	</node>
	<node lat="58.974527777773815" lon="7.502449994490916" id="-61274">
		<tag k="name" v="Snik" />
		<tag k="place" v="locality" />
		<tag k="ssr:stedsnr" v="61303" />
	</node>
	<node lat="58.97848888899391" lon="7.864058337245145" id="-61293">
		<tag k="historic" v="shieling" />
		<tag k="name" v="Jarnverk" />
		<tag k="place" v="isolated_dwelling" />
		<tag k="ssr:stedsnr" v="62632" />
	</node>
	<node lat="58.87225833556165" lon="7.807894438585107" id="-61298">
		<tag k="historic" v="shieling" />
		<tag k="name" v="Nesestøylane" />
		<tag k="place" v="isolated_dwelling" />
		<tag k="ssr:stedsnr" v="84038" />
	</node>
	<node lat="58.726583333804186" lon="7.7250750036618046" id="-61323">
		<tag k="name" v="Ratøygard" />
		<tag k="place" v="locality" />
		<tag k="ssr:stedsnr" v="84313" />
	</node>
	<node lat="58.850416662959226" lon="7.969391667141386" id="-61330">
		<tag k="name" v="Eksæhytta" />
		<tag k="place" v="isolated_dwelling" />
		<tag k="ssr:stedsnr" v="84503" />
	</node>
	<node lat="58.99933333506331" lon="7.925750006097662" id="-61344">
		<tag k="historic" v="shieling" />
		<tag k="name" v="Gamlestøyl" />
		<tag k="place" v="isolated_dwelling" />
		<tag k="ssr:stedsnr" v="94809" />
	</node>
	<node lat="59.04141944565869" lon="7.821997218394898" id="-61347">
		<tag k="name" v="Jeddevasshytta" />
		<tag k="place" v="isolated_dwelling" />
		<tag k="ssr:stedsnr" v="94758" />
	</node>
	<node lat="58.73865277898941" lon="7.837441662196658" id="-61365">
		<tag k="name" v="Longeraksstrandi hyttefelt" />
		<tag k="place" v="neighbourhood" />
		<tag k="ssr:stedsnr" v="237570" />
	</node>
	<node lat="58.8535944416411" lon="7.827536118681831" id="-61374">
		<tag k="name" v="Såghus" />
		<tag k="place" v="farm" />
		<tag k="ssr:stedsnr" v="121732" />
	</node>
	<node lat="58.85759166696129" lon="7.266633335246931" id="-61376">
		<tag k="name" v="Olavshovd" />
		<tag k="old_name" v="Olavshøvd" />
		<tag k="place" v="locality" />
		<tag k="ssr:stedsnr" v="122119" />
	</node>
	<node lat="58.916505556305765" lon="7.305886107627159" id="-61380">
		<tag k="fixme" v="consider tourism=alpine_hut or tourism=chalet" />
		<tag k="name" v="Gaukhei" />
		<tag k="old_name" v="Gaukhei Th" />
		<tag k="ssr:stedsnr" v="122212" />
		<tag k="tourism" v="wilderness_hut" />
	</node>
	<node lat="58.95377778157687" lon="7.527844451274332" id="-61384">
		<tag k="historic" v="shieling" />
		<tag k="name" v="Svåletjønnstøylane" />
		<tag k="place" v="isolated_dwelling" />
		<tag k="ssr:stedsnr" v="122270" />
	</node>
	<node lat="58.98918055550176" lon="7.5380055562390105" id="-61387">
		<tag k="name" v="Langeid" />
		<tag k="place" v="hamlet" />
		<tag k="ssr:stedsnr" v="122315" />
	</node>
	<node lat="58.70095555605619" lon="7.729200005274921" id="-61391">
		<tag k="name" v="Kråkehommen" />
		<tag k="place" v="isolated_dwelling" />
		<tag k="ssr:stedsnr" v="122567" />
	</node>
	<node lat="58.68197777377587" lon="7.781569437133942" id="-61393">
		<tag k="name" v="Horverak" />
		<tag k="place" v="farm" />
		<tag k="ssr:stedsnr" v="122619" />
	</node>
	<node lat="58.91481111385232" lon="7.76156111017155" id="-61395">
		<tag k="name" v="Fossli" />
		<tag k="place" v="farm" />
		<tag k="ssr:stedsnr" v="122662" />
	</node>
	<node lat="59.01235833420003" lon="7.518055549611321" id="-61413">
		<tag k="historic" v="shieling" />
		<tag k="name" v="Skarenstøyl" />
		<tag k="place" v="isolated_dwelling" />
		<tag k="ssr:stedsnr" v="144110" />
	</node>
	<node lat="58.873649384950525" lon="7.705869740328735" id="-61442">
		<tag k="alt_name" v="Gamelstog;Skåmedal" />
		<tag k="name" v="Skåmedal - Gamlestog" />
		<tag k="place" v="farm" />
		<tag k="ssr:stedsnr" v="144326" />
	</node>
	<node lat="58.79537777641507" lon="7.79399167344432" id="-61470">
		<tag k="name" v="Hegni" />
		<tag k="place" v="locality" />
		<tag k="ssr:stedsnr" v="145093" />
	</node>
	<node lat="58.793313891281805" lon="7.789844445581693" id="-61471">
		<tag k="name" v="Rindeberg" />
		<tag k="place" v="farm" />
		<tag k="ssr:stedsnr" v="145097" />
	</node>
	<node lat="59.030049997640255" lon="7.716527778476479" id="-61473">
		<tag k="historic" v="shieling" />
		<tag k="name" v="Sandvasstøylen" />
		<tag k="place" v="isolated_dwelling" />
		<tag k="ssr:stedsnr" v="145407" />
	</node>
	<node lat="58.98101944608056" lon="7.446744442137947" id="-61474">
		<tag k="historic" v="shieling" />
		<tag k="name" v="Uhomsstøylen" />
		<tag k="place" v="isolated_dwelling" />
		<tag k="ssr:stedsnr" v="149210" />
	</node>
	<node lat="58.96616388686439" lon="7.678330548345736" id="-61479">
		<tag k="name" v="Nordgarden" />
		<tag k="place" v="farm" />
		<tag k="ssr:stedsnr" v="243258" />
	</node>
	<node lat="58.95417499687664" lon="7.413199993986515" id="-61481">
		<tag k="historic" v="shieling" />
		<tag k="name" v="Fjøddestøylen" />
		<tag k="place" v="isolated_dwelling" />
		<tag k="ssr:stedsnr" v="243265" />
	</node>
	<node lat="58.98455555952673" lon="7.601574999953671" id="-61484">
		<tag k="name" v="Sordal" />
		<tag k="place" v="hamlet" />
		<tag k="ssr:stedsnr" v="243290" />
	</node>
	<node lat="58.92911666926855" lon="7.661488887161088" id="-61487">
		<tag k="historic" v="shieling" />
		<tag k="name" v="Huset" />
		<tag k="place" v="isolated_dwelling" />
		<tag k="ssr:stedsnr" v="243478" />
	</node>
	<node lat="58.9238751912962" lon="7.365770433302912" id="-61488">
		<tag k="name" v="Langvasskilen" />
		<tag k="place" v="locality" />
		<tag k="ssr:stedsnr" v="243481" />
	</node>
	<node lat="58.94218888898031" lon="7.774916671200929" id="-61524">
		<tag k="name" v="Krokan" />
		<tag k="place" v="farm" />
		<tag k="ssr:stedsnr" v="243646" />
	</node>
	<node lat="58.74784722349593" lon="7.786244436662229" id="-61525">
		<tag k="name" v="Apledokk" />
		<tag k="place" v="isolated_dwelling" />
		<tag k="ssr:stedsnr" v="243895" />
	</node>
	<node lat="59.0024277812613" lon="7.9315611042674865" id="-61531">
		<tag k="historic" v="shieling" />
		<tag k="name" v="Rekedalsstøylen" />
		<tag k="old_name" v="Rekedalsstølen" />
		<tag k="place" v="isolated_dwelling" />
		<tag k="ssr:stedsnr" v="244034" />
	</node>
	<node lat="58.96707777807542" lon="7.8733055611233205" id="-61535">
		<tag k="alt_name" v="Rossetjørnstøyl" />
		<tag k="historic" v="shieling" />
		<tag k="name" v="Rossetjørnstøl" />
		<tag k="place" v="isolated_dwelling" />
		<tag k="ssr:stedsnr" v="244656" />
	</node>
	<node lat="59.05405277721267" lon="7.801888891395852" id="-61537">
		<tag k="historic" v="shieling" />
		<tag k="name" v="Teushommen" />
		<tag k="place" v="isolated_dwelling" />
		<tag k="ssr:stedsnr" v="244472" />
	</node>
	<node lat="58.69935555639866" lon="7.835705562817564" id="-61541">
		<tag k="name" v="Åsen" />
		<tag k="place" v="farm" />
		<tag k="ssr:stedsnr" v="244614" />
	</node>
	<node lat="58.708602774016704" lon="7.854200000328735" id="-61542">
		<tag k="name" v="Hovstad" />
		<tag k="place" v="farm" />
		<tag k="ssr:stedsnr" v="244622" />
	</node>
	<node lat="58.8907583301512" lon="7.729255562732037" id="-61545">
		<tag k="alt_name" v="Vodden" />
		<tag k="name" v="Vollen" />
		<tag k="place" v="farm" />
		<tag k="ssr:stedsnr" v="244726" />
	</node>
	<node lat="58.91815833113397" lon="7.754047223474288" id="-61546">
		<tag k="name" v="Segberg" />
		<tag k="place" v="farm" />
		<tag k="ssr:stedsnr" v="161419" />
	</node>
	<node lat="58.8786946004178" lon="7.751064597517145" id="-61548">
		<tag k="alt_name" v="Myklestøyl" />
		<tag k="historic" v="shieling" />
		<tag k="name" v="Myklestøl" />
		<tag k="place" v="isolated_dwelling" />
		<tag k="ssr:stedsnr" v="244730" />
	</node>
	<node lat="58.98453964256346" lon="7.695735304589356" id="-61564">
		<tag k="name" v="Mjåsund" />
		<tag k="place" v="locality" />
		<tag k="ssr:stedsnr" v="182296" />
	</node>
	<node lat="58.9156638863188" lon="7.668711116044888" id="-61568">
		<tag k="historic" v="shieling" />
		<tag k="name" v="Sundstøyl" />
		<tag k="place" v="isolated_dwelling" />
		<tag k="ssr:stedsnr" v="182471" />
	</node>
	<node lat="58.908236114034864" lon="7.387555549366856" id="-61569">
		<tag k="name" v="Strandelega" />
		<tag k="place" v="isolated_dwelling" />
		<tag k="ssr:stedsnr" v="182472" />
	</node>
	<node lat="58.92460555676638" lon="7.742277775212121" id="-61574">
		<tag k="name" v="Kåsi" />
		<tag k="place" v="farm" />
		<tag k="ssr:stedsnr" v="182662" />
	</node>
	<node lat="58.76252221940777" lon="7.719211115957056" id="-61575">
		<tag k="name" v="Nyøygard" />
		<tag k="place" v="locality" />
		<tag k="ssr:stedsnr" v="182805" />
	</node>
	<node lat="58.93298611195415" lon="7.47740278369933" id="-61581">
		<tag k="historic" v="shieling" />
		<tag k="name" v="Hegestøyl" />
		<tag k="place" v="isolated_dwelling" />
		<tag k="ssr:stedsnr" v="183444" />
	</node>
	<node lat="58.994529516208274" lon="7.8829006402379465" id="-61583">
		<tag k="alt_name" v="Topsæstøylen" />
		<tag k="name" v="Topsælii" />
		<tag k="place" v="locality" />
		<tag k="ssr:stedsnr" v="183587" />
	</node>
	<node lat="58.89211944795061" lon="7.7298416746300065" id="-61587">
		<tag k="name" v="Nørdstegard" />
		<tag k="place" v="farm" />
		<tag k="ssr:stedsnr" v="183687" />
	</node>
	<node lat="58.770711107949396" lon="7.767558335606426" id="-61591">
		<tag k="historic" v="shieling" />
		<tag k="name" v="Skjemmingtveit" />
		<tag k="place" v="isolated_dwelling" />
		<tag k="ssr:stedsnr" v="183836" />
	</node>
	<node lat="59.00497222426273" lon="7.5047111075241215" id="-61598">
		<tag k="historic" v="shieling" />
		<tag k="name" v="Lislestøyl" />
		<tag k="place" v="isolated_dwelling" />
		<tag k="ssr:stedsnr" v="205021" />
	</node>
	<node lat="58.87211263535013" lon="7.747058834917388" id="-61609">
		<tag k="name" v="Myhola" />
		<tag k="place" v="locality" />
		<tag k="ssr:stedsnr" v="205318" />
	</node>
	<node lat="58.77216111326019" lon="7.872711107670261" id="-61619">
		<tag k="name" v="Nordheihytta" />
		<tag k="place" v="isolated_dwelling" />
		<tag k="ssr:stedsnr" v="205207" />
	</node>
	<node lat="58.75411110790595" lon="7.851386113147996" id="-61623">
		<tag k="name" v="Holte" />
		<tag k="place" v="farm" />
		<tag k="ssr:stedsnr" v="205268" />
	</node>
	<node lat="58.75562499761772" lon="7.853677776184688" id="-61624">
		<tag k="name" v="Bruflot" />
		<tag k="place" v="isolated_dwelling" />
		<tag k="ssr:stedsnr" v="205269" />
	</node>
	<node lat="58.85837777344521" lon="7.8628333341801175" id="-61632">
		<tag k="historic" v="shieling" />
		<tag k="name" v="Løtveitstøylen" />
		<tag k="place" v="isolated_dwelling" />
		<tag k="ssr:stedsnr" v="205488" />
	</node>
	<node lat="58.79440555868378" lon="7.818947227198186" id="-61637">
		<tag k="name" v="Lauvdal" />
		<tag k="place" v="quarter" />
		<tag k="ssr:stedsnr" v="206113" />
	</node>
	<node lat="59.02036388815956" lon="7.71025556256006" id="-61643">
		<tag k="name" v="Fiskeløysbui" />
		<tag k="place" v="locality" />
		<tag k="ssr:stedsnr" v="216698" />
	</node>
	<node lat="58.915452777240944" lon="7.5099722213030145" id="-61659">
		<tag k="historic" v="shieling" />
		<tag k="name" v="Saurbu" />
		<tag k="place" v="isolated_dwelling" />
		<tag k="ssr:stedsnr" v="243472" />
	</node>
	<node lat="58.94585555151915" lon="7.856086111837893" id="-61677">
		<tag k="historic" v="shieling" />
		<tag k="name" v="Frydenlund" />
		<tag k="place" v="isolated_dwelling" />
		<tag k="ssr:stedsnr" v="447844" />
	</node>
	<node lat="58.853975001296455" lon="7.799575006769926" id="-61688">
		<tag k="historic" v="shieling" />
		<tag k="name" v="Sletteskor" />
		<tag k="place" v="isolated_dwelling" />
		<tag k="ssr:stedsnr" v="448126" />
	</node>
	<node lat="58.90750555246945" lon="7.733547226984239" id="-61692">
		<tag k="name" v="Lislevik" />
		<tag k="place" v="locality" />
		<tag k="ssr:stedsnr" v="448324" />
	</node>
	<node lat="58.75060277750328" lon="7.854725003417362" id="-61708">
		<tag k="name" v="Vollen" />
		<tag k="place" v="farm" />
		<tag k="ssr:stedsnr" v="448247" />
	</node>
	<node lat="58.745875001683245" lon="7.883469444086931" id="-61709">
		<tag k="historic" v="shieling" />
		<tag k="name" v="Longebu" />
		<tag k="place" v="isolated_dwelling" />
		<tag k="ssr:stedsnr" v="448249" />
	</node>
	<node lat="58.71450277481706" lon="7.861952782326407" id="-61711">
		<tag k="historic" v="shieling" />
		<tag k="name" v="Steinkleiv" />
		<tag k="place" v="isolated_dwelling" />
		<tag k="ssr:stedsnr" v="266013" />
	</node>
	<node lat="58.84216944610633" lon="7.740711104178895" id="-61714">
		<tag k="historic" v="shieling" />
		<tag k="name" v="Nystøyl" />
		<tag k="place" v="isolated_dwelling" />
		<tag k="ssr:stedsnr" v="448269" />
	</node>
	<node lat="58.89381666323191" lon="7.733225001334414" id="-61731">
		<tag k="name" v="Odden" />
		<tag k="place" v="locality" />
		<tag k="ssr:stedsnr" v="266253" />
	</node>
	<node lat="59.00699999655682" lon="7.772236104558448" id="-61744">
		<tag k="name" v="Klingenberghytta" />
		<tag k="place" v="isolated_dwelling" />
		<tag k="ssr:stedsnr" v="266305" />
	</node>
	<node lat="58.98250555951701" lon="7.799133336486215" id="-61772">
		<tag k="historic" v="shieling" />
		<tag k="name" v="Båse" />
		<tag k="place" v="isolated_dwelling" />
		<tag k="ssr:stedsnr" v="266863" />
	</node>
	<node lat="58.89057777741856" lon="7.728055549387271" id="-61781">
		<tag k="name" v="Sandnes søndre" />
		<tag k="place" v="farm" />
		<tag k="ssr:stedsnr" v="448819" />
	</node>
	<node lat="58.78535833188001" lon="7.786200003385984" id="-61787">
		<tag k="name" v="Lauvli" />
		<tag k="place" v="locality" />
		<tag k="ssr:stedsnr" v="449054" />
	</node>
	<node lat="58.98894721835641" lon="7.743861117858496" id="-61792">
		<tag k="name" v="Hovasslihytta" />
		<tag k="place" v="isolated_dwelling" />
		<tag k="ssr:stedsnr" v="449376" />
	</node>
	<node lat="58.80740555317234" lon="7.925105554056162" id="-61803">
		<tag k="name" v="Åsland" />
		<tag k="place" v="locality" />
		<tag k="ssr:stedsnr" v="452340" />
	</node>
	<node lat="58.89207777864421" lon="7.837352782136864" id="-61805">
		<tag k="historic" v="shieling" />
		<tag k="name" v="Plassestøylen" />
		<tag k="place" v="isolated_dwelling" />
		<tag k="ssr:stedsnr" v="452348" />
	</node>
	<node lat="58.941238890679465" lon="7.71781388176243" id="-61807">
		<tag k="name" v="Skore" />
		<tag k="place" v="farm" />
		<tag k="ssr:stedsnr" v="486501" />
	</node>
	<node lat="58.98599166479765" lon="7.540050001372442" id="-61815">
		<tag k="name" v="Sprelin" />
		<tag k="place" v="farm" />
		<tag k="ssr:stedsnr" v="304287" />
	</node>
	<node lat="58.98834721852692" lon="7.5401916678354635" id="-61816">
		<tag k="name" v="Råtun" />
		<tag k="place" v="farm" />
		<tag k="ssr:stedsnr" v="304288" />
	</node>
	<node lat="58.9852861068485" lon="7.540288895824633" id="-61817">
		<tag k="name" v="Øyrik" />
		<tag k="place" v="farm" />
		<tag k="ssr:stedsnr" v="304292" />
	</node>
	<node lat="58.86470555807728" lon="7.6856000013858585" id="-61818">
		<tag k="historic" v="shieling" />
		<tag k="name" v="Stoi" />
		<tag k="place" v="isolated_dwelling" />
		<tag k="ssr:stedsnr" v="304402" />
	</node>
	<node lat="58.901727778376205" lon="7.697030558307861" id="-61821">
		<tag k="historic" v="shieling" />
		<tag k="name" v="Hægustøyl" />
		<tag k="place" v="isolated_dwelling" />
		<tag k="ssr:stedsnr" v="304437" />
	</node>
	<node lat="58.970594694544715" lon="7.828490848391721" id="-61826">
		<tag k="alt_name" v="Bleilistøyl" />
		<tag k="historic" v="shieling" />
		<tag k="name" v="Bleilistøl" />
		<tag k="place" v="isolated_dwelling" />
		<tag k="ssr:stedsnr" v="304633" />
	</node>
	<node lat="58.873936109660455" lon="7.8127527817823905" id="-61832">
		<tag k="name" v="Skreland" />
		<tag k="place" v="farm" />
		<tag k="ssr:stedsnr" v="304738" />
	</node>
	<node lat="58.86898055581933" lon="7.895636103994499" id="-61833">
		<tag k="name" v="Stigen" />
		<tag k="place" v="isolated_dwelling" />
		<tag k="ssr:stedsnr" v="304742" />
	</node>
	<node lat="58.7509583366728" lon="7.780958337352731" id="-61837">
		<tag k="name" v="Dale" />
		<tag k="place" v="farm" />
		<tag k="ssr:stedsnr" v="304887" />
	</node>
	<node lat="58.96165833680111" lon="7.569516666162575" id="-61842">
		<tag k="historic" v="shieling" />
		<tag k="name" v="Kleivstøyl" />
		<tag k="place" v="isolated_dwelling" />
		<tag k="ssr:stedsnr" v="326103" />
	</node>
	<node lat="58.812358330017766" lon="7.879497226550747" id="-61844">
		<tag k="historic" v="shieling" />
		<tag k="name" v="Tritjørnstøyl" />
		<tag k="place" v="isolated_dwelling" />
		<tag k="ssr:stedsnr" v="326135" />
	</node>
	<node lat="58.869179553134984" lon="7.706183396956136" id="-61847">
		<tag k="alt_name" v="Ljostog" />
		<tag k="name" v="Skåmedal" />
		<tag k="place" v="farm" />
		<tag k="ssr:stedsnr" v="326308" />
	</node>
	<node lat="58.85623610825183" lon="7.985458332231859" id="-61873">
		<tag k="historic" v="shieling" />
		<tag k="name" v="Hemsedal" />
		<tag k="place" v="isolated_dwelling" />
		<tag k="ssr:stedsnr" v="326502" />
	</node>
	<node lat="58.78541666841021" lon="7.796569447855591" id="-61879">
		<tag k="name" v="Stoga" />
		<tag k="place" v="locality" />
		<tag k="ssr:stedsnr" v="327072" />
	</node>
	<node lat="58.74298610840901" lon="7.793944443721656" id="-61927">
		<tag k="name" v="Hagenesodden hyttefelt" />
		<tag k="place" v="neighbourhood" />
		<tag k="ssr:stedsnr" v="362325" />
	</node>
	<node lat="58.70636944615187" lon="7.8343916618855465" id="-61928">
		<tag k="name" v="Greibrokk" />
		<tag k="place" v="farm" />
		<tag k="ssr:stedsnr" v="363223" />
	</node>
	<node lat="58.90952778051495" lon="7.529172214577805" id="-61935">
		<tag k="name" v="Espehommen" />
		<tag k="place" v="locality" />
		<tag k="ssr:stedsnr" v="364464" />
	</node>
	<node lat="58.9143527821558" lon="7.606024993672304" id="-61936">
		<tag k="historic" v="shieling" />
		<tag k="name" v="Skåvatn" />
		<tag k="place" v="isolated_dwelling" />
		<tag k="ssr:stedsnr" v="364467" />
	</node>
	<node lat="58.94146944851428" lon="7.786100006619047" id="-61943">
		<tag k="name" v="Ekron" />
		<tag k="place" v="locality" />
		<tag k="ssr:stedsnr" v="364659" />
	</node>
	<node lat="58.93190277681211" lon="7.827905554041644" id="-61944">
		<tag k="name" v="Kaldås" />
		<tag k="place" v="locality" />
		<tag k="ssr:stedsnr" v="364667" />
	</node>
	<node lat="59.020732330786004" lon="7.7499388897143735" id="-61957">
		<tag k="historic" v="shieling" />
		<tag k="name" v="Nyestøyl" />
		<tag k="old_name" v="Nystøl" />
		<tag k="place" v="isolated_dwelling" />
		<tag k="ssr:stedsnr" v="365503" />
	</node>
	<node lat="58.896074849438435" lon="7.768839802826771" id="-61960">
		<tag k="alt_name" v="Øvre Klepp" />
		<tag k="name" v="Klepp, øvre" />
		<tag k="place" v="locality" />
		<tag k="ssr:stedsnr" v="365719" />
	</node>
	<node lat="58.88854166871875" lon="7.888822222187667" id="-61961">
		<tag k="alt_name" v="Sandvasstølen" />
		<tag k="historic" v="shieling" />
		<tag k="name" v="Sandvasstøylen" />
		<tag k="place" v="isolated_dwelling" />
		<tag k="ssr:stedsnr" v="365721" />
	</node>
	<node lat="58.94937487443055" lon="7.91583826567029" id="-61963">
		<tag k="alt_name" v="Austre Grunnevasstøyl" />
		<tag k="historic" v="shieling" />
		<tag k="name" v="Austre Grunnevasstøl" />
		<tag k="place" v="isolated_dwelling" />
		<tag k="ssr:stedsnr" v="365654" />
	</node>
	<node lat="58.812733329643464" lon="7.9521861156681295" id="-61965">
		<tag k="alt_name" v="Sandestøyl" />
		<tag k="historic" v="shieling" />
		<tag k="name" v="Sande" />
		<tag k="place" v="isolated_dwelling" />
		<tag k="ssr:stedsnr" v="365832" />
	</node>
	<node lat="58.772738887470105" lon="7.928369440114115" id="-61969">
		<tag k="historic" v="shieling" />
		<tag k="name" v="Lii" />
		<tag k="place" v="isolated_dwelling" />
		<tag k="ssr:stedsnr" v="365846" />
	</node>
	<node lat="58.817097225227585" lon="7.834494445699341" id="-61981">
		<tag k="historic" v="shieling" />
		<tag k="name" v="Kjekkjustveit" />
		<tag k="place" v="isolated_dwelling" />
		<tag k="ssr:stedsnr" v="387167" />
	</node>
	<node lat="58.74236944281705" lon="7.938783333636798" id="-61982">
		<tag k="historic" v="shieling" />
		<tag k="name" v="Lisløygard" />
		<tag k="place" v="isolated_dwelling" />
		<tag k="ssr:stedsnr" v="387170" />
	</node>
	<node lat="58.82864999578833" lon="7.815755557640844" id="-61990">
		<tag k="name" v="Lundebrekka" />
		<tag k="place" v="farm" />
		<tag k="ssr:stedsnr" v="387022" />
	</node>
	<node lat="58.875900000560016" lon="7.667002773145795" id="-62000">
		<tag k="historic" v="shieling" />
		<tag k="name" v="Øvre Longeli" />
		<tag k="place" v="isolated_dwelling" />
		<tag k="ssr:stedsnr" v="387309" />
	</node>
	<node lat="58.96539999579295" lon="7.660908340372959" id="-62013">
		<tag k="name" v="Kleivbu" />
		<tag k="place" v="farm" />
		<tag k="ssr:stedsnr" v="387462" />
	</node>
	<node lat="58.95305277766262" lon="7.903108334002977" id="-62021">
		<tag k="historic" v="shieling" />
		<tag k="name" v="Brokka" />
		<tag k="place" v="isolated_dwelling" />
		<tag k="ssr:stedsnr" v="387821" />
	</node>
	<node lat="58.91974166843424" lon="7.679205560628947" id="-62041">
		<tag k="alt_name" v="Reiårsvatnet 2 felt B;Reiårsvatnet 2 felt A" />
		<tag k="name" v="Reiårsvatnet 2" />
		<tag k="place" v="neighbourhood" />
		<tag k="ssr:stedsnr" v="419948" />
	</node>
	<node lat="58.702930555182036" lon="7.895977778385624" id="-62047">
		<tag k="historic" v="shieling" />
		<tag k="name" v="Valebjørg" />
		<tag k="place" v="isolated_dwelling" />
		<tag k="ssr:stedsnr" v="425557" />
	</node>
	<node lat="58.81330833284935" lon="7.762516665214782" id="-62049">
		<tag k="name" v="Hamre" />
		<tag k="place" v="farm" />
		<tag k="ssr:stedsnr" v="425776" />
	</node>
	<node lat="58.884358330570805" lon="7.646716671335668" id="-62055">
		<tag k="historic" v="shieling" />
		<tag k="name" v="Skåmestøyl" />
		<tag k="place" v="isolated_dwelling" />
		<tag k="ssr:stedsnr" v="426421" />
	</node>
	<node lat="58.888450003535155" lon="7.846883340536683" id="-62060">
		<tag k="historic" v="shieling" />
		<tag k="name" v="Austlii" />
		<tag k="place" v="isolated_dwelling" />
		<tag k="ssr:stedsnr" v="426714" />
	</node>
	<node lat="58.85799565274612" lon="7.919579306833215" id="-62061">
		<tag k="alt_name" v="Rutøygard" />
		<tag k="name" v="Ratøydgard" />
		<tag k="place" v="isolated_dwelling" />
		<tag k="ssr:stedsnr" v="426743" />
	</node>
	<node lat="58.80035057329593" lon="7.975965610040274" id="-62062">
		<tag k="name" v="Blaksbu" />
		<tag k="place" v="locality" />
		<tag k="ssr:stedsnr" v="426795" />
	</node>
	<node lat="58.854794448734225" lon="7.814113886388496" id="-62075">
		<tag k="historic" v="shieling" />
		<tag k="name" v="Ryssli" />
		<tag k="place" v="isolated_dwelling" />
		<tag k="ssr:stedsnr" v="448120" />
	</node>
	<node lat="58.896877774412054" lon="7.766144437363202" id="-62084">
		<tag k="name" v="Lisleøygard" />
		<tag k="place" v="locality" />
		<tag k="ssr:stedsnr" v="448278" />
	</node>
	<node lat="58.66172222634358" lon="7.812038889726193" id="-62122">
		<tag k="name" v="Vassendøya" />
		<tag k="place" v="neighbourhood" />
		<tag k="ssr:stedsnr" v="662576" />
	</node>
	<node lat="58.89429721889667" lon="7.9655805478198225" id="-62127">
		<tag k="historic" v="shieling" />
		<tag k="name" v="Fjøddestøyl" />
		<tag k="place" v="isolated_dwelling" />
		<tag k="ssr:stedsnr" v="458909" />
	</node>
	<node lat="59.034313890248704" lon="7.824536116451713" id="-62129">
		<tag k="name" v="Øvre Tyskeplassen" />
		<tag k="place" v="locality" />
		<tag k="ssr:stedsnr" v="459705" />
	</node>
	<node lat="59.01351389140875" lon="7.77380278197915" id="-62133">
		<tag k="historic" v="shieling" />
		<tag k="name" v="Trosehommen" />
		<tag k="place" v="isolated_dwelling" />
		<tag k="ssr:stedsnr" v="459721" />
	</node>
	<node lat="59.01401389181007" lon="7.622891666096834" id="-62135">
		<tag k="name" v="Heiebui" />
		<tag k="place" v="locality" />
		<tag k="ssr:stedsnr" v="459676" />
	</node>
	<node lat="58.683511107360644" lon="7.852816666833874" id="-62139">
		<tag k="historic" v="shieling" />
		<tag k="name" v="Gaukshei" />
		<tag k="place" v="isolated_dwelling" />
		<tag k="ssr:stedsnr" v="459911" />
	</node>
	<node lat="58.90018610756257" lon="7.821627770153221" id="-62141">
		<tag k="historic" v="shieling" />
		<tag k="name" v="Åmostøyl" />
		<tag k="place" v="isolated_dwelling" />
		<tag k="ssr:stedsnr" v="459979" />
	</node>
	<node lat="58.687825001620084" lon="7.7763999971858" id="-62149">
		<tag k="name" v="Bø" />
		<tag k="place" v="farm" />
		<tag k="ssr:stedsnr" v="485519" />
	</node>
	<node lat="58.94230867273948" lon="7.540821691109255" id="-62154">
		<tag k="historic" v="shieling" />
		<tag k="name" v="Tveit-Tjønndalen" />
		<tag k="place" v="isolated_dwelling" />
		<tag k="ssr:stedsnr" v="486269" />
	</node>
	<node lat="58.943294165539925" lon="7.4848462494302" id="-62155">
		<tag k="historic" v="shieling" />
		<tag k="name" v="Vikstøyl" />
		<tag k="place" v="isolated_dwelling" />
		<tag k="ssr:stedsnr" v="486273" />
	</node>
	<node lat="58.892506529931765" lon="7.859062231970482" id="-62168">
		<tag k="alt_name" v="Austdalsstøyl" />
		<tag k="historic" v="shieling" />
		<tag k="name" v="Austdalstøl" />
		<tag k="place" v="isolated_dwelling" />
		<tag k="ssr:stedsnr" v="486723" />
	</node>
	<node lat="58.7436750037479" lon="7.93472499605258" id="-62174">
		<tag k="name" v="Stedjan" />
		<tag k="place" v="locality" />
		<tag k="ssr:stedsnr" v="486906" />
	</node>
	<node lat="58.732427779462405" lon="7.870205564050011" id="-62177">
		<tag k="name" v="Homman" />
		<tag k="place" v="locality" />
		<tag k="ssr:stedsnr" v="486924" />
	</node>
	<node lat="58.951752781287574" lon="7.477027783068433" id="-62184">
		<tag k="historic" v="shieling" />
		<tag k="name" v="Grostøyl" />
		<tag k="place" v="isolated_dwelling" />
		<tag k="ssr:stedsnr" v="668283" />
	</node>
	<node lat="58.93014722271858" lon="7.977600003303801" id="-62202">
		<tag k="name" v="Nuten" />
		<tag k="place" v="locality" />
		<tag k="ssr:stedsnr" v="668691" />
	</node>
	<node lat="58.92884466324891" lon="7.765908123457677" id="-62203">
		<tag k="name" v="Træletveit" />
		<tag k="place" v="locality" />
		<tag k="ssr:stedsnr" v="668696" />
	</node>
	<node lat="58.68969999731384" lon="7.763908339588544" id="-62207">
		<tag k="name" v="Klepp" />
		<tag k="place" v="locality" />
		<tag k="ssr:stedsnr" v="668583" />
	</node>
	<node lat="58.99678055566912" lon="7.8688500043118506" id="-62209">
		<tag k="name" v="Topsælii" />
		<tag k="place" v="locality" />
		<tag k="ssr:stedsnr" v="668629" />
	</node>
	<node lat="58.798880551196504" lon="7.8128888868336315" id="-62212">
		<tag k="alt_name" v="Lauvdal nordre" />
		<tag k="name" v="Lauvdal, nordre" />
		<tag k="place" v="farm" />
		<tag k="ssr:stedsnr" v="668815" />
	</node>
	<node lat="58.87971388736558" lon="7.854008328315635" id="-62215">
		<tag k="name" v="Lauvåsstøyl" />
		<tag k="place" v="locality" />
		<tag k="ssr:stedsnr" v="668735" />
	</node>
	<node lat="58.853012872833965" lon="7.830110665692015" id="-62217">
		<tag k="name" v="Stuttstog" />
		<tag k="place" v="farm" />
		<tag k="ssr:stedsnr" v="668771" />
	</node>
	<node lat="58.84970402680774" lon="7.8925076006693455" id="-62218">
		<tag k="name" v="Libu" />
		<tag k="place" v="locality" />
		<tag k="ssr:stedsnr" v="668775" />
	</node>
	<node lat="59.028291665096425" lon="7.636625005912264" id="-62226">
		<tag k="alt_name" v="Nystøyl" />
		<tag k="historic" v="shieling" />
		<tag k="name" v="Nyestøyl" />
		<tag k="place" v="isolated_dwelling" />
		<tag k="ssr:stedsnr" v="669245" />
	</node>
	<node lat="58.66334999841657" lon="7.823394441445192" id="-62247">
		<tag k="name" v="Lunden" />
		<tag k="place" v="farm" />
		<tag k="ssr:stedsnr" v="508413" />
	</node>
	<node lat="58.91989703625746" lon="7.7466355346319" id="-62254">
		<tag k="name" v="Nordgarden" />
		<tag k="place" v="farm" />
		<tag k="ssr:stedsnr" v="508306" />
	</node>
	<node lat="58.82320833437896" lon="7.7877638855907865" id="-62271">
		<tag k="name" v="Prestegardsplass" />
		<tag k="place" v="locality" />
		<tag k="ssr:stedsnr" v="512410" />
	</node>
	<node lat="58.80390277942061" lon="7.964072226684851" id="-62280">
		<tag k="name" v="Solli" />
		<tag k="place" v="locality" />
		<tag k="ssr:stedsnr" v="519870" />
	</node>
	<node lat="58.97760833038931" lon="7.503627776689416" id="-62293">
		<tag k="alt_name" v="Frigstad" />
		<tag k="name" v="Frikstad" />
		<tag k="place" v="locality" />
		<tag k="ssr:stedsnr" v="546286" />
	</node>
	<node lat="58.99327777798404" lon="7.534050000035476" id="-62294">
		<tag k="name" v="Voddo" />
		<tag k="place" v="farm" />
		<tag k="ssr:stedsnr" v="546289" />
	</node>
	<node lat="58.83599166891823" lon="7.796011106743871" id="-62300">
		<tag k="name" v="Kvåle" />
		<tag k="place" v="farm" />
		<tag k="ssr:stedsnr" v="546733" />
	</node>
	<node lat="59.022263887397415" lon="7.614700007228272" id="-62304">
		<tag k="historic" v="shieling" />
		<tag k="name" v="Nystøl" />
		<tag k="place" v="isolated_dwelling" />
		<tag k="ssr:stedsnr" v="547327" />
	</node>
	<node lat="58.89951193497412" lon="7.817300691381646" id="-62313">
		<tag k="alt_name" v="Asbjørnstøyl" />
		<tag k="historic" v="shieling" />
		<tag k="name" v="Asbjørnstøl" />
		<tag k="place" v="isolated_dwelling" />
		<tag k="ssr:stedsnr" v="547732" />
	</node>
	<node lat="58.97412500103662" lon="7.4993805546590195" id="-62338">
		<tag k="historic" v="shieling" />
		<tag k="name" v="Nystøyl" />
		<tag k="place" v="isolated_dwelling" />
		<tag k="ssr:stedsnr" v="569187" />
	</node>
	<node lat="59.014489923483026" lon="7.817563302834629" id="-62368">
		<tag k="alt_name" v="Krone" />
		<tag k="name" v="Kroni" />
		<tag k="place" v="locality" />
		<tag k="ssr:stedsnr" v="573020" />
	</node>
	<node lat="58.83681111309451" lon="7.96646389637676" id="-62370">
		<tag k="name" v="Stallen" />
		<tag k="place" v="isolated_dwelling" />
		<tag k="ssr:stedsnr" v="573333" />
	</node>
	<node lat="58.96121462744596" lon="7.471294244912591" id="-62379">
		<tag k="fixme" v="consider tourism=alpine_hut or tourism=chalet" />
		<tag k="name" v="Tjønndalen" />
		<tag k="ssr:stedsnr" v="586806" />
		<tag k="tourism" v="wilderness_hut" />
	</node>
	<node lat="58.95636797034966" lon="7.6656700202771875" id="-62389">
		<tag k="name" v="Viki" />
		<tag k="place" v="farm" />
		<tag k="ssr:stedsnr" v="607260" />
	</node>
	<node lat="58.96648888534194" lon="7.663836104370566" id="-62390">
		<tag k="name" v="Hove" />
		<tag k="place" v="farm" />
		<tag k="ssr:stedsnr" v="607279" />
	</node>
	<node lat="58.87494444559483" lon="7.664483333224185" id="-62395">
		<tag k="historic" v="shieling" />
		<tag k="name" v="Longeli" />
		<tag k="place" v="isolated_dwelling" />
		<tag k="ssr:stedsnr" v="607426" />
	</node>
	<node lat="58.97292221897965" lon="7.491658335443712" id="-62398">
		<tag k="loc_name" v="Elgeli" />
		<tag k="name" v="Elgli" />
		<tag k="place" v="locality" />
		<tag k="ssr:stedsnr" v="607325" />
	</node>
	<node lat="58.91435000125638" lon="7.71388054692052" id="-62402">
		<tag k="name" v="Frøysnes" />
		<tag k="place" v="hamlet" />
		<tag k="ssr:stedsnr" v="607464" />
	</node>
	<node lat="58.92480277643275" lon="7.754919446123958" id="-62408">
		<tag k="alt_name" v="Kleivegrend;Kleivagrend" />
		<tag k="name" v="Kleivgrend" />
		<tag k="place" v="hamlet" />
		<tag k="ssr:stedsnr" v="607665" />
	</node>
	<node lat="58.88488207810687" lon="7.805893633055998" id="-62409">
		<tag k="historic" v="shieling" />
		<tag k="name" v="Øverstøl" />
		<tag k="place" v="isolated_dwelling" />
		<tag k="ssr:stedsnr" v="607704" />
	</node>
	<node lat="58.74979444889678" lon="7.958980549626762" id="-62414">
		<tag k="name" v="Grimsdalen" />
		<tag k="place" v="isolated_dwelling" />
		<tag k="ssr:stedsnr" v="607854" />
	</node>
	<node lat="58.82911111565223" lon="7.808538892782697" id="-62424">
		<tag k="name" v="Åkhus øvre" />
		<tag k="place" v="farm" />
		<tag k="ssr:stedsnr" v="691022" />
	</node>
	<node lat="58.70865555576349" lon="7.841058333927839" id="-62434">
		<tag k="name" v="Smidjan" />
		<tag k="place" v="farm" />
		<tag k="ssr:stedsnr" v="691066" />
	</node>
	<node lat="58.8364916666374" lon="7.848544445632209" id="-62441">
		<tag k="historic" v="shieling" />
		<tag k="name" v="Under liane" />
		<tag k="place" v="isolated_dwelling" />
		<tag k="ssr:stedsnr" v="691158" />
	</node>
	<node lat="59.023530555997745" lon="7.597655553648311" id="-62455">
		<tag k="historic" v="shieling" />
		<tag k="name" v="Reppan" />
		<tag k="place" v="isolated_dwelling" />
		<tag k="ssr:stedsnr" v="629096" />
	</node>
	<node lat="58.747477775880164" lon="7.852325007931743" id="-62459">
		<tag k="name" v="Huset" />
		<tag k="place" v="farm" />
		<tag k="ssr:stedsnr" v="629221" />
	</node>
	<node lat="58.885777779821545" lon="7.753816673994298" id="-62461">
		<tag k="historic" v="shieling" />
		<tag k="name" v="Nevrestøyl" />
		<tag k="place" v="isolated_dwelling" />
		<tag k="ssr:stedsnr" v="629250" />
	</node>
	<node lat="58.88539722587411" lon="7.7231916726322085" id="-62483">
		<tag k="name" v="Monen" />
		<tag k="place" v="locality" />
		<tag k="ssr:stedsnr" v="691287" />
	</node>
	<node lat="58.92472222504996" lon="7.747630550141711" id="-62490">
		<tag k="name" v="Nordenå" />
		<tag k="place" v="farm" />
		<tag k="ssr:stedsnr" v="691308" />
	</node>
	<node lat="58.911177775730884" lon="7.786638892358623" id="-62507">
		<tag k="historic" v="shieling" />
		<tag k="name" v="Igdestøyl" />
		<tag k="place" v="isolated_dwelling" />
		<tag k="ssr:stedsnr" v="629856" />
	</node>
	<node lat="58.90630277810938" lon="7.808255553268916" id="-62508">
		<tag k="historic" v="shieling" />
		<tag k="name" v="Øvre Strondi" />
		<tag k="place" v="isolated_dwelling" />
		<tag k="ssr:stedsnr" v="629869" />
	</node>
	<node lat="58.8043888868482" lon="7.768630557309396" id="-62509">
		<tag k="name" v="Stallemo" />
		<tag k="place" v="farm" />
		<tag k="ssr:stedsnr" v="691355" />
	</node>
	<node lat="58.778419444512394" lon="7.7292527734463174" id="-62512">
		<tag k="name" v="Heimheibu" />
		<tag k="place" v="locality" />
		<tag k="ssr:stedsnr" v="691373" />
	</node>
	<node lat="58.80657500383665" lon="7.904063895819845" id="-62544">
		<tag k="name" v="Lundehaug" />
		<tag k="place" v="locality" />
		<tag k="ssr:stedsnr" v="640933" />
	</node>
	<node lat="58.74472653122308" lon="7.67285357080027" id="-62556">
		<tag k="name" v="Skeie" />
		<tag k="place" v="isolated_dwelling" />
		<tag k="ssr:stedsnr" v="667051" />
	</node>
	<node lat="58.96298333038658" lon="7.666511104567798" id="-62561">
		<tag k="name" v="Moi" />
		<tag k="place" v="quarter" />
		<tag k="ssr:stedsnr" v="668298" />
	</node>
	<node lat="58.969716665761574" lon="7.67883888472857" id="-62562">
		<tag k="alt_name" v="Plassen" />
		<tag k="name" v="Plasset" />
		<tag k="place" v="farm" />
		<tag k="ssr:stedsnr" v="668299" />
	</node>
	<node lat="58.9648666288194" lon="7.482482456115303" id="-62565">
		<tag k="historic" v="shieling" />
		<tag k="name" v="Lislestøyl" />
		<tag k="place" v="isolated_dwelling" />
		<tag k="ssr:stedsnr" v="668313" />
	</node>
	<node lat="58.9357342129368" lon="7.776130187941517" id="-62577">
		<tag k="alt_name" v="Sjavskotet" />
		<tag k="name" v="Sjølvskotet" />
		<tag k="place" v="locality" />
		<tag k="ssr:stedsnr" v="668686" />
	</node>
	<node lat="58.84364813949451" lon="7.940220487691727" id="-62582">
		<tag k="alt_name" v="Åkhusøy" />
		<tag k="historic" v="shieling" />
		<tag k="name" v="Øy" />
		<tag k="place" v="isolated_dwelling" />
		<tag k="ssr:stedsnr" v="668795" />
	</node>
	<node lat="59.03300413452189" lon="7.637400355456572" id="-62586">
		<tag k="name" v="Hola" />
		<tag k="place" v="locality" />
		<tag k="ssr:stedsnr" v="669248" />
	</node>
	<node lat="59.03174329262542" lon="7.8536013847548105" id="-62590">
		<tag k="name" v="Orrebakk" />
		<tag k="place" v="locality" />
		<tag k="ssr:stedsnr" v="883806" />
	</node>
	<node lat="58.77911666424401" lon="7.953491668871958" id="-62597">
		<tag k="historic" v="shieling" />
		<tag k="name" v="Guddalstøyl" />
		<tag k="place" v="isolated_dwelling" />
		<tag k="ssr:stedsnr" v="883922" />
	</node>
	<node lat="58.97172500066388" lon="7.829444442472682" id="-62598">
		<tag k="historic" v="shieling" />
		<tag k="name" v="Bleili" />
		<tag k="place" v="isolated_dwelling" />
		<tag k="ssr:stedsnr" v="883836" />
	</node>
	<node lat="58.76243888787822" lon="7.718994441399775" id="-62605">
		<tag k="historic" v="shieling" />
		<tag k="name" v="Nyøygard" />
		<tag k="place" v="isolated_dwelling" />
		<tag k="ssr:stedsnr" v="883893" />
	</node>
	<node lat="58.77366111319156" lon="7.8831916732301845" id="-62631">
		<tag k="name" v="Gruddefjellhytta" />
		<tag k="place" v="isolated_dwelling" />
		<tag k="ssr:stedsnr" v="691231" />
	</node>
	<node lat="58.834569442378815" lon="7.787191660120149" id="-62637">
		<tag k="name" v="Bergland" />
		<tag k="place" v="farm" />
		<tag k="ssr:stedsnr" v="691127" />
	</node>
	<node lat="58.929755557936346" lon="7.792238891236279" id="-62650">
		<tag k="historic" v="shieling" />
		<tag k="name" v="Myrbu" />
		<tag k="place" v="isolated_dwelling" />
		<tag k="ssr:stedsnr" v="691193" />
	</node>
	<node lat="58.70150833109958" lon="7.820366671697229" id="-62653">
		<tag k="name" v="Bakkane" />
		<tag k="place" v="neighbourhood" />
		<tag k="ssr:stedsnr" v="691407" />
	</node>
	<node lat="58.672108329555634" lon="7.905122227244818" id="-62682">
		<tag k="name" v="Guddalsøygard" />
		<tag k="place" v="locality" />
		<tag k="ssr:stedsnr" v="701916" />
	</node>
	<node lat="58.726670021040235" lon="7.698588829264273" id="-62685">
		<tag k="name" v="Åmdal" />
		<tag k="place" v="locality" />
		<tag k="ssr:stedsnr" v="728007" />
	</node>
	<node lat="58.97873055813653" lon="7.606891670368879" id="-62697">
		<tag k="name" v="Tveit" />
		<tag k="place" v="hamlet" />
		<tag k="ssr:stedsnr" v="729312" />
	</node>
	<node lat="59.00574897053996" lon="7.514459457532087" id="-62700">
		<tag k="alt_name" v="Smørkleppstøylane" />
		<tag k="name" v="Smørklepp" />
		<tag k="place" v="locality" />
		<tag k="ssr:stedsnr" v="729328" />
	</node>
	<node lat="59.00826110819374" lon="7.616291670959088" id="-62702">
		<tag k="alt_name" v="Mjaltehommstøylen" />
		<tag k="name" v="Mjelthommen" />
		<tag k="place" v="isolated_dwelling" />
		<tag k="ssr:stedsnr" v="729332" />
	</node>
	<node lat="58.87013888579939" lon="7.645313897651999" id="-62706">
		<tag k="name" v="Jørundli" />
		<tag k="place" v="isolated_dwelling" />
		<tag k="ssr:stedsnr" v="729413" />
	</node>
	<node lat="58.9662666667431" lon="7.807336107513391" id="-62711">
		<tag k="name" v="Hovassheii" />
		<tag k="place" v="locality" />
		<tag k="ssr:stedsnr" v="729626" />
	</node>
	<node lat="58.89359606379534" lon="7.86022706449236" id="-62713">
		<tag k="alt_name" v="Lyngstøyl" />
		<tag k="name" v="Lyngstøl" />
		<tag k="place" v="isolated_dwelling" />
		<tag k="ssr:stedsnr" v="729724" />
	</node>
	<node lat="58.860591666041834" lon="7.859494449719824" id="-62715">
		<tag k="historic" v="shieling" />
		<tag k="name" v="Løtveit" />
		<tag k="place" v="isolated_dwelling" />
		<tag k="ssr:stedsnr" v="729746" />
	</node>
	<node lat="58.83135000201717" lon="7.799108326306757" id="-62724">
		<tag k="building" v="commercial" />
		<tag k="name" v="Heradshuset" />
		<tag k="old_name" v="Heredshuset" />
		<tag k="ssr:stedsnr" v="750080" />
	</node>
	<node lat="58.99625277671033" lon="7.581497227420823" id="-62727">
		<tag k="historic" v="shieling" />
		<tag k="name" v="Tagdal" />
		<tag k="place" v="isolated_dwelling" />
		<tag k="ssr:stedsnr" v="751010" />
	</node>
	<node lat="58.918874998053724" lon="7.743436111735663" id="-62738">
		<tag k="name" v="Stoplestog" />
		<tag k="place" v="farm" />
		<tag k="ssr:stedsnr" v="751317" />
	</node>
	<node lat="59.00073055974298" lon="7.771102771398097" id="-62742">
		<tag k="historic" v="shieling" />
		<tag k="name" v="Røynestøyl" />
		<tag k="place" v="isolated_dwelling" />
		<tag k="ssr:stedsnr" v="751330" />
	</node>
	<node lat="58.99609999588262" lon="7.769088880917037" id="-62743">
		<tag k="historic" v="shieling" />
		<tag k="name" v="Myran" />
		<tag k="place" v="isolated_dwelling" />
		<tag k="ssr:stedsnr" v="751331" />
	</node>
	<node lat="58.94348889141849" lon="7.711930563016352" id="-62744">
		<tag k="historic" v="shieling" />
		<tag k="name" v="Tveitan" />
		<tag k="place" v="isolated_dwelling" />
		<tag k="ssr:stedsnr" v="751062" />
	</node>
	<node lat="58.98069721946601" lon="7.669197217771025" id="-62765">
		<tag k="alt_name" v="Heistad nordre" />
		<tag k="name" v="Nordre Heistad" />
		<tag k="place" v="farm" />
		<tag k="ssr:stedsnr" v="751479" />
	</node>
	<node lat="58.79245277480547" lon="7.799872229164658" id="-62774">
		<tag k="name" v="Furodden" />
		<tag k="place" v="isolated_dwelling" />
		<tag k="ssr:stedsnr" v="752075" />
	</node>
	<node lat="58.71002438722954" lon="7.710350992604285" id="-62782">
		<tag k="name" v="Mjaltehommen" />
		<tag k="place" v="isolated_dwelling" />
		<tag k="ssr:stedsnr" v="762798" />
	</node>
	<node lat="58.982674999203006" lon="7.5435333313860085" id="-62796">
		<tag k="name" v="Krokå" />
		<tag k="place" v="farm" />
		<tag k="ssr:stedsnr" v="789318" />
	</node>
	<node lat="58.899961111016665" lon="7.6718333344453615" id="-62798">
		<tag k="historic" v="shieling" />
		<tag k="name" v="Morstøyl" />
		<tag k="place" v="isolated_dwelling" />
		<tag k="ssr:stedsnr" v="789460" />
	</node>
	<node lat="58.899586106657424" lon="7.498727773462119" id="-62801">
		<tag k="name" v="Ånebjør" />
		<tag k="place" v="farm" />
		<tag k="ssr:stedsnr" v="789469" />
	</node>
	<node lat="58.75427499897425" lon="7.815086106999491" id="-62805">
		<tag k="name" v="Frøyrak" />
		<tag k="place" v="farm" />
		<tag k="ssr:stedsnr" v="789873" />
	</node>
	<node lat="58.960119440567965" lon="7.683625002870246" id="-62809">
		<tag k="name" v="Sørgarden" />
		<tag k="place" v="farm" />
		<tag k="ssr:stedsnr" v="790223" />
	</node>
	<node lat="59.012515048341875" lon="7.738465113635784" id="-62812">
		<tag k="historic" v="shieling" />
		<tag k="name" v="Kråkestøyl" />
		<tag k="old_name" v="Kråkestøl" />
		<tag k="place" v="isolated_dwelling" />
		<tag k="ssr:stedsnr" v="790515" />
	</node>
	<node lat="58.66450277521338" lon="7.812513887090399" id="-62818">
		<tag k="name" v="Vassendfeltet" />
		<tag k="place" v="neighbourhood" />
		<tag k="ssr:stedsnr" v="905576" />
	</node>
	<node lat="58.93347221820688" lon="7.641452778332921" id="-62825">
		<tag k="historic" v="shieling" />
		<tag k="name" v="Glypsehommen" />
		<tag k="place" v="isolated_dwelling" />
		<tag k="ssr:stedsnr" v="812015" />
	</node>
	<node lat="58.87615973707968" lon="7.705707872572069" id="-62849">
		<tag k="alt_name" v="Nordgarden;Skåmedal" />
		<tag k="name" v="Skåmedal - Nordgarden" />
		<tag k="place" v="farm" />
		<tag k="ssr:stedsnr" v="812302" />
	</node>
	<node lat="58.797905552164146" lon="7.767250007714204" id="-62862">
		<tag k="name" v="Nordre Skjevrak" />
		<tag k="place" v="farm" />
		<tag k="ssr:stedsnr" v="812336" />
	</node>
	<node lat="58.6580527817994" lon="7.821258341715144" id="-62867">
		<tag k="name" v="Kleivevollen" />
		<tag k="place" v="farm" />
		<tag k="ssr:stedsnr" v="812391" />
	</node>
	<node lat="58.96330833031402" lon="7.6366166635312" id="-62871">
		<tag k="historic" v="shieling" />
		<tag k="name" v="Heimstehomm" />
		<tag k="place" v="isolated_dwelling" />
		<tag k="ssr:stedsnr" v="812507" />
	</node>
	<node lat="58.665958337837004" lon="7.823205563042347" id="-62874">
		<tag k="name" v="Solbakken" />
		<tag k="place" v="farm" />
		<tag k="ssr:stedsnr" v="812517" />
	</node>
	<node lat="58.852466666457765" lon="7.821375001866963" id="-62885">
		<tag k="name" v="Attestog" />
		<tag k="place" v="farm" />
		<tag k="ssr:stedsnr" v="816381" />
	</node>
	<node lat="58.96106668188668" lon="7.5628388169405145" id="-62913">
		<tag k="name" v="Lægjet" />
		<tag k="place" v="locality" />
		<tag k="ssr:stedsnr" v="911297" />
	</node>
	<node lat="58.68528888659793" lon="7.8435249951371" id="-62925">
		<tag k="name" v="Takli" />
		<tag k="place" v="locality" />
		<tag k="ssr:stedsnr" v="911630" />
	</node>
	<node lat="58.81780265038108" lon="7.792108764491066" id="-62927">
		<tag k="name" v="Hamre" />
		<tag k="place" v="farm" />
		<tag k="ssr:stedsnr" v="911775" />
	</node>
	<node lat="58.822719442008" lon="7.79546666835958" id="-62929">
		<tag k="name" v="Solli" />
		<tag k="place" v="farm" />
		<tag k="ssr:stedsnr" v="911782" />
	</node>
	<node lat="58.9210666644234" lon="7.7466472209644515" id="-62930">
		<tag k="name" v="Åraksbø" />
		<tag k="place" v="quarter" />
		<tag k="ssr:stedsnr" v="911676" />
	</node>
	<node lat="58.91903537363429" lon="7.77437623226437" id="-62931">
		<tag k="name" v="Blesbu" />
		<tag k="place" v="locality" />
		<tag k="ssr:stedsnr" v="911678" />
	</node>
	<node lat="58.917008330679984" lon="7.754105554138851" id="-62933">
		<tag k="alt_name" v="Seberg" />
		<tag k="name" v="Setberg" />
		<tag k="place" v="farm" />
		<tag k="ssr:stedsnr" v="911689" />
	</node>
	<node lat="58.89031388977877" lon="7.726030563647214" id="-62934">
		<tag k="name" v="Rynningen" />
		<tag k="place" v="farm" />
		<tag k="ssr:stedsnr" v="911730" />
	</node>
	<node lat="58.94079840383615" lon="7.73920736108006" id="-62950">
		<tag k="alt_name" v="Bjørnetveit" />
		<tag k="name" v="Bjørntveit" />
		<tag k="place" v="locality" />
		<tag k="ssr:stedsnr" v="850629" />
	</node>
	<node lat="58.929566666643396" lon="7.755786116033468" id="-62952">
		<tag k="alt_name" v="Gakkestad øvre" />
		<tag k="name" v="Gakkestad" />
		<tag k="place" v="farm" />
		<tag k="ssr:stedsnr" v="850638" />
	</node>
	<node lat="58.82109491697859" lon="7.794134821764311" id="-62955">
		<tag k="name" v="Reisi" />
		<tag k="place" v="farm" />
		<tag k="ssr:stedsnr" v="850743" />
	</node>
	<node lat="58.807399474161" lon="7.903879534683156" id="-62957">
		<tag k="alt_name" v="Tverrstøyl" />
		<tag k="historic" v="shieling" />
		<tag k="name" v="Tverrstøl" />
		<tag k="place" v="isolated_dwelling" />
		<tag k="ssr:stedsnr" v="850803" />
	</node>
	<node lat="58.750266664606826" lon="7.852555557199474" id="-62959">
		<tag k="name" v="Longerak" />
		<tag k="place" v="quarter" />
		<tag k="ssr:stedsnr" v="850907" />
	</node>
	<node lat="58.94405422106699" lon="7.64151612419889" id="-62966">
		<tag k="alt_name" v="Histristøylen" />
		<tag k="historic" v="shieling" />
		<tag k="name" v="Histri" />
		<tag k="place" v="isolated_dwelling" />
		<tag k="ssr:stedsnr" v="851477" />
	</node>
	<node lat="58.8767444410472" lon="7.938838889027958" id="-62970">
		<tag k="name" v="Steinbudalen" />
		<tag k="place" v="locality" />
		<tag k="ssr:stedsnr" v="851713" />
	</node>
	<node lat="58.82485555352166" lon="7.798894444661928" id="-62980">
		<tag k="name" v="Prestelidi" />
		<tag k="place" v="neighbourhood" />
		<tag k="ssr:stedsnr" v="873016" />
	</node>
	<node lat="59.0002916682043" lon="7.5452527825125815" id="-62984">
		<tag k="name" v="Birkeland" />
		<tag k="place" v="farm" />
		<tag k="ssr:stedsnr" v="873026" />
	</node>
	<node lat="58.85805277753948" lon="7.820616660049204" id="-62990">
		<tag k="name" v="Hågetveit" />
		<tag k="place" v="locality" />
		<tag k="ssr:stedsnr" v="873122" />
	</node>
	<node lat="58.75183055672174" lon="7.847094450664802" id="-62995">
		<tag k="name" v="Monen" />
		<tag k="place" v="farm" />
		<tag k="ssr:stedsnr" v="873236" />
	</node>
	<node lat="59.011211111871695" lon="7.7693972156644735" id="-63015">
		<tag k="historic" v="shieling" />
		<tag k="name" v="Sveestøyl" />
		<tag k="place" v="isolated_dwelling" />
		<tag k="ssr:stedsnr" v="873307" />
	</node>
	<node lat="58.746369441301624" lon="7.755263881935496" id="-63016">
		<tag k="historic" v="shieling" />
		<tag k="name" v="Fossheim" />
		<tag k="place" v="isolated_dwelling" />
		<tag k="ssr:stedsnr" v="873312" />
	</node>
	<node lat="58.70518333571207" lon="7.72503610438124" id="-63020">
		<tag k="historic" v="shieling" />
		<tag k="name" v="Sandvasstøyl" />
		<tag k="place" v="isolated_dwelling" />
		<tag k="ssr:stedsnr" v="873369" />
	</node>
	<node lat="58.963619446530785" lon="7.64240554819131" id="-63024">
		<tag k="historic" v="shieling" />
		<tag k="name" v="Overdalen" />
		<tag k="place" v="isolated_dwelling" />
		<tag k="ssr:stedsnr" v="873463" />
	</node>
	<node lat="58.952908330967" lon="7.88298055016126" id="-63028">
		<tag k="historic" v="shieling" />
		<tag k="name" v="Lislestøyl" />
		<tag k="place" v="isolated_dwelling" />
		<tag k="ssr:stedsnr" v="873810" />
	</node>
	<node lat="58.93429444635003" lon="7.898941665053039" id="-63030">
		<tag k="name" v="Sandvassheii" />
		<tag k="place" v="locality" />
		<tag k="ssr:stedsnr" v="873781" />
	</node>
	<node lat="58.9344111078517" lon="7.928727773747318" id="-63031">
		<tag k="name" v="Nesbu" />
		<tag k="place" v="locality" />
		<tag k="ssr:stedsnr" v="873782" />
	</node>
	<node lat="58.964488884490486" lon="7.478133330268929" id="-63034">
		<tag k="historic" v="shieling" />
		<tag k="name" v="Krostøyl" />
		<tag k="place" v="isolated_dwelling" />
		<tag k="ssr:stedsnr" v="877253" />
	</node>
	<node lat="58.94986195692677" lon="7.503411167193867" id="-63054">
		<tag k="alt_name" v="Hovstøyl" />
		<tag k="historic" v="shieling" />
		<tag k="name" v="Hovestøyl" />
		<tag k="place" v="isolated_dwelling" />
		<tag k="ssr:stedsnr" v="911276" />
	</node>
	<node lat="58.85717298163024" lon="7.646842353926567" id="-63056">
		<tag k="name" v="Gryte" />
		<tag k="place" v="locality" />
		<tag k="ssr:stedsnr" v="911429" />
	</node>
	<node lat="58.89291853774244" lon="7.661156033826235" id="-63057">
		<tag k="name" v="Njuk" />
		<tag k="place" v="locality" />
		<tag k="ssr:stedsnr" v="911459" />
	</node>
	<node lat="58.980100003148884" lon="7.672491662302792" id="-63062">
		<tag k="name" v="Vollen" />
		<tag k="place" v="farm" />
		<tag k="ssr:stedsnr" v="911307" />
	</node>
	<node lat="59.002259062300894" lon="7.407860337751588" id="-63064">
		<tag k="alt_name" v="Sandvika" />
		<tag k="historic" v="shieling" />
		<tag k="name" v="Sandviki" />
		<tag k="place" v="isolated_dwelling" />
		<tag k="ssr:stedsnr" v="911325" />
	</node>
	<node lat="58.66516389079428" lon="7.823716668537307" id="-63066">
		<tag k="name" v="Vassenden" />
		<tag k="place" v="farm" />
		<tag k="ssr:stedsnr" v="911604" />
	</node>
	<node lat="58.94697692086626" lon="7.949069763414068" id="-63069">
		<tag k="alt_name" v="Bjoruvstøl" />
		<tag k="historic" v="shieling" />
		<tag k="name" v="Bjoruvstøyl" />
		<tag k="place" v="isolated_dwelling" />
		<tag k="ssr:stedsnr" v="911665" />
	</node>
	<node lat="58.92881389004106" lon="7.777419440899397" id="-63070">
		<tag k="historic" v="shieling" />
		<tag k="name" v="Brastveit" />
		<tag k="place" v="isolated_dwelling" />
		<tag k="ssr:stedsnr" v="911671" />
	</node>
	<node lat="58.808519443802986" lon="7.923544442936264" id="-63071">
		<tag k="alt_name" v="Lindal" />
		<tag k="historic" v="shieling" />
		<tag k="name" v="Linddalen" />
		<tag k="place" v="isolated_dwelling" />
		<tag k="ssr:stedsnr" v="911814" />
	</node>
	<node lat="58.88467076929835" lon="7.817533845064127" id="-63077">
		<tag k="alt_name" v="Midtstøyl" />
		<tag k="name" v="Midtstøl" />
		<tag k="place" v="isolated_dwelling" />
		<tag k="ssr:stedsnr" v="911727" />
	</node>
	<node lat="59.02987777874383" lon="7.827366669518663" id="-63081">
		<tag k="historic" v="shieling" />
		<tag k="name" v="Tyskeplassen" />
		<tag k="place" v="isolated_dwelling" />
		<tag k="ssr:stedsnr" v="912510" />
	</node>
	<node lat="59.0219943266698" lon="7.735495766928019" id="-63082">
		<tag k="alt_name" v="Gjuvasstøylen" />
		<tag k="historic" v="shieling" />
		<tag k="name" v="Gjuvvatn" />
		<tag k="old_name" v="Gjuvatn" />
		<tag k="place" v="isolated_dwelling" />
		<tag k="ssr:stedsnr" v="912518" />
	</node>
	<node lat="58.93208889181921" lon="7.697533327782264" id="-63090">
		<tag k="name" v="Støylehommen Camping" />
		<tag k="old_name" v="Støylehommen" />
		<tag k="ssr:stedsnr" v="933055" />
		<tag k="tourism" v="camp_site" />
	</node>
	<node lat="58.70689444873858" lon="7.850630548092154" id="-63091">
		<tag k="name" v="Nevesjordet" />
		<tag k="place" v="farm" />
		<tag k="ssr:stedsnr" v="933056" />
	</node>
	<node lat="58.84098055261812" lon="7.747291667877614" id="-63096">
		<tag k="historic" v="shieling" />
		<tag k="name" v="Stigestøyl" />
		<tag k="place" v="isolated_dwelling" />
		<tag k="ssr:stedsnr" v="933251" />
	</node>
	<node lat="58.84637222649993" lon="7.946302784583017" id="-63120">
		<tag k="historic" v="shieling" />
		<tag k="name" v="Stutehommen" />
		<tag k="place" v="isolated_dwelling" />
		<tag k="ssr:stedsnr" v="933515" />
	</node>
	<node lat="58.66927777950106" lon="7.817863882713378" id="-63121">
		<tag k="name" v="Kleveland" />
		<tag k="place" v="farm" />
		<tag k="ssr:stedsnr" v="933519" />
	</node>
	<node lat="58.94808611188494" lon="7.853188884845967" id="-63126">
		<tag k="historic" v="shieling" />
		<tag k="name" v="Grunnevasstøyl" />
		<tag k="place" v="isolated_dwelling" />
		<tag k="ssr:stedsnr" v="933851" />
	</node>
	<node lat="58.8520085538995" lon="7.690469594833537" id="-63137">
		<tag k="name" v="Fossli" />
		<tag k="place" v="locality" />
		<tag k="ssr:stedsnr" v="938246" />
	</node>
	<node lat="58.80721666678085" lon="7.900508340501004" id="-63148">
		<tag k="name" v="Nygardshom" />
		<tag k="place" v="locality" />
		<tag k="ssr:stedsnr" v="944944" />
	</node>
	<node lat="58.68758436694071" lon="7.776528864178196" id="-63167">
		<tag k="name" v="Bø" />
		<tag k="place" v="farm" />
		<tag k="ssr:stedsnr" v="974188" />
	</node>
	<node lat="58.81319126714202" lon="7.762867546889565" id="-63169">
		<tag k="name" v="Hamre" />
		<tag k="place" v="farm" />
		<tag k="ssr:stedsnr" v="974190" />
	</node>
	<node lat="58.97909444127074" lon="7.60095556295919" id="-63185">
		<tag k="name" v="Monå" />
		<tag k="place" v="farm" />
		<tag k="ssr:stedsnr" v="290" />
	</node>
	<node lat="58.9387083338475" lon="7.764897222482319" id="-63188">
		<tag k="alt_name" v="Lidtveit" />
		<tag k="name" v="Litveit" />
		<tag k="place" v="farm" />
		<tag k="ssr:stedsnr" v="629" />
	</node>
	<node lat="58.91634442261277" lon="7.779637116349013" id="-63189">
		<tag k="alt_name" v="Storestøl" />
		<tag k="historic" v="shieling" />
		<tag k="name" v="Storestøyl" />
		<tag k="place" v="isolated_dwelling" />
		<tag k="ssr:stedsnr" v="681" />
	</node>
	<node lat="58.82849722531421" lon="7.796161112374127" id="-63192">
		<tag k="name" v="Bygland" />
		<tag k="place" v="quarter" />
		<tag k="ssr:stedsnr" v="774" />
	</node>
	<node lat="58.84810833381559" lon="7.823388883332233" id="-63193">
		<tag k="name" v="Olstad" />
		<tag k="place" v="farm" />
		<tag k="ssr:stedsnr" v="776" />
	</node>
	<node lat="59.00733610857086" lon="7.861911105398862" id="-63197">
		<tag k="name" v="Stretet" />
		<tag k="place" v="isolated_dwelling" />
		<tag k="ssr:stedsnr" v="1033" />
	</node>
	<node lat="58.95031388672159" lon="7.679847225960289" id="-63199">
		<tag k="name" v="Ose" />
		<tag k="place" v="hamlet" />
		<tag k="ssr:stedsnr" v="1269" />
	</node>
	<node lat="59.017197225969355" lon="7.8161166660382895" id="-63210">
		<tag k="historic" v="shieling" />
		<tag k="name" v="Gamlestøylen" />
		<tag k="old_name" v="Gamlestølen" />
		<tag k="place" v="isolated_dwelling" />
		<tag k="ssr:stedsnr" v="1508" />
	</node>
	<node lat="58.964841665691075" lon="7.739222214380371" id="-63216">
		<tag k="alt_name" v="Presthomman" />
		<tag k="name" v="Presthammaren" />
		<tag k="place" v="locality" />
		<tag k="ssr:stedsnr" v="1627" />
	</node>
	<node lat="58.707633337280704" lon="7.854483338372418" id="-63224">
		<tag k="name" v="Hjarpedokk" />
		<tag k="place" v="farm" />
		<tag k="ssr:stedsnr" v="23069" />
	</node>
	<node lat="58.8379111099416" lon="7.8572833324515825" id="-63228">
		<tag k="historic" v="shieling" />
		<tag k="name" v="Lysestøyl" />
		<tag k="place" v="isolated_dwelling" />
		<tag k="ssr:stedsnr" v="23152" />
	</node>
	<node lat="58.98450555347622" lon="7.498919445845524" id="-63231">
		<tag k="historic" v="shieling" />
		<tag k="name" v="Krakefjellstøylene" />
		<tag k="place" v="isolated_dwelling" />
		<tag k="ssr:stedsnr" v="23218" />
	</node>
	<node lat="58.82924166836355" lon="7.801949993765886" id="-63237">
		<tag k="name" v="Åkhus nedre" />
		<tag k="place" v="farm" />
		<tag k="ssr:stedsnr" v="23024" />
	</node>
	<node lat="58.98557499608417" lon="7.603249999132312" id="-63250">
		<tag k="name" v="Hagan" />
		<tag k="place" v="farm" />
		<tag k="ssr:stedsnr" v="23178" />
	</node>
	<node lat="58.96261111158022" lon="7.677333330797786" id="-63274">
		<tag k="name" v="Austad nordre" />
		<tag k="place" v="farm" />
		<tag k="ssr:stedsnr" v="23563" />
	</node>
	<node lat="58.97258333179341" lon="7.718947218323416" id="-63284">
		<tag k="historic" v="shieling" />
		<tag k="name" v="Espelistøylen" />
		<tag k="place" v="isolated_dwelling" />
		<tag k="ssr:stedsnr" v="24372" />
	</node>
	<node lat="58.68726389199198" lon="7.931324997669748" id="-63293">
		<tag k="historic" v="shieling" />
		<tag k="name" v="Hisvatn" />
		<tag k="place" v="isolated_dwelling" />
		<tag k="ssr:stedsnr" v="34918" />
	</node>
	<node lat="59.063663889445614" lon="7.802133337685621" id="-63295">
		<tag k="historic" v="shieling" />
		<tag k="name" v="Vassli" />
		<tag k="place" v="isolated_dwelling" />
		<tag k="ssr:stedsnr" v="34688" />
	</node>
	<node lat="58.815908332208664" lon="7.689150006462149" id="-63307">
		<tag k="historic" v="shieling" />
		<tag k="name" v="Veneli" />
		<tag k="place" v="isolated_dwelling" />
		<tag k="ssr:stedsnr" v="34822" />
	</node>
	<node lat="58.78046552649012" lon="7.957939894423322" id="-63309">
		<tag k="name" v="Guddalen" />
		<tag k="place" v="locality" />
		<tag k="ssr:stedsnr" v="34857" />
	</node>
	<node lat="58.88509444527747" lon="7.800572226107649" id="-63314">
		<tag k="historic" v="shieling" />
		<tag k="name" v="Øverstøyl" />
		<tag k="place" v="isolated_dwelling" />
		<tag k="ssr:stedsnr" v="55829" />
	</node>
	<node lat="58.91345555914494" lon="7.9172361075875335" id="-63331">
		<tag k="historic" v="shieling" />
		<tag k="name" v="Dalestølen" />
		<tag k="place" v="isolated_dwelling" />
		<tag k="ssr:stedsnr" v="61665" />
	</node>
	<node lat="58.85371388697135" lon="7.82417499319928" id="-63332">
		<tag k="name" v="Jordalsbø" />
		<tag k="place" v="hamlet" />
		<tag k="ssr:stedsnr" v="61733" />
	</node>
	<node lat="58.69566957552702" lon="7.906575946103501" id="-63334">
		<tag k="name" v="Haugøygard" />
		<tag k="place" v="isolated_dwelling" />
		<tag k="ssr:stedsnr" v="61536" />
	</node>
	<node lat="58.704767144216575" lon="7.91172313414776" id="-63337">
		<tag k="alt_name" v="Hagedalen" />
		<tag k="historic" v="shieling" />
		<tag k="name" v="Hagedalsstølen" />
		<tag k="place" v="isolated_dwelling" />
		<tag k="ssr:stedsnr" v="61553" />
	</node>
	<node lat="58.79708611075745" lon="7.82434167421281" id="-63340">
		<tag k="alt_name" v="Lauvdal, s" />
		<tag k="name" v="Lauvdal søndre" />
		<tag k="place" v="farm" />
		<tag k="ssr:stedsnr" v="61791" />
	</node>
	<node lat="58.794563889575215" lon="7.768511113520384" id="-63341">
		<tag k="name" v="Søre Skjevrak" />
		<tag k="place" v="farm" />
		<tag k="ssr:stedsnr" v="61792" />
	</node>
	<node lat="58.84754722588206" lon="7.816583331709925" id="-63346">
		<tag k="name" v="Lii" />
		<tag k="place" v="farm" />
		<tag k="ssr:stedsnr" v="61852" />
	</node>
	<node lat="58.957811114036005" lon="7.942813892065844" id="-63350">
		<tag k="historic" v="shieling" />
		<tag k="name" v="Sveigi" />
		<tag k="place" v="isolated_dwelling" />
		<tag k="ssr:stedsnr" v="62641" />
	</node>
	<node lat="58.72117500170839" lon="7.868963889564131" id="-63354">
		<tag k="name" v="Stean" />
		<tag k="place" v="locality" />
		<tag k="ssr:stedsnr" v="62942" />
	</node>
	<node lat="58.842813886841654" lon="7.826925007739791" id="-63368">
		<tag k="name" v="Raustad" />
		<tag k="place" v="farm" />
		<tag k="ssr:stedsnr" v="84126" />
	</node>
	<node lat="58.76102778064067" lon="7.866002781318977" id="-63377">
		<tag k="historic" v="shieling" />
		<tag k="name" v="Ytrestøyl" />
		<tag k="place" v="isolated_dwelling" />
		<tag k="ssr:stedsnr" v="84248" />
	</node>
	<node lat="58.849572220501585" lon="7.953513893156094" id="-63394">
		<tag k="name" v="Dramdristjørn" />
		<tag k="place" v="isolated_dwelling" />
		<tag k="ssr:stedsnr" v="84492" />
	</node>
	<node lat="58.8434944450458" lon="7.763230561970741" id="-63400">
		<tag k="name" v="Fosskarhytta" />
		<tag k="place" v="isolated_dwelling" />
		<tag k="ssr:stedsnr" v="84364" />
	</node>
	<node lat="58.96083611353249" lon="7.723525006051483" id="-63416">
		<tag k="name" v="Vatnebui" />
		<tag k="place" v="locality" />
		<tag k="ssr:stedsnr" v="85341" />
	</node>
	<node lat="58.67459546566857" lon="7.905614261729586" id="-63422">
		<tag k="name" v="Tveitøygard" />
		<tag k="place" v="isolated_dwelling" />
		<tag k="ssr:stedsnr" v="94943" />
	</node>
	<node lat="58.923869441679855" lon="7.683236116041003" id="-63442">
		<tag k="name" v="Reiårsvatnet 1" />
		<tag k="place" v="neighbourhood" />
		<tag k="ssr:stedsnr" v="116565" />
	</node>
	<node lat="58.85978889087179" lon="7.647700006774378" id="-63456">
		<tag k="name" v="Røysland" />
		<tag k="place" v="locality" />
		<tag k="ssr:stedsnr" v="122411" />
	</node>
	<node lat="58.90132001247199" lon="7.612361330901183" id="-63461">
		<tag k="name" v="Sunndalen" />
		<tag k="place" v="isolated_dwelling" />
		<tag k="ssr:stedsnr" v="122441" />
	</node>
	<node lat="58.913194448495304" lon="7.678252776119525" id="-63463">
		<tag k="alt_name" v="Skagestøyl" />
		<tag k="historic" v="shieling" />
		<tag k="name" v="Skakstøyl" />
		<tag k="place" v="isolated_dwelling" />
		<tag k="ssr:stedsnr" v="122451" />
	</node>
	<node lat="58.886397226598625" lon="7.932900000505254" id="-63465">
		<tag k="historic" v="shieling" />
		<tag k="name" v="Kråkehommen" />
		<tag k="place" v="isolated_dwelling" />
		<tag k="ssr:stedsnr" v="122696" />
	</node>
	<node lat="58.70461944044949" lon="7.783161102945417" id="-63466">
		<tag k="name" v="Vik" />
		<tag k="place" v="isolated_dwelling" />
		<tag k="ssr:stedsnr" v="122575" />
	</node>
	<node lat="58.916402779295915" lon="7.714441662709762" id="-63482">
		<tag k="name" v="Nordigarden" />
		<tag k="place" v="farm" />
		<tag k="ssr:stedsnr" v="144038" />
	</node>
	<node lat="58.70654444244898" lon="7.84010834062644" id="-63486">
		<tag k="name" v="Leikvollen" />
		<tag k="place" v="farm" />
		<tag k="ssr:stedsnr" v="144053" />
	</node>
	<node lat="58.89516505560217" lon="7.735972064408703" id="-63518">
		<tag k="name" v="Vikli" />
		<tag k="place" v="farm" />
		<tag k="ssr:stedsnr" v="144273" />
	</node>
	<node lat="58.878961112060814" lon="7.205194441141736" id="-63528">
		<tag k="fixme" v="consider tourism=alpine_hut or tourism=chalet" />
		<tag k="name" v="Josephsbu" />
		<tag k="ssr:stedsnr" v="147225" />
		<tag k="tourism" v="wilderness_hut" />
	</node>
	<node lat="58.665397220405346" lon="7.809241674091377" id="-63554">
		<tag k="name" v="Vassend" />
		<tag k="place" v="neighbourhood" />
		<tag k="ssr:stedsnr" v="176519" />
	</node>
	<node lat="58.93356110716899" lon="7.525619441377611" id="-63558">
		<tag k="name" v="Gunnarsdalen" />
		<tag k="place" v="isolated_dwelling" />
		<tag k="ssr:stedsnr" v="182486" />
	</node>
	<node lat="58.98437500445394" lon="7.539058336664424" id="-63560">
		<tag k="name" v="Bakken" />
		<tag k="place" v="farm" />
		<tag k="ssr:stedsnr" v="182285" />
	</node>
	<node lat="58.98564999840762" lon="7.608469447542264" id="-63562">
		<tag k="name" v="Moen" />
		<tag k="place" v="farm" />
		<tag k="ssr:stedsnr" v="182292" />
	</node>
	<node lat="58.84984568246516" lon="7.670790553583687" id="-63563">
		<tag k="name" v="Fitjebakken" />
		<tag k="place" v="isolated_dwelling" />
		<tag k="ssr:stedsnr" v="182382" />
	</node>
	<node lat="58.9796694478975" lon="7.616052776224405" id="-63572">
		<tag k="name" v="Hagan" />
		<tag k="place" v="farm" />
		<tag k="ssr:stedsnr" v="183259" />
	</node>
	<node lat="58.70535555409567" lon="7.829555560376473" id="-63578">
		<tag k="name" v="Bakke" />
		<tag k="place" v="farm" />
		<tag k="ssr:stedsnr" v="183546" />
	</node>
	<node lat="58.70646111132725" lon="7.836597228408879" id="-63579">
		<tag k="name" v="Greibrokk" />
		<tag k="place" v="farm" />
		<tag k="ssr:stedsnr" v="183547" />
	</node>
	<node lat="58.706875002779675" lon="7.832849991769979" id="-63580">
		<tag k="name" v="Lande" />
		<tag k="place" v="farm" />
		<tag k="ssr:stedsnr" v="183565" />
	</node>
	<node lat="58.82926666468125" lon="7.801199996505001" id="-63582">
		<tag k="name" v="Åkhus" />
		<tag k="place" v="farm" />
		<tag k="ssr:stedsnr" v="183788" />
	</node>
	<node lat="58.7492555517596" lon="7.849830561694923" id="-63605">
		<tag k="name" v="Oppistog" />
		<tag k="place" v="farm" />
		<tag k="ssr:stedsnr" v="204191" />
	</node>
	<node lat="58.94828333165643" lon="7.505241675128239" id="-63610">
		<tag k="historic" v="shieling" />
		<tag k="name" v="Njukstøyl" />
		<tag k="place" v="isolated_dwelling" />
		<tag k="ssr:stedsnr" v="205122" />
	</node>
	<node lat="58.87071197168657" lon="7.70502490554032" id="-63646">
		<tag k="alt_name" v="Bjørkevollen;Skåmedal - Bjørkevollen" />
		<tag k="name" v="Skåmedal" />
		<tag k="place" v="farm" />
		<tag k="ssr:stedsnr" v="205341" />
	</node>
	<node lat="58.66015833455681" lon="7.822205553060711" id="-63652">
		<tag k="name" v="Søndre Vassenden" />
		<tag k="place" v="farm" />
		<tag k="ssr:stedsnr" v="205419" />
	</node>
	<node lat="58.92616944622638" lon="7.757472220945608" id="-63654">
		<tag k="name" v="Heggtveit" />
		<tag k="place" v="farm" />
		<tag k="ssr:stedsnr" v="205427" />
	</node>
	<node lat="58.9440194407532" lon="7.764300008729489" id="-63657">
		<tag k="historic" v="shieling" />
		<tag k="name" v="Bakkan" />
		<tag k="place" v="isolated_dwelling" />
		<tag k="ssr:stedsnr" v="205430" />
	</node>
	<node lat="58.843847222956605" lon="7.772522215084316" id="-63672">
		<tag k="name" v="Nesmoen" />
		<tag k="place" v="neighbourhood" />
		<tag k="ssr:stedsnr" v="209421" />
	</node>
	<node lat="58.97548611289605" lon="7.954947223498837" id="-63673">
		<tag k="historic" v="shieling" />
		<tag k="name" v="Gamlestøyl" />
		<tag k="place" v="isolated_dwelling" />
		<tag k="ssr:stedsnr" v="209375" />
	</node>
	<node lat="58.805824996857574" lon="7.910069452984565" id="-63689">
		<tag k="name" v="Lonebu vest" />
		<tag k="place" v="locality" />
		<tag k="ssr:stedsnr" v="216933" />
	</node>
	<node lat="58.90099166270238" lon="7.819691667957089" id="-63694">
		<tag k="name" v="Nabu" />
		<tag k="place" v="locality" />
		<tag k="ssr:stedsnr" v="216962" />
	</node>
	<node lat="58.85166944145566" lon="7.825333327249874" id="-63716">
		<tag k="name" v="Krosstog" />
		<tag k="place" v="farm" />
		<tag k="ssr:stedsnr" v="266133" />
	</node>
	<node lat="58.84523333715935" lon="7.826086104147056" id="-63717">
		<tag k="loc_name" v="Lii" />
		<tag k="name" v="Lien" />
		<tag k="place" v="farm" />
		<tag k="ssr:stedsnr" v="266134" />
	</node>
	<node lat="58.954213887603274" lon="7.502766672217913" id="-63727">
		<tag k="name" v="Vatnebui" />
		<tag k="place" v="isolated_dwelling" />
		<tag k="ssr:stedsnr" v="266073" />
	</node>
	<node lat="58.95166944655411" lon="7.905180555501947" id="-63755">
		<tag k="name" v="Jorisbu" />
		<tag k="place" v="locality" />
		<tag k="ssr:stedsnr" v="266833" />
	</node>
	<node lat="58.87587541225747" lon="7.843166625596708" id="-63758">
		<tag k="name" v="Nordstemmen" />
		<tag k="place" v="isolated_dwelling" />
		<tag k="ssr:stedsnr" v="270357" />
	</node>
	<node lat="58.76758611434381" lon="7.898830553871628" id="-63777">
		<tag k="name" v="Kolsvik" />
		<tag k="place" v="isolated_dwelling" />
		<tag k="ssr:stedsnr" v="276956" />
	</node>
	<node lat="59.065388887845565" lon="7.816936113142388" id="-63792">
		<tag k="historic" v="shieling" />
		<tag k="name" v="Leivsstøyl" />
		<tag k="old_name" v="Leivstøl" />
		<tag k="place" v="isolated_dwelling" />
		<tag k="ssr:stedsnr" v="304450" />
	</node>
	<node lat="58.91235833054478" lon="7.484891674577646" id="-63794">
		<tag k="name" v="Brattestøyl" />
		<tag k="place" v="locality" />
		<tag k="ssr:stedsnr" v="304463" />
	</node>
	<node lat="58.923347224808225" lon="7.666419441622078" id="-63795">
		<tag k="historic" v="shieling" />
		<tag k="name" v="Fisstøyl" />
		<tag k="place" v="isolated_dwelling" />
		<tag k="ssr:stedsnr" v="304467" />
	</node>
	<node lat="58.86712777440628" lon="7.350152783218075" id="-63804">
		<tag k="name" v="Pytten" />
		<tag k="place" v="farm" />
		<tag k="ssr:stedsnr" v="304423" />
	</node>
	<node lat="58.66612499627464" lon="7.813113891149966" id="-63810">
		<tag k="name" v="Byglandsfjord" />
		<tag k="place" v="village" />
		<tag k="ssr:stedsnr" v="304617" />
	</node>
	<node lat="58.968951313171274" lon="7.91289419133496" id="-63812">
		<tag k="name" v="Løyningsli" />
		<tag k="place" v="locality" />
		<tag k="ssr:stedsnr" v="304624" />
	</node>
	<node lat="58.931370091995646" lon="7.759021640736635" id="-63816">
		<tag k="alt_name" v="Skei" />
		<tag k="name" v="Skeie" />
		<tag k="place" v="farm" />
		<tag k="ssr:stedsnr" v="304667" />
	</node>
	<node lat="58.9360138930007" lon="7.833483330150874" id="-63817">
		<tag k="historic" v="shieling" />
		<tag k="name" v="Syrdalen" />
		<tag k="place" v="isolated_dwelling" />
		<tag k="ssr:stedsnr" v="304678" />
	</node>
	<node lat="59.08914166222819" lon="7.827308328735196" id="-63824">
		<tag k="historic" v="shieling" />
		<tag k="name" v="Ivarsstøyl" />
		<tag k="old_name" v="Ivarstøl" />
		<tag k="place" v="isolated_dwelling" />
		<tag k="ssr:stedsnr" v="305465" />
	</node>
	<node lat="58.91473611111182" lon="7.714847223045143" id="-63826">
		<tag k="name" v="Nedgarden" />
		<tag k="place" v="farm" />
		<tag k="ssr:stedsnr" v="326032" />
	</node>
	<node lat="58.92080277771244" lon="7.745519450760546" id="-63828">
		<tag k="name" v="Urdi" />
		<tag k="place" v="farm" />
		<tag k="ssr:stedsnr" v="326295" />
	</node>
	<node lat="59.01802777588912" lon="7.5542416680688245" id="-63832">
		<tag k="name" v="Hækni" />
		<tag k="place" v="locality" />
		<tag k="ssr:stedsnr" v="326088" />
	</node>
	<node lat="58.74739444645634" lon="7.848341659409613" id="-63857">
		<tag k="name" v="Nedre Søbø" />
		<tag k="place" v="farm" />
		<tag k="ssr:stedsnr" v="326228" />
	</node>
	<node lat="58.758020692189156" lon="7.853122385054567" id="-63860">
		<tag k="name" v="Strandheim" />
		<tag k="place" v="farm" />
		<tag k="ssr:stedsnr" v="326241" />
	</node>
	<node lat="58.946577780423034" lon="7.694205556508614" id="-63889">
		<tag k="name" v="Neset" />
		<tag k="place" v="locality" />
		<tag k="ssr:stedsnr" v="331247" />
	</node>
	<node lat="59.00260555885581" lon="7.433602771300814" id="-63909">
		<tag k="historic" v="shieling" />
		<tag k="name" v="Grjobudalstøyl" />
		<tag k="place" v="isolated_dwelling" />
		<tag k="ssr:stedsnr" v="337798" />
	</node>
	<node lat="58.87650833100096" lon="7.985224994292331" id="-63912">
		<tag k="historic" v="shieling" />
		<tag k="name" v="Skjevlevatsstøyl" />
		<tag k="place" v="isolated_dwelling" />
		<tag k="ssr:stedsnr" v="337892" />
	</node>
	<node lat="58.939066669793256" lon="7.787875001312117" id="-63915">
		<tag k="name" v="Haugetveit" />
		<tag k="place" v="farm" />
		<tag k="ssr:stedsnr" v="364658" />
	</node>
	<node lat="58.85679444389416" lon="7.822591671395831" id="-63916">
		<tag k="alt_name" v="Norstebø" />
		<tag k="name" v="Nørdstebø" />
		<tag k="place" v="farm" />
		<tag k="ssr:stedsnr" v="364747" />
	</node>
	<node lat="58.8522527798619" lon="7.933644444236716" id="-63917">
		<tag k="historic" v="shieling" />
		<tag k="name" v="Trodverk" />
		<tag k="place" v="isolated_dwelling" />
		<tag k="ssr:stedsnr" v="364751" />
	</node>
	<node lat="58.84534045887792" lon="7.755019768029227" id="-63918">
		<tag k="name" v="Stigemo" />
		<tag k="place" v="farm" />
		<tag k="ssr:stedsnr" v="364754" />
	</node>
	<node lat="58.9904027764132" lon="7.53784167495984" id="-63924">
		<tag k="name" v="Teigen" />
		<tag k="place" v="farm" />
		<tag k="ssr:stedsnr" v="364336" />
	</node>
	<node lat="58.98237526561396" lon="7.705784518405191" id="-63929">
		<tag k="name" v="Fossen" />
		<tag k="place" v="locality" />
		<tag k="ssr:stedsnr" v="364296" />
	</node>
	<node lat="58.75134166379588" lon="7.808275006169073" id="-63932">
		<tag k="name" v="Solli" />
		<tag k="place" v="farm" />
		<tag k="ssr:stedsnr" v="364888" />
	</node>
	<node lat="58.711636111844705" lon="7.710047220679804" id="-63935">
		<tag k="alt_name" v="Revstøyl" />
		<tag k="historic" v="shieling" />
		<tag k="name" v="Revestøyl" />
		<tag k="place" v="isolated_dwelling" />
		<tag k="ssr:stedsnr" v="365224" />
	</node>
	<node lat="58.70680833188733" lon="7.708688889881023" id="-63936">
		<tag k="historic" v="shieling" />
		<tag k="name" v="Sandvasstøylen" />
		<tag k="place" v="isolated_dwelling" />
		<tag k="ssr:stedsnr" v="365227" />
	</node>
	<node lat="58.961048442319" lon="7.602004283143136" id="-63939">
		<tag k="historic" v="shieling" />
		<tag k="name" v="Skardstøyl" />
		<tag k="place" v="isolated_dwelling" />
		<tag k="ssr:stedsnr" v="365291" />
	</node>
	<node lat="58.79426944717322" lon="7.652391672813554" id="-63940">
		<tag k="name" v="Sandvassbui" />
		<tag k="place" v="locality" />
		<tag k="ssr:stedsnr" v="365540" />
	</node>
	<node lat="58.860845883386325" lon="7.743767253211581" id="-63945">
		<tag k="name" v="Ellingstjønn" />
		<tag k="place" v="isolated_dwelling" />
		<tag k="ssr:stedsnr" v="365744" />
	</node>
	<node lat="58.912519441910455" lon="7.71329444204792" id="-63951">
		<tag k="name" v="Storrvollen" />
		<tag k="place" v="farm" />
		<tag k="ssr:stedsnr" v="387045" />
	</node>
	<node lat="58.91808610913023" lon="7.742388896165273" id="-63964">
		<tag k="name" v="Eldhuset" />
		<tag k="place" v="farm" />
		<tag k="ssr:stedsnr" v="387313" />
	</node>
	<node lat="58.9160888901904" lon="7.738538895818375" id="-63965">
		<tag k="name" v="Haugen" />
		<tag k="place" v="farm" />
		<tag k="ssr:stedsnr" v="387315" />
	</node>
	<node lat="58.84849166740293" lon="7.82326388652069" id="-63973">
		<tag k="name" v="Jørundli" />
		<tag k="place" v="farm" />
		<tag k="ssr:stedsnr" v="387139" />
	</node>
	<node lat="58.84588611543858" lon="7.816980563098862" id="-63974">
		<tag k="name" v="Granholtet" />
		<tag k="place" v="farm" />
		<tag k="ssr:stedsnr" v="387142" />
	</node>
	<node lat="58.793672225459645" lon="7.847786106966626" id="-63975">
		<tag k="historic" v="shieling" />
		<tag k="name" v="Finnstøyl" />
		<tag k="place" v="isolated_dwelling" />
		<tag k="ssr:stedsnr" v="387151" />
	</node>
	<node lat="58.654358333029336" lon="7.8203416641384464" id="-63978">
		<tag k="name" v="Hjuringhuset" />
		<tag k="place" v="farm" />
		<tag k="ssr:stedsnr" v="387392" />
	</node>
	<node lat="58.962702781602175" lon="7.731533331573604" id="-63984">
		<tag k="historic" v="shieling" />
		<tag k="name" v="Høyvegen" />
		<tag k="place" v="isolated_dwelling" />
		<tag k="ssr:stedsnr" v="387436" />
	</node>
	<node lat="58.91495277528866" lon="7.7831694367898505" id="-63987">
		<tag k="historic" v="shieling" />
		<tag k="name" v="Hyvrestøyl" />
		<tag k="place" v="isolated_dwelling" />
		<tag k="ssr:stedsnr" v="387831" />
	</node>
	<node lat="58.97663055574119" lon="7.806247229680485" id="-63989">
		<tag k="historic" v="shieling" />
		<tag k="name" v="Myrstøyl" />
		<tag k="place" v="isolated_dwelling" />
		<tag k="ssr:stedsnr" v="387850" />
	</node>
	<node lat="58.97632500247705" lon="7.531780552236852" id="-64018">
		<tag k="name" v="Simdalen" />
		<tag k="place" v="isolated_dwelling" />
		<tag k="ssr:stedsnr" v="425285" />
	</node>
	<node lat="58.98079444278711" lon="7.670033334198435" id="-64019">
		<tag k="name" v="Heistad" />
		<tag k="place" v="hamlet" />
		<tag k="ssr:stedsnr" v="425290" />
	</node>
	<node lat="58.8276888903294" lon="7.810969444133556" id="-64032">
		<tag k="alt_name" v="Bås" />
		<tag k="name" v="Båstøl" />
		<tag k="place" v="farm" />
		<tag k="ssr:stedsnr" v="425784" />
	</node>
	<node lat="58.84553055312048" lon="7.825538890720119" id="-64033">
		<tag k="name" v="Enkjesæte" />
		<tag k="place" v="farm" />
		<tag k="ssr:stedsnr" v="425786" />
	</node>
	<node lat="58.94984999969808" lon="7.698041659477297" id="-64036">
		<tag k="name" v="Viki" />
		<tag k="place" v="farm" />
		<tag k="ssr:stedsnr" v="426256" />
	</node>
	<node lat="58.96251475012502" lon="7.628529254675267" id="-64037">
		<tag k="alt_name" v="Midthommen" />
		<tag k="name" v="Medhommen" />
		<tag k="place" v="locality" />
		<tag k="ssr:stedsnr" v="426260" />
	</node>
	<node lat="58.67536111240958" lon="7.9186638951501" id="-64043">
		<tag k="name" v="Fjelltun" />
		<tag k="place" v="isolated_dwelling" />
		<tag k="ssr:stedsnr" v="426601" />
	</node>
	<node lat="58.875236764909886" lon="7.875972994680461" id="-64052">
		<tag k="alt_name" v="Tollhomstøyl" />
		<tag k="name" v="Tolhamstøl" />
		<tag k="place" v="isolated_dwelling" />
		<tag k="ssr:stedsnr" v="426725" />
	</node>
	<node lat="58.773358331263296" lon="7.891911110923372" id="-64057">
		<tag k="alt_name" v="Gamma" />
		<tag k="name" v="Gammen" />
		<tag k="place" v="locality" />
		<tag k="ssr:stedsnr" v="426839" />
	</node>
	<node lat="58.88306762528987" lon="7.682164560097281" id="-64077">
		<tag k="historic" v="shieling" />
		<tag k="name" v="Høystøyl" />
		<tag k="place" v="isolated_dwelling" />
		<tag k="ssr:stedsnr" v="486458" />
	</node>
	<node lat="58.89090833544314" lon="7.664213881928319" id="-64078">
		<tag k="historic" v="shieling" />
		<tag k="name" v="Myrstøyl" />
		<tag k="place" v="isolated_dwelling" />
		<tag k="ssr:stedsnr" v="486459" />
	</node>
	<node lat="58.869989036242835" lon="7.886910794167853" id="-64089">
		<tag k="alt_name" v="Sivårstøyl" />
		<tag k="name" v="Sivårstøl" />
		<tag k="place" v="isolated_dwelling" />
		<tag k="ssr:stedsnr" v="486735" />
	</node>
	<node lat="59.02947222049165" lon="7.853738893656754" id="-64091">
		<tag k="alt_name" v="Kile, vestre" />
		<tag k="name" v="Vestre Kile" />
		<tag k="place" v="farm" />
		<tag k="ssr:stedsnr" v="487528" />
	</node>
	<node lat="59.02726111113231" lon="7.8095111091562925" id="-64092">
		<tag k="alt_name" v="Drivslistøylen" />
		<tag k="historic" v="shieling" />
		<tag k="name" v="Driftsli" />
		<tag k="place" v="isolated_dwelling" />
		<tag k="ssr:stedsnr" v="487533" />
	</node>
	<node lat="58.80468055906203" lon="7.855524996189244" id="-64095">
		<tag k="historic" v="shieling" />
		<tag k="name" v="Holestøyl" />
		<tag k="place" v="isolated_dwelling" />
		<tag k="ssr:stedsnr" v="508137" />
	</node>
	<node lat="58.734416665283405" lon="7.895463894430277" id="-64097">
		<tag k="historic" v="shieling" />
		<tag k="name" v="Tjørnstøyl" />
		<tag k="place" v="isolated_dwelling" />
		<tag k="ssr:stedsnr" v="508144" />
	</node>
	<node lat="58.74660278000807" lon="7.850044447677924" id="-64104">
		<tag k="name" v="Øvre Søbø" />
		<tag k="place" v="farm" />
		<tag k="ssr:stedsnr" v="508229" />
	</node>
	<node lat="58.74531973073492" lon="7.8461506276166135" id="-64105">
		<tag k="name" v="Vittenberg" />
		<tag k="place" v="farm" />
		<tag k="ssr:stedsnr" v="508230" />
	</node>
	<node lat="58.95644444816548" lon="7.500002778729032" id="-64107">
		<tag k="historic" v="shieling" />
		<tag k="name" v="Håvestøyl" />
		<tag k="place" v="isolated_dwelling" />
		<tag k="ssr:stedsnr" v="508071" />
	</node>
	<node lat="58.81083333642572" lon="7.827572228796893" id="-64110">
		<tag k="name" v="Heddemoen" />
		<tag k="place" v="locality" />
		<tag k="ssr:stedsnr" v="508085" />
	</node>
	<node lat="58.837283335243136" lon="7.800463896537238" id="-64112">
		<tag k="name" v="Kjømle" />
		<tag k="place" v="farm" />
		<tag k="ssr:stedsnr" v="508098" />
	</node>
	<node lat="58.85226389247104" lon="7.747602770184243" id="-64120">
		<tag k="name" v="Straumen" />
		<tag k="place" v="locality" />
		<tag k="ssr:stedsnr" v="508392" />
	</node>
	<node lat="58.96935278155497" lon="7.918805562273536" id="-64133">
		<tag k="historic" v="shieling" />
		<tag k="name" v="Løyningsli nedre" />
		<tag k="place" v="isolated_dwelling" />
		<tag k="ssr:stedsnr" v="508839" />
	</node>
	<node lat="58.93834722422716" lon="7.754847218580216" id="-64141">
		<tag k="name" v="Borgaråsen" />
		<tag k="place" v="isolated_dwelling" />
		<tag k="ssr:stedsnr" v="508439" />
	</node>
	<node lat="58.92726389324045" lon="7.752547224370795" id="-64144">
		<tag k="name" v="Gakkestad nedre" />
		<tag k="place" v="farm" />
		<tag k="ssr:stedsnr" v="508458" />
	</node>
	<node lat="58.84459722273318" lon="7.9959444385826295" id="-64145">
		<tag k="name" v="Kraftverkshytta" />
		<tag k="place" v="isolated_dwelling" />
		<tag k="ssr:stedsnr" v="508529" />
	</node>
	<node lat="58.66819721805383" lon="7.813663893983418" id="-64146">
		<tag k="name" v="Frøyraksmoen" />
		<tag k="place" v="farm" />
		<tag k="ssr:stedsnr" v="508537" />
	</node>
	<node lat="58.97131667048203" lon="7.763147218448421" id="-64151">
		<tag k="historic" v="shieling" />
		<tag k="name" v="Replestøyl" />
		<tag k="place" v="isolated_dwelling" />
		<tag k="ssr:stedsnr" v="509362" />
	</node>
	<node lat="58.94529444123879" lon="7.686380562675936" id="-64153">
		<tag k="historic" v="shieling" />
		<tag k="name" v="Fossli" />
		<tag k="place" v="isolated_dwelling" />
		<tag k="ssr:stedsnr" v="513259" />
	</node>
	<node lat="59.04717499841698" lon="7.821722215975844" id="-64161">
		<tag k="name" v="Stemmhytta" />
		<tag k="place" v="locality" />
		<tag k="ssr:stedsnr" v="519730" />
	</node>
	<node lat="58.978144445650315" lon="7.585669442608728" id="-64184">
		<tag k="name" v="Haugen" />
		<tag k="place" v="farm" />
		<tag k="ssr:stedsnr" v="546267" />
	</node>
	<node lat="58.77972778091132" lon="7.674566661287241" id="-64187">
		<tag k="alt_name" v="Gy" />
		<tag k="name" v="Gybui" />
		<tag k="place" v="isolated_dwelling" />
		<tag k="ssr:stedsnr" v="546511" />
	</node>
	<node lat="58.9171277745001" lon="7.949774998985924" id="-64192">
		<tag k="alt_name" v="Teosstøyl" />
		<tag k="historic" v="shieling" />
		<tag k="name" v="Teosstøl" />
		<tag k="place" v="isolated_dwelling" />
		<tag k="ssr:stedsnr" v="546650" />
	</node>
	<node lat="59.06259788533857" lon="7.773120331478499" id="-64212">
		<tag k="alt_name" v="Repledalen" />
		<tag k="name" v="Ripledalen" />
		<tag k="place" v="locality" />
		<tag k="ssr:stedsnr" v="547500" />
	</node>
	<node lat="58.70891388751564" lon="7.905627769706517" id="-64213">
		<tag k="name" v="Vatneøygard" />
		<tag k="place" v="locality" />
		<tag k="ssr:stedsnr" v="547633" />
	</node>
	<node lat="58.969772945242056" lon="7.933467942404646" id="-64216">
		<tag k="alt_name" v="Årdalsstøyl" />
		<tag k="historic" v="shieling" />
		<tag k="name" v="Årdalstøl" />
		<tag k="place" v="isolated_dwelling" />
		<tag k="ssr:stedsnr" v="547659" />
	</node>
	<node lat="58.65442777372586" lon="7.820791672085032" id="-64226">
		<tag k="name" v="Skogly" />
		<tag k="place" v="farm" />
		<tag k="ssr:stedsnr" v="547556" />
	</node>
	<node lat="58.77770549244324" lon="7.766710646981583" id="-64228">
		<tag k="name" v="Kopsås" />
		<tag k="place" v="locality" />
		<tag k="ssr:stedsnr" v="547867" />
	</node>
	<node lat="58.83427499651017" lon="7.791380551665616" id="-64241">
		<tag k="name" v="Haugå" />
		<tag k="place" v="farm" />
		<tag k="ssr:stedsnr" v="569019" />
	</node>
	<node lat="58.69956110977235" lon="7.835430560570084" id="-64244">
		<tag k="name" v="Stareholtet" />
		<tag k="place" v="farm" />
		<tag k="ssr:stedsnr" v="569037" />
	</node>
	<node lat="58.70608055461367" lon="7.846041665903334" id="-64246">
		<tag k="name" v="Nygård" />
		<tag k="place" v="farm" />
		<tag k="ssr:stedsnr" v="569060" />
	</node>
	<node lat="58.75065833276131" lon="7.850783338439727" id="-64252">
		<tag k="name" v="Knutsstog" />
		<tag k="place" v="farm" />
		<tag k="ssr:stedsnr" v="569236" />
	</node>
	<node lat="58.8552249971836" lon="7.834386105411267" id="-64266">
		<tag k="name" v="Uppsal" />
		<tag k="place" v="farm" />
		<tag k="ssr:stedsnr" v="569425" />
	</node>
	<node lat="58.9779027747143" lon="7.6724416671523965" id="-64281">
		<tag k="alt_name" v="Heistad søndre" />
		<tag k="name" v="Søndre Heistad" />
		<tag k="place" v="farm" />
		<tag k="ssr:stedsnr" v="569452" />
	</node>
	<node lat="58.995241664126894" lon="7.442791672079981" id="-64312">
		<tag k="historic" v="shieling" />
		<tag k="name" v="Steinetjønnstøyl" />
		<tag k="place" v="isolated_dwelling" />
		<tag k="ssr:stedsnr" v="580787" />
	</node>
	<node lat="58.746744444730524" lon="7.78863055112616" id="-64319">
		<tag k="name" v="Dalskilen hyttefelt" />
		<tag k="place" v="neighbourhood" />
		<tag k="ssr:stedsnr" v="605338" />
	</node>
	<node lat="58.665047223481" lon="7.820755559398434" id="-64320">
		<tag k="name" v="Vassend" />
		<tag k="place" v="hamlet" />
		<tag k="ssr:stedsnr" v="605444" />
	</node>
	<node lat="58.974536112427664" lon="7.567980547502859" id="-64327">
		<tag k="name" v="Granheim" />
		<tag k="ssr:stedsnr" v="607288" />
		<tag k="tourism" v="hotel" />
	</node>
	<node lat="58.96815639406347" lon="7.394293211776907" id="-64329">
		<tag k="name" v="Røynlikvæven" />
		<tag k="place" v="locality" />
		<tag k="ssr:stedsnr" v="607300" />
	</node>
	<node lat="58.87674444394727" lon="7.7023888964487135" id="-64331">
		<tag k="name" v="Skåmedal" />
		<tag k="place" v="quarter" />
		<tag k="ssr:stedsnr" v="607434" />
	</node>
	<node lat="58.86818610931726" lon="7.547730560236897" id="-64333">
		<tag k="historic" v="shieling" />
		<tag k="name" v="Myhola" />
		<tag k="place" v="isolated_dwelling" />
		<tag k="ssr:stedsnr" v="607437" />
	</node>
	<node lat="58.809608334058154" lon="7.762544441062221" id="-64340">
		<tag k="alt_name" v="Søjordet" />
		<tag k="name" v="Søejordet" />
		<tag k="place" v="farm" />
		<tag k="ssr:stedsnr" v="607794" />
	</node>
	<node lat="58.91355000140723" lon="7.6994777863727615" id="-64344">
		<tag k="historic" v="shieling" />
		<tag k="name" v="Andvor" />
		<tag k="place" v="isolated_dwelling" />
		<tag k="ssr:stedsnr" v="607466" />
	</node>
	<node lat="58.888880555296105" lon="7.726002773778285" id="-64352">
		<tag k="name" v="Sandnes" />
		<tag k="place" v="hamlet" />
		<tag k="ssr:stedsnr" v="607687" />
	</node>
	<node lat="58.95395277631415" lon="7.88568054804189" id="-64355">
		<tag k="alt_name" v="Grytingskaret" />
		<tag k="name" v="Grytingskardet" />
		<tag k="place" v="locality" />
		<tag k="ssr:stedsnr" v="607641" />
	</node>
	<node lat="58.717683329910294" lon="7.793963882487524" id="-64361">
		<tag k="name" v="Prestnes" />
		<tag k="place" v="isolated_dwelling" />
		<tag k="ssr:stedsnr" v="607927" />
	</node>
	<node lat="59.00857777754378" lon="7.776011111016408" id="-64362">
		<tag k="alt_name" v="Hæringstøl" />
		<tag k="historic" v="shieling" />
		<tag k="loc_name" v="Hæringstøyl" />
		<tag k="name" v="Hæringsstøylen" />
		<tag k="place" v="isolated_dwelling" />
		<tag k="ssr:stedsnr" v="608027" />
	</node>
	<node lat="59.01797509073139" lon="7.777405063849013" id="-64364">
		<tag k="historic" v="shieling" />
		<tag k="name" v="Søtefjellstøylen" />
		<tag k="old_name" v="Søtefjellsstølen" />
		<tag k="place" v="isolated_dwelling" />
		<tag k="ssr:stedsnr" v="608538" />
	</node>
	<node lat="58.96272500374478" lon="7.611030558705473" id="-64379">
		<tag k="historic" v="shieling" />
		<tag k="name" v="Hommen" />
		<tag k="place" v="isolated_dwelling" />
		<tag k="ssr:stedsnr" v="629495" />
	</node>
	<node lat="58.9239111131863" lon="7.62753056222513" id="-64381">
		<tag k="historic" v="shieling" />
		<tag k="name" v="Histribu" />
		<tag k="place" v="isolated_dwelling" />
		<tag k="ssr:stedsnr" v="629069" />
	</node>
	<node lat="58.753905552512265" lon="7.782549996184664" id="-64406">
		<tag k="name" v="Ryningen" />
		<tag k="place" v="locality" />
		<tag k="ssr:stedsnr" v="629432" />
	</node>
	<node lat="58.87926222869658" lon="7.703341952697781" id="-64411">
		<tag k="alt_name" v="Nørstevoll" />
		<tag k="name" v="Skåmedal" />
		<tag k="place" v="farm" />
		<tag k="ssr:stedsnr" v="629289" />
	</node>
	<node lat="58.96893333436783" lon="7.912908340211142" id="-64431">
		<tag k="historic" v="shieling" />
		<tag k="name" v="Løyningsli øvre" />
		<tag k="place" v="isolated_dwelling" />
		<tag k="ssr:stedsnr" v="629831" />
	</node>
	<node lat="58.80717686804786" lon="7.8984709196581315" id="-64434">
		<tag k="historic" v="shieling" />
		<tag k="name" v="Storehom" />
		<tag k="old_name" v="Homme" />
		<tag k="place" v="isolated_dwelling" />
		<tag k="ssr:stedsnr" v="633354" />
	</node>
	<node lat="58.80595277796837" lon="7.893263891524663" id="-64435">
		<tag k="historic" v="shieling" />
		<tag k="name" v="Lislehom" />
		<tag k="place" v="isolated_dwelling" />
		<tag k="ssr:stedsnr" v="633355" />
	</node>
	<node lat="58.78507777714132" lon="7.890708326586125" id="-64436">
		<tag k="name" v="Gråbu" />
		<tag k="place" v="isolated_dwelling" />
		<tag k="ssr:stedsnr" v="633358" />
	</node>
	<node lat="58.90647221952705" lon="7.52912222806591" id="-64439">
		<tag k="historic" v="shieling" />
		<tag k="name" v="Krostøyl" />
		<tag k="place" v="isolated_dwelling" />
		<tag k="ssr:stedsnr" v="634265" />
	</node>
	<node lat="58.92458333192539" lon="7.6072055592604055" id="-64481">
		<tag k="name" v="Solli" />
		<tag k="place" v="isolated_dwelling" />
		<tag k="ssr:stedsnr" v="728461" />
	</node>
	<node lat="58.70687777543229" lon="7.824986108576936" id="-64487">
		<tag k="name" v="Grendi" />
		<tag k="place" v="quarter" />
		<tag k="ssr:stedsnr" v="729573" />
	</node>
	<node lat="58.70985555288961" lon="7.762261108095647" id="-64489">
		<tag k="name" v="Tveitå" />
		<tag k="place" v="farm" />
		<tag k="ssr:stedsnr" v="729588" />
	</node>
	<node lat="58.973263892666125" lon="7.751697222949033" id="-64490">
		<tag k="name" v="Hillesgrø" />
		<tag k="place" v="locality" />
		<tag k="ssr:stedsnr" v="729602" />
	</node>
	<node lat="58.95436666565825" lon="7.643577779290025" id="-64492">
		<tag k="name" v="Småstøylan" />
		<tag k="place" v="locality" />
		<tag k="ssr:stedsnr" v="729282" />
	</node>
	<node lat="58.96208888712974" lon="7.679100002196327" id="-64496">
		<tag k="name" v="Austad" />
		<tag k="place" v="quarter" />
		<tag k="ssr:stedsnr" v="729296" />
	</node>
	<node lat="58.85606852146426" lon="7.911990821295162" id="-64510">
		<tag k="name" v="Vasstrand" />
		<tag k="place" v="isolated_dwelling" />
		<tag k="ssr:stedsnr" v="729774" />
	</node>
	<node lat="58.793700003024256" lon="7.821788884271505" id="-64513">
		<tag k="name" v="Hage" />
		<tag k="place" v="farm" />
		<tag k="ssr:stedsnr" v="729794" />
	</node>
	<node lat="58.74890278120176" lon="7.781911111781317" id="-64528">
		<tag k="name" v="Hågebakk" />
		<tag k="place" v="farm" />
		<tag k="ssr:stedsnr" v="751087" />
	</node>
	<node lat="58.926727778200444" lon="7.846502769940054" id="-64556">
		<tag k="name" v="Mjåvatshytta" />
		<tag k="place" v="isolated_dwelling" />
		<tag k="ssr:stedsnr" v="751841" />
	</node>
	<node lat="58.84809444876124" lon="7.959713887852547" id="-64570">
		<tag k="historic" v="shieling" />
		<tag k="name" v="Øyerdalstøyl" />
		<tag k="place" v="isolated_dwelling" />
		<tag k="ssr:stedsnr" v="751495" />
	</node>
	<node lat="58.927688889916276" lon="7.974172220076198" id="-64573">
		<tag k="historic" v="shieling" />
		<tag k="name" v="Kvislestøyl" />
		<tag k="place" v="isolated_dwelling" />
		<tag k="ssr:stedsnr" v="751806" />
	</node>
	<node lat="59.03302499936208" lon="7.755513887200233" id="-64576">
		<tag k="historic" v="shieling" />
		<tag k="name" v="Steinsvasstøylen nordre" />
		<tag k="place" v="isolated_dwelling" />
		<tag k="ssr:stedsnr" v="752381" />
	</node>
	<node lat="59.014627778121515" lon="7.605961107746958" id="-64587">
		<tag k="historic" v="shieling" />
		<tag k="name" v="Pålstjønnstøylen" />
		<tag k="place" v="isolated_dwelling" />
		<tag k="ssr:stedsnr" v="762675" />
	</node>
	<node lat="59.024105556167164" lon="7.646452770711635" id="-64588">
		<tag k="historic" v="shieling" />
		<tag k="name" v="Birkenesstøylen" />
		<tag k="place" v="isolated_dwelling" />
		<tag k="ssr:stedsnr" v="762677" />
	</node>
	<node lat="58.74773889176153" lon="7.703294436247644" id="-64594">
		<tag k="historic" v="shieling" />
		<tag k="name" v="Rjupestøyl" />
		<tag k="place" v="isolated_dwelling" />
		<tag k="ssr:stedsnr" v="762825" />
	</node>
	<node lat="58.99937446313553" lon="7.655573142918751" id="-64614">
		<tag k="alt_name" v="Heisvasstøylen" />
		<tag k="historic" v="shieling" />
		<tag k="name" v="Heisvasstøl" />
		<tag k="place" v="isolated_dwelling" />
		<tag k="ssr:stedsnr" v="789340" />
	</node>
	<node lat="58.996766666841715" lon="7.619474994592587" id="-64615">
		<tag k="alt_name" v="Bergstøylen" />
		<tag k="historic" v="shieling" />
		<tag k="name" v="Berget" />
		<tag k="place" v="isolated_dwelling" />
		<tag k="ssr:stedsnr" v="789342" />
	</node>
	<node lat="58.99483333173597" lon="7.595280560348282" id="-64616">
		<tag k="name" v="Dale" />
		<tag k="place" v="locality" />
		<tag k="ssr:stedsnr" v="789344" />
	</node>
	<node lat="58.91344999829533" lon="7.757044443593222" id="-64620">
		<tag k="alt_name" v="Rosevoll" />
		<tag k="name" v="Rosevall" />
		<tag k="place" v="farm" />
		<tag k="ssr:stedsnr" v="789679" />
	</node>
	<node lat="58.897688893281114" lon="7.756586105786526" id="-64623">
		<tag k="name" v="Klepp" />
		<tag k="place" v="isolated_dwelling" />
		<tag k="ssr:stedsnr" v="789693" />
	</node>
	<node lat="58.832388892684776" lon="7.780613893975978" id="-64629">
		<tag k="name" v="Nese" />
		<tag k="place" v="farm" />
		<tag k="ssr:stedsnr" v="789787" />
	</node>
	<node lat="58.785238889574806" lon="7.789725003522374" id="-64630">
		<tag k="name" v="Nånes" />
		<tag k="place" v="farm" />
		<tag k="ssr:stedsnr" v="789790" />
	</node>
	<node lat="58.85420277928497" lon="7.822813889791935" id="-64634">
		<tag k="name" v="Nerhus" />
		<tag k="place" v="farm" />
		<tag k="ssr:stedsnr" v="789742" />
	</node>
	<node lat="59.022752781877344" lon="7.6785472277631195" id="-64638">
		<tag k="historic" v="shieling" />
		<tag k="name" v="Nyestøyl" />
		<tag k="place" v="isolated_dwelling" />
		<tag k="ssr:stedsnr" v="790272" />
	</node>
	<node lat="59.034372221945034" lon="7.643386112986195" id="-64644">
		<tag k="alt_name" v="Skuggestøyl" />
		<tag k="historic" v="shieling" />
		<tag k="name" v="Skuggestøl" />
		<tag k="place" v="isolated_dwelling" />
		<tag k="ssr:stedsnr" v="790245" />
	</node>
	<node lat="58.96276839589704" lon="7.940121653017058" id="-64649">
		<tag k="alt_name" v="Listøyl" />
		<tag k="historic" v="shieling" />
		<tag k="name" v="Listøl" />
		<tag k="place" v="isolated_dwelling" />
		<tag k="ssr:stedsnr" v="790674" />
	</node>
	<node lat="58.95067777860142" lon="7.865683327722789" id="-64650">
		<tag k="historic" v="shieling" />
		<tag k="name" v="Sveling" />
		<tag k="place" v="isolated_dwelling" />
		<tag k="ssr:stedsnr" v="790682" />
	</node>
	<node lat="58.71812222492533" lon="7.841544448174045" id="-64653">
		<tag k="name" v="Jernbergi" />
		<tag k="place" v="isolated_dwelling" />
		<tag k="ssr:stedsnr" v="811008" />
	</node>
	<node lat="58.70733055452621" lon="7.838263880803465" id="-64659">
		<tag k="name" v="Lunden" />
		<tag k="place" v="farm" />
		<tag k="ssr:stedsnr" v="812049" />
	</node>
	<node lat="59.01409722195956" lon="7.725405559113355" id="-64666">
		<tag k="alt_name" v="Langeberg" />
		<tag k="historic" v="shieling" />
		<tag k="name" v="Langebergstøylen" />
		<tag k="place" v="isolated_dwelling" />
		<tag k="ssr:stedsnr" v="812430" />
	</node>
	<node lat="58.69975000338573" lon="7.834052776766138" id="-64671">
		<tag k="name" v="Steinli" />
		<tag k="place" v="farm" />
		<tag k="ssr:stedsnr" v="812027" />
	</node>
	<node lat="58.793083333057616" lon="7.8432722163949435" id="-64684">
		<tag k="historic" v="shieling" />
		<tag k="name" v="Ospehomm" />
		<tag k="place" v="isolated_dwelling" />
		<tag k="ssr:stedsnr" v="812152" />
	</node>
	<node lat="58.83190555964425" lon="7.762847215902666" id="-64690">
		<tag k="historic" v="shieling" />
		<tag k="name" v="Nesstøylen" />
		<tag k="place" v="isolated_dwelling" />
		<tag k="ssr:stedsnr" v="812269" />
	</node>
	<node lat="58.85092777896096" lon="7.743169438169101" id="-64697">
		<tag k="name" v="Straumsland" />
		<tag k="place" v="locality" />
		<tag k="ssr:stedsnr" v="812370" />
	</node>
	<node lat="58.860716669006365" lon="7.895952782465631" id="-64701">
		<tag k="name" v="Skogskolehytta" />
		<tag k="place" v="isolated_dwelling" />
		<tag k="ssr:stedsnr" v="812457" />
	</node>
	<node lat="58.95843888855113" lon="7.681483328400509" id="-64710">
		<tag k="name" v="Austad søndre" />
		<tag k="place" v="farm" />
		<tag k="ssr:stedsnr" v="812524" />
	</node>
	<node lat="58.96725278213256" lon="7.891788893607344" id="-64713">
		<tag k="historic" v="shieling" />
		<tag k="name" v="Vormeviki" />
		<tag k="place" v="isolated_dwelling" />
		<tag k="ssr:stedsnr" v="812842" />
	</node>
	<node lat="59.03084166905944" lon="7.758566668175501" id="-64719">
		<tag k="historic" v="shieling" />
		<tag k="name" v="Steinsvasstøylen søndre" />
		<tag k="place" v="isolated_dwelling" />
		<tag k="ssr:stedsnr" v="813359" />
	</node>
	<node lat="58.88028610768268" lon="7.862600000681628" id="-64720">
		<tag k="historic" v="shieling" />
		<tag k="name" v="Myrstøyl" />
		<tag k="place" v="isolated_dwelling" />
		<tag k="ssr:stedsnr" v="816340" />
	</node>
	<node lat="59.03495277881103" lon="7.848433330216372" id="-64722">
		<tag k="name" v="Fjalskå" />
		<tag k="place" v="isolated_dwelling" />
		<tag k="ssr:stedsnr" v="816469" />
	</node>
	<node lat="59.05085555785946" lon="7.861324995975536" id="-64723">
		<tag k="alt_name" v="Venelistøylen" />
		<tag k="historic" v="shieling" />
		<tag k="name" v="Venelistøyl" />
		<tag k="place" v="isolated_dwelling" />
		<tag k="ssr:stedsnr" v="817057" />
	</node>
	<node lat="58.68512869257234" lon="7.927561559589412" id="-64744">
		<tag k="name" v="Røyneskleiv" />
		<tag k="place" v="locality" />
		<tag k="ssr:stedsnr" v="823882" />
	</node>
	<node lat="58.94208611292711" lon="7.690516673958309" id="-64752">
		<tag k="name" v="Reiårsfossen Camp" />
		<tag k="old_name" v="Reiårsfossen" />
		<tag k="ssr:stedsnr" v="845066" />
		<tag k="tourism" v="camp_site" />
	</node>
	<node lat="58.89909999827109" lon="7.869805551570076" id="-64760">
		<tag k="name" v="Vøylehytta" />
		<tag k="place" v="isolated_dwelling" />
		<tag k="ssr:stedsnr" v="850686" />
	</node>
	<node lat="58.98963055120524" lon="7.536275004402945" id="-64761">
		<tag k="name" v="Heimigard" />
		<tag k="place" v="farm" />
		<tag k="ssr:stedsnr" v="850302" />
	</node>
	<node lat="58.925522219625265" lon="7.760538880660756" id="-64764">
		<tag k="name" v="Gausi" />
		<tag k="place" v="farm" />
		<tag k="ssr:stedsnr" v="850655" />
	</node>
	<node lat="58.96589442550839" lon="7.588904484756568" id="-64767">
		<tag k="alt_name" v="Lemamostøylen" />
		<tag k="name" v="Lemamoen" />
		<tag k="place" v="locality" />
		<tag k="ssr:stedsnr" v="850259" />
	</node>
	<node lat="58.975880551705494" lon="7.587730560274993" id="-64769">
		<tag k="name" v="Heggland" />
		<tag k="place" v="hamlet" />
		<tag k="ssr:stedsnr" v="850274" />
	</node>
	<node lat="58.978525001136774" lon="7.610861110101904" id="-64770">
		<tag k="name" v="Tveitmoen" />
		<tag k="place" v="farm" />
		<tag k="ssr:stedsnr" v="850276" />
	</node>
	<node lat="58.89761741566125" lon="7.955089026362438" id="-64773">
		<tag k="historic" v="shieling" />
		<tag k="name" v="Grendalen" />
		<tag k="place" v="isolated_dwelling" />
		<tag k="ssr:stedsnr" v="850681" />
	</node>
	<node lat="58.65852142381472" lon="7.85721451125289" id="-64774">
		<tag k="alt_name" v="Åreklepp" />
		<tag k="historic" v="shieling" />
		<tag k="name" v="Årekleppstølen" />
		<tag k="place" v="isolated_dwelling" />
		<tag k="ssr:stedsnr" v="850522" />
	</node>
	<node lat="58.9835804665291" lon="7.72877153932267" id="-64775">
		<tag k="alt_name" v="Myklestøyl" />
		<tag k="historic" v="shieling" />
		<tag k="name" v="Myklestøl" />
		<tag k="place" v="isolated_dwelling" />
		<tag k="ssr:stedsnr" v="850596" />
	</node>
	<node lat="58.82128998197711" lon="7.899196718103142" id="-64776">
		<tag k="alt_name" v="Øytjønn" />
		<tag k="name" v="Øytjørn" />
		<tag k="place" v="locality" />
		<tag k="ssr:stedsnr" v="850752" />
	</node>
	<node lat="58.82565555354655" lon="7.803125005349457" id="-64778">
		<tag k="alt_name" v="Byglandsgardane" />
		<tag k="name" v="Bygland" />
		<tag k="place" v="farm" />
		<tag k="ssr:stedsnr" v="850766" />
	</node>
	<node lat="58.842549996652465" lon="7.820527775423797" id="-64779">
		<tag k="name" v="Kollehagen" />
		<tag k="place" v="farm" />
		<tag k="ssr:stedsnr" v="850769" />
	</node>
	<node lat="58.76593491085778" lon="7.81671020877335" id="-64784">
		<tag k="name" v="Berge" />
		<tag k="place" v="locality" />
		<tag k="ssr:stedsnr" v="850823" />
	</node>
	<node lat="59.016494445148105" lon="7.60238611302682" id="-64795">
		<tag k="alt_name" v="Setberg" />
		<tag k="historic" v="shieling" />
		<tag k="name" v="Sedberg" />
		<tag k="place" v="isolated_dwelling" />
		<tag k="ssr:stedsnr" v="851276" />
	</node>
	<node lat="59.012102779103735" lon="7.521997217873223" id="-64796">
		<tag k="alt_name" v="Sollid" />
		<tag k="historic" v="shieling" />
		<tag k="name" v="Solli" />
		<tag k="place" v="isolated_dwelling" />
		<tag k="ssr:stedsnr" v="851279" />
	</node>
	<node lat="58.83273333162771" lon="7.806086108970706" id="-64808">
		<tag k="name" v="Huset" />
		<tag k="place" v="farm" />
		<tag k="ssr:stedsnr" v="872097" />
	</node>
	<node lat="58.9604750045436" lon="7.505163894699061" id="-64812">
		<tag k="name" v="Låtevadbui" />
		<tag k="place" v="locality" />
		<tag k="ssr:stedsnr" v="873084" />
	</node>
	<node lat="58.92625277705736" lon="7.748133327850745" id="-64821">
		<tag k="name" v="Nordenå" />
		<tag k="place" v="farm" />
		<tag k="ssr:stedsnr" v="873401" />
	</node>
	<node lat="58.849436107004635" lon="7.821880554985804" id="-64823">
		<tag k="name" v="Bubakk" />
		<tag k="place" v="farm" />
		<tag k="ssr:stedsnr" v="873130" />
	</node>
	<node lat="58.83436666442882" lon="7.857741673387364" id="-64824">
		<tag k="historic" v="shieling" />
		<tag k="name" v="Lysestøyl" />
		<tag k="place" v="isolated_dwelling" />
		<tag k="ssr:stedsnr" v="873138" />
	</node>
	<node lat="58.693627780230166" lon="7.858422217342143" id="-64832">
		<tag k="historic" v="shieling" />
		<tag k="name" v="Smørstøyl" />
		<tag k="place" v="isolated_dwelling" />
		<tag k="ssr:stedsnr" v="873042" />
	</node>
	<node lat="58.93373333742155" lon="7.716861111810661" id="-64836">
		<tag k="historic" v="shieling" />
		<tag k="name" v="Heddeneset" />
		<tag k="place" v="isolated_dwelling" />
		<tag k="ssr:stedsnr" v="873057" />
	</node>
	<node lat="58.91230277712943" lon="7.731200006145258" id="-64843">
		<tag k="name" v="Prestegardplassen" />
		<tag k="place" v="locality" />
		<tag k="ssr:stedsnr" v="873300" />
	</node>
	<node lat="58.85273889091183" lon="7.834458334746599" id="-64845">
		<tag k="name" v="Steinstog" />
		<tag k="place" v="farm" />
		<tag k="ssr:stedsnr" v="873435" />
	</node>
	<node lat="58.97131666887287" lon="7.690483340010705" id="-64849">
		<tag k="alt_name" v="Gjermundstøylii" />
		<tag k="historic" v="shieling" />
		<tag k="name" v="Gjermundstøyl" />
		<tag k="place" v="isolated_dwelling" />
		<tag k="ssr:stedsnr" v="873446" />
	</node>
	<node lat="58.946561114436065" lon="7.947183327399766" id="-64855">
		<tag k="historic" v="shieling" />
		<tag k="name" v="Monen" />
		<tag k="place" v="isolated_dwelling" />
		<tag k="ssr:stedsnr" v="873733" />
	</node>
	<node lat="59.01001388884228" lon="7.781372229713708" id="-64863">
		<tag k="historic" v="shieling" />
		<tag k="name" v="Krokstøyl" />
		<tag k="place" v="isolated_dwelling" />
		<tag k="ssr:stedsnr" v="873834" />
	</node>
	<node lat="58.92509721934236" lon="7.646850002050878" id="-64871">
		<tag k="historic" v="shieling" />
		<tag k="name" v="Kvislestøyl" />
		<tag k="place" v="isolated_dwelling" />
		<tag k="ssr:stedsnr" v="933061" />
	</node>
	<node lat="58.827427781878555" lon="7.795483341412339" id="-64879">
		<tag k="name" v="Prestegarden" />
		<tag k="place" v="farm" />
		<tag k="ssr:stedsnr" v="933023" />
	</node>
	<node lat="58.88868055687857" lon="7.726061109941727" id="-64913">
		<tag k="name" v="Jonsplass" />
		<tag k="place" v="locality" />
		<tag k="ssr:stedsnr" v="933273" />
	</node>
	<node lat="58.77446111392102" lon="7.702661119449799" id="-64942">
		<tag k="historic" v="shieling" />
		<tag k="name" v="Røyneskleiv" />
		<tag k="place" v="isolated_dwelling" />
		<tag k="ssr:stedsnr" v="938255" />
	</node>
	<node lat="58.805691664993695" lon="7.920463889105261" id="-64960">
		<tag k="name" v="Lonebu (aust)" />
		<tag k="place" v="locality" />
		<tag k="ssr:stedsnr" v="944946" />
	</node>
	<node lat="58.876383279975606" lon="7.70518440834213" id="-64989">
		<tag k="name" v="Skåmedal" />
		<tag k="place" v="farm" />
		<tag k="ssr:stedsnr" v="971611" />
	</node>
	<node lat="58.93776366533603" lon="7.764849289328261" id="-65001">
		<tag k="name" v="Lidtveit" />
		<tag k="place" v="farm" />
		<tag k="ssr:stedsnr" v="974159" />
	</node>
	<node lat="58.94013905353558" lon="7.762425728617795" id="-65002">
		<tag k="name" v="Lidtveit" />
		<tag k="place" v="farm" />
		<tag k="ssr:stedsnr" v="974160" />
	</node>
	<node lat="58.939007402048155" lon="7.764535488065626" id="-65003">
		<tag k="name" v="Lidtveit" />
		<tag k="place" v="farm" />
		<tag k="ssr:stedsnr" v="974161" />
	</node>
	<node lat="58.86036953195042" lon="7.7117246471444805" id="-65051">
		<tag k="name" v="Skåmedal grustak" />
		<tag k="place" v="farm" />
		<tag k="ssr:stedsnr" v="1073407" />
	</node>
	<node lat="58.85983787327203" lon="7.659563112097805" id="-65053">
		<tag k="name" v="Skåmebu" />
		<tag k="place" v="farm" />
		<tag k="ssr:stedsnr" v="1073711" />
	</node>
	<node lat="58.87781242603893" lon="7.702487256204715" id="-65056">
		<tag k="name" v="Skåmedal" />
		<tag k="place" v="farm" />
		<tag k="ssr:stedsnr" v="1074569" />
	</node>
	<node lat="58.871799653950326" lon="7.703991217507785" id="-65057">
		<tag k="name" v="Skåmedal" />
		<tag k="place" v="farm" />
		<tag k="ssr:stedsnr" v="1074573" />
	</node>
	<node lat="58.87224544158836" lon="7.704024184736859" id="-65058">
		<tag k="name" v="Skåmedal" />
		<tag k="place" v="farm" />
		<tag k="ssr:stedsnr" v="1074574" />
	</node>
	<node lat="58.87412447851597" lon="7.705768953016309" id="-65059">
		<tag k="name" v="Skåmedal" />
		<tag k="place" v="farm" />
		<tag k="ssr:stedsnr" v="1074575" />
	</node>
	<node lat="58.83889134406525" lon="7.618205865470446" id="-65060">
		<tag k="name" v="Skåmedal" />
		<tag k="place" v="farm" />
		<tag k="ssr:stedsnr" v="1074576" />
	</node>
	<node lat="58.86509079690556" lon="7.7178698922159255" id="-65061">
		<tag k="name" v="Skåmeneset" />
		<tag k="place" v="farm" />
		<tag k="ssr:stedsnr" v="1074577" />
	</node>
	<node lat="58.865015652538005" lon="7.718550541920905" id="-65062">
		<tag k="name" v="Skåmeneset" />
		<tag k="place" v="farm" />
		<tag k="ssr:stedsnr" v="1074588" />
	</node>
	<node lat="58.86483612651842" lon="7.7187338710515245" id="-65063">
		<tag k="name" v="Skåmeneset" />
		<tag k="place" v="farm" />
		<tag k="ssr:stedsnr" v="1074589" />
	</node>
	<node lat="58.864450412918096" lon="7.718794076417732" id="-65064">
		<tag k="name" v="Skåmeneset" />
		<tag k="place" v="farm" />
		<tag k="ssr:stedsnr" v="1074590" />
	</node>
	<node lat="58.864636455533216" lon="7.718027199352161" id="-65065">
		<tag k="name" v="Skåmeneset" />
		<tag k="place" v="farm" />
		<tag k="ssr:stedsnr" v="1074591" />
	</node>
	<node lat="58.86431500796167" lon="7.718091971717595" id="-65066">
		<tag k="name" v="Skåmeneset" />
		<tag k="place" v="farm" />
		<tag k="ssr:stedsnr" v="1074592" />
	</node>
	<node lat="58.86413454456061" lon="7.7185701057469664" id="-65067">
		<tag k="name" v="Skåmeneset" />
		<tag k="place" v="farm" />
		<tag k="ssr:stedsnr" v="1074593" />
	</node>
	<node lat="58.864066396961974" lon="7.71785737137734" id="-65068">
		<tag k="name" v="Skåmeneset" />
		<tag k="place" v="farm" />
		<tag k="ssr:stedsnr" v="1074594" />
	</node>
	<node lat="58.863563908806235" lon="7.717916528256235" id="-65069">
		<tag k="name" v="Skåmeneset" />
		<tag k="place" v="farm" />
		<tag k="ssr:stedsnr" v="1074595" />
	</node>
	<node lat="58.86353831119293" lon="7.717246967583875" id="-65070">
		<tag k="name" v="Skåmeneset" />
		<tag k="place" v="farm" />
		<tag k="ssr:stedsnr" v="1074596" />
	</node>
	<node lat="58.86368388976573" lon="7.716648230849782" id="-65071">
		<tag k="name" v="Skåmeneset" />
		<tag k="place" v="farm" />
		<tag k="ssr:stedsnr" v="1074597" />
	</node>
	<node lat="58.8631737634088" lon="7.71827236121668" id="-65072">
		<tag k="name" v="Skåmeneset" />
		<tag k="place" v="farm" />
		<tag k="ssr:stedsnr" v="1074598" />
	</node>
	<node lat="58.86279115880718" lon="7.718310953496347" id="-65073">
		<tag k="name" v="Skåmeneset" />
		<tag k="place" v="farm" />
		<tag k="ssr:stedsnr" v="1074599" />
	</node>
	<node lat="58.86256490145501" lon="7.718185636133373" id="-65074">
		<tag k="name" v="Skåmeneset" />
		<tag k="place" v="farm" />
		<tag k="ssr:stedsnr" v="1074600" />
	</node>
	<node lat="58.8624256999989" lon="7.7176425343289745" id="-65075">
		<tag k="name" v="Skåmeneset" />
		<tag k="place" v="farm" />
		<tag k="ssr:stedsnr" v="1074601" />
	</node>
	<node lat="58.86289008889235" lon="7.717835158413218" id="-65076">
		<tag k="name" v="Skåmeneset" />
		<tag k="place" v="farm" />
		<tag k="ssr:stedsnr" v="1074602" />
	</node>
	<node lat="58.86315897079668" lon="7.71756911727183" id="-65077">
		<tag k="name" v="Skåmeneset" />
		<tag k="place" v="farm" />
		<tag k="ssr:stedsnr" v="1074604" />
	</node>
	<node lat="58.86282039542512" lon="7.717175218259109" id="-65078">
		<tag k="name" v="Skåmeneset" />
		<tag k="place" v="farm" />
		<tag k="ssr:stedsnr" v="1074605" />
	</node>
	<node lat="58.86303029726457" lon="7.716903379361062" id="-65079">
		<tag k="name" v="Skåmeneset" />
		<tag k="place" v="farm" />
		<tag k="ssr:stedsnr" v="1074606" />
	</node>
	<node lat="58.86228272711665" lon="7.716965895888799" id="-65080">
		<tag k="name" v="Skåmeneset" />
		<tag k="place" v="farm" />
		<tag k="ssr:stedsnr" v="1074607" />
	</node>
	<node lat="58.86711286945627" lon="7.714665970847231" id="-65081">
		<tag k="name" v="Skåmeneset" />
		<tag k="place" v="farm" />
		<tag k="ssr:stedsnr" v="1074608" />
	</node>
	<node lat="58.86696780965292" lon="7.715447893922304" id="-65082">
		<tag k="name" v="Skåmeneset" />
		<tag k="place" v="farm" />
		<tag k="ssr:stedsnr" v="1074610" />
	</node>
	<node lat="58.86701590887299" lon="7.715824820677151" id="-65083">
		<tag k="name" v="Skåmeneset" />
		<tag k="place" v="farm" />
		<tag k="ssr:stedsnr" v="1074611" />
	</node>
	<node lat="58.86558845182613" lon="7.716887768317124" id="-65084">
		<tag k="name" v="Skåmeneset" />
		<tag k="place" v="farm" />
		<tag k="ssr:stedsnr" v="1074612" />
	</node>
	<node lat="58.86637362471321" lon="7.716758823894097" id="-65085">
		<tag k="name" v="Skåmeneset" />
		<tag k="place" v="farm" />
		<tag k="ssr:stedsnr" v="1074613" />
	</node>
	<node lat="58.93642279189455" lon="7.841165407974215" id="-65087">
		<tag k="name" v="Mjåberg" />
		<tag k="place" v="farm" />
		<tag k="ssr:stedsnr" v="1078534" />
	</node>
</osm>
