<?xml version="1.0" encoding="UTF-8"?>
<osm version="0.6" generator="osmapis">
	<node lat="58.87408888735497" lon="7.298313889387962" id="-37631">
		<tag k="name" v="Tjørndalen" />
		<tag k="natural" v="valley" />
		<tag k="place" v="locality" />
		<tag k="ssr:stedsnr" v="148" />
	</node>
	<node lat="58.86135000363532" lon="7.247680556677506" id="-37632">
		<tag k="fixme" v="consider natural=peak for the most distinct mountains in the district" />
		<tag k="name" v="Olavsvassknuten" />
		<tag k="natural" v="hill" />
		<tag k="place" v="locality" />
		<tag k="ssr:stedsnr" v="152" />
	</node>
	<node lat="58.863108331521225" lon="7.289124997468786" id="-37633">
		<tag k="name" v="Hestekvæven" />
		<tag k="natural" v="valley" />
		<tag k="place" v="locality" />
		<tag k="ssr:stedsnr" v="156" />
	</node>
	<node lat="58.8881111079617" lon="7.338374994980501" id="-37634">
		<tag k="fixme" v="consider natural=peak for the most distinct mountains in the district" />
		<tag k="name" v="Bergeheii" />
		<tag k="natural" v="hill" />
		<tag k="place" v="locality" />
		<tag k="ssr:stedsnr" v="172" />
	</node>
	<node lat="58.88021110928472" lon="7.154613881443083" id="-37635">
		<tag k="fixme" v="consider natural=peak for the most distinct mountains in the district" />
		<tag k="name" v="Vardeheii" />
		<tag k="natural" v="hill" />
		<tag k="place" v="locality" />
		<tag k="ssr:stedsnr" v="198" />
	</node>
	<node lat="58.82027777965343" lon="7.597738880765278" id="-37636">
		<tag k="fixme" v="consider natural=peak for the most distinct mountains in the district" />
		<tag k="name" v="Rjupedalsheia" />
		<tag k="natural" v="hill" />
		<tag k="place" v="locality" />
		<tag k="ssr:stedsnr" v="506" />
	</node>
	<node lat="58.78629444427354" lon="7.714177780067701" id="-37638">
		<tag k="name" v="Likvæven" />
		<tag k="natural" v="slope" />
		<tag k="place" v="locality" />
		<tag k="ssr:stedsnr" v="553" />
	</node>
	<node lat="58.89722499638633" lon="7.45227500279764" id="-37641">
		<tag k="name" v="Reinsdalen" />
		<tag k="natural" v="valley" />
		<tag k="place" v="locality" />
		<tag k="ssr:stedsnr" v="462" />
	</node>
	<node lat="58.90509166914226" lon="7.688630553543988" id="-37643">
		<tag k="fixme" v="consider natural=peak for the most distinct mountains in the district" />
		<tag k="name" v="Skakstøylheii" />
		<tag k="natural" v="hill" />
		<tag k="place" v="locality" />
		<tag k="ssr:stedsnr" v="467" />
	</node>
	<node lat="58.92651111440382" lon="7.788483324642525" id="-37647">
		<tag k="name" v="Langeli" />
		<tag k="natural" v="slope" />
		<tag k="place" v="locality" />
		<tag k="ssr:stedsnr" v="661" />
	</node>
	<node lat="58.81763888847851" lon="7.887597220146559" id="-37650">
		<tag k="fixme" v="consider natural=peak for the most distinct mountains in the district" />
		<tag k="name" v="Lyseheii" />
		<tag k="natural" v="hill" />
		<tag k="place" v="locality" />
		<tag k="ssr:stedsnr" v="756" />
	</node>
	<node lat="58.92159167028381" lon="7.35183056383392" id="-37653">
		<tag k="name" v="Moltedalen" />
		<tag k="natural" v="valley" />
		<tag k="place" v="locality" />
		<tag k="ssr:stedsnr" v="1217" />
	</node>
	<node lat="58.95587778160007" lon="7.443494447126056" id="-37655">
		<tag k="alt_name" v="Sløkjedalen" />
		<tag k="name" v="Sløkedalen" />
		<tag k="natural" v="valley" />
		<tag k="place" v="locality" />
		<tag k="ssr:stedsnr" v="1285" />
	</node>
	<node lat="58.86279166299511" lon="7.479802769452179" id="-37659">
		<tag k="fixme" v="consider natural=peak for the most distinct mountains in the district" />
		<tag k="name" v="Spøkriknuten" />
		<tag k="natural" v="hill" />
		<tag k="place" v="locality" />
		<tag k="ssr:stedsnr" v="1405" />
	</node>
	<node lat="59.02455833670409" lon="7.778611112682714" id="-37662">
		<tag k="fixme" v="consider natural=peak for the most distinct mountains in the district" />
		<tag k="name" v="Søtefjell" />
		<tag k="natural" v="hill" />
		<tag k="place" v="locality" />
		<tag k="ssr:stedsnr" v="1505" />
	</node>
	<node lat="58.7161083300863" lon="7.752286105900905" id="-37670">
		<tag k="fixme" v="consider natural=peak for the most distinct mountains in the district" />
		<tag k="name" v="Sandtjørnheii" />
		<tag k="natural" v="hill" />
		<tag k="place" v="locality" />
		<tag k="ssr:stedsnr" v="1934" />
	</node>
	<node lat="58.81243429385856" lon="7.879491660094342" id="-37673">
		<tag k="name" v="Tritjørndalen" />
		<tag k="natural" v="valley" />
		<tag k="place" v="locality" />
		<tag k="ssr:stedsnr" v="1810" />
	</node>
	<node lat="58.98998332929021" lon="7.535519452593096" id="-37678">
		<tag k="name" v="Natebakk" />
		<tag k="natural" v="slope" />
		<tag k="place" v="locality" />
		<tag k="ssr:stedsnr" v="23003" />
	</node>
	<node lat="58.71862222327445" lon="7.862025002333513" id="-37679">
		<tag k="name" v="Steinstol" />
		<tag k="place" v="locality" />
		<tag k="ssr:stedsnr" v="23004" />
	</node>
	<node lat="58.84465000344465" lon="7.795661103968264" id="-37680">
		<tag k="name" v="Høylandsdalen" />
		<tag k="natural" v="valley" />
		<tag k="place" v="locality" />
		<tag k="ssr:stedsnr" v="23106" />
	</node>
	<node lat="59.013908335447546" lon="7.532413887910462" id="-37681">
		<tag k="name" v="Tjuveskora" />
		<tag k="natural" v="valley" />
		<tag k="place" v="locality" />
		<tag k="ssr:stedsnr" v="23110" />
	</node>
	<node lat="59.01370000050795" lon="7.512633336111984" id="-37684">
		<tag k="name" v="Elgshommen" />
		<tag k="natural" v="slope" />
		<tag k="place" v="locality" />
		<tag k="ssr:stedsnr" v="23118" />
	</node>
	<node lat="58.849049996322734" lon="7.784394438728489" id="-37685">
		<tag k="name" v="Grimshelleren" />
		<tag k="place" v="locality" />
		<tag k="ssr:stedsnr" v="23134" />
	</node>
	<node lat="58.94342778077083" lon="7.825911112465145" id="-37690">
		<tag k="name" v="Funneli" />
		<tag k="natural" v="slope" />
		<tag k="place" v="locality" />
		<tag k="ssr:stedsnr" v="23190" />
	</node>
	<node lat="58.99815555933193" lon="7.548297219699261" id="-37691">
		<tag k="name" v="Bytesdjuvet" />
		<tag k="natural" v="gorge" />
		<tag k="ssr:stedsnr" v="23037" />
	</node>
	<node lat="58.92274444645411" lon="7.696355558790192" id="-37693">
		<tag k="name" v="Skjoldmøynuten" />
		<tag k="natural" v="hill" />
		<tag k="place" v="locality" />
		<tag k="ssr:stedsnr" v="23041" />
	</node>
	<node lat="58.756713884646224" lon="7.881583333464159" id="-37696">
		<tag k="name" v="Bjørndalen" />
		<tag k="natural" v="valley" />
		<tag k="place" v="locality" />
		<tag k="ssr:stedsnr" v="23288" />
	</node>
	<node lat="58.845274997852904" lon="7.611533336076857" id="-37697">
		<tag k="name" v="Svenkeslii" />
		<tag k="natural" v="slope" />
		<tag k="place" v="locality" />
		<tag k="ssr:stedsnr" v="23304" />
	</node>
	<node lat="58.92136667010195" lon="7.752005557681636" id="-37698">
		<tag k="name" v="Årelidi" />
		<tag k="natural" v="slope" />
		<tag k="place" v="locality" />
		<tag k="ssr:stedsnr" v="23332" />
	</node>
	<node lat="58.913955553794885" lon="7.75506388507767" id="-37700">
		<tag k="name" v="Åsalkroni" />
		<tag k="natural" v="slope" />
		<tag k="place" v="locality" />
		<tag k="ssr:stedsnr" v="23341" />
	</node>
	<node lat="58.806305556638875" lon="7.726413894986132" id="-37701">
		<tag k="fixme" v="consider natural=peak for the most distinct mountains in the district" />
		<tag k="name" v="Grønåsnuten" />
		<tag k="natural" v="hill" />
		<tag k="place" v="locality" />
		<tag k="ssr:stedsnr" v="23382" />
	</node>
	<node lat="58.791769447718764" lon="7.750625003954593" id="-37702">
		<tag k="name" v="Varen" />
		<tag k="natural" v="hill" />
		<tag k="place" v="locality" />
		<tag k="ssr:stedsnr" v="23393" />
	</node>
	<node lat="58.966755557508336" lon="7.695566673281901" id="-37706">
		<tag k="name" v="Kringlelii" />
		<tag k="natural" v="slope" />
		<tag k="place" v="locality" />
		<tag k="ssr:stedsnr" v="23533" />
	</node>
	<node lat="58.85405833074949" lon="7.964472215379577" id="-37708">
		<tag k="name" v="Loppetjørndalen" />
		<tag k="natural" v="valley" />
		<tag k="place" v="locality" />
		<tag k="ssr:stedsnr" v="23539" />
	</node>
	<node lat="58.94791944154445" lon="7.643675001519452" id="-37709">
		<tag k="name" v="Histridalen" />
		<tag k="natural" v="valley" />
		<tag k="place" v="locality" />
		<tag k="ssr:stedsnr" v="23542" />
	</node>
	<node lat="58.95002499603123" lon="7.667433325074439" id="-37713">
		<tag k="name" v="Fossånuten" />
		<tag k="natural" v="ridge" />
		<tag k="place" v="locality" />
		<tag k="ssr:stedsnr" v="23438" />
	</node>
	<node lat="58.99077777382126" lon="7.62447778635528" id="-37714">
		<tag k="name" v="Ljotedalsfjellet" />
		<tag k="natural" v="hill" />
		<tag k="place" v="locality" />
		<tag k="ssr:stedsnr" v="23443" />
	</node>
	<node lat="58.69517221884372" lon="7.818516665456805" id="-37715">
		<tag k="name" v="Hagen" />
		<tag k="natural" v="slope" />
		<tag k="place" v="locality" />
		<tag k="ssr:stedsnr" v="23444" />
	</node>
	<node lat="58.755758334138065" lon="7.746080557554321" id="-37716">
		<tag k="name" v="Moli" />
		<tag k="natural" v="slope" />
		<tag k="place" v="locality" />
		<tag k="ssr:stedsnr" v="23481" />
	</node>
	<node lat="58.842036111164965" lon="7.869552770200153" id="-37717">
		<tag k="name" v="Båsdalen" />
		<tag k="natural" v="valley" />
		<tag k="place" v="locality" />
		<tag k="ssr:stedsnr" v="23486" />
	</node>
	<node lat="58.978497220961714" lon="7.622686109986557" id="-37720">
		<tag k="name" v="Urebakk" />
		<tag k="natural" v="slope" />
		<tag k="place" v="locality" />
		<tag k="ssr:stedsnr" v="23499" />
	</node>
	<node lat="58.935619444674636" lon="7.830263880593786" id="-37723">
		<tag k="name" v="Syrdalen" />
		<tag k="natural" v="valley" />
		<tag k="place" v="locality" />
		<tag k="ssr:stedsnr" v="23890" />
	</node>
	<node lat="59.02367500193262" lon="7.892236105473025" id="-37726">
		<tag k="alt_name" v="Bragenesfjell" />
		<tag k="name" v="Bragenesfjellet" />
		<tag k="natural" v="hill" />
		<tag k="place" v="locality" />
		<tag k="ssr:stedsnr" v="28032" />
	</node>
	<node lat="59.06140833047006" lon="7.770519437387514" id="-37729">
		<tag k="name" v="Repledalen" />
		<tag k="natural" v="valley" />
		<tag k="place" v="locality" />
		<tag k="ssr:stedsnr" v="34717" />
	</node>
	<node lat="58.98203333780432" lon="7.839711116590297" id="-37730">
		<tag k="fixme" v="consider natural=peak for the most distinct mountains in the district" />
		<tag k="name" v="Bleilinuten" />
		<tag k="natural" v="hill" />
		<tag k="place" v="locality" />
		<tag k="ssr:stedsnr" v="34760" />
	</node>
	<node lat="58.77403055239131" lon="7.667283334145833" id="-37731">
		<tag k="name" v="Hakefjell" />
		<tag k="place" v="locality" />
		<tag k="ssr:stedsnr" v="34800" />
	</node>
	<node lat="58.77263055845337" lon="7.719197216335508" id="-37733">
		<tag k="name" v="Takliane" />
		<tag k="natural" v="slope" />
		<tag k="place" v="locality" />
		<tag k="ssr:stedsnr" v="34803" />
	</node>
	<node lat="58.782950003729866" lon="7.698183333001469" id="-37734">
		<tag k="name" v="Høyskar" />
		<tag k="natural" v="valley" />
		<tag k="place" v="locality" />
		<tag k="ssr:stedsnr" v="34809" />
	</node>
	<node lat="58.77840277369056" lon="7.700972230262131" id="-37735">
		<tag k="name" v="Ørnekvæven" />
		<tag k="natural" v="valley" />
		<tag k="place" v="locality" />
		<tag k="ssr:stedsnr" v="34811" />
	</node>
	<node lat="58.79096944173694" lon="7.9553333372382475" id="-37736">
		<tag k="name" v="Saurdalsheii" />
		<tag k="natural" v="ridge" />
		<tag k="place" v="locality" />
		<tag k="ssr:stedsnr" v="34861" />
	</node>
	<node lat="58.99033888625895" lon="7.513399992776012" id="-37745">
		<tag k="alt_name" v="Dei tri Nutane" />
		<tag k="fixme" v="consider natural=peak for the most distinct mountains in the district" />
		<tag k="name" v="Dei tre nutane" />
		<tag k="natural" v="hill" />
		<tag k="place" v="locality" />
		<tag k="ssr:stedsnr" v="61305" />
	</node>
	<node lat="58.877763888793815" lon="7.5827861056069175" id="-37748">
		<tag k="fixme" v="consider natural=peak for the most distinct mountains in the district" />
		<tag k="name" v="Sunndalsheii" />
		<tag k="natural" v="hill" />
		<tag k="place" v="locality" />
		<tag k="ssr:stedsnr" v="61427" />
	</node>
	<node lat="58.884986113738194" lon="7.693488885280749" id="-37749">
		<tag k="name" v="Glottsnuten" />
		<tag k="natural" v="hill" />
		<tag k="place" v="locality" />
		<tag k="ssr:stedsnr" v="61428" />
	</node>
	<node lat="58.8448138901962" lon="7.62319721923578" id="-37751">
		<tag k="alt_name" v="Støylsrjonuten" />
		<tag k="fixme" v="consider natural=peak for the most distinct mountains in the district" />
		<tag k="name" v="Støylsronuten" />
		<tag k="natural" v="hill" />
		<tag k="place" v="locality" />
		<tag k="ssr:stedsnr" v="61373" />
	</node>
	<node lat="58.741686114585626" lon="7.747258327022818" id="-37757">
		<tag k="fixme" v="consider natural=peak for the most distinct mountains in the district" />
		<tag k="name" v="Sandvikfjellet" />
		<tag k="natural" v="hill" />
		<tag k="place" v="locality" />
		<tag k="ssr:stedsnr" v="61900" />
	</node>
	<node lat="58.9386805553355" lon="7.267608332228296" id="-37758">
		<tag k="name" v="Ramnsknuten" />
		<tag k="natural" v="hill" />
		<tag k="place" v="locality" />
		<tag k="ssr:stedsnr" v="62182" />
	</node>
	<node lat="59.00973888507426" lon="7.575202769708645" id="-37761">
		<tag k="alt_name" v="Viardalen" />
		<tag k="name" v="Vierdalen" />
		<tag k="natural" v="valley" />
		<tag k="place" v="locality" />
		<tag k="ssr:stedsnr" v="62271" />
	</node>
	<node lat="58.89552778179086" lon="7.91964166850471" id="-37763">
		<tag k="fixme" v="consider natural=peak for the most distinct mountains in the district" />
		<tag k="name" v="Løyningsheii" />
		<tag k="natural" v="hill" />
		<tag k="place" v="locality" />
		<tag k="ssr:stedsnr" v="62704" />
	</node>
	<node lat="58.89044444546133" lon="7.8043916619643845" id="-37765">
		<tag k="alt_name" v="Midtstøylheii" />
		<tag k="fixme" v="consider natural=peak for the most distinct mountains in the district" />
		<tag k="name" v="Midtstølheii" />
		<tag k="natural" v="hill" />
		<tag k="place" v="locality" />
		<tag k="ssr:stedsnr" v="62711" />
	</node>
	<node lat="58.73050555812254" lon="7.696358334734153" id="-37769">
		<tag k="fixme" v="consider natural=peak for the most distinct mountains in the district" />
		<tag k="name" v="Skarkebeinheii" />
		<tag k="natural" v="hill" />
		<tag k="place" v="locality" />
		<tag k="ssr:stedsnr" v="243018" />
	</node>
	<node lat="58.83257499973451" lon="7.100455562681414" id="-37770">
		<tag k="name" v="Rukkåknutan" />
		<tag k="natural" v="hill" />
		<tag k="old_name" v="Rukkåknutane" />
		<tag k="place" v="locality" />
		<tag k="ssr:stedsnr" v="243137" />
	</node>
	<node lat="58.87155000406778" lon="7.158669437360873" id="-37772">
		<tag k="name" v="Ambogskrokan" />
		<tag k="natural" v="valley" />
		<tag k="old_name" v="Ambodkrokane" />
		<tag k="place" v="locality" />
		<tag k="ssr:stedsnr" v="243165" />
	</node>
	<node lat="58.9695444476509" lon="7.4684444527822205" id="-37779">
		<tag k="name" v="Glypse" />
		<tag k="place" v="locality" />
		<tag k="ssr:stedsnr" v="243279" />
	</node>
	<node lat="58.986136109908614" lon="7.574999997891656" id="-37781">
		<tag k="fixme" v="consider natural=peak for the most distinct mountains in the district" />
		<tag k="name" v="Sordalsheii" />
		<tag k="natural" v="hill" />
		<tag k="place" v="locality" />
		<tag k="ssr:stedsnr" v="243292" />
	</node>
	<node lat="58.84550277703498" lon="7.703294439762491" id="-37784">
		<tag k="fixme" v="consider natural=peak for the most distinct mountains in the district" />
		<tag k="name" v="Sjålogheii" />
		<tag k="natural" v="hill" />
		<tag k="place" v="locality" />
		<tag k="ssr:stedsnr" v="243389" />
	</node>
	<node lat="58.894761112358765" lon="7.68963055637104" id="-37787">
		<tag k="fixme" v="consider natural=peak for the most distinct mountains in the district" />
		<tag k="name" v="Kleivstøylheii" />
		<tag k="natural" v="hill" />
		<tag k="place" v="locality" />
		<tag k="ssr:stedsnr" v="243447" />
	</node>
	<node lat="58.89275000309992" lon="7.485205556395685" id="-37788">
		<tag k="name" v="Kleivi" />
		<tag k="natural" v="valley" />
		<tag k="place" v="locality" />
		<tag k="ssr:stedsnr" v="243448" />
	</node>
	<node lat="58.90354999669476" lon="7.582258331231132" id="-37789">
		<tag k="fixme" v="consider natural=peak for the most distinct mountains in the district" />
		<tag k="name" v="Skåvassfjellet" />
		<tag k="natural" v="hill" />
		<tag k="place" v="locality" />
		<tag k="ssr:stedsnr" v="243458" />
	</node>
	<node lat="58.91830555194665" lon="7.63986943785996" id="-37793">
		<tag k="alt_name" v="Oseheia" />
		<tag k="fixme" v="consider natural=peak for the most distinct mountains in the district" />
		<tag k="name" v="Oseheii" />
		<tag k="natural" v="hill" />
		<tag k="place" v="locality" />
		<tag k="ssr:stedsnr" v="243473" />
	</node>
	<node lat="58.823088891708785" lon="7.697755552991666" id="-37797">
		<tag k="fixme" v="consider natural=peak for the most distinct mountains in the district" />
		<tag k="name" v="Hamreheii" />
		<tag k="natural" v="hill" />
		<tag k="place" v="locality" />
		<tag k="ssr:stedsnr" v="243509" />
	</node>
	<node lat="58.69471666648906" lon="7.896288888050756" id="-37800">
		<tag k="fixme" v="consider natural=peak for the most distinct mountains in the district" />
		<tag k="name" v="Skardknatten" />
		<tag k="natural" v="hill" />
		<tag k="place" v="locality" />
		<tag k="ssr:stedsnr" v="243576" />
	</node>
	<node lat="58.920308333596914" lon="7.759977771530802" id="-37802">
		<tag k="alt_name" v="Ånås" />
		<tag k="fixme" v="consider natural=peak for the most distinct mountains in the district" />
		<tag k="name" v="Ånas" />
		<tag k="natural" v="hill" />
		<tag k="place" v="locality" />
		<tag k="ssr:stedsnr" v="243679" />
	</node>
	<node lat="58.765761111074426" lon="7.792183338987963" id="-37806">
		<tag k="fixme" v="consider natural=peak for the most distinct mountains in the district" />
		<tag k="name" v="Fjuskåsen" />
		<tag k="natural" v="hill" />
		<tag k="place" v="locality" />
		<tag k="ssr:stedsnr" v="243821" />
	</node>
	<node lat="59.035099998326906" lon="7.621416671861382" id="-37808">
		<tag k="fixme" v="consider natural=peak for the most distinct mountains in the district" />
		<tag k="name" v="Vardehei" />
		<tag k="natural" v="hill" />
		<tag k="place" v="locality" />
		<tag k="ssr:stedsnr" v="244255" />
	</node>
	<node lat="58.970397223204" lon="7.297124997407506" id="-37810">
		<tag k="fixme" v="consider natural=peak for the most distinct mountains in the district" />
		<tag k="name" v="Reinshornheii" />
		<tag k="natural" v="hill" />
		<tag k="place" v="locality" />
		<tag k="ssr:stedsnr" v="244223" />
	</node>
	<node lat="59.04332500009344" lon="7.842161115442337" id="-37812">
		<tag k="name" v="Dalane" />
		<tag k="natural" v="valley" />
		<tag k="place" v="locality" />
		<tag k="ssr:stedsnr" v="244498" />
	</node>
	<node lat="58.957033337198865" lon="7.877474998178715" id="-37818">
		<tag k="fixme" v="consider natural=peak for the most distinct mountains in the district" />
		<tag k="name" v="Mjaltehomristi" />
		<tag k="natural" v="hill" />
		<tag k="place" v="locality" />
		<tag k="ssr:stedsnr" v="244663" />
	</node>
	<node lat="58.86926944739579" lon="7.971544443608113" id="-37820">
		<tag k="alt_name" v="Grunnetjønnheii" />
		<tag k="fixme" v="consider natural=peak for the most distinct mountains in the district" />
		<tag k="name" v="Grunntjørnheii" />
		<tag k="natural" v="hill" />
		<tag k="place" v="locality" />
		<tag k="ssr:stedsnr" v="244743" />
	</node>
	<node lat="58.71253055186876" lon="7.896697216067852" id="-37826">
		<tag k="name" v="Espåsdalen" />
		<tag k="natural" v="valley" />
		<tag k="place" v="locality" />
		<tag k="ssr:stedsnr" v="84079" />
	</node>
	<node lat="58.711972224037225" lon="7.889883330149752" id="-37827">
		<tag k="name" v="Bjørndalen" />
		<tag k="natural" v="valley" />
		<tag k="place" v="locality" />
		<tag k="ssr:stedsnr" v="84081" />
	</node>
	<node lat="58.937980554120145" lon="7.678727776981247" id="-37828">
		<tag k="fixme" v="consider natural=peak for the most distinct mountains in the district" />
		<tag k="name" v="Slystøylåsen" />
		<tag k="natural" v="hill" />
		<tag k="place" v="locality" />
		<tag k="ssr:stedsnr" v="84082" />
	</node>
	<node lat="58.914930553062305" lon="7.631536118254551" id="-37829">
		<tag k="name" v="Finnkvæven" />
		<tag k="natural" v="valley" />
		<tag k="place" v="locality" />
		<tag k="ssr:stedsnr" v="84088" />
	</node>
	<node lat="58.965797224753544" lon="7.5430194433554405" id="-37833">
		<tag k="name" v="Den store kvæven" />
		<tag k="natural" v="valley" />
		<tag k="place" v="locality" />
		<tag k="ssr:stedsnr" v="84104" />
	</node>
	<node lat="58.75022500249345" lon="7.805925003780849" id="-37835">
		<tag k="name" v="Hestebergdalen" />
		<tag k="natural" v="valley" />
		<tag k="old_name" v="Hestebegdalen" />
		<tag k="place" v="locality" />
		<tag k="ssr:stedsnr" v="84112" />
	</node>
	<node lat="58.74364722253787" lon="7.781419445338774" id="-37836">
		<tag k="name" v="Brendemo" />
		<tag k="place" v="locality" />
		<tag k="ssr:stedsnr" v="84113" />
	</node>
	<node lat="59.02017499722284" lon="7.596538881768221" id="-37838">
		<tag k="name" v="Revsdalen" />
		<tag k="natural" v="valley" />
		<tag k="place" v="locality" />
		<tag k="ssr:stedsnr" v="84129" />
	</node>
	<node lat="58.86772222319459" lon="7.608991664983304" id="-37841">
		<tag k="name" v="Samsonhelleren" />
		<tag k="place" v="locality" />
		<tag k="ssr:stedsnr" v="84302" />
	</node>
	<node lat="58.702091664659285" lon="7.825249994502433" id="-37843">
		<tag k="name" v="Slagsmodalen" />
		<tag k="natural" v="valley" />
		<tag k="place" v="locality" />
		<tag k="ssr:stedsnr" v="84378" />
	</node>
	<node lat="58.95256666467851" lon="7.697727769462893" id="-37846">
		<tag k="name" v="Solbakkan" />
		<tag k="natural" v="ridge" />
		<tag k="place" v="locality" />
		<tag k="ssr:stedsnr" v="84507" />
	</node>
	<node lat="58.88119444159512" lon="7.7310888807617895" id="-37850">
		<tag k="name" v="Smylebakken" />
		<tag k="natural" v="slope" />
		<tag k="place" v="locality" />
		<tag k="ssr:stedsnr" v="84291" />
	</node>
	<node lat="58.88429166890927" lon="7.7356416609395104" id="-37851">
		<tag k="fixme" v="consider natural=peak for the most distinct mountains in the district" />
		<tag k="name" v="Nedre Geitåsen" />
		<tag k="natural" v="hill" />
		<tag k="place" v="locality" />
		<tag k="ssr:stedsnr" v="84292" />
	</node>
	<node lat="58.87483333470283" lon="7.619008340769376" id="-37853">
		<tag k="name" v="Søtedalsstean" />
		<tag k="natural" v="valley" />
		<tag k="place" v="locality" />
		<tag k="ssr:stedsnr" v="84298" />
	</node>
	<node lat="58.97810833046777" lon="7.641450002009699" id="-37855">
		<tag k="name" v="Vrongevjeupsi" />
		<tag k="natural" v="cliff" />
		<tag k="ssr:stedsnr" v="84436" />
	</node>
	<node lat="58.97838333339512" lon="7.618330551145352" id="-37856">
		<tag k="name" v="Revenausen" />
		<tag k="natural" v="hill" />
		<tag k="place" v="locality" />
		<tag k="ssr:stedsnr" v="84438" />
	</node>
	<node lat="58.86072778105534" lon="7.850772227544763" id="-37857">
		<tag k="name" v="Timhom" />
		<tag k="natural" v="hill" />
		<tag k="place" v="locality" />
		<tag k="ssr:stedsnr" v="84440" />
	</node>
	<node lat="58.96941666961984" lon="7.632175001827211" id="-37858">
		<tag k="name" v="Hestekvæven" />
		<tag k="natural" v="valley" />
		<tag k="place" v="locality" />
		<tag k="ssr:stedsnr" v="84482" />
	</node>
	<node lat="58.96053055782234" lon="7.7109388970325465" id="-37859">
		<tag k="name" v="Setane" />
		<tag k="natural" v="hill" />
		<tag k="place" v="locality" />
		<tag k="ssr:stedsnr" v="84485" />
	</node>
	<node lat="58.96676111539681" lon="7.702052781079243" id="-37860">
		<tag k="name" v="Gunnbjørgskaret" />
		<tag k="natural" v="valley" />
		<tag k="place" v="locality" />
		<tag k="ssr:stedsnr" v="84486" />
	</node>
	<node lat="58.96158611561081" lon="7.8823000084425" id="-37862">
		<tag k="name" v="Mjaltehommen" />
		<tag k="natural" v="slope" />
		<tag k="place" v="locality" />
		<tag k="ssr:stedsnr" v="84834" />
	</node>
	<node lat="58.9642138913281" lon="7.728216663330185" id="-37865">
		<tag k="name" v="Kvæven" />
		<tag k="natural" v="valley" />
		<tag k="place" v="locality" />
		<tag k="ssr:stedsnr" v="85329" />
	</node>
	<node lat="59.031675000306386" lon="7.787424995206492" id="-37867">
		<tag k="name" v="Torkjellskvæven" />
		<tag k="natural" v="valley" />
		<tag k="place" v="locality" />
		<tag k="ssr:stedsnr" v="88421" />
	</node>
	<node lat="59.004950004345694" lon="7.898969451235777" id="-37871">
		<tag k="fixme" v="consider natural=peak for the most distinct mountains in the district" />
		<tag k="name" v="Sjemlingheii" />
		<tag k="natural" v="hill" />
		<tag k="place" v="locality" />
		<tag k="ssr:stedsnr" v="94811" />
	</node>
	<node lat="59.030258336129705" lon="7.863541668459519" id="-37872">
		<tag k="fixme" v="consider natural=peak for the most distinct mountains in the district" />
		<tag k="name" v="Kvæveheii" />
		<tag k="natural" v="hill" />
		<tag k="place" v="locality" />
		<tag k="ssr:stedsnr" v="94817" />
	</node>
	<node lat="58.88762222577002" lon="7.941449992683297" id="-37878">
		<tag k="name" v="Kråkereet" />
		<tag k="natural" v="ridge" />
		<tag k="place" v="locality" />
		<tag k="ssr:stedsnr" v="94914" />
	</node>
	<node lat="58.83561110912295" lon="7.988016668069599" id="-37880">
		<tag k="fixme" v="consider natural=peak for the most distinct mountains in the district" />
		<tag k="name" v="Grødesfjell" />
		<tag k="natural" v="hill" />
		<tag k="place" v="locality" />
		<tag k="ssr:stedsnr" v="94918" />
	</node>
	<node lat="58.685877780471955" lon="7.918761115674994" id="-37883">
		<tag k="name" v="Uførlii" />
		<tag k="natural" v="slope" />
		<tag k="place" v="locality" />
		<tag k="ssr:stedsnr" v="94933" />
	</node>
	<node lat="58.979566666548116" lon="7.348641665028923" id="-37892">
		<tag k="name" v="Tindedalen" />
		<tag k="natural" v="valley" />
		<tag k="place" v="locality" />
		<tag k="ssr:stedsnr" v="121321" />
	</node>
	<node lat="58.91153055831583" lon="7.621088885928332" id="-37893">
		<tag k="alt_name" v="Stemningen" />
		<tag k="fixme" v="consider natural=peak for the most distinct mountains in the district" />
		<tag k="name" v="Stimningi" />
		<tag k="natural" v="hill" />
		<tag k="place" v="locality" />
		<tag k="ssr:stedsnr" v="121464" />
	</node>
	<node lat="58.907977777692125" lon="7.35626388154029" id="-37894">
		<tag k="name" v="Myrkvæven" />
		<tag k="natural" v="valley" />
		<tag k="place" v="locality" />
		<tag k="ssr:stedsnr" v="121466" />
	</node>
	<node lat="58.85660833191799" lon="7.290694447007327" id="-37897">
		<tag k="name" v="Stegilsdalen" />
		<tag k="natural" v="valley" />
		<tag k="place" v="locality" />
		<tag k="ssr:stedsnr" v="122120" />
	</node>
	<node lat="58.92042499873567" lon="7.286744446083303" id="-37898">
		<tag k="name" v="Ramneknuten" />
		<tag k="natural" v="hill" />
		<tag k="place" v="locality" />
		<tag k="ssr:stedsnr" v="122208" />
	</node>
	<node lat="58.91690832929356" lon="7.3230805634855205" id="-37899">
		<tag k="name" v="Gaukheidalen" />
		<tag k="natural" v="valley" />
		<tag k="place" v="locality" />
		<tag k="ssr:stedsnr" v="122210" />
	</node>
	<node lat="59.0135388906285" lon="7.4995472155572775" id="-37902">
		<tag k="name" v="Hestedalen" />
		<tag k="natural" v="valley" />
		<tag k="place" v="locality" />
		<tag k="ssr:stedsnr" v="122305" />
	</node>
	<node lat="58.9678888894779" lon="7.540502772091548" id="-37903">
		<tag k="name" v="Grasdalane" />
		<tag k="natural" v="valley" />
		<tag k="place" v="locality" />
		<tag k="ssr:stedsnr" v="122309" />
	</node>
	<node lat="58.80506666420947" lon="7.703244437356139" id="-37907">
		<tag k="fixme" v="consider natural=peak for the most distinct mountains in the district" />
		<tag k="name" v="Rjupetoheii" />
		<tag k="natural" v="hill" />
		<tag k="place" v="locality" />
		<tag k="ssr:stedsnr" v="122521" />
	</node>
	<node lat="58.87665278210214" lon="7.8782194362091955" id="-37911">
		<tag k="fixme" v="consider natural=peak for the most distinct mountains in the district" />
		<tag k="name" v="Lauvåsen" />
		<tag k="natural" v="hill" />
		<tag k="place" v="locality" />
		<tag k="ssr:stedsnr" v="122709" />
	</node>
	<node lat="59.00232777760815" lon="7.837058329776889" id="-37913">
		<tag k="alt_name" v="Stavtjønnheii" />
		<tag k="fixme" v="consider natural=peak for the most distinct mountains in the district" />
		<tag k="name" v="Stavtjørnheii" />
		<tag k="natural" v="hill" />
		<tag k="place" v="locality" />
		<tag k="ssr:stedsnr" v="123023" />
	</node>
	<node lat="58.99070000393342" lon="7.5486805523846705" id="-37916">
		<tag k="name" v="Bjorevjelia" />
		<tag k="natural" v="slope" />
		<tag k="place" v="locality" />
		<tag k="ssr:stedsnr" v="144006" />
	</node>
	<node lat="58.99297499709065" lon="7.526097229050539" id="-37917">
		<tag k="name" v="Aslaksfjell" />
		<tag k="natural" v="cliff" />
		<tag k="ssr:stedsnr" v="144009" />
	</node>
	<node lat="58.73193610985012" lon="7.882047214242662" id="-37918">
		<tag k="name" v="Skjervan" />
		<tag k="place" v="locality" />
		<tag k="ssr:stedsnr" v="144013" />
	</node>
	<node lat="58.9963333321209" lon="7.601383340588953" id="-37919">
		<tag k="name" v="Austelii" />
		<tag k="natural" v="slope" />
		<tag k="place" v="locality" />
		<tag k="ssr:stedsnr" v="144015" />
	</node>
	<node lat="59.0075305555095" lon="7.584866672144283" id="-37921">
		<tag k="name" v="Sneisan" />
		<tag k="natural" v="hill" />
		<tag k="place" v="locality" />
		<tag k="ssr:stedsnr" v="144018" />
	</node>
	<node lat="58.99499166481048" lon="7.529649991937899" id="-37922">
		<tag k="name" v="Storsteinrinden" />
		<tag k="natural" v="ridge" />
		<tag k="place" v="locality" />
		<tag k="ssr:stedsnr" v="144029" />
	</node>
	<node lat="58.69279999765546" lon="7.934663892111145" id="-37923">
		<tag k="name" v="Tonefjell" />
		<tag k="natural" v="hill" />
		<tag k="place" v="locality" />
		<tag k="ssr:stedsnr" v="144211" />
	</node>
	<node lat="58.70920277931816" lon="7.90612499728111" id="-37927">
		<tag k="name" v="Varmedokk" />
		<tag k="natural" v="valley" />
		<tag k="place" v="locality" />
		<tag k="ssr:stedsnr" v="144230" />
	</node>
	<node lat="58.900213886063725" lon="7.7491222255210905" id="-37929">
		<tag k="name" v="Linækre" />
		<tag k="natural" v="slope" />
		<tag k="place" v="locality" />
		<tag k="ssr:stedsnr" v="144280" />
	</node>
	<node lat="58.886069447251536" lon="7.631936111013141" id="-37932">
		<tag k="name" v="Skåvasspaden" />
		<tag k="natural" v="hill" />
		<tag k="place" v="locality" />
		<tag k="ssr:stedsnr" v="144299" />
	</node>
	<node lat="58.88677499971599" lon="7.698850006340248" id="-37933">
		<tag k="name" v="Stavsteindalen" />
		<tag k="natural" v="valley" />
		<tag k="place" v="locality" />
		<tag k="ssr:stedsnr" v="144300" />
	</node>
	<node lat="58.88111389102394" lon="7.695183335348435" id="-37935">
		<tag k="name" v="Kvæven" />
		<tag k="natural" v="valley" />
		<tag k="place" v="locality" />
		<tag k="ssr:stedsnr" v="144308" />
	</node>
	<node lat="58.87916666949593" lon="7.695047218621254" id="-37936">
		<tag k="name" v="Bronefjell" />
		<tag k="natural" v="hill" />
		<tag k="place" v="locality" />
		<tag k="ssr:stedsnr" v="144315" />
	</node>
	<node lat="58.86991944557056" lon="7.757672225373812" id="-37938">
		<tag k="name" v="Såvisdal" />
		<tag k="natural" v="valley" />
		<tag k="place" v="locality" />
		<tag k="ssr:stedsnr" v="144317" />
	</node>
	<node lat="58.91485000339093" lon="7.748625005570599" id="-37939">
		<tag k="name" v="Surtebrokk" />
		<tag k="natural" v="slope" />
		<tag k="place" v="locality" />
		<tag k="ssr:stedsnr" v="144319" />
	</node>
	<node lat="58.90860277650989" lon="7.771872230642852" id="-37941">
		<tag k="name" v="Sylvberget" />
		<tag k="natural" v="slope" />
		<tag k="place" v="locality" />
		<tag k="ssr:stedsnr" v="144327" />
	</node>
	<node lat="58.78021666279178" lon="7.740297226784372" id="-37947">
		<tag k="name" v="Leia" />
		<tag k="natural" v="slope" />
		<tag k="place" v="locality" />
		<tag k="ssr:stedsnr" v="144380" />
	</node>
	<node lat="58.86465555336789" lon="7.889852781155003" id="-37951">
		<tag k="name" v="Vasshommen" />
		<tag k="natural" v="slope" />
		<tag k="place" v="locality" />
		<tag k="ssr:stedsnr" v="144477" />
	</node>
	<node lat="58.975800000903945" lon="7.613947230058181" id="-37952">
		<tag k="name" v="Roddeivslibakkan" />
		<tag k="natural" v="slope" />
		<tag k="place" v="locality" />
		<tag k="ssr:stedsnr" v="144482" />
	</node>
	<node lat="58.68818333760984" lon="7.830622215518786" id="-37955">
		<tag k="name" v="Sålsli" />
		<tag k="natural" v="slope" />
		<tag k="place" v="locality" />
		<tag k="ssr:stedsnr" v="144493" />
	</node>
	<node lat="58.84273610913885" lon="7.9911055630553385" id="-37956">
		<tag k="name" v="Nereshol" />
		<tag k="natural" v="valley" />
		<tag k="place" v="locality" />
		<tag k="ssr:stedsnr" v="144501" />
	</node>
	<node lat="58.85795277781494" lon="7.786305549295635" id="-37957">
		<tag k="name" v="Osmunddalen" />
		<tag k="natural" v="valley" />
		<tag k="place" v="locality" />
		<tag k="ssr:stedsnr" v="145116" />
	</node>
	<node lat="58.88102222252435" lon="7.963155551160355" id="-37959">
		<tag k="fixme" v="consider natural=peak for the most distinct mountains in the district" />
		<tag k="name" v="Falkefjell" />
		<tag k="natural" v="hill" />
		<tag k="place" v="locality" />
		<tag k="ssr:stedsnr" v="148358" />
	</node>
	<node lat="59.050327781632966" lon="7.852261110994878" id="-37962">
		<tag k="fixme" v="consider natural=peak for the most distinct mountains in the district" />
		<tag k="name" v="Rundekvævheii" />
		<tag k="natural" v="hill" />
		<tag k="place" v="locality" />
		<tag k="ssr:stedsnr" v="155702" />
	</node>
	<node lat="59.02733610835008" lon="7.703358328556683" id="-37963">
		<tag k="name" v="Sandvassdalen" />
		<tag k="natural" v="valley" />
		<tag k="place" v="locality" />
		<tag k="ssr:stedsnr" v="155712" />
	</node>
	<node lat="59.02399722495026" lon="7.6703222235102135" id="-37965">
		<tag k="name" v="Nyestøyllii" />
		<tag k="natural" v="slope" />
		<tag k="place" v="locality" />
		<tag k="ssr:stedsnr" v="155666" />
	</node>
	<node lat="59.00106944395869" lon="7.486397217007759" id="-37966">
		<tag k="name" v="Hudehagane" />
		<tag k="natural" v="valley" />
		<tag k="place" v="locality" />
		<tag k="ssr:stedsnr" v="155805" />
	</node>
	<node lat="58.75706944270404" lon="7.68099722469632" id="-37970">
		<tag k="name" v="Treldalen" />
		<tag k="natural" v="valley" />
		<tag k="place" v="locality" />
		<tag k="ssr:stedsnr" v="155816" />
	</node>
	<node lat="58.66834722019279" lon="7.921069442648121" id="-37973">
		<tag k="name" v="Sandvikdraget" />
		<tag k="place" v="locality" />
		<tag k="ssr:stedsnr" v="155902" />
	</node>
	<node lat="58.81869166472858" lon="7.645744450101321" id="-37980">
		<tag k="name" v="Stuveheii" />
		<tag k="natural" v="hill" />
		<tag k="place" v="locality" />
		<tag k="ssr:stedsnr" v="326279" />
	</node>
	<node lat="58.90246111360745" lon="7.455874994238422" id="-37986">
		<tag k="fixme" v="consider natural=peak for the most distinct mountains in the district" />
		<tag k="name" v="Halvardsfjellet" />
		<tag k="natural" v="hill" />
		<tag k="place" v="locality" />
		<tag k="ssr:stedsnr" v="182461" />
	</node>
	<node lat="58.69490000055297" lon="7.742480548939858" id="-37989">
		<tag k="name" v="Skarkehommen" />
		<tag k="natural" v="valley" />
		<tag k="place" v="locality" />
		<tag k="ssr:stedsnr" v="182563" />
	</node>
	<node lat="58.76097500271531" lon="7.865736109758454" id="-37993">
		<tag k="name" v="Tveitå" />
		<tag k="place" v="locality" />
		<tag k="ssr:stedsnr" v="182800" />
	</node>
	<node lat="58.95528610986746" lon="7.4879749966609745" id="-37994">
		<tag k="name" v="Grytågjuvet" />
		<tag k="natural" v="valley" />
		<tag k="place" v="locality" />
		<tag k="ssr:stedsnr" v="183250" />
	</node>
	<node lat="58.95338055480585" lon="7.453013894731132" id="-37995">
		<tag k="fixme" v="consider natural=peak for the most distinct mountains in the district" />
		<tag k="name" v="Grostøylheii" />
		<tag k="natural" v="hill" />
		<tag k="place" v="locality" />
		<tag k="ssr:stedsnr" v="183252" />
	</node>
	<node lat="58.92987499635408" lon="7.450394448850918" id="-37998">
		<tag k="name" v="Raunedalen" />
		<tag k="natural" v="valley" />
		<tag k="place" v="locality" />
		<tag k="ssr:stedsnr" v="183449" />
	</node>
	<node lat="58.80505201547062" lon="7.815826570232339" id="-38003">
		<tag k="fixme" v="consider natural=peak for the most distinct mountains in the district" />
		<tag k="name" v="Tveitnapen" />
		<tag k="natural" v="hill" />
		<tag k="place" v="locality" />
		<tag k="ssr:stedsnr" v="183821" />
	</node>
	<node lat="58.901844442615214" lon="7.838313896035524" id="-38004">
		<tag k="alt_name" v="Asbjørnstøykheii" />
		<tag k="fixme" v="consider natural=peak for the most distinct mountains in the district" />
		<tag k="name" v="Asbjørnstølheii" />
		<tag k="natural" v="hill" />
		<tag k="place" v="locality" />
		<tag k="ssr:stedsnr" v="183706" />
	</node>
	<node lat="58.76241389279418" lon="7.806747220887297" id="-38010">
		<tag k="name" v="Tjovtjørnbakkane" />
		<tag k="natural" v="slope" />
		<tag k="place" v="locality" />
		<tag k="ssr:stedsnr" v="326457" />
	</node>
	<node lat="58.85999166674325" lon="7.820105549064212" id="-38014">
		<tag k="name" v="Monebrotet" />
		<tag k="natural" v="slope" />
		<tag k="place" v="locality" />
		<tag k="ssr:stedsnr" v="266120" />
	</node>
	<node lat="58.95278055411666" lon="7.545880547752508" id="-38015">
		<tag k="name" v="Lauvtjønnbakkane" />
		<tag k="natural" v="slope" />
		<tag k="place" v="locality" />
		<tag k="ssr:stedsnr" v="266123" />
	</node>
	<node lat="58.95040833632229" lon="7.535755552124463" id="-38016">
		<tag k="name" v="Syd på dalene" />
		<tag k="natural" v="valley" />
		<tag k="place" v="locality" />
		<tag k="ssr:stedsnr" v="266124" />
	</node>
	<node lat="58.716291663520515" lon="7.911319452529518" id="-38019">
		<tag k="name" v="Vatneheii" />
		<tag k="natural" v="hill" />
		<tag k="place" v="locality" />
		<tag k="ssr:stedsnr" v="266053" />
	</node>
	<node lat="58.97205833513743" lon="7.579619451398005" id="-38020">
		<tag k="name" v="Lislenjuk" />
		<tag k="natural" v="ridge" />
		<tag k="place" v="locality" />
		<tag k="ssr:stedsnr" v="266068" />
	</node>
	<node lat="58.783025000007186" lon="7.798380560883285" id="-38022">
		<tag k="name" v="Ospelundbakken" />
		<tag k="natural" v="slope" />
		<tag k="place" v="locality" />
		<tag k="ssr:stedsnr" v="266074" />
	</node>
	<node lat="58.84065277525927" lon="7.748897213870866" id="-38029">
		<tag k="fixme" v="consider natural=peak for the most distinct mountains in the district" />
		<tag k="name" v="Middagsnuten" />
		<tag k="natural" v="hill" />
		<tag k="place" v="locality" />
		<tag k="ssr:stedsnr" v="266250" />
	</node>
	<node lat="58.83737222440843" lon="7.65568611718249" id="-38034">
		<tag k="fixme" v="consider natural=peak for the most distinct mountains in the district" />
		<tag k="name" v="Litjønn-nuten" />
		<tag k="natural" v="hill" />
		<tag k="place" v="locality" />
		<tag k="ssr:stedsnr" v="266272" />
	</node>
	<node lat="58.88664166490214" lon="7.707527771094168" id="-38037">
		<tag k="name" v="Tarkjellsberg" />
		<tag k="place" v="locality" />
		<tag k="ssr:stedsnr" v="266280" />
	</node>
	<node lat="58.995574999114574" lon="7.657513893953843" id="-38043">
		<tag k="name" v="Heisvasslii" />
		<tag k="natural" v="slope" />
		<tag k="place" v="locality" />
		<tag k="ssr:stedsnr" v="266356" />
	</node>
	<node lat="58.93325833230277" lon="7.765466659747456" id="-38046">
		<tag k="name" v="Monen" />
		<tag k="place" v="locality" />
		<tag k="ssr:stedsnr" v="266370" />
	</node>
	<node lat="58.93485556001743" lon="7.769261117449603" id="-38047">
		<tag k="name" v="Kvernhusnausen" />
		<tag k="natural" v="hill" />
		<tag k="place" v="locality" />
		<tag k="ssr:stedsnr" v="266371" />
	</node>
	<node lat="58.968238884630765" lon="7.688083337181507" id="-38048">
		<tag k="fixme" v="consider natural=peak for the most distinct mountains in the district" />
		<tag k="name" v="Tofjell" />
		<tag k="natural" v="hill" />
		<tag k="place" v="locality" />
		<tag k="ssr:stedsnr" v="266455" />
	</node>
	<node lat="58.95381666236207" lon="7.6287666697345" id="-38049">
		<tag k="name" v="Småstøylsheii" />
		<tag k="natural" v="hill" />
		<tag k="place" v="locality" />
		<tag k="ssr:stedsnr" v="266465" />
	</node>
	<node lat="58.954663885734746" lon="7.678236116722338" id="-38051">
		<tag k="name" v="Kosmo" />
		<tag k="place" v="locality" />
		<tag k="ssr:stedsnr" v="266471" />
	</node>
	<node lat="58.67454999980477" lon="7.832008339004383" id="-38052">
		<tag k="fixme" v="consider natural=peak for the most distinct mountains in the district" />
		<tag k="name" v="Heståsen" />
		<tag k="natural" v="hill" />
		<tag k="place" v="locality" />
		<tag k="ssr:stedsnr" v="266472" />
	</node>
	<node lat="58.9339611138192" lon="7.887313888581356" id="-38053">
		<tag k="name" v="Sandvasshommen" />
		<tag k="natural" v="slope" />
		<tag k="place" v="locality" />
		<tag k="ssr:stedsnr" v="266801" />
	</node>
	<node lat="58.924577778557335" lon="7.797025002865273" id="-38054">
		<tag k="fixme" v="consider natural=peak for the most distinct mountains in the district" />
		<tag k="name" v="Ormsænuten" />
		<tag k="natural" v="hill" />
		<tag k="place" v="locality" />
		<tag k="ssr:stedsnr" v="266851" />
	</node>
	<node lat="58.93781667023973" lon="7.9430277721220195" id="-38055">
		<tag k="name" v="Tjørnfly" />
		<tag k="natural" v="slope" />
		<tag k="place" v="locality" />
		<tag k="ssr:stedsnr" v="266772" />
	</node>
	<node lat="58.91467222240321" lon="7.796755562672117" id="-38056">
		<tag k="name" v="Tommasskår" />
		<tag k="natural" v="valley" />
		<tag k="place" v="locality" />
		<tag k="ssr:stedsnr" v="266859" />
	</node>
	<node lat="58.723291669506196" lon="7.8705777696328205" id="-38061">
		<tag k="name" v="Ålslåttknatten" />
		<tag k="natural" v="hill" />
		<tag k="place" v="locality" />
		<tag k="ssr:stedsnr" v="204001" />
	</node>
	<node lat="58.76792499664316" lon="7.867366668011296" id="-38062">
		<tag k="name" v="Bøykjeli" />
		<tag k="natural" v="slope" />
		<tag k="place" v="locality" />
		<tag k="ssr:stedsnr" v="204138" />
	</node>
	<node lat="58.80583055907998" lon="7.8351166688400555" id="-38063">
		<tag k="name" v="Stokkelidi" />
		<tag k="natural" v="slope" />
		<tag k="place" v="locality" />
		<tag k="ssr:stedsnr" v="204102" />
	</node>
	<node lat="58.9441861109468" lon="7.683055553498391" id="-38068">
		<tag k="fixme" v="consider natural=peak for the most distinct mountains in the district" />
		<tag k="name" v="Åsen" />
		<tag k="natural" v="hill" />
		<tag k="place" v="locality" />
		<tag k="ssr:stedsnr" v="205050" />
	</node>
	<node lat="58.981222223709054" lon="7.569952770177145" id="-38069">
		<tag k="name" v="Toskaret" />
		<tag k="natural" v="valley" />
		<tag k="place" v="locality" />
		<tag k="ssr:stedsnr" v="205088" />
	</node>
	<node lat="58.980630559970535" lon="7.57700278588641" id="-38070">
		<tag k="name" v="Bakkan" />
		<tag k="natural" v="slope" />
		<tag k="place" v="locality" />
		<tag k="ssr:stedsnr" v="205093" />
	</node>
	<node lat="58.97612499923093" lon="7.598588894187819" id="-38071">
		<tag k="name" v="Vedbakkan" />
		<tag k="natural" v="slope" />
		<tag k="place" v="locality" />
		<tag k="ssr:stedsnr" v="205099" />
	</node>
	<node lat="58.83128610839296" lon="7.611266660018864" id="-38074">
		<tag k="name" v="Kvævefjell" />
		<tag k="natural" v="hill" />
		<tag k="place" v="locality" />
		<tag k="ssr:stedsnr" v="205304" />
	</node>
	<node lat="58.88145833526461" lon="7.6249083365599875" id="-38076">
		<tag k="name" v="Lega" />
		<tag k="natural" v="valley" />
		<tag k="place" v="locality" />
		<tag k="ssr:stedsnr" v="205316" />
	</node>
	<node lat="58.87055278209712" lon="7.753877768953997" id="-38078">
		<tag k="name" v="Fyrestøyldalen" />
		<tag k="natural" v="valley" />
		<tag k="place" v="locality" />
		<tag k="ssr:stedsnr" v="205319" />
	</node>
	<node lat="58.91496388503488" lon="7.771408340208235" id="-38080">
		<tag k="fixme" v="consider natural=peak for the most distinct mountains in the district" />
		<tag k="name" v="Mikjålsbærheii" />
		<tag k="natural" v="hill" />
		<tag k="place" v="locality" />
		<tag k="ssr:stedsnr" v="205340" />
	</node>
	<node lat="58.90896389068565" lon="7.748661105497629" id="-38082">
		<tag k="name" v="Sveestøyllii" />
		<tag k="natural" v="slope" />
		<tag k="place" v="locality" />
		<tag k="ssr:stedsnr" v="205346" />
	</node>
	<node lat="58.83212499994855" lon="7.847977779529394" id="-38086">
		<tag k="name" v="Lislehol" />
		<tag k="natural" v="valley" />
		<tag k="place" v="locality" />
		<tag k="ssr:stedsnr" v="205138" />
	</node>
	<node lat="58.77653333759172" lon="7.842780555210628" id="-38087">
		<tag k="name" v="Grasbakkane" />
		<tag k="natural" v="slope" />
		<tag k="place" v="locality" />
		<tag k="ssr:stedsnr" v="205143" />
	</node>
	<node lat="58.776991664121084" lon="7.834308340093643" id="-38088">
		<tag k="fixme" v="consider natural=peak for the most distinct mountains in the district" />
		<tag k="name" v="Kattedalsheia" />
		<tag k="natural" v="hill" />
		<tag k="place" v="locality" />
		<tag k="ssr:stedsnr" v="205146" />
	</node>
	<node lat="58.80260000050138" lon="7.869491661347325" id="-38090">
		<tag k="name" v="Ulvshibrotet" />
		<tag k="natural" v="slope" />
		<tag k="place" v="locality" />
		<tag k="ssr:stedsnr" v="205152" />
	</node>
	<node lat="58.84238611382585" lon="7.755108338396714" id="-38095">
		<tag k="name" v="Dråpoppsin" />
		<tag k="natural" v="cliff" />
		<tag k="ssr:stedsnr" v="205405" />
	</node>
	<node lat="58.93672500379594" lon="7.7422499943114405" id="-38096">
		<tag k="name" v="Solkro" />
		<tag k="place" v="locality" />
		<tag k="ssr:stedsnr" v="205435" />
	</node>
	<node lat="59.00041944392174" lon="7.659277772501336" id="-38098">
		<tag k="name" v="Heisvassdalen" />
		<tag k="natural" v="valley" />
		<tag k="place" v="locality" />
		<tag k="ssr:stedsnr" v="205410" />
	</node>
	<node lat="58.76178333580431" lon="7.750991664237388" id="-38099">
		<tag k="name" v="Ospehommen" />
		<tag k="natural" v="slope" />
		<tag k="place" v="locality" />
		<tag k="ssr:stedsnr" v="205438" />
	</node>
	<node lat="58.69753055216174" lon="7.748108328203756" id="-38100">
		<tag k="name" v="Pærsli" />
		<tag k="natural" v="slope" />
		<tag k="place" v="locality" />
		<tag k="ssr:stedsnr" v="205412" />
	</node>
	<node lat="58.76355278164799" lon="7.785455563438186" id="-38102">
		<tag k="name" v="Kroni" />
		<tag k="natural" v="valley" />
		<tag k="place" v="locality" />
		<tag k="ssr:stedsnr" v="205465" />
	</node>
	<node lat="58.98128889332447" lon="7.650116671695183" id="-38104">
		<tag k="name" v="Kommunestykket" />
		<tag k="place" v="locality" />
		<tag k="ssr:stedsnr" v="205480" />
	</node>
	<node lat="58.84319999635806" lon="7.877577773139485" id="-38105">
		<tag k="name" v="Saurdalen" />
		<tag k="natural" v="valley" />
		<tag k="place" v="locality" />
		<tag k="ssr:stedsnr" v="205486" />
	</node>
	<node lat="58.95147500051413" lon="7.695813895209606" id="-38107">
		<tag k="name" v="Vikeskotet" />
		<tag k="natural" v="slope" />
		<tag k="place" v="locality" />
		<tag k="ssr:stedsnr" v="205537" />
	</node>
	<node lat="58.95431666656419" lon="7.692261114029565" id="-38108">
		<tag k="name" v="Søndre Kosi" />
		<tag k="natural" v="slope" />
		<tag k="place" v="locality" />
		<tag k="ssr:stedsnr" v="205538" />
	</node>
	<node lat="58.956061113156956" lon="7.70279443769524" id="-38109">
		<tag k="name" v="Småjuvi" />
		<tag k="natural" v="gorge" />
		<tag k="ssr:stedsnr" v="205541" />
	</node>
	<node lat="58.95553888945213" lon="7.710469452440268" id="-38110">
		<tag k="name" v="Bekkedalen" />
		<tag k="natural" v="valley" />
		<tag k="place" v="locality" />
		<tag k="ssr:stedsnr" v="205543" />
	</node>
	<node lat="58.67229166829897" lon="7.809933341225788" id="-38111">
		<tag k="name" v="Sandviksdalen" />
		<tag k="natural" v="valley" />
		<tag k="place" v="locality" />
		<tag k="ssr:stedsnr" v="205544" />
	</node>
	<node lat="58.74114722027003" lon="7.654133334554123" id="-38115">
		<tag k="name" v="Knutsli" />
		<tag k="natural" v="slope" />
		<tag k="place" v="locality" />
		<tag k="ssr:stedsnr" v="216802" />
	</node>
	<node lat="58.669911112787055" lon="7.859030558020289" id="-38118">
		<tag k="name" v="Hedderhommen" />
		<tag k="natural" v="valley" />
		<tag k="place" v="locality" />
		<tag k="ssr:stedsnr" v="216904" />
	</node>
	<node lat="58.90442778009617" lon="7.933491667268187" id="-38122">
		<tag k="fixme" v="consider natural=peak for the most distinct mountains in the district" />
		<tag k="name" v="Valefjell" />
		<tag k="natural" v="hill" />
		<tag k="place" v="locality" />
		<tag k="ssr:stedsnr" v="216977" />
	</node>
	<node lat="58.80041666269023" lon="7.975883341238033" id="-38123">
		<tag k="name" v="Glerhaug" />
		<tag k="place" v="locality" />
		<tag k="ssr:stedsnr" v="216877" />
	</node>
	<node lat="58.99207777760984" lon="7.9309305637116525" id="-38129">
		<tag k="fixme" v="consider natural=peak for the most distinct mountains in the district" />
		<tag k="name" v="Vardeheii" />
		<tag k="natural" v="hill" />
		<tag k="place" v="locality" />
		<tag k="ssr:stedsnr" v="270361" />
	</node>
	<node lat="58.92808888592015" lon="7.504155564193087" id="-38132">
		<tag k="fixme" v="consider natural=peak for the most distinct mountains in the district" />
		<tag k="name" v="Rimestrondfjellet" />
		<tag k="natural" v="hill" />
		<tag k="place" v="locality" />
		<tag k="ssr:stedsnr" v="243484" />
	</node>
	<node lat="58.93240833222108" lon="7.568630560040073" id="-38133">
		<tag k="name" v="Storrkvæven" />
		<tag k="natural" v="valley" />
		<tag k="place" v="locality" />
		<tag k="ssr:stedsnr" v="243488" />
	</node>
	<node lat="58.67897777395368" lon="7.913119451764868" id="-38134">
		<tag k="name" v="Kvidalen" />
		<tag k="natural" v="valley" />
		<tag k="place" v="locality" />
		<tag k="ssr:stedsnr" v="243603" />
	</node>
	<node lat="58.662613890050636" lon="7.856013886170664" id="-38137">
		<tag k="alt_name" v="Vassendhei" />
		<tag k="fixme" v="consider natural=peak for the most distinct mountains in the district" />
		<tag k="name" v="Vassendheii" />
		<tag k="natural" v="hill" />
		<tag k="place" v="locality" />
		<tag k="ssr:stedsnr" v="243534" />
	</node>
	<node lat="58.849611112569704" lon="7.730802773793206" id="-38139">
		<tag k="fixme" v="consider natural=peak for the most distinct mountains in the district" />
		<tag k="name" v="Straumslandsnuten" />
		<tag k="natural" v="hill" />
		<tag k="place" v="locality" />
		<tag k="ssr:stedsnr" v="243740" />
	</node>
	<node lat="58.853825002550344" lon="7.78045000708236" id="-38140">
		<tag k="fixme" v="consider natural=peak for the most distinct mountains in the district" />
		<tag k="name" v="Urdvikheii" />
		<tag k="natural" v="hill" />
		<tag k="place" v="locality" />
		<tag k="ssr:stedsnr" v="243742" />
	</node>
	<node lat="58.93511944364019" lon="7.317783339242776" id="-38143">
		<tag k="name" v="Småtjørndalane" />
		<tag k="natural" v="valley" />
		<tag k="place" v="locality" />
		<tag k="ssr:stedsnr" v="244202" />
	</node>
	<node lat="58.809086113297866" lon="7.647055562020707" id="-38148">
		<tag k="name" v="Bjørnlinuten" />
		<tag k="natural" v="hill" />
		<tag k="place" v="locality" />
		<tag k="ssr:stedsnr" v="244581" />
	</node>
	<node lat="58.88341667022608" lon="7.768774998866042" id="-38152">
		<tag k="fixme" v="consider natural=peak for the most distinct mountains in the district" />
		<tag k="name" v="Sandnesheii" />
		<tag k="natural" v="hill" />
		<tag k="place" v="locality" />
		<tag k="ssr:stedsnr" v="244733" />
	</node>
	<node lat="58.758927773612236" lon="7.727580555533846" id="-38154">
		<tag k="fixme" v="consider natural=peak for the most distinct mountains in the district" />
		<tag k="name" v="Åstøylsknollen" />
		<tag k="natural" v="hill" />
		<tag k="place" v="locality" />
		<tag k="ssr:stedsnr" v="452344" />
	</node>
	<node lat="58.84033611207124" lon="7.877505553928757" id="-38158">
		<tag k="name" v="Skogedalen" />
		<tag k="natural" v="valley" />
		<tag k="place" v="locality" />
		<tag k="ssr:stedsnr" v="452388" />
	</node>
	<node lat="58.706505552770544" lon="7.879197230170975" id="-38159">
		<tag k="name" v="Blautedal" />
		<tag k="natural" v="valley" />
		<tag k="place" v="locality" />
		<tag k="ssr:stedsnr" v="265046" />
	</node>
	<node lat="58.992080552060365" lon="7.517427772814186" id="-38160">
		<tag k="name" v="Bjådalane" />
		<tag k="natural" v="valley" />
		<tag k="place" v="locality" />
		<tag k="ssr:stedsnr" v="266005" />
	</node>
	<node lat="58.98513333605379" lon="7.634552785278632" id="-38162">
		<tag k="name" v="Håbrudalen" />
		<tag k="natural" v="valley" />
		<tag k="place" v="locality" />
		<tag k="ssr:stedsnr" v="266043" />
	</node>
	<node lat="58.777658336542885" lon="7.802427783231487" id="-38164">
		<tag k="name" v="Smieristi" />
		<tag k="natural" v="ridge" />
		<tag k="place" v="locality" />
		<tag k="ssr:stedsnr" v="266085" />
	</node>
	<node lat="58.983413888266014" lon="7.5557694456518405" id="-38165">
		<tag k="name" v="Underforlii" />
		<tag k="natural" v="slope" />
		<tag k="place" v="locality" />
		<tag k="ssr:stedsnr" v="266090" />
	</node>
	<node lat="58.74734166716178" lon="7.793261108640142" id="-38166">
		<tag k="name" v="Hagenesristi" />
		<tag k="natural" v="ridge" />
		<tag k="place" v="locality" />
		<tag k="ssr:stedsnr" v="266094" />
	</node>
	<node lat="58.97987222037153" lon="7.573924997340931" id="-38167">
		<tag k="name" v="Bubakk" />
		<tag k="natural" v="slope" />
		<tag k="place" v="locality" />
		<tag k="ssr:stedsnr" v="266095" />
	</node>
	<node lat="58.80706944781871" lon="7.821011119056264" id="-38168">
		<tag k="name" v="Tjågbraut" />
		<tag k="natural" v="slope" />
		<tag k="place" v="locality" />
		<tag k="ssr:stedsnr" v="266097" />
	</node>
	<node lat="58.84573611294264" lon="7.794633335146598" id="-38171">
		<tag k="name" v="Uppsalbrokklia" />
		<tag k="natural" v="slope" />
		<tag k="place" v="locality" />
		<tag k="ssr:stedsnr" v="266106" />
	</node>
	<node lat="58.83271111233289" lon="7.846816662699952" id="-38175">
		<tag k="name" v="Storehol" />
		<tag k="natural" v="valley" />
		<tag k="place" v="locality" />
		<tag k="ssr:stedsnr" v="266135" />
	</node>
	<node lat="58.77800000210518" lon="7.837749998288545" id="-38178">
		<tag k="name" v="Kattedalen" />
		<tag k="natural" v="valley" />
		<tag k="place" v="locality" />
		<tag k="ssr:stedsnr" v="266143" />
	</node>
	<node lat="58.74869722588512" lon="7.8589611160881745" id="-38185">
		<tag k="name" v="Suggeberg" />
		<tag k="natural" v="slope" />
		<tag k="place" v="locality" />
		<tag k="ssr:stedsnr" v="266234" />
	</node>
	<node lat="58.755819448327394" lon="7.877222230013962" id="-38186">
		<tag k="fixme" v="consider natural=peak for the most distinct mountains in the district" />
		<tag k="name" v="Ånevassmyrknuten" />
		<tag k="natural" v="hill" />
		<tag k="place" v="locality" />
		<tag k="ssr:stedsnr" v="266243" />
	</node>
	<node lat="58.87842777830185" lon="7.662005548418299" id="-38188">
		<tag k="name" v="Slarkjin" />
		<tag k="natural" v="slope" />
		<tag k="place" v="locality" />
		<tag k="ssr:stedsnr" v="266287" />
	</node>
	<node lat="58.90439166435881" lon="7.750483339411116" id="-38189">
		<tag k="name" v="Kyrkjenausen" />
		<tag k="natural" v="hill" />
		<tag k="place" v="locality" />
		<tag k="ssr:stedsnr" v="266295" />
	</node>
	<node lat="58.90943055120754" lon="7.7565694363341215" id="-38190">
		<tag k="name" v="Grånefloti" />
		<tag k="natural" v="slope" />
		<tag k="place" v="locality" />
		<tag k="ssr:stedsnr" v="266297" />
	</node>
	<node lat="58.75753611080317" lon="7.763202778522507" id="-38192">
		<tag k="name" v="Krubba" />
		<tag k="natural" v="valley" />
		<tag k="place" v="locality" />
		<tag k="ssr:stedsnr" v="266408" />
	</node>
	<node lat="58.76195555362389" lon="7.741702776859234" id="-38193">
		<tag k="name" v="Kringlemyrlidi" />
		<tag k="natural" v="slope" />
		<tag k="place" v="locality" />
		<tag k="ssr:stedsnr" v="266409" />
	</node>
	<node lat="58.980294447910495" lon="7.627025001876043" id="-38194">
		<tag k="name" v="Håbakk" />
		<tag k="natural" v="slope" />
		<tag k="place" v="locality" />
		<tag k="ssr:stedsnr" v="266416" />
	</node>
	<node lat="58.84983333497067" lon="7.937316660240919" id="-38195">
		<tag k="name" v="Varmekro" />
		<tag k="natural" v="slope" />
		<tag k="place" v="locality" />
		<tag k="ssr:stedsnr" v="266437" />
	</node>
	<node lat="58.77899722430965" lon="7.762069443784105" id="-38197">
		<tag k="name" v="Bulidi" />
		<tag k="natural" v="slope" />
		<tag k="place" v="locality" />
		<tag k="ssr:stedsnr" v="266340" />
	</node>
	<node lat="58.772600004030004" lon="7.764566665189064" id="-38199">
		<tag k="name" v="Myrbrotet" />
		<tag k="natural" v="slope" />
		<tag k="place" v="locality" />
		<tag k="ssr:stedsnr" v="266386" />
	</node>
	<node lat="58.971936107393496" lon="7.747183330911432" id="-38200">
		<tag k="name" v="Vest-Jeddin" />
		<tag k="natural" v="slope" />
		<tag k="place" v="locality" />
		<tag k="ssr:stedsnr" v="266387" />
	</node>
	<node lat="58.98139722474972" lon="7.720263884845161" id="-38203">
		<tag k="name" v="Heddelii" />
		<tag k="natural" v="slope" />
		<tag k="place" v="locality" />
		<tag k="ssr:stedsnr" v="266395" />
	</node>
	<node lat="58.98834444045252" lon="7.740394452034622" id="-38204">
		<tag k="name" v="Skori" />
		<tag k="natural" v="valley" />
		<tag k="place" v="locality" />
		<tag k="ssr:stedsnr" v="266399" />
	</node>
	<node lat="58.750408337225515" lon="7.6729749958561" id="-38209">
		<tag k="name" v="Løyndehommen" />
		<tag k="natural" v="valley" />
		<tag k="place" v="locality" />
		<tag k="ssr:stedsnr" v="458855" />
	</node>
	<node lat="59.06060277841145" lon="7.826500004751932" id="-38212">
		<tag k="fixme" v="consider natural=peak for the most distinct mountains in the district" />
		<tag k="name" v="Maretjønnfjell" />
		<tag k="natural" v="hill" />
		<tag k="place" v="locality" />
		<tag k="ssr:stedsnr" v="459697" />
	</node>
	<node lat="59.02778610684176" lon="7.862844446533818" id="-38213">
		<tag k="fixme" v="consider natural=peak for the most distinct mountains in the district" />
		<tag k="name" v="Granfjell" />
		<tag k="natural" v="hill" />
		<tag k="place" v="locality" />
		<tag k="ssr:stedsnr" v="459760" />
	</node>
	<node lat="58.97351944048347" lon="7.932216675041065" id="-38214">
		<tag k="name" v="Hommelia" />
		<tag k="natural" v="slope" />
		<tag k="place" v="locality" />
		<tag k="ssr:stedsnr" v="459764" />
	</node>
	<node lat="58.97494444770349" lon="7.911263894652214" id="-38215">
		<tag k="fixme" v="consider natural=peak for the most distinct mountains in the district" />
		<tag k="name" v="Stedjeheii" />
		<tag k="natural" v="hill" />
		<tag k="place" v="locality" />
		<tag k="ssr:stedsnr" v="459766" />
	</node>
	<node lat="59.009702776080914" lon="7.851241660489558" id="-38217">
		<tag k="name" v="Vardalen" />
		<tag k="natural" v="valley" />
		<tag k="place" v="locality" />
		<tag k="ssr:stedsnr" v="276811" />
	</node>
	<node lat="59.011025001596764" lon="7.894552779256527" id="-38219">
		<tag k="fixme" v="consider natural=peak for the most distinct mountains in the district" />
		<tag k="name" v="Fantestigfjell" />
		<tag k="natural" v="hill" />
		<tag k="place" v="locality" />
		<tag k="ssr:stedsnr" v="459750" />
	</node>
	<node lat="58.99230833070583" lon="7.846824993205269" id="-38220">
		<tag k="name" v="Rjupekvæven" />
		<tag k="natural" v="valley" />
		<tag k="place" v="locality" />
		<tag k="ssr:stedsnr" v="459754" />
	</node>
	<node lat="59.01944166296587" lon="7.8076611074540345" id="-38221">
		<tag k="name" v="Tyskedalen" />
		<tag k="natural" v="valley" />
		<tag k="place" v="locality" />
		<tag k="ssr:stedsnr" v="276782" />
	</node>
	<node lat="59.029894442601275" lon="7.856552771655863" id="-38222">
		<tag k="name" v="Kvæven" />
		<tag k="natural" v="valley" />
		<tag k="place" v="locality" />
		<tag k="ssr:stedsnr" v="276792" />
	</node>
	<node lat="58.70445833016449" lon="7.9551249978969185" id="-38225">
		<tag k="name" v="Austre Kolbudalen" />
		<tag k="natural" v="valley" />
		<tag k="place" v="locality" />
		<tag k="ssr:stedsnr" v="276908" />
	</node>
	<node lat="58.88693611512805" lon="7.966577771830185" id="-38227">
		<tag k="fixme" v="consider natural=peak for the most distinct mountains in the district" />
		<tag k="name" v="Buheii" />
		<tag k="natural" v="hill" />
		<tag k="place" v="locality" />
		<tag k="ssr:stedsnr" v="276921" />
	</node>
	<node lat="58.89891388728557" lon="7.959816668957529" id="-38228">
		<tag k="name" v="Buddeto" />
		<tag k="natural" v="valley" />
		<tag k="place" v="locality" />
		<tag k="ssr:stedsnr" v="276924" />
	</node>
	<node lat="58.97221388740639" lon="7.867377776667881" id="-38229">
		<tag k="name" v="Steinbudalen" />
		<tag k="natural" v="valley" />
		<tag k="place" v="locality" />
		<tag k="ssr:stedsnr" v="459774" />
	</node>
	<node lat="58.98083333144691" lon="7.848047224589061" id="-38230">
		<tag k="name" v="Jarnverksdalen" />
		<tag k="natural" v="valley" />
		<tag k="place" v="locality" />
		<tag k="ssr:stedsnr" v="459777" />
	</node>
	<node lat="58.97925278079884" lon="7.847419448190111" id="-38231">
		<tag k="name" v="Russdalslia" />
		<tag k="natural" v="slope" />
		<tag k="place" v="locality" />
		<tag k="ssr:stedsnr" v="459780" />
	</node>
	<node lat="58.75025832966018" lon="7.668238884313153" id="-38234">
		<tag k="name" v="Skeishommen" />
		<tag k="natural" v="valley" />
		<tag k="place" v="locality" />
		<tag k="ssr:stedsnr" v="276869" />
	</node>
	<node lat="58.92180277595644" lon="7.865197220275383" id="-38235">
		<tag k="name" v="Den store kvæven" />
		<tag k="natural" v="valley" />
		<tag k="place" v="locality" />
		<tag k="ssr:stedsnr" v="276975" />
	</node>
	<node lat="58.81418055713589" lon="7.71551111742853" id="-38236">
		<tag k="name" v="Knutskvæven" />
		<tag k="natural" v="valley" />
		<tag k="place" v="locality" />
		<tag k="ssr:stedsnr" v="459845" />
	</node>
	<node lat="58.89810277689238" lon="7.8317249996144165" id="-38238">
		<tag k="name" v="Bjørnestig" />
		<tag k="natural" v="slope" />
		<tag k="place" v="locality" />
		<tag k="ssr:stedsnr" v="459983" />
	</node>
	<node lat="58.94332500271967" lon="7.7688444405432735" id="-38241">
		<tag k="name" v="Lian" />
		<tag k="natural" v="slope" />
		<tag k="place" v="locality" />
		<tag k="ssr:stedsnr" v="508437" />
	</node>
	<node lat="59.009316664985256" lon="7.495747217977795" id="-38248">
		<tag k="fixme" v="consider natural=peak for the most distinct mountains in the district" />
		<tag k="name" v="Storehei" />
		<tag k="natural" v="hill" />
		<tag k="place" v="locality" />
		<tag k="ssr:stedsnr" v="304277" />
	</node>
	<node lat="58.996052777926174" lon="7.470913880783632" id="-38258">
		<tag k="name" v="Smådalane" />
		<tag k="natural" v="valley" />
		<tag k="place" v="locality" />
		<tag k="ssr:stedsnr" v="304306" />
	</node>
	<node lat="58.845988892440495" lon="7.595150005137823" id="-38259">
		<tag k="fixme" v="consider natural=peak for the most distinct mountains in the district" />
		<tag k="name" v="Svenkeslifjellet" />
		<tag k="natural" v="hill" />
		<tag k="place" v="locality" />
		<tag k="ssr:stedsnr" v="304386" />
	</node>
	<node lat="58.90576111197375" lon="7.90850833021685" id="-38262">
		<tag k="alt_name" v="Stykkjen" />
		<tag k="fixme" v="consider natural=peak for the most distinct mountains in the district" />
		<tag k="name" v="Stykjen" />
		<tag k="natural" v="hill" />
		<tag k="place" v="locality" />
		<tag k="ssr:stedsnr" v="304704" />
	</node>
	<node lat="58.69275833032718" lon="7.889966671689139" id="-38273">
		<tag k="name" v="Trettedalen" />
		<tag k="natural" v="valley" />
		<tag k="place" v="locality" />
		<tag k="ssr:stedsnr" v="326204" />
	</node>
	<node lat="59.24859999703415" lon="6.806783328633947" id="-38280">
		<tag k="name" v="Heiane" />
		<tag k="natural" v="mountain_range" />
		<tag k="ssr:stedsnr" v="326179" />
	</node>
	<node lat="58.916436109747906" lon="7.763330548044888" id="-38282">
		<tag k="fixme" v="consider natural=peak for the most distinct mountains in the district" />
		<tag k="name" v="Fossliåsen" />
		<tag k="natural" v="hill" />
		<tag k="place" v="locality" />
		<tag k="ssr:stedsnr" v="326302" />
	</node>
	<node lat="58.72695277719349" lon="7.73044999525197" id="-38284">
		<tag k="name" v="Klyvjeliane" />
		<tag k="natural" v="slope" />
		<tag k="place" v="locality" />
		<tag k="ssr:stedsnr" v="326309" />
	</node>
	<node lat="58.95666389321336" lon="7.7051555578088955" id="-38289">
		<tag k="name" v="Hestelii" />
		<tag k="natural" v="slope" />
		<tag k="place" v="locality" />
		<tag k="ssr:stedsnr" v="326514" />
	</node>
	<node lat="58.679438889715996" lon="7.8215694508447955" id="-38291">
		<tag k="fixme" v="consider natural=peak for the most distinct mountains in the district" />
		<tag k="name" v="Hægeknipen" />
		<tag k="natural" v="hill" />
		<tag k="place" v="locality" />
		<tag k="ssr:stedsnr" v="326524" />
	</node>
	<node lat="58.948369443284925" lon="7.670313897208191" id="-38293">
		<tag k="name" v="Lii" />
		<tag k="natural" v="slope" />
		<tag k="place" v="locality" />
		<tag k="ssr:stedsnr" v="326405" />
	</node>
	<node lat="58.934400002133124" lon="7.7539249961529055" id="-38295">
		<tag k="name" v="Krubbedokki" />
		<tag k="natural" v="valley" />
		<tag k="place" v="locality" />
		<tag k="ssr:stedsnr" v="326411" />
	</node>
	<node lat="58.69440277885748" lon="7.759544450727419" id="-38297">
		<tag k="name" v="Gunnarsdal" />
		<tag k="natural" v="valley" />
		<tag k="place" v="locality" />
		<tag k="ssr:stedsnr" v="326420" />
	</node>
	<node lat="58.93753333183103" lon="7.7411111108437005" id="-38298">
		<tag k="fixme" v="consider natural=peak for the most distinct mountains in the district" />
		<tag k="name" v="Åslifjellet" />
		<tag k="natural" v="hill" />
		<tag k="place" v="locality" />
		<tag k="ssr:stedsnr" v="326429" />
	</node>
	<node lat="58.77184444355098" lon="7.785486116562975" id="-38299">
		<tag k="fixme" v="consider natural=peak for the most distinct mountains in the district" />
		<tag k="name" v="Langemyrheii" />
		<tag k="natural" v="hill" />
		<tag k="place" v="locality" />
		<tag k="ssr:stedsnr" v="326459" />
	</node>
	<node lat="58.8472611076889" lon="7.870433329534489" id="-38300">
		<tag k="alt_name" v="Sprenislii" />
		<tag k="name" v="Sprænislii" />
		<tag k="natural" v="slope" />
		<tag k="place" v="locality" />
		<tag k="ssr:stedsnr" v="326464" />
	</node>
	<node lat="58.77693610871052" lon="7.795286105923622" id="-38305">
		<tag k="name" v="Stamnesdalen" />
		<tag k="natural" v="valley" />
		<tag k="old_name" v="Steamnesdalen" />
		<tag k="place" v="locality" />
		<tag k="ssr:stedsnr" v="327077" />
	</node>
	<node lat="58.70066389089585" lon="7.974366662004504" id="-38313">
		<tag k="fixme" v="consider natural=peak for the most distinct mountains in the district" />
		<tag k="name" v="Myrholafjellet" />
		<tag k="natural" v="hill" />
		<tag k="place" v="locality" />
		<tag k="ssr:stedsnr" v="337859" />
	</node>
	<node lat="58.66274166850036" lon="7.840119444897624" id="-38316">
		<tag k="name" v="Tøyåsen" />
		<tag k="natural" v="ridge" />
		<tag k="place" v="locality" />
		<tag k="ssr:stedsnr" v="337918" />
	</node>
	<node lat="58.85551944864737" lon="7.708883341336087" id="-38321">
		<tag k="alt_name" v="Urdalsnapen" />
		<tag k="fixme" v="consider natural=peak for the most distinct mountains in the district" />
		<tag k="name" v="Urddalsnaven" />
		<tag k="natural" v="hill" />
		<tag k="place" v="locality" />
		<tag k="ssr:stedsnr" v="364403" />
	</node>
	<node lat="58.78046111230306" lon="7.662508334798488" id="-38322">
		<tag k="fixme" v="consider natural=peak for the most distinct mountains in the district" />
		<tag k="name" v="Gyfjell" />
		<tag k="natural" v="hill" />
		<tag k="place" v="locality" />
		<tag k="ssr:stedsnr" v="364564" />
	</node>
	<node lat="58.93416111454227" lon="7.619908329007313" id="-38323">
		<tag k="name" v="Glypse" />
		<tag k="natural" v="valley" />
		<tag k="place" v="locality" />
		<tag k="ssr:stedsnr" v="364486" />
	</node>
	<node lat="58.93582777732997" lon="7.227836112127729" id="-38331">
		<tag k="fixme" v="consider natural=peak for the most distinct mountains in the district" />
		<tag k="name" v="Lidvoren" />
		<tag k="natural" v="hill" />
		<tag k="old_name" v="Livoren" />
		<tag k="place" v="locality" />
		<tag k="ssr:stedsnr" v="365200" />
	</node>
	<node lat="58.965400001477924" lon="7.5259666626139605" id="-38332">
		<tag k="alt_name" v="Myrheii" />
		<tag k="fixme" v="consider natural=peak for the most distinct mountains in the district" />
		<tag k="name" v="Myrhei" />
		<tag k="natural" v="hill" />
		<tag k="place" v="locality" />
		<tag k="ssr:stedsnr" v="365306" />
	</node>
	<node lat="58.95231111402288" lon="7.2689972154918765" id="-38333">
		<tag k="fixme" v="consider natural=peak for the most distinct mountains in the district" />
		<tag k="name" v="Låghellerknuten" />
		<tag k="natural" v="hill" />
		<tag k="old_name" v="Låghellerknutane" />
		<tag k="place" v="locality" />
		<tag k="ssr:stedsnr" v="365253" />
	</node>
	<node lat="58.86347500368507" lon="7.131763890735126" id="-38347">
		<tag k="name" v="Grøna leitet" />
		<tag k="place" v="locality" />
		<tag k="ssr:stedsnr" v="546146" />
	</node>
	<node lat="58.70208055667613" lon="7.880508336644981" id="-38349">
		<tag k="name" v="Rosvasslii" />
		<tag k="natural" v="slope" />
		<tag k="place" v="locality" />
		<tag k="ssr:stedsnr" v="386059" />
	</node>
	<node lat="58.85410000157769" lon="7.710061107061658" id="-38350">
		<tag k="name" v="Urdalen" />
		<tag k="natural" v="valley" />
		<tag k="place" v="locality" />
		<tag k="ssr:stedsnr" v="386260" />
	</node>
	<node lat="58.99119722637039" lon="7.547305554233183" id="-38351">
		<tag k="name" v="Bakkane" />
		<tag k="natural" v="slope" />
		<tag k="place" v="locality" />
		<tag k="ssr:stedsnr" v="387004" />
	</node>
	<node lat="58.711866663411875" lon="7.860983334216338" id="-38352">
		<tag k="name" v="Brattekleiv" />
		<tag k="natural" v="slope" />
		<tag k="place" v="locality" />
		<tag k="ssr:stedsnr" v="387013" />
	</node>
	<node lat="58.943997224505" lon="7.617144438017834" id="-38353">
		<tag k="fixme" v="consider natural=peak for the most distinct mountains in the district" />
		<tag k="name" v="Kongsnatten" />
		<tag k="natural" v="hill" />
		<tag k="place" v="locality" />
		<tag k="ssr:stedsnr" v="387015" />
	</node>
	<node lat="59.0054416631521" lon="7.535166672717274" id="-38356">
		<tag k="name" v="Atikfloten" />
		<tag k="place" v="locality" />
		<tag k="ssr:stedsnr" v="387021" />
	</node>
	<node lat="58.79973332957604" lon="7.845766659050761" id="-38366">
		<tag k="name" v="Torrforbrotet" />
		<tag k="natural" v="slope" />
		<tag k="place" v="locality" />
		<tag k="ssr:stedsnr" v="387155" />
	</node>
	<node lat="58.76305278115593" lon="7.851616662805193" id="-38375">
		<tag k="name" v="Tveitbergi" />
		<tag k="place" v="locality" />
		<tag k="ssr:stedsnr" v="387202" />
	</node>
	<node lat="58.69370277793123" lon="7.842969449868835" id="-38378">
		<tag k="name" v="Maridalen" />
		<tag k="natural" v="valley" />
		<tag k="place" v="locality" />
		<tag k="ssr:stedsnr" v="387227" />
	</node>
	<node lat="58.760061106994094" lon="7.882408338704693" id="-38381">
		<tag k="name" v="Bjørndalsheii" />
		<tag k="natural" v="hill" />
		<tag k="place" v="locality" />
		<tag k="ssr:stedsnr" v="387258" />
	</node>
	<node lat="58.896872222389575" lon="7.660058338530759" id="-38383">
		<tag k="name" v="Grimelid" />
		<tag k="natural" v="slope" />
		<tag k="place" v="locality" />
		<tag k="ssr:stedsnr" v="387295" />
	</node>
	<node lat="58.87333055493666" lon="7.736425003751991" id="-38384">
		<tag k="name" v="Myholskotet" />
		<tag k="natural" v="slope" />
		<tag k="place" v="locality" />
		<tag k="ssr:stedsnr" v="387299" />
	</node>
	<node lat="58.692927777480485" lon="7.8241472210560294" id="-38385">
		<tag k="name" v="Heddelii" />
		<tag k="natural" v="slope" />
		<tag k="place" v="locality" />
		<tag k="ssr:stedsnr" v="387404" />
	</node>
	<node lat="58.93985277740944" lon="7.754474995516015" id="-38386">
		<tag k="fixme" v="consider natural=peak for the most distinct mountains in the district" />
		<tag k="name" v="Litveitsfjell" />
		<tag k="natural" v="hill" />
		<tag k="place" v="locality" />
		<tag k="ssr:stedsnr" v="387408" />
	</node>
	<node lat="58.690738888370404" lon="7.752333325821689" id="-38387">
		<tag k="name" v="Kleppsåsen" />
		<tag k="natural" v="hill" />
		<tag k="place" v="locality" />
		<tag k="ssr:stedsnr" v="387410" />
	</node>
	<node lat="58.767247223262366" lon="7.765275005985955" id="-38388">
		<tag k="name" v="Nystøyllidi" />
		<tag k="natural" v="slope" />
		<tag k="place" v="locality" />
		<tag k="ssr:stedsnr" v="387418" />
	</node>
	<node lat="58.93085000163109" lon="7.745477775924016" id="-38389">
		<tag k="fixme" v="consider natural=peak for the most distinct mountains in the district" />
		<tag k="name" v="Tønipen" />
		<tag k="natural" v="hill" />
		<tag k="place" v="locality" />
		<tag k="ssr:stedsnr" v="387424" />
	</node>
	<node lat="58.67335278204705" lon="7.819802775687235" id="-38391">
		<tag k="name" v="Suteskard" />
		<tag k="natural" v="valley" />
		<tag k="place" v="locality" />
		<tag k="ssr:stedsnr" v="387511" />
	</node>
	<node lat="58.9593583345454" lon="7.866472229006884" id="-38394">
		<tag k="name" v="Folefallheii" />
		<tag k="natural" v="hill" />
		<tag k="place" v="locality" />
		<tag k="ssr:stedsnr" v="387804" />
	</node>
	<node lat="58.777538887657705" lon="7.7842222237320975" id="-38397">
		<tag k="name" v="Kviheii" />
		<tag k="natural" v="hill" />
		<tag k="place" v="locality" />
		<tag k="ssr:stedsnr" v="388091" />
	</node>
	<node lat="59.04035555953366" lon="7.630619439259837" id="-38400">
		<tag k="name" v="Gråndalen" />
		<tag k="natural" v="valley" />
		<tag k="place" v="locality" />
		<tag k="ssr:stedsnr" v="398709" />
	</node>
	<node lat="59.02786666251191" lon="7.842675002012589" id="-38401">
		<tag k="fixme" v="consider natural=peak for the most distinct mountains in the district" />
		<tag k="name" v="Nutan" />
		<tag k="natural" v="hill" />
		<tag k="place" v="locality" />
		<tag k="ssr:stedsnr" v="398729" />
	</node>
	<node lat="58.72815832977382" lon="7.712152784008116" id="-38404">
		<tag k="name" v="Bukkeberg" />
		<tag k="natural" v="slope" />
		<tag k="place" v="locality" />
		<tag k="ssr:stedsnr" v="398803" />
	</node>
	<node lat="58.788777777818595" lon="7.63135833395234" id="-38406">
		<tag k="fixme" v="consider natural=peak for the most distinct mountains in the district" />
		<tag k="name" v="Kollevarden" />
		<tag k="natural" v="hill" />
		<tag k="place" v="locality" />
		<tag k="ssr:stedsnr" v="398834" />
	</node>
	<node lat="58.99086944245991" lon="7.424330546965831" id="-38407">
		<tag k="name" v="Roddeivssprang" />
		<tag k="natural" v="valley" />
		<tag k="place" v="locality" />
		<tag k="ssr:stedsnr" v="398782" />
	</node>
	<node lat="58.811027778762" lon="7.900563888857849" id="-38411">
		<tag k="fixme" v="consider natural=peak for the most distinct mountains in the district" />
		<tag k="name" v="Olufsnuten" />
		<tag k="natural" v="hill" />
		<tag k="place" v="locality" />
		<tag k="ssr:stedsnr" v="398929" />
	</node>
	<node lat="58.94423610768214" lon="7.8320416584401595" id="-38412">
		<tag k="fixme" v="consider natural=peak for the most distinct mountains in the district" />
		<tag k="name" v="Rysefjell" />
		<tag k="natural" v="hill" />
		<tag k="place" v="locality" />
		<tag k="ssr:stedsnr" v="485601" />
	</node>
	<node lat="58.8384027804122" lon="7.1811000066782285" id="-38414">
		<tag k="alt_name" v="Holmevassknuten, store" />
		<tag k="fixme" v="multiple name tags, choose one and add the other to alt_name; consider natural=peak for the most distinct mountains in the district" />
		<tag k="name" v="Holmevassknuten;Store Holmevassknuten" />
		<tag k="natural" v="hill" />
		<tag k="place" v="locality" />
		<tag k="ssr:stedsnr" v="486134" />
	</node>
	<node lat="58.96641389133273" lon="7.617036108035196" id="-38419">
		<tag k="name" v="Grasdalen" />
		<tag k="natural" v="valley" />
		<tag k="place" v="locality" />
		<tag k="ssr:stedsnr" v="486282" />
	</node>
	<node lat="59.02112500333311" lon="7.626611108471494" id="-38421">
		<tag k="fixme" v="consider natural=peak for the most distinct mountains in the district" />
		<tag k="name" v="Bukkenapen" />
		<tag k="natural" v="hill" />
		<tag k="place" v="locality" />
		<tag k="ssr:stedsnr" v="486313" />
	</node>
	<node lat="58.969749997846876" lon="7.533275003641042" id="-38423">
		<tag k="fixme" v="consider natural=peak for the most distinct mountains in the district" />
		<tag k="name" v="Hanås" />
		<tag k="natural" v="hill" />
		<tag k="place" v="locality" />
		<tag k="ssr:stedsnr" v="486316" />
	</node>
	<node lat="58.9899555559335" lon="7.678288891648165" id="-38424">
		<tag k="alt_name" v="Åsane" />
		<tag k="fixme" v="consider natural=peak for the most distinct mountains in the district" />
		<tag k="name" v="Åsen" />
		<tag k="natural" v="hill" />
		<tag k="place" v="locality" />
		<tag k="ssr:stedsnr" v="486329" />
	</node>
	<node lat="59.00460832966669" lon="7.452750008027367" id="-38425">
		<tag k="alt_name" v="Sjauskjerhei" />
		<tag k="fixme" v="consider natural=peak for the most distinct mountains in the district" />
		<tag k="name" v="Sjauskjerheii" />
		<tag k="natural" v="hill" />
		<tag k="place" v="locality" />
		<tag k="ssr:stedsnr" v="486330" />
	</node>
	<node lat="58.888999999046995" lon="7.419652780770185" id="-38431">
		<tag k="name" v="Ørnevengjen" />
		<tag k="natural" v="hill" />
		<tag k="place" v="locality" />
		<tag k="ssr:stedsnr" v="486460" />
	</node>
	<node lat="58.88068333450343" lon="7.424072229375392" id="-38432">
		<tag k="name" v="Steinbudalen" />
		<tag k="natural" v="valley" />
		<tag k="place" v="locality" />
		<tag k="ssr:stedsnr" v="486461" />
	</node>
	<node lat="58.86113332918596" lon="7.545727780588705" id="-38434">
		<tag k="name" v="Verdalen" />
		<tag k="natural" v="valley" />
		<tag k="place" v="locality" />
		<tag k="ssr:stedsnr" v="486439" />
	</node>
	<node lat="58.96675555965489" lon="7.83039999907285" id="-38435">
		<tag k="fixme" v="consider natural=peak for the most distinct mountains in the district" />
		<tag k="name" v="Buheii" />
		<tag k="natural" v="hill" />
		<tag k="place" v="locality" />
		<tag k="ssr:stedsnr" v="486643" />
	</node>
	<node lat="58.77697499735298" lon="7.939636105561713" id="-38442">
		<tag k="name" v="Linuten" />
		<tag k="natural" v="hill" />
		<tag k="place" v="locality" />
		<tag k="ssr:stedsnr" v="486829" />
	</node>
	<node lat="58.82485555352166" lon="7.798894444661928" id="-38449">
		<tag k="name" v="Prestlii" />
		<tag k="natural" v="slope" />
		<tag k="place" v="locality" />
		<tag k="ssr:stedsnr" v="424718" />
	</node>
	<node lat="58.91720833113055" lon="7.698299996864504" id="-38453">
		<tag k="alt_name" v="Geiteryggen" />
		<tag k="fixme" v="consider natural=peak for the most distinct mountains in the district" />
		<tag k="name" v="Geitryggen" />
		<tag k="natural" v="hill" />
		<tag k="place" v="locality" />
		<tag k="ssr:stedsnr" v="425453" />
	</node>
	<node lat="58.944300003417204" lon="7.756541671560952" id="-38459">
		<tag k="fixme" v="consider natural=peak for the most distinct mountains in the district" />
		<tag k="name" v="Napen" />
		<tag k="natural" v="hill" />
		<tag k="place" v="locality" />
		<tag k="ssr:stedsnr" v="426203" />
	</node>
	<node lat="59.01791666783106" lon="7.636577780363388" id="-38460">
		<tag k="name" v="Bukkedalen" />
		<tag k="natural" v="valley" />
		<tag k="place" v="locality" />
		<tag k="ssr:stedsnr" v="426294" />
	</node>
	<node lat="58.87113055207338" lon="7.497213892371002" id="-38461">
		<tag k="name" v="Beinsfet" />
		<tag k="place" v="locality" />
		<tag k="ssr:stedsnr" v="426406" />
	</node>
	<node lat="58.89716944168658" lon="7.78283055240372" id="-38467">
		<tag k="fixme" v="consider natural=peak for the most distinct mountains in the district" />
		<tag k="name" v="Heftetjørnheii" />
		<tag k="natural" v="hill" />
		<tag k="place" v="locality" />
		<tag k="ssr:stedsnr" v="426703" />
	</node>
	<node lat="58.88657500219602" lon="7.960052784619795" id="-38469">
		<tag k="fixme" v="consider natural=peak for the most distinct mountains in the district" />
		<tag k="name" v="Kverken" />
		<tag k="natural" v="hill" />
		<tag k="place" v="locality" />
		<tag k="ssr:stedsnr" v="426730" />
	</node>
	<node lat="58.97768055994947" lon="7.825777768967476" id="-38471">
		<tag k="name" v="Finndalen" />
		<tag k="natural" v="valley" />
		<tag k="place" v="locality" />
		<tag k="ssr:stedsnr" v="426629" />
	</node>
	<node lat="58.7178333361556" lon="7.8387000074346656" id="-38475">
		<tag k="fixme" v="consider natural=peak for the most distinct mountains in the district" />
		<tag k="name" v="Landsheii" />
		<tag k="natural" v="hill" />
		<tag k="place" v="locality" />
		<tag k="ssr:stedsnr" v="426932" />
	</node>
	<node lat="58.71199722534751" lon="7.976255563921615" id="-38477">
		<tag k="name" v="Urdalen" />
		<tag k="natural" v="valley" />
		<tag k="place" v="locality" />
		<tag k="ssr:stedsnr" v="447150" />
	</node>
	<node lat="58.71530277602632" lon="7.851419436778751" id="-38479">
		<tag k="name" v="Hodron" />
		<tag k="place" v="locality" />
		<tag k="ssr:stedsnr" v="448012" />
	</node>
	<node lat="58.818725003432746" lon="7.8011277742819285" id="-38481">
		<tag k="name" v="Longeraksupsa" />
		<tag k="natural" v="slope" />
		<tag k="place" v="locality" />
		<tag k="ssr:stedsnr" v="448022" />
	</node>
	<node lat="59.00298055677362" lon="7.524383328720683" id="-38483">
		<tag k="name" v="Støylsrjoet" />
		<tag k="natural" v="slope" />
		<tag k="place" v="locality" />
		<tag k="ssr:stedsnr" v="448028" />
	</node>
	<node lat="58.975022218520486" lon="7.590575003177837" id="-38485">
		<tag k="name" v="Klomri" />
		<tag k="natural" v="slope" />
		<tag k="place" v="locality" />
		<tag k="ssr:stedsnr" v="448095" />
	</node>
	<node lat="58.70299722335419" lon="7.926313885528644" id="-38487">
		<tag k="name" v="Hagedalsheii" />
		<tag k="natural" v="hill" />
		<tag k="place" v="locality" />
		<tag k="ssr:stedsnr" v="448209" />
	</node>
	<node lat="59.01177222299818" lon="7.53359721779917" id="-38489">
		<tag k="name" v="Kvithellerlii" />
		<tag k="natural" v="slope" />
		<tag k="place" v="locality" />
		<tag k="ssr:stedsnr" v="448108" />
	</node>
	<node lat="58.850116664300224" lon="7.783136102623731" id="-38494">
		<tag k="fixme" v="consider natural=peak for the most distinct mountains in the district" />
		<tag k="name" v="Lislehei" />
		<tag k="natural" v="hill" />
		<tag k="place" v="locality" />
		<tag k="ssr:stedsnr" v="448123" />
	</node>
	<node lat="58.95206388675539" lon="7.567205554220785" id="-38495">
		<tag k="fixme" v="consider natural=peak for the most distinct mountains in the district" />
		<tag k="name" v="Rustfjellnuten" />
		<tag k="natural" v="hill" />
		<tag k="place" v="locality" />
		<tag k="ssr:stedsnr" v="448125" />
	</node>
	<node lat="58.986174996500395" lon="7.603605558724905" id="-38500">
		<tag k="name" v="Tjørekrobakken" />
		<tag k="natural" v="slope" />
		<tag k="place" v="locality" />
		<tag k="ssr:stedsnr" v="448175" />
	</node>
	<node lat="58.982180557933766" lon="7.59628888341933" id="-38503">
		<tag k="name" v="Monan" />
		<tag k="place" v="locality" />
		<tag k="ssr:stedsnr" v="448179" />
	</node>
	<node lat="58.77325277811253" lon="7.7234222286703655" id="-38504">
		<tag k="name" v="Takliane" />
		<tag k="natural" v="slope" />
		<tag k="place" v="locality" />
		<tag k="ssr:stedsnr" v="448187" />
	</node>
	<node lat="58.75054166230279" lon="7.971066668364044" id="-38506">
		<tag k="name" v="Porsmyrheii" />
		<tag k="natural" v="hill" />
		<tag k="place" v="locality" />
		<tag k="ssr:stedsnr" v="448191" />
	</node>
	<node lat="58.82945278163926" lon="7.859358328967664" id="-38507">
		<tag k="name" v="Kista" />
		<tag k="place" v="locality" />
		<tag k="ssr:stedsnr" v="448193" />
	</node>
	<node lat="58.867924999820445" lon="7.754622222588466" id="-38510">
		<tag k="name" v="Slåttebui" />
		<tag k="place" v="locality" />
		<tag k="ssr:stedsnr" v="448311" />
	</node>
	<node lat="58.864366665927506" lon="7.697674992391536" id="-38511">
		<tag k="name" v="Gråbrautskaret" />
		<tag k="natural" v="valley" />
		<tag k="place" v="locality" />
		<tag k="ssr:stedsnr" v="448315" />
	</node>
	<node lat="58.72946388764655" lon="7.732891665873668" id="-38512">
		<tag k="name" v="Lomtjørnlidi" />
		<tag k="natural" v="slope" />
		<tag k="place" v="locality" />
		<tag k="ssr:stedsnr" v="448321" />
	</node>
	<node lat="58.90545000022452" lon="7.74341666596988" id="-38513">
		<tag k="name" v="Skorin" />
		<tag k="natural" v="valley" />
		<tag k="place" v="locality" />
		<tag k="ssr:stedsnr" v="448323" />
	</node>
	<node lat="58.83517777930555" lon="7.747899999162899" id="-38516">
		<tag k="name" v="Ljotdal" />
		<tag k="natural" v="valley" />
		<tag k="place" v="locality" />
		<tag k="ssr:stedsnr" v="448271" />
	</node>
	<node lat="58.84677499864762" lon="7.645555557084761" id="-38517">
		<tag k="name" v="Skarveheii" />
		<tag k="natural" v="hill" />
		<tag k="place" v="locality" />
		<tag k="ssr:stedsnr" v="448273" />
	</node>
	<node lat="58.89290278204738" lon="7.758780562865254" id="-38521">
		<tag k="name" v="Ospedalen" />
		<tag k="natural" v="valley" />
		<tag k="place" v="locality" />
		<tag k="ssr:stedsnr" v="448283" />
	</node>
	<node lat="58.70174166402936" lon="7.726897230415846" id="-38525">
		<tag k="fixme" v="consider natural=peak for the most distinct mountains in the district" />
		<tag k="name" v="Botnefjell" />
		<tag k="natural" v="hill" />
		<tag k="place" v="locality" />
		<tag k="ssr:stedsnr" v="448407" />
	</node>
	<node lat="59.001355551415486" lon="7.668680549620303" id="-38526">
		<tag k="name" v="Bytesdalen" />
		<tag k="natural" v="valley" />
		<tag k="place" v="locality" />
		<tag k="ssr:stedsnr" v="448410" />
	</node>
	<node lat="58.695580553943245" lon="7.815955550710783" id="-38528">
		<tag k="name" v="Kårangknodden" />
		<tag k="natural" v="hill" />
		<tag k="place" v="locality" />
		<tag k="ssr:stedsnr" v="448421" />
	</node>
	<node lat="58.84144166533912" lon="8.003022227679727" id="-38531">
		<tag k="name" v="Rustedalen" />
		<tag k="natural" v="valley" />
		<tag k="place" v="locality" />
		<tag k="ssr:stedsnr" v="448499" />
	</node>
	<node lat="58.67582500306369" lon="7.774777775198579" id="-38533">
		<tag k="name" v="Bjørndalen" />
		<tag k="natural" v="valley" />
		<tag k="place" v="locality" />
		<tag k="ssr:stedsnr" v="448504" />
	</node>
	<node lat="58.6865666654501" lon="7.814752770978145" id="-38536">
		<tag k="name" v="Goplebakken" />
		<tag k="natural" v="slope" />
		<tag k="place" v="locality" />
		<tag k="ssr:stedsnr" v="448520" />
	</node>
	<node lat="58.685780558358175" lon="7.815588887431719" id="-38537">
		<tag k="name" v="Åmton" />
		<tag k="natural" v="slope" />
		<tag k="place" v="locality" />
		<tag k="ssr:stedsnr" v="448523" />
	</node>
	<node lat="58.9625138929781" lon="7.979744448336044" id="-38539">
		<tag k="name" v="Hommeskaret" />
		<tag k="natural" v="valley" />
		<tag k="place" v="locality" />
		<tag k="ssr:stedsnr" v="448806" />
	</node>
	<node lat="58.96173333308892" lon="7.976119453093309" id="-38540">
		<tag k="name" v="Hommane" />
		<tag k="natural" v="slope" />
		<tag k="place" v="locality" />
		<tag k="ssr:stedsnr" v="448807" />
	</node>
	<node lat="58.967944443309335" lon="7.853094447547801" id="-38543">
		<tag k="name" v="Rotedalen" />
		<tag k="natural" v="valley" />
		<tag k="place" v="locality" />
		<tag k="ssr:stedsnr" v="448833" />
	</node>
	<node lat="58.96741388988404" lon="7.936819447559629" id="-38544">
		<tag k="name" v="Årdalslidi" />
		<tag k="natural" v="slope" />
		<tag k="place" v="locality" />
		<tag k="ssr:stedsnr" v="448835" />
	</node>
	<node lat="58.968372223726575" lon="7.90465000458016" id="-38545">
		<tag k="name" v="Knausen" />
		<tag k="natural" v="hill" />
		<tag k="place" v="locality" />
		<tag k="ssr:stedsnr" v="448840" />
	</node>
	<node lat="58.91022500316646" lon="7.811794438428236" id="-38547">
		<tag k="name" v="Tjørnefjell" />
		<tag k="natural" v="ridge" />
		<tag k="place" v="locality" />
		<tag k="ssr:stedsnr" v="448868" />
	</node>
	<node lat="58.93253333723986" lon="7.7544472180732695" id="-38549">
		<tag k="fixme" v="consider natural=peak for the most distinct mountains in the district" />
		<tag k="name" v="Skeisnipen" />
		<tag k="natural" v="hill" />
		<tag k="place" v="locality" />
		<tag k="ssr:stedsnr" v="449372" />
	</node>
	<node lat="58.95720277422369" lon="7.7216777749179055" id="-38551">
		<tag k="name" v="Kattugledalen" />
		<tag k="natural" v="valley" />
		<tag k="place" v="locality" />
		<tag k="ssr:stedsnr" v="449393" />
	</node>
	<node lat="58.666625001268585" lon="7.919672222558929" id="-38555">
		<tag k="name" v="Sandviklia" />
		<tag k="natural" v="slope" />
		<tag k="place" v="locality" />
		<tag k="ssr:stedsnr" v="457706" />
	</node>
	<node lat="58.684836109411975" lon="7.896452778876352" id="-38557">
		<tag k="name" v="Lokkbakken" />
		<tag k="natural" v="slope" />
		<tag k="place" v="locality" />
		<tag k="ssr:stedsnr" v="458920" />
	</node>
	<node lat="58.838544445296684" lon="7.932391663266402" id="-38559">
		<tag k="fixme" v="consider natural=peak for the most distinct mountains in the district" />
		<tag k="name" v="Hurlumheii" />
		<tag k="natural" v="hill" />
		<tag k="place" v="locality" />
		<tag k="ssr:stedsnr" v="458964" />
	</node>
	<node lat="58.893011113356735" lon="7.784283330820282" id="-38561">
		<tag k="fixme" v="consider natural=peak for the most distinct mountains in the district" />
		<tag k="name" v="Tverrlifjellet" />
		<tag k="natural" v="hill" />
		<tag k="place" v="locality" />
		<tag k="ssr:stedsnr" v="458976" />
	</node>
	<node lat="58.83935833078337" lon="7.9644944512714035" id="-38573">
		<tag k="fixme" v="consider natural=peak for the most distinct mountains in the district" />
		<tag k="name" v="Rjupetoheii" />
		<tag k="natural" v="hill" />
		<tag k="place" v="locality" />
		<tag k="ssr:stedsnr" v="459881" />
	</node>
	<node lat="58.841200002030824" lon="7.697569450972804" id="-38579">
		<tag k="name" v="Bjørnhidalen" />
		<tag k="natural" v="valley" />
		<tag k="place" v="locality" />
		<tag k="ssr:stedsnr" v="485324" />
	</node>
	<node lat="58.68903055135914" lon="7.828077771323856" id="-38580">
		<tag k="alt_name" v="Lieråsen" />
		<tag k="fixme" v="consider natural=peak for the most distinct mountains in the district" />
		<tag k="name" v="Liaråsen" />
		<tag k="natural" v="hill" />
		<tag k="place" v="locality" />
		<tag k="ssr:stedsnr" v="485518" />
	</node>
	<node lat="58.95136944840662" lon="7.610750006876627" id="-38584">
		<tag k="name" v="Søtedalen" />
		<tag k="natural" v="valley" />
		<tag k="place" v="locality" />
		<tag k="ssr:stedsnr" v="486264" />
	</node>
	<node lat="58.869902775926256" lon="7.311286115303384" id="-38585">
		<tag k="fixme" v="consider natural=peak for the most distinct mountains in the district" />
		<tag k="name" v="Stegilsfjellet" />
		<tag k="natural" v="hill" />
		<tag k="place" v="locality" />
		<tag k="ssr:stedsnr" v="486114" />
	</node>
	<node lat="58.68675000397773" lon="7.758266659195013" id="-38589">
		<tag k="fixme" v="consider natural=peak for the most distinct mountains in the district" />
		<tag k="name" v="Svartefjell" />
		<tag k="natural" v="hill" />
		<tag k="place" v="locality" />
		<tag k="ssr:stedsnr" v="486635" />
	</node>
	<node lat="58.82759999761524" lon="7.89747500489995" id="-38594">
		<tag k="fixme" v="consider natural=peak for the most distinct mountains in the district" />
		<tag k="name" v="Deildevardheii" />
		<tag k="natural" v="hill" />
		<tag k="place" v="locality" />
		<tag k="ssr:stedsnr" v="486775" />
	</node>
	<node lat="58.83554444044329" lon="7.838611103557669" id="-38596">
		<tag k="alt_name" v="Øksebrekkåsen" />
		<tag k="fixme" v="consider natural=peak for the most distinct mountains in the district" />
		<tag k="name" v="Øksbrekkåsen" />
		<tag k="natural" v="hill" />
		<tag k="place" v="locality" />
		<tag k="ssr:stedsnr" v="486778" />
	</node>
	<node lat="58.72717500087274" lon="7.777744444709566" id="-38600">
		<tag k="fixme" v="consider natural=peak for the most distinct mountains in the district" />
		<tag k="name" v="Vikheii" />
		<tag k="natural" v="hill" />
		<tag k="place" v="locality" />
		<tag k="ssr:stedsnr" v="486917" />
	</node>
	<node lat="58.7575583337794" lon="7.9565999954199595" id="-38604">
		<tag k="alt_name" v="Hesthommheii" />
		<tag k="fixme" v="consider natural=peak for the most distinct mountains in the district" />
		<tag k="name" v="Hestehomheii" />
		<tag k="natural" v="hill" />
		<tag k="place" v="locality" />
		<tag k="ssr:stedsnr" v="486873" />
	</node>
	<node lat="58.835116663121624" lon="7.784216668245792" id="-38606">
		<tag k="name" v="Langeskår" />
		<tag k="natural" v="slope" />
		<tag k="place" v="locality" />
		<tag k="ssr:stedsnr" v="508095" />
	</node>
	<node lat="58.69814444027191" lon="7.8901638840130826" id="-38608">
		<tag k="name" v="Setan" />
		<tag k="place" v="locality" />
		<tag k="ssr:stedsnr" v="508204" />
	</node>
	<node lat="58.69158055350387" lon="7.836580557486901" id="-38610">
		<tag k="name" v="Teråsknatten" />
		<tag k="natural" v="hill" />
		<tag k="place" v="locality" />
		<tag k="ssr:stedsnr" v="508207" />
	</node>
	<node lat="58.74765833695857" lon="7.863124995084539" id="-38613">
		<tag k="name" v="Kåveberg" />
		<tag k="natural" v="slope" />
		<tag k="place" v="locality" />
		<tag k="ssr:stedsnr" v="508228" />
	</node>
	<node lat="58.957986110763414" lon="7.5699138848999326" id="-38616">
		<tag k="name" v="Rustfjellbakken" />
		<tag k="natural" v="slope" />
		<tag k="place" v="locality" />
		<tag k="ssr:stedsnr" v="508115" />
	</node>
	<node lat="58.69283055518412" lon="7.899761105468424" id="-38619">
		<tag k="name" v="Skaret" />
		<tag k="natural" v="valley" />
		<tag k="place" v="locality" />
		<tag k="ssr:stedsnr" v="508201" />
	</node>
	<node lat="58.716966667424565" lon="7.831924993961103" id="-38622">
		<tag k="name" v="Bjørndalsheii" />
		<tag k="natural" v="hill" />
		<tag k="place" v="locality" />
		<tag k="ssr:stedsnr" v="508317" />
	</node>
	<node lat="59.00806666361959" lon="7.726116670713789" id="-38623">
		<tag k="name" v="Beitedalen" />
		<tag k="natural" v="valley" />
		<tag k="place" v="locality" />
		<tag k="ssr:stedsnr" v="508320" />
	</node>
	<node lat="58.7395638872364" lon="7.7566138911828535" id="-38627">
		<tag k="name" v="Storekvæven" />
		<tag k="natural" v="valley" />
		<tag k="place" v="locality" />
		<tag k="ssr:stedsnr" v="508332" />
	</node>
	<node lat="58.70527222492418" lon="7.729361102400211" id="-38629">
		<tag k="name" v="Romekleiv" />
		<tag k="natural" v="slope" />
		<tag k="place" v="locality" />
		<tag k="ssr:stedsnr" v="508408" />
	</node>
	<node lat="58.94870555155115" lon="7.693972218592671" id="-38630">
		<tag k="name" v="Røsberget" />
		<tag k="natural" v="hill" />
		<tag k="place" v="locality" />
		<tag k="ssr:stedsnr" v="508412" />
	</node>
	<node lat="58.85429444490184" lon="7.883736103718155" id="-38631">
		<tag k="name" v="Ospehommen" />
		<tag k="natural" v="slope" />
		<tag k="place" v="locality" />
		<tag k="ssr:stedsnr" v="508485" />
	</node>
	<node lat="58.978044444608095" lon="7.709222229625756" id="-38633">
		<tag k="name" v="Vorelii" />
		<tag k="natural" v="slope" />
		<tag k="place" v="locality" />
		<tag k="ssr:stedsnr" v="508510" />
	</node>
	<node lat="58.936697224698726" lon="7.963294447659777" id="-38636">
		<tag k="name" v="Årakslii" />
		<tag k="natural" v="slope" />
		<tag k="place" v="locality" />
		<tag k="ssr:stedsnr" v="508788" />
	</node>
	<node lat="58.86075555992548" lon="7.781927775360777" id="-38637">
		<tag k="name" v="Bånetjørndalen" />
		<tag k="natural" v="valley" />
		<tag k="place" v="locality" />
		<tag k="ssr:stedsnr" v="509105" />
	</node>
	<node lat="58.9655499976477" lon="7.747533328938809" id="-38639">
		<tag k="name" v="Flotin" />
		<tag k="natural" v="valley" />
		<tag k="place" v="locality" />
		<tag k="ssr:stedsnr" v="509379" />
	</node>
	<node lat="58.95526666691129" lon="7.720630562111427" id="-38641">
		<tag k="name" v="Seledalen" />
		<tag k="natural" v="valley" />
		<tag k="place" v="locality" />
		<tag k="ssr:stedsnr" v="509386" />
	</node>
	<node lat="58.83877777464995" lon="7.702266662250785" id="-38643">
		<tag k="name" v="Stigeheii" />
		<tag k="natural" v="hill" />
		<tag k="place" v="locality" />
		<tag k="ssr:stedsnr" v="513289" />
	</node>
	<node lat="59.03394166682086" lon="7.738044444472553" id="-38645">
		<tag k="fixme" v="consider natural=peak for the most distinct mountains in the district" />
		<tag k="name" v="Nubbefjell" />
		<tag k="natural" v="hill" />
		<tag k="place" v="locality" />
		<tag k="ssr:stedsnr" v="519719" />
	</node>
	<node lat="58.68909166850937" lon="7.897122218718131" id="-38647">
		<tag k="fixme" v="consider natural=peak for the most distinct mountains in the district" />
		<tag k="name" v="Ubergheii" />
		<tag k="natural" v="hill" />
		<tag k="place" v="locality" />
		<tag k="ssr:stedsnr" v="519911" />
	</node>
	<node lat="58.79637222514223" lon="7.6989666605904015" id="-38649">
		<tag k="name" v="Knutskro" />
		<tag k="place" v="locality" />
		<tag k="ssr:stedsnr" v="519866" />
	</node>
	<node lat="58.773613892562544" lon="7.985052783087091" id="-38650">
		<tag k="name" v="Grendiskaret" />
		<tag k="natural" v="valley" />
		<tag k="place" v="locality" />
		<tag k="ssr:stedsnr" v="519868" />
	</node>
	<node lat="58.785994447971156" lon="7.942013882086633" id="-38654">
		<tag k="name" v="Tverrdalen" />
		<tag k="natural" v="valley" />
		<tag k="place" v="locality" />
		<tag k="ssr:stedsnr" v="519962" />
	</node>
	<node lat="58.75174444328016" lon="7.770138882757719" id="-38656">
		<tag k="name" v="Lunnebrotet" />
		<tag k="natural" v="slope" />
		<tag k="place" v="locality" />
		<tag k="ssr:stedsnr" v="751337" />
	</node>
	<node lat="58.8410888893957" lon="7.96278332551225" id="-38657">
		<tag k="name" v="Rjupetoheii" />
		<tag k="natural" v="hill" />
		<tag k="place" v="locality" />
		<tag k="ssr:stedsnr" v="751467" />
	</node>
	<node lat="58.730975002002666" lon="7.687808325018106" id="-38660">
		<tag k="alt_name" v="Kotetjønndalen" />
		<tag k="name" v="Kotetjørndalen" />
		<tag k="natural" v="valley" />
		<tag k="place" v="locality" />
		<tag k="ssr:stedsnr" v="546029" />
	</node>
	<node lat="58.99093888692172" lon="7.624405558932662" id="-38663">
		<tag k="fixme" v="consider natural=peak for the most distinct mountains in the district" />
		<tag k="name" v="Støylsfjellet" />
		<tag k="natural" v="hill" />
		<tag k="place" v="locality" />
		<tag k="ssr:stedsnr" v="546302" />
	</node>
	<node lat="58.894313891202714" lon="7.53543055540425" id="-38664">
		<tag k="name" v="Stedjedalen" />
		<tag k="natural" v="valley" />
		<tag k="place" v="locality" />
		<tag k="ssr:stedsnr" v="546423" />
	</node>
	<node lat="58.943602773978405" lon="7.92053888044163" id="-38665">
		<tag k="fixme" v="consider natural=peak for the most distinct mountains in the district" />
		<tag k="name" v="Grunnevassheii" />
		<tag k="natural" v="hill" />
		<tag k="place" v="locality" />
		<tag k="ssr:stedsnr" v="546613" />
	</node>
	<node lat="58.84032222106939" lon="7.79397500157056" id="-38673">
		<tag k="fixme" v="consider natural=peak for the most distinct mountains in the district" />
		<tag k="name" v="Kvålsnapen" />
		<tag k="natural" v="hill" />
		<tag k="place" v="locality" />
		<tag k="ssr:stedsnr" v="546703" />
	</node>
	<node lat="58.82376666762276" lon="7.977155548266456" id="-38675">
		<tag k="fixme" v="consider natural=peak for the most distinct mountains in the district" />
		<tag k="name" v="Grådåsheii" />
		<tag k="natural" v="hill" />
		<tag k="place" v="locality" />
		<tag k="ssr:stedsnr" v="546726" />
	</node>
	<node lat="58.7551805547706" lon="7.744202784224798" id="-38676">
		<tag k="name" v="Lunnan" />
		<tag k="natural" v="slope" />
		<tag k="place" v="locality" />
		<tag k="ssr:stedsnr" v="546788" />
	</node>
	<node lat="58.761169448052904" lon="7.78333332616745" id="-38677">
		<tag k="name" v="Botnan" />
		<tag k="natural" v="valley" />
		<tag k="place" v="locality" />
		<tag k="ssr:stedsnr" v="546794" />
	</node>
	<node lat="58.95969166511187" lon="7.492127772181191" id="-38678">
		<tag k="fixme" v="consider natural=peak for the most distinct mountains in the district" />
		<tag k="name" v="Sletteheii" />
		<tag k="natural" v="hill" />
		<tag k="place" v="locality" />
		<tag k="ssr:stedsnr" v="547324" />
	</node>
	<node lat="58.91253605383711" lon="7.179980584050315" id="-38679">
		<tag k="alt_name" v="Skrubbhusfjell;Skrubbshusfjellet" />
		<tag k="fixme" v="consider natural=peak for the most distinct mountains in the district" />
		<tag k="name" v="Skrubbhusfjellet" />
		<tag k="natural" v="hill" />
		<tag k="place" v="locality" />
		<tag k="ssr:stedsnr" v="547226" />
	</node>
	<node lat="58.948400000056814" lon="7.536611103846352" id="-38680">
		<tag k="fixme" v="consider natural=peak for the most distinct mountains in the district" />
		<tag k="name" v="Tjønndalsheii" />
		<tag k="natural" v="hill" />
		<tag k="place" v="locality" />
		<tag k="ssr:stedsnr" v="547283" />
	</node>
	<node lat="59.031591664922985" lon="7.727594441390945" id="-38681">
		<tag k="fixme" v="consider natural=peak for the most distinct mountains in the district" />
		<tag k="name" v="Nobbefjellet" />
		<tag k="natural" v="hill" />
		<tag k="old_name" v="Nobbefjell" />
		<tag k="place" v="locality" />
		<tag k="ssr:stedsnr" v="547523" />
	</node>
	<node lat="58.89992499680921" lon="7.977452773868426" id="-38684">
		<tag k="fixme" v="consider natural=peak for the most distinct mountains in the district" />
		<tag k="name" v="Stuvestølheii" />
		<tag k="natural" v="hill" />
		<tag k="place" v="locality" />
		<tag k="ssr:stedsnr" v="547725" />
	</node>
	<node lat="58.887847221001046" lon="7.534794444782784" id="-38688">
		<tag k="fixme" v="consider natural=peak for the most distinct mountains in the district" />
		<tag k="name" v="Nystøylknuten" />
		<tag k="natural" v="hill" />
		<tag k="place" v="locality" />
		<tag k="ssr:stedsnr" v="547474" />
	</node>
	<node lat="58.88653610869484" lon="7.483219447025234" id="-38689">
		<tag k="fixme" v="consider natural=peak for the most distinct mountains in the district" />
		<tag k="name" v="Dvergsteinsheii" />
		<tag k="natural" v="hill" />
		<tag k="place" v="locality" />
		<tag k="ssr:stedsnr" v="547480" />
	</node>
	<node lat="58.961358333280835" lon="7.950916660951301" id="-38694">
		<tag k="fixme" v="consider natural=peak for the most distinct mountains in the district" />
		<tag k="name" v="Sveigsheii" />
		<tag k="natural" v="hill" />
		<tag k="place" v="locality" />
		<tag k="ssr:stedsnr" v="547681" />
	</node>
	<node lat="58.84028332964043" lon="7.671708329484952" id="-38704">
		<tag k="name" v="Songedalen" />
		<tag k="natural" v="valley" />
		<tag k="place" v="locality" />
		<tag k="ssr:stedsnr" v="690300" />
	</node>
	<node lat="58.8581138905232" lon="7.674569448127192" id="-38705">
		<tag k="fixme" v="consider natural=peak for the most distinct mountains in the district" />
		<tag k="name" v="Stokkstøylnuten" />
		<tag k="natural" v="hill" />
		<tag k="place" v="locality" />
		<tag k="ssr:stedsnr" v="690304" />
	</node>
	<node lat="58.80552777852965" lon="7.846172221889365" id="-38706">
		<tag k="name" v="Ulvshiet" />
		<tag k="place" v="locality" />
		<tag k="ssr:stedsnr" v="690138" />
	</node>
	<node lat="58.92022222558388" lon="7.813911113043816" id="-38707">
		<tag k="name" v="Ormsæheii" />
		<tag k="natural" v="hill" />
		<tag k="place" v="locality" />
		<tag k="ssr:stedsnr" v="690865" />
	</node>
	<node lat="58.909244448839" lon="7.623369450561903" id="-38708">
		<tag k="name" v="Bjørnshihola" />
		<tag k="natural" v="valley" />
		<tag k="place" v="locality" />
		<tag k="ssr:stedsnr" v="691039" />
	</node>
	<node lat="58.700491662791016" lon="7.839847224664274" id="-38709">
		<tag k="name" v="Hesjarbakken" />
		<tag k="natural" v="slope" />
		<tag k="place" v="locality" />
		<tag k="ssr:stedsnr" v="691042" />
	</node>
	<node lat="58.69699166916836" lon="7.848869436122602" id="-38710">
		<tag k="name" v="Rossåsknodden" />
		<tag k="natural" v="ridge" />
		<tag k="place" v="locality" />
		<tag k="ssr:stedsnr" v="691044" />
	</node>
	<node lat="58.775738887647265" lon="7.785225001011382" id="-38718">
		<tag k="name" v="Øvre-kvi" />
		<tag k="natural" v="valley" />
		<tag k="place" v="locality" />
		<tag k="ssr:stedsnr" v="691096" />
	</node>
	<node lat="58.77823888617029" lon="7.788069451171667" id="-38719">
		<tag k="name" v="Kviskaret" />
		<tag k="natural" v="valley" />
		<tag k="place" v="locality" />
		<tag k="ssr:stedsnr" v="691097" />
	</node>
	<node lat="58.97071944574265" lon="7.60003610695021" id="-38720">
		<tag k="name" v="Bjanslii" />
		<tag k="natural" v="slope" />
		<tag k="place" v="locality" />
		<tag k="ssr:stedsnr" v="691099" />
	</node>
	<node lat="58.97762499881637" lon="7.551366674061128" id="-38722">
		<tag k="name" v="Såvesfet" />
		<tag k="place" v="locality" />
		<tag k="ssr:stedsnr" v="691102" />
	</node>
	<node lat="58.73287222029153" lon="7.846566668794902" id="-38725">
		<tag k="name" v="Trongedal" />
		<tag k="natural" v="valley" />
		<tag k="place" v="locality" />
		<tag k="ssr:stedsnr" v="691249" />
	</node>
	<node lat="58.74807499802711" lon="7.879236117986622" id="-38726">
		<tag k="name" v="Berglandsheii" />
		<tag k="natural" v="hill" />
		<tag k="place" v="locality" />
		<tag k="ssr:stedsnr" v="691266" />
	</node>
	<node lat="58.7171027815458" lon="7.897811116956246" id="-38733">
		<tag k="fixme" v="consider natural=peak for the most distinct mountains in the district" />
		<tag k="name" v="Bjørndalsfjell" />
		<tag k="natural" v="hill" />
		<tag k="place" v="locality" />
		<tag k="ssr:stedsnr" v="691073" />
	</node>
	<node lat="58.759913886825714" lon="7.837177777891328" id="-38739">
		<tag k="name" v="Jamnebakk" />
		<tag k="natural" v="slope" />
		<tag k="place" v="locality" />
		<tag k="ssr:stedsnr" v="691270" />
	</node>
	<node lat="58.99560000158566" lon="7.763055559740191" id="-38742">
		<tag k="name" v="Stolen" />
		<tag k="natural" v="valley" />
		<tag k="place" v="locality" />
		<tag k="ssr:stedsnr" v="691346" />
	</node>
	<node lat="58.80441666922839" lon="7.758675002328577" id="-38744">
		<tag k="name" v="Juvet" />
		<tag k="natural" v="gorge" />
		<tag k="ssr:stedsnr" v="691357" />
	</node>
	<node lat="58.980288889428415" lon="7.621016667497181" id="-38747">
		<tag k="name" v="Skiljarfloti" />
		<tag k="place" v="locality" />
		<tag k="ssr:stedsnr" v="691425" />
	</node>
	<node lat="58.68663888743282" lon="7.757622227243537" id="-38752">
		<tag k="fixme" v="consider natural=peak for the most distinct mountains in the district" />
		<tag k="name" v="Oksefjell" />
		<tag k="natural" v="hill" />
		<tag k="place" v="locality" />
		<tag k="ssr:stedsnr" v="691446" />
	</node>
	<node lat="58.96555833062359" lon="7.715411110309473" id="-38753">
		<tag k="name" v="Gardslijuvet" />
		<tag k="natural" v="gorge" />
		<tag k="ssr:stedsnr" v="691447" />
	</node>
	<node lat="58.9889472224661" lon="7.8083944431496155" id="-38760">
		<tag k="name" v="Båseheii" />
		<tag k="natural" v="hill" />
		<tag k="place" v="locality" />
		<tag k="ssr:stedsnr" v="691834" />
	</node>
	<node lat="58.91316111177481" lon="7.798811114447599" id="-38761">
		<tag k="name" v="Tommasskårnuten" />
		<tag k="natural" v="hill" />
		<tag k="place" v="locality" />
		<tag k="ssr:stedsnr" v="691838" />
	</node>
	<node lat="58.99702500382847" lon="7.778922222362831" id="-38763">
		<tag k="name" v="Røynestøylheii" />
		<tag k="natural" v="ridge" />
		<tag k="place" v="locality" />
		<tag k="ssr:stedsnr" v="691849" />
	</node>
	<node lat="58.72602500315644" lon="7.8815611086444255" id="-38765">
		<tag k="name" v="Tortveithepte" />
		<tag k="natural" v="slope" />
		<tag k="place" v="locality" />
		<tag k="ssr:stedsnr" v="568004" />
	</node>
	<node lat="58.974230553079344" lon="7.580952786471029" id="-38768">
		<tag k="name" v="Håbakk" />
		<tag k="natural" v="slope" />
		<tag k="place" v="locality" />
		<tag k="ssr:stedsnr" v="569104" />
	</node>
	<node lat="59.013108331772415" lon="7.545366660072801" id="-38770">
		<tag k="name" v="Eislandsmoen" />
		<tag k="place" v="locality" />
		<tag k="ssr:stedsnr" v="569113" />
	</node>
	<node lat="58.836699998641464" lon="7.8018972159049405" id="-38771">
		<tag k="name" v="Kvålsmoen" />
		<tag k="place" v="locality" />
		<tag k="ssr:stedsnr" v="569115" />
	</node>
	<node lat="58.80849166342594" lon="7.83301388115165" id="-38776">
		<tag k="name" v="Surthusmonen" />
		<tag k="place" v="locality" />
		<tag k="ssr:stedsnr" v="569161" />
	</node>
	<node lat="58.94293055486887" lon="7.802975006610194" id="-38779">
		<tag k="name" v="Kvæven" />
		<tag k="natural" v="valley" />
		<tag k="place" v="locality" />
		<tag k="ssr:stedsnr" v="569178" />
	</node>
	<node lat="58.71113610850176" lon="7.8264194483424765" id="-38780">
		<tag k="name" v="Gisledal" />
		<tag k="natural" v="valley" />
		<tag k="place" v="locality" />
		<tag k="ssr:stedsnr" v="569303" />
	</node>
	<node lat="59.006297222693554" lon="7.736961105127469" id="-38781">
		<tag k="name" v="Kråkehommen" />
		<tag k="natural" v="slope" />
		<tag k="place" v="locality" />
		<tag k="ssr:stedsnr" v="569304" />
	</node>
	<node lat="58.81137500391291" lon="7.743013881577056" id="-38783">
		<tag k="name" v="Reismyrdalen" />
		<tag k="natural" v="valley" />
		<tag k="place" v="locality" />
		<tag k="ssr:stedsnr" v="569318" />
	</node>
	<node lat="58.69281388532175" lon="7.880391670360177" id="-38785">
		<tag k="name" v="Korvekleiv" />
		<tag k="natural" v="slope" />
		<tag k="place" v="locality" />
		<tag k="ssr:stedsnr" v="569053" />
	</node>
	<node lat="58.70616666788888" lon="7.84314166985002" id="-38787">
		<tag k="name" v="Tusseknodden" />
		<tag k="natural" v="hill" />
		<tag k="place" v="locality" />
		<tag k="ssr:stedsnr" v="569061" />
	</node>
	<node lat="58.710394447976654" lon="7.862947228236642" id="-38788">
		<tag k="fixme" v="consider natural=peak for the most distinct mountains in the district" />
		<tag k="name" v="Grashomheii" />
		<tag k="natural" v="hill" />
		<tag k="place" v="locality" />
		<tag k="ssr:stedsnr" v="569069" />
	</node>
	<node lat="58.768999999035614" lon="7.886947230772744" id="-38790">
		<tag k="name" v="Vardeheii" />
		<tag k="natural" v="hill" />
		<tag k="place" v="locality" />
		<tag k="ssr:stedsnr" v="569215" />
	</node>
	<node lat="58.69441388911532" lon="7.896661119477462" id="-38791">
		<tag k="fixme" v="consider natural=peak for the most distinct mountains in the district" />
		<tag k="name" v="Valefjell" />
		<tag k="natural" v="hill" />
		<tag k="place" v="locality" />
		<tag k="ssr:stedsnr" v="569219" />
	</node>
	<node lat="58.878505551378844" lon="7.667141659901086" id="-38795">
		<tag k="fixme" v="consider natural=peak for the most distinct mountains in the district" />
		<tag k="name" v="Åsen" />
		<tag k="natural" v="hill" />
		<tag k="place" v="locality" />
		<tag k="ssr:stedsnr" v="569282" />
	</node>
	<node lat="58.68122499657247" lon="7.750836114228286" id="-38797">
		<tag k="fixme" v="consider natural=peak for the most distinct mountains in the district" />
		<tag k="name" v="Berghei" />
		<tag k="natural" v="hill" />
		<tag k="place" v="locality" />
		<tag k="ssr:stedsnr" v="569454" />
	</node>
	<node lat="58.950797222079935" lon="7.860613887796128" id="-38798">
		<tag k="name" v="Tåtrehommen" />
		<tag k="natural" v="slope" />
		<tag k="place" v="locality" />
		<tag k="ssr:stedsnr" v="569806" />
	</node>
	<node lat="58.79553888582421" lon="7.826830554585001" id="-38800">
		<tag k="name" v="Steinmonen" />
		<tag k="place" v="locality" />
		<tag k="ssr:stedsnr" v="570052" />
	</node>
	<node lat="58.96857222245181" lon="7.96141111704055" id="-38802">
		<tag k="name" v="Svenskedalen" />
		<tag k="natural" v="valley" />
		<tag k="place" v="locality" />
		<tag k="ssr:stedsnr" v="569754" />
	</node>
	<node lat="58.91820555929788" lon="7.948675005536841" id="-38806">
		<tag k="name" v="Støylsdalen" />
		<tag k="natural" v="valley" />
		<tag k="place" v="locality" />
		<tag k="ssr:stedsnr" v="579904" />
	</node>
	<node lat="58.91276666712575" lon="7.848994449788106" id="-38811">
		<tag k="name" v="Grodøl" />
		<tag k="natural" v="valley" />
		<tag k="place" v="locality" />
		<tag k="ssr:stedsnr" v="695374" />
	</node>
	<node lat="58.98964166384676" lon="7.84989723052076" id="-38813">
		<tag k="fixme" v="consider natural=peak for the most distinct mountains in the district" />
		<tag k="name" v="Smøleknausen" />
		<tag k="natural" v="hill" />
		<tag k="place" v="locality" />
		<tag k="ssr:stedsnr" v="580749" />
	</node>
	<node lat="58.985172225011446" lon="7.847349991546429" id="-38814">
		<tag k="name" v="Kvævene" />
		<tag k="natural" v="valley" />
		<tag k="place" v="locality" />
		<tag k="ssr:stedsnr" v="580751" />
	</node>
	<node lat="59.013002781134645" lon="7.488063892079707" id="-38815">
		<tag k="name" v="Snøkvæven søndre" />
		<tag k="natural" v="valley" />
		<tag k="place" v="locality" />
		<tag k="ssr:stedsnr" v="580790" />
	</node>
	<node lat="58.91268611525802" lon="7.232963885824288" id="-38818">
		<tag k="fixme" v="consider natural=peak for the most distinct mountains in the district" />
		<tag k="name" v="Dansarfjellet" />
		<tag k="natural" v="hill" />
		<tag k="place" v="locality" />
		<tag k="ssr:stedsnr" v="607214" />
	</node>
	<node lat="58.905427773544815" lon="7.303616673558252" id="-38819">
		<tag k="fixme" v="consider natural=peak for the most distinct mountains in the district" />
		<tag k="name" v="Skarveknuten" />
		<tag k="natural" v="hill" />
		<tag k="place" v="locality" />
		<tag k="ssr:stedsnr" v="607215" />
	</node>
	<node lat="58.84993055690252" lon="7.707755560414467" id="-38825">
		<tag k="alt_name" v="Tverrfjell" />
		<tag k="fixme" v="consider natural=peak for the most distinct mountains in the district" />
		<tag k="name" v="Tverrfjellet" />
		<tag k="natural" v="hill" />
		<tag k="place" v="locality" />
		<tag k="ssr:stedsnr" v="607404" />
	</node>
	<node lat="58.85084444659825" lon="7.618361110933641" id="-38826">
		<tag k="fixme" v="consider natural=peak for the most distinct mountains in the district" />
		<tag k="name" v="Samlogheii" />
		<tag k="natural" v="hill" />
		<tag k="place" v="locality" />
		<tag k="ssr:stedsnr" v="607406" />
	</node>
	<node lat="58.933936111423215" lon="7.27737222418299" id="-38827">
		<tag k="name" v="Låghellardalen" />
		<tag k="natural" v="valley" />
		<tag k="old_name" v="Låghellerdalen" />
		<tag k="place" v="locality" />
		<tag k="ssr:stedsnr" v="607196" />
	</node>
	<node lat="58.83125000325556" lon="7.5956805481744825" id="-38828">
		<tag k="fixme" v="consider natural=peak for the most distinct mountains in the district" />
		<tag k="name" v="Tverrdalsheii" />
		<tag k="natural" v="hill" />
		<tag k="place" v="locality" />
		<tag k="ssr:stedsnr" v="607504" />
	</node>
	<node lat="58.89556111535268" lon="7.588811102506278" id="-38829">
		<tag k="name" v="Hedderskardet" />
		<tag k="natural" v="valley" />
		<tag k="place" v="locality" />
		<tag k="ssr:stedsnr" v="607451" />
	</node>
	<node lat="58.892833336310446" lon="7.407261105538463" id="-38830">
		<tag k="fixme" v="consider natural=peak for the most distinct mountains in the district" />
		<tag k="name" v="Glymsknuten" />
		<tag k="natural" v="hill" />
		<tag k="place" v="locality" />
		<tag k="ssr:stedsnr" v="607456" />
	</node>
	<node lat="58.93044444784381" lon="7.353930549937402" id="-38832">
		<tag k="name" v="Skarkedalen" />
		<tag k="natural" v="valley" />
		<tag k="place" v="locality" />
		<tag k="ssr:stedsnr" v="607496" />
	</node>
	<node lat="58.82421111093987" lon="7.654486112658306" id="-38833">
		<tag k="name" v="Bergedal" />
		<tag k="natural" v="valley" />
		<tag k="place" v="locality" />
		<tag k="ssr:stedsnr" v="607499" />
	</node>
	<node lat="58.67620555913906" lon="7.85327500506799" id="-38834">
		<tag k="fixme" v="consider natural=peak for the most distinct mountains in the district" />
		<tag k="name" v="Ørni" />
		<tag k="natural" v="hill" />
		<tag k="place" v="locality" />
		<tag k="ssr:stedsnr" v="607603" />
	</node>
	<node lat="58.882352775510135" lon="8.002769439524977" id="-38837">
		<tag k="fixme" v="consider natural=peak for the most distinct mountains in the district" />
		<tag k="name" v="Preikestolfjell" />
		<tag k="natural" v="hill" />
		<tag k="place" v="locality" />
		<tag k="ssr:stedsnr" v="607720" />
	</node>
	<node lat="58.81236388688919" lon="7.827613894787463" id="-38839">
		<tag k="name" v="Nautedalen" />
		<tag k="natural" v="valley" />
		<tag k="place" v="locality" />
		<tag k="ssr:stedsnr" v="607759" />
	</node>
	<node lat="59.02571111227212" lon="7.870813881125314" id="-38849">
		<tag k="fixme" v="consider natural=peak for the most distinct mountains in the district" />
		<tag k="name" v="Kilsfjell" />
		<tag k="natural" v="hill" />
		<tag k="place" v="locality" />
		<tag k="ssr:stedsnr" v="701796" />
	</node>
	<node lat="58.89960555170786" lon="7.946588889479952" id="-38850">
		<tag k="name" v="Festninga" />
		<tag k="place" v="locality" />
		<tag k="ssr:stedsnr" v="701886" />
	</node>
	<node lat="58.69945555365291" lon="7.708952783416278" id="-38852">
		<tag k="fixme" v="consider natural=peak for the most distinct mountains in the district" />
		<tag k="name" v="Hurrehei" />
		<tag k="natural" v="hill" />
		<tag k="place" v="locality" />
		<tag k="ssr:stedsnr" v="701830" />
	</node>
	<node lat="58.712449997107065" lon="7.6923722284958425" id="-38853">
		<tag k="fixme" v="consider natural=peak for the most distinct mountains in the district" />
		<tag k="name" v="Orrevassheii" />
		<tag k="natural" v="hill" />
		<tag k="place" v="locality" />
		<tag k="ssr:stedsnr" v="701835" />
	</node>
	<node lat="58.733891664414834" lon="7.6780583352949305" id="-38854">
		<tag k="name" v="Harekamb" />
		<tag k="natural" v="ridge" />
		<tag k="place" v="locality" />
		<tag k="ssr:stedsnr" v="701838" />
	</node>
	<node lat="58.77906388519954" lon="7.710752775406112" id="-38855">
		<tag k="name" v="Garteskar" />
		<tag k="natural" v="valley" />
		<tag k="place" v="locality" />
		<tag k="ssr:stedsnr" v="701857" />
	</node>
	<node lat="58.676533333300114" lon="7.893352781862538" id="-38856">
		<tag k="fixme" v="consider natural=peak for the most distinct mountains in the district" />
		<tag k="name" v="Skarveheii" />
		<tag k="natural" v="hill" />
		<tag k="place" v="locality" />
		<tag k="ssr:stedsnr" v="701901" />
	</node>
	<node lat="58.7714611145289" lon="7.895905549581197" id="-38858">
		<tag k="name" v="Vardedalen" />
		<tag k="natural" v="valley" />
		<tag k="place" v="locality" />
		<tag k="ssr:stedsnr" v="701925" />
	</node>
	<node lat="58.890822226412475" lon="7.932402773003047" id="-38859">
		<tag k="fixme" v="consider natural=peak for the most distinct mountains in the district" />
		<tag k="name" v="Kråkeheii" />
		<tag k="natural" v="hill" />
		<tag k="place" v="locality" />
		<tag k="ssr:stedsnr" v="701990" />
	</node>
	<node lat="58.72917222084172" lon="7.840447224706269" id="-38861">
		<tag k="name" v="Knåddehefte" />
		<tag k="natural" v="ridge" />
		<tag k="place" v="locality" />
		<tag k="ssr:stedsnr" v="629008" />
	</node>
	<node lat="58.7198138866241" lon="7.878516666800083" id="-38863">
		<tag k="name" v="Padan" />
		<tag k="place" v="locality" />
		<tag k="ssr:stedsnr" v="629016" />
	</node>
	<node lat="58.82214999668746" lon="7.811508338351481" id="-38864">
		<tag k="name" v="Byglandsliane" />
		<tag k="natural" v="slope" />
		<tag k="place" v="locality" />
		<tag k="ssr:stedsnr" v="629020" />
	</node>
	<node lat="58.91896944187638" lon="7.708997225985087" id="-38865">
		<tag k="name" v="Nordigardsknausen" />
		<tag k="natural" v="ridge" />
		<tag k="place" v="locality" />
		<tag k="ssr:stedsnr" v="629040" />
	</node>
	<node lat="58.90970555333599" lon="7.6762166640546985" id="-38866">
		<tag k="name" v="Sløkjehommen" />
		<tag k="natural" v="slope" />
		<tag k="place" v="locality" />
		<tag k="ssr:stedsnr" v="629045" />
	</node>
	<node lat="58.83934722418798" lon="7.86023333887737" id="-38875">
		<tag k="name" v="Bytingsbakken" />
		<tag k="natural" v="slope" />
		<tag k="place" v="locality" />
		<tag k="ssr:stedsnr" v="629113" />
	</node>
	<node lat="58.93926944893932" lon="7.8209666702239025" id="-38877">
		<tag k="name" v="Ruskelid" />
		<tag k="natural" v="slope" />
		<tag k="place" v="locality" />
		<tag k="ssr:stedsnr" v="629156" />
	</node>
	<node lat="58.71059166667915" lon="7.750586111453883" id="-38878">
		<tag k="fixme" v="consider natural=peak for the most distinct mountains in the district" />
		<tag k="name" v="Bjanfjell" />
		<tag k="natural" v="hill" />
		<tag k="place" v="locality" />
		<tag k="ssr:stedsnr" v="629305" />
	</node>
	<node lat="58.90609166657249" lon="7.739722224816213" id="-38879">
		<tag k="name" v="Vikfjell" />
		<tag k="natural" v="hill" />
		<tag k="place" v="locality" />
		<tag k="ssr:stedsnr" v="629306" />
	</node>
	<node lat="58.77963055432648" lon="7.768369452240247" id="-38880">
		<tag k="name" v="Kopsåsrista" />
		<tag k="natural" v="ridge" />
		<tag k="place" v="locality" />
		<tag k="ssr:stedsnr" v="629354" />
	</node>
	<node lat="58.85712778049436" lon="7.730355551805504" id="-38881">
		<tag k="name" v="Røynesdekkan" />
		<tag k="natural" v="slope" />
		<tag k="place" v="locality" />
		<tag k="ssr:stedsnr" v="629360" />
	</node>
	<node lat="58.95170833314381" lon="7.675088886282512" id="-38882">
		<tag k="name" v="Kyrehaug" />
		<tag k="natural" v="hill" />
		<tag k="place" v="locality" />
		<tag k="ssr:stedsnr" v="629390" />
	</node>
	<node lat="58.65535833415085" lon="7.818594448643411" id="-38883">
		<tag k="name" v="Kalveskinnsupsa" />
		<tag k="natural" v="cliff" />
		<tag k="ssr:stedsnr" v="629391" />
	</node>
	<node lat="58.65898333688929" lon="7.832486111091078" id="-38886">
		<tag k="name" v="Geitekyrkja" />
		<tag k="natural" v="slope" />
		<tag k="place" v="locality" />
		<tag k="ssr:stedsnr" v="629396" />
	</node>
	<node lat="58.67925833029315" lon="7.817847226786088" id="-38888">
		<tag k="name" v="Svartups" />
		<tag k="natural" v="cliff" />
		<tag k="ssr:stedsnr" v="629510" />
	</node>
	<node lat="58.85894166803236" lon="7.644638888088716" id="-38889">
		<tag k="fixme" v="consider natural=peak for the most distinct mountains in the district" />
		<tag k="name" v="Grytenuten" />
		<tag k="natural" v="hill" />
		<tag k="place" v="locality" />
		<tag k="ssr:stedsnr" v="629244" />
	</node>
	<node lat="58.89485277755051" lon="7.7505277841606794" id="-38890">
		<tag k="fixme" v="consider natural=peak for the most distinct mountains in the district" />
		<tag k="name" v="Nevrestigfjødd" />
		<tag k="natural" v="hill" />
		<tag k="place" v="locality" />
		<tag k="ssr:stedsnr" v="629246" />
	</node>
	<node lat="58.87136944224602" lon="7.666322229674311" id="-38892">
		<tag k="name" v="Longeliane" />
		<tag k="natural" v="slope" />
		<tag k="place" v="locality" />
		<tag k="ssr:stedsnr" v="629292" />
	</node>
	<node lat="58.87211667070651" lon="7.692055557799605" id="-38893">
		<tag k="name" v="Heptenuten" />
		<tag k="natural" v="hill" />
		<tag k="place" v="locality" />
		<tag k="ssr:stedsnr" v="629295" />
	</node>
	<node lat="58.699594440782704" lon="7.827705551183327" id="-38894">
		<tag k="name" v="Stormyrlii" />
		<tag k="natural" v="slope" />
		<tag k="place" v="locality" />
		<tag k="ssr:stedsnr" v="629405" />
	</node>
	<node lat="58.69240832969324" lon="7.768263884160782" id="-38895">
		<tag k="fixme" v="consider natural=peak for the most distinct mountains in the district" />
		<tag k="name" v="Mjunefjell" />
		<tag k="natural" v="hill" />
		<tag k="place" v="locality" />
		<tag k="ssr:stedsnr" v="629409" />
	</node>
	<node lat="58.69230278012544" lon="7.829688884239429" id="-38896">
		<tag k="name" v="Slåttemyrknatten" />
		<tag k="natural" v="ridge" />
		<tag k="place" v="locality" />
		<tag k="ssr:stedsnr" v="629413" />
	</node>
	<node lat="58.76827222585582" lon="7.749372219010937" id="-38899">
		<tag k="name" v="Saurdalen" />
		<tag k="natural" v="valley" />
		<tag k="place" v="locality" />
		<tag k="ssr:stedsnr" v="629421" />
	</node>
	<node lat="58.9802944415325" lon="7.636888886991737" id="-38901">
		<tag k="name" v="Breimo" />
		<tag k="place" v="locality" />
		<tag k="ssr:stedsnr" v="629448" />
	</node>
	<node lat="58.84829721857203" lon="7.839522220127132" id="-38903">
		<tag k="name" v="Sorlandsmoen" />
		<tag k="place" v="locality" />
		<tag k="ssr:stedsnr" v="629454" />
	</node>
	<node lat="58.96746944810823" lon="7.9252916641810645" id="-38905">
		<tag k="name" v="Halsen" />
		<tag k="natural" v="hill" />
		<tag k="place" v="locality" />
		<tag k="ssr:stedsnr" v="629827" />
	</node>
	<node lat="58.89502221954796" lon="7.973730559164616" id="-38912">
		<tag k="name" v="Turteli" />
		<tag k="natural" v="slope" />
		<tag k="place" v="locality" />
		<tag k="ssr:stedsnr" v="640881" />
	</node>
	<node lat="58.67388889145103" lon="7.857130548439897" id="-38913">
		<tag k="name" v="Øyvarsdalen" />
		<tag k="natural" v="valley" />
		<tag k="place" v="locality" />
		<tag k="ssr:stedsnr" v="640890" />
	</node>
	<node lat="58.98133332921222" lon="7.870527777503728" id="-38916">
		<tag k="name" v="Storren" />
		<tag k="natural" v="ridge" />
		<tag k="place" v="locality" />
		<tag k="ssr:stedsnr" v="640791" />
	</node>
	<node lat="58.81184722610717" lon="7.891983333622572" id="-38919">
		<tag k="name" v="Øytjønnskaret" />
		<tag k="natural" v="valley" />
		<tag k="place" v="locality" />
		<tag k="ssr:stedsnr" v="640931" />
	</node>
	<node lat="59.05497222018771" lon="7.795649999346414" id="-38920">
		<tag k="fixme" v="multiple name tags, choose one and add the other to alt_name; consider natural=peak for the most distinct mountains in the district" />
		<tag k="name" v="Ristin;Teushamaren" />
		<tag k="natural" v="hill" />
		<tag k="place" v="locality" />
		<tag k="ssr:stedsnr" v="648202" />
	</node>
	<node lat="58.87761666787758" lon="7.235077773025186" id="-38923">
		<tag k="fixme" v="consider natural=peak for the most distinct mountains in the district" />
		<tag k="name" v="Kilevassheii" />
		<tag k="natural" v="hill" />
		<tag k="place" v="locality" />
		<tag k="ssr:stedsnr" v="668195" />
	</node>
	<node lat="58.9258277807899" lon="7.278536112410316" id="-38928">
		<tag k="fixme" v="consider natural=peak for the most distinct mountains in the district" />
		<tag k="name" v="Monsfjell" />
		<tag k="natural" v="hill" />
		<tag k="place" v="locality" />
		<tag k="ssr:stedsnr" v="668238" />
	</node>
	<node lat="58.95258333603656" lon="7.652150004099249" id="-38929">
		<tag k="alt_name" v="Snjoskar" />
		<tag k="name" v="Snoskard" />
		<tag k="natural" v="valley" />
		<tag k="place" v="locality" />
		<tag k="ssr:stedsnr" v="668284" />
	</node>
	<node lat="58.9470083365435" lon="7.579619448894175" id="-38930">
		<tag k="name" v="Rustfjellhei" />
		<tag k="natural" v="hill" />
		<tag k="place" v="locality" />
		<tag k="ssr:stedsnr" v="668286" />
	</node>
	<node lat="58.963238889454814" lon="7.56241945047772" id="-38931">
		<tag k="fixme" v="consider natural=peak for the most distinct mountains in the district" />
		<tag k="name" v="Njuk" />
		<tag k="natural" v="hill" />
		<tag k="place" v="locality" />
		<tag k="ssr:stedsnr" v="668294" />
	</node>
	<node lat="58.915808335158445" lon="7.591205558815098" id="-38938">
		<tag k="name" v="Skåvassdalen" />
		<tag k="natural" v="valley" />
		<tag k="place" v="locality" />
		<tag k="ssr:stedsnr" v="668487" />
	</node>
	<node lat="58.67406389201103" lon="7.867916665117515" id="-38948">
		<tag k="fixme" v="consider natural=peak for the most distinct mountains in the district" />
		<tag k="name" v="Skardeknodden" />
		<tag k="natural" v="hill" />
		<tag k="place" v="locality" />
		<tag k="ssr:stedsnr" v="668630" />
	</node>
	<node lat="58.94286388672178" lon="7.812625007545869" id="-38949">
		<tag k="fixme" v="consider natural=peak for the most distinct mountains in the district" />
		<tag k="name" v="Kvihei" />
		<tag k="natural" v="hill" />
		<tag k="place" v="locality" />
		<tag k="ssr:stedsnr" v="668679" />
	</node>
	<node lat="58.79983610934694" lon="7.905588883594304" id="-38964">
		<tag k="alt_name" v="Fjellkinn" />
		<tag k="name" v="Kinn" />
		<tag k="natural" v="hill" />
		<tag k="place" v="locality" />
		<tag k="ssr:stedsnr" v="668802" />
	</node>
	<node lat="58.72730277672048" lon="7.845275004287369" id="-38966">
		<tag k="fixme" v="consider natural=peak for the most distinct mountains in the district" />
		<tag k="name" v="Rakkenesheii" />
		<tag k="natural" v="hill" />
		<tag k="place" v="locality" />
		<tag k="ssr:stedsnr" v="668917" />
	</node>
	<node lat="58.98292500136993" lon="7.525494450223846" id="-38968">
		<tag k="fixme" v="consider natural=peak for the most distinct mountains in the district" />
		<tag k="name" v="Mjunås" />
		<tag k="natural" v="hill" />
		<tag k="place" v="locality" />
		<tag k="ssr:stedsnr" v="690182" />
	</node>
	<node lat="58.829105557819105" lon="7.7973972147536506" id="-38975">
		<tag k="name" v="Knutsbakk" />
		<tag k="natural" v="slope" />
		<tag k="place" v="locality" />
		<tag k="ssr:stedsnr" v="691023" />
	</node>
	<node lat="58.99943333544494" lon="7.527813889772945" id="-38979">
		<tag k="name" v="Bjålia" />
		<tag k="natural" v="slope" />
		<tag k="place" v="locality" />
		<tag k="ssr:stedsnr" v="691029" />
	</node>
	<node lat="58.703475001989396" lon="7.83526110873942" id="-38981">
		<tag k="name" v="Raukadden" />
		<tag k="place" v="locality" />
		<tag k="ssr:stedsnr" v="691036" />
	</node>
	<node lat="58.751719445731" lon="7.788263887850654" id="-38982">
		<tag k="name" v="Husefjell" />
		<tag k="natural" v="hill" />
		<tag k="place" v="locality" />
		<tag k="ssr:stedsnr" v="691103" />
	</node>
	<node lat="58.85993888921266" lon="7.812233331377201" id="-38989">
		<tag k="name" v="Grøsteskotet" />
		<tag k="natural" v="slope" />
		<tag k="place" v="locality" />
		<tag k="ssr:stedsnr" v="691136" />
	</node>
	<node lat="58.8462333331268" lon="7.809769451874185" id="-38994">
		<tag k="name" v="Småusmonen" />
		<tag k="place" v="locality" />
		<tag k="ssr:stedsnr" v="691153" />
	</node>
	<node lat="58.954163890829065" lon="7.572066673626865" id="-38995">
		<tag k="name" v="Rustfjelldalen" />
		<tag k="natural" v="valley" />
		<tag k="place" v="locality" />
		<tag k="ssr:stedsnr" v="691155" />
	</node>
	<node lat="58.88861388449218" lon="7.735216665485616" id="-39002">
		<tag k="name" v="Osskot" />
		<tag k="natural" v="slope" />
		<tag k="place" v="locality" />
		<tag k="ssr:stedsnr" v="691292" />
	</node>
	<node lat="58.87552222377026" lon="7.7314222210719805" id="-39003">
		<tag k="name" v="Småskoti" />
		<tag k="natural" v="slope" />
		<tag k="place" v="locality" />
		<tag k="ssr:stedsnr" v="691297" />
	</node>
	<node lat="58.89360000273997" lon="7.666997220256985" id="-39004">
		<tag k="name" v="Nordli" />
		<tag k="natural" v="slope" />
		<tag k="place" v="locality" />
		<tag k="ssr:stedsnr" v="691299" />
	</node>
	<node lat="58.766352780357806" lon="7.733894445804283" id="-39006">
		<tag k="name" v="Fjellveggen" />
		<tag k="natural" v="cliff" />
		<tag k="ssr:stedsnr" v="691403" />
	</node>
	<node lat="58.69053333295958" lon="7.810599993521775" id="-39008">
		<tag k="name" v="Rapen" />
		<tag k="natural" v="slope" />
		<tag k="place" v="locality" />
		<tag k="ssr:stedsnr" v="691411" />
	</node>
	<node lat="58.759641662314216" lon="7.828894446872059" id="-39009">
		<tag k="name" v="Sundsfjell" />
		<tag k="natural" v="cliff" />
		<tag k="ssr:stedsnr" v="691413" />
	</node>
	<node lat="58.75966111267028" lon="7.796394448490437" id="-39010">
		<tag k="name" v="Gladalsbakkane" />
		<tag k="natural" v="slope" />
		<tag k="place" v="locality" />
		<tag k="ssr:stedsnr" v="691415" />
	</node>
	<node lat="58.8058916697164" lon="7.869080560437018" id="-39012">
		<tag k="fixme" v="consider natural=peak for the most distinct mountains in the district" />
		<tag k="name" v="Svinsrygg" />
		<tag k="natural" v="hill" />
		<tag k="place" v="locality" />
		<tag k="ssr:stedsnr" v="691177" />
	</node>
	<node lat="58.875197218046964" lon="7.609086103473925" id="-39013">
		<tag k="name" v="Krøne" />
		<tag k="natural" v="valley" />
		<tag k="place" v="locality" />
		<tag k="ssr:stedsnr" v="691304" />
	</node>
	<node lat="58.8628888916585" lon="7.6976333355825615" id="-39016">
		<tag k="name" v="Røyslandshommen" />
		<tag k="natural" v="slope" />
		<tag k="place" v="locality" />
		<tag k="ssr:stedsnr" v="691316" />
	</node>
	<node lat="58.72214721845177" lon="7.728947226483188" id="-39018">
		<tag k="name" v="Sjallvassheii" />
		<tag k="natural" v="hill" />
		<tag k="place" v="locality" />
		<tag k="ssr:stedsnr" v="691330" />
	</node>
	<node lat="58.700041663803376" lon="7.72317222414209" id="-39020">
		<tag k="name" v="Botnen" />
		<tag k="natural" v="valley" />
		<tag k="place" v="locality" />
		<tag k="ssr:stedsnr" v="691383" />
	</node>
	<node lat="59.00020833752416" lon="7.636399995342196" id="-39021">
		<tag k="name" v="Uredalen" />
		<tag k="natural" v="valley" />
		<tag k="place" v="locality" />
		<tag k="ssr:stedsnr" v="691385" />
	</node>
	<node lat="58.653122226332556" lon="7.827858331501918" id="-39023">
		<tag k="name" v="Lisleås" />
		<tag k="natural" v="hill" />
		<tag k="place" v="locality" />
		<tag k="ssr:stedsnr" v="691390" />
	</node>
	<node lat="58.94804722289958" lon="7.665333333138282" id="-39024">
		<tag k="name" v="Fossli" />
		<tag k="natural" v="slope" />
		<tag k="place" v="locality" />
		<tag k="ssr:stedsnr" v="691391" />
	</node>
	<node lat="58.689522220196764" lon="7.827241675199944" id="-39025">
		<tag k="name" v="Kleveknodden" />
		<tag k="natural" v="hill" />
		<tag k="place" v="locality" />
		<tag k="ssr:stedsnr" v="691398" />
	</node>
	<node lat="58.76809999676825" lon="7.7386361034314675" id="-39027">
		<tag k="name" v="Skarelidi" />
		<tag k="natural" v="slope" />
		<tag k="place" v="locality" />
		<tag k="ssr:stedsnr" v="691402" />
	</node>
	<node lat="58.95782222303132" lon="7.8674416670128675" id="-39029">
		<tag k="name" v="Martebakken" />
		<tag k="natural" v="slope" />
		<tag k="place" v="locality" />
		<tag k="ssr:stedsnr" v="691814" />
	</node>
	<node lat="58.94988889085811" lon="7.92265555145085" id="-39030">
		<tag k="name" v="Napelidi" />
		<tag k="natural" v="slope" />
		<tag k="place" v="locality" />
		<tag k="ssr:stedsnr" v="691815" />
	</node>
	<node lat="58.95581944543302" lon="7.9256444426088954" id="-39031">
		<tag k="name" v="Brokka" />
		<tag k="natural" v="slope" />
		<tag k="place" v="locality" />
		<tag k="ssr:stedsnr" v="691820" />
	</node>
	<node lat="58.955986106939065" lon="7.901874994186625" id="-39032">
		<tag k="name" v="Pilegrimnapen" />
		<tag k="natural" v="hill" />
		<tag k="place" v="locality" />
		<tag k="ssr:stedsnr" v="691821" />
	</node>
	<node lat="58.94892499751857" lon="7.959852783130419" id="-39034">
		<tag k="name" v="Nystøylheii" />
		<tag k="natural" v="hill" />
		<tag k="place" v="locality" />
		<tag k="ssr:stedsnr" v="691778" />
	</node>
	<node lat="59.01864722145019" lon="7.8011666680697465" id="-39036">
		<tag k="name" v="Skabakken" />
		<tag k="natural" v="slope" />
		<tag k="place" v="locality" />
		<tag k="ssr:stedsnr" v="701762" />
	</node>
	<node lat="59.02219444050741" lon="7.8049555583301595" id="-39037">
		<tag k="name" v="Drivslilii" />
		<tag k="natural" v="slope" />
		<tag k="place" v="locality" />
		<tag k="ssr:stedsnr" v="701766" />
	</node>
	<node lat="59.065688887012826" lon="7.797338891406596" id="-39038">
		<tag k="fixme" v="consider natural=peak for the most distinct mountains in the district" />
		<tag k="name" v="Vasslifjell" />
		<tag k="natural" v="hill" />
		<tag k="place" v="locality" />
		<tag k="ssr:stedsnr" v="701767" />
	</node>
	<node lat="59.01446944422164" lon="7.841555561878275" id="-39039">
		<tag k="name" v="Kvernhusskaret" />
		<tag k="natural" v="valley" />
		<tag k="place" v="locality" />
		<tag k="ssr:stedsnr" v="701773" />
	</node>
	<node lat="59.00143610906115" lon="7.925252781780397" id="-39042">
		<tag k="fixme" v="consider natural=peak for the most distinct mountains in the district" />
		<tag k="name" v="Rekedalsåsen" />
		<tag k="natural" v="hill" />
		<tag k="place" v="locality" />
		<tag k="ssr:stedsnr" v="701787" />
	</node>
	<node lat="58.78371111186828" lon="7.982111112673795" id="-39046">
		<tag k="name" v="Leivsvasslia" />
		<tag k="natural" v="slope" />
		<tag k="place" v="locality" />
		<tag k="ssr:stedsnr" v="701878" />
	</node>
	<node lat="58.78984722193257" lon="7.971852781435366" id="-39047">
		<tag k="fixme" v="consider natural=peak for the most distinct mountains in the district" />
		<tag k="name" v="Vissjeheii" />
		<tag k="natural" v="hill" />
		<tag k="place" v="locality" />
		<tag k="ssr:stedsnr" v="701882" />
	</node>
	<node lat="58.79799444623381" lon="7.976963890015833" id="-39048">
		<tag k="name" v="Krokli" />
		<tag k="natural" v="slope" />
		<tag k="place" v="locality" />
		<tag k="ssr:stedsnr" v="701883" />
	</node>
	<node lat="58.910133334641046" lon="7.862466665025483" id="-39049">
		<tag k="name" v="Bjørkholtdalen" />
		<tag k="natural" v="valley" />
		<tag k="place" v="locality" />
		<tag k="ssr:stedsnr" v="701960" />
	</node>
	<node lat="58.956938887645144" lon="7.596633340111394" id="-39054">
		<tag k="name" v="Søteskard" />
		<tag k="natural" v="valley" />
		<tag k="place" v="locality" />
		<tag k="ssr:stedsnr" v="729305" />
	</node>
	<node lat="58.97125555938875" lon="7.2743972230521665" id="-39058">
		<tag k="name" v="Videdalen" />
		<tag k="natural" v="valley" />
		<tag k="old_name" v="Vide-dalen" />
		<tag k="place" v="locality" />
		<tag k="ssr:stedsnr" v="729225" />
	</node>
	<node lat="58.93842499696447" lon="7.380100001219555" id="-39062">
		<tag k="name" v="Troddedalen" />
		<tag k="natural" v="valley" />
		<tag k="place" v="locality" />
		<tag k="ssr:stedsnr" v="729288" />
	</node>
	<node lat="58.925838892884485" lon="7.4504944486321865" id="-39065">
		<tag k="name" v="Hegestøyldalen" />
		<tag k="natural" v="valley" />
		<tag k="place" v="locality" />
		<tag k="ssr:stedsnr" v="729483" />
	</node>
	<node lat="58.93795000229796" lon="7.936299993800796" id="-39072">
		<tag k="alt_name" v="Steinefjødd" />
		<tag k="fixme" v="consider natural=peak for the most distinct mountains in the district" />
		<tag k="name" v="Steinefjell" />
		<tag k="natural" v="hill" />
		<tag k="place" v="locality" />
		<tag k="ssr:stedsnr" v="729670" />
	</node>
	<node lat="58.7372750036451" lon="7.877855555835704" id="-39078">
		<tag k="alt_name" v="Longebuheii" />
		<tag k="name" v="Langebuheii" />
		<tag k="natural" v="hill" />
		<tag k="place" v="locality" />
		<tag k="ssr:stedsnr" v="729913" />
	</node>
	<node lat="59.07180832957343" lon="7.834086118920041" id="-39082">
		<tag k="fixme" v="consider natural=peak for the most distinct mountains in the district" />
		<tag k="name" v="Torlidalsfjell" />
		<tag k="natural" v="hill" />
		<tag k="place" v="locality" />
		<tag k="ssr:stedsnr" v="730469" />
	</node>
	<node lat="58.992102781053646" lon="7.596372214169478" id="-39084">
		<tag k="name" v="Stigan" />
		<tag k="natural" v="slope" />
		<tag k="place" v="locality" />
		<tag k="ssr:stedsnr" v="751008" />
	</node>
	<node lat="59.007305556039526" lon="7.529308335900571" id="-39086">
		<tag k="name" v="Atikflotlia" />
		<tag k="natural" v="slope" />
		<tag k="place" v="locality" />
		<tag k="ssr:stedsnr" v="751012" />
	</node>
	<node lat="59.00091944870567" lon="7.548477777916732" id="-39087">
		<tag k="name" v="Storelia" />
		<tag k="natural" v="slope" />
		<tag k="place" v="locality" />
		<tag k="ssr:stedsnr" v="751026" />
	</node>
	<node lat="58.69649444712161" lon="7.84263055601347" id="-39090">
		<tag k="name" v="Holmen" />
		<tag k="natural" v="valley" />
		<tag k="place" v="locality" />
		<tag k="ssr:stedsnr" v="751037" />
	</node>
	<node lat="58.714294444110116" lon="7.899497226726843" id="-39091">
		<tag k="fixme" v="consider natural=peak for the most distinct mountains in the district" />
		<tag k="name" v="Espåsen" />
		<tag k="natural" v="hill" />
		<tag k="place" v="locality" />
		<tag k="ssr:stedsnr" v="751060" />
	</node>
	<node lat="58.813922226207225" lon="7.837697214177555" id="-39093">
		<tag k="name" v="Velta" />
		<tag k="place" v="locality" />
		<tag k="ssr:stedsnr" v="751156" />
	</node>
	<node lat="58.93681666448658" lon="7.796847225334957" id="-39094">
		<tag k="name" v="Rolid" />
		<tag k="natural" v="slope" />
		<tag k="place" v="locality" />
		<tag k="ssr:stedsnr" v="751164" />
	</node>
	<node lat="58.875450002256" lon="7.759116674595258" id="-39098">
		<tag k="name" v="Dritdalen" />
		<tag k="natural" v="valley" />
		<tag k="place" v="locality" />
		<tag k="ssr:stedsnr" v="751304" />
	</node>
	<node lat="58.91741111277769" lon="7.771119449701511" id="-39101">
		<tag k="name" v="Gråsfetsoget" />
		<tag k="natural" v="gorge" />
		<tag k="ssr:stedsnr" v="751314" />
	</node>
	<node lat="58.906986111797735" lon="7.77099999579304" id="-39103">
		<tag k="name" v="Nipen" />
		<tag k="natural" v="hill" />
		<tag k="place" v="locality" />
		<tag k="ssr:stedsnr" v="751321" />
	</node>
	<node lat="58.786297224347955" lon="7.747777779544889" id="-39109">
		<tag k="name" v="Storeli" />
		<tag k="natural" v="slope" />
		<tag k="place" v="locality" />
		<tag k="ssr:stedsnr" v="751363" />
	</node>
	<node lat="58.77668055481928" lon="7.731425002263627" id="-39112">
		<tag k="name" v="Slambusdalen" />
		<tag k="natural" v="valley" />
		<tag k="place" v="locality" />
		<tag k="ssr:stedsnr" v="751378" />
	</node>
	<node lat="58.784033330596024" lon="7.742258331209518" id="-39113">
		<tag k="name" v="Songedalslia" />
		<tag k="natural" v="slope" />
		<tag k="place" v="locality" />
		<tag k="ssr:stedsnr" v="751379" />
	</node>
	<node lat="58.77239722061524" lon="7.863666659745164" id="-39115">
		<tag k="name" v="Skrubbehola" />
		<tag k="natural" v="valley" />
		<tag k="place" v="locality" />
		<tag k="ssr:stedsnr" v="751216" />
	</node>
	<node lat="58.88308889295607" lon="7.749802772277528" id="-39117">
		<tag k="name" v="Nevrestøylfjødd" />
		<tag k="natural" v="hill" />
		<tag k="place" v="locality" />
		<tag k="ssr:stedsnr" v="751282" />
	</node>
	<node lat="58.69490833034747" lon="7.827738890003481" id="-39122">
		<tag k="name" v="Hallingdal" />
		<tag k="natural" v="valley" />
		<tag k="place" v="locality" />
		<tag k="ssr:stedsnr" v="751414" />
	</node>
	<node lat="58.933327773464" lon="7.972302776937305" id="-39127">
		<tag k="name" v="Nuteskaret" />
		<tag k="natural" v="valley" />
		<tag k="place" v="locality" />
		<tag k="ssr:stedsnr" v="751805" />
	</node>
	<node lat="58.95434444661169" lon="7.900530563561752" id="-39129">
		<tag k="name" v="Fossbroti" />
		<tag k="natural" v="slope" />
		<tag k="place" v="locality" />
		<tag k="ssr:stedsnr" v="751861" />
	</node>
	<node lat="58.9840777814113" lon="7.747430563086821" id="-39133">
		<tag k="name" v="Kortejeddin" />
		<tag k="place" v="locality" />
		<tag k="ssr:stedsnr" v="752360" />
	</node>
	<node lat="58.964602778931045" lon="7.9575500004913335" id="-39137">
		<tag k="name" v="Raunedalen" />
		<tag k="natural" v="valley" />
		<tag k="place" v="locality" />
		<tag k="ssr:stedsnr" v="755352" />
	</node>
	<node lat="58.7204388870025" lon="7.70578610390879" id="-39144">
		<tag k="fixme" v="consider natural=peak for the most distinct mountains in the district" />
		<tag k="name" v="Revstøylheii" />
		<tag k="natural" v="hill" />
		<tag k="place" v="locality" />
		<tag k="ssr:stedsnr" v="762792" />
	</node>
	<node lat="58.90361389089428" lon="7.781016673618133" id="-39146">
		<tag k="fixme" v="consider natural=peak for the most distinct mountains in the district" />
		<tag k="name" v="Trengslenuten" />
		<tag k="natural" v="hill" />
		<tag k="place" v="locality" />
		<tag k="ssr:stedsnr" v="762955" />
	</node>
	<node lat="58.90792777924102" lon="7.930438883375429" id="-39147">
		<tag k="fixme" v="consider natural=peak for the most distinct mountains in the district" />
		<tag k="name" v="Kollbunut" />
		<tag k="natural" v="hill" />
		<tag k="place" v="locality" />
		<tag k="ssr:stedsnr" v="762957" />
	</node>
	<node lat="58.92025277665925" lon="7.248677784851047" id="-39158">
		<tag k="fixme" v="consider natural=peak for the most distinct mountains in the district" />
		<tag k="name" v="Falkarheii" />
		<tag k="natural" v="hill" />
		<tag k="place" v="locality" />
		<tag k="ssr:stedsnr" v="911218" />
	</node>
	<node lat="58.85595833574902" lon="7.239683337782117" id="-39161">
		<tag k="fixme" v="consider natural=peak for the most distinct mountains in the district" />
		<tag k="name" v="Viervassheii" />
		<tag k="natural" v="hill" />
		<tag k="place" v="locality" />
		<tag k="ssr:stedsnr" v="789156" />
	</node>
	<node lat="58.832225000743435" lon="7.155883336698068" id="-39163">
		<tag k="alt_name" v="Holmevassknuten, l" />
		<tag k="fixme" v="consider natural=peak for the most distinct mountains in the district" />
		<tag k="name" v="Lisle Holmevassknuten" />
		<tag k="natural" v="hill" />
		<tag k="place" v="locality" />
		<tag k="ssr:stedsnr" v="911382" />
	</node>
	<node lat="58.97374722258237" lon="7.443486118884863" id="-39170">
		<tag k="alt_name" v="Napen, s" />
		<tag k="fixme" v="consider natural=peak for the most distinct mountains in the district" />
		<tag k="name" v="Søndre Napen" />
		<tag k="natural" v="hill" />
		<tag k="place" v="locality" />
		<tag k="ssr:stedsnr" v="789323" />
	</node>
	<node lat="58.94495833451286" lon="7.685969437100746" id="-39172">
		<tag k="name" v="Kleivi" />
		<tag k="natural" v="slope" />
		<tag k="place" v="locality" />
		<tag k="ssr:stedsnr" v="911495" />
	</node>
	<node lat="58.938586112267174" lon="7.970686113951566" id="-39175">
		<tag k="fixme" v="consider natural=peak for the most distinct mountains in the district" />
		<tag k="name" v="Stedjeheii" />
		<tag k="natural" v="hill" />
		<tag k="place" v="locality" />
		<tag k="ssr:stedsnr" v="789648" />
	</node>
	<node lat="58.810100004104754" lon="7.99270832948464" id="-39176">
		<tag k="fixme" v="consider natural=peak for the most distinct mountains in the district" />
		<tag k="name" v="Vårlifjell" />
		<tag k="natural" v="hill" />
		<tag k="place" v="locality" />
		<tag k="ssr:stedsnr" v="789807" />
	</node>
	<node lat="58.76619999885156" lon="7.905555548198229" id="-39178">
		<tag k="alt_name" v="Kolsviknuten" />
		<tag k="fixme" v="consider natural=peak for the most distinct mountains in the district" />
		<tag k="name" v="Kollsvikheii" />
		<tag k="natural" v="hill" />
		<tag k="place" v="locality" />
		<tag k="ssr:stedsnr" v="789826" />
	</node>
	<node lat="58.8147944476632" lon="7.916533331069765" id="-39182">
		<tag k="alt_name" v="Tverrstøylheii" />
		<tag k="fixme" v="consider natural=peak for the most distinct mountains in the district" />
		<tag k="name" v="Tverrstølheii" />
		<tag k="natural" v="hill" />
		<tag k="place" v="locality" />
		<tag k="ssr:stedsnr" v="789755" />
	</node>
	<node lat="58.69989999956311" lon="7.7579027731698895" id="-39183">
		<tag k="fixme" v="consider natural=peak for the most distinct mountains in the district" />
		<tag k="name" v="Skorefjell" />
		<tag k="natural" v="hill" />
		<tag k="place" v="locality" />
		<tag k="ssr:stedsnr" v="911588" />
	</node>
	<node lat="58.95257500336358" lon="7.324183333868051" id="-39185">
		<tag k="fixme" v="consider natural=peak for the most distinct mountains in the district" />
		<tag k="name" v="Austevassknuten" />
		<tag k="natural" v="hill" />
		<tag k="place" v="locality" />
		<tag k="ssr:stedsnr" v="790204" />
	</node>
	<node lat="58.95697500423905" lon="7.239861109075543" id="-39186">
		<tag k="name" v="Klubbetjørndalen" />
		<tag k="natural" v="valley" />
		<tag k="place" v="locality" />
		<tag k="ssr:stedsnr" v="790212" />
	</node>
	<node lat="58.84139166571776" lon="7.676033339963737" id="-39189">
		<tag k="fixme" v="consider natural=peak for the most distinct mountains in the district" />
		<tag k="name" v="Songedalsnuten" />
		<tag k="natural" v="hill" />
		<tag k="place" v="locality" />
		<tag k="ssr:stedsnr" v="911412" />
	</node>
	<node lat="58.878486110007465" lon="7.382691667470609" id="-39191">
		<tag k="name" v="Honnarvasslega" />
		<tag k="place" v="locality" />
		<tag k="ssr:stedsnr" v="911442" />
	</node>
	<node lat="58.91986388844419" lon="7.939861103950054" id="-39198">
		<tag k="fixme" v="consider natural=peak for the most distinct mountains in the district" />
		<tag k="name" v="Slekjefjell" />
		<tag k="natural" v="hill" />
		<tag k="place" v="locality" />
		<tag k="ssr:stedsnr" v="911682" />
	</node>
	<node lat="58.81583889035351" lon="7.975555563297439" id="-39201">
		<tag k="fixme" v="consider natural=peak for the most distinct mountains in the district" />
		<tag k="name" v="Juleheii" />
		<tag k="natural" v="hill" />
		<tag k="place" v="locality" />
		<tag k="ssr:stedsnr" v="911769" />
	</node>
	<node lat="58.830994445823606" lon="7.832041674009113" id="-39204">
		<tag k="name" v="Bjørndalen" />
		<tag k="natural" v="valley" />
		<tag k="place" v="locality" />
		<tag k="ssr:stedsnr" v="911777" />
	</node>
	<node lat="58.7785027749299" lon="7.889775004254481" id="-39213">
		<tag k="fixme" v="consider natural=peak for the most distinct mountains in the district" />
		<tag k="name" v="Gruddefjell" />
		<tag k="natural" v="hill" />
		<tag k="place" v="locality" />
		<tag k="ssr:stedsnr" v="790855" />
	</node>
	<node lat="58.954872223123125" lon="7.823900006138418" id="-39215">
		<tag k="alt_name" v="Reiskvæven" />
		<tag k="fixme" v="consider natural=peak for the most distinct mountains in the district" />
		<tag k="name" v="Reiskæven" />
		<tag k="natural" v="hill" />
		<tag k="place" v="locality" />
		<tag k="ssr:stedsnr" v="911640" />
	</node>
	<node lat="58.71599999575701" lon="7.964213885125205" id="-39216">
		<tag k="fixme" v="consider natural=peak for the most distinct mountains in the district" />
		<tag k="name" v="Heddefjell" />
		<tag k="natural" v="hill" />
		<tag k="place" v="locality" />
		<tag k="ssr:stedsnr" v="911923" />
	</node>
	<node lat="59.04056388647845" lon="7.701025006642489" id="-39217">
		<tag k="fixme" v="consider natural=peak for the most distinct mountains in the district" />
		<tag k="name" v="Sandvassheii" />
		<tag k="natural" v="hill" />
		<tag k="place" v="locality" />
		<tag k="ssr:stedsnr" v="912260" />
	</node>
	<node lat="59.0350750031383" lon="7.690222218640842" id="-39218">
		<tag k="alt_name" v="Norde Rotedalen" />
		<tag k="name" v="Rotdalen" />
		<tag k="natural" v="valley" />
		<tag k="place" v="locality" />
		<tag k="ssr:stedsnr" v="912282" />
	</node>
	<node lat="59.00034444581066" lon="7.599305552655942" id="-39223">
		<tag k="name" v="Fugledalen" />
		<tag k="natural" v="valley" />
		<tag k="place" v="locality" />
		<tag k="ssr:stedsnr" v="812009" />
	</node>
	<node lat="58.86282221941219" lon="7.8225499963168454" id="-39228">
		<tag k="name" v="Rugeflot" />
		<tag k="natural" v="slope" />
		<tag k="place" v="locality" />
		<tag k="ssr:stedsnr" v="812024" />
	</node>
	<node lat="58.73038055616612" lon="7.837944442196239" id="-39229">
		<tag k="name" v="Liihefte" />
		<tag k="natural" v="slope" />
		<tag k="place" v="locality" />
		<tag k="ssr:stedsnr" v="812025" />
	</node>
	<node lat="58.812280558574805" lon="7.821405561832172" id="-39232">
		<tag k="name" v="Ospehomm" />
		<tag k="natural" v="slope" />
		<tag k="place" v="locality" />
		<tag k="ssr:stedsnr" v="812083" />
	</node>
	<node lat="59.01263055773971" lon="7.530072215338741" id="-39234">
		<tag k="name" v="Kvithellerfjellet" />
		<tag k="natural" v="cliff" />
		<tag k="ssr:stedsnr" v="812088" />
	</node>
	<node lat="58.69124444141145" lon="7.911269452265699" id="-39237">
		<tag k="name" v="Krossdalen" />
		<tag k="natural" v="valley" />
		<tag k="place" v="locality" />
		<tag k="ssr:stedsnr" v="812223" />
	</node>
	<node lat="58.77263055112454" lon="7.872863887369871" id="-39238">
		<tag k="name" v="Bjørkehommen" />
		<tag k="natural" v="slope" />
		<tag k="place" v="locality" />
		<tag k="ssr:stedsnr" v="812225" />
	</node>
	<node lat="58.83103055438789" lon="7.819886113244435" id="-39240">
		<tag k="name" v="Rindan" />
		<tag k="natural" v="ridge" />
		<tag k="place" v="locality" />
		<tag k="ssr:stedsnr" v="812104" />
	</node>
	<node lat="58.83748889104324" lon="7.827416674495004" id="-39241">
		<tag k="fixme" v="consider natural=peak for the most distinct mountains in the district" />
		<tag k="name" v="Åkhusåsen" />
		<tag k="natural" v="hill" />
		<tag k="place" v="locality" />
		<tag k="ssr:stedsnr" v="812105" />
	</node>
	<node lat="58.95821389311663" lon="7.529302769809553" id="-39243">
		<tag k="name" v="Noklekleivheii" />
		<tag k="natural" v="hill" />
		<tag k="place" v="locality" />
		<tag k="ssr:stedsnr" v="812130" />
	</node>
	<node lat="58.94929444555746" lon="7.521541675128964" id="-39244">
		<tag k="name" v="Nordmanndalen" />
		<tag k="natural" v="valley" />
		<tag k="place" v="locality" />
		<tag k="ssr:stedsnr" v="812132" />
	</node>
	<node lat="58.98884166530578" lon="7.592644443975852" id="-39247">
		<tag k="name" v="Kvitheddertoni" />
		<tag k="natural" v="slope" />
		<tag k="place" v="locality" />
		<tag k="ssr:stedsnr" v="812186" />
	</node>
	<node lat="58.877394439974424" lon="7.692011105520502" id="-39248">
		<tag k="name" v="Urdalen" />
		<tag k="natural" v="valley" />
		<tag k="place" v="locality" />
		<tag k="ssr:stedsnr" v="812303" />
	</node>
	<node lat="58.6639000005127" lon="7.828844445186585" id="-39252">
		<tag k="name" v="Skrydden" />
		<tag k="natural" v="slope" />
		<tag k="place" v="locality" />
		<tag k="ssr:stedsnr" v="812514" />
	</node>
	<node lat="58.686408336431334" lon="7.802455563568137" id="-39255">
		<tag k="name" v="Geitups" />
		<tag k="natural" v="cliff" />
		<tag k="ssr:stedsnr" v="812523" />
	</node>
	<node lat="58.687963888218604" lon="7.828083335710306" id="-39258">
		<tag k="name" v="Kleveholet" />
		<tag k="natural" v="valley" />
		<tag k="place" v="locality" />
		<tag k="ssr:stedsnr" v="812530" />
	</node>
	<node lat="58.93808888970214" lon="7.75216111881056" id="-39259">
		<tag k="fixme" v="consider natural=peak for the most distinct mountains in the district" />
		<tag k="name" v="Duggedalsfjellet" />
		<tag k="natural" v="hill" />
		<tag k="place" v="locality" />
		<tag k="ssr:stedsnr" v="812404" />
	</node>
	<node lat="58.75468055485969" lon="7.761583333825209" id="-39265">
		<tag k="name" v="Lunnejuvet" />
		<tag k="natural" v="gorge" />
		<tag k="ssr:stedsnr" v="812437" />
	</node>
	<node lat="58.75430000145892" lon="7.725441659531508" id="-39266">
		<tag k="name" v="Sjavskotdalen" />
		<tag k="natural" v="valley" />
		<tag k="place" v="locality" />
		<tag k="ssr:stedsnr" v="812439" />
	</node>
	<node lat="58.758261107783554" lon="7.736441673840648" id="-39267">
		<tag k="name" v="Ormebrekkli" />
		<tag k="natural" v="slope" />
		<tag k="place" v="locality" />
		<tag k="ssr:stedsnr" v="812443" />
	</node>
	<node lat="58.846802779089224" lon="7.859897222735342" id="-39268">
		<tag k="name" v="Persnaus" />
		<tag k="natural" v="hill" />
		<tag k="place" v="locality" />
		<tag k="ssr:stedsnr" v="812445" />
	</node>
	<node lat="58.98162222045574" lon="7.645122215713817" id="-39269">
		<tag k="name" v="Vrongevjestykke" />
		<tag k="place" v="locality" />
		<tag k="ssr:stedsnr" v="812447" />
	</node>
	<node lat="58.85042221975113" lon="7.918030549284928" id="-39270">
		<tag k="name" v="Grasdal" />
		<tag k="natural" v="valley" />
		<tag k="place" v="locality" />
		<tag k="ssr:stedsnr" v="812481" />
	</node>
	<node lat="58.869097225411274" lon="7.854613885991033" id="-39271">
		<tag k="name" v="Bjorufslidi" />
		<tag k="natural" v="slope" />
		<tag k="place" v="locality" />
		<tag k="ssr:stedsnr" v="812490" />
	</node>
	<node lat="58.96847778165787" lon="7.944533337895228" id="-39273">
		<tag k="fixme" v="consider natural=peak for the most distinct mountains in the district" />
		<tag k="name" v="Smølåsen" />
		<tag k="natural" v="hill" />
		<tag k="place" v="locality" />
		<tag k="ssr:stedsnr" v="812793" />
	</node>
	<node lat="58.95531388497681" lon="7.948152772477631" id="-39275">
		<tag k="name" v="Sveigen" />
		<tag k="place" v="locality" />
		<tag k="ssr:stedsnr" v="812799" />
	</node>
	<node lat="58.96143333393299" lon="7.9920833303710985" id="-39276">
		<tag k="name" v="Svartetjørnheii" />
		<tag k="natural" v="hill" />
		<tag k="place" v="locality" />
		<tag k="ssr:stedsnr" v="812803" />
	</node>
	<node lat="58.780375000898495" lon="7.78316389692145" id="-39278">
		<tag k="name" v="Hestelia" />
		<tag k="natural" v="slope" />
		<tag k="place" v="locality" />
		<tag k="ssr:stedsnr" v="813088" />
	</node>
	<node lat="59.029330552082946" lon="7.811352779878804" id="-39283">
		<tag k="name" v="Baklii" />
		<tag k="natural" v="slope" />
		<tag k="place" v="locality" />
		<tag k="ssr:stedsnr" v="823705" />
	</node>
	<node lat="59.03262777452066" lon="7.803652778366352" id="-39284">
		<tag k="name" v="Svoletjønnhommen" />
		<tag k="natural" v="slope" />
		<tag k="place" v="locality" />
		<tag k="ssr:stedsnr" v="823706" />
	</node>
	<node lat="58.81328332933426" lon="7.676852786545368" id="-39286">
		<tag k="name" v="Suleskar" />
		<tag k="natural" v="valley" />
		<tag k="place" v="locality" />
		<tag k="ssr:stedsnr" v="823812" />
	</node>
	<node lat="58.771000000022305" lon="7.952469436679003" id="-39287">
		<tag k="fixme" v="consider natural=peak for the most distinct mountains in the district" />
		<tag k="name" v="Bjortjønnuten" />
		<tag k="natural" v="hill" />
		<tag k="place" v="locality" />
		<tag k="ssr:stedsnr" v="823824" />
	</node>
	<node lat="59.00163333135407" lon="7.4812361072291385" id="-39288">
		<tag k="name" v="Hudehagberget" />
		<tag k="natural" v="slope" />
		<tag k="place" v="locality" />
		<tag k="ssr:stedsnr" v="823778" />
	</node>
	<node lat="58.72554722178648" lon="7.690619441229319" id="-39289">
		<tag k="name" v="Spikkestøyllidi" />
		<tag k="natural" v="slope" />
		<tag k="place" v="locality" />
		<tag k="ssr:stedsnr" v="823780" />
	</node>
	<node lat="58.75730000155377" lon="7.919444448278381" id="-39290">
		<tag k="fixme" v="consider natural=peak for the most distinct mountains in the district" />
		<tag k="name" v="Lauvlinuten" />
		<tag k="natural" v="hill" />
		<tag k="place" v="locality" />
		<tag k="ssr:stedsnr" v="823916" />
	</node>
	<node lat="58.77542500065448" lon="7.9180361148093095" id="-39291">
		<tag k="name" v="Slåttedalen" />
		<tag k="natural" v="valley" />
		<tag k="place" v="locality" />
		<tag k="ssr:stedsnr" v="823923" />
	</node>
	<node lat="58.74443611451462" lon="7.658613887018772" id="-39294">
		<tag k="name" v="Sveigen" />
		<tag k="natural" v="valley" />
		<tag k="place" v="locality" />
		<tag k="ssr:stedsnr" v="850034" />
	</node>
	<node lat="58.9930499990763" lon="7.476005557788309" id="-39295">
		<tag k="fixme" v="consider natural=peak for the most distinct mountains in the district" />
		<tag k="name" v="Krakefjell" />
		<tag k="natural" v="hill" />
		<tag k="place" v="locality" />
		<tag k="ssr:stedsnr" v="850306" />
	</node>
	<node lat="58.974875002258194" lon="7.3463083350686444" id="-39297">
		<tag k="fixme" v="consider natural=peak for the most distinct mountains in the district" />
		<tag k="name" v="Røynlifjellet" />
		<tag k="natural" v="hill" />
		<tag k="place" v="locality" />
		<tag k="ssr:stedsnr" v="850293" />
	</node>
	<node lat="58.94496944509241" lon="8.003513889311442" id="-39304">
		<tag k="fixme" v="consider natural=peak for the most distinct mountains in the district" />
		<tag k="name" v="Furebuheii" />
		<tag k="natural" v="hill" />
		<tag k="place" v="locality" />
		<tag k="ssr:stedsnr" v="850636" />
	</node>
	<node lat="58.76815000330974" lon="7.886752777989213" id="-39308">
		<tag k="alt_name" v="Skårvine" />
		<tag k="fixme" v="consider natural=peak for the most distinct mountains in the district" />
		<tag k="name" v="Skorvin" />
		<tag k="natural" v="hill" />
		<tag k="place" v="locality" />
		<tag k="ssr:stedsnr" v="850813" />
	</node>
	<node lat="58.96440833531025" lon="7.8592861045150935" id="-39323">
		<tag k="alt_name" v="Rossetjørnfjellet" />
		<tag k="fixme" v="consider natural=peak for the most distinct mountains in the district" />
		<tag k="name" v="Rossetjørnfjelli" />
		<tag k="natural" v="hill" />
		<tag k="place" v="locality" />
		<tag k="ssr:stedsnr" v="851624" />
	</node>
	<node lat="58.792250003189544" lon="7.730438885139169" id="-39327">
		<tag k="fixme" v="consider natural=peak for the most distinct mountains in the district" />
		<tag k="name" v="Skjevraknuten" />
		<tag k="natural" v="hill" />
		<tag k="place" v="locality" />
		<tag k="ssr:stedsnr" v="851791" />
	</node>
	<node lat="59.05457500046624" lon="7.574550001354348" id="-39328">
		<tag k="alt_name" v="Setesdalen" />
		<tag k="name" v="Setesdal" />
		<tag k="natural" v="valley" />
		<tag k="place" v="locality" />
		<tag k="ssr:stedsnr" v="851969" />
	</node>
	<node lat="58.7251444429504" lon="7.875913884251904" id="-39329">
		<tag k="name" v="Hagstøyldalen" />
		<tag k="natural" v="valley" />
		<tag k="place" v="locality" />
		<tag k="ssr:stedsnr" v="872004" />
	</node>
	<node lat="58.92413611475049" lon="7.745597222635796" id="-39330">
		<tag k="name" v="Knollen" />
		<tag k="natural" v="hill" />
		<tag k="place" v="locality" />
		<tag k="ssr:stedsnr" v="933296" />
	</node>
	<node lat="58.868375001646776" lon="7.695847228718583" id="-39332">
		<tag k="name" v="Linderapen" />
		<tag k="natural" v="cliff" />
		<tag k="ssr:stedsnr" v="933310" />
	</node>
	<node lat="58.91865555927362" lon="7.7617055555180166" id="-39333">
		<tag k="name" v="Sunedalen" />
		<tag k="natural" v="valley" />
		<tag k="place" v="locality" />
		<tag k="ssr:stedsnr" v="933313" />
	</node>
	<node lat="58.86257966617367" lon="7.704573789363909" id="-39334">
		<tag k="name" v="Kollbroti" />
		<tag k="natural" v="slope" />
		<tag k="place" v="locality" />
		<tag k="ssr:stedsnr" v="933317" />
	</node>
	<node lat="58.91263055314793" lon="7.734219439169603" id="-39337">
		<tag k="name" v="Haugemoen" />
		<tag k="place" v="locality" />
		<tag k="ssr:stedsnr" v="933326" />
	</node>
	<node lat="58.72330833635864" lon="7.761186105934622" id="-39338">
		<tag k="name" v="Nordliane" />
		<tag k="natural" v="slope" />
		<tag k="place" v="locality" />
		<tag k="ssr:stedsnr" v="933327" />
	</node>
	<node lat="59.08095000048438" lon="7.827838896270498" id="-39340">
		<tag k="alt_name" v="Gomsehomfjell" />
		<tag k="name" v="Gumshomfjell" />
		<tag k="natural" v="hill" />
		<tag k="place" v="locality" />
		<tag k="ssr:stedsnr" v="877052" />
	</node>
	<node lat="58.938044443189796" lon="7.649547224505331" id="-39343">
		<tag k="name" v="Histrinuten" />
		<tag k="natural" v="hill" />
		<tag k="place" v="locality" />
		<tag k="ssr:stedsnr" v="933014" />
	</node>
	<node lat="59.00528889108116" lon="7.539224999601626" id="-39345">
		<tag k="name" v="Elvemoen" />
		<tag k="place" v="locality" />
		<tag k="ssr:stedsnr" v="933020" />
	</node>
	<node lat="58.86280555611064" lon="7.799961105937899" id="-39348">
		<tag k="name" v="Vindsåslidi" />
		<tag k="natural" v="slope" />
		<tag k="place" v="locality" />
		<tag k="ssr:stedsnr" v="933029" />
	</node>
	<node lat="58.87161111471626" lon="7.8010000052937025" id="-39349">
		<tag k="name" v="Bjørndalen" />
		<tag k="natural" v="valley" />
		<tag k="place" v="locality" />
		<tag k="ssr:stedsnr" v="933031" />
	</node>
	<node lat="58.96870555325782" lon="7.8762416651199" id="-39353">
		<tag k="name" v="Varden" />
		<tag k="natural" v="hill" />
		<tag k="place" v="locality" />
		<tag k="ssr:stedsnr" v="933839" />
	</node>
	<node lat="58.835947224646354" lon="7.65431388950996" id="-39359">
		<tag k="name" v="Litjønnskaret" />
		<tag k="natural" v="valley" />
		<tag k="place" v="locality" />
		<tag k="ssr:stedsnr" v="933269" />
	</node>
	<node lat="58.89276111244176" lon="7.752336111841047" id="-39360">
		<tag k="name" v="Nevredalen" />
		<tag k="natural" v="valley" />
		<tag k="place" v="locality" />
		<tag k="ssr:stedsnr" v="933272" />
	</node>
	<node lat="58.88051388786691" lon="7.7491611069384225" id="-39362">
		<tag k="name" v="Skori" />
		<tag k="natural" v="valley" />
		<tag k="place" v="locality" />
		<tag k="ssr:stedsnr" v="933275" />
	</node>
	<node lat="58.81531111222896" lon="7.756988892534208" id="-39364">
		<tag k="name" v="Munketo" />
		<tag k="natural" v="slope" />
		<tag k="place" v="locality" />
		<tag k="ssr:stedsnr" v="933349" />
	</node>
	<node lat="58.79058332986732" lon="7.767136111500393" id="-39366">
		<tag k="name" v="Breidalen" />
		<tag k="natural" v="valley" />
		<tag k="place" v="locality" />
		<tag k="ssr:stedsnr" v="933377" />
	</node>
	<node lat="58.78638333603632" lon="7.768752775539016" id="-39367">
		<tag k="name" v="Grasdal" />
		<tag k="natural" v="valley" />
		<tag k="place" v="locality" />
		<tag k="ssr:stedsnr" v="933383" />
	</node>
	<node lat="58.852588893278295" lon="7.747200005368746" id="-39369">
		<tag k="name" v="Feleberget" />
		<tag k="natural" v="hill" />
		<tag k="place" v="locality" />
		<tag k="ssr:stedsnr" v="933393" />
	</node>
	<node lat="58.650855554157964" lon="7.819333329355524" id="-39370">
		<tag k="name" v="Jørundlii" />
		<tag k="natural" v="slope" />
		<tag k="place" v="locality" />
		<tag k="ssr:stedsnr" v="933408" />
	</node>
	<node lat="58.948052778235194" lon="7.689283325375628" id="-39371">
		<tag k="name" v="Håbakk" />
		<tag k="natural" v="hill" />
		<tag k="place" v="locality" />
		<tag k="ssr:stedsnr" v="933411" />
	</node>
	<node lat="58.935463887657036" lon="7.726286102630939" id="-39373">
		<tag k="name" v="Heddeviksfjell" />
		<tag k="natural" v="ridge" />
		<tag k="place" v="locality" />
		<tag k="ssr:stedsnr" v="933422" />
	</node>
	<node lat="58.93584722555577" lon="7.7540916749408915" id="-39374">
		<tag k="name" v="Orrtupp" />
		<tag k="place" v="locality" />
		<tag k="ssr:stedsnr" v="933423" />
	</node>
	<node lat="58.692058333943336" lon="7.820055549428193" id="-39375">
		<tag k="name" v="Randekleivskotet" />
		<tag k="natural" v="slope" />
		<tag k="place" v="locality" />
		<tag k="ssr:stedsnr" v="933425" />
	</node>
	<node lat="58.69367500043864" lon="7.757830550713592" id="-39376">
		<tag k="name" v="Svinedalen" />
		<tag k="natural" v="valley" />
		<tag k="place" v="locality" />
		<tag k="ssr:stedsnr" v="933430" />
	</node>
	<node lat="58.98079721985335" lon="7.6565194482643175" id="-39378">
		<tag k="name" v="Nord i Moen" />
		<tag k="place" v="locality" />
		<tag k="ssr:stedsnr" v="933472" />
	</node>
	<node lat="58.96939167044984" lon="7.713505557393196" id="-39380">
		<tag k="name" v="Sloedalen" />
		<tag k="natural" v="valley" />
		<tag k="place" v="locality" />
		<tag k="ssr:stedsnr" v="933483" />
	</node>
	<node lat="58.869072225477765" lon="7.9123999921062556" id="-39381">
		<tag k="name" v="Neverdalsnuten" />
		<tag k="natural" v="hill" />
		<tag k="place" v="locality" />
		<tag k="ssr:stedsnr" v="933484" />
	</node>
	<node lat="58.93135833632681" lon="7.852461115879883" id="-39383">
		<tag k="name" v="Elsglova" />
		<tag k="natural" v="valley" />
		<tag k="place" v="locality" />
		<tag k="ssr:stedsnr" v="933830" />
	</node>
	<node lat="58.932919443487094" lon="7.796230561458314" id="-39386">
		<tag k="name" v="Furebakkan" />
		<tag k="natural" v="slope" />
		<tag k="place" v="locality" />
		<tag k="ssr:stedsnr" v="933869" />
	</node>
	<node lat="58.98026111488663" lon="7.816636110638185" id="-39388">
		<tag k="fixme" v="consider natural=peak for the most distinct mountains in the district" />
		<tag k="name" v="Liestøylfjellet" />
		<tag k="natural" v="hill" />
		<tag k="place" v="locality" />
		<tag k="ssr:stedsnr" v="933878" />
	</node>
	<node lat="58.90566944273" lon="7.7895999954039326" id="-39389">
		<tag k="name" v="Gyrosdal" />
		<tag k="natural" v="valley" />
		<tag k="place" v="locality" />
		<tag k="ssr:stedsnr" v="933881" />
	</node>
	<node lat="58.91010833177456" lon="7.79527222892148" id="-39390">
		<tag k="name" v="Skarebakken" />
		<tag k="natural" v="slope" />
		<tag k="place" v="locality" />
		<tag k="ssr:stedsnr" v="933882" />
	</node>
	<node lat="58.694100002067145" lon="7.887058331299739" id="-39391">
		<tag k="name" v="Blåskinsdalen" />
		<tag k="natural" v="valley" />
		<tag k="place" v="locality" />
		<tag k="ssr:stedsnr" v="934038" />
	</node>
	<node lat="58.84115277366969" lon="7.777947227097295" id="-39392">
		<tag k="name" v="Espe" />
		<tag k="natural" v="slope" />
		<tag k="place" v="locality" />
		<tag k="ssr:stedsnr" v="934102" />
	</node>
	<node lat="58.792963889857454" lon="7.830988893510959" id="-39394">
		<tag k="name" v="Hagelia" />
		<tag k="natural" v="slope" />
		<tag k="place" v="locality" />
		<tag k="ssr:stedsnr" v="934065" />
	</node>
	<node lat="58.79220555514912" lon="7.8265694366416465" id="-39395">
		<tag k="fixme" v="consider natural=peak for the most distinct mountains in the district" />
		<tag k="name" v="Eikebakk" />
		<tag k="natural" v="hill" />
		<tag k="place" v="locality" />
		<tag k="ssr:stedsnr" v="934067" />
	</node>
	<node lat="58.783861106919645" lon="7.788058333872415" id="-39397">
		<tag k="name" v="Katteflot" />
		<tag k="natural" v="ridge" />
		<tag k="place" v="locality" />
		<tag k="ssr:stedsnr" v="934077" />
	</node>
	<node lat="58.97545555576257" lon="7.732486110423599" id="-39399">
		<tag k="name" v="Trokkleiv" />
		<tag k="natural" v="slope" />
		<tag k="place" v="locality" />
		<tag k="ssr:stedsnr" v="934344" />
	</node>
	<node lat="58.97873055755971" lon="7.756413890851533" id="-39400">
		<tag k="name" v="Veneli" />
		<tag k="natural" v="slope" />
		<tag k="place" v="locality" />
		<tag k="ssr:stedsnr" v="934346" />
	</node>
	<node lat="59.069411115001316" lon="7.802699997294295" id="-39402">
		<tag k="name" v="Monkehommen" />
		<tag k="natural" v="slope" />
		<tag k="place" v="locality" />
		<tag k="ssr:stedsnr" v="883766" />
	</node>
	<node lat="59.02221111483826" lon="7.864986113157969" id="-39403">
		<tag k="fixme" v="consider natural=peak for the most distinct mountains in the district" />
		<tag k="name" v="Vånarosfjell" />
		<tag k="natural" v="hill" />
		<tag k="place" v="locality" />
		<tag k="ssr:stedsnr" v="883797" />
	</node>
	<node lat="59.0218249969518" lon="7.850658325170116" id="-39404">
		<tag k="fixme" v="consider natural=peak for the most distinct mountains in the district" />
		<tag k="name" v="Noåsen" />
		<tag k="natural" v="hill" />
		<tag k="place" v="locality" />
		<tag k="ssr:stedsnr" v="883799" />
	</node>
	<node lat="58.68807222247434" lon="7.929752772517279" id="-39414">
		<tag k="name" v="Finnkleiv" />
		<tag k="natural" v="slope" />
		<tag k="place" v="locality" />
		<tag k="ssr:stedsnr" v="883959" />
	</node>
	<node lat="58.95390000129376" lon="7.858849999978942" id="-39435">
		<tag k="fixme" v="consider natural=peak for the most distinct mountains in the district" />
		<tag k="name" v="Grunnevassfjell" />
		<tag k="natural" v="hill" />
		<tag k="place" v="locality" />
		<tag k="ssr:stedsnr" v="911653" />
	</node>
	<node lat="58.77582499850748" lon="7.7452388903681735" id="-39438">
		<tag k="fixme" v="consider natural=peak for the most distinct mountains in the district" />
		<tag k="name" v="Mjalteråsen" />
		<tag k="natural" v="hill" />
		<tag k="place" v="locality" />
		<tag k="ssr:stedsnr" v="911833" />
	</node>
	<node lat="58.7528916708784" lon="7.928600006209061" id="-39439">
		<tag k="fixme" v="consider natural=peak for the most distinct mountains in the district" />
		<tag k="name" v="Påfjellet" />
		<tag k="natural" v="hill" />
		<tag k="place" v="locality" />
		<tag k="ssr:stedsnr" v="911857" />
	</node>
	<node lat="59.043100003013876" lon="7.6061111099688725" id="-39444">
		<tag k="alt_name" v="Refsdalsheii;Refdalsheii" />
		<tag k="fixme" v="consider natural=peak for the most distinct mountains in the district" />
		<tag k="name" v="Revsdalsheii" />
		<tag k="natural" v="hill" />
		<tag k="place" v="locality" />
		<tag k="ssr:stedsnr" v="912704" />
	</node>
	<node lat="58.84924999920063" lon="7.780686105668127" id="-39448">
		<tag k="name" v="Grimshellerfjellet" />
		<tag k="natural" v="slope" />
		<tag k="place" v="locality" />
		<tag k="ssr:stedsnr" v="933118" />
	</node>
	<node lat="59.021308336298965" lon="7.541775003781903" id="-39449">
		<tag k="name" v="Rosti" />
		<tag k="natural" v="slope" />
		<tag k="place" v="locality" />
		<tag k="ssr:stedsnr" v="933120" />
	</node>
	<node lat="58.801297225208394" lon="7.84433333813939" id="-39451">
		<tag k="fixme" v="consider natural=peak for the most distinct mountains in the district" />
		<tag k="name" v="Nordkleivåsen" />
		<tag k="natural" v="hill" />
		<tag k="place" v="locality" />
		<tag k="ssr:stedsnr" v="933136" />
	</node>
	<node lat="58.70719999581095" lon="7.842797221622872" id="-39454">
		<tag k="name" v="Bakkane" />
		<tag k="natural" v="slope" />
		<tag k="place" v="locality" />
		<tag k="ssr:stedsnr" v="933048" />
	</node>
	<node lat="58.705161111889765" lon="7.883402777859906" id="-39455">
		<tag k="name" v="Tauseknodden" />
		<tag k="natural" v="hill" />
		<tag k="place" v="locality" />
		<tag k="ssr:stedsnr" v="933051" />
	</node>
	<node lat="58.936383332390875" lon="7.691716659473806" id="-39456">
		<tag k="name" v="Småliane" />
		<tag k="natural" v="slope" />
		<tag k="place" v="locality" />
		<tag k="ssr:stedsnr" v="933053" />
	</node>
	<node lat="58.701833330382165" lon="7.860119444314094" id="-39457">
		<tag k="name" v="Pusledalen" />
		<tag k="natural" v="valley" />
		<tag k="place" v="locality" />
		<tag k="ssr:stedsnr" v="933054" />
	</node>
	<node lat="58.92253889186656" lon="7.6432500035084425" id="-39460">
		<tag k="name" v="Kvislenuten" />
		<tag k="natural" v="hill" />
		<tag k="place" v="locality" />
		<tag k="ssr:stedsnr" v="933058" />
	</node>
	<node lat="58.80022499822398" lon="7.7921722241755775" id="-39463">
		<tag k="name" v="Trapoddbakken" />
		<tag k="natural" v="slope" />
		<tag k="place" v="locality" />
		<tag k="ssr:stedsnr" v="933093" />
	</node>
	<node lat="59.000775004491956" lon="7.755208330695846" id="-39468">
		<tag k="name" v="Vøyleskaret" />
		<tag k="natural" v="valley" />
		<tag k="place" v="locality" />
		<tag k="ssr:stedsnr" v="933337" />
	</node>
	<node lat="58.951686109754185" lon="7.655216663480525" id="-39469">
		<tag k="fixme" v="consider natural=peak for the most distinct mountains in the district" />
		<tag k="name" v="Snjoskarnuten" />
		<tag k="natural" v="hill" />
		<tag k="place" v="locality" />
		<tag k="ssr:stedsnr" v="933514" />
	</node>
	<node lat="58.68775555388728" lon="7.812997227332684" id="-39473">
		<tag k="name" v="Tjovehedderen" />
		<tag k="place" v="locality" />
		<tag k="ssr:stedsnr" v="933527" />
	</node>
	<node lat="58.95577499569198" lon="7.692036116784279" id="-39474">
		<tag k="name" v="Breilandslii" />
		<tag k="natural" v="slope" />
		<tag k="place" v="locality" />
		<tag k="ssr:stedsnr" v="933528" />
	</node>
	<node lat="58.688230552395254" lon="7.806980548513522" id="-39476">
		<tag k="name" v="Rinden" />
		<tag k="natural" v="ridge" />
		<tag k="place" v="locality" />
		<tag k="ssr:stedsnr" v="933531" />
	</node>
	<node lat="58.9570999977362" lon="7.675602776412704" id="-39477">
		<tag k="name" v="Træmonen" />
		<tag k="place" v="locality" />
		<tag k="ssr:stedsnr" v="933532" />
	</node>
	<node lat="58.688158332232554" lon="7.809738895822648" id="-39478">
		<tag k="name" v="Eikefjellet" />
		<tag k="natural" v="hill" />
		<tag k="place" v="locality" />
		<tag k="ssr:stedsnr" v="933533" />
	</node>
	<node lat="58.69200277444195" lon="7.750786118976256" id="-39481">
		<tag k="name" v="Jenteli" />
		<tag k="natural" v="slope" />
		<tag k="place" v="locality" />
		<tag k="ssr:stedsnr" v="933439" />
	</node>
	<node lat="58.76873611366073" lon="7.772644437615365" id="-39483">
		<tag k="name" v="Mosedalen" />
		<tag k="natural" v="valley" />
		<tag k="place" v="locality" />
		<tag k="ssr:stedsnr" v="933444" />
	</node>
	<node lat="58.77376666361785" lon="7.72251667101388" id="-39484">
		<tag k="name" v="Skorvin" />
		<tag k="natural" v="slope" />
		<tag k="place" v="locality" />
		<tag k="ssr:stedsnr" v="933452" />
	</node>
	<node lat="58.75616944258851" lon="7.820880557553095" id="-39486">
		<tag k="name" v="Håbakk" />
		<tag k="natural" v="ridge" />
		<tag k="place" v="locality" />
		<tag k="ssr:stedsnr" v="933458" />
	</node>
	<node lat="58.75832499849663" lon="7.786322218185587" id="-39487">
		<tag k="name" v="Ryningslidi" />
		<tag k="natural" v="slope" />
		<tag k="place" v="locality" />
		<tag k="ssr:stedsnr" v="933459" />
	</node>
	<node lat="58.773824998358954" lon="7.7978861197051685" id="-39488">
		<tag k="name" v="Øyefjell" />
		<tag k="natural" v="ridge" />
		<tag k="place" v="locality" />
		<tag k="ssr:stedsnr" v="933460" />
	</node>
	<node lat="58.772388891736455" lon="7.794499996374684" id="-39489">
		<tag k="name" v="Bjørndalen" />
		<tag k="natural" v="valley" />
		<tag k="place" v="locality" />
		<tag k="ssr:stedsnr" v="933462" />
	</node>
	<node lat="58.87629166573865" lon="7.833380548580022" id="-39492">
		<tag k="fixme" v="consider natural=peak for the most distinct mountains in the district" />
		<tag k="name" v="Haukåsnuten" />
		<tag k="natural" v="hill" />
		<tag k="place" v="locality" />
		<tag k="ssr:stedsnr" v="933494" />
	</node>
	<node lat="58.96228611238975" lon="7.706961114262347" id="-39494">
		<tag k="name" v="Juvebakken" />
		<tag k="natural" v="slope" />
		<tag k="place" v="locality" />
		<tag k="ssr:stedsnr" v="933500" />
	</node>
	<node lat="58.941113890797695" lon="7.970280548272811" id="-39495">
		<tag k="name" v="Åsbjørsli" />
		<tag k="natural" v="slope" />
		<tag k="place" v="locality" />
		<tag k="ssr:stedsnr" v="933801" />
	</node>
	<node lat="58.73695833364286" lon="7.919861105997569" id="-39498">
		<tag k="name" v="Fossebrotet" />
		<tag k="natural" v="slope" />
		<tag k="place" v="locality" />
		<tag k="ssr:stedsnr" v="934137" />
	</node>
	<node lat="59.04021110723187" lon="7.86127500629104" id="-39501">
		<tag k="name" v="Storenut" />
		<tag k="natural" v="hill" />
		<tag k="place" v="locality" />
		<tag k="ssr:stedsnr" v="937514" />
	</node>
	<node lat="58.9621527756124" lon="7.6037694503186515" id="-39502">
		<tag k="fixme" v="consider natural=peak for the most distinct mountains in the district" />
		<tag k="name" v="Homsfjell" />
		<tag k="natural" v="hill" />
		<tag k="place" v="locality" />
		<tag k="ssr:stedsnr" v="938241" />
	</node>
	<node lat="58.98500277485467" lon="7.837961113633933" id="-39506">
		<tag k="fixme" v="consider natural=peak for the most distinct mountains in the district" />
		<tag k="name" v="Hudenatten" />
		<tag k="natural" v="hill" />
		<tag k="place" v="locality" />
		<tag k="ssr:stedsnr" v="944798" />
	</node>
	<node lat="58.761077773771035" lon="7.889708325423184" id="-39509">
		<tag k="name" v="Bytingsdalen" />
		<tag k="natural" v="valley" />
		<tag k="place" v="locality" />
		<tag k="ssr:stedsnr" v="944923" />
	</node>
	<node lat="58.66491111232875" lon="7.9107333253194945" id="-39510">
		<tag k="name" v="Solli" />
		<tag k="natural" v="slope" />
		<tag k="place" v="locality" />
		<tag k="ssr:stedsnr" v="944925" />
	</node>
	<node lat="59.00536666706868" lon="7.442875003309921" id="-39511">
		<tag k="name" v="Grjobudalen" />
		<tag k="natural" v="valley" />
		<tag k="place" v="locality" />
		<tag k="ssr:stedsnr" v="944805" />
	</node>
	<node lat="58.97972777815986" lon="7.924674999677094" id="-39513">
		<tag k="name" v="Vardeholet" />
		<tag k="natural" v="valley" />
		<tag k="place" v="locality" />
		<tag k="ssr:stedsnr" v="944810" />
	</node>
	<node lat="59.01356110700373" lon="7.460305563230567" id="-39514">
		<tag k="name" v="Vendeknausen" />
		<tag k="natural" v="hill" />
		<tag k="place" v="locality" />
		<tag k="ssr:stedsnr" v="944811" />
	</node>
	<node lat="58.780655557773024" lon="7.651347220818846" id="-39517">
		<tag k="name" v="Heddeli" />
		<tag k="natural" v="slope" />
		<tag k="place" v="locality" />
		<tag k="ssr:stedsnr" v="944838" />
	</node>
	<node lat="58.91556944360927" lon="7.943669441485428" id="-39519">
		<tag k="fixme" v="consider natural=peak for the most distinct mountains in the district" />
		<tag k="name" v="Kolbunuten" />
		<tag k="natural" v="hill" />
		<tag k="place" v="locality" />
		<tag k="ssr:stedsnr" v="944882" />
	</node>
	<node lat="58.87370555843673" lon="7.978402784048274" id="-39521">
		<tag k="name" v="Skjevlevatsliane" />
		<tag k="natural" v="slope" />
		<tag k="place" v="locality" />
		<tag k="ssr:stedsnr" v="944885" />
	</node>
	<node lat="58.89479166896994" lon="7.992169450613746" id="-39523">
		<tag k="name" v="Skakkeberg" />
		<tag k="place" v="locality" />
		<tag k="ssr:stedsnr" v="944891" />
	</node>
	<node lat="58.68245277467734" lon="7.847774992445545" id="-39524">
		<tag k="fixme" v="consider natural=peak for the most distinct mountains in the district" />
		<tag k="name" v="Taklinodden" />
		<tag k="natural" v="hill" />
		<tag k="place" v="locality" />
		<tag k="ssr:stedsnr" v="944894" />
	</node>
	<node lat="58.753819443877724" lon="7.670169447821616" id="-39559">
		<tag k="fixme" v="consider natural=peak for the most distinct mountains in the district" />
		<tag k="name" v="Skeisknuten" />
		<tag k="natural" v="hill" />
		<tag k="place" v="locality" />
		<tag k="ssr:stedsnr" v="571" />
	</node>
	<node lat="58.7605472188432" lon="7.704899995358449" id="-39560">
		<tag k="fixme" v="consider natural=peak for the most distinct mountains in the district" />
		<tag k="name" v="Spranget" />
		<tag k="natural" v="hill" />
		<tag k="place" v="locality" />
		<tag k="ssr:stedsnr" v="579" />
	</node>
	<node lat="58.76422500109545" lon="7.7673916632788575" id="-39565">
		<tag k="fixme" v="consider natural=peak for the most distinct mountains in the district" />
		<tag k="name" v="Åneknuten" />
		<tag k="natural" v="hill" />
		<tag k="place" v="locality" />
		<tag k="ssr:stedsnr" v="819" />
	</node>
	<node lat="58.97303888618038" lon="7.742500005135597" id="-39568">
		<tag k="fixme" v="consider natural=peak for the most distinct mountains in the district" />
		<tag k="name" v="Hillesgrøheii" />
		<tag k="natural" v="hill" />
		<tag k="place" v="locality" />
		<tag k="ssr:stedsnr" v="1628" />
	</node>
	<node lat="58.865502778905594" lon="7.8643638818112604" id="-39569">
		<tag k="fixme" v="consider natural=peak for the most distinct mountains in the district" />
		<tag k="name" v="Løtveitsheii" />
		<tag k="natural" v="hill" />
		<tag k="place" v="locality" />
		<tag k="ssr:stedsnr" v="1726" />
	</node>
	<node lat="58.827808337676856" lon="7.750599991861095" id="-39571">
		<tag k="fixme" v="consider natural=peak for the most distinct mountains in the district" />
		<tag k="name" v="Kviteflogi" />
		<tag k="natural" v="hill" />
		<tag k="place" v="locality" />
		<tag k="ssr:stedsnr" v="773" />
	</node>
	<node lat="58.84708055581872" lon="7.9522583260731095" id="-39574">
		<tag k="name" v="Øyerdalen" />
		<tag k="natural" v="valley" />
		<tag k="place" v="locality" />
		<tag k="ssr:stedsnr" v="779" />
	</node>
	<node lat="58.75686944325694" lon="7.7941000013241" id="-39576">
		<tag k="fixme" v="consider natural=peak for the most distinct mountains in the district" />
		<tag k="name" v="Skogen" />
		<tag k="natural" v="hill" />
		<tag k="place" v="locality" />
		<tag k="ssr:stedsnr" v="875" />
	</node>
	<node lat="58.82496944240316" lon="7.074727773708752" id="-39583">
		<tag k="name" v="Rukkådalen" />
		<tag k="natural" v="valley" />
		<tag k="place" v="locality" />
		<tag k="ssr:stedsnr" v="1364" />
	</node>
	<node lat="58.865333334523704" lon="7.480644451123799" id="-39584">
		<tag k="name" v="Beinsdalen" />
		<tag k="natural" v="valley" />
		<tag k="place" v="locality" />
		<tag k="ssr:stedsnr" v="1432" />
	</node>
	<node lat="58.87614166726975" lon="7.360358336468681" id="-39585">
		<tag k="fixme" v="consider natural=peak for the most distinct mountains in the district" />
		<tag k="name" v="Honnarfjellet" />
		<tag k="natural" v="hill" />
		<tag k="place" v="locality" />
		<tag k="ssr:stedsnr" v="1435" />
	</node>
	<node lat="58.87025833745561" lon="7.616105558934619" id="-39587">
		<tag k="fixme" v="consider natural=peak for the most distinct mountains in the district" />
		<tag k="name" v="Veststeheii" />
		<tag k="natural" v="hill" />
		<tag k="place" v="locality" />
		<tag k="ssr:stedsnr" v="1442" />
	</node>
	<node lat="58.88170000352182" lon="7.601613880973302" id="-39588">
		<tag k="fixme" v="consider natural=peak for the most distinct mountains in the district" />
		<tag k="name" v="Falkefjell" />
		<tag k="natural" v="hill" />
		<tag k="place" v="locality" />
		<tag k="ssr:stedsnr" v="1445" />
	</node>
	<node lat="58.806930556901975" lon="7.646880554928422" id="-39591">
		<tag k="name" v="Bringen" />
		<tag k="place" v="locality" />
		<tag k="ssr:stedsnr" v="1552" />
	</node>
	<node lat="58.954522221084595" lon="7.7612194506086" id="-39592">
		<tag k="alt_name" v="Jaddeheii" />
		<tag k="fixme" v="consider natural=peak for the most distinct mountains in the district" />
		<tag k="name" v="Jaddehei" />
		<tag k="natural" v="hill" />
		<tag k="place" v="locality" />
		<tag k="ssr:stedsnr" v="1642" />
	</node>
	<node lat="58.953633331442965" lon="7.731175001624395" id="-39593">
		<tag k="alt_name" v="Seledalsfjell" />
		<tag k="fixme" v="consider natural=peak for the most distinct mountains in the district" />
		<tag k="name" v="Skildalsfjell" />
		<tag k="natural" v="hill" />
		<tag k="place" v="locality" />
		<tag k="ssr:stedsnr" v="1650" />
	</node>
	<node lat="58.73653888530029" lon="7.773477774531141" id="-39596">
		<tag k="name" v="Torkleivi" />
		<tag k="natural" v="slope" />
		<tag k="place" v="locality" />
		<tag k="ssr:stedsnr" v="1910" />
	</node>
	<node lat="58.94272221838439" lon="7.789150006973541" id="-39599">
		<tag k="name" v="Ekrelidi" />
		<tag k="natural" v="slope" />
		<tag k="place" v="locality" />
		<tag k="ssr:stedsnr" v="23191" />
	</node>
	<node lat="58.98772500298314" lon="7.600916669710895" id="-39601">
		<tag k="name" v="Håbakk" />
		<tag k="natural" v="slope" />
		<tag k="place" v="locality" />
		<tag k="ssr:stedsnr" v="23199" />
	</node>
	<node lat="58.743197219435785" lon="7.947991658367413" id="-39602">
		<tag k="name" v="Lønhomm" />
		<tag k="natural" v="slope" />
		<tag k="place" v="locality" />
		<tag k="ssr:stedsnr" v="23208" />
	</node>
	<node lat="58.72206944522683" lon="7.969847228397777" id="-39604">
		<tag k="name" v="Tjørekjettholon" />
		<tag k="natural" v="valley" />
		<tag k="place" v="locality" />
		<tag k="ssr:stedsnr" v="23215" />
	</node>
	<node lat="58.77044444148325" lon="7.874036115427388" id="-39606">
		<tag k="name" v="Fånedalen" />
		<tag k="natural" v="valley" />
		<tag k="place" v="locality" />
		<tag k="ssr:stedsnr" v="23225" />
	</node>
</osm>
