<?xml version="1.0" encoding="UTF-8"?>
<osm version="0.6" generator="osmapis">
	<node lat="58.99467778190281" lon="7.5382833340834985" id="-37692">
		<tag k="name" v="Yverro" />
		<tag k="place" v="locality" />
		<tag k="ssr:stedsnr" v="23039" />
	</node>
	<node lat="58.8597777790954" lon="7.9281000026239745" id="-37718">
		<tag k="highway" v="path" />
		<tag k="name" v="Grantjørnkleivi" />
		<tag k="ssr:stedsnr" v="23489" />
	</node>
	<node lat="58.674291665222206" lon="7.840980553990898" id="-37740">
		<tag k="man_made" v="cairn" />
		<tag k="name" v="Årdalsknapen" />
		<tag k="place" v="locality" />
		<tag k="ssr:stedsnr" v="50787" />
	</node>
	<node lat="58.827938892950336" lon="7.794280562655122" id="-37823">
		<tag k="man_made" v="quay" />
		<tag k="name" v="Brygga" />
		<tag k="place" v="locality" />
		<tag k="ssr:stedsnr" v="84032" />
	</node>
	<node lat="58.87178611094608" lon="7.824763882265928" id="-37825">
		<tag k="fixme" v="consider highway=path" />
		<tag k="highway" v="track" />
		<tag k="name" v="Haukåsvegen" />
		<tag k="ssr:stedsnr" v="84040" />
	</node>
	<node lat="58.66496111005621" lon="7.804394446245065" id="-37847">
		<tag k="alt_name" v="Senumsund" />
		<tag k="bridge" v="yes" />
		<tag k="layer" v="1" />
		<tag k="name" v="Senumstad bru" />
		<tag k="ssr:stedsnr" v="84510" />
	</node>
	<node lat="58.9555805520839" lon="7.700361119200163" id="-37848">
		<tag k="highway" v="path" />
		<tag k="name" v="Moldvegen" />
		<tag k="ssr:stedsnr" v="84511" />
	</node>
	<node lat="58.805525003505906" lon="7.7675416701220135" id="-37889">
		<tag k="bridge" v="yes" />
		<tag k="layer" v="1" />
		<tag k="name" v="Stallemoåni" />
		<tag k="ssr:stedsnr" v="107190" />
	</node>
	<node lat="58.795791663684135" lon="7.7697111049498195" id="-37945">
		<tag k="man_made" v="quay" />
		<tag k="name" v="Bryggja" />
		<tag k="place" v="locality" />
		<tag k="ssr:stedsnr" v="144365" />
	</node>
	<node lat="58.95711389298541" lon="7.66653611424406" id="-37978">
		<tag k="bridge" v="yes" />
		<tag k="layer" v="1" />
		<tag k="name" v="Moisbekk" />
		<tag k="ssr:stedsnr" v="168181" />
	</node>
	<node lat="58.8543333363283" lon="7.863830554324363" id="-38040">
		<tag k="bridge" v="yes" />
		<tag k="layer" v="1" />
		<tag k="name" v="Skulefossbru" />
		<tag k="ssr:stedsnr" v="266425" />
	</node>
	<node lat="58.70275000168336" lon="7.7690583304672405" id="-38042">
		<tag k="highway" v="path" />
		<tag k="name" v="Eikjårstigen" />
		<tag k="ssr:stedsnr" v="266354" />
	</node>
	<node lat="58.94726111044786" lon="7.687202778299174" id="-38044">
		<tag k="alt_name" v="Ose" />
		<tag k="bridge" v="yes" />
		<tag k="layer" v="1" />
		<tag k="name" v="Ose bru" />
		<tag k="ssr:stedsnr" v="266362" />
	</node>
	<node lat="58.88146111047129" lon="7.73356943843989" id="-38075">
		<tag k="ford" v="yes" />
		<tag k="name" v="Vadet" />
		<tag k="place" v="locality" />
		<tag k="ssr:stedsnr" v="205312" />
	</node>
	<node lat="58.979972219398896" lon="7.658005559275578" id="-38103">
		<tag k="highway" v="path" />
		<tag k="name" v="Skrivarvegen" />
		<tag k="ssr:stedsnr" v="205477" />
	</node>
	<node lat="58.70660000108541" lon="7.830883332044316" id="-38131">
		<tag k="bridge" v="yes" />
		<tag k="layer" v="1" />
		<tag k="name" v="Lande" />
		<tag k="ssr:stedsnr" v="229193" />
	</node>
	<node lat="58.96918610713697" lon="7.586908336503832" id="-38163">
		<tag k="bridge" v="yes" />
		<tag k="layer" v="1" />
		<tag k="name" v="Rovebrune" />
		<tag k="ssr:stedsnr" v="266084" />
	</node>
	<node lat="58.690552779479965" lon="7.7754833286698215" id="-38242">
		<tag k="bridge" v="yes" />
		<tag k="layer" v="1" />
		<tag k="name" v="Boåna" />
		<tag k="ssr:stedsnr" v="289185" />
	</node>
	<node lat="58.7496055518341" lon="7.8439638919880235" id="-38277">
		<tag k="man_made" v="quay" />
		<tag k="name" v="Brygga" />
		<tag k="place" v="locality" />
		<tag k="ssr:stedsnr" v="326233" />
	</node>
	<node lat="58.98046110828194" lon="7.535430550990692" id="-38279">
		<tag k="highway" v="path" />
		<tag k="name" v="Simdalskleiva" />
		<tag k="ssr:stedsnr" v="326171" />
	</node>
	<node lat="58.99375000008832" lon="7.675574998083442" id="-38296">
		<tag k="ford" v="yes" />
		<tag k="name" v="Tverrhommvaet" />
		<tag k="place" v="locality" />
		<tag k="ssr:stedsnr" v="326419" />
	</node>
	<node lat="58.95392778211362" lon="7.687058336516289" id="-38308">
		<tag k="bridge" v="yes" />
		<tag k="layer" v="1" />
		<tag k="name" v="Kvernå" />
		<tag k="ssr:stedsnr" v="471196" />
	</node>
	<node lat="58.84226389318461" lon="7.812372224928588" id="-38360">
		<tag k="fixme" v="consider highway=path" />
		<tag k="highway" v="track" />
		<tag k="name" v="Kattesvingen" />
		<tag k="ssr:stedsnr" v="387111" />
	</node>
	<node lat="58.95304444443615" lon="7.507036105063588" id="-38363">
		<tag k="ford" v="yes" />
		<tag k="name" v="Sendingsfetvadet" />
		<tag k="place" v="locality" />
		<tag k="ssr:stedsnr" v="387127" />
	</node>
	<node lat="58.951919447979805" lon="7.706600001504126" id="-38392">
		<tag k="highway" v="path" />
		<tag k="name" v="Bjørnstig" />
		<tag k="ssr:stedsnr" v="387516" />
	</node>
	<node lat="58.982511113099726" lon="7.827238882875939" id="-38395">
		<tag k="highway" v="path" />
		<tag k="name" v="Startekleiv" />
		<tag k="ssr:stedsnr" v="387842" />
	</node>
	<node lat="58.96437777780367" lon="7.692347216210554" id="-38532">
		<tag k="highway" v="path" />
		<tag k="name" v="Aslakbustigen" />
		<tag k="ssr:stedsnr" v="448502" />
	</node>
	<node lat="58.91832777615455" lon="7.755819438168074" id="-38620">
		<tag k="highway" v="path" />
		<tag k="name" v="Stigan" />
		<tag k="ssr:stedsnr" v="508305" />
	</node>
	<node lat="58.99016666915638" lon="7.653347223342404" id="-38628">
		<tag k="highway" v="path" />
		<tag k="name" v="Heistadkleivi" />
		<tag k="ssr:stedsnr" v="508406" />
	</node>
	<node lat="58.98728332982002" lon="7.70767778326019" id="-38634">
		<tag k="bridge" v="yes" />
		<tag k="layer" v="1" />
		<tag k="name" v="Kloppa" />
		<tag k="ssr:stedsnr" v="508512" />
	</node>
	<node lat="58.79266110794488" lon="7.910047214821054" id="-38655">
		<tag k="man_made" v="cairn" />
		<tag k="name" v="Austmannvarden" />
		<tag k="place" v="locality" />
		<tag k="ssr:stedsnr" v="519966" />
	</node>
	<node lat="58.97516666352376" lon="7.584716671559869" id="-38658">
		<tag k="bridge" v="yes" />
		<tag k="layer" v="1" />
		<tag k="name" v="Heggland nordre" />
		<tag k="ssr:stedsnr" v="532172" />
	</node>
	<node lat="58.943330552053006" lon="7.583605559596833" id="-38659">
		<tag k="man_made" v="cairn" />
		<tag k="name" v="Rustfjell" />
		<tag k="place" v="locality" />
		<tag k="ssr:stedsnr" v="535814" />
	</node>
	<node lat="58.80133610851351" lon="7.855488894312645" id="-38723">
		<tag k="highway" v="path" />
		<tag k="name" v="Røyneskleiv" />
		<tag k="ssr:stedsnr" v="691171" />
	</node>
	<node lat="58.74590277364314" lon="7.907686118288219" id="-38735">
		<tag k="highway" v="path" />
		<tag k="name" v="Klomra" />
		<tag k="ssr:stedsnr" v="691186" />
	</node>
	<node lat="58.7609166635993" lon="7.85957222041258" id="-38740">
		<tag k="fixme" v="consider highway=path" />
		<tag k="highway" v="track" />
		<tag k="name" v="Moldkleiv" />
		<tag k="ssr:stedsnr" v="691271" />
	</node>
	<node lat="58.67932222017425" lon="7.773908335661991" id="-38754">
		<tag k="highway" v="path" />
		<tag k="name" v="Kvinnevegen" />
		<tag k="ssr:stedsnr" v="691449" />
	</node>
	<node lat="58.85624444786067" lon="7.976061107655579" id="-38755">
		<tag k="highway" v="path" />
		<tag k="name" v="Næverkleiv" />
		<tag k="ssr:stedsnr" v="691452" />
	</node>
	<node lat="58.94443333679505" lon="7.8666388849819295" id="-38764">
		<tag k="highway" v="path" />
		<tag k="name" v="Mannevegen" />
		<tag k="ssr:stedsnr" v="691851" />
	</node>
	<node lat="58.798169441971424" lon="7.8330500053940035" id="-38774">
		<tag k="highway" v="path" />
		<tag k="name" v="Brattestig" />
		<tag k="ssr:stedsnr" v="569153" />
	</node>
	<node lat="58.81384722502874" lon="7.748847218124525" id="-38782">
		<tag k="highway" v="path" />
		<tag k="name" v="Stigen" />
		<tag k="ssr:stedsnr" v="569316" />
	</node>
	<node lat="58.97529166642287" lon="7.585177769776627" id="-38817">
		<tag k="bridge" v="yes" />
		<tag k="layer" v="1" />
		<tag k="name" v="Heggland søndre" />
		<tag k="ssr:stedsnr" v="592206" />
	</node>
	<node lat="58.84379722272735" lon="7.829208339379722" id="-38874">
		<tag k="highway" v="path" />
		<tag k="name" v="Øvreveg" />
		<tag k="ssr:stedsnr" v="629107" />
	</node>
	<node lat="58.97336388545641" lon="7.589125004897039" id="-38983">
		<tag k="highway" v="path" />
		<tag k="name" v="Grokleiv" />
		<tag k="ssr:stedsnr" v="691111" />
	</node>
	<node lat="59.00829722109329" lon="7.533444443197675" id="-38987">
		<tag k="highway" v="path" />
		<tag k="name" v="Sollidkleiva" />
		<tag k="ssr:stedsnr" v="691129" />
	</node>
	<node lat="58.8502583307207" lon="7.82542222456966" id="-38992">
		<tag k="alt_name" v="Li" />
		<tag k="bridge" v="yes" />
		<tag k="layer" v="1" />
		<tag k="name" v="Librui" />
		<tag k="ssr:stedsnr" v="691147" />
	</node>
	<node lat="58.67798333209002" lon="7.811838880367311" id="-39028">
		<tag k="highway" v="path" />
		<tag k="name" v="Fyrrekleiv" />
		<tag k="ssr:stedsnr" v="691477" />
	</node>
	<node lat="58.91602499887696" lon="7.703508325988347" id="-39089">
		<tag k="highway" v="path" />
		<tag k="name" v="Bjørnstig" />
		<tag k="ssr:stedsnr" v="751036" />
	</node>
	<node lat="58.78274722085241" lon="7.755861108272783" id="-39111">
		<tag k="highway" v="path" />
		<tag k="name" v="Trappekleiv" />
		<tag k="ssr:stedsnr" v="751375" />
	</node>
	<node lat="58.69097222596659" lon="7.939780551970875" id="-39236">
		<tag k="highway" v="path" />
		<tag k="name" v="Moldstig" />
		<tag k="ssr:stedsnr" v="812222" />
	</node>
	<node lat="58.898822221948684" lon="7.737733334873448" id="-39292">
		<tag k="bridge" v="yes" />
		<tag k="layer" v="1" />
		<tag k="name" v="Vikeli nordre" />
		<tag k="ssr:stedsnr" v="836177" />
	</node>
	<node lat="59.00441666879008" lon="7.529750001366716" id="-39344">
		<tag k="highway" v="path" />
		<tag k="name" v="Smørkleppkleiva" />
		<tag k="ssr:stedsnr" v="933017" />
	</node>
	<node lat="58.83616944694817" lon="7.985199994732604" id="-39518">
		<tag k="highway" v="path" />
		<tag k="name" v="Raukålkleivi" />
		<tag k="ssr:stedsnr" v="944880" />
	</node>
	<node lat="58.95049444260859" lon="7.6797638940653" id="-39527">
		<tag k="bridge" v="yes" />
		<tag k="layer" v="1" />
		<tag k="name" v="Fosså" />
		<tag k="ssr:stedsnr" v="957191" />
	</node>
</osm>
