<?xml version="1.0" encoding="UTF-8"?>
<osm version="0.6" generator="osmapis">
	<node id="440875316" lat="67.64333" lon="12.5931023" version="4" timestamp="2022-06-22T17:29:50Z" changeset="122721699" uid="3497659" user="NKA">
		<tag k="name" v="Måstad" />
		<tag k="place" v="hamlet" />
		<tag k="ssr:stedsnr" v="683366" />
		<tag k="wikidata" v="Q4588128" />
	</node>
	<node id="1598676289" lat="67.6549759" lon="12.7218235" version="2" timestamp="2022-06-22T17:29:50Z" changeset="122721699" uid="3497659" user="NKA">
		<tag k="name" v="Røssnesvågen" />
		<tag k="place" v="hamlet" />
		<tag k="ssr:stedsnr" v="805408" />
	</node>
	<node id="1598733595" lat="67.6931597" lon="12.7072591" version="3" timestamp="2022-06-22T17:29:50Z" changeset="122721699" uid="3497659" user="NKA">
		<tag k="name" v="Nordland" />
		<tag k="place" v="hamlet" />
		<tag k="ssr:stedsnr" v="76370" />
	</node>
	<node id="1833539992" lat="67.6655586" lon="12.6976564" version="3" timestamp="2022-06-22T17:29:50Z" changeset="122721699" uid="3497659" user="NKA">
		<tag k="alt_name" v="Værøy" />
		<tag k="name" v="Sørland" />
		<tag k="place" v="village" />
		<tag k="population" v="587" />
		<tag k="population:date" v="2021-01-01" />
		<tag k="ref:ssb_tettsted" v="7781" />
		<tag k="source:population" v="SSB - befolkning i tettstedet" />
		<tag k="ssr:stedsnr" v="198332" />
		<tag k="wikidata" v="Q2335573" />
	</node>
	<node id="9839367684" lat="67.6740806" lon="12.6944832" version="1" timestamp="2022-06-22T17:29:50Z" changeset="122721699" uid="3497659" user="NKA">
		<tag k="name" v="Skarsvollen" />
		<tag k="place" v="farm" />
		<tag k="ssr:stedsnr" v="949655" />
	</node>
	<node id="9839367685" lat="67.6694673" lon="12.684744" version="1" timestamp="2022-06-22T17:29:50Z" changeset="122721699" uid="3497659" user="NKA">
		<tag k="name" v="Sørland" />
		<tag k="place" v="farm" />
		<tag k="ssr:stedsnr" v="1075882" />
	</node>
	<node id="9839367686" lat="67.692722" lon="12.7130223" version="1" timestamp="2022-06-22T17:29:50Z" changeset="122721699" uid="3497659" user="NKA">
		<tag k="name" v="Værøy prestegård" />
		<tag k="place" v="locality" />
		<tag k="ssr:stedsnr" v="1075885" />
	</node>
	<node id="9839367687" lat="67.6784795" lon="12.6970747" version="1" timestamp="2022-06-22T17:29:50Z" changeset="122721699" uid="3497659" user="NKA">
		<tag k="name" v="Breivika" />
		<tag k="place" v="farm" />
		<tag k="ssr:stedsnr" v="714625" />
	</node>
	<node id="9839367688" lat="67.6614222" lon="12.6839279" version="1" timestamp="2022-06-22T17:29:50Z" changeset="122721699" uid="3497659" user="NKA">
		<tag k="name" v="Ramvoll" />
		<tag k="place" v="farm" />
		<tag k="ssr:stedsnr" v="951672" />
	</node>
	<node id="9839367689" lat="67.6585472" lon="12.7148556" version="1" timestamp="2022-06-22T17:29:50Z" changeset="122721699" uid="3497659" user="NKA">
		<tag k="name" v="Venes" />
		<tag k="place" v="neighbourhood" />
		<tag k="ssr:stedsnr" v="465634" />
	</node>
	<node id="9839367690" lat="67.6546444" lon="12.7042139" version="1" timestamp="2022-06-22T17:29:50Z" changeset="122721699" uid="3497659" user="NKA">
		<tag k="name" v="Tynes" />
		<tag k="place" v="neighbourhood" />
		<tag k="ssr:stedsnr" v="708646" />
	</node>
	<node id="9839367691" lat="67.6643528" lon="12.708436" version="1" timestamp="2022-06-22T17:29:50Z" changeset="122721699" uid="3497659" user="NKA">
		<tag k="name" v="Vågstranda" />
		<tag k="place" v="neighbourhood" />
		<tag k="ssr:stedsnr" v="162673" />
	</node>
	<node id="9839367692" lat="67.6917778" lon="12.6905279" version="1" timestamp="2022-06-22T17:29:50Z" changeset="122721699" uid="3497659" user="NKA">
		<tag k="name" v="Grindgården" />
		<tag k="place" v="farm" />
		<tag k="ssr:stedsnr" v="258361" />
	</node>
	<node id="9839367693" lat="67.6765473" lon="12.6981138" version="1" timestamp="2022-06-22T17:29:50Z" changeset="122721699" uid="3497659" user="NKA">
		<tag k="name" v="Leite" />
		<tag k="place" v="farm" />
		<tag k="ssr:stedsnr" v="706676" />
	</node>
	<node id="9839367694" lat="67.6600028" lon="12.7176332" version="1" timestamp="2022-06-22T17:29:50Z" changeset="122721699" uid="3497659" user="NKA">
		<tag k="name" v="Torvvågan" />
		<tag k="place" v="neighbourhood" />
		<tag k="ssr:stedsnr" v="405666" />
	</node>
	<node id="9839367695" lat="67.66335" lon="12.6858361" version="1" timestamp="2022-06-22T17:29:50Z" changeset="122721699" uid="3497659" user="NKA">
		<tag k="name" v="Stølen" />
		<tag k="place" v="farm" />
		<tag k="ssr:stedsnr" v="561380" />
	</node>
	<node id="9839367696" lat="67.6599" lon="12.6932529" version="1" timestamp="2022-06-22T17:29:50Z" changeset="122721699" uid="3497659" user="NKA">
		<tag k="name" v="Grindvika" />
		<tag k="place" v="neighbourhood" />
		<tag k="ssr:stedsnr" v="101659" />
	</node>
	<node id="9839367697" lat="67.6661579" lon="12.7011737" version="1" timestamp="2022-06-22T17:29:50Z" changeset="122721699" uid="3497659" user="NKA">
		<tag k="name" v="Sponga" />
		<tag k="place" v="farm" />
		<tag k="ssr:stedsnr" v="344670" />
	</node>
</osm>
