<?xml version="1.0" encoding="UTF-8"?>
<osm version="0.6" generator="osmapis">
	<node lat="62.42943055355363" lon="6.22011667190074" id="-6952">
		<tag k="name" v="Sætrevatnet" />
		<tag k="natural" v="water" />
		<tag k="ssr:date" v="2016-05-10" />
		<tag k="ssr:gruppe" v="stilleståendeVann" />
		<tag k="ssr:hovedgruppe" v="ferskvann" />
		<tag k="ssr:stedsnr" v="11028" />
		<tag k="ssr:type" v="tjern" />
	</node>
	<node lat="62.419230554981866" lon="6.130788888854215" id="-6953">
		<tag k="name" v="Myrane" />
		<tag k="natural" v="wetland" />
		<tag k="ssr:date" v="2016-05-10" />
		<tag k="ssr:gruppe" v="våtmark" />
		<tag k="ssr:hovedgruppe" v="markslag" />
		<tag k="ssr:stedsnr" v="11923" />
		<tag k="ssr:type" v="myr" />
	</node>
	<node lat="62.42179722621288" lon="6.319563880122082" id="-6956">
		<tag k="name" v="Eliasneset" />
		<tag k="natural" v="cape" />
		<tag k="ssr:date" v="2016-05-10" />
		<tag k="ssr:gruppe" v="kystkontur" />
		<tag k="ssr:hovedgruppe" v="sjø" />
		<tag k="ssr:stedsnr" v="35861" />
		<tag k="ssr:type" v="nesISjø" />
	</node>
	<node lat="62.44085277814866" lon="6.238772214141463" id="-6957">
		<tag k="name" v="Holsneset" />
		<tag k="natural" v="cape" />
		<tag k="ssr:date" v="2016-05-10" />
		<tag k="ssr:gruppe" v="kystkontur" />
		<tag k="ssr:hovedgruppe" v="sjø" />
		<tag k="ssr:stedsnr" v="58704" />
		<tag k="ssr:type" v="nesISjø" />
	</node>
	<node lat="62.44386944674701" lon="6.261583331569813" id="-6958">
		<tag k="name" v="Hammarsneset" />
		<tag k="natural" v="cape" />
		<tag k="ssr:date" v="2016-05-10" />
		<tag k="ssr:gruppe" v="kystkontur" />
		<tag k="ssr:hovedgruppe" v="sjø" />
		<tag k="ssr:stedsnr" v="58792" />
		<tag k="ssr:type" v="nesISjø" />
	</node>
	<node lat="62.4386305573219" lon="6.262780563510966" id="-6959">
		<tag k="name" v="Djupvikvatnet" />
		<tag k="natural" v="water" />
		<tag k="ssr:date" v="2016-05-10" />
		<tag k="ssr:gruppe" v="stilleståendeVann" />
		<tag k="ssr:hovedgruppe" v="ferskvann" />
		<tag k="ssr:stedsnr" v="240794" />
		<tag k="ssr:type" v="vann" />
		<tag k="water" v="lake" />
	</node>
	<node lat="62.42571944073673" lon="6.082072223413897" id="-6960">
		<tag k="name" v="Raudneselva" />
		<tag k="ssr:date" v="2016-05-10" />
		<tag k="ssr:gruppe" v="rennendeVann" />
		<tag k="ssr:hovedgruppe" v="ferskvann" />
		<tag k="ssr:stedsnr" v="71927" />
		<tag k="ssr:type" v="bekk" />
		<tag k="waterway" v="stream" />
	</node>
	<node lat="62.425025001302444" lon="6.139069442167515" id="-6961">
		<tag k="alt_name" v="Grjothornet" />
		<tag k="fixme" v="consider natural=peak for the most distinct mountains in the district" />
		<tag k="name" v="Grøthornet" />
		<tag k="natural" v="hill" />
		<tag k="place" v="locality" />
		<tag k="ssr:date" v="2016-05-10" />
		<tag k="ssr:gruppe" v="høyder" />
		<tag k="ssr:hovedgruppe" v="terreng" />
		<tag k="ssr:stedsnr" v="71930" />
		<tag k="ssr:type" v="ås" />
	</node>
	<node lat="62.44148333047971" lon="6.1309416741453004" id="-6962">
		<tag k="alt_name" v="Flesjeflua" />
		<tag k="name" v="Flesjefluda" />
		<tag k="natural" v="shoal" />
		<tag k="place" v="locality" />
		<tag k="ssr:date" v="2016-05-10" />
		<tag k="ssr:gruppe" v="grunnerISjø" />
		<tag k="ssr:hovedgruppe" v="sjø" />
		<tag k="ssr:stedsnr" v="71987" />
		<tag k="ssr:type" v="grunneISjø" />
	</node>
	<node lat="62.43578888563556" lon="6.058163892401145" id="-6967">
		<tag k="name" v="Rekvika" />
		<tag k="natural" v="bay" />
		<tag k="ssr:date" v="2016-05-10" />
		<tag k="ssr:gruppe" v="kystkontur" />
		<tag k="ssr:hovedgruppe" v="sjø" />
		<tag k="ssr:stedsnr" v="96762" />
		<tag k="ssr:type" v="vikISjø" />
	</node>
	<node lat="62.43895713013431" lon="6.172293564745988" id="-6968">
		<tag k="fixme" v="consider place=hamlet" />
		<tag k="name" v="Molværsmyra" />
		<tag k="place" v="farm" />
		<tag k="ssr:date" v="2018-02-21" />
		<tag k="ssr:gruppe" v="gardsbebyggelse" />
		<tag k="ssr:hovedgruppe" v="bebyggelse" />
		<tag k="ssr:stedsnr" v="96807" />
		<tag k="ssr:type" v="gard" />
	</node>
	<node lat="62.44092633803983" lon="6.227275465760472" id="-6969">
		<tag k="fixme" v="consider place=hamlet" />
		<tag k="name" v="Holen" />
		<tag k="place" v="farm" />
		<tag k="ssr:date" v="2018-02-21" />
		<tag k="ssr:gruppe" v="gardsbebyggelse" />
		<tag k="ssr:hovedgruppe" v="bebyggelse" />
		<tag k="ssr:stedsnr" v="96859" />
		<tag k="ssr:type" v="gard" />
	</node>
	<node lat="62.44910000107351" lon="6.227294447187083" id="-6970">
		<tag k="name" v="Skrivarhamna" />
		<tag k="natural" v="bay" />
		<tag k="ssr:date" v="2016-05-10" />
		<tag k="ssr:gruppe" v="kystkontur" />
		<tag k="ssr:hovedgruppe" v="sjø" />
		<tag k="ssr:stedsnr" v="96904" />
		<tag k="ssr:type" v="vikISjø" />
	</node>
	<node lat="62.400194440357566" lon="6.117347215468559" id="-6971">
		<tag k="name" v="Kårsteinen" />
		<tag k="natural" v="stone" />
		<tag k="ssr:date" v="2016-05-10" />
		<tag k="ssr:gruppe" v="løsmasseavsetninger" />
		<tag k="ssr:hovedgruppe" v="markslag" />
		<tag k="ssr:stedsnr" v="96913" />
		<tag k="ssr:type" v="stein" />
	</node>
	<node lat="62.41758055158301" lon="6.070002773075098" id="-6972">
		<tag k="name" v="Raudnesskallen" />
		<tag k="natural" v="shoal" />
		<tag k="place" v="locality" />
		<tag k="ssr:date" v="2016-05-10" />
		<tag k="ssr:gruppe" v="grunnerISjø" />
		<tag k="ssr:hovedgruppe" v="sjø" />
		<tag k="ssr:stedsnr" v="99611" />
		<tag k="ssr:type" v="grunneISjø" />
	</node>
	<node lat="62.426638891990336" lon="6.315766667531864" id="-6973">
		<tag k="name" v="Eidsnes" />
		<tag k="place" v="isolated_dwelling" />
		<tag k="ssr:date" v="2016-05-10" />
		<tag k="ssr:gruppe" v="bolighus" />
		<tag k="ssr:hovedgruppe" v="bebyggelse" />
		<tag k="ssr:stedsnr" v="119121" />
		<tag k="ssr:type" v="eneboligMindreBoligbygg" />
	</node>
	<node lat="62.42347257246385" lon="6.283847315916776" id="-6974">
		<tag k="fixme" v="consider place=hamlet" />
		<tag k="name" v="Furneset" />
		<tag k="place" v="farm" />
		<tag k="ssr:date" v="2018-02-21" />
		<tag k="ssr:gruppe" v="gardsbebyggelse" />
		<tag k="ssr:hovedgruppe" v="bebyggelse" />
		<tag k="ssr:stedsnr" v="131092" />
		<tag k="ssr:type" v="gard" />
	</node>
	<node lat="62.426861114236644" lon="6.3222555503110645" id="-6975">
		<tag k="name" v="Stølane" />
		<tag k="place" v="farm" />
		<tag k="ssr:date" v="2016-05-10" />
		<tag k="ssr:gruppe" v="gardsbebyggelse" />
		<tag k="ssr:hovedgruppe" v="bebyggelse" />
		<tag k="ssr:stedsnr" v="253085" />
		<tag k="ssr:type" v="bruk" />
	</node>
	<node lat="62.428419445449954" lon="6.16095278515929" id="-6976">
		<tag k="name" v="Steinelva" />
		<tag k="ssr:date" v="2016-05-10" />
		<tag k="ssr:gruppe" v="rennendeVann" />
		<tag k="ssr:hovedgruppe" v="ferskvann" />
		<tag k="ssr:stedsnr" v="253922" />
		<tag k="ssr:type" v="bekk" />
		<tag k="waterway" v="stream" />
	</node>
	<node lat="62.436509068922554" lon="6.104477765928543" id="-6978">
		<tag k="name" v="Kalvestad" />
		<tag k="place" v="locality" />
		<tag k="ssr:date" v="2018-02-21" />
		<tag k="ssr:gruppe" v="gardsbebyggelse" />
		<tag k="ssr:hovedgruppe" v="bebyggelse" />
		<tag k="ssr:stedsnr" v="253970" />
		<tag k="ssr:type" v="eiendom" />
	</node>
	<node lat="62.41562222578348" lon="6.20783888496899" id="-6979">
		<tag k="name" v="Rollonhytta" />
		<tag k="place" v="isolated_dwelling" />
		<tag k="ssr:date" v="2016-05-10" />
		<tag k="ssr:gruppe" v="bolighus" />
		<tag k="ssr:hovedgruppe" v="bebyggelse" />
		<tag k="ssr:stedsnr" v="254872" />
		<tag k="ssr:type" v="fritidsbolig" />
	</node>
	<node lat="62.40637868007211" lon="6.101907581984189" id="-6980">
		<tag k="fixme" v="consider place=hamlet" />
		<tag k="name" v="Nøringset" />
		<tag k="place" v="farm" />
		<tag k="ssr:date" v="2018-02-21" />
		<tag k="ssr:gruppe" v="gardsbebyggelse" />
		<tag k="ssr:hovedgruppe" v="bebyggelse" />
		<tag k="ssr:stedsnr" v="254878" />
		<tag k="ssr:type" v="gard" />
	</node>
	<node lat="62.428319445077015" lon="6.307972219772918" id="-6982">
		<tag k="alt_name" v="Storehaugen" />
		<tag k="name" v="Storvalen" />
		<tag k="natural" v="hill" />
		<tag k="place" v="locality" />
		<tag k="ssr:date" v="2016-05-10" />
		<tag k="ssr:gruppe" v="høyder" />
		<tag k="ssr:hovedgruppe" v="terreng" />
		<tag k="ssr:stedsnr" v="156914" />
		<tag k="ssr:type" v="haug" />
	</node>
	<node lat="62.41074166860556" lon="6.096825003972897" id="-6983">
		<tag k="alt_name" v="Nymarka" />
		<tag k="name" v="Nybø" />
		<tag k="place" v="farm" />
		<tag k="ssr:date" v="2020-10-27" />
		<tag k="ssr:gruppe" v="gardsbebyggelse" />
		<tag k="ssr:hovedgruppe" v="bebyggelse" />
		<tag k="ssr:stedsnr" v="156915" />
		<tag k="ssr:type" v="bruk" />
	</node>
	<node lat="62.44008889002005" lon="6.155911110680006" id="-6984">
		<tag k="name" v="Styggemannshola" />
		<tag k="place" v="locality" />
		<tag k="ssr:date" v="2016-05-10" />
		<tag k="ssr:gruppe" v="terrengdetaljer" />
		<tag k="ssr:hovedgruppe" v="terreng" />
		<tag k="ssr:stedsnr" v="156818" />
		<tag k="ssr:type" v="heller" />
	</node>
	<node lat="62.407141669607576" lon="6.293416675896096" id="-6985">
		<tag k="historic" v="shieling" />
		<tag k="name" v="Ramsvikstølen" />
		<tag k="place" v="locality" />
		<tag k="ssr:date" v="2016-05-10" />
		<tag k="ssr:gruppe" v="dyrkamark" />
		<tag k="ssr:hovedgruppe" v="markslag" />
		<tag k="ssr:stedsnr" v="156849" />
		<tag k="ssr:type" v="setervoll" />
	</node>
	<node lat="62.403536113955866" lon="6.294830558889856" id="-6986">
		<tag k="name" v="Kviteberget" />
		<tag k="natural" v="cape" />
		<tag k="ssr:date" v="2016-05-10" />
		<tag k="ssr:gruppe" v="kystkontur" />
		<tag k="ssr:hovedgruppe" v="sjø" />
		<tag k="ssr:stedsnr" v="156859" />
		<tag k="ssr:type" v="nesISjø" />
	</node>
	<node lat="62.45009239830927" lon="6.216650182229393" id="-6987">
		<tag k="fixme" v="consider place=hamlet" />
		<tag k="name" v="Salen" />
		<tag k="place" v="farm" />
		<tag k="ssr:date" v="2018-02-21" />
		<tag k="ssr:gruppe" v="gardsbebyggelse" />
		<tag k="ssr:hovedgruppe" v="bebyggelse" />
		<tag k="ssr:stedsnr" v="179664" />
		<tag k="ssr:type" v="gard" />
	</node>
	<node lat="62.413652781954305" lon="6.220669439706052" id="-6988">
		<tag k="name" v="Humlestølen" />
		<tag k="place" v="isolated_dwelling" />
		<tag k="ssr:date" v="2016-05-10" />
		<tag k="ssr:gruppe" v="bolighus" />
		<tag k="ssr:hovedgruppe" v="bebyggelse" />
		<tag k="ssr:stedsnr" v="263187" />
		<tag k="ssr:type" v="fritidsbolig" />
	</node>
	<node lat="62.41388611409554" lon="6.206113892670327" id="-6997">
		<tag k="name" v="Litlebakken" />
		<tag k="natural" v="slope" />
		<tag k="place" v="locality" />
		<tag k="ssr:date" v="2016-05-10" />
		<tag k="ssr:gruppe" v="skråninger" />
		<tag k="ssr:hovedgruppe" v="terreng" />
		<tag k="ssr:stedsnr" v="217906" />
		<tag k="ssr:type" v="bakke" />
	</node>
	<node lat="62.438897223700735" lon="6.166913894572468" id="-6998">
		<tag k="name" v="Sandvika" />
		<tag k="natural" v="bay" />
		<tag k="ssr:date" v="2016-05-10" />
		<tag k="ssr:gruppe" v="kystkontur" />
		<tag k="ssr:hovedgruppe" v="sjø" />
		<tag k="ssr:stedsnr" v="217915" />
		<tag k="ssr:type" v="vikISjø" />
	</node>
	<node lat="62.42948611283291" lon="6.305488879564024" id="-6999">
		<tag k="name" v="Grøthaugen" />
		<tag k="natural" v="hill" />
		<tag k="place" v="locality" />
		<tag k="ssr:date" v="2016-05-10" />
		<tag k="ssr:gruppe" v="høyder" />
		<tag k="ssr:hovedgruppe" v="terreng" />
		<tag k="ssr:stedsnr" v="217930" />
		<tag k="ssr:type" v="haug" />
	</node>
	<node lat="62.44005000339981" lon="6.211683336623549" id="-7000">
		<tag k="amenity" v="school" />
		<tag k="name" v="Sula ungdomssskule" />
		<tag k="ssr:date" v="2016-05-10" />
		<tag k="ssr:gruppe" v="institusjoner" />
		<tag k="ssr:hovedgruppe" v="bebyggelse" />
		<tag k="ssr:stedsnr" v="217931" />
		<tag k="ssr:type" v="skole" />
	</node>
	<node lat="62.43918611255909" lon="6.184241674131877" id="-7001">
		<tag k="amenity" v="school" />
		<tag k="name" v="barnehage" />
		<tag k="ssr:date" v="2016-05-10" />
		<tag k="ssr:gruppe" v="institusjoner" />
		<tag k="ssr:hovedgruppe" v="bebyggelse" />
		<tag k="ssr:stedsnr" v="217805" />
		<tag k="ssr:type" v="skole" />
	</node>
	<node lat="62.42884166402305" lon="6.1880944539789535" id="-7002">
		<tag k="highway" v="path" />
		<tag k="name" v="Devoldrenna" />
		<tag k="ssr:date" v="2016-05-10" />
		<tag k="ssr:gruppe" v="veg" />
		<tag k="ssr:hovedgruppe" v="infrastruktur" />
		<tag k="ssr:stedsnr" v="217810" />
		<tag k="ssr:type" v="sti" />
	</node>
	<node lat="62.424013892699385" lon="6.3538472269668675" id="-7003">
		<tag k="name" v="Breidalen" />
		<tag k="natural" v="valley" />
		<tag k="place" v="locality" />
		<tag k="ssr:date" v="2016-05-10" />
		<tag k="ssr:gruppe" v="senkninger" />
		<tag k="ssr:hovedgruppe" v="terreng" />
		<tag k="ssr:stedsnr" v="217815" />
		<tag k="ssr:type" v="dal" />
	</node>
	<node lat="62.40274722189584" lon="6.2479055633874125" id="-7004">
		<tag k="name" v="Nausthaugen" />
		<tag k="natural" v="hill" />
		<tag k="place" v="locality" />
		<tag k="ssr:date" v="2016-05-10" />
		<tag k="ssr:gruppe" v="høyder" />
		<tag k="ssr:hovedgruppe" v="terreng" />
		<tag k="ssr:stedsnr" v="217822" />
		<tag k="ssr:type" v="haug" />
	</node>
	<node lat="62.40844722392862" lon="6.243255554116187" id="-7005">
		<tag k="name" v="Litle Staglehaugen" />
		<tag k="natural" v="hill" />
		<tag k="place" v="locality" />
		<tag k="ssr:date" v="2016-05-10" />
		<tag k="ssr:gruppe" v="høyder" />
		<tag k="ssr:hovedgruppe" v="terreng" />
		<tag k="ssr:stedsnr" v="217896" />
		<tag k="ssr:type" v="haug" />
	</node>
	<node lat="62.40152777447734" lon="6.238344436550132" id="-7006">
		<tag k="name" v="Hjellneset" />
		<tag k="natural" v="cape" />
		<tag k="ssr:date" v="2016-05-10" />
		<tag k="ssr:gruppe" v="kystkontur" />
		<tag k="ssr:hovedgruppe" v="sjø" />
		<tag k="ssr:stedsnr" v="217898" />
		<tag k="ssr:type" v="nesISjø" />
	</node>
	<node lat="62.415194440312966" lon="6.073550007345805" id="-7016">
		<tag k="name" v="Skarsteinflua" />
		<tag k="natural" v="shoal" />
		<tag k="place" v="locality" />
		<tag k="ssr:date" v="2016-05-10" />
		<tag k="ssr:gruppe" v="grunnerISjø" />
		<tag k="ssr:hovedgruppe" v="sjø" />
		<tag k="ssr:stedsnr" v="281611" />
		<tag k="ssr:type" v="grunneISjø" />
	</node>
	<node lat="62.43581666508205" lon="6.051780562436096" id="-7017">
		<tag k="name" v="Eltranausen" />
		<tag k="natural" v="shoal" />
		<tag k="place" v="locality" />
		<tag k="ssr:date" v="2016-05-10" />
		<tag k="ssr:gruppe" v="grunnerISjø" />
		<tag k="ssr:hovedgruppe" v="sjø" />
		<tag k="ssr:stedsnr" v="281613" />
		<tag k="ssr:type" v="grunneISjø" />
	</node>
	<node lat="62.43148055879722" lon="6.288802771950438" id="-7018">
		<tag k="name" v="Rørstadneset" />
		<tag k="natural" v="cape" />
		<tag k="ssr:date" v="2016-05-10" />
		<tag k="ssr:gruppe" v="kystkontur" />
		<tag k="ssr:hovedgruppe" v="sjø" />
		<tag k="ssr:stedsnr" v="460871" />
		<tag k="ssr:type" v="nesISjø" />
	</node>
	<node lat="62.43588610791682" lon="6.158349994459123" id="-7019">
		<tag k="name" v="Såthaugane" />
		<tag k="natural" v="hill" />
		<tag k="place" v="locality" />
		<tag k="ssr:date" v="2016-05-10" />
		<tag k="ssr:gruppe" v="høyder" />
		<tag k="ssr:hovedgruppe" v="terreng" />
		<tag k="ssr:stedsnr" v="460849" />
		<tag k="ssr:type" v="haug" />
	</node>
	<node lat="62.44554166786578" lon="6.194058338506598" id="-7020">
		<tag k="name" v="Bolneset" />
		<tag k="natural" v="cape" />
		<tag k="ssr:date" v="2016-05-10" />
		<tag k="ssr:gruppe" v="kystkontur" />
		<tag k="ssr:hovedgruppe" v="sjø" />
		<tag k="ssr:stedsnr" v="460855" />
		<tag k="ssr:type" v="nesISjø" />
	</node>
	<node lat="62.41295555213333" lon="6.222019447666722" id="-7021">
		<tag k="name" v="Fallhammaren" />
		<tag k="natural" v="ridge" />
		<tag k="place" v="locality" />
		<tag k="ssr:date" v="2016-05-10" />
		<tag k="ssr:gruppe" v="høyder" />
		<tag k="ssr:hovedgruppe" v="terreng" />
		<tag k="ssr:stedsnr" v="460877" />
		<tag k="ssr:type" v="rygg" />
	</node>
	<node lat="62.43333055506601" lon="6.117811111185333" id="-7022">
		<tag k="name" v="Flesje-elva" />
		<tag k="ssr:date" v="2016-05-10" />
		<tag k="ssr:gruppe" v="rennendeVann" />
		<tag k="ssr:hovedgruppe" v="ferskvann" />
		<tag k="ssr:stedsnr" v="460879" />
		<tag k="ssr:type" v="bekk" />
		<tag k="waterway" v="stream" />
	</node>
	<node lat="62.41965277520477" lon="6.331774992535714" id="-7023">
		<tag k="name" v="Sundsmyra" />
		<tag k="natural" v="wetland" />
		<tag k="ssr:date" v="2016-05-10" />
		<tag k="ssr:gruppe" v="våtmark" />
		<tag k="ssr:hovedgruppe" v="markslag" />
		<tag k="ssr:stedsnr" v="460882" />
		<tag k="ssr:type" v="myr" />
	</node>
	<node lat="62.42901110957072" lon="6.099713888806278" id="-7024">
		<tag k="name" v="Sætrevatnet" />
		<tag k="natural" v="water" />
		<tag k="ssr:date" v="2016-05-10" />
		<tag k="ssr:gruppe" v="stilleståendeVann" />
		<tag k="ssr:hovedgruppe" v="ferskvann" />
		<tag k="ssr:stedsnr" v="460883" />
		<tag k="ssr:type" v="tjern" />
	</node>
	<node lat="62.41608610885767" lon="6.310511112017348" id="-7025">
		<tag k="name" v="Rothaugen" />
		<tag k="natural" v="hill" />
		<tag k="place" v="locality" />
		<tag k="ssr:date" v="2016-05-10" />
		<tag k="ssr:gruppe" v="høyder" />
		<tag k="ssr:hovedgruppe" v="terreng" />
		<tag k="ssr:stedsnr" v="460885" />
		<tag k="ssr:type" v="haug" />
	</node>
	<node lat="62.40960555241771" lon="6.101530555341754" id="-7026">
		<tag k="name" v="Skotet" />
		<tag k="natural" v="ridge" />
		<tag k="place" v="locality" />
		<tag k="ssr:date" v="2016-05-10" />
		<tag k="ssr:gruppe" v="høyder" />
		<tag k="ssr:hovedgruppe" v="terreng" />
		<tag k="ssr:stedsnr" v="460887" />
		<tag k="ssr:type" v="rygg" />
	</node>
	<node lat="62.40556944787419" lon="6.260905551651564" id="-7027">
		<tag k="name" v="Hansskaret" />
		<tag k="natural" v="valley" />
		<tag k="place" v="locality" />
		<tag k="ssr:date" v="2016-05-10" />
		<tag k="ssr:gruppe" v="senkninger" />
		<tag k="ssr:hovedgruppe" v="terreng" />
		<tag k="ssr:stedsnr" v="460932" />
		<tag k="ssr:type" v="skar" />
	</node>
	<node lat="62.43578475855805" lon="6.1830027214304835" id="-7028">
		<tag k="name" v="Bjørkhaugen" />
		<tag k="natural" v="hill" />
		<tag k="place" v="locality" />
		<tag k="ssr:date" v="2017-05-18" />
		<tag k="ssr:gruppe" v="høyder" />
		<tag k="ssr:hovedgruppe" v="terreng" />
		<tag k="ssr:stedsnr" v="460936" />
		<tag k="ssr:type" v="haug" />
	</node>
	<node lat="62.440374998872805" lon="6.250072222205521" id="-7029">
		<tag k="name" v="Litlevågen" />
		<tag k="natural" v="bay" />
		<tag k="ssr:date" v="2016-05-10" />
		<tag k="ssr:gruppe" v="kystkontur" />
		<tag k="ssr:hovedgruppe" v="sjø" />
		<tag k="ssr:stedsnr" v="460937" />
		<tag k="ssr:type" v="vågISjø" />
	</node>
	<node lat="62.43922747737174" lon="6.213232685835746" id="-7030">
		<tag k="amenity" v="school" />
		<tag k="name" v="Langevåg skule" />
		<tag k="ssr:date" v="2019-01-31" />
		<tag k="ssr:gruppe" v="institusjoner" />
		<tag k="ssr:hovedgruppe" v="bebyggelse" />
		<tag k="ssr:stedsnr" v="300994" />
		<tag k="ssr:type" v="skole" />
	</node>
	<node lat="62.438563892170436" lon="6.168211108153037" id="-7031">
		<tag k="name" v="Sandvikfjøra" />
		<tag k="natural" v="beach" />
		<tag k="ssr:date" v="2016-05-10" />
		<tag k="ssr:gruppe" v="kystkontur" />
		<tag k="ssr:hovedgruppe" v="sjø" />
		<tag k="ssr:stedsnr" v="301662" />
		<tag k="ssr:type" v="strandISjø" />
	</node>
	<node lat="62.446083329331444" lon="6.231811120409029" id="-7032">
		<tag k="name" v="Orkevika" />
		<tag k="natural" v="bay" />
		<tag k="ssr:date" v="2016-05-10" />
		<tag k="ssr:gruppe" v="kystkontur" />
		<tag k="ssr:hovedgruppe" v="sjø" />
		<tag k="ssr:stedsnr" v="314010" />
		<tag k="ssr:type" v="vikISjø" />
	</node>
	<node lat="62.41764444039923" lon="6.320311120236103" id="-7033">
		<tag k="alt_name" v="Solevåg;Solevågen" />
		<tag k="fixme" v="consider place=hamlet" />
		<tag k="name" v="Solavågen" />
		<tag k="place" v="village" />
		<tag k="ssr:date" v="2016-05-10" />
		<tag k="ssr:gruppe" v="bebyggelsesområder" />
		<tag k="ssr:hovedgruppe" v="bebyggelse" />
		<tag k="ssr:stedsnr" v="314069" />
		<tag k="ssr:type" v="bygdelagBygd" />
	</node>
	<node lat="62.3805722238325" lon="6.128161101821952" id="-7035">
		<tag k="bay" v="fjord" />
		<tag k="name" v="Sulafjorden" />
		<tag k="natural" v="bay" />
		<tag k="ssr:date" v="2019-12-27" />
		<tag k="ssr:gruppe" v="farvann" />
		<tag k="ssr:hovedgruppe" v="sjø" />
		<tag k="ssr:stedsnr" v="314906" />
		<tag k="ssr:type" v="fjord" />
	</node>
	<node lat="62.4107611122894" lon="6.240844435844641" id="-7036">
		<tag k="name" v="Store Staglehaugen" />
		<tag k="natural" v="hill" />
		<tag k="place" v="locality" />
		<tag k="ssr:date" v="2016-05-10" />
		<tag k="ssr:gruppe" v="høyder" />
		<tag k="ssr:hovedgruppe" v="terreng" />
		<tag k="ssr:stedsnr" v="338892" />
		<tag k="ssr:type" v="haug" />
	</node>
	<node lat="62.40763332898057" lon="6.292602775410581" id="-7037">
		<tag k="name" v="Halsen" />
		<tag k="natural" v="valley" />
		<tag k="place" v="locality" />
		<tag k="ssr:date" v="2016-05-10" />
		<tag k="ssr:gruppe" v="senkninger" />
		<tag k="ssr:hovedgruppe" v="terreng" />
		<tag k="ssr:stedsnr" v="338897" />
		<tag k="ssr:type" v="dal" />
	</node>
	<node lat="62.44442221951129" lon="6.251702784212862" id="-7039">
		<tag k="name" v="Store Veddeholmen" />
		<tag k="place" v="islet" />
		<tag k="ssr:date" v="2016-05-10" />
		<tag k="ssr:gruppe" v="kystkontur" />
		<tag k="ssr:hovedgruppe" v="sjø" />
		<tag k="ssr:stedsnr" v="476656" />
		<tag k="ssr:type" v="holmeISjø" />
	</node>
	<node lat="62.42231111367864" lon="6.3246972160618204" id="-7040">
		<tag k="loc_name" v="Leirvåg" />
		<tag k="name" v="Leirvågen" />
		<tag k="place" v="hamlet" />
		<tag k="ssr:date" v="2016-05-10" />
		<tag k="ssr:gruppe" v="bebyggelsesområder" />
		<tag k="ssr:hovedgruppe" v="bebyggelse" />
		<tag k="ssr:stedsnr" v="374095" />
		<tag k="ssr:type" v="grend" />
	</node>
	<node lat="62.398887224557825" lon="6.131359493798085" id="-7041">
		<tag k="fixme" v="consider place=hamlet" />
		<tag k="name" v="Sulebust" />
		<tag k="place" v="farm" />
		<tag k="ssr:date" v="2018-02-21" />
		<tag k="ssr:gruppe" v="gardsbebyggelse" />
		<tag k="ssr:hovedgruppe" v="bebyggelse" />
		<tag k="ssr:stedsnr" v="375876" />
		<tag k="ssr:type" v="gard" />
	</node>
	<node lat="62.44098888471539" lon="6.171741660356823" id="-7043">
		<tag k="name" v="Myranesflua" />
		<tag k="natural" v="shoal" />
		<tag k="place" v="locality" />
		<tag k="ssr:date" v="2016-05-10" />
		<tag k="ssr:gruppe" v="grunnerISjø" />
		<tag k="ssr:hovedgruppe" v="sjø" />
		<tag k="ssr:stedsnr" v="483694" />
		<tag k="ssr:type" v="grunneISjø" />
	</node>
	<node lat="62.449922221236996" lon="6.1887777717358965" id="-7044">
		<tag k="name" v="Storholmsundet" />
		<tag k="natural" v="strait" />
		<tag k="ssr:date" v="2016-05-10" />
		<tag k="ssr:gruppe" v="kystkontur" />
		<tag k="ssr:hovedgruppe" v="sjø" />
		<tag k="ssr:stedsnr" v="483714" />
		<tag k="ssr:type" v="sundISjø" />
	</node>
	<node lat="62.438399999174884" lon="6.1249277777572315" id="-7045">
		<tag k="name" v="Flesje" />
		<tag k="place" v="locality" />
		<tag k="ssr:date" v="2016-05-10" />
		<tag k="ssr:gruppe" v="dyrkamark" />
		<tag k="ssr:hovedgruppe" v="markslag" />
		<tag k="ssr:stedsnr" v="399829" />
		<tag k="ssr:type" v="utmark" />
	</node>
	<node lat="62.407558331048264" lon="6.315455551262772" id="-7046">
		<tag k="name" v="Saltrøya" />
		<tag k="natural" v="bay" />
		<tag k="ssr:date" v="2016-05-10" />
		<tag k="ssr:gruppe" v="kystkontur" />
		<tag k="ssr:hovedgruppe" v="sjø" />
		<tag k="ssr:stedsnr" v="399885" />
		<tag k="ssr:type" v="vikISjø" />
	</node>
	<node lat="62.404262919651124" lon="6.258712187051049" id="-7047">
		<tag k="fixme" v="consider natural=peak for the most distinct mountains in the district" />
		<tag k="name" v="Ruskenakken" />
		<tag k="natural" v="hill" />
		<tag k="place" v="locality" />
		<tag k="ssr:date" v="2018-04-26" />
		<tag k="ssr:gruppe" v="høyder" />
		<tag k="ssr:hovedgruppe" v="terreng" />
		<tag k="ssr:stedsnr" v="435143" />
		<tag k="ssr:type" v="ås" />
	</node>
	<node lat="62.4482027816881" lon="6.232738887895047" id="-7048">
		<tag k="name" v="Landfarneset" />
		<tag k="natural" v="cape" />
		<tag k="ssr:date" v="2016-05-10" />
		<tag k="ssr:gruppe" v="kystkontur" />
		<tag k="ssr:hovedgruppe" v="sjø" />
		<tag k="ssr:stedsnr" v="436014" />
		<tag k="ssr:type" v="nesISjø" />
	</node>
	<node lat="62.41486944408637" lon="6.077822226007105" id="-7051">
		<tag k="name" v="Skarsteinen" />
		<tag k="natural" v="cape" />
		<tag k="ssr:date" v="2016-05-10" />
		<tag k="ssr:gruppe" v="kystkontur" />
		<tag k="ssr:hovedgruppe" v="sjø" />
		<tag k="ssr:stedsnr" v="436917" />
		<tag k="ssr:type" v="nesISjø" />
	</node>
	<node lat="62.443396069254085" lon="6.232485141433556" id="-7057">
		<tag k="fixme" v="consider place=hamlet" />
		<tag k="name" v="Holsfeta" />
		<tag k="place" v="farm" />
		<tag k="ssr:date" v="2018-02-21" />
		<tag k="ssr:gruppe" v="gardsbebyggelse" />
		<tag k="ssr:hovedgruppe" v="bebyggelse" />
		<tag k="ssr:stedsnr" v="460808" />
		<tag k="ssr:type" v="gard" />
	</node>
	<node lat="62.40726666655083" lon="6.328461113980236" id="-7058">
		<tag k="alt_name" v="Solavågflua" />
		<tag k="name" v="Solavågsfluda" />
		<tag k="natural" v="shoal" />
		<tag k="place" v="locality" />
		<tag k="ssr:date" v="2016-05-11" />
		<tag k="ssr:gruppe" v="grunnerISjø" />
		<tag k="ssr:hovedgruppe" v="sjø" />
		<tag k="ssr:stedsnr" v="678121" />
		<tag k="ssr:type" v="grunneISjø" />
	</node>
	<node lat="62.41018333082632" lon="6.148136120960179" id="-7059">
		<tag k="fixme" v="consider natural=peak for the most distinct mountains in the district" />
		<tag k="name" v="Tverrfjellet" />
		<tag k="natural" v="hill" />
		<tag k="place" v="locality" />
		<tag k="ssr:date" v="2016-05-11" />
		<tag k="ssr:gruppe" v="høyder" />
		<tag k="ssr:hovedgruppe" v="terreng" />
		<tag k="ssr:stedsnr" v="678862" />
		<tag k="ssr:type" v="fjell" />
	</node>
	<node lat="62.436679951740665" lon="6.166305413255351" id="-7060">
		<tag k="alt_name" v="Sandvik" />
		<tag k="fixme" v="consider place=hamlet" />
		<tag k="name" v="Sandvika" />
		<tag k="place" v="farm" />
		<tag k="ssr:date" v="2018-02-21" />
		<tag k="ssr:gruppe" v="gardsbebyggelse" />
		<tag k="ssr:hovedgruppe" v="bebyggelse" />
		<tag k="ssr:stedsnr" v="678949" />
		<tag k="ssr:type" v="gard" />
	</node>
	<node lat="62.43925000405382" lon="6.129761102679652" id="-7061">
		<tag k="name" v="Flesjeberget" />
		<tag k="natural" v="cape" />
		<tag k="ssr:date" v="2016-05-11" />
		<tag k="ssr:gruppe" v="kystkontur" />
		<tag k="ssr:hovedgruppe" v="sjø" />
		<tag k="ssr:stedsnr" v="678950" />
		<tag k="ssr:type" v="nesISjø" />
	</node>
	<node lat="62.444116669793694" lon="6.179724999417872" id="-7062">
		<tag k="name" v="Stabben" />
		<tag k="natural" v="shoal" />
		<tag k="place" v="locality" />
		<tag k="ssr:date" v="2016-05-10" />
		<tag k="ssr:gruppe" v="grunnerISjø" />
		<tag k="ssr:hovedgruppe" v="sjø" />
		<tag k="ssr:stedsnr" v="483703" />
		<tag k="ssr:type" v="grunneISjø" />
	</node>
	<node lat="62.43990000201649" lon="6.184019448976349" id="-7063">
		<tag k="name" v="Geilneset" />
		<tag k="natural" v="cape" />
		<tag k="ssr:date" v="2016-05-10" />
		<tag k="ssr:gruppe" v="kystkontur" />
		<tag k="ssr:hovedgruppe" v="sjø" />
		<tag k="ssr:stedsnr" v="483705" />
		<tag k="ssr:type" v="nesISjø" />
	</node>
	<node lat="62.44695833380678" lon="6.1951249938265045" id="-7064">
		<tag k="name" v="Ytre Karlholmen" />
		<tag k="place" v="islet" />
		<tag k="ssr:date" v="2016-05-10" />
		<tag k="ssr:gruppe" v="kystkontur" />
		<tag k="ssr:hovedgruppe" v="sjø" />
		<tag k="ssr:stedsnr" v="483711" />
		<tag k="ssr:type" v="holmeISjø" />
	</node>
	<node lat="62.4380081511256" lon="6.290604861157291" id="-7066">
		<tag k="fixme" v="consider place=hamlet" />
		<tag k="name" v="Korsneset" />
		<tag k="place" v="farm" />
		<tag k="ssr:date" v="2018-02-21" />
		<tag k="ssr:gruppe" v="gardsbebyggelse" />
		<tag k="ssr:hovedgruppe" v="bebyggelse" />
		<tag k="ssr:stedsnr" v="496055" />
		<tag k="ssr:type" v="gard" />
	</node>
	<node lat="62.438730552436624" lon="6.279627778146468" id="-7070">
		<tag k="name" v="Tranvågen" />
		<tag k="natural" v="bay" />
		<tag k="ssr:date" v="2016-05-10" />
		<tag k="ssr:gruppe" v="kystkontur" />
		<tag k="ssr:hovedgruppe" v="sjø" />
		<tag k="ssr:stedsnr" v="521820" />
		<tag k="ssr:type" v="vågISjø" />
	</node>
	<node lat="62.403805558917675" lon="6.184261103174739" id="-7071">
		<tag k="name" v="Skallerøra" />
		<tag k="natural" v="ridge" />
		<tag k="place" v="locality" />
		<tag k="ssr:date" v="2016-05-10" />
		<tag k="ssr:gruppe" v="høyder" />
		<tag k="ssr:hovedgruppe" v="terreng" />
		<tag k="ssr:stedsnr" v="521910" />
		<tag k="ssr:type" v="rygg" />
	</node>
	<node lat="62.45095833596533" lon="6.189027780844615" id="-7072">
		<tag k="name" v="Storholmsnaget" />
		<tag k="natural" v="cape" />
		<tag k="ssr:date" v="2016-05-10" />
		<tag k="ssr:gruppe" v="kystkontur" />
		<tag k="ssr:hovedgruppe" v="sjø" />
		<tag k="ssr:stedsnr" v="543668" />
		<tag k="ssr:type" v="nesISjø" />
	</node>
	<node lat="62.437790049685645" lon="6.277237331280376" id="-7073">
		<tag k="fixme" v="consider place=hamlet" />
		<tag k="name" v="Tranvåg" />
		<tag k="place" v="farm" />
		<tag k="ssr:date" v="2018-02-21" />
		<tag k="ssr:gruppe" v="gardsbebyggelse" />
		<tag k="ssr:hovedgruppe" v="bebyggelse" />
		<tag k="ssr:stedsnr" v="543770" />
		<tag k="ssr:type" v="gard" />
	</node>
	<node lat="62.43601666211234" lon="6.247688881448276" id="-7074">
		<tag k="name" v="Veddevatnet" />
		<tag k="natural" v="water" />
		<tag k="ssr:date" v="2016-05-10" />
		<tag k="ssr:gruppe" v="stilleståendeVann" />
		<tag k="ssr:hovedgruppe" v="ferskvann" />
		<tag k="ssr:stedsnr" v="543776" />
		<tag k="ssr:type" v="vann" />
		<tag k="water" v="lake" />
	</node>
	<node lat="62.4395916653915" lon="6.204847225879172" id="-7075">
		<tag k="amenity" v="place_of_worship" />
		<tag k="denomination" v="lutheran" />
		<tag k="name" v="Langevåg kyrkje" />
		<tag k="religion" v="christian" />
		<tag k="ssr:date" v="2016-05-11" />
		<tag k="ssr:gruppe" v="kulturinstitusjoner" />
		<tag k="ssr:hovedgruppe" v="kultur" />
		<tag k="ssr:stedsnr" v="687347" />
		<tag k="ssr:type" v="kirke" />
	</node>
	<node lat="62.4166916650021" lon="6.173880560060777" id="-7076">
		<tag k="fixme" v="consider natural=peak for the most distinct mountains in the district" />
		<tag k="name" v="Rundehornet" />
		<tag k="natural" v="hill" />
		<tag k="place" v="locality" />
		<tag k="ssr:date" v="2016-05-10" />
		<tag k="ssr:gruppe" v="høyder" />
		<tag k="ssr:hovedgruppe" v="terreng" />
		<tag k="ssr:stedsnr" v="556920" />
		<tag k="ssr:type" v="ås" />
	</node>
	<node lat="62.437374999142214" lon="6.056725009516436" id="-7077">
		<tag k="alt_name" v="Eltreneset" />
		<tag k="name" v="Eltraneset" />
		<tag k="natural" v="cape" />
		<tag k="ssr:date" v="2016-05-10" />
		<tag k="ssr:gruppe" v="kystkontur" />
		<tag k="ssr:hovedgruppe" v="sjø" />
		<tag k="ssr:stedsnr" v="556970" />
		<tag k="ssr:type" v="nesISjø" />
	</node>
	<node lat="62.44341666542623" lon="6.1938833250395815" id="-7081">
		<tag k="name" v="Haugane" />
		<tag k="natural" v="hill" />
		<tag k="place" v="locality" />
		<tag k="ssr:date" v="2016-05-10" />
		<tag k="ssr:gruppe" v="høyder" />
		<tag k="ssr:hovedgruppe" v="terreng" />
		<tag k="ssr:stedsnr" v="581946" />
		<tag k="ssr:type" v="haug" />
	</node>
	<node lat="62.44019722323822" lon="6.057166673427539" id="-7082">
		<tag k="name" v="Nordre Eltraflua" />
		<tag k="natural" v="shoal" />
		<tag k="place" v="locality" />
		<tag k="ssr:date" v="2016-05-10" />
		<tag k="ssr:gruppe" v="grunnerISjø" />
		<tag k="ssr:hovedgruppe" v="sjø" />
		<tag k="ssr:stedsnr" v="584605" />
		<tag k="ssr:type" v="grunneISjø" />
	</node>
	<node lat="62.45236388938907" lon="6.213313896058349" id="-7086">
		<tag k="name" v="Salflua" />
		<tag k="natural" v="shoal" />
		<tag k="place" v="locality" />
		<tag k="ssr:date" v="2016-05-10" />
		<tag k="ssr:gruppe" v="grunnerISjø" />
		<tag k="ssr:hovedgruppe" v="sjø" />
		<tag k="ssr:stedsnr" v="604703" />
		<tag k="ssr:type" v="grunneISjø" />
	</node>
	<node lat="62.43196389225775" lon="6.351486109812577" id="-7087">
		<tag k="name" v="Vegsundet" />
		<tag k="natural" v="strait" />
		<tag k="ssr:date" v="2019-12-27" />
		<tag k="ssr:gruppe" v="kystkontur" />
		<tag k="ssr:hovedgruppe" v="sjø" />
		<tag k="ssr:stedsnr" v="617049" />
		<tag k="ssr:type" v="sundISjø" />
	</node>
	<node lat="62.40446666808598" lon="6.1066611134594435" id="-7088">
		<tag k="name" v="Naustvika" />
		<tag k="natural" v="bay" />
		<tag k="ssr:date" v="2016-05-10" />
		<tag k="ssr:gruppe" v="kystkontur" />
		<tag k="ssr:hovedgruppe" v="sjø" />
		<tag k="ssr:stedsnr" v="617882" />
		<tag k="ssr:type" v="vikISjø" />
	</node>
	<node lat="62.42264166607444" lon="6.299172218207868" id="-7091">
		<tag k="name" v="Gjerdenakken" />
		<tag k="natural" v="hill" />
		<tag k="place" v="locality" />
		<tag k="ssr:date" v="2016-05-11" />
		<tag k="ssr:gruppe" v="høyder" />
		<tag k="ssr:hovedgruppe" v="terreng" />
		<tag k="ssr:stedsnr" v="703830" />
		<tag k="ssr:type" v="haug" />
	</node>
	<node lat="62.42052778025741" lon="6.305797225373976" id="-7092">
		<tag k="name" v="Demningsmyra" />
		<tag k="natural" v="wetland" />
		<tag k="ssr:date" v="2016-05-11" />
		<tag k="ssr:gruppe" v="våtmark" />
		<tag k="ssr:hovedgruppe" v="markslag" />
		<tag k="ssr:stedsnr" v="703831" />
		<tag k="ssr:type" v="myr" />
	</node>
	<node lat="62.44120833496248" lon="6.251186112873905" id="-7093">
		<tag k="name" v="Djupvikstranda" />
		<tag k="natural" v="beach" />
		<tag k="ssr:date" v="2016-05-11" />
		<tag k="ssr:gruppe" v="kystkontur" />
		<tag k="ssr:hovedgruppe" v="sjø" />
		<tag k="ssr:stedsnr" v="703833" />
		<tag k="ssr:type" v="strandISjø" />
	</node>
	<node lat="62.41427499575253" lon="6.218866675471823" id="-7094">
		<tag k="historic" v="shieling" />
		<tag k="name" v="Humlestølen" />
		<tag k="place" v="isolated_dwelling" />
		<tag k="ssr:date" v="2016-05-11" />
		<tag k="ssr:gruppe" v="gardsbebyggelse" />
		<tag k="ssr:hovedgruppe" v="bebyggelse" />
		<tag k="ssr:stedsnr" v="703844" />
		<tag k="ssr:type" v="seterStøl" />
	</node>
	<node lat="62.442674999340355" lon="6.214066672004683" id="-7095">
		<tag k="name" v="Havnegjerdet" />
		<tag k="place" v="farm" />
		<tag k="ssr:date" v="2016-05-11" />
		<tag k="ssr:gruppe" v="gardsbebyggelse" />
		<tag k="ssr:hovedgruppe" v="bebyggelse" />
		<tag k="ssr:stedsnr" v="703847" />
		<tag k="ssr:type" v="bruk" />
	</node>
	<node lat="62.41298333340294" lon="6.29604445338084" id="-7096">
		<tag k="name" v="Vasshaugane" />
		<tag k="natural" v="hill" />
		<tag k="place" v="locality" />
		<tag k="ssr:date" v="2016-05-11" />
		<tag k="ssr:gruppe" v="høyder" />
		<tag k="ssr:hovedgruppe" v="terreng" />
		<tag k="ssr:stedsnr" v="703853" />
		<tag k="ssr:type" v="haug" />
	</node>
	<node lat="62.42166110680419" lon="6.346411107591005" id="-7097">
		<tag k="name" v="Bruna" />
		<tag k="natural" v="ridge" />
		<tag k="place" v="locality" />
		<tag k="ssr:date" v="2016-05-11" />
		<tag k="ssr:gruppe" v="høyder" />
		<tag k="ssr:hovedgruppe" v="terreng" />
		<tag k="ssr:stedsnr" v="703857" />
		<tag k="ssr:type" v="rygg" />
	</node>
	<node lat="62.41361944501655" lon="6.323041671619404" id="-7098">
		<tag k="name" v="Køvikneset" />
		<tag k="natural" v="cape" />
		<tag k="ssr:date" v="2016-05-11" />
		<tag k="ssr:gruppe" v="kystkontur" />
		<tag k="ssr:hovedgruppe" v="sjø" />
		<tag k="ssr:stedsnr" v="703905" />
		<tag k="ssr:type" v="nesISjø" />
	</node>
	<node lat="62.425799996835316" lon="6.352541675476073" id="-7099">
		<tag k="name" v="Veibustfjellet" />
		<tag k="natural" v="hill" />
		<tag k="place" v="locality" />
		<tag k="ssr:date" v="2016-05-10" />
		<tag k="ssr:gruppe" v="høyder" />
		<tag k="ssr:hovedgruppe" v="terreng" />
		<tag k="ssr:stedsnr" v="634604" />
		<tag k="ssr:type" v="haug" />
	</node>
	<node lat="62.43890555514917" lon="6.210761120435017" id="-7100">
		<tag k="amenity" v="school" />
		<tag k="name" v="Sulahallen" />
		<tag k="ssr:date" v="2016-05-10" />
		<tag k="ssr:gruppe" v="institusjoner" />
		<tag k="ssr:hovedgruppe" v="bebyggelse" />
		<tag k="ssr:stedsnr" v="642810" />
		<tag k="ssr:type" v="skole" />
	</node>
	<node lat="62.41412778039487" lon="6.2022749924633445" id="-7101">
		<tag k="name" v="Taustudalen" />
		<tag k="natural" v="valley" />
		<tag k="place" v="locality" />
		<tag k="ssr:date" v="2016-05-10" />
		<tag k="ssr:gruppe" v="senkninger" />
		<tag k="ssr:hovedgruppe" v="terreng" />
		<tag k="ssr:stedsnr" v="642823" />
		<tag k="ssr:type" v="dal" />
	</node>
	<node lat="62.43704722376599" lon="6.279894435701113" id="-7102">
		<tag k="name" v="Valebukta" />
		<tag k="natural" v="bay" />
		<tag k="ssr:date" v="2016-05-10" />
		<tag k="ssr:gruppe" v="kystkontur" />
		<tag k="ssr:hovedgruppe" v="sjø" />
		<tag k="ssr:stedsnr" v="642908" />
		<tag k="ssr:type" v="vikISjø" />
	</node>
	<node lat="62.42772500353038" lon="6.3115055481990705" id="-7103">
		<tag k="amenity" v="school" />
		<tag k="name" v="Solevåg skole" />
		<tag k="ssr:date" v="2016-05-10" />
		<tag k="ssr:gruppe" v="institusjoner" />
		<tag k="ssr:hovedgruppe" v="bebyggelse" />
		<tag k="ssr:stedsnr" v="642910" />
		<tag k="ssr:type" v="skole" />
	</node>
	<node lat="62.414774999133655" lon="6.340575005666167" id="-7104">
		<tag k="name" v="Legeberget" />
		<tag k="natural" v="hill" />
		<tag k="place" v="locality" />
		<tag k="ssr:date" v="2016-05-10" />
		<tag k="ssr:gruppe" v="høyder" />
		<tag k="ssr:hovedgruppe" v="terreng" />
		<tag k="ssr:stedsnr" v="642876" />
		<tag k="ssr:type" v="berg" />
	</node>
	<node lat="62.43447500422704" lon="6.057961112719874" id="-7105">
		<tag k="name" v="Eltravika" />
		<tag k="natural" v="bay" />
		<tag k="ssr:date" v="2016-05-11" />
		<tag k="ssr:gruppe" v="kystkontur" />
		<tag k="ssr:hovedgruppe" v="sjø" />
		<tag k="ssr:stedsnr" v="706546" />
		<tag k="ssr:type" v="vikISjø" />
	</node>
	<node lat="62.441058335164605" lon="6.283049993146238" id="-7107">
		<tag k="name" v="Tranvågflua" />
		<tag k="natural" v="shoal" />
		<tag k="place" v="locality" />
		<tag k="ssr:date" v="2016-05-10" />
		<tag k="ssr:gruppe" v="grunnerISjø" />
		<tag k="ssr:hovedgruppe" v="sjø" />
		<tag k="ssr:stedsnr" v="665811" />
		<tag k="ssr:type" v="grunneISjø" />
	</node>
	<node lat="62.42818991495337" lon="6.355506073941569" id="-7108">
		<tag k="fixme" v="consider place=hamlet" />
		<tag k="name" v="Veibust" />
		<tag k="place" v="farm" />
		<tag k="ssr:date" v="2018-02-21" />
		<tag k="ssr:gruppe" v="gardsbebyggelse" />
		<tag k="ssr:hovedgruppe" v="bebyggelse" />
		<tag k="ssr:stedsnr" v="678096" />
		<tag k="ssr:type" v="gard" />
	</node>
	<node lat="62.426525003491406" lon="6.17911388111253" id="-7109">
		<tag k="alt_name" v="Moldværselva" />
		<tag k="name" v="Molværselva" />
		<tag k="ssr:date" v="2016-05-11" />
		<tag k="ssr:gruppe" v="rennendeVann" />
		<tag k="ssr:hovedgruppe" v="ferskvann" />
		<tag k="ssr:stedsnr" v="678905" />
		<tag k="ssr:type" v="bekk" />
		<tag k="waterway" v="stream" />
	</node>
	<node lat="62.42327500098864" lon="6.1584249933269675" id="-7110">
		<tag k="amenity" v="cafe" />
		<tag k="name" v="Vonhytta" />
		<tag k="ssr:date" v="2016-05-11" />
		<tag k="ssr:gruppe" v="næring" />
		<tag k="ssr:hovedgruppe" v="bebyggelse" />
		<tag k="ssr:stedsnr" v="687346" />
		<tag k="ssr:type" v="serveringssted" />
	</node>
	<node lat="62.40550277619988" lon="6.308194449607814" id="-7112">
		<tag k="name" v="Linneset" />
		<tag k="natural" v="cape" />
		<tag k="ssr:date" v="2016-05-11" />
		<tag k="ssr:gruppe" v="kystkontur" />
		<tag k="ssr:hovedgruppe" v="sjø" />
		<tag k="ssr:stedsnr" v="703869" />
		<tag k="ssr:type" v="nesISjø" />
	</node>
	<node lat="62.402555556114415" lon="6.266405560675846" id="-7113">
		<tag k="name" v="Kattavika" />
		<tag k="natural" v="bay" />
		<tag k="ssr:date" v="2016-05-11" />
		<tag k="ssr:gruppe" v="kystkontur" />
		<tag k="ssr:hovedgruppe" v="sjø" />
		<tag k="ssr:stedsnr" v="703872" />
		<tag k="ssr:type" v="vikISjø" />
	</node>
	<node lat="62.403049998062635" lon="6.269872218717526" id="-7114">
		<tag k="name" v="Samundstufte" />
		<tag k="place" v="isolated_dwelling" />
		<tag k="ssr:date" v="2016-05-11" />
		<tag k="ssr:gruppe" v="bolighus" />
		<tag k="ssr:hovedgruppe" v="bebyggelse" />
		<tag k="ssr:stedsnr" v="703877" />
		<tag k="ssr:type" v="fritidsbolig" />
	</node>
	<node lat="62.413658331999514" lon="6.220488897417582" id="-7115">
		<tag k="historic" v="shieling" />
		<tag k="name" v="Mausastølen" />
		<tag k="place" v="isolated_dwelling" />
		<tag k="ssr:date" v="2016-05-11" />
		<tag k="ssr:gruppe" v="gardsbebyggelse" />
		<tag k="ssr:hovedgruppe" v="bebyggelse" />
		<tag k="ssr:stedsnr" v="703925" />
		<tag k="ssr:type" v="seterStøl" />
	</node>
	<node lat="62.405483332213926" lon="6.150613889554427" id="-7116">
		<tag k="name" v="Adensgjølet" />
		<tag k="natural" v="gorge" />
		<tag k="ssr:date" v="2016-05-11" />
		<tag k="ssr:gruppe" v="senkninger" />
		<tag k="ssr:hovedgruppe" v="terreng" />
		<tag k="ssr:stedsnr" v="703927" />
		<tag k="ssr:type" v="juv" />
	</node>
	<node lat="62.43013610999872" lon="6.331047216471884" id="-7117">
		<tag k="name" v="Sjukeneset" />
		<tag k="natural" v="cape" />
		<tag k="ssr:date" v="2016-05-11" />
		<tag k="ssr:gruppe" v="kystkontur" />
		<tag k="ssr:hovedgruppe" v="sjø" />
		<tag k="ssr:stedsnr" v="703934" />
		<tag k="ssr:type" v="nesISjø" />
	</node>
	<node lat="62.44386726115857" lon="6.273845696137874" id="-7118">
		<tag k="name" v="Humlesundet" />
		<tag k="natural" v="strait" />
		<tag k="ssr:date" v="2020-06-12" />
		<tag k="ssr:gruppe" v="kystkontur" />
		<tag k="ssr:hovedgruppe" v="sjø" />
		<tag k="ssr:stedsnr" v="703935" />
		<tag k="ssr:type" v="sundISjø" />
	</node>
	<node lat="62.448130554993654" lon="6.195369438086504" id="-7119">
		<tag k="name" v="Vassholmen" />
		<tag k="place" v="locality" />
		<tag k="ssr:date" v="2018-02-21" />
		<tag k="ssr:gruppe" v="gardsbebyggelse" />
		<tag k="ssr:hovedgruppe" v="bebyggelse" />
		<tag k="ssr:stedsnr" v="703938" />
		<tag k="ssr:type" v="eiendom" />
	</node>
	<node lat="62.44099999898178" lon="6.197155556679405" id="-7123">
		<tag k="name" v="Løken" />
		<tag k="place" v="isolated_dwelling" />
		<tag k="ssr:date" v="2016-05-11" />
		<tag k="ssr:gruppe" v="bolighus" />
		<tag k="ssr:hovedgruppe" v="bebyggelse" />
		<tag k="ssr:stedsnr" v="726698" />
		<tag k="ssr:type" v="eneboligMindreBoligbygg" />
	</node>
	<node lat="62.43663611268776" lon="6.222861111739136" id="-7124">
		<tag k="name" v="Gjerde" />
		<tag k="place" v="farm" />
		<tag k="ssr:date" v="2016-05-11" />
		<tag k="ssr:gruppe" v="gardsbebyggelse" />
		<tag k="ssr:hovedgruppe" v="bebyggelse" />
		<tag k="ssr:stedsnr" v="901688" />
		<tag k="ssr:type" v="bruk" />
	</node>
	<node lat="62.412453244967736" lon="6.300566061786925" id="-7125">
		<tag k="fixme" v="consider natural=peak for the most distinct mountains in the district" />
		<tag k="name" v="Solavågsfjellet" />
		<tag k="natural" v="hill" />
		<tag k="place" v="locality" />
		<tag k="ssr:date" v="2018-04-26" />
		<tag k="ssr:gruppe" v="høyder" />
		<tag k="ssr:hovedgruppe" v="terreng" />
		<tag k="ssr:stedsnr" v="738076" />
		<tag k="ssr:type" v="ås" />
	</node>
	<node lat="62.43544727962972" lon="6.237835213839439" id="-7127">
		<tag k="fixme" v="consider place=hamlet" />
		<tag k="name" v="Vedde" />
		<tag k="place" v="farm" />
		<tag k="ssr:date" v="2018-02-21" />
		<tag k="ssr:gruppe" v="gardsbebyggelse" />
		<tag k="ssr:hovedgruppe" v="bebyggelse" />
		<tag k="ssr:stedsnr" v="753124" />
		<tag k="ssr:type" v="gard" />
	</node>
	<node lat="62.427799997406744" lon="6.159769444988314" id="-7132">
		<tag k="name" v="Grønbakkhola" />
		<tag k="natural" v="valley" />
		<tag k="place" v="locality" />
		<tag k="ssr:date" v="2016-05-11" />
		<tag k="ssr:gruppe" v="senkninger" />
		<tag k="ssr:hovedgruppe" v="terreng" />
		<tag k="ssr:stedsnr" v="763801" />
		<tag k="ssr:type" v="botn" />
	</node>
	<node lat="62.424636111942" lon="6.157388888466676" id="-7133">
		<tag k="name" v="Rødekorshytta" />
		<tag k="place" v="isolated_dwelling" />
		<tag k="ssr:date" v="2016-05-11" />
		<tag k="ssr:gruppe" v="bolighus" />
		<tag k="ssr:hovedgruppe" v="bebyggelse" />
		<tag k="ssr:stedsnr" v="763918" />
		<tag k="ssr:type" v="fritidsbolig" />
	</node>
	<node lat="62.4497749974173" lon="6.222730554419512" id="-7134">
		<tag k="name" v="Djuphamna" />
		<tag k="natural" v="bay" />
		<tag k="ssr:date" v="2016-05-11" />
		<tag k="ssr:gruppe" v="kystkontur" />
		<tag k="ssr:hovedgruppe" v="sjø" />
		<tag k="ssr:stedsnr" v="763808" />
		<tag k="ssr:type" v="vikISjø" />
	</node>
	<node lat="62.40885000416257" lon="6.320902769369482" id="-7135">
		<tag k="name" v="Klubben" />
		<tag k="natural" v="cape" />
		<tag k="ssr:date" v="2016-05-11" />
		<tag k="ssr:gruppe" v="kystkontur" />
		<tag k="ssr:hovedgruppe" v="sjø" />
		<tag k="ssr:stedsnr" v="763814" />
		<tag k="ssr:type" v="nesISjø" />
	</node>
	<node lat="62.4322444452829" lon="6.192575008812903" id="-7136">
		<tag k="name" v="Harhaugen" />
		<tag k="natural" v="hill" />
		<tag k="place" v="locality" />
		<tag k="ssr:date" v="2016-05-11" />
		<tag k="ssr:gruppe" v="høyder" />
		<tag k="ssr:hovedgruppe" v="terreng" />
		<tag k="ssr:stedsnr" v="763817" />
		<tag k="ssr:type" v="haug" />
	</node>
	<node lat="62.4178833377294" lon="6.190194442651877" id="-7137">
		<tag k="name" v="Sauegeila" />
		<tag k="place" v="locality" />
		<tag k="ssr:date" v="2016-05-11" />
		<tag k="ssr:gruppe" v="dyrkamark" />
		<tag k="ssr:hovedgruppe" v="markslag" />
		<tag k="ssr:stedsnr" v="763818" />
		<tag k="ssr:type" v="havnehage" />
	</node>
	<node lat="62.40623889179004" lon="6.154719445645866" id="-7138">
		<tag k="fixme" v="consider natural=peak for the most distinct mountains in the district" />
		<tag k="name" v="Tussnipen" />
		<tag k="natural" v="hill" />
		<tag k="place" v="locality" />
		<tag k="ssr:date" v="2016-05-11" />
		<tag k="ssr:gruppe" v="høyder" />
		<tag k="ssr:hovedgruppe" v="terreng" />
		<tag k="ssr:stedsnr" v="763841" />
		<tag k="ssr:type" v="ås" />
	</node>
	<node lat="62.41357222041318" lon="6.320980553637327" id="-7139">
		<tag k="name" v="Køvikleira" />
		<tag k="natural" v="bay" />
		<tag k="ssr:date" v="2016-05-11" />
		<tag k="ssr:gruppe" v="kystkontur" />
		<tag k="ssr:hovedgruppe" v="sjø" />
		<tag k="ssr:stedsnr" v="763846" />
		<tag k="ssr:type" v="vikISjø" />
	</node>
	<node lat="62.44515000200479" lon="6.214591664436236" id="-7140">
		<tag k="name" v="Heidegjerdet" />
		<tag k="place" v="farm" />
		<tag k="ssr:date" v="2016-05-11" />
		<tag k="ssr:gruppe" v="gardsbebyggelse" />
		<tag k="ssr:hovedgruppe" v="bebyggelse" />
		<tag k="ssr:stedsnr" v="763856" />
		<tag k="ssr:type" v="bruk" />
	</node>
	<node lat="62.416838891958676" lon="6.351766656828737" id="-7141">
		<tag k="name" v="Lahellestranda" />
		<tag k="natural" v="beach" />
		<tag k="ssr:date" v="2016-05-11" />
		<tag k="ssr:gruppe" v="kystkontur" />
		<tag k="ssr:hovedgruppe" v="sjø" />
		<tag k="ssr:stedsnr" v="763891" />
		<tag k="ssr:type" v="strandISjø" />
	</node>
	<node lat="62.41940833694225" lon="6.3487333296191055" id="-7142">
		<tag k="name" v="Haggardhaugsletta" />
		<tag k="place" v="locality" />
		<tag k="ssr:date" v="2016-05-11" />
		<tag k="ssr:gruppe" v="flater" />
		<tag k="ssr:hovedgruppe" v="terreng" />
		<tag k="ssr:stedsnr" v="763892" />
		<tag k="ssr:type" v="slette" />
	</node>
	<node lat="62.42307777969251" lon="6.269141665413403" id="-7143">
		<tag k="amenity" v="school" />
		<tag k="name" v="Mauseid skole" />
		<tag k="ssr:date" v="2016-05-11" />
		<tag k="ssr:gruppe" v="institusjoner" />
		<tag k="ssr:hovedgruppe" v="bebyggelse" />
		<tag k="ssr:stedsnr" v="763897" />
		<tag k="ssr:type" v="skole" />
	</node>
	<node lat="62.409875001745476" lon="6.269483338971266" id="-7144">
		<tag k="name" v="Bytingsneset" />
		<tag k="natural" v="cape" />
		<tag k="ssr:date" v="2016-05-11" />
		<tag k="ssr:gruppe" v="ferskvannskontur" />
		<tag k="ssr:hovedgruppe" v="ferskvann" />
		<tag k="ssr:stedsnr" v="763902" />
		<tag k="ssr:type" v="nes" />
	</node>
	<node lat="62.44144444231227" lon="6.188933328603092" id="-7145">
		<tag k="name" v="Syversanden" />
		<tag k="natural" v="shoal" />
		<tag k="place" v="locality" />
		<tag k="ssr:date" v="2016-05-11" />
		<tag k="ssr:gruppe" v="grunnerISjø" />
		<tag k="ssr:hovedgruppe" v="sjø" />
		<tag k="ssr:stedsnr" v="908713" />
		<tag k="ssr:type" v="grunneISjø" />
	</node>
	<node lat="62.42674999691492" lon="6.2739638906173605" id="-7146">
		<tag k="name" v="Røbekk" />
		<tag k="place" v="farm" />
		<tag k="ssr:date" v="2016-05-11" />
		<tag k="ssr:gruppe" v="gardsbebyggelse" />
		<tag k="ssr:hovedgruppe" v="bebyggelse" />
		<tag k="ssr:stedsnr" v="786119" />
		<tag k="ssr:type" v="bruk" />
	</node>
	<node lat="62.44544444206609" lon="6.205988881177477" id="-7147">
		<tag k="name" v="Fyllingsvågen" />
		<tag k="natural" v="bay" />
		<tag k="ssr:date" v="2016-05-11" />
		<tag k="ssr:gruppe" v="kystkontur" />
		<tag k="ssr:hovedgruppe" v="sjø" />
		<tag k="ssr:stedsnr" v="786705" />
		<tag k="ssr:type" v="vikISjø" />
	</node>
	<node lat="62.42274444723729" lon="6.310436111931226" id="-7148">
		<tag k="name" v="Storevalen" />
		<tag k="place" v="farm" />
		<tag k="ssr:date" v="2016-05-11" />
		<tag k="ssr:gruppe" v="gardsbebyggelse" />
		<tag k="ssr:hovedgruppe" v="bebyggelse" />
		<tag k="ssr:stedsnr" v="799091" />
		<tag k="ssr:type" v="bruk" />
	</node>
	<node lat="62.426642914920144" lon="6.35914063627661" id="-7150">
		<tag k="fixme" v="consider place=hamlet" />
		<tag k="name" v="Kongshaugen" />
		<tag k="place" v="farm" />
		<tag k="ssr:date" v="2018-02-21" />
		<tag k="ssr:gruppe" v="gardsbebyggelse" />
		<tag k="ssr:hovedgruppe" v="bebyggelse" />
		<tag k="ssr:stedsnr" v="799098" />
		<tag k="ssr:type" v="gard" />
	</node>
	<node lat="62.40834166650212" lon="6.226933339704083" id="-7152">
		<tag k="name" v="Storelva" />
		<tag k="ssr:date" v="2016-05-11" />
		<tag k="ssr:gruppe" v="rennendeVann" />
		<tag k="ssr:hovedgruppe" v="ferskvann" />
		<tag k="ssr:stedsnr" v="800633" />
		<tag k="ssr:type" v="bekk" />
		<tag k="waterway" v="stream" />
	</node>
	<node lat="62.42770277895332" lon="6.061008331898669" id="-7153">
		<tag k="alt_name" v="Trælbåneset" />
		<tag k="name" v="Trælbodneset" />
		<tag k="natural" v="cape" />
		<tag k="ssr:date" v="2016-05-11" />
		<tag k="ssr:gruppe" v="kystkontur" />
		<tag k="ssr:hovedgruppe" v="sjø" />
		<tag k="ssr:stedsnr" v="800903" />
		<tag k="ssr:type" v="nesISjø" />
	</node>
	<node lat="62.44318125407054" lon="6.23578578837394" id="-7154">
		<tag k="alt_name" v="Holsfita" />
		<tag k="name" v="Holsfeta" />
		<tag k="natural" v="cape" />
		<tag k="ssr:date" v="2018-02-21" />
		<tag k="ssr:gruppe" v="kystkontur" />
		<tag k="ssr:hovedgruppe" v="sjø" />
		<tag k="ssr:stedsnr" v="921061" />
		<tag k="ssr:type" v="nesISjø" />
	</node>
	<node lat="62.43482777636828" lon="6.264586114132315" id="-7155">
		<tag k="name" v="Storevassholmen" />
		<tag k="place" v="islet" />
		<tag k="ssr:date" v="2016-05-11" />
		<tag k="ssr:gruppe" v="ferskvannskontur" />
		<tag k="ssr:hovedgruppe" v="ferskvann" />
		<tag k="ssr:stedsnr" v="824911" />
		<tag k="ssr:type" v="holme" />
	</node>
	<node lat="62.4443027774325" lon="6.202452775823352" id="-7156">
		<tag k="fixme" v="consider place=hamlet" />
		<tag k="name" v="Fyllingen" />
		<tag k="place" v="farm" />
		<tag k="ssr:date" v="2018-02-21" />
		<tag k="ssr:gruppe" v="gardsbebyggelse" />
		<tag k="ssr:hovedgruppe" v="bebyggelse" />
		<tag k="ssr:stedsnr" v="824920" />
		<tag k="ssr:type" v="gard" />
	</node>
	<node lat="62.413277779241625" lon="6.16556388048588" id="-7157">
		<tag k="fixme" v="consider natural=peak for the most distinct mountains in the district" />
		<tag k="name" v="Vardane" />
		<tag k="natural" v="hill" />
		<tag k="place" v="locality" />
		<tag k="ssr:date" v="2016-05-11" />
		<tag k="ssr:gruppe" v="høyder" />
		<tag k="ssr:hovedgruppe" v="terreng" />
		<tag k="ssr:stedsnr" v="921871" />
		<tag k="ssr:type" v="ås" />
	</node>
	<node lat="62.39539839415434" lon="6.178836426708839" id="-7158">
		<tag k="fixme" v="consider place=hamlet" />
		<tag k="name" v="Kyrkjebø" />
		<tag k="place" v="farm" />
		<tag k="ssr:date" v="2018-02-21" />
		<tag k="ssr:gruppe" v="gardsbebyggelse" />
		<tag k="ssr:hovedgruppe" v="bebyggelse" />
		<tag k="ssr:stedsnr" v="921890" />
		<tag k="ssr:type" v="gard" />
	</node>
	<node lat="62.458183336872125" lon="6.198124998150761" id="-7159">
		<tag k="bay" v="fjord" />
		<tag k="name" v="Borgundfjorden" />
		<tag k="natural" v="bay" />
		<tag k="ssr:date" v="2019-12-27" />
		<tag k="ssr:gruppe" v="farvann" />
		<tag k="ssr:hovedgruppe" v="sjø" />
		<tag k="ssr:stedsnr" v="921948" />
		<tag k="ssr:type" v="fjord" />
	</node>
	<node lat="62.432605553890916" lon="6.157455551037854" id="-7161">
		<tag k="fixme" v="consider natural=peak for the most distinct mountains in the district" />
		<tag k="name" v="Blåfjellet" />
		<tag k="natural" v="hill" />
		<tag k="place" v="locality" />
		<tag k="ssr:date" v="2016-05-11" />
		<tag k="ssr:gruppe" v="høyder" />
		<tag k="ssr:hovedgruppe" v="terreng" />
		<tag k="ssr:stedsnr" v="860914" />
		<tag k="ssr:type" v="ås" />
	</node>
	<node lat="62.43910277727887" lon="6.064911106990495" id="-7163">
		<tag k="name" v="Gjøtta" />
		<tag k="natural" v="cape" />
		<tag k="ssr:date" v="2016-05-11" />
		<tag k="ssr:gruppe" v="kystkontur" />
		<tag k="ssr:hovedgruppe" v="sjø" />
		<tag k="ssr:stedsnr" v="860977" />
		<tag k="ssr:type" v="nesISjø" />
	</node>
	<node lat="62.434730557092074" lon="6.195558337124971" id="-7166">
		<tag k="name" v="Legene" />
		<tag k="place" v="locality" />
		<tag k="ssr:date" v="2016-05-11" />
		<tag k="ssr:gruppe" v="dyrkamark" />
		<tag k="ssr:hovedgruppe" v="markslag" />
		<tag k="ssr:stedsnr" v="885816" />
		<tag k="ssr:type" v="havnehage" />
	</node>
	<node lat="62.43858888943056" lon="6.149711112613789" id="-7167">
		<tag k="name" v="Æhammarsvika" />
		<tag k="natural" v="bay" />
		<tag k="ssr:date" v="2016-05-11" />
		<tag k="ssr:gruppe" v="kystkontur" />
		<tag k="ssr:hovedgruppe" v="sjø" />
		<tag k="ssr:stedsnr" v="885797" />
		<tag k="ssr:type" v="vikISjø" />
	</node>
	<node lat="62.45003888913752" lon="6.210727781267005" id="-7168">
		<tag k="name" v="Urvika" />
		<tag k="natural" v="bay" />
		<tag k="ssr:date" v="2016-05-11" />
		<tag k="ssr:gruppe" v="kystkontur" />
		<tag k="ssr:hovedgruppe" v="sjø" />
		<tag k="ssr:stedsnr" v="885801" />
		<tag k="ssr:type" v="vikISjø" />
	</node>
	<node lat="62.438749995618764" lon="6.213297216352116" id="-7169">
		<tag k="amenity" v="school" />
		<tag k="name" v="Sula vidaregåande skule" />
		<tag k="ssr:date" v="2016-05-11" />
		<tag k="ssr:gruppe" v="institusjoner" />
		<tag k="ssr:hovedgruppe" v="bebyggelse" />
		<tag k="ssr:stedsnr" v="885907" />
		<tag k="ssr:type" v="skole" />
	</node>
	<node lat="62.42105478367084" lon="6.271989862540565" id="-7173">
		<tag k="fixme" v="consider place=hamlet" />
		<tag k="name" v="Mauseidvågen" />
		<tag k="place" v="village" />
		<tag k="ssr:date" v="2018-04-26" />
		<tag k="ssr:gruppe" v="bebyggelsesområder" />
		<tag k="ssr:hovedgruppe" v="bebyggelse" />
		<tag k="ssr:stedsnr" v="920093" />
		<tag k="ssr:type" v="bygdelagBygd" />
	</node>
	<node lat="62.42993611445574" lon="6.30940277070419" id="-7174">
		<tag k="name" v="Eidsneset" />
		<tag k="natural" v="cape" />
		<tag k="ssr:date" v="2016-05-11" />
		<tag k="ssr:gruppe" v="kystkontur" />
		<tag k="ssr:hovedgruppe" v="sjø" />
		<tag k="ssr:stedsnr" v="921045" />
		<tag k="ssr:type" v="nesISjø" />
	</node>
	<node lat="62.40407804879736" lon="6.271317749049859" id="-7175">
		<tag k="alt_name" v="Eikremsvika" />
		<tag k="fixme" v="consider place=hamlet" />
		<tag k="name" v="Eikreimsvika" />
		<tag k="place" v="farm" />
		<tag k="ssr:date" v="2018-02-21" />
		<tag k="ssr:gruppe" v="gardsbebyggelse" />
		<tag k="ssr:hovedgruppe" v="bebyggelse" />
		<tag k="ssr:stedsnr" v="921104" />
		<tag k="ssr:type" v="gard" />
	</node>
	<node lat="62.42188610911391" lon="6.070550003138255" id="-7176">
		<tag k="name" v="Raudnesvika" />
		<tag k="natural" v="bay" />
		<tag k="ssr:date" v="2016-05-11" />
		<tag k="ssr:gruppe" v="kystkontur" />
		<tag k="ssr:hovedgruppe" v="sjø" />
		<tag k="ssr:stedsnr" v="921914" />
		<tag k="ssr:type" v="vikISjø" />
	</node>
	<node lat="62.438966670821706" lon="6.1771361048406686" id="-7180">
		<tag k="name" v="Molværsmyra" />
		<tag k="place" v="farm" />
		<tag k="ssr:date" v="2016-05-11" />
		<tag k="ssr:gruppe" v="gardsbebyggelse" />
		<tag k="ssr:hovedgruppe" v="bebyggelse" />
		<tag k="ssr:stedsnr" v="946928" />
		<tag k="ssr:type" v="bruk" />
	</node>
	<node lat="62.44456944348733" lon="6.18307500556113" id="-7181">
		<tag k="name" v="Peneset" />
		<tag k="natural" v="cape" />
		<tag k="ssr:date" v="2016-05-11" />
		<tag k="ssr:gruppe" v="kystkontur" />
		<tag k="ssr:hovedgruppe" v="sjø" />
		<tag k="ssr:stedsnr" v="946929" />
		<tag k="ssr:type" v="nesISjø" />
	</node>
	<node lat="62.443280554740774" lon="6.26910277945805" id="-7182">
		<tag k="name" v="Fiskarstranda" />
		<tag k="natural" v="beach" />
		<tag k="ssr:date" v="2016-05-11" />
		<tag k="ssr:gruppe" v="kystkontur" />
		<tag k="ssr:hovedgruppe" v="sjø" />
		<tag k="ssr:stedsnr" v="968806" />
		<tag k="ssr:type" v="strandISjø" />
	</node>
	<node lat="62.413941146115874" lon="6.269822802992559" id="-7183">
		<tag k="fixme" v="consider place=hamlet" />
		<tag k="name" v="Karlsbakken" />
		<tag k="place" v="farm" />
		<tag k="ssr:date" v="2018-02-21" />
		<tag k="ssr:gruppe" v="gardsbebyggelse" />
		<tag k="ssr:hovedgruppe" v="bebyggelse" />
		<tag k="ssr:stedsnr" v="10070" />
		<tag k="ssr:type" v="gard" />
	</node>
	<node lat="62.40908055571333" lon="6.200083325021398" id="-7184">
		<tag k="alt_name" v="Tverråna;Tveråa" />
		<tag k="name" v="Storelva" />
		<tag k="ssr:date" v="2016-05-10" />
		<tag k="ssr:gruppe" v="rennendeVann" />
		<tag k="ssr:hovedgruppe" v="ferskvann" />
		<tag k="ssr:stedsnr" v="11877" />
		<tag k="ssr:type" v="bekk" />
		<tag k="waterway" v="stream" />
	</node>
	<node lat="62.40615000281662" lon="6.313472231501621" id="-7191">
		<tag k="name" v="Skarvhammaren" />
		<tag k="natural" v="cliff" />
		<tag k="ssr:date" v="2016-05-10" />
		<tag k="ssr:gruppe" v="terrengdetaljer" />
		<tag k="ssr:hovedgruppe" v="terreng" />
		<tag k="ssr:stedsnr" v="35876" />
		<tag k="ssr:type" v="stup" />
	</node>
	<node lat="62.423213888354894" lon="6.157788880916554" id="-7192">
		<tag k="name" v="Von-hytta" />
		<tag k="place" v="isolated_dwelling" />
		<tag k="ssr:date" v="2016-05-10" />
		<tag k="ssr:gruppe" v="bolighus" />
		<tag k="ssr:hovedgruppe" v="bebyggelse" />
		<tag k="ssr:stedsnr" v="35934" />
		<tag k="ssr:type" v="fritidsbolig" />
	</node>
	<node lat="62.44869523200299" lon="6.209248555369444" id="-7193">
		<tag k="name" v="Jyljebø" />
		<tag k="place" v="locality" />
		<tag k="ssr:date" v="2018-02-21" />
		<tag k="ssr:gruppe" v="gardsbebyggelse" />
		<tag k="ssr:hovedgruppe" v="bebyggelse" />
		<tag k="ssr:stedsnr" v="35943" />
		<tag k="ssr:type" v="eiendom" />
	</node>
	<node lat="62.44061371955354" lon="6.172067759542129" id="-7194">
		<tag k="name" v="Myraneset" />
		<tag k="natural" v="cape" />
		<tag k="ssr:date" v="2018-04-23" />
		<tag k="ssr:gruppe" v="kystkontur" />
		<tag k="ssr:hovedgruppe" v="sjø" />
		<tag k="ssr:stedsnr" v="35825" />
		<tag k="ssr:type" v="nesISjø" />
	</node>
	<node lat="62.42390833666442" lon="6.291633338424741" id="-7195">
		<tag k="name" v="Klubben" />
		<tag k="natural" v="cape" />
		<tag k="ssr:date" v="2016-05-10" />
		<tag k="ssr:gruppe" v="kystkontur" />
		<tag k="ssr:hovedgruppe" v="sjø" />
		<tag k="ssr:stedsnr" v="35830" />
		<tag k="ssr:type" v="nesISjø" />
	</node>
	<node lat="62.42364166549647" lon="6.262830561971002" id="-7196">
		<tag k="name" v="Svartevasselva" />
		<tag k="ssr:date" v="2016-05-10" />
		<tag k="ssr:gruppe" v="rennendeVann" />
		<tag k="ssr:hovedgruppe" v="ferskvann" />
		<tag k="ssr:stedsnr" v="35835" />
		<tag k="ssr:type" v="bekk" />
		<tag k="waterway" v="stream" />
	</node>
	<node lat="62.444983331692505" lon="6.209108336067002" id="-7197">
		<tag k="name" v="Åregjerdet" />
		<tag k="place" v="farm" />
		<tag k="ssr:date" v="2016-05-10" />
		<tag k="ssr:gruppe" v="gardsbebyggelse" />
		<tag k="ssr:hovedgruppe" v="bebyggelse" />
		<tag k="ssr:stedsnr" v="35836" />
		<tag k="ssr:type" v="bruk" />
	</node>
	<node lat="62.41106111156735" lon="6.258825009245012" id="-7198">
		<tag k="name" v="Tverråneset" />
		<tag k="natural" v="cape" />
		<tag k="ssr:date" v="2016-05-10" />
		<tag k="ssr:gruppe" v="ferskvannskontur" />
		<tag k="ssr:hovedgruppe" v="ferskvann" />
		<tag k="ssr:stedsnr" v="35840" />
		<tag k="ssr:type" v="nes" />
	</node>
	<node lat="62.438958330932" lon="6.184475004963715" id="-7199">
		<tag k="amenity" v="kindergarten" />
		<tag k="name" v="Molvær" />
		<tag k="ssr:date" v="2016-05-10" />
		<tag k="ssr:gruppe" v="institusjoner" />
		<tag k="ssr:hovedgruppe" v="bebyggelse" />
		<tag k="ssr:stedsnr" v="35843" />
		<tag k="ssr:type" v="barnehage" />
	</node>
	<node lat="62.447772221244605" lon="6.17705277351667" id="-7200">
		<tag k="name" v="Nålaugholmen" />
		<tag k="place" v="islet" />
		<tag k="ssr:date" v="2016-05-10" />
		<tag k="ssr:gruppe" v="kystkontur" />
		<tag k="ssr:hovedgruppe" v="sjø" />
		<tag k="ssr:stedsnr" v="58695" />
		<tag k="ssr:type" v="holmeISjø" />
	</node>
	<node lat="62.445719444443014" lon="6.171566661261068" id="-7201">
		<tag k="name" v="Brørne" />
		<tag k="natural" v="shoal" />
		<tag k="place" v="locality" />
		<tag k="ssr:date" v="2016-05-10" />
		<tag k="ssr:gruppe" v="grunnerISjø" />
		<tag k="ssr:hovedgruppe" v="sjø" />
		<tag k="ssr:stedsnr" v="58700" />
		<tag k="ssr:type" v="grunneISjø" />
	</node>
	<node lat="62.40473333772537" lon="6.299641662261766" id="-7202">
		<tag k="alt_name" v="Ramsvikbukta" />
		<tag k="name" v="Ramsvika" />
		<tag k="natural" v="bay" />
		<tag k="ssr:date" v="2016-05-10" />
		<tag k="ssr:gruppe" v="kystkontur" />
		<tag k="ssr:hovedgruppe" v="sjø" />
		<tag k="ssr:stedsnr" v="71118" />
		<tag k="ssr:type" v="vikISjø" />
	</node>
	<node lat="62.42878421661433" lon="6.3434419603832595" id="-7203">
		<tag k="fixme" v="consider place=hamlet" />
		<tag k="name" v="Reitehaugen" />
		<tag k="place" v="farm" />
		<tag k="ssr:date" v="2018-02-21" />
		<tag k="ssr:gruppe" v="gardsbebyggelse" />
		<tag k="ssr:hovedgruppe" v="bebyggelse" />
		<tag k="ssr:stedsnr" v="71089" />
		<tag k="ssr:type" v="gard" />
	</node>
	<node lat="62.43571844424101" lon="6.277744223633313" id="-7204">
		<tag k="fixme" v="consider place=hamlet" />
		<tag k="name" v="Valen" />
		<tag k="place" v="farm" />
		<tag k="ssr:date" v="2018-02-21" />
		<tag k="ssr:gruppe" v="gardsbebyggelse" />
		<tag k="ssr:hovedgruppe" v="bebyggelse" />
		<tag k="ssr:stedsnr" v="72034" />
		<tag k="ssr:type" v="gard" />
	</node>
	<node lat="62.435570441734335" lon="6.286696902254433" id="-7205">
		<tag k="alt_name" v="Blomvik" />
		<tag k="fixme" v="consider place=hamlet" />
		<tag k="name" v="Blomvika" />
		<tag k="place" v="farm" />
		<tag k="ssr:date" v="2018-02-21" />
		<tag k="ssr:gruppe" v="gardsbebyggelse" />
		<tag k="ssr:hovedgruppe" v="bebyggelse" />
		<tag k="ssr:stedsnr" v="72045" />
		<tag k="ssr:type" v="gard" />
	</node>
	<node lat="62.42907222454639" lon="6.281938883189691" id="-7209">
		<tag k="name" v="Haneneset" />
		<tag k="natural" v="cape" />
		<tag k="ssr:date" v="2016-05-10" />
		<tag k="ssr:gruppe" v="kystkontur" />
		<tag k="ssr:hovedgruppe" v="sjø" />
		<tag k="ssr:stedsnr" v="96818" />
		<tag k="ssr:type" v="nesISjø" />
	</node>
	<node lat="62.43871111009644" lon="6.185927774966807" id="-7210">
		<tag k="amenity" v="school" />
		<tag k="name" v="Molvær skule" />
		<tag k="ssr:date" v="2016-05-10" />
		<tag k="ssr:gruppe" v="institusjoner" />
		<tag k="ssr:hovedgruppe" v="bebyggelse" />
		<tag k="ssr:stedsnr" v="96828" />
		<tag k="ssr:type" v="skole" />
	</node>
	<node lat="62.43806666958539" lon="6.2188916584613" id="-7211">
		<tag k="name" v="Bratthaugen" />
		<tag k="natural" v="hill" />
		<tag k="place" v="locality" />
		<tag k="ssr:date" v="2016-05-10" />
		<tag k="ssr:gruppe" v="høyder" />
		<tag k="ssr:hovedgruppe" v="terreng" />
		<tag k="ssr:stedsnr" v="96830" />
		<tag k="ssr:type" v="haug" />
	</node>
	<node lat="62.409269444091535" lon="6.240905562577329" id="-7212">
		<tag k="name" v="Storemyra" />
		<tag k="natural" v="wetland" />
		<tag k="ssr:date" v="2016-05-10" />
		<tag k="ssr:gruppe" v="våtmark" />
		<tag k="ssr:hovedgruppe" v="markslag" />
		<tag k="ssr:stedsnr" v="96837" />
		<tag k="ssr:type" v="myr" />
	</node>
	<node lat="62.406694447806316" lon="6.111569441306135" id="-7213">
		<tag k="name" v="Storstølbrua" />
		<tag k="natural" v="cliff" />
		<tag k="ssr:date" v="2016-05-10" />
		<tag k="ssr:gruppe" v="terrengdetaljer" />
		<tag k="ssr:hovedgruppe" v="terreng" />
		<tag k="ssr:stedsnr" v="96848" />
		<tag k="ssr:type" v="stup" />
	</node>
	<node lat="62.43581388551299" lon="6.1923861023950835" id="-7214">
		<tag k="name" v="Molværsrema" />
		<tag k="place" v="farm" />
		<tag k="ssr:date" v="2016-05-10" />
		<tag k="ssr:gruppe" v="gardsbebyggelse" />
		<tag k="ssr:hovedgruppe" v="bebyggelse" />
		<tag k="ssr:stedsnr" v="96857" />
		<tag k="ssr:type" v="bruk" />
	</node>
	<node lat="62.44762371896259" lon="6.192091344819215" id="-7215">
		<tag k="fixme" v="consider place=hamlet" />
		<tag k="name" v="Hattholmen" />
		<tag k="place" v="farm" />
		<tag k="ssr:date" v="2018-04-17" />
		<tag k="ssr:gruppe" v="gardsbebyggelse" />
		<tag k="ssr:hovedgruppe" v="bebyggelse" />
		<tag k="ssr:stedsnr" v="96923" />
		<tag k="ssr:type" v="gard" />
	</node>
	<node lat="62.39577500126446" lon="6.1590333354887585" id="-7216">
		<tag k="name" v="Øygardsvika" />
		<tag k="natural" v="bay" />
		<tag k="ssr:date" v="2016-05-10" />
		<tag k="ssr:gruppe" v="kystkontur" />
		<tag k="ssr:hovedgruppe" v="sjø" />
		<tag k="ssr:stedsnr" v="112483" />
		<tag k="ssr:type" v="vikISjø" />
	</node>
	<node lat="62.41055000030246" lon="6.321158340817873" id="-7217">
		<tag k="name" v="Verpingsberga" />
		<tag k="natural" v="hill" />
		<tag k="place" v="locality" />
		<tag k="ssr:date" v="2016-05-10" />
		<tag k="ssr:gruppe" v="høyder" />
		<tag k="ssr:hovedgruppe" v="terreng" />
		<tag k="ssr:stedsnr" v="156826" />
		<tag k="ssr:type" v="berg" />
	</node>
	<node lat="62.42534166405209" lon="6.17916666301906" id="-7218">
		<tag k="historic" v="shieling" />
		<tag k="name" v="Gamlestølen" />
		<tag k="place" v="locality" />
		<tag k="ssr:date" v="2016-05-10" />
		<tag k="ssr:gruppe" v="dyrkamark" />
		<tag k="ssr:hovedgruppe" v="markslag" />
		<tag k="ssr:stedsnr" v="156830" />
		<tag k="ssr:type" v="setervoll" />
	</node>
	<node lat="62.42507222378219" lon="6.335783329110114" id="-7219">
		<tag k="alt_name" v="Høgefjellet" />
		<tag k="fixme" v="consider natural=peak for the most distinct mountains in the district" />
		<tag k="name" v="Leirvågfjellet" />
		<tag k="natural" v="hill" />
		<tag k="place" v="locality" />
		<tag k="ssr:date" v="2016-05-10" />
		<tag k="ssr:gruppe" v="høyder" />
		<tag k="ssr:hovedgruppe" v="terreng" />
		<tag k="ssr:stedsnr" v="132077" />
		<tag k="ssr:type" v="ås" />
	</node>
	<node lat="62.44035555946799" lon="6.27198610920516" id="-7220">
		<tag k="fixme" v="consider place=hamlet" />
		<tag k="name" v="Fiskarstranda" />
		<tag k="place" v="village" />
		<tag k="ssr:date" v="2016-05-10" />
		<tag k="ssr:gruppe" v="bebyggelsesområder" />
		<tag k="ssr:hovedgruppe" v="bebyggelse" />
		<tag k="ssr:stedsnr" v="132045" />
		<tag k="ssr:type" v="bygdelagBygd" />
	</node>
	<node lat="62.40829166291554" lon="6.10654444069323" id="-7222">
		<tag k="name" v="Storelva" />
		<tag k="ssr:date" v="2016-05-10" />
		<tag k="ssr:gruppe" v="rennendeVann" />
		<tag k="ssr:hovedgruppe" v="ferskvann" />
		<tag k="ssr:stedsnr" v="132878" />
		<tag k="ssr:type" v="bekk" />
		<tag k="waterway" v="stream" />
	</node>
	<node lat="62.43549722270623" lon="6.0844527830119475" id="-7224">
		<tag k="name" v="Storura" />
		<tag k="natural" v="scree" />
		<tag k="ssr:date" v="2016-05-10" />
		<tag k="ssr:gruppe" v="løsmasseavsetninger" />
		<tag k="ssr:hovedgruppe" v="markslag" />
		<tag k="ssr:stedsnr" v="132957" />
		<tag k="ssr:type" v="ur" />
	</node>
	<node lat="62.42953611418683" lon="6.349455549706" id="-7233">
		<tag k="name" v="Vassmyra" />
		<tag k="natural" v="wetland" />
		<tag k="ssr:date" v="2016-05-10" />
		<tag k="ssr:gruppe" v="våtmark" />
		<tag k="ssr:hovedgruppe" v="markslag" />
		<tag k="ssr:stedsnr" v="156892" />
		<tag k="ssr:type" v="myr" />
	</node>
	<node lat="62.42196666622132" lon="6.328002769132898" id="-7234">
		<tag k="name" v="Leirvåg" />
		<tag k="place" v="farm" />
		<tag k="ssr:date" v="2016-05-10" />
		<tag k="ssr:gruppe" v="gardsbebyggelse" />
		<tag k="ssr:hovedgruppe" v="bebyggelse" />
		<tag k="ssr:stedsnr" v="157750" />
		<tag k="ssr:type" v="bruk" />
	</node>
	<node lat="62.427969442570614" lon="6.059569441097239" id="-7235">
		<tag k="name" v="Trælbåen" />
		<tag k="natural" v="shoal" />
		<tag k="place" v="locality" />
		<tag k="ssr:date" v="2016-05-10" />
		<tag k="ssr:gruppe" v="grunnerISjø" />
		<tag k="ssr:hovedgruppe" v="sjø" />
		<tag k="ssr:stedsnr" v="160523" />
		<tag k="ssr:type" v="grunneISjø" />
	</node>
	<node lat="62.43985832875555" lon="6.0644694367907075" id="-7236">
		<tag k="alt_name" v="Gjøtaflua" />
		<tag k="name" v="Gjøttaflua" />
		<tag k="natural" v="shoal" />
		<tag k="place" v="locality" />
		<tag k="ssr:date" v="2016-05-10" />
		<tag k="ssr:gruppe" v="grunnerISjø" />
		<tag k="ssr:hovedgruppe" v="sjø" />
		<tag k="ssr:stedsnr" v="160529" />
		<tag k="ssr:type" v="grunneISjø" />
	</node>
	<node lat="62.44698055882197" lon="6.232602778324932" id="-7237">
		<tag k="building" v="commercial" />
		<tag k="name" v="Våge" />
		<tag k="ssr:date" v="2016-05-10" />
		<tag k="ssr:gruppe" v="næring" />
		<tag k="ssr:hovedgruppe" v="bebyggelse" />
		<tag k="ssr:stedsnr" v="172724" />
		<tag k="ssr:type" v="forretningsbygg" />
	</node>
	<node lat="62.40399166472022" lon="6.296497217371664" id="-7238">
		<tag k="name" v="Ramsvikneset" />
		<tag k="natural" v="cape" />
		<tag k="ssr:date" v="2016-05-10" />
		<tag k="ssr:gruppe" v="kystkontur" />
		<tag k="ssr:hovedgruppe" v="sjø" />
		<tag k="ssr:stedsnr" v="172790" />
		<tag k="ssr:type" v="nesISjø" />
	</node>
	<node lat="62.428294441414764" lon="6.321138888524561" id="-7241">
		<tag k="name" v="Eidsbukta" />
		<tag k="natural" v="bay" />
		<tag k="ssr:date" v="2016-05-10" />
		<tag k="ssr:gruppe" v="kystkontur" />
		<tag k="ssr:hovedgruppe" v="sjø" />
		<tag k="ssr:stedsnr" v="180119" />
		<tag k="ssr:type" v="vikISjø" />
	</node>
	<node lat="62.42407778072965" lon="6.1007166624837295" id="-7242">
		<tag k="fixme" v="consider natural=peak for the most distinct mountains in the district" />
		<tag k="name" v="Langerabben" />
		<tag k="natural" v="hill" />
		<tag k="place" v="locality" />
		<tag k="ssr:date" v="2016-05-10" />
		<tag k="ssr:gruppe" v="høyder" />
		<tag k="ssr:hovedgruppe" v="terreng" />
		<tag k="ssr:stedsnr" v="193899" />
		<tag k="ssr:type" v="ås" />
	</node>
	<node lat="62.42962499728201" lon="6.109113881627639" id="-7243">
		<tag k="fixme" v="consider natural=peak for the most distinct mountains in the district" />
		<tag k="name" v="Flesjehornet" />
		<tag k="natural" v="hill" />
		<tag k="place" v="locality" />
		<tag k="ssr:date" v="2016-05-10" />
		<tag k="ssr:gruppe" v="høyder" />
		<tag k="ssr:hovedgruppe" v="terreng" />
		<tag k="ssr:stedsnr" v="193902" />
		<tag k="ssr:type" v="ås" />
	</node>
	<node lat="62.44024167025334" lon="6.1570777779896435" id="-7244">
		<tag k="alt_name" v="Ædhammaren" />
		<tag k="name" v="Æhammaren" />
		<tag k="natural" v="cape" />
		<tag k="ssr:date" v="2016-05-10" />
		<tag k="ssr:gruppe" v="kystkontur" />
		<tag k="ssr:hovedgruppe" v="sjø" />
		<tag k="ssr:stedsnr" v="193958" />
		<tag k="ssr:type" v="nesISjø" />
	</node>
	<node lat="62.399099999799624" lon="6.124886108380899" id="-7248">
		<tag k="name" v="Litleneset" />
		<tag k="natural" v="cape" />
		<tag k="ssr:date" v="2016-05-10" />
		<tag k="ssr:gruppe" v="kystkontur" />
		<tag k="ssr:hovedgruppe" v="sjø" />
		<tag k="ssr:stedsnr" v="217833" />
		<tag k="ssr:type" v="nesISjø" />
	</node>
	<node lat="62.41442777639589" lon="6.336877779478427" id="-7249">
		<tag k="name" v="Gardvika" />
		<tag k="natural" v="bay" />
		<tag k="ssr:date" v="2016-05-10" />
		<tag k="ssr:gruppe" v="kystkontur" />
		<tag k="ssr:hovedgruppe" v="sjø" />
		<tag k="ssr:stedsnr" v="217835" />
		<tag k="ssr:type" v="vikISjø" />
	</node>
	<node lat="62.405561107511886" lon="6.299316660874688" id="-7251">
		<tag k="name" v="Ramsvikura" />
		<tag k="natural" v="scree" />
		<tag k="ssr:date" v="2016-05-10" />
		<tag k="ssr:gruppe" v="løsmasseavsetninger" />
		<tag k="ssr:hovedgruppe" v="markslag" />
		<tag k="ssr:stedsnr" v="278875" />
		<tag k="ssr:type" v="ur" />
	</node>
	<node lat="62.43087778037196" lon="6.357027779599422" id="-7252">
		<tag k="name" v="Veibustvågen" />
		<tag k="natural" v="bay" />
		<tag k="ssr:date" v="2016-05-10" />
		<tag k="ssr:gruppe" v="kystkontur" />
		<tag k="ssr:hovedgruppe" v="sjø" />
		<tag k="ssr:stedsnr" v="278911" />
		<tag k="ssr:type" v="vågISjø" />
	</node>
	<node lat="62.43871389262492" lon="6.161155545639362" id="-7253">
		<tag k="name" v="Sandvika" />
		<tag k="old_name" v="Ænes" />
		<tag k="place" v="farm" />
		<tag k="ssr:date" v="2016-05-10" />
		<tag k="ssr:gruppe" v="gardsbebyggelse" />
		<tag k="ssr:hovedgruppe" v="bebyggelse" />
		<tag k="ssr:stedsnr" v="278829" />
		<tag k="ssr:type" v="bruk" />
	</node>
	<node lat="62.397309019724894" lon="6.153709853135192" id="-7254">
		<tag k="alt_name" v="Øygarden" />
		<tag k="fixme" v="consider place=hamlet" />
		<tag k="name" v="Sulødegård" />
		<tag k="place" v="farm" />
		<tag k="ssr:date" v="2018-02-21" />
		<tag k="ssr:gruppe" v="gardsbebyggelse" />
		<tag k="ssr:hovedgruppe" v="bebyggelse" />
		<tag k="ssr:stedsnr" v="278833" />
		<tag k="ssr:type" v="gard" />
	</node>
	<node lat="62.43222777500605" lon="6.141572220747934" id="-7255">
		<tag k="name" v="Kjellingsetelva" />
		<tag k="ssr:date" v="2016-05-10" />
		<tag k="ssr:gruppe" v="rennendeVann" />
		<tag k="ssr:hovedgruppe" v="ferskvann" />
		<tag k="ssr:stedsnr" v="278857" />
		<tag k="ssr:type" v="bekk" />
		<tag k="waterway" v="stream" />
	</node>
	<node lat="62.40665555344208" lon="6.2941305616193794" id="-7256">
		<tag k="name" v="Ramsvikløypa" />
		<tag k="natural" v="valley" />
		<tag k="place" v="locality" />
		<tag k="ssr:date" v="2016-05-10" />
		<tag k="ssr:gruppe" v="senkninger" />
		<tag k="ssr:hovedgruppe" v="terreng" />
		<tag k="ssr:stedsnr" v="278859" />
		<tag k="ssr:type" v="dal" />
	</node>
	<node lat="62.40571389304315" lon="6.286261103237384" id="-7257">
		<tag k="name" v="Eiteråna" />
		<tag k="ssr:date" v="2016-05-10" />
		<tag k="ssr:gruppe" v="rennendeVann" />
		<tag k="ssr:hovedgruppe" v="ferskvann" />
		<tag k="ssr:stedsnr" v="278860" />
		<tag k="ssr:type" v="bekk" />
		<tag k="waterway" v="stream" />
	</node>
	<node lat="62.40396944848936" lon="6.281355551152111" id="-7258">
		<tag k="alt_name" v="Eikremsvika" />
		<tag k="name" v="Eikremsvikane" />
		<tag k="natural" v="bay" />
		<tag k="ssr:date" v="2016-05-10" />
		<tag k="ssr:gruppe" v="kystkontur" />
		<tag k="ssr:hovedgruppe" v="sjø" />
		<tag k="ssr:stedsnr" v="278862" />
		<tag k="ssr:type" v="vikISjø" />
	</node>
	<node lat="62.42928333098818" lon="6.05998888223456" id="-7259">
		<tag k="name" v="Furneset" />
		<tag k="natural" v="cape" />
		<tag k="ssr:date" v="2016-05-10" />
		<tag k="ssr:gruppe" v="kystkontur" />
		<tag k="ssr:hovedgruppe" v="sjø" />
		<tag k="ssr:stedsnr" v="278865" />
		<tag k="ssr:type" v="nesISjø" />
	</node>
	<node lat="62.4261500025316" lon="6.321455549160402" id="-7260">
		<tag k="name" v="Støleskaret" />
		<tag k="natural" v="valley" />
		<tag k="place" v="locality" />
		<tag k="ssr:date" v="2016-05-10" />
		<tag k="ssr:gruppe" v="senkninger" />
		<tag k="ssr:hovedgruppe" v="terreng" />
		<tag k="ssr:stedsnr" v="278946" />
		<tag k="ssr:type" v="skar" />
	</node>
	<node lat="62.442405556784536" lon="6.1881194404464885" id="-7261">
		<tag k="amenity" v="nursing_home" />
		<tag k="name" v="Sulatunet" />
		<tag k="ssr:date" v="2016-05-10" />
		<tag k="ssr:gruppe" v="institusjoner" />
		<tag k="ssr:hovedgruppe" v="bebyggelse" />
		<tag k="ssr:stedsnr" v="278952" />
		<tag k="ssr:type" v="helseinstitusjon" />
	</node>
	<node lat="62.43129444611571" lon="6.305716668468739" id="-7263">
		<tag k="name" v="Eidsundet" />
		<tag k="natural" v="strait" />
		<tag k="ssr:date" v="2016-05-10" />
		<tag k="ssr:gruppe" v="kystkontur" />
		<tag k="ssr:hovedgruppe" v="sjø" />
		<tag k="ssr:stedsnr" v="294751" />
		<tag k="ssr:type" v="sundISjø" />
	</node>
	<node lat="62.422544473040915" lon="6.326842615543596" id="-7264">
		<tag k="fixme" v="consider place=hamlet" />
		<tag k="name" v="Leirvåg" />
		<tag k="old_name" v="Veibost" />
		<tag k="place" v="farm" />
		<tag k="ssr:date" v="2018-02-21" />
		<tag k="ssr:gruppe" v="gardsbebyggelse" />
		<tag k="ssr:hovedgruppe" v="bebyggelse" />
		<tag k="ssr:stedsnr" v="294753" />
		<tag k="ssr:type" v="gard" />
	</node>
	<node lat="62.43742586862964" lon="6.213508950249755" id="-7266">
		<tag k="fixme" v="consider place=hamlet" />
		<tag k="name" v="Vasset" />
		<tag k="place" v="farm" />
		<tag k="ssr:date" v="2018-02-21" />
		<tag k="ssr:gruppe" v="gardsbebyggelse" />
		<tag k="ssr:hovedgruppe" v="bebyggelse" />
		<tag k="ssr:stedsnr" v="314886" />
		<tag k="ssr:type" v="gard" />
	</node>
	<node lat="62.422027781779896" lon="6.165588880367214" id="-7267">
		<tag k="alt_name" v="Moldværsvatnet" />
		<tag k="name" v="Molværsvatnet" />
		<tag k="natural" v="water" />
		<tag k="ssr:date" v="2016-05-10" />
		<tag k="ssr:gruppe" v="stilleståendeVann" />
		<tag k="ssr:hovedgruppe" v="ferskvann" />
		<tag k="ssr:stedsnr" v="314894" />
		<tag k="ssr:type" v="tjern" />
	</node>
	<node lat="62.42018055269731" lon="6.079608331147197" id="-7268">
		<tag k="name" v="Flåa" />
		<tag k="old_name" v="Flåna" />
		<tag k="place" v="locality" />
		<tag k="ssr:date" v="2016-05-10" />
		<tag k="ssr:gruppe" v="flater" />
		<tag k="ssr:hovedgruppe" v="terreng" />
		<tag k="ssr:stedsnr" v="314900" />
		<tag k="ssr:type" v="slette" />
	</node>
	<node lat="62.422858334338166" lon="6.27871110422506" id="-7274">
		<tag k="name" v="Tomaselva" />
		<tag k="ssr:date" v="2016-05-10" />
		<tag k="ssr:gruppe" v="rennendeVann" />
		<tag k="ssr:hovedgruppe" v="ferskvann" />
		<tag k="ssr:stedsnr" v="338804" />
		<tag k="ssr:type" v="bekk" />
		<tag k="waterway" v="stream" />
	</node>
	<node lat="62.4090472194922" lon="6.263036115642471" id="-7275">
		<tag k="name" v="Bunesa" />
		<tag k="natural" v="cape" />
		<tag k="ssr:date" v="2016-05-10" />
		<tag k="ssr:gruppe" v="ferskvannskontur" />
		<tag k="ssr:hovedgruppe" v="ferskvann" />
		<tag k="ssr:stedsnr" v="338826" />
		<tag k="ssr:type" v="nes" />
	</node>
	<node lat="62.43796944831896" lon="6.28144166298894" id="-7276">
		<tag k="name" v="Tranvågen" />
		<tag k="natural" v="bay" />
		<tag k="ssr:date" v="2016-05-10" />
		<tag k="ssr:gruppe" v="kystkontur" />
		<tag k="ssr:hovedgruppe" v="sjø" />
		<tag k="ssr:stedsnr" v="338917" />
		<tag k="ssr:type" v="vågISjø" />
	</node>
	<node lat="62.44637499895973" lon="6.202466664235142" id="-7277">
		<tag k="name" v="Kippervika" />
		<tag k="natural" v="bay" />
		<tag k="ssr:date" v="2016-05-10" />
		<tag k="ssr:gruppe" v="kystkontur" />
		<tag k="ssr:hovedgruppe" v="sjø" />
		<tag k="ssr:stedsnr" v="338923" />
		<tag k="ssr:type" v="vikISjø" />
	</node>
	<node lat="62.445677780067754" lon="6.247033333715522" id="-7278">
		<tag k="name" v="Litle Veddeholmen" />
		<tag k="place" v="islet" />
		<tag k="ssr:date" v="2016-05-10" />
		<tag k="ssr:gruppe" v="kystkontur" />
		<tag k="ssr:hovedgruppe" v="sjø" />
		<tag k="ssr:stedsnr" v="354682" />
		<tag k="ssr:type" v="holmeISjø" />
	</node>
	<node lat="62.42908888815931" lon="6.339574991549472" id="-7279">
		<tag k="name" v="Reitebøen" />
		<tag k="place" v="farm" />
		<tag k="ssr:date" v="2016-05-10" />
		<tag k="ssr:gruppe" v="gardsbebyggelse" />
		<tag k="ssr:hovedgruppe" v="bebyggelse" />
		<tag k="ssr:stedsnr" v="355670" />
		<tag k="ssr:type" v="bruk" />
	</node>
	<node lat="62.42755555236502" lon="6.295880547835132" id="-7280">
		<tag k="name" v="Bjørkavågneset" />
		<tag k="natural" v="cape" />
		<tag k="ssr:date" v="2016-05-10" />
		<tag k="ssr:gruppe" v="kystkontur" />
		<tag k="ssr:hovedgruppe" v="sjø" />
		<tag k="ssr:stedsnr" v="361133" />
		<tag k="ssr:type" v="nesISjø" />
	</node>
	<node lat="62.398530557080186" lon="6.218666657306885" id="-7281">
		<tag k="name" v="Båtneset" />
		<tag k="natural" v="cape" />
		<tag k="ssr:date" v="2016-05-10" />
		<tag k="ssr:gruppe" v="kystkontur" />
		<tag k="ssr:hovedgruppe" v="sjø" />
		<tag k="ssr:stedsnr" v="374134" />
		<tag k="ssr:type" v="nesISjø" />
	</node>
	<node lat="62.415347756482724" lon="6.3323868122087426" id="-7282">
		<tag k="fixme" v="consider place=hamlet" />
		<tag k="name" v="Sunde" />
		<tag k="place" v="farm" />
		<tag k="ssr:date" v="2018-02-21" />
		<tag k="ssr:gruppe" v="gardsbebyggelse" />
		<tag k="ssr:hovedgruppe" v="bebyggelse" />
		<tag k="ssr:stedsnr" v="374081" />
		<tag k="ssr:type" v="gard" />
	</node>
	<node lat="62.44756575921492" lon="6.203851359087848" id="-7283">
		<tag k="fixme" v="consider place=hamlet" />
		<tag k="name" v="Kipperberget" />
		<tag k="place" v="farm" />
		<tag k="ssr:date" v="2018-02-21" />
		<tag k="ssr:gruppe" v="gardsbebyggelse" />
		<tag k="ssr:hovedgruppe" v="bebyggelse" />
		<tag k="ssr:stedsnr" v="374970" />
		<tag k="ssr:type" v="gard" />
	</node>
	<node lat="62.418374998417455" lon="6.072405562803534" id="-7284">
		<tag k="name" v="Raudneset" />
		<tag k="natural" v="cape" />
		<tag k="ssr:date" v="2016-05-10" />
		<tag k="ssr:gruppe" v="kystkontur" />
		<tag k="ssr:hovedgruppe" v="sjø" />
		<tag k="ssr:stedsnr" v="375920" />
		<tag k="ssr:type" v="nesISjø" />
	</node>
	<node lat="62.42328889306723" lon="6.288447220699275" id="-7292">
		<tag k="name" v="Furnesvikane" />
		<tag k="natural" v="bay" />
		<tag k="ssr:date" v="2016-05-10" />
		<tag k="ssr:gruppe" v="kystkontur" />
		<tag k="ssr:hovedgruppe" v="sjø" />
		<tag k="ssr:stedsnr" v="399805" />
		<tag k="ssr:type" v="vikISjø" />
	</node>
	<node lat="62.43691944816587" lon="6.178066672309552" id="-7293">
		<tag k="name" v="Haugedammen" />
		<tag k="ssr:date" v="2016-05-10" />
		<tag k="ssr:gruppe" v="stilleståendeVann" />
		<tag k="ssr:hovedgruppe" v="ferskvann" />
		<tag k="ssr:stedsnr" v="399815" />
		<tag k="ssr:type" v="dam" />
		<tag k="waterway" v="dam" />
	</node>
	<node lat="62.43112499624735" lon="6.175633339977064" id="-7294">
		<tag k="name" v="Klovsteinane" />
		<tag k="natural" v="stone" />
		<tag k="ssr:date" v="2016-05-10" />
		<tag k="ssr:gruppe" v="løsmasseavsetninger" />
		<tag k="ssr:hovedgruppe" v="markslag" />
		<tag k="ssr:stedsnr" v="399820" />
		<tag k="ssr:type" v="stein" />
	</node>
	<node lat="62.42461388721692" lon="6.349447224117244" id="-7295">
		<tag k="highway" v="path" />
		<tag k="name" v="Torvvegen" />
		<tag k="ssr:date" v="2016-05-10" />
		<tag k="ssr:gruppe" v="veg" />
		<tag k="ssr:hovedgruppe" v="infrastruktur" />
		<tag k="ssr:stedsnr" v="399825" />
		<tag k="ssr:type" v="sti" />
	</node>
	<node lat="62.40982499547782" lon="6.313216658874454" id="-7296">
		<tag k="name" v="Nausa" />
		<tag k="natural" v="ridge" />
		<tag k="place" v="locality" />
		<tag k="ssr:date" v="2016-05-10" />
		<tag k="ssr:gruppe" v="høyder" />
		<tag k="ssr:hovedgruppe" v="terreng" />
		<tag k="ssr:stedsnr" v="399843" />
		<tag k="ssr:type" v="rygg" />
	</node>
	<node lat="62.42291388774688" lon="6.237755553596364" id="-7297">
		<tag k="historic" v="shieling" />
		<tag k="name" v="Djupviksætra" />
		<tag k="place" v="isolated_dwelling" />
		<tag k="ssr:date" v="2016-05-10" />
		<tag k="ssr:gruppe" v="gardsbebyggelse" />
		<tag k="ssr:hovedgruppe" v="bebyggelse" />
		<tag k="ssr:stedsnr" v="399845" />
		<tag k="ssr:type" v="seterStøl" />
	</node>
	<node lat="62.39572499562239" lon="6.1776888887843775" id="-7298">
		<tag k="name" v="Lassegarden" />
		<tag k="place" v="farm" />
		<tag k="ssr:date" v="2016-05-10" />
		<tag k="ssr:gruppe" v="gardsbebyggelse" />
		<tag k="ssr:hovedgruppe" v="bebyggelse" />
		<tag k="ssr:stedsnr" v="399848" />
		<tag k="ssr:type" v="bruk" />
	</node>
	<node lat="62.441341667320266" lon="6.20452777929479" id="-7299">
		<tag k="amenity" v="community_centre" />
		<tag k="name" v="Breidablikk" />
		<tag k="ssr:date" v="2016-05-10" />
		<tag k="ssr:gruppe" v="kulturinstitusjoner" />
		<tag k="ssr:hovedgruppe" v="kultur" />
		<tag k="ssr:stedsnr" v="399901" />
		<tag k="ssr:type" v="forsamlingshusKulturhus" />
	</node>
	<node lat="62.43382500180239" lon="6.201547224953502" id="-7300">
		<tag k="leisure" v="pitch" />
		<tag k="name" v="Langevåg stadion" />
		<tag k="ssr:date" v="2016-05-10" />
		<tag k="ssr:gruppe" v="fritidsanlegg" />
		<tag k="ssr:hovedgruppe" v="bebyggelse" />
		<tag k="ssr:stedsnr" v="399908" />
		<tag k="ssr:type" v="idrettsanlegg" />
	</node>
	<node lat="62.41771110989729" lon="6.357627772282538" id="-7301">
		<tag k="name" v="Lahella" />
		<tag k="natural" v="hill" />
		<tag k="place" v="locality" />
		<tag k="ssr:date" v="2016-05-10" />
		<tag k="ssr:gruppe" v="høyder" />
		<tag k="ssr:hovedgruppe" v="terreng" />
		<tag k="ssr:stedsnr" v="399914" />
		<tag k="ssr:type" v="berg" />
	</node>
	<node lat="62.43041388470385" lon="6.362497220745963" id="-7303">
		<tag k="name" v="Pinesundet" />
		<tag k="natural" v="strait" />
		<tag k="ssr:date" v="2016-05-10" />
		<tag k="ssr:gruppe" v="kystkontur" />
		<tag k="ssr:hovedgruppe" v="sjø" />
		<tag k="ssr:stedsnr" v="416133" />
		<tag k="ssr:type" v="sundISjø" />
	</node>
	<node lat="62.44650833137691" lon="6.1790138926001426" id="-7304">
		<tag k="fixme" v="consider seamark:type=rock or natural=shoal" />
		<tag k="name" v="Seiskjeret" />
		<tag k="place" v="islet" />
		<tag k="ssr:date" v="2016-05-10" />
		<tag k="ssr:gruppe" v="grunnerISjø" />
		<tag k="ssr:hovedgruppe" v="sjø" />
		<tag k="ssr:stedsnr" v="422670" />
		<tag k="ssr:type" v="skjærISjø" />
	</node>
	<node lat="62.436680197513134" lon="6.12540333018703" id="-7305">
		<tag k="name" v="Flesje" />
		<tag k="place" v="locality" />
		<tag k="ssr:date" v="2018-02-21" />
		<tag k="ssr:gruppe" v="gardsbebyggelse" />
		<tag k="ssr:hovedgruppe" v="bebyggelse" />
		<tag k="ssr:stedsnr" v="435988" />
		<tag k="ssr:type" v="eiendom" />
	</node>
	<node lat="62.437791663615535" lon="6.240738893280443" id="-7307">
		<tag k="name" v="Veddevika" />
		<tag k="natural" v="bay" />
		<tag k="ssr:date" v="2016-05-10" />
		<tag k="ssr:gruppe" v="kystkontur" />
		<tag k="ssr:hovedgruppe" v="sjø" />
		<tag k="ssr:stedsnr" v="436064" />
		<tag k="ssr:type" v="vikISjø" />
	</node>
	<node lat="62.406252775661564" lon="6.1548999942449125" id="-7308">
		<tag k="fixme" v="consider natural=peak for the most distinct mountains in the district" />
		<tag k="name" v="Røysahornet" />
		<tag k="natural" v="hill" />
		<tag k="place" v="locality" />
		<tag k="ssr:date" v="2016-05-10" />
		<tag k="ssr:gruppe" v="høyder" />
		<tag k="ssr:hovedgruppe" v="terreng" />
		<tag k="ssr:stedsnr" v="436874" />
		<tag k="ssr:type" v="ås" />
	</node>
	<node lat="62.410119442784975" lon="6.094205553846882" id="-7309">
		<tag k="alt_name" v="Oksevik" />
		<tag k="name" v="Oksavik" />
		<tag k="place" v="farm" />
		<tag k="ssr:date" v="2016-05-10" />
		<tag k="ssr:gruppe" v="gardsbebyggelse" />
		<tag k="ssr:hovedgruppe" v="bebyggelse" />
		<tag k="ssr:stedsnr" v="436926" />
		<tag k="ssr:type" v="bruk" />
	</node>
	<node lat="62.40207880361831" lon="6.1318440874665106" id="-7310">
		<tag k="alt_name" v="Sulabakken;Sulabakk" />
		<tag k="fixme" v="consider place=hamlet" />
		<tag k="name" v="Sulebakk" />
		<tag k="place" v="farm" />
		<tag k="ssr:date" v="2018-02-21" />
		<tag k="ssr:gruppe" v="gardsbebyggelse" />
		<tag k="ssr:hovedgruppe" v="bebyggelse" />
		<tag k="ssr:stedsnr" v="436878" />
		<tag k="ssr:type" v="gard" />
	</node>
	<node lat="62.430743763341454" lon="6.2807248489959395" id="-7315">
		<tag k="fixme" v="consider place=hamlet" />
		<tag k="name" v="Rørstad" />
		<tag k="place" v="farm" />
		<tag k="ssr:date" v="2018-02-21" />
		<tag k="ssr:gruppe" v="gardsbebyggelse" />
		<tag k="ssr:hovedgruppe" v="bebyggelse" />
		<tag k="ssr:stedsnr" v="496047" />
		<tag k="ssr:type" v="gard" />
	</node>
	<node lat="62.39776254365448" lon="6.145489777190795" id="-7316">
		<tag k="fixme" v="consider place=hamlet" />
		<tag k="name" v="Røysa" />
		<tag k="place" v="farm" />
		<tag k="ssr:date" v="2018-02-21" />
		<tag k="ssr:gruppe" v="gardsbebyggelse" />
		<tag k="ssr:hovedgruppe" v="bebyggelse" />
		<tag k="ssr:stedsnr" v="496877" />
		<tag k="ssr:type" v="gard" />
	</node>
	<node lat="62.415277778609095" lon="6.133744442215701" id="-7318">
		<tag k="name" v="Sula" />
		<tag k="place" v="island" />
		<tag k="ssr:date" v="2016-05-10" />
		<tag k="ssr:gruppe" v="kystkontur" />
		<tag k="ssr:hovedgruppe" v="sjø" />
		<tag k="ssr:stedsnr" v="496927" />
		<tag k="ssr:type" v="øyISjø" />
	</node>
	<node lat="62.41373332959613" lon="6.327536110760812" id="-7323">
		<tag k="amenity" v="ferry_terminal" />
		<tag k="name" v="Solavågen ferjekai" />
		<tag k="old_name" v="Sunde ferjekai" />
		<tag k="ssr:date" v="2016-05-10" />
		<tag k="ssr:gruppe" v="sjøfart" />
		<tag k="ssr:hovedgruppe" v="infrastruktur" />
		<tag k="ssr:stedsnr" v="512142" />
		<tag k="ssr:type" v="ferjekai" />
	</node>
	<node lat="62.42959444426626" lon="6.277366657943632" id="-7325">
		<tag k="name" v="Litlevågen" />
		<tag k="natural" v="bay" />
		<tag k="ssr:date" v="2016-05-10" />
		<tag k="ssr:gruppe" v="kystkontur" />
		<tag k="ssr:hovedgruppe" v="sjø" />
		<tag k="ssr:stedsnr" v="520848" />
		<tag k="ssr:type" v="vågISjø" />
	</node>
	<node lat="62.40103610772708" lon="6.2347500033326595" id="-7326">
		<tag k="name" v="Raudhammaren" />
		<tag k="natural" v="cliff" />
		<tag k="ssr:date" v="2016-05-10" />
		<tag k="ssr:gruppe" v="terrengdetaljer" />
		<tag k="ssr:hovedgruppe" v="terreng" />
		<tag k="ssr:stedsnr" v="520886" />
		<tag k="ssr:type" v="stup" />
	</node>
	<node lat="62.41679444062185" lon="6.323694449187665" id="-7328">
		<tag k="name" v="Nausthaugen" />
		<tag k="natural" v="hill" />
		<tag k="place" v="locality" />
		<tag k="ssr:date" v="2016-05-10" />
		<tag k="ssr:gruppe" v="høyder" />
		<tag k="ssr:hovedgruppe" v="terreng" />
		<tag k="ssr:stedsnr" v="521886" />
		<tag k="ssr:type" v="haug" />
	</node>
	<node lat="62.41885555903556" lon="6.330894436182384" id="-7329">
		<tag k="fixme" v="consider natural=peak for the most distinct mountains in the district" />
		<tag k="name" v="Sundnakken" />
		<tag k="natural" v="hill" />
		<tag k="place" v="locality" />
		<tag k="ssr:date" v="2016-05-10" />
		<tag k="ssr:gruppe" v="høyder" />
		<tag k="ssr:hovedgruppe" v="terreng" />
		<tag k="ssr:stedsnr" v="521836" />
		<tag k="ssr:type" v="ås" />
	</node>
	<node lat="62.418702781216254" lon="6.325463884861992" id="-7330">
		<tag k="name" v="Valane" />
		<tag k="natural" v="strait" />
		<tag k="ssr:date" v="2016-05-10" />
		<tag k="ssr:gruppe" v="kystkontur" />
		<tag k="ssr:hovedgruppe" v="sjø" />
		<tag k="ssr:stedsnr" v="521927" />
		<tag k="ssr:type" v="sundISjø" />
	</node>
	<node lat="62.44525000050356" lon="6.1847361153462925" id="-7332">
		<tag k="name" v="Katterumpa" />
		<tag k="natural" v="shoal" />
		<tag k="place" v="locality" />
		<tag k="ssr:date" v="2016-05-10" />
		<tag k="ssr:gruppe" v="grunnerISjø" />
		<tag k="ssr:hovedgruppe" v="sjø" />
		<tag k="ssr:stedsnr" v="543651" />
		<tag k="ssr:type" v="grunneISjø" />
	</node>
	<node lat="62.43536666782344" lon="6.227649999090371" id="-7333">
		<tag k="name" v="Gjerdshaugen" />
		<tag k="natural" v="hill" />
		<tag k="place" v="locality" />
		<tag k="ssr:date" v="2016-05-10" />
		<tag k="ssr:gruppe" v="høyder" />
		<tag k="ssr:hovedgruppe" v="terreng" />
		<tag k="ssr:stedsnr" v="543654" />
		<tag k="ssr:type" v="haug" />
	</node>
	<node lat="62.44920555266695" lon="6.208138897030956" id="-7334">
		<tag k="name" v="Jyljebøflua" />
		<tag k="natural" v="shoal" />
		<tag k="place" v="locality" />
		<tag k="ssr:date" v="2016-05-10" />
		<tag k="ssr:gruppe" v="grunnerISjø" />
		<tag k="ssr:hovedgruppe" v="sjø" />
		<tag k="ssr:stedsnr" v="543661" />
		<tag k="ssr:type" v="grunneISjø" />
	</node>
	<node lat="62.408666668713664" lon="6.134202770609356" id="-7335">
		<tag k="fixme" v="consider natural=peak for the most distinct mountains in the district" />
		<tag k="name" v="Sulabakkhornet" />
		<tag k="natural" v="hill" />
		<tag k="place" v="locality" />
		<tag k="ssr:date" v="2016-05-10" />
		<tag k="ssr:gruppe" v="høyder" />
		<tag k="ssr:hovedgruppe" v="terreng" />
		<tag k="ssr:stedsnr" v="556881" />
		<tag k="ssr:type" v="ås" />
	</node>
	<node lat="62.401091665744815" lon="6.139708327951479" id="-7337">
		<tag k="fixme" v="multiple name tags, choose one and add the other to alt_name" />
		<tag k="name" v="Ranten;Sulabakken" />
		<tag k="place" v="farm" />
		<tag k="ssr:date" v="2016-05-10" />
		<tag k="ssr:gruppe" v="gardsbebyggelse" />
		<tag k="ssr:hovedgruppe" v="bebyggelse" />
		<tag k="ssr:stedsnr" v="557881" />
		<tag k="ssr:type" v="bruk" />
	</node>
	<node lat="62.40354166985541" lon="6.188597228500527" id="-7338">
		<tag k="fixme" v="consider natural=peak for the most distinct mountains in the district" />
		<tag k="name" v="Skallen" />
		<tag k="natural" v="hill" />
		<tag k="place" v="locality" />
		<tag k="ssr:date" v="2016-05-10" />
		<tag k="ssr:gruppe" v="høyder" />
		<tag k="ssr:hovedgruppe" v="terreng" />
		<tag k="ssr:stedsnr" v="557887" />
		<tag k="ssr:type" v="ås" />
	</node>
	<node lat="62.41702221959969" lon="6.231961110430748" id="-7339">
		<tag k="name" v="Rørstadstølen" />
		<tag k="place" v="isolated_dwelling" />
		<tag k="ssr:date" v="2016-05-10" />
		<tag k="ssr:gruppe" v="bolighus" />
		<tag k="ssr:hovedgruppe" v="bebyggelse" />
		<tag k="ssr:stedsnr" v="566168" />
		<tag k="ssr:type" v="fritidsbolig" />
	</node>
	<node lat="62.44779721811178" lon="6.206427770652104" id="-7352">
		<tag k="fixme" v="consider place=suburb, village or hamlet" />
		<tag k="name" v="Kipperberg" />
		<tag k="place" v="quarter" />
		<tag k="ssr:date" v="2016-05-10" />
		<tag k="ssr:gruppe" v="bebyggelsesområder" />
		<tag k="ssr:hovedgruppe" v="bebyggelse" />
		<tag k="ssr:stedsnr" v="581788" />
		<tag k="ssr:type" v="tettbebyggelse" />
	</node>
	<node lat="62.435511107674444" lon="6.202752773673614" id="-7353">
		<tag k="name" v="Vassetelva" />
		<tag k="ssr:date" v="2016-05-10" />
		<tag k="ssr:gruppe" v="rennendeVann" />
		<tag k="ssr:hovedgruppe" v="ferskvann" />
		<tag k="ssr:stedsnr" v="581854" />
		<tag k="ssr:type" v="bekk" />
		<tag k="waterway" v="stream" />
	</node>
	<node lat="62.440772219946155" lon="6.19777778130092" id="-7354">
		<tag k="name" v="Djupdalen" />
		<tag k="natural" v="valley" />
		<tag k="place" v="locality" />
		<tag k="ssr:date" v="2016-05-10" />
		<tag k="ssr:gruppe" v="senkninger" />
		<tag k="ssr:hovedgruppe" v="terreng" />
		<tag k="ssr:stedsnr" v="581857" />
		<tag k="ssr:type" v="dal" />
	</node>
	<node lat="62.41303611307898" lon="6.0831111019207285" id="-7355">
		<tag k="name" v="Ølkonå" />
		<tag k="natural" v="stone" />
		<tag k="ssr:date" v="2016-05-10" />
		<tag k="ssr:gruppe" v="løsmasseavsetninger" />
		<tag k="ssr:hovedgruppe" v="markslag" />
		<tag k="ssr:stedsnr" v="581867" />
		<tag k="ssr:type" v="stein" />
	</node>
	<node lat="62.40820277542539" lon="6.2960638916850655" id="-7356">
		<tag k="name" v="Halseskaret" />
		<tag k="natural" v="valley" />
		<tag k="place" v="locality" />
		<tag k="ssr:date" v="2016-05-10" />
		<tag k="ssr:gruppe" v="senkninger" />
		<tag k="ssr:hovedgruppe" v="terreng" />
		<tag k="ssr:stedsnr" v="581924" />
		<tag k="ssr:type" v="skar" />
	</node>
	<node lat="62.43199444631548" lon="6.177811120064816" id="-7357">
		<tag k="name" v="Rotene" />
		<tag k="natural" v="slope" />
		<tag k="place" v="locality" />
		<tag k="ssr:date" v="2016-05-10" />
		<tag k="ssr:gruppe" v="skråninger" />
		<tag k="ssr:hovedgruppe" v="terreng" />
		<tag k="ssr:stedsnr" v="581926" />
		<tag k="ssr:type" v="li" />
	</node>
	<node lat="62.442236108618786" lon="6.166349998616974" id="-7359">
		<tag k="name" v="Sandvikflua" />
		<tag k="natural" v="shoal" />
		<tag k="place" v="locality" />
		<tag k="ssr:date" v="2016-05-10" />
		<tag k="ssr:gruppe" v="grunnerISjø" />
		<tag k="ssr:hovedgruppe" v="sjø" />
		<tag k="ssr:stedsnr" v="597627" />
		<tag k="ssr:type" v="grunneISjø" />
	</node>
	<node lat="62.398162153128425" lon="6.216901321106215" id="-7360">
		<tag k="alt_name" v="Båtnes" />
		<tag k="fixme" v="consider place=hamlet" />
		<tag k="name" v="Båtneset" />
		<tag k="place" v="farm" />
		<tag k="ssr:date" v="2018-02-21" />
		<tag k="ssr:gruppe" v="gardsbebyggelse" />
		<tag k="ssr:hovedgruppe" v="bebyggelse" />
		<tag k="ssr:stedsnr" v="617905" />
		<tag k="ssr:type" v="gard" />
	</node>
	<node lat="62.42610555586393" lon="6.2011249956340695" id="-7361">
		<tag k="name" v="Svanselva" />
		<tag k="ssr:date" v="2016-05-10" />
		<tag k="ssr:gruppe" v="rennendeVann" />
		<tag k="ssr:hovedgruppe" v="ferskvann" />
		<tag k="ssr:stedsnr" v="617917" />
		<tag k="ssr:type" v="bekk" />
		<tag k="waterway" v="stream" />
	</node>
	<node lat="62.4434877775999" lon="6.185774940944434" id="-7366">
		<tag k="fixme" v="consider place=hamlet" />
		<tag k="name" v="Stadsneset" />
		<tag k="place" v="farm" />
		<tag k="ssr:date" v="2018-02-21" />
		<tag k="ssr:gruppe" v="gardsbebyggelse" />
		<tag k="ssr:hovedgruppe" v="bebyggelse" />
		<tag k="ssr:stedsnr" v="617956" />
		<tag k="ssr:type" v="gard" />
	</node>
	<node lat="62.43382778220642" lon="6.078550008661934" id="-7367">
		<tag k="alt_name" v="Høgenausa;Trælbånausa" />
		<tag k="fixme" v="consider natural=peak for the most distinct mountains in the district" />
		<tag k="name" v="Trælbodnausa" />
		<tag k="natural" v="hill" />
		<tag k="place" v="locality" />
		<tag k="ssr:date" v="2016-05-10" />
		<tag k="ssr:gruppe" v="høyder" />
		<tag k="ssr:hovedgruppe" v="terreng" />
		<tag k="ssr:stedsnr" v="617957" />
		<tag k="ssr:type" v="ås" />
	</node>
	<node lat="62.436128243951" lon="6.142453137691153" id="-7368">
		<tag k="name" v="Kjellingset" />
		<tag k="place" v="locality" />
		<tag k="ssr:date" v="2018-02-21" />
		<tag k="ssr:gruppe" v="gardsbebyggelse" />
		<tag k="ssr:hovedgruppe" v="bebyggelse" />
		<tag k="ssr:stedsnr" v="617966" />
		<tag k="ssr:type" v="eiendom" />
	</node>
	<node lat="62.40464999915747" lon="6.117347231876463" id="-7373">
		<tag k="name" v="Lynglegda" />
		<tag k="natural" v="valley" />
		<tag k="place" v="locality" />
		<tag k="ssr:date" v="2016-05-10" />
		<tag k="ssr:gruppe" v="senkninger" />
		<tag k="ssr:hovedgruppe" v="terreng" />
		<tag k="ssr:stedsnr" v="641760" />
		<tag k="ssr:type" v="dal" />
	</node>
	<node lat="62.4039083339546" lon="6.148563886116617" id="-7374">
		<tag k="name" v="Adensgjølelva" />
		<tag k="ssr:date" v="2016-05-10" />
		<tag k="ssr:gruppe" v="rennendeVann" />
		<tag k="ssr:hovedgruppe" v="ferskvann" />
		<tag k="ssr:stedsnr" v="642833" />
		<tag k="ssr:type" v="bekk" />
		<tag k="waterway" v="stream" />
	</node>
	<node lat="62.43557500124027" lon="6.2576555642427865" id="-7375">
		<tag k="name" v="Storevatnet" />
		<tag k="natural" v="water" />
		<tag k="ssr:date" v="2016-05-10" />
		<tag k="ssr:gruppe" v="stilleståendeVann" />
		<tag k="ssr:hovedgruppe" v="ferskvann" />
		<tag k="ssr:stedsnr" v="642801" />
		<tag k="ssr:type" v="vann" />
		<tag k="water" v="lake" />
	</node>
	<node lat="62.404191667663696" lon="6.294880564325593" id="-7376">
		<tag k="name" v="Ramsvikhaugane" />
		<tag k="natural" v="hill" />
		<tag k="place" v="locality" />
		<tag k="ssr:date" v="2016-05-10" />
		<tag k="ssr:gruppe" v="høyder" />
		<tag k="ssr:hovedgruppe" v="terreng" />
		<tag k="ssr:stedsnr" v="642895" />
		<tag k="ssr:type" v="haug" />
	</node>
	<node lat="62.40396388751845" lon="6.288183325529701" id="-7377">
		<tag k="name" v="Litleneset" />
		<tag k="natural" v="cape" />
		<tag k="ssr:date" v="2016-05-10" />
		<tag k="ssr:gruppe" v="kystkontur" />
		<tag k="ssr:hovedgruppe" v="sjø" />
		<tag k="ssr:stedsnr" v="642896" />
		<tag k="ssr:type" v="nesISjø" />
	</node>
	<node lat="62.44529166971525" lon="6.179227781104232" id="-7378">
		<tag k="name" v="Skinnbroka" />
		<tag k="natural" v="shoal" />
		<tag k="place" v="locality" />
		<tag k="ssr:date" v="2016-05-10" />
		<tag k="ssr:gruppe" v="grunnerISjø" />
		<tag k="ssr:hovedgruppe" v="sjø" />
		<tag k="ssr:stedsnr" v="665723" />
		<tag k="ssr:type" v="grunneISjø" />
	</node>
	<node lat="62.422374996572785" lon="6.219358327684504" id="-7380">
		<tag k="alt_name" v="Veddeberget" />
		<tag k="name" v="Veddehjellane" />
		<tag k="natural" v="hill" />
		<tag k="place" v="locality" />
		<tag k="ssr:date" v="2016-05-11" />
		<tag k="ssr:gruppe" v="høyder" />
		<tag k="ssr:hovedgruppe" v="terreng" />
		<tag k="ssr:stedsnr" v="738096" />
		<tag k="ssr:type" v="berg" />
	</node>
	<node lat="62.3958777764643" lon="6.197038894718512" id="-7381">
		<tag k="alt_name" v="Vindneset" />
		<tag k="name" v="Vindsneset" />
		<tag k="natural" v="cape" />
		<tag k="ssr:date" v="2016-05-11" />
		<tag k="ssr:gruppe" v="kystkontur" />
		<tag k="ssr:hovedgruppe" v="sjø" />
		<tag k="ssr:stedsnr" v="738919" />
		<tag k="ssr:type" v="nesISjø" />
	</node>
	<node lat="62.43567499744807" lon="6.234577779878219" id="-7382">
		<tag k="fixme" v="consider place=hamlet" />
		<tag k="name" v="Vedde" />
		<tag k="place" v="village" />
		<tag k="ssr:date" v="2016-05-11" />
		<tag k="ssr:gruppe" v="bebyggelsesområder" />
		<tag k="ssr:hovedgruppe" v="bebyggelse" />
		<tag k="ssr:stedsnr" v="739032" />
		<tag k="ssr:type" v="bygdelagBygd" />
	</node>
	<node lat="62.40491944171892" lon="6.2696138901725496" id="-7383">
		<tag k="name" v="Brauta" />
		<tag k="place" v="farm" />
		<tag k="ssr:date" v="2016-05-11" />
		<tag k="ssr:gruppe" v="gardsbebyggelse" />
		<tag k="ssr:hovedgruppe" v="bebyggelse" />
		<tag k="ssr:stedsnr" v="739093" />
		<tag k="ssr:type" v="bruk" />
	</node>
	<node lat="62.40330555119107" lon="6.172063887632843" id="-7384">
		<tag k="alt_name" v="Sulesundnipen" />
		<tag k="fixme" v="consider natural=peak for the most distinct mountains in the district" />
		<tag k="name" v="Sundsnipa" />
		<tag k="natural" v="hill" />
		<tag k="old_name" v="Sulasundnipa" />
		<tag k="place" v="locality" />
		<tag k="ssr:date" v="2016-05-11" />
		<tag k="ssr:gruppe" v="høyder" />
		<tag k="ssr:hovedgruppe" v="terreng" />
		<tag k="ssr:stedsnr" v="739867" />
		<tag k="ssr:type" v="ås" />
	</node>
	<node lat="62.43067500116127" lon="6.132425002760492" id="-7385">
		<tag k="fixme" v="consider natural=peak for the most distinct mountains in the district" />
		<tag k="name" v="Kjellingsethornet" />
		<tag k="natural" v="hill" />
		<tag k="place" v="locality" />
		<tag k="ssr:date" v="2016-05-11" />
		<tag k="ssr:gruppe" v="høyder" />
		<tag k="ssr:hovedgruppe" v="terreng" />
		<tag k="ssr:stedsnr" v="739889" />
		<tag k="ssr:type" v="ås" />
	</node>
	<node lat="62.42157778149152" lon="6.20294444437319" id="-7387">
		<tag k="fixme" v="consider natural=peak for the most distinct mountains in the district" />
		<tag k="name" v="Svanshornet" />
		<tag k="natural" v="hill" />
		<tag k="place" v="locality" />
		<tag k="ssr:date" v="2016-05-11" />
		<tag k="ssr:gruppe" v="høyder" />
		<tag k="ssr:hovedgruppe" v="terreng" />
		<tag k="ssr:stedsnr" v="739911" />
		<tag k="ssr:type" v="ås" />
	</node>
	<node lat="62.44264999864546" lon="6.1830416756243975" id="-7393">
		<tag k="name" v="Kyrkjesundet" />
		<tag k="natural" v="strait" />
		<tag k="ssr:date" v="2016-05-11" />
		<tag k="ssr:gruppe" v="kystkontur" />
		<tag k="ssr:hovedgruppe" v="sjø" />
		<tag k="ssr:stedsnr" v="763820" />
		<tag k="ssr:type" v="sundISjø" />
	</node>
	<node lat="62.411174996834866" lon="6.181005560510082" id="-7394">
		<tag k="name" v="Heia" />
		<tag k="natural" v="hill" />
		<tag k="place" v="locality" />
		<tag k="ssr:date" v="2016-05-11" />
		<tag k="ssr:gruppe" v="høyder" />
		<tag k="ssr:hovedgruppe" v="terreng" />
		<tag k="ssr:stedsnr" v="763822" />
		<tag k="ssr:type" v="hei" />
	</node>
	<node lat="62.4199138846567" lon="6.328116660282099" id="-7395">
		<tag k="name" v="Sunde" />
		<tag k="place" v="farm" />
		<tag k="ssr:date" v="2016-05-11" />
		<tag k="ssr:gruppe" v="gardsbebyggelse" />
		<tag k="ssr:hovedgruppe" v="bebyggelse" />
		<tag k="ssr:stedsnr" v="763837" />
		<tag k="ssr:type" v="bruk" />
	</node>
	<node lat="62.412127774893065" lon="6.09937222118638" id="-7396">
		<tag k="name" v="Svartedalselva" />
		<tag k="ssr:date" v="2016-05-11" />
		<tag k="ssr:gruppe" v="rennendeVann" />
		<tag k="ssr:hovedgruppe" v="ferskvann" />
		<tag k="ssr:stedsnr" v="763838" />
		<tag k="ssr:type" v="bekk" />
		<tag k="waterway" v="stream" />
	</node>
	<node lat="62.44458611054232" lon="6.230586112621963" id="-7397">
		<tag k="name" v="Urkevika" />
		<tag k="natural" v="bay" />
		<tag k="ssr:date" v="2016-05-11" />
		<tag k="ssr:gruppe" v="kystkontur" />
		<tag k="ssr:hovedgruppe" v="sjø" />
		<tag k="ssr:stedsnr" v="763927" />
		<tag k="ssr:type" v="vikISjø" />
	</node>
	<node lat="62.446227779217665" lon="6.2102249913066565" id="-7398">
		<tag k="name" v="Straumen" />
		<tag k="ssr:date" v="2016-05-11" />
		<tag k="ssr:gruppe" v="rennendeVann" />
		<tag k="ssr:hovedgruppe" v="ferskvann" />
		<tag k="ssr:stedsnr" v="763932" />
		<tag k="ssr:type" v="bekk" />
		<tag k="waterway" v="stream" />
	</node>
	<node lat="62.443791662496665" lon="6.171244443171669" id="-7399">
		<tag k="name" v="Bollflua" />
		<tag k="natural" v="shoal" />
		<tag k="place" v="locality" />
		<tag k="ssr:date" v="2016-05-11" />
		<tag k="ssr:gruppe" v="grunnerISjø" />
		<tag k="ssr:hovedgruppe" v="sjø" />
		<tag k="ssr:stedsnr" v="779624" />
		<tag k="ssr:type" v="grunneISjø" />
	</node>
	<node lat="62.43113888719001" lon="6.354391664661041" id="-7400">
		<tag k="name" v="Klokkarneset" />
		<tag k="natural" v="cape" />
		<tag k="ssr:date" v="2016-05-11" />
		<tag k="ssr:gruppe" v="kystkontur" />
		<tag k="ssr:hovedgruppe" v="sjø" />
		<tag k="ssr:stedsnr" v="780145" />
		<tag k="ssr:type" v="nesISjø" />
	</node>
	<node lat="62.411149999590855" lon="6.239377773878172" id="-7402">
		<tag k="name" v="Tverråna" />
		<tag k="ssr:date" v="2016-05-11" />
		<tag k="ssr:gruppe" v="rennendeVann" />
		<tag k="ssr:hovedgruppe" v="ferskvann" />
		<tag k="ssr:stedsnr" v="799065" />
		<tag k="ssr:type" v="bekk" />
		<tag k="waterway" v="stream" />
	</node>
	<node lat="62.451316664562036" lon="6.218044449250816" id="-7403">
		<tag k="alt_name" v="Salneset" />
		<tag k="name" v="Saleneset" />
		<tag k="natural" v="cape" />
		<tag k="old_name" v="Salen" />
		<tag k="ssr:date" v="2016-05-11" />
		<tag k="ssr:gruppe" v="kystkontur" />
		<tag k="ssr:hovedgruppe" v="sjø" />
		<tag k="ssr:stedsnr" v="800019" />
		<tag k="ssr:type" v="nesISjø" />
	</node>
	<node lat="62.440847218728386" lon="6.191374992666857" id="-7404">
		<tag k="alt_name" v="Langevågen" />
		<tag k="name" v="Langevåg" />
		<tag k="place" v="village" />
		<tag k="ssr:date" v="2016-05-11" />
		<tag k="ssr:gruppe" v="bebyggelsesområder" />
		<tag k="ssr:hovedgruppe" v="bebyggelse" />
		<tag k="ssr:stedsnr" v="800956" />
		<tag k="ssr:type" v="tettsted" />
	</node>
	<node lat="62.42741110824368" lon="6.299638892497998" id="-7405">
		<tag k="amenity" v="place_of_worship" />
		<tag k="denomination" v="lutheran" />
		<tag k="name" v="Indre Sula kyrkje" />
		<tag k="religion" v="christian" />
		<tag k="ssr:date" v="2021-06-08" />
		<tag k="ssr:gruppe" v="kulturinstitusjoner" />
		<tag k="ssr:hovedgruppe" v="kultur" />
		<tag k="ssr:stedsnr" v="809345" />
		<tag k="ssr:type" v="kirke" />
	</node>
	<node lat="62.448605026660196" lon="6.210551897549669" id="-7412">
		<tag k="name" v="Kråna" />
		<tag k="place" v="locality" />
		<tag k="ssr:date" v="2018-02-21" />
		<tag k="ssr:gruppe" v="gardsbebyggelse" />
		<tag k="ssr:hovedgruppe" v="bebyggelse" />
		<tag k="ssr:stedsnr" v="824831" />
		<tag k="ssr:type" v="eiendom" />
	</node>
	<node lat="62.41802778090389" lon="6.267963894021748" id="-7413">
		<tag k="name" v="Mausaelva" />
		<tag k="ssr:date" v="2016-05-11" />
		<tag k="ssr:gruppe" v="rennendeVann" />
		<tag k="ssr:hovedgruppe" v="ferskvann" />
		<tag k="ssr:stedsnr" v="824833" />
		<tag k="ssr:type" v="bekk" />
		<tag k="waterway" v="stream" />
	</node>
	<node lat="62.43705833567608" lon="6.202822221866412" id="-7414">
		<tag k="name" v="Sloghaugen" />
		<tag k="natural" v="hill" />
		<tag k="place" v="locality" />
		<tag k="ssr:date" v="2016-05-11" />
		<tag k="ssr:gruppe" v="høyder" />
		<tag k="ssr:hovedgruppe" v="terreng" />
		<tag k="ssr:stedsnr" v="824841" />
		<tag k="ssr:type" v="haug" />
	</node>
	<node lat="62.401902782183875" lon="6.259380561788723" id="-7415">
		<tag k="alt_name" v="Fluaberget" />
		<tag k="name" v="Fludaberget" />
		<tag k="natural" v="cape" />
		<tag k="ssr:date" v="2016-05-11" />
		<tag k="ssr:gruppe" v="kystkontur" />
		<tag k="ssr:hovedgruppe" v="sjø" />
		<tag k="ssr:stedsnr" v="824870" />
		<tag k="ssr:type" v="nesISjø" />
	</node>
	<node lat="62.43429722264971" lon="6.076147217959509" id="-7416">
		<tag k="fixme" v="consider natural=peak for the most distinct mountains in the district" />
		<tag k="name" v="Eltrane" />
		<tag k="natural" v="hill" />
		<tag k="place" v="locality" />
		<tag k="ssr:date" v="2016-05-11" />
		<tag k="ssr:gruppe" v="høyder" />
		<tag k="ssr:hovedgruppe" v="terreng" />
		<tag k="ssr:stedsnr" v="824941" />
		<tag k="ssr:type" v="ås" />
	</node>
	<node lat="62.413261110691835" lon="6.205394439988398" id="-7417">
		<tag k="fixme" v="consider natural=peak for the most distinct mountains in the district" />
		<tag k="name" v="Taustua" />
		<tag k="natural" v="hill" />
		<tag k="place" v="locality" />
		<tag k="ssr:date" v="2016-05-11" />
		<tag k="ssr:gruppe" v="høyder" />
		<tag k="ssr:hovedgruppe" v="terreng" />
		<tag k="ssr:stedsnr" v="824849" />
		<tag k="ssr:type" v="ås" />
	</node>
	<node lat="62.436627453268194" lon="6.2249018821829285" id="-7418">
		<tag k="fixme" v="consider place=hamlet" />
		<tag k="name" v="Veddegjerdet" />
		<tag k="place" v="farm" />
		<tag k="ssr:date" v="2018-02-21" />
		<tag k="ssr:gruppe" v="gardsbebyggelse" />
		<tag k="ssr:hovedgruppe" v="bebyggelse" />
		<tag k="ssr:stedsnr" v="847685" />
		<tag k="ssr:type" v="gard" />
	</node>
	<node lat="62.446977776562925" lon="6.197352768380986" id="-7419">
		<tag k="name" v="Indre Karlholmen" />
		<tag k="place" v="islet" />
		<tag k="ssr:date" v="2016-05-11" />
		<tag k="ssr:gruppe" v="kystkontur" />
		<tag k="ssr:hovedgruppe" v="sjø" />
		<tag k="ssr:stedsnr" v="847698" />
		<tag k="ssr:type" v="holmeISjø" />
	</node>
	<node lat="62.41364888293226" lon="6.3323289258977" id="-7420">
		<tag k="name" v="Storhaugodden" />
		<tag k="natural" v="cape" />
		<tag k="ssr:date" v="2018-05-08" />
		<tag k="ssr:gruppe" v="kystkontur" />
		<tag k="ssr:hovedgruppe" v="sjø" />
		<tag k="ssr:stedsnr" v="847789" />
		<tag k="ssr:type" v="nesISjø" />
	</node>
	<node lat="62.4339861128362" lon="6.2893305609617185" id="-7421">
		<tag k="name" v="Sandvika" />
		<tag k="natural" v="bay" />
		<tag k="ssr:date" v="2016-05-11" />
		<tag k="ssr:gruppe" v="kystkontur" />
		<tag k="ssr:hovedgruppe" v="sjø" />
		<tag k="ssr:stedsnr" v="847791" />
		<tag k="ssr:type" v="vikISjø" />
	</node>
	<node lat="62.410897220142175" lon="6.319266659398935" id="-7422">
		<tag k="name" v="Høghaugen" />
		<tag k="place" v="farm" />
		<tag k="ssr:date" v="2016-05-11" />
		<tag k="ssr:gruppe" v="gardsbebyggelse" />
		<tag k="ssr:hovedgruppe" v="bebyggelse" />
		<tag k="ssr:stedsnr" v="860131" />
		<tag k="ssr:type" v="bruk" />
	</node>
	<node lat="62.40329567904624" lon="6.2338228417034784" id="-7425">
		<tag k="fixme" v="consider place=hamlet" />
		<tag k="name" v="Hjellen" />
		<tag k="place" v="farm" />
		<tag k="ssr:date" v="2018-02-21" />
		<tag k="ssr:gruppe" v="gardsbebyggelse" />
		<tag k="ssr:hovedgruppe" v="bebyggelse" />
		<tag k="ssr:stedsnr" v="873712" />
		<tag k="ssr:type" v="gard" />
	</node>
	<node lat="62.42108055687055" lon="6.321008342796717" id="-7428">
		<tag k="name" v="Rabbeneset" />
		<tag k="natural" v="cape" />
		<tag k="ssr:date" v="2016-05-11" />
		<tag k="ssr:gruppe" v="kystkontur" />
		<tag k="ssr:hovedgruppe" v="sjø" />
		<tag k="ssr:stedsnr" v="885873" />
		<tag k="ssr:type" v="nesISjø" />
	</node>
	<node lat="62.44375833535268" lon="6.197280554128085" id="-7429">
		<tag k="landuse" v="meadow" />
		<tag k="name" v="Nymarka" />
		<tag k="ssr:date" v="2016-05-11" />
		<tag k="ssr:gruppe" v="dyrkamark" />
		<tag k="ssr:hovedgruppe" v="markslag" />
		<tag k="ssr:stedsnr" v="885884" />
		<tag k="ssr:type" v="eng" />
	</node>
	<node lat="62.42433055980937" lon="6.328616667006482" id="-7430">
		<tag k="name" v="Leirvågdalen" />
		<tag k="natural" v="valley" />
		<tag k="place" v="locality" />
		<tag k="ssr:date" v="2016-05-11" />
		<tag k="ssr:gruppe" v="senkninger" />
		<tag k="ssr:hovedgruppe" v="terreng" />
		<tag k="ssr:stedsnr" v="885819" />
		<tag k="ssr:type" v="dal" />
	</node>
	<node lat="62.406611111743786" lon="6.098822230084942" id="-7431">
		<tag k="name" v="Hågarn" />
		<tag k="natural" v="stone" />
		<tag k="ssr:date" v="2016-05-11" />
		<tag k="ssr:gruppe" v="løsmasseavsetninger" />
		<tag k="ssr:hovedgruppe" v="markslag" />
		<tag k="ssr:stedsnr" v="885832" />
		<tag k="ssr:type" v="stein" />
	</node>
	<node lat="62.40143333618535" lon="6.123288897041093" id="-7432">
		<tag k="name" v="Høgfloget" />
		<tag k="natural" v="cliff" />
		<tag k="ssr:date" v="2016-05-11" />
		<tag k="ssr:gruppe" v="terrengdetaljer" />
		<tag k="ssr:hovedgruppe" v="terreng" />
		<tag k="ssr:stedsnr" v="885835" />
		<tag k="ssr:type" v="stup" />
	</node>
	<node lat="62.426086108944524" lon="6.185600005611389" id="-7433">
		<tag k="name" v="Koppen" />
		<tag k="place" v="isolated_dwelling" />
		<tag k="ssr:date" v="2016-05-11" />
		<tag k="ssr:gruppe" v="bolighus" />
		<tag k="ssr:hovedgruppe" v="bebyggelse" />
		<tag k="ssr:stedsnr" v="885892" />
		<tag k="ssr:type" v="fritidsbolig" />
	</node>
	<node lat="62.43244444259821" lon="6.1591361205659805" id="-7434">
		<tag k="highway" v="path" />
		<tag k="name" v="Trippe" />
		<tag k="ssr:date" v="2016-05-11" />
		<tag k="ssr:gruppe" v="veg" />
		<tag k="ssr:hovedgruppe" v="infrastruktur" />
		<tag k="ssr:stedsnr" v="885894" />
		<tag k="ssr:type" v="sti" />
	</node>
	<node lat="62.416319445754866" lon="6.323411102507364" id="-7441">
		<tag k="name" v="Nausthaugen" />
		<tag k="natural" v="hill" />
		<tag k="place" v="locality" />
		<tag k="ssr:date" v="2016-05-11" />
		<tag k="ssr:gruppe" v="høyder" />
		<tag k="ssr:hovedgruppe" v="terreng" />
		<tag k="ssr:stedsnr" v="946850" />
		<tag k="ssr:type" v="haug" />
	</node>
	<node lat="62.41401666835957" lon="6.332786111922511" id="-7442">
		<tag k="name" v="Storhaugen" />
		<tag k="natural" v="hill" />
		<tag k="place" v="locality" />
		<tag k="ssr:date" v="2016-05-11" />
		<tag k="ssr:gruppe" v="høyder" />
		<tag k="ssr:hovedgruppe" v="terreng" />
		<tag k="ssr:stedsnr" v="946901" />
		<tag k="ssr:type" v="haug" />
	</node>
	<node lat="62.402541668542256" lon="6.1208472238707" id="-7443">
		<tag k="name" v="Furukammen" />
		<tag k="natural" v="ridge" />
		<tag k="place" v="locality" />
		<tag k="ssr:date" v="2016-05-11" />
		<tag k="ssr:gruppe" v="høyder" />
		<tag k="ssr:hovedgruppe" v="terreng" />
		<tag k="ssr:stedsnr" v="946911" />
		<tag k="ssr:type" v="rygg" />
	</node>
	<node lat="62.427641668849866" lon="6.284558330439379" id="-7445">
		<tag k="name" v="Mauseidvågen" />
		<tag k="natural" v="bay" />
		<tag k="ssr:date" v="2016-05-11" />
		<tag k="ssr:gruppe" v="kystkontur" />
		<tag k="ssr:hovedgruppe" v="sjø" />
		<tag k="ssr:stedsnr" v="961427" />
		<tag k="ssr:type" v="vikISjø" />
	</node>
	<node lat="62.450502778172456" lon="6.21241943687706" id="-7446">
		<tag k="name" v="Kålneset" />
		<tag k="natural" v="cape" />
		<tag k="ssr:date" v="2016-05-11" />
		<tag k="ssr:gruppe" v="kystkontur" />
		<tag k="ssr:hovedgruppe" v="sjø" />
		<tag k="ssr:stedsnr" v="968716" />
		<tag k="ssr:type" v="nesISjø" />
	</node>
	<node lat="62.440243532546916" lon="6.2742390407169255" id="-7449">
		<tag k="name" v="Våtmyr" />
		<tag k="place" v="locality" />
		<tag k="ssr:date" v="2018-02-21" />
		<tag k="ssr:gruppe" v="gardsbebyggelse" />
		<tag k="ssr:hovedgruppe" v="bebyggelse" />
		<tag k="ssr:stedsnr" v="982388" />
		<tag k="ssr:type" v="eiendom" />
	</node>
	<node lat="62.43788620165379" lon="6.262635080816793" id="-7451">
		<tag k="name" v="Haugen" />
		<tag k="place" v="locality" />
		<tag k="ssr:date" v="2018-02-21" />
		<tag k="ssr:gruppe" v="gardsbebyggelse" />
		<tag k="ssr:hovedgruppe" v="bebyggelse" />
		<tag k="ssr:stedsnr" v="982394" />
		<tag k="ssr:type" v="eiendom" />
	</node>
	<node lat="62.44183575638287" lon="6.271468067717868" id="-7453">
		<tag k="name" v="Davidsplassen" />
		<tag k="place" v="locality" />
		<tag k="ssr:date" v="2018-02-21" />
		<tag k="ssr:gruppe" v="gardsbebyggelse" />
		<tag k="ssr:hovedgruppe" v="bebyggelse" />
		<tag k="ssr:stedsnr" v="982396" />
		<tag k="ssr:type" v="eiendom" />
	</node>
	<node lat="62.44243689584435" lon="6.269973306275421" id="-7454">
		<tag k="name" v="Størkerplassen" />
		<tag k="place" v="locality" />
		<tag k="ssr:date" v="2018-02-21" />
		<tag k="ssr:gruppe" v="gardsbebyggelse" />
		<tag k="ssr:hovedgruppe" v="bebyggelse" />
		<tag k="ssr:stedsnr" v="982397" />
		<tag k="ssr:type" v="eiendom" />
	</node>
	<node lat="62.447718454313666" lon="6.230789844308412" id="-7456">
		<tag k="fixme" v="consider place=hamlet" />
		<tag k="name" v="Vågnes" />
		<tag k="place" v="farm" />
		<tag k="ssr:date" v="2018-02-21" />
		<tag k="ssr:gruppe" v="gardsbebyggelse" />
		<tag k="ssr:hovedgruppe" v="bebyggelse" />
		<tag k="ssr:stedsnr" v="982400" />
		<tag k="ssr:type" v="gard" />
	</node>
	<node lat="62.449070031648425" lon="6.22655726230322" id="-7458">
		<tag k="loc_name" v="Hamna" />
		<tag k="name" v="Skrivarhamna" />
		<tag k="place" v="locality" />
		<tag k="ssr:date" v="2021-12-16" />
		<tag k="ssr:gruppe" v="bolighus" />
		<tag k="ssr:hovedgruppe" v="bebyggelse" />
		<tag k="ssr:stedsnr" v="982403" />
		<tag k="ssr:type" v="gammelBosettingsplass" />
	</node>
	<node lat="62.446851261351874" lon="6.203247937267581" id="-7460">
		<tag k="name" v="Kippervik" />
		<tag k="place" v="locality" />
		<tag k="ssr:date" v="2018-02-21" />
		<tag k="ssr:gruppe" v="gardsbebyggelse" />
		<tag k="ssr:hovedgruppe" v="bebyggelse" />
		<tag k="ssr:stedsnr" v="982405" />
		<tag k="ssr:type" v="eiendom" />
	</node>
	<node lat="62.43653371649324" lon="6.1828006658636845" id="-7464">
		<tag k="fixme" v="consider place=hamlet" />
		<tag k="name" v="Molvær" />
		<tag k="place" v="farm" />
		<tag k="ssr:date" v="2018-02-21" />
		<tag k="ssr:gruppe" v="gardsbebyggelse" />
		<tag k="ssr:hovedgruppe" v="bebyggelse" />
		<tag k="ssr:stedsnr" v="982410" />
		<tag k="ssr:type" v="gard" />
	</node>
	<node lat="62.3952737279079" lon="6.302038262498307" id="-7698">
		<tag k="bay" v="fjord" />
		<tag k="name" v="Storfjorden" />
		<tag k="natural" v="bay" />
		<tag k="ssr:date" v="2020-06-09" />
		<tag k="ssr:gruppe" v="farvann" />
		<tag k="ssr:hovedgruppe" v="sjø" />
		<tag k="ssr:stedsnr" v="1077297" />
		<tag k="ssr:type" v="fjord" />
	</node>
</osm>
