<?xml version="1.0" encoding="UTF-8"?>
<osm generator="osmapis" version="0.6">
	<node id="-575520" lat="62.4495694427" lon="6.18952778446">
		<tag k="name" v="Svinholmen" />
		<tag k="ssr:date" v="2016-05-11" />
		<tag k="ssr:gruppe" v="navigasjon" />
		<tag k="ssr:hovedgruppe" v="infrastruktur" />
		<tag k="ssr:stedsnr" v="860975" />
		<tag k="ssr:type" v="fyrlykt" />
	</node>
	<node id="-575390" lat="62.4520472185" lon="6.17624167552">
		<tag k="name" v="Kveitskjer" />
		<tag k="ssr:date" v="2016-05-10" />
		<tag k="ssr:gruppe" v="navigasjon" />
		<tag k="ssr:hovedgruppe" v="infrastruktur" />
		<tag k="ssr:stedsnr" v="617946" />
		<tag k="ssr:type" v="fyrlykt" />
	</node>
	<node id="-575384" lat="62.4502944425" lon="6.23388611459">
		<tag k="name" v="Fransholmen" />
		<tag k="ssr:date" v="2016-05-10" />
		<tag k="ssr:gruppe" v="navigasjon" />
		<tag k="ssr:hovedgruppe" v="infrastruktur" />
		<tag k="ssr:stedsnr" v="597614" />
		<tag k="ssr:type" v="fyrlykt" />
	</node>
	<node id="-575287" lat="62.4401722236" lon="6.19222500166">
		<tag k="name" v="Sula kommune" />
		<tag k="ssr:date" v="2016-05-10" />
		<tag k="ssr:gruppe" v="administrativeIndelinger" />
		<tag k="ssr:hovedgruppe" v="offentligAdministrasjon" />
		<tag k="ssr:stedsnr" v="268150" />
		<tag k="ssr:type" v="kommune" />
	</node>
	<node id="-575529" lat="62.4396111098" lon="6.27162499863">
		<tag k="name" v="Fiskarstrand" />
		<tag k="ssr:date" v="2016-05-11" />
		<tag k="ssr:gruppe" v="administrativeIndelinger" />
		<tag k="ssr:hovedgruppe" v="offentligAdministrasjon" />
		<tag k="ssr:stedsnr" v="904889" />
		<tag k="ssr:type" v="poststed" />
	</node>
	<node id="-575148" lat="62.4307807734" lon="6.27654033152">
		<tag k="name" v="Lisjebøen" />
		<tag k="ssr:date" v="2019-12-12" />
		<tag k="ssr:gruppe" v="veg" />
		<tag k="ssr:hovedgruppe" v="infrastruktur" />
		<tag k="ssr:stedsnr" v="1074087" />
		<tag k="ssr:type" v="adressenavn" />
	</node>
	<node id="-575147" lat="62.4454364333" lon="6.20337148536">
		<tag k="name" v="Åregjerdvågen" />
		<tag k="ssr:date" v="2019-12-12" />
		<tag k="ssr:gruppe" v="veg" />
		<tag k="ssr:hovedgruppe" v="infrastruktur" />
		<tag k="ssr:stedsnr" v="1074086" />
		<tag k="ssr:type" v="adressenavn" />
	</node>
	<node id="-575146" lat="62.4222415276" lon="6.28495000821">
		<tag k="name" v="Furnesvikane" />
		<tag k="ssr:date" v="2019-08-26" />
		<tag k="ssr:gruppe" v="veg" />
		<tag k="ssr:hovedgruppe" v="infrastruktur" />
		<tag k="ssr:stedsnr" v="1072378" />
		<tag k="ssr:type" v="adressenavn" />
	</node>
	<node id="-575145" lat="62.4442171197" lon="6.19163641177">
		<tag k="name" v="Stadsnesbakken" />
		<tag k="ssr:date" v="2019-08-26" />
		<tag k="ssr:gruppe" v="veg" />
		<tag k="ssr:hovedgruppe" v="infrastruktur" />
		<tag k="ssr:stedsnr" v="1072377" />
		<tag k="ssr:type" v="adressenavn" />
	</node>
	<node id="-575558" lat="60.8816104596" lon="6.30047518531">
		<tag k="name" v="Vestlandet" />
		<tag k="ssr:date" v="2019-01-06" />
		<tag k="ssr:gruppe" v="administrativeIndelinger" />
		<tag k="ssr:hovedgruppe" v="offentligAdministrasjon" />
		<tag k="ssr:stedsnr" v="974777" />
		<tag k="ssr:type" v="annenAdministrativInndeling" />
	</node>
</osm>
