<?xml version="1.0" encoding="UTF-8"?>
<osm generator="osmapis" version="0.6">
	<node id="-684288" lat="67.8517235742" lon="15.1882719132">
		<tag k="name" v="Steigenveien" />
		<tag k="ssr:date" v="2019-05-30" />
		<tag k="ssr:gruppe" v="veg" />
		<tag k="ssr:hovedgruppe" v="infrastruktur" />
		<tag k="ssr:stedsnr" v="1022159" />
		<tag k="ssr:type" v="adressenavn" />
	</node>
	<node id="-684287" lat="67.7759841707" lon="15.0194746805">
		<tag k="name" v="Ågotskaret" />
		<tag k="ssr:date" v="2019-05-30" />
		<tag k="ssr:gruppe" v="veg" />
		<tag k="ssr:hovedgruppe" v="infrastruktur" />
		<tag k="ssr:stedsnr" v="1021762" />
		<tag k="ssr:type" v="adressenavn" />
	</node>
	<node id="-686708" lat="67.8267444463" lon="14.7524999909">
		<tag k="name" v="Løkskjær" />
		<tag k="ssr:date" v="2016-05-11" />
		<tag k="ssr:gruppe" v="navigasjon" />
		<tag k="ssr:hovedgruppe" v="infrastruktur" />
		<tag k="ssr:stedsnr" v="824922" />
		<tag k="ssr:type" v="fyrlykt" />
	</node>
	<node id="-686831" lat="67.6599861135" lon="15.0182972254">
		<tag k="name" v="Svinøya" />
		<tag k="ssr:date" v="2016-05-11" />
		<tag k="ssr:gruppe" v="navigasjon" />
		<tag k="ssr:hovedgruppe" v="infrastruktur" />
		<tag k="ssr:stedsnr" v="866740" />
		<tag k="ssr:type" v="fyrlykt" />
	</node>
	<node id="-686058" lat="67.8333027805" lon="14.7711222301">
		<tag k="name" v="Lille Manshausholmen" />
		<tag k="ssr:date" v="2016-05-10" />
		<tag k="ssr:gruppe" v="navigasjon" />
		<tag k="ssr:hovedgruppe" v="infrastruktur" />
		<tag k="ssr:stedsnr" v="640054" />
		<tag k="ssr:type" v="fyrlykt" />
	</node>
	<node id="-684008" lat="67.8172166668" lon="14.727141674">
		<tag k="name" v="Langholmen" />
		<tag k="ssr:date" v="2016-05-10" />
		<tag k="ssr:gruppe" v="navigasjon" />
		<tag k="ssr:hovedgruppe" v="infrastruktur" />
		<tag k="ssr:stedsnr" v="358240" />
		<tag k="ssr:type" v="lanterne" />
	</node>
	<node id="-683921" lat="67.8327833373" lon="14.7648888803">
		<tag k="alt_name" v="Mannshausholmen" />
		<tag k="name" v="Lille Manshausen" />
		<tag k="ssr:date" v="2016-05-10" />
		<tag k="ssr:gruppe" v="navigasjon" />
		<tag k="ssr:hovedgruppe" v="infrastruktur" />
		<tag k="ssr:stedsnr" v="320767" />
		<tag k="ssr:type" v="fyrlykt" />
	</node>
	<node id="-685282" lat="67.850127776" lon="14.796761101">
		<tag k="name" v="Helligholmøra" />
		<tag k="ssr:date" v="2016-05-10" />
		<tag k="ssr:gruppe" v="navigasjon" />
		<tag k="ssr:hovedgruppe" v="infrastruktur" />
		<tag k="ssr:stedsnr" v="419257" />
		<tag k="ssr:type" v="lanterne" />
	</node>
	<node id="-687200" lat="68.4849327361" lon="16.2297866207">
		<tag k="fixme" v="multiple name tags, choose one and add the other to alt_name" />
		<tag k="name" v="Nord-Noreg;Nord-Norge" />
		<tag k="ssr:date" v="2017-05-18" />
		<tag k="ssr:gruppe" v="administrativeIndelinger" />
		<tag k="ssr:hovedgruppe" v="offentligAdministrasjon" />
		<tag k="ssr:stedsnr" v="976106" />
		<tag k="ssr:type" v="annenAdministrativInndeling" />
	</node>
	<node id="-684304" lat="67.8358733153" lon="14.7752767061">
		<tag k="name" v="Mannshausen" />
		<tag k="ssr:date" v="2019-05-30" />
		<tag k="ssr:gruppe" v="veg" />
		<tag k="ssr:hovedgruppe" v="infrastruktur" />
		<tag k="ssr:stedsnr" v="1023802" />
		<tag k="ssr:type" v="adressenavn" />
	</node>
	<node id="-684291" lat="67.9702632372" lon="15.2553612516">
		<tag k="name" v="Grønvika" />
		<tag k="ssr:date" v="2019-05-30" />
		<tag k="ssr:gruppe" v="veg" />
		<tag k="ssr:hovedgruppe" v="infrastruktur" />
		<tag k="ssr:stedsnr" v="1023775" />
		<tag k="ssr:type" v="adressenavn" />
	</node>
	<node id="-685659" lat="67.8346194419" lon="14.7773083218">
		<tag k="name" v="Manshausskjær" />
		<tag k="ssr:date" v="2016-05-10" />
		<tag k="ssr:gruppe" v="navigasjon" />
		<tag k="ssr:hovedgruppe" v="infrastruktur" />
		<tag k="ssr:stedsnr" v="519062" />
		<tag k="ssr:type" v="fyrlykt" />
	</node>
	<node id="-683871" lat="67.7425750015" lon="14.799494438">
		<tag k="name" v="Leines" />
		<tag k="ssr:date" v="2016-05-10" />
		<tag k="ssr:gruppe" v="navigasjon" />
		<tag k="ssr:hovedgruppe" v="infrastruktur" />
		<tag k="ssr:stedsnr" v="320184" />
		<tag k="ssr:type" v="fyrlykt" />
	</node>
	<node id="-684290" lat="67.7286180877" lon="14.771290711">
		<tag k="name" v="Neset" />
		<tag k="ssr:date" v="2019-05-30" />
		<tag k="ssr:gruppe" v="veg" />
		<tag k="ssr:hovedgruppe" v="infrastruktur" />
		<tag k="ssr:stedsnr" v="1023628" />
		<tag k="ssr:type" v="adressenavn" />
	</node>
	<node id="-684886" lat="67.8407666709" lon="14.786822216">
		<tag k="name" v="Grøttøysund" />
		<tag k="old_name" v="Grøttøysund lysbøye" />
		<tag k="ssr:date" v="2016-05-10" />
		<tag k="ssr:gruppe" v="navigasjon" />
		<tag k="ssr:hovedgruppe" v="infrastruktur" />
		<tag k="ssr:stedsnr" v="157383" />
		<tag k="ssr:type" v="fyrlykt" />
	</node>
	<node id="-686421" lat="67.8062527775" lon="14.7254111144">
		<tag k="name" v="Sildeskjær" />
		<tag k="old_name" v="Sildskjeret" />
		<tag k="ssr:date" v="2016-05-11" />
		<tag k="ssr:gruppe" v="navigasjon" />
		<tag k="ssr:hovedgruppe" v="infrastruktur" />
		<tag k="ssr:stedsnr" v="744966" />
		<tag k="ssr:type" v="fyrlykt" />
	</node>
	<node id="-686164" lat="67.7538361144" lon="14.5973805656">
		<tag k="name" v="Andholmen" />
		<tag k="ssr:date" v="2016-05-11" />
		<tag k="ssr:gruppe" v="navigasjon" />
		<tag k="ssr:hovedgruppe" v="infrastruktur" />
		<tag k="ssr:stedsnr" v="684056" />
		<tag k="ssr:type" v="fyrlykt" />
	</node>
	<node id="-686675" lat="67.7388333355" lon="15.3392972264">
		<tag k="name" v="Stabban" />
		<tag k="ssr:date" v="2016-05-11" />
		<tag k="ssr:gruppe" v="navigasjon" />
		<tag k="ssr:hovedgruppe" v="infrastruktur" />
		<tag k="ssr:stedsnr" v="806786" />
		<tag k="ssr:type" v="fyrlykt" />
	</node>
	<node id="-684370" lat="67.8415138924" lon="14.6035166701">
		<tag k="name" v="Store Jensøy" />
		<tag k="old_name" v="Jensøya, store" />
		<tag k="ssr:date" v="2016-05-10" />
		<tag k="ssr:gruppe" v="navigasjon" />
		<tag k="ssr:hovedgruppe" v="infrastruktur" />
		<tag k="ssr:stedsnr" v="17115" />
		<tag k="ssr:type" v="fyrlykt" />
	</node>
	<node id="-684239" lat="67.8363749968" lon="14.7808305432">
		<tag k="name" v="Manshaussnaget" />
		<tag k="ssr:date" v="2016-05-11" />
		<tag k="ssr:gruppe" v="navigasjon" />
		<tag k="ssr:hovedgruppe" v="infrastruktur" />
		<tag k="ssr:stedsnr" v="884068" />
		<tag k="ssr:type" v="fyrlykt" />
	</node>
	<node id="-685386" lat="67.9202500028" lon="14.7682166736">
		<tag k="name" v="Flatøy" />
		<tag k="old_name" v="Flatøya" />
		<tag k="ssr:date" v="2016-05-10" />
		<tag k="ssr:gruppe" v="navigasjon" />
		<tag k="ssr:hovedgruppe" v="infrastruktur" />
		<tag k="ssr:stedsnr" v="442179" />
		<tag k="ssr:type" v="fyrlykt" />
	</node>
	<node id="-686278" lat="68.0069250029" lon="15.1053499993">
		<tag k="name" v="Brunværet" />
		<tag k="ssr:date" v="2016-05-11" />
		<tag k="ssr:gruppe" v="navigasjon" />
		<tag k="ssr:hovedgruppe" v="infrastruktur" />
		<tag k="ssr:stedsnr" v="685855" />
		<tag k="ssr:type" v="fyrlykt" />
	</node>
	<node id="-683842" lat="67.7355027816" lon="14.7132083225">
		<tag k="name" v="Steinsholmen, Nedre" />
		<tag k="ssr:date" v="2016-05-10" />
		<tag k="ssr:gruppe" v="navigasjon" />
		<tag k="ssr:hovedgruppe" v="infrastruktur" />
		<tag k="ssr:stedsnr" v="320020" />
		<tag k="ssr:type" v="fyrlykt" />
	</node>
	<node id="-684289" lat="67.8607129238" lon="15.2158555497">
		<tag k="name" v="Øvre Holmåk" />
		<tag k="ssr:date" v="2019-05-30" />
		<tag k="ssr:gruppe" v="veg" />
		<tag k="ssr:hovedgruppe" v="infrastruktur" />
		<tag k="ssr:stedsnr" v="1022148" />
		<tag k="ssr:type" v="adressenavn" />
	</node>
	<node id="-684351" lat="67.7374972229" lon="14.7149083222">
		<tag k="name" v="Steinsholmen, Øvre" />
		<tag k="ssr:date" v="2016-05-10" />
		<tag k="ssr:gruppe" v="navigasjon" />
		<tag k="ssr:hovedgruppe" v="infrastruktur" />
		<tag k="ssr:stedsnr" v="17021" />
		<tag k="ssr:type" v="fyrlykt" />
	</node>
	<node id="-683965" lat="67.8196583369" lon="14.735294438">
		<tag k="name" v="Hartvikgrunnen" />
		<tag k="old_name" v="Hartviggrunnen" />
		<tag k="ssr:date" v="2016-05-10" />
		<tag k="ssr:gruppe" v="navigasjon" />
		<tag k="ssr:hovedgruppe" v="infrastruktur" />
		<tag k="ssr:stedsnr" v="338124" />
		<tag k="ssr:type" v="fyrlykt" />
	</node>
	<node id="-683964" lat="67.8442361091" lon="14.8138083361">
		<tag k="name" v="Nordskot" />
		<tag k="ssr:date" v="2016-05-10" />
		<tag k="ssr:gruppe" v="navigasjon" />
		<tag k="ssr:hovedgruppe" v="infrastruktur" />
		<tag k="ssr:stedsnr" v="337976" />
		<tag k="ssr:type" v="fyrlykt" />
	</node>
	<node id="-683850" lat="67.6711333378" lon="14.7087444439">
		<tag k="name" v="Ola-Persøy" />
		<tag k="old_name" v="Ola-Persøya" />
		<tag k="ssr:date" v="2016-05-10" />
		<tag k="ssr:gruppe" v="navigasjon" />
		<tag k="ssr:hovedgruppe" v="infrastruktur" />
		<tag k="ssr:stedsnr" v="320047" />
		<tag k="ssr:type" v="fyrlykt" />
	</node>
	<node id="-685625" lat="67.8469694427" lon="14.8073499881">
		<tag k="name" v="Oksholmen" />
		<tag k="ssr:date" v="2016-05-10" />
		<tag k="ssr:gruppe" v="navigasjon" />
		<tag k="ssr:hovedgruppe" v="infrastruktur" />
		<tag k="ssr:stedsnr" v="502818" />
		<tag k="ssr:type" v="fyrlykt" />
	</node>
	<node id="-687025" lat="67.9110444453" lon="15.105147217">
		<tag k="name" v="Kattskjær" />
		<tag k="old_name" v="Kattskjeret" />
		<tag k="ssr:date" v="2016-05-11" />
		<tag k="ssr:gruppe" v="navigasjon" />
		<tag k="ssr:hovedgruppe" v="infrastruktur" />
		<tag k="ssr:stedsnr" v="927189" />
		<tag k="ssr:type" v="fyrlykt" />
	</node>
	<node id="-683951" lat="67.7941196543" lon="15.0602949995">
		<tag k="name" v="Skjelvareidveien" />
		<tag k="ssr:date" v="2019-05-31" />
		<tag k="ssr:gruppe" v="veg" />
		<tag k="ssr:hovedgruppe" v="infrastruktur" />
		<tag k="ssr:stedsnr" v="1044994" />
		<tag k="ssr:type" v="adressenavn" />
	</node>
	<node id="-683926" lat="67.8534722199" lon="14.7887666578">
		<tag k="name" v="Kjuklingflu" />
		<tag k="ssr:date" v="2016-05-10" />
		<tag k="ssr:gruppe" v="navigasjon" />
		<tag k="ssr:hovedgruppe" v="infrastruktur" />
		<tag k="ssr:stedsnr" v="320790" />
		<tag k="ssr:type" v="fyrlykt" />
	</node>
	<node id="-684458" lat="67.9652861155" lon="15.1255333287">
		<tag k="name" v="Skagstadsund" />
		<tag k="ssr:date" v="2016-05-10" />
		<tag k="ssr:gruppe" v="navigasjon" />
		<tag k="ssr:hovedgruppe" v="infrastruktur" />
		<tag k="ssr:stedsnr" v="24688" />
		<tag k="ssr:type" v="fyrlykt" />
	</node>
	<node id="-685094" lat="67.8435861068" lon="14.7898138884">
		<tag k="name" v="Skaten" />
		<tag k="ssr:date" v="2016-05-10" />
		<tag k="ssr:gruppe" v="navigasjon" />
		<tag k="ssr:hovedgruppe" v="infrastruktur" />
		<tag k="ssr:stedsnr" v="207516" />
		<tag k="ssr:type" v="fyrlykt" />
	</node>
	<node id="-685091" lat="68.0433583374" lon="15.2247472303">
		<tag k="name" v="Øksnes" />
		<tag k="ssr:date" v="2016-05-10" />
		<tag k="ssr:gruppe" v="navigasjon" />
		<tag k="ssr:hovedgruppe" v="infrastruktur" />
		<tag k="ssr:stedsnr" v="199932" />
		<tag k="ssr:type" v="fyrlykt" />
	</node>
	<node id="-684635" lat="67.913916666" lon="15.020780561">
		<tag k="name" v="Hamnholmen" />
		<tag k="ssr:date" v="2016-05-10" />
		<tag k="ssr:gruppe" v="navigasjon" />
		<tag k="ssr:hovedgruppe" v="infrastruktur" />
		<tag k="ssr:stedsnr" v="78192" />
		<tag k="ssr:type" v="fyrlykt" />
	</node>
	<node id="-685216" lat="67.7799777748" lon="15.5879666754">
		<tag k="name" v="Hopneset" />
		<tag k="ssr:date" v="2016-05-10" />
		<tag k="ssr:gruppe" v="navigasjon" />
		<tag k="ssr:hovedgruppe" v="infrastruktur" />
		<tag k="ssr:stedsnr" v="259684" />
		<tag k="ssr:type" v="fyrlykt" />
	</node>
	<node id="-683739" lat="67.7762499965" lon="15.016205558">
		<tag k="name" v="Steigen kommune" />
		<tag k="ssr:date" v="2016-05-10" />
		<tag k="ssr:gruppe" v="administrativeIndelinger" />
		<tag k="ssr:hovedgruppe" v="offentligAdministrasjon" />
		<tag k="ssr:stedsnr" v="269399" />
		<tag k="ssr:type" v="kommune" />
	</node>
	<node id="-684314" lat="67.9180158037" lon="15.5487672393">
		<tag k="name" v="Straumfjorden" />
		<tag k="ssr:date" v="2019-05-30" />
		<tag k="ssr:gruppe" v="veg" />
		<tag k="ssr:hovedgruppe" v="infrastruktur" />
		<tag k="ssr:stedsnr" v="1023854" />
		<tag k="ssr:type" v="adressenavn" />
	</node>
	<node id="-684313" lat="67.8239499714" lon="15.418095451">
		<tag k="name" v="Nøtnes" />
		<tag k="ssr:date" v="2019-05-30" />
		<tag k="ssr:gruppe" v="veg" />
		<tag k="ssr:hovedgruppe" v="infrastruktur" />
		<tag k="ssr:stedsnr" v="1023852" />
		<tag k="ssr:type" v="adressenavn" />
	</node>
	<node id="-684312" lat="67.8132217031" lon="15.4523608567">
		<tag k="name" v="Bjørsvika" />
		<tag k="ssr:date" v="2019-05-30" />
		<tag k="ssr:gruppe" v="veg" />
		<tag k="ssr:hovedgruppe" v="infrastruktur" />
		<tag k="ssr:stedsnr" v="1023849" />
		<tag k="ssr:type" v="adressenavn" />
	</node>
	<node id="-684311" lat="67.8484359829" lon="15.5045663807">
		<tag k="name" v="Storvatnet" />
		<tag k="ssr:date" v="2019-05-30" />
		<tag k="ssr:gruppe" v="veg" />
		<tag k="ssr:hovedgruppe" v="infrastruktur" />
		<tag k="ssr:stedsnr" v="1023848" />
		<tag k="ssr:type" v="adressenavn" />
	</node>
	<node id="-684822" lat="67.7208861118" lon="14.7527416723">
		<tag k="name" v="Bjørnerøy" />
		<tag k="ssr:date" v="2016-05-10" />
		<tag k="ssr:gruppe" v="navigasjon" />
		<tag k="ssr:hovedgruppe" v="infrastruktur" />
		<tag k="ssr:stedsnr" v="138231" />
		<tag k="ssr:type" v="fyrlykt" />
	</node>
	<node id="-684309" lat="67.9373399158" lon="14.9539814011">
		<tag k="name" v="Burøya" />
		<tag k="ssr:date" v="2019-05-30" />
		<tag k="ssr:gruppe" v="veg" />
		<tag k="ssr:hovedgruppe" v="infrastruktur" />
		<tag k="ssr:stedsnr" v="1023811" />
		<tag k="ssr:type" v="adressenavn" />
	</node>
	<node id="-684308" lat="67.8380704023" lon="14.77494675">
		<tag k="name" v="Grøtøya" />
		<tag k="ssr:date" v="2019-05-30" />
		<tag k="ssr:gruppe" v="veg" />
		<tag k="ssr:hovedgruppe" v="infrastruktur" />
		<tag k="ssr:stedsnr" v="1023808" />
		<tag k="ssr:type" v="adressenavn" />
	</node>
	<node id="-684307" lat="68.0367607597" lon="15.2250951624">
		<tag k="name" v="Øksnes" />
		<tag k="ssr:date" v="2019-05-30" />
		<tag k="ssr:gruppe" v="veg" />
		<tag k="ssr:hovedgruppe" v="infrastruktur" />
		<tag k="ssr:stedsnr" v="1023807" />
		<tag k="ssr:type" v="adressenavn" />
	</node>
	<node id="-684306" lat="67.9160523301" lon="14.890433341">
		<tag k="name" v="Lauvøya" />
		<tag k="ssr:date" v="2019-05-30" />
		<tag k="ssr:gruppe" v="veg" />
		<tag k="ssr:hovedgruppe" v="infrastruktur" />
		<tag k="ssr:stedsnr" v="1023806" />
		<tag k="ssr:type" v="adressenavn" />
	</node>
	<node id="-684305" lat="67.7298452858" lon="14.590940796">
		<tag k="name" v="Husøya" />
		<tag k="ssr:date" v="2019-05-30" />
		<tag k="ssr:gruppe" v="veg" />
		<tag k="ssr:hovedgruppe" v="infrastruktur" />
		<tag k="ssr:stedsnr" v="1023804" />
		<tag k="ssr:type" v="adressenavn" />
	</node>
	<node id="-686224" lat="67.8343333301" lon="15.3978305461">
		<tag k="name" v="Gravnesodden" />
		<tag k="ssr:date" v="2016-05-11" />
		<tag k="ssr:gruppe" v="navigasjon" />
		<tag k="ssr:hovedgruppe" v="infrastruktur" />
		<tag k="ssr:stedsnr" v="684720" />
		<tag k="ssr:type" v="fyrlykt" />
	</node>
	<node id="-684303" lat="67.8145219122" lon="14.700112081">
		<tag k="name" v="Måløya" />
		<tag k="ssr:date" v="2019-05-30" />
		<tag k="ssr:gruppe" v="veg" />
		<tag k="ssr:hovedgruppe" v="infrastruktur" />
		<tag k="ssr:stedsnr" v="1023800" />
		<tag k="ssr:type" v="adressenavn" />
	</node>
	<node id="-684302" lat="67.7569279697" lon="15.4353417365">
		<tag k="name" v="Stavnes" />
		<tag k="ssr:date" v="2019-05-30" />
		<tag k="ssr:gruppe" v="veg" />
		<tag k="ssr:hovedgruppe" v="infrastruktur" />
		<tag k="ssr:stedsnr" v="1023794" />
		<tag k="ssr:type" v="adressenavn" />
	</node>
	<node id="-684301" lat="67.9703786513" lon="15.2995571024">
		<tag k="name" v="Oksøya" />
		<tag k="ssr:date" v="2019-05-30" />
		<tag k="ssr:gruppe" v="veg" />
		<tag k="ssr:hovedgruppe" v="infrastruktur" />
		<tag k="ssr:stedsnr" v="1023773" />
		<tag k="ssr:type" v="adressenavn" />
	</node>
	<node id="-684300" lat="67.9865699461" lon="15.1818735299">
		<tag k="name" v="Alsvikveien" />
		<tag k="ssr:date" v="2019-05-30" />
		<tag k="ssr:gruppe" v="veg" />
		<tag k="ssr:hovedgruppe" v="infrastruktur" />
		<tag k="ssr:stedsnr" v="1023772" />
		<tag k="ssr:type" v="adressenavn" />
	</node>
	<node id="-684299" lat="67.9726632282" lon="15.2418510458">
		<tag k="name" v="Vikmarka" />
		<tag k="ssr:date" v="2019-05-30" />
		<tag k="ssr:gruppe" v="veg" />
		<tag k="ssr:hovedgruppe" v="infrastruktur" />
		<tag k="ssr:stedsnr" v="1023770" />
		<tag k="ssr:type" v="adressenavn" />
	</node>
	<node id="-684298" lat="67.6892911336" lon="15.6563544257">
		<tag k="name" v="Stavfjorden" />
		<tag k="ssr:date" v="2019-05-30" />
		<tag k="ssr:gruppe" v="veg" />
		<tag k="ssr:hovedgruppe" v="infrastruktur" />
		<tag k="ssr:stedsnr" v="1023791" />
		<tag k="ssr:type" v="adressenavn" />
	</node>
	<node id="-684297" lat="67.7617653476" lon="15.6931927758">
		<tag k="name" v="Ånderbakken" />
		<tag k="ssr:date" v="2019-05-30" />
		<tag k="ssr:gruppe" v="veg" />
		<tag k="ssr:hovedgruppe" v="infrastruktur" />
		<tag k="ssr:stedsnr" v="1023789" />
		<tag k="ssr:type" v="adressenavn" />
	</node>
	<node id="-684296" lat="67.7025683204" lon="15.4121812901">
		<tag k="name" v="Helldalen" />
		<tag k="ssr:date" v="2019-05-30" />
		<tag k="ssr:gruppe" v="veg" />
		<tag k="ssr:hovedgruppe" v="infrastruktur" />
		<tag k="ssr:stedsnr" v="1023788" />
		<tag k="ssr:type" v="adressenavn" />
	</node>
	<node id="-684295" lat="67.6965228379" lon="15.4591110229">
		<tag k="name" v="Sandbakken" />
		<tag k="ssr:date" v="2019-05-30" />
		<tag k="ssr:gruppe" v="veg" />
		<tag k="ssr:hovedgruppe" v="infrastruktur" />
		<tag k="ssr:stedsnr" v="1023785" />
		<tag k="ssr:type" v="adressenavn" />
	</node>
	<node id="-684294" lat="67.6581160587" lon="15.0517905451">
		<tag k="name" v="Hjartøya" />
		<tag k="ssr:date" v="2019-05-30" />
		<tag k="ssr:gruppe" v="veg" />
		<tag k="ssr:hovedgruppe" v="infrastruktur" />
		<tag k="ssr:stedsnr" v="1023781" />
		<tag k="ssr:type" v="adressenavn" />
	</node>
	<node id="-684293" lat="67.6676500146" lon="14.7615522017">
		<tag k="name" v="Brennsund" />
		<tag k="ssr:date" v="2019-05-30" />
		<tag k="ssr:gruppe" v="veg" />
		<tag k="ssr:hovedgruppe" v="infrastruktur" />
		<tag k="ssr:stedsnr" v="1023780" />
		<tag k="ssr:type" v="adressenavn" />
	</node>
	<node id="-684292" lat="67.6626582603" lon="15.1987615574">
		<tag k="name" v="Mulen" />
		<tag k="ssr:date" v="2019-05-30" />
		<tag k="ssr:gruppe" v="veg" />
		<tag k="ssr:hovedgruppe" v="infrastruktur" />
		<tag k="ssr:stedsnr" v="1023777" />
		<tag k="ssr:type" v="adressenavn" />
	</node>
	<node id="-684310" lat="67.8550316177" lon="15.4447068469">
		<tag k="name" v="Lommeren" />
		<tag k="ssr:date" v="2019-05-30" />
		<tag k="ssr:gruppe" v="veg" />
		<tag k="ssr:hovedgruppe" v="infrastruktur" />
		<tag k="ssr:stedsnr" v="1023847" />
		<tag k="ssr:type" v="adressenavn" />
	</node>
	<node id="-685186" lat="67.7680333302" lon="14.4012611017">
		<tag k="name" v="Måløy-Skarholmen" />
		<tag k="old_name" v="Måløy-Skardholmen Fyr;Måløy-Skarholmen fyr;Måløy-Skardholmen" />
		<tag k="ssr:date" v="2016-05-10" />
		<tag k="ssr:gruppe" v="navigasjon" />
		<tag k="ssr:hovedgruppe" v="infrastruktur" />
		<tag k="ssr:stedsnr" v="259005" />
		<tag k="ssr:type" v="fyrstasjon" />
	</node>
	<node id="-687105" lat="67.8138916711" lon="14.7249666699">
		<tag k="name" v="Andersdraget" />
		<tag k="ssr:date" v="2016-05-11" />
		<tag k="ssr:gruppe" v="navigasjon" />
		<tag k="ssr:hovedgruppe" v="infrastruktur" />
		<tag k="ssr:stedsnr" v="945139" />
		<tag k="ssr:type" v="fyrlykt" />
	</node>
</osm>
