<?xml version="1.0" encoding="UTF-8"?>
<osm generator="osmapis" version="0.6">
	<node id="-178170" lat="60.6176000009" lon="8.3387499948">
		<tag k="name" v="Gørrmyre" />
		<tag k="natural" v="wetland" />
		<tag k="ssr:stedsnr" v="845653" />
	</node>
	<node id="-176121" lat="60.6242611107" lon="8.23945556134">
		<tag k="alt_name" v="Nyestølen" />
		<tag k="historic" v="shieling" />
		<tag k="name" v="Vikastølen" />
		<tag k="place" v="locality" />
		<tag k="ssr:stedsnr" v="310646" />
	</node>
	<node id="-176118" lat="60.6350694474" lon="8.20955000645">
		<tag k="historic" v="shieling" />
		<tag k="name" v="Vindåsen" />
		<tag k="place" v="locality" />
		<tag k="ssr:stedsnr" v="310614" />
	</node>
	<node id="-176624" lat="60.5906666648" lon="8.29919166011">
		<tag k="historic" v="shieling" />
		<tag k="name" v="Bjørnstølen" />
		<tag k="place" v="locality" />
		<tag k="ssr:stedsnr" v="68684" />
	</node>
	<node id="-178151" lat="60.6180944471" lon="8.18466110857">
		<tag k="name" v="Grønholamyrane" />
		<tag k="natural" v="wetland" />
		<tag k="ssr:stedsnr" v="830965" />
	</node>
	<node id="-177636" lat="60.6757388886" lon="7.99799999745">
		<tag k="name" v="Vetremyrane" />
		<tag k="natural" v="wetland" />
		<tag k="ssr:stedsnr" v="613326" />
	</node>
	<node id="-178144" lat="60.5942222189" lon="8.37331389694">
		<tag k="historic" v="shieling" />
		<tag k="name" v="Brennune" />
		<tag k="place" v="locality" />
		<tag k="ssr:stedsnr" v="830040" />
	</node>
	<node id="-178143" lat="60.6067222232" lon="8.36393888762">
		<tag k="name" v="Kalvemyr" />
		<tag k="natural" v="wetland" />
		<tag k="ssr:stedsnr" v="830033" />
	</node>
	<node id="-178127" lat="60.7992916694" lon="7.93080555827">
		<tag k="historic" v="shieling" />
		<tag k="name" v="Øyestølen" />
		<tag k="place" v="locality" />
		<tag k="ssr:stedsnr" v="797717" />
	</node>
	<node id="-177100" lat="60.4170944438" lon="8.36148888426">
		<tag k="name" v="Hovdestølmyran" />
		<tag k="natural" v="wetland" />
		<tag k="ssr:stedsnr" v="430121" />
	</node>
	<node id="-177095" lat="60.6339777806" lon="8.33521389568">
		<tag k="name" v="Støngemyrane" />
		<tag k="natural" v="wetland" />
		<tag k="ssr:stedsnr" v="423849" />
	</node>
	<node id="-177093" lat="60.700569447" lon="7.8727722209">
		<tag k="historic" v="shieling" />
		<tag k="name" v="Plassen" />
		<tag k="place" v="locality" />
		<tag k="ssr:stedsnr" v="423520" />
	</node>
	<node id="-177604" lat="60.4066583296" lon="8.38732500432">
		<tag k="name" v="Slåttemyre" />
		<tag k="natural" v="wetland" />
		<tag k="ssr:stedsnr" v="611177" />
	</node>
	<node id="-177080" lat="60.6380222186" lon="8.35277499228">
		<tag k="historic" v="shieling" />
		<tag k="name" v="Skølidn" />
		<tag k="place" v="locality" />
		<tag k="ssr:stedsnr" v="480016" />
	</node>
	<node id="-176053" lat="60.4439499987" lon="8.42404166061">
		<tag k="alt_name" v="Baklistulen" />
		<tag k="historic" v="shieling" />
		<tag k="name" v="Baklistølen" />
		<tag k="place" v="locality" />
		<tag k="ssr:stedsnr" v="308126" />
	</node>
	<node id="-177587" lat="60.59500556" lon="8.41120277679">
		<tag k="name" v="Dammyre" />
		<tag k="natural" v="wetland" />
		<tag k="ssr:stedsnr" v="605084" />
	</node>
	<node id="-177583" lat="60.6143749966" lon="8.21566389334">
		<tag k="name" v="Grøtsslåtta" />
		<tag k="place" v="locality" />
		<tag k="ssr:stedsnr" v="604988" />
	</node>
	<node id="-177582" lat="60.5845083333" lon="8.36592777164">
		<tag k="name" v="Sagenøyne" />
		<tag k="place" v="locality" />
		<tag k="ssr:stedsnr" v="604969" />
	</node>
	<node id="-177581" lat="60.6085555588" lon="8.35869721321">
		<tag k="name" v="Storemyr" />
		<tag k="natural" v="wetland" />
		<tag k="ssr:stedsnr" v="604929" />
	</node>
	<node id="-176037" lat="60.6028722255" lon="8.38936388204">
		<tag k="name" v="Tubbemyre" />
		<tag k="natural" v="wetland" />
		<tag k="ssr:stedsnr" v="298887" />
	</node>
	<node id="-176710" lat="60.5751666688" lon="8.27648333767">
		<tag k="name" v="Flåmyrane" />
		<tag k="natural" v="wetland" />
		<tag k="ssr:stedsnr" v="120186" />
	</node>
	<node id="-178082" lat="60.620136115" lon="8.17662222585">
		<tag k="name" v="Tranamyrane" />
		<tag k="natural" v="wetland" />
		<tag k="ssr:stedsnr" v="795637" />
	</node>
	<node id="-176545" lat="60.6113187286" lon="8.37316131826">
		<tag k="name" v="Dammyre" />
		<tag k="natural" v="wetland" />
		<tag k="ssr:stedsnr" v="59512" />
	</node>
	<node id="-176032" lat="60.3937194464" lon="8.34581666427">
		<tag k="name" v="Heimhøvdmyran" />
		<tag k="natural" v="wetland" />
		<tag k="ssr:stedsnr" v="298344" />
	</node>
	<node id="-176542" lat="60.404063888" lon="8.39361666093">
		<tag k="name" v="Hestemyr" />
		<tag k="natural" v="wetland" />
		<tag k="ssr:stedsnr" v="59389" />
	</node>
	<node id="-176964" lat="60.6072916704" lon="8.29835833598">
		<tag k="historic" v="shieling" />
		<tag k="name" v="Hellingslåtta" />
		<tag k="place" v="locality" />
		<tag k="ssr:stedsnr" v="224416" />
	</node>
	<node id="-176016" lat="60.5930111112" lon="8.37141945291">
		<tag k="name" v="Gommoberget" />
		<tag k="place" v="locality" />
		<tag k="ssr:stedsnr" v="284037" />
	</node>
	<node id="-177550" lat="60.6123861146" lon="8.31288055534">
		<tag k="landuse" v="meadow" />
		<tag k="name" v="Løingane" />
		<tag k="ssr:stedsnr" v="587546" />
	</node>
	<node id="-178058" lat="60.3482972259" lon="8.06227499823">
		<tag k="historic" v="shieling" />
		<tag k="name" v="Kroken" />
		<tag k="place" v="locality" />
		<tag k="ssr:stedsnr" v="794797" />
	</node>
	<node id="-177544" lat="60.5915166657" lon="8.38013888345">
		<tag k="historic" v="shieling" />
		<tag k="name" v="Markaslette" />
		<tag k="place" v="locality" />
		<tag k="ssr:stedsnr" v="587063" />
	</node>
	<node id="-178052" lat="60.4097472239" lon="8.37455833976">
		<tag k="name" v="Ljosemyre" />
		<tag k="natural" v="wetland" />
		<tag k="ssr:stedsnr" v="794160" />
	</node>
	<node id="-178047" lat="60.5785138873" lon="8.32255832691">
		<tag k="historic" v="shieling" />
		<tag k="name" v="Branes" />
		<tag k="place" v="locality" />
		<tag k="ssr:stedsnr" v="787979" />
	</node>
	<node id="-178043" lat="60.6114027763" lon="8.35699721894">
		<tag k="name" v="Undarstein" />
		<tag k="natural" v="stone" />
		<tag k="ssr:stedsnr" v="787917" />
	</node>
	<node id="-176506" lat="60.5262749974" lon="8.15129443853">
		<tag k="landuse" v="meadow" />
		<tag k="name" v="Gullstein-Feten" />
		<tag k="ssr:stedsnr" v="39176" />
	</node>
	<node id="-177014" lat="60.4434333309" lon="8.24083056442">
		<tag k="name" v="Stormyran" />
		<tag k="natural" v="wetland" />
		<tag k="ssr:stedsnr" v="248151" />
	</node>
	<node id="-178035" lat="60.5908305567" lon="8.41949165979">
		<tag k="historic" v="shieling" />
		<tag k="name" v="Lykkjun" />
		<tag k="place" v="locality" />
		<tag k="ssr:stedsnr" v="787054" />
	</node>
	<node id="-177010" lat="60.6337416677" lon="8.34757777029">
		<tag k="name" v="Langemyrane" />
		<tag k="natural" v="wetland" />
		<tag k="ssr:stedsnr" v="241815" />
	</node>
	<node id="-177521" lat="60.6449194452" lon="8.09298888158">
		<tag k="historic" v="shieling" />
		<tag k="name" v="Plassen" />
		<tag k="place" v="locality" />
		<tag k="ssr:stedsnr" v="585133" />
	</node>
	<node id="-178022" lat="60.5933861076" lon="8.39233611988">
		<tag k="historic" v="shieling" />
		<tag k="name" v="Liastølen" />
		<tag k="place" v="locality" />
		<tag k="ssr:stedsnr" v="783898" />
	</node>
	<node id="-177498" lat="60.6460777786" lon="8.13404722667">
		<tag k="historic" v="shieling" />
		<tag k="name" v="Leine" />
		<tag k="place" v="locality" />
		<tag k="ssr:stedsnr" v="553563" />
	</node>
	<node id="-178006" lat="60.5793805525" lon="8.30591666967">
		<tag k="landuse" v="meadow" />
		<tag k="name" v="Lislelie" />
		<tag k="ssr:stedsnr" v="770155" />
	</node>
	<node id="-176464" lat="60.6699277778" lon="7.58024722832">
		<tag k="name" v="Storfonn" />
		<tag k="place" v="locality" />
		<tag k="ssr:stedsnr" v="7223" />
	</node>
	<node id="-176969" lat="60.6787416675" lon="8.06176111018">
		<tag k="historic" v="shieling" />
		<tag k="name" v="Feten" />
		<tag k="place" v="locality" />
		<tag k="ssr:stedsnr" v="224372" />
	</node>
	<node id="-177991" lat="60.6149611125" lon="8.38602776978">
		<tag k="name" v="Røyshallidn" />
		<tag k="natural" v="scree" />
		<tag k="ssr:stedsnr" v="768485" />
	</node>
	<node id="-177989" lat="60.5213861092" lon="8.12429999346">
		<tag k="name" v="Hermosletto" />
		<tag k="place" v="locality" />
		<tag k="ssr:stedsnr" v="768097" />
	</node>
	<node id="-177988" lat="60.5374250024" lon="8.25941111065">
		<tag k="historic" v="shieling" />
		<tag k="name" v="Levorstølen" />
		<tag k="place" v="locality" />
		<tag k="ssr:stedsnr" v="767948" />
	</node>
	<node id="-176692" lat="60.5181361125" lon="8.29728055896">
		<tag k="name" v="Nystølmyre" />
		<tag k="natural" v="wetland" />
		<tag k="ssr:stedsnr" v="118639" />
	</node>
	<node id="-177966" lat="60.6184944427" lon="8.15799165836">
		<tag k="landuse" v="meadow" />
		<tag k="name" v="Larsgardslåttun" />
		<tag k="ssr:stedsnr" v="735646" />
	</node>
	<node id="-177441" lat="60.3806944444" lon="8.36769721855">
		<tag k="historic" v="shieling" />
		<tag k="name" v="Ingebjørgsætre" />
		<tag k="place" v="locality" />
		<tag k="ssr:stedsnr" v="551223" />
	</node>
	<node id="-177439" lat="60.4126138905" lon="8.34275000359">
		<tag k="name" v="Grothovdmyran" />
		<tag k="natural" v="wetland" />
		<tag k="ssr:stedsnr" v="551188" />
	</node>
	<node id="-177936" lat="60.6095055547" lon="7.71590832564">
		<tag k="loc_name" v="Hellevassfonne" />
		<tag k="name" v="Hellevassfonni" />
		<tag k="natural" v="glacier" />
		<tag k="ssr:stedsnr" v="735285" />
	</node>
	<node id="-177418" lat="60.6042472229" lon="8.39952778567">
		<tag k="name" v="Skutustein" />
		<tag k="natural" v="stone" />
		<tag k="ssr:stedsnr" v="544086" />
	</node>
	<node id="-177416" lat="60.6503750029" lon="8.0236638876">
		<tag k="name" v="Løkjeslåtta" />
		<tag k="place" v="locality" />
		<tag k="ssr:stedsnr" v="543620" />
	</node>
	<node id="-177411" lat="60.5802722235" lon="8.39688888066">
		<tag k="landuse" v="meadow" />
		<tag k="name" v="Åkreslåtta" />
		<tag k="ssr:stedsnr" v="543272" />
	</node>
	<node id="-178433" lat="60.6208805524" lon="8.16470832581">
		<tag k="landuse" v="meadow" />
		<tag k="name" v="Hamreplassen" />
		<tag k="ssr:stedsnr" v="969917" />
	</node>
	<node id="-177407" lat="60.534863886" lon="8.26900000766">
		<tag k="historic" v="shieling" />
		<tag k="name" v="Randistølen" />
		<tag k="place" v="locality" />
		<tag k="ssr:stedsnr" v="542669" />
	</node>
	<node id="-177403" lat="60.6239027801" lon="8.14566111165">
		<tag k="landuse" v="meadow" />
		<tag k="name" v="Gautedøkki" />
		<tag k="ssr:stedsnr" v="541844" />
	</node>
	<node id="-176374" lat="60.6002972245" lon="8.31213333422">
		<tag k="historic" v="shieling" />
		<tag k="name" v="Levordslåtta" />
		<tag k="place" v="locality" />
		<tag k="ssr:stedsnr" v="892698" />
	</node>
	<node id="-177393" lat="60.5689361122" lon="8.16856666759">
		<tag k="name" v="Budalsmyrane" />
		<tag k="natural" v="wetland" />
		<tag k="ssr:stedsnr" v="540173" />
	</node>
	<node id="-177392" lat="60.551016666" lon="8.17181665888">
		<tag k="name" v="Havsdalstein" />
		<tag k="natural" v="stone" />
		<tag k="ssr:stedsnr" v="540149" />
	</node>
	<node id="-178414" lat="60.6759444445" lon="7.98807499905">
		<tag k="name" v="Gardlifekjane" />
		<tag k="place" v="locality" />
		<tag k="ssr:stedsnr" v="965711" />
	</node>
	<node id="-176362" lat="60.5940694403" lon="8.36922777626">
		<tag k="historic" v="shieling" />
		<tag k="name" v="Løgneliflate" />
		<tag k="place" v="locality" />
		<tag k="ssr:stedsnr" v="891051" />
	</node>
	<node id="-176361" lat="60.5947416682" lon="8.37120276933">
		<tag k="historic" v="shieling" />
		<tag k="name" v="Fløto" />
		<tag k="place" v="locality" />
		<tag k="ssr:stedsnr" v="891045" />
	</node>
	<node id="-177896" lat="60.4412444458" lon="8.27133888916">
		<tag k="name" v="Fiskmyran" />
		<tag k="natural" v="wetland" />
		<tag k="ssr:stedsnr" v="733162" />
	</node>
	<node id="-177895" lat="60.4363527742" lon="8.31080000538">
		<tag k="name" v="Stongarmyran" />
		<tag k="natural" v="wetland" />
		<tag k="ssr:stedsnr" v="733145" />
	</node>
	<node id="-177889" lat="60.6219388863" lon="8.15452222025">
		<tag k="name" v="Håkonset" />
		<tag k="place" v="locality" />
		<tag k="ssr:stedsnr" v="726960" />
	</node>
	<node id="-178398" lat="60.6741083298" lon="8.09824443951">
		<tag k="name" v="Karimyrane" />
		<tag k="natural" v="wetland" />
		<tag k="ssr:stedsnr" v="952410" />
	</node>
	<node id="-176349" lat="60.5791333351" lon="8.19604443827">
		<tag k="name" v="Røogjerda" />
		<tag k="place" v="locality" />
		<tag k="ssr:stedsnr" v="479181" />
	</node>
	<node id="-177368" lat="60.5987916706" lon="8.36549999987">
		<tag k="historic" v="shieling" />
		<tag k="name" v="Kvenidn" />
		<tag k="place" v="locality" />
		<tag k="ssr:stedsnr" v="526034" />
	</node>
	<node id="-177871" lat="60.6393694465" lon="8.12139165942">
		<tag k="historic" v="shieling" />
		<tag k="name" v="Vollebakkane" />
		<tag k="place" v="locality" />
		<tag k="ssr:stedsnr" v="725347" />
	</node>
	<node id="-178380" lat="60.5994472193" lon="8.28711388408">
		<tag k="name" v="Kringlemyr" />
		<tag k="natural" v="wetland" />
		<tag k="ssr:stedsnr" v="950687" />
	</node>
	<node id="-177355" lat="60.7933944478" lon="7.97847221478">
		<tag k="historic" v="shieling" />
		<tag k="name" v="Nutestølen" />
		<tag k="place" v="locality" />
		<tag k="ssr:stedsnr" v="493728" />
	</node>
	<node id="-176328" lat="60.6157500024" lon="8.16526110289">
		<tag k="historic" v="shieling" />
		<tag k="name" v="Buserud" />
		<tag k="place" v="locality" />
		<tag k="ssr:stedsnr" v="405979" />
	</node>
	<node id="-178038" lat="60.685430554" lon="8.10098610676">
		<tag k="name" v="Birgitstølmyrane" />
		<tag k="natural" v="wetland" />
		<tag k="ssr:stedsnr" v="787477" />
	</node>
	<node id="-176832" lat="60.5117861095" lon="7.86851944076">
		<tag k="landuse" v="meadow" />
		<tag k="name" v="Feten" />
		<tag k="ssr:stedsnr" v="180328" />
	</node>
	<node id="-176830" lat="60.5915611118" lon="8.40980277377">
		<tag k="historic" v="shieling" />
		<tag k="name" v="Søre Heimstølen" />
		<tag k="place" v="locality" />
		<tag k="ssr:stedsnr" v="180066" />
	</node>
	<node id="-176317" lat="60.5345666655" lon="8.2210583296">
		<tag k="name" v="Feten" />
		<tag k="place" v="locality" />
		<tag k="ssr:stedsnr" v="403759" />
	</node>
	<node id="-176316" lat="60.5247777785" lon="8.14863889756">
		<tag k="landuse" v="meadow" />
		<tag k="name" v="Mo-Feten" />
		<tag k="ssr:stedsnr" v="403225" />
	</node>
	<node id="-177850" lat="60.5867472185" lon="8.30683611986">
		<tag k="historic" v="shieling" />
		<tag k="name" v="Turidstølen" />
		<tag k="place" v="locality" />
		<tag k="ssr:stedsnr" v="708697" />
	</node>
	<node id="-177848" lat="60.6343305551" lon="8.29191945348">
		<tag k="name" v="Storemyr" />
		<tag k="natural" v="wetland" />
		<tag k="ssr:stedsnr" v="708518" />
	</node>
	<node id="-176814" lat="60.5733277803" lon="8.16321666887">
		<tag k="name" v="Sandane" />
		<tag k="natural" v="beach" />
		<tag k="ssr:stedsnr" v="176183" />
		<tag k="surface" v="sand" />
	</node>
	<node id="-178347" lat="60.634308335" lon="8.28294444877">
		<tag k="name" v="Stormyri" />
		<tag k="natural" v="wetland" />
		<tag k="ssr:stedsnr" v="917586" />
	</node>
	<node id="-176298" lat="60.5523666686" lon="8.33111111907">
		<tag k="historic" v="shieling" />
		<tag k="name" v="Birgitstølen" />
		<tag k="place" v="locality" />
		<tag k="ssr:stedsnr" v="371734" />
	</node>
	<node id="-176799" lat="60.6273777772" lon="8.14834722146">
		<tag k="landuse" v="meadow" />
		<tag k="name" v="Øspedøkki" />
		<tag k="ssr:stedsnr" v="161937" />
	</node>
	<node id="-178334" lat="60.6327638869" lon="7.94032500626">
		<tag k="name" v="Krokløkene" />
		<tag k="natural" v="wetland" />
		<tag k="ssr:stedsnr" v="917376" />
	</node>
	<node id="-176794" lat="60.6456083299" lon="8.08761111278">
		<tag k="historic" v="shieling" />
		<tag k="name" v="Hesjabakkane" />
		<tag k="place" v="locality" />
		<tag k="ssr:stedsnr" v="161145" />
	</node>
	<node id="-177260" lat="60.5677916634" lon="8.29589443838">
		<tag k="landuse" v="meadow" />
		<tag k="name" v="Høljeslåtta" />
		<tag k="ssr:stedsnr" v="484002" />
	</node>
	<node id="-176150" lat="60.6180249959" lon="8.19513055692">
		<tag k="name" v="Hestodden" />
		<tag k="place" v="locality" />
		<tag k="ssr:stedsnr" v="344948" />
	</node>
	<node id="-178302" lat="60.4180055586" lon="8.35295554708">
		<tag k="alt_name" v="Høvda" />
		<tag k="historic" v="shieling" />
		<tag k="name" v="Hovdestølen" />
		<tag k="place" v="locality" />
		<tag k="ssr:stedsnr" v="915137" />
	</node>
	<node id="-178294" lat="60.6080083337" lon="8.34226944344">
		<tag k="name" v="Slettokamben" />
		<tag k="place" v="locality" />
		<tag k="ssr:stedsnr" v="908941" />
	</node>
	<node id="-177262" lat="60.437894443" lon="8.4050888802">
		<tag k="alt_name" v="Fekjastølen" />
		<tag k="historic" v="shieling" />
		<tag k="name" v="Fetjastølen" />
		<tag k="place" v="locality" />
		<tag k="ssr:stedsnr" v="490132" />
	</node>
	<node id="-178284" lat="60.6152972183" lon="8.13500000287">
		<tag k="historic" v="shieling" />
		<tag k="name" v="Gjermundsplassen" />
		<tag k="place" v="locality" />
		<tag k="ssr:stedsnr" v="905774" />
	</node>
	<node id="-176747" lat="60.5586027753" lon="8.00083611731">
		<tag k="name" v="Eimefonni" />
		<tag k="natural" v="glacier" />
		<tag k="ssr:stedsnr" v="128360" />
	</node>
	<node id="-177251" lat="60.5855055593" lon="8.36005000222">
		<tag k="name" v="Kjellaren" />
		<tag k="place" v="locality" />
		<tag k="ssr:stedsnr" v="483979" />
	</node>
	<node id="-178269" lat="60.8025361124" lon="7.94923889241">
		<tag k="historic" v="shieling" />
		<tag k="name" v="Geitestølen" />
		<tag k="place" v="locality" />
		<tag k="ssr:stedsnr" v="858731" />
	</node>
	<node id="-176208" lat="60.636913886" lon="8.35762223096">
		<tag k="historic" v="shieling" />
		<tag k="name" v="Hølet" />
		<tag k="place" v="locality" />
		<tag k="ssr:stedsnr" v="362820" />
	</node>
	<node id="-176717" lat="60.4430500045" lon="8.17458332874">
		<tag k="historic" v="shieling" />
		<tag k="name" v="Hallestølen" />
		<tag k="place" v="locality" />
		<tag k="ssr:stedsnr" v="126142" />
	</node>
	<node id="-176204" lat="60.5892361082" lon="8.39600833424">
		<tag k="name" v="Krokmyre" />
		<tag k="natural" v="wetland" />
		<tag k="ssr:stedsnr" v="362078" />
	</node>
	<node id="-177738" lat="60.636727776" lon="8.09952500284">
		<tag k="historic" v="shieling" />
		<tag k="name" v="Bryslåtto" />
		<tag k="place" v="locality" />
		<tag k="ssr:stedsnr" v="674610" />
	</node>
	<node id="-177222" lat="60.6666083336" lon="7.82068888744">
		<tag k="name" v="Øynane" />
		<tag k="place" v="locality" />
		<tag k="ssr:stedsnr" v="466737" />
	</node>
	<node id="-176708" lat="60.5849527775" lon="8.36299721784">
		<tag k="alt_name" v="Fintoppøyne" />
		<tag k="name" v="Finntoppøyne" />
		<tag k="place" v="locality" />
		<tag k="ssr:stedsnr" v="119977" />
	</node>
	<node id="-177219" lat="60.6211138854" lon="8.12263889361">
		<tag k="name" v="Skraddarmoen" />
		<tag k="place" v="locality" />
		<tag k="ssr:stedsnr" v="466660" />
	</node>
	<node id="-176706" lat="60.5655416704" lon="8.36297776888">
		<tag k="name" v="Nystøltjødne" />
		<tag k="natural" v="wetland" />
		<tag k="ssr:stedsnr" v="119961" />
	</node>
	<node id="-176705" lat="60.6277249967" lon="8.16513611311">
		<tag k="landuse" v="meadow" />
		<tag k="name" v="Overvoll" />
		<tag k="ssr:stedsnr" v="119881" />
	</node>
	<node id="-177721" lat="60.5339222202" lon="8.11224167572">
		<tag k="name" v="Villevieren" />
		<tag k="place" v="locality" />
		<tag k="ssr:stedsnr" v="665097" />
	</node>
	<node id="-176696" lat="60.5947527806" lon="8.40300833168">
		<tag k="name" v="Skarmyre" />
		<tag k="natural" v="wetland" />
		<tag k="ssr:stedsnr" v="119080" />
	</node>
	<node id="-177204" lat="60.5252694479" lon="8.14685833711">
		<tag k="landuse" v="meadow" />
		<tag k="name" v="Fossgard-Feten" />
		<tag k="ssr:stedsnr" v="464249" />
	</node>
	<node id="-177710" lat="60.6208888919" lon="8.11136943828">
		<tag k="landuse" v="meadow" />
		<tag k="name" v="Marihagen" />
		<tag k="ssr:stedsnr" v="662375" />
	</node>
	<node id="-176172" lat="60.5249249962" lon="8.26115278437">
		<tag k="historic" v="shieling" />
		<tag k="name" v="Øvre Jonstølen" />
		<tag k="place" v="locality" />
		<tag k="ssr:stedsnr" v="345594" />
	</node>
	<node id="-177195" lat="60.8100666629" lon="7.89704166392">
		<tag k="historic" v="shieling" />
		<tag k="name" v="Gamlestølen" />
		<tag k="place" v="locality" />
		<tag k="ssr:stedsnr" v="433700" />
	</node>
	<node id="-176680" lat="60.5791999974" lon="8.12371944721">
		<tag k="name" v="Hølet" />
		<tag k="place" v="locality" />
		<tag k="ssr:stedsnr" v="116064" />
	</node>
	<node id="-176163" lat="60.5911833323" lon="8.37581943634">
		<tag k="historic" v="shieling" />
		<tag k="name" v="Skarvestølen" />
		<tag k="place" v="locality" />
		<tag k="ssr:stedsnr" v="344053" />
	</node>
	<node id="-176162" lat="60.6017388886" lon="8.3604222155">
		<tag k="historic" v="shieling" />
		<tag k="name" v="Skraddarstølen" />
		<tag k="place" v="locality" />
		<tag k="ssr:stedsnr" v="344033" />
	</node>
	<node id="-177185" lat="60.5350611082" lon="8.27759443922">
		<tag k="historic" v="shieling" />
		<tag k="name" v="Bratterud" />
		<tag k="place" v="locality" />
		<tag k="ssr:stedsnr" v="432747" />
	</node>
	<node id="-176153" lat="60.6395499976" lon="8.29091111685">
		<tag k="name" v="Helediki" />
		<tag k="natural" v="wetland" />
		<tag k="ssr:stedsnr" v="343481" />
	</node>
	<node id="-178198" lat="60.5828250027" lon="8.37623611065">
		<tag k="historic" v="shieling" />
		<tag k="name" v="Lamberstølen" />
		<tag k="place" v="locality" />
		<tag k="ssr:stedsnr" v="848940" />
	</node>
	<node id="-176661" lat="60.599708334" lon="8.36714443828">
		<tag k="historic" v="shieling" />
		<tag k="name" v="Nystølen" />
		<tag k="place" v="locality" />
		<tag k="ssr:stedsnr" v="102044" />
	</node>
	<node id="-176148" lat="60.5262722221" lon="8.13967222529">
		<tag k="landuse" v="meadow" />
		<tag k="name" v="Skarset" />
		<tag k="ssr:stedsnr" v="342208" />
	</node>
	<node id="-176659" lat="60.605575004" lon="8.30676111721">
		<tag k="historic" v="shieling" />
		<tag k="name" v="Løingslåtta" />
		<tag k="place" v="locality" />
		<tag k="ssr:stedsnr" v="101714" />
	</node>
	<node id="-176146" lat="60.6101555542" lon="8.34213611669">
		<tag k="historic" v="shieling" />
		<tag k="name" v="Venevollane" />
		<tag k="place" v="locality" />
		<tag k="ssr:stedsnr" v="119928" />
	</node>
	<node id="-177676" lat="60.6491500037" lon="8.04542778563">
		<tag k="landuse" v="meadow" />
		<tag k="name" v="Lauvstakkhaugen" />
		<tag k="ssr:stedsnr" v="646070" />
	</node>
	<node id="-176651" lat="60.7114638914" lon="7.83627222745">
		<tag k="name" v="Gjerda" />
		<tag k="place" v="locality" />
		<tag k="ssr:stedsnr" v="100450" />
	</node>
	<node id="-178181" lat="60.5758305573" lon="8.30002499616">
		<tag k="landuse" v="meadow" />
		<tag k="name" v="Rudningen" />
		<tag k="ssr:stedsnr" v="848059" />
	</node>
	<node id="-176644" lat="60.5313999978" lon="8.14232500196">
		<tag k="historic" v="shieling" />
		<tag k="name" v="Skriuslettane" />
		<tag k="place" v="locality" />
		<tag k="ssr:stedsnr" v="100203" />
	</node>
	<node id="-178177" lat="60.5843555595" lon="8.3359611079">
		<tag k="landuse" v="meadow" />
		<tag k="name" v="Halteplassen" />
		<tag k="ssr:stedsnr" v="846920" />
	</node>
</osm>
