<?xml version="1.0" encoding="UTF-8"?>
<osm generator="osmapis" version="0.6">
	<node id="-178174" lat="60.5812888857" lon="8.19599167016">
		<tag k="name" v="Hjallane" />
		<tag k="natural" v="slope" />
		<tag k="place" v="locality" />
		<tag k="ssr:stedsnr" v="783147" />
	</node>
	<node id="-176468" lat="60.647288893" lon="8.06817777335">
		<tag k="name" v="Kleivstølskaret" />
		<tag k="natural" v="valley" />
		<tag k="place" v="locality" />
		<tag k="ssr:stedsnr" v="404168" />
	</node>
	<node id="-178166" lat="60.5992638861" lon="8.34619167272">
		<tag k="name" v="Tingvollane" />
		<tag k="natural" v="hill" />
		<tag k="place" v="locality" />
		<tag k="ssr:stedsnr" v="770938" />
	</node>
	<node id="-178165" lat="60.6214166697" lon="8.324527773">
		<tag k="name" v="Branden" />
		<tag k="natural" v="hill" />
		<tag k="place" v="locality" />
		<tag k="ssr:stedsnr" v="770502" />
	</node>
	<node id="-178163" lat="60.7030750026" lon="8.06443888389">
		<tag k="name" v="Skurvenatten" />
		<tag k="natural" v="hill" />
		<tag k="place" v="locality" />
		<tag k="ssr:stedsnr" v="770355" />
	</node>
	<node id="-178161" lat="60.5255249977" lon="8.13092778683">
		<tag k="name" v="Lauvlie" />
		<tag k="natural" v="slope" />
		<tag k="place" v="locality" />
		<tag k="ssr:stedsnr" v="770169" />
	</node>
	<node id="-178159" lat="60.5712472252" lon="8.29921110998">
		<tag k="name" v="Tiureggi" />
		<tag k="natural" v="ridge" />
		<tag k="place" v="locality" />
		<tag k="ssr:stedsnr" v="770153" />
	</node>
	<node id="-178153" lat="60.6874249995" lon="8.23699444589">
		<tag k="name" v="Ælihaugen" />
		<tag k="natural" v="hill" />
		<tag k="place" v="locality" />
		<tag k="ssr:stedsnr" v="769287" />
	</node>
	<node id="-178150" lat="60.6100027779" lon="8.0909361028">
		<tag k="name" v="Rosenskar" />
		<tag k="natural" v="valley" />
		<tag k="place" v="locality" />
		<tag k="ssr:stedsnr" v="769038" />
	</node>
	<node id="-178135" lat="60.8460805537" lon="7.78065832462">
		<tag k="alt_name" v="Øljubotn, vesle" />
		<tag k="name" v="Vesle Øljubotn" />
		<tag k="natural" v="valley" />
		<tag k="place" v="locality" />
		<tag k="ssr:stedsnr" v="736760" />
	</node>
	<node id="-178131" lat="60.7611083314" lon="7.81541666063">
		<tag k="fixme" v="consider natural=peak for the most distinct mountains in the district" />
		<tag k="name" v="Skorpetinden" />
		<tag k="natural" v="hill" />
		<tag k="place" v="locality" />
		<tag k="ssr:stedsnr" v="736523" />
	</node>
	<node id="-178130" lat="60.5198444453" lon="8.27438332967">
		<tag k="alt_name" v="Merakhovda;Melrakkhovda" />
		<tag k="fixme" v="consider natural=peak for the most distinct mountains in the district" />
		<tag k="name" v="Merakkhovda" />
		<tag k="natural" v="hill" />
		<tag k="place" v="locality" />
		<tag k="ssr:stedsnr" v="735762" />
	</node>
	<node id="-178128" lat="60.5564138921" lon="8.17538056331">
		<tag k="alt_name" v="Havsdalhøvda" />
		<tag k="fixme" v="consider natural=peak for the most distinct mountains in the district" />
		<tag k="name" v="Havsdalshovda" />
		<tag k="natural" v="hill" />
		<tag k="place" v="locality" />
		<tag k="ssr:stedsnr" v="735738" />
	</node>
	<node id="-178118" lat="60.6115888845" lon="8.13919167044">
		<tag k="alt_name" v="Bråsetjuvet" />
		<tag k="name" v="Bråsetgjuvet" />
		<tag k="natural" v="gorge" />
		<tag k="ssr:stedsnr" v="735641" />
	</node>
	<node id="-178115" lat="60.636230557" lon="8.1874194446">
		<tag k="fixme" v="consider natural=peak for the most distinct mountains in the district" />
		<tag k="name" v="Ruetoppen" />
		<tag k="natural" v="hill" />
		<tag k="place" v="locality" />
		<tag k="ssr:stedsnr" v="735599" />
	</node>
	<node id="-178112" lat="60.6655888925" lon="8.14344166405">
		<tag k="fixme" v="consider natural=peak for the most distinct mountains in the district" />
		<tag k="name" v="Storleinnuten" />
		<tag k="natural" v="hill" />
		<tag k="place" v="locality" />
		<tag k="ssr:stedsnr" v="735582" />
	</node>
	<node id="-178108" lat="60.7089277774" lon="8.10650278608">
		<tag k="fixme" v="consider natural=peak for the most distinct mountains in the district" />
		<tag k="name" v="Kvasshovd" />
		<tag k="natural" v="hill" />
		<tag k="place" v="locality" />
		<tag k="ssr:stedsnr" v="735510" />
	</node>
	<node id="-178107" lat="60.7004916693" lon="8.14522499438">
		<tag k="fixme" v="consider natural=peak for the most distinct mountains in the district" />
		<tag k="name" v="Djupskardhovda" />
		<tag k="natural" v="hill" />
		<tag k="place" v="locality" />
		<tag k="ssr:stedsnr" v="735490" />
	</node>
	<node id="-178106" lat="60.509888888" lon="7.80205278444">
		<tag k="name" v="Botn" />
		<tag k="place" v="locality" />
		<tag k="ssr:stedsnr" v="735472" />
	</node>
	<node id="-178104" lat="60.6337861142" lon="8.00339167382">
		<tag k="name" v="Nattane" />
		<tag k="natural" v="hill" />
		<tag k="place" v="locality" />
		<tag k="ssr:stedsnr" v="735417" />
	</node>
	<node id="-178102" lat="60.6481749983" lon="7.77139166416">
		<tag k="name" v="Botnane" />
		<tag k="natural" v="valley" />
		<tag k="place" v="locality" />
		<tag k="ssr:stedsnr" v="735406" />
	</node>
	<node id="-178099" lat="60.5388750023" lon="8.006861107">
		<tag k="name" v="Hesteberget" />
		<tag k="natural" v="hill" />
		<tag k="place" v="locality" />
		<tag k="ssr:stedsnr" v="735387" />
	</node>
	<node id="-178098" lat="60.5714555517" lon="8.03695554993">
		<tag k="fixme" v="consider natural=peak for the most distinct mountains in the district" />
		<tag k="name" v="Storesåta" />
		<tag k="natural" v="hill" />
		<tag k="place" v="locality" />
		<tag k="ssr:stedsnr" v="735381" />
	</node>
	<node id="-178097" lat="60.5580611123" lon="8.04503611576">
		<tag k="name" v="Prestholtskardet" />
		<tag k="natural" v="valley" />
		<tag k="place" v="locality" />
		<tag k="ssr:stedsnr" v="735376" />
	</node>
	<node id="-178096" lat="60.5775111094" lon="7.95843333087">
		<tag k="fixme" v="consider natural=peak for the most distinct mountains in the district" />
		<tag k="name" v="Prestholtskarvet" />
		<tag k="natural" v="hill" />
		<tag k="old_name" v="Præstholt-skarve" />
		<tag k="place" v="locality" />
		<tag k="ssr:stedsnr" v="735374" />
	</node>
	<node id="-178093" lat="60.6598694442" lon="7.86380276894">
		<tag k="alt_name" v="Svarthamar" />
		<tag k="name" v="Svarthammar" />
		<tag k="natural" v="hill" />
		<tag k="place" v="locality" />
		<tag k="ssr:stedsnr" v="735344" />
	</node>
	<node id="-178092" lat="60.6762916638" lon="7.91012222777">
		<tag k="name" v="Tronsgardnuten" />
		<tag k="natural" v="hill" />
		<tag k="place" v="locality" />
		<tag k="ssr:stedsnr" v="735330" />
	</node>
	<node id="-178087" lat="60.7205499957" lon="7.63564999723">
		<tag k="fixme" v="consider natural=peak for the most distinct mountains in the district" />
		<tag k="name" v="Sundhellerskarvet" />
		<tag k="natural" v="hill" />
		<tag k="place" v="locality" />
		<tag k="ssr:stedsnr" v="735229" />
	</node>
	<node id="-178086" lat="60.6973287761" lon="7.55838322845">
		<tag k="name" v="Bakkahelleren" />
		<tag k="place" v="locality" />
		<tag k="ssr:stedsnr" v="735214" />
	</node>
	<node id="-178085" lat="60.6426694412" lon="7.7068888826">
		<tag k="name" v="Nordbotnane" />
		<tag k="natural" v="valley" />
		<tag k="place" v="locality" />
		<tag k="ssr:stedsnr" v="735202" />
	</node>
	<node id="-178084" lat="60.6653999971" lon="7.46652499316">
		<tag k="name" v="Såtedalen" />
		<tag k="natural" v="valley" />
		<tag k="place" v="locality" />
		<tag k="ssr:stedsnr" v="735187" />
	</node>
	<node id="-178080" lat="60.5051229638" lon="8.34091373822">
		<tag k="alt_name" v="Rauløkdalen" />
		<tag k="name" v="Raudløkdalen" />
		<tag k="natural" v="valley" />
		<tag k="place" v="locality" />
		<tag k="ssr:stedsnr" v="734790" />
	</node>
	<node id="-178078" lat="60.3440722183" lon="8.16893055144">
		<tag k="name" v="Grotdalen" />
		<tag k="natural" v="valley" />
		<tag k="place" v="locality" />
		<tag k="ssr:stedsnr" v="734259" />
	</node>
	<node id="-178077" lat="60.4244749968" lon="8.5509083299">
		<tag k="name" v="Sleppekulten" />
		<tag k="natural" v="hill" />
		<tag k="place" v="locality" />
		<tag k="ssr:stedsnr" v="734125" />
	</node>
	<node id="-178075" lat="60.4781722229" lon="8.04366944634">
		<tag k="name" v="Usteberget" />
		<tag k="natural" v="hill" />
		<tag k="place" v="locality" />
		<tag k="ssr:stedsnr" v="733997" />
	</node>
	<node id="-178071" lat="60.4178305511" lon="7.93660000134">
		<tag k="alt_name" v="Grønenuten, vesle" />
		<tag k="name" v="Vesle Grønenuten" />
		<tag k="natural" v="hill" />
		<tag k="place" v="locality" />
		<tag k="ssr:stedsnr" v="733956" />
	</node>
	<node id="-178070" lat="60.3949277739" lon="7.94782500581">
		<tag k="fixme" v="consider natural=peak for the most distinct mountains in the district" />
		<tag k="name" v="Store Grønenuten" />
		<tag k="natural" v="hill" />
		<tag k="old_name" v="Grønenutan, store;Store Grønenutan" />
		<tag k="place" v="locality" />
		<tag k="ssr:stedsnr" v="733951" />
	</node>
	<node id="-178069" lat="60.4042499981" lon="7.76072222477">
		<tag k="name" v="Halnetunga" />
		<tag k="natural" v="hill" />
		<tag k="place" v="locality" />
		<tag k="ssr:stedsnr" v="733945" />
	</node>
	<node id="-178066" lat="60.4584277756" lon="8.09027500305">
		<tag k="fixme" v="consider natural=peak for the most distinct mountains in the district" />
		<tag k="name" v="Ustetind" />
		<tag k="natural" v="hill" />
		<tag k="old_name" v="Ustetinden" />
		<tag k="ssr:stedsnr" v="733930" />
	</node>
	<node id="-178065" lat="60.447824996" lon="7.7910222219">
		<tag k="fixme" v="consider natural=peak for the most distinct mountains in the district" />
		<tag k="loc_name" v="Oklenutan" />
		<tag k="name" v="Øklenutan" />
		<tag k="natural" v="hill" />
		<tag k="place" v="locality" />
		<tag k="ssr:stedsnr" v="733928" />
	</node>
	<node id="-178064" lat="60.4806638868" lon="8.45228055908">
		<tag k="fixme" v="consider natural=peak for the most distinct mountains in the district" />
		<tag k="name" v="Sollihøgde" />
		<tag k="natural" v="hill" />
		<tag k="old_name" v="Sollihøvda;Sollihovdi;Sollihd" />
		<tag k="place" v="locality" />
		<tag k="ssr:stedsnr" v="733861" />
	</node>
	<node id="-178059" lat="60.3962694466" lon="8.09067777656">
		<tag k="fixme" v="consider natural=peak for the most distinct mountains in the district" />
		<tag k="name" v="Falkenuten" />
		<tag k="natural" v="hill" />
		<tag k="place" v="locality" />
		<tag k="ssr:stedsnr" v="733767" />
	</node>
	<node id="-178051" lat="60.3903888934" lon="8.11500833538">
		<tag k="fixme" v="consider natural=peak for the most distinct mountains in the district" />
		<tag k="name" v="Hellerhovdun" />
		<tag k="natural" v="hill" />
		<tag k="place" v="locality" />
		<tag k="ssr:stedsnr" v="733166" />
	</node>
	<node id="-178038" lat="60.6492833293" lon="8.25303889231">
		<tag k="name" v="Hæbrøtet" />
		<tag k="natural" v="hill" />
		<tag k="place" v="locality" />
		<tag k="ssr:stedsnr" v="726856" />
	</node>
	<node id="-176446" lat="60.5609722237" lon="8.24156111952">
		<tag k="name" v="Lien" />
		<tag k="natural" v="slope" />
		<tag k="place" v="locality" />
		<tag k="ssr:stedsnr" v="371752" />
	</node>
	<node id="-178031" lat="60.6181916659" lon="8.27471667282">
		<tag k="name" v="Husarabergi" />
		<tag k="natural" v="hill" />
		<tag k="place" v="locality" />
		<tag k="ssr:stedsnr" v="726781" />
	</node>
	<node id="-178029" lat="60.5033472226" lon="7.83818888376">
		<tag k="name" v="Ureranden" />
		<tag k="natural" v="ridge" />
		<tag k="place" v="locality" />
		<tag k="ssr:stedsnr" v="726482" />
	</node>
	<node id="-178027" lat="60.5345888894" lon="8.10449722893">
		<tag k="name" v="Fleddidn" />
		<tag k="natural" v="slope" />
		<tag k="place" v="locality" />
		<tag k="ssr:stedsnr" v="726090" />
	</node>
	<node id="-178023" lat="60.5055527737" lon="8.30891389032">
		<tag k="name" v="Geiteberget" />
		<tag k="natural" v="hill" />
		<tag k="place" v="locality" />
		<tag k="ssr:stedsnr" v="724658" />
	</node>
	<node id="-178021" lat="60.6250749991" lon="8.13793611926">
		<tag k="name" v="Skiftesdalen" />
		<tag k="natural" v="valley" />
		<tag k="place" v="locality" />
		<tag k="ssr:stedsnr" v="723805" />
	</node>
	<node id="-178020" lat="60.6288388934" lon="8.15485277316">
		<tag k="name" v="Bergsbergi" />
		<tag k="natural" v="hill" />
		<tag k="place" v="locality" />
		<tag k="ssr:stedsnr" v="723759" />
	</node>
	<node id="-178015" lat="60.6364583354" lon="8.34861943701">
		<tag k="name" v="Mjelshøgd" />
		<tag k="natural" v="hill" />
		<tag k="place" v="locality" />
		<tag k="ssr:stedsnr" v="723015" />
	</node>
	<node id="-178011" lat="60.6143861147" lon="8.17574722013">
		<tag k="name" v="Bjødnadekkane" />
		<tag k="natural" v="slope" />
		<tag k="place" v="locality" />
		<tag k="ssr:stedsnr" v="709958" />
	</node>
	<node id="-178007" lat="60.5687444411" lon="8.12168611777">
		<tag k="name" v="Rundehaug" />
		<tag k="natural" v="hill" />
		<tag k="place" v="locality" />
		<tag k="ssr:stedsnr" v="709092" />
	</node>
	<node id="-178006" lat="60.5530083305" lon="8.07081943971">
		<tag k="name" v="Prestholthallene" />
		<tag k="natural" v="slope" />
		<tag k="place" v="locality" />
		<tag k="ssr:stedsnr" v="709088" />
	</node>
	<node id="-178003" lat="60.6443472208" lon="8.29162778409">
		<tag k="name" v="Trøstadaladn" />
		<tag k="natural" v="valley" />
		<tag k="place" v="locality" />
		<tag k="ssr:stedsnr" v="708537" />
	</node>
	<node id="-177997" lat="60.6110583374" lon="8.39308055679">
		<tag k="name" v="Vedahovda" />
		<tag k="natural" v="hill" />
		<tag k="place" v="locality" />
		<tag k="ssr:stedsnr" v="707515" />
	</node>
	<node id="-177996" lat="60.4920000003" lon="7.87093888154">
		<tag k="name" v="Ørterdalnuten" />
		<tag k="natural" v="hill" />
		<tag k="place" v="locality" />
		<tag k="ssr:stedsnr" v="707471" />
	</node>
	<node id="-177985" lat="60.8085444426" lon="7.81905556039">
		<tag k="fixme" v="consider natural=peak for the most distinct mountains in the district" />
		<tag k="name" v="Skorpetinden" />
		<tag k="natural" v="hill" />
		<tag k="ssr:stedsnr" v="676742" />
	</node>
	<node id="-177984" lat="60.8274749999" lon="7.84108333073">
		<tag k="fixme" v="consider natural=peak for the most distinct mountains in the district" />
		<tag k="loc_name" v="Galdan" />
		<tag k="name" v="Galdane" />
		<tag k="natural" v="hill" />
		<tag k="place" v="locality" />
		<tag k="ssr:stedsnr" v="676734" />
	</node>
	<node id="-177981" lat="60.5134249968" lon="8.1342583278">
		<tag k="fixme" v="consider natural=peak for the most distinct mountains in the district" />
		<tag k="name" v="Nystølhovda" />
		<tag k="natural" v="hill" />
		<tag k="place" v="locality" />
		<tag k="ssr:stedsnr" v="675804" />
	</node>
	<node id="-177980" lat="60.5276444418" lon="8.30594722106">
		<tag k="alt_name" v="Syninghovda" />
		<tag k="fixme" v="consider natural=peak for the most distinct mountains in the district" />
		<tag k="name" v="Syningshovda" />
		<tag k="natural" v="hill" />
		<tag k="place" v="locality" />
		<tag k="ssr:stedsnr" v="675802" />
	</node>
	<node id="-177973" lat="60.6434250006" lon="8.26999721479">
		<tag k="fixme" v="consider natural=peak for the most distinct mountains in the district" />
		<tag k="name" v="Nysetfjellet" />
		<tag k="natural" v="hill" />
		<tag k="place" v="locality" />
		<tag k="ssr:stedsnr" v="675577" />
	</node>
	<node id="-177970" lat="60.5827194475" lon="7.68291110215">
		<tag k="name" v="Lengjedalen" />
		<tag k="natural" v="valley" />
		<tag k="place" v="locality" />
		<tag k="ssr:stedsnr" v="675336" />
	</node>
	<node id="-177966" lat="60.55935278" lon="8.33160555218">
		<tag k="fixme" v="consider natural=peak for the most distinct mountains in the district" />
		<tag k="name" v="Bergastølhovda" />
		<tag k="natural" v="hill" />
		<tag k="place" v="locality" />
		<tag k="ssr:stedsnr" v="674746" />
	</node>
	<node id="-177965" lat="60.5386249969" lon="8.17495833743">
		<tag k="fixme" v="consider natural=peak for the most distinct mountains in the district" />
		<tag k="name" v="Gullsteinhovda" />
		<tag k="natural" v="hill" />
		<tag k="place" v="locality" />
		<tag k="ssr:stedsnr" v="674729" />
	</node>
	<node id="-177964" lat="60.5647972192" lon="8.2365277801">
		<tag k="alt_name" v="Liabrøtet" />
		<tag k="fixme" v="consider natural=peak for the most distinct mountains in the district" />
		<tag k="name" v="Liabrotet" />
		<tag k="natural" v="hill" />
		<tag k="place" v="locality" />
		<tag k="ssr:stedsnr" v="674712" />
	</node>
	<node id="-177960" lat="60.6098083325" lon="8.25375277993">
		<tag k="name" v="Osebergi" />
		<tag k="natural" v="hill" />
		<tag k="place" v="locality" />
		<tag k="ssr:stedsnr" v="674682" />
	</node>
	<node id="-177959" lat="60.6202111067" lon="8.37812499212">
		<tag k="name" v="Reinsdalen" />
		<tag k="natural" v="valley" />
		<tag k="place" v="locality" />
		<tag k="ssr:stedsnr" v="674654" />
	</node>
	<node id="-177955" lat="60.656527777" lon="8.2416222197">
		<tag k="fixme" v="consider natural=peak for the most distinct mountains in the district" />
		<tag k="name" v="Varaldsetfjellet" />
		<tag k="natural" v="hill" />
		<tag k="place" v="locality" />
		<tag k="ssr:stedsnr" v="674582" />
	</node>
	<node id="-177954" lat="60.6928083353" lon="8.09792221791">
		<tag k="alt_name" v="Goddalane" />
		<tag k="name" v="Goddalen" />
		<tag k="natural" v="valley" />
		<tag k="place" v="locality" />
		<tag k="ssr:stedsnr" v="674498" />
	</node>
	<node id="-176432" lat="60.6478555532" lon="8.20318333559">
		<tag k="fixme" v="consider natural=peak for the most distinct mountains in the district" />
		<tag k="name" v="Kalveskallen" />
		<tag k="natural" v="hill" />
		<tag k="place" v="locality" />
		<tag k="ssr:stedsnr" v="371561" />
	</node>
	<node id="-177948" lat="60.6149250041" lon="7.91914445286">
		<tag k="name" v="Revufonnbotn" />
		<tag k="natural" v="valley" />
		<tag k="place" v="locality" />
		<tag k="ssr:stedsnr" v="674417" />
	</node>
	<node id="-177946" lat="60.612783337" lon="7.78611111085">
		<tag k="fixme" v="consider natural=peak for the most distinct mountains in the district" />
		<tag k="name" v="Folarskardnuten" />
		<tag k="natural" v="hill" />
		<tag k="place" v="locality" />
		<tag k="ssr:stedsnr" v="674402" />
	</node>
	<node id="-177945" lat="60.6238638923" lon="8.08443889658">
		<tag k="name" v="Brynuten" />
		<tag k="natural" v="hill" />
		<tag k="place" v="locality" />
		<tag k="ssr:stedsnr" v="674400" />
	</node>
	<node id="-177943" lat="60.6391444448" lon="8.00617500596">
		<tag k="alt_name" v="Vardhovda" />
		<tag k="name" v="Vardahovda" />
		<tag k="natural" v="hill" />
		<tag k="place" v="locality" />
		<tag k="ssr:stedsnr" v="674394" />
	</node>
	<node id="-177942" lat="60.6338555597" lon="7.9043638864">
		<tag k="name" v="Byrkjedalen" />
		<tag k="natural" v="valley" />
		<tag k="place" v="locality" />
		<tag k="ssr:stedsnr" v="674391" />
	</node>
	<node id="-177940" lat="60.5529694445" lon="7.73236667386">
		<tag k="fixme" v="consider natural=peak for the most distinct mountains in the district" />
		<tag k="name" v="Gråskallen" />
		<tag k="natural" v="hill" />
		<tag k="place" v="locality" />
		<tag k="ssr:stedsnr" v="674372" />
	</node>
	<node id="-177939" lat="60.5831999987" lon="8.02509999643">
		<tag k="name" v="Såtebotn" />
		<tag k="natural" v="valley" />
		<tag k="place" v="locality" />
		<tag k="ssr:stedsnr" v="674364" />
	</node>
	<node id="-177938" lat="60.6845527823" lon="7.89356666497">
		<tag k="alt_name" v="Oddelie" />
		<tag k="name" v="Oddelii" />
		<tag k="natural" v="slope" />
		<tag k="place" v="locality" />
		<tag k="ssr:stedsnr" v="674361" />
	</node>
	<node id="-177930" lat="60.6128250002" lon="7.66624721621">
		<tag k="fixme" v="consider natural=peak for the most distinct mountains in the district" />
		<tag k="name" v="Hallingskarvet" />
		<tag k="natural" v="hill" />
		<tag k="place" v="locality" />
		<tag k="ssr:stedsnr" v="674286" />
	</node>
	<node id="-177929" lat="60.7350111147" lon="7.83520555973">
		<tag k="fixme" v="consider natural=peak for the most distinct mountains in the district" />
		<tag k="name" v="Blåbergsnuten" />
		<tag k="natural" v="hill" />
		<tag k="place" v="locality" />
		<tag k="ssr:stedsnr" v="674268" />
	</node>
	<node id="-177928" lat="60.6733250037" lon="7.49967500428">
		<tag k="name" v="Omnsbakkane" />
		<tag k="natural" v="slope" />
		<tag k="place" v="locality" />
		<tag k="ssr:stedsnr" v="674212" />
	</node>
	<node id="-177927" lat="60.6768999961" lon="7.59627500895">
		<tag k="fixme" v="consider natural=peak for the most distinct mountains in the district" />
		<tag k="loc_name" v="Storfonnøse" />
		<tag k="name" v="Storfonnosi" />
		<tag k="natural" v="hill" />
		<tag k="place" v="locality" />
		<tag k="ssr:stedsnr" v="674209" />
	</node>
	<node id="-177924" lat="60.4802083362" lon="8.22873055843">
		<tag k="alt_name" v="Ørneberg" />
		<tag k="name" v="Ørneberget" />
		<tag k="natural" v="hill" />
		<tag k="place" v="locality" />
		<tag k="ssr:stedsnr" v="673855" />
	</node>
	<node id="-177922" lat="60.3623444435" lon="8.16186666881">
		<tag k="fixme" v="consider natural=peak for the most distinct mountains in the district" />
		<tag k="name" v="Kolsfetbrotet" />
		<tag k="natural" v="hill" />
		<tag k="place" v="locality" />
		<tag k="ssr:stedsnr" v="673213" />
	</node>
	<node id="-177908" lat="60.385833329" lon="8.43575000348">
		<tag k="fixme" v="consider natural=peak for the most distinct mountains in the district" />
		<tag k="name" v="Perstulhovda" />
		<tag k="natural" v="hill" />
		<tag k="place" v="locality" />
		<tag k="ssr:stedsnr" v="672193" />
	</node>
	<node id="-177898" lat="60.4126111128" lon="8.23203610267">
		<tag k="fixme" v="consider natural=peak for the most distinct mountains in the district" />
		<tag k="name" v="Usgrimshovda" />
		<tag k="natural" v="hill" />
		<tag k="place" v="locality" />
		<tag k="ssr:stedsnr" v="672123" />
	</node>
	<node id="-177896" lat="60.609216671" lon="8.18039166423">
		<tag k="fixme" v="consider natural=peak for the most distinct mountains in the district" />
		<tag k="name" v="Villandsnipen" />
		<tag k="natural" v="hill" />
		<tag k="place" v="locality" />
		<tag k="ssr:stedsnr" v="674640" />
	</node>
	<node id="-177884" lat="60.62103333" lon="8.19968056216">
		<tag k="name" v="Rultemoen" />
		<tag k="place" v="locality" />
		<tag k="ssr:stedsnr" v="665944" />
	</node>
	<node id="-177883" lat="60.6229111107" lon="8.18643889263">
		<tag k="name" v="Båtstøhaugen" />
		<tag k="natural" v="hill" />
		<tag k="place" v="locality" />
		<tag k="ssr:stedsnr" v="665940" />
	</node>
	<node id="-177880" lat="60.6322111085" lon="8.34323889042">
		<tag k="name" v="Langemyrlie" />
		<tag k="natural" v="slope" />
		<tag k="place" v="locality" />
		<tag k="ssr:stedsnr" v="665863" />
	</node>
	<node id="-177874" lat="60.5686527774" lon="8.24160278591">
		<tag k="name" v="Herborglie" />
		<tag k="natural" v="slope" />
		<tag k="place" v="locality" />
		<tag k="ssr:stedsnr" v="665075" />
	</node>
	<node id="-177872" lat="60.5809972223" lon="8.20439167483">
		<tag k="name" v="Skaret" />
		<tag k="natural" v="valley" />
		<tag k="place" v="locality" />
		<tag k="ssr:stedsnr" v="665034" />
	</node>
	<node id="-177871" lat="60.493422219" lon="8.17015554955">
		<tag k="fixme" v="consider natural=peak for the most distinct mountains in the district" />
		<tag k="name" v="Beinstigranden" />
		<tag k="natural" v="hill" />
		<tag k="old_name" v="Beinstigtranden" />
		<tag k="place" v="locality" />
		<tag k="ssr:stedsnr" v="664819" />
	</node>
	<node id="-177869" lat="60.5464611072" lon="8.3744194369">
		<tag k="name" v="Hestedekkane" />
		<tag k="natural" v="valley" />
		<tag k="place" v="locality" />
		<tag k="ssr:stedsnr" v="663736" />
	</node>
	<node id="-177863" lat="60.6778027767" lon="7.97888055124">
		<tag k="name" v="Einsethaugane" />
		<tag k="natural" v="hill" />
		<tag k="place" v="locality" />
		<tag k="ssr:stedsnr" v="661686" />
	</node>
	<node id="-177856" lat="60.5904416663" lon="8.21487500861">
		<tag k="name" v="Øyestøldalen" />
		<tag k="natural" v="valley" />
		<tag k="place" v="locality" />
		<tag k="ssr:stedsnr" v="648998" />
	</node>
	<node id="-177854" lat="60.4812555538" lon="8.04035833919">
		<tag k="name" v="Vikastøllie" />
		<tag k="natural" v="slope" />
		<tag k="place" v="locality" />
		<tag k="ssr:stedsnr" v="648789" />
	</node>
	<node id="-177842" lat="60.6501777749" lon="7.88234444413">
		<tag k="fixme" v="consider natural=peak for the most distinct mountains in the district" />
		<tag k="name" v="Bakåsen" />
		<tag k="natural" v="hill" />
		<tag k="place" v="locality" />
		<tag k="ssr:stedsnr" v="647710" />
	</node>
	<node id="-177841" lat="60.6503527796" lon="7.89921944402">
		<tag k="name" v="Hovda" />
		<tag k="natural" v="hill" />
		<tag k="place" v="locality" />
		<tag k="ssr:stedsnr" v="647691" />
	</node>
	<node id="-177836" lat="60.507819449" lon="8.14790000804">
		<tag k="name" v="Skarabergi" />
		<tag k="natural" v="slope" />
		<tag k="place" v="locality" />
		<tag k="ssr:stedsnr" v="646843" />
	</node>
	<node id="-177833" lat="60.4270944471" lon="8.35511665996">
		<tag k="fixme" v="consider natural=peak for the most distinct mountains in the district" />
		<tag k="name" v="Lauvåsen" />
		<tag k="natural" v="hill" />
		<tag k="place" v="locality" />
		<tag k="ssr:stedsnr" v="646525" />
	</node>
	<node id="-177832" lat="60.4900499987" lon="7.86343334171">
		<tag k="name" v="Ørterdalen" />
		<tag k="natural" v="valley" />
		<tag k="place" v="locality" />
		<tag k="ssr:stedsnr" v="646446" />
	</node>
	<node id="-177829" lat="60.3903416672" lon="8.34194722737">
		<tag k="fixme" v="consider natural=peak for the most distinct mountains in the district" />
		<tag k="name" v="Heimhovdun" />
		<tag k="natural" v="hill" />
		<tag k="place" v="locality" />
		<tag k="ssr:stedsnr" v="627118" />
	</node>
	<node id="-177827" lat="60.431572226" lon="7.92635278325">
		<tag k="fixme" v="consider natural=peak for the most distinct mountains in the district" />
		<tag k="name" v="Håkonhovda" />
		<tag k="natural" v="hill" />
		<tag k="place" v="locality" />
		<tag k="ssr:stedsnr" v="627034" />
	</node>
	<node id="-177824" lat="60.8163499962" lon="7.76142500566">
		<tag k="fixme" v="consider natural=peak for the most distinct mountains in the district" />
		<tag k="name" v="Øljuhelleren" />
		<tag k="natural" v="hill" />
		<tag k="place" v="locality" />
		<tag k="ssr:stedsnr" v="615731" />
	</node>
	<node id="-177822" lat="60.8045361094" lon="7.85633889181">
		<tag k="name" v="Skorpetindbotn" />
		<tag k="natural" v="valley" />
		<tag k="place" v="locality" />
		<tag k="ssr:stedsnr" v="615671" />
	</node>
	<node id="-177820" lat="60.8124111146" lon="7.87859999571">
		<tag k="name" v="Hyllene" />
		<tag k="natural" v="slope" />
		<tag k="place" v="locality" />
		<tag k="ssr:stedsnr" v="615663" />
	</node>
	<node id="-177818" lat="60.7959277784" lon="7.86188332487">
		<tag k="fixme" v="consider natural=peak for the most distinct mountains in the district" />
		<tag k="name" v="Gjerdesbergi" />
		<tag k="natural" v="hill" />
		<tag k="place" v="locality" />
		<tag k="ssr:stedsnr" v="614737" />
	</node>
	<node id="-177808" lat="60.5146805526" lon="8.08671665779">
		<tag k="alt_name" v="Såbalbergi" />
		<tag k="name" v="Såbalberget" />
		<tag k="natural" v="hill" />
		<tag k="place" v="locality" />
		<tag k="ssr:stedsnr" v="613500" />
	</node>
	<node id="-177805" lat="60.5185111092" lon="7.79616111124">
		<tag k="fixme" v="consider natural=peak for the most distinct mountains in the district" />
		<tag k="name" v="Nygardnøse" />
		<tag k="natural" v="hill" />
		<tag k="place" v="locality" />
		<tag k="ssr:stedsnr" v="613484" />
	</node>
	<node id="-177803" lat="60.6192416682" lon="8.0420000035">
		<tag k="name" v="Skurven" />
		<tag k="natural" v="hill" />
		<tag k="place" v="locality" />
		<tag k="ssr:stedsnr" v="613439" />
	</node>
	<node id="-177800" lat="60.5322083326" lon="8.02419443756">
		<tag k="alt_name" v="Flein" />
		<tag k="name" v="Flæin" />
		<tag k="place" v="locality" />
		<tag k="ssr:stedsnr" v="613412" />
	</node>
	<node id="-177799" lat="60.560647225" lon="8.05008055492">
		<tag k="fixme" v="consider natural=peak for the most distinct mountains in the district" />
		<tag k="name" v="Skarvsenden" />
		<tag k="natural" v="hill" />
		<tag k="place" v="locality" />
		<tag k="ssr:stedsnr" v="613392" />
	</node>
	<node id="-177798" lat="60.6869111156" lon="7.77791666366">
		<tag k="name" v="Ynglesdalen" />
		<tag k="natural" v="valley" />
		<tag k="place" v="locality" />
		<tag k="ssr:stedsnr" v="613381" />
	</node>
	<node id="-177797" lat="60.7011361151" lon="7.7853638893">
		<tag k="fixme" v="consider natural=peak for the most distinct mountains in the district" />
		<tag k="name" v="Ynglesnøse" />
		<tag k="natural" v="hill" />
		<tag k="place" v="locality" />
		<tag k="ssr:stedsnr" v="613370" />
	</node>
	<node id="-177794" lat="60.7041083341" lon="7.95226389122">
		<tag k="name" v="Flynuten" />
		<tag k="natural" v="hill" />
		<tag k="place" v="locality" />
		<tag k="ssr:stedsnr" v="613354" />
	</node>
	<node id="-177789" lat="60.673008331" lon="8.04962777331">
		<tag k="name" v="Storestølnuten" />
		<tag k="natural" v="hill" />
		<tag k="place" v="locality" />
		<tag k="ssr:stedsnr" v="613319" />
	</node>
	<node id="-177785" lat="60.7138916708" lon="7.85233888875">
		<tag k="name" v="Storestølbergi" />
		<tag k="natural" v="hill" />
		<tag k="place" v="locality" />
		<tag k="ssr:stedsnr" v="613266" />
	</node>
	<node id="-177783" lat="60.6488027802" lon="7.69676666996">
		<tag k="fixme" v="consider natural=peak for the most distinct mountains in the district" />
		<tag k="name" v="Finnebotneggi" />
		<tag k="natural" v="hill" />
		<tag k="place" v="locality" />
		<tag k="ssr:stedsnr" v="613192" />
	</node>
	<node id="-176403" lat="60.569569442" lon="8.11106388774">
		<tag k="alt_name" v="Skinilhøvda" />
		<tag k="fixme" v="consider natural=peak for the most distinct mountains in the district" />
		<tag k="name" v="Skinilhovda" />
		<tag k="natural" v="hill" />
		<tag k="place" v="locality" />
		<tag k="ssr:stedsnr" v="370699" />
	</node>
	<node id="-177774" lat="60.3565444414" lon="8.17583610535">
		<tag k="fixme" v="consider natural=peak for the most distinct mountains in the district" />
		<tag k="name" v="Ryltesteinbrotet" />
		<tag k="natural" v="hill" />
		<tag k="place" v="locality" />
		<tag k="ssr:stedsnr" v="612213" />
	</node>
	<node id="-177771" lat="60.4331472229" lon="8.07522222125">
		<tag k="name" v="Nilsnuten" />
		<tag k="natural" v="hill" />
		<tag k="place" v="locality" />
		<tag k="ssr:stedsnr" v="611966" />
	</node>
	<node id="-177768" lat="60.4621611102" lon="8.20648333026">
		<tag k="name" v="Grønleinsbrotet" />
		<tag k="natural" v="ridge" />
		<tag k="place" v="locality" />
		<tag k="ssr:stedsnr" v="611860" />
	</node>
	<node id="-177763" lat="60.4703722245" lon="8.38557778208">
		<tag k="fixme" v="consider natural=peak for the most distinct mountains in the district" />
		<tag k="name" v="Halldishovda" />
		<tag k="natural" v="hill" />
		<tag k="old_name" v="Haldis Hövde" />
		<tag k="place" v="locality" />
		<tag k="ssr:stedsnr" v="611833" />
	</node>
	<node id="-177759" lat="60.384330553" lon="8.29053333358">
		<tag k="name" v="Nybrenna" />
		<tag k="natural" v="hill" />
		<tag k="place" v="locality" />
		<tag k="ssr:stedsnr" v="611205" />
	</node>
	<node id="-177753" lat="60.4452305577" lon="8.17452778028">
		<tag k="name" v="Hallenatten" />
		<tag k="natural" v="hill" />
		<tag k="place" v="locality" />
		<tag k="ssr:stedsnr" v="611149" />
	</node>
	<node id="-177750" lat="60.4566444486" lon="8.30208055984">
		<tag k="name" v="Nysæterlii" />
		<tag k="natural" v="slope" />
		<tag k="place" v="locality" />
		<tag k="ssr:stedsnr" v="611136" />
	</node>
	<node id="-177749" lat="60.4111888908" lon="8.26128055807">
		<tag k="fixme" v="consider natural=peak for the most distinct mountains in the district" />
		<tag k="name" v="Kyrkjehovda" />
		<tag k="natural" v="hill" />
		<tag k="place" v="locality" />
		<tag k="ssr:stedsnr" v="611132" />
	</node>
	<node id="-177748" lat="60.4211888847" lon="8.34835277886">
		<tag k="alt_name" v="Grothøvda" />
		<tag k="name" v="Grothovda" />
		<tag k="natural" v="hill" />
		<tag k="place" v="locality" />
		<tag k="ssr:stedsnr" v="611127" />
	</node>
	<node id="-177742" lat="60.6017916672" lon="8.39484444487">
		<tag k="name" v="Grønebakken" />
		<tag k="natural" v="slope" />
		<tag k="place" v="locality" />
		<tag k="ssr:stedsnr" v="605117" />
	</node>
	<node id="-177739" lat="60.5915444489" lon="8.41597499838">
		<tag k="name" v="Lykkjebergi" />
		<tag k="natural" v="hill" />
		<tag k="place" v="locality" />
		<tag k="ssr:stedsnr" v="605060" />
	</node>
	<node id="-177732" lat="60.5106638891" lon="8.1295416646">
		<tag k="name" v="Nystølhjallane" />
		<tag k="natural" v="hill" />
		<tag k="place" v="locality" />
		<tag k="ssr:stedsnr" v="604862" />
	</node>
	<node id="-177731" lat="60.5180277748" lon="7.80868056022">
		<tag k="name" v="Nøsaberget" />
		<tag k="natural" v="hill" />
		<tag k="place" v="locality" />
		<tag k="ssr:stedsnr" v="604475" />
	</node>
	<node id="-177721" lat="60.5226694434" lon="8.31292222988">
		<tag k="name" v="Skarsetstølen" />
		<tag k="natural" v="hill" />
		<tag k="place" v="locality" />
		<tag k="ssr:stedsnr" v="602719" />
	</node>
	<node id="-177720" lat="60.6298916652" lon="8.19015554785">
		<tag k="name" v="Klufte" />
		<tag k="natural" v="slope" />
		<tag k="place" v="locality" />
		<tag k="ssr:stedsnr" v="601778" />
	</node>
	<node id="-177716" lat="60.3961583375" lon="8.31842222723">
		<tag k="name" v="Mjeltelihøvda" />
		<tag k="natural" v="hill" />
		<tag k="place" v="locality" />
		<tag k="ssr:stedsnr" v="601356" />
	</node>
	<node id="-177706" lat="60.4889249968" lon="8.2316000065">
		<tag k="name" v="Raneidstølhovda" />
		<tag k="natural" v="hill" />
		<tag k="place" v="locality" />
		<tag k="ssr:stedsnr" v="587785" />
	</node>
	<node id="-177696" lat="60.6030472211" lon="8.35940832688">
		<tag k="name" v="Kamben" />
		<tag k="place" v="locality" />
		<tag k="ssr:stedsnr" v="587037" />
	</node>
	<node id="-177690" lat="60.5373861121" lon="8.15488611194">
		<tag k="name" v="Maradokki" />
		<tag k="place" v="locality" />
		<tag k="ssr:stedsnr" v="586694" />
	</node>
	<node id="-177688" lat="60.6183027757" lon="8.392361117">
		<tag k="name" v="Hestehovda" />
		<tag k="natural" v="hill" />
		<tag k="place" v="locality" />
		<tag k="ssr:stedsnr" v="586510" />
	</node>
	<node id="-177687" lat="60.6326694449" lon="8.30069444593">
		<tag k="name" v="Leirtjødnhaugen" />
		<tag k="natural" v="hill" />
		<tag k="place" v="locality" />
		<tag k="ssr:stedsnr" v="586509" />
	</node>
	<node id="-177686" lat="60.6300388877" lon="8.29566944966">
		<tag k="name" v="Grønefløtidn" />
		<tag k="natural" v="slope" />
		<tag k="place" v="locality" />
		<tag k="ssr:stedsnr" v="586502" />
	</node>
	<node id="-177685" lat="60.7328916663" lon="8.08354166328">
		<tag k="alt_name" v="Storhovda" />
		<tag k="loc_name" v="Storehovda" />
		<tag k="name" v="Buhovd" />
		<tag k="natural" v="hill" />
		<tag k="old_name" v="Olsendnuten" />
		<tag k="place" v="locality" />
		<tag k="ssr:stedsnr" v="586292" />
	</node>
	<node id="-177683" lat="60.5265055599" lon="8.11483334031">
		<tag k="name" v="Fossgardhovda" />
		<tag k="natural" v="hill" />
		<tag k="place" v="locality" />
		<tag k="ssr:stedsnr" v="586085" />
	</node>
	<node id="-177679" lat="60.5158416658" lon="8.14151389388">
		<tag k="name" v="Høgehaug" />
		<tag k="natural" v="hill" />
		<tag k="place" v="locality" />
		<tag k="ssr:stedsnr" v="585833" />
	</node>
	<node id="-177678" lat="60.4935666688" lon="8.06835277672">
		<tag k="name" v="Måfådalen" />
		<tag k="natural" v="valley" />
		<tag k="place" v="locality" />
		<tag k="ssr:stedsnr" v="585772" />
	</node>
	<node id="-177676" lat="60.6354638932" lon="8.09031111502">
		<tag k="name" v="Bleikihjallen" />
		<tag k="natural" v="slope" />
		<tag k="place" v="locality" />
		<tag k="ssr:stedsnr" v="585155" />
	</node>
	<node id="-177669" lat="60.5940361117" lon="8.14331111296">
		<tag k="fixme" v="consider natural=peak for the most distinct mountains in the district" />
		<tag k="name" v="Belvassnuten" />
		<tag k="natural" v="hill" />
		<tag k="place" v="locality" />
		<tag k="ssr:stedsnr" v="565959" />
	</node>
	<node id="-177668" lat="60.8392249991" lon="7.81869166555">
		<tag k="fixme" v="consider natural=peak for the most distinct mountains in the district" />
		<tag k="loc_name" v="Haldalshøgde" />
		<tag k="name" v="Haldalshøgdi" />
		<tag k="natural" v="hill" />
		<tag k="place" v="locality" />
		<tag k="ssr:stedsnr" v="554755" />
	</node>
	<node id="-177664" lat="60.551222221" lon="8.13760556399">
		<tag k="fixme" v="consider natural=peak for the most distinct mountains in the district" />
		<tag k="name" v="Snøhovda" />
		<tag k="natural" v="hill" />
		<tag k="place" v="locality" />
		<tag k="ssr:stedsnr" v="553763" />
	</node>
	<node id="-177663" lat="60.5651888923" lon="8.26477500469">
		<tag k="fixme" v="consider natural=peak for the most distinct mountains in the district" />
		<tag k="name" v="Fosshovda" />
		<tag k="natural" v="hill" />
		<tag k="place" v="locality" />
		<tag k="ssr:stedsnr" v="553757" />
	</node>
	<node id="-177662" lat="60.5293222187" lon="8.12548889232">
		<tag k="fixme" v="consider natural=peak for the most distinct mountains in the district" />
		<tag k="name" v="Fjellstølhovda" />
		<tag k="natural" v="hill" />
		<tag k="place" v="locality" />
		<tag k="ssr:stedsnr" v="553744" />
	</node>
	<node id="-177657" lat="60.619488892" lon="8.40459721657">
		<tag k="alt_name" v="Kyhovda" />
		<tag k="fixme" v="consider natural=peak for the most distinct mountains in the district" />
		<tag k="name" v="Kyrhovda" />
		<tag k="natural" v="hill" />
		<tag k="place" v="locality" />
		<tag k="ssr:stedsnr" v="553637" />
	</node>
	<node id="-177648" lat="60.5496777746" lon="7.8980250054">
		<tag k="alt_name" v="Raggenutane" />
		<tag k="fixme" v="consider natural=peak for the most distinct mountains in the district" />
		<tag k="loc_name" v="Raggenutan" />
		<tag k="name" v="Raggenuten" />
		<tag k="natural" v="hill" />
		<tag k="place" v="locality" />
		<tag k="ssr:stedsnr" v="553385" />
	</node>
	<node id="-177644" lat="60.7155194449" lon="8.00995555217">
		<tag k="name" v="Rundhovd" />
		<tag k="natural" v="hill" />
		<tag k="place" v="locality" />
		<tag k="ssr:stedsnr" v="553341" />
	</node>
	<node id="-177638" lat="60.5803138873" lon="8.17345556365">
		<tag k="alt_name" v="Høvdestølvarden" />
		<tag k="fixme" v="consider natural=peak for the most distinct mountains in the district" />
		<tag k="name" v="Hovdestølvarden" />
		<tag k="natural" v="hill" />
		<tag k="place" v="locality" />
		<tag k="ssr:stedsnr" v="552744" />
	</node>
	<node id="-177632" lat="60.5068611136" lon="7.9573333313">
		<tag k="name" v="Øyestølhovda" />
		<tag k="natural" v="hill" />
		<tag k="place" v="locality" />
		<tag k="ssr:stedsnr" v="552573" />
	</node>
	<node id="-177630" lat="60.6101277751" lon="7.80300000774">
		<tag k="name" v="Folarskardet" />
		<tag k="natural" v="valley" />
		<tag k="place" v="locality" />
		<tag k="ssr:stedsnr" v="552496" />
	</node>
	<node id="-177629" lat="60.6164250033" lon="8.02512500283">
		<tag k="name" v="Hivjudalen" />
		<tag k="natural" v="valley" />
		<tag k="place" v="locality" />
		<tag k="ssr:stedsnr" v="552490" />
	</node>
	<node id="-177627" lat="60.6257472246" lon="8.06176388611">
		<tag k="alt_name" v="Osberget" />
		<tag k="name" v="Oseberget" />
		<tag k="natural" v="hill" />
		<tag k="place" v="locality" />
		<tag k="ssr:stedsnr" v="552478" />
	</node>
	<node id="-177626" lat="60.6422305559" lon="7.76273056393">
		<tag k="fixme" v="consider natural=peak for the most distinct mountains in the district" />
		<tag k="name" v="Raggsteinnuten" />
		<tag k="natural" v="hill" />
		<tag k="place" v="locality" />
		<tag k="ssr:stedsnr" v="552474" />
	</node>
	<node id="-177624" lat="60.6354861134" lon="7.76573055529">
		<tag k="name" v="Veslebotn" />
		<tag k="natural" v="valley" />
		<tag k="place" v="locality" />
		<tag k="ssr:stedsnr" v="552469" />
	</node>
	<node id="-177623" lat="60.6478833303" lon="7.86338055069">
		<tag k="alt_name" v="Randefonne" />
		<tag k="fixme" v="consider natural=peak for the most distinct mountains in the district" />
		<tag k="name" v="Randefonni" />
		<tag k="natural" v="hill" />
		<tag k="place" v="locality" />
		<tag k="ssr:stedsnr" v="552458" />
	</node>
	<node id="-177622" lat="60.403875" lon="8.49464721659">
		<tag k="name" v="Hugarhaugen" />
		<tag k="natural" v="hill" />
		<tag k="place" v="locality" />
		<tag k="ssr:stedsnr" v="552420" />
	</node>
	<node id="-177621" lat="60.6569916638" lon="7.79834443718">
		<tag k="name" v="Raggsteindalen" />
		<tag k="natural" v="valley" />
		<tag k="place" v="locality" />
		<tag k="ssr:stedsnr" v="552382" />
	</node>
	<node id="-177615" lat="60.4228611096" lon="8.48156666962">
		<tag k="alt_name" v="Rambergberget" />
		<tag k="name" v="Ramberget" />
		<tag k="natural" v="hill" />
		<tag k="place" v="locality" />
		<tag k="ssr:stedsnr" v="552111" />
	</node>
	<node id="-177613" lat="60.4461750011" lon="8.5802499942">
		<tag k="name" v="Løstekulten" />
		<tag k="natural" v="hill" />
		<tag k="place" v="locality" />
		<tag k="ssr:stedsnr" v="552078" />
	</node>
	<node id="-177604" lat="60.4696333379" lon="8.17403611914">
		<tag k="name" v="Flåmyrhøgdi" />
		<tag k="natural" v="hill" />
		<tag k="place" v="locality" />
		<tag k="ssr:stedsnr" v="551869" />
	</node>
	<node id="-177598" lat="60.4622166685" lon="8.18569721623">
		<tag k="alt_name" v="Kvanneskarberget" />
		<tag k="name" v="Kvanneskardberget" />
		<tag k="natural" v="hill" />
		<tag k="place" v="locality" />
		<tag k="ssr:stedsnr" v="551831" />
	</node>
	<node id="-177592" lat="60.3867444415" lon="8.24962499683">
		<tag k="fixme" v="consider natural=peak for the most distinct mountains in the district" />
		<tag k="name" v="Naustelihovda" />
		<tag k="natural" v="hill" />
		<tag k="place" v="locality" />
		<tag k="ssr:stedsnr" v="551183" />
	</node>
	<node id="-177590" lat="60.4292361096" lon="8.44413610219">
		<tag k="alt_name" v="Kjønåsen" />
		<tag k="fixme" v="consider natural=peak for the most distinct mountains in the district" />
		<tag k="name" v="Tjørnåsen" />
		<tag k="natural" v="hill" />
		<tag k="place" v="locality" />
		<tag k="ssr:stedsnr" v="551137" />
	</node>
	<node id="-177589" lat="60.5750638887" lon="8.29266945197">
		<tag k="name" v="Bjørnagrovhovda" />
		<tag k="natural" v="hill" />
		<tag k="place" v="locality" />
		<tag k="ssr:stedsnr" v="545001" />
	</node>
	<node id="-177588" lat="60.5735194408" lon="8.35123610505">
		<tag k="name" v="Grovedalen" />
		<tag k="natural" v="valley" />
		<tag k="place" v="locality" />
		<tag k="ssr:stedsnr" v="544994" />
	</node>
	<node id="-177585" lat="60.6132611151" lon="8.26457777413">
		<tag k="name" v="Djupedalen" />
		<tag k="natural" v="valley" />
		<tag k="place" v="locality" />
		<tag k="ssr:stedsnr" v="544978" />
	</node>
	<node id="-176349" lat="60.5943499984" lon="8.39925554859">
		<tag k="name" v="Heimstølnatten" />
		<tag k="natural" v="hill" />
		<tag k="place" v="locality" />
		<tag k="ssr:stedsnr" v="362074" />
	</node>
	<node id="-177580" lat="60.6326083372" lon="8.32566388365">
		<tag k="name" v="Urelie" />
		<tag k="natural" v="slope" />
		<tag k="place" v="locality" />
		<tag k="ssr:stedsnr" v="544828" />
	</node>
	<node id="-177574" lat="60.5594055514" lon="8.24200000663">
		<tag k="name" v="Hyttehovda" />
		<tag k="natural" v="hill" />
		<tag k="place" v="locality" />
		<tag k="ssr:stedsnr" v="544283" />
	</node>
	<node id="-177573" lat="60.5674305514" lon="8.31644166843">
		<tag k="name" v="Krabbelie" />
		<tag k="natural" v="slope" />
		<tag k="place" v="locality" />
		<tag k="ssr:stedsnr" v="544177" />
	</node>
	<node id="-177563" lat="60.5831805524" lon="8.41090554659">
		<tag k="name" v="Kleivebergi" />
		<tag k="place" v="locality" />
		<tag k="ssr:stedsnr" v="543263" />
	</node>
	<node id="-177556" lat="60.6359249982" lon="8.20366111">
		<tag k="name" v="Vindåsane" />
		<tag k="natural" v="hill" />
		<tag k="place" v="locality" />
		<tag k="ssr:stedsnr" v="541808" />
	</node>
	<node id="-177552" lat="60.5036444427" lon="8.17078610519">
		<tag k="fixme" v="consider natural=peak for the most distinct mountains in the district" />
		<tag k="name" v="Natteranden" />
		<tag k="natural" v="hill" />
		<tag k="place" v="locality" />
		<tag k="ssr:stedsnr" v="541698" />
	</node>
	<node id="-177550" lat="60.4020638916" lon="8.29553888915">
		<tag k="name" v="Hytteroberget" />
		<tag k="natural" v="hill" />
		<tag k="place" v="locality" />
		<tag k="ssr:stedsnr" v="541410" />
	</node>
	<node id="-177549" lat="60.6038944462" lon="8.39312499095">
		<tag k="name" v="Bakselabakken" />
		<tag k="natural" v="slope" />
		<tag k="place" v="locality" />
		<tag k="ssr:stedsnr" v="540907" />
	</node>
	<node id="-177542" lat="60.6858583354" lon="8.03337223128">
		<tag k="alt_name" v="Fårlefjellet;Fålefjell" />
		<tag k="fixme" v="consider natural=peak for the most distinct mountains in the district" />
		<tag k="name" v="Fårlefjell" />
		<tag k="natural" v="hill" />
		<tag k="old_name" v="Farlig Fj." />
		<tag k="place" v="locality" />
		<tag k="ssr:stedsnr" v="537348" />
	</node>
	<node id="-177535" lat="60.4792805574" lon="8.0605555561">
		<tag k="name" v="Kjøsleranden" />
		<tag k="natural" v="ridge" />
		<tag k="place" v="locality" />
		<tag k="ssr:stedsnr" v="527800" />
	</node>
	<node id="-177534" lat="60.6177361091" lon="8.41241389621">
		<tag k="name" v="Geitekyrkja" />
		<tag k="natural" v="hill" />
		<tag k="place" v="locality" />
		<tag k="ssr:stedsnr" v="527572" />
	</node>
	<node id="-177533" lat="60.6649138931" lon="7.79970832571">
		<tag k="name" v="Sleaskarhovda" />
		<tag k="natural" v="hill" />
		<tag k="place" v="locality" />
		<tag k="ssr:stedsnr" v="527541" />
	</node>
	<node id="-177529" lat="60.6138027743" lon="8.18440277215">
		<tag k="name" v="Grønholabergi" />
		<tag k="place" v="locality" />
		<tag k="ssr:stedsnr" v="526955" />
	</node>
	<node id="-177528" lat="60.4891055588" lon="8.23494444738">
		<tag k="name" v="Skomakarnut" />
		<tag k="natural" v="hill" />
		<tag k="place" v="locality" />
		<tag k="ssr:stedsnr" v="526787" />
	</node>
	<node id="-177515" lat="60.424202782" lon="8.43450555461">
		<tag k="fixme" v="consider natural=peak for the most distinct mountains in the district" />
		<tag k="name" v="Snohovda" />
		<tag k="natural" v="hill" />
		<tag k="place" v="locality" />
		<tag k="ssr:stedsnr" v="506113" />
	</node>
	<node id="-177513" lat="60.809466664" lon="7.88191665841">
		<tag k="name" v="Eivindbotn" />
		<tag k="natural" v="valley" />
		<tag k="place" v="locality" />
		<tag k="ssr:stedsnr" v="494656" />
	</node>
	<node id="-177510" lat="60.7759888895" lon="7.88825832633">
		<tag k="fixme" v="consider natural=peak for the most distinct mountains in the district" />
		<tag k="name" v="Stolsbergi" />
		<tag k="natural" v="hill" />
		<tag k="place" v="locality" />
		<tag k="ssr:stedsnr" v="493735" />
	</node>
	<node id="-177507" lat="60.7796499973" lon="7.99815000703">
		<tag k="fixme" v="consider natural=peak for the most distinct mountains in the district" />
		<tag k="name" v="Bjørnsennuten" />
		<tag k="natural" v="hill" />
		<tag k="place" v="locality" />
		<tag k="ssr:stedsnr" v="493543" />
	</node>
	<node id="-177500" lat="60.5385749966" lon="8.16531667022">
		<tag k="alt_name" v="Verpeshøvda" />
		<tag k="name" v="Verpehovda" />
		<tag k="natural" v="hill" />
		<tag k="place" v="locality" />
		<tag k="ssr:stedsnr" v="492712" />
	</node>
	<node id="-177488" lat="60.5896444482" lon="8.27057222411">
		<tag k="fixme" v="consider natural=peak for the most distinct mountains in the district" />
		<tag k="name" v="Oddnakk" />
		<tag k="natural" v="hill" />
		<tag k="place" v="locality" />
		<tag k="ssr:stedsnr" v="492636" />
	</node>
	<node id="-177477" lat="60.6913861153" lon="8.16244166709">
		<tag k="fixme" v="consider natural=peak for the most distinct mountains in the district" />
		<tag k="name" v="Nuten" />
		<tag k="natural" v="hill" />
		<tag k="place" v="locality" />
		<tag k="ssr:stedsnr" v="492513" />
	</node>
	<node id="-177474" lat="60.6941194479" lon="8.1951888957">
		<tag k="fixme" v="consider natural=peak for the most distinct mountains in the district" />
		<tag k="loc_name" v="Mjellshovda" />
		<tag k="name" v="Mjelshovda" />
		<tag k="natural" v="hill" />
		<tag k="place" v="locality" />
		<tag k="ssr:stedsnr" v="492466" />
	</node>
	<node id="-177471" lat="60.6465611129" lon="7.92732499502">
		<tag k="fixme" v="consider natural=peak for the most distinct mountains in the district" />
		<tag k="name" v="Millomfjellet" />
		<tag k="natural" v="hill" />
		<tag k="old_name" v="Gurostølfjellet" />
		<tag k="place" v="locality" />
		<tag k="ssr:stedsnr" v="492392" />
	</node>
	<node id="-177467" lat="60.5385166664" lon="7.96089999937">
		<tag k="name" v="Djuptjørnhovda" />
		<tag k="natural" v="hill" />
		<tag k="place" v="locality" />
		<tag k="ssr:stedsnr" v="492379" />
	</node>
	<node id="-177461" lat="60.6574611149" lon="7.98230000785">
		<tag k="loc_name" v="Langehalle" />
		<tag k="name" v="Langehallet" />
		<tag k="natural" v="hill" />
		<tag k="place" v="locality" />
		<tag k="ssr:stedsnr" v="492303" />
	</node>
	<node id="-177460" lat="60.6464111153" lon="7.96507499166">
		<tag k="fixme" v="consider natural=peak for the most distinct mountains in the district" />
		<tag k="name" v="Gurostølfjellet" />
		<tag k="natural" v="hill" />
		<tag k="place" v="locality" />
		<tag k="ssr:stedsnr" v="492304" />
	</node>
	<node id="-177457" lat="60.580625" lon="7.71097499497">
		<tag k="name" v="Lengjedalslægret" />
		<tag k="place" v="locality" />
		<tag k="ssr:stedsnr" v="492283" />
	</node>
	<node id="-177456" lat="60.7233055523" lon="7.74103055068">
		<tag k="name" v="Skriunøse" />
		<tag k="natural" v="hill" />
		<tag k="place" v="locality" />
		<tag k="ssr:stedsnr" v="492247" />
	</node>
	<node id="-177455" lat="60.7395472248" lon="7.78841110796">
		<tag k="name" v="Tyrvlesbotnane" />
		<tag k="natural" v="valley" />
		<tag k="place" v="locality" />
		<tag k="ssr:stedsnr" v="492216" />
	</node>
	<node id="-177453" lat="60.7348500033" lon="7.61344999184">
		<tag k="name" v="Rossdalen" />
		<tag k="natural" v="valley" />
		<tag k="place" v="locality" />
		<tag k="ssr:stedsnr" v="492182" />
	</node>
	<node id="-177452" lat="60.6906999999" lon="7.60157778468">
		<tag k="fixme" v="consider natural=peak for the most distinct mountains in the district" />
		<tag k="name" v="Kittilsbunosi" />
		<tag k="natural" v="hill" />
		<tag k="place" v="locality" />
		<tag k="ssr:stedsnr" v="492172" />
	</node>
	<node id="-177451" lat="60.7086499955" lon="7.59689999545">
		<tag k="name" v="Vasshelleren" />
		<tag k="natural" v="valley" />
		<tag k="place" v="locality" />
		<tag k="ssr:stedsnr" v="492170" />
	</node>
	<node id="-177450" lat="60.6442249974" lon="7.62087500835">
		<tag k="name" v="Kyrkjedøri" />
		<tag k="natural" v="valley" />
		<tag k="place" v="locality" />
		<tag k="ssr:stedsnr" v="492153" />
	</node>
	<node id="-177449" lat="60.6100527795" lon="7.87397499327">
		<tag k="fixme" v="consider natural=peak for the most distinct mountains in the district" />
		<tag k="name" v="Storeskuta" />
		<tag k="natural" v="hill" />
		<tag k="place" v="locality" />
		<tag k="ssr:stedsnr" v="492408" />
	</node>
	<node id="-176348" lat="60.6014444464" lon="8.41323888112">
		<tag k="name" v="Venevieren" />
		<tag k="natural" v="valley" />
		<tag k="place" v="locality" />
		<tag k="ssr:stedsnr" v="362057" />
	</node>
	<node id="-177443" lat="60.4871500037" lon="8.1666194391">
		<tag k="alt_name" v="Birgithøvda" />
		<tag k="name" v="Birgithovda" />
		<tag k="natural" v="hill" />
		<tag k="place" v="locality" />
		<tag k="ssr:stedsnr" v="491849" />
	</node>
	<node id="-177439" lat="60.4368111101" lon="8.5476611108">
		<tag k="alt_name" v="Brattli" />
		<tag k="name" v="Brattelihovda" />
		<tag k="natural" v="hill" />
		<tag k="place" v="locality" />
		<tag k="ssr:stedsnr" v="491128" />
	</node>
	<node id="-177438" lat="60.4337611097" lon="8.51308333417">
		<tag k="name" v="Bukkesteinhovda" />
		<tag k="natural" v="hill" />
		<tag k="place" v="locality" />
		<tag k="ssr:stedsnr" v="491127" />
	</node>
	<node id="-177434" lat="60.457774999" lon="7.74589999891">
		<tag k="fixme" v="consider natural=peak for the most distinct mountains in the district" />
		<tag k="name" v="Svonuten" />
		<tag k="natural" v="hill" />
		<tag k="place" v="locality" />
		<tag k="ssr:stedsnr" v="490995" />
	</node>
	<node id="-177433" lat="60.4074499993" lon="7.7414499979">
		<tag k="fixme" v="consider natural=peak for the most distinct mountains in the district" />
		<tag k="name" v="Midnuten" />
		<tag k="natural" v="hill" />
		<tag k="place" v="locality" />
		<tag k="ssr:stedsnr" v="490969" />
	</node>
	<node id="-177427" lat="60.4435944471" lon="7.92729722167">
		<tag k="fixme" v="consider natural=peak for the most distinct mountains in the district" />
		<tag k="name" v="Monsbuhæe" />
		<tag k="natural" v="hill" />
		<tag k="place" v="locality" />
		<tag k="ssr:stedsnr" v="490954" />
	</node>
	<node id="-177425" lat="60.4547972267" lon="7.86902500874">
		<tag k="fixme" v="consider natural=peak for the most distinct mountains in the district" />
		<tag k="name" v="Monsbunuten" />
		<tag k="natural" v="hill" />
		<tag k="place" v="locality" />
		<tag k="ssr:stedsnr" v="490933" />
	</node>
	<node id="-177422" lat="60.472469447" lon="8.29755833297">
		<tag k="name" v="Skurdalen" />
		<tag k="natural" v="valley" />
		<tag k="place" v="locality" />
		<tag k="ssr:stedsnr" v="490836" />
	</node>
	<node id="-177407" lat="60.6212083377" lon="8.22629722503">
		<tag k="name" v="Brattåksbakkane" />
		<tag k="natural" v="slope" />
		<tag k="place" v="locality" />
		<tag k="ssr:stedsnr" v="483986" />
	</node>
	<node id="-177400" lat="60.5909055523" lon="8.40590832946">
		<tag k="name" v="Heimstølbergi" />
		<tag k="natural" v="hill" />
		<tag k="place" v="locality" />
		<tag k="ssr:stedsnr" v="483081" />
	</node>
	<node id="-177396" lat="60.5322277816" lon="8.32425555514">
		<tag k="name" v="Storestølhovda" />
		<tag k="natural" v="hill" />
		<tag k="place" v="locality" />
		<tag k="ssr:stedsnr" v="481700" />
	</node>
	<node id="-177395" lat="60.519977774" lon="8.29778888378">
		<tag k="name" v="Nystølhalle" />
		<tag k="natural" v="slope" />
		<tag k="place" v="locality" />
		<tag k="ssr:stedsnr" v="481666" />
	</node>
	<node id="-177393" lat="60.5183416688" lon="7.94862222451">
		<tag k="name" v="Åkerstølhallin" />
		<tag k="natural" v="slope" />
		<tag k="place" v="locality" />
		<tag k="ssr:stedsnr" v="480665" />
	</node>
	<node id="-177388" lat="60.6272972203" lon="8.38191944879">
		<tag k="name" v="Dansarberget" />
		<tag k="natural" v="hill" />
		<tag k="place" v="locality" />
		<tag k="ssr:stedsnr" v="480411" />
	</node>
	<node id="-177387" lat="60.6990249997" lon="8.15063055303">
		<tag k="name" v="Djupskarnuten" />
		<tag k="natural" v="slope" />
		<tag k="place" v="locality" />
		<tag k="ssr:stedsnr" v="480207" />
	</node>
	<node id="-177377" lat="60.468741664" lon="8.16913055953">
		<tag k="name" v="Ragnhilddokk" />
		<tag k="natural" v="valley" />
		<tag k="place" v="locality" />
		<tag k="ssr:stedsnr" v="466821" />
	</node>
	<node id="-177372" lat="60.6173277787" lon="8.40955278105">
		<tag k="name" v="Øyestølhovda" />
		<tag k="natural" v="hill" />
		<tag k="place" v="locality" />
		<tag k="ssr:stedsnr" v="466588" />
	</node>
	<node id="-177368" lat="60.523683333" lon="8.13775556395">
		<tag k="name" v="Veslestølberget" />
		<tag k="natural" v="hill" />
		<tag k="place" v="locality" />
		<tag k="ssr:stedsnr" v="466259" />
	</node>
	<node id="-177367" lat="60.5296888924" lon="8.13469721622">
		<tag k="name" v="Tuftelie" />
		<tag k="natural" v="slope" />
		<tag k="place" v="locality" />
		<tag k="ssr:stedsnr" v="466149" />
	</node>
	<node id="-177365" lat="60.7188472239" lon="7.83987222646">
		<tag k="name" v="Hyllune" />
		<tag k="place" v="locality" />
		<tag k="ssr:stedsnr" v="466070" />
	</node>
	<node id="-177355" lat="60.6573166698" lon="8.04500277249">
		<tag k="name" v="Haradalsbergi" />
		<tag k="natural" v="hill" />
		<tag k="place" v="locality" />
		<tag k="ssr:stedsnr" v="464084" />
	</node>
	<node id="-177354" lat="60.4024666676" lon="8.28422221864">
		<tag k="fixme" v="consider natural=peak for the most distinct mountains in the district" />
		<tag k="name" v="Gvonnestulberget" />
		<tag k="natural" v="hill" />
		<tag k="place" v="locality" />
		<tag k="ssr:stedsnr" v="445113" />
	</node>
	<node id="-177351" lat="60.8336388928" lon="7.87141388075">
		<tag k="fixme" v="consider natural=peak for the most distinct mountains in the district" />
		<tag k="name" v="Galdenøse" />
		<tag k="natural" v="hill" />
		<tag k="place" v="locality" />
		<tag k="ssr:stedsnr" v="433746" />
	</node>
	<node id="-177350" lat="60.781825003" lon="7.92185000256">
		<tag k="name" v="Grevskardet" />
		<tag k="natural" v="valley" />
		<tag k="place" v="locality" />
		<tag k="ssr:stedsnr" v="433727" />
	</node>
	<node id="-177344" lat="60.5360277794" lon="8.30215833425">
		<tag k="fixme" v="consider natural=peak for the most distinct mountains in the district" />
		<tag k="name" v="Bjørkehovda" />
		<tag k="natural" v="hill" />
		<tag k="place" v="locality" />
		<tag k="ssr:stedsnr" v="432894" />
	</node>
	<node id="-177332" lat="60.5534694469" lon="8.29815556344">
		<tag k="name" v="Ustedalen" />
		<tag k="natural" v="valley" />
		<tag k="place" v="locality" />
		<tag k="ssr:stedsnr" v="432721" />
	</node>
	<node id="-177328" lat="60.6053777768" lon="8.39528889795">
		<tag k="alt_name" v="Skardhovd;Skarhovda" />
		<tag k="fixme" v="consider natural=peak for the most distinct mountains in the district" />
		<tag k="name" v="Skarhovd" />
		<tag k="natural" v="hill" />
		<tag k="place" v="locality" />
		<tag k="ssr:stedsnr" v="432660" />
	</node>
	<node id="-177327" lat="60.6089194426" lon="8.36882777981">
		<tag k="fixme" v="consider natural=peak for the most distinct mountains in the district" />
		<tag k="name" v="Damnuten" />
		<tag k="natural" v="hill" />
		<tag k="place" v="locality" />
		<tag k="ssr:stedsnr" v="432659" />
	</node>
	<node id="-177322" lat="60.5013000029" lon="7.81474999117">
		<tag k="alt_name" v="Heirkvelve" />
		<tag k="name" v="Heirkvelvi" />
		<tag k="natural" v="slope" />
		<tag k="place" v="locality" />
		<tag k="ssr:stedsnr" v="432466" />
	</node>
	<node id="-177321" lat="60.5132222246" lon="7.9787472308">
		<tag k="name" v="Storenuten" />
		<tag k="natural" v="hill" />
		<tag k="place" v="locality" />
		<tag k="ssr:stedsnr" v="432462" />
	</node>
	<node id="-177319" lat="60.6146388911" lon="7.89659166516">
		<tag k="name" v="Grogardnibben" />
		<tag k="natural" v="hill" />
		<tag k="place" v="locality" />
		<tag k="ssr:stedsnr" v="432414" />
	</node>
	<node id="-177316" lat="60.635961111" lon="8.04257777245">
		<tag k="name" v="Holmeslåtta" />
		<tag k="natural" v="slope" />
		<tag k="place" v="locality" />
		<tag k="ssr:stedsnr" v="432409" />
	</node>
	<node id="-177314" lat="60.5317305544" lon="8.0527805645">
		<tag k="fixme" v="consider natural=peak for the most distinct mountains in the district" />
		<tag k="name" v="Eimehæe" />
		<tag k="natural" v="hill" />
		<tag k="place" v="locality" />
		<tag k="ssr:stedsnr" v="432378" />
	</node>
	<node id="-177313" lat="60.5668861092" lon="7.89617777411">
		<tag k="name" v="Hyllun" />
		<tag k="natural" v="hill" />
		<tag k="place" v="locality" />
		<tag k="ssr:stedsnr" v="432357" />
	</node>
	<node id="-177311" lat="60.6921388876" lon="7.98428888307">
		<tag k="name" v="Buhovd" />
		<tag k="natural" v="hill" />
		<tag k="place" v="locality" />
		<tag k="ssr:stedsnr" v="432335" />
	</node>
	<node id="-177305" lat="60.6635611068" lon="7.94542500449">
		<tag k="name" v="Gurostølnøse" />
		<tag k="natural" v="hill" />
		<tag k="place" v="locality" />
		<tag k="ssr:stedsnr" v="432302" />
	</node>
	<node id="-177304" lat="60.7231138902" lon="7.81524722685">
		<tag k="name" v="Hjallane" />
		<tag k="natural" v="slope" />
		<tag k="place" v="locality" />
		<tag k="ssr:stedsnr" v="432256" />
	</node>
	<node id="-177303" lat="60.7358611104" lon="7.77082778441">
		<tag k="fixme" v="consider natural=peak for the most distinct mountains in the district" />
		<tag k="name" v="Tyrvlesnuten" />
		<tag k="natural" v="hill" />
		<tag k="place" v="locality" />
		<tag k="ssr:stedsnr" v="432240" />
	</node>
	<node id="-177295" lat="60.6985194461" lon="8.11815000537">
		<tag k="fixme" v="consider natural=peak for the most distinct mountains in the district" />
		<tag k="name" v="Storhovd" />
		<tag k="natural" v="hill" />
		<tag k="place" v="locality" />
		<tag k="ssr:stedsnr" v="431548" />
	</node>
	<node id="-177293" lat="60.5079138928" lon="8.0796499934">
		<tag k="name" v="Vardaskardet" />
		<tag k="natural" v="valley" />
		<tag k="place" v="locality" />
		<tag k="ssr:stedsnr" v="431538" />
	</node>
	<node id="-177290" lat="60.5100805598" lon="7.93881388442">
		<tag k="alt_name" v="Kjersundliene, nordre;Nordre Kjersundlien" />
		<tag k="name" v="Nørdre Kjersundliene" />
		<tag k="natural" v="slope" />
		<tag k="place" v="locality" />
		<tag k="ssr:stedsnr" v="431530" />
	</node>
	<node id="-177288" lat="60.6495138931" lon="7.74823889579">
		<tag k="name" v="Urdebotn" />
		<tag k="natural" v="valley" />
		<tag k="place" v="locality" />
		<tag k="ssr:stedsnr" v="431361" />
	</node>
	<node id="-177287" lat="60.7472222259" lon="7.92171389604">
		<tag k="fixme" v="consider natural=peak for the most distinct mountains in the district" />
		<tag k="name" v="Grønehæe" />
		<tag k="natural" v="hill" />
		<tag k="place" v="locality" />
		<tag k="ssr:stedsnr" v="431278" />
	</node>
	<node id="-177286" lat="60.4406250027" lon="8.53217500443">
		<tag k="name" v="Trollhovda" />
		<tag k="natural" v="hill" />
		<tag k="place" v="locality" />
		<tag k="ssr:stedsnr" v="431141" />
	</node>
	<node id="-177284" lat="60.4455250008" lon="8.56939999815">
		<tag k="alt_name" v="Løstekulten, vesle" />
		<tag k="name" v="Vesle Løstekulten" />
		<tag k="natural" v="hill" />
		<tag k="place" v="locality" />
		<tag k="ssr:stedsnr" v="431081" />
	</node>
	<node id="-177283" lat="60.4724722252" lon="7.84149721569">
		<tag k="name" v="Varden" />
		<tag k="natural" v="hill" />
		<tag k="place" v="locality" />
		<tag k="ssr:stedsnr" v="430996" />
	</node>
	<node id="-177282" lat="60.4303750016" lon="8.01049999296">
		<tag k="name" v="Rundenuten" />
		<tag k="natural" v="hill" />
		<tag k="place" v="locality" />
		<tag k="ssr:stedsnr" v="430964" />
	</node>
	<node id="-177280" lat="60.454399999" lon="7.78604721811">
		<tag k="fixme" v="consider natural=peak for the most distinct mountains in the district" />
		<tag k="name" v="Kristennuten" />
		<tag k="natural" v="hill" />
		<tag k="place" v="locality" />
		<tag k="ssr:stedsnr" v="430945" />
	</node>
	<node id="-177274" lat="60.3892749989" lon="7.88790000678">
		<tag k="name" v="Grensehøgda" />
		<tag k="natural" v="hill" />
		<tag k="place" v="locality" />
		<tag k="ssr:stedsnr" v="430781" />
	</node>
	<node id="-177260" lat="60.4077500025" lon="8.37748332999">
		<tag k="fixme" v="consider natural=peak for the most distinct mountains in the district" />
		<tag k="name" v="Heimåsen" />
		<tag k="natural" v="hill" />
		<tag k="place" v="locality" />
		<tag k="ssr:stedsnr" v="430166" />
	</node>
	<node id="-177253" lat="60.4270833323" lon="8.29483055602">
		<tag k="alt_name" v="Breisethøvda" />
		<tag k="fixme" v="consider natural=peak for the most distinct mountains in the district" />
		<tag k="name" v="Breidsethovda" />
		<tag k="natural" v="hill" />
		<tag k="place" v="locality" />
		<tag k="ssr:stedsnr" v="430117" />
	</node>
	<node id="-177250" lat="60.6339972226" lon="8.33954722113">
		<tag k="name" v="Langemyrbrøtet" />
		<tag k="natural" v="hill" />
		<tag k="place" v="locality" />
		<tag k="ssr:stedsnr" v="423852" />
	</node>
	<node id="-177238" lat="60.6902861155" lon="7.99339167513">
		<tag k="name" v="Storesteindalane" />
		<tag k="natural" v="valley" />
		<tag k="place" v="locality" />
		<tag k="ssr:stedsnr" v="420749" />
	</node>
	<node id="-177237" lat="60.682133337" lon="7.92731666266">
		<tag k="name" v="Kalken" />
		<tag k="place" v="locality" />
		<tag k="ssr:stedsnr" v="419663" />
	</node>
	<node id="-177230" lat="60.7639333377" lon="7.76325554874">
		<tag k="fixme" v="consider natural=peak for the most distinct mountains in the district" />
		<tag k="name" v="Volanuten" />
		<tag k="natural" v="hill" />
		<tag k="place" v="locality" />
		<tag k="ssr:stedsnr" v="251566" />
	</node>
	<node id="-177221" lat="60.6418944443" lon="8.1163138887">
		<tag k="name" v="Sisseldalen" />
		<tag k="natural" v="valley" />
		<tag k="place" v="locality" />
		<tag k="ssr:stedsnr" v="250550" />
	</node>
	<node id="-177218" lat="60.5155249965" lon="7.84363611605">
		<tag k="fixme" v="consider natural=peak for the most distinct mountains in the district" />
		<tag k="name" v="Fjellbergnuten" />
		<tag k="natural" v="hill" />
		<tag k="place" v="locality" />
		<tag k="ssr:stedsnr" v="250472" />
	</node>
	<node id="-177214" lat="60.6837138898" lon="7.84196944896">
		<tag k="name" v="Sprengviknuten" />
		<tag k="natural" v="hill" />
		<tag k="place" v="locality" />
		<tag k="ssr:stedsnr" v="250367" />
	</node>
	<node id="-177209" lat="60.668194444" lon="7.76377778315">
		<tag k="name" v="Syningshovda" />
		<tag k="natural" v="hill" />
		<tag k="place" v="locality" />
		<tag k="ssr:stedsnr" v="250315" />
	</node>
	<node id="-177203" lat="60.5464499958" lon="8.19018333546">
		<tag k="name" v="Havsdalen" />
		<tag k="natural" v="valley" />
		<tag k="place" v="locality" />
		<tag k="ssr:stedsnr" v="249702" />
	</node>
	<node id="-177202" lat="60.5410750026" lon="8.13244166293">
		<tag k="fixme" v="consider natural=peak for the most distinct mountains in the district" />
		<tag k="name" v="Vardahovdun" />
		<tag k="natural" v="hill" />
		<tag k="place" v="locality" />
		<tag k="ssr:stedsnr" v="249703" />
	</node>
	<node id="-177197" lat="60.6350305574" lon="8.08098333266">
		<tag k="fixme" v="consider natural=peak for the most distinct mountains in the district" />
		<tag k="name" v="Jøkulnatten" />
		<tag k="natural" v="hill" />
		<tag k="place" v="locality" />
		<tag k="ssr:stedsnr" v="249441" />
	</node>
	<node id="-177195" lat="60.6472638862" lon="7.81581111298">
		<tag k="fixme" v="consider natural=peak for the most distinct mountains in the district" />
		<tag k="name" v="Grønehallnuten" />
		<tag k="natural" v="hill" />
		<tag k="place" v="locality" />
		<tag k="ssr:stedsnr" v="249424" />
	</node>
	<node id="-176185" lat="60.5491111097" lon="8.22858611049">
		<tag k="name" v="Dokken" />
		<tag k="natural" v="slope" />
		<tag k="place" v="locality" />
		<tag k="ssr:stedsnr" v="300474" />
	</node>
	<node id="-177188" lat="60.7043250029" lon="7.54522499385">
		<tag k="fixme" v="consider natural=peak for the most distinct mountains in the district" />
		<tag k="name" v="Bakkahellertunga" />
		<tag k="natural" v="hill" />
		<tag k="place" v="locality" />
		<tag k="ssr:stedsnr" v="249185" />
	</node>
	<node id="-177187" lat="60.7260750044" lon="7.68379999488">
		<tag k="name" v="Urdvassberget" />
		<tag k="natural" v="hill" />
		<tag k="place" v="locality" />
		<tag k="ssr:stedsnr" v="249186" />
	</node>
	<node id="-177186" lat="60.4411333351" lon="8.48910832881">
		<tag k="name" v="Toresbuhøgdin" />
		<tag k="natural" v="hill" />
		<tag k="place" v="locality" />
		<tag k="ssr:stedsnr" v="249120" />
	</node>
	<node id="-177179" lat="60.4154250023" lon="7.87019999928">
		<tag k="fixme" v="consider natural=peak for the most distinct mountains in the district" />
		<tag k="name" v="Krækkjahæe" />
		<tag k="natural" v="hill" />
		<tag k="old_name" v="Krækja Heia;Krækkjehei;Krækjeheia" />
		<tag k="place" v="locality" />
		<tag k="ssr:stedsnr" v="248974" />
	</node>
	<node id="-177172" lat="60.3878194433" lon="8.38201665999">
		<tag k="name" v="Smiuhovda" />
		<tag k="natural" v="hill" />
		<tag k="place" v="locality" />
		<tag k="ssr:stedsnr" v="248205" />
	</node>
	<node id="-177170" lat="60.3891694484" lon="8.43915833156">
		<tag k="name" v="Perstølbonden" />
		<tag k="place" v="locality" />
		<tag k="ssr:stedsnr" v="248160" />
	</node>
	<node id="-177167" lat="60.4210388896" lon="8.17868055916">
		<tag k="fixme" v="consider natural=peak for the most distinct mountains in the district" />
		<tag k="name" v="Ljosevasstuva" />
		<tag k="natural" v="hill" />
		<tag k="place" v="locality" />
		<tag k="ssr:stedsnr" v="248139" />
	</node>
	<node id="-177159" lat="60.5954055583" lon="8.40023888442">
		<tag k="name" v="Snøyerholt" />
		<tag k="natural" v="hill" />
		<tag k="place" v="locality" />
		<tag k="ssr:stedsnr" v="241095" />
	</node>
	<node id="-177155" lat="60.5047138846" lon="8.13552778018">
		<tag k="name" v="Salttjødnnuten" />
		<tag k="natural" v="hill" />
		<tag k="place" v="locality" />
		<tag k="ssr:stedsnr" v="240856" />
	</node>
	<node id="-177153" lat="60.5118333324" lon="7.87403611509">
		<tag k="name" v="Skurvenuten" />
		<tag k="natural" v="hill" />
		<tag k="place" v="locality" />
		<tag k="ssr:stedsnr" v="240347" />
	</node>
	<node id="-177151" lat="60.5453111084" lon="8.34257776883">
		<tag k="name" v="Birgitstøllia" />
		<tag k="natural" v="slope" />
		<tag k="place" v="locality" />
		<tag k="ssr:stedsnr" v="239820" />
	</node>
	<node id="-177150" lat="60.5119777784" lon="8.31660833267">
		<tag k="name" v="Kråkehammeren" />
		<tag k="natural" v="hill" />
		<tag k="place" v="locality" />
		<tag k="ssr:stedsnr" v="239725" />
	</node>
	<node id="-177145" lat="60.5278361082" lon="8.1612027842">
		<tag k="name" v="Kvednhushaugane" />
		<tag k="natural" v="ridge" />
		<tag k="place" v="locality" />
		<tag k="ssr:stedsnr" v="238638" />
	</node>
	<node id="-177144" lat="60.6185416643" lon="8.33312221413">
		<tag k="name" v="Ågotdøkk" />
		<tag k="natural" v="valley" />
		<tag k="place" v="locality" />
		<tag k="ssr:stedsnr" v="238625" />
	</node>
	<node id="-177142" lat="60.509119444" lon="8.15881110229">
		<tag k="name" v="Jehanslie" />
		<tag k="natural" v="slope" />
		<tag k="place" v="locality" />
		<tag k="ssr:stedsnr" v="237698" />
	</node>
	<node id="-177140" lat="60.6286138896" lon="8.09706666756">
		<tag k="name" v="Urundlie" />
		<tag k="natural" v="slope" />
		<tag k="place" v="locality" />
		<tag k="ssr:stedsnr" v="238438" />
	</node>
	<node id="-177139" lat="60.4032333293" lon="8.31502499351">
		<tag k="name" v="Ormehøvda" />
		<tag k="natural" v="hill" />
		<tag k="place" v="locality" />
		<tag k="ssr:stedsnr" v="237383" />
	</node>
	<node id="-177138" lat="60.5573805558" lon="8.20542778368">
		<tag k="name" v="Bardølsgardjuvet" />
		<tag k="natural" v="gorge" />
		<tag k="ssr:stedsnr" v="237362" />
	</node>
	<node id="-177137" lat="60.5809861108" lon="8.14714165923">
		<tag k="name" v="Svarteberg" />
		<tag k="natural" v="hill" />
		<tag k="place" v="locality" />
		<tag k="ssr:stedsnr" v="237085" />
	</node>
	<node id="-177133" lat="60.478969445" lon="8.06469443727">
		<tag k="name" v="Øyestølranden" />
		<tag k="natural" v="ridge" />
		<tag k="place" v="locality" />
		<tag k="ssr:stedsnr" v="224804" />
	</node>
	<node id="-177132" lat="60.4814472211" lon="8.03687777769">
		<tag k="name" v="Vikastølhovda" />
		<tag k="natural" v="hill" />
		<tag k="place" v="locality" />
		<tag k="ssr:stedsnr" v="224748" />
	</node>
	<node id="-177130" lat="60.617083335" lon="8.40513611436">
		<tag k="name" v="Urehovda" />
		<tag k="natural" v="hill" />
		<tag k="place" v="locality" />
		<tag k="ssr:stedsnr" v="224540" />
	</node>
	<node id="-177129" lat="60.6116833375" lon="8.41648611998">
		<tag k="name" v="Steinhushaugen" />
		<tag k="natural" v="hill" />
		<tag k="place" v="locality" />
		<tag k="ssr:stedsnr" v="224511" />
	</node>
	<node id="-177113" lat="60.5969138916" lon="8.36897221734">
		<tag k="name" v="Solheimslie" />
		<tag k="natural" v="slope" />
		<tag k="place" v="locality" />
		<tag k="ssr:stedsnr" v="223035" />
	</node>
	<node id="-177108" lat="60.5361888856" lon="8.16572500023">
		<tag k="name" v="Brennebergi" />
		<tag k="natural" v="slope" />
		<tag k="place" v="locality" />
		<tag k="ssr:stedsnr" v="222667" />
	</node>
	<node id="-177104" lat="60.5170222182" lon="8.12150277476">
		<tag k="name" v="Storhovda" />
		<tag k="natural" v="hill" />
		<tag k="place" v="locality" />
		<tag k="ssr:stedsnr" v="221793" />
	</node>
	<node id="-177103" lat="60.7116999983" lon="7.61307500577">
		<tag k="name" v="Geiteryggen" />
		<tag k="natural" v="ridge" />
		<tag k="old_name" v="Gjeteryg" />
		<tag k="place" v="locality" />
		<tag k="ssr:stedsnr" v="221552" />
	</node>
	<node id="-177101" lat="60.6045166634" lon="8.35708056085">
		<tag k="name" v="Reinskar" />
		<tag k="natural" v="valley" />
		<tag k="place" v="locality" />
		<tag k="ssr:stedsnr" v="222942" />
	</node>
	<node id="-176290" lat="60.833053532" lon="7.96418794799">
		<tag k="fixme" v="multiple name tags, choose one and add the other to alt_name" />
		<tag k="name" v="Nordfjella;Skarvheimen" />
		<tag k="natural" v="mountain_range" />
		<tag k="ssr:stedsnr" v="324756" />
	</node>
	<node id="-177097" lat="60.8245277819" lon="7.91770833347">
		<tag k="alt_name" v="Fødalen, vesle" />
		<tag k="name" v="Vesle Fødalen" />
		<tag k="natural" v="valley" />
		<tag k="place" v="locality" />
		<tag k="ssr:stedsnr" v="190750" />
	</node>
	<node id="-177095" lat="60.5067722249" lon="8.16970555317">
		<tag k="name" v="Natten" />
		<tag k="natural" v="hill" />
		<tag k="place" v="locality" />
		<tag k="ssr:stedsnr" v="189766" />
	</node>
	<node id="-177085" lat="60.5440277734" lon="8.22846943587">
		<tag k="name" v="Geilomoen" />
		<tag k="place" v="locality" />
		<tag k="ssr:stedsnr" v="189688" />
	</node>
	<node id="-177064" lat="60.504238888" lon="7.80646944526">
		<tag k="name" v="Andersranden" />
		<tag k="natural" v="hill" />
		<tag k="place" v="locality" />
		<tag k="ssr:stedsnr" v="189452" />
	</node>
	<node id="-177059" lat="60.5031160581" lon="8.05683516033">
		<tag k="fixme" v="consider natural=peak for the most distinct mountains in the district" />
		<tag k="name" v="Skuggelen" />
		<tag k="natural" v="hill" />
		<tag k="place" v="locality" />
		<tag k="ssr:stedsnr" v="189417" />
	</node>
	<node id="-177058" lat="60.6121500042" lon="8.0675861095">
		<tag k="name" v="Ørneberget" />
		<tag k="natural" v="hill" />
		<tag k="place" v="locality" />
		<tag k="ssr:stedsnr" v="189413" />
	</node>
	<node id="-177050" lat="60.530574999" lon="8.01223055917">
		<tag k="alt_name" v="Storhalline" />
		<tag k="name" v="Storhallin" />
		<tag k="natural" v="slope" />
		<tag k="place" v="locality" />
		<tag k="ssr:stedsnr" v="189376" />
	</node>
	<node id="-177047" lat="60.5825166634" lon="8.08283888795">
		<tag k="fixme" v="consider natural=peak for the most distinct mountains in the district" />
		<tag k="name" v="Kopen" />
		<tag k="natural" v="hill" />
		<tag k="place" v="locality" />
		<tag k="ssr:stedsnr" v="189361" />
	</node>
	<node id="-177045" lat="60.6923916641" lon="8.00013889483">
		<tag k="name" v="Bukkehovda" />
		<tag k="natural" v="hill" />
		<tag k="place" v="locality" />
		<tag k="ssr:stedsnr" v="189342" />
	</node>
	<node id="-177040" lat="60.6649777777" lon="7.98649723126">
		<tag k="fixme" v="consider natural=peak for the most distinct mountains in the district" />
		<tag k="name" v="Skarabakkfjellet" />
		<tag k="natural" v="hill" />
		<tag k="place" v="locality" />
		<tag k="ssr:stedsnr" v="189309" />
	</node>
	<node id="-177031" lat="60.6300499963" lon="7.6963750017">
		<tag k="name" v="Ljøtebotnane" />
		<tag k="natural" v="valley" />
		<tag k="place" v="locality" />
		<tag k="ssr:stedsnr" v="189186" />
	</node>
	<node id="-177027" lat="60.4342638873" lon="8.56424443742">
		<tag k="alt_name" v="Seterfjellet" />
		<tag k="name" v="Sæterkulten" />
		<tag k="natural" v="hill" />
		<tag k="place" v="locality" />
		<tag k="ssr:stedsnr" v="188132" />
	</node>
	<node id="-177026" lat="60.4725749974" lon="7.72857499736">
		<tag k="fixme" v="consider natural=peak for the most distinct mountains in the district" />
		<tag k="name" v="Flånuten" />
		<tag k="natural" v="hill" />
		<tag k="place" v="locality" />
		<tag k="ssr:stedsnr" v="188000" />
	</node>
	<node id="-177023" lat="60.4589722251" lon="7.76004167123">
		<tag k="name" v="Svøe" />
		<tag k="place" v="locality" />
		<tag k="ssr:stedsnr" v="187992" />
	</node>
	<node id="-177021" lat="60.4927972196" lon="8.09112499561">
		<tag k="name" v="Rennedalen" />
		<tag k="natural" v="valley" />
		<tag k="place" v="locality" />
		<tag k="ssr:stedsnr" v="187982" />
	</node>
	<node id="-177017" lat="60.376075002" lon="7.81509722818">
		<tag k="fixme" v="consider natural=peak for the most distinct mountains in the district" />
		<tag k="name" v="Melrakkhovda" />
		<tag k="natural" v="hill" />
		<tag k="place" v="locality" />
		<tag k="ssr:stedsnr" v="187772" />
	</node>
	<node id="-177016" lat="60.3662250018" lon="8.07527500353">
		<tag k="fixme" v="consider natural=peak for the most distinct mountains in the district" />
		<tag k="name" v="Briskelognutan" />
		<tag k="natural" v="hill" />
		<tag k="place" v="locality" />
		<tag k="ssr:stedsnr" v="187765" />
	</node>
	<node id="-177007" lat="60.4207944422" lon="8.1343944493">
		<tag k="fixme" v="consider natural=peak for the most distinct mountains in the district" />
		<tag k="name" v="Reinshorntuva" />
		<tag k="natural" v="hill" />
		<tag k="place" v="locality" />
		<tag k="ssr:stedsnr" v="187144" />
	</node>
	<node id="-177005" lat="60.4254805576" lon="8.38433611369">
		<tag k="alt_name" v="Roahøvda" />
		<tag k="name" v="Roehovda" />
		<tag k="natural" v="hill" />
		<tag k="place" v="locality" />
		<tag k="ssr:stedsnr" v="187127" />
	</node>
	<node id="-176997" lat="60.432824997" lon="8.10678889036">
		<tag k="name" v="Hestehovda" />
		<tag k="natural" v="hill" />
		<tag k="place" v="locality" />
		<tag k="ssr:stedsnr" v="187157" />
	</node>
	<node id="-176995" lat="60.5851472217" lon="8.32198055112">
		<tag k="name" v="Hamaren" />
		<tag k="place" v="locality" />
		<tag k="ssr:stedsnr" v="180978" />
	</node>
	<node id="-176992" lat="60.6154611153" lon="8.26783610872">
		<tag k="name" v="Kvamshaugen" />
		<tag k="natural" v="valley" />
		<tag k="place" v="locality" />
		<tag k="ssr:stedsnr" v="180969" />
	</node>
	<node id="-176985" lat="60.5612027778" lon="8.25171666922">
		<tag k="name" v="Hellebergi" />
		<tag k="natural" v="hill" />
		<tag k="place" v="locality" />
		<tag k="ssr:stedsnr" v="180270" />
	</node>
	<node id="-176270" lat="60.6001722266" lon="8.40763888125">
		<tag k="fixme" v="consider natural=peak for the most distinct mountains in the district" />
		<tag k="name" v="Storhovd" />
		<tag k="natural" v="hill" />
		<tag k="place" v="locality" />
		<tag k="ssr:stedsnr" v="310666" />
	</node>
	<node id="-176977" lat="60.6831222233" lon="7.99934722212">
		<tag k="name" v="Snehallene" />
		<tag k="natural" v="slope" />
		<tag k="place" v="locality" />
		<tag k="ssr:stedsnr" v="177764" />
	</node>
	<node id="-176976" lat="60.6255694474" lon="8.34715832874">
		<tag k="name" v="Løkjestøllie" />
		<tag k="natural" v="slope" />
		<tag k="place" v="locality" />
		<tag k="ssr:stedsnr" v="177653" />
	</node>
	<node id="-176975" lat="60.5228777814" lon="8.16503055252">
		<tag k="name" v="Steinhaugen" />
		<tag k="natural" v="hill" />
		<tag k="place" v="locality" />
		<tag k="ssr:stedsnr" v="177603" />
	</node>
	<node id="-176974" lat="60.638883333" lon="8.34694166062">
		<tag k="name" v="Belvafet" />
		<tag k="place" v="locality" />
		<tag k="ssr:stedsnr" v="177014" />
	</node>
	<node id="-176967" lat="60.7220638901" lon="7.70646945022">
		<tag k="alt_name" v="Urdvassbotn;Urvassbotn" />
		<tag k="loc_name" v="Urdevassbotn" />
		<tag k="name" v="Urevassbotn" />
		<tag k="natural" v="valley" />
		<tag k="old_name" v="Ulevasbotten;Ulevasbotn" />
		<tag k="place" v="locality" />
		<tag k="ssr:stedsnr" v="174238" />
	</node>
	<node id="-176964" lat="60.4781416643" lon="8.0582972181">
		<tag k="name" v="Karihovda" />
		<tag k="natural" v="hill" />
		<tag k="place" v="locality" />
		<tag k="ssr:stedsnr" v="163809" />
	</node>
	<node id="-176963" lat="60.6046000003" lon="8.31417778275">
		<tag k="name" v="Grønlie" />
		<tag k="natural" v="slope" />
		<tag k="place" v="locality" />
		<tag k="ssr:stedsnr" v="163673" />
	</node>
	<node id="-176960" lat="60.6164333353" lon="8.40034166961">
		<tag k="name" v="Brendhaug" />
		<tag k="natural" v="hill" />
		<tag k="place" v="locality" />
		<tag k="ssr:stedsnr" v="163532" />
	</node>
	<node id="-176959" lat="60.6675166636" lon="7.80045277174">
		<tag k="name" v="Sleaskaret" />
		<tag k="natural" v="valley" />
		<tag k="place" v="locality" />
		<tag k="ssr:stedsnr" v="163510" />
	</node>
	<node id="-176947" lat="60.5303111074" lon="8.12015832635">
		<tag k="name" v="Grasjuve" />
		<tag k="natural" v="gorge" />
		<tag k="ssr:stedsnr" v="161117" />
	</node>
	<node id="-176222" lat="60.6916750004" lon="7.62707500183">
		<tag k="name" v="Kittilsbuflaten" />
		<tag k="place" v="locality" />
		<tag k="ssr:stedsnr" v="310201" />
	</node>
	<node id="-176944" lat="60.3981694473" lon="8.02335833288">
		<tag k="fixme" v="consider natural=peak for the most distinct mountains in the district" />
		<tag k="name" v="Kortenuten" />
		<tag k="natural" v="hill" />
		<tag k="place" v="locality" />
		<tag k="ssr:stedsnr" v="141111" />
	</node>
	<node id="-176938" lat="60.8056916675" lon="7.88601665969">
		<tag k="name" v="Iungsdalen" />
		<tag k="natural" v="valley" />
		<tag k="place" v="locality" />
		<tag k="ssr:stedsnr" v="130667" />
	</node>
	<node id="-176937" lat="60.8140249986" lon="7.90883611695">
		<tag k="fixme" v="consider natural=peak for the most distinct mountains in the district" />
		<tag k="name" v="Iungsdalsnuten" />
		<tag k="natural" v="hill" />
		<tag k="place" v="locality" />
		<tag k="ssr:stedsnr" v="130653" />
	</node>
	<node id="-176935" lat="60.7850138894" lon="7.92800554693">
		<tag k="fixme" v="consider natural=peak for the most distinct mountains in the district" />
		<tag k="name" v="Grevskardnuten" />
		<tag k="natural" v="hill" />
		<tag k="place" v="locality" />
		<tag k="ssr:stedsnr" v="129731" />
	</node>
	<node id="-176923" lat="60.501619447" lon="7.93981943666">
		<tag k="name" v="Rundehaug" />
		<tag k="natural" v="hill" />
		<tag k="place" v="locality" />
		<tag k="ssr:stedsnr" v="128468" />
	</node>
	<node id="-176922" lat="60.5006861122" lon="7.84970832718">
		<tag k="name" v="Kvanneskardet" />
		<tag k="natural" v="valley" />
		<tag k="place" v="locality" />
		<tag k="ssr:stedsnr" v="128463" />
	</node>
	<node id="-176920" lat="60.5202861079" lon="8.00538611987">
		<tag k="alt_name" v="Rukenhovda" />
		<tag k="name" v="Rukehovda" />
		<tag k="natural" v="hill" />
		<tag k="place" v="locality" />
		<tag k="ssr:stedsnr" v="128451" />
	</node>
	<node id="-176919" lat="60.5272777811" lon="7.88537499531">
		<tag k="name" v="Kvasshovd" />
		<tag k="natural" v="hill" />
		<tag k="place" v="locality" />
		<tag k="ssr:stedsnr" v="128448" />
	</node>
	<node id="-176915" lat="60.6852583342" lon="7.99100554742">
		<tag k="name" v="Knutsgjerda" />
		<tag k="natural" v="hill" />
		<tag k="place" v="locality" />
		<tag k="ssr:stedsnr" v="128330" />
	</node>
	<node id="-176914" lat="60.716388885" lon="7.92516667048">
		<tag k="alt_name" v="Flishovd, søre;Flishovd" />
		<tag k="name" v="Søre Flishovd" />
		<tag k="natural" v="hill" />
		<tag k="place" v="locality" />
		<tag k="ssr:stedsnr" v="128325" />
	</node>
	<node id="-176913" lat="60.6593305588" lon="7.77669166158">
		<tag k="name" v="Resestølskuta" />
		<tag k="natural" v="hill" />
		<tag k="place" v="locality" />
		<tag k="ssr:stedsnr" v="128311" />
	</node>
	<node id="-176908" lat="60.6492111106" lon="7.98976666826">
		<tag k="name" v="Kvannebergbotnane" />
		<tag k="natural" v="valley" />
		<tag k="place" v="locality" />
		<tag k="ssr:stedsnr" v="128389" />
	</node>
	<node id="-176906" lat="60.5274055583" lon="7.82901110486">
		<tag k="fixme" v="consider natural=peak for the most distinct mountains in the district" />
		<tag k="name" v="Nygardsnuten" />
		<tag k="natural" v="hill" />
		<tag k="place" v="locality" />
		<tag k="ssr:stedsnr" v="128379" />
	</node>
	<node id="-176903" lat="60.5774694485" lon="8.00609999213">
		<tag k="fixme" v="consider natural=peak for the most distinct mountains in the district" />
		<tag k="loc_name" v="Myljonuten" />
		<tag k="name" v="Miljonuten" />
		<tag k="natural" v="hill" />
		<tag k="place" v="locality" />
		<tag k="ssr:stedsnr" v="128364" />
	</node>
	<node id="-176902" lat="60.5652527739" lon="8.05257222803">
		<tag k="name" v="Tjørnbotn" />
		<tag k="natural" v="valley" />
		<tag k="place" v="locality" />
		<tag k="ssr:stedsnr" v="128362" />
	</node>
	<node id="-176898" lat="60.6920500007" lon="7.68875277058">
		<tag k="fixme" v="consider natural=peak for the most distinct mountains in the district" />
		<tag k="loc_name" v="Såtegge" />
		<tag k="name" v="Såteggi" />
		<tag k="natural" v="hill" />
		<tag k="place" v="locality" />
		<tag k="ssr:stedsnr" v="128182" />
	</node>
	<node id="-176897" lat="60.648025001" lon="7.66695000105">
		<tag k="fixme" v="consider natural=peak for the most distinct mountains in the district" />
		<tag k="name" v="Simlenutane" />
		<tag k="natural" v="hill" />
		<tag k="place" v="locality" />
		<tag k="ssr:stedsnr" v="128168" />
	</node>
	<node id="-176255" lat="60.5092388922" lon="8.01250832593">
		<tag k="alt_name" v="Lortholhøgdi" />
		<tag k="name" v="Lorthølhøgde" />
		<tag k="natural" v="hill" />
		<tag k="place" v="locality" />
		<tag k="ssr:stedsnr" v="310503" />
	</node>
	<node id="-176883" lat="60.4465027748" lon="8.58437499316">
		<tag k="name" v="Kultedokki" />
		<tag k="natural" v="valley" />
		<tag k="place" v="locality" />
		<tag k="ssr:stedsnr" v="127069" />
	</node>
	<node id="-176876" lat="60.4583833359" lon="8.14032222157">
		<tag k="name" v="Storhovda" />
		<tag k="natural" v="hill" />
		<tag k="place" v="locality" />
		<tag k="ssr:stedsnr" v="126788" />
	</node>
	<node id="-176874" lat="60.395433333" lon="8.32424167212">
		<tag k="alt_name" v="Simonseternutan" />
		<tag k="fixme" v="consider natural=peak for the most distinct mountains in the district" />
		<tag k="name" v="Simonsæternutane" />
		<tag k="natural" v="hill" />
		<tag k="old_name" v="Simonseternutanne" />
		<tag k="place" v="locality" />
		<tag k="ssr:stedsnr" v="126150" />
	</node>
	<node id="-176873" lat="60.4166833298" lon="8.43134999277">
		<tag k="name" v="Åsbergberget" />
		<tag k="natural" v="hill" />
		<tag k="place" v="locality" />
		<tag k="ssr:stedsnr" v="126165" />
	</node>
	<node id="-176869" lat="60.4175388858" lon="8.37166667405">
		<tag k="name" v="Grotdalen" />
		<tag k="natural" v="valley" />
		<tag k="place" v="locality" />
		<tag k="ssr:stedsnr" v="126127" />
	</node>
	<node id="-176867" lat="60.4303333302" lon="8.3331444439">
		<tag k="name" v="Glitreberget" />
		<tag k="natural" v="hill" />
		<tag k="place" v="locality" />
		<tag k="ssr:stedsnr" v="126123" />
	</node>
	<node id="-176866" lat="60.4202777809" lon="8.43782500524">
		<tag k="name" v="Storhovda" />
		<tag k="natural" v="hill" />
		<tag k="place" v="locality" />
		<tag k="ssr:stedsnr" v="126121" />
	</node>
	<node id="-176857" lat="60.4986361094" lon="8.10965834195">
		<tag k="name" v="Bekreholtnuten" />
		<tag k="natural" v="hill" />
		<tag k="place" v="locality" />
		<tag k="ssr:stedsnr" v="119823" />
	</node>
	<node id="-176853" lat="60.6992722208" lon="8.14719721785">
		<tag k="name" v="Djupskaret" />
		<tag k="natural" v="valley" />
		<tag k="place" v="locality" />
		<tag k="ssr:stedsnr" v="119494" />
	</node>
	<node id="-176852" lat="60.4044555536" lon="8.39508055444">
		<tag k="fixme" v="consider natural=peak for the most distinct mountains in the district" />
		<tag k="name" v="Heimåsen" />
		<tag k="natural" v="hill" />
		<tag k="place" v="locality" />
		<tag k="ssr:stedsnr" v="119420" />
	</node>
	<node id="-176847" lat="60.5134972233" lon="8.29308333699">
		<tag k="name" v="Lomrehøgde" />
		<tag k="natural" v="hill" />
		<tag k="place" v="locality" />
		<tag k="ssr:stedsnr" v="118657" />
	</node>
	<node id="-176829" lat="60.5315055528" lon="8.0816194405">
		<tag k="alt_name" v="Fossebrekkhallidn;Fossebrekkhallane" />
		<tag k="name" v="Fossebrekkhallin" />
		<tag k="natural" v="slope" />
		<tag k="place" v="locality" />
		<tag k="ssr:stedsnr" v="113381" />
	</node>
	<node id="-176826" lat="60.590705554" lon="8.20172499273">
		<tag k="name" v="Skaret" />
		<tag k="natural" v="valley" />
		<tag k="place" v="locality" />
		<tag k="ssr:stedsnr" v="102998" />
	</node>
	<node id="-176822" lat="60.4819694402" lon="8.06340832711">
		<tag k="name" v="Ustaberglie" />
		<tag k="natural" v="slope" />
		<tag k="place" v="locality" />
		<tag k="ssr:stedsnr" v="102828" />
	</node>
	<node id="-176820" lat="60.4244888852" lon="8.45566111116">
		<tag k="name" v="Gnellarhøvda" />
		<tag k="natural" v="hill" />
		<tag k="place" v="locality" />
		<tag k="ssr:stedsnr" v="102639" />
	</node>
	<node id="-176817" lat="60.6878916643" lon="8.08522500385">
		<tag k="name" v="Veslebølhovd" />
		<tag k="natural" v="hill" />
		<tag k="place" v="locality" />
		<tag k="ssr:stedsnr" v="102461" />
	</node>
	<node id="-176808" lat="60.5098972248" lon="7.98072777305">
		<tag k="name" v="Veslestølhalle" />
		<tag k="natural" v="slope" />
		<tag k="place" v="locality" />
		<tag k="ssr:stedsnr" v="100894" />
	</node>
	<node id="-176807" lat="60.5061944464" lon="8.11201666501">
		<tag k="name" v="Hytteliane" />
		<tag k="natural" v="slope" />
		<tag k="place" v="locality" />
		<tag k="ssr:stedsnr" v="100790" />
	</node>
	<node id="-176806" lat="60.5093638864" lon="8.11495278372">
		<tag k="name" v="Klinkenberg" />
		<tag k="natural" v="hill" />
		<tag k="place" v="locality" />
		<tag k="ssr:stedsnr" v="100786" />
	</node>
	<node id="-176801" lat="60.7182999997" lon="7.74335278449">
		<tag k="name" v="Sleaskaret" />
		<tag k="natural" v="valley" />
		<tag k="place" v="locality" />
		<tag k="ssr:stedsnr" v="100263" />
	</node>
	<node id="-176792" lat="60.8114777772" lon="7.81915000673">
		<tag k="name" v="Skardet" />
		<tag k="natural" v="valley" />
		<tag k="place" v="locality" />
		<tag k="ssr:stedsnr" v="69721" />
	</node>
	<node id="-176791" lat="60.8088555585" lon="7.86394167154">
		<tag k="name" v="Vadbotn" />
		<tag k="natural" v="valley" />
		<tag k="place" v="locality" />
		<tag k="ssr:stedsnr" v="69722" />
	</node>
	<node id="-176790" lat="60.8537749976" lon="7.78060278637">
		<tag k="alt_name" v="Øljunuten, vesle" />
		<tag k="fixme" v="consider natural=peak for the most distinct mountains in the district" />
		<tag k="name" v="Vesle Øljunuten" />
		<tag k="natural" v="hill" />
		<tag k="place" v="locality" />
		<tag k="ssr:stedsnr" v="69694" />
	</node>
	<node id="-176788" lat="60.7573527737" lon="7.72932777641">
		<tag k="fixme" v="consider natural=peak for the most distinct mountains in the district" />
		<tag k="name" v="Langvasseggi" />
		<tag k="natural" v="hill" />
		<tag k="place" v="locality" />
		<tag k="ssr:stedsnr" v="69579" />
	</node>
	<node id="-176787" lat="60.5484277759" lon="7.77913055524">
		<tag k="fixme" v="consider natural=peak for the most distinct mountains in the district" />
		<tag k="name" v="Vesletunga" />
		<tag k="natural" v="hill" />
		<tag k="place" v="locality" />
		<tag k="ssr:stedsnr" v="68882" />
	</node>
	<node id="-176786" lat="60.5074722238" lon="8.19036944413">
		<tag k="fixme" v="consider natural=peak for the most distinct mountains in the district" />
		<tag k="loc_name" v="Okla" />
		<tag k="name" v="Økle" />
		<tag k="natural" v="hill" />
		<tag k="place" v="locality" />
		<tag k="ssr:stedsnr" v="68792" />
	</node>
	<node id="-176777" lat="60.5891611087" lon="8.31005000668">
		<tag k="name" v="Storeberg" />
		<tag k="natural" v="hill" />
		<tag k="place" v="locality" />
		<tag k="ssr:stedsnr" v="68682" />
	</node>
	<node id="-176773" lat="60.6696833359" lon="8.19596387974">
		<tag k="fixme" v="consider natural=peak for the most distinct mountains in the district" />
		<tag k="name" v="Hæe" />
		<tag k="natural" v="hill" />
		<tag k="place" v="locality" />
		<tag k="ssr:stedsnr" v="68600" />
	</node>
	<node id="-176772" lat="60.6622416642" lon="8.09603332587">
		<tag k="name" v="Langeberget" />
		<tag k="natural" v="hill" />
		<tag k="place" v="locality" />
		<tag k="ssr:stedsnr" v="68596" />
	</node>
	<node id="-176770" lat="60.6370272356" lon="8.11733987903">
		<tag k="alt_name" v="Øvre Skarnuten" />
		<tag k="fixme" v="consider natural=peak for the most distinct mountains in the district" />
		<tag k="name" v="Skardnuten" />
		<tag k="natural" v="hill" />
		<tag k="place" v="locality" />
		<tag k="ssr:stedsnr" v="68580" />
	</node>
	<node id="-176769" lat="60.5197555554" lon="7.83386110995">
		<tag k="name" v="Beinstigranden" />
		<tag k="natural" v="hill" />
		<tag k="place" v="locality" />
		<tag k="ssr:stedsnr" v="68490" />
	</node>
	<node id="-176768" lat="60.5364861082" lon="7.82192500441">
		<tag k="fixme" v="consider natural=peak for the most distinct mountains in the district" />
		<tag k="name" v="Slåttehallnuten" />
		<tag k="natural" v="hill" />
		<tag k="place" v="locality" />
		<tag k="ssr:stedsnr" v="68416" />
	</node>
	<node id="-176766" lat="60.5892416683" lon="7.93105278073">
		<tag k="loc_name" v="Storekvelve" />
		<tag k="name" v="Storekvelvi" />
		<tag k="natural" v="valley" />
		<tag k="old_name" v="Store Qvelv" />
		<tag k="place" v="locality" />
		<tag k="ssr:stedsnr" v="68402" />
	</node>
	<node id="-176760" lat="60.6639611108" lon="7.79145000712">
		<tag k="name" v="Sledaskardnuten" />
		<tag k="natural" v="hill" />
		<tag k="place" v="locality" />
		<tag k="ssr:stedsnr" v="68320" />
	</node>
	<node id="-176756" lat="60.6015916689" lon="8.17718610294">
		<tag k="fixme" v="consider natural=peak for the most distinct mountains in the district" />
		<tag k="name" v="Storhovda" />
		<tag k="natural" v="hill" />
		<tag k="place" v="locality" />
		<tag k="ssr:stedsnr" v="68649" />
	</node>
	<node id="-176232" lat="60.6689638855" lon="7.79655000492">
		<tag k="name" v="Sledaskardet" />
		<tag k="natural" v="valley" />
		<tag k="place" v="locality" />
		<tag k="ssr:stedsnr" v="310318" />
	</node>
	<node id="-176749" lat="60.5842083301" lon="8.16161944374">
		<tag k="fixme" v="consider natural=peak for the most distinct mountains in the district" />
		<tag k="name" v="Budalshøgdin" />
		<tag k="natural" v="hill" />
		<tag k="place" v="locality" />
		<tag k="ssr:stedsnr" v="67711" />
	</node>
	<node id="-176746" lat="60.5776583371" lon="8.3293472157">
		<tag k="fixme" v="consider natural=peak for the most distinct mountains in the district" />
		<tag k="name" v="Urshovdnatten" />
		<tag k="natural" v="hill" />
		<tag k="place" v="locality" />
		<tag k="ssr:stedsnr" v="67704" />
	</node>
	<node id="-176742" lat="60.6100499993" lon="7.92668889196">
		<tag k="name" v="Skåki" />
		<tag k="natural" v="hill" />
		<tag k="place" v="locality" />
		<tag k="ssr:stedsnr" v="67455" />
	</node>
	<node id="-176738" lat="60.6563999962" lon="8.05256666736">
		<tag k="name" v="Leineberget" />
		<tag k="natural" v="hill" />
		<tag k="place" v="locality" />
		<tag k="ssr:stedsnr" v="67355" />
	</node>
	<node id="-176737" lat="60.7296528792" lon="7.97366234712">
		<tag k="alt_name" v="Økle;Oksli" />
		<tag k="fixme" v="consider natural=peak for the most distinct mountains in the district" />
		<tag k="name" v="Økli" />
		<tag k="natural" v="hill" />
		<tag k="place" v="locality" />
		<tag k="ssr:stedsnr" v="67304" />
	</node>
	<node id="-176735" lat="60.720963885" lon="7.86800556363">
		<tag k="alt_name" v="Flishovd, nordre" />
		<tag k="fixme" v="consider natural=peak for the most distinct mountains in the district" />
		<tag k="name" v="Nørdre Flishovd" />
		<tag k="natural" v="hill" />
		<tag k="place" v="locality" />
		<tag k="ssr:stedsnr" v="67296" />
	</node>
	<node id="-176730" lat="60.4837499962" lon="8.45996110768">
		<tag k="alt_name" v="Halldalsøksle" />
		<tag k="fixme" v="consider natural=peak for the most distinct mountains in the district" />
		<tag k="name" v="Halldalsoksli" />
		<tag k="natural" v="hill" />
		<tag k="place" v="locality" />
		<tag k="ssr:stedsnr" v="67104" />
	</node>
	<node id="-176728" lat="60.4496972193" lon="7.97384721569">
		<tag k="name" v="Berhellerbotn" />
		<tag k="natural" v="valley" />
		<tag k="place" v="locality" />
		<tag k="ssr:stedsnr" v="66930" />
	</node>
	<node id="-176725" lat="60.367272225" lon="8.04672500065">
		<tag k="fixme" v="consider natural=peak for the most distinct mountains in the district" />
		<tag k="name" v="Situnuten" />
		<tag k="natural" v="hill" />
		<tag k="place" v="locality" />
		<tag k="ssr:stedsnr" v="66783" />
	</node>
	<node id="-176723" lat="60.3811277805" lon="8.14448054751">
		<tag k="fixme" v="consider natural=peak for the most distinct mountains in the district" />
		<tag k="name" v="Urdelinatten" />
		<tag k="natural" v="hill" />
		<tag k="place" v="locality" />
		<tag k="ssr:stedsnr" v="66197" />
	</node>
	<node id="-176718" lat="60.488625001" lon="7.93005556446">
		<tag k="fixme" v="consider natural=peak for the most distinct mountains in the district" />
		<tag k="name" v="Lauvvikfjellet" />
		<tag k="natural" v="hill" />
		<tag k="place" v="locality" />
		<tag k="ssr:stedsnr" v="66982" />
	</node>
	<node id="-176707" lat="60.6245027818" lon="8.15957221573">
		<tag k="name" v="Årebakkhaugane" />
		<tag k="natural" v="hill" />
		<tag k="place" v="locality" />
		<tag k="ssr:stedsnr" v="59944" />
	</node>
	<node id="-176702" lat="60.6625777765" lon="8.28368888583">
		<tag k="name" v="Varaldsetjuvet" />
		<tag k="natural" v="gorge" />
		<tag k="ssr:stedsnr" v="59685" />
	</node>
	<node id="-176692" lat="60.6181305532" lon="8.25191388688">
		<tag k="name" v="Vikabergi" />
		<tag k="natural" v="cliff" />
		<tag k="ssr:stedsnr" v="58989" />
	</node>
	<node id="-176691" lat="60.5581722234" lon="8.33761110883">
		<tag k="name" v="Geitekyrkja" />
		<tag k="natural" v="valley" />
		<tag k="place" v="locality" />
		<tag k="ssr:stedsnr" v="57842" />
	</node>
	<node id="-176690" lat="60.5363138924" lon="8.34051667341">
		<tag k="name" v="Halfarhovda" />
		<tag k="natural" v="hill" />
		<tag k="place" v="locality" />
		<tag k="ssr:stedsnr" v="57702" />
	</node>
	<node id="-176688" lat="60.6137777767" lon="8.34160556359">
		<tag k="name" v="Skarsethaugen" />
		<tag k="natural" v="hill" />
		<tag k="place" v="locality" />
		<tag k="ssr:stedsnr" v="56889" />
	</node>
	<node id="-176682" lat="60.5184611097" lon="8.15357778426">
		<tag k="name" v="Gullsteinhaugane" />
		<tag k="natural" v="hill" />
		<tag k="place" v="locality" />
		<tag k="ssr:stedsnr" v="55612" />
	</node>
	<node id="-176659" lat="60.5073305592" lon="8.06671945158">
		<tag k="name" v="Høgehaug" />
		<tag k="natural" v="hill" />
		<tag k="place" v="locality" />
		<tag k="ssr:stedsnr" v="39164" />
	</node>
	<node id="-176656" lat="60.4367611125" lon="8.23330277225">
		<tag k="fixme" v="consider natural=peak for the most distinct mountains in the district" />
		<tag k="name" v="Femvardanuten" />
		<tag k="natural" v="hill" />
		<tag k="place" v="locality" />
		<tag k="ssr:stedsnr" v="20104" />
	</node>
	<node id="-176655" lat="60.4491444483" lon="8.20460000378">
		<tag k="fixme" v="consider natural=peak for the most distinct mountains in the district" />
		<tag k="name" v="Åmotstølnatten" />
		<tag k="natural" v="hill" />
		<tag k="place" v="locality" />
		<tag k="ssr:stedsnr" v="20090" />
	</node>
	<node id="-176652" lat="60.8665583378" lon="7.77502500676">
		<tag k="name" v="Flågrunnsvarden" />
		<tag k="place" v="locality" />
		<tag k="ssr:stedsnr" v="8673" />
	</node>
	<node id="-176651" lat="60.7510777735" lon="7.95113611937">
		<tag k="fixme" v="consider natural=peak for the most distinct mountains in the district" />
		<tag k="name" v="Flishovda" />
		<tag k="natural" v="hill" />
		<tag k="place" v="locality" />
		<tag k="ssr:stedsnr" v="8556" />
	</node>
	<node id="-176645" lat="60.5256222242" lon="8.25895000003">
		<tag k="fixme" v="consider natural=peak for the most distinct mountains in the district" />
		<tag k="name" v="Jonstølhovda" />
		<tag k="natural" v="hill" />
		<tag k="place" v="locality" />
		<tag k="ssr:stedsnr" v="7740" />
	</node>
	<node id="-176639" lat="60.5899111111" lon="8.19378611577">
		<tag k="name" v="Vedalshøgde" />
		<tag k="natural" v="hill" />
		<tag k="place" v="locality" />
		<tag k="ssr:stedsnr" v="7645" />
	</node>
	<node id="-176637" lat="60.6206690395" lon="8.07184919681">
		<tag k="name" v="Skardsetlie" />
		<tag k="natural" v="slope" />
		<tag k="place" v="locality" />
		<tag k="ssr:stedsnr" v="7625" />
	</node>
	<node id="-176630" lat="60.6345722185" lon="8.01885833861">
		<tag k="alt_name" v="Nonstølnattane" />
		<tag k="name" v="Nonsstølnattane" />
		<tag k="natural" v="hill" />
		<tag k="place" v="locality" />
		<tag k="ssr:stedsnr" v="7426" />
	</node>
	<node id="-176623" lat="60.6722611121" lon="8.08846110713">
		<tag k="fixme" v="consider natural=peak for the most distinct mountains in the district" />
		<tag k="name" v="Dugurdshovda" />
		<tag k="natural" v="hill" />
		<tag k="place" v="locality" />
		<tag k="ssr:stedsnr" v="7338" />
	</node>
	<node id="-176616" lat="60.7046749989" lon="7.64099999455">
		<tag k="name" v="Vierbotn" />
		<tag k="natural" v="valley" />
		<tag k="place" v="locality" />
		<tag k="ssr:stedsnr" v="7217" />
	</node>
	<node id="-176614" lat="60.668025002" lon="7.70920000171">
		<tag k="name" v="Ynglesflaten" />
		<tag k="place" v="locality" />
		<tag k="ssr:stedsnr" v="7191" />
	</node>
	<node id="-176611" lat="60.5786166683" lon="8.10393332722">
		<tag k="alt_name" v="Store - Budalen" />
		<tag k="name" v="Store Budalen" />
		<tag k="natural" v="valley" />
		<tag k="place" v="locality" />
		<tag k="ssr:stedsnr" v="6718" />
	</node>
	<node id="-176609" lat="60.635630552" lon="8.132022215">
		<tag k="name" v="Gjerdeberget" />
		<tag k="natural" v="hill" />
		<tag k="place" v="locality" />
		<tag k="ssr:stedsnr" v="6636" />
	</node>
	<node id="-176608" lat="60.6357750035" lon="8.30934722674">
		<tag k="name" v="Øystlihovda" />
		<tag k="natural" v="hill" />
		<tag k="old_name" v="Øslihøvden" />
		<tag k="place" v="locality" />
		<tag k="ssr:stedsnr" v="6633" />
	</node>
	<node id="-176605" lat="60.4090749964" lon="8.55850834181">
		<tag k="name" v="Raunehallin" />
		<tag k="natural" v="slope" />
		<tag k="place" v="locality" />
		<tag k="ssr:stedsnr" v="6113" />
	</node>
	<node id="-176603" lat="60.4466749968" lon="8.47788054845">
		<tag k="alt_name" v="Uværshøvda" />
		<tag k="name" v="Uvershovda" />
		<tag k="natural" v="hill" />
		<tag k="place" v="locality" />
		<tag k="ssr:stedsnr" v="6067" />
	</node>
	<node id="-176602" lat="60.4693750044" lon="7.82110000092">
		<tag k="name" v="Veahovda" />
		<tag k="natural" v="hill" />
		<tag k="place" v="locality" />
		<tag k="ssr:stedsnr" v="5992" />
	</node>
	<node id="-176599" lat="60.4088222264" lon="8.04855277463">
		<tag k="fixme" v="consider natural=peak for the most distinct mountains in the district" />
		<tag k="name" v="Bjordalshøgdin" />
		<tag k="natural" v="hill" />
		<tag k="place" v="locality" />
		<tag k="ssr:stedsnr" v="5949" />
	</node>
	<node id="-176595" lat="60.4458999969" lon="7.98260278264">
		<tag k="name" v="Berhellernuten" />
		<tag k="natural" v="hill" />
		<tag k="place" v="locality" />
		<tag k="ssr:stedsnr" v="5939" />
	</node>
	<node id="-176591" lat="60.374858335" lon="8.12921111115">
		<tag k="fixme" v="consider natural=peak for the most distinct mountains in the district" />
		<tag k="name" v="Hårånatten" />
		<tag k="natural" v="hill" />
		<tag k="place" v="locality" />
		<tag k="ssr:stedsnr" v="5220" />
	</node>
	<node id="-176589" lat="60.3624027816" lon="8.20957776996">
		<tag k="name" v="Bekktind" />
		<tag k="natural" v="hill" />
		<tag k="place" v="locality" />
		<tag k="ssr:stedsnr" v="5196" />
	</node>
	<node id="-176587" lat="60.4045083308" lon="8.32924444652">
		<tag k="alt_name" v="Seterdalen" />
		<tag k="name" v="Sæterdalen" />
		<tag k="natural" v="valley" />
		<tag k="place" v="locality" />
		<tag k="ssr:stedsnr" v="5186" />
	</node>
	<node id="-176586" lat="60.4036527803" lon="8.40418610766">
		<tag k="name" v="Hallberget" />
		<tag k="natural" v="hill" />
		<tag k="place" v="locality" />
		<tag k="ssr:stedsnr" v="5156" />
	</node>
	<node id="-176583" lat="60.4575527804" lon="8.24910277986">
		<tag k="fixme" v="consider natural=peak for the most distinct mountains in the district" />
		<tag k="name" v="Dagalihovda" />
		<tag k="natural" v="hill" />
		<tag k="place" v="locality" />
		<tag k="ssr:stedsnr" v="5145" />
	</node>
	<node id="-176202" lat="60.3907111068" lon="8.18360000581">
		<tag k="fixme" v="consider natural=peak for the most distinct mountains in the district" />
		<tag k="name" v="Dritarsteinranden" />
		<tag k="natural" v="hill" />
		<tag k="place" v="locality" />
		<tag k="ssr:stedsnr" v="308144" />
	</node>
	<node id="-176198" lat="60.4347194484" lon="8.20320832583">
		<tag k="name" v="Løkjehøgdi" />
		<tag k="natural" v="hill" />
		<tag k="place" v="locality" />
		<tag k="ssr:stedsnr" v="308125" />
	</node>
	<node id="-178585" lat="60.4790305586" lon="8.10513611959">
		<tag k="name" v="Grønebakken" />
		<tag k="natural" v="slope" />
		<tag k="place" v="locality" />
		<tag k="ssr:stedsnr" v="969790" />
	</node>
	<node id="-178584" lat="60.4990999982" lon="8.12553610819">
		<tag k="name" v="Biskolanuten" />
		<tag k="natural" v="hill" />
		<tag k="place" v="locality" />
		<tag k="ssr:stedsnr" v="969787" />
	</node>
	<node id="-176537" lat="60.0989499998" lon="7.48798333971">
		<tag k="name" v="Hardangervidda" />
		<tag k="natural" v="plateau" />
		<tag k="ssr:stedsnr" v="85109" />
	</node>
	<node id="-176529" lat="60.6077833348" lon="8.39929722352">
		<tag k="fixme" v="consider natural=peak for the most distinct mountains in the district" />
		<tag k="loc_name" v="Skarhovdun" />
		<tag k="name" v="Skarhovdune" />
		<tag k="natural" v="hill" />
		<tag k="place" v="locality" />
		<tag k="ssr:stedsnr" v="413824" />
	</node>
	<node id="-178569" lat="60.6061972179" lon="8.35195000231">
		<tag k="name" v="Moltemyrskaret" />
		<tag k="natural" v="valley" />
		<tag k="place" v="locality" />
		<tag k="ssr:stedsnr" v="965976" />
	</node>
	<node id="-178564" lat="60.505422222" lon="7.95220834037">
		<tag k="name" v="Søre Kjersundlien" />
		<tag k="natural" v="slope" />
		<tag k="place" v="locality" />
		<tag k="ssr:stedsnr" v="965637" />
	</node>
	<node id="-178562" lat="60.5494944479" lon="8.20197500674">
		<tag k="name" v="Moseranden" />
		<tag k="natural" v="ridge" />
		<tag k="place" v="locality" />
		<tag k="ssr:stedsnr" v="965342" />
	</node>
	<node id="-178555" lat="60.5912555552" lon="8.2110972171">
		<tag k="name" v="Veneleine" />
		<tag k="natural" v="slope" />
		<tag k="place" v="locality" />
		<tag k="ssr:stedsnr" v="952998" />
	</node>
	<node id="-178551" lat="60.6271916687" lon="8.29176667512">
		<tag k="name" v="Kvannolhovda" />
		<tag k="natural" v="hill" />
		<tag k="place" v="locality" />
		<tag k="ssr:stedsnr" v="952404" />
	</node>
	<node id="-176499" lat="60.5128361088" lon="7.97990556152">
		<tag k="name" v="Veslenuten" />
		<tag k="natural" v="hill" />
		<tag k="place" v="locality" />
		<tag k="ssr:stedsnr" v="889911" />
	</node>
	<node id="-176494" lat="60.5806416681" lon="8.19005832985">
		<tag k="name" v="Nystølen" />
		<tag k="natural" v="valley" />
		<tag k="place" v="locality" />
		<tag k="ssr:stedsnr" v="479177" />
	</node>
	<node id="-176493" lat="60.561336114" lon="8.15940555021">
		<tag k="name" v="Krokhaugane" />
		<tag k="natural" v="ridge" />
		<tag k="place" v="locality" />
		<tag k="ssr:stedsnr" v="479135" />
	</node>
	<node id="-176492" lat="60.5545138909" lon="8.16817222397">
		<tag k="name" v="Økle" />
		<tag k="natural" v="hill" />
		<tag k="place" v="locality" />
		<tag k="ssr:stedsnr" v="479133" />
	</node>
	<node id="-178539" lat="60.6045611115" lon="8.33298888551">
		<tag k="name" v="Svenskebergi" />
		<tag k="natural" v="hill" />
		<tag k="place" v="locality" />
		<tag k="ssr:stedsnr" v="950803" />
	</node>
	<node id="-178537" lat="60.4817444469" lon="8.07393055499">
		<tag k="name" v="Rundehovda" />
		<tag k="natural" v="hill" />
		<tag k="place" v="locality" />
		<tag k="ssr:stedsnr" v="950790" />
	</node>
	<node id="-178528" lat="60.4703499971" lon="8.06128611095">
		<tag k="fixme" v="consider natural=peak for the most distinct mountains in the district" />
		<tag k="name" v="Storhovda" />
		<tag k="natural" v="hill" />
		<tag k="place" v="locality" />
		<tag k="ssr:stedsnr" v="931033" />
	</node>
	<node id="-178525" lat="60.8184833343" lon="7.79706110873">
		<tag k="name" v="Saupsengene" />
		<tag k="natural" v="slope" />
		<tag k="place" v="locality" />
		<tag k="ssr:stedsnr" v="919723" />
	</node>
	<node id="-178522" lat="60.8447499997" lon="7.835452779">
		<tag k="fixme" v="consider natural=peak for the most distinct mountains in the district" />
		<tag k="name" v="Galdebrea" />
		<tag k="natural" v="hill" />
		<tag k="place" v="locality" />
		<tag k="ssr:stedsnr" v="918789" />
	</node>
	<node id="-178521" lat="60.7802000003" lon="7.85777500325">
		<tag k="fixme" v="consider natural=peak for the most distinct mountains in the district" />
		<tag k="name" v="Skorpa" />
		<tag k="natural" v="hill" />
		<tag k="place" v="locality" />
		<tag k="ssr:stedsnr" v="918781" />
	</node>
	<node id="-178520" lat="60.7940916637" lon="7.95877499772">
		<tag k="fixme" v="consider natural=peak for the most distinct mountains in the district" />
		<tag k="name" v="Stolsnuten" />
		<tag k="natural" v="hill" />
		<tag k="place" v="locality" />
		<tag k="ssr:stedsnr" v="918777" />
	</node>
	<node id="-176470" lat="60.6051805522" lon="8.33140555054">
		<tag k="name" v="Bergahølu" />
		<tag k="natural" v="valley" />
		<tag k="place" v="locality" />
		<tag k="ssr:stedsnr" v="404808" />
	</node>
	<node id="-176469" lat="60.4189999974" lon="8.34331111237">
		<tag k="name" v="Høvdoberget" />
		<tag k="natural" v="hill" />
		<tag k="place" v="locality" />
		<tag k="ssr:stedsnr" v="404508" />
	</node>
	<node id="-178516" lat="60.5484027813" lon="8.1659583266">
		<tag k="fixme" v="consider natural=peak for the most distinct mountains in the district" />
		<tag k="name" v="Knippen" />
		<tag k="natural" v="hill" />
		<tag k="place" v="locality" />
		<tag k="ssr:stedsnr" v="917739" />
	</node>
	<node id="-178513" lat="60.578377774" lon="8.20927499786">
		<tag k="name" v="Ørneberg" />
		<tag k="natural" v="hill" />
		<tag k="place" v="locality" />
		<tag k="ssr:stedsnr" v="917689" />
	</node>
	<node id="-178512" lat="60.5661138845" lon="8.16135833733">
		<tag k="fixme" v="consider natural=peak for the most distinct mountains in the district" />
		<tag k="name" v="Holkan" />
		<tag k="natural" v="hill" />
		<tag k="place" v="locality" />
		<tag k="ssr:stedsnr" v="917680" />
	</node>
	<node id="-176460" lat="60.4151250031" lon="8.12730277896">
		<tag k="name" v="Dugurdsnuten" />
		<tag k="natural" v="hill" />
		<tag k="place" v="locality" />
		<tag k="ssr:stedsnr" v="384132" />
	</node>
	<node id="-178507" lat="60.601575001" lon="8.42037500057">
		<tag k="fixme" v="consider natural=peak for the most distinct mountains in the district" />
		<tag k="name" v="Kvannehovda" />
		<tag k="natural" v="hill" />
		<tag k="place" v="locality" />
		<tag k="ssr:stedsnr" v="917634" />
	</node>
	<node id="-176457" lat="60.4809194456" lon="8.03290833411">
		<tag k="fixme" v="consider natural=peak for the most distinct mountains in the district" />
		<tag k="name" v="Meinsethovda" />
		<tag k="natural" v="hill" />
		<tag k="place" v="locality" />
		<tag k="ssr:stedsnr" v="384038" />
	</node>
	<node id="-178504" lat="60.6213999988" lon="8.24732500121">
		<tag k="alt_name" v="Eidsbergi" />
		<tag k="name" v="Eidsberget" />
		<tag k="natural" v="hill" />
		<tag k="place" v="locality" />
		<tag k="ssr:stedsnr" v="917613" />
	</node>
	<node id="-178498" lat="60.662102774" lon="8.11572221481">
		<tag k="name" v="Randehøgde" />
		<tag k="natural" v="hill" />
		<tag k="place" v="locality" />
		<tag k="ssr:stedsnr" v="917570" />
	</node>
	<node id="-178496" lat="60.6573555581" lon="8.30844444373">
		<tag k="alt_name" v="Vasslie" />
		<tag k="loc_name" v="Vatslie" />
		<tag k="name" v="Vasslii" />
		<tag k="natural" v="slope" />
		<tag k="place" v="locality" />
		<tag k="ssr:stedsnr" v="917563" />
	</node>
	<node id="-178494" lat="60.6815638857" lon="8.10393055049">
		<tag k="fixme" v="consider natural=peak for the most distinct mountains in the district" />
		<tag k="name" v="Birgitstølhovda" />
		<tag k="natural" v="hill" />
		<tag k="place" v="locality" />
		<tag k="ssr:stedsnr" v="917528" />
	</node>
	<node id="-176445" lat="60.5463000045" lon="8.30396111839">
		<tag k="fixme" v="consider natural=peak for the most distinct mountains in the district" />
		<tag k="name" v="Randan" />
		<tag k="natural" v="hill" />
		<tag k="place" v="locality" />
		<tag k="ssr:stedsnr" v="371742" />
	</node>
	<node id="-176443" lat="60.55446667" lon="8.38540556131">
		<tag k="fixme" v="consider natural=peak for the most distinct mountains in the district" />
		<tag k="name" v="Bjørkehovda" />
		<tag k="natural" v="hill" />
		<tag k="place" v="locality" />
		<tag k="ssr:stedsnr" v="371731" />
	</node>
	<node id="-176180" lat="60.6819472257" lon="7.96082777245">
		<tag k="name" v="Kvannurreset" />
		<tag k="natural" v="slope" />
		<tag k="place" v="locality" />
		<tag k="ssr:stedsnr" v="298658" />
	</node>
	<node id="-178486" lat="60.6007638883" lon="8.07928888422">
		<tag k="name" v="Storedalen" />
		<tag k="natural" v="valley" />
		<tag k="place" v="locality" />
		<tag k="ssr:stedsnr" v="917360" />
	</node>
	<node id="-178485" lat="60.5868777773" lon="7.9768527738">
		<tag k="name" v="Veslekvelvi" />
		<tag k="natural" v="valley" />
		<tag k="old_name" v="Vesle Qvelve" />
		<tag k="place" v="locality" />
		<tag k="ssr:stedsnr" v="917354" />
	</node>
	<node id="-178484" lat="60.6913833367" lon="7.92149165765">
		<tag k="fixme" v="consider natural=peak for the most distinct mountains in the district" />
		<tag k="name" v="Leinefjellet" />
		<tag k="natural" v="hill" />
		<tag k="place" v="locality" />
		<tag k="ssr:stedsnr" v="917351" />
	</node>
	<node id="-178483" lat="60.6772027786" lon="7.82696110441">
		<tag k="name" v="Storhovda" />
		<tag k="natural" v="hill" />
		<tag k="place" v="locality" />
		<tag k="ssr:stedsnr" v="917346" />
	</node>
	<node id="-178482" lat="60.7051377461" lon="8.05975591703">
		<tag k="name" v="Urhovd" />
		<tag k="natural" v="hill" />
		<tag k="place" v="locality" />
		<tag k="ssr:stedsnr" v="917332" />
	</node>
	<node id="-178480" lat="60.6775000016" lon="7.93964444997">
		<tag k="fixme" v="consider natural=peak for the most distinct mountains in the district" />
		<tag k="name" v="Einsetnuten" />
		<tag k="natural" v="hill" />
		<tag k="place" v="locality" />
		<tag k="ssr:stedsnr" v="917294" />
	</node>
	<node id="-176428" lat="60.6578583321" lon="8.22163055913">
		<tag k="fixme" v="consider natural=peak for the most distinct mountains in the district" />
		<tag k="name" v="Brenthovd" />
		<tag k="natural" v="hill" />
		<tag k="place" v="locality" />
		<tag k="ssr:stedsnr" v="371552" />
	</node>
	<node id="-178471" lat="60.4263277782" lon="8.47528055752">
		<tag k="name" v="Hestehovda" />
		<tag k="natural" v="hill" />
		<tag k="place" v="locality" />
		<tag k="ssr:stedsnr" v="916117" />
	</node>
	<node id="-176422" lat="60.5392000006" lon="7.85326388022">
		<tag k="name" v="Grønehallet" />
		<tag k="natural" v="slope" />
		<tag k="place" v="locality" />
		<tag k="ssr:stedsnr" v="371373" />
	</node>
	<node id="-176421" lat="60.604058334" lon="8.05832222572">
		<tag k="name" v="Nuten" />
		<tag k="natural" v="hill" />
		<tag k="place" v="locality" />
		<tag k="ssr:stedsnr" v="371367" />
	</node>
	<node id="-176419" lat="60.6824694471" lon="7.98918889747">
		<tag k="name" v="Gardlihovda" />
		<tag k="natural" v="hill" />
		<tag k="place" v="locality" />
		<tag k="ssr:stedsnr" v="371347" />
	</node>
	<node id="-176418" lat="60.6887527811" lon="8.00440832983">
		<tag k="name" v="Skrubbeskard" />
		<tag k="natural" v="valley" />
		<tag k="place" v="locality" />
		<tag k="ssr:stedsnr" v="371344" />
	</node>
	<node id="-176414" lat="60.7339888867" lon="8.03258611267">
		<tag k="fixme" v="consider natural=peak for the most distinct mountains in the district" />
		<tag k="name" v="Ryssefjellet" />
		<tag k="natural" v="hill" />
		<tag k="place" v="locality" />
		<tag k="ssr:stedsnr" v="371255" />
	</node>
	<node id="-176411" lat="60.7278500044" lon="7.70027499398">
		<tag k="name" v="Hestebotn" />
		<tag k="natural" v="valley" />
		<tag k="place" v="locality" />
		<tag k="ssr:stedsnr" v="371217" />
	</node>
	<node id="-176410" lat="60.6705499981" lon="7.61582500078">
		<tag k="fixme" v="consider natural=peak for the most distinct mountains in the district" />
		<tag k="name" v="Godfjell" />
		<tag k="natural" v="hill" />
		<tag k="place" v="locality" />
		<tag k="ssr:stedsnr" v="371201" />
	</node>
	<node id="-176516" lat="60.4687611156" lon="8.2062861141">
		<tag k="name" v="Øyestøl" />
		<tag k="natural" v="valley" />
		<tag k="place" v="locality" />
		<tag k="ssr:stedsnr" v="891818" />
	</node>
	<node id="-178451" lat="60.5704444452" lon="8.38211111697">
		<tag k="name" v="Brennudn" />
		<tag k="natural" v="slope" />
		<tag k="place" v="locality" />
		<tag k="ssr:stedsnr" v="908968" />
	</node>
	<node id="-178450" lat="60.6125972196" lon="8.35701110467">
		<tag k="name" v="Undartjødnhovdune" />
		<tag k="natural" v="hill" />
		<tag k="place" v="locality" />
		<tag k="ssr:stedsnr" v="908949" />
	</node>
	<node id="-176401" lat="60.6353388873" lon="8.16497222823">
		<tag k="fixme" v="consider natural=peak for the most distinct mountains in the district" />
		<tag k="name" v="Orrhamar" />
		<tag k="natural" v="hill" />
		<tag k="place" v="locality" />
		<tag k="ssr:stedsnr" v="370626" />
	</node>
	<node id="-176390" lat="60.4460749971" lon="8.47373888926">
		<tag k="alt_name" v="Kvilarøksle" />
		<tag k="name" v="Gvilarsoksli" />
		<tag k="natural" v="hill" />
		<tag k="place" v="locality" />
		<tag k="ssr:stedsnr" v="370095" />
	</node>
	<node id="-178435" lat="60.6194694485" lon="8.34846944108">
		<tag k="alt_name" v="Knutsskar" />
		<tag k="name" v="Knutsskard" />
		<tag k="natural" v="valley" />
		<tag k="place" v="locality" />
		<tag k="ssr:stedsnr" v="905644" />
	</node>
	<node id="-178434" lat="60.6198250024" lon="8.33687777083">
		<tag k="name" v="Ureskaret" />
		<tag k="natural" v="valley" />
		<tag k="place" v="locality" />
		<tag k="ssr:stedsnr" v="905638" />
	</node>
	<node id="-178433" lat="60.5586861111" lon="8.20630832829">
		<tag k="name" v="Nilsejuvet" />
		<tag k="natural" v="gorge" />
		<tag k="ssr:stedsnr" v="905339" />
	</node>
	<node id="-178432" lat="60.5796749971" lon="8.15996944315">
		<tag k="name" v="Øyestølhalle" />
		<tag k="natural" v="slope" />
		<tag k="place" v="locality" />
		<tag k="ssr:stedsnr" v="905159" />
	</node>
	<node id="-178428" lat="60.5939527784" lon="8.3093250021">
		<tag k="loc_name" v="Dalsokla" />
		<tag k="name" v="Dalsøkle" />
		<tag k="natural" v="hill" />
		<tag k="place" v="locality" />
		<tag k="ssr:stedsnr" v="869965" />
	</node>
	<node id="-178426" lat="60.8292083345" lon="7.76272499625">
		<tag k="alt_name" v="Øljubotn, store" />
		<tag k="name" v="Store Øljubotn" />
		<tag k="natural" v="valley" />
		<tag k="place" v="locality" />
		<tag k="ssr:stedsnr" v="858768" />
	</node>
	<node id="-178424" lat="60.7953166704" lon="7.82853888342">
		<tag k="alt_name" v="Iungsdalen, vestre" />
		<tag k="name" v="Vestre Iungsdalen" />
		<tag k="natural" v="valley" />
		<tag k="place" v="locality" />
		<tag k="ssr:stedsnr" v="858740" />
	</node>
	<node id="-176375" lat="60.4735972209" lon="8.43277500236">
		<tag k="name" v="Kulten" />
		<tag k="natural" v="hill" />
		<tag k="place" v="locality" />
		<tag k="ssr:stedsnr" v="369793" />
	</node>
	<node id="-178422" lat="60.798313889" lon="7.81391388836">
		<tag k="fixme" v="consider natural=peak for the most distinct mountains in the district" />
		<tag k="name" v="Iungsdalsnøse" />
		<tag k="natural" v="hill" />
		<tag k="place" v="locality" />
		<tag k="ssr:stedsnr" v="858721" />
	</node>
	<node id="-178421" lat="60.7579499994" lon="7.78800555412">
		<tag k="name" v="Storfonnløypet" />
		<tag k="natural" v="slope" />
		<tag k="place" v="locality" />
		<tag k="ssr:stedsnr" v="858558" />
	</node>
	<node id="-178420" lat="60.7509750003" lon="7.90901388912">
		<tag k="fixme" v="consider natural=peak for the most distinct mountains in the district" />
		<tag k="name" v="Grønehæe" />
		<tag k="natural" v="hill" />
		<tag k="place" v="locality" />
		<tag k="ssr:stedsnr" v="858553" />
	</node>
	<node id="-178417" lat="60.5409194405" lon="8.19772221699">
		<tag k="fixme" v="consider natural=peak for the most distinct mountains in the district" />
		<tag k="name" v="Geilohovda" />
		<tag k="natural" v="hill" />
		<tag k="place" v="locality" />
		<tag k="ssr:stedsnr" v="857739" />
	</node>
	<node id="-178416" lat="60.6059166633" lon="8.20220833225">
		<tag k="name" v="Fløtaberget" />
		<tag k="natural" v="hill" />
		<tag k="place" v="locality" />
		<tag k="ssr:stedsnr" v="857672" />
	</node>
	<node id="-178414" lat="60.5905083355" lon="8.28935556026">
		<tag k="fixme" v="consider natural=peak for the most distinct mountains in the district" />
		<tag k="name" v="Skurvenatten" />
		<tag k="natural" v="hill" />
		<tag k="place" v="locality" />
		<tag k="ssr:stedsnr" v="857656" />
	</node>
	<node id="-176364" lat="60.4401555595" lon="8.36736110839">
		<tag k="name" v="Halvorsstølhovda" />
		<tag k="natural" v="hill" />
		<tag k="place" v="locality" />
		<tag k="ssr:stedsnr" v="369122" />
	</node>
	<node id="-178411" lat="60.6608638857" lon="8.15042778203">
		<tag k="name" v="Kotet" />
		<tag k="natural" v="hill" />
		<tag k="place" v="locality" />
		<tag k="ssr:stedsnr" v="857596" />
	</node>
	<node id="-178405" lat="60.5959500004" lon="8.04431388984">
		<tag k="name" v="Langeberget" />
		<tag k="natural" v="hill" />
		<tag k="place" v="locality" />
		<tag k="ssr:stedsnr" v="857407" />
	</node>
	<node id="-178403" lat="60.704758332" lon="7.87999166202">
		<tag k="name" v="Vardahovda" />
		<tag k="natural" v="hill" />
		<tag k="place" v="locality" />
		<tag k="ssr:stedsnr" v="857379" />
	</node>
	<node id="-178402" lat="60.6928388874" lon="7.82562499806">
		<tag k="name" v="Larsstølnuten" />
		<tag k="natural" v="hill" />
		<tag k="place" v="locality" />
		<tag k="ssr:stedsnr" v="857371" />
	</node>
	<node id="-176157" lat="60.7119083305" lon="7.85984166529">
		<tag k="name" v="Nedrestølbergi" />
		<tag k="natural" v="hill" />
		<tag k="place" v="locality" />
		<tag k="ssr:stedsnr" v="283430" />
	</node>
	<node id="-176352" lat="60.6581888859" lon="8.27551944656">
		<tag k="name" v="Varaldsetlie" />
		<tag k="natural" v="slope" />
		<tag k="place" v="locality" />
		<tag k="ssr:stedsnr" v="362722" />
	</node>
	<node id="-178397" lat="60.6814583356" lon="8.03983333496">
		<tag k="name" v="Grytenuten" />
		<tag k="natural" v="hill" />
		<tag k="place" v="locality" />
		<tag k="ssr:stedsnr" v="857345" />
	</node>
	<node id="-178396" lat="60.7126000005" lon="7.62282499937">
		<tag k="fixme" v="consider natural=peak for the most distinct mountains in the district" />
		<tag k="name" v="Vasshellerbrotet" />
		<tag k="natural" v="hill" />
		<tag k="place" v="locality" />
		<tag k="ssr:stedsnr" v="857233" />
	</node>
	<node id="-178395" lat="60.7131777748" lon="7.65682777192">
		<tag k="name" v="Sandbekkhyllene" />
		<tag k="place" v="locality" />
		<tag k="ssr:stedsnr" v="857226" />
	</node>
	<node id="-176344" lat="60.5608611114" lon="8.33487499737">
		<tag k="name" v="Dalsteinen" />
		<tag k="natural" v="hill" />
		<tag k="place" v="locality" />
		<tag k="ssr:stedsnr" v="360820" />
	</node>
	<node id="-178390" lat="60.5532249981" lon="8.10006111414">
		<tag k="fixme" v="consider natural=peak for the most distinct mountains in the district" />
		<tag k="loc_name" v="Prestholtskarvranden" />
		<tag k="name" v="Skarvranden" />
		<tag k="natural" v="hill" />
		<tag k="place" v="locality" />
		<tag k="ssr:stedsnr" v="856742" />
	</node>
	<node id="-176339" lat="60.579538892" lon="8.06146111695">
		<tag k="name" v="Storhallene" />
		<tag k="natural" v="slope" />
		<tag k="place" v="locality" />
		<tag k="ssr:stedsnr" v="237510" />
	</node>
	<node id="-176163" lat="60.5648916666" lon="8.14395556453">
		<tag k="name" v="Storekrokhaugane" />
		<tag k="natural" v="ridge" />
		<tag k="place" v="locality" />
		<tag k="ssr:stedsnr" v="284089" />
	</node>
	<node id="-176335" lat="60.6302222237" lon="8.19606943791">
		<tag k="name" v="Kamben" />
		<tag k="natural" v="slope" />
		<tag k="place" v="locality" />
		<tag k="ssr:stedsnr" v="359792" />
	</node>
	<node id="-178382" lat="60.5038861153" lon="8.08489167074">
		<tag k="alt_name" v="Vardeggi" />
		<tag k="name" v="Vardegg" />
		<tag k="natural" v="hill" />
		<tag k="place" v="locality" />
		<tag k="ssr:stedsnr" v="856549" />
	</node>
	<node id="-176333" lat="60.5153638915" lon="7.9264249913">
		<tag k="name" v="Karistølbotn" />
		<tag k="place" v="locality" />
		<tag k="ssr:stedsnr" v="359663" />
	</node>
	<node id="-178379" lat="60.5726500009" lon="7.65614999434">
		<tag k="fixme" v="consider natural=peak for the most distinct mountains in the district" />
		<tag k="name" v="Storetunga" />
		<tag k="natural" v="hill" />
		<tag k="place" v="locality" />
		<tag k="ssr:stedsnr" v="856336" />
	</node>
	<node id="-178378" lat="60.7277472246" lon="7.90306110314">
		<tag k="name" v="Flyane" />
		<tag k="place" v="locality" />
		<tag k="ssr:stedsnr" v="856303" />
	</node>
	<node id="-178377" lat="60.7382222194" lon="7.82736111017">
		<tag k="fixme" v="consider natural=peak for the most distinct mountains in the district" />
		<tag k="name" v="Blåbergi" />
		<tag k="natural" v="hill" />
		<tag k="old_name" v="Blåberge" />
		<tag k="place" v="locality" />
		<tag k="ssr:stedsnr" v="856266" />
	</node>
	<node id="-176328" lat="60.5980861147" lon="8.39133333648">
		<tag k="name" v="Dekkabakken" />
		<tag k="natural" v="slope" />
		<tag k="place" v="locality" />
		<tag k="ssr:stedsnr" v="358892" />
	</node>
	<node id="-178374" lat="60.4402805525" lon="8.59012500241">
		<tag k="name" v="Dagalidokki" />
		<tag k="natural" v="valley" />
		<tag k="place" v="locality" />
		<tag k="ssr:stedsnr" v="856105" />
	</node>
	<node id="-176325" lat="60.4068027755" lon="8.43665834231">
		<tag k="name" v="Åsbergmogen" />
		<tag k="place" v="locality" />
		<tag k="ssr:stedsnr" v="358569" />
	</node>
	<node id="-178370" lat="60.4028027771" lon="7.80257777761">
		<tag k="name" v="Tverrhogget" />
		<tag k="natural" v="valley" />
		<tag k="place" v="locality" />
		<tag k="ssr:stedsnr" v="855971" />
	</node>
	<node id="-176321" lat="60.5967972246" lon="8.18892222662">
		<tag k="name" v="Skurvhovda" />
		<tag k="natural" v="hill" />
		<tag k="place" v="locality" />
		<tag k="ssr:stedsnr" v="346000" />
	</node>
	<node id="-178367" lat="60.4363249997" lon="7.75547223118">
		<tag k="name" v="Båtstjørnnuten" />
		<tag k="natural" v="hill" />
		<tag k="place" v="locality" />
		<tag k="ssr:stedsnr" v="855957" />
	</node>
	<node id="-178363" lat="60.4732472186" lon="8.42204721739">
		<tag k="alt_name" v="Kosaberget" />
		<tag k="name" v="Køsaberget" />
		<tag k="natural" v="hill" />
		<tag k="place" v="locality" />
		<tag k="ssr:stedsnr" v="855844" />
	</node>
	<node id="-178361" lat="60.374966666" lon="8.2630444478">
		<tag k="name" v="Hauknuten" />
		<tag k="natural" v="hill" />
		<tag k="place" v="locality" />
		<tag k="ssr:stedsnr" v="855217" />
	</node>
	<node id="-178355" lat="60.4327555515" lon="8.42454723088">
		<tag k="alt_name" v="Gråvarhovda" />
		<tag k="name" v="Gravarhovda" />
		<tag k="natural" v="hill" />
		<tag k="place" v="locality" />
		<tag k="ssr:stedsnr" v="855134" />
	</node>
	<node id="-178351" lat="60.6241638873" lon="8.17409167132">
		<tag k="name" v="Andresslåtta" />
		<tag k="place" v="locality" />
		<tag k="ssr:stedsnr" v="848907" />
	</node>
	<node id="-176302" lat="60.5389861146" lon="8.1548083275">
		<tag k="name" v="Marapiggen" />
		<tag k="natural" v="hill" />
		<tag k="place" v="locality" />
		<tag k="ssr:stedsnr" v="343729" />
	</node>
	<node id="-178349" lat="60.6081833375" lon="8.3524777757">
		<tag k="name" v="Fuglebrenna" />
		<tag k="natural" v="slope" />
		<tag k="place" v="locality" />
		<tag k="ssr:stedsnr" v="848899" />
	</node>
	<node id="-176300" lat="60.6371444484" lon="8.29781943727">
		<tag k="name" v="Fekjadn" />
		<tag k="place" v="locality" />
		<tag k="ssr:stedsnr" v="343484" />
	</node>
	<node id="-178347" lat="60.514883335" lon="8.13092222214">
		<tag k="name" v="Nystøllie" />
		<tag k="natural" v="slope" />
		<tag k="place" v="locality" />
		<tag k="ssr:stedsnr" v="848847" />
	</node>
	<node id="-178346" lat="60.5209638881" lon="8.13638888872">
		<tag k="name" v="Kleivane" />
		<tag k="natural" v="slope" />
		<tag k="place" v="locality" />
		<tag k="ssr:stedsnr" v="848843" />
	</node>
	<node id="-176295" lat="60.7294833329" lon="7.76970556107">
		<tag k="name" v="Vardahovd" />
		<tag k="natural" v="hill" />
		<tag k="place" v="locality" />
		<tag k="ssr:stedsnr" v="342241" />
	</node>
	<node id="-176293" lat="60.5216527805" lon="8.03748888373">
		<tag k="name" v="Mjølhaugane" />
		<tag k="natural" v="hill" />
		<tag k="place" v="locality" />
		<tag k="ssr:stedsnr" v="342193" />
	</node>
	<node id="-176291" lat="60.4883361139" lon="8.35832777273">
		<tag k="fixme" v="consider natural=peak for the most distinct mountains in the district" />
		<tag k="name" v="Skurdalsåsen" />
		<tag k="natural" v="hill" />
		<tag k="place" v="locality" />
		<tag k="ssr:stedsnr" v="327686" />
	</node>
	<node id="-178338" lat="60.5637861092" lon="8.2626555534">
		<tag k="name" v="Grønskarhovda" />
		<tag k="natural" v="hill" />
		<tag k="place" v="locality" />
		<tag k="ssr:stedsnr" v="848336" />
	</node>
	<node id="-176289" lat="60.4732722236" lon="8.13388888739">
		<tag k="name" v="Grønebakken" />
		<tag k="natural" v="slope" />
		<tag k="place" v="locality" />
		<tag k="ssr:stedsnr" v="324091" />
	</node>
	<node id="-178336" lat="60.5373611106" lon="8.14378889001">
		<tag k="name" v="Urunddalen" />
		<tag k="natural" v="valley" />
		<tag k="place" v="locality" />
		<tag k="ssr:stedsnr" v="848101" />
	</node>
	<node id="-176284" lat="60.7884388913" lon="7.77910277718">
		<tag k="fixme" v="consider natural=peak for the most distinct mountains in the district" />
		<tag k="name" v="Volavasseggi" />
		<tag k="natural" v="hill" />
		<tag k="place" v="locality" />
		<tag k="ssr:stedsnr" v="311756" />
	</node>
	<node id="-178329" lat="60.6346055529" lon="8.11653332505">
		<tag k="name" v="Nedre Skarnuten" />
		<tag k="natural" v="hill" />
		<tag k="place" v="locality" />
		<tag k="ssr:stedsnr" v="846356" />
	</node>
	<node id="-178326" lat="60.6837138848" lon="7.98501110372">
		<tag k="name" v="Hesteskar" />
		<tag k="natural" v="valley" />
		<tag k="place" v="locality" />
		<tag k="ssr:stedsnr" v="845775" />
	</node>
	<node id="-176275" lat="60.5382083364" lon="8.13725833333">
		<tag k="name" v="Urundberget" />
		<tag k="natural" v="hill" />
		<tag k="place" v="locality" />
		<tag k="ssr:stedsnr" v="310728" />
	</node>
	<node id="-178322" lat="60.61828056" lon="8.09461389427">
		<tag k="name" v="Sluteberget" />
		<tag k="natural" v="hill" />
		<tag k="place" v="locality" />
		<tag k="ssr:stedsnr" v="845447" />
	</node>
	<node id="-178321" lat="60.423347223" lon="7.83185277642">
		<tag k="alt_name" v="Krækkjenuten" />
		<tag k="fixme" v="consider natural=peak for the most distinct mountains in the district" />
		<tag k="name" v="Krækkjanuten" />
		<tag k="natural" v="hill" />
		<tag k="place" v="locality" />
		<tag k="ssr:stedsnr" v="844965" />
	</node>
	<node id="-178320" lat="60.5040722264" lon="8.18457499105">
		<tag k="name" v="Grødalen" />
		<tag k="natural" v="valley" />
		<tag k="place" v="locality" />
		<tag k="ssr:stedsnr" v="844697" />
	</node>
	<node id="-178319" lat="60.6807833356" lon="7.95529999621">
		<tag k="name" v="Persetdalen" />
		<tag k="place" v="locality" />
		<tag k="ssr:stedsnr" v="844687" />
	</node>
	<node id="-178318" lat="60.5189722203" lon="7.93530278125">
		<tag k="name" v="Embrikstølhallene" />
		<tag k="natural" v="slope" />
		<tag k="place" v="locality" />
		<tag k="ssr:stedsnr" v="844667" />
	</node>
	<node id="-178316" lat="60.5949388905" lon="8.35378333865">
		<tag k="name" v="Høgehaug" />
		<tag k="natural" v="hill" />
		<tag k="place" v="locality" />
		<tag k="ssr:stedsnr" v="831999" />
	</node>
	<node id="-178312" lat="60.6170194416" lon="8.39662221702">
		<tag k="name" v="Rundhaug" />
		<tag k="natural" v="hill" />
		<tag k="place" v="locality" />
		<tag k="ssr:stedsnr" v="831528" />
	</node>
	<node id="-176259" lat="60.6435444404" lon="8.1777805548">
		<tag k="fixme" v="consider natural=peak for the most distinct mountains in the district" />
		<tag k="name" v="Torsbunatten" />
		<tag k="natural" v="hill" />
		<tag k="place" v="locality" />
		<tag k="ssr:stedsnr" v="310566" />
	</node>
	<node id="-176257" lat="60.5085055538" lon="7.99593888071">
		<tag k="alt_name" v="Høgde" />
		<tag k="name" v="Høgdi" />
		<tag k="natural" v="hill" />
		<tag k="place" v="locality" />
		<tag k="ssr:stedsnr" v="310505" />
	</node>
	<node id="-178303" lat="60.4213722185" lon="8.48903610717">
		<tag k="name" v="Ørnedalen" />
		<tag k="natural" v="valley" />
		<tag k="place" v="locality" />
		<tag k="ssr:stedsnr" v="830610" />
	</node>
	<node id="-178299" lat="60.6908333352" lon="8.23477222907">
		<tag k="name" v="Vardehøgda" />
		<tag k="natural" v="hill" />
		<tag k="place" v="locality" />
		<tag k="ssr:stedsnr" v="830268" />
	</node>
	<node id="-176250" lat="60.6289805551" lon="7.89043055587">
		<tag k="fixme" v="consider natural=peak for the most distinct mountains in the district" />
		<tag k="name" v="Vesleskuta" />
		<tag k="natural" v="hill" />
		<tag k="place" v="locality" />
		<tag k="ssr:stedsnr" v="310438" />
	</node>
	<node id="-176249" lat="60.6527833295" lon="8.06282500799">
		<tag k="fixme" v="consider natural=peak for the most distinct mountains in the district" />
		<tag k="name" v="Sudndalsåsen" />
		<tag k="natural" v="hill" />
		<tag k="place" v="locality" />
		<tag k="ssr:stedsnr" v="310430" />
	</node>
	<node id="-178293" lat="60.4872888916" lon="8.06683888985">
		<tag k="name" v="Reinsvadhaugane" />
		<tag k="natural" v="hill" />
		<tag k="place" v="locality" />
		<tag k="ssr:stedsnr" v="828783" />
	</node>
	<node id="-178288" lat="60.3942444442" lon="8.26683611782">
		<tag k="fixme" v="consider natural=peak for the most distinct mountains in the district" />
		<tag k="name" v="Skriunuten" />
		<tag k="natural" v="hill" />
		<tag k="place" v="locality" />
		<tag k="ssr:stedsnr" v="809122" />
	</node>
	<node id="-176239" lat="60.71303333" lon="8.05528056394">
		<tag k="name" v="Olsennhallin" />
		<tag k="natural" v="slope" />
		<tag k="place" v="locality" />
		<tag k="ssr:stedsnr" v="310356" />
	</node>
	<node id="-178286" lat="60.4449250027" lon="8.21906111163">
		<tag k="name" v="Vaktarskardet" />
		<tag k="natural" v="valley" />
		<tag k="place" v="locality" />
		<tag k="ssr:stedsnr" v="809110" />
	</node>
	<node id="-178283" lat="60.7734444459" lon="7.89949443586">
		<tag k="fixme" v="consider natural=peak for the most distinct mountains in the district" />
		<tag k="name" v="Skorpa" />
		<tag k="natural" v="hill" />
		<tag k="place" v="locality" />
		<tag k="ssr:stedsnr" v="797736" />
	</node>
	<node id="-178280" lat="60.8150916694" lon="7.829036112">
		<tag k="fixme" v="consider natural=peak for the most distinct mountains in the district" />
		<tag k="name" v="Uthusnøse" />
		<tag k="natural" v="hill" />
		<tag k="place" v="locality" />
		<tag k="ssr:stedsnr" v="797706" />
	</node>
	<node id="-176229" lat="60.7201777818" lon="8.01866945163">
		<tag k="name" v="Ganastein" />
		<tag k="natural" v="hill" />
		<tag k="place" v="locality" />
		<tag k="ssr:stedsnr" v="310263" />
	</node>
	<node id="-178274" lat="60.531075002" lon="8.10388333162">
		<tag k="name" v="Hesteberget" />
		<tag k="natural" v="hill" />
		<tag k="place" v="locality" />
		<tag k="ssr:stedsnr" v="796740" />
	</node>
	<node id="-176224" lat="60.7411250033" lon="8.07254444732">
		<tag k="alt_name" v="Ørnehøgdi, søre" />
		<tag k="name" v="Søre Ørnehøgdi" />
		<tag k="natural" v="hill" />
		<tag k="place" v="locality" />
		<tag k="ssr:stedsnr" v="310235" />
	</node>
	<node id="-178270" lat="60.6001305547" lon="8.1690777705">
		<tag k="fixme" v="consider natural=peak for the most distinct mountains in the district" />
		<tag k="name" v="Steinbergnipen" />
		<tag k="natural" v="hill" />
		<tag k="place" v="locality" />
		<tag k="ssr:stedsnr" v="796691" />
	</node>
	<node id="-176220" lat="60.6352500008" lon="7.68894999117">
		<tag k="fixme" v="consider natural=peak for the most distinct mountains in the district" />
		<tag k="name" v="Ljøtebotnberget" />
		<tag k="natural" v="hill" />
		<tag k="place" v="locality" />
		<tag k="ssr:stedsnr" v="310185" />
	</node>
	<node id="-178266" lat="60.6253194465" lon="8.34383610746">
		<tag k="fixme" v="consider natural=peak for the most distinct mountains in the district" />
		<tag k="name" v="Nystølhovda" />
		<tag k="natural" v="hill" />
		<tag k="place" v="locality" />
		<tag k="ssr:stedsnr" v="796645" />
	</node>
	<node id="-178263" lat="60.6204861094" lon="8.35838611909">
		<tag k="fixme" v="consider natural=peak for the most distinct mountains in the district" />
		<tag k="name" v="Søthovd" />
		<tag k="natural" v="hill" />
		<tag k="place" v="locality" />
		<tag k="ssr:stedsnr" v="796634" />
	</node>
	<node id="-176213" lat="60.3595722191" lon="8.26859444911">
		<tag k="fixme" v="consider natural=peak for the most distinct mountains in the district" />
		<tag k="name" v="Synsnuten" />
		<tag k="natural" v="hill" />
		<tag k="place" v="locality" />
		<tag k="ssr:stedsnr" v="309229" />
	</node>
	<node id="-178253" lat="60.6051888851" lon="8.07101944902">
		<tag k="name" v="Dugurdshovda" />
		<tag k="natural" v="hill" />
		<tag k="place" v="locality" />
		<tag k="ssr:stedsnr" v="796386" />
	</node>
	<node id="-178252" lat="60.5755999976" lon="7.83686943573">
		<tag k="alt_name" v="Bjørnabuhøgdine" />
		<tag k="fixme" v="consider natural=peak for the most distinct mountains in the district" />
		<tag k="name" v="Bjørnabuhøgdin" />
		<tag k="natural" v="hill" />
		<tag k="place" v="locality" />
		<tag k="ssr:stedsnr" v="796381" />
	</node>
	<node id="-178251" lat="60.6806666626" lon="7.89540000813">
		<tag k="fixme" v="consider natural=peak for the most distinct mountains in the district" />
		<tag k="name" v="Oddefjellet" />
		<tag k="natural" v="hill" />
		<tag k="place" v="locality" />
		<tag k="ssr:stedsnr" v="796380" />
	</node>
	<node id="-178250" lat="60.6910833361" lon="7.97181388849">
		<tag k="alt_name" v="Langehallet" />
		<tag k="name" v="Langehalle" />
		<tag k="natural" v="slope" />
		<tag k="place" v="locality" />
		<tag k="ssr:stedsnr" v="796374" />
	</node>
	<node id="-178249" lat="60.6874916687" lon="8.07915556182">
		<tag k="fixme" v="consider natural=peak for the most distinct mountains in the district" />
		<tag k="name" v="Bølhovd" />
		<tag k="natural" v="hill" />
		<tag k="place" v="locality" />
		<tag k="ssr:stedsnr" v="796370" />
	</node>
	<node id="-178247" lat="60.7088166698" lon="8.00616944113">
		<tag k="name" v="Flådalen" />
		<tag k="natural" v="valley" />
		<tag k="place" v="locality" />
		<tag k="ssr:stedsnr" v="796354" />
	</node>
	<node id="-178246" lat="60.6791444448" lon="7.95705555874">
		<tag k="name" v="Hallenuten" />
		<tag k="natural" v="hill" />
		<tag k="place" v="locality" />
		<tag k="ssr:stedsnr" v="796325" />
	</node>
	<node id="-176194" lat="60.4444111131" lon="8.15671944176">
		<tag k="name" v="Svarahovda" />
		<tag k="natural" v="hill" />
		<tag k="place" v="locality" />
		<tag k="ssr:stedsnr" v="308118" />
	</node>
	<node id="-178241" lat="60.6687250018" lon="7.69237500856">
		<tag k="fixme" v="consider natural=peak for the most distinct mountains in the district" />
		<tag k="name" v="Ynglesnuten" />
		<tag k="natural" v="hill" />
		<tag k="place" v="locality" />
		<tag k="ssr:stedsnr" v="796185" />
	</node>
	<node id="-176191" lat="60.6251833318" lon="8.36989999637">
		<tag k="name" v="Ølmelie" />
		<tag k="natural" v="slope" />
		<tag k="place" v="locality" />
		<tag k="ssr:stedsnr" v="302484" />
	</node>
	<node id="-176189" lat="60.6223833353" lon="8.22338333566">
		<tag k="name" v="Skjerpingbakkane" />
		<tag k="natural" v="slope" />
		<tag k="place" v="locality" />
		<tag k="ssr:stedsnr" v="301990" />
	</node>
	<node id="-178235" lat="60.694941669" lon="8.15064722829">
		<tag k="fixme" v="consider natural=peak for the most distinct mountains in the district" />
		<tag k="name" v="Flishovd" />
		<tag k="natural" v="hill" />
		<tag k="place" v="locality" />
		<tag k="ssr:stedsnr" v="795565" />
	</node>
	<node id="-178234" lat="60.5088749981" lon="7.90276111329">
		<tag k="alt_name" v="Karistølhøgde" />
		<tag k="name" v="Karistølhøgdi" />
		<tag k="natural" v="hill" />
		<tag k="place" v="locality" />
		<tag k="ssr:stedsnr" v="795555" />
	</node>
	<node id="-178233" lat="60.5085194462" lon="7.94522500028">
		<tag k="name" v="Veiehovda" />
		<tag k="natural" v="hill" />
		<tag k="place" v="locality" />
		<tag k="ssr:stedsnr" v="795551" />
	</node>
	<node id="-176184" lat="60.5943611074" lon="8.32963888889">
		<tag k="name" v="Kjerringvelta" />
		<tag k="natural" v="slope" />
		<tag k="place" v="locality" />
		<tag k="ssr:stedsnr" v="299144" />
	</node>
	<node id="-178231" lat="60.6597333311" lon="7.92608332928">
		<tag k="name" v="Stryknasnøse" />
		<tag k="natural" v="hill" />
		<tag k="place" v="locality" />
		<tag k="ssr:stedsnr" v="795388" />
	</node>
	<node id="-176181" lat="60.6829638881" lon="7.95054167418">
		<tag k="name" v="Minnestølreset" />
		<tag k="natural" v="slope" />
		<tag k="place" v="locality" />
		<tag k="ssr:stedsnr" v="298660" />
	</node>
	<node id="-178228" lat="60.4334000037" lon="8.52739721728">
		<tag k="alt_name" v="Smettehøvda" />
		<tag k="name" v="Smettehovda" />
		<tag k="natural" v="hill" />
		<tag k="place" v="locality" />
		<tag k="ssr:stedsnr" v="795161" />
	</node>
	<node id="-178227" lat="60.4310527816" lon="8.53862222316">
		<tag k="alt_name" v="Mosebuhøvda" />
		<tag k="name" v="Mosæterhovda" />
		<tag k="natural" v="hill" />
		<tag k="place" v="locality" />
		<tag k="ssr:stedsnr" v="795150" />
	</node>
	<node id="-178225" lat="60.4575388922" lon="8.53865277784">
		<tag k="alt_name" v="Kjerbuhøvda" />
		<tag k="fixme" v="consider natural=peak for the most distinct mountains in the district" />
		<tag k="name" v="Kjerbuhovda" />
		<tag k="natural" v="hill" />
		<tag k="place" v="locality" />
		<tag k="ssr:stedsnr" v="795107" />
	</node>
	<node id="-178223" lat="60.498186115" lon="7.74261389198">
		<tag k="fixme" v="consider natural=peak for the most distinct mountains in the district" />
		<tag k="name" v="Nygardsnutan" />
		<tag k="natural" v="hill" />
		<tag k="place" v="locality" />
		<tag k="ssr:stedsnr" v="794982" />
	</node>
	<node id="-176171" lat="60.6769805574" lon="8.11154445141">
		<tag k="name" v="Økle" />
		<tag k="natural" v="hill" />
		<tag k="place" v="locality" />
		<tag k="ssr:stedsnr" v="285411" />
	</node>
	<node id="-176166" lat="60.4217972252" lon="8.46030000295">
		<tag k="name" v="Hallandsberget" />
		<tag k="natural" v="hill" />
		<tag k="place" v="locality" />
		<tag k="ssr:stedsnr" v="284590" />
	</node>
	<node id="-176164" lat="60.5572055542" lon="8.10662500628">
		<tag k="name" v="Budalsskarvranden" />
		<tag k="natural" v="ridge" />
		<tag k="place" v="locality" />
		<tag k="ssr:stedsnr" v="284093" />
	</node>
	<node id="-178211" lat="60.3786500013" lon="8.05242500453">
		<tag k="fixme" v="consider natural=peak for the most distinct mountains in the district" />
		<tag k="name" v="Bjordalsnutan" />
		<tag k="natural" v="hill" />
		<tag k="place" v="locality" />
		<tag k="ssr:stedsnr" v="794793" />
	</node>
	<node id="-178208" lat="60.3811805542" lon="8.30273611113">
		<tag k="name" v="Bergsnuten" />
		<tag k="natural" v="hill" />
		<tag k="place" v="locality" />
		<tag k="ssr:stedsnr" v="794200" />
	</node>
	<node id="-176159" lat="60.6084388933" lon="8.38711944252">
		<tag k="name" v="Eilevtjødndalen" />
		<tag k="natural" v="valley" />
		<tag k="place" v="locality" />
		<tag k="ssr:stedsnr" v="283464" />
	</node>
	<node id="-176158" lat="60.6377361126" lon="8.28590555223">
		<tag k="name" v="Svartetjødnnuten" />
		<tag k="natural" v="hill" />
		<tag k="place" v="locality" />
		<tag k="ssr:stedsnr" v="283459" />
	</node>
	<node id="-178205" lat="60.3932388919" lon="8.24035000577">
		<tag k="fixme" v="consider natural=peak for the most distinct mountains in the district" />
		<tag k="name" v="Skomakarnuten" />
		<tag k="natural" v="hill" />
		<tag k="place" v="locality" />
		<tag k="ssr:stedsnr" v="794157" />
	</node>
	<node id="-178204" lat="60.3918833317" lon="8.20799445242">
		<tag k="fixme" v="consider natural=peak for the most distinct mountains in the district" />
		<tag k="name" v="Synshovda" />
		<tag k="natural" v="hill" />
		<tag k="place" v="locality" />
		<tag k="ssr:stedsnr" v="794156" />
	</node>
	<node id="-176153" lat="60.5113250042" lon="8.02745000545">
		<tag k="name" v="Nyestølhovda" />
		<tag k="natural" v="hill" />
		<tag k="place" v="locality" />
		<tag k="ssr:stedsnr" v="282951" />
	</node>
	<node id="-176152" lat="60.6061000039" lon="8.33052777678">
		<tag k="name" v="Seimsbergi" />
		<tag k="natural" v="hill" />
		<tag k="place" v="locality" />
		<tag k="ssr:stedsnr" v="282821" />
	</node>
	<node id="-176151" lat="60.5079111151" lon="8.11925554968">
		<tag k="name" v="Eirikstøldalen" />
		<tag k="natural" v="valley" />
		<tag k="place" v="locality" />
		<tag k="ssr:stedsnr" v="282802" />
	</node>
	<node id="-176149" lat="60.4898249992" lon="8.07757777018">
		<tag k="name" v="Rennedalhovda" />
		<tag k="natural" v="hill" />
		<tag k="place" v="locality" />
		<tag k="ssr:stedsnr" v="282787" />
	</node>
	<node id="-176146" lat="60.5268944403" lon="8.04126666079">
		<tag k="name" v="Storhallene" />
		<tag k="natural" v="slope" />
		<tag k="place" v="locality" />
		<tag k="ssr:stedsnr" v="282194" />
	</node>
	<node id="-176472" lat="60.7387500001" lon="8.08021943715">
		<tag k="name" v="Ørnehovdune" />
		<tag k="natural" v="hill" />
		<tag k="place" v="locality" />
		<tag k="ssr:stedsnr" v="405438" />
	</node>
	<node id="-178190" lat="60.5287166635" lon="8.10438611445">
		<tag k="name" v="Rennerudhøvda" />
		<tag k="natural" v="hill" />
		<tag k="place" v="locality" />
		<tag k="ssr:stedsnr" v="787099" />
	</node>
	<node id="-178187" lat="60.6135166625" lon="8.25872777278">
		<tag k="name" v="Osbakken" />
		<tag k="natural" v="slope" />
		<tag k="place" v="locality" />
		<tag k="ssr:stedsnr" v="786989" />
	</node>
	<node id="-178186" lat="60.5129777753" lon="8.1373111071">
		<tag k="name" v="Nordmannsleine" />
		<tag k="natural" v="slope" />
		<tag k="place" v="locality" />
		<tag k="ssr:stedsnr" v="786865" />
	</node>
	<node id="-178177" lat="60.6228527818" lon="8.34604166032">
		<tag k="name" v="Bjødnaskaret" />
		<tag k="natural" v="valley" />
		<tag k="place" v="locality" />
		<tag k="ssr:stedsnr" v="784636" />
	</node>
</osm>
