<?xml version="1.0" encoding="UTF-8"?>
<osm generator="osmapis" version="0.6">
	<node id="-882684" lat="63.3260777752" lon="10.8472416605">
		<tag k="name" v="Storflåkåmyra" />
		<tag k="natural" v="wetland" />
		<tag k="ssr:stedsnr" v="158258" />
	</node>
	<node id="-882682" lat="63.4232222244" lon="10.7114222307">
		<tag k="name" v="Vulutrøa" />
		<tag k="place" v="locality" />
		<tag k="ssr:stedsnr" v="802702" />
	</node>
	<node id="-882681" lat="63.4045499961" lon="10.7157249988">
		<tag k="name" v="Merkesmyrin" />
		<tag k="natural" v="wetland" />
		<tag k="ssr:stedsnr" v="582019" />
	</node>
	<node id="-882680" lat="63.3751472263" lon="10.7516361151">
		<tag k="name" v="Slettet" />
		<tag k="natural" v="wetland" />
		<tag k="ssr:stedsnr" v="704388" />
	</node>
	<node id="-882675" lat="63.3261250042" lon="10.9350750015">
		<tag k="name" v="Rennsjøkjølan" />
		<tag k="natural" v="wetland" />
		<tag k="ssr:stedsnr" v="462821" />
	</node>
	<node id="-882157" lat="63.3621472231" lon="10.6848000085">
		<tag k="name" v="Lomtjønnmyrin" />
		<tag k="natural" v="wetland" />
		<tag k="ssr:stedsnr" v="887855" />
	</node>
	<node id="-882153" lat="63.4151222213" lon="10.8311722304">
		<tag k="name" v="Damgjardet" />
		<tag k="place" v="locality" />
		<tag k="ssr:stedsnr" v="158156" />
	</node>
	<node id="-882152" lat="63.3223722264" lon="10.7291722194">
		<tag k="name" v="Øyan" />
		<tag k="place" v="locality" />
		<tag k="ssr:stedsnr" v="765103" />
	</node>
	<node id="-882146" lat="63.4398666703" lon="10.6297388857">
		<tag k="name" v="Kongshaugan" />
		<tag k="place" v="locality" />
		<tag k="ssr:stedsnr" v="826074" />
	</node>
	<node id="-882654" lat="63.3621861117" lon="10.6683555459">
		<tag k="name" v="Kvitmåssåmyrin" />
		<tag k="natural" v="wetland" />
		<tag k="ssr:stedsnr" v="583851" />
	</node>
	<node id="-882651" lat="63.4149361119" lon="10.6167861146">
		<tag k="name" v="Kvegjardsmyran" />
		<tag k="natural" v="wetland" />
		<tag k="ssr:stedsnr" v="643340" />
	</node>
	<node id="-882649" lat="63.3698138901" lon="10.7258250025">
		<tag k="name" v="Tjurrumyra" />
		<tag k="natural" v="wetland" />
		<tag k="ssr:stedsnr" v="522434" />
	</node>
	<node id="-882645" lat="63.3830555511" lon="10.7108888902">
		<tag k="name" v="Langmyra" />
		<tag k="natural" v="wetland" />
		<tag k="ssr:stedsnr" v="340385" />
	</node>
	<node id="-882131" lat="63.3762861122" lon="10.7557361117">
		<tag k="name" v="Kleivmyra" />
		<tag k="natural" v="wetland" />
		<tag k="ssr:stedsnr" v="280428" />
	</node>
	<node id="-882642" lat="63.3281027815" lon="10.6980583254">
		<tag k="historic" v="shieling" />
		<tag k="name" v="Malvikvollen" />
		<tag k="place" v="locality" />
		<tag k="ssr:stedsnr" v="947185" />
	</node>
	<node id="-882636" lat="63.380577779" lon="10.7124500077">
		<tag k="name" v="Svarttjønnryin" />
		<tag k="natural" v="wetland" />
		<tag k="ssr:stedsnr" v="37407" />
	</node>
	<node id="-882121" lat="63.32527778" lon="10.7125472178">
		<tag k="name" v="Slåttmyra" />
		<tag k="natural" v="wetland" />
		<tag k="ssr:stedsnr" v="279190" />
	</node>
	<node id="-882632" lat="63.340311113" lon="10.8593444462">
		<tag k="name" v="Dalakjølen" />
		<tag k="natural" v="wetland" />
		<tag k="ssr:stedsnr" v="947187" />
	</node>
	<node id="-882119" lat="63.4118611138" lon="10.7078749961">
		<tag k="name" v="Fossmyra" />
		<tag k="natural" v="wetland" />
		<tag k="ssr:stedsnr" v="280409" />
	</node>
	<node id="-882624" lat="63.3202138872" lon="10.7563472221">
		<tag k="name" v="Abomyrin" />
		<tag k="natural" v="wetland" />
		<tag k="ssr:stedsnr" v="279114" />
	</node>
	<node id="-882622" lat="63.3372722257" lon="10.7403972242">
		<tag k="name" v="Sjetnebuåsmyra" />
		<tag k="natural" v="wetland" />
		<tag k="ssr:stedsnr" v="886086" />
	</node>
	<node id="-882620" lat="63.4233583344" lon="10.8522500033">
		<tag k="name" v="Middagsmyra" />
		<tag k="natural" v="wetland" />
		<tag k="ssr:stedsnr" v="522838" />
	</node>
	<node id="-882107" lat="63.409125002" lon="10.7413444472">
		<tag k="name" v="Flomyra" />
		<tag k="natural" v="wetland" />
		<tag k="ssr:stedsnr" v="863039" />
	</node>
	<node id="-882615" lat="63.4040638846" lon="10.8370944529">
		<tag k="name" v="Løssimyra" />
		<tag k="natural" v="wetland" />
		<tag k="ssr:stedsnr" v="887511" />
	</node>
	<node id="-882612" lat="63.3082888917" lon="10.7703750037">
		<tag k="name" v="Bærmyra" />
		<tag k="natural" v="wetland" />
		<tag k="ssr:stedsnr" v="947178" />
	</node>
	<node id="-882099" lat="63.3315416634" lon="10.7322277845">
		<tag k="name" v="Skomakerdammen" />
		<tag k="natural" v="wetland" />
		<tag k="ssr:stedsnr" v="158135" />
	</node>
	<node id="-882610" lat="63.3941027767" lon="10.8502972153">
		<tag k="name" v="Søre Høyby" />
		<tag k="place" v="locality" />
		<tag k="ssr:stedsnr" v="522235" />
	</node>
	<node id="-882096" lat="63.3361722189" lon="10.9032055596">
		<tag k="name" v="Høgkjølen" />
		<tag k="natural" v="wetland" />
		<tag k="ssr:stedsnr" v="947239" />
	</node>
	<node id="-882094" lat="63.3210138895" lon="10.8593611059">
		<tag k="landuse" v="quarry" />
		<tag k="name" v="Lauvdalsgruva" />
		<tag k="ssr:stedsnr" v="741433" />
	</node>
	<node id="-882601" lat="63.4268472247" lon="10.8295555486">
		<tag k="name" v="Larsrommet" />
		<tag k="place" v="locality" />
		<tag k="ssr:stedsnr" v="279111" />
	</node>
	<node id="-882088" lat="63.3733305539" lon="10.8202611177">
		<tag k="name" v="Storkleivmyrin" />
		<tag k="natural" v="wetland" />
		<tag k="ssr:stedsnr" v="219458" />
	</node>
	<node id="-881905" lat="63.31116944" lon="10.8716527805">
		<tag k="name" v="Lauvøyin" />
		<tag k="natural" v="wetland" />
		<tag k="ssr:stedsnr" v="826861" />
	</node>
	<node id="-882084" lat="63.3336972187" lon="10.7600555628">
		<tag k="name" v="Langvikkjølen" />
		<tag k="natural" v="wetland" />
		<tag k="ssr:stedsnr" v="522120" />
	</node>
	<node id="-882594" lat="63.3173111108" lon="10.8474611035">
		<tag k="name" v="Bjørnholet" />
		<tag k="natural" v="wetland" />
		<tag k="ssr:stedsnr" v="522842" />
	</node>
	<node id="-882591" lat="63.3612333338" lon="10.6955722155">
		<tag k="name" v="Husmyra" />
		<tag k="natural" v="wetland" />
		<tag k="ssr:stedsnr" v="765842" />
	</node>
	<node id="-882124" lat="63.3991694461" lon="10.8427777707">
		<tag k="name" v="Brenna" />
		<tag k="place" v="locality" />
		<tag k="ssr:stedsnr" v="37508" />
	</node>
	<node id="-882064" lat="63.3939527812" lon="10.8573777846">
		<tag k="name" v="Steinkleiva" />
		<tag k="place" v="locality" />
		<tag k="ssr:stedsnr" v="461226" />
	</node>
	<node id="-882063" lat="63.3256333364" lon="10.8499333327">
		<tag k="name" v="Flåkkåmyrin" />
		<tag k="natural" v="wetland" />
		<tag k="ssr:stedsnr" v="377310" />
	</node>
	<node id="-882573" lat="63.3756499978" lon="10.6960583387">
		<tag k="historic" v="shieling" />
		<tag k="name" v="Fjølstadvollen" />
		<tag k="place" v="locality" />
		<tag k="ssr:stedsnr" v="98412" />
	</node>
	<node id="-882060" lat="63.4238666706" lon="10.7701888874">
		<tag k="name" v="M.Ø. Roten" />
		<tag k="place" v="locality" />
		<tag k="ssr:stedsnr" v="97085" />
	</node>
	<node id="-882571" lat="63.3111277811" lon="10.8275277866">
		<tag k="name" v="Stormyra" />
		<tag k="natural" v="wetland" />
		<tag k="ssr:stedsnr" v="340165" />
	</node>
	<node id="-882050" lat="63.3115999982" lon="10.7855805534">
		<tag k="historic" v="shieling" />
		<tag k="name" v="Vollavollen" />
		<tag k="place" v="locality" />
		<tag k="ssr:stedsnr" v="279175" />
	</node>
	<node id="-882561" lat="63.3475694403" lon="10.742777784">
		<tag k="name" v="Storkjølen" />
		<tag k="natural" v="wetland" />
		<tag k="ssr:stedsnr" v="741505" />
	</node>
	<node id="-882560" lat="63.3306277752" lon="10.7671583412">
		<tag k="name" v="Høgmyra" />
		<tag k="natural" v="wetland" />
		<tag k="ssr:stedsnr" v="401170" />
	</node>
	<node id="-882550" lat="63.3622388899" lon="10.7493027724">
		<tag k="name" v="Ner Høgåsmyra" />
		<tag k="natural" v="wetland" />
		<tag k="ssr:stedsnr" v="522221" />
	</node>
	<node id="-882032" lat="63.3402583322" lon="10.8486805618">
		<tag k="name" v="Sundstadsletta" />
		<tag k="natural" v="wetland" />
		<tag k="ssr:stedsnr" v="643208" />
	</node>
	<node id="-882533" lat="63.3960000027" lon="10.7223888903">
		<tag k="historic" v="shieling" />
		<tag k="name" v="Nyvollen" />
		<tag k="place" v="locality" />
		<tag k="ssr:stedsnr" v="157429" />
	</node>
	<node id="-882530" lat="63.3718555574" lon="10.7502138836">
		<tag k="historic" v="shieling" />
		<tag k="name" v="Bakmark" />
		<tag k="place" v="locality" />
		<tag k="ssr:stedsnr" v="158426" />
	</node>
	<node id="-882016" lat="63.3234416712" lon="10.8961416597">
		<tag k="name" v="Damtjønnkjølen" />
		<tag k="natural" v="wetland" />
		<tag k="ssr:stedsnr" v="340248" />
	</node>
	<node id="-882014" lat="63.3272805588" lon="10.7914833413">
		<tag k="name" v="Vollamarka" />
		<tag k="place" v="locality" />
		<tag k="ssr:stedsnr" v="886132" />
	</node>
	<node id="-882736" lat="63.3265250015" lon="10.8559249942">
		<tag k="name" v="Nonshaugkjølen" />
		<tag k="natural" v="wetland" />
		<tag k="ssr:stedsnr" v="764211" />
	</node>
	<node id="-882522" lat="63.3921166675" lon="10.7594500064">
		<tag k="name" v="Åskjølen" />
		<tag k="natural" v="wetland" />
		<tag k="ssr:stedsnr" v="195476" />
	</node>
	<node id="-882512" lat="63.3979277753" lon="10.7418138963">
		<tag k="name" v="Slættet" />
		<tag k="natural" v="wetland" />
		<tag k="ssr:stedsnr" v="886465" />
	</node>
	<node id="-882511" lat="63.4005583361" lon="10.720047226">
		<tag k="name" v="Stormyran" />
		<tag k="natural" v="wetland" />
		<tag k="ssr:stedsnr" v="157418" />
	</node>
	<node id="-882509" lat="63.3887249957" lon="10.7250666639">
		<tag k="name" v="Fjælbumyran" />
		<tag k="natural" v="wetland" />
		<tag k="ssr:stedsnr" v="886468" />
	</node>
	<node id="-882500" lat="63.331308332" lon="10.719991661">
		<tag k="name" v="Høystakkmyra" />
		<tag k="natural" v="wetland" />
		<tag k="ssr:stedsnr" v="461125" />
	</node>
	<node id="-881985" lat="63.3767694404" lon="10.7857055559">
		<tag k="name" v="Dølamyra" />
		<tag k="natural" v="wetland" />
		<tag k="ssr:stedsnr" v="462432" />
	</node>
	<node id="-881981" lat="63.3918444425" lon="10.6931027856">
		<tag k="name" v="Kollmyra" />
		<tag k="natural" v="wetland" />
		<tag k="ssr:stedsnr" v="461014" />
	</node>
	<node id="-881979" lat="63.3377694487" lon="10.8956472209">
		<tag k="name" v="Nygruvkjølen" />
		<tag k="natural" v="wetland" />
		<tag k="ssr:stedsnr" v="340250" />
	</node>
	<node id="-881978" lat="63.3227222215" lon="10.8657638875">
		<tag k="name" v="Tjurrumyra" />
		<tag k="natural" v="wetland" />
		<tag k="ssr:stedsnr" v="219230" />
	</node>
	<node id="-881975" lat="63.4100388888" lon="10.6639222161">
		<tag k="name" v="Hestsjømyra" />
		<tag k="natural" v="wetland" />
		<tag k="ssr:stedsnr" v="826433" />
	</node>
	<node id="-882482" lat="63.3971611076" lon="10.8154583345">
		<tag k="name" v="Mårstokkmyra" />
		<tag k="natural" v="wetland" />
		<tag k="ssr:stedsnr" v="74448" />
	</node>
	<node id="-881965" lat="63.3935805585" lon="10.8524750046">
		<tag k="name" v="Bjørnrommet" />
		<tag k="place" v="locality" />
		<tag k="ssr:stedsnr" v="340855" />
	</node>
	<node id="-881963" lat="63.3526388899" lon="10.6994138913">
		<tag k="name" v="Stavangermyra" />
		<tag k="natural" v="wetland" />
		<tag k="ssr:stedsnr" v="826845" />
	</node>
	<node id="-881957" lat="63.3801805532" lon="10.7986472143">
		<tag k="name" v="Turrumyra" />
		<tag k="natural" v="wetland" />
		<tag k="ssr:stedsnr" v="340441" />
	</node>
	<node id="-882689" lat="63.3872055531" lon="10.7962777724">
		<tag k="historic" v="shieling" />
		<tag k="name" v="Nygårdsvollen" />
		<tag k="place" v="locality" />
		<tag k="ssr:stedsnr" v="741520" />
	</node>
	<node id="-882464" lat="63.390005554" lon="10.7247527858">
		<tag k="name" v="Fjellbumyra" />
		<tag k="natural" v="wetland" />
		<tag k="ssr:stedsnr" v="74445" />
	</node>
	<node id="-881951" lat="63.40115" lon="10.7333138934">
		<tag k="name" v="Hallguttu" />
		<tag k="natural" v="wetland" />
		<tag k="ssr:stedsnr" v="825428" />
	</node>
	<node id="-882458" lat="63.3394888877" lon="10.8350805511">
		<tag k="name" v="Torvmyra" />
		<tag k="natural" v="wetland" />
		<tag k="ssr:stedsnr" v="219137" />
	</node>
	<node id="-882457" lat="63.3302583369" lon="10.7281166736">
		<tag k="name" v="Skomakermyran" />
		<tag k="natural" v="wetland" />
		<tag k="ssr:stedsnr" v="37166" />
	</node>
	<node id="-882456" lat="63.3278666667" lon="10.9283611077">
		<tag k="name" v="Skogmyra" />
		<tag k="natural" v="wetland" />
		<tag k="ssr:stedsnr" v="765815" />
	</node>
	<node id="-881796" lat="63.3736166662" lon="10.7389805465">
		<tag k="name" v="Linmyra" />
		<tag k="natural" v="wetland" />
		<tag k="ssr:stedsnr" v="98456" />
	</node>
	<node id="-882137" lat="63.3969388933" lon="10.8405861046">
		<tag k="name" v="Svensklægret" />
		<tag k="place" v="locality" />
		<tag k="ssr:stedsnr" v="37509" />
	</node>
	<node id="-882450" lat="63.3718500022" lon="10.7318638971">
		<tag k="name" v="Hestholet" />
		<tag k="natural" v="wetland" />
		<tag k="ssr:stedsnr" v="887448" />
	</node>
	<node id="-881935" lat="63.406358331" lon="10.8492722279">
		<tag k="name" v="Langmyrin" />
		<tag k="natural" v="wetland" />
		<tag k="ssr:stedsnr" v="340228" />
	</node>
	<node id="-882446" lat="63.3340388931" lon="10.7632750002">
		<tag k="name" v="Langvikmarka" />
		<tag k="place" v="locality" />
		<tag k="ssr:stedsnr" v="802399" />
	</node>
	<node id="-882444" lat="63.3832833352" lon="10.6585388805">
		<tag k="name" v="Litletesmyra" />
		<tag k="natural" v="wetland" />
		<tag k="ssr:stedsnr" v="704347" />
	</node>
	<node id="-882631" lat="63.3159888851" lon="10.8930972288">
		<tag k="name" v="Hokjølen" />
		<tag k="natural" v="wetland" />
		<tag k="ssr:stedsnr" v="680402" />
	</node>
	<node id="-882437" lat="63.3290638852" lon="10.705800002">
		<tag k="name" v="Stuggumyra" />
		<tag k="natural" v="wetland" />
		<tag k="ssr:stedsnr" v="522192" />
	</node>
	<node id="-882433" lat="63.3830999995" lon="10.676394447">
		<tag k="name" v="Raudmyra" />
		<tag k="natural" v="wetland" />
		<tag k="ssr:stedsnr" v="522396" />
	</node>
	<node id="-882432" lat="63.3954499965" lon="10.6293027748">
		<tag k="name" v="Vasselmyran" />
		<tag k="natural" v="wetland" />
		<tag k="ssr:stedsnr" v="158013" />
	</node>
	<node id="-882430" lat="63.3172833329" lon="10.7481638952">
		<tag k="name" v="Heinfjordmyra" />
		<tag k="natural" v="wetland" />
		<tag k="ssr:stedsnr" v="340137" />
	</node>
	<node id="-882428" lat="63.4128722261" lon="10.75710001">
		<tag k="name" v="Raudmyra" />
		<tag k="natural" v="wetland" />
		<tag k="ssr:stedsnr" v="37365" />
	</node>
	<node id="-881915" lat="63.3624611094" lon="10.6601611027">
		<tag k="name" v="Strindkjølen" />
		<tag k="natural" v="wetland" />
		<tag k="ssr:stedsnr" v="340845" />
	</node>
	<node id="-881912" lat="63.3626166645" lon="10.7012861072">
		<tag k="name" v="Tøftmyra" />
		<tag k="natural" v="wetland" />
		<tag k="ssr:stedsnr" v="462860" />
	</node>
	<node id="-882423" lat="63.4216027737" lon="10.8382250075">
		<tag k="name" v="Skogsolmyra" />
		<tag k="natural" v="wetland" />
		<tag k="ssr:stedsnr" v="401137" />
	</node>
	<node id="-882419" lat="63.3240777773" lon="10.8439388926">
		<tag k="name" v="Litlflåkåmyra" />
		<tag k="natural" v="wetland" />
		<tag k="ssr:stedsnr" v="765140" />
	</node>
	<node id="-882417" lat="63.3766388878" lon="10.7983805459">
		<tag k="name" v="Telgåsmyra" />
		<tag k="natural" v="wetland" />
		<tag k="ssr:stedsnr" v="582360" />
	</node>
	<node id="-882415" lat="63.4253722243" lon="10.7707916638">
		<tag k="name" v="M. Roten" />
		<tag k="place" v="locality" />
		<tag k="ssr:stedsnr" v="826115" />
	</node>
	<node id="-882411" lat="63.3386333294" lon="10.7608416618">
		<tag k="name" v="Trollholmyra" />
		<tag k="natural" v="wetland" />
		<tag k="ssr:stedsnr" v="461115" />
	</node>
	<node id="-882408" lat="63.3329694415" lon="10.7640888893">
		<tag k="name" v="Midtikjølen" />
		<tag k="natural" v="wetland" />
		<tag k="ssr:stedsnr" v="947113" />
	</node>
	<node id="-882403" lat="63.3194916686" lon="10.732783324">
		<tag k="name" v="Glasmakermyra" />
		<tag k="natural" v="wetland" />
		<tag k="ssr:stedsnr" v="765138" />
	</node>
	<node id="-882398" lat="63.3279805564" lon="10.8351333331">
		<tag k="name" v="Brannen" />
		<tag k="place" v="locality" />
		<tag k="ssr:stedsnr" v="340144" />
	</node>
	<node id="-881884" lat="63.4053944434" lon="10.6749583402">
		<tag k="historic" v="shieling" />
		<tag k="name" v="Stuggurommet" />
		<tag k="place" v="locality" />
		<tag k="ssr:stedsnr" v="704018" />
	</node>
	<node id="-881786" lat="63.3349249977" lon="10.7924583307">
		<tag k="name" v="Foldsjødalsmyra" />
		<tag k="natural" v="wetland" />
		<tag k="ssr:stedsnr" v="279137" />
	</node>
	<node id="-881881" lat="63.3819222209" lon="10.7481638981">
		<tag k="name" v="Tjurrumyra" />
		<tag k="natural" v="wetland" />
		<tag k="ssr:stedsnr" v="340428" />
	</node>
	<node id="-881878" lat="63.3782777775" lon="10.7509583429">
		<tag k="name" v="Gørrtjønnmyrin" />
		<tag k="natural" v="wetland" />
		<tag k="ssr:stedsnr" v="37451" />
	</node>
	<node id="-882389" lat="63.3208472178" lon="10.7906499956">
		<tag k="name" v="Kårstadmyra" />
		<tag k="natural" v="wetland" />
		<tag k="ssr:stedsnr" v="522176" />
	</node>
	<node id="-881876" lat="63.4119277771" lon="10.612175">
		<tag k="name" v="Lægden" />
		<tag k="place" v="locality" />
		<tag k="ssr:stedsnr" v="279339" />
	</node>
	<node id="-881871" lat="63.3852333312" lon="10.7496861127">
		<tag k="name" v="Geittjønnmyra" />
		<tag k="natural" v="wetland" />
		<tag k="ssr:stedsnr" v="37446" />
	</node>
	<node id="-881869" lat="63.3507277782" lon="10.8157888894">
		<tag k="name" v="Bjørnmyra" />
		<tag k="natural" v="wetland" />
		<tag k="ssr:stedsnr" v="947197" />
	</node>
	<node id="-881865" lat="63.3722583374" lon="10.8237666622">
		<tag k="name" v="Kleivmyran" />
		<tag k="natural" v="wetland" />
		<tag k="ssr:stedsnr" v="255389" />
	</node>
	<node id="-881863" lat="63.3748249957" lon="10.796894443">
		<tag k="name" v="Torvmyra" />
		<tag k="natural" v="wetland" />
		<tag k="ssr:stedsnr" v="583457" />
	</node>
	<node id="-882363" lat="63.3437138916" lon="10.7230861153">
		<tag k="historic" v="shieling" />
		<tag k="name" v="Bostadvollen" />
		<tag k="place" v="locality" />
		<tag k="ssr:stedsnr" v="400142" />
	</node>
	<node id="-881845" lat="63.3834666678" lon="10.7439638845">
		<tag k="name" v="Geittjønnmyrrvin" />
		<tag k="natural" v="wetland" />
		<tag k="ssr:stedsnr" v="98458" />
	</node>
	<node id="-882718" lat="63.316538887" lon="10.8258333332">
		<tag k="name" v="Torvmyra" />
		<tag k="natural" v="wetland" />
		<tag k="ssr:stedsnr" v="826173" />
	</node>
	<node id="-882349" lat="63.3226333324" lon="10.7308694457">
		<tag k="name" v="Værgmyran" />
		<tag k="natural" v="wetland" />
		<tag k="ssr:stedsnr" v="461103" />
	</node>
	<node id="-882347" lat="63.3893777795" lon="10.7002194529">
		<tag k="name" v="Torvmyra" />
		<tag k="natural" v="wetland" />
		<tag k="ssr:stedsnr" v="741625" />
	</node>
	<node id="-882345" lat="63.3195805541" lon="10.747708328">
		<tag k="name" v="Storfinnmyra" />
		<tag k="natural" v="wetland" />
		<tag k="ssr:stedsnr" v="340132" />
	</node>
	<node id="-882342" lat="63.3749944459" lon="10.6581972221">
		<tag k="name" v="Fuggelleikmyra" />
		<tag k="natural" v="wetland" />
		<tag k="ssr:stedsnr" v="158397" />
	</node>
	<node id="-881828" lat="63.3428249989" lon="10.8485527862">
		<tag k="name" v="Snustadslættet" />
		<tag k="natural" v="wetland" />
		<tag k="ssr:stedsnr" v="704213" />
	</node>
	<node id="-881825" lat="63.4188500032" lon="10.7077111048">
		<tag k="name" v="Stormyra" />
		<tag k="natural" v="wetland" />
		<tag k="ssr:stedsnr" v="219406" />
	</node>
	<node id="-882333" lat="63.3405555598" lon="10.7462472244">
		<tag k="name" v="Slåttdalsmyra" />
		<tag k="natural" v="wetland" />
		<tag k="ssr:stedsnr" v="401113" />
	</node>
	<node id="-881946" lat="63.3772527808" lon="10.6515750072">
		<tag k="name" v="Saligtjønnmyrin" />
		<tag k="natural" v="wetland" />
		<tag k="ssr:stedsnr" v="583469" />
	</node>
	<node id="-881817" lat="63.4289222203" lon="10.8498722238">
		<tag k="historic" v="shieling" />
		<tag k="name" v="Hommelvikvollen" />
		<tag k="place" v="locality" />
		<tag k="ssr:stedsnr" v="704828" />
	</node>
	<node id="-881814" lat="63.3830972182" lon="10.7039694403">
		<tag k="name" v="Hølbekkmyra" />
		<tag k="natural" v="wetland" />
		<tag k="ssr:stedsnr" v="462387" />
	</node>
	<node id="-881945" lat="63.3627611069" lon="10.7214472192">
		<tag k="name" v="Skaugkjølen" />
		<tag k="natural" v="wetland" />
		<tag k="ssr:stedsnr" v="279153" />
	</node>
	<node id="-881812" lat="63.3604638899" lon="10.8091472238">
		<tag k="name" v="Rotlandskjølen" />
		<tag k="natural" v="wetland" />
		<tag k="ssr:stedsnr" v="947208" />
	</node>
	<node id="-881810" lat="63.3208833368" lon="10.8661944394">
		<tag k="name" v="Andersmyra" />
		<tag k="natural" v="wetland" />
		<tag k="ssr:stedsnr" v="583878" />
	</node>
	<node id="-882321" lat="63.3797805556" lon="10.6497527797">
		<tag k="alt_name" v="Herjumyran" />
		<tag k="name" v="Herjukjølen" />
		<tag k="natural" v="wetland" />
		<tag k="ssr:stedsnr" v="680609" />
	</node>
	<node id="-881808" lat="63.4082416652" lon="10.6808583391">
		<tag k="name" v="Raudmyra" />
		<tag k="natural" v="wetland" />
		<tag k="ssr:stedsnr" v="37437" />
	</node>
	<node id="-881806" lat="63.3827027759" lon="10.6301638811">
		<tag k="historic" v="shieling" />
		<tag k="name" v="Lisbetvollen" />
		<tag k="place" v="locality" />
		<tag k="ssr:stedsnr" v="704434" />
	</node>
	<node id="-882317" lat="63.3073138916" lon="10.8163666649">
		<tag k="name" v="Kløftmyra" />
		<tag k="natural" v="wetland" />
		<tag k="ssr:stedsnr" v="97152" />
	</node>
	<node id="-882315" lat="63.3193861137" lon="10.821533338">
		<tag k="name" v="Gruvmyra" />
		<tag k="natural" v="wetland" />
		<tag k="ssr:stedsnr" v="97151" />
	</node>
	<node id="-882314" lat="63.3069361099" lon="10.8056138976">
		<tag k="historic" v="shieling" />
		<tag k="name" v="Vikavollen" />
		<tag k="place" v="locality" />
		<tag k="ssr:stedsnr" v="36133" />
	</node>
	<node id="-882312" lat="63.3174861139" lon="10.8182527815">
		<tag k="name" v="Gaddmyra" />
		<tag k="natural" v="wetland" />
		<tag k="ssr:stedsnr" v="522166" />
	</node>
	<node id="-882308" lat="63.3997944445" lon="10.7264305618">
		<tag k="name" v="Langsetermyra" />
		<tag k="natural" v="wetland" />
		<tag k="ssr:stedsnr" v="703485" />
	</node>
	<node id="-882305" lat="63.3754750038" lon="10.6489194433">
		<tag k="name" v="Fuggelleikmyra" />
		<tag k="natural" v="wetland" />
		<tag k="ssr:stedsnr" v="280474" />
	</node>
	<node id="-881792" lat="63.3365388897" lon="10.8642166638">
		<tag k="name" v="Tydalshogstret" />
		<tag k="place" v="locality" />
		<tag k="ssr:stedsnr" v="704233" />
	</node>
	<node id="-882303" lat="63.3128055551" lon="10.8272138943">
		<tag k="name" v="Steinkleivkjølen" />
		<tag k="natural" v="wetland" />
		<tag k="ssr:stedsnr" v="36128" />
	</node>
	<node id="-882302" lat="63.4143722193" lon="10.7787999942">
		<tag k="name" v="N. Svedal" />
		<tag k="place" v="locality" />
		<tag k="ssr:stedsnr" v="219098" />
	</node>
	<node id="-881941" lat="63.4072305594" lon="10.8260194473">
		<tag k="name" v="Sveian" />
		<tag k="place" v="locality" />
		<tag k="ssr:stedsnr" v="765474" />
	</node>
	<node id="-882298" lat="63.4353999988" lon="10.6974166765">
		<tag k="name" v="Torpmarka" />
		<tag k="place" v="locality" />
		<tag k="ssr:stedsnr" v="13699" />
	</node>
	<node id="-882297" lat="63.3315805518" lon="10.7574388971">
		<tag k="name" v="Husmannsmyra" />
		<tag k="natural" v="wetland" />
		<tag k="ssr:stedsnr" v="765115" />
	</node>
	<node id="-881782" lat="63.3073916693" lon="10.7880277835">
		<tag k="name" v="Vollakjølen" />
		<tag k="natural" v="wetland" />
		<tag k="ssr:stedsnr" v="74348" />
	</node>
	<node id="-882110" lat="63.3383527757" lon="10.7641555522">
		<tag k="name" v="Gjeldmannsmyra" />
		<tag k="natural" v="wetland" />
		<tag k="ssr:stedsnr" v="36087" />
	</node>
	<node id="-882287" lat="63.3121749972" lon="10.8172388849">
		<tag k="name" v="Langmyra" />
		<tag k="natural" v="wetland" />
		<tag k="ssr:stedsnr" v="522170" />
	</node>
	<node id="-882286" lat="63.3398250018" lon="10.8798277788">
		<tag k="name" v="Stakk-kjølen" />
		<tag k="natural" v="wetland" />
		<tag k="ssr:stedsnr" v="279247" />
	</node>
	<node id="-882281" lat="63.3581916631" lon="10.7782111011">
		<tag k="name" v="Håmmårsmedplassen" />
		<tag k="place" v="locality" />
		<tag k="ssr:stedsnr" v="158390" />
	</node>
	<node id="-881768" lat="63.327563891" lon="10.8676444392">
		<tag k="name" v="Nonshauggruva" />
		<tag k="place" v="locality" />
		<tag k="ssr:stedsnr" v="97233" />
	</node>
	<node id="-881764" lat="63.4198472184" lon="10.6201527831">
		<tag k="name" v="Bjørnstadmyra" />
		<tag k="natural" v="wetland" />
		<tag k="ssr:stedsnr" v="340002" />
	</node>
	<node id="-882273" lat="63.3266888848" lon="10.8208583271">
		<tag k="name" v="Kattåsmyra" />
		<tag k="natural" v="wetland" />
		<tag k="ssr:stedsnr" v="704141" />
	</node>
	<node id="-882269" lat="63.3210138929" lon="10.74792777">
		<tag k="name" v="Litlfinnmyra" />
		<tag k="natural" v="wetland" />
		<tag k="ssr:stedsnr" v="582125" />
	</node>
	<node id="-881785" lat="63.3444972196" lon="10.854269446">
		<tag k="name" v="Tikkmyra" />
		<tag k="natural" v="wetland" />
		<tag k="ssr:stedsnr" v="97230" />
	</node>
	<node id="-882264" lat="63.4064888909" lon="10.820072214">
		<tag k="name" v="Kolbotn" />
		<tag k="place" v="locality" />
		<tag k="ssr:stedsnr" v="643467" />
	</node>
	<node id="-882263" lat="63.3178694421" lon="10.724063897">
		<tag k="name" v="Fosslivollkjølen" />
		<tag k="natural" v="wetland" />
		<tag k="ssr:stedsnr" v="704136" />
	</node>
	<node id="-882261" lat="63.3249833373" lon="10.8110555479">
		<tag k="name" v="Vikagjardet" />
		<tag k="place" v="locality" />
		<tag k="ssr:stedsnr" v="158382" />
	</node>
	<node id="-882260" lat="63.3316055563" lon="10.7909333297">
		<tag k="name" v="Sneismarka" />
		<tag k="place" v="locality" />
		<tag k="ssr:stedsnr" v="158175" />
	</node>
	<node id="-882259" lat="63.3299944436" lon="10.8686944486">
		<tag k="name" v="Langstrupan" />
		<tag k="place" v="locality" />
		<tag k="ssr:stedsnr" v="886225" />
	</node>
	<node id="-882258" lat="63.3242722178" lon="10.7518027824">
		<tag k="name" v="Gaddmyra" />
		<tag k="natural" v="wetland" />
		<tag k="ssr:stedsnr" v="947108" />
	</node>
	<node id="-882254" lat="63.3214444453" lon="10.7821694372">
		<tag k="name" v="Gullmundsmyra" />
		<tag k="natural" v="wetland" />
		<tag k="ssr:stedsnr" v="158176" />
	</node>
	<node id="-881761" lat="63.3300444459" lon="10.8629666681">
		<tag k="name" v="Halleran" />
		<tag k="place" v="locality" />
		<tag k="ssr:stedsnr" v="36211" />
	</node>
	<node id="-882241" lat="63.3439916626" lon="10.8478555519">
		<tag k="name" v="Stormyra" />
		<tag k="natural" v="wetland" />
		<tag k="ssr:stedsnr" v="741477" />
	</node>
	<node id="-882750" lat="63.3787472234" lon="10.7108305586">
		<tag k="historic" v="shieling" />
		<tag k="name" v="Engansetra" />
		<tag k="place" v="locality" />
		<tag k="ssr:stedsnr" v="401394" />
	</node>
	<node id="-882749" lat="63.3705361149" lon="10.8498722303">
		<tag k="name" v="Aunhaugkjølen" />
		<tag k="natural" v="wetland" />
		<tag k="ssr:stedsnr" v="97224" />
	</node>
	<node id="-882748" lat="63.3483277797" lon="10.8202555459">
		<tag k="name" v="Stordalsmyra" />
		<tag k="natural" v="wetland" />
		<tag k="ssr:stedsnr" v="219180" />
	</node>
	<node id="-882745" lat="63.3397583335" lon="10.7403583401">
		<tag k="name" v="Blåfløya" />
		<tag k="place" v="locality" />
		<tag k="ssr:stedsnr" v="643126" />
	</node>
	<node id="-882224" lat="63.3876472202" lon="10.6185666757">
		<tag k="name" v="Vasselkjølen" />
		<tag k="natural" v="wetland" />
		<tag k="ssr:stedsnr" v="886012" />
	</node>
	<node id="-882223" lat="63.355647219" lon="10.7110999914">
		<tag k="name" v="Solemsmyra" />
		<tag k="natural" v="wetland" />
		<tag k="ssr:stedsnr" v="947869" />
	</node>
	<node id="-882098" lat="63.3275388861" lon="10.8745111206">
		<tag k="name" v="Nonshaugholet" />
		<tag k="place" v="locality" />
		<tag k="ssr:stedsnr" v="947238" />
	</node>
	<node id="-882214" lat="63.3392666654" lon="10.7181555532">
		<tag k="name" v="Naustvollkjølan" />
		<tag k="natural" v="wetland" />
		<tag k="ssr:stedsnr" v="522134" />
	</node>
	<node id="-882724" lat="63.3458361081" lon="10.8175500034">
		<tag k="name" v="Raudkjølen" />
		<tag k="natural" v="wetland" />
		<tag k="ssr:stedsnr" v="582209" />
	</node>
	<node id="-882723" lat="63.3356305559" lon="10.8196277832">
		<tag k="name" v="Mostadmarka" />
		<tag k="place" v="locality" />
		<tag k="ssr:stedsnr" v="438332" />
	</node>
	<node id="-882206" lat="63.4254583337" lon="10.7505861139">
		<tag k="name" v="Bjørnmyra" />
		<tag k="natural" v="wetland" />
		<tag k="ssr:stedsnr" v="37106" />
	</node>
	<node id="-882693" lat="63.4068500008" lon="10.7854499986">
		<tag k="name" v="Nydammen" />
		<tag k="natural" v="wetland" />
		<tag k="ssr:stedsnr" v="117411" />
	</node>
	<node id="-882716" lat="63.3252666641" lon="10.6972611019">
		<tag k="name" v="Malvikvollmyra" />
		<tag k="natural" v="wetland" />
		<tag k="ssr:stedsnr" v="219185" />
	</node>
	<node id="-882714" lat="63.3783472255" lon="10.6809000036">
		<tag k="name" v="Kutjønnmyran" />
		<tag k="natural" v="wetland" />
		<tag k="ssr:stedsnr" v="340396" />
	</node>
	<node id="-882712" lat="63.3674305516" lon="10.6596111027">
		<tag k="name" v="Svarttjønnmyrin" />
		<tag k="natural" v="wetland" />
		<tag k="ssr:stedsnr" v="826384" />
	</node>
	<node id="-882709" lat="63.3240027812" lon="10.8596638806">
		<tag k="name" v="Hårråmyra" />
		<tag k="natural" v="wetland" />
		<tag k="ssr:stedsnr" v="158263" />
	</node>
	<node id="-882192" lat="63.3917500035" lon="10.8086222272">
		<tag k="name" v="Bjørnlimyra" />
		<tag k="natural" v="wetland" />
		<tag k="ssr:stedsnr" v="219481" />
	</node>
	<node id="-882184" lat="63.348461108" lon="10.7039527745">
		<tag k="name" v="Kleivmyra" />
		<tag k="natural" v="wetland" />
		<tag k="ssr:stedsnr" v="947865" />
	</node>
	<node id="-882183" lat="63.3183083351" lon="10.7404638933">
		<tag k="name" v="Høgmyra" />
		<tag k="natural" v="wetland" />
		<tag k="ssr:stedsnr" v="158163" />
	</node>
	<node id="-882181" lat="63.3993888851" lon="10.797938883">
		<tag k="name" v="Smuttu" />
		<tag k="place" v="locality" />
		<tag k="ssr:stedsnr" v="219484" />
	</node>
	<node id="-882180" lat="63.3236999962" lon="10.924241666">
		<tag k="name" v="Bjørnkjølen" />
		<tag k="natural" v="wetland" />
		<tag k="ssr:stedsnr" v="887835" />
	</node>
	<node id="-882177" lat="63.3721722243" lon="10.7200083351">
		<tag k="name" v="Lokmyra" />
		<tag k="natural" v="wetland" />
		<tag k="ssr:stedsnr" v="643419" />
	</node>
</osm>
