<?xml version="1.0" encoding="UTF-8"?>
<<<<<<< HEAD
<osm version="0.6" generator="osmapis">
	<node lat="63.42698939677794" lon="10.858628619674453" id="-32953">
		<tag k="alt_name" v="Storheia" />
		<tag k="fixme" v="consider natural=peak for the most distinct mountains in the district" />
		<tag k="name" v="Hommelvikheia" />
		<tag k="natural" v="hill" />
		<tag k="place" v="locality" />
		<tag k="ssr:stedsnr" v="13002" />
	</node>
	<node lat="63.403272219904366" lon="10.842336101064216" id="-32957">
		<tag k="name" v="Brennberga" />
		<tag k="natural" v="hill" />
		<tag k="place" v="locality" />
		<tag k="ssr:stedsnr" v="13076" />
	</node>
	<node lat="63.34607777432676" lon="10.79203055607065" id="-32959">
		<tag k="name" v="Litjkleivdalen" />
		<tag k="natural" v="valley" />
		<tag k="place" v="locality" />
		<tag k="ssr:stedsnr" v="13470" />
	</node>
	<node lat="63.3377888843917" lon="10.696194450559629" id="-32963">
		<tag k="fixme" v="consider natural=peak for the most distinct mountains in the district" />
		<tag k="name" v="Jervfjellet" />
		<tag k="natural" v="hill" />
		<tag k="place" v="locality" />
		<tag k="ssr:stedsnr" v="13904" />
	</node>
	<node lat="63.33833333719012" lon="10.808919437290221" id="-32965">
		<tag k="name" v="Purktjønnberget" />
		<tag k="natural" v="hill" />
		<tag k="place" v="locality" />
		<tag k="ssr:stedsnr" v="36114" />
	</node>
	<node lat="63.393202778122706" lon="10.622008340525637" id="-32967">
		<tag k="name" v="Vasselberga" />
		<tag k="natural" v="hill" />
		<tag k="place" v="locality" />
		<tag k="ssr:stedsnr" v="36316" />
	</node>
	<node lat="63.424125003011525" lon="10.649736101602766" id="-32970">
		<tag k="fixme" v="consider natural=peak for the most distinct mountains in the district" />
		<tag k="name" v="Leistadåsen" />
		<tag k="natural" v="hill" />
		<tag k="place" v="locality" />
		<tag k="ssr:stedsnr" v="37014" />
	</node>
	<node lat="63.418269443458684" lon="10.832424997822983" id="-32974">
		<tag k="name" v="Hågenstadberga" />
		<tag k="natural" v="hill" />
		<tag k="place" v="locality" />
		<tag k="ssr:stedsnr" v="37159" />
	</node>
	<node lat="63.39844166947401" lon="10.649002777568604" id="-32990">
		<tag k="fixme" v="consider natural=peak for the most distinct mountains in the district" />
		<tag k="name" v="Buåsen" />
		<tag k="natural" v="hill" />
		<tag k="place" v="locality" />
		<tag k="ssr:stedsnr" v="74562" />
	</node>
	<node lat="63.42191944371691" lon="10.599922229745172" id="-32992">
		<tag k="fixme" v="consider natural=peak for the most distinct mountains in the district" />
		<tag k="name" v="Skarpåsen" />
		<tag k="natural" v="hill" />
		<tag k="place" v="locality" />
		<tag k="ssr:stedsnr" v="97005" />
	</node>
	<node lat="63.37723889222193" lon="10.693638883301308" id="-32995">
		<tag k="name" v="Fjølstadvollkjølan" />
		<tag k="natural" v="ridge" />
		<tag k="place" v="locality" />
		<tag k="ssr:stedsnr" v="98414" />
	</node>
	<node lat="63.38154722356229" lon="10.73298611822664" id="-32996">
		<tag k="name" v="Skarpåskjølen" />
		<tag k="natural" v="ridge" />
		<tag k="place" v="locality" />
		<tag k="ssr:stedsnr" v="98462" />
	</node>
	<node lat="63.36796389149071" lon="10.795038891174991" id="-32997">
		<tag k="name" v="Langdalen" />
		<tag k="natural" v="valley" />
		<tag k="place" v="locality" />
		<tag k="ssr:stedsnr" v="98463" />
	</node>
	<node lat="63.38359444039803" lon="10.792458337880598" id="-32998">
		<tag k="name" v="Litlsletta" />
		<tag k="place" v="locality" />
		<tag k="ssr:stedsnr" v="98467" />
	</node>
	<node lat="63.370377776176554" lon="10.712533331913308" id="-32999">
		<tag k="name" v="Litltøftin" />
		<tag k="natural" v="hill" />
		<tag k="place" v="locality" />
		<tag k="ssr:stedsnr" v="98475" />
	</node>
	<node lat="63.36348611253812" lon="10.74482778661335" id="-33000">
		<tag k="name" v="Raudkjølen" />
		<tag k="place" v="locality" />
		<tag k="ssr:stedsnr" v="98365" />
	</node>
	<node lat="63.376513892742075" lon="10.671286113513947" id="-33002">
		<tag k="name" v="Skjeltjønnkjølen" />
		<tag k="natural" v="ridge" />
		<tag k="place" v="locality" />
		<tag k="ssr:stedsnr" v="98370" />
	</node>
	<node lat="63.369491666943844" lon="10.67631667548506" id="-33003">
		<tag k="fixme" v="consider natural=peak for the most distinct mountains in the district" />
		<tag k="name" v="Littelbrannan" />
		<tag k="natural" v="hill" />
		<tag k="place" v="locality" />
		<tag k="ssr:stedsnr" v="98372" />
	</node>
	<node lat="63.346497221642736" lon="10.712122222747187" id="-33004">
		<tag k="fixme" v="consider natural=peak for the most distinct mountains in the district" />
		<tag k="name" v="Fururyin" />
		<tag k="natural" v="hill" />
		<tag k="place" v="locality" />
		<tag k="ssr:stedsnr" v="98873" />
	</node>
	<node lat="63.326649996745545" lon="10.866994444921106" id="-33007">
		<tag k="name" v="Nonshaugen" />
		<tag k="natural" v="hill" />
		<tag k="place" v="locality" />
		<tag k="ssr:stedsnr" v="134362" />
	</node>
	<node lat="63.3452249965584" lon="10.851172220496347" id="-33013">
		<tag k="name" v="Rundhaugen" />
		<tag k="natural" v="hill" />
		<tag k="place" v="locality" />
		<tag k="ssr:stedsnr" v="255398" />
	</node>
	<node lat="63.423449997873675" lon="10.758938886725456" id="-33015">
		<tag k="name" v="Svingberget" />
		<tag k="natural" v="hill" />
		<tag k="place" v="locality" />
		<tag k="ssr:stedsnr" v="256023" />
	</node>
	<node lat="63.31714166886228" lon="10.742397225110002" id="-33023">
		<tag k="name" v="Heinfjordrya" />
		<tag k="natural" v="hill" />
		<tag k="place" v="locality" />
		<tag k="ssr:stedsnr" v="158162" />
	</node>
	<node lat="63.330513890346154" lon="10.687875005418926" id="-33027">
		<tag k="name" v="Gråberga" />
		<tag k="natural" v="hill" />
		<tag k="place" v="locality" />
		<tag k="ssr:stedsnr" v="158219" />
	</node>
	<node lat="63.33764722255915" lon="10.69485555242931" id="-33028">
		<tag k="fixme" v="consider natural=peak for the most distinct mountains in the district" />
		<tag k="name" v="Trulsen" />
		<tag k="natural" v="hill" />
		<tag k="place" v="locality" />
		<tag k="ssr:stedsnr" v="158220" />
	</node>
	<node lat="63.37800278084713" lon="10.69651666403257" id="-33031">
		<tag k="fixme" v="consider natural=peak for the most distinct mountains in the district" />
		<tag k="name" v="Fjølstadvollåsan" />
		<tag k="natural" v="hill" />
		<tag k="place" v="locality" />
		<tag k="ssr:stedsnr" v="158408" />
	</node>
	<node lat="63.38107221992475" lon="10.670200006103013" id="-33032">
		<tag k="name" v="Hyllvasskjølen" />
		<tag k="natural" v="ridge" />
		<tag k="place" v="locality" />
		<tag k="ssr:stedsnr" v="158413" />
	</node>
	<node lat="63.414633333879785" lon="10.715602787260105" id="-33033">
		<tag k="name" v="Gullberget" />
		<tag k="natural" v="hill" />
		<tag k="place" v="locality" />
		<tag k="ssr:stedsnr" v="158416" />
	</node>
	<node lat="63.40921666373027" lon="10.676191668403304" id="-33034">
		<tag k="name" v="Bølden" />
		<tag k="natural" v="hill" />
		<tag k="place" v="locality" />
		<tag k="ssr:stedsnr" v="158419" />
	</node>
	<node lat="63.37440000087969" lon="10.763850009311133" id="-33035">
		<tag k="name" v="Fisktjønndalen" />
		<tag k="natural" v="valley" />
		<tag k="place" v="locality" />
		<tag k="ssr:stedsnr" v="158448" />
	</node>
	<node lat="63.36096666426924" lon="10.70702221521247" id="-33036">
		<tag k="name" v="Høgløftin" />
		<tag k="natural" v="hill" />
		<tag k="place" v="locality" />
		<tag k="ssr:stedsnr" v="158859" />
	</node>
	<node lat="63.43879721911842" lon="10.676544439910815" id="-33037">
		<tag k="name" v="Haugsberget" />
		<tag k="natural" v="hill" />
		<tag k="place" v="locality" />
		<tag k="ssr:stedsnr" v="165820" />
	</node>
	<node lat="63.33807499726545" lon="10.695494438565293" id="-33038">
		<tag k="fixme" v="consider natural=peak for the most distinct mountains in the district" />
		<tag k="name" v="Gjervfjellet" />
		<tag k="natural" v="hill" />
		<tag k="place" v="locality" />
		<tag k="ssr:stedsnr" v="172360" />
	</node>
	<node lat="65.11002777597567" lon="13.085422216082504" id="-33044">
		<tag k="fixme" v="consider natural=peak for the most distinct mountains in the district" />
		<tag k="name" v="Kløftfjellet - Sloeptjenguevtele" />
		<tag k="name:no" v="Kløftfjellet" />
		<tag k="name:sma" v="Sloeptjenguevtele" />
		<tag k="natural" v="hill" />
		<tag k="place" v="locality" />
		<tag k="ssr:stedsnr" v="196523" />
	</node>
	<node lat="63.4032305582171" lon="10.70748055309213" id="-33046">
		<tag k="name" v="Storkjølen" />
		<tag k="natural" v="ridge" />
		<tag k="place" v="locality" />
		<tag k="ssr:stedsnr" v="219023" />
	</node>
	<node lat="63.42485833084743" lon="10.814227777819582" id="-33047">
		<tag k="fixme" v="consider natural=peak for the most distinct mountains in the district" />
		<tag k="name" v="Langåsen" />
		<tag k="natural" v="hill" />
		<tag k="place" v="locality" />
		<tag k="ssr:stedsnr" v="219128" />
	</node>
	<node lat="63.3181722264511" lon="10.703611112896018" id="-33050">
		<tag k="fixme" v="consider natural=peak for the most distinct mountains in the district" />
		<tag k="name" v="Malvikpynten" />
		<tag k="natural" v="hill" />
		<tag k="place" v="locality" />
		<tag k="ssr:stedsnr" v="219372" />
	</node>
	<node lat="63.32937222112118" lon="10.853483326211768" id="-33052">
		<tag k="fixme" v="consider natural=peak for the most distinct mountains in the district" />
		<tag k="name" v="Svennslettåsan" />
		<tag k="natural" v="hill" />
		<tag k="place" v="locality" />
		<tag k="ssr:stedsnr" v="219226" />
	</node>
	<node lat="63.37491389082167" lon="10.785580551659141" id="-33054">
		<tag k="name" v="Storfossberga" />
		<tag k="natural" v="hill" />
		<tag k="place" v="locality" />
		<tag k="ssr:stedsnr" v="219437" />
	</node>
	<node lat="63.35478888964069" lon="10.783397219070215" id="-33057">
		<tag k="name" v="Karlstad" />
		<tag k="place" v="locality" />
		<tag k="ssr:stedsnr" v="451141" />
	</node>
	<node lat="63.38856111420294" lon="10.705786112603006" id="-33063">
		<tag k="fixme" v="consider natural=peak for the most distinct mountains in the district" />
		<tag k="name" v="Kvistingskleiva" />
		<tag k="natural" v="hill" />
		<tag k="place" v="locality" />
		<tag k="ssr:stedsnr" v="279024" />
	</node>
	<node lat="63.41067222597577" lon="10.828974996785654" id="-33064">
		<tag k="name" v="Svartløftberga" />
		<tag k="natural" v="hill" />
		<tag k="place" v="locality" />
		<tag k="ssr:stedsnr" v="279106" />
	</node>
	<node lat="63.32499721879447" lon="10.828097213101048" id="-33067">
		<tag k="fixme" v="consider natural=peak for the most distinct mountains in the district" />
		<tag k="name" v="Kattåsen" />
		<tag k="natural" v="hill" />
		<tag k="place" v="locality" />
		<tag k="ssr:stedsnr" v="279130" />
	</node>
	<node lat="63.354886110461145" lon="10.78919166004563" id="-33069">
		<tag k="name" v="Torstjønndalen" />
		<tag k="natural" v="valley" />
		<tag k="place" v="locality" />
		<tag k="ssr:stedsnr" v="279221" />
	</node>
	<node lat="63.409969448412035" lon="10.707755552867967" id="-33072">
		<tag k="fixme" v="consider natural=peak for the most distinct mountains in the district" />
		<tag k="name" v="Fossmyråsen" />
		<tag k="natural" v="hill" />
		<tag k="place" v="locality" />
		<tag k="ssr:stedsnr" v="280410" />
	</node>
	<node lat="63.391419447453956" lon="10.832502784637702" id="-33074">
		<tag k="name" v="Høylandsdalen" />
		<tag k="natural" v="valley" />
		<tag k="place" v="locality" />
		<tag k="ssr:stedsnr" v="280510" />
	</node>
	<node lat="63.33469444883311" lon="10.801822219477721" id="-33081">
		<tag k="name" v="Sneisberget" />
		<tag k="natural" v="hill" />
		<tag k="place" v="locality" />
		<tag k="ssr:stedsnr" v="461143" />
	</node>
	<node lat="63.31985555583004" lon="10.82859721539226" id="-33083">
		<tag k="name" v="Kvernhusdalen" />
		<tag k="natural" v="valley" />
		<tag k="place" v="locality" />
		<tag k="ssr:stedsnr" v="461156" />
	</node>
	<node lat="63.37643055224678" lon="10.840363888848643" id="-33085">
		<tag k="fixme" v="consider natural=peak for the most distinct mountains in the district" />
		<tag k="name" v="Håsetdamrya" />
		<tag k="natural" v="hill" />
		<tag k="place" v="locality" />
		<tag k="ssr:stedsnr" v="461342" />
	</node>
	<node lat="63.38810555458161" lon="10.73802778725076" id="-33089">
		<tag k="name" v="Tiurhaugan" />
		<tag k="natural" v="hill" />
		<tag k="place" v="locality" />
		<tag k="ssr:stedsnr" v="461495" />
	</node>
	<node lat="63.39678888988148" lon="10.649083331670715" id="-33090">
		<tag k="name" v="Stykkesberga" />
		<tag k="natural" v="hill" />
		<tag k="place" v="locality" />
		<tag k="ssr:stedsnr" v="462010" />
	</node>
	<node lat="63.328033334997684" lon="10.807472214420002" id="-33091">
		<tag k="name" v="Bjørnhaugen" />
		<tag k="natural" v="hill" />
		<tag k="place" v="locality" />
		<tag k="ssr:stedsnr" v="462346" />
	</node>
	<node lat="63.38326944319703" lon="10.74010556018514" id="-33093">
		<tag k="fixme" v="consider natural=peak for the most distinct mountains in the district" />
		<tag k="name" v="Branntomta" />
		<tag k="natural" v="hill" />
		<tag k="place" v="locality" />
		<tag k="ssr:stedsnr" v="462422" />
	</node>
	<node lat="63.38110555800428" lon="10.743822215722238" id="-33094">
		<tag k="fixme" v="consider natural=peak for the most distinct mountains in the district" />
		<tag k="name" v="Brannåsryin" />
		<tag k="natural" v="hill" />
		<tag k="place" v="locality" />
		<tag k="ssr:stedsnr" v="462424" />
	</node>
	<node lat="63.38545277446224" lon="10.676111114069771" id="-33097">
		<tag k="alt_name" v="Kattugelåsen" />
		<tag k="fixme" v="consider natural=peak for the most distinct mountains in the district" />
		<tag k="name" v="Kattuglåsen" />
		<tag k="natural" v="hill" />
		<tag k="place" v="locality" />
		<tag k="ssr:stedsnr" v="462401" />
	</node>
	<node lat="63.323288892656514" lon="10.859108342852139" id="-33106">
		<tag k="name" v="Haukrya" />
		<tag k="natural" v="hill" />
		<tag k="place" v="locality" />
		<tag k="ssr:stedsnr" v="316360" />
	</node>
	<node lat="63.39417500410533" lon="10.657752768045007" id="-33111">
		<tag k="name" v="Nonshaugen" />
		<tag k="natural" v="hill" />
		<tag k="place" v="locality" />
		<tag k="ssr:stedsnr" v="339017" />
	</node>
	<node lat="63.32744722675888" lon="10.827966659575994" id="-33116">
		<tag k="name" v="Tjønndalen" />
		<tag k="natural" v="valley" />
		<tag k="place" v="locality" />
		<tag k="ssr:stedsnr" v="340145" />
	</node>
	<node lat="63.38205555748678" lon="10.7993333312801" id="-33118">
		<tag k="name" v="Killingberget" />
		<tag k="natural" v="hill" />
		<tag k="place" v="locality" />
		<tag k="ssr:stedsnr" v="340345" />
	</node>
	<node lat="63.37419444449256" lon="10.678488898120577" id="-33119">
		<tag k="name" v="Skjeltjønnberga" />
		<tag k="natural" v="hill" />
		<tag k="place" v="locality" />
		<tag k="ssr:stedsnr" v="340400" />
	</node>
	<node lat="63.381047224706016" lon="10.76923611510775" id="-33120">
		<tag k="name" v="Fosslidalen" />
		<tag k="natural" v="valley" />
		<tag k="place" v="locality" />
		<tag k="ssr:stedsnr" v="340448" />
	</node>
	<node lat="63.3585222213026" lon="10.689580554690444" id="-33125">
		<tag k="name" v="Brannan" />
		<tag k="place" v="locality" />
		<tag k="ssr:stedsnr" v="340846" />
	</node>
	<node lat="63.31581666493375" lon="10.775455561275294" id="-33126">
		<tag k="alt_name" v="Bøckmannsdalen;Burmanndalen" />
		<tag k="name" v="Burmannsdalen" />
		<tag k="natural" v="valley" />
		<tag k="place" v="locality" />
		<tag k="ssr:stedsnr" v="348319" />
	</node>
	<node lat="63.33501111279932" lon="10.709711115639603" id="-33131">
		<tag k="name" v="Fjelldalen" />
		<tag k="natural" v="valley" />
		<tag k="place" v="locality" />
		<tag k="ssr:stedsnr" v="400178" />
	</node>
	<node lat="63.36925555978435" lon="10.745891672137311" id="-33132">
		<tag k="fixme" v="consider natural=peak for the most distinct mountains in the district" />
		<tag k="name" v="Granåsen" />
		<tag k="natural" v="hill" />
		<tag k="place" v="locality" />
		<tag k="ssr:stedsnr" v="400333" />
	</node>
	<node lat="63.313700003179136" lon="10.909727771822165" id="-33135">
		<tag k="name" v="Bakliin" />
		<tag k="natural" v="slope" />
		<tag k="place" v="locality" />
		<tag k="ssr:stedsnr" v="400378" />
	</node>
	<node lat="63.4254111137092" lon="10.600227772255566" id="-33136">
		<tag k="fixme" v="consider natural=peak for the most distinct mountains in the district" />
		<tag k="name" v="Brannåsen" />
		<tag k="natural" v="hill" />
		<tag k="place" v="locality" />
		<tag k="ssr:stedsnr" v="401005" />
	</node>
	<node lat="63.432402775198554" lon="10.752516666170555" id="-33140">
		<tag k="fixme" v="consider natural=peak for the most distinct mountains in the district" />
		<tag k="name" v="Sjøtrøkleiva" />
		<tag k="natural" v="hill" />
		<tag k="place" v="locality" />
		<tag k="ssr:stedsnr" v="401075" />
	</node>
	<node lat="63.370677773458226" lon="10.681850006415523" id="-33141">
		<tag k="name" v="Mørkdalen" />
		<tag k="natural" v="valley" />
		<tag k="place" v="locality" />
		<tag k="ssr:stedsnr" v="401409" />
	</node>
	<node lat="63.409947221591466" lon="10.661000003746045" id="-33142">
		<tag k="fixme" v="consider natural=peak for the most distinct mountains in the district" />
		<tag k="name" v="Hestsjøåsen" />
		<tag k="natural" v="hill" />
		<tag k="place" v="locality" />
		<tag k="ssr:stedsnr" v="401431" />
	</node>
	<node lat="63.38203611106597" lon="10.815730565154508" id="-33143">
		<tag k="name" v="Kjølpynten" />
		<tag k="natural" v="hill" />
		<tag k="place" v="locality" />
		<tag k="ssr:stedsnr" v="401475" />
	</node>
	<node lat="63.36992500142653" lon="10.854302775027234" id="-33149">
		<tag k="fixme" v="consider natural=peak for the most distinct mountains in the district" />
		<tag k="name" v="Storkleivan" />
		<tag k="natural" v="hill" />
		<tag k="place" v="locality" />
		<tag k="ssr:stedsnr" v="437413" />
	</node>
	<node lat="63.40508333442181" lon="10.647561104208682" id="-33153">
		<tag k="fixme" v="consider natural=peak for the most distinct mountains in the district" />
		<tag k="name" v="Bromsetåsen" />
		<tag k="natural" v="hill" />
		<tag k="place" v="locality" />
		<tag k="ssr:stedsnr" v="438615" />
	</node>
	<node lat="63.31448610928207" lon="10.823811109977008" id="-33159">
		<tag k="name" v="Steinkleiva" />
		<tag k="natural" v="hill" />
		<tag k="place" v="locality" />
		<tag k="ssr:stedsnr" v="461160" />
	</node>
	<node lat="63.31011666999633" lon="10.812783324722764" id="-33160">
		<tag k="fixme" v="consider natural=peak for the most distinct mountains in the district" />
		<tag k="name" v="Langmyråsen" />
		<tag k="natural" v="hill" />
		<tag k="place" v="locality" />
		<tag k="ssr:stedsnr" v="461165" />
	</node>
	<node lat="63.38813333587399" lon="10.774227769303504" id="-33162">
		<tag k="name" v="Hallia" />
		<tag k="natural" v="slope" />
		<tag k="place" v="locality" />
		<tag k="ssr:stedsnr" v="461476" />
	</node>
	<node lat="63.40342777985626" lon="10.774397226752457" id="-33164">
		<tag k="name" v="Svartdalen" />
		<tag k="natural" v="valley" />
		<tag k="place" v="locality" />
		<tag k="ssr:stedsnr" v="461480" />
	</node>
	<node lat="63.410511114278904" lon="10.85063054882992" id="-33165">
		<tag k="fixme" v="consider natural=peak for the most distinct mountains in the district" />
		<tag k="name" v="Kristofferåsen" />
		<tag k="natural" v="hill" />
		<tag k="place" v="locality" />
		<tag k="ssr:stedsnr" v="461862" />
	</node>
	<node lat="63.30658333552223" lon="10.727472229321005" id="-33168">
		<tag k="fixme" v="consider natural=peak for the most distinct mountains in the district" />
		<tag k="name" v="Hevilen" />
		<tag k="natural" v="hill" />
		<tag k="place" v="locality" />
		<tag k="ssr:stedsnr" v="462358" />
	</node>
	<node lat="63.37439722220648" lon="10.620833342721136" id="-33169">
		<tag k="name" v="Brottadalen" />
		<tag k="natural" v="valley" />
		<tag k="place" v="locality" />
		<tag k="ssr:stedsnr" v="462465" />
	</node>
	<node lat="63.42884721882135" lon="10.597799999168998" id="-33176">
		<tag k="fixme" v="consider natural=peak for the most distinct mountains in the district" />
		<tag k="name" v="Aunvåttan" />
=======
<osm generator="osmapis" version="0.6">
	<node id="-755712" lat="63.4032722199" lon="10.8423361011">
		<tag k="name" v="Brennberga" />
		<tag k="natural" v="hill" />
		<tag k="place" v="locality" />
		<tag k="ssr:stedsnr" v="13076" />
	</node>
	<node id="-756222" lat="63.4008305583" lon="10.6744472239">
		<tag k="fixme" v="consider natural=peak for the most distinct mountains in the district" />
		<tag k="name" v="Hønstadåsen" />
		<tag k="natural" v="hill" />
		<tag k="place" v="locality" />
		<tag k="ssr:stedsnr" v="863597" />
	</node>
	<node id="-756221" lat="63.376758332" lon="10.7251583404">
		<tag k="name" v="Engeseterberga" />
		<tag k="natural" v="hill" />
		<tag k="place" v="locality" />
		<tag k="ssr:stedsnr" v="863505" />
	</node>
	<node id="-755706" lat="63.4269893968" lon="10.8586286197">
		<tag k="alt_name" v="Storheia" />
		<tag k="fixme" v="consider natural=peak for the most distinct mountains in the district" />
		<tag k="name" v="Hommelvikheia" />
		<tag k="natural" v="hill" />
		<tag k="place" v="locality" />
		<tag k="ssr:stedsnr" v="13002" />
	</node>
	<node id="-756217" lat="63.3203416689" lon="10.7382555473">
		<tag k="name" v="Bjørndalsberga" />
		<tag k="natural" v="hill" />
		<tag k="place" v="locality" />
		<tag k="ssr:stedsnr" v="863356" />
	</node>
	<node id="-755703" lat="63.3181930206" lon="10.9263526553">
		<tag k="fixme" v="multiple name tags, choose one and add the other to alt_name; consider natural=peak for the most distinct mountains in the district" />
		<tag k="name" v="Engfjellet;Engtjennberget" />
		<tag k="natural" v="hill" />
		<tag k="place" v="locality" />
		<tag k="ssr:stedsnr" v="977791" />
	</node>
	<node id="-755966" lat="63.3706777735" lon="10.6818500064">
		<tag k="name" v="Mørkdalen" />
		<tag k="natural" v="valley" />
		<tag k="place" v="locality" />
		<tag k="ssr:stedsnr" v="401409" />
	</node>
	<node id="-756210" lat="63.363755558" lon="10.8433861075">
		<tag k="fixme" v="consider natural=peak for the most distinct mountains in the district" />
		<tag k="name" v="Næveråsan" />
		<tag k="natural" v="hill" />
		<tag k="place" v="locality" />
		<tag k="ssr:stedsnr" v="862405" />
	</node>
	<node id="-755795" lat="63.406874997" lon="10.805405549">
		<tag k="name" v="Nordbakkan" />
		<tag k="natural" v="slope" />
		<tag k="place" v="locality" />
		<tag k="ssr:stedsnr" v="98485" />
	</node>
	<node id="-756204" lat="63.3169805535" lon="10.9038222127">
		<tag k="fixme" v="consider natural=peak for the most distinct mountains in the district" />
		<tag k="name" v="Åltjønnryin" />
		<tag k="natural" v="hill" />
		<tag k="place" v="locality" />
		<tag k="ssr:stedsnr" v="826814" />
	</node>
	<node id="-755691" lat="63.3069249957" lon="10.8639722161">
		<tag k="name" v="Svegruva" />
		<tag k="place" v="locality" />
		<tag k="ssr:stedsnr" v="947862" />
	</node>
	<node id="-755690" lat="63.3339833366" lon="10.9103972193">
		<tag k="name" v="Vass-strupan" />
		<tag k="natural" v="valley" />
		<tag k="place" v="locality" />
		<tag k="ssr:stedsnr" v="947823" />
	</node>
	<node id="-755688" lat="63.3856555594" lon="10.8249416729">
		<tag k="name" v="Snøfonnberget" />
		<tag k="natural" v="hill" />
		<tag k="place" v="locality" />
		<tag k="ssr:stedsnr" v="947463" />
	</node>
	<node id="-755687" lat="63.4062944409" lon="10.8025194363">
		<tag k="name" v="Trongdalen" />
		<tag k="natural" v="valley" />
		<tag k="place" v="locality" />
		<tag k="ssr:stedsnr" v="947456" />
	</node>
	<node id="-756198" lat="63.3809833289" lon="10.7919111142">
		<tag k="name" v="Øyem" />
		<tag k="natural" v="slope" />
		<tag k="place" v="locality" />
		<tag k="ssr:stedsnr" v="826458" />
	</node>
	<node id="-756197" lat="63.3726555515" lon="10.7350999958">
		<tag k="name" v="Krutberget" />
		<tag k="natural" v="hill" />
		<tag k="place" v="locality" />
		<tag k="ssr:stedsnr" v="826449" />
	</node>
	<node id="-755683" lat="63.3050305565" lon="10.82172223">
		<tag k="name" v="Kvitberget" />
		<tag k="natural" v="hill" />
		<tag k="place" v="locality" />
		<tag k="ssr:stedsnr" v="947167" />
	</node>
	<node id="-756193" lat="63.3638666694" lon="10.7702472138">
		<tag k="name" v="Langbruin" />
		<tag k="natural" v="slope" />
		<tag k="place" v="locality" />
		<tag k="ssr:stedsnr" v="826207" />
	</node>
	<node id="-755680" lat="63.3550777768" lon="10.7596666765">
		<tag k="name" v="Leirgruvdalen" />
		<tag k="natural" v="valley" />
		<tag k="place" v="locality" />
		<tag k="ssr:stedsnr" v="947217" />
	</node>
	<node id="-755679" lat="63.345508337" lon="10.7965194433">
		<tag k="name" v="Litlkleivdalsberga" />
		<tag k="natural" v="hill" />
		<tag k="place" v="locality" />
		<tag k="ssr:stedsnr" v="947215" />
	</node>
	<node id="-755677" lat="63.4049972207" lon="10.7101999946">
		<tag k="alt_name" v="Grindalsberga" />
		<tag k="name" v="Grinddalsberga" />
		<tag k="natural" v="hill" />
		<tag k="place" v="locality" />
		<tag k="ssr:stedsnr" v="947023" />
	</node>
	<node id="-756187" lat="63.3371277818" lon="10.7471638989">
		<tag k="name" v="Drengkalldalen" />
		<tag k="natural" v="valley" />
		<tag k="place" v="locality" />
		<tag k="ssr:stedsnr" v="826132" />
	</node>
	<node id="-756047" lat="63.3124722208" lon="10.7596888917">
		<tag k="fixme" v="consider natural=peak for the most distinct mountains in the district" />
		<tag k="name" v="Drakstsjøåsen" />
		<tag k="natural" v="hill" />
		<tag k="place" v="locality" />
		<tag k="ssr:stedsnr" v="582188" />
	</node>
	<node id="-755667" lat="63.3759750017" lon="10.7064750079">
		<tag k="name" v="Vulusjøkjølen" />
		<tag k="natural" v="ridge" />
		<tag k="place" v="locality" />
		<tag k="ssr:stedsnr" v="887406" />
	</node>
	<node id="-755665" lat="63.397088885" lon="10.8053166634">
		<tag k="name" v="Renndalen" />
		<tag k="natural" v="valley" />
		<tag k="place" v="locality" />
		<tag k="ssr:stedsnr" v="887510" />
	</node>
	<node id="-755664" lat="63.3888833294" lon="10.8133333261">
		<tag k="name" v="Bjørndalskaret" />
		<tag k="natural" v="valley" />
		<tag k="place" v="locality" />
		<tag k="ssr:stedsnr" v="887509" />
	</node>
	<node id="-755662" lat="63.321411108" lon="10.6991416573">
		<tag k="fixme" v="consider natural=peak for the most distinct mountains in the district" />
		<tag k="name" v="Malvikåsen" />
		<tag k="natural" v="hill" />
		<tag k="place" v="locality" />
		<tag k="ssr:stedsnr" v="886168" />
	</node>
	<node id="-756173" lat="63.4009750042" lon="10.7606861028">
		<tag k="name" v="Århaneberget" />
		<tag k="natural" v="hill" />
		<tag k="place" v="locality" />
		<tag k="ssr:stedsnr" v="825421" />
	</node>
	<node id="-756172" lat="63.3285055591" lon="10.8585277713">
		<tag k="name" v="Hisjesundberget" />
		<tag k="natural" v="hill" />
		<tag k="place" v="locality" />
		<tag k="ssr:stedsnr" v="825179" />
	</node>
	<node id="-755659" lat="63.4346194461" lon="10.8151416669">
		<tag k="name" v="Svartvika" />
		<tag k="natural" v="valley" />
		<tag k="place" v="locality" />
		<tag k="ssr:stedsnr" v="886056" />
	</node>
	<node id="-755656" lat="63.4189888902" lon="10.6278444431">
		<tag k="name" v="Kvegjardplassen" />
		<tag k="place" v="locality" />
		<tag k="ssr:stedsnr" v="886003" />
	</node>
	<node id="-756167" lat="63.3471861101" lon="10.8299138848">
		<tag k="name" v="Snustadhøgberget" />
		<tag k="natural" v="hill" />
		<tag k="place" v="locality" />
		<tag k="ssr:stedsnr" v="802470" />
	</node>
	<node id="-755654" lat="63.3885861123" lon="10.8511333287">
		<tag k="name" v="Storfurudalen" />
		<tag k="natural" v="valley" />
		<tag k="place" v="locality" />
		<tag k="ssr:stedsnr" v="947848" />
	</node>
	<node id="-755651" lat="63.3939583355" lon="10.7835416583">
		<tag k="name" v="Stordalen" />
		<tag k="natural" v="valley" />
		<tag k="place" v="locality" />
		<tag k="ssr:stedsnr" v="947450" />
	</node>
	<node id="-756162" lat="63.3506166661" lon="10.8108027802">
		<tag k="fixme" v="consider natural=peak for the most distinct mountains in the district" />
		<tag k="name" v="Langmyråsen" />
		<tag k="natural" v="hill" />
		<tag k="place" v="locality" />
		<tag k="ssr:stedsnr" v="802190" />
	</node>
	<node id="-755469" lat="63.3066527813" lon="10.7256361048">
		<tag k="fixme" v="consider natural=peak for the most distinct mountains in the district" />
		<tag k="name" v="Hevillen" />
		<tag k="natural" v="hill" />
		<tag k="place" v="locality" />
		<tag k="ssr:stedsnr" v="498411" />
	</node>
	<node id="-755644" lat="63.3820777787" lon="10.7918944407">
		<tag k="name" v="Øymoen" />
		<tag k="place" v="locality" />
		<tag k="ssr:stedsnr" v="947432" />
	</node>
	<node id="-756151" lat="63.3849138885" lon="10.8044000058">
		<tag k="name" v="Inner Kjellardalen" />
		<tag k="natural" v="valley" />
		<tag k="place" v="locality" />
		<tag k="ssr:stedsnr" v="765434" />
	</node>
	<node id="-756153" lat="63.3142694405" lon="10.7100972151">
		<tag k="fixme" v="consider natural=peak for the most distinct mountains in the district" />
		<tag k="name" v="Stormosåsen" />
		<tag k="natural" v="hill" />
		<tag k="place" v="locality" />
		<tag k="ssr:stedsnr" v="765859" />
	</node>
	<node id="-756152" lat="63.379825004" lon="10.8092444537">
		<tag k="name" v="Svartvassberga" />
		<tag k="natural" v="hill" />
		<tag k="place" v="locality" />
		<tag k="ssr:stedsnr" v="765436" />
	</node>
	<node id="-755639" lat="63.3295222229" lon="10.7330666744">
		<tag k="fixme" v="consider natural=peak for the most distinct mountains in the district" />
		<tag k="name" v="Heimtjønnåsen" />
		<tag k="natural" v="hill" />
		<tag k="place" v="locality" />
		<tag k="ssr:stedsnr" v="947102" />
	</node>
	<node id="-756150" lat="63.4156611102" lon="10.6869527709">
		<tag k="name" v="Skjenstadbakken" />
		<tag k="natural" v="slope" />
		<tag k="place" v="locality" />
		<tag k="ssr:stedsnr" v="765412" />
	</node>
	<node id="-755637" lat="63.3311333359" lon="10.7992555607">
		<tag k="name" v="Sneisslættet" />
		<tag k="place" v="locality" />
		<tag k="ssr:stedsnr" v="947144" />
	</node>
	<node id="-756148" lat="63.3677805515" lon="10.6838944526">
		<tag k="fixme" v="consider natural=peak for the most distinct mountains in the district" />
		<tag k="name" v="Storbrannan" />
		<tag k="natural" v="hill" />
		<tag k="place" v="locality" />
		<tag k="ssr:stedsnr" v="765390" />
	</node>
	<node id="-755635" lat="63.4056499972" lon="10.7109250034">
		<tag k="fixme" v="consider natural=peak for the most distinct mountains in the district" />
		<tag k="name" v="Vuluåsen" />
		<tag k="natural" v="hill" />
		<tag k="place" v="locality" />
		<tag k="ssr:stedsnr" v="924596" />
	</node>
	<node id="-756146" lat="63.3866694478" lon="10.705088899">
		<tag k="alt_name" v="Kvistingåsen" />
		<tag k="fixme" v="consider natural=peak for the most distinct mountains in the district" />
		<tag k="name" v="Kvistingsåsen" />
		<tag k="natural" v="hill" />
		<tag k="place" v="locality" />
		<tag k="ssr:stedsnr" v="765042" />
	</node>
	<node id="-755633" lat="63.3469861146" lon="10.7115055572">
		<tag k="fixme" v="consider natural=peak for the most distinct mountains in the district" />
		<tag k="name" v="Litlbergfjellet" />
		<tag k="natural" v="hill" />
		<tag k="place" v="locality" />
		<tag k="ssr:stedsnr" v="923960" />
	</node>
	<node id="-756143" lat="63.330255553" lon="10.7778166641">
		<tag k="name" v="Teingårdsberget" />
		<tag k="natural" v="hill" />
		<tag k="place" v="locality" />
		<tag k="ssr:stedsnr" v="765154" />
	</node>
	<node id="-756142" lat="63.3359388904" lon="10.7869111044">
		<tag k="name" v="Foldsjødalen" />
		<tag k="natural" v="valley" />
		<tag k="place" v="locality" />
		<tag k="ssr:stedsnr" v="765153" />
	</node>
	<node id="-756141" lat="63.3233138874" lon="10.8343166726">
		<tag k="name" v="Brannåsberget" />
		<tag k="natural" v="hill" />
		<tag k="place" v="locality" />
		<tag k="ssr:stedsnr" v="765141" />
	</node>
	<node id="-755954" lat="63.4041027778" lon="10.7207277696">
		<tag k="name" v="Seterbakkan" />
		<tag k="natural" v="slope" />
		<tag k="place" v="locality" />
		<tag k="ssr:stedsnr" v="400462" />
	</node>
	<node id="-756039" lat="63.3576388919" lon="10.7567833394">
		<tag k="name" v="Svartdalen" />
		<tag k="natural" v="valley" />
		<tag k="place" v="locality" />
		<tag k="ssr:stedsnr" v="558396" />
	</node>
	<node id="-756136" lat="63.4193111087" lon="10.7659361137">
		<tag k="name" v="Grønbergsdalen" />
		<tag k="natural" v="valley" />
		<tag k="place" v="locality" />
		<tag k="ssr:stedsnr" v="765088" />
	</node>
	<node id="-756135" lat="63.4140027808" lon="10.800161112">
		<tag k="name" v="Saligberget" />
		<tag k="natural" v="hill" />
		<tag k="place" v="locality" />
		<tag k="ssr:stedsnr" v="765086" />
	</node>
	<node id="-756129" lat="63.35756111" lon="10.7889583297">
		<tag k="name" v="Karlstadberga" />
		<tag k="natural" v="hill" />
		<tag k="place" v="locality" />
		<tag k="ssr:stedsnr" v="764173" />
	</node>
	<node id="-756128" lat="63.3023166696" lon="10.7862194467">
		<tag k="fixme" v="consider natural=peak for the most distinct mountains in the district" />
		<tag k="name" v="Gælnåsen" />
		<tag k="natural" v="hill" />
		<tag k="place" v="locality" />
		<tag k="ssr:stedsnr" v="764154" />
	</node>
	<node id="-755615" lat="63.3966722229" lon="10.771925009">
		<tag k="fixme" v="consider natural=peak for the most distinct mountains in the district" />
		<tag k="name" v="Seterstiåsen" />
		<tag k="natural" v="hill" />
		<tag k="place" v="locality" />
		<tag k="ssr:stedsnr" v="764468" />
	</node>
	<node id="-755614" lat="63.3940555536" lon="10.7686583384">
		<tag k="name" v="Tjurrumildalen" />
		<tag k="natural" v="valley" />
		<tag k="place" v="locality" />
		<tag k="ssr:stedsnr" v="764466" />
	</node>
	<node id="-755609" lat="63.3285444434" lon="10.8379555517">
		<tag k="name" v="Brannan" />
		<tag k="natural" v="hill" />
		<tag k="place" v="locality" />
		<tag k="ssr:stedsnr" v="741368" />
	</node>
	<node id="-756119" lat="63.3400000001" lon="10.7280333431">
		<tag k="fixme" v="consider natural=peak for the most distinct mountains in the district" />
		<tag k="name" v="Sjetnbuåsen" />
		<tag k="natural" v="hill" />
		<tag k="place" v="locality" />
		<tag k="ssr:stedsnr" v="741399" />
	</node>
	<node id="-755605" lat="63.3906861074" lon="10.6857249944">
		<tag k="name" v="Bjørnberget" />
		<tag k="natural" v="hill" />
		<tag k="place" v="locality" />
		<tag k="ssr:stedsnr" v="704019" />
	</node>
	<node id="-755842" lat="63.3376472226" lon="10.6948555524">
		<tag k="fixme" v="consider natural=peak for the most distinct mountains in the district" />
		<tag k="name" v="Trulsen" />
		<tag k="natural" v="hill" />
		<tag k="place" v="locality" />
		<tag k="ssr:stedsnr" v="158220" />
	</node>
	<node id="-755950" lat="63.4305472201" lon="10.6485388973">
		<tag k="name" v="Leistadhaugen" />
		<tag k="natural" v="hill" />
		<tag k="place" v="locality" />
		<tag k="ssr:stedsnr" v="400346" />
	</node>
	<node id="-755601" lat="63.3275444403" lon="10.8417194528">
		<tag k="fixme" v="consider natural=peak for the most distinct mountains in the district" />
		<tag k="name" v="Damtjønnåsen" />
		<tag k="natural" v="hill" />
		<tag k="place" v="locality" />
		<tag k="ssr:stedsnr" v="704137" />
	</node>
	<node id="-755599" lat="63.4255805551" lon="10.8208388912">
		<tag k="name" v="Geilberget" />
		<tag k="natural" v="hill" />
		<tag k="place" v="locality" />
		<tag k="ssr:stedsnr" v="704122" />
	</node>
	<node id="-755598" lat="63.4154888848" lon="10.8174222245">
		<tag k="name" v="Korntrøberget" />
		<tag k="natural" v="hill" />
		<tag k="place" v="locality" />
		<tag k="ssr:stedsnr" v="704117" />
	</node>
	<node id="-755597" lat="63.3228722236" lon="10.743180548">
		<tag k="name" v="Bjørndalen" />
		<tag k="natural" v="valley" />
		<tag k="place" v="locality" />
		<tag k="ssr:stedsnr" v="704107" />
	</node>
	<node id="-756108" lat="63.4082555597" lon="10.8551055461">
		<tag k="name" v="Tronget" />
		<tag k="natural" v="valley" />
		<tag k="place" v="locality" />
		<tag k="ssr:stedsnr" v="643849" />
	</node>
	<node id="-756104" lat="63.4053888927" lon="10.8038777769">
		<tag k="name" v="Nesberget" />
		<tag k="natural" v="hill" />
		<tag k="place" v="locality" />
		<tag k="ssr:stedsnr" v="643444" />
	</node>
	<node id="-755591" lat="63.3205166711" lon="10.9106499945">
		<tag k="name" v="Litlmyrdalen" />
		<tag k="natural" v="valley" />
		<tag k="place" v="locality" />
		<tag k="ssr:stedsnr" v="887825" />
	</node>
	<node id="-756101" lat="63.372280556" lon="10.7242472129">
		<tag k="name" v="Vilusjødalen" />
		<tag k="natural" v="valley" />
		<tag k="place" v="locality" />
		<tag k="ssr:stedsnr" v="643416" />
	</node>
	<node id="-755588" lat="63.3743250029" lon="10.736961117">
		<tag k="name" v="Kvitmåssåberget" />
		<tag k="natural" v="hill" />
		<tag k="place" v="locality" />
		<tag k="ssr:stedsnr" v="887444" />
	</node>
	<node id="-755587" lat="63.3836166692" lon="10.7492444499">
		<tag k="fixme" v="consider natural=peak for the most distinct mountains in the district" />
		<tag k="name" v="Øvre Brannåsan" />
		<tag k="natural" v="hill" />
		<tag k="place" v="locality" />
		<tag k="ssr:stedsnr" v="887437" />
	</node>
	<node id="-755586" lat="63.4084166658" lon="10.6696694496">
		<tag k="fixme" v="consider natural=peak for the most distinct mountains in the district" />
		<tag k="name" v="Litlbergfjellet" />
		<tag k="natural" v="hill" />
		<tag k="place" v="locality" />
		<tag k="ssr:stedsnr" v="887430" />
	</node>
	<node id="-755585" lat="63.3698666645" lon="10.8337805627">
		<tag k="name" v="Storkleivkjølen" />
		<tag k="natural" v="ridge" />
		<tag k="place" v="locality" />
		<tag k="ssr:stedsnr" v="887491" />
	</node>
	<node id="-756096" lat="63.3194833359" lon="10.7758000063">
		<tag k="name" v="Grasbakkan" />
		<tag k="natural" v="slope" />
		<tag k="place" v="locality" />
		<tag k="ssr:stedsnr" v="643193" />
	</node>
	<node id="-756095" lat="63.3164722251" lon="10.7885638823">
		<tag k="name" v="Brottan" />
		<tag k="natural" v="hill" />
		<tag k="place" v="locality" />
		<tag k="ssr:stedsnr" v="643189" />
	</node>
	<node id="-756094" lat="63.3187611088" lon="10.8178388874">
		<tag k="fixme" v="consider natural=peak for the most distinct mountains in the district" />
		<tag k="name" v="Rotmyråsen" />
		<tag k="natural" v="hill" />
		<tag k="place" v="locality" />
		<tag k="ssr:stedsnr" v="643186" />
	</node>
	<node id="-756093" lat="63.315280559" lon="10.8184250027">
		<tag k="fixme" v="consider natural=peak for the most distinct mountains in the district" />
		<tag k="name" v="Gaddmyråsen" />
		<tag k="natural" v="hill" />
		<tag k="place" v="locality" />
		<tag k="ssr:stedsnr" v="643180" />
	</node>
	<node id="-756092" lat="63.332880554" lon="10.7853083277">
		<tag k="name" v="Rundhaugen" />
>>>>>>> e1d4bc35ff8a6074a6f2e91616a996b547c36f15
		<tag k="natural" v="hill" />
		<tag k="place" v="locality" />
		<tag k="ssr:stedsnr" v="643170" />
	</node>
<<<<<<< HEAD
	<node lat="63.398238893139656" lon="10.82455554894496" id="-33181">
		<tag k="name" v="Gauphaugen" />
		<tag k="natural" v="hill" />
		<tag k="place" v="locality" />
		<tag k="ssr:stedsnr" v="680501" />
	</node>
	<node lat="63.39901667054828" lon="10.701872218986217" id="-33184">
		<tag k="fixme" v="consider natural=peak for the most distinct mountains in the district" />
		<tag k="name" v="Hasetkammen" />
		<tag k="natural" v="hill" />
		<tag k="place" v="locality" />
		<tag k="ssr:stedsnr" v="680640" />
	</node>
	<node lat="63.364402774712005" lon="10.648791657443901" id="-33185">
		<tag k="fixme" v="consider natural=peak for the most distinct mountains in the district" />
		<tag k="name" v="Aunkammen" />
		<tag k="natural" v="hill" />
		<tag k="place" v="locality" />
		<tag k="ssr:stedsnr" v="680993" />
	</node>
	<node lat="63.306652781319364" lon="10.725636104849851" id="-33189">
		<tag k="fixme" v="consider natural=peak for the most distinct mountains in the district" />
		<tag k="name" v="Hevillen" />
		<tag k="natural" v="hill" />
		<tag k="place" v="locality" />
		<tag k="ssr:stedsnr" v="498411" />
	</node>
	<node lat="63.385183332576965" lon="10.620747216331177" id="-33194">
		<tag k="name" v="Vasselberga" />
		<tag k="natural" v="hill" />
		<tag k="place" v="locality" />
		<tag k="ssr:stedsnr" v="681540" />
	</node>
	<node lat="63.30241666498567" lon="10.7788388918914" id="-33198">
		<tag k="name" v="Drakstsjødalen" />
		<tag k="natural" v="valley" />
		<tag k="place" v="locality" />
		<tag k="ssr:stedsnr" v="522185" />
	</node>
	<node lat="63.411386107655375" lon="10.716183326674507" id="-33201">
		<tag k="fixme" v="consider natural=peak for the most distinct mountains in the district" />
		<tag k="name" v="Høgåsen" />
		<tag k="natural" v="hill" />
		<tag k="place" v="locality" />
		<tag k="ssr:stedsnr" v="522402" />
	</node>
	<node lat="63.33442221828365" lon="10.917408330315173" id="-33205">
		<tag k="name" v="Brannen" />
		<tag k="natural" v="hill" />
		<tag k="place" v="locality" />
		<tag k="ssr:stedsnr" v="522808" />
	</node>
	<node lat="63.41751666383447" lon="10.748808328208648" id="-33206">
		<tag k="fixme" v="consider natural=peak for the most distinct mountains in the district" />
		<tag k="name" v="Vassåsen" />
		<tag k="natural" v="hill" />
		<tag k="place" v="locality" />
		<tag k="ssr:stedsnr" v="558011" />
	</node>
	<node lat="63.35763889188282" lon="10.756783339432179" id="-33209">
		<tag k="name" v="Svartdalen" />
		<tag k="natural" v="valley" />
		<tag k="place" v="locality" />
		<tag k="ssr:stedsnr" v="558396" />
	</node>
	<node lat="63.400047225750654" lon="10.766344449013154" id="-33212">
		<tag k="fixme" v="consider natural=peak for the most distinct mountains in the district" />
		<tag k="name" v="Stavsjøfjellet" />
		<tag k="natural" v="hill" />
		<tag k="place" v="locality" />
		<tag k="ssr:stedsnr" v="559446" />
	</node>
	<node lat="63.41863055568429" lon="10.663105548429552" id="-33213">
		<tag k="fixme" v="consider natural=peak for the most distinct mountains in the district" />
		<tag k="name" v="Forbordsåsen" />
=======
	<node id="-756091" lat="63.3338583332" lon="10.8306444427">
		<tag k="name" v="Sagranhaugen" />
		<tag k="natural" v="hill" />
		<tag k="place" v="locality" />
		<tag k="ssr:stedsnr" v="643157" />
	</node>
	<node id="-755578" lat="63.3314333357" lon="10.8461472229">
		<tag k="fixme" v="consider natural=peak for the most distinct mountains in the district" />
		<tag k="name" v="Moåsen" />
		<tag k="natural" v="hill" />
		<tag k="place" v="locality" />
		<tag k="ssr:stedsnr" v="886234" />
	</node>
	<node id="-755775" lat="63.3392888859" lon="10.7486638871">
		<tag k="fixme" v="consider natural=peak for the most distinct mountains in the district" />
		<tag k="name" v="Dalakleiva" />
		<tag k="natural" v="hill" />
		<tag k="place" v="locality" />
		<tag k="ssr:stedsnr" v="97099" />
	</node>
	<node id="-755574" lat="63.3146194463" lon="10.7316833293">
		<tag k="fixme" v="consider natural=peak for the most distinct mountains in the district" />
		<tag k="name" v="Fosslivollrya" />
		<tag k="natural" v="hill" />
		<tag k="place" v="locality" />
		<tag k="ssr:stedsnr" v="886113" />
	</node>
	<node id="-755945" lat="63.3455111114" lon="10.7932055553">
		<tag k="name" v="Litlkleivdalen" />
		<tag k="natural" v="valley" />
		<tag k="place" v="locality" />
		<tag k="ssr:stedsnr" v="400193" />
	</node>
	<node id="-755572" lat="63.347350003" lon="10.8086083387">
		<tag k="name" v="Gruvdalen" />
		<tag k="natural" v="valley" />
		<tag k="place" v="locality" />
		<tag k="ssr:stedsnr" v="886195" />
	</node>
	<node id="-755571" lat="63.3630138856" lon="10.8347916624">
		<tag k="name" v="Koltjønnknoken" />
		<tag k="natural" v="hill" />
		<tag k="place" v="locality" />
		<tag k="ssr:stedsnr" v="886183" />
	</node>
	<node id="-755859" lat="63.4117583356" lon="10.5831499994">
		<tag k="name" v="Korset" />
		<tag k="place" v="locality" />
		<tag k="ssr:stedsnr" v="158879" />
	</node>
	<node id="-756080" lat="63.3772083352" lon="10.6211166704">
		<tag k="fixme" v="consider natural=peak for the most distinct mountains in the district" />
		<tag k="name" v="Tripynten" />
		<tag k="natural" v="hill" />
		<tag k="place" v="locality" />
		<tag k="ssr:stedsnr" v="619566" />
	</node>
	<node id="-756078" lat="63.3411055589" lon="10.7375305506">
		<tag k="name" v="Slåttdalen" />
		<tag k="natural" v="valley" />
		<tag k="place" v="locality" />
		<tag k="ssr:stedsnr" v="619478" />
	</node>
	<node id="-755565" lat="63.3882388933" lon="10.8104111097">
		<tag k="fixme" v="consider natural=peak for the most distinct mountains in the district" />
		<tag k="name" v="Bjørndalsåsen" />
>>>>>>> e1d4bc35ff8a6074a6f2e91616a996b547c36f15
		<tag k="natural" v="hill" />
		<tag k="old_name" v="Høgåsen" />
		<tag k="place" v="locality" />
<<<<<<< HEAD
		<tag k="ssr:stedsnr" v="559608" />
	</node>
	<node lat="63.432813888060565" lon="10.626377773530225" id="-33215">
		<tag k="name" v="Vikhammerdalen" />
		<tag k="natural" v="valley" />
		<tag k="place" v="locality" />
		<tag k="ssr:stedsnr" v="582056" />
	</node>
	<node lat="63.341866669419844" lon="10.700622225263649" id="-33219">
		<tag k="fixme" v="consider natural=peak for the most distinct mountains in the district" />
		<tag k="name" v="Kvitmåssårabben" />
		<tag k="natural" v="hill" />
		<tag k="place" v="locality" />
		<tag k="ssr:stedsnr" v="582197" />
	</node>
	<node lat="63.38961388720706" lon="10.717747223207763" id="-33220">
=======
		<tag k="ssr:stedsnr" v="620419" />
	</node>
	<node id="-756076" lat="63.3616472179" lon="10.7896416636">
		<tag k="name" v="Nævermoen" />
		<tag k="place" v="locality" />
		<tag k="ssr:stedsnr" v="619447" />
	</node>
	<node id="-756073" lat="63.4329924512" lon="10.8631074167">
		<tag k="fixme" v="consider natural=peak for the most distinct mountains in the district" />
		<tag k="name" v="Gjevingåsen" />
		<tag k="natural" v="hill" />
		<tag k="place" v="locality" />
		<tag k="ssr:stedsnr" v="619149" />
	</node>
	<node id="-755557" lat="63.3896138872" lon="10.7177472232">
>>>>>>> e1d4bc35ff8a6074a6f2e91616a996b547c36f15
		<tag k="name" v="Fuggelhaugen" />
		<tag k="natural" v="hill" />
		<tag k="place" v="locality" />
		<tag k="ssr:stedsnr" v="582452" />
	</node>
<<<<<<< HEAD
	<node lat="63.37244166557946" lon="10.711613892019212" id="-33222">
		<tag k="name" v="Vulusjødalen" />
		<tag k="natural" v="valley" />
		<tag k="place" v="locality" />
		<tag k="ssr:stedsnr" v="583390" />
	</node>
	<node lat="63.341105558891876" lon="10.737530550645847" id="-33228">
		<tag k="name" v="Slåttdalen" />
		<tag k="natural" v="valley" />
		<tag k="place" v="locality" />
		<tag k="ssr:stedsnr" v="619478" />
	</node>
	<node lat="63.38823889329213" lon="10.810411109707651" id="-33231">
		<tag k="fixme" v="consider natural=peak for the most distinct mountains in the district" />
		<tag k="name" v="Bjørndalsåsen" />
		<tag k="natural" v="hill" />
		<tag k="place" v="locality" />
		<tag k="ssr:stedsnr" v="620419" />
	</node>
	<node lat="63.42558055513935" lon="10.820838891157035" id="-33235">
		<tag k="name" v="Geilberget" />
		<tag k="natural" v="hill" />
		<tag k="place" v="locality" />
		<tag k="ssr:stedsnr" v="704122" />
	</node>
	<node lat="63.327544440271375" lon="10.841719452758632" id="-33237">
		<tag k="fixme" v="consider natural=peak for the most distinct mountains in the district" />
		<tag k="name" v="Damtjønnåsen" />
		<tag k="natural" v="hill" />
		<tag k="place" v="locality" />
		<tag k="ssr:stedsnr" v="704137" />
	</node>
	<node lat="63.390686107381306" lon="10.685724994408458" id="-33239">
		<tag k="name" v="Bjørnberget" />
		<tag k="natural" v="hill" />
		<tag k="place" v="locality" />
		<tag k="ssr:stedsnr" v="704019" />
	</node>
	<node lat="63.420113885282305" lon="10.727794443378153" id="-33240">
		<tag k="name" v="Søkkholet" />
		<tag k="natural" v="valley" />
		<tag k="place" v="locality" />
		<tag k="ssr:stedsnr" v="704040" />
	</node>
	<node lat="63.353188888859734" lon="10.810102767812296" id="-33245">
		<tag k="name" v="Torstjønnsberget" />
		<tag k="natural" v="hill" />
		<tag k="place" v="locality" />
		<tag k="ssr:stedsnr" v="704184" />
	</node>
	<node lat="63.420641669744896" lon="10.813775010128445" id="-33249">
		<tag k="name" v="Kiellandhaugen" />
		<tag k="natural" v="hill" />
		<tag k="place" v="locality" />
		<tag k="ssr:stedsnr" v="704341" />
	</node>
	<node lat="63.371141667584695" lon="10.769080564344625" id="-33251">
		<tag k="name" v="Bakkdalen" />
		<tag k="natural" v="valley" />
		<tag k="place" v="locality" />
		<tag k="ssr:stedsnr" v="704415" />
	</node>
	<node lat="63.380105257317176" lon="10.646710717688816" id="-33252">
		<tag k="name" v="Herjukjølen" />
		<tag k="natural" v="ridge" />
		<tag k="place" v="locality" />
		<tag k="ssr:stedsnr" v="704424" />
	</node>
	<node lat="63.40412221844491" lon="10.802755556650302" id="-33253">
		<tag k="name" v="Nesbakken" />
		<tag k="natural" v="slope" />
		<tag k="place" v="locality" />
		<tag k="ssr:stedsnr" v="704431" />
	</node>
	<node lat="63.37586110954316" lon="10.79081944434429" id="-33255">
		<tag k="fixme" v="consider natural=peak for the most distinct mountains in the district" />
		<tag k="name" v="Telgåsen" />
		<tag k="natural" v="hill" />
		<tag k="place" v="locality" />
		<tag k="ssr:stedsnr" v="704403" />
	</node>
	<node lat="63.30632222042771" lon="10.846797219142394" id="-33258">
		<tag k="name" v="Sveinndalen" />
		<tag k="natural" v="valley" />
		<tag k="place" v="locality" />
		<tag k="ssr:stedsnr" v="704846" />
	</node>
	<node lat="63.328433330697464" lon="10.74777500757408" id="-33264">
		<tag k="fixme" v="consider natural=peak for the most distinct mountains in the district" />
		<tag k="name" v="Åsen" />
		<tag k="natural" v="hill" />
		<tag k="place" v="locality" />
		<tag k="ssr:stedsnr" v="643130" />
	</node>
	<node lat="63.31528055895961" lon="10.818425002700886" id="-33265">
		<tag k="fixme" v="consider natural=peak for the most distinct mountains in the district" />
		<tag k="name" v="Gaddmyråsen" />
		<tag k="natural" v="hill" />
		<tag k="place" v="locality" />
		<tag k="ssr:stedsnr" v="643180" />
	</node>
	<node lat="63.3187611087548" lon="10.81783888742476" id="-33266">
		<tag k="fixme" v="consider natural=peak for the most distinct mountains in the district" />
		<tag k="name" v="Rotmyråsen" />
		<tag k="natural" v="hill" />
		<tag k="place" v="locality" />
		<tag k="ssr:stedsnr" v="643186" />
	</node>
	<node lat="63.31647222505489" lon="10.788563882308926" id="-33267">
		<tag k="name" v="Brottan" />
		<tag k="natural" v="hill" />
		<tag k="place" v="locality" />
		<tag k="ssr:stedsnr" v="643189" />
	</node>
	<node lat="63.319483335904636" lon="10.775800006271304" id="-33268">
		<tag k="name" v="Grasbakkan" />
		<tag k="natural" v="slope" />
		<tag k="place" v="locality" />
		<tag k="ssr:stedsnr" v="643193" />
	</node>
	<node lat="63.37703888507521" lon="10.763991659423258" id="-33269">
		<tag k="name" v="Furuhaugberget" />
		<tag k="natural" v="hill" />
		<tag k="place" v="locality" />
		<tag k="ssr:stedsnr" v="643407" />
	</node>
	<node lat="63.372280555997634" lon="10.72424721290134" id="-33270">
		<tag k="name" v="Vilusjødalen" />
		<tag k="natural" v="valley" />
		<tag k="place" v="locality" />
		<tag k="ssr:stedsnr" v="643416" />
	</node>
	<node lat="63.38370555274433" lon="10.799977772338996" id="-33271">
		<tag k="name" v="Fremmer Kjellardalen" />
		<tag k="natural" v="valley" />
		<tag k="place" v="locality" />
		<tag k="ssr:stedsnr" v="643429" />
	</node>
	<node lat="63.35537777719116" lon="10.739952775605927" id="-33280">
		<tag k="fixme" v="consider natural=peak for the most distinct mountains in the district" />
		<tag k="name" v="Kvitklimpen" />
		<tag k="natural" v="hill" />
		<tag k="place" v="locality" />
		<tag k="ssr:stedsnr" v="680422" />
	</node>
	<node lat="63.39539444844644" lon="10.660091675481732" id="-33289">
=======
	<node id="-755554" lat="63.4328138881" lon="10.6263777735">
		<tag k="name" v="Vikhammerdalen" />
		<tag k="natural" v="valley" />
		<tag k="place" v="locality" />
		<tag k="ssr:stedsnr" v="582056" />
	</node>
	<node id="-755553" lat="63.3393472196" lon="10.7898333304">
		<tag k="name" v="Ingriktholet" />
		<tag k="natural" v="valley" />
		<tag k="place" v="locality" />
		<tag k="ssr:stedsnr" v="582149" />
	</node>
	<node id="-756064" lat="63.3507472248" lon="10.8681416589">
		<tag k="fixme" v="consider natural=peak for the most distinct mountains in the district" />
		<tag k="name" v="Brannåsen" />
		<tag k="natural" v="hill" />
		<tag k="place" v="locality" />
		<tag k="ssr:stedsnr" v="583822" />
	</node>
	<node id="-756062" lat="63.3724416656" lon="10.711613892">
		<tag k="name" v="Vulusjødalen" />
		<tag k="natural" v="valley" />
		<tag k="place" v="locality" />
		<tag k="ssr:stedsnr" v="583390" />
	</node>
	<node id="-755548" lat="63.3063222204" lon="10.8467972191">
		<tag k="name" v="Sveinndalen" />
		<tag k="natural" v="valley" />
		<tag k="place" v="locality" />
		<tag k="ssr:stedsnr" v="704846" />
	</node>
	<node id="-756057" lat="63.3704055593" lon="10.6493916629">
		<tag k="fixme" v="consider natural=peak for the most distinct mountains in the district" />
		<tag k="name" v="Slettingåsen" />
		<tag k="natural" v="hill" />
		<tag k="place" v="locality" />
		<tag k="ssr:stedsnr" v="582367" />
	</node>
	<node id="-755543" lat="63.4041222184" lon="10.8027555567">
		<tag k="name" v="Nesbakken" />
		<tag k="natural" v="slope" />
		<tag k="place" v="locality" />
		<tag k="ssr:stedsnr" v="704431" />
	</node>
	<node id="-755542" lat="63.3801052573" lon="10.6467107177">
		<tag k="name" v="Herjukjølen" />
		<tag k="natural" v="ridge" />
		<tag k="place" v="locality" />
		<tag k="ssr:stedsnr" v="704424" />
	</node>
	<node id="-755541" lat="63.3711416676" lon="10.7690805643">
		<tag k="name" v="Bakkdalen" />
		<tag k="natural" v="valley" />
		<tag k="place" v="locality" />
		<tag k="ssr:stedsnr" v="704415" />
	</node>
	<node id="-755943" lat="63.3451750028" lon="10.7472722158">
		<tag k="fixme" v="consider natural=peak for the most distinct mountains in the district" />
		<tag k="name" v="Hulåsen" />
		<tag k="natural" v="hill" />
		<tag k="place" v="locality" />
		<tag k="ssr:stedsnr" v="400148" />
	</node>
	<node id="-755539" lat="63.3758611095" lon="10.7908194443">
		<tag k="fixme" v="consider natural=peak for the most distinct mountains in the district" />
		<tag k="name" v="Telgåsen" />
		<tag k="natural" v="hill" />
		<tag k="place" v="locality" />
		<tag k="ssr:stedsnr" v="704403" />
	</node>
	<node id="-756195" lat="63.4146249989" lon="10.7126194422">
		<tag k="name" v="Kolmildalen" />
		<tag k="natural" v="valley" />
		<tag k="place" v="locality" />
		<tag k="ssr:stedsnr" v="826428" />
	</node>
	<node id="-756048" lat="63.3418666694" lon="10.7006222253">
		<tag k="fixme" v="consider natural=peak for the most distinct mountains in the district" />
		<tag k="name" v="Kvitmåssårabben" />
		<tag k="natural" v="hill" />
		<tag k="place" v="locality" />
		<tag k="ssr:stedsnr" v="582197" />
	</node>
	<node id="-755535" lat="63.4206416697" lon="10.8137750101">
		<tag k="name" v="Kiellandhaugen" />
		<tag k="natural" v="hill" />
		<tag k="place" v="locality" />
		<tag k="ssr:stedsnr" v="704341" />
	</node>
	<node id="-756046" lat="63.3074027743" lon="10.759644447">
		<tag k="name" v="Jøskbekkdalen" />
		<tag k="natural" v="valley" />
		<tag k="place" v="locality" />
		<tag k="ssr:stedsnr" v="582187" />
	</node>
	<node id="-756044" lat="63.3181138881" lon="10.8039305655">
		<tag k="name" v="Olderdalen" />
		<tag k="natural" v="valley" />
		<tag k="place" v="locality" />
		<tag k="ssr:stedsnr" v="582173" />
	</node>
	<node id="-756042" lat="63.4000472258" lon="10.766344449">
		<tag k="fixme" v="consider natural=peak for the most distinct mountains in the district" />
		<tag k="name" v="Stavsjøfjellet" />
		<tag k="natural" v="hill" />
		<tag k="place" v="locality" />
		<tag k="ssr:stedsnr" v="559446" />
	</node>
	<node id="-755529" lat="63.37002222" lon="10.8540083318">
		<tag k="name" v="Aunhaugen" />
		<tag k="natural" v="hill" />
		<tag k="place" v="locality" />
		<tag k="ssr:stedsnr" v="704205" />
	</node>
	<node id="-755527" lat="63.3531888889" lon="10.8101027678">
		<tag k="name" v="Torstjønnsberget" />
		<tag k="natural" v="hill" />
		<tag k="place" v="locality" />
		<tag k="ssr:stedsnr" v="704184" />
	</node>
	<node id="-755525" lat="63.3173194466" lon="10.7948500015">
		<tag k="name" v="Barodalen" />
		<tag k="natural" v="valley" />
		<tag k="place" v="locality" />
		<tag k="ssr:stedsnr" v="704162" />
	</node>
	<node id="-756009" lat="63.308569444" lon="10.8011500003">
		<tag k="name" v="Brottan" />
		<tag k="natural" v="hill" />
		<tag k="place" v="locality" />
		<tag k="ssr:stedsnr" v="522173" />
	</node>
	<node id="-756032" lat="63.3505694406" lon="10.7029527792">
		<tag k="name" v="Fuggelhaugen" />
		<tag k="natural" v="hill" />
		<tag k="place" v="locality" />
		<tag k="ssr:stedsnr" v="522829" />
	</node>
	<node id="-756030" lat="63.3344222183" lon="10.9174083303">
		<tag k="name" v="Brannen" />
		<tag k="natural" v="hill" />
		<tag k="place" v="locality" />
		<tag k="ssr:stedsnr" v="522808" />
	</node>
	<node id="-755517" lat="63.3953944484" lon="10.6600916755">
>>>>>>> e1d4bc35ff8a6074a6f2e91616a996b547c36f15
		<tag k="name" v="Storhaugen" />
		<tag k="natural" v="hill" />
		<tag k="place" v="locality" />
		<tag k="ssr:stedsnr" v="703021" />
	</node>
<<<<<<< HEAD
	<node lat="63.32287222362203" lon="10.743180547967148" id="-33293">
		<tag k="name" v="Bjørndalen" />
		<tag k="natural" v="valley" />
		<tag k="place" v="locality" />
		<tag k="ssr:stedsnr" v="704107" />
	</node>
	<node lat="63.4154888848212" lon="10.817422224542735" id="-33294">
		<tag k="name" v="Korntrøberget" />
=======
	<node id="-755516" lat="63.4186305557" lon="10.6631055484">
		<tag k="fixme" v="consider natural=peak for the most distinct mountains in the district" />
		<tag k="name" v="Forbordsåsen" />
>>>>>>> e1d4bc35ff8a6074a6f2e91616a996b547c36f15
		<tag k="natural" v="hill" />
		<tag k="old_name" v="Høgåsen" />
		<tag k="place" v="locality" />
<<<<<<< HEAD
		<tag k="ssr:stedsnr" v="704117" />
	</node>
	<node lat="63.370022220048824" lon="10.854008331821909" id="-33296">
		<tag k="name" v="Aunhaugen" />
		<tag k="natural" v="hill" />
		<tag k="place" v="locality" />
		<tag k="ssr:stedsnr" v="704205" />
	</node>
	<node lat="63.31731944661741" lon="10.794850001496803" id="-33300">
		<tag k="name" v="Barodalen" />
		<tag k="natural" v="valley" />
		<tag k="place" v="locality" />
		<tag k="ssr:stedsnr" v="704162" />
	</node>
	<node lat="63.369733330403044" lon="10.82070832715478" id="-33302">
		<tag k="name" v="Storkleiva" />
		<tag k="natural" v="slope" />
		<tag k="place" v="locality" />
		<tag k="ssr:stedsnr" v="704326" />
	</node>
	<node lat="63.34000000010936" lon="10.728033343135268" id="-33309">
		<tag k="fixme" v="consider natural=peak for the most distinct mountains in the district" />
		<tag k="name" v="Sjetnbuåsen" />
		<tag k="natural" v="hill" />
		<tag k="place" v="locality" />
		<tag k="ssr:stedsnr" v="741399" />
	</node>
	<node lat="63.30231666964075" lon="10.786219446680642" id="-33313">
		<tag k="fixme" v="consider natural=peak for the most distinct mountains in the district" />
		<tag k="name" v="Gælnåsen" />
		<tag k="natural" v="hill" />
		<tag k="place" v="locality" />
		<tag k="ssr:stedsnr" v="764154" />
	</node>
	<node lat="63.38666944782491" lon="10.705088899047832" id="-33318">
		<tag k="alt_name" v="Kvistingåsen" />
		<tag k="fixme" v="consider natural=peak for the most distinct mountains in the district" />
		<tag k="name" v="Kvistingsåsen" />
		<tag k="natural" v="hill" />
		<tag k="place" v="locality" />
		<tag k="ssr:stedsnr" v="765042" />
	</node>
	<node lat="63.41566111019199" lon="10.686952770905663" id="-33321">
		<tag k="name" v="Skjenstadbakken" />
		<tag k="natural" v="slope" />
		<tag k="place" v="locality" />
		<tag k="ssr:stedsnr" v="765412" />
	</node>
	<node lat="63.38491388846906" lon="10.804400005755907" id="-33322">
		<tag k="name" v="Inner Kjellardalen" />
		<tag k="natural" v="valley" />
		<tag k="place" v="locality" />
		<tag k="ssr:stedsnr" v="765434" />
	</node>
	<node lat="63.37982500403233" lon="10.809244453720646" id="-33323">
		<tag k="name" v="Svartvassberga" />
		<tag k="natural" v="hill" />
		<tag k="place" v="locality" />
		<tag k="ssr:stedsnr" v="765436" />
	</node>
	<node lat="63.36202777522051" lon="10.763072219008619" id="-33324">
		<tag k="name" v="Knottberga" />
		<tag k="natural" v="hill" />
		<tag k="place" v="locality" />
		<tag k="ssr:stedsnr" v="765197" />
	</node>
	<node lat="63.367780551467675" lon="10.683894452622308" id="-33326">
		<tag k="fixme" v="consider natural=peak for the most distinct mountains in the district" />
		<tag k="name" v="Storbrannan" />
		<tag k="natural" v="hill" />
		<tag k="place" v="locality" />
		<tag k="ssr:stedsnr" v="765390" />
	</node>
	<node lat="63.34718611008741" lon="10.829913884777556" id="-33330">
		<tag k="name" v="Snustadhøgberget" />
		<tag k="natural" v="hill" />
		<tag k="place" v="locality" />
		<tag k="ssr:stedsnr" v="802470" />
	</node>
	<node lat="63.40097500416915" lon="10.760686102823426" id="-33332">
		<tag k="name" v="Århaneberget" />
		<tag k="natural" v="hill" />
		<tag k="place" v="locality" />
		<tag k="ssr:stedsnr" v="825421" />
	</node>
	<node lat="63.36386666943737" lon="10.770247213841788" id="-33337">
		<tag k="name" v="Langbruin" />
		<tag k="natural" v="slope" />
		<tag k="place" v="locality" />
		<tag k="ssr:stedsnr" v="826207" />
	</node>
	<node lat="63.31559167086852" lon="10.80528054958164" id="-33341">
		<tag k="name" v="Barodalsrya" />
		<tag k="natural" v="hill" />
		<tag k="place" v="locality" />
		<tag k="ssr:stedsnr" v="826181" />
	</node>
	<node lat="63.34698611455094" lon="10.71150555719333" id="-33352">
		<tag k="fixme" v="consider natural=peak for the most distinct mountains in the district" />
		<tag k="name" v="Litlbergfjellet" />
		<tag k="natural" v="hill" />
		<tag k="place" v="locality" />
		<tag k="ssr:stedsnr" v="923960" />
	</node>
	<node lat="63.405649997161" lon="10.71092500344557" id="-33353">
		<tag k="fixme" v="consider natural=peak for the most distinct mountains in the district" />
		<tag k="name" v="Vuluåsen" />
		<tag k="natural" v="hill" />
		<tag k="place" v="locality" />
		<tag k="ssr:stedsnr" v="924596" />
	</node>
	<node lat="63.36375555801468" lon="10.843386107492943" id="-33354">
		<tag k="fixme" v="consider natural=peak for the most distinct mountains in the district" />
		<tag k="name" v="Næveråsan" />
		<tag k="natural" v="hill" />
		<tag k="place" v="locality" />
		<tag k="ssr:stedsnr" v="862405" />
	</node>
	<node lat="63.37675833204392" lon="10.725158340418783" id="-33355">
		<tag k="name" v="Engeseterberga" />
		<tag k="natural" v="hill" />
		<tag k="place" v="locality" />
		<tag k="ssr:stedsnr" v="863505" />
	</node>
	<node lat="63.41898889016656" lon="10.62784444305328" id="-33359">
		<tag k="name" v="Kvegjardplassen" />
		<tag k="place" v="locality" />
		<tag k="ssr:stedsnr" v="886003" />
	</node>
	<node lat="63.434619446071515" lon="10.815141666948467" id="-33363">
		<tag k="name" v="Svartvika" />
		<tag k="natural" v="valley" />
		<tag k="place" v="locality" />
		<tag k="ssr:stedsnr" v="886056" />
	</node>
	<node lat="63.38888332942483" lon="10.813333326136393" id="-33367">
		<tag k="name" v="Bjørndalskaret" />
		<tag k="natural" v="valley" />
		<tag k="place" v="locality" />
		<tag k="ssr:stedsnr" v="887509" />
	</node>
	<node lat="63.39708888503491" lon="10.805316663355372" id="-33368">
		<tag k="name" v="Renndalen" />
		<tag k="natural" v="valley" />
		<tag k="place" v="locality" />
		<tag k="ssr:stedsnr" v="887510" />
	</node>
	<node lat="63.32051667106953" lon="10.91064999451836" id="-33375">
		<tag k="name" v="Litlmyrdalen" />
		<tag k="natural" v="valley" />
		<tag k="place" v="locality" />
		<tag k="ssr:stedsnr" v="887825" />
	</node>
	<node lat="63.38207777872705" lon="10.79189444065085" id="-33387">
		<tag k="name" v="Øymoen" />
		<tag k="place" v="locality" />
		<tag k="ssr:stedsnr" v="947432" />
	</node>
	<node lat="63.393958335496905" lon="10.783541658295915" id="-33388">
		<tag k="name" v="Stordalen" />
		<tag k="natural" v="valley" />
		<tag k="place" v="locality" />
		<tag k="ssr:stedsnr" v="947450" />
	</node>
	<node lat="63.40629444089246" lon="10.802519436281843" id="-33389">
		<tag k="name" v="Trongdalen" />
		<tag k="natural" v="valley" />
		<tag k="place" v="locality" />
		<tag k="ssr:stedsnr" v="947456" />
	</node>
	<node lat="63.385655559411944" lon="10.82494167293926" id="-33390">
		<tag k="name" v="Snøfonnberget" />
		<tag k="natural" v="hill" />
		<tag k="place" v="locality" />
		<tag k="ssr:stedsnr" v="947463" />
	</node>
	<node lat="63.3219805520532" lon="10.836697212295402" id="-33425">
		<tag k="name" v="Lauvdalen" />
		<tag k="natural" v="valley" />
		<tag k="place" v="locality" />
		<tag k="ssr:stedsnr" v="13346" />
	</node>
	<node lat="63.38052777489117" lon="10.861694449882828" id="-33430">
		<tag k="name" v="Refsinghåmmåren" />
		<tag k="natural" v="hill" />
		<tag k="place" v="locality" />
		<tag k="ssr:stedsnr" v="13499" />
	</node>
	<node lat="63.300383337175404" lon="10.776244441218665" id="-33437">
		<tag k="name" v="Rundhaugen" />
		<tag k="natural" v="hill" />
		<tag k="place" v="locality" />
		<tag k="ssr:stedsnr" v="36143" />
	</node>
	<node lat="63.409838885172334" lon="10.685000000818231" id="-33442">
		<tag k="fixme" v="consider natural=peak for the most distinct mountains in the district" />
		<tag k="name" v="Skjenstadåsen" />
		<tag k="natural" v="hill" />
		<tag k="place" v="locality" />
		<tag k="ssr:stedsnr" v="37439" />
	</node>
	<node lat="63.38272777527628" lon="10.753663892403054" id="-33445">
		<tag k="fixme" v="consider natural=peak for the most distinct mountains in the district" />
		<tag k="name" v="Ner Brannåsan" />
		<tag k="natural" v="hill" />
		<tag k="place" v="locality" />
		<tag k="ssr:stedsnr" v="37453" />
	</node>
	<node lat="63.38768333357613" lon="10.701427779011082" id="-33446">
		<tag k="name" v="Selbudalen" />
		<tag k="natural" v="valley" />
		<tag k="place" v="locality" />
		<tag k="ssr:stedsnr" v="37029" />
	</node>
	<node lat="63.327852773265725" lon="10.738913895576257" id="-33448">
		<tag k="name" v="Heimtjønndalen" />
		<tag k="natural" v="valley" />
		<tag k="place" v="locality" />
		<tag k="ssr:stedsnr" v="37134" />
	</node>
	<node lat="63.36956944683483" lon="10.719549998200167" id="-33449">
		<tag k="name" v="Ner Tøftin" />
		<tag k="natural" v="slope" />
		<tag k="place" v="locality" />
		<tag k="ssr:stedsnr" v="37459" />
	</node>
	<node lat="63.37419166318651" lon="10.794433323474419" id="-33450">
		<tag k="fixme" v="consider natural=peak for the most distinct mountains in the district" />
		<tag k="name" v="Sagtømmeråsen" />
		<tag k="natural" v="hill" />
		<tag k="place" v="locality" />
		<tag k="ssr:stedsnr" v="37464" />
	</node>
	<node lat="63.32791389288936" lon="10.91978055941411" id="-33452">
		<tag k="fixme" v="consider natural=peak for the most distinct mountains in the district" />
		<tag k="name" v="Aunåsan" />
		<tag k="natural" v="hill" />
		<tag k="place" v="locality" />
		<tag k="ssr:stedsnr" v="37847" />
	</node>
	<node lat="63.339191669939495" lon="10.870483335644938" id="-33455">
		<tag k="fixme" v="consider natural=peak for the most distinct mountains in the district" />
		<tag k="name" v="Dalaberget" />
		<tag k="natural" v="hill" />
		<tag k="place" v="locality" />
		<tag k="ssr:stedsnr" v="73417" />
	</node>
	<node lat="63.324452781216785" lon="10.738344453552038" id="-33458">
		<tag k="fixme" v="consider natural=peak for the most distinct mountains in the district" />
		<tag k="name" v="Gælnåsen" />
		<tag k="natural" v="hill" />
		<tag k="place" v="locality" />
		<tag k="ssr:stedsnr" v="74322" />
	</node>
	<node lat="63.39185892954112" lon="10.74552099027446" id="-33464">
		<tag k="name" v="Merkespynten" />
		<tag k="natural" v="hill" />
		<tag k="place" v="locality" />
		<tag k="ssr:stedsnr" v="74453" />
	</node>
	<node lat="63.42693055830459" lon="10.814116667211858" id="-33469">
		<tag k="name" v="Sundtbakken" />
		<tag k="natural" v="slope" />
		<tag k="place" v="locality" />
		<tag k="ssr:stedsnr" v="97074" />
	</node>
	<node lat="63.4217833333011" lon="10.771808324227031" id="-33470">
		<tag k="name" v="Blåhåmmåren" />
		<tag k="natural" v="hill" />
		<tag k="place" v="locality" />
		<tag k="ssr:stedsnr" v="97084" />
	</node>
	<node lat="63.36303055954879" lon="10.772186114930028" id="-33476">
		<tag k="name" v="Nyengbakken" />
		<tag k="natural" v="slope" />
		<tag k="place" v="locality" />
		<tag k="ssr:stedsnr" v="97220" />
	</node>
	<node lat="63.33928888587524" lon="10.748663887074859" id="-33481">
		<tag k="fixme" v="consider natural=peak for the most distinct mountains in the district" />
		<tag k="name" v="Dalakleiva" />
		<tag k="natural" v="hill" />
		<tag k="place" v="locality" />
		<tag k="ssr:stedsnr" v="97099" />
	</node>
	<node lat="63.30350555911044" lon="10.771841659442666" id="-33482">
		<tag k="name" v="Snauhaugen" />
		<tag k="natural" v="hill" />
		<tag k="place" v="locality" />
		<tag k="ssr:stedsnr" v="97177" />
	</node>
	<node lat="63.39176944613273" lon="10.84238611390616" id="-33486">
		<tag k="name" v="Gullringmoen" />
		<tag k="place" v="locality" />
		<tag k="ssr:stedsnr" v="97448" />
	</node>
	<node lat="63.36870832945874" lon="10.667222225719831" id="-33489">
		<tag k="name" v="Ålvasskjølen" />
		<tag k="natural" v="ridge" />
		<tag k="place" v="locality" />
		<tag k="ssr:stedsnr" v="98379" />
	</node>
	<node lat="63.36784722371631" lon="10.71041666985594" id="-33490">
		<tag k="name" v="Klokkardalen" />
		<tag k="natural" v="valley" />
		<tag k="place" v="locality" />
		<tag k="ssr:stedsnr" v="98395" />
	</node>
	<node lat="63.366724999019745" lon="10.708697228994753" id="-33491">
		<tag k="name" v="Slåttkjølen" />
		<tag k="natural" v="ridge" />
		<tag k="place" v="locality" />
		<tag k="ssr:stedsnr" v="98396" />
	</node>
	<node lat="63.40687499701007" lon="10.805405548978271" id="-33492">
		<tag k="name" v="Nordbakkan" />
		<tag k="natural" v="slope" />
		<tag k="place" v="locality" />
		<tag k="ssr:stedsnr" v="98485" />
	</node>
	<node lat="63.38221111358244" lon="10.822669448810927" id="-33493">
		<tag k="name" v="Håsetkjølen" />
		<tag k="natural" v="ridge" />
		<tag k="place" v="locality" />
		<tag k="ssr:stedsnr" v="98491" />
	</node>
	<node lat="63.41183888438286" lon="10.679972229332682" id="-33495">
		<tag k="name" v="Kvitberget" />
		<tag k="natural" v="hill" />
		<tag k="place" v="locality" />
		<tag k="ssr:stedsnr" v="98435" />
	</node>
	<node lat="63.37183889100796" lon="10.739638880929745" id="-33496">
		<tag k="fixme" v="consider natural=peak for the most distinct mountains in the district" />
		<tag k="name" v="Heimåsen" />
		<tag k="natural" v="hill" />
		<tag k="place" v="locality" />
		<tag k="ssr:stedsnr" v="98455" />
	</node>
	<node lat="63.31559443994451" lon="10.884961114683785" id="-33500">
		<tag k="name" v="Hokjølberget" />
		<tag k="natural" v="hill" />
		<tag k="place" v="locality" />
		<tag k="ssr:stedsnr" v="98830" />
	</node>
	<node lat="63.41404166310624" lon="10.85496666297966" id="-33506">
		<tag k="name" v="Rundhaugen" />
		<tag k="natural" v="hill" />
		<tag k="place" v="locality" />
		<tag k="ssr:stedsnr" v="134039" />
	</node>
	<node lat="63.39265555836178" lon="10.817533338324058" id="-33510">
		<tag k="name" v="Slåttmyrdalen" />
		<tag k="natural" v="valley" />
		<tag k="place" v="locality" />
		<tag k="ssr:stedsnr" v="134494" />
	</node>
	<node lat="63.42143889078666" lon="10.639966662830854" id="-33518">
		<tag k="name" v="Fevollsberga" />
		<tag k="natural" v="hill" />
		<tag k="place" v="locality" />
		<tag k="ssr:stedsnr" v="134676" />
	</node>
	<node lat="63.40698888759757" lon="10.665969448272511" id="-33521">
		<tag k="name" v="Kvitberga" />
		<tag k="natural" v="hill" />
		<tag k="place" v="locality" />
		<tag k="ssr:stedsnr" v="157425" />
	</node>
	<node lat="63.320191664853965" lon="10.71941388150636" id="-33528">
		<tag k="name" v="Heimbergsdalen" />
		<tag k="natural" v="valley" />
		<tag k="place" v="locality" />
		<tag k="ssr:stedsnr" v="158170" />
	</node>
	<node lat="63.42348055204929" lon="10.75456111375679" id="-33531">
		<tag k="name" v="Svehøgda" />
		<tag k="natural" v="hill" />
		<tag k="place" v="locality" />
		<tag k="ssr:stedsnr" v="158122" />
	</node>
	<node lat="63.38146389160408" lon="10.75374165736954" id="-33535">
		<tag k="name" v="Lillkjølen" />
		<tag k="natural" v="ridge" />
		<tag k="place" v="locality" />
		<tag k="ssr:stedsnr" v="158425" />
	</node>
	<node lat="63.32871388668326" lon="10.911919449701715" id="-33542">
		<tag k="name" v="Aune" />
		<tag k="natural" v="hill" />
		<tag k="place" v="locality" />
		<tag k="ssr:stedsnr" v="158834" />
	</node>
	<node lat="63.411758335575364" lon="10.583149999430333" id="-33544">
		<tag k="name" v="Korset" />
		<tag k="place" v="locality" />
		<tag k="ssr:stedsnr" v="158879" />
	</node>
	<node lat="63.40247777980081" lon="10.819516663413802" id="-33551">
		<tag k="name" v="Høybydalen" />
		<tag k="natural" v="valley" />
		<tag k="place" v="locality" />
		<tag k="ssr:stedsnr" v="195060" />
	</node>
	<node lat="63.33054722680901" lon="10.734677772572976" id="-33553">
		<tag k="name" v="Stordalen" />
		<tag k="natural" v="valley" />
		<tag k="place" v="locality" />
		<tag k="ssr:stedsnr" v="195176" />
	</node>
	<node lat="63.31021388636306" lon="10.796866658162903" id="-33554">
		<tag k="name" v="Vollahaugen" />
		<tag k="natural" v="hill" />
		<tag k="place" v="locality" />
		<tag k="ssr:stedsnr" v="195378" />
	</node>
	<node lat="63.33129721853569" lon="10.81005555422888" id="-33568">
		<tag k="name" v="Sneishaugen" />
		<tag k="natural" v="hill" />
		<tag k="place" v="locality" />
		<tag k="ssr:stedsnr" v="219142" />
	</node>
	<node lat="63.37519999873951" lon="10.759711116138035" id="-33571">
		<tag k="name" v="Furuhaugan" />
		<tag k="natural" v="hill" />
		<tag k="place" v="locality" />
		<tag k="ssr:stedsnr" v="219423" />
	</node>
	<node lat="63.430800002691306" lon="10.81200277848768" id="-33583">
		<tag k="fixme" v="consider natural=peak for the most distinct mountains in the district" />
		<tag k="name" v="Sveiåsen" />
		<tag k="natural" v="hill" />
		<tag k="place" v="locality" />
		<tag k="ssr:stedsnr" v="279057" />
	</node>
	<node lat="63.31241389152687" lon="10.8115944527308" id="-33587">
		<tag k="name" v="Møssmørhøgda" />
		<tag k="natural" v="hill" />
		<tag k="place" v="locality" />
		<tag k="ssr:stedsnr" v="279169" />
	</node>
	<node lat="63.40588055628408" lon="10.765174996164033" id="-33591">
		<tag k="name" v="Moberga" />
		<tag k="natural" v="hill" />
		<tag k="place" v="locality" />
		<tag k="ssr:stedsnr" v="279483" />
	</node>
	<node lat="63.36299444818091" lon="10.79442778680285" id="-33592">
		<tag k="name" v="Arntslættet" />
		<tag k="place" v="locality" />
		<tag k="ssr:stedsnr" v="279229" />
	</node>
	<node lat="63.43146388691283" lon="10.846177769505749" id="-33596">
		<tag k="name" v="Seterkleiva" />
=======
		<tag k="ssr:stedsnr" v="559608" />
	</node>
	<node id="-755515" lat="63.3995666638" lon="10.8614999929">
		<tag k="name" v="Bjørnholhaugen" />
		<tag k="natural" v="hill" />
		<tag k="place" v="locality" />
		<tag k="ssr:stedsnr" v="559463" />
	</node>
	<node id="-756191" lat="63.3155916709" lon="10.8052805496">
		<tag k="name" v="Barodalsrya" />
		<tag k="natural" v="hill" />
		<tag k="place" v="locality" />
		<tag k="ssr:stedsnr" v="826181" />
	</node>
	<node id="-756024" lat="63.4069611122" lon="10.7996000039">
		<tag k="name" v="Borkdalen" />
		<tag k="natural" v="valley" />
		<tag k="place" v="locality" />
		<tag k="ssr:stedsnr" v="522459" />
	</node>
	<node id="-755511" lat="63.4175166638" lon="10.7488083282">
		<tag k="fixme" v="consider natural=peak for the most distinct mountains in the district" />
		<tag k="name" v="Vassåsen" />
		<tag k="natural" v="hill" />
		<tag k="place" v="locality" />
		<tag k="ssr:stedsnr" v="558011" />
	</node>
	<node id="-755510" lat="63.3851833326" lon="10.6207472163">
		<tag k="name" v="Vasselberga" />
		<tag k="natural" v="hill" />
		<tag k="place" v="locality" />
		<tag k="ssr:stedsnr" v="681540" />
	</node>
	<node id="-756021" lat="63.409205557" lon="10.6695083357">
		<tag k="fixme" v="consider natural=peak for the most distinct mountains in the district" />
		<tag k="name" v="Verklandsåsen" />
		<tag k="natural" v="hill" />
		<tag k="place" v="locality" />
		<tag k="ssr:stedsnr" v="522414" />
	</node>
	<node id="-756020" lat="63.4113861077" lon="10.7161833267">
		<tag k="fixme" v="consider natural=peak for the most distinct mountains in the district" />
		<tag k="name" v="Høgåsen" />
		<tag k="natural" v="hill" />
		<tag k="place" v="locality" />
		<tag k="ssr:stedsnr" v="522402" />
	</node>
	<node id="-756019" lat="63.3760222202" lon="10.7228888869">
		<tag k="name" v="Engseterbergkjølen" />
		<tag k="natural" v="ridge" />
		<tag k="place" v="locality" />
		<tag k="ssr:stedsnr" v="522398" />
	</node>
	<node id="-755503" lat="63.3644027747" lon="10.6487916574">
		<tag k="fixme" v="consider natural=peak for the most distinct mountains in the district" />
		<tag k="name" v="Aunkammen" />
		<tag k="natural" v="hill" />
		<tag k="place" v="locality" />
		<tag k="ssr:stedsnr" v="680993" />
	</node>
	<node id="-756011" lat="63.302416665" lon="10.7788388919">
		<tag k="name" v="Drakstsjødalen" />
		<tag k="natural" v="valley" />
		<tag k="place" v="locality" />
		<tag k="ssr:stedsnr" v="522185" />
	</node>
	<node id="-755498" lat="63.3990166705" lon="10.701872219">
		<tag k="fixme" v="consider natural=peak for the most distinct mountains in the district" />
		<tag k="name" v="Hasetkammen" />
		<tag k="natural" v="hill" />
		<tag k="place" v="locality" />
		<tag k="ssr:stedsnr" v="680640" />
	</node>
	<node id="-756103" lat="63.3837055527" lon="10.7999777723">
		<tag k="name" v="Fremmer Kjellardalen" />
		<tag k="natural" v="valley" />
		<tag k="place" v="locality" />
		<tag k="ssr:stedsnr" v="643429" />
	</node>
	<node id="-755495" lat="63.4288472188" lon="10.5977999992">
		<tag k="fixme" v="consider natural=peak for the most distinct mountains in the district" />
		<tag k="name" v="Aunvåttan" />
		<tag k="natural" v="hill" />
		<tag k="old_name" v="Saksvik varde" />
		<tag k="place" v="locality" />
		<tag k="ssr:stedsnr" v="680689" />
	</node>
	<node id="-756006" lat="63.3145750007" lon="10.8375555577">
		<tag k="fixme" v="consider natural=peak for the most distinct mountains in the district" />
		<tag k="name" v="Vikaråsen" />
		<tag k="natural" v="hill" />
		<tag k="place" v="locality" />
		<tag k="ssr:stedsnr" v="522163" />
	</node>
	<node id="-756005" lat="63.3392888846" lon="10.7991999984">
		<tag k="name" v="Stordalen" />
		<tag k="natural" v="valley" />
		<tag k="place" v="locality" />
		<tag k="ssr:stedsnr" v="522150" />
	</node>
	<node id="-755492" lat="63.3982388931" lon="10.8245555489">
		<tag k="name" v="Gauphaugen" />
		<tag k="natural" v="hill" />
		<tag k="place" v="locality" />
		<tag k="ssr:stedsnr" v="680501" />
	</node>
	<node id="-756001" lat="63.3965000035" lon="10.6884361019">
		<tag k="name" v="Damberga" />
		<tag k="natural" v="hill" />
		<tag k="place" v="locality" />
		<tag k="ssr:stedsnr" v="522034" />
	</node>
	<node id="-756000" lat="63.3901472212" lon="10.6934249984">
		<tag k="fixme" v="consider natural=peak for the most distinct mountains in the district" />
		<tag k="name" v="Ratåsen" />
		<tag k="natural" v="hill" />
		<tag k="place" v="locality" />
		<tag k="ssr:stedsnr" v="522020" />
	</node>
	<node id="-755487" lat="63.3553777772" lon="10.7399527756">
		<tag k="fixme" v="consider natural=peak for the most distinct mountains in the district" />
		<tag k="name" v="Kvitklimpen" />
		<tag k="natural" v="hill" />
		<tag k="place" v="locality" />
		<tag k="ssr:stedsnr" v="680422" />
	</node>
	<node id="-755997" lat="63.4050833344" lon="10.6475611042">
		<tag k="fixme" v="consider natural=peak for the most distinct mountains in the district" />
		<tag k="name" v="Bromsetåsen" />
		<tag k="natural" v="hill" />
		<tag k="place" v="locality" />
		<tag k="ssr:stedsnr" v="438615" />
	</node>
	<node id="-755992" lat="63.3769861138" lon="10.63262778">
		<tag k="alt_name" v="Middagshaugen" />
		<tag k="name" v="Middagshøgda" />
		<tag k="natural" v="hill" />
		<tag k="place" v="locality" />
		<tag k="ssr:stedsnr" v="438519" />
	</node>
	<node id="-756100" lat="63.3770388851" lon="10.7639916594">
		<tag k="name" v="Furuhaugberget" />
		<tag k="natural" v="hill" />
		<tag k="place" v="locality" />
		<tag k="ssr:stedsnr" v="643407" />
	</node>
	<node id="-755986" lat="63.3115972193" lon="10.8454388916">
		<tag k="name" v="Slettberga" />
		<tag k="natural" v="hill" />
		<tag k="place" v="locality" />
		<tag k="ssr:stedsnr" v="438341" />
	</node>
	<node id="-755520" lat="63.4201138853" lon="10.7277944434">
		<tag k="name" v="Søkkholet" />
		<tag k="natural" v="valley" />
		<tag k="place" v="locality" />
		<tag k="ssr:stedsnr" v="704040" />
	</node>
	<node id="-755471" lat="63.3724611074" lon="10.7619888791">
		<tag k="alt_name" v="Nonstaberget" />
		<tag k="name" v="Nonstadberget" />
		<tag k="natural" v="hill" />
		<tag k="place" v="locality" />
		<tag k="ssr:stedsnr" v="498528" />
	</node>
	<node id="-755470" lat="63.3269777822" lon="10.9366388849">
		<tag k="name" v="Aunhaugen" />
		<tag k="natural" v="hill" />
		<tag k="place" v="locality" />
		<tag k="ssr:stedsnr" v="498432" />
	</node>
	<node id="-755981" lat="63.3699250014" lon="10.854302775">
		<tag k="fixme" v="consider natural=peak for the most distinct mountains in the district" />
		<tag k="name" v="Storkleivan" />
		<tag k="natural" v="hill" />
		<tag k="place" v="locality" />
		<tag k="ssr:stedsnr" v="437413" />
	</node>
	<node id="-755467" lat="63.3636194488" lon="10.7856638889">
		<tag k="name" v="Follahaugen" />
		<tag k="natural" v="hill" />
		<tag k="place" v="locality" />
		<tag k="ssr:stedsnr" v="376410" />
	</node>
	<node id="-755461" lat="63.3158166649" lon="10.7754555613">
		<tag k="alt_name" v="Bøckmannsdalen;Burmanndalen" />
		<tag k="name" v="Burmannsdalen" />
		<tag k="natural" v="valley" />
		<tag k="place" v="locality" />
		<tag k="ssr:stedsnr" v="348319" />
	</node>
	<node id="-755972" lat="63.3820361111" lon="10.8157305652">
		<tag k="name" v="Kjølpynten" />
		<tag k="natural" v="hill" />
		<tag k="place" v="locality" />
		<tag k="ssr:stedsnr" v="401475" />
	</node>
	<node id="-755971" lat="63.4021833319" lon="10.7887416657">
		<tag k="name" v="Middagshøgda" />
		<tag k="natural" v="hill" />
		<tag k="place" v="locality" />
		<tag k="ssr:stedsnr" v="401469" />
	</node>
	<node id="-755970" lat="63.3725749977" lon="10.7739999923">
		<tag k="name" v="Rabb-berget" />
		<tag k="natural" v="hill" />
		<tag k="place" v="locality" />
		<tag k="ssr:stedsnr" v="401460" />
	</node>
	<node id="-755969" lat="63.3685805555" lon="10.750449993">
		<tag k="fixme" v="consider natural=peak for the most distinct mountains in the district" />
		<tag k="name" v="Bergåsen" />
		<tag k="natural" v="hill" />
		<tag k="place" v="locality" />
		<tag k="ssr:stedsnr" v="401441" />
	</node>
	<node id="-755968" lat="63.4099472216" lon="10.6610000037">
		<tag k="fixme" v="consider natural=peak for the most distinct mountains in the district" />
		<tag k="name" v="Hestsjøåsen" />
		<tag k="natural" v="hill" />
		<tag k="place" v="locality" />
		<tag k="ssr:stedsnr" v="401431" />
	</node>
	<node id="-755967" lat="63.4135916671" lon="10.7096972256">
		<tag k="fixme" v="consider natural=peak for the most distinct mountains in the district" />
		<tag k="name" v="Brannåsen" />
		<tag k="natural" v="hill" />
		<tag k="place" v="locality" />
		<tag k="ssr:stedsnr" v="401419" />
	</node>
	<node id="-755454" lat="63.3232888927" lon="10.8591083429">
		<tag k="name" v="Haukrya" />
		<tag k="natural" v="hill" />
		<tag k="place" v="locality" />
		<tag k="ssr:stedsnr" v="316360" />
	</node>
	<node id="-755959" lat="63.4324027752" lon="10.7525166662">
		<tag k="fixme" v="consider natural=peak for the most distinct mountains in the district" />
		<tag k="name" v="Sjøtrøkleiva" />
		<tag k="natural" v="hill" />
		<tag k="place" v="locality" />
		<tag k="ssr:stedsnr" v="401075" />
	</node>
	<node id="-755957" lat="63.4007333292" lon="10.6132388948">
		<tag k="fixme" v="consider natural=peak for the most distinct mountains in the district" />
		<tag k="name" v="Vollåsen" />
		<tag k="natural" v="hill" />
		<tag k="place" v="locality" />
		<tag k="ssr:stedsnr" v="401024" />
	</node>
	<node id="-755955" lat="63.4254111137" lon="10.6002277723">
		<tag k="fixme" v="consider natural=peak for the most distinct mountains in the district" />
		<tag k="name" v="Brannåsen" />
		<tag k="natural" v="hill" />
		<tag k="place" v="locality" />
		<tag k="ssr:stedsnr" v="401005" />
	</node>
	<node id="-755442" lat="63.3743972222" lon="10.6208333427">
		<tag k="name" v="Brottadalen" />
		<tag k="natural" v="valley" />
		<tag k="place" v="locality" />
		<tag k="ssr:stedsnr" v="462465" />
	</node>
	<node id="-755953" lat="63.3137000032" lon="10.9097277718">
		<tag k="name" v="Bakliin" />
		<tag k="natural" v="slope" />
		<tag k="place" v="locality" />
		<tag k="ssr:stedsnr" v="400378" />
	</node>
	<node id="-755440" lat="63.381105558" lon="10.7438222157">
		<tag k="fixme" v="consider natural=peak for the most distinct mountains in the district" />
		<tag k="name" v="Brannåsryin" />
		<tag k="natural" v="hill" />
		<tag k="place" v="locality" />
		<tag k="ssr:stedsnr" v="462424" />
	</node>
	<node id="-755439" lat="63.3832694432" lon="10.7401055602">
		<tag k="fixme" v="consider natural=peak for the most distinct mountains in the district" />
		<tag k="name" v="Branntomta" />
		<tag k="natural" v="hill" />
		<tag k="place" v="locality" />
		<tag k="ssr:stedsnr" v="462422" />
	</node>
	<node id="-755438" lat="63.3854527745" lon="10.6761111141">
		<tag k="alt_name" v="Kattugelåsen" />
		<tag k="fixme" v="consider natural=peak for the most distinct mountains in the district" />
		<tag k="name" v="Kattuglåsen" />
		<tag k="natural" v="hill" />
		<tag k="place" v="locality" />
		<tag k="ssr:stedsnr" v="462401" />
	</node>
	<node id="-755949" lat="63.4177249973" lon="10.592091675">
		<tag k="alt_name" v="Ramnås" />
		<tag k="fixme" v="consider natural=peak for the most distinct mountains in the district" />
		<tag k="name" v="Ramnåsen" />
		<tag k="natural" v="hill" />
		<tag k="place" v="locality" />
		<tag k="ssr:stedsnr" v="400342" />
	</node>
	<node id="-755436" lat="63.3065833355" lon="10.7274722293">
		<tag k="fixme" v="consider natural=peak for the most distinct mountains in the district" />
		<tag k="name" v="Hevilen" />
		<tag k="natural" v="hill" />
		<tag k="place" v="locality" />
		<tag k="ssr:stedsnr" v="462358" />
	</node>
	<node id="-755947" lat="63.3692555598" lon="10.7458916721">
		<tag k="fixme" v="consider natural=peak for the most distinct mountains in the district" />
		<tag k="name" v="Granåsen" />
		<tag k="natural" v="hill" />
		<tag k="place" v="locality" />
		<tag k="ssr:stedsnr" v="400333" />
	</node>
	<node id="-755434" lat="63.328033335" lon="10.8074722144">
		<tag k="name" v="Bjørnhaugen" />
		<tag k="natural" v="hill" />
		<tag k="place" v="locality" />
		<tag k="ssr:stedsnr" v="462346" />
	</node>
	<node id="-755433" lat="63.3967888899" lon="10.6490833317">
		<tag k="name" v="Stykkesberga" />
		<tag k="natural" v="hill" />
		<tag k="place" v="locality" />
		<tag k="ssr:stedsnr" v="462010" />
	</node>
	<node id="-755944" lat="63.3350111128" lon="10.7097111156">
		<tag k="name" v="Fjelldalen" />
		<tag k="natural" v="valley" />
		<tag k="place" v="locality" />
		<tag k="ssr:stedsnr" v="400178" />
	</node>
	<node id="-755431" lat="63.4105111143" lon="10.8506305488">
		<tag k="fixme" v="consider natural=peak for the most distinct mountains in the district" />
		<tag k="name" v="Kristofferåsen" />
		<tag k="natural" v="hill" />
		<tag k="place" v="locality" />
		<tag k="ssr:stedsnr" v="461862" />
	</node>
	<node id="-755430" lat="63.3881055546" lon="10.7380277873">
		<tag k="name" v="Tiurhaugan" />
		<tag k="natural" v="hill" />
		<tag k="place" v="locality" />
		<tag k="ssr:stedsnr" v="461495" />
	</node>
	<node id="-755428" lat="63.4034277799" lon="10.7743972268">
		<tag k="name" v="Svartdalen" />
		<tag k="natural" v="valley" />
		<tag k="place" v="locality" />
		<tag k="ssr:stedsnr" v="461480" />
	</node>
	<node id="-755426" lat="63.3881333359" lon="10.7742277693">
		<tag k="name" v="Hallia" />
		<tag k="natural" v="slope" />
		<tag k="place" v="locality" />
		<tag k="ssr:stedsnr" v="461476" />
	</node>
	<node id="-755534" lat="63.3697333304" lon="10.8207083272">
		<tag k="name" v="Storkleiva" />
		<tag k="natural" v="slope" />
		<tag k="place" v="locality" />
		<tag k="ssr:stedsnr" v="704326" />
	</node>
	<node id="-755423" lat="63.3764305522" lon="10.8403638888">
		<tag k="fixme" v="consider natural=peak for the most distinct mountains in the district" />
		<tag k="name" v="Håsetdamrya" />
		<tag k="natural" v="hill" />
		<tag k="place" v="locality" />
		<tag k="ssr:stedsnr" v="461342" />
	</node>
	<node id="-755419" lat="63.31011667" lon="10.8127833247">
		<tag k="fixme" v="consider natural=peak for the most distinct mountains in the district" />
		<tag k="name" v="Langmyråsen" />
		<tag k="natural" v="hill" />
		<tag k="place" v="locality" />
		<tag k="ssr:stedsnr" v="461165" />
	</node>
	<node id="-755418" lat="63.3144861093" lon="10.82381111">
		<tag k="name" v="Steinkleiva" />
		<tag k="natural" v="hill" />
		<tag k="place" v="locality" />
		<tag k="ssr:stedsnr" v="461160" />
	</node>
	<node id="-755417" lat="63.3198555558" lon="10.8285972154">
		<tag k="name" v="Kvernhusdalen" />
		<tag k="natural" v="valley" />
		<tag k="place" v="locality" />
		<tag k="ssr:stedsnr" v="461156" />
	</node>
	<node id="-755415" lat="63.3346944488" lon="10.8018222195">
		<tag k="name" v="Sneisberget" />
		<tag k="natural" v="hill" />
		<tag k="place" v="locality" />
		<tag k="ssr:stedsnr" v="461143" />
	</node>
	<node id="-755919" lat="63.4181361099" lon="10.8472972284">
		<tag k="name" v="Gammelåsdalen" />
		<tag k="natural" v="valley" />
		<tag k="place" v="locality" />
		<tag k="ssr:stedsnr" v="376032" />
	</node>
	<node id="-755406" lat="63.3914194475" lon="10.8325027846">
		<tag k="name" v="Høylandsdalen" />
		<tag k="natural" v="valley" />
		<tag k="place" v="locality" />
		<tag k="ssr:stedsnr" v="280510" />
	</node>
	<node id="-755917" lat="63.3585222213" lon="10.6895805547">
		<tag k="name" v="Brannan" />
		<tag k="place" v="locality" />
		<tag k="ssr:stedsnr" v="340846" />
	</node>
	<node id="-755402" lat="63.3249972188" lon="10.8280972131">
		<tag k="fixme" v="consider natural=peak for the most distinct mountains in the district" />
		<tag k="name" v="Kattåsen" />
		<tag k="natural" v="hill" />
		<tag k="place" v="locality" />
		<tag k="ssr:stedsnr" v="279130" />
	</node>
	<node id="-755399" lat="63.410672226" lon="10.8289749968">
		<tag k="name" v="Svartløftberga" />
		<tag k="natural" v="hill" />
		<tag k="place" v="locality" />
		<tag k="ssr:stedsnr" v="279106" />
	</node>
	<node id="-755398" lat="63.3885611142" lon="10.7057861126">
		<tag k="fixme" v="consider natural=peak for the most distinct mountains in the district" />
		<tag k="name" v="Kvistingskleiva" />
		<tag k="natural" v="hill" />
		<tag k="place" v="locality" />
		<tag k="ssr:stedsnr" v="279024" />
	</node>
	<node id="-755908" lat="63.3810472247" lon="10.7692361151">
		<tag k="name" v="Fosslidalen" />
		<tag k="natural" v="valley" />
		<tag k="place" v="locality" />
		<tag k="ssr:stedsnr" v="340448" />
	</node>
	<node id="-756086" lat="63.3994694465" lon="10.6992388935">
		<tag k="name" v="Kamberga" />
		<tag k="natural" v="hill" />
		<tag k="place" v="locality" />
		<tag k="ssr:stedsnr" v="643035" />
	</node>
	<node id="-755905" lat="63.3741944445" lon="10.6784888981">
		<tag k="name" v="Skjeltjønnberga" />
		<tag k="natural" v="hill" />
		<tag k="place" v="locality" />
		<tag k="ssr:stedsnr" v="340400" />
	</node>
	<node id="-755392" lat="63.3547888896" lon="10.7833972191">
		<tag k="name" v="Karlstad" />
		<tag k="place" v="locality" />
		<tag k="ssr:stedsnr" v="451141" />
	</node>
	<node id="-755903" lat="63.366052781" lon="10.7037805481">
		<tag k="fixme" v="consider natural=peak for the most distinct mountains in the district" />
		<tag k="name" v="Stortøftin" />
		<tag k="natural" v="hill" />
		<tag k="place" v="locality" />
		<tag k="ssr:stedsnr" v="340392" />
	</node>
	<node id="-755900" lat="63.3820555575" lon="10.7993333313">
		<tag k="name" v="Killingberget" />
		<tag k="natural" v="hill" />
		<tag k="place" v="locality" />
		<tag k="ssr:stedsnr" v="340345" />
	</node>
	<node id="-755386" lat="63.3181722265" lon="10.7036111129">
		<tag k="fixme" v="consider natural=peak for the most distinct mountains in the district" />
		<tag k="name" v="Malvikpynten" />
		<tag k="natural" v="hill" />
		<tag k="place" v="locality" />
		<tag k="ssr:stedsnr" v="219372" />
	</node>
	<node id="-755382" lat="63.3312972185" lon="10.8100555542">
		<tag k="name" v="Sneishaugen" />
		<tag k="natural" v="hill" />
		<tag k="place" v="locality" />
		<tag k="ssr:stedsnr" v="219142" />
	</node>
	<node id="-755892" lat="63.3274472268" lon="10.8279666596">
		<tag k="name" v="Tjønndalen" />
		<tag k="natural" v="valley" />
		<tag k="place" v="locality" />
		<tag k="ssr:stedsnr" v="340145" />
	</node>
	<node id="-755379" lat="63.4248583308" lon="10.8142277778">
		<tag k="fixme" v="consider natural=peak for the most distinct mountains in the district" />
		<tag k="name" v="Langåsen" />
		<tag k="natural" v="hill" />
		<tag k="place" v="locality" />
		<tag k="ssr:stedsnr" v="219128" />
	</node>
	<node id="-755885" lat="63.4332694428" lon="10.6253944525">
		<tag k="name" v="Elvdalen" />
		<tag k="natural" v="valley" />
		<tag k="place" v="locality" />
		<tag k="ssr:stedsnr" v="340071" />
	</node>
	<node id="-755372" lat="63.3706138903" lon="10.804819442">
		<tag k="name" v="Langdalslia" />
		<tag k="natural" v="slope" />
		<tag k="place" v="locality" />
		<tag k="ssr:stedsnr" v="280481" />
	</node>
	<node id="-755371" lat="63.4070111076" lon="10.803383334">
		<tag k="name" v="Brandsletta" />
		<tag k="place" v="locality" />
		<tag k="ssr:stedsnr" v="280479" />
	</node>
	<node id="-755818" lat="63.4214388908" lon="10.6399666628">
		<tag k="name" v="Fevollsberga" />
>>>>>>> e1d4bc35ff8a6074a6f2e91616a996b547c36f15
		<tag k="natural" v="hill" />
		<tag k="place" v="locality" />
		<tag k="ssr:stedsnr" v="279846" />
	</node>
<<<<<<< HEAD
	<node lat="63.40701110755426" lon="10.803383333983874" id="-33598">
		<tag k="name" v="Brandsletta" />
		<tag k="place" v="locality" />
		<tag k="ssr:stedsnr" v="280479" />
	</node>
	<node lat="63.370613890290166" lon="10.804819441990436" id="-33599">
		<tag k="name" v="Langdalslia" />
		<tag k="natural" v="slope" />
		<tag k="place" v="locality" />
		<tag k="ssr:stedsnr" v="280481" />
	</node>
	<node lat="63.319024995817244" lon="10.845894439718695" id="-33600">
		<tag k="name" v="Svea" />
		<tag k="natural" v="hill" />
		<tag k="place" v="locality" />
		<tag k="ssr:stedsnr" v="316422" />
	</node>
	<node lat="63.305183330465894" lon="10.774638895657873" id="-33607">
		<tag k="name" v="Høgberget" />
		<tag k="natural" v="hill" />
		<tag k="place" v="locality" />
		<tag k="ssr:stedsnr" v="340176" />
	</node>
	<node lat="63.43326944278134" lon="10.62539445246973" id="-33608">
		<tag k="name" v="Elvdalen" />
		<tag k="natural" v="valley" />
		<tag k="place" v="locality" />
		<tag k="ssr:stedsnr" v="340071" />
	</node>
	<node lat="63.323897221709615" lon="10.8646138977813" id="-33616">
		<tag k="name" v="Tjurrumyrdalen" />
		<tag k="natural" v="valley" />
		<tag k="place" v="locality" />
		<tag k="ssr:stedsnr" v="340255" />
	</node>
	<node lat="63.36605278095215" lon="10.703780548055159" id="-33620">
		<tag k="fixme" v="consider natural=peak for the most distinct mountains in the district" />
		<tag k="name" v="Stortøftin" />
		<tag k="natural" v="hill" />
		<tag k="place" v="locality" />
		<tag k="ssr:stedsnr" v="340392" />
	</node>
	<node lat="63.41813610988859" lon="10.84729722839736" id="-33628">
		<tag k="name" v="Gammelåsdalen" />
		<tag k="natural" v="valley" />
		<tag k="place" v="locality" />
		<tag k="ssr:stedsnr" v="376032" />
	</node>
	<node lat="63.36361944875719" lon="10.78566388893074" id="-33629">
		<tag k="name" v="Follahaugen" />
		<tag k="natural" v="hill" />
		<tag k="place" v="locality" />
		<tag k="ssr:stedsnr" v="376410" />
	</node>
	<node lat="63.34551111142236" lon="10.793205555297948" id="-33653">
		<tag k="name" v="Litlkleivdalen" />
		<tag k="natural" v="valley" />
		<tag k="place" v="locality" />
		<tag k="ssr:stedsnr" v="400193" />
	</node>
	<node lat="63.34517500276243" lon="10.74727221581155" id="-33656">
		<tag k="fixme" v="consider natural=peak for the most distinct mountains in the district" />
		<tag k="name" v="Hulåsen" />
		<tag k="natural" v="hill" />
		<tag k="place" v="locality" />
		<tag k="ssr:stedsnr" v="400148" />
	</node>
	<node lat="63.417080551829194" lon="10.647072225415048" id="-33657">
		<tag k="fixme" v="consider natural=peak for the most distinct mountains in the district" />
		<tag k="name" v="Fjølstadåsen" />
		<tag k="natural" v="hill" />
		<tag k="place" v="locality" />
		<tag k="ssr:stedsnr" v="400341" />
	</node>
	<node lat="63.417724997318636" lon="10.592091675011213" id="-33658">
		<tag k="alt_name" v="Ramnås" />
		<tag k="fixme" v="consider natural=peak for the most distinct mountains in the district" />
		<tag k="name" v="Ramnåsen" />
		<tag k="natural" v="hill" />
		<tag k="place" v="locality" />
		<tag k="ssr:stedsnr" v="400342" />
	</node>
	<node lat="63.43054722012681" lon="10.648538897278117" id="-33659">
		<tag k="name" v="Leistadhaugen" />
		<tag k="natural" v="hill" />
		<tag k="place" v="locality" />
		<tag k="ssr:stedsnr" v="400346" />
	</node>
	<node lat="63.404102777778995" lon="10.720727769579966" id="-33660">
		<tag k="name" v="Seterbakkan" />
		<tag k="natural" v="slope" />
		<tag k="place" v="locality" />
		<tag k="ssr:stedsnr" v="400462" />
	</node>
	<node lat="63.40073332923856" lon="10.613238894800476" id="-33661">
		<tag k="fixme" v="consider natural=peak for the most distinct mountains in the district" />
		<tag k="name" v="Vollåsen" />
		<tag k="natural" v="hill" />
		<tag k="place" v="locality" />
		<tag k="ssr:stedsnr" v="401024" />
	</node>
	<node lat="63.36858055545232" lon="10.75044999295117" id="-33667">
		<tag k="fixme" v="consider natural=peak for the most distinct mountains in the district" />
		<tag k="name" v="Bergåsen" />
		<tag k="natural" v="hill" />
		<tag k="place" v="locality" />
		<tag k="ssr:stedsnr" v="401441" />
	</node>
	<node lat="63.37257499771797" lon="10.773999992303601" id="-33668">
		<tag k="name" v="Rabb-berget" />
		<tag k="natural" v="hill" />
		<tag k="place" v="locality" />
		<tag k="ssr:stedsnr" v="401460" />
	</node>
	<node lat="63.40218333194404" lon="10.788741665747414" id="-33669">
		<tag k="name" v="Middagshøgda" />
		<tag k="natural" v="hill" />
		<tag k="place" v="locality" />
		<tag k="ssr:stedsnr" v="401469" />
	</node>
	<node lat="63.41359166708748" lon="10.709697225636749" id="-33671">
		<tag k="fixme" v="consider natural=peak for the most distinct mountains in the district" />
		<tag k="name" v="Brannåsen" />
		<tag k="natural" v="hill" />
		<tag k="place" v="locality" />
		<tag k="ssr:stedsnr" v="401419" />
	</node>
	<node lat="63.407077779862014" lon="10.723355546239699" id="-33676">
		<tag k="fixme" v="consider natural=peak for the most distinct mountains in the district" />
		<tag k="name" v="Storåsen" />
		<tag k="natural" v="hill" />
		<tag k="place" v="locality" />
		<tag k="ssr:stedsnr" v="438032" />
	</node>
	<node lat="63.37698611379366" lon="10.632627779964192" id="-33681">
		<tag k="alt_name" v="Middagshaugen" />
		<tag k="name" v="Middagshøgda" />
		<tag k="natural" v="hill" />
		<tag k="place" v="locality" />
		<tag k="ssr:stedsnr" v="438519" />
	</node>
	<node lat="63.31159721927861" lon="10.845438891560994" id="-33686">
		<tag k="name" v="Slettberga" />
		<tag k="natural" v="hill" />
		<tag k="place" v="locality" />
		<tag k="ssr:stedsnr" v="438341" />
	</node>
	<node lat="63.386555553353936" lon="10.73629445299385" id="-33691">
		<tag k="fixme" v="consider natural=peak for the most distinct mountains in the district" />
		<tag k="name" v="Skarpåsen" />
		<tag k="natural" v="hill" />
		<tag k="place" v="locality" />
		<tag k="ssr:stedsnr" v="498545" />
	</node>
	<node lat="63.32697778215059" lon="10.936638884869591" id="-33694">
		<tag k="name" v="Aunhaugen" />
		<tag k="natural" v="hill" />
		<tag k="place" v="locality" />
		<tag k="ssr:stedsnr" v="498432" />
	</node>
	<node lat="63.3724611074004" lon="10.761988879075213" id="-33699">
		<tag k="alt_name" v="Nonstaberget" />
		<tag k="name" v="Nonstadberget" />
		<tag k="natural" v="hill" />
		<tag k="place" v="locality" />
		<tag k="ssr:stedsnr" v="498528" />
	</node>
	<node lat="63.39014722124466" lon="10.693424998372633" id="-33704">
		<tag k="fixme" v="consider natural=peak for the most distinct mountains in the district" />
		<tag k="name" v="Ratåsen" />
		<tag k="natural" v="hill" />
		<tag k="place" v="locality" />
		<tag k="ssr:stedsnr" v="522020" />
	</node>
	<node lat="63.396500003460346" lon="10.688436101900253" id="-33705">
		<tag k="name" v="Damberga" />
		<tag k="natural" v="hill" />
		<tag k="place" v="locality" />
		<tag k="ssr:stedsnr" v="522034" />
	</node>
	<node lat="63.33928888460699" lon="10.799199998443246" id="-33708">
		<tag k="name" v="Stordalen" />
		<tag k="natural" v="valley" />
		<tag k="place" v="locality" />
		<tag k="ssr:stedsnr" v="522150" />
	</node>
	<node lat="63.31457500071046" lon="10.837555557701412" id="-33709">
		<tag k="fixme" v="consider natural=peak for the most distinct mountains in the district" />
		<tag k="name" v="Vikaråsen" />
		<tag k="natural" v="hill" />
		<tag k="place" v="locality" />
		<tag k="ssr:stedsnr" v="522163" />
	</node>
	<node lat="63.308569444044586" lon="10.801150000347082" id="-33712">
		<tag k="name" v="Brottan" />
		<tag k="natural" v="hill" />
		<tag k="place" v="locality" />
		<tag k="ssr:stedsnr" v="522173" />
	</node>
	<node lat="63.37602222018929" lon="10.722888886866022" id="-33716">
		<tag k="name" v="Engseterbergkjølen" />
		<tag k="natural" v="ridge" />
		<tag k="place" v="locality" />
		<tag k="ssr:stedsnr" v="522398" />
	</node>
	<node lat="63.40696111218503" lon="10.79960000388149" id="-33717">
		<tag k="name" v="Borkdalen" />
		<tag k="natural" v="valley" />
		<tag k="place" v="locality" />
		<tag k="ssr:stedsnr" v="522459" />
	</node>
	<node lat="63.409205556950475" lon="10.669508335715424" id="-33719">
		<tag k="fixme" v="consider natural=peak for the most distinct mountains in the district" />
		<tag k="name" v="Verklandsåsen" />
		<tag k="natural" v="hill" />
		<tag k="place" v="locality" />
		<tag k="ssr:stedsnr" v="522414" />
	</node>
	<node lat="63.35056944058398" lon="10.702952779179068" id="-33725">
		<tag k="name" v="Fuggelhaugen" />
		<tag k="natural" v="hill" />
		<tag k="place" v="locality" />
		<tag k="ssr:stedsnr" v="522829" />
	</node>
	<node lat="63.39956666377786" lon="10.861499992880795" id="-33733">
		<tag k="name" v="Bjørnholhaugen" />
		<tag k="natural" v="hill" />
		<tag k="place" v="locality" />
		<tag k="ssr:stedsnr" v="559463" />
	</node>
	<node lat="63.370405559288315" lon="10.649391662897537" id="-33736">
		<tag k="fixme" v="consider natural=peak for the most distinct mountains in the district" />
		<tag k="name" v="Slettingåsen" />
		<tag k="natural" v="hill" />
		<tag k="place" v="locality" />
		<tag k="ssr:stedsnr" v="582367" />
	</node>
	<node lat="63.33934721963728" lon="10.78983333038246" id="-33740">
		<tag k="name" v="Ingriktholet" />
		<tag k="natural" v="valley" />
		<tag k="place" v="locality" />
		<tag k="ssr:stedsnr" v="582149" />
	</node>
	<node lat="63.31811388805088" lon="10.803930565465647" id="-33741">
		<tag k="name" v="Olderdalen" />
		<tag k="natural" v="valley" />
		<tag k="place" v="locality" />
		<tag k="ssr:stedsnr" v="582173" />
	</node>
	<node lat="63.307402774287716" lon="10.75964444696777" id="-33743">
		<tag k="name" v="Jøskbekkdalen" />
		<tag k="natural" v="valley" />
		<tag k="place" v="locality" />
		<tag k="ssr:stedsnr" v="582187" />
	</node>
	<node lat="63.31247222080357" lon="10.759688891688759" id="-33744">
		<tag k="fixme" v="consider natural=peak for the most distinct mountains in the district" />
		<tag k="name" v="Drakstsjøåsen" />
		<tag k="natural" v="hill" />
		<tag k="place" v="locality" />
		<tag k="ssr:stedsnr" v="582188" />
	</node>
	<node lat="63.38056667007356" lon="10.857836117375335" id="-33747">
		<tag k="fixme" v="consider natural=peak for the most distinct mountains in the district" />
		<tag k="name" v="Røståsan" />
		<tag k="natural" v="hill" />
		<tag k="place" v="locality" />
		<tag k="ssr:stedsnr" v="582249" />
	</node>
	<node lat="63.41352499858196" lon="10.852847216491133" id="-33749">
		<tag k="fixme" v="consider natural=peak for the most distinct mountains in the district" />
		<tag k="name" v="Tjønnmyrhåmmåren" />
		<tag k="natural" v="hill" />
		<tag k="place" v="locality" />
		<tag k="ssr:stedsnr" v="582860" />
	</node>
	<node lat="63.350747224810284" lon="10.868141658904097" id="-33756">
		<tag k="fixme" v="consider natural=peak for the most distinct mountains in the district" />
		<tag k="name" v="Brannåsen" />
		<tag k="natural" v="hill" />
		<tag k="place" v="locality" />
		<tag k="ssr:stedsnr" v="583822" />
	</node>
	<node lat="63.36164721792433" lon="10.789641663606497" id="-33763">
		<tag k="name" v="Nævermoen" />
		<tag k="place" v="locality" />
		<tag k="ssr:stedsnr" v="619447" />
	</node>
	<node lat="63.432992451171756" lon="10.863107416681565" id="-33766">
		<tag k="fixme" v="consider natural=peak for the most distinct mountains in the district" />
		<tag k="name" v="Gjevingåsen" />
		<tag k="natural" v="hill" />
		<tag k="place" v="locality" />
		<tag k="ssr:stedsnr" v="619149" />
	</node>
	<node lat="63.377208335232424" lon="10.621116670414013" id="-33767">
		<tag k="fixme" v="consider natural=peak for the most distinct mountains in the district" />
		<tag k="name" v="Tripynten" />
		<tag k="natural" v="hill" />
		<tag k="place" v="locality" />
		<tag k="ssr:stedsnr" v="619566" />
	</node>
	<node lat="63.39946944646141" lon="10.699238893530055" id="-33771">
		<tag k="name" v="Kamberga" />
		<tag k="natural" v="hill" />
		<tag k="place" v="locality" />
		<tag k="ssr:stedsnr" v="643035" />
	</node>
	<node lat="63.35037499910577" lon="10.831986106566832" id="-33772">
		<tag k="fixme" v="consider natural=peak for the most distinct mountains in the district" />
		<tag k="name" v="Snustadåsan" />
		<tag k="natural" v="hill" />
		<tag k="place" v="locality" />
		<tag k="ssr:stedsnr" v="643218" />
	</node>
	<node lat="63.333858333183436" lon="10.83064444272517" id="-33775">
		<tag k="name" v="Sagranhaugen" />
		<tag k="natural" v="hill" />
		<tag k="place" v="locality" />
		<tag k="ssr:stedsnr" v="643157" />
	</node>
	<node lat="63.3328805540409" lon="10.78530832768347" id="-33776">
		<tag k="name" v="Rundhaugen" />
		<tag k="natural" v="hill" />
		<tag k="place" v="locality" />
		<tag k="ssr:stedsnr" v="643170" />
	</node>
	<node lat="63.40538889267437" lon="10.8038777768829" id="-33778">
		<tag k="name" v="Nesberget" />
		<tag k="natural" v="hill" />
		<tag k="place" v="locality" />
		<tag k="ssr:stedsnr" v="643444" />
	</node>
	<node lat="63.408255559686225" lon="10.855105546081123" id="-33780">
		<tag k="name" v="Tronget" />
		<tag k="natural" v="valley" />
=======
	<node id="-755881" lat="63.3941750041" lon="10.657752768">
		<tag k="name" v="Nonshaugen" />
		<tag k="natural" v="hill" />
		<tag k="place" v="locality" />
		<tag k="ssr:stedsnr" v="339017" />
	</node>
	<node id="-755367" lat="63.4387972191" lon="10.6765444399">
		<tag k="name" v="Haugsberget" />
		<tag k="natural" v="hill" />
		<tag k="place" v="locality" />
		<tag k="ssr:stedsnr" v="165820" />
	</node>
	<node id="-755364" lat="63.4099694484" lon="10.7077555529">
		<tag k="fixme" v="consider natural=peak for the most distinct mountains in the district" />
		<tag k="name" v="Fossmyråsen" />
		<tag k="natural" v="hill" />
		<tag k="place" v="locality" />
		<tag k="ssr:stedsnr" v="280410" />
	</node>
	<node id="-755875" lat="63.3190249958" lon="10.8458944397">
		<tag k="name" v="Svea" />
		<tag k="natural" v="hill" />
		<tag k="place" v="locality" />
		<tag k="ssr:stedsnr" v="316422" />
	</node>
	<node id="-755362" lat="63.4314638869" lon="10.8461777695">
		<tag k="name" v="Seterkleiva" />
		<tag k="natural" v="hill" />
		<tag k="place" v="locality" />
		<tag k="ssr:stedsnr" v="279846" />
	</node>
	<node id="-755361" lat="63.4058805563" lon="10.7651749962">
		<tag k="name" v="Moberga" />
		<tag k="natural" v="hill" />
		<tag k="place" v="locality" />
		<tag k="ssr:stedsnr" v="279483" />
	</node>
	<node id="-755360" lat="63.3609666643" lon="10.7070222152">
		<tag k="name" v="Høgløftin" />
		<tag k="natural" v="hill" />
		<tag k="place" v="locality" />
		<tag k="ssr:stedsnr" v="158859" />
	</node>
	<node id="-755359" lat="63.3287138867" lon="10.9119194497">
		<tag k="name" v="Aune" />
		<tag k="natural" v="hill" />
		<tag k="place" v="locality" />
		<tag k="ssr:stedsnr" v="158834" />
	</node>
	<node id="-755868" lat="63.3102138864" lon="10.7968666582">
		<tag k="name" v="Vollahaugen" />
		<tag k="natural" v="hill" />
		<tag k="place" v="locality" />
		<tag k="ssr:stedsnr" v="195378" />
	</node>
	<node id="-755788" lat="63.3917694461" lon="10.8423861139">
		<tag k="name" v="Gullringmoen" />
		<tag k="place" v="locality" />
		<tag k="ssr:stedsnr" v="97448" />
	</node>
	<node id="-755354" lat="63.3629944482" lon="10.7944277868">
		<tag k="name" v="Arntslættet" />
		<tag k="place" v="locality" />
		<tag k="ssr:stedsnr" v="279229" />
	</node>
	<node id="-755353" lat="63.3548861105" lon="10.78919166">
		<tag k="name" v="Torstjønndalen" />
		<tag k="natural" v="valley" />
		<tag k="place" v="locality" />
		<tag k="ssr:stedsnr" v="279221" />
	</node>
	<node id="-755864" lat="63.3305472268" lon="10.7346777726">
		<tag k="name" v="Stordalen" />
		<tag k="natural" v="valley" />
		<tag k="place" v="locality" />
		<tag k="ssr:stedsnr" v="195176" />
	</node>
	<node id="-755863" lat="63.3380749973" lon="10.6954944386">
		<tag k="fixme" v="consider natural=peak for the most distinct mountains in the district" />
		<tag k="name" v="Gjervfjellet" />
		<tag k="natural" v="hill" />
		<tag k="place" v="locality" />
		<tag k="ssr:stedsnr" v="172360" />
	</node>
	<node id="-755349" lat="63.3124138915" lon="10.8115944527">
		<tag k="name" v="Møssmørhøgda" />
		<tag k="natural" v="hill" />
		<tag k="place" v="locality" />
		<tag k="ssr:stedsnr" v="279169" />
	</node>
	<node id="-755347" lat="63.4308000027" lon="10.8120027785">
		<tag k="fixme" v="consider natural=peak for the most distinct mountains in the district" />
		<tag k="name" v="Sveiåsen" />
		<tag k="natural" v="hill" />
		<tag k="place" v="locality" />
		<tag k="ssr:stedsnr" v="279057" />
	</node>
	<node id="-756090" lat="63.3284333307" lon="10.7477750076">
		<tag k="fixme" v="consider natural=peak for the most distinct mountains in the district" />
		<tag k="name" v="Åsen" />
		<tag k="natural" v="hill" />
		<tag k="place" v="locality" />
		<tag k="ssr:stedsnr" v="643130" />
	</node>
	<node id="-755856" lat="63.3744000009" lon="10.7638500093">
		<tag k="name" v="Fisktjønndalen" />
		<tag k="natural" v="valley" />
		<tag k="place" v="locality" />
		<tag k="ssr:stedsnr" v="158448" />
	</node>
	<node id="-755853" lat="63.3814638916" lon="10.7537416574">
		<tag k="name" v="Lillkjølen" />
		<tag k="natural" v="ridge" />
		<tag k="place" v="locality" />
		<tag k="ssr:stedsnr" v="158425" />
	</node>
	<node id="-755852" lat="63.4092166637" lon="10.6761916684">
		<tag k="name" v="Bølden" />
		<tag k="natural" v="hill" />
		<tag k="place" v="locality" />
		<tag k="ssr:stedsnr" v="158419" />
	</node>
	<node id="-755851" lat="63.4146333339" lon="10.7156027873">
		<tag k="name" v="Gullberget" />
		<tag k="natural" v="hill" />
		<tag k="place" v="locality" />
		<tag k="ssr:stedsnr" v="158416" />
	</node>
	<node id="-755850" lat="63.3810722199" lon="10.6702000061">
		<tag k="name" v="Hyllvasskjølen" />
		<tag k="natural" v="ridge" />
		<tag k="place" v="locality" />
		<tag k="ssr:stedsnr" v="158413" />
	</node>
	<node id="-755849" lat="63.3780027808" lon="10.696516664">
		<tag k="fixme" v="consider natural=peak for the most distinct mountains in the district" />
		<tag k="name" v="Fjølstadvollåsan" />
		<tag k="natural" v="hill" />
		<tag k="place" v="locality" />
		<tag k="ssr:stedsnr" v="158408" />
	</node>
	<node id="-755335" lat="63.4234499979" lon="10.7589388867">
		<tag k="name" v="Svingberget" />
		<tag k="natural" v="hill" />
		<tag k="place" v="locality" />
		<tag k="ssr:stedsnr" v="256023" />
	</node>
	<node id="-755334" lat="63.3464972216" lon="10.7121222227">
		<tag k="fixme" v="consider natural=peak for the most distinct mountains in the district" />
		<tag k="name" v="Fururyin" />
		<tag k="natural" v="hill" />
		<tag k="place" v="locality" />
		<tag k="ssr:stedsnr" v="98873" />
	</node>
	<node id="-755333" lat="63.3703777762" lon="10.7125333319">
		<tag k="name" v="Litltøftin" />
		<tag k="natural" v="hill" />
		<tag k="place" v="locality" />
		<tag k="ssr:stedsnr" v="98475" />
	</node>
	<node id="-755332" lat="63.3835944404" lon="10.7924583379">
		<tag k="name" v="Litlsletta" />
		<tag k="place" v="locality" />
		<tag k="ssr:stedsnr" v="98467" />
	</node>
	<node id="-755331" lat="63.3679638915" lon="10.7950388912">
		<tag k="name" v="Langdalen" />
		<tag k="natural" v="valley" />
		<tag k="place" v="locality" />
		<tag k="ssr:stedsnr" v="98463" />
	</node>
	<node id="-755330" lat="63.3815472236" lon="10.7329861182">
		<tag k="name" v="Skarpåskjølen" />
		<tag k="natural" v="ridge" />
		<tag k="place" v="locality" />
		<tag k="ssr:stedsnr" v="98462" />
	</node>
	<node id="-755841" lat="63.3305138903" lon="10.6878750054">
		<tag k="name" v="Gråberga" />
		<tag k="natural" v="hill" />
		<tag k="place" v="locality" />
		<tag k="ssr:stedsnr" v="158219" />
	</node>
	<node id="-755327" lat="63.371838891" lon="10.7396388809">
		<tag k="fixme" v="consider natural=peak for the most distinct mountains in the district" />
		<tag k="name" v="Heimåsen" />
		<tag k="natural" v="hill" />
		<tag k="place" v="locality" />
		<tag k="ssr:stedsnr" v="98455" />
	</node>
	<node id="-755326" lat="63.3772388922" lon="10.6936388833">
		<tag k="name" v="Fjølstadvollkjølan" />
		<tag k="natural" v="ridge" />
		<tag k="place" v="locality" />
		<tag k="ssr:stedsnr" v="98414" />
	</node>
	<node id="-755836" lat="63.3201916649" lon="10.7194138815">
		<tag k="name" v="Heimbergsdalen" />
		<tag k="natural" v="valley" />
		<tag k="place" v="locality" />
		<tag k="ssr:stedsnr" v="158170" />
	</node>
	<node id="-755323" lat="63.3765138927" lon="10.6712861135">
		<tag k="name" v="Skjeltjønnkjølen" />
		<tag k="natural" v="ridge" />
		<tag k="place" v="locality" />
		<tag k="ssr:stedsnr" v="98370" />
	</node>
	<node id="-755834" lat="63.3171416689" lon="10.7423972251">
		<tag k="name" v="Heinfjordrya" />
		<tag k="natural" v="hill" />
		<tag k="place" v="locality" />
		<tag k="ssr:stedsnr" v="158162" />
	</node>
	<node id="-755321" lat="63.3634861125" lon="10.7448277866">
		<tag k="name" v="Raudkjølen" />
		<tag k="place" v="locality" />
		<tag k="ssr:stedsnr" v="98365" />
	</node>
	<node id="-755830" lat="63.423480552" lon="10.7545611138">
		<tag k="name" v="Svehøgda" />
		<tag k="natural" v="hill" />
		<tag k="place" v="locality" />
		<tag k="ssr:stedsnr" v="158122" />
	</node>
	<node id="-755316" lat="63.4219194437" lon="10.5999222297">
		<tag k="fixme" v="consider natural=peak for the most distinct mountains in the district" />
		<tag k="name" v="Skarpåsen" />
		<tag k="natural" v="hill" />
		<tag k="place" v="locality" />
		<tag k="ssr:stedsnr" v="97005" />
	</node>
	<node id="-755315" lat="63.3452249966" lon="10.8511722205">
		<tag k="name" v="Rundhaugen" />
		<tag k="natural" v="hill" />
		<tag k="place" v="locality" />
		<tag k="ssr:stedsnr" v="255398" />
	</node>
	<node id="-756098" lat="63.3503749991" lon="10.8319861066">
		<tag k="fixme" v="consider natural=peak for the most distinct mountains in the district" />
		<tag k="name" v="Snustadåsan" />
		<tag k="natural" v="hill" />
		<tag k="place" v="locality" />
		<tag k="ssr:stedsnr" v="643218" />
	</node>
	<node id="-755324" lat="63.3694916669" lon="10.6763166755">
		<tag k="fixme" v="consider natural=peak for the most distinct mountains in the district" />
		<tag k="name" v="Littelbrannan" />
		<tag k="natural" v="hill" />
		<tag k="place" v="locality" />
		<tag k="ssr:stedsnr" v="98372" />
	</node>
	<node id="-755822" lat="63.4069888876" lon="10.6659694483">
		<tag k="name" v="Kvitberga" />
		<tag k="natural" v="hill" />
		<tag k="place" v="locality" />
		<tag k="ssr:stedsnr" v="157425" />
	</node>
	<node id="-755306" lat="63.3741916632" lon="10.7944333235">
		<tag k="fixme" v="consider natural=peak for the most distinct mountains in the district" />
		<tag k="name" v="Sagtømmeråsen" />
		<tag k="natural" v="hill" />
		<tag k="place" v="locality" />
		<tag k="ssr:stedsnr" v="37464" />
	</node>
	<node id="-755305" lat="63.3695694468" lon="10.7195499982">
		<tag k="name" v="Ner Tøftin" />
		<tag k="natural" v="slope" />
		<tag k="place" v="locality" />
		<tag k="ssr:stedsnr" v="37459" />
	</node>
	<node id="-755304" lat="63.3827277753" lon="10.7536638924">
		<tag k="fixme" v="consider natural=peak for the most distinct mountains in the district" />
		<tag k="name" v="Ner Brannåsan" />
		<tag k="natural" v="hill" />
		<tag k="place" v="locality" />
		<tag k="ssr:stedsnr" v="37453" />
	</node>
	<node id="-755810" lat="63.3266499967" lon="10.8669944449">
		<tag k="name" v="Nonshaugen" />
		<tag k="natural" v="hill" />
		<tag k="place" v="locality" />
		<tag k="ssr:stedsnr" v="134362" />
	</node>
	<node id="-755808" lat="63.3926555584" lon="10.8175333383">
		<tag k="name" v="Slåttmyrdalen" />
		<tag k="natural" v="valley" />
		<tag k="place" v="locality" />
		<tag k="ssr:stedsnr" v="134494" />
	</node>
	<node id="-755472" lat="63.3865555534" lon="10.736294453">
		<tag k="fixme" v="consider natural=peak for the most distinct mountains in the district" />
		<tag k="name" v="Skarpåsen" />
		<tag k="natural" v="hill" />
		<tag k="place" v="locality" />
		<tag k="ssr:stedsnr" v="498545" />
	</node>
	<node id="-755293" lat="63.3377888844" lon="10.6961944506">
		<tag k="fixme" v="consider natural=peak for the most distinct mountains in the district" />
		<tag k="name" v="Jervfjellet" />
		<tag k="natural" v="hill" />
		<tag k="place" v="locality" />
		<tag k="ssr:stedsnr" v="13904" />
	</node>
	<node id="-755804" lat="63.4140416631" lon="10.854966663">
		<tag k="name" v="Rundhaugen" />
		<tag k="natural" v="hill" />
		<tag k="place" v="locality" />
		<tag k="ssr:stedsnr" v="134039" />
	</node>
	<node id="-755948" lat="63.4170805518" lon="10.6470722254">
		<tag k="fixme" v="consider natural=peak for the most distinct mountains in the district" />
		<tag k="name" v="Fjølstadåsen" />
		<tag k="natural" v="hill" />
		<tag k="place" v="locality" />
		<tag k="ssr:stedsnr" v="400341" />
	</node>
	<node id="-755797" lat="63.3155944399" lon="10.8849611147">
		<tag k="name" v="Hokjølberget" />
		<tag k="natural" v="hill" />
		<tag k="place" v="locality" />
		<tag k="ssr:stedsnr" v="98830" />
	</node>
	<node id="-755796" lat="63.3822111136" lon="10.8226694488">
		<tag k="name" v="Håsetkjølen" />
		<tag k="natural" v="ridge" />
		<tag k="place" v="locality" />
		<tag k="ssr:stedsnr" v="98491" />
	</node>
	<node id="-755982" lat="63.4070777799" lon="10.7233555462">
		<tag k="fixme" v="consider natural=peak for the most distinct mountains in the district" />
		<tag k="name" v="Storåsen" />
		<tag k="natural" v="hill" />
		<tag k="place" v="locality" />
		<tag k="ssr:stedsnr" v="438032" />
	</node>
	<node id="-755794" lat="63.366724999" lon="10.708697229">
		<tag k="name" v="Slåttkjølen" />
		<tag k="natural" v="ridge" />
>>>>>>> e1d4bc35ff8a6074a6f2e91616a996b547c36f15
		<tag k="place" v="locality" />
		<tag k="ssr:stedsnr" v="643849" />
	</node>
<<<<<<< HEAD
	<node lat="63.328544443417144" lon="10.83795555166247" id="-33788">
		<tag k="name" v="Brannan" />
		<tag k="natural" v="hill" />
		<tag k="place" v="locality" />
		<tag k="ssr:stedsnr" v="741368" />
	</node>
	<node lat="63.35756111002001" lon="10.788958329675772" id="-33800">
		<tag k="name" v="Karlstadberga" />
		<tag k="natural" v="hill" />
		<tag k="place" v="locality" />
		<tag k="ssr:stedsnr" v="764173" />
	</node>
	<node lat="63.39405555359925" lon="10.76865833841888" id="-33801">
		<tag k="name" v="Tjurrumildalen" />
		<tag k="natural" v="valley" />
		<tag k="place" v="locality" />
		<tag k="ssr:stedsnr" v="764466" />
	</node>
	<node lat="63.3966722228805" lon="10.771925009004342" id="-33802">
		<tag k="fixme" v="consider natural=peak for the most distinct mountains in the district" />
		<tag k="name" v="Seterstiåsen" />
		<tag k="natural" v="hill" />
		<tag k="place" v="locality" />
		<tag k="ssr:stedsnr" v="764468" />
	</node>
	<node lat="63.41400278081491" lon="10.800161111973177" id="-33810">
		<tag k="name" v="Saligberget" />
		<tag k="natural" v="hill" />
		<tag k="place" v="locality" />
		<tag k="ssr:stedsnr" v="765086" />
	</node>
	<node lat="63.4193111087167" lon="10.765936113662075" id="-33811">
		<tag k="name" v="Grønbergsdalen" />
		<tag k="natural" v="valley" />
		<tag k="place" v="locality" />
		<tag k="ssr:stedsnr" v="765088" />
	</node>
	<node lat="63.32331388743248" lon="10.834316672625407" id="-33812">
		<tag k="name" v="Brannåsberget" />
		<tag k="natural" v="hill" />
		<tag k="place" v="locality" />
		<tag k="ssr:stedsnr" v="765141" />
	</node>
	<node lat="63.33593889036753" lon="10.786911104408013" id="-33813">
		<tag k="name" v="Foldsjødalen" />
		<tag k="natural" v="valley" />
		<tag k="place" v="locality" />
		<tag k="ssr:stedsnr" v="765153" />
	</node>
	<node lat="63.33025555295127" lon="10.777816664107329" id="-33814">
		<tag k="name" v="Teingårdsberget" />
		<tag k="natural" v="hill" />
		<tag k="place" v="locality" />
		<tag k="ssr:stedsnr" v="765154" />
	</node>
	<node lat="63.31426944048104" lon="10.710097215069084" id="-33817">
		<tag k="fixme" v="consider natural=peak for the most distinct mountains in the district" />
		<tag k="name" v="Stormosåsen" />
		<tag k="natural" v="hill" />
		<tag k="place" v="locality" />
		<tag k="ssr:stedsnr" v="765859" />
	</node>
	<node lat="63.35061666606882" lon="10.810802780177594" id="-33825">
		<tag k="fixme" v="consider natural=peak for the most distinct mountains in the district" />
		<tag k="name" v="Langmyråsen" />
		<tag k="natural" v="hill" />
		<tag k="place" v="locality" />
		<tag k="ssr:stedsnr" v="802190" />
	</node>
	<node lat="63.32850555910575" lon="10.858527771311861" id="-33833">
		<tag k="name" v="Hisjesundberget" />
		<tag k="natural" v="hill" />
		<tag k="place" v="locality" />
		<tag k="ssr:stedsnr" v="825179" />
	</node>
	<node lat="63.41462499892551" lon="10.712619442218816" id="-33836">
		<tag k="name" v="Kolmildalen" />
		<tag k="natural" v="valley" />
		<tag k="place" v="locality" />
		<tag k="ssr:stedsnr" v="826428" />
	</node>
	<node lat="63.372655551489345" lon="10.735099995768087" id="-33838">
		<tag k="name" v="Krutberget" />
		<tag k="natural" v="hill" />
		<tag k="place" v="locality" />
		<tag k="ssr:stedsnr" v="826449" />
	</node>
	<node lat="63.33712778183494" lon="10.747163898891175" id="-33845">
		<tag k="name" v="Drengkalldalen" />
		<tag k="natural" v="valley" />
		<tag k="place" v="locality" />
		<tag k="ssr:stedsnr" v="826132" />
	</node>
	<node lat="63.38098332893202" lon="10.791911114166645" id="-33848">
		<tag k="name" v="Øyem" />
		<tag k="natural" v="slope" />
		<tag k="place" v="locality" />
		<tag k="ssr:stedsnr" v="826458" />
	</node>
	<node lat="63.31698055354184" lon="10.90382221270398" id="-33852">
		<tag k="fixme" v="consider natural=peak for the most distinct mountains in the district" />
		<tag k="name" v="Åltjønnryin" />
		<tag k="natural" v="hill" />
		<tag k="place" v="locality" />
		<tag k="ssr:stedsnr" v="826814" />
	</node>
	<node lat="63.32034166894358" lon="10.738255547341613" id="-33865">
		<tag k="name" v="Bjørndalsberga" />
		<tag k="natural" v="hill" />
		<tag k="place" v="locality" />
		<tag k="ssr:stedsnr" v="863356" />
	</node>
	<node lat="63.40083055825498" lon="10.674447223921533" id="-33868">
		<tag k="fixme" v="consider natural=peak for the most distinct mountains in the district" />
		<tag k="name" v="Hønstadåsen" />
		<tag k="natural" v="hill" />
		<tag k="place" v="locality" />
		<tag k="ssr:stedsnr" v="863597" />
	</node>
	<node lat="63.314619446314744" lon="10.73168332927627" id="-33874">
		<tag k="fixme" v="consider natural=peak for the most distinct mountains in the district" />
		<tag k="name" v="Fosslivollrya" />
		<tag k="natural" v="hill" />
		<tag k="place" v="locality" />
		<tag k="ssr:stedsnr" v="886113" />
	</node>
	<node lat="63.32141110800187" lon="10.699141657308886" id="-33879">
=======
	<node id="-755793" lat="63.3678472237" lon="10.7104166699">
		<tag k="name" v="Klokkardalen" />
		<tag k="natural" v="valley" />
		<tag k="place" v="locality" />
		<tag k="ssr:stedsnr" v="98395" />
	</node>
	<node id="-755792" lat="63.3687083295" lon="10.6672222257">
		<tag k="name" v="Ålvasskjølen" />
		<tag k="natural" v="ridge" />
		<tag k="place" v="locality" />
		<tag k="ssr:stedsnr" v="98379" />
	</node>
	<node id="-755791" lat="63.4118388844" lon="10.6799722293">
		<tag k="name" v="Kvitberget" />
		<tag k="natural" v="hill" />
		<tag k="place" v="locality" />
		<tag k="ssr:stedsnr" v="98435" />
	</node>
	<node id="-755277" lat="63.3749138908" lon="10.7855805517">
		<tag k="name" v="Storfossberga" />
		<tag k="natural" v="hill" />
		<tag k="place" v="locality" />
		<tag k="ssr:stedsnr" v="219437" />
	</node>
	<node id="-755276" lat="63.3751999987" lon="10.7597111161">
		<tag k="name" v="Furuhaugan" />
		<tag k="natural" v="hill" />
		<tag k="place" v="locality" />
		<tag k="ssr:stedsnr" v="219423" />
	</node>
	<node id="-755273" lat="63.4032305582" lon="10.7074805531">
		<tag k="name" v="Storkjølen" />
		<tag k="natural" v="ridge" />
		<tag k="place" v="locality" />
		<tag k="ssr:stedsnr" v="219023" />
	</node>
	<node id="-755782" lat="63.3630305595" lon="10.7721861149">
		<tag k="name" v="Nyengbakken" />
		<tag k="natural" v="slope" />
		<tag k="place" v="locality" />
		<tag k="ssr:stedsnr" v="97220" />
	</node>
	<node id="-755894" lat="63.3051833305" lon="10.7746388957">
		<tag k="name" v="Høgberget" />
		<tag k="natural" v="hill" />
		<tag k="place" v="locality" />
		<tag k="ssr:stedsnr" v="340176" />
	</node>
	<node id="-755776" lat="63.3035055591" lon="10.7718416594">
		<tag k="name" v="Snauhaugen" />
		<tag k="natural" v="hill" />
		<tag k="place" v="locality" />
		<tag k="ssr:stedsnr" v="97177" />
	</node>
	<node id="-755296" lat="63.424125003" lon="10.6497361016">
		<tag k="fixme" v="consider natural=peak for the most distinct mountains in the district" />
		<tag k="name" v="Leistadåsen" />
		<tag k="natural" v="hill" />
		<tag k="place" v="locality" />
		<tag k="ssr:stedsnr" v="37014" />
	</node>
	<node id="-755773" lat="63.4217833333" lon="10.7718083242">
		<tag k="name" v="Blåhåmmåren" />
		<tag k="natural" v="hill" />
		<tag k="place" v="locality" />
		<tag k="ssr:stedsnr" v="97084" />
	</node>
	<node id="-755772" lat="63.4269305583" lon="10.8141166672">
		<tag k="name" v="Sundtbakken" />
		<tag k="natural" v="slope" />
		<tag k="place" v="locality" />
		<tag k="ssr:stedsnr" v="97074" />
	</node>
	<node id="-756053" lat="63.3805666701" lon="10.8578361174">
		<tag k="fixme" v="consider natural=peak for the most distinct mountains in the district" />
		<tag k="name" v="Røståsan" />
		<tag k="natural" v="hill" />
		<tag k="place" v="locality" />
		<tag k="ssr:stedsnr" v="582249" />
	</node>
	<node id="-755767" lat="63.3984416695" lon="10.6490027776">
		<tag k="fixme" v="consider natural=peak for the most distinct mountains in the district" />
		<tag k="name" v="Buåsen" />
		<tag k="natural" v="hill" />
		<tag k="place" v="locality" />
		<tag k="ssr:stedsnr" v="74562" />
	</node>
	<node id="-755763" lat="63.394338886" lon="10.750138883">
		<tag k="name" v="Merkespynten" />
		<tag k="natural" v="hill" />
		<tag k="place" v="locality" />
		<tag k="ssr:stedsnr" v="74453" />
	</node>
	<node id="-756147" lat="63.3620277752" lon="10.763072219">
		<tag k="name" v="Knottberga" />
		<tag k="natural" v="hill" />
		<tag k="place" v="locality" />
		<tag k="ssr:stedsnr" v="765197" />
	</node>
	<node id="-755865" lat="63.4024777798" lon="10.8195166634">
		<tag k="name" v="Høybydalen" />
		<tag k="natural" v="valley" />
		<tag k="place" v="locality" />
		<tag k="ssr:stedsnr" v="195060" />
	</node>
	<node id="-755755" lat="63.3244527812" lon="10.7383444536">
>>>>>>> e1d4bc35ff8a6074a6f2e91616a996b547c36f15
		<tag k="fixme" v="consider natural=peak for the most distinct mountains in the district" />
		<tag k="name" v="Gælnåsen" />
		<tag k="natural" v="hill" />
		<tag k="place" v="locality" />
		<tag k="ssr:stedsnr" v="74322" />
	</node>
<<<<<<< HEAD
	<node lat="63.36301388561444" lon="10.834791662360889" id="-33880">
		<tag k="name" v="Koltjønnknoken" />
		<tag k="natural" v="hill" />
		<tag k="place" v="locality" />
		<tag k="ssr:stedsnr" v="886183" />
	</node>
	<node lat="63.34735000304731" lon="10.808608338716692" id="-33881">
		<tag k="name" v="Gruvdalen" />
		<tag k="natural" v="valley" />
		<tag k="place" v="locality" />
		<tag k="ssr:stedsnr" v="886195" />
	</node>
	<node lat="63.33143333573161" lon="10.846147222890387" id="-33883">
		<tag k="fixme" v="consider natural=peak for the most distinct mountains in the district" />
		<tag k="name" v="Moåsen" />
		<tag k="natural" v="hill" />
		<tag k="place" v="locality" />
		<tag k="ssr:stedsnr" v="886234" />
	</node>
	<node lat="63.369866664507356" lon="10.833780562677855" id="-33887">
		<tag k="name" v="Storkleivkjølen" />
		<tag k="natural" v="ridge" />
		<tag k="place" v="locality" />
		<tag k="ssr:stedsnr" v="887491" />
	</node>
	<node lat="63.375975001743505" lon="10.706475007939845" id="-33888">
		<tag k="name" v="Vulusjøkjølen" />
		<tag k="natural" v="ridge" />
		<tag k="place" v="locality" />
		<tag k="ssr:stedsnr" v="887406" />
	</node>
	<node lat="63.408416665813675" lon="10.669669449600105" id="-33889">
		<tag k="fixme" v="consider natural=peak for the most distinct mountains in the district" />
		<tag k="name" v="Litlbergfjellet" />
		<tag k="natural" v="hill" />
		<tag k="place" v="locality" />
		<tag k="ssr:stedsnr" v="887430" />
	</node>
	<node lat="63.383616669161796" lon="10.749244449875524" id="-33890">
		<tag k="fixme" v="consider natural=peak for the most distinct mountains in the district" />
		<tag k="name" v="Øvre Brannåsan" />
		<tag k="natural" v="hill" />
		<tag k="place" v="locality" />
		<tag k="ssr:stedsnr" v="887437" />
	</node>
	<node lat="63.37432500293184" lon="10.736961117006134" id="-33891">
		<tag k="name" v="Kvitmåssåberget" />
		<tag k="natural" v="hill" />
		<tag k="place" v="locality" />
		<tag k="ssr:stedsnr" v="887444" />
	</node>
	<node lat="63.404997220661095" lon="10.710199994562075" id="-33897">
		<tag k="alt_name" v="Grindalsberga" />
		<tag k="name" v="Grinddalsberga" />
		<tag k="natural" v="hill" />
		<tag k="place" v="locality" />
		<tag k="ssr:stedsnr" v="947023" />
	</node>
	<node lat="63.32952222286154" lon="10.733066674425666" id="-33899">
		<tag k="fixme" v="consider natural=peak for the most distinct mountains in the district" />
		<tag k="name" v="Heimtjønnåsen" />
		<tag k="natural" v="hill" />
		<tag k="place" v="locality" />
		<tag k="ssr:stedsnr" v="947102" />
	</node>
	<node lat="63.331133335909875" lon="10.79925556068158" id="-33902">
		<tag k="name" v="Sneisslættet" />
		<tag k="place" v="locality" />
		<tag k="ssr:stedsnr" v="947144" />
	</node>
	<node lat="63.305030556473916" lon="10.82172223004766" id="-33903">
		<tag k="name" v="Kvitberget" />
		<tag k="natural" v="hill" />
		<tag k="place" v="locality" />
		<tag k="ssr:stedsnr" v="947167" />
	</node>
	<node lat="63.34550833696469" lon="10.796519443344945" id="-33905">
		<tag k="name" v="Litlkleivdalsberga" />
		<tag k="natural" v="hill" />
		<tag k="place" v="locality" />
		<tag k="ssr:stedsnr" v="947215" />
	</node>
	<node lat="63.35507777675642" lon="10.75966667645215" id="-33906">
		<tag k="name" v="Leirgruvdalen" />
		<tag k="natural" v="valley" />
		<tag k="place" v="locality" />
		<tag k="ssr:stedsnr" v="947217" />
	</node>
	<node lat="63.33398333662929" lon="10.91039721925406" id="-33918">
		<tag k="name" v="Vass-strupan" />
		<tag k="natural" v="valley" />
		<tag k="place" v="locality" />
		<tag k="ssr:stedsnr" v="947823" />
	</node>
	<node lat="63.38858611232869" lon="10.851133328677314" id="-33919">
		<tag k="name" v="Storfurudalen" />
		<tag k="natural" v="valley" />
		<tag k="place" v="locality" />
		<tag k="ssr:stedsnr" v="947848" />
	</node>
	<node lat="63.30692499571534" lon="10.863972216133227" id="-33920">
		<tag k="name" v="Svegruva" />
		<tag k="place" v="locality" />
		<tag k="ssr:stedsnr" v="947862" />
	</node>
	<node lat="63.31819302056613" lon="10.926352655346648" id="-33951">
		<tag k="fixme" v="multiple name tags, choose one and add the other to alt_name; consider natural=peak for the most distinct mountains in the district" />
		<tag k="name" v="Engfjellet;Engtjennberget" />
		<tag k="natural" v="hill" />
		<tag k="place" v="locality" />
		<tag k="ssr:stedsnr" v="977791" />
=======
	<node id="-756060" lat="63.4135249986" lon="10.8528472165">
		<tag k="fixme" v="consider natural=peak for the most distinct mountains in the district" />
		<tag k="name" v="Tjønnmyrhåmmåren" />
		<tag k="natural" v="hill" />
		<tag k="place" v="locality" />
		<tag k="ssr:stedsnr" v="582860" />
	</node>
	<node id="-755749" lat="63.3391916699" lon="10.8704833356">
		<tag k="fixme" v="consider natural=peak for the most distinct mountains in the district" />
		<tag k="name" v="Dalaberget" />
		<tag k="natural" v="hill" />
		<tag k="place" v="locality" />
		<tag k="ssr:stedsnr" v="73417" />
	</node>
	<node id="-755746" lat="63.3279138929" lon="10.9197805594">
		<tag k="fixme" v="consider natural=peak for the most distinct mountains in the district" />
		<tag k="name" v="Aunåsan" />
		<tag k="natural" v="hill" />
		<tag k="place" v="locality" />
		<tag k="ssr:stedsnr" v="37847" />
	</node>
	<node id="-755744" lat="63.4098388852" lon="10.6850000008">
		<tag k="fixme" v="consider natural=peak for the most distinct mountains in the district" />
		<tag k="name" v="Skjenstadåsen" />
		<tag k="natural" v="hill" />
		<tag k="place" v="locality" />
		<tag k="ssr:stedsnr" v="37439" />
	</node>
	<node id="-755739" lat="63.4182694435" lon="10.8324249978">
		<tag k="name" v="Hågenstadberga" />
		<tag k="natural" v="hill" />
		<tag k="place" v="locality" />
		<tag k="ssr:stedsnr" v="37159" />
	</node>
	<node id="-755737" lat="63.3278527733" lon="10.7389138956">
		<tag k="name" v="Heimtjønndalen" />
		<tag k="natural" v="valley" />
		<tag k="place" v="locality" />
		<tag k="ssr:stedsnr" v="37134" />
	</node>
	<node id="-755735" lat="63.3876833336" lon="10.701427779">
		<tag k="name" v="Selbudalen" />
		<tag k="natural" v="valley" />
		<tag k="place" v="locality" />
		<tag k="ssr:stedsnr" v="37029" />
	</node>
	<node id="-755733" lat="63.3932027781" lon="10.6220083405">
		<tag k="name" v="Vasselberga" />
		<tag k="natural" v="hill" />
		<tag k="place" v="locality" />
		<tag k="ssr:stedsnr" v="36316" />
	</node>
	<node id="-755731" lat="63.3003833372" lon="10.7762444412">
		<tag k="name" v="Rundhaugen" />
		<tag k="natural" v="hill" />
		<tag k="place" v="locality" />
		<tag k="ssr:stedsnr" v="36143" />
	</node>
	<node id="-755728" lat="63.3383333372" lon="10.8089194373">
		<tag k="name" v="Purktjønnberget" />
		<tag k="natural" v="hill" />
		<tag k="place" v="locality" />
		<tag k="ssr:stedsnr" v="36114" />
	</node>
	<node id="-755898" lat="63.3238972217" lon="10.8646138978">
		<tag k="name" v="Tjurrumyrdalen" />
		<tag k="natural" v="valley" />
		<tag k="place" v="locality" />
		<tag k="ssr:stedsnr" v="340255" />
	</node>
	<node id="-755721" lat="63.3805277749" lon="10.8616944499">
		<tag k="name" v="Refsinghåmmåren" />
		<tag k="natural" v="hill" />
		<tag k="place" v="locality" />
		<tag k="ssr:stedsnr" v="13499" />
	</node>
	<node id="-755719" lat="63.3460777743" lon="10.7920305561">
		<tag k="name" v="Litjkleivdalen" />
		<tag k="natural" v="valley" />
		<tag k="place" v="locality" />
		<tag k="ssr:stedsnr" v="13470" />
	</node>
	<node id="-755284" lat="63.3293722211" lon="10.8534833262">
		<tag k="fixme" v="consider natural=peak for the most distinct mountains in the district" />
		<tag k="name" v="Svennslettåsan" />
		<tag k="natural" v="hill" />
		<tag k="place" v="locality" />
		<tag k="ssr:stedsnr" v="219226" />
	</node>
	<node id="-755715" lat="63.3219805521" lon="10.8366972123">
		<tag k="name" v="Lauvdalen" />
		<tag k="natural" v="valley" />
		<tag k="place" v="locality" />
		<tag k="ssr:stedsnr" v="13346" />
>>>>>>> e1d4bc35ff8a6074a6f2e91616a996b547c36f15
	</node>
</osm>
