<?xml version="1.0" encoding="UTF-8"?>
<<<<<<< HEAD
<osm version="0.6" generator="osmapis">
	<node lat="63.3060083322684" lon="10.852108330400908" id="-33017">
		<tag k="alt_name" v="Fosshodet bru" />
		<tag k="bridge" v="yes" />
		<tag k="layer" v="1" />
		<tag k="name" v="Fosshodet" />
		<tag k="ssr:stedsnr" v="148018" />
	</node>
	<node lat="63.432872220182986" lon="10.855119443168546" id="-33221">
		<tag k="highway" v="path" />
		<tag k="name" v="Heimbakkan" />
		<tag k="ssr:stedsnr" v="582847" />
	</node>
	<node lat="63.438771720520315" lon="10.623668723280447" id="-33287">
		<tag k="alt_name" v="Vikhammar" />
		<tag k="name" v="Vikhammer stasjon" />
		<tag k="railway" v="station" />
		<tag k="ssr:stedsnr" v="680715" />
		<tag k="train" v="yes" />
	</node>
	<node lat="63.41345277721805" lon="10.821136110590102" id="-33454">
		<tag k="barrier" v="toll_booth" />
		<tag k="name" v="Hommelvika S" />
		<tag k="ssr:stedsnr" v="48557" />
	</node>
	<node lat="63.42028610787434" lon="10.769883330922191" id="-33532">
=======
<osm generator="osmapis" version="0.6">
	<node id="-755582" lat="63.3715638862" lon="10.8327861053">
		<tag k="highway" v="path" />
		<tag k="name" v="Storkleivstien" />
		<tag k="ssr:stedsnr" v="886341" />
	</node>
	<node id="-756059" lat="63.4328722202" lon="10.8551194432">
		<tag k="highway" v="path" />
		<tag k="name" v="Heimbakkan" />
		<tag k="ssr:stedsnr" v="582847" />
	</node>
	<node id="-755831" lat="63.4202861079" lon="10.7698833309">
>>>>>>> e1d4bc35ff8a6074a6f2e91616a996b547c36f15
		<tag k="fixme" v="consider highway=path" />
		<tag k="highway" v="track" />
		<tag k="name" v="TyttebÃ¦rvegen" />
		<tag k="ssr:stedsnr" v="158124" />
	</node>
<<<<<<< HEAD
	<node lat="63.42277222063245" lon="10.63129722453157" id="-33546">
		<tag k="barrier" v="toll_booth" />
		<tag k="name" v="Leistad S" />
		<tag k="ssr:stedsnr" v="169561" />
	</node>
	<node lat="63.42231388666446" lon="10.631286115747411" id="-33547">
=======
	<node id="-755862" lat="63.4223138867" lon="10.6312861157">
>>>>>>> e1d4bc35ff8a6074a6f2e91616a996b547c36f15
		<tag k="barrier" v="toll_booth" />
		<tag k="name" v="Leistad N" />
		<tag k="ssr:stedsnr" v="169564" />
	</node>
<<<<<<< HEAD
	<node lat="63.43413611296788" lon="10.848191675479544" id="-33727">
		<tag k="fixme" v="consider highway=path" />
		<tag k="highway" v="track" />
		<tag k="name" v="Gammelvegen" />
		<tag k="ssr:stedsnr" v="522839" />
	</node>
	<node lat="63.413316669322484" lon="10.8213777757716" id="-33762">
		<tag k="barrier" v="toll_booth" />
		<tag k="name" v="Hommelvika" />
		<tag k="ssr:stedsnr" v="594540" />
	</node>
	<node lat="63.37156388622034" lon="10.832786105349172" id="-33884">
		<tag k="highway" v="path" />
		<tag k="name" v="Storkleivstien" />
		<tag k="ssr:stedsnr" v="886341" />
	</node>
	<node lat="63.41149711262668" lon="10.79350856917174" id="-33953">
=======
	<node id="-755861" lat="63.4227722206" lon="10.6312972245">
		<tag k="barrier" v="toll_booth" />
		<tag k="name" v="Leistad S" />
		<tag k="ssr:stedsnr" v="169561" />
	</node>
	<node id="-756274" lat="63.4160485974" lon="10.7817765224">
		<tag k="man_made" v="quay" />
		<tag k="name" v="Djupvasskaia" />
		<tag k="place" v="locality" />
		<tag k="ssr:stedsnr" v="1076805" />
	</node>
	<node id="-756273" lat="63.4114971126" lon="10.7935085692">
>>>>>>> e1d4bc35ff8a6074a6f2e91616a996b547c36f15
		<tag k="name" v="Hommelvik stasjon" />
		<tag k="railway" v="station" />
		<tag k="ssr:stedsnr" v="1076225" />
		<tag k="train" v="yes" />
	</node>
<<<<<<< HEAD
	<node lat="63.4160485974349" lon="10.781776522421097" id="-33954">
		<tag k="man_made" v="quay" />
		<tag k="name" v="Djupvasskaia" />
		<tag k="place" v="locality" />
		<tag k="ssr:stedsnr" v="1076805" />
=======
	<node id="-755500" lat="63.4387717205" lon="10.6236687233">
		<tag k="alt_name" v="Vikhammar" />
		<tag k="name" v="Vikhammer stasjon" />
		<tag k="railway" v="station" />
		<tag k="ssr:stedsnr" v="680715" />
		<tag k="train" v="yes" />
	</node>
	<node id="-755346" lat="63.3060083323" lon="10.8521083304">
		<tag k="alt_name" v="Fosshodet bru" />
		<tag k="bridge" v="yes" />
		<tag k="layer" v="1" />
		<tag k="name" v="Fosshodet" />
		<tag k="ssr:stedsnr" v="148018" />
	</node>
	<node id="-756072" lat="63.4133166693" lon="10.8213777758">
		<tag k="barrier" v="toll_booth" />
		<tag k="name" v="Hommelvika" />
		<tag k="ssr:stedsnr" v="594540" />
	</node>
	<node id="-755748" lat="63.4134527772" lon="10.8211361106">
		<tag k="barrier" v="toll_booth" />
		<tag k="name" v="Hommelvika S" />
		<tag k="ssr:stedsnr" v="48557" />
	</node>
	<node id="-756034" lat="63.434136113" lon="10.8481916755">
		<tag k="fixme" v="consider highway=path" />
		<tag k="highway" v="track" />
		<tag k="name" v="Gammelvegen" />
		<tag k="ssr:stedsnr" v="522839" />
>>>>>>> e1d4bc35ff8a6074a6f2e91616a996b547c36f15
	</node>
</osm>
