<?xml version="1.0" encoding="UTF-8"?>
<osm version="0.6" generator="osmapis">
	<node lat="63.429791669700535" lon="10.748775008959347" id="-84645">
		<tag k="alt_name" v="Stavstrøa" />
		<tag k="name" v="Stavtrøa" />
		<tag k="place" v="farm" />
		<tag k="ssr:stedsnr" v="13010" />
	</node>
	<node lat="63.42276666705825" lon="10.757102772207018" id="-84646">
		<tag k="name" v="Svingen" />
		<tag k="place" v="farm" />
		<tag k="ssr:stedsnr" v="13013" />
	</node>
	<node lat="63.42351111296599" lon="10.744844447761226" id="-84647">
		<tag k="fixme" v="consider place=hamlet" />
		<tag k="name" v="Kinnset" />
		<tag k="place" v="farm" />
		<tag k="ssr:stedsnr" v="13015" />
	</node>
	<node lat="63.351127781827536" lon="10.774474997084521" id="-84649">
		<tag k="name" v="Verket" />
		<tag k="place" v="farm" />
		<tag k="ssr:stedsnr" v="13420" />
	</node>
	<node lat="63.39945277385014" lon="10.790436114494584" id="-84651">
		<tag k="name" v="Åsberget" />
		<tag k="place" v="farm" />
		<tag k="ssr:stedsnr" v="13481" />
	</node>
	<node lat="63.36835270555078" lon="10.766775952474859" id="-84652">
		<tag k="fixme" v="consider place=hamlet" />
		<tag k="name" v="Nyhus" />
		<tag k="place" v="farm" />
		<tag k="ssr:stedsnr" v="13505" />
	</node>
	<node lat="63.39400278071464" lon="10.678758325944038" id="-84668">
		<tag k="name" v="Hønstadgjardet" />
		<tag k="place" v="farm" />
		<tag k="ssr:stedsnr" v="37802" />
	</node>
	<node lat="63.41157778016093" lon="10.641180549775926" id="-84669">
		<tag k="name" v="Trøa" />
		<tag k="place" v="farm" />
		<tag k="ssr:stedsnr" v="37826" />
	</node>
	<node lat="63.42540719072846" lon="10.818231902631666" id="-84677">
		<tag k="alt_name" v="Hommelvik vestre" />
		<tag k="name" v="Vestre Hommelvik" />
		<tag k="place" v="farm" />
		<tag k="ssr:stedsnr" v="74023" />
	</node>
	<node lat="63.39671461993739" lon="10.65583730100593" id="-84681">
		<tag k="alt_name" v="Buås" />
		<tag k="fixme" v="consider place=hamlet" />
		<tag k="name" v="Buåsen" />
		<tag k="place" v="farm" />
		<tag k="ssr:stedsnr" v="74561" />
	</node>
	<node lat="63.422705553897664" lon="10.69896943851679" id="-84683">
		<tag k="alt_name" v="Nordre Vulu;Vulu, nedre" />
		<tag k="name" v="Nedre Vulu" />
		<tag k="place" v="farm" />
		<tag k="ssr:stedsnr" v="74655" />
	</node>
	<node lat="63.32347058872969" lon="10.774354170364148" id="-84700">
		<tag k="alt_name" v="Rognås" />
		<tag k="fixme" v="consider place=hamlet" />
		<tag k="name" v="Rognåsen" />
		<tag k="old_name" v="Vollås" />
		<tag k="place" v="farm" />
		<tag k="ssr:stedsnr" v="134371" />
	</node>
	<node lat="63.43837343067956" lon="10.653027512136633" id="-84701">
		<tag k="fixme" v="consider place=hamlet" />
		<tag k="name" v="Naustan" />
		<tag k="place" v="farm" />
		<tag k="ssr:stedsnr" v="134703" />
	</node>
	<node lat="63.33107499984664" lon="10.708063883331162" id="-84702">
		<tag k="name" v="Malvikvollen" />
		<tag k="place" v="isolated_dwelling" />
		<tag k="ssr:stedsnr" v="134912" />
	</node>
	<node lat="63.33346930168655" lon="10.867837239204594" id="-84703">
		<tag k="alt_name" v="Vestre Venn" />
		<tag k="name" v="Venna" />
		<tag k="place" v="farm" />
		<tag k="ssr:stedsnr" v="255335" />
	</node>
	<node lat="63.4229805571463" lon="10.808955558556534" id="-84708">
		<tag k="name" v="Solbakken" />
		<tag k="place" v="farm" />
		<tag k="ssr:stedsnr" v="256026" />
	</node>
	<node lat="63.435075872635764" lon="10.68370149687161" id="-84711">
		<tag k="alt_name" v="Ner Torp;Torp, nedre" />
		<tag k="fixme" v="consider place=hamlet" />
		<tag k="name" v="Nedre Torp" />
		<tag k="place" v="farm" />
		<tag k="ssr:stedsnr" v="256655" />
	</node>
	<node lat="63.33630277596972" lon="10.85165834109214" id="-84734">
		<tag k="name" v="Molund" />
		<tag k="place" v="farm" />
		<tag k="ssr:stedsnr" v="195366" />
	</node>
	<node lat="63.336441663577965" lon="10.842994438043725" id="-84735">
		<tag k="name" v="Skogly" />
		<tag k="place" v="farm" />
		<tag k="ssr:stedsnr" v="195367" />
	</node>
	<node lat="63.425016668044876" lon="10.685819448975703" id="-84753">
		<tag k="name" v="Årli" />
		<tag k="place" v="farm" />
		<tag k="ssr:stedsnr" v="256618" />
	</node>
	<node lat="63.415189416283" lon="10.640602226931588" id="-84754">
		<tag k="fixme" v="consider place=hamlet" />
		<tag k="name" v="Fjølstad" />
		<tag k="place" v="farm" />
		<tag k="ssr:stedsnr" v="256568" />
	</node>
	<node lat="63.427433335235285" lon="10.697416666398054" id="-84767">
		<tag k="name" v="Sandaunet" />
		<tag k="place" v="farm" />
		<tag k="ssr:stedsnr" v="280835" />
	</node>
	<node lat="63.43185278083843" lon="10.641302785875913" id="-84779">
		<tag k="name" v="Leistadtrøa" />
		<tag k="place" v="locality" />
		<tag k="ssr:stedsnr" v="461354" />
	</node>
	<node lat="63.38138889017496" lon="10.766297225864871" id="-84785">
		<tag k="name" v="Foldaslettan" />
		<tag k="place" v="farm" />
		<tag k="ssr:stedsnr" v="462844" />
	</node>
	<node lat="63.424827780577154" lon="10.613647213446749" id="-84791">
		<tag k="fixme" v="consider place=hamlet" />
		<tag k="name" v="Vestre Bjørnstad" />
		<tag k="place" v="farm" />
		<tag k="ssr:stedsnr" v="462775" />
	</node>
	<node lat="63.400783331088626" lon="10.63384722075523" id="-84792">
		<tag k="name" v="Søre Bromset" />
		<tag k="place" v="farm" />
		<tag k="ssr:stedsnr" v="462781" />
	</node>
	<node lat="63.43170000358688" lon="10.601661109437142" id="-84793">
		<tag k="name" v="Aunkleiva" />
		<tag k="place" v="farm" />
		<tag k="ssr:stedsnr" v="462848" />
	</node>
	<node lat="63.42313333154546" lon="10.671944450347294" id="-84794">
		<tag k="name" v="Litle Forbord" />
		<tag k="place" v="farm" />
		<tag k="ssr:stedsnr" v="297873" />
	</node>
	<node lat="63.40926944417305" lon="10.801502771297931" id="-84796">
		<tag k="amenity" v="school" />
		<tag k="name" v="Hommelvik ungdomsskole" />
		<tag k="ssr:stedsnr" v="465231" />
	</node>
	<node lat="63.32957802129585" lon="10.809991080590718" id="-84801">
		<tag k="name" v="Brubakken" />
		<tag k="place" v="farm" />
		<tag k="ssr:stedsnr" v="316367" />
	</node>
	<node lat="63.433250003714136" lon="10.823349995090005" id="-84814">
		<tag k="name" v="Holmen" />
		<tag k="place" v="farm" />
		<tag k="ssr:stedsnr" v="340752" />
	</node>
	<node lat="63.43198333446278" lon="10.825688892864013" id="-84815">
		<tag k="name" v="Moen" />
		<tag k="place" v="farm" />
		<tag k="ssr:stedsnr" v="340754" />
	</node>
	<node lat="63.40928332968713" lon="10.69338611286376" id="-84816">
		<tag k="name" v="Nordre Haset" />
		<tag k="place" v="farm" />
		<tag k="ssr:stedsnr" v="340819" />
	</node>
	<node lat="63.42102222608149" lon="10.671280562036987" id="-84820">
		<tag k="name" v="Øvre Forbord" />
		<tag k="place" v="farm" />
		<tag k="ssr:stedsnr" v="479887" />
	</node>
	<node lat="63.34975833153197" lon="10.858649990574136" id="-84837">
		<tag k="name" v="Nordgjardet" />
		<tag k="place" v="farm" />
		<tag k="ssr:stedsnr" v="401811" />
	</node>
	<node lat="63.43862222402917" lon="10.648316667441604" id="-84838">
		<tag k="name" v="Naustberget" />
		<tag k="place" v="farm" />
		<tag k="ssr:stedsnr" v="401778" />
	</node>
	<node lat="63.43419166665564" lon="10.60850277961355" id="-84839">
		<tag k="name" v="Søre Saksvik" />
		<tag k="place" v="farm" />
		<tag k="ssr:stedsnr" v="401781" />
	</node>
	<node lat="63.41789803634195" lon="10.672780928349436" id="-84843">
		<tag k="alt_name" v="Forbord søndre" />
		<tag k="name" v="Søre Forbord" />
		<tag k="place" v="farm" />
		<tag k="ssr:stedsnr" v="438603" />
	</node>
	<node lat="63.41464167109809" lon="10.661211113510035" id="-84844">
		<tag k="name" v="Vestre Forbord" />
		<tag k="old_name" v="Kvisthaugen" />
		<tag k="place" v="farm" />
		<tag k="ssr:stedsnr" v="438604" />
	</node>
	<node lat="63.42198839807662" lon="10.671831011685468" id="-84845">
		<tag k="fixme" v="consider place=hamlet" />
		<tag k="name" v="Forbord" />
		<tag k="place" v="farm" />
		<tag k="ssr:stedsnr" v="438605" />
	</node>
	<node lat="63.431083330016875" lon="10.748988897979961" id="-84863">
		<tag k="name" v="Stavset" />
		<tag k="place" v="farm" />
		<tag k="ssr:stedsnr" v="462748" />
	</node>
	<node lat="63.4246361701982" lon="10.735262417376534" id="-84864">
		<tag k="name" v="Auntrøa" />
		<tag k="place" v="farm" />
		<tag k="ssr:stedsnr" v="462751" />
	</node>
	<node lat="63.42090555645692" lon="10.623013882336263" id="-84865">
		<tag k="name" v="Østre Bjørnstad" />
		<tag k="place" v="farm" />
		<tag k="ssr:stedsnr" v="462815" />
	</node>
	<node lat="63.43036075555459" lon="10.639757734172258" id="-84869">
		<tag k="alt_name" v="Leistad, l" />
		<tag k="fixme" v="consider place=hamlet" />
		<tag k="name" v="Litle Leistad" />
		<tag k="place" v="farm" />
		<tag k="ssr:stedsnr" v="680685" />
	</node>
	<node lat="63.42948887185272" lon="10.608490701303623" id="-84871">
		<tag k="fixme" v="consider place=hamlet" />
		<tag k="name" v="Aunet" />
		<tag k="place" v="farm" />
		<tag k="ssr:stedsnr" v="680690" />
	</node>
	<node lat="63.373483457505614" lon="10.663736754502112" id="-84876">
		<tag k="fixme" v="multiple name tags, choose one and add the other to alt_name" />
		<tag k="name" v="Nybrudalen;Nybrodalen" />
		<tag k="place" v="farm" />
		<tag k="ssr:stedsnr" v="680591" />
	</node>
	<node lat="63.41068381442931" lon="10.808990132882325" id="-84881">
		<tag k="alt_name" v="Karlslyst" />
		<tag k="fixme" v="consider place=hamlet" />
		<tag k="name" v="Håset" />
		<tag k="place" v="farm" />
		<tag k="ssr:stedsnr" v="498044" />
	</node>
	<node lat="63.39824167086622" lon="10.791799995754271" id="-84885">
		<tag k="name" v="Stokkbakken" />
		<tag k="place" v="farm" />
		<tag k="ssr:stedsnr" v="498504" />
	</node>
	<node lat="63.388384295843885" lon="10.776478409799438" id="-84886">
		<tag k="alt_name" v="Hallien" />
		<tag k="name" v="Hallia" />
		<tag k="place" v="farm" />
		<tag k="ssr:stedsnr" v="681443" />
	</node>
	<node lat="63.43994444290671" lon="10.67370278682422" id="-84896">
		<tag k="name" v="Haugmarka" />
		<tag k="place" v="farm" />
		<tag k="ssr:stedsnr" v="522781" />
	</node>
	<node lat="63.43636944157754" lon="10.665033331424501" id="-84897">
		<tag k="name" v="Ner Haugan" />
		<tag k="place" v="farm" />
		<tag k="ssr:stedsnr" v="522787" />
	</node>
	<node lat="63.43241803849647" lon="10.675039970965752" id="-84905">
		<tag k="alt_name" v="Malvik, l" />
		<tag k="fixme" v="consider place=hamlet" />
		<tag k="name" v="Litle Malvik" />
		<tag k="place" v="farm" />
		<tag k="ssr:stedsnr" v="558705" />
	</node>
	<node lat="63.42102777758388" lon="10.811719434861718" id="-84912">
		<tag k="fixme" v="consider place=hamlet" />
		<tag k="name" v="Midtre Hommelvik" />
		<tag k="place" v="farm" />
		<tag k="ssr:stedsnr" v="582117" />
	</node>
	<node lat="63.33466504254497" lon="10.809906266028774" id="-84921">
		<tag k="fixme" v="consider place=hamlet" />
		<tag k="name" v="Sneisen" />
		<tag k="place" v="farm" />
		<tag k="ssr:stedsnr" v="619382" />
	</node>
	<node lat="63.40051110760722" lon="10.792744439331189" id="-84922">
		<tag k="name" v="Modalen" />
		<tag k="place" v="farm" />
		<tag k="ssr:stedsnr" v="619508" />
	</node>
	<node lat="63.3472555521805" lon="10.76668055585777" id="-84924">
		<tag k="fixme" v="multiple name tags, choose one and add the other to alt_name" />
		<tag k="name" v="Finnplassen;Sjølia" />
		<tag k="place" v="locality" />
		<tag k="ssr:stedsnr" v="619482" />
	</node>
	<node lat="63.43338333148672" lon="10.65964999866428" id="-84925">
		<tag k="alt_name" v="Malvik, vestre" />
		<tag k="name" v="Vestre Malvik" />
		<tag k="place" v="farm" />
		<tag k="ssr:stedsnr" v="619707" />
	</node>
	<node lat="63.421055551709685" lon="10.708647214813237" id="-84927">
		<tag k="alt_name" v="Søre Vulu;Vulu, vestre" />
		<tag k="name" v="Vestre Vulu" />
		<tag k="place" v="farm" />
		<tag k="ssr:stedsnr" v="620570" />
	</node>
	<node lat="63.413608868212734" lon="10.6838618871713" id="-84928">
		<tag k="alt_name" v="Søre Skjenstad" />
		<tag k="name" v="Skjenstad" />
		<tag k="place" v="farm" />
		<tag k="ssr:stedsnr" v="620571" />
	</node>
	<node lat="63.43493611386355" lon="10.821533334768956" id="-84936">
		<tag k="name" v="Sjøvollen" />
		<tag k="place" v="locality" />
		<tag k="ssr:stedsnr" v="704057" />
	</node>
	<node lat="63.418608331705634" lon="10.774944450688137" id="-84937">
		<tag k="fixme" v="consider place=suburb, village or hamlet" />
		<tag k="name" v="Grønberg" />
		<tag k="place" v="quarter" />
		<tag k="ssr:stedsnr" v="704087" />
	</node>
	<node lat="63.40758044312892" lon="10.811382174111015" id="-84968">
		<tag k="fixme" v="consider place=hamlet" />
		<tag k="name" v="Neset" />
		<tag k="place" v="farm" />
		<tag k="ssr:stedsnr" v="643788" />
	</node>
	<node lat="63.42919411178144" lon="10.638548691839384" id="-84969">
		<tag k="name" v="Leistad" />
		<tag k="place" v="hamlet" />
		<tag k="ssr:stedsnr" v="643980" />
	</node>
	<node lat="63.437688884827274" lon="10.63600277222561" id="-84973">
		<tag k="amenity" v="school" />
		<tag k="name" v="Vikhammer ungdomsskole" />
		<tag k="ssr:stedsnr" v="890241" />
	</node>
	<node lat="63.420391665473126" lon="10.670841674901817" id="-84981">
		<tag k="name" v="Nordre Forbord" />
		<tag k="old_name" v="Skånøy" />
		<tag k="place" v="isolated_dwelling" />
		<tag k="ssr:stedsnr" v="680664" />
	</node>
	<node lat="63.432951511733336" lon="10.599163951761042" id="-84982">
		<tag k="alt_name" v="Saksvik vestre" />
		<tag k="name" v="Vestre Saksvik" />
		<tag k="place" v="farm" />
		<tag k="ssr:stedsnr" v="680713" />
	</node>
	<node lat="63.43226389090312" lon="10.748383334164227" id="-84992">
		<tag k="name" v="Sjøtrøa" />
		<tag k="place" v="farm" />
		<tag k="ssr:stedsnr" v="704063" />
	</node>
	<node lat="63.43108889024311" lon="10.71488056415405" id="-85001">
		<tag k="name" v="Sandvika" />
		<tag k="place" v="farm" />
		<tag k="ssr:stedsnr" v="704742" />
	</node>
	<node lat="63.33549444666538" lon="10.812644447150731" id="-85002">
		<tag k="name" v="Sørli" />
		<tag k="place" v="farm" />
		<tag k="ssr:stedsnr" v="704758" />
	</node>
	<node lat="63.33781666741901" lon="10.834552784260106" id="-85005">
		<tag k="alt_name" v="Vennstad" />
		<tag k="name" v="Venstad" />
		<tag k="place" v="farm" />
		<tag k="ssr:stedsnr" v="741393" />
	</node>
	<node lat="63.42972499730002" lon="10.661425004669487" id="-85029">
		<tag k="name" v="Malvikbakk" />
		<tag k="place" v="farm" />
		<tag k="ssr:stedsnr" v="802707" />
	</node>
	<node lat="63.33631666852897" lon="10.81927499865432" id="-85031">
		<tag k="name" v="Haugli" />
		<tag k="place" v="farm" />
		<tag k="ssr:stedsnr" v="825766" />
	</node>
	<node lat="63.32356442898895" lon="10.814498433168865" id="-85032">
		<tag k="alt_name" v="Viken nedre" />
		<tag k="name" v="Ner Vika" />
		<tag k="place" v="farm" />
		<tag k="ssr:stedsnr" v="825769" />
	</node>
	<node lat="63.32436111491345" lon="10.797263885863716" id="-85033">
		<tag k="name" v="Øvre Vollen" />
		<tag k="place" v="farm" />
		<tag k="ssr:stedsnr" v="825771" />
	</node>
	<node lat="63.3272694444811" lon="10.734383328920957" id="-85037">
		<tag k="name" v="Meraker Brug A/S" />
		<tag k="place" v="locality" />
		<tag k="ssr:stedsnr" v="826122" />
	</node>
	<node lat="63.4381000018934" lon="10.606063882468334" id="-85042">
		<tag k="fixme" v="consider place=hamlet" />
		<tag k="name" v="Ner Saksvik" />
		<tag k="place" v="farm" />
		<tag k="ssr:stedsnr" v="826804" />
	</node>
	<node lat="63.410833335573734" lon="10.794249997576062" id="-85043">
		<tag k="name" v="Hommelvik" />
		<tag k="place" v="village" />
		<tag k="ssr:stedsnr" v="923022" />
	</node>
	<node lat="63.35247965146643" lon="10.764063630168977" id="-85045">
		<tag k="name" v="Dalen" />
		<tag k="place" v="farm" />
		<tag k="ssr:stedsnr" v="923423" />
	</node>
	<node lat="63.43030209151024" lon="10.624045071795654" id="-85049">
		<tag k="fixme" v="consider place=hamlet" />
		<tag k="name" v="Granheim" />
		<tag k="place" v="farm" />
		<tag k="ssr:stedsnr" v="923652" />
	</node>
	<node lat="63.38713962661891" lon="10.782324392313773" id="-85054">
		<tag k="alt_name" v="Hallen" />
		<tag k="fixme" v="consider place=hamlet" />
		<tag k="name" v="Halla" />
		<tag k="place" v="farm" />
		<tag k="ssr:stedsnr" v="863458" />
	</node>
	<node lat="63.41855277685565" lon="10.61560000818317" id="-85055">
		<tag k="alt_name" v="Bjørnstad;Bjørnstad, s" />
		<tag k="name" v="Søre Bjørnstad" />
		<tag k="place" v="farm" />
		<tag k="ssr:stedsnr" v="863616" />
	</node>
	<node lat="63.40498183235158" lon="10.812290948059356" id="-85065">
		<tag k="name" v="Sørneset" />
		<tag k="place" v="farm" />
		<tag k="ssr:stedsnr" v="887508" />
	</node>
	<node lat="63.43968862839324" lon="10.632665605092246" id="-85070">
		<tag k="fixme" v="consider place=hamlet" />
		<tag k="name" v="Øvre Vikhammer" />
		<tag k="place" v="farm" />
		<tag k="ssr:stedsnr" v="887805" />
	</node>
	<node lat="63.437783335525744" lon="10.624055556221549" id="-85071">
		<tag k="name" v="Vik" />
		<tag k="place" v="farm" />
		<tag k="ssr:stedsnr" v="887815" />
	</node>
	<node lat="63.412866670045354" lon="10.635752774944478" id="-85072">
		<tag k="name" v="Østre Bostad" />
		<tag k="place" v="farm" />
		<tag k="ssr:stedsnr" v="887820" />
	</node>
	<node lat="63.346330559315774" lon="10.8698555515779" id="-85073">
		<tag k="name" v="Jøssåsen" />
		<tag k="place" v="hamlet" />
		<tag k="ssr:stedsnr" v="887823" />
	</node>
	<node lat="63.43236944212614" lon="10.632347217617882" id="-85075">
		<tag k="name" v="Moen" />
		<tag k="place" v="farm" />
		<tag k="ssr:stedsnr" v="887848" />
	</node>
	<node lat="63.35338055545584" lon="10.77389443458727" id="-85081">
		<tag k="name" v="Øra" />
		<tag k="place" v="locality" />
		<tag k="ssr:stedsnr" v="923421" />
	</node>
	<node lat="63.395742917350844" lon="10.669700441853681" id="-85084">
		<tag k="fixme" v="consider place=hamlet" />
		<tag k="name" v="Hønstad" />
		<tag k="place" v="farm" />
		<tag k="ssr:stedsnr" v="924520" />
	</node>
	<node lat="63.43040011340263" lon="10.76542724427052" id="-85094">
		<tag k="fixme" v="consider place=hamlet" />
		<tag k="name" v="Rota" />
		<tag k="place" v="farm" />
		<tag k="ssr:stedsnr" v="954801" />
	</node>
	<node lat="63.43077803733196" lon="10.740088994124733" id="-85095">
		<tag k="fixme" v="consider place=hamlet" />
		<tag k="name" v="Stav" />
		<tag k="place" v="farm" />
		<tag k="ssr:stedsnr" v="970912" />
	</node>
	<node lat="63.4392368194489" lon="10.633590220640299" id="-85100">
		<tag k="alt_name" v="Vikhammer øvre" />
		<tag k="name" v="Øvre Vikhammer" />
		<tag k="place" v="farm" />
		<tag k="ssr:stedsnr" v="976825" />
	</node>
	<node lat="63.43210600617878" lon="10.69968691086402" id="-85103">
		<tag k="alt_name" v="Torpaunet vestre" />
		<tag k="name" v="Vestre Torpaunet" />
		<tag k="place" v="farm" />
		<tag k="ssr:stedsnr" v="976828" />
	</node>
	<node lat="63.42930702851161" lon="10.63264989092288" id="-85105">
		<tag k="alt_name" v="Leistad nedre" />
		<tag k="name" v="Nedre Leistad" />
		<tag k="place" v="farm" />
		<tag k="ssr:stedsnr" v="976839" />
	</node>
	<node lat="63.32484309821569" lon="10.800291302247777" id="-85125">
		<tag k="alt_name" v="Ner Vollen" />
		<tag k="name" v="Vollen" />
		<tag k="place" v="farm" />
		<tag k="ssr:stedsnr" v="13348" />
	</node>
	<node lat="63.34596529177881" lon="10.87182248338791" id="-85127">
		<tag k="alt_name" v="Store Jøsås;Jøsås, store;Øvergården" />
		<tag k="fixme" v="consider place=hamlet" />
		<tag k="name" v="Store Jøssåsen" />
		<tag k="place" v="farm" />
		<tag k="ssr:stedsnr" v="13449" />
	</node>
	<node lat="63.391561114952744" lon="10.645444451642087" id="-85128">
		<tag k="alt_name" v="Øver Herjuan" />
		<tag k="name" v="Herjuan" />
		<tag k="place" v="farm" />
		<tag k="ssr:stedsnr" v="13550" />
	</node>
	<node lat="63.429175345261164" lon="10.647794881676715" id="-85130">
		<tag k="alt_name" v="Leistad, øvre" />
		<tag k="fixme" v="consider place=hamlet" />
		<tag k="name" v="Øvre Leistad" />
		<tag k="place" v="farm" />
		<tag k="ssr:stedsnr" v="13652" />
	</node>
	<node lat="63.42353888799942" lon="10.679419452344462" id="-85131">
		<tag k="name" v="Solheim" />
		<tag k="place" v="farm" />
		<tag k="ssr:stedsnr" v="13668" />
	</node>
	<node lat="63.423811110153736" lon="10.682841669016318" id="-85132">
		<tag k="alt_name" v="Malvik, s" />
		<tag k="name" v="Søre Malvik" />
		<tag k="place" v="farm" />
		<tag k="ssr:stedsnr" v="13669" />
	</node>
	<node lat="63.43546820366066" lon="10.679365229161819" id="-85133">
		<tag k="alt_name" v="Ner Malvik;Malvik, nedre" />
		<tag k="fixme" v="consider place=hamlet" />
		<tag k="name" v="Nedre Malvik" />
		<tag k="place" v="farm" />
		<tag k="ssr:stedsnr" v="13697" />
	</node>
	<node lat="63.33509166685154" lon="10.858180563917568" id="-85139">
		<tag k="name" v="Moholt" />
		<tag k="place" v="farm" />
		<tag k="ssr:stedsnr" v="36776" />
	</node>
	<node lat="63.381861115378825" lon="10.632086109893537" id="-85150">
		<tag k="name" v="Moarommet" />
		<tag k="place" v="hamlet" />
		<tag k="ssr:stedsnr" v="37503" />
	</node>
	<node lat="63.41260555944249" lon="10.80597777686787" id="-85152">
		<tag k="amenity" v="school" />
		<tag k="name" v="Hommelvik skole" />
		<tag k="ssr:stedsnr" v="40246" />
	</node>
	<node lat="63.40553055914468" lon="10.615547213807044" id="-85166">
		<tag k="name" v="Vollan" />
		<tag k="place" v="farm" />
		<tag k="ssr:stedsnr" v="74622" />
	</node>
	<node lat="63.4251540005495" lon="10.638523036710513" id="-85167">
		<tag k="alt_name" v="Leistad, midtre" />
		<tag k="fixme" v="consider place=hamlet" />
		<tag k="name" v="Midtre Leistad" />
		<tag k="place" v="farm" />
		<tag k="ssr:stedsnr" v="74645" />
	</node>
	<node lat="63.390577781462866" lon="10.6435388876808" id="-85198">
		<tag k="name" v="Ner Herjuan" />
		<tag k="place" v="farm" />
		<tag k="ssr:stedsnr" v="98787" />
	</node>
	<node lat="63.437066670703935" lon="10.605236112362675" id="-85201">
		<tag k="fixme" v="consider place=hamlet" />
		<tag k="name" v="Øvre Saksvik" />
		<tag k="place" v="farm" />
		<tag k="ssr:stedsnr" v="111357" />
	</node>
	<node lat="63.416141662568236" lon="10.82441110253783" id="-85204">
		<tag k="name" v="Sandvang" />
		<tag k="place" v="farm" />
		<tag k="ssr:stedsnr" v="134038" />
	</node>
	<node lat="63.341752775673406" lon="10.79323889411176" id="-85208">
		<tag k="name" v="Hallvardsplassen" />
		<tag k="place" v="farm" />
		<tag k="ssr:stedsnr" v="134480" />
	</node>
	<node lat="63.36887171594614" lon="10.78122182277864" id="-85211">
		<tag k="alt_name" v="Folden" />
		<tag k="fixme" v="consider place=hamlet" />
		<tag k="name" v="Folla" />
		<tag k="place" v="farm" />
		<tag k="ssr:stedsnr" v="134447" />
	</node>
	<node lat="63.420926965534456" lon="10.634862675216072" id="-85216">
		<tag k="name" v="Fevollen" />
		<tag k="place" v="farm" />
		<tag k="ssr:stedsnr" v="134645" />
	</node>
	<node lat="63.42635000190563" lon="10.809286103622913" id="-85224">
		<tag k="name" v="Sveian" />
		<tag k="old_name" v="Foten" />
		<tag k="place" v="farm" />
		<tag k="ssr:stedsnr" v="157752" />
	</node>
	<node lat="63.433408331534416" lon="10.83687221215518" id="-85225">
		<tag k="name" v="Åsbakken" />
		<tag k="place" v="farm" />
		<tag k="ssr:stedsnr" v="157753" />
	</node>
	<node lat="63.43426944852412" lon="10.694005547022686" id="-85227">
		<tag k="fixme" v="consider place=suburb, village or hamlet" />
		<tag k="name" v="Torp" />
		<tag k="place" v="quarter" />
		<tag k="ssr:stedsnr" v="158066" />
	</node>
	<node lat="63.411675001254416" lon="10.770488893862632" id="-85241">
		<tag k="name" v="Lauvåsen" />
		<tag k="place" v="farm" />
		<tag k="ssr:stedsnr" v="158778" />
	</node>
	<node lat="63.40076944391315" lon="10.661099999040042" id="-85243">
		<tag k="name" v="Sjøvollen" />
		<tag k="place" v="farm" />
		<tag k="ssr:stedsnr" v="158797" />
	</node>
	<node lat="63.42200000128514" lon="10.758158338896024" id="-85245">
		<tag k="amenity" v="school" />
		<tag k="name" v="Sveberg skole" />
		<tag k="ssr:stedsnr" v="161231" />
	</node>
	<node lat="63.42812222557827" lon="10.734683340015305" id="-85253">
		<tag k="name" v="Utsikten" />
		<tag k="place" v="farm" />
		<tag k="ssr:stedsnr" v="195009" />
	</node>
	<node lat="63.429684325888545" lon="10.632152389816394" id="-85259">
		<tag k="alt_name" v="Ner Leistad;Leistad, nedre" />
		<tag k="fixme" v="consider place=hamlet" />
		<tag k="name" v="Nedre Leistad" />
		<tag k="place" v="farm" />
		<tag k="ssr:stedsnr" v="195643" />
	</node>
	<node lat="63.43206257003327" lon="10.710041079401476" id="-85260">
		<tag k="alt_name" v="Storsanden" />
		<tag k="fixme" v="consider place=hamlet" />
		<tag k="loc_name" v="Storsand" />
		<tag k="name" v="Storsandan" />
		<tag k="place" v="farm" />
		<tag k="ssr:stedsnr" v="195651" />
	</node>
	<node lat="63.34645478244938" lon="10.86548108746157" id="-85264">
		<tag k="alt_name" v="Jøsås, litle;Litle Jøsås;Nergården" />
		<tag k="fixme" v="consider place=hamlet" />
		<tag k="name" v="Litle Jøssåsen" />
		<tag k="place" v="farm" />
		<tag k="ssr:stedsnr" v="219719" />
	</node>
	<node lat="63.43879444732424" lon="10.636413895587363" id="-85268">
		<tag k="amenity" v="school" />
		<tag k="name" v="Vikhammer skole" />
		<tag k="ssr:stedsnr" v="219061" />
	</node>
	<node lat="63.328336114280795" lon="10.81319999690339" id="-85272">
		<tag k="name" v="Nordheim" />
		<tag k="place" v="farm" />
		<tag k="ssr:stedsnr" v="219144" />
	</node>
	<node lat="63.430766283999056" lon="10.74135825140701" id="-85278">
		<tag k="alt_name" v="Stav østre" />
		<tag k="name" v="Østre Stav" />
		<tag k="place" v="farm" />
		<tag k="ssr:stedsnr" v="219781" />
	</node>
	<node lat="63.43137499660416" lon="10.7311027723349" id="-85279">
		<tag k="fixme" v="consider place=hamlet" />
		<tag k="name" v="Litlsandan" />
		<tag k="place" v="farm" />
		<tag k="ssr:stedsnr" v="219785" />
	</node>
	<node lat="63.438949999703894" lon="10.679575005757792" id="-85280">
		<tag k="name" v="Haugberget" />
		<tag k="place" v="farm" />
		<tag k="ssr:stedsnr" v="219814" />
	</node>
	<node lat="63.44036666721774" lon="10.636911119448907" id="-85281">
		<tag k="alt_name" v="Vikhammer nedre" />
		<tag k="fixme" v="consider place=hamlet" />
		<tag k="name" v="Nedre Vikhammer" />
		<tag k="place" v="farm" />
		<tag k="ssr:stedsnr" v="219819" />
	</node>
	<node lat="63.43690555693688" lon="10.62914166416922" id="-85282">
		<tag k="amenity" v="school" />
		<tag k="name" v="Malvik videregående skole" />
		<tag k="ssr:stedsnr" v="224019" />
	</node>
	<node lat="63.333458335005474" lon="10.86184167242803" id="-85306">
		<tag k="name" v="Solhaugen" />
		<tag k="place" v="farm" />
		<tag k="ssr:stedsnr" v="316394" />
	</node>
	<node lat="63.345694448887954" lon="10.761049997592856" id="-85308">
		<tag k="name" v="Gammelplassen" />
		<tag k="place" v="locality" />
		<tag k="ssr:stedsnr" v="316489" />
	</node>
	<node lat="63.43610833646808" lon="10.615166665825992" id="-85328">
		<tag k="loc_name" v="Saksvikrønningen" />
		<tag k="name" v="Saksvikrydningen" />
		<tag k="place" v="farm" />
		<tag k="ssr:stedsnr" v="340799" />
	</node>
	<node lat="63.38247947808669" lon="10.775863602878806" id="-85330">
		<tag k="alt_name" v="Fossli mellom" />
		<tag k="name" v="Midtre Fossli" />
		<tag k="place" v="farm" />
		<tag k="ssr:stedsnr" v="340790" />
	</node>
	<node lat="63.37554722425222" lon="10.76729999606413" id="-85335">
		<tag k="alt_name" v="Fossmoen" />
		<tag k="name" v="Fossmo" />
		<tag k="place" v="farm" />
		<tag k="ssr:stedsnr" v="376495" />
	</node>
	<node lat="63.4371856693914" lon="10.606181833166863" id="-85336">
		<tag k="name" v="Saksvik" />
		<tag k="place" v="hamlet" />
		<tag k="ssr:stedsnr" v="376691" />
	</node>
	<node lat="63.43997150153393" lon="10.633551499547057" id="-85337">
		<tag k="alt_name" v="Vikhammar" />
		<tag k="name" v="Vikhammer" />
		<tag k="place" v="hamlet" />
		<tag k="ssr:stedsnr" v="376693" />
	</node>
	<node lat="63.436447571298" lon="10.671384423580648" id="-85338">
		<tag k="alt_name" v="Øver Haugan" />
		<tag k="name" v="Haugan" />
		<tag k="place" v="farm" />
		<tag k="ssr:stedsnr" v="376707" />
	</node>
	<node lat="63.42388947965534" lon="10.82647868391891" id="-85339">
		<tag k="alt_name" v="Austre Hommelvik;Hommelvik, austre;Hommelvik;Hommelvik østre" />
		<tag k="name" v="Østre Hommelvik" />
		<tag k="place" v="farm" />
		<tag k="ssr:stedsnr" v="377017" />
	</node>
	<node lat="63.41307697185973" lon="10.779599337035073" id="-85340">
		<tag k="fixme" v="consider place=hamlet" />
		<tag k="name" v="Halstad" />
		<tag k="place" v="farm" />
		<tag k="ssr:stedsnr" v="377037" />
	</node>
	<node lat="63.424508333618" lon="10.668765166551472" id="-85349">
		<tag k="name" v="Pedersborg" />
		<tag k="old_name" v="Petersborg" />
		<tag k="place" v="farm" />
		<tag k="ssr:stedsnr" v="377649" />
	</node>
	<node lat="63.39743812026869" lon="10.62516594294017" id="-85350">
		<tag k="fixme" v="consider place=hamlet" />
		<tag k="name" v="Vasselja" />
		<tag k="place" v="farm" />
		<tag k="ssr:stedsnr" v="377557" />
	</node>
	<node lat="63.415830505246745" lon="10.69559051129564" id="-85352">
		<tag k="fixme" v="consider place=hamlet" />
		<tag k="name" v="Engan" />
		<tag k="place" v="farm" />
		<tag k="ssr:stedsnr" v="377582" />
	</node>
	<node lat="63.416459331558634" lon="10.612101449161138" id="-85353">
		<tag k="alt_name" v="Bakkan" />
		<tag k="name" v="Granli" />
		<tag k="place" v="farm" />
		<tag k="ssr:stedsnr" v="377599" />
	</node>
	<node lat="63.437544441909566" lon="10.647358333010773" id="-85367">
		<tag k="name" v="Nausthaugen" />
		<tag k="place" v="farm" />
		<tag k="ssr:stedsnr" v="401039" />
	</node>
	<node lat="63.351780552964" lon="10.77412222025434" id="-85371">
		<tag k="name" v="Verket" />
		<tag k="place" v="locality" />
		<tag k="ssr:stedsnr" v="401360" />
	</node>
	<node lat="63.41619721886202" lon="10.820425007288355" id="-85377">
		<tag k="name" v="Sandmark" />
		<tag k="place" v="farm" />
		<tag k="ssr:stedsnr" v="401815" />
	</node>
	<node lat="63.37504444811007" lon="10.770386118868442" id="-85378">
		<tag k="name" v="Fosstrøa" />
		<tag k="place" v="farm" />
		<tag k="ssr:stedsnr" v="401767" />
	</node>
	<node lat="63.4344000035095" lon="10.637119444935948" id="-85380">
		<tag k="amenity" v="school" />
		<tag k="name" v="Vikhammeråsen grendaskole" />
		<tag k="ssr:stedsnr" v="404225" />
	</node>
	<node lat="63.389641395771434" lon="10.779283369624718" id="-85382">
		<tag k="name" v="Buåslia" />
		<tag k="place" v="farm" />
		<tag k="ssr:stedsnr" v="438426" />
	</node>
	<node lat="63.3968638869736" lon="10.7919555579582" id="-85383">
		<tag k="name" v="Grindbakken" />
		<tag k="place" v="farm" />
		<tag k="ssr:stedsnr" v="438431" />
	</node>
	<node lat="63.39875555353411" lon="10.794516665522131" id="-85384">
		<tag k="name" v="Trøbakken" />
		<tag k="place" v="locality" />
		<tag k="ssr:stedsnr" v="438435" />
	</node>
	<node lat="63.380180551703226" lon="10.772988896608505" id="-85387">
		<tag k="name" v="Fossen" />
		<tag k="place" v="farm" />
		<tag k="ssr:stedsnr" v="438487" />
	</node>
	<node lat="63.334203773367925" lon="10.88632296384444" id="-85389">
		<tag k="alt_name" v="Vannberg" />
		<tag k="name" v="Vennberg" />
		<tag k="place" v="farm" />
		<tag k="ssr:stedsnr" v="438325" />
	</node>
	<node lat="63.42324813084171" lon="10.61762585091379" id="-85392">
		<tag k="alt_name" v="Søre Bjørnstad" />
		<tag k="fixme" v="consider place=hamlet" />
		<tag k="name" v="Bjørnstad" />
		<tag k="place" v="farm" />
		<tag k="ssr:stedsnr" v="438654" />
	</node>
	<node lat="63.39189999956355" lon="10.651269448610467" id="-85393">
		<tag k="alt_name" v="Herjuan" />
		<tag k="name" v="Herjuaunet" />
		<tag k="place" v="farm" />
		<tag k="ssr:stedsnr" v="438530" />
	</node>
	<node lat="63.37568333411544" lon="10.663041667131138" id="-85397">
		<tag k="name" v="Tulluan" />
		<tag k="place" v="farm" />
		<tag k="ssr:stedsnr" v="498579" />
	</node>
	<node lat="63.34821944571254" lon="10.871391656893252" id="-85400">
		<tag k="alt_name" v="Øvre Jøsås;Jøsås, øvre;Lånkstuggu" />
		<tag k="name" v="Øvre Jøssåsen" />
		<tag k="place" v="farm" />
		<tag k="ssr:stedsnr" v="498475" />
	</node>
	<node lat="63.411777079014755" lon="10.62117785952075" id="-85401">
		<tag k="name" v="Elvetun" />
		<tag k="place" v="farm" />
		<tag k="ssr:stedsnr" v="498643" />
	</node>
	<node lat="63.41314448704564" lon="10.652075834622428" id="-85402">
		<tag k="name" v="Fjølstadtrøa" />
		<tag k="place" v="farm" />
		<tag k="ssr:stedsnr" v="498645" />
	</node>
	<node lat="63.4131658213106" lon="10.633605816451546" id="-85403">
		<tag k="alt_name" v="Vestre Bostad" />
		<tag k="name" v="Bostad" />
		<tag k="place" v="farm" />
		<tag k="ssr:stedsnr" v="498646" />
	</node>
	<node lat="63.4370722193607" lon="10.589619451160827" id="-85406">
		<tag k="name" v="Sjølyst" />
		<tag k="place" v="farm" />
		<tag k="ssr:stedsnr" v="498706" />
	</node>
	<node lat="63.432413888881335" lon="10.632455560535028" id="-85407">
		<tag k="name" v="Vikhammarmo" />
		<tag k="place" v="farm" />
		<tag k="ssr:stedsnr" v="498708" />
	</node>
	<node lat="63.408297220392846" lon="10.693669445621655" id="-85408">
		<tag k="fixme" v="multiple name tags, choose one and add the other to alt_name" />
		<tag k="name" v="Haset;Søre Haset" />
		<tag k="place" v="farm" />
		<tag k="ssr:stedsnr" v="498648" />
	</node>
	<node lat="63.430458332712206" lon="10.6062750084846" id="-85428">
		<tag k="name" v="Auntrøa" />
		<tag k="place" v="farm" />
		<tag k="ssr:stedsnr" v="522791" />
	</node>
	<node lat="63.34554166562611" lon="10.868494441191752" id="-85429">
		<tag k="name" v="Follan" />
		<tag k="place" v="farm" />
		<tag k="ssr:stedsnr" v="522821" />
	</node>
	<node lat="63.4208722260208" lon="10.71583055165463" id="-85435">
		<tag k="alt_name" v="Vulu, østre" />
		<tag k="name" v="Østre Vulu" />
		<tag k="place" v="farm" />
		<tag k="ssr:stedsnr" v="559588" />
	</node>
	<node lat="63.34699999606421" lon="10.8658361183198" id="-85437">
		<tag k="alt_name" v="Jøsås, litle;Litle Jøsås" />
		<tag k="name" v="Litle Jøssåsen" />
		<tag k="place" v="farm" />
		<tag k="ssr:stedsnr" v="558429" />
	</node>
	<node lat="63.42891666978642" lon="10.743872229742822" id="-85438">
		<tag k="name" v="Smiskardet" />
		<tag k="place" v="farm" />
		<tag k="ssr:stedsnr" v="559013" />
	</node>
	<node lat="63.39843889101735" lon="10.848577779522852" id="-85456">
		<tag k="name" v="Nordre Høyby" />
		<tag k="place" v="farm" />
		<tag k="ssr:stedsnr" v="582786" />
	</node>
	<node lat="63.37973849271472" lon="10.774611680209759" id="-85461">
		<tag k="name" v="Fossen" />
		<tag k="place" v="hamlet" />
		<tag k="ssr:stedsnr" v="583799" />
	</node>
	<node lat="63.322991666279314" lon="10.91042500296915" id="-85463">
		<tag k="historic" v="shieling" />
		<tag k="name" v="Vennavollen" />
		<tag k="place" v="isolated_dwelling" />
		<tag k="ssr:stedsnr" v="583829" />
	</node>
	<node lat="63.34097918365503" lon="10.825800335842105" id="-85471">
		<tag k="alt_name" v="Øvre Snustad;Snustad øvre" />
		<tag k="name" v="Snustad" />
		<tag k="place" v="farm" />
		<tag k="ssr:stedsnr" v="619460" />
	</node>
	<node lat="63.42064438790834" lon="10.712431483826007" id="-85476">
		<tag k="fixme" v="consider place=hamlet" />
		<tag k="name" v="Vulu" />
		<tag k="place" v="farm" />
		<tag k="ssr:stedsnr" v="634767" />
	</node>
	<node lat="63.32298081730366" lon="10.809028532938084" id="-85478">
		<tag k="alt_name" v="Brandhaug" />
		<tag k="name" v="Brannhaugen" />
		<tag k="place" v="farm" />
		<tag k="ssr:stedsnr" v="642758" />
	</node>
	<node lat="63.43027777347659" lon="10.7389444343366" id="-85493">
		<tag k="alt_name" v="Vestre Stav" />
		<tag k="name" v="Stav" />
		<tag k="place" v="farm" />
		<tag k="ssr:stedsnr" v="741017" />
	</node>
	<node lat="63.32391121082205" lon="10.81705136721873" id="-85497">
		<tag k="alt_name" v="Vika;Viken øvre" />
		<tag k="name" v="Øvre Vika" />
		<tag k="place" v="farm" />
		<tag k="ssr:stedsnr" v="741370" />
	</node>
	<node lat="63.36692483125209" lon="10.760884927271928" id="-85498">
		<tag k="alt_name" v="Vestre Bakken" />
		<tag k="name" v="Bakken" />
		<tag k="place" v="farm" />
		<tag k="ssr:stedsnr" v="741466" />
	</node>
	<node lat="63.37754773485675" lon="10.781587084041965" id="-85500">
		<tag k="name" v="Dølan" />
		<tag k="place" v="farm" />
		<tag k="ssr:stedsnr" v="741580" />
	</node>
	<node lat="63.43124006444379" lon="10.684142160584603" id="-85503">
		<tag k="alt_name" v="Torp, øvre" />
		<tag k="fixme" v="consider place=hamlet" />
		<tag k="name" v="Øvre Torp" />
		<tag k="place" v="farm" />
		<tag k="ssr:stedsnr" v="741715" />
	</node>
	<node lat="63.43445833068065" lon="10.701830547889122" id="-85504">
		<tag k="name" v="Skansen" />
		<tag k="place" v="farm" />
		<tag k="ssr:stedsnr" v="741742" />
	</node>
	<node lat="63.43367777836038" lon="10.664497225565254" id="-85505">
		<tag k="name" v="Malviksandan" />
		<tag k="place" v="farm" />
		<tag k="ssr:stedsnr" v="741746" />
	</node>
	<node lat="63.34699999606421" lon="10.8658361183198" id="-85506">
		<tag k="loc_name" v="Jøsåsen" />
		<tag k="name" v="Jøssåsen" />
		<tag k="place" v="hamlet" />
		<tag k="ssr:stedsnr" v="752976" />
	</node>
	<node lat="63.434375001004454" lon="10.840180563001425" id="-85511">
		<tag k="name" v="Muruvik" />
		<tag k="place" v="farm" />
		<tag k="ssr:stedsnr" v="764769" />
	</node>
	<node lat="63.42855277970238" lon="10.628233328661956" id="-85516">
		<tag k="name" v="Leistadmoen" />
		<tag k="place" v="farm" />
		<tag k="ssr:stedsnr" v="765810" />
	</node>
	<node lat="63.407230559448806" lon="10.82601944729222" id="-85524">
		<tag k="name" v="Svian" />
		<tag k="old_name" v="Sveian" />
		<tag k="place" v="locality" />
		<tag k="ssr:stedsnr" v="765474" />
	</node>
	<node lat="63.432027609434925" lon="10.69894810086778" id="-85525">
		<tag k="fixme" v="consider place=hamlet" />
		<tag k="name" v="Torpaunet" />
		<tag k="place" v="farm" />
		<tag k="ssr:stedsnr" v="765765" />
	</node>
	<node lat="63.42269722078977" lon="10.675524997286496" id="-85529">
		<tag k="alt_name" v="Forbord" />
		<tag k="name" v="Nedre Forbord" />
		<tag k="old_name" v="Østre Forbord" />
		<tag k="place" v="farm" />
		<tag k="ssr:stedsnr" v="776850" />
	</node>
	<node lat="63.42274722159996" lon="10.809141673981129" id="-85531">
		<tag k="alt_name" v="Nygård" />
		<tag k="name" v="Nygården" />
		<tag k="place" v="farm" />
		<tag k="ssr:stedsnr" v="785270" />
	</node>
	<node lat="63.36298611536606" lon="10.743072222626202" id="-85533">
		<tag k="leisure" v="pitch" />
		<tag k="name" v="Jervskogen skisenter" />
		<tag k="ssr:stedsnr" v="788641" />
	</node>
	<node lat="63.42443333272334" lon="10.735483326384058" id="-85534">
		<tag k="name" v="Haugsjå" />
		<tag k="place" v="locality" />
		<tag k="ssr:stedsnr" v="802024" />
	</node>
	<node lat="63.427575003198456" lon="10.630136120449842" id="-85541">
		<tag k="alt_name" v="Leistad, vestre" />
		<tag k="name" v="Vestre Leistad" />
		<tag k="place" v="farm" />
		<tag k="ssr:stedsnr" v="802685" />
	</node>
	<node lat="63.426330853521115" lon="10.622231102365692" id="-85542">
		<tag k="name" v="Buenget" />
		<tag k="place" v="farm" />
		<tag k="ssr:stedsnr" v="802692" />
	</node>
	<node lat="63.425747223627724" lon="10.81315000776124" id="-85551">
		<tag k="name" v="Fotvollen" />
		<tag k="place" v="farm" />
		<tag k="ssr:stedsnr" v="825738" />
	</node>
	<node lat="63.33441666428431" lon="10.877183342640754" id="-85552">
		<tag k="name" v="Østre Venn" />
		<tag k="place" v="farm" />
		<tag k="ssr:stedsnr" v="825755" />
	</node>
	<node lat="63.43151389318245" lon="10.828511106513808" id="-85561">
		<tag k="name" v="Heierås" />
		<tag k="place" v="farm" />
		<tag k="ssr:stedsnr" v="826759" />
	</node>
	<node lat="63.4231916665508" lon="10.736444448744528" id="-85562">
		<tag k="name" v="Borgheim" />
		<tag k="place" v="farm" />
		<tag k="ssr:stedsnr" v="826764" />
	</node>
	<node lat="63.439727780474165" lon="10.670677773370487" id="-85563">
		<tag k="name" v="Haugrønningan" />
		<tag k="place" v="farm" />
		<tag k="ssr:stedsnr" v="826795" />
	</node>
	<node lat="63.42648333613062" lon="10.690977778779782" id="-85569">
		<tag k="name" v="Reitan" />
		<tag k="place" v="farm" />
		<tag k="ssr:stedsnr" v="863663" />
	</node>
	<node lat="63.43203888667169" lon="10.660955548180421" id="-85572">
		<tag k="alt_name" v="Malvik, østre;Øvre Malvik" />
		<tag k="name" v="Østre Malvik" />
		<tag k="place" v="farm" />
		<tag k="ssr:stedsnr" v="862676" />
	</node>
	<node lat="63.43394537726714" lon="10.671178703675519" id="-85573">
		<tag k="alt_name" v="Malvik, store" />
		<tag k="fixme" v="consider place=hamlet" />
		<tag k="name" v="Store Malvik" />
		<tag k="place" v="farm" />
		<tag k="ssr:stedsnr" v="862677" />
	</node>
	<node lat="63.39707670664324" lon="10.851258547325443" id="-85580">
		<tag k="alt_name" v="Høyby" />
		<tag k="name" v="Høybygjardet" />
		<tag k="place" v="farm" />
		<tag k="ssr:stedsnr" v="863463" />
	</node>
	<node lat="63.41358377614093" lon="10.67259667668419" id="-85582">
		<tag k="fixme" v="consider place=hamlet" />
		<tag k="name" v="Verkland" />
		<tag k="place" v="farm" />
		<tag k="ssr:stedsnr" v="863630" />
	</node>
	<node lat="63.367673943103725" lon="10.759982536237501" id="-85600">
		<tag k="fixme" v="consider place=hamlet" />
		<tag k="name" v="Bakken" />
		<tag k="old_name" v="Eggen" />
		<tag k="place" v="farm" />
		<tag k="ssr:stedsnr" v="887464" />
	</node>
	<node lat="63.40288889156448" lon="10.631119451397714" id="-85607">
		<tag k="name" v="Nordre Bromset" />
		<tag k="place" v="farm" />
		<tag k="ssr:stedsnr" v="887792" />
	</node>
	<node lat="63.339713885656266" lon="10.823780548082668" id="-85610">
		<tag k="fixme" v="consider place=hamlet" />
		<tag k="name" v="Ner Snustad" />
		<tag k="place" v="farm" />
		<tag k="ssr:stedsnr" v="946771" />
	</node>
	<node lat="63.391786115337986" lon="10.787738891934403" id="-85629">
		<tag k="name" v="Buås" />
		<tag k="place" v="farm" />
		<tag k="ssr:stedsnr" v="947786" />
	</node>
	<node lat="63.43244638096366" lon="10.619123935321028" id="-85630">
		<tag k="alt_name" v="Søndre Vikhammer;Åli" />
		<tag k="name" v="Vikhammer søndre" />
		<tag k="place" v="farm" />
		<tag k="ssr:stedsnr" v="947797" />
	</node>
	<node lat="63.43459722127461" lon="10.602211110323664" id="-85637">
		<tag k="amenity" v="school" />
		<tag k="name" v="Saksvik skole" />
		<tag k="ssr:stedsnr" v="950243" />
	</node>
	<node lat="63.411947221303045" lon="10.758583330223573" id="-85640">
		<tag k="amenity" v="sports_centre" />
		<tag k="name" v="Abrahallen" />
		<tag k="ssr:stedsnr" v="970254" />
	</node>
	<node lat="63.43650792932103" lon="10.67035281921363" id="-85641">
		<tag k="fixme" v="consider place=hamlet" />
		<tag k="name" v="Haugan" />
		<tag k="place" v="farm" />
		<tag k="ssr:stedsnr" v="970903" />
	</node>
	<node lat="63.43384643537785" lon="10.673806569581258" id="-85642">
		<tag k="name" v="Malvik" />
		<tag k="place" v="hamlet" />
		<tag k="ssr:stedsnr" v="970904" />
	</node>
	<node lat="63.41286989422825" lon="10.634881768892454" id="-85646">
		<tag k="fixme" v="consider place=hamlet" />
		<tag k="name" v="Bostad" />
		<tag k="place" v="farm" />
		<tag k="ssr:stedsnr" v="970909" />
	</node>
	<node lat="63.40879292076938" lon="10.692817671781402" id="-85648">
		<tag k="fixme" v="consider place=hamlet" />
		<tag k="name" v="Haset" />
		<tag k="place" v="farm" />
		<tag k="ssr:stedsnr" v="970911" />
	</node>
	<node lat="63.340347178730156" lon="10.826109756102703" id="-85651">
		<tag k="name" v="Snustad" />
		<tag k="place" v="hamlet" />
		<tag k="ssr:stedsnr" v="970922" />
	</node>
	<node lat="63.33351430767599" lon="10.869857580702405" id="-85652">
		<tag k="fixme" v="consider place=hamlet" />
		<tag k="name" v="Venna" />
		<tag k="place" v="farm" />
		<tag k="ssr:stedsnr" v="970923" />
	</node>
</osm>
