<?xml version="1.0" encoding="UTF-8"?>
<<<<<<< HEAD
<osm version="0.6" generator="osmapis">
	<node lat="63.42219722462695" lon="10.789888897565268" id="-33014">
		<tag k="name" v="Hommelvika" />
		<tag k="natural" v="bay" />
		<tag k="ssr:stedsnr" v="256022" />
	</node>
	<node lat="63.46478055978639" lon="10.444752769544145" id="-33020">
		<tag k="bay" v="fjord" />
		<tag k="name" v="Strindfjorden" />
		<tag k="natural" v="bay" />
		<tag k="ssr:stedsnr" v="256682" />
	</node>
	<node lat="63.43901666994564" lon="10.613905564918895" id="-33059">
		<tag k="name" v="Saksvikbukta" />
		<tag k="natural" v="bay" />
		<tag k="ssr:stedsnr" v="255683" />
	</node>
	<node lat="63.441822218079885" lon="10.643177778710603" id="-33078">
		<tag k="name" v="Vikhammerløkka" />
		<tag k="natural" v="beach" />
		<tag k="ssr:stedsnr" v="461054" />
	</node>
	<node lat="63.43335000403605" lon="10.71966667251521" id="-33080">
		<tag k="alt_name" v="Midtsandbukta" />
		<tag k="name" v="Sandbukta" />
=======
<osm generator="osmapis" version="0.6">
	<node id="-755320" lat="63.4390166699" lon="10.6139055649">
		<tag k="name" v="Saksvikbukta" />
>>>>>>> e1d4bc35ff8a6074a6f2e91616a996b547c36f15
		<tag k="natural" v="bay" />
		<tag k="ssr:stedsnr" v="461093" />
	</node>
<<<<<<< HEAD
	<node lat="63.43822777891566" lon="10.70522222113869" id="-33113">
=======
	<node id="-755573" lat="63.4421194461" lon="10.6291916672">
>>>>>>> e1d4bc35ff8a6074a6f2e91616a996b547c36f15
		<tag k="fixme" v="consider seamark:type=rock or natural=shoal" />
		<tag k="name" v="Sandskjeret" />
		<tag k="place" v="islet" />
		<tag k="ssr:stedsnr" v="340046" />
	</node>
	<node lat="63.43738055658229" lon="10.84697500955529" id="-33224">
		<tag k="name" v="Muruvikbukta" />
		<tag k="natural" v="bay" />
		<tag k="ssr:stedsnr" v="590767" />
	</node>
	<node lat="63.43556111195895" lon="10.81808888413646" id="-33225">
		<tag k="name" v="Svartvika" />
		<tag k="natural" v="bay" />
		<tag k="ssr:stedsnr" v="590779" />
	</node>
<<<<<<< HEAD
	<node lat="63.41223055226621" lon="10.789747221327268" id="-33261">
		<tag k="name" v="Gammelløfta" />
		<tag k="natural" v="beach" />
		<tag k="ssr:stedsnr" v="643097" />
	</node>
	<node lat="63.44341111264844" lon="10.641825008394989" id="-33275">
=======
	<node id="-755568" lat="63.4434111126" lon="10.6418250084">
>>>>>>> e1d4bc35ff8a6074a6f2e91616a996b547c36f15
		<tag k="name" v="Vikhammaren" />
		<tag k="natural" v="cape" />
		<tag k="ssr:stedsnr" v="650705" />
	</node>
<<<<<<< HEAD
	<node lat="63.44012777663091" lon="10.664111109115956" id="-33328">
		<tag k="name" v="Malvikbukta" />
=======
	<node id="-756074" lat="63.4409250004" lon="10.8295777731">
		<tag k="fixme" v="consider seamark:type=rock or natural=shoal" />
		<tag k="name" v="Flatholmskjæret" />
		<tag k="place" v="islet" />
		<tag k="ssr:stedsnr" v="619091" />
	</node>
	<node id="-756070" lat="63.435561112" lon="10.8180888841">
		<tag k="name" v="Svartvika" />
>>>>>>> e1d4bc35ff8a6074a6f2e91616a996b547c36f15
		<tag k="natural" v="bay" />
		<tag k="ssr:stedsnr" v="772723" />
	</node>
<<<<<<< HEAD
	<node lat="63.45711111465925" lon="10.779072215016337" id="-33329">
		<tag k="bay" v="fjord" />
		<tag k="name" v="Stjørdalsfjorden" />
=======
	<node id="-756069" lat="63.4373805566" lon="10.8469750096">
		<tag k="name" v="Muruvikbukta" />
>>>>>>> e1d4bc35ff8a6074a6f2e91616a996b547c36f15
		<tag k="natural" v="bay" />
		<tag k="ssr:stedsnr" v="802205" />
	</node>
<<<<<<< HEAD
	<node lat="63.4388361105865" lon="10.830727774953584" id="-33346">
		<tag k="name" v="Flatholmen" />
		<tag k="natural" v="cape" />
		<tag k="ssr:stedsnr" v="923097" />
	</node>
	<node lat="63.442119446065014" lon="10.62919166721933" id="-33362">
		<tag k="fixme" v="consider seamark:type=rock or natural=shoal" />
		<tag k="name" v="Vikhammerskjeret" />
		<tag k="place" v="islet" />
		<tag k="ssr:stedsnr" v="886048" />
	</node>
	<node lat="63.44932500235815" lon="10.585122230664059" id="-33384">
=======
	<node id="-755674" lat="63.4493250024" lon="10.5851222307">
>>>>>>> e1d4bc35ff8a6074a6f2e91616a996b547c36f15
		<tag k="fixme" v="consider seamark:type=rock or natural=shoal" />
		<tag k="name" v="Saksvikskjæret" />
		<tag k="place" v="islet" />
		<tag k="ssr:stedsnr" v="923685" />
	</node>
<<<<<<< HEAD
	<node lat="63.43564999946353" lon="10.81378055096587" id="-33439">
		<tag k="name" v="Svartvikodden" />
		<tag k="natural" v="cape" />
		<tag k="ssr:stedsnr" v="37083" />
	</node>
	<node lat="63.43325833021761" lon="10.810463897739735" id="-33552">
		<tag k="name" v="Svartneset" />
		<tag k="natural" v="cape" />
		<tag k="ssr:stedsnr" v="195102" />
	</node>
	<node lat="63.435000003785404" lon="10.726958324281247" id="-33562">
=======
	<node id="-755410" lat="63.433350004" lon="10.7196666725">
		<tag k="alt_name" v="Midtsandbukta" />
		<tag k="name" v="Sandbukta" />
		<tag k="natural" v="bay" />
		<tag k="ssr:stedsnr" v="461093" />
	</node>
	<node id="-755409" lat="63.4418222181" lon="10.6431777787">
		<tag k="name" v="Vikhammerløkka" />
		<tag k="natural" v="beach" />
		<tag k="place" v="locality" />
		<tag k="ssr:stedsnr" v="461054" />
	</node>
	<node id="-756088" lat="63.4122305523" lon="10.7897472213">
		<tag k="name" v="Gammelløfta" />
		<tag k="natural" v="beach" />
		<tag k="place" v="locality" />
		<tag k="ssr:stedsnr" v="643097" />
	</node>
	<node id="-755274" lat="63.4350000038" lon="10.7269583243">
>>>>>>> e1d4bc35ff8a6074a6f2e91616a996b547c36f15
		<tag k="fixme" v="multiple name tags, choose one and add the other to alt_name" />
		<tag k="name" v="Midtsandneset;Tangen" />
		<tag k="natural" v="cape" />
		<tag k="ssr:stedsnr" v="219095" />
	</node>
<<<<<<< HEAD
	<node lat="63.433480551727165" lon="10.739997221409388" id="-33584">
		<tag k="name" v="Stavodden" />
		<tag k="natural" v="cape" />
		<tag k="ssr:stedsnr" v="279059" />
	</node>
	<node lat="63.43715000117987" lon="10.833386112589617" id="-33690">
		<tag k="name" v="Muruvika" />
=======
	<node id="-756163" lat="63.4571111147" lon="10.779072215">
		<tag k="bay" v="fjord" />
		<tag k="name" v="Stjørdalsfjorden" />
		<tag k="natural" v="bay" />
		<tag k="ssr:stedsnr" v="802205" />
	</node>
	<node id="-755393" lat="63.4221972246" lon="10.7898888976">
		<tag k="name" v="Hommelvika" />
>>>>>>> e1d4bc35ff8a6074a6f2e91616a996b547c36f15
		<tag k="natural" v="bay" />
		<tag k="ssr:stedsnr" v="498090" />
	</node>
<<<<<<< HEAD
	<node lat="63.440925000379025" lon="10.829577773076473" id="-33765">
		<tag k="fixme" v="consider seamark:type=rock or natural=shoal" />
		<tag k="name" v="Flatholmskjæret" />
		<tag k="place" v="islet" />
		<tag k="ssr:stedsnr" v="619091" />
	</node>
	<node lat="63.44237777638266" lon="10.605533337710595" id="-33818">
		<tag k="name" v="Saksvikodden" />
		<tag k="natural" v="cape" />
		<tag k="ssr:stedsnr" v="771738" />
=======
	<node id="-756155" lat="63.4401277766" lon="10.6641111091">
		<tag k="name" v="Malvikbukta" />
		<tag k="natural" v="bay" />
		<tag k="ssr:stedsnr" v="772723" />
>>>>>>> e1d4bc35ff8a6074a6f2e91616a996b547c36f15
	</node>
	<node id="-755374" lat="63.4332583302" lon="10.8104638977">
		<tag k="name" v="Svartneset" />
		<tag k="natural" v="cape" />
		<tag k="ssr:stedsnr" v="195102" />
	</node>
	<node id="-755884" lat="63.4382277789" lon="10.7052222211">
		<tag k="fixme" v="consider seamark:type=rock or natural=shoal" />
		<tag k="name" v="Sandskjeret" />
		<tag k="place" v="islet" />
		<tag k="ssr:stedsnr" v="340046" />
	</node>
	<node id="-755623" lat="63.4388361106" lon="10.830727775">
		<tag k="name" v="Flatholmen" />
		<tag k="natural" v="cape" />
		<tag k="ssr:stedsnr" v="923097" />
	</node>
	<node id="-755621" lat="63.4423777764" lon="10.6055333377">
		<tag k="name" v="Saksvikodden" />
		<tag k="natural" v="cape" />
		<tag k="ssr:stedsnr" v="771738" />
	</node>
	<node id="-755738" lat="63.4356499995" lon="10.813780551">
		<tag k="name" v="Svartvikodden" />
		<tag k="natural" v="cape" />
		<tag k="ssr:stedsnr" v="37083" />
	</node>
	<node id="-755348" lat="63.4334805517" lon="10.7399972214">
		<tag k="name" v="Stavodden" />
		<tag k="natural" v="cape" />
		<tag k="ssr:stedsnr" v="279059" />
	</node>
	<node id="-755339" lat="63.4647805598" lon="10.4447527695">
		<tag k="bay" v="fjord" />
		<tag k="name" v="Strindfjorden" />
		<tag k="natural" v="bay" />
		<tag k="ssr:stedsnr" v="256682" />
	</node>
	<node id="-755462" lat="63.4371500012" lon="10.8333861126">
		<tag k="name" v="Muruvika" />
		<tag k="natural" v="bay" />
		<tag k="ssr:stedsnr" v="498090" />
	</node>
</osm>
