<?xml version="1.0" encoding="UTF-8"?>
<<<<<<< HEAD
<osm version="0.6" generator="osmapis">
	<node lat="63.36982500184898" lon="10.678855550535179" id="-32972">
		<tag k="name" v="Brannbekken" />
		<tag k="ssr:stedsnr" v="37414" />
		<tag k="waterway" v="stream" />
	</node>
	<node lat="63.38328888852795" lon="10.721466656644159" id="-32973">
		<tag k="name" v="Øvre Svarttjønna" />
=======
<osm generator="osmapis" version="0.6">
	<node id="-756218" lat="63.3206638924" lon="10.7257361098">
		<tag k="name" v="Øybekken" />
		<tag k="ssr:stedsnr" v="863359" />
		<tag k="waterway" v="stream" />
	</node>
	<node id="-756216" lat="63.3218694454" lon="10.8817222311">
		<tag k="name" v="Otertjønna" />
		<tag k="natural" v="water" />
		<tag k="ssr:stedsnr" v="863311" />
	</node>
	<node id="-756215" lat="63.404505559" lon="10.7512777833">
		<tag k="name" v="Stavsjøen" />
		<tag k="natural" v="water" />
		<tag k="ssr:stedsnr" v="863040" />
		<tag k="water" v="lake" />
	</node>
	<node id="-756213" lat="63.4046055554" lon="10.7839472303">
		<tag k="alt_name" v="Jernbanedammen" />
		<tag k="name" v="Modammen" />
		<tag k="natural" v="water" />
		<tag k="old_name" v="Nydammen" />
		<tag k="ssr:stedsnr" v="863037" />
	</node>
	<node id="-756212" lat="63.3851527767" lon="10.6710527856">
		<tag k="name" v="Hyllvatnet" />
		<tag k="natural" v="water" />
		<tag k="ssr:stedsnr" v="862532" />
	</node>
	<node id="-756211" lat="63.3432999985" lon="10.7635611147">
		<tag k="name" v="Storholmen" />
		<tag k="place" v="islet" />
		<tag k="ssr:stedsnr" v="862433" />
	</node>
	<node id="-755695" lat="63.3436527735" lon="10.8574472205">
		<tag k="name" v="Litle Jøssåstjønna" />
		<tag k="natural" v="water" />
		<tag k="ssr:stedsnr" v="968571" />
	</node>
	<node id="-755689" lat="63.3665611068" lon="10.6635111172">
		<tag k="name" v="Svarttjønnbekken" />
		<tag k="ssr:stedsnr" v="947370" />
		<tag k="waterway" v="stream" />
	</node>
	<node id="-756199" lat="63.3830444478" lon="10.7725999941">
		<tag k="name" v="Fosslibekken" />
		<tag k="ssr:stedsnr" v="826469" />
		<tag k="waterway" v="stream" />
	</node>
	<node id="-755686" lat="63.4139555516" lon="10.6877361112">
		<tag k="name" v="Sjøvigjardsbekken" />
		<tag k="ssr:stedsnr" v="947406" />
		<tag k="waterway" v="stream" />
	</node>
	<node id="-755685" lat="63.4106944484" lon="10.7017111202">
		<tag k="name" v="Grinddalsbekken" />
		<tag k="ssr:stedsnr" v="947404" />
		<tag k="waterway" v="stream" />
	</node>
	<node id="-755684" lat="63.3105305596" lon="10.82078334">
		<tag k="name" v="Heimtjønna" />
		<tag k="natural" v="water" />
		<tag k="ssr:stedsnr" v="947168" />
	</node>
	<node id="-756192" lat="63.3026083359" lon="10.7709249946">
		<tag k="name" v="Svarttjønnbekken" />
		<tag k="ssr:stedsnr" v="826184" />
		<tag k="waterway" v="stream" />
	</node>
	<node id="-756189" lat="63.3298555515" lon="10.8211888839">
		<tag k="name" v="Tjønnåstjønna" />
		<tag k="natural" v="water" />
		<tag k="ssr:stedsnr" v="826163" />
	</node>
	<node id="-756188" lat="63.4149999979" lon="10.8356361096">
		<tag k="name" v="Sandbekken" />
		<tag k="ssr:stedsnr" v="826151" />
		<tag k="waterway" v="stream" />
	</node>
	<node id="-755673" lat="63.3097805559" lon="10.8606138891">
		<tag k="name" v="Lauva" />
		<tag k="ssr:stedsnr" v="887875" />
		<tag k="waterway" v="stream" />
	</node>
	<node id="-756184" lat="63.4196444468" lon="10.759650005">
		<tag k="name" v="Grønbergsbekken" />
		<tag k="ssr:stedsnr" v="826098" />
		<tag k="waterway" v="stream" />
	</node>
	<node id="-756181" lat="63.3994583379" lon="10.6889944361">
		<tag k="name" v="Sagelva" />
		<tag k="ssr:stedsnr" v="826041" />
		<tag k="waterway" v="river" />
	</node>
	<node id="-755790" lat="63.426519447" lon="10.7110916571">
		<tag k="name" v="Vulubekken" />
		<tag k="ssr:stedsnr" v="98428" />
		<tag k="waterway" v="stream" />
	</node>
	<node id="-756175" lat="63.3867416663" lon="10.7187888831">
		<tag k="name" v="Ner Svarttjønna" />
		<tag k="natural" v="water" />
		<tag k="ssr:stedsnr" v="825429" />
	</node>
	<node id="-755661" lat="63.4271722259" lon="10.828475">
		<tag k="name" v="Langbekken" />
		<tag k="ssr:stedsnr" v="886103" />
		<tag k="waterway" v="stream" />
	</node>
	<node id="-755657" lat="63.4006944489" lon="10.6250027712">
		<tag k="name" v="Vasselbekken" />
		<tag k="ssr:stedsnr" v="886008" />
		<tag k="waterway" v="stream" />
	</node>
	<node id="-756166" lat="63.3510416702" lon="10.739130561">
		<tag k="name" v="Svarttjønna" />
		<tag k="natural" v="water" />
		<tag k="ssr:stedsnr" v="802444" />
	</node>
	<node id="-756165" lat="63.3174777741" lon="10.9095249999">
		<tag k="name" v="Åltjønna" />
		<tag k="natural" v="water" />
		<tag k="ssr:stedsnr" v="802424" />
	</node>
	<node id="-755650" lat="63.4009277797" lon="10.8331000078">
		<tag k="name" v="Høybybekken" />
		<tag k="ssr:stedsnr" v="947480" />
		<tag k="waterway" v="stream" />
	</node>
	<node id="-755649" lat="63.3726916633" lon="10.7000000018">
		<tag k="name" v="Vulusjøen" />
		<tag k="natural" v="water" />
		<tag k="ssr:stedsnr" v="947387" />
		<tag k="water" v="lake" />
	</node>
	<node id="-755648" lat="63.316961111" lon="10.7078222235">
		<tag k="name" v="Bjørnstadtjønnbekken" />
		<tag k="ssr:stedsnr" v="947379" />
		<tag k="waterway" v="stream" />
	</node>
	<node id="-755643" lat="63.3247138924" lon="10.9041305476">
		<tag k="name" v="Altjønnbekken" />
		<tag k="ssr:stedsnr" v="947240" />
		<tag k="waterway" v="stream" />
	</node>
	<node id="-756149" lat="63.4142749969" lon="10.7038111015">
		<tag k="name" v="Fossmyrbekken" />
		<tag k="ssr:stedsnr" v="765407" />
		<tag k="waterway" v="stream" />
	</node>
	<node id="-756145" lat="63.3937749975" lon="10.7137666616">
		<tag k="name" v="Djupdalsbekken" />
		<tag k="ssr:stedsnr" v="765039" />
		<tag k="waterway" v="stream" />
	</node>
	<node id="-756144" lat="63.4139722245" lon="10.6393305566">
		<tag k="name" v="Fjølstadbekken" />
		<tag k="ssr:stedsnr" v="765003" />
		<tag k="waterway" v="stream" />
	</node>
	<node id="-755631" lat="63.3861500011" lon="10.6914444518">
		<tag k="name" v="Oppsjøen" />
		<tag k="natural" v="water" />
		<tag k="ssr:stedsnr" v="923589" />
		<tag k="water" v="lake" />
	</node>
	<node id="-755630" lat="63.3846166687" lon="10.8157055642">
		<tag k="name" v="Bjørndalsvatnet" />
>>>>>>> e1d4bc35ff8a6074a6f2e91616a996b547c36f15
		<tag k="natural" v="water" />
		<tag k="ssr:stedsnr" v="37422" />
	</node>
<<<<<<< HEAD
	<node lat="63.36311944619904" lon="10.857202787579089" id="-32981">
		<tag k="name" v="Koltjønnin" />
=======
	<node id="-755629" lat="63.3946638857" lon="10.7196305617">
		<tag k="name" v="Røsttjønna" />
>>>>>>> e1d4bc35ff8a6074a6f2e91616a996b547c36f15
		<tag k="natural" v="water" />
		<tag k="ssr:stedsnr" v="73411" />
	</node>
<<<<<<< HEAD
	<node lat="63.35035833115608" lon="10.747963883241697" id="-32982">
		<tag k="name" v="Heimtjønna" />
		<tag k="natural" v="water" />
		<tag k="ssr:stedsnr" v="73393" />
	</node>
	<node lat="63.373955554325484" lon="10.781024994442737" id="-32983">
		<tag k="name" v="Storfossen" />
		<tag k="natural" v="waterfall" />
		<tag k="ssr:stedsnr" v="73396" />
	</node>
	<node lat="63.367694440876384" lon="10.849838897964874" id="-32984">
		<tag k="name" v="Rukkutjønna" />
		<tag k="natural" v="water" />
		<tag k="ssr:stedsnr" v="73397" />
	</node>
	<node lat="63.39896388674341" lon="10.728055553458672" id="-32986">
		<tag k="name" v="Vollsvatnet" />
=======
	<node id="-755628" lat="63.3453361069" lon="10.7745583318">
		<tag k="name" v="Langneset" />
		<tag k="natural" v="cape" />
		<tag k="ssr:stedsnr" v="923479" />
	</node>
	<node id="-755625" lat="63.3117944439" lon="10.7456861132">
		<tag k="name" v="Heinfjorden" />
		<tag k="natural" v="bay" />
		<tag k="ssr:stedsnr" v="923388" />
	</node>
	<node id="-756133" lat="63.4045888883" lon="10.6137638853">
		<tag k="name" v="Stokkdalsbekken" />
		<tag k="ssr:stedsnr" v="764337" />
		<tag k="waterway" v="stream" />
	</node>
	<node id="-756131" lat="63.3252916712" lon="10.8797666586">
		<tag k="name" v="Lomtjønna" />
>>>>>>> e1d4bc35ff8a6074a6f2e91616a996b547c36f15
		<tag k="natural" v="water" />
		<tag k="ssr:stedsnr" v="74455" />
	</node>
<<<<<<< HEAD
	<node lat="63.318011107933536" lon="10.863658342607806" id="-32988">
		<tag k="name" v="Lauva" />
		<tag k="ssr:stedsnr" v="74359" />
		<tag k="waterway" v="stream" />
	</node>
	<node lat="63.433499997824484" lon="10.66658056514485" id="-32993">
		<tag k="name" v="Haugbekken" />
		<tag k="ssr:stedsnr" v="97361" />
		<tag k="waterway" v="stream" />
	</node>
	<node lat="63.363047220752165" lon="10.735597228478746" id="-33001">
		<tag k="name" v="Skaugbekken" />
		<tag k="ssr:stedsnr" v="98366" />
		<tag k="waterway" v="stream" />
	</node>
	<node lat="63.32530832902893" lon="10.92402499630042" id="-33006">
		<tag k="name" v="Vennaelva" />
		<tag k="ssr:stedsnr" v="134358" />
		<tag k="waterway" v="stream" />
	</node>
	<node lat="63.3990472208375" lon="10.663352779562524" id="-33018">
		<tag k="name" v="Tufttjønna" />
		<tag k="natural" v="water" />
		<tag k="ssr:stedsnr" v="256534" />
	</node>
	<node lat="63.31393611251993" lon="10.780100008219307" id="-33025">
		<tag k="name" v="Bonauntjønna" />
=======
	<node id="-756130" lat="63.3537333295" lon="10.8487583259">
		<tag k="name" v="Kastbekken" />
		<tag k="ssr:stedsnr" v="764199" />
		<tag k="waterway" v="stream" />
	</node>
	<node id="-756123" lat="63.3800916658" lon="10.8070555654">
		<tag k="name" v="Svartvatnet" />
		<tag k="natural" v="water" />
		<tag k="ssr:stedsnr" v="741582" />
	</node>
	<node id="-756120" lat="63.3093194466" lon="10.7866916722">
		<tag k="name" v="Vollatjønna" />
		<tag k="natural" v="water" />
		<tag k="ssr:stedsnr" v="741412" />
	</node>
	<node id="-756036" lat="63.391844443" lon="10.7942527741">
		<tag k="name" v="Homla" />
		<tag k="ssr:stedsnr" v="558059" />
		<tag k="waterway" v="river" />
	</node>
	<node id="-756116" lat="63.340519446" lon="10.7807749993">
		<tag k="name" v="Foldsjøen" />
		<tag k="natural" v="water" />
		<tag k="ssr:stedsnr" v="741506" />
		<tag k="water" v="lake" />
	</node>
	<node id="-755603" lat="63.3893750008" lon="10.6130999987">
		<tag k="name" v="Litltjønna" />
>>>>>>> e1d4bc35ff8a6074a6f2e91616a996b547c36f15
		<tag k="natural" v="water" />
		<tag k="ssr:stedsnr" v="158197" />
	</node>
<<<<<<< HEAD
	<node lat="63.338502775076044" lon="10.714102786080742" id="-33026">
		<tag k="name" v="Naustvolltjønna" />
=======
	<node id="-756112" lat="63.4067805569" lon="10.7815972234">
		<tag k="name" v="Svartdalsdammen" />
		<tag k="natural" v="water" />
		<tag k="ssr:stedsnr" v="741051" />
	</node>
	<node id="-756110" lat="63.4245222223" lon="10.8443416635">
		<tag k="name" v="Hommelviktjønnin" />
>>>>>>> e1d4bc35ff8a6074a6f2e91616a996b547c36f15
		<tag k="natural" v="water" />
		<tag k="ssr:stedsnr" v="158215" />
	</node>
<<<<<<< HEAD
	<node lat="63.351519444456784" lon="10.711061114372994" id="-33051">
		<tag k="name" v="Fjellbekken" />
		<tag k="ssr:stedsnr" v="219379" />
		<tag k="waterway" v="stream" />
	</node>
	<node lat="63.30268055296988" lon="10.775583342432464" id="-33060">
		<tag k="name" v="Svarttjønna" />
		<tag k="natural" v="water" />
		<tag k="ssr:stedsnr" v="256259" />
	</node>
	<node lat="63.39773055175313" lon="10.718486106963425" id="-33070">
		<tag k="name" v="Nyvassbekken" />
		<tag k="ssr:stedsnr" v="279468" />
		<tag k="waterway" v="stream" />
	</node>
	<node lat="63.425502777269166" lon="10.65912778521433" id="-33073">
		<tag k="name" v="Revdalsbekken" />
		<tag k="ssr:stedsnr" v="280422" />
		<tag k="waterway" v="stream" />
	</node>
	<node lat="63.36129722089939" lon="10.83642500356902" id="-33076">
		<tag k="name" v="Koltjønnbekken" />
		<tag k="ssr:stedsnr" v="461198" />
		<tag k="waterway" v="stream" />
	</node>
	<node lat="63.31084167031627" lon="10.748558327973933" id="-33079">
		<tag k="name" v="Litlholmen" />
		<tag k="place" v="islet" />
		<tag k="ssr:stedsnr" v="461126" />
	</node>
	<node lat="63.33443888723622" lon="10.774372228722934" id="-33082">
		<tag k="name" v="Lomtjønna" />
=======
	<node id="-755596" lat="63.4015611113" lon="10.7301305552">
		<tag k="name" v="Raudmyrtjønna" />
		<tag k="natural" v="water" />
		<tag k="ssr:stedsnr" v="703508" />
	</node>
	<node id="-756107" lat="63.3486638873" lon="10.868311115">
		<tag k="name" v="Storvollbekken" />
		<tag k="ssr:stedsnr" v="643808" />
		<tag k="waterway" v="stream" />
	</node>
	<node id="-755584" lat="63.3684416638" lon="10.6742194516">
		<tag k="name" v="Ålvassbekken" />
		<tag k="ssr:stedsnr" v="887380" />
		<tag k="waterway" v="stream" />
	</node>
	<node id="-755583" lat="63.3965194451" lon="10.726630563">
		<tag k="name" v="Vollvassbekken" />
		<tag k="ssr:stedsnr" v="886446" />
		<tag k="waterway" v="stream" />
	</node>
	<node id="-755581" lat="63.3897916635" lon="10.728727785">
		<tag k="name" v="Skarpåsbekken" />
		<tag k="ssr:stedsnr" v="886469" />
		<tag k="waterway" v="stream" />
	</node>
	<node id="-755577" lat="63.3202083307" lon="10.8263833339">
		<tag k="name" v="Kvernhusfossen" />
		<tag k="natural" v="waterfall" />
		<tag k="ssr:stedsnr" v="886143" />
	</node>
	<node id="-755576" lat="63.3279972179" lon="10.7708277753">
		<tag k="name" v="Litlfoldsjøen" />
		<tag k="natural" v="water" />
		<tag k="ssr:stedsnr" v="886138" />
		<tag k="water" v="lake" />
	</node>
	<node id="-756087" lat="63.4328777748" lon="10.681547227">
		<tag k="name" v="Torpbekken" />
		<tag k="ssr:stedsnr" v="643057" />
		<tag k="waterway" v="stream" />
	</node>
	<node id="-756084" lat="63.3640805543" lon="10.6949249967">
		<tag k="name" v="Ertstjønna" />
		<tag k="natural" v="water" />
		<tag k="ssr:stedsnr" v="620993" />
	</node>
	<node id="-755563" lat="63.301544444" lon="10.8118111178">
		<tag k="alt_name" v="Dulitjønna" />
		<tag k="name" v="Dulitjenna" />
>>>>>>> e1d4bc35ff8a6074a6f2e91616a996b547c36f15
		<tag k="natural" v="water" />
		<tag k="ssr:stedsnr" v="461149" />
	</node>
<<<<<<< HEAD
	<node lat="63.42953611438368" lon="10.715180549618506" id="-33087">
		<tag k="name" v="Sandvikbekken" />
		<tag k="ssr:stedsnr" v="461358" />
		<tag k="waterway" v="stream" />
	</node>
	<node lat="63.39737222285328" lon="10.739752781040657" id="-33088">
		<tag k="name" v="Svartsjøbekken" />
		<tag k="ssr:stedsnr" v="461491" />
		<tag k="waterway" v="stream" />
	</node>
	<node lat="63.428363888929795" lon="10.73772499960665" id="-33102">
		<tag k="fixme" v="multiple name tags, choose one and add the other to alt_name" />
		<tag k="name" v="Stamtjønnbekken;Aunbekken" />
		<tag k="ssr:stedsnr" v="465090" />
		<tag k="waterway" v="stream" />
	</node>
	<node lat="63.30029166777574" lon="10.749616668318874" id="-33105">
		<tag k="name" v="Storholmen" />
		<tag k="place" v="islet" />
		<tag k="ssr:stedsnr" v="316317" />
	</node>
	<node lat="63.32895277568519" lon="10.794000004160743" id="-33107">
		<tag k="name" v="Sneiselva" />
		<tag k="ssr:stedsnr" v="316366" />
		<tag k="waterway" v="stream" />
	</node>
	<node lat="63.40153055606165" lon="10.73023333598241" id="-33109">
		<tag k="name" v="Persholet" />
=======
	<node id="-755561" lat="63.3795388902" lon="10.6338333406">
		<tag k="name" v="Herjuvassbekken" />
		<tag k="ssr:stedsnr" v="583482" />
		<tag k="waterway" v="stream" />
	</node>
	<node id="-755556" lat="63.4116277784" lon="10.7755138938">
		<tag k="name" v="Sollielva" />
		<tag k="ssr:stedsnr" v="582090" />
		<tag k="waterway" v="river" />
	</node>
	<node id="-755555" lat="63.4111000011" lon="10.7712888903">
		<tag k="name" v="Lauvåsdammen" />
		<tag k="ssr:stedsnr" v="582080" />
		<tag k="waterway" v="dam" />
	</node>
	<node id="-756066" lat="63.3198222228" lon="10.9068138981">
		<tag k="name" v="Åltjønnbekken" />
		<tag k="ssr:stedsnr" v="583835" />
		<tag k="waterway" v="stream" />
	</node>
	<node id="-755550" lat="63.3097777748" lon="10.8647416734">
		<tag k="name" v="Svetjønna" />
		<tag k="natural" v="water" />
		<tag k="ssr:stedsnr" v="704850" />
	</node>
	<node id="-755549" lat="63.3088805532" lon="10.8556444468">
		<tag k="name" v="Solemstjønnbekken" />
		<tag k="ssr:stedsnr" v="704847" />
		<tag k="waterway" v="stream" />
	</node>
	<node id="-756055" lat="63.3972444411" lon="10.7521388864">
		<tag k="name" v="Lomtjønna" />
>>>>>>> e1d4bc35ff8a6074a6f2e91616a996b547c36f15
		<tag k="natural" v="water" />
		<tag k="ssr:stedsnr" v="316517" />
	</node>
<<<<<<< HEAD
	<node lat="63.391730554245655" lon="10.735249999747118" id="-33112">
		<tag k="name" v="Svartdalsbekken" />
		<tag k="ssr:stedsnr" v="339456" />
		<tag k="waterway" v="stream" />
	</node>
	<node lat="63.37438888539339" lon="10.809027774645633" id="-33117">
		<tag k="name" v="Krokotbekken" />
		<tag k="ssr:stedsnr" v="340344" />
		<tag k="waterway" v="stream" />
	</node>
	<node lat="63.35533055562945" lon="10.643716673655739" id="-33133">
		<tag k="name" v="Vikabekken" />
		<tag k="ssr:stedsnr" v="400376" />
		<tag k="waterway" v="stream" />
	</node>
	<node lat="63.32141944436194" lon="10.937552780617166" id="-33134">
		<tag k="name" v="Engtjønnbekken" />
		<tag k="ssr:stedsnr" v="400377" />
		<tag k="waterway" v="stream" />
	</node>
	<node lat="63.41961944699287" lon="10.60489722209389" id="-33137">
		<tag k="name" v="Øyåsbrubekken" />
		<tag k="ssr:stedsnr" v="401006" />
		<tag k="waterway" v="stream" />
	</node>
	<node lat="63.32736944449795" lon="10.721769445105485" id="-33138">
		<tag k="name" v="Småtjønnan" />
		<tag k="natural" v="water" />
		<tag k="ssr:stedsnr" v="401109" />
	</node>
	<node lat="63.37320833480558" lon="10.63349445190309" id="-33147">
		<tag k="name" v="Herjuvatnet" />
		<tag k="natural" v="water" />
		<tag k="ssr:stedsnr" v="414293" />
		<tag k="water" v="lake" />
	</node>
	<node lat="63.421952778325554" lon="10.62723056044423" id="-33154">
		<tag k="name" v="Vikhammerelva" />
		<tag k="ssr:stedsnr" v="438650" />
		<tag k="waterway" v="stream" />
	</node>
	<node lat="63.31333611411868" lon="10.81373055911601" id="-33161">
		<tag k="name" v="Barodalsbekken" />
		<tag k="ssr:stedsnr" v="461172" />
		<tag k="waterway" v="stream" />
	</node>
	<node lat="63.40531110776518" lon="10.738216665961643" id="-33163">
		<tag k="name" v="Hallguttutjønna" />
		<tag k="natural" v="water" />
		<tag k="ssr:stedsnr" v="461477" />
	</node>
	<node lat="63.41656666408563" lon="10.614958337408298" id="-33166">
		<tag k="name" v="Svartdalsbekken" />
		<tag k="ssr:stedsnr" v="462003" />
		<tag k="waterway" v="stream" />
	</node>
	<node lat="63.313105556567685" lon="10.723144448972754" id="-33167">
		<tag k="name" v="Holbekktjønna" />
=======
	<node id="-756054" lat="63.3363388878" lon="10.8827833286">
		<tag k="name" v="Gjeldalsbekken" />
		<tag k="ssr:stedsnr" v="582251" />
		<tag k="waterway" v="stream" />
	</node>
	<node id="-756052" lat="63.3462611084" lon="10.8488666583">
		<tag k="name" v="Kvernhusbekken" />
		<tag k="ssr:stedsnr" v="582248" />
		<tag k="waterway" v="stream" />
	</node>
	<node id="-756051" lat="63.4024527816" lon="10.8545583299">
		<tag k="name" v="Brennbekken" />
		<tag k="ssr:stedsnr" v="582244" />
		<tag k="waterway" v="stream" />
	</node>
	<node id="-755537" lat="63.3776166674" lon="10.7024749927">
		<tag k="name" v="Oppsjøbekken" />
		<tag k="ssr:stedsnr" v="704363" />
		<tag k="waterway" v="stream" />
	</node>
	<node id="-756045" lat="63.3042500041" lon="10.7927638954">
		<tag k="name" v="Okstjønna" />
		<tag k="natural" v="water" />
		<tag k="ssr:stedsnr" v="582178" />
	</node>
	<node id="-755532" lat="63.3328277794" lon="10.9022861132">
		<tag k="name" v="Raudmyrdalsbekken" />
		<tag k="ssr:stedsnr" v="704227" />
		<tag k="waterway" v="stream" />
	</node>
	<node id="-755531" lat="63.378577781" lon="10.8560277817">
		<tag k="name" v="Bårdstjønnbekken" />
		<tag k="ssr:stedsnr" v="704216" />
		<tag k="waterway" v="stream" />
	</node>
	<node id="-755528" lat="63.3586722259" lon="10.7890611027">
		<tag k="name" v="Hallvardstjønna" />
>>>>>>> e1d4bc35ff8a6074a6f2e91616a996b547c36f15
		<tag k="natural" v="water" />
		<tag k="ssr:stedsnr" v="462357" />
	</node>
<<<<<<< HEAD
	<node lat="63.41214444099263" lon="10.838658336676591" id="-33178">
		<tag k="name" v="Hestmarkdammen" />
		<tag k="natural" v="water" />
		<tag k="ssr:stedsnr" v="680026" />
	</node>
	<node lat="63.41340833309943" lon="10.739963878960625" id="-33179">
		<tag k="name" v="Stamtjønna" />
		<tag k="natural" v="water" />
		<tag k="old_name" v="Damtjørna;Damtjønna;Stavstjønna;Stavtjønna" />
		<tag k="ssr:stedsnr" v="680045" />
	</node>
	<node lat="63.373049996895006" lon="10.75346388783244" id="-33183">
		<tag k="fixme" v="multiple name tags, choose one and add the other to alt_name" />
		<tag k="name" v="Bakktjønna;Fisktjønna" />
		<tag k="natural" v="water" />
		<tag k="ssr:stedsnr" v="680531" />
	</node>
	<node lat="63.340211111700405" lon="10.77096389778232" id="-33190">
		<tag k="name" v="Sørneset" />
		<tag k="natural" v="cape" />
		<tag k="ssr:stedsnr" v="498400" />
	</node>
	<node lat="63.303355551375354" lon="10.802711108445136" id="-33199">
		<tag k="name" v="Dulibekken" />
		<tag k="ssr:stedsnr" v="522366" />
		<tag k="waterway" v="stream" />
	</node>
	<node lat="63.38196388865455" lon="10.656222223653357" id="-33200">
		<tag k="name" v="Litletesbekken" />
		<tag k="ssr:stedsnr" v="522373" />
		<tag k="waterway" v="stream" />
	</node>
	<node lat="63.314911107936105" lon="10.895511105936137" id="-33204">
=======
	<node id="-755526" lat="63.3027111135" lon="10.7630472245">
		<tag k="name" v="Sundet" />
		<tag k="natural" v="strait" />
		<tag k="ssr:stedsnr" v="704174" />
	</node>
	<node id="-755524" lat="63.3270999989" lon="10.7314888821">
		<tag k="name" v="Heimtjønnbekken" />
		<tag k="ssr:stedsnr" v="704099" />
		<tag k="waterway" v="stream" />
	</node>
	<node id="-755519" lat="63.3920083371" lon="10.7745166587">
		<tag k="name" v="Tjurrumilbekken" />
		<tag k="ssr:stedsnr" v="703496" />
		<tag k="waterway" v="stream" />
	</node>
	<node id="-756029" lat="63.3149111079" lon="10.8955111059">
>>>>>>> e1d4bc35ff8a6074a6f2e91616a996b547c36f15
		<tag k="name" v="Stordalsbekken" />
		<tag k="ssr:stedsnr" v="522807" />
		<tag k="waterway" v="stream" />
	</node>
<<<<<<< HEAD
	<node lat="63.391844442950116" lon="10.794252774111571" id="-33207">
		<tag k="name" v="Homla" />
		<tag k="ssr:stedsnr" v="558059" />
		<tag k="waterway" v="river" />
	</node>
	<node lat="63.41162777836171" lon="10.775513893811627" id="-33216">
		<tag k="name" v="Sollielva" />
		<tag k="ssr:stedsnr" v="582090" />
		<tag k="waterway" v="river" />
	</node>
	<node lat="63.39200833708577" lon="10.774516658715305" id="-33234">
		<tag k="name" v="Tjurrumilbekken" />
		<tag k="ssr:stedsnr" v="703496" />
		<tag k="waterway" v="stream" />
	</node>
	<node lat="63.3270999989453" lon="10.731488882113798" id="-33243">
		<tag k="name" v="Heimtjønnbekken" />
		<tag k="ssr:stedsnr" v="704099" />
		<tag k="waterway" v="stream" />
	</node>
	<node lat="63.35867222585758" lon="10.789061102662068" id="-33246">
		<tag k="name" v="Hallvardstjønna" />
		<tag k="natural" v="water" />
		<tag k="ssr:stedsnr" v="704198" />
	</node>
	<node lat="63.381891667896745" lon="10.789713879281498" id="-33256">
		<tag k="name" v="Svarttjønnbekken" />
		<tag k="ssr:stedsnr" v="704407" />
		<tag k="waterway" v="stream" />
	</node>
	<node lat="63.308880553226004" lon="10.855644446799475" id="-33259">
		<tag k="name" v="Solemstjønnbekken" />
		<tag k="ssr:stedsnr" v="704847" />
		<tag k="waterway" v="stream" />
	</node>
	<node lat="63.309777774773416" lon="10.864741673435201" id="-33260">
		<tag k="name" v="Svetjønna" />
=======
	<node id="-755764" lat="63.3989638867" lon="10.7280555535">
		<tag k="name" v="Vollsvatnet" />
		<tag k="natural" v="water" />
		<tag k="ssr:stedsnr" v="74455" />
	</node>
	<node id="-756022" lat="63.3725527804" lon="10.7565499911">
		<tag k="name" v="Valen" />
		<tag k="place" v="islet" />
		<tag k="ssr:stedsnr" v="522422" />
	</node>
	<node id="-756017" lat="63.3819638887" lon="10.6562222237">
		<tag k="name" v="Litletesbekken" />
		<tag k="ssr:stedsnr" v="522373" />
		<tag k="waterway" v="stream" />
	</node>
	<node id="-756016" lat="63.3033555514" lon="10.8027111084">
		<tag k="name" v="Dulibekken" />
		<tag k="ssr:stedsnr" v="522366" />
		<tag k="waterway" v="stream" />
	</node>
	<node id="-756015" lat="63.4092194476" lon="10.7574138808">
		<tag k="name" v="Kardusdammen" />
>>>>>>> e1d4bc35ff8a6074a6f2e91616a996b547c36f15
		<tag k="natural" v="water" />
		<tag k="ssr:stedsnr" v="704850" />
	</node>
<<<<<<< HEAD
	<node lat="63.348663887296624" lon="10.86831111500802" id="-33274">
		<tag k="name" v="Storvollbekken" />
		<tag k="ssr:stedsnr" v="643808" />
		<tag k="waterway" v="stream" />
	</node>
	<node lat="63.319880559696585" lon="10.8267805549279" id="-33279">
		<tag k="name" v="Vikaelva" />
		<tag k="ssr:stedsnr" v="680409" />
		<tag k="waterway" v="river" />
	</node>
	<node lat="63.355324995758494" lon="10.843505546757937" id="-33281">
		<tag k="name" v="Næverholet" />
		<tag k="natural" v="waterfall" />
		<tag k="ssr:stedsnr" v="680423" />
	</node>
	<node lat="63.3546916625006" lon="10.786808335772196" id="-33283">
=======
	<node id="-755501" lat="63.2908416646" lon="10.7824944355">
		<tag k="name" v="Stor-Drakstsjøen" />
		<tag k="natural" v="water" />
		<tag k="ssr:stedsnr" v="498303" />
		<tag k="water" v="lake" />
	</node>
	<node id="-755932" lat="63.3068722253" lon="10.8719027851">
		<tag k="fixme" v="multiple name tags, choose one and add the other to alt_name" />
		<tag k="name" v="Solemstjenna;Solemstjønna" />
		<tag k="natural" v="water" />
		<tag k="ssr:stedsnr" v="377351" />
	</node>
	<node id="-755493" lat="63.3730499969" lon="10.7534638878">
		<tag k="fixme" v="multiple name tags, choose one and add the other to alt_name" />
		<tag k="name" v="Bakktjønna;Fisktjønna" />
		<tag k="natural" v="water" />
		<tag k="ssr:stedsnr" v="680531" />
	</node>
	<node id="-756004" lat="63.3053249969" lon="10.7474361054">
		<tag k="name" v="Hevilneset" />
		<tag k="natural" v="cape" />
		<tag k="ssr:stedsnr" v="522138" />
	</node>
	<node id="-755490" lat="63.3546916625" lon="10.7868083358">
>>>>>>> e1d4bc35ff8a6074a6f2e91616a996b547c36f15
		<tag k="name" v="Karlstadbekken" />
		<tag k="ssr:stedsnr" v="680426" />
		<tag k="waterway" v="stream" />
	</node>
<<<<<<< HEAD
	<node lat="63.40156111132885" lon="10.730130555217338" id="-33291">
		<tag k="name" v="Raudmyrtjønna" />
		<tag k="natural" v="water" />
		<tag k="ssr:stedsnr" v="703508" />
	</node>
	<node lat="63.38937500078985" lon="10.6130999986988" id="-33292">
		<tag k="name" v="Litltjønna" />
		<tag k="natural" v="water" />
		<tag k="ssr:stedsnr" v="704007" />
	</node>
	<node lat="63.37857778095156" lon="10.85602778169474" id="-33298">
		<tag k="name" v="Bårdstjønnbekken" />
		<tag k="ssr:stedsnr" v="704216" />
		<tag k="waterway" v="stream" />
	</node>
	<node lat="63.33282777943548" lon="10.902286113234666" id="-33299">
		<tag k="name" v="Raudmyrdalsbekken" />
		<tag k="ssr:stedsnr" v="704227" />
		<tag k="waterway" v="stream" />
	</node>
	<node lat="63.30271111354658" lon="10.763047224491602" id="-33301">
		<tag k="name" v="Sundet" />
		<tag k="natural" v="strait" />
		<tag k="ssr:stedsnr" v="704174" />
	</node>
	<node lat="63.37761666741126" lon="10.70247499267164" id="-33303">
		<tag k="name" v="Oppsjøbekken" />
		<tag k="ssr:stedsnr" v="704363" />
		<tag k="waterway" v="stream" />
	</node>
	<node lat="63.30931944663" lon="10.786691672187983" id="-33306">
		<tag k="name" v="Vollatjønna" />
=======
	<node id="-755488" lat="63.3553249958" lon="10.8435055468">
		<tag k="name" v="Næverholet" />
		<tag k="natural" v="waterfall" />
		<tag k="ssr:stedsnr" v="680423" />
	</node>
	<node id="-755486" lat="63.3198805597" lon="10.8267805549">
		<tag k="name" v="Vikaelva" />
		<tag k="ssr:stedsnr" v="680409" />
		<tag k="waterway" v="river" />
	</node>
	<node id="-755484" lat="63.4134083331" lon="10.739963879">
		<tag k="name" v="Stamtjønna" />
		<tag k="natural" v="water" />
		<tag k="old_name" v="Damtjørna;Damtjønna;Stavstjønna;Stavtjønna" />
		<tag k="ssr:stedsnr" v="680045" />
	</node>
	<node id="-755483" lat="63.412144441" lon="10.8386583367">
		<tag k="name" v="Hestmarkdammen" />
>>>>>>> e1d4bc35ff8a6074a6f2e91616a996b547c36f15
		<tag k="natural" v="water" />
		<tag k="ssr:stedsnr" v="741412" />
	</node>
<<<<<<< HEAD
	<node lat="63.340519446043665" lon="10.780774999329083" id="-33312">
		<tag k="name" v="Foldsjøen" />
		<tag k="natural" v="water" />
		<tag k="ssr:stedsnr" v="741506" />
		<tag k="water" v="lake" />
	</node>
	<node lat="63.353733329508486" lon="10.848758325929202" id="-33314">
		<tag k="name" v="Kastbekken" />
		<tag k="ssr:stedsnr" v="764199" />
		<tag k="waterway" v="stream" />
	</node>
	<node lat="63.32529167115398" lon="10.879766658582463" id="-33315">
		<tag k="name" v="Lomtjønna" />
=======
	<node id="-755481" lat="63.3317333372" lon="10.8172638817">
		<tag k="name" v="Tjønnåstjønna" />
		<tag k="natural" v="water" />
		<tag k="ssr:stedsnr" v="401157" />
	</node>
	<node id="-755941" lat="63.3005361095" lon="10.73636388">
		<tag k="name" v="Otersundet" />
		<tag k="natural" v="cape" />
		<tag k="ssr:stedsnr" v="400121" />
	</node>
	<node id="-755991" lat="63.371719441" lon="10.6757916633">
		<tag k="name" v="Mørkdalstjønna" />
		<tag k="natural" v="water" />
		<tag k="ssr:stedsnr" v="438516" />
	</node>
	<node id="-755474" lat="63.3955333297" lon="10.6152249918">
		<tag k="name" v="Vasseltjønna" />
>>>>>>> e1d4bc35ff8a6074a6f2e91616a996b547c36f15
		<tag k="natural" v="water" />
		<tag k="ssr:stedsnr" v="764204" />
	</node>
<<<<<<< HEAD
	<node lat="63.41397222449017" lon="10.639330556617043" id="-33317">
		<tag k="name" v="Fjølstadbekken" />
		<tag k="ssr:stedsnr" v="765003" />
		<tag k="waterway" v="stream" />
	</node>
	<node lat="63.414274996940286" lon="10.703811101468368" id="-33320">
		<tag k="name" v="Fossmyrbekken" />
		<tag k="ssr:stedsnr" v="765407" />
		<tag k="waterway" v="stream" />
	</node>
	<node lat="63.30260833587491" lon="10.770924994570613" id="-33342">
		<tag k="name" v="Svarttjønnbekken" />
		<tag k="ssr:stedsnr" v="826184" />
		<tag k="waterway" v="stream" />
	</node>
	<node lat="63.38461666869753" lon="10.815705564182553" id="-33348">
		<tag k="name" v="Bjørndalsvatnet" />
=======
	<node id="-755757" lat="63.3366388877" lon="10.7709055629">
		<tag k="name" v="Langvika" />
		<tag k="natural" v="bay" />
		<tag k="ssr:stedsnr" v="74342" />
	</node>
	<node id="-755468" lat="63.3402111117" lon="10.7709638978">
		<tag k="name" v="Sørneset" />
		<tag k="natural" v="cape" />
		<tag k="ssr:stedsnr" v="498400" />
	</node>
	<node id="-755979" lat="63.3732083348" lon="10.6334944519">
		<tag k="name" v="Herjuvatnet" />
		<tag k="natural" v="water" />
		<tag k="ssr:stedsnr" v="414293" />
		<tag k="water" v="lake" />
	</node>
	<node id="-755978" lat="63.3446750006" lon="10.7081472195">
		<tag k="name" v="Fjelltjønna" />
		<tag k="natural" v="water" />
		<tag k="ssr:stedsnr" v="401839" />
	</node>
	<node id="-755463" lat="63.4155277814" lon="10.7277916766">
		<tag k="name" v="Lauvtjønna" />
>>>>>>> e1d4bc35ff8a6074a6f2e91616a996b547c36f15
		<tag k="natural" v="water" />
		<tag k="ssr:stedsnr" v="923545" />
	</node>
<<<<<<< HEAD
	<node lat="63.39466388572741" lon="10.71963056168546" id="-33349">
		<tag k="name" v="Røsttjønna" />
=======
	<node id="-755457" lat="63.4015305561" lon="10.730233336">
		<tag k="name" v="Persholet" />
>>>>>>> e1d4bc35ff8a6074a6f2e91616a996b547c36f15
		<tag k="natural" v="water" />
		<tag k="ssr:stedsnr" v="923493" />
	</node>
<<<<<<< HEAD
	<node lat="63.38615000111199" lon="10.69144445180112" id="-33350">
		<tag k="name" v="Oppsjøen" />
		<tag k="natural" v="water" />
		<tag k="ssr:stedsnr" v="923589" />
		<tag k="water" v="lake" />
	</node>
	<node lat="63.42717222587896" lon="10.828475000045982" id="-33358">
		<tag k="name" v="Langbekken" />
		<tag k="ssr:stedsnr" v="886103" />
		<tag k="waterway" v="stream" />
	</node>
	<node lat="63.4006944489472" lon="10.625002771211774" id="-33360">
		<tag k="name" v="Vasselbekken" />
		<tag k="ssr:stedsnr" v="886008" />
		<tag k="waterway" v="stream" />
	</node>
	<node lat="63.396519445138004" lon="10.726630562956693" id="-33364">
		<tag k="name" v="Vollvassbekken" />
		<tag k="ssr:stedsnr" v="886446" />
		<tag k="waterway" v="stream" />
	</node>
	<node lat="63.317680555802816" lon="10.699186105483383" id="-33378">
		<tag k="name" v="Heinfjordbekken" />
		<tag k="ssr:stedsnr" v="908072" />
		<tag k="waterway" v="stream" />
	</node>
	<node lat="63.31179444389648" lon="10.745686113183679" id="-33381">
		<tag k="name" v="Heinfjorden" />
		<tag k="natural" v="bay" />
		<tag k="ssr:stedsnr" v="923388" />
	</node>
	<node lat="63.34533610685035" lon="10.774558331769168" id="-33383">
		<tag k="name" v="Langneset" />
		<tag k="natural" v="cape" />
		<tag k="ssr:stedsnr" v="923479" />
	</node>
	<node lat="63.328244448294775" lon="10.729983342806928" id="-33427">
		<tag k="name" v="Heimtjønna" />
		<tag k="natural" v="water" />
		<tag k="ssr:stedsnr" v="13354" />
	</node>
	<node lat="63.40414444792843" lon="10.704236107435294" id="-33447">
		<tag k="name" v="Dammen" />
		<tag k="natural" v="water" />
		<tag k="ssr:stedsnr" v="37030" />
		<tag k="water" v="lake" />
	</node>
	<node lat="63.34327777886717" lon="10.862536104992762" id="-33456">
		<tag k="alt_name" v="Jøsåsvatnet;Store Jøssåstjønna;Jøssåstjønna" />
		<tag k="name" v="Jøssåsvatnet" />
=======
	<node id="-755455" lat="63.3289527757" lon="10.7940000042">
		<tag k="name" v="Sneiselva" />
		<tag k="ssr:stedsnr" v="316366" />
		<tag k="waterway" v="stream" />
	</node>
	<node id="-755452" lat="63.4283638889" lon="10.7377249996">
		<tag k="fixme" v="multiple name tags, choose one and add the other to alt_name" />
		<tag k="name" v="Stamtjønnbekken;Aunbekken" />
		<tag k="ssr:stedsnr" v="465090" />
		<tag k="waterway" v="stream" />
	</node>
	<node id="-755960" lat="63.3273694445" lon="10.7217694451">
		<tag k="name" v="Småtjønnan" />
		<tag k="natural" v="water" />
		<tag k="ssr:stedsnr" v="401109" />
	</node>
	<node id="-755956" lat="63.419619447" lon="10.6048972221">
		<tag k="name" v="Øyåsbrubekken" />
		<tag k="ssr:stedsnr" v="401006" />
		<tag k="waterway" v="stream" />
	</node>
	<node id="-755952" lat="63.3214194444" lon="10.9375527806">
		<tag k="name" v="Engtjønnbekken" />
		<tag k="ssr:stedsnr" v="400377" />
		<tag k="waterway" v="stream" />
	</node>
	<node id="-755951" lat="63.3553305556" lon="10.6437166737">
		<tag k="name" v="Vikabekken" />
		<tag k="ssr:stedsnr" v="400376" />
		<tag k="waterway" v="stream" />
	</node>
	<node id="-755435" lat="63.3131055566" lon="10.723144449">
		<tag k="name" v="Holbekktjønna" />
		<tag k="natural" v="water" />
		<tag k="ssr:stedsnr" v="462357" />
	</node>
	<node id="-755946" lat="63.3238138875" lon="10.8997555601">
		<tag k="name" v="Inner Damtjønna" />
		<tag k="natural" v="water" />
		<tag k="ssr:stedsnr" v="400222" />
	</node>
	<node id="-755751" lat="63.3503583312" lon="10.7479638832">
		<tag k="name" v="Heimtjønna" />
		<tag k="natural" v="water" />
		<tag k="ssr:stedsnr" v="73393" />
	</node>
	<node id="-755432" lat="63.4165666641" lon="10.6149583374">
		<tag k="name" v="Svartdalsbekken" />
		<tag k="ssr:stedsnr" v="462003" />
		<tag k="waterway" v="stream" />
	</node>
	<node id="-755429" lat="63.3973722229" lon="10.739752781">
		<tag k="name" v="Svartsjøbekken" />
		<tag k="ssr:stedsnr" v="461491" />
		<tag k="waterway" v="stream" />
	</node>
	<node id="-755939" lat="63.3644749991" lon="10.6727916623">
		<tag k="name" v="Ålvatnet" />
>>>>>>> e1d4bc35ff8a6074a6f2e91616a996b547c36f15
		<tag k="natural" v="water" />
		<tag k="ssr:stedsnr" v="73419" />
	</node>
<<<<<<< HEAD
	<node lat="63.379791662543525" lon="10.836949992311299" id="-33457">
		<tag k="name" v="Håsetdammen" />
=======
	<node id="-755938" lat="63.3560277776" lon="10.6850944442">
		<tag k="name" v="Jovatnet" />
>>>>>>> e1d4bc35ff8a6074a6f2e91616a996b547c36f15
		<tag k="natural" v="water" />
		<tag k="ssr:stedsnr" v="73492" />
	</node>
<<<<<<< HEAD
	<node lat="63.336638887668464" lon="10.770905562900289" id="-33460">
		<tag k="name" v="Langvika" />
		<tag k="natural" v="bay" />
		<tag k="ssr:stedsnr" v="74342" />
	</node>
	<node lat="63.37109722099922" lon="10.698138883623823" id="-33465">
		<tag k="name" v="Vulusjøen" />
		<tag k="natural" v="water" />
		<tag k="ssr:stedsnr" v="74527" />
	</node>
	<node lat="63.38968333630561" lon="10.711247214952456" id="-33471">
		<tag k="name" v="Kvistingsbekken" />
		<tag k="ssr:stedsnr" v="97026" />
		<tag k="waterway" v="stream" />
	</node>
	<node lat="63.39231111200391" lon="10.693363879169418" id="-33472">
		<tag k="name" v="Skvalbekken" />
		<tag k="ssr:stedsnr" v="97032" />
		<tag k="waterway" v="stream" />
	</node>
	<node lat="63.34401944006934" lon="10.729355550519005" id="-33473">
		<tag k="name" v="Slåttdalsbekken" />
		<tag k="ssr:stedsnr" v="97142" />
		<tag k="waterway" v="stream" />
	</node>
	<node lat="63.30235833247752" lon="10.76980555568721" id="-33483">
		<tag k="name" v="Kvitsanden" />
		<tag k="natural" v="beach" />
		<tag k="ssr:stedsnr" v="97179" />
	</node>
	<node lat="63.324597222653054" lon="10.712527780594867" id="-33484">
		<tag k="name" v="Malviktjønnbekken" />
		<tag k="ssr:stedsnr" v="97184" />
		<tag k="waterway" v="stream" />
	</node>
	<node lat="63.328255553731694" lon="10.701711101897901" id="-33485">
		<tag k="name" v="Malvikvollbekken" />
		<tag k="ssr:stedsnr" v="97186" />
		<tag k="waterway" v="stream" />
	</node>
	<node lat="63.389469442618086" lon="10.72062778110403" id="-33487">
		<tag k="name" v="Svarttjønnbekken" />
		<tag k="ssr:stedsnr" v="97450" />
		<tag k="waterway" v="stream" />
	</node>
	<node lat="63.39112222627767" lon="10.769875005155553" id="-33488">
		<tag k="name" v="Fjelldalsbekken" />
		<tag k="ssr:stedsnr" v="97462" />
		<tag k="waterway" v="stream" />
	</node>
	<node lat="63.42651944699317" lon="10.711091657148852" id="-33494">
		<tag k="name" v="Vulubekken" />
		<tag k="ssr:stedsnr" v="98428" />
		<tag k="waterway" v="stream" />
	</node>
	<node lat="63.31931389176876" lon="10.881411116808144" id="-33501">
		<tag k="name" v="Svarttjønna" />
		<tag k="natural" v="water" />
		<tag k="ssr:stedsnr" v="98831" />
	</node>
	<node lat="63.35445277760254" lon="10.810544441578894" id="-33511">
		<tag k="name" v="Torstjønna" />
		<tag k="natural" v="water" />
		<tag k="ssr:stedsnr" v="134440" />
	</node>
	<node lat="63.38463079678673" lon="10.721936353105514" id="-33513">
		<tag k="name" v="Svarttjønnan" />
=======
	<node id="-755425" lat="63.4295361144" lon="10.7151805496">
		<tag k="name" v="Sandvikbekken" />
		<tag k="ssr:stedsnr" v="461358" />
		<tag k="waterway" v="stream" />
	</node>
	<node id="-755421" lat="63.3612972209" lon="10.8364250036">
		<tag k="name" v="Koltjønnbekken" />
		<tag k="ssr:stedsnr" v="461198" />
		<tag k="waterway" v="stream" />
	</node>
	<node id="-755420" lat="63.3133361141" lon="10.8137305591">
		<tag k="name" v="Barodalsbekken" />
		<tag k="ssr:stedsnr" v="461172" />
		<tag k="waterway" v="stream" />
	</node>
	<node id="-755931" lat="63.3381166699" lon="10.7783888824">
		<tag k="name" v="Steinholmen" />
		<tag k="place" v="islet" />
		<tag k="ssr:stedsnr" v="377342" />
	</node>
	<node id="-755929" lat="63.3243361135" lon="10.9000166578">
		<tag k="name" v="Damtjønna" />
		<tag k="natural" v="water" />
		<tag k="ssr:stedsnr" v="377306" />
	</node>
	<node id="-755416" lat="63.3344388872" lon="10.7743722287">
		<tag k="name" v="Lomtjønna" />
		<tag k="natural" v="water" />
		<tag k="ssr:stedsnr" v="461149" />
	</node>
	<node id="-755927" lat="63.3988972246" lon="10.7104527815">
		<tag k="name" v="Nyvatnet" />
		<tag k="natural" v="water" />
		<tag k="ssr:stedsnr" v="377576" />
	</node>
	<node id="-755414" lat="63.3108416703" lon="10.748558328">
		<tag k="name" v="Litlholmen" />
		<tag k="place" v="islet" />
		<tag k="ssr:stedsnr" v="461126" />
	</node>
	<node id="-755925" lat="63.3924416695" lon="10.6664527687">
		<tag k="name" v="Hønstadvatnet" />
>>>>>>> e1d4bc35ff8a6074a6f2e91616a996b547c36f15
		<tag k="natural" v="water" />
		<tag k="ssr:stedsnr" v="377532" />
	</node>
<<<<<<< HEAD
	<node lat="63.37264722374381" lon="10.64152223173684" id="-33514">
		<tag k="name" v="Herjuvatnet" />
		<tag k="natural" v="water" />
		<tag k="ssr:stedsnr" v="134573" />
	</node>
	<node lat="63.37817777674413" lon="10.677108337019845" id="-33515">
		<tag k="name" v="Skjeltjønna" />
		<tag k="natural" v="water" />
		<tag k="ssr:stedsnr" v="134585" />
	</node>
	<node lat="63.404491663499286" lon="10.661425001611986" id="-33516">
		<tag k="name" v="Hestsjøen" />
=======
	<node id="-755427" lat="63.4053111078" lon="10.738216666">
		<tag k="name" v="Hallguttutjønna" />
		<tag k="natural" v="water" />
		<tag k="ssr:stedsnr" v="461477" />
	</node>
	<node id="-755404" lat="63.3135666667" lon="10.8413027706">
		<tag k="name" v="Vikaråsbekken" />
		<tag k="ssr:stedsnr" v="279151" />
		<tag k="waterway" v="stream" />
	</node>
	<node id="-755909" lat="63.3927388865" lon="10.841011101">
		<tag k="name" v="Koiedalsbekken" />
		<tag k="ssr:stedsnr" v="340465" />
		<tag k="waterway" v="stream" />
	</node>
	<node id="-755394" lat="63.302680553" lon="10.7755833424">
		<tag k="name" v="Svarttjønna" />
>>>>>>> e1d4bc35ff8a6074a6f2e91616a996b547c36f15
		<tag k="natural" v="water" />
		<tag k="ssr:stedsnr" v="134601" />
	</node>
<<<<<<< HEAD
	<node lat="63.40494444537817" lon="10.729352785023544" id="-33523">
		<tag k="name" v="Pershølet" />
		<tag k="natural" v="water" />
		<tag k="ssr:stedsnr" v="157430" />
	</node>
	<node lat="63.42099402110836" lon="10.72776230126643" id="-33526">
		<tag k="name" v="Midtsandbekken" />
		<tag k="ssr:stedsnr" v="158059" />
		<tag k="waterway" v="stream" />
	</node>
	<node lat="63.34618888658652" lon="10.781402777240208" id="-33534">
		<tag k="name" v="Hila" />
		<tag k="natural" v="bay" />
		<tag k="ssr:stedsnr" v="158231" />
	</node>
	<node lat="63.371175001060465" lon="10.733041676120953" id="-33537">
		<tag k="name" v="Granåsbekken" />
		<tag k="ssr:stedsnr" v="158435" />
		<tag k="waterway" v="stream" />
	</node>
	<node lat="63.38997500408907" lon="10.680119435050287" id="-33548">
		<tag k="name" v="Langvatnet" />
		<tag k="natural" v="water" />
		<tag k="ssr:stedsnr" v="195566" />
	</node>
	<node lat="63.392597226243566" lon="10.6844777856714" id="-33549">
		<tag k="fixme" v="multiple name tags, choose one and add the other to alt_name" />
		<tag k="name" v="Damvatnet;Damtjønna" />
		<tag k="natural" v="water" />
		<tag k="ssr:stedsnr" v="195567" />
	</node>
	<node lat="63.37461388927659" lon="10.673949992438676" id="-33559">
=======
	<node id="-755389" lat="63.3793888916" lon="10.6817000076">
		<tag k="name" v="Kutjønna" />
		<tag k="natural" v="water" />
		<tag k="ssr:stedsnr" v="219398" />
	</node>
	<node id="-755388" lat="63.3746138893" lon="10.6739499924">
>>>>>>> e1d4bc35ff8a6074a6f2e91616a996b547c36f15
		<tag k="name" v="Skjeltjønnbekken" />
		<tag k="ssr:stedsnr" v="219392" />
		<tag k="waterway" v="stream" />
	</node>
<<<<<<< HEAD
	<node lat="63.37938889161929" lon="10.681700007594896" id="-33560">
		<tag k="name" v="Kutjønna" />
		<tag k="natural" v="water" />
		<tag k="ssr:stedsnr" v="219398" />
	</node>
	<node lat="63.32988611255446" lon="10.750669447070122" id="-33563">
		<tag k="name" v="Nordbekken" />
		<tag k="ssr:stedsnr" v="219112" />
		<tag k="waterway" v="stream" />
	</node>
	<node lat="63.303127774281116" lon="10.733575007560638" id="-33566">
=======
	<node id="-755387" lat="63.3515194445" lon="10.7110611144">
		<tag k="name" v="Fjellbekken" />
		<tag k="ssr:stedsnr" v="219379" />
		<tag k="waterway" v="stream" />
	</node>
	<node id="-755380" lat="63.3031277743" lon="10.7335750076">
>>>>>>> e1d4bc35ff8a6074a6f2e91616a996b547c36f15
		<tag k="name" v="Hevilbukta" />
		<tag k="natural" v="bay" />
		<tag k="ssr:stedsnr" v="219136" />
	</node>
<<<<<<< HEAD
	<node lat="63.36597777995371" lon="10.762638891893266" id="-33572">
		<tag k="name" v="Knøttbekken" />
		<tag k="ssr:stedsnr" v="219440" />
		<tag k="waterway" v="stream" />
	</node>
	<node lat="63.4224555589915" lon="10.618941673744887" id="-33574">
		<tag k="name" v="Vegbrubekken" />
		<tag k="ssr:stedsnr" v="219347" />
		<tag k="waterway" v="stream" />
	</node>
	<node lat="63.37106666422875" lon="10.77969443975481" id="-33582">
=======
	<node id="-755998" lat="63.4219527783" lon="10.6272305604">
		<tag k="name" v="Vikhammerelva" />
		<tag k="ssr:stedsnr" v="438650" />
		<tag k="waterway" v="stream" />
	</node>
	<node id="-755378" lat="63.3298861126" lon="10.7506694471">
		<tag k="name" v="Nordbekken" />
		<tag k="ssr:stedsnr" v="219112" />
		<tag k="waterway" v="stream" />
	</node>
	<node id="-755889" lat="63.3114527752" lon="10.7428916605">
		<tag k="name" v="Storholmen" />
		<tag k="place" v="islet" />
		<tag k="ssr:stedsnr" v="340134" />
	</node>
	<node id="-755888" lat="63.3143833338" lon="10.7524916715">
		<tag k="name" v="Heinfjordholet" />
		<tag k="natural" v="bay" />
		<tag k="ssr:stedsnr" v="340133" />
	</node>
	<node id="-755886" lat="63.3393666704" lon="10.7645194455">
		<tag k="name" v="Trollholet" />
		<tag k="natural" v="bay" />
		<tag k="ssr:stedsnr" v="340124" />
	</node>
	<node id="-755882" lat="63.3917305542" lon="10.7352499997">
		<tag k="name" v="Svartdalsbekken" />
		<tag k="ssr:stedsnr" v="339456" />
		<tag k="waterway" v="stream" />
	</node>
	<node id="-755369" lat="63.3710666642" lon="10.7796944398">
>>>>>>> e1d4bc35ff8a6074a6f2e91616a996b547c36f15
		<tag k="name" v="Kvernhusfossen" />
		<tag k="natural" v="waterfall" />
		<tag k="ssr:stedsnr" v="280458" />
	</node>
<<<<<<< HEAD
	<node lat="63.31356666671652" lon="10.841302770620981" id="-33585">
		<tag k="name" v="Vikaråsbekken" />
		<tag k="ssr:stedsnr" v="279151" />
		<tag k="waterway" v="stream" />
	</node>
	<node lat="63.32078610823478" lon="10.787616669037394" id="-33589">
		<tag k="name" v="Kårstadbekken" />
		<tag k="ssr:stedsnr" v="279181" />
		<tag k="waterway" v="stream" />
	</node>
	<node lat="63.39283611096512" lon="10.854491658341818" id="-33593">
		<tag k="name" v="Nøkkhølbekken" />
		<tag k="ssr:stedsnr" v="279236" />
		<tag k="waterway" v="stream" />
	</node>
	<node lat="63.33322500063971" lon="10.876930564269042" id="-33601">
		<tag k="name" v="Vennatjønna" />
		<tag k="natural" v="water" />
		<tag k="ssr:stedsnr" v="316392" />
	</node>
	<node lat="63.33152222133771" lon="10.838924997143843" id="-33603">
		<tag k="name" v="Damtjønna" />
		<tag k="natural" v="water" />
		<tag k="ssr:stedsnr" v="316395" />
	</node>
	<node lat="63.33936667044467" lon="10.76451944545776" id="-33609">
		<tag k="name" v="Trollholet" />
		<tag k="natural" v="bay" />
		<tag k="ssr:stedsnr" v="340124" />
	</node>
	<node lat="63.31438333377466" lon="10.752491671534388" id="-33611">
		<tag k="name" v="Heinfjordholet" />
		<tag k="natural" v="bay" />
		<tag k="ssr:stedsnr" v="340133" />
	</node>
	<node lat="63.311452775202454" lon="10.742891660461884" id="-33612">
		<tag k="name" v="Storholmen" />
		<tag k="place" v="islet" />
		<tag k="ssr:stedsnr" v="340134" />
	</node>
	<node lat="63.34651389325216" lon="10.772575009604164" id="-33617">
		<tag k="name" v="Kirstiholmen" />
		<tag k="place" v="islet" />
		<tag k="ssr:stedsnr" v="340367" />
	</node>
	<node lat="63.392738886517556" lon="10.841011101048217" id="-33619">
		<tag k="name" v="Koiedalsbekken" />
		<tag k="ssr:stedsnr" v="340465" />
		<tag k="waterway" v="stream" />
	</node>
	<node lat="63.32433611348868" lon="10.900016657784372" id="-33636">
		<tag k="name" v="Damtjønna" />
		<tag k="natural" v="water" />
		<tag k="ssr:stedsnr" v="377306" />
	</node>
	<node lat="63.35748333393801" lon="10.825069443377156" id="-33638">
		<tag k="name" v="Nævra" />
		<tag k="ssr:stedsnr" v="377416" />
		<tag k="waterway" v="river" />
	</node>
	<node lat="63.39244166948069" lon="10.666452768685202" id="-33639">
		<tag k="name" v="Hønstadvatnet" />
		<tag k="natural" v="water" />
		<tag k="ssr:stedsnr" v="377532" />
	</node>
	<node lat="63.338116669892266" lon="10.778388882398593" id="-33640">
		<tag k="name" v="Steinholmen" />
		<tag k="place" v="islet" />
		<tag k="ssr:stedsnr" v="377342" />
	</node>
	<node lat="63.30687222530231" lon="10.87190278508532" id="-33641">
		<tag k="fixme" v="multiple name tags, choose one and add the other to alt_name" />
		<tag k="name" v="Solemstjenna;Solemstjønna" />
=======
	<node id="-755878" lat="63.3315222213" lon="10.8389249971">
		<tag k="name" v="Damtjønna" />
		<tag k="natural" v="water" />
		<tag k="ssr:stedsnr" v="316395" />
	</node>
	<node id="-755365" lat="63.4255027773" lon="10.6591277852">
		<tag k="name" v="Revdalsbekken" />
		<tag k="ssr:stedsnr" v="280422" />
		<tag k="waterway" v="stream" />
	</node>
	<node id="-755876" lat="63.3332250006" lon="10.8769305643">
		<tag k="name" v="Vennatjønna" />
		<tag k="natural" v="water" />
		<tag k="ssr:stedsnr" v="316392" />
	</node>
	<node id="-755874" lat="63.3002916678" lon="10.7496166683">
		<tag k="name" v="Storholmen" />
		<tag k="place" v="islet" />
		<tag k="ssr:stedsnr" v="316317" />
	</node>
	<node id="-755873" lat="63.3925972262" lon="10.6844777857">
		<tag k="fixme" v="multiple name tags, choose one and add the other to alt_name" />
		<tag k="name" v="Damvatnet;Damtjønna" />
		<tag k="natural" v="water" />
		<tag k="ssr:stedsnr" v="195567" />
	</node>
	<node id="-755872" lat="63.3899750041" lon="10.6801194351">
		<tag k="name" v="Langvatnet" />
		<tag k="natural" v="water" />
		<tag k="ssr:stedsnr" v="195566" />
	</node>
	<node id="-755358" lat="63.3977305518" lon="10.718486107">
		<tag k="name" v="Nyvassbekken" />
		<tag k="ssr:stedsnr" v="279468" />
		<tag k="waterway" v="stream" />
	</node>
	<node id="-755355" lat="63.392836111" lon="10.8544916583">
		<tag k="name" v="Nøkkhølbekken" />
		<tag k="ssr:stedsnr" v="279236" />
		<tag k="waterway" v="stream" />
	</node>
	<node id="-755351" lat="63.3207861082" lon="10.787616669">
		<tag k="name" v="Kårstadbekken" />
		<tag k="ssr:stedsnr" v="279181" />
		<tag k="waterway" v="stream" />
	</node>
	<node id="-755344" lat="63.3846307968" lon="10.7219363531">
		<tag k="name" v="Svarttjønnan" />
		<tag k="natural" v="water" />
		<tag k="ssr:stedsnr" v="134538" />
	</node>
	<node id="-755855" lat="63.3711750011" lon="10.7330416761">
		<tag k="name" v="Granåsbekken" />
		<tag k="ssr:stedsnr" v="158435" />
		<tag k="waterway" v="stream" />
	</node>
	<node id="-755337" lat="63.3990472208" lon="10.6633527796">
		<tag k="name" v="Tufttjønna" />
>>>>>>> e1d4bc35ff8a6074a6f2e91616a996b547c36f15
		<tag k="natural" v="water" />
		<tag k="ssr:stedsnr" v="377351" />
	</node>
<<<<<<< HEAD
	<node lat="63.39889722463703" lon="10.710452781549456" id="-33646">
		<tag k="name" v="Nyvatnet" />
		<tag k="natural" v="water" />
		<tag k="ssr:stedsnr" v="377576" />
	</node>
	<node lat="63.35602777762602" lon="10.685094444210048" id="-33649">
		<tag k="name" v="Jovatnet" />
=======
	<node id="-756161" lat="63.4214749972" lon="10.7482277787">
		<tag k="name" v="Kinnsettjønna" />
		<tag k="natural" v="water" />
		<tag k="ssr:stedsnr" v="802032" />
	</node>
	<node id="-755843" lat="63.3461888866" lon="10.7814027772">
		<tag k="name" v="Hila" />
		<tag k="natural" v="bay" />
		<tag k="ssr:stedsnr" v="158231" />
	</node>
	<node id="-755840" lat="63.3385027751" lon="10.7141027861">
		<tag k="name" v="Naustvolltjønna" />
>>>>>>> e1d4bc35ff8a6074a6f2e91616a996b547c36f15
		<tag k="natural" v="water" />
		<tag k="ssr:stedsnr" v="377976" />
	</node>
<<<<<<< HEAD
	<node lat="63.364474999120525" lon="10.672791662268702" id="-33650">
		<tag k="name" v="Ålvatnet" />
=======
	<node id="-755839" lat="63.3139361125" lon="10.7801000082">
		<tag k="name" v="Bonauntjønna" />
>>>>>>> e1d4bc35ff8a6074a6f2e91616a996b547c36f15
		<tag k="natural" v="water" />
		<tag k="ssr:stedsnr" v="377992" />
	</node>
<<<<<<< HEAD
	<node lat="63.30053610953847" lon="10.73636388004382" id="-33652">
		<tag k="name" v="Otersundet" />
		<tag k="natural" v="cape" />
		<tag k="ssr:stedsnr" v="400121" />
	</node>
	<node lat="63.323813887528445" lon="10.899755560075887" id="-33654">
		<tag k="name" v="Inner Damtjønna" />
		<tag k="natural" v="water" />
		<tag k="ssr:stedsnr" v="400222" />
	</node>
	<node lat="63.33173333721182" lon="10.817263881711012" id="-33664">
		<tag k="name" v="Tjønnåstjønna" />
		<tag k="natural" v="water" />
		<tag k="ssr:stedsnr" v="401157" />
	</node>
	<node lat="63.344675000646546" lon="10.708147219520786" id="-33674">
		<tag k="name" v="Fjelltjønna" />
=======
	<node id="-755322" lat="63.3630472208" lon="10.7355972285">
		<tag k="name" v="Skaugbekken" />
		<tag k="ssr:stedsnr" v="98366" />
		<tag k="waterway" v="stream" />
	</node>
	<node id="-755319" lat="63.4334999978" lon="10.6665805651">
		<tag k="name" v="Haugbekken" />
		<tag k="ssr:stedsnr" v="97361" />
		<tag k="waterway" v="stream" />
	</node>
	<node id="-755317" lat="63.3896833363" lon="10.711247215">
		<tag k="name" v="Kvistingsbekken" />
		<tag k="ssr:stedsnr" v="97026" />
		<tag k="waterway" v="stream" />
	</node>
	<node id="-755828" lat="63.4209940211" lon="10.7277623013">
		<tag k="name" v="Midtsandbekken" />
		<tag k="ssr:stedsnr" v="158059" />
		<tag k="waterway" v="stream" />
	</node>
	<node id="-755824" lat="63.4049444454" lon="10.729352785">
		<tag k="name" v="Pershølet" />
>>>>>>> e1d4bc35ff8a6074a6f2e91616a996b547c36f15
		<tag k="natural" v="water" />
		<tag k="ssr:stedsnr" v="401839" />
	</node>
<<<<<<< HEAD
	<node lat="63.37171944095366" lon="10.675791663290159" id="-33680">
		<tag k="name" v="Mørkdalstjønna" />
=======
	<node id="-755309" lat="63.3631194462" lon="10.8572027876">
		<tag k="name" v="Koltjønnin" />
>>>>>>> e1d4bc35ff8a6074a6f2e91616a996b547c36f15
		<tag k="natural" v="water" />
		<tag k="ssr:stedsnr" v="438516" />
	</node>
<<<<<<< HEAD
	<node lat="63.41552778143661" lon="10.727791676583962" id="-33689">
		<tag k="name" v="Lauvtjønna" />
=======
	<node id="-755816" lat="63.4044916635" lon="10.6614250016">
		<tag k="name" v="Hestsjøen" />
>>>>>>> e1d4bc35ff8a6074a6f2e91616a996b547c36f15
		<tag k="natural" v="water" />
		<tag k="ssr:stedsnr" v="498022" />
	</node>
<<<<<<< HEAD
	<node lat="63.29084166463309" lon="10.782494435505853" id="-33693">
		<tag k="name" v="Stor-Drakstsjøen" />
=======
	<node id="-755815" lat="63.3781777767" lon="10.677108337">
		<tag k="name" v="Skjeltjønna" />
>>>>>>> e1d4bc35ff8a6074a6f2e91616a996b547c36f15
		<tag k="natural" v="water" />
		<tag k="ssr:stedsnr" v="498303" />
		<tag k="water" v="lake" />
	</node>
<<<<<<< HEAD
	<node lat="63.39553332965906" lon="10.615224991793228" id="-33700">
		<tag k="name" v="Vasseltjønna" />
=======
	<node id="-755901" lat="63.3465138933" lon="10.7725750096">
		<tag k="name" v="Kirstiholmen" />
		<tag k="place" v="islet" />
		<tag k="ssr:stedsnr" v="340367" />
	</node>
	<node id="-755814" lat="63.3726472237" lon="10.6415222317">
		<tag k="name" v="Herjuvatnet" />
>>>>>>> e1d4bc35ff8a6074a6f2e91616a996b547c36f15
		<tag k="natural" v="water" />
		<tag k="ssr:stedsnr" v="498591" />
	</node>
<<<<<<< HEAD
	<node lat="63.30532499691693" lon="10.74743610544094" id="-33707">
		<tag k="name" v="Hevilneset" />
		<tag k="natural" v="cape" />
		<tag k="ssr:stedsnr" v="522138" />
	</node>
	<node lat="63.409219447641775" lon="10.757413880834749" id="-33718">
		<tag k="name" v="Kardusdammen" />
=======
	<node id="-755899" lat="63.3743888854" lon="10.8090277746">
		<tag k="name" v="Krokotbekken" />
		<tag k="ssr:stedsnr" v="340344" />
		<tag k="waterway" v="stream" />
	</node>
	<node id="-755805" lat="63.3544527776" lon="10.8105444416">
		<tag k="name" v="Torstjønna" />
>>>>>>> e1d4bc35ff8a6074a6f2e91616a996b547c36f15
		<tag k="natural" v="water" />
		<tag k="ssr:stedsnr" v="522349" />
		<tag k="water" v="lake" />
	</node>
	<node lat="63.3725527804037" lon="10.756549991070077" id="-33720">
		<tag k="name" v="Valen" />
		<tag k="place" v="islet" />
		<tag k="ssr:stedsnr" v="522422" />
	</node>
<<<<<<< HEAD
	<node lat="63.39724444110433" lon="10.75213888644346" id="-33737">
		<tag k="name" v="Lomtjønna" />
		<tag k="natural" v="water" />
		<tag k="ssr:stedsnr" v="582475" />
	</node>
	<node lat="63.411100001091604" lon="10.771288890259335" id="-33739">
		<tag k="name" v="Lauvåsdammen" />
		<tag k="ssr:stedsnr" v="582080" />
		<tag k="waterway" v="dam" />
	</node>
	<node lat="63.30425000412907" lon="10.79276389543534" id="-33742">
		<tag k="name" v="Okstjønna" />
=======
	<node id="-755286" lat="63.422455559" lon="10.6189416737">
		<tag k="name" v="Vegbrubekken" />
		<tag k="ssr:stedsnr" v="219347" />
		<tag k="waterway" v="stream" />
	</node>
	<node id="-755798" lat="63.3193138918" lon="10.8814111168">
		<tag k="name" v="Svarttjønna" />
>>>>>>> e1d4bc35ff8a6074a6f2e91616a996b547c36f15
		<tag k="natural" v="water" />
		<tag k="ssr:stedsnr" v="98831" />
	</node>
<<<<<<< HEAD
	<node lat="63.40245278162588" lon="10.854558329918566" id="-33745">
		<tag k="name" v="Brennbekken" />
		<tag k="ssr:stedsnr" v="582244" />
		<tag k="waterway" v="stream" />
	</node>
	<node lat="63.34626110844458" lon="10.848866658306093" id="-33746">
		<tag k="name" v="Kvernhusbekken" />
		<tag k="ssr:stedsnr" v="582248" />
		<tag k="waterway" v="stream" />
	</node>
	<node lat="63.3363388878349" lon="10.882783328601116" id="-33748">
		<tag k="name" v="Gjeldalsbekken" />
		<tag k="ssr:stedsnr" v="582251" />
		<tag k="waterway" v="stream" />
	</node>
	<node lat="63.37228611551176" lon="10.661038898476473" id="-33751">
		<tag k="name" v="Sommerfjøsbekken" />
		<tag k="ssr:stedsnr" v="583380" />
		<tag k="waterway" v="stream" />
	</node>
	<node lat="63.37953889016636" lon="10.63383334055339" id="-33754">
		<tag k="name" v="Herjuvassbekken" />
		<tag k="ssr:stedsnr" v="583482" />
		<tag k="waterway" v="stream" />
	</node>
	<node lat="63.31982222276357" lon="10.906813898073475" id="-33758">
		<tag k="name" v="Åltjønnbekken" />
		<tag k="ssr:stedsnr" v="583835" />
		<tag k="waterway" v="stream" />
	</node>
	<node lat="63.364080554268426" lon="10.694924996708506" id="-33768">
		<tag k="name" v="Ertstjønna" />
		<tag k="natural" v="water" />
		<tag k="ssr:stedsnr" v="620993" />
	</node>
	<node lat="63.432877774790725" lon="10.681547226988503" id="-33774">
		<tag k="name" v="Torpbekken" />
		<tag k="ssr:stedsnr" v="643057" />
		<tag k="waterway" v="stream" />
	</node>
	<node lat="63.30154444398516" lon="10.8118111178121" id="-33781">
		<tag k="alt_name" v="Dulitjønna" />
		<tag k="name" v="Dulitjenna" />
=======
	<node id="-755278" lat="63.36597778" lon="10.7626388919">
		<tag k="name" v="Knøttbekken" />
		<tag k="ssr:stedsnr" v="219440" />
		<tag k="waterway" v="stream" />
	</node>
	<node id="-755789" lat="63.3894694426" lon="10.7206277811">
		<tag k="name" v="Svarttjønnbekken" />
		<tag k="ssr:stedsnr" v="97450" />
		<tag k="waterway" v="stream" />
	</node>
	<node id="-755787" lat="63.3911222263" lon="10.7698750052">
		<tag k="name" v="Fjelldalsbekken" />
		<tag k="ssr:stedsnr" v="97462" />
		<tag k="waterway" v="stream" />
	</node>
	<node id="-755809" lat="63.325308329" lon="10.9240249963">
		<tag k="name" v="Vennaelva" />
		<tag k="ssr:stedsnr" v="134358" />
		<tag k="waterway" v="stream" />
	</node>
	<node id="-755780" lat="63.3440194401" lon="10.7293555505">
		<tag k="name" v="Slåttdalsbekken" />
		<tag k="ssr:stedsnr" v="97142" />
		<tag k="waterway" v="stream" />
	</node>
	<node id="-755779" lat="63.3282555537" lon="10.7017111019">
		<tag k="name" v="Malvikvollbekken" />
		<tag k="ssr:stedsnr" v="97186" />
		<tag k="waterway" v="stream" />
	</node>
	<node id="-755778" lat="63.3245972227" lon="10.7125277806">
		<tag k="name" v="Malviktjønnbekken" />
		<tag k="ssr:stedsnr" v="97184" />
		<tag k="waterway" v="stream" />
	</node>
	<node id="-755777" lat="63.3023583325" lon="10.7698055557">
		<tag k="name" v="Kvitsanden" />
		<tag k="natural" v="beach" />
		<tag k="ssr:stedsnr" v="97179" />
	</node>
	<node id="-755771" lat="63.392311112" lon="10.6933638792">
		<tag k="name" v="Skvalbekken" />
		<tag k="ssr:stedsnr" v="97032" />
		<tag k="waterway" v="stream" />
	</node>
	<node id="-755765" lat="63.371097221" lon="10.6981388836">
		<tag k="name" v="Vulusjøen" />
>>>>>>> e1d4bc35ff8a6074a6f2e91616a996b547c36f15
		<tag k="natural" v="water" />
		<tag k="ssr:stedsnr" v="715096" />
	</node>
<<<<<<< HEAD
	<node lat="63.406780556917354" lon="10.78159722338899" id="-33784">
		<tag k="name" v="Svartdalsdammen" />
		<tag k="natural" v="water" />
		<tag k="ssr:stedsnr" v="741051" />
	</node>
	<node lat="63.424522222311225" lon="10.844341663464748" id="-33786">
		<tag k="name" v="Hommelviktjønnin" />
=======
	<node id="-756276" lat="63.3176805558" lon="10.6991861055">
		<tag k="name" v="Heinfjordbekken" />
		<tag k="ssr:stedsnr" v="908072" />
		<tag k="waterway" v="stream" />
	</node>
	<node id="-755760" lat="63.3180111079" lon="10.8636583426">
		<tag k="name" v="Lauva" />
		<tag k="ssr:stedsnr" v="74359" />
		<tag k="waterway" v="stream" />
	</node>
	<node id="-756061" lat="63.3722861155" lon="10.6610388985">
		<tag k="name" v="Sommerfjøsbekken" />
		<tag k="ssr:stedsnr" v="583380" />
		<tag k="waterway" v="stream" />
	</node>
	<node id="-755754" lat="63.3797916625" lon="10.8369499923">
		<tag k="name" v="Håsetdammen" />
>>>>>>> e1d4bc35ff8a6074a6f2e91616a996b547c36f15
		<tag k="natural" v="water" />
		<tag k="ssr:stedsnr" v="741022" />
	</node>
<<<<<<< HEAD
	<node lat="63.380091665843544" lon="10.807055565357475" id="-33793">
		<tag k="name" v="Svartvatnet" />
=======
	<node id="-755753" lat="63.3676944409" lon="10.849838898">
		<tag k="name" v="Rukkutjønna" />
>>>>>>> e1d4bc35ff8a6074a6f2e91616a996b547c36f15
		<tag k="natural" v="water" />
		<tag k="ssr:stedsnr" v="741582" />
	</node>
<<<<<<< HEAD
	<node lat="63.40458888831652" lon="10.61376388530559" id="-33799">
		<tag k="name" v="Stokkdalsbekken" />
		<tag k="ssr:stedsnr" v="764337" />
		<tag k="waterway" v="stream" />
	</node>
	<node lat="63.39377499754757" lon="10.713766661645709" id="-33804">
		<tag k="name" v="Djupdalsbekken" />
		<tag k="ssr:stedsnr" v="765039" />
		<tag k="waterway" v="stream" />
	</node>
	<node lat="63.42147499723723" lon="10.748227778677803" id="-33824">
		<tag k="name" v="Kinnsettjønna" />
=======
	<node id="-755752" lat="63.3739555543" lon="10.7810249944">
		<tag k="name" v="Storfossen" />
		<tag k="natural" v="waterfall" />
		<tag k="ssr:stedsnr" v="73396" />
	</node>
	<node id="-755933" lat="63.3574833339" lon="10.8250694434">
		<tag k="name" v="Nævra" />
		<tag k="ssr:stedsnr" v="377416" />
		<tag k="waterway" v="river" />
	</node>
	<node id="-755750" lat="63.3432777789" lon="10.862536105">
		<tag k="alt_name" v="Jøsåsvatnet;Jøssåstjønna;Store Jøssåstjønna" />
		<tag k="name" v="Jøssåsvatnet" />
>>>>>>> e1d4bc35ff8a6074a6f2e91616a996b547c36f15
		<tag k="natural" v="water" />
		<tag k="ssr:stedsnr" v="802032" />
	</node>
<<<<<<< HEAD
	<node lat="63.31747777411708" lon="10.909524999888259" id="-33828">
		<tag k="name" v="Åltjønna" />
=======
	<node id="-755742" lat="63.3832888885" lon="10.7214666566">
		<tag k="name" v="Øvre Svarttjønna" />
>>>>>>> e1d4bc35ff8a6074a6f2e91616a996b547c36f15
		<tag k="natural" v="water" />
		<tag k="ssr:stedsnr" v="802424" />
	</node>
<<<<<<< HEAD
	<node lat="63.35104167021303" lon="10.739130560982133" id="-33829">
		<tag k="name" v="Svarttjønna" />
		<tag k="natural" v="water" />
		<tag k="ssr:stedsnr" v="802444" />
	</node>
	<node lat="63.38674166634235" lon="10.718788883104448" id="-33835">
		<tag k="name" v="Ner Svarttjønna" />
=======
	<node id="-755741" lat="63.3698250018" lon="10.6788555505">
		<tag k="name" v="Brannbekken" />
		<tag k="ssr:stedsnr" v="37414" />
		<tag k="waterway" v="stream" />
	</node>
	<node id="-755736" lat="63.4041444479" lon="10.7042361074">
		<tag k="name" v="Dammen" />
>>>>>>> e1d4bc35ff8a6074a6f2e91616a996b547c36f15
		<tag k="natural" v="water" />
		<tag k="ssr:stedsnr" v="825429" />
	</node>
<<<<<<< HEAD
	<node lat="63.419644446775486" lon="10.759650004977296" id="-33841">
		<tag k="name" v="Grønbergsbekken" />
		<tag k="ssr:stedsnr" v="826098" />
		<tag k="waterway" v="stream" />
	</node>
	<node lat="63.32985555146052" lon="10.821188883874713" id="-33842">
		<tag k="name" v="Tjønnåstjønna" />
		<tag k="natural" v="water" />
		<tag k="ssr:stedsnr" v="826163" />
	</node>
	<node lat="63.39945833793977" lon="10.688994436067333" id="-33843">
		<tag k="name" v="Sagelva" />
		<tag k="ssr:stedsnr" v="826041" />
		<tag k="waterway" v="river" />
	</node>
	<node lat="63.41499999786043" lon="10.835636109559111" id="-33846">
		<tag k="name" v="Sandbekken" />
		<tag k="ssr:stedsnr" v="826151" />
		<tag k="waterway" v="stream" />
	</node>
	<node lat="63.3830444478451" lon="10.772599994076007" id="-33847">
		<tag k="name" v="Fosslibekken" />
		<tag k="ssr:stedsnr" v="826469" />
		<tag k="waterway" v="stream" />
	</node>
	<node lat="63.343299998540864" lon="10.763561114708294" id="-33857">
		<tag k="name" v="Storholmen" />
		<tag k="place" v="islet" />
		<tag k="ssr:stedsnr" v="862433" />
	</node>
	<node lat="63.385152776650656" lon="10.671052785647861" id="-33858">
		<tag k="name" v="Hyllvatnet" />
		<tag k="natural" v="water" />
		<tag k="ssr:stedsnr" v="862532" />
	</node>
	<node lat="63.404605555384784" lon="10.783947230283681" id="-33861">
		<tag k="alt_name" v="Jernbanedammen" />
		<tag k="name" v="Modammen" />
		<tag k="natural" v="water" />
		<tag k="old_name" v="Nydammen" />
		<tag k="ssr:stedsnr" v="863037" />
	</node>
	<node lat="63.404505558951136" lon="10.751277783295462" id="-33863">
		<tag k="name" v="Stavsjøen" />
		<tag k="natural" v="water" />
		<tag k="ssr:stedsnr" v="863040" />
		<tag k="water" v="lake" />
	</node>
	<node lat="63.32186944541282" lon="10.881722231126233" id="-33864">
		<tag k="name" v="Otertjønna" />
		<tag k="natural" v="water" />
		<tag k="ssr:stedsnr" v="863311" />
	</node>
	<node lat="63.32066389238467" lon="10.725736109835484" id="-33866">
		<tag k="name" v="Øybekken" />
		<tag k="ssr:stedsnr" v="863359" />
		<tag k="waterway" v="stream" />
	</node>
	<node lat="63.325380552658" lon="10.702274998751493" id="-33870">
		<tag k="name" v="Malviktjønna" />
		<tag k="natural" v="water" />
		<tag k="ssr:stedsnr" v="863875" />
	</node>
	<node lat="63.36609444703994" lon="10.65402777165985" id="-33871">
		<tag k="name" v="Svarttjønna" />
		<tag k="natural" v="water" />
		<tag k="ssr:stedsnr" v="863997" />
	</node>
	<node lat="63.389791663497896" lon="10.728727785004315" id="-33873">
		<tag k="name" v="Skarpåsbekken" />
		<tag k="ssr:stedsnr" v="886469" />
		<tag k="waterway" v="stream" />
	</node>
	<node lat="63.32799721785617" lon="10.770827775256382" id="-33876">
		<tag k="name" v="Litlfoldsjøen" />
		<tag k="natural" v="water" />
		<tag k="ssr:stedsnr" v="886138" />
		<tag k="water" v="lake" />
	</node>
	<node lat="63.320208330720604" lon="10.826383333851396" id="-33877">
		<tag k="name" v="Kvernhusfossen" />
		<tag k="natural" v="waterfall" />
		<tag k="ssr:stedsnr" v="886143" />
	</node>
	<node lat="63.36844166384271" lon="10.674219451628245" id="-33885">
		<tag k="name" v="Ålvassbekken" />
		<tag k="ssr:stedsnr" v="887380" />
		<tag k="waterway" v="stream" />
	</node>
	<node lat="63.309780555855134" lon="10.860613889071537" id="-33892">
		<tag k="name" v="Lauva" />
		<tag k="ssr:stedsnr" v="887875" />
		<tag k="waterway" v="stream" />
	</node>
	<node lat="63.310530559569884" lon="10.820783340021903" id="-33904">
		<tag k="name" v="Heimtjønna" />
		<tag k="natural" v="water" />
		<tag k="ssr:stedsnr" v="947168" />
	</node>
	<node lat="63.36656110677772" lon="10.663511117165617" id="-33907">
		<tag k="name" v="Svarttjønnbekken" />
		<tag k="ssr:stedsnr" v="947370" />
		<tag k="waterway" v="stream" />
	</node>
	<node lat="63.316961111001014" lon="10.707822223487037" id="-33908">
		<tag k="name" v="Bjørnstadtjønnbekken" />
		<tag k="ssr:stedsnr" v="947379" />
		<tag k="waterway" v="stream" />
	</node>
	<node lat="63.37269166332522" lon="10.700000001783929" id="-33909">
		<tag k="name" v="Vulusjøen" />
		<tag k="natural" v="water" />
		<tag k="ssr:stedsnr" v="947387" />
		<tag k="water" v="lake" />
	</node>
	<node lat="63.41069444843185" lon="10.701711120184596" id="-33910">
		<tag k="name" v="Grinddalsbekken" />
		<tag k="ssr:stedsnr" v="947404" />
		<tag k="waterway" v="stream" />
	</node>
	<node lat="63.413955551559965" lon="10.68773611119832" id="-33911">
		<tag k="name" v="Sjøvigjardsbekken" />
		<tag k="ssr:stedsnr" v="947406" />
		<tag k="waterway" v="stream" />
	</node>
	<node lat="63.324713892422885" lon="10.904130547612077" id="-33914">
		<tag k="name" v="Altjønnbekken" />
		<tag k="ssr:stedsnr" v="947240" />
		<tag k="waterway" v="stream" />
	</node>
	<node lat="63.40092777967839" lon="10.833100007776803" id="-33917">
		<tag k="name" v="Høybybekken" />
		<tag k="ssr:stedsnr" v="947480" />
		<tag k="waterway" v="stream" />
	</node>
	<node lat="63.343652773548826" lon="10.857447220455919" id="-33925">
		<tag k="name" v="Litle Jøssåstjønna" />
		<tag k="natural" v="water" />
		<tag k="ssr:stedsnr" v="968571" />
=======
	<node id="-755540" lat="63.3818916679" lon="10.7897138793">
		<tag k="name" v="Svarttjønnbekken" />
		<tag k="ssr:stedsnr" v="704407" />
		<tag k="waterway" v="stream" />
	</node>
	<node id="-755717" lat="63.3282444483" lon="10.7299833428">
		<tag k="name" v="Heimtjønna" />
		<tag k="natural" v="water" />
		<tag k="ssr:stedsnr" v="13354" />
	</node>
	<node id="-756227" lat="63.366094447" lon="10.6540277717">
		<tag k="name" v="Svarttjønna" />
		<tag k="natural" v="water" />
		<tag k="ssr:stedsnr" v="863997" />
	</node>
	<node id="-756226" lat="63.3253805527" lon="10.7022749988">
		<tag k="name" v="Malviktjønna" />
		<tag k="natural" v="water" />
		<tag k="ssr:stedsnr" v="863875" />
>>>>>>> e1d4bc35ff8a6074a6f2e91616a996b547c36f15
	</node>
</osm>
