<?xml version="1.0" encoding="UTF-8"?>
<osm generator="osmapis" version="0.6">
	<node id="-477013" lat="60.4939250013" lon="5.11183611634">
		<tag k="name" v="Stordiket" />
		<tag k="natural" v="water" />
		<tag k="ssr:stedsnr" v="227743" />
		<tag k="water" v="lake" />
	</node>
	<node id="-476663" lat="60.4734972226" lon="5.08540833334">
		<tag k="name" v="Nordre Rotevatnet" />
		<tag k="natural" v="water" />
		<tag k="ssr:stedsnr" v="894956" />
		<tag k="water" v="lake" />
	</node>
	<node id="-476660" lat="60.5217000042" lon="5.01688333047">
		<tag k="name" v="Støletjørna" />
		<tag k="natural" v="water" />
		<tag k="ssr:stedsnr" v="894945" />
	</node>
	<node id="-476654" lat="60.4564172293" lon="5.10710469322">
		<tag k="name" v="Kollevågtjørna" />
		<tag k="natural" v="water" />
		<tag k="ssr:stedsnr" v="894350" />
	</node>
	<node id="-476653" lat="60.4844472208" lon="5.10298055838">
		<tag k="name" v="Svartepyttvatnet" />
		<tag k="natural" v="water" />
		<tag k="ssr:stedsnr" v="894345" />
		<tag k="water" v="lake" />
	</node>
	<node id="-477164" lat="60.4834000027" lon="5.18057778177">
		<tag k="name" v="Øyna" />
		<tag k="place" v="islet" />
		<tag k="ssr:stedsnr" v="491394" />
	</node>
	<node id="-476651" lat="60.5072089771" lon="5.04392810657">
		<tag k="name" v="Kaldtjørna" />
		<tag k="natural" v="water" />
		<tag k="ssr:stedsnr" v="894329" />
	</node>
	<node id="-477162" lat="60.4162783877" lon="5.17402067927">
		<tag k="name" v="Follesevatnet" />
		<tag k="natural" v="water" />
		<tag k="ssr:stedsnr" v="490607" />
	</node>
	<node id="-476648" lat="60.5208333365" lon="5.00735833639">
		<tag k="name" v="Straumsvatnet" />
		<tag k="natural" v="water" />
		<tag k="ssr:stedsnr" v="894323" />
		<tag k="water" v="lake" />
	</node>
	<node id="-476647" lat="60.5331638847" lon="4.99762499548">
		<tag k="name" v="Skråmestøvatnet" />
		<tag k="natural" v="water" />
		<tag k="ssr:stedsnr" v="894319" />
		<tag k="water" v="lake" />
	</node>
	<node id="-477670" lat="60.4732547027" lon="5.09493557117">
		<tag k="name" v="Hamyrsvatnet" />
		<tag k="natural" v="water" />
		<tag k="ssr:stedsnr" v="855253" />
		<tag k="water" v="lake" />
	</node>
	<node id="-476642" lat="60.4709361151" lon="5.1064305532">
		<tag k="name" v="Dammen" />
		<tag k="natural" v="water" />
		<tag k="ssr:stedsnr" v="410729" />
		<tag k="water" v="lake" />
	</node>
	<node id="-476636" lat="60.4665583314" lon="5.19298889356">
		<tag k="name" v="Fjellvasselva" />
		<tag k="ssr:stedsnr" v="410671" />
		<tag k="waterway" v="stream" />
	</node>
	<node id="-477659" lat="60.5001277786" lon="5.1406250038">
		<tag k="name" v="Kvernavatnet" />
		<tag k="natural" v="water" />
		<tag k="ssr:stedsnr" v="834964" />
		<tag k="water" v="lake" />
	</node>
	<node id="-477658" lat="60.4772076386" lon="5.14469814227">
		<tag k="name" v="Heiavassholmen" />
		<tag k="place" v="islet" />
		<tag k="ssr:stedsnr" v="834960" />
	</node>
	<node id="-477656" lat="60.4706438827" lon="5.08515972485">
		<tag k="name" v="Bjøllevågstjørna" />
		<tag k="natural" v="water" />
		<tag k="ssr:stedsnr" v="834945" />
	</node>
	<node id="-477141" lat="60.4274831485" lon="5.21385416088">
		<tag k="name" v="Kattatjørna" />
		<tag k="natural" v="water" />
		<tag k="ssr:stedsnr" v="470636" />
	</node>
	<node id="-477138" lat="60.4534080744" lon="5.12699721943">
		<tag k="name" v="Hundtjørna" />
		<tag k="natural" v="water" />
		<tag k="ssr:stedsnr" v="470616" />
	</node>
	<node id="-477133" lat="60.502438423" lon="5.13731485311">
		<tag k="name" v="Hofalltjørna" />
		<tag k="natural" v="water" />
		<tag k="ssr:stedsnr" v="470540" />
	</node>
	<node id="-477641" lat="60.5472166645" lon="4.97566389389">
		<tag k="name" v="Osterpollen" />
		<tag k="natural" v="water" />
		<tag k="ssr:stedsnr" v="834620" />
		<tag k="water" v="lake" />
	</node>
	<node id="-477124" lat="60.4003521949" lon="5.17136606658">
		<tag k="name" v="Storatjørna" />
		<tag k="natural" v="water" />
		<tag k="ssr:stedsnr" v="469388" />
	</node>
	<node id="-476610" lat="60.532762094" lon="5.01305724877">
		<tag k="name" v="Vadtjørna" />
		<tag k="natural" v="water" />
		<tag k="ssr:stedsnr" v="409594" />
	</node>
	<node id="-477628" lat="60.5268215083" lon="5.01032688888">
		<tag k="name" v="Tverrgardstjørna" />
		<tag k="natural" v="water" />
		<tag k="ssr:stedsnr" v="834385" />
	</node>
	<node id="-477113" lat="60.5050360212" lon="5.04501054215">
		<tag k="name" v="Rottjørna" />
		<tag k="natural" v="water" />
		<tag k="ssr:stedsnr" v="469286" />
	</node>
	<node id="-477623" lat="60.4784748262" lon="5.22048968249">
		<tag k="name" v="Frugårdstjørna" />
		<tag k="natural" v="water" />
		<tag k="ssr:stedsnr" v="834351" />
	</node>
	<node id="-477621" lat="60.4692265891" lon="5.14801495482">
		<tag k="name" v="Drivetjørna" />
		<tag k="natural" v="water" />
		<tag k="ssr:stedsnr" v="834335" />
	</node>
	<node id="-476596" lat="60.4737361082" lon="5.07485554806">
		<tag k="name" v="Nordre Migen" />
		<tag k="natural" v="water" />
		<tag k="ssr:stedsnr" v="409303" />
		<tag k="water" v="lake" />
	</node>
	<node id="-477619" lat="60.4677666692" lon="5.06419722669">
		<tag k="name" v="Børøyvatnet" />
		<tag k="natural" v="water" />
		<tag k="ssr:stedsnr" v="834311" />
		<tag k="water" v="lake" />
	</node>
	<node id="-477618" lat="60.4802294594" lon="5.08349394991">
		<tag k="name" v="Kremmartjørna" />
		<tag k="natural" v="water" />
		<tag k="ssr:stedsnr" v="834299" />
	</node>
	<node id="-477617" lat="60.5021511949" lon="5.12396635125">
		<tag k="name" v="Rotatjørna" />
		<tag k="natural" v="water" />
		<tag k="ssr:stedsnr" v="834290" />
	</node>
	<node id="-476591" lat="60.5310583313" lon="5.00423611727">
		<tag k="name" v="Øyravatnet" />
		<tag k="natural" v="water" />
		<tag k="ssr:stedsnr" v="409283" />
		<tag k="water" v="lake" />
	</node>
	<node id="-477597" lat="60.4511138877" lon="5.14250000013">
		<tag k="alt_name" v="Tveitavatnet" />
		<tag k="name" v="Storavatnet" />
		<tag k="natural" v="water" />
		<tag k="ssr:stedsnr" v="794533" />
		<tag k="water" v="lake" />
	</node>
	<node id="-477092" lat="60.5379250035" lon="4.99294999194">
		<tag k="name" v="Oksnesvatnet" />
		<tag k="natural" v="water" />
		<tag k="ssr:stedsnr" v="431723" />
	</node>
	<node id="-476579" lat="60.5473442225" lon="4.98431436161">
		<tag k="name" v="Merkesvikvatnet" />
		<tag k="natural" v="water" />
		<tag k="ssr:stedsnr" v="370725" />
	</node>
	<node id="-477085" lat="60.4530580986" lon="5.18952433628">
		<tag k="name" v="Ingjerdsvatnet" />
		<tag k="natural" v="water" />
		<tag k="ssr:stedsnr" v="430547" />
	</node>
	<node id="-477596" lat="60.45766389" lon="5.09701667009">
		<tag k="name" v="Steinseidet" />
		<tag k="natural" v="strait" />
		<tag k="ssr:stedsnr" v="794524" />
	</node>
	<node id="-477594" lat="60.4706052846" lon="5.13383293089">
		<tag k="name" v="Kvernavatnet" />
		<tag k="natural" v="water" />
		<tag k="ssr:stedsnr" v="794413" />
	</node>
	<node id="-477593" lat="60.4697496658" lon="5.19730529728">
		<tag k="name" v="Tranetjørna" />
		<tag k="natural" v="water" />
		<tag k="ssr:stedsnr" v="794402" />
	</node>
	<node id="-477080" lat="60.4849166644" lon="5.19010278199">
		<tag k="name" v="Ormaneset" />
		<tag k="natural" v="cape" />
		<tag k="ssr:stedsnr" v="430369" />
	</node>
	<node id="-477589" lat="60.4786038501" lon="5.09853670304">
		<tag k="name" v="Træsvatnet" />
		<tag k="natural" v="water" />
		<tag k="ssr:stedsnr" v="794382" />
	</node>
	<node id="-477741" lat="60.4766633041" lon="5.0949661047">
		<tag k="name" v="Furekamtjørna" />
		<tag k="natural" v="water" />
		<tag k="ssr:stedsnr" v="955295" />
	</node>
	<node id="-477585" lat="60.4981810863" lon="5.05950656755">
		<tag k="name" v="Kvernavatnet" />
		<tag k="natural" v="water" />
		<tag k="ssr:stedsnr" v="794212" />
	</node>
	<node id="-477072" lat="60.4045882595" lon="5.17067812466">
		<tag k="name" v="Træsvatnet" />
		<tag k="natural" v="water" />
		<tag k="ssr:stedsnr" v="430602" />
	</node>
	<node id="-477070" lat="60.4719611089" lon="5.08663333842">
		<tag k="name" v="Søre Rotevatnet" />
		<tag k="natural" v="water" />
		<tag k="ssr:stedsnr" v="419727" />
		<tag k="water" v="lake" />
	</node>
	<node id="-477063" lat="60.5298600535" lon="5.00363332276">
		<tag k="name" v="Bekkevatnet" />
		<tag k="natural" v="water" />
		<tag k="ssr:stedsnr" v="249691" />
	</node>
	<node id="-476650" lat="60.5225111087" lon="5.02077222462">
		<tag k="name" v="Stemmevatnet" />
		<tag k="natural" v="water" />
		<tag k="ssr:stedsnr" v="894327" />
		<tag k="water" v="lake" />
	</node>
	<node id="-477046" lat="60.4595916699" lon="5.21710000163">
		<tag k="name" v="Dyrneset" />
		<tag k="natural" v="cape" />
		<tag k="ssr:stedsnr" v="248549" />
	</node>
	<node id="-477041" lat="60.4975804315" lon="5.09606484914">
		<tag k="name" v="Kråvatnet" />
		<tag k="natural" v="water" />
		<tag k="ssr:stedsnr" v="248469" />
	</node>
	<node id="-477040" lat="60.4982012695" lon="5.13935193765">
		<tag k="name" v="Bottsvatnet" />
		<tag k="natural" v="water" />
		<tag k="ssr:stedsnr" v="248468" />
	</node>
	<node id="-477548" lat="60.447377068" lon="5.13099342896">
		<tag k="name" v="Kollevågtjørna" />
		<tag k="natural" v="water" />
		<tag k="ssr:stedsnr" v="773600" />
	</node>
	<node id="-477032" lat="60.4742638872" lon="5.08711389806">
		<tag k="name" v="Svartevatnet" />
		<tag k="natural" v="water" />
		<tag k="ssr:stedsnr" v="228756" />
		<tag k="water" v="lake" />
	</node>
	<node id="-476561" lat="60.4755660961" lon="5.1600670726">
		<tag k="name" v="Båtevikvatnet" />
		<tag k="natural" v="water" />
		<tag k="ssr:stedsnr" v="369381" />
	</node>
	<node id="-477158" lat="60.4164451951" lon="5.23522063575">
		<tag k="name" v="Kopparvatnet" />
		<tag k="natural" v="water" />
		<tag k="ssr:stedsnr" v="490556" />
	</node>
	<node id="-476513" lat="60.424030553" lon="5.23364999269">
		<tag k="name" v="Nyavatnet" />
		<tag k="natural" v="water" />
		<tag k="ssr:stedsnr" v="348350" />
		<tag k="water" v="lake" />
	</node>
	<node id="-476512" lat="60.4850055533" lon="5.17655833119">
		<tag k="name" v="Hanevikholmen" />
		<tag k="place" v="islet" />
		<tag k="ssr:stedsnr" v="348336" />
	</node>
	<node id="-476560" lat="60.4947353724" lon="5.18232241894">
		<tag k="name" v="Saltbuvatnet" />
		<tag k="natural" v="water" />
		<tag k="ssr:stedsnr" v="369355" />
	</node>
	<node id="-476510" lat="60.4908083182" lon="5.10734937473">
		<tag k="name" v="Langetjørna" />
		<tag k="natural" v="water" />
		<tag k="ssr:stedsnr" v="348305" />
	</node>
	<node id="-477529" lat="60.4984166676" lon="5.04847221565">
		<tag k="name" v="Midtvatnet" />
		<tag k="natural" v="water" />
		<tag k="ssr:stedsnr" v="773299" />
		<tag k="water" v="lake" />
	</node>
	<node id="-477525" lat="60.4121108997" lon="5.19856586863">
		<tag k="name" v="Strusshamnvatnet" />
		<tag k="natural" v="water" />
		<tag k="ssr:stedsnr" v="753991" />
		<tag k="water" v="lake" />
	</node>
	<node id="-476498" lat="60.5109055589" lon="5.03744445294">
		<tag k="name" v="Eidet" />
		<tag k="natural" v="strait" />
		<tag k="ssr:stedsnr" v="329546" />
	</node>
	<node id="-476492" lat="60.5104669687" lon="5.02857712924">
		<tag k="name" v="Storstølvatnet" />
		<tag k="natural" v="water" />
		<tag k="ssr:stedsnr" v="310668" />
	</node>
	<node id="-477534" lat="60.4884617206" lon="5.14730192037">
		<tag k="name" v="Rotatjørna" />
		<tag k="natural" v="water" />
		<tag k="ssr:stedsnr" v="773354" />
	</node>
	<node id="-476897" lat="60.4817863445" lon="5.15109067228">
		<tag k="name" v="Ravnangertjørna" />
		<tag k="natural" v="water" />
		<tag k="ssr:stedsnr" v="166340" />
	</node>
	<node id="-477506" lat="60.4742679516" lon="5.10445583297">
		<tag k="name" v="Sagvatnet" />
		<tag k="natural" v="water" />
		<tag k="ssr:stedsnr" v="734453" />
	</node>
	<node id="-476480" lat="60.4539427486" lon="5.11556590385">
		<tag k="name" v="Bergsvatnet" />
		<tag k="natural" v="water" />
		<tag k="ssr:stedsnr" v="308512" />
	</node>
	<node id="-476479" lat="60.4543638874" lon="5.17112499181">
		<tag k="name" v="Lonelva" />
		<tag k="ssr:stedsnr" v="308509" />
		<tag k="waterway" v="river" />
	</node>
	<node id="-476478" lat="60.4620251704" lon="5.18645080239">
		<tag k="name" v="Fjellvatnet" />
		<tag k="natural" v="water" />
		<tag k="ssr:stedsnr" v="308378" />
	</node>
	<node id="-476985" lat="60.4534805568" lon="5.22301944078">
		<tag k="name" v="Møllevatnet" />
		<tag k="natural" v="water" />
		<tag k="ssr:stedsnr" v="227384" />
		<tag k="water" v="lake" />
	</node>
	<node id="-476980" lat="60.4830853948" lon="5.11122587841">
		<tag k="name" v="Fugledalstjørna" />
		<tag k="natural" v="water" />
		<tag k="ssr:stedsnr" v="227323" />
	</node>
	<node id="-477492" lat="60.4790944447" lon="5.2003583359">
		<tag k="name" v="Mølledammen" />
		<tag k="natural" v="water" />
		<tag k="ssr:stedsnr" v="713778" />
		<tag k="water" v="lake" />
	</node>
	<node id="-476979" lat="60.4713833303" lon="5.07612222502">
		<tag k="name" v="Søre Migen" />
		<tag k="natural" v="water" />
		<tag k="ssr:stedsnr" v="227321" />
		<tag k="water" v="lake" />
	</node>
	<node id="-476978" lat="60.490012564" lon="5.09979228846">
		<tag k="name" v="Futlauptjørna" />
		<tag k="natural" v="water" />
		<tag k="ssr:stedsnr" v="227314" />
	</node>
	<node id="-476975" lat="60.4162444464" lon="5.23872221676">
		<tag k="name" v="Storavatnet" />
		<tag k="natural" v="water" />
		<tag k="ssr:stedsnr" v="227268" />
		<tag k="water" v="lake" />
	</node>
	<node id="-476973" lat="60.4147944484" lon="5.23084999867">
		<tag k="name" v="Rotavatnet" />
		<tag k="natural" v="water" />
		<tag k="ssr:stedsnr" v="227259" />
		<tag k="water" v="lake" />
	</node>
	<node id="-476460" lat="60.4916277745" lon="5.1545833267">
		<tag k="name" v="Hanevikelva" />
		<tag k="old_name" v="Sagelvi;Sageelva" />
		<tag k="ssr:stedsnr" v="45344" />
		<tag k="waterway" v="stream" />
	</node>
	<node id="-476458" lat="60.4736843208" lon="5.07878901918">
		<tag k="name" v="Seiatjørna" />
		<tag k="natural" v="water" />
		<tag k="ssr:stedsnr" v="289775" />
	</node>
	<node id="-477319" lat="60.4752000009" lon="5.20537777873">
		<tag k="name" v="Træsvatnet" />
		<tag k="natural" v="water" />
		<tag k="ssr:stedsnr" v="592734" />
		<tag k="water" v="lake" />
	</node>
	<node id="-477471" lat="60.4478881308" lon="5.17635415663">
		<tag k="name" v="Fagerdalstjørna" />
		<tag k="natural" v="water" />
		<tag k="ssr:stedsnr" v="713650" />
	</node>
	<node id="-476950" lat="60.4772346232" lon="5.10491510543">
		<tag k="name" v="Skogatjørna" />
		<tag k="natural" v="water" />
		<tag k="ssr:stedsnr" v="187377" />
	</node>
	<node id="-476949" lat="60.4908349039" lon="5.14753501074">
		<tag k="alt_name" v="Åsebøvatnet" />
		<tag k="name" v="Åsbøvatnet" />
		<tag k="natural" v="water" />
		<tag k="ssr:stedsnr" v="187361" />
	</node>
	<node id="-477453" lat="60.4463750036" lon="5.12530555057">
		<tag k="name" v="Kobbatjørna" />
		<tag k="natural" v="water" />
		<tag k="ssr:stedsnr" v="712322" />
	</node>
	<node id="-477452" lat="60.4958138882" lon="5.16301944859">
		<tag k="name" v="Huneviksholmen" />
		<tag k="place" v="islet" />
		<tag k="ssr:stedsnr" v="712312" />
	</node>
	<node id="-476426" lat="60.5055083323" lon="5.13280277579">
		<tag k="name" v="Langavatnet" />
		<tag k="natural" v="water" />
		<tag k="ssr:stedsnr" v="288498" />
		<tag k="water" v="lake" />
	</node>
	<node id="-476936" lat="60.4298721311" lon="5.21750903916">
		<tag k="name" v="Langafjellstjørna" />
		<tag k="natural" v="water" />
		<tag k="ssr:stedsnr" v="167684" />
	</node>
	<node id="-477447" lat="60.4802304312" lon="5.11257547591">
		<tag k="name" v="Nordre Fagerbakktjørna" />
		<tag k="natural" v="water" />
		<tag k="ssr:stedsnr" v="712282" />
	</node>
	<node id="-477444" lat="60.4947861101" lon="5.12065278058">
		<tag k="name" v="Kjerrgardselva" />
		<tag k="ssr:stedsnr" v="712277" />
		<tag k="waterway" v="stream" />
	</node>
	<node id="-476419" lat="60.4815694455" lon="5.18066945252">
		<tag k="name" v="Paradisholmen" />
		<tag k="place" v="islet" />
		<tag k="ssr:stedsnr" v="288466" />
	</node>
	<node id="-477442" lat="60.4975277786" lon="5.05657777146">
		<tag k="name" v="Straumsvatnet" />
		<tag k="natural" v="water" />
		<tag k="ssr:stedsnr" v="712262" />
		<tag k="water" v="lake" />
	</node>
	<node id="-476416" lat="60.5634583343" lon="4.98768333371">
		<tag k="name" v="Klipholmen" />
		<tag k="place" v="islet" />
		<tag k="ssr:stedsnr" v="288284" />
	</node>
	<node id="-476412" lat="60.4814242981" lon="5.16445214524">
		<tag k="name" v="Grøndalstjørna" />
		<tag k="natural" v="water" />
		<tag k="ssr:stedsnr" v="287959" />
	</node>
	<node id="-476407" lat="60.408885537" lon="5.18822611004">
		<tag k="name" v="Vestravatnet" />
		<tag k="natural" v="water" />
		<tag k="ssr:stedsnr" v="287913" />
		<tag k="water" v="lake" />
	</node>
	<node id="-476400" lat="60.4118722224" lon="5.22972778429">
		<tag k="name" v="Vatnavatnet" />
		<tag k="natural" v="water" />
		<tag k="ssr:stedsnr" v="287400" />
		<tag k="water" v="lake" />
	</node>
	<node id="-476394" lat="60.4944809451" lon="5.10280325258">
		<tag k="name" v="Hundetjørna" />
		<tag k="natural" v="water" />
		<tag k="ssr:stedsnr" v="287330" />
	</node>
	<node id="-476903" lat="60.4855972211" lon="5.16968332566">
		<tag k="name" v="Sanden" />
		<tag k="natural" v="beach" />
		<tag k="ssr:stedsnr" v="166512" />
	</node>
	<node id="-477409" lat="60.4916314874" lon="5.12188196832">
		<tag k="alt_name" v="Kistetjørna" />
		<tag k="name" v="Nordra Kistetjørna" />
		<tag k="natural" v="water" />
		<tag k="ssr:stedsnr" v="673404" />
	</node>
	<node id="-477403" lat="60.4633749962" lon="5.20968611733">
		<tag k="name" v="Hopsvatnet" />
		<tag k="natural" v="water" />
		<tag k="ssr:stedsnr" v="672396" />
		<tag k="water" v="lake" />
	</node>
	<node id="-477400" lat="60.4844066192" lon="5.13758204345">
		<tag k="name" v="Lonevatnet" />
		<tag k="natural" v="water" />
		<tag k="ssr:stedsnr" v="664367" />
	</node>
	<node id="-477397" lat="60.4740166665" lon="5.08257777966">
		<tag k="name" v="Maradalsvatnet" />
		<tag k="natural" v="water" />
		<tag k="ssr:stedsnr" v="652711" />
		<tag k="water" v="lake" />
	</node>
	<node id="-476880" lat="60.5190182041" lon="5.04647876063">
		<tag k="name" v="Hatlelitjørna" />
		<tag k="natural" v="water" />
		<tag k="ssr:stedsnr" v="128634" />
	</node>
	<node id="-476875" lat="60.5243611119" lon="5.01031111176">
		<tag k="name" v="Furevatnet" />
		<tag k="natural" v="water" />
		<tag k="ssr:stedsnr" v="127697" />
	</node>
	<node id="-476864" lat="60.4903051152" lon="5.17039996663">
		<tag k="name" v="Askevatnet" />
		<tag k="natural" v="water" />
		<tag k="ssr:stedsnr" v="126386" />
		<tag k="water" v="lake" />
	</node>
	<node id="-477373" lat="60.5041530041" lon="5.04677532586">
		<tag k="name" v="Rottjørna" />
		<tag k="natural" v="water" />
		<tag k="ssr:stedsnr" v="651961" />
	</node>
	<node id="-476617" lat="60.4920972239" lon="5.11364721715">
		<tag k="name" v="Grønålen" />
		<tag k="ssr:stedsnr" v="409720" />
		<tag k="waterway" v="stream" />
	</node>
	<node id="-476852" lat="60.494616666" lon="5.05348611059">
		<tag k="name" v="Skrubbavatnet" />
		<tag k="natural" v="water" />
		<tag k="ssr:stedsnr" v="106758" />
		<tag k="water" v="lake" />
	</node>
	<node id="-476849" lat="60.490203911" lon="5.1033410245">
		<tag k="name" v="Sevtjørna" />
		<tag k="natural" v="water" />
		<tag k="ssr:stedsnr" v="106736" />
	</node>
	<node id="-477359" lat="60.4597022446" lon="5.1052012748">
		<tag k="name" v="Brekketjørna" />
		<tag k="natural" v="water" />
		<tag k="ssr:stedsnr" v="651315" />
	</node>
	<node id="-477358" lat="60.5092610216" lon="5.09659209029">
		<tag k="name" v="Purketjørna" />
		<tag k="natural" v="water" />
		<tag k="ssr:stedsnr" v="651305" />
	</node>
	<node id="-477357" lat="60.5130043521" lon="5.02239231289">
		<tag k="name" v="Breiviktjørna" />
		<tag k="natural" v="water" />
		<tag k="ssr:stedsnr" v="651298" />
	</node>
	<node id="-477356" lat="60.5089722205" lon="5.03678611108">
		<tag k="name" v="Søra Vatnet" />
		<tag k="natural" v="water" />
		<tag k="ssr:stedsnr" v="651296" />
		<tag k="water" v="lake" />
	</node>
	<node id="-477553" lat="60.4810722264" lon="5.12968611407">
		<tag k="name" v="Lonene" />
		<tag k="natural" v="water" />
		<tag k="ssr:stedsnr" v="773727" />
		<tag k="water" v="lake" />
	</node>
	<node id="-476822" lat="60.4789993048" lon="5.1139478886">
		<tag k="name" v="Søre Fagerbakktjørna" />
		<tag k="natural" v="water" />
		<tag k="ssr:stedsnr" v="105345" />
	</node>
	<node id="-477763" lat="60.4595827356" lon="5.22343287028">
		<tag k="name" v="Jomfrutjørna" />
		<tag k="natural" v="water" />
		<tag k="ssr:stedsnr" v="955895" />
	</node>
	<node id="-476505" lat="60.5251805581" lon="5.01473888767">
		<tag k="name" v="Skogdalstjørna" />
		<tag k="natural" v="water" />
		<tag k="ssr:stedsnr" v="348270" />
	</node>
	<node id="-476817" lat="60.4195567478" lon="5.18178090624">
		<tag k="alt_name" v="Krokåsvatnet" />
		<tag k="name" v="Kråkåsvatnet" />
		<tag k="natural" v="water" />
		<tag k="ssr:stedsnr" v="85986" />
		<tag k="water" v="lake" />
	</node>
	<node id="-476815" lat="60.5086611089" lon="5.0782638808">
		<tag k="name" v="Eidet" />
		<tag k="natural" v="strait" />
		<tag k="ssr:stedsnr" v="85389" />
	</node>
	<node id="-476809" lat="60.5027368296" lon="5.05326617634">
		<tag k="name" v="Langavatnet" />
		<tag k="natural" v="water" />
		<tag k="ssr:stedsnr" v="67673" />
	</node>
	<node id="-477036" lat="60.4774338578" lon="5.11845971016">
		<tag k="name" v="Svartetjørna" />
		<tag k="natural" v="water" />
		<tag k="ssr:stedsnr" v="248350" />
	</node>
	<node id="-477313" lat="60.4678121759" lon="5.17594042618">
		<tag k="name" v="Åstjørna" />
		<tag k="natural" v="water" />
		<tag k="ssr:stedsnr" v="591648" />
		<tag k="water" v="pond" />
	</node>
	<node id="-477298" lat="60.4842747302" lon="5.16658336424">
		<tag k="name" v="Dyrtjørna" />
		<tag k="natural" v="water" />
		<tag k="ssr:stedsnr" v="591498" />
	</node>
	<node id="-476777" lat="60.5106527799" lon="5.06983610733">
		<tag k="name" v="Berlandstjørna" />
		<tag k="natural" v="water" />
		<tag k="ssr:stedsnr" v="45547" />
	</node>
	<node id="-476776" lat="60.5036926203" lon="5.09623992181">
		<tag k="name" v="Kjerrgardstjørna" />
		<tag k="natural" v="water" />
		<tag k="ssr:stedsnr" v="45540" />
	</node>
	<node id="-476774" lat="60.5001939969" lon="5.0561584341">
		<tag k="name" v="Langetjørnane" />
		<tag k="natural" v="water" />
		<tag k="ssr:stedsnr" v="45529" />
		<tag k="water" v="lake" />
	</node>
	<node id="-476771" lat="60.4964878148" lon="5.15736508321">
		<tag k="name" v="Plassatjørna" />
		<tag k="natural" v="water" />
		<tag k="ssr:stedsnr" v="45516" />
	</node>
	<node id="-477281" lat="60.4768983221" lon="5.13148215488">
		<tag k="name" v="Gausfjelltjørna" />
		<tag k="natural" v="water" />
		<tag k="ssr:stedsnr" v="590336" />
	</node>
	<node id="-477279" lat="60.4889775894" lon="5.12141638675">
		<tag k="name" v="Søra Kistetjørna" />
		<tag k="natural" v="water" />
		<tag k="ssr:stedsnr" v="590330" />
	</node>
	<node id="-477278" lat="60.4784638874" lon="5.08731667467">
		<tag k="name" v="Kremmarvatnet" />
		<tag k="natural" v="water" />
		<tag k="ssr:stedsnr" v="590317" />
		<tag k="water" v="lake" />
	</node>
	<node id="-477787" lat="60.5558012714" lon="4.9623866871">
		<tag k="name" v="Håpoldskjeret" />
		<tag k="place" v="islet" />
		<tag k="ssr:stedsnr" v="975593" />
	</node>
	<node id="-476761" lat="60.5258373068" lon="5.02765387612">
		<tag k="name" v="Tjørna" />
		<tag k="natural" v="water" />
		<tag k="ssr:stedsnr" v="45282" />
	</node>
	<node id="-477778" lat="60.4550611067" lon="5.0967722158">
		<tag k="name" v="Søre Steinseidet" />
		<tag k="natural" v="strait" />
		<tag k="ssr:stedsnr" v="956719" />
	</node>
	<node id="-477263" lat="60.5248527761" lon="5.02320278085">
		<tag k="name" v="Storavatnet" />
		<tag k="natural" v="water" />
		<tag k="ssr:stedsnr" v="552715" />
	</node>
	<node id="-477769" lat="60.4607346039" lon="5.10921721369">
		<tag k="name" v="Kalsitjørna" />
		<tag k="natural" v="water" />
		<tag k="ssr:stedsnr" v="955946" />
	</node>
	<node id="-477025" lat="60.4822762344" lon="5.12573049765">
		<tag k="name" v="Stølsøytjørna" />
		<tag k="natural" v="water" />
		<tag k="ssr:stedsnr" v="227956" />
	</node>
	<node id="-477764" lat="60.4673051645" lon="5.22122747165">
		<tag k="name" v="Gjeddetjørna" />
		<tag k="natural" v="water" />
		<tag k="ssr:stedsnr" v="955896" />
	</node>
	<node id="-476741" lat="60.5098777769" lon="5.02464443845">
		<tag k="name" v="Flatskarvatnet" />
		<tag k="natural" v="water" />
		<tag k="ssr:stedsnr" v="6679" />
	</node>
	<node id="-476738" lat="60.4949298564" lon="5.13343823807">
		<tag k="name" v="Lammetovatnet" />
		<tag k="natural" v="water" />
		<tag k="ssr:stedsnr" v="6517" />
	</node>
	<node id="-477248" lat="60.461732156" lon="5.12019191961">
		<tag k="name" v="Svartevatnet" />
		<tag k="natural" v="water" />
		<tag k="ssr:stedsnr" v="551397" />
	</node>
	<node id="-477245" lat="60.4764338311" lon="5.14438759328">
		<tag k="name" v="Heiavatnet" />
		<tag k="natural" v="water" />
		<tag k="ssr:stedsnr" v="551363" />
	</node>
	<node id="-476569" lat="60.4262825611" lon="5.20719779321">
		<tag k="name" v="Kleppevatnet" />
		<tag k="natural" v="water" />
		<tag k="ssr:stedsnr" v="369556" />
	</node>
	<node id="-477022" lat="60.4549666671" lon="5.14209722942">
		<tag k="name" v="Vassholmen" />
		<tag k="place" v="islet" />
		<tag k="ssr:stedsnr" v="227908" />
	</node>
	<node id="-477233" lat="60.4833299094" lon="5.09665481903">
		<tag k="name" v="Svartepyttjørna" />
		<tag k="natural" v="water" />
		<tag k="ssr:stedsnr" v="531729" />
	</node>
	<node id="-477232" lat="60.4741027818" lon="5.20590833296">
		<tag k="name" v="Holmen" />
		<tag k="place" v="islet" />
		<tag k="ssr:stedsnr" v="531718" />
	</node>
	<node id="-477742" lat="60.4508041425" lon="5.08591211542">
		<tag k="name" v="Botatjørna" />
		<tag k="natural" v="water" />
		<tag k="ssr:stedsnr" v="955310" />
	</node>
	<node id="-477229" lat="60.4582033321" lon="5.1169066333">
		<tag k="name" v="Gamlestølsvatnet" />
		<tag k="natural" v="water" />
		<tag k="ssr:stedsnr" v="531711" />
		<tag k="water" v="lake" />
	</node>
	<node id="-477106" lat="60.474383334" lon="5.11018611223">
		<tag k="name" v="Bustevatnet" />
		<tag k="natural" v="water" />
		<tag k="ssr:stedsnr" v="470712" />
		<tag k="water" v="lake" />
	</node>
	<node id="-477226" lat="60.4285694463" lon="5.20858610209">
		<tag k="name" v="Rørebekken" />
		<tag k="ssr:stedsnr" v="531681" />
		<tag k="waterway" v="stream" />
	</node>
	<node id="-477737" lat="60.5318542803" lon="5.02247187451">
		<tag k="name" v="Hundtjørna" />
		<tag k="natural" v="water" />
		<tag k="ssr:stedsnr" v="955273" />
	</node>
	<node id="-477223" lat="60.4822527787" lon="5.19902221515">
		<tag k="name" v="Jakvitzholmen" />
		<tag k="place" v="islet" />
		<tag k="ssr:stedsnr" v="531392" />
	</node>
	<node id="-476593" lat="60.4986333355" lon="5.04581666152">
		<tag k="name" v="Vestra Vatnet" />
		<tag k="natural" v="water" />
		<tag k="ssr:stedsnr" v="409295" />
		<tag k="water" v="lake" />
	</node>
	<node id="-477210" lat="60.4784527818" lon="5.18040834163">
		<tag k="name" v="Frukostholmen" />
		<tag k="place" v="islet" />
		<tag k="ssr:stedsnr" v="530734" />
	</node>
	<node id="-476932" lat="60.501002779" lon="5.05542221803">
		<tag k="name" v="Småkvernavatnet" />
		<tag k="natural" v="water" />
		<tag k="ssr:stedsnr" v="166942" />
		<tag k="water" v="lake" />
	</node>
	<node id="-477205" lat="60.5047194469" lon="5.04824444944">
		<tag k="name" v="Skiparvatnet" />
		<tag k="natural" v="water" />
		<tag k="ssr:stedsnr" v="530582" />
		<tag k="water" v="lake" />
	</node>
	<node id="-476689" lat="60.4561488761" lon="5.12752700875">
		<tag k="name" v="Holatjørna" />
		<tag k="natural" v="water" />
		<tag k="ssr:stedsnr" v="895653" />
	</node>
	<node id="-477708" lat="60.4583364157" lon="5.17714508392">
		<tag k="name" v="Krabbetjørna" />
		<tag k="natural" v="water" />
		<tag k="ssr:stedsnr" v="915518" />
	</node>
	<node id="-477707" lat="60.4449861137" lon="5.18843611733">
		<tag k="name" v="Pollelva" />
		<tag k="ssr:stedsnr" v="915482" />
		<tag k="waterway" v="stream" />
	</node>
	<node id="-477194" lat="60.4509722217" lon="5.08849722759">
		<tag k="name" v="Storavatnet" />
		<tag k="natural" v="water" />
		<tag k="ssr:stedsnr" v="530348" />
		<tag k="water" v="lake" />
	</node>
	<node id="-476739" lat="60.5066692623" lon="5.11831771778">
		<tag k="name" v="Siglingavatnet" />
		<tag k="natural" v="water" />
		<tag k="ssr:stedsnr" v="6545" />
	</node>
</osm>
