<?xml version="1.0" encoding="UTF-8"?>
<osm generator="osmapis" version="0.6">
	<node id="-97023" lat="64.7329305558" lon="12.5978777858">
		<tag k="name" v="Finntjønndal statsallmenning" />
		<tag k="place" v="locality" />
		<tag k="ssr:stedsnr" v="230029" />
	</node>
	<node id="-97629" lat="64.8043083303" lon="13.0975027741">
		<tag k="name" v="Brekken statsallmenning" />
		<tag k="place" v="locality" />
		<tag k="ssr:stedsnr" v="715821" />
	</node>
	<node id="-98227" lat="65.084449999" lon="13.3427750007">
		<tag k="name" v="Smalåsen statsallmenning" />
		<tag k="place" v="locality" />
		<tag k="ssr:stedsnr" v="409363" />
	</node>
	<node id="-98714" lat="64.7660027799" lon="13.0736833312">
		<tag k="name" v="Tromsfjell statsallmenning" />
		<tag k="place" v="locality" />
		<tag k="ssr:stedsnr" v="958835" />
	</node>
	<node id="-98305" lat="65.0713527796" lon="13.2890499905">
		<tag k="name" v="Mellingen statsallmenning" />
		<tag k="place" v="locality" />
		<tag k="ssr:stedsnr" v="530392" />
	</node>
</osm>
