<?xml version="1.0" encoding="UTF-8"?>
<osm version="0.6" generator="osmapis">
	<node lat="64.69227222205826" lon="12.791916668055524" id="-34849">
		<tag k="name" v="Finnbruøra" />
		<tag k="natural" v="shoal" />
		<tag k="ssr:stedsnr" v="229619" />
	</node>
	<node lat="64.80188611362382" lon="12.647816671020722" id="-34850">
		<tag k="name" v="Lindsetnesdomma" />
		<tag k="natural" v="slope" />
		<tag k="place" v="locality" />
		<tag k="ssr:stedsnr" v="230013" />
	</node>
	<node lat="64.76833055524159" lon="12.8035916668997" id="-34851">
		<tag k="name" v="Langhalsen" />
		<tag k="natural" v="wetland" />
		<tag k="ssr:stedsnr" v="230045" />
	</node>
	<node lat="64.78763611470066" lon="12.773763887415862" id="-34852">
		<tag k="alt_name" v="Krumyrlia" />
		<tag k="name" v="Krumyrliin" />
		<tag k="natural" v="slope" />
		<tag k="place" v="locality" />
		<tag k="ssr:stedsnr" v="230052" />
	</node>
	<node lat="64.74763888465303" lon="12.722408336346103" id="-34853">
		<tag k="name" v="Klompdalen" />
		<tag k="natural" v="valley" />
		<tag k="place" v="locality" />
		<tag k="ssr:stedsnr" v="230243" />
	</node>
	<node lat="64.73004444390267" lon="12.69815832317797" id="-34854">
		<tag k="name" v="Setertjønnin" />
		<tag k="natural" v="water" />
		<tag k="ssr:stedsnr" v="230245" />
	</node>
	<node lat="65.07905555993278" lon="13.376299997647301" id="-34855">
		<tag k="name" v="Storlia" />
		<tag k="natural" v="slope" />
		<tag k="place" v="locality" />
		<tag k="ssr:stedsnr" v="230322" />
	</node>
	<node lat="65.04580833225188" lon="13.1100694381438" id="-34856">
		<tag k="name" v="Vesterelva" />
		<tag k="ssr:stedsnr" v="230344" />
		<tag k="waterway" v="river" />
	</node>
	<node lat="65.00882499776054" lon="12.967430556087626" id="-34857">
		<tag k="name" v="Remman" />
		<tag k="natural" v="slope" />
		<tag k="place" v="locality" />
		<tag k="ssr:stedsnr" v="230375" />
	</node>
	<node lat="64.90593055781086" lon="13.232366662641446" id="-34858">
		<tag k="name" v="Kjerrådalen" />
		<tag k="natural" v="valley" />
		<tag k="place" v="locality" />
		<tag k="ssr:stedsnr" v="230397" />
	</node>
	<node lat="64.92005555560048" lon="13.229052769976873" id="-34859">
		<tag k="name" v="Sandådalen" />
		<tag k="natural" v="valley" />
		<tag k="place" v="locality" />
		<tag k="ssr:stedsnr" v="230401" />
	</node>
	<node lat="64.75034166654852" lon="12.937380564038081" id="-34860">
		<tag k="name" v="Klipa" />
		<tag k="natural" v="wetland" />
		<tag k="ssr:stedsnr" v="230826" />
	</node>
	<node lat="64.9584805548727" lon="13.043383338784214" id="-34861">
		<tag k="name" v="Stornesura" />
		<tag k="natural" v="scree" />
		<tag k="ssr:stedsnr" v="230897" />
	</node>
	<node lat="64.83266111281033" lon="12.888541672686578" id="-34862">
		<tag k="name" v="Bjønnhaugen" />
		<tag k="natural" v="hill" />
		<tag k="place" v="locality" />
		<tag k="ssr:stedsnr" v="230915" />
	</node>
	<node lat="64.7899111138591" lon="12.92414999594434" id="-34863">
		<tag k="name" v="Revlingsbekken" />
		<tag k="ssr:stedsnr" v="14007" />
		<tag k="waterway" v="stream" />
	</node>
	<node lat="64.77575000220749" lon="12.726694450931559" id="-34864">
		<tag k="name" v="Skiftesbekken" />
		<tag k="ssr:stedsnr" v="14009" />
		<tag k="waterway" v="stream" />
	</node>
	<node lat="64.83621944168937" lon="12.942383327945096" id="-34865">
		<tag k="alt_name" v="Raudmyrklompen" />
		<tag k="fixme" v="consider natural=peak for the most distinct mountains in the district" />
		<tag k="name" v="Raudmyrpynten" />
		<tag k="natural" v="hill" />
		<tag k="place" v="locality" />
		<tag k="ssr:stedsnr" v="14105" />
	</node>
	<node lat="64.83875555243496" lon="12.90937777820781" id="-34866">
		<tag k="fixme" v="consider natural=peak for the most distinct mountains in the district" />
		<tag k="name" v="Domklumpen" />
		<tag k="natural" v="hill" />
		<tag k="place" v="locality" />
		<tag k="ssr:stedsnr" v="14106" />
	</node>
	<node lat="64.69828055606486" lon="12.89559722638206" id="-34867">
		<tag k="alt_name" v="Grøndalsfjellet, vestre" />
		<tag k="fixme" v="consider natural=peak for the most distinct mountains in the district" />
		<tag k="name" v="Vestre Grøndalsfjellet" />
		<tag k="natural" v="hill" />
		<tag k="place" v="locality" />
		<tag k="ssr:stedsnr" v="14271" />
	</node>
	<node lat="65.10555277796583" lon="13.120961114672566" id="-34868">
		<tag k="name" v="Stordalen - Njöölve" />
		<tag k="name:no" v="Stordalen" />
		<tag k="name:sma" v="Njöölve" />
		<tag k="natural" v="valley" />
		<tag k="place" v="locality" />
		<tag k="ssr:stedsnr" v="14501" />
	</node>
	<node lat="64.8801444453988" lon="12.840580559682618" id="-34869">
		<tag k="name" v="Steinådalen" />
		<tag k="natural" v="valley" />
		<tag k="place" v="locality" />
		<tag k="ssr:stedsnr" v="14502" />
	</node>
	<node lat="65.07614999927029" lon="13.34832499484208" id="-34870">
		<tag k="alt_name:no" v="Smalåsenden;Åsen" />
		<tag k="fixme" v="consider natural=peak for the most distinct mountains in the district" />
		<tag k="name" v="Smalåsen - Smaalanjuenie" />
		<tag k="name:no" v="Smalåsen" />
		<tag k="name:sma" v="Smaalanjuenie" />
		<tag k="natural" v="hill" />
		<tag k="place" v="locality" />
		<tag k="ssr:stedsnr" v="14572" />
	</node>
	<node lat="65.07824444763324" lon="13.312658328899579" id="-34871">
		<tag k="name" v="Vestre Smalåsen" />
		<tag k="place" v="farm" />
		<tag k="ssr:stedsnr" v="14573" />
	</node>
	<node lat="65.07867499671148" lon="13.317713887739114" id="-34872">
		<tag k="fixme" v="consider place=hamlet" />
		<tag k="name" v="Smalåsen - Smeelehaesie" />
		<tag k="name:no" v="Smalåsen" />
		<tag k="name:sma" v="Smeelehaesie" />
		<tag k="place" v="village" />
		<tag k="ssr:stedsnr" v="14575" />
	</node>
	<node lat="64.71535277468755" lon="12.965175006245579" id="-34873">
		<tag k="name" v="Iverkammen" />
		<tag k="natural" v="hill" />
		<tag k="place" v="locality" />
		<tag k="ssr:stedsnr" v="14614" />
	</node>
	<node lat="64.73785832913735" lon="12.980149998199193" id="-34874">
		<tag k="alt_name" v="Tunnsjøplass" />
		<tag k="name" v="Tunnsjødalsplassen" />
		<tag k="place" v="locality" />
		<tag k="ssr:stedsnr" v="14617" />
	</node>
	<node lat="64.74615277931413" lon="12.85385833918415" id="-34875">
		<tag k="name" v="Tronestjønna" />
		<tag k="natural" v="water" />
		<tag k="ssr:stedsnr" v="14622" />
	</node>
	<node lat="64.73564434768615" lon="12.74246757624564" id="-34876">
		<tag k="historic" v="shieling" />
		<tag k="name" v="Litlåsetran" />
		<tag k="place" v="locality" />
		<tag k="ssr:stedsnr" v="14627" />
	</node>
	<node lat="64.75186666853534" lon="13.039788893387179" id="-34877">
		<tag k="alt_name:no" v="Tromsfjellet, litle" />
		<tag k="fixme" v="consider natural=peak for the most distinct mountains in the district" />
		<tag k="name" v="Litle Tromsfjellet" />
		<tag k="name:no" v="Litle Tromsfjellet" />
		<tag k="natural" v="hill" />
		<tag k="place" v="locality" />
		<tag k="ssr:stedsnr" v="15008" />
	</node>
	<node lat="64.76750833426495" lon="12.72890554836898" id="-34878">
		<tag k="fixme" v="consider natural=peak for the most distinct mountains in the district" />
		<tag k="name" v="Klumpliklumpen - Bavne" />
		<tag k="name:no" v="Klumpliklumpen" />
		<tag k="name:sma" v="Bavne" />
		<tag k="natural" v="hill" />
		<tag k="place" v="locality" />
		<tag k="ssr:stedsnr" v="15015" />
	</node>
	<node lat="64.76637499900563" lon="12.83628056159618" id="-34879">
		<tag k="fixme" v="consider natural=peak for the most distinct mountains in the district" />
		<tag k="name" v="Skarvåsen - Brienne" />
		<tag k="name:no" v="Skarvåsen" />
		<tag k="name:sma" v="Brienne" />
		<tag k="natural" v="hill" />
		<tag k="place" v="locality" />
		<tag k="ssr:stedsnr" v="15018" />
	</node>
	<node lat="64.88257500371088" lon="12.819233330465066" id="-34880">
		<tag k="name" v="Steinåa - Goehpevaajjan johke" />
		<tag k="name:no" v="Steinåa" />
		<tag k="name:sma" v="Goehpevaajjan johke" />
		<tag k="ssr:stedsnr" v="15101" />
		<tag k="waterway" v="river" />
	</node>
	<node lat="64.88426944763737" lon="13.067580553208105" id="-34881">
		<tag k="name" v="Fredvang" />
		<tag k="place" v="isolated_dwelling" />
		<tag k="ssr:stedsnr" v="15102" />
	</node>
	<node lat="64.79384444644725" lon="12.662588899051073" id="-34882">
		<tag k="name" v="Langtjønna" />
		<tag k="natural" v="water" />
		<tag k="ssr:stedsnr" v="15258" />
	</node>
	<node lat="64.67523889030605" lon="12.799294444410387" id="-34883">
		<tag k="name" v="Grøndalselva" />
		<tag k="ssr:stedsnr" v="15408" />
		<tag k="waterway" v="river" />
	</node>
	<node lat="64.67015833469526" lon="12.946413888148573" id="-34884">
		<tag k="name" v="Kvernbekken" />
		<tag k="ssr:stedsnr" v="15412" />
		<tag k="waterway" v="stream" />
	</node>
	<node lat="64.64386944162867" lon="13.113527767087879" id="-34885">
		<tag k="fixme" v="consider place=suburb, village or hamlet" />
		<tag k="name" v="Skorovatn" />
		<tag k="place" v="quarter" />
		<tag k="ssr:stedsnr" v="15357" />
	</node>
	<node lat="64.73871110735475" lon="12.645277777290273" id="-34886">
		<tag k="fixme" v="consider natural=peak for the most distinct mountains in the district" />
		<tag k="name" v="Finntjønnfjellet" />
		<tag k="natural" v="hill" />
		<tag k="place" v="locality" />
		<tag k="ssr:stedsnr" v="15908" />
	</node>
	<node lat="64.73064999619463" lon="12.627836104576803" id="-34887">
		<tag k="name" v="Finntjønna" />
		<tag k="natural" v="water" />
		<tag k="ssr:stedsnr" v="15920" />
	</node>
	<node lat="64.7255055582795" lon="12.681433337763668" id="-34888">
		<tag k="name" v="Gåsvatnet" />
		<tag k="natural" v="water" />
		<tag k="ssr:stedsnr" v="15921" />
	</node>
	<node lat="64.85682778192793" lon="12.889994440321313" id="-34895">
		<tag k="name" v="Nessadalen" />
		<tag k="natural" v="valley" />
		<tag k="place" v="locality" />
		<tag k="ssr:stedsnr" v="237043" />
	</node>
	<node lat="65.09181666944143" lon="13.328430565246727" id="-34901">
		<tag k="name" v="Stormyra" />
		<tag k="natural" v="wetland" />
		<tag k="ssr:stedsnr" v="45326" />
	</node>
	<node lat="65.09423055893411" lon="13.348413878786031" id="-34902">
		<tag k="name" v="Skogstubukta" />
		<tag k="natural" v="bay" />
		<tag k="ssr:stedsnr" v="45328" />
	</node>
	<node lat="64.88190277656103" lon="13.151463889856513" id="-34903">
		<tag k="name" v="Styggdalen" />
		<tag k="natural" v="valley" />
		<tag k="place" v="locality" />
		<tag k="ssr:stedsnr" v="45424" />
	</node>
	<node lat="65.0420916703842" lon="13.311499998951671" id="-34904">
		<tag k="name" v="Revjarnbekken" />
		<tag k="ssr:stedsnr" v="45371" />
		<tag k="waterway" v="stream" />
	</node>
	<node lat="64.84959721957529" lon="13.053574998742928" id="-34905">
		<tag k="name" v="Skardet" />
		<tag k="natural" v="valley" />
		<tag k="place" v="locality" />
		<tag k="ssr:stedsnr" v="46509" />
	</node>
	<node lat="64.85136666516526" lon="13.083433327537659" id="-34906">
		<tag k="name" v="Tjønnbekken" />
		<tag k="ssr:stedsnr" v="46475" />
		<tag k="waterway" v="stream" />
	</node>
	<node lat="64.85074166467778" lon="13.096527770091896" id="-34907">
		<tag k="name" v="Koksbekken" />
		<tag k="ssr:stedsnr" v="46476" />
		<tag k="waterway" v="stream" />
	</node>
	<node lat="64.89520277972677" lon="13.086438898058676" id="-34908">
		<tag k="name" v="Sagbekken" />
		<tag k="ssr:stedsnr" v="46486" />
		<tag k="waterway" v="stream" />
	</node>
	<node lat="64.83064444801064" lon="13.06314999540597" id="-34909">
		<tag k="name" v="Seriannaskorro" />
		<tag k="ssr:stedsnr" v="46496" />
		<tag k="waterway" v="stream" />
	</node>
	<node lat="64.83245555517176" lon="13.052563883167256" id="-34910">
		<tag k="name" v="Storfloen" />
		<tag k="natural" v="wetland" />
		<tag k="ssr:stedsnr" v="46499" />
	</node>
	<node lat="64.70856111249392" lon="12.780188882065751" id="-34911">
		<tag k="name" v="Speten" />
		<tag k="natural" v="cape" />
		<tag k="ssr:stedsnr" v="46672" />
	</node>
	<node lat="64.74933889324643" lon="12.828855546416317" id="-34912">
		<tag k="name" v="Skarvdalbekken" />
		<tag k="ssr:stedsnr" v="46692" />
		<tag k="waterway" v="stream" />
	</node>
	<node lat="64.6530611081579" lon="13.051213887163925" id="-34913">
		<tag k="name" v="Tiskjerringa" />
		<tag k="place" v="locality" />
		<tag k="ssr:stedsnr" v="47182" />
	</node>
	<node lat="64.78538333040137" lon="12.696222229706041" id="-34914">
		<tag k="name" v="Angelbekkhalla" />
		<tag k="natural" v="slope" />
		<tag k="place" v="locality" />
		<tag k="ssr:stedsnr" v="48012" />
	</node>
	<node lat="64.78938889232094" lon="12.731919441703274" id="-34915">
		<tag k="name" v="Røddiurdsletta" />
		<tag k="natural" v="wetland" />
		<tag k="ssr:stedsnr" v="48013" />
	</node>
	<node lat="64.67624999936947" lon="12.950849994067097" id="-34916">
		<tag k="name" v="Kvennelva" />
		<tag k="ssr:stedsnr" v="48407" />
		<tag k="waterway" v="stream" />
	</node>
	<node lat="64.90201944855568" lon="13.228669438414247" id="-34917">
		<tag k="name" v="Oterbekken" />
		<tag k="ssr:stedsnr" v="48383" />
		<tag k="waterway" v="stream" />
	</node>
	<node lat="64.65968333509146" lon="12.885183325467164" id="-34918">
		<tag k="name" v="Finnsela" />
		<tag k="natural" v="water" />
		<tag k="ssr:stedsnr" v="48802" />
		<tag k="water" v="lake" />
	</node>
	<node lat="64.8852611117677" lon="12.837569442782044" id="-34919">
		<tag k="name" v="Steinååsen" />
		<tag k="natural" v="slope" />
		<tag k="place" v="locality" />
		<tag k="ssr:stedsnr" v="48916" />
	</node>
	<node lat="64.87592777839859" lon="12.868508336513923" id="-34920">
		<tag k="name" v="Langneset" />
		<tag k="natural" v="cape" />
		<tag k="ssr:stedsnr" v="48921" />
	</node>
	<node lat="64.78821666799202" lon="12.857838884405755" id="-34921">
		<tag k="name" v="Kjerka" />
		<tag k="natural" v="hill" />
		<tag k="place" v="locality" />
		<tag k="ssr:stedsnr" v="48922" />
	</node>
	<node lat="64.78026388575435" lon="12.931913895216606" id="-34928">
		<tag k="alt_name" v="Friarskaret" />
		<tag k="name" v="Friarskardet" />
		<tag k="natural" v="valley" />
		<tag k="place" v="locality" />
		<tag k="ssr:stedsnr" v="75009" />
	</node>
	<node lat="64.7576333294984" lon="12.753805555411084" id="-34929">
		<tag k="fixme" v="multiple name tags, choose one and add the other to alt_name" />
		<tag k="name" v="Rååanvuemie;Rådalen" />
		<tag k="name:sma" v="Rååanvuemie;Rådalen" />
		<tag k="natural" v="valley" />
		<tag k="place" v="locality" />
		<tag k="ssr:stedsnr" v="75011" />
	</node>
	<node lat="64.96278055351043" lon="13.021177786080447" id="-34930">
		<tag k="alt_name" v="Bertilsetran" />
		<tag k="historic" v="shieling" />
		<tag k="name" v="Bertilsætran" />
		<tag k="place" v="isolated_dwelling" />
		<tag k="ssr:stedsnr" v="75152" />
	</node>
	<node lat="64.90617499714816" lon="13.057638886285092" id="-34931">
		<tag k="name" v="Litldal" />
		<tag k="place" v="farm" />
		<tag k="ssr:stedsnr" v="75169" />
	</node>
	<node lat="64.86581111137697" lon="13.234200003711045" id="-34932">
		<tag k="name" v="Kleggtjønna - Golmes-jaevrie" />
		<tag k="name:no" v="Kleggtjønna" />
		<tag k="name:sma" v="Golmes-jaevrie" />
		<tag k="natural" v="water" />
		<tag k="ssr:stedsnr" v="75402" />
	</node>
	<node lat="65.07599999650034" lon="13.111783323609128" id="-34933">
		<tag k="name" v="Stordalselva - Njöölvenjohke" />
		<tag k="name:no" v="Stordalselva" />
		<tag k="name:sma" v="Njöölvenjohke" />
		<tag k="ssr:stedsnr" v="75805" />
		<tag k="waterway" v="river" />
	</node>
	<node lat="65.05097222366896" lon="13.283594448834146" id="-34934">
		<tag k="name" v="Hesthuhaugen" />
		<tag k="natural" v="hill" />
		<tag k="place" v="locality" />
		<tag k="ssr:stedsnr" v="75904" />
	</node>
	<node lat="65.02243055633078" lon="13.281624997645249" id="-34935">
		<tag k="name" v="Namdalen" />
		<tag k="natural" v="valley" />
		<tag k="place" v="locality" />
		<tag k="ssr:stedsnr" v="75909" />
	</node>
	<node lat="64.87056110712471" lon="13.08297499625544" id="-34936">
		<tag k="fixme" v="consider natural=peak for the most distinct mountains in the district" />
		<tag k="name" v="Ølløvtuva" />
		<tag k="natural" v="hill" />
		<tag k="place" v="locality" />
		<tag k="ssr:stedsnr" v="76110" />
	</node>
	<node lat="64.87535000121912" lon="13.064363882966411" id="-34937">
		<tag k="name" v="Fossheim" />
		<tag k="place" v="farm" />
		<tag k="ssr:stedsnr" v="76114" />
	</node>
	<node lat="64.79039444351196" lon="12.711336108922211" id="-34938">
		<tag k="name" v="Tverrelva" />
		<tag k="ssr:stedsnr" v="76257" />
		<tag k="waterway" v="stream" />
	</node>
	<node lat="64.89618610717157" lon="13.152258323197845" id="-34939">
		<tag k="name" v="Finnvollan" />
		<tag k="place" v="hamlet" />
		<tag k="ssr:stedsnr" v="106307" />
	</node>
	<node lat="65.03387500296847" lon="13.250561104421159" id="-34940">
		<tag k="name" v="Magerfisktjønna" />
		<tag k="natural" v="water" />
		<tag k="ssr:stedsnr" v="106373" />
	</node>
	<node lat="64.90051110750657" lon="13.210761106810502" id="-34941">
		<tag k="name" v="Vakkermyra" />
		<tag k="natural" v="wetland" />
		<tag k="ssr:stedsnr" v="106386" />
	</node>
	<node lat="64.83730000088141" lon="13.000113892154255" id="-34942">
		<tag k="name" v="Langmyran" />
		<tag k="natural" v="wetland" />
		<tag k="ssr:stedsnr" v="107511" />
	</node>
	<node lat="64.81226944465303" lon="12.93361110229778" id="-34943">
		<tag k="name" v="Kjelmyrhøgda" />
		<tag k="natural" v="hill" />
		<tag k="place" v="locality" />
		<tag k="ssr:stedsnr" v="107513" />
	</node>
	<node lat="64.79074166359345" lon="12.92818332620042" id="-34944">
		<tag k="name" v="Revlingtjønna" />
		<tag k="natural" v="water" />
		<tag k="ssr:stedsnr" v="107516" />
	</node>
	<node lat="64.83291111322431" lon="13.052666665307456" id="-34945">
		<tag k="name" v="Storflotjønna" />
		<tag k="natural" v="water" />
		<tag k="ssr:stedsnr" v="107471" />
	</node>
	<node lat="65.07550278047935" lon="13.238805553090172" id="-34946">
		<tag k="fixme" v="consider natural=peak for the most distinct mountains in the district" />
		<tag k="name" v="Steinvassklumpen" />
		<tag k="natural" v="hill" />
		<tag k="place" v="locality" />
		<tag k="ssr:stedsnr" v="108309" />
	</node>
	<node lat="65.08816388887526" lon="13.379861115723754" id="-34947">
		<tag k="name" v="Småfisktjønna" />
		<tag k="natural" v="water" />
		<tag k="ssr:stedsnr" v="109324" />
	</node>
	<node lat="64.81856388538554" lon="13.063561113072014" id="-34948">
		<tag k="name" v="Storbakkan" />
		<tag k="natural" v="hill" />
		<tag k="place" v="locality" />
		<tag k="ssr:stedsnr" v="109811" />
	</node>
	<node lat="64.73188333269798" lon="12.919544436614832" id="-34949">
		<tag k="name" v="Finntjønna" />
		<tag k="natural" v="water" />
		<tag k="ssr:stedsnr" v="109822" />
	</node>
	<node lat="64.72536389030225" lon="12.890766672178598" id="-34950">
		<tag k="name" v="Seterbekken" />
		<tag k="ssr:stedsnr" v="109825" />
		<tag k="waterway" v="stream" />
	</node>
	<node lat="65.0527027777186" lon="13.199541657063728" id="-34963">
		<tag k="fixme" v="consider tourism=alpine_hut or tourism=chalet" />
		<tag k="name" v="Storgåsvassbua" />
		<tag k="ssr:stedsnr" v="121614" />
		<tag k="tourism" v="wilderness_hut" />
	</node>
	<node lat="64.77497499665428" lon="13.053399992194585" id="-34965">
		<tag k="fixme" v="multiple name tags, choose one and add the other to alt_name" />
		<tag k="name" v="Stortromsdalen;Tromsdalen - Trompenvuemie" />
		<tag k="name:no" v="Stortromsdalen;Tromsdalen" />
		<tag k="name:sma" v="Trompenvuemie" />
		<tag k="natural" v="valley" />
		<tag k="place" v="locality" />
		<tag k="ssr:stedsnr" v="135022" />
	</node>
	<node lat="64.78141388621292" lon="12.75652499877966" id="-34966">
		<tag k="fixme" v="consider natural=peak for the most distinct mountains in the district" />
		<tag k="name" v="Strompdalsåsen" />
		<tag k="natural" v="hill" />
		<tag k="place" v="locality" />
		<tag k="ssr:stedsnr" v="135025" />
	</node>
	<node lat="64.84670833003075" lon="13.185400006869862" id="-34967">
		<tag k="name" v="Grytåtjønna" />
		<tag k="natural" v="water" />
		<tag k="ssr:stedsnr" v="135105" />
	</node>
	<node lat="64.83595833745242" lon="13.083083324726278" id="-34968">
		<tag k="alt_name:no" v="Brekkvatnet, store;Store Brekkvatnet" />
		<tag k="alt_name:sma" v="Braahkenjaevrie, st;Braahkenjaevrie Stoerre" />
		<tag k="name" v="Brekkvatnet - Stoerre Braahkenjaevrie" />
		<tag k="name:no" v="Brekkvatnet" />
		<tag k="name:sma" v="Stoerre Braahkenjaevrie" />
		<tag k="natural" v="water" />
		<tag k="ssr:stedsnr" v="135108" />
		<tag k="water" v="lake" />
	</node>
	<node lat="64.84081666970029" lon="12.87379165714141" id="-34969">
		<tag k="alt_name" v="Setran" />
		<tag k="name" v="Sætran" />
		<tag k="place" v="isolated_dwelling" />
		<tag k="ssr:stedsnr" v="135109" />
	</node>
	<node lat="65.08563055606345" lon="13.461199994448267" id="-34970">
		<tag k="name" v="Bleikarlia" />
		<tag k="natural" v="slope" />
		<tag k="place" v="locality" />
		<tag k="ssr:stedsnr" v="135614" />
	</node>
	<node lat="65.07138333177282" lon="13.347052780768776" id="-34971">
		<tag k="name" v="Åsbekken" />
		<tag k="ssr:stedsnr" v="135615" />
		<tag k="waterway" v="stream" />
	</node>
	<node lat="65.08016666627029" lon="13.26216943960067" id="-34972">
		<tag k="name" v="Fløan" />
		<tag k="place" v="farm" />
		<tag k="ssr:stedsnr" v="135616" />
	</node>
	<node lat="65.09617222133323" lon="13.414544447207557" id="-34973">
		<tag k="name" v="Storelvlitjønna" />
		<tag k="natural" v="water" />
		<tag k="ssr:stedsnr" v="135619" />
	</node>
	<node lat="64.72162500418477" lon="12.945849998095731" id="-34974">
		<tag k="name" v="Gromstadsela" />
		<tag k="place" v="locality" />
		<tag k="ssr:stedsnr" v="135658" />
	</node>
	<node lat="64.74049999982334" lon="12.919852781887839" id="-34975">
		<tag k="name" v="Sønningsvatnet" />
		<tag k="natural" v="water" />
		<tag k="ssr:stedsnr" v="135664" />
	</node>
	<node lat="64.89473611402425" lon="13.172480552035971" id="-34976">
		<tag k="alt_name" v="Østli" />
		<tag k="name" v="Austli" />
		<tag k="place" v="farm" />
		<tag k="ssr:stedsnr" v="136100" />
	</node>
	<node lat="64.72948611416805" lon="12.735002771836918" id="-34977">
		<tag k="alt_name" v="Lindseta" />
		<tag k="name" v="Lindsetåa" />
		<tag k="ssr:stedsnr" v="136263" />
		<tag k="waterway" v="river" />
	</node>
	<node lat="64.7657805524895" lon="12.69929999972776" id="-34978">
		<tag k="name" v="Fossbakk" />
		<tag k="place" v="farm" />
		<tag k="ssr:stedsnr" v="136265" />
	</node>
	<node lat="64.76144999884879" lon="12.646786104462924" id="-34979">
		<tag k="fixme" v="consider natural=peak for the most distinct mountains in the district" />
		<tag k="name" v="Flypynten" />
		<tag k="natural" v="hill" />
		<tag k="place" v="locality" />
		<tag k="ssr:stedsnr" v="136267" />
	</node>
	<node lat="64.76004167132761" lon="12.658255545666243" id="-34980">
		<tag k="fixme" v="consider natural=peak for the most distinct mountains in the district" />
		<tag k="name" v="Flyan" />
		<tag k="natural" v="hill" />
		<tag k="place" v="locality" />
		<tag k="ssr:stedsnr" v="136268" />
	</node>
	<node lat="64.69178610796376" lon="13.067863887148789" id="-34981">
		<tag k="name" v="Småvassfossen" />
		<tag k="natural" v="waterfall" />
		<tag k="ssr:stedsnr" v="136405" />
	</node>
	<node lat="64.67057222498411" lon="13.023747221490158" id="-34982">
		<tag k="name" v="Åttatjønna" />
		<tag k="natural" v="water" />
		<tag k="ssr:stedsnr" v="136415" />
	</node>
	<node lat="65.09740277521819" lon="13.254827776962703" id="-34983">
		<tag k="name" v="Mellingsvatnet - Veelnjesjaevrie" />
		<tag k="name:no" v="Mellingsvatnet" />
		<tag k="name:sma" v="Veelnjesjaevrie" />
		<tag k="natural" v="water" />
		<tag k="ssr:stedsnr" v="136706" />
		<tag k="water" v="lake" />
	</node>
	<node lat="64.78261110837359" lon="12.839536101553918" id="-34984">
		<tag k="name" v="Flåttådalsskardet" />
		<tag k="natural" v="valley" />
		<tag k="place" v="locality" />
		<tag k="ssr:stedsnr" v="257026" />
	</node>
	<node lat="64.79363055834575" lon="12.779575004960535" id="-34985">
		<tag k="fixme" v="consider natural=peak for the most distinct mountains in the district" />
		<tag k="name" v="Råfjellet - Rååantjahke" />
		<tag k="name:no" v="Råfjellet" />
		<tag k="name:sma" v="Rååantjahke" />
		<tag k="natural" v="hill" />
		<tag k="place" v="locality" />
		<tag k="ssr:stedsnr" v="257029" />
	</node>
	<node lat="64.95059166407663" lon="13.247030545837998" id="-34986">
		<tag k="name" v="Storflya" />
		<tag k="natural" v="wetland" />
		<tag k="ssr:stedsnr" v="257038" />
	</node>
	<node lat="64.97393611531797" lon="13.220566658461312" id="-34987">
		<tag k="name" v="Frøyningsbukta" />
		<tag k="natural" v="bay" />
		<tag k="ssr:stedsnr" v="257045" />
	</node>
	<node lat="64.94455000376381" lon="12.866388884801912" id="-34988">
		<tag k="name" v="Krutjønna - Såålejaevrie" />
		<tag k="name:no" v="Krutjønna" />
		<tag k="name:sma" v="Såålejaevrie" />
		<tag k="natural" v="water" />
		<tag k="ssr:stedsnr" v="257145" />
	</node>
	<node lat="64.99677777654769" lon="13.139638894599079" id="-34989">
		<tag k="name" v="Finnhuselva" />
		<tag k="ssr:stedsnr" v="257152" />
		<tag k="waterway" v="stream" />
	</node>
	<node lat="64.82408055516296" lon="12.661383338531198" id="-34990">
		<tag k="name" v="Tverrelvdalen" />
		<tag k="natural" v="valley" />
		<tag k="place" v="locality" />
		<tag k="ssr:stedsnr" v="257225" />
	</node>
	<node lat="64.87114166832875" lon="12.885749999758403" id="-34991">
		<tag k="alt_name" v="Moen" />
		<tag k="name" v="Moan" />
		<tag k="place" v="isolated_dwelling" />
		<tag k="ssr:stedsnr" v="257085" />
	</node>
	<node lat="64.82015277934417" lon="13.135902771195894" id="-34992">
		<tag k="fixme" v="consider natural=peak for the most distinct mountains in the district" />
		<tag k="name" v="Todorspeten - Tjaktjanjuenie" />
		<tag k="name:no" v="Todorspeten" />
		<tag k="name:sma" v="Tjaktjanjuenie" />
		<tag k="natural" v="hill" />
		<tag k="place" v="locality" />
		<tag k="ssr:stedsnr" v="257096" />
	</node>
	<node lat="64.9135361133272" lon="13.193986107965806" id="-34993">
		<tag k="alt_name" v="Sandåa, store;Stor-Sandåa" />
		<tag k="name" v="Sandåa" />
		<tag k="ssr:stedsnr" v="257174" />
		<tag k="waterway" v="river" />
	</node>
	<node lat="64.91644722153751" lon="13.15786111428508" id="-34994">
		<tag k="name" v="Skogmo" />
		<tag k="place" v="farm" />
		<tag k="ssr:stedsnr" v="257177" />
	</node>
	<node lat="64.9387138919135" lon="13.041927781326962" id="-34995">
		<tag k="name" v="Bekkdalen" />
		<tag k="natural" v="valley" />
		<tag k="place" v="locality" />
		<tag k="ssr:stedsnr" v="257192" />
	</node>
	<node lat="64.92882777510793" lon="13.159497218610023" id="-34996">
		<tag k="name" v="Namsskogan" />
		<tag k="place" v="village" />
		<tag k="ssr:stedsnr" v="257196" />
	</node>
	<node lat="64.64387499823683" lon="13.107511119286588" id="-34997">
		<tag k="name" v="Litlskorovatnet" />
		<tag k="natural" v="water" />
		<tag k="ssr:stedsnr" v="257345" />
	</node>
	<node lat="64.64647222386503" lon="13.06331387949485" id="-34998">
		<tag k="name" v="Storskorovatnet - Gierenetjåalhtenjaevrie" />
		<tag k="name:no" v="Storskorovatnet" />
		<tag k="name:sma" v="Gierenetjåalhtenjaevrie" />
		<tag k="natural" v="water" />
		<tag k="ssr:stedsnr" v="257346" />
		<tag k="water" v="lake" />
	</node>
	<node lat="64.69532777974582" lon="13.016166673266396" id="-34999">
		<tag k="name" v="Halldordomma" />
		<tag k="natural" v="valley" />
		<tag k="place" v="locality" />
		<tag k="ssr:stedsnr" v="257393" />
	</node>
	<node lat="64.88117777402533" lon="13.256736107680238" id="-35000">
		<tag k="name" v="Kjerråtjønnin - Gaallinenjaevrie" />
		<tag k="name:no" v="Kjerråtjønnin" />
		<tag k="name:sma" v="Gaallinenjaevrie" />
		<tag k="natural" v="water" />
		<tag k="ssr:stedsnr" v="257546" />
	</node>
	<node lat="65.08355833349314" lon="13.22818889137411" id="-35001">
		<tag k="fixme" v="consider natural=peak for the most distinct mountains in the district" />
		<tag k="name" v="Gåsvassklumpen - Reetjkenvaartoe" />
		<tag k="name:no" v="Gåsvassklumpen" />
		<tag k="name:sma" v="Reetjkenvaartoe" />
		<tag k="natural" v="hill" />
		<tag k="place" v="locality" />
		<tag k="ssr:stedsnr" v="257681" />
	</node>
	<node lat="65.08790555886213" lon="13.476844441071878" id="-35002">
		<tag k="name" v="Bleikarelva - Garsejohke" />
		<tag k="name:no" v="Bleikarelva" />
		<tag k="name:sma" v="Garsejohke" />
		<tag k="ssr:stedsnr" v="257683" />
		<tag k="waterway" v="river" />
	</node>
	<node lat="64.863416665251" lon="12.686030558745946" id="-35003">
		<tag k="name" v="Soermesvaajja" />
		<tag k="name:sma" v="Soermesvaajja" />
		<tag k="ssr:stedsnr" v="257830" />
		<tag k="waterway" v="stream" />
	</node>
	<node lat="65.0158555590632" lon="13.248313883518142" id="-35004">
		<tag k="name" v="Fjellheim" />
		<tag k="place" v="isolated_dwelling" />
		<tag k="ssr:stedsnr" v="257875" />
	</node>
	<node lat="65.05367222566183" lon="13.325302777633699" id="-35005">
		<tag k="name" v="Snåsamoen" />
		<tag k="place" v="isolated_dwelling" />
		<tag k="ssr:stedsnr" v="257897" />
	</node>
	<node lat="64.96606110750236" lon="13.223622224621481" id="-35006">
		<tag k="name" v="Storneset" />
		<tag k="natural" v="cape" />
		<tag k="ssr:stedsnr" v="166406" />
	</node>
	<node lat="64.89649722471964" lon="13.071141659111849" id="-35007">
		<tag k="name" v="Litfossen" />
		<tag k="natural" v="waterfall" />
		<tag k="ssr:stedsnr" v="167504" />
	</node>
	<node lat="64.79708055333847" lon="12.905666673241369" id="-35008">
		<tag k="name" v="Stormyra" />
		<tag k="natural" v="wetland" />
		<tag k="ssr:stedsnr" v="168467" />
	</node>
	<node lat="64.80243610804429" lon="12.901583334498737" id="-35009">
		<tag k="name" v="Skogstubekken" />
		<tag k="ssr:stedsnr" v="168470" />
		<tag k="waterway" v="stream" />
	</node>
	<node lat="64.95931666261538" lon="13.097097226495906" id="-35010">
		<tag k="name" v="Viesletta" />
		<tag k="place" v="locality" />
		<tag k="ssr:stedsnr" v="168359" />
	</node>
	<node lat="64.9506694417442" lon="13.120622218809483" id="-35011">
		<tag k="name" v="Toreslettet" />
		<tag k="natural" v="wetland" />
		<tag k="ssr:stedsnr" v="168363" />
	</node>
	<node lat="64.79176944761926" lon="12.727333344248104" id="-35012">
		<tag k="name" v="Hyttdalen" />
		<tag k="natural" v="valley" />
		<tag k="place" v="locality" />
		<tag k="ssr:stedsnr" v="169009" />
	</node>
	<node lat="64.86349722505253" lon="13.15174723208517" id="-35013">
		<tag k="name" v="Grønnhaugen" />
		<tag k="natural" v="hill" />
		<tag k="place" v="locality" />
		<tag k="ssr:stedsnr" v="169357" />
	</node>
	<node lat="64.6650083364075" lon="12.872513881833413" id="-35014">
		<tag k="name" v="Stormyra" />
		<tag k="natural" v="wetland" />
		<tag k="ssr:stedsnr" v="169806" />
	</node>
	<node lat="64.9924472218549" lon="12.979666662842146" id="-35015">
		<tag k="name" v="Skatollia" />
		<tag k="natural" v="slope" />
		<tag k="place" v="locality" />
		<tag k="ssr:stedsnr" v="169883" />
	</node>
	<node lat="64.8705750035229" lon="12.869149995235874" id="-35016">
		<tag k="name" v="Kruneset" />
		<tag k="natural" v="cape" />
		<tag k="ssr:stedsnr" v="169889" />
	</node>
	<node lat="64.90425277570588" lon="12.831994438052591" id="-35017">
		<tag k="name" v="Flåmyra" />
		<tag k="natural" v="wetland" />
		<tag k="ssr:stedsnr" v="169898" />
	</node>
	<node lat="64.78653888549478" lon="12.876747221680755" id="-35018">
		<tag k="name" v="Kvennbekken" />
		<tag k="ssr:stedsnr" v="169901" />
		<tag k="waterway" v="stream" />
	</node>
	<node lat="65.08581666981719" lon="13.273136105143177" id="-35025">
		<tag k="name" v="Gudmundbukta" />
		<tag k="natural" v="bay" />
		<tag k="ssr:stedsnr" v="180722" />
	</node>
	<node lat="64.94241666897149" lon="12.898269452766666" id="-35026">
		<tag k="fixme" v="consider natural=peak for the most distinct mountains in the district" />
		<tag k="name" v="Blåfjellet - Guertiesmehkien barsje" />
		<tag k="name:no" v="Blåfjellet" />
		<tag k="name:sma" v="Guertiesmehkien barsje" />
		<tag k="natural" v="hill" />
		<tag k="place" v="locality" />
		<tag k="ssr:stedsnr" v="266154" />
	</node>
	<node lat="64.95681389171465" lon="13.340372222747803" id="-35027">
		<tag k="name" v="Milkjentjønna" />
		<tag k="natural" v="water" />
		<tag k="ssr:stedsnr" v="196033" />
	</node>
	<node lat="64.81595555786987" lon="12.963591658270749" id="-35028">
		<tag k="name" v="Kjelmyrfossen" />
		<tag k="natural" v="waterfall" />
		<tag k="ssr:stedsnr" v="196105" />
	</node>
	<node lat="64.8628194458703" lon="13.13951665736602" id="-35029">
		<tag k="name" v="Middagshaugen" />
		<tag k="natural" v="hill" />
		<tag k="place" v="locality" />
		<tag k="ssr:stedsnr" v="196109" />
	</node>
	<node lat="64.84411111042942" lon="13.165266676852099" id="-35030">
		<tag k="name" v="Raudberga" />
		<tag k="natural" v="hill" />
		<tag k="place" v="locality" />
		<tag k="ssr:stedsnr" v="196110" />
	</node>
	<node lat="64.95169722569753" lon="13.161055556126767" id="-35031">
		<tag k="name" v="Råslåtten" />
		<tag k="natural" v="valley" />
		<tag k="place" v="locality" />
		<tag k="ssr:stedsnr" v="196133" />
	</node>
	<node lat="64.93287499601344" lon="12.733113883129144" id="-35032">
		<tag k="fixme" v="consider natural=peak for the most distinct mountains in the district" />
		<tag k="name" v="Vesteråklumpen" />
		<tag k="natural" v="hill" />
		<tag k="place" v="locality" />
		<tag k="ssr:stedsnr" v="196137" />
	</node>
	<node lat="64.89382500114921" lon="13.154299991626027" id="-35033">
		<tag k="alt_name" v="Fløytarbekken" />
		<tag k="name" v="Fløtarbekken" />
		<tag k="ssr:stedsnr" v="197106" />
		<tag k="waterway" v="stream" />
	</node>
	<node lat="64.91861110990064" lon="13.03555278724522" id="-35034">
		<tag k="name" v="Kjertangen" />
		<tag k="natural" v="cape" />
		<tag k="ssr:stedsnr" v="197176" />
	</node>
	<node lat="64.93365000202773" lon="13.181941671235917" id="-35035">
		<tag k="name" v="Haugland" />
		<tag k="place" v="farm" />
		<tag k="ssr:stedsnr" v="197210" />
	</node>
	<node lat="64.79396110860507" lon="12.665469448673463" id="-35036">
		<tag k="fixme" v="consider natural=peak for the most distinct mountains in the district" />
		<tag k="name" v="Vakkeråsen" />
		<tag k="natural" v="hill" />
		<tag k="place" v="locality" />
		<tag k="ssr:stedsnr" v="197266" />
	</node>
	<node lat="64.7840166642289" lon="12.69980000409831" id="-35037">
		<tag k="name" v="Angelbekken" />
		<tag k="ssr:stedsnr" v="197268" />
		<tag k="waterway" v="stream" />
	</node>
	<node lat="64.6740131839204" lon="12.963204574376192" id="-35038">
		<tag k="fixme" v="consider place=hamlet" />
		<tag k="name" v="Grøndalen" />
		<tag k="place" v="farm" />
		<tag k="ssr:stedsnr" v="197412" />
	</node>
	<node lat="65.0229777754749" lon="12.971213880331495" id="-35039">
		<tag k="name" v="Måskoesvaajja" />
		<tag k="name:sma" v="Måskoesvaajja" />
		<tag k="natural" v="valley" />
		<tag k="place" v="locality" />
		<tag k="ssr:stedsnr" v="197777" />
	</node>
	<node lat="64.73478333253654" lon="12.712469450847681" id="-35040">
		<tag k="alt_name" v="Lauvhaugen" />
		<tag k="name" v="Leikhaugen" />
		<tag k="natural" v="hill" />
		<tag k="place" v="locality" />
		<tag k="ssr:stedsnr" v="197902" />
	</node>
	<node lat="64.73139166641842" lon="12.59621111387825" id="-35041">
		<tag k="name" v="Kvitådalen" />
		<tag k="natural" v="valley" />
		<tag k="place" v="locality" />
		<tag k="ssr:stedsnr" v="197920" />
	</node>
	<node lat="65.02079166439265" lon="13.223222214960613" id="-35042">
		<tag k="name" v="Langtjønnbekken" />
		<tag k="ssr:stedsnr" v="197859" />
		<tag k="waterway" v="stream" />
	</node>
	<node lat="65.03760555751413" lon="13.352288898429872" id="-35043">
		<tag k="name" v="Snåsamotjønna" />
		<tag k="natural" v="water" />
		<tag k="ssr:stedsnr" v="197873" />
	</node>
	<node lat="65.02879444269533" lon="13.335174993759127" id="-35044">
		<tag k="fixme" v="consider natural=peak for the most distinct mountains in the district" />
		<tag k="name" v="Nerfjellet" />
		<tag k="natural" v="hill" />
		<tag k="place" v="locality" />
		<tag k="ssr:stedsnr" v="197878" />
	</node>
	<node lat="64.91723567065247" lon="13.075040335552398" id="-35045">
		<tag k="fixme" v="consider place=hamlet" />
		<tag k="name" v="Bjørhusdalen" />
		<tag k="place" v="farm" />
		<tag k="ssr:stedsnr" v="208422" />
	</node>
	<node lat="64.92983055337287" lon="13.150902773265447" id="-35046">
		<tag k="name" v="Håpnes II" />
		<tag k="place" v="quarter" />
		<tag k="ssr:stedsnr" v="222170" />
	</node>
	<node lat="64.8168222182876" lon="12.956427768275933" id="-35047">
		<tag k="name" v="Lomtjønnmyra" />
		<tag k="natural" v="wetland" />
		<tag k="ssr:stedsnr" v="227337" />
	</node>
	<node lat="65.03524722387456" lon="13.251558339710249" id="-35048">
		<tag k="name" v="Magerfisktjønndalen" />
		<tag k="natural" v="valley" />
		<tag k="place" v="locality" />
		<tag k="ssr:stedsnr" v="227378" />
	</node>
	<node lat="64.97197222542091" lon="13.228325002820885" id="-35049">
		<tag k="name" v="Storbekken" />
		<tag k="ssr:stedsnr" v="227383" />
		<tag k="waterway" v="stream" />
	</node>
	<node lat="64.91257500327991" lon="13.207141663336447" id="-35050">
		<tag k="name" v="Storfossen" />
		<tag k="natural" v="waterfall" />
		<tag k="ssr:stedsnr" v="227397" />
	</node>
	<node lat="64.95518610955482" lon="13.19566666740439" id="-35051">
		<tag k="name" v="Groftneset" />
		<tag k="natural" v="cape" />
		<tag k="ssr:stedsnr" v="227400" />
	</node>
	<node lat="64.90116666882614" lon="13.074283340038365" id="-35052">
		<tag k="name" v="Kjeholmen" />
		<tag k="place" v="islet" />
		<tag k="ssr:stedsnr" v="228495" />
	</node>
	<node lat="64.89770277618422" lon="13.083469434840604" id="-35053">
		<tag k="name" v="Russerleiren" />
		<tag k="natural" v="slope" />
		<tag k="place" v="locality" />
		<tag k="ssr:stedsnr" v="228497" />
	</node>
	<node lat="64.90106111256713" lon="13.086344436906947" id="-35054">
		<tag k="name" v="Småmyran" />
		<tag k="natural" v="wetland" />
		<tag k="ssr:stedsnr" v="228499" />
	</node>
	<node lat="64.90673333375774" lon="13.101988878481786" id="-35055">
		<tag k="historic" v="shieling" />
		<tag k="name" v="Seterhaugen" />
		<tag k="place" v="locality" />
		<tag k="ssr:stedsnr" v="228510" />
	</node>
	<node lat="64.64851388838265" lon="13.074802777235792" id="-35056">
		<tag k="name" v="Storskorovasslia" />
		<tag k="natural" v="slope" />
		<tag k="place" v="locality" />
		<tag k="ssr:stedsnr" v="229180" />
	</node>
	<node lat="64.71151388860558" lon="12.780436102745886" id="-35057">
		<tag k="name" v="Finsholmen" />
		<tag k="place" v="islet" />
		<tag k="ssr:stedsnr" v="229596" />
	</node>
	<node lat="64.73293055575606" lon="12.59787778575281" id="-35058">
		<tag k="name" v="Finntjønndal statsallmenning" />
		<tag k="place" v="locality" />
		<tag k="ssr:stedsnr" v="230029" />
	</node>
	<node lat="64.95295555336975" lon="13.230055558309031" id="-35059">
		<tag k="name" v="Storsteinen" />
		<tag k="natural" v="stone" />
		<tag k="ssr:stedsnr" v="230411" />
	</node>
	<node lat="64.80248610893906" lon="12.986638882921158" id="-35060">
		<tag k="fixme" v="consider natural=peak for the most distinct mountains in the district" />
		<tag k="name" v="Rubben" />
		<tag k="natural" v="hill" />
		<tag k="place" v="locality" />
		<tag k="ssr:stedsnr" v="230807" />
	</node>
	<node lat="64.66683610667965" lon="13.013672221592971" id="-35061">
		<tag k="bridge" v="yes" />
		<tag k="layer" v="1" />
		<tag k="name" v="Skorovassbrua" />
		<tag k="ssr:stedsnr" v="230882" />
	</node>
	<node lat="64.99591735146015" lon="13.28390564671531" id="-35066">
		<tag k="name" v="Steinåa" />
		<tag k="ssr:stedsnr" v="257010" />
		<tag k="waterway" v="stream" />
	</node>
	<node lat="64.99961048876209" lon="13.260562056167387" id="-35067">
		<tag k="name" v="Steinåmoen" />
		<tag k="place" v="farm" />
		<tag k="ssr:stedsnr" v="257011" />
	</node>
	<node lat="64.76483610789198" lon="12.9900027690062" id="-35068">
		<tag k="fixme" v="consider natural=peak for the most distinct mountains in the district" />
		<tag k="name" v="Joåsen" />
		<tag k="natural" v="hill" />
		<tag k="place" v="locality" />
		<tag k="ssr:stedsnr" v="257012" />
	</node>
	<node lat="64.8311388924787" lon="12.987630549199016" id="-35069">
		<tag k="name" v="Breifossmoen" />
		<tag k="place" v="farm" />
		<tag k="ssr:stedsnr" v="257103" />
	</node>
	<node lat="64.81935555582645" lon="12.851988878795803" id="-35070">
		<tag k="name" v="Bjørndalstjønnin - Duvriejaavretje" />
		<tag k="name:no" v="Bjørndalstjønnin" />
		<tag k="name:sma" v="Duvriejaavretje" />
		<tag k="natural" v="water" />
		<tag k="ssr:stedsnr" v="257108" />
	</node>
	<node lat="64.83760555791895" lon="12.896777779371497" id="-35071">
		<tag k="name" v="Nordslettråa" />
		<tag k="natural" v="valley" />
		<tag k="place" v="locality" />
		<tag k="ssr:stedsnr" v="257123" />
	</node>
	<node lat="64.86255000174489" lon="13.080594451962483" id="-35072">
		<tag k="name" v="Tronestjønna" />
		<tag k="natural" v="water" />
		<tag k="ssr:stedsnr" v="257061" />
	</node>
	<node lat="64.92012778029205" lon="12.859816668186367" id="-35073">
		<tag k="name" v="Mortenlielva" />
		<tag k="ssr:stedsnr" v="257204" />
		<tag k="waterway" v="stream" />
	</node>
	<node lat="64.85258610713608" lon="12.977733342530367" id="-35074">
		<tag k="alt_name" v="Ytre Fossmoelva;Yttre Fossmoelva" />
		<tag k="name" v="Ytterelva" />
		<tag k="ssr:stedsnr" v="257608" />
		<tag k="waterway" v="river" />
	</node>
	<node lat="64.90597777562779" lon="12.98715277565537" id="-35075">
		<tag k="name" v="Tverrdalen - Sijhtiejælla" />
		<tag k="name:no" v="Tverrdalen" />
		<tag k="name:sma" v="Sijhtiejælla" />
		<tag k="natural" v="valley" />
		<tag k="place" v="locality" />
		<tag k="ssr:stedsnr" v="257612" />
	</node>
	<node lat="65.07820555670646" lon="13.456033333655688" id="-35076">
		<tag k="name" v="Jofossen" />
		<tag k="natural" v="waterfall" />
		<tag k="ssr:stedsnr" v="257675" />
	</node>
	<node lat="64.72434999832217" lon="13.048227778750716" id="-35077">
		<tag k="name" v="Stormosela" />
		<tag k="place" v="locality" />
		<tag k="ssr:stedsnr" v="257702" />
	</node>
	<node lat="65.05781110784179" lon="13.30341667648848" id="-35078">
		<tag k="name" v="Myran" />
		<tag k="place" v="farm" />
		<tag k="ssr:stedsnr" v="288304" />
	</node>
	<node lat="65.06934444038738" lon="13.321922216945548" id="-35079">
		<tag k="name" v="Kjerrstadbekken" />
		<tag k="ssr:stedsnr" v="288331" />
		<tag k="waterway" v="stream" />
	</node>
	<node lat="64.96504999840529" lon="13.180013883882182" id="-35080">
		<tag k="landuse" v="meadow" />
		<tag k="name" v="Tostakkmyra" />
		<tag k="ssr:stedsnr" v="288384" />
	</node>
	<node lat="64.97413333194163" lon="13.172227781641732" id="-35081">
		<tag k="name" v="Bekkdalen" />
		<tag k="natural" v="valley" />
		<tag k="place" v="locality" />
		<tag k="ssr:stedsnr" v="288387" />
	</node>
	<node lat="64.90255555977292" lon="13.16756667108376" id="-35082">
		<tag k="name" v="Jensbyggbekken" />
		<tag k="ssr:stedsnr" v="288392" />
		<tag k="waterway" v="stream" />
	</node>
	<node lat="64.92748611101263" lon="13.15499999160324" id="-35083">
		<tag k="name" v="Storholmen" />
		<tag k="place" v="islet" />
		<tag k="ssr:stedsnr" v="288395" />
	</node>
	<node lat="64.86402777351242" lon="13.136263893109582" id="-35084">
		<tag k="name" v="Bjørklia" />
		<tag k="natural" v="slope" />
		<tag k="place" v="locality" />
		<tag k="ssr:stedsnr" v="288398" />
	</node>
	<node lat="64.89156111004213" lon="13.14702777854309" id="-35085">
		<tag k="name" v="Kløvermoen" />
		<tag k="place" v="farm" />
		<tag k="ssr:stedsnr" v="288296" />
	</node>
	<node lat="64.82940833687498" lon="13.092775003072058" id="-35086">
		<tag k="name" v="Skogstubekken" />
		<tag k="ssr:stedsnr" v="289487" />
		<tag k="waterway" v="stream" />
	</node>
	<node lat="64.84080833278813" lon="13.0810444407432" id="-35087">
		<tag k="name" v="Finnvollbukta" />
		<tag k="natural" v="bay" />
		<tag k="ssr:stedsnr" v="289496" />
	</node>
	<node lat="64.84963611571526" lon="13.065716659183837" id="-35088">
		<tag k="name" v="Lia" />
		<tag k="natural" v="slope" />
		<tag k="place" v="locality" />
		<tag k="ssr:stedsnr" v="289505" />
	</node>
	<node lat="64.79273888645204" lon="12.888677777177936" id="-35089">
		<tag k="name" v="Haukreirmyra" />
		<tag k="natural" v="wetland" />
		<tag k="ssr:stedsnr" v="289534" />
	</node>
	<node lat="64.93415555507393" lon="13.0569111131162" id="-35090">
		<tag k="name" v="Langmyra" />
		<tag k="natural" v="wetland" />
		<tag k="ssr:stedsnr" v="289813" />
	</node>
	<node lat="64.77886111234439" lon="12.671497214126605" id="-35091">
		<tag k="name" v="Langmyråsen" />
		<tag k="natural" v="slope" />
		<tag k="place" v="locality" />
		<tag k="ssr:stedsnr" v="290025" />
	</node>
	<node lat="64.77990000264431" lon="12.647422232476496" id="-35092">
		<tag k="ford" v="yes" />
		<tag k="name" v="Vadet" />
		<tag k="place" v="locality" />
		<tag k="ssr:stedsnr" v="290029" />
	</node>
	<node lat="64.76699444778961" lon="12.758405566356458" id="-35093">
		<tag k="name" v="Fremmer Tjønnmyråsen" />
		<tag k="natural" v="hill" />
		<tag k="place" v="locality" />
		<tag k="ssr:stedsnr" v="290030" />
	</node>
	<node lat="64.74372499907484" lon="12.796183342926646" id="-35094">
		<tag k="fixme" v="consider natural=peak for the most distinct mountains in the district" />
		<tag k="name" v="Skarvåsfjellet" />
		<tag k="natural" v="hill" />
		<tag k="place" v="locality" />
		<tag k="ssr:stedsnr" v="289791" />
	</node>
	<node lat="64.70397222076359" lon="12.836199996613813" id="-35095">
		<tag k="landuse" v="industrial" />
		<tag k="name" v="Tunnsjødal" />
		<tag k="power" v="plant" />
		<tag k="ssr:stedsnr" v="290730" />
	</node>
	<node lat="64.66917499893525" lon="12.902613898011762" id="-35096">
		<tag k="name" v="Erikstuåsen" />
		<tag k="natural" v="hill" />
		<tag k="place" v="locality" />
		<tag k="ssr:stedsnr" v="290776" />
	</node>
	<node lat="64.82407777428556" lon="13.079341660620338" id="-35097">
		<tag k="name" v="Firstakkmyra" />
		<tag k="natural" v="wetland" />
		<tag k="ssr:stedsnr" v="290813" />
	</node>
	<node lat="64.8742694446845" lon="13.121124999362225" id="-35098">
		<tag k="bridge" v="yes" />
		<tag k="layer" v="1" />
		<tag k="name" v="Finnvollbrua" />
		<tag k="ssr:stedsnr" v="290993" />
	</node>
	<node lat="64.86795555274428" lon="12.872852780794227" id="-35099">
		<tag k="name" v="Merraneset" />
		<tag k="natural" v="cape" />
		<tag k="ssr:stedsnr" v="290875" />
	</node>
	<node lat="64.88270833091191" lon="12.883258323467027" id="-35100">
		<tag k="name" v="Storliberget" />
		<tag k="natural" v="hill" />
		<tag k="place" v="locality" />
		<tag k="ssr:stedsnr" v="290883" />
	</node>
	<node lat="64.672783330543" lon="12.947386107856458" id="-35101">
		<tag k="name" v="Fallet" />
		<tag k="natural" v="hill" />
		<tag k="place" v="locality" />
		<tag k="ssr:stedsnr" v="291303" />
	</node>
	<node lat="64.82420278032251" lon="13.108319454869484" id="-35102">
		<tag k="name" v="Røkkumholet" />
		<tag k="natural" v="valley" />
		<tag k="place" v="locality" />
		<tag k="ssr:stedsnr" v="291385" />
	</node>
	<node lat="64.85048888503073" lon="13.210719437153026" id="-35103">
		<tag k="name" v="Ner Kleggdaltjønna" />
		<tag k="natural" v="water" />
		<tag k="ssr:stedsnr" v="291389" />
	</node>
	<node lat="64.87002500357475" lon="13.218113881079674" id="-35104">
		<tag k="man_made" v="tower" />
		<tag k="name" v="Tårnet" />
		<tag k="ssr:stedsnr" v="291433" />
		<tag k="tower:type" v="communications" />
	</node>
	<node lat="64.97980555577607" lon="13.238450010027263" id="-35114">
		<tag k="name" v="Stormyra" />
		<tag k="natural" v="wetland" />
		<tag k="ssr:stedsnr" v="317004" />
	</node>
	<node lat="64.85187499976702" lon="13.08966110263069" id="-35115">
		<tag k="name" v="Finnvollbekken - Dievienjohke" />
		<tag k="name:no" v="Finnvollbekken" />
		<tag k="name:sma" v="Dievienjohke" />
		<tag k="ssr:stedsnr" v="317103" />
		<tag k="waterway" v="stream" />
	</node>
	<node lat="64.97583611545087" lon="12.998330551517055" id="-35116">
		<tag k="name" v="Nylodo" />
		<tag k="natural" v="valley" />
		<tag k="place" v="locality" />
		<tag k="ssr:stedsnr" v="317142" />
	</node>
	<node lat="64.77964999602841" lon="12.702111110965056" id="-35117">
		<tag k="alt_name" v="Strompdalen, austre" />
		<tag k="name" v="Austre Strompdalen" />
		<tag k="place" v="farm" />
		<tag k="ssr:stedsnr" v="318240" />
	</node>
	<node lat="64.90816388484818" lon="12.835366670722388" id="-35118">
		<tag k="alt_name" v="Sæterhaugen" />
		<tag k="name" v="Seterhaugen" />
		<tag k="natural" v="hill" />
		<tag k="place" v="locality" />
		<tag k="ssr:stedsnr" v="318142" />
	</node>
	<node lat="64.90295833158775" lon="13.16587777596672" id="-35119">
		<tag k="alt_name" v="Løvås" />
		<tag k="name" v="Lauvås" />
		<tag k="place" v="farm" />
		<tag k="ssr:stedsnr" v="318145" />
	</node>
	<node lat="64.9056000019126" lon="13.020302775240754" id="-35120">
		<tag k="name" v="Litlhaugen" />
		<tag k="natural" v="hill" />
		<tag k="place" v="locality" />
		<tag k="ssr:stedsnr" v="318147" />
	</node>
	<node lat="64.94319722229383" lon="13.214927781311916" id="-35121">
		<tag k="fixme" v="consider natural=peak for the most distinct mountains in the district" />
		<tag k="name" v="Sandåmoklumpen" />
		<tag k="natural" v="hill" />
		<tag k="place" v="locality" />
		<tag k="ssr:stedsnr" v="318148" />
	</node>
	<node lat="64.93964722545083" lon="13.023861105297497" id="-35122">
		<tag k="alt_name" v="Gammelgårdhaugen" />
		<tag k="name" v="Gammalgardhaugen" />
		<tag k="natural" v="hill" />
		<tag k="place" v="locality" />
		<tag k="ssr:stedsnr" v="318150" />
	</node>
	<node lat="64.60346944138702" lon="13.06381388465519" id="-35123">
		<tag k="name" v="Gryta" />
		<tag k="natural" v="water" />
		<tag k="ssr:stedsnr" v="318339" />
	</node>
	<node lat="64.89327499854336" lon="13.29007222976326" id="-35124">
		<tag k="fixme" v="consider natural=peak for the most distinct mountains in the district" />
		<tag k="name" v="Gaallinentjahke" />
		<tag k="name:sma" v="Gaallinentjahke" />
		<tag k="natural" v="hill" />
		<tag k="place" v="locality" />
		<tag k="ssr:stedsnr" v="318501" />
	</node>
	<node lat="64.72916712395073" lon="12.899323685555478" id="-35125">
		<tag k="historic" v="shieling" />
		<tag k="name" v="Kjelmosetran" />
		<tag k="place" v="locality" />
		<tag k="ssr:stedsnr" v="318692" />
	</node>
	<node lat="65.06232221826717" lon="13.30600278406406" id="-35126">
		<tag k="name" v="Nedatt" />
		<tag k="natural" v="slope" />
		<tag k="place" v="locality" />
		<tag k="ssr:stedsnr" v="470328" />
	</node>
	<node lat="64.98750277772716" lon="13.256275007586321" id="-35127">
		<tag k="name" v="Midtstubekken" />
		<tag k="ssr:stedsnr" v="470338" />
		<tag k="waterway" v="stream" />
	</node>
	<node lat="65.0425472187225" lon="13.246152787313873" id="-35128">
		<tag k="name" v="Lortholet" />
		<tag k="natural" v="water" />
		<tag k="ssr:stedsnr" v="470341" />
	</node>
	<node lat="65.04330832970714" lon="13.25056943542119" id="-35129">
		<tag k="name" v="Grubbtjønna" />
		<tag k="natural" v="water" />
		<tag k="ssr:stedsnr" v="470342" />
	</node>
	<node lat="64.85988889296335" lon="13.095430556917748" id="-35130">
		<tag k="name" v="Andershusmyran" />
		<tag k="natural" v="wetland" />
		<tag k="ssr:stedsnr" v="470432" />
	</node>
	<node lat="64.93042222496992" lon="13.063488894112494" id="-35131">
		<tag k="name" v="Jomyra" />
		<tag k="natural" v="wetland" />
		<tag k="ssr:stedsnr" v="470444" />
	</node>
	<node lat="64.8838805556388" lon="13.160555554745981" id="-35132">
		<tag k="name" v="Utsikten" />
		<tag k="ssr:stedsnr" v="470387" />
		<tag k="tourism" v="viewpoint" />
	</node>
	<node lat="64.87512500139638" lon="13.141841660418013" id="-35133">
		<tag k="name" v="Signemyra" />
		<tag k="natural" v="wetland" />
		<tag k="ssr:stedsnr" v="470403" />
	</node>
	<node lat="64.87652499865638" lon="13.142088884143364" id="-35134">
		<tag k="name" v="Kjørheimmyra" />
		<tag k="natural" v="wetland" />
		<tag k="ssr:stedsnr" v="470406" />
	</node>
	<node lat="64.83653889097069" lon="13.03330277084387" id="-35135">
		<tag k="name" v="Stormyra" />
		<tag k="natural" v="wetland" />
		<tag k="ssr:stedsnr" v="470456" />
	</node>
	<node lat="64.84767499928014" lon="12.985969442384285" id="-35136">
		<tag k="name" v="Nikolhaugen" />
		<tag k="natural" v="hill" />
		<tag k="place" v="locality" />
		<tag k="ssr:stedsnr" v="470477" />
	</node>
	<node lat="64.7633694465086" lon="12.853847215037323" id="-35137">
		<tag k="name" v="Petterhaugen" />
		<tag k="natural" v="hill" />
		<tag k="place" v="locality" />
		<tag k="ssr:stedsnr" v="470609" />
	</node>
	<node lat="64.83938888844142" lon="13.06116110151495" id="-35138">
		<tag k="historic" v="shieling" />
		<tag k="name" v="Skogan" />
		<tag k="place" v="locality" />
		<tag k="ssr:stedsnr" v="471491" />
	</node>
	<node lat="64.69288333561668" lon="12.690347217534631" id="-35139">
		<tag k="name" v="Tømmerbekken" />
		<tag k="ssr:stedsnr" v="471592" />
		<tag k="waterway" v="stream" />
	</node>
	<node lat="64.70876110807335" lon="12.680577783338585" id="-35140">
		<tag k="name" v="Brattåstjønna" />
		<tag k="natural" v="water" />
		<tag k="ssr:stedsnr" v="471596" />
	</node>
	<node lat="64.68363610808265" lon="12.80581944582255" id="-35141">
		<tag k="name" v="Johannesstuåsen" />
		<tag k="natural" v="ridge" />
		<tag k="place" v="locality" />
		<tag k="ssr:stedsnr" v="471632" />
	</node>
	<node lat="64.77753055262353" lon="12.619488887636638" id="-35142">
		<tag k="fixme" v="consider natural=peak for the most distinct mountains in the district" />
		<tag k="name" v="Snøådalsfjellet" />
		<tag k="natural" v="hill" />
		<tag k="place" v="locality" />
		<tag k="ssr:stedsnr" v="472020" />
	</node>
	<node lat="64.776069443484" lon="12.796405560548065" id="-35143">
		<tag k="name" v="Arondalbekken" />
		<tag k="ssr:stedsnr" v="472031" />
		<tag k="waterway" v="stream" />
	</node>
	<node lat="64.79861666679" lon="12.715447219769194" id="-35144">
		<tag k="name" v="Stormyrliin" />
		<tag k="natural" v="slope" />
		<tag k="place" v="locality" />
		<tag k="ssr:stedsnr" v="472034" />
	</node>
	<node lat="64.66570555809935" lon="13.008236106358979" id="-35145">
		<tag k="name" v="Stormoen" />
		<tag k="place" v="locality" />
		<tag k="ssr:stedsnr" v="472157" />
	</node>
	<node lat="64.81247222037477" lon="13.090036104725044" id="-35146">
		<tag k="name" v="Bergtjønnbekken" />
		<tag k="natural" v="water" />
		<tag k="ssr:stedsnr" v="472248" />
	</node>
	<node lat="64.86932777747401" lon="13.177572212341783" id="-35147">
		<tag k="name" v="Litl-Sandåa" />
		<tag k="ssr:stedsnr" v="472327" />
		<tag k="waterway" v="stream" />
	</node>
	<node lat="64.85449166804284" lon="13.154277770602237" id="-35148">
		<tag k="name" v="Raudberga" />
		<tag k="natural" v="hill" />
		<tag k="place" v="locality" />
		<tag k="ssr:stedsnr" v="472328" />
	</node>
	<node lat="64.86794166704823" lon="13.251022215382314" id="-35149">
		<tag k="name" v="Ruggelsteinen" />
		<tag k="natural" v="stone" />
		<tag k="ssr:stedsnr" v="472395" />
	</node>
	<node lat="64.67260555531907" lon="12.872038883673381" id="-35150">
		<tag k="name" v="Styggdalbekken" />
		<tag k="ssr:stedsnr" v="472749" />
		<tag k="waterway" v="stream" />
	</node>
	<node lat="64.82361110826714" lon="13.06921666015098" id="-35151">
		<tag k="name" v="Tjorrodalmyra" />
		<tag k="natural" v="wetland" />
		<tag k="ssr:stedsnr" v="472830" />
	</node>
	<node lat="64.82246666364605" lon="13.081247212973524" id="-35152">
		<tag k="name" v="Idamyra" />
		<tag k="natural" v="wetland" />
		<tag k="ssr:stedsnr" v="472834" />
	</node>
	<node lat="64.65636666480422" lon="12.910527787066853" id="-35153">
		<tag k="name" v="Karlstu" />
		<tag k="place" v="locality" />
		<tag k="ssr:stedsnr" v="472798" />
	</node>
	<node lat="64.93747777429526" lon="12.96498055850975" id="-35154">
		<tag k="name" v="Skarvdalen" />
		<tag k="natural" v="valley" />
		<tag k="place" v="locality" />
		<tag k="ssr:stedsnr" v="472887" />
	</node>
	<node lat="64.89365277938836" lon="12.909069434359088" id="-35155">
		<tag k="name" v="Tverrdalen" />
		<tag k="natural" v="valley" />
		<tag k="place" v="locality" />
		<tag k="ssr:stedsnr" v="472888" />
	</node>
	<node lat="65.08940833588855" lon="13.356324994220344" id="-35156">
		<tag k="name" v="Bustamyra" />
		<tag k="natural" v="wetland" />
		<tag k="ssr:stedsnr" v="473355" />
	</node>
	<node lat="65.03078889262873" lon="13.248561106541862" id="-35157">
		<tag k="name" v="Magerfisktjønnbekken" />
		<tag k="ssr:stedsnr" v="348310" />
		<tag k="waterway" v="stream" />
	</node>
	<node lat="64.8942222209361" lon="13.19030277129868" id="-35158">
		<tag k="name" v="Løsmundhaugen" />
		<tag k="natural" v="hill" />
		<tag k="place" v="locality" />
		<tag k="ssr:stedsnr" v="348311" />
	</node>
	<node lat="65.08738888757401" lon="13.346383334640512" id="-35159">
		<tag k="name" v="Vikadalen" />
		<tag k="natural" v="valley" />
		<tag k="place" v="locality" />
		<tag k="ssr:stedsnr" v="348320" />
	</node>
	<node lat="64.97962221872504" lon="13.22468333806204" id="-35160">
		<tag k="name" v="Frøyningsbukta" />
		<tag k="natural" v="bay" />
		<tag k="ssr:stedsnr" v="348377" />
	</node>
	<node lat="64.88348888702161" lon="13.167627775122442" id="-35161">
		<tag k="name" v="Langmyra" />
		<tag k="natural" v="wetland" />
		<tag k="ssr:stedsnr" v="348411" />
	</node>
	<node lat="64.94504722694086" lon="13.15533610318599" id="-35162">
		<tag k="landuse" v="meadow" />
		<tag k="name" v="Brattslettet" />
		<tag k="ssr:stedsnr" v="348413" />
	</node>
	<node lat="64.86342499969133" lon="13.107858334574626" id="-35163">
		<tag k="name" v="Storneset" />
		<tag k="natural" v="cape" />
		<tag k="ssr:stedsnr" v="349510" />
	</node>
	<node lat="64.86560277873957" lon="13.103925007072919" id="-35164">
		<tag k="name" v="Stornesbekken" />
		<tag k="ssr:stedsnr" v="349512" />
		<tag k="waterway" v="stream" />
	</node>
	<node lat="64.91200833662661" lon="13.083416662792771" id="-35165">
		<tag k="name" v="Åsli" />
		<tag k="place" v="farm" />
		<tag k="ssr:stedsnr" v="349517" />
	</node>
	<node lat="64.90800555278696" lon="13.098308323373782" id="-35166">
		<tag k="name" v="Tjønnmyra" />
		<tag k="natural" v="wetland" />
		<tag k="ssr:stedsnr" v="349520" />
	</node>
	<node lat="64.82749722475657" lon="12.901663895336808" id="-35167">
		<tag k="name" v="Hallmyra" />
		<tag k="natural" v="wetland" />
		<tag k="ssr:stedsnr" v="350452" />
	</node>
	<node lat="64.69149444242531" lon="12.80582499194691" id="-35168">
		<tag k="name" v="Litlåa" />
		<tag k="ssr:stedsnr" v="350587" />
		<tag k="waterway" v="stream" />
	</node>
	<node lat="64.66447500182319" lon="12.946236101141306" id="-35169">
		<tag k="name" v="Storgrøndalsmyra" />
		<tag k="natural" v="wetland" />
		<tag k="ssr:stedsnr" v="351805" />
	</node>
	<node lat="64.97919999636532" lon="13.22510554994153" id="-35172">
		<tag k="name" v="Frøyningsbuktodden" />
		<tag k="natural" v="cape" />
		<tag k="ssr:stedsnr" v="357954" />
	</node>
	<node lat="64.94956307610944" lon="13.116171645570015" id="-35183">
		<tag k="name" v="Frøyningselva - Freavnanjohke" />
		<tag k="name:no" v="Frøyningselva" />
		<tag k="name:sma" v="Freavnanjohke" />
		<tag k="ssr:stedsnr" v="378115" />
		<tag k="waterway" v="river" />
	</node>
	<node lat="64.8308833376299" lon="12.709069448575416" id="-35184">
		<tag k="name" v="Litlåtjønnin" />
		<tag k="natural" v="water" />
		<tag k="ssr:stedsnr" v="378204" />
	</node>
	<node lat="64.907119441181" lon="12.945036109613593" id="-35185">
		<tag k="name" v="Langtjønnskardet" />
		<tag k="natural" v="valley" />
		<tag k="place" v="locality" />
		<tag k="ssr:stedsnr" v="378165" />
	</node>
	<node lat="64.93892499823123" lon="13.006252780307795" id="-35186">
		<tag k="alt_name" v="Bjørhusdalelva, litle;Litl Bjørhusdalelva;Litle Bjørhusdalelva" />
		<tag k="name" v="Litlbjørhusdalelva" />
		<tag k="ssr:stedsnr" v="378173" />
		<tag k="waterway" v="river" />
	</node>
	<node lat="64.92087700252505" lon="13.015334654439776" id="-35187">
		<tag k="name" v="Hevlan" />
		<tag k="natural" v="slope" />
		<tag k="place" v="locality" />
		<tag k="ssr:stedsnr" v="378179" />
	</node>
	<node lat="64.51252777438778" lon="13.078599992992727" id="-35188">
		<tag k="fixme" v="consider natural=peak for the most distinct mountains in the district" />
		<tag k="name" v="Langløyftfjella" />
		<tag k="natural" v="hill" />
		<tag k="place" v="locality" />
		<tag k="ssr:stedsnr" v="378308" />
	</node>
	<node lat="64.65934166795286" lon="12.856955548641535" id="-35189">
		<tag k="name" v="Litlfjellet" />
		<tag k="place" v="farm" />
		<tag k="ssr:stedsnr" v="378381" />
	</node>
	<node lat="64.91893611406911" lon="13.231050004284683" id="-35190">
		<tag k="fixme" v="consider tourism=alpine_hut or tourism=chalet" />
		<tag k="name" v="Mattisstua" />
		<tag k="ssr:stedsnr" v="378475" />
		<tag k="tourism" v="wilderness_hut" />
	</node>
	<node lat="64.71288611308961" lon="13.051850002802713" id="-35191">
		<tag k="name" v="Hølbekksela" />
		<tag k="place" v="locality" />
		<tag k="ssr:stedsnr" v="378680" />
	</node>
	<node lat="64.85228333523837" lon="12.519733342755424" id="-35192">
		<tag k="fixme" v="consider natural=peak for the most distinct mountains in the district" />
		<tag k="name" v="Kvernfjellet - Pliehtjeguevtelennjuenie" />
		<tag k="name:no" v="Kvernfjellet" />
		<tag k="name:sma" v="Pliehtjeguevtelennjuenie" />
		<tag k="natural" v="hill" />
		<tag k="place" v="locality" />
		<tag k="ssr:stedsnr" v="378810" />
	</node>
	<node lat="64.78048888745961" lon="12.614083341593892" id="-35193">
		<tag k="name" v="Haukfjelldalen" />
		<tag k="natural" v="valley" />
		<tag k="place" v="locality" />
		<tag k="ssr:stedsnr" v="379242" />
	</node>
	<node lat="64.96605833494364" lon="13.30315001001804" id="-35196">
		<tag k="fixme" v="consider tourism=alpine_hut or tourism=chalet" />
		<tag k="name" v="Finntjønnhytta" />
		<tag k="ssr:stedsnr" v="485554" />
		<tag k="tourism" v="wilderness_hut" />
	</node>
	<node lat="64.8352249969505" lon="12.948722222579297" id="-35197">
		<tag k="name" v="Kjerrhaugen" />
		<tag k="natural" v="hill" />
		<tag k="place" v="locality" />
		<tag k="ssr:stedsnr" v="409330" />
	</node>
	<node lat="64.88230277582318" lon="13.116388897506114" id="-35198">
		<tag k="name" v="Stordalen" />
		<tag k="natural" v="valley" />
		<tag k="place" v="locality" />
		<tag k="ssr:stedsnr" v="409336" />
	</node>
	<node lat="64.9489861103354" lon="13.183761111217938" id="-35199">
		<tag k="name" v="Storholmen" />
		<tag k="place" v="islet" />
		<tag k="ssr:stedsnr" v="409405" />
	</node>
	<node lat="64.95243610692233" lon="13.171611114037795" id="-35200">
		<tag k="name" v="Olavallmyra" />
		<tag k="natural" v="wetland" />
		<tag k="ssr:stedsnr" v="409409" />
	</node>
	<node lat="64.84677222240728" lon="13.11423056074723" id="-35201">
		<tag k="name" v="Toddorspeten" />
		<tag k="natural" v="hill" />
		<tag k="place" v="locality" />
		<tag k="ssr:stedsnr" v="409447" />
	</node>
	<node lat="64.96596111029653" lon="13.227519453397628" id="-35202">
		<tag k="name" v="Lilonet" />
		<tag k="natural" v="water" />
		<tag k="ssr:stedsnr" v="409392" />
		<tag k="water" v="lake" />
	</node>
	<node lat="64.90365833321178" lon="13.190966658936876" id="-35203">
		<tag k="name" v="Sagbukkan" />
		<tag k="place" v="locality" />
		<tag k="ssr:stedsnr" v="409397" />
	</node>
	<node lat="64.89808055605863" lon="13.195513879557945" id="-35204">
		<tag k="name" v="Skardet" />
		<tag k="natural" v="valley" />
		<tag k="place" v="locality" />
		<tag k="ssr:stedsnr" v="409399" />
	</node>
	<node lat="64.83885555602107" lon="13.02140278075078" id="-35205">
		<tag k="name" v="Lungfjellet" />
		<tag k="natural" v="hill" />
		<tag k="place" v="locality" />
		<tag k="ssr:stedsnr" v="410502" />
	</node>
	<node lat="64.81681111398919" lon="12.949858339033861" id="-35206">
		<tag k="name" v="Liabekken" />
		<tag k="ssr:stedsnr" v="410493" />
		<tag k="waterway" v="stream" />
	</node>
	<node lat="64.69707777657545" lon="12.726044435289179" id="-35207">
		<tag k="name" v="Kvennbekken" />
		<tag k="ssr:stedsnr" v="410621" />
		<tag k="waterway" v="stream" />
	</node>
	<node lat="64.72408611481592" lon="12.86556111490193" id="-35208">
		<tag k="fixme" v="consider natural=peak for the most distinct mountains in the district" />
		<tag k="name" v="Kjelmofjellet" />
		<tag k="natural" v="hill" />
		<tag k="place" v="locality" />
		<tag k="ssr:stedsnr" v="410631" />
	</node>
	<node lat="64.66813888646516" lon="13.002061103522395" id="-35209">
		<tag k="name" v="Revhibekken" />
		<tag k="ssr:stedsnr" v="411155" />
		<tag k="waterway" v="stream" />
	</node>
	<node lat="64.66776944337792" lon="12.973316659226294" id="-35210">
		<tag k="name" v="Skorovassmomyra" />
		<tag k="natural" v="wetland" />
		<tag k="ssr:stedsnr" v="411157" />
	</node>
	<node lat="64.98666111546248" lon="13.209024999386475" id="-35211">
		<tag k="name" v="Naustbukta" />
		<tag k="natural" v="bay" />
		<tag k="ssr:stedsnr" v="411346" />
	</node>
	<node lat="64.82358888603913" lon="12.70076388263037" id="-35212">
		<tag k="fixme" v="consider natural=peak for the most distinct mountains in the district" />
		<tag k="name" v="Tverrelvdalsfjellet" />
		<tag k="natural" v="hill" />
		<tag k="place" v="locality" />
		<tag k="ssr:stedsnr" v="412004" />
	</node>
	<node lat="64.79252777787543" lon="12.700311103570744" id="-35213">
		<tag k="name" v="Storsteinmyra" />
		<tag k="natural" v="wetland" />
		<tag k="ssr:stedsnr" v="412013" />
	</node>
	<node lat="64.78709166243564" lon="12.731500000735121" id="-35214">
		<tag k="name" v="Røddiurdbekken" />
		<tag k="ssr:stedsnr" v="412014" />
		<tag k="waterway" v="stream" />
	</node>
	<node lat="64.7382833301601" lon="12.728122219062687" id="-35215">
		<tag k="name" v="Langmyra" />
		<tag k="natural" v="wetland" />
		<tag k="ssr:stedsnr" v="412221" />
	</node>
	<node lat="65.09854444382268" lon="13.232630553810191" id="-35216">
		<tag k="name" v="Rapet" />
		<tag k="natural" v="hill" />
		<tag k="place" v="locality" />
		<tag k="ssr:stedsnr" v="412305" />
	</node>
	<node lat="65.08737777953074" lon="13.441447231836108" id="-35217">
		<tag k="name" v="Mattishaugen" />
		<tag k="natural" v="hill" />
		<tag k="place" v="locality" />
		<tag k="ssr:stedsnr" v="412296" />
	</node>
	<node lat="65.09771389009128" lon="13.419702773241276" id="-35218">
		<tag k="name" v="Storelvlia" />
		<tag k="natural" v="slope" />
		<tag k="place" v="locality" />
		<tag k="ssr:stedsnr" v="412297" />
	</node>
	<node lat="64.80577222124954" lon="13.099622225716432" id="-35219">
		<tag k="name" v="Kjellaren" />
		<tag k="natural" v="slope" />
		<tag k="place" v="locality" />
		<tag k="ssr:stedsnr" v="412788" />
	</node>
	<node lat="64.84773611329547" lon="12.887238898357442" id="-35220">
		<tag k="name" v="Storholmen" />
		<tag k="place" v="islet" />
		<tag k="ssr:stedsnr" v="412912" />
	</node>
	<node lat="64.96618055572752" lon="13.215580561303387" id="-35237">
		<tag k="name" v="Stormyra" />
		<tag k="natural" v="wetland" />
		<tag k="ssr:stedsnr" v="439101" />
	</node>
	<node lat="64.61688333530957" lon="12.965183334438407" id="-35238">
		<tag k="name" v="Grøndalsvatnet - Kroentejaevrie" />
		<tag k="name:no" v="Grøndalsvatnet" />
		<tag k="name:sma" v="Kroentejaevrie" />
		<tag k="natural" v="water" />
		<tag k="ssr:stedsnr" v="439306" />
		<tag k="water" v="lake" />
	</node>
	<node lat="65.08843055975291" lon="13.546988891848196" id="-35239">
		<tag k="fixme" v="consider natural=peak for the most distinct mountains in the district" />
		<tag k="name" v="Rundfjellet - Jarpetjahke" />
		<tag k="name:no" v="Rundfjellet" />
		<tag k="name:sma" v="Jarpetjahke" />
		<tag k="natural" v="hill" />
		<tag k="place" v="locality" />
		<tag k="ssr:stedsnr" v="439617" />
	</node>
	<node lat="65.04508333096018" lon="13.252449994614073" id="-35240">
		<tag k="name" v="Grubbtjønna" />
		<tag k="natural" v="water" />
		<tag k="ssr:stedsnr" v="439643" />
	</node>
	<node lat="64.86841944769324" lon="12.906300001127992" id="-35242">
		<tag k="name" v="Haukberget" />
		<tag k="natural" v="hill" />
		<tag k="place" v="locality" />
		<tag k="ssr:stedsnr" v="440108" />
	</node>
	<node lat="64.88141944189411" lon="13.22918888736008" id="-35243">
		<tag k="name" v="Sponsengoeble" />
		<tag k="name:sma" v="Sponsengoeble" />
		<tag k="natural" v="slope" />
		<tag k="place" v="locality" />
		<tag k="ssr:stedsnr" v="440492" />
	</node>
	<node lat="65.0131305595514" lon="13.416669440866453" id="-35244">
		<tag k="fixme" v="consider natural=peak for the most distinct mountains in the district" />
		<tag k="name" v="Jijse - Gisen" />
		<tag k="name:no" v="Gisen" />
		<tag k="name:sma" v="Jijse" />
		<tag k="natural" v="hill" />
		<tag k="place" v="locality" />
		<tag k="ssr:stedsnr" v="445879" />
	</node>
	<node lat="64.98483889254521" lon="12.933961102922614" id="-35245">
		<tag k="fixme" v="consider natural=peak for the most distinct mountains in the district" />
		<tag k="name" v="Skatollet - Njåemelentjahke" />
		<tag k="name:no" v="Skatollet" />
		<tag k="name:sma" v="Njåemelentjahke" />
		<tag k="natural" v="hill" />
		<tag k="place" v="locality" />
		<tag k="ssr:stedsnr" v="449118" />
	</node>
	<node lat="65.00956944640816" lon="13.239847226267422" id="-35247">
		<tag k="name" v="Grønmyra" />
		<tag k="natural" v="wetland" />
		<tag k="ssr:stedsnr" v="470284" />
	</node>
	<node lat="65.09906389232762" lon="13.32809723298158" id="-35248">
		<tag k="fixme" v="consider natural=peak for the most distinct mountains in the district" />
		<tag k="name" v="Langtjønnåsen" />
		<tag k="natural" v="hill" />
		<tag k="place" v="locality" />
		<tag k="ssr:stedsnr" v="470286" />
	</node>
	<node lat="64.89952500202808" lon="13.095727768671393" id="-35249">
		<tag k="name" v="Namstadlia" />
		<tag k="natural" v="slope" />
		<tag k="place" v="locality" />
		<tag k="ssr:stedsnr" v="470422" />
	</node>
	<node lat="65.04111666821625" lon="13.289163892161776" id="-35250">
		<tag k="name" v="Kvennbekken" />
		<tag k="ssr:stedsnr" v="470325" />
		<tag k="waterway" v="stream" />
	</node>
	<node lat="64.97544444187608" lon="13.174913891881049" id="-35251">
		<tag k="name" v="Fjellenden" />
		<tag k="place" v="locality" />
		<tag k="ssr:stedsnr" v="470376" />
	</node>
	<node lat="64.78735000355412" lon="12.893436102077544" id="-35252">
		<tag k="name" v="Flåtådalsmoen" />
		<tag k="place" v="locality" />
		<tag k="ssr:stedsnr" v="470611" />
	</node>
	<node lat="64.74804999986088" lon="12.880641664493945" id="-35253">
		<tag k="name" v="Storholmen" />
		<tag k="place" v="islet" />
		<tag k="ssr:stedsnr" v="470612" />
	</node>
	<node lat="65.05851388686507" lon="13.275716676061275" id="-35254">
		<tag k="name" v="Langmyra" />
		<tag k="natural" v="wetland" />
		<tag k="ssr:stedsnr" v="471303" />
	</node>
	<node lat="64.82857500176137" lon="13.072958325931177" id="-35255">
		<tag k="name" v="Brekkabekken" />
		<tag k="ssr:stedsnr" v="471480" />
		<tag k="waterway" v="stream" />
	</node>
	<node lat="64.7764055544359" lon="12.917891661169474" id="-35256">
		<tag k="name" v="Romstadtjønna" />
		<tag k="natural" v="water" />
		<tag k="ssr:stedsnr" v="471508" />
	</node>
	<node lat="64.71306111259214" lon="12.66962500316114" id="-35257">
		<tag k="name" v="Lustjønna" />
		<tag k="natural" v="water" />
		<tag k="ssr:stedsnr" v="472066" />
	</node>
	<node lat="64.6733611100868" lon="12.970711117012753" id="-35258">
		<tag k="name" v="Lauvhaugen" />
		<tag k="natural" v="hill" />
		<tag k="place" v="locality" />
		<tag k="ssr:stedsnr" v="472163" />
	</node>
	<node lat="64.94267777571544" lon="13.233669449412885" id="-35259">
		<tag k="name" v="Vakkerlia" />
		<tag k="natural" v="slope" />
		<tag k="place" v="locality" />
		<tag k="ssr:stedsnr" v="472408" />
	</node>
	<node lat="64.77699166814966" lon="12.952866671580978" id="-35260">
		<tag k="name" v="Josefmyrdalan" />
		<tag k="natural" v="valley" />
		<tag k="place" v="locality" />
		<tag k="ssr:stedsnr" v="472810" />
	</node>
	<node lat="64.8489999956286" lon="12.755255564273032" id="-35261">
		<tag k="name" v="Lindsetvatnet - Stoerrejaevrie" />
		<tag k="name:no" v="Lindsetvatnet" />
		<tag k="name:sma" v="Stoerrejaevrie" />
		<tag k="natural" v="water" />
		<tag k="ssr:stedsnr" v="691532" />
		<tag k="water" v="lake" />
	</node>
	<node lat="64.98944999669129" lon="13.224736114529792" id="-35272">
		<tag k="name" v="Svartåstjønna" />
		<tag k="natural" v="water" />
		<tag k="ssr:stedsnr" v="681002" />
	</node>
	<node lat="64.97476666555785" lon="13.031869443416419" id="-35273">
		<tag k="alt_name" v="Sæterbekken" />
		<tag k="name" v="Seterbekken" />
		<tag k="ssr:stedsnr" v="499114" />
		<tag k="waterway" v="stream" />
	</node>
	<node lat="64.73356666682322" lon="13.00632777465379" id="-35274">
		<tag k="name" v="Stormyra" />
		<tag k="natural" v="wetland" />
		<tag k="ssr:stedsnr" v="499605" />
	</node>
	<node lat="64.80153055497864" lon="13.108419434287393" id="-35275">
		<tag k="alt_name" v="Bjønnlitjønna" />
		<tag k="name" v="Bjørnlitjønna" />
		<tag k="natural" v="water" />
		<tag k="ssr:stedsnr" v="500034" />
	</node>
	<node lat="64.79771666982813" lon="12.844408336451947" id="-35276">
		<tag k="fixme" v="consider natural=peak for the most distinct mountains in the district" />
		<tag k="name" v="Kyrkjefjellet" />
		<tag k="natural" v="hill" />
		<tag k="place" v="locality" />
		<tag k="ssr:stedsnr" v="500040" />
	</node>
	<node lat="64.86118611273747" lon="13.10113889444827" id="-35277">
		<tag k="alt_name" v="Stornesset" />
		<tag k="name" v="Storneset" />
		<tag k="place" v="farm" />
		<tag k="ssr:stedsnr" v="500081" />
	</node>
	<node lat="64.84908888612239" lon="12.899158323053461" id="-35278">
		<tag k="alt_name" v="Rapbekken" />
		<tag k="name" v="Rappbekken" />
		<tag k="ssr:stedsnr" v="500083" />
		<tag k="waterway" v="stream" />
	</node>
	<node lat="64.90143333021497" lon="13.164022223024595" id="-35279">
		<tag k="name" v="Orheim" />
		<tag k="place" v="farm" />
		<tag k="ssr:stedsnr" v="500096" />
	</node>
	<node lat="64.80600000148927" lon="13.092058323906624" id="-35280">
		<tag k="fixme" v="consider natural=peak for the most distinct mountains in the district" />
		<tag k="name" v="Tjahkatjåalhte" />
		<tag k="name:sma" v="Tjahkatjåalhte" />
		<tag k="natural" v="hill" />
		<tag k="place" v="locality" />
		<tag k="ssr:stedsnr" v="500108" />
	</node>
	<node lat="64.9055777812749" lon="13.059522225181132" id="-35281">
		<tag k="name" v="Neset" />
		<tag k="place" v="farm" />
		<tag k="ssr:stedsnr" v="500191" />
	</node>
	<node lat="64.93771944254405" lon="12.865761111309638" id="-35282">
		<tag k="name" v="Mortenlitjønna" />
		<tag k="natural" v="water" />
		<tag k="ssr:stedsnr" v="500198" />
	</node>
	<node lat="64.60780278146845" lon="13.10733611244251" id="-35283">
		<tag k="alt_name" v="Øverste Nesåvatnet" />
		<tag k="name" v="Gruvvatnet" />
		<tag k="natural" v="water" />
		<tag k="ssr:stedsnr" v="500404" />
		<tag k="water" v="lake" />
	</node>
	<node lat="65.01933610836468" lon="13.168074997753333" id="-35284">
		<tag k="name" v="Storflyin" />
		<tag k="natural" v="water" />
		<tag k="ssr:stedsnr" v="500609" />
	</node>
	<node lat="65.00791666397858" lon="13.189111108868984" id="-35285">
		<tag k="name" v="Helmertjønna" />
		<tag k="natural" v="water" />
		<tag k="ssr:stedsnr" v="500787" />
	</node>
	<node lat="64.73245032926586" lon="12.66758295682215" id="-35286">
		<tag k="name" v="Forrotjønna" />
		<tag k="natural" v="water" />
		<tag k="ssr:stedsnr" v="500929" />
	</node>
	<node lat="65.01670833010934" lon="13.350922221939825" id="-35287">
		<tag k="name" v="Telttjønna" />
		<tag k="natural" v="water" />
		<tag k="ssr:stedsnr" v="500889" />
	</node>
	<node lat="65.0333861118656" lon="13.275469435388496" id="-35288">
		<tag k="alt_name" v="Løvmo" />
		<tag k="name" v="Løvmoen" />
		<tag k="place" v="farm" />
		<tag k="ssr:stedsnr" v="500897" />
	</node>
	<node lat="65.02995316046919" lon="13.23926385581123" id="-35289">
		<tag k="loc_name" v="Storflya" />
		<tag k="name" v="Storflyin" />
		<tag k="natural" v="water" />
		<tag k="ssr:stedsnr" v="500898" />
	</node>
	<node lat="64.84273888866493" lon="12.831016674223147" id="-35290">
		<tag k="name" v="Storhaugen - Jollevaartoe" />
		<tag k="name:no" v="Storhaugen" />
		<tag k="name:sma" v="Jollevaartoe" />
		<tag k="natural" v="hill" />
		<tag k="place" v="locality" />
		<tag k="ssr:stedsnr" v="682078" />
	</node>
	<node lat="64.86970833017776" lon="12.802230557305442" id="-35291">
		<tag k="name" v="Bjørelvdalen - Graesievaajja" />
		<tag k="name:no" v="Bjørelvdalen" />
		<tag k="name:sma" v="Graesievaajja" />
		<tag k="natural" v="valley" />
		<tag k="place" v="locality" />
		<tag k="ssr:stedsnr" v="682089" />
	</node>
	<node lat="64.89738055418596" lon="13.152927787924177" id="-35292">
		<tag k="alt_name" v="Finnvollen, nordre;Finnvollan nordre;Nordre Finnvollen" />
		<tag k="name" v="Nordre Finnvollan" />
		<tag k="place" v="farm" />
		<tag k="ssr:stedsnr" v="682092" />
	</node>
	<node lat="64.89979166362954" lon="13.16066666488794" id="-35293">
		<tag k="alt_name" v="Østvang" />
		<tag k="name" v="Austvang" />
		<tag k="place" v="farm" />
		<tag k="ssr:stedsnr" v="682094" />
	</node>
	<node lat="64.80661666938455" lon="12.805619437966472" id="-35294">
		<tag k="fixme" v="consider natural=peak for the most distinct mountains in the district" />
		<tag k="name" v="Strompdalsaksla" />
		<tag k="natural" v="hill" />
		<tag k="old_name" v="Stompdalsaksla" />
		<tag k="place" v="locality" />
		<tag k="ssr:stedsnr" v="682102" />
	</node>
	<node lat="64.75818333456107" lon="12.936925009083385" id="-35295">
		<tag k="name" v="Litlåtjønna" />
		<tag k="natural" v="water" />
		<tag k="ssr:stedsnr" v="682010" />
	</node>
	<node lat="64.75841388936274" lon="12.847800009855007" id="-35296">
		<tag k="alt_name" v="Skarvåssetran" />
		<tag k="name" v="Skarvåssætra" />
		<tag k="place" v="locality" />
		<tag k="ssr:stedsnr" v="682011" />
	</node>
	<node lat="64.75515833292596" lon="13.059644442763124" id="-35297">
		<tag k="name" v="Skardtjønna" />
		<tag k="natural" v="water" />
		<tag k="ssr:stedsnr" v="682015" />
	</node>
	<node lat="64.77273055228426" lon="13.00639166496666" id="-35298">
		<tag k="alt_name" v="Klemetmyran" />
		<tag k="name" v="Klemmetmyran" />
		<tag k="natural" v="wetland" />
		<tag k="ssr:stedsnr" v="682017" />
	</node>
	<node lat="64.75705000059777" lon="12.739708327040125" id="-35299">
		<tag k="name" v="Klumplitjønna" />
		<tag k="natural" v="water" />
		<tag k="ssr:stedsnr" v="682020" />
	</node>
	<node lat="64.76485000038787" lon="12.954441665402555" id="-35300">
		<tag k="name" v="Hanshusbekken" />
		<tag k="ssr:stedsnr" v="682024" />
		<tag k="waterway" v="stream" />
	</node>
	<node lat="64.77205277666549" lon="12.799038881729128" id="-35301">
		<tag k="fixme" v="multiple name tags, choose one and add the other to alt_name" />
		<tag k="name" v="Råelva;Ausvasselva" />
		<tag k="ssr:stedsnr" v="682026" />
		<tag k="waterway" v="stream" />
	</node>
	<node lat="64.79709444391546" lon="13.043425010333202" id="-35302">
		<tag k="fixme" v="consider natural=peak for the most distinct mountains in the district" />
		<tag k="name" v="Litlfjellet" />
		<tag k="natural" v="hill" />
		<tag k="place" v="locality" />
		<tag k="ssr:stedsnr" v="682034" />
	</node>
	<node lat="64.78248889258087" lon="12.80665832535468" id="-35303">
		<tag k="name" v="Ausvassråa" />
		<tag k="natural" v="valley" />
		<tag k="place" v="locality" />
		<tag k="ssr:stedsnr" v="682040" />
	</node>
	<node lat="64.79632777754692" lon="12.927280559587146" id="-35304">
		<tag k="name" v="Lindmoen" />
		<tag k="place" v="farm" />
		<tag k="ssr:stedsnr" v="682042" />
	</node>
	<node lat="64.9615472214529" lon="13.22870278534692" id="-35305">
		<tag k="name" v="Toddorhaugen" />
		<tag k="natural" v="hill" />
		<tag k="place" v="locality" />
		<tag k="ssr:stedsnr" v="682052" />
	</node>
	<node lat="64.97343055825408" lon="12.789500003104047" id="-35306">
		<tag k="fixme" v="consider natural=peak for the most distinct mountains in the district" />
		<tag k="name" v="Nessafjellet" />
		<tag k="natural" v="hill" />
		<tag k="place" v="locality" />
		<tag k="ssr:stedsnr" v="682175" />
	</node>
	<node lat="64.92212778079025" lon="13.205855551045623" id="-35307">
		<tag k="name" v="Tjørnmyra" />
		<tag k="natural" v="wetland" />
		<tag k="ssr:stedsnr" v="682188" />
	</node>
	<node lat="64.93406666225592" lon="12.845491672728981" id="-35308">
		<tag k="fixme" v="consider natural=peak for the most distinct mountains in the district" />
		<tag k="name" v="Mortenslifjellet - Guevtelsjaevrien dalvesh" />
		<tag k="name:no" v="Mortenslifjellet" />
		<tag k="name:sma" v="Guevtelsjaevrien dalvesh" />
		<tag k="natural" v="hill" />
		<tag k="place" v="locality" />
		<tag k="ssr:stedsnr" v="682195" />
	</node>
</osm>
