<?xml version="1.0" encoding="UTF-8"?>
<osm version="0.6" generator="osmapis">
	<node lat="65.07824444763324" lon="13.312658328899579" id="-87236">
		<tag k="name" v="Vestre Smalåsen" />
		<tag k="place" v="farm" />
		<tag k="ssr:stedsnr" v="14573" />
	</node>
	<node lat="65.07867499671148" lon="13.317713887739114" id="-87237">
		<tag k="name" v="Smalåsen - Smeelehaesie" />
		<tag k="name:no" v="Smalåsen" />
		<tag k="name:sma" v="Smeelehaesie" />
		<tag k="place" v="quarter" />
		<tag k="ssr:stedsnr" v="14575" />
	</node>
	<node lat="64.88534764715395" lon="13.06905132915909" id="-87242">
		<tag k="name" v="Fredvang" />
		<tag k="place" v="farm" />
		<tag k="ssr:stedsnr" v="15102" />
	</node>
	<node lat="64.64386944162867" lon="13.113527767087879" id="-87244">
		<tag k="name" v="Skorovatn" />
		<tag k="place" v="quarter" />
		<tag k="ssr:stedsnr" v="15357" />
	</node>
	<node lat="64.92983055337287" lon="13.150902773265447" id="-87250">
		<tag k="name" v="Håpnes II" />
		<tag k="place" v="neighbourhood" />
		<tag k="ssr:stedsnr" v="222170" />
	</node>
	<node lat="65.07688055957777" lon="13.332027772641995" id="-87258">
		<tag k="name" v="Solstad" />
		<tag k="place" v="farm" />
		<tag k="ssr:stedsnr" v="45373" />
	</node>
	<node lat="65.0536694463849" lon="13.325347221971002" id="-87289">
		<tag k="fixme" v="consider tourism=alpine_hut or tourism=chalet" />
		<tag k="name" v="Snåsamostua" />
		<tag k="ssr:stedsnr" v="60581" />
		<tag k="tourism" v="wilderness_hut" />
	</node>
	<node lat="64.96278055351043" lon="13.021177786080447" id="-87309">
		<tag k="alt_name" v="Bertilsetran" />
		<tag k="historic" v="shieling" />
		<tag k="name" v="Bertilsætran" />
		<tag k="place" v="isolated_dwelling" />
		<tag k="ssr:stedsnr" v="75152" />
	</node>
	<node lat="64.87535000121912" lon="13.064363882966411" id="-87314">
		<tag k="name" v="Fossheim" />
		<tag k="place" v="farm" />
		<tag k="ssr:stedsnr" v="76114" />
	</node>
	<node lat="64.89618610717156" lon="13.152258323197845" id="-87318">
		<tag k="name" v="Finnvollan" />
		<tag k="place" v="hamlet" />
		<tag k="ssr:stedsnr" v="106307" />
	</node>
	<node lat="64.84081666970029" lon="12.87379165714141" id="-87356">
		<tag k="alt_name" v="Setran" />
		<tag k="name" v="Sætran" />
		<tag k="place" v="isolated_dwelling" />
		<tag k="ssr:stedsnr" v="135109" />
	</node>
	<node lat="64.85112990566016" lon="13.013586876461314" id="-87358">
		<tag k="name" v="Fossmoen" />
		<tag k="place" v="farm" />
		<tag k="ssr:stedsnr" v="135049" />
	</node>
	<node lat="64.89473611402425" lon="13.172480552035971" id="-87363">
		<tag k="alt_name" v="Østli" />
		<tag k="name" v="Austli" />
		<tag k="place" v="farm" />
		<tag k="ssr:stedsnr" v="136100" />
	</node>
	<node lat="65.00825062169793" lon="13.25637717603851" id="-87367">
		<tag k="name" v="Kvilheim" />
		<tag k="place" v="farm" />
		<tag k="ssr:stedsnr" v="136853" />
	</node>
	<node lat="64.78585833572141" lon="12.888491657006837" id="-87375">
		<tag k="name" v="Flåttedal" />
		<tag k="place" v="farm" />
		<tag k="ssr:stedsnr" v="167656" />
	</node>
	<node lat="64.74616111091436" lon="12.827286104796125" id="-87376">
		<tag k="historic" v="shieling" />
		<tag k="name" v="Brannansetran" />
		<tag k="place" v="isolated_dwelling" />
		<tag k="ssr:stedsnr" v="167670" />
	</node>
	<node lat="65.08738610901406" lon="13.424683337205076" id="-87387">
		<tag k="fixme" v="consider tourism=alpine_hut or tourism=chalet" />
		<tag k="name" v="Namskrokhytta" />
		<tag k="ssr:stedsnr" v="181612" />
		<tag k="tourism" v="wilderness_hut" />
	</node>
	<node lat="65.07474444054834" lon="13.344369441656085" id="-87395">
		<tag k="name" v="Åsheim" />
		<tag k="place" v="isolated_dwelling" />
		<tag k="ssr:stedsnr" v="196585" />
	</node>
	<node lat="65.08257499960473" lon="13.321752779570378" id="-87396">
		<tag k="name" v="Åsly" />
		<tag k="place" v="farm" />
		<tag k="ssr:stedsnr" v="196586" />
	</node>
	<node lat="64.86533333774933" lon="13.118522215169476" id="-87401">
		<tag k="name" v="Skogeng" />
		<tag k="place" v="farm" />
		<tag k="ssr:stedsnr" v="197094" />
	</node>
	<node lat="64.6740131839204" lon="12.963204574376192" id="-87403">
		<tag k="name" v="Grøndalen" />
		<tag k="place" v="farm" />
		<tag k="ssr:stedsnr" v="197412" />
	</node>
	<node lat="64.90574444312024" lon="13.16908055463391" id="-87406">
		<tag k="name" v="Solhaug" />
		<tag k="place" v="farm" />
		<tag k="ssr:stedsnr" v="197180" />
	</node>
	<node lat="64.91723567065247" lon="13.075040335552398" id="-87411">
		<tag k="name" v="Bjørhusdalen" />
		<tag k="place" v="farm" />
		<tag k="ssr:stedsnr" v="208422" />
	</node>
	<node lat="64.8311388924787" lon="12.987630549199016" id="-87437">
		<tag k="name" v="Breifossmoen" />
		<tag k="place" v="farm" />
		<tag k="ssr:stedsnr" v="257103" />
	</node>
	<node lat="64.91644722153751" lon="13.15786111428508" id="-87442">
		<tag k="name" v="Skogmo" />
		<tag k="place" v="farm" />
		<tag k="ssr:stedsnr" v="257177" />
	</node>
	<node lat="64.99961048876209" lon="13.260562056167387" id="-87444">
		<tag k="name" v="Steinåmoen" />
		<tag k="place" v="farm" />
		<tag k="ssr:stedsnr" v="257011" />
	</node>
	<node lat="64.87114166832875" lon="12.885749999758403" id="-87449">
		<tag k="alt_name" v="Moen" />
		<tag k="name" v="Moan" />
		<tag k="place" v="isolated_dwelling" />
		<tag k="ssr:stedsnr" v="257085" />
	</node>
	<node lat="65.01565923559704" lon="13.25250610433577" id="-87456">
		<tag k="name" v="Fjellheim" />
		<tag k="place" v="farm" />
		<tag k="ssr:stedsnr" v="257875" />
	</node>
	<node lat="65.05781110784179" lon="13.30341667648848" id="-87463">
		<tag k="name" v="Myran" />
		<tag k="place" v="farm" />
		<tag k="ssr:stedsnr" v="288304" />
	</node>
	<node lat="64.77755555962364" lon="13.045466663576049" id="-87498">
		<tag k="name" v="Kvilåsen" />
		<tag k="place" v="isolated_dwelling" />
		<tag k="ssr:stedsnr" v="318015" />
	</node>
	<node lat="64.8733138917373" lon="13.125588879523097" id="-87500">
		<tag k="name" v="Grantun" />
		<tag k="place" v="farm" />
		<tag k="ssr:stedsnr" v="318073" />
	</node>
	<node lat="64.73514722017639" lon="12.828194442228032" id="-87524">
		<tag k="name" v="Vestmoen" />
		<tag k="place" v="farm" />
		<tag k="ssr:stedsnr" v="363383" />
	</node>
	<node lat="64.91893611406911" lon="13.231050004284683" id="-87535">
		<tag k="fixme" v="consider tourism=alpine_hut or tourism=chalet" />
		<tag k="name" v="Mattisstua" />
		<tag k="ssr:stedsnr" v="378475" />
		<tag k="tourism" v="wilderness_hut" />
	</node>
	<node lat="65.0446888928838" lon="13.286286117808572" id="-87538">
		<tag k="name" v="Granly" />
		<tag k="place" v="farm" />
		<tag k="ssr:stedsnr" v="378889" />
	</node>
	<node lat="64.88520555629951" lon="13.139191676709583" id="-87542">
		<tag k="name" v="Heggstad" />
		<tag k="place" v="farm" />
		<tag k="ssr:stedsnr" v="379090" />
	</node>
	<node lat="64.87712499906661" lon="13.119622231372002" id="-87543">
		<tag k="alt_name" v="Finnvollan, vestre;Finnvollan vestre" />
		<tag k="name" v="Vestre Finnvollan" />
		<tag k="place" v="farm" />
		<tag k="ssr:stedsnr" v="379094" />
	</node>
	<node lat="64.73551666598966" lon="12.74322500053631" id="-87572">
		<tag k="historic" v="shieling" />
		<tag k="name" v="Lindsetmosetran" />
		<tag k="place" v="isolated_dwelling" />
		<tag k="ssr:stedsnr" v="409353" />
	</node>
	<node lat="64.9055777812749" lon="13.059522225181132" id="-87681">
		<tag k="name" v="Neset" />
		<tag k="place" v="farm" />
		<tag k="ssr:stedsnr" v="500191" />
	</node>
	<node lat="64.90143333021497" lon="13.164022223024595" id="-87683">
		<tag k="name" v="Orheim" />
		<tag k="place" v="farm" />
		<tag k="ssr:stedsnr" v="500096" />
	</node>
	<node lat="65.0333861118656" lon="13.275469435388496" id="-87690">
		<tag k="alt_name" v="Løvmo" />
		<tag k="name" v="Løvmoen" />
		<tag k="place" v="farm" />
		<tag k="ssr:stedsnr" v="500897" />
	</node>
	<node lat="64.92891111232068" lon="13.159405565159428" id="-87693">
		<tag k="name" v="Holmen" />
		<tag k="place" v="neighbourhood" />
		<tag k="ssr:stedsnr" v="525212" />
	</node>
	<node lat="65.0880277817698" lon="13.424236109661896" id="-87717">
		<tag k="fixme" v="consider tourism=alpine_hut or tourism=chalet" />
		<tag k="name" v="Skogstua i Namskroken" />
		<tag k="ssr:stedsnr" v="545583" />
		<tag k="tourism" v="wilderness_hut" />
	</node>
	<node lat="65.05842222550122" lon="13.136277786335059" id="-87718">
		<tag k="fixme" v="consider tourism=alpine_hut or tourism=chalet" />
		<tag k="name" v="Stordalsbua" />
		<tag k="ssr:stedsnr" v="545587" />
		<tag k="tourism" v="wilderness_hut" />
	</node>
	<node lat="64.79632777754692" lon="12.927280559587146" id="-87733">
		<tag k="name" v="Lindmoen" />
		<tag k="place" v="farm" />
		<tag k="ssr:stedsnr" v="682042" />
	</node>
	<node lat="64.89738055418596" lon="13.152927787924177" id="-87739">
		<tag k="alt_name" v="Finnvollen, nordre;Finnvollan nordre;Nordre Finnvollen" />
		<tag k="name" v="Nordre Finnvollan" />
		<tag k="place" v="farm" />
		<tag k="ssr:stedsnr" v="682092" />
	</node>
	<node lat="64.89979166362954" lon="13.16066666488794" id="-87740">
		<tag k="alt_name" v="Østvang" />
		<tag k="name" v="Austvang" />
		<tag k="place" v="farm" />
		<tag k="ssr:stedsnr" v="682094" />
	</node>
	<node lat="64.92252499614094" lon="13.174605555245163" id="-87755">
		<tag k="name" v="Sandstad" />
		<tag k="place" v="locality" />
		<tag k="ssr:stedsnr" v="591285" />
	</node>
	<node lat="64.88698367277611" lon="13.074259543762341" id="-87788">
		<tag k="name" v="Namstad" />
		<tag k="place" v="farm" />
		<tag k="ssr:stedsnr" v="621076" />
	</node>
	<node lat="64.94576944127142" lon="13.193222227711155" id="-87792">
		<tag k="name" v="Bergli" />
		<tag k="place" v="farm" />
		<tag k="ssr:stedsnr" v="621174" />
	</node>
	<node lat="65.09331944360216" lon="13.330988893602562" id="-87800">
		<tag k="name" v="Smalvatnet" />
		<tag k="place" v="farm" />
		<tag k="ssr:stedsnr" v="621723" />
	</node>
	<node lat="64.69110956528027" lon="12.72129067418562" id="-87807">
		<tag k="name" v="Lassemoen" />
		<tag k="place" v="farm" />
		<tag k="ssr:stedsnr" v="693653" />
	</node>
	<node lat="64.75841388936274" lon="12.847800009855007" id="-87845">
		<tag k="alt_name" v="Skarvåssetran" />
		<tag k="name" v="Skarvåssætra" />
		<tag k="place" v="locality" />
		<tag k="ssr:stedsnr" v="682011" />
	</node>
	<node lat="64.72099166739653" lon="12.865152780302495" id="-87861">
		<tag k="name" v="Hestmyrhytta" />
		<tag k="place" v="locality" />
		<tag k="ssr:stedsnr" v="682721" />
	</node>
	<node lat="64.64351389050114" lon="13.100833341360252" id="-87864">
		<tag k="name" v="Myra" />
		<tag k="place" v="neighbourhood" />
		<tag k="ssr:stedsnr" v="707210" />
	</node>
	<node lat="64.89698888977631" lon="13.149988888722103" id="-87870">
		<tag k="alt_name" v="Finnvollan østre" />
		<tag k="name" v="Østre Finnvollan" />
		<tag k="place" v="farm" />
		<tag k="ssr:stedsnr" v="712412" />
	</node>
	<node lat="64.78268611043691" lon="12.890422217347869" id="-87872">
		<tag k="name" v="Elvset" />
		<tag k="place" v="farm" />
		<tag k="ssr:stedsnr" v="713640" />
	</node>
	<node lat="64.73891110838917" lon="12.843491663703757" id="-87888">
		<tag k="amenity" v="school" />
		<tag k="name" v="Trones skole" />
		<tag k="ssr:stedsnr" v="722020" />
	</node>
	<node lat="64.71025555772164" lon="12.777377769994583" id="-87904">
		<tag k="name" v="Bjerkan" />
		<tag k="place" v="farm" />
		<tag k="ssr:stedsnr" v="742644" />
	</node>
	<node lat="64.86393333519175" lon="13.115699997315197" id="-87906">
		<tag k="name" v="Solvang" />
		<tag k="place" v="farm" />
		<tag k="ssr:stedsnr" v="743086" />
	</node>
	<node lat="64.88241944841802" lon="13.131602779718103" id="-87907">
		<tag k="name" v="Sollia" />
		<tag k="place" v="farm" />
		<tag k="ssr:stedsnr" v="743089" />
	</node>
	<node lat="64.86512052036686" lon="12.881902062873287" id="-87909">
		<tag k="name" v="Nessan" />
		<tag k="place" v="farm" />
		<tag k="ssr:stedsnr" v="743093" />
	</node>
	<node lat="64.92054851947825" lon="13.180123206843023" id="-87910">
		<tag k="name" v="Sandåmoen" />
		<tag k="place" v="farm" />
		<tag k="ssr:stedsnr" v="743204" />
	</node>
	<node lat="65.10037499820277" lon="13.346336108608249" id="-87940">
		<tag k="name" v="Engstrømplassen" />
		<tag k="place" v="locality" />
		<tag k="ssr:stedsnr" v="773364" />
	</node>
	<node lat="64.90558055229299" lon="13.171955544853647" id="-87946">
		<tag k="name" v="Velte" />
		<tag k="place" v="locality" />
		<tag k="ssr:stedsnr" v="773417" />
	</node>
	<node lat="64.86510555825633" lon="12.882047224061358" id="-87964">
		<tag k="name" v="Nessan" />
		<tag k="place" v="farm" />
		<tag k="ssr:stedsnr" v="788771" />
	</node>
	<node lat="65.04033373532332" lon="13.286076326010228" id="-87974">
		<tag k="name" v="Mellingsmoen" />
		<tag k="place" v="farm" />
		<tag k="ssr:stedsnr" v="803869" />
	</node>
	<node lat="64.9213666660833" lon="13.172866657329264" id="-87976">
		<tag k="name" v="Skogstad" />
		<tag k="place" v="farm" />
		<tag k="ssr:stedsnr" v="804219" />
	</node>
	<node lat="64.82508055289486" lon="12.919166656497334" id="-88030">
		<tag k="name" v="Domåsen" />
		<tag k="place" v="farm" />
		<tag k="ssr:stedsnr" v="864098" />
	</node>
	<node lat="64.71573143422346" lon="12.791045502301495" id="-88037">
		<tag k="name" v="Kjelmoen" />
		<tag k="place" v="farm" />
		<tag k="ssr:stedsnr" v="864699" />
	</node>
	<node lat="64.63804999819598" lon="13.10851667665458" id="-88038">
		<tag k="name" v="Gruvbyen" />
		<tag k="place" v="neighbourhood" />
		<tag k="ssr:stedsnr" v="889198" />
	</node>
	<node lat="64.64423611267732" lon="13.11169722804863" id="-88039">
		<tag k="name" v="Kleiva" />
		<tag k="place" v="neighbourhood" />
		<tag k="ssr:stedsnr" v="889200" />
	</node>
	<node lat="64.64466944049272" lon="13.116394435583365" id="-88040">
		<tag k="name" v="Lia" />
		<tag k="place" v="neighbourhood" />
		<tag k="ssr:stedsnr" v="889202" />
	</node>
	<node lat="64.84887221829996" lon="13.020422216739389" id="-88061">
		<tag k="name" v="Elvaheim camping" />
		<tag k="ssr:stedsnr" v="904068" />
		<tag k="tourism" v="camp_site" />
	</node>
	<node lat="64.97684444821012" lon="13.047344444360581" id="-88072">
		<tag k="alt_name" v="Holasætran" />
		<tag k="historic" v="shieling" />
		<tag k="name" v="Holosætran" />
		<tag k="place" v="isolated_dwelling" />
		<tag k="ssr:stedsnr" v="925170" />
	</node>
	<node lat="64.91155277860872" lon="13.167019438914226" id="-88073">
		<tag k="name" v="Heggli" />
		<tag k="place" v="farm" />
		<tag k="ssr:stedsnr" v="925172" />
	</node>
	<node lat="64.74216111064601" lon="12.845005549160808" id="-88084">
		<tag k="name" v="Trones" />
		<tag k="place" v="quarter" />
		<tag k="ssr:stedsnr" v="925726" />
	</node>
	<node lat="65.07779166694523" lon="13.31825000259459" id="-88085">
		<tag k="name" v="Alfheim" />
		<tag k="place" v="farm" />
		<tag k="ssr:stedsnr" v="925677" />
	</node>
	<node lat="65.03616388990764" lon="13.277041665531842" id="-88088">
		<tag k="name" v="Voll" />
		<tag k="place" v="isolated_dwelling" />
		<tag k="ssr:stedsnr" v="925906" />
	</node>
	<node lat="64.9313083294365" lon="13.15789165661095" id="-88090">
		<tag k="name" v="Håpnes I" />
		<tag k="place" v="neighbourhood" />
		<tag k="ssr:stedsnr" v="950212" />
	</node>
	<node lat="64.88927222399228" lon="13.146441675539482" id="-88096">
		<tag k="name" v="Nygården" />
		<tag k="place" v="farm" />
		<tag k="ssr:stedsnr" v="955445" />
	</node>
	<node lat="64.88062500211622" lon="13.12732499266869" id="-88097">
		<tag k="name" v="Finnvollan" />
		<tag k="place" v="farm" />
		<tag k="ssr:stedsnr" v="955448" />
	</node>
	<node lat="64.64250461875464" lon="13.113428103704072" id="-88120">
		<tag k="fixme" v="consider tourism=alpine_hut or tourism=chalet" />
		<tag k="name" v="Skorovashøtta" />
		<tag k="ssr:stedsnr" v="973406" />
		<tag k="tourism" v="wilderness_hut" />
	</node>
	<node lat="64.73785832913735" lon="12.980149998199193" id="-88141">
		<tag k="alt_name" v="Tunnsjøplass" />
		<tag k="name" v="Tunnsjødalsplassen" />
		<tag k="place" v="locality" />
		<tag k="ssr:stedsnr" v="14617" />
	</node>
	<node lat="64.89008055516862" lon="13.146905548151409" id="-88148">
		<tag k="name" v="Nystad" />
		<tag k="place" v="farm" />
		<tag k="ssr:stedsnr" v="15090" />
	</node>
	<node lat="64.92882777510793" lon="13.159497218610023" id="-88154">
		<tag k="name" v="Namsskogan" />
		<tag k="place" v="village" />
		<tag k="ssr:stedsnr" v="257196" />
	</node>
	<node lat="64.92530833779296" lon="13.161958325133114" id="-88157">
		<tag k="amenity" v="school" />
		<tag k="name" v="Namsskogan skole" />
		<tag k="ssr:stedsnr" v="42267" />
	</node>
	<node lat="64.90617499714816" lon="13.057638886285092" id="-88208">
		<tag k="name" v="Litldal" />
		<tag k="place" v="farm" />
		<tag k="ssr:stedsnr" v="75169" />
	</node>
	<node lat="64.94224444443667" lon="13.191427779331345" id="-88209">
		<tag k="name" v="Moholt" />
		<tag k="place" v="farm" />
		<tag k="ssr:stedsnr" v="75173" />
	</node>
	<node lat="64.84964531134068" lon="13.076025128895623" id="-88217">
		<tag k="name" v="Myrmo" />
		<tag k="place" v="farm" />
		<tag k="ssr:stedsnr" v="75122" />
	</node>
	<node lat="64.8452722211442" lon="13.050288890746408" id="-88218">
		<tag k="name" v="Granheim" />
		<tag k="place" v="farm" />
		<tag k="ssr:stedsnr" v="75125" />
	</node>
	<node lat="64.95286844495378" lon="13.187151751266384" id="-88221">
		<tag k="name" v="Håpnes" />
		<tag k="place" v="farm" />
		<tag k="ssr:stedsnr" v="75141" />
	</node>
	<node lat="65.08080833693937" lon="13.269261119791949" id="-88227">
		<tag k="name" v="Dale" />
		<tag k="place" v="farm" />
		<tag k="ssr:stedsnr" v="75679" />
	</node>
	<node lat="65.01074878547753" lon="13.252532444063581" id="-88231">
		<tag k="name" v="Vang" />
		<tag k="place" v="farm" />
		<tag k="ssr:stedsnr" v="75884" />
	</node>
	<node lat="65.0527027777186" lon="13.199541657063728" id="-88286">
		<tag k="fixme" v="consider tourism=alpine_hut or tourism=chalet" />
		<tag k="name" v="Storgåsvassbua" />
		<tag k="ssr:stedsnr" v="121614" />
		<tag k="tourism" v="wilderness_hut" />
	</node>
	<node lat="64.93792778015863" lon="13.188305548902731" id="-88295">
		<tag k="name" v="Heimstad" />
		<tag k="place" v="farm" />
		<tag k="ssr:stedsnr" v="135173" />
	</node>
	<node lat="65.08016666627029" lon="13.26216943960067" id="-88303">
		<tag k="name" v="Fløan" />
		<tag k="place" v="farm" />
		<tag k="ssr:stedsnr" v="135616" />
	</node>
	<node lat="65.0616166643826" lon="13.302786103080146" id="-88306">
		<tag k="name" v="Åsnes" />
		<tag k="place" v="farm" />
		<tag k="ssr:stedsnr" v="135636" />
	</node>
	<node lat="64.76578055248949" lon="12.69929999972776" id="-88313">
		<tag k="name" v="Fossbakk" />
		<tag k="place" v="farm" />
		<tag k="ssr:stedsnr" v="136265" />
	</node>
	<node lat="64.74947222112854" lon="12.861036104295657" id="-88319">
		<tag k="name" v="Namsskogan Familiepark" />
		<tag k="ssr:stedsnr" v="147774" />
		<tag k="tourism" v="theme_park" />
	</node>
	<node lat="64.91885000287266" lon="13.230591675400353" id="-88336">
		<tag k="fixme" v="consider tourism=alpine_hut or tourism=chalet" />
		<tag k="name" v="Sandåstua" />
		<tag k="ssr:stedsnr" v="166998" />
		<tag k="tourism" v="wilderness_hut" />
	</node>
	<node lat="64.81734721773422" lon="13.062544447140521" id="-88376">
		<tag k="name" v="Brekka" />
		<tag k="place" v="farm" />
		<tag k="ssr:stedsnr" v="196090" />
	</node>
	<node lat="64.9384194482432" lon="13.172491669069224" id="-88385">
		<tag k="name" v="Håpnesneset" />
		<tag k="ssr:stedsnr" v="197192" />
		<tag k="tourism" v="camp_site" />
	</node>
	<node lat="64.93365000202773" lon="13.181941671235917" id="-88386">
		<tag k="name" v="Haugland" />
		<tag k="place" v="farm" />
		<tag k="ssr:stedsnr" v="197210" />
	</node>
	<node lat="65.01934999708028" lon="13.262613879751326" id="-88393">
		<tag k="name" v="Bjørnstad" />
		<tag k="place" v="farm" />
		<tag k="ssr:stedsnr" v="197853" />
	</node>
	<node lat="65.05367222566183" lon="13.325302777633699" id="-88400">
		<tag k="name" v="Snåsamoen" />
		<tag k="place" v="isolated_dwelling" />
		<tag k="ssr:stedsnr" v="257897" />
	</node>
	<node lat="64.92971388801142" lon="13.155419444598616" id="-88403">
		<tag k="name" v="Håpnestunet" />
		<tag k="place" v="neighbourhood" />
		<tag k="ssr:stedsnr" v="282180" />
	</node>
	<node lat="64.89156111004213" lon="13.14702777854309" id="-88407">
		<tag k="name" v="Kløvermoen" />
		<tag k="place" v="farm" />
		<tag k="ssr:stedsnr" v="288296" />
	</node>
	<node lat="64.72874722610135" lon="12.816166661146239" id="-88458">
		<tag k="name" v="Tromsstad" />
		<tag k="place" v="farm" />
		<tag k="ssr:stedsnr" v="303413" />
	</node>
	<node lat="65.07697500344838" lon="13.331602768064828" id="-88466">
		<tag k="name" v="Solhaug" />
		<tag k="place" v="farm" />
		<tag k="ssr:stedsnr" v="317583" />
	</node>
	<node lat="64.94509444157008" lon="12.848474994024519" id="-88470">
		<tag k="name" v="Grønlihytta" />
		<tag k="place" v="isolated_dwelling" />
		<tag k="ssr:stedsnr" v="318127" />
	</node>
	<node lat="64.90295833158775" lon="13.16587777596672" id="-88472">
		<tag k="alt_name" v="Løvås" />
		<tag k="name" v="Lauvås" />
		<tag k="place" v="farm" />
		<tag k="ssr:stedsnr" v="318145" />
	</node>
	<node lat="64.77964999602841" lon="12.702111110965056" id="-88479">
		<tag k="alt_name" v="Strompdalen, austre" />
		<tag k="name" v="Austre Strompdalen" />
		<tag k="place" v="farm" />
		<tag k="ssr:stedsnr" v="318240" />
	</node>
	<node lat="65.06940555897206" lon="13.334036104883143" id="-88486">
		<tag k="name" v="Sandnes" />
		<tag k="place" v="isolated_dwelling" />
		<tag k="ssr:stedsnr" v="318676" />
	</node>
	<node lat="64.91200833662661" lon="13.083416662792771" id="-88503">
		<tag k="name" v="Åsli" />
		<tag k="place" v="farm" />
		<tag k="ssr:stedsnr" v="349517" />
	</node>
	<node lat="64.68296376752676" lon="12.829158641302216" id="-88520">
		<tag k="name" v="Åsen" />
		<tag k="place" v="farm" />
		<tag k="ssr:stedsnr" v="351747" />
	</node>
	<node lat="64.93930277570277" lon="13.171891659066562" id="-88535">
		<tag k="name" v="Nyheim" />
		<tag k="place" v="farm" />
		<tag k="ssr:stedsnr" v="363386" />
	</node>
	<node lat="64.81646666529356" lon="13.142808332824854" id="-88536">
		<tag k="fixme" v="consider tourism=alpine_hut or tourism=chalet" />
		<tag k="name" v="Tromsdalshytta" />
		<tag k="ssr:stedsnr" v="363554" />
		<tag k="tourism" v="wilderness_hut" />
	</node>
	<node lat="64.65934166795284" lon="12.856955548641535" id="-88547">
		<tag k="name" v="Litlfjellet" />
		<tag k="place" v="farm" />
		<tag k="ssr:stedsnr" v="378381" />
	</node>
	<node lat="64.91160555138192" lon="13.08210833220214" id="-88570">
		<tag k="name" v="Syrstad" />
		<tag k="place" v="farm" />
		<tag k="ssr:stedsnr" v="410466" />
	</node>
	<node lat="64.82945278065681" lon="13.084547218498694" id="-88600">
		<tag k="fixme" v="consider tourism=alpine_hut or tourism=chalet" />
		<tag k="name" v="Westinhytta" />
		<tag k="ssr:stedsnr" v="424588" />
		<tag k="tourism" v="wilderness_hut" />
	</node>
	<node lat="64.84725833570242" lon="13.017938880586817" id="-88601">
		<tag k="name" v="Brekkvasselv" />
		<tag k="place" v="quarter" />
		<tag k="ssr:stedsnr" v="439092" />
	</node>
	<node lat="64.97145803733879" lon="13.21794175233269" id="-88606">
		<tag k="name" v="Stormoen" />
		<tag k="place" v="farm" />
		<tag k="ssr:stedsnr" v="439026" />
	</node>
	<node lat="64.96605833494364" lon="13.30315001001804" id="-88623">
		<tag k="fixme" v="consider tourism=alpine_hut or tourism=chalet" />
		<tag k="name" v="Finntjønnhytta" />
		<tag k="ssr:stedsnr" v="485554" />
		<tag k="tourism" v="wilderness_hut" />
	</node>
	<node lat="64.87265555284193" lon="13.119863893885267" id="-88624">
		<tag k="name" v="Myreng" />
		<tag k="place" v="farm" />
		<tag k="ssr:stedsnr" v="660957" />
	</node>
	<node lat="64.99664166945112" lon="13.251730564391272" id="-88628">
		<tag k="alt_name" v="Sommervoll" />
		<tag k="name" v="Håpnessetran" />
		<tag k="place" v="farm" />
		<tag k="ssr:stedsnr" v="500010" />
	</node>
	<node lat="64.86118611273747" lon="13.10113889444827" id="-88634">
		<tag k="alt_name" v="Stornesset" />
		<tag k="name" v="Storneset" />
		<tag k="place" v="farm" />
		<tag k="ssr:stedsnr" v="500081" />
	</node>
	<node lat="64.69466944631263" lon="12.760805562403188" id="-88638">
		<tag k="name" v="Heimly" />
		<tag k="place" v="neighbourhood" />
		<tag k="ssr:stedsnr" v="500417" />
	</node>
	<node lat="65.06494444367863" lon="13.340733323347113" id="-88643">
		<tag k="name" v="Oddoenget" />
		<tag k="place" v="locality" />
		<tag k="ssr:stedsnr" v="500719" />
	</node>
	<node lat="64.68646111072869" lon="12.821761114924685" id="-88682">
		<tag k="name" v="Borhaugen" />
		<tag k="place" v="farm" />
		<tag k="ssr:stedsnr" v="533770" />
	</node>
	<node lat="65.08894999911104" lon="13.327286112430077" id="-88703">
		<tag k="name" v="Utheim" />
		<tag k="place" v="farm" />
		<tag k="ssr:stedsnr" v="560636" />
	</node>
	<node lat="64.77356388596078" lon="12.690913884506267" id="-88705">
		<tag k="name" v="Finnhusmoen" />
		<tag k="place" v="isolated_dwelling" />
		<tag k="ssr:stedsnr" v="560212" />
	</node>
	<node lat="64.72427322397526" lon="12.791073678254772" id="-88711">
		<tag k="name" v="Lindsetmoen" />
		<tag k="place" v="farm" />
		<tag k="ssr:stedsnr" v="560663" />
	</node>
	<node lat="65.05281111008355" lon="13.135152768748645" id="-88759">
		<tag k="fixme" v="consider tourism=alpine_hut or tourism=chalet" />
		<tag k="name" v="Stordalshytta" />
		<tag k="ssr:stedsnr" v="606596" />
		<tag k="tourism" v="wilderness_hut" />
	</node>
	<node lat="64.82570833476943" lon="13.07078610929452" id="-88764">
		<tag k="name" v="Lundemo" />
		<tag k="place" v="farm" />
		<tag k="ssr:stedsnr" v="621097" />
	</node>
	<node lat="64.84721944339663" lon="13.068974992889677" id="-88766">
		<tag k="alt_name" v="Østjord" />
		<tag k="name" v="Austjord" />
		<tag k="place" v="farm" />
		<tag k="ssr:stedsnr" v="621119" />
	</node>
	<node lat="64.95216111060476" lon="13.199213892783066" id="-88768">
		<tag k="name" v="Nyrud" />
		<tag k="place" v="farm" />
		<tag k="ssr:stedsnr" v="621138" />
	</node>
	<node lat="64.95640985232617" lon="13.191340674216079" id="-88769">
		<tag k="name" v="Aunet" />
		<tag k="place" v="farm" />
		<tag k="ssr:stedsnr" v="621140" />
	</node>
	<node lat="65.08045000209198" lon="13.31540277206016" id="-88783">
		<tag k="name" v="Austre Smalåsen" />
		<tag k="place" v="farm" />
		<tag k="ssr:stedsnr" v="621667" />
	</node>
	<node lat="64.7786572218951" lon="12.700941714430344" id="-88790">
		<tag k="name" v="Strompdalen" />
		<tag k="place" v="farm" />
		<tag k="ssr:stedsnr" v="649283" />
	</node>
	<node lat="64.84596111326395" lon="13.060424995645626" id="-88796">
		<tag k="name" v="Brekkvassmoen" />
		<tag k="place" v="farm" />
		<tag k="ssr:stedsnr" v="652471" />
	</node>
	<node lat="64.84263055257995" lon="13.065166668624212" id="-88797">
		<tag k="name" v="Gammelheimen" />
		<tag k="place" v="locality" />
		<tag k="ssr:stedsnr" v="652473" />
	</node>
	<node lat="64.90724444429878" lon="13.165205561442995" id="-88868">
		<tag k="name" v="Vollan" />
		<tag k="place" v="farm" />
		<tag k="ssr:stedsnr" v="743189" />
	</node>
	<node lat="64.90593449752744" lon="13.077841462527847" id="-88869">
		<tag k="name" v="Bjørtun" />
		<tag k="place" v="farm" />
		<tag k="ssr:stedsnr" v="743191" />
	</node>
	<node lat="64.69298611245624" lon="12.773163882566232" id="-88873">
		<tag k="name" v="Bekkaheimen" />
		<tag k="place" v="farm" />
		<tag k="ssr:stedsnr" v="743382" />
	</node>
	<node lat="64.67881944404787" lon="12.831802770421312" id="-88897">
		<tag k="name" v="Setervollen" />
		<tag k="place" v="farm" />
		<tag k="ssr:stedsnr" v="776733" />
	</node>
	<node lat="65.10210833701164" lon="13.267288892612834" id="-88912">
		<tag k="fixme" v="consider tourism=alpine_hut or tourism=chalet" />
		<tag k="name" v="Storholmhytta" />
		<tag k="ssr:stedsnr" v="788593" />
		<tag k="tourism" v="wilderness_hut" />
	</node>
	<node lat="64.93610833723174" lon="13.185938884233078" id="-88913">
		<tag k="alt_name" v="Myrvold" />
		<tag k="name" v="Myrvoll" />
		<tag k="place" v="farm" />
		<tag k="ssr:stedsnr" v="803189" />
	</node>
	<node lat="64.77639999642184" lon="12.69842222773412" id="-88930">
		<tag k="alt_name" v="Strompdalen, vestre" />
		<tag k="name" v="Vestre Strompdalen" />
		<tag k="place" v="farm" />
		<tag k="ssr:stedsnr" v="804277" />
	</node>
	<node lat="65.01475277631505" lon="13.24742221276456" id="-88933">
		<tag k="name" v="Hovland" />
		<tag k="place" v="farm" />
		<tag k="ssr:stedsnr" v="804845" />
	</node>
	<node lat="65.08516111313452" lon="13.281897214730797" id="-88974">
		<tag k="fixme" v="consider tourism=alpine_hut or tourism=chalet" />
		<tag k="name" v="Mellingenhytta" />
		<tag k="ssr:stedsnr" v="849651" />
		<tag k="tourism" v="wilderness_hut" />
	</node>
	<node lat="65.0919083315609" lon="13.270130563376954" id="-88975">
		<tag k="fixme" v="consider tourism=alpine_hut or tourism=chalet" />
		<tag k="name" v="Langholmhytta" />
		<tag k="ssr:stedsnr" v="849658" />
		<tag k="tourism" v="wilderness_hut" />
	</node>
	<node lat="65.06056389201055" lon="13.214661107872441" id="-88976">
		<tag k="fixme" v="consider tourism=alpine_hut or tourism=chalet" />
		<tag k="name" v="Litlgåsvassbua" />
		<tag k="ssr:stedsnr" v="849660" />
		<tag k="tourism" v="wilderness_hut" />
	</node>
	<node lat="64.95240796447077" lon="13.23216727285738" id="-89006">
		<tag k="name" v="Bergliloddo" />
		<tag k="place" v="locality" />
		<tag k="ssr:stedsnr" v="925053" />
	</node>
	<node lat="64.8872897150024" lon="13.13993576732176" id="-89059">
		<tag k="name" v="Finnvollan" />
		<tag k="place" v="farm" />
		<tag k="ssr:stedsnr" v="971312" />
	</node>
	<node lat="64.99697894959166" lon="13.18162613775552" id="-89061">
		<tag k="name" v="Frøyningsheimen" />
		<tag k="place" v="locality" />
		<tag k="ssr:stedsnr" v="975857" />
	</node>
	<node lat="64.99735482870749" lon="13.180672006823153" id="-89062">
		<tag k="name" v="Bernehytta" />
		<tag k="place" v="locality" />
		<tag k="ssr:stedsnr" v="975858" />
	</node>
	<node lat="64.73855360850503" lon="12.754013917279059" id="-89065">
		<tag k="fixme" v="consider tourism=alpine_hut or tourism=chalet" />
		<tag k="name" v="Osvasstua" />
		<tag k="ssr:stedsnr" v="1080484" />
		<tag k="tourism" v="wilderness_hut" />
	</node>
</osm>
