<?xml version="1.0" encoding="UTF-8"?>
<osm version="0.6" generator="osmapis">
	<node lat="64.69227222205826" lon="12.791916668055524" id="-36043">
		<tag k="name" v="Finnbruøra" />
		<tag k="natural" v="shoal" />
		<tag k="ssr:stedsnr" v="229619" />
	</node>
	<node lat="64.73004444390267" lon="12.69815832317797" id="-36048">
		<tag k="name" v="Setertjønnin" />
		<tag k="natural" v="water" />
		<tag k="ssr:stedsnr" v="230245" />
	</node>
	<node lat="65.04580833225188" lon="13.1100694381438" id="-36050">
		<tag k="name" v="Vesterelva" />
		<tag k="ssr:stedsnr" v="230344" />
		<tag k="waterway" v="river" />
	</node>
	<node lat="64.7899111138591" lon="12.92414999594434" id="-36057">
		<tag k="name" v="Revlingsbekken" />
		<tag k="ssr:stedsnr" v="14007" />
		<tag k="waterway" v="stream" />
	</node>
	<node lat="64.77575000220749" lon="12.726694450931559" id="-36058">
		<tag k="name" v="Skiftesbekken" />
		<tag k="ssr:stedsnr" v="14009" />
		<tag k="waterway" v="stream" />
	</node>
	<node lat="64.74615277931413" lon="12.85385833918415" id="-36069">
		<tag k="name" v="Tronestjønna" />
		<tag k="natural" v="water" />
		<tag k="ssr:stedsnr" v="14622" />
	</node>
	<node lat="64.88257500371088" lon="12.819233330465066" id="-36074">
		<tag k="name" v="Steinåa - Goehpevaajjan johke" />
		<tag k="name:no" v="Steinåa" />
		<tag k="name:sma" v="Goehpevaajjan johke" />
		<tag k="ssr:stedsnr" v="15101" />
		<tag k="waterway" v="river" />
	</node>
	<node lat="64.79384444644725" lon="12.662588899051073" id="-36076">
		<tag k="name" v="Langtjønna" />
		<tag k="natural" v="water" />
		<tag k="ssr:stedsnr" v="15258" />
	</node>
	<node lat="64.67523889030605" lon="12.799294444410387" id="-36077">
		<tag k="name" v="Grøndalselva" />
		<tag k="ssr:stedsnr" v="15408" />
		<tag k="waterway" v="river" />
	</node>
	<node lat="64.67015833469526" lon="12.946413888148573" id="-36078">
		<tag k="name" v="Kvernbekken" />
		<tag k="ssr:stedsnr" v="15412" />
		<tag k="waterway" v="stream" />
	</node>
	<node lat="64.73064999619463" lon="12.627836104576803" id="-36081">
		<tag k="name" v="Finntjønna" />
		<tag k="natural" v="water" />
		<tag k="ssr:stedsnr" v="15920" />
	</node>
	<node lat="64.7255055582795" lon="12.681433337763668" id="-36082">
		<tag k="name" v="Gåsvatnet" />
		<tag k="natural" v="water" />
		<tag k="ssr:stedsnr" v="15921" />
	</node>
	<node lat="65.09423055893411" lon="13.348413878786031" id="-36096">
		<tag k="name" v="Skogstubukta" />
		<tag k="natural" v="bay" />
		<tag k="ssr:stedsnr" v="45328" />
	</node>
	<node lat="65.0420916703842" lon="13.311499998951671" id="-36098">
		<tag k="name" v="Revjarnbekken" />
		<tag k="ssr:stedsnr" v="45371" />
		<tag k="waterway" v="stream" />
	</node>
	<node lat="64.85136666516526" lon="13.083433327537659" id="-36100">
		<tag k="name" v="Tjønnbekken" />
		<tag k="ssr:stedsnr" v="46475" />
		<tag k="waterway" v="stream" />
	</node>
	<node lat="64.85074166467778" lon="13.096527770091896" id="-36101">
		<tag k="name" v="Koksbekken" />
		<tag k="ssr:stedsnr" v="46476" />
		<tag k="waterway" v="stream" />
	</node>
	<node lat="64.89520277972677" lon="13.086438898058676" id="-36102">
		<tag k="name" v="Sagbekken" />
		<tag k="ssr:stedsnr" v="46486" />
		<tag k="waterway" v="stream" />
	</node>
	<node lat="64.83064444801064" lon="13.06314999540597" id="-36103">
		<tag k="name" v="Seriannaskorro" />
		<tag k="ssr:stedsnr" v="46496" />
		<tag k="waterway" v="stream" />
	</node>
	<node lat="64.70856111249392" lon="12.780188882065751" id="-36105">
		<tag k="name" v="Speten" />
		<tag k="natural" v="cape" />
		<tag k="ssr:stedsnr" v="46672" />
	</node>
	<node lat="64.74933889324643" lon="12.828855546416317" id="-36106">
		<tag k="name" v="Skarvdalbekken" />
		<tag k="ssr:stedsnr" v="46692" />
		<tag k="waterway" v="stream" />
	</node>
	<node lat="64.67624999936947" lon="12.950849994067097" id="-36110">
		<tag k="name" v="Kvennelva" />
		<tag k="ssr:stedsnr" v="48407" />
		<tag k="waterway" v="stream" />
	</node>
	<node lat="64.90201944855568" lon="13.228669438414247" id="-36111">
		<tag k="name" v="Oterbekken" />
		<tag k="ssr:stedsnr" v="48383" />
		<tag k="waterway" v="stream" />
	</node>
	<node lat="64.65968333509146" lon="12.885183325467164" id="-36112">
		<tag k="name" v="Finnsela" />
		<tag k="natural" v="water" />
		<tag k="ssr:stedsnr" v="48802" />
		<tag k="water" v="lake" />
	</node>
	<node lat="64.87592777839859" lon="12.868508336513923" id="-36114">
		<tag k="name" v="Langneset" />
		<tag k="natural" v="cape" />
		<tag k="ssr:stedsnr" v="48921" />
	</node>
	<node lat="64.86581111137697" lon="13.234200003711045" id="-36126">
		<tag k="name" v="Kleggtjønna - Golmes-jaevrie" />
		<tag k="name:no" v="Kleggtjønna" />
		<tag k="name:sma" v="Golmes-jaevrie" />
		<tag k="natural" v="water" />
		<tag k="ssr:stedsnr" v="75402" />
	</node>
	<node lat="65.07599999650034" lon="13.111783323609128" id="-36127">
		<tag k="name" v="Stordalselva - Njöölvenjohke" />
		<tag k="name:no" v="Stordalselva" />
		<tag k="name:sma" v="Njöölvenjohke" />
		<tag k="ssr:stedsnr" v="75805" />
		<tag k="waterway" v="river" />
	</node>
	<node lat="64.79039444351196" lon="12.711336108922211" id="-36132">
		<tag k="name" v="Tverrelva" />
		<tag k="ssr:stedsnr" v="76257" />
		<tag k="waterway" v="stream" />
	</node>
	<node lat="65.03387500296847" lon="13.250561104421159" id="-36134">
		<tag k="name" v="Magerfisktjønna" />
		<tag k="natural" v="water" />
		<tag k="ssr:stedsnr" v="106373" />
	</node>
	<node lat="64.79074166359345" lon="12.92818332620042" id="-36138">
		<tag k="name" v="Revlingtjønna" />
		<tag k="natural" v="water" />
		<tag k="ssr:stedsnr" v="107516" />
	</node>
	<node lat="64.83291111322431" lon="13.052666665307456" id="-36139">
		<tag k="name" v="Storflotjønna" />
		<tag k="natural" v="water" />
		<tag k="ssr:stedsnr" v="107471" />
	</node>
	<node lat="65.08816388887526" lon="13.379861115723754" id="-36141">
		<tag k="name" v="Småfisktjønna" />
		<tag k="natural" v="water" />
		<tag k="ssr:stedsnr" v="109324" />
	</node>
	<node lat="64.73188333269798" lon="12.919544436614832" id="-36143">
		<tag k="name" v="Finntjønna" />
		<tag k="natural" v="water" />
		<tag k="ssr:stedsnr" v="109822" />
	</node>
	<node lat="64.72536389030225" lon="12.890766672178598" id="-36144">
		<tag k="name" v="Seterbekken" />
		<tag k="ssr:stedsnr" v="109825" />
		<tag k="waterway" v="stream" />
	</node>
	<node lat="64.84670833003075" lon="13.185400006869862" id="-36161">
		<tag k="name" v="Grytåtjønna" />
		<tag k="natural" v="water" />
		<tag k="ssr:stedsnr" v="135105" />
	</node>
	<node lat="64.83595833745242" lon="13.083083324726278" id="-36162">
		<tag k="alt_name:no" v="Brekkvatnet, store;Store Brekkvatnet" />
		<tag k="alt_name:sma" v="Braahkenjaevrie, st;Braahkenjaevrie Stoerre" />
		<tag k="name" v="Brekkvatnet - Stoerre Braahkenjaevrie" />
		<tag k="name:no" v="Brekkvatnet" />
		<tag k="name:sma" v="Stoerre Braahkenjaevrie" />
		<tag k="natural" v="water" />
		<tag k="ssr:stedsnr" v="135108" />
		<tag k="water" v="lake" />
	</node>
	<node lat="65.07138333177282" lon="13.347052780768776" id="-36165">
		<tag k="name" v="Åsbekken" />
		<tag k="ssr:stedsnr" v="135615" />
		<tag k="waterway" v="stream" />
	</node>
	<node lat="65.09617222133323" lon="13.414544447207557" id="-36167">
		<tag k="name" v="Storelvlitjønna" />
		<tag k="natural" v="water" />
		<tag k="ssr:stedsnr" v="135619" />
	</node>
	<node lat="64.72162500418477" lon="12.945849998095731" id="-36168">
		<tag k="name" v="Gromstadsela" />
		<tag k="place" v="locality" />
		<tag k="ssr:stedsnr" v="135658" />
	</node>
	<node lat="64.74049999982334" lon="12.919852781887839" id="-36169">
		<tag k="name" v="Sønningsvatnet" />
		<tag k="natural" v="water" />
		<tag k="ssr:stedsnr" v="135664" />
	</node>
	<node lat="64.72948611416805" lon="12.735002771836918" id="-36171">
		<tag k="alt_name" v="Lindseta" />
		<tag k="name" v="Lindsetåa" />
		<tag k="ssr:stedsnr" v="136263" />
		<tag k="waterway" v="river" />
	</node>
	<node lat="64.69178610796376" lon="13.067863887148789" id="-36175">
		<tag k="name" v="Småvassfossen" />
		<tag k="natural" v="waterfall" />
		<tag k="ssr:stedsnr" v="136405" />
	</node>
	<node lat="64.67057222498411" lon="13.023747221490158" id="-36176">
		<tag k="name" v="Åttatjønna" />
		<tag k="natural" v="water" />
		<tag k="ssr:stedsnr" v="136415" />
	</node>
	<node lat="65.09740277521819" lon="13.254827776962703" id="-36177">
		<tag k="name" v="Mellingsvatnet - Veelnjesjaevrie" />
		<tag k="name:no" v="Mellingsvatnet" />
		<tag k="name:sma" v="Veelnjesjaevrie" />
		<tag k="natural" v="water" />
		<tag k="ssr:stedsnr" v="136706" />
		<tag k="water" v="lake" />
	</node>
	<node lat="64.97393611531797" lon="13.220566658461312" id="-36181">
		<tag k="name" v="Frøyningsbukta" />
		<tag k="natural" v="bay" />
		<tag k="ssr:stedsnr" v="257045" />
	</node>
	<node lat="64.94455000376381" lon="12.866388884801912" id="-36182">
		<tag k="name" v="Krutjønna - Såålejaevrie" />
		<tag k="name:no" v="Krutjønna" />
		<tag k="name:sma" v="Såålejaevrie" />
		<tag k="natural" v="water" />
		<tag k="ssr:stedsnr" v="257145" />
	</node>
	<node lat="64.99677777654769" lon="13.139638894599079" id="-36183">
		<tag k="name" v="Finnhuselva" />
		<tag k="ssr:stedsnr" v="257152" />
		<tag k="waterway" v="stream" />
	</node>
	<node lat="64.9135361133272" lon="13.193986107965806" id="-36187">
		<tag k="alt_name" v="Sandåa, store;Stor-Sandåa" />
		<tag k="name" v="Sandåa" />
		<tag k="ssr:stedsnr" v="257174" />
		<tag k="waterway" v="river" />
	</node>
	<node lat="64.64387499823683" lon="13.107511119286588" id="-36191">
		<tag k="name" v="Litlskorovatnet" />
		<tag k="natural" v="water" />
		<tag k="ssr:stedsnr" v="257345" />
	</node>
	<node lat="64.64647222386503" lon="13.06331387949485" id="-36192">
		<tag k="name" v="Storskorovatnet - Gierenetjåalhtenjaevrie" />
		<tag k="name:no" v="Storskorovatnet" />
		<tag k="name:sma" v="Gierenetjåalhtenjaevrie" />
		<tag k="natural" v="water" />
		<tag k="ssr:stedsnr" v="257346" />
		<tag k="water" v="lake" />
	</node>
	<node lat="64.88117777402533" lon="13.256736107680238" id="-36194">
		<tag k="name" v="Kjerråtjønnin - Gaallinenjaevrie" />
		<tag k="name:no" v="Kjerråtjønnin" />
		<tag k="name:sma" v="Gaallinenjaevrie" />
		<tag k="natural" v="water" />
		<tag k="ssr:stedsnr" v="257546" />
	</node>
	<node lat="65.08790555886213" lon="13.476844441071878" id="-36196">
		<tag k="name" v="Bleikarelva - Garsejohke" />
		<tag k="name:no" v="Bleikarelva" />
		<tag k="name:sma" v="Garsejohke" />
		<tag k="ssr:stedsnr" v="257683" />
		<tag k="waterway" v="river" />
	</node>
	<node lat="64.863416665251" lon="12.686030558745946" id="-36197">
		<tag k="name" v="Soermesvaajja" />
		<tag k="name:sma" v="Soermesvaajja" />
		<tag k="ssr:stedsnr" v="257830" />
		<tag k="waterway" v="stream" />
	</node>
	<node lat="64.96606110750236" lon="13.223622224621481" id="-36200">
		<tag k="name" v="Storneset" />
		<tag k="natural" v="cape" />
		<tag k="ssr:stedsnr" v="166406" />
	</node>
	<node lat="64.89649722471964" lon="13.071141659111849" id="-36201">
		<tag k="name" v="Litfossen" />
		<tag k="natural" v="waterfall" />
		<tag k="ssr:stedsnr" v="167504" />
	</node>
	<node lat="64.80243610804429" lon="12.901583334498737" id="-36203">
		<tag k="name" v="Skogstubekken" />
		<tag k="ssr:stedsnr" v="168470" />
		<tag k="waterway" v="stream" />
	</node>
	<node lat="64.8705750035229" lon="12.869149995235874" id="-36210">
		<tag k="name" v="Kruneset" />
		<tag k="natural" v="cape" />
		<tag k="ssr:stedsnr" v="169889" />
	</node>
	<node lat="64.78653888549478" lon="12.876747221680755" id="-36212">
		<tag k="name" v="Kvennbekken" />
		<tag k="ssr:stedsnr" v="169901" />
		<tag k="waterway" v="stream" />
	</node>
	<node lat="65.08581666981719" lon="13.273136105143177" id="-36219">
		<tag k="name" v="Gudmundbukta" />
		<tag k="natural" v="bay" />
		<tag k="ssr:stedsnr" v="180722" />
	</node>
	<node lat="64.95681389171465" lon="13.340372222747803" id="-36221">
		<tag k="name" v="Milkjentjønna" />
		<tag k="natural" v="water" />
		<tag k="ssr:stedsnr" v="196033" />
	</node>
	<node lat="64.81595555786987" lon="12.963591658270749" id="-36222">
		<tag k="name" v="Kjelmyrfossen" />
		<tag k="natural" v="waterfall" />
		<tag k="ssr:stedsnr" v="196105" />
	</node>
	<node lat="64.89382500114921" lon="13.154299991626027" id="-36227">
		<tag k="alt_name" v="Fløytarbekken" />
		<tag k="name" v="Fløtarbekken" />
		<tag k="ssr:stedsnr" v="197106" />
		<tag k="waterway" v="stream" />
	</node>
	<node lat="64.91861110990064" lon="13.03555278724522" id="-36228">
		<tag k="name" v="Kjertangen" />
		<tag k="natural" v="cape" />
		<tag k="ssr:stedsnr" v="197176" />
	</node>
	<node lat="64.7840166642289" lon="12.69980000409831" id="-36231">
		<tag k="name" v="Angelbekken" />
		<tag k="ssr:stedsnr" v="197268" />
		<tag k="waterway" v="stream" />
	</node>
	<node lat="65.02079166439265" lon="13.223222214960613" id="-36236">
		<tag k="name" v="Langtjønnbekken" />
		<tag k="ssr:stedsnr" v="197859" />
		<tag k="waterway" v="stream" />
	</node>
	<node lat="65.03760555751413" lon="13.352288898429872" id="-36237">
		<tag k="name" v="Snåsamotjønna" />
		<tag k="natural" v="water" />
		<tag k="ssr:stedsnr" v="197873" />
	</node>
	<node lat="64.97197222542091" lon="13.228325002820885" id="-36243">
		<tag k="name" v="Storbekken" />
		<tag k="ssr:stedsnr" v="227383" />
		<tag k="waterway" v="stream" />
	</node>
	<node lat="64.91257500327991" lon="13.207141663336447" id="-36244">
		<tag k="name" v="Storfossen" />
		<tag k="natural" v="waterfall" />
		<tag k="ssr:stedsnr" v="227397" />
	</node>
	<node lat="64.95518610955482" lon="13.19566666740439" id="-36245">
		<tag k="name" v="Groftneset" />
		<tag k="natural" v="cape" />
		<tag k="ssr:stedsnr" v="227400" />
	</node>
	<node lat="64.90116666882614" lon="13.074283340038365" id="-36246">
		<tag k="name" v="Kjeholmen" />
		<tag k="place" v="islet" />
		<tag k="ssr:stedsnr" v="228495" />
	</node>
	<node lat="64.71151388860558" lon="12.780436102745886" id="-36251">
		<tag k="name" v="Finsholmen" />
		<tag k="place" v="islet" />
		<tag k="ssr:stedsnr" v="229596" />
	</node>
	<node lat="64.99591735146015" lon="13.28390564671531" id="-36260">
		<tag k="name" v="Steinåa" />
		<tag k="ssr:stedsnr" v="257010" />
		<tag k="waterway" v="stream" />
	</node>
	<node lat="64.81935555582645" lon="12.851988878795803" id="-36264">
		<tag k="name" v="Bjørndalstjønnin - Duvriejaavretje" />
		<tag k="name:no" v="Bjørndalstjønnin" />
		<tag k="name:sma" v="Duvriejaavretje" />
		<tag k="natural" v="water" />
		<tag k="ssr:stedsnr" v="257108" />
	</node>
	<node lat="64.86255000174489" lon="13.080594451962483" id="-36266">
		<tag k="name" v="Tronestjønna" />
		<tag k="natural" v="water" />
		<tag k="ssr:stedsnr" v="257061" />
	</node>
	<node lat="64.92012778029205" lon="12.859816668186367" id="-36267">
		<tag k="name" v="Mortenlielva" />
		<tag k="ssr:stedsnr" v="257204" />
		<tag k="waterway" v="stream" />
	</node>
	<node lat="64.85258610713608" lon="12.977733342530367" id="-36268">
		<tag k="alt_name" v="Ytre Fossmoelva;Yttre Fossmoelva" />
		<tag k="name" v="Ytterelva" />
		<tag k="ssr:stedsnr" v="257608" />
		<tag k="waterway" v="river" />
	</node>
	<node lat="65.07820555670646" lon="13.456033333655688" id="-36270">
		<tag k="name" v="Jofossen" />
		<tag k="natural" v="waterfall" />
		<tag k="ssr:stedsnr" v="257675" />
	</node>
	<node lat="64.72434999832217" lon="13.048227778750716" id="-36271">
		<tag k="name" v="Stormosela" />
		<tag k="place" v="locality" />
		<tag k="ssr:stedsnr" v="257702" />
	</node>
	<node lat="65.06934444038738" lon="13.321922216945548" id="-36273">
		<tag k="name" v="Kjerrstadbekken" />
		<tag k="ssr:stedsnr" v="288331" />
		<tag k="waterway" v="stream" />
	</node>
	<node lat="64.90255555977292" lon="13.16756667108376" id="-36276">
		<tag k="name" v="Jensbyggbekken" />
		<tag k="ssr:stedsnr" v="288392" />
		<tag k="waterway" v="stream" />
	</node>
	<node lat="64.92748611101263" lon="13.15499999160324" id="-36277">
		<tag k="name" v="Storholmen" />
		<tag k="place" v="islet" />
		<tag k="ssr:stedsnr" v="288395" />
	</node>
	<node lat="64.82940833687498" lon="13.092775003072058" id="-36280">
		<tag k="name" v="Skogstubekken" />
		<tag k="ssr:stedsnr" v="289487" />
		<tag k="waterway" v="stream" />
	</node>
	<node lat="64.84080833278813" lon="13.0810444407432" id="-36281">
		<tag k="name" v="Finnvollbukta" />
		<tag k="natural" v="bay" />
		<tag k="ssr:stedsnr" v="289496" />
	</node>
	<node lat="64.86795555274428" lon="12.872852780794227" id="-36293">
		<tag k="name" v="Merraneset" />
		<tag k="natural" v="cape" />
		<tag k="ssr:stedsnr" v="290875" />
	</node>
	<node lat="64.85048888503073" lon="13.210719437153026" id="-36297">
		<tag k="name" v="Ner Kleggdaltjønna" />
		<tag k="natural" v="water" />
		<tag k="ssr:stedsnr" v="291389" />
	</node>
	<node lat="64.85187499976702" lon="13.08966110263069" id="-36309">
		<tag k="name" v="Finnvollbekken - Dievienjohke" />
		<tag k="name:no" v="Finnvollbekken" />
		<tag k="name:sma" v="Dievienjohke" />
		<tag k="ssr:stedsnr" v="317103" />
		<tag k="waterway" v="stream" />
	</node>
	<node lat="64.60346944138702" lon="13.06381388465519" id="-36317">
		<tag k="name" v="Gryta" />
		<tag k="natural" v="water" />
		<tag k="ssr:stedsnr" v="318339" />
	</node>
	<node lat="64.98750277772716" lon="13.256275007586321" id="-36321">
		<tag k="name" v="Midtstubekken" />
		<tag k="ssr:stedsnr" v="470338" />
		<tag k="waterway" v="stream" />
	</node>
	<node lat="65.0425472187225" lon="13.246152787313873" id="-36322">
		<tag k="name" v="Lortholet" />
		<tag k="natural" v="water" />
		<tag k="ssr:stedsnr" v="470341" />
	</node>
	<node lat="65.04330832970714" lon="13.25056943542119" id="-36323">
		<tag k="name" v="Grubbtjønna" />
		<tag k="natural" v="water" />
		<tag k="ssr:stedsnr" v="470342" />
	</node>
	<node lat="64.69288333561668" lon="12.690347217534631" id="-36333">
		<tag k="name" v="Tømmerbekken" />
		<tag k="ssr:stedsnr" v="471592" />
		<tag k="waterway" v="stream" />
	</node>
	<node lat="64.70876110807335" lon="12.680577783338585" id="-36334">
		<tag k="name" v="Brattåstjønna" />
		<tag k="natural" v="water" />
		<tag k="ssr:stedsnr" v="471596" />
	</node>
	<node lat="64.776069443484" lon="12.796405560548065" id="-36337">
		<tag k="name" v="Arondalbekken" />
		<tag k="ssr:stedsnr" v="472031" />
		<tag k="waterway" v="stream" />
	</node>
	<node lat="64.81247222037477" lon="13.090036104725044" id="-36340">
		<tag k="name" v="Bergtjønnbekken" />
		<tag k="natural" v="water" />
		<tag k="ssr:stedsnr" v="472248" />
	</node>
	<node lat="64.86932777747401" lon="13.177572212341783" id="-36341">
		<tag k="name" v="Litl-Sandåa" />
		<tag k="ssr:stedsnr" v="472327" />
		<tag k="waterway" v="stream" />
	</node>
	<node lat="64.67260555531907" lon="12.872038883673381" id="-36344">
		<tag k="name" v="Styggdalbekken" />
		<tag k="ssr:stedsnr" v="472749" />
		<tag k="waterway" v="stream" />
	</node>
	<node lat="65.03078889262873" lon="13.248561106541862" id="-36351">
		<tag k="name" v="Magerfisktjønnbekken" />
		<tag k="ssr:stedsnr" v="348310" />
		<tag k="waterway" v="stream" />
	</node>
	<node lat="64.97962221872504" lon="13.22468333806204" id="-36354">
		<tag k="name" v="Frøyningsbukta" />
		<tag k="natural" v="bay" />
		<tag k="ssr:stedsnr" v="348377" />
	</node>
	<node lat="64.86342499969133" lon="13.107858334574626" id="-36357">
		<tag k="name" v="Storneset" />
		<tag k="natural" v="cape" />
		<tag k="ssr:stedsnr" v="349510" />
	</node>
	<node lat="64.86560277873957" lon="13.103925007072919" id="-36358">
		<tag k="name" v="Stornesbekken" />
		<tag k="ssr:stedsnr" v="349512" />
		<tag k="waterway" v="stream" />
	</node>
	<node lat="64.69149444242531" lon="12.80582499194691" id="-36362">
		<tag k="name" v="Litlåa" />
		<tag k="ssr:stedsnr" v="350587" />
		<tag k="waterway" v="stream" />
	</node>
	<node lat="64.97919999636532" lon="13.22510554994153" id="-36366">
		<tag k="name" v="Frøyningsbuktodden" />
		<tag k="natural" v="cape" />
		<tag k="ssr:stedsnr" v="357954" />
	</node>
	<node lat="64.94956307610944" lon="13.116171645570015" id="-36377">
		<tag k="name" v="Frøyningselva - Freavnanjohke" />
		<tag k="name:no" v="Frøyningselva" />
		<tag k="name:sma" v="Freavnanjohke" />
		<tag k="ssr:stedsnr" v="378115" />
		<tag k="waterway" v="river" />
	</node>
	<node lat="64.8308833376299" lon="12.709069448575416" id="-36378">
		<tag k="name" v="Litlåtjønnin" />
		<tag k="natural" v="water" />
		<tag k="ssr:stedsnr" v="378204" />
	</node>
	<node lat="64.93892499823123" lon="13.006252780307795" id="-36380">
		<tag k="alt_name" v="Bjørhusdalelva, litle;Litl Bjørhusdalelva;Litle Bjørhusdalelva" />
		<tag k="name" v="Litlbjørhusdalelva" />
		<tag k="ssr:stedsnr" v="378173" />
		<tag k="waterway" v="river" />
	</node>
	<node lat="64.71288611308961" lon="13.051850002802713" id="-36385">
		<tag k="name" v="Hølbekksela" />
		<tag k="place" v="locality" />
		<tag k="ssr:stedsnr" v="378680" />
	</node>
	<node lat="64.9489861103354" lon="13.183761111217938" id="-36393">
		<tag k="name" v="Storholmen" />
		<tag k="place" v="islet" />
		<tag k="ssr:stedsnr" v="409405" />
	</node>
	<node lat="64.96596111029653" lon="13.227519453397628" id="-36396">
		<tag k="name" v="Lilonet" />
		<tag k="natural" v="water" />
		<tag k="ssr:stedsnr" v="409392" />
		<tag k="water" v="lake" />
	</node>
	<node lat="64.81681111398919" lon="12.949858339033861" id="-36400">
		<tag k="name" v="Liabekken" />
		<tag k="ssr:stedsnr" v="410493" />
		<tag k="waterway" v="stream" />
	</node>
	<node lat="64.69707777657545" lon="12.726044435289179" id="-36401">
		<tag k="name" v="Kvennbekken" />
		<tag k="ssr:stedsnr" v="410621" />
		<tag k="waterway" v="stream" />
	</node>
	<node lat="64.66813888646516" lon="13.002061103522395" id="-36403">
		<tag k="name" v="Revhibekken" />
		<tag k="ssr:stedsnr" v="411155" />
		<tag k="waterway" v="stream" />
	</node>
	<node lat="64.98666111546248" lon="13.209024999386475" id="-36405">
		<tag k="name" v="Naustbukta" />
		<tag k="natural" v="bay" />
		<tag k="ssr:stedsnr" v="411346" />
	</node>
	<node lat="64.78709166243564" lon="12.731500000735121" id="-36408">
		<tag k="name" v="Røddiurdbekken" />
		<tag k="ssr:stedsnr" v="412014" />
		<tag k="waterway" v="stream" />
	</node>
	<node lat="64.84773611329547" lon="12.887238898357442" id="-36414">
		<tag k="name" v="Storholmen" />
		<tag k="place" v="islet" />
		<tag k="ssr:stedsnr" v="412912" />
	</node>
	<node lat="64.61688333530957" lon="12.965183334438407" id="-36432">
		<tag k="name" v="Grøndalsvatnet - Kroentejaevrie" />
		<tag k="name:no" v="Grøndalsvatnet" />
		<tag k="name:sma" v="Kroentejaevrie" />
		<tag k="natural" v="water" />
		<tag k="ssr:stedsnr" v="439306" />
		<tag k="water" v="lake" />
	</node>
	<node lat="65.04508333096018" lon="13.252449994614073" id="-36434">
		<tag k="name" v="Grubbtjønna" />
		<tag k="natural" v="water" />
		<tag k="ssr:stedsnr" v="439643" />
	</node>
	<node lat="65.04111666821625" lon="13.289163892161776" id="-36444">
		<tag k="name" v="Kvennbekken" />
		<tag k="ssr:stedsnr" v="470325" />
		<tag k="waterway" v="stream" />
	</node>
	<node lat="64.74804999986088" lon="12.880641664493945" id="-36447">
		<tag k="name" v="Storholmen" />
		<tag k="place" v="islet" />
		<tag k="ssr:stedsnr" v="470612" />
	</node>
	<node lat="64.82857500176137" lon="13.072958325931177" id="-36449">
		<tag k="name" v="Brekkabekken" />
		<tag k="ssr:stedsnr" v="471480" />
		<tag k="waterway" v="stream" />
	</node>
	<node lat="64.7764055544359" lon="12.917891661169474" id="-36450">
		<tag k="name" v="Romstadtjønna" />
		<tag k="natural" v="water" />
		<tag k="ssr:stedsnr" v="471508" />
	</node>
	<node lat="64.71306111259214" lon="12.66962500316114" id="-36451">
		<tag k="name" v="Lustjønna" />
		<tag k="natural" v="water" />
		<tag k="ssr:stedsnr" v="472066" />
	</node>
	<node lat="64.8489999956286" lon="12.755255564273032" id="-36455">
		<tag k="name" v="Lindsetvatnet - Stoerrejaevrie" />
		<tag k="name:no" v="Lindsetvatnet" />
		<tag k="name:sma" v="Stoerrejaevrie" />
		<tag k="natural" v="water" />
		<tag k="ssr:stedsnr" v="691532" />
		<tag k="water" v="lake" />
	</node>
	<node lat="64.98944999669129" lon="13.224736114529792" id="-36466">
		<tag k="name" v="Svartåstjønna" />
		<tag k="natural" v="water" />
		<tag k="ssr:stedsnr" v="681002" />
	</node>
	<node lat="64.97476666555785" lon="13.031869443416419" id="-36467">
		<tag k="alt_name" v="Sæterbekken" />
		<tag k="name" v="Seterbekken" />
		<tag k="ssr:stedsnr" v="499114" />
		<tag k="waterway" v="stream" />
	</node>
	<node lat="64.80153055497864" lon="13.108419434287393" id="-36469">
		<tag k="alt_name" v="Bjønnlitjønna" />
		<tag k="name" v="Bjørnlitjønna" />
		<tag k="natural" v="water" />
		<tag k="ssr:stedsnr" v="500034" />
	</node>
	<node lat="64.84908888612239" lon="12.899158323053461" id="-36472">
		<tag k="alt_name" v="Rapbekken" />
		<tag k="name" v="Rappbekken" />
		<tag k="ssr:stedsnr" v="500083" />
		<tag k="waterway" v="stream" />
	</node>
	<node lat="64.93771944254405" lon="12.865761111309638" id="-36476">
		<tag k="name" v="Mortenlitjønna" />
		<tag k="natural" v="water" />
		<tag k="ssr:stedsnr" v="500198" />
	</node>
	<node lat="64.60780278146845" lon="13.10733611244251" id="-36477">
		<tag k="alt_name" v="Øverste Nesåvatnet" />
		<tag k="name" v="Gruvvatnet" />
		<tag k="natural" v="water" />
		<tag k="ssr:stedsnr" v="500404" />
		<tag k="water" v="lake" />
	</node>
	<node lat="65.01933610836468" lon="13.168074997753333" id="-36478">
		<tag k="name" v="Storflyin" />
		<tag k="natural" v="water" />
		<tag k="ssr:stedsnr" v="500609" />
	</node>
	<node lat="65.00791666397858" lon="13.189111108868984" id="-36479">
		<tag k="name" v="Helmertjønna" />
		<tag k="natural" v="water" />
		<tag k="ssr:stedsnr" v="500787" />
	</node>
	<node lat="64.73245032926586" lon="12.66758295682215" id="-36480">
		<tag k="name" v="Forrotjønna" />
		<tag k="natural" v="water" />
		<tag k="ssr:stedsnr" v="500929" />
	</node>
	<node lat="65.01670833010934" lon="13.350922221939825" id="-36481">
		<tag k="name" v="Telttjønna" />
		<tag k="natural" v="water" />
		<tag k="ssr:stedsnr" v="500889" />
	</node>
	<node lat="65.02995316046919" lon="13.23926385581123" id="-36483">
		<tag k="loc_name" v="Storflya" />
		<tag k="name" v="Storflyin" />
		<tag k="natural" v="water" />
		<tag k="ssr:stedsnr" v="500898" />
	</node>
	<node lat="64.75818333456107" lon="12.936925009083385" id="-36489">
		<tag k="name" v="Litlåtjønna" />
		<tag k="natural" v="water" />
		<tag k="ssr:stedsnr" v="682010" />
	</node>
	<node lat="64.75515833292596" lon="13.059644442763124" id="-36491">
		<tag k="name" v="Skardtjønna" />
		<tag k="natural" v="water" />
		<tag k="ssr:stedsnr" v="682015" />
	</node>
	<node lat="64.75705000059777" lon="12.739708327040125" id="-36493">
		<tag k="name" v="Klumplitjønna" />
		<tag k="natural" v="water" />
		<tag k="ssr:stedsnr" v="682020" />
	</node>
	<node lat="64.76485000038787" lon="12.954441665402555" id="-36494">
		<tag k="name" v="Hanshusbekken" />
		<tag k="ssr:stedsnr" v="682024" />
		<tag k="waterway" v="stream" />
	</node>
	<node lat="64.77205277666549" lon="12.799038881729128" id="-36495">
		<tag k="fixme" v="multiple name tags, choose one and add the other to alt_name" />
		<tag k="name" v="Råelva;Ausvasselva" />
		<tag k="ssr:stedsnr" v="682026" />
		<tag k="waterway" v="stream" />
	</node>
	<node lat="64.78183333508214" lon="12.66325277727026" id="-36507">
		<tag k="name" v="Skjeftmyrbekken" />
		<tag k="ssr:stedsnr" v="682265" />
		<tag k="waterway" v="stream" />
	</node>
	<node lat="64.77034444091102" lon="12.570369434688752" id="-36508">
		<tag k="name" v="Urdtjønna - Skåvnjajaevrie" />
		<tag k="name:no" v="Urdtjønna" />
		<tag k="name:sma" v="Skåvnjajaevrie" />
		<tag k="natural" v="water" />
		<tag k="ssr:stedsnr" v="682275" />
	</node>
	<node lat="64.85868333452403" lon="13.221130550376872" id="-36509">
		<tag k="alt_name:sma" v="Golmes-jaevrie" />
		<tag k="name" v="Midter Kleggtjønna - Golmejaevrie" />
		<tag k="name:no" v="Midter Kleggtjønna" />
		<tag k="name:sma" v="Golmejaevrie" />
		<tag k="natural" v="water" />
		<tag k="ssr:stedsnr" v="682432" />
	</node>
	<node lat="64.93880833005899" lon="12.93024999753452" id="-36510">
		<tag k="name" v="Skarvdalsbekken" />
		<tag k="ssr:stedsnr" v="682588" />
		<tag k="waterway" v="stream" />
	</node>
	<node lat="65.02779444275342" lon="13.30277499323675" id="-36512">
		<tag k="name" v="Setertjønna" />
		<tag k="natural" v="water" />
		<tag k="ssr:stedsnr" v="682887" />
	</node>
	<node lat="65.02287499907533" lon="13.241597215300093" id="-36513">
		<tag k="name" v="Storfisktjønna" />
		<tag k="natural" v="water" />
		<tag k="ssr:stedsnr" v="682888" />
	</node>
	<node lat="64.95986111534955" lon="13.205886115574605" id="-36516">
		<tag k="name" v="Storneset" />
		<tag k="natural" v="cape" />
		<tag k="ssr:stedsnr" v="530416" />
	</node>
	<node lat="65.0303805531351" lon="13.347177772163986" id="-36518">
		<tag k="name" v="Midtitjønna" />
		<tag k="natural" v="water" />
		<tag k="ssr:stedsnr" v="530372" />
	</node>
	<node lat="64.85211944735018" lon="13.007833331815043" id="-36521">
		<tag k="name" v="Storbekken" />
		<tag k="ssr:stedsnr" v="531520" />
		<tag k="waterway" v="stream" />
	</node>
	<node lat="64.98202499569541" lon="13.166958335977224" id="-36522">
		<tag k="name" v="Sundet" />
		<tag k="natural" v="strait" />
		<tag k="ssr:stedsnr" v="532320" />
	</node>
	<node lat="65.09432777385854" lon="13.340736100955484" id="-36525">
		<tag k="name" v="Skogstutangen" />
		<tag k="natural" v="cape" />
		<tag k="ssr:stedsnr" v="532484" />
	</node>
	<node lat="65.08482222258826" lon="13.27536667158644" id="-36528">
		<tag k="name" v="Bekkstrømberget" />
		<tag k="natural" v="cape" />
		<tag k="ssr:stedsnr" v="533314" />
	</node>
	<node lat="65.09452500357256" lon="13.227947216612916" id="-36530">
		<tag k="name" v="Rapbekken" />
		<tag k="ssr:stedsnr" v="533335" />
		<tag k="waterway" v="stream" />
	</node>
	<node lat="64.76635555497472" lon="12.815541659882102" id="-36537">
		<tag k="name" v="Svartholet" />
		<tag k="natural" v="water" />
		<tag k="ssr:stedsnr" v="560011" />
	</node>
	<node lat="64.952374999854" lon="12.842649993741794" id="-36538">
		<tag k="name" v="Langtjønna - Guhkiesjaevrie" />
		<tag k="name:no" v="Langtjønna" />
		<tag k="name:sma" v="Guhkiesjaevrie" />
		<tag k="natural" v="water" />
		<tag k="ssr:stedsnr" v="560105" />
	</node>
	<node lat="64.85474999975693" lon="13.277538887505282" id="-36542">
		<tag k="name" v="Kleivbekken" />
		<tag k="name:no" v="Kleivbekken" />
		<tag k="ssr:stedsnr" v="560388" />
		<tag k="waterway" v="stream" />
	</node>
	<node lat="64.89266666417518" lon="13.273363882591632" id="-36543">
		<tag k="name" v="Sierkesjohke" />
		<tag k="name:sma" v="Sierkesjohke" />
		<tag k="ssr:stedsnr" v="560489" />
		<tag k="waterway" v="river" />
	</node>
	<node lat="65.0832833327068" lon="13.428711107792534" id="-36544">
		<tag k="name" v="Namskroken - Nåamesjenmåelhkie" />
		<tag k="name:no" v="Namskroken" />
		<tag k="name:sma" v="Nåamesjenmåelhkie" />
		<tag k="place" v="locality" />
		<tag k="ssr:stedsnr" v="560633" />
	</node>
	<node lat="65.06853888546763" lon="13.318686114171722" id="-36546">
		<tag k="name" v="Mellingselva" />
		<tag k="ssr:stedsnr" v="560637" />
		<tag k="waterway" v="river" />
	</node>
	<node lat="65.09677500310973" lon="13.26523889365162" id="-36549">
		<tag k="name" v="Kjeholmen" />
		<tag k="place" v="islet" />
		<tag k="ssr:stedsnr" v="588809" />
	</node>
	<node lat="64.76689444874805" lon="12.815886102340917" id="-36550">
		<tag k="name" v="Lusholet" />
		<tag k="natural" v="water" />
		<tag k="ssr:stedsnr" v="591303" />
	</node>
	<node lat="65.03862499796452" lon="13.265425001855204" id="-36553">
		<tag k="name" v="Fiskløysbekken" />
		<tag k="ssr:stedsnr" v="591353" />
		<tag k="waterway" v="stream" />
	</node>
	<node lat="64.98341388835183" lon="13.164391659373363" id="-36556">
		<tag k="name" v="Sundbukta" />
		<tag k="natural" v="bay" />
		<tag k="ssr:stedsnr" v="592353" />
	</node>
	<node lat="64.74041944286475" lon="12.854683332660272" id="-36558">
		<tag k="name" v="Tronesholmen" />
		<tag k="place" v="islet" />
		<tag k="ssr:stedsnr" v="592668" />
	</node>
	<node lat="64.736397221142" lon="12.850161118303028" id="-36559">
		<tag k="name" v="Tronesfossen" />
		<tag k="natural" v="waterfall" />
		<tag k="ssr:stedsnr" v="592669" />
	</node>
	<node lat="65.0861916697539" lon="13.340061114575615" id="-36560">
		<tag k="name" v="Vika" />
		<tag k="natural" v="bay" />
		<tag k="ssr:stedsnr" v="592801" />
	</node>
	<node lat="64.95235277741446" lon="12.994758339732583" id="-36562">
		<tag k="name" v="Setertjønna" />
		<tag k="natural" v="water" />
		<tag k="ssr:stedsnr" v="593860" />
	</node>
	<node lat="64.9018861120933" lon="12.849708337113954" id="-36563">
		<tag k="name" v="Seterfossan" />
		<tag k="natural" v="waterfall" />
		<tag k="ssr:stedsnr" v="593864" />
	</node>
	<node lat="64.71955277634056" lon="12.908019447977903" id="-36568">
		<tag k="name" v="Seterfossen" />
		<tag k="natural" v="waterfall" />
		<tag k="ssr:stedsnr" v="594760" />
	</node>
	<node lat="64.87926944405116" lon="12.766188891677926" id="-36580">
		<tag k="name" v="Bjørelvtjønna" />
		<tag k="natural" v="water" />
		<tag k="ssr:stedsnr" v="621073" />
	</node>
	<node lat="64.81446111238357" lon="13.026880552708171" id="-36582">
		<tag k="name" v="Kvenntjønnbekken" />
		<tag k="ssr:stedsnr" v="621090" />
		<tag k="waterway" v="stream" />
	</node>
	<node lat="64.53831944071113" lon="13.04756943943437" id="-36587">
		<tag k="name" v="Lievkiesåej-tjonne" />
		<tag k="name:sma" v="Lievkiesåej-tjonne" />
		<tag k="natural" v="water" />
		<tag k="ssr:stedsnr" v="621317" />
	</node>
	<node lat="65.01846666773727" lon="13.181819454322573" id="-36591">
		<tag k="name" v="Svartholet" />
		<tag k="natural" v="water" />
		<tag k="ssr:stedsnr" v="621581" />
	</node>
	<node lat="65.09505555503947" lon="13.271144433733044" id="-36592">
		<tag k="name" v="Langholmen" />
		<tag k="place" v="islet" />
		<tag k="ssr:stedsnr" v="621720" />
	</node>
	<node lat="65.10513333644846" lon="13.233199997597197" id="-36595">
		<tag k="name" v="Jervheimbukta" />
		<tag k="natural" v="bay" />
		<tag k="ssr:stedsnr" v="621730" />
	</node>
	<node lat="64.73874167005522" lon="12.682922231608883" id="-36598">
		<tag k="name" v="Svarttjønna" />
		<tag k="natural" v="water" />
		<tag k="ssr:stedsnr" v="621902" />
	</node>
	<node lat="64.84300278123958" lon="13.123286107756405" id="-36603">
		<tag k="name" v="Grytådammen" />
		<tag k="ssr:stedsnr" v="652418" />
		<tag k="waterway" v="dam" />
	</node>
	<node lat="64.90506389112623" lon="13.053436120357683" id="-36607">
		<tag k="name" v="Kvennbekken" />
		<tag k="ssr:stedsnr" v="652309" />
		<tag k="waterway" v="stream" />
	</node>
	<node lat="64.76911389165569" lon="12.946200009139867" id="-36613">
		<tag k="name" v="Josefinmyrbekken" />
		<tag k="ssr:stedsnr" v="652485" />
		<tag k="waterway" v="stream" />
	</node>
	<node lat="64.79849444472208" lon="12.673988891591046" id="-36626">
		<tag k="name" v="Rundtjønna" />
		<tag k="natural" v="water" />
		<tag k="ssr:stedsnr" v="682218" />
	</node>
	<node lat="64.81476388739624" lon="12.662480552402192" id="-36628">
		<tag k="name" v="Storfisktjønna - Njuanajaevrie" />
		<tag k="name:no" v="Storfisktjønna" />
		<tag k="name:sma" v="Njuanajaevrie" />
		<tag k="natural" v="water" />
		<tag k="ssr:stedsnr" v="682238" />
	</node>
	<node lat="64.96690555345535" lon="12.957880555871384" id="-36630">
		<tag k="name" v="Tverrdalstjønna" />
		<tag k="natural" v="water" />
		<tag k="ssr:stedsnr" v="682170" />
	</node>
	<node lat="65.05747778008202" lon="13.256302775321215" id="-36631">
		<tag k="name" v="Fisktjønna" />
		<tag k="natural" v="water" />
		<tag k="ssr:stedsnr" v="682706" />
	</node>
	<node lat="64.83019166512727" lon="13.074086106646753" id="-36641">
		<tag k="name" v="Brekkabukta" />
		<tag k="natural" v="bay" />
		<tag k="ssr:stedsnr" v="896491" />
	</node>
	<node lat="64.99404444452173" lon="13.217605562023257" id="-36652">
		<tag k="name" v="Svartbukta" />
		<tag k="natural" v="bay" />
		<tag k="ssr:stedsnr" v="713376" />
	</node>
	<node lat="64.9856500023388" lon="13.017227772532365" id="-36663">
		<tag k="name" v="Finnkruelva" />
		<tag k="ssr:stedsnr" v="742132" />
		<tag k="waterway" v="stream" />
	</node>
	<node lat="64.77899999927497" lon="12.708297223278908" id="-36669">
		<tag k="name" v="Strompdalselva - Rasnejællanjohke" />
		<tag k="name:no" v="Strompdalselva" />
		<tag k="name:sma" v="Rasnejællanjohke" />
		<tag k="ssr:stedsnr" v="743278" />
		<tag k="waterway" v="river" />
	</node>
	<node lat="64.69795555230212" lon="12.805169454112553" id="-36674">
		<tag k="name" v="Bekkatjønna" />
		<tag k="natural" v="water" />
		<tag k="ssr:stedsnr" v="743381" />
	</node>
	<node lat="64.69071111437201" lon="13.00093333257857" id="-36677">
		<tag k="name" v="Halldortjønna" />
		<tag k="natural" v="water" />
		<tag k="ssr:stedsnr" v="743393" />
	</node>
	<node lat="65.1076333329546" lon="13.23756665891598" id="-36678">
		<tag k="name" v="Jervheimtangen" />
		<tag k="natural" v="cape" />
		<tag k="ssr:stedsnr" v="743688" />
	</node>
	<node lat="65.03573055513823" lon="13.237494447791848" id="-36686">
		<tag k="name" v="Gåsvasselva" />
		<tag k="ssr:stedsnr" v="905741" />
		<tag k="waterway" v="river" />
	</node>
	<node lat="65.07668611201846" lon="13.294058335815556" id="-36687">
		<tag k="name" v="Mellingselva" />
		<tag k="ssr:stedsnr" v="773373" />
		<tag k="waterway" v="river" />
	</node>
	<node lat="65.08249444551195" lon="13.318100003812784" id="-36688">
		<tag k="name" v="Litltjønnbekken" />
		<tag k="ssr:stedsnr" v="773381" />
		<tag k="waterway" v="stream" />
	</node>
	<node lat="64.96029722134347" lon="13.18730278152882" id="-36695">
		<tag k="name" v="Sandaurbekken" />
		<tag k="ssr:stedsnr" v="773411" />
		<tag k="waterway" v="stream" />
	</node>
	<node lat="64.75671666296626" lon="12.85786667347809" id="-36698">
		<tag k="name" v="Trongfossen" />
		<tag k="natural" v="waterfall" />
		<tag k="ssr:stedsnr" v="774669" />
	</node>
	<node lat="64.95587221873207" lon="13.230500000370126" id="-36701">
		<tag k="name" v="Skarbekken" />
		<tag k="ssr:stedsnr" v="776410" />
		<tag k="waterway" v="stream" />
	</node>
	<node lat="64.71503333679479" lon="12.825913887801672" id="-36702">
		<tag k="name" v="Bjørkmofossan" />
		<tag k="natural" v="waterfall" />
		<tag k="ssr:stedsnr" v="776752" />
	</node>
	<node lat="64.78430555564945" lon="12.99738611618361" id="-36716">
		<tag k="name" v="Setertjønnin - Sieteretjonneh" />
		<tag k="name:no" v="Setertjønnin" />
		<tag k="name:sma" v="Sieteretjonneh" />
		<tag k="natural" v="water" />
		<tag k="ssr:stedsnr" v="803015" />
	</node>
	<node lat="64.79179444192214" lon="13.04383332517324" id="-36717">
		<tag k="name" v="Høttbakktjønna" />
		<tag k="natural" v="water" />
		<tag k="ssr:stedsnr" v="803018" />
	</node>
	<node lat="64.79602500109993" lon="13.002688885708755" id="-36718">
		<tag k="name" v="Steinbakkvatnet" />
		<tag k="natural" v="water" />
		<tag k="ssr:stedsnr" v="803024" />
	</node>
	<node lat="64.72403611294139" lon="13.01843333480952" id="-36719">
		<tag k="fixme" v="multiple name tags, choose one and add the other to alt_name" />
		<tag k="name" v="Emmingholet;Stormolonet" />
		<tag k="natural" v="water" />
		<tag k="ssr:stedsnr" v="803656" />
	</node>
	<node lat="64.71783610727717" lon="12.848625008216334" id="-36720">
		<tag k="alt_name" v="Storselen" />
		<tag k="name" v="Storsela" />
		<tag k="place" v="locality" />
		<tag k="ssr:stedsnr" v="803665" />
	</node>
	<node lat="64.76953055524311" lon="13.04900277829885" id="-36722">
		<tag k="alt_name" v="Litltromselva" />
		<tag k="name" v="Litltromsa" />
		<tag k="ssr:stedsnr" v="804008" />
		<tag k="waterway" v="river" />
	</node>
	<node lat="64.77472500407292" lon="12.959258341590898" id="-36723">
		<tag k="name" v="Josefmyrbekken" />
		<tag k="ssr:stedsnr" v="804026" />
		<tag k="waterway" v="stream" />
	</node>
	<node lat="65.05385000020476" lon="13.29093055355023" id="-36726">
		<tag k="name" v="Storbekken" />
		<tag k="ssr:stedsnr" v="804766" />
		<tag k="waterway" v="stream" />
	</node>
	<node lat="64.83080278154577" lon="13.032049999114092" id="-36727">
		<tag k="name" v="Gåstjønna" />
		<tag k="natural" v="water" />
		<tag k="ssr:stedsnr" v="924088" />
	</node>
	<node lat="64.8042027802592" lon="12.652902781245919" id="-36733">
		<tag k="name" v="Lindsetnesbekken" />
		<tag k="ssr:stedsnr" v="837011" />
		<tag k="waterway" v="stream" />
	</node>
	<node lat="64.71653611248259" lon="12.8528444474551" id="-36737">
		<tag k="name" v="Storfossen" />
		<tag k="natural" v="waterfall" />
		<tag k="ssr:stedsnr" v="837776" />
	</node>
	<node lat="64.99694722582977" lon="12.988738886616716" id="-36738">
		<tag k="name" v="Nylodonessa" />
		<tag k="natural" v="water" />
		<tag k="ssr:stedsnr" v="837905" />
		<tag k="water" v="lake" />
	</node>
	<node lat="64.7741361130489" lon="12.971174992033875" id="-36742">
		<tag k="name" v="Litlåa" />
		<tag k="ssr:stedsnr" v="925030" />
		<tag k="waterway" v="stream" />
	</node>
	<node lat="64.97414444869928" lon="13.2246833281751" id="-36743">
		<tag k="name" v="Storholmen" />
		<tag k="place" v="islet" />
		<tag k="ssr:stedsnr" v="925070" />
	</node>
	<node lat="64.88994166836824" lon="13.208600002896226" id="-36748">
		<tag k="alt_name" v="Sponstjønna" />
		<tag k="name" v="Spunstjønna" />
		<tag k="natural" v="water" />
		<tag k="ssr:stedsnr" v="925091" />
	</node>
	<node lat="64.80613332986772" lon="12.96804999917381" id="-36750">
		<tag k="name" v="Skogstubekken" />
		<tag k="ssr:stedsnr" v="925114" />
		<tag k="waterway" v="stream" />
	</node>
	<node lat="64.82189166609825" lon="12.752613882048484" id="-36755">
		<tag k="name" v="Spåajmevaajjanjohke" />
		<tag k="name:sma" v="Spåajmevaajjanjohke" />
		<tag k="ssr:stedsnr" v="925129" />
		<tag k="waterway" v="stream" />
	</node>
	<node lat="65.06946349477313" lon="13.205589835039468" id="-36769">
		<tag k="alt_name:no" v="Austre Gåsvatnet" />
		<tag k="name" v="Litlgåsvatnet - Ohtjereetjke" />
		<tag k="name:no" v="Litlgåsvatnet" />
		<tag k="name:sma" v="Ohtjereetjke" />
		<tag k="natural" v="water" />
		<tag k="ssr:stedsnr" v="925548" />
		<tag k="water" v="lake" />
	</node>
	<node lat="65.05943333725907" lon="13.133430563347073" id="-36771">
		<tag k="name" v="Stordalsvatnet" />
		<tag k="natural" v="water" />
		<tag k="ssr:stedsnr" v="925561" />
	</node>
	<node lat="65.07351111556056" lon="13.310269439037262" id="-36773">
		<tag k="name" v="Litlelva" />
		<tag k="ssr:stedsnr" v="925685" />
		<tag k="waterway" v="stream" />
	</node>
	<node lat="65.06127500296094" lon="13.365719436052208" id="-36774">
		<tag k="alt_name" v="Litl-Steinåa" />
		<tag k="name" v="Litlsteinåa" />
		<tag k="ssr:stedsnr" v="925692" />
		<tag k="waterway" v="stream" />
	</node>
	<node lat="64.87139722097392" lon="12.649594436483225" id="-36775">
		<tag k="name" v="Soermesvaajjanjaevrie" />
		<tag k="name:sma" v="Soermesvaajjanjaevrie" />
		<tag k="natural" v="water" />
		<tag k="ssr:stedsnr" v="925797" />
		<tag k="water" v="lake" />
	</node>
	<node lat="65.07718611511311" lon="13.292330547037457" id="-36776">
		<tag k="name" v="Vargflya" />
		<tag k="natural" v="water" />
		<tag k="ssr:stedsnr" v="848727" />
		<tag k="water" v="lake" />
	</node>
	<node lat="64.46250000176778" lon="11.741666676112082" id="-36777">
		<tag k="name" v="Namsen - Nååmesje" />
		<tag k="name:no" v="Namsen" />
		<tag k="name:sma" v="Nååmesje" />
		<tag k="ssr:stedsnr" v="863214" />
		<tag k="waterway" v="river" />
	</node>
	<node lat="64.96213055818853" lon="13.231277788422112" id="-36779">
		<tag k="name" v="Lilonbekken" />
		<tag k="ssr:stedsnr" v="864033" />
		<tag k="waterway" v="stream" />
	</node>
	<node lat="64.96147222304255" lon="13.031624999609111" id="-36781">
		<tag k="alt_name" v="Bjørhusdalelva, store" />
		<tag k="name" v="Store Bjørhusdalelva" />
		<tag k="ssr:stedsnr" v="864142" />
		<tag k="waterway" v="river" />
	</node>
	<node lat="64.79581388999927" lon="12.666458330329089" id="-36787">
		<tag k="name" v="Vaartoenjaevrie" />
		<tag k="name:sma" v="Vaartoenjaevrie" />
		<tag k="natural" v="water" />
		<tag k="ssr:stedsnr" v="864249" />
		<tag k="water" v="lake" />
	</node>
	<node lat="64.83819444222752" lon="13.153316663356351" id="-36788">
		<tag k="name" v="Johannestjønna" />
		<tag k="natural" v="water" />
		<tag k="ssr:stedsnr" v="876414" />
	</node>
	<node lat="64.88118333062596" lon="12.861174997217454" id="-36789">
		<tag k="name" v="Nessaelva - Såafajeanoe" />
		<tag k="name:no" v="Nessaelva" />
		<tag k="name:sma" v="Såafajeanoe" />
		<tag k="ssr:stedsnr" v="934088" />
		<tag k="waterway" v="river" />
	</node>
	<node lat="65.08800833486576" lon="13.335072212318282" id="-36790">
		<tag k="name" v="Stormyrodden" />
		<tag k="natural" v="cape" />
		<tag k="ssr:stedsnr" v="895303" />
	</node>
	<node lat="65.01180277333393" lon="13.22653055838247" id="-36792">
		<tag k="name" v="Litlfrøyningselva" />
		<tag k="ssr:stedsnr" v="895365" />
		<tag k="waterway" v="river" />
	</node>
	<node lat="64.9779222264237" lon="13.158261106536731" id="-36795">
		<tag k="name" v="Stryket" />
		<tag k="ssr:stedsnr" v="895407" />
		<tag k="waterway" v="rapids" />
	</node>
	<node lat="64.84615277643897" lon="13.139208341626723" id="-36796">
		<tag k="name" v="Grubbtjønna" />
		<tag k="natural" v="water" />
		<tag k="ssr:stedsnr" v="895410" />
	</node>
	<node lat="64.69170000274578" lon="12.77151666036115" id="-36801">
		<tag k="name" v="Sakariasfossen" />
		<tag k="natural" v="waterfall" />
		<tag k="ssr:stedsnr" v="896650" />
	</node>
	<node lat="64.81505277369833" lon="12.964444436261235" id="-36803">
		<tag k="name" v="Kjelmyrlonet" />
		<tag k="natural" v="water" />
		<tag k="ssr:stedsnr" v="896511" />
		<tag k="water" v="lake" />
	</node>
	<node lat="64.80347222245847" lon="12.934672225532914" id="-36804">
		<tag k="name" v="Fleskholmen" />
		<tag k="place" v="islet" />
		<tag k="ssr:stedsnr" v="896523" />
	</node>
	<node lat="64.80299999807494" lon="12.914183343216061" id="-36805">
		<tag k="name" v="Hallmyrholmen" />
		<tag k="place" v="islet" />
		<tag k="ssr:stedsnr" v="896542" />
	</node>
	<node lat="64.8042888913354" lon="12.643030551845447" id="-36807">
		<tag k="name" v="Lindsetnesa" />
		<tag k="natural" v="cape" />
		<tag k="ssr:stedsnr" v="897014" />
	</node>
	<node lat="65.07484444004953" lon="13.28276667098776" id="-36809">
		<tag k="name" v="Styggdalsbekken" />
		<tag k="ssr:stedsnr" v="897307" />
		<tag k="waterway" v="stream" />
	</node>
	<node lat="65.0487277747411" lon="13.236091664086727" id="-36810">
		<tag k="alt_name" v="Litl Gåsvasselva" />
		<tag k="name" v="Litlgåsvasselva" />
		<tag k="ssr:stedsnr" v="897310" />
		<tag k="waterway" v="stream" />
	</node>
	<node lat="65.09146666796507" lon="13.22284166397335" id="-36811">
		<tag k="name" v="Raptjønna" />
		<tag k="natural" v="water" />
		<tag k="ssr:stedsnr" v="897323" />
	</node>
	<node lat="65.0844305557027" lon="13.44501665867982" id="-36812">
		<tag k="name" v="Storfiskholet" />
		<tag k="place" v="locality" />
		<tag k="ssr:stedsnr" v="898314" />
	</node>
	<node lat="64.9914472219749" lon="13.374627783847119" id="-36822">
		<tag k="name" v="Jotjønna" />
		<tag k="natural" v="water" />
		<tag k="ssr:stedsnr" v="924003" />
	</node>
	<node lat="64.99790277979753" lon="13.180805559733829" id="-36823">
		<tag k="name" v="Helmerodden" />
		<tag k="natural" v="cape" />
		<tag k="ssr:stedsnr" v="924119" />
	</node>
	<node lat="64.98553055853488" lon="13.191502769208418" id="-36824">
		<tag k="name" v="Eilerttjønna" />
		<tag k="natural" v="water" />
		<tag k="ssr:stedsnr" v="924128" />
	</node>
	<node lat="64.82035277581569" lon="12.639805557818645" id="-36825">
		<tag k="name" v="Lindsetelva" />
		<tag k="ssr:stedsnr" v="925220" />
		<tag k="waterway" v="river" />
	</node>
	<node lat="64.69854444322692" lon="13.049808331338294" id="-36827">
		<tag k="name" v="Gangtrøfossen" />
		<tag k="natural" v="waterfall" />
		<tag k="ssr:stedsnr" v="925395" />
	</node>
	<node lat="65.0664694404965" lon="13.289813883567648" id="-36832">
		<tag k="name" v="Nertjønna" />
		<tag k="natural" v="water" />
		<tag k="ssr:stedsnr" v="925706" />
	</node>
	<node lat="64.83719444217418" lon="12.691638878463614" id="-36836">
		<tag k="name" v="Finntjønna" />
		<tag k="natural" v="water" />
		<tag k="ssr:stedsnr" v="925819" />
	</node>
	<node lat="65.075652774949" lon="13.29926387808366" id="-36840">
		<tag k="name" v="Farflya" />
		<tag k="ssr:stedsnr" v="955305" />
		<tag k="waterway" v="rapids" />
	</node>
	<node lat="64.76440277317191" lon="12.778625007382537" id="-36853">
		<tag k="name" v="Skarvholbekken" />
		<tag k="ssr:stedsnr" v="958036" />
		<tag k="waterway" v="stream" />
	</node>
	<node lat="64.85281944763928" lon="12.878636101283632" id="-36856">
		<tag k="name" v="Bjørnholmen" />
		<tag k="place" v="islet" />
		<tag k="ssr:stedsnr" v="958921" />
	</node>
	<node lat="64.52466944153895" lon="13.084127780620836" id="-36865">
		<tag k="name" v="Langløyftvatna - Lievkiesåej-jaevrie" />
		<tag k="name:no" v="Langløyftvatna" />
		<tag k="name:sma" v="Lievkiesåej-jaevrie" />
		<tag k="natural" v="water" />
		<tag k="ssr:stedsnr" v="14231" />
		<tag k="water" v="lake" />
	</node>
	<node lat="64.97690000422922" lon="13.345755550183403" id="-36866">
		<tag k="name" v="Langtjønna" />
		<tag k="natural" v="water" />
		<tag k="ssr:stedsnr" v="14034" />
	</node>
	<node lat="64.96256666677544" lon="13.118666677051316" id="-36867">
		<tag k="name" v="Tverrelva" />
		<tag k="ssr:stedsnr" v="14112" />
		<tag k="waterway" v="stream" />
	</node>
	<node lat="64.83624166273721" lon="13.113533332395644" id="-36869">
		<tag k="name" v="Grytåa" />
		<tag k="ssr:stedsnr" v="14089" />
		<tag k="waterway" v="stream" />
	</node>
	<node lat="64.99434444447797" lon="13.061408324353048" id="-36871">
		<tag k="name" v="Tverrelvtjønna" />
		<tag k="natural" v="water" />
		<tag k="ssr:stedsnr" v="14129" />
	</node>
	<node lat="64.75799444616662" lon="12.680369447355927" id="-36876">
		<tag k="name" v="Storbekken" />
		<tag k="ssr:stedsnr" v="14193" />
		<tag k="waterway" v="stream" />
	</node>
	<node lat="64.91600833392367" lon="13.015130563277822" id="-36880">
		<tag k="alt_name" v="Tverrelva" />
		<tag k="name" v="Tverråa" />
		<tag k="ssr:stedsnr" v="14498" />
		<tag k="waterway" v="river" />
	</node>
	<node lat="65.07861944402535" lon="13.248583328694806" id="-36882">
		<tag k="name" v="Bjarnebekken" />
		<tag k="ssr:stedsnr" v="14591" />
		<tag k="waterway" v="stream" />
	</node>
	<node lat="65.04919999657173" lon="13.254341673562363" id="-36883">
		<tag k="name" v="Setertjønna" />
		<tag k="natural" v="water" />
		<tag k="ssr:stedsnr" v="14598" />
	</node>
	<node lat="65.038727776026" lon="13.250308330232839" id="-36884">
		<tag k="name" v="Bergtjønna" />
		<tag k="natural" v="water" />
		<tag k="ssr:stedsnr" v="14599" />
	</node>
	<node lat="64.89073055242433" lon="12.86853333498099" id="-36887">
		<tag k="name" v="Skarvdalselva" />
		<tag k="ssr:stedsnr" v="15168" />
		<tag k="waterway" v="stream" />
	</node>
	<node lat="64.92623611237165" lon="13.06311388528176" id="-36888">
		<tag k="name" v="Merrabekken" />
		<tag k="ssr:stedsnr" v="15186" />
		<tag k="waterway" v="stream" />
	</node>
	<node lat="65.09818055766118" lon="13.259388891827323" id="-36893">
		<tag k="name" v="Sauholmen" />
		<tag k="place" v="islet" />
		<tag k="ssr:stedsnr" v="42746" />
	</node>
	<node lat="64.97570555175177" lon="13.153544449112895" id="-36896">
		<tag k="name" v="Storesela" />
		<tag k="natural" v="water" />
		<tag k="ssr:stedsnr" v="45316" />
		<tag k="water" v="lake" />
	</node>
	<node lat="64.89581944214483" lon="13.16753888526967" id="-36897">
		<tag k="name" v="Kvennfossen" />
		<tag k="natural" v="waterfall" />
		<tag k="ssr:stedsnr" v="45320" />
	</node>
	<node lat="64.91097777385458" lon="13.19338889453366" id="-36901">
		<tag k="name" v="Sørbekken" />
		<tag k="ssr:stedsnr" v="45401" />
		<tag k="waterway" v="stream" />
	</node>
	<node lat="64.84753888778107" lon="13.117472219157591" id="-36903">
		<tag k="name" v="Toddorspettjønna" />
		<tag k="natural" v="water" />
		<tag k="ssr:stedsnr" v="45458" />
	</node>
	<node lat="64.67903611284054" lon="12.787602773574502" id="-36904">
		<tag k="name" v="Storfossen" />
		<tag k="natural" v="waterfall" />
		<tag k="ssr:stedsnr" v="47585" />
	</node>
	<node lat="64.70310277377646" lon="12.657627779647168" id="-36915">
		<tag k="name" v="Baklundtjønna" />
		<tag k="natural" v="water" />
		<tag k="ssr:stedsnr" v="48086" />
	</node>
	<node lat="64.7090944449925" lon="13.05803610463961" id="-36919">
		<tag k="name" v="Holbekken" />
		<tag k="ssr:stedsnr" v="48757" />
		<tag k="waterway" v="stream" />
	</node>
	<node lat="64.72461111417128" lon="12.97953054850132" id="-36921">
		<tag k="name" v="Klavenesbekken" />
		<tag k="ssr:stedsnr" v="48847" />
		<tag k="waterway" v="stream" />
	</node>
	<node lat="64.66779722085552" lon="13.02103332976624" id="-36922">
		<tag k="name" v="Tjønnbekken" />
		<tag k="ssr:stedsnr" v="229159" />
		<tag k="waterway" v="stream" />
	</node>
	<node lat="64.6689666637087" lon="12.976636103943925" id="-36923">
		<tag k="name" v="Luspabekken" />
		<tag k="ssr:stedsnr" v="229162" />
		<tag k="waterway" v="stream" />
	</node>
	<node lat="64.96891131457129" lon="13.242134177145596" id="-36937">
		<tag k="name" v="Storlonbekken" />
		<tag k="ssr:stedsnr" v="75029" />
		<tag k="waterway" v="stream" />
	</node>
	<node lat="64.80741388872444" lon="13.12576667410344" id="-36938">
		<tag k="fixme" v="multiple name tags, choose one and add the other to alt_name" />
		<tag k="name" v="Stortromselva;Tromsa;Tromselva - Trompenjohke" />
		<tag k="name:no" v="Stortromselva;Tromsa;Tromselva" />
		<tag k="name:sma" v="Trompenjohke" />
		<tag k="ssr:stedsnr" v="75089" />
		<tag k="waterway" v="river" />
	</node>
	<node lat="64.83816666369265" lon="13.027874999763018" id="-36943">
		<tag k="name" v="Lomtjønna" />
		<tag k="natural" v="water" />
		<tag k="ssr:stedsnr" v="75126" />
	</node>
	<node lat="64.94535833663181" lon="13.086663891509987" id="-36944">
		<tag k="alt_name" v="Kvenntjønna" />
		<tag k="name" v="Kverntjønna" />
		<tag k="natural" v="water" />
		<tag k="ssr:stedsnr" v="75140" />
	</node>
	<node lat="64.9942583364625" lon="13.200136113754587" id="-36946">
		<tag k="name" v="Langodden" />
		<tag k="natural" v="cape" />
		<tag k="ssr:stedsnr" v="75148" />
	</node>
	<node lat="64.63745277549629" lon="13.098805558651952" id="-36948">
		<tag k="alt_name" v="Dausjøen" />
		<tag k="name" v="Daudsjøen" />
		<tag k="natural" v="water" />
		<tag k="ssr:stedsnr" v="75338" />
	</node>
	<node lat="64.91926944639202" lon="12.737849993931073" id="-36952">
		<tag k="name" v="Tjoelmehkejaevrieh" />
		<tag k="name:sma" v="Tjoelmehkejaevrieh" />
		<tag k="natural" v="water" />
		<tag k="ssr:stedsnr" v="75182" />
		<tag k="water" v="lake" />
	</node>
	<node lat="65.06359423839591" lon="13.17237512480301" id="-36955">
		<tag k="alt_name:no" v="Vester Gåsvatnet;Vestre Gåsvatnet" />
		<tag k="name" v="Storgåsvatnet - Stoerrereetjke" />
		<tag k="name:no" v="Storgåsvatnet" />
		<tag k="name:sma" v="Stoerrereetjke" />
		<tag k="natural" v="water" />
		<tag k="ssr:stedsnr" v="75529" />
		<tag k="water" v="lake" />
	</node>
	<node lat="65.00239708235313" lon="13.177786667229428" id="-36956">
		<tag k="fixme" v="multiple name tags, choose one and add the other to alt_name" />
		<tag k="name" v="Storfrøyningselva;Stordalselva - Freavnanjohke" />
		<tag k="name:no" v="Storfrøyningselva;Stordalselva" />
		<tag k="name:sma" v="Freavnanjohke" />
		<tag k="ssr:stedsnr" v="75539" />
		<tag k="waterway" v="river" />
	</node>
	<node lat="64.75976666828322" lon="12.791816665909376" id="-36958">
		<tag k="name" v="Rååanjaevrieh" />
		<tag k="name:sma" v="Rååanjaevrieh" />
		<tag k="natural" v="water" />
		<tag k="ssr:stedsnr" v="76019" />
		<tag k="water" v="lake" />
	</node>
	<node lat="65.05967499586741" lon="13.447483333084362" id="-36961">
		<tag k="name" v="Ørnhaugtjønnin" />
		<tag k="natural" v="water" />
		<tag k="ssr:stedsnr" v="75683" />
	</node>
	<node lat="65.01014393424919" lon="13.274327594438764" id="-36963">
		<tag k="name" v="Storsteinåa - Stoerrebaertienjohke" />
		<tag k="name:no" v="Storsteinåa" />
		<tag k="name:sma" v="Stoerrebaertienjohke" />
		<tag k="ssr:stedsnr" v="75896" />
		<tag k="waterway" v="river" />
	</node>
	<node lat="64.96990833714024" lon="13.146658326319429" id="-36967">
		<tag k="name" v="Sela" />
		<tag k="natural" v="water" />
		<tag k="ssr:stedsnr" v="229362" />
		<tag k="water" v="lake" />
	</node>
	<node lat="65.06843332979155" lon="13.314713893942232" id="-36971">
		<tag k="name" v="Oterfossen" />
		<tag k="natural" v="waterfall" />
		<tag k="ssr:stedsnr" v="106315" />
	</node>
	<node lat="64.87258888887473" lon="13.117416667532362" id="-36974">
		<tag k="name" v="Kvennfossen" />
		<tag k="natural" v="waterfall" />
		<tag k="ssr:stedsnr" v="106428" />
	</node>
	<node lat="64.779416665034" lon="12.868091665180827" id="-36976">
		<tag k="name" v="Skogstubekken" />
		<tag k="ssr:stedsnr" v="106326" />
		<tag k="waterway" v="stream" />
	</node>
	<node lat="64.79752500053165" lon="12.929980556438176" id="-36977">
		<tag k="name" v="Revlingbekken" />
		<tag k="ssr:stedsnr" v="106327" />
		<tag k="waterway" v="stream" />
	</node>
	<node lat="64.94096944851603" lon="13.054308324699257" id="-36978">
		<tag k="name" v="Stor Bjørhusdalelva" />
		<tag k="ssr:stedsnr" v="106331" />
		<tag k="waterway" v="river" />
	</node>
	<node lat="64.72268333725819" lon="12.698363899278858" id="-36979">
		<tag k="name" v="Gammelnausttangen" />
		<tag k="natural" v="cape" />
		<tag k="ssr:stedsnr" v="106343" />
	</node>
	<node lat="65.06154721902129" lon="13.308463894445682" id="-36980">
		<tag k="name" v="Nesbekken" />
		<tag k="ssr:stedsnr" v="106352" />
		<tag k="waterway" v="stream" />
	</node>
	<node lat="64.97673888882677" lon="13.158666676258653" id="-36983">
		<tag k="name" v="Skogstuodden" />
		<tag k="natural" v="cape" />
		<tag k="ssr:stedsnr" v="106418" />
	</node>
	<node lat="64.83478888742009" lon="13.01901111096421" id="-36984">
		<tag k="name" v="Litltjønna" />
		<tag k="natural" v="water" />
		<tag k="ssr:stedsnr" v="107485" />
	</node>
	<node lat="64.84458889323007" lon="13.043047220441807" id="-36985">
		<tag k="name" v="Storfossen" />
		<tag k="natural" v="waterfall" />
		<tag k="ssr:stedsnr" v="107487" />
	</node>
	<node lat="64.69992222230998" lon="12.776516673428313" id="-36993">
		<tag k="name" v="Stormyrbekken" />
		<tag k="ssr:stedsnr" v="107634" />
		<tag k="waterway" v="stream" />
	</node>
	<node lat="64.69179166622983" lon="12.716880550563646" id="-36994">
		<tag k="name" v="Sagbekken" />
		<tag k="ssr:stedsnr" v="107640" />
		<tag k="waterway" v="stream" />
	</node>
	<node lat="64.78949722019345" lon="12.891116657845998" id="-36995">
		<tag k="name" v="Litlåtangen" />
		<tag k="natural" v="cape" />
		<tag k="ssr:stedsnr" v="107649" />
	</node>
	<node lat="64.73134722053622" lon="12.832641666956608" id="-36997">
		<tag k="name" v="Groftnesa" />
		<tag k="natural" v="cape" />
		<tag k="ssr:stedsnr" v="107657" />
	</node>
	<node lat="64.63811666353968" lon="13.083727784406317" id="-37000">
		<tag k="name" v="Kvittjønna" />
		<tag k="natural" v="water" />
		<tag k="ssr:stedsnr" v="107986" />
	</node>
	<node lat="64.96167777812923" lon="13.030219450654794" id="-37002">
		<tag k="name" v="Storholmen" />
		<tag k="place" v="islet" />
		<tag k="ssr:stedsnr" v="108889" />
	</node>
	<node lat="64.86289444756228" lon="12.898650004855618" id="-37003">
		<tag k="name" v="Flåhyllbekken" />
		<tag k="ssr:stedsnr" v="108892" />
		<tag k="waterway" v="stream" />
	</node>
	<node lat="65.0692499975142" lon="13.470986115389692" id="-37006">
		<tag k="name" v="Litlåstjønna" />
		<tag k="natural" v="water" />
		<tag k="ssr:stedsnr" v="109318" />
	</node>
	<node lat="64.9059027759086" lon="13.239527771029644" id="-37008">
		<tag k="name" v="Storfossen" />
		<tag k="natural" v="waterfall" />
		<tag k="ssr:stedsnr" v="109400" />
	</node>
	<node lat="64.79859721971796" lon="12.994994442885835" id="-37019">
		<tag k="name" v="Litltjønna" />
		<tag k="natural" v="water" />
		<tag k="ssr:stedsnr" v="135026" />
	</node>
	<node lat="64.81202221821526" lon="13.0240499989016" id="-37022">
		<tag k="name" v="Kvenntjønna" />
		<tag k="natural" v="water" />
		<tag k="ssr:stedsnr" v="135080" />
	</node>
	<node lat="64.82134722639931" lon="12.925069445966026" id="-37023">
		<tag k="name" v="Storkroken" />
		<tag k="natural" v="cape" />
		<tag k="ssr:stedsnr" v="135092" />
	</node>
	<node lat="64.83248889081005" lon="12.925477773898917" id="-37029">
		<tag k="fixme" v="multiple name tags, choose one and add the other to alt_name" />
		<tag k="name" v="Litlelva;Domelva" />
		<tag k="ssr:stedsnr" v="135548" />
		<tag k="waterway" v="river" />
	</node>
	<node lat="64.71608888860634" lon="12.839130546129763" id="-37033">
		<tag k="alt_name" v="Litlselen" />
		<tag k="name" v="Litlsela" />
		<tag k="place" v="locality" />
		<tag k="ssr:stedsnr" v="135644" />
	</node>
	<node lat="65.03935277581003" lon="13.25483333286679" id="-37036">
		<tag k="name" v="Fisklaustjønna" />
		<tag k="natural" v="water" />
		<tag k="ssr:stedsnr" v="135844" />
	</node>
	<node lat="64.85783333057329" lon="13.011866656051302" id="-37037">
		<tag k="name" v="Fossmoelva" />
		<tag k="ssr:stedsnr" v="136081" />
		<tag k="waterway" v="river" />
	</node>
</osm>
