<?xml version="1.0" encoding="UTF-8"?>
<osm version="0.6" generator="osmapis">
	<node lat="64.77990000264431" lon="12.647422232476496" id="-86662">
		<tag k="ford" v="yes" />
		<tag k="name" v="Vadet" />
		<tag k="place" v="locality" />
		<tag k="ssr:stedsnr" v="290029" />
	</node>
	<node lat="64.70397222076359" lon="12.836199996613813" id="-86665">
		<tag k="landuse" v="industrial" />
		<tag k="name" v="Tunnsjødal" />
		<tag k="power" v="plant" />
		<tag k="ssr:stedsnr" v="290730" />
	</node>
	<node lat="64.87002500357475" lon="13.218113881079674" id="-86674">
		<tag k="man_made" v="tower" />
		<tag k="name" v="Tårnet" />
		<tag k="ssr:stedsnr" v="291433" />
		<tag k="tower:type" v="communications" />
	</node>
	<node lat="64.66677222479154" lon="12.988694442054326" id="-86952">
		<tag k="ford" v="yes" />
		<tag k="name" v="Kuvadet" />
		<tag k="place" v="locality" />
		<tag k="ssr:stedsnr" v="593151" />
	</node>
	<node lat="65.08039722150944" lon="13.341672230765814" id="-87004">
		<tag k="highway" v="path" />
		<tag k="name" v="Namskrokvegen" />
		<tag k="ssr:stedsnr" v="652307" />
	</node>
	<node lat="64.88433611180034" lon="13.190083323143135" id="-87272">
		<tag k="bridge" v="yes" />
		<tag k="layer" v="1" />
		<tag k="name" v="Nedre Sponsbekkbrua" />
		<tag k="ssr:stedsnr" v="958994" />
	</node>
	<node lat="64.86993929388537" lon="13.212544858044687" id="-87386">
		<tag k="alt_name" v="Steinfjellet" />
		<tag k="layer" v="-1" />
		<tag k="name" v="Steinfjellettunnelen" />
		<tag k="ssr:stedsnr" v="85321" />
		<tag k="tunnel" v="yes" />
	</node>
	<node lat="65.0880305533387" lon="13.384263888003332" id="-87697">
		<tag k="fixme" v="multiple name tags, choose one and add the other to alt_name" />
		<tag k="highway" v="path" />
		<tag k="name" v="Mattisvegen;Namskrokvegen" />
		<tag k="ssr:stedsnr" v="378660" />
	</node>
	<node lat="64.6958638928081" lon="12.713811102941703" id="-87845">
		<tag k="name" v="Lassemoen stasjon" />
		<tag k="railway" v="station" />
		<tag k="ssr:stedsnr" v="560599" />
		<tag k="train" v="yes" />
	</node>
	<node lat="65.09895277557786" lon="13.411286118325712" id="-87903">
		<tag k="man_made" v="cairn" />
		<tag k="name" v="Stormuren" />
		<tag k="place" v="locality" />
		<tag k="ssr:stedsnr" v="594326" />
	</node>
	<node lat="64.83213610811083" lon="13.103905554937151" id="-87998">
		<tag k="fixme" v="consider highway=path" />
		<tag k="highway" v="track" />
		<tag k="name" v="Traktorvegen" />
		<tag k="ssr:stedsnr" v="713449" />
	</node>
	<node lat="64.88392261485372" lon="13.19263611944237" id="-88088">
		<tag k="bridge" v="yes" />
		<tag k="layer" v="1" />
		<tag k="name" v="Øvre Sponsbekkbrua" />
		<tag k="ssr:stedsnr" v="776993" />
	</node>
	<node lat="64.93943055765901" lon="13.173391657162513" id="-88130">
		<tag k="fixme" v="verify maritime location" />
		<tag k="mooring" v="yes" />
		<tag k="name" v="Seterstøa" />
		<tag k="place" v="locality" />
		<tag k="ssr:stedsnr" v="834309" />
	</node>
	<node lat="64.88401111513951" lon="13.176597226127688" id="-88208">
		<tag k="highway" v="path" />
		<tag k="name" v="Storsvingen" />
		<tag k="ssr:stedsnr" v="955427" />
	</node>
	<node lat="64.92570393105446" lon="13.152283770636469" id="-88249">
		<tag k="name" v="Namsskogan stasjon" />
		<tag k="railway" v="station" />
		<tag k="ssr:stedsnr" v="1076221" />
		<tag k="train" v="yes" />
	</node>
</osm>
