<?xml version="1.0" encoding="UTF-8"?>
<osm version="0.6" generator="osmapis">
	<node lat="64.80188611362382" lon="12.647816671020722" id="-36044">
		<tag k="name" v="Lindsetnesdomma" />
		<tag k="natural" v="slope" />
		<tag k="place" v="locality" />
		<tag k="ssr:stedsnr" v="230013" />
	</node>
	<node lat="64.78763611470066" lon="12.773763887415862" id="-36046">
		<tag k="alt_name" v="Krumyrlia" />
		<tag k="name" v="Krumyrliin" />
		<tag k="natural" v="slope" />
		<tag k="place" v="locality" />
		<tag k="ssr:stedsnr" v="230052" />
	</node>
	<node lat="64.74763888465303" lon="12.722408336346103" id="-36047">
		<tag k="name" v="Klompdalen" />
		<tag k="natural" v="valley" />
		<tag k="place" v="locality" />
		<tag k="ssr:stedsnr" v="230243" />
	</node>
	<node lat="65.07905555993278" lon="13.376299997647301" id="-36049">
		<tag k="name" v="Storlia" />
		<tag k="natural" v="slope" />
		<tag k="place" v="locality" />
		<tag k="ssr:stedsnr" v="230322" />
	</node>
	<node lat="65.00882499776054" lon="12.967430556087626" id="-36051">
		<tag k="name" v="Remman" />
		<tag k="natural" v="slope" />
		<tag k="place" v="locality" />
		<tag k="ssr:stedsnr" v="230375" />
	</node>
	<node lat="64.90593055781086" lon="13.232366662641446" id="-36052">
		<tag k="name" v="Kjerrådalen" />
		<tag k="natural" v="valley" />
		<tag k="place" v="locality" />
		<tag k="ssr:stedsnr" v="230397" />
	</node>
	<node lat="64.92005555560048" lon="13.229052769976873" id="-36053">
		<tag k="name" v="Sandådalen" />
		<tag k="natural" v="valley" />
		<tag k="place" v="locality" />
		<tag k="ssr:stedsnr" v="230401" />
	</node>
	<node lat="64.83266111281033" lon="12.888541672686578" id="-36056">
		<tag k="name" v="Bjønnhaugen" />
		<tag k="natural" v="hill" />
		<tag k="place" v="locality" />
		<tag k="ssr:stedsnr" v="230915" />
	</node>
	<node lat="64.83621944168937" lon="12.942383327945096" id="-36059">
		<tag k="alt_name" v="Raudmyrklompen" />
		<tag k="fixme" v="consider natural=peak for the most distinct mountains in the district" />
		<tag k="name" v="Raudmyrpynten" />
		<tag k="natural" v="hill" />
		<tag k="place" v="locality" />
		<tag k="ssr:stedsnr" v="14105" />
	</node>
	<node lat="64.83875555243496" lon="12.90937777820781" id="-36060">
		<tag k="fixme" v="consider natural=peak for the most distinct mountains in the district" />
		<tag k="name" v="Domklumpen" />
		<tag k="natural" v="hill" />
		<tag k="place" v="locality" />
		<tag k="ssr:stedsnr" v="14106" />
	</node>
	<node lat="64.69828055606486" lon="12.89559722638206" id="-36061">
		<tag k="alt_name" v="Grøndalsfjellet, vestre" />
		<tag k="fixme" v="consider natural=peak for the most distinct mountains in the district" />
		<tag k="name" v="Vestre Grøndalsfjellet" />
		<tag k="natural" v="hill" />
		<tag k="place" v="locality" />
		<tag k="ssr:stedsnr" v="14271" />
	</node>
	<node lat="65.10555277796583" lon="13.120961114672566" id="-36062">
		<tag k="name" v="Stordalen - Njöölve" />
		<tag k="name:no" v="Stordalen" />
		<tag k="name:sma" v="Njöölve" />
		<tag k="natural" v="valley" />
		<tag k="place" v="locality" />
		<tag k="ssr:stedsnr" v="14501" />
	</node>
	<node lat="64.8801444453988" lon="12.840580559682618" id="-36063">
		<tag k="name" v="Steinådalen" />
		<tag k="natural" v="valley" />
		<tag k="place" v="locality" />
		<tag k="ssr:stedsnr" v="14502" />
	</node>
	<node lat="65.07614999927029" lon="13.34832499484208" id="-36064">
		<tag k="alt_name:no" v="Smalåsenden;Åsen" />
		<tag k="fixme" v="consider natural=peak for the most distinct mountains in the district" />
		<tag k="name" v="Smalåsen - Smaalanjuenie" />
		<tag k="name:no" v="Smalåsen" />
		<tag k="name:sma" v="Smaalanjuenie" />
		<tag k="natural" v="hill" />
		<tag k="place" v="locality" />
		<tag k="ssr:stedsnr" v="14572" />
	</node>
	<node lat="64.71535277468755" lon="12.965175006245579" id="-36067">
		<tag k="name" v="Iverkammen" />
		<tag k="natural" v="hill" />
		<tag k="place" v="locality" />
		<tag k="ssr:stedsnr" v="14614" />
	</node>
	<node lat="64.75186666853534" lon="13.039788893387179" id="-36071">
		<tag k="alt_name:no" v="Tromsfjellet, litle" />
		<tag k="fixme" v="consider natural=peak for the most distinct mountains in the district" />
		<tag k="name" v="Litle Tromsfjellet" />
		<tag k="name:no" v="Litle Tromsfjellet" />
		<tag k="natural" v="hill" />
		<tag k="place" v="locality" />
		<tag k="ssr:stedsnr" v="15008" />
	</node>
	<node lat="64.76750833426495" lon="12.72890554836898" id="-36072">
		<tag k="fixme" v="consider natural=peak for the most distinct mountains in the district" />
		<tag k="name" v="Klumpliklumpen - Bavne" />
		<tag k="name:no" v="Klumpliklumpen" />
		<tag k="name:sma" v="Bavne" />
		<tag k="natural" v="hill" />
		<tag k="place" v="locality" />
		<tag k="ssr:stedsnr" v="15015" />
	</node>
	<node lat="64.76637499900563" lon="12.83628056159618" id="-36073">
		<tag k="fixme" v="consider natural=peak for the most distinct mountains in the district" />
		<tag k="name" v="Skarvåsen - Brienne" />
		<tag k="name:no" v="Skarvåsen" />
		<tag k="name:sma" v="Brienne" />
		<tag k="natural" v="hill" />
		<tag k="place" v="locality" />
		<tag k="ssr:stedsnr" v="15018" />
	</node>
	<node lat="64.73871110735475" lon="12.645277777290273" id="-36080">
		<tag k="fixme" v="consider natural=peak for the most distinct mountains in the district" />
		<tag k="name" v="Finntjønnfjellet" />
		<tag k="natural" v="hill" />
		<tag k="place" v="locality" />
		<tag k="ssr:stedsnr" v="15908" />
	</node>
	<node lat="64.85682778192793" lon="12.889994440321313" id="-36089">
		<tag k="name" v="Nessadalen" />
		<tag k="natural" v="valley" />
		<tag k="place" v="locality" />
		<tag k="ssr:stedsnr" v="237043" />
	</node>
	<node lat="64.88190277656103" lon="13.151463889856513" id="-36097">
		<tag k="name" v="Styggdalen" />
		<tag k="natural" v="valley" />
		<tag k="place" v="locality" />
		<tag k="ssr:stedsnr" v="45424" />
	</node>
	<node lat="64.84959721957529" lon="13.053574998742928" id="-36099">
		<tag k="name" v="Skardet" />
		<tag k="natural" v="valley" />
		<tag k="place" v="locality" />
		<tag k="ssr:stedsnr" v="46509" />
	</node>
	<node lat="64.6530611081579" lon="13.051213887163925" id="-36107">
		<tag k="name" v="Tiskjerringa" />
		<tag k="place" v="locality" />
		<tag k="ssr:stedsnr" v="47182" />
	</node>
	<node lat="64.78538333040137" lon="12.696222229706041" id="-36108">
		<tag k="name" v="Angelbekkhalla" />
		<tag k="natural" v="slope" />
		<tag k="place" v="locality" />
		<tag k="ssr:stedsnr" v="48012" />
	</node>
	<node lat="64.8852611117677" lon="12.837569442782044" id="-36113">
		<tag k="name" v="Steinååsen" />
		<tag k="natural" v="slope" />
		<tag k="place" v="locality" />
		<tag k="ssr:stedsnr" v="48916" />
	</node>
	<node lat="64.78821666799202" lon="12.857838884405755" id="-36115">
		<tag k="name" v="Kjerka" />
		<tag k="natural" v="hill" />
		<tag k="place" v="locality" />
		<tag k="ssr:stedsnr" v="48922" />
	</node>
	<node lat="64.78026388575435" lon="12.931913895216606" id="-36122">
		<tag k="alt_name" v="Friarskaret" />
		<tag k="name" v="Friarskardet" />
		<tag k="natural" v="valley" />
		<tag k="place" v="locality" />
		<tag k="ssr:stedsnr" v="75009" />
	</node>
	<node lat="64.7576333294984" lon="12.753805555411084" id="-36123">
		<tag k="fixme" v="multiple name tags, choose one and add the other to alt_name" />
		<tag k="name" v="Rååanvuemie;Rådalen" />
		<tag k="name:sma" v="Rååanvuemie;Rådalen" />
		<tag k="natural" v="valley" />
		<tag k="place" v="locality" />
		<tag k="ssr:stedsnr" v="75011" />
	</node>
	<node lat="65.05097222366896" lon="13.283594448834146" id="-36128">
		<tag k="name" v="Hesthuhaugen" />
		<tag k="natural" v="hill" />
		<tag k="place" v="locality" />
		<tag k="ssr:stedsnr" v="75904" />
	</node>
	<node lat="65.02243055633078" lon="13.281624997645249" id="-36129">
		<tag k="name" v="Namdalen" />
		<tag k="natural" v="valley" />
		<tag k="place" v="locality" />
		<tag k="ssr:stedsnr" v="75909" />
	</node>
	<node lat="64.87056110712471" lon="13.08297499625544" id="-36130">
		<tag k="fixme" v="consider natural=peak for the most distinct mountains in the district" />
		<tag k="name" v="Ølløvtuva" />
		<tag k="natural" v="hill" />
		<tag k="place" v="locality" />
		<tag k="ssr:stedsnr" v="76110" />
	</node>
	<node lat="64.81226944465303" lon="12.93361110229778" id="-36137">
		<tag k="name" v="Kjelmyrhøgda" />
		<tag k="natural" v="hill" />
		<tag k="place" v="locality" />
		<tag k="ssr:stedsnr" v="107513" />
	</node>
	<node lat="65.07550278047935" lon="13.238805553090172" id="-36140">
		<tag k="fixme" v="consider natural=peak for the most distinct mountains in the district" />
		<tag k="name" v="Steinvassklumpen" />
		<tag k="natural" v="hill" />
		<tag k="place" v="locality" />
		<tag k="ssr:stedsnr" v="108309" />
	</node>
	<node lat="64.81856388538554" lon="13.063561113072014" id="-36142">
		<tag k="name" v="Storbakkan" />
		<tag k="natural" v="hill" />
		<tag k="place" v="locality" />
		<tag k="ssr:stedsnr" v="109811" />
	</node>
	<node lat="64.77497499665428" lon="13.053399992194585" id="-36159">
		<tag k="fixme" v="multiple name tags, choose one and add the other to alt_name" />
		<tag k="name" v="Stortromsdalen;Tromsdalen - Trompenvuemie" />
		<tag k="name:no" v="Stortromsdalen;Tromsdalen" />
		<tag k="name:sma" v="Trompenvuemie" />
		<tag k="natural" v="valley" />
		<tag k="place" v="locality" />
		<tag k="ssr:stedsnr" v="135022" />
	</node>
	<node lat="64.78141388621292" lon="12.75652499877966" id="-36160">
		<tag k="fixme" v="consider natural=peak for the most distinct mountains in the district" />
		<tag k="name" v="Strompdalsåsen" />
		<tag k="natural" v="hill" />
		<tag k="place" v="locality" />
		<tag k="ssr:stedsnr" v="135025" />
	</node>
	<node lat="65.08563055606345" lon="13.461199994448267" id="-36164">
		<tag k="name" v="Bleikarlia" />
		<tag k="natural" v="slope" />
		<tag k="place" v="locality" />
		<tag k="ssr:stedsnr" v="135614" />
	</node>
	<node lat="64.76144999884879" lon="12.646786104462924" id="-36173">
		<tag k="fixme" v="consider natural=peak for the most distinct mountains in the district" />
		<tag k="name" v="Flypynten" />
		<tag k="natural" v="hill" />
		<tag k="place" v="locality" />
		<tag k="ssr:stedsnr" v="136267" />
	</node>
	<node lat="64.76004167132761" lon="12.658255545666243" id="-36174">
		<tag k="fixme" v="consider natural=peak for the most distinct mountains in the district" />
		<tag k="name" v="Flyan" />
		<tag k="natural" v="hill" />
		<tag k="place" v="locality" />
		<tag k="ssr:stedsnr" v="136268" />
	</node>
	<node lat="64.78261110837359" lon="12.839536101553918" id="-36178">
		<tag k="name" v="Flåttådalsskardet" />
		<tag k="natural" v="valley" />
		<tag k="place" v="locality" />
		<tag k="ssr:stedsnr" v="257026" />
	</node>
	<node lat="64.79363055834575" lon="12.779575004960535" id="-36179">
		<tag k="fixme" v="consider natural=peak for the most distinct mountains in the district" />
		<tag k="name" v="Råfjellet - Rååantjahke" />
		<tag k="name:no" v="Råfjellet" />
		<tag k="name:sma" v="Rååantjahke" />
		<tag k="natural" v="hill" />
		<tag k="place" v="locality" />
		<tag k="ssr:stedsnr" v="257029" />
	</node>
	<node lat="64.82408055516296" lon="12.661383338531198" id="-36184">
		<tag k="name" v="Tverrelvdalen" />
		<tag k="natural" v="valley" />
		<tag k="place" v="locality" />
		<tag k="ssr:stedsnr" v="257225" />
	</node>
	<node lat="64.82015277934417" lon="13.135902771195894" id="-36186">
		<tag k="fixme" v="consider natural=peak for the most distinct mountains in the district" />
		<tag k="name" v="Todorspeten - Tjaktjanjuenie" />
		<tag k="name:no" v="Todorspeten" />
		<tag k="name:sma" v="Tjaktjanjuenie" />
		<tag k="natural" v="hill" />
		<tag k="place" v="locality" />
		<tag k="ssr:stedsnr" v="257096" />
	</node>
	<node lat="64.9387138919135" lon="13.041927781326962" id="-36189">
		<tag k="name" v="Bekkdalen" />
		<tag k="natural" v="valley" />
		<tag k="place" v="locality" />
		<tag k="ssr:stedsnr" v="257192" />
	</node>
	<node lat="64.69532777974582" lon="13.016166673266396" id="-36193">
		<tag k="name" v="Halldordomma" />
		<tag k="natural" v="valley" />
		<tag k="place" v="locality" />
		<tag k="ssr:stedsnr" v="257393" />
	</node>
	<node lat="65.08355833349314" lon="13.22818889137411" id="-36195">
		<tag k="fixme" v="consider natural=peak for the most distinct mountains in the district" />
		<tag k="name" v="Gåsvassklumpen - Reetjkenvaartoe" />
		<tag k="name:no" v="Gåsvassklumpen" />
		<tag k="name:sma" v="Reetjkenvaartoe" />
		<tag k="natural" v="hill" />
		<tag k="place" v="locality" />
		<tag k="ssr:stedsnr" v="257681" />
	</node>
	<node lat="64.95931666261538" lon="13.097097226495906" id="-36204">
		<tag k="name" v="Viesletta" />
		<tag k="place" v="locality" />
		<tag k="ssr:stedsnr" v="168359" />
	</node>
	<node lat="64.79176944761926" lon="12.727333344248104" id="-36206">
		<tag k="name" v="Hyttdalen" />
		<tag k="natural" v="valley" />
		<tag k="place" v="locality" />
		<tag k="ssr:stedsnr" v="169009" />
	</node>
	<node lat="64.86349722505253" lon="13.15174723208517" id="-36207">
		<tag k="name" v="Grønnhaugen" />
		<tag k="natural" v="hill" />
		<tag k="place" v="locality" />
		<tag k="ssr:stedsnr" v="169357" />
	</node>
	<node lat="64.9924472218549" lon="12.979666662842146" id="-36209">
		<tag k="name" v="Skatollia" />
		<tag k="natural" v="slope" />
		<tag k="place" v="locality" />
		<tag k="ssr:stedsnr" v="169883" />
	</node>
	<node lat="64.94241666897149" lon="12.898269452766666" id="-36220">
		<tag k="fixme" v="consider natural=peak for the most distinct mountains in the district" />
		<tag k="name" v="Blåfjellet - Guertiesmehkien barsje" />
		<tag k="name:no" v="Blåfjellet" />
		<tag k="name:sma" v="Guertiesmehkien barsje" />
		<tag k="natural" v="hill" />
		<tag k="place" v="locality" />
		<tag k="ssr:stedsnr" v="266154" />
	</node>
	<node lat="64.8628194458703" lon="13.13951665736602" id="-36223">
		<tag k="name" v="Middagshaugen" />
		<tag k="natural" v="hill" />
		<tag k="place" v="locality" />
		<tag k="ssr:stedsnr" v="196109" />
	</node>
	<node lat="64.84411111042942" lon="13.165266676852099" id="-36224">
		<tag k="name" v="Raudberga" />
		<tag k="natural" v="hill" />
		<tag k="place" v="locality" />
		<tag k="ssr:stedsnr" v="196110" />
	</node>
	<node lat="64.95169722569753" lon="13.161055556126767" id="-36225">
		<tag k="name" v="Råslåtten" />
		<tag k="natural" v="valley" />
		<tag k="place" v="locality" />
		<tag k="ssr:stedsnr" v="196133" />
	</node>
	<node lat="64.93287499601344" lon="12.733113883129144" id="-36226">
		<tag k="fixme" v="consider natural=peak for the most distinct mountains in the district" />
		<tag k="name" v="Vesteråklumpen" />
		<tag k="natural" v="hill" />
		<tag k="place" v="locality" />
		<tag k="ssr:stedsnr" v="196137" />
	</node>
	<node lat="64.79396110860507" lon="12.665469448673463" id="-36230">
		<tag k="fixme" v="consider natural=peak for the most distinct mountains in the district" />
		<tag k="name" v="Vakkeråsen" />
		<tag k="natural" v="hill" />
		<tag k="place" v="locality" />
		<tag k="ssr:stedsnr" v="197266" />
	</node>
	<node lat="65.0229777754749" lon="12.971213880331495" id="-36233">
		<tag k="name" v="Måskoesvaajja" />
		<tag k="name:sma" v="Måskoesvaajja" />
		<tag k="natural" v="valley" />
		<tag k="place" v="locality" />
		<tag k="ssr:stedsnr" v="197777" />
	</node>
	<node lat="64.73478333253654" lon="12.712469450847681" id="-36234">
		<tag k="alt_name" v="Lauvhaugen" />
		<tag k="name" v="Leikhaugen" />
		<tag k="natural" v="hill" />
		<tag k="place" v="locality" />
		<tag k="ssr:stedsnr" v="197902" />
	</node>
	<node lat="64.73139166641842" lon="12.59621111387825" id="-36235">
		<tag k="name" v="Kvitådalen" />
		<tag k="natural" v="valley" />
		<tag k="place" v="locality" />
		<tag k="ssr:stedsnr" v="197920" />
	</node>
	<node lat="65.02879444269533" lon="13.335174993759127" id="-36238">
		<tag k="fixme" v="consider natural=peak for the most distinct mountains in the district" />
		<tag k="name" v="Nerfjellet" />
		<tag k="natural" v="hill" />
		<tag k="place" v="locality" />
		<tag k="ssr:stedsnr" v="197878" />
	</node>
	<node lat="65.03524722387456" lon="13.251558339710249" id="-36242">
		<tag k="name" v="Magerfisktjønndalen" />
		<tag k="natural" v="valley" />
		<tag k="place" v="locality" />
		<tag k="ssr:stedsnr" v="227378" />
	</node>
	<node lat="64.89770277618422" lon="13.083469434840604" id="-36247">
		<tag k="name" v="Russerleiren" />
		<tag k="natural" v="slope" />
		<tag k="place" v="locality" />
		<tag k="ssr:stedsnr" v="228497" />
	</node>
	<node lat="64.64851388838265" lon="13.074802777235792" id="-36250">
		<tag k="name" v="Storskorovasslia" />
		<tag k="natural" v="slope" />
		<tag k="place" v="locality" />
		<tag k="ssr:stedsnr" v="229180" />
	</node>
	<node lat="64.80248610893906" lon="12.986638882921158" id="-36254">
		<tag k="fixme" v="consider natural=peak for the most distinct mountains in the district" />
		<tag k="name" v="Rubben" />
		<tag k="natural" v="hill" />
		<tag k="place" v="locality" />
		<tag k="ssr:stedsnr" v="230807" />
	</node>
	<node lat="64.76483610789198" lon="12.9900027690062" id="-36262">
		<tag k="fixme" v="consider natural=peak for the most distinct mountains in the district" />
		<tag k="name" v="Joåsen" />
		<tag k="natural" v="hill" />
		<tag k="place" v="locality" />
		<tag k="ssr:stedsnr" v="257012" />
	</node>
	<node lat="64.83760555791895" lon="12.896777779371497" id="-36265">
		<tag k="name" v="Nordslettråa" />
		<tag k="natural" v="valley" />
		<tag k="place" v="locality" />
		<tag k="ssr:stedsnr" v="257123" />
	</node>
	<node lat="64.90597777562779" lon="12.98715277565537" id="-36269">
		<tag k="name" v="Tverrdalen - Sijhtiejælla" />
		<tag k="name:no" v="Tverrdalen" />
		<tag k="name:sma" v="Sijhtiejælla" />
		<tag k="natural" v="valley" />
		<tag k="place" v="locality" />
		<tag k="ssr:stedsnr" v="257612" />
	</node>
	<node lat="64.97413333194163" lon="13.172227781641732" id="-36275">
		<tag k="name" v="Bekkdalen" />
		<tag k="natural" v="valley" />
		<tag k="place" v="locality" />
		<tag k="ssr:stedsnr" v="288387" />
	</node>
	<node lat="64.86402777351242" lon="13.136263893109582" id="-36278">
		<tag k="name" v="Bjørklia" />
		<tag k="natural" v="slope" />
		<tag k="place" v="locality" />
		<tag k="ssr:stedsnr" v="288398" />
	</node>
	<node lat="64.84963611571526" lon="13.065716659183837" id="-36282">
		<tag k="name" v="Lia" />
		<tag k="natural" v="slope" />
		<tag k="place" v="locality" />
		<tag k="ssr:stedsnr" v="289505" />
	</node>
	<node lat="64.77886111234439" lon="12.671497214126605" id="-36285">
		<tag k="name" v="Langmyråsen" />
		<tag k="natural" v="slope" />
		<tag k="place" v="locality" />
		<tag k="ssr:stedsnr" v="290025" />
	</node>
	<node lat="64.76699444778961" lon="12.758405566356458" id="-36287">
		<tag k="name" v="Fremmer Tjønnmyråsen" />
		<tag k="natural" v="hill" />
		<tag k="place" v="locality" />
		<tag k="ssr:stedsnr" v="290030" />
	</node>
	<node lat="64.74372499907484" lon="12.796183342926646" id="-36288">
		<tag k="fixme" v="consider natural=peak for the most distinct mountains in the district" />
		<tag k="name" v="Skarvåsfjellet" />
		<tag k="natural" v="hill" />
		<tag k="place" v="locality" />
		<tag k="ssr:stedsnr" v="289791" />
	</node>
	<node lat="64.66917499893525" lon="12.902613898011762" id="-36290">
		<tag k="name" v="Erikstuåsen" />
		<tag k="natural" v="hill" />
		<tag k="place" v="locality" />
		<tag k="ssr:stedsnr" v="290776" />
	</node>
	<node lat="64.88270833091191" lon="12.883258323467027" id="-36294">
		<tag k="name" v="Storliberget" />
		<tag k="natural" v="hill" />
		<tag k="place" v="locality" />
		<tag k="ssr:stedsnr" v="290883" />
	</node>
	<node lat="64.672783330543" lon="12.947386107856458" id="-36295">
		<tag k="name" v="Fallet" />
		<tag k="natural" v="hill" />
		<tag k="place" v="locality" />
		<tag k="ssr:stedsnr" v="291303" />
	</node>
	<node lat="64.82420278032251" lon="13.108319454869484" id="-36296">
		<tag k="name" v="Røkkumholet" />
		<tag k="natural" v="valley" />
		<tag k="place" v="locality" />
		<tag k="ssr:stedsnr" v="291385" />
	</node>
	<node lat="64.97583611545087" lon="12.998330551517055" id="-36310">
		<tag k="name" v="Nylodo" />
		<tag k="natural" v="valley" />
		<tag k="place" v="locality" />
		<tag k="ssr:stedsnr" v="317142" />
	</node>
	<node lat="64.90816388484818" lon="12.835366670722388" id="-36312">
		<tag k="alt_name" v="Sæterhaugen" />
		<tag k="name" v="Seterhaugen" />
		<tag k="natural" v="hill" />
		<tag k="place" v="locality" />
		<tag k="ssr:stedsnr" v="318142" />
	</node>
	<node lat="64.9056000019126" lon="13.020302775240754" id="-36314">
		<tag k="name" v="Litlhaugen" />
		<tag k="natural" v="hill" />
		<tag k="place" v="locality" />
		<tag k="ssr:stedsnr" v="318147" />
	</node>
	<node lat="64.94319722229383" lon="13.214927781311916" id="-36315">
		<tag k="fixme" v="consider natural=peak for the most distinct mountains in the district" />
		<tag k="name" v="Sandåmoklumpen" />
		<tag k="natural" v="hill" />
		<tag k="place" v="locality" />
		<tag k="ssr:stedsnr" v="318148" />
	</node>
	<node lat="64.93964722545083" lon="13.023861105297497" id="-36316">
		<tag k="alt_name" v="Gammelgårdhaugen" />
		<tag k="name" v="Gammalgardhaugen" />
		<tag k="natural" v="hill" />
		<tag k="place" v="locality" />
		<tag k="ssr:stedsnr" v="318150" />
	</node>
	<node lat="64.89327499854336" lon="13.29007222976326" id="-36318">
		<tag k="fixme" v="consider natural=peak for the most distinct mountains in the district" />
		<tag k="name" v="Gaallinentjahke" />
		<tag k="name:sma" v="Gaallinentjahke" />
		<tag k="natural" v="hill" />
		<tag k="place" v="locality" />
		<tag k="ssr:stedsnr" v="318501" />
	</node>
	<node lat="65.06232221826717" lon="13.30600278406406" id="-36320">
		<tag k="name" v="Nedatt" />
		<tag k="natural" v="slope" />
		<tag k="place" v="locality" />
		<tag k="ssr:stedsnr" v="470328" />
	</node>
	<node lat="64.84767499928014" lon="12.985969442384285" id="-36330">
		<tag k="name" v="Nikolhaugen" />
		<tag k="natural" v="hill" />
		<tag k="place" v="locality" />
		<tag k="ssr:stedsnr" v="470477" />
	</node>
	<node lat="64.7633694465086" lon="12.853847215037323" id="-36331">
		<tag k="name" v="Petterhaugen" />
		<tag k="natural" v="hill" />
		<tag k="place" v="locality" />
		<tag k="ssr:stedsnr" v="470609" />
	</node>
	<node lat="64.68363610808265" lon="12.80581944582255" id="-36335">
		<tag k="name" v="Johannesstuåsen" />
		<tag k="natural" v="ridge" />
		<tag k="place" v="locality" />
		<tag k="ssr:stedsnr" v="471632" />
	</node>
	<node lat="64.77753055262353" lon="12.619488887636638" id="-36336">
		<tag k="fixme" v="consider natural=peak for the most distinct mountains in the district" />
		<tag k="name" v="Snøådalsfjellet" />
		<tag k="natural" v="hill" />
		<tag k="place" v="locality" />
		<tag k="ssr:stedsnr" v="472020" />
	</node>
	<node lat="64.79861666679" lon="12.715447219769194" id="-36338">
		<tag k="name" v="Stormyrliin" />
		<tag k="natural" v="slope" />
		<tag k="place" v="locality" />
		<tag k="ssr:stedsnr" v="472034" />
	</node>
	<node lat="64.66570555809935" lon="13.008236106358979" id="-36339">
		<tag k="name" v="Stormoen" />
		<tag k="place" v="locality" />
		<tag k="ssr:stedsnr" v="472157" />
	</node>
	<node lat="64.85449166804284" lon="13.154277770602237" id="-36342">
		<tag k="name" v="Raudberga" />
		<tag k="natural" v="hill" />
		<tag k="place" v="locality" />
		<tag k="ssr:stedsnr" v="472328" />
	</node>
	<node lat="64.65636666480422" lon="12.910527787066853" id="-36347">
		<tag k="name" v="Karlstu" />
		<tag k="place" v="locality" />
		<tag k="ssr:stedsnr" v="472798" />
	</node>
	<node lat="64.93747777429526" lon="12.96498055850975" id="-36348">
		<tag k="name" v="Skarvdalen" />
		<tag k="natural" v="valley" />
		<tag k="place" v="locality" />
		<tag k="ssr:stedsnr" v="472887" />
	</node>
	<node lat="64.89365277938836" lon="12.909069434359088" id="-36349">
		<tag k="name" v="Tverrdalen" />
		<tag k="natural" v="valley" />
		<tag k="place" v="locality" />
		<tag k="ssr:stedsnr" v="472888" />
	</node>
	<node lat="64.8942222209361" lon="13.19030277129868" id="-36352">
		<tag k="name" v="Løsmundhaugen" />
		<tag k="natural" v="hill" />
		<tag k="place" v="locality" />
		<tag k="ssr:stedsnr" v="348311" />
	</node>
	<node lat="65.08738888757401" lon="13.346383334640512" id="-36353">
		<tag k="name" v="Vikadalen" />
		<tag k="natural" v="valley" />
		<tag k="place" v="locality" />
		<tag k="ssr:stedsnr" v="348320" />
	</node>
	<node lat="64.907119441181" lon="12.945036109613593" id="-36379">
		<tag k="name" v="Langtjønnskardet" />
		<tag k="natural" v="valley" />
		<tag k="place" v="locality" />
		<tag k="ssr:stedsnr" v="378165" />
	</node>
	<node lat="64.92087700252505" lon="13.015334654439776" id="-36381">
		<tag k="name" v="Hevlan" />
		<tag k="natural" v="slope" />
		<tag k="place" v="locality" />
		<tag k="ssr:stedsnr" v="378179" />
	</node>
	<node lat="64.51252777438778" lon="13.078599992992727" id="-36382">
		<tag k="fixme" v="consider natural=peak for the most distinct mountains in the district" />
		<tag k="name" v="Langløyftfjella" />
		<tag k="natural" v="hill" />
		<tag k="place" v="locality" />
		<tag k="ssr:stedsnr" v="378308" />
	</node>
	<node lat="64.85228333523837" lon="12.519733342755424" id="-36386">
		<tag k="fixme" v="consider natural=peak for the most distinct mountains in the district" />
		<tag k="name" v="Kvernfjellet - Pliehtjeguevtelennjuenie" />
		<tag k="name:no" v="Kvernfjellet" />
		<tag k="name:sma" v="Pliehtjeguevtelennjuenie" />
		<tag k="natural" v="hill" />
		<tag k="place" v="locality" />
		<tag k="ssr:stedsnr" v="378810" />
	</node>
	<node lat="64.78048888745961" lon="12.614083341593892" id="-36387">
		<tag k="name" v="Haukfjelldalen" />
		<tag k="natural" v="valley" />
		<tag k="place" v="locality" />
		<tag k="ssr:stedsnr" v="379242" />
	</node>
	<node lat="64.8352249969505" lon="12.948722222579297" id="-36391">
		<tag k="name" v="Kjerrhaugen" />
		<tag k="natural" v="hill" />
		<tag k="place" v="locality" />
		<tag k="ssr:stedsnr" v="409330" />
	</node>
	<node lat="64.88230277582318" lon="13.116388897506114" id="-36392">
		<tag k="name" v="Stordalen" />
		<tag k="natural" v="valley" />
		<tag k="place" v="locality" />
		<tag k="ssr:stedsnr" v="409336" />
	</node>
	<node lat="64.84677222240728" lon="13.11423056074723" id="-36395">
		<tag k="name" v="Toddorspeten" />
		<tag k="natural" v="hill" />
		<tag k="place" v="locality" />
		<tag k="ssr:stedsnr" v="409447" />
	</node>
	<node lat="64.90365833321178" lon="13.190966658936876" id="-36397">
		<tag k="name" v="Sagbukkan" />
		<tag k="place" v="locality" />
		<tag k="ssr:stedsnr" v="409397" />
	</node>
	<node lat="64.89808055605863" lon="13.195513879557945" id="-36398">
		<tag k="name" v="Skardet" />
		<tag k="natural" v="valley" />
		<tag k="place" v="locality" />
		<tag k="ssr:stedsnr" v="409399" />
	</node>
	<node lat="64.83885555602107" lon="13.02140278075078" id="-36399">
		<tag k="name" v="Lungfjellet" />
		<tag k="natural" v="hill" />
		<tag k="place" v="locality" />
		<tag k="ssr:stedsnr" v="410502" />
	</node>
	<node lat="64.72408611481592" lon="12.86556111490193" id="-36402">
		<tag k="fixme" v="consider natural=peak for the most distinct mountains in the district" />
		<tag k="name" v="Kjelmofjellet" />
		<tag k="natural" v="hill" />
		<tag k="place" v="locality" />
		<tag k="ssr:stedsnr" v="410631" />
	</node>
	<node lat="64.82358888603913" lon="12.70076388263037" id="-36406">
		<tag k="fixme" v="consider natural=peak for the most distinct mountains in the district" />
		<tag k="name" v="Tverrelvdalsfjellet" />
		<tag k="natural" v="hill" />
		<tag k="place" v="locality" />
		<tag k="ssr:stedsnr" v="412004" />
	</node>
	<node lat="65.09854444382268" lon="13.232630553810191" id="-36410">
		<tag k="name" v="Rapet" />
		<tag k="natural" v="hill" />
		<tag k="place" v="locality" />
		<tag k="ssr:stedsnr" v="412305" />
	</node>
	<node lat="65.08737777953074" lon="13.441447231836108" id="-36411">
		<tag k="name" v="Mattishaugen" />
		<tag k="natural" v="hill" />
		<tag k="place" v="locality" />
		<tag k="ssr:stedsnr" v="412296" />
	</node>
	<node lat="65.09771389009128" lon="13.419702773241276" id="-36412">
		<tag k="name" v="Storelvlia" />
		<tag k="natural" v="slope" />
		<tag k="place" v="locality" />
		<tag k="ssr:stedsnr" v="412297" />
	</node>
	<node lat="64.80577222124954" lon="13.099622225716432" id="-36413">
		<tag k="name" v="Kjellaren" />
		<tag k="natural" v="slope" />
		<tag k="place" v="locality" />
		<tag k="ssr:stedsnr" v="412788" />
	</node>
	<node lat="65.08843055975291" lon="13.546988891848196" id="-36433">
		<tag k="fixme" v="consider natural=peak for the most distinct mountains in the district" />
		<tag k="name" v="Rundfjellet - Jarpetjahke" />
		<tag k="name:no" v="Rundfjellet" />
		<tag k="name:sma" v="Jarpetjahke" />
		<tag k="natural" v="hill" />
		<tag k="place" v="locality" />
		<tag k="ssr:stedsnr" v="439617" />
	</node>
	<node lat="64.86841944769324" lon="12.906300001127992" id="-36436">
		<tag k="name" v="Haukberget" />
		<tag k="natural" v="hill" />
		<tag k="place" v="locality" />
		<tag k="ssr:stedsnr" v="440108" />
	</node>
	<node lat="64.88141944189411" lon="13.22918888736008" id="-36437">
		<tag k="name" v="Sponsengoeble" />
		<tag k="name:sma" v="Sponsengoeble" />
		<tag k="natural" v="slope" />
		<tag k="place" v="locality" />
		<tag k="ssr:stedsnr" v="440492" />
	</node>
	<node lat="65.0131305595514" lon="13.416669440866453" id="-36438">
		<tag k="fixme" v="consider natural=peak for the most distinct mountains in the district" />
		<tag k="name" v="Jijse - Gisen" />
		<tag k="name:no" v="Gisen" />
		<tag k="name:sma" v="Jijse" />
		<tag k="natural" v="hill" />
		<tag k="place" v="locality" />
		<tag k="ssr:stedsnr" v="445879" />
	</node>
	<node lat="64.98483889254521" lon="12.933961102922614" id="-36439">
		<tag k="fixme" v="consider natural=peak for the most distinct mountains in the district" />
		<tag k="name" v="Skatollet - Njåemelentjahke" />
		<tag k="name:no" v="Skatollet" />
		<tag k="name:sma" v="Njåemelentjahke" />
		<tag k="natural" v="hill" />
		<tag k="place" v="locality" />
		<tag k="ssr:stedsnr" v="449118" />
	</node>
	<node lat="65.09906389232762" lon="13.32809723298158" id="-36442">
		<tag k="fixme" v="consider natural=peak for the most distinct mountains in the district" />
		<tag k="name" v="Langtjønnåsen" />
		<tag k="natural" v="hill" />
		<tag k="place" v="locality" />
		<tag k="ssr:stedsnr" v="470286" />
	</node>
	<node lat="64.89952500202808" lon="13.095727768671393" id="-36443">
		<tag k="name" v="Namstadlia" />
		<tag k="natural" v="slope" />
		<tag k="place" v="locality" />
		<tag k="ssr:stedsnr" v="470422" />
	</node>
	<node lat="64.97544444187608" lon="13.174913891881049" id="-36445">
		<tag k="name" v="Fjellenden" />
		<tag k="place" v="locality" />
		<tag k="ssr:stedsnr" v="470376" />
	</node>
	<node lat="64.78735000355412" lon="12.893436102077544" id="-36446">
		<tag k="name" v="Flåtådalsmoen" />
		<tag k="place" v="locality" />
		<tag k="ssr:stedsnr" v="470611" />
	</node>
	<node lat="64.6733611100868" lon="12.970711117012753" id="-36452">
		<tag k="name" v="Lauvhaugen" />
		<tag k="natural" v="hill" />
		<tag k="place" v="locality" />
		<tag k="ssr:stedsnr" v="472163" />
	</node>
	<node lat="64.94267777571544" lon="13.233669449412885" id="-36453">
		<tag k="name" v="Vakkerlia" />
		<tag k="natural" v="slope" />
		<tag k="place" v="locality" />
		<tag k="ssr:stedsnr" v="472408" />
	</node>
	<node lat="64.77699166814966" lon="12.952866671580978" id="-36454">
		<tag k="name" v="Josefmyrdalan" />
		<tag k="natural" v="valley" />
		<tag k="place" v="locality" />
		<tag k="ssr:stedsnr" v="472810" />
	</node>
	<node lat="64.79771666982813" lon="12.844408336451947" id="-36470">
		<tag k="fixme" v="consider natural=peak for the most distinct mountains in the district" />
		<tag k="name" v="Kyrkjefjellet" />
		<tag k="natural" v="hill" />
		<tag k="place" v="locality" />
		<tag k="ssr:stedsnr" v="500040" />
	</node>
	<node lat="64.80600000148927" lon="13.092058323906624" id="-36474">
		<tag k="fixme" v="consider natural=peak for the most distinct mountains in the district" />
		<tag k="name" v="Tjahkatjåalhte" />
		<tag k="name:sma" v="Tjahkatjåalhte" />
		<tag k="natural" v="hill" />
		<tag k="place" v="locality" />
		<tag k="ssr:stedsnr" v="500108" />
	</node>
	<node lat="64.84273888866493" lon="12.831016674223147" id="-36484">
		<tag k="name" v="Storhaugen - Jollevaartoe" />
		<tag k="name:no" v="Storhaugen" />
		<tag k="name:sma" v="Jollevaartoe" />
		<tag k="natural" v="hill" />
		<tag k="place" v="locality" />
		<tag k="ssr:stedsnr" v="682078" />
	</node>
	<node lat="64.86970833017776" lon="12.802230557305442" id="-36485">
		<tag k="name" v="Bjørelvdalen - Graesievaajja" />
		<tag k="name:no" v="Bjørelvdalen" />
		<tag k="name:sma" v="Graesievaajja" />
		<tag k="natural" v="valley" />
		<tag k="place" v="locality" />
		<tag k="ssr:stedsnr" v="682089" />
	</node>
	<node lat="64.80661666938455" lon="12.805619437966472" id="-36488">
		<tag k="fixme" v="consider natural=peak for the most distinct mountains in the district" />
		<tag k="name" v="Strompdalsaksla" />
		<tag k="natural" v="hill" />
		<tag k="old_name" v="Stompdalsaksla" />
		<tag k="place" v="locality" />
		<tag k="ssr:stedsnr" v="682102" />
	</node>
	<node lat="64.79709444391546" lon="13.043425010333202" id="-36496">
		<tag k="fixme" v="consider natural=peak for the most distinct mountains in the district" />
		<tag k="name" v="Litlfjellet" />
		<tag k="natural" v="hill" />
		<tag k="place" v="locality" />
		<tag k="ssr:stedsnr" v="682034" />
	</node>
	<node lat="64.78248889258087" lon="12.80665832535468" id="-36497">
		<tag k="name" v="Ausvassråa" />
		<tag k="natural" v="valley" />
		<tag k="place" v="locality" />
		<tag k="ssr:stedsnr" v="682040" />
	</node>
	<node lat="64.9615472214529" lon="13.22870278534692" id="-36499">
		<tag k="name" v="Toddorhaugen" />
		<tag k="natural" v="hill" />
		<tag k="place" v="locality" />
		<tag k="ssr:stedsnr" v="682052" />
	</node>
	<node lat="64.97343055825408" lon="12.789500003104047" id="-36500">
		<tag k="fixme" v="consider natural=peak for the most distinct mountains in the district" />
		<tag k="name" v="Nessafjellet" />
		<tag k="natural" v="hill" />
		<tag k="place" v="locality" />
		<tag k="ssr:stedsnr" v="682175" />
	</node>
	<node lat="64.93406666225592" lon="12.845491672728981" id="-36502">
		<tag k="fixme" v="consider natural=peak for the most distinct mountains in the district" />
		<tag k="name" v="Mortenslifjellet - Guevtelsjaevrien dalvesh" />
		<tag k="name:no" v="Mortenslifjellet" />
		<tag k="name:sma" v="Guevtelsjaevrien dalvesh" />
		<tag k="natural" v="hill" />
		<tag k="place" v="locality" />
		<tag k="ssr:stedsnr" v="682195" />
	</node>
	<node lat="64.82058610852233" lon="13.004399989238628" id="-36503">
		<tag k="fixme" v="consider natural=peak for the most distinct mountains in the district" />
		<tag k="name" v="Rubben" />
		<tag k="natural" v="hill" />
		<tag k="place" v="locality" />
		<tag k="ssr:stedsnr" v="682122" />
	</node>
	<node lat="64.82109444031182" lon="12.825741657215048" id="-36504">
		<tag k="name" v="Flåttådalen - Pluahtajælla" />
		<tag k="name:no" v="Flåttådalen" />
		<tag k="name:sma" v="Pluahtajælla" />
		<tag k="natural" v="valley" />
		<tag k="place" v="locality" />
		<tag k="ssr:stedsnr" v="682134" />
	</node>
	<node lat="64.83435277428487" lon="13.180836103530654" id="-36505">
		<tag k="fixme" v="consider natural=peak for the most distinct mountains in the district" />
		<tag k="name" v="Klimpen" />
		<tag k="natural" v="hill" />
		<tag k="place" v="locality" />
		<tag k="ssr:stedsnr" v="682135" />
	</node>
	<node lat="64.85639444268341" lon="13.109005563149625" id="-36506">
		<tag k="alt_name" v="Koksbekksletta" />
		<tag k="name" v="Koksbakksletta" />
		<tag k="place" v="locality" />
		<tag k="ssr:stedsnr" v="682141" />
	</node>
	<node lat="64.7783194481467" lon="12.530133323554137" id="-36511">
		<tag k="fixme" v="consider natural=peak for the most distinct mountains in the district" />
		<tag k="name" v="Kjølstadfjellet - Råantjatjahke" />
		<tag k="name:no" v="Kjølstadfjellet" />
		<tag k="name:sma" v="Råantjatjahke" />
		<tag k="natural" v="hill" />
		<tag k="place" v="locality" />
		<tag k="ssr:stedsnr" v="682928" />
	</node>
	<node lat="65.04973055223495" lon="13.433494451561865" id="-36514">
		<tag k="name" v="Ørnhaugen" />
		<tag k="natural" v="hill" />
		<tag k="place" v="locality" />
		<tag k="ssr:stedsnr" v="682898" />
	</node>
	<node lat="64.84869999616691" lon="13.038086115964349" id="-36519">
		<tag k="name" v="Bjørklibakken" />
		<tag k="natural" v="slope" />
		<tag k="place" v="locality" />
		<tag k="ssr:stedsnr" v="531507" />
	</node>
	<node lat="64.77147222315156" lon="12.840830554694442" id="-36520">
		<tag k="name" v="Trongfossfjellet" />
		<tag k="natural" v="hill" />
		<tag k="place" v="locality" />
		<tag k="ssr:stedsnr" v="531671" />
	</node>
	<node lat="64.81169166977148" lon="12.918208330066282" id="-36523">
		<tag k="name" v="Hanshusmoen" />
		<tag k="place" v="locality" />
		<tag k="ssr:stedsnr" v="532477" />
	</node>
	<node lat="64.87405277790812" lon="13.065847223752513" id="-36526">
		<tag k="name" v="Øvre Langhaugen" />
		<tag k="natural" v="hill" />
		<tag k="place" v="locality" />
		<tag k="ssr:stedsnr" v="532488" />
	</node>
	<node lat="64.85933055200434" lon="13.073102769313262" id="-36527">
		<tag k="name" v="Middagshaugen" />
		<tag k="natural" v="hill" />
		<tag k="place" v="locality" />
		<tag k="ssr:stedsnr" v="532492" />
	</node>
	<node lat="64.85753888649536" lon="12.87062777182661" id="-36532">
		<tag k="name" v="Nyengmoen" />
		<tag k="place" v="locality" />
		<tag k="ssr:stedsnr" v="533918" />
	</node>
	<node lat="64.95834166737285" lon="12.975102771286977" id="-36539">
		<tag k="fixme" v="consider natural=peak for the most distinct mountains in the district" />
		<tag k="loc_name:no" v="Seterfjellet" />
		<tag k="name" v="Sæterfjellet - Guertiesmehkienbavne" />
		<tag k="name:no" v="Sæterfjellet" />
		<tag k="name:sma" v="Guertiesmehkienbavne" />
		<tag k="natural" v="hill" />
		<tag k="place" v="locality" />
		<tag k="ssr:stedsnr" v="560106" />
	</node>
	<node lat="64.96008889200843" lon="13.174030562669838" id="-36540">
		<tag k="fixme" v="consider natural=peak for the most distinct mountains in the district" />
		<tag k="name" v="Håpnesåsen" />
		<tag k="natural" v="hill" />
		<tag k="place" v="locality" />
		<tag k="ssr:stedsnr" v="560107" />
	</node>
	<node lat="64.78818610812094" lon="12.57186667101345" id="-36541">
		<tag k="name" v="Storskavlen" />
		<tag k="natural" v="hill" />
		<tag k="place" v="locality" />
		<tag k="ssr:stedsnr" v="560191" />
	</node>
	<node lat="64.73718510662758" lon="12.949800972704038" id="-36547">
		<tag k="alt_name:no" v="Bjørnhaugen" />
		<tag k="name" v="Bjønnhaugen - Seelpen-nuenie" />
		<tag k="name:no" v="Bjønnhaugen" />
		<tag k="name:sma" v="Seelpen-nuenie" />
		<tag k="natural" v="hill" />
		<tag k="place" v="locality" />
		<tag k="ssr:stedsnr" v="689625" />
	</node>
	<node lat="64.97717221873299" lon="13.165019442656856" id="-36551">
		<tag k="name" v="Frøyningsmoan" />
		<tag k="place" v="locality" />
		<tag k="ssr:stedsnr" v="591409" />
	</node>
	<node lat="64.8651888849101" lon="13.14501387932941" id="-36552">
		<tag k="name" v="Finberga" />
		<tag k="natural" v="hill" />
		<tag k="place" v="locality" />
		<tag k="ssr:stedsnr" v="591413" />
	</node>
	<node lat="64.98756944484579" lon="13.23423888250282" id="-36554">
		<tag k="name" v="Ol-Jakobsamoen" />
		<tag k="place" v="locality" />
		<tag k="ssr:stedsnr" v="591359" />
	</node>
	<node lat="64.71243333413514" lon="12.752611109473548" id="-36557">
		<tag k="name" v="Leikhaugen" />
		<tag k="natural" v="hill" />
		<tag k="place" v="locality" />
		<tag k="ssr:stedsnr" v="592660" />
	</node>
	<node lat="64.9761694414128" lon="12.984644440208836" id="-36564">
		<tag k="fixme" v="consider natural=peak for the most distinct mountains in the district" />
		<tag k="name" v="Skatollfjellet" />
		<tag k="natural" v="hill" />
		<tag k="place" v="locality" />
		<tag k="ssr:stedsnr" v="593869" />
	</node>
	<node lat="64.81890832943255" lon="13.11933333689168" id="-36565">
		<tag k="name" v="Kjellaren" />
		<tag k="natural" v="valley" />
		<tag k="place" v="locality" />
		<tag k="ssr:stedsnr" v="594266" />
	</node>
	<node lat="64.82135833089745" lon="13.120438891012515" id="-36567">
		<tag k="fixme" v="consider natural=peak for the most distinct mountains in the district" />
		<tag k="name" v="Grytåfjellet" />
		<tag k="natural" v="hill" />
		<tag k="place" v="locality" />
		<tag k="ssr:stedsnr" v="594357" />
	</node>
	<node lat="64.87396111213901" lon="12.808138893037391" id="-36579">
		<tag k="alt_name" v="Midtifjellet" />
		<tag k="fixme" v="consider natural=peak for the most distinct mountains in the district" />
		<tag k="name" v="Midtifjellåsen" />
		<tag k="natural" v="hill" />
		<tag k="place" v="locality" />
		<tag k="ssr:stedsnr" v="621067" />
	</node>
	<node lat="64.95347500088826" lon="13.035150006539396" id="-36584">
		<tag k="alt_name:sma" v="Guertiesmehkie, st;Guertiesmehkie, store" />
		<tag k="name" v="Storbjørhusdalen - Stoerre Guertiesmehkie" />
		<tag k="name:no" v="Storbjørhusdalen" />
		<tag k="name:sma" v="Stoerre Guertiesmehkie" />
		<tag k="natural" v="valley" />
		<tag k="place" v="locality" />
		<tag k="ssr:stedsnr" v="621123" />
	</node>
	<node lat="64.5652666643595" lon="13.06684999703561" id="-36586">
		<tag k="name" v="Gierkietjåalhte" />
		<tag k="name:sma" v="Gierkietjåalhte" />
		<tag k="natural" v="hill" />
		<tag k="place" v="locality" />
		<tag k="ssr:stedsnr" v="621310" />
	</node>
	<node lat="64.68419166700731" lon="13.014749995280686" id="-36588">
		<tag k="fixme" v="consider natural=peak for the most distinct mountains in the district" />
		<tag k="name" v="Nordre Grøndalsfjellet" />
		<tag k="natural" v="hill" />
		<tag k="place" v="locality" />
		<tag k="ssr:stedsnr" v="621368" />
	</node>
	<node lat="65.01712499841807" lon="13.078266674437351" id="-36589">
		<tag k="name" v="Måskoesvaajja" />
		<tag k="name:sma" v="Måskoesvaajja" />
		<tag k="natural" v="valley" />
		<tag k="place" v="locality" />
		<tag k="ssr:stedsnr" v="621575" />
	</node>
	<node lat="65.02427499960119" lon="13.053102783144906" id="-36590">
		<tag k="fixme" v="consider natural=peak for the most distinct mountains in the district" />
		<tag k="name" v="Båtfjellet" />
		<tag k="natural" v="hill" />
		<tag k="place" v="locality" />
		<tag k="ssr:stedsnr" v="621576" />
	</node>
	<node lat="65.11122222629828" lon="13.224622221961127" id="-36594">
		<tag k="name" v="Jervheimen" />
		<tag k="place" v="locality" />
		<tag k="ssr:stedsnr" v="621727" />
	</node>
	<node lat="65.00131666351058" lon="13.261219449969278" id="-36597">
		<tag k="name" v="Steinåmoen" />
		<tag k="place" v="locality" />
		<tag k="ssr:stedsnr" v="621878" />
	</node>
	<node lat="64.87412778110745" lon="13.089583329317012" id="-36600">
		<tag k="name" v="Stormyrlia" />
		<tag k="natural" v="slope" />
		<tag k="place" v="locality" />
		<tag k="ssr:stedsnr" v="652297" />
	</node>
	<node lat="64.88016389228423" lon="13.139588884800421" id="-36601">
		<tag k="name" v="Finnhusmoen" />
		<tag k="place" v="locality" />
		<tag k="ssr:stedsnr" v="652403" />
	</node>
	<node lat="64.9057555521079" lon="13.111922225870797" id="-36605">
		<tag k="name" v="Valen" />
		<tag k="natural" v="slope" />
		<tag k="place" v="locality" />
		<tag k="ssr:stedsnr" v="652448" />
	</node>
	<node lat="64.71741667056857" lon="12.809202769155437" id="-36615">
		<tag k="fixme" v="consider natural=peak for the most distinct mountains in the district" />
		<tag k="name" v="Tunnsjøåsen" />
		<tag k="natural" v="hill" />
		<tag k="place" v="locality" />
		<tag k="ssr:stedsnr" v="653613" />
	</node>
	<node lat="64.79288611073405" lon="12.740186109431411" id="-36616">
		<tag k="name" v="Kroken" />
		<tag k="place" v="locality" />
		<tag k="ssr:stedsnr" v="654004" />
	</node>
	<node lat="64.80485555815328" lon="12.727619446566473" id="-36617">
		<tag k="name" v="Litlådalen" />
		<tag k="natural" v="valley" />
		<tag k="place" v="locality" />
		<tag k="ssr:stedsnr" v="654037" />
	</node>
	<node lat="64.67558055952362" lon="12.947630549893558" id="-36618">
		<tag k="name" v="Per-Ellingsahaugen" />
		<tag k="natural" v="hill" />
		<tag k="place" v="locality" />
		<tag k="ssr:stedsnr" v="654811" />
	</node>
	<node lat="64.9791583346877" lon="13.261422222138865" id="-36624">
		<tag k="fixme" v="consider natural=peak for the most distinct mountains in the district" />
		<tag k="name" v="Dortearubben" />
		<tag k="natural" v="hill" />
		<tag k="place" v="locality" />
		<tag k="ssr:stedsnr" v="682067" />
	</node>
	<node lat="64.92602499816584" lon="13.201341674129141" id="-36625">
		<tag k="name" v="Sæterdalen" />
		<tag k="natural" v="valley" />
		<tag k="place" v="locality" />
		<tag k="ssr:stedsnr" v="682204" />
	</node>
	<node lat="64.79962777581545" lon="12.592119443051947" id="-36627">
		<tag k="alt_name" v="Haugfjellet" />
		<tag k="fixme" v="consider natural=peak for the most distinct mountains in the district" />
		<tag k="name" v="Haukfjellet" />
		<tag k="natural" v="hill" />
		<tag k="place" v="locality" />
		<tag k="ssr:stedsnr" v="682220" />
	</node>
	<node lat="64.9850527780958" lon="12.985105548106961" id="-36629">
		<tag k="name" v="Finnskeia" />
		<tag k="natural" v="valley" />
		<tag k="place" v="locality" />
		<tag k="ssr:stedsnr" v="682167" />
	</node>
	<node lat="64.89243610899271" lon="13.024380557110096" id="-36635">
		<tag k="fixme" v="consider natural=peak for the most distinct mountains in the district" />
		<tag k="name" v="Midtifjellet" />
		<tag k="natural" v="hill" />
		<tag k="place" v="locality" />
		<tag k="ssr:stedsnr" v="682617" />
	</node>
	<node lat="64.84890000186358" lon="13.091730555286118" id="-36636">
		<tag k="name" v="Koksbekkdalen" />
		<tag k="natural" v="valley" />
		<tag k="place" v="locality" />
		<tag k="ssr:stedsnr" v="895430" />
	</node>
	<node lat="65.08903055130935" lon="13.323866665959384" id="-36639">
		<tag k="fixme" v="consider natural=peak for the most distinct mountains in the district" />
		<tag k="name" v="Stormyråsen" />
		<tag k="natural" v="hill" />
		<tag k="place" v="locality" />
		<tag k="ssr:stedsnr" v="895350" />
	</node>
	<node lat="64.97626944587678" lon="13.26375833730352" id="-36640">
		<tag k="name" v="Sandåmolia" />
		<tag k="natural" v="slope" />
		<tag k="place" v="locality" />
		<tag k="ssr:stedsnr" v="895354" />
	</node>
	<node lat="64.90038889173822" lon="13.053338890172613" id="-36644">
		<tag k="name" v="Vakkerdalen" />
		<tag k="natural" v="valley" />
		<tag k="place" v="locality" />
		<tag k="ssr:stedsnr" v="896791" />
	</node>
	<node lat="64.71350277486704" lon="12.941900006110204" id="-36646">
		<tag k="fixme" v="consider natural=peak for the most distinct mountains in the district" />
		<tag k="name" v="Grongstadåsen" />
		<tag k="natural" v="hill" />
		<tag k="place" v="locality" />
		<tag k="ssr:stedsnr" v="897750" />
	</node>
	<node lat="64.88712222599943" lon="13.119619448533275" id="-36649">
		<tag k="name" v="Nordlia" />
		<tag k="natural" v="slope" />
		<tag k="place" v="locality" />
		<tag k="ssr:stedsnr" v="713335" />
	</node>
	<node lat="64.89779444412443" lon="13.166605549997335" id="-36651">
		<tag k="name" v="Kvennhusfloen" />
		<tag k="place" v="locality" />
		<tag k="ssr:stedsnr" v="713415" />
	</node>
	<node lat="64.87016667103912" lon="13.040322220524851" id="-36653">
		<tag k="name" v="Kjerrmyra" />
		<tag k="natural" v="slope" />
		<tag k="place" v="locality" />
		<tag k="ssr:stedsnr" v="714734" />
	</node>
	<node lat="64.88618333720318" lon="13.05384999787602" id="-36654">
		<tag k="name" v="Bjørhusdalåsen" />
		<tag k="place" v="locality" />
		<tag k="ssr:stedsnr" v="714737" />
	</node>
	<node lat="64.9788138905983" lon="13.250899994071629" id="-36662">
		<tag k="name" v="Sandåmolia" />
		<tag k="natural" v="slope" />
		<tag k="place" v="locality" />
		<tag k="ssr:stedsnr" v="742003" />
	</node>
	<node lat="64.97461944742462" lon="13.013913879045914" id="-36664">
		<tag k="alt_name" v="Lodohaugan" />
		<tag k="name" v="Lodohaugen" />
		<tag k="natural" v="hill" />
		<tag k="place" v="locality" />
		<tag k="ssr:stedsnr" v="742143" />
	</node>
	<node lat="64.86652500310458" lon="12.753666662792108" id="-36665">
		<tag k="fixme" v="consider natural=peak for the most distinct mountains in the district" />
		<tag k="name" v="Middagsfjellet" />
		<tag k="natural" v="hill" />
		<tag k="place" v="locality" />
		<tag k="ssr:stedsnr" v="743090" />
	</node>
	<node lat="64.91275277819841" lon="12.84196944946735" id="-36671">
		<tag k="name" v="Melan" />
		<tag k="place" v="locality" />
		<tag k="ssr:stedsnr" v="743181" />
	</node>
	<node lat="64.70029166855342" lon="13.060802778509236" id="-36676">
		<tag k="fixme" v="consider natural=peak for the most distinct mountains in the district" />
		<tag k="name" v="Storåsen" />
		<tag k="natural" v="hill" />
		<tag k="place" v="locality" />
		<tag k="ssr:stedsnr" v="743389" />
	</node>
	<node lat="64.9093250043237" lon="13.188552770834646" id="-36690">
		<tag k="name" v="Sørbekkdalen" />
		<tag k="natural" v="valley" />
		<tag k="place" v="locality" />
		<tag k="ssr:stedsnr" v="773402" />
	</node>
	<node lat="64.90505278080755" lon="13.176411103670468" id="-36693">
		<tag k="name" v="Kalkomnen" />
		<tag k="place" v="locality" />
		<tag k="ssr:stedsnr" v="773407" />
	</node>
	<node lat="64.91031110756424" lon="13.186522217396979" id="-36694">
		<tag k="name" v="Rundhaugen" />
		<tag k="natural" v="hill" />
		<tag k="place" v="locality" />
		<tag k="ssr:stedsnr" v="773409" />
	</node>
	<node lat="64.83881667022007" lon="12.960930551872506" id="-36697">
		<tag k="name" v="Storåsen" />
		<tag k="place" v="locality" />
		<tag k="ssr:stedsnr" v="774528" />
	</node>
	<node lat="64.79071666447213" lon="12.916405549480508" id="-36699">
		<tag k="name" v="Langhaugen" />
		<tag k="natural" v="ridge" />
		<tag k="place" v="locality" />
		<tag k="ssr:stedsnr" v="775460" />
	</node>
	<node lat="64.88818055455684" lon="12.944111118513534" id="-36721">
		<tag k="fixme" v="consider natural=peak for the most distinct mountains in the district" />
		<tag k="name" v="Tverrdalsfjellet" />
		<tag k="natural" v="hill" />
		<tag k="place" v="locality" />
		<tag k="ssr:stedsnr" v="804124" />
	</node>
	<node lat="64.61938888577396" lon="13.082886102551988" id="-36724">
		<tag k="fixme" v="consider natural=peak for the most distinct mountains in the district" />
		<tag k="name" v="Gruvfjellet" />
		<tag k="natural" v="hill" />
		<tag k="place" v="locality" />
		<tag k="ssr:stedsnr" v="804362" />
	</node>
	<node lat="64.59713333561304" lon="13.108880561772295" id="-36725">
		<tag k="name" v="Saedtietjåalhte" />
		<tag k="name:sma" v="Saedtietjåalhte" />
		<tag k="natural" v="hill" />
		<tag k="place" v="locality" />
		<tag k="ssr:stedsnr" v="804376" />
	</node>
	<node lat="64.70401111050428" lon="12.706838884341254" id="-36728">
		<tag k="name" v="Lassemolia" />
		<tag k="natural" v="slope" />
		<tag k="place" v="locality" />
		<tag k="ssr:stedsnr" v="835621" />
	</node>
	<node lat="64.7442388889712" lon="12.833066665188753" id="-36729">
		<tag k="name" v="Nordmoan" />
		<tag k="place" v="locality" />
		<tag k="ssr:stedsnr" v="835676" />
	</node>
	<node lat="64.81220277664714" lon="12.927044445842261" id="-36731">
		<tag k="fixme" v="consider natural=peak for the most distinct mountains in the district" />
		<tag k="name" v="Nordstakkengåsen" />
		<tag k="natural" v="hill" />
		<tag k="place" v="locality" />
		<tag k="ssr:stedsnr" v="836434" />
	</node>
	<node lat="64.79261944738242" lon="12.729547227124819" id="-36732">
		<tag k="name" v="Nyskogstuåsen" />
		<tag k="natural" v="slope" />
		<tag k="place" v="locality" />
		<tag k="ssr:stedsnr" v="837009" />
	</node>
	<node lat="64.76525555983184" lon="12.773166657241992" id="-36734">
		<tag k="name" v="Skarvholet" />
		<tag k="natural" v="valley" />
		<tag k="place" v="locality" />
		<tag k="ssr:stedsnr" v="837032" />
	</node>
	<node lat="65.08464722284347" lon="13.36233889477058" id="-36735">
		<tag k="name" v="Skardet" />
		<tag k="natural" v="valley" />
		<tag k="place" v="locality" />
		<tag k="ssr:stedsnr" v="837331" />
	</node>
	<node lat="65.08650000330638" lon="13.367580566658086" id="-36736">
		<tag k="name" v="Bjørkhaugen" />
		<tag k="natural" v="hill" />
		<tag k="place" v="locality" />
		<tag k="ssr:stedsnr" v="837332" />
	</node>
	<node lat="64.65635000339879" lon="12.946944439927135" id="-36740">
		<tag k="name" v="Skjeftmyråsenden" />
		<tag k="natural" v="hill" />
		<tag k="place" v="locality" />
		<tag k="ssr:stedsnr" v="837809" />
	</node>
	<node lat="64.78137500024982" lon="13.007488890267075" id="-36741">
		<tag k="alt_name" v="Sæteråsen" />
		<tag k="fixme" v="consider natural=peak for the most distinct mountains in the district" />
		<tag k="name" v="Seteråsen" />
		<tag k="natural" v="hill" />
		<tag k="place" v="locality" />
		<tag k="ssr:stedsnr" v="925027" />
	</node>
	<node lat="64.85572500117226" lon="12.938208333299256" id="-36747">
		<tag k="name" v="Domma" />
		<tag k="place" v="locality" />
		<tag k="ssr:stedsnr" v="925079" />
	</node>
	<node lat="64.8682111142906" lon="12.914530562736765" id="-36749">
		<tag k="name" v="Haukbergskardet" />
		<tag k="natural" v="valley" />
		<tag k="place" v="locality" />
		<tag k="ssr:stedsnr" v="925092" />
	</node>
	<node lat="64.8221750007468" lon="13.003627784387845" id="-36751">
		<tag k="alt_name" v="Rønnaugskaret;Rønnaugskardet" />
		<tag k="name" v="Rannaugskardet" />
		<tag k="natural" v="valley" />
		<tag k="place" v="locality" />
		<tag k="ssr:stedsnr" v="925115" />
	</node>
	<node lat="64.89761110778723" lon="12.891377769031804" id="-36756">
		<tag k="fixme" v="consider natural=peak for the most distinct mountains in the district" />
		<tag k="name" v="Skarvdalsklumpen" />
		<tag k="natural" v="hill" />
		<tag k="place" v="locality" />
		<tag k="ssr:stedsnr" v="925181" />
	</node>
	<node lat="64.9407277739079" lon="12.947674996161313" id="-36757">
		<tag k="name" v="Blåfjelldomma" />
		<tag k="natural" v="slope" />
		<tag k="place" v="locality" />
		<tag k="ssr:stedsnr" v="925189" />
	</node>
	<node lat="64.9486638910343" lon="13.143538886483947" id="-36762">
		<tag k="fixme" v="consider natural=peak for the most distinct mountains in the district" />
		<tag k="name" v="Håpnesfjellet" />
		<tag k="natural" v="hill" />
		<tag k="place" v="locality" />
		<tag k="ssr:stedsnr" v="925147" />
	</node>
	<node lat="64.94706667000011" lon="13.06523610841796" id="-36764">
		<tag k="name" v="Stormyrklumpen" />
		<tag k="natural" v="hill" />
		<tag k="place" v="locality" />
		<tag k="ssr:stedsnr" v="925159" />
	</node>
	<node lat="65.0378750031152" lon="13.197774999060575" id="-36768">
		<tag k="fixme" v="consider natural=peak for the most distinct mountains in the district" />
		<tag k="name" v="Litlfrøyningsfjellet - Ohtjefreavnandalvese" />
		<tag k="name:no" v="Litlfrøyningsfjellet" />
		<tag k="name:sma" v="Ohtjefreavnandalvese" />
		<tag k="natural" v="hill" />
		<tag k="place" v="locality" />
		<tag k="ssr:stedsnr" v="925565" />
	</node>
	<node lat="64.77585000437274" lon="12.81770556040607" id="-36778">
		<tag k="name" v="Snauskallen" />
		<tag k="natural" v="hill" />
		<tag k="place" v="locality" />
		<tag k="ssr:stedsnr" v="864013" />
	</node>
	<node lat="64.84991666664877" lon="13.103958324817805" id="-36780">
		<tag k="name" v="Koksbakklia" />
		<tag k="natural" v="slope" />
		<tag k="place" v="locality" />
		<tag k="ssr:stedsnr" v="864110" />
	</node>
	<node lat="64.90199999579406" lon="12.763561108827021" id="-36782">
		<tag k="name" v="Steinådalen - Goehpevaajja" />
		<tag k="name:no" v="Steinådalen" />
		<tag k="name:sma" v="Goehpevaajja" />
		<tag k="natural" v="valley" />
		<tag k="place" v="locality" />
		<tag k="ssr:stedsnr" v="864147" />
	</node>
	<node lat="64.90843055228068" lon="13.127902774244378" id="-36783">
		<tag k="alt_name" v="Stormuren" />
		<tag k="fixme" v="consider natural=peak for the most distinct mountains in the district" />
		<tag k="name" v="Stormulen" />
		<tag k="natural" v="hill" />
		<tag k="place" v="locality" />
		<tag k="ssr:stedsnr" v="864156" />
	</node>
	<node lat="64.8299194459449" lon="12.866563891766694" id="-36785">
		<tag k="alt_name:no" v="Bjørndalen" />
		<tag k="name" v="Bjønndalen - Duvriegarse" />
		<tag k="name:no" v="Bjønndalen" />
		<tag k="name:sma" v="Duvriegarse" />
		<tag k="natural" v="valley" />
		<tag k="place" v="locality" />
		<tag k="ssr:stedsnr" v="864102" />
	</node>
	<node lat="64.96514999643264" lon="13.159688895330893" id="-36794">
		<tag k="name" v="Gressdallia" />
		<tag k="natural" v="slope" />
		<tag k="place" v="locality" />
		<tag k="ssr:stedsnr" v="895406" />
	</node>
	<node lat="64.87738610746527" lon="13.143647216416154" id="-36797">
		<tag k="name" v="Merkesdalen" />
		<tag k="natural" v="valley" />
		<tag k="place" v="locality" />
		<tag k="ssr:stedsnr" v="895414" />
	</node>
	<node lat="64.86174166999675" lon="13.124419439289285" id="-36799">
		<tag k="name" v="Grånlia" />
		<tag k="natural" v="slope" />
		<tag k="place" v="locality" />
		<tag k="ssr:stedsnr" v="895424" />
	</node>
	<node lat="64.70925277469797" lon="12.705188890985177" id="-36800">
		<tag k="name" v="Lassemofjellet" />
		<tag k="natural" v="hill" />
		<tag k="place" v="locality" />
		<tag k="ssr:stedsnr" v="896630" />
	</node>
	<node lat="64.78983333008831" lon="12.691844435797195" id="-36808">
		<tag k="name" v="Storfurua" />
		<tag k="place" v="locality" />
		<tag k="ssr:stedsnr" v="897019" />
	</node>
	<node lat="64.70210555315056" lon="12.804050004883495" id="-36826">
		<tag k="alt_name:no" v="Bekkaklompen" />
		<tag k="fixme" v="consider natural=peak for the most distinct mountains in the district" />
		<tag k="name" v="Bekkaklumpen - Jihpegeskurje" />
		<tag k="name:no" v="Bekkaklumpen" />
		<tag k="name:sma" v="Jihpegeskurje" />
		<tag k="natural" v="hill" />
		<tag k="place" v="locality" />
		<tag k="ssr:stedsnr" v="925386" />
	</node>
	<node lat="64.86280000057685" lon="13.250524994070334" id="-36828">
		<tag k="name" v="Kleiva" />
		<tag k="natural" v="slope" />
		<tag k="place" v="locality" />
		<tag k="ssr:stedsnr" v="925423" />
	</node>
	<node lat="64.90099444529443" lon="13.280622223663618" id="-36829">
		<tag k="name" v="Kjerrådomma" />
		<tag k="natural" v="valley" />
		<tag k="place" v="locality" />
		<tag k="ssr:stedsnr" v="925505" />
	</node>
	<node lat="64.91069166983905" lon="13.322499997167501" id="-36830">
		<tag k="fixme" v="consider natural=peak for the most distinct mountains in the district" />
		<tag k="name" v="Ohtje Stöörje" />
		<tag k="name:sma" v="Ohtje Stöörje" />
		<tag k="natural" v="hill" />
		<tag k="place" v="locality" />
		<tag k="ssr:stedsnr" v="925512" />
	</node>
	<node lat="65.06583055328392" lon="13.301252776890427" id="-36831">
		<tag k="fixme" v="consider natural=peak for the most distinct mountains in the district" />
		<tag k="name" v="Høgda" />
		<tag k="natural" v="hill" />
		<tag k="place" v="locality" />
		<tag k="ssr:stedsnr" v="925705" />
	</node>
	<node lat="64.73297777873475" lon="13.04156943731366" id="-36833">
		<tag k="name" v="Styggedalen" />
		<tag k="natural" v="valley" />
		<tag k="place" v="locality" />
		<tag k="ssr:stedsnr" v="925718" />
	</node>
	<node lat="65.00573333140677" lon="12.996794449503895" id="-36835">
		<tag k="name" v="Båvneh" />
		<tag k="natural" v="hill" />
		<tag k="place" v="locality" />
		<tag k="ssr:stedsnr" v="925769" />
	</node>
	<node lat="64.86431944075913" lon="12.550419436347019" id="-36837">
		<tag k="fixme" v="consider natural=peak for the most distinct mountains in the district" />
		<tag k="name" v="Folldalsfjellet" />
		<tag k="natural" v="hill" />
		<tag k="place" v="locality" />
		<tag k="ssr:stedsnr" v="925827" />
	</node>
	<node lat="64.85058055149061" lon="13.04332223132629" id="-36841">
		<tag k="name" v="Elglia" />
		<tag k="natural" v="slope" />
		<tag k="place" v="locality" />
		<tag k="ssr:stedsnr" v="955347" />
	</node>
	<node lat="64.96528889011243" lon="13.203597226638246" id="-36842">
		<tag k="name" v="Brattlia" />
		<tag k="natural" v="slope" />
		<tag k="place" v="locality" />
		<tag k="ssr:stedsnr" v="955395" />
	</node>
	<node lat="64.83052499973769" lon="12.959894445024537" id="-36849">
		<tag k="name" v="Lian" />
		<tag k="natural" v="slope" />
		<tag k="place" v="locality" />
		<tag k="ssr:stedsnr" v="956522" />
	</node>
	<node lat="64.79481944582716" lon="12.897088889971487" id="-36851">
		<tag k="name" v="Haugan" />
		<tag k="natural" v="hill" />
		<tag k="place" v="locality" />
		<tag k="ssr:stedsnr" v="957484" />
	</node>
	<node lat="64.77717778126659" lon="12.655133326498838" id="-36852">
		<tag k="name" v="Holaåsen" />
		<tag k="natural" v="slope" />
		<tag k="place" v="locality" />
		<tag k="ssr:stedsnr" v="958034" />
	</node>
	<node lat="65.08277777570984" lon="13.36639166230461" id="-36854">
		<tag k="name" v="Smølmoen" />
		<tag k="place" v="locality" />
		<tag k="ssr:stedsnr" v="958334" />
	</node>
	<node lat="64.96550277470459" lon="13.19351944829436" id="-36868">
		<tag k="name" v="Brattliklumpen" />
		<tag k="natural" v="hill" />
		<tag k="place" v="locality" />
		<tag k="ssr:stedsnr" v="14115" />
	</node>
	<node lat="64.82969722400307" lon="13.041566661784653" id="-36870">
		<tag k="fixme" v="consider natural=peak for the most distinct mountains in the district" />
		<tag k="name" v="Vesternesåsen" />
		<tag k="natural" v="hill" />
		<tag k="place" v="locality" />
		<tag k="ssr:stedsnr" v="14091" />
	</node>
	<node lat="64.9749305564732" lon="13.060775008452655" id="-36872">
		<tag k="fixme" v="consider natural=peak for the most distinct mountains in the district" />
		<tag k="name" v="Domma - Håålannjuenie" />
		<tag k="name:no" v="Domma" />
		<tag k="name:sma" v="Håålannjuenie" />
		<tag k="natural" v="hill" />
		<tag k="place" v="locality" />
		<tag k="ssr:stedsnr" v="14133" />
	</node>
	<node lat="64.94048333035677" lon="13.098124999904798" id="-36874">
		<tag k="fixme" v="consider natural=peak for the most distinct mountains in the district" />
		<tag k="name" v="Høgåsen" />
		<tag k="natural" v="hill" />
		<tag k="place" v="locality" />
		<tag k="ssr:stedsnr" v="14156" />
	</node>
	<node lat="64.82358888603913" lon="12.70076388263037" id="-36875">
		<tag k="fixme" v="consider natural=peak for the most distinct mountains in the district" />
		<tag k="name" v="Tverrelvfjellet" />
		<tag k="natural" v="hill" />
		<tag k="place" v="locality" />
		<tag k="ssr:stedsnr" v="14178" />
	</node>
	<node lat="65.05469166445758" lon="13.063313893179133" id="-36877">
		<tag k="fixme" v="consider natural=peak for the most distinct mountains in the district" />
		<tag k="name" v="Gåaltoengaejsie" />
		<tag k="name:sma" v="Gåaltoengaejsie" />
		<tag k="natural" v="hill" />
		<tag k="place" v="locality" />
		<tag k="ssr:stedsnr" v="14435" />
	</node>
	<node lat="65.04397500025752" lon="13.150374997106711" id="-36878">
		<tag k="name" v="Frøyningsdalen - Freavna" />
		<tag k="name:no" v="Frøyningsdalen" />
		<tag k="name:sma" v="Freavna" />
		<tag k="natural" v="valley" />
		<tag k="place" v="locality" />
		<tag k="ssr:stedsnr" v="14442" />
	</node>
	<node lat="65.04162499645857" lon="13.057230565048902" id="-36879">
		<tag k="name" v="Vesterdalen - Stråehpede" />
		<tag k="name:no" v="Vesterdalen" />
		<tag k="name:sma" v="Stråehpede" />
		<tag k="natural" v="valley" />
		<tag k="place" v="locality" />
		<tag k="ssr:stedsnr" v="14445" />
	</node>
	<node lat="64.8434166658586" lon="12.643411102459758" id="-36881">
		<tag k="fixme" v="consider natural=peak for the most distinct mountains in the district" />
		<tag k="name" v="Staabre" />
		<tag k="name:sma" v="Staabre" />
		<tag k="natural" v="hill" />
		<tag k="place" v="locality" />
		<tag k="ssr:stedsnr" v="14731" />
	</node>
	<node lat="64.86128333126683" lon="12.865880558333698" id="-36885">
		<tag k="alt_name" v="Lekhaugen" />
		<tag k="name" v="Leikhaugen" />
		<tag k="natural" v="hill" />
		<tag k="place" v="locality" />
		<tag k="ssr:stedsnr" v="15080" />
	</node>
	<node lat="64.76996388967825" lon="12.6795999915737" id="-36889">
		<tag k="name" v="Hallingmoen" />
		<tag k="place" v="locality" />
		<tag k="ssr:stedsnr" v="15232" />
	</node>
	<node lat="65.0109805583977" lon="13.166066670962703" id="-36890">
		<tag k="alt_name" v="Kaukarklompen" />
		<tag k="name" v="Kaukarklumpen" />
		<tag k="natural" v="hill" />
		<tag k="place" v="locality" />
		<tag k="ssr:stedsnr" v="15750" />
	</node>
	<node lat="64.66492777396563" lon="13.084958336144078" id="-36891">
		<tag k="fixme" v="consider natural=peak for the most distinct mountains in the district" />
		<tag k="name" v="Gierenetjåalhte - Skorovassklumpen" />
		<tag k="name:no" v="Skorovassklumpen" />
		<tag k="name:sma" v="Gierenetjåalhte" />
		<tag k="natural" v="hill" />
		<tag k="place" v="locality" />
		<tag k="ssr:stedsnr" v="21393" />
	</node>
	<node lat="65.040733330703" lon="13.303069440900243" id="-36898">
		<tag k="name" v="Skogstumoen" />
		<tag k="place" v="locality" />
		<tag k="ssr:stedsnr" v="45372" />
	</node>
	<node lat="65.03583888545425" lon="13.248525007880122" id="-36900">
		<tag k="name" v="Bergtjønndalen" />
		<tag k="natural" v="valley" />
		<tag k="place" v="locality" />
		<tag k="ssr:stedsnr" v="45381" />
	</node>
	<node lat="64.96350555249163" lon="13.173388879548794" id="-36902">
		<tag k="fixme" v="consider natural=peak for the most distinct mountains in the district" />
		<tag k="name" v="Håpnesfjellet" />
		<tag k="natural" v="hill" />
		<tag k="place" v="locality" />
		<tag k="ssr:stedsnr" v="45418" />
	</node>
	<node lat="64.72363888636323" lon="12.756569448909756" id="-36905">
		<tag k="name" v="Svarthaugen" />
		<tag k="natural" v="hill" />
		<tag k="place" v="locality" />
		<tag k="ssr:stedsnr" v="47587" />
	</node>
	<node lat="64.77993888797613" lon="12.913394452118373" id="-36907">
		<tag k="name" v="Granholet" />
		<tag k="natural" v="valley" />
		<tag k="place" v="locality" />
		<tag k="ssr:stedsnr" v="46549" />
	</node>
	<node lat="64.71631666429748" lon="12.696411107890867" id="-36908">
		<tag k="name" v="Hestberget" />
		<tag k="natural" v="cliff" />
		<tag k="ssr:stedsnr" v="46643" />
	</node>
	<node lat="65.0654861091531" lon="13.24942778114688" id="-36909">
		<tag k="alt_name" v="Reinhonneset" />
		<tag k="name" v="Reinhornneset" />
		<tag k="place" v="locality" />
		<tag k="ssr:stedsnr" v="47318" />
	</node>
	<node lat="64.69693888979003" lon="12.73786944454866" id="-36910">
		<tag k="name" v="Stormoen" />
		<tag k="place" v="locality" />
		<tag k="ssr:stedsnr" v="47596" />
	</node>
	<node lat="64.86373333589299" lon="13.253525005283645" id="-36911">
		<tag k="name" v="Vesterlia" />
		<tag k="natural" v="slope" />
		<tag k="place" v="locality" />
		<tag k="ssr:stedsnr" v="48382" />
	</node>
	<node lat="64.77559721838402" lon="12.657122216281156" id="-36912">
		<tag k="name" v="Hola" />
		<tag k="place" v="locality" />
		<tag k="ssr:stedsnr" v="48027" />
	</node>
	<node lat="64.81285277348468" lon="13.105652780620293" id="-36916">
		<tag k="fixme" v="consider natural=peak for the most distinct mountains in the district" />
		<tag k="name" v="Litl-Toddorspeten" />
		<tag k="natural" v="hill" />
		<tag k="place" v="locality" />
		<tag k="ssr:stedsnr" v="48233" />
	</node>
	<node lat="64.81569166801577" lon="13.111513885297812" id="-36917">
		<tag k="name" v="Hans-Mårsålia" />
		<tag k="natural" v="slope" />
		<tag k="place" v="locality" />
		<tag k="ssr:stedsnr" v="48235" />
	</node>
	<node lat="65.06935555533151" lon="13.282008334296988" id="-36918">
		<tag k="name" v="Styggdalen" />
		<tag k="natural" v="valley" />
		<tag k="place" v="locality" />
		<tag k="ssr:stedsnr" v="48286" />
	</node>
	<node lat="64.73362778012553" lon="12.90456111965431" id="-36920">
		<tag k="name" v="Sønningsvassåsen" />
		<tag k="natural" v="hill" />
		<tag k="place" v="locality" />
		<tag k="ssr:stedsnr" v="48838" />
	</node>
	<node lat="64.6560999992428" lon="12.962855548797757" id="-36924">
		<tag k="name" v="Hiterfjellet" />
		<tag k="natural" v="hill" />
		<tag k="place" v="locality" />
		<tag k="ssr:stedsnr" v="229164" />
	</node>
	<node lat="64.62143055641404" lon="12.92790000331761" id="-36936">
		<tag k="fixme" v="consider natural=peak for the most distinct mountains in the district" />
		<tag k="name" v="Murfjellet - Namhpetjahke" />
		<tag k="name:no" v="Murfjellet" />
		<tag k="name:sma" v="Namhpetjahke" />
		<tag k="natural" v="hill" />
		<tag k="place" v="locality" />
		<tag k="ssr:stedsnr" v="73325" />
	</node>
	<node lat="64.83800000037702" lon="12.767227787664371" id="-36939">
		<tag k="fixme" v="consider natural=peak for the most distinct mountains in the district" />
		<tag k="name" v="Stoerregoeblendalvese" />
		<tag k="name:sma" v="Stoerregoeblendalvese" />
		<tag k="natural" v="hill" />
		<tag k="place" v="locality" />
		<tag k="ssr:stedsnr" v="75117" />
	</node>
	<node lat="64.85186389281208" lon="13.137208338227891" id="-36940">
		<tag k="name" v="Grytådalen" />
		<tag k="natural" v="valley" />
		<tag k="place" v="locality" />
		<tag k="ssr:stedsnr" v="75121" />
	</node>
	<node lat="64.97774444855155" lon="13.197677780474406" id="-36947">
		<tag k="name" v="Styggdalen" />
		<tag k="natural" v="valley" />
		<tag k="place" v="locality" />
		<tag k="ssr:stedsnr" v="75149" />
	</node>
	<node lat="64.61126944135962" lon="12.976149991564505" id="-36949">
		<tag k="name" v="Grøndalsdomma - Kroentemehkie" />
		<tag k="name:no" v="Grøndalsdomma" />
		<tag k="name:sma" v="Kroentemehkie" />
		<tag k="natural" v="valley" />
		<tag k="place" v="locality" />
		<tag k="ssr:stedsnr" v="75341" />
	</node>
	<node lat="64.91686111409936" lon="12.816074999142417" id="-36951">
		<tag k="fixme" v="consider natural=peak for the most distinct mountains in the district" />
		<tag k="name" v="Snauskallen - Snjaltje" />
		<tag k="name:no" v="Snauskallen" />
		<tag k="name:sma" v="Snjaltje" />
		<tag k="natural" v="hill" />
		<tag k="place" v="locality" />
		<tag k="ssr:stedsnr" v="75181" />
	</node>
	<node lat="64.93753333122199" lon="13.081358341435298" id="-36953">
		<tag k="alt_name" v="Seteråsen" />
		<tag k="fixme" v="consider natural=peak for the most distinct mountains in the district" />
		<tag k="name" v="Sæteråsen" />
		<tag k="natural" v="hill" />
		<tag k="place" v="locality" />
		<tag k="ssr:stedsnr" v="75185" />
	</node>
	<node lat="64.66016388679347" lon="13.09663610185268" id="-36954">
		<tag k="name" v="Styggdalen" />
		<tag k="name:no" v="Styggdalen" />
		<tag k="natural" v="valley" />
		<tag k="place" v="locality" />
		<tag k="ssr:stedsnr" v="75186" />
	</node>
	<node lat="64.6816111145932" lon="12.819261117650418" id="-36957">
		<tag k="fixme" v="consider natural=peak for the most distinct mountains in the district" />
		<tag k="name" v="Kjelmoåsen" />
		<tag k="natural" v="hill" />
		<tag k="place" v="locality" />
		<tag k="ssr:stedsnr" v="75369" />
	</node>
	<node lat="65.06064999685138" lon="13.367511114477244" id="-36960">
		<tag k="name" v="Litlsteinådalen" />
		<tag k="natural" v="valley" />
		<tag k="place" v="locality" />
		<tag k="ssr:stedsnr" v="75682" />
	</node>
	<node lat="64.59330277435568" lon="12.951119438864076" id="-36964">
		<tag k="fixme" v="consider natural=peak for the most distinct mountains in the district" />
		<tag k="name" v="Bjørnurda" />
		<tag k="natural" v="hill" />
		<tag k="place" v="locality" />
		<tag k="ssr:stedsnr" v="76342" />
	</node>
	<node lat="65.09015833065368" lon="13.611588878996692" id="-36965">
		<tag k="fixme" v="consider natural=peak for the most distinct mountains in the district" />
		<tag k="name" v="Jengelfjellet - Raejsie" />
		<tag k="name:no" v="Jengelfjellet" />
		<tag k="name:sma" v="Raejsie" />
		<tag k="natural" v="hill" />
		<tag k="place" v="locality" />
		<tag k="ssr:stedsnr" v="81660" />
	</node>
	<node lat="64.9615027759714" lon="13.147549997608843" id="-36966">
		<tag k="name" v="Andreasmoen" />
		<tag k="place" v="locality" />
		<tag k="ssr:stedsnr" v="229361" />
	</node>
	<node lat="64.97936944080276" lon="13.209708328760442" id="-36968">
		<tag k="name" v="Haukåsen" />
		<tag k="natural" v="hill" />
		<tag k="place" v="locality" />
		<tag k="ssr:stedsnr" v="229363" />
	</node>
	<node lat="65.09270000251908" lon="13.320519436195834" id="-36972">
		<tag k="name" v="Litltjønndalen" />
		<tag k="natural" v="valley" />
		<tag k="place" v="locality" />
		<tag k="ssr:stedsnr" v="106316" />
	</node>
	<node lat="65.09279999910294" lon="13.302972230476463" id="-36981">
		<tag k="name" v="Storsteinen" />
		<tag k="natural" v="hill" />
		<tag k="place" v="locality" />
		<tag k="ssr:stedsnr" v="106353" />
	</node>
	<node lat="64.83853888486978" lon="13.05587778021725" id="-36986">
		<tag k="name" v="Rabban" />
		<tag k="place" v="locality" />
		<tag k="ssr:stedsnr" v="107493" />
	</node>
	<node lat="64.72399999784827" lon="12.80534443661851" id="-36992">
		<tag k="name" v="Yttermoan" />
		<tag k="place" v="locality" />
		<tag k="ssr:stedsnr" v="107633" />
	</node>
	<node lat="64.69452500303785" lon="12.793097228191835" id="-36998">
		<tag k="name" v="Stormoen" />
		<tag k="place" v="locality" />
		<tag k="ssr:stedsnr" v="107660" />
	</node>
	<node lat="64.73558332955714" lon="12.833358338688262" id="-36999">
		<tag k="name" v="Tronesmoen" />
		<tag k="place" v="locality" />
		<tag k="ssr:stedsnr" v="107664" />
	</node>
	<node lat="64.86376944720426" lon="13.161088889642738" id="-37001">
		<tag k="name" v="Finnhussletta" />
		<tag k="place" v="locality" />
		<tag k="ssr:stedsnr" v="109356" />
	</node>
	<node lat="64.85336111063013" lon="12.903655550462172" id="-37004">
		<tag k="name" v="Rapaksla" />
		<tag k="natural" v="hill" />
		<tag k="place" v="locality" />
		<tag k="ssr:stedsnr" v="108893" />
	</node>
	<node lat="64.68380833404392" lon="12.839755557573943" id="-37009">
		<tag k="name" v="Skibjørkdalen" />
		<tag k="natural" v="valley" />
		<tag k="place" v="locality" />
		<tag k="ssr:stedsnr" v="109717" />
	</node>
	<node lat="64.85601944628155" lon="13.241275008931952" id="-37021">
		<tag k="name" v="Prestkleiva - Raavnejengovre" />
		<tag k="name:no" v="Prestkleiva" />
		<tag k="name:sma" v="Raavnejengovre" />
		<tag k="natural" v="valley" />
		<tag k="place" v="locality" />
		<tag k="ssr:stedsnr" v="135385" />
	</node>
	<node lat="64.8165499987105" lon="12.852430546147918" id="-37024">
		<tag k="alt_name:no" v="Litlflåtådalsfjellet;Flåttådalsfjellet, l" />
		<tag k="fixme" v="consider natural=peak for the most distinct mountains in the district" />
		<tag k="name" v="Litlflåttådalsfjellet - Duvriengabpe" />
		<tag k="name:no" v="Litlflåttådalsfjellet" />
		<tag k="name:sma" v="Duvriengabpe" />
		<tag k="natural" v="hill" />
		<tag k="place" v="locality" />
		<tag k="ssr:stedsnr" v="135100" />
	</node>
	<node lat="64.94092499643683" lon="12.76778055739807" id="-37025">
		<tag k="fixme" v="consider natural=peak for the most distinct mountains in the district" />
		<tag k="name" v="Storfjellet - Stoerretjahke" />
		<tag k="name:no" v="Storfjellet" />
		<tag k="name:sma" v="Stoerretjahke" />
		<tag k="natural" v="hill" />
		<tag k="place" v="locality" />
		<tag k="ssr:stedsnr" v="135123" />
	</node>
	<node lat="64.95115000412174" lon="12.998138899303823" id="-37026">
		<tag k="alt_name" v="Gammelgårdsfjellet" />
		<tag k="fixme" v="consider natural=peak for the most distinct mountains in the district" />
		<tag k="name" v="Gammalgardfjellet" />
		<tag k="natural" v="hill" />
		<tag k="place" v="locality" />
		<tag k="ssr:stedsnr" v="135125" />
	</node>
	<node lat="64.54405555146406" lon="13.052722229441581" id="-37028">
		<tag k="fixme" v="consider natural=peak for the most distinct mountains in the district" />
		<tag k="name" v="Nesåpiggen - Lievkiesåejjie" />
		<tag k="name:no" v="Nesåpiggen" />
		<tag k="name:sma" v="Lievkiesåejjie" />
		<tag k="natural" v="hill" />
		<tag k="place" v="locality" />
		<tag k="ssr:stedsnr" v="135287" />
	</node>
	<node lat="65.07406944091638" lon="13.153041658801262" id="-37030">
		<tag k="fixme" v="consider natural=peak for the most distinct mountains in the district" />
		<tag k="name" v="Gåsvassfjella - Reetjkh" />
		<tag k="name:no" v="Gåsvassfjella" />
		<tag k="name:sma" v="Reetjkh" />
		<tag k="natural" v="hill" />
		<tag k="place" v="locality" />
		<tag k="ssr:stedsnr" v="135489" />
	</node>
	<node lat="65.0754750015271" lon="13.388886120602661" id="-37031">
		<tag k="name" v="Jutulhaugen" />
		<tag k="natural" v="hill" />
		<tag k="place" v="locality" />
		<tag k="ssr:stedsnr" v="135631" />
	</node>
	<node lat="64.73186944051551" lon="12.86906945041953" id="-37034">
		<tag k="fixme" v="consider natural=peak for the most distinct mountains in the district" />
		<tag k="name" v="Tunnsjøåsen" />
		<tag k="natural" v="hill" />
		<tag k="place" v="locality" />
		<tag k="ssr:stedsnr" v="135647" />
	</node>
	<node lat="64.74663888860401" lon="12.73597500111778" id="-37035">
		<tag k="alt_name" v="Litlåklompen" />
		<tag k="fixme" v="consider natural=peak for the most distinct mountains in the district" />
		<tag k="name" v="Litlåklumpen" />
		<tag k="natural" v="hill" />
		<tag k="place" v="locality" />
		<tag k="ssr:stedsnr" v="135679" />
	</node>
</osm>
