<?xml version="1.0" encoding="UTF-8"?>
<osm version="0.6" generator="osmapis">
	<node lat="64.76833055524159" lon="12.8035916668997" id="-34851">
		<tag k="name" v="Langhalsen" />
		<tag k="natural" v="wetland" />
		<tag k="ssr:stedsnr" v="230045" />
	</node>
	<node lat="64.75034166654852" lon="12.937380564038081" id="-34860">
		<tag k="name" v="Klipa" />
		<tag k="natural" v="wetland" />
		<tag k="ssr:stedsnr" v="230826" />
	</node>
	<node lat="64.9584805548727" lon="13.043383338784214" id="-34861">
		<tag k="name" v="Stornesura" />
		<tag k="natural" v="scree" />
		<tag k="ssr:stedsnr" v="230897" />
	</node>
	<node lat="64.73564434768615" lon="12.74246757624564" id="-34876">
		<tag k="historic" v="shieling" />
		<tag k="name" v="Litlåsetran" />
		<tag k="place" v="locality" />
		<tag k="ssr:stedsnr" v="14627" />
	</node>
	<node lat="65.09181666944143" lon="13.328430565246727" id="-34901">
		<tag k="name" v="Stormyra" />
		<tag k="natural" v="wetland" />
		<tag k="ssr:stedsnr" v="45326" />
	</node>
	<node lat="64.83245555517176" lon="13.052563883167256" id="-34910">
		<tag k="name" v="Storfloen" />
		<tag k="natural" v="wetland" />
		<tag k="ssr:stedsnr" v="46499" />
	</node>
	<node lat="64.78938889232094" lon="12.731919441703274" id="-34915">
		<tag k="name" v="Røddiurdsletta" />
		<tag k="natural" v="wetland" />
		<tag k="ssr:stedsnr" v="48013" />
	</node>
	<node lat="64.90051110750657" lon="13.210761106810502" id="-34941">
		<tag k="name" v="Vakkermyra" />
		<tag k="natural" v="wetland" />
		<tag k="ssr:stedsnr" v="106386" />
	</node>
	<node lat="64.83730000088141" lon="13.000113892154255" id="-34942">
		<tag k="name" v="Langmyran" />
		<tag k="natural" v="wetland" />
		<tag k="ssr:stedsnr" v="107511" />
	</node>
	<node lat="64.95059166407663" lon="13.247030545837998" id="-34986">
		<tag k="name" v="Storflya" />
		<tag k="natural" v="wetland" />
		<tag k="ssr:stedsnr" v="257038" />
	</node>
	<node lat="64.79708055333847" lon="12.905666673241369" id="-35008">
		<tag k="name" v="Stormyra" />
		<tag k="natural" v="wetland" />
		<tag k="ssr:stedsnr" v="168467" />
	</node>
	<node lat="64.9506694417442" lon="13.120622218809483" id="-35011">
		<tag k="name" v="Toreslettet" />
		<tag k="natural" v="wetland" />
		<tag k="ssr:stedsnr" v="168363" />
	</node>
	<node lat="64.6650083364075" lon="12.872513881833413" id="-35014">
		<tag k="name" v="Stormyra" />
		<tag k="natural" v="wetland" />
		<tag k="ssr:stedsnr" v="169806" />
	</node>
	<node lat="64.90425277570588" lon="12.831994438052591" id="-35017">
		<tag k="name" v="Flåmyra" />
		<tag k="natural" v="wetland" />
		<tag k="ssr:stedsnr" v="169898" />
	</node>
	<node lat="64.8168222182876" lon="12.956427768275933" id="-35047">
		<tag k="name" v="Lomtjønnmyra" />
		<tag k="natural" v="wetland" />
		<tag k="ssr:stedsnr" v="227337" />
	</node>
	<node lat="64.90106111256713" lon="13.086344436906947" id="-35054">
		<tag k="name" v="Småmyran" />
		<tag k="natural" v="wetland" />
		<tag k="ssr:stedsnr" v="228499" />
	</node>
	<node lat="64.90673333375774" lon="13.101988878481786" id="-35055">
		<tag k="historic" v="shieling" />
		<tag k="name" v="Seterhaugen" />
		<tag k="place" v="locality" />
		<tag k="ssr:stedsnr" v="228510" />
	</node>
	<node lat="64.95295555336975" lon="13.230055558309031" id="-35059">
		<tag k="name" v="Storsteinen" />
		<tag k="natural" v="stone" />
		<tag k="ssr:stedsnr" v="230411" />
	</node>
	<node lat="64.96504999840529" lon="13.180013883882182" id="-35080">
		<tag k="landuse" v="meadow" />
		<tag k="name" v="Tostakkmyra" />
		<tag k="ssr:stedsnr" v="288384" />
	</node>
	<node lat="64.79273888645204" lon="12.888677777177936" id="-35089">
		<tag k="name" v="Haukreirmyra" />
		<tag k="natural" v="wetland" />
		<tag k="ssr:stedsnr" v="289534" />
	</node>
	<node lat="64.93415555507393" lon="13.0569111131162" id="-35090">
		<tag k="name" v="Langmyra" />
		<tag k="natural" v="wetland" />
		<tag k="ssr:stedsnr" v="289813" />
	</node>
	<node lat="64.82407777428556" lon="13.079341660620338" id="-35097">
		<tag k="name" v="Firstakkmyra" />
		<tag k="natural" v="wetland" />
		<tag k="ssr:stedsnr" v="290813" />
	</node>
	<node lat="64.97980555577607" lon="13.238450010027263" id="-35114">
		<tag k="name" v="Stormyra" />
		<tag k="natural" v="wetland" />
		<tag k="ssr:stedsnr" v="317004" />
	</node>
	<node lat="64.72916712395073" lon="12.899323685555478" id="-35125">
		<tag k="historic" v="shieling" />
		<tag k="name" v="Kjelmosetran" />
		<tag k="place" v="locality" />
		<tag k="ssr:stedsnr" v="318692" />
	</node>
	<node lat="64.85988889296335" lon="13.095430556917748" id="-35130">
		<tag k="name" v="Andershusmyran" />
		<tag k="natural" v="wetland" />
		<tag k="ssr:stedsnr" v="470432" />
	</node>
	<node lat="64.93042222496992" lon="13.063488894112494" id="-35131">
		<tag k="name" v="Jomyra" />
		<tag k="natural" v="wetland" />
		<tag k="ssr:stedsnr" v="470444" />
	</node>
	<node lat="64.87512500139638" lon="13.141841660418013" id="-35133">
		<tag k="name" v="Signemyra" />
		<tag k="natural" v="wetland" />
		<tag k="ssr:stedsnr" v="470403" />
	</node>
	<node lat="64.87652499865638" lon="13.142088884143364" id="-35134">
		<tag k="name" v="Kjørheimmyra" />
		<tag k="natural" v="wetland" />
		<tag k="ssr:stedsnr" v="470406" />
	</node>
	<node lat="64.83653889097069" lon="13.03330277084387" id="-35135">
		<tag k="name" v="Stormyra" />
		<tag k="natural" v="wetland" />
		<tag k="ssr:stedsnr" v="470456" />
	</node>
	<node lat="64.83938888844142" lon="13.06116110151495" id="-35138">
		<tag k="historic" v="shieling" />
		<tag k="name" v="Skogan" />
		<tag k="place" v="locality" />
		<tag k="ssr:stedsnr" v="471491" />
	</node>
	<node lat="64.86794166704823" lon="13.251022215382314" id="-35149">
		<tag k="name" v="Ruggelsteinen" />
		<tag k="natural" v="stone" />
		<tag k="ssr:stedsnr" v="472395" />
	</node>
	<node lat="64.82361110826714" lon="13.06921666015098" id="-35151">
		<tag k="name" v="Tjorrodalmyra" />
		<tag k="natural" v="wetland" />
		<tag k="ssr:stedsnr" v="472830" />
	</node>
	<node lat="64.82246666364605" lon="13.081247212973524" id="-35152">
		<tag k="name" v="Idamyra" />
		<tag k="natural" v="wetland" />
		<tag k="ssr:stedsnr" v="472834" />
	</node>
	<node lat="65.08940833588855" lon="13.356324994220344" id="-35156">
		<tag k="name" v="Bustamyra" />
		<tag k="natural" v="wetland" />
		<tag k="ssr:stedsnr" v="473355" />
	</node>
	<node lat="64.88348888702161" lon="13.167627775122442" id="-35161">
		<tag k="name" v="Langmyra" />
		<tag k="natural" v="wetland" />
		<tag k="ssr:stedsnr" v="348411" />
	</node>
	<node lat="64.94504722694086" lon="13.15533610318599" id="-35162">
		<tag k="landuse" v="meadow" />
		<tag k="name" v="Brattslettet" />
		<tag k="ssr:stedsnr" v="348413" />
	</node>
	<node lat="64.90800555278696" lon="13.098308323373782" id="-35166">
		<tag k="name" v="Tjønnmyra" />
		<tag k="natural" v="wetland" />
		<tag k="ssr:stedsnr" v="349520" />
	</node>
	<node lat="64.82749722475657" lon="12.901663895336808" id="-35167">
		<tag k="name" v="Hallmyra" />
		<tag k="natural" v="wetland" />
		<tag k="ssr:stedsnr" v="350452" />
	</node>
	<node lat="64.66447500182319" lon="12.946236101141306" id="-35169">
		<tag k="name" v="Storgrøndalsmyra" />
		<tag k="natural" v="wetland" />
		<tag k="ssr:stedsnr" v="351805" />
	</node>
	<node lat="64.95243610692233" lon="13.171611114037795" id="-35200">
		<tag k="name" v="Olavallmyra" />
		<tag k="natural" v="wetland" />
		<tag k="ssr:stedsnr" v="409409" />
	</node>
	<node lat="64.66776944337792" lon="12.973316659226294" id="-35210">
		<tag k="name" v="Skorovassmomyra" />
		<tag k="natural" v="wetland" />
		<tag k="ssr:stedsnr" v="411157" />
	</node>
	<node lat="64.79252777787543" lon="12.700311103570744" id="-35213">
		<tag k="name" v="Storsteinmyra" />
		<tag k="natural" v="wetland" />
		<tag k="ssr:stedsnr" v="412013" />
	</node>
	<node lat="64.7382833301601" lon="12.728122219062687" id="-35215">
		<tag k="name" v="Langmyra" />
		<tag k="natural" v="wetland" />
		<tag k="ssr:stedsnr" v="412221" />
	</node>
	<node lat="64.96618055572752" lon="13.215580561303387" id="-35237">
		<tag k="name" v="Stormyra" />
		<tag k="natural" v="wetland" />
		<tag k="ssr:stedsnr" v="439101" />
	</node>
	<node lat="65.00956944640816" lon="13.239847226267422" id="-35247">
		<tag k="name" v="Grønmyra" />
		<tag k="natural" v="wetland" />
		<tag k="ssr:stedsnr" v="470284" />
	</node>
	<node lat="65.05851388686507" lon="13.275716676061275" id="-35254">
		<tag k="name" v="Langmyra" />
		<tag k="natural" v="wetland" />
		<tag k="ssr:stedsnr" v="471303" />
	</node>
	<node lat="64.73356666682322" lon="13.00632777465379" id="-35274">
		<tag k="name" v="Stormyra" />
		<tag k="natural" v="wetland" />
		<tag k="ssr:stedsnr" v="499605" />
	</node>
	<node lat="64.77273055228426" lon="13.00639166496666" id="-35298">
		<tag k="alt_name" v="Klemetmyran" />
		<tag k="name" v="Klemmetmyran" />
		<tag k="natural" v="wetland" />
		<tag k="ssr:stedsnr" v="682017" />
	</node>
	<node lat="64.92212778079025" lon="13.205855551045623" id="-35307">
		<tag k="name" v="Tjørnmyra" />
		<tag k="natural" v="wetland" />
		<tag k="ssr:stedsnr" v="682188" />
	</node>
</osm>
