<?xml version="1.0" encoding="UTF-8"?>
<osm generator="osmapis" version="0.6">
	<node id="-98686" lat="65.0006638864" lon="13.2258305487">
		<tag k="name" v="Tremannsgrana" />
		<tag k="place" v="locality" />
		<tag k="ssr:stedsnr" v="955382" />
	</node>
	<node id="-97974" lat="64.8615488044" lon="13.2586483019">
		<tag k="name" v="Gamma - Gåetie" />
		<tag k="name:no" v="Gamma" />
		<tag k="name:sma" v="Gåetie" />
		<tag k="place" v="locality" />
		<tag k="ssr:stedsnr" v="109395" />
	</node>
	<node id="-98517" lat="64.9127527782" lon="12.8419694495">
		<tag k="name" v="Melan" />
		<tag k="place" v="locality" />
		<tag k="ssr:stedsnr" v="743181" />
	</node>
	<node id="-97292" lat="64.8838805556" lon="13.1605555547">
		<tag k="name" v="Utsikten" />
		<tag k="ssr:stedsnr" v="470387" />
		<tag k="tourism" v="viewpoint" />
	</node>
	<node id="-97675" lat="64.9192222228" lon="13.0788472149">
		<tag k="amenity" v="place_of_worship" />
		<tag k="denomination" v="lutheran" />
		<tag k="name" v="Bjørhusdal kapell" />
		<tag k="religion" v="christian" />
		<tag k="ssr:stedsnr" v="743207" />
	</node>
	<node id="-97189" lat="64.7394444425" lon="12.8454805488">
		<tag k="alt_name" v="Namsskogan" />
		<tag k="amenity" v="place_of_worship" />
		<tag k="denomination" v="lutheran" />
		<tag k="name" v="Trones kirke" />
		<tag k="religion" v="christian" />
		<tag k="ssr:stedsnr" v="297019" />
	</node>
</osm>
