<?xml version="1.0" encoding="UTF-8"?>
<osm generator="osmapis" version="0.6">
	<node id="-507898" lat="61.1935805587" lon="5.70696943685">
		<tag k="alt_name" v="Fossvatn" />
		<tag k="name" v="Fossvatnet" />
		<tag k="natural" v="water" />
		<tag k="ssr:stedsnr" v="130745" />
	</node>
	<node id="-507897" lat="61.2267416674" lon="5.70456110455">
		<tag k="name" v="Stølsvatnet" />
		<tag k="natural" v="water" />
		<tag k="ssr:stedsnr" v="130741" />
	</node>
	<node id="-507884" lat="61.1785638862" lon="5.97308055913">
		<tag k="name" v="Sauåna" />
		<tag k="ssr:stedsnr" v="130459" />
		<tag k="waterway" v="stream" />
	</node>
	<node id="-507880" lat="61.0523083328" lon="5.94762778397">
		<tag k="alt_name" v="Nykjevatnet" />
		<tag k="name" v="Nykkevatnet" />
		<tag k="natural" v="water" />
		<tag k="ssr:stedsnr" v="130235" />
		<tag k="water" v="lake" />
	</node>
	<node id="-507878" lat="61.0799055588" lon="5.72847777124">
		<tag k="name" v="Vardebotntjørna" />
		<tag k="natural" v="water" />
		<tag k="ssr:stedsnr" v="130226" />
	</node>
	<node id="-507868" lat="61.2455805577" lon="6.1452888899">
		<tag k="alt_name" v="Ekreelva" />
		<tag k="name" v="Ekrelva" />
		<tag k="ssr:stedsnr" v="130083" />
		<tag k="waterway" v="stream" />
	</node>
	<node id="-507865" lat="61.2384666628" lon="5.94358889811">
		<tag k="name" v="Hammarsvatnet" />
		<tag k="natural" v="water" />
		<tag k="ssr:stedsnr" v="130074" />
	</node>
	<node id="-507857" lat="61.0446388914" lon="5.83522499096">
		<tag k="name" v="Botnefossen" />
		<tag k="natural" v="waterfall" />
		<tag k="ssr:stedsnr" v="130042" />
	</node>
	<node id="-507851" lat="61.2766888886" lon="6.01654444532">
		<tag k="alt_name" v="Jemdalsvatnet, nedre" />
		<tag k="name" v="Nedre Jemdalsvatnet" />
		<tag k="natural" v="water" />
		<tag k="ssr:stedsnr" v="129597" />
		<tag k="water" v="lake" />
	</node>
	<node id="-507848" lat="61.2683000038" lon="5.97102500224">
		<tag k="name" v="Sjurdelva" />
		<tag k="ssr:stedsnr" v="129575" />
		<tag k="waterway" v="stream" />
	</node>
	<node id="-507553" lat="61.1784527762" lon="5.55661110444">
		<tag k="alt_name" v="Nykkstjørna" />
		<tag k="name" v="Nykksvatnet" />
		<tag k="natural" v="water" />
		<tag k="ssr:stedsnr" v="9812" />
	</node>
	<node id="-507839" lat="61.2479944428" lon="6.16362223142">
		<tag k="name" v="Gautingsdalselva" />
		<tag k="ssr:stedsnr" v="93956" />
		<tag k="waterway" v="river" />
	</node>
	<node id="-507836" lat="61.2183083363" lon="5.84858333935">
		<tag k="name" v="Jyttegroa" />
		<tag k="ssr:stedsnr" v="93858" />
		<tag k="waterway" v="stream" />
	</node>
	<node id="-507835" lat="61.2250833332" lon="5.85416110842">
		<tag k="name" v="Kvangreelva" />
		<tag k="ssr:stedsnr" v="93853" />
		<tag k="waterway" v="river" />
	</node>
	<node id="-507832" lat="61.1714472265" lon="5.86700832576">
		<tag k="name" v="Blombotnelva" />
		<tag k="ssr:stedsnr" v="93749" />
		<tag k="waterway" v="stream" />
	</node>
	<node id="-507829" lat="61.172288893" lon="5.88590000221">
		<tag k="name" v="Tjørna" />
		<tag k="natural" v="water" />
		<tag k="ssr:stedsnr" v="93723" />
	</node>
	<node id="-507821" lat="61.1514722179" lon="5.44138055167">
		<tag k="name" v="Bruåsholmen" />
		<tag k="place" v="islet" />
		<tag k="ssr:stedsnr" v="92983" />
	</node>
	<node id="-507815" lat="61.2165777749" lon="5.97064165837">
		<tag k="name" v="Falivatnet" />
		<tag k="natural" v="water" />
		<tag k="ssr:stedsnr" v="92703" />
		<tag k="water" v="lake" />
	</node>
	<node id="-507810" lat="61.0364972181" lon="5.65568888431">
		<tag k="name" v="Selbøvika" />
		<tag k="natural" v="bay" />
		<tag k="ssr:stedsnr" v="92662" />
	</node>
	<node id="-508229" lat="61.0598527767" lon="5.58044166646">
		<tag k="name" v="Solliskardvatnet" />
		<tag k="natural" v="water" />
		<tag k="ssr:stedsnr" v="252180" />
	</node>
	<node id="-507799" lat="61.1632611087" lon="5.52983887994">
		<tag k="name" v="Strandostjørna" />
		<tag k="natural" v="water" />
		<tag k="ssr:stedsnr" v="92513" />
	</node>
	<node id="-507796" lat="61.1712166632" lon="5.9610083385">
		<tag k="name" v="Austreimselva" />
		<tag k="ssr:stedsnr" v="92466" />
		<tag k="waterway" v="stream" />
	</node>
	<node id="-507794" lat="61.2036805542" lon="5.95953610376">
		<tag k="name" v="Venesanden" />
		<tag k="natural" v="beach" />
		<tag k="ssr:stedsnr" v="92360" />
	</node>
	<node id="-507789" lat="61.1512250047" lon="5.59329167297">
		<tag k="name" v="Ramsgrøfossen" />
		<tag k="natural" v="waterfall" />
		<tag k="ssr:stedsnr" v="92327" />
	</node>
	<node id="-507788" lat="61.1470472257" lon="5.62497221568">
		<tag k="name" v="Stranda" />
		<tag k="natural" v="beach" />
		<tag k="ssr:stedsnr" v="92316" />
	</node>
	<node id="-507785" lat="61.143366665" lon="5.54671389437">
		<tag k="name" v="Grønhaugtjørna" />
		<tag k="natural" v="water" />
		<tag k="ssr:stedsnr" v="92307" />
	</node>
	<node id="-509831" lat="61.2147249988" lon="5.84624445118">
		<tag k="name" v="Okslefossgroa" />
		<tag k="ssr:stedsnr" v="943958" />
		<tag k="waterway" v="stream" />
	</node>
	<node id="-507782" lat="61.1268638873" lon="5.95999722402">
		<tag k="name" v="Hushaugelva" />
		<tag k="ssr:stedsnr" v="92274" />
		<tag k="waterway" v="stream" />
	</node>
	<node id="-509827" lat="61.1702444455" lon="5.84975277901">
		<tag k="name" v="Galdergrova" />
		<tag k="ssr:stedsnr" v="943774" />
		<tag k="waterway" v="stream" />
	</node>
	<node id="-509826" lat="61.1816333307" lon="5.90521944981">
		<tag k="name" v="Lone" />
		<tag k="natural" v="water" />
		<tag k="ssr:stedsnr" v="943760" />
		<tag k="water" v="lake" />
	</node>
	<node id="-509820" lat="61.1390055585" lon="5.58140277958">
		<tag k="name" v="Ratteskarelva" />
		<tag k="ssr:stedsnr" v="942992" />
		<tag k="waterway" v="stream" />
	</node>
	<node id="-507768" lat="61.178103376" lon="6.07517786081">
		<tag k="name" v="Fremstefostelvatnet" />
		<tag k="natural" v="water" />
		<tag k="ssr:stedsnr" v="91878" />
		<tag k="water" v="lake" />
	</node>
	<node id="-509813" lat="61.1542638874" lon="6.13387499084">
		<tag k="name" v="Eitreneselvi" />
		<tag k="ssr:stedsnr" v="942945" />
		<tag k="waterway" v="stream" />
	</node>
	<node id="-507764" lat="61.0551194431" lon="5.8532722197">
		<tag k="name" v="Salsvikneset" />
		<tag k="natural" v="cape" />
		<tag k="ssr:stedsnr" v="91577" />
	</node>
	<node id="-507747" lat="61.200358329" lon="5.51752500127">
		<tag k="alt_name" v="Skilbreia" />
		<tag k="name" v="Skilbreida" />
		<tag k="natural" v="water" />
		<tag k="ssr:stedsnr" v="70795" />
		<tag k="water" v="lake" />
	</node>
	<node id="-507746" lat="61.2022305548" lon="5.76614444741">
		<tag k="alt_name" v="Markaulvatnet" />
		<tag k="name" v="Markaula" />
		<tag k="natural" v="water" />
		<tag k="ssr:stedsnr" v="70774" />
	</node>
	<node id="-507745" lat="61.2233583371" lon="5.66333888193">
		<tag k="alt_name" v="Heldalvatnet" />
		<tag k="name" v="Heldalsvatnet" />
		<tag k="natural" v="water" />
		<tag k="ssr:stedsnr" v="70766" />
	</node>
	<node id="-509789" lat="61.1657055531" lon="5.52645556372">
		<tag k="name" v="Neset" />
		<tag k="natural" v="cape" />
		<tag k="ssr:stedsnr" v="942492" />
	</node>
	<node id="-507738" lat="61.1733638888" lon="6.07649722589">
		<tag k="fixme" v="multiple name tags, choose one and add the other to alt_name" />
		<tag k="name" v="Fossestølvatnet;Heimstefostelvatnet" />
		<tag k="natural" v="water" />
		<tag k="ssr:stedsnr" v="70436" />
	</node>
	<node id="-507730" lat="61.1940138902" lon="6.15816666423">
		<tag k="name" v="Blåvatnet" />
		<tag k="natural" v="water" />
		<tag k="ssr:stedsnr" v="70370" />
	</node>
	<node id="-507727" lat="61.0508968859" lon="6.09638981361">
		<tag k="name" v="Øksefjellvatnet" />
		<tag k="natural" v="water" />
		<tag k="ssr:stedsnr" v="70341" />
		<tag k="water" v="lake" />
	</node>
	<node id="-507726" lat="61.0466388859" lon="6.12264722443">
		<tag k="alt_name" v="Kvanndalsvatnet, fremste" />
		<tag k="name" v="Fremste Kvanndalsvatnet" />
		<tag k="natural" v="water" />
		<tag k="ssr:stedsnr" v="70340" />
	</node>
	<node id="-507725" lat="61.0104520504" lon="6.12868486464">
		<tag k="name" v="Krokelva" />
		<tag k="ssr:stedsnr" v="70328" />
		<tag k="waterway" v="stream" />
	</node>
	<node id="-509772" lat="61.174105559" lon="5.49726665995">
		<tag k="name" v="Stroka" />
		<tag k="natural" v="strait" />
		<tag k="ssr:stedsnr" v="942166" />
	</node>
	<node id="-509771" lat="61.1717250025" lon="5.48759166571">
		<tag k="name" v="Bjonholmen" />
		<tag k="natural" v="cape" />
		<tag k="ssr:stedsnr" v="942164" />
	</node>
	<node id="-507532" lat="61.2184638914" lon="6.05084999982">
		<tag k="alt_name" v="Øvre-elva;Øyreelva" />
		<tag k="name" v="Øyrelva" />
		<tag k="ssr:stedsnr" v="9415" />
		<tag k="waterway" v="stream" />
	</node>
	<node id="-507716" lat="61.0692111069" lon="5.76759999547">
		<tag k="name" v="Dyttinga" />
		<tag k="natural" v="water" />
		<tag k="ssr:stedsnr" v="70177" />
	</node>
	<node id="-509756" lat="61.0901638891" lon="5.43027777618">
		<tag k="name" v="Klimpetjørna" />
		<tag k="natural" v="water" />
		<tag k="ssr:stedsnr" v="941830" />
	</node>
	<node id="-509753" lat="61.0890888915" lon="5.44254999593">
		<tag k="name" v="Myrketjørna" />
		<tag k="natural" v="water" />
		<tag k="ssr:stedsnr" v="941814" />
	</node>
	<node id="-509752" lat="61.1609388881" lon="5.8871777816">
		<tag k="name" v="Husaståa" />
		<tag k="ssr:stedsnr" v="941774" />
		<tag k="waterway" v="stream" />
	</node>
	<node id="-507696" lat="61.239961107" lon="6.1855611062">
		<tag k="name" v="Styggefossen" />
		<tag k="natural" v="waterfall" />
		<tag k="ssr:stedsnr" v="70097" />
	</node>
	<node id="-507528" lat="61.1979083313" lon="6.02493888576">
		<tag k="name" v="Kaldråna" />
		<tag k="ssr:stedsnr" v="9390" />
		<tag k="waterway" v="stream" />
	</node>
	<node id="-507694" lat="61.2270083357" lon="6.06538611836">
		<tag k="name" v="Siplauelva" />
		<tag k="ssr:stedsnr" v="70086" />
		<tag k="waterway" v="stream" />
	</node>
	<node id="-507692" lat="61.2278972181" lon="5.98434722537">
		<tag k="alt_name" v="Trollebotnsvatnet, nedre" />
		<tag k="name" v="Nedre Trollebotnsvatnet" />
		<tag k="natural" v="water" />
		<tag k="ssr:stedsnr" v="70073" />
	</node>
	<node id="-507689" lat="61.1207277751" lon="5.46687222614">
		<tag k="name" v="Støldalstjørna" />
		<tag k="natural" v="water" />
		<tag k="ssr:stedsnr" v="69595" />
	</node>
	<node id="-507685" lat="61.0073361088" lon="5.61958332944">
		<tag k="name" v="Årnesvatna" />
		<tag k="natural" v="water" />
		<tag k="ssr:stedsnr" v="70014" />
		<tag k="water" v="lake" />
	</node>
	<node id="-507683" lat="61.2311111102" lon="6.22560556399">
		<tag k="name" v="Høgsvatnet" />
		<tag k="natural" v="water" />
		<tag k="ssr:stedsnr" v="69333" />
		<tag k="water" v="lake" />
	</node>
	<node id="-507682" lat="60.9892576035" lon="5.708879586">
		<tag k="name" v="Krokevatnet" />
		<tag k="natural" v="water" />
		<tag k="ssr:stedsnr" v="69324" />
		<tag k="water" v="lake" />
	</node>
	<node id="-509729" lat="61.0270944245" lon="5.91089530127">
		<tag k="name" v="Instefjord" />
		<tag k="natural" v="water" />
		<tag k="ssr:stedsnr" v="920347" />
		<tag k="water" v="lake" />
	</node>
	<node id="-509728" lat="61.0689361117" lon="5.94157777258">
		<tag k="alt_name" v="Brekkeelva" />
		<tag k="name" v="Brekkelva" />
		<tag k="ssr:stedsnr" v="920269" />
		<tag k="waterway" v="stream" />
	</node>
	<node id="-507679" lat="61.251688893" lon="6.35568333968">
		<tag k="name" v="Fessene" />
		<tag k="natural" v="waterfall" />
		<tag k="ssr:stedsnr" v="68861" />
	</node>
	<node id="-507677" lat="61.2516277781" lon="5.9207444451">
		<tag k="name" v="Storelva" />
		<tag k="ssr:stedsnr" v="68692" />
		<tag k="waterway" v="stream" />
	</node>
	<node id="-507676" lat="61.2747388919" lon="5.9507500057">
		<tag k="name" v="Seltuftelva" />
		<tag k="ssr:stedsnr" v="68595" />
		<tag k="waterway" v="stream" />
	</node>
	<node id="-507675" lat="61.2621361092" lon="5.91301944038">
		<tag k="name" v="Vadheimsvatnet" />
		<tag k="natural" v="water" />
		<tag k="ssr:stedsnr" v="68589" />
	</node>
	<node id="-509719" lat="61.1541750037" lon="5.66033055954">
		<tag k="name" v="Tverråna" />
		<tag k="ssr:stedsnr" v="920160" />
		<tag k="waterway" v="stream" />
	</node>
	<node id="-507669" lat="61.1706722221" lon="6.09488610861">
		<tag k="alt_name" v="Storelva" />
		<tag k="name" v="Storelvi" />
		<tag k="ssr:stedsnr" v="68472" />
		<tag k="waterway" v="river" />
	</node>
	<node id="-509714" lat="61.1705750006" lon="5.54688333065">
		<tag k="name" v="Solheimstjørna" />
		<tag k="natural" v="water" />
		<tag k="ssr:stedsnr" v="919860" />
	</node>
	<node id="-509713" lat="61.1857638897" lon="5.68783055715">
		<tag k="alt_name" v="Norestølvatnet" />
		<tag k="name" v="Stølsvatnet" />
		<tag k="natural" v="water" />
		<tag k="ssr:stedsnr" v="919816" />
	</node>
	<node id="-509229" lat="61.1540944449" lon="6.10998055553">
		<tag k="name" v="Pallen" />
		<tag k="natural" v="cape" />
		<tag k="ssr:stedsnr" v="737435" />
	</node>
	<node id="-507660" lat="61.2002222261" lon="5.92568333149">
		<tag k="name" v="Baseneset" />
		<tag k="natural" v="cape" />
		<tag k="ssr:stedsnr" v="32985" />
	</node>
	<node id="-509703" lat="61.2035777785" lon="5.87771388277">
		<tag k="name" v="Kråkelva" />
		<tag k="ssr:stedsnr" v="919438" />
		<tag k="waterway" v="river" />
	</node>
	<node id="-509702" lat="61.2103444456" lon="6.1601944362">
		<tag k="alt_name" v="Sjurdsvatnet, øvre" />
		<tag k="name" v="Øvre Sjurdsvatnet" />
		<tag k="natural" v="water" />
		<tag k="ssr:stedsnr" v="919421" />
	</node>
	<node id="-509701" lat="61.2028861068" lon="5.97836111182">
		<tag k="name" v="Myrketjørna" />
		<tag k="natural" v="water" />
		<tag k="ssr:stedsnr" v="919414" />
	</node>
	<node id="-509696" lat="61.0145305601" lon="6.14460278424">
		<tag k="loc_name" v="Dårelielva" />
		<tag k="name" v="Dårlegelva" />
		<tag k="ssr:stedsnr" v="919344" />
		<tag k="waterway" v="stream" />
	</node>
	<node id="-509695" lat="61.1108916687" lon="5.92524722407">
		<tag k="name" v="Bjørnsvatnet" />
		<tag k="natural" v="water" />
		<tag k="ssr:stedsnr" v="919299" />
	</node>
	<node id="-509691" lat="61.0943361155" lon="5.77711944179">
		<tag k="alt_name" v="Åkrevatnet" />
		<tag k="name" v="Åkersvatnet" />
		<tag k="natural" v="water" />
		<tag k="ssr:stedsnr" v="919230" />
	</node>
	<node id="-507641" lat="61.1958916649" lon="6.04896110474">
		<tag k="name" v="Tulejota" />
		<tag k="ssr:stedsnr" v="32683" />
		<tag k="waterway" v="stream" />
	</node>
	<node id="-509684" lat="61.2382277803" lon="6.00612221832">
		<tag k="name" v="Norddalsvatnet" />
		<tag k="natural" v="water" />
		<tag k="ssr:stedsnr" v="919112" />
	</node>
	<node id="-507635" lat="60.9594916665" lon="5.70525556052">
		<tag k="name" v="Stordalsvatnet" />
		<tag k="natural" v="water" />
		<tag k="ssr:stedsnr" v="32565" />
		<tag k="water" v="lake" />
	</node>
	<node id="-507634" lat="61.2233805535" lon="6.09794166844">
		<tag k="name" v="Vetleskredfossen" />
		<tag k="natural" v="waterfall" />
		<tag k="ssr:stedsnr" v="32549" />
	</node>
	<node id="-507633" lat="61.2380361132" lon="5.86296110897">
		<tag k="name" v="Streksfjellgroa" />
		<tag k="ssr:stedsnr" v="32539" />
		<tag k="waterway" v="stream" />
	</node>
	<node id="-509679" lat="61.2739131733" lon="6.26487305277">
		<tag k="name" v="Huskevatnet" />
		<tag k="natural" v="water" />
		<tag k="ssr:stedsnr" v="918826" />
		<tag k="water" v="lake" />
	</node>
	<node id="-507630" lat="61.2344861088" lon="6.04601388854">
		<tag k="name" v="Smådalselva" />
		<tag k="ssr:stedsnr" v="32485" />
		<tag k="waterway" v="river" />
	</node>
	<node id="-509675" lat="61.2626999993" lon="6.17828056056">
		<tag k="name" v="Stølsvatnet" />
		<tag k="natural" v="water" />
		<tag k="ssr:stedsnr" v="918630" />
	</node>
	<node id="-509674" lat="60.9855944468" lon="5.71491944379">
		<tag k="name" v="Holmane" />
		<tag k="natural" v="cape" />
		<tag k="ssr:stedsnr" v="918351" />
	</node>
	<node id="-507625" lat="61.2057972204" lon="5.93634722974">
		<tag k="name" v="Saueneset" />
		<tag k="natural" v="cape" />
		<tag k="ssr:stedsnr" v="32326" />
	</node>
	<node id="-509671" lat="61.083630557" lon="5.44439721369">
		<tag k="name" v="Røyselva" />
		<tag k="ssr:stedsnr" v="881824" />
		<tag k="waterway" v="stream" />
	</node>
	<node id="-507619" lat="61.1721611127" lon="5.46821943733">
		<tag k="name" v="Storevikelva" />
		<tag k="ssr:stedsnr" v="32169" />
		<tag k="waterway" v="stream" />
	</node>
	<node id="-507617" lat="61.1843333344" lon="5.47896110756">
		<tag k="name" v="Merkeselva" />
		<tag k="ssr:stedsnr" v="32149" />
		<tag k="waterway" v="stream" />
	</node>
	<node id="-509664" lat="61.0530999996" lon="5.62087777686">
		<tag k="name" v="Øvre Tredalsvatnet" />
		<tag k="natural" v="water" />
		<tag k="ssr:stedsnr" v="881657" />
		<tag k="water" v="lake" />
	</node>
	<node id="-507615" lat="61.1577805521" lon="5.46952778149">
		<tag k="name" v="Klan-neset" />
		<tag k="natural" v="cape" />
		<tag k="ssr:stedsnr" v="32117" />
	</node>
	<node id="-509653" lat="61.1614472256" lon="5.52492778108">
		<tag k="name" v="Skitholmen" />
		<tag k="natural" v="cape" />
		<tag k="ssr:stedsnr" v="881499" />
	</node>
	<node id="-507602" lat="61.175302782" lon="5.53670277252">
		<tag k="name" v="Lomstjørna" />
		<tag k="natural" v="water" />
		<tag k="ssr:stedsnr" v="31695" />
	</node>
	<node id="-509641" lat="61.2108222192" lon="5.68652500748">
		<tag k="name" v="Byrkjosneset" />
		<tag k="natural" v="cape" />
		<tag k="ssr:stedsnr" v="881101" />
	</node>
	<node id="-507592" lat="61.1679638857" lon="5.79120278572">
		<tag k="name" v="Jota" />
		<tag k="ssr:stedsnr" v="31533" />
		<tag k="waterway" v="stream" />
	</node>
	<node id="-507582" lat="61.098577776" lon="6.04322777814">
		<tag k="name" v="Øyra" />
		<tag k="natural" v="cape" />
		<tag k="ssr:stedsnr" v="31222" />
	</node>
	<node id="-509624" lat="61.061002782" lon="5.89938888939">
		<tag k="name" v="Syrbøelva" />
		<tag k="ssr:stedsnr" v="880482" />
		<tag k="waterway" v="river" />
	</node>
	<node id="-507570" lat="61.1643361107" lon="6.07685276991">
		<tag k="name" v="Botneelva" />
		<tag k="ssr:stedsnr" v="30841" />
		<tag k="waterway" v="stream" />
	</node>
	<node id="-509614" lat="61.186541664" lon="5.70978888957">
		<tag k="name" v="Botnavatnet" />
		<tag k="natural" v="water" />
		<tag k="ssr:stedsnr" v="859807" />
	</node>
	<node id="-509612" lat="61.1750916679" lon="5.61176388805">
		<tag k="name" v="Tangen" />
		<tag k="natural" v="water" />
		<tag k="ssr:stedsnr" v="859796" />
	</node>
	<node id="-507562" lat="61.0701805572" lon="5.9235083341">
		<tag k="name" v="Ysterbøelva" />
		<tag k="ssr:stedsnr" v="30224" />
		<tag k="waterway" v="river" />
	</node>
	<node id="-509608" lat="61.2131138874" lon="5.668038891">
		<tag k="name" v="Selsneset" />
		<tag k="natural" v="cape" />
		<tag k="ssr:stedsnr" v="859744" />
	</node>
	<node id="-509606" lat="61.2178805523" lon="5.6898388837">
		<tag k="name" v="Sagelva" />
		<tag k="ssr:stedsnr" v="859742" />
		<tag k="waterway" v="stream" />
	</node>
	<node id="-509605" lat="61.2029055519" lon="5.48675277375">
		<tag k="name" v="Steinbotnevatnet" />
		<tag k="natural" v="water" />
		<tag k="ssr:stedsnr" v="859729" />
	</node>
	<node id="-507554" lat="61.1569138906" lon="5.57753889775">
		<tag k="name" v="Myrketjørna" />
		<tag k="natural" v="water" />
		<tag k="ssr:stedsnr" v="9839" />
	</node>
	<node id="-509601" lat="61.1039100895" lon="5.46204101371">
		<tag k="name" v="Stølstjørna" />
		<tag k="natural" v="water" />
		<tag k="ssr:stedsnr" v="859540" />
	</node>
	<node id="-507550" lat="61.2011305542" lon="5.71817222642">
		<tag k="name" v="Kvernhusbotnsvatnet" />
		<tag k="natural" v="water" />
		<tag k="ssr:stedsnr" v="9781" />
	</node>
	<node id="-507545" lat="61.1802305516" lon="5.91043334297">
		<tag k="name" v="Lomtjørna" />
		<tag k="natural" v="water" />
		<tag k="ssr:stedsnr" v="9494" />
	</node>
	<node id="-509592" lat="61.2137194434" lon="5.97745277069">
		<tag k="alt_name" v="Vetlevatnet" />
		<tag k="name" v="Veslevatnet" />
		<tag k="natural" v="water" />
		<tag k="ssr:stedsnr" v="859401" />
	</node>
	<node id="-509590" lat="61.2176499961" lon="6.07963611357">
		<tag k="name" v="Sæbøtjørna" />
		<tag k="natural" v="water" />
		<tag k="ssr:stedsnr" v="859394" />
	</node>
	<node id="-507541" lat="61.1709861126" lon="6.03821111527">
		<tag k="name" v="Mjeltegrova" />
		<tag k="ssr:stedsnr" v="9475" />
		<tag k="waterway" v="stream" />
	</node>
	<node id="-509585" lat="61.038563885" lon="5.96999721353">
		<tag k="name" v="Tvitakvatnet" />
		<tag k="natural" v="water" />
		<tag k="ssr:stedsnr" v="859339" />
	</node>
	<node id="-509583" lat="61.0423583318" lon="5.88809166471">
		<tag k="alt_name" v="Almdokkvatnet" />
		<tag k="name" v="Almdokkevatnet" />
		<tag k="natural" v="water" />
		<tag k="ssr:stedsnr" v="859334" />
		<tag k="water" v="lake" />
	</node>
	<node id="-509580" lat="61.0676694488" lon="5.96513333155">
		<tag k="name" v="Fessene" />
		<tag k="natural" v="waterfall" />
		<tag k="ssr:stedsnr" v="859246" />
	</node>
	<node id="-507531" lat="61.2173861082" lon="6.19813889736">
		<tag k="name" v="Tjørnane" />
		<tag k="natural" v="water" />
		<tag k="ssr:stedsnr" v="9410" />
	</node>
	<node id="-509577" lat="61.0841000025" lon="5.74821389283">
		<tag k="name" v="Daurmålstjørna" />
		<tag k="natural" v="water" />
		<tag k="ssr:stedsnr" v="859228" />
	</node>
	<node id="-509576" lat="61.0604333306" lon="5.74266944084">
		<tag k="alt_name" v="Vetlevatnet" />
		<tag k="name" v="Veslevatnet" />
		<tag k="natural" v="water" />
		<tag k="ssr:stedsnr" v="859195" />
	</node>
	<node id="-507527" lat="61.2000305584" lon="5.93956943938">
		<tag k="alt_name" v="Langeneset" />
		<tag k="name" v="Langenes" />
		<tag k="natural" v="cape" />
		<tag k="ssr:stedsnr" v="9381" />
	</node>
	<node id="-507517" lat="61.0997555532" lon="5.9254583344">
		<tag k="name" v="Dyttingane" />
		<tag k="natural" v="water" />
		<tag k="ssr:stedsnr" v="9259" />
	</node>
	<node id="-507513" lat="61.0550436419" lon="5.85854925747">
		<tag k="name" v="Systølvatnet" />
		<tag k="natural" v="water" />
		<tag k="ssr:stedsnr" v="9230" />
		<tag k="water" v="lake" />
	</node>
	<node id="-507512" lat="61.052597222" lon="5.87083333634">
		<tag k="name" v="Nonskardtjørna" />
		<tag k="natural" v="water" />
		<tag k="ssr:stedsnr" v="9224" />
	</node>
	<node id="-507511" lat="61.045619441" lon="5.96935833192">
		<tag k="name" v="Langevatnet" />
		<tag k="natural" v="water" />
		<tag k="ssr:stedsnr" v="9219" />
	</node>
	<node id="-507510" lat="61.0622999968" lon="6.07873611053">
		<tag k="alt_name" v="Regndalsvatnet, nedre" />
		<tag k="name" v="Nedre Regndalsvatnet" />
		<tag k="natural" v="water" />
		<tag k="ssr:stedsnr" v="9220" />
	</node>
	<node id="-509555" lat="61.2215392483" lon="5.92421834467">
		<tag k="name" v="Ulldalsvatn" />
		<tag k="natural" v="water" />
		<tag k="ssr:stedsnr" v="859078" />
		<tag k="water" v="lake" />
	</node>
	<node id="-509551" lat="61.0209999996" lon="5.67392500067">
		<tag k="name" v="Løketjørna" />
		<tag k="natural" v="water" />
		<tag k="ssr:stedsnr" v="859003" />
	</node>
	<node id="-509550" lat="61.0077361096" lon="5.87393888556">
		<tag k="name" v="Svartevatnet" />
		<tag k="natural" v="water" />
		<tag k="ssr:stedsnr" v="859314" />
	</node>
	<node id="-509549" lat="60.9966212191" lon="5.76176842241">
		<tag k="name" v="Fridalsvatnet" />
		<tag k="natural" v="water" />
		<tag k="ssr:stedsnr" v="858774" />
		<tag k="water" v="lake" />
	</node>
	<node id="-509548" lat="61.2383999981" lon="6.2473777871">
		<tag k="name" v="Makkoren" />
		<tag k="place" v="locality" />
		<tag k="ssr:stedsnr" v="858323" />
	</node>
	<node id="-509546" lat="60.9637027792" lon="5.68000833146">
		<tag k="name" v="Hellersbotnvatnet" />
		<tag k="natural" v="water" />
		<tag k="ssr:stedsnr" v="858293" />
	</node>
	<node id="-507495" lat="61.1359388932" lon="5.55453610914">
		<tag k="name" v="Fosselva" />
		<tag k="ssr:stedsnr" v="9099" />
		<tag k="waterway" v="stream" />
	</node>
	<node id="-507493" lat="61.2400333353" lon="6.03960000585">
		<tag k="name" v="Vassdalsvatnet" />
		<tag k="natural" v="water" />
		<tag k="ssr:stedsnr" v="9091" />
	</node>
	<node id="-507489" lat="61.2289499957" lon="6.17090833432">
		<tag k="alt_name" v="Sæbotnsvatnet, nedre" />
		<tag k="name" v="Nedre Sæbotnsvatnet" />
		<tag k="natural" v="water" />
		<tag k="ssr:stedsnr" v="9049" />
	</node>
	<node id="-507486" lat="61.2356222206" lon="6.20850000484">
		<tag k="name" v="Roesvatnet" />
		<tag k="natural" v="water" />
		<tag k="ssr:stedsnr" v="9040" />
	</node>
	<node id="-507481" lat="61.2717944456" lon="6.10772499516">
		<tag k="alt_name" v="Breiddalsvatnet, øvre;Øvre Breiddalsvatnet" />
		<tag k="name" v="Øvre Breidalsvatnet" />
		<tag k="natural" v="water" />
		<tag k="ssr:stedsnr" v="8594" />
		<tag k="water" v="lake" />
	</node>
	<node id="-509528" lat="61.1839194479" lon="5.63175833906">
		<tag k="name" v="Vetletjørna" />
		<tag k="natural" v="water" />
		<tag k="ssr:stedsnr" v="822987" />
	</node>
	<node id="-509526" lat="61.2061861097" lon="5.88843610552">
		<tag k="name" v="Langevassgroa" />
		<tag k="ssr:stedsnr" v="821986" />
		<tag k="waterway" v="stream" />
	</node>
	<node id="-507474" lat="61.2804416669" lon="6.29368333699">
		<tag k="name" v="Øyevatnet" />
		<tag k="natural" v="water" />
		<tag k="ssr:stedsnr" v="7771" />
	</node>
	<node id="-507472" lat="61.2812138929" lon="6.0687555527">
		<tag k="alt_name" v="Blankedalsvatnet, nedre" />
		<tag k="name" v="Nedre Blankedalsvatnet" />
		<tag k="natural" v="water" />
		<tag k="ssr:stedsnr" v="7593" />
		<tag k="water" v="lake" />
	</node>
	<node id="-507470" lat="61.2752361094" lon="5.98078888428">
		<tag k="name" v="Sjurdvatnet" />
		<tag k="natural" v="water" />
		<tag k="ssr:stedsnr" v="7579" />
	</node>
	<node id="-509510" lat="61.1852666697" lon="5.82138054722">
		<tag k="name" v="Vetlefossen" />
		<tag k="natural" v="waterfall" />
		<tag k="ssr:stedsnr" v="821768" />
	</node>
	<node id="-509509" lat="61.2116416696" lon="5.73332778388">
		<tag k="name" v="Klubben" />
		<tag k="natural" v="cape" />
		<tag k="ssr:stedsnr" v="821747" />
	</node>
	<node id="-509499" lat="61.2484861091" lon="5.86530000252">
		<tag k="name" v="Tordivelsgroa" />
		<tag k="ssr:stedsnr" v="821587" />
		<tag k="waterway" v="stream" />
	</node>
	<node id="-509497" lat="61.2496944402" lon="5.83872777457">
		<tag k="name" v="Dregebøtjørna" />
		<tag k="natural" v="water" />
		<tag k="ssr:stedsnr" v="821564" />
	</node>
	<node id="-509495" lat="61.1744305557" lon="5.76765832806">
		<tag k="name" v="Teigaelva" />
		<tag k="ssr:stedsnr" v="821530" />
		<tag k="waterway" v="river" />
	</node>
	<node id="-507446" lat="61.228294444" lon="5.85804999795">
		<tag k="name" v="Nipegroa" />
		<tag k="ssr:stedsnr" v="882868" />
		<tag k="waterway" v="river" />
	</node>
	<node id="-509492" lat="61.1660444469" lon="5.76957500624">
		<tag k="name" v="Lassegjelelva" />
		<tag k="ssr:stedsnr" v="821517" />
		<tag k="waterway" v="stream" />
	</node>
	<node id="-507443" lat="61.2390000025" lon="6.14597777024">
		<tag k="name" v="Sauegjelsgroa" />
		<tag k="ssr:stedsnr" v="882739" />
		<tag k="waterway" v="stream" />
	</node>
	<node id="-507441" lat="61.239397221" lon="6.13966110715">
		<tag k="name" v="Rindeholmen" />
		<tag k="place" v="islet" />
		<tag k="ssr:stedsnr" v="882702" />
	</node>
	<node id="-507439" lat="61.2233527767" lon="5.95379722306">
		<tag k="name" v="Remaelva" />
		<tag k="ssr:stedsnr" v="882634" />
		<tag k="waterway" v="river" />
	</node>
	<node id="-509482" lat="61.1785805555" lon="5.46659445196">
		<tag k="name" v="Svaelva" />
		<tag k="ssr:stedsnr" v="821191" />
		<tag k="waterway" v="stream" />
	</node>
	<node id="-509479" lat="61.1158194441" lon="6.17128610609">
		<tag k="name" v="Kroksneselvi" />
		<tag k="ssr:stedsnr" v="821126" />
		<tag k="waterway" v="stream" />
	</node>
	<node id="-509478" lat="61.2153194459" lon="5.65519166248">
		<tag k="name" v="Øyreelva" />
		<tag k="ssr:stedsnr" v="821115" />
		<tag k="waterway" v="stream" />
	</node>
	<node id="-509201" lat="61.2144083299" lon="5.90218333738">
		<tag k="name" v="Langevatnet" />
		<tag k="natural" v="water" />
		<tag k="ssr:stedsnr" v="737079" />
	</node>
	<node id="-509471" lat="61.1043472221" lon="5.97959166153">
		<tag k="name" v="Skogøksla" />
		<tag k="ssr:stedsnr" v="820977" />
		<tag k="waterway" v="stream" />
	</node>
	<node id="-509470" lat="61.1769888912" lon="5.44963611939">
		<tag k="name" v="Alheitjørna" />
		<tag k="natural" v="water" />
		<tag k="ssr:stedsnr" v="820958" />
	</node>
	<node id="-509464" lat="61.0220888878" lon="5.8214027809">
		<tag k="name" v="Vasstranda" />
		<tag k="natural" v="beach" />
		<tag k="ssr:stedsnr" v="820848" />
	</node>
	<node id="-509454" lat="61.2129388851" lon="5.77681666474">
		<tag k="name" v="Småelva" />
		<tag k="ssr:stedsnr" v="820688" />
		<tag k="waterway" v="stream" />
	</node>
	<node id="-507393" lat="61.2584944475" lon="5.93291389238">
		<tag k="name" v="Stølsfossen" />
		<tag k="natural" v="waterfall" />
		<tag k="ssr:stedsnr" v="396487" />
	</node>
	<node id="-507386" lat="61.2663111071" lon="6.22348332437">
		<tag k="name" v="Storelva" />
		<tag k="ssr:stedsnr" v="396103" />
		<tag k="waterway" v="river" />
	</node>
	<node id="-507385" lat="61.2585333336" lon="6.20296111167">
		<tag k="name" v="Kringletevasselva" />
		<tag k="ssr:stedsnr" v="396102" />
		<tag k="waterway" v="river" />
	</node>
	<node id="-509423" lat="61.2323999984" lon="5.70176944175">
		<tag k="name" v="Småvatna" />
		<tag k="natural" v="water" />
		<tag k="ssr:stedsnr" v="798961" />
	</node>
	<node id="-509420" lat="61.1936916644" lon="5.49809444856">
		<tag k="name" v="Snytebotntjørna" />
		<tag k="natural" v="water" />
		<tag k="ssr:stedsnr" v="798744" />
	</node>
	<node id="-509418" lat="61.2126444457" lon="5.6778111061">
		<tag k="name" v="Vikavatnet" />
		<tag k="natural" v="water" />
		<tag k="ssr:stedsnr" v="798727" />
		<tag k="water" v="lake" />
	</node>
	<node id="-507369" lat="61.2122666657" lon="5.78093332886">
		<tag k="name" v="Jyttelva" />
		<tag k="ssr:stedsnr" v="395730" />
		<tag k="waterway" v="river" />
	</node>
	<node id="-507368" lat="61.1646388879" lon="5.53578055697">
		<tag k="alt_name" v="Solheimselva" />
		<tag k="name" v="Strandoselva" />
		<tag k="ssr:stedsnr" v="395697" />
		<tag k="waterway" v="river" />
	</node>
	<node id="-507365" lat="61.0405777809" lon="5.62819445275">
		<tag k="name" v="Nonskorgrova" />
		<tag k="ssr:stedsnr" v="395674" />
		<tag k="waterway" v="river" />
	</node>
	<node id="-507358" lat="61.1719416689" lon="5.79200555066">
		<tag k="name" v="Lommetjørna" />
		<tag k="natural" v="water" />
		<tag k="ssr:stedsnr" v="395563" />
	</node>
	<node id="-509401" lat="61.2035166664" lon="6.09744165888">
		<tag k="alt_name" v="Blåfjellvatnet, øvre" />
		<tag k="name" v="Øvre Blåfjellvatnet" />
		<tag k="natural" v="water" />
		<tag k="ssr:stedsnr" v="798388" />
	</node>
	<node id="-507352" lat="61.0688638865" lon="5.83043332501">
		<tag k="name" v="Bjordalselva" />
		<tag k="ssr:stedsnr" v="395502" />
		<tag k="waterway" v="river" />
	</node>
	<node id="-509397" lat="61.0276888856" lon="5.8780666665">
		<tag k="name" v="Tjørna i botn" />
		<tag k="natural" v="water" />
		<tag k="ssr:stedsnr" v="798342" />
	</node>
	<node id="-509393" lat="61.1126861078" lon="5.91567778243">
		<tag k="name" v="Småvatna" />
		<tag k="natural" v="water" />
		<tag k="ssr:stedsnr" v="798273" />
	</node>
	<node id="-509390" lat="61.0814777809" lon="5.89315277279">
		<tag k="alt_name" v="Ystrebøvatnet" />
		<tag k="name" v="Øystrebøvatnet" />
		<tag k="natural" v="water" />
		<tag k="ssr:stedsnr" v="798258" />
		<tag k="water" v="lake" />
	</node>
	<node id="-507338" lat="61.0803472246" lon="5.77852777776">
		<tag k="name" v="Rørbakkelva" />
		<tag k="ssr:stedsnr" v="395281" />
		<tag k="waterway" v="stream" />
	</node>
	<node id="-507331" lat="61.0517749995" lon="5.71403611305">
		<tag k="name" v="Rindeelva" />
		<tag k="ssr:stedsnr" v="395071" />
		<tag k="waterway" v="river" />
	</node>
	<node id="-509367" lat="61.119061107" lon="5.54223611864">
		<tag k="name" v="Kutjørna" />
		<tag k="natural" v="water" />
		<tag k="ssr:stedsnr" v="798128" />
	</node>
	<node id="-509366" lat="61.1182638852" lon="5.51290000164">
		<tag k="name" v="Vasslitjørna" />
		<tag k="natural" v="water" />
		<tag k="ssr:stedsnr" v="798129" />
	</node>
	<node id="-509362" lat="61.2463222213" lon="6.15972500482">
		<tag k="name" v="Gautingsdalskloven" />
		<tag k="ssr:stedsnr" v="798109" />
		<tag k="waterway" v="river" />
	</node>
	<node id="-509361" lat="61.2474666634" lon="5.9051361161">
		<tag k="name" v="Hovlandselva" />
		<tag k="ssr:stedsnr" v="798106" />
		<tag k="waterway" v="river" />
	</node>
	<node id="-509359" lat="61.2403166635" lon="5.8626027698">
		<tag k="name" v="Striksfossen" />
		<tag k="natural" v="waterfall" />
		<tag k="ssr:stedsnr" v="798094" />
	</node>
	<node id="-509354" lat="61.0441277758" lon="5.6340277688">
		<tag k="name" v="Storelva" />
		<tag k="ssr:stedsnr" v="798060" />
		<tag k="waterway" v="stream" />
	</node>
	<node id="-507304" lat="61.1789888932" lon="5.60311666194">
		<tag k="name" v="Svartejohannessen" />
		<tag k="natural" v="water" />
		<tag k="ssr:stedsnr" v="373812" />
	</node>
	<node id="-509351" lat="61.0221111073" lon="5.80573054932">
		<tag k="name" v="Lonene" />
		<tag k="natural" v="water" />
		<tag k="ssr:stedsnr" v="798031" />
	</node>
	<node id="-509350" lat="60.9681166658" lon="5.87694167494">
		<tag k="name" v="Bjordalskupa" />
		<tag k="natural" v="water" />
		<tag k="ssr:stedsnr" v="798023" />
	</node>
	<node id="-507301" lat="61.199780558" lon="5.78017777763">
		<tag k="alt_name" v="Bøavatnet" />
		<tag k="name" v="Bøvatnet" />
		<tag k="natural" v="water" />
		<tag k="ssr:stedsnr" v="373781" />
	</node>
	<node id="-509347" lat="61.1524999963" lon="5.43488334284">
		<tag k="alt_name" v="Langevatn" />
		<tag k="name" v="Langevatnet" />
		<tag k="natural" v="water" />
		<tag k="ssr:stedsnr" v="797531" />
		<tag k="water" v="lake" />
	</node>
	<node id="-509346" lat="60.9784777767" lon="5.75572778382">
		<tag k="name" v="Spongavatnet" />
		<tag k="natural" v="water" />
		<tag k="ssr:stedsnr" v="797297" />
		<tag k="water" v="lake" />
	</node>
	<node id="-509344" lat="61.2525499957" lon="6.28748610872">
		<tag k="name" v="Sjursvatnet" />
		<tag k="natural" v="water" />
		<tag k="ssr:stedsnr" v="796858" />
	</node>
	<node id="-509342" lat="61.2686388931" lon="6.00600000125">
		<tag k="name" v="Djupedalsvatnet" />
		<tag k="natural" v="water" />
		<tag k="ssr:stedsnr" v="796587" />
	</node>
	<node id="-507275" lat="61.2492006071" lon="6.31057806709">
		<tag k="name" v="Øvre Gryvlebotnvatnet" />
		<tag k="natural" v="water" />
		<tag k="ssr:stedsnr" v="373310" />
		<tag k="water" v="lake" />
	</node>
	<node id="-507266" lat="61.057761109" lon="5.98510278149">
		<tag k="name" v="Randalsvatnet" />
		<tag k="natural" v="water" />
		<tag k="ssr:stedsnr" v="373248" />
	</node>
	<node id="-507115" lat="61.2242277761" lon="6.1526805596">
		<tag k="alt_name" v="Sæbotnsvatnet, øvre" />
		<tag k="name" v="Øvre Sæbotnsvatnet" />
		<tag k="natural" v="water" />
		<tag k="ssr:stedsnr" v="313088" />
	</node>
	<node id="-509301" lat="61.1836888862" lon="5.98839167317">
		<tag k="name" v="Steinbakkelva" />
		<tag k="ssr:stedsnr" v="760466" />
		<tag k="waterway" v="stream" />
	</node>
	<node id="-507247" lat="61.2416027759" lon="6.16132500363">
		<tag k="name" v="Eringsdalselva" />
		<tag k="ssr:stedsnr" v="373094" />
		<tag k="waterway" v="river" />
	</node>
	<node id="-507245" lat="61.248644443" lon="6.06664999336">
		<tag k="name" v="Skåbakkevatnet" />
		<tag k="natural" v="water" />
		<tag k="ssr:stedsnr" v="373081" />
	</node>
	<node id="-507243" lat="61.0366888864" lon="5.65038055003">
		<tag k="name" v="Vassdalsvatnet" />
		<tag k="natural" v="water" />
		<tag k="ssr:stedsnr" v="373046" />
	</node>
	<node id="-509289" lat="61.182377774" lon="5.99659445401">
		<tag k="name" v="Indreberselva" />
		<tag k="ssr:stedsnr" v="760247" />
		<tag k="waterway" v="stream" />
	</node>
	<node id="-509288" lat="61.1814999998" lon="5.50596666658">
		<tag k="name" v="Merkesvika" />
		<tag k="natural" v="bay" />
		<tag k="ssr:stedsnr" v="760230" />
	</node>
	<node id="-507238" lat="61.034558336" lon="5.78322777566">
		<tag k="alt_name" v="Tveravatnet" />
		<tag k="name" v="Tverrvatnet" />
		<tag k="natural" v="water" />
		<tag k="ssr:stedsnr" v="373004" />
		<tag k="water" v="lake" />
	</node>
	<node id="-507236" lat="61.0311194443" lon="5.73949167136">
		<tag k="name" v="Fjordsneset" />
		<tag k="natural" v="cape" />
		<tag k="ssr:stedsnr" v="373003" />
	</node>
	<node id="-507234" lat="61.2588694437" lon="6.27688888085">
		<tag k="name" v="Heibotnvatnet" />
		<tag k="natural" v="water" />
		<tag k="ssr:stedsnr" v="371841" />
	</node>
	<node id="-509279" lat="61.0937166666" lon="6.11761111687">
		<tag k="name" v="Mudlabekka" />
		<tag k="ssr:stedsnr" v="759923" />
		<tag k="waterway" v="stream" />
	</node>
	<node id="-507230" lat="61.2654305535" lon="5.99337500497">
		<tag k="name" v="Venelivatnet" />
		<tag k="natural" v="water" />
		<tag k="ssr:stedsnr" v="371569" />
	</node>
	<node id="-507229" lat="61.2667916659" lon="5.95046110958">
		<tag k="alt_name" v="Fossvatn" />
		<tag k="name" v="Fossvatnet" />
		<tag k="natural" v="water" />
		<tag k="ssr:stedsnr" v="371568" />
		<tag k="water" v="lake" />
	</node>
	<node id="-507228" lat="61.26854167" lon="5.9039750063">
		<tag k="name" v="Grytåstjørna" />
		<tag k="natural" v="water" />
		<tag k="ssr:stedsnr" v="371566" />
	</node>
	<node id="-507226" lat="61.260813892" lon="5.87848333266">
		<tag k="fixme" v="multiple name tags, choose one and add the other to alt_name" />
		<tag k="name" v="Markesetelva;Veslelva" />
		<tag k="ssr:stedsnr" v="371563" />
		<tag k="waterway" v="stream" />
	</node>
	<node id="-507221" lat="61.096616671" lon="6.13490000793">
		<tag k="name" v="Storelva" />
		<tag k="ssr:stedsnr" v="371427" />
		<tag k="waterway" v="river" />
	</node>
	<node id="-509268" lat="61.056499996" lon="5.8519305556">
		<tag k="name" v="Salsvika" />
		<tag k="natural" v="bay" />
		<tag k="ssr:stedsnr" v="759567" />
	</node>
	<node id="-507209" lat="61.1988277756" lon="5.93069166429">
		<tag k="name" v="Vetleholmen" />
		<tag k="place" v="islet" />
		<tag k="ssr:stedsnr" v="336972" />
	</node>
	<node id="-507206" lat="61.2032388935" lon="5.8524583363">
		<tag k="name" v="Botnegroa" />
		<tag k="ssr:stedsnr" v="336869" />
		<tag k="waterway" v="stream" />
	</node>
	<node id="-507200" lat="61.2329166686" lon="5.81491943824">
		<tag k="name" v="Kallskreelva" />
		<tag k="ssr:stedsnr" v="336552" />
		<tag k="waterway" v="stream" />
	</node>
	<node id="-509247" lat="61.1866888888" lon="5.6357777825">
		<tag k="alt_name" v="Gjelona" />
		<tag k="name" v="Gillona" />
		<tag k="natural" v="water" />
		<tag k="ssr:stedsnr" v="737841" />
	</node>
	<node id="-509246" lat="61.1756833342" lon="5.74229444413">
		<tag k="name" v="Eidselva" />
		<tag k="ssr:stedsnr" v="737814" />
		<tag k="waterway" v="stream" />
	</node>
	<node id="-509244" lat="61.2027833331" lon="5.7935027781">
		<tag k="name" v="Tjørna" />
		<tag k="natural" v="water" />
		<tag k="ssr:stedsnr" v="737786" />
	</node>
	<node id="-507193" lat="61.2387777742" lon="6.12394444337">
		<tag k="name" v="Dalbugroa" />
		<tag k="ssr:stedsnr" v="335816" />
		<tag k="waterway" v="stream" />
	</node>
	<node id="-507444" lat="61.2134777734" lon="6.05282777561">
		<tag k="name" v="Tungeelva" />
		<tag k="ssr:stedsnr" v="882836" />
		<tag k="waterway" v="river" />
	</node>
	<node id="-507181" lat="61.0924722194" lon="5.72619722177">
		<tag k="name" v="Ytreelva" />
		<tag k="ssr:stedsnr" v="335513" />
		<tag k="waterway" v="river" />
	</node>
	<node id="-507180" lat="61.1823555589" lon="5.98308333363">
		<tag k="name" v="Fosselva" />
		<tag k="ssr:stedsnr" v="335493" />
		<tag k="waterway" v="stream" />
	</node>
	<node id="-509227" lat="61.1536194437" lon="6.10160277144">
		<tag k="alt_name" v="Moldgroa" />
		<tag k="name" v="Moldgrovi" />
		<tag k="ssr:stedsnr" v="737414" />
		<tag k="waterway" v="stream" />
	</node>
	<node id="-509223" lat="61.0372165422" lon="6.14626618953">
		<tag k="name" v="Bjørnevatna" />
		<tag k="natural" v="water" />
		<tag k="ssr:stedsnr" v="737346" />
		<tag k="water" v="lake" />
	</node>
	<node id="-507174" lat="61.1260777782" lon="5.93438056459">
		<tag k="name" v="Kvernhuselva" />
		<tag k="ssr:stedsnr" v="335297" />
		<tag k="waterway" v="stream" />
	</node>
	<node id="-509220" lat="61.0620222263" lon="6.1126500039">
		<tag k="name" v="Grønsetvatnet" />
		<tag k="natural" v="water" />
		<tag k="ssr:stedsnr" v="737238" />
	</node>
	<node id="-507170" lat="61.1533416652" lon="5.46611667588">
		<tag k="name" v="Djupevika" />
		<tag k="natural" v="bay" />
		<tag k="ssr:stedsnr" v="335134" />
	</node>
	<node id="-509216" lat="61.0752194434" lon="5.72349166714">
		<tag k="name" v="Hammarstjørna" />
		<tag k="natural" v="water" />
		<tag k="ssr:stedsnr" v="737187" />
	</node>
	<node id="-507167" lat="61.2532777759" lon="6.18252221696">
		<tag k="name" v="Turtnegroa" />
		<tag k="ssr:stedsnr" v="335107" />
		<tag k="waterway" v="stream" />
	</node>
	<node id="-507166" lat="61.2160027804" lon="5.68121667084">
		<tag k="name" v="Eligrova" />
		<tag k="ssr:stedsnr" v="335086" />
		<tag k="waterway" v="stream" />
	</node>
	<node id="-509210" lat="61.115594443" lon="5.52298334145">
		<tag k="name" v="Myrketjørna" />
		<tag k="natural" v="water" />
		<tag k="ssr:stedsnr" v="737137" />
	</node>
	<node id="-509207" lat="61.1245611099" lon="5.54255000733">
		<tag k="name" v="Øyretjørna" />
		<tag k="natural" v="water" />
		<tag k="ssr:stedsnr" v="737123" />
	</node>
	<node id="-509202" lat="61.2228138929" lon="6.11601110489">
		<tag k="name" v="Merkeselva" />
		<tag k="ssr:stedsnr" v="737086" />
		<tag k="waterway" v="stream" />
	</node>
	<node id="-507153" lat="61.1564638883" lon="5.7054888968">
		<tag k="name" v="Botnatjørna" />
		<tag k="natural" v="water" />
		<tag k="ssr:stedsnr" v="334669" />
	</node>
	<node id="-509200" lat="61.233655555" lon="6.13164443983">
		<tag k="name" v="Fokefossen" />
		<tag k="natural" v="waterfall" />
		<tag k="ssr:stedsnr" v="737056" />
	</node>
	<node id="-509199" lat="61.0386250023" lon="5.59618334175">
		<tag k="name" v="Kovevatnet" />
		<tag k="natural" v="water" />
		<tag k="ssr:stedsnr" v="737055" />
	</node>
	<node id="-509198" lat="61.0278761693" lon="5.84044009951">
		<tag k="name" v="Botnevatnet" />
		<tag k="natural" v="water" />
		<tag k="ssr:stedsnr" v="737023" />
		<tag k="water" v="lake" />
	</node>
	<node id="-509197" lat="60.954941668" lon="5.87998889532">
		<tag k="name" v="Rundavatnet" />
		<tag k="natural" v="water" />
		<tag k="ssr:stedsnr" v="737017" />
	</node>
	<node id="-507147" lat="61.1175999987" lon="5.89246666273">
		<tag k="name" v="Kvernhuselva" />
		<tag k="ssr:stedsnr" v="334452" />
		<tag k="waterway" v="stream" />
	</node>
	<node id="-509194" lat="61.2633250029" lon="5.96548054849">
		<tag k="name" v="Lonene" />
		<tag k="natural" v="bay" />
		<tag k="ssr:stedsnr" v="736564" />
	</node>
	<node id="-509191" lat="61.2584805544" lon="6.16362500652">
		<tag k="name" v="Botnaelva" />
		<tag k="ssr:stedsnr" v="736550" />
		<tag k="waterway" v="stream" />
	</node>
	<node id="-507140" lat="61.0756694448" lon="5.79899999331">
		<tag k="name" v="Oslandselva" />
		<tag k="ssr:stedsnr" v="334213" />
		<tag k="waterway" v="stream" />
	</node>
	<node id="-507138" lat="61.0501379003" lon="5.74583750771">
		<tag k="name" v="Vetlelineset" />
		<tag k="natural" v="cape" />
		<tag k="ssr:stedsnr" v="334083" />
	</node>
	<node id="-509176" lat="61.1825062248" lon="5.8979617635">
		<tag k="name" v="Vassdalselva" />
		<tag k="ssr:stedsnr" v="700789" />
		<tag k="waterway" v="river" />
	</node>
	<node id="-507122" lat="61.0657666668" lon="5.93847221298">
		<tag k="alt_name" v="Nyljeelva" />
		<tag k="name" v="Nykkelva" />
		<tag k="ssr:stedsnr" v="313267" />
		<tag k="waterway" v="stream" />
	</node>
	<node id="-507121" lat="61.0541611126" lon="6.0269444398">
		<tag k="name" v="Osevatnet" />
		<tag k="natural" v="water" />
		<tag k="ssr:stedsnr" v="313245" />
	</node>
	<node id="-507120" lat="61.0832388903" lon="5.75978611116">
		<tag k="name" v="Purketjørna" />
		<tag k="natural" v="water" />
		<tag k="ssr:stedsnr" v="313239" />
	</node>
	<node id="-509163" lat="61.2242333347" lon="6.08819444502">
		<tag k="alt_name" v="Daleelva" />
		<tag k="name" v="Dalelva" />
		<tag k="ssr:stedsnr" v="699877" />
		<tag k="waterway" v="river" />
	</node>
	<node id="-507114" lat="61.2368250035" lon="6.08053888611">
		<tag k="name" v="Hålandselva" />
		<tag k="ssr:stedsnr" v="313077" />
		<tag k="waterway" v="stream" />
	</node>
	<node id="-509161" lat="61.0924194407" lon="5.45516388837">
		<tag k="name" v="Vetlebotntjørna" />
		<tag k="natural" v="water" />
		<tag k="ssr:stedsnr" v="699797" />
	</node>
	<node id="-509158" lat="61.1534500005" lon="5.43188888676">
		<tag k="name" v="Espelandsholmen" />
		<tag k="place" v="islet" />
		<tag k="ssr:stedsnr" v="699743" />
	</node>
	<node id="-509154" lat="61.2123277803" lon="5.78515832695">
		<tag k="name" v="Østelielva" />
		<tag k="ssr:stedsnr" v="699705" />
		<tag k="waterway" v="stream" />
	</node>
	<node id="-507105" lat="61.2261500003" lon="5.73474445043">
		<tag k="name" v="Småtjørna" />
		<tag k="natural" v="water" />
		<tag k="ssr:stedsnr" v="312744" />
	</node>
	<node id="-507104" lat="61.231044443" lon="5.82440277288">
		<tag k="name" v="Ytredalslonene" />
		<tag k="place" v="locality" />
		<tag k="ssr:stedsnr" v="312738" />
	</node>
	<node id="-509151" lat="61.1785861123" lon="5.54780000836">
		<tag k="name" v="Vetlenykkstjørna" />
		<tag k="natural" v="water" />
		<tag k="ssr:stedsnr" v="699635" />
	</node>
	<node id="-509150" lat="61.0339638878" lon="5.65096388206">
		<tag k="name" v="Skitvika" />
		<tag k="natural" v="bay" />
		<tag k="ssr:stedsnr" v="699625" />
	</node>
	<node id="-507100" lat="61.2057833294" lon="5.95730000278">
		<tag k="name" v="Eidesvika" />
		<tag k="natural" v="bay" />
		<tag k="ssr:stedsnr" v="312428" />
	</node>
	<node id="-507099" lat="61.2003499975" lon="6.09438332757">
		<tag k="alt_name" v="Blåfjellvatnet, nedre" />
		<tag k="name" v="Nedre Blåfjellvatnet" />
		<tag k="natural" v="water" />
		<tag k="ssr:stedsnr" v="312422" />
	</node>
	<node id="-507098" lat="61.1956666703" lon="5.84347776895">
		<tag k="alt_name" v="Firsskarsvatnet" />
		<tag k="name" v="Tirskardvatnet" />
		<tag k="natural" v="water" />
		<tag k="ssr:stedsnr" v="312419" />
	</node>
	<node id="-507097" lat="61.1962083375" lon="5.90274166412">
		<tag k="name" v="Kråkosen" />
		<tag k="natural" v="bay" />
		<tag k="ssr:stedsnr" v="312418" />
	</node>
	<node id="-507090" lat="61.0938250031" lon="6.04038611614">
		<tag k="name" v="Mjølsvikelva" />
		<tag k="ssr:stedsnr" v="312284" />
		<tag k="waterway" v="river" />
	</node>
	<node id="-507080" lat="61.240727775" lon="6.05213888105">
		<tag k="name" v="Vesledalsvatnet" />
		<tag k="natural" v="water" />
		<tag k="ssr:stedsnr" v="312100" />
	</node>
	<node id="-507076" lat="61.252538258" lon="6.09435744939">
		<tag k="alt_name" v="Breiddalsvatnet, nedre;Nedre Breiddalsvatnet" />
		<tag k="name" v="Nedre Breidalsvatnet" />
		<tag k="natural" v="water" />
		<tag k="ssr:stedsnr" v="312086" />
		<tag k="water" v="lake" />
	</node>
	<node id="-509122" lat="61.1642944489" lon="5.50771388768">
		<tag k="name" v="Geiteløken" />
		<tag k="natural" v="bay" />
		<tag k="ssr:stedsnr" v="699133" />
	</node>
	<node id="-507073" lat="60.9938861079" lon="6.1163944373">
		<tag k="name" v="Svartsteinbekken" />
		<tag k="ssr:stedsnr" v="312013" />
		<tag k="waterway" v="stream" />
	</node>
	<node id="-507072" lat="60.9897972216" lon="5.88657777411">
		<tag k="name" v="Fridalsvatna" />
		<tag k="natural" v="water" />
		<tag k="ssr:stedsnr" v="312006" />
		<tag k="water" v="lake" />
	</node>
	<node id="-507071" lat="61.2590999973" lon="6.21014444681">
		<tag k="alt_name" v="Kringlevatnet" />
		<tag k="name" v="Kringletevatnet" />
		<tag k="natural" v="water" />
		<tag k="ssr:stedsnr" v="311722" />
	</node>
	<node id="-507069" lat="61.2850805539" lon="6.00153889394">
		<tag k="name" v="Svartevatnet" />
		<tag k="natural" v="water" />
		<tag k="ssr:stedsnr" v="311637" />
	</node>
	<node id="-509114" lat="61.0149249969" lon="5.82437777945">
		<tag k="name" v="Bjørkevika" />
		<tag k="natural" v="bay" />
		<tag k="ssr:stedsnr" v="698851" />
	</node>
	<node id="-507423" lat="61.1700805516" lon="5.4503444519">
		<tag k="name" v="Fossarelva" />
		<tag k="ssr:stedsnr" v="881939" />
		<tag k="waterway" v="river" />
	</node>
	<node id="-507064" lat="61.0553194469" lon="5.69748055281">
		<tag k="alt_name" v="Østerbøelva;Storelva" />
		<tag k="name" v="Øystrebøelva" />
		<tag k="ssr:stedsnr" v="311544" />
		<tag k="waterway" v="river" />
	</node>
	<node id="-509111" lat="61.1749444422" lon="6.09895556342">
		<tag k="name" v="Låneskarelva" />
		<tag k="ssr:stedsnr" v="698826" />
		<tag k="waterway" v="river" />
	</node>
	<node id="-507062" lat="60.9767333355" lon="5.68957500339">
		<tag k="name" v="Langevatnet" />
		<tag k="natural" v="water" />
		<tag k="ssr:stedsnr" v="311370" />
	</node>
	<node id="-507056" lat="61.1780250035" lon="5.91103611563">
		<tag k="name" v="Grastjørna" />
		<tag k="natural" v="water" />
		<tag k="ssr:stedsnr" v="275953" />
	</node>
	<node id="-507055" lat="61.2589666692" lon="5.90697500568">
		<tag k="name" v="Åselva" />
		<tag k="ssr:stedsnr" v="275898" />
		<tag k="waterway" v="river" />
	</node>
	<node id="-509102" lat="61.0571527733" lon="5.86345277428">
		<tag k="name" v="Storeholmen" />
		<tag k="place" v="islet" />
		<tag k="ssr:stedsnr" v="698548" />
	</node>
	<node id="-507053" lat="61.1055583371" lon="6.06759999148">
		<tag k="name" v="Kvernhuselva" />
		<tag k="ssr:stedsnr" v="275782" />
		<tag k="waterway" v="stream" />
	</node>
	<node id="-507048" lat="61.1785611139" lon="5.89295000664">
		<tag k="name" v="Sjursbotnelva" />
		<tag k="ssr:stedsnr" v="275765" />
		<tag k="waterway" v="stream" />
	</node>
	<node id="-507046" lat="61.2250722242" lon="5.94718333244">
		<tag k="name" v="Hardbakkelva" />
		<tag k="ssr:stedsnr" v="275697" />
		<tag k="waterway" v="stream" />
	</node>
	<node id="-507043" lat="61.0301861131" lon="5.77192500346">
		<tag k="name" v="Lona" />
		<tag k="natural" v="water" />
		<tag k="ssr:stedsnr" v="275572" />
		<tag k="water" v="lake" />
	</node>
	<node id="-509120" lat="61.1840611144" lon="5.63121667037">
		<tag k="name" v="Vetletjørna" />
		<tag k="natural" v="water" />
		<tag k="ssr:stedsnr" v="699050" />
	</node>
	<node id="-509084" lat="61.1723944444" lon="5.82667500459">
		<tag k="name" v="Ulvåna" />
		<tag k="ssr:stedsnr" v="677860" />
		<tag k="waterway" v="stream" />
	</node>
	<node id="-509082" lat="61.1589805537" lon="5.6240194461">
		<tag k="name" v="Storelva" />
		<tag k="ssr:stedsnr" v="677851" />
		<tag k="waterway" v="stream" />
	</node>
	<node id="-507030" lat="60.9873333314" lon="5.85893055853">
		<tag k="name" v="Fridals-tjørna" />
		<tag k="natural" v="water" />
		<tag k="ssr:stedsnr" v="274834" />
	</node>
	<node id="-507027" lat="61.1936638933" lon="6.03572778543">
		<tag k="name" v="Systråna" />
		<tag k="ssr:stedsnr" v="274711" />
		<tag k="waterway" v="stream" />
	</node>
	<node id="-509069" lat="61.039622218" lon="5.85067778201">
		<tag k="name" v="Fessevatnet" />
		<tag k="natural" v="water" />
		<tag k="ssr:stedsnr" v="677344" />
	</node>
	<node id="-507009" lat="61.1867000003" lon="5.98890556467">
		<tag k="name" v="Kleivebakkelva" />
		<tag k="ssr:stedsnr" v="274428" />
		<tag k="waterway" v="stream" />
	</node>
	<node id="-509056" lat="61.2159833348" lon="5.87799444983">
		<tag k="name" v="Raunevatnet" />
		<tag k="natural" v="water" />
		<tag k="ssr:stedsnr" v="677096" />
	</node>
	<node id="-509055" lat="61.230802774" lon="6.05556389331">
		<tag k="alt_name" v="Siplauvatnet" />
		<tag k="name" v="Siplautjørna" />
		<tag k="natural" v="water" />
		<tag k="ssr:stedsnr" v="677087" />
	</node>
	<node id="-509054" lat="61.2362027756" lon="6.05929166551">
		<tag k="name" v="Hjetlandsbassenget" />
		<tag k="place" v="locality" />
		<tag k="ssr:stedsnr" v="677082" />
	</node>
	<node id="-507003" lat="61.1547916652" lon="5.61593332627">
		<tag k="name" v="Rånda" />
		<tag k="ssr:stedsnr" v="274291" />
		<tag k="waterway" v="stream" />
	</node>
	<node id="-507002" lat="61.1837472241" lon="5.50877222329">
		<tag k="name" v="Kvernhuselva" />
		<tag k="ssr:stedsnr" v="274221" />
		<tag k="waterway" v="river" />
	</node>
	<node id="-509048" lat="61.1637750008" lon="5.52173055391">
		<tag k="name" v="Sørestrandsvatnet" />
		<tag k="natural" v="water" />
		<tag k="ssr:stedsnr" v="676862" />
	</node>
	<node id="-509045" lat="61.1877749993" lon="5.51431667516">
		<tag k="fixme" v="multiple name tags, choose one and add the other to alt_name" />
		<tag k="name" v="Dyttinga;Stølstjørna" />
		<tag k="natural" v="water" />
		<tag k="ssr:stedsnr" v="676828" />
	</node>
	<node id="-509044" lat="61.1786527738" lon="5.54263055153">
		<tag k="alt_name" v="Støltjørna" />
		<tag k="name" v="Stølsvatnet" />
		<tag k="natural" v="water" />
		<tag k="ssr:stedsnr" v="676816" />
	</node>
	<node id="-506992" lat="61.1780472218" lon="5.62241389093">
		<tag k="name" v="Trolleskartjørna" />
		<tag k="natural" v="water" />
		<tag k="ssr:stedsnr" v="274003" />
	</node>
	<node id="-509039" lat="61.1510111085" lon="6.0672999912">
		<tag k="name" v="Storefossen" />
		<tag k="natural" v="waterfall" />
		<tag k="ssr:stedsnr" v="676464" />
	</node>
	<node id="-509037" lat="61.2048583378" lon="6.0851416737">
		<tag k="name" v="Storegrova" />
		<tag k="ssr:stedsnr" v="676411" />
		<tag k="waterway" v="stream" />
	</node>
	<node id="-509035" lat="61.1847888882" lon="5.88430276972">
		<tag k="name" v="Småvatna" />
		<tag k="natural" v="water" />
		<tag k="ssr:stedsnr" v="676376" />
	</node>
	<node id="-509033" lat="61.0155626955" lon="5.94715879247">
		<tag k="name" v="Isvatnet" />
		<tag k="natural" v="water" />
		<tag k="ssr:stedsnr" v="676367" />
		<tag k="water" v="lake" />
	</node>
	<node id="-509032" lat="61.0102916635" lon="6.15575554836">
		<tag k="name" v="Ålrekelvi" />
		<tag k="ssr:stedsnr" v="676356" />
		<tag k="waterway" v="river" />
	</node>
	<node id="-509031" lat="61.2471388394" lon="6.25943416953">
		<tag k="name" v="Norddalsvatnet" />
		<tag k="natural" v="water" />
		<tag k="ssr:stedsnr" v="676326" />
		<tag k="water" v="lake" />
	</node>
	<node id="-506980" lat="61.0502388917" lon="5.85357222524">
		<tag k="name" v="Lona" />
		<tag k="natural" v="water" />
		<tag k="ssr:stedsnr" v="273558" />
		<tag k="water" v="lake" />
	</node>
	<node id="-506975" lat="61.0442027739" lon="5.88969167129">
		<tag k="name" v="Heimstevika" />
		<tag k="natural" v="bay" />
		<tag k="ssr:stedsnr" v="273365" />
	</node>
	<node id="-509020" lat="61.0622083332" lon="5.70468055036">
		<tag k="name" v="Tveralielva" />
		<tag k="ssr:stedsnr" v="676216" />
		<tag k="waterway" v="stream" />
	</node>
	<node id="-507066" lat="61.2706499961" lon="6.20111110484">
		<tag k="name" v="Holmevatnet" />
		<tag k="natural" v="water" />
		<tag k="ssr:stedsnr" v="311604" />
	</node>
	<node id="-507406" lat="61.2221333352" lon="5.8318833274">
		<tag k="name" v="Skarstjørna" />
		<tag k="natural" v="water" />
		<tag k="ssr:stedsnr" v="396985" />
	</node>
	<node id="-509009" lat="61.2480138913" lon="5.85700554807">
		<tag k="name" v="Spjotelivatnet" />
		<tag k="natural" v="water" />
		<tag k="ssr:stedsnr" v="676111" />
	</node>
	<node id="-509008" lat="61.004375004" lon="5.69754166834">
		<tag k="name" v="Kringletevatnet" />
		<tag k="natural" v="water" />
		<tag k="ssr:stedsnr" v="676105" />
	</node>
	<node id="-509006" lat="61.0513067176" lon="5.61218743432">
		<tag k="alt_name" v="Trædalsvatnet" />
		<tag k="name" v="Stølsvatnet" />
		<tag k="natural" v="water" />
		<tag k="ssr:stedsnr" v="676046" />
		<tag k="water" v="lake" />
	</node>
	<node id="-509003" lat="61.2742390193" lon="6.31075320612">
		<tag k="name" v="Viersbotnvatnet" />
		<tag k="natural" v="water" />
		<tag k="ssr:stedsnr" v="675796" />
		<tag k="water" v="lake" />
	</node>
	<node id="-509001" lat="60.9881083319" lon="5.63076666375">
		<tag k="name" v="Strandavatnet" />
		<tag k="natural" v="water" />
		<tag k="ssr:stedsnr" v="675750" />
	</node>
	<node id="-508999" lat="61.0243638913" lon="5.65769999736">
		<tag k="name" v="Veslebotnvatnet" />
		<tag k="natural" v="water" />
		<tag k="ssr:stedsnr" v="677009" />
	</node>
	<node id="-508994" lat="61.1968944401" lon="5.92582777907">
		<tag k="name" v="Moaneset" />
		<tag k="natural" v="cape" />
		<tag k="ssr:stedsnr" v="639983" />
	</node>
	<node id="-508991" lat="61.1999250002" lon="5.86912499784">
		<tag k="name" v="Krokane" />
		<tag k="natural" v="cape" />
		<tag k="ssr:stedsnr" v="639949" />
	</node>
	<node id="-508990" lat="61.2086750039" lon="5.87093332886">
		<tag k="name" v="Raunevassgroa" />
		<tag k="ssr:stedsnr" v="639942" />
		<tag k="waterway" v="stream" />
	</node>
	<node id="-508988" lat="61.2097944424" lon="5.84914166326">
		<tag k="name" v="Ljotebakkelva" />
		<tag k="ssr:stedsnr" v="639890" />
		<tag k="waterway" v="stream" />
	</node>
	<node id="-508987" lat="61.2061000015" lon="5.85818888131">
		<tag k="name" v="Husedalsgroa" />
		<tag k="ssr:stedsnr" v="639888" />
		<tag k="waterway" v="stream" />
	</node>
	<node id="-508980" lat="61.0250055537" lon="5.79716387982">
		<tag k="name" v="Hestfossen" />
		<tag k="natural" v="waterfall" />
		<tag k="ssr:stedsnr" v="639616" />
	</node>
	<node id="-508976" lat="61.2454583298" lon="6.15781110442">
		<tag k="name" v="Laksefossen" />
		<tag k="natural" v="waterfall" />
		<tag k="ssr:stedsnr" v="638967" />
	</node>
	<node id="-508968" lat="61.1914083375" lon="6.02840277124">
		<tag k="name" v="Sekkjeåna" />
		<tag k="ssr:stedsnr" v="638726" />
		<tag k="waterway" v="stream" />
	</node>
	<node id="-508948" lat="61.2342444454" lon="6.04111667494">
		<tag k="name" v="Vassdalselva" />
		<tag k="ssr:stedsnr" v="638467" />
		<tag k="waterway" v="river" />
	</node>
	<node id="-508947" lat="61.1786833349" lon="5.99037778359">
		<tag k="name" v="Vellåna" />
		<tag k="ssr:stedsnr" v="638422" />
		<tag k="waterway" v="stream" />
	</node>
	<node id="-508941" lat="61.1732444483" lon="5.47347777188">
		<tag k="name" v="Storstein-neset" />
		<tag k="natural" v="cape" />
		<tag k="ssr:stedsnr" v="638190" />
	</node>
	<node id="-508940" lat="61.1697638861" lon="5.48036111443">
		<tag k="name" v="Horskeholmen" />
		<tag k="place" v="islet" />
		<tag k="ssr:stedsnr" v="638172" />
	</node>
	<node id="-508937" lat="61.1539277755" lon="5.47502222459">
		<tag k="name" v="Odegro" />
		<tag k="ssr:stedsnr" v="638115" />
		<tag k="waterway" v="stream" />
	</node>
	<node id="-508931" lat="61.121638886" lon="5.98460833637">
		<tag k="name" v="Ytste Vikeelva" />
		<tag k="ssr:stedsnr" v="637988" />
		<tag k="waterway" v="stream" />
	</node>
	<node id="-508929" lat="61.1996638911" lon="6.11261945235">
		<tag k="name" v="Tverrelva" />
		<tag k="ssr:stedsnr" v="637974" />
		<tag k="waterway" v="river" />
	</node>
	<node id="-508920" lat="61.1752222265" lon="6.08382500759">
		<tag k="name" v="Fostelelva" />
		<tag k="ssr:stedsnr" v="637863" />
		<tag k="waterway" v="stream" />
	</node>
	<node id="-508918" lat="61.1866638891" lon="6.08952221349">
		<tag k="alt_name" v="Gasjevarelvi" />
		<tag k="name" v="Gastgjevarelvi" />
		<tag k="ssr:stedsnr" v="637850" />
		<tag k="waterway" v="stream" />
	</node>
	<node id="-508896" lat="61.0636527801" lon="5.79092222391">
		<tag k="name" v="Føsundelva" />
		<tag k="ssr:stedsnr" v="637357" />
		<tag k="waterway" v="stream" />
	</node>
	<node id="-508889" lat="61.04505809" lon="5.74536775722">
		<tag k="name" v="Grøneneset" />
		<tag k="natural" v="cape" />
		<tag k="ssr:stedsnr" v="637104" />
	</node>
	<node id="-508882" lat="61.2094583292" lon="5.69780277911">
		<tag k="name" v="Byrkjosvatnet" />
		<tag k="natural" v="water" />
		<tag k="ssr:stedsnr" v="616813" />
	</node>
	<node id="-508880" lat="61.2138750031" lon="5.73241944518">
		<tag k="alt_name" v="Eide" />
		<tag k="name" v="Eidet" />
		<tag k="natural" v="strait" />
		<tag k="ssr:stedsnr" v="616753" />
	</node>
	<node id="-508877" lat="61.1758444483" lon="5.89508334044">
		<tag k="name" v="Stølselva" />
		<tag k="ssr:stedsnr" v="616469" />
		<tag k="waterway" v="stream" />
	</node>
	<node id="-508875" lat="61.2078166643" lon="5.95537221765">
		<tag k="alt_name" v="Falivatnet" />
		<tag k="name" v="Fallivatnet" />
		<tag k="natural" v="water" />
		<tag k="ssr:stedsnr" v="616412" />
	</node>
	<node id="-508873" lat="61.0914055516" lon="6.0587777828">
		<tag k="name" v="Flugedalsvatna" />
		<tag k="natural" v="water" />
		<tag k="ssr:stedsnr" v="616270" />
	</node>
	<node id="-508870" lat="61.061002776" lon="6.09242500007">
		<tag k="alt_name" v="Regndalsvatnet;Regndalsvatnet, øvre" />
		<tag k="name" v="Øvre Regndalsvatnet" />
		<tag k="natural" v="water" />
		<tag k="ssr:stedsnr" v="616240" />
	</node>
	<node id="-508857" lat="61.2371194416" lon="6.16340833653">
		<tag k="alt_name" v="Sæbotnelva" />
		<tag k="name" v="Sæbotnselva" />
		<tag k="ssr:stedsnr" v="616060" />
		<tag k="waterway" v="stream" />
	</node>
	<node id="-508856" lat="61.0367353151" lon="5.7069698348">
		<tag k="name" v="Svartevatnet" />
		<tag k="natural" v="water" />
		<tag k="ssr:stedsnr" v="616046" />
		<tag k="water" v="lake" />
	</node>
	<node id="-508855" lat="61.0437916645" lon="5.80006388903">
		<tag k="alt_name" v="Førdeelva" />
		<tag k="name" v="Fjordselva" />
		<tag k="ssr:stedsnr" v="616047" />
		<tag k="waterway" v="river" />
	</node>
	<node id="-508854" lat="61.0310483655" lon="5.6826544592">
		<tag k="name" v="Myrestølsvatnet" />
		<tag k="natural" v="water" />
		<tag k="ssr:stedsnr" v="616043" />
	</node>
	<node id="-508852" lat="61.2307833332" lon="5.74533610587">
		<tag k="name" v="Skredbotnvatnet" />
		<tag k="natural" v="water" />
		<tag k="ssr:stedsnr" v="615961" />
	</node>
	<node id="-508848" lat="61.1982444488" lon="5.83394166748">
		<tag k="alt_name" v="Hundestrekkselva" />
		<tag k="name" v="Hundestrikselva" />
		<tag k="ssr:stedsnr" v="615824" />
		<tag k="waterway" v="stream" />
	</node>
	<node id="-508846" lat="61.1878249989" lon="5.74355277115">
		<tag k="name" v="Haslelivatnet" />
		<tag k="natural" v="water" />
		<tag k="ssr:stedsnr" v="615812" />
	</node>
	<node id="-508840" lat="61.1265555541" lon="5.93204722795">
		<tag k="name" v="Strandselva" />
		<tag k="ssr:stedsnr" v="615432" />
		<tag k="waterway" v="stream" />
	</node>
	<node id="-508837" lat="61.2108083344" lon="6.12096667015">
		<tag k="name" v="Sæbotnsfossen" />
		<tag k="natural" v="waterfall" />
		<tag k="ssr:stedsnr" v="615413" />
	</node>
	<node id="-508836" lat="61.2020888886" lon="6.14827777776">
		<tag k="alt_name" v="Sjurdsvatnet, nedre" />
		<tag k="name" v="Nedre Sjurdsvatnet" />
		<tag k="natural" v="water" />
		<tag k="ssr:stedsnr" v="615410" />
	</node>
	<node id="-508834" lat="61.2029250022" lon="6.02556389662">
		<tag k="name" v="Systråna" />
		<tag k="ssr:stedsnr" v="615373" />
		<tag k="waterway" v="stream" />
	</node>
	<node id="-508058" lat="61.2504165167" lon="6.39017034986">
		<tag k="name" v="Brevatnet" />
		<tag k="natural" v="water" />
		<tag k="ssr:stedsnr" v="191293" />
		<tag k="water" v="lake" />
	</node>
	<node id="-508825" lat="61.087805557" lon="5.85551666123">
		<tag k="name" v="Kroppevatnet" />
		<tag k="natural" v="water" />
		<tag k="ssr:stedsnr" v="615259" />
	</node>
	<node id="-508816" lat="61.2373333316" lon="5.98523333663">
		<tag k="name" v="Trollebotnsvatnet" />
		<tag k="natural" v="water" />
		<tag k="ssr:stedsnr" v="615112" />
	</node>
	<node id="-508812" lat="61.2338888877" lon="5.85733333008">
		<tag k="name" v="Trollefossen" />
		<tag k="natural" v="waterfall" />
		<tag k="ssr:stedsnr" v="615091" />
	</node>
	<node id="-507372" lat="61.0964416635" lon="5.44511666871">
		<tag k="name" v="Hammartjørna" />
		<tag k="natural" v="water" />
		<tag k="ssr:stedsnr" v="395829" />
	</node>
	<node id="-508806" lat="61.0290638933" lon="5.7048277779">
		<tag k="name" v="Botnelaustjørna" />
		<tag k="natural" v="water" />
		<tag k="ssr:stedsnr" v="615006" />
	</node>
	<node id="-508805" lat="61.0270941507" lon="5.72605945136">
		<tag k="name" v="Stølsvatnet" />
		<tag k="natural" v="water" />
		<tag k="ssr:stedsnr" v="615002" />
		<tag k="water" v="lake" />
	</node>
	<node id="-508804" lat="61.2661916682" lon="6.21860554691">
		<tag k="name" v="Avlangevatnet" />
		<tag k="natural" v="water" />
		<tag k="ssr:stedsnr" v="614855" />
	</node>
	<node id="-508802" lat="61.2546277745" lon="5.936233333">
		<tag k="alt_name" v="Blåvassgroa" />
		<tag k="name" v="Blåvassgrova" />
		<tag k="ssr:stedsnr" v="614705" />
		<tag k="waterway" v="stream" />
	</node>
	<node id="-508795" lat="61.1080222212" lon="6.13043610244">
		<tag k="name" v="Ortnevikelva" />
		<tag k="ssr:stedsnr" v="587988" />
		<tag k="waterway" v="river" />
	</node>
	<node id="-509417" lat="61.2153555586" lon="5.67437777333">
		<tag k="name" v="Klubben" />
		<tag k="natural" v="cape" />
		<tag k="ssr:stedsnr" v="798720" />
	</node>
	<node id="-509416" lat="61.212388885" lon="5.75353333613">
		<tag k="alt_name" v="Rørvikvatnet" />
		<tag k="name" v="Røyrvikvatnet" />
		<tag k="natural" v="water" />
		<tag k="ssr:stedsnr" v="798710" />
		<tag k="water" v="lake" />
	</node>
	<node id="-508781" lat="61.2548777823" lon="5.88793610975">
		<tag k="name" v="Botnegroa" />
		<tag k="ssr:stedsnr" v="578908" />
		<tag k="waterway" v="stream" />
	</node>
	<node id="-508780" lat="61.2583833301" lon="5.92546388718">
		<tag k="name" v="Stølselva" />
		<tag k="ssr:stedsnr" v="578894" />
		<tag k="waterway" v="stream" />
	</node>
	<node id="-508778" lat="61.2096555567" lon="5.8194694452">
		<tag k="name" v="Ytredalselva" />
		<tag k="ssr:stedsnr" v="578852" />
		<tag k="waterway" v="river" />
	</node>
	<node id="-508774" lat="61.2214027788" lon="5.94187499176">
		<tag k="name" v="Vetleulldalselva" />
		<tag k="ssr:stedsnr" v="578698" />
		<tag k="waterway" v="river" />
	</node>
	<node id="-508763" lat="61.1762555516" lon="5.62383332505">
		<tag k="name" v="Langetjørna" />
		<tag k="natural" v="water" />
		<tag k="ssr:stedsnr" v="578002" />
	</node>
	<node id="-508761" lat="61.1510222246" lon="5.43903054718">
		<tag k="name" v="Flateholmen" />
		<tag k="place" v="islet" />
		<tag k="ssr:stedsnr" v="577985" />
	</node>
	<node id="-508758" lat="61.1500694422" lon="5.44668056464">
		<tag k="name" v="Kjølen" />
		<tag k="natural" v="cape" />
		<tag k="ssr:stedsnr" v="577970" />
	</node>
	<node id="-508747" lat="61.1931222232" lon="5.78952500636">
		<tag k="name" v="Svagroa" />
		<tag k="ssr:stedsnr" v="577720" />
		<tag k="waterway" v="stream" />
	</node>
	<node id="-508706" lat="61.0918111082" lon="5.87551389428">
		<tag k="name" v="Kyrkjestoda" />
		<tag k="natural" v="beach" />
		<tag k="ssr:stedsnr" v="576276" />
	</node>
	<node id="-508700" lat="61.1689805596" lon="5.65292499191">
		<tag k="name" v="Holmetjørnane" />
		<tag k="natural" v="water" />
		<tag k="ssr:stedsnr" v="555844" />
	</node>
	<node id="-508693" lat="61.1870999984" lon="5.7676250089">
		<tag k="name" v="Storetjørna" />
		<tag k="natural" v="water" />
		<tag k="ssr:stedsnr" v="555810" />
	</node>
	<node id="-508691" lat="61.2081999989" lon="5.65337499813">
		<tag k="alt_name" v="Helleskartjørna" />
		<tag k="name" v="Helleskardtjørna" />
		<tag k="natural" v="water" />
		<tag k="ssr:stedsnr" v="555794" />
	</node>
	<node id="-508690" lat="61.2107861131" lon="5.71912499242">
		<tag k="name" v="Raudesanden" />
		<tag k="natural" v="water" />
		<tag k="ssr:stedsnr" v="555779" />
	</node>
	<node id="-508683" lat="61.1942083299" lon="5.45770834221">
		<tag k="name" v="Osdalstjørnane" />
		<tag k="natural" v="water" />
		<tag k="ssr:stedsnr" v="555682" />
	</node>
	<node id="-508682" lat="61.1480527802" lon="5.46539723016">
		<tag k="name" v="Bogsvatnet" />
		<tag k="natural" v="water" />
		<tag k="ssr:stedsnr" v="555475" />
		<tag k="water" v="lake" />
	</node>
	<node id="-508672" lat="61.2118805527" lon="5.94789999738">
		<tag k="name" v="Storeholmen" />
		<tag k="place" v="islet" />
		<tag k="ssr:stedsnr" v="555365" />
	</node>
	<node id="-508669" lat="61.20293333" lon="6.05124444458">
		<tag k="name" v="Føykja" />
		<tag k="ssr:stedsnr" v="555351" />
		<tag k="waterway" v="stream" />
	</node>
	<node id="-508667" lat="61.182350002" lon="5.85426388299">
		<tag k="name" v="Lomtjørna" />
		<tag k="natural" v="water" />
		<tag k="ssr:stedsnr" v="555345" />
	</node>
	<node id="-508666" lat="61.2000083345" lon="5.98902777978">
		<tag k="name" v="Vardavatna" />
		<tag k="natural" v="water" />
		<tag k="ssr:stedsnr" v="555343" />
	</node>
	<node id="-508664" lat="61.0131111133" lon="5.86396945162">
		<tag k="name" v="Systrene" />
		<tag k="ssr:stedsnr" v="555308" />
		<tag k="waterway" v="stream" />
	</node>
	<node id="-508659" lat="61.0981250013" lon="6.10861666974">
		<tag k="alt_name" v="Litleelva" />
		<tag k="name" v="Veslelva" />
		<tag k="ssr:stedsnr" v="555230" />
		<tag k="waterway" v="river" />
	</node>
	<node id="-508654" lat="61.0476416679" lon="6.0043361073">
		<tag k="name" v="Storevatnet" />
		<tag k="natural" v="water" />
		<tag k="ssr:stedsnr" v="555211" />
	</node>
	<node id="-508651" lat="61.0936888879" lon="5.7895083282">
		<tag k="name" v="Lomtjørna" />
		<tag k="natural" v="water" />
		<tag k="ssr:stedsnr" v="555199" />
	</node>
	<node id="-508646" lat="61.073647219" lon="5.84364166597">
		<tag k="name" v="Storefossen" />
		<tag k="natural" v="waterfall" />
		<tag k="ssr:stedsnr" v="555155" />
	</node>
	<node id="-508641" lat="61.242177777" lon="6.02399722243">
		<tag k="name" v="Myrketjørna" />
		<tag k="natural" v="water" />
		<tag k="ssr:stedsnr" v="555094" />
	</node>
	<node id="-508637" lat="61.2151861146" lon="5.8626277773">
		<tag k="name" v="Husedalsvatnet" />
		<tag k="natural" v="water" />
		<tag k="ssr:stedsnr" v="555075" />
	</node>
	<node id="-508636" lat="61.2066277822" lon="5.85390833862">
		<tag k="name" v="Storefossen" />
		<tag k="natural" v="waterfall" />
		<tag k="ssr:stedsnr" v="555076" />
	</node>
	<node id="-508635" lat="61.2298055536" lon="6.20478611338">
		<tag k="name" v="Eitrelva" />
		<tag k="ssr:stedsnr" v="555070" />
		<tag k="waterway" v="stream" />
	</node>
	<node id="-508634" lat="61.2245611097" lon="6.20059444622">
		<tag k="name" v="Eitreskardvatnet" />
		<tag k="natural" v="water" />
		<tag k="ssr:stedsnr" v="555069" />
	</node>
	<node id="-508629" lat="61.0322138925" lon="5.82877500276">
		<tag k="name" v="Tverrfjelltjørna" />
		<tag k="natural" v="water" />
		<tag k="ssr:stedsnr" v="555002" />
	</node>
	<node id="-508624" lat="61.2413872942" lon="6.28372234126">
		<tag k="alt_name" v="Gryvlebotnvatnet, nedre" />
		<tag k="name" v="Nedre Gryvlebotnvatnet" />
		<tag k="natural" v="water" />
		<tag k="ssr:stedsnr" v="554349" />
		<tag k="water" v="lake" />
	</node>
	<node id="-508602" lat="61.0139055538" lon="5.78418055224">
		<tag k="name" v="Fridalselva" />
		<tag k="ssr:stedsnr" v="518583" />
		<tag k="waterway" v="river" />
	</node>
	<node id="-508600" lat="61.2346888888" lon="5.81766111538">
		<tag k="name" v="Storeskreelva" />
		<tag k="ssr:stedsnr" v="518549" />
		<tag k="waterway" v="stream" />
	</node>
	<node id="-508592" lat="61.1502138921" lon="5.4404194477">
		<tag k="name" v="Jordfasteholmen" />
		<tag k="place" v="islet" />
		<tag k="ssr:stedsnr" v="517771" />
	</node>
	<node id="-508587" lat="61.2116166666" lon="5.76702221427">
		<tag k="name" v="Vika" />
		<tag k="natural" v="bay" />
		<tag k="ssr:stedsnr" v="517719" />
	</node>
	<node id="-508563" lat="61.1739555561" lon="6.03830555589">
		<tag k="name" v="Hamneelva" />
		<tag k="ssr:stedsnr" v="517232" />
		<tag k="waterway" v="stream" />
	</node>
	<node id="-508561" lat="61.1812194484" lon="5.99337221328">
		<tag k="name" v="Ytrebergselva" />
		<tag k="ssr:stedsnr" v="517225" />
		<tag k="waterway" v="stream" />
	</node>
	<node id="-508552" lat="61.0410027739" lon="5.79295555397">
		<tag k="name" v="Tverrelva" />
		<tag k="ssr:stedsnr" v="516912" />
		<tag k="waterway" v="stream" />
	</node>
	<node id="-508351" lat="61.1714750016" lon="5.50082499815">
		<tag k="name" v="Stroketjørna" />
		<tag k="natural" v="water" />
		<tag k="ssr:stedsnr" v="434778" />
	</node>
	<node id="-508536" lat="61.0995583319" lon="5.87760832514">
		<tag k="name" v="Sandvika" />
		<tag k="natural" v="bay" />
		<tag k="ssr:stedsnr" v="516283" />
	</node>
	<node id="-508534" lat="61.0508944488" lon="5.66354722388">
		<tag k="name" v="Blomkråa" />
		<tag k="ssr:stedsnr" v="516033" />
		<tag k="waterway" v="stream" />
	</node>
	<node id="-508530" lat="61.2057361133" lon="5.68375555352">
		<tag k="alt_name" v="Mårevikane" />
		<tag k="name" v="Mårvikane" />
		<tag k="natural" v="bay" />
		<tag k="ssr:stedsnr" v="495817" />
	</node>
	<node id="-508528" lat="61.1941694422" lon="5.5169611196">
		<tag k="name" v="Ivartjørna" />
		<tag k="natural" v="water" />
		<tag k="ssr:stedsnr" v="495807" />
	</node>
	<node id="-506984" lat="61.1555611126" lon="6.06905556261">
		<tag k="name" v="Mårelva" />
		<tag k="ssr:stedsnr" v="273858" />
		<tag k="waterway" v="river" />
	</node>
	<node id="-508521" lat="61.0226666189" lon="5.89591155165">
		<tag k="name" v="Øystrebotnvatnet" />
		<tag k="natural" v="water" />
		<tag k="ssr:stedsnr" v="495360" />
		<tag k="water" v="lake" />
	</node>
	<node id="-508514" lat="61.1365444466" lon="5.54056666225">
		<tag k="name" v="Bossdalstjørna" />
		<tag k="natural" v="water" />
		<tag k="ssr:stedsnr" v="495200" />
	</node>
	<node id="-508511" lat="61.0422861074" lon="5.73011666925">
		<tag k="name" v="Svartetjørna" />
		<tag k="natural" v="water" />
		<tag k="ssr:stedsnr" v="495075" />
	</node>
	<node id="-508507" lat="61.230375003" lon="5.73393333041">
		<tag k="name" v="Kvanngrødtjørna" />
		<tag k="natural" v="water" />
		<tag k="ssr:stedsnr" v="494981" />
	</node>
	<node id="-508506" lat="61.1689138915" lon="5.66040833706">
		<tag k="name" v="Dyttingane" />
		<tag k="natural" v="water" />
		<tag k="ssr:stedsnr" v="494861" />
	</node>
	<node id="-508504" lat="61.1937499983" lon="5.7907527826">
		<tag k="name" v="Bugelva" />
		<tag k="ssr:stedsnr" v="494816" />
		<tag k="waterway" v="river" />
	</node>
	<node id="-508503" lat="61.1787361097" lon="5.70293611081">
		<tag k="alt_name" v="Bjørkedalsvatnet" />
		<tag k="name" v="Byrkjedalsvatnet" />
		<tag k="natural" v="water" />
		<tag k="ssr:stedsnr" v="494795" />
	</node>
	<node id="-508492" lat="61.206188889" lon="5.94731666434">
		<tag k="name" v="Fallineset" />
		<tag k="natural" v="cape" />
		<tag k="ssr:stedsnr" v="494411" />
	</node>
	<node id="-508490" lat="61.2051277811" lon="5.9804944462">
		<tag k="name" v="Veslebergsvatnet" />
		<tag k="natural" v="water" />
		<tag k="ssr:stedsnr" v="494394" />
	</node>
	<node id="-508487" lat="61.1913250019" lon="6.01766666514">
		<tag k="alt_name" v="Stølselva" />
		<tag k="name" v="Gildråna" />
		<tag k="ssr:stedsnr" v="494371" />
		<tag k="waterway" v="stream" />
	</node>
	<node id="-508481" lat="61.1883388911" lon="5.9964333375">
		<tag k="name" v="Storelva" />
		<tag k="ssr:stedsnr" v="494349" />
		<tag k="waterway" v="stream" />
	</node>
	<node id="-508479" lat="61.0278249971" lon="6.07115000463">
		<tag k="name" v="Storefonnosen" />
		<tag k="natural" v="bay" />
		<tag k="ssr:stedsnr" v="494331" />
	</node>
	<node id="-508470" lat="61.1006999963" lon="5.76052500675">
		<tag k="name" v="Midtneselva" />
		<tag k="ssr:stedsnr" v="494207" />
		<tag k="waterway" v="stream" />
	</node>
	<node id="-508464" lat="61.2193138907" lon="5.89426666429">
		<tag k="name" v="Krekjavatna" />
		<tag k="natural" v="water" />
		<tag k="ssr:stedsnr" v="494092" />
	</node>
	<node id="-508463" lat="61.2299083342" lon="5.9433944443">
		<tag k="name" v="Geitevatnet" />
		<tag k="natural" v="water" />
		<tag k="ssr:stedsnr" v="494077" />
	</node>
	<node id="-508462" lat="61.2390527809" lon="6.11961110545">
		<tag k="alt_name" v="Grøvla" />
		<tag k="name" v="Gryvla" />
		<tag k="ssr:stedsnr" v="494071" />
		<tag k="waterway" v="stream" />
	</node>
	<node id="-508460" lat="61.0523861097" lon="5.83758055284">
		<tag k="alt_name" v="Gjelråelva" />
		<tag k="name" v="Gildråna" />
		<tag k="ssr:stedsnr" v="494045" />
		<tag k="waterway" v="stream" />
	</node>
	<node id="-508458" lat="61.0156777759" lon="5.74831666383">
		<tag k="name" v="Kyrebotnvatnet" />
		<tag k="natural" v="water" />
		<tag k="ssr:stedsnr" v="494034" />
	</node>
	<node id="-508456" lat="61.0023638858" lon="5.6005694416">
		<tag k="name" v="Inngardsvatnet" />
		<tag k="natural" v="water" />
		<tag k="ssr:stedsnr" v="494028" />
	</node>
	<node id="-508454" lat="61.2816972248" lon="6.24405555551">
		<tag k="name" v="Steinbotnvatnet" />
		<tag k="natural" v="water" />
		<tag k="ssr:stedsnr" v="493795" />
	</node>
	<node id="-508453" lat="61.2688222193" lon="6.33476110925">
		<tag k="name" v="Gautingsdalsvatna" />
		<tag k="natural" v="water" />
		<tag k="ssr:stedsnr" v="493786" />
		<tag k="water" v="lake" />
	</node>
	<node id="-508451" lat="60.9971416686" lon="5.68484167164">
		<tag k="name" v="Osevatnet" />
		<tag k="natural" v="water" />
		<tag k="ssr:stedsnr" v="493753" />
	</node>
	<node id="-506971" lat="61.1091250007" lon="5.8151861072">
		<tag k="name" v="Årdalselva" />
		<tag k="ssr:stedsnr" v="273276" />
		<tag k="waterway" v="stream" />
	</node>
	<node id="-508447" lat="61.2256694457" lon="5.69229999693">
		<tag k="name" v="Storefosstjørna" />
		<tag k="natural" v="water" />
		<tag k="ssr:stedsnr" v="493500" />
	</node>
	<node id="-508438" lat="60.9700361069" lon="5.71627778007">
		<tag k="alt_name" v="Blyvatnet" />
		<tag k="name" v="Blyfjellvatnet" />
		<tag k="natural" v="water" />
		<tag k="ssr:stedsnr" v="493288" />
	</node>
	<node id="-508432" lat="61.2693638893" lon="6.06249444243">
		<tag k="name" v="Tjørnane" />
		<tag k="natural" v="water" />
		<tag k="ssr:stedsnr" v="493570" />
	</node>
	<node id="-508431" lat="61.2667305549" lon="6.04223333013">
		<tag k="name" v="Flugevatnet" />
		<tag k="natural" v="water" />
		<tag k="ssr:stedsnr" v="493569" />
	</node>
	<node id="-508430" lat="61.2584972222" lon="6.18392222372">
		<tag k="name" v="Vassoselva" />
		<tag k="ssr:stedsnr" v="493566" />
		<tag k="waterway" v="stream" />
	</node>
	<node id="-508423" lat="61.1726999959" lon="5.91591111399">
		<tag k="name" v="Tverrelvane" />
		<tag k="ssr:stedsnr" v="457964" />
		<tag k="waterway" v="stream" />
	</node>
	<node id="-508422" lat="61.1807555556" lon="5.92262221557">
		<tag k="name" v="Langryggstjørna" />
		<tag k="natural" v="water" />
		<tag k="ssr:stedsnr" v="457945" />
	</node>
	<node id="-508420" lat="61.2447666687" lon="5.89668610948">
		<tag k="name" v="Stølselva" />
		<tag k="ssr:stedsnr" v="457929" />
		<tag k="waterway" v="stream" />
	</node>
	<node id="-508391" lat="61.1952666672" lon="5.77518610968">
		<tag k="name" v="Storegroa" />
		<tag k="ssr:stedsnr" v="456690" />
		<tag k="waterway" v="stream" />
	</node>
	<node id="-508390" lat="61.0860111067" lon="5.64987499821">
		<tag k="name" v="Lomtjørna" />
		<tag k="natural" v="water" />
		<tag k="ssr:stedsnr" v="456670" />
	</node>
	<node id="-508388" lat="61.1763333351" lon="5.54322777565">
		<tag k="name" v="Dyttingen" />
		<tag k="ssr:stedsnr" v="456660" />
		<tag k="waterway" v="rapids" />
	</node>
	<node id="-508384" lat="61.1780333319" lon="5.79714165878">
		<tag k="name" v="Saugardelva" />
		<tag k="ssr:stedsnr" v="456540" />
		<tag k="waterway" v="stream" />
	</node>
	<node id="-508361" lat="61.0387166656" lon="5.88943333165">
		<tag k="name" v="Fremstevika" />
		<tag k="natural" v="bay" />
		<tag k="ssr:stedsnr" v="455350" />
	</node>
	<node id="-508360" lat="61.0428638902" lon="5.88615278177">
		<tag k="name" v="Kyreneset" />
		<tag k="natural" v="cape" />
		<tag k="ssr:stedsnr" v="455345" />
	</node>
	<node id="-508359" lat="61.0931666698" lon="5.81703334149">
		<tag k="name" v="Storelva" />
		<tag k="ssr:stedsnr" v="455285" />
		<tag k="waterway" v="stream" />
	</node>
	<node id="-508354" lat="61.1807944486" lon="5.54138889142">
		<tag k="name" v="Øyra" />
		<tag k="natural" v="bay" />
		<tag k="ssr:stedsnr" v="434797" />
	</node>
	<node id="-507296" lat="61.1029777797" lon="5.44291665774">
		<tag k="alt_name" v="Øykjestivatnet" />
		<tag k="name" v="Øykestigvatnet" />
		<tag k="natural" v="water" />
		<tag k="ssr:stedsnr" v="373587" />
	</node>
	<node id="-508344" lat="61.1954555582" lon="5.5291861182">
		<tag k="name" v="Pussene" />
		<tag k="place" v="locality" />
		<tag k="ssr:stedsnr" v="434752" />
	</node>
	<node id="-508339" lat="61.1721499964" lon="5.63853888229">
		<tag k="alt_name" v="Brensttjørna" />
		<tag k="name" v="Brennsettjørna" />
		<tag k="natural" v="water" />
		<tag k="ssr:stedsnr" v="434833" />
	</node>
	<node id="-508333" lat="61.1805361095" lon="6.14520000785">
		<tag k="name" v="Gråbotnelvi" />
		<tag k="ssr:stedsnr" v="434459" />
		<tag k="waterway" v="stream" />
	</node>
	<node id="-508332" lat="61.1767972192" lon="5.87121111945">
		<tag k="name" v="Blombotnelva" />
		<tag k="ssr:stedsnr" v="434449" />
		<tag k="waterway" v="stream" />
	</node>
	<node id="-508315" lat="61.0585555531" lon="6.13543056379">
		<tag k="alt_name" v="Kvanndalsvatnet, heimste" />
		<tag k="name" v="Heimste Kvanndalsvatnet" />
		<tag k="natural" v="water" />
		<tag k="ssr:stedsnr" v="434327" />
	</node>
	<node id="-508314" lat="61.1092583342" lon="5.97945556042">
		<tag k="name" v="Brekkeelva" />
		<tag k="ssr:stedsnr" v="434262" />
		<tag k="waterway" v="stream" />
	</node>
	<node id="-508312" lat="61.0922166629" lon="6.11772778032">
		<tag k="name" v="Tverrelvane" />
		<tag k="ssr:stedsnr" v="434248" />
		<tag k="waterway" v="stream" />
	</node>
	<node id="-508310" lat="61.0919303722" lon="6.13919063326">
		<tag k="name" v="Vassdalsvatnet" />
		<tag k="natural" v="water" />
		<tag k="ssr:stedsnr" v="434244" />
		<tag k="water" v="lake" />
	</node>
	<node id="-508299" lat="61.240916664" lon="6.12659999553">
		<tag k="alt_name" v="Vårstølelva" />
		<tag k="name" v="Vårstølgrova" />
		<tag k="ssr:stedsnr" v="434105" />
		<tag k="waterway" v="stream" />
	</node>
	<node id="-508298" lat="61.2383611157" lon="5.92182222984">
		<tag k="name" v="Kvanngrødvatnet" />
		<tag k="natural" v="water" />
		<tag k="ssr:stedsnr" v="434090" />
	</node>
	<node id="-508296" lat="61.2369083309" lon="5.85039722133">
		<tag k="name" v="Tangetjørna" />
		<tag k="natural" v="water" />
		<tag k="ssr:stedsnr" v="434085" />
	</node>
	<node id="-508289" lat="61.2218027779" lon="5.86781944133">
		<tag k="name" v="Kvanngrødvatna" />
		<tag k="natural" v="water" />
		<tag k="ssr:stedsnr" v="434051" />
	</node>
	<node id="-508286" lat="61.0500111126" lon="5.62889999283">
		<tag k="alt_name" v="Alskortjørnane" />
		<tag k="name" v="Allskortjørnane" />
		<tag k="natural" v="water" />
		<tag k="ssr:stedsnr" v="434023" />
	</node>
	<node id="-508284" lat="61.0163027799" lon="5.76189999185">
		<tag k="name" v="Blåfjellvatnet" />
		<tag k="natural" v="water" />
		<tag k="ssr:stedsnr" v="434015" />
		<tag k="water" v="lake" />
	</node>
	<node id="-508281" lat="61.2561768506" lon="5.98377032262">
		<tag k="name" v="Monsdalsvatnet" />
		<tag k="natural" v="water" />
		<tag k="ssr:stedsnr" v="433489" />
		<tag k="water" v="lake" />
	</node>
	<node id="-508280" lat="61.2528833315" lon="6.07082500294">
		<tag k="name" v="Skåbakkevatnet" />
		<tag k="natural" v="water" />
		<tag k="ssr:stedsnr" v="433490" />
	</node>
	<node id="-508279" lat="60.9742888934" lon="5.72008055463">
		<tag k="name" v="Krokevasselva" />
		<tag k="ssr:stedsnr" v="433279" />
		<tag k="waterway" v="stream" />
	</node>
	<node id="-508278" lat="60.999149997" lon="5.90094722057">
		<tag k="name" v="Fridalsvatna" />
		<tag k="natural" v="water" />
		<tag k="ssr:stedsnr" v="433005" />
	</node>
	<node id="-508274" lat="61.2856000027" lon="5.98541667376">
		<tag k="name" v="Langevatnet" />
		<tag k="natural" v="water" />
		<tag k="ssr:stedsnr" v="432576" />
	</node>
	<node id="-508273" lat="61.2725083291" lon="6.07285555024">
		<tag k="name" v="Vevringtjørna" />
		<tag k="natural" v="water" />
		<tag k="ssr:stedsnr" v="432553" />
	</node>
	<node id="-508271" lat="61.2608499993" lon="6.01773055637">
		<tag k="name" v="Stølsvatnet" />
		<tag k="natural" v="water" />
		<tag k="ssr:stedsnr" v="432543" />
	</node>
	<node id="-508261" lat="61.175558332" lon="5.48669166579">
		<tag k="name" v="Nordstrandsvatnet" />
		<tag k="natural" v="water" />
		<tag k="ssr:stedsnr" v="252802" />
		<tag k="water" v="lake" />
	</node>
	<node id="-508259" lat="61.2034527771" lon="5.75115833502">
		<tag k="name" v="Markaula" />
		<tag k="ssr:stedsnr" v="252779" />
		<tag k="waterway" v="stream" />
	</node>
	<node id="-508251" lat="61.1683583293" lon="5.89537499255">
		<tag k="alt_name" v="Ljotåa" />
		<tag k="name" v="Ljotebøelvi" />
		<tag k="ssr:stedsnr" v="252432" />
		<tag k="waterway" v="stream" />
	</node>
	<node id="-508247" lat="61.2194916628" lon="6.00961665879">
		<tag k="name" v="Bergsvatnet" />
		<tag k="natural" v="water" />
		<tag k="ssr:stedsnr" v="252388" />
		<tag k="water" v="lake" />
	</node>
	<node id="-508244" lat="61.1880416643" lon="5.92081666033">
		<tag k="alt_name" v="Vetlevatnet" />
		<tag k="name" v="Veslevatnet" />
		<tag k="natural" v="water" />
		<tag k="ssr:stedsnr" v="252361" />
	</node>
	<node id="-508242" lat="61.0191694433" lon="5.85794444666">
		<tag k="name" v="Dyrstigtjørna" />
		<tag k="natural" v="water" />
		<tag k="ssr:stedsnr" v="252336" />
	</node>
	<node id="-508237" lat="61.0662972261" lon="6.06876388532">
		<tag k="name" v="Tuledalsvatnet" />
		<tag k="natural" v="water" />
		<tag k="ssr:stedsnr" v="252247" />
	</node>
	<node id="-508235" lat="61.0630527796" lon="5.9404388868">
		<tag k="name" v="Nykkefossen" />
		<tag k="natural" v="waterfall" />
		<tag k="ssr:stedsnr" v="252242" />
	</node>
	<node id="-508234" lat="61.0713594711" lon="6.13379543965">
		<tag k="name" v="Furedalsvatnet" />
		<tag k="natural" v="water" />
		<tag k="ssr:stedsnr" v="252238" />
		<tag k="water" v="lake" />
	</node>
	<node id="-509665" lat="61.1672388905" lon="5.51682500783">
		<tag k="name" v="Katteneset" />
		<tag k="natural" v="cape" />
		<tag k="ssr:stedsnr" v="881687" />
	</node>
	<node id="-508228" lat="61.0708111087" lon="5.84307222077">
		<tag k="alt_name" v="Vetlefossen" />
		<tag k="name" v="Veslefossen" />
		<tag k="natural" v="waterfall" />
		<tag k="ssr:stedsnr" v="252172" />
	</node>
	<node id="-508220" lat="61.2503631275" lon="5.95543927717">
		<tag k="name" v="Blåvatnet" />
		<tag k="natural" v="water" />
		<tag k="ssr:stedsnr" v="252089" />
		<tag k="water" v="lake" />
	</node>
	<node id="-508218" lat="61.2196944477" lon="6.03841944898">
		<tag k="name" v="Grimsosen" />
		<tag k="natural" v="bay" />
		<tag k="ssr:stedsnr" v="252080" />
	</node>
	<node id="-508215" lat="61.0402376707" lon="5.68549537562">
		<tag k="name" v="Holedalsvatnet" />
		<tag k="natural" v="water" />
		<tag k="ssr:stedsnr" v="252053" />
	</node>
	<node id="-508198" lat="61.0667138876" lon="5.84492777706">
		<tag k="name" v="Daurmålelva" />
		<tag k="ssr:stedsnr" v="251052" />
		<tag k="waterway" v="stream" />
	</node>
	<node id="-508155" lat="61.2434277822" lon="5.85544166156">
		<tag k="name" v="Spjotelielva" />
		<tag k="ssr:stedsnr" v="214585" />
		<tag k="waterway" v="stream" />
	</node>
	<node id="-508151" lat="61.0948222233" lon="5.73609165811">
		<tag k="name" v="Indreelva" />
		<tag k="ssr:stedsnr" v="214513" />
		<tag k="waterway" v="river" />
	</node>
	<node id="-508145" lat="61.175338888" lon="5.47262222416">
		<tag k="name" v="Vetleneset" />
		<tag k="natural" v="cape" />
		<tag k="ssr:stedsnr" v="214183" />
	</node>
	<node id="-508144" lat="61.1704638861" lon="5.47213611485">
		<tag k="name" v="Storevika" />
		<tag k="natural" v="bay" />
		<tag k="ssr:stedsnr" v="214173" />
	</node>
	<node id="-508140" lat="61.110522219" lon="6.02751666126">
		<tag k="name" v="Nesgroa" />
		<tag k="ssr:stedsnr" v="213991" />
		<tag k="waterway" v="stream" />
	</node>
	<node id="-508134" lat="61.1954111139" lon="6.0781777772">
		<tag k="name" v="Bjørkeneselva" />
		<tag k="ssr:stedsnr" v="213926" />
		<tag k="waterway" v="stream" />
	</node>
	<node id="-508129" lat="61.1180944414" lon="6.16450832452">
		<tag k="name" v="Spjøra" />
		<tag k="ssr:stedsnr" v="213875" />
		<tag k="waterway" v="stream" />
	</node>
	<node id="-508127" lat="61.1285805562" lon="5.93055276972">
		<tag k="name" v="Svartefossen" />
		<tag k="natural" v="waterfall" />
		<tag k="ssr:stedsnr" v="213824" />
	</node>
	<node id="-508126" lat="61.1671472251" lon="5.92443889343">
		<tag k="name" v="Ramslielva" />
		<tag k="ssr:stedsnr" v="213773" />
		<tag k="waterway" v="river" />
	</node>
	<node id="-508118" lat="61.1626805602" lon="5.51710556279">
		<tag k="name" v="Storholmen" />
		<tag k="place" v="islet" />
		<tag k="ssr:stedsnr" v="213542" />
	</node>
	<node id="-508105" lat="61.0903499967" lon="5.87530555411">
		<tag k="name" v="Klovhammaren" />
		<tag k="natural" v="cape" />
		<tag k="ssr:stedsnr" v="213293" />
	</node>
	<node id="-508097" lat="61.1149444422" lon="6.00760278316">
		<tag k="name" v="Dyrdalselva" />
		<tag k="ssr:stedsnr" v="213055" />
		<tag k="waterway" v="river" />
	</node>
	<node id="-508092" lat="60.9939527794" lon="6.12954444354">
		<tag k="fixme" v="multiple name tags, choose one and add the other to alt_name" />
		<tag k="name" v="Solrenningsvatnet;Vøvringevatnet" />
		<tag k="natural" v="water" />
		<tag k="ssr:stedsnr" v="205001" />
		<tag k="water" v="lake" />
	</node>
	<node id="-508090" lat="61.2369694454" lon="5.77443332489">
		<tag k="alt_name" v="Stordalsvatnet" />
		<tag k="name" v="Storedalsvatnet" />
		<tag k="natural" v="water" />
		<tag k="ssr:stedsnr" v="191966" />
	</node>
	<node id="-508078" lat="61.2088361111" lon="5.70880000233">
		<tag k="name" v="Symjingane" />
		<tag k="natural" v="bay" />
		<tag k="ssr:stedsnr" v="191762" />
	</node>
	<node id="-508077" lat="61.1956500044" lon="5.67025555048">
		<tag k="name" v="Sandavatnet" />
		<tag k="natural" v="water" />
		<tag k="ssr:stedsnr" v="191742" />
		<tag k="water" v="lake" />
	</node>
	<node id="-508076" lat="61.2241999962" lon="5.76109445007">
		<tag k="name" v="Fjellsendevatnet" />
		<tag k="natural" v="water" />
		<tag k="ssr:stedsnr" v="191737" />
	</node>
	<node id="-508067" lat="61.204147219" lon="5.94324999713">
		<tag k="name" v="Storevatnet" />
		<tag k="natural" v="water" />
		<tag k="ssr:stedsnr" v="191393" />
		<tag k="water" v="lake" />
	</node>
	<node id="-508066" lat="61.2080750013" lon="5.99594999624">
		<tag k="name" v="Storebergsvatnet" />
		<tag k="natural" v="water" />
		<tag k="ssr:stedsnr" v="191391" />
	</node>
	<node id="-508062" lat="61.054274997" lon="5.99961388381">
		<tag k="name" v="Strupefossvatnet" />
		<tag k="natural" v="water" />
		<tag k="ssr:stedsnr" v="191337" />
	</node>
	<node id="-507449" lat="61.1584666694" lon="6.13254721678">
		<tag k="name" v="Eitrenesfossen" />
		<tag k="natural" v="waterfall" />
		<tag k="ssr:stedsnr" v="882938" />
	</node>
	<node id="-508054" lat="61.0810944442" lon="5.92656388117">
		<tag k="name" v="Rustelvane" />
		<tag k="ssr:stedsnr" v="191246" />
		<tag k="waterway" v="stream" />
	</node>
	<node id="-508050" lat="61.0514527816" lon="5.8892555625">
		<tag k="name" v="Ristjørna" />
		<tag k="natural" v="water" />
		<tag k="ssr:stedsnr" v="191220" />
	</node>
	<node id="-508049" lat="61.0690224386" lon="6.16715361579">
		<tag k="name" v="Svartevatnet" />
		<tag k="natural" v="water" />
		<tag k="ssr:stedsnr" v="191221" />
		<tag k="water" v="lake" />
	</node>
	<node id="-508043" lat="61.1361666628" lon="5.48588611362">
		<tag k="alt_name" v="Mylsdalstjørna" />
		<tag k="name" v="Mølmesdalstjørna" />
		<tag k="natural" v="water" />
		<tag k="ssr:stedsnr" v="191148" />
	</node>
	<node id="-508036" lat="61.1358583297" lon="5.56404166813">
		<tag k="alt_name" v="Berstjørna" />
		<tag k="name" v="Bergstjørna" />
		<tag k="natural" v="water" />
		<tag k="ssr:stedsnr" v="191097" />
	</node>
	<node id="-508027" lat="61.0161999958" lon="5.8327083294">
		<tag k="name" v="Årsdalsvatnet" />
		<tag k="natural" v="water" />
		<tag k="ssr:stedsnr" v="191022" />
		<tag k="water" v="lake" />
	</node>
	<node id="-508025" lat="61.2806305558" lon="5.97064165892">
		<tag k="name" v="Solliøyrane" />
		<tag k="natural" v="water" />
		<tag k="ssr:stedsnr" v="190600" />
	</node>
	<node id="-508022" lat="61.2816749967" lon="6.03420000113">
		<tag k="name" v="Årteigvatnet" />
		<tag k="natural" v="water" />
		<tag k="ssr:stedsnr" v="190587" />
	</node>
	<node id="-508019" lat="61.2086555521" lon="5.67854999788">
		<tag k="name" v="Langeneset" />
		<tag k="natural" v="cape" />
		<tag k="ssr:stedsnr" v="190515" />
	</node>
	<node id="-508018" lat="60.9896666659" lon="5.67178332984">
		<tag k="name" v="Høgetjørnane" />
		<tag k="natural" v="water" />
		<tag k="ssr:stedsnr" v="190310" />
	</node>
	<node id="-507240" lat="61.0179694445" lon="5.64998610407">
		<tag k="name" v="Hornsetvatnet" />
		<tag k="natural" v="water" />
		<tag k="ssr:stedsnr" v="373014" />
	</node>
	<node id="-508005" lat="61.2512388919" lon="5.87621944726">
		<tag k="name" v="Markesetfossen" />
		<tag k="natural" v="waterfall" />
		<tag k="ssr:stedsnr" v="153945" />
	</node>
	<node id="-507996" lat="61.2484583345" lon="6.15351111512">
		<tag k="name" v="Svatelbakkgrova" />
		<tag k="ssr:stedsnr" v="153794" />
		<tag k="waterway" v="stream" />
	</node>
	<node id="-507995" lat="61.2194861076" lon="5.74579167033">
		<tag k="name" v="Rørvikelva" />
		<tag k="ssr:stedsnr" v="153753" />
		<tag k="waterway" v="river" />
	</node>
	<node id="-507994" lat="61.2116749993" lon="5.93877500866">
		<tag k="name" v="Salskarelva" />
		<tag k="ssr:stedsnr" v="153744" />
		<tag k="waterway" v="stream" />
	</node>
	<node id="-507988" lat="61.2075305565" lon="5.76054999168">
		<tag k="name" v="Vassenden" />
		<tag k="natural" v="cape" />
		<tag k="ssr:stedsnr" v="153568" />
	</node>
	<node id="-507576" lat="61.0408750008" lon="5.88408888594">
		<tag k="name" v="Vass-stranda" />
		<tag k="natural" v="beach" />
		<tag k="ssr:stedsnr" v="31252" />
	</node>
	<node id="-507978" lat="61.1134138934" lon="5.54316944793">
		<tag k="name" v="Ringreielva" />
		<tag k="ssr:stedsnr" v="153250" />
		<tag k="waterway" v="river" />
	</node>
	<node id="-507972" lat="61.0736805513" lon="6.13185833629">
		<tag k="name" v="Seltuftene" />
		<tag k="natural" v="beach" />
		<tag k="ssr:stedsnr" v="153152" />
	</node>
	<node id="-507967" lat="61.1178388893" lon="5.98742221951">
		<tag k="name" v="Inste Vikeelva" />
		<tag k="ssr:stedsnr" v="152979" />
		<tag k="waterway" v="stream" />
	</node>
	<node id="-507965" lat="61.1972027823" lon="6.12021667154">
		<tag k="name" v="Kvanndalselva" />
		<tag k="ssr:stedsnr" v="152958" />
		<tag k="waterway" v="river" />
	</node>
	<node id="-507958" lat="61.193999997" lon="6.09400277585">
		<tag k="name" v="Fremste Gasteskargroi" />
		<tag k="ssr:stedsnr" v="152922" />
		<tag k="waterway" v="stream" />
	</node>
	<node id="-507939" lat="61.0508388923" lon="5.84037222079">
		<tag k="name" v="Gjelrånfossen" />
		<tag k="natural" v="waterfall" />
		<tag k="ssr:stedsnr" v="152580" />
	</node>
	<node id="-507936" lat="61.1554972229" lon="5.53446388517">
		<tag k="fixme" v="multiple name tags, choose one and add the other to alt_name" />
		<tag k="name" v="Avedalselva;Bjørkhaugelva" />
		<tag k="ssr:stedsnr" v="152552" />
		<tag k="waterway" v="river" />
	</node>
	<node id="-507933" lat="61.1690416625" lon="6.10180555072">
		<tag k="name" v="Bjødnehaugelva" />
		<tag k="ssr:stedsnr" v="152861" />
		<tag k="waterway" v="stream" />
	</node>
	<node id="-507914" lat="61.0364527814" lon="5.95650832731">
		<tag k="name" v="Djupevatnet" />
		<tag k="natural" v="water" />
		<tag k="ssr:stedsnr" v="131356" />
	</node>
	<node id="-507913" lat="61.0279194479" lon="5.62233610498">
		<tag k="name" v="Pinslevatnet" />
		<tag k="natural" v="water" />
		<tag k="ssr:stedsnr" v="131014" />
	</node>
	<node id="-507907" lat="61.1622777746" lon="5.65151388216">
		<tag k="name" v="Fossåna" />
		<tag k="ssr:stedsnr" v="130819" />
		<tag k="waterway" v="stream" />
	</node>
</osm>
