<?xml version="1.0" encoding="UTF-8"?>
<osm generator="osmapis" version="0.6">
	<node id="-509123" lat="61.124874999" lon="5.99357778233">
		<tag k="bridge" v="yes" />
		<tag k="layer" v="1" />
		<tag k="name" v="Strand" />
		<tag k="ssr:stedsnr" v="956541" />
	</node>
	<node id="-507895" lat="61.2187777735" lon="6.06019166227">
		<tag k="bridge" v="yes" />
		<tag k="layer" v="1" />
		<tag k="name" v="Øyreelv" />
		<tag k="ssr:stedsnr" v="531543" />
	</node>
	<node id="-507894" lat="61.2195416658" lon="6.06349722873">
		<tag k="bridge" v="yes" />
		<tag k="layer" v="1" />
		<tag k="name" v="Rislia" />
		<tag k="ssr:stedsnr" v="531529" />
	</node>
	<node id="-507893" lat="61.2231722223" lon="6.07679721906">
		<tag k="bridge" v="yes" />
		<tag k="layer" v="1" />
		<tag k="name" v="Hålandselva" />
		<tag k="ssr:stedsnr" v="531376" />
	</node>
	<node id="-506739" lat="61.1161999994" lon="6.0142055473">
		<tag k="bridge" v="yes" />
		<tag k="layer" v="1" />
		<tag k="name" v="Dyrdal" />
		<tag k="ssr:stedsnr" v="896407" />
	</node>
	<node id="-506738" lat="61.2090388876" lon="5.82550833742">
		<tag k="bridge" v="yes" />
		<tag k="layer" v="1" />
		<tag k="name" v="Hovland" />
		<tag k="ssr:stedsnr" v="896398" />
	</node>
	<node id="-506737" lat="61.2170333327" lon="5.7491833293">
		<tag k="bridge" v="yes" />
		<tag k="layer" v="1" />
		<tag k="name" v="Rørvik" />
		<tag k="ssr:stedsnr" v="896524" />
	</node>
	<node id="-506350" lat="61.2906361126" lon="6.14753611551">
		<tag k="man_made" v="cairn" />
		<tag k="name" v="Vindskeidvarden" />
		<tag k="place" v="locality" />
		<tag k="ssr:stedsnr" v="311629" />
	</node>
	<node id="-507373" lat="61.1808944442" lon="5.7794166647">
		<tag k="layer" v="-1" />
		<tag k="name" v="Bogstunnelen" />
		<tag k="ssr:stedsnr" v="211187" />
		<tag k="tunnel" v="yes" />
	</node>
	<node id="-508395" lat="61.1130361083" lon="6.14319999623">
		<tag k="man_made" v="quay" />
		<tag k="name" v="Kvelvet" />
		<tag k="place" v="locality" />
		<tag k="ssr:stedsnr" v="698890" />
	</node>
	<node id="-506344" lat="61.2243472252" lon="5.82423888745">
		<tag k="bridge" v="yes" />
		<tag k="layer" v="1" />
		<tag k="name" v="Ytredal" />
		<tag k="ssr:stedsnr" v="289529" />
	</node>
	<node id="-506598" lat="61.2136166658" lon="6.05419166868">
		<tag k="alt_name" v="Kvernhaug" />
		<tag k="layer" v="-1" />
		<tag k="name" v="Kvernhaugtunnelen" />
		<tag k="ssr:stedsnr" v="388717" />
		<tag k="tunnel" v="yes" />
	</node>
	<node id="-509122" lat="61.2067000002" lon="5.7940916759">
		<tag k="bridge" v="yes" />
		<tag k="layer" v="1" />
		<tag k="name" v="Grytefoss" />
		<tag k="ssr:stedsnr" v="956404" />
	</node>
	<node id="-506839" lat="61.1958111119" lon="6.05066111505">
		<tag k="alt_name" v="Hovde" />
		<tag k="layer" v="-1" />
		<tag k="name" v="Hovdetunnelen" />
		<tag k="ssr:stedsnr" v="24736" />
		<tag k="tunnel" v="yes" />
	</node>
	<node id="-509013" lat="61.1733273184" lon="5.98653245187">
		<tag k="alt_name" v="Noreide - Ferjekai" />
		<tag k="amenity" v="ferry_terminal" />
		<tag k="name" v="Nordeide ferjekai" />
		<tag k="ssr:stedsnr" v="920466" />
	</node>
	<node id="-509137" lat="61.1131317253" lon="6.13267644877">
		<tag k="amenity" v="ferry_terminal" />
		<tag k="name" v="Ortnevik ferjekai" />
		<tag k="ssr:stedsnr" v="978651" />
	</node>
	<node id="-509136" lat="61.1490727471" lon="6.07485244934">
		<tag k="amenity" v="ferry_terminal" />
		<tag k="name" v="Måren ferjekai" />
		<tag k="ssr:stedsnr" v="978652" />
	</node>
	<node id="-506699" lat="61.0581333372" lon="5.67020000073">
		<tag k="bridge" v="yes" />
		<tag k="layer" v="1" />
		<tag k="name" v="Sandvik" />
		<tag k="ssr:stedsnr" v="410508" />
	</node>
	<node id="-506698" lat="61.1048691322" lon="5.50745837243">
		<tag k="amenity" v="ferry_terminal" />
		<tag k="name" v="Lavik ferjekai" />
		<tag k="ssr:stedsnr" v="410396" />
	</node>
	<node id="-507465" lat="61.1676111091" lon="5.72885556486">
		<tag k="bridge" v="yes" />
		<tag k="layer" v="1" />
		<tag k="name" v="Vollelva" />
		<tag k="ssr:stedsnr" v="228559" />
	</node>
	<node id="-507464" lat="61.1803166624" lon="5.99562499726">
		<tag k="bridge" v="yes" />
		<tag k="layer" v="1" />
		<tag k="name" v="Bergselv" />
		<tag k="ssr:stedsnr" v="228435" />
	</node>
	<node id="-507463" lat="61.1660888919" lon="5.86369165906">
		<tag k="bridge" v="yes" />
		<tag k="layer" v="1" />
		<tag k="name" v="Frivik" />
		<tag k="ssr:stedsnr" v="228412" />
	</node>
	<node id="-508614" lat="61.2093972215" lon="5.81869167105">
		<tag k="bridge" v="yes" />
		<tag k="layer" v="1" />
		<tag k="name" v="Sanden" />
		<tag k="ssr:stedsnr" v="774545" />
	</node>
	<node id="-508613" lat="61.0962861077" lon="5.72638610416">
		<tag k="bridge" v="yes" />
		<tag k="layer" v="1" />
		<tag k="name" v="Indreelv" />
		<tag k="ssr:stedsnr" v="774429" />
	</node>
	<node id="-509124" lat="61.132691666" lon="5.46944166081">
		<tag k="bridge" v="yes" />
		<tag k="layer" v="1" />
		<tag k="name" v="Tjønnås" />
		<tag k="ssr:stedsnr" v="956542" />
	</node>
	<node id="-508611" lat="61.023283332" lon="5.8024583261">
		<tag k="bridge" v="yes" />
		<tag k="layer" v="1" />
		<tag k="name" v="Hestfossen" />
		<tag k="ssr:stedsnr" v="774415" />
	</node>
	<node id="-508610" lat="61.1907194466" lon="5.81990277964">
		<tag k="layer" v="-1" />
		<tag k="name" v="Vadheim" />
		<tag k="ssr:stedsnr" v="772675" />
		<tag k="tunnel" v="yes" />
	</node>
	<node id="-506943" lat="61.1484722204" lon="5.67888055705">
		<tag k="bridge" v="yes" />
		<tag k="layer" v="1" />
		<tag k="name" v="Torvund Indre" />
		<tag k="ssr:stedsnr" v="46534" />
	</node>
	<node id="-506942" lat="61.0764777812" lon="5.8296361098">
		<tag k="bridge" v="yes" />
		<tag k="layer" v="1" />
		<tag k="name" v="Bjordal" />
		<tag k="ssr:stedsnr" v="46421" />
	</node>
	<node id="-508277" lat="61.1176750034" lon="5.5630888954">
		<tag k="bridge" v="yes" />
		<tag k="layer" v="1" />
		<tag k="name" v="Alvera" />
		<tag k="ssr:stedsnr" v="652364" />
	</node>
	<node id="-507707" lat="61.1049861125" lon="5.50979722914">
		<tag k="bridge" v="yes" />
		<tag k="layer" v="1" />
		<tag k="name" v="Lavik" />
		<tag k="ssr:stedsnr" v="470346" />
	</node>
	<node id="-506697" lat="61.1045277788" lon="5.49952500501">
		<tag k="bridge" v="yes" />
		<tag k="layer" v="1" />
		<tag k="name" v="Lavik" />
		<tag k="ssr:stedsnr" v="410394" />
	</node>
	<node id="-508467" lat="61.1284027745" lon="5.94582500677">
		<tag k="bridge" v="yes" />
		<tag k="layer" v="1" />
		<tag k="name" v="Tangen" />
		<tag k="ssr:stedsnr" v="713508" />
	</node>
	<node id="-508466" lat="61.2078833314" lon="5.83467222796">
		<tag k="bridge" v="yes" />
		<tag k="layer" v="1" />
		<tag k="name" v="Kråkevik Nedre" />
		<tag k="ssr:stedsnr" v="713374" />
	</node>
	<node id="-508787" lat="61.2177333379" lon="5.77811389655">
		<tag k="highway" v="path" />
		<tag k="name" v="Nyevegen" />
		<tag k="ssr:stedsnr" v="821720" />
	</node>
	<node id="-508464" lat="61.1665694487" lon="5.74178055601">
		<tag k="bridge" v="yes" />
		<tag k="layer" v="1" />
		<tag k="name" v="Fagernes" />
		<tag k="ssr:stedsnr" v="713358" />
	</node>
	<node id="-506696" lat="61.1062555543" lon="6.04457778173">
		<tag k="bridge" v="yes" />
		<tag k="layer" v="1" />
		<tag k="name" v="Mjølsvik" />
		<tag k="ssr:stedsnr" v="410390" />
	</node>
	<node id="-508462" lat="61.0751666677" lon="5.80630278052">
		<tag k="landuse" v="harbour" />
		<tag k="name" v="Oslandshamna" />
		<tag k="seamark:type" v="harbour" />
		<tag k="ssr:stedsnr" v="708971" />
	</node>
	<node id="-508615" lat="61.2027833313" lon="5.78535000434">
		<tag k="bridge" v="yes" />
		<tag k="layer" v="1" />
		<tag k="name" v="Ullebø" />
		<tag k="ssr:stedsnr" v="774549" />
	</node>
	<node id="-506695" lat="61.2041972249" lon="5.80980000581">
		<tag k="bridge" v="yes" />
		<tag k="layer" v="1" />
		<tag k="name" v="Dyrnes" />
		<tag k="ssr:stedsnr" v="410387" />
	</node>
	<node id="-508465" lat="61.1623000039" lon="5.72013610176">
		<tag k="bridge" v="yes" />
		<tag k="layer" v="1" />
		<tag k="name" v="Norevik" />
		<tag k="ssr:stedsnr" v="713368" />
	</node>
	<node id="-507294" lat="61.0973111117" lon="5.73284444143">
		<tag k="bridge" v="yes" />
		<tag k="layer" v="1" />
		<tag k="name" v="Ytreelva" />
		<tag k="ssr:stedsnr" v="167549" />
	</node>
	<node id="-507293" lat="61.1681000002" lon="5.96326389241">
		<tag k="bridge" v="yes" />
		<tag k="layer" v="1" />
		<tag k="name" v="Austrheim" />
		<tag k="ssr:stedsnr" v="167415" />
	</node>
	<node id="-507292" lat="61.2053888882" lon="5.80928055466">
		<tag k="bridge" v="yes" />
		<tag k="layer" v="1" />
		<tag k="name" v="Lielva" />
		<tag k="ssr:stedsnr" v="167394" />
	</node>
	<node id="-507291" lat="61.0584916695" lon="5.6522777823">
		<tag k="bridge" v="yes" />
		<tag k="layer" v="1" />
		<tag k="name" v="Myra" />
		<tag k="ssr:stedsnr" v="167392" />
	</node>
	<node id="-507290" lat="61.1931805525" lon="5.79640278735">
		<tag k="bridge" v="yes" />
		<tag k="layer" v="1" />
		<tag k="name" v="Bogelva" />
		<tag k="ssr:stedsnr" v="167383" />
	</node>
	<node id="-508612" lat="61.2232194471" lon="6.08639999858">
		<tag k="bridge" v="yes" />
		<tag k="layer" v="1" />
		<tag k="name" v="Hjetland" />
		<tag k="ssr:stedsnr" v="774414" />
	</node>
	<node id="-508819" lat="61.0936111088" lon="5.87684167264">
		<tag k="bridge" v="yes" />
		<tag k="layer" v="1" />
		<tag k="name" v="Østerbøstraumen" />
		<tag k="ssr:stedsnr" v="835534" />
	</node>
	<node id="-508818" lat="61.1628222246" lon="5.89662500445">
		<tag k="bridge" v="yes" />
		<tag k="layer" v="1" />
		<tag k="name" v="Ljotebø" />
		<tag k="ssr:stedsnr" v="835405" />
	</node>
	<node id="-508817" lat="60.9771166647" lon="5.71615276887">
		<tag k="bridge" v="yes" />
		<tag k="layer" v="1" />
		<tag k="name" v="Krokevasselva" />
		<tag k="ssr:stedsnr" v="835406" />
	</node>
	<node id="-508816" lat="61.1089722261" lon="5.81889444077">
		<tag k="bridge" v="yes" />
		<tag k="layer" v="1" />
		<tag k="name" v="Naustnes" />
		<tag k="ssr:stedsnr" v="835403" />
	</node>
	<node id="-508815" lat="61.0729444481" lon="5.80276943684">
		<tag k="bridge" v="yes" />
		<tag k="layer" v="1" />
		<tag k="name" v="Osland" />
		<tag k="ssr:stedsnr" v="835402" />
	</node>
	<node id="-508814" lat="61.1443333348" lon="5.46410277142">
		<tag k="bridge" v="yes" />
		<tag k="layer" v="1" />
		<tag k="name" v="Bruhaug" />
		<tag k="ssr:stedsnr" v="835400" />
	</node>
	<node id="-508813" lat="61.0683555533" lon="5.80177777348">
		<tag k="bridge" v="yes" />
		<tag k="layer" v="1" />
		<tag k="name" v="Førsund" />
		<tag k="ssr:stedsnr" v="835396" />
	</node>
	<node id="-508812" lat="61.2200972209" lon="6.0652111088">
		<tag k="bridge" v="yes" />
		<tag k="layer" v="1" />
		<tag k="name" v="Galdane" />
		<tag k="ssr:stedsnr" v="835395" />
	</node>
	<node id="-508811" lat="61.0870749975" lon="5.45947500365">
		<tag k="bridge" v="yes" />
		<tag k="layer" v="1" />
		<tag k="name" v="Hellebø" />
		<tag k="ssr:stedsnr" v="835391" />
	</node>
	<node id="-508810" lat="61.1469277821" lon="5.45416111171">
		<tag k="bridge" v="yes" />
		<tag k="layer" v="1" />
		<tag k="name" v="Hjelmeland Ytre" />
		<tag k="ssr:stedsnr" v="835386" />
	</node>
	<node id="-507034" lat="61.2188916711" lon="6.12169999966">
		<tag k="layer" v="-1" />
		<tag k="name" v="Høyangertunnelen" />
		<tag k="ssr:stedsnr" v="87773" />
		<tag k="tunnel" v="yes" />
	</node>
	<node id="-508165" lat="61.1967416633" lon="5.82812500805">
		<tag k="layer" v="-1" />
		<tag k="name" v="Vadheimstunnelen" />
		<tag k="ssr:stedsnr" v="630687" />
		<tag k="tunnel" v="yes" />
	</node>
	<node id="-506500" lat="61.1412861091" lon="5.60608055425">
		<tag k="bridge" v="yes" />
		<tag k="layer" v="1" />
		<tag k="name" v="Raa" />
		<tag k="ssr:stedsnr" v="349556" />
	</node>
	<node id="-506499" lat="61.1580861072" lon="5.51607777471">
		<tag k="bridge" v="yes" />
		<tag k="layer" v="1" />
		<tag k="name" v="Bjørkhaug" />
		<tag k="ssr:stedsnr" v="349451" />
	</node>
	<node id="-506498" lat="60.968841666" lon="5.70636667404">
		<tag k="bridge" v="yes" />
		<tag k="layer" v="1" />
		<tag k="name" v="Langevasselva" />
		<tag k="ssr:stedsnr" v="349442" />
	</node>
	<node id="-506497" lat="61.139333335" lon="5.47861111449">
		<tag k="bridge" v="yes" />
		<tag k="layer" v="1" />
		<tag k="name" v="Gare" />
		<tag k="ssr:stedsnr" v="349435" />
	</node>
</osm>
