<?xml version="1.0" encoding="UTF-8"?>
<osm generator="osmapis" version="0.6">
	<node id="-506880" lat="61.0987222265" lon="5.63905277646">
		<tag k="name" v="Klamrestoda" />
		<tag k="natural" v="bay" />
		<tag k="ssr:stedsnr" v="31674" />
	</node>
	<node id="-508671" lat="61.0989777779" lon="5.85030277776">
		<tag k="name" v="Kroppa" />
		<tag k="natural" v="cape" />
		<tag k="ssr:stedsnr" v="798268" />
	</node>
	<node id="-506872" lat="61.099505553" lon="5.49383610349">
		<tag k="name" v="Svalhammaren" />
		<tag k="natural" v="cape" />
		<tag k="ssr:stedsnr" v="31542" />
	</node>
	<node id="-508244" lat="61.0951638863" lon="5.67448610696">
		<tag k="name" v="Hamn" />
		<tag k="natural" v="bay" />
		<tag k="ssr:stedsnr" v="638673" />
	</node>
	<node id="-506870" lat="61.1618166672" lon="5.79112499554">
		<tag k="name" v="Kvernhusneset" />
		<tag k="natural" v="cape" />
		<tag k="ssr:stedsnr" v="31525" />
	</node>
	<node id="-506281" lat="61.1291388906" lon="5.98208889503">
		<tag k="name" v="Bergylteneset" />
		<tag k="natural" v="cape" />
		<tag k="ssr:stedsnr" v="274178" />
	</node>
	<node id="-507892" lat="61.1262750026" lon="5.99187499076">
		<tag k="name" v="Tangevika" />
		<tag k="natural" v="bay" />
		<tag k="ssr:stedsnr" v="526981" />
	</node>
	<node id="-508584" lat="61.1693333317" lon="5.80323333657">
		<tag k="name" v="Djupeleget" />
		<tag k="natural" v="bay" />
		<tag k="ssr:stedsnr" v="760538" />
	</node>
	<node id="-507886" lat="61.1608312213" lon="5.82532529017">
		<tag k="alt_name" v="Klævaldsholmen" />
		<tag k="name" v="Klevaldsholmen" />
		<tag k="place" v="islet" />
		<tag k="ssr:stedsnr" v="518884" />
	</node>
	<node id="-507885" lat="61.1599343847" lon="5.86679131866">
		<tag k="name" v="Sandaneset" />
		<tag k="natural" v="cape" />
		<tag k="ssr:stedsnr" v="518870" />
	</node>
	<node id="-507884" lat="61.1998472213" lon="5.83025555102">
		<tag k="name" v="Hovlandstranda" />
		<tag k="natural" v="beach" />
		<tag k="place" v="locality" />
		<tag k="ssr:stedsnr" v="518861" />
	</node>
	<node id="-508906" lat="61.1564499973" lon="5.72304721417">
		<tag k="name" v="Hamneneset" />
		<tag k="natural" v="cape" />
		<tag k="ssr:stedsnr" v="880734" />
	</node>
	<node id="-506343" lat="61.1141138872" lon="6.03108054786">
		<tag k="name" v="Ytre Mjølsvikneset" />
		<tag k="natural" v="cape" />
		<tag k="ssr:stedsnr" v="284986" />
	</node>
	<node id="-506342" lat="61.0672194441" lon="5.80224445172">
		<tag k="name" v="Føsundet" />
		<tag k="natural" v="strait" />
		<tag k="ssr:stedsnr" v="284979" />
	</node>
	<node id="-506341" lat="61.1029805589" lon="5.65755277201">
		<tag k="name" v="Massneset" />
		<tag k="natural" v="cape" />
		<tag k="ssr:stedsnr" v="283746" />
	</node>
	<node id="-508899" lat="61.0894361108" lon="5.8387111153">
		<tag k="name" v="Lindeneset" />
		<tag k="natural" v="cape" />
		<tag k="ssr:stedsnr" v="880290" />
	</node>
	<node id="-508385" lat="61.1301416658" lon="5.92973055403">
		<tag k="name" v="Strandsneset" />
		<tag k="natural" v="cape" />
		<tag k="ssr:stedsnr" v="698781" />
	</node>
	<node id="-506848" lat="61.1531972268" lon="6.10160556405">
		<tag k="name" v="Lindevika" />
		<tag k="natural" v="bay" />
		<tag k="ssr:stedsnr" v="30833" />
	</node>
	<node id="-507359" lat="61.187686109" lon="5.79783334121">
		<tag k="name" v="Floteneset" />
		<tag k="natural" v="cape" />
		<tag k="ssr:stedsnr" v="191790" />
	</node>
	<node id="-507864" lat="61.1010527744" lon="5.67232223032">
		<tag k="name" v="Verpeneset" />
		<tag k="natural" v="cape" />
		<tag k="ssr:stedsnr" v="517689" />
	</node>
	<node id="-507347" lat="61.146108329" lon="6.05379721598">
		<tag k="name" v="Skinnbrokaneset" />
		<tag k="natural" v="cape" />
		<tag k="ssr:stedsnr" v="191400" />
	</node>
	<node id="-507342" lat="61.1896555544" lon="6.03130278">
		<tag k="name" v="Godvika" />
		<tag k="natural" v="bay" />
		<tag k="ssr:stedsnr" v="191356" />
	</node>
	<node id="-506316" lat="61.058461114" lon="5.79408054933">
		<tag k="alt_name" v="Føsundstranda" />
		<tag k="name" v="Førdesundstranda" />
		<tag k="natural" v="beach" />
		<tag k="place" v="locality" />
		<tag k="ssr:stedsnr" v="274863" />
	</node>
	<node id="-506309" lat="61.2117666671" lon="5.74910277218">
		<tag k="name" v="Mjeltestad" />
		<tag k="natural" v="cape" />
		<tag k="ssr:stedsnr" v="274701" />
	</node>
	<node id="-507382" lat="61.12081389" lon="5.81776111983">
		<tag k="name" v="Hamneneset" />
		<tag k="natural" v="cape" />
		<tag k="ssr:stedsnr" v="213280" />
	</node>
	<node id="-507841" lat="61.1157722269" lon="5.56685556131">
		<tag k="name" v="Storevika" />
		<tag k="natural" v="bay" />
		<tag k="ssr:stedsnr" v="517228" />
	</node>
	<node id="-506816" lat="61.1603222185" lon="6.01241388946">
		<tag k="name" v="Kvalane" />
		<tag k="natural" v="cape" />
		<tag k="ssr:stedsnr" v="9449" />
	</node>
	<node id="-508320" lat="61.1827305521" lon="5.81876944378">
		<tag k="name" v="Sutarvika" />
		<tag k="natural" v="bay" />
		<tag k="ssr:stedsnr" v="676805" />
	</node>
	<node id="-506814" lat="61.1476055555" lon="6.06858334035">
		<tag k="alt_name" v="Elveneset" />
		<tag k="name" v="Elvaneset" />
		<tag k="natural" v="cape" />
		<tag k="ssr:stedsnr" v="9431" />
	</node>
	<node id="-507325" lat="61.1011999959" lon="5.82442500271">
		<tag k="name" v="Fureneset" />
		<tag k="natural" v="cape" />
		<tag k="ssr:stedsnr" v="191199" />
	</node>
	<node id="-507317" lat="61.125030555" lon="5.80553333511">
		<tag k="name" v="Verpekleiva" />
		<tag k="natural" v="cape" />
		<tag k="ssr:stedsnr" v="191115" />
	</node>
	<node id="-508339" lat="61.1563527759" lon="5.72736666126">
		<tag k="name" v="Hamneholmen" />
		<tag k="place" v="islet" />
		<tag k="ssr:stedsnr" v="677170" />
	</node>
	<node id="-508848" lat="61.1427666649" lon="5.64380277795">
		<tag k="name" v="Breidhamnen" />
		<tag k="natural" v="bay" />
		<tag k="ssr:stedsnr" v="859155" />
	</node>
	<node id="-508844" lat="61.162224996" lon="5.82400000308">
		<tag k="name" v="Hamneneset" />
		<tag k="natural" v="cape" />
		<tag k="ssr:stedsnr" v="859139" />
	</node>
	<node id="-506283" lat="61.0753750046" lon="5.80668889545">
		<tag k="name" v="Valeberg" />
		<tag k="natural" v="cape" />
		<tag k="ssr:stedsnr" v="274201" />
	</node>
	<node id="-507817" lat="61.095247224" lon="5.82215000408">
		<tag k="name" v="Bjønnspjoteneset" />
		<tag k="natural" v="cape" />
		<tag k="ssr:stedsnr" v="516306" />
	</node>
	<node id="-508840" lat="61.1212250009" lon="5.78485556083">
		<tag k="alt_name" v="Jaktnaustvika" />
		<tag k="name" v="Jaktenaustvika" />
		<tag k="natural" v="bay" />
		<tag k="ssr:stedsnr" v="859120" />
	</node>
	<node id="-508839" lat="61.132961109" lon="5.59520555349">
		<tag k="alt_name" v="Varkleivneset" />
		<tag k="name" v="Vardekleivneset" />
		<tag k="natural" v="cape" />
		<tag k="ssr:stedsnr" v="859117" />
	</node>
	<node id="-507814" lat="61.0584351352" lon="5.67245134487">
		<tag k="name" v="Sandvik" />
		<tag k="natural" v="bay" />
		<tag k="ssr:stedsnr" v="516057" />
	</node>
	<node id="-506277" lat="61.1190555551" lon="6.00342499578">
		<tag k="name" v="Geitevika" />
		<tag k="natural" v="bay" />
		<tag k="ssr:stedsnr" v="274038" />
	</node>
	<node id="-506788" lat="61.0850666626" lon="5.61496111495">
		<tag k="name" v="Storeholmen" />
		<tag k="place" v="islet" />
		<tag k="ssr:stedsnr" v="9198" />
	</node>
	<node id="-507974" lat="61.1650750013" lon="5.73829167031">
		<tag k="fixme" v="multiple name tags, choose one and add the other to alt_name" />
		<tag k="name" v="Eidsneset;Fagernes" />
		<tag k="natural" v="cape" />
		<tag k="ssr:stedsnr" v="555827" />
	</node>
	<node id="-506785" lat="61.0979444444" lon="5.67532499119">
		<tag k="name" v="Massnesvika" />
		<tag k="natural" v="bay" />
		<tag k="ssr:stedsnr" v="9191" />
	</node>
	<node id="-506784" lat="61.1050694462" lon="5.75331943668">
		<tag k="name" v="Midtneset" />
		<tag k="natural" v="cape" />
		<tag k="ssr:stedsnr" v="9185" />
	</node>
	<node id="-507461" lat="61.0983138863" lon="5.72004721472">
		<tag k="name" v="Sørevikneset" />
		<tag k="natural" v="cape" />
		<tag k="ssr:stedsnr" v="223971" />
	</node>
	<node id="-506776" lat="61.1454583341" lon="5.7253166658">
		<tag k="name" v="Gullvikeneset" />
		<tag k="natural" v="cape" />
		<tag k="ssr:stedsnr" v="9105" />
	</node>
	<node id="-506775" lat="61.1405777817" lon="5.71080276888">
		<tag k="name" v="Hovdehamnen" />
		<tag k="natural" v="bay" />
		<tag k="ssr:stedsnr" v="9103" />
	</node>
	<node id="-508820" lat="61.1151166671" lon="5.56506943575">
		<tag k="name" v="Alverneset" />
		<tag k="natural" v="cape" />
		<tag k="ssr:stedsnr" v="857521" />
	</node>
	<node id="-508307" lat="61.1156138871" lon="6.13941944586">
		<tag k="name" v="Ortnevika" />
		<tag k="natural" v="bay" />
		<tag k="ssr:stedsnr" v="676307" />
	</node>
	<node id="-507282" lat="61.1664555554" lon="5.82053334044">
		<tag k="name" v="Verpeneset" />
		<tag k="natural" v="cape" />
		<tag k="ssr:stedsnr" v="153922" />
	</node>
	<node id="-507281" lat="61.1430661701" lon="5.64513003262">
		<tag k="name" v="Lausholmen" />
		<tag k="place" v="islet" />
		<tag k="ssr:stedsnr" v="153920" />
	</node>
	<node id="-507280" lat="61.1617435991" lon="5.82598407174">
		<tag k="name" v="Hamnefjøra" />
		<tag k="natural" v="bay" />
		<tag k="ssr:stedsnr" v="153916" />
	</node>
	<node id="-508303" lat="61.112430553" lon="6.07006110505">
		<tag k="name" v="Sandneset" />
		<tag k="natural" v="cape" />
		<tag k="ssr:stedsnr" v="676296" />
	</node>
	<node id="-508738" lat="61.0810805532" lon="5.4497472293">
		<tag k="name" v="Hellebøneset" />
		<tag k="natural" v="cape" />
		<tag k="ssr:stedsnr" v="820817" />
	</node>
	<node id="-508297" lat="61.1387777751" lon="5.70623334285">
		<tag k="name" v="Hovdeneset" />
		<tag k="natural" v="cape" />
		<tag k="ssr:stedsnr" v="676142" />
	</node>
	<node id="-508808" lat="61.0786874395" lon="5.44297022974">
		<tag k="name" v="Ytre Hellefjord" />
		<tag k="natural" v="cape" />
		<tag k="ssr:stedsnr" v="830131" />
	</node>
	<node id="-508295" lat="61.1437416663" lon="5.72012500555">
		<tag k="name" v="Gildrevika" />
		<tag k="natural" v="bay" />
		<tag k="ssr:stedsnr" v="676137" />
	</node>
	<node id="-508294" lat="61.1412333319" lon="5.71592500269">
		<tag k="name" v="Kolsekken" />
		<tag k="natural" v="cape" />
		<tag k="ssr:stedsnr" v="676135" />
	</node>
	<node id="-507525" lat="61.1965527768" lon="6.07743888852">
		<tag k="name" v="Bjørkeneset" />
		<tag k="natural" v="cape" />
		<tag k="ssr:stedsnr" v="252370" />
	</node>
	<node id="-507266" lat="61.1627638897" lon="5.80423333705">
		<tag k="name" v="Langeneset" />
		<tag k="natural" v="cape" />
		<tag k="ssr:stedsnr" v="153546" />
	</node>
	<node id="-508650" lat="61.1673053586" lon="5.80318947803">
		<tag k="alt_name" v="Gjellvika" />
		<tag k="name" v="Hjellvika" />
		<tag k="natural" v="bay" />
		<tag k="ssr:stedsnr" v="798154" />
	</node>
	<node id="-507773" lat="61.1287666646" lon="5.89322499639">
		<tag k="name" v="Fuglen" />
		<tag k="natural" v="cape" />
		<tag k="ssr:stedsnr" v="494417" />
	</node>
	<node id="-506747" lat="61.1633888844" lon="6.00691665902">
		<tag k="name" v="Fureneset" />
		<tag k="natural" v="cape" />
		<tag k="ssr:stedsnr" v="7444" />
	</node>
	<node id="-508794" lat="61.1077583294" lon="6.08787222638">
		<tag k="name" v="Kjørsleneset" />
		<tag k="natural" v="cape" />
		<tag k="ssr:stedsnr" v="821832" />
	</node>
	<node id="-506740" lat="61.1614388931" lon="5.93541110179">
		<tag k="name" v="Mylseskjeret" />
		<tag k="natural" v="cape" />
		<tag k="ssr:stedsnr" v="898849" />
	</node>
	<node id="-508275" lat="61.115083335" lon="6.14052778673">
		<tag k="name" v="Orten" />
		<tag k="place" v="locality" />
		<tag k="seamark:type" v="rock" />
		<tag k="ssr:stedsnr" v="647991" />
	</node>
	<node id="-506735" lat="61.1962611071" lon="5.82502223071">
		<tag k="name" v="Byrkjevika" />
		<tag k="natural" v="bay" />
		<tag k="ssr:stedsnr" v="891069" />
	</node>
	<node id="-508781" lat="61.1151083375" lon="5.77046110994">
		<tag k="name" v="Gamleverpet" />
		<tag k="natural" v="cape" />
		<tag k="ssr:stedsnr" v="821608" />
	</node>
	<node id="-508306" lat="61.1142777758" lon="6.13744167435">
		<tag k="name" v="Ortna" />
		<tag k="natural" v="shoal" />
		<tag k="place" v="locality" />
		<tag k="ssr:stedsnr" v="676303" />
	</node>
	<node id="-507750" lat="61.1003277767" lon="5.8390083381">
		<tag k="alt_name" v="Fuglesetfjorden" />
		<tag k="bay" v="fjord" />
		<tag k="name" v="Fuglsetfjorden" />
		<tag k="natural" v="bay" />
		<tag k="ssr:stedsnr" v="494215" />
	</node>
	<node id="-508773" lat="61.1380527825" lon="5.70079445256">
		<tag k="name" v="Ytre Hestvika" />
		<tag k="natural" v="bay" />
		<tag k="ssr:stedsnr" v="821522" />
	</node>
	<node id="-508769" lat="61.1376472193" lon="5.70393610876">
		<tag k="name" v="Indre Hestvika" />
		<tag k="natural" v="bay" />
		<tag k="ssr:stedsnr" v="821516" />
	</node>
	<node id="-507950" lat="61.2129888885" lon="6.05844166883">
		<tag k="name" v="Sandvika" />
		<tag k="natural" v="bay" />
		<tag k="ssr:stedsnr" v="555361" />
	</node>
	<node id="-508304" lat="61.1103083352" lon="6.08368054917">
		<tag k="name" v="Sandebukta" />
		<tag k="natural" v="bay" />
		<tag k="ssr:stedsnr" v="676298" />
	</node>
	<node id="-508253" lat="61.1543416634" lon="6.12996389659">
		<tag k="name" v="Mann" />
		<tag k="natural" v="cape" />
		<tag k="ssr:stedsnr" v="638943" />
	</node>
	<node id="-508246" lat="61.1643166643" lon="5.94625278267">
		<tag k="name" v="Børa" />
		<tag k="natural" v="bay" />
		<tag k="ssr:stedsnr" v="638701" />
	</node>
	<node id="-507220" lat="61.0905361144" lon="5.47182777333">
		<tag k="name" v="Naustvika" />
		<tag k="natural" v="bay" />
		<tag k="ssr:stedsnr" v="152609" />
	</node>
	<node id="-507210" lat="61.0852111121" lon="5.45417222433">
		<tag k="name" v="Jaktnaustvika" />
		<tag k="natural" v="bay" />
		<tag k="ssr:stedsnr" v="152853" />
	</node>
	<node id="-508230" lat="61.1654638887" lon="5.80287222543">
		<tag k="name" v="Geitesanden" />
		<tag k="natural" v="beach" />
		<tag k="place" v="locality" />
		<tag k="ssr:stedsnr" v="638506" />
	</node>
	<node id="-506693" lat="61.1487777806" lon="5.72155554959">
		<tag k="name" v="Heldalsvika" />
		<tag k="natural" v="bay" />
		<tag k="ssr:stedsnr" v="405879" />
	</node>
	<node id="-506690" lat="61.1299000026" lon="5.5903166756">
		<tag k="name" v="Djupevika" />
		<tag k="natural" v="bay" />
		<tag k="ssr:stedsnr" v="396992" />
	</node>
	<node id="-507412" lat="61.050669443" lon="5.80189443745">
		<tag k="name" v="Grandane" />
		<tag k="natural" v="cape" />
		<tag k="ssr:stedsnr" v="213905" />
	</node>
	<node id="-507706" lat="61.0917611132" lon="5.84098334096">
		<tag k="name" v="Aureneset" />
		<tag k="natural" v="cape" />
		<tag k="ssr:stedsnr" v="466978" />
	</node>
	<node id="-507705" lat="61.2060500016" lon="5.8332361044">
		<tag k="name" v="Kråkevika" />
		<tag k="natural" v="bay" />
		<tag k="ssr:stedsnr" v="466061" />
	</node>
	<node id="-506680" lat="61.1818611145" lon="5.81894999077">
		<tag k="name" v="Gofarståa" />
		<tag k="natural" v="beach" />
		<tag k="place" v="locality" />
		<tag k="ssr:stedsnr" v="396728" />
	</node>
	<node id="-506678" lat="61.1239527773" lon="5.80951388672">
		<tag k="name" v="Hytteneset" />
		<tag k="natural" v="cape" />
		<tag k="ssr:stedsnr" v="396595" />
	</node>
	<node id="-508721" lat="61.0581361088" lon="5.80803611542">
		<tag k="name" v="Habn" />
		<tag k="natural" v="beach" />
		<tag k="place" v="locality" />
		<tag k="ssr:stedsnr" v="820285" />
	</node>
	<node id="-507184" lat="61.1876749966" lon="5.81039443786">
		<tag k="bay" v="fjord" />
		<tag k="name" v="Vadheimsfjorden" />
		<tag k="natural" v="bay" />
		<tag k="ssr:stedsnr" v="130788" />
	</node>
	<node id="-506662" lat="61.0770194455" lon="5.43685556144">
		<tag k="name" v="Vetlehamnen" />
		<tag k="natural" v="bay" />
		<tag k="ssr:stedsnr" v="395960" />
	</node>
	<node id="-508194" lat="61.1308305559" lon="5.91338889114">
		<tag k="name" v="Naustneset" />
		<tag k="natural" v="cape" />
		<tag k="ssr:stedsnr" v="637818" />
	</node>
	<node id="-508704" lat="61.1489416673" lon="5.72129722462">
		<tag k="name" v="Heldalsneset" />
		<tag k="natural" v="cape" />
		<tag k="ssr:stedsnr" v="819736" />
	</node>
	<node id="-506653" lat="61.1631972239" lon="5.92229444517">
		<tag k="name" v="Ramslifjøra" />
		<tag k="natural" v="bay" />
		<tag k="ssr:stedsnr" v="395776" />
	</node>
	<node id="-507164" lat="61.1089722189" lon="6.04203055375">
		<tag k="name" v="Mjølsvika" />
		<tag k="natural" v="bay" />
		<tag k="ssr:stedsnr" v="130274" />
	</node>
	<node id="-508463" lat="61.1168416687" lon="6.14978333537">
		<tag k="name" v="Indre Ortnevikneset" />
		<tag k="natural" v="cape" />
		<tag k="ssr:stedsnr" v="708988" />
	</node>
	<node id="-507160" lat="61.1625694403" lon="5.90663888093">
		<tag k="alt_name" v="Trondvikneset" />
		<tag k="name" v="Tronvikneset" />
		<tag k="natural" v="cape" />
		<tag k="ssr:stedsnr" v="130430" />
	</node>
	<node id="-508182" lat="61.1184166676" lon="5.87721389039">
		<tag k="alt_name" v="Vetteneset" />
		<tag k="name" v="Vetleneset" />
		<tag k="natural" v="cape" />
		<tag k="ssr:stedsnr" v="637513" />
	</node>
	<node id="-507155" lat="61.1012611131" lon="5.73731667157">
		<tag k="name" v="Verphusneset" />
		<tag k="natural" v="cape" />
		<tag k="ssr:stedsnr" v="130199" />
	</node>
	<node id="-507154" lat="61.1125500019" lon="5.82075832971">
		<tag k="alt_name" v="Verpet" />
		<tag k="name" v="Verpeneset" />
		<tag k="natural" v="cape" />
		<tag k="ssr:stedsnr" v="130193" />
	</node>
	<node id="-508688" lat="61.1763361091" lon="5.99119444535">
		<tag k="name" v="Saueneset" />
		<tag k="natural" v="cape" />
		<tag k="ssr:stedsnr" v="798455" />
	</node>
	<node id="-507151" lat="61.0719555524" lon="5.63825000788">
		<tag k="bay" v="fjord" />
		<tag k="name" v="Ikjefjorden" />
		<tag k="natural" v="bay" />
		<tag k="ssr:stedsnr" v="130169" />
	</node>
	<node id="-508684" lat="61.1555694429" lon="6.03365277505">
		<tag k="name" v="Bukti" />
		<tag k="natural" v="bay" />
		<tag k="ssr:stedsnr" v="798428" />
	</node>
	<node id="-508802" lat="61.1426749989" lon="5.612630556">
		<tag k="name" v="Råsneset" />
		<tag k="natural" v="cape" />
		<tag k="ssr:stedsnr" v="821929" />
	</node>
	<node id="-506630" lat="61.1032555568" lon="5.65206388807">
		<tag k="name" v="Kollhueneset" />
		<tag k="natural" v="cape" />
		<tag k="ssr:stedsnr" v="395363" />
	</node>
	<node id="-506623" lat="61.1004666622" lon="5.86599166091">
		<tag k="bay" v="fjord" />
		<tag k="name" v="Eiesfjorden" />
		<tag k="natural" v="bay" />
		<tag k="ssr:stedsnr" v="395294" />
	</node>
	<node id="-506622" lat="61.0917361108" lon="5.83879445353">
		<tag k="name" v="Dreneset" />
		<tag k="natural" v="cape" />
		<tag k="ssr:stedsnr" v="395292" />
	</node>
	<node id="-506619" lat="61.0625972191" lon="5.8055305519">
		<tag k="name" v="Heststranda" />
		<tag k="natural" v="beach" />
		<tag k="place" v="locality" />
		<tag k="ssr:stedsnr" v="395246" />
	</node>
	<node id="-507125" lat="61.0833500024" lon="5.60636945137">
		<tag k="name" v="Fureneset" />
		<tag k="natural" v="cape" />
		<tag k="ssr:stedsnr" v="128498" />
	</node>
	<node id="-507124" lat="61.1165361131" lon="6.13280278164">
		<tag k="name" v="Ytre Ortnevikneset" />
		<tag k="natural" v="cape" />
		<tag k="ssr:stedsnr" v="102992" />
	</node>
	<node id="-506611" lat="61.1217083323" lon="5.99904999421">
		<tag k="name" v="Seljevika" />
		<tag k="natural" v="bay" />
		<tag k="ssr:stedsnr" v="395047" />
	</node>
	<node id="-507122" lat="61.1419166649" lon="5.64335833872">
		<tag k="name" v="Rotefest" />
		<tag k="natural" v="cape" />
		<tag k="ssr:stedsnr" v="101765" />
	</node>
	<node id="-508143" lat="61.0692083317" lon="5.65935000552">
		<tag k="name" v="Storeneset" />
		<tag k="natural" v="cape" />
		<tag k="ssr:stedsnr" v="616168" />
	</node>
	<node id="-508142" lat="61.1540388902" lon="5.72634166053">
		<tag k="alt_name" v="Skjelvikneset" />
		<tag k="name" v="Skjelvikeneset" />
		<tag k="natural" v="cape" />
		<tag k="ssr:stedsnr" v="616160" />
	</node>
	<node id="-508653" lat="61.141802778" lon="5.6891694356">
		<tag k="alt_name" v="Kongshamn" />
		<tag k="name" v="Kongshamnen" />
		<tag k="natural" v="bay" />
		<tag k="ssr:stedsnr" v="798170" />
	</node>
	<node id="-508140" lat="61.1639001355" lon="5.82380899286">
		<tag k="alt_name" v="Klævoldsvika;Klevaldsvika" />
		<tag k="name" v="Hamnen" />
		<tag k="natural" v="bay" />
		<tag k="ssr:stedsnr" v="616149" />
	</node>
	<node id="-507626" lat="61.1856555576" lon="5.81536665875">
		<tag k="name" v="Heiterhola" />
		<tag k="natural" v="bay" />
		<tag k="ssr:stedsnr" v="434765" />
	</node>
	<node id="-507113" lat="61.1134000036" lon="6.05834999822">
		<tag k="name" v="Snunane" />
		<tag k="natural" v="bay" />
		<tag k="ssr:stedsnr" v="93752" />
	</node>
	<node id="-508014" lat="61.1637861154" lon="5.76686389171">
		<tag k="name" v="Stormoneset" />
		<tag k="natural" v="cape" />
		<tag k="ssr:stedsnr" v="577530" />
	</node>
	<node id="-507608" lat="61.1626694483" lon="5.91726665792">
		<tag k="name" v="Kyrkjeneset" />
		<tag k="natural" v="cape" />
		<tag k="ssr:stedsnr" v="434436" />
	</node>
	<node id="-507092" lat="61.0952138884" lon="5.6695194404">
		<tag k="name" v="Marifjøra" />
		<tag k="natural" v="bay" />
		<tag k="ssr:stedsnr" v="92683" />
	</node>
	<node id="-507603" lat="61.1193888912" lon="5.88473055002">
		<tag k="alt_name" v="Vambråksvika" />
		<tag k="name" v="Vambråkvika" />
		<tag k="natural" v="bay" />
		<tag k="ssr:stedsnr" v="434404" />
	</node>
	<node id="-507601" lat="61.2108805517" lon="6.07936944286">
		<tag k="name" v="Skjeggestranda" />
		<tag k="natural" v="beach" />
		<tag k="place" v="locality" />
		<tag k="ssr:stedsnr" v="434370" />
	</node>
	<node id="-506574" lat="61.1594112263" lon="5.86871542025">
		<tag k="name" v="Fribeinet" />
		<tag k="natural" v="cape" />
		<tag k="ssr:stedsnr" v="373473" />
	</node>
	<node id="-506570" lat="61.1478555517" lon="6.07716667071">
		<tag k="name" v="Borkaneset" />
		<tag k="natural" v="cape" />
		<tag k="ssr:stedsnr" v="373448" />
	</node>
	<node id="-506569" lat="61.1453222238" lon="6.06106388239">
		<tag k="name" v="Vardaneset" />
		<tag k="natural" v="cape" />
		<tag k="ssr:stedsnr" v="373447" />
	</node>
	<node id="-508103" lat="61.0977833317" lon="5.69147500477">
		<tag k="name" v="Monsenden" />
		<tag k="natural" v="cape" />
		<tag k="ssr:stedsnr" v="615209" />
	</node>
	<node id="-508102" lat="61.1083416707" lon="5.82021667502">
		<tag k="name" v="Naustneset" />
		<tag k="natural" v="cape" />
		<tag k="ssr:stedsnr" v="615203" />
	</node>
	<node id="-506565" lat="61.1973861142" lon="6.0660611046">
		<tag k="alt_name" v="Høyangerfjorden" />
		<tag k="bay" v="fjord" />
		<tag k="name" v="Høyangsfjorden" />
		<tag k="natural" v="bay" />
		<tag k="ssr:stedsnr" v="373407" />
	</node>
	<node id="-508099" lat="61.1256500034" lon="5.58313611255">
		<tag k="name" v="Helvikneset" />
		<tag k="natural" v="cape" />
		<tag k="ssr:stedsnr" v="615124" />
	</node>
	<node id="-508030" lat="61.1306722218" lon="5.90411389101">
		<tag k="name" v="Troneset" />
		<tag k="natural" v="cape" />
		<tag k="ssr:stedsnr" v="577837" />
	</node>
	<node id="-507984" lat="61.1151111148" lon="5.82251111936">
		<tag k="name" v="Hatlevika" />
		<tag k="natural" v="bay" />
		<tag k="ssr:stedsnr" v="576255" />
	</node>
	<node id="-509120" lat="61.0569222254" lon="5.80830832411">
		<tag k="name" v="Fjordstranda" />
		<tag k="natural" v="beach" />
		<tag k="place" v="locality" />
		<tag k="ssr:stedsnr" v="951971" />
	</node>
	<node id="-509119" lat="61.0686333342" lon="5.80317777354">
		<tag k="name" v="Trollsteinen" />
		<tag k="place" v="locality" />
		<tag k="seamark:type" v="rock" />
		<tag k="ssr:stedsnr" v="951970" />
	</node>
	<node id="-509117" lat="61.0687472223" lon="5.80528054657">
		<tag k="name" v="Hestneset" />
		<tag k="natural" v="cape" />
		<tag k="ssr:stedsnr" v="951969" />
	</node>
	<node id="-508600" lat="61.1657444453" lon="5.85243888545">
		<tag k="name" v="Natvikklubben" />
		<tag k="natural" v="cape" />
		<tag k="ssr:stedsnr" v="760880" />
	</node>
	<node id="-507060" lat="61.1146416635" lon="5.56208888654">
		<tag k="name" v="Badevika" />
		<tag k="natural" v="bay" />
		<tag k="ssr:stedsnr" v="92250" />
	</node>
	<node id="-506545" lat="61.0920638888" lon="5.6952999918">
		<tag k="alt_name" v="Sørevika" />
		<tag k="name" v="Sørevikvika" />
		<tag k="natural" v="bay" />
		<tag k="ssr:stedsnr" v="373220" />
	</node>
	<node id="-508073" lat="61.0946055595" lon="5.87017222947">
		<tag k="name" v="Kvitneset" />
		<tag k="natural" v="cape" />
		<tag k="ssr:stedsnr" v="587980" />
	</node>
	<node id="-509096" lat="61.1349083293" lon="5.60056389836">
		<tag k="name" v="Vetleholmen" />
		<tag k="place" v="islet" />
		<tag k="ssr:stedsnr" v="942982" />
	</node>
	<node id="-508071" lat="61.0789833331" lon="5.614391671">
		<tag k="name" v="Ytre Tredalsvika" />
		<tag k="natural" v="bay" />
		<tag k="ssr:stedsnr" v="586758" />
	</node>
	<node id="-506533" lat="61.1252527778" lon="5.58140000771">
		<tag k="name" v="Helvika" />
		<tag k="natural" v="bay" />
		<tag k="ssr:stedsnr" v="373111" />
	</node>
	<node id="-508578" lat="61.1035499969" lon="5.65997777886">
		<tag k="name" v="Kveitevika" />
		<tag k="natural" v="bay" />
		<tag k="ssr:stedsnr" v="760366" />
	</node>
	<node id="-508577" lat="61.1048611096" lon="5.66706389254">
		<tag k="name" v="Krossvikane" />
		<tag k="natural" v="bay" />
		<tag k="ssr:stedsnr" v="760365" />
	</node>
	<node id="-507037" lat="61.1104861143" lon="5.82030278158">
		<tag k="name" v="Mastreholvika" />
		<tag k="natural" v="bay" />
		<tag k="ssr:stedsnr" v="91293" />
	</node>
	<node id="-508572" lat="61.1116194416" lon="5.55493888938">
		<tag k="name" v="Jaktehamnsneset" />
		<tag k="natural" v="cape" />
		<tag k="ssr:stedsnr" v="760258" />
	</node>
	<node id="-508571" lat="61.1151000021" lon="5.5592805492">
		<tag k="name" v="Alværvika" />
		<tag k="natural" v="bay" />
		<tag k="ssr:stedsnr" v="760257" />
	</node>
	<node id="-508570" lat="61.1128722249" lon="5.55178332622">
		<tag k="name" v="Nybøvika" />
		<tag k="natural" v="bay" />
		<tag k="ssr:stedsnr" v="760255" />
	</node>
	<node id="-508056" lat="61.1092555539" lon="6.09601389761">
		<tag k="alt_name" v="Kårtangen" />
		<tag k="name" v="Kåretangkastet" />
		<tag k="natural" v="cape" />
		<tag k="ssr:stedsnr" v="578794" />
	</node>
	<node id="-509077" lat="61.1653333325" lon="5.96265278107">
		<tag k="name" v="Verpingshola" />
		<tag k="natural" v="bay" />
		<tag k="ssr:stedsnr" v="942626" />
	</node>
	<node id="-509038" lat="61.055044447" lon="5.79772778323">
		<tag k="name" v="Navedalsneset" />
		<tag k="natural" v="cape" />
		<tag k="ssr:stedsnr" v="941884" />
	</node>
	<node id="-509073" lat="61.0892750021" lon="5.47079444619">
		<tag k="name" v="Kobbane" />
		<tag k="place" v="islet" />
		<tag k="ssr:stedsnr" v="942567" />
	</node>
	<node id="-507533" lat="61.1782666629" lon="5.99352223019">
		<tag k="name" v="Bergsvika" />
		<tag k="natural" v="bay" />
		<tag k="ssr:stedsnr" v="252446" />
	</node>
	<node id="-506507" lat="61.1410333297" lon="5.63870833737">
		<tag k="name" v="Hamneneset" />
		<tag k="natural" v="cape" />
		<tag k="ssr:stedsnr" v="371492" />
	</node>
	<node id="-509066" lat="61.103566663" lon="5.65346943966">
		<tag k="name" v="Brokabritstoda" />
		<tag k="natural" v="cape" />
		<tag k="ssr:stedsnr" v="942329" />
	</node>
	<node id="-507013" lat="61.1492444476" lon="6.0933027782">
		<tag k="name" v="Rassevæta" />
		<tag k="natural" v="cape" />
		<tag k="ssr:stedsnr" v="70413" />
	</node>
	<node id="-508969" lat="61.0945833306" lon="5.63651388175">
		<tag k="name" v="Klamrevika" />
		<tag k="natural" v="bay" />
		<tag k="ssr:stedsnr" v="919213" />
	</node>
	<node id="-507520" lat="61.1147166644" lon="6.02994443937">
		<tag k="name" v="Dyrdalsneset" />
		<tag k="natural" v="cape" />
		<tag k="ssr:stedsnr" v="252283" />
	</node>
	<node id="-508608" lat="61.1206583374" lon="5.814600007">
		<tag k="name" v="Myrevika" />
		<tag k="natural" v="bay" />
		<tag k="ssr:stedsnr" v="769961" />
	</node>
	<node id="-509054" lat="61.1070694476" lon="5.53806111091">
		<tag k="name" v="Djupevika" />
		<tag k="natural" v="bay" />
		<tag k="ssr:stedsnr" v="942193" />
	</node>
	<node id="-507003" lat="61.1127222225" lon="6.05543887958">
		<tag k="fixme" v="multiple name tags, choose one and add the other to alt_name" />
		<tag k="name" v="Indre Mjølsvikneset;Mjølsvikneset" />
		<tag k="natural" v="cape" />
		<tag k="ssr:stedsnr" v="70281" />
	</node>
	<node id="-507000" lat="61.1690194448" lon="5.9745555635">
		<tag k="name" v="Persneset" />
		<tag k="natural" v="cape" />
		<tag k="ssr:stedsnr" v="70464" />
	</node>
	<node id="-506999" lat="61.164484858" lon="5.96163651042">
		<tag k="name" v="Austreimsneset" />
		<tag k="natural" v="cape" />
		<tag k="ssr:stedsnr" v="70463" />
	</node>
	<node id="-507510" lat="61.0789638875" lon="5.63574444068">
		<tag k="alt_name" v="Storurneset" />
		<tag k="name" v="Storurdneset" />
		<tag k="natural" v="cape" />
		<tag k="ssr:stedsnr" v="252216" />
	</node>
	<node id="-506997" lat="61.0679444419" lon="5.63784167424">
		<tag k="alt_name" v="Rambergneset" />
		<tag k="name" v="Ramnbergneset" />
		<tag k="natural" v="cape" />
		<tag k="ssr:stedsnr" v="70197" />
	</node>
	<node id="-506302" lat="61.1745472242" lon="5.80306110804">
		<tag k="alt_name" v="Kyraneset" />
		<tag k="name" v="Kyreneset" />
		<tag k="natural" v="cape" />
		<tag k="ssr:stedsnr" v="274519" />
	</node>
	<node id="-506990" lat="61.1607499969" lon="5.82993056471">
		<tag k="name" v="Klevaldsneset" />
		<tag k="natural" v="cape" />
		<tag k="ssr:stedsnr" v="70136" />
	</node>
	<node id="-507501" lat="61.0992499997" lon="5.49526110899">
		<tag k="name" v="Svalhammaren" />
		<tag k="natural" v="cape" />
		<tag k="ssr:stedsnr" v="252117" />
	</node>
	<node id="-508690" lat="61.1583444468" lon="5.72939165872">
		<tag k="name" v="Fureholmen" />
		<tag k="place" v="islet" />
		<tag k="ssr:stedsnr" v="798805" />
	</node>
	<node id="-508004" lat="61.1158499998" lon="6.02302500419">
		<tag k="name" v="Mattvika" />
		<tag k="natural" v="bay" />
		<tag k="ssr:stedsnr" v="577063" />
	</node>
	<node id="-506979" lat="61.0803611086" lon="5.61275000222">
		<tag k="alt_name" v="Holmen" />
		<tag k="name" v="Bukkeholmen" />
		<tag k="place" v="islet" />
		<tag k="ssr:stedsnr" v="70228" />
	</node>
	<node id="-509025" lat="61.0659222254" lon="5.64343889699">
		<tag k="name" v="Grautevika" />
		<tag k="natural" v="bay" />
		<tag k="ssr:stedsnr" v="941488" />
	</node>
	<node id="-507488" lat="61.193811109" lon="5.79819445303">
		<tag k="name" v="Bugen" />
		<tag k="natural" v="bay" />
		<tag k="ssr:stedsnr" v="251865" />
	</node>
	<node id="-508687" lat="61.1654724562" lon="5.85109248194">
		<tag k="name" v="Nattvikane" />
		<tag k="natural" v="bay" />
		<tag k="ssr:stedsnr" v="798441" />
	</node>
	<node id="-508072" lat="61.1251749996" lon="5.89014444029">
		<tag k="name" v="Verpeneset" />
		<tag k="natural" v="cape" />
		<tag k="ssr:stedsnr" v="587978" />
	</node>
	<node id="-507924" lat="61.1491694482" lon="5.7211944458">
		<tag k="name" v="Breidvika" />
		<tag k="natural" v="bay" />
		<tag k="ssr:stedsnr" v="555132" />
	</node>
	<node id="-509010" lat="61.164888892" lon="5.85833054993">
		<tag k="name" v="Frivika" />
		<tag k="natural" v="bay" />
		<tag k="ssr:stedsnr" v="920447" />
	</node>
	<node id="-508003" lat="61.1167194461" lon="6.01880000051">
		<tag k="name" v="Fenaneset" />
		<tag k="natural" v="cape" />
		<tag k="ssr:stedsnr" v="577059" />
	</node>
	<node id="-508496" lat="61.0628083302" lon="5.65459166813">
		<tag k="name" v="Ikjeneset" />
		<tag k="natural" v="cape" />
		<tag k="ssr:stedsnr" v="737197" />
	</node>
	<node id="-508493" lat="61.1457805593" lon="5.65731388951">
		<tag k="name" v="Torvundsvika" />
		<tag k="natural" v="bay" />
		<tag k="ssr:stedsnr" v="737169" />
	</node>
	<node id="-508492" lat="61.1501388855" lon="5.61903332772">
		<tag k="alt_name" v="Avenvika" />
		<tag k="name" v="Avebukta" />
		<tag k="natural" v="bay" />
		<tag k="ssr:stedsnr" v="737161" />
	</node>
	<node id="-507466" lat="61.1644055565" lon="5.84215832485">
		<tag k="name" v="Notvika" />
		<tag k="natural" v="bay" />
		<tag k="ssr:stedsnr" v="230843" />
	</node>
	<node id="-507976" lat="61.1591750006" lon="5.73888332768">
		<tag k="name" v="Storholmen" />
		<tag k="place" v="islet" />
		<tag k="ssr:stedsnr" v="555828" />
	</node>
	<node id="-508487" lat="61.113869442" lon="5.55953888464">
		<tag k="name" v="Alverholmen" />
		<tag k="place" v="islet" />
		<tag k="ssr:stedsnr" v="737133" />
	</node>
	<node id="-507462" lat="61.1195555511" lon="5.82501944292">
		<tag k="name" v="Krossflua" />
		<tag k="natural" v="shoal" />
		<tag k="place" v="locality" />
		<tag k="ssr:stedsnr" v="223976" />
	</node>
	<node id="-506949" lat="61.1482527778" lon="6.04950832914">
		<tag k="name" v="Klubben" />
		<tag k="natural" v="cape" />
		<tag k="ssr:stedsnr" v="68474" />
	</node>
	<node id="-507460" lat="61.1132749997" lon="5.77420833141">
		<tag k="name" v="Åkrevika" />
		<tag k="natural" v="bay" />
		<tag k="ssr:stedsnr" v="223972" />
	</node>
	<node id="-506947" lat="61.170355554" lon="5.98248055618">
		<tag k="name" v="Klubben" />
		<tag k="natural" v="cape" />
		<tag k="ssr:stedsnr" v="68470" />
	</node>
	<node id="-507456" lat="61.1872611109" lon="5.81515277549">
		<tag k="name" v="Eiterhola" />
		<tag k="natural" v="bay" />
		<tag k="ssr:stedsnr" v="223061" />
	</node>
	<node id="-507455" lat="61.1486277757" lon="6.07339722742">
		<tag k="name" v="Mårebukta" />
		<tag k="natural" v="bay" />
		<tag k="ssr:stedsnr" v="223562" />
	</node>
	<node id="-507450" lat="61.1411222221" lon="5.63223889442">
		<tag k="name" v="Merkinggardsvika" />
		<tag k="natural" v="bay" />
		<tag k="ssr:stedsnr" v="214951" />
	</node>
	<node id="-508984" lat="61.1283888879" lon="5.95435000671">
		<tag k="name" v="Holmevika" />
		<tag k="natural" v="bay" />
		<tag k="ssr:stedsnr" v="919449" />
	</node>
	<node id="-507956" lat="61.1616250026" lon="5.92784165789">
		<tag k="alt_name" v="Haalandsneset" />
		<tag k="name" v="Hålandsneset" />
		<tag k="natural" v="cape" />
		<tag k="ssr:stedsnr" v="555425" />
	</node>
	<node id="-507955" lat="61.1497222243" lon="6.0850055596">
		<tag k="alt_name" v="Flætevika" />
		<tag k="name" v="Fletviki" />
		<tag k="natural" v="bay" />
		<tag k="ssr:stedsnr" v="555416" />
	</node>
	<node id="-508978" lat="61.2103472223" lon="6.0788416644">
		<tag k="name" v="Sæbøneset" />
		<tag k="natural" v="cape" />
		<tag k="ssr:stedsnr" v="919405" />
	</node>
	<node id="-507953" lat="61.1115499998" lon="5.85696111934">
		<tag k="alt_name" v="Eiesberget" />
		<tag k="name" v="Eidesberget" />
		<tag k="natural" v="cape" />
		<tag k="ssr:stedsnr" v="555395" />
	</node>
	<node id="-506927" lat="61.1701194454" lon="5.82139999267">
		<tag k="name" v="Ulvehovden" />
		<tag k="natural" v="cape" />
		<tag k="ssr:stedsnr" v="32793" />
	</node>
	<node id="-507438" lat="61.0822638924" lon="5.81229999204">
		<tag k="name" v="Lernesplassen" />
		<tag k="natural" v="beach" />
		<tag k="place" v="locality" />
		<tag k="ssr:stedsnr" v="214636" />
	</node>
	<node id="-508460" lat="61.1885000024" lon="5.79760278672">
		<tag k="name" v="Mjåvika" />
		<tag k="natural" v="bay" />
		<tag k="ssr:stedsnr" v="708077" />
	</node>
	<node id="-508383" lat="61.1602638926" lon="5.71943333734">
		<tag k="name" v="Båtstøvika" />
		<tag k="natural" v="bay" />
		<tag k="ssr:stedsnr" v="698680" />
	</node>
	<node id="-506409" lat="61.1668472256" lon="5.96572221761">
		<tag k="name" v="Hersvika" />
		<tag k="natural" v="bay" />
		<tag k="ssr:stedsnr" v="313459" />
	</node>
	<node id="-507432" lat="61.172877778" lon="5.80316667585">
		<tag k="name" v="Nautevikane" />
		<tag k="natural" v="bay" />
		<tag k="ssr:stedsnr" v="214537" />
	</node>
	<node id="-508966" lat="61.1472999995" lon="5.66237777895">
		<tag k="name" v="Hageneset" />
		<tag k="natural" v="cape" />
		<tag k="ssr:stedsnr" v="919165" />
	</node>
	<node id="-508485" lat="61.1468555516" lon="5.72554443752">
		<tag k="alt_name" v="Gulvikholmen" />
		<tag k="name" v="Gullvikeholmen" />
		<tag k="place" v="islet" />
		<tag k="ssr:stedsnr" v="737118" />
	</node>
	<node id="-508447" lat="61.1367249999" lon="5.60202221452">
		<tag k="name" v="Storeholmen" />
		<tag k="place" v="islet" />
		<tag k="ssr:stedsnr" v="699983" />
	</node>
	<node id="-506902" lat="61.1673694476" lon="5.96571111046">
		<tag k="name" v="Hesjingefjøra" />
		<tag k="natural" v="bay" />
		<tag k="ssr:stedsnr" v="32263" />
	</node>
	<node id="-507993" lat="61.1640444422" lon="5.72266666803">
		<tag k="name" v="Askevika" />
		<tag k="natural" v="bay" />
		<tag k="ssr:stedsnr" v="576726" />
	</node>
	<node id="-506900" lat="61.1208277817" lon="5.57249167441">
		<tag k="name" v="Kvernhusvika" />
		<tag k="natural" v="bay" />
		<tag k="ssr:stedsnr" v="32204" />
	</node>
	<node id="-508434" lat="61.210719445" lon="5.73815555949">
		<tag k="name" v="Bergulfsneset" />
		<tag k="natural" v="cape" />
		<tag k="ssr:stedsnr" v="699717" />
	</node>
	<node id="-507921" lat="61.1199305545" lon="5.82150555658">
		<tag k="alt_name" v="Krossneset" />
		<tag k="name" v="Krossen" />
		<tag k="natural" v="cape" />
		<tag k="ssr:stedsnr" v="555112" />
	</node>
	<node id="-506384" lat="61.154475003" lon="6.12271944588">
		<tag k="name" v="Gullbergviki" />
		<tag k="natural" v="bay" />
		<tag k="ssr:stedsnr" v="312436" />
	</node>
	<node id="-507404" lat="61.1480000003" lon="5.72098611387">
		<tag k="name" v="Ospevika" />
		<tag k="natural" v="bay" />
		<tag k="ssr:stedsnr" v="213731" />
	</node>
	<node id="-506887" lat="61.1308416705" lon="5.92015000051">
		<tag k="name" v="Gjerdeneset" />
		<tag k="natural" v="cape" />
		<tag k="ssr:stedsnr" v="31822" />
	</node>
	<node id="-506886" lat="61.1307555562" lon="5.92430278449">
		<tag k="name" v="Merkeneset" />
		<tag k="natural" v="cape" />
		<tag k="ssr:stedsnr" v="31821" />
	</node>
	<node id="-508420" lat="61.1830361072" lon="5.79882777985">
		<tag k="name" v="Skaffarjorda" />
		<tag k="natural" v="beach" />
		<tag k="place" v="locality" />
		<tag k="ssr:stedsnr" v="699533" />
	</node>
	<node id="-506370" lat="61.1011666636" lon="5.51898054805">
		<tag k="alt_name" v="Støyteneset" />
		<tag k="name" v="Støytneset" />
		<tag k="natural" v="cape" />
		<tag k="ssr:stedsnr" v="312127" />
	</node>
	<node id="-508876" lat="61.1581333365" lon="6.01665556179">
		<tag k="name" v="Skumsøyrneset" />
		<tag k="natural" v="cape" />
		<tag k="ssr:stedsnr" v="859425" />
	</node>
</osm>
