<?xml version="1.0" encoding="UTF-8"?>
<osm generator="osmapis" version="0.6">
	<node id="-507901" lat="61.1420019605" lon="5.59278139927">
		<tag k="fixme" v="consider place=hamlet" />
		<tag k="name" v="Råsberg" />
		<tag k="place" v="farm" />
		<tag k="ssr:stedsnr" v="554195" />
	</node>
	<node id="-507890" lat="61.1153666683" lon="5.34936667027">
		<tag k="name" v="Maurstedet" />
		<tag k="place" v="isolated_dwelling" />
		<tag k="ssr:stedsnr" v="526173" />
	</node>
	<node id="-507867" lat="61.2236222184" lon="5.95023056021">
		<tag k="historic" v="shieling" />
		<tag k="name" v="Ulldalstølane" />
		<tag k="place" v="locality" />
		<tag k="ssr:stedsnr" v="517729" />
	</node>
	<node id="-507856" lat="61.1172222215" lon="5.48953332457">
		<tag k="historic" v="shieling" />
		<tag k="name" v="Prestestølen" />
		<tag k="place" v="locality" />
		<tag k="ssr:stedsnr" v="517545" />
	</node>
	<node id="-507812" lat="61.0568990645" lon="5.65214775774">
		<tag k="fixme" v="consider place=hamlet" />
		<tag k="name" v="Kroken" />
		<tag k="place" v="farm" />
		<tag k="ssr:stedsnr" v="516002" />
	</node>
	<node id="-507811" lat="61.2106784064" lon="5.83577357958">
		<tag k="fixme" v="consider place=hamlet" />
		<tag k="name" v="Hovland" />
		<tag k="place" v="farm" />
		<tag k="ssr:stedsnr" v="495823" />
	</node>
	<node id="-507804" lat="61.1585000016" lon="6.07380277492">
		<tag k="historic" v="shieling" />
		<tag k="name" v="Kleivestølen" />
		<tag k="place" v="locality" />
		<tag k="ssr:stedsnr" v="495455" />
	</node>
	<node id="-507780" lat="61.2188248592" lon="5.66775524302">
		<tag k="alt_name" v="Vik;Skitnevik" />
		<tag k="fixme" v="consider place=hamlet" />
		<tag k="name" v="Vika" />
		<tag k="place" v="farm" />
		<tag k="ssr:stedsnr" v="494734" />
	</node>
	<node id="-507778" lat="61.1677555598" lon="5.86103887951">
		<tag k="name" v="Fristad" />
		<tag k="place" v="farm" />
		<tag k="ssr:stedsnr" v="494463" />
	</node>
	<node id="-507775" lat="61.1488861109" lon="6.08071666152">
		<tag k="name" v="Måren" />
		<tag k="place" v="farm" />
		<tag k="ssr:stedsnr" v="494428" />
	</node>
	<node id="-507774" lat="61.1284914513" lon="5.96501179236">
		<tag k="alt_name" v="Heggenes" />
		<tag k="fixme" v="consider place=hamlet" />
		<tag k="name" v="Heggeneset" />
		<tag k="place" v="farm" />
		<tag k="ssr:stedsnr" v="494418" />
	</node>
	<node id="-507761" lat="61.1833568012" lon="5.99664798771">
		<tag k="alt_name" v="Indre Berge" />
		<tag k="fixme" v="consider place=hamlet" />
		<tag k="name" v="Indreberge" />
		<tag k="place" v="farm" />
		<tag k="ssr:stedsnr" v="494351" />
	</node>
	<node id="-507757" lat="61.1131583364" lon="6.13123055594">
		<tag k="alt_name" v="Fagernes" />
		<tag k="name" v="Fagerneset" />
		<tag k="place" v="farm" />
		<tag k="ssr:stedsnr" v="494288" />
	</node>
	<node id="-507756" lat="61.1090782521" lon="6.13616015759">
		<tag k="alt_name" v="Fitje" />
		<tag k="fixme" v="consider place=hamlet" />
		<tag k="name" v="Fitjane" />
		<tag k="place" v="farm" />
		<tag k="ssr:stedsnr" v="494275" />
	</node>
	<node id="-507754" lat="61.1040333312" lon="6.14870833214">
		<tag k="historic" v="shieling" />
		<tag k="name" v="Fitjebotnen" />
		<tag k="place" v="locality" />
		<tag k="ssr:stedsnr" v="494270" />
	</node>
	<node id="-507747" lat="61.0972608544" lon="5.72144169997">
		<tag k="alt_name" v="Vikum Søndre" />
		<tag k="fixme" v="consider place=hamlet" />
		<tag k="name" v="Sørevik" />
		<tag k="place" v="farm" />
		<tag k="ssr:stedsnr" v="494204" />
	</node>
	<node id="-507746" lat="61.0926194448" lon="5.47294167089">
		<tag k="alt_name" v="Værholm;Verholmen, nedre;Nedre Værholm" />
		<tag k="name" v="Nedre Verholmen" />
		<tag k="place" v="farm" />
		<tag k="ssr:stedsnr" v="494200" />
	</node>
	<node id="-507744" lat="61.2438888859" lon="6.15168611915">
		<tag k="alt_name" v="Ekreng" />
		<tag k="historic" v="shieling" />
		<tag k="name" v="Ekrene" />
		<tag k="place" v="locality" />
		<tag k="ssr:stedsnr" v="494102" />
	</node>
	<node id="-507740" lat="61.0679626902" lon="5.80562511914">
		<tag k="fixme" v="consider place=hamlet" />
		<tag k="name" v="Hest" />
		<tag k="place" v="farm" />
		<tag k="ssr:stedsnr" v="494049" />
	</node>
	<node id="-508870" lat="61.2136861097" lon="5.98157222139">
		<tag k="historic" v="shieling" />
		<tag k="name" v="Bergsteinkvia" />
		<tag k="place" v="locality" />
		<tag k="ssr:stedsnr" v="859399" />
	</node>
	<node id="-507719" lat="60.9642916704" lon="5.70547499604">
		<tag k="historic" v="shieling" />
		<tag k="name" v="Stordalsstølen" />
		<tag k="place" v="locality" />
		<tag k="ssr:stedsnr" v="493293" />
	</node>
	<node id="-507641" lat="61.0749111153" lon="5.82213055836">
		<tag k="name" v="Kleivegården" />
		<tag k="place" v="farm" />
		<tag k="ssr:stedsnr" v="455383" />
	</node>
	<node id="-508883" lat="61.2166890306" lon="5.75071037482">
		<tag k="alt_name" v="Rørvik" />
		<tag k="fixme" v="consider place=hamlet" />
		<tag k="name" v="Røyrvika" />
		<tag k="place" v="farm" />
		<tag k="ssr:stedsnr" v="859727" />
	</node>
	<node id="-507632" lat="61.1865666679" lon="5.53831665739">
		<tag k="alt_name" v="Strandosstølane" />
		<tag k="historic" v="shieling" />
		<tag k="name" v="Strandosstølen" />
		<tag k="place" v="locality" />
		<tag k="ssr:stedsnr" v="434795" />
	</node>
	<node id="-507624" lat="61.1894750042" lon="5.51746110352">
		<tag k="name" v="Sørestrandsstølen" />
		<tag k="place" v="locality" />
		<tag k="ssr:stedsnr" v="434753" />
	</node>
	<node id="-507615" lat="61.1579316906" lon="5.4952487277">
		<tag k="alt_name" v="Stølsbotn" />
		<tag k="fixme" v="consider place=hamlet" />
		<tag k="name" v="Stølsbotnen" />
		<tag k="place" v="farm" />
		<tag k="ssr:stedsnr" v="434819" />
	</node>
	<node id="-507610" lat="61.1733333325" lon="5.90939722689">
		<tag k="historic" v="shieling" />
		<tag k="name" v="Naveset" />
		<tag k="place" v="locality" />
		<tag k="ssr:stedsnr" v="434448" />
	</node>
	<node id="-507607" lat="61.1536027806" lon="6.07866389268">
		<tag k="name" v="Måren" />
		<tag k="place" v="farm" />
		<tag k="ssr:stedsnr" v="434424" />
	</node>
	<node id="-507605" lat="61.166516668" lon="6.0906361069">
		<tag k="alt_name" v="Bakkebø" />
		<tag k="historic" v="shieling" />
		<tag k="name" v="Bakkabø" />
		<tag k="place" v="locality" />
		<tag k="ssr:stedsnr" v="434409" />
	</node>
	<node id="-507604" lat="61.121333335" lon="5.9658555571">
		<tag k="historic" v="shieling" />
		<tag k="name" v="Heggenesstølen" />
		<tag k="place" v="locality" />
		<tag k="ssr:stedsnr" v="434406" />
	</node>
	<node id="-507602" lat="61.1284964147" lon="5.94076649385">
		<tag k="fixme" v="multiple name tags, choose one and add the other to alt_name; consider place=hamlet" />
		<tag k="name" v="Skultestronda;Strand" />
		<tag k="place" v="farm" />
		<tag k="ssr:stedsnr" v="434401" />
	</node>
	<node id="-507600" lat="61.1818194473" lon="5.86347223008">
		<tag k="historic" v="shieling" />
		<tag k="name" v="Frivikstølen" />
		<tag k="place" v="locality" />
		<tag k="ssr:stedsnr" v="434364" />
	</node>
	<node id="-507599" lat="61.2018055516" lon="6.11789722625">
		<tag k="alt_name" v="Tua" />
		<tag k="historic" v="shieling" />
		<tag k="name" v="Tuva" />
		<tag k="place" v="locality" />
		<tag k="ssr:stedsnr" v="434362" />
	</node>
	<node id="-507598" lat="61.1946055579" lon="6.02186111144">
		<tag k="historic" v="shieling" />
		<tag k="name" v="Karthaugane" />
		<tag k="place" v="locality" />
		<tag k="ssr:stedsnr" v="434357" />
	</node>
	<node id="-507595" lat="61.1822083303" lon="5.99413333631">
		<tag k="name" v="Berge" />
		<tag k="place" v="hamlet" />
		<tag k="ssr:stedsnr" v="434337" />
	</node>
	<node id="-507592" lat="61.0906194405" lon="5.94961389698">
		<tag k="alt_name" v="Dyrdalstølen" />
		<tag k="historic" v="shieling" />
		<tag k="name" v="Dyrdalsstølen" />
		<tag k="place" v="locality" />
		<tag k="ssr:stedsnr" v="434252" />
	</node>
	<node id="-507586" lat="61.1009500018" lon="5.65302778593">
		<tag k="name" v="Fridtun" />
		<tag k="place" v="farm" />
		<tag k="ssr:stedsnr" v="434204" />
	</node>
	<node id="-507585" lat="61.1430500027" lon="5.57450554759">
		<tag k="alt_name" v="Råsbergstølen" />
		<tag k="historic" v="shieling" />
		<tag k="name" v="Bergsstølen" />
		<tag k="place" v="locality" />
		<tag k="ssr:stedsnr" v="434171" />
	</node>
	<node id="-507584" lat="61.1539625804" lon="5.71516982715">
		<tag k="fixme" v="consider place=hamlet" />
		<tag k="name" v="Mjellelia" />
		<tag k="place" v="farm" />
		<tag k="ssr:stedsnr" v="434164" />
	</node>
	<node id="-507582" lat="61.1222750011" lon="5.80746666216">
		<tag k="name" v="Svartemyr" />
		<tag k="place" v="farm" />
		<tag k="ssr:stedsnr" v="434134" />
	</node>
	<node id="-507581" lat="61.1247361121" lon="5.7987638866">
		<tag k="alt_name" v="Åkreholmen;Holmen" />
		<tag k="name" v="Åkersholmen" />
		<tag k="place" v="farm" />
		<tag k="ssr:stedsnr" v="434127" />
	</node>
	<node id="-507567" lat="61.2327640083" lon="6.109115699">
		<tag k="fixme" v="consider place=hamlet" />
		<tag k="name" v="Dale" />
		<tag k="place" v="farm" />
		<tag k="ssr:stedsnr" v="434049" />
	</node>
	<node id="-507564" lat="61.055099998" lon="5.75128056384">
		<tag k="alt_name" v="Oslandstølen" />
		<tag k="historic" v="shieling" />
		<tag k="name" v="Oslandsstølen" />
		<tag k="place" v="locality" />
		<tag k="ssr:stedsnr" v="434021" />
	</node>
	<node id="-507555" lat="61.2659444443" lon="6.23370277785">
		<tag k="name" v="Dalestølen" />
		<tag k="place" v="isolated_dwelling" />
		<tag k="ssr:stedsnr" v="432852" />
	</node>
	<node id="-507549" lat="61.149629052" lon="6.07670841989">
		<tag k="fixme" v="consider place=hamlet" />
		<tag k="name" v="Måren" />
		<tag k="place" v="farm" />
		<tag k="ssr:stedsnr" v="432433" />
	</node>
	<node id="-507541" lat="61.1574313067" lon="5.47571005935">
		<tag k="alt_name" v="Espevik" />
		<tag k="fixme" v="consider place=hamlet" />
		<tag k="name" v="Espevika" />
		<tag k="place" v="farm" />
		<tag k="ssr:stedsnr" v="252830" />
	</node>
	<node id="-507535" lat="61.129501537" lon="5.46701398422">
		<tag k="alt_name" v="Støldal" />
		<tag k="fixme" v="consider place=hamlet" />
		<tag k="name" v="Støldalen" />
		<tag k="place" v="farm" />
		<tag k="ssr:stedsnr" v="252481" />
	</node>
	<node id="-507534" lat="61.1507964755" lon="5.44891145841">
		<tag k="fixme" v="consider place=hamlet" />
		<tag k="name" v="Bruås" />
		<tag k="place" v="farm" />
		<tag k="ssr:stedsnr" v="252473" />
	</node>
	<node id="-507532" lat="61.1669936405" lon="5.94921522483">
		<tag k="fixme" v="consider place=hamlet" />
		<tag k="name" v="Austreim" />
		<tag k="place" v="farm" />
		<tag k="ssr:stedsnr" v="252437" />
	</node>
	<node id="-507531" lat="61.1647406643" lon="5.92594931842">
		<tag k="alt_name" v="Ramsli" />
		<tag k="fixme" v="consider place=hamlet" />
		<tag k="name" v="Ramslia" />
		<tag k="place" v="farm" />
		<tag k="ssr:stedsnr" v="252435" />
	</node>
	<node id="-507528" lat="61.1734555546" lon="6.09700832885">
		<tag k="historic" v="shieling" />
		<tag k="name" v="Nyestølen" />
		<tag k="place" v="locality" />
		<tag k="ssr:stedsnr" v="252420" />
	</node>
	<node id="-507522" lat="61.1733888915" lon="5.84364165941">
		<tag k="historic" v="shieling" />
		<tag k="name" v="Gamlestølen" />
		<tag k="place" v="locality" />
		<tag k="ssr:stedsnr" v="252353" />
	</node>
	<node id="-507519" lat="61.0891111139" lon="6.03435000554">
		<tag k="historic" v="shieling" />
		<tag k="name" v="Heimestølen" />
		<tag k="place" v="locality" />
		<tag k="ssr:stedsnr" v="252261" />
	</node>
	<node id="-507518" lat="61.0730472228" lon="5.84960000033">
		<tag k="historic" v="shieling" />
		<tag k="name" v="Gamlestølen" />
		<tag k="place" v="locality" />
		<tag k="ssr:stedsnr" v="252254" />
	</node>
	<node id="-507517" lat="61.0698835776" lon="5.92144294632">
		<tag k="alt_name" v="Østerbø" />
		<tag k="fixme" v="consider place=hamlet" />
		<tag k="name" v="Øystrebø" />
		<tag k="place" v="farm" />
		<tag k="ssr:stedsnr" v="252249" />
	</node>
	<node id="-507502" lat="61.1188111067" lon="5.81946111084">
		<tag k="name" v="Krossmo" />
		<tag k="place" v="farm" />
		<tag k="ssr:stedsnr" v="252122" />
	</node>
	<node id="-508861" lat="61.102202762" lon="6.12973427945">
		<tag k="fixme" v="consider place=hamlet" />
		<tag k="name" v="Brekke" />
		<tag k="place" v="farm" />
		<tag k="ssr:stedsnr" v="859258" />
	</node>
	<node id="-507486" lat="60.9970611099" lon="5.74420833021">
		<tag k="historic" v="shieling" />
		<tag k="name" v="Nystølen" />
		<tag k="place" v="locality" />
		<tag k="ssr:stedsnr" v="251762" />
	</node>
	<node id="-508517" lat="61.2217361071" lon="5.80394444023">
		<tag k="historic" v="shieling" />
		<tag k="name" v="Ytredalsstølen" />
		<tag k="place" v="locality" />
		<tag k="ssr:stedsnr" v="737745" />
	</node>
	<node id="-507484" lat="61.1207492477" lon="5.89073373742">
		<tag k="alt_name" v="Vambråk" />
		<tag k="fixme" v="consider place=hamlet" />
		<tag k="name" v="Vambråka" />
		<tag k="place" v="farm" />
		<tag k="ssr:stedsnr" v="251461" />
	</node>
	<node id="-507482" lat="61.2071527743" lon="6.0212361026">
		<tag k="name" v="Trepet" />
		<tag k="place" v="isolated_dwelling" />
		<tag k="ssr:stedsnr" v="251430" />
	</node>
	<node id="-507481" lat="61.2357611085" lon="6.21878056073">
		<tag k="historic" v="shieling" />
		<tag k="name" v="Eringsdalsstølen" />
		<tag k="place" v="locality" />
		<tag k="ssr:stedsnr" v="251346" />
	</node>
	<node id="-507479" lat="61.1421256191" lon="5.60553756386">
		<tag k="fixme" v="consider place=hamlet" />
		<tag k="name" v="Rå" />
		<tag k="place" v="farm" />
		<tag k="ssr:stedsnr" v="251205" />
	</node>
	<node id="-507478" lat="61.1435638886" lon="5.63648611106">
		<tag k="alt_name" v="Vareleite" />
		<tag k="name" v="Vardeleitet" />
		<tag k="place" v="farm" />
		<tag k="ssr:stedsnr" v="251187" />
	</node>
	<node id="-507474" lat="61.2568999959" lon="6.27232222824">
		<tag k="name" v="Heibotnen" />
		<tag k="place" v="isolated_dwelling" />
		<tag k="ssr:stedsnr" v="250823" />
	</node>
	<node id="-507471" lat="61.2815388891" lon="6.11317499435">
		<tag k="name" v="Gamlestølen" />
		<tag k="place" v="locality" />
		<tag k="ssr:stedsnr" v="250578" />
	</node>
	<node id="-507467" lat="61.0694416642" lon="5.8115333417">
		<tag k="name" v="Hest" />
		<tag k="place" v="farm" />
		<tag k="ssr:stedsnr" v="238731" />
	</node>
	<node id="-507459" lat="61.0966916643" lon="5.72910555529">
		<tag k="name" v="Brennsæter" />
		<tag k="place" v="isolated_dwelling" />
		<tag k="ssr:stedsnr" v="223797" />
	</node>
	<node id="-507458" lat="61.0577027745" lon="5.65546944213">
		<tag k="fixme" v="consider place=hamlet" />
		<tag k="name" v="Ikjefjord" />
		<tag k="place" v="village" />
		<tag k="ssr:stedsnr" v="223798" />
	</node>
	<node id="-507457" lat="61.1107888911" lon="5.49406111394">
		<tag k="name" v="Basel" />
		<tag k="place" v="farm" />
		<tag k="ssr:stedsnr" v="223157" />
	</node>
	<node id="-507422" lat="61.1850583342" lon="5.48279721815">
		<tag k="historic" v="shieling" />
		<tag k="name" v="Nordstrandstølen" />
		<tag k="place" v="locality" />
		<tag k="ssr:stedsnr" v="214157" />
	</node>
	<node id="-507403" lat="61.1559222262" lon="5.72233888577">
		<tag k="name" v="Gjerde" />
		<tag k="place" v="farm" />
		<tag k="ssr:stedsnr" v="213718" />
	</node>
	<node id="-507386" lat="61.0649861124" lon="5.68913610896">
		<tag k="name" v="Sprakane" />
		<tag k="place" v="farm" />
		<tag k="ssr:stedsnr" v="213315" />
	</node>
	<node id="-507377" lat="61.0535138879" lon="5.705033328">
		<tag k="historic" v="shieling" />
		<tag k="name" v="Vårstølen" />
		<tag k="place" v="locality" />
		<tag k="ssr:stedsnr" v="213082" />
	</node>
	<node id="-507372" lat="61.1493055541" lon="6.07431944143">
		<tag k="fixme" v="consider place=hamlet" />
		<tag k="name" v="Måren" />
		<tag k="place" v="village" />
		<tag k="ssr:stedsnr" v="208245" />
	</node>
	<node id="-507367" lat="61.2334328554" lon="5.82321438764">
		<tag k="alt_name" v="Ytredal" />
		<tag k="fixme" v="consider place=hamlet" />
		<tag k="name" v="Ytredalen" />
		<tag k="place" v="farm" />
		<tag k="ssr:stedsnr" v="191957" />
	</node>
	<node id="-507364" lat="61.1727500019" lon="5.78256388467">
		<tag k="alt_name" v="Vattekårstølen" />
		<tag k="historic" v="shieling" />
		<tag k="name" v="Vattekarstølen" />
		<tag k="place" v="locality" />
		<tag k="ssr:stedsnr" v="191821" />
	</node>
	<node id="-507363" lat="61.1745000016" lon="5.82908889113">
		<tag k="alt_name" v="Grøndalen" />
		<tag k="historic" v="shieling" />
		<tag k="name" v="Grøndalsstølen" />
		<tag k="place" v="locality" />
		<tag k="ssr:stedsnr" v="191818" />
	</node>
	<node id="-507358" lat="61.1781416628" lon="5.69291110857">
		<tag k="historic" v="shieling" />
		<tag k="name" v="Tjørnebotnsstølen" />
		<tag k="place" v="locality" />
		<tag k="ssr:stedsnr" v="191777" />
	</node>
	<node id="-507353" lat="61.2221962717" lon="5.83605116367">
		<tag k="alt_name" v="Skaar" />
		<tag k="fixme" v="consider place=hamlet" />
		<tag k="name" v="Skardet" />
		<tag k="place" v="farm" />
		<tag k="ssr:stedsnr" v="191701" />
	</node>
	<node id="-507351" lat="61.0855805581" lon="5.45387221997">
		<tag k="alt_name" v="Hellebøen, indre" />
		<tag k="name" v="Indre Hellebøen" />
		<tag k="place" v="farm" />
		<tag k="ssr:stedsnr" v="191548" />
	</node>
	<node id="-507350" lat="61.0946440313" lon="5.46521191838">
		<tag k="alt_name" v="Øvre Værholm;Verholmen, øvre" />
		<tag k="name" v="Øvre Verholmen" />
		<tag k="place" v="farm" />
		<tag k="ssr:stedsnr" v="191537" />
	</node>
	<node id="-507349" lat="61.1437569224" lon="5.45666491607">
		<tag k="name" v="Haugane" />
		<tag k="place" v="farm" />
		<tag k="ssr:stedsnr" v="191499" />
	</node>
	<node id="-507340" lat="61.0251750043" lon="5.88831389619">
		<tag k="historic" v="shieling" />
		<tag k="name" v="Sørebøstølen" />
		<tag k="place" v="locality" />
		<tag k="ssr:stedsnr" v="191329" />
	</node>
	<node id="-507338" lat="61.010833334" lon="6.1358861095">
		<tag k="name" v="Solrenningane" />
		<tag k="place" v="isolated_dwelling" />
		<tag k="ssr:stedsnr" v="191319" />
	</node>
	<node id="-507334" lat="61.1083333363" lon="6.1310583408">
		<tag k="fixme" v="consider place=hamlet" />
		<tag k="name" v="Ortnevik" />
		<tag k="old_name" v="Ortnevikane" />
		<tag k="place" v="village" />
		<tag k="ssr:stedsnr" v="191257" />
	</node>
	<node id="-507327" lat="61.084158917" lon="5.81781067597">
		<tag k="fixme" v="consider place=hamlet" />
		<tag k="name" v="Leirnes" />
		<tag k="place" v="farm" />
		<tag k="ssr:stedsnr" v="191219" />
	</node>
	<node id="-507324" lat="61.0902673299" lon="5.46899989429">
		<tag k="alt_name" v="Værholm;Verholmen, ytre" />
		<tag k="name" v="Ytre Verholmen" />
		<tag k="place" v="farm" />
		<tag k="ssr:stedsnr" v="191190" />
	</node>
	<node id="-507321" lat="61.1368577893" lon="5.4990192418">
		<tag k="fixme" v="consider place=hamlet" />
		<tag k="name" v="Mølmesdalen" />
		<tag k="place" v="farm" />
		<tag k="ssr:stedsnr" v="191143" />
	</node>
	<node id="-507316" lat="61.127869446" lon="5.54047499968">
		<tag k="alt_name" v="Tjønnebakkane" />
		<tag k="name" v="Tjørnebakken" />
		<tag k="place" v="farm" />
		<tag k="ssr:stedsnr" v="191101" />
	</node>
	<node id="-507313" lat="61.2453739628" lon="5.84695981394">
		<tag k="fixme" v="consider place=hamlet" />
		<tag k="name" v="Mannebrekka" />
		<tag k="place" v="farm" />
		<tag k="ssr:stedsnr" v="191085" />
	</node>
	<node id="-507258" lat="61.1204944412" lon="5.54270277159">
		<tag k="historic" v="shieling" />
		<tag k="name" v="Nyestølen" />
		<tag k="place" v="locality" />
		<tag k="ssr:stedsnr" v="153252" />
	</node>
	<node id="-507225" lat="61.1631555582" lon="5.57110277803">
		<tag k="historic" v="shieling" />
		<tag k="name" v="Nedrestølen" />
		<tag k="place" v="locality" />
		<tag k="ssr:stedsnr" v="152750" />
	</node>
	<node id="-507204" lat="61.1436138876" lon="5.4659472151">
		<tag k="name" v="Bruland" />
		<tag k="place" v="farm" />
		<tag k="ssr:stedsnr" v="152389" />
	</node>
	<node id="-507200" lat="61.0466555541" lon="5.64052778052">
		<tag k="historic" v="shieling" />
		<tag k="name" v="Vårstølen" />
		<tag k="place" v="locality" />
		<tag k="ssr:stedsnr" v="152053" />
	</node>
	<node id="-507194" lat="61.2167860598" lon="6.07772671563">
		<tag k="fixme" v="consider place=hamlet" />
		<tag k="name" v="Sæbø" />
		<tag k="place" v="farm" />
		<tag k="ssr:stedsnr" v="131402" />
	</node>
	<node id="-507182" lat="61.1784611074" lon="5.56721667211">
		<tag k="alt_name" v="Soleimsstølen" />
		<tag k="historic" v="shieling" />
		<tag k="name" v="Solheimsstølen" />
		<tag k="place" v="locality" />
		<tag k="ssr:stedsnr" v="130782" />
	</node>
	<node id="-507181" lat="61.1822888888" lon="5.63622778485">
		<tag k="alt_name" v="Torvundsstølen, yt" />
		<tag k="historic" v="shieling" />
		<tag k="name" v="Ytre Torvundstølen" />
		<tag k="place" v="locality" />
		<tag k="ssr:stedsnr" v="130779" />
	</node>
	<node id="-507180" lat="61.1803055582" lon="5.74620833733">
		<tag k="alt_name" v="Nordstølen" />
		<tag k="name" v="Nordrestølen" />
		<tag k="place" v="locality" />
		<tag k="ssr:stedsnr" v="130775" />
	</node>
	<node id="-507175" lat="61.2234333359" lon="5.74197778204">
		<tag k="alt_name" v="Rørvikstølen" />
		<tag k="name" v="Røyrvikstølen" />
		<tag k="place" v="isolated_dwelling" />
		<tag k="ssr:stedsnr" v="130735" />
	</node>
	<node id="-507168" lat="61.1973749961" lon="6.05313889703">
		<tag k="name" v="Pylseteigen" />
		<tag k="place" v="farm" />
		<tag k="ssr:stedsnr" v="130367" />
	</node>
	<node id="-507165" lat="61.1930055527" lon="5.99900555497">
		<tag k="alt_name" v="Oppheim" />
		<tag k="historic" v="shieling" />
		<tag k="name" v="Uppheim" />
		<tag k="place" v="locality" />
		<tag k="ssr:stedsnr" v="130358" />
	</node>
	<node id="-507161" lat="61.1807083374" lon="5.93811388521">
		<tag k="historic" v="shieling" />
		<tag k="name" v="Fessene" />
		<tag k="place" v="locality" />
		<tag k="ssr:stedsnr" v="130448" />
	</node>
	<node id="-507148" lat="61.135216887" lon="5.54044533213">
		<tag k="alt_name" v="Bosdal" />
		<tag k="fixme" v="consider place=hamlet" />
		<tag k="name" v="Bossdalen" />
		<tag k="old_name" v="Bøssdalen" />
		<tag k="place" v="farm" />
		<tag k="ssr:stedsnr" v="130097" />
	</node>
	<node id="-507146" lat="61.2458722202" lon="5.8993444477">
		<tag k="historic" v="shieling" />
		<tag k="name" v="Hovlandsstølen" />
		<tag k="place" v="locality" />
		<tag k="ssr:stedsnr" v="130080" />
	</node>
	<node id="-507141" lat="61.0793527792" lon="5.93105555651">
		<tag k="historic" v="shieling" />
		<tag k="name" v="Stigane" />
		<tag k="place" v="locality" />
		<tag k="ssr:stedsnr" v="130256" />
	</node>
	<node id="-507140" lat="61.1639432101" lon="5.77552419458">
		<tag k="alt_name" v="Myrekrokteig;Myrekrok" />
		<tag k="fixme" v="consider place=hamlet" />
		<tag k="name" v="Haukebøen" />
		<tag k="place" v="farm" />
		<tag k="ssr:stedsnr" v="130139" />
	</node>
	<node id="-507139" lat="61.1039977681" lon="5.49875498785">
		<tag k="fixme" v="consider place=hamlet" />
		<tag k="name" v="Lavika" />
		<tag k="place" v="farm" />
		<tag k="ssr:stedsnr" v="130127" />
	</node>
	<node id="-507137" lat="61.1118987282" lon="5.54027016287">
		<tag k="alt_name" v="Ringereide" />
		<tag k="fixme" v="consider place=hamlet" />
		<tag k="name" v="Ringreida" />
		<tag k="place" v="farm" />
		<tag k="ssr:stedsnr" v="130115" />
	</node>
	<node id="-507126" lat="61.2536434026" lon="5.87650613874">
		<tag k="fixme" v="consider place=hamlet" />
		<tag k="name" v="Markeset" />
		<tag k="place" v="farm" />
		<tag k="ssr:stedsnr" v="129567" />
	</node>
	<node id="-509135" lat="61.1617781901" lon="5.71671784732">
		<tag k="alt_name" v="Nordre Vikum" />
		<tag k="fixme" v="consider place=hamlet" />
		<tag k="name" v="Nordrevik" />
		<tag k="place" v="farm" />
		<tag k="ssr:stedsnr" v="974806" />
	</node>
	<node id="-509132" lat="61.0936033842" lon="5.47041900006">
		<tag k="fixme" v="consider place=hamlet" />
		<tag k="name" v="Verholmen" />
		<tag k="place" v="farm" />
		<tag k="ssr:stedsnr" v="974774" />
	</node>
	<node id="-509131" lat="61.1624410863" lon="5.90484521738">
		<tag k="fixme" v="consider place=hamlet" />
		<tag k="name" v="Tronvika" />
		<tag k="place" v="farm" />
		<tag k="ssr:stedsnr" v="974770" />
	</node>
	<node id="-509130" lat="61.1650222783" lon="5.92113877865">
		<tag k="fixme" v="consider place=hamlet" />
		<tag k="name" v="Kyrkjebø" />
		<tag k="place" v="farm" />
		<tag k="ssr:stedsnr" v="974771" />
	</node>
	<node id="-509129" lat="61.2099869257" lon="5.8226760568">
		<tag k="fixme" v="consider place=hamlet" />
		<tag k="name" v="Vadheim" />
		<tag k="place" v="farm" />
		<tag k="ssr:stedsnr" v="974767" />
	</node>
	<node id="-509128" lat="61.1665167686" lon="5.76187783052">
		<tag k="fixme" v="consider place=hamlet" />
		<tag k="name" v="Fruteigen" />
		<tag k="place" v="farm" />
		<tag k="ssr:stedsnr" v="974760" />
	</node>
	<node id="-509127" lat="61.0737159959" lon="5.83441737915">
		<tag k="fixme" v="consider place=hamlet" />
		<tag k="name" v="Bjordal" />
		<tag k="place" v="farm" />
		<tag k="ssr:stedsnr" v="974759" />
	</node>
	<node id="-509126" lat="61.0952508761" lon="5.88157101652">
		<tag k="fixme" v="consider place=hamlet" />
		<tag k="name" v="Søreide" />
		<tag k="place" v="farm" />
		<tag k="ssr:stedsnr" v="974757" />
	</node>
	<node id="-509121" lat="61.1636277774" lon="5.93921389651">
		<tag k="name" v="Håland" />
		<tag k="place" v="quarter" />
		<tag k="ssr:stedsnr" v="952437" />
	</node>
	<node id="-509118" lat="61.0767083337" lon="5.83245000355">
		<tag k="name" v="Bakken" />
		<tag k="place" v="isolated_dwelling" />
		<tag k="ssr:stedsnr" v="951968" />
	</node>
	<node id="-509116" lat="61.1573777744" lon="5.72049445143">
		<tag k="name" v="Botnen" />
		<tag k="place" v="farm" />
		<tag k="ssr:stedsnr" v="951865" />
	</node>
	<node id="-509115" lat="61.1499136535" lon="5.66479749015">
		<tag k="name" v="Torvund" />
		<tag k="place" v="hamlet" />
		<tag k="ssr:stedsnr" v="951794" />
	</node>
	<node id="-509114" lat="61.0833444423" lon="5.39789444064">
		<tag k="name" v="Kleiva" />
		<tag k="place" v="farm" />
		<tag k="ssr:stedsnr" v="951180" />
	</node>
	<node id="-509100" lat="61.2401833378" lon="5.82287222363">
		<tag k="name" v="Langeteigen" />
		<tag k="place" v="locality" />
		<tag k="ssr:stedsnr" v="943574" />
	</node>
	<node id="-507039" lat="61.0936333347" lon="5.90393334171">
		<tag k="name" v="Stølgarden" />
		<tag k="place" v="locality" />
		<tag k="ssr:stedsnr" v="91300" />
	</node>
	<node id="-507033" lat="61.1664006322" lon="5.54238553828">
		<tag k="alt_name" v="Soleim" />
		<tag k="fixme" v="consider place=hamlet" />
		<tag k="name" v="Solheim" />
		<tag k="place" v="farm" />
		<tag k="ssr:stedsnr" v="70848" />
	</node>
	<node id="-507031" lat="61.1573232991" lon="5.54237046432">
		<tag k="alt_name" v="Avedal" />
		<tag k="fixme" v="consider place=hamlet" />
		<tag k="name" v="Avedalen" />
		<tag k="place" v="farm" />
		<tag k="ssr:stedsnr" v="70833" />
	</node>
	<node id="-507029" lat="61.1792250032" lon="5.47563610268">
		<tag k="alt_name" v="Gudmundsos" />
		<tag k="fixme" v="consider place=hamlet" />
		<tag k="name" v="Osen" />
		<tag k="place" v="farm" />
		<tag k="ssr:stedsnr" v="70827" />
	</node>
	<node id="-507022" lat="61.1486277741" lon="5.45439722019">
		<tag k="name" v="Bruheim" />
		<tag k="place" v="farm" />
		<tag k="ssr:stedsnr" v="70503" />
	</node>
	<node id="-507019" lat="61.1635466571" lon="6.08414074567">
		<tag k="alt_name" v="Måredal" />
		<tag k="fixme" v="consider place=hamlet" />
		<tag k="name" v="Måredalen" />
		<tag k="place" v="farm" />
		<tag k="ssr:stedsnr" v="70446" />
	</node>
	<node id="-507002" lat="61.1727222264" lon="5.88971666061">
		<tag k="historic" v="shieling" />
		<tag k="name" v="Gamlestølen" />
		<tag k="place" v="locality" />
		<tag k="ssr:stedsnr" v="70467" />
	</node>
	<node id="-509048" lat="61.1616499955" lon="5.46323332716">
		<tag k="name" v="Gamlestølen" />
		<tag k="place" v="locality" />
		<tag k="ssr:stedsnr" v="942128" />
	</node>
	<node id="-506998" lat="61.1610611086" lon="5.87501944646">
		<tag k="alt_name" v="Friheim" />
		<tag k="name" v="Hola" />
		<tag k="place" v="farm" />
		<tag k="ssr:stedsnr" v="70459" />
	</node>
	<node id="-506996" lat="61.0593861128" lon="5.65604721531">
		<tag k="name" v="Ikjen" />
		<tag k="place" v="farm" />
		<tag k="ssr:stedsnr" v="70195" />
	</node>
	<node id="-506991" lat="61.1614126679" lon="5.80133601074">
		<tag k="fixme" v="consider place=hamlet" />
		<tag k="name" v="Afsneset" />
		<tag k="place" v="farm" />
		<tag k="ssr:stedsnr" v="70140" />
	</node>
	<node id="-506989" lat="61.1046416669" lon="5.53003611174">
		<tag k="name" v="Stranda" />
		<tag k="place" v="farm" />
		<tag k="ssr:stedsnr" v="70130" />
	</node>
	<node id="-506988" lat="61.1139388924" lon="5.54851943832">
		<tag k="name" v="Nybø" />
		<tag k="place" v="farm" />
		<tag k="ssr:stedsnr" v="70125" />
	</node>
	<node id="-506986" lat="61.1167376835" lon="6.17644945203">
		<tag k="fixme" v="consider place=hamlet" />
		<tag k="name" v="Nybø" />
		<tag k="place" v="farm" />
		<tag k="ssr:stedsnr" v="70278" />
	</node>
	<node id="-506985" lat="61.1099206314" lon="6.07116001308">
		<tag k="fixme" v="consider place=hamlet" />
		<tag k="name" v="Sande" />
		<tag k="place" v="farm" />
		<tag k="ssr:stedsnr" v="70276" />
	</node>
	<node id="-506982" lat="61.0704388897" lon="5.95472777099">
		<tag k="historic" v="shieling" />
		<tag k="name" v="Fossestølen" />
		<tag k="place" v="locality" />
		<tag k="ssr:stedsnr" v="70246" />
	</node>
	<node id="-509028" lat="61.1620222203" lon="5.70970833508">
		<tag k="historic" v="shieling" />
		<tag k="name" v="Vårstølen" />
		<tag k="place" v="locality" />
		<tag k="ssr:stedsnr" v="941667" />
	</node>
	<node id="-506977" lat="61.0857575363" lon="5.61938776091">
		<tag k="alt_name" v="Massnesberg;Massnesberget" />
		<tag k="fixme" v="consider place=hamlet" />
		<tag k="name" v="Skreddarneset" />
		<tag k="place" v="farm" />
		<tag k="ssr:stedsnr" v="70218" />
	</node>
	<node id="-506970" lat="61.2288470227" lon="6.08345938889">
		<tag k="fixme" v="consider place=hamlet" />
		<tag k="name" v="Håland" />
		<tag k="place" v="farm" />
		<tag k="ssr:stedsnr" v="70072" />
	</node>
	<node id="-506965" lat="61.0555796693" lon="5.64931844061">
		<tag k="alt_name" v="Brekken" />
		<tag k="fixme" v="consider place=hamlet" />
		<tag k="name" v="Brekka" />
		<tag k="place" v="farm" />
		<tag k="ssr:stedsnr" v="70031" />
	</node>
	<node id="-509011" lat="61.1632118639" lon="5.89360199468">
		<tag k="alt_name" v="Ljotebø" />
		<tag k="fixme" v="consider place=hamlet" />
		<tag k="name" v="Ljotebøen" />
		<tag k="place" v="farm" />
		<tag k="ssr:stedsnr" v="920452" />
	</node>
	<node id="-509006" lat="61.0644515627" lon="5.90330487267">
		<tag k="alt_name" v="Sørbø" />
		<tag k="fixme" v="consider place=hamlet" />
		<tag k="name" v="Sørebø" />
		<tag k="place" v="farm" />
		<tag k="ssr:stedsnr" v="920266" />
	</node>
	<node id="-508999" lat="61.1504950947" lon="5.65481537216">
		<tag k="alt_name" v="Torvund, yt" />
		<tag k="fixme" v="consider place=hamlet" />
		<tag k="name" v="Ytre Torvund" />
		<tag k="place" v="farm" />
		<tag k="ssr:stedsnr" v="920162" />
	</node>
	<node id="-508997" lat="61.2242994224" lon="6.08179821226">
		<tag k="fixme" v="consider place=hamlet" />
		<tag k="name" v="Hjetland" />
		<tag k="place" v="farm" />
		<tag k="ssr:stedsnr" v="920101" />
	</node>
	<node id="-508994" lat="61.0350833338" lon="5.77022499368">
		<tag k="historic" v="shieling" />
		<tag k="name" v="Gamlestølen" />
		<tag k="place" v="locality" />
		<tag k="ssr:stedsnr" v="920018" />
	</node>
	<node id="-506944" lat="61.1598606249" lon="5.71857130435">
		<tag k="fixme" v="consider place=hamlet" />
		<tag k="name" v="Ytre Vikane" />
		<tag k="place" v="farm" />
		<tag k="ssr:stedsnr" v="48830" />
	</node>
	<node id="-508990" lat="61.115377779" lon="5.46568889494">
		<tag k="historic" v="shieling" />
		<tag k="name" v="Lavikstølane" />
		<tag k="place" v="locality" />
		<tag k="ssr:stedsnr" v="919547" />
	</node>
	<node id="-508989" lat="61.1483227766" lon="5.46213788022">
		<tag k="fixme" v="consider place=hamlet" />
		<tag k="name" v="Bog" />
		<tag k="place" v="farm" />
		<tag k="ssr:stedsnr" v="919532" />
	</node>
	<node id="-508988" lat="61.1439090695" lon="5.45640365514">
		<tag k="alt_name" v="Nygård" />
		<tag k="fixme" v="consider place=hamlet" />
		<tag k="name" v="Vidjehaugen" />
		<tag k="place" v="farm" />
		<tag k="ssr:stedsnr" v="919531" />
	</node>
	<node id="-508985" lat="61.124324846" lon="5.99632770065">
		<tag k="fixme" v="consider place=hamlet" />
		<tag k="name" v="Slantevika" />
		<tag k="place" v="farm" />
		<tag k="ssr:stedsnr" v="919453" />
	</node>
	<node id="-508983" lat="61.1475750029" lon="6.06546388475">
		<tag k="name" v="Espeskog" />
		<tag k="place" v="farm" />
		<tag k="ssr:stedsnr" v="919445" />
	</node>
	<node id="-506931" lat="61.1657249959" lon="5.84517499716">
		<tag k="name" v="Fagerheim" />
		<tag k="place" v="farm" />
		<tag k="ssr:stedsnr" v="32883" />
	</node>
	<node id="-508976" lat="61.1826638846" lon="5.90137222683">
		<tag k="alt_name" v="Kyrkjebøstølane" />
		<tag k="historic" v="shieling" />
		<tag k="name" v="Kyrkjebøstølen" />
		<tag k="place" v="locality" />
		<tag k="ssr:stedsnr" v="919372" />
	</node>
	<node id="-508971" lat="61.0839555593" lon="5.781925003">
		<tag k="historic" v="shieling" />
		<tag k="name" v="Gamlestølen" />
		<tag k="place" v="locality" />
		<tag k="ssr:stedsnr" v="919239" />
	</node>
	<node id="-508965" lat="61.1624177699" lon="5.79566379065">
		<tag k="alt_name" v="Svangtun" />
		<tag k="fixme" v="consider place=hamlet" />
		<tag k="name" v="Svangtunet" />
		<tag k="place" v="farm" />
		<tag k="ssr:stedsnr" v="919146" />
	</node>
	<node id="-508960" lat="61.025255554" lon="5.70603611321">
		<tag k="historic" v="shieling" />
		<tag k="name" v="Øystrebøstølen" />
		<tag k="place" v="locality" />
		<tag k="ssr:stedsnr" v="919003" />
	</node>
	<node id="-506911" lat="61.2360138855" lon="6.08870555512">
		<tag k="historic" v="shieling" />
		<tag k="name" v="Maggestølen" />
		<tag k="place" v="locality" />
		<tag k="ssr:stedsnr" v="32515" />
	</node>
	<node id="-506903" lat="61.1473277736" lon="5.58753610779">
		<tag k="historic" v="shieling" />
		<tag k="name" v="Råstølen" />
		<tag k="place" v="locality" />
		<tag k="ssr:stedsnr" v="32313" />
	</node>
	<node id="-508945" lat="61.1679611083" lon="5.52446666713">
		<tag k="name" v="Strandheim" />
		<tag k="place" v="farm" />
		<tag k="ssr:stedsnr" v="881689" />
	</node>
	<node id="-506885" lat="61.0916694408" lon="5.44554167251">
		<tag k="name" v="Gamlestølen" />
		<tag k="place" v="locality" />
		<tag k="ssr:stedsnr" v="31799" />
	</node>
	<node id="-506882" lat="61.2044027775" lon="5.79411666705">
		<tag k="historic" v="shieling" />
		<tag k="name" v="Vårstølen" />
		<tag k="place" v="locality" />
		<tag k="ssr:stedsnr" v="31698" />
	</node>
	<node id="-508415" lat="61.2243861094" lon="6.03604166753">
		<tag k="name" v="Bergslettene" />
		<tag k="place" v="neighbourhood" />
		<tag k="ssr:stedsnr" v="699503" />
	</node>
	<node id="-506860" lat="61.0601027807" lon="5.68905277596">
		<tag k="name" v="Skåra" />
		<tag k="place" v="locality" />
		<tag k="ssr:stedsnr" v="31298" />
	</node>
	<node id="-508890" lat="61.198371738" lon="5.67519479652">
		<tag k="fixme" v="consider place=hamlet" />
		<tag k="name" v="Sanden" />
		<tag k="place" v="farm" />
		<tag k="ssr:stedsnr" v="859774" />
	</node>
	<node id="-506835" lat="61.1676416629" lon="5.72932499808">
		<tag k="name" v="Vollen" />
		<tag k="place" v="isolated_dwelling" />
		<tag k="ssr:stedsnr" v="9848" />
	</node>
	<node id="-506834" lat="61.161550004" lon="5.57400555581">
		<tag k="historic" v="shieling" />
		<tag k="name" v="Avedalsstølane" />
		<tag k="place" v="locality" />
		<tag k="ssr:stedsnr" v="9841" />
	</node>
	<node id="-508881" lat="61.1855694449" lon="5.45564167442">
		<tag k="name" v="Alverstølen" />
		<tag k="place" v="locality" />
		<tag k="ssr:stedsnr" v="859710" />
	</node>
	<node id="-508879" lat="61.1673416694" lon="5.85875554836">
		<tag k="name" v="Bakketun" />
		<tag k="place" v="farm" />
		<tag k="ssr:stedsnr" v="859454" />
	</node>
	<node id="-508878" lat="61.1646916625" lon="5.90704445086">
		<tag k="name" v="Nygjerdet" />
		<tag k="place" v="farm" />
		<tag k="ssr:stedsnr" v="859437" />
	</node>
	<node id="-506827" lat="61.0786500019" lon="5.41939445313">
		<tag k="historic" v="shieling" />
		<tag k="name" v="Bekkestølen" />
		<tag k="place" v="locality" />
		<tag k="ssr:stedsnr" v="9586" />
	</node>
	<node id="-508872" lat="61.2082888855" lon="5.96836388114">
		<tag k="alt_name" v="Eisteinkvia" />
		<tag k="historic" v="shieling" />
		<tag k="name" v="Eidessteinkvia" />
		<tag k="place" v="locality" />
		<tag k="ssr:stedsnr" v="859404" />
	</node>
	<node id="-506822" lat="61.1718713441" lon="5.98106878643">
		<tag k="fixme" v="consider place=hamlet" />
		<tag k="name" v="Nordeide" />
		<tag k="place" v="farm" />
		<tag k="ssr:stedsnr" v="9479" />
	</node>
	<node id="-506813" lat="61.204216668" lon="5.9316027812">
		<tag k="alt_name" v="Haalandsstølen" />
		<tag k="historic" v="shieling" />
		<tag k="name" v="Hålandsstølen" />
		<tag k="place" v="locality" />
		<tag k="ssr:stedsnr" v="9425" />
	</node>
	<node id="-508854" lat="61.0638766785" lon="5.68493591192">
		<tag k="alt_name" v="Østerbø" />
		<tag k="fixme" v="consider place=hamlet" />
		<tag k="name" v="Øystrebø" />
		<tag k="place" v="farm" />
		<tag k="ssr:stedsnr" v="859189" />
	</node>
	<node id="-508853" lat="61.0582390001" lon="5.65358544399">
		<tag k="alt_name" v="Myren" />
		<tag k="fixme" v="consider place=hamlet" />
		<tag k="name" v="Myra" />
		<tag k="place" v="farm" />
		<tag k="ssr:stedsnr" v="859187" />
	</node>
	<node id="-508852" lat="61.0697596625" lon="5.6269791589">
		<tag k="alt_name" v="Trædal Indre;Tredalen, in" />
		<tag k="fixme" v="consider place=hamlet" />
		<tag k="name" v="Indre Tredalen" />
		<tag k="place" v="farm" />
		<tag k="ssr:stedsnr" v="859169" />
	</node>
	<node id="-508850" lat="61.0738299573" lon="5.60972255183">
		<tag k="alt_name" v="Trædal Ytre;Tredalen, yt" />
		<tag k="fixme" v="consider place=hamlet" />
		<tag k="name" v="Ytre Tredalen" />
		<tag k="place" v="farm" />
		<tag k="ssr:stedsnr" v="859161" />
	</node>
	<node id="-506801" lat="61.181058263" lon="5.98876271221">
		<tag k="alt_name" v="Ytre - Berge" />
		<tag k="fixme" v="consider place=hamlet" />
		<tag k="name" v="Ytreberge" />
		<tag k="place" v="farm" />
		<tag k="ssr:stedsnr" v="9363" />
	</node>
	<node id="-508847" lat="61.1372055561" lon="5.59984444532">
		<tag k="alt_name" v="Råsholm" />
		<tag k="name" v="Råsholmen" />
		<tag k="place" v="farm" />
		<tag k="ssr:stedsnr" v="859154" />
	</node>
	<node id="-506798" lat="61.1173527739" lon="6.17161110621">
		<tag k="name" v="Kroksnes" />
		<tag k="place" v="farm" />
		<tag k="ssr:stedsnr" v="9268" />
	</node>
	<node id="-508841" lat="61.1054739814" lon="5.51359881253">
		<tag k="fixme" v="consider place=hamlet" />
		<tag k="name" v="Kvammen" />
		<tag k="place" v="farm" />
		<tag k="ssr:stedsnr" v="859130" />
	</node>
	<node id="-508742" lat="61.1890249966" lon="6.0961916677">
		<tag k="name" v="Fjellstølen" />
		<tag k="place" v="locality" />
		<tag k="ssr:stedsnr" v="820847" />
	</node>
	<node id="-506786" lat="61.1051916652" lon="5.82075556406">
		<tag k="name" v="Sandelstølen" />
		<tag k="place" v="isolated_dwelling" />
		<tag k="ssr:stedsnr" v="9196" />
	</node>
	<node id="-506778" lat="61.1128527747" lon="5.51667499629">
		<tag k="alt_name" v="Kvamstølen" />
		<tag k="historic" v="shieling" />
		<tag k="name" v="Kvamsstølen" />
		<tag k="place" v="locality" />
		<tag k="ssr:stedsnr" v="9118" />
	</node>
	<node id="-508822" lat="61.2676611144" lon="5.95798611352">
		<tag k="historic" v="shieling" />
		<tag k="name" v="Lonestølen" />
		<tag k="place" v="locality" />
		<tag k="ssr:stedsnr" v="857595" />
	</node>
	<node id="-506770" lat="61.2377972205" lon="5.85699999695">
		<tag k="historic" v="shieling" />
		<tag k="name" v="Hovlandsvårstølen" />
		<tag k="place" v="locality" />
		<tag k="ssr:stedsnr" v="9070" />
	</node>
	<node id="-506763" lat="61.2382527775" lon="6.13271666852">
		<tag k="historic" v="shieling" />
		<tag k="name" v="Vårstølen" />
		<tag k="place" v="locality" />
		<tag k="ssr:stedsnr" v="9033" />
	</node>
	<node id="-508809" lat="61.1281194489" lon="5.95710833571">
		<tag k="name" v="Skultholm" />
		<tag k="place" v="isolated_dwelling" />
		<tag k="ssr:stedsnr" v="830976" />
	</node>
	<node id="-508762" lat="61.1818805577" lon="5.50873055097">
		<tag k="name" v="Nordheim" />
		<tag k="place" v="farm" />
		<tag k="ssr:stedsnr" v="821211" />
	</node>
	<node id="-506701" lat="61.1091833367" lon="5.80849444651">
		<tag k="name" v="Årdal" />
		<tag k="place" v="farm" />
		<tag k="ssr:stedsnr" v="476879" />
	</node>
	<node id="-506700" lat="61.1645055549" lon="5.72213610932">
		<tag k="fixme" v="consider place=hamlet" />
		<tag k="name" v="Indre Vikane" />
		<tag k="place" v="farm" />
		<tag k="ssr:stedsnr" v="412812" />
	</node>
	<node id="-506694" lat="61.1060611071" lon="5.51040555168">
		<tag k="name" v="Kvammen" />
		<tag k="place" v="quarter" />
		<tag k="ssr:stedsnr" v="406463" />
	</node>
	<node id="-508730" lat="61.0972666702" lon="5.47978610799">
		<tag k="name" v="Teigen" />
		<tag k="place" v="farm" />
		<tag k="ssr:stedsnr" v="820551" />
	</node>
	<node id="-506677" lat="61.2305194428" lon="6.05029999517">
		<tag k="historic" v="shieling" />
		<tag k="name" v="Siplau" />
		<tag k="place" v="locality" />
		<tag k="ssr:stedsnr" v="396495" />
	</node>
	<node id="-506670" lat="61.1190833313" lon="5.53977500383">
		<tag k="historic" v="shieling" />
		<tag k="name" v="Ringreistølen" />
		<tag k="place" v="locality" />
		<tag k="ssr:stedsnr" v="396211" />
	</node>
	<node id="-506658" lat="61.0845611148" lon="5.44910045289">
		<tag k="alt_name" v="Hellebø" />
		<tag k="fixme" v="consider place=hamlet" />
		<tag k="name" v="Hellebøen" />
		<tag k="place" v="farm" />
		<tag k="ssr:stedsnr" v="395844" />
	</node>
	<node id="-508701" lat="61.188752781" lon="5.81528683822">
		<tag k="fixme" v="consider place=hamlet" />
		<tag k="name" v="Hovden" />
		<tag k="place" v="farm" />
		<tag k="ssr:stedsnr" v="798783" />
	</node>
	<node id="-508698" lat="61.2273861088" lon="5.70296665859">
		<tag k="historic" v="shieling" />
		<tag k="name" v="Byrkjosstølen" />
		<tag k="place" v="locality" />
		<tag k="ssr:stedsnr" v="798736" />
	</node>
	<node id="-508694" lat="61.1702194445" lon="5.4500749944">
		<tag k="alt_name" v="Bruastølen" />
		<tag k="name" v="Bruåsstølen" />
		<tag k="place" v="locality" />
		<tag k="ssr:stedsnr" v="798686" />
	</node>
	<node id="-508689" lat="61.1482722212" lon="5.44590277415">
		<tag k="name" v="Liland" />
		<tag k="place" v="farm" />
		<tag k="ssr:stedsnr" v="798487" />
	</node>
	<node id="-508686" lat="61.160658334" lon="5.87861388549">
		<tag k="name" v="Merket" />
		<tag k="place" v="farm" />
		<tag k="ssr:stedsnr" v="798438" />
	</node>
	<node id="-508683" lat="61.1478000039" lon="6.05146389593">
		<tag k="alt_name" v="Runnestø;Rundstø" />
		<tag k="name" v="Runnestøi" />
		<tag k="place" v="farm" />
		<tag k="ssr:stedsnr" v="798427" />
	</node>
	<node id="-508682" lat="61.1199138852" lon="6.00078055641">
		<tag k="loc_name" v="Instevika" />
		<tag k="name" v="Instevik" />
		<tag k="place" v="farm" />
		<tag k="ssr:stedsnr" v="798417" />
	</node>
	<node id="-508679" lat="61.2074055529" lon="6.02044722152">
		<tag k="name" v="Toppenhytta" />
		<tag k="place" v="isolated_dwelling" />
		<tag k="ssr:stedsnr" v="798380" />
	</node>
	<node id="-508677" lat="61.1922055581" lon="5.99575000309">
		<tag k="historic" v="shieling" />
		<tag k="name" v="Furehaugane" />
		<tag k="place" v="locality" />
		<tag k="ssr:stedsnr" v="798359" />
	</node>
	<node id="-508670" lat="61.1025331884" lon="6.04167313581">
		<tag k="alt_name" v="Mjølsvika" />
		<tag k="fixme" v="consider place=hamlet" />
		<tag k="name" v="Mjølsvik" />
		<tag k="place" v="farm" />
		<tag k="ssr:stedsnr" v="798263" />
	</node>
	<node id="-508663" lat="61.0993974325" lon="5.64683638598">
		<tag k="alt_name" v="Matsnes" />
		<tag k="fixme" v="consider place=hamlet" />
		<tag k="name" v="Massneset" />
		<tag k="place" v="farm" />
		<tag k="ssr:stedsnr" v="798213" />
	</node>
	<node id="-508662" lat="61.1059555514" lon="5.75953888191">
		<tag k="alt_name" v="Kvernhusnes" />
		<tag k="name" v="Kvernhusneset" />
		<tag k="place" v="farm" />
		<tag k="ssr:stedsnr" v="798209" />
	</node>
	<node id="-508661" lat="61.0681266621" lon="5.7988247887">
		<tag k="fixme" v="consider place=hamlet" />
		<tag k="name" v="Føsund" />
		<tag k="place" v="farm" />
		<tag k="ssr:stedsnr" v="798207" />
	</node>
	<node id="-508657" lat="61.0744652921" lon="5.80024913994">
		<tag k="fixme" v="consider place=hamlet" />
		<tag k="name" v="Osland" />
		<tag k="place" v="farm" />
		<tag k="ssr:stedsnr" v="798194" />
	</node>
	<node id="-508656" lat="61.0739231823" lon="5.65456486629">
		<tag k="alt_name" v="Haukehella" />
		<tag k="fixme" v="consider place=hamlet" />
		<tag k="name" v="Haukhella" />
		<tag k="place" v="farm" />
		<tag k="ssr:stedsnr" v="798182" />
	</node>
	<node id="-508648" lat="61.1358055579" lon="5.59179999433">
		<tag k="name" v="Runnane" />
		<tag k="place" v="isolated_dwelling" />
		<tag k="ssr:stedsnr" v="798133" />
	</node>
	<node id="-508639" lat="61.2346083328" lon="5.85042221725">
		<tag k="historic" v="shieling" />
		<tag k="name" v="Slåtta" />
		<tag k="place" v="locality" />
		<tag k="ssr:stedsnr" v="798096" />
	</node>
	<node id="-506590" lat="61.1857851401" lon="5.50311125493">
		<tag k="fixme" v="consider place=hamlet" />
		<tag k="name" v="Nordstrand" />
		<tag k="place" v="farm" />
		<tag k="ssr:stedsnr" v="373837" />
	</node>
	<node id="-506588" lat="61.1906694429" lon="5.78395555231">
		<tag k="alt_name" v="Avsnesstølen" />
		<tag k="historic" v="shieling" />
		<tag k="name" v="Afsnesstølen" />
		<tag k="place" v="locality" />
		<tag k="ssr:stedsnr" v="373821" />
	</node>
	<node id="-508628" lat="61.0289888847" lon="5.67579167059">
		<tag k="historic" v="shieling" />
		<tag k="name" v="Myrestølen" />
		<tag k="place" v="locality" />
		<tag k="ssr:stedsnr" v="798012" />
	</node>
	<node id="-506578" lat="61.1059157818" lon="5.46305708269">
		<tag k="alt_name" v="Værholmstølen" />
		<tag k="historic" v="shieling" />
		<tag k="name" v="Verholmsstølen" />
		<tag k="place" v="locality" />
		<tag k="ssr:stedsnr" v="373561" />
	</node>
	<node id="-506576" lat="61.1704296291" lon="5.94903566977">
		<tag k="alt_name" v="Lia" />
		<tag k="fixme" v="consider place=hamlet" />
		<tag k="name" v="Austreimslia" />
		<tag k="place" v="farm" />
		<tag k="ssr:stedsnr" v="373488" />
	</node>
	<node id="-506575" lat="61.1634083304" lon="5.90475277242">
		<tag k="fixme" v="consider place=hamlet" />
		<tag k="name" v="Kyrkjebø" />
		<tag k="place" v="village" />
		<tag k="ssr:stedsnr" v="373479" />
	</node>
	<node id="-506571" lat="61.1462944473" lon="6.06275833449">
		<tag k="name" v="Varden" />
		<tag k="place" v="farm" />
		<tag k="ssr:stedsnr" v="373450" />
	</node>
	<node id="-508617" lat="61.0791379856" lon="5.44274344591">
		<tag k="alt_name" v="Hellebø ytre;Hellebøen, ytre" />
		<tag k="name" v="Ytre Hellebøen" />
		<tag k="place" v="farm" />
		<tag k="ssr:stedsnr" v="798573" />
	</node>
	<node id="-506566" lat="61.1969361133" lon="5.86952777144">
		<tag k="alt_name" v="Klævoldsstølen" />
		<tag k="historic" v="shieling" />
		<tag k="name" v="Klevaldsstølen" />
		<tag k="place" v="locality" />
		<tag k="ssr:stedsnr" v="373416" />
	</node>
	<node id="-508607" lat="61.1055916627" lon="5.5141527745">
		<tag k="name" v="Ytre Kvammen" />
		<tag k="place" v="farm" />
		<tag k="ssr:stedsnr" v="769798" />
	</node>
	<node id="-508605" lat="61.142613886" lon="5.59178334137">
		<tag k="name" v="Haugen" />
		<tag k="place" v="farm" />
		<tag k="ssr:stedsnr" v="760987" />
	</node>
	<node id="-506555" lat="61.1089361535" lon="6.12853375946">
		<tag k="alt_name" v="Tune" />
		<tag k="name" v="Tunane" />
		<tag k="place" v="hamlet" />
		<tag k="ssr:stedsnr" v="373277" />
	</node>
	<node id="-506543" lat="61.0948749973" lon="5.70547499706">
		<tag k="name" v="Båsen" />
		<tag k="place" v="isolated_dwelling" />
		<tag k="ssr:stedsnr" v="373213" />
	</node>
	<node id="-506542" lat="61.1519611112" lon="5.7203666752">
		<tag k="alt_name" v="Breivika" />
		<tag k="name" v="Breidvika" />
		<tag k="place" v="farm" />
		<tag k="ssr:stedsnr" v="373158" />
	</node>
	<node id="-506541" lat="61.1340589299" lon="5.47622180407">
		<tag k="alt_name" v="Kjønås" />
		<tag k="fixme" v="consider place=hamlet" />
		<tag k="name" v="Tjørnås" />
		<tag k="place" v="farm" />
		<tag k="ssr:stedsnr" v="373155" />
	</node>
	<node id="-508588" lat="61.0624444417" lon="5.59919444152">
		<tag k="historic" v="shieling" />
		<tag k="name" v="Gamlestølen" />
		<tag k="place" v="locality" />
		<tag k="ssr:stedsnr" v="760643" />
	</node>
	<node id="-506539" lat="61.1623754362" lon="5.7832789467">
		<tag k="alt_name" v="Våttekar;Vattekår" />
		<tag k="fixme" v="consider place=hamlet" />
		<tag k="name" v="Vattekar" />
		<tag k="place" v="farm" />
		<tag k="ssr:stedsnr" v="373145" />
	</node>
	<node id="-506537" lat="61.1427285883" lon="5.47045322195">
		<tag k="alt_name" v="Bilsbakke" />
		<tag k="fixme" v="consider place=hamlet" />
		<tag k="name" v="Brekka" />
		<tag k="place" v="farm" />
		<tag k="ssr:stedsnr" v="373141" />
	</node>
	<node id="-506535" lat="61.1035609093" lon="5.51330621787">
		<tag k="fixme" v="consider place=suburb, village or hamlet" />
		<tag k="name" v="Lavik" />
		<tag k="place" v="quarter" />
		<tag k="ssr:stedsnr" v="373131" />
	</node>
	<node id="-506534" lat="61.1161271454" lon="5.55780100615">
		<tag k="alt_name" v="Alværen" />
		<tag k="fixme" v="consider place=hamlet" />
		<tag k="name" v="Alvera" />
		<tag k="place" v="farm" />
		<tag k="ssr:stedsnr" v="373122" />
	</node>
	<node id="-506531" lat="61.2412888889" lon="6.08676388842">
		<tag k="historic" v="shieling" />
		<tag k="name" v="Botnen" />
		<tag k="place" v="locality" />
		<tag k="ssr:stedsnr" v="373102" />
	</node>
	<node id="-506525" lat="61.0509527817" lon="5.60835555584">
		<tag k="alt_name" v="Trædalstølen;Tredalsstøl, yt" />
		<tag k="historic" v="shieling" />
		<tag k="name" v="Ytre Tredalsstøl" />
		<tag k="place" v="locality" />
		<tag k="ssr:stedsnr" v="373030" />
	</node>
	<node id="-506510" lat="61.2634999983" lon="5.91678333632">
		<tag k="historic" v="shieling" />
		<tag k="name" v="Vadheimsstølen" />
		<tag k="place" v="locality" />
		<tag k="ssr:stedsnr" v="371565" />
	</node>
	<node id="-506501" lat="61.0777666675" lon="6.05453611408">
		<tag k="historic" v="shieling" />
		<tag k="name" v="Brydalen" />
		<tag k="place" v="locality" />
		<tag k="ssr:stedsnr" v="360445" />
	</node>
	<node id="-508545" lat="61.1600027801" lon="5.52278056099">
		<tag k="alt_name" v="Nyland" />
		<tag k="name" v="Grønehaugen" />
		<tag k="place" v="farm" />
		<tag k="ssr:stedsnr" v="759519" />
	</node>
	<node id="-506495" lat="61.2213472197" lon="6.08268332682">
		<tag k="name" v="Øvre Sæbø" />
		<tag k="place" v="quarter" />
		<tag k="ssr:stedsnr" v="345411" />
	</node>
	<node id="-506490" lat="61.1652333362" lon="5.84709166576">
		<tag k="name" v="Kartangvik" />
		<tag k="place" v="farm" />
		<tag k="ssr:stedsnr" v="336886" />
	</node>
	<node id="-508529" lat="61.1646783111" lon="5.53313501531">
		<tag k="fixme" v="consider place=hamlet" />
		<tag k="name" v="Strandosen" />
		<tag k="place" v="farm" />
		<tag k="ssr:stedsnr" v="737875" />
	</node>
	<node id="-508528" lat="61.1707784375" lon="5.50741773353">
		<tag k="fixme" v="consider place=hamlet" />
		<tag k="name" v="Sørestrand" />
		<tag k="place" v="farm" />
		<tag k="ssr:stedsnr" v="737874" />
	</node>
	<node id="-508527" lat="61.1653444427" lon="5.76533055352">
		<tag k="name" v="Myra" />
		<tag k="place" v="farm" />
		<tag k="ssr:stedsnr" v="737851" />
	</node>
	<node id="-506469" lat="61.1320777752" lon="5.50103333917">
		<tag k="historic" v="shieling" />
		<tag k="name" v="Mølmesdal fellesstøl" />
		<tag k="place" v="locality" />
		<tag k="ssr:stedsnr" v="335625" />
	</node>
	<node id="-508516" lat="61.0876916653" lon="5.43951110581">
		<tag k="alt_name" v="Hellebøstølane" />
		<tag k="historic" v="shieling" />
		<tag k="name" v="Hellebøstølen" />
		<tag k="place" v="locality" />
		<tag k="ssr:stedsnr" v="737570" />
	</node>
	<node id="-508514" lat="61.1539432668" lon="5.44042400929">
		<tag k="alt_name" v="Bruåsdal" />
		<tag k="fixme" v="consider place=hamlet" />
		<tag k="name" v="Bruåsdalen" />
		<tag k="place" v="farm" />
		<tag k="ssr:stedsnr" v="737500" />
	</node>
	<node id="-508513" lat="61.1654361094" lon="5.84439722487">
		<tag k="name" v="Myrane" />
		<tag k="place" v="farm" />
		<tag k="ssr:stedsnr" v="737484" />
	</node>
	<node id="-508512" lat="61.1783333312" lon="5.95352777239">
		<tag k="historic" v="shieling" />
		<tag k="name" v="Vårstølen" />
		<tag k="place" v="locality" />
		<tag k="ssr:stedsnr" v="737471" />
	</node>
	<node id="-508507" lat="61.122091663" lon="5.92464166587">
		<tag k="historic" v="shieling" />
		<tag k="name" v="Fuglsbøstølen" />
		<tag k="place" v="locality" />
		<tag k="ssr:stedsnr" v="737420" />
	</node>
	<node id="-508501" lat="61.0136361123" lon="5.85023610766">
		<tag k="historic" v="shieling" />
		<tag k="name" v="Årsdalen" />
		<tag k="place" v="locality" />
		<tag k="ssr:stedsnr" v="737345" />
	</node>
	<node id="-508498" lat="61.0959194462" lon="5.47643332926">
		<tag k="name" v="Furehaugen" />
		<tag k="place" v="farm" />
		<tag k="ssr:stedsnr" v="737206" />
	</node>
	<node id="-508497" lat="61.109628262" lon="5.80930452433">
		<tag k="alt_name" v="Årdal" />
		<tag k="fixme" v="consider place=hamlet" />
		<tag k="name" v="Årdalen" />
		<tag k="place" v="farm" />
		<tag k="ssr:stedsnr" v="737200" />
	</node>
	<node id="-508488" lat="61.116375666" lon="5.77386742477">
		<tag k="fixme" v="consider place=hamlet" />
		<tag k="name" v="Åkre" />
		<tag k="place" v="farm" />
		<tag k="ssr:stedsnr" v="737135" />
	</node>
	<node id="-508483" lat="61.0139277762" lon="5.82678610708">
		<tag k="historic" v="shieling" />
		<tag k="name" v="Geilene" />
		<tag k="place" v="locality" />
		<tag k="ssr:stedsnr" v="737101" />
	</node>
	<node id="-506418" lat="61.0652527752" lon="5.804241668">
		<tag k="name" v="Flatane" />
		<tag k="place" v="farm" />
		<tag k="ssr:stedsnr" v="334013" />
	</node>
	<node id="-506416" lat="61.2090888903" lon="5.82527500728">
		<tag k="name" v="Vadheim" />
		<tag k="place" v="village" />
		<tag k="ssr:stedsnr" v="313826" />
	</node>
	<node id="-508461" lat="61.1074833288" lon="5.53556110656">
		<tag k="name" v="Indre Kvammen" />
		<tag k="place" v="farm" />
		<tag k="ssr:stedsnr" v="708805" />
	</node>
	<node id="-506411" lat="61.1761194446" lon="5.88478333291">
		<tag k="historic" v="shieling" />
		<tag k="name" v="Nyestølen" />
		<tag k="place" v="locality" />
		<tag k="ssr:stedsnr" v="313474" />
	</node>
	<node id="-506410" lat="61.1642580666" lon="5.93347272581">
		<tag k="alt_name" v="Haaland" />
		<tag k="fixme" v="consider place=hamlet" />
		<tag k="name" v="Håland" />
		<tag k="place" v="farm" />
		<tag k="ssr:stedsnr" v="313463" />
	</node>
	<node id="-508457" lat="61.2278694438" lon="5.85108888701">
		<tag k="name" v="Nordheim" />
		<tag k="place" v="farm" />
		<tag k="ssr:stedsnr" v="700906" />
	</node>
	<node id="-506408" lat="61.163797958" lon="5.90168839926">
		<tag k="alt_name" v="Tronvik" />
		<tag k="amenity" v="nursing_home" />
		<tag k="name" v="Tronvika" />
		<tag k="ssr:stedsnr" v="313457" />
	</node>
	<node id="-506402" lat="61.1420756302" lon="5.47628985442">
		<tag k="alt_name" v="Hjelmeland, indre;Hjelmeland" />
		<tag k="fixme" v="consider place=hamlet" />
		<tag k="name" v="Indre Hjelmeland" />
		<tag k="place" v="farm" />
		<tag k="ssr:stedsnr" v="313193" />
	</node>
	<node id="-506396" lat="61.0485500012" lon="5.78273889447">
		<tag k="historic" v="shieling" />
		<tag k="name" v="Navedalen" />
		<tag k="place" v="locality" />
		<tag k="ssr:stedsnr" v="313055" />
	</node>
	<node id="-506393" lat="61.1738527781" lon="5.75370277934">
		<tag k="alt_name" v="Teigastølen" />
		<tag k="historic" v="shieling" />
		<tag k="name" v="Teigestølen" />
		<tag k="place" v="locality" />
		<tag k="ssr:stedsnr" v="312844" />
	</node>
	<node id="-506392" lat="61.2041916641" lon="5.81047500614">
		<tag k="alt_name" v="Dyrneslia" />
		<tag k="fixme" v="consider place=hamlet" />
		<tag k="name" v="Lia" />
		<tag k="place" v="farm" />
		<tag k="ssr:stedsnr" v="312827" />
	</node>
	<node id="-506390" lat="61.1881166628" lon="5.68927777177">
		<tag k="historic" v="shieling" />
		<tag k="name" v="Indrevikstølen" />
		<tag k="place" v="locality" />
		<tag k="ssr:stedsnr" v="312813" />
	</node>
	<node id="-506386" lat="61.0734212739" lon="5.41654442679">
		<tag k="fixme" v="consider place=hamlet" />
		<tag k="name" v="Bekken" />
		<tag k="place" v="farm" />
		<tag k="ssr:stedsnr" v="312598" />
	</node>
	<node id="-506385" lat="61.1464537466" lon="5.45212040537">
		<tag k="fixme" v="consider place=hamlet" />
		<tag k="name" v="Hjelmeland" />
		<tag k="place" v="farm" />
		<tag k="ssr:stedsnr" v="312536" />
	</node>
	<node id="-508432" lat="61.1649916637" lon="5.93993888483">
		<tag k="name" v="Vikane" />
		<tag k="place" v="quarter" />
		<tag k="ssr:stedsnr" v="699681" />
	</node>
	<node id="-506374" lat="61.0966888868" lon="5.87974723043">
		<tag k="fixme" v="consider place=hamlet" />
		<tag k="name" v="Søreide" />
		<tag k="place" v="village" />
		<tag k="ssr:stedsnr" v="312288" />
	</node>
	<node id="-506371" lat="61.1072250039" lon="5.53543610664">
		<tag k="name" v="Mosemyra" />
		<tag k="place" v="farm" />
		<tag k="ssr:stedsnr" v="312129" />
	</node>
	<node id="-506368" lat="61.1104713271" lon="5.48973221085">
		<tag k="name" v="Dalen" />
		<tag k="place" v="farm" />
		<tag k="ssr:stedsnr" v="312122" />
	</node>
	<node id="-506367" lat="61.1311861155" lon="5.58893055518">
		<tag k="name" v="Vardekleiva" />
		<tag k="place" v="isolated_dwelling" />
		<tag k="ssr:stedsnr" v="312118" />
	</node>
	<node id="-506366" lat="61.1229083349" lon="5.55171944264">
		<tag k="alt_name" v="Alværstølen" />
		<tag k="name" v="Alverstølen" />
		<tag k="place" v="locality" />
		<tag k="ssr:stedsnr" v="312112" />
	</node>
	<node id="-506361" lat="61.0132944469" lon="5.78606667242">
		<tag k="historic" v="shieling" />
		<tag k="name" v="Fridalen" />
		<tag k="place" v="locality" />
		<tag k="ssr:stedsnr" v="312092" />
	</node>
	<node id="-506358" lat="61.0567944447" lon="5.64579167308">
		<tag k="name" v="Teigane" />
		<tag k="place" v="farm" />
		<tag k="ssr:stedsnr" v="312041" />
	</node>
	<node id="-506348" lat="61.2579527782" lon="6.01063611941">
		<tag k="historic" v="shieling" />
		<tag k="name" v="Monsdalen" />
		<tag k="place" v="locality" />
		<tag k="ssr:stedsnr" v="311597" />
	</node>
	<node id="-508377" lat="61.061330558" lon="5.69139166051">
		<tag k="name" v="Bøle" />
		<tag k="place" v="farm" />
		<tag k="ssr:stedsnr" v="698272" />
	</node>
	<node id="-508367" lat="61.0583582819" lon="5.65666811033">
		<tag k="fixme" v="consider place=hamlet" />
		<tag k="name" v="Årnes" />
		<tag k="place" v="farm" />
		<tag k="ssr:stedsnr" v="698004" />
	</node>
	<node id="-508364" lat="61.008852778" lon="6.13069443652">
		<tag k="fixme" v="consider tourism=alpine_hut or tourism=chalet" />
		<tag k="name" v="Solrenningen" />
		<tag k="ssr:stedsnr" v="695900" />
		<tag k="tourism" v="wilderness_hut" />
	</node>
	<node id="-508360" lat="61.1618166708" lon="5.71943888404">
		<tag k="fixme" v="consider place=hamlet" />
		<tag k="name" v="Nordrevik" />
		<tag k="place" v="village" />
		<tag k="ssr:stedsnr" v="677848" />
	</node>
	<node id="-508359" lat="61.2024805514" lon="5.66895832691">
		<tag k="alt_name" v="Sandabotn" />
		<tag k="historic" v="shieling" />
		<tag k="name" v="Sandabotnen" />
		<tag k="place" v="locality" />
		<tag k="ssr:stedsnr" v="677822" />
	</node>
	<node id="-508357" lat="61.213447606" lon="5.70202654077">
		<tag k="fixme" v="consider place=hamlet" />
		<tag k="name" v="Byrkjosen" />
		<tag k="place" v="farm" />
		<tag k="ssr:stedsnr" v="677768" />
	</node>
	<node id="-508354" lat="61.1630944407" lon="6.09766389286">
		<tag k="alt_name" v="Vetlestølen" />
		<tag k="historic" v="shieling" />
		<tag k="name" v="Veslestølen" />
		<tag k="place" v="locality" />
		<tag k="ssr:stedsnr" v="677440" />
	</node>
	<node id="-508353" lat="61.1628194448" lon="6.08409445259">
		<tag k="historic" v="shieling" />
		<tag k="name" v="Flatebø" />
		<tag k="place" v="locality" />
		<tag k="ssr:stedsnr" v="677438" />
	</node>
	<node id="-508351" lat="61.2037006253" lon="5.8590821472">
		<tag k="name" v="Fossen" />
		<tag k="place" v="locality" />
		<tag k="ssr:stedsnr" v="677410" />
	</node>
	<node id="-508350" lat="61.2234750018" lon="6.08470554909">
		<tag k="name" v="Høyanger" />
		<tag k="place" v="village" />
		<tag k="ssr:stedsnr" v="677397" />
	</node>
	<node id="-508346" lat="61.0811083341" lon="6.11582499498">
		<tag k="historic" v="shieling" />
		<tag k="name" v="Fodnestølen" />
		<tag k="place" v="locality" />
		<tag k="ssr:stedsnr" v="677250" />
	</node>
	<node id="-508342" lat="61.0900638857" lon="5.79733611741">
		<tag k="historic" v="shieling" />
		<tag k="name" v="Leirnesstølen" />
		<tag k="place" v="locality" />
		<tag k="ssr:stedsnr" v="677222" />
	</node>
	<node id="-508338" lat="61.1467805549" lon="5.58797499141">
		<tag k="name" v="Heimestølen" />
		<tag k="place" v="locality" />
		<tag k="ssr:stedsnr" v="677161" />
	</node>
	<node id="-508332" lat="61.223449128" lon="5.84645393189">
		<tag k="fixme" v="consider place=hamlet" />
		<tag k="name" v="Løbø" />
		<tag k="old_name" v="Lobø" />
		<tag k="place" v="farm" />
		<tag k="ssr:stedsnr" v="677069" />
	</node>
	<node id="-508331" lat="61.2379500018" lon="6.10368055729">
		<tag k="historic" v="shieling" />
		<tag k="name" v="Botnen" />
		<tag k="place" v="locality" />
		<tag k="ssr:stedsnr" v="677066" />
	</node>
	<node id="-508328" lat="61.0495445301" lon="5.80651238537">
		<tag k="alt_name" v="Førde" />
		<tag k="fixme" v="consider place=hamlet" />
		<tag k="name" v="Fjorden" />
		<tag k="place" v="farm" />
		<tag k="ssr:stedsnr" v="677050" />
	</node>
	<node id="-508325" lat="61.1666666659" lon="5.6141000032">
		<tag k="historic" v="shieling" />
		<tag k="name" v="Heimestølen" />
		<tag k="place" v="locality" />
		<tag k="ssr:stedsnr" v="676852" />
	</node>
	<node id="-508322" lat="61.174894442" lon="5.59961389092">
		<tag k="historic" v="shieling" />
		<tag k="name" v="Avestølen" />
		<tag k="place" v="locality" />
		<tag k="ssr:stedsnr" v="676812" />
	</node>
	<node id="-508321" lat="61.1830805598" lon="5.65726944744">
		<tag k="alt_name" v="Torvundstølen;Torvundsstølen, in" />
		<tag k="historic" v="shieling" />
		<tag k="name" v="Indre Torvundsstølen" />
		<tag k="place" v="locality" />
		<tag k="ssr:stedsnr" v="676811" />
	</node>
	<node id="-506270" lat="61.1875361113" lon="6.07451666721">
		<tag k="name" v="Breiteigen" />
		<tag k="place" v="locality" />
		<tag k="ssr:stedsnr" v="273893" />
	</node>
	<node id="-508309" lat="61.1131805571" lon="6.00269999561">
		<tag k="name" v="Svadtun" />
		<tag k="place" v="farm" />
		<tag k="ssr:stedsnr" v="676310" />
	</node>
	<node id="-508308" lat="61.1124899917" lon="6.00206885493">
		<tag k="alt_name" v="Dyrdal, in;Dyrdal" />
		<tag k="fixme" v="consider place=hamlet" />
		<tag k="name" v="Indre Dyrdal" />
		<tag k="place" v="farm" />
		<tag k="ssr:stedsnr" v="676309" />
	</node>
	<node id="-506259" lat="61.1231388867" lon="5.92881388791">
		<tag k="historic" v="shieling" />
		<tag k="name" v="Strandstølen" />
		<tag k="place" v="locality" />
		<tag k="ssr:stedsnr" v="273470" />
	</node>
	<node id="-508302" lat="61.1085999974" lon="6.13485556049">
		<tag k="name" v="Bjørkelund" />
		<tag k="place" v="farm" />
		<tag k="ssr:stedsnr" v="676294" />
	</node>
	<node id="-506252" lat="61.218863885" lon="6.06707778087">
		<tag k="building" v="industrial" />
		<tag k="industrial" v="factory" />
		<tag k="name" v="Hydro Aluminium Høyanger" />
		<tag k="ssr:stedsnr" v="270904" />
	</node>
	<node id="-508298" lat="61.1001527785" lon="5.49269166751">
		<tag k="name" v="Svalhammaren" />
		<tag k="place" v="farm" />
		<tag k="ssr:stedsnr" v="676149" />
	</node>
	<node id="-508296" lat="61.1194777812" lon="5.56875555196">
		<tag k="name" v="Kviane" />
		<tag k="place" v="farm" />
		<tag k="ssr:stedsnr" v="676140" />
	</node>
	<node id="-508293" lat="61.1259333378" lon="5.53609999838">
		<tag k="historic" v="shieling" />
		<tag k="name" v="Ringreidstølen" />
		<tag k="place" v="locality" />
		<tag k="ssr:stedsnr" v="676131" />
	</node>
	<node id="-508284" lat="61.0488194406" lon="5.6160888864">
		<tag k="alt_name" v="Øvre Trædalstølen;Tredalsstøl, in" />
		<tag k="historic" v="shieling" />
		<tag k="name" v="Indre Tredalsstøl" />
		<tag k="place" v="locality" />
		<tag k="ssr:stedsnr" v="676038" />
	</node>
	<node id="-508276" lat="61.1669527771" lon="5.94607222147">
		<tag k="name" v="Austreim" />
		<tag k="place" v="quarter" />
		<tag k="ssr:stedsnr" v="648427" />
	</node>
	<node id="-508223" lat="61.1359999962" lon="5.47340278644">
		<tag k="name" v="Lindehaugen" />
		<tag k="place" v="farm" />
		<tag k="ssr:stedsnr" v="638326" />
	</node>
	<node id="-508169" lat="61.0793305595" lon="5.80224722498">
		<tag k="historic" v="shieling" />
		<tag k="name" v="Silkestølen" />
		<tag k="place" v="locality" />
		<tag k="ssr:stedsnr" v="637237" />
	</node>
	<node id="-508164" lat="61.1658805519" lon="5.64024999387">
		<tag k="historic" v="shieling" />
		<tag k="name" v="Vårstølen" />
		<tag k="place" v="locality" />
		<tag k="ssr:stedsnr" v="616879" />
	</node>
	<node id="-508157" lat="61.1658078148" lon="5.86553394959">
		<tag k="alt_name" v="Frivik" />
		<tag k="fixme" v="consider place=hamlet" />
		<tag k="name" v="Frivika" />
		<tag k="place" v="farm" />
		<tag k="ssr:stedsnr" v="616482" />
	</node>
	<node id="-508151" lat="61.0853999993" lon="6.07645833154">
		<tag k="name" v="Flugedalen" />
		<tag k="place" v="locality" />
		<tag k="ssr:stedsnr" v="616266" />
	</node>
	<node id="-508150" lat="61.0825027795" lon="6.02361666783">
		<tag k="alt_name" v="Mjølsvikstølen" />
		<tag k="historic" v="shieling" />
		<tag k="name" v="Mjølsvikestølen" />
		<tag k="place" v="locality" />
		<tag k="ssr:stedsnr" v="616258" />
	</node>
	<node id="-508148" lat="61.0511472187" lon="5.85522221573">
		<tag k="historic" v="shieling" />
		<tag k="name" v="Systølen" />
		<tag k="place" v="locality" />
		<tag k="ssr:stedsnr" v="616236" />
	</node>
	<node id="-508138" lat="61.2062944448" lon="5.87316110954">
		<tag k="alt_name" v="Fossestølane" />
		<tag k="historic" v="shieling" />
		<tag k="name" v="Fossestølen" />
		<tag k="place" v="locality" />
		<tag k="ssr:stedsnr" v="616070" />
	</node>
	<node id="-508129" lat="61.1599694416" lon="5.47817777225">
		<tag k="alt_name" v="Svultingen kraftstasjon" />
		<tag k="building" v="industrial" />
		<tag k="industrial" v="factory" />
		<tag k="name" v="Svultningen" />
		<tag k="ssr:stedsnr" v="615858" />
	</node>
	<node id="-508126" lat="61.1845055581" lon="5.68202500859">
		<tag k="fixme" v="multiple name tags, choose one and add the other to alt_name" />
		<tag k="historic" v="shieling" />
		<tag k="name" v="Nordrestølen;Ytrevikstølen" />
		<tag k="place" v="locality" />
		<tag k="ssr:stedsnr" v="615813" />
	</node>
	<node id="-508122" lat="61.1539647385" lon="6.09173668147">
		<tag k="alt_name" v="Flætane" />
		<tag k="fixme" v="consider place=hamlet" />
		<tag k="name" v="Fletane" />
		<tag k="place" v="farm" />
		<tag k="ssr:stedsnr" v="615448" />
	</node>
	<node id="-508121" lat="61.1278178406" lon="5.98888954992">
		<tag k="fixme" v="consider place=hamlet" />
		<tag k="name" v="Tangen" />
		<tag k="place" v="farm" />
		<tag k="ssr:stedsnr" v="615439" />
	</node>
	<node id="-508120" lat="61.1197555517" lon="5.89089721403">
		<tag k="name" v="Nybø" />
		<tag k="place" v="farm" />
		<tag k="ssr:stedsnr" v="615435" />
	</node>
	<node id="-508118" lat="61.1301059307" lon="5.91241916177">
		<tag k="alt_name" v="Fuglsbø" />
		<tag k="fixme" v="consider place=hamlet" />
		<tag k="name" v="Fuglsbøen" />
		<tag k="place" v="farm" />
		<tag k="ssr:stedsnr" v="615431" />
	</node>
	<node id="-508114" lat="61.1938416695" lon="5.93849444187">
		<tag k="name" v="Seltuftene" />
		<tag k="place" v="locality" />
		<tag k="ssr:stedsnr" v="615379" />
	</node>
	<node id="-508109" lat="61.1153776456" lon="6.00037399509">
		<tag k="alt_name" v="Dyrdal, yt" />
		<tag k="fixme" v="consider place=hamlet" />
		<tag k="name" v="Ytre Dyrdal" />
		<tag k="place" v="farm" />
		<tag k="ssr:stedsnr" v="615286" />
	</node>
	<node id="-508108" lat="61.0966777823" lon="5.90673333884">
		<tag k="historic" v="shieling" />
		<tag k="name" v="Kaldbakkstølen" />
		<tag k="place" v="locality" />
		<tag k="ssr:stedsnr" v="615272" />
	</node>
	<node id="-508107" lat="61.1038500015" lon="6.08160277495">
		<tag k="historic" v="shieling" />
		<tag k="name" v="Sandsbotnen" />
		<tag k="place" v="locality" />
		<tag k="ssr:stedsnr" v="615266" />
	</node>
	<node id="-508096" lat="61.2419083373" lon="6.04445833115">
		<tag k="historic" v="shieling" />
		<tag k="name" v="Vassdalen" />
		<tag k="place" v="locality" />
		<tag k="ssr:stedsnr" v="615113" />
	</node>
	<node id="-508077" lat="61.2591166688" lon="5.92452778532">
		<tag k="fixme" v="multiple name tags, choose one and add the other to alt_name" />
		<tag k="historic" v="shieling" />
		<tag k="name" v="Løbøstølen;Øygardsstølen" />
		<tag k="place" v="locality" />
		<tag k="ssr:stedsnr" v="614578" />
	</node>
	<node id="-508058" lat="61.1637777817" lon="5.84078610453">
		<tag k="name" v="Fureheimen" />
		<tag k="place" v="farm" />
		<tag k="ssr:stedsnr" v="578873" />
	</node>
	<node id="-508019" lat="61.1377999969" lon="5.49805556402">
		<tag k="name" v="Mølmesdal" />
		<tag k="place" v="farm" />
		<tag k="ssr:stedsnr" v="577593" />
	</node>
	<node id="-508016" lat="61.0981416703" lon="5.48327500761">
		<tag k="name" v="Ellingstad" />
		<tag k="place" v="farm" />
		<tag k="ssr:stedsnr" v="577560" />
	</node>
	<node id="-508009" lat="61.1739194468" lon="5.50169443753">
		<tag k="name" v="Eide" />
		<tag k="place" v="farm" />
		<tag k="ssr:stedsnr" v="577207" />
	</node>
	<node id="-508008" lat="61.1686833295" lon="5.51631667375">
		<tag k="name" v="Solvang" />
		<tag k="place" v="farm" />
		<tag k="ssr:stedsnr" v="577204" />
	</node>
	<node id="-507981" lat="61.0775805587" lon="6.05425554634">
		<tag k="fixme" v="consider tourism=alpine_hut or tourism=chalet" />
		<tag k="name" v="Brydalsseter" />
		<tag k="ssr:stedsnr" v="570726" />
		<tag k="tourism" v="wilderness_hut" />
	</node>
	<node id="-507978" lat="61.168327967" lon="5.75813967465">
		<tag k="fixme" v="consider place=hamlet" />
		<tag k="name" v="Teigen" />
		<tag k="place" v="farm" />
		<tag k="ssr:stedsnr" v="555839" />
	</node>
	<node id="-507977" lat="61.1557189452" lon="5.51181552734">
		<tag k="alt_name" v="Bjørkhaug" />
		<tag k="fixme" v="consider place=hamlet" />
		<tag k="name" v="Bjørkehaugen" />
		<tag k="place" v="farm" />
		<tag k="ssr:stedsnr" v="555836" />
	</node>
	<node id="-507975" lat="61.1654416663" lon="5.73946389003">
		<tag k="alt_name" v="Fagernes" />
		<tag k="name" v="Fagernes ferieheim" />
		<tag k="place" v="isolated_dwelling" />
		<tag k="ssr:stedsnr" v="555826" />
	</node>
	<node id="-507967" lat="61.222933337" lon="5.7782555532">
		<tag k="name" v="Ullebøstølen" />
		<tag k="place" v="locality" />
		<tag k="ssr:stedsnr" v="555746" />
	</node>
	<node id="-507959" lat="61.1739138898" lon="6.02184443993">
		<tag k="name" v="Engelsbøen" />
		<tag k="place" v="locality" />
		<tag k="ssr:stedsnr" v="555439" />
	</node>
	<node id="-507944" lat="61.1860831431" lon="5.98686961021">
		<tag k="fixme" v="consider place=hamlet" />
		<tag k="name" v="Øvreberge" />
		<tag k="place" v="farm" />
		<tag k="ssr:stedsnr" v="555314" />
	</node>
	<node id="-507942" lat="61.1026166696" lon="5.98099721429">
		<tag k="historic" v="shieling" />
		<tag k="name" v="Heimestølen" />
		<tag k="place" v="locality" />
		<tag k="ssr:stedsnr" v="555246" />
	</node>
	<node id="-507941" lat="61.1064250041" lon="5.97968889409">
		<tag k="historic" v="shieling" />
		<tag k="name" v="Brekkestølen" />
		<tag k="place" v="locality" />
		<tag k="ssr:stedsnr" v="555243" />
	</node>
	<node id="-507940" lat="61.1123305554" lon="6.16008333717">
		<tag k="historic" v="shieling" />
		<tag k="name" v="Bjørkestølen" />
		<tag k="place" v="locality" />
		<tag k="ssr:stedsnr" v="555238" />
	</node>
	<node id="-507939" lat="61.1077750028" lon="6.07541110852">
		<tag k="alt_name" v="Hatleberget" />
		<tag k="name" v="Helleberget" />
		<tag k="place" v="isolated_dwelling" />
		<tag k="ssr:stedsnr" v="555233" />
	</node>
	<node id="-507932" lat="61.0802249969" lon="5.69323333638">
		<tag k="historic" v="shieling" />
		<tag k="name" v="Massnesstølen" />
		<tag k="place" v="locality" />
		<tag k="ssr:stedsnr" v="555204" />
	</node>
	<node id="-507931" lat="61.0743888911" lon="5.65238056059">
		<tag k="name" v="Hola" />
		<tag k="place" v="farm" />
		<tag k="ssr:stedsnr" v="555203" />
	</node>
	<node id="-507926" lat="61.0765333329" lon="5.82988887987">
		<tag k="fixme" v="consider place=hamlet" />
		<tag k="name" v="Bjordal" />
		<tag k="place" v="village" />
		<tag k="ssr:stedsnr" v="555156" />
	</node>
	<node id="-507923" lat="61.1492691344" lon="5.67690399024">
		<tag k="alt_name" v="Torvund, in" />
		<tag k="fixme" v="consider place=hamlet" />
		<tag k="name" v="Indre Torvund" />
		<tag k="place" v="farm" />
		<tag k="ssr:stedsnr" v="555118" />
	</node>
	<node id="-507922" lat="61.165667377" lon="5.82297086996">
		<tag k="alt_name" v="Klævold" />
		<tag k="fixme" v="consider place=hamlet" />
		<tag k="name" v="Klevald" />
		<tag k="place" v="farm" />
		<tag k="ssr:stedsnr" v="555114" />
	</node>
	<node id="-506540" lat="61.1534131005" lon="5.62239099171">
		<tag k="fixme" v="consider place=hamlet" />
		<tag k="name" v="Aven" />
		<tag k="place" v="farm" />
		<tag k="ssr:stedsnr" v="373154" />
	</node>
	<node id="-507910" lat="61.0133861074" lon="5.62085277496">
		<tag k="historic" v="shieling" />
		<tag k="name" v="Årnesstølen" />
		<tag k="place" v="locality" />
		<tag k="ssr:stedsnr" v="555025" />
	</node>
	<node id="-507905" lat="61.201609275" lon="5.78306685907">
		<tag k="alt_name" v="Ullebø" />
		<tag k="fixme" v="consider place=hamlet" />
		<tag k="name" v="Ullebøen" />
		<tag k="place" v="farm" />
		<tag k="ssr:stedsnr" v="554820" />
	</node>
</osm>
