<?xml version="1.0" encoding="UTF-8"?>
<osm generator="osmapis" version="0.6">
	<node id="-481152" lat="60.6229444475" lon="5.82554722643">
		<tag k="layer" v="-1" />
		<tag k="name" v="Småtunnel I" />
		<tag k="ssr:stedsnr" v="954746" />
		<tag k="tunnel" v="yes" />
	</node>
	<node id="-480382" lat="60.7791499966" lon="6.04106111303">
		<tag k="highway" v="path" />
		<tag k="name" v="Øyksvegen" />
		<tag k="ssr:stedsnr" v="651609" />
	</node>
	<node id="-480637" lat="60.5470694419" lon="5.73085554672">
		<tag k="alt_name" v="Stanghelle" />
		<tag k="layer" v="-1" />
		<tag k="name" v="Stanghelletunnelen" />
		<tag k="ssr:stedsnr" v="734880" />
		<tag k="tunnel" v="yes" />
	</node>
	<node id="-480508" lat="60.6369333361" lon="5.81412222961">
		<tag k="layer" v="-1" />
		<tag k="name" v="Geitabotn" />
		<tag k="ssr:stedsnr" v="711448" />
		<tag k="tunnel" v="yes" />
	</node>
	<node id="-480841" lat="60.539297225" lon="5.7213527854">
		<tag k="alt_name" v="Hette" />
		<tag k="layer" v="-1" />
		<tag k="name" v="Hettetunnelen" />
		<tag k="ssr:stedsnr" v="795883" />
		<tag k="tunnel" v="yes" />
	</node>
	<node id="-479865" lat="60.5436805524" lon="5.72508055271">
		<tag k="layer" v="-1" />
		<tag k="name" v="Steganes" />
		<tag k="ssr:stedsnr" v="469740" />
		<tag k="tunnel" v="yes" />
	</node>
	<node id="-480248" lat="60.6248638861" lon="5.82271666335">
		<tag k="bridge" v="yes" />
		<tag k="layer" v="1" />
		<tag k="name" v="Markåelva" />
		<tag k="ssr:stedsnr" v="593041" />
	</node>
	<node id="-480247" lat="60.7830249964" lon="5.83794444601">
		<tag k="bridge" v="yes" />
		<tag k="layer" v="1" />
		<tag k="name" v="Setsteinen" />
		<tag k="ssr:stedsnr" v="593039" />
	</node>
	<node id="-480246" lat="60.6268083347" lon="5.8966083395">
		<tag k="bridge" v="yes" />
		<tag k="layer" v="1" />
		<tag k="name" v="Verpelstadelva" />
		<tag k="ssr:stedsnr" v="593034" />
	</node>
	<node id="-480371" lat="60.6183333334" lon="5.83102500053">
		<tag k="layer" v="-1" />
		<tag k="name" v="Langarennet I" />
		<tag k="ssr:stedsnr" v="651304" />
		<tag k="tunnel" v="yes" />
	</node>
	<node id="-479474" lat="60.5814361116" lon="5.89054722648">
		<tag k="bridge" v="yes" />
		<tag k="layer" v="1" />
		<tag k="name" v="Fossegjelet" />
		<tag k="ssr:stedsnr" v="168045" />
	</node>
	<node id="-478705" lat="60.5634749999" lon="5.74993610925">
		<tag k="name" v="Hellestræet" />
		<tag k="railway" v="station" />
		<tag k="ssr:stedsnr" v="370632" />
		<tag k="train" v="yes" />
	</node>
	<node id="-480725" lat="60.5070833367" lon="5.79603333339">
		<tag k="highway" v="path" />
		<tag k="name" v="Dyrestigen" />
		<tag k="ssr:stedsnr" v="773044" />
	</node>
	<node id="-480879" lat="60.513722222" lon="5.72677223007">
		<tag k="layer" v="-1" />
		<tag k="name" v="Fossmark" />
		<tag k="ssr:stedsnr" v="833443" />
		<tag k="tunnel" v="yes" />
	</node>
	<node id="-480878" lat="60.7048805552" lon="5.77507776961">
		<tag k="layer" v="-1" />
		<tag k="name" v="Eikjeto" />
		<tag k="ssr:stedsnr" v="833409" />
		<tag k="tunnel" v="yes" />
	</node>
	<node id="-479853" lat="60.5607055546" lon="5.75823055357">
		<tag k="layer" v="-1" />
		<tag k="name" v="Helle" />
		<tag k="ssr:stedsnr" v="469520" />
		<tag k="tunnel" v="yes" />
	</node>
	<node id="-480102" lat="60.6146555552" lon="5.83811944307">
		<tag k="name" v="Dalseid" />
		<tag k="railway" v="station" />
		<tag k="ssr:stedsnr" v="552580" />
		<tag k="train" v="yes" />
	</node>
	<node id="-479077" lat="60.5863198793" lon="5.81580196886">
		<tag k="alt_name" v="Dale" />
		<tag k="name" v="Dale stasjon" />
		<tag k="railway" v="station" />
		<tag k="ssr:stedsnr" v="45012" />
		<tag k="train" v="yes" />
	</node>
	<node id="-480336" lat="60.6596638854" lon="5.78291111992">
		<tag k="layer" v="-1" />
		<tag k="name" v="Vikastølen" />
		<tag k="ssr:stedsnr" v="650620" />
		<tag k="tunnel" v="yes" />
	</node>
	<node id="-478942" lat="60.6217277351" lon="5.87449203124">
		<tag k="bridge" v="yes" />
		<tag k="layer" v="1" />
		<tag k="name" v="Treselva" />
		<tag k="ssr:stedsnr" v="897031" />
	</node>
	<node id="-479965" lat="60.5489244439" lon="5.73289467919">
		<tag k="name" v="Stanghelle stasjon" />
		<tag k="railway" v="station" />
		<tag k="ssr:stedsnr" v="492888" />
		<tag k="train" v="yes" />
	</node>
	<node id="-478428" lat="60.7322611082" lon="5.79933333833">
		<tag k="layer" v="-1" />
		<tag k="name" v="Åsen I" />
		<tag k="ssr:stedsnr" v="287668" />
		<tag k="tunnel" v="yes" />
	</node>
	<node id="-479652" lat="60.7281305576" lon="5.7946388951">
		<tag k="bridge" v="yes" />
		<tag k="layer" v="1" />
		<tag k="name" v="Tunnel" />
		<tag k="ssr:stedsnr" v="229038" />
	</node>
	<node id="-479998" lat="60.7306638898" lon="5.79935277134">
		<tag k="layer" v="-1" />
		<tag k="name" v="Åsen II" />
		<tag k="ssr:stedsnr" v="529641" />
		<tag k="tunnel" v="yes" />
	</node>
	<node id="-480597" lat="60.5617972191" lon="6.00658056184">
		<tag k="bridge" v="yes" />
		<tag k="layer" v="1" />
		<tag k="name" v="Berge" />
		<tag k="ssr:stedsnr" v="715224" />
	</node>
	<node id="-480596" lat="60.6552666667" lon="5.8008277754">
		<tag k="bridge" v="yes" />
		<tag k="layer" v="1" />
		<tag k="name" v="Bolstadstraumen" />
		<tag k="ssr:stedsnr" v="715041" />
	</node>
	<node id="-480595" lat="60.4944944425" lon="5.73335556114">
		<tag k="bridge" v="yes" />
		<tag k="layer" v="1" />
		<tag k="name" v="Skreia" />
		<tag k="ssr:stedsnr" v="715033" />
	</node>
	<node id="-478546" lat="60.5209611139" lon="5.72411944556">
		<tag k="name" v="Fossmark" />
		<tag k="railway" v="station" />
		<tag k="ssr:stedsnr" v="309953" />
		<tag k="train" v="yes" />
	</node>
	<node id="-480337" lat="60.627166663" lon="5.89340277639">
		<tag k="alt_name" v="Trollkone" />
		<tag k="layer" v="-1" />
		<tag k="name" v="Trollkonetunnelen" />
		<tag k="ssr:stedsnr" v="650630" />
		<tag k="tunnel" v="yes" />
	</node>
	<node id="-479056" lat="60.5296944409" lon="5.72482499577">
		<tag k="alt_name" v="Klenslåtta" />
		<tag k="layer" v="-1" />
		<tag k="name" v="Klenslått" />
		<tag k="ssr:stedsnr" v="44274" />
		<tag k="tunnel" v="yes" />
	</node>
	<node id="-479224" lat="60.5856999961" lon="5.81216665903">
		<tag k="layer" v="-1" />
		<tag k="name" v="Beitla" />
		<tag k="ssr:stedsnr" v="105101" />
		<tag k="tunnel" v="yes" />
	</node>
	<node id="-478672" lat="60.5629333327" lon="5.97403056429">
		<tag k="highway" v="path" />
		<tag k="name" v="Smålasteigen" />
		<tag k="ssr:stedsnr" v="348932" />
	</node>
	<node id="-480077" lat="60.7919249972" lon="6.15625277171">
		<tag k="bridge" v="yes" />
		<tag k="layer" v="1" />
		<tag k="name" v="Monsdalselven" />
		<tag k="ssr:stedsnr" v="533044" />
	</node>
	<node id="-480076" lat="60.8310055563" lon="6.19847778676">
		<tag k="bridge" v="yes" />
		<tag k="layer" v="1" />
		<tag k="name" v="Nordal" />
		<tag k="ssr:stedsnr" v="533041" />
	</node>
	<node id="-480075" lat="60.786705552" lon="5.98749721562">
		<tag k="bridge" v="yes" />
		<tag k="layer" v="1" />
		<tag k="name" v="Skorvsdalen" />
		<tag k="ssr:stedsnr" v="533038" />
	</node>
	<node id="-481226" lat="60.4766000012" lon="5.74051666228">
		<tag k="bridge" v="yes" />
		<tag k="layer" v="1" />
		<tag k="name" v="Vaksdal" />
		<tag k="ssr:stedsnr" v="957029" />
	</node>
	<node id="-480329" lat="60.5756166677" lon="5.77361111196">
		<tag k="layer" v="-1" />
		<tag k="name" v="Dalevåg" />
		<tag k="ssr:stedsnr" v="650360" />
		<tag k="tunnel" v="yes" />
	</node>
	<node id="-480968" lat="60.5894277748" lon="5.81876110575">
		<tag k="bridge" v="yes" />
		<tag k="layer" v="1" />
		<tag k="name" v="Dale" />
		<tag k="ssr:stedsnr" v="836026" />
	</node>
	<node id="-480967" lat="60.5449472216" lon="5.72754167394">
		<tag k="bridge" v="yes" />
		<tag k="layer" v="1" />
		<tag k="name" v="Kraksåelva" />
		<tag k="ssr:stedsnr" v="836023" />
	</node>
	<node id="-478789" lat="60.6216888848" lon="5.82791110556">
		<tag k="layer" v="-1" />
		<tag k="name" v="Småtunnel III" />
		<tag k="ssr:stedsnr" v="408725" />
		<tag k="tunnel" v="yes" />
	</node>
	<node id="-478788" lat="60.622280556" lon="5.82614166376">
		<tag k="layer" v="-1" />
		<tag k="name" v="Småtunnel II" />
		<tag k="ssr:stedsnr" v="408724" />
		<tag k="tunnel" v="yes" />
	</node>
	<node id="-478787" lat="60.7354750015" lon="5.83389166942">
		<tag k="highway" v="path" />
		<tag k="name" v="Stien" />
		<tag k="ssr:stedsnr" v="408688" />
	</node>
	<node id="-478855" lat="60.479072225" lon="5.74473332786">
		<tag k="bridge" v="yes" />
		<tag k="layer" v="1" />
		<tag k="name" v="Vaksdalselva" />
		<tag k="ssr:stedsnr" v="411030" />
	</node>
	<node id="-480576" lat="60.6707194416" lon="5.72811666424">
		<tag k="highway" v="path" />
		<tag k="name" v="Stien" />
		<tag k="ssr:stedsnr" v="712860" />
	</node>
	<node id="-479230" lat="60.5566611127" lon="5.74935000583">
		<tag k="layer" v="-1" />
		<tag k="name" v="Lågaskars" />
		<tag k="ssr:stedsnr" v="105348" />
		<tag k="tunnel" v="yes" />
	</node>
	<node id="-480330" lat="60.6203388895" lon="5.86584166652">
		<tag k="alt_name" v="Dalseid" />
		<tag k="layer" v="-1" />
		<tag k="name" v="Dalseidtunnelen" />
		<tag k="ssr:stedsnr" v="650361" />
		<tag k="tunnel" v="yes" />
	</node>
	<node id="-478777" lat="60.6675138878" lon="5.74177500635">
		<tag k="layer" v="-1" />
		<tag k="name" v="Otterstadn" />
		<tag k="ssr:stedsnr" v="408394" />
		<tag k="tunnel" v="yes" />
	</node>
	<node id="-478775" lat="60.4526527807" lon="5.70344999323">
		<tag k="layer" v="-1" />
		<tag k="name" v="Langhelle" />
		<tag k="ssr:stedsnr" v="408308" />
		<tag k="tunnel" v="yes" />
	</node>
	<node id="-478774" lat="60.4861916703" lon="5.73523055193">
		<tag k="layer" v="-1" />
		<tag k="name" v="Jamna" />
		<tag k="ssr:stedsnr" v="408269" />
		<tag k="tunnel" v="yes" />
	</node>
	<node id="-481225" lat="60.7968305569" lon="6.15840278239">
		<tag k="bridge" v="yes" />
		<tag k="layer" v="1" />
		<tag k="name" v="Storelven" />
		<tag k="ssr:stedsnr" v="957030" />
	</node>
	<node id="-480592" lat="60.5402499965" lon="6.06662776976">
		<tag k="highway" v="path" />
		<tag k="name" v="Dyrastegen" />
		<tag k="ssr:stedsnr" v="712990" />
	</node>
	<node id="-479155" lat="60.478617288" lon="5.73522560966">
		<tag k="name" v="Vaksdal stasjon" />
		<tag k="railway" v="station" />
		<tag k="ssr:stedsnr" v="66942" />
		<tag k="train" v="yes" />
	</node>
	<node id="-479475" lat="60.5794722182" lon="5.77679999774">
		<tag k="bridge" v="yes" />
		<tag k="layer" v="1" />
		<tag k="name" v="Dalehagen" />
		<tag k="ssr:stedsnr" v="168051" />
	</node>
	<node id="-480176" lat="60.6610916654" lon="5.77835556012">
		<tag k="layer" v="-1" />
		<tag k="name" v="Vikaberg" />
		<tag k="ssr:stedsnr" v="590646" />
		<tag k="tunnel" v="yes" />
	</node>
	<node id="-479048" lat="60.6192638904" lon="5.82917499182">
		<tag k="layer" v="-1" />
		<tag k="name" v="Langarennet II" />
		<tag k="ssr:stedsnr" v="44301" />
		<tag k="tunnel" v="yes" />
	</node>
	<node id="-478677" lat="60.7788666693" lon="5.83624167055">
		<tag k="bridge" v="yes" />
		<tag k="layer" v="1" />
		<tag k="name" v="Rekavik" />
		<tag k="ssr:stedsnr" v="350030" />
	</node>
	<node id="-481068" lat="60.5758416662" lon="5.76746389518">
		<tag k="man_made" v="quay" />
		<tag k="name" v="Dalebryggja" />
		<tag k="place" v="locality" />
		<tag k="ssr:stedsnr" v="916605" />
	</node>
	<node id="-480683" lat="60.4541888877" lon="5.72647222235">
		<tag k="layer" v="-1" />
		<tag k="name" v="Kjenes" />
		<tag k="ssr:stedsnr" v="772291" />
		<tag k="tunnel" v="yes" />
	</node>
	<node id="-478762" lat="60.4502666673" lon="5.65727499575">
		<tag k="alt_name" v="Stavenes" />
		<tag k="layer" v="-1" />
		<tag k="name" v="Stavenestunnelen" />
		<tag k="ssr:stedsnr" v="390975" />
		<tag k="tunnel" v="yes" />
	</node>
	<node id="-479913" lat="60.6188611114" lon="5.89589166826">
		<tag k="layer" v="-1" />
		<tag k="name" v="Trollkonetunnelen" />
		<tag k="ssr:stedsnr" v="481003" />
		<tag k="tunnel" v="yes" />
	</node>
	<node id="-479912" lat="60.4765805533" lon="5.7405055613">
		<tag k="bridge" v="yes" />
		<tag k="layer" v="1" />
		<tag k="name" v="Vaksdal Viadukt" />
		<tag k="ssr:stedsnr" v="472029" />
	</node>
	<node id="-479399" lat="60.6924166702" lon="5.6846694478">
		<tag k="landuse" v="harbour" />
		<tag k="name" v="Hamna" />
		<tag k="seamark:type" v="harbour" />
		<tag k="ssr:stedsnr" v="165778" />
	</node>
	<node id="-479312" lat="60.7855472268" lon="5.84663055961">
		<tag k="bridge" v="yes" />
		<tag k="layer" v="1" />
		<tag k="name" v="Høvik" />
		<tag k="ssr:stedsnr" v="108041" />
	</node>
	<node id="-480164" lat="60.6985388924" lon="5.76514444092">
		<tag k="layer" v="-1" />
		<tag k="name" v="Hesjedals" />
		<tag k="ssr:stedsnr" v="590488" />
		<tag k="tunnel" v="yes" />
	</node>
	<node id="-480419" lat="60.830458333" lon="6.23158888401">
		<tag k="bridge" v="yes" />
		<tag k="layer" v="1" />
		<tag k="name" v="Hagelvane" />
		<tag k="ssr:stedsnr" v="654032" />
	</node>
	<node id="-480418" lat="60.8343249963" lon="6.22130555831">
		<tag k="bridge" v="yes" />
		<tag k="layer" v="1" />
		<tag k="name" v="Røyrdalen" />
		<tag k="ssr:stedsnr" v="654024" />
	</node>
	<node id="-480417" lat="60.6283888855" lon="5.81786111869">
		<tag k="bridge" v="yes" />
		<tag k="layer" v="1" />
		<tag k="name" v="Sagelv" />
		<tag k="ssr:stedsnr" v="654025" />
	</node>
	<node id="-478496" lat="60.5549361132" lon="6.01400556368">
		<tag k="bridge" v="yes" />
		<tag k="layer" v="1" />
		<tag k="name" v="Kaldå" />
		<tag k="ssr:stedsnr" v="290038" />
	</node>
	<node id="-479135" lat="60.575694448" lon="5.89958055163">
		<tag k="bridge" v="yes" />
		<tag k="layer" v="1" />
		<tag k="name" v="Øye" />
		<tag k="ssr:stedsnr" v="47057" />
	</node>
	<node id="-479134" lat="60.7289027763" lon="5.79899167486">
		<tag k="bridge" v="yes" />
		<tag k="layer" v="1" />
		<tag k="name" v="Eidsland" />
		<tag k="ssr:stedsnr" v="47042" />
	</node>
	<node id="-479133" lat="60.7286500028" lon="5.79729444518">
		<tag k="bridge" v="yes" />
		<tag k="layer" v="1" />
		<tag k="name" v="Eidslandet" />
		<tag k="ssr:stedsnr" v="47039" />
	</node>
	<node id="-479132" lat="60.6742833379" lon="5.73915000184">
		<tag k="bridge" v="yes" />
		<tag k="layer" v="1" />
		<tag k="name" v="Kallestadsundet" />
		<tag k="ssr:stedsnr" v="47037" />
	</node>
	<node id="-478874" lat="60.7221527753" lon="5.78846388912">
		<tag k="layer" v="-1" />
		<tag k="name" v="Høgaberg" />
		<tag k="ssr:stedsnr" v="894539" />
		<tag k="tunnel" v="yes" />
	</node>
	<node id="-480793" lat="60.5624583379" lon="5.99875833471">
		<tag k="bridge" v="yes" />
		<tag k="layer" v="1" />
		<tag k="name" v="Bergevatn" />
		<tag k="ssr:stedsnr" v="775193" />
	</node>
	<node id="-480151" lat="60.8061888906" lon="5.83464444273">
		<tag k="alt_name" v="Modalen" />
		<tag k="layer" v="-1" />
		<tag k="name" v="Modalentunnelen" />
		<tag k="ssr:stedsnr" v="578041" />
		<tag k="tunnel" v="yes" />
	</node>
	<node id="-480159" lat="60.5815361103" lon="5.82136666355">
		<tag k="highway" v="path" />
		<tag k="name" v="Bjørnstien" />
		<tag k="ssr:stedsnr" v="590126" />
	</node>
	<node id="-478858" lat="60.5115138905" lon="5.72636111808">
		<tag k="bridge" v="yes" />
		<tag k="layer" v="1" />
		<tag k="name" v="Fossdal" />
		<tag k="ssr:stedsnr" v="411043" />
	</node>
	<node id="-478679" lat="60.5814999999" lon="5.78942778009">
		<tag k="bridge" v="yes" />
		<tag k="layer" v="1" />
		<tag k="name" v="Dalegarden" />
		<tag k="ssr:stedsnr" v="350038" />
	</node>
	<node id="-478856" lat="60.6982500005" lon="5.76473055903">
		<tag k="bridge" v="yes" />
		<tag k="layer" v="1" />
		<tag k="name" v="Hesjedalsfossen" />
		<tag k="ssr:stedsnr" v="411039" />
	</node>
	<node id="-480007" lat="60.6624361149" lon="5.75114722643">
		<tag k="layer" v="-1" />
		<tag k="name" v="Stamnes" />
		<tag k="ssr:stedsnr" v="529727" />
		<tag k="tunnel" v="yes" />
	</node>
	<node id="-480005" lat="60.4373222215" lon="5.63484721755">
		<tag k="layer" v="-1" />
		<tag k="name" v="Trengereidtunnelen" />
		<tag k="ssr:stedsnr" v="529692" />
		<tag k="tunnel" v="yes" />
	</node>
	<node id="-478678" lat="60.7868527744" lon="6.04284166345">
		<tag k="bridge" v="yes" />
		<tag k="layer" v="1" />
		<tag k="name" v="Fagerdalen" />
		<tag k="ssr:stedsnr" v="350035" />
	</node>
	<node id="-479234" lat="60.6429222258" lon="5.80321666759">
		<tag k="layer" v="-1" />
		<tag k="name" v="Flagaberg" />
		<tag k="ssr:stedsnr" v="105430" />
		<tag k="tunnel" v="yes" />
	</node>
	<node id="-478465" lat="60.5706888869" lon="5.60112778634">
		<tag k="highway" v="path" />
		<tag k="name" v="Børsti" />
		<tag k="ssr:stedsnr" v="288298" />
	</node>
</osm>
