<?xml version="1.0" encoding="UTF-8"?>
<osm generator="osmapis" version="0.6">
	<node id="-480256" lat="60.7203444422" lon="5.6838027693">
		<tag k="historic" v="shieling" />
		<tag k="name" v="Ellvikstølen" />
		<tag k="place" v="locality" />
		<tag k="ssr:stedsnr" v="612288" />
	</node>
	<node id="-480253" lat="60.4546574968" lon="5.64107450853">
		<tag k="fixme" v="consider place=hamlet" />
		<tag k="name" v="Hana" />
		<tag k="place" v="farm" />
		<tag k="ssr:stedsnr" v="612016" />
	</node>
	<node id="-479739" lat="60.7787749979" lon="6.05039166489">
		<tag k="name" v="Øykavegen" />
		<tag k="place" v="locality" />
		<tag k="ssr:stedsnr" v="251764" />
	</node>
	<node id="-478714" lat="60.6181138868" lon="5.70321666715">
		<tag k="historic" v="shieling" />
		<tag k="name" v="Veastølen" />
		<tag k="place" v="locality" />
		<tag k="ssr:stedsnr" v="370728" />
	</node>
	<node id="-480249" lat="60.6565472195" lon="5.79807777141">
		<tag k="name" v="Dæmring" />
		<tag k="place" v="farm" />
		<tag k="ssr:stedsnr" v="604587" />
	</node>
	<node id="-479735" lat="60.7779151764" lon="6.0195241411">
		<tag k="alt_name" v="Lavik" />
		<tag k="fixme" v="consider place=hamlet" />
		<tag k="name" v="Laviki" />
		<tag k="place" v="farm" />
		<tag k="ssr:stedsnr" v="251721" />
	</node>
	<node id="-478710" lat="60.6630549969" lon="5.78027937089">
		<tag k="fixme" v="consider place=hamlet" />
		<tag k="name" v="Vik" />
		<tag k="place" v="farm" />
		<tag k="ssr:stedsnr" v="370675" />
	</node>
	<node id="-478708" lat="60.667674998" lon="5.77768334213">
		<tag k="name" v="Lunde" />
		<tag k="place" v="farm" />
		<tag k="ssr:stedsnr" v="370643" />
	</node>
	<node id="-478974" lat="60.6838333306" lon="5.74305000043">
		<tag k="name" v="Bjørkheim" />
		<tag k="place" v="farm" />
		<tag k="ssr:stedsnr" v="6354" />
	</node>
	<node id="-478703" lat="60.5545498332" lon="5.65110346198">
		<tag k="fixme" v="consider place=hamlet" />
		<tag k="name" v="Blomdalen" />
		<tag k="place" v="farm" />
		<tag k="ssr:stedsnr" v="370628" />
	</node>
	<node id="-479726" lat="60.7972694448" lon="6.05107777719">
		<tag k="name" v="Vonheim" />
		<tag k="place" v="farm" />
		<tag k="ssr:stedsnr" v="251238" />
	</node>
	<node id="-479725" lat="60.8024267984" lon="6.0593067798">
		<tag k="fixme" v="consider place=hamlet" />
		<tag k="name" v="Fjellanger" />
		<tag k="place" v="farm" />
		<tag k="ssr:stedsnr" v="251236" />
	</node>
	<node id="-479723" lat="60.7916861133" lon="5.85931110471">
		<tag k="name" v="Leitet" />
		<tag k="place" v="locality" />
		<tag k="ssr:stedsnr" v="251223" />
	</node>
	<node id="-479208" lat="60.8112816565" lon="6.17101275242">
		<tag k="fixme" v="consider place=hamlet" />
		<tag k="name" v="Brakestad" />
		<tag k="place" v="farm" />
		<tag k="ssr:stedsnr" v="69205" />
	</node>
	<node id="-478695" lat="60.6173555578" lon="5.80148611363">
		<tag k="historic" v="shieling" />
		<tag k="name" v="Dalseidstølen" />
		<tag k="place" v="locality" />
		<tag k="ssr:stedsnr" v="370552" />
	</node>
	<node id="-479205" lat="60.8430305584" lon="6.21940278531">
		<tag k="name" v="Trefallstølen" />
		<tag k="place" v="isolated_dwelling" />
		<tag k="ssr:stedsnr" v="69576" />
	</node>
	<node id="-478886" lat="60.6884305576" lon="5.72061389688">
		<tag k="name" v="Mjeltviki" />
		<tag k="place" v="isolated_dwelling" />
		<tag k="ssr:stedsnr" v="894760" />
	</node>
	<node id="-478715" lat="60.6322749962" lon="5.83053889298">
		<tag k="name" v="Tyssebruni" />
		<tag k="place" v="farm" />
		<tag k="ssr:stedsnr" v="370746" />
	</node>
	<node id="-479709" lat="60.5540888921" lon="5.99724443648">
		<tag k="historic" v="shieling" />
		<tag k="name" v="Skarvastølen" />
		<tag k="place" v="locality" />
		<tag k="ssr:stedsnr" v="249808" />
	</node>
	<node id="-479707" lat="60.5373305524" lon="6.07814999143">
		<tag k="historic" v="shieling" />
		<tag k="name" v="Hålebergstølen" />
		<tag k="place" v="locality" />
		<tag k="ssr:stedsnr" v="249782" />
	</node>
	<node id="-478681" lat="60.4984777763" lon="5.76783055411">
		<tag k="name" v="Tjørnhaugen" />
		<tag k="place" v="isolated_dwelling" />
		<tag k="ssr:stedsnr" v="369973" />
	</node>
	<node id="-479192" lat="60.6273666687" lon="5.82216666592">
		<tag k="name" v="Tretteneset" />
		<tag k="place" v="farm" />
		<tag k="ssr:stedsnr" v="67744" />
	</node>
	<node id="-478732" lat="60.5467249978" lon="5.64849165857">
		<tag k="name" v="Heggebotnen" />
		<tag k="place" v="farm" />
		<tag k="ssr:stedsnr" v="370901" />
	</node>
	<node id="-479697" lat="60.6669137868" lon="5.77208395671">
		<tag k="name" v="Kullshammar" />
		<tag k="place" v="farm" />
		<tag k="ssr:stedsnr" v="249609" />
	</node>
	<node id="-479695" lat="60.6628554361" lon="5.69359132164">
		<tag k="fixme" v="consider place=hamlet" />
		<tag k="name" v="Toskedalen" />
		<tag k="place" v="farm" />
		<tag k="ssr:stedsnr" v="249604" />
	</node>
	<node id="-481228" lat="60.4638716147" lon="5.74204397351">
		<tag k="fixme" v="consider place=hamlet" />
		<tag k="name" v="Bogo" />
		<tag k="place" v="village" />
		<tag k="ssr:stedsnr" v="971609" />
	</node>
	<node id="-481227" lat="60.4636055523" lon="5.74552222945">
		<tag k="alt_name" v="Ekren" />
		<tag k="name" v="Ekra" />
		<tag k="place" v="farm" />
		<tag k="ssr:stedsnr" v="969159" />
	</node>
	<node id="-479174" lat="60.5809888873" lon="5.82753333068">
		<tag k="historic" v="shieling" />
		<tag k="name" v="Gamlesætra" />
		<tag k="place" v="locality" />
		<tag k="ssr:stedsnr" v="67593" />
	</node>
	<node id="-478966" lat="60.6178686707" lon="5.88353687423">
		<tag k="fixme" v="consider place=hamlet" />
		<tag k="name" v="Verpelstad" />
		<tag k="place" v="farm" />
		<tag k="ssr:stedsnr" v="6177" />
	</node>
	<node id="-478970" lat="60.7346666626" lon="5.80159444783">
		<tag k="name" v="Eidslandet" />
		<tag k="place" v="village" />
		<tag k="ssr:stedsnr" v="6306" />
	</node>
	<node id="-480701" lat="60.6850472203" lon="5.67742222991">
		<tag k="name" v="Vikane" />
		<tag k="place" v="farm" />
		<tag k="ssr:stedsnr" v="772759" />
	</node>
	<node id="-479676" lat="60.6242837469" lon="5.85636708592">
		<tag k="alt_name" v="Furnes" />
		<tag k="fixme" v="consider place=hamlet" />
		<tag k="name" v="Fornes" />
		<tag k="place" v="farm" />
		<tag k="ssr:stedsnr" v="249123" />
	</node>
	<node id="-479672" lat="60.4888329698" lon="5.7657044075">
		<tag k="fixme" v="consider place=hamlet" />
		<tag k="name" v="Sædalen" />
		<tag k="place" v="farm" />
		<tag k="ssr:stedsnr" v="248970" />
	</node>
	<node id="-479671" lat="60.4800642968" lon="5.74004215433">
		<tag k="alt_name" v="Jamne" />
		<tag k="fixme" v="consider place=hamlet" />
		<tag k="name" v="Javna" />
		<tag k="old_name" v="Javatna" />
		<tag k="place" v="farm" />
		<tag k="ssr:stedsnr" v="248962" />
	</node>
	<node id="-478537" lat="60.573663888" lon="5.88036110801">
		<tag k="historic" v="shieling" />
		<tag k="name" v="Fossestølen" />
		<tag k="place" v="locality" />
		<tag k="ssr:stedsnr" v="309870" />
	</node>
	<node id="-479156" lat="60.4834138874" lon="5.73413332532">
		<tag k="name" v="Sveneset" />
		<tag k="place" v="farm" />
		<tag k="ssr:stedsnr" v="66943" />
	</node>
	<node id="-479666" lat="60.5740674887" lon="5.94405976784">
		<tag k="name" v="Li" />
		<tag k="place" v="hamlet" />
		<tag k="ssr:stedsnr" v="248861" />
	</node>
	<node id="-479660" lat="60.5693249983" lon="5.68025555512">
		<tag k="fixme" v="consider place=hamlet" />
		<tag k="name" v="Hesjedalen" />
		<tag k="place" v="farm" />
		<tag k="ssr:stedsnr" v="248610" />
	</node>
	<node id="-479146" lat="60.5957388858" lon="5.74056667376">
		<tag k="name" v="Fylingslii" />
		<tag k="place" v="locality" />
		<tag k="ssr:stedsnr" v="66506" />
	</node>
	<node id="-479143" lat="60.6874297655" lon="5.74437212379">
		<tag k="fixme" v="consider place=hamlet" />
		<tag k="name" v="Kalland" />
		<tag k="place" v="farm" />
		<tag k="ssr:stedsnr" v="66327" />
	</node>
	<node id="-479138" lat="60.4936635276" lon="5.73397918551">
		<tag k="alt_name" v="Skreia" />
		<tag k="fixme" v="consider place=hamlet" />
		<tag k="name" v="Skreidi" />
		<tag k="place" v="farm" />
		<tag k="ssr:stedsnr" v="66973" />
	</node>
	<node id="-480673" lat="60.5254666709" lon="5.72492500659">
		<tag k="name" v="Høghaugen" />
		<tag k="place" v="isolated_dwelling" />
		<tag k="ssr:stedsnr" v="771620" />
	</node>
	<node id="-480670" lat="60.8438666662" lon="6.05397778606">
		<tag k="name" v="Kellbonn" />
		<tag k="place" v="farm" />
		<tag k="ssr:stedsnr" v="748589" />
	</node>
	<node id="-480669" lat="60.8288214291" lon="6.27152538725">
		<tag k="fixme" v="consider place=hamlet" />
		<tag k="name" v="Gullbrå" />
		<tag k="place" v="farm" />
		<tag k="ssr:stedsnr" v="737537" />
	</node>
	<node id="-480288" lat="60.7056611138" lon="5.69975000657">
		<tag k="name" v="Dalen" />
		<tag k="place" v="farm" />
		<tag k="ssr:stedsnr" v="613258" />
	</node>
	<node id="-478617" lat="60.631855555" lon="5.71842778452">
		<tag k="name" v="Groli" />
		<tag k="place" v="farm" />
		<tag k="ssr:stedsnr" v="347753" />
	</node>
	<node id="-480661" lat="60.7783999973" lon="6.13437500859">
		<tag k="historic" v="shieling" />
		<tag k="name" v="Bergastølen" />
		<tag k="place" v="locality" />
		<tag k="ssr:stedsnr" v="736751" />
	</node>
	<node id="-479982" lat="60.8190111119" lon="6.03682499423">
		<tag k="historic" v="shieling" />
		<tag k="name" v="Haugastølen" />
		<tag k="place" v="locality" />
		<tag k="ssr:stedsnr" v="494198" />
	</node>
	<node id="-478759" lat="60.7807565266" lon="6.0867898001">
		<tag k="alt_name" v="Binningebø" />
		<tag k="fixme" v="consider place=hamlet" />
		<tag k="name" v="Binningabø" />
		<tag k="place" v="farm" />
		<tag k="ssr:stedsnr" v="372751" />
	</node>
	<node id="-480139" lat="60.78442855" lon="5.92305900743">
		<tag k="fixme" v="consider place=hamlet" />
		<tag k="name" v="Nese" />
		<tag k="place" v="farm" />
		<tag k="ssr:stedsnr" v="554218" />
	</node>
	<node id="-480136" lat="60.5077361076" lon="5.7587694408">
		<tag k="historic" v="shieling" />
		<tag k="name" v="Jamnasætra" />
		<tag k="place" v="locality" />
		<tag k="ssr:stedsnr" v="552996" />
	</node>
	<node id="-480132" lat="60.5818315658" lon="5.88758676948">
		<tag k="fixme" v="consider place=hamlet" />
		<tag k="name" v="Fosse" />
		<tag k="place" v="farm" />
		<tag k="ssr:stedsnr" v="552877" />
	</node>
	<node id="-480131" lat="60.5716395299" lon="5.93005216394">
		<tag k="fixme" v="consider place=hamlet" />
		<tag k="name" v="Brekka" />
		<tag k="place" v="farm" />
		<tag k="ssr:stedsnr" v="552872" />
	</node>
	<node id="-480641" lat="60.4802861076" lon="5.75842499233">
		<tag k="name" v="Tolåsen" />
		<tag k="place" v="farm" />
		<tag k="ssr:stedsnr" v="734953" />
	</node>
	<node id="-480127" lat="60.5374833353" lon="6.03859444518">
		<tag k="historic" v="shieling" />
		<tag k="name" v="Tårneset" />
		<tag k="place" v="locality" />
		<tag k="ssr:stedsnr" v="552819" />
	</node>
	<node id="-480635" lat="60.5703749987" lon="5.94825000257">
		<tag k="name" v="Nyheim" />
		<tag k="place" v="farm" />
		<tag k="ssr:stedsnr" v="734834" />
	</node>
	<node id="-480634" lat="60.5622628011" lon="6.00380676205">
		<tag k="fixme" v="consider place=hamlet" />
		<tag k="name" v="Berge" />
		<tag k="place" v="farm" />
		<tag k="ssr:stedsnr" v="734814" />
	</node>
	<node id="-480633" lat="60.5549416685" lon="6.02720276984">
		<tag k="historic" v="shieling" />
		<tag k="name" v="Høgastølen" />
		<tag k="place" v="locality" />
		<tag k="ssr:stedsnr" v="734813" />
	</node>
	<node id="-481143" lat="60.6749055543" lon="5.73156388918">
		<tag k="name" v="Nytun" />
		<tag k="place" v="hamlet" />
		<tag k="ssr:stedsnr" v="954622" />
	</node>
	<node id="-478582" lat="60.8276140305" lon="6.24381508141">
		<tag k="fixme" v="consider place=hamlet" />
		<tag k="name" v="Ekse" />
		<tag k="place" v="farm" />
		<tag k="ssr:stedsnr" v="312560" />
	</node>
	<node id="-480117" lat="60.6566416694" lon="5.80425555491">
		<tag k="fixme" v="consider place=hamlet" />
		<tag k="name" v="Straume" />
		<tag k="place" v="village" />
		<tag k="ssr:stedsnr" v="552704" />
	</node>
	<node id="-480178" lat="60.7825972184" lon="5.86543333743">
		<tag k="name" v="Høvik" />
		<tag k="place" v="hamlet" />
		<tag k="ssr:stedsnr" v="590662" />
	</node>
	<node id="-480624" lat="60.6441564082" lon="5.82098230218">
		<tag k="fixme" v="consider place=hamlet" />
		<tag k="name" v="Dyviki" />
		<tag k="place" v="farm" />
		<tag k="ssr:stedsnr" v="734705" />
	</node>
	<node id="-478952" lat="60.5634448508" lon="5.76003757988">
		<tag k="fixme" v="consider place=hamlet" />
		<tag k="name" v="Helle" />
		<tag k="place" v="farm" />
		<tag k="ssr:stedsnr" v="989573" />
	</node>
	<node id="-478572" lat="60.7691305518" lon="5.8561361185">
		<tag k="name" v="Fitjane" />
		<tag k="place" v="locality" />
		<tag k="ssr:stedsnr" v="311748" />
	</node>
	<node id="-480106" lat="60.5811916653" lon="5.79375833752">
		<tag k="name" v="Dalegarden" />
		<tag k="place" v="hamlet" />
		<tag k="ssr:stedsnr" v="552635" />
	</node>
	<node id="-480617" lat="60.6617361091" lon="5.72490277218">
		<tag k="name" v="Solhaug" />
		<tag k="place" v="farm" />
		<tag k="ssr:stedsnr" v="734676" />
	</node>
	<node id="-481128" lat="60.8283305597" lon="6.14939443926">
		<tag k="historic" v="shieling" />
		<tag k="name" v="Martastølen" />
		<tag k="place" v="locality" />
		<tag k="ssr:stedsnr" v="919211" />
	</node>
	<node id="-479548" lat="60.7564999971" lon="5.80140276908">
		<tag k="historic" v="shieling" />
		<tag k="name" v="Fitstølen" />
		<tag k="place" v="locality" />
		<tag k="ssr:stedsnr" v="190066" />
	</node>
	<node id="-478950" lat="60.4817300545" lon="5.75729294442">
		<tag k="fixme" v="consider place=hamlet" />
		<tag k="name" v="Vaksdal" />
		<tag k="place" v="farm" />
		<tag k="ssr:stedsnr" v="989571" />
	</node>
	<node id="-480612" lat="60.7383750005" lon="6.04171388709">
		<tag k="historic" v="shieling" />
		<tag k="name" v="Fosstølen" />
		<tag k="place" v="locality" />
		<tag k="ssr:stedsnr" v="734447" />
	</node>
	<node id="-480099" lat="60.6956611137" lon="5.78211945303">
		<tag k="historic" v="shieling" />
		<tag k="name" v="Haugen" />
		<tag k="place" v="locality" />
		<tag k="ssr:stedsnr" v="552388" />
	</node>
	<node id="-478561" lat="60.558455559" lon="5.95723611593">
		<tag k="historic" v="shieling" />
		<tag k="name" v="Listølen" />
		<tag k="place" v="locality" />
		<tag k="ssr:stedsnr" v="310820" />
	</node>
	<node id="-481119" lat="60.7737027774" lon="6.05717777401">
		<tag k="name" v="Leina" />
		<tag k="place" v="locality" />
		<tag k="ssr:stedsnr" v="918753" />
	</node>
	<node id="-480606" lat="60.7036694457" lon="5.69518333441">
		<tag k="name" v="Mellesdalsstøi" />
		<tag k="place" v="locality" />
		<tag k="ssr:stedsnr" v="734300" />
	</node>
	<node id="-480605" lat="60.7009694487" lon="5.67868611691">
		<tag k="alt_name" v="Steinsbogen" />
		<tag k="name" v="Steinbogen" />
		<tag k="place" v="farm" />
		<tag k="ssr:stedsnr" v="734294" />
	</node>
	<node id="-478554" lat="60.6920610954" lon="5.78266362091">
		<tag k="fixme" v="consider place=hamlet" />
		<tag k="name" v="Hesjedalen" />
		<tag k="place" v="farm" />
		<tag k="ssr:stedsnr" v="310347" />
	</node>
	<node id="-478553" lat="60.6313388867" lon="5.86249721378">
		<tag k="historic" v="shieling" />
		<tag k="name" v="Lammastølen" />
		<tag k="place" v="locality" />
		<tag k="ssr:stedsnr" v="310124" />
	</node>
	<node id="-480088" lat="60.4826472194" lon="5.75314722385">
		<tag k="name" v="Tveitane" />
		<tag k="place" v="farm" />
		<tag k="ssr:stedsnr" v="551953" />
	</node>
	<node id="-479574" lat="60.561889373" lon="5.67038729106">
		<tag k="fixme" v="consider tourism=alpine_hut or tourism=chalet" />
		<tag k="name" v="Træet gård" />
		<tag k="ssr:stedsnr" v="216494" />
		<tag k="tourism" v="wilderness_hut" />
	</node>
	<node id="-480085" lat="60.645554717" lon="5.74033952349">
		<tag k="fixme" v="consider place=hamlet" />
		<tag k="name" v="Kvamme" />
		<tag k="place" v="farm" />
		<tag k="ssr:stedsnr" v="551698" />
	</node>
	<node id="-480084" lat="60.6515055587" lon="5.70866111972">
		<tag k="historic" v="shieling" />
		<tag k="name" v="Kallvikastølen" />
		<tag k="place" v="locality" />
		<tag k="ssr:stedsnr" v="551688" />
	</node>
	<node id="-478547" lat="60.4852722212" lon="5.76563055771">
		<tag k="name" v="Synsvoll" />
		<tag k="place" v="farm" />
		<tag k="ssr:stedsnr" v="309966" />
	</node>
	<node id="-480082" lat="60.6878388891" lon="5.72048610884">
		<tag k="name" v="Toskhelleren" />
		<tag k="place" v="farm" />
		<tag k="ssr:stedsnr" v="551344" />
	</node>
	<node id="-480079" lat="60.7848061023" lon="5.95720002289">
		<tag k="fixme" v="consider place=hamlet" />
		<tag k="name" v="Flatekvål" />
		<tag k="place" v="farm" />
		<tag k="ssr:stedsnr" v="543501" />
	</node>
	<node id="-481102" lat="60.7958166627" lon="5.88111666854">
		<tag k="alt_name" v="Veslejordsstølen" />
		<tag k="historic" v="shieling" />
		<tag k="name" v="Vetlejordsstølen" />
		<tag k="place" v="locality" />
		<tag k="ssr:stedsnr" v="918215" />
	</node>
	<node id="-481101" lat="60.7953027799" lon="5.99009444445">
		<tag k="historic" v="shieling" />
		<tag k="name" v="Flatkvålsstølen" />
		<tag k="place" v="locality" />
		<tag k="ssr:stedsnr" v="918210" />
	</node>
	<node id="-478540" lat="60.5481805536" lon="5.70127500259">
		<tag k="alt_name" v="Fokstad, øvre;Fokstad" />
		<tag k="name" v="Øvre Fokstad" />
		<tag k="place" v="farm" />
		<tag k="ssr:stedsnr" v="309902" />
	</node>
	<node id="-478557" lat="60.6908344502" lon="5.68645068868">
		<tag k="fixme" v="consider place=hamlet" />
		<tag k="name" v="Gammersviki" />
		<tag k="place" v="farm" />
		<tag k="ssr:stedsnr" v="310379" />
	</node>
	<node id="-481098" lat="60.568663885" lon="5.97740000354">
		<tag k="historic" v="shieling" />
		<tag k="name" v="Solbjørg" />
		<tag k="place" v="locality" />
		<tag k="ssr:stedsnr" v="917814" />
	</node>
	<node id="-481097" lat="60.6650833344" lon="5.86116667472">
		<tag k="historic" v="shieling" />
		<tag k="name" v="Dyvikstølen" />
		<tag k="place" v="locality" />
		<tag k="ssr:stedsnr" v="917049" />
	</node>
	<node id="-479559" lat="60.7744979351" lon="6.06874002934">
		<tag k="fixme" v="consider place=hamlet" />
		<tag k="name" v="Fosse" />
		<tag k="place" v="farm" />
		<tag k="ssr:stedsnr" v="190717" />
	</node>
	<node id="-481092" lat="60.4796222206" lon="5.79055556399">
		<tag k="name" v="Haugen" />
		<tag k="place" v="farm" />
		<tag k="ssr:stedsnr" v="916954" />
	</node>
	<node id="-479041" lat="60.8543805576" lon="6.16998055116">
		<tag k="historic" v="shieling" />
		<tag k="name" v="Beinhelleren" />
		<tag k="place" v="locality" />
		<tag k="ssr:stedsnr" v="9117" />
	</node>
	<node id="-478528" lat="60.5653000017" lon="5.75243889427">
		<tag k="name" v="Hellestræet" />
		<tag k="place" v="farm" />
		<tag k="ssr:stedsnr" v="309645" />
	</node>
	<node id="-479039" lat="60.787880552" lon="5.97322500841">
		<tag k="name" v="Osen" />
		<tag k="place" v="farm" />
		<tag k="ssr:stedsnr" v="8769" />
	</node>
	<node id="-479550" lat="60.7571444441" lon="5.82293333606">
		<tag k="name" v="Løland" />
		<tag k="place" v="farm" />
		<tag k="ssr:stedsnr" v="190068" />
	</node>
	<node id="-478524" lat="60.578724996" lon="5.77292777884">
		<tag k="name" v="Tveite" />
		<tag k="place" v="locality" />
		<tag k="ssr:stedsnr" v="309611" />
	</node>
	<node id="-479960" lat="60.6645104545" lon="5.74872376457">
		<tag k="fixme" v="consider place=hamlet" />
		<tag k="name" v="Stamneshella" />
		<tag k="place" v="village" />
		<tag k="ssr:stedsnr" v="492633" />
	</node>
	<node id="-479796" lat="60.8074249961" lon="6.04021388419">
		<tag k="historic" v="shieling" />
		<tag k="name" v="Laviksstølen" />
		<tag k="place" v="locality" />
		<tag k="ssr:stedsnr" v="433227" />
	</node>
	<node id="-478516" lat="60.6903250012" lon="5.82007499916">
		<tag k="historic" v="shieling" />
		<tag k="name" v="Dalastølen" />
		<tag k="place" v="locality" />
		<tag k="ssr:stedsnr" v="309381" />
	</node>
	<node id="-479025" lat="60.8054083373" lon="6.21169166328">
		<tag k="historic" v="shieling" />
		<tag k="name" v="Eksestølen" />
		<tag k="place" v="locality" />
		<tag k="ssr:stedsnr" v="8226" />
	</node>
	<node id="-481070" lat="60.5634282199" lon="5.70956364271">
		<tag k="fixme" v="consider place=hamlet" />
		<tag k="name" v="Grautåni" />
		<tag k="place" v="farm" />
		<tag k="ssr:stedsnr" v="916641" />
	</node>
	<node id="-480989" lat="60.7200944483" lon="5.75089444719">
		<tag k="historic" v="shieling" />
		<tag k="name" v="Brørvikstølen" />
		<tag k="place" v="locality" />
		<tag k="ssr:stedsnr" v="856288" />
	</node>
	<node id="-479018" lat="60.5100333364" lon="5.81816389214">
		<tag k="historic" v="shieling" />
		<tag k="name" v="Nyvegen" />
		<tag k="place" v="locality" />
		<tag k="ssr:stedsnr" v="6990" />
	</node>
	<node id="-479529" lat="60.5543583312" lon="5.91446667333">
		<tag k="historic" v="shieling" />
		<tag k="name" v="Brekkestølen" />
		<tag k="place" v="locality" />
		<tag k="ssr:stedsnr" v="188847" />
	</node>
	<node id="-479016" lat="60.5207853851" lon="5.72505968468">
		<tag k="alt_name" v="Fossmarki" />
		<tag k="fixme" v="consider place=hamlet" />
		<tag k="name" v="Fossmark" />
		<tag k="place" v="farm" />
		<tag k="ssr:stedsnr" v="6971" />
	</node>
	<node id="-481059" lat="60.7384611125" lon="5.8099694364">
		<tag k="name" v="Nordheim" />
		<tag k="place" v="farm" />
		<tag k="ssr:stedsnr" v="916319" />
	</node>
	<node id="-479519" lat="60.6657500029" lon="5.78393611426">
		<tag k="historic" v="shieling" />
		<tag k="name" v="Høgestølen" />
		<tag k="place" v="locality" />
		<tag k="ssr:stedsnr" v="188688" />
	</node>
	<node id="-479511" lat="60.6411984281" lon="5.66087297805">
		<tag k="fixme" v="consider place=hamlet" />
		<tag k="name" v="Moen" />
		<tag k="place" v="farm" />
		<tag k="ssr:stedsnr" v="188725" />
	</node>
	<node id="-479507" lat="60.6634944435" lon="5.7718000072">
		<tag k="name" v="Hagen" />
		<tag k="place" v="isolated_dwelling" />
		<tag k="ssr:stedsnr" v="188705" />
	</node>
	<node id="-478595" lat="60.6704638893" lon="5.74185833708">
		<tag k="name" v="Hagestrand" />
		<tag k="place" v="isolated_dwelling" />
		<tag k="ssr:stedsnr" v="346828" />
	</node>
	<node id="-478680" lat="60.4901777788" lon="5.77091665928">
		<tag k="name" v="Nygård" />
		<tag k="place" v="farm" />
		<tag k="ssr:stedsnr" v="369961" />
	</node>
	<node id="-481038" lat="60.8265340918" lon="6.18978797704">
		<tag k="fixme" v="consider place=hamlet" />
		<tag k="name" v="Trefall" />
		<tag k="place" v="farm" />
		<tag k="ssr:stedsnr" v="858223" />
	</node>
	<node id="-479789" lat="60.5406999987" lon="5.69962777171">
		<tag k="alt_name" v="Fokstad, nedre;Fokstad" />
		<tag k="name" v="Nedre Fokstad" />
		<tag k="place" v="farm" />
		<tag k="ssr:stedsnr" v="431911" />
	</node>
	<node id="-478988" lat="60.5907138882" lon="5.83686388491">
		<tag k="historic" v="shieling" />
		<tag k="name" v="Sess-stølen" />
		<tag k="place" v="locality" />
		<tag k="ssr:stedsnr" v="6585" />
	</node>
	<node id="-478964" lat="60.6796638868" lon="5.89194999142">
		<tag k="barrier" v="fence" />
		<tag k="name" v="Steingjerdet" />
		<tag k="ssr:stedsnr" v="6024" />
	</node>
	<node id="-481031" lat="60.7984194462" lon="5.85942500393">
		<tag k="name" v="Stølen" />
		<tag k="place" v="locality" />
		<tag k="ssr:stedsnr" v="858198" />
	</node>
	<node id="-479494" lat="60.6735500021" lon="5.73954443682">
		<tag k="name" v="Stamneshagen" />
		<tag k="place" v="farm" />
		<tag k="ssr:stedsnr" v="188347" />
	</node>
	<node id="-480129" lat="60.5702833311" lon="6.05963611178">
		<tag k="historic" v="shieling" />
		<tag k="name" v="Bukkatørne" />
		<tag k="place" v="locality" />
		<tag k="ssr:stedsnr" v="552850" />
	</node>
	<node id="-479490" lat="60.7354354612" lon="5.81884884025">
		<tag k="fixme" v="consider place=hamlet" />
		<tag k="name" v="Myster" />
		<tag k="place" v="farm" />
		<tag k="ssr:stedsnr" v="188309" />
	</node>
	<node id="-479275" lat="60.4745638853" lon="5.74133888123">
		<tag k="name" v="Sørbø" />
		<tag k="place" v="farm" />
		<tag k="ssr:stedsnr" v="106176" />
	</node>
	<node id="-481022" lat="60.5514999999" lon="5.65151943571">
		<tag k="name" v="Kalvtræet" />
		<tag k="place" v="farm" />
		<tag k="ssr:stedsnr" v="856911" />
	</node>
	<node id="-479485" lat="60.4668891144" lon="5.74427290945">
		<tag k="alt_name" v="Bogo, in" />
		<tag k="fixme" v="consider place=hamlet" />
		<tag k="name" v="Indre Bogo" />
		<tag k="place" v="farm" />
		<tag k="ssr:stedsnr" v="188014" />
	</node>
	<node id="-479484" lat="60.4598361138" lon="5.77364166169">
		<tag k="historic" v="shieling" />
		<tag k="name" v="Bogastølen" />
		<tag k="place" v="locality" />
		<tag k="ssr:stedsnr" v="188009" />
	</node>
	<node id="-479482" lat="60.626824996" lon="5.89655000453">
		<tag k="name" v="Sibirien" />
		<tag k="place" v="isolated_dwelling" />
		<tag k="ssr:stedsnr" v="188159" />
	</node>
	<node id="-479481" lat="60.4881916651" lon="5.7649388952">
		<tag k="name" v="Olagarden" />
		<tag k="place" v="farm" />
		<tag k="ssr:stedsnr" v="187962" />
	</node>
	<node id="-481014" lat="60.6667416679" lon="5.81048333191">
		<tag k="historic" v="shieling" />
		<tag k="name" v="Slåttøyane" />
		<tag k="place" v="locality" />
		<tag k="ssr:stedsnr" v="856665" />
	</node>
	<node id="-479477" lat="60.7848975995" lon="5.88185041437">
		<tag k="alt_name" v="Veslejordi" />
		<tag k="fixme" v="consider place=hamlet" />
		<tag k="name" v="Vetlejord" />
		<tag k="place" v="farm" />
		<tag k="ssr:stedsnr" v="173199" />
	</node>
	<node id="-481012" lat="60.6654583303" lon="5.76812777341">
		<tag k="name" v="Stamnesfeti" />
		<tag k="place" v="farm" />
		<tag k="ssr:stedsnr" v="856647" />
	</node>
	<node id="-478963" lat="60.4614612291" lon="5.7415685965">
		<tag k="alt_name" v="Bogo, yt;Ytre Boge" />
		<tag k="fixme" v="consider place=hamlet" />
		<tag k="name" v="Ytre Bogo" />
		<tag k="place" v="farm" />
		<tag k="ssr:stedsnr" v="6016" />
	</node>
	<node id="-481010" lat="60.6706185479" lon="5.73172927347">
		<tag k="fixme" v="consider place=hamlet" />
		<tag k="name" v="Kallestad" />
		<tag k="place" v="farm" />
		<tag k="ssr:stedsnr" v="856644" />
	</node>
	<node id="-478961" lat="60.4393900749" lon="5.63507459677">
		<tag k="fixme" v="consider place=hamlet" />
		<tag k="name" v="Raudberget" />
		<tag k="place" v="farm" />
		<tag k="ssr:stedsnr" v="5022" />
	</node>
	<node id="-480496" lat="60.7508004872" lon="5.82220147426">
		<tag k="alt_name" v="Eikefit" />
		<tag k="fixme" v="consider place=hamlet" />
		<tag k="name" v="Eikefet" />
		<tag k="place" v="farm" />
		<tag k="ssr:stedsnr" v="676060" />
	</node>
	<node id="-480494" lat="60.7815833335" lon="5.94978054761">
		<tag k="name" v="Øyna" />
		<tag k="place" v="locality" />
		<tag k="ssr:stedsnr" v="675770" />
	</node>
	<node id="-480493" lat="60.7971666667" lon="6.0850250089">
		<tag k="historic" v="shieling" />
		<tag k="name" v="Yksendalsstølen" />
		<tag k="place" v="locality" />
		<tag k="ssr:stedsnr" v="675744" />
	</node>
	<node id="-478955" lat="60.5681117002" lon="5.97973314024">
		<tag k="fixme" v="consider place=hamlet" />
		<tag k="name" v="Solbjørg" />
		<tag k="place" v="farm" />
		<tag k="ssr:stedsnr" v="989587" />
	</node>
	<node id="-478954" lat="60.6563001026" lon="5.80909234544">
		<tag k="fixme" v="consider place=hamlet" />
		<tag k="name" v="Straume" />
		<tag k="place" v="farm" />
		<tag k="ssr:stedsnr" v="989579" />
	</node>
	<node id="-478953" lat="60.6669872327" lon="5.75960083998">
		<tag k="fixme" v="consider place=hamlet" />
		<tag k="name" v="Stamnesleiren" />
		<tag k="place" v="farm" />
		<tag k="ssr:stedsnr" v="989578" />
	</node>
	<node id="-479976" lat="60.7515250014" lon="5.933155547">
		<tag k="historic" v="shieling" />
		<tag k="name" v="Nesstølen" />
		<tag k="place" v="locality" />
		<tag k="ssr:stedsnr" v="493681" />
	</node>
	<node id="-478951" lat="60.5514684625" lon="5.74246731533">
		<tag k="fixme" v="consider place=hamlet" />
		<tag k="name" v="Stanghelle" />
		<tag k="place" v="farm" />
		<tag k="ssr:stedsnr" v="989572" />
	</node>
	<node id="-479974" lat="60.8202777756" lon="6.15555555335">
		<tag k="historic" v="shieling" />
		<tag k="name" v="Brakestadstølen" />
		<tag k="place" v="locality" />
		<tag k="ssr:stedsnr" v="493253" />
	</node>
	<node id="-478949" lat="60.5473729851" lon="5.70210454156">
		<tag k="fixme" v="consider place=hamlet" />
		<tag k="name" v="Fokstad" />
		<tag k="place" v="farm" />
		<tag k="ssr:stedsnr" v="989564" />
	</node>
	<node id="-480995" lat="60.6993058496" lon="5.72510488187">
		<tag k="fixme" v="consider place=hamlet" />
		<tag k="name" v="Simmenes" />
		<tag k="place" v="farm" />
		<tag k="ssr:stedsnr" v="856412" />
	</node>
	<node id="-480480" lat="60.5562412824" lon="6.01696605016">
		<tag k="fixme" v="consider place=hamlet" />
		<tag k="name" v="Hatlestad" />
		<tag k="place" v="farm" />
		<tag k="ssr:stedsnr" v="674805" />
	</node>
	<node id="-480477" lat="60.6142924434" lon="5.83875428623">
		<tag k="fixme" v="consider place=hamlet" />
		<tag k="name" v="Dalseid" />
		<tag k="place" v="farm" />
		<tag k="ssr:stedsnr" v="674505" />
	</node>
	<node id="-479451" lat="60.6931388901" lon="5.7418833297">
		<tag k="fixme" v="consider place=hamlet" />
		<tag k="name" v="Verpen" />
		<tag k="place" v="village" />
		<tag k="ssr:stedsnr" v="166720" />
	</node>
	<node id="-480474" lat="60.7036611076" lon="5.77253888733">
		<tag k="name" v="Hesjedalsstoi" />
		<tag k="place" v="locality" />
		<tag k="ssr:stedsnr" v="674352" />
	</node>
	<node id="-480472" lat="60.6137472229" lon="5.86906943937">
		<tag k="historic" v="shieling" />
		<tag k="name" v="Fornesstølen" />
		<tag k="place" v="locality" />
		<tag k="ssr:stedsnr" v="674170" />
	</node>
	<node id="-480982" lat="60.6548194413" lon="5.78127499213">
		<tag k="name" v="Uleviki" />
		<tag k="place" v="locality" />
		<tag k="ssr:stedsnr" v="855693" />
	</node>
	<node id="-479353" lat="60.5443750004" lon="5.67446389641">
		<tag k="historic" v="shieling" />
		<tag k="name" v="Hakanessætra" />
		<tag k="place" v="locality" />
		<tag k="ssr:stedsnr" v="127900" />
	</node>
	<node id="-480977" lat="60.5967749973" lon="5.82265556279">
		<tag k="name" v="Nybø" />
		<tag k="place" v="farm" />
		<tag k="ssr:stedsnr" v="855535" />
	</node>
	<node id="-480976" lat="60.5945527763" lon="5.73982777553">
		<tag k="name" v="Fylo" />
		<tag k="place" v="locality" />
		<tag k="ssr:stedsnr" v="855531" />
	</node>
	<node id="-480973" lat="60.7388996702" lon="5.79935752333">
		<tag k="fixme" v="consider place=hamlet" />
		<tag k="name" v="Eide" />
		<tag k="place" v="farm" />
		<tag k="ssr:stedsnr" v="855299" />
	</node>
	<node id="-480458" lat="60.5348499997" lon="5.92575278675">
		<tag k="fixme" v="consider tourism=alpine_hut or tourism=chalet" />
		<tag k="name" v="Høgabu" />
		<tag k="old_name" v="Høgabu th" />
		<tag k="ssr:stedsnr" v="673813" />
		<tag k="tourism" v="wilderness_hut" />
	</node>
	<node id="-480457" lat="60.5367333307" lon="6.07916666105">
		<tag k="fixme" v="consider tourism=alpine_hut or tourism=chalet" />
		<tag k="name" v="Alexander Grieghytten" />
		<tag k="ssr:stedsnr" v="673791" />
		<tag k="tourism" v="wilderness_hut" />
	</node>
	<node id="-480456" lat="60.5536080305" lon="6.02476055813">
		<tag k="fixme" v="consider place=hamlet" />
		<tag k="name" v="Kaldestad" />
		<tag k="place" v="farm" />
		<tag k="ssr:stedsnr" v="673782" />
	</node>
	<node id="-479943" lat="60.5791194406" lon="5.77727499949">
		<tag k="name" v="Dalehagen" />
		<tag k="place" v="farm" />
		<tag k="ssr:stedsnr" v="491597" />
	</node>
	<node id="-479942" lat="60.5863916656" lon="5.81887778018">
		<tag k="name" v="Dale" />
		<tag k="place" v="village" />
		<tag k="ssr:stedsnr" v="491580" />
	</node>
	<node id="-479179" lat="60.5725944477" lon="5.81710556236">
		<tag k="historic" v="shieling" />
		<tag k="name" v="Dalestølen" />
		<tag k="place" v="locality" />
		<tag k="ssr:stedsnr" v="67613" />
	</node>
	<node id="-480447" lat="60.6296777784" lon="5.79221388745">
		<tag k="historic" v="shieling" />
		<tag k="name" v="Botnastølen" />
		<tag k="place" v="locality" />
		<tag k="ssr:stedsnr" v="673729" />
	</node>
	<node id="-479933" lat="60.6678305542" lon="5.81667500778">
		<tag k="historic" v="shieling" />
		<tag k="name" v="Nesatræet" />
		<tag k="place" v="locality" />
		<tag k="ssr:stedsnr" v="491657" />
	</node>
	<node id="-480970" lat="60.4604807868" lon="5.66600406813">
		<tag k="fixme" v="consider place=hamlet" />
		<tag k="name" v="Staveneset" />
		<tag k="place" v="farm" />
		<tag k="ssr:stedsnr" v="855012" />
	</node>
	<node id="-480437" lat="60.5990249959" lon="5.82477499909">
		<tag k="name" v="Hagabø" />
		<tag k="place" v="farm" />
		<tag k="ssr:stedsnr" v="673554" />
	</node>
	<node id="-480436" lat="60.5933055511" lon="5.73956944477">
		<tag k="name" v="Fylingshaugen" />
		<tag k="place" v="locality" />
		<tag k="ssr:stedsnr" v="673548" />
	</node>
	<node id="-479918" lat="60.7049735023" lon="5.67611314735">
		<tag k="alt_name" v="Elviki;Elvik" />
		<tag k="fixme" v="consider place=hamlet" />
		<tag k="name" v="Ellviki" />
		<tag k="place" v="farm" />
		<tag k="ssr:stedsnr" v="491263" />
	</node>
	<node id="-479916" lat="60.4537472259" lon="5.72412499725">
		<tag k="name" v="Kjeneset" />
		<tag k="place" v="farm" />
		<tag k="ssr:stedsnr" v="490044" />
	</node>
	<node id="-479915" lat="60.452095795" lon="5.71176344613">
		<tag k="fixme" v="consider place=hamlet" />
		<tag k="name" v="Langhelle" />
		<tag k="place" v="farm" />
		<tag k="ssr:stedsnr" v="490043" />
	</node>
	<node id="-478722" lat="60.542103869" lon="6.05047086234">
		<tag k="fixme" v="consider place=hamlet" />
		<tag k="name" v="Røydland" />
		<tag k="place" v="farm" />
		<tag k="ssr:stedsnr" v="370808" />
	</node>
	<node id="-480934" lat="60.7779166675" lon="6.01952776922">
		<tag k="name" v="Lavik" />
		<tag k="place" v="hamlet" />
		<tag k="ssr:stedsnr" v="834605" />
	</node>
	<node id="-479771" lat="60.5635916681" lon="5.7536805477">
		<tag k="fixme" v="consider place=hamlet" />
		<tag k="name" v="Helle" />
		<tag k="place" v="village" />
		<tag k="ssr:stedsnr" v="431639" />
	</node>
	<node id="-479384" lat="60.5417472239" lon="6.04365833066">
		<tag k="name" v="Fossheim" />
		<tag k="place" v="hamlet" />
		<tag k="ssr:stedsnr" v="165076" />
	</node>
	<node id="-478745" lat="60.8065666662" lon="6.21492222337">
		<tag k="historic" v="shieling" />
		<tag k="name" v="Gamletuftene" />
		<tag k="place" v="locality" />
		<tag k="ssr:stedsnr" v="372215" />
	</node>
	<node id="-478863" lat="60.6617111105" lon="5.78183610255">
		<tag k="name" v="Lii" />
		<tag k="place" v="isolated_dwelling" />
		<tag k="ssr:stedsnr" v="893685" />
	</node>
	<node id="-478861" lat="60.5130694415" lon="5.72621389052">
		<tag k="name" v="Andaberget" />
		<tag k="place" v="isolated_dwelling" />
		<tag k="ssr:stedsnr" v="893608" />
	</node>
	<node id="-479370" lat="60.7818361147" lon="6.16117499164">
		<tag k="historic" v="shieling" />
		<tag k="name" v="Nesheimsstølen" />
		<tag k="place" v="locality" />
		<tag k="ssr:stedsnr" v="129735" />
	</node>
	<node id="-479368" lat="60.7657611152" lon="5.85764165979">
		<tag k="historic" v="shieling" />
		<tag k="name" v="Hevikastølen" />
		<tag k="place" v="locality" />
		<tag k="ssr:stedsnr" v="129728" />
	</node>
	<node id="-479765" lat="60.696594443" lon="5.84669166883">
		<tag k="historic" v="shieling" />
		<tag k="name" v="Gavvasstølen" />
		<tag k="place" v="locality" />
		<tag k="ssr:stedsnr" v="431499" />
	</node>
	<node id="-479935" lat="60.6382087541" lon="5.72131933551">
		<tag k="alt_name" v="Bukksteinen;Bukkestein" />
		<tag k="fixme" v="consider place=hamlet" />
		<tag k="name" v="Bukkstein" />
		<tag k="place" v="farm" />
		<tag k="ssr:stedsnr" v="491696" />
	</node>
	<node id="-480375" lat="60.5412749965" lon="5.69977221967">
		<tag k="name" v="Faugstad" />
		<tag k="place" v="farm" />
		<tag k="ssr:stedsnr" v="651336" />
	</node>
	<node id="-480885" lat="60.7821194437" lon="5.85993610807">
		<tag k="name" v="Poyla" />
		<tag k="place" v="hamlet" />
		<tag k="ssr:stedsnr" v="833690" />
	</node>
	<node id="-479347" lat="60.5368111141" lon="6.03173055831">
		<tag k="historic" v="shieling" />
		<tag k="name" v="Midtstølen" />
		<tag k="place" v="locality" />
		<tag k="ssr:stedsnr" v="127785" />
	</node>
	<node id="-479345" lat="60.635797285" lon="5.73961243965">
		<tag k="alt_name" v="Kåstad" />
		<tag k="fixme" v="consider place=hamlet" />
		<tag k="name" v="Kvåstad" />
		<tag k="place" v="farm" />
		<tag k="ssr:stedsnr" v="127737" />
	</node>
	<node id="-479336" lat="60.6675805596" lon="5.84251943504">
		<tag k="historic" v="shieling" />
		<tag k="name" v="Straumsstølen" />
		<tag k="place" v="locality" />
		<tag k="ssr:stedsnr" v="127689" />
	</node>
	<node id="-479334" lat="60.5620194421" lon="5.78100556148">
		<tag k="alt_name" v="Hellestølen" />
		<tag k="historic" v="shieling" />
		<tag k="name" v="Hellesætra" />
		<tag k="place" v="locality" />
		<tag k="ssr:stedsnr" v="127663" />
	</node>
	<node id="-479761" lat="60.7030611128" lon="5.82066943779">
		<tag k="historic" v="shieling" />
		<tag k="name" v="Hesjedalsstølen" />
		<tag k="place" v="locality" />
		<tag k="ssr:stedsnr" v="431392" />
	</node>
	<node id="-479931" lat="60.6658194404" lon="5.75270555279">
		<tag k="fixme" v="consider place=hamlet" />
		<tag k="name" v="Stamnes" />
		<tag k="place" v="farm" />
		<tag k="ssr:stedsnr" v="491635" />
	</node>
	<node id="-479840" lat="60.5739111076" lon="5.94513055385">
		<tag k="name" v="Lid" />
		<tag k="place" v="hamlet" />
		<tag k="ssr:stedsnr" v="468949" />
	</node>
	<node id="-481013" lat="60.6602156472" lon="5.72460971831">
		<tag k="alt_name" v="Kalvik" />
		<tag k="fixme" v="consider place=hamlet" />
		<tag k="name" v="Kallviki" />
		<tag k="place" v="farm" />
		<tag k="ssr:stedsnr" v="856660" />
	</node>
	<node id="-479326" lat="60.6968361087" lon="5.83402499414">
		<tag k="historic" v="shieling" />
		<tag k="name" v="Øyastølen" />
		<tag k="place" v="locality" />
		<tag k="ssr:stedsnr" v="127375" />
	</node>
	<node id="-480859" lat="60.7893527807" lon="6.0670611062">
		<tag k="fixme" v="consider place=hamlet" />
		<tag k="name" v="Yksendalen" />
		<tag k="place" v="farm" />
		<tag k="ssr:stedsnr" v="797746" />
	</node>
	<node id="-480487" lat="60.8151111098" lon="6.09926666825">
		<tag k="historic" v="shieling" />
		<tag k="name" v="Fjellangsstølen" />
		<tag k="place" v="locality" />
		<tag k="ssr:stedsnr" v="675226" />
	</node>
	<node id="-479320" lat="60.6079277774" lon="5.89884166054">
		<tag k="historic" v="shieling" />
		<tag k="name" v="Verpelstadstølen" />
		<tag k="place" v="locality" />
		<tag k="ssr:stedsnr" v="127229" />
	</node>
	<node id="-480343" lat="60.6853277743" lon="5.6698805473">
		<tag k="name" v="Nordviki" />
		<tag k="place" v="isolated_dwelling" />
		<tag k="ssr:stedsnr" v="650764" />
	</node>
	<node id="-480853" lat="60.8020211242" lon="6.14696495169">
		<tag k="fixme" v="consider place=hamlet" />
		<tag k="name" v="Nesheim" />
		<tag k="place" v="farm" />
		<tag k="ssr:stedsnr" v="797212" />
	</node>
	<node id="-480848" lat="60.7650414459" lon="5.82886051091">
		<tag k="fixme" v="consider place=hamlet" />
		<tag k="name" v="Eikemo" />
		<tag k="place" v="farm" />
		<tag k="ssr:stedsnr" v="797066" />
	</node>
	<node id="-479823" lat="60.6728888887" lon="5.73277222164">
		<tag k="name" v="Træet" />
		<tag k="place" v="hamlet" />
		<tag k="ssr:stedsnr" v="468613" />
	</node>
	<node id="-479757" lat="60.6770463216" lon="5.80028356911">
		<tag k="fixme" v="consider place=hamlet" />
		<tag k="name" v="Øyane" />
		<tag k="place" v="farm" />
		<tag k="ssr:stedsnr" v="431346" />
	</node>
	<node id="-479776" lat="60.6289570689" lon="5.71716186079">
		<tag k="fixme" v="consider place=hamlet" />
		<tag k="name" v="Veo" />
		<tag k="place" v="farm" />
		<tag k="ssr:stedsnr" v="431724" />
	</node>
	<node id="-479818" lat="60.579316665" lon="5.87315000391">
		<tag k="name" v="Fosse" />
		<tag k="place" v="hamlet" />
		<tag k="ssr:stedsnr" v="468122" />
	</node>
	<node id="-481036" lat="60.7847294846" lon="5.86443396827">
		<tag k="alt_name" v="Høvik" />
		<tag k="fixme" v="consider place=hamlet" />
		<tag k="name" v="Heviki" />
		<tag k="place" v="farm" />
		<tag k="ssr:stedsnr" v="858214" />
	</node>
	<node id="-479503" lat="60.6848638882" lon="5.66951945285">
		<tag k="name" v="Træet" />
		<tag k="place" v="farm" />
		<tag k="ssr:stedsnr" v="188396" />
	</node>
	<node id="-480835" lat="60.5316138896" lon="6.01072500507">
		<tag k="historic" v="shieling" />
		<tag k="name" v="Moastølen" />
		<tag k="place" v="locality" />
		<tag k="ssr:stedsnr" v="795764" />
	</node>
	<node id="-480320" lat="60.7666666638" lon="6.00283055837">
		<tag k="name" v="Grønbakken" />
		<tag k="place" v="locality" />
		<tag k="ssr:stedsnr" v="615688" />
	</node>
	<node id="-479328" lat="60.5796850817" lon="5.79662426899">
		<tag k="fixme" v="consider place=hamlet" />
		<tag k="name" v="Dale" />
		<tag k="place" v="farm" />
		<tag k="ssr:stedsnr" v="127620" />
	</node>
	<node id="-480829" lat="60.6442111135" lon="5.7562000051">
		<tag k="historic" v="shieling" />
		<tag k="name" v="Kvamsstølen" />
		<tag k="place" v="locality" />
		<tag k="ssr:stedsnr" v="795698" />
	</node>
	<node id="-479605" lat="60.575452776" lon="5.94496666205">
		<tag k="name" v="Klypet" />
		<tag k="place" v="hamlet" />
		<tag k="ssr:stedsnr" v="226966" />
	</node>
	<node id="-480826" lat="60.6659888859" lon="5.77239443799">
		<tag k="name" v="Sanden" />
		<tag k="place" v="farm" />
		<tag k="ssr:stedsnr" v="795659" />
	</node>
	<node id="-480313" lat="60.815275001" lon="6.05317500584">
		<tag k="historic" v="shieling" />
		<tag k="name" v="Gamlestølen" />
		<tag k="place" v="locality" />
		<tag k="ssr:stedsnr" v="615199" />
	</node>
	<node id="-480312" lat="60.772230557" lon="5.82785000786">
		<tag k="historic" v="shieling" />
		<tag k="name" v="Eikemostølen" />
		<tag k="place" v="locality" />
		<tag k="ssr:stedsnr" v="615048" />
	</node>
	<node id="-480308" lat="60.7900311872" lon="6.11392268806">
		<tag k="fixme" v="consider place=hamlet" />
		<tag k="name" v="Bergo" />
		<tag k="place" v="farm" />
		<tag k="ssr:stedsnr" v="614766" />
	</node>
	<node id="-481117" lat="60.8190916635" lon="6.30490833949">
		<tag k="name" v="Holo" />
		<tag k="place" v="isolated_dwelling" />
		<tag k="ssr:stedsnr" v="918563" />
	</node>
	<node id="-480812" lat="60.7365031304" lon="5.84558783613">
		<tag k="fixme" v="consider place=hamlet" />
		<tag k="name" v="Leiro" />
		<tag k="place" v="farm" />
		<tag k="ssr:stedsnr" v="795451" />
	</node>
	<node id="-480299" lat="60.7993372304" lon="6.04599961632">
		<tag k="fixme" v="consider place=hamlet" />
		<tag k="name" v="Haugen" />
		<tag k="place" v="farm" />
		<tag k="ssr:stedsnr" v="614218" />
	</node>
	<node id="-480810" lat="60.6808081591" lon="5.67500668166">
		<tag k="alt_name" v="Grøsvik" />
		<tag k="fixme" v="consider place=hamlet" />
		<tag k="name" v="Grøssviki" />
		<tag k="place" v="farm" />
		<tag k="ssr:stedsnr" v="795411" />
	</node>
	<node id="-478760" lat="60.7854940076" lon="5.95851983334">
		<tag k="name" v="Flatkvål" />
		<tag k="place" v="hamlet" />
		<tag k="ssr:stedsnr" v="372757" />
	</node>
	<node id="-480295" lat="60.5522416637" lon="5.73631667161">
		<tag k="name" v="Stanghelle" />
		<tag k="place" v="village" />
		<tag k="ssr:stedsnr" v="613896" />
	</node>
	<node id="-480806" lat="60.6777999976" lon="5.73693332756">
		<tag k="alt_name" v="Svarteberget" />
		<tag k="name" v="Berget" />
		<tag k="place" v="farm" />
		<tag k="ssr:stedsnr" v="795363" />
	</node>
	<node id="-480805" lat="60.6733138926" lon="5.67225278017">
		<tag k="historic" v="shieling" />
		<tag k="name" v="Grøssvikstølane" />
		<tag k="place" v="locality" />
		<tag k="ssr:stedsnr" v="795357" />
	</node>
	<node id="-480804" lat="60.742533337" lon="5.76174999969">
		<tag k="historic" v="shieling" />
		<tag k="name" v="Eidsstølen" />
		<tag k="place" v="locality" />
		<tag k="ssr:stedsnr" v="795343" />
	</node>
	<node id="-480801" lat="60.7211157043" lon="5.77183204069">
		<tag k="alt_name" v="Brørvik" />
		<tag k="fixme" v="consider place=hamlet" />
		<tag k="name" v="Brørviki" />
		<tag k="place" v="farm" />
		<tag k="ssr:stedsnr" v="795303" />
	</node>
	<node id="-480800" lat="60.7108226446" lon="5.71002744717">
		<tag k="alt_name" v="Mellesdal" />
		<tag k="fixme" v="consider place=hamlet" />
		<tag k="name" v="Mellesdalen" />
		<tag k="place" v="farm" />
		<tag k="ssr:stedsnr" v="795291" />
	</node>
	<node id="-479773" lat="60.6592444466" lon="5.73993055978">
		<tag k="name" v="Solarås" />
		<tag k="place" v="farm" />
		<tag k="ssr:stedsnr" v="431695" />
	</node>
	<node id="-480796" lat="60.4456833296" lon="5.70395000231">
		<tag k="name" v="Tjørndalen" />
		<tag k="place" v="isolated_dwelling" />
		<tag k="ssr:stedsnr" v="794032" />
	</node>
	<node id="-480795" lat="60.4567163801" lon="5.67842453691">
		<tag k="fixme" v="consider place=hamlet" />
		<tag k="name" v="Sandviki" />
		<tag k="place" v="farm" />
		<tag k="ssr:stedsnr" v="794010" />
	</node>
	<node id="-479769" lat="60.5616861102" lon="5.700574999">
		<tag k="name" v="Sætre" />
		<tag k="place" v="farm" />
		<tag k="ssr:stedsnr" v="431631" />
	</node>
	<node id="-478973" lat="60.682725001" lon="5.72890554673">
		<tag k="name" v="Sanddalen" />
		<tag k="place" v="farm" />
		<tag k="ssr:stedsnr" v="6350" />
	</node>
	<node id="-481087" lat="60.5664999988" lon="5.89355555824">
		<tag k="historic" v="shieling" />
		<tag k="name" v="Øyastølen" />
		<tag k="place" v="locality" />
		<tag k="ssr:stedsnr" v="916857" />
	</node>
	<node id="-479154" lat="60.4812132925" lon="5.79218211284">
		<tag k="alt_name" v="Herfendalen;Herfinndal" />
		<tag k="fixme" v="consider place=hamlet" />
		<tag k="name" v="Herfindal" />
		<tag k="place" v="farm" />
		<tag k="ssr:stedsnr" v="66937" />
	</node>
	<node id="-480715" lat="60.5382333304" lon="6.07834166028">
		<tag k="name" v="Holeberg" />
		<tag k="place" v="hamlet" />
		<tag k="ssr:stedsnr" v="772979" />
	</node>
	<node id="-480274" lat="60.6672388917" lon="5.76316666223">
		<tag k="name" v="Kuviki" />
		<tag k="place" v="farm" />
		<tag k="ssr:stedsnr" v="612637" />
	</node>
	<node id="-480273" lat="60.561719447" lon="5.67035834105">
		<tag k="name" v="Midttun" />
		<tag k="place" v="farm" />
		<tag k="ssr:stedsnr" v="612627" />
	</node>
	<node id="-480270" lat="60.5651777755" lon="5.68948055892">
		<tag k="name" v="Botnen" />
		<tag k="place" v="farm" />
		<tag k="ssr:stedsnr" v="612602" />
	</node>
	<node id="-480269" lat="60.5779222205" lon="5.62657777501">
		<tag k="historic" v="shieling" />
		<tag k="name" v="Øvsthussætra" />
		<tag k="place" v="locality" />
		<tag k="ssr:stedsnr" v="612588" />
	</node>
	<node id="-479756" lat="60.7280194464" lon="5.7549166735">
		<tag k="name" v="Utlabakken" />
		<tag k="place" v="locality" />
		<tag k="ssr:stedsnr" v="431318" />
	</node>
	<node id="-479755" lat="60.7176833337" lon="5.71030832681">
		<tag k="historic" v="shieling" />
		<tag k="name" v="Mellesdalsstølen" />
		<tag k="place" v="locality" />
		<tag k="ssr:stedsnr" v="431296" />
	</node>
	<node id="-478725" lat="60.5732527698" lon="5.90422684423">
		<tag k="fixme" v="consider place=hamlet" />
		<tag k="name" v="Øyane" />
		<tag k="place" v="farm" />
		<tag k="ssr:stedsnr" v="370863" />
	</node>
	<node id="-479748" lat="60.4790333372" lon="5.73738610474">
		<tag k="name" v="Vaksdal" />
		<tag k="place" v="village" />
		<tag k="ssr:stedsnr" v="430952" />
	</node>
	<node id="-480268" lat="60.5873027789" lon="5.81967500435">
		<tag k="building" v="industrial" />
		<tag k="industrial" v="factory" />
		<tag k="name" v="Dale fabrikker" />
		<tag k="ssr:stedsnr" v="612575" />
	</node>
	<node id="-480258" lat="60.7321361105" lon="5.84221666729">
		<tag k="historic" v="shieling" />
		<tag k="name" v="Mysterstølen" />
		<tag k="place" v="locality" />
		<tag k="ssr:stedsnr" v="612302" />
	</node>
	<node id="-478721" lat="60.5415249998" lon="6.03480000145">
		<tag k="fixme" v="consider place=hamlet" />
		<tag k="name" v="Småbrekkene" />
		<tag k="place" v="farm" />
		<tag k="ssr:stedsnr" v="370804" />
	</node>
</osm>
