<?xml version="1.0" encoding="UTF-8"?>
<<<<<<< HEAD
<osm version="0.6" generator="osmapis">
	<node lat="69.04888334523352" lon="25.748099659382035" id="-37207">
		<tag k="name" v="Geavgŋoaivi" />
		<tag k="name:se" v="Geavgŋoaivi" />
		<tag k="old_name:se" v="Gævgŋoaivi" />
		<tag k="place" v="farm" />
		<tag k="ssr:stedsnr" v="79748" />
	</node>
	<node lat="69.2047139048131" lon="25.69147189525417" id="-37208">
		<tag k="name" v="Lasedeadji" />
		<tag k="name:se" v="Lasedeadji" />
		<tag k="old_name:se" v="Lasedæddji;Lasedveadji" />
		<tag k="place" v="farm" />
		<tag k="ssr:stedsnr" v="79802" />
	</node>
	<node lat="69.43776112039076" lon="25.305096961707275" id="-37278">
		<tag k="name" v="Oazessainjárga" />
		<tag k="name:se" v="Oazessainjárga" />
		<tag k="place" v="hamlet" />
		<tag k="ssr:stedsnr" v="149817" />
	</node>
	<node lat="69.33728056201203" lon="25.112841414237483" id="-37297">
		<tag k="name" v="Šuolggajohnjálbmi" />
		<tag k="name:se" v="Šuolggajohnjálbmi" />
		<tag k="old_name:se" v="Suolgajåknjalbmi" />
		<tag k="place" v="farm" />
		<tag k="ssr:stedsnr" v="261154" />
	</node>
	<node lat="69.30982778687004" lon="24.859874770755113" id="-37299">
		<tag k="name" v="Gollebáiki" />
		<tag k="name:se" v="Gollebáiki" />
		<tag k="old_name:se" v="Gållebaike" />
		<tag k="place" v="isolated_dwelling" />
		<tag k="ssr:stedsnr" v="261159" />
	</node>
	<node lat="69.38118333862646" lon="24.237694297787755" id="-37357">
		<tag k="name" v="Suoidnerohtu" />
		<tag k="name:se" v="Suoidnerohtu" />
		<tag k="old_name:se" v="Suoidneråtto" />
		<tag k="place" v="farm" />
		<tag k="ssr:stedsnr" v="200302" />
	</node>
	<node lat="69.44728056647263" lon="25.818105219579" id="-37384">
		<tag k="name" v="Iccemihásnjárga" />
		<tag k="name:se" v="Iccemihásnjárga" />
		<tag k="place" v="hamlet" />
		<tag k="ssr:stedsnr" v="210824" />
	</node>
	<node lat="69.57290614590642" lon="25.91714624713132" id="-37385">
		<tag k="name" v="Borjjasnjárga - Seilnes" />
		<tag k="name:no" v="Seilnes" />
		<tag k="name:se" v="Borjjasnjárga" />
		<tag k="place" v="hamlet" />
		<tag k="ssr:stedsnr" v="210825" />
	</node>
	<node lat="69.45270001344318" lon="25.605883047201125" id="-37393">
		<tag k="name" v="Ájonjárga" />
		<tag k="name:se" v="Ájonjárga" />
		<tag k="place" v="hamlet" />
		<tag k="ssr:stedsnr" v="270802" />
	</node>
	<node lat="69.49543612001071" lon="25.47938306287467" id="-37404">
		<tag k="name" v="Siregoahti" />
		<tag k="name:se" v="Siregoahti" />
		<tag k="place" v="locality" />
		<tag k="ssr:stedsnr" v="271365" />
	</node>
	<node lat="69.44000834249738" lon="25.321513632355558" id="-37437">
		<tag k="name" v="Spiinniidgieddi" />
		<tag k="name:se" v="Spiinniidgieddi" />
		<tag k="place" v="hamlet" />
		<tag k="ssr:stedsnr" v="452821" />
	</node>
	<node lat="69.45183056268344" lon="25.38772473454687" id="-37438">
		<tag k="name" v="Vájamohkenjárga" />
		<tag k="name:se" v="Vájamohkenjárga" />
		<tag k="place" v="hamlet" />
		<tag k="ssr:stedsnr" v="452831" />
	</node>
	<node lat="69.74326946158442" lon="26.132921861368224" id="-37495">
		<tag k="name" v="Jávrebainjárga" />
		<tag k="name:se" v="Jávrebainjárga" />
		<tag k="place" v="hamlet" />
		<tag k="ssr:stedsnr" v="261448" />
	</node>
	<node lat="69.43803334422562" lon="25.304755292931535" id="-37529">
		<tag k="name" v="Spiinniidgieddi" />
		<tag k="name:se" v="Spiinniidgieddi" />
		<tag k="old_name:se" v="Spiiniidgieddi" />
		<tag k="place" v="farm" />
		<tag k="ssr:stedsnr" v="321206" />
	</node>
	<node lat="69.29452501307034" lon="25.735177438631105" id="-37571">
		<tag k="name" v="Ruovttot" />
		<tag k="name:se" v="Ruovttot" />
		<tag k="old_name:se" v="Ruovtut" />
		<tag k="place" v="farm" />
		<tag k="ssr:stedsnr" v="382059" />
	</node>
	<node lat="69.42797778635936" lon="25.082463655320147" id="-37620">
		<tag k="name" v="Gussanjárga" />
		<tag k="name:se" v="Gussanjárga" />
		<tag k="place" v="hamlet" />
		<tag k="ssr:stedsnr" v="443142" />
	</node>
	<node lat="69.4127638992531" lon="25.811213548687153" id="-37639">
		<tag k="name" v="Gámehisnjárga" />
		<tag k="name:se" v="Gámehisnjárga" />
		<tag k="place" v="hamlet" />
		<tag k="ssr:stedsnr" v="452807" />
	</node>
	<node lat="69.4337416805172" lon="25.76137746166954" id="-37693">
		<tag k="name" v="Muotkkenjárga" />
		<tag k="name:se" v="Muotkkenjárga" />
		<tag k="place" v="hamlet" />
		<tag k="ssr:stedsnr" v="513813" />
	</node>
	<node lat="69.45669723290173" lon="25.404852513418803" id="-37694">
		<tag k="name" v="Vájamohkki" />
		<tag k="name:se" v="Vájamohkki" />
		<tag k="place" v="hamlet" />
		<tag k="ssr:stedsnr" v="513818" />
	</node>
	<node lat="69.39174723305436" lon="25.14218031143302" id="-37716">
		<tag k="name" v="Bieskkenjárga" />
		<tag k="name:se" v="Bieskkenjárga" />
		<tag k="place" v="hamlet" />
		<tag k="ssr:stedsnr" v="685135" />
	</node>
	<node lat="68.964725016278" lon="25.49836357461189" id="-37725">
		<tag k="name" v="Heikeniidgoahtesajit" />
		<tag k="name:se" v="Heikeniidgoahtesajit" />
		<tag k="old_name:se" v="Heikeniidgoattesajit" />
		<tag k="place" v="locality" />
		<tag k="ssr:stedsnr" v="685639" />
	</node>
	<node lat="69.46025001150483" lon="25.564169147814024" id="-37787">
=======
<osm generator="osmapis" version="0.6">
	<node id="-910463" lat="69.4444694508" lon="25.3640997393">
		<tag k="name" v="Báktemohkenjárga" />
		<tag k="name:se" v="Báktemohkenjárga" />
		<tag k="place" v="hamlet" />
		<tag k="ssr:stedsnr" v="573805" />
	</node>
	<node id="-910462" lat="69.4602500115" lon="25.5641691478">
>>>>>>> e1d4bc35ff8a6074a6f2e91616a996b547c36f15
		<tag k="name" v="Riidonjárga" />
		<tag k="name:se" v="Riidonjárga" />
		<tag k="place" v="hamlet" />
		<tag k="ssr:stedsnr" v="573795" />
	</node>
<<<<<<< HEAD
	<node lat="69.43871945789171" lon="25.69438858080687" id="-37915">
		<tag k="name" v="Holganjárga" />
		<tag k="name:se" v="Holganjárga" />
		<tag k="place" v="hamlet" />
		<tag k="ssr:stedsnr" v="695812" />
	</node>
	<node lat="69.26462501114706" lon="24.82350256176051" id="-37940">
		<tag k="name" v="Dálabohki" />
		<tag k="name:se" v="Dálabohki" />
		<tag k="old_name:se" v="Dalabåkki" />
		<tag k="place" v="farm" />
		<tag k="ssr:stedsnr" v="746212" />
	</node>
	<node lat="69.20041945839446" lon="25.69147466588643" id="-37950">
		<tag k="name" v="Máreveadji" />
		<tag k="name:se" v="Máreveadji" />
		<tag k="old_name:se" v="Marevæddji" />
		<tag k="place" v="farm" />
		<tag k="ssr:stedsnr" v="746778" />
	</node>
	<node lat="69.44071389982298" lon="25.743105246221727" id="-37993">
		<tag k="name" v="Vuollevuohpenjárga" />
		<tag k="name:se" v="Vuollevuohpenjárga" />
=======
	<node id="-909821" lat="69.7454694567" lon="25.8851913487">
		<tag k="name" v="Suonjervárgárdi" />
		<tag k="name:se" v="Suonjervárgárdi" />
		<tag k="old_name:se" v="Suonjervagardi" />
		<tag k="place" v="isolated_dwelling" />
		<tag k="ssr:stedsnr" v="79422" />
	</node>
	<node id="-910073" lat="69.1628944582" lon="25.7179080037">
		<tag k="name" v="Jorggástat" />
		<tag k="name:se" v="Jorggástat" />
		<tag k="old_name:se" v="Jårgastat" />
		<tag k="place" v="isolated_dwelling" />
		<tag k="ssr:stedsnr" v="200851" />
	</node>
	<node id="-910228" lat="69.4622472303" lon="25.4807441675">
		<tag k="name" v="Vullošnjárga" />
		<tag k="name:se" v="Vullošnjárga" />
		<tag k="place" v="hamlet" />
		<tag k="ssr:stedsnr" v="331824" />
	</node>
	<node id="-908790" lat="69.3757305592" lon="24.2551859378">
		<tag k="name" v="Šuoššjávri" />
		<tag k="name:se" v="Šuoššjávri" />
>>>>>>> e1d4bc35ff8a6074a6f2e91616a996b547c36f15
		<tag k="place" v="hamlet" />
		<tag k="ssr:stedsnr" v="817831" />
	</node>
<<<<<<< HEAD
	<node lat="69.52675278456186" lon="24.957777548888828" id="-38012">
		<tag k="fixme" v="consider tourism=alpine_hut or tourism=chalet" />
		<tag k="name" v="Gárdin - Ravnastua" />
		<tag k="name:no" v="Ravnastua" />
		<tag k="name:se" v="Gárdin" />
		<tag k="old_name:no" v="Ravnastua fjellstue" />
		<tag k="old_name:se" v="Gardin duoddarståppo;Gárdin duottarstohpu" />
		<tag k="ssr:stedsnr" v="928325" />
		<tag k="tourism" v="wilderness_hut" />
	</node>
	<node lat="68.91034723844349" lon="25.649149661903092" id="-38026">
		<tag k="name" v="Basevuovdi" />
		<tag k="name:se" v="Basevuovdi" />
		<tag k="place" v="isolated_dwelling" />
		<tag k="ssr:stedsnr" v="928617" />
	</node>
	<node lat="69.60156945593802" lon="25.958869101990604" id="-38090">
		<tag k="name" v="Vuolitnjárga" />
		<tag k="name:se" v="Vuolitnjárga" />
		<tag k="place" v="hamlet" />
		<tag k="ssr:stedsnr" v="877817" />
	</node>
	<node lat="69.20018612671811" lon="25.69032467322403" id="-38091">
		<tag k="name" v="Máreveadji" />
		<tag k="name:se" v="Máreveadji" />
=======
	<node id="-909030" lat="69.4337416805" lon="25.7613774617">
		<tag k="name" v="Muotkkenjárga" />
		<tag k="name:se" v="Muotkkenjárga" />
		<tag k="place" v="hamlet" />
		<tag k="ssr:stedsnr" v="513813" />
	</node>
	<node id="-909549" lat="69.4518611215" lon="25.4142330522">
		<tag k="name" v="Báhkiljohnjárga" />
		<tag k="name:se" v="Báhkiljohnjárga" />
>>>>>>> e1d4bc35ff8a6074a6f2e91616a996b547c36f15
		<tag k="place" v="hamlet" />
		<tag k="ssr:stedsnr" v="877820" />
	</node>
<<<<<<< HEAD
	<node lat="69.24671945822634" lon="25.694213562104274" id="-38134">
		<tag k="name" v="Iškorasjohka" />
		<tag k="name:se" v="Iškorasjohka" />
=======
	<node id="-909548" lat="69.4570527856" lon="25.4425330576">
		<tag k="name" v="Rávdojohnjárga" />
		<tag k="name:se" v="Rávdojohnjárga" />
>>>>>>> e1d4bc35ff8a6074a6f2e91616a996b547c36f15
		<tag k="place" v="hamlet" />
		<tag k="ssr:stedsnr" v="928799" />
	</node>
<<<<<<< HEAD
	<node lat="69.43977223013623" lon="25.77534133760492" id="-38152">
		<tag k="name" v="Itkkonjárga" />
		<tag k="name:se" v="Itkkonjárga" />
=======
	<node id="-909547" lat="69.4555722335" lon="25.4733969459">
		<tag k="name" v="Badjenjárga" />
		<tag k="name:se" v="Badjenjárga" />
>>>>>>> e1d4bc35ff8a6074a6f2e91616a996b547c36f15
		<tag k="place" v="hamlet" />
		<tag k="ssr:stedsnr" v="938804" />
	</node>
<<<<<<< HEAD
	<node lat="69.415630565539" lon="25.143644190846206" id="-38153">
=======
	<node id="-909546" lat="69.4156305655" lon="25.1436441908">
>>>>>>> e1d4bc35ff8a6074a6f2e91616a996b547c36f15
		<tag k="name" v="Čoallejárnjárga" />
		<tag k="name:se" v="Čoallejárnjárga" />
		<tag k="place" v="hamlet" />
		<tag k="ssr:stedsnr" v="938809" />
	</node>
<<<<<<< HEAD
	<node lat="69.45557223346025" lon="25.473396945888894" id="-38154">
		<tag k="name" v="Badjenjárga" />
		<tag k="name:se" v="Badjenjárga" />
=======
	<node id="-909033" lat="69.436600012" lon="25.2717941762">
		<tag k="name" v="Vuollesainjárga" />
		<tag k="name:se" v="Vuollesainjárga" />
>>>>>>> e1d4bc35ff8a6074a6f2e91616a996b547c36f15
		<tag k="place" v="hamlet" />
		<tag k="ssr:stedsnr" v="938819" />
	</node>
<<<<<<< HEAD
	<node lat="69.45705278556164" lon="25.442533057595874" id="-38155">
		<tag k="name" v="Rávdojohnjárga" />
		<tag k="name:se" v="Rávdojohnjárga" />
=======
	<node id="-909032" lat="69.456441675" lon="25.5897274846">
		<tag k="name" v="Mánnevárnjárga" />
		<tag k="name:se" v="Mánnevárnjárga" />
>>>>>>> e1d4bc35ff8a6074a6f2e91616a996b547c36f15
		<tag k="place" v="hamlet" />
		<tag k="ssr:stedsnr" v="938822" />
	</node>
<<<<<<< HEAD
	<node lat="69.45186112152152" lon="25.41423305219218" id="-38156">
		<tag k="name" v="Báhkiljohnjárga" />
		<tag k="name:se" v="Báhkiljohnjárga" />
		<tag k="place" v="hamlet" />
		<tag k="ssr:stedsnr" v="938823" />
	</node>
	<node lat="69.48679445843965" lon="25.843335788327078" id="-38242">
		<tag k="name" v="Hoaššir" />
		<tag k="name:se" v="Hoaššir" />
		<tag k="place" v="hamlet" />
		<tag k="ssr:stedsnr" v="19190" />
	</node>
	<node lat="69.36919722569431" lon="24.434438702443238" id="-38247">
		<tag k="name" v="Čoavddatmohkki" />
		<tag k="name:se" v="Čoavddatmohkki" />
=======
	<node id="-909031" lat="69.4566972329" lon="25.4048525134">
		<tag k="name" v="Vájamohkki" />
		<tag k="name:se" v="Vájamohkki" />
		<tag k="place" v="hamlet" />
		<tag k="ssr:stedsnr" v="513818" />
	</node>
	<node id="-909542" lat="69.4392611219" lon="25.2422580764">
		<tag k="name" v="Jorrenjárga" />
		<tag k="name:se" v="Jorrenjárga" />
		<tag k="place" v="hamlet" />
		<tag k="ssr:stedsnr" v="938745" />
	</node>
	<node id="-910564" lat="69.5548611246" lon="25.8391107955">
		<tag k="name" v="Geahtaveadji" />
		<tag k="name:se" v="Geahtaveadji" />
>>>>>>> e1d4bc35ff8a6074a6f2e91616a996b547c36f15
		<tag k="place" v="hamlet" />
		<tag k="ssr:stedsnr" v="19312" />
	</node>
<<<<<<< HEAD
	<node lat="69.3730861215551" lon="24.651891465419276" id="-38281">
		<tag k="name" v="Ávjovármárkansadji" />
		<tag k="name:se" v="Ávjovármárkansadji" />
		<tag k="place" v="locality" />
		<tag k="ssr:stedsnr" v="28488" />
	</node>
	<node lat="69.40214722690824" lon="24.651499798567286" id="-38319">
		<tag k="name" v="Jergul" />
		<tag k="name:se" v="Jergul" />
		<tag k="place" v="hamlet" />
		<tag k="ssr:stedsnr" v="79162" />
	</node>
	<node lat="69.74546945668628" lon="25.885191348746897" id="-38348">
		<tag k="name" v="Suonjervárgárdi" />
		<tag k="name:se" v="Suonjervárgárdi" />
		<tag k="old_name:se" v="Suonjervagardi" />
		<tag k="place" v="isolated_dwelling" />
		<tag k="ssr:stedsnr" v="79422" />
	</node>
	<node lat="69.15636945513997" lon="25.727491331644142" id="-38364">
		<tag k="name" v="Láttotnjárga" />
		<tag k="name:se" v="Láttotnjárga" />
		<tag k="old_name:se" v="Laddutnjarga" />
=======
	<node id="-910435" lat="69.6907500157" lon="25.9284718955">
		<tag k="name" v="Váljohka" />
		<tag k="name:se" v="Váljohka" />
		<tag k="place" v="hamlet" />
		<tag k="ssr:stedsnr" v="564514" />
	</node>
	<node id="-909079" lat="69.4400083425" lon="25.3215136324">
		<tag k="name" v="Spiinniidgieddi" />
		<tag k="name:se" v="Spiinniidgieddi" />
		<tag k="place" v="hamlet" />
		<tag k="ssr:stedsnr" v="452821" />
	</node>
	<node id="-910937" lat="69.4004561345" lon="24.6534067242">
		<tag k="name" v="Jergul Astu" />
		<tag k="name:se" v="Jergul Astu" />
		<tag k="ssr:stedsnr" v="972571" />
		<tag k="tourism" v="guest_house" />
	</node>
	<node id="-910936" lat="69.400766916" lon="24.651531647">
		<tag k="name" v="Jergul fjellstue" />
>>>>>>> e1d4bc35ff8a6074a6f2e91616a996b547c36f15
		<tag k="place" v="farm" />
		<tag k="ssr:stedsnr" v="79853" />
	</node>
<<<<<<< HEAD
	<node lat="69.5659555573775" lon="24.390080388915187" id="-38475">
		<tag k="fixme" v="consider tourism=alpine_hut or tourism=chalet" />
		<tag k="name" v="Mollešjohka - Mollisjohka fjellstue" />
		<tag k="name:no" v="Mollisjohka fjellstue" />
		<tag k="name:se" v="Mollešjohka" />
		<tag k="old_name:no" v="Mollešjohka fjellstue" />
		<tag k="old_name:se" v="Mållešjåkka fjellstue" />
		<tag k="ssr:stedsnr" v="147089" />
		<tag k="tourism" v="wilderness_hut" />
	</node>
	<node lat="69.44623889554966" lon="25.406841390832074" id="-38504">
		<tag k="name" v="Báhkiljohka" />
		<tag k="name:se" v="Báhkiljohka" />
		<tag k="place" v="hamlet" />
		<tag k="ssr:stedsnr" v="149834" />
	</node>
	<node lat="69.16289445816763" lon="25.71790800371708" id="-38544">
		<tag k="name" v="Jorggástat" />
		<tag k="name:se" v="Jorggástat" />
		<tag k="old_name:se" v="Jårgastat" />
		<tag k="place" v="isolated_dwelling" />
		<tag k="ssr:stedsnr" v="200851" />
	</node>
	<node lat="69.4003527872421" lon="25.82754687224609" id="-38588">
		<tag k="name" v="Dorvonjárga" />
		<tag k="name:se" v="Dorvonjárga" />
=======
	<node id="-908883" lat="69.49543612" lon="25.4793830629">
		<tag k="name" v="Siregoahti" />
		<tag k="name:se" v="Siregoahti" />
		<tag k="place" v="locality" />
		<tag k="ssr:stedsnr" v="271365" />
	</node>
	<node id="-909411" lat="68.9052139021" lon="25.4909913393">
		<tag k="name" v="Andreas-Nilsen-hytta" />
		<tag k="name:no" v="Andreas-Nilsen-hytta" />
		<tag k="place" v="isolated_dwelling" />
		<tag k="ssr:stedsnr" v="745662" />
	</node>
	<node id="-908878" lat="69.4527000134" lon="25.6058830472">
		<tag k="name" v="Ájonjárga" />
		<tag k="name:se" v="Ájonjárga" />
>>>>>>> e1d4bc35ff8a6074a6f2e91616a996b547c36f15
		<tag k="place" v="hamlet" />
		<tag k="ssr:stedsnr" v="210822" />
	</node>
<<<<<<< HEAD
	<node lat="69.42900279401758" lon="25.803666340665284" id="-38673">
		<tag k="name" v="Ráidenjárga" />
		<tag k="name:se" v="Ráidenjárga" />
=======
	<node id="-908620" lat="69.7432694616" lon="26.1329218614">
		<tag k="name" v="Jávrebainjárga" />
		<tag k="name:se" v="Jávrebainjárga" />
>>>>>>> e1d4bc35ff8a6074a6f2e91616a996b547c36f15
		<tag k="place" v="hamlet" />
		<tag k="ssr:stedsnr" v="331808" />
	</node>
<<<<<<< HEAD
	<node lat="69.3768500121022" lon="25.153130321265962" id="-38674">
		<tag k="name" v="Buollánnjárga" />
		<tag k="name:se" v="Buollánnjárga" />
=======
	<node id="-908746" lat="69.5729061459" lon="25.9171462471">
		<tag k="name" v="Borjjasnjárga - Seilnes" />
		<tag k="name:no" v="Seilnes" />
		<tag k="name:se" v="Borjjasnjárga" />
>>>>>>> e1d4bc35ff8a6074a6f2e91616a996b547c36f15
		<tag k="place" v="hamlet" />
		<tag k="ssr:stedsnr" v="331811" />
	</node>
<<<<<<< HEAD
	<node lat="69.46224723032542" lon="25.480744167451864" id="-38675">
		<tag k="name" v="Vullošnjárga" />
		<tag k="name:se" v="Vullošnjárga" />
		<tag k="place" v="hamlet" />
		<tag k="ssr:stedsnr" v="331824" />
	</node>
	<node lat="69.37573055919825" lon="24.255185937823146" id="-38830">
		<tag k="name" v="Šuoššjávri" />
		<tag k="name:se" v="Šuoššjávri" />
		<tag k="place" v="hamlet" />
		<tag k="ssr:stedsnr" v="443329" />
	</node>
	<node lat="69.52726112114206" lon="24.384463714178093" id="-38870">
		<tag k="name" v="Vuolit Mollešjohka" />
		<tag k="name:se" v="Vuolit Mollešjohka" />
		<tag k="old_name:se" v="Mållešjåkka, vestre" />
		<tag k="place" v="farm" />
		<tag k="ssr:stedsnr" v="503284" />
	</node>
	<node lat="69.45644167500208" lon="25.58972748457133" id="-38936">
		<tag k="name" v="Mánnevárnjárga" />
		<tag k="name:se" v="Mánnevárnjárga" />
		<tag k="place" v="hamlet" />
		<tag k="ssr:stedsnr" v="513824" />
	</node>
	<node lat="69.43660001195288" lon="25.271794176218055" id="-38937">
		<tag k="name" v="Vuollesainjárga" />
		<tag k="name:se" v="Vuollesainjárga" />
=======
	<node id="-908745" lat="69.4472805665" lon="25.8181052196">
		<tag k="name" v="Iccemihásnjárga" />
		<tag k="name:se" v="Iccemihásnjárga" />
		<tag k="place" v="hamlet" />
		<tag k="ssr:stedsnr" v="210824" />
	</node>
	<node id="-908744" lat="69.4003527872" lon="25.8275468722">
		<tag k="name" v="Dorvonjárga" />
		<tag k="name:se" v="Dorvonjárga" />
		<tag k="place" v="hamlet" />
		<tag k="ssr:stedsnr" v="210822" />
	</node>
	<node id="-909836" lat="69.2047139048" lon="25.6914718953">
		<tag k="name" v="Lasedeadji" />
		<tag k="name:se" v="Lasedeadji" />
		<tag k="old_name:se" v="Lasedæddji;Lasedveadji" />
		<tag k="place" v="farm" />
		<tag k="ssr:stedsnr" v="79802" />
	</node>
	<node id="-910662" lat="69.2004194584" lon="25.6914746659">
		<tag k="name" v="Máreveadji" />
		<tag k="name:se" v="Máreveadji" />
		<tag k="old_name:se" v="Marevæddji" />
		<tag k="place" v="farm" />
		<tag k="ssr:stedsnr" v="746778" />
	</node>
	<node id="-910149" lat="69.4380333442" lon="25.3047552929">
		<tag k="name" v="Spiinniidgieddi" />
		<tag k="name:se" v="Spiinniidgieddi" />
		<tag k="old_name:se" v="Spiiniidgieddi" />
		<tag k="place" v="farm" />
		<tag k="ssr:stedsnr" v="321206" />
	</node>
	<node id="-909380" lat="68.9647250163" lon="25.4983635746">
		<tag k="name" v="Heikeniidgoahtesajit" />
		<tag k="name:se" v="Heikeniidgoahtesajit" />
		<tag k="old_name:se" v="Heikeniidgoattesajit" />
		<tag k="place" v="locality" />
		<tag k="ssr:stedsnr" v="685639" />
	</node>
	<node id="-909635" lat="69.4397722301" lon="25.7753413376">
		<tag k="name" v="Itkkonjárga" />
		<tag k="name:se" v="Itkkonjárga" />
		<tag k="place" v="hamlet" />
		<tag k="ssr:stedsnr" v="938804" />
	</node>
	<node id="-909122" lat="69.3917472331" lon="25.1421803114">
		<tag k="name" v="Bieskkenjárga" />
		<tag k="name:se" v="Bieskkenjárga" />
		<tag k="place" v="hamlet" />
		<tag k="ssr:stedsnr" v="685135" />
	</node>
	<node id="-910017" lat="69.4462388955" lon="25.4068413908">
		<tag k="name" v="Báhkiljohka" />
		<tag k="name:se" v="Báhkiljohka" />
>>>>>>> e1d4bc35ff8a6074a6f2e91616a996b547c36f15
		<tag k="place" v="hamlet" />
		<tag k="ssr:stedsnr" v="513826" />
	</node>
<<<<<<< HEAD
	<node lat="69.40870000559184" lon="25.150760875134313" id="-38993">
		<tag k="name" v="Fárpenjárga" />
		<tag k="name:se" v="Fárpenjárga" />
		<tag k="place" v="hamlet" />
		<tag k="ssr:stedsnr" v="564143" />
	</node>
	<node lat="69.44089167594419" lon="25.317830300811032" id="-39007">
=======
	<node id="-908735" lat="69.3811833386" lon="24.2376942978">
		<tag k="name" v="Suoidnerohtu" />
		<tag k="name:se" v="Suoidnerohtu" />
		<tag k="old_name:se" v="Suoidneråtto" />
		<tag k="place" v="farm" />
		<tag k="ssr:stedsnr" v="200302" />
	</node>
	<node id="-910398" lat="69.4408916759" lon="25.3178303008">
>>>>>>> e1d4bc35ff8a6074a6f2e91616a996b547c36f15
		<tag k="name" v="Svineng" />
		<tag k="name:no" v="Svineng" />
		<tag k="place" v="farm" />
		<tag k="ssr:stedsnr" v="564209" />
	</node>
<<<<<<< HEAD
	<node lat="69.69075001574164" lon="25.928471895528965" id="-39040">
		<tag k="name" v="Váljohka" />
		<tag k="name:se" v="Váljohka" />
		<tag k="place" v="hamlet" />
		<tag k="ssr:stedsnr" v="564514" />
	</node>
	<node lat="69.44446945076423" lon="25.36409973928976" id="-39061">
		<tag k="name" v="Báktemohkenjárga" />
		<tag k="name:se" v="Báktemohkenjárga" />
=======
	<node id="-910269" lat="69.2945250131" lon="25.7351774386">
		<tag k="name" v="Ruovttot" />
		<tag k="name:se" v="Ruovttot" />
		<tag k="old_name:se" v="Ruovtut" />
		<tag k="place" v="farm" />
		<tag k="ssr:stedsnr" v="382059" />
	</node>
	<node id="-911031" lat="69.6807751959" lon="19.0868014399">
		<tag k="fixme" v="consider place=hamlet" />
		<tag k="name" v="Krokelv" />
		<tag k="place" v="farm" />
		<tag k="ssr:stedsnr" v="1076826" />
	</node>
	<node id="-909750" lat="69.3730861216" lon="24.6518914654">
		<tag k="name" v="Ávjovármárkansadji" />
		<tag k="name:se" v="Ávjovármárkansadji" />
		<tag k="place" v="locality" />
		<tag k="ssr:stedsnr" v="28488" />
	</node>
	<node id="-910793" lat="69.4431055693" lon="25.192860863">
		<tag k="name" v="Ássebákti" />
		<tag k="name:se" v="Ássebákti" />
		<tag k="place" v="hamlet" />
		<tag k="ssr:stedsnr" v="807367" />
	</node>
	<node id="-910388" lat="69.4087000056" lon="25.1507608751">
		<tag k="name" v="Fárpenjárga" />
		<tag k="name:se" v="Fárpenjárga" />
>>>>>>> e1d4bc35ff8a6074a6f2e91616a996b547c36f15
		<tag k="place" v="hamlet" />
		<tag k="ssr:stedsnr" v="573805" />
	</node>
<<<<<<< HEAD
	<node lat="69.55486112461656" lon="25.839110795457955" id="-39139">
		<tag k="name" v="Geahtaveadji" />
		<tag k="name:se" v="Geahtaveadji" />
		<tag k="place" v="hamlet" />
		<tag k="ssr:stedsnr" v="625469" />
	</node>
	<node lat="68.90521390213759" lon="25.490991339325696" id="-39207">
		<tag k="name" v="Andreas-Nilsen-hytta" />
		<tag k="name:no" v="Andreas-Nilsen-hytta" />
		<tag k="place" v="isolated_dwelling" />
		<tag k="ssr:stedsnr" v="745662" />
	</node>
	<node lat="69.44479445404113" lon="25.208880295494417" id="-39239">
		<tag k="name" v="Kentán" />
		<tag k="name:se" v="Kentán" />
		<tag k="old_name:se" v="Kenutan;Kentan" />
		<tag k="place" v="hamlet" />
		<tag k="ssr:stedsnr" v="746359" />
	</node>
	<node lat="69.43450834111393" lon="25.283880297830944" id="-39298">
		<tag k="name" v="Sámmáljohnjálbmi" />
		<tag k="name:se" v="Sámmáljohnjálbmi" />
		<tag k="place" v="hamlet" />
		<tag k="ssr:stedsnr" v="756826" />
	</node>
	<node lat="69.44077500509309" lon="25.192710868877846" id="-39364">
		<tag k="name" v="Máđárgieddi" />
		<tag k="name:se" v="Máđárgieddi" />
		<tag k="old_name:se" v="Mađargieddi" />
		<tag k="place" v="isolated_dwelling" />
		<tag k="ssr:stedsnr" v="807356" />
	</node>
	<node lat="69.44310556925392" lon="25.192860862956387" id="-39369">
		<tag k="name" v="Ássebákti" />
		<tag k="name:se" v="Ássebákti" />
=======
	<node id="-910621" lat="69.2646250111" lon="24.8235025618">
		<tag k="name" v="Dálabohki" />
		<tag k="name:se" v="Dálabohki" />
		<tag k="old_name:se" v="Dalabåkki" />
		<tag k="place" v="farm" />
		<tag k="ssr:stedsnr" v="746212" />
	</node>
	<node id="-910640" lat="69.444794454" lon="25.2088802955">
		<tag k="name" v="Kentán" />
		<tag k="name:se" v="Kentán" />
		<tag k="old_name:se" v="Kenutan;Kentan" />
		<tag k="place" v="hamlet" />
		<tag k="ssr:stedsnr" v="746359" />
	</node>
	<node id="-908717" lat="69.4377611204" lon="25.3050969617">
		<tag k="name" v="Oazessainjárga" />
		<tag k="name:se" v="Oazessainjárga" />
>>>>>>> e1d4bc35ff8a6074a6f2e91616a996b547c36f15
		<tag k="place" v="hamlet" />
		<tag k="ssr:stedsnr" v="807367" />
	</node>
<<<<<<< HEAD
	<node lat="69.52392501080381" lon="25.59740247986377" id="-39374">
		<tag k="name" v="Sávkadasgárdi" />
		<tag k="name:se" v="Sávkadasgárdi" />
		<tag k="old_name:se" v="Savkadasgardi" />
=======
	<node id="-908585" lat="69.3098277869" lon="24.8598747708">
		<tag k="name" v="Gollebáiki" />
		<tag k="name:se" v="Gollebáiki" />
		<tag k="old_name:se" v="Gållebaike" />
>>>>>>> e1d4bc35ff8a6074a6f2e91616a996b547c36f15
		<tag k="place" v="isolated_dwelling" />
		<tag k="ssr:stedsnr" v="807444" />
	</node>
<<<<<<< HEAD
	<node lat="69.36063334445954" lon="25.140827521401956" id="-39445">
		<tag k="name" v="Gorvá" />
		<tag k="name:se" v="Gorvá" />
		<tag k="place" v="hamlet" />
		<tag k="ssr:stedsnr" v="868168" />
	</node>
	<node lat="69.47187778530568" lon="25.511124712434672" id="-39449">
		<tag k="name" v="Kárášjohka - Karasjok" />
		<tag k="name:no" v="Karasjok" />
		<tag k="name:se" v="Kárášjohka" />
		<tag k="place" v="village" />
		<tag k="ssr:stedsnr" v="868181" />
	</node>
	<node lat="69.60571945187593" lon="25.325474755445242" id="-39479">
		<tag k="name" v="Sáddoluokta" />
		<tag k="name:se" v="Sáddoluokta" />
		<tag k="old_name:se" v="Sadduluokta" />
		<tag k="place" v="isolated_dwelling" />
		<tag k="ssr:stedsnr" v="868418" />
	</node>
	<node lat="69.76116945444419" lon="26.175746868508682" id="-39496">
		<tag k="name" v="Barta" />
		<tag k="name:se" v="Barta" />
		<tag k="place" v="hamlet" />
		<tag k="ssr:stedsnr" v="869936" />
	</node>
	<node lat="69.44597778353709" lon="25.343580290172937" id="-39524">
=======
	<node id="-908583" lat="69.337280562" lon="25.1128414142">
		<tag k="name" v="Šuolggajohnjálbmi" />
		<tag k="name:se" v="Šuolggajohnjálbmi" />
		<tag k="old_name:se" v="Suolgajåknjalbmi" />
		<tag k="place" v="farm" />
		<tag k="ssr:stedsnr" v="261154" />
	</node>
	<node id="-909606" lat="69.4459777835" lon="25.3435802902">
>>>>>>> e1d4bc35ff8a6074a6f2e91616a996b547c36f15
		<tag k="name" v="Háldenjárga" />
		<tag k="name:se" v="Háldenjárga" />
		<tag k="place" v="hamlet" />
		<tag k="ssr:stedsnr" v="877836" />
	</node>
<<<<<<< HEAD
	<node lat="69.43926112188585" lon="25.242258076404877" id="-39553">
		<tag k="name" v="Jorrenjárga" />
		<tag k="name:se" v="Jorrenjárga" />
=======
	<node id="-909605" lat="69.2001861267" lon="25.6903246732">
		<tag k="name" v="Máreveadji" />
		<tag k="name:se" v="Máreveadji" />
>>>>>>> e1d4bc35ff8a6074a6f2e91616a996b547c36f15
		<tag k="place" v="hamlet" />
		<tag k="ssr:stedsnr" v="938745" />
	</node>
	<node lat="69.40076691601828" lon="24.651531646969197" id="-39593">
		<tag k="name" v="Jergul fjellstue" />
		<tag k="place" v="farm" />
		<tag k="ssr:stedsnr" v="972566" />
	</node>
	<node lat="69.40045613446536" lon="24.65340672416776" id="-39594">
		<tag k="name" v="Jergul Astu" />
		<tag k="name:se" v="Jergul Astu" />
		<tag k="ssr:stedsnr" v="972571" />
		<tag k="tourism" v="guest_house" />
	</node>
	<node lat="69.65483861708206" lon="18.954055597917613" id="-39678">
		<tag k="amenity" v="school" />
		<tag k="name" v="Ishavsbyen videregående skole" />
		<tag k="ssr:stedsnr" v="1075695" />
	</node>
	<node id="-909604" lat="69.6015694559" lon="25.958869102">
		<tag k="name" v="Vuolitnjárga" />
		<tag k="name:se" v="Vuolitnjárga" />
		<tag k="place" v="hamlet" />
		<tag k="ssr:stedsnr" v="877817" />
	</node>
	<node id="-909473" lat="69.2467194582" lon="25.6942135621">
		<tag k="name" v="Iškorasjohka" />
		<tag k="name:se" v="Iškorasjohka" />
		<tag k="place" v="hamlet" />
		<tag k="ssr:stedsnr" v="928799" />
	</node>
	<node id="-910752" lat="69.5239250108" lon="25.5974024799">
		<tag k="name" v="Sávkadasgárdi" />
		<tag k="name:se" v="Sávkadasgárdi" />
		<tag k="old_name:se" v="Savkadasgardi" />
		<tag k="place" v="isolated_dwelling" />
		<tag k="ssr:stedsnr" v="807444" />
	</node>
	<node id="-909616" lat="69.5267527846" lon="24.9577775489">
		<tag k="fixme" v="consider tourism=alpine_hut or tourism=chalet" />
		<tag k="name" v="Gárdin - Ravnastua" />
		<tag k="name:no" v="Ravnastua" />
		<tag k="name:se" v="Gárdin" />
		<tag k="old_name:no" v="Ravnastua fjellstue" />
		<tag k="old_name:se" v="Gardin duoddarståppo;Gárdin duottarstohpu" />
		<tag k="ssr:stedsnr" v="928325" />
		<tag k="tourism" v="wilderness_hut" />
	</node>
	<node id="-909981" lat="69.5659555574" lon="24.3900803889">
		<tag k="fixme" v="consider tourism=alpine_hut or tourism=chalet" />
		<tag k="name" v="Mollešjohka - Mollisjohka fjellstue" />
		<tag k="name:no" v="Mollisjohka fjellstue" />
		<tag k="name:se" v="Mollešjohka" />
		<tag k="old_name:no" v="Mollešjohka fjellstue" />
		<tag k="old_name:se" v="Mållešjåkka fjellstue" />
		<tag k="ssr:stedsnr" v="147089" />
		<tag k="tourism" v="wilderness_hut" />
	</node>
	<node id="-910874" lat="69.4718777853" lon="25.5111247124">
		<tag k="name" v="Kárášjohka - Karasjok" />
		<tag k="name:no" v="Karasjok" />
		<tag k="name:se" v="Kárášjohka" />
		<tag k="place" v="village" />
		<tag k="ssr:stedsnr" v="868181" />
	</node>
	<node id="-909833" lat="69.0488833452" lon="25.7480996594">
		<tag k="name" v="Geavgŋoaivi" />
		<tag k="name:se" v="Geavgŋoaivi" />
		<tag k="old_name:se" v="Gævgŋoaivi" />
		<tag k="place" v="farm" />
		<tag k="ssr:stedsnr" v="79748" />
	</node>
	<node id="-910872" lat="69.3606333445" lon="25.1408275214">
		<tag k="name" v="Gorvá" />
		<tag k="name:se" v="Gorvá" />
		<tag k="place" v="hamlet" />
		<tag k="ssr:stedsnr" v="868168" />
	</node>
	<node id="-910788" lat="69.4407750051" lon="25.1927108689">
		<tag k="name" v="Máđárgieddi" />
		<tag k="name:se" v="Máđárgieddi" />
		<tag k="old_name:se" v="Mađargieddi" />
		<tag k="place" v="isolated_dwelling" />
		<tag k="ssr:stedsnr" v="807356" />
	</node>
	<node id="-909078" lat="69.4127638993" lon="25.8112135487">
		<tag k="name" v="Gámehisnjárga" />
		<tag k="name:se" v="Gámehisnjárga" />
		<tag k="place" v="hamlet" />
		<tag k="ssr:stedsnr" v="452807" />
	</node>
	<node id="-909465" lat="68.9103472384" lon="25.6491496619">
		<tag k="name" v="Basevuovdi" />
		<tag k="name:se" v="Basevuovdi" />
		<tag k="place" v="isolated_dwelling" />
		<tag k="ssr:stedsnr" v="928617" />
	</node>
	<node id="-909076" lat="69.4279777864" lon="25.0824636553">
		<tag k="name" v="Gussanjárga" />
		<tag k="name:se" v="Gussanjárga" />
		<tag k="place" v="hamlet" />
		<tag k="ssr:stedsnr" v="443142" />
	</node>
	<node id="-910227" lat="69.3768500121" lon="25.1531303213">
		<tag k="name" v="Buollánnjárga" />
		<tag k="name:se" v="Buollánnjárga" />
		<tag k="place" v="hamlet" />
		<tag k="ssr:stedsnr" v="331811" />
	</node>
	<node id="-909841" lat="69.1563694551" lon="25.7274913316">
		<tag k="name" v="Láttotnjárga" />
		<tag k="name:se" v="Láttotnjárga" />
		<tag k="old_name:se" v="Laddutnjarga" />
		<tag k="place" v="farm" />
		<tag k="ssr:stedsnr" v="79853" />
	</node>
	<node id="-909080" lat="69.4518305627" lon="25.3877247345">
		<tag k="name" v="Vájamohkenjárga" />
		<tag k="name:se" v="Vájamohkenjárga" />
		<tag k="place" v="hamlet" />
		<tag k="ssr:stedsnr" v="452831" />
	</node>
	<node id="-910222" lat="69.429002794" lon="25.8036663407">
		<tag k="name" v="Ráidenjárga" />
		<tag k="name:se" v="Ráidenjárga" />
		<tag k="place" v="hamlet" />
		<tag k="ssr:stedsnr" v="331808" />
	</node>
	<node id="-910860" lat="69.7611694544" lon="26.1757468685">
		<tag k="name" v="Barta" />
		<tag k="name:se" v="Barta" />
		<tag k="place" v="hamlet" />
		<tag k="ssr:stedsnr" v="869936" />
	</node>
	<node id="-909707" lat="69.3691972257" lon="24.4344387024">
		<tag k="name" v="Čoavddatmohkki" />
		<tag k="name:se" v="Čoavddatmohkki" />
		<tag k="place" v="hamlet" />
		<tag k="ssr:stedsnr" v="19312" />
	</node>
	<node id="-909223" lat="69.4387194579" lon="25.6943885808">
		<tag k="name" v="Holganjárga" />
		<tag k="name:se" v="Holganjárga" />
		<tag k="place" v="hamlet" />
		<tag k="ssr:stedsnr" v="695812" />
	</node>
	<node id="-908553" lat="69.4021472269" lon="24.6514997986">
		<tag k="name" v="Jergul" />
		<tag k="name:se" v="Jergul" />
		<tag k="place" v="hamlet" />
		<tag k="ssr:stedsnr" v="79162" />
	</node>
	<node id="-909704" lat="69.4867944584" lon="25.8433357883">
		<tag k="name" v="Hoaššir" />
		<tag k="name:se" v="Hoaššir" />
		<tag k="place" v="hamlet" />
		<tag k="ssr:stedsnr" v="19190" />
	</node>
	<node id="-909600" lat="69.6057194519" lon="25.3254747554">
		<tag k="name" v="Sáddoluokta" />
		<tag k="name:se" v="Sáddoluokta" />
		<tag k="old_name:se" v="Sadduluokta" />
		<tag k="place" v="isolated_dwelling" />
		<tag k="ssr:stedsnr" v="868418" />
	</node>
	<node id="-911030" lat="69.6548386171" lon="18.9540555979">
		<tag k="amenity" v="school" />
		<tag k="name" v="Ishavsbyen videregående skole" />
		<tag k="ssr:stedsnr" v="1075695" />
	</node>
	<node id="-910851" lat="69.4407138998" lon="25.7431052462">
		<tag k="name" v="Vuollevuohpenjárga" />
		<tag k="name:se" v="Vuollevuohpenjárga" />
		<tag k="place" v="hamlet" />
		<tag k="ssr:stedsnr" v="817831" />
	</node>
	<node id="-910722" lat="69.4345083411" lon="25.2838802978">
		<tag k="name" v="Sámmáljohnjálbmi" />
		<tag k="name:se" v="Sámmáljohnjálbmi" />
		<tag k="place" v="hamlet" />
		<tag k="ssr:stedsnr" v="756826" />
	</node>
	<node id="-908929" lat="69.5272611211" lon="24.3844637142">
		<tag k="name" v="Vuolit Mollešjohka" />
		<tag k="name:se" v="Vuolit Mollešjohka" />
		<tag k="old_name:se" v="Mållešjåkka, vestre" />
		<tag k="place" v="farm" />
		<tag k="ssr:stedsnr" v="503284" />
	</node>
</osm>
