<?xml version="1.0" encoding="UTF-8"?>
<<<<<<< HEAD
<osm version="0.6" generator="osmapis">
	<node lat="69.33519445442882" lon="25.5369746961346" id="-37151">
		<tag k="name" v="Ávžegeašjeaggi" />
		<tag k="name:se" v="Ávžegeašjeaggi" />
		<tag k="natural" v="wetland" />
		<tag k="old_name:se" v="Avžegæšjæggi" />
		<tag k="ssr:stedsnr" v="18005" />
	</node>
	<node lat="69.19416390087322" lon="25.47956913482872" id="-37161">
		<tag k="name" v="Kruvnnajeaggi" />
		<tag k="name:se" v="Kruvnnajeaggi" />
=======
<osm generator="osmapis" version="0.6">
	<node id="-910335" lat="69.5072750076" lon="25.5108719429">
		<tag k="name" v="Peđarjeaggi" />
		<tag k="name:se" v="Peđarjeaggi" />
		<tag k="natural" v="wetland" />
		<tag k="ssr:stedsnr" v="392079" />
	</node>
	<node id="-910844" lat="69.4874388956" lon="25.298699738">
		<tag k="name" v="Lullánjeaggi" />
		<tag k="name:se" v="Lullánjeaggi" />
		<tag k="natural" v="wetland" />
		<tag k="ssr:stedsnr" v="817537" />
	</node>
	<node id="-909304" lat="69.4002722395" lon="25.8217941072">
		<tag k="name" v="Gorddetjeaggi" />
		<tag k="name:se" v="Gorddetjeaggi" />
		<tag k="natural" v="wetland" />
		<tag k="ssr:stedsnr" v="635953" />
	</node>
	<node id="-909303" lat="69.4195639027" lon="25.6886441423">
		<tag k="name" v="Suoidneádjatgeahči" />
		<tag k="name:se" v="Suoidneádjatgeahči" />
		<tag k="natural" v="wetland" />
		<tag k="ssr:stedsnr" v="635921" />
	</node>
	<node id="-909300" lat="69.5550055667" lon="25.8524968913">
		<tag k="name" v="Geahteveaisáddot" />
		<tag k="name:se" v="Geahteveaisáddot" />
		<tag k="natural" v="beach" />
		<tag k="ssr:stedsnr" v="635517" />
		<tag k="surface" v="sand" />
	</node>
	<node id="-910831" lat="69.4744583483" lon="25.7862135676">
		<tag k="name" v="Hoašširjeaggi" />
		<tag k="name:se" v="Hoašširjeaggi" />
		<tag k="natural" v="wetland" />
		<tag k="ssr:stedsnr" v="817523" />
	</node>
	<node id="-910589" lat="69.4384666806" lon="25.177085855">
		<tag k="name" v="Máđárgieddi" />
		<tag k="name:se" v="Máđárgieddi" />
		<tag k="place" v="locality" />
		<tag k="ssr:stedsnr" v="635596" />
	</node>
	<node id="-910827" lat="69.4204222336" lon="24.7362220159">
		<tag k="name" v="Liidnebeahcanjeaggi" />
		<tag k="name:se" v="Liidnebeahcanjeaggi" />
		<tag k="natural" v="wetland" />
		<tag k="ssr:stedsnr" v="817463" />
	</node>
	<node id="-910824" lat="69.4665583428" lon="25.5133691552">
		<tag k="name" v="Sámmolašmielli" />
		<tag k="name:se" v="Sámmolašmielli" />
		<tag k="place" v="locality" />
		<tag k="ssr:stedsnr" v="817233" />
	</node>
	<node id="-910311" lat="69.5529833417" lon="25.5039080535">
		<tag k="name" v="Doalpovárráhppát" />
		<tag k="name:se" v="Doalpovárráhppát" />
		<tag k="natural" v="scree" />
		<tag k="old_name:se" v="Doalpuvarrappat" />
		<tag k="ssr:stedsnr" v="382453" />
	</node>
	<node id="-910821" lat="69.505719451" lon="25.4654163963">
		<tag k="name" v="Jussajeaggi" />
		<tag k="name:se" v="Jussajeaggi" />
		<tag k="natural" v="wetland" />
		<tag k="ssr:stedsnr" v="817070" />
	</node>
	<node id="-909284" lat="69.4366389015" lon="25.6287135961">
		<tag k="name" v="Ájojogašjeaggi" />
		<tag k="name:se" v="Ájojogašjeaggi" />
		<tag k="natural" v="wetland" />
		<tag k="ssr:stedsnr" v="574881" />
	</node>
	<node id="-909282" lat="69.4434277891" lon="25.6002469119">
		<tag k="name" v="Jovnn-Ommotjeaggi" />
		<tag k="name:se" v="Jovnn-Ommotjeaggi" />
		<tag k="natural" v="wetland" />
		<tag k="ssr:stedsnr" v="574852" />
	</node>
	<node id="-908893" lat="69.363491671" lon="24.3321553989">
		<tag k="name" v="Geađgevárjeakkit" />
		<tag k="name:se" v="Geađgevárjeakkit" />
		<tag k="natural" v="wetland" />
		<tag k="ssr:stedsnr" v="271707" />
	</node>
	<node id="-910811" lat="68.9493555631" lon="25.0513302951">
		<tag k="name" v="Gurbbešvuovdi" />
		<tag k="name:se" v="Gurbbešvuovdi" />
		<tag k="old_name:se" v="Gurbešvuovdi" />
		<tag k="place" v="locality" />
		<tag k="ssr:stedsnr" v="807854" />
	</node>
	<node id="-909786" lat="69.3870333404" lon="24.8795747952">
		<tag k="name" v="Mihkilašrohtu" />
		<tag k="name:se" v="Mihkilašrohtu" />
		<tag k="old_name:se" v="Mikkilašråtto;Mikkilasrohtu" />
		<tag k="place" v="locality" />
		<tag k="ssr:stedsnr" v="79137" />
	</node>
	<node id="-909273" lat="69.449066679" lon="25.503421938">
		<tag k="name" v="Lemet-Jon-Jovnnaniitu" />
		<tag k="name:se" v="Lemet-Jon-Jovnnaniitu" />
		<tag k="place" v="locality" />
		<tag k="ssr:stedsnr" v="574502" />
	</node>
	<node id="-909882" lat="69.4287666754" lon="25.3549108539">
		<tag k="name" v="Rávnná-Johanasniitu" />
		<tag k="name:se" v="Rávnná-Johanasniitu" />
		<tag k="place" v="locality" />
		<tag k="ssr:stedsnr" v="89581" />
	</node>
	<node id="-909561" lat="69.3726361146" lon="24.5046581497">
		<tag k="name" v="Gohásrohtu" />
		<tag k="name:se" v="Gohásrohtu" />
		<tag k="place" v="locality" />
		<tag k="ssr:stedsnr" v="939288" />
	</node>
	<node id="-908756" lat="69.4417416794" lon="25.6132524744">
		<tag k="name" v="Vieksajeaggi" />
		<tag k="name:se" v="Vieksajeaggi" />
		<tag k="natural" v="wetland" />
		<tag k="ssr:stedsnr" v="211806" />
	</node>
	<node id="-908755" lat="69.3753777882" lon="24.2760581684">
		<tag k="name" v="Njavvoaivvejeaggi" />
		<tag k="name:se" v="Njavvoaivvejeaggi" />
		<tag k="natural" v="wetland" />
		<tag k="ssr:stedsnr" v="211721" />
	</node>
	<node id="-909260" lat="69.460394451" lon="25.6879441405">
		<tag k="name" v="Behta-Niillasjeaggi" />
		<tag k="name:se" v="Behta-Niillasjeaggi" />
		<tag k="natural" v="wetland" />
		<tag k="ssr:stedsnr" v="696975" />
	</node>
	<node id="-909259" lat="69.4256388999" lon="25.6390385742">
		<tag k="alt_name:se" v="Stávrunjeaggi" />
		<tag k="name" v="Kirst-Iŋggájeaggi" />
		<tag k="name:se" v="Kirst-Iŋggájeaggi" />
		<tag k="natural" v="wetland" />
		<tag k="ssr:stedsnr" v="696832" />
	</node>
	<node id="-910839" lat="69.4486472349" lon="25.2551191982">
		<tag k="name" v="Bálovuovdi" />
		<tag k="name:se" v="Bálovuovdi" />
		<tag k="place" v="locality" />
		<tag k="ssr:stedsnr" v="817588" />
	</node>
	<node id="-908743" lat="69.4477944574" lon="25.5959274676">
		<tag k="landuse" v="meadow" />
		<tag k="name" v="Jovnna-Pierstavraniitu" />
		<tag k="name:se" v="Jovnna-Pierstavraniitu" />
		<tag k="ssr:stedsnr" v="210124" />
	</node>
	<node id="-910786" lat="69.5075694534" lon="24.8901609053">
		<tag k="name" v="Sáđejeaggi" />
		<tag k="name:se" v="Sáđejeaggi" />
		<tag k="natural" v="wetland" />
		<tag k="old_name:se" v="Sađejæggi" />
		<tag k="ssr:stedsnr" v="807346" />
	</node>
	<node id="-909243" lat="69.6716333461" lon="25.8670163343">
		<tag k="name" v="Ántojeaggi" />
		<tag k="name:se" v="Ántojeaggi" />
		<tag k="natural" v="wetland" />
		<tag k="ssr:stedsnr" v="696546" />
	</node>
	<node id="-909241" lat="69.5795639004" lon="25.7895774507">
		<tag k="name" v="Gádja-Pierjeaggi" />
		<tag k="name:se" v="Gádja-Pierjeaggi" />
		<tag k="natural" v="wetland" />
		<tag k="ssr:stedsnr" v="696538" />
	</node>
	<node id="-910263" lat="68.8974750098" lon="25.5127191148">
		<tag k="name" v="Vuoddassavvonjeaggi" />
		<tag k="name:se" v="Vuoddassavvonjeaggi" />
		<tag k="natural" v="wetland" />
		<tag k="old_name:se" v="Vuoddassavvunjæggi" />
		<tag k="ssr:stedsnr" v="381703" />
	</node>
	<node id="-910261" lat="68.9323444571" lon="25.3993913578">
		<tag k="name" v="Cáskinbuollán" />
		<tag k="name:se" v="Cáskinbuollán" />
		<tag k="old_name:se" v="Caskinbuollan" />
		<tag k="place" v="locality" />
		<tag k="ssr:stedsnr" v="381659" />
	</node>
	<node id="-908724" lat="69.4304194501" lon="25.2350525221">
		<tag k="name" v="Válborsieđga" />
		<tag k="name:se" v="Válborsieđga" />
		<tag k="place" v="locality" />
		<tag k="ssr:stedsnr" v="149571" />
	</node>
	<node id="-909235" lat="69.411872226" lon="24.7098942378">
		<tag k="name" v="Juvvinjeaggi" />
		<tag k="name:se" v="Juvvinjeaggi" />
		<tag k="natural" v="wetland" />
		<tag k="ssr:stedsnr" v="696478" />
	</node>
	<node id="-908722" lat="69.4287333465" lon="25.7218469094">
		<tag k="name" v="Soffe-Lemetjeaggi" />
		<tag k="name:se" v="Soffe-Lemetjeaggi" />
		<tag k="natural" v="wetland" />
		<tag k="ssr:stedsnr" v="149562" />
	</node>
	<node id="-908721" lat="69.7054722295" lon="25.7956719192">
		<tag k="name" v="Bođusvárjeaggi" />
		<tag k="name:se" v="Bođusvárjeaggi" />
		<tag k="natural" v="wetland" />
		<tag k="ssr:stedsnr" v="149552" />
	</node>
	<node id="-910237" lat="69.5436611198" lon="25.7918496802">
		<tag k="name" v="Geahtaveaiskáiddejeaggi" />
		<tag k="name:se" v="Geahtaveaiskáiddejeaggi" />
		<tag k="natural" v="wetland" />
		<tag k="ssr:stedsnr" v="332537" />
	</node>
	<node id="-908716" lat="69.3845166767" lon="25.1615830818">
		<tag k="name" v="Buollánnjárvuovdi" />
		<tag k="name:se" v="Buollánnjárvuovdi" />
		<tag k="place" v="locality" />
		<tag k="ssr:stedsnr" v="149664" />
	</node>
	<node id="-909227" lat="69.4562361244" lon="25.5045691683">
		<tag k="name" v="Jorbajeakkáš" />
		<tag k="name:se" v="Jorbajeakkáš" />
		<tag k="natural" v="wetland" />
		<tag k="ssr:stedsnr" v="696098" />
	</node>
	<node id="-909226" lat="69.5374111214" lon="25.4227414046">
		<tag k="name" v="Rávdosuotnju" />
		<tag k="name:se" v="Rávdosuotnju" />
		<tag k="natural" v="wetland" />
		<tag k="ssr:stedsnr" v="696091" />
	</node>
	<node id="-910249" lat="69.3725472305" lon="24.2980276154">
		<tag k="name" v="Skuvllalbmágeađgi" />
		<tag k="name:se" v="Skuvllalbmágeađgi" />
		<tag k="natural" v="stone" />
		<tag k="ssr:stedsnr" v="332731" />
	</node>
	<node id="-908712" lat="69.4427972301" lon="25.5318108063">
		<tag k="name" v="Iiddá-Sámmoljeaggi" />
		<tag k="name:se" v="Iiddá-Sámmoljeaggi" />
		<tag k="natural" v="wetland" />
		<tag k="ssr:stedsnr" v="149469" />
	</node>
	<node id="-909321" lat="69.4751694538" lon="25.4623219501">
		<tag k="name" v="Lemet-Máretjeaggi" />
		<tag k="name:se" v="Lemet-Máretjeaggi" />
		<tag k="natural" v="wetland" />
		<tag k="ssr:stedsnr" v="878357" />
	</node>
	<node id="-909732" lat="69.4626305677" lon="25.498933054">
		<tag k="name" v="Gorvvemielli" />
		<tag k="name:se" v="Gorvvemielli" />
		<tag k="place" v="locality" />
		<tag k="ssr:stedsnr" v="28226" />
	</node>
	<node id="-910242" lat="69.3545833369" lon="24.3705915037">
		<tag k="name" v="Pieražiidmáđiijeaggi" />
		<tag k="name:se" v="Pieražiidmáđiijeaggi" />
		<tag k="natural" v="wetland" />
		<tag k="ssr:stedsnr" v="332641" />
	</node>
	<node id="-908705" lat="69.466586121" lon="25.5004247241">
		<tag k="name" v="Bikkašmielli" />
		<tag k="name:se" v="Bikkašmielli" />
		<tag k="place" v="locality" />
		<tag k="ssr:stedsnr" v="149204" />
	</node>
	<node id="-910239" lat="69.4183027923" lon="25.7113024695">
		<tag k="name" v="Suoidneádjatjeaggi" />
		<tag k="name:se" v="Suoidneádjatjeaggi" />
>>>>>>> e1d4bc35ff8a6074a6f2e91616a996b547c36f15
		<tag k="natural" v="wetland" />
		<tag k="old_name:se" v="Kruvnajæggi" />
		<tag k="ssr:stedsnr" v="18790" />
	</node>
<<<<<<< HEAD
	<node lat="69.40678889883466" lon="24.677713694037195" id="-37163">
		<tag k="name" v="Sulájeaggi" />
		<tag k="name:se" v="Sulájeaggi" />
=======
	<node id="-908701" lat="69.4750694541" lon="25.6518052597">
		<tag k="name" v="Greitta-Jonjeaggi" />
		<tag k="name:se" v="Greitta-Jonjeaggi" />
>>>>>>> e1d4bc35ff8a6074a6f2e91616a996b547c36f15
		<tag k="natural" v="wetland" />
		<tag k="old_name:se" v="Sulajæggi;Sulajaeggi" />
		<tag k="ssr:stedsnr" v="19144" />
	</node>
<<<<<<< HEAD
	<node lat="69.38615000624453" lon="24.450152593055083" id="-37175">
		<tag k="name" v="Čearrogeašjeaggi" />
		<tag k="name:se" v="Čearrogeašjeaggi" />
		<tag k="natural" v="wetland" />
		<tag k="ssr:stedsnr" v="28304" />
	</node>
	<node lat="69.49470556409936" lon="25.385980277838733" id="-37176">
		<tag k="name" v="Máhtešjeaggi" />
		<tag k="name:se" v="Máhtešjeaggi" />
=======
	<node id="-908700" lat="69.4703833423" lon="25.6432858079">
		<tag k="name" v="Linddijeaggi" />
		<tag k="name:se" v="Linddijeaggi" />
		<tag k="natural" v="wetland" />
		<tag k="ssr:stedsnr" v="271929" />
	</node>
	<node id="-909211" lat="69.0625694624" lon="25.6918635438">
		<tag k="name" v="Geavgŋávuovdi" />
		<tag k="name:se" v="Geavgŋávuovdi" />
		<tag k="old_name:se" v="Gævgŋavuovdi" />
		<tag k="place" v="locality" />
		<tag k="ssr:stedsnr" v="686842" />
	</node>
	<node id="-908698" lat="69.3996972383" lon="25.8266579885">
		<tag k="name" v="Guhkescuohppu" />
		<tag k="name:se" v="Guhkescuohppu" />
>>>>>>> e1d4bc35ff8a6074a6f2e91616a996b547c36f15
		<tag k="natural" v="wetland" />
		<tag k="ssr:stedsnr" v="28305" />
	</node>
<<<<<<< HEAD
	<node lat="69.44282779012804" lon="25.772008016045913" id="-37189">
		<tag k="name" v="Kátrinjeaggi" />
		<tag k="name:se" v="Kátrinjeaggi" />
=======
	<node id="-908697" lat="69.4345833423" lon="25.722302465">
		<tag k="name" v="Holgajeaggi" />
		<tag k="name:se" v="Holgajeaggi" />
>>>>>>> e1d4bc35ff8a6074a6f2e91616a996b547c36f15
		<tag k="natural" v="wetland" />
		<tag k="ssr:stedsnr" v="28975" />
	</node>
<<<<<<< HEAD
	<node lat="69.45840834735685" lon="25.49089971226227" id="-37216">
		<tag k="name" v="Niittoš" />
		<tag k="name:se" v="Niittoš" />
=======
	<node id="-908695" lat="69.3832500029" lon="24.2713803803">
		<tag k="name" v="Láddelašniitu" />
		<tag k="name:se" v="Láddelašniitu" />
>>>>>>> e1d4bc35ff8a6074a6f2e91616a996b547c36f15
		<tag k="place" v="locality" />
		<tag k="ssr:stedsnr" v="89218" />
	</node>
<<<<<<< HEAD
	<node lat="69.72378889978924" lon="26.02681908776056" id="-37230">
		<tag k="landuse" v="meadow" />
		<tag k="name" v="Sohpparjohgieddi" />
		<tag k="name:se" v="Sohpparjohgieddi" />
		<tag k="ssr:stedsnr" v="90577" />
	</node>
	<node lat="68.94908889901397" lon="25.5810524536325" id="-37233">
		<tag k="name" v="Guorrasvuovdi" />
		<tag k="name:se" v="Guorrasvuovdi" />
		<tag k="old_name:se" v="Guorrasvuov'di" />
=======
	<node id="-909721" lat="69.4393916758" lon="25.5809608007">
		<tag k="name" v="Divrranjeaggi" />
		<tag k="name:se" v="Divrranjeaggi" />
		<tag k="natural" v="wetland" />
		<tag k="ssr:stedsnr" v="28126" />
	</node>
	<node id="-908691" lat="69.4423777882" lon="25.2482525106">
		<tag k="name" v="Giettáš" />
		<tag k="name:se" v="Giettáš" />
>>>>>>> e1d4bc35ff8a6074a6f2e91616a996b547c36f15
		<tag k="place" v="locality" />
		<tag k="ssr:stedsnr" v="138649" />
	</node>
<<<<<<< HEAD
	<node lat="69.46658612095891" lon="25.500424724116495" id="-37257">
		<tag k="name" v="Bikkašmielli" />
		<tag k="name:se" v="Bikkašmielli" />
		<tag k="place" v="locality" />
		<tag k="ssr:stedsnr" v="149204" />
	</node>
	<node lat="69.48926945899662" lon="25.305430290280164" id="-37263">
		<tag k="name" v="Háldevađajeaggi" />
		<tag k="name:se" v="Háldevađajeaggi" />
		<tag k="natural" v="wetland" />
		<tag k="ssr:stedsnr" v="149541" />
	</node>
	<node lat="69.44279723008462" lon="25.53181080627464" id="-37272">
		<tag k="name" v="Iiddá-Sámmoljeaggi" />
		<tag k="name:se" v="Iiddá-Sámmoljeaggi" />
=======
	<node id="-910226" lat="69.6026083449" lon="25.8782163234">
		<tag k="name" v="Eliasládjojeaggi" />
		<tag k="name:se" v="Eliasládjojeaggi" />
		<tag k="natural" v="wetland" />
		<tag k="old_name:se" v="Eliasladjojeaggi" />
		<tag k="ssr:stedsnr" v="331990" />
	</node>
	<node id="-908687" lat="69.4269583443" lon="25.2443747471">
		<tag k="name" v="Áskkádatjeaggi" />
		<tag k="name:se" v="Áskkádatjeaggi" />
>>>>>>> e1d4bc35ff8a6074a6f2e91616a996b547c36f15
		<tag k="natural" v="wetland" />
		<tag k="ssr:stedsnr" v="149469" />
	</node>
<<<<<<< HEAD
	<node lat="69.3845166766656" lon="25.161583081841915" id="-37277">
		<tag k="name" v="Buollánnjárvuovdi" />
		<tag k="name:se" v="Buollánnjárvuovdi" />
=======
	<node id="-909198" lat="69.5674638993" lon="25.2324497521">
		<tag k="name" v="Stohkkemaras" />
		<tag k="name:se" v="Stohkkemaras" />
		<tag k="old_name:se" v="Ståkkemaras" />
>>>>>>> e1d4bc35ff8a6074a6f2e91616a996b547c36f15
		<tag k="place" v="locality" />
		<tag k="ssr:stedsnr" v="149664" />
	</node>
<<<<<<< HEAD
	<node lat="69.72366112533754" lon="26.017688555802508" id="-37285">
		<tag k="landuse" v="meadow" />
		<tag k="name" v="Sohpparjohgeassesadji" />
		<tag k="name:se" v="Sohpparjohgeassesadji" />
		<tag k="ssr:stedsnr" v="150574" />
	</node>
	<node lat="69.49588334486269" lon="25.655410817886896" id="-37306">
		<tag k="name" v="Lemmájeaggi" />
		<tag k="name:se" v="Lemmájeaggi" />
=======
	<node id="-910731" lat="69.4009861261" lon="25.7885496829">
		<tag k="name" v="Máhkarájaggeahči" />
		<tag k="name:se" v="Máhkarájaggeahči" />
>>>>>>> e1d4bc35ff8a6074a6f2e91616a996b547c36f15
		<tag k="natural" v="wetland" />
		<tag k="old_name:se" v="Lemmajæggi" />
		<tag k="ssr:stedsnr" v="261187" />
	</node>
<<<<<<< HEAD
	<node lat="69.10736390198966" lon="25.57377468654728" id="-37338">
		<tag k="name" v="Aškkasjeaggi" />
		<tag k="name:se" v="Aškkasjeaggi" />
=======
	<node id="-908682" lat="69.3853416748" lon="24.2452692836">
		<tag k="name" v="Jávremohkejeaggi" />
		<tag k="name:se" v="Jávremohkejeaggi" />
>>>>>>> e1d4bc35ff8a6074a6f2e91616a996b547c36f15
		<tag k="natural" v="wetland" />
		<tag k="old_name:se" v="Aškasjæggi" />
		<tag k="ssr:stedsnr" v="261814" />
	</node>
<<<<<<< HEAD
	<node lat="69.25560556402084" lon="25.4267385954955" id="-37346">
		<tag k="name" v="Lávžejohjeaggi" />
		<tag k="name:se" v="Lávžejohjeaggi" />
=======
	<node id="-909522" lat="69.4479166739" lon="25.476291371">
		<tag k="name" v="Issát-Sámmoljeaggi" />
		<tag k="name:se" v="Issát-Sámmoljeaggi" />
		<tag k="natural" v="wetland" />
		<tag k="ssr:stedsnr" v="817458" />
	</node>
	<node id="-910727" lat="69.5749083499" lon="25.855630219">
		<tag k="name" v="Skáravađajeaggi" />
		<tag k="name:se" v="Skáravađajeaggi" />
>>>>>>> e1d4bc35ff8a6074a6f2e91616a996b547c36f15
		<tag k="natural" v="wetland" />
		<tag k="old_name:se" v="Lavžejåkjæggi" />
		<tag k="ssr:stedsnr" v="200052" />
	</node>
<<<<<<< HEAD
	<node lat="69.44779445737224" lon="25.59592746759436" id="-37376">
		<tag k="landuse" v="meadow" />
		<tag k="name" v="Jovnna-Pierstavraniitu" />
		<tag k="name:se" v="Jovnna-Pierstavraniitu" />
		<tag k="ssr:stedsnr" v="210124" />
	</node>
	<node lat="69.441741679422" lon="25.613252474389554" id="-37390">
		<tag k="name" v="Vieksajeaggi" />
		<tag k="name:se" v="Vieksajeaggi" />
=======
	<node id="-909702" lat="69.4067888988" lon="24.677713694">
		<tag k="name" v="Sulájeaggi" />
		<tag k="name:se" v="Sulájeaggi" />
>>>>>>> e1d4bc35ff8a6074a6f2e91616a996b547c36f15
		<tag k="natural" v="wetland" />
		<tag k="ssr:stedsnr" v="211806" />
	</node>
<<<<<<< HEAD
	<node lat="69.4765916756302" lon="25.492124717800454" id="-37403">
		<tag k="name" v="Báhpajeaggi" />
		<tag k="name:se" v="Báhpajeaggi" />
=======
	<node id="-910725" lat="69.4690750134" lon="25.5694274937">
		<tag k="name" v="Mávnnosrohtu" />
		<tag k="name:se" v="Mávnnosrohtu" />
>>>>>>> e1d4bc35ff8a6074a6f2e91616a996b547c36f15
		<tag k="natural" v="wetland" />
		<tag k="ssr:stedsnr" v="271356" />
	</node>
<<<<<<< HEAD
	<node lat="69.42832778157982" lon="24.628213692095617" id="-37415">
=======
	<node id="-908674" lat="69.4283277816" lon="24.6282136921">
>>>>>>> e1d4bc35ff8a6074a6f2e91616a996b547c36f15
		<tag k="name" v="Badjelsuhppehatjeaggi" />
		<tag k="name:se" v="Badjelsuhppehatjeaggi" />
		<tag k="natural" v="wetland" />
		<tag k="ssr:stedsnr" v="271543" />
	</node>
<<<<<<< HEAD
	<node lat="69.44237778815221" lon="25.248252510595556" id="-37419">
		<tag k="name" v="Giettáš" />
		<tag k="name:se" v="Giettáš" />
		<tag k="place" v="locality" />
		<tag k="ssr:stedsnr" v="271637" />
	</node>
	<node lat="69.38325000293605" lon="24.27138038026015" id="-37429">
		<tag k="name" v="Láddelašniitu" />
		<tag k="name:se" v="Láddelašniitu" />
		<tag k="place" v="locality" />
		<tag k="ssr:stedsnr" v="271791" />
	</node>
	<node lat="69.27418056397309" lon="25.72598300845234" id="-37439">
		<tag k="name" v="Jeaggerohtu" />
		<tag k="name:se" v="Jeaggerohtu" />
=======
	<node id="-910720" lat="69.3806166686" lon="24.3476609509">
		<tag k="name" v="Fierbmesaijeaggi" />
		<tag k="name:se" v="Fierbmesaijeaggi" />
		<tag k="natural" v="wetland" />
		<tag k="ssr:stedsnr" v="756765" />
	</node>
	<node id="-910719" lat="69.3790805595" lon="24.256699848">
		<tag k="name" v="Ráigegeađgi" />
		<tag k="name:se" v="Ráigegeađgi" />
		<tag k="natural" v="stone" />
		<tag k="ssr:stedsnr" v="756755" />
	</node>
	<node id="-909693" lat="69.1941639009" lon="25.4795691348">
		<tag k="name" v="Kruvnnajeaggi" />
		<tag k="name:se" v="Kruvnnajeaggi" />
		<tag k="natural" v="wetland" />
		<tag k="old_name:se" v="Kruvnajæggi" />
		<tag k="ssr:stedsnr" v="18790" />
	</node>
	<node id="-910202" lat="69.0025139045" lon="25.6941552036">
		<tag k="name" v="Máhtošvuovdi" />
		<tag k="name:se" v="Máhtošvuovdi" />
		<tag k="old_name:se" v="Mattušvuovdi" />
>>>>>>> e1d4bc35ff8a6074a6f2e91616a996b547c36f15
		<tag k="place" v="locality" />
		<tag k="ssr:stedsnr" v="453075" />
	</node>
<<<<<<< HEAD
	<node lat="69.4613305646736" lon="25.498741391787856" id="-37444">
		<tag k="name" v="Piera-Jon-Biretmielli" />
		<tag k="name:se" v="Piera-Jon-Biretmielli" />
=======
	<node id="-910713" lat="69.6609638986" lon="25.8907274561">
		<tag k="name" v="Njivlegieddi" />
		<tag k="name:se" v="Njivlegieddi" />
>>>>>>> e1d4bc35ff8a6074a6f2e91616a996b547c36f15
		<tag k="place" v="locality" />
		<tag k="ssr:stedsnr" v="453236" />
	</node>
<<<<<<< HEAD
	<node lat="69.42411668327159" lon="25.763366334127358" id="-37454">
		<tag k="name" v="Badjelsuhppehatjeaggi" />
		<tag k="name:se" v="Badjelsuhppehatjeaggi" />
=======
	<node id="-910712" lat="69.6396666837" lon="25.8728857755">
		<tag k="name" v="Gálssotjohjeaggi" />
		<tag k="name:se" v="Gálssotjohjeaggi" />
>>>>>>> e1d4bc35ff8a6074a6f2e91616a996b547c36f15
		<tag k="natural" v="wetland" />
		<tag k="ssr:stedsnr" v="453579" />
	</node>
<<<<<<< HEAD
	<node lat="69.35557500905146" lon="24.487891497821245" id="-37459">
		<tag k="name" v="Ástejeakkit" />
		<tag k="name:se" v="Ástejeakkit" />
=======
	<node id="-910198" lat="69.565805563" lon="25.3377136292">
		<tag k="name" v="Sieiddejohjeaggi" />
		<tag k="name:se" v="Sieiddejohjeaggi" />
>>>>>>> e1d4bc35ff8a6074a6f2e91616a996b547c36f15
		<tag k="natural" v="wetland" />
		<tag k="ssr:stedsnr" v="453752" />
	</node>
<<<<<<< HEAD
	<node lat="69.44086390048459" lon="25.186249745664085" id="-37461">
		<tag k="name" v="Allagieddi" />
		<tag k="name:se" v="Allagieddi" />
		<tag k="place" v="locality" />
		<tag k="ssr:stedsnr" v="453644" />
	</node>
	<node lat="69.44590278214662" lon="25.04957755184962" id="-37463">
		<tag k="name" v="Njáhkávuovdi" />
		<tag k="name:se" v="Njáhkávuovdi" />
		<tag k="place" v="locality" />
		<tag k="ssr:stedsnr" v="453659" />
	</node>
	<node lat="69.4266389004953" lon="25.610730259943438" id="-37467">
		<tag k="name" v="Lemet-Jonjeaggi" />
		<tag k="name:se" v="Lemet-Jonjeaggi" />
		<tag k="natural" v="wetland" />
		<tag k="ssr:stedsnr" v="453839" />
	</node>
	<node lat="69.4953416785077" lon="25.55072471663826" id="-37470">
		<tag k="name" v="Vuohčujeaggi" />
		<tag k="name:se" v="Vuohčujeaggi" />
		<tag k="natural" v="wetland" />
		<tag k="ssr:stedsnr" v="453931" />
	</node>
	<node lat="69.73653612260144" lon="26.121860741157835" id="-37473">
		<tag k="name" v="Jávrebaisáddot" />
		<tag k="name:se" v="Jávrebaisáddot" />
		<tag k="natural" v="beach" />
		<tag k="old_name:se" v="Javrebaisaddot" />
		<tag k="ssr:stedsnr" v="453940" />
		<tag k="surface" v="sand" />
	</node>
	<node lat="69.38533056587919" lon="25.81773854186777" id="-37475">
		<tag k="name" v="Rivotjeaggi" />
		<tag k="name:se" v="Rivotjeaggi" />
=======
	<node id="-909545" lat="69.4365250135" lon="25.5571247177">
		<tag k="name" v="Skuvllaolbmájeaggi" />
		<tag k="name:se" v="Skuvllaolbmájeaggi" />
		<tag k="natural" v="wetland" />
		<tag k="ssr:stedsnr" v="939127" />
	</node>
	<node id="-908660" lat="69.4562750083" lon="25.4878274867">
		<tag k="name" v="Badjejeaggi" />
		<tag k="name:se" v="Badjejeaggi" />
		<tag k="natural" v="wetland" />
		<tag k="ssr:stedsnr" v="271230" />
	</node>
	<node id="-910707" lat="69.4345416775" lon="25.2822886429">
		<tag k="name" v="Biipogeađgi" />
		<tag k="name:se" v="Biipogeađgi" />
		<tag k="natural" v="stone" />
		<tag k="ssr:stedsnr" v="756595" />
	</node>
	<node id="-909715" lat="69.0656555734" lon="25.6520552228">
		<tag k="name" v="Čuolggojeaggi" />
		<tag k="name:se" v="Čuolggojeaggi" />
		<tag k="natural" v="wetland" />
		<tag k="old_name:se" v="Čuolgujæggi" />
		<tag k="ssr:stedsnr" v="19854" />
	</node>
	<node id="-909544" lat="69.4492500071" lon="25.5902080387">
		<tag k="landuse" v="meadow" />
		<tag k="name" v="Uhca-Pier-Lemetniitu" />
		<tag k="name:se" v="Uhca-Pier-Lemetniitu" />
		<tag k="ssr:stedsnr" v="939121" />
	</node>
	<node id="-909677" lat="69.5959388975" lon="25.7856524491">
		<tag k="name" v="Suolobeasjeaggi" />
		<tag k="name:se" v="Suolobeasjeaggi" />
		<tag k="natural" v="wetland" />
		<tag k="old_name:se" v="Suolubæsjæggi" />
		<tag k="ssr:stedsnr" v="18366" />
	</node>
	<node id="-909674" lat="69.6595472326" lon="25.301030314">
		<tag k="name" v="Idjajárvuovdi" />
		<tag k="name:se" v="Idjajárvuovdi" />
		<tag k="old_name:se" v="Iddjajarvuovdi;Idjajarvuovdi" />
		<tag k="place" v="locality" />
		<tag k="ssr:stedsnr" v="18333" />
	</node>
	<node id="-910693" lat="69.4317777889" lon="24.563491478">
		<tag k="name" v="Duottargeašjeaggi" />
		<tag k="name:se" v="Duottargeašjeaggi" />
>>>>>>> e1d4bc35ff8a6074a6f2e91616a996b547c36f15
		<tag k="natural" v="wetland" />
		<tag k="ssr:stedsnr" v="453956" />
	</node>
<<<<<<< HEAD
	<node lat="69.65471945734305" lon="25.913260789475423" id="-37497">
		<tag k="name" v="Áilegieddi" />
		<tag k="name:se" v="Áilegieddi" />
		<tag k="old_name:se" v="Ailegieddi" />
=======
	<node id="-910692" lat="69.4470777897" lon="25.4877497213">
		<tag k="name" v="Niittošvuovdi" />
		<tag k="name:se" v="Niittošvuovdi" />
>>>>>>> e1d4bc35ff8a6074a6f2e91616a996b547c36f15
		<tag k="place" v="locality" />
		<tag k="ssr:stedsnr" v="261499" />
	</node>
<<<<<<< HEAD
	<node lat="69.45627500827074" lon="25.487827486719134" id="-37506">
		<tag k="name" v="Badjejeaggi" />
		<tag k="name:se" v="Badjejeaggi" />
		<tag k="natural" v="wetland" />
		<tag k="ssr:stedsnr" v="271230" />
	</node>
	<node lat="69.42695834429699" lon="25.244374747120137" id="-37511">
		<tag k="name" v="Áskkádatjeaggi" />
		<tag k="name:se" v="Áskkádatjeaggi" />
=======
	<node id="-909152" lat="69.4890055708" lon="25.5404052654">
		<tag k="name" v="Guohcajeaggi" />
		<tag k="name:se" v="Guohcajeaggi" />
>>>>>>> e1d4bc35ff8a6074a6f2e91616a996b547c36f15
		<tag k="natural" v="wetland" />
		<tag k="ssr:stedsnr" v="271625" />
	</node>
	<node lat="69.36349167101464" lon="24.332155398860888" id="-37516">
		<tag k="name" v="Geađgevárjeakkit" />
		<tag k="name:se" v="Geađgevárjeakkit" />
		<tag k="natural" v="wetland" />
		<tag k="ssr:stedsnr" v="271707" />
	</node>
	<node lat="69.38534167482302" lon="24.24526928356258" id="-37519">
		<tag k="name" v="Jávremohkejeaggi" />
		<tag k="name:se" v="Jávremohkejeaggi" />
		<tag k="natural" v="wetland" />
		<tag k="ssr:stedsnr" v="271725" />
	</node>
	<node lat="69.39969723832992" lon="25.826657988456518" id="-37523">
		<tag k="name" v="Guhkescuohppu" />
		<tag k="name:se" v="Guhkescuohppu" />
		<tag k="natural" v="wetland" />
		<tag k="ssr:stedsnr" v="271973" />
	</node>
	<node lat="69.47038334232316" lon="25.643285807908946" id="-37525">
		<tag k="name" v="Linddijeaggi" />
		<tag k="name:se" v="Linddijeaggi" />
		<tag k="natural" v="wetland" />
		<tag k="ssr:stedsnr" v="271929" />
	</node>
	<node lat="69.47506945405206" lon="25.65180525969682" id="-37526">
		<tag k="name" v="Greitta-Jonjeaggi" />
		<tag k="name:se" v="Greitta-Jonjeaggi" />
		<tag k="natural" v="wetland" />
		<tag k="ssr:stedsnr" v="271931" />
	</node>
<<<<<<< HEAD
	<node lat="68.97983612335105" lon="25.381219145945543" id="-37533">
=======
	<node id="-909285" lat="69.4407555688" lon="25.6492858026">
		<tag k="name" v="Jeambealesjeaggi" />
		<tag k="name:se" v="Jeambealesjeaggi" />
		<tag k="natural" v="wetland" />
		<tag k="ssr:stedsnr" v="574884" />
	</node>
	<node id="-910172" lat="68.9798361234" lon="25.3812191459">
>>>>>>> e1d4bc35ff8a6074a6f2e91616a996b547c36f15
		<tag k="name" v="Cáskinjeaggi" />
		<tag k="name:se" v="Cáskinjeaggi" />
		<tag k="natural" v="wetland" />
		<tag k="old_name:se" v="Caskinjæggi" />
		<tag k="ssr:stedsnr" v="321611" />
	</node>
<<<<<<< HEAD
	<node lat="69.61590833937306" lon="24.897699781393577" id="-37534">
=======
	<node id="-909147" lat="69.4113777918" lon="25.6448607988">
		<tag k="name" v="Siffarjohgeašjeakkit" />
		<tag k="name:se" v="Siffarjohgeašjeakkit" />
		<tag k="natural" v="wetland" />
		<tag k="ssr:stedsnr" v="514913" />
	</node>
	<node id="-908634" lat="69.107363902" lon="25.5737746865">
		<tag k="name" v="Aškkasjeaggi" />
		<tag k="name:se" v="Aškkasjeaggi" />
		<tag k="natural" v="wetland" />
		<tag k="old_name:se" v="Aškasjæggi" />
		<tag k="ssr:stedsnr" v="261814" />
	</node>
	<node id="-910223" lat="69.6894777921" lon="25.9389385485">
		<tag k="name" v="Suolosáttu" />
		<tag k="name:se" v="Suolosáttu" />
		<tag k="natural" v="beach" />
		<tag k="old_name:se" v="Suolosattu" />
		<tag k="ssr:stedsnr" v="331980" />
		<tag k="surface" v="sand" />
	</node>
	<node id="-910165" lat="69.6159083394" lon="24.8976997814">
>>>>>>> e1d4bc35ff8a6074a6f2e91616a996b547c36f15
		<tag k="name" v="Fáhttevárleakšá" />
		<tag k="name:se" v="Fáhttevárleakšá" />
		<tag k="natural" v="wetland" />
		<tag k="old_name:se" v="Fattevarlækša" />
		<tag k="ssr:stedsnr" v="321335" />
	</node>
<<<<<<< HEAD
	<node lat="69.44486668031392" lon="25.590038588140313" id="-37546">
		<tag k="landuse" v="meadow" />
		<tag k="name" v="Issát-Lemetniitu" />
		<tag k="name:se" v="Issát-Lemetniitu" />
		<tag k="ssr:stedsnr" v="332108" />
	</node>
	<node lat="69.39760556815571" lon="25.827177429750204" id="-37553">
		<tag k="name" v="Vuopmi" />
		<tag k="name:se" v="Vuopmi" />
=======
	<node id="-909349" lat="69.3556833407" lon="24.2923415042">
		<tag k="name" v="Pierašjeakkit" />
		<tag k="name:se" v="Pierašjeakkit" />
		<tag k="natural" v="wetland" />
		<tag k="ssr:stedsnr" v="878673" />
	</node>
	<node id="-908625" lat="69.6547194573" lon="25.9132607895">
		<tag k="name" v="Áilegieddi" />
		<tag k="name:se" v="Áilegieddi" />
		<tag k="old_name:se" v="Ailegieddi" />
>>>>>>> e1d4bc35ff8a6074a6f2e91616a996b547c36f15
		<tag k="place" v="locality" />
		<tag k="ssr:stedsnr" v="271953" />
	</node>
<<<<<<< HEAD
	<node lat="69.41830279230768" lon="25.711302469474482" id="-37557">
		<tag k="name" v="Suoidneádjatjeaggi" />
		<tag k="name:se" v="Suoidneádjatjeaggi" />
		<tag k="natural" v="wetland" />
		<tag k="ssr:stedsnr" v="332547" />
	</node>
	<node lat="69.43458334230681" lon="25.722302465027244" id="-37566">
		<tag k="name" v="Holgajeaggi" />
		<tag k="name:se" v="Holgajeaggi" />
=======
	<node id="-909879" lat="69.5714583486" lon="25.7966246879">
		<tag k="name" v="Máđiijeaggi" />
		<tag k="name:se" v="Máđiijeaggi" />
		<tag k="natural" v="wetland" />
		<tag k="ssr:stedsnr" v="89540" />
	</node>
	<node id="-909632" lat="69.1991694583" lon="25.4216636089">
		<tag k="name" v="Mássuorpmejeaggi" />
		<tag k="name:se" v="Mássuorpmejeaggi" />
>>>>>>> e1d4bc35ff8a6074a6f2e91616a996b547c36f15
		<tag k="natural" v="wetland" />
		<tag k="ssr:stedsnr" v="271962" />
	</node>
<<<<<<< HEAD
	<node lat="68.89747500980629" lon="25.512719114756457" id="-37567">
		<tag k="name" v="Vuoddassavvonjeaggi" />
		<tag k="name:se" v="Vuoddassavvonjeaggi" />
		<tag k="natural" v="wetland" />
		<tag k="old_name:se" v="Vuoddassavvunjæggi" />
		<tag k="ssr:stedsnr" v="381703" />
	</node>
	<node lat="68.93234445705448" lon="25.39939135784151" id="-37569">
		<tag k="name" v="Cáskinbuollán" />
		<tag k="name:se" v="Cáskinbuollán" />
		<tag k="old_name:se" v="Caskinbuollan" />
=======
	<node id="-910140" lat="69.3579555633" lon="24.3966303876">
		<tag k="name" v="Áitevársuohkadas" />
		<tag k="name:se" v="Áitevársuohkadas" />
>>>>>>> e1d4bc35ff8a6074a6f2e91616a996b547c36f15
		<tag k="place" v="locality" />
		<tag k="ssr:stedsnr" v="381659" />
	</node>
<<<<<<< HEAD
	<node lat="69.45874723002181" lon="25.526749699906365" id="-37590">
		<tag k="name" v="Laŧevuovdi" />
		<tag k="name:se" v="Laŧevuovdi" />
		<tag k="place" v="locality" />
		<tag k="ssr:stedsnr" v="392084" />
	</node>
	<node lat="69.48777223127891" lon="25.377844165275285" id="-37592">
		<tag k="name" v="Jensiinnásuoidnesadji" />
		<tag k="name:se" v="Jensiinnásuoidnesadji" />
		<tag k="place" v="locality" />
		<tag k="ssr:stedsnr" v="392310" />
	</node>
	<node lat="69.35552778207796" lon="24.27550261351144" id="-37610">
		<tag k="name" v="Gaskabeaijeakkit" />
		<tag k="name:se" v="Gaskabeaijeakkit" />
=======
	<node id="-910134" lat="69.3502000035" lon="24.6796220253">
		<tag k="name" v="Várregasjeakkit" />
		<tag k="name:se" v="Várregasjeakkit" />
>>>>>>> e1d4bc35ff8a6074a6f2e91616a996b547c36f15
		<tag k="natural" v="wetland" />
		<tag k="ssr:stedsnr" v="392701" />
	</node>
<<<<<<< HEAD
	<node lat="69.45560278963227" lon="25.68319690296079" id="-37612">
		<tag k="name" v="Greit-Ánddeládju" />
		<tag k="name:se" v="Greit-Ánddeládju" />
=======
	<node id="-908592" lat="69.4958833449" lon="25.6554108179">
		<tag k="name" v="Lemmájeaggi" />
		<tag k="name:se" v="Lemmájeaggi" />
>>>>>>> e1d4bc35ff8a6074a6f2e91616a996b547c36f15
		<tag k="natural" v="wetland" />
		<tag k="ssr:stedsnr" v="392837" />
	</node>
<<<<<<< HEAD
	<node lat="69.48334445082028" lon="25.326246961283655" id="-37658">
		<tag k="name" v="Morotaijeaggi" />
		<tag k="name:se" v="Morotaijeaggi" />
=======
	<node id="-910127" lat="69.4558889021" lon="25.7494191291">
		<tag k="name" v="Itkkojogašjeaggi" />
		<tag k="name:se" v="Itkkojogašjeaggi" />
>>>>>>> e1d4bc35ff8a6074a6f2e91616a996b547c36f15
		<tag k="natural" v="wetland" />
		<tag k="ssr:stedsnr" v="453562" />
	</node>
<<<<<<< HEAD
	<node lat="69.34473612112055" lon="25.61833579587143" id="-37666">
		<tag k="name" v="Gámehisjeakkit" />
		<tag k="name:se" v="Gámehisjeakkit" />
=======
	<node id="-909101" lat="69.3905583439" lon="24.8256553432">
		<tag k="name" v="Poastajeaggi" />
		<tag k="name:se" v="Poastajeaggi" />
>>>>>>> e1d4bc35ff8a6074a6f2e91616a996b547c36f15
		<tag k="natural" v="wetland" />
		<tag k="old_name:se" v="Gamehisjæggit" />
		<tag k="ssr:stedsnr" v="503004" />
	</node>
<<<<<<< HEAD
	<node lat="69.4746611213264" lon="25.71433022716787" id="-37701">
		<tag k="name" v="Gievdnejohgeahči" />
		<tag k="name:se" v="Gievdnejohgeahči" />
		<tag k="natural" v="wetland" />
		<tag k="ssr:stedsnr" v="514598" />
	</node>
	<node lat="69.41137779175092" lon="25.64486079881543" id="-37705">
		<tag k="name" v="Siffarjohgeašjeakkit" />
		<tag k="name:se" v="Siffarjohgeašjeakkit" />
=======
	<node id="-909100" lat="69.7365361226" lon="26.1218607412">
		<tag k="name" v="Jávrebaisáddot" />
		<tag k="name:se" v="Jávrebaisáddot" />
		<tag k="natural" v="beach" />
		<tag k="old_name:se" v="Javrebaisaddot" />
		<tag k="ssr:stedsnr" v="453940" />
		<tag k="surface" v="sand" />
	</node>
	<node id="-909097" lat="69.4953416785" lon="25.5507247166">
		<tag k="name" v="Vuohčujeaggi" />
		<tag k="name:se" v="Vuohčujeaggi" />
>>>>>>> e1d4bc35ff8a6074a6f2e91616a996b547c36f15
		<tag k="natural" v="wetland" />
		<tag k="ssr:stedsnr" v="514913" />
	</node>
<<<<<<< HEAD
	<node lat="69.48900557084811" lon="25.540405265430458" id="-37710">
		<tag k="name" v="Guohcajeaggi" />
		<tag k="name:se" v="Guohcajeaggi" />
		<tag k="natural" v="wetland" />
		<tag k="ssr:stedsnr" v="514930" />
	</node>
	<node lat="69.56746389934806" lon="25.232449752116185" id="-37763">
		<tag k="name" v="Stohkkemaras" />
		<tag k="name:se" v="Stohkkemaras" />
		<tag k="old_name:se" v="Ståkkemaras" />
=======
	<node id="-910119" lat="69.3759111228" lon="25.1840053059">
		<tag k="name" v="Goržžejohvuovdi" />
		<tag k="name:se" v="Goržžejohvuovdi" />
>>>>>>> e1d4bc35ff8a6074a6f2e91616a996b547c36f15
		<tag k="place" v="locality" />
		<tag k="ssr:stedsnr" v="686476" />
	</node>
<<<<<<< HEAD
	<node lat="69.44906667900537" lon="25.503421938009467" id="-37795">
		<tag k="name" v="Lemet-Jon-Jovnnaniitu" />
		<tag k="name:se" v="Lemet-Jon-Jovnnaniitu" />
		<tag k="place" v="locality" />
		<tag k="ssr:stedsnr" v="574502" />
	</node>
	<node lat="69.4537388992525" lon="25.50113026724303" id="-37797">
		<tag k="name" v="Stužajeaggi" />
		<tag k="name:se" v="Stužajeaggi" />
=======
	<node id="-909518" lat="69.4566944511" lon="25.4838052812">
		<tag k="name" v="Cuoppojeaggi" />
		<tag k="name:se" v="Cuoppojeaggi" />
		<tag k="natural" v="wetland" />
		<tag k="ssr:stedsnr" v="817213" />
	</node>
	<node id="-910626" lat="69.385650013" lon="25.083858092">
		<tag k="name" v="Stávrájeaggi" />
		<tag k="name:se" v="Stávrájeaggi" />
>>>>>>> e1d4bc35ff8a6074a6f2e91616a996b547c36f15
		<tag k="natural" v="wetland" />
		<tag k="ssr:stedsnr" v="574504" />
	</node>
<<<<<<< HEAD
	<node lat="69.42691111805401" lon="25.290994176937502" id="-37800">
		<tag k="name" v="Ina-Hánssa-láttu" />
		<tag k="name:se" v="Ina-Hánssa-láttu" />
		<tag k="place" v="locality" />
		<tag k="ssr:stedsnr" v="574603" />
	</node>
	<node lat="69.44342778905623" lon="25.600246911872308" id="-37802">
		<tag k="name" v="Jovnn-Ommotjeaggi" />
		<tag k="name:se" v="Jovnn-Ommotjeaggi" />
=======
	<node id="-909275" lat="69.4537388993" lon="25.5011302672">
		<tag k="name" v="Stužajeaggi" />
		<tag k="name:se" v="Stužajeaggi" />
		<tag k="natural" v="wetland" />
		<tag k="ssr:stedsnr" v="574504" />
	</node>
	<node id="-910111" lat="69.4457000125" lon="25.8128468885">
		<tag k="name" v="Iccemihásjeaggi" />
		<tag k="name:se" v="Iccemihásjeaggi" />
>>>>>>> e1d4bc35ff8a6074a6f2e91616a996b547c36f15
		<tag k="natural" v="wetland" />
		<tag k="ssr:stedsnr" v="574852" />
	</node>
<<<<<<< HEAD
	<node lat="69.53741112141603" lon="25.422741404566356" id="-37818">
		<tag k="name" v="Rávdosuotnju" />
		<tag k="name:se" v="Rávdosuotnju" />
=======
	<node id="-909597" lat="69.4878166796" lon="25.5653441524">
		<tag k="name" v="Ruovdejeaggi" />
		<tag k="name:se" v="Ruovdejeaggi" />
>>>>>>> e1d4bc35ff8a6074a6f2e91616a996b547c36f15
		<tag k="natural" v="wetland" />
		<tag k="ssr:stedsnr" v="696091" />
	</node>
<<<<<<< HEAD
	<node lat="69.45623612439881" lon="25.504569168311065" id="-37819">
		<tag k="name" v="Jorbajeakkáš" />
		<tag k="name:se" v="Jorbajeakkáš" />
		<tag k="natural" v="wetland" />
		<tag k="ssr:stedsnr" v="696098" />
	</node>
	<node lat="69.57956390042821" lon="25.789577450686917" id="-37827">
		<tag k="name" v="Gádja-Pierjeaggi" />
		<tag k="name:se" v="Gádja-Pierjeaggi" />
=======
	<node id="-909082" lat="69.4613305647" lon="25.4987413918">
		<tag k="name" v="Piera-Jon-Biretmielli" />
		<tag k="name:se" v="Piera-Jon-Biretmielli" />
		<tag k="place" v="locality" />
		<tag k="ssr:stedsnr" v="453236" />
	</node>
	<node id="-909592" lat="69.4114500124" lon="25.595674691">
		<tag k="name" v="Dilljaskáiddejeaggi" />
		<tag k="name:se" v="Dilljaskáiddejeaggi" />
>>>>>>> e1d4bc35ff8a6074a6f2e91616a996b547c36f15
		<tag k="natural" v="wetland" />
		<tag k="ssr:stedsnr" v="696538" />
	</node>
<<<<<<< HEAD
	<node lat="69.67163334607667" lon="25.867016334346097" id="-37829">
		<tag k="name" v="Ántojeaggi" />
		<tag k="name:se" v="Ántojeaggi" />
		<tag k="natural" v="wetland" />
		<tag k="ssr:stedsnr" v="696546" />
	</node>
	<node lat="69.3877777865467" lon="25.146208088116122" id="-37844">
		<tag k="name" v="Gálarohtu" />
		<tag k="name:se" v="Gálarohtu" />
		<tag k="place" v="locality" />
		<tag k="ssr:stedsnr" v="696659" />
	</node>
	<node lat="69.38664445830459" lon="25.141944194178716" id="-37845">
		<tag k="name" v="Gálagieddi" />
		<tag k="name:se" v="Gálagieddi" />
=======
	<node id="-908564" lat="69.4584083474" lon="25.4908997123">
		<tag k="name" v="Niittoš" />
		<tag k="name:se" v="Niittoš" />
		<tag k="place" v="locality" />
		<tag k="ssr:stedsnr" v="89218" />
	</node>
	<node id="-910099" lat="69.4604027855" lon="25.4828747009">
		<tag k="name" v="Vullošgeađgi" />
		<tag k="name:se" v="Vullošgeađgi" />
		<tag k="natural" v="stone" />
		<tag k="ssr:stedsnr" v="206377" />
	</node>
	<node id="-909582" lat="69.3454750127" lon="25.0506303231">
		<tag k="name" v="Geaidnojogašvuovdi" />
		<tag k="name:se" v="Geaidnojogašvuovdi" />
>>>>>>> e1d4bc35ff8a6074a6f2e91616a996b547c36f15
		<tag k="place" v="locality" />
		<tag k="ssr:stedsnr" v="696660" />
	</node>
<<<<<<< HEAD
	<node lat="69.42563889988942" lon="25.639038574242445" id="-37852">
		<tag k="alt_name:se" v="Stávrunjeaggi" />
		<tag k="name" v="Kirst-Iŋggájeaggi" />
		<tag k="name:se" v="Kirst-Iŋggájeaggi" />
=======
	<node id="-910605" lat="69.3594138926" lon="24.4934331635">
		<tag k="name" v="Sofe-Jonádjájeaggi" />
		<tag k="name:se" v="Sofe-Jonádjájeaggi" />
>>>>>>> e1d4bc35ff8a6074a6f2e91616a996b547c36f15
		<tag k="natural" v="wetland" />
		<tag k="ssr:stedsnr" v="696832" />
	</node>
<<<<<<< HEAD
	<node lat="69.71708890265683" lon="25.982966330145345" id="-37855">
		<tag k="name" v="Vuolitsuolosáddot" />
		<tag k="name:se" v="Vuolitsuolosáddot" />
		<tag k="natural" v="beach" />
		<tag k="ssr:stedsnr" v="697567" />
		<tag k="surface" v="sand" />
	</node>
	<node lat="69.10856390400926" lon="25.657019111172488" id="-37872">
		<tag k="name" v="Ruvvašjeaggi" />
		<tag k="name:se" v="Ruvvašjeaggi" />
=======
	<node id="-909698" lat="69.1245027872" lon="24.8702553159">
		<tag k="name" v="Sáđgejeaggi" />
		<tag k="name:se" v="Sáđgejeaggi" />
		<tag k="natural" v="wetland" />
		<tag k="old_name:se" v="Sađgejæggi" />
		<tag k="ssr:stedsnr" v="18888" />
	</node>
	<node id="-910089" lat="69.0688250132" lon="25.3409024959">
		<tag k="name" v="Galmmatvuovdi" />
		<tag k="name:se" v="Galmmatvuovdi" />
		<tag k="old_name:se" v="Galmatvuovdi" />
		<tag k="place" v="locality" />
		<tag k="ssr:stedsnr" v="201840" />
	</node>
	<node id="-910124" lat="69.3592000092" lon="25.1273164173">
		<tag k="name" v="Gorvvájeakkit" />
		<tag k="name:se" v="Gorvvájeakkit" />
		<tag k="natural" v="wetland" />
		<tag k="ssr:stedsnr" v="210776" />
	</node>
	<node id="-910596" lat="69.4129638995" lon="25.7399080141">
		<tag k="name" v="Bovdnajeaggi" />
		<tag k="name:se" v="Bovdnajeaggi" />
>>>>>>> e1d4bc35ff8a6074a6f2e91616a996b547c36f15
		<tag k="natural" v="wetland" />
		<tag k="old_name:se" v="Ruvvašjæggi" />
		<tag k="ssr:stedsnr" v="625853" />
	</node>
<<<<<<< HEAD
	<node lat="69.48369167791967" lon="25.409494163498916" id="-37880">
		<tag k="name" v="Jenssaidsuoidnesadji" />
		<tag k="name:se" v="Jenssaidsuoidnesadji" />
		<tag k="place" v="locality" />
		<tag k="ssr:stedsnr" v="635276" />
	</node>
	<node lat="69.39597778399407" lon="25.176594201953733" id="-37884">
=======
	<node id="-909570" lat="69.4325861209" lon="25.3093302983">
		<tag k="name" v="Suhppehatjeaggi" />
		<tag k="name:se" v="Suhppehatjeaggi" />
		<tag k="natural" v="wetland" />
		<tag k="ssr:stedsnr" v="939571" />
	</node>
	<node id="-910592" lat="69.395977784" lon="25.176594202">
>>>>>>> e1d4bc35ff8a6074a6f2e91616a996b547c36f15
		<tag k="name" v="Áhpemohkevuovdi" />
		<tag k="name:se" v="Áhpemohkevuovdi" />
		<tag k="place" v="locality" />
		<tag k="ssr:stedsnr" v="635627" />
	</node>
<<<<<<< HEAD
	<node lat="69.35941389262783" lon="24.493433163524806" id="-37889">
		<tag k="name" v="Sofe-Jonádjájeaggi" />
		<tag k="name:se" v="Sofe-Jonádjájeaggi" />
=======
	<node id="-909055" lat="69.4746611213" lon="25.7143302272">
		<tag k="name" v="Gievdnejohgeahči" />
		<tag k="name:se" v="Gievdnejohgeahči" />
>>>>>>> e1d4bc35ff8a6074a6f2e91616a996b547c36f15
		<tag k="natural" v="wetland" />
		<tag k="ssr:stedsnr" v="635705" />
	</node>
<<<<<<< HEAD
	<node lat="69.06256946237885" lon="25.69186354382901" id="-37912">
		<tag k="name" v="Geavgŋávuovdi" />
		<tag k="name:se" v="Geavgŋávuovdi" />
		<tag k="old_name:se" v="Gævgŋavuovdi" />
		<tag k="place" v="locality" />
		<tag k="ssr:stedsnr" v="686842" />
	</node>
	<node lat="69.41187222603762" lon="24.709894237752476" id="-37919">
		<tag k="name" v="Juvvinjeaggi" />
		<tag k="name:se" v="Juvvinjeaggi" />
=======
	<node id="-908541" lat="69.4947055641" lon="25.3859802778">
		<tag k="name" v="Máhtešjeaggi" />
		<tag k="name:se" v="Máhtešjeaggi" />
		<tag k="natural" v="wetland" />
		<tag k="ssr:stedsnr" v="28305" />
	</node>
	<node id="-908540" lat="69.3861500062" lon="24.4501525931">
		<tag k="name" v="Čearrogeašjeaggi" />
		<tag k="name:se" v="Čearrogeašjeaggi" />
>>>>>>> e1d4bc35ff8a6074a6f2e91616a996b547c36f15
		<tag k="natural" v="wetland" />
		<tag k="ssr:stedsnr" v="696478" />
	</node>
<<<<<<< HEAD
	<node lat="69.4549500114298" lon="25.572577488145857" id="-37933">
		<tag k="name" v="Riidojeaggi" />
		<tag k="name:se" v="Riidojeaggi" />
		<tag k="natural" v="wetland" />
		<tag k="ssr:stedsnr" v="696921" />
	</node>
	<node lat="69.46039445098559" lon="25.687944140483694" id="-37936">
		<tag k="name" v="Behta-Niillasjeaggi" />
		<tag k="name:se" v="Behta-Niillasjeaggi" />
		<tag k="natural" v="wetland" />
		<tag k="ssr:stedsnr" v="696975" />
	</node>
	<node lat="69.46796390247837" lon="25.501255268760268" id="-37958">
		<tag k="name" v="Gádja-Biretmielli" />
		<tag k="name:se" v="Gádja-Biretmielli" />
=======
	<node id="-909562" lat="69.3866750043" lon="24.3988248176">
		<tag k="name" v="Benn-Ánddejeaggi" />
		<tag k="name:se" v="Benn-Ánddejeaggi" />
		<tag k="natural" v="wetland" />
		<tag k="ssr:stedsnr" v="939295" />
	</node>
	<node id="-909049" lat="69.4720305683" lon="25.2971275201">
		<tag k="name" v="Gesojeaggi" />
		<tag k="name:se" v="Gesojeaggi" />
		<tag k="natural" v="wetland" />
		<tag k="ssr:stedsnr" v="514559" />
	</node>
	<node id="-910584" lat="69.4452111228" lon="25.0187803392">
		<tag k="name" v="Njáhkávuovdi" />
		<tag k="name:se" v="Njáhkávuovdi" />
		<tag k="place" v="locality" />
		<tag k="ssr:stedsnr" v="635492" />
	</node>
	<node id="-910582" lat="69.4836916779" lon="25.4094941635">
		<tag k="name" v="Jenssaidsuoidnesadji" />
		<tag k="name:se" v="Jenssaidsuoidnesadji" />
>>>>>>> e1d4bc35ff8a6074a6f2e91616a996b547c36f15
		<tag k="place" v="locality" />
		<tag k="ssr:stedsnr" v="756217" />
	</node>
<<<<<<< HEAD
	<node lat="69.434541677527" lon="25.28228864290073" id="-37967">
		<tag k="name" v="Biipogeađgi" />
		<tag k="name:se" v="Biipogeađgi" />
		<tag k="natural" v="stone" />
		<tag k="ssr:stedsnr" v="756595" />
	</node>
	<node lat="69.3790805595227" lon="24.256699848002448" id="-37969">
		<tag k="name" v="Ráigegeađgi" />
		<tag k="name:se" v="Ráigegeađgi" />
=======
	<node id="-910581" lat="69.4333972304" lon="25.5686802549">
		<tag k="name" v="Skuvlla-Pierládjosadji" />
		<tag k="name:se" v="Skuvlla-Pierládjosadji" />
		<tag k="natural" v="wetland" />
		<tag k="ssr:stedsnr" v="635116" />
	</node>
	<node id="-910579" lat="69.4432555716" lon="25.7993024517">
		<tag k="name" v="Gonagasgeađgi" />
		<tag k="name:se" v="Gonagasgeađgi" />
>>>>>>> e1d4bc35ff8a6074a6f2e91616a996b547c36f15
		<tag k="natural" v="stone" />
		<tag k="ssr:stedsnr" v="756755" />
	</node>
<<<<<<< HEAD
	<node lat="69.50571945102332" lon="25.46541639629566" id="-37976">
		<tag k="name" v="Jussajeaggi" />
		<tag k="name:se" v="Jussajeaggi" />
=======
	<node id="-909554" lat="69.4346500038" lon="25.0174914443">
		<tag k="name" v="Sáđejohnjálmmejeaggi" />
		<tag k="name:se" v="Sáđejohnjálmmejeaggi" />
>>>>>>> e1d4bc35ff8a6074a6f2e91616a996b547c36f15
		<tag k="natural" v="wetland" />
		<tag k="ssr:stedsnr" v="817070" />
	</node>
<<<<<<< HEAD
	<node lat="69.47445834829959" lon="25.786213567553027" id="-37981">
		<tag k="name" v="Hoašširjeaggi" />
		<tag k="name:se" v="Hoašširjeaggi" />
		<tag k="natural" v="wetland" />
		<tag k="ssr:stedsnr" v="817523" />
	</node>
	<node lat="69.44864723485291" lon="25.25511919822658" id="-37985">
		<tag k="name" v="Bálovuovdi" />
		<tag k="name:se" v="Bálovuovdi" />
		<tag k="place" v="locality" />
		<tag k="ssr:stedsnr" v="817588" />
	</node>
	<node lat="69.45957778897974" lon="25.644208019098038" id="-37998">
		<tag k="name" v="Sealgevárjeaggi" />
		<tag k="name:se" v="Sealgevárjeaggi" />
=======
	<node id="-909779" lat="68.9077027882" lon="25.5472274603">
		<tag k="name" v="Basevuovdi" />
		<tag k="name:se" v="Basevuovdi" />
		<tag k="place" v="locality" />
		<tag k="ssr:stedsnr" v="78666" />
	</node>
	<node id="-909552" lat="69.6457111209" lon="25.9494468809">
		<tag k="landuse" v="meadow" />
		<tag k="name" v="Vuovdagieddi" />
		<tag k="name:se" v="Vuovdagieddi" />
		<tag k="ssr:stedsnr" v="938986" />
	</node>
	<node id="-910574" lat="69.2130583424" lon="24.8055858868">
		<tag k="name" v="Gieddevuovdi" />
		<tag k="name:se" v="Gieddevuovdi" />
		<tag k="old_name:se" v="Gied'devuov'di" />
		<tag k="place" v="locality" />
		<tag k="ssr:stedsnr" v="625939" />
	</node>
	<node id="-909341" lat="69.4157333472" lon="25.8053691179">
		<tag k="name" v="Heikorjeaggi" />
		<tag k="name:se" v="Heikorjeaggi" />
		<tag k="natural" v="wetland" />
		<tag k="ssr:stedsnr" v="878630" />
	</node>
	<node id="-910571" lat="69.2279194489" lon="24.8531247761">
		<tag k="name" v="Dápmotvuohčču" />
		<tag k="name:se" v="Dápmotvuohčču" />
>>>>>>> e1d4bc35ff8a6074a6f2e91616a996b547c36f15
		<tag k="natural" v="wetland" />
		<tag k="ssr:stedsnr" v="817989" />
	</node>
<<<<<<< HEAD
	<node lat="69.63898334161362" lon="25.14122477031112" id="-38021">
		<tag k="name" v="Máilevađajeaggi" />
		<tag k="name:se" v="Máilevađajeaggi" />
=======
	<node id="-908522" lat="69.3351944544" lon="25.5369746961">
		<tag k="name" v="Ávžegeašjeaggi" />
		<tag k="name:se" v="Ávžegeašjeaggi" />
>>>>>>> e1d4bc35ff8a6074a6f2e91616a996b547c36f15
		<tag k="natural" v="wetland" />
		<tag k="old_name:se" v="Mailevađajæggi;Máilevađđajeaggi" />
		<tag k="ssr:stedsnr" v="928283" />
	</node>
<<<<<<< HEAD
	<node lat="69.34832500535845" lon="24.591616468134905" id="-38050">
		<tag k="name" v="Ávjovárjeaggi" />
		<tag k="name:se" v="Ávjovárjeaggi" />
		<tag k="natural" v="wetland" />
		<tag k="old_name:se" v="Avjuvarjæggi" />
		<tag k="ssr:stedsnr" v="929284" />
	</node>
	<node lat="69.1991694583096" lon="25.421663608866965" id="-38062">
		<tag k="name" v="Mássuorpmejeaggi" />
		<tag k="name:se" v="Mássuorpmejeaggi" />
		<tag k="natural" v="wetland" />
		<tag k="old_name:se" v="Massuorbmejæggi" />
		<tag k="ssr:stedsnr" v="929822" />
	</node>
	<node lat="69.10604445523002" lon="25.483338580114697" id="-38063">
		<tag k="name" v="Máretvuovdi" />
		<tag k="name:se" v="Máretvuovdi" />
		<tag k="old_name:se" v="Maretvuovdi" />
=======
	<node id="-909095" lat="69.4408639005" lon="25.1862497457">
		<tag k="name" v="Allagieddi" />
		<tag k="name:se" v="Allagieddi" />
		<tag k="place" v="locality" />
		<tag k="ssr:stedsnr" v="453644" />
	</node>
	<node id="-910568" lat="69.108563904" lon="25.6570191112">
		<tag k="name" v="Ruvvašjeaggi" />
		<tag k="name:se" v="Ruvvašjeaggi" />
		<tag k="natural" v="wetland" />
		<tag k="old_name:se" v="Ruvvašjæggi" />
		<tag k="ssr:stedsnr" v="625853" />
	</node>
	<node id="-909543" lat="69.4480222304" lon="25.6058858058">
		<tag k="landuse" v="meadow" />
		<tag k="name" v="Mákkagurra" />
		<tag k="name:se" v="Mákkagurra" />
		<tag k="ssr:stedsnr" v="939120" />
	</node>
	<node id="-909027" lat="69.4464305642" lon="25.4591052671">
		<tag k="name" v="Badjevuovdi" />
		<tag k="name:se" v="Badjevuovdi" />
>>>>>>> e1d4bc35ff8a6074a6f2e91616a996b547c36f15
		<tag k="place" v="locality" />
		<tag k="ssr:stedsnr" v="929841" />
	</node>
<<<<<<< HEAD
	<node lat="69.46458056410833" lon="25.499830256204174" id="-38094">
		<tag k="name" v="Skuvlamielli" />
		<tag k="name:se" v="Skuvlamielli" />
		<tag k="place" v="locality" />
		<tag k="ssr:stedsnr" v="878224" />
	</node>
	<node lat="69.44339167987116" lon="25.428363604842033" id="-38098">
		<tag k="name" v="Gullja-Biretjeaggi" />
		<tag k="name:se" v="Gullja-Biretjeaggi" />
=======
	<node id="-909538" lat="69.7296527896" lon="25.8928635545">
		<tag k="name" v="Gáhtajohjeakkit" />
		<tag k="name:se" v="Gáhtajohjeakkit" />
		<tag k="natural" v="wetland" />
		<tag k="ssr:stedsnr" v="818623" />
	</node>
	<node id="-910045" lat="69.2730500058" lon="25.090224751">
		<tag k="name" v="Buortnavárjeaggi" />
		<tag k="name:se" v="Buortnavárjeaggi" />
>>>>>>> e1d4bc35ff8a6074a6f2e91616a996b547c36f15
		<tag k="natural" v="wetland" />
		<tag k="ssr:stedsnr" v="878517" />
	</node>
<<<<<<< HEAD
	<node lat="69.79956112197516" lon="26.235182964345235" id="-38101">
		<tag k="landuse" v="meadow" />
		<tag k="name" v="Fielbmagieddi" />
		<tag k="name:se" v="Fielbmagieddi" />
		<tag k="ssr:stedsnr" v="878705" />
	</node>
	<node lat="69.34585556576432" lon="25.131513651907092" id="-38103">
		<tag k="name" v="Govdatvuovdi" />
		<tag k="name:se" v="Govdatvuovdi" />
		<tag k="place" v="locality" />
		<tag k="ssr:stedsnr" v="878715" />
	</node>
	<node lat="69.42146668004125" lon="25.321191394200657" id="-38108">
		<tag k="name" v="Vil-Ánddeládju" />
		<tag k="name:se" v="Vil-Ánddeládju" />
		<tag k="place" v="locality" />
		<tag k="ssr:stedsnr" v="878622" />
	</node>
	<node lat="69.43019445454946" lon="25.15902752069294" id="-38109">
		<tag k="name" v="Áirogeađgi" />
		<tag k="name:se" v="Áirogeađgi" />
		<tag k="natural" v="stone" />
		<tag k="ssr:stedsnr" v="878655" />
	</node>
	<node lat="69.33538056511787" lon="25.133805297635465" id="-38138">
		<tag k="name" v="Sohkkarjeaggi" />
		<tag k="name:se" v="Sohkkarjeaggi" />
=======
	<node id="-909529" lat="69.4398305649" lon="25.7850718978">
		<tag k="name" v="Itkkojeaggi" />
		<tag k="name:se" v="Itkkojeaggi" />
		<tag k="natural" v="wetland" />
		<tag k="ssr:stedsnr" v="817553" />
	</node>
	<node id="-909722" lat="69.4389500146" lon="25.5674524743">
		<tag k="name" v="Linddijeaggi" />
		<tag k="name:se" v="Linddijeaggi" />
		<tag k="natural" v="wetland" />
		<tag k="ssr:stedsnr" v="28131" />
	</node>
	<node id="-909523" lat="69.3435889007" lon="25.0940358703">
		<tag k="name" v="Ávženjálmmejeaggi" />
		<tag k="name:se" v="Ávženjálmmejeaggi" />
		<tag k="natural" v="wetland" />
		<tag k="ssr:stedsnr" v="817711" />
	</node>
	<node id="-909010" lat="69.6895777877" lon="25.9344524551">
		<tag k="name" v="Njárgavuovdi" />
		<tag k="name:se" v="Njárgavuovdi" />
		<tag k="place" v="locality" />
		<tag k="ssr:stedsnr" v="504486" />
	</node>
	<node id="-910032" lat="69.255605564" lon="25.4267385955">
		<tag k="name" v="Lávžejohjeaggi" />
		<tag k="name:se" v="Lávžejohjeaggi" />
>>>>>>> e1d4bc35ff8a6074a6f2e91616a996b547c36f15
		<tag k="natural" v="wetland" />
		<tag k="old_name:se" v="Såkkarjæggi" />
		<tag k="ssr:stedsnr" v="929150" />
	</node>
<<<<<<< HEAD
	<node lat="69.82210556276176" lon="25.799024696776147" id="-38148">
		<tag k="name" v="Njárbesleakšá" />
		<tag k="name:se" v="Njárbesleakšá" />
		<tag k="natural" v="wetland" />
		<tag k="old_name:se" v="Njarbeslækša" />
		<tag k="ssr:stedsnr" v="930888" />
	</node>
	<node lat="69.43465000378966" lon="25.01749144430619" id="-38158">
		<tag k="name" v="Sáđejohnjálmmejeaggi" />
		<tag k="name:se" v="Sáđejohnjálmmejeaggi" />
=======
	<node id="-910542" lat="69.6516361153" lon="24.5933303773">
		<tag k="name" v="Juolgelanjohleakšá" />
		<tag k="name:se" v="Juolgelanjohleakšá" />
		<tag k="natural" v="wetland" />
		<tag k="old_name:se" v="Juolgilanjåklækša" />
		<tag k="ssr:stedsnr" v="625265" />
	</node>
	<node id="-910026" lat="69.7236611253" lon="26.0176885558">
		<tag k="landuse" v="meadow" />
		<tag k="name" v="Sohpparjohgeassesadji" />
		<tag k="name:se" v="Sohpparjohgeassesadji" />
		<tag k="ssr:stedsnr" v="150574" />
	</node>
	<node id="-910930" lat="69.2330083425" lon="24.480080386">
		<tag k="name" v="Cuoppojeaggi" />
		<tag k="name:se" v="Cuoppojeaggi" />
		<tag k="natural" v="wetland" />
		<tag k="ssr:stedsnr" v="868985" />
	</node>
	<node id="-910024" lat="69.3918833414" lon="25.7923691118">
		<tag k="name" v="Jeagilvársuotnju" />
		<tag k="name:se" v="Jeagilvársuotnju" />
>>>>>>> e1d4bc35ff8a6074a6f2e91616a996b547c36f15
		<tag k="natural" v="wetland" />
		<tag k="ssr:stedsnr" v="939013" />
	</node>
<<<<<<< HEAD
	<node lat="69.37263611463288" lon="24.504658149666966" id="-38163">
		<tag k="name" v="Gohásrohtu" />
		<tag k="name:se" v="Gohásrohtu" />
		<tag k="place" v="locality" />
		<tag k="ssr:stedsnr" v="939288" />
	</node>
	<node lat="69.38667500434859" lon="24.398824817559987" id="-38164">
		<tag k="name" v="Benn-Ánddejeaggi" />
		<tag k="name:se" v="Benn-Ánddejeaggi" />
=======
	<node id="-910535" lat="69.2939027911" lon="25.2738164001">
		<tag k="name" v="Bierssájeaggi" />
		<tag k="name:se" v="Bierssájeaggi" />
		<tag k="natural" v="wetland" />
		<tag k="old_name:se" v="Biersajæggi" />
		<tag k="ssr:stedsnr" v="625055" />
	</node>
	<node id="-910022" lat="69.4122861256" lon="25.6863885732">
		<tag k="name" v="Greitta-Biretjeaggi" />
		<tag k="name:se" v="Greitta-Biretjeaggi" />
>>>>>>> e1d4bc35ff8a6074a6f2e91616a996b547c36f15
		<tag k="natural" v="wetland" />
		<tag k="ssr:stedsnr" v="939295" />
	</node>
<<<<<<< HEAD
	<node lat="69.34547501266148" lon="25.050630323050168" id="-38176">
		<tag k="name" v="Geaidnojogašvuovdi" />
		<tag k="name:se" v="Geaidnojogašvuovdi" />
		<tag k="place" v="locality" />
		<tag k="ssr:stedsnr" v="939701" />
	</node>
	<node lat="69.44030556795258" lon="25.62468024160638" id="-38177">
		<tag k="name" v="Márjjá-Pierjeaggi" />
		<tag k="name:se" v="Márjjá-Pierjeaggi" />
=======
	<node id="-909345" lat="69.4301944545" lon="25.1590275207">
		<tag k="name" v="Áirogeađgi" />
		<tag k="name:se" v="Áirogeađgi" />
		<tag k="natural" v="stone" />
		<tag k="ssr:stedsnr" v="878655" />
	</node>
	<node id="-910018" lat="69.4162444582" lon="25.6392997028">
		<tag k="name" v="Lemet-Jon-Jovnnajeaggi" />
		<tag k="name:se" v="Lemet-Jon-Jovnnajeaggi" />
		<tag k="natural" v="wetland" />
		<tag k="ssr:stedsnr" v="149847" />
	</node>
	<node id="-910529" lat="69.1105833402" lon="24.6764164522">
		<tag k="name" v="Vuollošjeaggi" />
		<tag k="name:se" v="Vuollošjeaggi" />
>>>>>>> e1d4bc35ff8a6074a6f2e91616a996b547c36f15
		<tag k="natural" v="wetland" />
		<tag k="ssr:stedsnr" v="939838" />
	</node>
<<<<<<< HEAD
	<node lat="69.65954723260312" lon="25.301030313953174" id="-38224">
		<tag k="name" v="Idjajárvuovdi" />
		<tag k="name:se" v="Idjajárvuovdi" />
		<tag k="old_name:se" v="Iddjajarvuovdi;Idjajarvuovdi" />
		<tag k="place" v="locality" />
		<tag k="ssr:stedsnr" v="18333" />
	</node>
	<node lat="69.59593889747572" lon="25.78565244910784" id="-38227">
		<tag k="name" v="Suolobeasjeaggi" />
		<tag k="name:se" v="Suolobeasjeaggi" />
=======
	<node id="-910016" lat="69.3549583378" lon="25.1269664255">
		<tag k="name" v="Gáhritjeakkit" />
		<tag k="name:se" v="Gáhritjeakkit" />
		<tag k="natural" v="wetland" />
		<tag k="ssr:stedsnr" v="149746" />
	</node>
	<node id="-910527" lat="69.5544000047" lon="24.664049804">
		<tag k="name" v="Ánnešleakšá" />
		<tag k="name:se" v="Ánnešleakšá" />
>>>>>>> e1d4bc35ff8a6074a6f2e91616a996b547c36f15
		<tag k="natural" v="wetland" />
		<tag k="old_name:se" v="Suolubæsjæggi" />
		<tag k="ssr:stedsnr" v="18366" />
	</node>
<<<<<<< HEAD
	<node lat="69.12450278716032" lon="24.870255315896504" id="-38237">
		<tag k="name" v="Sáđgejeaggi" />
		<tag k="name:se" v="Sáđgejeaggi" />
		<tag k="natural" v="wetland" />
		<tag k="old_name:se" v="Sađgejæggi" />
		<tag k="ssr:stedsnr" v="18888" />
	</node>
	<node lat="69.06565557335593" lon="25.65205522283206" id="-38253">
		<tag k="name" v="Čuolggojeaggi" />
		<tag k="name:se" v="Čuolggojeaggi" />
=======
	<node id="-909514" lat="69.8221055628" lon="25.7990246968">
		<tag k="name" v="Njárbesleakšá" />
		<tag k="name:se" v="Njárbesleakšá" />
		<tag k="natural" v="wetland" />
		<tag k="old_name:se" v="Njarbeslækša" />
		<tag k="ssr:stedsnr" v="930888" />
	</node>
	<node id="-910005" lat="69.4258416718" lon="25.1945525274">
		<tag k="name" v="Várregaskajeakkit" />
		<tag k="name:se" v="Várregaskajeakkit" />
>>>>>>> e1d4bc35ff8a6074a6f2e91616a996b547c36f15
		<tag k="natural" v="wetland" />
		<tag k="old_name:se" v="Čuolgujæggi" />
		<tag k="ssr:stedsnr" v="19854" />
	</node>
<<<<<<< HEAD
	<node lat="69.43939167580085" lon="25.5809608007393" id="-38264">
		<tag k="name" v="Divrranjeaggi" />
		<tag k="name:se" v="Divrranjeaggi" />
=======
	<node id="-910003" lat="69.489269459" lon="25.3054302903">
		<tag k="name" v="Háldevađajeaggi" />
		<tag k="name:se" v="Háldevađajeaggi" />
>>>>>>> e1d4bc35ff8a6074a6f2e91616a996b547c36f15
		<tag k="natural" v="wetland" />
		<tag k="ssr:stedsnr" v="28126" />
	</node>
<<<<<<< HEAD
	<node lat="69.43895001462658" lon="25.567452474318404" id="-38265">
		<tag k="name" v="Linddijeaggi" />
		<tag k="name:se" v="Linddijeaggi" />
=======
	<node id="-909485" lat="69.3353805651" lon="25.1338052976">
		<tag k="name" v="Sohkkarjeaggi" />
		<tag k="name:se" v="Sohkkarjeaggi" />
>>>>>>> e1d4bc35ff8a6074a6f2e91616a996b547c36f15
		<tag k="natural" v="wetland" />
		<tag k="ssr:stedsnr" v="28131" />
	</node>
<<<<<<< HEAD
	<node lat="69.46263056771271" lon="25.498933054039387" id="-38266">
		<tag k="name" v="Gorvvemielli" />
		<tag k="name:se" v="Gorvvemielli" />
		<tag k="place" v="locality" />
		<tag k="ssr:stedsnr" v="28226" />
	</node>
	<node lat="68.90770278819623" lon="25.547227460338927" id="-38310">
		<tag k="name" v="Basevuovdi" />
		<tag k="name:se" v="Basevuovdi" />
		<tag k="place" v="locality" />
		<tag k="ssr:stedsnr" v="78666" />
	</node>
	<node lat="69.24865000845972" lon="25.24189974664828" id="-38318">
		<tag k="name" v="Šuolggajeaggi" />
		<tag k="name:se" v="Šuolggajeaggi" />
		<tag k="natural" v="wetland" />
		<tag k="old_name:se" v="Šuolgajæggi" />
		<tag k="ssr:stedsnr" v="79826" />
	</node>
	<node lat="69.38703334037781" lon="24.87957479521871" id="-38322">
		<tag k="name" v="Mihkilašrohtu" />
		<tag k="name:se" v="Mihkilašrohtu" />
		<tag k="old_name:se" v="Mikkilašråtto;Mikkilasrohtu" />
		<tag k="place" v="locality" />
		<tag k="ssr:stedsnr" v="79137" />
	</node>
	<node lat="69.57145834864355" lon="25.796624687858166" id="-38395">
=======
	<node id="-908971" lat="69.4261666752" lon="25.1671580902">
		<tag k="name" v="Buollahangeađgi" />
		<tag k="name:se" v="Buollahangeađgi" />
		<tag k="natural" v="stone" />
		<tag k="ssr:stedsnr" v="392665" />
	</node>
	<node id="-909482" lat="69.3483250054" lon="24.5916164681">
		<tag k="name" v="Ávjovárjeaggi" />
		<tag k="name:se" v="Ávjovárjeaggi" />
		<tag k="natural" v="wetland" />
		<tag k="old_name:se" v="Avjuvarjæggi" />
		<tag k="ssr:stedsnr" v="929284" />
	</node>
	<node id="-910500" lat="69.7252000159" lon="26.0644329881">
		<tag k="name" v="Sohpparsáddot" />
		<tag k="name:se" v="Sohpparsáddot" />
		<tag k="natural" v="beach" />
		<tag k="ssr:stedsnr" v="575572" />
		<tag k="surface" v="sand" />
	</node>
	<node id="-908961" lat="69.2625361235" lon="25.5506830186">
>>>>>>> e1d4bc35ff8a6074a6f2e91616a996b547c36f15
		<tag k="name" v="Máđiijeaggi" />
		<tag k="name:se" v="Máđiijeaggi" />
		<tag k="natural" v="wetland" />
		<tag k="ssr:stedsnr" v="89540" />
	</node>
<<<<<<< HEAD
	<node lat="69.42876667536439" lon="25.354910853868805" id="-38406">
		<tag k="name" v="Rávnná-Johanasniitu" />
		<tag k="name:se" v="Rávnná-Johanasniitu" />
=======
	<node id="-909984" lat="69.3704222312" lon="24.447930373">
		<tag k="name" v="Gohásrohtu" />
		<tag k="name:se" v="Gohásrohtu" />
>>>>>>> e1d4bc35ff8a6074a6f2e91616a996b547c36f15
		<tag k="place" v="locality" />
		<tag k="ssr:stedsnr" v="89581" />
	</node>
<<<<<<< HEAD
	<node lat="69.4425361243971" lon="25.594860799889577" id="-38412">
		<tag k="name" v="Bálttujeaggi" />
		<tag k="name:se" v="Bálttujeaggi" />
		<tag k="natural" v="wetland" />
		<tag k="ssr:stedsnr" v="89825" />
	</node>
	<node lat="69.39201668082201" lon="25.463030277689647" id="-38425">
		<tag k="name" v="Soagŋojeaggi" />
		<tag k="name:se" v="Soagŋojeaggi" />
		<tag k="natural" v="wetland" />
		<tag k="old_name:se" v="Soagŋujæggi" />
		<tag k="ssr:stedsnr" v="139021" />
	</node>
	<node lat="69.37042223117724" lon="24.447930372997906" id="-38479">
		<tag k="name" v="Gohásrohtu" />
		<tag k="name:se" v="Gohásrohtu" />
=======
	<node id="-908959" lat="69.4168388992" lon="25.4725386006">
		<tag k="name" v="Erkke-Máretjeaggi" />
		<tag k="name:se" v="Erkke-Máretjeaggi" />
		<tag k="natural" v="wetland" />
		<tag k="ssr:stedsnr" v="392474" />
	</node>
	<node id="-909594" lat="69.440305568" lon="25.6246802416">
		<tag k="name" v="Márjjá-Pierjeaggi" />
		<tag k="name:se" v="Márjjá-Pierjeaggi" />
		<tag k="natural" v="wetland" />
		<tag k="ssr:stedsnr" v="939838" />
	</node>
	<node id="-908954" lat="69.4877722313" lon="25.3778441653">
		<tag k="name" v="Jensiinnásuoidnesadji" />
		<tag k="name:se" v="Jensiinnásuoidnesadji" />
		<tag k="place" v="locality" />
		<tag k="ssr:stedsnr" v="392310" />
	</node>
	<node id="-908952" lat="69.4496611249" lon="25.5129052642">
		<tag k="name" v="Gaskavuovdi" />
		<tag k="name:se" v="Gaskavuovdi" />
>>>>>>> e1d4bc35ff8a6074a6f2e91616a996b547c36f15
		<tag k="place" v="locality" />
		<tag k="ssr:stedsnr" v="149276" />
	</node>
<<<<<<< HEAD
	<node lat="69.70547222945036" lon="25.795671919237854" id="-38483">
		<tag k="name" v="Bođusvárjeaggi" />
		<tag k="name:se" v="Bođusvárjeaggi" />
		<tag k="natural" v="wetland" />
		<tag k="ssr:stedsnr" v="149552" />
	</node>
	<node lat="69.42584167183118" lon="25.194552527383507" id="-38484">
		<tag k="name" v="Várregaskajeakkit" />
		<tag k="name:se" v="Várregaskajeakkit" />
=======
	<node id="-909769" lat="69.4428277901" lon="25.772008016">
		<tag k="name" v="Kátrinjeaggi" />
		<tag k="name:se" v="Kátrinjeaggi" />
		<tag k="natural" v="wetland" />
		<tag k="ssr:stedsnr" v="28975" />
	</node>
	<node id="-910486" lat="69.4525888975" lon="25.2252525329">
		<tag k="name" v="Stuorajeaggi" />
		<tag k="name:se" v="Stuorajeaggi" />
		<tag k="natural" v="wetland" />
		<tag k="ssr:stedsnr" v="574634" />
	</node>
	<node id="-910483" lat="69.4269111181" lon="25.2909941769">
		<tag k="name" v="Ina-Hánssa-láttu" />
		<tag k="name:se" v="Ina-Hánssa-láttu" />
		<tag k="place" v="locality" />
		<tag k="ssr:stedsnr" v="574603" />
	</node>
	<node id="-910480" lat="69.5720889007" lon="25.8215219084">
		<tag k="name" v="Vuolitjohgeazesuotnju" />
		<tag k="name:se" v="Vuolitjohgeazesuotnju" />
>>>>>>> e1d4bc35ff8a6074a6f2e91616a996b547c36f15
		<tag k="natural" v="wetland" />
		<tag k="ssr:stedsnr" v="149609" />
	</node>
<<<<<<< HEAD
	<node lat="69.42873334650294" lon="25.721846909389363" id="-38494">
		<tag k="name" v="Soffe-Lemetjeaggi" />
		<tag k="name:se" v="Soffe-Lemetjeaggi" />
=======
	<node id="-909454" lat="69.6389833416" lon="25.1412247703">
		<tag k="name" v="Máilevađajeaggi" />
		<tag k="name:se" v="Máilevađajeaggi" />
>>>>>>> e1d4bc35ff8a6074a6f2e91616a996b547c36f15
		<tag k="natural" v="wetland" />
		<tag k="ssr:stedsnr" v="149562" />
	</node>
<<<<<<< HEAD
	<node lat="69.43041945006186" lon="25.235052522149896" id="-38496">
		<tag k="name" v="Válborsieđga" />
		<tag k="name:se" v="Válborsieđga" />
=======
	<node id="-910472" lat="69.3920750072" lon="25.1888330858">
		<tag k="name" v="Goržžejohvuovdi" />
		<tag k="name:se" v="Goržžejohvuovdi" />
>>>>>>> e1d4bc35ff8a6074a6f2e91616a996b547c36f15
		<tag k="place" v="locality" />
		<tag k="ssr:stedsnr" v="149571" />
	</node>
<<<<<<< HEAD
	<node lat="69.35495833777699" lon="25.126966425493322" id="-38503">
		<tag k="name" v="Gáhritjeakkit" />
		<tag k="name:se" v="Gáhritjeakkit" />
		<tag k="natural" v="wetland" />
		<tag k="ssr:stedsnr" v="149746" />
	</node>
	<node lat="69.41624445815864" lon="25.639299702849833" id="-38505">
		<tag k="name" v="Lemet-Jon-Jovnnajeaggi" />
		<tag k="name:se" v="Lemet-Jon-Jovnnajeaggi" />
=======
	<node id="-908925" lat="69.3447361211" lon="25.6183357959">
		<tag k="name" v="Gámehisjeakkit" />
		<tag k="name:se" v="Gámehisjeakkit" />
>>>>>>> e1d4bc35ff8a6074a6f2e91616a996b547c36f15
		<tag k="natural" v="wetland" />
		<tag k="ssr:stedsnr" v="149847" />
	</node>
<<<<<<< HEAD
	<node lat="69.41228612562081" lon="25.68638857317921" id="-38506">
		<tag k="name" v="Greitta-Biretjeaggi" />
		<tag k="name:se" v="Greitta-Biretjeaggi" />
=======
	<node id="-908923" lat="69.1067611225" lon="25.2481275012">
		<tag k="name" v="Čalbmebealjeaggi" />
		<tag k="name:se" v="Čalbmebealjeaggi" />
>>>>>>> e1d4bc35ff8a6074a6f2e91616a996b547c36f15
		<tag k="natural" v="wetland" />
		<tag k="ssr:stedsnr" v="149939" />
	</node>
<<<<<<< HEAD
	<node lat="69.39188334142084" lon="25.792369111798124" id="-38508">
		<tag k="name" v="Jeagilvársuotnju" />
		<tag k="name:se" v="Jeagilvársuotnju" />
		<tag k="natural" v="wetland" />
		<tag k="ssr:stedsnr" v="149951" />
	</node>
	<node lat="69.27305000582884" lon="25.09022475099843" id="-38525">
		<tag k="name" v="Buortnavárjeaggi" />
		<tag k="name:se" v="Buortnavárjeaggi" />
		<tag k="natural" v="wetland" />
		<tag k="old_name:se" v="Buordnavarjæggi" />
		<tag k="ssr:stedsnr" v="200200" />
	</node>
	<node lat="69.06882501318796" lon="25.340902495949297" id="-38566">
		<tag k="name" v="Galmmatvuovdi" />
		<tag k="name:se" v="Galmmatvuovdi" />
		<tag k="old_name:se" v="Galmatvuovdi" />
=======
	<node id="-909503" lat="69.1060444552" lon="25.4833385801">
		<tag k="name" v="Máretvuovdi" />
		<tag k="name:se" v="Máretvuovdi" />
		<tag k="old_name:se" v="Maretvuovdi" />
		<tag k="place" v="locality" />
		<tag k="ssr:stedsnr" v="929841" />
	</node>
	<node id="-908902" lat="69.4448666803" lon="25.5900385881">
		<tag k="landuse" v="meadow" />
		<tag k="name" v="Issát-Lemetniitu" />
		<tag k="name:se" v="Issát-Lemetniitu" />
		<tag k="ssr:stedsnr" v="332108" />
	</node>
	<node id="-908899" lat="69.3976055682" lon="25.8271774298">
		<tag k="name" v="Vuopmi" />
		<tag k="name:se" v="Vuopmi" />
>>>>>>> e1d4bc35ff8a6074a6f2e91616a996b547c36f15
		<tag k="place" v="locality" />
		<tag k="ssr:stedsnr" v="201840" />
	</node>
<<<<<<< HEAD
	<node lat="69.46040278550161" lon="25.482874700880537" id="-38568">
		<tag k="name" v="Vullošgeađgi" />
		<tag k="name:se" v="Vullošgeađgi" />
		<tag k="natural" v="stone" />
		<tag k="ssr:stedsnr" v="206377" />
	</node>
	<node lat="69.44570001252583" lon="25.81284688849069" id="-38577">
		<tag k="name" v="Iccemihásjeaggi" />
		<tag k="name:se" v="Iccemihásjeaggi" />
		<tag k="natural" v="wetland" />
		<tag k="ssr:stedsnr" v="210564" />
	</node>
	<node lat="69.37591112276363" lon="25.184005305895802" id="-38582">
		<tag k="name" v="Goržžejohvuovdi" />
		<tag k="name:se" v="Goržžejohvuovdi" />
=======
	<node id="-909409" lat="69.7170889027" lon="25.9829663301">
		<tag k="name" v="Vuolitsuolosáddot" />
		<tag k="name:se" v="Vuolitsuolosáddot" />
		<tag k="natural" v="beach" />
		<tag k="ssr:stedsnr" v="697567" />
		<tag k="surface" v="sand" />
	</node>
	<node id="-909840" lat="69.2486500085" lon="25.2418997466">
		<tag k="name" v="Šuolggajeaggi" />
		<tag k="name:se" v="Šuolggajeaggi" />
		<tag k="natural" v="wetland" />
		<tag k="old_name:se" v="Šuolgajæggi" />
		<tag k="ssr:stedsnr" v="79826" />
	</node>
	<node id="-909917" lat="69.3920166808" lon="25.4630302777">
		<tag k="name" v="Soagŋojeaggi" />
		<tag k="name:se" v="Soagŋojeaggi" />
		<tag k="natural" v="wetland" />
		<tag k="old_name:se" v="Soagŋujæggi" />
		<tag k="ssr:stedsnr" v="139021" />
	</node>
	<node id="-909913" lat="68.949088899" lon="25.5810524536">
		<tag k="name" v="Guorrasvuovdi" />
		<tag k="name:se" v="Guorrasvuovdi" />
		<tag k="old_name:se" v="Guorrasvuov'di" />
		<tag k="place" v="locality" />
		<tag k="ssr:stedsnr" v="138649" />
	</node>
	<node id="-909400" lat="69.3866444583" lon="25.1419441942">
		<tag k="name" v="Gálagieddi" />
		<tag k="name:se" v="Gálagieddi" />
>>>>>>> e1d4bc35ff8a6074a6f2e91616a996b547c36f15
		<tag k="place" v="locality" />
		<tag k="ssr:stedsnr" v="210662" />
	</node>
<<<<<<< HEAD
	<node lat="69.35920000924759" lon="25.12731641730399" id="-38587">
		<tag k="name" v="Gorvvájeakkit" />
		<tag k="name:se" v="Gorvvájeakkit" />
		<tag k="natural" v="wetland" />
		<tag k="ssr:stedsnr" v="210776" />
	</node>
	<node lat="69.45588890207097" lon="25.74941912905748" id="-38596">
		<tag k="name" v="Itkkojogašjeaggi" />
		<tag k="name:se" v="Itkkojogašjeaggi" />
		<tag k="natural" v="wetland" />
		<tag k="ssr:stedsnr" v="210958" />
	</node>
	<node lat="69.35020000349411" lon="24.67962202533529" id="-38603">
		<tag k="name" v="Várregasjeakkit" />
		<tag k="name:se" v="Várregasjeakkit" />
=======
	<node id="-909399" lat="69.3877777865" lon="25.1462080881">
		<tag k="name" v="Gálarohtu" />
		<tag k="name:se" v="Gálarohtu" />
		<tag k="place" v="locality" />
		<tag k="ssr:stedsnr" v="696659" />
	</node>
	<node id="-909908" lat="69.7237888998" lon="26.0268190878">
		<tag k="landuse" v="meadow" />
		<tag k="name" v="Sohpparjohgieddi" />
		<tag k="name:se" v="Sohpparjohgieddi" />
		<tag k="ssr:stedsnr" v="90577" />
	</node>
	<node id="-908882" lat="69.4765916756" lon="25.4921247178">
		<tag k="name" v="Báhpajeaggi" />
		<tag k="name:se" v="Báhpajeaggi" />
>>>>>>> e1d4bc35ff8a6074a6f2e91616a996b547c36f15
		<tag k="natural" v="wetland" />
		<tag k="ssr:stedsnr" v="211420" />
	</node>
<<<<<<< HEAD
	<node lat="69.357955563302" lon="24.396630387589482" id="-38608">
		<tag k="name" v="Áitevársuohkadas" />
		<tag k="name:se" v="Áitevársuohkadas" />
		<tag k="place" v="locality" />
		<tag k="ssr:stedsnr" v="211690" />
	</node>
	<node lat="69.37537778818927" lon="24.27605816842503" id="-38611">
		<tag k="name" v="Njavvoaivvejeaggi" />
		<tag k="name:se" v="Njavvoaivvejeaggi" />
=======
	<node id="-909904" lat="69.4425361244" lon="25.5948607999">
		<tag k="name" v="Bálttujeaggi" />
		<tag k="name:se" v="Bálttujeaggi" />
>>>>>>> e1d4bc35ff8a6074a6f2e91616a996b547c36f15
		<tag k="natural" v="wetland" />
		<tag k="ssr:stedsnr" v="211721" />
	</node>
<<<<<<< HEAD
	<node lat="69.56580556300571" lon="25.337713629234056" id="-38655">
		<tag k="name" v="Sieiddejohjeaggi" />
		<tag k="name:se" v="Sieiddejohjeaggi" />
		<tag k="natural" v="wetland" />
		<tag k="old_name:se" v="Sieidejåkjæggi" />
		<tag k="ssr:stedsnr" v="322458" />
	</node>
	<node lat="69.00251390452752" lon="25.69415520362058" id="-38663">
		<tag k="name" v="Máhtošvuovdi" />
		<tag k="name:se" v="Máhtošvuovdi" />
		<tag k="old_name:se" v="Mattušvuovdi" />
=======
	<node id="-910923" lat="69.1427638972" lon="25.6916524459">
		<tag k="name" v="Čohkunvuovdi" />
		<tag k="name:se" v="Čohkunvuovdi" />
		<tag k="old_name:se" v="Čåkkonvuovdi;Cohkunvuovdi" />
>>>>>>> e1d4bc35ff8a6074a6f2e91616a996b547c36f15
		<tag k="place" v="locality" />
		<tag k="ssr:stedsnr" v="322763" />
	</node>
<<<<<<< HEAD
	<node lat="69.68947779211597" lon="25.93893854845119" id="-38676">
		<tag k="name" v="Suolosáttu" />
		<tag k="name:se" v="Suolosáttu" />
		<tag k="natural" v="beach" />
		<tag k="old_name:se" v="Suolosattu" />
		<tag k="ssr:stedsnr" v="331980" />
		<tag k="surface" v="sand" />
	</node>
	<node lat="69.60260834493087" lon="25.878216323388102" id="-38679">
		<tag k="name" v="Eliasládjojeaggi" />
		<tag k="name:se" v="Eliasládjojeaggi" />
=======
	<node id="-908872" lat="69.3853305659" lon="25.8177385419">
		<tag k="name" v="Rivotjeaggi" />
		<tag k="name:se" v="Rivotjeaggi" />
>>>>>>> e1d4bc35ff8a6074a6f2e91616a996b547c36f15
		<tag k="natural" v="wetland" />
		<tag k="old_name:se" v="Eliasladjojeaggi" />
		<tag k="ssr:stedsnr" v="331990" />
	</node>
<<<<<<< HEAD
	<node lat="69.54366111975115" lon="25.79184968020968" id="-38691">
		<tag k="name" v="Geahtaveaiskáiddejeaggi" />
		<tag k="name:se" v="Geahtaveaiskáiddejeaggi" />
=======
	<node id="-908869" lat="69.4266389005" lon="25.6107302599">
		<tag k="name" v="Lemet-Jonjeaggi" />
		<tag k="name:se" v="Lemet-Jonjeaggi" />
>>>>>>> e1d4bc35ff8a6074a6f2e91616a996b547c36f15
		<tag k="natural" v="wetland" />
		<tag k="ssr:stedsnr" v="332537" />
	</node>
<<<<<<< HEAD
	<node lat="69.35458333687333" lon="24.370591503662038" id="-38694">
		<tag k="name" v="Pieražiidmáđiijeaggi" />
		<tag k="name:se" v="Pieražiidmáđiijeaggi" />
=======
	<node id="-908865" lat="69.3555750091" lon="24.4878914978">
		<tag k="name" v="Ástejeakkit" />
		<tag k="name:se" v="Ástejeakkit" />
>>>>>>> e1d4bc35ff8a6074a6f2e91616a996b547c36f15
		<tag k="natural" v="wetland" />
		<tag k="ssr:stedsnr" v="332641" />
	</node>
<<<<<<< HEAD
	<node lat="69.37254723053768" lon="24.298027615391675" id="-38697">
		<tag k="name" v="Skuvllalbmágeađgi" />
		<tag k="name:se" v="Skuvllalbmágeađgi" />
		<tag k="natural" v="stone" />
		<tag k="ssr:stedsnr" v="332731" />
	</node>
	<node lat="69.55298334168464" lon="25.503908053540442" id="-38752">
		<tag k="name" v="Doalpovárráhppát" />
		<tag k="name:se" v="Doalpovárráhppát" />
		<tag k="natural" v="scree" />
		<tag k="old_name:se" v="Doalpuvarrappat" />
		<tag k="ssr:stedsnr" v="382453" />
	</node>
	<node lat="69.10676112250042" lon="25.248127501167943" id="-38757">
		<tag k="name" v="Čalbmebealjeaggi" />
		<tag k="name:se" v="Čalbmebealjeaggi" />
=======
	<node id="-909373" lat="69.4317500099" lon="25.7034024502">
		<tag k="name" v="Siffarjeakkit" />
		<tag k="name:se" v="Siffarjeakkit" />
>>>>>>> e1d4bc35ff8a6074a6f2e91616a996b547c36f15
		<tag k="natural" v="wetland" />
		<tag k="old_name:se" v="Calbmebæljæggi" />
		<tag k="ssr:stedsnr" v="382829" />
	</node>
<<<<<<< HEAD
	<node lat="69.44966112491379" lon="25.512905264168854" id="-38768">
		<tag k="name" v="Gaskavuovdi" />
		<tag k="name:se" v="Gaskavuovdi" />
		<tag k="place" v="locality" />
		<tag k="ssr:stedsnr" v="392052" />
	</node>
	<node lat="69.50727500760175" lon="25.510871942858287" id="-38769">
		<tag k="name" v="Peđarjeaggi" />
		<tag k="name:se" v="Peđarjeaggi" />
=======
	<node id="-908858" lat="69.4459027821" lon="25.0495775518">
		<tag k="name" v="Njáhkávuovdi" />
		<tag k="name:se" v="Njáhkávuovdi" />
		<tag k="place" v="locality" />
		<tag k="ssr:stedsnr" v="453659" />
	</node>
	<node id="-910903" lat="69.555205567" lon="25.6300774933">
		<tag k="name" v="Skierrevárjeaggi" />
		<tag k="name:se" v="Skierrevárjeaggi" />
>>>>>>> e1d4bc35ff8a6074a6f2e91616a996b547c36f15
		<tag k="natural" v="wetland" />
		<tag k="ssr:stedsnr" v="392079" />
	</node>
<<<<<<< HEAD
	<node lat="69.41683889924496" lon="25.472538600590102" id="-38781">
		<tag k="name" v="Erkke-Máretjeaggi" />
		<tag k="name:se" v="Erkke-Máretjeaggi" />
=======
	<node id="-908854" lat="69.4241166833" lon="25.7633663341">
		<tag k="name" v="Badjelsuhppehatjeaggi" />
		<tag k="name:se" v="Badjelsuhppehatjeaggi" />
>>>>>>> e1d4bc35ff8a6074a6f2e91616a996b547c36f15
		<tag k="natural" v="wetland" />
		<tag k="ssr:stedsnr" v="392474" />
	</node>
<<<<<<< HEAD
	<node lat="69.42616667523804" lon="25.167158090235574" id="-38791">
		<tag k="name" v="Buollahangeađgi" />
		<tag k="name:se" v="Buollahangeađgi" />
		<tag k="natural" v="stone" />
		<tag k="ssr:stedsnr" v="392665" />
	</node>
	<node lat="69.52112778911332" lon="25.286183083044893" id="-38848">
		<tag k="name" v="Dápmotjeaggi" />
		<tag k="name:se" v="Dápmotjeaggi" />
		<tag k="natural" v="wetland" />
		<tag k="old_name:se" v="Dabmutjæggi" />
		<tag k="ssr:stedsnr" v="443456" />
	</node>
	<node lat="69.39055834392198" lon="24.82565534321829" id="-38866">
		<tag k="name" v="Poastajeaggi" />
		<tag k="name:se" v="Poastajeaggi" />
=======
	<node id="-908853" lat="69.4833444508" lon="25.3262469613">
		<tag k="name" v="Morotaijeaggi" />
		<tag k="name:se" v="Morotaijeaggi" />
		<tag k="natural" v="wetland" />
		<tag k="ssr:stedsnr" v="453562" />
	</node>
	<node id="-909358" lat="69.3458555658" lon="25.1315136519">
		<tag k="name" v="Govdatvuovdi" />
		<tag k="name:se" v="Govdatvuovdi" />
		<tag k="place" v="locality" />
		<tag k="ssr:stedsnr" v="878715" />
	</node>
	<node id="-909405" lat="69.4549500114" lon="25.5725774881">
		<tag k="name" v="Riidojeaggi" />
		<tag k="name:se" v="Riidojeaggi" />
		<tag k="natural" v="wetland" />
		<tag k="ssr:stedsnr" v="696921" />
	</node>
	<node id="-910380" lat="68.987744455" lon="25.1921774922">
		<tag k="name" v="Spierkojeaggi" />
		<tag k="name:se" v="Spierkojeaggi" />
>>>>>>> e1d4bc35ff8a6074a6f2e91616a996b547c36f15
		<tag k="natural" v="wetland" />
		<tag k="old_name:se" v="Poastajæggi" />
		<tag k="ssr:stedsnr" v="503117" />
	</node>
<<<<<<< HEAD
	<node lat="69.26253612347314" lon="25.550683018634025" id="-38898">
		<tag k="name" v="Máđiijeaggi" />
		<tag k="name:se" v="Máđiijeaggi" />
		<tag k="natural" v="wetland" />
		<tag k="old_name:se" v="Mađiijæggi" />
		<tag k="ssr:stedsnr" v="504036" />
	</node>
	<node lat="69.68957778771389" lon="25.93445245511618" id="-38919">
		<tag k="name" v="Njárgavuovdi" />
		<tag k="name:se" v="Njárgavuovdi" />
=======
	<node id="-908842" lat="69.274180564" lon="25.7259830085">
		<tag k="name" v="Jeaggerohtu" />
		<tag k="name:se" v="Jeaggerohtu" />
>>>>>>> e1d4bc35ff8a6074a6f2e91616a996b547c36f15
		<tag k="place" v="locality" />
		<tag k="ssr:stedsnr" v="504486" />
	</node>
<<<<<<< HEAD
	<node lat="69.44643056415106" lon="25.459105267132514" id="-38932">
		<tag k="name" v="Badjevuovdi" />
		<tag k="name:se" v="Badjevuovdi" />
		<tag k="place" v="locality" />
		<tag k="ssr:stedsnr" v="513040" />
	</node>
	<node lat="69.47203056829889" lon="25.29712752009625" id="-38947">
		<tag k="name" v="Gesojeaggi" />
		<tag k="name:se" v="Gesojeaggi" />
		<tag k="natural" v="wetland" />
		<tag k="ssr:stedsnr" v="514559" />
	</node>
	<node lat="68.93528612277134" lon="25.612860762574055" id="-38978">
=======
	<node id="-910373" lat="68.9352861228" lon="25.6128607626">
>>>>>>> e1d4bc35ff8a6074a6f2e91616a996b547c36f15
		<tag k="name" v="Allavuohčojeaggi" />
		<tag k="name:se" v="Allavuohčojeaggi" />
		<tag k="natural" v="wetland" />
		<tag k="old_name:se" v="Allavuoččujæggi" />
		<tag k="ssr:stedsnr" v="563683" />
	</node>
<<<<<<< HEAD
	<node lat="68.98774445498437" lon="25.192177492201942" id="-38990">
		<tag k="name" v="Spierkojeaggi" />
		<tag k="name:se" v="Spierkojeaggi" />
=======
	<node id="-909356" lat="69.799561122" lon="26.2351829643">
		<tag k="landuse" v="meadow" />
		<tag k="name" v="Fielbmagieddi" />
		<tag k="name:se" v="Fielbmagieddi" />
		<tag k="ssr:stedsnr" v="878705" />
	</node>
	<node id="-909347" lat="69.4476305645" lon="25.1969553193">
		<tag k="name" v="Gufihtargieddi" />
		<tag k="name:se" v="Gufihtargieddi" />
		<tag k="place" v="locality" />
		<tag k="ssr:stedsnr" v="878670" />
	</node>
	<node id="-910683" lat="69.4679639025" lon="25.5012552688">
		<tag k="name" v="Gádja-Biretmielli" />
		<tag k="name:se" v="Gádja-Biretmielli" />
		<tag k="place" v="locality" />
		<tag k="ssr:stedsnr" v="756217" />
	</node>
	<node id="-910365" lat="69.4556027896" lon="25.683196903">
		<tag k="name" v="Greit-Ánddeládju" />
		<tag k="name:se" v="Greit-Ánddeládju" />
>>>>>>> e1d4bc35ff8a6074a6f2e91616a996b547c36f15
		<tag k="natural" v="wetland" />
		<tag k="old_name:se" v="Spierkujæggi" />
		<tag k="ssr:stedsnr" v="563878" />
	</node>
<<<<<<< HEAD
	<node lat="69.57208890067737" lon="25.821521908373334" id="-39073">
		<tag k="name" v="Vuolitjohgeazesuotnju" />
		<tag k="name:se" v="Vuolitjohgeazesuotnju" />
		<tag k="natural" v="wetland" />
		<tag k="ssr:stedsnr" v="574568" />
	</node>
	<node lat="69.39207500715867" lon="25.18883308580538" id="-39078">
		<tag k="name" v="Goržžejohvuovdi" />
		<tag k="name:se" v="Goržžejohvuovdi" />
=======
	<node id="-909340" lat="69.4647277912" lon="25.7235246731">
		<tag k="name" v="Gievdnejohvuovdi" />
		<tag k="name:se" v="Gievdnejohvuovdi" />
		<tag k="place" v="locality" />
		<tag k="ssr:stedsnr" v="878625" />
	</node>
	<node id="-909339" lat="69.42146668" lon="25.3211913942">
		<tag k="name" v="Vil-Ánddeládju" />
		<tag k="name:se" v="Vil-Ánddeládju" />
>>>>>>> e1d4bc35ff8a6074a6f2e91616a996b547c36f15
		<tag k="place" v="locality" />
		<tag k="ssr:stedsnr" v="574686" />
	</node>
<<<<<<< HEAD
	<node lat="69.45258889747248" lon="25.225252532904435" id="-39088">
		<tag k="name" v="Stuorajeaggi" />
		<tag k="name:se" v="Stuorajeaggi" />
=======
	<node id="-909337" lat="69.4455111252" lon="25.4381608301">
		<tag k="name" v="Ruvžajeaggi" />
		<tag k="name:se" v="Ruvžajeaggi" />
>>>>>>> e1d4bc35ff8a6074a6f2e91616a996b547c36f15
		<tag k="natural" v="wetland" />
		<tag k="ssr:stedsnr" v="574634" />
	</node>
<<<<<<< HEAD
	<node lat="69.43663890146033" lon="25.628713596141836" id="-39095">
		<tag k="name" v="Ájojogašjeaggi" />
		<tag k="name:se" v="Ájojogašjeaggi" />
=======
	<node id="-909330" lat="69.4433916799" lon="25.4283636048">
		<tag k="name" v="Gullja-Biretjeaggi" />
		<tag k="name:se" v="Gullja-Biretjeaggi" />
>>>>>>> e1d4bc35ff8a6074a6f2e91616a996b547c36f15
		<tag k="natural" v="wetland" />
		<tag k="ssr:stedsnr" v="574881" />
	</node>
<<<<<<< HEAD
	<node lat="69.44075556876112" lon="25.64928580264095" id="-39096">
		<tag k="name" v="Jeambealesjeaggi" />
		<tag k="name:se" v="Jeambealesjeaggi" />
=======
	<node id="-910864" lat="69.3329000154" lon="25.3419247208">
		<tag k="name" v="Linddejeaggi" />
		<tag k="name:se" v="Linddejeaggi" />
>>>>>>> e1d4bc35ff8a6074a6f2e91616a996b547c36f15
		<tag k="natural" v="wetland" />
		<tag k="ssr:stedsnr" v="574884" />
	</node>
<<<<<<< HEAD
	<node lat="69.72520001591596" lon="26.06443298812568" id="-39100">
		<tag k="name" v="Sohpparsáddot" />
		<tag k="name:se" v="Sohpparsáddot" />
		<tag k="natural" v="beach" />
		<tag k="ssr:stedsnr" v="575572" />
		<tag k="surface" v="sand" />
	</node>
	<node lat="69.55440000474773" lon="24.66404980396642" id="-39123">
		<tag k="name" v="Ánnešleakšá" />
		<tag k="name:se" v="Ánnešleakšá" />
		<tag k="natural" v="wetland" />
		<tag k="old_name:se" v="Annešlækša" />
		<tag k="ssr:stedsnr" v="624387" />
	</node>
	<node lat="69.11058334023386" lon="24.676416452242687" id="-39126">
		<tag k="name" v="Vuollošjeaggi" />
		<tag k="name:se" v="Vuollošjeaggi" />
=======
	<node id="-910351" lat="69.3555277821" lon="24.2755026135">
		<tag k="name" v="Gaskabeaijeakkit" />
		<tag k="name:se" v="Gaskabeaijeakkit" />
		<tag k="natural" v="wetland" />
		<tag k="ssr:stedsnr" v="392701" />
	</node>
	<node id="-908812" lat="69.5211277891" lon="25.286183083">
		<tag k="name" v="Dápmotjeaggi" />
		<tag k="name:se" v="Dápmotjeaggi" />
		<tag k="natural" v="wetland" />
		<tag k="old_name:se" v="Dabmutjæggi" />
		<tag k="ssr:stedsnr" v="443456" />
	</node>
	<node id="-910857" lat="69.4272750094" lon="25.6787108016">
		<tag k="name" v="Siffarjohjeakkit" />
		<tag k="name:se" v="Siffarjohjeakkit" />
>>>>>>> e1d4bc35ff8a6074a6f2e91616a996b547c36f15
		<tag k="natural" v="wetland" />
		<tag k="old_name:se" v="Vuollušjæggi" />
		<tag k="ssr:stedsnr" v="624899" />
	</node>
<<<<<<< HEAD
	<node lat="69.29390279106762" lon="25.27381640009309" id="-39127">
		<tag k="name" v="Bierssájeaggi" />
		<tag k="name:se" v="Bierssájeaggi" />
		<tag k="natural" v="wetland" />
		<tag k="old_name:se" v="Biersajæggi" />
		<tag k="ssr:stedsnr" v="625055" />
	</node>
	<node lat="69.6516361153174" lon="24.593330377318136" id="-39134">
		<tag k="name" v="Juolgelanjohleakšá" />
		<tag k="name:se" v="Juolgelanjohleakšá" />
		<tag k="natural" v="wetland" />
		<tag k="old_name:se" v="Juolgilanjåklækša" />
		<tag k="ssr:stedsnr" v="625265" />
	</node>
	<node lat="69.22791944886605" lon="24.853124776082712" id="-39151">
		<tag k="name" v="Dápmotvuohčču" />
		<tag k="name:se" v="Dápmotvuohčču" />
		<tag k="natural" v="wetland" />
		<tag k="old_name:se" v="Dabmutvuoččo" />
		<tag k="ssr:stedsnr" v="625875" />
	</node>
	<node lat="69.21305834239327" lon="24.805585886811482" id="-39154">
		<tag k="name" v="Gieddevuovdi" />
		<tag k="name:se" v="Gieddevuovdi" />
		<tag k="old_name:se" v="Gied'devuov'di" />
		<tag k="place" v="locality" />
		<tag k="ssr:stedsnr" v="625939" />
	</node>
	<node lat="69.44325557157768" lon="25.799302451746943" id="-39167">
		<tag k="name" v="Gonagasgeađgi" />
		<tag k="name:se" v="Gonagasgeađgi" />
		<tag k="natural" v="stone" />
		<tag k="ssr:stedsnr" v="634519" />
	</node>
	<node lat="69.43339723036894" lon="25.56868025490829" id="-39169">
		<tag k="name" v="Skuvlla-Pierládjosadji" />
		<tag k="name:se" v="Skuvlla-Pierládjosadji" />
		<tag k="natural" v="wetland" />
		<tag k="ssr:stedsnr" v="635116" />
	</node>
	<node lat="69.4129638994587" lon="25.739908014057182" id="-39174">
		<tag k="name" v="Bovdnajeaggi" />
		<tag k="name:se" v="Bovdnajeaggi" />
		<tag k="natural" v="wetland" />
		<tag k="ssr:stedsnr" v="635551" />
	</node>
	<node lat="69.44521112278966" lon="25.018780339248057" id="-39177">
		<tag k="name" v="Njáhkávuovdi" />
		<tag k="name:se" v="Njáhkávuovdi" />
		<tag k="place" v="locality" />
		<tag k="ssr:stedsnr" v="635492" />
	</node>
	<node lat="69.55500556671265" lon="25.85249689134001" id="-39178">
		<tag k="name" v="Geahteveaisáddot" />
		<tag k="name:se" v="Geahteveaisáddot" />
		<tag k="natural" v="beach" />
		<tag k="ssr:stedsnr" v="635517" />
		<tag k="surface" v="sand" />
	</node>
	<node lat="69.43846668063767" lon="25.177085854952402" id="-39182">
		<tag k="name" v="Máđárgieddi" />
		<tag k="name:se" v="Máđárgieddi" />
		<tag k="place" v="locality" />
		<tag k="ssr:stedsnr" v="635596" />
	</node>
	<node lat="69.41956390267418" lon="25.688644142307616" id="-39193">
		<tag k="name" v="Suoidneádjatgeahči" />
		<tag k="name:se" v="Suoidneádjatgeahči" />
		<tag k="natural" v="wetland" />
		<tag k="ssr:stedsnr" v="635921" />
	</node>
	<node lat="69.40027223951691" lon="25.82179410723424" id="-39197">
		<tag k="name" v="Gorddetjeaggi" />
		<tag k="name:se" v="Gorddetjeaggi" />
		<tag k="natural" v="wetland" />
		<tag k="ssr:stedsnr" v="635953" />
	</node>
	<node lat="69.38565001297417" lon="25.083858091964828" id="-39214">
		<tag k="name" v="Stávrájeaggi" />
		<tag k="name:se" v="Stávrájeaggi" />
		<tag k="natural" v="wetland" />
		<tag k="old_name:se" v="Stavrajæggi" />
		<tag k="ssr:stedsnr" v="746138" />
	</node>
	<node lat="69.44707778970934" lon="25.487749721312255" id="-39275">
		<tag k="name" v="Niittošvuovdi" />
		<tag k="name:se" v="Niittošvuovdi" />
		<tag k="place" v="locality" />
		<tag k="ssr:stedsnr" v="756469" />
	</node>
	<node lat="69.43177778891577" lon="24.563491478041332" id="-39276">
		<tag k="name" v="Duottargeašjeaggi" />
		<tag k="name:se" v="Duottargeašjeaggi" />
		<tag k="natural" v="wetland" />
		<tag k="ssr:stedsnr" v="756476" />
	</node>
	<node lat="69.63966668373389" lon="25.872885775520103" id="-39291">
		<tag k="name" v="Gálssotjohjeaggi" />
		<tag k="name:se" v="Gálssotjohjeaggi" />
		<tag k="natural" v="wetland" />
		<tag k="ssr:stedsnr" v="756660" />
	</node>
	<node lat="69.66096389855237" lon="25.890727456118334" id="-39292">
		<tag k="name" v="Njivlegieddi" />
		<tag k="name:se" v="Njivlegieddi" />
		<tag k="place" v="locality" />
		<tag k="ssr:stedsnr" v="756670" />
	</node>
	<node lat="69.38061666859407" lon="24.34766095091616" id="-39294">
		<tag k="name" v="Fierbmesaijeaggi" />
		<tag k="name:se" v="Fierbmesaijeaggi" />
		<tag k="natural" v="wetland" />
		<tag k="ssr:stedsnr" v="756765" />
	</node>
	<node lat="69.46907501344417" lon="25.569427493728856" id="-39299">
		<tag k="name" v="Mávnnosrohtu" />
		<tag k="name:se" v="Mávnnosrohtu" />
		<tag k="natural" v="wetland" />
		<tag k="ssr:stedsnr" v="756944" />
	</node>
	<node lat="69.57490834988162" lon="25.855630218959927" id="-39302">
		<tag k="name" v="Skáravađajeaggi" />
		<tag k="name:se" v="Skáravađajeaggi" />
		<tag k="natural" v="wetland" />
		<tag k="old_name:se" v="Skaravađajeaggi" />
		<tag k="ssr:stedsnr" v="756958" />
	</node>
	<node lat="69.40098612607859" lon="25.78854968290213" id="-39306">
		<tag k="name" v="Máhkarájaggeahči" />
		<tag k="name:se" v="Máhkarájaggeahči" />
		<tag k="natural" v="wetland" />
		<tag k="ssr:stedsnr" v="756977" />
	</node>
	<node lat="69.50756945341024" lon="24.89016090528002" id="-39317">
		<tag k="name" v="Sáđejeaggi" />
		<tag k="name:se" v="Sáđejeaggi" />
		<tag k="natural" v="wetland" />
		<tag k="old_name:se" v="Sađejæggi" />
		<tag k="ssr:stedsnr" v="807346" />
	</node>
	<node lat="68.94935556307934" lon="25.0513302951114" id="-39383">
		<tag k="name" v="Gurbešvuovdi" />
		<tag k="name:se" v="Gurbešvuovdi" />
		<tag k="place" v="locality" />
		<tag k="ssr:stedsnr" v="807854" />
	</node>
	<node lat="69.46655834275812" lon="25.513369155233214" id="-39401">
		<tag k="name" v="Sámmolašmielli" />
		<tag k="name:se" v="Sámmolašmielli" />
		<tag k="place" v="locality" />
		<tag k="ssr:stedsnr" v="817233" />
	</node>
	<node lat="69.45669445106037" lon="25.483805281151035" id="-39402">
		<tag k="name" v="Cuoppojeaggi" />
		<tag k="name:se" v="Cuoppojeaggi" />
		<tag k="natural" v="wetland" />
		<tag k="ssr:stedsnr" v="817213" />
	</node>
	<node lat="69.44791667391864" lon="25.47629137096367" id="-39411">
		<tag k="name" v="Issát-Sámmoljeaggi" />
		<tag k="name:se" v="Issát-Sámmoljeaggi" />
		<tag k="natural" v="wetland" />
		<tag k="ssr:stedsnr" v="817458" />
	</node>
	<node lat="69.42042223364531" lon="24.736222015912954" id="-39413">
		<tag k="name" v="Liidnebeahcanjeaggi" />
		<tag k="name:se" v="Liidnebeahcanjeaggi" />
		<tag k="natural" v="wetland" />
		<tag k="ssr:stedsnr" v="817463" />
	</node>
	<node lat="69.48743889563632" lon="25.298699737955495" id="-39415">
		<tag k="name" v="Lullánjeaggi" />
		<tag k="name:se" v="Lullánjeaggi" />
		<tag k="natural" v="wetland" />
		<tag k="ssr:stedsnr" v="817537" />
	</node>
	<node lat="69.4398305648721" lon="25.785071897829116" id="-39418">
		<tag k="name" v="Itkkojeaggi" />
		<tag k="name:se" v="Itkkojeaggi" />
		<tag k="natural" v="wetland" />
		<tag k="ssr:stedsnr" v="817553" />
	</node>
	<node lat="69.34358890070429" lon="25.09403587032819" id="-39429">
		<tag k="name" v="Ávženjálmmejeaggi" />
		<tag k="name:se" v="Ávženjálmmejeaggi" />
		<tag k="natural" v="wetland" />
		<tag k="ssr:stedsnr" v="817711" />
	</node>
	<node lat="69.42727500941379" lon="25.678710801649196" id="-39430">
		<tag k="name" v="Siffarjohjeakkit" />
		<tag k="name:se" v="Siffarjohjeakkit" />
		<tag k="natural" v="wetland" />
		<tag k="ssr:stedsnr" v="817951" />
	</node>
	<node lat="69.72965278957885" lon="25.892863554544377" id="-39435">
		<tag k="name" v="Gáhtajohjeakkit" />
		<tag k="name:se" v="Gáhtajohjeakkit" />
		<tag k="natural" v="wetland" />
		<tag k="ssr:stedsnr" v="818623" />
	</node>
	<node lat="69.33290001538265" lon="25.34192472075412" id="-39437">
		<tag k="name" v="Linddejeaggi" />
		<tag k="name:se" v="Linddejeaggi" />
		<tag k="natural" v="wetland" />
		<tag k="old_name:se" v="Lindejæggi" />
		<tag k="ssr:stedsnr" v="868002" />
	</node>
	<node lat="69.2330083425496" lon="24.480080385962182" id="-39442">
		<tag k="name" v="Cuoppojeaggi" />
		<tag k="name:se" v="Cuoppojeaggi" />
		<tag k="natural" v="wetland" />
		<tag k="ssr:stedsnr" v="868985" />
	</node>
	<node lat="69.55520556704852" lon="25.630077493342025" id="-39466">
		<tag k="name" v="Skierrevárjeaggi" />
		<tag k="name:se" v="Skierrevárjeaggi" />
		<tag k="natural" v="wetland" />
		<tag k="old_name:se" v="Skierrevarjæggi" />
		<tag k="ssr:stedsnr" v="868457" />
	</node>
	<node lat="69.14276389724586" lon="25.691652445885037" id="-39486">
		<tag k="name" v="Čohkunvuovdi" />
		<tag k="name:se" v="Čohkunvuovdi" />
		<tag k="old_name:se" v="Čåkkonvuovdi;Cohkunvuovdi" />
		<tag k="place" v="locality" />
		<tag k="ssr:stedsnr" v="868835" />
	</node>
	<node lat="69.44551112517786" lon="25.438160830050215" id="-39511">
		<tag k="name" v="Ruvžajeaggi" />
		<tag k="name:se" v="Ruvžajeaggi" />
		<tag k="natural" v="wetland" />
		<tag k="ssr:stedsnr" v="878589" />
	</node>
	<node lat="69.44763056445248" lon="25.19695531933614" id="-39512">
		<tag k="name" v="Gufihtargieddi" />
		<tag k="name:se" v="Gufihtargieddi" />
		<tag k="place" v="locality" />
		<tag k="ssr:stedsnr" v="878670" />
	</node>
	<node lat="69.3556833406687" lon="24.292341504169872" id="-39514">
		<tag k="name" v="Pierašjeakkit" />
		<tag k="name:se" v="Pierašjeakkit" />
		<tag k="natural" v="wetland" />
		<tag k="ssr:stedsnr" v="878673" />
	</node>
	<node lat="69.47516945383248" lon="25.462321950113953" id="-39530">
		<tag k="name" v="Lemet-Máretjeaggi" />
		<tag k="name:se" v="Lemet-Máretjeaggi" />
		<tag k="natural" v="wetland" />
		<tag k="ssr:stedsnr" v="878357" />
	</node>
	<node lat="69.46472779118693" lon="25.72352467308314" id="-39535">
		<tag k="name" v="Gievdnejohvuovdi" />
		<tag k="name:se" v="Gievdnejohvuovdi" />
		<tag k="place" v="locality" />
		<tag k="ssr:stedsnr" v="878625" />
	</node>
	<node lat="69.41573334722973" lon="25.805369117896813" id="-39536">
		<tag k="name" v="Heikorjeaggi" />
		<tag k="name:se" v="Heikorjeaggi" />
		<tag k="natural" v="wetland" />
		<tag k="ssr:stedsnr" v="878630" />
	</node>
	<node lat="69.4317500099368" lon="25.70340245016103" id="-39551">
		<tag k="name" v="Siffarjeakkit" />
		<tag k="name:se" v="Siffarjeakkit" />
		<tag k="natural" v="wetland" />
		<tag k="ssr:stedsnr" v="878945" />
	</node>
	<node lat="69.6457111209485" lon="25.94944688087263" id="-39555">
		<tag k="landuse" v="meadow" />
		<tag k="name" v="Vuovdagieddi" />
		<tag k="name:se" v="Vuovdagieddi" />
		<tag k="ssr:stedsnr" v="938986" />
	</node>
	<node lat="69.4480222303523" lon="25.605885805836305" id="-39558">
		<tag k="landuse" v="meadow" />
		<tag k="name" v="Mákkagurra" />
		<tag k="name:se" v="Mákkagurra" />
		<tag k="ssr:stedsnr" v="939120" />
	</node>
	<node lat="69.4492500071013" lon="25.590208038727233" id="-39559">
		<tag k="landuse" v="meadow" />
		<tag k="name" v="Uhca-Pier-Lemetniitu" />
		<tag k="name:se" v="Uhca-Pier-Lemetniitu" />
		<tag k="ssr:stedsnr" v="939121" />
	</node>
	<node lat="69.43652501346632" lon="25.557124717735938" id="-39560">
		<tag k="name" v="Skuvllaolbmájeaggi" />
		<tag k="name:se" v="Skuvllaolbmájeaggi" />
		<tag k="natural" v="wetland" />
		<tag k="ssr:stedsnr" v="939127" />
	</node>
	<node lat="69.43258612092183" lon="25.309330298267014" id="-39573">
		<tag k="name" v="Suhppehatjeaggi" />
		<tag k="name:se" v="Suhppehatjeaggi" />
		<tag k="natural" v="wetland" />
		<tag k="ssr:stedsnr" v="939571" />
	</node>
	<node lat="69.41145001235316" lon="25.595674691016242" id="-39583">
		<tag k="name" v="Dilljaskáiddejeaggi" />
		<tag k="name:se" v="Dilljaskáiddejeaggi" />
		<tag k="natural" v="wetland" />
		<tag k="ssr:stedsnr" v="939818" />
	</node>
	<node lat="69.48781667962" lon="25.56534415237961" id="-39589">
		<tag k="name" v="Ruovdejeaggi" />
		<tag k="name:se" v="Ruovdejeaggi" />
		<tag k="natural" v="wetland" />
		<tag k="ssr:stedsnr" v="939948" />
	</node>
	<node lat="68.93991062465552" lon="25.154377855380513" id="-39683">
		<tag k="name" v="Heargevársuohkadas" />
		<tag k="name:se" v="Heargevársuohkadas" />
		<tag k="place" v="locality" />
		<tag k="ssr:stedsnr" v="1079999" />
	</node>
=======
	<node id="-910856" lat="69.459577789" lon="25.6442080191">
		<tag k="name" v="Sealgevárjeaggi" />
		<tag k="name:se" v="Sealgevárjeaggi" />
		<tag k="natural" v="wetland" />
		<tag k="ssr:stedsnr" v="817989" />
	</node>
	<node id="-910338" lat="69.45874723" lon="25.5267496999">
		<tag k="name" v="Laŧevuovdi" />
		<tag k="name:se" v="Laŧevuovdi" />
		<tag k="place" v="locality" />
		<tag k="ssr:stedsnr" v="392084" />
	</node>
	<node id="-909313" lat="69.4645805641" lon="25.4998302562">
		<tag k="name" v="Skuvlamielli" />
		<tag k="name:se" v="Skuvlamielli" />
		<tag k="place" v="locality" />
		<tag k="ssr:stedsnr" v="878224" />
	</node>
>>>>>>> e1d4bc35ff8a6074a6f2e91616a996b547c36f15
</osm>
