<?xml version="1.0" encoding="UTF-8"?>
<osm version="0.6" generator="osmapis">
	<node lat="68.9413055696578" lon="25.304474715468153" id="-34751">
		<tag k="fixme" v="consider natural=peak for the most distinct mountains in the district" />
		<tag k="name" v="Mánabaivárri" />
		<tag k="name:se" v="Mánabaivárri" />
		<tag k="natural" v="hill" />
		<tag k="old_name:se" v="Manabajavrri" />
		<tag k="place" v="locality" />
		<tag k="ssr:stedsnr" v="17665" />
	</node>
	<node lat="68.90675000784395" lon="25.232933054323787" id="-34752">
		<tag k="fixme" v="consider natural=peak for the most distinct mountains in the district" />
		<tag k="name" v="Buođgavárit" />
		<tag k="name:se" v="Buođgavárit" />
		<tag k="natural" v="hill" />
		<tag k="old_name:se" v="Buođgavarit;Buođgavárrit" />
		<tag k="place" v="locality" />
		<tag k="ssr:stedsnr" v="17705" />
	</node>
	<node lat="69.76305278395282" lon="25.855055247363072" id="-34757">
		<tag k="fixme" v="consider natural=peak for the most distinct mountains in the district" />
		<tag k="name" v="Sohpparvađđa" />
		<tag k="name:se" v="Sohpparvađđa" />
		<tag k="natural" v="hill" />
		<tag k="old_name:se" v="Såpparvađđa" />
		<tag k="place" v="locality" />
		<tag k="ssr:stedsnr" v="18402" />
	</node>
	<node lat="69.72856111781118" lon="25.348016415648576" id="-34760">
		<tag k="fixme" v="consider natural=peak for the most distinct mountains in the district" />
		<tag k="name" v="Lássevárri" />
		<tag k="name:se" v="Lássevárri" />
		<tag k="natural" v="hill" />
		<tag k="old_name:se" v="Lassevarri" />
		<tag k="place" v="locality" />
		<tag k="ssr:stedsnr" v="18357" />
	</node>
	<node lat="68.97398890252855" lon="25.300449723959055" id="-34762">
		<tag k="fixme" v="consider natural=peak for the most distinct mountains in the district" />
		<tag k="name" v="Sámmolašbeaska" />
		<tag k="name:se" v="Sámmolašbeaska" />
		<tag k="natural" v="hill" />
		<tag k="old_name:se" v="Sammulašbæska" />
		<tag k="place" v="locality" />
		<tag k="ssr:stedsnr" v="18609" />
	</node>
	<node lat="69.86268612644557" lon="25.813885804843018" id="-34769">
		<tag k="fixme" v="consider natural=peak for the most distinct mountains in the district" />
		<tag k="name" v="Stuorra Suoidnoaivi" />
		<tag k="name:se" v="Stuorra Suoidnoaivi" />
		<tag k="natural" v="hill" />
		<tag k="old_name:se" v="Suoidnoaivi, stuorra" />
		<tag k="place" v="locality" />
		<tag k="ssr:stedsnr" v="19909" />
	</node>
	<node lat="69.78526112605647" lon="26.116774656088403" id="-34770">
		<tag k="fixme" v="consider natural=peak for the most distinct mountains in the district" />
		<tag k="name" v="Bádjavárri" />
		<tag k="name:se" v="Bádjavárri" />
		<tag k="natural" v="hill" />
		<tag k="old_name:se" v="Baddjavarri" />
		<tag k="place" v="locality" />
		<tag k="ssr:stedsnr" v="19944" />
	</node>
	<node lat="69.52161667508351" lon="25.523733038669157" id="-34776">
		<tag k="name" v="Biittečopma" />
		<tag k="name:se" v="Biittečopma" />
		<tag k="natural" v="hill" />
		<tag k="place" v="locality" />
		<tag k="ssr:stedsnr" v="28087" />
	</node>
	<node lat="69.38819445647685" lon="25.160613640500628" id="-34789">
		<tag k="name" v="Riggáguolbba" />
		<tag k="name:se" v="Riggáguolbba" />
		<tag k="place" v="locality" />
		<tag k="ssr:stedsnr" v="28684" />
	</node>
	<node lat="69.39856390340682" lon="25.824038561692127" id="-34793">
		<tag k="name" v="Goivvohatjávrreluohkká" />
		<tag k="name:se" v="Goivvohatjávrreluohkká" />
		<tag k="natural" v="slope" />
		<tag k="place" v="locality" />
		<tag k="ssr:stedsnr" v="28983" />
	</node>
	<node lat="69.39821112109537" lon="25.833213554469722" id="-34794">
		<tag k="name" v="Gaskaluohkánjunni" />
		<tag k="name:se" v="Gaskaluohkánjunni" />
		<tag k="natural" v="slope" />
		<tag k="place" v="locality" />
		<tag k="ssr:stedsnr" v="28984" />
	</node>
	<node lat="69.72560834948709" lon="25.993207998362994" id="-34795">
		<tag k="name" v="Roavveávži" />
		<tag k="name:se" v="Roavveávži" />
		<tag k="natural" v="valley" />
		<tag k="old_name:se" v="Roavveavži" />
		<tag k="place" v="locality" />
		<tag k="ssr:stedsnr" v="28988" />
	</node>
	<node lat="68.90686112333952" lon="25.597935776959563" id="-34799">
		<tag k="name" v="Basávži" />
		<tag k="name:se" v="Basávži" />
		<tag k="natural" v="valley" />
		<tag k="old_name:se" v="Basavži" />
		<tag k="place" v="locality" />
		<tag k="ssr:stedsnr" v="78651" />
	</node>
	<node lat="69.69468889795168" lon="24.520577608491827" id="-34802">
		<tag k="name" v="Čearru" />
		<tag k="name:se" v="Čearru" />
		<tag k="natural" v="plateau" />
		<tag k="ssr:stedsnr" v="79249" />
	</node>
	<node lat="69.36000556461133" lon="24.57900814697888" id="-34805">
		<tag k="name" v="Ovddaldas" />
		<tag k="name:se" v="Ovddaldas" />
		<tag k="natural" v="valley" />
		<tag k="old_name:se" v="Åvdaldas" />
		<tag k="place" v="locality" />
		<tag k="ssr:stedsnr" v="79303" />
	</node>
	<node lat="69.66785000623015" lon="24.95474977716593" id="-34809">
		<tag k="name" v="Silesorda" />
		<tag k="name:se" v="Silesorda" />
		<tag k="natural" v="hill" />
		<tag k="old_name:se" v="Silesårda" />
		<tag k="place" v="locality" />
		<tag k="ssr:stedsnr" v="79301" />
	</node>
	<node lat="69.46251112264295" lon="25.45723584109143" id="-34814">
		<tag k="name" v="Rávdojohguolbba" />
		<tag k="name:se" v="Rávdojohguolbba" />
		<tag k="place" v="locality" />
		<tag k="ssr:stedsnr" v="85310" />
	</node>
	<node lat="69.47470556309398" lon="25.463969171316016" id="-34815">
		<tag k="name" v="Oalgevárbohki" />
		<tag k="name:se" v="Oalgevárbohki" />
		<tag k="natural" v="valley" />
		<tag k="place" v="locality" />
		<tag k="ssr:stedsnr" v="86589" />
	</node>
	<node lat="69.247925014955" lon="25.6164663514722" id="-34816">
		<tag k="fixme" v="consider natural=peak for the most distinct mountains in the district" />
		<tag k="name" v="Lávžejohklubbu" />
		<tag k="name:se" v="Lávžejohklubbu" />
		<tag k="natural" v="hill" />
		<tag k="place" v="locality" />
		<tag k="ssr:stedsnr" v="89122" />
	</node>
	<node lat="69.2076027871718" lon="25.702327452402436" id="-34818">
		<tag k="name" v="Válvu" />
		<tag k="name:se" v="Válvu" />
		<tag k="natural" v="hill" />
		<tag k="place" v="locality" />
		<tag k="ssr:stedsnr" v="89074" />
	</node>
	<node lat="69.43431667955609" lon="25.803627454182045" id="-34821">
		<tag k="fixme" v="consider natural=peak for the most distinct mountains in the district" />
		<tag k="name" v="Nuorroaivi" />
		<tag k="name:se" v="Nuorroaivi" />
		<tag k="natural" v="hill" />
		<tag k="place" v="locality" />
		<tag k="ssr:stedsnr" v="89505" />
	</node>
	<node lat="69.43419167862851" lon="25.249238645879775" id="-34824">
		<tag k="name" v="Niitomohkeluhppu" />
		<tag k="name:se" v="Niitomohkeluhppu" />
		<tag k="natural" v="valley" />
		<tag k="place" v="locality" />
		<tag k="ssr:stedsnr" v="89600" />
	</node>
	<node lat="69.34692501210043" lon="25.108719214072607" id="-34825">
		<tag k="name" v="Gáhritávži" />
		<tag k="name:se" v="Gáhritávži" />
		<tag k="natural" v="valley" />
		<tag k="place" v="locality" />
		<tag k="ssr:stedsnr" v="89711" />
	</node>
	<node lat="69.46722501212139" lon="25.176041424034164" id="-34827">
		<tag k="name" v="Iešvárráhppat" />
		<tag k="name:se" v="Iešvárráhppat" />
		<tag k="place" v="locality" />
		<tag k="ssr:stedsnr" v="89612" />
	</node>
	<node lat="69.41352223161202" lon="25.201969184072944" id="-34830">
		<tag k="name" v="Báhkilvárorda" />
		<tag k="name:se" v="Báhkilvárorda" />
		<tag k="place" v="locality" />
		<tag k="ssr:stedsnr" v="89617" />
	</node>
	<node lat="69.41531667914732" lon="25.152269202283442" id="-34831">
		<tag k="name" v="Buollánceahkki" />
		<tag k="name:se" v="Buollánceahkki" />
		<tag k="natural" v="slope" />
		<tag k="place" v="locality" />
		<tag k="ssr:stedsnr" v="89623" />
	</node>
	<node lat="69.31330278782578" lon="25.284955298919495" id="-34837">
		<tag k="fixme" v="consider natural=peak for the most distinct mountains in the district" />
		<tag k="name" v="Guovžilčohkka" />
		<tag k="name:se" v="Guovžilčohkka" />
		<tag k="natural" v="hill" />
		<tag k="old_name:se" v="Guovžilčåkka" />
		<tag k="place" v="locality" />
		<tag k="ssr:stedsnr" v="139002" />
	</node>
	<node lat="69.49169167591394" lon="25.356471947672357" id="-34839">
		<tag k="alt_name:se" v="Jalgesvađđa" />
		<tag k="fixme" v="consider natural=peak for the most distinct mountains in the district" />
		<tag k="name" v="Uhca Jalgesvađđa" />
		<tag k="name:se" v="Uhca Jalgesvađđa" />
		<tag k="natural" v="hill" />
		<tag k="old_name:se" v="Jalgesvađđa, ucca" />
		<tag k="place" v="locality" />
		<tag k="ssr:stedsnr" v="139188" />
	</node>
	<node lat="69.46041666874886" lon="24.4501081602784" id="-34843">
		<tag k="fixme" v="consider natural=peak for the most distinct mountains in the district" />
		<tag k="name" v="Hárrevárit" />
		<tag k="name:se" v="Hárrevárit" />
		<tag k="natural" v="hill" />
		<tag k="place" v="locality" />
		<tag k="ssr:stedsnr" v="139292" />
	</node>
	<node lat="69.46214167588744" lon="24.60913038201938" id="-34844">
		<tag k="fixme" v="consider natural=peak for the most distinct mountains in the district" />
		<tag k="name" v="Ráhpesvárri" />
		<tag k="name:se" v="Ráhpesvárri" />
		<tag k="natural" v="hill" />
		<tag k="old_name:se" v="Rappesvarri" />
		<tag k="place" v="locality" />
		<tag k="ssr:stedsnr" v="139293" />
	</node>
	<node lat="69.69430556841267" lon="25.752046926983056" id="-34846">
		<tag k="name" v="Davit Báštávži" />
		<tag k="name:se" v="Davit Báštávži" />
		<tag k="natural" v="valley" />
		<tag k="old_name:se" v="Bašteavži, davit" />
		<tag k="place" v="locality" />
		<tag k="ssr:stedsnr" v="139389" />
	</node>
	<node lat="69.69440556654484" lon="25.67160525080734" id="-34847">
		<tag k="name" v="Govdavuopmi" />
		<tag k="name:se" v="Govdavuopmi" />
		<tag k="natural" v="valley" />
		<tag k="old_name:se" v="Gåvdavuobmi" />
		<tag k="place" v="locality" />
		<tag k="ssr:stedsnr" v="139390" />
	</node>
	<node lat="69.6899777875749" lon="25.600349711942076" id="-34848">
		<tag k="fixme" v="consider natural=peak for the most distinct mountains in the district" />
		<tag k="name" v="Nigáčopma" />
		<tag k="name:se" v="Nigáčopma" />
		<tag k="natural" v="hill" />
		<tag k="old_name:se" v="Nigačåbma" />
		<tag k="place" v="locality" />
		<tag k="ssr:stedsnr" v="139391" />
	</node>
	<node lat="69.68308334070223" lon="25.879102454703073" id="-34849">
		<tag k="name" v="Čearpmatleahki" />
		<tag k="name:se" v="Čearpmatleahki" />
		<tag k="natural" v="valley" />
		<tag k="old_name:se" v="Čærbmatlækki" />
		<tag k="place" v="locality" />
		<tag k="ssr:stedsnr" v="139504" />
	</node>
	<node lat="69.044138902015" lon="25.492971900481777" id="-34851">
		<tag k="fixme" v="consider natural=peak for the most distinct mountains in the district" />
		<tag k="name" v="Stohkkečaŋŋá" />
		<tag k="name:se" v="Stohkkečaŋŋá" />
		<tag k="natural" v="hill" />
		<tag k="old_name:se" v="Stokkečaŋŋa;Stohkkečaŋŋa" />
		<tag k="place" v="locality" />
		<tag k="ssr:stedsnr" v="139744" />
	</node>
	<node lat="69.14663509510824" lon="25.023081839615283" id="-34852">
		<tag k="fixme" v="consider natural=peak for the most distinct mountains in the district" />
		<tag k="name" v="Geasságielas" />
		<tag k="name:se" v="Geasságielas" />
		<tag k="natural" v="hill" />
		<tag k="old_name:se" v="Gæssagielas" />
		<tag k="place" v="locality" />
		<tag k="ssr:stedsnr" v="139903" />
	</node>
	<node lat="69.45760556431382" lon="25.81798022715779" id="-34863">
		<tag k="name" v="Mádjorjohguolbba" />
		<tag k="name:se" v="Mádjorjohguolbba" />
		<tag k="place" v="locality" />
		<tag k="ssr:stedsnr" v="149529" />
	</node>
	<node lat="69.45498056230765" lon="25.748083018875885" id="-34864">
		<tag k="name" v="Itkkočopma" />
		<tag k="name:se" v="Itkkočopma" />
		<tag k="natural" v="hill" />
		<tag k="place" v="locality" />
		<tag k="ssr:stedsnr" v="149532" />
	</node>
	<node lat="69.3486666702769" lon="24.670849796656764" id="-34869">
		<tag k="fixme" v="consider natural=peak for the most distinct mountains in the district" />
		<tag k="name" v="Bikká-Biret-Vuolitvárri" />
		<tag k="name:se" v="Bikká-Biret-Vuolitvárri" />
		<tag k="natural" v="hill" />
		<tag k="place" v="locality" />
		<tag k="ssr:stedsnr" v="149422" />
	</node>
	<node lat="69.39811112059627" lon="24.62964702646457" id="-34870">
		<tag k="name" v="Doaresdievvá" />
		<tag k="name:se" v="Doaresdievvá" />
		<tag k="natural" v="hill" />
		<tag k="place" v="locality" />
		<tag k="ssr:stedsnr" v="149425" />
	</node>
	<node lat="69.41573056785373" lon="25.3877997164339" id="-34872">
		<tag k="fixme" v="consider natural=peak for the most distinct mountains in the district" />
		<tag k="name" v="Ánddegálgodievvá" />
		<tag k="name:se" v="Ánddegálgodievvá" />
		<tag k="natural" v="hill" />
		<tag k="place" v="locality" />
		<tag k="ssr:stedsnr" v="149441" />
	</node>
	<node lat="69.41065001086568" lon="24.661283146076403" id="-34873">
		<tag k="fixme" v="consider natural=peak for the most distinct mountains in the district" />
		<tag k="name" v="Suhpenjunesvárregeahče" />
		<tag k="name:se" v="Suhpenjunesvárregeahče" />
		<tag k="natural" v="hill" />
		<tag k="place" v="locality" />
		<tag k="ssr:stedsnr" v="149454" />
	</node>
	<node lat="68.91671667558096" lon="25.099752502171523" id="-34892">
		<tag k="fixme" v="consider natural=peak for the most distinct mountains in the district" />
		<tag k="name" v="Gollevárri" />
		<tag k="name:se" v="Gollevárri" />
		<tag k="natural" v="hill" />
		<tag k="old_name:se" v="Gållevarri" />
		<tag k="place" v="locality" />
		<tag k="ssr:stedsnr" v="260878" />
	</node>
	<node lat="69.38441667868477" lon="25.40337473013842" id="-34894">
		<tag k="fixme" v="consider natural=peak for the most distinct mountains in the district" />
		<tag k="name" v="Ell-áhkoeana" />
		<tag k="name:se" v="Ell-áhkoeana" />
		<tag k="natural" v="hill" />
		<tag k="old_name:se" v="Ellakkuæna" />
		<tag k="place" v="locality" />
		<tag k="ssr:stedsnr" v="261021" />
	</node>
	<node lat="69.42311389624638" lon="25.700002469930382" id="-34895">
		<tag k="alt_name:se" v="Siffarčohkka" />
		<tag k="fixme" v="consider natural=peak for the most distinct mountains in the district" />
		<tag k="name" v="Siffarvárri" />
		<tag k="name:se" v="Siffarvárri" />
		<tag k="natural" v="hill" />
		<tag k="old_name:se" v="Siffarvarri" />
		<tag k="place" v="locality" />
		<tag k="ssr:stedsnr" v="261030" />
	</node>
	<node lat="69.4063500105684" lon="25.044638653112962" id="-34896">
		<tag k="name" v="Dihkkávađđa" />
		<tag k="name:se" v="Dihkkávađđa" />
		<tag k="old_name:se" v="Dikkavađđa" />
		<tag k="place" v="locality" />
		<tag k="ssr:stedsnr" v="261147" />
	</node>
	<node lat="69.37819167468658" lon="25.01873310781622" id="-34899">
		<tag k="fixme" v="consider natural=peak for the most distinct mountains in the district" />
		<tag k="name" v="Uhca Doigesvađđa" />
		<tag k="name:se" v="Uhca Doigesvađđa" />
		<tag k="natural" v="hill" />
		<tag k="old_name:se" v="Daigesvađđa, ucca" />
		<tag k="place" v="locality" />
		<tag k="ssr:stedsnr" v="261132" />
	</node>
	<node lat="69.25573889992997" lon="25.065110872022956" id="-34905">
		<tag k="name" v="Mirkkocahca" />
		<tag k="name:se" v="Mirkkocahca" />
		<tag k="old_name:se" v="Mirkucacca" />
		<tag k="place" v="locality" />
		<tag k="ssr:stedsnr" v="261178" />
	</node>
	<node lat="69.48424445195757" lon="25.634394142564812" id="-34910">
		<tag k="fixme" v="consider natural=peak for the most distinct mountains in the district" />
		<tag k="name" v="Jalgesčielgi" />
		<tag k="name:se" v="Jalgesčielgi" />
		<tag k="natural" v="hill" />
		<tag k="place" v="locality" />
		<tag k="ssr:stedsnr" v="261191" />
	</node>
	<node lat="69.74613333895002" lon="24.966763691220468" id="-34912">
		<tag k="fixme" v="consider natural=peak for the most distinct mountains in the district" />
		<tag k="name" v="Luovosvárri" />
		<tag k="name:se" v="Luovosvárri" />
		<tag k="natural" v="hill" />
		<tag k="old_name:se" v="Luovusvarri" />
		<tag k="place" v="locality" />
		<tag k="ssr:stedsnr" v="261279" />
	</node>
	<node lat="69.53592778424195" lon="25.09142476100753" id="-34917">
		<tag k="name" v="Geaimmesuolu" />
		<tag k="name:se" v="Geaimmesuolu" />
		<tag k="natural" v="mountain_range" />
		<tag k="old_name:se" v="Gæimesuolo;Geaimmesuolo" />
		<tag k="ssr:stedsnr" v="261362" />
	</node>
	<node lat="69.51970000748837" lon="25.17052475869466" id="-34918">
		<tag k="fixme" v="consider natural=peak for the most distinct mountains in the district" />
		<tag k="name" v="Fárppalvárri" />
		<tag k="name:se" v="Fárppalvárri" />
		<tag k="natural" v="hill" />
		<tag k="old_name:se" v="Farpalvarri" />
		<tag k="place" v="locality" />
		<tag k="ssr:stedsnr" v="261364" />
	</node>
	<node lat="69.6065250052989" lon="24.721099801220056" id="-34920">
		<tag k="fixme" v="consider natural=peak for the most distinct mountains in the district" />
		<tag k="name" v="Doggejohráhppát" />
		<tag k="name:se" v="Doggejohráhppát" />
		<tag k="natural" v="hill" />
		<tag k="old_name:se" v="Dåggejåkrappat" />
		<tag k="place" v="locality" />
		<tag k="ssr:stedsnr" v="261370" />
	</node>
	<node lat="69.56523056157435" lon="24.883327573373965" id="-34925">
		<tag k="fixme" v="consider natural=peak for the most distinct mountains in the district" />
		<tag k="name" v="Uhca Částenoaivi" />
		<tag k="name:se" v="Uhca Částenoaivi" />
		<tag k="natural" v="hill" />
		<tag k="old_name:se" v="Častenoaivi, ucca" />
		<tag k="place" v="locality" />
		<tag k="ssr:stedsnr" v="261375" />
	</node>
	<node lat="69.50336390326547" lon="25.707121903567472" id="-34927">
		<tag k="fixme" v="consider natural=peak for the most distinct mountains in the district" />
		<tag k="name" v="Njárgasaš" />
		<tag k="name:se" v="Njárgasaš" />
		<tag k="natural" v="hill" />
		<tag k="place" v="locality" />
		<tag k="ssr:stedsnr" v="261444" />
	</node>
	<node lat="69.57550556541578" lon="25.573980256986257" id="-34930">
		<tag k="name" v="Gimešvárbohki" />
		<tag k="name:se" v="Gimešvárbohki" />
		<tag k="natural" v="valley" />
		<tag k="old_name:se" v="Gimesvarbåkki" />
		<tag k="place" v="locality" />
		<tag k="ssr:stedsnr" v="261473" />
	</node>
	<node lat="69.06926112275109" lon="24.72326089093311" id="-34935">
		<tag k="name" v="Stelletrohči" />
		<tag k="name:se" v="Stelletrohči" />
		<tag k="natural" v="valley" />
		<tag k="old_name:se" v="Stelletråčči" />
		<tag k="place" v="locality" />
		<tag k="ssr:stedsnr" v="261801" />
	</node>
	<node lat="69.1297694578526" lon="24.973527539363833" id="-34940">
		<tag k="fixme" v="consider natural=peak for the most distinct mountains in the district" />
		<tag k="name" v="Nuorttamus Hánnoaivi" />
		<tag k="name:se" v="Nuorttamus Hánnoaivi" />
		<tag k="natural" v="hill" />
		<tag k="old_name:se" v="Hannoaivi, nuortamus;Hánnoaivi" />
		<tag k="place" v="locality" />
		<tag k="ssr:stedsnr" v="261881" />
	</node>
	<node lat="69.8079222306169" lon="25.865949682144954" id="-34945">
		<tag k="fixme" v="consider natural=peak for the most distinct mountains in the district" />
		<tag k="name" v="Ráktoaivi" />
		<tag k="name:se" v="Ráktoaivi" />
		<tag k="natural" v="hill" />
		<tag k="old_name:se" v="Raktoaivi" />
		<tag k="place" v="locality" />
		<tag k="ssr:stedsnr" v="262955" />
	</node>
	<node lat="69.29725279140963" lon="25.369088614120315" id="-34953">
		<tag k="fixme" v="consider natural=peak for the most distinct mountains in the district" />
		<tag k="name" v="Iškoras" />
		<tag k="name:se" v="Iškoras" />
		<tag k="natural" v="hill" />
		<tag k="place" v="locality" />
		<tag k="ssr:stedsnr" v="200059" />
	</node>
	<node lat="69.2981083419659" lon="25.355460828157703" id="-34954">
		<tag k="name" v="Stuorrabohki" />
		<tag k="name:se" v="Stuorrabohki" />
		<tag k="natural" v="valley" />
		<tag k="old_name:se" v="Stuorrabåkki" />
		<tag k="place" v="locality" />
		<tag k="ssr:stedsnr" v="200064" />
	</node>
	<node lat="69.55668334509761" lon="25.682794153150827" id="-34958">
		<tag k="fixme" v="consider natural=peak for the most distinct mountains in the district" />
		<tag k="name" v="Skierrevárri" />
		<tag k="name:se" v="Skierrevárri" />
		<tag k="natural" v="hill" />
		<tag k="old_name:se" v="Skierrevarri" />
		<tag k="place" v="locality" />
		<tag k="ssr:stedsnr" v="200465" />
	</node>
	<node lat="69.5403916738555" lon="25.36898028193224" id="-34959">
		<tag k="name" v="Bođusčomat" />
		<tag k="name:se" v="Bođusčomat" />
		<tag k="natural" v="hill" />
		<tag k="old_name:se" v="Båđosčåmat" />
		<tag k="place" v="locality" />
		<tag k="ssr:stedsnr" v="200467" />
	</node>
	<node lat="69.57320000875356" lon="24.572424831866783" id="-34961">
		<tag k="fixme" v="consider natural=peak for the most distinct mountains in the district" />
		<tag k="name" v="Rásánoaivvit" />
		<tag k="name:se" v="Rásánoaivvit" />
		<tag k="natural" v="hill" />
		<tag k="place" v="locality" />
		<tag k="ssr:stedsnr" v="200307" />
	</node>
	<node lat="69.395847226608" lon="24.230933175661495" id="-34962">
		<tag k="fixme" v="consider natural=peak for the most distinct mountains in the district" />
		<tag k="name" v="Rihtávárri" />
		<tag k="name:se" v="Rihtávárri" />
		<tag k="natural" v="hill" />
		<tag k="old_name:se" v="Rittavarri" />
		<tag k="place" v="locality" />
		<tag k="ssr:stedsnr" v="200310" />
	</node>
	<node lat="69.54385001071297" lon="25.21644974512712" id="-34965">
		<tag k="fixme" v="consider natural=peak for the most distinct mountains in the district" />
		<tag k="name" v="Vuoskkováraláš" />
		<tag k="name:se" v="Vuoskkováraláš" />
		<tag k="natural" v="hill" />
		<tag k="old_name:se" v="Vuoskuvaralaš" />
		<tag k="place" v="locality" />
		<tag k="ssr:stedsnr" v="200353" />
	</node>
	<node lat="69.78266668018391" lon="25.944908014652004" id="-34972">
		<tag k="name" v="Sohpparávžženjálbmi" />
		<tag k="name:se" v="Sohpparávžženjálbmi" />
		<tag k="natural" v="valley" />
		<tag k="old_name:se" v="Såpparavženjalbmi" />
		<tag k="place" v="locality" />
		<tag k="ssr:stedsnr" v="201951" />
	</node>
	<node lat="69.82841945575298" lon="26.019319101587094" id="-34973">
		<tag k="fixme" v="consider natural=peak for the most distinct mountains in the district" />
		<tag k="name" v="Báktevárri" />
		<tag k="name:se" v="Báktevárri" />
		<tag k="natural" v="hill" />
		<tag k="old_name:se" v="Baktevarri" />
		<tag k="place" v="locality" />
		<tag k="ssr:stedsnr" v="201957" />
	</node>
	<node lat="69.46566667834588" lon="25.47621637936387" id="-34978">
		<tag k="name" v="Vullošguolbba" />
		<tag k="name:se" v="Vullošguolbba" />
		<tag k="place" v="locality" />
		<tag k="ssr:stedsnr" v="206360" />
	</node>
	<node lat="69.46058612620813" lon="25.48317471395778" id="-34980">
		<tag k="name" v="Bávttáš" />
		<tag k="name:se" v="Bávttáš" />
		<tag k="natural" v="hill" />
		<tag k="place" v="locality" />
		<tag k="ssr:stedsnr" v="210229" />
	</node>
	<node lat="69.41386111974934" lon="25.05068864616605" id="-34984">
		<tag k="fixme" v="consider natural=peak for the most distinct mountains in the district" />
		<tag k="name" v="Doigesvađđa" />
		<tag k="name:se" v="Doigesvađđa" />
		<tag k="natural" v="hill" />
		<tag k="place" v="locality" />
		<tag k="ssr:stedsnr" v="210635" />
	</node>
	<node lat="69.4076416726911" lon="25.180977527304027" id="-34985">
		<tag k="name" v="Buollángeahči" />
		<tag k="name:se" v="Buollángeahči" />
		<tag k="place" v="locality" />
		<tag k="ssr:stedsnr" v="210703" />
	</node>
	<node lat="69.42524722896239" lon="24.952774765417047" id="-34989">
		<tag k="fixme" v="consider natural=peak for the most distinct mountains in the district" />
		<tag k="name" v="Buolžžaskárbuolža" />
		<tag k="name:se" v="Buolžžaskárbuolža" />
		<tag k="natural" v="hill" />
		<tag k="place" v="locality" />
		<tag k="ssr:stedsnr" v="211005" />
	</node>
	<node lat="69.47967222795397" lon="25.442127499417015" id="-34990">
		<tag k="name" v="Gorželuohkká" />
		<tag k="name:se" v="Gorželuohkká" />
		<tag k="natural" v="slope" />
		<tag k="place" v="locality" />
		<tag k="ssr:stedsnr" v="211285" />
	</node>
	<node lat="69.39448056579623" lon="24.596708151897136" id="-34991">
		<tag k="name" v="Uhcávži" />
		<tag k="name:se" v="Uhcávži" />
		<tag k="natural" v="valley" />
		<tag k="place" v="locality" />
		<tag k="ssr:stedsnr" v="211429" />
	</node>
	<node lat="69.36513889952867" lon="24.334958165581934" id="-34992">
		<tag k="name" v="Juvve-Ráikogurra" />
		<tag k="name:se" v="Juvve-Ráikogurra" />
		<tag k="natural" v="valley" />
		<tag k="place" v="locality" />
		<tag k="ssr:stedsnr" v="211641" />
	</node>
	<node lat="69.4653638962671" lon="25.538846918724445" id="-34995">
		<tag k="name" v="Niitoguolbba" />
		<tag k="name:se" v="Niitoguolbba" />
		<tag k="place" v="locality" />
		<tag k="ssr:stedsnr" v="211928" />
	</node>
	<node lat="69.25367223672522" lon="25.647838558904127" id="-34999">
		<tag k="name" v="Reidárčopma" />
		<tag k="name:se" v="Reidárčopma" />
		<tag k="natural" v="hill" />
		<tag k="place" v="locality" />
		<tag k="ssr:stedsnr" v="271112" />
	</node>
	<node lat="69.38997222924667" lon="24.407530380473144" id="-35005">
		<tag k="fixme" v="consider natural=peak for the most distinct mountains in the district" />
		<tag k="name" v="Jalgesvárgeahči" />
		<tag k="name:se" v="Jalgesvárgeahči" />
		<tag k="natural" v="hill" />
		<tag k="place" v="locality" />
		<tag k="ssr:stedsnr" v="271346" />
	</node>
	<node lat="69.47983334934129" lon="25.85073021261979" id="-35020">
		<tag k="name" v="Hoašširguolbba" />
		<tag k="name:se" v="Hoašširguolbba" />
		<tag k="place" v="locality" />
		<tag k="ssr:stedsnr" v="271628" />
	</node>
	<node lat="69.43747778407626" lon="25.263319188973455" id="-35021">
		<tag k="name" v="Námmamielli" />
		<tag k="name:se" v="Námmamielli" />
		<tag k="natural" v="slope" />
		<tag k="place" v="locality" />
		<tag k="ssr:stedsnr" v="271632" />
	</node>
	<node lat="69.43540278614164" lon="25.23033864770758" id="-35023">
		<tag k="name" v="Divgadievvá" />
		<tag k="name:se" v="Divgadievvá" />
		<tag k="place" v="locality" />
		<tag k="ssr:stedsnr" v="271640" />
	</node>
	<node lat="69.45249722850262" lon="25.26952753105981" id="-35024">
		<tag k="fixme" v="consider natural=peak for the most distinct mountains in the district" />
		<tag k="name" v="Alla Bálu" />
		<tag k="name:se" v="Alla Bálu" />
		<tag k="natural" v="hill" />
		<tag k="place" v="locality" />
		<tag k="ssr:stedsnr" v="271644" />
	</node>
	<node lat="69.37878890039532" lon="25.157035869824064" id="-35026">
		<tag k="name" v="Goaskinbákti" />
		<tag k="name:se" v="Goaskinbákti" />
		<tag k="natural" v="hill" />
		<tag k="place" v="locality" />
		<tag k="ssr:stedsnr" v="271727" />
	</node>
	<node lat="69.42395834156508" lon="25.057516436717933" id="-35027">
		<tag k="name" v="Loddeávži" />
		<tag k="name:se" v="Loddeávži" />
		<tag k="natural" v="valley" />
		<tag k="place" v="locality" />
		<tag k="ssr:stedsnr" v="271676" />
	</node>
	<node lat="69.33770556702649" lon="25.081388653686663" id="-35033">
		<tag k="name" v="Šuolggaguolbba" />
		<tag k="name:se" v="Šuolggaguolbba" />
		<tag k="place" v="locality" />
		<tag k="ssr:stedsnr" v="271758" />
	</node>
	<node lat="69.45081112092414" lon="25.672149686376606" id="-35038">
		<tag k="name" v="Guhkesleahki" />
		<tag k="name:se" v="Guhkesleahki" />
		<tag k="natural" v="valley" />
		<tag k="place" v="locality" />
		<tag k="ssr:stedsnr" v="271842" />
	</node>
	<node lat="69.2114805700295" lon="25.687783002542634" id="-35043">
		<tag k="name" v="Lasedeaičohkka" />
		<tag k="name:se" v="Lasedeaičohkka" />
		<tag k="natural" v="hill" />
		<tag k="place" v="locality" />
		<tag k="ssr:stedsnr" v="453078" />
	</node>
	<node lat="69.46138056437138" lon="25.49953581291854" id="-35045">
		<tag k="name" v="Guhkesgurra" />
		<tag k="name:se" v="Guhkesgurra" />
		<tag k="natural" v="valley" />
		<tag k="place" v="locality" />
		<tag k="ssr:stedsnr" v="453097" />
	</node>
	<node lat="69.3986500048899" lon="24.636080360620646" id="-35046">
		<tag k="name" v="Jergoljohguolbba" />
		<tag k="name:se" v="Jergoljohguolbba" />
		<tag k="place" v="locality" />
		<tag k="ssr:stedsnr" v="453428" />
	</node>
	<node lat="69.46813056363689" lon="25.50491081383296" id="-35048">
		<tag k="name" v="Lenaroggi" />
		<tag k="name:se" v="Lenaroggi" />
		<tag k="natural" v="valley" />
		<tag k="place" v="locality" />
		<tag k="ssr:stedsnr" v="453251" />
	</node>
	<node lat="69.67299446011894" lon="25.83616079198821" id="-35052">
		<tag k="fixme" v="consider natural=peak for the most distinct mountains in the district" />
		<tag k="name" v="Ántonjunni" />
		<tag k="name:se" v="Ántonjunni" />
		<tag k="natural" v="hill" />
		<tag k="place" v="locality" />
		<tag k="ssr:stedsnr" v="453557" />
	</node>
	<node lat="69.42215834316313" lon="25.19485808833266" id="-35054">
		<tag k="name" v="Várregaskkat" />
		<tag k="name:se" v="Várregaskkat" />
		<tag k="natural" v="valley" />
		<tag k="place" v="locality" />
		<tag k="ssr:stedsnr" v="453626" />
	</node>
	<node lat="69.45956945759346" lon="25.587891365831858" id="-35067">
		<tag k="name" v="Mánnevárguolbba" />
		<tag k="name:se" v="Mánnevárguolbba" />
		<tag k="place" v="locality" />
		<tag k="ssr:stedsnr" v="453890" />
	</node>
	<node lat="69.59929167903242" lon="25.911238544354322" id="-35068">
		<tag k="fixme" v="consider natural=peak for the most distinct mountains in the district" />
		<tag k="name" v="Oapmeroavvi" />
		<tag k="name:se" v="Oapmeroavvi" />
		<tag k="natural" v="hill" />
		<tag k="place" v="locality" />
		<tag k="ssr:stedsnr" v="453986" />
	</node>
	<node lat="69.5505166811492" lon="25.817094114778804" id="-35072">
		<tag k="name" v="Vađabogeguolbba" />
		<tag k="name:se" v="Vađabogeguolbba" />
		<tag k="place" v="locality" />
		<tag k="ssr:stedsnr" v="453920" />
	</node>
	<node lat="69.4178194595586" lon="25.666133013635157" id="-35074">
		<tag k="name" v="Boazovađđa" />
		<tag k="name:se" v="Boazovađđa" />
		<tag k="place" v="locality" />
		<tag k="ssr:stedsnr" v="453933" />
	</node>
	<node lat="69.30753612128605" lon="25.30736638774823" id="-35080">
		<tag k="name" v="Gaskabohki" />
		<tag k="name:se" v="Gaskabohki" />
		<tag k="natural" v="valley" />
		<tag k="old_name:se" v="Gaskabåkki" />
		<tag k="place" v="locality" />
		<tag k="ssr:stedsnr" v="261003" />
	</node>
	<node lat="69.30773056619273" lon="25.277616408658968" id="-35081">
		<tag k="name" v="Guovžilbohki" />
		<tag k="name:se" v="Guovžilbohki" />
		<tag k="natural" v="valley" />
		<tag k="old_name:se" v="Guovžilbåkki" />
		<tag k="place" v="locality" />
		<tag k="ssr:stedsnr" v="261005" />
	</node>
	<node lat="69.36525834375021" lon="25.45588026386686" id="-35082">
		<tag k="name" v="Vuolit Rohči" />
		<tag k="name:se" v="Vuolit Rohči" />
		<tag k="natural" v="valley" />
		<tag k="old_name:se" v="Råčči, vuolit" />
		<tag k="place" v="locality" />
		<tag k="ssr:stedsnr" v="261008" />
	</node>
	<node lat="69.55995278736634" lon="24.467688726700324" id="-35085">
		<tag k="fixme" v="consider natural=peak for the most distinct mountains in the district" />
		<tag k="name" v="Návlesaigielas" />
		<tag k="name:se" v="Návlesaigielas" />
		<tag k="natural" v="hill" />
		<tag k="old_name:se" v="Navlesaigielas" />
		<tag k="place" v="locality" />
		<tag k="ssr:stedsnr" v="261300" />
	</node>
	<node lat="69.38747223201537" lon="24.382397056784963" id="-35086">
		<tag k="alt_name:se" v="Bahásašvárri" />
		<tag k="fixme" v="consider natural=peak for the most distinct mountains in the district" />
		<tag k="name" v="Bahásvárri" />
		<tag k="name:se" v="Bahásvárri" />
		<tag k="natural" v="hill" />
		<tag k="old_name:se" v="Bahasvarri" />
		<tag k="place" v="locality" />
		<tag k="ssr:stedsnr" v="261301" />
	</node>
	<node lat="69.68387500626963" lon="24.86042481073153" id="-35091">
		<tag k="name" v="Stiippanávži" />
		<tag k="name:se" v="Stiippanávži" />
		<tag k="natural" v="valley" />
		<tag k="old_name:se" v="Stiipanavži" />
		<tag k="place" v="locality" />
		<tag k="ssr:stedsnr" v="261347" />
	</node>
	<node lat="69.72186112404579" lon="25.759052481547396" id="-35094">
		<tag k="name" v="Ástevárbohki" />
		<tag k="name:se" v="Ástevárbohki" />
		<tag k="natural" v="valley" />
		<tag k="old_name:se" v="Astevarbåkki" />
		<tag k="place" v="locality" />
		<tag k="ssr:stedsnr" v="261401" />
	</node>
	<node lat="69.63643056874295" lon="25.848383018141153" id="-35095">
		<tag k="fixme" v="consider natural=peak for the most distinct mountains in the district" />
		<tag k="name" v="Vuovdavárri" />
		<tag k="name:se" v="Vuovdavárri" />
		<tag k="natural" v="hill" />
		<tag k="old_name:se" v="Vuovdavarri" />
		<tag k="place" v="locality" />
		<tag k="ssr:stedsnr" v="261505" />
	</node>
	<node lat="69.71317779326483" lon="25.917430225731838" id="-35096">
		<tag k="fixme" v="consider natural=peak for the most distinct mountains in the district" />
		<tag k="name" v="Biellovárri" />
		<tag k="name:se" v="Biellovárri" />
		<tag k="natural" v="hill" />
		<tag k="old_name:se" v="Bielluvarri" />
		<tag k="place" v="locality" />
		<tag k="ssr:stedsnr" v="261508" />
	</node>
	<node lat="69.51017500972486" lon="24.682602581822042" id="-35101">
		<tag k="fixme" v="consider natural=peak for the most distinct mountains in the district" />
		<tag k="name" v="Guškkesoaivi" />
		<tag k="name:se" v="Guškkesoaivi" />
		<tag k="natural" v="hill" />
		<tag k="old_name:se" v="Guškesoaivi" />
		<tag k="place" v="locality" />
		<tag k="ssr:stedsnr" v="262415" />
	</node>
	<node lat="69.76632779321538" lon="26.047005215305518" id="-35102">
		<tag k="name" v="Stárusvađđa" />
		<tag k="name:se" v="Stárusvađđa" />
		<tag k="old_name:se" v="Starosvađđa;Stárosvađđa" />
		<tag k="place" v="locality" />
		<tag k="ssr:stedsnr" v="262947" />
	</node>
	<node lat="69.76590001480133" lon="26.12002741918487" id="-35103">
		<tag k="fixme" v="consider natural=peak for the most distinct mountains in the district" />
		<tag k="name" v="Gámasvárri" />
		<tag k="name:se" v="Gámasvárri" />
		<tag k="natural" v="hill" />
		<tag k="old_name:se" v="Gamasvarri" />
		<tag k="place" v="locality" />
		<tag k="ssr:stedsnr" v="262948" />
	</node>
	<node lat="69.45935556068355" lon="25.449058061842397" id="-35110">
		<tag k="name" v="Badjeluohkká" />
		<tag k="name:se" v="Badjeluohkká" />
		<tag k="natural" v="slope" />
		<tag k="place" v="locality" />
		<tag k="ssr:stedsnr" v="271379" />
	</node>
	<node lat="69.47760834288218" lon="25.84907187499812" id="-35115">
		<tag k="name" v="Roavvesavvonbákti" />
		<tag k="name:se" v="Roavvesavvonbákti" />
		<tag k="natural" v="hill" />
		<tag k="place" v="locality" />
		<tag k="ssr:stedsnr" v="271627" />
	</node>
	<node lat="69.37364167404128" lon="25.151199742911135" id="-35121">
		<tag k="name" v="Máretčohkka" />
		<tag k="name:se" v="Máretčohkka" />
		<tag k="natural" v="hill" />
		<tag k="place" v="locality" />
		<tag k="ssr:stedsnr" v="271723" />
	</node>
	<node lat="69.35790001128274" lon="25.15128864829786" id="-35123">
		<tag k="name" v="Geilebákti" />
		<tag k="name:se" v="Geilebákti" />
		<tag k="natural" v="hill" />
		<tag k="place" v="locality" />
		<tag k="ssr:stedsnr" v="271803" />
	</node>
	<node lat="69.33808890356336" lon="25.556819150329506" id="-35130">
		<tag k="fixme" v="consider natural=peak for the most distinct mountains in the district" />
		<tag k="name" v="Ávžegeaščopma" />
		<tag k="name:se" v="Ávžegeaščopma" />
		<tag k="natural" v="hill" />
		<tag k="old_name:se" v="Avžegæščåbma" />
		<tag k="place" v="locality" />
		<tag k="ssr:stedsnr" v="321004" />
	</node>
	<node lat="69.3674805605812" lon="25.371219177012506" id="-35131">
		<tag k="fixme" v="consider natural=peak for the most distinct mountains in the district" />
		<tag k="name" v="Bálggesvárseaibbuš" />
		<tag k="name:se" v="Bálggesvárseaibbuš" />
		<tag k="natural" v="hill" />
		<tag k="old_name:se" v="Balgesvarsæiboš" />
		<tag k="place" v="locality" />
		<tag k="ssr:stedsnr" v="321006" />
	</node>
	<node lat="69.26146667845535" lon="24.644438683346017" id="-35143">
		<tag k="fixme" v="consider natural=peak for the most distinct mountains in the district" />
		<tag k="name" v="Duoibilaláš" />
		<tag k="name:se" v="Duoibilaláš" />
		<tag k="natural" v="hill" />
		<tag k="old_name:se" v="Duoibilalaš" />
		<tag k="place" v="locality" />
		<tag k="ssr:stedsnr" v="322196" />
	</node>
	<node lat="69.23011945515618" lon="24.69661369648189" id="-35147">
		<tag k="fixme" v="consider natural=peak for the most distinct mountains in the district" />
		<tag k="name" v="Mirkkaláš" />
		<tag k="name:se" v="Mirkkaláš" />
		<tag k="natural" v="hill" />
		<tag k="old_name:se" v="Mirkalaš" />
		<tag k="place" v="locality" />
		<tag k="ssr:stedsnr" v="322879" />
	</node>
	<node lat="69.4550389023314" lon="25.540063587216206" id="-35150">
		<tag k="fixme" v="consider natural=peak for the most distinct mountains in the district" />
		<tag k="name" v="Laŧeeana" />
		<tag k="name:se" v="Laŧeeana" />
		<tag k="natural" v="hill" />
		<tag k="place" v="locality" />
		<tag k="ssr:stedsnr" v="332110" />
	</node>
	<node lat="69.41634722795662" lon="24.98673589471578" id="-35151">
		<tag k="name" v="Ellároggi" />
		<tag k="name:se" v="Ellároggi" />
		<tag k="natural" v="valley" />
		<tag k="place" v="locality" />
		<tag k="ssr:stedsnr" v="332022" />
	</node>
	<node lat="69.42741111924276" lon="24.72103314078842" id="-35154">
		<tag k="fixme" v="consider natural=peak for the most distinct mountains in the district" />
		<tag k="name" v="Liidnebeahcančopma" />
		<tag k="name:se" v="Liidnebeahcančopma" />
		<tag k="natural" v="hill" />
		<tag k="place" v="locality" />
		<tag k="ssr:stedsnr" v="332450" />
	</node>
	<node lat="69.4365472278757" lon="25.463433057953925" id="-35155">
		<tag k="name" v="Várrečeavát" />
		<tag k="name:se" v="Várrečeavát" />
		<tag k="place" v="locality" />
		<tag k="ssr:stedsnr" v="332459" />
	</node>
	<node lat="69.46745556750619" lon="25.487808053797735" id="-35157">
		<tag k="name" v="Njoammilguolbba" />
		<tag k="name:se" v="Njoammilguolbba" />
		<tag k="place" v="locality" />
		<tag k="ssr:stedsnr" v="332307" />
	</node>
	<node lat="69.36701111863432" lon="25.14900808896183" id="-35165">
		<tag k="name" v="Gorvválásis" />
		<tag k="name:se" v="Gorvválásis" />
		<tag k="natural" v="hill" />
		<tag k="place" v="locality" />
		<tag k="ssr:stedsnr" v="332748" />
	</node>
	<node lat="69.47721667463806" lon="25.478285830045966" id="-35168">
		<tag k="name" v="Rihtáčopma" />
		<tag k="name:se" v="Rihtáčopma" />
		<tag k="natural" v="hill" />
		<tag k="place" v="locality" />
		<tag k="ssr:stedsnr" v="333502" />
	</node>
	<node lat="69.34066389940541" lon="25.702827447138674" id="-35173">
		<tag k="fixme" v="consider natural=peak for the most distinct mountains in the district" />
		<tag k="name" v="Mirkkočielgi" />
		<tag k="name:se" v="Mirkkočielgi" />
		<tag k="natural" v="hill" />
		<tag k="old_name:se" v="Mirkučielgi" />
		<tag k="place" v="locality" />
		<tag k="ssr:stedsnr" v="382007" />
	</node>
	<node lat="69.53492500910576" lon="25.320141410563394" id="-35185">
		<tag k="fixme" v="consider natural=peak for the most distinct mountains in the district" />
		<tag k="name" v="Jalgesvađđa" />
		<tag k="name:se" v="Jalgesvađđa" />
		<tag k="natural" v="hill" />
		<tag k="old_name:se" v="Jalgesvađ'đa" />
		<tag k="place" v="locality" />
		<tag k="ssr:stedsnr" v="382457" />
	</node>
	<node lat="69.5712611204284" lon="25.7492524624188" id="-35186">
		<tag k="fixme" v="consider natural=peak for the most distinct mountains in the district" />
		<tag k="name" v="Soarvečopma" />
		<tag k="name:se" v="Soarvečopma" />
		<tag k="natural" v="hill" />
		<tag k="old_name:se" v="Soarvečåbma" />
		<tag k="place" v="locality" />
		<tag k="ssr:stedsnr" v="382463" />
	</node>
	<node lat="69.13640001043338" lon="25.498988570702256" id="-35190">
		<tag k="name" v="Goššjohluhppu" />
		<tag k="name:se" v="Goššjohluhppu" />
		<tag k="natural" v="valley" />
		<tag k="old_name:se" v="Gåššjåkluppo" />
		<tag k="place" v="locality" />
		<tag k="ssr:stedsnr" v="382859" />
	</node>
	<node lat="69.82400000972218" lon="25.634888594792926" id="-35191">
		<tag k="fixme" v="consider natural=peak for the most distinct mountains in the district" />
		<tag k="name" v="Guovdaláhkkát" />
		<tag k="name:se" v="Guovdaláhkkát" />
		<tag k="natural" v="hill" />
		<tag k="old_name:se" v="Guovdalakkat" />
		<tag k="place" v="locality" />
		<tag k="ssr:stedsnr" v="383904" />
	</node>
	<node lat="69.47265556541969" lon="25.44708305790583" id="-35192">
		<tag k="name" v="Oalgevárnjunni" />
		<tag k="name:se" v="Oalgevárnjunni" />
		<tag k="place" v="locality" />
		<tag k="ssr:stedsnr" v="388350" />
	</node>
	<node lat="69.40132501330667" lon="25.832205207573317" id="-35196">
		<tag k="name" v="Vuohppedearbmi" />
		<tag k="name:se" v="Vuohppedearbmi" />
		<tag k="natural" v="slope" />
		<tag k="place" v="locality" />
		<tag k="ssr:stedsnr" v="392504" />
	</node>
	<node lat="69.35692778685807" lon="24.618377577813764" id="-35198">
		<tag k="fixme" v="consider natural=peak for the most distinct mountains in the district" />
		<tag k="name" v="Bođuvárri" />
		<tag k="name:se" v="Bođuvárri" />
		<tag k="natural" v="hill" />
		<tag k="place" v="locality" />
		<tag k="ssr:stedsnr" v="392446" />
	</node>
	<node lat="69.3494333403266" lon="24.280983180750738" id="-35203">
		<tag k="name" v="Gaskabeaivárri" />
		<tag k="name:se" v="Gaskabeaivárri" />
		<tag k="natural" v="hill" />
		<tag k="place" v="locality" />
		<tag k="ssr:stedsnr" v="392702" />
	</node>
	<node lat="69.37580556048974" lon="25.130069206719952" id="-35206">
		<tag k="name" v="Buollánnjárroavvi" />
		<tag k="name:se" v="Buollánnjárroavvi" />
		<tag k="place" v="locality" />
		<tag k="ssr:stedsnr" v="392716" />
	</node>
	<node lat="69.35063334085183" lon="25.14327474525849" id="-35207">
		<tag k="name" v="Govdaguolbba" />
		<tag k="name:se" v="Govdaguolbba" />
		<tag k="place" v="locality" />
		<tag k="ssr:stedsnr" v="392786" />
	</node>
	<node lat="69.46923334644698" lon="25.75733579604286" id="-35211">
		<tag k="fixme" v="consider natural=peak for the most distinct mountains in the district" />
		<tag k="name" v="Hoašširvađđa" />
		<tag k="name:se" v="Hoašširvađđa" />
		<tag k="natural" v="hill" />
		<tag k="place" v="locality" />
		<tag k="ssr:stedsnr" v="392632" />
	</node>
	<node lat="69.59102500722061" lon="25.908377445147593" id="-35216">
		<tag k="fixme" v="consider natural=peak for the most distinct mountains in the district" />
		<tag k="name" v="Vuoiŋŋadandievvá" />
		<tag k="name:se" v="Vuoiŋŋadandievvá" />
		<tag k="natural" v="hill" />
		<tag k="old_name:se" v="Vuoiŋŋadandievva" />
		<tag k="place" v="locality" />
		<tag k="ssr:stedsnr" v="392982" />
	</node>
	<node lat="69.31872223498411" lon="25.594035797649465" id="-35222">
		<tag k="name" v="Gámehiseana" />
		<tag k="name:se" v="Gámehiseana" />
		<tag k="natural" v="plateau" />
		<tag k="old_name:se" v="Gamehisæna" />
		<tag k="ssr:stedsnr" v="443005" />
	</node>
	<node lat="69.73910834513806" lon="25.082552557084124" id="-35226">
		<tag k="fixme" v="consider natural=peak for the most distinct mountains in the district" />
		<tag k="name" v="Divgačohkka" />
		<tag k="name:se" v="Divgačohkka" />
		<tag k="natural" v="hill" />
		<tag k="old_name:se" v="Divgačåkka" />
		<tag k="place" v="locality" />
		<tag k="ssr:stedsnr" v="443294" />
	</node>
	<node lat="69.19966945338581" lon="24.976649769416348" id="-35237">
		<tag k="fixme" v="consider natural=peak for the most distinct mountains in the district" />
		<tag k="name" v="Njuovččot" />
		<tag k="name:se" v="Njuovččot" />
		<tag k="natural" v="hill" />
		<tag k="old_name:se" v="Njuovčut" />
		<tag k="place" v="locality" />
		<tag k="ssr:stedsnr" v="443930" />
	</node>
	<node lat="69.20965000861484" lon="24.905063650674972" id="-35238">
		<tag k="fixme" v="consider natural=peak for the most distinct mountains in the district" />
		<tag k="name" v="Dápmotčohkat" />
		<tag k="name:se" v="Dápmotčohkat" />
		<tag k="natural" v="hill" />
		<tag k="old_name:se" v="Dabmutčåkkat" />
		<tag k="place" v="locality" />
		<tag k="ssr:stedsnr" v="443934" />
	</node>
	<node lat="69.83244168120753" lon="25.65314138018506" id="-35240">
		<tag k="fixme" v="consider natural=peak for the most distinct mountains in the district" />
		<tag k="name" v="Nieidoaivi" />
		<tag k="name:se" v="Nieidoaivi" />
		<tag k="natural" v="hill" />
		<tag k="place" v="locality" />
		<tag k="ssr:stedsnr" v="444907" />
	</node>
	<node lat="69.24916390006234" lon="25.67569132954555" id="-35246">
		<tag k="name" v="Ovllápierčopma" />
		<tag k="name:se" v="Ovllápierčopma" />
		<tag k="natural" v="hill" />
		<tag k="place" v="locality" />
		<tag k="ssr:stedsnr" v="453103" />
	</node>
	<node lat="69.38171111667593" lon="24.5276192693602" id="-35248">
		<tag k="fixme" v="consider natural=peak for the most distinct mountains in the district" />
		<tag k="name" v="Ovddaldasvárri" />
		<tag k="name:se" v="Ovddaldasvárri" />
		<tag k="natural" v="hill" />
		<tag k="place" v="locality" />
		<tag k="ssr:stedsnr" v="453305" />
	</node>
	<node lat="69.4524666725656" lon="24.892172018432515" id="-35254">
		<tag k="fixme" v="consider natural=peak for the most distinct mountains in the district" />
		<tag k="name" v="Nihkanieiddaidvárri" />
		<tag k="name:se" v="Nihkanieiddaidvárri" />
		<tag k="natural" v="hill" />
		<tag k="place" v="locality" />
		<tag k="ssr:stedsnr" v="453505" />
	</node>
	<node lat="69.43393612138385" lon="24.97008867018698" id="-35255">
		<tag k="name" v="Fiellogoahguolbba" />
		<tag k="name:se" v="Fiellogoahguolbba" />
		<tag k="place" v="locality" />
		<tag k="ssr:stedsnr" v="453519" />
	</node>
	<node lat="69.44830834295942" lon="25.177294195797774" id="-35257">
		<tag k="name" v="Iešvárluohkká" />
		<tag k="name:se" v="Iešvárluohkká" />
		<tag k="natural" v="slope" />
		<tag k="place" v="locality" />
		<tag k="ssr:stedsnr" v="453667" />
	</node>
	<node lat="69.37259723185069" lon="24.246463727332664" id="-35259">
		<tag k="fixme" v="consider natural=peak for the most distinct mountains in the district" />
		<tag k="name" v="Dállosainjunni" />
		<tag k="name:se" v="Dállosainjunni" />
		<tag k="natural" v="hill" />
		<tag k="place" v="locality" />
		<tag k="ssr:stedsnr" v="453681" />
	</node>
	<node lat="69.3942861238093" lon="25.78012466635115" id="-35263">
		<tag k="fixme" v="consider natural=peak for the most distinct mountains in the district" />
		<tag k="name" v="Suhppehatvađđa" />
		<tag k="name:se" v="Suhppehatvađđa" />
		<tag k="natural" v="hill" />
		<tag k="place" v="locality" />
		<tag k="ssr:stedsnr" v="453975" />
	</node>
	<node lat="69.35020557200686" lon="25.52223580781935" id="-35267">
		<tag k="fixme" v="consider natural=peak for the most distinct mountains in the district" />
		<tag k="name" v="Máttit Dilljavárri" />
		<tag k="name:se" v="Máttit Dilljavárri" />
		<tag k="natural" v="hill" />
		<tag k="old_name:se" v="Billjavarri, maddit" />
		<tag k="place" v="locality" />
		<tag k="ssr:stedsnr" v="503002" />
	</node>
	<node lat="69.4421000093902" lon="25.566913602786983" id="-35270">
		<tag k="fixme" v="consider natural=peak for the most distinct mountains in the district" />
		<tag k="name" v="Beaivvánttevárri" />
		<tag k="name:se" v="Beaivvánttevárri" />
		<tag k="natural" v="hill" />
		<tag k="old_name:se" v="Bæivantevarri" />
		<tag k="place" v="locality" />
		<tag k="ssr:stedsnr" v="503203" />
	</node>
	<node lat="69.12320834047816" lon="25.10512474577803" id="-35276">
		<tag k="fixme" v="consider natural=peak for the most distinct mountains in the district" />
		<tag k="name" v="Njoammelčearru" />
		<tag k="name:se" v="Njoammelčearru" />
		<tag k="natural" v="hill" />
		<tag k="old_name:se" v="Njoammelčærro" />
		<tag k="place" v="locality" />
		<tag k="ssr:stedsnr" v="503869" />
	</node>
	<node lat="69.4638389027405" lon="25.407455280213263" id="-35277">
		<tag k="fixme" v="consider natural=peak for the most distinct mountains in the district" />
		<tag k="name" v="Rávdojohroavvi" />
		<tag k="name:se" v="Rávdojohroavvi" />
		<tag k="natural" v="hill" />
		<tag k="place" v="locality" />
		<tag k="ssr:stedsnr" v="504207" />
	</node>
	<node lat="69.44837778925465" lon="25.320299731844496" id="-35279">
		<tag k="fixme" v="consider natural=peak for the most distinct mountains in the district" />
		<tag k="name" v="Háldi" />
		<tag k="name:se" v="Háldi" />
		<tag k="natural" v="hill" />
		<tag k="place" v="locality" />
		<tag k="ssr:stedsnr" v="504211" />
	</node>
	<node lat="69.48584723036859" lon="25.41115527234931" id="-35282">
		<tag k="name" v="Nagirávži" />
		<tag k="name:se" v="Nagirávži" />
		<tag k="natural" v="valley" />
		<tag k="old_name:se" v="Nagiravži" />
		<tag k="place" v="locality" />
		<tag k="ssr:stedsnr" v="504172" />
	</node>
	<node lat="69.04617223265087" lon="25.26477194500802" id="-35291">
		<tag k="name" v="Galmmatbohki" />
		<tag k="name:se" v="Galmmatbohki" />
		<tag k="natural" v="valley" />
		<tag k="old_name:se" v="Galmatbåkki" />
		<tag k="place" v="locality" />
		<tag k="ssr:stedsnr" v="504767" />
	</node>
	<node lat="69.04300001286717" lon="25.31026915555757" id="-35292">
		<tag k="fixme" v="consider natural=peak for the most distinct mountains in the district" />
		<tag k="name" v="Galmmat" />
		<tag k="name:se" v="Galmmat" />
		<tag k="natural" v="hill" />
		<tag k="old_name:se" v="Galmat" />
		<tag k="place" v="locality" />
		<tag k="ssr:stedsnr" v="504770" />
	</node>
	<node lat="69.85309445526102" lon="25.69443859039861" id="-35294">
		<tag k="fixme" v="consider natural=peak for the most distinct mountains in the district" />
		<tag k="name" v="Skuolfoaivi" />
		<tag k="name:se" v="Skuolfoaivi" />
		<tag k="natural" v="hill" />
		<tag k="place" v="locality" />
		<tag k="ssr:stedsnr" v="504911" />
	</node>
	<node lat="69.36191389527755" lon="24.60179702128111" id="-35299">
		<tag k="fixme" v="consider natural=peak for the most distinct mountains in the district" />
		<tag k="name" v="Ovddaldasvárri" />
		<tag k="name:se" v="Ovddaldasvárri" />
		<tag k="natural" v="hill" />
		<tag k="place" v="locality" />
		<tag k="ssr:stedsnr" v="514303" />
	</node>
	<node lat="69.4309805622695" lon="24.68039148157732" id="-35301">
		<tag k="name" v="Suhpenjunesávži" />
		<tag k="name:se" v="Suhpenjunesávži" />
		<tag k="natural" v="valley" />
		<tag k="place" v="locality" />
		<tag k="ssr:stedsnr" v="514506" />
	</node>
	<node lat="69.36721667060783" lon="24.429235923108063" id="-35304">
		<tag k="name" v="Čuvgesdievát" />
		<tag k="name:se" v="Čuvgesdievát" />
		<tag k="natural" v="hill" />
		<tag k="place" v="locality" />
		<tag k="ssr:stedsnr" v="514707" />
	</node>
	<node lat="69.43581390289138" lon="25.693763582816022" id="-35306">
		<tag k="name" v="Holganjárguolbba" />
		<tag k="name:se" v="Holganjárguolbba" />
		<tag k="place" v="locality" />
		<tag k="ssr:stedsnr" v="514804" />
	</node>
	<node lat="69.4170833428254" lon="25.668474689422347" id="-35308">
		<tag k="fixme" v="consider natural=peak for the most distinct mountains in the district" />
		<tag k="name" v="Juhán-Ovlláaláš" />
		<tag k="name:se" v="Juhán-Ovlláaláš" />
		<tag k="natural" v="hill" />
		<tag k="place" v="locality" />
		<tag k="ssr:stedsnr" v="514916" />
	</node>
	<node lat="69.4880222315408" lon="25.592396932475584" id="-35310">
		<tag k="name" v="Mirkkočomažat" />
		<tag k="name:se" v="Mirkkočomažat" />
		<tag k="natural" v="hill" />
		<tag k="place" v="locality" />
		<tag k="ssr:stedsnr" v="514925" />
	</node>
	<node lat="69.49506111984417" lon="25.560227471868124" id="-35311">
		<tag k="name" v="Vuohčugeahči" />
		<tag k="name:se" v="Vuohčugeahči" />
		<tag k="place" v="locality" />
		<tag k="ssr:stedsnr" v="514926" />
	</node>
	<node lat="69.43147779107116" lon="25.476855263013636" id="-35313">
		<tag k="fixme" v="consider natural=peak for the most distinct mountains in the district" />
		<tag k="name" v="Dákteroavvi" />
		<tag k="name:se" v="Dákteroavvi" />
		<tag k="natural" v="hill" />
		<tag k="place" v="locality" />
		<tag k="ssr:stedsnr" v="685034" />
	</node>
	<node lat="69.35830000745747" lon="24.348060953567547" id="-35314">
		<tag k="fixme" v="consider natural=peak for the most distinct mountains in the district" />
		<tag k="name" v="Áitevárri" />
		<tag k="name:se" v="Áitevárri" />
		<tag k="natural" v="hill" />
		<tag k="old_name:se" v="Aitevarri" />
		<tag k="place" v="locality" />
		<tag k="ssr:stedsnr" v="685066" />
	</node>
	<node lat="69.4047805656819" lon="25.11079142199307" id="-35315">
		<tag k="name" v="Rihtáčopma" />
		<tag k="name:se" v="Rihtáčopma" />
		<tag k="natural" v="hill" />
		<tag k="old_name:se" v="Rittačåbma" />
		<tag k="place" v="locality" />
		<tag k="ssr:stedsnr" v="685124" />
	</node>
	<node lat="69.74773889684339" lon="24.769397038845433" id="-35320">
		<tag k="fixme" v="consider natural=peak for the most distinct mountains in the district" />
		<tag k="name" v="Áhkošoaivi" />
		<tag k="name:se" v="Áhkošoaivi" />
		<tag k="natural" v="hill" />
		<tag k="old_name:se" v="Akkušoaivi" />
		<tag k="place" v="locality" />
		<tag k="ssr:stedsnr" v="685283" />
	</node>
	<node lat="69.4683055618004" lon="24.99910255292314" id="-35321">
		<tag k="fixme" v="consider natural=peak for the most distinct mountains in the district" />
		<tag k="name" v="Njallavárri" />
		<tag k="name:se" v="Njallavárri" />
		<tag k="natural" v="hill" />
		<tag k="old_name:se" v="Njallavarri" />
		<tag k="place" v="locality" />
		<tag k="ssr:stedsnr" v="685327" />
	</node>
	<node lat="69.4501861149586" lon="24.754430356721" id="-35323">
		<tag k="fixme" v="consider natural=peak for the most distinct mountains in the district" />
		<tag k="name" v="Liidnebeahcanvárri" />
		<tag k="name:se" v="Liidnebeahcanvárri" />
		<tag k="natural" v="hill" />
		<tag k="old_name:se" v="Liidnebæccanvarri" />
		<tag k="place" v="locality" />
		<tag k="ssr:stedsnr" v="685339" />
	</node>
	<node lat="69.2621444518672" lon="25.459905265661515" id="-35324">
		<tag k="fixme" v="consider natural=peak for the most distinct mountains in the district" />
		<tag k="name" v="Roavvevárri" />
		<tag k="name:se" v="Roavvevárri" />
		<tag k="natural" v="hill" />
		<tag k="old_name:se" v="Roavvevarri" />
		<tag k="place" v="locality" />
		<tag k="ssr:stedsnr" v="686051" />
	</node>
	<node lat="68.9433250119242" lon="25.12603306594831" id="-35328">
		<tag k="name" v="Máđiibohki" />
		<tag k="name:se" v="Máđiibohki" />
		<tag k="natural" v="valley" />
		<tag k="old_name:se" v="Mađiibåkki" />
		<tag k="place" v="locality" />
		<tag k="ssr:stedsnr" v="685850" />
	</node>
	<node lat="68.99562223587859" lon="24.952666425592962" id="-35329">
		<tag k="fixme" v="consider natural=peak for the most distinct mountains in the district" />
		<tag k="name" v="Muoidunvárri" />
		<tag k="name:se" v="Muoidunvárri" />
		<tag k="natural" v="hill" />
		<tag k="old_name:se" v="Muoidonvarri" />
		<tag k="place" v="locality" />
		<tag k="ssr:stedsnr" v="685864" />
	</node>
	<node lat="69.00910556932719" lon="25.133874736816207" id="-35330">
		<tag k="fixme" v="multiple name tags, choose one and add the other to alt_name; consider natural=peak for the most distinct mountains in the district" />
		<tag k="name" v="Stuorra Gurbeš;Gurbeš;Gurbbeš" />
		<tag k="name:se" v="Stuorra Gurbeš;Gurbeš;Gurbbeš" />
		<tag k="natural" v="hill" />
		<tag k="place" v="locality" />
		<tag k="ssr:stedsnr" v="685874" />
	</node>
	<node lat="69.15989723374857" lon="24.857888672066263" id="-35332">
		<tag k="fixme" v="consider natural=peak for the most distinct mountains in the district" />
		<tag k="name" v="Geassároavvi" />
		<tag k="name:se" v="Geassároavvi" />
		<tag k="natural" v="hill" />
		<tag k="old_name:se" v="Gæssaroavvi" />
		<tag k="place" v="locality" />
		<tag k="ssr:stedsnr" v="685914" />
	</node>
	<node lat="69.18932779144727" lon="25.002202530254053" id="-35334">
		<tag k="name" v="Rivkkároggi" />
		<tag k="name:se" v="Rivkkároggi" />
		<tag k="natural" v="valley" />
		<tag k="old_name:se" v="Rivskaråggi" />
		<tag k="place" v="locality" />
		<tag k="ssr:stedsnr" v="685919" />
	</node>
	<node lat="69.37756667734436" lon="25.43766916543061" id="-35335">
		<tag k="name" v="Soagŋorohči" />
		<tag k="name:se" v="Soagŋorohči" />
		<tag k="natural" v="valley" />
		<tag k="old_name:se" v="Soagŋuråčči" />
		<tag k="place" v="locality" />
		<tag k="ssr:stedsnr" v="686009" />
	</node>
	<node lat="69.36291390243514" lon="25.25676084895719" id="-35336">
		<tag k="fixme" v="consider natural=peak for the most distinct mountains in the district" />
		<tag k="name" v="Gussavárri" />
		<tag k="name:se" v="Gussavárri" />
		<tag k="natural" v="hill" />
		<tag k="old_name:se" v="Gussavarri" />
		<tag k="place" v="locality" />
		<tag k="ssr:stedsnr" v="686012" />
	</node>
	<node lat="69.3554027810257" lon="24.697863694344306" id="-35337">
		<tag k="alt_name:se" v="Bikká-Biretvárri" />
		<tag k="fixme" v="consider natural=peak for the most distinct mountains in the district" />
		<tag k="name" v="Vuolit Bikkábiretvárri" />
		<tag k="name:se" v="Vuolit Bikkábiretvárri" />
		<tag k="natural" v="hill" />
		<tag k="old_name:se" v="Biggabiretvarri, vuolit" />
		<tag k="place" v="locality" />
		<tag k="ssr:stedsnr" v="686164" />
	</node>
	<node lat="69.32857500986567" lon="24.72769701585131" id="-35338">
		<tag k="fixme" v="consider natural=peak for the most distinct mountains in the district" />
		<tag k="name" v="Skáiddečorru" />
		<tag k="name:se" v="Skáiddečorru" />
		<tag k="natural" v="hill" />
		<tag k="old_name:se" v="Skaidečårro;Skáidečorru" />
		<tag k="place" v="locality" />
		<tag k="ssr:stedsnr" v="686170" />
	</node>
	<node lat="69.6347250095153" lon="25.049074789641903" id="-35343">
		<tag k="fixme" v="consider natural=peak for the most distinct mountains in the district" />
		<tag k="name" v="Ráhpesčopma" />
		<tag k="name:se" v="Ráhpesčopma" />
		<tag k="natural" v="hill" />
		<tag k="old_name:se" v="Rappesčåbma" />
		<tag k="place" v="locality" />
		<tag k="ssr:stedsnr" v="686299" />
	</node>
	<node lat="69.5419083393728" lon="24.713438695902497" id="-35345">
		<tag k="fixme" v="consider natural=peak for the most distinct mountains in the district" />
		<tag k="name" v="Orroaivi" />
		<tag k="name:se" v="Orroaivi" />
		<tag k="natural" v="hill" />
		<tag k="old_name:se" v="Årroaivi" />
		<tag k="place" v="locality" />
		<tag k="ssr:stedsnr" v="686332" />
	</node>
	<node lat="69.43823612185054" lon="25.039013657327168" id="-35346">
		<tag k="name" v="Ruovdebákti" />
		<tag k="name:se" v="Ruovdebákti" />
		<tag k="natural" v="hill" />
		<tag k="old_name:se" v="Ruovdebakti" />
		<tag k="place" v="locality" />
		<tag k="ssr:stedsnr" v="686350" />
	</node>
	<node lat="69.43177778448874" lon="25.203091410458036" id="-35348">
		<tag k="fixme" v="consider natural=peak for the most distinct mountains in the district" />
		<tag k="name" v="Ássebáhvárri" />
		<tag k="name:se" v="Ássebáhvárri" />
		<tag k="natural" v="hill" />
		<tag k="place" v="locality" />
		<tag k="ssr:stedsnr" v="686360" />
	</node>
	<node lat="69.58954343430851" lon="25.011521616173813" id="-35349">
		<tag k="fixme" v="consider natural=peak for the most distinct mountains in the district" />
		<tag k="loc_name:se" v="Fáhttejohčopma" />
		<tag k="name" v="Fáhttejohmohkegielas" />
		<tag k="name:se" v="Fáhttejohmohkegielas" />
		<tag k="natural" v="hill" />
		<tag k="old_name:se" v="Fattejåkmåkkegielas" />
		<tag k="place" v="locality" />
		<tag k="ssr:stedsnr" v="686362" />
	</node>
	<node lat="69.67252500822505" lon="25.41656919145173" id="-35351">
		<tag k="name" v="Hárrejalga" />
		<tag k="name:se" v="Hárrejalga" />
		<tag k="old_name:se" v="Harrejalga" />
		<tag k="place" v="locality" />
		<tag k="ssr:stedsnr" v="686378" />
	</node>
	<node lat="69.45476945624753" lon="24.607080363247793" id="-35352">
		<tag k="name" v="Geinnodatnjunni" />
		<tag k="name:se" v="Geinnodatnjunni" />
		<tag k="natural" v="hill" />
		<tag k="old_name:se" v="Geinudatnjunni" />
		<tag k="place" v="locality" />
		<tag k="ssr:stedsnr" v="686265" />
	</node>
	<node lat="69.72317778903634" lon="25.705010815500955" id="-35353">
		<tag k="fixme" v="consider natural=peak for the most distinct mountains in the district" />
		<tag k="name" v="Ástegielas" />
		<tag k="name:se" v="Ástegielas" />
		<tag k="natural" v="hill" />
		<tag k="old_name:se" v="Astegielas" />
		<tag k="place" v="locality" />
		<tag k="ssr:stedsnr" v="686399" />
	</node>
	<node lat="69.72846667785444" lon="25.513666392678246" id="-35355">
		<tag k="fixme" v="consider natural=peak for the most distinct mountains in the district" />
		<tag k="name" v="Gáldnajároaivi" />
		<tag k="name:se" v="Gáldnajároaivi" />
		<tag k="natural" v="hill" />
		<tag k="old_name:se" v="Galdnajaroaivi" />
		<tag k="place" v="locality" />
		<tag k="ssr:stedsnr" v="686405" />
	</node>
	<node lat="69.56983612383078" lon="25.399171950676568" id="-35356">
		<tag k="fixme" v="consider natural=peak for the most distinct mountains in the district" />
		<tag k="name" v="Uhca Guorpmet" />
		<tag k="name:se" v="Uhca Guorpmet" />
		<tag k="natural" v="hill" />
		<tag k="place" v="locality" />
		<tag k="ssr:stedsnr" v="686418" />
	</node>
	<node lat="69.6511000102138" lon="24.866474801086113" id="-35362">
		<tag k="fixme" v="consider natural=peak for the most distinct mountains in the district" />
		<tag k="name" v="Fáhttevárráhppát" />
		<tag k="name:se" v="Fáhttevárráhppát" />
		<tag k="natural" v="hill" />
		<tag k="old_name:se" v="Fattevarrappat" />
		<tag k="place" v="locality" />
		<tag k="ssr:stedsnr" v="686287" />
	</node>
	<node lat="69.57505834688814" lon="25.6954719236834" id="-35366">
		<tag k="fixme" v="consider natural=peak for the most distinct mountains in the district" />
		<tag k="name" v="Geaidnočohkka" />
		<tag k="name:se" v="Geaidnočohkka" />
		<tag k="natural" v="hill" />
		<tag k="old_name:se" v="Gæidnučåkka" />
		<tag k="place" v="locality" />
		<tag k="ssr:stedsnr" v="686480" />
	</node>
	<node lat="69.77935556541526" lon="24.68295814514335" id="-35369">
		<tag k="fixme" v="consider natural=peak for the most distinct mountains in the district" />
		<tag k="name" v="Reavvogielas" />
		<tag k="name:se" v="Reavvogielas" />
		<tag k="natural" v="hill" />
		<tag k="old_name:se" v="Rævugielas" />
		<tag k="place" v="locality" />
		<tag k="ssr:stedsnr" v="686614" />
	</node>
	<node lat="69.03760834619052" lon="25.377699714577005" id="-35371">
		<tag k="name" v="Nuorttamušbohki" />
		<tag k="name:se" v="Nuorttamušbohki" />
		<tag k="natural" v="valley" />
		<tag k="old_name:se" v="Nuortamušbåkki" />
		<tag k="place" v="locality" />
		<tag k="ssr:stedsnr" v="686757" />
	</node>
	<node lat="69.11798612052603" lon="25.44088024510972" id="-35372">
		<tag k="fixme" v="consider natural=peak for the most distinct mountains in the district" />
		<tag k="name" v="Vuččolklubbu" />
		<tag k="name:se" v="Vuččolklubbu" />
		<tag k="natural" v="hill" />
		<tag k="old_name:se" v="Vužžulklubbo" />
		<tag k="place" v="locality" />
		<tag k="ssr:stedsnr" v="686833" />
	</node>
	<node lat="69.23558334135267" lon="24.629291474518777" id="-35374">
		<tag k="fixme" v="consider natural=peak for the most distinct mountains in the district" />
		<tag k="name" v="Duoibilaláš" />
		<tag k="name:se" v="Duoibilaláš" />
		<tag k="natural" v="hill" />
		<tag k="old_name:se" v="Duoibilalaš" />
		<tag k="place" v="locality" />
		<tag k="ssr:stedsnr" v="686870" />
	</node>
	<node lat="69.19459167553721" lon="24.69735535424453" id="-35375">
		<tag k="fixme" v="consider natural=peak for the most distinct mountains in the district" />
		<tag k="name" v="Beahcečielgi" />
		<tag k="name:se" v="Beahcečielgi" />
		<tag k="natural" v="hill" />
		<tag k="old_name:se" v="Bæccečielgi" />
		<tag k="place" v="locality" />
		<tag k="ssr:stedsnr" v="686929" />
	</node>
	<node lat="69.80113334613236" lon="26.13905521246966" id="-35377">
		<tag k="fixme" v="consider natural=peak for the most distinct mountains in the district" />
		<tag k="name" v="Sáravárri" />
		<tag k="name:se" v="Sáravárri" />
		<tag k="natural" v="hill" />
		<tag k="old_name:se" v="Saravarri;Sárávárri" />
		<tag k="place" v="locality" />
		<tag k="ssr:stedsnr" v="687946" />
	</node>
	<node lat="69.64502500933509" lon="25.952946890019348" id="-35383">
		<tag k="name" v="Geassesaigieddi" />
		<tag k="name:se" v="Geassesaigieddi" />
		<tag k="old_name:se" v="Gæssesagieddi" />
		<tag k="place" v="locality" />
		<tag k="ssr:stedsnr" v="564505" />
	</node>
	<node lat="69.7921750062569" lon="25.665508055378123" id="-35386">
		<tag k="name" v="Cuoppoávži" />
		<tag k="name:se" v="Cuoppoávži" />
		<tag k="natural" v="valley" />
		<tag k="old_name:se" v="Cuobbuavži" />
		<tag k="place" v="locality" />
		<tag k="ssr:stedsnr" v="564866" />
	</node>
	<node lat="69.82900000734321" lon="25.725608033154035" id="-35388">
		<tag k="fixme" v="consider natural=peak for the most distinct mountains in the district" />
		<tag k="name" v="Rátkkoaivi" />
		<tag k="name:se" v="Rátkkoaivi" />
		<tag k="natural" v="hill" />
		<tag k="old_name:se" v="Raktoaivi" />
		<tag k="place" v="locality" />
		<tag k="ssr:stedsnr" v="565902" />
	</node>
	<node lat="69.46958889708625" lon="25.5081719367822" id="-35391">
		<tag k="name" v="Stuoraluohkká" />
		<tag k="name:se" v="Stuoraluohkká" />
		<tag k="natural" v="slope" />
		<tag k="place" v="locality" />
		<tag k="ssr:stedsnr" v="574250" />
	</node>
	<node lat="69.40294167351102" lon="24.580449801728864" id="-35395">
		<tag k="fixme" v="consider natural=peak for the most distinct mountains in the district" />
		<tag k="name" v="Muvrraláš" />
		<tag k="name:se" v="Muvrraláš" />
		<tag k="natural" v="hill" />
		<tag k="place" v="locality" />
		<tag k="ssr:stedsnr" v="574460" />
	</node>
	<node lat="69.37006112018226" lon="24.46870815182946" id="-35396">
		<tag k="fixme" v="consider natural=peak for the most distinct mountains in the district" />
		<tag k="name" v="Buollángeahče" />
		<tag k="name:se" v="Buollángeahče" />
		<tag k="natural" v="hill" />
		<tag k="place" v="locality" />
		<tag k="ssr:stedsnr" v="574306" />
	</node>
	<node lat="69.43112223047827" lon="24.794705342415284" id="-35398">
		<tag k="fixme" v="consider natural=peak for the most distinct mountains in the district" />
		<tag k="name" v="Rávdojohroavvi" />
		<tag k="name:se" v="Rávdojohroavvi" />
		<tag k="natural" v="hill" />
		<tag k="place" v="locality" />
		<tag k="ssr:stedsnr" v="574503" />
	</node>
	<node lat="69.43358612217266" lon="24.685899808542082" id="-35401">
		<tag k="fixme" v="consider natural=peak for the most distinct mountains in the district" />
		<tag k="name" v="Ráhpesvárgeahče" />
		<tag k="name:se" v="Ráhpesvárgeahče" />
		<tag k="natural" v="hill" />
		<tag k="place" v="locality" />
		<tag k="ssr:stedsnr" v="574519" />
	</node>
	<node lat="69.36111112089846" lon="25.150030300124303" id="-35403">
		<tag k="name" v="Jeagilguolbba" />
		<tag k="name:se" v="Jeagilguolbba" />
		<tag k="place" v="locality" />
		<tag k="ssr:stedsnr" v="574804" />
	</node>
	<node lat="69.34232778683901" lon="25.133096976057764" id="-35407">
		<tag k="name" v="Govdatguolbba" />
		<tag k="name:se" v="Govdatguolbba" />
		<tag k="place" v="locality" />
		<tag k="ssr:stedsnr" v="574759" />
	</node>
	<node lat="69.67775834931842" lon="25.86804690037196" id="-35410">
		<tag k="name" v="Njoammilčopma" />
		<tag k="name:se" v="Njoammilčopma" />
		<tag k="natural" v="hill" />
		<tag k="place" v="locality" />
		<tag k="ssr:stedsnr" v="574959" />
	</node>
	<node lat="69.49001668013749" lon="25.503777488964932" id="-35411">
		<tag k="name" v="Allaceahkki" />
		<tag k="name:se" v="Allaceahkki" />
		<tag k="natural" v="slope" />
		<tag k="place" v="locality" />
		<tag k="ssr:stedsnr" v="695025" />
	</node>
	<node lat="69.43871667440968" lon="25.32092752052852" id="-35412">
		<tag k="name" v="Spiinniidgietteguolbba" />
		<tag k="name:se" v="Spiinniidgietteguolbba" />
		<tag k="place" v="locality" />
		<tag k="ssr:stedsnr" v="695034" />
	</node>
	<node lat="69.5753972392698" lon="25.884991324324368" id="-35416">
		<tag k="fixme" v="consider natural=peak for the most distinct mountains in the district" />
		<tag k="name" v="Skáračohkka" />
		<tag k="name:se" v="Skáračohkka" />
		<tag k="natural" v="hill" />
		<tag k="old_name:se" v="Skaračohkka" />
		<tag k="place" v="locality" />
		<tag k="ssr:stedsnr" v="695968" />
	</node>
	<node lat="69.47535834673823" lon="25.439971943523844" id="-35423">
		<tag k="name" v="Duvllášguolbba" />
		<tag k="name:se" v="Duvllášguolbba" />
		<tag k="place" v="locality" />
		<tag k="ssr:stedsnr" v="696333" />
	</node>
	<node lat="69.37334167616584" lon="24.45768316204282" id="-35424">
		<tag k="name" v="Ráidalasdievát" />
		<tag k="name:se" v="Ráidalasdievát" />
		<tag k="natural" v="hill" />
		<tag k="place" v="locality" />
		<tag k="ssr:stedsnr" v="696298" />
	</node>
	<node lat="69.34775556465657" lon="24.605210930205605" id="-35426">
		<tag k="fixme" v="consider natural=peak for the most distinct mountains in the district" />
		<tag k="name" v="Ávjovárri" />
		<tag k="name:se" v="Ávjovárri" />
		<tag k="natural" v="hill" />
		<tag k="place" v="locality" />
		<tag k="ssr:stedsnr" v="696431" />
	</node>
	<node lat="69.41560834092242" lon="25.377171953554086" id="-35427">
		<tag k="fixme" v="consider natural=peak for the most distinct mountains in the district" />
		<tag k="name" v="Jorbadievvá" />
		<tag k="name:se" v="Jorbadievvá" />
		<tag k="natural" v="hill" />
		<tag k="place" v="locality" />
		<tag k="ssr:stedsnr" v="696459" />
	</node>
	<node lat="69.44910556178158" lon="25.194630306009024" id="-35441">
		<tag k="name" v="Sevdnjesluhpoguolbba" />
		<tag k="name:se" v="Sevdnjesluhpoguolbba" />
		<tag k="place" v="locality" />
		<tag k="ssr:stedsnr" v="696635" />
	</node>
	<node lat="69.37007500945276" lon="25.2043136479386" id="-35443">
		<tag k="fixme" v="consider natural=peak for the most distinct mountains in the district" />
		<tag k="name" v="Námmávárri" />
		<tag k="name:se" v="Námmávárri" />
		<tag k="natural" v="hill" />
		<tag k="place" v="locality" />
		<tag k="ssr:stedsnr" v="696643" />
	</node>
	<node lat="69.39151945160246" lon="25.1311358567844" id="-35445">
		<tag k="name" v="Roavvegeahči" />
		<tag k="name:se" v="Roavvegeahči" />
		<tag k="place" v="locality" />
		<tag k="ssr:stedsnr" v="696655" />
	</node>
	<node lat="69.46610834157372" lon="25.619513585624425" id="-35456">
		<tag k="name" v="Mánnevársealgi" />
		<tag k="name:se" v="Mánnevársealgi" />
		<tag k="natural" v="ridge" />
		<tag k="place" v="locality" />
		<tag k="ssr:stedsnr" v="696897" />
	</node>
	<node lat="69.45399167566592" lon="24.8753497936503" id="-35461">
		<tag k="fixme" v="consider natural=peak for the most distinct mountains in the district" />
		<tag k="name" v="Cohppásgielas" />
		<tag k="name:se" v="Cohppásgielas" />
		<tag k="natural" v="hill" />
		<tag k="old_name:se" v="Cåppasgielas" />
		<tag k="place" v="locality" />
		<tag k="ssr:stedsnr" v="624360" />
	</node>
	<node lat="69.44051945117472" lon="24.66687481169298" id="-35462">
		<tag k="name" v="Guškkesvuopmi" />
		<tag k="name:se" v="Guškkesvuopmi" />
		<tag k="natural" v="valley" />
		<tag k="old_name:se" v="Guškesvuobmi" />
		<tag k="place" v="locality" />
		<tag k="ssr:stedsnr" v="624364" />
	</node>
	<node lat="69.48429167408506" lon="24.881183117204476" id="-35463">
		<tag k="fixme" v="consider natural=peak for the most distinct mountains in the district" />
		<tag k="name" v="Sáđoaivi" />
		<tag k="name:se" v="Sáđoaivi" />
		<tag k="natural" v="hill" />
		<tag k="old_name:se" v="Sađoaivi;Sáđeoaivi" />
		<tag k="place" v="locality" />
		<tag k="ssr:stedsnr" v="624367" />
	</node>
	<node lat="69.46637500236277" lon="24.705441475071844" id="-35464">
		<tag k="fixme" v="consider natural=peak for the most distinct mountains in the district" />
		<tag k="name" v="Ráhpesvárri" />
		<tag k="name:se" v="Ráhpesvárri" />
		<tag k="natural" v="hill" />
		<tag k="old_name:se" v="Rappesvarri" />
		<tag k="place" v="locality" />
		<tag k="ssr:stedsnr" v="624370" />
	</node>
	<node lat="69.37251667882384" lon="25.523519140861314" id="-35467">
		<tag k="fixme" v="consider natural=peak for the most distinct mountains in the district" />
		<tag k="name" v="Stuorra Dilljavárri" />
		<tag k="name:se" v="Stuorra Dilljavárri" />
		<tag k="natural" v="hill" />
		<tag k="old_name:se" v="Dilljavarri, stuorra;Stuora Diljavárri" />
		<tag k="place" v="locality" />
		<tag k="ssr:stedsnr" v="625008" />
	</node>
	<node lat="69.55846945769821" lon="25.476288626319842" id="-35469">
		<tag k="name" v="Duolbajárruvža" />
		<tag k="name:se" v="Duolbajárruvža" />
		<tag k="natural" v="ridge" />
		<tag k="old_name:se" v="Duolbajarruvža" />
		<tag k="place" v="locality" />
		<tag k="ssr:stedsnr" v="625456" />
	</node>
	<node lat="69.41335000493393" lon="24.81911089553222" id="-35485">
		<tag k="name" v="Flávdačopma" />
		<tag k="name:se" v="Flávdačopma" />
		<tag k="natural" v="hill" />
		<tag k="place" v="locality" />
		<tag k="ssr:stedsnr" v="635488" />
	</node>
	<node lat="69.34081945084014" lon="25.069283104020542" id="-35487">
		<tag k="name" v="Geaidnojogašguolbba" />
		<tag k="name:se" v="Geaidnojogašguolbba" />
		<tag k="place" v="locality" />
		<tag k="ssr:stedsnr" v="635678" />
	</node>
	<node lat="69.38623333999882" lon="24.950358113687965" id="-35495">
		<tag k="name" v="Goahtečopma" />
		<tag k="name:se" v="Goahtečopma" />
		<tag k="natural" v="hill" />
		<tag k="old_name:se" v="Goattečåbma" />
		<tag k="place" v="locality" />
		<tag k="ssr:stedsnr" v="685120" />
	</node>
	<node lat="69.41292500999486" lon="25.10536921329" id="-35498">
		<tag k="alt_name:se" v="Ásllat-Biehtár-várri" />
		<tag k="fixme" v="consider natural=peak for the most distinct mountains in the district" />
		<tag k="name" v="Ásllat-Pier-várri" />
		<tag k="name:se" v="Ásllat-Pier-várri" />
		<tag k="natural" v="hill" />
		<tag k="old_name:se" v="Aslat-Pier-varri" />
		<tag k="place" v="locality" />
		<tag k="ssr:stedsnr" v="685153" />
	</node>
	<node lat="69.14795278421364" lon="24.675483116057933" id="-35501">
		<tag k="fixme" v="consider natural=peak for the most distinct mountains in the district" />
		<tag k="name" v="Salču" />
		<tag k="name:se" v="Salču" />
		<tag k="natural" v="hill" />
		<tag k="old_name:se" v="Salčo" />
		<tag k="place" v="locality" />
		<tag k="ssr:stedsnr" v="685908" />
	</node>
	<node lat="69.28481667588042" lon="25.096791424019848" id="-35503">
		<tag k="fixme" v="consider natural=peak for the most distinct mountains in the district" />
		<tag k="name" v="Buortnavárri" />
		<tag k="name:se" v="Buortnavárri" />
		<tag k="natural" v="hill" />
		<tag k="old_name:se" v="Buordnavarri" />
		<tag k="place" v="locality" />
		<tag k="ssr:stedsnr" v="686203" />
	</node>
	<node lat="69.70672501092129" lon="24.772024804272753" id="-35506">
		<tag k="fixme" v="consider natural=peak for the most distinct mountains in the district" />
		<tag k="name" v="Biedjogielas" />
		<tag k="name:se" v="Biedjogielas" />
		<tag k="natural" v="hill" />
		<tag k="old_name:se" v="Bieddjugielas" />
		<tag k="place" v="locality" />
		<tag k="ssr:stedsnr" v="686306" />
	</node>
	<node lat="69.72876107117078" lon="24.393333040071678" id="-35513">
		<tag k="fixme" v="consider natural=peak for the most distinct mountains in the district" />
		<tag k="name" v="Giellanoaivi" />
		<tag k="name:se" v="Giellanoaivi" />
		<tag k="natural" v="hill" />
		<tag k="place" v="locality" />
		<tag k="ssr:stedsnr" v="686512" />
	</node>
	<node lat="69.45972223587813" lon="25.521902503445176" id="-35518">
		<tag k="name" v="Rahangurra" />
		<tag k="name:se" v="Rahangurra" />
		<tag k="natural" v="valley" />
		<tag k="place" v="locality" />
		<tag k="ssr:stedsnr" v="696084" />
	</node>
	<node lat="69.43775833844705" lon="24.930727551909694" id="-35528">
		<tag k="name" v="Varetvárávži" />
		<tag k="name:se" v="Varetvárávži" />
		<tag k="natural" v="valley" />
		<tag k="place" v="locality" />
		<tag k="ssr:stedsnr" v="696510" />
	</node>
	<node lat="69.36765555978242" lon="24.54112203812009" id="-35531">
		<tag k="fixme" v="consider natural=peak for the most distinct mountains in the district" />
		<tag k="name" v="Ovddaldasvárregeahče" />
		<tag k="name:se" v="Ovddaldasvárregeahče" />
		<tag k="natural" v="hill" />
		<tag k="place" v="locality" />
		<tag k="ssr:stedsnr" v="696716" />
	</node>
	<node lat="69.46497223335174" lon="25.601830244838442" id="-35536">
		<tag k="name" v="Mánnevárbohki" />
		<tag k="name:se" v="Mánnevárbohki" />
		<tag k="natural" v="valley" />
		<tag k="place" v="locality" />
		<tag k="ssr:stedsnr" v="696922" />
	</node>
	<node lat="69.27008056540882" lon="25.017760875261274" id="-35541">
		<tag k="fixme" v="consider natural=peak for the most distinct mountains in the district" />
		<tag k="name" v="Ráitevárri" />
		<tag k="name:se" v="Ráitevárri" />
		<tag k="natural" v="hill" />
		<tag k="place" v="locality" />
		<tag k="ssr:stedsnr" v="746204" />
	</node>
	<node lat="69.6895555660428" lon="25.543363618364694" id="-35548">
		<tag k="fixme" v="consider natural=peak for the most distinct mountains in the district" />
		<tag k="name" v="Geassáčielgi" />
		<tag k="name:se" v="Geassáčielgi" />
		<tag k="natural" v="hill" />
		<tag k="old_name:se" v="Gæssačielgi" />
		<tag k="place" v="locality" />
		<tag k="ssr:stedsnr" v="746370" />
	</node>
	<node lat="69.16980001148043" lon="24.660905349400647" id="-35555">
		<tag k="fixme" v="consider natural=peak for the most distinct mountains in the district" />
		<tag k="name" v="Gorževárri" />
		<tag k="name:se" v="Gorževárri" />
		<tag k="natural" v="hill" />
		<tag k="old_name:se" v="Gårževarri" />
		<tag k="place" v="locality" />
		<tag k="ssr:stedsnr" v="746903" />
	</node>
	<node lat="69.40838056246925" lon="24.703277585743994" id="-35565">
		<tag k="name" v="Sámmolašbohki" />
		<tag k="name:se" v="Sámmolašbohki" />
		<tag k="natural" v="valley" />
		<tag k="place" v="locality" />
		<tag k="ssr:stedsnr" v="756453" />
	</node>
	<node lat="69.40086390044962" lon="25.158810861822722" id="-35572">
		<tag k="name" v="Bieskkangoivvohat" />
		<tag k="name:se" v="Bieskkangoivvohat" />
		<tag k="natural" v="slope" />
		<tag k="place" v="locality" />
		<tag k="ssr:stedsnr" v="756701" />
	</node>
	<node lat="69.42690000665716" lon="25.535083049004626" id="-35573">
		<tag k="fixme" v="consider natural=peak for the most distinct mountains in the district" />
		<tag k="name" v="Biehtárčohkka" />
		<tag k="name:se" v="Biehtárčohkka" />
		<tag k="natural" v="hill" />
		<tag k="place" v="locality" />
		<tag k="ssr:stedsnr" v="756862" />
	</node>
	<node lat="69.42274445519246" lon="24.954552563568484" id="-35576">
		<tag k="fixme" v="consider natural=peak for the most distinct mountains in the district" />
		<tag k="name" v="Buolžžaskárru" />
		<tag k="name:se" v="Buolžžaskárru" />
		<tag k="natural" v="hill" />
		<tag k="place" v="locality" />
		<tag k="ssr:stedsnr" v="817009" />
	</node>
	<node lat="69.37241389396458" lon="24.526374827503354" id="-35580">
		<tag k="fixme" v="consider natural=peak for the most distinct mountains in the district" />
		<tag k="name" v="Fáktačohkka" />
		<tag k="name:se" v="Fáktačohkka" />
		<tag k="natural" v="hill" />
		<tag k="place" v="locality" />
		<tag k="ssr:stedsnr" v="817274" />
	</node>
	<node lat="69.4485000160245" lon="25.667930236420776" id="-35594">
		<tag k="fixme" v="consider natural=peak for the most distinct mountains in the district" />
		<tag k="name" v="Badjevuohpevárri" />
		<tag k="name:se" v="Badjevuohpevárri" />
		<tag k="natural" v="hill" />
		<tag k="place" v="locality" />
		<tag k="ssr:stedsnr" v="817826" />
	</node>
	<node lat="69.3676222331909" lon="25.12884976737508" id="-35597">
		<tag k="name" v="Roavvegeahči" />
		<tag k="name:se" v="Roavvegeahči" />
		<tag k="place" v="locality" />
		<tag k="ssr:stedsnr" v="817775" />
	</node>
	<node lat="69.45985278606845" lon="25.680955249736854" id="-35599">
		<tag k="fixme" v="consider natural=peak for the most distinct mountains in the district" />
		<tag k="name" v="Sealgevárri" />
		<tag k="name:se" v="Sealgevárri" />
		<tag k="natural" v="hill" />
		<tag k="place" v="locality" />
		<tag k="ssr:stedsnr" v="817987" />
	</node>
	<node lat="69.41890834378266" lon="25.613374689041205" id="-35603">
		<tag k="fixme" v="consider natural=peak for the most distinct mountains in the district" />
		<tag k="name" v="Ájovárri" />
		<tag k="name:se" v="Ájovárri" />
		<tag k="natural" v="hill" />
		<tag k="old_name:se" v="Ajuvarri" />
		<tag k="place" v="locality" />
		<tag k="ssr:stedsnr" v="928025" />
	</node>
	<node lat="69.41014723087336" lon="25.18411641989646" id="-35604">
		<tag k="alt_name:se" v="Geatkeskáidi" />
		<tag k="fixme" v="consider natural=peak for the most distinct mountains in the district" />
		<tag k="name" v="Geatkevárri" />
		<tag k="name:se" v="Geatkevárri" />
		<tag k="natural" v="hill" />
		<tag k="old_name:se" v="Gætkevarri" />
		<tag k="place" v="locality" />
		<tag k="ssr:stedsnr" v="928113" />
	</node>
	<node lat="69.40646389825892" lon="24.794710907982044" id="-35605">
		<tag k="fixme" v="consider natural=peak for the most distinct mountains in the district" />
		<tag k="name" v="Beajalgŋávárri" />
		<tag k="name:se" v="Beajalgŋávárri" />
		<tag k="natural" v="hill" />
		<tag k="old_name:se" v="Bæjalgŋavarri" />
		<tag k="place" v="locality" />
		<tag k="ssr:stedsnr" v="928131" />
	</node>
	<node lat="69.4431527838083" lon="25.245944182115753" id="-35607">
		<tag k="name" v="Bálodievvá" />
		<tag k="name:se" v="Bálodievvá" />
		<tag k="natural" v="hill" />
		<tag k="old_name:se" v="Baludievva" />
		<tag k="place" v="locality" />
		<tag k="ssr:stedsnr" v="928194" />
	</node>
	<node lat="69.49447778173476" lon="24.800533119019477" id="-35613">
		<tag k="fixme" v="consider natural=peak for the most distinct mountains in the district" />
		<tag k="name" v="Sámmolašoaivi" />
		<tag k="name:se" v="Sámmolašoaivi" />
		<tag k="natural" v="hill" />
		<tag k="old_name:se" v="Sammulašoaivi" />
		<tag k="place" v="locality" />
		<tag k="ssr:stedsnr" v="928323" />
	</node>
	<node lat="68.93396668208172" lon="25.11762473017408" id="-35616">
		<tag k="name" v="Gollevárgurra" />
		<tag k="name:se" v="Gollevárgurra" />
		<tag k="natural" v="valley" />
		<tag k="old_name:se" v="Gållevargurra" />
		<tag k="place" v="locality" />
		<tag k="ssr:stedsnr" v="928836" />
	</node>
	<node lat="69.66843056607793" lon="25.10845533378156" id="-35617">
		<tag k="fixme" v="consider natural=peak for the most distinct mountains in the district" />
		<tag k="name" v="Girkovárri" />
		<tag k="name:se" v="Girkovárri" />
		<tag k="natural" v="hill" />
		<tag k="old_name:se" v="Girkuvarri" />
		<tag k="place" v="locality" />
		<tag k="ssr:stedsnr" v="928275" />
	</node>
	<node lat="69.652525012259" lon="25.150149760625418" id="-35622">
		<tag k="fixme" v="consider natural=peak for the most distinct mountains in the district" />
		<tag k="name" v="Heaikkačopma" />
		<tag k="name:se" v="Heaikkačopma" />
		<tag k="natural" v="hill" />
		<tag k="old_name:se" v="Hæikačåbma" />
		<tag k="place" v="locality" />
		<tag k="ssr:stedsnr" v="928281" />
	</node>
	<node lat="69.28351389442608" lon="24.38166928315794" id="-35624">
		<tag k="fixme" v="consider natural=peak for the most distinct mountains in the district" />
		<tag k="name" v="Jonsonvárri" />
		<tag k="name:se" v="Jonsonvárri" />
		<tag k="natural" v="hill" />
		<tag k="old_name:se" v="Jånsånvarri" />
		<tag k="place" v="locality" />
		<tag k="ssr:stedsnr" v="928292" />
	</node>
	<node lat="69.26380000460222" lon="24.54787759845611" id="-35625">
		<tag k="fixme" v="consider natural=peak for the most distinct mountains in the district" />
		<tag k="name" v="Iŋggá Máret várri" />
		<tag k="name:se" v="Iŋggá Máret várri" />
		<tag k="natural" v="hill" />
		<tag k="place" v="locality" />
		<tag k="ssr:stedsnr" v="928296" />
	</node>
	<node lat="68.99170278862205" lon="25.46204136196773" id="-35627">
		<tag k="fixme" v="consider natural=peak for the most distinct mountains in the district" />
		<tag k="name" v="Vađđačomat" />
		<tag k="name:se" v="Vađđačomat" />
		<tag k="natural" v="hill" />
		<tag k="old_name:se" v="Vađđačåmat" />
		<tag k="place" v="locality" />
		<tag k="ssr:stedsnr" v="928612" />
	</node>
	<node lat="68.91507859028447" lon="25.485257553338602" id="-35631">
		<tag k="name" v="Basevuohčču" />
		<tag k="name:se" v="Basevuohčču" />
		<tag k="natural" v="valley" />
		<tag k="old_name:se" v="Basevuoččo" />
		<tag k="place" v="locality" />
		<tag k="ssr:stedsnr" v="928626" />
	</node>
	<node lat="69.59559167606908" lon="24.531799816289677" id="-35638">
		<tag k="fixme" v="consider natural=peak for the most distinct mountains in the district" />
		<tag k="name" v="Mollešoaivi" />
		<tag k="name:se" v="Mollešoaivi" />
		<tag k="natural" v="hill" />
		<tag k="place" v="locality" />
		<tag k="ssr:stedsnr" v="929237" />
	</node>
	<node lat="69.26863056846415" lon="25.334374714172256" id="-35640">
		<tag k="fixme" v="consider natural=peak for the most distinct mountains in the district" />
		<tag k="name" v="Heargevárri" />
		<tag k="name:se" v="Heargevárri" />
		<tag k="natural" v="hill" />
		<tag k="old_name:se" v="Hærgevarri" />
		<tag k="place" v="locality" />
		<tag k="ssr:stedsnr" v="929042" />
	</node>
	<node lat="69.40029167143483" lon="24.327252620300428" id="-35643">
		<tag k="fixme" v="consider natural=peak for the most distinct mountains in the district" />
		<tag k="name" v="Sáhttovárri" />
		<tag k="name:se" v="Sáhttovárri" />
		<tag k="natural" v="hill" />
		<tag k="old_name:se" v="Sattuvarri" />
		<tag k="place" v="locality" />
		<tag k="ssr:stedsnr" v="929265" />
	</node>
	<node lat="69.37686667368851" lon="24.57616926939927" id="-35645">
		<tag k="name" v="Ehtemasávži" />
		<tag k="name:se" v="Ehtemasávži" />
		<tag k="natural" v="valley" />
		<tag k="old_name:se" v="Ettemasavži" />
		<tag k="place" v="locality" />
		<tag k="ssr:stedsnr" v="929276" />
	</node>
	<node lat="69.49190557088083" lon="25.619544139613936" id="-35648">
		<tag k="fixme" v="consider natural=peak for the most distinct mountains in the district" />
		<tag k="name" v="Biipovárri" />
		<tag k="name:se" v="Biipovárri" />
		<tag k="natural" v="hill" />
		<tag k="old_name:se" v="Biipuvarri" />
		<tag k="place" v="locality" />
		<tag k="ssr:stedsnr" v="929177" />
	</node>
	<node lat="69.47588334165809" lon="25.476513598428436" id="-35649">
		<tag k="fixme" v="consider natural=peak for the most distinct mountains in the district" />
		<tag k="name" v="Oalgevárri" />
		<tag k="name:se" v="Oalgevárri" />
		<tag k="natural" v="hill" />
		<tag k="place" v="locality" />
		<tag k="ssr:stedsnr" v="929184" />
	</node>
	<node lat="69.38270834198413" lon="24.292405392630396" id="-35654">
		<tag k="fixme" v="consider natural=peak for the most distinct mountains in the district" />
		<tag k="name" v="Čohttávárri" />
		<tag k="name:se" v="Čohttávárri" />
		<tag k="natural" v="hill" />
		<tag k="old_name:se" v="Čåttavarri" />
		<tag k="place" v="locality" />
		<tag k="ssr:stedsnr" v="929291" />
	</node>
	<node lat="69.71299167774124" lon="25.529102505724385" id="-35658">
		<tag k="fixme" v="consider natural=peak for the most distinct mountains in the district" />
		<tag k="name" v="Geinnodatoaivi" />
		<tag k="name:se" v="Geinnodatoaivi" />
		<tag k="natural" v="hill" />
		<tag k="old_name:se" v="Geinudatoaivi" />
		<tag k="place" v="locality" />
		<tag k="ssr:stedsnr" v="929373" />
	</node>
	<node lat="69.71514445427498" lon="25.340580305817628" id="-35659">
		<tag k="fixme" v="consider natural=peak for the most distinct mountains in the district" />
		<tag k="name" v="Guhkesjárčopma" />
		<tag k="name:se" v="Guhkesjárčopma" />
		<tag k="natural" v="hill" />
		<tag k="old_name:se" v="Gukkesjarčåbma" />
		<tag k="place" v="locality" />
		<tag k="ssr:stedsnr" v="929376" />
	</node>
	<node lat="69.73242501192206" lon="25.743191364316985" id="-35660">
		<tag k="fixme" v="consider natural=peak for the most distinct mountains in the district" />
		<tag k="name" v="Davit Ástevárri" />
		<tag k="name:se" v="Davit Ástevárri" />
		<tag k="natural" v="hill" />
		<tag k="old_name:se" v="Astevarri, davit" />
		<tag k="place" v="locality" />
		<tag k="ssr:stedsnr" v="929377" />
	</node>
	<node lat="69.69456945887924" lon="25.830838576932788" id="-35661">
		<tag k="fixme" v="consider natural=peak for the most distinct mountains in the district" />
		<tag k="name" v="Bođusvárri" />
		<tag k="name:se" v="Bođusvárri" />
		<tag k="natural" v="hill" />
		<tag k="old_name:se" v="Båđosvarri" />
		<tag k="place" v="locality" />
		<tag k="ssr:stedsnr" v="929481" />
	</node>
	<node lat="69.15563890245603" lon="25.220688620033304" id="-35666">
		<tag k="fixme" v="consider natural=peak for the most distinct mountains in the district" />
		<tag k="name" v="Njoammelvárri" />
		<tag k="name:se" v="Njoammelvárri" />
		<tag k="natural" v="hill" />
		<tag k="old_name:se" v="Njoammelvarri" />
		<tag k="place" v="locality" />
		<tag k="ssr:stedsnr" v="929870" />
	</node>
	<node lat="69.14022778786348" lon="25.540774693710407" id="-35667">
		<tag k="fixme" v="consider natural=peak for the most distinct mountains in the district" />
		<tag k="name" v="Veaddegeassenbuollán" />
		<tag k="name:se" v="Veaddegeassenbuollán" />
		<tag k="natural" v="hill" />
		<tag k="old_name:se" v="Væddegæssenbuollan" />
		<tag k="place" v="locality" />
		<tag k="ssr:stedsnr" v="929876" />
	</node>
	<node lat="69.78996389734998" lon="25.688833043943884" id="-35668">
		<tag k="name" v="Silboaivi" />
		<tag k="name:se" v="Silboaivi" />
		<tag k="natural" v="hill" />
		<tag k="old_name:se" v="Silboai'vi" />
		<tag k="place" v="locality" />
		<tag k="ssr:stedsnr" v="929879" />
	</node>
	<node lat="69.79393611718524" lon="25.686058041416466" id="-35669">
		<tag k="name" v="Silbávži" />
		<tag k="name:se" v="Silbávži" />
		<tag k="natural" v="valley" />
		<tag k="old_name:se" v="Silbavži" />
		<tag k="place" v="locality" />
		<tag k="ssr:stedsnr" v="929880" />
	</node>
	<node lat="69.84038334520618" lon="25.831116351250394" id="-35671">
		<tag k="fixme" v="consider natural=peak for the most distinct mountains in the district" />
		<tag k="name" v="Rátnoaivi" />
		<tag k="name:se" v="Rátnoaivi" />
		<tag k="natural" v="hill" />
		<tag k="place" v="locality" />
		<tag k="ssr:stedsnr" v="929959" />
	</node>
	<node lat="69.30929167766017" lon="25.465283046585686" id="-35676">
		<tag k="name" v="Ell-áhkobohki" />
		<tag k="name:se" v="Ell-áhkobohki" />
		<tag k="natural" v="valley" />
		<tag k="old_name:se" v="Ellakkubåkki" />
		<tag k="place" v="locality" />
		<tag k="ssr:stedsnr" v="868048" />
	</node>
	<node lat="69.63208890010895" lon="24.738974802298458" id="-35678">
		<tag k="name" v="Stiippanášgeahči" />
		<tag k="name:se" v="Stiippanášgeahči" />
		<tag k="natural" v="valley" />
		<tag k="old_name:se" v="Stiipanašgæčči" />
		<tag k="place" v="locality" />
		<tag k="ssr:stedsnr" v="868303" />
	</node>
	<node lat="69.2069305644633" lon="24.528980370107288" id="-35690">
		<tag k="fixme" v="consider natural=peak for the most distinct mountains in the district" />
		<tag k="name" v="Viercadat" />
		<tag k="name:se" v="Viercadat" />
		<tag k="natural" v="hill" />
		<tag k="place" v="locality" />
		<tag k="ssr:stedsnr" v="868973" />
	</node>
	<node lat="69.20034444855628" lon="24.48796647727464" id="-35691">
		<tag k="name" v="Cuopporohči" />
		<tag k="name:se" v="Cuopporohči" />
		<tag k="natural" v="valley" />
		<tag k="old_name:se" v="Cuobburråčči" />
		<tag k="place" v="locality" />
		<tag k="ssr:stedsnr" v="868977" />
	</node>
	<node lat="69.35696667270349" lon="24.613347023736544" id="-35697">
		<tag k="name" v="Ávjovárguoikkoaiávži" />
		<tag k="name:se" v="Ávjovárguoikkoaiávži" />
		<tag k="natural" v="valley" />
		<tag k="place" v="locality" />
		<tag k="ssr:stedsnr" v="878419" />
	</node>
	<node lat="69.4557833473063" lon="25.492791377481005" id="-35702">
		<tag k="name" v="Niittošguolbba" />
		<tag k="name:se" v="Niittošguolbba" />
		<tag k="place" v="locality" />
		<tag k="ssr:stedsnr" v="878523" />
	</node>
	<node lat="69.32685000554865" lon="25.118919203316274" id="-35704">
		<tag k="fixme" v="consider natural=peak for the most distinct mountains in the district" />
		<tag k="name" v="Sohkkarroavvi" />
		<tag k="name:se" v="Sohkkarroavvi" />
		<tag k="natural" v="hill" />
		<tag k="place" v="locality" />
		<tag k="ssr:stedsnr" v="878712" />
	</node>
	<node lat="69.46038334605251" lon="25.213680314509258" id="-35706">
		<tag k="name" v="Máhkabávttit" />
		<tag k="name:se" v="Máhkabávttit" />
		<tag k="natural" v="hill" />
		<tag k="place" v="locality" />
		<tag k="ssr:stedsnr" v="878607" />
	</node>
	<node lat="69.45191667397313" lon="25.704524685914507" id="-35715">
		<tag k="fixme" v="consider natural=peak for the most distinct mountains in the district" />
		<tag k="name" v="Jávrrášmuotkkevárri" />
		<tag k="name:se" v="Jávrrášmuotkkevárri" />
		<tag k="natural" v="hill" />
		<tag k="place" v="locality" />
		<tag k="ssr:stedsnr" v="878959" />
	</node>
	<node lat="69.45342223735713" lon="25.67724691996718" id="-35716">
		<tag k="fixme" v="consider natural=peak for the most distinct mountains in the district" />
		<tag k="name" v="Sealgevárri" />
		<tag k="name:se" v="Sealgevárri" />
		<tag k="natural" v="hill" />
		<tag k="place" v="locality" />
		<tag k="ssr:stedsnr" v="878858" />
	</node>
	<node lat="69.4946555612688" lon="25.399710839315844" id="-35719">
		<tag k="name" v="Gárževárbohki" />
		<tag k="name:se" v="Gárževárbohki" />
		<tag k="natural" v="valley" />
		<tag k="place" v="locality" />
		<tag k="ssr:stedsnr" v="934341" />
	</node>
	<node lat="69.34199723469779" lon="25.247141403130342" id="-35720">
		<tag k="fixme" v="consider natural=peak for the most distinct mountains in the district" />
		<tag k="name" v="Lávvovárri" />
		<tag k="name:se" v="Lávvovárri" />
		<tag k="natural" v="hill" />
		<tag k="old_name:se" v="Lavvuvarri" />
		<tag k="place" v="locality" />
		<tag k="ssr:stedsnr" v="928009" />
	</node>
	<node lat="69.36739723909898" lon="25.792974656587095" id="-35721">
		<tag k="fixme" v="consider natural=peak for the most distinct mountains in the district" />
		<tag k="name" v="Čáhppesvárnjunni" />
		<tag k="name:se" v="Čáhppesvárnjunni" />
		<tag k="natural" v="hill" />
		<tag k="old_name:se" v="Čappesvarnjunni" />
		<tag k="place" v="locality" />
		<tag k="ssr:stedsnr" v="928011" />
	</node>
	<node lat="69.37163612164142" lon="25.10525252763329" id="-35722">
		<tag k="name" v="Roavvealáš" />
		<tag k="name:se" v="Roavvealáš" />
		<tag k="natural" v="hill" />
		<tag k="old_name:se" v="Roavvealaš" />
		<tag k="place" v="locality" />
		<tag k="ssr:stedsnr" v="928158" />
	</node>
	<node lat="69.34195000799349" lon="24.819997019032872" id="-35723">
		<tag k="name" v="Gáldojohčopma" />
		<tag k="name:se" v="Gáldojohčopma" />
		<tag k="natural" v="hill" />
		<tag k="old_name:se" v="Galdujåkčåbma" />
		<tag k="place" v="locality" />
		<tag k="ssr:stedsnr" v="928165" />
	</node>
	<node lat="69.54750000176642" lon="24.68068314984152" id="-35724">
		<tag k="fixme" v="consider natural=peak for the most distinct mountains in the district" />
		<tag k="name" v="Ánnešgielas" />
		<tag k="name:se" v="Ánnešgielas" />
		<tag k="natural" v="hill" />
		<tag k="old_name:se" v="Annešgielas" />
		<tag k="place" v="locality" />
		<tag k="ssr:stedsnr" v="928306" />
	</node>
	<node lat="69.46494167885658" lon="25.12026919986559" id="-35726">
		<tag k="fixme" v="consider natural=peak for the most distinct mountains in the district" />
		<tag k="name" v="Guđatgahpir" />
		<tag k="name:se" v="Guđatgahpir" />
		<tag k="natural" v="hill" />
		<tag k="old_name:se" v="Guđatgappir" />
		<tag k="place" v="locality" />
		<tag k="ssr:stedsnr" v="928314" />
	</node>
	<node lat="69.23362501024941" lon="25.425385819322987" id="-35732">
		<tag k="fixme" v="consider natural=peak for the most distinct mountains in the district" />
		<tag k="name" v="Ruvvárri" />
		<tag k="name:se" v="Ruvvárri" />
		<tag k="natural" v="hill" />
		<tag k="old_name:se" v="Ruvvarri" />
		<tag k="place" v="locality" />
		<tag k="ssr:stedsnr" v="928803" />
	</node>
	<node lat="69.08030278556765" lon="24.71530257634629" id="-35733">
		<tag k="name" v="Vuollošgorsa" />
		<tag k="name:se" v="Vuollošgorsa" />
		<tag k="natural" v="valley" />
		<tag k="old_name:se" v="Vuollušgårsa" />
		<tag k="place" v="locality" />
		<tag k="ssr:stedsnr" v="928818" />
	</node>
	<node lat="69.09607500976549" lon="24.804949776960708" id="-35734">
		<tag k="fixme" v="consider natural=peak for the most distinct mountains in the district" />
		<tag k="name" v="Biggemaras" />
		<tag k="name:se" v="Biggemaras" />
		<tag k="natural" v="hill" />
		<tag k="old_name:se" v="Big'gemaras" />
		<tag k="place" v="locality" />
		<tag k="ssr:stedsnr" v="928820" />
	</node>
	<node lat="68.99886389709607" lon="24.806972005356542" id="-35735">
		<tag k="fixme" v="consider natural=peak for the most distinct mountains in the district" />
		<tag k="name" v="Skielgan" />
		<tag k="name:se" v="Skielgan" />
		<tag k="natural" v="hill" />
		<tag k="old_name:se" v="Skiel'gan" />
		<tag k="place" v="locality" />
		<tag k="ssr:stedsnr" v="928856" />
	</node>
	<node lat="69.07673056658486" lon="25.541708007376958" id="-35747">
		<tag k="fixme" v="consider natural=peak for the most distinct mountains in the district" />
		<tag k="name" v="Beahcečaŋŋá" />
		<tag k="name:se" v="Beahcečaŋŋá" />
		<tag k="natural" v="hill" />
		<tag k="old_name:se" v="Bæccečaŋŋa;Beaccečanna" />
		<tag k="place" v="locality" />
		<tag k="ssr:stedsnr" v="929850" />
	</node>
	<node lat="69.80578611948768" lon="26.033544110277475" id="-35749">
		<tag k="fixme" v="consider natural=peak for the most distinct mountains in the district" />
		<tag k="name" v="Bárševárri" />
		<tag k="name:se" v="Bárševárri" />
		<tag k="natural" v="hill" />
		<tag k="old_name:se" v="Barševarri" />
		<tag k="place" v="locality" />
		<tag k="ssr:stedsnr" v="929950" />
	</node>
	<node lat="69.48696667621395" lon="25.521966369452496" id="-35752">
		<tag k="fixme" v="consider natural=peak for the most distinct mountains in the district" />
		<tag k="name" v="Vuohčučohkka" />
		<tag k="name:se" v="Vuohčučohkka" />
		<tag k="natural" v="hill" />
		<tag k="place" v="locality" />
		<tag k="ssr:stedsnr" v="938035" />
	</node>
	<node lat="69.44435001175563" lon="25.308566398007155" id="-35753">
		<tag k="name" v="Háldeguolbba" />
		<tag k="name:se" v="Háldeguolbba" />
		<tag k="old_name:se" v="Haldeguolbba" />
		<tag k="place" v="locality" />
		<tag k="ssr:stedsnr" v="938042" />
	</node>
	<node lat="69.41930556537598" lon="24.894052568278735" id="-35759">
		<tag k="fixme" v="consider natural=peak for the most distinct mountains in the district" />
		<tag k="name" v="Beajalgŋávárri" />
		<tag k="name:se" v="Beajalgŋávárri" />
		<tag k="natural" v="hill" />
		<tag k="place" v="locality" />
		<tag k="ssr:stedsnr" v="939005" />
	</node>
	<node lat="69.49435000954281" lon="25.497585832420693" id="-35762">
		<tag k="fixme" v="consider natural=peak for the most distinct mountains in the district" />
		<tag k="name" v="Gorževárri" />
		<tag k="name:se" v="Gorževárri" />
		<tag k="natural" v="hill" />
		<tag k="place" v="locality" />
		<tag k="ssr:stedsnr" v="939311" />
	</node>
	<node lat="69.3516944507087" lon="24.570769247745712" id="-35763">
		<tag k="name" v="Elenáhkodievát" />
		<tag k="name:se" v="Elenáhkodievát" />
		<tag k="natural" v="hill" />
		<tag k="place" v="locality" />
		<tag k="ssr:stedsnr" v="939384" />
	</node>
	<node lat="69.37025833780879" lon="24.642058133534523" id="-35768">
		<tag k="name" v="Oahfardievvá" />
		<tag k="name:se" v="Oahfardievvá" />
		<tag k="natural" v="hill" />
		<tag k="place" v="locality" />
		<tag k="ssr:stedsnr" v="939495" />
	</node>
	<node lat="69.42285001043588" lon="25.213699746512635" id="-35770">
		<tag k="fixme" v="consider natural=peak for the most distinct mountains in the district" />
		<tag k="name" v="Geatkevárri" />
		<tag k="name:se" v="Geatkevárri" />
		<tag k="natural" v="hill" />
		<tag k="place" v="locality" />
		<tag k="ssr:stedsnr" v="939583" />
	</node>
	<node lat="69.36315556491655" lon="24.402891496513696" id="-35773">
		<tag k="fixme" v="consider natural=peak for the most distinct mountains in the district" />
		<tag k="name" v="Áitevárgeahči" />
		<tag k="name:se" v="Áitevárgeahči" />
		<tag k="natural" v="hill" />
		<tag k="place" v="locality" />
		<tag k="ssr:stedsnr" v="939710" />
	</node>
	<node lat="69.38013055917543" lon="24.291919272435464" id="-35774">
		<tag k="fixme" v="consider natural=peak for the most distinct mountains in the district" />
		<tag k="name" v="Huikinvađđa" />
		<tag k="name:se" v="Huikinvađđa" />
		<tag k="natural" v="hill" />
		<tag k="place" v="locality" />
		<tag k="ssr:stedsnr" v="939736" />
	</node>
	<node lat="69.4492111208218" lon="25.20578031673055" id="-35776">
		<tag k="name" v="Čuhajumielli" />
		<tag k="name:se" v="Čuhajumielli" />
		<tag k="natural" v="slope" />
		<tag k="place" v="locality" />
		<tag k="ssr:stedsnr" v="939638" />
	</node>
	<node lat="69.6172666767544" lon="25.960632978341536" id="-35777">
		<tag k="name" v="Čuolloveaiguolbba" />
		<tag k="name:se" v="Čuolloveaiguolbba" />
		<tag k="place" v="locality" />
		<tag k="ssr:stedsnr" v="939639" />
	</node>
	<node lat="69.26846111654929" lon="24.881849764938963" id="-35815">
		<tag k="fixme" v="consider natural=peak for the most distinct mountains in the district" />
		<tag k="name" v="Goržžiroavvi" />
		<tag k="name:se" v="Goržžiroavvi" />
		<tag k="natural" v="hill" />
		<tag k="old_name:se" v="Gåržiroavvi" />
		<tag k="place" v="locality" />
		<tag k="ssr:stedsnr" v="18189" />
	</node>
	<node lat="69.47912779025634" lon="25.050941431231834" id="-35820">
		<tag k="fixme" v="consider natural=peak for the most distinct mountains in the district" />
		<tag k="name" v="Leansmanvárri" />
		<tag k="name:se" v="Leansmanvárri" />
		<tag k="natural" v="hill" />
		<tag k="old_name:se" v="Lænsmanvarri" />
		<tag k="place" v="locality" />
		<tag k="ssr:stedsnr" v="18312" />
	</node>
	<node lat="69.47444167639671" lon="25.140024772464628" id="-35821">
		<tag k="fixme" v="consider natural=peak for the most distinct mountains in the district" />
		<tag k="name" v="Ruoššavárri" />
		<tag k="name:se" v="Ruoššavárri" />
		<tag k="natural" v="hill" />
		<tag k="old_name:se" v="Ruošávarri" />
		<tag k="place" v="locality" />
		<tag k="ssr:stedsnr" v="18314" />
	</node>
	<node lat="69.4451583376593" lon="24.918294229791176" id="-35823">
		<tag k="alt_name:se" v="Varetvárri" />
		<tag k="fixme" v="consider natural=peak for the most distinct mountains in the district" />
		<tag k="name" v="Varitvárri" />
		<tag k="name:se" v="Varitvárri" />
		<tag k="natural" v="hill" />
		<tag k="old_name:se" v="Varitvarri" />
		<tag k="place" v="locality" />
		<tag k="ssr:stedsnr" v="18323" />
	</node>
	<node lat="69.57917500278981" lon="24.803477583009983" id="-35824">
		<tag k="fixme" v="consider natural=peak for the most distinct mountains in the district" />
		<tag k="name" v="Stuorra Částenoaivi" />
		<tag k="name:se" v="Stuorra Částenoaivi" />
		<tag k="natural" v="hill" />
		<tag k="old_name:se" v="Častenoaivi, stuorra" />
		<tag k="place" v="locality" />
		<tag k="ssr:stedsnr" v="18326" />
	</node>
	<node lat="69.59833334521966" lon="25.844280224051342" id="-35833">
		<tag k="fixme" v="consider natural=peak for the most distinct mountains in the district" />
		<tag k="name" v="Skáravađđa" />
		<tag k="name:se" v="Skáravađđa" />
		<tag k="natural" v="hill" />
		<tag k="old_name:se" v="Skaravađđa" />
		<tag k="place" v="locality" />
		<tag k="ssr:stedsnr" v="18438" />
	</node>
	<node lat="69.67730001318341" lon="25.889455218824764" id="-35834">
		<tag k="fixme" v="consider natural=peak for the most distinct mountains in the district" />
		<tag k="name" v="Roavvenjunni" />
		<tag k="name:se" v="Roavvenjunni" />
		<tag k="natural" v="hill" />
		<tag k="place" v="locality" />
		<tag k="ssr:stedsnr" v="18445" />
	</node>
	<node lat="69.73112500897722" lon="24.45105817487216" id="-35835">
		<tag k="fixme" v="consider natural=peak for the most distinct mountains in the district" />
		<tag k="name" v="Bálggesoaivi" />
		<tag k="name:se" v="Bálggesoaivi" />
		<tag k="natural" v="hill" />
		<tag k="place" v="locality" />
		<tag k="ssr:stedsnr" v="18462" />
	</node>
	<node lat="68.97495000537255" lon="25.047438638225177" id="-35837">
		<tag k="name" v="Háippágurra" />
		<tag k="name:se" v="Háippágurra" />
		<tag k="natural" v="valley" />
		<tag k="old_name:se" v="Haipagurra" />
		<tag k="place" v="locality" />
		<tag k="ssr:stedsnr" v="18841" />
	</node>
	<node lat="69.14095000967257" lon="24.75035257098615" id="-35841">
		<tag k="name" v="Stuorravađđa" />
		<tag k="name:se" v="Stuorravađđa" />
		<tag k="place" v="locality" />
		<tag k="ssr:stedsnr" v="18892" />
	</node>
	<node lat="69.45446111832383" lon="25.651813581288128" id="-35848">
		<tag k="alt_name:se" v="Hođevárri" />
		<tag k="fixme" v="consider natural=peak for the most distinct mountains in the district" />
		<tag k="name" v="Badjevuohpevárri" />
		<tag k="name:se" v="Badjevuohpevárri" />
		<tag k="natural" v="hill" />
		<tag k="old_name:se" v="Baddjevuoppevarri" />
		<tag k="place" v="locality" />
		<tag k="ssr:stedsnr" v="19228" />
	</node>
	<node lat="69.44868612200372" lon="25.20038864226633" id="-35852">
		<tag k="name" v="Ássebáhguolbba" />
		<tag k="name:se" v="Ássebáhguolbba" />
		<tag k="place" v="locality" />
		<tag k="ssr:stedsnr" v="19363" />
	</node>
	<node lat="69.21718334300738" lon="24.658638688878778" id="-35856">
		<tag k="fixme" v="consider natural=peak for the most distinct mountains in the district" />
		<tag k="name" v="Mirkkovárri" />
		<tag k="name:se" v="Mirkkovárri" />
		<tag k="natural" v="hill" />
		<tag k="old_name:se" v="Mirkuvarri" />
		<tag k="place" v="locality" />
		<tag k="ssr:stedsnr" v="19870" />
	</node>
	<node lat="69.8939194571478" lon="25.804785825259245" id="-35857">
		<tag k="fixme" v="consider natural=peak for the most distinct mountains in the district" />
		<tag k="name" v="Suoidnegálgeahči" />
		<tag k="name:se" v="Suoidnegálgeahči" />
		<tag k="natural" v="hill" />
		<tag k="old_name:se" v="Suoidnegalgæčči" />
		<tag k="place" v="locality" />
		<tag k="ssr:stedsnr" v="19918" />
	</node>
	<node lat="69.46065278674375" lon="25.50750526821895" id="-35869">
		<tag k="name" v="Jámešgurra" />
		<tag k="name:se" v="Jámešgurra" />
		<tag k="natural" v="valley" />
		<tag k="place" v="locality" />
		<tag k="ssr:stedsnr" v="28100" />
	</node>
	<node lat="69.38560835152946" lon="25.829238541453936" id="-35872">
		<tag k="fixme" v="consider natural=peak for the most distinct mountains in the district" />
		<tag k="name" v="Njivlebákti" />
		<tag k="name:se" v="Njivlebákti" />
		<tag k="natural" v="hill" />
		<tag k="place" v="locality" />
		<tag k="ssr:stedsnr" v="28473" />
	</node>
	<node lat="69.41371668005688" lon="25.368060837226153" id="-35877">
		<tag k="fixme" v="consider natural=peak for the most distinct mountains in the district" />
		<tag k="name" v="Rihtávárri" />
		<tag k="name:se" v="Rihtávárri" />
		<tag k="natural" v="hill" />
		<tag k="place" v="locality" />
		<tag k="ssr:stedsnr" v="28461" />
	</node>
	<node lat="69.47168335032418" lon="25.839510777099473" id="-35879">
		<tag k="name" v="Gonagasbákti" />
		<tag k="name:se" v="Gonagasbákti" />
		<tag k="natural" v="hill" />
		<tag k="place" v="locality" />
		<tag k="ssr:stedsnr" v="28543" />
	</node>
	<node lat="69.45430278865462" lon="25.237974744707028" id="-35890">
		<tag k="fixme" v="consider natural=peak for the most distinct mountains in the district" />
		<tag k="name" v="Uhca Bálu" />
		<tag k="name:se" v="Uhca Bálu" />
		<tag k="natural" v="hill" />
		<tag k="place" v="locality" />
		<tag k="ssr:stedsnr" v="28616" />
	</node>
	<node lat="69.42863612573554" lon="25.628030252072172" id="-35892">
		<tag k="fixme" v="consider natural=peak for the most distinct mountains in the district" />
		<tag k="name" v="Ájočohkat" />
		<tag k="name:se" v="Ájočohkat" />
		<tag k="natural" v="hill" />
		<tag k="place" v="locality" />
		<tag k="ssr:stedsnr" v="28861" />
	</node>
	<node lat="69.36820556376941" lon="24.512516487104087" id="-35897">
		<tag k="name" v="Ovddaldasguolbba" />
		<tag k="name:se" v="Ovddaldasguolbba" />
		<tag k="place" v="locality" />
		<tag k="ssr:stedsnr" v="28754" />
	</node>
	<node lat="69.43283056807151" lon="25.675624693349135" id="-35899">
		<tag k="fixme" v="consider natural=peak for the most distinct mountains in the district" />
		<tag k="name" v="Karralvárri" />
		<tag k="name:se" v="Karralvárri" />
		<tag k="natural" v="hill" />
		<tag k="place" v="locality" />
		<tag k="ssr:stedsnr" v="28872" />
	</node>
	<node lat="69.41497501302953" lon="25.678716356212664" id="-35901">
		<tag k="fixme" v="consider natural=peak for the most distinct mountains in the district" />
		<tag k="name" v="Mone-Ásllatdievvá" />
		<tag k="name:se" v="Mone-Ásllatdievvá" />
		<tag k="natural" v="hill" />
		<tag k="place" v="locality" />
		<tag k="ssr:stedsnr" v="28949" />
	</node>
	<node lat="69.41342501256081" lon="25.63209135756407" id="-35902">
		<tag k="fixme" v="consider natural=peak for the most distinct mountains in the district" />
		<tag k="name" v="Lemet-Jon-Jovnnaaláš" />
		<tag k="name:se" v="Lemet-Jon-Jovnnaaláš" />
		<tag k="natural" v="hill" />
		<tag k="place" v="locality" />
		<tag k="ssr:stedsnr" v="28954" />
	</node>
	<node lat="69.37425279016793" lon="25.78837467379423" id="-35904">
		<tag k="fixme" v="consider natural=peak for the most distinct mountains in the district" />
		<tag k="name" v="Ándde-Ásllatvárrenjunni" />
		<tag k="name:se" v="Ándde-Ásllatvárrenjunni" />
		<tag k="natural" v="hill" />
		<tag k="place" v="locality" />
		<tag k="ssr:stedsnr" v="28965" />
	</node>
	<node lat="69.39281390416416" lon="25.491349704866032" id="-35907">
		<tag k="fixme" v="consider natural=peak for the most distinct mountains in the district" />
		<tag k="name" v="Uhca Dilljaváráš" />
		<tag k="name:se" v="Uhca Dilljaváráš" />
		<tag k="natural" v="hill" />
		<tag k="old_name:se" v="Dilljavaraš, ucca;Ucha Dilljavárri" />
		<tag k="place" v="locality" />
		<tag k="ssr:stedsnr" v="79017" />
	</node>
	<node lat="69.19928334363773" lon="25.327483064353636" id="-35916">
		<tag k="fixme" v="consider natural=peak for the most distinct mountains in the district" />
		<tag k="name" v="Allamaras" />
		<tag k="name:se" v="Allamaras" />
		<tag k="natural" v="hill" />
		<tag k="place" v="locality" />
		<tag k="ssr:stedsnr" v="79800" />
	</node>
	<node lat="69.0893305606955" lon="24.69974978289605" id="-35917">
		<tag k="fixme" v="consider natural=peak for the most distinct mountains in the district" />
		<tag k="name" v="Vuollošvárri" />
		<tag k="name:se" v="Vuollošvárri" />
		<tag k="natural" v="hill" />
		<tag k="old_name:se" v="Vuollušvarri;Vuolloš-várri" />
		<tag k="place" v="locality" />
		<tag k="ssr:stedsnr" v="79812" />
	</node>
	<node lat="69.06159445587319" lon="25.130110846724982" id="-35919">
		<tag k="fixme" v="consider natural=peak for the most distinct mountains in the district" />
		<tag k="name" v="Veaiganmaras" />
		<tag k="name:se" v="Veaiganmaras" />
		<tag k="natural" v="hill" />
		<tag k="old_name:se" v="Væiganmaras" />
		<tag k="place" v="locality" />
		<tag k="ssr:stedsnr" v="79820" />
	</node>
	<node lat="69.4565055684015" lon="25.248694201668915" id="-35926">
		<tag k="fixme" v="consider natural=peak for the most distinct mountains in the district" />
		<tag k="name" v="Báločohkka" />
		<tag k="name:se" v="Báločohkka" />
		<tag k="natural" v="hill" />
		<tag k="place" v="locality" />
		<tag k="ssr:stedsnr" v="79229" />
	</node>
	<node lat="69.7335472307675" lon="24.737477581733636" id="-35929">
		<tag k="fixme" v="consider natural=peak for the most distinct mountains in the district" />
		<tag k="name" v="Mievttačohkka" />
		<tag k="name:se" v="Mievttačohkka" />
		<tag k="natural" v="hill" />
		<tag k="old_name:se" v="Mievtačåkka" />
		<tag k="place" v="locality" />
		<tag k="ssr:stedsnr" v="79262" />
	</node>
	<node lat="69.45066666945799" lon="24.449594280435623" id="-35932">
		<tag k="fixme" v="consider natural=peak for the most distinct mountains in the district" />
		<tag k="name" v="Čearrogeašvárri" />
		<tag k="name:se" v="Čearrogeašvárri" />
		<tag k="natural" v="hill" />
		<tag k="old_name:se" v="Čærrugæšvarri" />
		<tag k="place" v="locality" />
		<tag k="ssr:stedsnr" v="79275" />
	</node>
	<node lat="69.38476945499511" lon="24.49147481636097" id="-35939">
		<tag k="alt_name:se" v="Issátávžževárri" />
		<tag k="fixme" v="consider natural=peak for the most distinct mountains in the district" />
		<tag k="name" v="Issátroavvi" />
		<tag k="name:se" v="Issátroavvi" />
		<tag k="natural" v="hill" />
		<tag k="old_name:se" v="Issatroavvi" />
		<tag k="place" v="locality" />
		<tag k="ssr:stedsnr" v="79312" />
	</node>
	<node lat="69.29873611322034" lon="24.534435930495256" id="-35940">
		<tag k="fixme" v="consider natural=peak for the most distinct mountains in the district" />
		<tag k="name" v="Ástevárri" />
		<tag k="name:se" v="Ástevárri" />
		<tag k="natural" v="hill" />
		<tag k="place" v="locality" />
		<tag k="ssr:stedsnr" v="79318" />
	</node>
	<node lat="69.7069611167627" lon="25.20250808442536" id="-35941">
		<tag k="name" v="Rivdnjesvađđa" />
		<tag k="name:se" v="Rivdnjesvađđa" />
		<tag k="place" v="locality" />
		<tag k="ssr:stedsnr" v="79319" />
	</node>
	<node lat="69.68187501115501" lon="25.156880320906552" id="-35943">
		<tag k="fixme" v="consider natural=peak for the most distinct mountains in the district" />
		<tag k="name" v="Čádjeoivoščohkka" />
		<tag k="name:se" v="Čádjeoivoščohkka" />
		<tag k="natural" v="hill" />
		<tag k="old_name:se" v="Čaddjeåivuščåkka" />
		<tag k="place" v="locality" />
		<tag k="ssr:stedsnr" v="79331" />
	</node>
	<node lat="69.5167777844761" lon="24.826599784607875" id="-35946">
		<tag k="name" v="Ellešgurra" />
		<tag k="name:se" v="Ellešgurra" />
		<tag k="natural" v="valley" />
		<tag k="place" v="locality" />
		<tag k="ssr:stedsnr" v="79338" />
	</node>
	<node lat="69.62731945579237" lon="25.482030277039073" id="-35948">
		<tag k="name" v="Fállemohkki" />
		<tag k="name:se" v="Fállemohkki" />
		<tag k="natural" v="valley" />
		<tag k="old_name:se" v="Fallemåkki" />
		<tag k="place" v="locality" />
		<tag k="ssr:stedsnr" v="79397" />
	</node>
	<node lat="69.702486117417" lon="25.498885825935773" id="-35952">
		<tag k="fixme" v="consider natural=peak for the most distinct mountains in the district" />
		<tag k="name" v="Áitevárri" />
		<tag k="name:se" v="Áitevárri" />
		<tag k="natural" v="hill" />
		<tag k="old_name:se" v="Aitevarri" />
		<tag k="place" v="locality" />
		<tag k="ssr:stedsnr" v="79366" />
	</node>
	<node lat="69.60900556843484" lon="25.94958576293176" id="-35956">
		<tag k="alt_name:se" v="Vuolitnjárroavvi" />
		<tag k="fixme" v="consider natural=peak for the most distinct mountains in the district" />
		<tag k="name" v="Vuolitnjárvárri" />
		<tag k="name:se" v="Vuolitnjárvárri" />
		<tag k="natural" v="hill" />
		<tag k="old_name:se" v="Vuolitnjarvarri" />
		<tag k="place" v="locality" />
		<tag k="ssr:stedsnr" v="79455" />
	</node>
	<node lat="69.71654168263869" lon="25.946841330999476" id="-35959">
		<tag k="fixme" v="consider natural=peak for the most distinct mountains in the district" />
		<tag k="name" v="Lállároavvi" />
		<tag k="name:se" v="Lállároavvi" />
		<tag k="natural" v="hill" />
		<tag k="old_name:se" v="Lallaroavvi" />
		<tag k="place" v="locality" />
		<tag k="ssr:stedsnr" v="79473" />
	</node>
	<node lat="69.72621667450163" lon="24.483702605063552" id="-35960">
		<tag k="fixme" v="consider natural=peak for the most distinct mountains in the district" />
		<tag k="name" v="Borgoaivi" />
		<tag k="name:se" v="Borgoaivi" />
		<tag k="natural" v="hill" />
		<tag k="old_name:se" v="Bårgoaivi" />
		<tag k="place" v="locality" />
		<tag k="ssr:stedsnr" v="79478" />
	</node>
	<node lat="69.56178056207732" lon="25.53700250225931" id="-35962">
		<tag k="fixme" v="consider natural=peak for the most distinct mountains in the district" />
		<tag k="name" v="Doalpovárri" />
		<tag k="name:se" v="Doalpovárri" />
		<tag k="natural" v="hill" />
		<tag k="old_name:se" v="Doalpuvarri" />
		<tag k="place" v="locality" />
		<tag k="ssr:stedsnr" v="79433" />
	</node>
	<node lat="69.01922501353879" lon="25.44258025070945" id="-35965">
		<tag k="fixme" v="consider natural=peak for the most distinct mountains in the district" />
		<tag k="name" v="Ássuorčielgi" />
		<tag k="name:se" v="Ássuorčielgi" />
		<tag k="natural" v="hill" />
		<tag k="old_name:se" v="Assuorčielgi" />
		<tag k="place" v="locality" />
		<tag k="ssr:stedsnr" v="79737" />
	</node>
	<node lat="69.82429445787291" lon="25.77900526459188" id="-35975">
		<tag k="fixme" v="consider natural=peak for the most distinct mountains in the district" />
		<tag k="name" v="Njárbesráhppát" />
		<tag k="name:se" v="Njárbesráhppát" />
		<tag k="natural" v="hill" />
		<tag k="old_name:se" v="Njarbesrappat" />
		<tag k="place" v="locality" />
		<tag k="ssr:stedsnr" v="80898" />
	</node>
	<node lat="69.83405556534721" lon="25.70633583315867" id="-35976">
		<tag k="fixme" v="consider natural=peak for the most distinct mountains in the district" />
		<tag k="name" v="Mohkkejároaivi" />
		<tag k="name:se" v="Mohkkejároaivi" />
		<tag k="natural" v="hill" />
		<tag k="old_name:se" v="Måkkejaroaivi" />
		<tag k="place" v="locality" />
		<tag k="ssr:stedsnr" v="80911" />
	</node>
	<node lat="69.7833027882118" lon="25.894944134860896" id="-35977">
		<tag k="name" v="Sohpparávži" />
		<tag k="name:se" v="Sohpparávži" />
		<tag k="natural" v="valley" />
		<tag k="old_name:se" v="Såpparavži" />
		<tag k="place" v="locality" />
		<tag k="ssr:stedsnr" v="80958" />
	</node>
	<node lat="69.50538890269331" lon="25.83179412576743" id="-35979">
		<tag k="fixme" v="consider natural=peak for the most distinct mountains in the district" />
		<tag k="name" v="Čielggesulloroavvi" />
		<tag k="name:se" v="Čielggesulloroavvi" />
		<tag k="natural" v="hill" />
		<tag k="old_name:se" v="Čielgasulloroavvi" />
		<tag k="place" v="locality" />
		<tag k="ssr:stedsnr" v="88983" />
	</node>
	<node lat="69.25921390176785" lon="25.70828023092818" id="-35981">
		<tag k="fixme" v="consider natural=peak for the most distinct mountains in the district" />
		<tag k="name" v="Buollán" />
		<tag k="name:se" v="Buollán" />
		<tag k="natural" v="hill" />
		<tag k="place" v="locality" />
		<tag k="ssr:stedsnr" v="89041" />
	</node>
	<node lat="69.53708890203919" lon="25.50402749033826" id="-35982">
		<tag k="fixme" v="consider natural=peak for the most distinct mountains in the district" />
		<tag k="name" v="Muvraaláš" />
		<tag k="name:se" v="Muvraaláš" />
		<tag k="natural" v="hill" />
		<tag k="place" v="locality" />
		<tag k="ssr:stedsnr" v="89086" />
	</node>
	<node lat="69.52824723286568" lon="25.387119169827965" id="-35983">
		<tag k="fixme" v="consider natural=peak for the most distinct mountains in the district" />
		<tag k="name" v="Stuora Jalgesvađđa" />
		<tag k="name:se" v="Stuora Jalgesvađđa" />
		<tag k="natural" v="hill" />
		<tag k="place" v="locality" />
		<tag k="ssr:stedsnr" v="89091" />
	</node>
	<node lat="69.2397888990012" lon="25.69076911333241" id="-35985">
		<tag k="fixme" v="consider natural=peak for the most distinct mountains in the district" />
		<tag k="name" v="Gaskabeaivvenjunni" />
		<tag k="name:se" v="Gaskabeaivvenjunni" />
		<tag k="natural" v="hill" />
		<tag k="place" v="locality" />
		<tag k="ssr:stedsnr" v="89111" />
	</node>
	<node lat="69.38580834268276" lon="24.679810908669733" id="-35990">
		<tag k="fixme" v="consider natural=peak for the most distinct mountains in the district" />
		<tag k="name" v="Jeagilvárri" />
		<tag k="name:se" v="Jeagilvárri" />
		<tag k="natural" v="hill" />
		<tag k="place" v="locality" />
		<tag k="ssr:stedsnr" v="89466" />
	</node>
	<node lat="69.4339333435652" lon="25.432335823968575" id="-35991">
		<tag k="fixme" v="consider natural=peak for the most distinct mountains in the district" />
		<tag k="name" v="Bajitvárri" />
		<tag k="name:se" v="Bajitvárri" />
		<tag k="natural" v="hill" />
		<tag k="place" v="locality" />
		<tag k="ssr:stedsnr" v="89467" />
	</node>
	<node lat="69.42335834317984" lon="24.8655109103369" id="-35996">
		<tag k="name" v="Beajalgŋábuolžžat" />
		<tag k="name:se" v="Beajalgŋábuolžžat" />
		<tag k="natural" v="hill" />
		<tag k="place" v="locality" />
		<tag k="ssr:stedsnr" v="89526" />
	</node>
	<node lat="69.42518056622467" lon="25.123613641462377" id="-36000">
		<tag k="name" v="Miellegeahči" />
		<tag k="name:se" v="Miellegeahči" />
		<tag k="natural" v="slope" />
		<tag k="place" v="locality" />
		<tag k="ssr:stedsnr" v="89630" />
	</node>
	<node lat="69.62735556426357" lon="25.874785782035303" id="-36001">
		<tag k="name" v="Hárrealáš" />
		<tag k="name:se" v="Hárrealáš" />
		<tag k="natural" v="hill" />
		<tag k="place" v="locality" />
		<tag k="ssr:stedsnr" v="89643" />
	</node>
	<node lat="69.44423056458025" lon="25.682241341989155" id="-36013">
		<tag k="name" v="Jávrrášmuotkkeguolbba" />
		<tag k="name:se" v="Jávrrášmuotkkeguolbba" />
		<tag k="place" v="locality" />
		<tag k="ssr:stedsnr" v="89809" />
	</node>
	<node lat="69.42360278724516" lon="25.572499689389446" id="-36016">
		<tag k="name" v="Dilljaávži" />
		<tag k="name:se" v="Dilljaávži" />
		<tag k="natural" v="valley" />
		<tag k="place" v="locality" />
		<tag k="ssr:stedsnr" v="89846" />
	</node>
	<node lat="69.75831390648302" lon="26.15441074559562" id="-36019">
		<tag k="name" v="Horbmámielli" />
		<tag k="name:se" v="Horbmámielli" />
		<tag k="natural" v="slope" />
		<tag k="place" v="locality" />
		<tag k="ssr:stedsnr" v="90649" />
	</node>
	<node lat="69.10155556460319" lon="24.96809977169714" id="-36024">
		<tag k="fixme" v="consider natural=peak for the most distinct mountains in the district" />
		<tag k="name" v="Rávotčohkka" />
		<tag k="name:se" v="Rávotčohkka" />
		<tag k="natural" v="hill" />
		<tag k="old_name:se" v="Ravutčåkka" />
		<tag k="place" v="locality" />
		<tag k="ssr:stedsnr" v="139810" />
	</node>
	<node lat="69.39765278511679" lon="25.382688613713746" id="-36026">
		<tag k="fixme" v="consider natural=peak for the most distinct mountains in the district" />
		<tag k="name" v="Jeagilvárri" />
		<tag k="name:se" v="Jeagilvárri" />
		<tag k="natural" v="hill" />
		<tag k="place" v="locality" />
		<tag k="ssr:stedsnr" v="139018" />
	</node>
	<node lat="69.2533750076614" lon="24.810191457057297" id="-36032">
		<tag k="name" v="Gárjilbuolža" />
		<tag k="name:se" v="Gárjilbuolža" />
		<tag k="natural" v="hill" />
		<tag k="old_name:se" v="Garjilbuolža" />
		<tag k="place" v="locality" />
		<tag k="ssr:stedsnr" v="139222" />
	</node>
</osm>
