<?xml version="1.0" encoding="UTF-8"?>
<osm version="0.6" generator="osmapis">
	<node lat="68.88836390328774" lon="25.338669150672455" id="-34753">
		<tag k="name" v="Mánabaijávri" />
		<tag k="name:se" v="Mánabaijávri" />
		<tag k="old_name:se" v="Manabajjavri" />
		<tag k="place" v="locality" />
		<tag k="ssr:stedsnr" v="17717" />
	</node>
	<node lat="69.44439723632223" lon="25.632194131630428" id="-34755">
		<tag k="name" v="Ájomohkki" />
		<tag k="name:se" v="Ájomohkki" />
		<tag k="natural" v="bay" />
		<tag k="ssr:stedsnr" v="18204" />
	</node>
	<node lat="69.68167500575123" lon="24.639955384488495" id="-34756">
		<tag k="name" v="Čuoččohanjávri" />
		<tag k="name:se" v="Čuoččohanjávri" />
		<tag k="natural" v="water" />
		<tag k="old_name:se" v="Čuožžuhanjavri" />
		<tag k="ssr:stedsnr" v="18298" />
		<tag k="water" v="lake" />
	</node>
	<node lat="69.50906112512338" lon="25.40838583555391" id="-34758">
		<tag k="name" v="Vuollotjávri" />
		<tag k="name:se" v="Vuollotjávri" />
		<tag k="natural" v="water" />
		<tag k="old_name:se" v="Vuollutjavri" />
		<tag k="ssr:stedsnr" v="18413" />
		<tag k="water" v="lake" />
	</node>
	<node lat="69.45400001312457" lon="25.60994969137927" id="-34759">
		<tag k="name" v="Stálogoatnil" />
		<tag k="name:se" v="Stálogoatnil" />
		<tag k="natural" v="water" />
		<tag k="ssr:stedsnr" v="18200" />
		<tag k="water" v="lake" />
	</node>
	<node lat="68.98104167676046" lon="25.712580210142203" id="-34761">
		<tag k="name" v="Bajit Gálgojávri" />
		<tag k="name:se" v="Bajit Gálgojávri" />
		<tag k="old_name:se" v="Galgujavri, bajit" />
		<tag k="place" v="locality" />
		<tag k="ssr:stedsnr" v="18607" />
	</node>
	<node lat="69.21610834683769" lon="25.701402444700584" id="-34763">
		<tag k="name" v="Mánalašjávri" />
		<tag k="name:se" v="Mánalašjávri" />
		<tag k="old_name:se" v="Manalašjavri" />
		<tag k="place" v="locality" />
		<tag k="ssr:stedsnr" v="18780" />
	</node>
	<node lat="69.07017778882361" lon="25.139080297510816" id="-34765">
		<tag k="name" v="Áibmejohka" />
		<tag k="name:se" v="Áibmejohka" />
		<tag k="old_name:se" v="Aibmejåkka" />
		<tag k="ssr:stedsnr" v="18795" />
		<tag k="waterway" v="river" />
	</node>
	<node lat="69.0687444635375" lon="25.734969090885173" id="-34767">
		<tag k="name" v="Geavgŋásullot" />
		<tag k="name:se" v="Geavgŋásullot" />
		<tag k="old_name:se" v="Gævgŋasullut" />
		<tag k="place" v="islet" />
		<tag k="ssr:stedsnr" v="19848" />
	</node>
	<node lat="69.75885556231836" lon="24.353455390168033" id="-34768">
		<tag k="name" v="Gearddošjávri" />
		<tag k="name:se" v="Gearddošjávri" />
		<tag k="natural" v="water" />
		<tag k="old_name:se" v="Gærdošjavri" />
		<tag k="ssr:stedsnr" v="19701" />
		<tag k="water" v="lake" />
	</node>
	<node lat="69.53510556325237" lon="24.39234149469553" id="-34771">
		<tag k="name" v="Sieđgasuolu" />
		<tag k="name:se" v="Sieđgasuolu" />
		<tag k="place" v="islet" />
		<tag k="ssr:stedsnr" v="24394" />
	</node>
	<node lat="69.42595834235885" lon="24.944749787738644" id="-34773">
		<tag k="name" v="Veahkkavanjavvi" />
		<tag k="name:se" v="Veahkkavanjavvi" />
		<tag k="ssr:stedsnr" v="28010" />
		<tag k="waterway" v="rapids" />
	</node>
	<node lat="69.46460279062713" lon="25.519110829380736" id="-34775">
		<tag k="name" v="Peđargárggu" />
		<tag k="name:se" v="Peđargárggu" />
		<tag k="natural" v="beach" />
		<tag k="ssr:stedsnr" v="28084" />
	</node>
	<node lat="69.2549944603515" lon="25.67671355619754" id="-34777">
		<tag k="name" v="Golggohašája" />
		<tag k="name:se" v="Golggohašája" />
		<tag k="ssr:stedsnr" v="28103" />
		<tag k="waterway" v="stream" />
	</node>
	<node lat="69.4642083476949" lon="25.46458305296549" id="-34780">
		<tag k="name" v="Iŋggáája" />
		<tag k="name:se" v="Iŋggáája" />
		<tag k="ssr:stedsnr" v="28219" />
		<tag k="waterway" v="stream" />
	</node>
	<node lat="69.37040278418299" lon="24.521705366690753" id="-34781">
		<tag k="name" v="Ovddaldasjávri" />
		<tag k="name:se" v="Ovddaldasjávri" />
		<tag k="natural" v="water" />
		<tag k="ssr:stedsnr" v="28287" />
	</node>
	<node lat="69.4109555630172" lon="24.71642203504266" id="-34782">
		<tag k="name" v="Liidnebeahcansavu" />
		<tag k="name:se" v="Liidnebeahcansavu" />
		<tag k="natural" v="water" />
		<tag k="ssr:stedsnr" v="28470" />
		<tag k="water" v="lake" />
	</node>
	<node lat="69.42728612237991" lon="24.880724777483955" id="-34783">
		<tag k="name" v="Beaŋgirsuolu" />
		<tag k="name:se" v="Beaŋgirsuolu" />
		<tag k="place" v="islet" />
		<tag k="ssr:stedsnr" v="28504" />
	</node>
	<node lat="69.43762778695523" lon="25.768710795154576" id="-34784">
		<tag k="name" v="Itkkojávri" />
		<tag k="name:se" v="Itkkojávri" />
		<tag k="natural" v="water" />
		<tag k="ssr:stedsnr" v="28588" />
	</node>
	<node lat="69.33753612123867" lon="25.148630303362822" id="-34785">
		<tag k="name" v="Gáhkkorláttu" />
		<tag k="name:se" v="Gáhkkorláttu" />
		<tag k="natural" v="water" />
		<tag k="ssr:stedsnr" v="28717" />
	</node>
	<node lat="69.34124167419274" lon="25.141919203298595" id="-34786">
		<tag k="name" v="Govdatsavu" />
		<tag k="name:se" v="Govdatsavu" />
		<tag k="natural" v="water" />
		<tag k="ssr:stedsnr" v="28721" />
		<tag k="water" v="lake" />
	</node>
	<node lat="69.6776361200029" lon="25.914416330031134" id="-34788">
		<tag k="name" v="Njigan" />
		<tag k="name:se" v="Njigan" />
		<tag k="natural" v="water" />
		<tag k="ssr:stedsnr" v="28607" />
		<tag k="water" v="lake" />
	</node>
	<node lat="69.44793057099398" lon="25.703760792043003" id="-34790">
		<tag k="name" v="Bádnjar-Ánddeája" />
		<tag k="name:se" v="Bádnjar-Ánddeája" />
		<tag k="ssr:stedsnr" v="28967" />
		<tag k="waterway" v="stream" />
	</node>
	<node lat="69.4432861194259" lon="25.70192468939478" id="-34791">
		<tag k="name" v="Ánddegoatnil" />
		<tag k="name:se" v="Ánddegoatnil" />
		<tag k="natural" v="water" />
		<tag k="ssr:stedsnr" v="28969" />
		<tag k="water" v="lake" />
	</node>
	<node lat="69.44150556633521" lon="25.67002468455666" id="-34796">
		<tag k="name" v="Dálvvetgáddi" />
		<tag k="name:se" v="Dálvvetgáddi" />
		<tag k="natural" v="beach" />
		<tag k="ssr:stedsnr" v="28870" />
	</node>
	<node lat="69.78260556958223" lon="26.192313511475774" id="-34797">
		<tag k="name" v="Uhcafielbmajohka" />
		<tag k="name:se" v="Uhcafielbmajohka" />
		<tag k="ssr:stedsnr" v="29675" />
		<tag k="waterway" v="stream" />
	</node>
	<node lat="69.2824361250629" lon="25.731513558592432" id="-34800">
		<tag k="name" v="Sámmálnjavejávri" />
		<tag k="name:se" v="Sámmálnjavejávri" />
		<tag k="natural" v="water" />
		<tag k="old_name:se" v="Sammalnjavejavri" />
		<tag k="ssr:stedsnr" v="79053" />
		<tag k="water" v="lake" />
	</node>
	<node lat="69.45299167828009" lon="25.612974710197967" id="-34801">
		<tag k="name" v="Ájonjárga" />
		<tag k="name:se" v="Ájonjárga" />
		<tag k="natural" v="cape" />
		<tag k="ssr:stedsnr" v="79210" />
	</node>
	<node lat="69.62301667536995" lon="24.300105400311736" id="-34803">
		<tag k="name" v="Gavdnjavuotna" />
		<tag k="name:se" v="Gavdnjavuotna" />
		<tag k="natural" v="bay" />
		<tag k="old_name:se" v="Gavdnjavuodna" />
		<tag k="ssr:stedsnr" v="79251" />
	</node>
	<node lat="69.39450278776634" lon="25.061174753423032" id="-34804">
		<tag k="name" v="Barjjosámmolája" />
		<tag k="name:se" v="Barjjosámmolája" />
		<tag k="old_name:se" v="Barjusammulaja" />
		<tag k="ssr:stedsnr" v="79147" />
		<tag k="waterway" v="stream" />
	</node>
	<node lat="69.64463333840597" lon="24.84960533921154" id="-34806">
		<tag k="name" v="Ráhpesjávri" />
		<tag k="name:se" v="Ráhpesjávri" />
		<tag k="natural" v="water" />
		<tag k="old_name:se" v="Rappesjavri" />
		<tag k="ssr:stedsnr" v="79306" />
	</node>
	<node lat="69.35603055764716" lon="24.403763716891156" id="-34807">
		<tag k="name" v="Čoavddatjohka" />
		<tag k="name:se" v="Čoavddatjohka" />
		<tag k="ssr:stedsnr" v="79308" />
		<tag k="waterway" v="stream" />
	</node>
	<node lat="69.4407861178295" lon="25.19730253225252" id="-34808">
		<tag k="name" v="Ássebáhsavu" />
		<tag k="name:se" v="Ássebáhsavu" />
		<tag k="place" v="locality" />
		<tag k="ssr:stedsnr" v="79347" />
	</node>
	<node lat="69.21753334982722" lon="25.703152437370562" id="-34812">
		<tag k="name" v="Mánalašsullot" />
		<tag k="name:se" v="Mánalašsullot" />
		<tag k="old_name:se" v="Manalašsullut" />
		<tag k="place" v="islet" />
		<tag k="ssr:stedsnr" v="79795" />
	</node>
	<node lat="69.76317778991591" lon="25.624177487492354" id="-34813">
		<tag k="name" v="Njárgajávri" />
		<tag k="name:se" v="Njárgajávri" />
		<tag k="natural" v="water" />
		<tag k="old_name:se" v="Njargajavri" />
		<tag k="ssr:stedsnr" v="80990" />
	</node>
	<node lat="69.37075000282597" lon="24.457533146989384" id="-34817">
		<tag k="name" v="Fierbmesainjavvi" />
		<tag k="name:se" v="Fierbmesainjavvi" />
		<tag k="ssr:stedsnr" v="89302" />
		<tag k="waterway" v="rapids" />
	</node>
	<node lat="69.4201194574687" lon="25.793069106758956" id="-34823">
		<tag k="name" v="Roavvegoahti" />
		<tag k="name:se" v="Roavvegoahti" />
		<tag k="natural" v="beach" />
		<tag k="ssr:stedsnr" v="89591" />
	</node>
	<node lat="69.34081112387834" lon="25.11513031025686" id="-34826">
		<tag k="name" v="Govdatláttu" />
		<tag k="name:se" v="Govdatláttu" />
		<tag k="natural" v="water" />
		<tag k="ssr:stedsnr" v="89719" />
	</node>
	<node lat="69.38863890106354" lon="25.15682752176242" id="-34828">
		<tag k="name" v="Riggánjárga" />
		<tag k="name:se" v="Riggánjárga" />
		<tag k="natural" v="cape" />
		<tag k="ssr:stedsnr" v="89676" />
	</node>
	<node lat="69.3959750106727" lon="25.14373309921711" id="-34829">
		<tag k="name" v="Peđargávva" />
		<tag k="name:se" v="Peđargávva" />
		<tag k="natural" v="bay" />
		<tag k="ssr:stedsnr" v="89691" />
	</node>
	<node lat="69.40693612563962" lon="25.80076634647107" id="-34832">
		<tag k="name" v="Máhkarája" />
		<tag k="name:se" v="Máhkarája" />
		<tag k="ssr:stedsnr" v="89966" />
		<tag k="waterway" v="stream" />
	</node>
	<node lat="69.39711667827095" lon="25.1589942058211" id="-34838">
		<tag k="name" v="Áhpemohkki" />
		<tag k="name:se" v="Áhpemohkki" />
		<tag k="natural" v="bay" />
		<tag k="old_name:se" v="Appemåkki" />
		<tag k="ssr:stedsnr" v="139148" />
	</node>
	<node lat="69.4845444562282" lon="25.23016085290909" id="-34840">
		<tag k="name" v="Lemmáluoppal" />
		<tag k="name:se" v="Lemmáluoppal" />
		<tag k="old_name:se" v="Lemmaluobbal" />
		<tag k="place" v="locality" />
		<tag k="ssr:stedsnr" v="139194" />
	</node>
	<node lat="69.30254445324066" lon="24.36199704265606" id="-34841">
		<tag k="name" v="Ástejávri" />
		<tag k="name:se" v="Ástejávri" />
		<tag k="natural" v="water" />
		<tag k="ssr:stedsnr" v="139347" />
		<tag k="water" v="lake" />
	</node>
	<node lat="69.73632223025612" lon="24.70919980314268" id="-34842">
		<tag k="name" v="Juolgelanjávri" />
		<tag k="name:se" v="Juolgelanjávri" />
		<tag k="natural" v="water" />
		<tag k="old_name:se" v="Juolgelanjavri" />
		<tag k="ssr:stedsnr" v="139288" />
		<tag k="water" v="lake" />
	</node>
	<node lat="69.72665278912234" lon="25.411427533166975" id="-34845">
		<tag k="name" v="Suololuoppal" />
		<tag k="name:se" v="Suololuoppal" />
		<tag k="natural" v="water" />
		<tag k="old_name:se" v="Suoluluobbal" />
		<tag k="ssr:stedsnr" v="139408" />
	</node>
	<node lat="69.03606113001906" lon="25.749007977314715" id="-34850">
		<tag k="name" v="Ártnetjávri" />
		<tag k="name:se" v="Ártnetjávri" />
		<tag k="natural" v="water" />
		<tag k="old_name:se" v="Ardnetjavri" />
		<tag k="ssr:stedsnr" v="139738" />
		<tag k="water" v="lake" />
	</node>
	<node lat="69.06841112187628" lon="25.593130226307682" id="-34853">
		<tag k="name" v="Davit Ássuorgi" />
		<tag k="name:se" v="Davit Ássuorgi" />
		<tag k="old_name:se" v="Assuorgi, davit" />
		<tag k="ssr:stedsnr" v="139840" />
		<tag k="waterway" v="river" />
	</node>
	<node lat="69.1076777856701" lon="24.71560257471851" id="-34854">
		<tag k="name" v="Vuollošskáidi" />
		<tag k="name:se" v="Vuollošskáidi" />
		<tag k="natural" v="cape" />
		<tag k="old_name:se" v="Vuollušskaidi" />
		<tag k="ssr:stedsnr" v="139889" />
	</node>
	<node lat="69.12003334503667" lon="24.843372005181305" id="-34855">
		<tag k="name" v="Stuorra Sáđgejohka" />
		<tag k="name:se" v="Stuorra Sáđgejohka" />
		<tag k="old_name:se" v="Sađgejåkka, stuorra;Sáđgejohka" />
		<tag k="ssr:stedsnr" v="139891" />
		<tag k="waterway" v="stream" />
	</node>
	<node lat="69.15739168040545" lon="24.980160872336096" id="-34856">
		<tag k="name" v="Vuolit Geassájávri" />
		<tag k="name:se" v="Vuolit Geassájávri" />
		<tag k="natural" v="water" />
		<tag k="old_name:se" v="Gæssajavri, vuolit" />
		<tag k="ssr:stedsnr" v="139899" />
		<tag k="water" v="lake" />
	</node>
	<node lat="69.45045556163994" lon="25.59598859599593" id="-34857">
		<tag k="name" v="Diljohnjálbmi" />
		<tag k="name:se" v="Diljohnjálbmi" />
		<tag k="natural" v="bay" />
		<tag k="ssr:stedsnr" v="149115" />
	</node>
	<node lat="69.438344453023" lon="25.00353865842205" id="-34858">
		<tag k="name" v="Sáđejohnjálbmi" />
		<tag k="name:se" v="Sáđejohnjálbmi" />
		<tag k="natural" v="bay" />
		<tag k="ssr:stedsnr" v="149011" />
	</node>
	<node lat="69.51576945712554" lon="25.373824743426493" id="-34859">
		<tag k="name" v="Goahtesailáttu" />
		<tag k="name:se" v="Goahtesailáttu" />
		<tag k="natural" v="water" />
		<tag k="ssr:stedsnr" v="149059" />
	</node>
	<node lat="69.41401389688161" lon="24.72526368000053" id="-34861">
		<tag k="name" v="Guoikkoaivi" />
		<tag k="name:se" v="Guoikkoaivi" />
		<tag k="ssr:stedsnr" v="149506" />
		<tag k="waterway" v="rapids" />
	</node>
	<node lat="69.53715279195634" lon="25.8280941296415" id="-34862">
		<tag k="name" v="Suonjoája" />
		<tag k="name:se" v="Suonjoája" />
		<tag k="ssr:stedsnr" v="149524" />
		<tag k="waterway" v="stream" />
	</node>
	<node lat="69.44265000820323" lon="25.418269159779115" id="-34865">
		<tag k="name" v="Gullja-Biretája" />
		<tag k="name:se" v="Gullja-Biretája" />
		<tag k="ssr:stedsnr" v="149536" />
		<tag k="waterway" v="stream" />
	</node>
	<node lat="69.40815556466158" lon="24.615163704598295" id="-34868">
		<tag k="name" v="Jergolvárjogaš" />
		<tag k="name:se" v="Jergolvárjogaš" />
		<tag k="ssr:stedsnr" v="149419" />
		<tag k="waterway" v="stream" />
	</node>
	<node lat="69.44183611985055" lon="25.535071940578508" id="-34874">
		<tag k="name" v="Gotkabeasjávri" />
		<tag k="name:se" v="Gotkabeasjávri" />
		<tag k="natural" v="water" />
		<tag k="ssr:stedsnr" v="149467" />
	</node>
	<node lat="69.44299445623459" lon="25.516996943994727" id="-34876">
		<tag k="name" v="Gaskkamušjávri" />
		<tag k="name:se" v="Gaskkamušjávri" />
		<tag k="natural" v="water" />
		<tag k="ssr:stedsnr" v="149473" />
	</node>
	<node lat="69.35336944860539" lon="24.30764704429337" id="-34877">
		<tag k="name" v="Pierašjohka" />
		<tag k="name:se" v="Pierašjohka" />
		<tag k="ssr:stedsnr" v="149654" />
		<tag k="waterway" v="stream" />
	</node>
	<node lat="69.38445555722731" lon="24.26310540235901" id="-34879">
		<tag k="name" v="Ánne-Lemetnjárga" />
		<tag k="name:se" v="Ánne-Lemetnjárga" />
		<tag k="natural" v="cape" />
		<tag k="ssr:stedsnr" v="149661" />
	</node>
	<node lat="69.4402555701177" lon="25.68847192381534" id="-34882">
		<tag k="name" v="Sieđgagoatnil" />
		<tag k="name:se" v="Sieđgagoatnil" />
		<tag k="natural" v="water" />
		<tag k="ssr:stedsnr" v="149855" />
		<tag k="water" v="lake" />
	</node>
	<node lat="69.43956668152781" lon="25.662760806475404" id="-34883">
		<tag k="name" v="Dálvvetmohkeruosttat" />
		<tag k="name:se" v="Dálvvetmohkeruosttat" />
		<tag k="natural" v="water" />
		<tag k="ssr:stedsnr" v="149866" />
	</node>
	<node lat="69.36812222924065" lon="24.442969277056836" id="-34884">
		<tag k="name" v="Sámilnjavvi" />
		<tag k="name:se" v="Sámilnjavvi" />
		<tag k="ssr:stedsnr" v="149719" />
		<tag k="waterway" v="rapids" />
	</node>
	<node lat="69.37292500937299" lon="24.293008165133603" id="-34885">
		<tag k="name" v="Čohttáoaivi" />
		<tag k="name:se" v="Čohttáoaivi" />
		<tag k="ssr:stedsnr" v="149756" />
		<tag k="waterway" v="rapids" />
	</node>
	<node lat="69.37566111852567" lon="24.345394280411067" id="-34886">
		<tag k="name" v="Annjaras-Ánddenjárga" />
		<tag k="name:se" v="Annjaras-Ánddenjárga" />
		<tag k="natural" v="cape" />
		<tag k="ssr:stedsnr" v="149765" />
	</node>
	<node lat="69.43813056789638" lon="25.752305236256987" id="-34887">
		<tag k="name" v="Vuollevuohpejávri" />
		<tag k="name:se" v="Vuollevuohpejávri" />
		<tag k="natural" v="water" />
		<tag k="ssr:stedsnr" v="149961" />
	</node>
	<node lat="68.96278056771007" lon="25.708549640848805" id="-34889">
		<tag k="name" v="Rássesavu" />
		<tag k="name:se" v="Rássesavu" />
		<tag k="old_name:se" v="Rassesavo" />
		<tag k="place" v="locality" />
		<tag k="ssr:stedsnr" v="260660" />
	</node>
	<node lat="68.9550055704999" lon="25.699369106182438" id="-34890">
		<tag k="name" v="Vuolit Beskoguoika" />
		<tag k="name:se" v="Vuolit Beskoguoika" />
		<tag k="natural" v="waterfall" />
		<tag k="old_name:se" v="Beskuguoika, vuolit" />
		<tag k="ssr:stedsnr" v="260661" />
	</node>
	<node lat="68.9345000146724" lon="25.637402438524646" id="-34891">
		<tag k="name" v="Allavuohčojohka" />
		<tag k="name:se" v="Allavuohčojohka" />
		<tag k="old_name:se" v="Allavuoččujåkka" />
		<tag k="ssr:stedsnr" v="260688" />
		<tag k="waterway" v="stream" />
	</node>
	<node lat="69.32691667109384" lon="25.021385878021608" id="-34897">
		<tag k="name" v="Liehppesavu" />
		<tag k="name:se" v="Liehppesavu" />
		<tag k="old_name:se" v="Lieppesavo" />
		<tag k="place" v="locality" />
		<tag k="ssr:stedsnr" v="261149" />
	</node>
	<node lat="69.3985000078092" lon="25.15023309239244" id="-34898">
		<tag k="name" v="Heastanjárga" />
		<tag k="name:se" v="Heastanjárga" />
		<tag k="natural" v="cape" />
		<tag k="old_name:se" v="Hæstanjarga" />
		<tag k="ssr:stedsnr" v="261130" />
	</node>
	<node lat="69.31216111839993" lon="24.88887477840235" id="-34901">
		<tag k="name" v="Ráktoguoika" />
		<tag k="name:se" v="Ráktoguoika" />
		<tag k="natural" v="waterfall" />
		<tag k="old_name:se" v="Raktuguoika" />
		<tag k="ssr:stedsnr" v="261158" />
	</node>
	<node lat="69.37766389542817" lon="25.039435876763466" id="-34903">
		<tag k="name" v="Skáhpeláttu" />
		<tag k="name:se" v="Skáhpeláttu" />
		<tag k="natural" v="water" />
		<tag k="old_name:se" v="Skappeladdo" />
		<tag k="ssr:stedsnr" v="261166" />
	</node>
	<node lat="69.34316667478376" lon="24.69631091539302" id="-34904">
		<tag k="name" v="Skáiddečorojávrrit" />
		<tag k="name:se" v="Skáiddečorojávrrit" />
		<tag k="natural" v="water" />
		<tag k="old_name:se" v="Skaidečårujavrit;Skaidečorojávrrit" />
		<tag k="ssr:stedsnr" v="261173" />
		<tag k="water" v="lake" />
	</node>
	<node lat="69.25518056396706" lon="24.863024779913893" id="-34906">
		<tag k="name" v="Dálabokjávri" />
		<tag k="name:se" v="Dálabokjávri" />
		<tag k="natural" v="water" />
		<tag k="old_name:se" v="Dalabåkjavri" />
		<tag k="ssr:stedsnr" v="261180" />
		<tag k="water" v="lake" />
	</node>
	<node lat="69.48993056360281" lon="25.283049740117143" id="-34907">
		<tag k="name" v="Duolbajávri" />
		<tag k="name:se" v="Duolbajávri" />
		<tag k="natural" v="water" />
		<tag k="old_name:se" v="Duolbajavri" />
		<tag k="ssr:stedsnr" v="261183" />
	</node>
	<node lat="69.49538056908561" lon="25.478113616674072" id="-34908">
		<tag k="name" v="Oalgejohka" />
		<tag k="name:se" v="Oalgejohka" />
		<tag k="ssr:stedsnr" v="261186" />
		<tag k="waterway" v="river" />
	</node>
	<node lat="69.44047500433376" lon="24.598966476890997" id="-34911">
		<tag k="name" v="Gearddošjávrrit" />
		<tag k="name:se" v="Gearddošjávrrit" />
		<tag k="natural" v="water" />
		<tag k="old_name:se" v="Gærdušjavrit" />
		<tag k="ssr:stedsnr" v="261278" />
		<tag k="water" v="lake" />
	</node>
	<node lat="69.4588250104585" lon="25.473138608191014" id="-34913">
		<tag k="name" v="Badjenjárga" />
		<tag k="name:se" v="Badjenjárga" />
		<tag k="natural" v="cape" />
		<tag k="old_name:se" v="Baddjenjarga" />
		<tag k="ssr:stedsnr" v="261224" />
	</node>
	<node lat="69.45209445169307" lon="25.44032193536501" id="-34914">
		<tag k="name" v="Rávdojohnjárga" />
		<tag k="name:se" v="Rávdojohnjárga" />
		<tag k="natural" v="cape" />
		<tag k="ssr:stedsnr" v="261226" />
	</node>
	<node lat="69.46770001601836" lon="25.774058006029065" id="-34915">
		<tag k="name" v="Hoašširskáidi" />
		<tag k="name:se" v="Hoašširskáidi" />
		<tag k="natural" v="cape" />
		<tag k="ssr:stedsnr" v="261229" />
	</node>
	<node lat="69.47245834391425" lon="25.021352543110652" id="-34916">
		<tag k="name" v="Njallavárláttu" />
		<tag k="name:se" v="Njallavárláttu" />
		<tag k="natural" v="water" />
		<tag k="old_name:se" v="Njallavarladdo" />
		<tag k="ssr:stedsnr" v="261357" />
	</node>
	<node lat="69.43558056242067" lon="24.995824781083847" id="-34919">
		<tag k="name" v="Sáđejohnjálmmesavu" />
		<tag k="name:se" v="Sáđejohnjálmmesavu" />
		<tag k="natural" v="water" />
		<tag k="old_name:se" v="Sađejåknjalmesavo" />
		<tag k="ssr:stedsnr" v="261369" />
		<tag k="water" v="lake" />
	</node>
	<node lat="69.37433056112711" lon="24.344410940784087" id="-34921">
		<tag k="name" v="Suoidnesuolu" />
		<tag k="name:se" v="Suoidnesuolu" />
		<tag k="natural" v="cape" />
		<tag k="old_name:se" v="Suoidnesuolo" />
		<tag k="ssr:stedsnr" v="261339" />
	</node>
	<node lat="69.27596667642841" lon="24.370016490622277" id="-34922">
		<tag k="name" v="Jonsonjávri" />
		<tag k="name:se" v="Jonsonjávri" />
		<tag k="natural" v="water" />
		<tag k="old_name:se" v="Jånsånjavri" />
		<tag k="ssr:stedsnr" v="261344" />
	</node>
	<node lat="69.63051945189943" lon="25.705988581922494" id="-34923">
		<tag k="name" v="Nigáláttu" />
		<tag k="name:se" v="Nigáláttu" />
		<tag k="natural" v="water" />
		<tag k="old_name:se" v="Nigaladdo" />
		<tag k="ssr:stedsnr" v="261426" />
	</node>
	<node lat="69.62934722824362" lon="25.37462751416011" id="-34924">
		<tag k="name" v="Gállojávri" />
		<tag k="name:se" v="Gállojávri" />
		<tag k="natural" v="water" />
		<tag k="old_name:se" v="Gallujavri" />
		<tag k="ssr:stedsnr" v="261430" />
		<tag k="water" v="lake" />
	</node>
	<node lat="69.63431390024672" lon="25.509191389100092" id="-34926">
		<tag k="name" v="Šaldejávri" />
		<tag k="name:se" v="Šaldejávri" />
		<tag k="natural" v="water" />
		<tag k="old_name:se" v="Šaldejavri" />
		<tag k="ssr:stedsnr" v="261436" />
		<tag k="water" v="lake" />
	</node>
	<node lat="69.69378612043016" lon="24.425610951502758" id="-34928">
		<tag k="name" v="Čoalbme-Likčajávri" />
		<tag k="name:se" v="Čoalbme-Likčajávri" />
		<tag k="natural" v="water" />
		<tag k="old_name:se" v="Čoalbme-Likčajavri" />
		<tag k="ssr:stedsnr" v="261522" />
		<tag k="water" v="lake" />
	</node>
	<node lat="69.52865000735207" lon="25.417605285815203" id="-34929">
		<tag k="name" v="Ánttetjávri" />
		<tag k="name:se" v="Ánttetjávri" />
		<tag k="natural" v="water" />
		<tag k="old_name:se" v="Antetjavri" />
		<tag k="ssr:stedsnr" v="261460" />
		<tag k="water" v="lake" />
	</node>
	<node lat="69.55232223564234" lon="25.287502518207003" id="-34931">
		<tag k="name" v="Njárgajávri" />
		<tag k="name:se" v="Njárgajávri" />
		<tag k="natural" v="water" />
		<tag k="old_name:se" v="Njargajavri" />
		<tag k="ssr:stedsnr" v="261478" />
		<tag k="water" v="lake" />
	</node>
	<node lat="68.96891390329712" lon="25.711577421716793" id="-34932">
		<tag k="name" v="Rohčiguoika" />
		<tag k="name:se" v="Rohčiguoika" />
		<tag k="natural" v="waterfall" />
		<tag k="old_name:se" v="Råččiguoika" />
		<tag k="ssr:stedsnr" v="261630" />
	</node>
	<node lat="68.97867500996006" lon="25.683227437367446" id="-34933">
		<tag k="name" v="Geassesaiája" />
		<tag k="name:se" v="Geassesaiája" />
		<tag k="old_name:se" v="Gæssesajaja" />
		<tag k="ssr:stedsnr" v="261641" />
		<tag k="waterway" v="stream" />
	</node>
	<node lat="69.23344723421562" lon="25.530288587595802" id="-34934">
		<tag k="name" v="Lávžejohka" />
		<tag k="name:se" v="Lávžejohka" />
		<tag k="old_name:se" v="Lavžejåkka" />
		<tag k="ssr:stedsnr" v="261784" />
		<tag k="waterway" v="stream" />
	</node>
	<node lat="69.24138612495051" lon="24.905074766861564" id="-34936">
		<tag k="name" v="Divrejávri" />
		<tag k="name:se" v="Divrejávri" />
		<tag k="natural" v="water" />
		<tag k="old_name:se" v="Divrejavri" />
		<tag k="ssr:stedsnr" v="261845" />
	</node>
	<node lat="69.2438944493504" lon="25.028683092978994" id="-34937">
		<tag k="name" v="Noaidatgeahčeláttu" />
		<tag k="name:se" v="Noaidatgeahčeláttu" />
		<tag k="natural" v="water" />
		<tag k="old_name:se" v="Noaidatgæččeladdo" />
		<tag k="ssr:stedsnr" v="261846" />
	</node>
	<node lat="69.0576388986954" lon="24.568847033578567" id="-34938">
		<tag k="name" v="Vuollošjohka" />
		<tag k="name:se" v="Vuollošjohka" />
		<tag k="old_name:se" v="Vuollušjåkka" />
		<tag k="ssr:stedsnr" v="261858" />
		<tag k="waterway" v="river" />
	</node>
	<node lat="69.13441945312972" lon="25.18386083662813" id="-34939">
		<tag k="name" v="Njoammeljohka" />
		<tag k="name:se" v="Njoammeljohka" />
		<tag k="old_name:se" v="Njoammeljåkka" />
		<tag k="ssr:stedsnr" v="261878" />
		<tag k="waterway" v="stream" />
	</node>
	<node lat="69.17253056721215" lon="25.71850522054564" id="-34942">
		<tag k="name" v="Guoldnásavu" />
		<tag k="name:se" v="Guoldnásavu" />
		<tag k="old_name:se" v="Guoldnasavo" />
		<tag k="place" v="locality" />
		<tag k="ssr:stedsnr" v="261829" />
	</node>
	<node lat="69.76676111313088" lon="24.66441092748935" id="-34943">
		<tag k="name" v="Bajit Gironjávri" />
		<tag k="name:se" v="Bajit Gironjávri" />
		<tag k="natural" v="water" />
		<tag k="old_name:se" v="Girunjavri, bajit" />
		<tag k="ssr:stedsnr" v="262623" />
		<tag k="water" v="lake" />
	</node>
	<node lat="69.75195833968286" lon="24.592352593003554" id="-34944">
		<tag k="fixme" v="multiple name tags, choose one and add the other to alt_name" />
		<tag k="name" v="Duottar-Reavvojávri;Vuolit Gironjávri" />
		<tag k="name:se" v="Duottar-Reavvojávri;Vuolit Gironjávri" />
		<tag k="natural" v="water" />
		<tag k="old_name:se" v="Duoddar-Rævvujavrit;Girunjavri, vuolit" />
		<tag k="ssr:stedsnr" v="262728" />
		<tag k="water" v="lake" />
	</node>
	<node lat="69.86409167997984" lon="25.74785805002475" id="-34946">
		<tag k="name" v="Suoidnegáldu" />
		<tag k="name:se" v="Suoidnegáldu" />
		<tag k="natural" v="spring" />
		<tag k="old_name:se" v="Suoidnegaldo" />
		<tag k="ssr:stedsnr" v="262930" />
	</node>
	<node lat="68.91008890377499" lon="25.650491331749638" id="-34947">
		<tag k="name" v="Gálgoluokta" />
		<tag k="name:se" v="Gálgoluokta" />
		<tag k="natural" v="bay" />
		<tag k="old_name:se" v="Galguluokta" />
		<tag k="ssr:stedsnr" v="199670" />
	</node>
	<node lat="68.74508334276763" lon="24.809502537633364" id="-34948">
		<tag k="name" v="Anárjohka" />
		<tag k="name:se" v="Anárjohka" />
		<tag k="ssr:stedsnr" v="200011" />
		<tag k="waterway" v="river" />
	</node>
	<node lat="69.27503334558051" lon="25.2588775044999" id="-34950">
		<tag k="name" v="Bierssáskáidi" />
		<tag k="name:se" v="Bierssáskáidi" />
		<tag k="natural" v="cape" />
		<tag k="old_name:se" v="Biersaskaidi" />
		<tag k="ssr:stedsnr" v="200054" />
	</node>
	<node lat="69.27926668221231" lon="25.33670249418961" id="-34951">
		<tag k="name" v="Heargejávri" />
		<tag k="name:se" v="Heargejávri" />
		<tag k="natural" v="water" />
		<tag k="old_name:se" v="Hærgejavri" />
		<tag k="ssr:stedsnr" v="200056" />
	</node>
	<node lat="69.2786666807825" lon="25.496977472081387" id="-34952">
		<tag k="name" v="Heargejohka" />
		<tag k="name:se" v="Heargejohka" />
		<tag k="old_name:se" v="Hærgejåkka" />
		<tag k="ssr:stedsnr" v="200058" />
		<tag k="waterway" v="river" />
	</node>
	<node lat="69.59352500601419" lon="24.562038699958716" id="-34955">
		<tag k="name" v="Rásánjávrrit" />
		<tag k="name:se" v="Rásánjávrrit" />
		<tag k="natural" v="water" />
		<tag k="ssr:stedsnr" v="200250" />
		<tag k="water" v="lake" />
	</node>
	<node lat="69.38717223012722" lon="24.314324849660988" id="-34956">
		<tag k="alt_name:se" v="Čohttávárjávri" />
		<tag k="name" v="Čohttájávri" />
		<tag k="name:se" v="Čohttájávri" />
		<tag k="natural" v="water" />
		<tag k="old_name:se" v="Čåttajavri" />
		<tag k="ssr:stedsnr" v="200301" />
	</node>
	<node lat="69.6052694523179" lon="25.458363609955807" id="-34957">
		<tag k="name" v="Juovvaskáidi" />
		<tag k="name:se" v="Juovvaskáidi" />
		<tag k="natural" v="cape" />
		<tag k="old_name:se" v="Juovvaskaidi" />
		<tag k="ssr:stedsnr" v="200415" />
	</node>
	<node lat="69.40384445276061" lon="24.489052593248626" id="-34963">
		<tag k="name" v="Rámavuolesjohka" />
		<tag k="name:se" v="Rámavuolesjohka" />
		<tag k="old_name:se" v="Ramavuolesjåkka" />
		<tag k="ssr:stedsnr" v="200312" />
		<tag k="waterway" v="stream" />
	</node>
	<node lat="69.54300000425718" lon="25.183302543070518" id="-34964">
		<tag k="name" v="Vuoskkojávri" />
		<tag k="name:se" v="Vuoskkojávri" />
		<tag k="natural" v="water" />
		<tag k="old_name:se" v="Vuoskujavri" />
		<tag k="ssr:stedsnr" v="200351" />
		<tag k="water" v="lake" />
	</node>
	<node lat="69.50180556267605" lon="24.65247481684223" id="-34966">
		<tag k="name" v="Guškkesoailáddot" />
		<tag k="name:se" v="Guškkesoailáddot" />
		<tag k="natural" v="water" />
		<tag k="old_name:se" v="Guškesoailaddut" />
		<tag k="ssr:stedsnr" v="200358" />
	</node>
	<node lat="69.2080389009601" lon="25.705869105886098" id="-34967">
		<tag k="alt_name:se" v="Válvvanjavvi" />
		<tag k="name" v="Válvu" />
		<tag k="name:se" v="Válvu" />
		<tag k="old_name:se" v="Valvo" />
		<tag k="place" v="locality" />
		<tag k="ssr:stedsnr" v="200804" />
	</node>
	<node lat="69.18625000953615" lon="25.30115806881699" id="-34968">
		<tag k="name" v="Mássuorskáidi" />
		<tag k="name:se" v="Mássuorskáidi" />
		<tag k="natural" v="cape" />
		<tag k="old_name:se" v="Massuorskaidi" />
		<tag k="ssr:stedsnr" v="200810" />
	</node>
	<node lat="69.23254446109104" lon="25.70141911742653" id="-34969">
		<tag k="name" v="Mohkkarassavu" />
		<tag k="name:se" v="Mohkkarassavu" />
		<tag k="natural" v="water" />
		<tag k="old_name:se" v="Måkkarassavo" />
		<tag k="ssr:stedsnr" v="200797" />
		<tag k="water" v="lake" />
	</node>
	<node lat="69.157944453824" lon="25.04314142646312" id="-34970">
		<tag k="name" v="Bajit Geassájávri" />
		<tag k="name:se" v="Bajit Geassájávri" />
		<tag k="natural" v="water" />
		<tag k="old_name:se" v="Gæssajavri, bajit" />
		<tag k="ssr:stedsnr" v="200910" />
		<tag k="water" v="lake" />
	</node>
	<node lat="69.80545001389495" lon="26.05228854887112" id="-34971">
		<tag k="name" v="Ráksajohka" />
		<tag k="name:se" v="Ráksajohka" />
		<tag k="old_name:se" v="Raksajåkka" />
		<tag k="ssr:stedsnr" v="201948" />
		<tag k="waterway" v="river" />
	</node>
	<node lat="69.76997500420333" lon="24.554752617489964" id="-34974">
		<tag k="name" v="Reavvojávri" />
		<tag k="name:se" v="Reavvojávri" />
		<tag k="natural" v="water" />
		<tag k="old_name:se" v="Rævvujavri" />
		<tag k="ssr:stedsnr" v="201696" />
		<tag k="water" v="lake" />
	</node>
	<node lat="69.7708861195262" lon="24.483474825650056" id="-34975">
		<tag k="name" v="Seaibbošjávri" />
		<tag k="name:se" v="Seaibbošjávri" />
		<tag k="natural" v="water" />
		<tag k="old_name:se" v="Sæibošjavri" />
		<tag k="ssr:stedsnr" v="201697" />
	</node>
	<node lat="69.7719972261115" lon="24.439149844766046" id="-34976">
		<tag k="name" v="Giellanjávrrit" />
		<tag k="name:se" v="Giellanjávrrit" />
		<tag k="natural" v="water" />
		<tag k="old_name:se" v="Giellanjavrit" />
		<tag k="ssr:stedsnr" v="201698" />
		<tag k="water" v="lake" />
	</node>
	<node lat="69.83441112300162" lon="25.758760817885513" id="-34977">
		<tag k="name" v="Mohkkejohka" />
		<tag k="name:se" v="Mohkkejohka" />
		<tag k="old_name:se" v="Måkkejåkka" />
		<tag k="ssr:stedsnr" v="201899" />
		<tag k="waterway" v="stream" />
	</node>
	<node lat="69.43775000855186" lon="25.72773024239584" id="-34981">
		<tag k="name" v="Holgagáddi" />
		<tag k="name:se" v="Holgagáddi" />
		<tag k="natural" v="beach" />
		<tag k="ssr:stedsnr" v="210484" />
	</node>
	<node lat="69.3105194588737" lon="25.737541342393264" id="-34982">
		<tag k="name" v="Vuolit Ruovttot" />
		<tag k="name:se" v="Vuolit Ruovttot" />
		<tag k="ssr:stedsnr" v="210489" />
		<tag k="waterway" v="river" />
	</node>
	<node lat="69.28860279224918" lon="25.745788563083075" id="-34983">
		<tag k="name" v="Sámmálnjavvi" />
		<tag k="name:se" v="Sámmálnjavvi" />
		<tag k="ssr:stedsnr" v="210490" />
		<tag k="waterway" v="rapids" />
	</node>
	<node lat="69.33488612341121" lon="25.101288644565777" id="-34986">
		<tag k="name" v="Sohkkarskáidi" />
		<tag k="name:se" v="Sohkkarskáidi" />
		<tag k="natural" v="cape" />
		<tag k="ssr:stedsnr" v="210729" />
	</node>
	<node lat="69.44266667550892" lon="25.682949690664806" id="-34994">
		<tag k="name" v="Jávrrášmuotkkeláddot" />
		<tag k="name:se" v="Jávrrášmuotkkeláddot" />
		<tag k="natural" v="water" />
		<tag k="ssr:stedsnr" v="211777" />
	</node>
	<node lat="69.43977500720997" lon="25.02152754852353" id="-34997">
		<tag k="name" v="Sullovuolle" />
		<tag k="name:se" v="Sullovuolle" />
		<tag k="place" v="locality" />
		<tag k="ssr:stedsnr" v="271011" />
	</node>
	<node lat="69.2117777899693" lon="25.69930245408234" id="-34998">
		<tag k="name" v="Guorroláttu" />
		<tag k="name:se" v="Guorroláttu" />
		<tag k="natural" v="water" />
		<tag k="ssr:stedsnr" v="271072" />
	</node>
	<node lat="69.46512500908682" lon="25.48508581353755" id="-35000">
		<tag k="name" v="Ovllá-Pierláttu" />
		<tag k="name:se" v="Ovllá-Pierláttu" />
		<tag k="natural" v="water" />
		<tag k="ssr:stedsnr" v="271248" />
	</node>
	<node lat="69.37210834123964" lon="24.513260936676147" id="-35001">
		<tag k="name" v="Lemet-Piergohppi" />
		<tag k="name:se" v="Lemet-Piergohppi" />
		<tag k="natural" v="bay" />
		<tag k="ssr:stedsnr" v="271333" />
	</node>
	<node lat="69.36176111288853" lon="24.56119148688376" id="-35002">
		<tag k="name" v="Duoljjeguoikkoaivi" />
		<tag k="name:se" v="Duoljjeguoikkoaivi" />
		<tag k="ssr:stedsnr" v="271317" />
		<tag k="waterway" v="rapids" />
	</node>
	<node lat="69.37413611920196" lon="24.482638708951097" id="-35003">
		<tag k="name" v="Gohásvuolle" />
		<tag k="name:se" v="Gohásvuolle" />
		<tag k="place" v="locality" />
		<tag k="ssr:stedsnr" v="271340" />
	</node>
	<node lat="69.37545000991736" lon="24.394299822542038" id="-35004">
		<tag k="name" v="Gáhkkorláttu" />
		<tag k="name:se" v="Gáhkkorláttu" />
		<tag k="natural" v="water" />
		<tag k="ssr:stedsnr" v="271342" />
	</node>
	<node lat="69.48825556940743" lon="25.494958052745787" id="-35008">
		<tag k="name" v="Luhkkárája" />
		<tag k="name:se" v="Luhkkárája" />
		<tag k="ssr:stedsnr" v="271366" />
		<tag k="waterway" v="stream" />
	</node>
	<node lat="69.35372778706189" lon="24.58526924764949" id="-35009">
		<tag k="name" v="Suoloearti" />
		<tag k="name:se" v="Suoloearti" />
		<tag k="natural" v="strait" />
		<tag k="ssr:stedsnr" v="271415" />
	</node>
	<node lat="69.42240834516372" lon="25.79421078198585" id="-35010">
		<tag k="name" v="Sieđgajorbmi" />
		<tag k="name:se" v="Sieđgajorbmi" />
		<tag k="place" v="locality" />
		<tag k="ssr:stedsnr" v="271528" />
	</node>
	<node lat="69.4511611252657" lon="25.597152467509908" id="-35011">
		<tag k="name" v="Ruitogoatnil" />
		<tag k="name:se" v="Ruitogoatnil" />
		<tag k="natural" v="water" />
		<tag k="ssr:stedsnr" v="271530" />
		<tag k="water" v="lake" />
	</node>
	<node lat="69.3807250131339" lon="25.825552432829515" id="-35012">
		<tag k="name" v="Hávgasavu" />
		<tag k="name:se" v="Hávgasavu" />
		<tag k="natural" v="water" />
		<tag k="ssr:stedsnr" v="271516" />
		<tag k="water" v="lake" />
	</node>
	<node lat="69.44503889511888" lon="25.38723029125282" id="-35013">
		<tag k="name" v="Báktemohkki" />
		<tag k="name:se" v="Báktemohkki" />
		<tag k="natural" v="bay" />
		<tag k="ssr:stedsnr" v="271596" />
	</node>
	<node lat="69.6871027885926" lon="25.851474685713313" id="-35014">
		<tag k="name" v="Boašjávri" />
		<tag k="name:se" v="Boašjávri" />
		<tag k="natural" v="water" />
		<tag k="ssr:stedsnr" v="271601" />
	</node>
	<node lat="69.43548889812011" lon="25.802691343573187" id="-35015">
		<tag k="name" v="Goivvohat" />
		<tag k="name:se" v="Goivvohat" />
		<tag k="natural" v="strait" />
		<tag k="ssr:stedsnr" v="271620" />
	</node>
	<node lat="69.41765556577185" lon="25.091405308073025" id="-35016">
		<tag k="name" v="Ásllat-Biehtár-ája" />
		<tag k="name:se" v="Ásllat-Biehtár-ája" />
		<tag k="ssr:stedsnr" v="271672" />
		<tag k="waterway" v="stream" />
	</node>
	<node lat="69.43231945557447" lon="24.61263870214586" id="-35017">
		<tag k="name" v="Vuolimuš-Gearddošjávri" />
		<tag k="name:se" v="Vuolimuš-Gearddošjávri" />
		<tag k="natural" v="water" />
		<tag k="ssr:stedsnr" v="271533" />
		<tag k="water" v="lake" />
	</node>
	<node lat="69.41606111578548" lon="24.619547035246168" id="-35019">
		<tag k="name" v="Juovvajogaš" />
		<tag k="name:se" v="Juovvajogaš" />
		<tag k="ssr:stedsnr" v="271545" />
		<tag k="waterway" v="stream" />
	</node>
	<node lat="69.43116945140224" lon="25.149377542518163" id="-35025">
		<tag k="name" v="Mándirnjárvuohppi" />
		<tag k="name:se" v="Mándirnjárvuohppi" />
		<tag k="natural" v="bay" />
		<tag k="ssr:stedsnr" v="271667" />
	</node>
	<node lat="69.42777778761922" lon="25.07406365567236" id="-35028">
		<tag k="name" v="Loddenjárguoikkavuolesuolu" />
		<tag k="name:se" v="Loddenjárguoikkavuolesuolu" />
		<tag k="place" v="islet" />
		<tag k="ssr:stedsnr" v="271678" />
	</node>
	<node lat="69.4451250122395" lon="25.199191423375133" id="-35030">
		<tag k="name" v="Mohkkejogaš" />
		<tag k="name:se" v="Mohkkejogaš" />
		<tag k="ssr:stedsnr" v="271695" />
		<tag k="waterway" v="stream" />
	</node>
	<node lat="69.35095278554304" lon="25.15643585122297" id="-35031">
		<tag k="name" v="Goikenjavesavu" />
		<tag k="name:se" v="Goikenjavesavu" />
		<tag k="natural" v="water" />
		<tag k="ssr:stedsnr" v="271779" />
		<tag k="water" v="lake" />
	</node>
	<node lat="69.36757778608633" lon="24.443360945684326" id="-35034">
		<tag k="name" v="Lássavuolli" />
		<tag k="name:se" v="Lássavuolli" />
		<tag k="place" v="locality" />
		<tag k="ssr:stedsnr" v="271768" />
	</node>
	<node lat="69.34864723190661" lon="25.181144196813634" id="-35035">
		<tag k="name" v="Námmámáttitsuorgi" />
		<tag k="name:se" v="Námmámáttitsuorgi" />
		<tag k="ssr:stedsnr" v="271770" />
		<tag k="waterway" v="stream" />
	</node>
	<node lat="69.46078056381923" lon="25.52691080813519" id="-35044">
		<tag k="name" v="Laŧemohkki" />
		<tag k="name:se" v="Laŧemohkki" />
		<tag k="natural" v="bay" />
		<tag k="ssr:stedsnr" v="453084" />
	</node>
	<node lat="69.39951112616916" lon="25.841110772340862" id="-35050">
		<tag k="name" v="Dorvoguoika" />
		<tag k="name:se" v="Dorvoguoika" />
		<tag k="ssr:stedsnr" v="453482" />
		<tag k="waterway" v="rapids" />
	</node>
	<node lat="69.57476112324431" lon="25.806546891667548" id="-35051">
		<tag k="name" v="Lássanjárskáidi" />
		<tag k="name:se" v="Lássanjárskáidi" />
		<tag k="natural" v="cape" />
		<tag k="ssr:stedsnr" v="453543" />
	</node>
	<node lat="69.4445750073059" lon="25.224719179183467" id="-35053">
		<tag k="name" v="Sáttočeavát" />
		<tag k="name:se" v="Sáttočeavát" />
		<tag k="natural" v="cape" />
		<tag k="ssr:stedsnr" v="453617" />
	</node>
	<node lat="69.4321500073548" lon="25.185719207511156" id="-35055">
		<tag k="name" v="Guođohanája" />
		<tag k="name:se" v="Guođohanája" />
		<tag k="ssr:stedsnr" v="453628" />
		<tag k="waterway" v="stream" />
	</node>
	<node lat="69.42834722940704" lon="25.116333095277735" id="-35056">
		<tag k="name" v="Láiraguoika" />
		<tag k="name:se" v="Láiraguoika" />
		<tag k="ssr:stedsnr" v="453637" />
		<tag k="waterway" v="rapids" />
	</node>
	<node lat="69.41933890197082" lon="25.728669112496082" id="-35058">
		<tag k="alt_name:se" v="Tuollárskáidi" />
		<tag k="name" v="Muotkkeskáidi" />
		<tag k="name:se" v="Muotkkeskáidi" />
		<tag k="natural" v="cape" />
		<tag k="ssr:stedsnr" v="453584" />
	</node>
	<node lat="69.37990000289636" lon="24.24059983280636" id="-35060">
		<tag k="name" v="Bajitsátku" />
		<tag k="name:se" v="Bajitsátku" />
		<tag k="natural" v="beach" />
		<tag k="ssr:stedsnr" v="453685" />
	</node>
	<node lat="69.33178889525861" lon="25.04783865855863" id="-35061">
		<tag k="name" v="Goddesulsavu" />
		<tag k="name:se" v="Goddesulsavu" />
		<tag k="natural" v="water" />
		<tag k="ssr:stedsnr" v="453742" />
		<tag k="water" v="lake" />
	</node>
	<node lat="69.35771667423917" lon="25.142799743667226" id="-35063">
		<tag k="name" v="Geilegoatnil" />
		<tag k="name:se" v="Geilegoatnil" />
		<tag k="natural" v="water" />
		<tag k="ssr:stedsnr" v="453759" />
		<tag k="water" v="lake" />
	</node>
	<node lat="69.43688611751074" lon="25.178288636526936" id="-35065">
		<tag k="name" v="Mielkegoatnil" />
		<tag k="name:se" v="Mielkegoatnil" />
		<tag k="natural" v="water" />
		<tag k="ssr:stedsnr" v="453650" />
		<tag k="water" v="lake" />
	</node>
	<node lat="69.6075905407924" lon="25.972794154858402" id="-35069">
		<tag k="name" v="Savvonsavu" />
		<tag k="name:se" v="Savvonsavu" />
		<tag k="natural" v="water" />
		<tag k="ssr:stedsnr" v="453988" />
		<tag k="water" v="lake" />
	</node>
	<node lat="69.4490777931118" lon="25.70956913594155" id="-35071">
		<tag k="name" v="Gievdneskáidi" />
		<tag k="name:se" v="Gievdneskáidi" />
		<tag k="natural" v="cape" />
		<tag k="ssr:stedsnr" v="453850" />
	</node>
	<node lat="69.70215834775193" lon="25.84572746456791" id="-35075">
		<tag k="name" v="Geinnodatája" />
		<tag k="name:se" v="Geinnodatája" />
		<tag k="old_name:se" v="Geinnodataja" />
		<tag k="ssr:stedsnr" v="453938" />
		<tag k="waterway" v="stream" />
	</node>
	<node lat="69.4911583435317" lon="25.556424696919134" id="-35077">
		<tag k="name" v="Gievdneláddot" />
		<tag k="name:se" v="Gievdneláddot" />
		<tag k="natural" v="water" />
		<tag k="ssr:stedsnr" v="453943" />
	</node>
	<node lat="68.88811390448849" lon="25.387849701385257" id="-35079">
		<tag k="name" v="Doaresguoikkajávri" />
		<tag k="name:se" v="Doaresguoikkajávri" />
		<tag k="natural" v="water" />
		<tag k="old_name:se" v="Doaresguoikajavri" />
		<tag k="ssr:stedsnr" v="260697" />
	</node>
	<node lat="69.36989167311573" lon="25.27622195661293" id="-35083">
		<tag k="name" v="Gussajávri" />
		<tag k="name:se" v="Gussajávri" />
		<tag k="natural" v="water" />
		<tag k="old_name:se" v="Gussajavri" />
		<tag k="ssr:stedsnr" v="261011" />
	</node>
	<node lat="69.73752500669666" lon="25.119899763483517" id="-35084">
		<tag k="name" v="Gottetvárláddot" />
		<tag k="name:se" v="Gottetvárláddot" />
		<tag k="natural" v="water" />
		<tag k="old_name:se" v="Gåddetvarladdut" />
		<tag k="ssr:stedsnr" v="261297" />
		<tag k="water" v="lake" />
	</node>
	<node lat="69.74503334601809" lon="25.755146934220644" id="-35087">
		<tag k="name" v="Ástejohka" />
		<tag k="name:se" v="Ástejohka" />
		<tag k="old_name:se" v="Astejåkka" />
		<tag k="ssr:stedsnr" v="261408" />
		<tag k="waterway" v="river" />
	</node>
	<node lat="69.57139445797311" lon="25.355358062788653" id="-35088">
		<tag k="name" v="Sieiddejohka" />
		<tag k="name:se" v="Sieiddejohka" />
		<tag k="old_name:se" v="Sieidejåkka" />
		<tag k="ssr:stedsnr" v="261415" />
		<tag k="waterway" v="stream" />
	</node>
	<node lat="69.39906389828609" lon="24.510730382392925" id="-35089">
		<tag k="name" v="Beazášskáidi" />
		<tag k="name:se" v="Beazášskáidi" />
		<tag k="natural" v="cape" />
		<tag k="old_name:se" v="Bæzašskaidi;Beazašskáidi" />
		<tag k="ssr:stedsnr" v="261309" />
	</node>
	<node lat="69.52516111738" lon="24.420558169134004" id="-35090">
		<tag k="name" v="Juovssajávri" />
		<tag k="name:se" v="Juovssajávri" />
		<tag k="natural" v="water" />
		<tag k="ssr:stedsnr" v="261315" />
		<tag k="water" v="lake" />
	</node>
	<node lat="69.33975277943709" lon="24.37984150017989" id="-35092">
		<tag k="name" v="Čoavddatjávri" />
		<tag k="name:se" v="Čoavddatjávri" />
		<tag k="natural" v="water" />
		<tag k="ssr:stedsnr" v="261350" />
		<tag k="water" v="lake" />
	</node>
	<node lat="69.70183056335219" lon="25.375783064719283" id="-35093">
		<tag k="name" v="Gámmejohka" />
		<tag k="name:se" v="Gámmejohka" />
		<tag k="old_name:se" v="Gammejåkka" />
		<tag k="ssr:stedsnr" v="261396" />
		<tag k="waterway" v="stream" />
	</node>
	<node lat="69.69956668168105" lon="25.88746634743205" id="-35097">
		<tag k="name" v="Stuorrajávri" />
		<tag k="name:se" v="Stuorrajávri" />
		<tag k="natural" v="water" />
		<tag k="old_name:se" v="Stuorrajavri" />
		<tag k="ssr:stedsnr" v="261510" />
		<tag k="water" v="lake" />
	</node>
	<node lat="69.74300834607396" lon="26.08945798592" id="-35099">
		<tag k="name" v="Giellavárjohka" />
		<tag k="name:se" v="Giellavárjohka" />
		<tag k="old_name:se" v="Giellavarjåkka" />
		<tag k="ssr:stedsnr" v="261449" />
		<tag k="waterway" v="river" />
	</node>
	<node lat="69.76330834442872" lon="25.54567471554563" id="-35104">
		<tag k="name" v="Govdajávri" />
		<tag k="name:se" v="Govdajávri" />
		<tag k="natural" v="water" />
		<tag k="old_name:se" v="Gåvdajavri" />
		<tag k="ssr:stedsnr" v="262991" />
	</node>
	<node lat="69.77971389546717" lon="25.657638608479342" id="-35105">
		<tag k="name" v="Goddevađajávri" />
		<tag k="name:se" v="Goddevađajávri" />
		<tag k="natural" v="water" />
		<tag k="old_name:se" v="Gåddevađđajavri" />
		<tag k="ssr:stedsnr" v="262995" />
	</node>
	<node lat="69.78537501384325" lon="25.788585812989297" id="-35106">
		<tag k="name" v="Nihkkeljohka" />
		<tag k="name:se" v="Nihkkeljohka" />
		<tag k="old_name:se" v="Nikkeljåkka" />
		<tag k="ssr:stedsnr" v="262996" />
		<tag k="waterway" v="stream" />
	</node>
	<node lat="69.51400555921263" lon="24.39170816308868" id="-35107">
		<tag k="name" v="Čorotjárjohka" />
		<tag k="name:se" v="Čorotjárjohka" />
		<tag k="ssr:stedsnr" v="267348" />
		<tag k="waterway" v="river" />
	</node>
	<node lat="69.68685834239818" lon="25.9011080122579" id="-35108">
		<tag k="name" v="Čearpmatája" />
		<tag k="name:se" v="Čearpmatája" />
		<tag k="old_name:se" v="Čearpmataja" />
		<tag k="ssr:stedsnr" v="270983" />
		<tag k="waterway" v="stream" />
	</node>
	<node lat="69.39966389471833" lon="24.649560927736847" id="-35111">
		<tag k="name" v="Miellemohkesuolu" />
		<tag k="name:se" v="Miellemohkesuolu" />
		<tag k="place" v="islet" />
		<tag k="ssr:stedsnr" v="271479" />
	</node>
	<node lat="69.67153889781717" lon="25.805927465379483" id="-35112">
		<tag k="name" v="Geavrejávri" />
		<tag k="name:se" v="Geavrejávri" />
		<tag k="natural" v="water" />
		<tag k="ssr:stedsnr" v="271607" />
	</node>
	<node lat="69.38995279399698" lon="25.833435775221936" id="-35116">
		<tag k="name" v="Báruidgoatnil" />
		<tag k="name:se" v="Báruidgoatnil" />
		<tag k="natural" v="water" />
		<tag k="ssr:stedsnr" v="271525" />
		<tag k="water" v="lake" />
	</node>
	<node lat="69.7133722294594" lon="24.310919306262846" id="-35117">
		<tag k="name" v="Gásadatguoika" />
		<tag k="name:se" v="Gásadatguoika" />
		<tag k="ssr:stedsnr" v="271577" />
		<tag k="waterway" v="rapids" />
	</node>
	<node lat="69.4454277828436" lon="25.099294196876908" id="-35118">
		<tag k="name" v="Stuorrabogeláddot" />
		<tag k="name:se" v="Stuorrabogeláddot" />
		<tag k="natural" v="water" />
		<tag k="ssr:stedsnr" v="271704" />
	</node>
	<node lat="69.37542222906018" lon="24.360760937255172" id="-35124">
		<tag k="name" v="Suoidnesulloláttu" />
		<tag k="name:se" v="Suoidnesulloláttu" />
		<tag k="natural" v="water" />
		<tag k="ssr:stedsnr" v="271810" />
	</node>
	<node lat="69.45012779204598" lon="25.68618579850795" id="-35125">
		<tag k="name" v="Jávrrášmuotkkejohka" />
		<tag k="name:se" v="Jávrrášmuotkkejohka" />
		<tag k="ssr:stedsnr" v="271907" />
		<tag k="waterway" v="stream" />
	</node>
	<node lat="69.7547305632648" lon="26.132682979588314" id="-35127">
		<tag k="name" v="Gámasvárája" />
		<tag k="name:se" v="Gámasvárája" />
		<tag k="ssr:stedsnr" v="272624" />
		<tag k="waterway" v="stream" />
	</node>
	<node lat="69.65588333867647" lon="25.13864975782915" id="-35133">
		<tag k="name" v="Girkovárjávri" />
		<tag k="name:se" v="Girkovárjávri" />
		<tag k="natural" v="water" />
		<tag k="old_name:se" v="Girkuvarjavri" />
		<tag k="ssr:stedsnr" v="321306" />
		<tag k="water" v="lake" />
	</node>
	<node lat="69.63505000933075" lon="24.876549789220146" id="-35134">
		<tag k="name" v="Fáhttevárjávri" />
		<tag k="name:se" v="Fáhttevárjávri" />
		<tag k="natural" v="water" />
		<tag k="old_name:se" v="Fattevarjavri" />
		<tag k="ssr:stedsnr" v="321307" />
	</node>
	<node lat="68.9448750102271" lon="25.44969969223994" id="-35135">
		<tag k="name" v="Oarjjit Cáskinjohsuorgi" />
		<tag k="name:se" v="Oarjjit Cáskinjohsuorgi" />
		<tag k="old_name:se" v="Caskinjåksuorgi, oarjit" />
		<tag k="ssr:stedsnr" v="321607" />
		<tag k="waterway" v="river" />
	</node>
	<node lat="69.3976138977237" lon="24.265316510349084" id="-35138">
		<tag k="name" v="Šuoššjávri" />
		<tag k="name:se" v="Šuoššjávri" />
		<tag k="natural" v="water" />
		<tag k="old_name:se" v="Šuoššjavri" />
		<tag k="ssr:stedsnr" v="322277" />
		<tag k="water" v="lake" />
	</node>
	<node lat="69.435083339472" lon="24.60859981784872" id="-35139">
		<tag k="name" v="Gearddošjohka" />
		<tag k="name:se" v="Gearddošjohka" />
		<tag k="old_name:se" v="Gærdušjåkka" />
		<tag k="ssr:stedsnr" v="322281" />
		<tag k="waterway" v="stream" />
	</node>
	<node lat="69.36252778450704" lon="24.29334705699146" id="-35140">
		<tag k="name" v="Gaskabeaijohka" />
		<tag k="name:se" v="Gaskabeaijohka" />
		<tag k="old_name:se" v="Gaskabæijåkka" />
		<tag k="ssr:stedsnr" v="322288" />
		<tag k="waterway" v="stream" />
	</node>
	<node lat="69.63631945042461" lon="25.42248862753788" id="-35141">
		<tag k="name" v="Gállovárjohka" />
		<tag k="name:se" v="Gállovárjohka" />
		<tag k="old_name:se" v="Galluvarjåkka" />
		<tag k="ssr:stedsnr" v="322431" />
		<tag k="waterway" v="stream" />
	</node>
	<node lat="69.41838333950926" lon="25.130099749204536" id="-35142">
		<tag k="name" v="Čoallejárnjárga" />
		<tag k="name:se" v="Čoallejárnjárga" />
		<tag k="natural" v="cape" />
		<tag k="old_name:se" v="Čoallejarnjarga" />
		<tag k="ssr:stedsnr" v="322136" />
	</node>
	<node lat="69.21211945383354" lon="25.699296883233934" id="-35144">
		<tag k="loc_name:se" v="Válvvonjavvi" />
		<tag k="name" v="Coagesnjavvi" />
		<tag k="name:se" v="Coagesnjavvi" />
		<tag k="ssr:stedsnr" v="322808" />
		<tag k="waterway" v="rapids" />
	</node>
	<node lat="69.80652778375153" lon="25.75156915095265" id="-35145">
		<tag k="name" v="Fanasjávri" />
		<tag k="name:se" v="Fanasjávri" />
		<tag k="natural" v="water" />
		<tag k="old_name:se" v="Fanasjavri" />
		<tag k="ssr:stedsnr" v="322875" />
	</node>
	<node lat="69.24490834541169" lon="25.092983082058318" id="-35146">
		<tag k="name" v="Davit Noaidatjohka" />
		<tag k="name:se" v="Davit Noaidatjohka" />
		<tag k="old_name:se" v="Noaidatjåkka, davit" />
		<tag k="ssr:stedsnr" v="322878" />
		<tag k="waterway" v="stream" />
	</node>
	<node lat="69.46003056355693" lon="25.48052749702563" id="-35148">
		<tag k="name" v="Vullošsavu" />
		<tag k="name:se" v="Vullošsavu" />
		<tag k="natural" v="water" />
		<tag k="ssr:stedsnr" v="327362" />
		<tag k="water" v="lake" />
	</node>
	<node lat="69.3933361158238" lon="24.631460905999415" id="-35152">
		<tag k="name" v="Jergolnjavesullot" />
		<tag k="name:se" v="Jergolnjavesullot" />
		<tag k="place" v="islet" />
		<tag k="ssr:stedsnr" v="332408" />
	</node>
	<node lat="69.42650834690583" lon="25.422994175803463" id="-35153">
		<tag k="name" v="Bajitvárláttu" />
		<tag k="name:se" v="Bajitvárláttu" />
		<tag k="natural" v="water" />
		<tag k="ssr:stedsnr" v="332414" />
	</node>
	<node lat="69.3635750080728" lon="24.645463702638825" id="-35159">
		<tag k="name" v="Ávjovárguoikkasavu" />
		<tag k="name:se" v="Ávjovárguoikkasavu" />
		<tag k="natural" v="water" />
		<tag k="ssr:stedsnr" v="332399" />
		<tag k="water" v="lake" />
	</node>
	<node lat="69.38843334099815" lon="25.145833094092097" id="-35162">
		<tag k="name" v="Gálavuohppi" />
		<tag k="name:se" v="Gálavuohppi" />
		<tag k="natural" v="bay" />
		<tag k="ssr:stedsnr" v="332656" />
	</node>
	<node lat="69.3528111219557" lon="25.193010859949755" id="-35163">
		<tag k="name" v="Námmádavitsuorgi" />
		<tag k="name:se" v="Námmádavitsuorgi" />
		<tag k="ssr:stedsnr" v="332703" />
		<tag k="waterway" v="stream" />
	</node>
	<node lat="69.40328334655838" lon="25.830099658108548" id="-35166">
		<tag k="name" v="Dorvogárggu" />
		<tag k="name:se" v="Dorvogárggu" />
		<tag k="natural" v="beach" />
		<tag k="ssr:stedsnr" v="332954" />
	</node>
	<node lat="69.39655556679118" lon="25.799183010744184" id="-35167">
		<tag k="name" v="Jeagilvársuotnjoája" />
		<tag k="name:se" v="Jeagilvársuotnjoája" />
		<tag k="ssr:stedsnr" v="332964" />
		<tag k="waterway" v="stream" />
	</node>
	<node lat="68.89725001311338" lon="25.626413555349608" id="-35171">
		<tag k="name" v="Ráktoguoika" />
		<tag k="name:se" v="Ráktoguoika" />
		<tag k="old_name:se" v="Raktuguoika" />
		<tag k="ssr:stedsnr" v="381706" />
		<tag k="waterway" v="rapids" />
	</node>
	<node lat="69.26220001233942" lon="25.12114141635436" id="-35175">
		<tag k="name" v="Buortnavárláddot" />
		<tag k="name:se" v="Buortnavárláddot" />
		<tag k="natural" v="water" />
		<tag k="old_name:se" v="Buordnavarladdut" />
		<tag k="ssr:stedsnr" v="382212" />
	</node>
	<node lat="69.43539723304707" lon="25.27078030272511" id="-35176">
		<tag k="name" v="Vuollesainjárga" />
		<tag k="name:se" v="Vuollesainjárga" />
		<tag k="natural" v="cape" />
		<tag k="old_name:se" v="Vuollesajnjarga" />
		<tag k="ssr:stedsnr" v="382215" />
	</node>
	<node lat="69.355652785723" lon="24.5790692671513" id="-35177">
		<tag k="name" v="Ásteguoika" />
		<tag k="name:se" v="Ásteguoika" />
		<tag k="old_name:se" v="Asteguoika" />
		<tag k="ssr:stedsnr" v="382316" />
		<tag k="waterway" v="rapids" />
	</node>
	<node lat="69.58040278582234" lon="25.030849773508216" id="-35178">
		<tag k="name" v="Máilejávri" />
		<tag k="name:se" v="Máilejávri" />
		<tag k="natural" v="water" />
		<tag k="old_name:se" v="Mailejavri" />
		<tag k="ssr:stedsnr" v="382356" />
		<tag k="water" v="lake" />
	</node>
	<node lat="69.56545278424016" lon="24.94892477153623" id="-35179">
		<tag k="name" v="Duiskajohka" />
		<tag k="name:se" v="Duiskajohka" />
		<tag k="old_name:se" v="Duiskajåkka" />
		<tag k="ssr:stedsnr" v="382361" />
		<tag k="waterway" v="stream" />
	</node>
	<node lat="69.66305001193541" lon="25.24712752543763" id="-35180">
		<tag k="name" v="Čielgejávri" />
		<tag k="name:se" v="Čielgejávri" />
		<tag k="natural" v="water" />
		<tag k="old_name:se" v="Čielgejavri" />
		<tag k="ssr:stedsnr" v="382367" />
		<tag k="water" v="lake" />
	</node>
	<node lat="69.74103055865092" lon="24.31553874019236" id="-35181">
		<tag k="name" v="Gásadatluoppal" />
		<tag k="name:se" v="Gásadatluoppal" />
		<tag k="natural" v="water" />
		<tag k="old_name:se" v="Gasadatluobbal" />
		<tag k="ssr:stedsnr" v="382503" />
		<tag k="water" v="lake" />
	</node>
	<node lat="69.6838055577802" lon="24.345833187075073" id="-35182">
		<tag k="name" v="Likčajohka" />
		<tag k="name:se" v="Likčajohka" />
		<tag k="old_name:se" v="Likčajåkka" />
		<tag k="ssr:stedsnr" v="382506" />
		<tag k="waterway" v="river" />
	</node>
	<node lat="69.58850556990905" lon="25.71718857504543" id="-35183">
		<tag k="name" v="Suolobeasjávrrit" />
		<tag k="name:se" v="Suolobeasjávrrit" />
		<tag k="natural" v="water" />
		<tag k="old_name:se" v="Suolubæsjavrit" />
		<tag k="ssr:stedsnr" v="382404" />
		<tag k="water" v="lake" />
	</node>
	<node lat="69.59808612369793" lon="25.39486641572869" id="-35184">
		<tag k="name" v="Guorpmetluoppal" />
		<tag k="name:se" v="Guorpmetluoppal" />
		<tag k="natural" v="water" />
		<tag k="old_name:se" v="Guorbmetluobbal" />
		<tag k="ssr:stedsnr" v="382416" />
		<tag k="water" v="lake" />
	</node>
	<node lat="69.50275834726851" lon="25.83884133749691" id="-35187">
		<tag k="alt_name:se" v="Leaibeája" />
		<tag k="name" v="Leaibejohka" />
		<tag k="name:se" v="Leaibejohka" />
		<tag k="old_name:se" v="Læibejåkka" />
		<tag k="ssr:stedsnr" v="382466" />
		<tag k="waterway" v="stream" />
	</node>
	<node lat="69.20717778848223" lon="25.587663572474728" id="-35188">
		<tag k="name" v="Hánssaristenája" />
		<tag k="name:se" v="Hánssaristenája" />
		<tag k="old_name:se" v="Hansaristenaja" />
		<tag k="ssr:stedsnr" v="382802" />
		<tag k="waterway" v="stream" />
	</node>
	<node lat="69.10433611730902" lon="24.761158113361223" id="-35189">
		<tag k="name" v="Vuollošfielbmá" />
		<tag k="name:se" v="Vuollošfielbmá" />
		<tag k="old_name:se" v="Vuollušfielbma" />
		<tag k="place" v="locality" />
		<tag k="ssr:stedsnr" v="382808" />
	</node>
	<node lat="69.37101389463143" lon="24.517552603313238" id="-35194">
		<tag k="name" v="Goahtegohppi" />
		<tag k="name:se" v="Goahtegohppi" />
		<tag k="natural" v="bay" />
		<tag k="ssr:stedsnr" v="392302" />
	</node>
	<node lat="69.39611389548271" lon="24.636647035147984" id="-35197">
		<tag k="name" v="Goahtegohppi" />
		<tag k="name:se" v="Goahtegohppi" />
		<tag k="natural" v="bay" />
		<tag k="ssr:stedsnr" v="392438" />
	</node>
	<node lat="69.35586945618586" lon="24.634422019625102" id="-35199">
		<tag k="name" v="Látnjajohnjálmmesullot" />
		<tag k="name:se" v="Látnjajohnjálmmesullot" />
		<tag k="place" v="islet" />
		<tag k="ssr:stedsnr" v="392447" />
	</node>
	<node lat="69.40959722548875" lon="24.710574802867075" id="-35200">
		<tag k="name" v="Jovnna-Jonnjavvi" />
		<tag k="name:se" v="Jovnna-Jonnjavvi" />
		<tag k="ssr:stedsnr" v="392495" />
		<tag k="waterway" v="rapids" />
	</node>
	<node lat="69.51650001019856" lon="25.79352744162121" id="-35201">
		<tag k="name" v="Njárgasašája" />
		<tag k="name:se" v="Njárgasašája" />
		<tag k="ssr:stedsnr" v="392583" />
		<tag k="waterway" v="stream" />
	</node>
	<node lat="69.45864445141845" lon="25.342055286691057" id="-35202">
		<tag k="name" v="Dánskarjávri" />
		<tag k="name:se" v="Dánskarjávri" />
		<tag k="natural" v="water" />
		<tag k="ssr:stedsnr" v="392599" />
	</node>
	<node lat="69.39431390136173" lon="25.145546967643217" id="-35205">
		<tag k="name" v="Sirevuohppi" />
		<tag k="name:se" v="Sirevuohppi" />
		<tag k="natural" v="water" />
		<tag k="ssr:stedsnr" v="392710" />
	</node>
	<node lat="69.35336111634241" lon="25.12816642093776" id="-35208">
		<tag k="name" v="Gáhritláttu" />
		<tag k="name:se" v="Gáhritláttu" />
		<tag k="natural" v="water" />
		<tag k="ssr:stedsnr" v="392791" />
	</node>
	<node lat="69.37297500136519" lon="24.31251094796286" id="-35209">
		<tag k="name" v="Nuoroaivveguorvil" />
		<tag k="name:se" v="Nuoroaivveguorvil" />
		<tag k="ssr:stedsnr" v="392794" />
		<tag k="waterway" v="rapids" />
	</node>
	<node lat="69.37268056024769" lon="24.38892205249675" id="-35210">
		<tag k="name" v="Issátguorvil" />
		<tag k="name:se" v="Issátguorvil" />
		<tag k="ssr:stedsnr" v="392797" />
		<tag k="waterway" v="rapids" />
	</node>
	<node lat="69.4424916751674" lon="25.3163358526849" id="-35212">
		<tag k="name" v="Deadjageađgi" />
		<tag k="name:se" v="Deadjageađgi" />
		<tag k="place" v="islet" />
		<tag k="ssr:stedsnr" v="392641" />
	</node>
	<node lat="69.36486667986254" lon="25.150330298558515" id="-35214">
		<tag k="name" v="Gaskanuoroaivi" />
		<tag k="name:se" v="Gaskanuoroaivi" />
		<tag k="natural" v="strait" />
		<tag k="ssr:stedsnr" v="392805" />
	</node>
	<node lat="68.88672501356399" lon="25.56059966838663" id="-35220">
		<tag k="name" v="Basávžžeguoika" />
		<tag k="name:se" v="Basávžžeguoika" />
		<tag k="old_name:se" v="Basavžeguoika" />
		<tag k="ssr:stedsnr" v="442690" />
		<tag k="waterway" v="rapids" />
	</node>
	<node lat="68.99048334031389" lon="25.007360860783194" id="-35221">
		<tag k="name" v="Muoidunjohka" />
		<tag k="name:se" v="Muoidunjohka" />
		<tag k="old_name:se" v="Muoidonjåkka" />
		<tag k="ssr:stedsnr" v="442887" />
		<tag k="waterway" v="stream" />
	</node>
	<node lat="69.28010000387381" lon="24.81419700934078" id="-35224">
		<tag k="name" v="Goržoaijávri" />
		<tag k="name:se" v="Goržoaijávri" />
		<tag k="natural" v="water" />
		<tag k="old_name:se" v="Gåržoaijavri" />
		<tag k="ssr:stedsnr" v="443202" />
	</node>
	<node lat="69.71882778746478" lon="24.878149799026396" id="-35225">
		<tag k="name" v="Mievttajohka" />
		<tag k="name:se" v="Mievttajohka" />
		<tag k="old_name:se" v="Mievtajåkka" />
		<tag k="ssr:stedsnr" v="443289" />
		<tag k="waterway" v="river" />
	</node>
	<node lat="69.69637500775657" lon="25.253394214443514" id="-35227">
		<tag k="name" v="Sirejohka" />
		<tag k="name:se" v="Sirejohka" />
		<tag k="old_name:se" v="Sirejåkka" />
		<tag k="ssr:stedsnr" v="443404" />
		<tag k="waterway" v="stream" />
	</node>
	<node lat="69.62732501060428" lon="24.951302556425475" id="-35228">
		<tag k="name" v="Sánddajávri" />
		<tag k="name:se" v="Sánddajávri" />
		<tag k="natural" v="water" />
		<tag k="old_name:se" v="Sandajavri" />
		<tag k="ssr:stedsnr" v="443334" />
	</node>
	<node lat="69.62210001138185" lon="25.073449764144655" id="-35229">
		<tag k="name" v="Čuolmmajávri" />
		<tag k="name:se" v="Čuolmmajávri" />
		<tag k="natural" v="water" />
		<tag k="old_name:se" v="Čuolmajavri" />
		<tag k="ssr:stedsnr" v="443335" />
	</node>
	<node lat="69.37318333653552" lon="24.473655384772467" id="-35230">
		<tag k="name" v="Stuorra Gohás" />
		<tag k="name:se" v="Stuorra Gohás" />
		<tag k="natural" v="waterfall" />
		<tag k="old_name:se" v="Gåhas, store" />
		<tag k="ssr:stedsnr" v="443336" />
	</node>
	<node lat="69.56025001165276" lon="25.077627548041143" id="-35231">
		<tag k="name" v="Namahisjohka" />
		<tag k="name:se" v="Namahisjohka" />
		<tag k="old_name:se" v="Namahisjåkka" />
		<tag k="ssr:stedsnr" v="443385" />
		<tag k="waterway" v="stream" />
	</node>
	<node lat="69.6004388984307" lon="25.96672743645008" id="-35232">
		<tag k="name" v="Áhkguoika" />
		<tag k="name:se" v="Áhkguoika" />
		<tag k="old_name:se" v="Akkguoika" />
		<tag k="ssr:stedsnr" v="443481" />
		<tag k="waterway" v="rapids" />
	</node>
	<node lat="69.56293890392047" lon="25.843383003189494" id="-35233">
		<tag k="alt_name:se" v="Vuolit Geahtaveaiája" />
		<tag k="name" v="Uhca Geahttojogaš" />
		<tag k="name:se" v="Uhca Geahttojogaš" />
		<tag k="old_name:se" v="Gættujågaš, ucca" />
		<tag k="ssr:stedsnr" v="443488" />
		<tag k="waterway" v="stream" />
	</node>
	<node lat="69.19849774887811" lon="25.69290772036705" id="-35234">
		<tag k="name" v="Máreveaiguoika" />
		<tag k="name:se" v="Máreveaiguoika" />
		<tag k="old_name:se" v="Marevæjguoika" />
		<tag k="ssr:stedsnr" v="443803" />
		<tag k="waterway" v="rapids" />
	</node>
	<node lat="69.13701667738668" lon="24.995658101894126" id="-35235">
		<tag k="name" v="Hánnoailáddot" />
		<tag k="name:se" v="Hánnoailáddot" />
		<tag k="natural" v="water" />
		<tag k="old_name:se" v="Hannoailaddut" />
		<tag k="ssr:stedsnr" v="443904" />
	</node>
	<node lat="69.20394445479616" lon="24.862135902619332" id="-35236">
		<tag k="name" v="Dápmotjávri" />
		<tag k="name:se" v="Dápmotjávri" />
		<tag k="natural" v="water" />
		<tag k="old_name:se" v="Dabmutjavri" />
		<tag k="ssr:stedsnr" v="443925" />
		<tag k="water" v="lake" />
	</node>
	<node lat="69.18665556623156" lon="25.706494116761046" id="-35239">
		<tag k="name" v="Goadjenfávli" />
		<tag k="name:se" v="Goadjenfávli" />
		<tag k="old_name:se" v="Goaddjenfavli" />
		<tag k="place" v="locality" />
		<tag k="ssr:stedsnr" v="443835" />
	</node>
	<node lat="69.43835834105585" lon="25.008766435878815" id="-35243">
		<tag k="name" v="Lastagoatnil" />
		<tag k="name:se" v="Lastagoatnil" />
		<tag k="natural" v="water" />
		<tag k="ssr:stedsnr" v="453012" />
		<tag k="water" v="lake" />
	</node>
	<node lat="69.43988333740174" lon="25.03167754823666" id="-35244">
		<tag k="name" v="Ruovdebáhguoika" />
		<tag k="name:se" v="Ruovdebáhguoika" />
		<tag k="ssr:stedsnr" v="453014" />
		<tag k="waterway" v="rapids" />
	</node>
	<node lat="69.42871945338786" lon="24.90657201872829" id="-35245">
		<tag k="name" v="Varetvársavu" />
		<tag k="name:se" v="Varetvársavu" />
		<tag k="natural" v="water" />
		<tag k="ssr:stedsnr" v="453015" />
		<tag k="water" v="lake" />
	</node>
	<node lat="69.37378611876566" lon="24.486433150623768" id="-35247">
		<tag k="name" v="Gárggomohkki" />
		<tag k="name:se" v="Gárggomohkki" />
		<tag k="natural" v="bay" />
		<tag k="ssr:stedsnr" v="453303" />
	</node>
	<node lat="69.37669722525503" lon="24.404291495378892" id="-35249">
		<tag k="name" v="Beagcejogaš" />
		<tag k="name:se" v="Beagcejogaš" />
		<tag k="ssr:stedsnr" v="453308" />
		<tag k="waterway" v="stream" />
	</node>
	<node lat="69.38495278559606" lon="24.401663722443956" id="-35250">
		<tag k="name" v="Jalgesláttu" />
		<tag k="name:se" v="Jalgesláttu" />
		<tag k="natural" v="water" />
		<tag k="ssr:stedsnr" v="453309" />
	</node>
	<node lat="69.4725277880925" lon="25.379744180531194" id="-35251">
		<tag k="name" v="Gaskkamuš Nagirláttu" />
		<tag k="name:se" v="Gaskkamuš Nagirláttu" />
		<tag k="natural" v="water" />
		<tag k="ssr:stedsnr" v="453317" />
	</node>
	<node lat="69.35256945506877" lon="24.605808145818482" id="-35252">
		<tag k="name" v="Ávjovárguoikkadappal" />
		<tag k="name:se" v="Ávjovárguoikkadappal" />
		<tag k="place" v="locality" />
		<tag k="ssr:stedsnr" v="453372" />
	</node>
	<node lat="69.42883889898057" lon="24.647785923622514" id="-35253">
		<tag k="name" v="Guškkesjohka" />
		<tag k="name:se" v="Guškkesjohka" />
		<tag k="ssr:stedsnr" v="453502" />
		<tag k="waterway" v="stream" />
	</node>
	<node lat="69.44148334383236" lon="25.04706920884977" id="-35256">
		<tag k="name" v="Njáhkájohka" />
		<tag k="name:se" v="Njáhkájohka" />
		<tag k="ssr:stedsnr" v="453666" />
		<tag k="waterway" v="river" />
	</node>
	<node lat="69.38620000312729" lon="24.266666507272788" id="-35258">
		<tag k="name" v="Doktasuolu" />
		<tag k="name:se" v="Doktasuolu" />
		<tag k="place" v="islet" />
		<tag k="ssr:stedsnr" v="453679" />
	</node>
	<node lat="69.37891112164736" lon="24.27163317005038" id="-35261">
		<tag k="name" v="Rivotláddot" />
		<tag k="name:se" v="Rivotláddot" />
		<tag k="natural" v="water" />
		<tag k="ssr:stedsnr" v="453763" />
	</node>
	<node lat="69.5574083453695" lon="25.87004688379902" id="-35262">
		<tag k="name" v="Lássanjárga" />
		<tag k="name:se" v="Lássanjárga" />
		<tag k="natural" v="cape" />
		<tag k="old_name:se" v="Lassanjarga" />
		<tag k="ssr:stedsnr" v="453967" />
	</node>
	<node lat="69.38541112378276" lon="25.182549744255102" id="-35265">
		<tag k="alt_name:se" v="Hánas-Pier-láddot" />
		<tag k="name" v="Hánas-Pier-láttu" />
		<tag k="name:se" v="Hánas-Pier-láttu" />
		<tag k="old_name:se" v="Hanas-Pier-laddo" />
		<tag k="place" v="locality" />
		<tag k="ssr:stedsnr" v="503123" />
	</node>
	<node lat="69.37131111920039" lon="24.649555370020344" id="-35266">
		<tag k="name" v="Stohpoguoika" />
		<tag k="name:se" v="Stohpoguoika" />
		<tag k="natural" v="waterfall" />
		<tag k="old_name:se" v="Ståppoguoika" />
		<tag k="ssr:stedsnr" v="503125" />
	</node>
	<node lat="69.36445001301487" lon="25.55875804049887" id="-35269">
		<tag k="name" v="Bogeája" />
		<tag k="name:se" v="Bogeája" />
		<tag k="old_name:se" v="Bågeaja" />
		<tag k="ssr:stedsnr" v="503007" />
		<tag k="waterway" v="stream" />
	</node>
	<node lat="69.43945001212929" lon="25.80482466191947" id="-35271">
		<tag k="name" v="Ráidesuolu" />
		<tag k="name:se" v="Ráidesuolu" />
		<tag k="place" v="islet" />
		<tag k="ssr:stedsnr" v="503206" />
	</node>
	<node lat="69.61995000731663" lon="24.73395257699336" id="-35272">
		<tag k="name" v="Doggejohjávrrit" />
		<tag k="name:se" v="Doggejohjávrrit" />
		<tag k="natural" v="water" />
		<tag k="old_name:se" v="Dåggejåkjavrit" />
		<tag k="ssr:stedsnr" v="503304" />
		<tag k="water" v="lake" />
	</node>
	<node lat="69.29140833915538" lon="24.500463695545555" id="-35273">
		<tag k="name" v="Cuoppojávrrit" />
		<tag k="name:se" v="Cuoppojávrrit" />
		<tag k="natural" v="water" />
		<tag k="ssr:stedsnr" v="503305" />
		<tag k="water" v="lake" />
	</node>
	<node lat="69.710175010028" lon="25.028833115189055" id="-35274">
		<tag k="name" v="Čuolmmajohka" />
		<tag k="name:se" v="Čuolmmajohka" />
		<tag k="old_name:se" v="Čuolmajåkka" />
		<tag k="ssr:stedsnr" v="503307" />
		<tag k="waterway" v="river" />
	</node>
	<node lat="68.93223334827492" lon="25.65971355529576" id="-35275">
		<tag k="name" v="Vuolitjávri" />
		<tag k="name:se" v="Vuolitjávri" />
		<tag k="natural" v="water" />
		<tag k="old_name:se" v="Vuolitjavri" />
		<tag k="ssr:stedsnr" v="503620" />
		<tag k="water" v="lake" />
	</node>
	<node lat="69.47356389535506" lon="25.56721915726619" id="-35278">
		<tag k="name" v="Njárgasašjohka" />
		<tag k="name:se" v="Njárgasašjohka" />
		<tag k="ssr:stedsnr" v="504208" />
		<tag k="waterway" v="river" />
	</node>
	<node lat="69.45015278697956" lon="25.24297197867697" id="-35280">
		<tag k="name" v="Bálojohka" />
		<tag k="name:se" v="Bálojohka" />
		<tag k="ssr:stedsnr" v="504212" />
		<tag k="waterway" v="stream" />
	</node>
	<node lat="69.41975001177637" lon="24.780499785588194" id="-35281">
		<tag k="name" v="Ceakkonjearán" />
		<tag k="name:se" v="Ceakkonjearán" />
		<tag k="old_name:se" v="Cæggunjæran" />
		<tag k="ssr:stedsnr" v="504110" />
		<tag k="waterway" v="rapids" />
	</node>
	<node lat="69.46645556122864" lon="25.252691412251774" id="-35283">
		<tag k="name" v="Doaresjohka" />
		<tag k="name:se" v="Doaresjohka" />
		<tag k="old_name:se" v="Doaresjåkka" />
		<tag k="ssr:stedsnr" v="504175" />
		<tag k="waterway" v="stream" />
	</node>
	<node lat="69.47462501159228" lon="25.407713626363222" id="-35284">
		<tag k="name" v="Nagirskáidi" />
		<tag k="name:se" v="Nagirskáidi" />
		<tag k="natural" v="cape" />
		<tag k="old_name:se" v="Nagirskaidi" />
		<tag k="ssr:stedsnr" v="504177" />
	</node>
	<node lat="69.60007500504415" lon="25.462096952311814" id="-35285">
		<tag k="name" v="Fáhtteluoppal" />
		<tag k="name:se" v="Fáhtteluoppal" />
		<tag k="natural" v="water" />
		<tag k="old_name:se" v="Fatteluobbal" />
		<tag k="ssr:stedsnr" v="504405" />
	</node>
	<node lat="69.62739445219621" lon="25.255652526350794" id="-35286">
		<tag k="name" v="Roggejávri" />
		<tag k="name:se" v="Roggejávri" />
		<tag k="natural" v="water" />
		<tag k="old_name:se" v="Råggejavri" />
		<tag k="ssr:stedsnr" v="504418" />
	</node>
	<node lat="69.60144445437372" lon="25.961588532147086" id="-35287">
		<tag k="name" v="Vuolitnjárga" />
		<tag k="name:se" v="Vuolitnjárga" />
		<tag k="natural" v="cape" />
		<tag k="old_name:se" v="Vuolitnjarga" />
		<tag k="ssr:stedsnr" v="504479" />
	</node>
	<node lat="69.69699167396706" lon="25.465555280929827" id="-35288">
		<tag k="name" v="Geađgejávri" />
		<tag k="name:se" v="Geađgejávri" />
		<tag k="natural" v="water" />
		<tag k="old_name:se" v="Gæđgejavri" />
		<tag k="ssr:stedsnr" v="504372" />
		<tag k="water" v="lake" />
	</node>
	<node lat="69.14638890103244" lon="25.547469130293226" id="-35289">
		<tag k="name" v="Čuonjegáljávri" />
		<tag k="name:se" v="Čuonjegáljávri" />
		<tag k="natural" v="water" />
		<tag k="old_name:se" v="Čuonjegaljavri" />
		<tag k="ssr:stedsnr" v="504870" />
	</node>
	<node lat="69.12574446009916" lon="25.372769146450807" id="-35290">
		<tag k="name" v="Vuččoljohka" />
		<tag k="name:se" v="Vuččoljohka" />
		<tag k="old_name:se" v="Vužžuljåkka" />
		<tag k="ssr:stedsnr" v="504875" />
		<tag k="waterway" v="river" />
	</node>
	<node lat="69.00546668251364" lon="25.249694159501466" id="-35293">
		<tag k="name" v="Spierkoláddot" />
		<tag k="name:se" v="Spierkoláddot" />
		<tag k="natural" v="water" />
		<tag k="old_name:se" v="Spierkuladdut" />
		<tag k="ssr:stedsnr" v="504778" />
	</node>
	<node lat="69.43884723481182" lon="25.014738659349145" id="-35297">
		<tag k="name" v="Sáđejohnjálmmesuolu" />
		<tag k="name:se" v="Sáđejohnjálmmesuolu" />
		<tag k="place" v="islet" />
		<tag k="ssr:stedsnr" v="514011" />
	</node>
	<node lat="69.51118056834912" lon="25.519124711775" id="-35298">
		<tag k="name" v="Givdovárluoppal" />
		<tag k="name:se" v="Givdovárluoppal" />
		<tag k="natural" v="water" />
		<tag k="ssr:stedsnr" v="514084" />
	</node>
	<node lat="69.37060000644483" lon="24.40419982222171" id="-35300">
		<tag k="name" v="Sieđganjárga" />
		<tag k="name:se" v="Sieđganjárga" />
		<tag k="natural" v="cape" />
		<tag k="ssr:stedsnr" v="514321" />
	</node>
	<node lat="69.43470279238166" lon="25.80056634244491" id="-35302">
		<tag k="name" v="Ráideláttu" />
		<tag k="name:se" v="Ráideláttu" />
		<tag k="natural" v="water" />
		<tag k="ssr:stedsnr" v="514590" />
	</node>
	<node lat="69.43678611840099" lon="25.676969137822194" id="-35305">
		<tag k="name" v="Karralgárggu" />
		<tag k="name:se" v="Karralgárggu" />
		<tag k="natural" v="beach" />
		<tag k="ssr:stedsnr" v="514802" />
	</node>
	<node lat="69.44356112474989" lon="25.66179136265608" id="-35316">
		<tag k="name" v="Jeambealesnjárga" />
		<tag k="name:se" v="Jeambealesnjárga" />
		<tag k="natural" v="cape" />
		<tag k="ssr:stedsnr" v="685216" />
	</node>
	<node lat="69.44131389757624" lon="25.62568579397171" id="-35317">
		<tag k="name" v="Ájojogaš" />
		<tag k="name:se" v="Ájojogaš" />
		<tag k="old_name:se" v="Ajujågaš" />
		<tag k="ssr:stedsnr" v="685217" />
		<tag k="waterway" v="stream" />
	</node>
	<node lat="69.40828334432771" lon="24.69769979333402" id="-35319">
		<tag k="name" v="Sámmolašnjavvi" />
		<tag k="name:se" v="Sámmolašnjavvi" />
		<tag k="old_name:se" v="Sammulašnjavvi" />
		<tag k="ssr:stedsnr" v="685159" />
		<tag k="waterway" v="rapids" />
	</node>
	<node lat="69.47542500690703" lon="25.217116419099877" id="-35322">
		<tag k="name" v="Hávgajávri" />
		<tag k="name:se" v="Hávgajávri" />
		<tag k="natural" v="water" />
		<tag k="old_name:se" v="Havgajavri" />
		<tag k="ssr:stedsnr" v="685332" />
	</node>
	<node lat="69.26578334676864" lon="25.660102470200595" id="-35325">
		<tag k="name" v="Jeaggeskáidi" />
		<tag k="name:se" v="Jeaggeskáidi" />
		<tag k="natural" v="cape" />
		<tag k="old_name:se" v="Jæggeskaidi" />
		<tag k="ssr:stedsnr" v="686052" />
	</node>
	<node lat="69.29222067250039" lon="25.74484287319241" id="-35326">
		<tag k="name" v="Doarrobasguoika" />
		<tag k="name:se" v="Doarrobasguoika" />
		<tag k="ssr:stedsnr" v="686054" />
		<tag k="waterway" v="rapids" />
	</node>
	<node lat="68.82670000665118" lon="24.605474774912015" id="-35331">
		<tag k="name" v="Bávttajohka" />
		<tag k="name:se" v="Bávttajohka" />
		<tag k="old_name:se" v="Bavtajåkka" />
		<tag k="ssr:stedsnr" v="685835" />
		<tag k="waterway" v="river" />
	</node>
	<node lat="69.16083611613043" lon="24.640341459077813" id="-35333">
		<tag k="name" v="Salčosavu" />
		<tag k="name:se" v="Salčosavu" />
		<tag k="old_name:se" v="Salčusavo" />
		<tag k="place" v="locality" />
		<tag k="ssr:stedsnr" v="685916" />
	</node>
	<node lat="69.34678611723241" lon="25.184949751540177" id="-35339">
		<tag k="name" v="Námmájohka" />
		<tag k="name:se" v="Námmájohka" />
		<tag k="old_name:se" v="Nammajåkka" />
		<tag k="ssr:stedsnr" v="686172" />
		<tag k="waterway" v="river" />
	</node>
	<node lat="69.34666111891174" lon="25.155849761944133" id="-35340">
		<tag k="name" v="Čuvgesnjárga" />
		<tag k="name:se" v="Čuvgesnjárga" />
		<tag k="natural" v="cape" />
		<tag k="old_name:se" v="Čuvgesnjarga" />
		<tag k="ssr:stedsnr" v="686174" />
	</node>
	<node lat="69.34668056893504" lon="25.01011087553002" id="-35341">
		<tag k="name" v="Geaidnojogaš" />
		<tag k="name:se" v="Geaidnojogaš" />
		<tag k="old_name:se" v="Gæidnujågaš" />
		<tag k="ssr:stedsnr" v="686175" />
		<tag k="waterway" v="stream" />
	</node>
	<node lat="69.46153334391258" lon="25.489224725601765" id="-35342">
		<tag k="name" v="Vullošnjárga" />
		<tag k="name:se" v="Vullošnjárga" />
		<tag k="natural" v="cape" />
		<tag k="ssr:stedsnr" v="686230" />
	</node>
	<node lat="69.3390444531303" lon="24.445985930184982" id="-35344">
		<tag k="name" v="Fanasjávri" />
		<tag k="name:se" v="Fanasjávri" />
		<tag k="natural" v="water" />
		<tag k="old_name:se" v="Fanasjavri" />
		<tag k="ssr:stedsnr" v="686313" />
	</node>
	<node lat="69.42126389820511" lon="24.769091475464837" id="-35347">
		<tag k="name" v="Guhkesnjearán" />
		<tag k="name:se" v="Guhkesnjearán" />
		<tag k="old_name:se" v="Gukkesnjæran" />
		<tag k="ssr:stedsnr" v="686357" />
		<tag k="waterway" v="rapids" />
	</node>
	<node lat="69.43951945270909" lon="25.014766438850973" id="-35350">
		<tag k="name" v="Sáđejohnjálmmeguoika" />
		<tag k="name:se" v="Sáđejohnjálmmeguoika" />
		<tag k="old_name:se" v="Sađejåknjalmeguoika" />
		<tag k="ssr:stedsnr" v="686366" />
		<tag k="waterway" v="rapids" />
	</node>
	<node lat="69.71575000462254" lon="25.270052536029212" id="-35354">
		<tag k="name" v="Rivdnjesvađajávri" />
		<tag k="name:se" v="Rivdnjesvađajávri" />
		<tag k="natural" v="water" />
		<tag k="old_name:se" v="Rivdnjesvađđejavri" />
		<tag k="ssr:stedsnr" v="686401" />
	</node>
	<node lat="69.59641945369742" lon="25.420160849764866" id="-35357">
		<tag k="name" v="Vuolitluoppal" />
		<tag k="name:se" v="Vuolitluoppal" />
		<tag k="natural" v="water" />
		<tag k="ssr:stedsnr" v="686419" />
		<tag k="water" v="lake" />
	</node>
	<node lat="69.62812779097705" lon="25.492535830560893" id="-35358">
		<tag k="name" v="Mohkkejávri" />
		<tag k="name:se" v="Mohkkejávri" />
		<tag k="natural" v="water" />
		<tag k="old_name:se" v="Måkkejavri" />
		<tag k="ssr:stedsnr" v="686427" />
	</node>
	<node lat="69.62824167387183" lon="25.27976918809105" id="-35359">
		<tag k="name" v="Idjajávri - Nattvatnet" />
		<tag k="name:no" v="Nattvatnet" />
		<tag k="name:se" v="Idjajávri" />
		<tag k="natural" v="water" />
		<tag k="ssr:stedsnr" v="686432" />
		<tag k="water" v="lake" />
	</node>
	<node lat="69.64129445223966" lon="25.229363652251628" id="-35360">
		<tag k="name" v="Várášluokta" />
		<tag k="name:se" v="Várášluokta" />
		<tag k="natural" v="bay" />
		<tag k="old_name:se" v="Varašluokta" />
		<tag k="ssr:stedsnr" v="686436" />
	</node>
	<node lat="69.41280555932842" lon="24.48341926585485" id="-35361">
		<tag k="name" v="Ráhpesskáidi" />
		<tag k="name:se" v="Ráhpesskáidi" />
		<tag k="natural" v="cape" />
		<tag k="old_name:se" v="Rappesskaidi" />
		<tag k="ssr:stedsnr" v="686284" />
	</node>
	<node lat="69.6657694589033" lon="25.879635779297406" id="-35363">
		<tag k="alt_name:se" v="Njivlejohka" />
		<tag k="name" v="Njivlojogaš" />
		<tag k="name:se" v="Njivlojogaš" />
		<tag k="old_name:se" v="Njivlujågaš" />
		<tag k="ssr:stedsnr" v="686502" />
		<tag k="waterway" v="stream" />
	</node>
	<node lat="69.55088334362955" lon="25.476427510211963" id="-35364">
		<tag k="name" v="Gaskkamus Rávdojávri" />
		<tag k="name:se" v="Gaskkamus Rávdojávri" />
		<tag k="natural" v="water" />
		<tag k="ssr:stedsnr" v="686470" />
		<tag k="water" v="lake" />
	</node>
	<node lat="69.55433056719743" lon="25.487177490706834" id="-35367">
		<tag k="name" v="Bajimus Rávdojávri" />
		<tag k="name:se" v="Bajimus Rávdojávri" />
		<tag k="natural" v="water" />
		<tag k="ssr:stedsnr" v="686481" />
		<tag k="water" v="lake" />
	</node>
	<node lat="69.51123334709979" lon="25.855785786833625" id="-35368">
		<tag k="name" v="Čielggesuolu" />
		<tag k="name:se" v="Čielggesuolu" />
		<tag k="old_name:se" v="Čielgesuolo" />
		<tag k="place" v="islet" />
		<tag k="ssr:stedsnr" v="686483" />
	</node>
	<node lat="69.01876668180606" lon="25.35570525401143" id="-35370">
		<tag k="name" v="Guovžája" />
		<tag k="name:se" v="Guovžája" />
		<tag k="old_name:se" v="Guovžaja" />
		<tag k="ssr:stedsnr" v="686755" />
		<tag k="waterway" v="stream" />
	</node>
	<node lat="69.2363416769596" lon="24.782313666718824" id="-35373">
		<tag k="name" v="Duoibilsavu" />
		<tag k="name:se" v="Duoibilsavu" />
		<tag k="natural" v="water" />
		<tag k="old_name:se" v="Duoibilsavo" />
		<tag k="ssr:stedsnr" v="686863" />
	</node>
	<node lat="69.75619445524366" lon="26.092252427757927" id="-35376">
		<tag k="alt_name:se" v="Stuorajávrrejohka" />
		<tag k="name" v="Stuorrajárjohka" />
		<tag k="name:se" v="Stuorrajárjohka" />
		<tag k="old_name:se" v="Stuorrajarjåkka" />
		<tag k="ssr:stedsnr" v="687932" />
		<tag k="waterway" v="stream" />
	</node>
	<node lat="69.5913583437075" lon="25.674027465048056" id="-35378">
		<tag k="name" v="Gimešjárluoppal" />
		<tag k="name:se" v="Gimešjárluoppal" />
		<tag k="old_name:se" v="Gimešjarluobbal" />
		<tag k="place" v="locality" />
		<tag k="ssr:stedsnr" v="564417" />
	</node>
	<node lat="69.58954167568658" lon="25.25917196775565" id="-35379">
		<tag k="name" v="Čohkajávri" />
		<tag k="name:se" v="Čohkajávri" />
		<tag k="natural" v="water" />
		<tag k="old_name:se" v="Čåkkajavri" />
		<tag k="ssr:stedsnr" v="564427" />
	</node>
	<node lat="69.61449167629982" lon="25.249410873978718" id="-35380">
		<tag k="name" v="Guvvajávri" />
		<tag k="name:se" v="Guvvajávri" />
		<tag k="natural" v="water" />
		<tag k="old_name:se" v="Guvvajavri;Guvvájávri" />
		<tag k="ssr:stedsnr" v="564436" />
	</node>
	<node lat="69.62613056403494" lon="25.47143583495512" id="-35381">
		<tag k="name" v="Gállovárluoppal" />
		<tag k="name:se" v="Gállovárluoppal" />
		<tag k="natural" v="water" />
		<tag k="old_name:se" v="Galluvarluobbal" />
		<tag k="ssr:stedsnr" v="564443" />
	</node>
	<node lat="69.57429445372046" lon="25.0720553170927" id="-35382">
		<tag k="name" v="Namahisjávri" />
		<tag k="name:se" v="Namahisjávri" />
		<tag k="natural" v="water" />
		<tag k="old_name:se" v="Namahisjavri;Nahamisjávri" />
		<tag k="ssr:stedsnr" v="564374" />
		<tag k="water" v="lake" />
	</node>
	<node lat="69.22411667538444" lon="25.712060781441412" id="-35384">
		<tag k="alt_name:se" v="Guollemarnjavvi" />
		<tag k="name" v="Guollemarjávri" />
		<tag k="name:se" v="Guollemarjávri" />
		<tag k="old_name:se" v="Guollemarjavri" />
		<tag k="place" v="locality" />
		<tag k="ssr:stedsnr" v="564820" />
	</node>
	<node lat="69.21716390046214" lon="24.594655360471506" id="-35385">
		<tag k="name" v="Beahcečielskáidi" />
		<tag k="name:se" v="Beahcečielskáidi" />
		<tag k="natural" v="cape" />
		<tag k="old_name:se" v="Bæccečielskaidi" />
		<tag k="ssr:stedsnr" v="564979" />
	</node>
	<node lat="69.81369167077293" lon="24.37359428084086" id="-35387">
		<tag k="name" v="Atnejávri" />
		<tag k="name:se" v="Atnejávri" />
		<tag k="natural" v="water" />
		<tag k="old_name:se" v="Adnejavri;Átnejávri" />
		<tag k="ssr:stedsnr" v="565723" />
		<tag k="water" v="lake" />
	</node>
	<node lat="69.42792778081055" lon="24.919774787669386" id="-35390">
		<tag k="name" v="Varetvárguoika" />
		<tag k="name:se" v="Varetvárguoika" />
		<tag k="ssr:stedsnr" v="574002" />
		<tag k="waterway" v="rapids" />
	</node>
	<node lat="69.36075556427353" lon="24.569669251227047" id="-35392">
		<tag k="name" v="Duoljjeguoikkmohkki" />
		<tag k="name:se" v="Duoljjeguoikkmohkki" />
		<tag k="natural" v="bay" />
		<tag k="ssr:stedsnr" v="574298" />
	</node>
	<node lat="69.35723611436562" lon="24.571574817466956" id="-35393">
		<tag k="name" v="Ástejohnjálbmi" />
		<tag k="name:se" v="Ástejohnjálbmi" />
		<tag k="natural" v="bay" />
		<tag k="ssr:stedsnr" v="574412" />
	</node>
	<node lat="69.35593056337821" lon="24.57428869216319" id="-35394">
		<tag k="name" v="Elenáhkonjárga" />
		<tag k="name:se" v="Elenáhkonjárga" />
		<tag k="natural" v="cape" />
		<tag k="ssr:stedsnr" v="574416" />
	</node>
	<node lat="69.43200001254948" lon="25.780691337519137" id="-35400">
		<tag k="name" v="Muotkkemohkki" />
		<tag k="name:se" v="Muotkkemohkki" />
		<tag k="natural" v="bay" />
		<tag k="ssr:stedsnr" v="574508" />
	</node>
	<node lat="69.42397380563737" lon="25.796455012559512" id="-35405">
		<tag k="name" v="Reidarsavu" />
		<tag k="name:se" v="Reidarsavu" />
		<tag k="natural" v="water" />
		<tag k="ssr:stedsnr" v="574599" />
		<tag k="water" v="lake" />
	</node>
	<node lat="69.34015278899122" lon="25.11131643590212" id="-35406">
		<tag k="name" v="Šuolgganjavvi" />
		<tag k="name:se" v="Šuolgganjavvi" />
		<tag k="ssr:stedsnr" v="574758" />
		<tag k="waterway" v="rapids" />
	</node>
	<node lat="69.36818611342424" lon="24.45018594321842" id="-35408">
		<tag k="name" v="Čeavrresája" />
		<tag k="name:se" v="Čeavrresája" />
		<tag k="natural" v="spring" />
		<tag k="ssr:stedsnr" v="574760" />
	</node>
	<node lat="69.37200556474654" lon="24.318180399775894" id="-35409">
		<tag k="name" v="Čuovžagoatnil" />
		<tag k="name:se" v="Čuovžagoatnil" />
		<tag k="natural" v="water" />
		<tag k="ssr:stedsnr" v="574796" />
		<tag k="water" v="lake" />
	</node>
	<node lat="69.42721945583314" lon="25.8070579952977" id="-35413">
		<tag k="name" v="Uhcagáttáš" />
		<tag k="name:se" v="Uhcagáttáš" />
		<tag k="natural" v="beach" />
		<tag k="ssr:stedsnr" v="695478" />
	</node>
	<node lat="69.70365278138283" lon="24.49629150318243" id="-35414">
		<tag k="name" v="Čearujogaš" />
		<tag k="name:se" v="Čearujogaš" />
		<tag k="ssr:stedsnr" v="695483" />
		<tag k="waterway" v="stream" />
	</node>
	<node lat="69.25743890622103" lon="25.715958002248467" id="-35415">
		<tag k="name" v="Vealenjárga" />
		<tag k="name:se" v="Vealenjárga" />
		<tag k="natural" v="cape" />
		<tag k="ssr:stedsnr" v="695493" />
	</node>
	<node lat="69.55463612084618" lon="25.87340799208753" id="-35417">
		<tag k="name" v="Stuoranjársavu" />
		<tag k="name:se" v="Stuoranjársavu" />
		<tag k="natural" v="water" />
		<tag k="old_name:se" v="Stuoranjarsavu" />
		<tag k="ssr:stedsnr" v="695962" />
		<tag k="water" v="lake" />
	</node>
	<node lat="69.42399167336322" lon="24.91691366679367" id="-35418">
		<tag k="name" v="Aškkasjogaš" />
		<tag k="name:se" v="Aškkasjogaš" />
		<tag k="ssr:stedsnr" v="696001" />
		<tag k="waterway" v="stream" />
	</node>
	<node lat="69.4415555654271" lon="25.561466383198407" id="-35422">
		<tag k="name" v="Beaivvánttejogaš" />
		<tag k="name:se" v="Beaivvánttejogaš" />
		<tag k="ssr:stedsnr" v="696134" />
		<tag k="waterway" v="stream" />
	</node>
	<node lat="69.42465000388532" lon="24.58347759710261" id="-35425">
		<tag k="name" v="Ávžedearpmejogaš" />
		<tag k="name:se" v="Ávžedearpmejogaš" />
		<tag k="ssr:stedsnr" v="696496" />
		<tag k="waterway" v="stream" />
	</node>
	<node lat="69.46623056504733" lon="25.212185849306156" id="-35430">
		<tag k="name" v="Duojahatnjárga" />
		<tag k="name:se" v="Duojahatnjárga" />
		<tag k="natural" v="cape" />
		<tag k="ssr:stedsnr" v="696545" />
	</node>
	<node lat="69.6853361261278" lon="25.84161357183779" id="-35432">
		<tag k="name" v="Bierfal" />
		<tag k="name:se" v="Bierfal" />
		<tag k="natural" v="water" />
		<tag k="ssr:stedsnr" v="696550" />
	</node>
	<node lat="69.66904445364612" lon="25.818763570864647" id="-35433">
		<tag k="name" v="Gárggoája" />
		<tag k="name:se" v="Gárggoája" />
		<tag k="ssr:stedsnr" v="696553" />
		<tag k="waterway" v="stream" />
	</node>
	<node lat="69.43462778449039" lon="25.25901086506432" id="-35434">
		<tag k="name" v="Niitomohkki" />
		<tag k="name:se" v="Niitomohkki" />
		<tag k="natural" v="bay" />
		<tag k="ssr:stedsnr" v="696588" />
	</node>
	<node lat="69.4417000089041" lon="25.233166423958423" id="-35435">
		<tag k="name" v="Niitogeahči" />
		<tag k="name:se" v="Niitogeahči" />
		<tag k="natural" v="cape" />
		<tag k="ssr:stedsnr" v="696591" />
	</node>
	<node lat="69.69369723386666" lon="25.915141343749777" id="-35436">
		<tag k="name" v="Biedjanjárga" />
		<tag k="name:se" v="Biedjanjárga" />
		<tag k="natural" v="cape" />
		<tag k="ssr:stedsnr" v="696594" />
	</node>
	<node lat="69.69821945446692" lon="25.903769110200262" id="-35437">
		<tag k="name" v="Uhcasulloš" />
		<tag k="name:se" v="Uhcasulloš" />
		<tag k="place" v="islet" />
		<tag k="ssr:stedsnr" v="696595" />
	</node>
	<node lat="69.40824723403375" lon="25.137996968229498" id="-35438">
		<tag k="name" v="Oarravuohppi" />
		<tag k="name:se" v="Oarravuohppi" />
		<tag k="natural" v="bay" />
		<tag k="ssr:stedsnr" v="696696" />
	</node>
	<node lat="69.40429723334306" lon="25.128683095044263" id="-35439">
		<tag k="name" v="Báktevárášjávri" />
		<tag k="name:se" v="Báktevárášjávri" />
		<tag k="natural" v="water" />
		<tag k="ssr:stedsnr" v="696699" />
		<tag k="water" v="lake" />
	</node>
	<node lat="69.43430000874001" lon="25.171216432551752" id="-35440">
		<tag k="name" v="Luovvesuolu" />
		<tag k="name:se" v="Luovvesuolu" />
		<tag k="place" v="islet" />
		<tag k="ssr:stedsnr" v="696630" />
	</node>
	<node lat="69.59101626829387" lon="25.95123844356793" id="-35442">
		<tag k="name" v="Áhkosavu" />
		<tag k="name:se" v="Áhkosavu" />
		<tag k="natural" v="water" />
		<tag k="ssr:stedsnr" v="696638" />
		<tag k="water" v="lake" />
	</node>
	<node lat="69.3791055640909" lon="25.153885851373346" id="-35448">
		<tag k="name" v="Buollánnjársavu" />
		<tag k="name:se" v="Buollánnjársavu" />
		<tag k="natural" v="water" />
		<tag k="ssr:stedsnr" v="696662" />
		<tag k="water" v="lake" />
	</node>
	<node lat="69.38223889782917" lon="24.279830400720982" id="-35449">
		<tag k="name" v="Šuošjároaivvuš" />
		<tag k="name:se" v="Šuošjároaivvuš" />
		<tag k="natural" v="bay" />
		<tag k="ssr:stedsnr" v="696735" />
	</node>
	<node lat="69.3726861166342" lon="24.304660945450124" id="-35450">
		<tag k="name" v="Fártaguorvil" />
		<tag k="name:se" v="Fártaguorvil" />
		<tag k="ssr:stedsnr" v="696738" />
		<tag k="waterway" v="rapids" />
	</node>
	<node lat="69.37168334088666" lon="24.33504429198233" id="-35451">
		<tag k="name" v="Suoidnesajefielbma" />
		<tag k="name:se" v="Suoidnesajefielbma" />
		<tag k="natural" v="water" />
		<tag k="ssr:stedsnr" v="696742" />
		<tag k="water" v="lake" />
	</node>
	<node lat="69.36136111928263" lon="25.145713633111185" id="-35452">
		<tag k="name" v="Gorvvásavu" />
		<tag k="name:se" v="Gorvvásavu" />
		<tag k="natural" v="water" />
		<tag k="ssr:stedsnr" v="696746" />
		<tag k="water" v="lake" />
	</node>
	<node lat="69.44767500868173" lon="25.649452472391463" id="-35453">
		<tag k="name" v="Guorotláddot" />
		<tag k="name:se" v="Guorotláddot" />
		<tag k="natural" v="water" />
		<tag k="ssr:stedsnr" v="696791" />
	</node>
	<node lat="69.44287501509173" lon="25.71336357965305" id="-35455">
		<tag k="name" v="Holganuorri" />
		<tag k="name:se" v="Holganuorri" />
		<tag k="natural" v="strait" />
		<tag k="ssr:stedsnr" v="696954" />
	</node>
	<node lat="69.76926945894901" lon="26.179419075149518" id="-35458">
		<tag k="name" v="Bodnjelásis" />
		<tag k="name:se" v="Bodnjelásis" />
		<tag k="natural" v="beach" />
		<tag k="ssr:stedsnr" v="697649" />
	</node>
	<node lat="69.71273056409824" lon="24.637733144647424" id="-35459">
		<tag k="name" v="Čearrojávri" />
		<tag k="name:se" v="Čearrojávri" />
		<tag k="natural" v="water" />
		<tag k="old_name:se" v="Čærrujavri" />
		<tag k="ssr:stedsnr" v="624303" />
	</node>
	<node lat="69.53615278213209" lon="24.59033593900731" id="-35460">
		<tag k="name" v="Beatnatjávri" />
		<tag k="name:se" v="Beatnatjávri" />
		<tag k="natural" v="water" />
		<tag k="ssr:stedsnr" v="624317" />
		<tag k="water" v="lake" />
	</node>
	<node lat="69.13567500697454" lon="25.10825251259904" id="-35465">
		<tag k="name" v="Máttit Njoammeljohka" />
		<tag k="name:se" v="Máttit Njoammeljohka" />
		<tag k="old_name:se" v="Njoammeljåkka, maddit" />
		<tag k="ssr:stedsnr" v="624903" />
		<tag k="waterway" v="stream" />
	</node>
	<node lat="69.35950834232014" lon="25.33793862029579" id="-35466">
		<tag k="name" v="Linddejohka" />
		<tag k="name:se" v="Linddejohka" />
		<tag k="old_name:se" v="Lindejåkka" />
		<tag k="ssr:stedsnr" v="625005" />
		<tag k="waterway" v="stream" />
	</node>
	<node lat="69.314219450822" lon="25.00308309776026" id="-35468">
		<tag k="name" v="Suhppensavu" />
		<tag k="name:se" v="Suhppensavu" />
		<tag k="old_name:se" v="Suppinsaivo" />
		<tag k="place" v="locality" />
		<tag k="ssr:stedsnr" v="625203" />
	</node>
	<node lat="69.42779444738085" lon="24.321552623570437" id="-35470">
		<tag k="name" v="Buolžajohka" />
		<tag k="name:se" v="Buolžajohka" />
		<tag k="old_name:se" v="Buolžajåkka" />
		<tag k="ssr:stedsnr" v="625309" />
		<tag k="waterway" v="stream" />
	</node>
	<node lat="69.43196667761687" lon="24.839880357656767" id="-35471">
		<tag k="name" v="Rávdojohka" />
		<tag k="name:se" v="Rávdojohka" />
		<tag k="old_name:se" v="Ravdujåkka" />
		<tag k="ssr:stedsnr" v="625375" />
		<tag k="waterway" v="river" />
	</node>
	<node lat="69.68963612024537" lon="25.454619172128016" id="-35472">
		<tag k="name" v="Geađgeluoppal" />
		<tag k="name:se" v="Geađgeluoppal" />
		<tag k="natural" v="water" />
		<tag k="old_name:se" v="Gæđgeluobbal" />
		<tag k="ssr:stedsnr" v="625385" />
	</node>
	<node lat="69.10295850439563" lon="25.730535392587832" id="-35473">
		<tag k="name" v="Ámotguoika" />
		<tag k="name:se" v="Ámotguoika" />
		<tag k="old_name:se" v="Amutguoika" />
		<tag k="ssr:stedsnr" v="625852" />
		<tag k="waterway" v="rapids" />
	</node>
	<node lat="69.07645556866812" lon="25.727107995419747" id="-35475">
		<tag k="name" v="Bahtošsavu" />
		<tag k="name:se" v="Bahtošsavu" />
		<tag k="old_name:se" v="Battušsavo" />
		<tag k="place" v="locality" />
		<tag k="ssr:stedsnr" v="625861" />
	</node>
	<node lat="69.41045868683028" lon="25.809399844870395" id="-35476">
		<tag k="name" v="Jorregoatnil" />
		<tag k="name:se" v="Jorregoatnil" />
		<tag k="natural" v="water" />
		<tag k="ssr:stedsnr" v="634493" />
		<tag k="water" v="lake" />
	</node>
	<node lat="69.40267779043667" lon="25.833405220137596" id="-35477">
		<tag k="name" v="Dorvoguoikkavuolle" />
		<tag k="name:se" v="Dorvoguoikkavuolle" />
		<tag k="place" v="locality" />
		<tag k="ssr:stedsnr" v="634496" />
	</node>
	<node lat="69.42188056426494" lon="24.93941367899125" id="-35478">
		<tag k="name" v="Buolžžaskárjohka" />
		<tag k="name:se" v="Buolžžaskárjohka" />
		<tag k="ssr:stedsnr" v="635005" />
		<tag k="waterway" v="stream" />
	</node>
	<node lat="69.42189444869518" lon="24.922083121491138" id="-35479">
		<tag k="name" v="Beagoirrajogaš" />
		<tag k="name:se" v="Beagoirrajogaš" />
		<tag k="ssr:stedsnr" v="635007" />
		<tag k="waterway" v="stream" />
	</node>
	<node lat="69.4665777888171" lon="25.500474722073434" id="-35480">
		<tag k="name" v="Issáhašgáddi" />
		<tag k="name:se" v="Issáhašgáddi" />
		<tag k="natural" v="beach" />
		<tag k="ssr:stedsnr" v="635203" />
	</node>
	<node lat="69.46963334085909" lon="25.498391390307734" id="-35481">
		<tag k="name" v="Vuohppi" />
		<tag k="name:se" v="Vuohppi" />
		<tag k="natural" v="bay" />
		<tag k="ssr:stedsnr" v="635208" />
	</node>
	<node lat="69.35860834516133" lon="24.638252580540875" id="-35483">
		<tag k="name" v="Jeaggenjárga" />
		<tag k="name:se" v="Jeaggenjárga" />
		<tag k="natural" v="cape" />
		<tag k="ssr:stedsnr" v="635384" />
	</node>
	<node lat="69.41628890045128" lon="24.723641458231544" id="-35484">
		<tag k="name" v="Liidnebeahcansuolu" />
		<tag k="name:se" v="Liidnebeahcansuolu" />
		<tag k="place" v="islet" />
		<tag k="ssr:stedsnr" v="635505" />
	</node>
	<node lat="69.33645556322573" lon="25.069677548315862" id="-35488">
		<tag k="name" v="Ástonlásis" />
		<tag k="name:se" v="Ástonlásis" />
		<tag k="place" v="islet" />
		<tag k="ssr:stedsnr" v="635681" />
	</node>
	<node lat="69.36761944881609" lon="24.425083164059483" id="-35489">
		<tag k="name" v="Unnit-Čoavddatjogaš" />
		<tag k="name:se" v="Unnit-Čoavddatjogaš" />
		<tag k="ssr:stedsnr" v="635687" />
		<tag k="waterway" v="stream" />
	</node>
	<node lat="69.36118180384021" lon="24.55385646891373" id="-35492">
		<tag k="name" v="Jovnna-Lemetgoatnil" />
		<tag k="name:se" v="Jovnna-Lemetgoatnil" />
		<tag k="natural" v="water" />
		<tag k="ssr:stedsnr" v="635707" />
		<tag k="water" v="lake" />
	</node>
	<node lat="69.44108334514257" lon="25.2434303139129" id="-35493">
		<tag k="name" v="Jorrenjárga" />
		<tag k="name:se" v="Jorrenjárga" />
		<tag k="natural" v="cape" />
		<tag k="ssr:stedsnr" v="685204" />
	</node>
	<node lat="69.37665000601582" lon="24.691444248942535" id="-35494">
		<tag k="name" v="Bojobeasjohka" />
		<tag k="name:se" v="Bojobeasjohka" />
		<tag k="old_name:se" v="Båjubæsjåkka" />
		<tag k="ssr:stedsnr" v="685116" />
		<tag k="waterway" v="stream" />
	</node>
	<node lat="69.41283611520375" lon="24.943338661541354" id="-35496">
		<tag k="name" v="Buolžžaskárjávri" />
		<tag k="name:se" v="Buolžžaskárjávri" />
		<tag k="natural" v="water" />
		<tag k="old_name:se" v="Buolžaskarjavri" />
		<tag k="ssr:stedsnr" v="685148" />
		<tag k="water" v="lake" />
	</node>
	<node lat="69.41160001048291" lon="25.1435358578569" id="-35497">
		<tag k="name" v="Mihkilsuolu" />
		<tag k="name:se" v="Mihkilsuolu" />
		<tag k="old_name:se" v="Mikkilsuolo" />
		<tag k="place" v="islet" />
		<tag k="ssr:stedsnr" v="685152" />
	</node>
	<node lat="68.91334445965713" lon="25.654427425941066" id="-35499">
		<tag k="name" v="Sovlennjárga" />
		<tag k="name:se" v="Sovlennjárga" />
		<tag k="natural" v="cape" />
		<tag k="old_name:se" v="Såvlennjarga" />
		<tag k="ssr:stedsnr" v="685642" />
	</node>
	<node lat="68.90621390521056" lon="25.651552437015752" id="-35500">
		<tag k="name" v="Gálgonjárga" />
		<tag k="name:se" v="Gálgonjárga" />
		<tag k="natural" v="cape" />
		<tag k="old_name:se" v="Galgunjarga" />
		<tag k="ssr:stedsnr" v="685648" />
	</node>
	<node lat="69.35712501467809" lon="25.800516333350505" id="-35502">
		<tag k="name" v="Čáhppesguoika" />
		<tag k="name:se" v="Čáhppesguoika" />
		<tag k="natural" v="waterfall" />
		<tag k="old_name:se" v="Čappesguoika" />
		<tag k="ssr:stedsnr" v="686003" />
	</node>
	<node lat="69.608441672032" lon="24.31989707810665" id="-35504">
		<tag k="name" v="Ceakkoguoika" />
		<tag k="name:se" v="Ceakkoguoika" />
		<tag k="natural" v="waterfall" />
		<tag k="ssr:stedsnr" v="686241" />
	</node>
	<node lat="69.34447778819985" lon="25.153283087902288" id="-35505">
		<tag k="name" v="Goikenjavvi" />
		<tag k="name:se" v="Goikenjavvi" />
		<tag k="old_name:se" v="Gåikenjavvi" />
		<tag k="ssr:stedsnr" v="686141" />
		<tag k="waterway" v="rapids" />
	</node>
	<node lat="69.6501388981064" lon="25.319969191764" id="-35507">
		<tag k="name" v="Leavdnjavuohppi" />
		<tag k="name:se" v="Leavdnjavuohppi" />
		<tag k="natural" v="bay" />
		<tag k="old_name:se" v="Lævdnjavuoppi" />
		<tag k="ssr:stedsnr" v="686444" />
	</node>
	<node lat="69.50551667694332" lon="25.38549138699877" id="-35508">
		<tag k="name" v="Máhtešláttu" />
		<tag k="name:se" v="Máhtešláttu" />
		<tag k="natural" v="water" />
		<tag k="old_name:se" v="Mattešladdo" />
		<tag k="ssr:stedsnr" v="686447" />
	</node>
	<node lat="69.74924723456452" lon="26.138044082891525" id="-35509">
		<tag k="alt_name:se" v="Stuorajávri" />
		<tag k="name" v="Stuorrajávri" />
		<tag k="name:se" v="Stuorrajávri" />
		<tag k="natural" v="water" />
		<tag k="old_name:se" v="Stuorrajavri" />
		<tag k="ssr:stedsnr" v="686453" />
	</node>
	<node lat="69.60209723720904" lon="25.933913548443083" id="-35510">
		<tag k="name" v="Vuolitnjárjohka" />
		<tag k="name:se" v="Vuolitnjárjohka" />
		<tag k="old_name:se" v="Vuolitnjarjåkka" />
		<tag k="ssr:stedsnr" v="686495" />
		<tag k="waterway" v="stream" />
	</node>
	<node lat="69.53553890132147" lon="25.861099654381885" id="-35511">
		<tag k="name" v="Biessavu" />
		<tag k="name:se" v="Biessavu" />
		<tag k="natural" v="water" />
		<tag k="old_name:se" v="Biessavo" />
		<tag k="ssr:stedsnr" v="686497" />
		<tag k="water" v="lake" />
	</node>
	<node lat="69.65590556539098" lon="25.912724663769286" id="-35512">
		<tag k="alt_name:se" v="Stuorasuolu" />
		<tag k="name" v="Stuorrasuolu" />
		<tag k="name:se" v="Stuorrasuolu" />
		<tag k="old_name:se" v="Stuorrasuolo" />
		<tag k="place" v="island" />
		<tag k="ssr:stedsnr" v="686504" />
	</node>
	<node lat="69.15861667411443" lon="25.583602467203182" id="-35515">
		<tag k="name" v="Čuonjegáljohka" />
		<tag k="name:se" v="Čuonjegáljohka" />
		<tag k="old_name:se" v="Čuonjegaljåkka" />
		<tag k="ssr:stedsnr" v="686846" />
		<tag k="waterway" v="stream" />
	</node>
	<node lat="69.54786667735654" lon="24.4055387209554" id="-35516">
		<tag k="name" v="Mollešjohnjárga" />
		<tag k="name:se" v="Mollešjohnjárga" />
		<tag k="natural" v="cape" />
		<tag k="ssr:stedsnr" v="692393" />
	</node>
	<node lat="69.42358334702544" lon="25.55906914660581" id="-35520">
		<tag k="name" v="Lápmašunskáidi" />
		<tag k="name:se" v="Lápmašunskáidi" />
		<tag k="natural" v="cape" />
		<tag k="ssr:stedsnr" v="696469" />
	</node>
	<node lat="69.4506722343206" lon="25.44184140211608" id="-35522">
		<tag k="name" v="Sahásavu" />
		<tag k="name:se" v="Sahásavu" />
		<tag k="place" v="locality" />
		<tag k="ssr:stedsnr" v="696483" />
	</node>
	<node lat="69.41897501002013" lon="25.157230322407123" id="-35523">
		<tag k="name" v="Bohkegeađgi" />
		<tag k="name:se" v="Bohkegeađgi" />
		<tag k="place" v="islet" />
		<tag k="ssr:stedsnr" v="696603" />
	</node>
	<node lat="69.43273611697757" lon="25.172930300827886" id="-35524">
		<tag k="name" v="Guoikkavuolli" />
		<tag k="name:se" v="Guoikkavuolli" />
		<tag k="place" v="locality" />
		<tag k="ssr:stedsnr" v="696611" />
	</node>
	<node lat="69.42744445401686" lon="25.13475253798707" id="-35525">
		<tag k="name" v="Miellemohkki" />
		<tag k="name:se" v="Miellemohkki" />
		<tag k="natural" v="bay" />
		<tag k="ssr:stedsnr" v="696614" />
	</node>
	<node lat="69.35223055911246" lon="24.601824817136748" id="-35526">
		<tag k="name" v="Bajitdappal" />
		<tag k="name:se" v="Bajitdappal" />
		<tag k="place" v="locality" />
		<tag k="ssr:stedsnr" v="696371" />
	</node>
	<node lat="69.47894445243838" lon="25.805974672493694" id="-35529">
		<tag k="name" v="Luomejeakkeája" />
		<tag k="name:se" v="Luomejeakkeája" />
		<tag k="ssr:stedsnr" v="696572" />
		<tag k="waterway" v="stream" />
	</node>
	<node lat="69.37930000659578" lon="24.242958172842886" id="-35532">
		<tag k="name" v="Juovssa-Piernjárga" />
		<tag k="name:se" v="Juovssa-Piernjárga" />
		<tag k="natural" v="cape" />
		<tag k="ssr:stedsnr" v="696666" />
	</node>
	<node lat="69.40133612146937" lon="25.155533077422287" id="-35533">
		<tag k="name" v="Sáttoláddot" />
		<tag k="name:se" v="Sáttoláddot" />
		<tag k="natural" v="water" />
		<tag k="ssr:stedsnr" v="696672" />
	</node>
	<node lat="69.41233890099384" lon="25.570819140044218" id="-35534">
		<tag k="name" v="Nállogoatskáidi" />
		<tag k="name:se" v="Nállogoatskáidi" />
		<tag k="natural" v="cape" />
		<tag k="ssr:stedsnr" v="696823" />
	</node>
	<node lat="69.4627194550539" lon="25.552605275397468" id="-35537">
		<tag k="name" v="Niitogáddi" />
		<tag k="name:se" v="Niitogáddi" />
		<tag k="natural" v="beach" />
		<tag k="ssr:stedsnr" v="696923" />
	</node>
	<node lat="69.35830829431806" lon="25.807945319367256" id="-35540">
		<tag k="name" v="Bahásguoika" />
		<tag k="name:se" v="Bahásguoika" />
		<tag k="natural" v="waterfall" />
		<tag k="old_name:se" v="Bahasguoika" />
		<tag k="ssr:stedsnr" v="746011" />
	</node>
	<node lat="69.44579445215693" lon="25.64499968551331" id="-35543">
		<tag k="name" v="Badjevuohpenjárga" />
		<tag k="name:se" v="Badjevuohpenjárga" />
		<tag k="natural" v="cape" />
		<tag k="old_name:se" v="Baddjevuoppenjarga" />
		<tag k="ssr:stedsnr" v="746218" />
	</node>
	<node lat="69.43454167821865" lon="25.285758071896915" id="-35544">
		<tag k="name" v="Sámmáljohka" />
		<tag k="name:se" v="Sámmáljohka" />
		<tag k="ssr:stedsnr" v="746220" />
		<tag k="waterway" v="stream" />
	</node>
	<node lat="69.35153889773696" lon="24.532999822196235" id="-35545">
		<tag k="name" v="Ásteskáidi" />
		<tag k="name:se" v="Ásteskáidi" />
		<tag k="natural" v="cape" />
		<tag k="old_name:se" v="Asteskaidi" />
		<tag k="ssr:stedsnr" v="746304" />
	</node>
	<node lat="69.69815000416035" lon="24.81289979003754" id="-35546">
		<tag k="name" v="Spáđajohjávri" />
		<tag k="name:se" v="Spáđajohjávri" />
		<tag k="natural" v="water" />
		<tag k="old_name:se" v="Spađajåkjavri" />
		<tag k="ssr:stedsnr" v="746311" />
	</node>
	<node lat="69.68291111784187" lon="25.375352513736086" id="-35547">
		<tag k="name" v="Hárrejávri" />
		<tag k="name:se" v="Hárrejávri" />
		<tag k="natural" v="water" />
		<tag k="old_name:se" v="Harrejavri" />
		<tag k="ssr:stedsnr" v="746367" />
		<tag k="water" v="lake" />
	</node>
	<node lat="69.69389167715639" lon="25.93853579063826" id="-35549">
		<tag k="fixme" v="multiple name tags, choose one and add the other to alt_name" />
		<tag k="name" v="Váljohsuolu;Suolu" />
		<tag k="name:se" v="Váljohsuolu;Suolu" />
		<tag k="old_name:se" v="Suolo" />
		<tag k="place" v="islet" />
		<tag k="ssr:stedsnr" v="746503" />
	</node>
	<node lat="69.56173334376419" lon="25.50261638212824" id="-35550">
		<tag k="name" v="Migonjávri" />
		<tag k="name:se" v="Migonjávri" />
		<tag k="natural" v="water" />
		<tag k="old_name:se" v="Migunjavri" />
		<tag k="ssr:stedsnr" v="746473" />
	</node>
	<node lat="69.02698889982055" lon="25.75914131870722" id="-35551">
		<tag k="name" v="Ráitejávri" />
		<tag k="name:se" v="Ráitejávri" />
		<tag k="natural" v="water" />
		<tag k="old_name:se" v="Raitejavri" />
		<tag k="ssr:stedsnr" v="746717" />
	</node>
	<node lat="69.11861945261235" lon="25.447777470139012" id="-35553">
		<tag k="name" v="Lásseguoika" />
		<tag k="name:se" v="Lásseguoika" />
		<tag k="old_name:se" v="Lasseguoika" />
		<tag k="ssr:stedsnr" v="746805" />
		<tag k="waterway" v="rapids" />
	</node>
	<node lat="69.11468056953441" lon="25.709299657030943" id="-35554">
		<tag k="loc_name:se" v="Dearpmesája" />
		<tag k="name" v="Dierpmesája" />
		<tag k="name:se" v="Dierpmesája" />
		<tag k="old_name:se" v="Dierbmesaja" />
		<tag k="ssr:stedsnr" v="746808" />
		<tag k="waterway" v="stream" />
	</node>
	<node lat="69.17923611385235" lon="24.598866475447128" id="-35556">
		<tag k="name" v="Opmojohka" />
		<tag k="name:se" v="Opmojohka" />
		<tag k="old_name:se" v="Åbmujåkka" />
		<tag k="ssr:stedsnr" v="746970" />
		<tag k="waterway" v="stream" />
	</node>
	<node lat="69.85795001413094" lon="25.70946081546452" id="-35557">
		<tag k="name" v="Skuolfejávri" />
		<tag k="name:se" v="Skuolfejávri" />
		<tag k="natural" v="water" />
		<tag k="old_name:se" v="Skuolfejavri" />
		<tag k="ssr:stedsnr" v="747905" />
	</node>
	<node lat="69.43242500723743" lon="24.980408094469418" id="-35558">
		<tag k="name" v="Buolžžaskárnjiellu" />
		<tag k="name:se" v="Buolžžaskárnjiellu" />
		<tag k="ssr:stedsnr" v="756009" />
		<tag k="waterway" v="rapids" />
	</node>
	<node lat="69.46938890040289" lon="25.50425804500177" id="-35559">
		<tag k="name" v="Stuorageađgi" />
		<tag k="name:se" v="Stuorageađgi" />
		<tag k="place" v="islet" />
		<tag k="ssr:stedsnr" v="756215" />
	</node>
	<node lat="69.52259723252145" lon="25.869885776582382" id="-35561">
		<tag k="name" v="Čáhcegáldoája" />
		<tag k="name:se" v="Čáhcegáldoája" />
		<tag k="ssr:stedsnr" v="756545" />
		<tag k="waterway" v="stream" />
	</node>
	<node lat="69.52661667757165" lon="25.86940245044267" id="-35562">
		<tag k="name" v="Stihkrennaája" />
		<tag k="name:se" v="Stihkrennaája" />
		<tag k="ssr:stedsnr" v="756546" />
		<tag k="waterway" v="stream" />
	</node>
	<node lat="69.48553889846742" lon="25.245449756190645" id="-35563">
		<tag k="name" v="Čáhppesjohka" />
		<tag k="name:se" v="Čáhppesjohka" />
		<tag k="ssr:stedsnr" v="756553" />
		<tag k="waterway" v="stream" />
	</node>
	<node lat="69.3471333426653" lon="25.77796355576876" id="-35566">
		<tag k="name" v="Guoikkaidoaivi" />
		<tag k="name:se" v="Guoikkaidoaivi" />
		<tag k="ssr:stedsnr" v="756459" />
		<tag k="waterway" v="rapids" />
	</node>
	<node lat="69.44281667526873" lon="25.2114525256855" id="-35567">
		<tag k="name" v="Luovvenjárga" />
		<tag k="name:se" v="Luovvenjárga" />
		<tag k="natural" v="cape" />
		<tag k="ssr:stedsnr" v="756616" />
	</node>
	<node lat="69.704963903377" lon="25.95034410349597" id="-35568">
		<tag k="name" v="Geađgenjárga" />
		<tag k="name:se" v="Geađgenjárga" />
		<tag k="natural" v="cape" />
		<tag k="ssr:stedsnr" v="756619" />
	</node>
	<node lat="69.44121667860757" lon="25.3316136278723" id="-35570">
		<tag k="name" v="Háldegáddi" />
		<tag k="name:se" v="Háldegáddi" />
		<tag k="natural" v="beach" />
		<tag k="ssr:stedsnr" v="756599" />
	</node>
	<node lat="69.38397778177895" lon="24.274388737044248" id="-35574">
		<tag k="name" v="Suolonuorsuolu" />
		<tag k="name:se" v="Suolonuorsuolu" />
		<tag k="place" v="islet" />
		<tag k="ssr:stedsnr" v="757711" />
	</node>
	<node lat="69.43947500625129" lon="25.03924977563888" id="-35577">
		<tag k="name" v="Ruovdebáhdappal" />
		<tag k="name:se" v="Ruovdebáhdappal" />
		<tag k="place" v="locality" />
		<tag k="ssr:stedsnr" v="817024" />
	</node>
	<node lat="69.48734167595737" lon="25.47908305518439" id="-35579">
		<tag k="name" v="Luhkkárláddot" />
		<tag k="name:se" v="Luhkkárláddot" />
		<tag k="natural" v="water" />
		<tag k="ssr:stedsnr" v="817308" />
	</node>
	<node lat="69.39875834279104" lon="24.64310536582375" id="-35581">
		<tag k="name" v="Jergoljohnjálbmi" />
		<tag k="name:se" v="Jergoljohnjálbmi" />
		<tag k="natural" v="bay" />
		<tag k="ssr:stedsnr" v="817423" />
	</node>
	<node lat="69.35371389857532" lon="24.582524809015194" id="-35582">
		<tag k="name" v="Ástejohnjálmmesullot" />
		<tag k="name:se" v="Ástejohnjálmmesullot" />
		<tag k="place" v="islet" />
		<tag k="ssr:stedsnr" v="817376" />
	</node>
	<node lat="69.49085001120896" lon="25.84593300705533" id="-35584">
		<tag k="name" v="Hoašširjohnjálbmi" />
		<tag k="name:se" v="Hoašširjohnjálbmi" />
		<tag k="natural" v="bay" />
		<tag k="ssr:stedsnr" v="817526" />
	</node>
	<node lat="69.7323000121795" lon="25.885696893029444" id="-35586">
		<tag k="name" v="Viercajohka" />
		<tag k="name:se" v="Viercajohka" />
		<tag k="ssr:stedsnr" v="817578" />
		<tag k="waterway" v="stream" />
	</node>
	<node lat="69.44711667619642" lon="25.222538633812935" id="-35588">
		<tag k="name" v="Guhkesnjárga" />
		<tag k="name:se" v="Guhkesnjárga" />
		<tag k="natural" v="cape" />
		<tag k="ssr:stedsnr" v="817593" />
	</node>
	<node lat="69.45852778679327" lon="25.13104975365796" id="-35589">
		<tag k="name" v="Guđatgahpirláttu" />
		<tag k="name:se" v="Guđatgahpirláttu" />
		<tag k="natural" v="water" />
		<tag k="ssr:stedsnr" v="817594" />
	</node>
	<node lat="69.43258334159968" lon="25.162933075493996" id="-35590">
		<tag k="name" v="Mándirnjársullot" />
		<tag k="name:se" v="Mándirnjársullot" />
		<tag k="place" v="islet" />
		<tag k="ssr:stedsnr" v="817604" />
	</node>
	<node lat="69.39255834543442" lon="25.156085860114125" id="-35591">
		<tag k="name" v="Áhpemohkesuolu" />
		<tag k="name:se" v="Áhpemohkesuolu" />
		<tag k="place" v="islet" />
		<tag k="ssr:stedsnr" v="817655" />
	</node>
	<node lat="69.36638889212183" lon="24.438352611444273" id="-35592">
		<tag k="name" v="Čoavddatmohkki" />
		<tag k="name:se" v="Čoavddatmohkki" />
		<tag k="natural" v="bay" />
		<tag k="ssr:stedsnr" v="817819" />
	</node>
	<node lat="69.44569167909019" lon="25.660074679631887" id="-35593">
		<tag k="name" v="Badjevuohppi" />
		<tag k="name:se" v="Badjevuohppi" />
		<tag k="natural" v="bay" />
		<tag k="ssr:stedsnr" v="817824" />
	</node>
	<node lat="69.37668055989245" lon="24.355769284773835" id="-35596">
		<tag k="name" v="Miehkarnjárga" />
		<tag k="name:se" v="Miehkarnjárga" />
		<tag k="natural" v="cape" />
		<tag k="ssr:stedsnr" v="817769" />
	</node>
	<node lat="69.43480834783578" lon="25.73340246998454" id="-35598">
		<tag k="name" v="Holgamohkki" />
		<tag k="name:se" v="Holgamohkki" />
		<tag k="natural" v="bay" />
		<tag k="ssr:stedsnr" v="817969" />
	</node>
	<node lat="69.43999723158011" lon="25.65020247778466" id="-35601">
		<tag k="name" v="Jeambealesjávri" />
		<tag k="name:se" v="Jeambealesjávri" />
		<tag k="natural" v="water" />
		<tag k="ssr:stedsnr" v="817872" />
	</node>
	<node lat="69.42440001239773" lon="25.248771964360945" id="-35606">
		<tag k="name" v="Niitomohkejogaš" />
		<tag k="name:se" v="Niitomohkejogaš" />
		<tag k="old_name:se" v="Niitumåkkejågaš" />
		<tag k="ssr:stedsnr" v="928202" />
		<tag k="waterway" v="stream" />
	</node>
	<node lat="69.43536667939061" lon="25.285288630405702" id="-35608">
		<tag k="name" v="Sámmáljohnjálbmi" />
		<tag k="name:se" v="Sámmáljohnjálbmi" />
		<tag k="natural" v="bay" />
		<tag k="old_name:se" v="Sammaljåknjalbmi" />
		<tag k="ssr:stedsnr" v="928197" />
	</node>
	<node lat="69.5739750067874" lon="24.48153037921208" id="-35609">
		<tag k="name" v="Návlesaijávri" />
		<tag k="name:se" v="Návlesaijávri" />
		<tag k="natural" v="water" />
		<tag k="old_name:se" v="Navlesaijavri" />
		<tag k="ssr:stedsnr" v="928265" />
	</node>
	<node lat="69.47909166828059" lon="24.46078316753767" id="-35610">
		<tag k="name" v="Roancejohka" />
		<tag k="name:se" v="Roancejohka" />
		<tag k="old_name:se" v="Roancejåkka" />
		<tag k="ssr:stedsnr" v="928231" />
		<tag k="waterway" v="stream" />
	</node>
	<node lat="69.49729722942031" lon="24.408910941657513" id="-35611">
		<tag k="name" v="Čorotjávri" />
		<tag k="name:se" v="Čorotjávri" />
		<tag k="natural" v="water" />
		<tag k="ssr:stedsnr" v="928240" />
		<tag k="water" v="lake" />
	</node>
	<node lat="69.52088333993787" lon="24.886688680258597" id="-35612">
		<tag k="name" v="Sáđejávri" />
		<tag k="name:se" v="Sáđejávri" />
		<tag k="natural" v="water" />
		<tag k="old_name:se" v="Sađejavri" />
		<tag k="ssr:stedsnr" v="928322" />
		<tag k="water" v="lake" />
	</node>
	<node lat="69.4514333423744" lon="25.072324761597038" id="-35615">
		<tag k="fixme" v="multiple name tags, choose one and add the other to alt_name" />
		<tag k="name" v="Uhca Rávdojogaš;Loddejohka" />
		<tag k="name:se" v="Uhca Rávdojogaš;Loddejohka" />
		<tag k="old_name:se" v="Låddejåkka" />
		<tag k="ssr:stedsnr" v="928340" />
		<tag k="waterway" v="stream" />
	</node>
	<node lat="69.67587500903663" lon="25.046633103816678" id="-35618">
		<tag k="name" v="Čuolmmajávri" />
		<tag k="name:se" v="Čuolmmajávri" />
		<tag k="natural" v="water" />
		<tag k="old_name:se" v="Čuolmajavri" />
		<tag k="ssr:stedsnr" v="928276" />
		<tag k="water" v="lake" />
	</node>
	<node lat="69.6690000116" lon="24.9999997878964" id="-35619">
		<tag k="name" v="Ciikojohka" />
		<tag k="name:se" v="Ciikojohka" />
		<tag k="old_name:se" v="Ciikujåkka" />
		<tag k="ssr:stedsnr" v="928278" />
		<tag k="waterway" v="stream" />
	</node>
	<node lat="69.63952500583345" lon="24.78042481118217" id="-35620">
		<tag k="name" v="Stuorraluoppal" />
		<tag k="name:se" v="Stuorraluoppal" />
		<tag k="natural" v="water" />
		<tag k="old_name:se" v="Stuorraluobbal" />
		<tag k="ssr:stedsnr" v="928279" />
	</node>
	<node lat="69.63760000763143" lon="24.815708137659417" id="-35621">
		<tag k="name" v="Guollejávrrit" />
		<tag k="name:se" v="Guollejávrrit" />
		<tag k="natural" v="water" />
		<tag k="old_name:se" v="Guollejavrit" />
		<tag k="ssr:stedsnr" v="928280" />
	</node>
	<node lat="68.93692500827784" lon="25.276263607496332" id="-35626">
		<tag k="name" v="Davit Mánabaisuorgi" />
		<tag k="name:se" v="Davit Mánabaisuorgi" />
		<tag k="old_name:se" v="Manabajsuorgi, davit" />
		<tag k="ssr:stedsnr" v="928608" />
		<tag k="waterway" v="river" />
	</node>
	<node lat="68.88447778739621" lon="25.280216383559896" id="-35629">
		<tag k="name" v="Ceakkoguoika" />
		<tag k="name:se" v="Ceakkoguoika" />
		<tag k="old_name:se" v="Cægguguoika" />
		<tag k="ssr:stedsnr" v="928622" />
		<tag k="waterway" v="rapids" />
	</node>
	<node lat="68.920716682543" lon="25.660944099820135" id="-35630">
		<tag k="name" v="Cáskinjohnjálbmi" />
		<tag k="name:se" v="Cáskinjohnjálbmi" />
		<tag k="natural" v="bay" />
		<tag k="old_name:se" v="Caskinjåknjalbmi" />
		<tag k="ssr:stedsnr" v="928625" />
	</node>
	<node lat="68.91122501484467" lon="25.33186080460019" id="-35632">
		<tag k="name" v="Mánabaijohka" />
		<tag k="name:se" v="Mánabaijohka" />
		<tag k="old_name:se" v="Manabajjåkka" />
		<tag k="ssr:stedsnr" v="928627" />
		<tag k="waterway" v="river" />
	</node>
	<node lat="68.88460834932532" lon="25.598238565840536" id="-35633">
		<tag k="name" v="Gumppesavu" />
		<tag k="name:se" v="Gumppesavu" />
		<tag k="old_name:se" v="Gumpesavo" />
		<tag k="place" v="locality" />
		<tag k="ssr:stedsnr" v="928631" />
	</node>
	<node lat="68.89146945555188" lon="25.53541356269896" id="-35634">
		<tag k="name" v="Bartageavgŋájávrrit" />
		<tag k="name:se" v="Bartageavgŋájávrrit" />
		<tag k="natural" v="water" />
		<tag k="old_name:se" v="Bartagævgŋajavrit" />
		<tag k="ssr:stedsnr" v="928638" />
	</node>
	<node lat="69.45406667916704" lon="25.411352513497178" id="-35635">
		<tag k="name" v="Báhkiljohnjárga" />
		<tag k="name:se" v="Báhkiljohnjárga" />
		<tag k="natural" v="cape" />
		<tag k="old_name:se" v="Bakkiljåknjarga" />
		<tag k="ssr:stedsnr" v="929222" />
	</node>
	<node lat="69.44211389947236" lon="25.343533071300087" id="-35636">
		<tag k="name" v="Háldenjárga" />
		<tag k="name:se" v="Háldenjárga" />
		<tag k="natural" v="cape" />
		<tag k="old_name:se" v="Haldenjarga" />
		<tag k="ssr:stedsnr" v="929224" />
	</node>
	<node lat="69.59419444958084" lon="24.395866514280403" id="-35637">
		<tag k="name" v="Hálkajávri" />
		<tag k="name:se" v="Hálkajávri" />
		<tag k="natural" v="water" />
		<tag k="ssr:stedsnr" v="929236" />
		<tag k="water" v="lake" />
	</node>
	<node lat="69.1776416737263" lon="24.715166449421528" id="-35639">
		<tag k="name" v="Buksaluhččenguoika" />
		<tag k="name:se" v="Buksaluhččenguoika" />
		<tag k="natural" v="waterfall" />
		<tag k="old_name:se" v="Buksaluččenguoika" />
		<tag k="ssr:stedsnr" v="928926" />
	</node>
	<node lat="69.42529722685435" lon="24.860899797644432" id="-35641">
		<tag k="name" v="Beajalgŋáguoika" />
		<tag k="name:se" v="Beajalgŋáguoika" />
		<tag k="old_name:se" v="Bæjalgŋaguoika" />
		<tag k="ssr:stedsnr" v="929133" />
		<tag k="waterway" v="rapids" />
	</node>
	<node lat="69.42853056425061" lon="24.887324789527934" id="-35642">
		<tag k="name" v="Láhkaguoika" />
		<tag k="name:se" v="Láhkaguoika" />
		<tag k="old_name:se" v="Lakkaguoika" />
		<tag k="ssr:stedsnr" v="929134" />
		<tag k="waterway" v="rapids" />
	</node>
	<node lat="69.40130000500608" lon="24.56166091379938" id="-35644">
		<tag k="fixme" v="multiple name tags, choose one and add the other to alt_name" />
		<tag k="name" v="Máđiiláttu;Máht-Ásllatjávri" />
		<tag k="name:se" v="Máđiiláttu;Máht-Ásllatjávri" />
		<tag k="natural" v="water" />
		<tag k="old_name:se" v="Mattaslatjavri" />
		<tag k="ssr:stedsnr" v="929266" />
	</node>
	<node lat="69.30703611994035" lon="24.900427556978055" id="-35646">
		<tag k="name" v="Vuolit Noaidatjávri" />
		<tag k="name:se" v="Vuolit Noaidatjávri" />
		<tag k="natural" v="water" />
		<tag k="old_name:se" v="Noaidatjavri, vuolit" />
		<tag k="ssr:stedsnr" v="929155" />
	</node>
	<node lat="69.00769445601823" lon="24.994552543678548" id="-35647">
		<tag k="name" v="Muoidunjohka" />
		<tag k="name:se" v="Muoidunjohka" />
		<tag k="old_name:se" v="Muoidonjåkka" />
		<tag k="ssr:stedsnr" v="929168" />
		<tag k="waterway" v="stream" />
	</node>
	<node lat="69.63100278648868" lon="24.50353593838957" id="-35650">
		<tag k="name" v="Čearrogiellasjohka" />
		<tag k="name:se" v="Čearrogiellasjohka" />
		<tag k="old_name:se" v="Čærrugiellasjåkka" />
		<tag k="ssr:stedsnr" v="929248" />
		<tag k="waterway" v="river" />
	</node>
	<node lat="69.53661945349167" lon="25.578038599121783" id="-35651">
		<tag k="name" v="Sávkadasjávri" />
		<tag k="name:se" v="Sávkadasjávri" />
		<tag k="natural" v="water" />
		<tag k="old_name:se" v="Savkadasjavri" />
		<tag k="ssr:stedsnr" v="929436" />
		<tag k="water" v="lake" />
	</node>
	<node lat="69.36733611479832" lon="24.52974147516431" id="-35653">
		<tag k="name" v="Hánssánjavvi" />
		<tag k="name:se" v="Hánssánjavvi" />
		<tag k="old_name:se" v="Hansanjavvi" />
		<tag k="ssr:stedsnr" v="929285" />
		<tag k="waterway" v="rapids" />
	</node>
	<node lat="69.37403056258309" lon="24.509735933934497" id="-35655">
		<tag k="name" v="Uhca Gohás" />
		<tag k="name:se" v="Uhca Gohás" />
		<tag k="natural" v="waterfall" />
		<tag k="old_name:se" v="Gåhas, ucca" />
		<tag k="ssr:stedsnr" v="929296" />
	</node>
	<node lat="69.6903416793029" lon="25.233891418817077" id="-35656">
		<tag k="name" v="Guhkesláttu" />
		<tag k="name:se" v="Guhkesláttu" />
		<tag k="natural" v="water" />
		<tag k="old_name:se" v="Gukkesladdo" />
		<tag k="ssr:stedsnr" v="929363" />
	</node>
	<node lat="69.69993612203534" lon="25.59398306220752" id="-35657">
		<tag k="name" v="Nigáčomajávrrit" />
		<tag k="name:se" v="Nigáčomajávrrit" />
		<tag k="natural" v="water" />
		<tag k="old_name:se" v="Nigačåmajavrit" />
		<tag k="ssr:stedsnr" v="929365" />
		<tag k="water" v="lake" />
	</node>
	<node lat="69.20891111863351" lon="25.316044178328802" id="-35662">
		<tag k="name" v="Nuorttat Mássuorbmi" />
		<tag k="name:se" v="Nuorttat Mássuorbmi" />
		<tag k="old_name:se" v="Massuorbmi, nuortat" />
		<tag k="ssr:stedsnr" v="929815" />
		<tag k="waterway" v="stream" />
	</node>
	<node lat="69.21363334224593" lon="25.709308002416144" id="-35663">
		<tag k="fixme" v="multiple name tags, choose one and add the other to alt_name" />
		<tag k="name" v="Jaldi;Jaldenjavvi" />
		<tag k="name:se" v="Jaldi;Jaldenjavvi" />
		<tag k="old_name:se" v="Jal'di" />
		<tag k="place" v="locality" />
		<tag k="ssr:stedsnr" v="929816" />
	</node>
	<node lat="69.22821667669703" lon="24.796949796294697" id="-35670">
		<tag k="name" v="Dápmotjohka" />
		<tag k="name:se" v="Dápmotjohka" />
		<tag k="old_name:se" v="Dabmutjåkka" />
		<tag k="ssr:stedsnr" v="929881" />
		<tag k="waterway" v="stream" />
	</node>
	<node lat="69.18752223276257" lon="24.794458111681344" id="-35672">
		<tag k="name" v="Rássája" />
		<tag k="name:se" v="Rássája" />
		<tag k="old_name:se" v="Rassaja" />
		<tag k="ssr:stedsnr" v="929938" />
		<tag k="waterway" v="stream" />
	</node>
	<node lat="69.76781389565973" lon="25.760130255758362" id="-35673">
		<tag k="name" v="Gáškkojohka" />
		<tag k="name:se" v="Gáškkojohka" />
		<tag k="old_name:se" v="Gaškujåkka" />
		<tag k="ssr:stedsnr" v="929992" />
		<tag k="waterway" v="stream" />
	</node>
	<node lat="69.31620556324924" lon="25.71855523062939" id="-35674">
		<tag k="name" v="Vuolit Ruovttotjohka" />
		<tag k="name:se" v="Vuolit Ruovttotjohka" />
		<tag k="old_name:se" v="Ruovtutjåkka, vuolit" />
		<tag k="ssr:stedsnr" v="868003" />
		<tag k="waterway" v="stream" />
	</node>
	<node lat="69.37365000940537" lon="25.322802513570878" id="-35675">
		<tag k="name" v="Báhkiljávri" />
		<tag k="name:se" v="Báhkiljávri" />
		<tag k="natural" v="water" />
		<tag k="ssr:stedsnr" v="868017" />
		<tag k="water" v="lake" />
	</node>
	<node lat="69.48083889493479" lon="25.302685855122284" id="-35677">
		<tag k="name" v="Doaresjávri" />
		<tag k="name:se" v="Doaresjávri" />
		<tag k="natural" v="water" />
		<tag k="old_name:se" v="Doaresjavri" />
		<tag k="ssr:stedsnr" v="868174" />
	</node>
	<node lat="69.37475000994678" lon="24.373069275702733" id="-35679">
		<tag k="name" v="Bahásguoika" />
		<tag k="name:se" v="Bahásguoika" />
		<tag k="natural" v="waterfall" />
		<tag k="ssr:stedsnr" v="868306" />
	</node>
	<node lat="69.34506389367984" lon="24.612527586187994" id="-35680">
		<tag k="name" v="Ávjovárjávri" />
		<tag k="name:se" v="Ávjovárjávri" />
		<tag k="natural" v="water" />
		<tag k="old_name:se" v="Avjuvarjavri" />
		<tag k="ssr:stedsnr" v="868319" />
	</node>
	<node lat="69.47415000815484" lon="25.13387476470157" id="-35681">
		<tag k="alt_name:se" v="Sevdnjesjávri" />
		<tag k="name" v="Sevdnjesluhpojávri" />
		<tag k="name:se" v="Sevdnjesluhpojávri" />
		<tag k="natural" v="water" />
		<tag k="old_name:se" v="Sevdnjesluppujavri" />
		<tag k="ssr:stedsnr" v="868327" />
	</node>
	<node lat="69.55447501248435" lon="25.205377526938424" id="-35682">
		<tag k="name" v="Vuoskkovárláttu" />
		<tag k="name:se" v="Vuoskkovárláttu" />
		<tag k="natural" v="water" />
		<tag k="old_name:se" v="Vuoskuvarladdo" />
		<tag k="ssr:stedsnr" v="868328" />
	</node>
	<node lat="69.44422223009823" lon="25.436974709996576" id="-35683">
		<tag k="name" v="Dáktejohka" />
		<tag k="name:se" v="Dáktejohka" />
		<tag k="ssr:stedsnr" v="868203" />
		<tag k="waterway" v="river" />
	</node>
	<node lat="69.45537778099512" lon="24.288974845941482" id="-35684">
		<tag k="name" v="Ájotluobbalguoika" />
		<tag k="name:se" v="Ájotluobbalguoika" />
		<tag k="natural" v="waterfall" />
		<tag k="old_name:se" v="Ajutluobbalguoika" />
		<tag k="ssr:stedsnr" v="868274" />
	</node>
	<node lat="69.48133334127647" lon="24.600480377814893" id="-35685">
		<tag k="name" v="Guškkešjávrrit" />
		<tag k="name:se" v="Guškkešjávrrit" />
		<tag k="natural" v="water" />
		<tag k="old_name:se" v="Guškešjavrit" />
		<tag k="ssr:stedsnr" v="868278" />
		<tag k="water" v="lake" />
	</node>
	<node lat="69.56663056536873" lon="24.42554982421332" id="-35686">
		<tag k="name" v="Buolžajávri" />
		<tag k="name:se" v="Buolžajávri" />
		<tag k="natural" v="water" />
		<tag k="old_name:se" v="Buolžajavri" />
		<tag k="ssr:stedsnr" v="868281" />
	</node>
	<node lat="69.7466861126993" lon="24.49330816446503" id="-35687">
		<tag k="name" v="Juovssajávrrit" />
		<tag k="name:se" v="Juovssajávrrit" />
		<tag k="natural" v="water" />
		<tag k="ssr:stedsnr" v="868503" />
		<tag k="water" v="lake" />
	</node>
	<node lat="69.10899167866681" lon="25.683544110560238" id="-35688">
		<tag k="name" v="Ruvvašjohka" />
		<tag k="name:se" v="Ruvvašjohka" />
		<tag k="old_name:se" v="Ruvvašjåkka" />
		<tag k="ssr:stedsnr" v="868812" />
		<tag k="waterway" v="stream" />
	</node>
	<node lat="69.17489167173427" lon="24.83679143905329" id="-35689">
		<tag k="name" v="Geassájohka" />
		<tag k="name:se" v="Geassájohka" />
		<tag k="old_name:se" v="Gæssajåkka" />
		<tag k="ssr:stedsnr" v="868903" />
		<tag k="waterway" v="stream" />
	</node>
	<node lat="69.37126389404561" lon="24.4589970335316" id="-35694">
		<tag k="name" v="Fierbmesaigoatnil" />
		<tag k="name:se" v="Fierbmesaigoatnil" />
		<tag k="natural" v="water" />
		<tag k="ssr:stedsnr" v="878308" />
		<tag k="water" v="lake" />
	</node>
	<node lat="69.37377222592069" lon="24.50402759521971" id="-35695">
		<tag k="name" v="Gohásvuolli" />
		<tag k="name:se" v="Gohásvuolli" />
		<tag k="place" v="locality" />
		<tag k="ssr:stedsnr" v="878311" />
	</node>
	<node lat="69.41300000714492" lon="25.45653860364802" id="-35698">
		<tag k="name" v="Jovn-Niillas-Ellejogaš" />
		<tag k="name:se" v="Jovn-Niillas-Ellejogaš" />
		<tag k="ssr:stedsnr" v="878503" />
		<tag k="waterway" v="stream" />
	</node>
	<node lat="69.40509167808773" lon="24.63969702572488" id="-35699">
		<tag k="name" v="Stuorafielbma" />
		<tag k="name:se" v="Stuorafielbma" />
		<tag k="natural" v="water" />
		<tag k="ssr:stedsnr" v="878510" />
		<tag k="water" v="lake" />
	</node>
	<node lat="69.45043334565729" lon="25.435021952147984" id="-35701">
		<tag k="loc_name:se" v="Máddjitmohkki" />
		<tag k="name" v="Mádjetmohkki" />
		<tag k="name:se" v="Mádjetmohkki" />
		<tag k="natural" v="bay" />
		<tag k="ssr:stedsnr" v="878518" />
	</node>
	<node lat="69.45602500590992" lon="25.255602530866643" id="-35707">
		<tag k="name" v="Bálojávri" />
		<tag k="name:se" v="Bálojávri" />
		<tag k="natural" v="water" />
		<tag k="ssr:stedsnr" v="878610" />
	</node>
	<node lat="69.44785341118023" lon="25.82475959002832" id="-35708">
		<tag k="name" v="Joganjálmmesavu" />
		<tag k="name:se" v="Joganjálmmesavu" />
		<tag k="natural" v="water" />
		<tag k="ssr:stedsnr" v="878617" />
		<tag k="water" v="lake" />
	</node>
	<node lat="69.43246112142677" lon="25.798969117378036" id="-35709">
		<tag k="name" v="Juntteláttu" />
		<tag k="name:se" v="Juntteláttu" />
		<tag k="natural" v="water" />
		<tag k="ssr:stedsnr" v="878619" />
	</node>
	<node lat="69.43160556675171" lon="25.163558089024573" id="-35712">
		<tag k="name" v="Mándirnjársavu" />
		<tag k="name:se" v="Mándirnjársavu" />
		<tag k="natural" v="water" />
		<tag k="ssr:stedsnr" v="878656" />
		<tag k="water" v="lake" />
	</node>
	<node lat="69.35381945554462" lon="25.153499759420807" id="-35713">
		<tag k="name" v="Námmájohnjálbmi" />
		<tag k="name:se" v="Námmájohnjálbmi" />
		<tag k="natural" v="bay" />
		<tag k="ssr:stedsnr" v="878760" />
	</node>
	<node lat="69.36870556895441" lon="25.816846894058344" id="-35714">
		<tag k="name" v="Hehkkenjavvi" />
		<tag k="name:se" v="Hehkkenjavvi" />
		<tag k="ssr:stedsnr" v="878955" />
		<tag k="waterway" v="rapids" />
	</node>
	<node lat="69.7228222304637" lon="26.018469099119354" id="-35717">
		<tag k="name" v="Sohpparjohnjálbmi" />
		<tag k="name:se" v="Sohpparjohnjálbmi" />
		<tag k="natural" v="bay" />
		<tag k="ssr:stedsnr" v="879557" />
	</node>
	<node lat="69.45938334764898" lon="25.464708049434915" id="-35718">
		<tag k="name" v="Rávdojohmohkki" />
		<tag k="name:se" v="Rávdojohmohkki" />
		<tag k="natural" v="bay" />
		<tag k="ssr:stedsnr" v="934321" />
	</node>
	<node lat="69.54737500623877" lon="25.004202558062833" id="-35725">
		<tag k="name" v="Ruoššajávri" />
		<tag k="name:se" v="Ruoššajávri" />
		<tag k="natural" v="water" />
		<tag k="old_name:se" v="Ruoššajavri" />
		<tag k="ssr:stedsnr" v="928311" />
		<tag k="water" v="lake" />
	</node>
	<node lat="69.46281389942507" lon="25.164310879983763" id="-35727">
		<tag k="alt_name:se" v="Sevdnjesjogaš" />
		<tag k="name" v="Sevdnjesluhpojogaš" />
		<tag k="name:se" v="Sevdnjesluhpojogaš" />
		<tag k="old_name:se" v="Sevdnesluppujågaš" />
		<tag k="ssr:stedsnr" v="928316" />
		<tag k="waterway" v="stream" />
	</node>
	<node lat="69.53647778483514" lon="24.947799787274093" id="-35728">
		<tag k="name" v="Hávdejávri" />
		<tag k="name:se" v="Hávdejávri" />
		<tag k="natural" v="water" />
		<tag k="old_name:se" v="Havdejavri" />
		<tag k="ssr:stedsnr" v="928320" />
	</node>
	<node lat="69.48562778088927" lon="24.499116491260917" id="-35729">
		<tag k="name" v="Roancejávrrit" />
		<tag k="name:se" v="Roancejávrrit" />
		<tag k="natural" v="water" />
		<tag k="old_name:se" v="Roancejavrit" />
		<tag k="ssr:stedsnr" v="928259" />
		<tag k="water" v="lake" />
	</node>
	<node lat="69.73378333761453" lon="25.012899790715004" id="-35730">
		<tag k="name" v="Stiippanjohka" />
		<tag k="name:se" v="Stiippanjohka" />
		<tag k="old_name:se" v="Stiipanjåkka" />
		<tag k="ssr:stedsnr" v="928261" />
		<tag k="waterway" v="river" />
	</node>
	<node lat="69.7312916748665" lon="24.30282485321218" id="-35731">
		<tag k="name" v="Gásadatjávri" />
		<tag k="name:se" v="Gásadatjávri" />
		<tag k="natural" v="water" />
		<tag k="old_name:se" v="Gasadatjavri" />
		<tag k="ssr:stedsnr" v="928460" />
		<tag k="water" v="lake" />
	</node>
	<node lat="69.2431304384828" lon="25.707346665565396" id="-35737">
		<tag k="name" v="Bálggatnjavvi" />
		<tag k="name:se" v="Bálggatnjavvi" />
		<tag k="old_name:se" v="Balgatnjavvi" />
		<tag k="ssr:stedsnr" v="928801" />
		<tag k="waterway" v="rapids" />
	</node>
	<node lat="69.28442223688297" lon="25.25804139751047" id="-35738">
		<tag k="name" v="Bierssá-ája" />
		<tag k="name:se" v="Bierssá-ája" />
		<tag k="old_name:se" v="Biersa-aja" />
		<tag k="ssr:stedsnr" v="929049" />
		<tag k="waterway" v="river" />
	</node>
	<node lat="69.46922222939394" lon="25.33254973934192" id="-35739">
		<tag k="fixme" v="multiple name tags, choose one and add the other to alt_name" />
		<tag k="name" v="Háldejávri;Háldevađaláttu" />
		<tag k="name:se" v="Háldejávri;Háldevađaláttu" />
		<tag k="natural" v="water" />
		<tag k="old_name:se" v="Haldevađaladdo" />
		<tag k="ssr:stedsnr" v="929210" />
	</node>
	<node lat="69.2597000128379" lon="24.813099780172788" id="-35741">
		<tag k="name" v="Gárjiljávri" />
		<tag k="name:se" v="Gárjiljávri" />
		<tag k="old_name:se" v="Garjiljavri" />
		<tag k="place" v="locality" />
		<tag k="ssr:stedsnr" v="929199" />
	</node>
	<node lat="69.59241667819097" lon="25.441027500412375" id="-35742">
		<tag k="name" v="Duolbajohka" />
		<tag k="name:se" v="Duolbajohka" />
		<tag k="old_name:se" v="Duolbajåkka" />
		<tag k="ssr:stedsnr" v="929399" />
		<tag k="waterway" v="stream" />
	</node>
	<node lat="69.64029722885866" lon="25.679577483089922" id="-35743">
		<tag k="name" v="Ádjatjohka" />
		<tag k="name:se" v="Ádjatjohka" />
		<tag k="old_name:se" v="Addjatjåkka" />
		<tag k="ssr:stedsnr" v="929409" />
		<tag k="waterway" v="river" />
	</node>
	<node lat="69.76716667005383" lon="24.316030413935508" id="-35744">
		<tag k="name" v="Gásadatjohka" />
		<tag k="name:se" v="Gásadatjohka" />
		<tag k="old_name:se" v="Gasadatjåkka" />
		<tag k="ssr:stedsnr" v="929705" />
		<tag k="waterway" v="river" />
	</node>
	<node lat="69.77459166902176" lon="24.33289983739477" id="-35745">
		<tag k="name" v="Giellanjohka" />
		<tag k="name:se" v="Giellanjohka" />
		<tag k="old_name:se" v="Geillanjåkka" />
		<tag k="ssr:stedsnr" v="929709" />
		<tag k="waterway" v="river" />
	</node>
	<node lat="69.22759445926948" lon="25.68429967109174" id="-35746">
		<tag k="name" v="Mohkkaras" />
		<tag k="name:se" v="Mohkkaras" />
		<tag k="old_name:se" v="Måkkaras" />
		<tag k="ssr:stedsnr" v="929811" />
		<tag k="waterway" v="stream" />
	</node>
	<node lat="69.08747779150612" lon="25.690513554989586" id="-35748">
		<tag k="name" v="Julkajohka" />
		<tag k="name:se" v="Julkajohka" />
		<tag k="old_name:se" v="Julkajåkka" />
		<tag k="ssr:stedsnr" v="929852" />
		<tag k="waterway" v="stream" />
	</node>
	<node lat="69.8268861228684" lon="25.668844161657237" id="-35751">
		<tag k="name" v="Ástejávrrit" />
		<tag k="name:se" v="Ástejávrrit" />
		<tag k="natural" v="water" />
		<tag k="old_name:se" v="Astejavrit" />
		<tag k="ssr:stedsnr" v="930898" />
		<tag k="water" v="lake" />
	</node>
	<node lat="69.47491389818539" lon="25.518391390645903" id="-35761">
		<tag k="name" v="Stáloláttu" />
		<tag k="name:se" v="Stáloláttu" />
		<tag k="natural" v="water" />
		<tag k="ssr:stedsnr" v="939203" />
	</node>
	<node lat="69.37245555854375" lon="24.46904148005693" id="-35764">
		<tag k="name" v="Gohásguorvil" />
		<tag k="name:se" v="Gohásguorvil" />
		<tag k="ssr:stedsnr" v="939286" />
		<tag k="waterway" v="rapids" />
	</node>
	<node lat="69.42845834480026" lon="25.513233051640093" id="-35767">
		<tag k="name" v="Biehtárjogaš" />
		<tag k="name:se" v="Biehtárjogaš" />
		<tag k="ssr:stedsnr" v="939489" />
		<tag k="waterway" v="stream" />
	</node>
	<node lat="69.45440834652508" lon="25.425169175074156" id="-35769">
		<tag k="name" v="Márggehašgárggu" />
		<tag k="name:se" v="Márggehašgárggu" />
		<tag k="natural" v="beach" />
		<tag k="ssr:stedsnr" v="939544" />
	</node>
	<node lat="69.44212778968738" lon="25.22485807798276" id="-35771">
		<tag k="name" v="Niitu" />
		<tag k="name:se" v="Niitu" />
		<tag k="natural" v="cape" />
		<tag k="ssr:stedsnr" v="939598" />
	</node>
	<node lat="69.33955834441211" lon="25.12707475248928" id="-35772">
		<tag k="name" v="Sohkkarsavu" />
		<tag k="name:se" v="Sohkkarsavu" />
		<tag k="natural" v="water" />
		<tag k="ssr:stedsnr" v="939709" />
		<tag k="water" v="lake" />
	</node>
	<node lat="69.37285278318521" lon="24.335880382237022" id="-35775">
		<tag k="name" v="Čohttávuolenjárga" />
		<tag k="name:se" v="Čohttávuolenjárga" />
		<tag k="natural" v="cape" />
		<tag k="ssr:stedsnr" v="939741" />
	</node>
	<node lat="69.37661667297894" lon="25.380549731338064" id="-35804">
		<tag k="name" v="Ell-áhkojohka" />
		<tag k="name:se" v="Ell-áhkojohka" />
		<tag k="old_name:se" v="Ellakkujåkka" />
		<tag k="ssr:stedsnr" v="18019" />
		<tag k="waterway" v="river" />
	</node>
	<node lat="68.89935278748403" lon="25.631074662289315" id="-35805">
		<tag k="name" v="Ráktoguoikkasavu" />
		<tag k="name:se" v="Ráktoguoikkasavu" />
		<tag k="old_name:se" v="Raktuguoikasavo" />
		<tag k="place" v="locality" />
		<tag k="ssr:stedsnr" v="17695" />
	</node>
	<node lat="68.92291390253192" lon="25.25070528093318" id="-35806">
		<tag k="name" v="Oarjjit Mánabaisuorgi" />
		<tag k="name:se" v="Oarjjit Mánabaisuorgi" />
		<tag k="old_name:se" v="Manabajsuorgi, oarjit" />
		<tag k="ssr:stedsnr" v="17698" />
		<tag k="waterway" v="river" />
	</node>
	<node lat="69.39723611761296" lon="24.639558150024694" id="-35807">
		<tag k="name" v="Jergolnjavvi" />
		<tag k="name:se" v="Jergolnjavvi" />
		<tag k="old_name:se" v="Jergulnjavvi" />
		<tag k="ssr:stedsnr" v="18129" />
		<tag k="waterway" v="rapids" />
	</node>
	<node lat="69.39365556702109" lon="25.083005327947347" id="-35808">
		<tag k="name" v="Gumppejohka" />
		<tag k="name:se" v="Gumppejohka" />
		<tag k="old_name:se" v="Gumpejåkka" />
		<tag k="ssr:stedsnr" v="18137" />
		<tag k="waterway" v="river" />
	</node>
	<node lat="69.31671111993154" lon="24.811888667818675" id="-35809">
		<tag k="name" v="Heastajogaš" />
		<tag k="name:se" v="Heastajogaš" />
		<tag k="old_name:se" v="Hæstajågaš" />
		<tag k="ssr:stedsnr" v="18159" />
		<tag k="waterway" v="stream" />
	</node>
	<node lat="69.31592222996701" lon="25.042755324180835" id="-35810">
		<tag k="name" v="Šuolggaskáiddeláttu" />
		<tag k="name:se" v="Šuolggaskáiddeláttu" />
		<tag k="natural" v="water" />
		<tag k="old_name:se" v="Šuolgaskaideladdo" />
		<tag k="ssr:stedsnr" v="18161" />
	</node>
	<node lat="69.36952501116711" lon="24.83622478846534" id="-35811">
		<tag k="name" v="Roancejávri" />
		<tag k="name:se" v="Roancejávri" />
		<tag k="natural" v="water" />
		<tag k="old_name:se" v="Roancejavri" />
		<tag k="ssr:stedsnr" v="18165" />
		<tag k="water" v="lake" />
	</node>
	<node lat="69.36665000526727" lon="25.02233309522164" id="-35812">
		<tag k="name" v="Doigesláttu" />
		<tag k="name:se" v="Doigesláttu" />
		<tag k="natural" v="water" />
		<tag k="old_name:se" v="Dåigesladdo" />
		<tag k="ssr:stedsnr" v="18166" />
	</node>
	<node lat="69.34585556109782" lon="24.913749786032618" id="-35813">
		<tag k="name" v="Bearttošjávri" />
		<tag k="name:se" v="Bearttošjávri" />
		<tag k="natural" v="water" />
		<tag k="old_name:se" v="Bærtušjavri" />
		<tag k="ssr:stedsnr" v="18168" />
	</node>
	<node lat="69.32915000704362" lon="25.092274755076964" id="-35814">
		<tag k="name" v="Šuolggajohka" />
		<tag k="name:se" v="Šuolggajohka" />
		<tag k="ssr:stedsnr" v="18181" />
		<tag k="waterway" v="river" />
	</node>
	<node lat="69.7403944460156" lon="24.657824825789266" id="-35816">
		<tag k="name" v="Guhkesjávri" />
		<tag k="name:se" v="Guhkesjávri" />
		<tag k="natural" v="water" />
		<tag k="old_name:se" v="Gukkesjavri" />
		<tag k="ssr:stedsnr" v="18255" />
		<tag k="water" v="lake" />
	</node>
	<node lat="69.72620000455711" lon="25.153274764676087" id="-35817">
		<tag k="name" v="Buollánjávri" />
		<tag k="name:se" v="Buollánjávri" />
		<tag k="natural" v="water" />
		<tag k="old_name:se" v="Buollanjavri" />
		<tag k="ssr:stedsnr" v="18263" />
		<tag k="water" v="lake" />
	</node>
	<node lat="69.62972500536961" lon="24.71713313273315" id="-35818">
		<tag k="name" v="Doggejohnjálbmi" />
		<tag k="name:se" v="Doggejohnjálbmi" />
		<tag k="natural" v="bay" />
		<tag k="old_name:se" v="Dåggejåknjalbmi" />
		<tag k="ssr:stedsnr" v="18287" />
	</node>
	<node lat="69.53723056083162" lon="24.87112756346501" id="-35819">
		<tag k="name" v="Ráidejohka" />
		<tag k="name:se" v="Ráidejohka" />
		<tag k="old_name:se" v="Raidejåkka" />
		<tag k="ssr:stedsnr" v="18305" />
		<tag k="waterway" v="river" />
	</node>
	<node lat="69.46613333954218" lon="24.8648497775425" id="-35822">
		<tag k="name" v="Cohppásjávri" />
		<tag k="name:se" v="Cohppásjávri" />
		<tag k="natural" v="water" />
		<tag k="old_name:se" v="Cåppasjavri;Cohppasjávri" />
		<tag k="ssr:stedsnr" v="18315" />
		<tag k="water" v="lake" />
	</node>
	<node lat="69.66578612287022" lon="25.4400469498446" id="-35825">
		<tag k="name" v="Hárrejohka" />
		<tag k="name:se" v="Hárrejohka" />
		<tag k="old_name:se" v="Harrejåkka" />
		<tag k="ssr:stedsnr" v="18331" />
		<tag k="waterway" v="stream" />
	</node>
	<node lat="69.68617779270372" lon="25.790977458815124" id="-35827">
		<tag k="alt_name:se" v="Bastejohka" />
		<tag k="name" v="Báštejohka" />
		<tag k="name:se" v="Báštejohka" />
		<tag k="old_name:se" v="Baštejåkka" />
		<tag k="ssr:stedsnr" v="18338" />
		<tag k="waterway" v="stream" />
	</node>
	<node lat="69.71212500443383" lon="24.99247479526714" id="-35828">
		<tag k="name" v="Silesjohka" />
		<tag k="name:se" v="Silesjohka" />
		<tag k="old_name:se" v="Silesjåkka" />
		<tag k="ssr:stedsnr" v="18292" />
		<tag k="waterway" v="stream" />
	</node>
	<node lat="69.59825278582701" lon="25.33344972969995" id="-35830">
		<tag k="name" v="Girkojávri" />
		<tag k="name:se" v="Girkojávri" />
		<tag k="natural" v="water" />
		<tag k="old_name:se" v="Girkujavri" />
		<tag k="ssr:stedsnr" v="18373" />
	</node>
	<node lat="69.60235556730235" lon="25.3593108473365" id="-35831">
		<tag k="name" v="Gieddeluoppal" />
		<tag k="name:se" v="Gieddeluoppal" />
		<tag k="natural" v="water" />
		<tag k="old_name:se" v="Gieddeluobbal" />
		<tag k="ssr:stedsnr" v="18379" />
	</node>
	<node lat="69.53586112081702" lon="25.442658069500506" id="-35832">
		<tag k="name" v="Rávdoluoppal" />
		<tag k="name:se" v="Rávdoluoppal" />
		<tag k="natural" v="water" />
		<tag k="old_name:se" v="Ravduluobbal" />
		<tag k="ssr:stedsnr" v="18423" />
	</node>
	<node lat="69.15875001287777" lon="25.719010760169475" id="-35836">
		<tag k="name" v="Heikkesuolu" />
		<tag k="name:se" v="Heikkesuolu" />
		<tag k="old_name:se" v="Heikesuolo" />
		<tag k="place" v="islet" />
		<tag k="ssr:stedsnr" v="18829" />
	</node>
	<node lat="69.11041667696274" lon="24.80362477605141" id="-35838">
		<tag k="name" v="Uhca Sáđgejohka" />
		<tag k="name:se" v="Uhca Sáđgejohka" />
		<tag k="old_name:se" v="Sađgejåkka, ucca" />
		<tag k="ssr:stedsnr" v="18883" />
		<tag k="waterway" v="stream" />
	</node>
	<node lat="69.13851667261486" lon="24.779066435948945" id="-35840">
		<tag k="name" v="Čuovžajávrrádat" />
		<tag k="name:se" v="Čuovžajávrrádat" />
		<tag k="natural" v="water" />
		<tag k="old_name:se" v="Čuovžajavradat" />
		<tag k="ssr:stedsnr" v="18890" />
	</node>
	<node lat="69.16698056465604" lon="24.67491923976557" id="-35842">
		<tag k="name" v="Ráigebákgorži" />
		<tag k="name:se" v="Ráigebákgorži" />
		<tag k="natural" v="waterfall" />
		<tag k="old_name:se" v="Raigebakgårži" />
		<tag k="ssr:stedsnr" v="18904" />
	</node>
	<node lat="69.21544167422606" lon="24.539388686680883" id="-35843">
		<tag k="name" v="Suolojávri" />
		<tag k="name:se" v="Suolojávri" />
		<tag k="natural" v="water" />
		<tag k="old_name:se" v="Suolujavri" />
		<tag k="ssr:stedsnr" v="18981" />
	</node>
	<node lat="69.47701945769772" lon="25.350835854017337" id="-35845">
		<tag k="name" v="Nagirjávri" />
		<tag k="name:se" v="Nagirjávri" />
		<tag k="natural" v="water" />
		<tag k="old_name:se" v="Nagirjavri" />
		<tag k="ssr:stedsnr" v="19191" />
		<tag k="water" v="lake" />
	</node>
	<node lat="69.42621945662309" lon="24.877208120305912" id="-35846">
		<tag k="name" v="Fasttimohkki" />
		<tag k="name:se" v="Fasttimohkki" />
		<tag k="natural" v="bay" />
		<tag k="old_name:se" v="Fastimåkki" />
		<tag k="ssr:stedsnr" v="19132" />
	</node>
	<node lat="69.42806112115191" lon="24.95375256241193" id="-35847">
		<tag k="name" v="Veahkkava" />
		<tag k="name:se" v="Veahkkava" />
		<tag k="old_name:se" v="Vækkava" />
		<tag k="ssr:stedsnr" v="19138" />
		<tag k="waterway" v="rapids" />
	</node>
	<node lat="69.3711388980336" lon="24.305363722024442" id="-35850">
		<tag k="name" v="Čohttámuotki" />
		<tag k="name:se" v="Čohttámuotki" />
		<tag k="old_name:se" v="Čåttamuotki" />
		<tag k="place" v="locality" />
		<tag k="ssr:stedsnr" v="19316" />
	</node>
	<node lat="69.29341667144058" lon="24.447833155513496" id="-35851">
		<tag k="name" v="Cuoppojohka" />
		<tag k="name:se" v="Cuoppojohka" />
		<tag k="ssr:stedsnr" v="19323" />
		<tag k="waterway" v="stream" />
	</node>
	<node lat="69.43440556571667" lon="24.806763689595464" id="-35853">
		<tag k="name" v="Liidnebeahcanskáidi" />
		<tag k="name:se" v="Liidnebeahcanskáidi" />
		<tag k="natural" v="cape" />
		<tag k="old_name:se" v="Liidnebæccanskaidi" />
		<tag k="ssr:stedsnr" v="19364" />
	</node>
	<node lat="69.00532779242015" lon="25.75892742463004" id="-35854">
		<tag k="name" v="Máhtošjávri" />
		<tag k="name:se" v="Máhtošjávri" />
		<tag k="natural" v="water" />
		<tag k="old_name:se" v="Mattušjavri;Máhtosjávri" />
		<tag k="ssr:stedsnr" v="19778" />
		<tag k="water" v="lake" />
	</node>
	<node lat="69.19230556380353" lon="24.749016447384925" id="-35858">
		<tag k="name" v="Hánasbierluoppal" />
		<tag k="name:se" v="Hánasbierluoppal" />
		<tag k="old_name:se" v="Hanasbierluobbal" />
		<tag k="place" v="locality" />
		<tag k="ssr:stedsnr" v="19923" />
	</node>
	<node lat="69.54688889645867" lon="24.403091495998325" id="-35859">
		<tag k="name" v="Mollešjohnjálbmi" />
		<tag k="name:se" v="Mollešjohnjálbmi" />
		<tag k="natural" v="bay" />
		<tag k="ssr:stedsnr" v="24395" />
	</node>
	<node lat="69.4806805645043" lon="25.446599709477557" id="-35860">
		<tag k="name" v="Bajitgorži" />
		<tag k="name:se" v="Bajitgorži" />
		<tag k="ssr:stedsnr" v="25145" />
		<tag k="waterway" v="rapids" />
	</node>
	<node lat="69.46258612465901" lon="25.44457193949189" id="-35861">
		<tag k="name" v="Vuolitgorži" />
		<tag k="name:se" v="Vuolitgorži" />
		<tag k="ssr:stedsnr" v="25167" />
		<tag k="waterway" v="rapids" />
	</node>
	<node lat="69.42154167358957" lon="25.177877522416725" id="-35862">
		<tag k="name" v="Miennáláttu" />
		<tag k="name:se" v="Miennáláttu" />
		<tag k="natural" v="water" />
		<tag k="ssr:stedsnr" v="28624" />
	</node>
	<node lat="69.42506667279845" lon="25.197549748001176" id="-35863">
		<tag k="name" v="Geatkejogaš" />
		<tag k="name:se" v="Geatkejogaš" />
		<tag k="ssr:stedsnr" v="28625" />
		<tag k="waterway" v="stream" />
	</node>
	<node lat="69.42275556450316" lon="25.164616424380185" id="-35864">
		<tag k="name" v="Leammá-Lemetdappal" />
		<tag k="name:se" v="Leammá-Lemetdappal" />
		<tag k="place" v="locality" />
		<tag k="ssr:stedsnr" v="28628" />
	</node>
	<node lat="69.42813889586323" lon="25.103994215513293" id="-35865">
		<tag k="name" v="Suorresullot" />
		<tag k="name:se" v="Suorresullot" />
		<tag k="place" v="islet" />
		<tag k="ssr:stedsnr" v="28634" />
	</node>
	<node lat="69.35255834304235" lon="24.592880360512158" id="-35870">
		<tag k="name" v="Ávjovárguoikkajávri" />
		<tag k="name:se" v="Ávjovárguoikkajávri" />
		<tag k="natural" v="water" />
		<tag k="ssr:stedsnr" v="28377" />
		<tag k="water" v="lake" />
	</node>
	<node lat="69.35687500672486" lon="24.570616466427065" id="-35871">
		<tag k="name" v="Ástesullot" />
		<tag k="name:se" v="Ástesullot" />
		<tag k="place" v="islet" />
		<tag k="ssr:stedsnr" v="28384" />
	</node>
	<node lat="69.43263056332854" lon="24.743708125215214" id="-35873">
		<tag k="name" v="Doaresjogaš" />
		<tag k="name:se" v="Doaresjogaš" />
		<tag k="ssr:stedsnr" v="28483" />
		<tag k="waterway" v="stream" />
	</node>
	<node lat="69.40179167094917" lon="24.665933149049625" id="-35874">
		<tag k="name" v="Hávgavuohppi" />
		<tag k="name:se" v="Hávgavuohppi" />
		<tag k="natural" v="bay" />
		<tag k="ssr:stedsnr" v="28444" />
	</node>
	<node lat="69.39889167293558" lon="24.650180373945766" id="-35875">
		<tag k="name" v="Guovddášsullot" />
		<tag k="name:se" v="Guovddášsullot" />
		<tag k="place" v="islet" />
		<tag k="ssr:stedsnr" v="28446" />
	</node>
	<node lat="69.3793138963581" lon="24.64414147998538" id="-35876">
		<tag k="name" v="Njearanat" />
		<tag k="name:se" v="Njearanat" />
		<tag k="ssr:stedsnr" v="28459" />
		<tag k="waterway" v="rapids" />
	</node>
	<node lat="69.39289445446444" lon="24.636455362718518" id="-35878">
		<tag k="name" v="Jalgasuolu" />
		<tag k="name:se" v="Jalgasuolu" />
		<tag k="place" v="islet" />
		<tag k="ssr:stedsnr" v="28462" />
	</node>
	<node lat="69.44770834239188" lon="25.400177494565458" id="-35880">
		<tag k="name" v="Biehtarašgárggu" />
		<tag k="name:se" v="Biehtarašgárggu" />
		<tag k="natural" v="beach" />
		<tag k="ssr:stedsnr" v="28554" />
	</node>
	<node lat="69.6689944515253" lon="25.80911912743275" id="-35881">
		<tag k="name" v="Guhkesgáddi" />
		<tag k="name:se" v="Guhkesgáddi" />
		<tag k="natural" v="beach" />
		<tag k="ssr:stedsnr" v="28562" />
	</node>
	<node lat="69.67368889997307" lon="25.813138580491938" id="-35882">
		<tag k="name" v="Njukčajávri" />
		<tag k="name:se" v="Njukčajávri" />
		<tag k="natural" v="water" />
		<tag k="ssr:stedsnr" v="28565" />
	</node>
	<node lat="69.37258889561595" lon="24.66244701397532" id="-35884">
		<tag k="name" v="Duiskajogaš" />
		<tag k="name:se" v="Duiskajogaš" />
		<tag k="ssr:stedsnr" v="28490" />
		<tag k="waterway" v="stream" />
	</node>
	<node lat="69.37288333781927" lon="24.706760920902596" id="-35886">
		<tag k="name" v="Bojobeasláttu" />
		<tag k="name:se" v="Bojobeasláttu" />
		<tag k="natural" v="water" />
		<tag k="ssr:stedsnr" v="28493" />
	</node>
	<node lat="69.25730556715446" lon="25.69825243861892" id="-35887">
		<tag k="name" v="Vealeája" />
		<tag k="name:se" v="Vealeája" />
		<tag k="ssr:stedsnr" v="28498" />
		<tag k="waterway" v="stream" />
	</node>
	<node lat="69.43448334415326" lon="25.588655254348243" id="-35891">
		<tag k="name" v="Lemet-Jovnnája" />
		<tag k="name:se" v="Lemet-Jovnnája" />
		<tag k="ssr:stedsnr" v="28849" />
		<tag k="waterway" v="stream" />
	</node>
	<node lat="69.4366250061149" lon="25.16872196538518" id="-35895">
		<tag k="name" v="Molkkoš" />
		<tag k="name:se" v="Molkkoš" />
		<tag k="place" v="locality" />
		<tag k="ssr:stedsnr" v="28646" />
	</node>
	<node lat="69.43568056067859" lon="25.17551919303212" id="-35896">
		<tag k="name" v="Guorvil" />
		<tag k="name:se" v="Guorvil" />
		<tag k="ssr:stedsnr" v="28647" />
		<tag k="waterway" v="rapids" />
	</node>
	<node lat="69.37471111711476" lon="24.377863713812133" id="-35898">
		<tag k="name" v="Bahásašnjárga" />
		<tag k="name:se" v="Bahásašnjárga" />
		<tag k="natural" v="cape" />
		<tag k="ssr:stedsnr" v="28794" />
	</node>
	<node lat="69.43487501517048" lon="25.675571919055006" id="-35900">
		<tag k="name" v="Karralája" />
		<tag k="name:se" v="Karralája" />
		<tag k="ssr:stedsnr" v="28873" />
		<tag k="waterway" v="stream" />
	</node>
	<node lat="69.7465777940879" lon="26.145816312288222" id="-35905">
		<tag k="name" v="Jávrebaisavu" />
		<tag k="name:se" v="Jávrebaisavu" />
		<tag k="natural" v="water" />
		<tag k="ssr:stedsnr" v="29595" />
		<tag k="water" v="lake" />
	</node>
	<node lat="69.43253334460006" lon="25.77783577944538" id="-35908">
		<tag k="name" v="Muotkkenjárga" />
		<tag k="name:se" v="Muotkkenjárga" />
		<tag k="natural" v="cape" />
		<tag k="old_name:se" v="Muotkenjarga" />
		<tag k="ssr:stedsnr" v="79023" />
	</node>
	<node lat="69.4225111254214" lon="25.54366636642798" id="-35909">
		<tag k="alt_name:se" v="Lápmašunjogaš" />
		<tag k="name" v="Lápmašunjohka" />
		<tag k="name:se" v="Lápmašunjohka" />
		<tag k="old_name:se" v="Labmašunjåkka" />
		<tag k="ssr:stedsnr" v="79025" />
		<tag k="waterway" v="stream" />
	</node>
	<node lat="68.92798334422058" lon="25.651602439197422" id="-35910">
		<tag k="name" v="Njukčajávri" />
		<tag k="name:se" v="Njukčajávri" />
		<tag k="natural" v="water" />
		<tag k="old_name:se" v="Njukčajavri" />
		<tag k="ssr:stedsnr" v="78660" />
		<tag k="water" v="lake" />
	</node>
	<node lat="68.91914167668826" lon="25.622188552171288" id="-35911">
		<tag k="name" v="Basegurajávri" />
		<tag k="name:se" v="Basegurajávri" />
		<tag k="natural" v="water" />
		<tag k="old_name:se" v="Basegurajavri" />
		<tag k="ssr:stedsnr" v="78663" />
	</node>
	<node lat="68.88551112042984" lon="25.286944162579907" id="-35913">
		<tag k="name" v="Botnjelásesguoika" />
		<tag k="name:se" v="Botnjelásesguoika" />
		<tag k="old_name:se" v="Bådnjelasesguoika" />
		<tag k="ssr:stedsnr" v="78680" />
		<tag k="waterway" v="rapids" />
	</node>
	<node lat="68.89421390514649" lon="25.627460775997175" id="-35914">
		<tag k="name" v="Ráigegeađgi" />
		<tag k="name:se" v="Ráigegeađgi" />
		<tag k="natural" v="waterfall" />
		<tag k="old_name:se" v="Raigegæđgi" />
		<tag k="ssr:stedsnr" v="78687" />
	</node>
	<node lat="68.93821390515943" lon="25.54825244845188" id="-35915">
		<tag k="name" v="Cáskinjohka" />
		<tag k="name:se" v="Cáskinjohka" />
		<tag k="old_name:se" v="Caskinjåkka" />
		<tag k="ssr:stedsnr" v="78632" />
		<tag k="waterway" v="river" />
	</node>
	<node lat="69.08441389898594" lon="25.102838620660272" id="-35918">
		<tag k="name" v="Rávotjohka" />
		<tag k="name:se" v="Rávotjohka" />
		<tag k="old_name:se" v="Ravutjåkka;Ravotjohka" />
		<tag k="ssr:stedsnr" v="79815" />
		<tag k="waterway" v="stream" />
	</node>
	<node lat="69.32765278236299" lon="24.85977478960521" id="-35922">
		<tag k="name" v="Vuolit Gáldojohka" />
		<tag k="name:se" v="Vuolit Gáldojohka" />
		<tag k="old_name:se" v="Galdujåkka, vuolit" />
		<tag k="ssr:stedsnr" v="79163" />
		<tag k="waterway" v="stream" />
	</node>
	<node lat="69.30956667536584" lon="24.891230326739528" id="-35923">
		<tag k="name" v="Bajit Noaidatjávri" />
		<tag k="name:se" v="Bajit Noaidatjávri" />
		<tag k="natural" v="water" />
		<tag k="old_name:se" v="Noaidatjavri, bajit" />
		<tag k="ssr:stedsnr" v="79169" />
	</node>
	<node lat="69.43007223618761" lon="25.345863616779067" id="-35925">
		<tag k="name" v="Báhkilskáidi" />
		<tag k="name:se" v="Báhkilskáidi" />
		<tag k="natural" v="cape" />
		<tag k="ssr:stedsnr" v="79213" />
	</node>
	<node lat="69.46235556495601" lon="25.564308033251038" id="-35927">
		<tag k="name" v="Riidonjárga" />
		<tag k="name:se" v="Riidonjárga" />
		<tag k="natural" v="cape" />
		<tag k="old_name:se" v="Riidunjarga" />
		<tag k="ssr:stedsnr" v="79231" />
	</node>
	<node lat="69.25988056788192" lon="25.16646086309838" id="-35928">
		<tag k="name" v="Siremáhteája" />
		<tag k="name:se" v="Siremáhteája" />
		<tag k="old_name:se" v="Sirematteaja" />
		<tag k="ssr:stedsnr" v="79188" />
		<tag k="waterway" v="stream" />
	</node>
	<node lat="69.50800000814598" lon="24.356210949540014" id="-35930">
		<tag k="name" v="Gorželáttu" />
		<tag k="name:se" v="Gorželáttu" />
		<tag k="natural" v="water" />
		<tag k="old_name:se" v="Gårželaddo" />
		<tag k="ssr:stedsnr" v="79269" />
		<tag k="water" v="lake" />
	</node>
	<node lat="69.45876112013758" lon="24.33393594384865" id="-35931">
		<tag k="name" v="Njálajávri" />
		<tag k="name:se" v="Njálajávri" />
		<tag k="natural" v="water" />
		<tag k="old_name:se" v="Njalajavri" />
		<tag k="ssr:stedsnr" v="79273" />
	</node>
	<node lat="69.72510278122711" lon="24.76028035968005" id="-35933">
		<tag k="name" v="Mievttajávri" />
		<tag k="name:se" v="Mievttajávri" />
		<tag k="natural" v="water" />
		<tag k="old_name:se" v="Mievtajavri" />
		<tag k="ssr:stedsnr" v="79282" />
		<tag k="water" v="lake" />
	</node>
	<node lat="69.45440278709096" lon="25.115174755436765" id="-35934">
		<tag k="name" v="Iešvárláttu" />
		<tag k="name:se" v="Iešvárláttu" />
		<tag k="natural" v="water" />
		<tag k="old_name:se" v="Iešvarladdo" />
		<tag k="ssr:stedsnr" v="79354" />
	</node>
	<node lat="69.58884167504416" lon="24.844599790609163" id="-35935">
		<tag k="name" v="Guollejávri" />
		<tag k="name:se" v="Guollejávri" />
		<tag k="natural" v="water" />
		<tag k="old_name:se" v="Guollejavri" />
		<tag k="ssr:stedsnr" v="79355" />
	</node>
	<node lat="69.6751888982734" lon="25.776196901738416" id="-35936">
		<tag k="alt_name:se" v="Basteskáidi" />
		<tag k="name" v="Bášteskáidi" />
		<tag k="name:se" v="Bášteskáidi" />
		<tag k="natural" v="cape" />
		<tag k="old_name:se" v="Bašteskaidi" />
		<tag k="ssr:stedsnr" v="79362" />
	</node>
	<node lat="69.67663056043573" lon="25.273616416431427" id="-35937">
		<tag k="name" v="Doaresjávri" />
		<tag k="name:se" v="Doaresjávri" />
		<tag k="natural" v="water" />
		<tag k="old_name:se" v="Doaresjavri" />
		<tag k="ssr:stedsnr" v="79363" />
	</node>
	<node lat="69.6461000089341" lon="25.19547476298257" id="-35938">
		<tag k="name" v="Suolo-Čádjejávri" />
		<tag k="name:se" v="Suolo-Čádjejávri" />
		<tag k="natural" v="water" />
		<tag k="old_name:se" v="SuoloČaddjejavri" />
		<tag k="ssr:stedsnr" v="79311" />
		<tag k="water" v="lake" />
	</node>
	<node lat="69.6725083396149" lon="24.635149820956602" id="-35942">
		<tag k="name" v="Poastajohka" />
		<tag k="name:se" v="Poastajohka" />
		<tag k="old_name:se" v="Poastajåkka" />
		<tag k="ssr:stedsnr" v="79329" />
		<tag k="waterway" v="stream" />
	</node>
	<node lat="69.54745000809167" lon="24.768274800461796" id="-35944">
		<tag k="name" v="Ráidejohjávri" />
		<tag k="name:se" v="Ráidejohjávri" />
		<tag k="natural" v="water" />
		<tag k="old_name:se" v="Raidejåkjavri" />
		<tag k="ssr:stedsnr" v="79332" />
		<tag k="water" v="lake" />
	</node>
	<node lat="69.49026667597143" lon="24.749374797728787" id="-35945">
		<tag k="name" v="Bajimus Rávdojávri" />
		<tag k="name:se" v="Bajimus Rávdojávri" />
		<tag k="natural" v="water" />
		<tag k="old_name:se" v="bajimus Ravdujavri;BajimusRávdojávri" />
		<tag k="ssr:stedsnr" v="79337" />
		<tag k="water" v="lake" />
	</node>
	<node lat="69.49795278961228" lon="25.177833093953307" id="-35947">
		<tag k="name" v="Geaimmejohka" />
		<tag k="name:se" v="Geaimmejohka" />
		<tag k="old_name:se" v="Gæimejåkka" />
		<tag k="ssr:stedsnr" v="79340" />
		<tag k="waterway" v="river" />
	</node>
	<node lat="69.63256667364026" lon="25.299424741382534" id="-35949">
		<tag k="name" v="Bearttošnjárga" />
		<tag k="name:se" v="Bearttošnjárga" />
		<tag k="natural" v="cape" />
		<tag k="old_name:se" v="Bærtušnjarga" />
		<tag k="ssr:stedsnr" v="79407" />
	</node>
	<node lat="69.52028889698066" lon="25.449671952515505" id="-35951">
		<tag k="name" v="Dievaljávri" />
		<tag k="name:se" v="Dievaljávri" />
		<tag k="natural" v="water" />
		<tag k="old_name:se" v="Dievaljavri" />
		<tag k="ssr:stedsnr" v="79424" />
	</node>
	<node lat="69.70435278681947" lon="25.24653865655464" id="-35953">
		<tag k="name" v="Sirejávri" />
		<tag k="name:se" v="Sirejávri" />
		<tag k="natural" v="water" />
		<tag k="old_name:se" v="Sirejavri" />
		<tag k="ssr:stedsnr" v="79371" />
	</node>
	<node lat="69.73667778508896" lon="25.38862196062287" id="-35954">
		<tag k="loc_name:no" v="Steinelva" />
		<tag k="name" v="Geađgejohka" />
		<tag k="name:se" v="Geađgejohka" />
		<tag k="old_name:se" v="Gæđgejåkka" />
		<tag k="ssr:stedsnr" v="79375" />
		<tag k="waterway" v="river" />
	</node>
	<node lat="69.59388612292794" lon="25.613310812754072" id="-35955">
		<tag k="name" v="Gimešjávri" />
		<tag k="name:se" v="Gimešjávri" />
		<tag k="natural" v="water" />
		<tag k="old_name:se" v="Gimešjavri" />
		<tag k="ssr:stedsnr" v="79382" />
		<tag k="water" v="lake" />
	</node>
	<node lat="69.57506112347112" lon="25.926121892109162" id="-35957">
		<tag k="name" v="Borjjasnjárga" />
		<tag k="name:se" v="Borjjasnjárga" />
		<tag k="natural" v="cape" />
		<tag k="old_name:se" v="Bårjasnjarga" />
		<tag k="ssr:stedsnr" v="79458" />
	</node>
	<node lat="69.64585834480019" lon="25.903380213904764" id="-35958">
		<tag k="name" v="Gálssotjohka" />
		<tag k="name:se" v="Gálssotjohka" />
		<tag k="old_name:se" v="Galsutjåkka" />
		<tag k="ssr:stedsnr" v="79468" />
		<tag k="waterway" v="stream" />
	</node>
	<node lat="69.73712500722101" lon="24.5463248327324" id="-35961">
		<tag k="name" v="Áiroláttu" />
		<tag k="name:se" v="Áiroláttu" />
		<tag k="natural" v="water" />
		<tag k="old_name:se" v="Airuladdo" />
		<tag k="ssr:stedsnr" v="79480" />
	</node>
	<node lat="69.56054446060186" lon="25.79697190076454" id="-35963">
		<tag k="name" v="Geahtaveaijohka" />
		<tag k="name:se" v="Geahtaveaijohka" />
		<tag k="ssr:stedsnr" v="79434" />
		<tag k="waterway" v="stream" />
	</node>
	<node lat="69.53995556330035" lon="25.750316349422526" id="-35964">
		<tag k="name" v="Geahtaveaiskáidi" />
		<tag k="name:se" v="Geahtaveaiskáidi" />
		<tag k="natural" v="cape" />
		<tag k="ssr:stedsnr" v="79436" />
	</node>
	<node lat="69.22404624825676" lon="24.764138762049626" id="-35967">
		<tag k="name" v="Lásesguoika" />
		<tag k="name:se" v="Lásesguoika" />
		<tag k="natural" v="waterfall" />
		<tag k="old_name:se" v="Lasesguoika" />
		<tag k="ssr:stedsnr" v="79860" />
	</node>
	<node lat="69.15739167225584" lon="24.789510904349644" id="-35968">
		<tag k="name" v="Vuolit Áhkašjávri" />
		<tag k="name:se" v="Vuolit Áhkašjávri" />
		<tag k="natural" v="water" />
		<tag k="old_name:se" v="Akkašjavri, vuolit" />
		<tag k="ssr:stedsnr" v="79912" />
		<tag k="water" v="lake" />
	</node>
	<node lat="69.1811583381305" lon="24.74265257068502" id="-35969">
		<tag k="name" v="Salčojogaš" />
		<tag k="name:se" v="Salčojogaš" />
		<tag k="old_name:se" v="Salčujågas" />
		<tag k="ssr:stedsnr" v="79916" />
		<tag k="waterway" v="stream" />
	</node>
	<node lat="69.79909444942044" lon="24.66247481092106" id="-35970">
		<tag k="name" v="Reavvoluoppal" />
		<tag k="name:se" v="Reavvoluoppal" />
		<tag k="natural" v="water" />
		<tag k="old_name:se" v="Rævuluobbal" />
		<tag k="ssr:stedsnr" v="80612" />
	</node>
	<node lat="69.76362778251647" lon="24.76912480182785" id="-35971">
		<tag k="name" v="Áhkošjohka" />
		<tag k="name:se" v="Áhkošjohka" />
		<tag k="old_name:se" v="Akkušjåkka" />
		<tag k="ssr:stedsnr" v="80626" />
		<tag k="waterway" v="stream" />
	</node>
	<node lat="69.75403612148169" lon="24.698808147201827" id="-35972">
		<tag k="name" v="Suolojávri" />
		<tag k="name:se" v="Suolojávri" />
		<tag k="natural" v="water" />
		<tag k="old_name:se" v="Suolujavri" />
		<tag k="ssr:stedsnr" v="80628" />
	</node>
	<node lat="69.75237500884886" lon="24.311205403441246" id="-35973">
		<tag k="name" v="Davitluoppal" />
		<tag k="name:se" v="Davitluoppal" />
		<tag k="natural" v="water" />
		<tag k="old_name:se" v="Davitluobbal" />
		<tag k="ssr:stedsnr" v="80707" />
	</node>
	<node lat="69.796416671689" lon="24.436535941148886" id="-35974">
		<tag k="name" v="Gámajohka" />
		<tag k="name:se" v="Gámajohka" />
		<tag k="ssr:stedsnr" v="80714" />
		<tag k="waterway" v="river" />
	</node>
	<node lat="69.83238334025249" lon="25.879083018967957" id="-35978">
		<tag k="name" v="Suoidnejohka" />
		<tag k="name:se" v="Suoidnejohka" />
		<tag k="old_name:se" v="Suoidnejåkka" />
		<tag k="ssr:stedsnr" v="80961" />
		<tag k="waterway" v="stream" />
	</node>
	<node lat="69.52806667718473" lon="25.476774714639237" id="-35984">
		<tag k="name" v="Buollánája" />
		<tag k="name:se" v="Buollánája" />
		<tag k="ssr:stedsnr" v="89095" />
		<tag k="waterway" v="stream" />
	</node>
	<node lat="69.35875833857409" lon="24.57076648951993" id="-35987">
		<tag k="name" v="Duoljjeguoikkmuotki" />
		<tag k="name:se" v="Duoljjeguoikkmuotki" />
		<tag k="place" v="locality" />
		<tag k="ssr:stedsnr" v="89289" />
	</node>
	<node lat="69.38376389324004" lon="24.51473870936943" id="-35988">
		<tag k="name" v="Issátávžžejogaš" />
		<tag k="name:se" v="Issátávžžejogaš" />
		<tag k="ssr:stedsnr" v="89300" />
		<tag k="waterway" v="stream" />
	</node>
	<node lat="69.35229445368932" lon="24.61241647861349" id="-35989">
		<tag k="name" v="Issáhašguorvil" />
		<tag k="name:se" v="Issáhašguorvil" />
		<tag k="ssr:stedsnr" v="89390" />
		<tag k="waterway" v="rapids" />
	</node>
	<node lat="69.42491389907002" lon="25.442758055597682" id="-35992">
		<tag k="name" v="Jalgavárája" />
		<tag k="name:se" v="Jalgavárája" />
		<tag k="ssr:stedsnr" v="89469" />
		<tag k="waterway" v="stream" />
	</node>
	<node lat="69.40566945005087" lon="24.71040536406787" id="-35993">
		<tag k="name" v="Geinnošjohka" />
		<tag k="name:se" v="Geinnošjohka" />
		<tag k="ssr:stedsnr" v="89484" />
		<tag k="waterway" v="stream" />
	</node>
	<node lat="69.4044777933613" lon="25.81118021338971" id="-35994">
		<tag k="name" v="Dorvomohkki" />
		<tag k="name:se" v="Dorvomohkki" />
		<tag k="natural" v="bay" />
		<tag k="ssr:stedsnr" v="89491" />
	</node>
	<node lat="69.42882223113364" lon="24.579849824893657" id="-35995">
		<tag k="name" v="Ruoŧŧelašjogaš" />
		<tag k="name:se" v="Ruoŧŧelašjogaš" />
		<tag k="ssr:stedsnr" v="89500" />
		<tag k="waterway" v="stream" />
	</node>
	<node lat="69.52047501398941" lon="25.792955235390266" id="-35998">
		<tag k="name" v="Buollánskáidi" />
		<tag k="name:se" v="Buollánskáidi" />
		<tag k="natural" v="cape" />
		<tag k="ssr:stedsnr" v="89549" />
	</node>
	<node lat="69.45443056303333" lon="25.40679415562298" id="-35999">
		<tag k="name" v="Suhppengárggu" />
		<tag k="name:se" v="Suhppengárggu" />
		<tag k="natural" v="beach" />
		<tag k="ssr:stedsnr" v="89553" />
	</node>
	<node lat="69.56191389853089" lon="25.88833854299313" id="-36002">
		<tag k="name" v="Lássanjárája" />
		<tag k="name:se" v="Lássanjárája" />
		<tag k="ssr:stedsnr" v="89647" />
		<tag k="waterway" v="stream" />
	</node>
	<node lat="69.36066389808916" lon="24.64104981132029" id="-36003">
		<tag k="name" v="Guoikkavuolle" />
		<tag k="name:se" v="Guoikkavuolle" />
		<tag k="place" v="locality" />
		<tag k="ssr:stedsnr" v="89441" />
	</node>
	<node lat="69.40146111820025" lon="24.66731091391632" id="-36004">
		<tag k="name" v="Makkesuolu" />
		<tag k="name:se" v="Makkesuolu" />
		<tag k="place" v="islet" />
		<tag k="ssr:stedsnr" v="89455" />
	</node>
	<node lat="69.38219166894886" lon="24.266502618208733" id="-36005">
		<tag k="name" v="Vuottašfielbma" />
		<tag k="name:se" v="Vuottašfielbma" />
		<tag k="natural" v="water" />
		<tag k="ssr:stedsnr" v="89740" />
		<tag k="water" v="lake" />
	</node>
	<node lat="69.38442500278344" lon="24.271958182506204" id="-36006">
		<tag k="name" v="Suolonuorri" />
		<tag k="name:se" v="Suolonuorri" />
		<tag k="natural" v="strait" />
		<tag k="ssr:stedsnr" v="89746" />
	</node>
	<node lat="69.37324722411991" lon="24.333605399351537" id="-36007">
		<tag k="name" v="Sisjávri" />
		<tag k="name:se" v="Sisjávri" />
		<tag k="natural" v="bay" />
		<tag k="ssr:stedsnr" v="89764" />
	</node>
	<node lat="69.4319277839264" lon="25.24236642045001" id="-36009">
		<tag k="name" v="Ássebáhjávrrejogaš" />
		<tag k="name:se" v="Ássebáhjávrrejogaš" />
		<tag k="ssr:stedsnr" v="89583" />
		<tag k="waterway" v="stream" />
	</node>
	<node lat="69.42998056533493" lon="25.224949742089155" id="-36010">
		<tag k="name" v="Ássebáhjávri" />
		<tag k="name:se" v="Ássebáhjávri" />
		<tag k="natural" v="water" />
		<tag k="ssr:stedsnr" v="89584" />
		<tag k="water" v="lake" />
	</node>
	<node lat="69.34628056087294" lon="25.15858586871087" id="-36011">
		<tag k="name" v="Soktagoatnil" />
		<tag k="name:se" v="Soktagoatnil" />
		<tag k="natural" v="water" />
		<tag k="ssr:stedsnr" v="89700" />
		<tag k="water" v="lake" />
	</node>
	<node lat="69.37121389734524" lon="24.327810942438692" id="-36012">
		<tag k="name" v="Iŋggá-Máhtenjárga" />
		<tag k="name:se" v="Iŋggá-Máhtenjárga" />
		<tag k="natural" v="cape" />
		<tag k="ssr:stedsnr" v="89767" />
	</node>
	<node lat="69.42383611926344" lon="25.63125525619132" id="-36015">
		<tag k="name" v="Jeambealesláttu" />
		<tag k="name:se" v="Jeambealesláttu" />
		<tag k="natural" v="water" />
		<tag k="ssr:stedsnr" v="89840" />
	</node>
	<node lat="69.48080556355842" lon="25.576980254442855" id="-36017">
		<tag k="name" v="Biippuidája" />
		<tag k="name:se" v="Biippuidája" />
		<tag k="ssr:stedsnr" v="89937" />
		<tag k="waterway" v="stream" />
	</node>
	<node lat="69.68443056658745" lon="25.828363576765923" id="-36018">
		<tag k="name" v="Gálssohatnjárga" />
		<tag k="name:se" v="Gálssohatnjárga" />
		<tag k="natural" v="cape" />
		<tag k="old_name:se" v="Galssahatnjarga" />
		<tag k="ssr:stedsnr" v="89938" />
	</node>
	<node lat="68.91541340364356" lon="25.656961229142574" id="-36022">
		<tag k="name" v="Bajitjávri" />
		<tag k="name:se" v="Bajitjávri" />
		<tag k="old_name:se" v="Bajitjavri" />
		<tag k="place" v="locality" />
		<tag k="ssr:stedsnr" v="138671" />
	</node>
	<node lat="69.24780001444398" lon="25.62918300642907" id="-36023">
		<tag k="name" v="Iškorasjohka" />
		<tag k="name:se" v="Iškorasjohka" />
		<tag k="ssr:stedsnr" v="139797" />
		<tag k="waterway" v="river" />
	</node>
	<node lat="68.89378611967275" lon="25.51330801052569" id="-36025">
		<tag k="name" v="Jussábuođđoguoika" />
		<tag k="name:se" v="Jussábuođđoguoika" />
		<tag k="old_name:se" v="Jussabuođđuguoika" />
		<tag k="ssr:stedsnr" v="138703" />
		<tag k="waterway" v="rapids" />
	</node>
	<node lat="69.43392223254403" lon="25.785413554583354" id="-36028">
		<tag k="name" v="Itkkonjárga" />
		<tag k="name:se" v="Itkkonjárga" />
		<tag k="natural" v="cape" />
		<tag k="old_name:se" v="Itkunjarga" />
		<tag k="ssr:stedsnr" v="139024" />
	</node>
	<node lat="69.32155001136888" lon="24.625524807015836" id="-36029">
		<tag k="name" v="Bajimus Mánnejárrohtojohka" />
		<tag k="name:se" v="Bajimus Mánnejárrohtojohka" />
		<tag k="old_name:se" v="Mannejarråttnjåkka, bajimus" />
		<tag k="ssr:stedsnr" v="139163" />
		<tag k="waterway" v="stream" />
	</node>
	<node lat="69.30523056345196" lon="24.667722026970164" id="-36030">
		<tag k="name" v="Bajit Látnjajávri" />
		<tag k="name:se" v="Bajit Látnjajávri" />
		<tag k="natural" v="water" />
		<tag k="old_name:se" v="Ladnjajavri, bajit;Látnjajávri" />
		<tag k="ssr:stedsnr" v="139171" />
	</node>
	<node lat="69.31996389927588" lon="25.001355330434183" id="-36031">
		<tag k="name" v="Gohppe" />
		<tag k="name:se" v="Gohppe" />
		<tag k="natural" v="waterfall" />
		<tag k="old_name:se" v="Gåppe" />
		<tag k="ssr:stedsnr" v="139172" />
	</node>
	<node lat="69.43940000832782" lon="25.679852461185444" id="-36033">
		<tag k="name" v="Jávrrašmuotkkenjárga" />
		<tag k="name:se" v="Jávrrašmuotkkenjárga" />
		<tag k="natural" v="cape" />
		<tag k="ssr:stedsnr" v="139232" />
	</node>
	<node lat="69.37163612101884" lon="24.807858124979887" id="-36034">
		<tag k="name" v="Duolbajávri" />
		<tag k="name:se" v="Duolbajávri" />
		<tag k="natural" v="water" />
		<tag k="old_name:se" v="Duolbajavri" />
		<tag k="ssr:stedsnr" v="139180" />
	</node>
	<node lat="69.3763666723913" lon="24.868710906508472" id="-36035">
		<tag k="name" v="Dávvet-Ásllat-jávri" />
		<tag k="name:se" v="Dávvet-Ásllat-jávri" />
		<tag k="natural" v="water" />
		<tag k="old_name:se" v="Davvet-Aslat-javri" />
		<tag k="ssr:stedsnr" v="139182" />
	</node>
	<node lat="69.26212778935131" lon="25.208155305658646" id="-36036">
		<tag k="name" v="Bajit Šuolggajávri" />
		<tag k="name:se" v="Bajit Šuolggajávri" />
		<tag k="natural" v="water" />
		<tag k="old_name:se" v="Šuolgajavri, bajit" />
		<tag k="ssr:stedsnr" v="139185" />
	</node>
</osm>
