<?xml version="1.0" encoding="UTF-8"?>
<<<<<<< HEAD
<osm version="0.6" generator="osmapis">
	<node lat="69.42698333953085" lon="24.958516442582027" id="-37169">
		<tag k="highway" v="path" />
		<tag k="name" v="Badjeolbmuidjohtinmáđii" />
		<tag k="name:se" v="Badjeolbmuidjohtinmáđii" />
		<tag k="ssr:stedsnr" v="28005" />
	</node>
	<node lat="69.48384167688805" lon="25.53104971072524" id="-37171">
		<tag k="highway" v="path" />
		<tag k="name" v="Sávkadasmáđii" />
		<tag k="name:se" v="Sávkadasmáđii" />
		<tag k="old_name:se" v="Savkadasmađii" />
		<tag k="ssr:stedsnr" v="28040" />
	</node>
	<node lat="69.43571945335111" lon="25.349452500962645" id="-37184">
		<tag k="highway" v="path" />
		<tag k="name" v="Báhkilvármáđii" />
		<tag k="name:se" v="Báhkilvármáđii" />
		<tag k="ssr:stedsnr" v="28603" />
	</node>
	<node lat="69.43875279192757" lon="25.48705804266666" id="-37217">
		<tag k="highway" v="path" />
		<tag k="name" v="Dálvemáđii" />
		<tag k="name:se" v="Dálvemáđii" />
		<tag k="ssr:stedsnr" v="89502" />
	</node>
	<node lat="69.42672500962179" lon="25.25665807395363" id="-37219">
		<tag k="highway" v="path" />
		<tag k="name" v="Johtinmáđii" />
		<tag k="name:se" v="Johtinmáđii" />
		<tag k="ssr:stedsnr" v="89587" />
	</node>
	<node lat="69.37727778960098" lon="24.648233136611452" id="-37264">
		<tag k="highway" v="path" />
		<tag k="name" v="Badjeolbmuidmáđii" />
		<tag k="name:se" v="Badjeolbmuidmáđii" />
		<tag k="ssr:stedsnr" v="149418" />
	</node>
	<node lat="69.41569167760984" lon="25.447719160987816" id="-37268">
		<tag k="highway" v="path" />
		<tag k="name" v="Rihtávármáđii" />
		<tag k="name:se" v="Rihtávármáđii" />
		<tag k="ssr:stedsnr" v="149438" />
	</node>
	<node lat="69.39463611763729" lon="25.129796978459588" id="-37275">
		<tag k="highway" v="path" />
		<tag k="name" v="Skáidemáđii" />
		<tag k="name:se" v="Skáidemáđii" />
		<tag k="ssr:stedsnr" v="149660" />
	</node>
	<node lat="69.44651112063805" lon="25.191046975202244" id="-37426">
		<tag k="highway" v="path" />
		<tag k="name" v="Jávrrášluhppu" />
		<tag k="name:se" v="Jávrrášluhppu" />
		<tag k="ssr:stedsnr" v="271693" />
	</node>
	<node lat="69.43433890496652" lon="25.666780245012152" id="-37433">
		<tag k="highway" v="path" />
		<tag k="name" v="Monebálggis" />
		<tag k="name:se" v="Monebálggis" />
		<tag k="ssr:stedsnr" v="271873" />
	</node>
	<node lat="69.46363056866757" lon="25.572294142831453" id="-37434">
		<tag k="highway" v="path" />
		<tag k="name" v="Rávnnaluhppu" />
		<tag k="name:se" v="Rávnnaluhppu" />
		<tag k="ssr:stedsnr" v="271919" />
	</node>
	<node lat="69.4585111171652" lon="25.420396955087984" id="-37446">
		<tag k="highway" v="path" />
		<tag k="name" v="Boares Ássebáhmáđii" />
		<tag k="name:se" v="Boares Ássebáhmáđii" />
		<tag k="ssr:stedsnr" v="453346" />
	</node>
	<node lat="69.41803056278893" lon="25.264763633971604" id="-37456">
		<tag k="highway" v="path" />
		<tag k="name" v="Báhkilvármáđii" />
		<tag k="name:se" v="Báhkilvármáđii" />
		<tag k="ssr:stedsnr" v="453595" />
	</node>
	<node lat="69.4714555676688" lon="25.733927457373145" id="-37510">
		<tag k="highway" v="path" />
		<tag k="name" v="Njárgasašmáđii" />
		<tag k="name:se" v="Njárgasašmáđii" />
		<tag k="ssr:stedsnr" v="271624" />
	</node>
	<node lat="69.38008611909444" lon="24.237516513700385" id="-37517">
		<tag k="ford" v="yes" />
		<tag k="name" v="Gála" />
		<tag k="name:se" v="Gála" />
		<tag k="place" v="locality" />
		<tag k="ssr:stedsnr" v="271722" />
	</node>
	<node lat="69.45615834520794" lon="25.416502515316633" id="-37555">
		<tag k="highway" v="path" />
		<tag k="loc_name:se" v="Jovssaluhppu" />
		<tag k="name" v="Juoksaluhppu" />
		<tag k="name:se" v="Juoksaluhppu" />
		<tag k="ssr:stedsnr" v="332318" />
	</node>
	<node lat="69.42491667372504" lon="25.31856084131638" id="-37558">
		<tag k="highway" v="path" />
		<tag k="name" v="Spiinniidgiettemáđii" />
		<tag k="name:se" v="Spiinniidgiettemáđii" />
		<tag k="ssr:stedsnr" v="332550" />
	</node>
	<node lat="69.36011112022476" lon="24.54721648874472" id="-37561">
		<tag k="highway" v="path" />
		<tag k="name" v="Badjeolbuidjohtingeinnodat" />
		<tag k="name:se" v="Badjeolbuidjohtingeinnodat" />
		<tag k="ssr:stedsnr" v="332711" />
	</node>
	<node lat="69.39382778571525" lon="25.170380307249598" id="-37601">
		<tag k="highway" v="path" />
		<tag k="name" v="Hánas-Pierluhppu" />
		<tag k="name:se" v="Hánas-Pierluhppu" />
		<tag k="ssr:stedsnr" v="392709" />
	</node>
	<node lat="69.43051945559557" lon="24.91834977105019" id="-37640">
		<tag k="highway" v="path" />
		<tag k="name" v="Varetvárnáđii" />
		<tag k="name:se" v="Varetvárnáđii" />
		<tag k="ssr:stedsnr" v="453003" />
	</node>
	<node lat="69.43052778976164" lon="25.68706358137786" id="-37707">
		<tag k="highway" v="path" />
		<tag k="name" v="Greit-Ánddemáđii" />
		<tag k="name:se" v="Greit-Ánddemáđii" />
		<tag k="ssr:stedsnr" v="514917" />
	</node>
	<node lat="69.45972500912355" lon="25.53367194067667" id="-37817">
		<tag k="highway" v="path" />
		<tag k="name" v="Riidoluhppu" />
		<tag k="name:se" v="Riidoluhppu" />
		<tag k="ssr:stedsnr" v="696087" />
	</node>
	<node lat="69.42041945341917" lon="25.432960839812047" id="-37826">
=======
<osm generator="osmapis" version="0.6">
	<node id="-909312" lat="69.4592250056" lon="25.5087163855">
>>>>>>> e1d4bc35ff8a6074a6f2e91616a996b547c36f15
		<tag k="highway" v="path" />
		<tag k="name" v="Jeagilvármáđii" />
		<tag k="name:se" v="Jeagilvármáđii" />
		<tag k="ssr:stedsnr" v="696461" />
	</node>
<<<<<<< HEAD
	<node lat="69.38836111442174" lon="24.214366514184757" id="-37842">
=======
	<node id="-909307" lat="69.453036126" lon="25.6072441511">
>>>>>>> e1d4bc35ff8a6074a6f2e91616a996b547c36f15
		<tag k="highway" v="path" />
		<tag k="name" v="Ráhkesluoppalmáđii" />
		<tag k="name:se" v="Ráhkesluoppalmáđii" />
		<tag k="ssr:stedsnr" v="696653" />
	</node>
<<<<<<< HEAD
	<node lat="69.33333889522986" lon="25.08990254023544" id="-37888">
=======
	<node id="-908537" lat="69.4269833395" lon="24.9585164426">
>>>>>>> e1d4bc35ff8a6074a6f2e91616a996b547c36f15
		<tag k="highway" v="path" />
		<tag k="name" v="Šuolggamáđii" />
		<tag k="name:se" v="Šuolggamáđii" />
		<tag k="ssr:stedsnr" v="635689" />
	</node>
<<<<<<< HEAD
	<node lat="69.46100279258755" lon="25.48701360761954" id="-37917">
=======
	<node id="-909047" lat="69.4377750096" lon="25.4691274983">
>>>>>>> e1d4bc35ff8a6074a6f2e91616a996b547c36f15
		<tag k="highway" v="path" />
		<tag k="name" v="Luhkkár-Ánneluhppu" />
		<tag k="name:se" v="Luhkkár-Ánneluhppu" />
		<tag k="ssr:stedsnr" v="696209" />
	</node>
<<<<<<< HEAD
	<node lat="69.43334445274407" lon="24.902266459416758" id="-37925">
		<tag k="highway" v="path" />
		<tag k="name" v="Stohposaimáđii" />
		<tag k="name:se" v="Stohposaimáđii" />
		<tag k="ssr:stedsnr" v="696509" />
	</node>
	<node lat="69.35731111531935" lon="24.446316479178954" id="-37928">
=======
	<node id="-909045" lat="69.4346805629" lon="25.4392358246">
		<tag k="highway" v="path" />
		<tag k="name" v="Jeagilvármáđii" />
		<tag k="name:se" v="Jeagilvármáđii" />
		<tag k="ssr:stedsnr" v="514485" />
	</node>
	<node id="-910834" lat="69.4192222329" lon="24.6493692449">
>>>>>>> e1d4bc35ff8a6074a6f2e91616a996b547c36f15
		<tag k="highway" v="path" />
		<tag k="name" v="Ástejoh-Áillošmáđii" />
		<tag k="name:se" v="Ástejoh-Áillošmáđii" />
		<tag k="ssr:stedsnr" v="696714" />
	</node>
<<<<<<< HEAD
	<node lat="69.46740556258334" lon="25.4112441620316" id="-37962">
=======
	<node id="-908912" lat="69.3601111202" lon="24.5472164887">
>>>>>>> e1d4bc35ff8a6074a6f2e91616a996b547c36f15
		<tag k="highway" v="path" />
		<tag k="name" v="Álaheajmáđii" />
		<tag k="name:se" v="Álaheajmáđii" />
		<tag k="ssr:stedsnr" v="756298" />
	</node>
<<<<<<< HEAD
	<node lat="69.4164333504033" lon="25.78132188548898" id="-37983">
		<tag k="highway" v="path" />
		<tag k="name" v="Dilljavárbálggis" />
		<tag k="name:se" v="Dilljavárbálggis" />
		<tag k="ssr:stedsnr" v="817574" />
	</node>
	<node lat="69.44275834867689" lon="25.636244131466235" id="-38283">
		<tag k="highway" v="path" />
		<tag k="name" v="Jeambealesluhppu" />
		<tag k="name:se" v="Jeambealesluhppu" />
		<tag k="ssr:stedsnr" v="28491" />
	</node>
	<node lat="69.42669167391816" lon="25.33985251847736" id="-38286">
=======
	<node id="-908909" lat="69.4561583452" lon="25.4165025153">
		<tag k="highway" v="path" />
		<tag k="loc_name:se" v="Jovssaluhppu" />
		<tag k="name" v="Juoksaluhppu" />
		<tag k="name:se" v="Juoksaluhppu" />
		<tag k="ssr:stedsnr" v="332318" />
	</node>
	<node id="-909735" lat="69.4266916739" lon="25.3398525185">
		<tag k="highway" v="path" />
		<tag k="name" v="Rávnná-Lemetmáđii" />
		<tag k="name:se" v="Rávnná-Lemetmáđii" />
		<tag k="ssr:stedsnr" v="28589" />
	</node>
	<node id="-908898" lat="69.4636305687" lon="25.5722941428">
>>>>>>> e1d4bc35ff8a6074a6f2e91616a996b547c36f15
		<tag k="highway" v="path" />
		<tag k="name" v="Rávnná-Lemetmáđii" />
		<tag k="name:se" v="Rávnná-Lemetmáđii" />
		<tag k="ssr:stedsnr" v="28589" />
	</node>
<<<<<<< HEAD
	<node lat="69.41260834789828" lon="25.797977460665983" id="-38287">
=======
	<node id="-909281" lat="69.4652805653" lon="25.1540553101">
>>>>>>> e1d4bc35ff8a6074a6f2e91616a996b547c36f15
		<tag k="highway" v="path" />
		<tag k="name" v="Badjeleatnanbálggis" />
		<tag k="name:se" v="Badjeleatnanbálggis" />
		<tag k="ssr:stedsnr" v="28599" />
	</node>
<<<<<<< HEAD
	<node lat="69.4254444556984" lon="25.59386636277184" id="-38291">
=======
	<node id="-909535" lat="69.4835194519" lon="25.5996608158">
>>>>>>> e1d4bc35ff8a6074a6f2e91616a996b547c36f15
		<tag k="highway" v="path" />
		<tag k="name" v="Dilljaskáiddemáđii" />
		<tag k="name:se" v="Dilljaskáiddemáđii" />
		<tag k="ssr:stedsnr" v="28862" />
	</node>
<<<<<<< HEAD
	<node lat="69.4684000122616" lon="25.629271916004967" id="-38292">
		<tag k="highway" v="path" />
		<tag k="name" v="Mánnevármáđii" />
		<tag k="name:se" v="Mánnevármáđii" />
		<tag k="ssr:stedsnr" v="28931" />
	</node>
	<node lat="69.47472500877083" lon="25.55187749268705" id="-38301">
		<tag k="highway" v="path" />
		<tag k="name" v="Njárgasašmáđii" />
		<tag k="name:se" v="Njárgasašmáđii" />
		<tag k="ssr:stedsnr" v="28957" />
	</node>
	<node lat="69.5976694542324" lon="25.87803855179697" id="-38378">
=======
	<node id="-909149" lat="69.4305277898" lon="25.6870635814">
>>>>>>> e1d4bc35ff8a6074a6f2e91616a996b547c36f15
		<tag k="highway" v="path" />
		<tag k="name" v="Suoidnemáđii" />
		<tag k="name:se" v="Suoidnemáđii" />
		<tag k="old_name:se" v="Suoidnemađii" />
		<tag k="ssr:stedsnr" v="88986" />
	</node>
<<<<<<< HEAD
	<node lat="69.46015834696782" lon="25.4661858350559" id="-38384">
		<tag k="highway" v="path" />
		<tag k="name" v="Gumpeluhppu" />
		<tag k="name:se" v="Gumpeluhppu" />
		<tag k="ssr:stedsnr" v="89211" />
	</node>
	<node lat="69.40334723208106" lon="25.78220521625543" id="-38597">
=======
	<node id="-910684" lat="69.4674055626" lon="25.411244162">
		<tag k="highway" v="path" />
		<tag k="name" v="Álaheajmáđii" />
		<tag k="name:se" v="Álaheajmáđii" />
		<tag k="ssr:stedsnr" v="756298" />
	</node>
	<node id="-909397" lat="69.3883611144" lon="24.2143665142">
>>>>>>> e1d4bc35ff8a6074a6f2e91616a996b547c36f15
		<tag k="highway" v="path" />
		<tag k="name" v="Gámehiseatnanmáđii" />
		<tag k="name:se" v="Gámehiseatnanmáđii" />
		<tag k="ssr:stedsnr" v="210965" />
	</node>
<<<<<<< HEAD
	<node lat="69.43670556648642" lon="25.682880232288824" id="-38669">
=======
	<node id="-910478" lat="69.5650833485" lon="25.8055135585">
		<tag k="highway" v="path" />
		<tag k="name" v="Geahtaveaimáđii" />
		<tag k="name:se" v="Geahtaveaimáđii" />
		<tag k="ssr:stedsnr" v="574565" />
	</node>
	<node id="-909392" lat="69.3573111153" lon="24.4463164792">
>>>>>>> e1d4bc35ff8a6074a6f2e91616a996b547c36f15
		<tag k="highway" v="path" />
		<tag k="name" v="Holgaluhppu" />
		<tag k="name:se" v="Holgaluhppu" />
		<tag k="ssr:stedsnr" v="331467" />
	</node>
<<<<<<< HEAD
	<node lat="69.48485834326345" lon="25.527091381509212" id="-38682">
=======
	<node id="-909752" lat="69.4427583487" lon="25.6362441315">
		<tag k="highway" v="path" />
		<tag k="name" v="Jeambealesluhppu" />
		<tag k="name:se" v="Jeambealesluhppu" />
		<tag k="ssr:stedsnr" v="28491" />
	</node>
	<node id="-909388" lat="69.4333444527" lon="24.9022664594">
>>>>>>> e1d4bc35ff8a6074a6f2e91616a996b547c36f15
		<tag k="highway" v="path" />
		<tag k="name" v="Givdovármáđii" />
		<tag k="name:se" v="Givdovármáđii" />
		<tag k="ssr:stedsnr" v="332295" />
	</node>
<<<<<<< HEAD
	<node lat="69.36430278714212" lon="24.29825538491345" id="-38703">
=======
	<node id="-909387" lat="69.4610027926" lon="25.4870136076">
>>>>>>> e1d4bc35ff8a6074a6f2e91616a996b547c36f15
		<tag k="highway" v="path" />
		<tag k="name" v="Hoammáidmáđii" />
		<tag k="name:se" v="Hoammáidmáđii" />
		<tag k="ssr:stedsnr" v="332687" />
	</node>
<<<<<<< HEAD
	<node lat="69.47146390368324" lon="25.49999971149642" id="-38778">
=======
	<node id="-909765" lat="69.4747250088" lon="25.5518774927">
>>>>>>> e1d4bc35ff8a6074a6f2e91616a996b547c36f15
		<tag k="highway" v="path" />
		<tag k="name" v="Eisevárluhppu" />
		<tag k="name:se" v="Eisevárluhppu" />
		<tag k="ssr:stedsnr" v="392246" />
	</node>
<<<<<<< HEAD
	<node lat="69.40365834362349" lon="24.71477480920007" id="-38779">
=======
	<node id="-909762" lat="69.4684000123" lon="25.629271916">
>>>>>>> e1d4bc35ff8a6074a6f2e91616a996b547c36f15
		<tag k="highway" v="path" />
		<tag k="name" v="Juvvingeinnoš" />
		<tag k="name:se" v="Juvvingeinnoš" />
		<tag k="ssr:stedsnr" v="392459" />
	</node>
<<<<<<< HEAD
	<node lat="69.43758056362124" lon="25.596280255960647" id="-38794">
=======
	<node id="-910837" lat="69.4164333504" lon="25.7813218855">
		<tag k="highway" v="path" />
		<tag k="name" v="Dilljavárbálggis" />
		<tag k="name:se" v="Dilljavárbálggis" />
		<tag k="ssr:stedsnr" v="817574" />
	</node>
	<node id="-908856" lat="69.4180305628" lon="25.264763634">
>>>>>>> e1d4bc35ff8a6074a6f2e91616a996b547c36f15
		<tag k="highway" v="path" />
		<tag k="name" v="Dilljavármáđii" />
		<tag k="name:se" v="Dilljavármáđii" />
		<tag k="ssr:stedsnr" v="392845" />
	</node>
<<<<<<< HEAD
	<node lat="69.4346805629364" lon="25.439235824641003" id="-38949">
		<tag k="highway" v="path" />
		<tag k="name" v="Jeagilvármáđii" />
		<tag k="name:se" v="Jeagilvármáđii" />
		<tag k="ssr:stedsnr" v="514485" />
	</node>
	<node lat="69.43777500955517" lon="25.469127498263738" id="-38951">
		<tag k="highway" v="path" />
		<tag k="name" v="Iškorasmáđii" />
		<tag k="name:se" v="Iškorasmáđii" />
		<tag k="ssr:stedsnr" v="514494" />
	</node>
	<node lat="69.56508334853628" lon="25.805513558517248" id="-39071">
		<tag k="highway" v="path" />
		<tag k="name" v="Geahtaveaimáđii" />
		<tag k="name:se" v="Geahtaveaimáđii" />
		<tag k="ssr:stedsnr" v="574565" />
	</node>
	<node lat="69.46528056530784" lon="25.15405531011854" id="-39076">
=======
	<node id="-909876" lat="69.4387527919" lon="25.4870580427">
>>>>>>> e1d4bc35ff8a6074a6f2e91616a996b547c36f15
		<tag k="highway" v="path" />
		<tag k="name" v="Gárdinmáđii" />
		<tag k="name:se" v="Gárdinmáđii" />
		<tag k="ssr:stedsnr" v="574674" />
	</node>
<<<<<<< HEAD
	<node lat="69.40792779383703" lon="25.796633005430344" id="-39305">
		<tag k="fixme" v="consider highway=path" />
		<tag k="highway" v="track" />
		<tag k="name" v="Badjeleatnanbálggis" />
		<tag k="name:se" v="Badjeleatnanbálggis" />
		<tag k="ssr:stedsnr" v="756973" />
	</node>
	<node lat="69.41922223291387" lon="24.649369244939496" id="-39407">
		<tag k="highway" v="path" />
		<tag k="name" v="Álaheajmáđii" />
		<tag k="name:se" v="Álaheajmáđii" />
		<tag k="ssr:stedsnr" v="817443" />
	</node>
	<node lat="69.48351945188956" lon="25.599660815783167" id="-39433">
=======
	<node id="-909885" lat="69.4267250096" lon="25.256658074">
		<tag k="highway" v="path" />
		<tag k="name" v="Johtinmáđii" />
		<tag k="name:se" v="Johtinmáđii" />
		<tag k="ssr:stedsnr" v="89587" />
	</node>
	<node id="-909233" lat="69.4204194534" lon="25.4329608398">
		<tag k="highway" v="path" />
		<tag k="name" v="Jeagilvármáđii" />
		<tag k="name:se" v="Jeagilvármáđii" />
		<tag k="ssr:stedsnr" v="696461" />
	</node>
	<node id="-908848" lat="69.4585111172" lon="25.4203969551">
		<tag k="highway" v="path" />
		<tag k="name" v="Boares Ássebáhmáđii" />
		<tag k="name:se" v="Boares Ássebáhmáđii" />
		<tag k="ssr:stedsnr" v="453346" />
	</node>
	<node id="-909996" lat="69.4156916776" lon="25.447719161">
>>>>>>> e1d4bc35ff8a6074a6f2e91616a996b547c36f15
		<tag k="highway" v="path" />
		<tag k="name" v="Biippuidmáđii" />
		<tag k="name:se" v="Biippuidmáđii" />
		<tag k="ssr:stedsnr" v="817959" />
	</node>
<<<<<<< HEAD
	<node lat="69.45922500561979" lon="25.508716385482145" id="-39501">
=======
	<node id="-908714" lat="69.3946361176" lon="25.1297969785">
>>>>>>> e1d4bc35ff8a6074a6f2e91616a996b547c36f15
		<tag k="highway" v="path" />
		<tag k="name" v="Jeagilvármáđii" />
		<tag k="name:se" v="Jeagilvármáđii" />
		<tag k="ssr:stedsnr" v="878080" />
	</node>
<<<<<<< HEAD
	<node lat="69.45303612596123" lon="25.607244151082842" id="-39504">
=======
	<node id="-909225" lat="69.4597250091" lon="25.5336719407">
>>>>>>> e1d4bc35ff8a6074a6f2e91616a996b547c36f15
		<tag k="highway" v="path" />
		<tag k="name" v="Ájoluhppu" />
		<tag k="name:se" v="Ájoluhppu" />
		<tag k="ssr:stedsnr" v="877480" />
	</node>
<<<<<<< HEAD
	<node lat="69.42790556657525" lon="24.733772021809266" id="-39509">
=======
	<node id="-909736" lat="69.4126083479" lon="25.7979774607">
>>>>>>> e1d4bc35ff8a6074a6f2e91616a996b547c36f15
		<tag k="highway" v="path" />
		<tag k="name" v="Liidnebeahcangeinnoš" />
		<tag k="name:se" v="Liidnebeahcangeinnoš" />
		<tag k="ssr:stedsnr" v="878576" />
	</node>
<<<<<<< HEAD
	<node lat="69.46884723312405" lon="25.48950527751998" id="-39525">
=======
	<node id="-910247" lat="69.3643027871" lon="24.2982553849">
>>>>>>> e1d4bc35ff8a6074a6f2e91616a996b547c36f15
		<tag k="highway" v="path" />
		<tag k="name" v="Boares Álaheajluhppu" />
		<tag k="name:se" v="Boares Álaheajluhppu" />
		<tag k="ssr:stedsnr" v="878232" />
	</node>
<<<<<<< HEAD
	<node lat="69.47014167476847" lon="25.499146934161722" id="-39526">
=======
	<node id="-908838" lat="69.4305194556" lon="24.9183497711">
>>>>>>> e1d4bc35ff8a6074a6f2e91616a996b547c36f15
		<tag k="highway" v="path" />
		<tag k="name" v="Jávrebálggis" />
		<tag k="name:se" v="Jávrebálggis" />
		<tag k="ssr:stedsnr" v="878238" />
	</node>
<<<<<<< HEAD
	<node lat="69.43962779271479" lon="25.68888023732521" id="-39584">
=======
	<node id="-908965" lat="69.3938277857" lon="25.1703803072">
>>>>>>> e1d4bc35ff8a6074a6f2e91616a996b547c36f15
		<tag k="highway" v="path" />
		<tag k="name" v="Ođđaluhppu" />
		<tag k="name:se" v="Ođđaluhppu" />
		<tag k="ssr:stedsnr" v="939830" />
	</node>
	<node id="-908707" lat="69.3772777896" lon="24.6482331366">
		<tag k="highway" v="path" />
		<tag k="name" v="Badjeolbmuidmáđii" />
		<tag k="name:se" v="Badjeolbmuidmáđii" />
		<tag k="ssr:stedsnr" v="149418" />
	</node>
	<node id="-909858" lat="69.5976694542" lon="25.8780385518">
		<tag k="highway" v="path" />
		<tag k="name" v="Suoidnemáđii" />
		<tag k="name:se" v="Suoidnemáđii" />
		<tag k="old_name:se" v="Suoidnemađii" />
		<tag k="ssr:stedsnr" v="88986" />
	</node>
	<node id="-909723" lat="69.4838416769" lon="25.5310497107">
		<tag k="highway" v="path" />
		<tag k="name" v="Sávkadasmáđii" />
		<tag k="name:se" v="Sávkadasmáđii" />
		<tag k="old_name:se" v="Savkadasmađii" />
		<tag k="ssr:stedsnr" v="28040" />
	</node>
	<node id="-910240" lat="69.4249166737" lon="25.3185608413">
		<tag k="highway" v="path" />
		<tag k="name" v="Spiinniidgiettemáđii" />
		<tag k="name:se" v="Spiinniidgiettemáđii" />
		<tag k="ssr:stedsnr" v="332550" />
	</node>
	<node id="-910128" lat="69.4033472321" lon="25.7822052163">
		<tag k="highway" v="path" />
		<tag k="name" v="Gámehiseatnanmáđii" />
		<tag k="name:se" v="Gámehiseatnanmáđii" />
		<tag k="ssr:stedsnr" v="210965" />
	</node>
	<node id="-910366" lat="69.4375805636" lon="25.596280256">
		<tag k="highway" v="path" />
		<tag k="name" v="Dilljavármáđii" />
		<tag k="name:se" v="Dilljavármáđii" />
		<tag k="ssr:stedsnr" v="392845" />
	</node>
	<node id="-908957" lat="69.4036583436" lon="24.7147748092">
		<tag k="highway" v="path" />
		<tag k="name" v="Juvvingeinnoš" />
		<tag k="name:se" v="Juvvingeinnoš" />
		<tag k="ssr:stedsnr" v="392459" />
	</node>
	<node id="-908699" lat="69.434338905" lon="25.666780245">
		<tag k="highway" v="path" />
		<tag k="name" v="Monebálggis" />
		<tag k="name:se" v="Monebálggis" />
		<tag k="ssr:stedsnr" v="271873" />
	</node>
	<node id="-909593" lat="69.4396277927" lon="25.6888802373">
		<tag k="highway" v="path" />
		<tag k="name" v="Ođđaluhppu" />
		<tag k="name:se" v="Ođđaluhppu" />
		<tag k="ssr:stedsnr" v="939830" />
	</node>
	<node id="-910232" lat="69.4848583433" lon="25.5270913815">
		<tag k="highway" v="path" />
		<tag k="name" v="Givdovármáđii" />
		<tag k="name:se" v="Givdovármáđii" />
		<tag k="ssr:stedsnr" v="332295" />
	</node>
	<node id="-909335" lat="69.4279055666" lon="24.7337720218">
		<tag k="highway" v="path" />
		<tag k="name" v="Liidnebeahcangeinnoš" />
		<tag k="name:se" v="Liidnebeahcangeinnoš" />
		<tag k="ssr:stedsnr" v="878576" />
	</node>
	<node id="-908563" lat="69.460158347" lon="25.4661858351">
		<tag k="highway" v="path" />
		<tag k="name" v="Gumpeluhppu" />
		<tag k="name:se" v="Gumpeluhppu" />
		<tag k="ssr:stedsnr" v="89211" />
	</node>
	<node id="-909315" lat="69.4701416748" lon="25.4991469342">
		<tag k="highway" v="path" />
		<tag k="name" v="Jávrebálggis" />
		<tag k="name:se" v="Jávrebálggis" />
		<tag k="ssr:stedsnr" v="878238" />
	</node>
	<node id="-908686" lat="69.4714555677" lon="25.7339274574">
		<tag k="highway" v="path" />
		<tag k="name" v="Njárgasašmáđii" />
		<tag k="name:se" v="Njárgasašmáđii" />
		<tag k="ssr:stedsnr" v="271624" />
	</node>
	<node id="-910220" lat="69.4367055665" lon="25.6828802323">
		<tag k="highway" v="path" />
		<tag k="name" v="Holgaluhppu" />
		<tag k="name:se" v="Holgaluhppu" />
		<tag k="ssr:stedsnr" v="331467" />
	</node>
	<node id="-910603" lat="69.3333388952" lon="25.0899025402">
		<tag k="highway" v="path" />
		<tag k="name" v="Šuolggamáđii" />
		<tag k="name:se" v="Šuolggamáđii" />
		<tag k="ssr:stedsnr" v="635689" />
	</node>
	<node id="-910730" lat="69.4079277938" lon="25.7966330054">
		<tag k="fixme" v="consider highway=path" />
		<tag k="highway" v="track" />
		<tag k="name" v="Badjeleatnanbálggis" />
		<tag k="name:se" v="Badjeleatnanbálggis" />
		<tag k="ssr:stedsnr" v="756973" />
	</node>
	<node id="-908680" lat="69.3800861191" lon="24.2375165137">
		<tag k="ford" v="yes" />
		<tag k="name" v="Gála" />
		<tag k="name:se" v="Gála" />
		<tag k="place" v="locality" />
		<tag k="ssr:stedsnr" v="271722" />
	</node>
	<node id="-908551" lat="69.4254444557" lon="25.5938663628">
		<tag k="highway" v="path" />
		<tag k="name" v="Dilljaskáiddemáđii" />
		<tag k="name:se" v="Dilljaskáiddemáđii" />
		<tag k="ssr:stedsnr" v="28862" />
	</node>
	<node id="-908678" lat="69.4465111206" lon="25.1910469752">
		<tag k="highway" v="path" />
		<tag k="name" v="Jávrrášluhppu" />
		<tag k="name:se" v="Jávrrášluhppu" />
		<tag k="ssr:stedsnr" v="271693" />
	</node>
	<node id="-908548" lat="69.4357194534" lon="25.349452501">
		<tag k="highway" v="path" />
		<tag k="name" v="Báhkilvármáđii" />
		<tag k="name:se" v="Báhkilvármáđii" />
		<tag k="ssr:stedsnr" v="28603" />
	</node>
	<node id="-910339" lat="69.4714639037" lon="25.4999997115">
		<tag k="highway" v="path" />
		<tag k="name" v="Eisevárluhppu" />
		<tag k="name:se" v="Eisevárluhppu" />
		<tag k="ssr:stedsnr" v="392246" />
	</node>
	<node id="-909314" lat="69.4688472331" lon="25.4895052775">
		<tag k="highway" v="path" />
		<tag k="name" v="Boares Álaheajluhppu" />
		<tag k="name:se" v="Boares Álaheajluhppu" />
		<tag k="ssr:stedsnr" v="878232" />
	</node>
</osm>
