<?xml version="1.0" encoding="UTF-8"?>
<osm generator="osmapis" version="0.6">
	<node id="-37117" lat="60.2518833316" lon="11.158166663">
		<tag k="name" v="Bergerlinna" />
		<tag k="ssr:date" v="2016-05-10" />
		<tag k="ssr:gruppe" v="veg" />
		<tag k="ssr:hovedgruppe" v="infrastruktur" />
		<tag k="ssr:stedsnr" v="241289" />
		<tag k="ssr:type" v="vegstrekning" />
	</node>
	<node id="-37097" lat="60.1109416703" lon="11.2190027729">
		<tag k="name" v="Romerike" />
		<tag k="ssr:date" v="2016-05-10" />
		<tag k="ssr:gruppe" v="terrengområder" />
		<tag k="ssr:hovedgruppe" v="terreng" />
		<tag k="ssr:stedsnr" v="207296" />
		<tag k="ssr:type" v="landskapsområde" />
	</node>
	<node id="-36834" lat="60.2307277796" lon="11.1329166717">
		<tag k="name" v="Stasjonsvegen" />
		<tag k="ssr:date" v="2016-05-10" />
		<tag k="ssr:gruppe" v="veg" />
		<tag k="ssr:hovedgruppe" v="infrastruktur" />
		<tag k="ssr:stedsnr" v="360601" />
		<tag k="ssr:type" v="vegstrekning" />
	</node>
	<node id="-37205" lat="60.09900556" lon="11.1393444407">
		<tag k="name" v="Holumsletta" />
		<tag k="ssr:date" v="2016-05-10" />
		<tag k="ssr:gruppe" v="veg" />
		<tag k="ssr:hovedgruppe" v="infrastruktur" />
		<tag k="ssr:stedsnr" v="481361" />
		<tag k="ssr:type" v="vegstrekning" />
	</node>
	<node id="-36920" lat="60.1033072947" lon="11.2125487701">
		<tag k="name" v="Utsiktsvegen" />
		<tag k="ssr:date" v="2019-05-30" />
		<tag k="ssr:gruppe" v="veg" />
		<tag k="ssr:hovedgruppe" v="infrastruktur" />
		<tag k="ssr:stedsnr" v="993578" />
		<tag k="ssr:type" v="adressenavn" />
	</node>
	<node id="-36919" lat="60.0576491428" lon="11.1136906653">
		<tag k="name" v="Trondheimsvegen" />
		<tag k="ssr:date" v="2019-05-30" />
		<tag k="ssr:gruppe" v="veg" />
		<tag k="ssr:hovedgruppe" v="infrastruktur" />
		<tag k="ssr:stedsnr" v="993421" />
		<tag k="ssr:type" v="adressenavn" />
	</node>
	<node id="-36918" lat="60.0709962595" lon="11.1319049901">
		<tag k="name" v="Sofie Roes veg" />
		<tag k="ssr:date" v="2019-05-30" />
		<tag k="ssr:gruppe" v="veg" />
		<tag k="ssr:hovedgruppe" v="infrastruktur" />
		<tag k="ssr:stedsnr" v="993130" />
		<tag k="ssr:type" v="adressenavn" />
	</node>
	<node id="-36917" lat="60.1423020814" lon="11.1785762433">
		<tag k="name" v="Saggata" />
		<tag k="ssr:date" v="2019-05-30" />
		<tag k="ssr:gruppe" v="veg" />
		<tag k="ssr:hovedgruppe" v="infrastruktur" />
		<tag k="ssr:stedsnr" v="992875" />
		<tag k="ssr:type" v="adressenavn" />
	</node>
	<node id="-36916" lat="60.1935736598" lon="11.0993308151">
		<tag k="name" v="Sigrid Undseths plass" />
		<tag k="ssr:date" v="2019-05-30" />
		<tag k="ssr:gruppe" v="veg" />
		<tag k="ssr:hovedgruppe" v="infrastruktur" />
		<tag k="ssr:stedsnr" v="992784" />
		<tag k="ssr:type" v="adressenavn" />
	</node>
	<node id="-36915" lat="60.1407305963" lon="11.2294918258">
		<tag k="name" v="Reidar Bakkes veg" />
		<tag k="ssr:date" v="2019-05-30" />
		<tag k="ssr:gruppe" v="veg" />
		<tag k="ssr:hovedgruppe" v="infrastruktur" />
		<tag k="ssr:stedsnr" v="992440" />
		<tag k="ssr:type" v="adressenavn" />
	</node>
	<node id="-36914" lat="60.1112098801" lon="11.2963399579">
		<tag k="name" v="Restadvegen" />
		<tag k="ssr:date" v="2019-05-30" />
		<tag k="ssr:gruppe" v="veg" />
		<tag k="ssr:hovedgruppe" v="infrastruktur" />
		<tag k="ssr:stedsnr" v="992430" />
		<tag k="ssr:type" v="adressenavn" />
	</node>
	<node id="-36913" lat="60.1529312291" lon="11.1754400722">
		<tag k="name" v="Nordbytunet" />
		<tag k="ssr:date" v="2019-05-30" />
		<tag k="ssr:gruppe" v="veg" />
		<tag k="ssr:hovedgruppe" v="infrastruktur" />
		<tag k="ssr:stedsnr" v="992367" />
		<tag k="ssr:type" v="adressenavn" />
	</node>
	<node id="-36912" lat="60.1133997015" lon="11.2899739166">
		<tag k="name" v="Lørdagsrudvegen" />
		<tag k="ssr:date" v="2019-05-30" />
		<tag k="ssr:gruppe" v="veg" />
		<tag k="ssr:hovedgruppe" v="infrastruktur" />
		<tag k="ssr:stedsnr" v="992182" />
		<tag k="ssr:type" v="adressenavn" />
	</node>
	<node id="-36911" lat="60.1771310311" lon="11.1497018813">
		<tag k="name" v="Lautmovegen" />
		<tag k="ssr:date" v="2019-05-30" />
		<tag k="ssr:gruppe" v="veg" />
		<tag k="ssr:hovedgruppe" v="infrastruktur" />
		<tag k="ssr:stedsnr" v="992132" />
		<tag k="ssr:type" v="adressenavn" />
	</node>
	<node id="-36910" lat="60.1397207378" lon="11.2282779484">
		<tag k="name" v="Innersvingen" />
		<tag k="ssr:date" v="2019-05-30" />
		<tag k="ssr:gruppe" v="veg" />
		<tag k="ssr:hovedgruppe" v="infrastruktur" />
		<tag k="ssr:stedsnr" v="991416" />
		<tag k="ssr:type" v="adressenavn" />
	</node>
	<node id="-36909" lat="60.0725776794" lon="11.1450903379">
		<tag k="name" v="Eplehagen" />
		<tag k="ssr:date" v="2019-05-31" />
		<tag k="ssr:gruppe" v="veg" />
		<tag k="ssr:hovedgruppe" v="infrastruktur" />
		<tag k="ssr:stedsnr" v="1071318" />
		<tag k="ssr:type" v="adressenavn" />
	</node>
	<node id="-36897" lat="60.1534634962" lon="11.1710841816">
		<tag k="name" v="Grønnbekklia" />
		<tag k="ssr:date" v="2019-05-31" />
		<tag k="ssr:gruppe" v="veg" />
		<tag k="ssr:hovedgruppe" v="infrastruktur" />
		<tag k="ssr:stedsnr" v="1071664" />
		<tag k="ssr:type" v="adressenavn" />
	</node>
	<node id="-36896" lat="60.1030638339" lon="11.2110463786">
		<tag k="name" v="Furubakken" />
		<tag k="ssr:date" v="2019-05-31" />
		<tag k="ssr:gruppe" v="veg" />
		<tag k="ssr:hovedgruppe" v="infrastruktur" />
		<tag k="ssr:stedsnr" v="1071156" />
		<tag k="ssr:type" v="adressenavn" />
	</node>
	<node id="-36895" lat="60.1793808323" lon="11.3058388205">
		<tag k="name" v="Aurbergmoen" />
		<tag k="ssr:date" v="2019-05-31" />
		<tag k="ssr:gruppe" v="veg" />
		<tag k="ssr:hovedgruppe" v="infrastruktur" />
		<tag k="ssr:stedsnr" v="1070416" />
		<tag k="ssr:type" v="adressenavn" />
	</node>
	<node id="-36894" lat="60.0655788814" lon="11.1324718208">
		<tag k="name" v="Bakketunet" />
		<tag k="ssr:date" v="2019-05-31" />
		<tag k="ssr:gruppe" v="veg" />
		<tag k="ssr:hovedgruppe" v="infrastruktur" />
		<tag k="ssr:stedsnr" v="1069777" />
		<tag k="ssr:type" v="adressenavn" />
	</node>
	<node id="-37403" lat="60.2468277772" lon="11.1559194444">
		<tag k="name" v="Sessvollvegen" />
		<tag k="ssr:date" v="2016-05-10" />
		<tag k="ssr:gruppe" v="veg" />
		<tag k="ssr:hovedgruppe" v="infrastruktur" />
		<tag k="ssr:stedsnr" v="665337" />
		<tag k="ssr:type" v="vegstrekning" />
	</node>
	<node id="-37652" lat="60.5908609473" lon="9.63819281559">
		<tag k="fixme" v="multiple name tags, choose one and add the other to alt_name" />
		<tag k="name" v="Austlandet;Østlandet" />
		<tag k="ssr:date" v="2018-01-09" />
		<tag k="ssr:gruppe" v="administrativeIndelinger" />
		<tag k="ssr:hovedgruppe" v="offentligAdministrasjon" />
		<tag k="ssr:stedsnr" v="974775" />
		<tag k="ssr:type" v="annenAdministrativInndeling" />
	</node>
	<node id="-37004" lat="60.124494446" lon="11.2062944394">
		<tag k="name" v="Rambydalsvegen" />
		<tag k="ssr:date" v="2016-05-10" />
		<tag k="ssr:gruppe" v="veg" />
		<tag k="ssr:hovedgruppe" v="infrastruktur" />
		<tag k="ssr:stedsnr" v="102689" />
		<tag k="ssr:type" v="vegstrekning" />
	</node>
	<node id="-37000" lat="60.1440277761" lon="11.1744000015">
		<tag k="name" v="Ullensaker kommune" />
		<tag k="ssr:date" v="2016-05-10" />
		<tag k="ssr:gruppe" v="administrativeIndelinger" />
		<tag k="ssr:hovedgruppe" v="offentligAdministrasjon" />
		<tag k="ssr:stedsnr" v="86327" />
		<tag k="ssr:type" v="kommune" />
	</node>
</osm>
