<?xml version="1.0" encoding="UTF-8"?>
<osm version="0.6" generator="osmapis">
	<node lat="58.104719418423656" lon="7.005795602566866" id="-34014">
		<tag k="alt_name" v="Helleråsvannet" />
		<tag k="name" v="Helleråsvatnet" />
		<tag k="natural" v="water" />
		<tag k="ssr:stedsnr" v="508" />
	</node>
	<node lat="58.278338888166324" lon="7.085083332914224" id="-34015">
		<tag k="name" v="Svartevatnet" />
		<tag k="natural" v="water" />
		<tag k="ssr:stedsnr" v="515" />
	</node>
	<node lat="58.465217506455325" lon="7.4197850921092865" id="-34017">
		<tag k="alt_name" v="Brunstjønn" />
		<tag k="name" v="Bronstjørni" />
		<tag k="natural" v="water" />
		<tag k="ssr:stedsnr" v="555" />
	</node>
	<node lat="58.44670013337594" lon="7.390114143121372" id="-34026">
		<tag k="name" v="Buvatnet" />
		<tag k="natural" v="water" />
		<tag k="ssr:stedsnr" v="921" />
	</node>
	<node lat="58.22482777934336" lon="7.022602776199777" id="-34162">
		<tag k="name" v="Handelandsvann" />
		<tag k="natural" v="water" />
		<tag k="ssr:stedsnr" v="21004" />
		<tag k="water" v="lake" />
	</node>
	<node lat="58.20988610976293" lon="7.130997218631774" id="-34163">
		<tag k="name" v="Ytre Sagebekken" />
		<tag k="ssr:stedsnr" v="21045" />
		<tag k="waterway" v="stream" />
	</node>
	<node lat="58.21470278113822" lon="7.079994451670591" id="-34166">
		<tag k="name" v="Ålgardstjønn" />
		<tag k="natural" v="water" />
		<tag k="ssr:stedsnr" v="21096" />
	</node>
	<node lat="58.22562499842506" lon="7.089080548126646" id="-34167">
		<tag k="name" v="Kringletjønn" />
		<tag k="natural" v="water" />
		<tag k="ssr:stedsnr" v="21206" />
	</node>
	<node lat="58.25364999960235" lon="7.067286116568893" id="-34170">
		<tag k="name" v="Toftelandsvann" />
		<tag k="natural" v="water" />
		<tag k="ssr:stedsnr" v="21138" />
		<tag k="water" v="lake" />
	</node>
	<node lat="58.24379722234637" lon="7.079080555706388" id="-34172">
		<tag k="name" v="Mjåsundet" />
		<tag k="natural" v="strait" />
		<tag k="ssr:stedsnr" v="21153" />
	</node>
	<node lat="58.07262499944061" lon="7.024144450678988" id="-34185">
		<tag k="name" v="Rotjønn" />
		<tag k="natural" v="water" />
		<tag k="ssr:stedsnr" v="21702" />
	</node>
	<node lat="58.08792499615247" lon="7.117925003463145" id="-34200">
		<tag k="name" v="Ytre Steinslandsvannet" />
		<tag k="natural" v="water" />
		<tag k="ssr:stedsnr" v="21844" />
		<tag k="water" v="lake" />
	</node>
	<node lat="58.109913886132986" lon="7.029394444842116" id="-34217">
		<tag k="name" v="Nesodden" />
		<tag k="natural" v="cape" />
		<tag k="ssr:stedsnr" v="24187" />
	</node>
	<node lat="58.45164166893383" lon="7.397247224377363" id="-34239">
		<tag k="name" v="Krossvatn" />
		<tag k="natural" v="water" />
		<tag k="ssr:stedsnr" v="36118" />
		<tag k="water" v="lake" />
	</node>
	<node lat="58.50234722169736" lon="7.493263880333167" id="-34242">
		<tag k="name" v="Verdalsbekken" />
		<tag k="ssr:stedsnr" v="36182" />
		<tag k="waterway" v="stream" />
	</node>
	<node lat="58.38349444293498" lon="7.403672213956209" id="-34245">
		<tag k="name" v="Dyblan" />
		<tag k="natural" v="water" />
		<tag k="ssr:stedsnr" v="36212" />
		<tag k="water" v="pond" />
	</node>
	<node lat="58.31107777338652" lon="7.3617500035901156" id="-34253">
		<tag k="name" v="Storøy" />
		<tag k="natural" v="cape" />
		<tag k="ssr:stedsnr" v="36904" />
	</node>
	<node lat="58.27584166467982" lon="7.376950007669197" id="-34261">
		<tag k="loc_name" v="Sauekjødnå" />
		<tag k="name" v="Sauetjønn" />
		<tag k="natural" v="water" />
		<tag k="ssr:stedsnr" v="36865" />
	</node>
	<node lat="58.468366662805984" lon="7.459322228297366" id="-34277">
		<tag k="name" v="Mandalselva" />
		<tag k="ssr:stedsnr" v="37174" />
		<tag k="waterway" v="river" />
	</node>
	<node lat="58.14010832888438" lon="6.951747217570733" id="-34284">
		<tag k="name" v="Skulpetjønna" />
		<tag k="natural" v="water" />
		<tag k="ssr:stedsnr" v="42525" />
	</node>
	<node lat="58.15764755716774" lon="6.89929415792521" id="-34395">
		<tag k="alt_name" v="Sandvann" />
		<tag k="name" v="Sandvatnet" />
		<tag k="natural" v="water" />
		<tag k="ssr:stedsnr" v="61216" />
	</node>
	<node lat="58.25899061994408" lon="7.14005730345357" id="-34405">
		<tag k="alt_name" v="Sandvann" />
		<tag k="name" v="Sandvatnet" />
		<tag k="natural" v="water" />
		<tag k="ssr:stedsnr" v="61608" />
	</node>
	<node lat="58.20944473502755" lon="6.932228565690124" id="-34423">
		<tag k="alt_name" v="Slåttetjødna" />
		<tag k="name" v="Slåttetjørna" />
		<tag k="natural" v="water" />
		<tag k="ssr:stedsnr" v="243145" />
	</node>
	<node lat="58.120922040902435" lon="7.085445507863553" id="-34431">
		<tag k="name" v="Åveslandsvannet" />
		<tag k="natural" v="water" />
		<tag k="ssr:stedsnr" v="243567" />
		<tag k="water" v="lake" />
	</node>
	<node lat="58.22157222636656" lon="7.337994437691158" id="-34439">
		<tag k="alt_name" v="Audnedalselva" />
		<tag k="name" v="Audna" />
		<tag k="ssr:stedsnr" v="243429" />
		<tag k="waterway" v="river" />
	</node>
	<node lat="58.28156949739749" lon="7.314054062552419" id="-34442">
		<tag k="alt_name" v="Austre Surtevatn" />
		<tag k="name" v="Surtevatnet" />
		<tag k="natural" v="water" />
		<tag k="ssr:stedsnr" v="243512" />
	</node>
	<node lat="58.34049877727059" lon="7.335305614028466" id="-34444">
		<tag k="alt_name" v="Åletjødn" />
		<tag k="loc_name" v="Åltjønn" />
		<tag k="name" v="Åltjørna" />
		<tag k="natural" v="water" />
		<tag k="ssr:stedsnr" v="243574" />
	</node>
	<node lat="58.21463888702632" lon="7.096569436758199" id="-34458">
		<tag k="name" v="Stemmen" />
		<tag k="natural" v="water" />
		<tag k="ssr:stedsnr" v="82188" />
	</node>
	<node lat="58.17803889084691" lon="7.076694437516869" id="-34471">
		<tag k="name" v="Galtetjønn" />
		<tag k="natural" v="water" />
		<tag k="ssr:stedsnr" v="82408" />
	</node>
	<node lat="58.15353888906215" lon="7.073019449941104" id="-34491">
		<tag k="name" v="Banken" />
		<tag k="natural" v="shoal" />
		<tag k="ssr:stedsnr" v="82909" />
	</node>
	<node lat="58.15519166746921" lon="7.205463896722165" id="-34494">
		<tag k="name" v="Treskebekken" />
		<tag k="ssr:stedsnr" v="83512" />
		<tag k="waterway" v="stream" />
	</node>
	<node lat="58.49245555926386" lon="7.51815833525305" id="-34501">
		<tag k="name" v="Moltetjønn" />
		<tag k="natural" v="water" />
		<tag k="ssr:stedsnr" v="97159" />
	</node>
	<node lat="58.48236944090949" lon="7.507111103488396" id="-34502">
		<tag k="name" v="Kartetjønn" />
		<tag k="natural" v="water" />
		<tag k="ssr:stedsnr" v="97162" />
	</node>
	<node lat="58.4979972188019" lon="7.488797220898077" id="-34504">
		<tag k="name" v="Breiva" />
		<tag k="place" v="locality" />
		<tag k="ssr:stedsnr" v="97216" />
	</node>
	<node lat="58.290174996715855" lon="7.355177781518887" id="-34508">
		<tag k="name" v="Audnaelva" />
		<tag k="ssr:stedsnr" v="97285" />
		<tag k="waterway" v="river" />
	</node>
	<node lat="58.27029849165281" lon="7.416726430551492" id="-34514">
		<tag k="loc_name" v="Heddevanne" />
		<tag k="name" v="Heddevann" />
		<tag k="natural" v="water" />
		<tag k="ssr:stedsnr" v="97780" />
	</node>
	<node lat="58.32787777528158" lon="7.285447225445703" id="-34515">
		<tag k="name" v="Døynå" />
		<tag k="place" v="island" />
		<tag k="ssr:stedsnr" v="97786" />
	</node>
	<node lat="58.29509166543759" lon="7.288036106734027" id="-34517">
		<tag k="name" v="Smørtjødn" />
		<tag k="natural" v="water" />
		<tag k="ssr:stedsnr" v="97918" />
	</node>
	<node lat="58.26512778052975" lon="7.403152769652298" id="-34521">
		<tag k="name" v="Bustadtjønn" />
		<tag k="natural" v="water" />
		<tag k="ssr:stedsnr" v="97864" />
	</node>
	<node lat="58.36583611418597" lon="7.3551250066102" id="-34523">
		<tag k="name" v="Høylandsbekken" />
		<tag k="ssr:stedsnr" v="98019" />
		<tag k="waterway" v="stream" />
	</node>
	<node lat="58.415961109878154" lon="7.401447230690856" id="-34524">
		<tag k="loc_name" v="Sandsodden" />
		<tag k="name" v="Neset" />
		<tag k="natural" v="cape" />
		<tag k="ssr:stedsnr" v="98063" />
	</node>
	<node lat="58.301108332560176" lon="7.386791672543833" id="-34606">
		<tag k="name" v="Stemmetjørn" />
		<tag k="natural" v="water" />
		<tag k="ssr:stedsnr" v="303845" />
	</node>
	<node lat="58.22069846568274" lon="7.08636973413299" id="-34612">
		<tag k="alt_name" v="Krokevann" />
		<tag k="name" v="Krokevatnet" />
		<tag k="natural" v="water" />
		<tag k="ssr:stedsnr" v="121419" />
	</node>
	<node lat="58.27494375116827" lon="7.2397542592702555" id="-34615">
		<tag k="alt_name" v="Tjåmelandsvann" />
		<tag k="name" v="Tjåmelandsvatnet" />
		<tag k="natural" v="water" />
		<tag k="ssr:stedsnr" v="121502" />
	</node>
	<node lat="58.03850224733906" lon="6.998260922608886" id="-34626">
		<tag k="alt_name" v="Ramsjordvannet" />
		<tag k="name" v="Ramsjordvatnet" />
		<tag k="natural" v="water" />
		<tag k="ssr:stedsnr" v="121670" />
	</node>
	<node lat="58.405841669607746" lon="7.453736117578966" id="-34627">
		<tag k="alt_name" v="Lomestjønn" />
		<tag k="name" v="Lomtjørn" />
		<tag k="natural" v="water" />
		<tag k="ssr:stedsnr" v="121902" />
	</node>
	<node lat="58.25618333398259" lon="7.138666665775369" id="-34636">
		<tag k="name" v="Kalvetjønn" />
		<tag k="natural" v="water" />
		<tag k="ssr:stedsnr" v="142173" />
	</node>
	<node lat="58.18135555467376" lon="7.094891667847189" id="-34643">
		<tag k="name" v="Kvellandsfossen" />
		<tag k="natural" v="waterfall" />
		<tag k="ssr:stedsnr" v="142390" />
	</node>
	<node lat="58.14254722035432" lon="7.1993583269161565" id="-34650">
		<tag k="name" v="Kvarthusvann" />
		<tag k="natural" v="water" />
		<tag k="ssr:stedsnr" v="142409" />
		<tag k="water" v="lake" />
	</node>
	<node lat="58.131847218008815" lon="7.126125008305723" id="-34654">
		<tag k="name" v="Røydlandsvannet" />
		<tag k="natural" v="water" />
		<tag k="ssr:stedsnr" v="142417" />
		<tag k="water" v="lake" />
	</node>
	<node lat="58.156624999758044" lon="6.950930563265243" id="-34657">
		<tag k="name" v="Langetangen" />
		<tag k="natural" v="cape" />
		<tag k="ssr:stedsnr" v="142466" />
	</node>
	<node lat="58.156347223229425" lon="6.95204444187636" id="-34658">
		<tag k="name" v="Sandvika" />
		<tag k="natural" v="bay" />
		<tag k="ssr:stedsnr" v="142468" />
	</node>
	<node lat="58.15325833143814" lon="7.075733332163021" id="-34668">
		<tag k="name" v="Sandøya" />
		<tag k="place" v="island" />
		<tag k="ssr:stedsnr" v="142904" />
	</node>
	<node lat="58.203272222386154" lon="7.218111103309446" id="-34682">
		<tag k="name" v="Bjortjønn" />
		<tag k="natural" v="water" />
		<tag k="ssr:stedsnr" v="143534" />
	</node>
	<node lat="58.19391389135153" lon="7.207658328323001" id="-34684">
		<tag k="name" v="Moltetjønn" />
		<tag k="natural" v="water" />
		<tag k="ssr:stedsnr" v="143546" />
	</node>
	<node lat="58.089975002754386" lon="7.143344452420736" id="-34687">
		<tag k="name" v="Veddetjønna" />
		<tag k="natural" v="water" />
		<tag k="ssr:stedsnr" v="143917" />
	</node>
	<node lat="58.427880555068704" lon="7.443888894527046" id="-34701">
		<tag k="name" v="Suslebekk" />
		<tag k="ssr:stedsnr" v="158097" />
		<tag k="waterway" v="stream" />
	</node>
	<node lat="58.27581193068459" lon="7.387932451590786" id="-34715">
		<tag k="loc_name" v="Høylandstjødnå" />
		<tag k="name" v="Høylandstjønn" />
		<tag k="natural" v="water" />
		<tag k="ssr:stedsnr" v="158853" />
	</node>
	<node lat="58.219571947767705" lon="6.988783293655286" id="-34809">
		<tag k="alt_name" v="Iddelandsvannet" />
		<tag k="name" v="Iddelandsvatnet" />
		<tag k="natural" v="water" />
		<tag k="ssr:stedsnr" v="182423" />
	</node>
	<node lat="58.183166663426576" lon="7.062997223241408" id="-34810">
		<tag k="name" v="Møska" />
		<tag k="ssr:stedsnr" v="182455" />
		<tag k="waterway" v="river" />
	</node>
	<node lat="58.146799996335645" lon="7.029552776215749" id="-34811">
		<tag k="alt_name" v="Skurvåna" />
		<tag k="name" v="Skurvåa" />
		<tag k="ssr:stedsnr" v="182465" />
		<tag k="waterway" v="river" />
	</node>
	<node lat="58.29287095507256" lon="7.1617393380861945" id="-34814">
		<tag k="alt_name" v="Espelandsvatnet, yt" />
		<tag k="name" v="Ytre Espelandsvatnet" />
		<tag k="natural" v="water" />
		<tag k="ssr:stedsnr" v="182516" />
	</node>
	<node lat="58.2120444416" lon="7.052386104231089" id="-34825">
		<tag k="name" v="Fruetjønn" />
		<tag k="natural" v="water" />
		<tag k="ssr:stedsnr" v="264010" />
	</node>
	<node lat="58.192561114262105" lon="7.074466672264883" id="-34827">
		<tag k="name" v="Geitebutjønn" />
		<tag k="natural" v="water" />
		<tag k="ssr:stedsnr" v="264019" />
	</node>
	<node lat="58.18966388596051" lon="7.093094438946537" id="-34837">
		<tag k="name" v="Grimshammerbekken" />
		<tag k="ssr:stedsnr" v="264391" />
		<tag k="waterway" v="stream" />
	</node>
	<node lat="58.141455552427466" lon="7.212194449755536" id="-34840">
		<tag k="name" v="Kvennebekken" />
		<tag k="ssr:stedsnr" v="264415" />
		<tag k="waterway" v="stream" />
	</node>
	<node lat="58.14036666966995" lon="7.121472214701124" id="-34841">
		<tag k="name" v="Tvitjønn" />
		<tag k="natural" v="water" />
		<tag k="ssr:stedsnr" v="264417" />
	</node>
	<node lat="58.20576666513616" lon="7.023713882989935" id="-34846">
		<tag k="name" v="Igletjønn" />
		<tag k="natural" v="water" />
		<tag k="ssr:stedsnr" v="264051" />
	</node>
	<node lat="58.20560833552809" lon="7.109619447343172" id="-34855">
		<tag k="name" v="Lundebekken" />
		<tag k="ssr:stedsnr" v="264103" />
		<tag k="waterway" v="stream" />
	</node>
	<node lat="58.201963885605906" lon="7.100641662589493" id="-34856">
		<tag k="name" v="Utlandsvann" />
		<tag k="natural" v="water" />
		<tag k="ssr:stedsnr" v="264107" />
		<tag k="water" v="lake" />
	</node>
	<node lat="58.275419445235435" lon="7.083936106849278" id="-34860">
		<tag k="name" v="Stemlona" />
		<tag k="natural" v="water" />
		<tag k="ssr:stedsnr" v="264134" />
	</node>
	<node lat="58.244047225265206" lon="7.204299999330344" id="-34862">
		<tag k="name" v="Åmlilona" />
		<tag k="natural" v="water" />
		<tag k="ssr:stedsnr" v="264210" />
		<tag k="water" v="lake" />
	</node>
	<node lat="58.237722225501955" lon="7.191202785448022" id="-34866">
		<tag k="name" v="Sjurslona" />
		<tag k="natural" v="water" />
		<tag k="ssr:stedsnr" v="264222" />
		<tag k="water" v="lake" />
	</node>
	<node lat="58.17913888731206" lon="6.995044444495778" id="-34879">
		<tag k="name" v="Rikketjønn" />
		<tag k="natural" v="water" />
		<tag k="ssr:stedsnr" v="264471" />
	</node>
	<node lat="58.26077499887125" lon="7.157605554699759" id="-34884">
		<tag k="name" v="Sandlona" />
		<tag k="natural" v="water" />
		<tag k="ssr:stedsnr" v="264575" />
		<tag k="water" v="lake" />
	</node>
	<node lat="58.1382083297983" lon="6.963527781260589" id="-34890">
		<tag k="name" v="Lonefjelltjønna" />
		<tag k="natural" v="water" />
		<tag k="ssr:stedsnr" v="264754" />
	</node>
	<node lat="58.22430277950967" lon="7.234261115596476" id="-34896">
		<tag k="name" v="Tvitjønn" />
		<tag k="natural" v="water" />
		<tag k="ssr:stedsnr" v="264621" />
	</node>
	<node lat="58.18018055750691" lon="7.14227778495148" id="-34906">
		<tag k="name" v="Blesetjønna" />
		<tag k="natural" v="water" />
		<tag k="ssr:stedsnr" v="264978" />
	</node>
	<node lat="58.23954024213914" lon="7.4084639219242145" id="-34913">
		<tag k="name" v="Hunnsevannet" />
		<tag k="natural" v="water" />
		<tag k="ssr:stedsnr" v="265286" />
		<tag k="water" v="lake" />
	</node>
	<node lat="58.2293999959188" lon="7.20698334088641" id="-34914">
		<tag k="name" v="Sollibekken" />
		<tag k="ssr:stedsnr" v="265288" />
		<tag k="waterway" v="stream" />
	</node>
	<node lat="58.21434444043923" lon="7.147075007477055" id="-34918">
		<tag k="name" v="Rudjordsbekken" />
		<tag k="ssr:stedsnr" v="265320" />
		<tag k="waterway" v="stream" />
	</node>
	<node lat="58.20852500283708" lon="7.053775003515387" id="-34925">
		<tag k="name" v="Stemtjønn" />
		<tag k="natural" v="water" />
		<tag k="ssr:stedsnr" v="203014" />
	</node>
	<node lat="58.24463889110056" lon="7.055611112547489" id="-34930">
		<tag k="name" v="Bortjønna" />
		<tag k="natural" v="water" />
		<tag k="ssr:stedsnr" v="203089" />
	</node>
	<node lat="58.190683335793956" lon="7.187361103821212" id="-34934">
		<tag k="name" v="Buneset" />
		<tag k="natural" v="cape" />
		<tag k="ssr:stedsnr" v="203276" />
	</node>
	<node lat="58.261705554328316" lon="7.100552784439188" id="-34943">
		<tag k="name" v="Paddetjønn" />
		<tag k="natural" v="water" />
		<tag k="ssr:stedsnr" v="203188" />
	</node>
	<node lat="58.25210555925416" lon="7.227575002743515" id="-34957">
		<tag k="alt_name" v="Myklestøllona" />
		<tag k="name" v="Myglestøllona" />
		<tag k="natural" v="water" />
		<tag k="ssr:stedsnr" v="203648" />
	</node>
	<node lat="58.1752138868049" lon="7.197502776505613" id="-34960">
		<tag k="name" v="Svartevann" />
		<tag k="natural" v="water" />
		<tag k="ssr:stedsnr" v="203552" />
		<tag k="water" v="lake" />
	</node>
	<node lat="58.04965277550434" lon="7.012422227782839" id="-34966">
		<tag k="name" v="Øygardsholman" />
		<tag k="place" v="island" />
		<tag k="ssr:stedsnr" v="203722" />
	</node>
	<node lat="58.047319442113356" lon="7.004522230581246" id="-34968">
		<tag k="name" v="Brennebukta" />
		<tag k="natural" v="bay" />
		<tag k="ssr:stedsnr" v="203741" />
	</node>
	<node lat="58.11144444027754" lon="6.980411115866015" id="-34969">
		<tag k="name" v="Bordalsvannet" />
		<tag k="natural" v="water" />
		<tag k="ssr:stedsnr" v="203753" />
		<tag k="water" v="lake" />
	</node>
	<node lat="58.188705554318545" lon="7.188127774616398" id="-34970">
		<tag k="name" v="Midvannet" />
		<tag k="natural" v="water" />
		<tag k="ssr:stedsnr" v="203990" />
		<tag k="water" v="lake" />
	</node>
	<node lat="58.14810076526778" lon="7.178703394679537" id="-34976">
		<tag k="name" v="Tvitjønnene" />
		<tag k="natural" v="water" />
		<tag k="ssr:stedsnr" v="204905" />
		<tag k="water" v="lake" />
	</node>
	<node lat="58.238084078658474" lon="7.26317503806037" id="-35103">
		<tag k="alt_name" v="Homevannet" />
		<tag k="name" v="Homevatnet" />
		<tag k="natural" v="water" />
		<tag k="ssr:stedsnr" v="243434" />
	</node>
	<node lat="58.226705235859534" lon="7.0441625432762045" id="-35104">
		<tag k="alt_name" v="Hellevann" />
		<tag k="name" v="Hellevatnet" />
		<tag k="natural" v="water" />
		<tag k="ssr:stedsnr" v="243437" />
		<tag k="water" v="lake" />
	</node>
	<node lat="58.43871533090492" lon="7.471428136127734" id="-35112">
		<tag k="alt_name" v="Bjorvann" />
		<tag k="name" v="Bjorvatnet" />
		<tag k="natural" v="water" />
		<tag k="ssr:stedsnr" v="243934" />
	</node>
	<node lat="58.27785137944062" lon="7.084654795080948" id="-35126">
		<tag k="name" v="Svartevann" />
		<tag k="natural" v="water" />
		<tag k="ssr:stedsnr" v="264185" />
		<tag k="water" v="lake" />
	</node>
	<node lat="58.19291944334906" lon="7.142152784708076" id="-35128">
		<tag k="name" v="Grautestemmen" />
		<tag k="natural" v="water" />
		<tag k="ssr:stedsnr" v="264198" />
		<tag k="water" v="lake" />
	</node>
	<node lat="58.130672218047806" lon="7.095433341349908" id="-35132">
		<tag k="name" v="Madlandsstemmen" />
		<tag k="natural" v="bay" />
		<tag k="ssr:stedsnr" v="264408" />
	</node>
	<node lat="58.14860278138167" lon="7.138194452495167" id="-35137">
		<tag k="name" v="Kjeddingtjønn" />
		<tag k="natural" v="water" />
		<tag k="ssr:stedsnr" v="264440" />
	</node>
	<node lat="58.24004999632354" lon="7.238791674768587" id="-35141">
		<tag k="name" v="Indre Dynjevann" />
		<tag k="natural" v="water" />
		<tag k="ssr:stedsnr" v="264603" />
		<tag k="water" v="lake" />
	</node>
	<node lat="58.140152777259985" lon="7.050986110060466" id="-35161">
		<tag k="name" v="Spregla" />
		<tag k="natural" v="bay" />
		<tag k="ssr:stedsnr" v="264890" />
	</node>
	<node lat="58.141658330476055" lon="7.051019450508217" id="-35162">
		<tag k="name" v="Bergeøya" />
		<tag k="natural" v="cape" />
		<tag k="ssr:stedsnr" v="264894" />
	</node>
	<node lat="58.349000004227086" lon="7.3669888811505055" id="-35178">
		<tag k="name" v="Grasvika" />
		<tag k="natural" v="bay" />
		<tag k="ssr:stedsnr" v="279213" />
	</node>
	<node lat="58.35348610667572" lon="7.316402778839118" id="-35180">
		<tag k="name" v="Ivelandstjødnå" />
		<tag k="natural" v="water" />
		<tag k="ssr:stedsnr" v="279223" />
	</node>
	<node lat="58.26788611306461" lon="7.282933335677422" id="-35186">
		<tag k="loc_name" v="Hestosen" />
		<tag k="name" v="Hesten" />
		<tag k="ssr:stedsnr" v="279827" />
		<tag k="waterway" v="stream" />
	</node>
	<node lat="58.27656221327329" lon="7.401000052595317" id="-35189">
		<tag k="loc_name" v="Kålvedalskjødnå" />
		<tag k="name" v="Kålvedalstjønn" />
		<tag k="natural" v="water" />
		<tag k="ssr:stedsnr" v="279778" />
	</node>
	<node lat="58.293472221537606" lon="7.324797223322267" id="-35193">
		<tag k="name" v="Stemmen" />
		<tag k="ssr:stedsnr" v="279920" />
		<tag k="waterway" v="dam" />
	</node>
	<node lat="58.28721944810955" lon="7.330644448766747" id="-35194">
		<tag k="name" v="Nepstadtjønn" />
		<tag k="natural" v="water" />
		<tag k="ssr:stedsnr" v="279926" />
	</node>
	<node lat="58.31487777647764" lon="7.298186107227583" id="-35196">
		<tag k="name" v="Sundskilen" />
		<tag k="natural" v="bay" />
		<tag k="ssr:stedsnr" v="279880" />
	</node>
	<node lat="58.31137222425412" lon="7.31143056155143" id="-35197">
		<tag k="name" v="Lomstjønn" />
		<tag k="natural" v="water" />
		<tag k="ssr:stedsnr" v="279882" />
	</node>
	<node lat="58.30896944194893" lon="7.325800000770998" id="-35198">
		<tag k="loc_name" v="Furedræte" />
		<tag k="name" v="Furedretten" />
		<tag k="natural" v="cape" />
		<tag k="ssr:stedsnr" v="279884" />
	</node>
	<node lat="58.381152778942926" lon="7.37296666456932" id="-35200">
		<tag k="name" v="Osen" />
		<tag k="natural" v="bay" />
		<tag k="ssr:stedsnr" v="280008" />
	</node>
	<node lat="58.37078610997406" lon="7.372272227403925" id="-35201">
		<tag k="name" v="Skjeistokken" />
		<tag k="natural" v="cape" />
		<tag k="ssr:stedsnr" v="280014" />
	</node>
	<node lat="58.34485833467249" lon="7.372486114647403" id="-35212">
		<tag k="name" v="Sundet" />
		<tag k="natural" v="strait" />
		<tag k="ssr:stedsnr" v="461230" />
	</node>
	<node lat="58.34781388979597" lon="7.374894452906149" id="-35214">
		<tag k="name" v="Staksholmen" />
		<tag k="natural" v="cape" />
		<tag k="ssr:stedsnr" v="461236" />
	</node>
	<node lat="58.295755559947615" lon="7.361169442819994" id="-35218">
		<tag k="name" v="Hunsdalsbekken" />
		<tag k="ssr:stedsnr" v="461316" />
		<tag k="waterway" v="stream" />
	</node>
	<node lat="58.40077500147188" lon="7.390444449421578" id="-35267">
		<tag k="loc_name" v="Heimra Sandvikjæ" />
		<tag k="name" v="Sandvika" />
		<tag k="natural" v="bay" />
		<tag k="ssr:stedsnr" v="462044" />
	</node>
	<node lat="58.43540874362188" lon="7.382498075478121" id="-35274">
		<tag k="loc_name" v="Kittelsvannæ" />
		<tag k="name" v="Kitelsvatn" />
		<tag k="natural" v="water" />
		<tag k="ssr:stedsnr" v="462094" />
	</node>
	<node lat="58.43658889308921" lon="7.476202780458455" id="-35288">
		<tag k="name" v="Kringletjønn" />
		<tag k="natural" v="water" />
		<tag k="ssr:stedsnr" v="462105" />
	</node>
	<node lat="58.295705553824774" lon="7.19938332933911" id="-35306">
		<tag k="name" v="Lygna" />
		<tag k="ssr:stedsnr" v="462443" />
		<tag k="waterway" v="river" />
	</node>
	<node lat="58.155400110449115" lon="7.225217317076323" id="-35352">
		<tag k="alt_name" v="Rødlandsvann" />
		<tag k="name" v="Rødlendsvatnet" />
		<tag k="natural" v="water" />
		<tag k="ssr:stedsnr" v="303485" />
	</node>
	<node lat="58.25287857225204" lon="7.11156467578648" id="-35360">
		<tag k="alt_name" v="Hestadvann" />
		<tag k="name" v="Hestadvatnet" />
		<tag k="natural" v="water" />
		<tag k="ssr:stedsnr" v="303615" />
	</node>
	<node lat="58.291723114725194" lon="7.299989371002133" id="-35364">
		<tag k="alt_name" v="Måkevatn" />
		<tag k="name" v="Måkevatnet" />
		<tag k="natural" v="water" />
		<tag k="ssr:stedsnr" v="303524" />
	</node>
	<node lat="58.290594337956726" lon="7.232302906343383" id="-35365">
		<tag k="alt_name" v="Krokvann" />
		<tag k="name" v="Krokevatnet" />
		<tag k="natural" v="water" />
		<tag k="ssr:stedsnr" v="303527" />
	</node>
	<node lat="58.48897777755701" lon="7.4898333350681225" id="-35369">
		<tag k="name" v="Langedalsbekken" />
		<tag k="ssr:stedsnr" v="303594" />
		<tag k="waterway" v="stream" />
	</node>
	<node lat="58.35530338157534" lon="7.373179403376451" id="-35375">
		<tag k="alt_name" v="Ytre Øydnevann" />
		<tag k="loc_name" v="Ytre Øydnevannet" />
		<tag k="name" v="Ytre Øydnavatnet" />
		<tag k="natural" v="water" />
		<tag k="ssr:stedsnr" v="303973" />
		<tag k="water" v="lake" />
	</node>
	<node lat="58.254255555555254" lon="7.072027774408311" id="-35382">
		<tag k="name" v="Gulltjønn" />
		<tag k="natural" v="water" />
		<tag k="ssr:stedsnr" v="324114" />
	</node>
	<node lat="58.21654444267262" lon="7.073961114945177" id="-35384">
		<tag k="name" v="Igletjønn" />
		<tag k="natural" v="water" />
		<tag k="ssr:stedsnr" v="324078" />
	</node>
	<node lat="58.2263805519818" lon="7.034202785501142" id="-35385">
		<tag k="name" v="Hellenesodden" />
		<tag k="natural" v="cape" />
		<tag k="ssr:stedsnr" v="324080" />
	</node>
	<node lat="58.20732500279478" lon="7.148808338852713" id="-35391">
		<tag k="name" v="Svinetjønn" />
		<tag k="natural" v="water" />
		<tag k="ssr:stedsnr" v="324269" />
	</node>
	<node lat="58.228652779272224" lon="7.100669440254007" id="-35395">
		<tag k="name" v="Vidringstadvann" />
		<tag k="natural" v="water" />
		<tag k="ssr:stedsnr" v="324177" />
		<tag k="water" v="lake" />
	</node>
	<node lat="58.15775277834798" lon="7.218872217937941" id="-35399">
		<tag k="name" v="Hestsundet" />
		<tag k="natural" v="strait" />
		<tag k="ssr:stedsnr" v="324377" />
	</node>
	<node lat="58.103274996232734" lon="6.991394444672937" id="-35417">
		<tag k="name" v="Skiftestjønn" />
		<tag k="natural" v="water" />
		<tag k="ssr:stedsnr" v="324739" />
	</node>
	<node lat="58.176726438181255" lon="6.921091072548867" id="-35419">
		<tag k="name" v="Hunsvann" />
		<tag k="natural" v="water" />
		<tag k="ssr:stedsnr" v="324748" />
		<tag k="water" v="lake" />
	</node>
	<node lat="58.0854222205031" lon="7.135077770635829" id="-35422">
		<tag k="name" v="Åmlandstjønna" />
		<tag k="natural" v="water" />
		<tag k="ssr:stedsnr" v="324842" />
	</node>
	<node lat="58.14010769189386" lon="7.234359482013681" id="-35428">
		<tag k="name" v="Mjåsund" />
		<tag k="place" v="locality" />
		<tag k="ssr:stedsnr" v="325821" />
	</node>
	<node lat="58.38948055271277" lon="7.373427776143591" id="-35437">
		<tag k="name" v="Bladalsvika" />
		<tag k="natural" v="bay" />
		<tag k="ssr:stedsnr" v="340051" />
	</node>
	<node lat="58.49719167109135" lon="7.481305547873698" id="-35440">
		<tag k="name" v="Stebekken" />
		<tag k="ssr:stedsnr" v="340217" />
		<tag k="waterway" v="stream" />
	</node>
	<node lat="58.47874166416597" lon="7.426858326024149" id="-35449">
		<tag k="name" v="Hoggefossen" />
		<tag k="natural" v="waterfall" />
		<tag k="ssr:stedsnr" v="340160" />
	</node>
	<node lat="58.3757138890762" lon="7.358816673784957" id="-35451">
		<tag k="name" v="Fjaddebekken" />
		<tag k="ssr:stedsnr" v="340343" />
		<tag k="waterway" v="stream" />
	</node>
	<node lat="58.30423889087665" lon="7.380163886515519" id="-35461">
		<tag k="name" v="Biktjønn" />
		<tag k="natural" v="water" />
		<tag k="ssr:stedsnr" v="340906" />
	</node>
	<node lat="58.29190555355374" lon="7.370266669416201" id="-35462">
		<tag k="name" v="Hestetjønn" />
		<tag k="natural" v="water" />
		<tag k="ssr:stedsnr" v="340916" />
	</node>
	<node lat="58.27392222389764" lon="7.344966668923674" id="-35465">
		<tag k="name" v="Bukketjønn" />
		<tag k="natural" v="water" />
		<tag k="ssr:stedsnr" v="340815" />
	</node>
	<node lat="58.401752779383564" lon="7.328030556735636" id="-35699">
		<tag k="alt_name" v="Lona" />
		<tag k="name" v="Lonin" />
		<tag k="natural" v="water" />
		<tag k="ssr:stedsnr" v="364650" />
		<tag k="water" v="lake" />
	</node>
	<node lat="58.422093484141286" lon="7.339369826695145" id="-35701">
		<tag k="alt_name" v="Fossvatn" />
		<tag k="name" v="Fossvatnet" />
		<tag k="natural" v="water" />
		<tag k="ssr:stedsnr" v="364669" />
	</node>
	<node lat="58.42714166686995" lon="7.389730554204218" id="-35704">
		<tag k="name" v="Kvernbekken" />
		<tag k="ssr:stedsnr" v="364901" />
		<tag k="waterway" v="stream" />
	</node>
	<node lat="58.203952778341964" lon="7.0372694450545366" id="-35710">
		<tag k="name" v="Røyskårvannet" />
		<tag k="natural" v="water" />
		<tag k="ssr:stedsnr" v="385024" />
		<tag k="water" v="lake" />
	</node>
	<node lat="58.2393388902597" lon="7.03485833113721" id="-35712">
		<tag k="name" v="Lonan" />
		<tag k="natural" v="water" />
		<tag k="ssr:stedsnr" v="385101" />
		<tag k="water" v="lake" />
	</node>
	<node lat="58.268097222493864" lon="7.087583329584071" id="-35715">
		<tag k="name" v="Nilsetjønn" />
		<tag k="natural" v="water" />
		<tag k="ssr:stedsnr" v="385154" />
	</node>
	<node lat="58.263572219517" lon="7.227308326634444" id="-35723">
		<tag k="name" v="Fjellåna" />
		<tag k="ssr:stedsnr" v="385322" />
		<tag k="waterway" v="river" />
	</node>
	<node lat="58.15807778094397" lon="7.228955563015289" id="-35725">
		<tag k="name" v="Torvetjønn" />
		<tag k="natural" v="water" />
		<tag k="ssr:stedsnr" v="385366" />
	</node>
	<node lat="58.22088055826669" lon="7.174883332324271" id="-35728">
		<tag k="name" v="Skråmtjønn" />
		<tag k="natural" v="water" />
		<tag k="ssr:stedsnr" v="385296" />
	</node>
	<node lat="58.14149167109703" lon="6.950105553228431" id="-35740">
		<tag k="name" v="Sandtjønna" />
		<tag k="natural" v="water" />
		<tag k="ssr:stedsnr" v="385761" />
	</node>
	<node lat="58.16369999592836" lon="7.1975388863157965" id="-35760">
		<tag k="name" v="Elsetjønn" />
		<tag k="natural" v="water" />
		<tag k="ssr:stedsnr" v="386514" />
	</node>
	<node lat="58.3881000035288" lon="7.430999992661959" id="-35768">
		<tag k="name" v="Skogestemmen" />
		<tag k="ssr:stedsnr" v="400230" />
		<tag k="waterway" v="dam" />
	</node>
	<node lat="58.24215833584787" lon="7.396266669308223" id="-35774">
		<tag k="name" v="Lonen" />
		<tag k="natural" v="water" />
		<tag k="ssr:stedsnr" v="400883" />
		<tag k="water" v="lake" />
	</node>
	<node lat="58.4042444436382" lon="7.388961103339125" id="-35780">
		<tag k="name" v="Storasundet" />
		<tag k="natural" v="strait" />
		<tag k="ssr:stedsnr" v="401026" />
	</node>
	<node lat="58.32427499819728" lon="7.3049805476550835" id="-35792">
		<tag k="name" v="Ytre tjønna" />
		<tag k="natural" v="water" />
		<tag k="ssr:stedsnr" v="401994" />
	</node>
	<node lat="58.103225001170344" lon="6.991825001138673" id="-35799">
		<tag k="alt_name" v="Skiftestjønn" />
		<tag k="name" v="Skiftingstjørn" />
		<tag k="natural" v="water" />
		<tag k="ssr:stedsnr" v="485456" />
	</node>
	<node lat="58.28621276011305" lon="7.2451995608680795" id="-35800">
		<tag k="fixme" v="multiple name tags, choose one and add the other to alt_name" />
		<tag k="name" v="Hautjørna;Stemmen" />
		<tag k="natural" v="water" />
		<tag k="ssr:stedsnr" v="485457" />
	</node>
	<node lat="58.05242534354362" lon="7.013283609973105" id="-35805">
		<tag k="alt_name" v="Bervannet" />
		<tag k="name" v="Børrevatnet" />
		<tag k="natural" v="water" />
		<tag k="ssr:stedsnr" v="485532" />
	</node>
	<node lat="58.26563956428349" lon="7.124913139995712" id="-35809">
		<tag k="alt_name" v="Stemvann" />
		<tag k="name" v="Stemvatnet" />
		<tag k="natural" v="water" />
		<tag k="ssr:stedsnr" v="485572" />
	</node>
	<node lat="58.434555006207475" lon="7.321923012773354" id="-35815">
		<tag k="alt_name" v="Lølandslona" />
		<tag k="name" v="Lonin" />
		<tag k="natural" v="water" />
		<tag k="ssr:stedsnr" v="485632" />
	</node>
	<node lat="58.214975141314966" lon="7.024160291136724" id="-35917">
		<tag k="alt_name" v="Mjåvann" />
		<tag k="name" v="Mjåvatnet" />
		<tag k="natural" v="water" />
		<tag k="ssr:stedsnr" v="425420" />
	</node>
	<node lat="58.201186113522645" lon="7.124005562892266" id="-35921">
		<tag k="alt_name" v="Lyngdalselva" />
		<tag k="name" v="Lygna" />
		<tag k="ssr:stedsnr" v="425448" />
		<tag k="waterway" v="river" />
	</node>
	<node lat="58.14761666520618" lon="7.008761108804862" id="-35922">
		<tag k="alt_name" v="Fivelandsvannet" />
		<tag k="name" v="Fivelandsvatnet" />
		<tag k="natural" v="water" />
		<tag k="ssr:stedsnr" v="425457" />
	</node>
	<node lat="58.142116695870385" lon="7.135568908083851" id="-35923">
		<tag k="alt_name" v="Vestervannet" />
		<tag k="name" v="Vestervatnet" />
		<tag k="natural" v="water" />
		<tag k="ssr:stedsnr" v="425459" />
	</node>
	<node lat="58.14168935905583" lon="7.2083271032372735" id="-35926">
		<tag k="alt_name" v="Mjåvann" />
		<tag k="name" v="Mjåvatnet" />
		<tag k="natural" v="water" />
		<tag k="ssr:stedsnr" v="425513" />
	</node>
	<node lat="58.11801780797833" lon="7.161578952935711" id="-35928">
		<tag k="alt_name" v="Auglandsvannet" />
		<tag k="name" v="Auglandsvatnet" />
		<tag k="natural" v="water" />
		<tag k="ssr:stedsnr" v="425531" />
	</node>
	<node lat="58.47194182174927" lon="7.410096192623655" id="-35930">
		<tag k="alt_name" v="Hålandstjønn" />
		<tag k="name" v="Hålandstjørni" />
		<tag k="natural" v="water" />
		<tag k="ssr:stedsnr" v="425550" />
	</node>
	<node lat="58.43570000016119" lon="7.357699995460798" id="-35934">
		<tag k="alt_name" v="Våråna" />
		<tag k="loc_name" v="Ånæ" />
		<tag k="name" v="Vårdalsåni" />
		<tag k="ssr:stedsnr" v="425917" />
		<tag k="waterway" v="river" />
	</node>
	<node lat="58.23706388537823" lon="7.069655561949655" id="-35937">
		<tag k="name" v="Lauseholmen" />
		<tag k="place" v="islet" />
		<tag k="ssr:stedsnr" v="446083" />
	</node>
	<node lat="58.23496944718493" lon="7.052077780227696" id="-35938">
		<tag k="name" v="Troddevann" />
		<tag k="natural" v="water" />
		<tag k="ssr:stedsnr" v="446090" />
		<tag k="water" v="lake" />
	</node>
	<node lat="58.22057222388766" lon="7.109811114296938" id="-35942">
		<tag k="name" v="Tandelbekken" />
		<tag k="ssr:stedsnr" v="446230" />
		<tag k="waterway" v="stream" />
	</node>
	<node lat="58.17811666762101" lon="7.236819444420642" id="-35954">
		<tag k="name" v="Bervannstjønn" />
		<tag k="natural" v="water" />
		<tag k="ssr:stedsnr" v="446382" />
	</node>
	<node lat="58.1589416633486" lon="6.994508338713872" id="-35972">
		<tag k="name" v="Refstjønna" />
		<tag k="natural" v="water" />
		<tag k="ssr:stedsnr" v="446781" />
	</node>
	<node lat="58.26125555558759" lon="7.421899997005441" id="-35994">
		<tag k="name" v="Lauvdalstjønn" />
		<tag k="natural" v="water" />
		<tag k="ssr:stedsnr" v="461768" />
	</node>
	<node lat="58.25737500133977" lon="7.427661111984267" id="-35995">
		<tag k="name" v="Heiestemmen" />
		<tag k="natural" v="water" />
		<tag k="ssr:stedsnr" v="461777" />
	</node>
	<node lat="58.359236107973956" lon="7.3672916728121365" id="-36004">
		<tag k="name" v="Sandvika" />
		<tag k="natural" v="bay" />
		<tag k="ssr:stedsnr" v="462967" />
	</node>
	<node lat="58.215898735767226" lon="7.045250079379284" id="-36095">
		<tag k="alt_name" v="Måkevann" />
		<tag k="name" v="Måkevatnet" />
		<tag k="natural" v="water" />
		<tag k="ssr:stedsnr" v="485367" />
	</node>
	<node lat="58.17390292866558" lon="7.234214292815316" id="-36098">
		<tag k="alt_name" v="Grimevann" />
		<tag k="name" v="Grimevatnet" />
		<tag k="natural" v="water" />
		<tag k="ssr:stedsnr" v="485434" />
	</node>
	<node lat="58.30649280921048" lon="7.312289974923939" id="-36101">
		<tag k="alt_name" v="Sobelitjønn" />
		<tag k="name" v="Såpetjørna" />
		<tag k="natural" v="water" />
		<tag k="ssr:stedsnr" v="485480" />
	</node>
	<node lat="58.22751111216937" lon="7.017274998662744" id="-36109">
		<tag k="name" v="Hestvadhølen" />
		<tag k="place" v="locality" />
		<tag k="ssr:stedsnr" v="506057" />
	</node>
	<node lat="58.19238333182707" lon="7.137230558853786" id="-36113">
		<tag k="name" v="Skiftingstjønn" />
		<tag k="natural" v="water" />
		<tag k="ssr:stedsnr" v="506110" />
	</node>
	<node lat="58.190852775680526" lon="7.112258331859634" id="-36114">
		<tag k="name" v="Dyrøya" />
		<tag k="place" v="island" />
		<tag k="ssr:stedsnr" v="506119" />
	</node>
	<node lat="58.249438886924196" lon="7.079016669383235" id="-36115">
		<tag k="name" v="Rabnevann" />
		<tag k="natural" v="water" />
		<tag k="ssr:stedsnr" v="506120" />
		<tag k="water" v="lake" />
	</node>
	<node lat="58.25001389045835" lon="7.108808336637207" id="-36119">
		<tag k="name" v="Skrømtebukt" />
		<tag k="natural" v="bay" />
		<tag k="ssr:stedsnr" v="506402" />
	</node>
	<node lat="58.243372220403394" lon="7.139219440558922" id="-36132">
		<tag k="name" v="Logelona" />
		<tag k="natural" v="water" />
		<tag k="ssr:stedsnr" v="506515" />
		<tag k="water" v="lake" />
	</node>
	<node lat="58.197043719606214" lon="7.229299384364641" id="-36135">
		<tag k="name" v="Sådemyrvann" />
		<tag k="natural" v="water" />
		<tag k="ssr:stedsnr" v="506616" />
		<tag k="water" v="lake" />
	</node>
	<node lat="58.18011667079689" lon="7.161894447851858" id="-36148">
		<tag k="name" v="Lometjønna" />
		<tag k="natural" v="water" />
		<tag k="ssr:stedsnr" v="506977" />
	</node>
	<node lat="58.16340555599374" lon="7.209477769808734" id="-36150">
		<tag k="name" v="Sauetjønn" />
		<tag k="natural" v="water" />
		<tag k="ssr:stedsnr" v="507504" />
	</node>
	<node lat="58.25491388688731" lon="7.257930557470671" id="-36154">
		<tag k="name" v="Geitetjønn" />
		<tag k="natural" v="water" />
		<tag k="ssr:stedsnr" v="507410" />
	</node>
	<node lat="58.1161888857896" lon="6.959188884213707" id="-36158">
		<tag k="name" v="Ydderodden" />
		<tag k="natural" v="cape" />
		<tag k="ssr:stedsnr" v="510963" />
	</node>
	<node lat="58.291572222824335" lon="7.263266674680713" id="-36178">
		<tag k="name" v="Kromyrfossen" />
		<tag k="natural" v="waterfall" />
		<tag k="ssr:stedsnr" v="522761" />
	</node>
	<node lat="58.25395833693555" lon="7.272447226939429" id="-36179">
		<tag k="name" v="Mjåvannet" />
		<tag k="natural" v="water" />
		<tag k="ssr:stedsnr" v="522762" />
		<tag k="water" v="lake" />
	</node>
	<node lat="58.33714167107363" lon="7.335163892643607" id="-36183">
		<tag k="name" v="Brokkestemmen" />
		<tag k="ssr:stedsnr" v="522868" />
		<tag k="waterway" v="dam" />
	</node>
	<node lat="58.284457696836164" lon="7.148275556046599" id="-36278">
		<tag k="alt_name" v="Indre Surtevann" />
		<tag k="name" v="Surtevatnet" />
		<tag k="natural" v="water" />
		<tag k="ssr:stedsnr" v="546482" />
	</node>
	<node lat="58.14026149210218" lon="7.15250721488477" id="-36282">
		<tag k="alt_name" v="Askevann" />
		<tag k="name" v="Askevatnet" />
		<tag k="natural" v="water" />
		<tag k="ssr:stedsnr" v="546493" />
	</node>
	<node lat="58.22777499773815" lon="7.072411112103359" id="-36300">
		<tag k="name" v="Lille Laulandstjønn" />
		<tag k="natural" v="water" />
		<tag k="ssr:stedsnr" v="689074" />
	</node>
	<node lat="58.232793241624364" lon="7.057584784004278" id="-36303">
		<tag k="name" v="Bjorvann" />
		<tag k="natural" v="water" />
		<tag k="ssr:stedsnr" v="689079" />
		<tag k="water" v="lake" />
	</node>
	<node lat="58.196936111780175" lon="7.1876277816978416" id="-36310">
		<tag k="name" v="Otergrinda" />
		<tag k="natural" v="bay" />
		<tag k="ssr:stedsnr" v="689261" />
	</node>
	<node lat="58.287586107657155" lon="7.171416666303448" id="-36314">
		<tag k="name" v="Kalvelona" />
		<tag k="natural" v="water" />
		<tag k="ssr:stedsnr" v="689277" />
		<tag k="water" v="lake" />
	</node>
	<node lat="58.17395107170116" lon="7.223374022022616" id="-36316">
		<tag k="name" v="Tvitjønnan" />
		<tag k="natural" v="water" />
		<tag k="ssr:stedsnr" v="689345" />
		<tag k="water" v="lake" />
	</node>
	<node lat="58.26145555486583" lon="7.227863897227251" id="-36318">
		<tag k="name" v="Kvåsstemmen" />
		<tag k="natural" v="water" />
		<tag k="ssr:stedsnr" v="689329" />
	</node>
	<node lat="58.16254444433608" lon="7.222499993838966" id="-36326">
		<tag k="name" v="Teinebekken" />
		<tag k="ssr:stedsnr" v="689363" />
		<tag k="waterway" v="stream" />
	</node>
	<node lat="58.27292221992102" lon="7.216077781239909" id="-36331">
		<tag k="name" v="Meidalsbekken" />
		<tag k="ssr:stedsnr" v="689557" />
		<tag k="waterway" v="stream" />
	</node>
	<node lat="58.201945536546305" lon="7.225037543457139" id="-36339">
		<tag k="name" v="Stuedalstjønn" />
		<tag k="natural" v="water" />
		<tag k="ssr:stedsnr" v="689575" />
	</node>
	<node lat="58.05739722656539" lon="7.016994446577011" id="-36342">
		<tag k="name" v="Sauodden" />
		<tag k="natural" v="cape" />
		<tag k="ssr:stedsnr" v="689666" />
	</node>
	<node lat="58.081066667669845" lon="7.030016658979021" id="-36349">
		<tag k="name" v="Hoksåstjønn" />
		<tag k="natural" v="water" />
		<tag k="ssr:stedsnr" v="689761" />
	</node>
	<node lat="58.14195000014069" lon="7.1614944420177995" id="-36354">
		<tag k="name" v="Lommetjønna" />
		<tag k="natural" v="water" />
		<tag k="ssr:stedsnr" v="689943" />
	</node>
	<node lat="58.14224444828043" lon="7.141797218999808" id="-36355">
		<tag k="name" v="Lonan" />
		<tag k="natural" v="water" />
		<tag k="ssr:stedsnr" v="689953" />
		<tag k="water" v="lake" />
	</node>
	<node lat="58.22291944280895" lon="7.188813889041661" id="-36375">
		<tag k="name" v="Sagebekken" />
		<tag k="ssr:stedsnr" v="567279" />
		<tag k="waterway" v="stream" />
	</node>
	<node lat="58.16679444659021" lon="7.088705555798321" id="-36378">
		<tag k="name" v="Øyna" />
		<tag k="place" v="island" />
		<tag k="ssr:stedsnr" v="567424" />
	</node>
	<node lat="58.25350278188247" lon="7.1210861128800245" id="-36380">
		<tag k="name" v="Koletjønn" />
		<tag k="natural" v="water" />
		<tag k="ssr:stedsnr" v="567372" />
	</node>
	<node lat="58.22619119972804" lon="7.231907087092254" id="-36391">
		<tag k="name" v="Lomstjønnan" />
		<tag k="natural" v="water" />
		<tag k="ssr:stedsnr" v="567619" />
		<tag k="water" v="lake" />
	</node>
	<node lat="58.15681944383161" lon="7.050644439740295" id="-36398">
		<tag k="name" v="Tjønna" />
		<tag k="natural" v="water" />
		<tag k="ssr:stedsnr" v="567860" />
	</node>
	<node lat="58.16168055107283" lon="7.153197214821083" id="-36406">
		<tag k="name" v="Blesevann" />
		<tag k="natural" v="water" />
		<tag k="ssr:stedsnr" v="568902" />
		<tag k="water" v="lake" />
	</node>
	<node lat="58.27785555949598" lon="7.351802784139863" id="-36424">
		<tag k="name" v="Storeneset" />
		<tag k="natural" v="cape" />
		<tag k="ssr:stedsnr" v="582856" />
	</node>
	<node lat="58.25069722631337" lon="7.297008325488593" id="-36425">
		<tag k="loc_name" v="Leirvigå" />
		<tag k="name" v="Leirvigen" />
		<tag k="natural" v="bay" />
		<tag k="ssr:stedsnr" v="582863" />
	</node>
	<node lat="58.30578889025417" lon="7.366269439525175" id="-36427">
		<tag k="name" v="Risbekken" />
		<tag k="ssr:stedsnr" v="582904" />
		<tag k="waterway" v="stream" />
	</node>
	<node lat="58.37591666245102" lon="7.370655557778567" id="-36434">
		<tag k="name" v="Storalona" />
		<tag k="natural" v="water" />
		<tag k="ssr:stedsnr" v="583004" />
		<tag k="water" v="lake" />
	</node>
	<node lat="58.46832777761267" lon="7.403494445517609" id="-36440">
		<tag k="name" v="Hålandstjønn" />
		<tag k="natural" v="water" />
		<tag k="ssr:stedsnr" v="583349" />
		<tag k="water" v="lake" />
	</node>
	<node lat="58.24841594288791" lon="7.128455786943191" id="-36536">
		<tag k="alt_name" v="Bastelivann" />
		<tag k="name" v="Bastelivatnet" />
		<tag k="natural" v="water" />
		<tag k="ssr:stedsnr" v="606371" />
	</node>
	<node lat="58.15583611075272" lon="7.18960000389173" id="-36542">
		<tag k="alt_name" v="Grubbevann" />
		<tag k="name" v="Grubbevatnet" />
		<tag k="natural" v="water" />
		<tag k="ssr:stedsnr" v="606463" />
	</node>
	<node lat="58.26166778612852" lon="7.287451154612073" id="-36546">
		<tag k="alt_name" v="Bergvannet" />
		<tag k="loc_name" v="Bærvannet" />
		<tag k="name" v="Bergvatnet" />
		<tag k="natural" v="water" />
		<tag k="ssr:stedsnr" v="606603" />
	</node>
	<node lat="58.27020483794354" lon="7.282699327448881" id="-36548">
		<tag k="alt_name" v="Hestvannet" />
		<tag k="name" v="Hestvatnet" />
		<tag k="natural" v="water" />
		<tag k="ssr:stedsnr" v="606610" />
	</node>
	<node lat="58.25765784576406" lon="7.235566627911715" id="-36551">
		<tag k="alt_name" v="Bergevann" />
		<tag k="name" v="Bergetjørna" />
		<tag k="natural" v="water" />
		<tag k="ssr:stedsnr" v="606600" />
	</node>
	<node lat="58.461236108087526" lon="7.380477780883263" id="-36559">
		<tag k="name" v="Kleivebekken" />
		<tag k="ssr:stedsnr" v="703133" />
		<tag k="waterway" v="stream" />
	</node>
	<node lat="58.13709722468959" lon="7.137005549186014" id="-36577">
		<tag k="name" v="Tjønna" />
		<tag k="natural" v="water" />
		<tag k="ssr:stedsnr" v="627447" />
	</node>
	<node lat="58.1346805525821" lon="7.104983338064889" id="-36579">
		<tag k="name" v="Øygardstjønna" />
		<tag k="natural" v="water" />
		<tag k="ssr:stedsnr" v="627453" />
	</node>
	<node lat="58.2596277780138" lon="7.191327773831292" id="-36584">
		<tag k="name" v="Broden" />
		<tag k="natural" v="cape" />
		<tag k="ssr:stedsnr" v="627595" />
	</node>
	<node lat="58.11068611059918" lon="7.10679166616119" id="-36591">
		<tag k="name" v="Grønntjønna" />
		<tag k="natural" v="water" />
		<tag k="ssr:stedsnr" v="627844" />
	</node>
	<node lat="58.235169443124825" lon="7.070355547401799" id="-36596">
		<tag k="name" v="Museholmen" />
		<tag k="place" v="islet" />
		<tag k="ssr:stedsnr" v="628060" />
	</node>
	<node lat="58.27988889176095" lon="7.152777771398009" id="-36614">
		<tag k="name" v="Ytre Surtevann" />
		<tag k="natural" v="water" />
		<tag k="ssr:stedsnr" v="628359" />
		<tag k="water" v="lake" />
	</node>
	<node lat="58.150077776852335" lon="7.161544442209191" id="-36622">
		<tag k="name" v="Loppeneset" />
		<tag k="natural" v="cape" />
		<tag k="ssr:stedsnr" v="628955" />
	</node>
	<node lat="58.18530555413856" lon="7.174341669546646" id="-36623">
		<tag k="name" v="Leidingstjønna" />
		<tag k="natural" v="water" />
		<tag k="ssr:stedsnr" v="628991" />
	</node>
	<node lat="58.37342777744127" lon="7.327127785861021" id="-36625">
		<tag k="name" v="Austertjødne" />
		<tag k="natural" v="water" />
		<tag k="ssr:stedsnr" v="704010" />
	</node>
	<node lat="58.41084444863608" lon="7.378802770428449" id="-36626">
		<tag k="name" v="Vådneset" />
		<tag k="natural" v="cape" />
		<tag k="ssr:stedsnr" v="704028" />
	</node>
	<node lat="58.408866663167736" lon="7.373880560376936" id="-36627">
		<tag k="name" v="Lisleøy" />
		<tag k="place" v="islet" />
		<tag k="ssr:stedsnr" v="704032" />
	</node>
	<node lat="58.40716111349841" lon="7.449113893746613" id="-36633">
		<tag k="name" v="Fæntjønn" />
		<tag k="natural" v="water" />
		<tag k="ssr:stedsnr" v="704094" />
	</node>
	<node lat="58.451427778502456" lon="7.479877780842399" id="-36635">
		<tag k="name" v="Tangen" />
		<tag k="natural" v="cape" />
		<tag k="ssr:stedsnr" v="704102" />
	</node>
	<node lat="58.39618055568368" lon="7.3547138956198665" id="-36649">
		<tag k="name" v="Hagåna" />
		<tag k="ssr:stedsnr" v="704297" />
		<tag k="waterway" v="stream" />
	</node>
	<node lat="58.355922223281354" lon="7.393386112336561" id="-36661">
		<tag k="name" v="Ågedalsbekken" />
		<tag k="ssr:stedsnr" v="704947" />
		<tag k="waterway" v="stream" />
	</node>
	<node lat="58.3351111141461" lon="7.36946943674012" id="-36662">
		<tag k="name" v="Kalvodden" />
		<tag k="natural" v="cape" />
		<tag k="ssr:stedsnr" v="704993" />
	</node>
	<node lat="58.34196701053226" lon="7.33809925653947" id="-36665">
		<tag k="loc_name" v="Vesle Åltjønn" />
		<tag k="name" v="Lisla Åletjødn" />
		<tag k="natural" v="water" />
		<tag k="ssr:stedsnr" v="705891" />
	</node>
	<node lat="58.462588886984086" lon="7.460913885130893" id="-36666">
		<tag k="name" v="Smedslandsfossen" />
		<tag k="natural" v="strait" />
		<tag k="ssr:stedsnr" v="642106" />
	</node>
	<node lat="58.430975000784606" lon="7.492336115752085" id="-36675">
		<tag k="name" v="Haukåstjønn" />
		<tag k="natural" v="water" />
		<tag k="ssr:stedsnr" v="643105" />
	</node>
	<node lat="58.27156388913496" lon="7.350863887811335" id="-36683">
		<tag k="name" v="Audnaelva" />
		<tag k="ssr:stedsnr" v="643277" />
		<tag k="waterway" v="river" />
	</node>
	<node lat="58.32243611059141" lon="7.418077773188183" id="-36690">
		<tag k="name" v="Steinstemmen" />
		<tag k="ssr:stedsnr" v="643978" />
		<tag k="waterway" v="dam" />
	</node>
	<node lat="58.17729117516969" lon="6.960221185918828" id="-36792">
		<tag k="alt_name" v="Bjellandsvannet" />
		<tag k="name" v="Bjellandstjørna" />
		<tag k="natural" v="water" />
		<tag k="ssr:stedsnr" v="667214" />
	</node>
	<node lat="58.20545000316012" lon="7.232824998353405" id="-36799">
		<tag k="alt_name" v="Bronevann" />
		<tag k="name" v="Bronevatnet" />
		<tag k="natural" v="water" />
		<tag k="ssr:stedsnr" v="667396" />
	</node>
	<node lat="58.401100039279164" lon="7.316994568979534" id="-36809">
		<tag k="alt_name" v="Heddåsvatnet" />
		<tag k="name" v="Hellåsvatnet" />
		<tag k="natural" v="water" />
		<tag k="ssr:stedsnr" v="667583" />
	</node>
	<node lat="58.346464815973924" lon="7.411643425304173" id="-36812">
		<tag k="alt_name" v="Storatjønn" />
		<tag k="name" v="Solbjørstjørnane" />
		<tag k="natural" v="water" />
		<tag k="ssr:stedsnr" v="667738" />
		<tag k="water" v="lake" />
	</node>
	<node lat="58.21007500446382" lon="6.982333338908143" id="-36821">
		<tag k="name" v="Åletjønn" />
		<tag k="natural" v="water" />
		<tag k="ssr:stedsnr" v="689041" />
	</node>
	<node lat="58.217275003079905" lon="7.079719446840762" id="-36824">
		<tag k="name" v="Kråketjønn" />
		<tag k="natural" v="water" />
		<tag k="ssr:stedsnr" v="689083" />
	</node>
	<node lat="58.22293055907681" lon="7.062672227075434" id="-36825">
		<tag k="name" v="Leiktjønn" />
		<tag k="natural" v="water" />
		<tag k="ssr:stedsnr" v="689086" />
	</node>
	<node lat="58.23002500079375" lon="7.036019447068711" id="-36826">
		<tag k="name" v="Hellenesbukta" />
		<tag k="natural" v="bay" />
		<tag k="ssr:stedsnr" v="689088" />
	</node>
	<node lat="58.226038889647825" lon="7.0455833330230835" id="-36827">
		<tag k="name" v="Røyrodden" />
		<tag k="natural" v="cape" />
		<tag k="ssr:stedsnr" v="689091" />
	</node>
	<node lat="58.268763888987586" lon="7.080586103974805" id="-36832">
		<tag k="name" v="Subbelona" />
		<tag k="natural" v="water" />
		<tag k="ssr:stedsnr" v="689139" />
		<tag k="water" v="lake" />
	</node>
	<node lat="58.26966666718077" lon="7.074527779426703" id="-36833">
		<tag k="name" v="Bjortjønn" />
		<tag k="natural" v="water" />
		<tag k="ssr:stedsnr" v="689140" />
	</node>
	<node lat="58.26065277444357" lon="7.2435222179429415" id="-36843">
		<tag k="name" v="Svartevann" />
		<tag k="natural" v="water" />
		<tag k="ssr:stedsnr" v="689331" />
		<tag k="water" v="lake" />
	</node>
	<node lat="58.15302500201626" lon="7.103786110757723" id="-36852">
		<tag k="name" v="Litleåna" />
		<tag k="ssr:stedsnr" v="689435" />
		<tag k="waterway" v="river" />
	</node>
	<node lat="58.24912499960537" lon="7.250813883052552" id="-36856">
		<tag k="name" v="Sprangsbekken" />
		<tag k="ssr:stedsnr" v="689603" />
		<tag k="waterway" v="stream" />
	</node>
	<node lat="58.256047218014906" lon="7.188511110953474" id="-36866">
		<tag k="name" v="Laksehølen" />
		<tag k="place" v="locality" />
		<tag k="ssr:stedsnr" v="689540" />
	</node>
	<node lat="58.12455833276139" lon="7.140744450793243" id="-36884">
		<tag k="name" v="Sørtøvannet" />
		<tag k="natural" v="water" />
		<tag k="ssr:stedsnr" v="689931" />
		<tag k="water" v="lake" />
	</node>
	<node lat="58.451197225385684" lon="7.4650166644084806" id="-36893">
		<tag k="name" v="Koletjønn" />
		<tag k="natural" v="water" />
		<tag k="ssr:stedsnr" v="704104" />
	</node>
	<node lat="58.41665000153684" lon="7.480155557656575" id="-36896">
		<tag k="name" v="Tvotjønn" />
		<tag k="natural" v="water" />
		<tag k="ssr:stedsnr" v="704075" />
	</node>
	<node lat="58.27157499746273" lon="7.286941675157188" id="-36910">
		<tag k="name" v="Oksekilen" />
		<tag k="natural" v="bay" />
		<tag k="ssr:stedsnr" v="704749" />
	</node>
	<node lat="58.34238938104623" lon="7.320342548218394" id="-36914">
		<tag k="loc_name" v="Foletjønn" />
		<tag k="name" v="Foletjødn" />
		<tag k="natural" v="water" />
		<tag k="ssr:stedsnr" v="704866" />
	</node>
	<node lat="58.31302222309704" lon="7.329327773521827" id="-36915">
		<tag k="name" v="Langedretten" />
		<tag k="natural" v="cape" />
		<tag k="ssr:stedsnr" v="704874" />
	</node>
	<node lat="58.436358330864266" lon="7.349188889470056" id="-36918">
		<tag k="loc_name" v="Kvednæbekkjen" />
		<tag k="name" v="Kvednebekken" />
		<tag k="ssr:stedsnr" v="705410" />
		<tag k="waterway" v="stream" />
	</node>
	<node lat="58.111231222417516" lon="7.126098548968465" id="-37113">
		<tag k="alt_name" v="Trælandsvannet" />
		<tag k="name" v="Trælandsvatnet" />
		<tag k="natural" v="water" />
		<tag k="ssr:stedsnr" v="728505" />
	</node>
	<node lat="58.28954931180636" lon="7.276243898949611" id="-37114">
		<tag k="alt_name" v="Åbestadtjødn" />
		<tag k="name" v="Åbestadtjørna" />
		<tag k="natural" v="water" />
		<tag k="ssr:stedsnr" v="728512" />
	</node>
	<node lat="58.27301914107844" lon="7.412026265602531" id="-37118">
		<tag k="alt_name" v="Urevatn" />
		<tag k="loc_name" v="Urevanne" />
		<tag k="name" v="Urdevatnet" />
		<tag k="natural" v="water" />
		<tag k="ssr:stedsnr" v="728812" />
	</node>
	<node lat="58.48292218237526" lon="7.429806843336305" id="-37119">
		<tag k="alt_name" v="Hannekilen" />
		<tag k="name" v="Hanekilen" />
		<tag k="natural" v="water" />
		<tag k="ssr:stedsnr" v="728573" />
		<tag k="water" v="lake" />
	</node>
	<node lat="58.489972219603665" lon="7.446694449715209" id="-37120">
		<tag k="name" v="Kilen" />
		<tag k="place" v="locality" />
		<tag k="ssr:stedsnr" v="728575" />
	</node>
	<node lat="58.44727205273859" lon="7.421674782300942" id="-37121">
		<tag k="name" v="Grindheimsvatnet" />
		<tag k="natural" v="water" />
		<tag k="ssr:stedsnr" v="728904" />
		<tag k="water" v="lake" />
	</node>
	<node lat="58.40914219638" lon="7.459235145643824" id="-37125">
		<tag k="loc_name" v="Biletjønn" />
		<tag k="name" v="Biletjørn" />
		<tag k="natural" v="water" />
		<tag k="ssr:stedsnr" v="728892" />
	</node>
	<node lat="58.39173055336231" lon="7.381080563297818" id="-37129">
		<tag k="name" v="Mittingen" />
		<tag k="place" v="islet" />
		<tag k="ssr:stedsnr" v="728981" />
	</node>
	<node lat="58.195147225916045" lon="7.177016666068652" id="-37163">
		<tag k="name" v="Presttjønn" />
		<tag k="natural" v="water" />
		<tag k="ssr:stedsnr" v="749216" />
	</node>
	<node lat="58.24760833648288" lon="7.20357222738264" id="-37166">
		<tag k="name" v="Hisåstjønn" />
		<tag k="natural" v="water" />
		<tag k="ssr:stedsnr" v="749229" />
	</node>
	<node lat="58.190705556100404" lon="7.190583328980114" id="-37167">
		<tag k="name" v="Bjønndalsbukta" />
		<tag k="natural" v="bay" />
		<tag k="ssr:stedsnr" v="749266" />
	</node>
	<node lat="58.268749996725234" lon="7.108702783367928" id="-37169">
		<tag k="name" v="Stemmen" />
		<tag k="natural" v="water" />
		<tag k="ssr:stedsnr" v="749159" />
	</node>
	<node lat="58.224581025071714" lon="7.180745647053254" id="-37178">
		<tag k="name" v="Tvitjønnan" />
		<tag k="natural" v="water" />
		<tag k="ssr:stedsnr" v="749319" />
		<tag k="water" v="lake" />
	</node>
	<node lat="58.26666944720331" lon="7.221972215218531" id="-37180">
		<tag k="name" v="Kleivtjønn" />
		<tag k="natural" v="water" />
		<tag k="ssr:stedsnr" v="749364" />
	</node>
	<node lat="58.263336114539776" lon="7.193430553057821" id="-37188">
		<tag k="name" v="Havshølen" />
		<tag k="place" v="locality" />
		<tag k="ssr:stedsnr" v="749584" />
	</node>
	<node lat="58.26226666497688" lon="7.195786115568852" id="-37189">
		<tag k="name" v="Øyna" />
		<tag k="place" v="island" />
		<tag k="ssr:stedsnr" v="749585" />
	</node>
	<node lat="58.06757222154202" lon="7.099116665092558" id="-37193">
		<tag k="name" v="Kvinesodden" />
		<tag k="natural" v="cape" />
		<tag k="ssr:stedsnr" v="749810" />
	</node>
	<node lat="58.15526667059271" lon="7.07691111720133" id="-37201">
		<tag k="name" v="Prestneset" />
		<tag k="natural" v="cape" />
		<tag k="ssr:stedsnr" v="749915" />
	</node>
	<node lat="58.15150278119051" lon="7.210919442151076" id="-37208">
		<tag k="name" v="Krokvann" />
		<tag k="natural" v="water" />
		<tag k="ssr:stedsnr" v="750513" />
	</node>
	<node lat="58.164444447348565" lon="7.1790749936628915" id="-37210">
		<tag k="name" v="Kleivfossen" />
		<tag k="natural" v="waterfall" />
		<tag k="ssr:stedsnr" v="750893" />
	</node>
	<node lat="58.161800003279595" lon="7.166027777057563" id="-37211">
		<tag k="name" v="Stykketjønn" />
		<tag k="natural" v="water" />
		<tag k="ssr:stedsnr" v="750894" />
	</node>
	<node lat="58.24361666635892" lon="7.345891668161484" id="-37220">
		<tag k="name" v="Audna" />
		<tag k="ssr:stedsnr" v="764250" />
		<tag k="waterway" v="river" />
	</node>
	<node lat="58.407088891327504" lon="7.378430559038806" id="-37221">
		<tag k="name" v="Geiteknodden" />
		<tag k="natural" v="cape" />
		<tag k="ssr:stedsnr" v="765040" />
	</node>
	<node lat="58.399730556738405" lon="7.386747215112706" id="-37222">
		<tag k="name" v="Slåtøy" />
		<tag k="place" v="islet" />
		<tag k="ssr:stedsnr" v="765044" />
	</node>
	<node lat="58.27716944196148" lon="7.3026194468072765" id="-37226">
		<tag k="name" v="Vestre Surtevann" />
		<tag k="natural" v="water" />
		<tag k="ssr:stedsnr" v="764941" />
		<tag k="water" v="lake" />
	</node>
	<node lat="58.439232653215264" lon="7.340466921511421" id="-37228">
		<tag k="loc_name" v="Midtre Stemkjødn" />
		<tag k="name" v="Midtre Stemtjønn" />
		<tag k="natural" v="water" />
		<tag k="ssr:stedsnr" v="765111" />
	</node>
	<node lat="58.189006281787684" lon="6.963626917619954" id="-37338">
		<tag k="alt_name" v="Ljosevatnet" />
		<tag k="name" v="Ljosevann" />
		<tag k="natural" v="water" />
		<tag k="ssr:stedsnr" v="910194" />
	</node>
	<node lat="58.1671523398501" lon="6.897095970197394" id="-37339">
		<tag k="alt_name" v="Homsvann" />
		<tag k="name" v="Homsvatnet" />
		<tag k="natural" v="water" />
		<tag k="ssr:stedsnr" v="910236" />
		<tag k="water" v="lake" />
	</node>
	<node lat="58.24148793812446" lon="7.07365571043729" id="-37341">
		<tag k="alt_name" v="Brådlandsvatnet, øvre;Indre Brådlandsvann" />
		<tag k="name" v="Øvre Brådlandsvatnet" />
		<tag k="natural" v="water" />
		<tag k="ssr:stedsnr" v="910376" />
	</node>
	<node lat="58.18173784687965" lon="7.204878406380356" id="-37344">
		<tag k="alt_name" v="Homsvann" />
		<tag k="name" v="Homsvatnet" />
		<tag k="natural" v="water" />
		<tag k="ssr:stedsnr" v="910448" />
		<tag k="water" v="lake" />
	</node>
	<node lat="58.21243466635516" lon="6.952243807190684" id="-37364">
		<tag k="alt_name" v="Tjomslandsvatnet" />
		<tag k="name" v="Indre Tjomslandsvann" />
		<tag k="natural" v="water" />
		<tag k="ssr:stedsnr" v="788164" />
	</node>
	<node lat="58.13494878458252" lon="6.944672619953236" id="-37365">
		<tag k="alt_name" v="Måkevannet" />
		<tag k="name" v="Måkevatnet" />
		<tag k="natural" v="water" />
		<tag k="ssr:stedsnr" v="788258" />
	</node>
	<node lat="58.24546389286798" lon="7.290102781857071" id="-37373">
		<tag k="alt_name" v="Eptevannet" />
		<tag k="name" v="Eptevatnet" />
		<tag k="natural" v="water" />
		<tag k="ssr:stedsnr" v="789405" />
		<tag k="water" v="lake" />
	</node>
	<node lat="58.229463339426495" lon="7.24910611739922" id="-37376">
		<tag k="alt_name" v="Maurvannet" />
		<tag k="name" v="Maurevatnet" />
		<tag k="natural" v="water" />
		<tag k="ssr:stedsnr" v="789427" />
	</node>
	<node lat="58.27523104225984" lon="7.404876245027746" id="-37377">
		<tag k="alt_name" v="Heslevatn" />
		<tag k="loc_name" v="Heslevanne" />
		<tag k="name" v="Heslevatnet" />
		<tag k="natural" v="water" />
		<tag k="ssr:stedsnr" v="789830" />
	</node>
	<node lat="58.40435277736024" lon="7.347402778427914" id="-37381">
		<tag k="alt_name" v="Tuptåna" />
		<tag k="name" v="Kvernåni" />
		<tag k="ssr:stedsnr" v="789908" />
		<tag k="waterway" v="stream" />
	</node>
	<node lat="58.225508335942514" lon="7.111391662424812" id="-37383">
		<tag k="name" v="Hellestøltjønn" />
		<tag k="natural" v="water" />
		<tag k="ssr:stedsnr" v="810112" />
	</node>
	<node lat="58.2251527818944" lon="7.098980558389293" id="-37390">
		<tag k="name" v="Vestre Skjerlandstjønn" />
		<tag k="natural" v="water" />
		<tag k="ssr:stedsnr" v="810201" />
	</node>
	<node lat="58.215974997692754" lon="6.9987361125855285" id="-37394">
		<tag k="name" v="Lona" />
		<tag k="natural" v="water" />
		<tag k="ssr:stedsnr" v="810081" />
	</node>
	<node lat="58.239219446836096" lon="7.0489194386250364" id="-37395">
		<tag k="name" v="Nedre Risånlona" />
		<tag k="natural" v="water" />
		<tag k="ssr:stedsnr" v="810084" />
	</node>
	<node lat="58.23899722266564" lon="7.065955547328114" id="-37396">
		<tag k="name" v="Nesodde" />
		<tag k="natural" v="cape" />
		<tag k="ssr:stedsnr" v="810088" />
	</node>
	<node lat="58.42492500276668" lon="7.343277775308922" id="-37431">
		<tag k="fixme" v="multiple name tags, choose one and add the other to alt_name" />
		<tag k="name" v="Skotetjønn;Fosslitjønn" />
		<tag k="natural" v="bay" />
		<tag k="ssr:stedsnr" v="826069" />
	</node>
	<node lat="58.48719166807322" lon="7.4465499934683" id="-37438">
		<tag k="name" v="Voiland" />
		<tag k="natural" v="water" />
		<tag k="ssr:stedsnr" v="826165" />
		<tag k="water" v="lake" />
	</node>
	<node lat="58.48489693027583" lon="7.394302873436305" id="-37439">
		<tag k="name" v="Sollitjønn" />
		<tag k="natural" v="water" />
		<tag k="ssr:stedsnr" v="826171" />
	</node>
	<node lat="58.48660555494756" lon="7.355386116807488" id="-37441">
		<tag k="name" v="Tådertjønn" />
		<tag k="natural" v="water" />
		<tag k="ssr:stedsnr" v="826176" />
	</node>
	<node lat="58.49128888480781" lon="7.525011119499358" id="-37442">
		<tag k="name" v="Vakseringen" />
		<tag k="natural" v="water" />
		<tag k="ssr:stedsnr" v="826178" />
	</node>
	<node lat="58.474736112867554" lon="7.3778638814217725" id="-37443">
		<tag k="name" v="Skarebekken" />
		<tag k="ssr:stedsnr" v="826186" />
		<tag k="waterway" v="stream" />
	</node>
	<node lat="58.35423055299597" lon="7.335750000311233" id="-37446">
		<tag k="name" v="Ivelandsbekken" />
		<tag k="ssr:stedsnr" v="826363" />
		<tag k="waterway" v="stream" />
	</node>
	<node lat="58.284691670202676" lon="7.273202785816399" id="-37448">
		<tag k="name" v="Borgefoss" />
		<tag k="natural" v="waterfall" />
		<tag k="ssr:stedsnr" v="826941" />
	</node>
	<node lat="58.375783332001056" lon="7.390127771327446" id="-37449">
		<tag k="name" v="Storlibekken" />
		<tag k="ssr:stedsnr" v="826954" />
		<tag k="waterway" v="stream" />
	</node>
	<node lat="58.311108942900844" lon="7.324081246061026" id="-37538">
		<tag k="alt_name" v="Hellevatn" />
		<tag k="loc_name" v="Hellevann" />
		<tag k="name" v="Hellevatnet" />
		<tag k="natural" v="water" />
		<tag k="ssr:stedsnr" v="849571" />
		<tag k="water" v="lake" />
	</node>
	<node lat="58.475838998844246" lon="7.355329909304211" id="-37552">
		<tag k="alt_name" v="Sandtjønn" />
		<tag k="name" v="Sandtjørni" />
		<tag k="natural" v="water" />
		<tag k="ssr:stedsnr" v="850581" />
	</node>
	<node lat="58.37948192305963" lon="7.334658766849218" id="-37556">
		<tag k="alt_name" v="Kræklingheivannet" />
		<tag k="name" v="Heievatnan" />
		<tag k="natural" v="water" />
		<tag k="ssr:stedsnr" v="850736" />
	</node>
	<node lat="58.27670277905513" lon="7.190444439336205" id="-37578">
		<tag k="name" v="Gjeidusøyna" />
		<tag k="place" v="island" />
		<tag k="ssr:stedsnr" v="871242" />
	</node>
	<node lat="58.229444441310406" lon="7.233441664040444" id="-37611">
		<tag k="name" v="Sollivann" />
		<tag k="natural" v="water" />
		<tag k="ssr:stedsnr" v="871617" />
		<tag k="water" v="lake" />
	</node>
	<node lat="58.143102780326764" lon="7.0707083358244684" id="-37615">
		<tag k="name" v="Stuvannssanden" />
		<tag k="natural" v="shoal" />
		<tag k="ssr:stedsnr" v="871876" />
	</node>
	<node lat="58.151169446285266" lon="7.082866664219769" id="-37616">
		<tag k="name" v="Notehølen" />
		<tag k="natural" v="bay" />
		<tag k="ssr:stedsnr" v="871881" />
	</node>
	<node lat="58.15060277406132" lon="7.1863972292337275" id="-37622">
		<tag k="name" v="Flatosen" />
		<tag k="natural" v="bay" />
		<tag k="ssr:stedsnr" v="871906" />
	</node>
	<node lat="58.166883335137996" lon="7.163788880365463" id="-37623">
		<tag k="name" v="Huntjønna" />
		<tag k="natural" v="water" />
		<tag k="ssr:stedsnr" v="871907" />
	</node>
	<node lat="58.09905278099526" lon="7.140375007527974" id="-37624">
		<tag k="name" v="Eiketjønn" />
		<tag k="natural" v="water" />
		<tag k="ssr:stedsnr" v="871916" />
	</node>
	<node lat="58.15449722112319" lon="6.898894441059708" id="-37633">
		<tag k="name" v="Lona" />
		<tag k="natural" v="water" />
		<tag k="ssr:stedsnr" v="931685" />
		<tag k="water" v="lake" />
	</node>
	<node lat="58.26551111209579" lon="7.090791668765543" id="-37639">
		<tag k="name" v="Austtjønn" />
		<tag k="natural" v="water" />
		<tag k="ssr:stedsnr" v="931165" />
	</node>
	<node lat="58.227666666829684" lon="7.0490305625378245" id="-37648">
		<tag k="name" v="Fureholmen" />
		<tag k="place" v="islet" />
		<tag k="ssr:stedsnr" v="931086" />
	</node>
	<node lat="58.2513694407827" lon="7.215649997433144" id="-37652">
		<tag k="name" v="Nedre Surtetjønn" />
		<tag k="natural" v="water" />
		<tag k="ssr:stedsnr" v="931222" />
	</node>
	<node lat="58.20460833695798" lon="7.169011111713961" id="-37656">
		<tag k="name" v="Kjerringtjønn" />
		<tag k="natural" v="water" />
		<tag k="ssr:stedsnr" v="931234" />
	</node>
	<node lat="58.22487222134295" lon="6.943347225460575" id="-37661">
		<tag k="name" v="Lona" />
		<tag k="natural" v="water" />
		<tag k="ssr:stedsnr" v="931478" />
		<tag k="water" v="lake" />
	</node>
	<node lat="58.175766668686876" lon="7.120455563195433" id="-37666">
		<tag k="name" v="Londalstjønna" />
		<tag k="natural" v="water" />
		<tag k="ssr:stedsnr" v="931401" />
	</node>
	<node lat="58.21583055738898" lon="6.9281194493223195" id="-37667">
		<tag k="name" v="Steggjevannet" />
		<tag k="natural" v="water" />
		<tag k="ssr:stedsnr" v="931489" />
	</node>
	<node lat="58.166622476642885" lon="6.96354812827728" id="-37670">
		<tag k="name" v="Tvitjødna" />
		<tag k="natural" v="water" />
		<tag k="ssr:stedsnr" v="931508" />
	</node>
	<node lat="58.17544444471295" lon="6.937305562036255" id="-37672">
		<tag k="name" v="Spelebekken" />
		<tag k="ssr:stedsnr" v="931518" />
		<tag k="waterway" v="stream" />
	</node>
	<node lat="58.244411115363135" lon="7.112947225898111" id="-37674">
		<tag k="name" v="Røinersvann" />
		<tag k="natural" v="water" />
		<tag k="ssr:stedsnr" v="931525" />
		<tag k="water" v="lake" />
	</node>
	<node lat="58.2354777796013" lon="7.225680560719792" id="-37675">
		<tag k="name" v="Ulsvann" />
		<tag k="natural" v="water" />
		<tag k="ssr:stedsnr" v="931636" />
		<tag k="water" v="lake" />
	</node>
	<node lat="58.07823055419103" lon="7.103438882028411" id="-37678">
		<tag k="name" v="Skjeines" />
		<tag k="natural" v="cape" />
		<tag k="ssr:stedsnr" v="931819" />
	</node>
	<node lat="58.18114721927029" lon="7.18052777757467" id="-37688">
		<tag k="name" v="Åna" />
		<tag k="ssr:stedsnr" v="931984" />
		<tag k="waterway" v="river" />
	</node>
	<node lat="58.2297361093825" lon="7.201277770752563" id="-37691">
		<tag k="name" v="Sollilona" />
		<tag k="natural" v="water" />
		<tag k="ssr:stedsnr" v="932261" />
	</node>
	<node lat="58.22018055682106" lon="7.21815834146748" id="-37693">
		<tag k="name" v="Stemvann" />
		<tag k="natural" v="water" />
		<tag k="ssr:stedsnr" v="932270" />
		<tag k="water" v="lake" />
	</node>
	<node lat="58.25523585553741" lon="7.2396892369561145" id="-37699">
		<tag k="name" v="Store Tvitjønn" />
		<tag k="natural" v="water" />
		<tag k="ssr:stedsnr" v="932328" />
	</node>
	<node lat="58.23636111076612" lon="7.125538884507387" id="-37704">
		<tag k="name" v="Tvitjønnene" />
		<tag k="natural" v="water" />
		<tag k="ssr:stedsnr" v="932486" />
		<tag k="water" v="lake" />
	</node>
	<node lat="58.32236111400265" lon="7.387516669311962" id="-37725">
		<tag k="name" v="Røysebekken" />
		<tag k="ssr:stedsnr" v="886328" />
		<tag k="waterway" v="stream" />
	</node>
	<node lat="58.45455833705336" lon="7.466863886723105" id="-37738">
		<tag k="name" v="Kolbekkhola" />
		<tag k="natural" v="bay" />
		<tag k="ssr:stedsnr" v="887115" />
	</node>
	<node lat="58.17956660858891" lon="6.941404540469882" id="-37837">
		<tag k="alt_name" v="Råvedalsvannet" />
		<tag k="name" v="Rovedalsvatnet" />
		<tag k="natural" v="water" />
		<tag k="ssr:stedsnr" v="910215" />
	</node>
	<node lat="58.2689542218727" lon="7.055730035087719" id="-37840">
		<tag k="alt_name" v="Fiskevann" />
		<tag k="name" v="Fiskevatnet" />
		<tag k="natural" v="water" />
		<tag k="ssr:stedsnr" v="910521" />
	</node>
	<node lat="58.46455091353046" lon="7.441864663676679" id="-37842">
		<tag k="alt_name" v="Bognevatn" />
		<tag k="name" v="Bognevatnet" />
		<tag k="natural" v="water" />
		<tag k="ssr:stedsnr" v="910576" />
	</node>
	<node lat="58.26548620588985" lon="7.264474425137892" id="-37845">
		<tag k="alt_name" v="Undelandsvann" />
		<tag k="name" v="Undelandsvatnet" />
		<tag k="natural" v="water" />
		<tag k="ssr:stedsnr" v="910609" />
	</node>
	<node lat="58.44973055841749" lon="7.475691662732953" id="-37849">
		<tag k="alt_name" v="Tungefoss" />
		<tag k="name" v="Tungefossen" />
		<tag k="natural" v="waterfall" />
		<tag k="ssr:stedsnr" v="910925" />
	</node>
	<node lat="58.440670951973495" lon="7.4289419447184875" id="-37850">
		<tag k="alt_name" v="Lauåstjønn" />
		<tag k="name" v="Lauvåstjørni" />
		<tag k="natural" v="water" />
		<tag k="ssr:stedsnr" v="910926" />
	</node>
	<node lat="58.21545833013203" lon="7.173052783622404" id="-37856">
		<tag k="name" v="Øygardsvann" />
		<tag k="natural" v="water" />
		<tag k="ssr:stedsnr" v="931313" />
		<tag k="water" v="lake" />
	</node>
	<node lat="58.20889999919194" lon="7.143361117162678" id="-37859">
		<tag k="name" v="Stangedalsbekken" />
		<tag k="ssr:stedsnr" v="931248" />
		<tag k="waterway" v="stream" />
	</node>
	<node lat="58.18362778111125" lon="7.098833339471604" id="-37861">
		<tag k="name" v="Kvellandshølen" />
		<tag k="place" v="locality" />
		<tag k="ssr:stedsnr" v="931421" />
	</node>
	<node lat="58.24026111370774" lon="7.232044451881639" id="-37875">
		<tag k="name" v="Indre Solåsvann" />
		<tag k="natural" v="water" />
		<tag k="ssr:stedsnr" v="931647" />
		<tag k="water" v="lake" />
	</node>
	<node lat="58.23031944651142" lon="7.243116660098624" id="-37877">
		<tag k="name" v="Kalven" />
		<tag k="natural" v="water" />
		<tag k="ssr:stedsnr" v="931691" />
	</node>
	<node lat="58.19185000349218" lon="7.04491665849726" id="-37887">
		<tag k="name" v="Vatlandsvann" />
		<tag k="natural" v="water" />
		<tag k="ssr:stedsnr" v="932021" />
		<tag k="water" v="lake" />
	</node>
	<node lat="58.234899384919274" lon="7.011728671218636" id="-37889">
		<tag k="name" v="Svartevann" />
		<tag k="natural" v="water" />
		<tag k="ssr:stedsnr" v="932051" />
		<tag k="water" v="lake" />
	</node>
	<node lat="58.26846110986956" lon="7.278983333346088" id="-37894">
		<tag k="name" v="Hestvannet" />
		<tag k="natural" v="water" />
		<tag k="ssr:stedsnr" v="932315" />
		<tag k="water" v="lake" />
	</node>
	<node lat="58.292530553875906" lon="7.161724999767149" id="-37895">
		<tag k="name" v="Ytre Espelandsvann" />
		<tag k="natural" v="water" />
		<tag k="ssr:stedsnr" v="932248" />
		<tag k="water" v="lake" />
	</node>
	<node lat="58.40285833738375" lon="7.387102775088702" id="-37901">
		<tag k="name" v="Ingeborgsodden" />
		<tag k="natural" v="cape" />
		<tag k="ssr:stedsnr" v="947030" />
	</node>
	<node lat="58.399991671049314" lon="7.369841673966799" id="-37902">
		<tag k="loc_name" v="Nesetangen" />
		<tag k="name" v="Nesan" />
		<tag k="natural" v="cape" />
		<tag k="ssr:stedsnr" v="947038" />
	</node>
	<node lat="58.4752027736077" lon="7.526913896902289" id="-37905">
		<tag k="name" v="Takhomtjønn" />
		<tag k="natural" v="water" />
		<tag k="ssr:stedsnr" v="947203" />
	</node>
	<node lat="58.38415277736403" lon="7.378863891324239" id="-37913">
		<tag k="name" v="Pytten" />
		<tag k="natural" v="bay" />
		<tag k="ssr:stedsnr" v="947941" />
	</node>
	<node lat="58.379972219687765" lon="7.37134167086053" id="-37914">
		<tag k="name" v="Åsdølsvaet" />
		<tag k="natural" v="water" />
		<tag k="ssr:stedsnr" v="947945" />
		<tag k="water" v="lake" />
	</node>
	<node lat="58.33440833284203" lon="7.360272214940197" id="-37916">
		<tag k="name" v="Bustø" />
		<tag k="natural" v="cape" />
		<tag k="ssr:stedsnr" v="947980" />
	</node>
	<node lat="58.32717499939483" lon="7.320063890369303" id="-37918">
		<tag k="name" v="Nueneset" />
		<tag k="natural" v="cape" />
		<tag k="ssr:stedsnr" v="947998" />
	</node>
	<node lat="58.41483055642126" lon="7.386661112272367" id="-37970">
		<tag k="name" v="Gaulevikskilen" />
		<tag k="natural" v="bay" />
		<tag k="ssr:stedsnr" v="961306" />
	</node>
</osm>
