<?xml version="1.0" encoding="UTF-8"?>
<osm version="0.6" generator="osmapis">
	<node lat="58.02300991349368" lon="7.0011263044935745" id="-34022">
		<tag k="alt_name" v="Korshavn" />
		<tag k="amenity" v="place_of_worship" />
		<tag k="denomination" v="lutheran" />
		<tag k="name" v="Korshamn kapell" />
		<tag k="religion" v="christian" />
		<tag k="ssr:stedsnr" v="656" />
	</node>
	<node lat="58.437538502349646" lon="7.41672389601564" id="-35373">
		<tag k="amenity" v="place_of_worship" />
		<tag k="denomination" v="lutheran" />
		<tag k="name" v="Grindheim kyrkje" />
		<tag k="religion" v="christian" />
		<tag k="ssr:stedsnr" v="303939" />
	</node>
	<node lat="58.152002780308344" lon="7.140527781598821" id="-35755">
		<tag k="name" v="HerdalsmÃ¸lla" />
		<tag k="place" v="locality" />
		<tag k="ssr:stedsnr" v="385964" />
	</node>
	<node lat="58.15335277689425" lon="7.091174998229628" id="-35924">
		<tag k="amenity" v="place_of_worship" />
		<tag k="denomination" v="lutheran" />
		<tag k="name" v="Lyngdal kirke" />
		<tag k="religion" v="christian" />
		<tag k="ssr:stedsnr" v="425467" />
	</node>
	<node lat="58.10016110994572" lon="7.134638885648686" id="-37371">
		<tag k="amenity" v="community_centre" />
		<tag k="name" v="Eika" />
		<tag k="ssr:stedsnr" v="789515" />
	</node>
</osm>
