<?xml version="1.0" encoding="UTF-8"?>
<osm generator="osmapis" version="0.6">
	<node id="-495615" lat="58.1686250022" lon="7.17447777136">
		<tag k="name" v="Bjodland" />
		<tag k="place" v="farm" />
		<tag k="ssr:stedsnr" v="910516" />
	</node>
	<node id="-495614" lat="58.1463999997" lon="7.05873888881">
		<tag k="name" v="Faret" />
		<tag k="place" v="farm" />
		<tag k="ssr:stedsnr" v="910477" />
	</node>
	<node id="-495613" lat="58.1376000038" lon="7.07002500256">
		<tag k="name" v="Lyngdal" />
		<tag k="place" v="town" />
		<tag k="ssr:stedsnr" v="910476" />
	</node>
	<node id="-495612" lat="58.2465916648" lon="7.26217499583">
		<tag k="alt_name" v="Eigebø" />
		<tag k="name" v="Eikjebø" />
		<tag k="place" v="farm" />
		<tag k="ssr:stedsnr" v="910378" />
	</node>
	<node id="-495611" lat="58.2475055513" lon="7.09996110955">
		<tag k="fixme" v="consider place=hamlet" />
		<tag k="name" v="Brådland" />
		<tag k="place" v="farm" />
		<tag k="ssr:stedsnr" v="910377" />
	</node>
	<node id="-495609" lat="58.2295916698" lon="7.02636110937">
		<tag k="alt_name" v="Gauviken" />
		<tag k="fixme" v="consider place=hamlet" />
		<tag k="name" v="Gauvik" />
		<tag k="place" v="farm" />
		<tag k="ssr:stedsnr" v="910372" />
	</node>
	<node id="-495605" lat="58.1990361129" lon="6.96761389549">
		<tag k="name" v="Birkeland" />
		<tag k="place" v="farm" />
		<tag k="ssr:stedsnr" v="910202" />
	</node>
	<node id="-495602" lat="58.2136999965" lon="6.95712500621">
		<tag k="fixme" v="consider place=hamlet" />
		<tag k="name" v="Drangsland" />
		<tag k="place" v="farm" />
		<tag k="ssr:stedsnr" v="910173" />
	</node>
	<node id="-495601" lat="58.2150583336" lon="6.9376750011">
		<tag k="alt_name" v="Øygarden" />
		<tag k="name" v="Kaldåsen" />
		<tag k="place" v="farm" />
		<tag k="ssr:stedsnr" v="910167" />
	</node>
	<node id="-495598" lat="58.1659861147" lon="7.19138055459">
		<tag k="name" v="Hagåkeren" />
		<tag k="place" v="farm" />
		<tag k="ssr:stedsnr" v="750908" />
	</node>
	<node id="-495553" lat="58.0627166674" lon="7.05955277706">
		<tag k="name" v="Epledalen" />
		<tag k="place" v="farm" />
		<tag k="ssr:stedsnr" v="906424" />
	</node>
	<node id="-493464" lat="58.1362916667" lon="6.99862499842">
		<tag k="name" v="Sørlia" />
		<tag k="place" v="farm" />
		<tag k="ssr:stedsnr" v="210833" />
	</node>
	<node id="-493463" lat="58.1170805571" lon="6.94711388399">
		<tag k="name" v="Djupvig" />
		<tag k="place" v="farm" />
		<tag k="ssr:stedsnr" v="210827" />
	</node>
	<node id="-493462" lat="58.1357777808" lon="6.99783055469">
		<tag k="loc_name" v="Sørlia III" />
		<tag k="name" v="Sørli III" />
		<tag k="place" v="farm" />
		<tag k="ssr:stedsnr" v="210826" />
	</node>
	<node id="-496276" lat="58.1829526535" lon="7.19295770218">
		<tag k="name" v="Oftenes" />
		<tag k="place" v="hamlet" />
		<tag k="ssr:stedsnr" v="979557" />
	</node>
	<node id="-495462" lat="58.1445500009" lon="7.12521389165">
		<tag k="alt_name" v="Østre Åsan" />
		<tag k="fixme" v="consider place=hamlet" />
		<tag k="name" v="Åsan" />
		<tag k="place" v="farm" />
		<tag k="ssr:stedsnr" v="728452" />
	</node>
	<node id="-495461" lat="58.1784055555" lon="6.98989999498">
		<tag k="fixme" v="consider place=hamlet" />
		<tag k="name" v="Hæåk" />
		<tag k="place" v="farm" />
		<tag k="ssr:stedsnr" v="728424" />
	</node>
	<node id="-495460" lat="58.1762500042" lon="7.06892500529">
		<tag k="fixme" v="consider place=hamlet" />
		<tag k="name" v="Møskedal" />
		<tag k="place" v="farm" />
		<tag k="ssr:stedsnr" v="728423" />
	</node>
	<node id="-495459" lat="58.1680388878" lon="7.03515277995">
		<tag k="alt_name" v="Kjeddan" />
		<tag k="fixme" v="consider place=hamlet" />
		<tag k="name" v="Kjelland" />
		<tag k="place" v="farm" />
		<tag k="ssr:stedsnr" v="728413" />
	</node>
	<node id="-495458" lat="58.1747868877" lon="7.13931972423">
		<tag k="alt_name" v="Birkjestøl" />
		<tag k="fixme" v="consider place=hamlet" />
		<tag k="name" v="Birkestøl" />
		<tag k="place" v="farm" />
		<tag k="ssr:stedsnr" v="728410" />
	</node>
	<node id="-496269" lat="58.121412424" lon="7.18942717236">
		<tag k="fixme" v="consider place=hamlet" />
		<tag k="name" v="Dåle" />
		<tag k="place" v="farm" />
		<tag k="ssr:stedsnr" v="979549" />
	</node>
	<node id="-495283" lat="58.2887055518" lon="7.31186389265">
		<tag k="name" v="Bjåskog" />
		<tag k="place" v="locality" />
		<tag k="ssr:stedsnr" v="886301" />
	</node>
	<node id="-493230" lat="58.1963499973" lon="7.02288610979">
		<tag k="name" v="Lille Eikeland" />
		<tag k="place" v="farm" />
		<tag k="ssr:stedsnr" v="182618" />
	</node>
	<node id="-493228" lat="58.0862055578" lon="7.10474167091">
		<tag k="fixme" v="consider place=hamlet" />
		<tag k="name" v="Gitlevåg" />
		<tag k="place" v="farm" />
		<tag k="ssr:stedsnr" v="182605" />
	</node>
	<node id="-493227" lat="58.4870722268" lon="7.48456111591">
		<tag k="fixme" v="consider place=hamlet" />
		<tag k="name" v="Butveit" />
		<tag k="place" v="farm" />
		<tag k="ssr:stedsnr" v="182595" />
	</node>
	<node id="-493225" lat="58.4760777767" lon="7.41650832691">
		<tag k="fixme" v="consider place=hamlet" />
		<tag k="name" v="Håland" />
		<tag k="place" v="farm" />
		<tag k="ssr:stedsnr" v="182573" />
	</node>
	<node id="-493224" lat="58.1218277802" lon="7.16485833742">
		<tag k="name" v="Østre Eikeland" />
		<tag k="place" v="farm" />
		<tag k="ssr:stedsnr" v="182555" />
	</node>
	<node id="-495259" lat="58.1265722235" lon="7.07603611212">
		<tag k="name" v="Åvesland" />
		<tag k="place" v="farm" />
		<tag k="ssr:stedsnr" v="667836" />
	</node>
	<node id="-495258" lat="58.1103861119" lon="6.95280833653">
		<tag k="name" v="Kollevoll" />
		<tag k="place" v="farm" />
		<tag k="ssr:stedsnr" v="667824" />
	</node>
	<node id="-495257" lat="58.1518555599" lon="7.0261861095">
		<tag k="name" v="Bjerge" />
		<tag k="place" v="farm" />
		<tag k="ssr:stedsnr" v="667809" />
	</node>
	<node id="-495256" lat="58.1486194442" lon="6.96203055363">
		<tag k="alt_name" v="Eikenes" />
		<tag k="name" v="Eigenes" />
		<tag k="place" v="hamlet" />
		<tag k="ssr:stedsnr" v="667244" />
	</node>
	<node id="-495255" lat="58.1467250008" lon="6.96385277988">
		<tag k="fixme" v="consider place=hamlet" />
		<tag k="name" v="Meland" />
		<tag k="place" v="farm" />
		<tag k="ssr:stedsnr" v="667241" />
	</node>
	<node id="-495254" lat="58.2402194479" lon="7.34792499995">
		<tag k="name" v="Geislefos" />
		<tag k="place" v="farm" />
		<tag k="ssr:stedsnr" v="667236" />
	</node>
	<node id="-495253" lat="58.2407666623" lon="7.34725278327">
		<tag k="fixme" v="consider place=hamlet" />
		<tag k="name" v="Geislefos" />
		<tag k="place" v="farm" />
		<tag k="ssr:stedsnr" v="667235" />
	</node>
	<node id="-495250" lat="58.1178666707" lon="6.95152776957">
		<tag k="name" v="Djupvig" />
		<tag k="place" v="farm" />
		<tag k="ssr:stedsnr" v="878824" />
	</node>
	<node id="-495249" lat="58.1557472188" lon="7.13788889398">
		<tag k="name" v="Herdal" />
		<tag k="place" v="farm" />
		<tag k="ssr:stedsnr" v="666413" />
	</node>
	<node id="-495248" lat="58.2841083322" lon="7.35811111458">
		<tag k="name" v="Lien" />
		<tag k="place" v="locality" />
		<tag k="ssr:stedsnr" v="666106" />
	</node>
	<node id="-494269" lat="58.3532194454" lon="7.32296944791">
		<tag k="loc_name" v="Der borte" />
		<tag k="name" v="Iveland" />
		<tag k="place" v="farm" />
		<tag k="ssr:stedsnr" v="425725" />
	</node>
	<node id="-493136" lat="58.3584277753" lon="7.39671389603">
		<tag k="name" v="Grytinga" />
		<tag k="place" v="farm" />
		<tag k="ssr:stedsnr" v="158970" />
	</node>
	<node id="-492472" lat="58.3228083333" lon="7.39857777009">
		<tag k="name" v="Voddan" />
		<tag k="place" v="farm" />
		<tag k="ssr:stedsnr" v="219977" />
	</node>
	<node id="-493130" lat="58.2438138903" lon="7.40248611237">
		<tag k="alt_name" v="Ytre Hvreseland" />
		<tag k="name" v="Ytre Havre Seland" />
		<tag k="place" v="farm" />
		<tag k="ssr:stedsnr" v="158876" />
	</node>
	<node id="-495171" lat="58.1049250037" lon="6.9601138884">
		<tag k="name" v="Indre Eikeland" />
		<tag k="place" v="farm" />
		<tag k="ssr:stedsnr" v="728977" />
	</node>
	<node id="-495170" lat="58.4325277798" lon="7.41024444928">
		<tag k="name" v="Stedjan" />
		<tag k="place" v="farm" />
		<tag k="ssr:stedsnr" v="728928" />
	</node>
	<node id="-495167" lat="58.3604111126" lon="7.3434749919">
		<tag k="name" v="Høyland" />
		<tag k="place" v="farm" />
		<tag k="ssr:stedsnr" v="728881" />
	</node>
	<node id="-495162" lat="58.2629583366" lon="7.10565277251">
		<tag k="fixme" v="consider place=hamlet" />
		<tag k="name" v="Hægeland" />
		<tag k="place" v="farm" />
		<tag k="ssr:stedsnr" v="728601" />
	</node>
	<node id="-495160" lat="58.0729985321" lon="7.13236694474">
		<tag k="fixme" v="consider place=hamlet" />
		<tag k="name" v="Kittelsnes" />
		<tag k="place" v="farm" />
		<tag k="ssr:stedsnr" v="728597" />
	</node>
	<node id="-495159" lat="58.1149305558" lon="7.15446666642">
		<tag k="alt_name" v="Eiåsland" />
		<tag k="fixme" v="consider place=hamlet" />
		<tag k="name" v="Eiersland" />
		<tag k="place" v="farm" />
		<tag k="ssr:stedsnr" v="728541" />
	</node>
	<node id="-495154" lat="58.1048472261" lon="7.05499444998">
		<tag k="fixme" v="consider place=hamlet" />
		<tag k="name" v="Prestjord" />
		<tag k="place" v="farm" />
		<tag k="ssr:stedsnr" v="728492" />
	</node>
	<node id="-495152" lat="58.1503388909" lon="7.06063610945">
		<tag k="fixme" v="consider place=hamlet" />
		<tag k="name" v="Møskeland" />
		<tag k="place" v="farm" />
		<tag k="ssr:stedsnr" v="728464" />
	</node>
	<node id="-493102" lat="58.1137361088" lon="6.94765555216">
		<tag k="name" v="Djupvig" />
		<tag k="place" v="farm" />
		<tag k="ssr:stedsnr" v="271848" />
	</node>
	<node id="-493101" lat="58.1176416628" lon="6.94918055868">
		<tag k="name" v="Djupvig" />
		<tag k="place" v="farm" />
		<tag k="ssr:stedsnr" v="271846" />
	</node>
	<node id="-495148" lat="58.2377305548" lon="7.24621110554">
		<tag k="alt_name" v="Røynestøl" />
		<tag k="name" v="Østre Røynestøl" />
		<tag k="place" v="locality" />
		<tag k="ssr:stedsnr" v="728341" />
	</node>
	<node id="-495147" lat="58.2283833368" lon="7.03710555735">
		<tag k="name" v="Hellenes" />
		<tag k="place" v="locality" />
		<tag k="ssr:stedsnr" v="728338" />
	</node>
	<node id="-495144" lat="58.1649750029" lon="6.94838888267">
		<tag k="fixme" v="consider place=hamlet" />
		<tag k="name" v="Bjørnestad" />
		<tag k="place" v="farm" />
		<tag k="ssr:stedsnr" v="728205" />
	</node>
	<node id="-495143" lat="58.1302833319" lon="7.06252222432">
		<tag k="name" v="Skomrag" />
		<tag k="place" v="farm" />
		<tag k="ssr:stedsnr" v="631407" />
	</node>
	<node id="-495142" lat="58.1150458343" lon="7.03488733565">
		<tag k="name" v="Indre Svenevig" />
		<tag k="place" v="farm" />
		<tag k="ssr:stedsnr" v="630214" />
	</node>
	<node id="-495134" lat="58.0913750275" lon="7.03215849856">
		<tag k="alt_name" v="Lerviken" />
		<tag k="fixme" v="consider place=hamlet" />
		<tag k="name" v="Lervik" />
		<tag k="place" v="farm" />
		<tag k="ssr:stedsnr" v="628404" />
	</node>
	<node id="-493085" lat="58.2147833359" lon="7.17080277785">
		<tag k="name" v="Øygarden" />
		<tag k="place" v="locality" />
		<tag k="ssr:stedsnr" v="265319" />
	</node>
	<node id="-493068" lat="58.1368277789" lon="7.04312222938">
		<tag k="name" v="Kvåvikmoen" />
		<tag k="place" v="quarter" />
		<tag k="ssr:stedsnr" v="264878" />
	</node>
	<node id="-493062" lat="58.1682250024" lon="7.06035000804">
		<tag k="fixme" v="consider place=hamlet" />
		<tag k="name" v="Ramselia" />
		<tag k="place" v="farm" />
		<tag k="ssr:stedsnr" v="264842" />
	</node>
	<node id="-493052" lat="58.0614083313" lon="7.01897499504">
		<tag k="name" v="Vestregården" />
		<tag k="place" v="farm" />
		<tag k="ssr:stedsnr" v="264697" />
	</node>
	<node id="-495091" lat="58.2430138877" lon="7.35082777859">
		<tag k="fixme" v="consider place=hamlet" />
		<tag k="name" v="Geislefoss" />
		<tag k="place" v="farm" />
		<tag k="ssr:stedsnr" v="727258" />
	</node>
	<node id="-493003" lat="58.0210166644" lon="7.00639166417">
		<tag k="fixme" v="consider place=hamlet" />
		<tag k="name" v="Revøy ytre" />
		<tag k="place" v="farm" />
		<tag k="ssr:stedsnr" v="264295" />
	</node>
	<node id="-495049" lat="58.1503444461" lon="6.96813611333">
		<tag k="name" v="Eigenes" />
		<tag k="place" v="farm" />
		<tag k="ssr:stedsnr" v="606774" />
	</node>
	<node id="-495048" lat="58.4633500026" lon="7.38315555945">
		<tag k="alt_name" v="Flottorp, nedre" />
		<tag k="fixme" v="consider place=hamlet" />
		<tag k="name" v="Nedre Flottorp" />
		<tag k="place" v="farm" />
		<tag k="ssr:stedsnr" v="606555" />
	</node>
	<node id="-495047" lat="58.2647111148" lon="7.3474861109">
		<tag k="loc_name" v="På ægrå" />
		<tag k="name" v="Seland" />
		<tag k="place" v="farm" />
		<tag k="ssr:stedsnr" v="606835" />
	</node>
	<node id="-495046" lat="58.2720861134" lon="7.35530554714">
		<tag k="alt_name" v="Bordalen" />
		<tag k="name" v="Bordal" />
		<tag k="place" v="farm" />
		<tag k="ssr:stedsnr" v="606818" />
	</node>
	<node id="-495045" lat="58.2454166701" lon="7.38346389707">
		<tag k="fixme" v="consider place=hamlet" />
		<tag k="loc_name" v="Fiddan" />
		<tag k="name" v="Fidland" />
		<tag k="place" v="farm" />
		<tag k="ssr:stedsnr" v="606625" />
	</node>
	<node id="-495044" lat="58.0663388883" lon="7.03163333311">
		<tag k="fixme" v="consider place=hamlet" />
		<tag k="name" v="Askeland" />
		<tag k="place" v="farm" />
		<tag k="ssr:stedsnr" v="606615" />
	</node>
	<node id="-495042" lat="58.2027499987" lon="7.03076667435">
		<tag k="name" v="Ytre Eikeland" />
		<tag k="place" v="farm" />
		<tag k="ssr:stedsnr" v="606604" />
	</node>
	<node id="-495039" lat="58.208077437" lon="7.12158507267">
		<tag k="alt_name" v="Røynestøl" />
		<tag k="historic" v="shieling" />
		<tag k="name" v="Vestre Røynestøl" />
		<tag k="place" v="locality" />
		<tag k="ssr:stedsnr" v="606384" />
	</node>
	<node id="-495035" lat="58.187700002" lon="7.03657778304">
		<tag k="fixme" v="consider place=hamlet" />
		<tag k="name" v="Sådland" />
		<tag k="place" v="farm" />
		<tag k="ssr:stedsnr" v="606443" />
	</node>
	<node id="-495034" lat="58.1753111146" lon="6.99621111633">
		<tag k="alt_name" v="Glomsheller" />
		<tag k="fixme" v="consider place=hamlet" />
		<tag k="name" v="Glomshelleren" />
		<tag k="place" v="farm" />
		<tag k="ssr:stedsnr" v="606436" />
	</node>
	<node id="-495033" lat="58.1742361148" lon="7.01750833746">
		<tag k="fixme" v="consider place=hamlet" />
		<tag k="name" v="Dragland" />
		<tag k="place" v="farm" />
		<tag k="ssr:stedsnr" v="606434" />
	</node>
	<node id="-495032" lat="58.1530153818" lon="7.02475201178">
		<tag k="name" v="Bjerge" />
		<tag k="place" v="farm" />
		<tag k="ssr:stedsnr" v="606423" />
	</node>
	<node id="-495031" lat="58.2263277799" lon="7.15905000474">
		<tag k="name" v="Voilen" />
		<tag k="place" v="farm" />
		<tag k="ssr:stedsnr" v="606419" />
	</node>
	<node id="-495030" lat="58.2115861067" lon="7.00310833555">
		<tag k="name" v="Høyland" />
		<tag k="place" v="farm" />
		<tag k="ssr:stedsnr" v="606409" />
	</node>
	<node id="-492972" lat="58.2435944413" lon="7.08521389625">
		<tag k="name" v="Tjønnebakken" />
		<tag k="place" v="locality" />
		<tag k="ssr:stedsnr" v="264122" />
	</node>
	<node id="-495019" lat="58.4152176501" lon="7.38142135024">
		<tag k="name" v="Golevik" />
		<tag k="place" v="farm" />
		<tag k="ssr:stedsnr" v="605165" />
	</node>
	<node id="-492955" lat="58.2515722213" lon="7.06451110575">
		<tag k="alt_name" v="Tofteland" />
		<tag k="name" v="Topteland" />
		<tag k="place" v="farm" />
		<tag k="ssr:stedsnr" v="121620" />
	</node>
	<node id="-492954" lat="58.0719277771" lon="7.03098610545">
		<tag k="fixme" v="consider place=hamlet" />
		<tag k="name" v="Høyland" />
		<tag k="place" v="farm" />
		<tag k="ssr:stedsnr" v="121619" />
	</node>
	<node id="-492953" lat="58.0845111126" lon="7.13925555288">
		<tag k="fixme" v="consider place=hamlet" />
		<tag k="name" v="Åmland" />
		<tag k="place" v="farm" />
		<tag k="ssr:stedsnr" v="121612" />
	</node>
	<node id="-492952" lat="58.0812888905" lon="7.12336944762">
		<tag k="alt_name" v="Fladstad" />
		<tag k="name" v="Flatstad" />
		<tag k="place" v="hamlet" />
		<tag k="ssr:stedsnr" v="121610" />
	</node>
	<node id="-492951" lat="58.4992361118" lon="7.48148054872">
		<tag k="name" v="Fugletveit" />
		<tag k="place" v="farm" />
		<tag k="ssr:stedsnr" v="121609" />
	</node>
	<node id="-494261" lat="58.2257111116" lon="7.10220277483">
		<tag k="fixme" v="consider place=hamlet" />
		<tag k="name" v="Skjerland" />
		<tag k="place" v="farm" />
		<tag k="ssr:stedsnr" v="425425" />
	</node>
	<node id="-492930" lat="58.4276750019" lon="7.36346388467">
		<tag k="loc_name" v="Slettåsen" />
		<tag k="name" v="Sletåsen" />
		<tag k="place" v="farm" />
		<tag k="ssr:stedsnr" v="111533" />
	</node>
	<node id="-496187" lat="58.3738805531" lon="7.37766944569">
		<tag k="name" v="Fjaddåkeren" />
		<tag k="place" v="farm" />
		<tag k="ssr:stedsnr" v="947021" />
	</node>
	<node id="-495150" lat="58.2025249989" lon="7.09225000819">
		<tag k="alt_name" v="Vintland østre" />
		<tag k="name" v="Vintland" />
		<tag k="place" v="hamlet" />
		<tag k="ssr:stedsnr" v="728393" />
	</node>
	<node id="-492810" lat="58.2814999982" lon="7.24860278196">
		<tag k="name" v="Haugejord" />
		<tag k="place" v="farm" />
		<tag k="ssr:stedsnr" v="82323" />
	</node>
	<node id="-492794" lat="58.4063027737" lon="7.36630833537">
		<tag k="alt_name" v="Øydna, øvre;Øvre Øydne" />
		<tag k="fixme" v="consider place=hamlet" />
		<tag k="name" v="Øvre Øydna" />
		<tag k="place" v="farm" />
		<tag k="ssr:stedsnr" v="243897" />
	</node>
	<node id="-492791" lat="58.1188222179" lon="6.97599165959">
		<tag k="fixme" v="consider place=hamlet" />
		<tag k="name" v="Ramsdalen" />
		<tag k="place" v="farm" />
		<tag k="ssr:stedsnr" v="243549" />
	</node>
	<node id="-492790" lat="58.1346194446" lon="7.11924165918">
		<tag k="alt_name" v="Rødland" />
		<tag k="fixme" v="consider place=hamlet" />
		<tag k="name" v="Røydland" />
		<tag k="place" v="farm" />
		<tag k="ssr:stedsnr" v="243544" />
	</node>
	<node id="-492789" lat="58.4820444464" lon="7.46345833384">
		<tag k="name" v="Lunden" />
		<tag k="place" v="farm" />
		<tag k="ssr:stedsnr" v="243596" />
	</node>
	<node id="-492786" lat="58.1089305589" lon="7.056902776">
		<tag k="name" v="Øydna" />
		<tag k="place" v="farm" />
		<tag k="ssr:stedsnr" v="243501" />
	</node>
	<node id="-492784" lat="58.2441500026" lon="7.07326110439">
		<tag k="fixme" v="consider place=hamlet" />
		<tag k="name" v="Eitland" />
		<tag k="place" v="farm" />
		<tag k="ssr:stedsnr" v="243401" />
	</node>
	<node id="-492779" lat="58.215125" lon="6.98128611075">
		<tag k="name" v="Vintland" />
		<tag k="place" v="isolated_dwelling" />
		<tag k="ssr:stedsnr" v="243428" />
	</node>
	<node id="-492778" lat="58.2251833352" lon="7.19622777119">
		<tag k="alt_name" v="Tofteland østre;Tofteland" />
		<tag k="fixme" v="consider place=hamlet" />
		<tag k="name" v="Topteland" />
		<tag k="place" v="farm" />
		<tag k="ssr:stedsnr" v="243424" />
	</node>
	<node id="-496167" lat="58.1723472178" lon="6.90623333006">
		<tag k="name" v="Hommen" />
		<tag k="place" v="locality" />
		<tag k="ssr:stedsnr" v="931707" />
	</node>
	<node id="-492776" lat="58.10856111" lon="6.96461110998">
		<tag k="fixme" v="consider place=hamlet" />
		<tag k="name" v="Indre Eikeland" />
		<tag k="place" v="farm" />
		<tag k="ssr:stedsnr" v="243287" />
	</node>
	<node id="-492773" lat="58.1254249996" lon="7.07616666104">
		<tag k="name" v="Åvesland" />
		<tag k="place" v="farm" />
		<tag k="ssr:stedsnr" v="242845" />
	</node>
	<node id="-492772" lat="58.1103416678" lon="6.95228334045">
		<tag k="name" v="Kollevoll" />
		<tag k="place" v="farm" />
		<tag k="ssr:stedsnr" v="242837" />
	</node>
	<node id="-492771" lat="58.1116916646" lon="6.95188333604">
		<tag k="name" v="Kollevoll" />
		<tag k="place" v="farm" />
		<tag k="ssr:stedsnr" v="242823" />
	</node>
	<node id="-492770" lat="58.2041833309" lon="7.03039721547">
		<tag k="name" v="Vestre Eikeland" />
		<tag k="place" v="farm" />
		<tag k="ssr:stedsnr" v="242584" />
	</node>
	<node id="-492769" lat="58.2017027752" lon="7.02514167191">
		<tag k="name" v="Ytre Eikeland" />
		<tag k="place" v="farm" />
		<tag k="ssr:stedsnr" v="242582" />
	</node>
	<node id="-492768" lat="58.0852388867" lon="7.07345000794">
		<tag k="alt_name" v="Knuden" />
		<tag k="fixme" v="consider place=hamlet" />
		<tag k="name" v="Knuten" />
		<tag k="place" v="farm" />
		<tag k="ssr:stedsnr" v="242568" />
	</node>
	<node id="-492766" lat="58.1506499995" lon="6.96150833686">
		<tag k="name" v="Eikenes" />
		<tag k="place" v="farm" />
		<tag k="ssr:stedsnr" v="60791" />
	</node>
	<node id="-492765" lat="58.2321111072" lon="7.16522777584">
		<tag k="alt_name" v="Væmestad" />
		<tag k="name" v="Vemestad" />
		<tag k="place" v="hamlet" />
		<tag k="ssr:stedsnr" v="239698" />
	</node>
	<node id="-494453" lat="58.1359194466" lon="7.19090832802">
		<tag k="fixme" v="consider place=hamlet" />
		<tag k="name" v="Grummedal" />
		<tag k="place" v="farm" />
		<tag k="ssr:stedsnr" v="667514" />
	</node>
	<node id="-496828" lat="58.5041888845" lon="7.47304443607">
		<tag k="name" v="Gyros øygard" />
		<tag k="place" v="locality" />
		<tag k="ssr:stedsnr" v="97221" />
	</node>
	<node id="-494777" lat="58.4665444451" lon="7.39576388979">
		<tag k="name" v="Øygarden" />
		<tag k="place" v="farm" />
		<tag k="ssr:stedsnr" v="703129" />
	</node>
	<node id="-494775" lat="58.2534861123" lon="7.35174999933">
		<tag k="alt_name" v="Viblemo" />
		<tag k="fixme" v="consider place=hamlet" />
		<tag k="name" v="Vivlemo" />
		<tag k="place" v="farm" />
		<tag k="ssr:stedsnr" v="546206" />
	</node>
	<node id="-494774" lat="58.1273249989" lon="7.14983333894">
		<tag k="name" v="Østre Eikeland" />
		<tag k="place" v="farm" />
		<tag k="ssr:stedsnr" v="545603" />
	</node>
	<node id="-496810" lat="58.1346333343" lon="6.994880559">
		<tag k="name" v="Sørlia" />
		<tag k="place" v="farm" />
		<tag k="ssr:stedsnr" v="89819" />
	</node>
	<node id="-496809" lat="58.1172555588" lon="6.94786389702">
		<tag k="fixme" v="consider place=hamlet" />
		<tag k="name" v="Djupvig" />
		<tag k="place" v="farm" />
		<tag k="ssr:stedsnr" v="89811" />
	</node>
	<node id="-494448" lat="58.1353861095" lon="6.97480278209">
		<tag k="alt_name" v="Tofta;Tofte" />
		<tag k="name" v="Tufta" />
		<tag k="place" v="locality" />
		<tag k="ssr:stedsnr" v="667500" />
	</node>
	<node id="-496768" lat="58.1774277776" lon="7.05361667086">
		<tag k="name" v="Slettåsen" />
		<tag k="place" v="farm" />
		<tag k="ssr:stedsnr" v="82375" />
	</node>
	<node id="-496762" lat="58.203366664" lon="7.14618888515">
		<tag k="name" v="Øysteinsland nedre" />
		<tag k="place" v="locality" />
		<tag k="ssr:stedsnr" v="82244" />
	</node>
	<node id="-496753" lat="58.0318249991" lon="7.01753889276">
		<tag k="fixme" v="consider place=hamlet" />
		<tag k="name" v="Revøy indre" />
		<tag k="place" v="farm" />
		<tag k="ssr:stedsnr" v="82281" />
	</node>
	<node id="-496750" lat="58.2025444447" lon="7.12807221622">
		<tag k="name" v="Spilling" />
		<tag k="place" v="farm" />
		<tag k="ssr:stedsnr" v="82099" />
	</node>
	<node id="-496744" lat="58.3566388885" lon="7.39848610783">
		<tag k="loc_name" v="Røyjordæ" />
		<tag k="name" v="Røyjordet" />
		<tag k="place" v="farm" />
		<tag k="ssr:stedsnr" v="61958" />
	</node>
	<node id="-496743" lat="58.40631944" lon="7.40884999229">
		<tag k="alt_name" v="Rudlend" />
		<tag k="fixme" v="consider place=hamlet" />
		<tag k="name" v="Rydlendet" />
		<tag k="place" v="farm" />
		<tag k="ssr:stedsnr" v="61901" />
	</node>
	<node id="-496742" lat="58.4078388879" lon="7.35860555003">
		<tag k="name" v="Vestegarden" />
		<tag k="place" v="farm" />
		<tag k="ssr:stedsnr" v="61899" />
	</node>
	<node id="-496741" lat="58.3514860511" lon="7.38496997787">
		<tag k="alt_name" v="Ødegård" />
		<tag k="name" v="Øygard" />
		<tag k="place" v="farm" />
		<tag k="ssr:stedsnr" v="61776" />
	</node>
	<node id="-496738" lat="58.2499000007" lon="7.13620832999">
		<tag k="fixme" v="multiple name tags, choose one and add the other to alt_name; consider place=hamlet" />
		<tag k="name" v="Basteli;Bastelien" />
		<tag k="place" v="farm" />
		<tag k="ssr:stedsnr" v="61604" />
	</node>
	<node id="-496736" lat="58.2535888898" lon="7.23145277829">
		<tag k="fixme" v="consider place=hamlet" />
		<tag k="name" v="Myglestøl" />
		<tag k="place" v="farm" />
		<tag k="ssr:stedsnr" v="61592" />
	</node>
	<node id="-496733" lat="58.4835888894" lon="7.4529999973">
		<tag k="alt_name" v="Svindal, vestre" />
		<tag k="fixme" v="consider place=hamlet" />
		<tag k="name" v="Vestre Sveindal" />
		<tag k="place" v="farm" />
		<tag k="ssr:stedsnr" v="61580" />
	</node>
	<node id="-496732" lat="58.0369722252" lon="6.99325277026">
		<tag k="fixme" v="consider place=hamlet" />
		<tag k="name" v="Ramsjord" />
		<tag k="place" v="farm" />
		<tag k="ssr:stedsnr" v="61578" />
	</node>
	<node id="-496731" lat="58.0479666654" lon="7.0150500067">
		<tag k="fixme" v="consider place=hamlet" />
		<tag k="name" v="Vasstøl" />
		<tag k="place" v="farm" />
		<tag k="ssr:stedsnr" v="61564" />
	</node>
	<node id="-494681" lat="58.1375888924" lon="7.07184166401">
		<tag k="fixme" v="consider place=suburb, village or hamlet" />
		<tag k="name" v="Berge" />
		<tag k="place" v="quarter" />
		<tag k="ssr:stedsnr" v="689877" />
	</node>
	<node id="-496728" lat="58.1305277749" lon="7.10608889042">
		<tag k="alt_name" v="Biktjønn;Bigtjønn" />
		<tag k="fixme" v="consider place=hamlet" />
		<tag k="name" v="Biktjørn" />
		<tag k="place" v="farm" />
		<tag k="ssr:stedsnr" v="61519" />
	</node>
	<node id="-496727" lat="58.1237508401" lon="7.16185509891">
		<tag k="fixme" v="consider place=hamlet" />
		<tag k="name" v="Østre Eikeland" />
		<tag k="place" v="farm" />
		<tag k="ssr:stedsnr" v="61517" />
	</node>
	<node id="-496726" lat="58.1363916643" lon="7.167875002">
		<tag k="alt_name" v="Skåd" />
		<tag k="historic" v="shieling" />
		<tag k="name" v="Skod" />
		<tag k="place" v="locality" />
		<tag k="ssr:stedsnr" v="61513" />
	</node>
	<node id="-496725" lat="58.1000972223" lon="7.10832499928">
		<tag k="fixme" v="consider place=hamlet" />
		<tag k="name" v="Steinsland" />
		<tag k="place" v="farm" />
		<tag k="ssr:stedsnr" v="61488" />
	</node>
	<node id="-496724" lat="58.1101527815" lon="7.02611110244">
		<tag k="name" v="Svenevik" />
		<tag k="place" v="hamlet" />
		<tag k="ssr:stedsnr" v="61481" />
	</node>
	<node id="-496723" lat="58.1114694485" lon="7.00089165936">
		<tag k="fixme" v="consider place=hamlet" />
		<tag k="name" v="Nenningsland" />
		<tag k="place" v="farm" />
		<tag k="ssr:stedsnr" v="61480" />
	</node>
	<node id="-496722" lat="58.1047861075" lon="7.094397221">
		<tag k="name" v="Ballestad" />
		<tag k="place" v="locality" />
		<tag k="ssr:stedsnr" v="61479" />
	</node>
	<node id="-496721" lat="58.1607222186" lon="7.08360277921">
		<tag k="alt_name" v="Strømsnes" />
		<tag k="name" v="Straumnes" />
		<tag k="place" v="farm" />
		<tag k="ssr:stedsnr" v="61475" />
	</node>
	<node id="-496720" lat="58.1656777774" lon="7.11414165878">
		<tag k="name" v="Høyland" />
		<tag k="place" v="farm" />
		<tag k="ssr:stedsnr" v="61471" />
	</node>
	<node id="-496719" lat="58.1519527809" lon="7.11070278568">
		<tag k="alt_name" v="Gauksåsen" />
		<tag k="fixme" v="consider place=hamlet" />
		<tag k="name" v="Gauksås" />
		<tag k="place" v="farm" />
		<tag k="ssr:stedsnr" v="61468" />
	</node>
	<node id="-496716" lat="58.2051249974" lon="7.1514999959">
		<tag k="fixme" v="consider place=hamlet" />
		<tag k="name" v="Øysteinsland" />
		<tag k="place" v="farm" />
		<tag k="ssr:stedsnr" v="61393" />
	</node>
	<node id="-496715" lat="58.1116305595" lon="7.02416666306">
		<tag k="alt_name" v="Utland" />
		<tag k="fixme" v="consider place=hamlet" />
		<tag k="name" v="Udland" />
		<tag k="place" v="farm" />
		<tag k="ssr:stedsnr" v="61391" />
	</node>
	<node id="-496710" lat="58.38634167" lon="7.44322222229">
		<tag k="name" v="Skogen" />
		<tag k="place" v="farm" />
		<tag k="ssr:stedsnr" v="60994" />
	</node>
	<node id="-496709" lat="58.3728444439" lon="7.35617777454">
		<tag k="name" v="Kleppan" />
		<tag k="place" v="farm" />
		<tag k="ssr:stedsnr" v="60945" />
	</node>
	<node id="-492611" lat="58.246919445" lon="7.38271388242">
		<tag k="name" v="Nerejordet" />
		<tag k="place" v="farm" />
		<tag k="ssr:stedsnr" v="36873" />
	</node>
	<node id="-496706" lat="58.0839444451" lon="7.08022222196">
		<tag k="alt_name" v="Birkjestøl" />
		<tag k="name" v="Birkestøl" />
		<tag k="place" v="farm" />
		<tag k="ssr:stedsnr" v="60588" />
	</node>
	<node id="-496705" lat="58.079077779" lon="7.04203333265">
		<tag k="fixme" v="consider place=hamlet" />
		<tag k="name" v="Nyland" />
		<tag k="place" v="farm" />
		<tag k="ssr:stedsnr" v="60583" />
	</node>
	<node id="-496704" lat="58.1907694423" lon="7.09906944166">
		<tag k="alt_name" v="Grimshammer" />
		<tag k="fixme" v="consider place=hamlet" />
		<tag k="name" v="Grimshammar" />
		<tag k="place" v="farm" />
		<tag k="ssr:stedsnr" v="60435" />
	</node>
	<node id="-496703" lat="58.112277777" lon="6.95471944696">
		<tag k="alt_name" v="Kolevoll" />
		<tag k="name" v="Kollevoll" />
		<tag k="place" v="hamlet" />
		<tag k="ssr:stedsnr" v="60274" />
	</node>
	<node id="-496702" lat="58.2554067952" lon="7.40893479329">
		<tag k="alt_name" v="Birkjeland" />
		<tag k="loc_name" v="Eigerunnan" />
		<tag k="name" v="Birkeland" />
		<tag k="place" v="farm" />
		<tag k="ssr:stedsnr" v="60215" />
	</node>
	<node id="-494641" lat="58.0251583332" lon="7.01406667199">
		<tag k="fixme" v="consider place=hamlet" />
		<tag k="name" v="Revøy midtre" />
		<tag k="place" v="farm" />
		<tag k="ssr:stedsnr" v="689394" />
	</node>
	<node id="-494631" lat="58.1705583311" lon="7.22830277854">
		<tag k="fixme" v="consider place=hamlet" />
		<tag k="name" v="Løland" />
		<tag k="place" v="farm" />
		<tag k="ssr:stedsnr" v="689343" />
	</node>
	<node id="-494620" lat="58.0328555553" lon="7.00324166049">
		<tag k="name" v="Hunsdalen" />
		<tag k="place" v="locality" />
		<tag k="ssr:stedsnr" v="689311" />
	</node>
	<node id="-494573" lat="58.1516305558" lon="6.90164721427">
		<tag k="name" v="Vestigarden" />
		<tag k="place" v="farm" />
		<tag k="ssr:stedsnr" v="749678" />
	</node>
	<node id="-492478" lat="58.1909499963" lon="7.07104444843">
		<tag k="alt_name" v="Gjeitebu" />
		<tag k="name" v="Geitebu" />
		<tag k="place" v="locality" />
		<tag k="ssr:stedsnr" v="21013" />
	</node>
	<node id="-494525" lat="58.4018972206" lon="7.36261111686">
		<tag k="name" v="Ekra" />
		<tag k="place" v="farm" />
		<tag k="ssr:stedsnr" v="485981" />
	</node>
	<node id="-494524" lat="58.2743708848" lon="7.41498117774">
		<tag k="alt_name" v="Skardstad" />
		<tag k="loc_name" v="Austigaren" />
		<tag k="name" v="Skarstad" />
		<tag k="place" v="farm" />
		<tag k="ssr:stedsnr" v="485786" />
	</node>
	<node id="-494523" lat="58.1492166682" lon="6.95898889564">
		<tag k="name" v="Eikenes" />
		<tag k="place" v="farm" />
		<tag k="ssr:stedsnr" v="485759" />
	</node>
	<node id="-494522" lat="58.1521444419" lon="7.02685000841">
		<tag k="name" v="Bjerge" />
		<tag k="place" v="farm" />
		<tag k="ssr:stedsnr" v="485828" />
	</node>
	<node id="-494520" lat="58.1224777786" lon="7.16390833182">
		<tag k="name" v="Østre Eikeland" />
		<tag k="place" v="farm" />
		<tag k="ssr:stedsnr" v="485575" />
	</node>
	<node id="-494518" lat="58.2526388851" lon="7.1913305548">
		<tag k="name" v="Moismoen" />
		<tag k="place" v="farm" />
		<tag k="ssr:stedsnr" v="485568" />
	</node>
	<node id="-494516" lat="58.2073445422" lon="7.07620839554">
		<tag k="alt_name" v="Kvelland, l" />
		<tag k="fixme" v="multiple name tags, choose one and add the other to alt_name; consider place=hamlet" />
		<tag k="name" v="Kvelland lille;Lille Kvelland" />
		<tag k="place" v="farm" />
		<tag k="ssr:stedsnr" v="485354" />
	</node>
	<node id="-494515" lat="58.0895805537" lon="7.00436110296">
		<tag k="fixme" v="consider place=hamlet" />
		<tag k="name" v="Visdal" />
		<tag k="place" v="farm" />
		<tag k="ssr:stedsnr" v="485475" />
	</node>
	<node id="-494514" lat="58.099511109" lon="7.15098333413">
		<tag k="fixme" v="consider place=hamlet" />
		<tag k="name" v="Fleseland" />
		<tag k="place" v="farm" />
		<tag k="ssr:stedsnr" v="485469" />
	</node>
	<node id="-492464" lat="58.2803555577" lon="7.29091388096">
		<tag k="loc_name" v="Hampen" />
		<tag k="name" v="Hagen" />
		<tag k="place" v="farm" />
		<tag k="ssr:stedsnr" v="219939" />
	</node>
	<node id="-494510" lat="58.1918333305" lon="7.08451389334">
		<tag k="name" v="Hægeland" />
		<tag k="place" v="farm" />
		<tag k="ssr:stedsnr" v="485404" />
	</node>
	<node id="-494509" lat="58.2413749995" lon="7.21711388063">
		<tag k="fixme" v="multiple name tags, choose one and add the other to alt_name; consider place=hamlet" />
		<tag k="name" v="Gusa;Guse" />
		<tag k="place" v="farm" />
		<tag k="ssr:stedsnr" v="485326" />
	</node>
	<node id="-494508" lat="58.2479611111" lon="7.21784166886">
		<tag k="name" v="Hepte" />
		<tag k="place" v="farm" />
		<tag k="ssr:stedsnr" v="485325" />
	</node>
	<node id="-494507" lat="58.2423472185" lon="7.33898055279">
		<tag k="alt_name" v="Ytre Skår" />
		<tag k="fixme" v="consider place=hamlet" />
		<tag k="name" v="Skår" />
		<tag k="place" v="farm" />
		<tag k="ssr:stedsnr" v="485322" />
	</node>
	<node id="-494484" lat="58.0363999968" lon="7.0196111084">
		<tag k="name" v="Strandjord" />
		<tag k="place" v="farm" />
		<tag k="ssr:stedsnr" v="668700" />
	</node>
	<node id="-494483" lat="58.0426623316" lon="7.0114996998">
		<tag k="name" v="Holvik" />
		<tag k="place" v="hamlet" />
		<tag k="ssr:stedsnr" v="668599" />
	</node>
	<node id="-494482" lat="58.0440888905" lon="7.02587499384">
		<tag k="fixme" v="consider place=hamlet" />
		<tag k="name" v="Hundingsland" />
		<tag k="place" v="farm" />
		<tag k="ssr:stedsnr" v="668597" />
	</node>
	<node id="-494481" lat="58.3523805527" lon="7.38580277873">
		<tag k="alt_name" v="Ågedalstø" />
		<tag k="name" v="Ågedalstøi" />
		<tag k="place" v="farm" />
		<tag k="ssr:stedsnr" v="667970" />
	</node>
	<node id="-494479" lat="58.3714194474" lon="7.41671944302">
		<tag k="alt_name" v="Dalan" />
		<tag k="name" v="Ytre Dalan" />
		<tag k="place" v="farm" />
		<tag k="ssr:stedsnr" v="667940" />
	</node>
	<node id="-494478" lat="58.4043638872" lon="7.3441333268">
		<tag k="name" v="Ås" />
		<tag k="place" v="farm" />
		<tag k="ssr:stedsnr" v="667867" />
	</node>
	<node id="-494476" lat="58.423302775" lon="7.36579722135">
		<tag k="alt_name" v="Rebåsen;Reppåsen" />
		<tag k="fixme" v="consider place=hamlet" />
		<tag k="loc_name" v="Rebbåsæn" />
		<tag k="name" v="Rebbåsen" />
		<tag k="place" v="farm" />
		<tag k="ssr:stedsnr" v="667856" />
	</node>
	<node id="-494470" lat="58.1515055575" lon="6.96223889019">
		<tag k="name" v="Eigenes" />
		<tag k="place" v="farm" />
		<tag k="ssr:stedsnr" v="667735" />
	</node>
	<node id="-494469" lat="58.2401500042" lon="7.36594721563">
		<tag k="fixme" v="consider place=hamlet" />
		<tag k="name" v="Håland" />
		<tag k="place" v="farm" />
		<tag k="ssr:stedsnr" v="667592" />
	</node>
	<node id="-494467" lat="58.1209052904" lon="7.16162649209">
		<tag k="name" v="Østre Eikeland" />
		<tag k="place" v="farm" />
		<tag k="ssr:stedsnr" v="667576" />
	</node>
	<node id="-494466" lat="58.2650749976" lon="7.28855000766">
		<tag k="name" v="Åsan" />
		<tag k="place" v="isolated_dwelling" />
		<tag k="ssr:stedsnr" v="667574" />
	</node>
	<node id="-494465" lat="58.1073361099" lon="6.95856666979">
		<tag k="name" v="Indre Eikeland" />
		<tag k="place" v="farm" />
		<tag k="ssr:stedsnr" v="667572" />
	</node>
	<node id="-494464" lat="58.1089694409" lon="6.97152500699">
		<tag k="name" v="Indre Eikeland" />
		<tag k="place" v="farm" />
		<tag k="ssr:stedsnr" v="667570" />
	</node>
	<node id="-494462" lat="58.2541388861" lon="7.24641389514">
		<tag k="fixme" v="consider place=hamlet" />
		<tag k="name" v="Løland" />
		<tag k="place" v="farm" />
		<tag k="ssr:stedsnr" v="667565" />
	</node>
	<node id="-494461" lat="58.0768166635" lon="6.98272500524">
		<tag k="alt_name" v="Stueland" />
		<tag k="fixme" v="consider place=hamlet" />
		<tag k="name" v="Stuland" />
		<tag k="place" v="farm" />
		<tag k="ssr:stedsnr" v="667564" />
	</node>
	<node id="-494460" lat="58.0802583291" lon="6.98503889266">
		<tag k="name" v="Reiskard" />
		<tag k="place" v="farm" />
		<tag k="ssr:stedsnr" v="667563" />
	</node>
	<node id="-492411" lat="58.2377499976" lon="7.16014999909">
		<tag k="fixme" v="consider place=hamlet" />
		<tag k="name" v="Li" />
		<tag k="place" v="farm" />
		<tag k="ssr:stedsnr" v="387" />
	</node>
	<node id="-496506" lat="58.3254777812" lon="7.3933000083">
		<tag k="fixme" v="consider place=hamlet" />
		<tag k="name" v="Røysen" />
		<tag k="place" v="farm" />
		<tag k="ssr:stedsnr" v="37988" />
	</node>
	<node id="-494456" lat="58.1263500024" lon="7.08553611647">
		<tag k="alt_name" v="Haukelien" />
		<tag k="fixme" v="consider place=hamlet" />
		<tag k="name" v="Haukeli" />
		<tag k="place" v="farm" />
		<tag k="ssr:stedsnr" v="667519" />
	</node>
	<node id="-494455" lat="58.1251333354" lon="7.0764361045">
		<tag k="name" v="Åvesland" />
		<tag k="place" v="hamlet" />
		<tag k="ssr:stedsnr" v="667518" />
	</node>
	<node id="-494454" lat="58.127005559" lon="7.12650555339">
		<tag k="name" v="Fokvelland" />
		<tag k="place" v="farm" />
		<tag k="ssr:stedsnr" v="667516" />
	</node>
	<node id="-496501" lat="58.3238361112" lon="7.29354166925">
		<tag k="name" v="Øvre Eikeland" />
		<tag k="place" v="locality" />
		<tag k="ssr:stedsnr" v="37791" />
	</node>
	<node id="-494452" lat="58.1364750043" lon="7.18247500746">
		<tag k="fixme" v="consider place=hamlet" />
		<tag k="name" v="Lene" />
		<tag k="place" v="farm" />
		<tag k="ssr:stedsnr" v="667512" />
	</node>
	<node id="-494451" lat="58.137675002" lon="7.06750277474">
		<tag k="name" v="Alleen" />
		<tag k="place" v="village" />
		<tag k="ssr:stedsnr" v="667504" />
	</node>
	<node id="-494450" lat="58.3095111095" lon="7.31482500152">
		<tag k="alt_name" v="Sobelia" />
		<tag k="name" v="Såpelia" />
		<tag k="place" v="farm" />
		<tag k="ssr:stedsnr" v="667502" />
	</node>
	<node id="-494449" lat="58.1317000001" lon="7.03964999831">
		<tag k="fixme" v="consider place=hamlet" />
		<tag k="name" v="Kvåvik" />
		<tag k="place" v="farm" />
		<tag k="ssr:stedsnr" v="667501" />
	</node>
	<node id="-496496" lat="58.4801999999" lon="7.39570555424">
		<tag k="name" v="Øygarden" />
		<tag k="place" v="farm" />
		<tag k="ssr:stedsnr" v="37191" />
	</node>
	<node id="-494446" lat="58.2725861093" lon="7.08962500836">
		<tag k="fixme" v="consider place=hamlet" />
		<tag k="name" v="Røyseland" />
		<tag k="place" v="farm" />
		<tag k="ssr:stedsnr" v="667474" />
	</node>
	<node id="-494445" lat="58.1629583362" lon="7.01751110339">
		<tag k="fixme" v="consider place=hamlet" />
		<tag k="name" v="Egilstad" />
		<tag k="place" v="farm" />
		<tag k="ssr:stedsnr" v="667462" />
	</node>
	<node id="-494443" lat="58.1555638897" lon="7.00512499745">
		<tag k="fixme" v="consider place=hamlet" />
		<tag k="name" v="Næveland" />
		<tag k="place" v="farm" />
		<tag k="ssr:stedsnr" v="667449" />
	</node>
	<node id="-494442" lat="58.1556096832" lon="7.13725634879">
		<tag k="fixme" v="consider place=hamlet" />
		<tag k="name" v="Herdal" />
		<tag k="place" v="farm" />
		<tag k="ssr:stedsnr" v="667439" />
	</node>
	<node id="-494439" lat="58.2356916626" lon="7.14551667506">
		<tag k="fixme" v="consider place=hamlet" />
		<tag k="name" v="Høyland" />
		<tag k="place" v="farm" />
		<tag k="ssr:stedsnr" v="667367" />
	</node>
	<node id="-494438" lat="58.117127781" lon="6.96223055225">
		<tag k="name" v="Aunevikneset" />
		<tag k="place" v="farm" />
		<tag k="ssr:stedsnr" v="667283" />
	</node>
	<node id="-496447" lat="58.2434583363" lon="7.36636388347">
		<tag k="loc_name" v="Myrå" />
		<tag k="name" v="Myra" />
		<tag k="place" v="locality" />
		<tag k="ssr:stedsnr" v="36877" />
	</node>
	<node id="-496418" lat="58.0777833365" lon="7.07702777065">
		<tag k="fixme" v="consider place=hamlet" />
		<tag k="name" v="Birkeland" />
		<tag k="place" v="farm" />
		<tag k="ssr:stedsnr" v="21800" />
	</node>
	<node id="-496401" lat="58.1089916683" lon="7.00374445221">
		<tag k="alt_name" v="Hellerås" />
		<tag k="fixme" v="consider place=hamlet" />
		<tag k="name" v="Helleråsen" />
		<tag k="place" v="farm" />
		<tag k="ssr:stedsnr" v="21754" />
	</node>
	<node id="-496338" lat="58.4340277803" lon="7.48221666016">
		<tag k="loc_name" v="Der heima" />
		<tag k="name" v="Seland" />
		<tag k="place" v="farm" />
		<tag k="ssr:stedsnr" v="938" />
	</node>
	<node id="-496333" lat="58.3035249963" lon="7.38330278107">
		<tag k="alt_name" v="Biktjønn" />
		<tag k="name" v="Biktjørn" />
		<tag k="place" v="isolated_dwelling" />
		<tag k="ssr:stedsnr" v="854" />
	</node>
	<node id="-496332" lat="58.335175002" lon="7.40927222646">
		<tag k="name" v="Nåstad" />
		<tag k="place" v="farm" />
		<tag k="ssr:stedsnr" v="808" />
	</node>
	<node id="-496327" lat="58.2901583366" lon="7.33105277934">
		<tag k="loc_name" v="I Jile" />
		<tag k="name" v="Nepstad" />
		<tag k="place" v="farm" />
		<tag k="ssr:stedsnr" v="517" />
	</node>
	<node id="-496323" lat="58.1480166672" lon="7.00379167409">
		<tag k="fixme" v="consider place=hamlet" />
		<tag k="name" v="Fiveland" />
		<tag k="place" v="farm" />
		<tag k="ssr:stedsnr" v="491" />
	</node>
	<node id="-496322" lat="58.1504277764" lon="6.98064999962">
		<tag k="fixme" v="consider place=hamlet" />
		<tag k="name" v="Hindersland" />
		<tag k="place" v="farm" />
		<tag k="ssr:stedsnr" v="490" />
	</node>
	<node id="-496321" lat="58.1321277808" lon="6.94184166709">
		<tag k="name" v="Kjempe" />
		<tag k="place" v="locality" />
		<tag k="ssr:stedsnr" v="263" />
	</node>
	<node id="-494270" lat="58.0684638919" lon="7.07588611391">
		<tag k="fixme" v="consider place=hamlet" />
		<tag k="name" v="Nakkestad" />
		<tag k="place" v="farm" />
		<tag k="ssr:stedsnr" v="425603" />
	</node>
	<node id="-496317" lat="58.1566916662" lon="7.11218610407">
		<tag k="fixme" v="consider place=hamlet" />
		<tag k="name" v="Hagen" />
		<tag k="place" v="farm" />
		<tag k="ssr:stedsnr" v="479" />
	</node>
	<node id="-496316" lat="58.1512527773" lon="7.22517500684">
		<tag k="fixme" v="consider place=hamlet" />
		<tag k="name" v="Homeland" />
		<tag k="place" v="farm" />
		<tag k="ssr:stedsnr" v="477" />
	</node>
	<node id="-496315" lat="58.1804555581" lon="7.21470554727">
		<tag k="alt_name" v="Sandal" />
		<tag k="fixme" v="consider place=hamlet" />
		<tag k="name" v="Sanddal" />
		<tag k="place" v="farm" />
		<tag k="ssr:stedsnr" v="456" />
	</node>
	<node id="-494266" lat="58.2979527815" lon="7.19205278123">
		<tag k="alt_name" v="Skår" />
		<tag k="fixme" v="consider place=hamlet" />
		<tag k="name" v="Skor" />
		<tag k="place" v="farm" />
		<tag k="ssr:stedsnr" v="425505" />
	</node>
	<node id="-496311" lat="58.0653534621" lon="7.00029223731">
		<tag k="name" v="Bærøy" />
		<tag k="place" v="farm" />
		<tag k="ssr:stedsnr" v="984378" />
	</node>
	<node id="-496310" lat="58.0569903186" lon="6.99657950847">
		<tag k="name" v="Bærøy" />
		<tag k="place" v="farm" />
		<tag k="ssr:stedsnr" v="984369" />
	</node>
	<node id="-496309" lat="58.0616289584" lon="7.00319803815">
		<tag k="name" v="Bærøy" />
		<tag k="place" v="farm" />
		<tag k="ssr:stedsnr" v="984367" />
	</node>
	<node id="-496308" lat="58.1519642504" lon="7.10484329919">
		<tag k="fixme" v="consider place=hamlet" />
		<tag k="name" v="Angersmyr" />
		<tag k="place" v="farm" />
		<tag k="ssr:stedsnr" v="979526" />
	</node>
	<node id="-496307" lat="58.1540665385" lon="7.10660977093">
		<tag k="fixme" v="consider place=hamlet" />
		<tag k="name" v="Tuen" />
		<tag k="place" v="farm" />
		<tag k="ssr:stedsnr" v="979525" />
	</node>
	<node id="-494258" lat="58.2080249988" lon="7.19873610828">
		<tag k="fixme" v="consider place=hamlet" />
		<tag k="name" v="Vatland" />
		<tag k="place" v="farm" />
		<tag k="ssr:stedsnr" v="425406" />
	</node>
	<node id="-496305" lat="58.155277167" lon="7.10607588678">
		<tag k="fixme" v="consider place=hamlet" />
		<tag k="name" v="Vestre Rom" />
		<tag k="place" v="farm" />
		<tag k="ssr:stedsnr" v="979522" />
	</node>
	<node id="-496304" lat="58.1586545472" lon="7.10709178851">
		<tag k="fixme" v="consider place=hamlet" />
		<tag k="name" v="Østre Rom" />
		<tag k="place" v="farm" />
		<tag k="ssr:stedsnr" v="979521" />
	</node>
	<node id="-496303" lat="58.1662160789" lon="7.11484613388">
		<tag k="fixme" v="consider place=hamlet" />
		<tag k="name" v="Østre Høyland" />
		<tag k="place" v="farm" />
		<tag k="ssr:stedsnr" v="979520" />
	</node>
	<node id="-496302" lat="58.1964738507" lon="7.12691964982">
		<tag k="name" v="Foss" />
		<tag k="place" v="hamlet" />
		<tag k="ssr:stedsnr" v="979519" />
	</node>
	<node id="-496301" lat="58.2018537207" lon="7.09098716701">
		<tag k="fixme" v="consider place=hamlet" />
		<tag k="name" v="Østre Vintland" />
		<tag k="place" v="farm" />
		<tag k="ssr:stedsnr" v="979516" />
	</node>
	<node id="-496300" lat="58.192575224" lon="7.08646595051">
		<tag k="fixme" v="consider place=hamlet" />
		<tag k="name" v="Øvre Hægeland" />
		<tag k="place" v="farm" />
		<tag k="ssr:stedsnr" v="979515" />
	</node>
	<node id="-496298" lat="58.2414743189" lon="7.02729264364">
		<tag k="fixme" v="consider place=hamlet" />
		<tag k="name" v="Heieknuten" />
		<tag k="place" v="farm" />
		<tag k="ssr:stedsnr" v="979513" />
	</node>
	<node id="-496296" lat="58.2104462466" lon="7.00344776338">
		<tag k="fixme" v="consider place=hamlet" />
		<tag k="name" v="Vestre Høyland" />
		<tag k="place" v="farm" />
		<tag k="ssr:stedsnr" v="979510" />
	</node>
	<node id="-496295" lat="58.2146335344" lon="6.98098263198">
		<tag k="fixme" v="consider place=hamlet" />
		<tag k="name" v="Vestre Vintland" />
		<tag k="place" v="farm" />
		<tag k="ssr:stedsnr" v="979509" />
	</node>
	<node id="-496293" lat="58.1983971811" lon="6.97189830987">
		<tag k="name" v="Birkeland" />
		<tag k="place" v="hamlet" />
		<tag k="ssr:stedsnr" v="979507" />
	</node>
	<node id="-496292" lat="58.2000428924" lon="6.96724213446">
		<tag k="fixme" v="consider place=hamlet" />
		<tag k="name" v="Store Birkeland" />
		<tag k="place" v="farm" />
		<tag k="ssr:stedsnr" v="979505" />
	</node>
	<node id="-496291" lat="58.1956813737" lon="6.97821880946">
		<tag k="fixme" v="consider place=hamlet" />
		<tag k="name" v="Lille Birkeland" />
		<tag k="place" v="farm" />
		<tag k="ssr:stedsnr" v="979504" />
	</node>
	<node id="-496290" lat="58.1917822376" lon="6.99623374574">
		<tag k="name" v="Hægeland" />
		<tag k="place" v="hamlet" />
		<tag k="ssr:stedsnr" v="979503" />
	</node>
	<node id="-496289" lat="58.1942288108" lon="6.9939591439">
		<tag k="fixme" v="consider place=hamlet" />
		<tag k="name" v="Store Hægeland" />
		<tag k="place" v="farm" />
		<tag k="ssr:stedsnr" v="979502" />
	</node>
	<node id="-496288" lat="58.191304078" lon="7.0002776165">
		<tag k="fixme" v="consider place=hamlet" />
		<tag k="name" v="Lille Hægeland" />
		<tag k="place" v="farm" />
		<tag k="ssr:stedsnr" v="979501" />
	</node>
	<node id="-496287" lat="58.1648561283" lon="7.01272069188">
		<tag k="fixme" v="consider place=hamlet" />
		<tag k="name" v="Kleivan" />
		<tag k="place" v="farm" />
		<tag k="ssr:stedsnr" v="979496" />
	</node>
	<node id="-496286" lat="58.1500482599" lon="7.02989415829">
		<tag k="fixme" v="consider place=hamlet" />
		<tag k="name" v="Vestre Fidje" />
		<tag k="place" v="farm" />
		<tag k="ssr:stedsnr" v="979495" />
	</node>
	<node id="-496285" lat="58.1418703324" lon="7.01331911447">
		<tag k="name" v="Fivelands laksefiskeri" />
		<tag k="place" v="locality" />
		<tag k="ssr:stedsnr" v="979494" />
	</node>
	<node id="-496284" lat="58.1364860676" lon="6.99659464674">
		<tag k="fixme" v="consider place=hamlet" />
		<tag k="name" v="Sørlien" />
		<tag k="place" v="farm" />
		<tag k="ssr:stedsnr" v="979493" />
	</node>
	<node id="-496283" lat="58.1730073881" lon="6.90734934007">
		<tag k="fixme" v="consider place=hamlet" />
		<tag k="name" v="Vestre Hommen" />
		<tag k="place" v="farm" />
		<tag k="ssr:stedsnr" v="979492" />
	</node>
	<node id="-496282" lat="58.2621425559" lon="7.19766039579">
		<tag k="name" v="Kvås" />
		<tag k="place" v="hamlet" />
		<tag k="ssr:stedsnr" v="979586" />
	</node>
	<node id="-496281" lat="58.2609869352" lon="7.19798289309">
		<tag k="fixme" v="consider place=hamlet" />
		<tag k="name" v="Ytre Kvås" />
		<tag k="place" v="farm" />
		<tag k="ssr:stedsnr" v="979585" />
	</node>
	<node id="-496280" lat="58.2629015927" lon="7.20280799803">
		<tag k="fixme" v="consider place=hamlet" />
		<tag k="name" v="Øvre Kvås" />
		<tag k="place" v="farm" />
		<tag k="ssr:stedsnr" v="979584" />
	</node>
	<node id="-496279" lat="58.282922964" lon="7.20264734815">
		<tag k="name" v="Kvåvan" />
		<tag k="place" v="locality" />
		<tag k="ssr:stedsnr" v="979583" />
	</node>
	<node id="-496278" lat="58.1871726873" lon="7.15012097929">
		<tag k="fixme" v="consider place=hamlet" />
		<tag k="name" v="Øvre Madland" />
		<tag k="place" v="farm" />
		<tag k="ssr:stedsnr" v="979581" />
	</node>
	<node id="-496277" lat="58.1742950687" lon="7.13174693388">
		<tag k="fixme" v="consider place=hamlet" />
		<tag k="name" v="Store Nenningsland" />
		<tag k="place" v="farm" />
		<tag k="ssr:stedsnr" v="979580" />
	</node>
	<node id="-494228" lat="58.0228782042" lon="7.00103322301">
		<tag k="alt_name" v="Korshamn" />
		<tag k="fixme" v="consider place=suburb, village or hamlet" />
		<tag k="name" v="Korshavn" />
		<tag k="place" v="quarter" />
		<tag k="ssr:stedsnr" v="507391" />
	</node>
	<node id="-496275" lat="58.1703430387" lon="7.16202821612">
		<tag k="name" v="Bjodland" />
		<tag k="place" v="hamlet" />
		<tag k="ssr:stedsnr" v="979556" />
	</node>
	<node id="-496273" lat="58.1689784475" lon="7.17291653971">
		<tag k="fixme" v="consider place=hamlet" />
		<tag k="name" v="Store Bjodland" />
		<tag k="place" v="farm" />
		<tag k="ssr:stedsnr" v="979554" />
	</node>
	<node id="-496272" lat="58.1843612582" lon="7.19801265469">
		<tag k="fixme" v="consider place=hamlet" />
		<tag k="name" v="Lille Oftenes" />
		<tag k="place" v="farm" />
		<tag k="ssr:stedsnr" v="979553" />
	</node>
	<node id="-496271" lat="58.1837435905" lon="7.20994212844">
		<tag k="fixme" v="consider place=hamlet" />
		<tag k="name" v="Østre Hommen" />
		<tag k="place" v="farm" />
		<tag k="ssr:stedsnr" v="979552" />
	</node>
	<node id="-496270" lat="58.1518678446" lon="7.16045163247">
		<tag k="fixme" v="consider place=hamlet" />
		<tag k="name" v="Oftedal" />
		<tag k="place" v="farm" />
		<tag k="ssr:stedsnr" v="979551" />
	</node>
	<node id="-494221" lat="58.1708722249" lon="7.16991666105">
		<tag k="name" v="Vestregården" />
		<tag k="place" v="farm" />
		<tag k="ssr:stedsnr" v="506980" />
	</node>
	<node id="-496268" lat="58.11754231" lon="7.10685738176">
		<tag k="name" v="Raumsland" />
		<tag k="place" v="hamlet" />
		<tag k="ssr:stedsnr" v="979548" />
	</node>
	<node id="-496267" lat="58.1169318313" lon="7.09887915026">
		<tag k="fixme" v="consider place=hamlet" />
		<tag k="name" v="Ytre Raumsland" />
		<tag k="place" v="farm" />
		<tag k="ssr:stedsnr" v="979547" />
	</node>
	<node id="-496266" lat="58.118398003" lon="7.11081745865">
		<tag k="fixme" v="consider place=hamlet" />
		<tag k="name" v="Indre Raumsland" />
		<tag k="place" v="farm" />
		<tag k="ssr:stedsnr" v="979546" />
	</node>
	<node id="-496265" lat="58.1263927792" lon="7.12632343625">
		<tag k="fixme" v="consider place=hamlet" />
		<tag k="name" v="Fokvelland" />
		<tag k="place" v="farm" />
		<tag k="ssr:stedsnr" v="979545" />
	</node>
	<node id="-494187" lat="58.151108332" lon="6.87283889452">
		<tag k="fixme" v="consider place=hamlet" />
		<tag k="name" v="Stangelia" />
		<tag k="place" v="farm" />
		<tag k="ssr:stedsnr" v="506658" />
	</node>
	<node id="-493671" lat="58.0983305525" lon="7.00507500825">
		<tag k="fixme" v="consider place=hamlet" />
		<tag k="name" v="Kvålsvik" />
		<tag k="place" v="farm" />
		<tag k="ssr:stedsnr" v="243527" />
	</node>
	<node id="-496219" lat="58.2375194486" lon="7.37511389409">
		<tag k="name" v="Kvidalen" />
		<tag k="place" v="locality" />
		<tag k="ssr:stedsnr" v="947867" />
	</node>
	<node id="-494170" lat="58.2390138848" lon="7.15299444194">
		<tag k="name" v="Vårmyra" />
		<tag k="place" v="locality" />
		<tag k="ssr:stedsnr" v="506202" />
	</node>
	<node id="-495716" lat="58.2527590466" lon="7.33828980106">
		<tag k="alt_name" v="Bjodan" />
		<tag k="name" v="Bjodland" />
		<tag k="place" v="farm" />
		<tag k="ssr:stedsnr" v="789595" />
	</node>
	<node id="-493666" lat="58.0609083348" lon="7.01801943783">
		<tag k="fixme" v="consider place=hamlet" />
		<tag k="name" v="Belland" />
		<tag k="place" v="farm" />
		<tag k="ssr:stedsnr" v="243621" />
	</node>
	<node id="-493665" lat="58.2601861145" lon="7.11084999251">
		<tag k="alt_name" v="Lien" />
		<tag k="fixme" v="consider place=hamlet" />
		<tag k="name" v="Lia" />
		<tag k="place" v="farm" />
		<tag k="ssr:stedsnr" v="243620" />
	</node>
	<node id="-493664" lat="58.1575111137" lon="7.20515000108">
		<tag k="alt_name" v="Grubbelien" />
		<tag k="fixme" v="consider place=hamlet" />
		<tag k="name" v="Grubbelia" />
		<tag k="place" v="farm" />
		<tag k="ssr:stedsnr" v="243475" />
	</node>
	<node id="-494139" lat="58.1012055541" lon="7.07190000371">
		<tag k="name" v="Dalekjerret" />
		<tag k="place" v="farm" />
		<tag k="ssr:stedsnr" v="385859" />
	</node>
	<node id="-494685" lat="58.1623916678" lon="7.17616389673">
		<tag k="name" v="Wally" />
		<tag k="place" v="farm" />
		<tag k="ssr:stedsnr" v="689904" />
	</node>
	<node id="-493660" lat="58.2134666624" lon="6.94648055545">
		<tag k="fixme" v="consider place=hamlet" />
		<tag k="name" v="Tjomsland" />
		<tag k="place" v="farm" />
		<tag k="ssr:stedsnr" v="243155" />
	</node>
	<node id="-496155" lat="58.2530194411" lon="7.10279721762">
		<tag k="name" v="Trodmyra" />
		<tag k="place" v="farm" />
		<tag k="ssr:stedsnr" v="931412" />
	</node>
	<node id="-494104" lat="58.2086888914" lon="7.13541666673">
		<tag k="name" v="Foss indre" />
		<tag k="place" v="farm" />
		<tag k="ssr:stedsnr" v="385123" />
	</node>
	<node id="-496729" lat="58.3322250038" lon="7.32279721857">
		<tag k="alt_name" v="Hellevatn" />
		<tag k="fixme" v="consider place=hamlet" />
		<tag k="name" v="Hellevann" />
		<tag k="place" v="farm" />
		<tag k="ssr:stedsnr" v="61531" />
	</node>
	<node id="-496141" lat="58.2194499967" lon="6.996875006">
		<tag k="fixme" v="consider place=hamlet" />
		<tag k="name" v="Iddeland" />
		<tag k="place" v="farm" />
		<tag k="ssr:stedsnr" v="910431" />
	</node>
	<node id="-494091" lat="58.3432555596" lon="7.41987777173">
		<tag k="alt_name" v="Solberg" />
		<tag k="fixme" v="consider place=hamlet" />
		<tag k="name" v="Solbjør" />
		<tag k="place" v="farm" />
		<tag k="ssr:stedsnr" v="364799" />
	</node>
	<node id="-494678" lat="58.1028416712" lon="7.09606945177">
		<tag k="name" v="Fredbo" />
		<tag k="place" v="farm" />
		<tag k="ssr:stedsnr" v="689842" />
	</node>
	<node id="-492629" lat="58.4298972227" lon="7.32448889618">
		<tag k="name" v="Løland" />
		<tag k="place" v="isolated_dwelling" />
		<tag k="ssr:stedsnr" v="37054" />
	</node>
	<node id="-494076" lat="58.4135638922" lon="7.41750000773">
		<tag k="name" v="Åmot" />
		<tag k="place" v="farm" />
		<tag k="ssr:stedsnr" v="485878" />
	</node>
	<node id="-494075" lat="58.125713893" lon="7.07616667389">
		<tag k="name" v="Åvesland" />
		<tag k="place" v="farm" />
		<tag k="ssr:stedsnr" v="485845" />
	</node>
	<node id="-494073" lat="58.3063694401" lon="7.40345555066">
		<tag k="fixme" v="consider place=hamlet" />
		<tag k="name" v="Kvelland" />
		<tag k="place" v="farm" />
		<tag k="ssr:stedsnr" v="485725" />
	</node>
	<node id="-494071" lat="58.479200004" lon="7.38897777312">
		<tag k="alt_name" v="Flottorp, øvre" />
		<tag k="fixme" v="consider place=hamlet" />
		<tag k="name" v="Øvre Flottorp" />
		<tag k="place" v="farm" />
		<tag k="ssr:stedsnr" v="485544" />
	</node>
	<node id="-494068" lat="58.2676333315" lon="7.26597499526">
		<tag k="fixme" v="consider place=hamlet" />
		<tag k="name" v="Undeland" />
		<tag k="place" v="farm" />
		<tag k="ssr:stedsnr" v="485444" />
	</node>
	<node id="-494066" lat="58.1611555548" lon="7.17448889135">
		<tag k="alt_name" v="Fidja, østre;Fidja;Østre Fidje" />
		<tag k="fixme" v="consider place=hamlet" />
		<tag k="name" v="Østre Fidja" />
		<tag k="place" v="farm" />
		<tag k="ssr:stedsnr" v="485430" />
	</node>
	<node id="-494065" lat="58.190183336" lon="7.05427499852">
		<tag k="alt_name" v="Hårigstad" />
		<tag k="fixme" v="consider place=hamlet" />
		<tag k="name" v="Hårikstad" />
		<tag k="place" v="farm" />
		<tag k="ssr:stedsnr" v="485394" />
	</node>
	<node id="-494061" lat="58.3279999997" lon="7.30800000394">
		<tag k="alt_name" v="Gunleivstøl;Gunleifstøl" />
		<tag k="fixme" v="consider place=hamlet" />
		<tag k="name" v="Gunnleivsstøl" />
		<tag k="place" v="farm" />
		<tag k="ssr:stedsnr" v="485499" />
	</node>
	<node id="-494060" lat="58.3252916683" lon="7.31724999733">
		<tag k="historic" v="shieling" />
		<tag k="name" v="Hellestøl" />
		<tag k="place" v="locality" />
		<tag k="ssr:stedsnr" v="485495" />
	</node>
	<node id="-494059" lat="58.1377777791" lon="7.14021388816">
		<tag k="alt_name" v="Kindungsland" />
		<tag k="fixme" v="consider place=hamlet" />
		<tag k="name" v="Kinnungsland" />
		<tag k="place" v="farm" />
		<tag k="ssr:stedsnr" v="485491" />
	</node>
	<node id="-494057" lat="58.1118055549" lon="6.94408054812">
		<tag k="alt_name" v="Skogåsen" />
		<tag k="name" v="Skogås" />
		<tag k="place" v="farm" />
		<tag k="ssr:stedsnr" v="485249" />
	</node>
	<node id="-494056" lat="58.2202805558" lon="6.92120834105">
		<tag k="fixme" v="consider place=hamlet" />
		<tag k="name" v="Rørdal" />
		<tag k="place" v="farm" />
		<tag k="ssr:stedsnr" v="485136" />
	</node>
	<node id="-496059" lat="58.3520138891" lon="7.38490277879">
		<tag k="name" v="Vollan" />
		<tag k="place" v="farm" />
		<tag k="ssr:stedsnr" v="887967" />
	</node>
	<node id="-496030" lat="58.1535888909" lon="7.15979165897">
		<tag k="name" v="Vollan" />
		<tag k="place" v="farm" />
		<tag k="ssr:stedsnr" v="871961" />
	</node>
	<node id="-492606" lat="58.270402777" lon="7.32339444135">
		<tag k="name" v="Roset" />
		<tag k="place" v="locality" />
		<tag k="ssr:stedsnr" v="36829" />
	</node>
	<node id="-495944" lat="58.3006138881" lon="7.25921111764">
		<tag k="name" v="Røyseland" />
		<tag k="place" v="locality" />
		<tag k="ssr:stedsnr" v="947882" />
	</node>
	<node id="-493828" lat="58.0888472196" lon="7.09665278474">
		<tag k="alt_name" v="Trolleshei" />
		<tag k="fixme" v="consider place=hamlet" />
		<tag k="name" v="Trolleskei" />
		<tag k="place" v="farm" />
		<tag k="ssr:stedsnr" v="304607" />
	</node>
	<node id="-493824" lat="58.4424111114" lon="7.35940555653">
		<tag k="fixme" v="consider place=hamlet" />
		<tag k="name" v="Vårdal" />
		<tag k="place" v="farm" />
		<tag k="ssr:stedsnr" v="303921" />
	</node>
	<node id="-493823" lat="58.4122305585" lon="7.40044443586">
		<tag k="alt_name" v="Revsnes" />
		<tag k="loc_name" v="Der heima" />
		<tag k="name" v="Refsnes" />
		<tag k="place" v="farm" />
		<tag k="ssr:stedsnr" v="303902" />
	</node>
	<node id="-493822" lat="58.2756833358" lon="7.39905833756">
		<tag k="loc_name" v="Der Heima" />
		<tag k="name" v="Espeland" />
		<tag k="place" v="farm" />
		<tag k="ssr:stedsnr" v="303859" />
	</node>
	<node id="-493820" lat="58.2616777742" lon="7.27996666524">
		<tag k="fixme" v="consider place=hamlet" />
		<tag k="name" v="Risdal" />
		<tag k="place" v="farm" />
		<tag k="ssr:stedsnr" v="303607" />
	</node>
	<node id="-493819" lat="58.0791500023" lon="7.08330000699">
		<tag k="fixme" v="consider place=hamlet" />
		<tag k="name" v="Bonevoll" />
		<tag k="place" v="farm" />
		<tag k="ssr:stedsnr" v="303605" />
	</node>
	<node id="-493818" lat="58.2545888852" lon="7.32427778214">
		<tag k="alt_name" v="Eigeland" />
		<tag k="name" v="Eikeland" />
		<tag k="place" v="farm" />
		<tag k="ssr:stedsnr" v="303602" />
	</node>
	<node id="-493817" lat="58.1165222223" lon="7.03679444858">
		<tag k="fixme" v="consider place=hamlet" />
		<tag k="name" v="Salthaug" />
		<tag k="place" v="farm" />
		<tag k="ssr:stedsnr" v="303562" />
	</node>
	<node id="-493814" lat="58.2822361112" lon="7.33393889332">
		<tag k="alt_name" v="Eigebø" />
		<tag k="name" v="Eikebø" />
		<tag k="place" v="farm" />
		<tag k="ssr:stedsnr" v="303507" />
	</node>
	<node id="-493812" lat="58.203699996" lon="7.03398333746">
		<tag k="fixme" v="consider place=hamlet" />
		<tag k="name" v="Ytre Eikeland" />
		<tag k="place" v="farm" />
		<tag k="ssr:stedsnr" v="303422" />
	</node>
	<node id="-493809" lat="58.2196944486" lon="6.93015554722">
		<tag k="fixme" v="consider place=hamlet" />
		<tag k="name" v="Håland" />
		<tag k="place" v="farm" />
		<tag k="ssr:stedsnr" v="303170" />
	</node>
	<node id="-493782" lat="58.2233000045" lon="7.12368611901">
		<tag k="alt_name" v="Stuestøl" />
		<tag k="fixme" v="consider place=hamlet" />
		<tag k="name" v="Stustøl" />
		<tag k="place" v="farm" />
		<tag k="ssr:stedsnr" v="546407" />
	</node>
	<node id="-493756" lat="58.2833750039" lon="7.30684443746">
		<tag k="name" v="Brulid" />
		<tag k="place" v="locality" />
		<tag k="ssr:stedsnr" v="461927" />
	</node>
	<node id="-495781" lat="58.0406555512" lon="7.00944445073">
		<tag k="alt_name" v="Midtre Hollevik" />
		<tag k="fixme" v="consider place=hamlet" />
		<tag k="name" v="Holvik midtre" />
		<tag k="place" v="farm" />
		<tag k="ssr:stedsnr" v="931745" />
	</node>
	<node id="-493725" lat="58.3570722182" lon="7.34072222098">
		<tag k="name" v="Holmen" />
		<tag k="place" v="farm" />
		<tag k="ssr:stedsnr" v="461216" />
	</node>
	<node id="-493720" lat="58.4838611134" lon="7.4814416618">
		<tag k="name" v="Myran" />
		<tag k="place" v="farm" />
		<tag k="ssr:stedsnr" v="461177" />
	</node>
	<node id="-495637" lat="58.4213861138" lon="7.40276667437">
		<tag k="fixme" v="consider place=hamlet" />
		<tag k="name" v="Byremo" />
		<tag k="place" v="village" />
		<tag k="ssr:stedsnr" v="910893" />
	</node>
	<node id="-493688" lat="58.1151694416" lon="6.94558889682">
		<tag k="name" v="Djupvig" />
		<tag k="place" v="farm" />
		<tag k="ssr:stedsnr" v="453820" />
	</node>
	<node id="-493681" lat="58.4159576189" lon="7.38233807021">
		<tag k="name" v="Golevik" />
		<tag k="place" v="farm" />
		<tag k="ssr:stedsnr" v="243870" />
	</node>
	<node id="-493677" lat="58.4405500001" lon="7.40804721393">
		<tag k="fixme" v="consider place=hamlet" />
		<tag k="name" v="Skår" />
		<tag k="place" v="farm" />
		<tag k="ssr:stedsnr" v="243911" />
	</node>
	<node id="-493674" lat="58.1231250041" lon="7.04784721456">
		<tag k="fixme" v="consider place=hamlet" />
		<tag k="name" v="Agnefest" />
		<tag k="place" v="village" />
		<tag k="ssr:stedsnr" v="243565" />
	</node>
	<node id="-493673" lat="58.1303499965" lon="7.09153611367">
		<tag k="alt_name" v="Vestre Madland" />
		<tag k="name" v="Madland" />
		<tag k="place" v="farm" />
		<tag k="ssr:stedsnr" v="243564" />
	</node>
	<node id="-493672" lat="58.0871611152" lon="7.0627138888">
		<tag k="alt_name" v="Ytre Nygård" />
		<tag k="name" v="Nygard" />
		<tag k="place" v="locality" />
		<tag k="ssr:stedsnr" v="243529" />
	</node>
	<node id="-495719" lat="58.3307138909" lon="7.39949999281">
		<tag k="name" v="Midtbø" />
		<tag k="place" v="farm" />
		<tag k="ssr:stedsnr" v="789767" />
	</node>
	<node id="-493669" lat="58.2687000042" lon="7.23876110446">
		<tag k="fixme" v="consider place=hamlet" />
		<tag k="name" v="Eikeland" />
		<tag k="place" v="farm" />
		<tag k="ssr:stedsnr" v="243502" />
	</node>
	<node id="-493668" lat="58.2659000033" lon="7.16756666957">
		<tag k="fixme" v="consider place=hamlet" />
		<tag k="name" v="Dydland" />
		<tag k="place" v="farm" />
		<tag k="ssr:stedsnr" v="243624" />
	</node>
	<node id="-495715" lat="58.0862416642" lon="7.08342500431">
		<tag k="fixme" v="consider place=hamlet" />
		<tag k="name" v="Saudland" />
		<tag k="place" v="farm" />
		<tag k="ssr:stedsnr" v="789584" />
	</node>
	<node id="-495714" lat="58.1165000005" lon="7.10096666996">
		<tag k="alt_name" v="Ramsland" />
		<tag k="name" v="Raumsland" />
		<tag k="place" v="farm" />
		<tag k="ssr:stedsnr" v="789555" />
	</node>
	<node id="-495713" lat="58.255391667" lon="7.10698889134">
		<tag k="name" v="Solvang" />
		<tag k="place" v="farm" />
		<tag k="ssr:stedsnr" v="789610" />
	</node>
	<node id="-495712" lat="58.1608416692" lon="6.90402500496">
		<tag k="alt_name" v="Rasvæda;Rasvæta" />
		<tag k="name" v="Rassvæta" />
		<tag k="place" v="locality" />
		<tag k="ssr:stedsnr" v="789232" />
	</node>
	<node id="-493663" lat="58.1963916636" lon="7.06596111685">
		<tag k="name" v="Gauksheim" />
		<tag k="place" v="farm" />
		<tag k="ssr:stedsnr" v="243462" />
	</node>
	<node id="-493662" lat="58.1955222206" lon="7.12337221951">
		<tag k="alt_name" v="Foss, yt;Foss ytre;Foss" />
		<tag k="fixme" v="consider place=hamlet" />
		<tag k="name" v="Ytre Foss" />
		<tag k="place" v="farm" />
		<tag k="ssr:stedsnr" v="243461" />
	</node>
	<node id="-493661" lat="58.1834666705" lon="7.0089666604">
		<tag k="fixme" v="consider place=hamlet" />
		<tag k="name" v="Åmland" />
		<tag k="place" v="farm" />
		<tag k="ssr:stedsnr" v="243456" />
	</node>
	<node id="-495708" lat="58.2202305532" lon="7.1444222247">
		<tag k="name" v="Gitlestad" />
		<tag k="place" v="farm" />
		<tag k="ssr:stedsnr" v="788970" />
	</node>
	<node id="-493658" lat="58.1519472225" lon="7.02621667075">
		<tag k="name" v="Bjerge" />
		<tag k="place" v="farm" />
		<tag k="ssr:stedsnr" v="242822" />
	</node>
	<node id="-493657" lat="58.3124777795" lon="7.20865555476">
		<tag k="name" v="Neset" />
		<tag k="place" v="farm" />
		<tag k="ssr:stedsnr" v="242514" />
	</node>
	<node id="-493650" lat="58.1399555595" lon="7.06214722722">
		<tag k="name" v="Grønndokka" />
		<tag k="place" v="quarter" />
		<tag k="ssr:stedsnr" v="446894" />
	</node>
	<node id="-493629" lat="58.1670194412" lon="6.92494443947">
		<tag k="fixme" v="consider place=hamlet" />
		<tag k="name" v="Skredal" />
		<tag k="place" v="farm" />
		<tag k="ssr:stedsnr" v="446481" />
	</node>
	<node id="-493619" lat="58.1733166656" lon="7.2066388805">
		<tag k="name" v="Solheim" />
		<tag k="place" v="farm" />
		<tag k="ssr:stedsnr" v="446555" />
	</node>
	<node id="-496306" lat="58.1568339813" lon="7.10454165191">
		<tag k="name" v="Rom" />
		<tag k="place" v="hamlet" />
		<tag k="ssr:stedsnr" v="979524" />
	</node>
	<node id="-495644" lat="58.2199805595" lon="7.1420527779">
		<tag k="name" v="Gitlestad" />
		<tag k="place" v="farm" />
		<tag k="ssr:stedsnr" v="910979" />
	</node>
	<node id="-495643" lat="58.1049499197" lon="6.96010616834">
		<tag k="name" v="Indre Eikeland" />
		<tag k="place" v="farm" />
		<tag k="ssr:stedsnr" v="910977" />
	</node>
	<node id="-495639" lat="58.4569805564" lon="7.42503610325">
		<tag k="alt_name" v="Botnan" />
		<tag k="fixme" v="consider place=hamlet" />
		<tag k="name" v="Vassbotnen" />
		<tag k="place" v="farm" />
		<tag k="ssr:stedsnr" v="910921" />
	</node>
	<node id="-495638" lat="58.4090055524" lon="7.41921110855">
		<tag k="name" v="Ågedal" />
		<tag k="place" v="farm" />
		<tag k="ssr:stedsnr" v="910905" />
	</node>
	<node id="-493589" lat="58.2425333346" lon="7.1841333363">
		<tag k="amenity" v="school" />
		<tag k="name" v="Kvås folkehøgskole" />
		<tag k="ssr:stedsnr" v="446238" />
	</node>
	<node id="-495636" lat="58.2852944423" lon="7.35600834065">
		<tag k="fixme" v="consider place=hamlet" />
		<tag k="name" v="Konsmo" />
		<tag k="place" v="village" />
		<tag k="ssr:stedsnr" v="910880" />
	</node>
	<node id="-495635" lat="58.2999250038" lon="7.35935555761">
		<tag k="name" v="Monan" />
		<tag k="place" v="farm" />
		<tag k="ssr:stedsnr" v="910864" />
	</node>
	<node id="-495632" lat="58.3378388867" lon="7.37367777922">
		<tag k="alt_name" v="Langneset" />
		<tag k="fixme" v="consider place=hamlet" />
		<tag k="name" v="Langsneset" />
		<tag k="place" v="farm" />
		<tag k="ssr:stedsnr" v="910800" />
	</node>
	<node id="-495631" lat="58.019661114" lon="7.01080000824">
		<tag k="name" v="Kershamn" />
		<tag k="place" v="farm" />
		<tag k="ssr:stedsnr" v="910670" />
	</node>
	<node id="-495630" lat="58.2379194484" lon="7.36418888721">
		<tag k="fixme" v="consider place=hamlet" />
		<tag k="name" v="Listad" />
		<tag k="place" v="farm" />
		<tag k="ssr:stedsnr" v="910647" />
	</node>
	<node id="-495629" lat="58.2617222207" lon="7.19941110346">
		<tag k="name" v="Kvås" />
		<tag k="place" v="farm" />
		<tag k="ssr:stedsnr" v="910621" />
	</node>
	<node id="-495628" lat="58.07348889" lon="7.14277500545">
		<tag k="fixme" v="consider place=hamlet" />
		<tag k="name" v="Jåsund" />
		<tag k="place" v="farm" />
		<tag k="ssr:stedsnr" v="910617" />
	</node>
	<node id="-495627" lat="58.0683111148" lon="7.0578750006">
		<tag k="alt_name" v="Eirikstad" />
		<tag k="fixme" v="consider place=hamlet" />
		<tag k="name" v="Erikstad" />
		<tag k="place" v="farm" />
		<tag k="ssr:stedsnr" v="910614" />
	</node>
	<node id="-495625" lat="58.0742722193" lon="7.01477777834">
		<tag k="fixme" v="consider place=hamlet" />
		<tag k="name" v="Ydre Borviga" />
		<tag k="place" v="farm" />
		<tag k="ssr:stedsnr" v="910605" />
	</node>
	<node id="-495623" lat="58.1187749967" lon="6.99145833978">
		<tag k="fixme" v="consider place=hamlet" />
		<tag k="name" v="Åmdal" />
		<tag k="place" v="farm" />
		<tag k="ssr:stedsnr" v="910575" />
	</node>
	<node id="-495621" lat="58.1163305539" lon="7.00361389383">
		<tag k="fixme" v="consider place=hamlet" />
		<tag k="name" v="Bruseland" />
		<tag k="place" v="farm" />
		<tag k="ssr:stedsnr" v="910568" />
	</node>
	<node id="-495620" lat="58.1284833371" lon="7.07651388656">
		<tag k="name" v="Myran" />
		<tag k="place" v="locality" />
		<tag k="ssr:stedsnr" v="910562" />
	</node>
	<node id="-495619" lat="58.1199666638" lon="7.00132777527">
		<tag k="fixme" v="consider place=hamlet" />
		<tag k="name" v="Rudjord" />
		<tag k="place" v="farm" />
		<tag k="ssr:stedsnr" v="910556" />
	</node>
	<node id="-495618" lat="58.0949265485" lon="6.99587247797">
		<tag k="fixme" v="consider place=hamlet" />
		<tag k="name" v="Stålstøl" />
		<tag k="place" v="farm" />
		<tag k="ssr:stedsnr" v="910537" />
	</node>
	<node id="-495617" lat="58.0971499987" lon="7.09485278513">
		<tag k="fixme" v="consider place=hamlet" />
		<tag k="name" v="Gitlestein" />
		<tag k="place" v="farm" />
		<tag k="ssr:stedsnr" v="910534" />
	</node>
</osm>
