<?xml version="1.0" encoding="UTF-8"?>
<osm version="0.6" generator="osmapis">
	<node lat="58.325113888802065" lon="7.3463055612441295" id="-63948">
		<tag k="historic" v="boundary_stone" />
		<tag k="man_made" v="cairn" />
		<tag k="name" v="Maursteinen" />
		<tag k="place" v="locality" />
		<tag k="ssr:stedsnr" v="219998" />
	</node>
	<node lat="58.50936111129429" lon="7.512886111341194" id="-66682">
		<tag k="historic" v="boundary_stone" />
		<tag k="man_made" v="cairn" />
		<tag k="name" v="Stein på stein" />
		<tag k="place" v="locality" />
		<tag k="ssr:stedsnr" v="887400" />
	</node>
	<node lat="58.26034444336149" lon="7.3210027828521085" id="-69262">
		<tag k="historic" v="boundary_stone" />
		<tag k="man_made" v="cairn" />
		<tag k="name" v="Mauren" />
		<tag k="place" v="locality" />
		<tag k="ssr:stedsnr" v="522799" />
	</node>
	<node lat="58.38536944571306" lon="7.406969439127948" id="-70399">
		<tag k="historic" v="boundary_stone" />
		<tag k="man_made" v="cairn" />
		<tag k="name" v="Røysesteinen" />
		<tag k="place" v="locality" />
		<tag k="ssr:stedsnr" v="765222" />
	</node>
</osm>
