<?xml version="1.0" encoding="UTF-8"?>
<<<<<<< HEAD
<osm version="0.6" generator="osmapis">
	<node lat="58.21881111205076" lon="7.1051277820356455" id="-22999">
		<tag k="name" v="Valfarmyra" />
		<tag k="natural" v="wetland" />
		<tag k="ssr:stedsnr" v="21215" />
	</node>
	<node lat="58.25618611353951" lon="7.220880561555785" id="-23007">
		<tag k="name" v="Kyrkjemyra" />
		<tag k="natural" v="wetland" />
		<tag k="ssr:stedsnr" v="21337" />
	</node>
	<node lat="58.22588611033568" lon="6.928672228011855" id="-23014">
		<tag k="name" v="Indrejordet" />
		<tag k="place" v="locality" />
		<tag k="ssr:stedsnr" v="21494" />
	</node>
	<node lat="58.10629722295099" lon="7.132686117505989" id="-23028">
		<tag k="name" v="Bjørnmyra" />
		<tag k="natural" v="wetland" />
		<tag k="ssr:stedsnr" v="21816" />
	</node>
	<node lat="58.15827777954684" lon="7.1531361131274345" id="-23034">
		<tag k="name" v="Langemyra" />
		<tag k="natural" v="wetland" />
		<tag k="ssr:stedsnr" v="21946" />
	</node>
	<node lat="58.15892777394015" lon="7.206894445844003" id="-23039">
		<tag k="name" v="Orrekjerr" />
		<tag k="natural" v="wetland" />
		<tag k="ssr:stedsnr" v="22517" />
	</node>
	<node lat="58.28135833170301" lon="7.390219443450744" id="-23043">
		<tag k="name" v="Langemyr" />
		<tag k="natural" v="wetland" />
		<tag k="ssr:stedsnr" v="23333" />
	</node>
	<node lat="58.273627778108754" lon="7.420350003636144" id="-23082">
		<tag k="name" v="Vollan" />
		<tag k="place" v="locality" />
		<tag k="ssr:stedsnr" v="36769" />
	</node>
	<node lat="58.34351944068816" lon="7.398427775958532" id="-23089">
		<tag k="name" v="Leinlandsmyran" />
		<tag k="natural" v="wetland" />
		<tag k="ssr:stedsnr" v="36975" />
	</node>
	<node lat="58.2763194453379" lon="7.353655561665001" id="-23093">
		<tag k="name" v="Bordalsholtan" />
		<tag k="place" v="locality" />
		<tag k="ssr:stedsnr" v="36866" />
	</node>
	<node lat="58.234466667937646" lon="7.342516663220739" id="-23094">
		<tag k="name" v="Øyan" />
		<tag k="place" v="locality" />
		<tag k="ssr:stedsnr" v="36869" />
	</node>
	<node lat="58.45492222471362" lon="7.369900000420051" id="-23109">
		<tag k="name" v="Lundsmyr" />
		<tag k="natural" v="wetland" />
		<tag k="ssr:stedsnr" v="37175" />
	</node>
	<node lat="58.32897777541024" lon="7.389633334668683" id="-23114">
		<tag k="name" v="Storemyr" />
		<tag k="natural" v="wetland" />
		<tag k="ssr:stedsnr" v="37981" />
	</node>
	<node lat="58.25461666768328" lon="7.237091668890619" id="-23291">
		<tag k="name" v="Lonåkeren" />
		<tag k="natural" v="wetland" />
		<tag k="ssr:stedsnr" v="82304" />
	</node>
	<node lat="58.2725361145224" lon="7.244769451922779" id="-23293">
		<tag k="name" v="Sothammerkarten" />
		<tag k="natural" v="wetland" />
		<tag k="ssr:stedsnr" v="82318" />
	</node>
	<node lat="58.182305557887304" lon="7.240519443423259" id="-23294">
		<tag k="name" v="Loneslåttan" />
		<tag k="natural" v="wetland" />
		<tag k="ssr:stedsnr" v="82336" />
	</node>
	<node lat="58.20126666343933" lon="7.237955550067381" id="-23312">
		<tag k="name" v="Trættemyr" />
		<tag k="natural" v="wetland" />
		<tag k="ssr:stedsnr" v="82607" />
	</node>
	<node lat="58.14657221892574" lon="6.900388882552717" id="-23316">
		<tag k="name" v="Bukkesteinan" />
		<tag k="natural" v="stone" />
		<tag k="ssr:stedsnr" v="82636" />
	</node>
	<node lat="58.15103611539856" lon="6.90165277494162" id="-23317">
		<tag k="name" v="Kringla" />
		<tag k="place" v="locality" />
		<tag k="ssr:stedsnr" v="82641" />
	</node>
	<node lat="58.14360555811001" lon="7.056741667304515" id="-23321">
		<tag k="name" v="Grønndokkmoen" />
		<tag k="place" v="locality" />
		<tag k="ssr:stedsnr" v="82904" />
	</node>
	<node lat="58.19436111495239" lon="7.21726945059693" id="-23326">
		<tag k="name" v="Kjegemyr" />
		<tag k="natural" v="wetland" />
		<tag k="ssr:stedsnr" v="83532" />
	</node>
	<node lat="58.26383610720772" lon="7.304697218576704" id="-23337">
		<tag k="name" v="Spåmyr" />
		<tag k="natural" v="wetland" />
		<tag k="ssr:stedsnr" v="97264" />
	</node>
	<node lat="58.25695832993476" lon="7.399938891642291" id="-23350">
		<tag k="name" v="Husamorsmyra" />
		<tag k="natural" v="wetland" />
		<tag k="ssr:stedsnr" v="97860" />
	</node>
	<node lat="58.42409722626104" lon="7.480580557172507" id="-23357">
		<tag k="name" v="Tranlemyrbukjerr" />
		<tag k="natural" v="wetland" />
		<tag k="ssr:stedsnr" v="98078" />
	</node>
	<node lat="58.436416669289734" lon="7.467269449020409" id="-23359">
		<tag k="name" v="Teremyr" />
		<tag k="natural" v="wetland" />
		<tag k="ssr:stedsnr" v="98120" />
	</node>
	<node lat="58.187825001064006" lon="7.1123388872848174" id="-23472">
		<tag k="name" v="Lømonen" />
		<tag k="place" v="locality" />
		<tag k="ssr:stedsnr" v="142380" />
	</node>
	<node lat="58.26921944476116" lon="7.144705556109931" id="-23477">
		<tag k="name" v="Fugleslåtta" />
		<tag k="natural" v="wetland" />
		<tag k="ssr:stedsnr" v="142544" />
	</node>
	<node lat="58.12648055371781" lon="7.204633330109398" id="-23480">
		<tag k="name" v="Djupemyra" />
		<tag k="natural" v="wetland" />
		<tag k="ssr:stedsnr" v="142403" />
	</node>
	<node lat="58.163794441310344" lon="7.123258329255182" id="-23487">
		<tag k="name" v="Orreskjelda" />
		<tag k="natural" v="wetland" />
		<tag k="ssr:stedsnr" v="142423" />
	</node>
	<node lat="58.1072666681872" lon="7.1124111026879415" id="-23492">
		<tag k="name" v="Nordåsmyra" />
		<tag k="natural" v="wetland" />
		<tag k="ssr:stedsnr" v="142836" />
	</node>
	<node lat="58.08848333391707" lon="7.129963896805021" id="-23494">
		<tag k="name" v="Ryggsmyra" />
		<tag k="natural" v="wetland" />
		<tag k="ssr:stedsnr" v="142855" />
	</node>
	<node lat="58.16161111019784" lon="7.0527888891435495" id="-23496">
		<tag k="name" v="Koddekjerr" />
		<tag k="natural" v="wetland" />
		<tag k="ssr:stedsnr" v="142861" />
	</node>
	<node lat="58.151266664210986" lon="7.07165554943544" id="-23500">
		<tag k="name" v="Østregardsneset" />
		<tag k="place" v="locality" />
		<tag k="ssr:stedsnr" v="142909" />
	</node>
	<node lat="58.16432222486483" lon="7.205638887611128" id="-23511">
		<tag k="name" v="Sauemyra" />
		<tag k="natural" v="wetland" />
		<tag k="ssr:stedsnr" v="143517" />
	</node>
	<node lat="58.20051666280843" lon="7.196241672679973" id="-23512">
		<tag k="name" v="Dyblemyra" />
		<tag k="natural" v="wetland" />
		<tag k="ssr:stedsnr" v="143531" />
	</node>
	<node lat="58.192011113213745" lon="7.206730550536061" id="-23514">
		<tag k="name" v="Krossmyra" />
		<tag k="natural" v="wetland" />
		<tag k="ssr:stedsnr" v="143542" />
	</node>
	<node lat="58.153691663250356" lon="7.180997217126764" id="-23516">
		<tag k="name" v="Moltemyra" />
		<tag k="natural" v="wetland" />
		<tag k="ssr:stedsnr" v="143902" />
	</node>
	<node lat="58.459941663259414" lon="7.394322217639024" id="-23522">
		<tag k="name" v="Langemyr" />
		<tag k="natural" v="wetland" />
		<tag k="ssr:stedsnr" v="157110" />
	</node>
	<node lat="58.41266944704565" lon="7.3354805625089625" id="-23526">
		<tag k="loc_name" v="Småmyrane" />
		<tag k="name" v="Småmyran" />
		<tag k="natural" v="wetland" />
		<tag k="ssr:stedsnr" v="158102" />
	</node>
	<node lat="58.509555553451115" lon="7.496941665721932" id="-23533">
		<tag k="name" v="Hagemyr" />
		<tag k="natural" v="wetland" />
		<tag k="ssr:stedsnr" v="158212" />
	</node>
	<node lat="58.28077222330555" lon="7.282122218163592" id="-23535">
		<tag k="name" v="Stormyr" />
		<tag k="natural" v="wetland" />
		<tag k="ssr:stedsnr" v="158252" />
	</node>
	<node lat="58.3842500040746" lon="7.369733330407467" id="-23541">
		<tag k="name" v="Bladalsmyra" />
		<tag k="natural" v="wetland" />
		<tag k="ssr:stedsnr" v="158956" />
	</node>
	<node lat="58.24543055158263" lon="7.34885832524012" id="-23547">
		<tag k="name" v="Hagejordet" />
		<tag k="place" v="locality" />
		<tag k="ssr:stedsnr" v="158863" />
	</node>
	<node lat="58.07542778055699" lon="7.015530561478352" id="-23549">
		<tag k="name" v="Litlemyra" />
		<tag k="place" v="locality" />
		<tag k="ssr:stedsnr" v="324703" />
	</node>
	<node lat="58.005291664601046" lon="6.994625008250252" id="-23659">
		<tag k="name" v="Hovedura" />
		<tag k="natural" v="scree" />
		<tag k="ssr:stedsnr" v="264263" />
	</node>
	<node lat="58.03083055258315" lon="6.997313895350472" id="-23665">
		<tag k="name" v="Rossmyra" />
		<tag k="natural" v="wetland" />
		<tag k="ssr:stedsnr" v="264299" />
	</node>
	<node lat="58.27798333176275" lon="7.107988891645935" id="-23680">
		<tag k="name" v="Skydalsmyra" />
		<tag k="natural" v="wetland" />
		<tag k="ssr:stedsnr" v="264145" />
	</node>
	<node lat="58.26284444535671" lon="7.093269436022686" id="-23682">
		<tag k="name" v="Austtjønnmyra" />
		<tag k="natural" v="wetland" />
		<tag k="ssr:stedsnr" v="264149" />
	</node>
	<node lat="58.21436667059408" lon="7.1316444516194775" id="-23685">
		<tag k="name" v="Karsmyra" />
		<tag k="natural" v="wetland" />
		<tag k="ssr:stedsnr" v="264166" />
	</node>
	<node lat="58.239747225790296" lon="7.198897227296952" id="-23692">
		<tag k="name" v="Godkjerran" />
		<tag k="natural" v="wetland" />
		<tag k="ssr:stedsnr" v="264207" />
	</node>
	<node lat="58.24900555693052" lon="7.210297228644549" id="-23694">
		<tag k="name" v="Kalleskarmyr" />
		<tag k="natural" v="wetland" />
		<tag k="ssr:stedsnr" v="264215" />
	</node>
	<node lat="58.1544222266778" lon="7.162302784564858" id="-23708">
		<tag k="name" v="Storefeda" />
		<tag k="natural" v="wetland" />
		<tag k="ssr:stedsnr" v="265965" />
	</node>
	<node lat="58.11285000407909" lon="6.968922215371818" id="-23712">
		<tag k="name" v="Spikkelandsmyra" />
		<tag k="natural" v="wetland" />
		<tag k="ssr:stedsnr" v="264482" />
	</node>
	<node lat="58.16082222213294" lon="7.213677777169658" id="-23726">
		<tag k="name" v="Teinemyra" />
		<tag k="natural" v="wetland" />
		<tag k="ssr:stedsnr" v="264521" />
	</node>
	<node lat="58.08144444110824" lon="7.137913890801166" id="-23732">
		<tag k="name" v="Trettura" />
		<tag k="natural" v="scree" />
		<tag k="ssr:stedsnr" v="264876" />
	</node>
	<node lat="58.2041194463923" lon="6.95857500171334" id="-23738">
		<tag k="name" v="Surtemyra" />
		<tag k="natural" v="wetland" />
		<tag k="ssr:stedsnr" v="264984" />
	</node>
	<node lat="58.289880552586524" lon="7.191413892008791" id="-23741">
		<tag k="name" v="Halevollen" />
		<tag k="place" v="locality" />
		<tag k="ssr:stedsnr" v="265270" />
	</node>
	<node lat="58.280177774625216" lon="7.181274995850056" id="-23742">
		<tag k="name" v="Furemyra" />
		<tag k="natural" v="wetland" />
		<tag k="ssr:stedsnr" v="265278" />
	</node>
	<node lat="58.21090000031358" lon="7.0001499966878935" id="-23759">
		<tag k="name" v="Langåsjordet" />
		<tag k="place" v="locality" />
		<tag k="ssr:stedsnr" v="203050" />
	</node>
	<node lat="58.202205556043204" lon="7.1477944362660315" id="-23766">
		<tag k="name" v="Gråkodna" />
		<tag k="natural" v="wetland" />
		<tag k="ssr:stedsnr" v="203285" />
	</node>
	<node lat="58.267705558532946" lon="7.252902781098366" id="-23782">
		<tag k="name" v="Torvmyra" />
		<tag k="natural" v="wetland" />
		<tag k="ssr:stedsnr" v="203345" />
	</node>
	<node lat="58.257211114332115" lon="7.2156416680708535" id="-23785">
		<tag k="name" v="Lunden" />
		<tag k="place" v="locality" />
		<tag k="ssr:stedsnr" v="203609" />
	</node>
	<node lat="58.207697218607294" lon="7.22029167112087" id="-23786">
		<tag k="name" v="Perslåtta" />
		<tag k="natural" v="wetland" />
		<tag k="ssr:stedsnr" v="203613" />
	</node>
	<node lat="58.07540555742065" lon="7.018941668647768" id="-23796">
		<tag k="name" v="Storamyra" />
=======
<osm generator="osmapis" version="0.6">
	<node id="-574976" lat="58.3180861115" lon="7.41280555332">
		<tag k="name" v="Skogeholtmyra" />
		<tag k="natural" v="wetland" />
		<tag k="ssr:stedsnr" v="704272" />
	</node>
	<node id="-575486" lat="58.3326833339" lon="7.3337444529">
		<tag k="name" v="Heståsmyr" />
		<tag k="natural" v="wetland" />
		<tag k="ssr:stedsnr" v="887889" />
	</node>
	<node id="-574805" lat="58.2506111125" lon="7.12081666108">
		<tag k="name" v="Finneskroken" />
		<tag k="natural" v="wetland" />
		<tag k="ssr:stedsnr" v="689371" />
	</node>
	<node id="-576507" lat="58.434352782" lon="7.43542777894">
		<tag k="alt_name" v="Kjørkjemyr" />
		<tag k="name" v="Kyrkjemyri" />
		<tag k="natural" v="wetland" />
		<tag k="ssr:stedsnr" v="942" />
	</node>
	<node id="-577017" lat="58.4510750041" lon="7.38551111502">
		<tag k="loc_name" v="Nedre Sjurslåttæn" />
		<tag k="name" v="Nedre Sjurslåtten" />
		<tag k="natural" v="wetland" />
		<tag k="ssr:stedsnr" v="98089" />
	</node>
	<node id="-577016" lat="58.4240972263" lon="7.48058055717">
		<tag k="name" v="Tranlemyrbukjerr" />
		<tag k="natural" v="wetland" />
		<tag k="ssr:stedsnr" v="98078" />
	</node>
	<node id="-575479" lat="58.0824222187" lon="7.07843611925">
		<tag k="name" v="Poddekjerret" />
		<tag k="natural" v="wetland" />
		<tag k="ssr:stedsnr" v="689760" />
	</node>
	<node id="-574964" lat="58.5066527765" lon="7.51351943656">
		<tag k="name" v="Langfjellslåtten" />
		<tag k="natural" v="wetland" />
		<tag k="ssr:stedsnr" v="704179" />
	</node>
	<node id="-577011" lat="58.2471166704" lon="7.35678888359">
		<tag k="name" v="Ryssemyr" />
		<tag k="natural" v="wetland" />
		<tag k="ssr:stedsnr" v="97850" />
	</node>
	<node id="-575984" lat="58.2961166641" lon="7.25529444534">
		<tag k="name" v="Skoftemyr" />
		<tag k="natural" v="wetland" />
		<tag k="ssr:stedsnr" v="825245" />
	</node>
	<node id="-575982" lat="58.2115944431" lon="7.20263056082">
		<tag k="name" v="Indre Jordet" />
		<tag k="natural" v="wetland" />
		<tag k="ssr:stedsnr" v="932277" />
	</node>
	<node id="-577005" lat="58.2569583299" lon="7.39993889164">
		<tag k="name" v="Husamorsmyra" />
		<tag k="natural" v="wetland" />
		<tag k="ssr:stedsnr" v="97860" />
	</node>
	<node id="-573931" lat="58.3351888934" lon="7.42092222577">
		<tag k="name" v="Storesteggan" />
		<tag k="natural" v="wetland" />
		<tag k="ssr:stedsnr" v="461984" />
	</node>
	<node id="-575466" lat="58.4468027744" lon="7.38116388918">
		<tag k="loc_name" v="Øvre Sjurslåttæn" />
		<tag k="name" v="Øvre Sjurslåtten" />
		<tag k="natural" v="wetland" />
		<tag k="ssr:stedsnr" v="887097" />
	</node>
	<node id="-575911" lat="58.2729972261" lon="7.13695555943">
		<tag k="name" v="Samlingslåtta" />
		<tag k="natural" v="wetland" />
		<tag k="ssr:stedsnr" v="931173" />
	</node>
	<node id="-574952" lat="58.4176527771" lon="7.48470000501">
		<tag k="name" v="Skogedalsmyr" />
		<tag k="natural" v="wetland" />
		<tag k="ssr:stedsnr" v="704071" />
	</node>
	<node id="-575975" lat="58.2745055562" lon="7.22273055302">
		<tag k="name" v="Kvåsvardemyra" />
		<tag k="natural" v="wetland" />
		<tag k="ssr:stedsnr" v="932330" />
	</node>
	<node id="-576997" lat="58.3469611148" lon="7.38731666049">
		<tag k="name" v="Brumyr" />
		<tag k="natural" v="wetland" />
		<tag k="ssr:stedsnr" v="97232" />
	</node>
	<node id="-573922" lat="58.3204222179" lon="7.37159722079">
		<tag k="name" v="Havna" />
		<tag k="place" v="locality" />
		<tag k="ssr:stedsnr" v="461910" />
	</node>
	<node id="-573920" lat="58.2419222229" lon="7.39707222099">
		<tag k="name" v="Fjellemyr" />
		<tag k="natural" v="wetland" />
		<tag k="ssr:stedsnr" v="461871" />
	</node>
	<node id="-574202" lat="58.2678944447" lon="7.22318611794">
		<tag k="name" v="Nedre Trettemyr" />
		<tag k="natural" v="wetland" />
		<tag k="ssr:stedsnr" v="324337" />
	</node>
	<node id="-576986" lat="58.3217777784" lon="7.3827027726">
		<tag k="name" v="Storemyr" />
		<tag k="natural" v="wetland" />
		<tag k="ssr:stedsnr" v="97292" />
	</node>
	<node id="-573913" lat="58.2335250009" lon="7.35251945119">
		<tag k="name" v="Librotsteinen" />
		<tag k="natural" v="stone" />
		<tag k="ssr:stedsnr" v="461786" />
	</node>
	<node id="-573912" lat="58.2330638866" lon="7.37908888412">
		<tag k="name" v="Leikarsteinen" />
		<tag k="natural" v="stone" />
		<tag k="ssr:stedsnr" v="461783" />
	</node>
	<node id="-576982" lat="58.4977166667" lon="7.37751111177">
		<tag k="name" v="Langmyr" />
		<tag k="natural" v="wetland" />
		<tag k="ssr:stedsnr" v="97191" />
	</node>
	<node id="-575957" lat="58.048097222" lon="7.03436667498">
		<tag k="name" v="Hundingslandsskogene" />
		<tag k="place" v="locality" />
		<tag k="ssr:stedsnr" v="931865" />
	</node>
	<node id="-576467" lat="58.2249074915" lon="7.0416912448">
		<tag k="name" v="Spjotsodden" />
		<tag k="place" v="locality" />
		<tag k="ssr:stedsnr" v="979514" />
	</node>
	<node id="-573347" lat="58.4684222178" lon="7.385636107">
		<tag k="name" v="Skrommyr" />
		<tag k="natural" v="wetland" />
		<tag k="ssr:stedsnr" v="280328" />
	</node>
	<node id="-573944" lat="58.4748416659" lon="7.4360833253">
		<tag k="name" v="Moltemyr" />
		<tag k="natural" v="wetland" />
		<tag k="ssr:stedsnr" v="462115" />
	</node>
	<node id="-576462" lat="58.2270203608" lon="6.94399998446">
		<tag k="name" v="Botne" />
		<tag k="place" v="locality" />
		<tag k="ssr:stedsnr" v="979508" />
	</node>
	<node id="-573901" lat="58.3069388866" lon="7.27396944601">
		<tag k="name" v="Sundsmyra" />
		<tag k="natural" v="wetland" />
		<tag k="ssr:stedsnr" v="461303" />
	</node>
	<node id="-573900" lat="58.3026666681" lon="7.32992778377">
		<tag k="name" v="Hugemyr" />
		<tag k="natural" v="wetland" />
		<tag k="ssr:stedsnr" v="461297" />
	</node>
	<node id="-575947" lat="58.1562916672" lon="6.89155000207">
		<tag k="name" v="Monemyra" />
		<tag k="natural" v="wetland" />
		<tag k="ssr:stedsnr" v="931689" />
	</node>
	<node id="-576970" lat="58.194361115" lon="7.2172694506">
		<tag k="name" v="Kjegemyr" />
		<tag k="natural" v="wetland" />
		<tag k="ssr:stedsnr" v="83532" />
	</node>
	<node id="-572663" lat="58.1752944465" lon="6.93482222363">
		<tag k="name" v="Hellermyra" />
		<tag k="natural" v="wetland" />
		<tag k="ssr:stedsnr" v="21527" />
	</node>
	<node id="-573895" lat="58.3447555555" lon="7.31914444208">
		<tag k="name" v="Aslaksmyra" />
		<tag k="natural" v="wetland" />
		<tag k="ssr:stedsnr" v="461231" />
	</node>
	<node id="-575430" lat="58.3514472215" lon="7.32820000056">
		<tag k="name" v="Kjørkjemonen" />
		<tag k="place" v="locality" />
		<tag k="ssr:stedsnr" v="886194" />
	</node>
	<node id="-574405" lat="58.1449999988" lon="6.97737778581">
		<tag k="name" v="Høystakkmyra" />
		<tag k="natural" v="wetland" />
		<tag k="ssr:stedsnr" v="406565" />
	</node>
	<node id="-574404" lat="58.1706166624" lon="7.1498499935">
		<tag k="name" v="Vintlandsmyrene" />
		<tag k="natural" v="wetland" />
		<tag k="ssr:stedsnr" v="507992" />
	</node>
	<node id="-575939" lat="58.2058138844" lon="7.21957499968">
		<tag k="name" v="Pyttemyr" />
		<tag k="natural" v="wetland" />
		<tag k="ssr:stedsnr" v="931626" />
	</node>
	<node id="-576215" lat="58.4359999956" lon="7.33281388261">
		<tag k="name" v="Torsslåtten" />
		<tag k="natural" v="wetland" />
		<tag k="ssr:stedsnr" v="887108" />
	</node>
	<node id="-575936" lat="58.2653777801" lon="7.17585833155">
		<tag k="name" v="Rudjordsmyra" />
		<tag k="natural" v="wetland" />
		<tag k="ssr:stedsnr" v="931589" />
	</node>
	<node id="-575935" lat="58.2705388865" lon="7.15377778317">
		<tag k="name" v="Hellerheimyra" />
		<tag k="natural" v="wetland" />
		<tag k="ssr:stedsnr" v="931583" />
	</node>
	<node id="-573885" lat="58.3540527814" lon="7.34156388881">
		<tag k="name" v="Rydningsmyra" />
		<tag k="natural" v="wetland" />
		<tag k="ssr:stedsnr" v="280319" />
	</node>
	<node id="-576442" lat="58.1676601687" lon="7.14296706111">
		<tag k="name" v="Lille Bjodland" />
		<tag k="place" v="locality" />
		<tag k="ssr:stedsnr" v="979555" />
	</node>
	<node id="-573148" lat="58.2143666706" lon="7.13164445162">
		<tag k="name" v="Karsmyra" />
		<tag k="natural" v="wetland" />
		<tag k="ssr:stedsnr" v="264166" />
	</node>
	<node id="-574984" lat="58.2666861114" lon="7.41334999636">
		<tag k="name" v="Åsemyr" />
		<tag k="natural" v="wetland" />
		<tag k="ssr:stedsnr" v="704743" />
	</node>
	<node id="-573879" lat="58.4578444441" lon="7.46052499262">
		<tag k="name" v="Svomyr" />
		<tag k="natural" v="wetland" />
		<tag k="ssr:stedsnr" v="279119" />
	</node>
	<node id="-576950" lat="58.1510361154" lon="6.90165277494">
		<tag k="name" v="Kringla" />
		<tag k="place" v="locality" />
		<tag k="ssr:stedsnr" v="82641" />
	</node>
	<node id="-576949" lat="58.1465722189" lon="6.90038888255">
		<tag k="name" v="Bukkesteinan" />
		<tag k="natural" v="stone" />
		<tag k="ssr:stedsnr" v="82636" />
	</node>
	<node id="-576948" lat="58.2746972199" lon="7.19035554905">
		<tag k="name" v="Goneset" />
		<tag k="place" v="locality" />
		<tag k="ssr:stedsnr" v="82551" />
	</node>
	<node id="-575987" lat="58.2365555572" lon="7.09897778213">
		<tag k="name" v="Gummerliura" />
		<tag k="natural" v="scree" />
		<tag k="ssr:stedsnr" v="932502" />
	</node>
	<node id="-576942" lat="58.1789305538" lon="7.0115805543">
		<tag k="name" v="Råsura" />
		<tag k="natural" v="scree" />
		<tag k="ssr:stedsnr" v="82467" />
	</node>
	<node id="-575916" lat="58.2053666655" lon="7.18458889278">
		<tag k="name" v="Glusemyrene" />
		<tag k="natural" v="wetland" />
		<tag k="ssr:stedsnr" v="931244" />
	</node>
	<node id="-573354" lat="58.3589027752" lon="7.34061666827">
		<tag k="name" v="Dukan" />
		<tag k="place" v="locality" />
		<tag k="ssr:stedsnr" v="280969" />
	</node>
	<node id="-574279" lat="58.2171166709" lon="6.93158611362">
		<tag k="name" v="Rørkjerran" />
		<tag k="place" v="locality" />
		<tag k="ssr:stedsnr" v="385463" />
	</node>
	<node id="-573351" lat="58.3513638862" lon="7.42891944078">
		<tag k="name" v="Ikonsteinen" />
		<tag k="natural" v="stone" />
		<tag k="ssr:stedsnr" v="280944" />
	</node>
	<node id="-573350" lat="58.3866999975" lon="7.39556388491">
		<tag k="name" v="Valandsmyra" />
		<tag k="natural" v="wetland" />
		<tag k="ssr:stedsnr" v="280943" />
	</node>
	<node id="-575908" lat="58.2352583295" lon="7.15058332768">
		<tag k="name" v="Pinkesteinen" />
		<tag k="natural" v="stone" />
		<tag k="ssr:stedsnr" v="931229" />
	</node>
	<node id="-576931" lat="58.1823055579" lon="7.24051944342">
		<tag k="name" v="Loneslåttan" />
		<tag k="natural" v="wetland" />
		<tag k="ssr:stedsnr" v="82336" />
	</node>
	<node id="-573345" lat="58.4429777742" lon="7.45923889674">
		<tag k="name" v="Storemyran" />
		<tag k="natural" v="wetland" />
		<tag k="ssr:stedsnr" v="280091" />
	</node>
	<node id="-575904" lat="58.1952083291" lon="7.18478055562">
		<tag k="name" v="Hoggura" />
		<tag k="natural" v="scree" />
		<tag k="ssr:stedsnr" v="931215" />
	</node>
	<node id="-574789" lat="58.2299111136" lon="7.1837972171">
		<tag k="name" v="Kjebemyra" />
		<tag k="natural" v="wetland" />
		<tag k="ssr:stedsnr" v="689314" />
	</node>
	<node id="-574364" lat="58.2050611118" lon="7.22782777966">
		<tag k="name" v="Martineslåtta" />
		<tag k="natural" v="wetland" />
		<tag k="ssr:stedsnr" v="506612" />
	</node>
	<node id="-575894" lat="58.2067861088" lon="7.06723333019">
		<tag k="name" v="Storemyr" />
		<tag k="natural" v="wetland" />
		<tag k="ssr:stedsnr" v="810009" />
	</node>
	<node id="-573333" lat="58.3754111085" lon="7.3621583329">
		<tag k="name" v="Kleivsvollen" />
		<tag k="place" v="locality" />
		<tag k="ssr:stedsnr" v="280001" />
	</node>
	<node id="-576913" lat="58.403236111" lon="7.43295555182">
		<tag k="name" v="Slimyr" />
		<tag k="natural" v="wetland" />
		<tag k="ssr:stedsnr" v="61966" />
	</node>
	<node id="-572629" lat="58.2585250018" lon="7.36642221449">
		<tag k="loc_name" v="Bydingsmyrå" />
		<tag k="name" v="Bydingsmyra" />
		<tag k="natural" v="wetland" />
		<tag k="ssr:stedsnr" v="219882" />
	</node>
	<node id="-576130" lat="58.2062888853" lon="7.05564444487">
		<tag k="name" v="Hellermyra" />
		<tag k="natural" v="wetland" />
		<tag k="ssr:stedsnr" v="871010" />
	</node>
	<node id="-574345" lat="58.1537083315" lon="6.93559721719">
		<tag k="name" v="Bresemyra" />
		<tag k="natural" v="wetland" />
		<tag k="ssr:stedsnr" v="506495" />
	</node>
	<node id="-576389" lat="58.337200004" lon="7.34576666832">
		<tag k="name" v="Ånenskjerran" />
		<tag k="natural" v="wetland" />
		<tag k="ssr:stedsnr" v="947877" />
	</node>
	<node id="-574340" lat="58.2498777802" lon="7.20585832923">
		<tag k="name" v="Dyblemyra" />
		<tag k="natural" v="wetland" />
		<tag k="ssr:stedsnr" v="506223" />
	</node>
	<node id="-574851" lat="58.1592805594" lon="7.16862222334">
		<tag k="name" v="Storehagen" />
		<tag k="natural" v="wetland" />
		<tag k="ssr:stedsnr" v="689898" />
	</node>
	<node id="-576386" lat="58.2509944433" lon="7.28568889687">
		<tag k="name" v="Finnmyran" />
		<tag k="natural" v="wetland" />
		<tag k="ssr:stedsnr" v="947825" />
	</node>
	<node id="-574848" lat="58.1298250022" lon="7.03974722226">
		<tag k="name" v="Vollan" />
		<tag k="place" v="locality" />
		<tag k="ssr:stedsnr" v="689869" />
	</node>
	<node id="-572798" lat="58.3904916702" lon="7.35860833921">
		<tag k="name" v="Skipermyr" />
		<tag k="natural" v="wetland" />
		<tag k="ssr:stedsnr" v="37056" />
	</node>
	<node id="-574357" lat="58.1734527779" lon="6.89639166064">
		<tag k="name" v="Silkemyr" />
		<tag k="natural" v="wetland" />
		<tag k="ssr:stedsnr" v="506673" />
	</node>
	<node id="-573307" lat="58.2317666653" lon="7.39817222415">
		<tag k="name" v="Kvasshammerslåtta" />
		<tag k="natural" v="wetland" />
		<tag k="ssr:stedsnr" v="279764" />
	</node>
	<node id="-573305" lat="58.3586444407" lon="7.30922500197">
		<tag k="name" v="Storemyr" />
		<tag k="natural" v="wetland" />
		<tag k="ssr:stedsnr" v="158976" />
	</node>
	<node id="-576375" lat="58.358074996" lon="7.34460555365">
		<tag k="name" v="Sålvesmyr" />
		<tag k="natural" v="wetland" />
		<tag k="ssr:stedsnr" v="947771" />
	</node>
	<node id="-573300" lat="58.3842500041" lon="7.36973333041">
		<tag k="name" v="Bladalsmyra" />
		<tag k="natural" v="wetland" />
		<tag k="ssr:stedsnr" v="158956" />
	</node>
	<node id="-573811" lat="58.0463611109" lon="6.99473056222">
		<tag k="name" v="Dyblemyra" />
		<tag k="natural" v="wetland" />
		<tag k="ssr:stedsnr" v="446739" />
	</node>
	<node id="-573297" lat="58.2454305516" lon="7.34885832524">
		<tag k="name" v="Hagejordet" />
		<tag k="place" v="locality" />
		<tag k="ssr:stedsnr" v="158863" />
	</node>
	<node id="-575344" lat="58.3589416637" lon="7.34411945117">
		<tag k="name" v="Flone" />
		<tag k="place" v="locality" />
		<tag k="ssr:stedsnr" v="643974" />
	</node>
	<node id="-573295" lat="58.2746722205" lon="7.32369166739">
		<tag k="name" v="Furåsmyra" />
		<tag k="natural" v="wetland" />
		<tag k="ssr:stedsnr" v="158831" />
	</node>
	<node id="-576364" lat="58.4875499959" lon="7.38488611301">
		<tag k="name" v="Sollistean" />
		<tag k="natural" v="wetland" />
		<tag k="ssr:stedsnr" v="947162" />
	</node>
	<node id="-574826" lat="58.2624388864" lon="7.17503610478">
		<tag k="name" v="Dyblemyra" />
		<tag k="natural" v="wetland" />
		<tag k="ssr:stedsnr" v="689539" />
	</node>
	<node id="-572777" lat="58.2344666679" lon="7.34251666322">
		<tag k="name" v="Øyan" />
		<tag k="place" v="locality" />
		<tag k="ssr:stedsnr" v="36869" />
	</node>
	<node id="-572776" lat="58.2763194453" lon="7.35365556167">
		<tag k="name" v="Bordalsholtan" />
		<tag k="place" v="locality" />
		<tag k="ssr:stedsnr" v="36866" />
	</node>
	<node id="-573286" lat="58.2842944401" lon="7.26786111083">
		<tag k="name" v="Borgemyr" />
		<tag k="natural" v="wetland" />
		<tag k="ssr:stedsnr" v="279306" />
	</node>
	<node id="-572772" lat="58.2623527768" lon="7.31525277441">
		<tag k="name" v="Krossmyr" />
		<tag k="natural" v="wetland" />
		<tag k="ssr:stedsnr" v="36825" />
	</node>
	<node id="-573795" lat="58.1808999975" lon="6.99635833708">
		<tag k="name" v="Birkestislåtten" />
		<tag k="place" v="locality" />
		<tag k="ssr:stedsnr" v="446475" />
	</node>
	<node id="-576353" lat="58.3733111108" lon="7.33475277995">
		<tag k="name" v="Kittelsmyr" />
		<tag k="natural" v="wetland" />
		<tag k="ssr:stedsnr" v="947009" />
	</node>
	<node id="-573791" lat="58.2584222207" lon="7.14805277168">
		<tag k="name" v="Videmyran" />
		<tag k="natural" v="wetland" />
		<tag k="ssr:stedsnr" v="446593" />
	</node>
	<node id="-576349" lat="58.1985055516" lon="7.19634721434">
		<tag k="name" v="Krakkekleivmyra" />
		<tag k="natural" v="wetland" />
		<tag k="ssr:stedsnr" v="932519" />
	</node>
	<node id="-576347" lat="58.1663138871" lon="7.20955833955">
		<tag k="name" v="Rinnemyra" />
		<tag k="natural" v="wetland" />
		<tag k="ssr:stedsnr" v="932503" />
	</node>
	<node id="-574969" lat="58.3920527797" lon="7.42654999553">
		<tag k="name" v="Spydalsmyra" />
		<tag k="natural" v="wetland" />
		<tag k="ssr:stedsnr" v="704230" />
	</node>
	<node id="-573271" lat="58.1536916633" lon="7.18099721713">
		<tag k="name" v="Moltemyra" />
		<tag k="natural" v="wetland" />
		<tag k="ssr:stedsnr" v="143902" />
	</node>
	<node id="-575829" lat="58.4239111113" lon="7.4635916591">
		<tag k="name" v="Storemyr" />
		<tag k="natural" v="wetland" />
		<tag k="ssr:stedsnr" v="765070" />
	</node>
	<node id="-573780" lat="58.1720750015" lon="6.93309166905">
		<tag k="name" v="Kringlemyra" />
		<tag k="natural" v="wetland" />
		<tag k="ssr:stedsnr" v="446468" />
	</node>
	<node id="-576339" lat="58.2119583358" lon="7.05893055017">
		<tag k="name" v="Slåttemyra" />
		<tag k="natural" v="wetland" />
		<tag k="ssr:stedsnr" v="932012" />
	</node>
	<node id="-573778" lat="58.2279833339" lon="6.9601694479">
		<tag k="name" v="Viemyran" />
		<tag k="natural" v="wetland" />
		<tag k="ssr:stedsnr" v="446455" />
	</node>
	<node id="-574286" lat="58.1479111141" lon="6.90877777742">
		<tag k="name" v="Sekstanfeda" />
		<tag k="place" v="locality" />
		<tag k="ssr:stedsnr" v="385669" />
	</node>
	<node id="-573259" lat="58.1544222267" lon="7.16230278456">
		<tag k="name" v="Storefeda" />
		<tag k="natural" v="wetland" />
		<tag k="ssr:stedsnr" v="265965" />
	</node>
	<node id="-573770" lat="58.1805944437" lon="7.11598332975">
		<tag k="name" v="Stakkemyra" />
		<tag k="natural" v="wetland" />
		<tag k="ssr:stedsnr" v="446417" />
	</node>
	<node id="-573751" lat="58.2769388863" lon="7.13539166341">
		<tag k="name" v="Sterketjønnmyra" />
		<tag k="natural" v="wetland" />
		<tag k="ssr:stedsnr" v="446186" />
	</node>
	<node id="-575303" lat="58.1399222199" lon="7.19831389602">
		<tag k="name" v="Storemyr" />
		<tag k="natural" v="wetland" />
		<tag k="ssr:stedsnr" v="628410" />
	</node>
	<node id="-576325" lat="58.2619249972" lon="7.15051111343">
		<tag k="name" v="Skaremyra" />
		<tag k="natural" v="wetland" />
		<tag k="ssr:stedsnr" v="931604" />
	</node>
	<node id="-574787" lat="58.2377777768" lon="7.20475000396">
		<tag k="name" v="Stedjan" />
		<tag k="natural" v="wetland" />
		<tag k="ssr:stedsnr" v="689307" />
	</node>
	<node id="-574786" lat="58.2360388846" lon="7.20231111153">
		<tag k="name" v="Steggjan" />
		<tag k="natural" v="wetland" />
		<tag k="ssr:stedsnr" v="689305" />
	</node>
	<node id="-573760" lat="58.2533111071" lon="7.14501666305">
		<tag k="name" v="Vænerslåtta" />
		<tag k="natural" v="wetland" />
		<tag k="ssr:stedsnr" v="446244" />
	</node>
	<node id="-573247" lat="58.2801777746" lon="7.18127499585">
		<tag k="name" v="Furemyra" />
		<tag k="natural" v="wetland" />
		<tag k="ssr:stedsnr" v="265278" />
	</node>
	<node id="-573758" lat="58.2469583343" lon="7.14619166935">
		<tag k="name" v="Torvemyra" />
		<tag k="natural" v="wetland" />
		<tag k="ssr:stedsnr" v="446239" />
	</node>
	<node id="-575292" lat="58.2273083375" lon="7.08340834056">
		<tag k="name" v="Silkemyr" />
		<tag k="natural" v="wetland" />
		<tag k="ssr:stedsnr" v="628065" />
	</node>
	<node id="-573243" lat="58.2041194464" lon="6.95857500171">
		<tag k="name" v="Surtemyra" />
		<tag k="natural" v="wetland" />
		<tag k="ssr:stedsnr" v="264984" />
	</node>
	<node id="-576314" lat="58.1976972227" lon="7.17745832531">
		<tag k="name" v="Loftsmyra" />
		<tag k="natural" v="wetland" />
		<tag k="ssr:stedsnr" v="931208" />
	</node>
	<node id="-573246" lat="58.2898805526" lon="7.19141389201">
		<tag k="name" v="Halevollen" />
		<tag k="place" v="locality" />
		<tag k="ssr:stedsnr" v="265270" />
	</node>
	<node id="-574263" lat="58.2386055558" lon="7.21190278194">
		<tag k="name" v="Småmyran" />
		<tag k="natural" v="wetland" />
		<tag k="ssr:stedsnr" v="385222" />
	</node>
	<node id="-574774" lat="58.251883329" lon="7.21037499752">
		<tag k="name" v="Stokkemyr" />
		<tag k="natural" v="wetland" />
		<tag k="ssr:stedsnr" v="689232" />
	</node>
	<node id="-574771" lat="58.2230388924" lon="7.10782499362">
		<tag k="name" v="Veigjemyra" />
		<tag k="natural" v="wetland" />
		<tag k="ssr:stedsnr" v="689210" />
	</node>
	<node id="-573234" lat="58.0814444411" lon="7.1379138908">
		<tag k="name" v="Trettura" />
		<tag k="natural" v="scree" />
		<tag k="ssr:stedsnr" v="264876" />
	</node>
	<node id="-574769" lat="58.2150722264" lon="7.10446944153">
		<tag k="name" v="Torvmyra" />
		<tag k="natural" v="wetland" />
		<tag k="ssr:stedsnr" v="689189" />
	</node>
	<node id="-573232" lat="58.1107833304" lon="7.09745555083">
		<tag k="name" v="Torvmyra" />
		<tag k="natural" v="wetland" />
		<tag k="ssr:stedsnr" v="264847" />
	</node>
	<node id="-575279" lat="58.0805888859" lon="6.99113055304">
		<tag k="name" v="Legemyra" />
		<tag k="natural" v="wetland" />
		<tag k="ssr:stedsnr" v="627689" />
	</node>
	<node id="-573759" lat="58.2522416633" lon="7.15491111127">
		<tag k="name" v="Stakkedalsmyra" />
		<tag k="natural" v="wetland" />
		<tag k="ssr:stedsnr" v="446241" />
	</node>
	<node id="-573227" lat="58.0814111106" lon="7.09820000178">
		<tag k="name" v="Fenan" />
		<tag k="natural" v="wetland" />
		<tag k="ssr:stedsnr" v="264811" />
	</node>
	<node id="-573223" lat="58.0815388884" lon="7.10757500353">
		<tag k="name" v="Neset" />
		<tag k="place" v="locality" />
		<tag k="ssr:stedsnr" v="264789" />
	</node>
	<node id="-575740" lat="58.2552444426" lon="7.22611389103">
		<tag k="name" v="Klyftedalsmyra" />
		<tag k="natural" v="wetland" />
		<tag k="ssr:stedsnr" v="749329" />
	</node>
	<node id="-574754" lat="58.2197777763" lon="7.00685834001">
		<tag k="name" v="Tremyra" />
		<tag k="natural" v="wetland" />
		<tag k="ssr:stedsnr" v="689062" />
	</node>
	<node id="-576219" lat="58.2495555541" lon="7.31192777469">
		<tag k="name" v="Hanesteinen" />
		<tag k="natural" v="stone" />
		<tag k="ssr:stedsnr" v="886858" />
	</node>
	<node id="-575973" lat="58.2271249957" lon="7.21251944547">
		<tag k="name" v="Torvmyra" />
		<tag k="natural" v="wetland" />
		<tag k="ssr:stedsnr" v="932267" />
	</node>
	<node id="-573214" lat="58.1503416648" lon="6.88466389675">
		<tag k="name" v="Storur" />
		<tag k="natural" v="scree" />
		<tag k="ssr:stedsnr" v="264643" />
	</node>
	<node id="-573927" lat="58.2799972216" lon="7.27645277993">
		<tag k="name" v="Knaie" />
		<tag k="natural" v="wetland" />
		<tag k="ssr:stedsnr" v="461940" />
	</node>
	<node id="-573211" lat="58.1907333368" lon="7.21946388492">
		<tag k="name" v="Karimyra" />
		<tag k="natural" v="wetland" />
		<tag k="ssr:stedsnr" v="264597" />
	</node>
	<node id="-574746" lat="58.2152777814" lon="6.99333332986">
		<tag k="name" v="Langemyra" />
		<tag k="place" v="locality" />
		<tag k="ssr:stedsnr" v="689005" />
	</node>
	<node id="-573209" lat="58.2596611099" lon="7.20427221578">
		<tag k="name" v="Karten" />
		<tag k="natural" v="wetland" />
		<tag k="ssr:stedsnr" v="264585" />
	</node>
	<node id="-574336" lat="58.219461109" lon="7.10466111342">
		<tag k="name" v="Valfaksstein" />
		<tag k="natural" v="stone" />
		<tag k="ssr:stedsnr" v="506190" />
	</node>
	<node id="-576217" lat="58.4408499969" lon="7.47453333729">
		<tag k="name" v="Loppemyr" />
		<tag k="natural" v="wetland" />
		<tag k="ssr:stedsnr" v="887124" />
	</node>
	<node id="-573203" lat="58.1608222221" lon="7.21367777717">
		<tag k="name" v="Teinemyra" />
		<tag k="natural" v="wetland" />
		<tag k="ssr:stedsnr" v="264521" />
	</node>
	<node id="-574339" lat="58.239133331" lon="7.20446667075">
		<tag k="name" v="Hjuringshusmyra" />
		<tag k="natural" v="wetland" />
		<tag k="ssr:stedsnr" v="506219" />
	</node>
	<node id="-575461" lat="58.2815666671" lon="7.29174444263">
		<tag k="name" v="Ægra" />
		<tag k="place" v="locality" />
		<tag k="ssr:stedsnr" v="886937" />
	</node>
	<node id="-573195" lat="58.1540805535" lon="7.12172500816">
		<tag k="name" v="Stakkemyra" />
		<tag k="natural" v="wetland" />
		<tag k="ssr:stedsnr" v="264442" />
	</node>
	<node id="-573143" lat="58.2779833318" lon="7.10798889165">
		<tag k="name" v="Skydalsmyra" />
		<tag k="natural" v="wetland" />
		<tag k="ssr:stedsnr" v="264145" />
	</node>
	<node id="-574728" lat="58.2650694416" lon="7.23310833275">
		<tag k="name" v="Roddusmyra" />
		<tag k="natural" v="wetland" />
		<tag k="ssr:stedsnr" v="507318" />
	</node>
	<node id="-574770" lat="58.219327778" lon="7.11049444331">
		<tag k="name" v="Kinnemyrdega" />
		<tag k="natural" v="wetland" />
		<tag k="ssr:stedsnr" v="689196" />
	</node>
	<node id="-572677" lat="58.1589277739" lon="7.20689444584">
		<tag k="name" v="Orrekjerr" />
		<tag k="natural" v="wetland" />
		<tag k="ssr:stedsnr" v="22517" />
	</node>
	<node id="-575746" lat="58.1759805525" lon="7.10556944745">
		<tag k="name" v="Kleivemyra" />
		<tag k="natural" v="wetland" />
		<tag k="ssr:stedsnr" v="749410" />
	</node>
	<node id="-572673" lat="58.1582777795" lon="7.15313611313">
		<tag k="name" v="Langemyra" />
		<tag k="natural" v="wetland" />
		<tag k="ssr:stedsnr" v="21946" />
	</node>
	<node id="-573824" lat="58.1531861137" lon="7.21241666463">
		<tag k="name" v="Torvmyra" />
		<tag k="natural" v="wetland" />
		<tag k="ssr:stedsnr" v="447500" />
	</node>
	<node id="-574717" lat="58.2420222251" lon="7.12505277493">
		<tag k="name" v="Dyblemyra" />
		<tag k="natural" v="wetland" />
		<tag k="ssr:stedsnr" v="506521" />
	</node>
	<node id="-572668" lat="58.106297223" lon="7.13268611751">
		<tag k="name" v="Bjørnmyra" />
		<tag k="natural" v="wetland" />
		<tag k="ssr:stedsnr" v="21816" />
	</node>
	<node id="-574714" lat="58.2184027774" lon="6.93256388251">
		<tag k="name" v="Steggan" />
		<tag k="place" v="locality" />
		<tag k="ssr:stedsnr" v="506465" />
	</node>
	<node id="-574591" lat="58.2891666688" lon="7.16770554971">
		<tag k="name" v="Jøtnemyr" />
		<tag k="natural" v="wetland" />
		<tag k="ssr:stedsnr" v="447223" />
	</node>
	<node id="-575736" lat="58.2282111079" lon="7.18399722387">
		<tag k="name" v="Troddefænan" />
		<tag k="natural" v="wetland" />
		<tag k="ssr:stedsnr" v="749313" />
	</node>
	<node id="-575735" lat="58.2311638895" lon="7.15048610634">
		<tag k="name" v="Finnstein" />
		<tag k="natural" v="stone" />
		<tag k="ssr:stedsnr" v="749312" />
	</node>
	<node id="-576108" lat="58.3060249975" lon="7.39500555407">
		<tag k="name" v="Torvemyr" />
		<tag k="natural" v="wetland" />
		<tag k="ssr:stedsnr" v="947284" />
	</node>
	<node id="-574708" lat="58.2329611156" lon="7.19876944643">
		<tag k="name" v="Skarmyr" />
>>>>>>> e1d4bc35ff8a6074a6f2e91616a996b547c36f15
		<tag k="place" v="locality" />
		<tag k="ssr:stedsnr" v="506312" />
	</node>
<<<<<<< HEAD
	<node lat="58.237441670913725" lon="7.088388884477244" id="-23805">
		<tag k="name" v="Langemyran" />
		<tag k="natural" v="wetland" />
		<tag k="ssr:stedsnr" v="204456" />
	</node>
	<node lat="58.10242777526437" lon="7.143502775245179" id="-23810">
		<tag k="name" v="Bårmyra" />
		<tag k="natural" v="wetland" />
		<tag k="ssr:stedsnr" v="204925" />
	</node>
	<node lat="58.36576944382315" lon="7.360097229736568" id="-23821">
		<tag k="name" v="Maurbermyra" />
		<tag k="natural" v="wetland" />
		<tag k="ssr:stedsnr" v="219022" />
	</node>
	<node lat="58.258525001799086" lon="7.366422214493515" id="-23840">
		<tag k="loc_name" v="Bydingsmyrå" />
		<tag k="name" v="Bydingsmyra" />
		<tag k="natural" v="wetland" />
		<tag k="ssr:stedsnr" v="219882" />
	</node>
	<node lat="58.483833331564114" lon="7.359086111788465" id="-23938">
		<tag k="alt_name" v="Gråstad" />
		<tag k="name" v="Gråstadmyri" />
		<tag k="natural" v="wetland" />
		<tag k="ssr:stedsnr" v="243592" />
	</node>
	<node lat="58.218222225356214" lon="7.069755562552527" id="-23945">
		<tag k="name" v="Grasdalsmyra" />
		<tag k="natural" v="wetland" />
		<tag k="ssr:stedsnr" v="264078" />
	</node>
	<node lat="58.22199166896815" lon="7.1388055496932035" id="-23955">
		<tag k="name" v="Blomrivollen" />
		<tag k="place" v="locality" />
		<tag k="ssr:stedsnr" v="264175" />
	</node>
	<node lat="58.28363888473064" lon="7.246827770337071" id="-23961">
		<tag k="name" v="Slåttemyra" />
		<tag k="natural" v="wetland" />
		<tag k="ssr:stedsnr" v="264326" />
	</node>
	<node lat="58.1540805534811" lon="7.121725008161634" id="-23969">
		<tag k="name" v="Stakkemyra" />
		<tag k="natural" v="wetland" />
		<tag k="ssr:stedsnr" v="264442" />
	</node>
	<node lat="58.15034166482171" lon="6.884663896754546" id="-23978">
		<tag k="name" v="Storur" />
		<tag k="natural" v="scree" />
		<tag k="ssr:stedsnr" v="264643" />
	</node>
	<node lat="58.259661109889564" lon="7.204272215781005" id="-23981">
		<tag k="name" v="Karten" />
		<tag k="natural" v="wetland" />
		<tag k="ssr:stedsnr" v="264585" />
	</node>
	<node lat="58.19073333675865" lon="7.219463884924009" id="-23983">
		<tag k="name" v="Karimyra" />
		<tag k="natural" v="wetland" />
		<tag k="ssr:stedsnr" v="264597" />
	</node>
	<node lat="58.0814111106453" lon="7.098200001777666" id="-23988">
		<tag k="name" v="Fenan" />
		<tag k="natural" v="wetland" />
		<tag k="ssr:stedsnr" v="264811" />
	</node>
	<node lat="58.11078333042255" lon="7.097455550833706" id="-23991">
		<tag k="name" v="Torvmyra" />
		<tag k="natural" v="wetland" />
		<tag k="ssr:stedsnr" v="264847" />
	</node>
	<node lat="58.08153888836489" lon="7.107575003534791" id="-23995">
		<tag k="name" v="Neset" />
		<tag k="place" v="locality" />
		<tag k="ssr:stedsnr" v="264789" />
	</node>
	<node lat="58.456533332447954" lon="7.401716659622354" id="-24004">
		<tag k="name" v="Dyblemyr" />
		<tag k="natural" v="wetland" />
		<tag k="ssr:stedsnr" v="279118" />
	</node>
	<node lat="58.45784444411656" lon="7.4605249926237205" id="-24005">
		<tag k="name" v="Svomyr" />
		<tag k="natural" v="wetland" />
		<tag k="ssr:stedsnr" v="279119" />
	</node>
	<node lat="58.28429444014622" lon="7.267861110831072" id="-24013">
		<tag k="name" v="Borgemyr" />
		<tag k="natural" v="wetland" />
		<tag k="ssr:stedsnr" v="279306" />
	</node>
	<node lat="58.3540527813965" lon="7.341563888811596" id="-24036">
		<tag k="name" v="Rydningsmyra" />
		<tag k="natural" v="wetland" />
		<tag k="ssr:stedsnr" v="280319" />
	</node>
	<node lat="58.35890277521292" lon="7.340616668270703" id="-24037">
		<tag k="name" v="Dukan" />
		<tag k="place" v="locality" />
		<tag k="ssr:stedsnr" v="280969" />
	</node>
	<node lat="58.386699997511684" lon="7.395563884912031" id="-24038">
		<tag k="name" v="Valandsmyra" />
		<tag k="natural" v="wetland" />
		<tag k="ssr:stedsnr" v="280943" />
	</node>
	<node lat="58.35136388618839" lon="7.428919440776427" id="-24039">
		<tag k="name" v="Ikonsteinen" />
		<tag k="natural" v="stone" />
		<tag k="ssr:stedsnr" v="280944" />
	</node>
	<node lat="58.34475555547145" lon="7.319144442076178" id="-24044">
		<tag k="name" v="Aslaksmyra" />
		<tag k="natural" v="wetland" />
		<tag k="ssr:stedsnr" v="461231" />
	</node>
	<node lat="58.30266666805316" lon="7.329927783769303" id="-24055">
		<tag k="name" v="Hugemyr" />
		<tag k="natural" v="wetland" />
		<tag k="ssr:stedsnr" v="461297" />
	</node>
	<node lat="58.23306388663132" lon="7.379088884117723" id="-24056">
		<tag k="name" v="Leikarsteinen" />
		<tag k="natural" v="stone" />
		<tag k="ssr:stedsnr" v="461783" />
	</node>
	<node lat="58.23352500085311" lon="7.352519451188162" id="-24057">
		<tag k="name" v="Librotsteinen" />
		<tag k="natural" v="stone" />
		<tag k="ssr:stedsnr" v="461786" />
	</node>
	<node lat="58.320422217918924" lon="7.371597220794134" id="-24066">
		<tag k="name" v="Havna" />
		<tag k="place" v="locality" />
		<tag k="ssr:stedsnr" v="461910" />
	</node>
	<node lat="58.33518889342992" lon="7.420922225773782" id="-24070">
		<tag k="name" v="Storesteggan" />
		<tag k="natural" v="wetland" />
		<tag k="ssr:stedsnr" v="461984" />
	</node>
	<node lat="58.2799972215537" lon="7.276452779932832" id="-24083">
		<tag k="name" v="Knaie" />
		<tag k="natural" v="wetland" />
		<tag k="ssr:stedsnr" v="461940" />
	</node>
	<node lat="58.08509444175677" lon="7.117427778852061" id="-24155">
		<tag k="name" v="Vass-slåtta" />
		<tag k="natural" v="wetland" />
		<tag k="ssr:stedsnr" v="293881" />
	</node>
	<node lat="58.34601110694324" lon="7.337427785548849" id="-24174">
		<tag k="name" v="Lunddalsmyrå" />
		<tag k="natural" v="wetland" />
		<tag k="ssr:stedsnr" v="462948" />
	</node>
	<node lat="58.35263611489578" lon="7.349444448255337" id="-24207">
		<tag k="alt_name" v="Stedjan" />
		<tag k="name" v="Stean" />
		<tag k="natural" v="wetland" />
		<tag k="ssr:stedsnr" v="303974" />
	</node>
	<node lat="58.19787222431133" lon="7.119416666828544" id="-24218">
		<tag k="name" v="Laksesteinen" />
		<tag k="natural" v="stone" />
		<tag k="ssr:stedsnr" v="324101" />
	</node>
	<node lat="58.12885555473779" lon="7.212686109381299" id="-24236">
		<tag k="name" v="Langemyr" />
		<tag k="natural" v="wetland" />
		<tag k="ssr:stedsnr" v="324423" />
	</node>
	<node lat="58.195708337224424" lon="7.23481110285418" id="-24239">
		<tag k="name" v="Lasseslåtta" />
		<tag k="natural" v="wetland" />
		<tag k="ssr:stedsnr" v="324607" />
	</node>
	<node lat="58.195850003505015" lon="7.224361115170225" id="-24240">
		<tag k="name" v="Steinmyra" />
		<tag k="natural" v="wetland" />
		<tag k="ssr:stedsnr" v="324611" />
	</node>
	<node lat="58.09282778036691" lon="6.993338884600379" id="-24251">
		<tag k="name" v="Stora kjerra" />
		<tag k="natural" v="wetland" />
		<tag k="ssr:stedsnr" v="324764" />
	</node>
	<node lat="58.13390833255533" lon="7.043177782288256" id="-24255">
		<tag k="name" v="Grønaseget" />
		<tag k="place" v="locality" />
		<tag k="ssr:stedsnr" v="324888" />
	</node>
	<node lat="58.241338891197444" lon="7.111149992147731" id="-24257">
		<tag k="name" v="Langemyra" />
		<tag k="natural" v="wetland" />
		<tag k="ssr:stedsnr" v="325509" />
	</node>
	<node lat="58.38826388737302" lon="7.3900833258747545" id="-24267">
		<tag k="name" v="Surtekjerret" />
		<tag k="natural" v="wetland" />
		<tag k="ssr:stedsnr" v="340050" />
	</node>
	<node lat="58.42780277811987" lon="7.474152776956235" id="-24269">
		<tag k="name" v="Bervamyr" />
		<tag k="natural" v="wetland" />
		<tag k="ssr:stedsnr" v="340093" />
	</node>
	<node lat="58.50309166903558" lon="7.388524996134942" id="-24281">
		<tag k="name" v="Joemyr" />
		<tag k="natural" v="wetland" />
		<tag k="ssr:stedsnr" v="340196" />
	</node>
	<node lat="58.41549722609442" lon="7.423052783035124" id="-24286">
		<tag k="name" v="Sletteskog" />
		<tag k="place" v="locality" />
		<tag k="ssr:stedsnr" v="340359" />
	</node>
	<node lat="58.30775555634376" lon="7.330783332867769" id="-24297">
		<tag k="name" v="Tarjersmyra" />
		<tag k="natural" v="wetland" />
		<tag k="ssr:stedsnr" v="340898" />
	</node>
	<node lat="58.45192777926427" lon="7.372727778705932" id="-24534">
		<tag k="alt_name" v="Vårdalsslåtten" />
		<tag k="loc_name" v="Vårdalsslåttæn" />
		<tag k="name" v="Vårdalslåtten" />
		<tag k="natural" v="wetland" />
		<tag k="ssr:stedsnr" v="364920" />
	</node>
	<node lat="58.23630277832226" lon="7.2114861121046046" id="-24550">
		<tag k="name" v="Slåttemyra" />
		<tag k="natural" v="wetland" />
		<tag k="ssr:stedsnr" v="385311" />
	</node>
	<node lat="58.051041665206505" lon="7.024394439575515" id="-24568">
		<tag k="name" v="Langemyr" />
		<tag k="natural" v="wetland" />
		<tag k="ssr:stedsnr" v="385731" />
	</node>
	<node lat="58.08604999601603" lon="7.123902769983363" id="-24582">
		<tag k="name" v="Fladstadskogane" />
		<tag k="place" v="locality" />
		<tag k="ssr:stedsnr" v="385846" />
	</node>
	<node lat="58.344080556018234" lon="7.339483338850062" id="-24596">
		<tag k="name" v="Venamyr" />
		<tag k="natural" v="wetland" />
		<tag k="ssr:stedsnr" v="400208" />
	</node>
	<node lat="58.36612499657209" lon="7.322477779286257" id="-24603">
		<tag k="name" v="Langemyran" />
		<tag k="natural" v="wetland" />
		<tag k="ssr:stedsnr" v="400305" />
	</node>
	<node lat="58.260391662407464" lon="7.374205557845019" id="-24607">
		<tag k="loc_name" v="Bjødneægrå" />
		<tag k="name" v="Bjørnægra" />
		<tag k="natural" v="wetland" />
		<tag k="ssr:stedsnr" v="400888" />
	</node>
	<node lat="58.483500003639634" lon="7.366811113630562" id="-24616">
		<tag k="name" v="Bumyra" />
		<tag k="natural" v="wetland" />
		<tag k="ssr:stedsnr" v="401179" />
	</node>
	<node lat="58.14499999884333" lon="6.977377785812524" id="-24651">
		<tag k="name" v="Høystakkmyra" />
		<tag k="natural" v="wetland" />
		<tag k="ssr:stedsnr" v="406565" />
	</node>
	<node lat="58.31528611109513" lon="7.3990694367491265" id="-24764">
		<tag k="name" v="Stormyra" />
		<tag k="natural" v="wetland" />
		<tag k="ssr:stedsnr" v="425761" />
	</node>
	<node lat="58.221358336417566" lon="7.115283329725807" id="-24772">
		<tag k="name" v="Sauesteinen" />
		<tag k="natural" v="stone" />
		<tag k="ssr:stedsnr" v="446229" />
	</node>
	<node lat="58.23202499770842" lon="7.185000005642714" id="-24781">
		<tag k="name" v="Jonsokmyra" />
		<tag k="natural" v="wetland" />
		<tag k="ssr:stedsnr" v="446333" />
	</node>
	<node lat="58.1808999974977" lon="6.9963583370797435" id="-24787">
		<tag k="name" v="Birkestislåtten" />
		<tag k="place" v="locality" />
		<tag k="ssr:stedsnr" v="446475" />
	</node>
	<node lat="58.24152777723493" lon="7.220316661142724" id="-24794">
		<tag k="name" v="Torvemyra" />
		<tag k="natural" v="wetland" />
		<tag k="ssr:stedsnr" v="446640" />
	</node>
	<node lat="58.04636111093607" lon="6.9947305622199245" id="-24798">
		<tag k="name" v="Dyblemyra" />
		<tag k="natural" v="wetland" />
		<tag k="ssr:stedsnr" v="446739" />
	</node>
	<node lat="58.096149999321526" lon="7.009180551196128" id="-24799">
		<tag k="name" v="Brørsteinen" />
		<tag k="natural" v="stone" />
		<tag k="ssr:stedsnr" v="446745" />
	</node>
	<node lat="58.28916666877728" lon="7.167705549706568" id="-24810">
		<tag k="name" v="Jøtnemyr" />
		<tag k="natural" v="wetland" />
		<tag k="ssr:stedsnr" v="447223" />
	</node>
	<node lat="58.29068333377391" lon="7.174891674614142" id="-24811">
		<tag k="name" v="Moltemyr" />
		<tag k="natural" v="wetland" />
		<tag k="ssr:stedsnr" v="447225" />
	</node>
	<node lat="58.35409166604475" lon="7.329658330445047" id="-24816">
		<tag k="loc_name" v="Halevollen" />
		<tag k="name" v="Halevodden" />
		<tag k="place" v="locality" />
		<tag k="ssr:stedsnr" v="461215" />
	</node>
	<node lat="58.49512500319989" lon="7.493947225020328" id="-24819">
		<tag k="name" v="Torvemyr" />
		<tag k="natural" v="wetland" />
		<tag k="ssr:stedsnr" v="461171" />
	</node>
	<node lat="58.306938886626924" lon="7.273969446014717" id="-24822">
		<tag k="name" v="Sundsmyra" />
		<tag k="natural" v="wetland" />
		<tag k="ssr:stedsnr" v="461303" />
	</node>
	<node lat="58.24192222286983" lon="7.397072220994621" id="-24829">
		<tag k="name" v="Fjellemyr" />
		<tag k="natural" v="wetland" />
		<tag k="ssr:stedsnr" v="461871" />
	</node>
	<node lat="58.42636388657644" lon="7.484066664662881" id="-24831">
		<tag k="name" v="Stemmen" />
		<tag k="natural" v="wetland" />
		<tag k="ssr:stedsnr" v="462075" />
	</node>
	<node lat="58.47484166593703" lon="7.4360833252967895" id="-24832">
		<tag k="name" v="Moltemyr" />
		<tag k="natural" v="wetland" />
		<tag k="ssr:stedsnr" v="462115" />
	</node>
	<node lat="58.26292777839331" lon="7.366824994306309" id="-24934">
		<tag k="alt_name" v="Breimyr" />
		<tag k="name" v="Breidmyr" />
		<tag k="natural" v="wetland" />
		<tag k="ssr:stedsnr" v="485822" />
	</node>
	<node lat="58.21108055974825" lon="7.0755388960248045" id="-24938">
		<tag k="name" v="Dyblemyra" />
		<tag k="natural" v="wetland" />
		<tag k="ssr:stedsnr" v="506005" />
	</node>
	<node lat="58.21920555954579" lon="7.002686116300398" id="-24941">
		<tag k="name" v="Slåttene" />
		<tag k="natural" v="wetland" />
		<tag k="ssr:stedsnr" v="506064" />
	</node>
	<node lat="58.23296111559029" lon="7.198769446426932" id="-24959">
		<tag k="name" v="Skarmyr" />
		<tag k="place" v="locality" />
		<tag k="ssr:stedsnr" v="506312" />
	</node>
	<node lat="58.242022225108066" lon="7.125052774929571" id="-24964">
		<tag k="name" v="Dyblemyra" />
		<tag k="natural" v="wetland" />
		<tag k="ssr:stedsnr" v="506521" />
	</node>
	<node lat="58.2050611118018" lon="7.227827779661124" id="-24965">
		<tag k="name" v="Martineslåtta" />
		<tag k="natural" v="wetland" />
		<tag k="ssr:stedsnr" v="506612" />
	</node>
	<node lat="58.17345277791083" lon="6.896391660635576" id="-24969">
		<tag k="name" v="Silkemyr" />
		<tag k="natural" v="wetland" />
		<tag k="ssr:stedsnr" v="506673" />
	</node>
	<node lat="58.11964722020988" lon="7.122724996550923" id="-24972">
		<tag k="name" v="Langemyra" />
		<tag k="natural" v="wetland" />
		<tag k="ssr:stedsnr" v="506816" />
	</node>
	<node lat="58.259524997090615" lon="7.267477779533079" id="-24986">
		<tag k="name" v="Dauremyr" />
		<tag k="natural" v="wetland" />
		<tag k="ssr:stedsnr" v="507415" />
	</node>
	<node lat="58.35185278029841" lon="7.325061109434212" id="-24993">
		<tag k="loc_name" v="Storåkeren" />
		<tag k="name" v="Storågren" />
		<tag k="place" v="locality" />
		<tag k="ssr:stedsnr" v="522214" />
	</node>
	<node lat="58.25887221977497" lon="7.274797218592667" id="-24995">
		<tag k="name" v="Storemyr" />
		<tag k="natural" v="wetland" />
		<tag k="ssr:stedsnr" v="522262" />
	</node>
	<node lat="58.48443333140659" lon="7.498161108467595" id="-24997">
		<tag k="name" v="Kleivmyran" />
		<tag k="natural" v="wetland" />
		<tag k="ssr:stedsnr" v="522181" />
	</node>
	<node lat="58.477708332795046" lon="7.451088883468429" id="-24998">
		<tag k="name" v="Storamyr" />
		<tag k="natural" v="wetland" />
		<tag k="ssr:stedsnr" v="522183" />
	</node>
	<node lat="58.41646667044173" lon="7.484730555810358" id="-25004">
		<tag k="name" v="Viamyr" />
		<tag k="natural" v="wetland" />
		<tag k="ssr:stedsnr" v="522363" />
	</node>
	<node lat="58.25592778069005" lon="7.377194449204059" id="-25008">
		<tag k="name" v="Stokkedølen" />
		<tag k="natural" v="wetland" />
		<tag k="ssr:stedsnr" v="522748" />
	</node>
	<node lat="58.274324999596466" lon="7.313424996832974" id="-25012">
		<tag k="name" v="Jubemyr" />
		<tag k="natural" v="wetland" />
		<tag k="ssr:stedsnr" v="522804" />
	</node>
	<node lat="58.29639722319044" lon="7.317955555116692" id="-25016">
		<tag k="loc_name" v="Vonslandsmyrå" />
		<tag k="name" v="Vonslandsmyra" />
		<tag k="natural" v="wetland" />
		<tag k="ssr:stedsnr" v="522913" />
	</node>
	<node lat="58.3240249976954" lon="7.353847217537357" id="-25018">
		<tag k="name" v="Fjaddemyr" />
		<tag k="natural" v="wetland" />
		<tag k="ssr:stedsnr" v="522969" />
	</node>
	<node lat="58.21977777628266" lon="7.006858340011941" id="-25130">
		<tag k="name" v="Tremyra" />
		<tag k="natural" v="wetland" />
		<tag k="ssr:stedsnr" v="689062" />
	</node>
	<node lat="58.25061111250917" lon="7.120816661076847" id="-25158">
		<tag k="name" v="Finneskroken" />
		<tag k="natural" v="wetland" />
		<tag k="ssr:stedsnr" v="689371" />
	</node>
	<node lat="58.08242221866363" lon="7.07843611925256" id="-25179">
		<tag k="name" v="Poddekjerret" />
		<tag k="natural" v="wetland" />
		<tag k="ssr:stedsnr" v="689760" />
	</node>
	<node lat="58.12982500222493" lon="7.039747222259276" id="-25183">
		<tag k="name" v="Vollan" />
		<tag k="place" v="locality" />
		<tag k="ssr:stedsnr" v="689869" />
	</node>
	<node lat="58.20279166365063" lon="7.034044446816845" id="-25195">
		<tag k="name" v="Nesemyra" />
		<tag k="natural" v="wetland" />
		<tag k="ssr:stedsnr" v="567020" />
	</node>
	<node lat="58.20570278079436" lon="7.168749999608534" id="-25205">
		<tag k="name" v="Videmyra" />
		<tag k="natural" v="wetland" />
		<tag k="ssr:stedsnr" v="567228" />
	</node>
	<node lat="58.25609721978886" lon="7.252919452176521" id="-25208">
		<tag k="name" v="Stemmyr" />
		<tag k="natural" v="wetland" />
		<tag k="ssr:stedsnr" v="567415" />
	</node>
	<node lat="58.17062777902846" lon="7.101913893677395" id="-25210">
		<tag k="name" v="Storamyra" />
		<tag k="natural" v="wetland" />
		<tag k="ssr:stedsnr" v="567356" />
	</node>
	<node lat="58.24278610692797" lon="7.106461104971909" id="-25212">
		<tag k="name" v="Øvre Slåttemyr" />
		<tag k="natural" v="wetland" />
		<tag k="ssr:stedsnr" v="567507" />
	</node>
	<node lat="58.162724998789756" lon="7.214225003804697" id="-25213">
		<tag k="name" v="Vedalsmyra" />
		<tag k="natural" v="wetland" />
		<tag k="ssr:stedsnr" v="567515" />
	</node>
	<node lat="58.19898333555471" lon="7.199052778406915" id="-25215">
		<tag k="name" v="Dragehiet" />
		<tag k="natural" v="scree" />
		<tag k="ssr:stedsnr" v="567526" />
	</node>
	<node lat="58.20289722242453" lon="7.213902770837469" id="-25216">
		<tag k="name" v="Langsteinsmyra" />
		<tag k="natural" v="wetland" />
		<tag k="ssr:stedsnr" v="567530" />
	</node>
	<node lat="58.09565000015539" lon="7.134058327409231" id="-25232">
		<tag k="name" v="Leksbøskogane" />
		<tag k="place" v="locality" />
		<tag k="ssr:stedsnr" v="567875" />
	</node>
	<node lat="58.3120333312109" lon="7.211702781871403" id="-25236">
		<tag k="name" v="Stedjan" />
		<tag k="natural" v="wetland" />
		<tag k="ssr:stedsnr" v="568383" />
	</node>
	<node lat="58.304511109163364" lon="7.3513638839366156" id="-25246">
		<tag k="name" v="Langemyr" />
		<tag k="natural" v="wetland" />
		<tag k="ssr:stedsnr" v="582310" />
	</node>
	<node lat="58.3341916690748" lon="7.311863881616235" id="-25248">
		<tag k="name" v="Myre" />
		<tag k="natural" v="wetland" />
		<tag k="ssr:stedsnr" v="582316" />
	</node>
	<node lat="58.25360000327244" lon="7.361472224556933" id="-25253">
		<tag k="name" v="Fiden" />
		<tag k="place" v="locality" />
		<tag k="ssr:stedsnr" v="582293" />
	</node>
	<node lat="58.25095277886081" lon="7.334877772171933" id="-25257">
		<tag k="name" v="Bjorsteinen" />
		<tag k="natural" v="stone" />
		<tag k="ssr:stedsnr" v="582790" />
	</node>
	<node lat="58.314886115171134" lon="7.3507861149608" id="-25259">
		<tag k="name" v="Skrubbekjerran" />
		<tag k="natural" v="wetland" />
		<tag k="ssr:stedsnr" v="582910" />
	</node>
	<node lat="58.442166670409506" lon="7.332458324639803" id="-25268">
		<tag k="name" v="Homman" />
		<tag k="natural" v="wetland" />
		<tag k="ssr:stedsnr" v="583095" />
	</node>
	<node lat="58.392052779695106" lon="7.426549995530634" id="-25392">
		<tag k="name" v="Spydalsmyra" />
		<tag k="natural" v="wetland" />
		<tag k="ssr:stedsnr" v="704230" />
	</node>
	<node lat="58.19484444312496" lon="7.19150000698504" id="-25407">
		<tag k="name" v="Stormyr" />
		<tag k="natural" v="wetland" />
		<tag k="ssr:stedsnr" v="627265" />
	</node>
	<node lat="58.09452777608602" lon="7.08901944357553" id="-25426">
		<tag k="name" v="Gartmyra" />
		<tag k="natural" v="wetland" />
		<tag k="ssr:stedsnr" v="627863" />
	</node>
	<node lat="58.13992221994802" lon="7.198313896018763" id="-25437">
		<tag k="name" v="Storemyr" />
=======
	<node id="-574194" lat="58.140455555" lon="7.12646110991">
		<tag k="name" v="Kråkemyr" />
		<tag k="natural" v="wetland" />
		<tag k="ssr:stedsnr" v="324438" />
	</node>
	<node id="-574192" lat="58.269941666" lon="7.24290554742">
		<tag k="name" v="Nordjordet" />
		<tag k="natural" v="wetland" />
		<tag k="ssr:stedsnr" v="324431" />
	</node>
	<node id="-572655" lat="58.2188111121" lon="7.10512778204">
		<tag k="name" v="Valfarmyra" />
		<tag k="natural" v="wetland" />
		<tag k="ssr:stedsnr" v="21215" />
	</node>
	<node id="-573166" lat="58.0052916646" lon="6.99462500825">
		<tag k="name" v="Hovedura" />
		<tag k="natural" v="scree" />
		<tag k="ssr:stedsnr" v="264263" />
	</node>
	<node id="-574188" lat="58.1288555547" lon="7.21268610938">
		<tag k="name" v="Langemyr" />
		<tag k="natural" v="wetland" />
		<tag k="ssr:stedsnr" v="324423" />
	</node>
	<node id="-574399" lat="58.2595249971" lon="7.26747777953">
		<tag k="name" v="Dauremyr" />
		<tag k="natural" v="wetland" />
		<tag k="ssr:stedsnr" v="507415" />
	</node>
	<node id="-574698" lat="58.2192055595" lon="7.0026861163">
		<tag k="name" v="Slåttene" />
		<tag k="natural" v="wetland" />
		<tag k="ssr:stedsnr" v="506064" />
	</node>
	<node id="-572648" lat="58.198130554" lon="7.0389499987">
		<tag k="landuse" v="meadow" />
		<tag k="name" v="Øvre jordet" />
		<tag k="ssr:stedsnr" v="21027" />
	</node>
	<node id="-574695" lat="58.1960583372" lon="7.11783888444">
		<tag k="landuse" v="meadow" />
		<tag k="name" v="Gravlen" />
		<tag k="ssr:stedsnr" v="749097" />
	</node>
	<node id="-576230" lat="58.3638166664" lon="7.33110833954">
		<tag k="name" v="Nerslåta" />
		<tag k="natural" v="wetland" />
		<tag k="ssr:stedsnr" v="887973" />
	</node>
	<node id="-576465" lat="58.239514945" lon="7.01770260928">
		<tag k="name" v="Slåtten" />
		<tag k="place" v="locality" />
		<tag k="ssr:stedsnr" v="979512" />
	</node>
	<node id="-576228" lat="58.3640694429" lon="7.33438333149">
		<tag k="name" v="Rysesteinen" />
		<tag k="natural" v="stone" />
		<tag k="ssr:stedsnr" v="887970" />
	</node>
	<node id="-573154" lat="58.2397472258" lon="7.1988972273">
		<tag k="name" v="Godkjerran" />
		<tag k="natural" v="wetland" />
		<tag k="ssr:stedsnr" v="264207" />
	</node>
	<node id="-574689" lat="58.2629277784" lon="7.36682499431">
		<tag k="alt_name" v="Breimyr" />
		<tag k="name" v="Breidmyr" />
		<tag k="natural" v="wetland" />
		<tag k="ssr:stedsnr" v="485822" />
	</node>
	<node id="-576224" lat="58.3485055512" lon="7.32857778616">
		<tag k="loc_name" v="Stormyr" />
		<tag k="name" v="Storemyr" />
		<tag k="natural" v="wetland" />
		<tag k="ssr:stedsnr" v="887408" />
	</node>
	<node id="-573149" lat="58.221991669" lon="7.13880554969">
		<tag k="name" v="Blomrivollen" />
		<tag k="place" v="locality" />
		<tag k="ssr:stedsnr" v="264175" />
	</node>
	<node id="-576220" lat="58.2448166625" lon="7.35666944148">
		<tag k="name" v="Tandremyr" />
		<tag k="place" v="locality" />
		<tag k="ssr:stedsnr" v="886872" />
	</node>
	<node id="-572635" lat="58.280074999" lon="7.28340556032">
		<tag k="name" v="Lonemyr" />
		<tag k="natural" v="wetland" />
		<tag k="ssr:stedsnr" v="219945" />
	</node>
	<node id="-573145" lat="58.2628444454" lon="7.09326943602">
		<tag k="name" v="Austtjønnmyra" />
		<tag k="natural" v="wetland" />
		<tag k="ssr:stedsnr" v="264149" />
	</node>
	<node id="-572631" lat="58.3189805571" lon="7.33664166373">
		<tag k="name" v="Tåderen" />
		<tag k="natural" v="wetland" />
		<tag k="ssr:stedsnr" v="219895" />
	</node>
	<node id="-572630" lat="58.300033337" lon="7.30931944563">
		<tag k="name" v="Kalvåsmyra" />
		<tag k="natural" v="wetland" />
		<tag k="ssr:stedsnr" v="219894" />
	</node>
	<node id="-576213" lat="58.283938889" lon="7.38706666004">
		<tag k="name" v="Haretjønn" />
		<tag k="natural" v="wetland" />
		<tag k="ssr:stedsnr" v="886911" />
	</node>
	<node id="-575438" lat="58.480480554" lon="7.45709999714">
		<tag k="name" v="Småmyran" />
		<tag k="natural" v="wetland" />
		<tag k="ssr:stedsnr" v="886144" />
	</node>
	<node id="-572626" lat="58.244774997" lon="7.27978610971">
		<tag k="name" v="Patentsteinen" />
		<tag k="natural" v="stone" />
		<tag k="ssr:stedsnr" v="219854" />
	</node>
	<node id="-573754" lat="58.2213583364" lon="7.11528332973">
		<tag k="name" v="Sauesteinen" />
		<tag k="natural" v="stone" />
		<tag k="ssr:stedsnr" v="446229" />
	</node>
	<node id="-576207" lat="58.2954611151" lon="7.29663611043">
		<tag k="name" v="Kvernhusmyra" />
		<tag k="natural" v="wetland" />
		<tag k="ssr:stedsnr" v="886305" />
	</node>
	<node id="-573133" lat="58.2182222254" lon="7.06975556255">
		<tag k="name" v="Grasdalsmyra" />
		<tag k="natural" v="wetland" />
		<tag k="ssr:stedsnr" v="264078" />
	</node>
	<node id="-576204" lat="58.507666667" lon="7.50821110683">
		<tag k="name" v="Lomsemyr" />
		<tag k="natural" v="wetland" />
		<tag k="ssr:stedsnr" v="886174" />
	</node>
	<node id="-572619" lat="58.3795083324" lon="7.32944167045">
		<tag k="name" v="Stemmyr" />
		<tag k="natural" v="wetland" />
		<tag k="ssr:stedsnr" v="219336" />
	</node>
	<node id="-573642" lat="58.4247666647" lon="7.47643889515">
		<tag k="name" v="Pressmyr" />
		<tag k="natural" v="wetland" />
		<tag k="ssr:stedsnr" v="219071" />
	</node>
	<node id="-573639" lat="58.4166055518" lon="7.32822778136">
		<tag k="name" v="Gunnildsmyr" />
		<tag k="natural" v="wetland" />
		<tag k="ssr:stedsnr" v="219052" />
	</node>
	<node id="-576195" lat="58.1511666657" lon="7.15862221558">
		<tag k="name" v="Kalvehagen" />
		<tag k="place" v="locality" />
		<tag k="ssr:stedsnr" v="871953" />
	</node>
	<node id="-576379" lat="58.2980000012" lon="7.33456945153">
		<tag k="name" v="Krogan" />
		<tag k="natural" v="wetland" />
		<tag k="ssr:stedsnr" v="947912" />
	</node>
	<node id="-576188" lat="58.0741638856" lon="7.06450277862">
		<tag k="name" v="Rossemyra" />
		<tag k="natural" v="wetland" />
		<tag k="ssr:stedsnr" v="871773" />
	</node>
	<node id="-572602" lat="58.4336611117" lon="7.35994999627">
		<tag k="loc_name" v="Støæ" />
		<tag k="name" v="Støa" />
		<tag k="place" v="locality" />
		<tag k="ssr:stedsnr" v="219100" />
	</node>
	<node id="-573812" lat="58.0961499993" lon="7.0091805512">
		<tag k="name" v="Brørsteinen" />
		<tag k="natural" v="stone" />
		<tag k="ssr:stedsnr" v="446745" />
	</node>
	<node id="-574409" lat="58.3120333312" lon="7.21170278187">
		<tag k="name" v="Stedjan" />
		<tag k="natural" v="wetland" />
		<tag k="ssr:stedsnr" v="568383" />
	</node>
	<node id="-572596" lat="58.4289499983" lon="7.35247221718">
		<tag k="loc_name" v="Ringerikjæ" />
		<tag k="name" v="Ringerike" />
		<tag k="natural" v="wetland" />
		<tag k="ssr:stedsnr" v="219040" />
	</node>
	<node id="-574323" lat="58.2110805597" lon="7.07553889602">
		<tag k="name" v="Dyblemyra" />
		<tag k="natural" v="wetland" />
		<tag k="ssr:stedsnr" v="506005" />
	</node>
	<node id="-572591" lat="58.3657694438" lon="7.36009722974">
		<tag k="name" v="Maurbermyra" />
		<tag k="natural" v="wetland" />
		<tag k="ssr:stedsnr" v="219022" />
	</node>
	<node id="-573156" lat="58.2490055569" lon="7.21029722864">
		<tag k="name" v="Kalleskarmyr" />
		<tag k="natural" v="wetland" />
		<tag k="ssr:stedsnr" v="264215" />
	</node>
	<node id="-575004" lat="58.2960916706" lon="7.31165556224">
		<tag k="name" v="Kåvelandsmyra" />
		<tag k="natural" v="wetland" />
		<tag k="ssr:stedsnr" v="704907" />
	</node>
	<node id="-576166" lat="58.2588500043" lon="7.16890554805">
		<tag k="name" v="Jonsokkjerrmyra" />
		<tag k="natural" v="wetland" />
		<tag k="ssr:stedsnr" v="871554" />
	</node>
	<node id="-576164" lat="58.2509166649" lon="7.10705833673">
		<tag k="name" v="Hestadmyra" />
		<tag k="natural" v="wetland" />
		<tag k="ssr:stedsnr" v="871357" />
	</node>
	<node id="-575942" lat="58.237338885" lon="7.22438889401">
		<tag k="name" v="Stemvassmyra" />
		<tag k="natural" v="wetland" />
		<tag k="ssr:stedsnr" v="931646" />
	</node>
	<node id="-576160" lat="58.2173555584" lon="7.16120556186">
		<tag k="name" v="Storemyr" />
		<tag k="natural" v="wetland" />
		<tag k="ssr:stedsnr" v="871276" />
	</node>
	<node id="-576671" lat="58.3289777754" lon="7.38963333467">
		<tag k="name" v="Storemyr" />
		<tag k="natural" v="wetland" />
		<tag k="ssr:stedsnr" v="37981" />
	</node>
	<node id="-576156" lat="58.2224111148" lon="7.17599443587">
		<tag k="name" v="Moltemyra" />
		<tag k="natural" v="wetland" />
		<tag k="ssr:stedsnr" v="871268" />
	</node>
	<node id="-575831" lat="58.2433611094" lon="7.27528333785">
		<tag k="loc_name" v="Kirkesteinen" />
		<tag k="name" v="Kirkestein" />
		<tag k="natural" v="stone" />
		<tag k="ssr:stedsnr" v="765833" />
	</node>
	<node id="-576367" lat="58.2947277772" lon="7.26361111706">
		<tag k="name" v="Kromyr" />
		<tag k="natural" v="wetland" />
		<tag k="ssr:stedsnr" v="947312" />
	</node>
	<node id="-573892" lat="58.354091666" lon="7.32965833045">
		<tag k="loc_name" v="Halevollen" />
		<tag k="name" v="Halevodden" />
		<tag k="place" v="locality" />
		<tag k="ssr:stedsnr" v="461215" />
	</node>
	<node id="-576660" lat="58.4549222247" lon="7.36990000042">
		<tag k="name" v="Lundsmyr" />
		<tag k="natural" v="wetland" />
		<tag k="ssr:stedsnr" v="37175" />
	</node>
	<node id="-576146" lat="58.21031111" lon="7.15818888752">
		<tag k="name" v="Torvmyra" />
		<tag k="natural" v="wetland" />
		<tag k="ssr:stedsnr" v="871212" />
	</node>
	<node id="-576144" lat="58.2926055571" lon="7.22344166986">
		<tag k="name" v="Morgonbitmyra" />
		<tag k="natural" v="wetland" />
		<tag k="ssr:stedsnr" v="871321" />
	</node>
	<node id="-576654" lat="58.445000004" lon="7.48101944262">
		<tag k="name" v="Raskemyr" />
		<tag k="natural" v="wetland" />
		<tag k="ssr:stedsnr" v="37139" />
	</node>
	<node id="-573172" lat="58.0308305526" lon="6.99731389535">
		<tag k="name" v="Rossmyra" />
		<tag k="natural" v="wetland" />
		<tag k="ssr:stedsnr" v="264299" />
	</node>
	<node id="-576648" lat="58.3668055566" lon="7.33958055231">
		<tag k="name" v="Storemyr" />
		<tag k="natural" v="wetland" />
		<tag k="ssr:stedsnr" v="37028" />
	</node>
	<node id="-576647" lat="58.3665749983" lon="7.34218333759">
		<tag k="name" v="Stora Myre" />
		<tag k="natural" v="wetland" />
		<tag k="ssr:stedsnr" v="37026" />
	</node>
	<node id="-576645" lat="58.2731472243" lon="7.33822221851">
		<tag k="loc_name" v="Viblemokjerret" />
		<tag k="name" v="Viblemokjerr" />
		<tag k="natural" v="wetland" />
		<tag k="ssr:stedsnr" v="36841" />
	</node>
	<node id="-573939" lat="58.4263638866" lon="7.48406666466">
		<tag k="name" v="Stemmen" />
		<tag k="natural" v="wetland" />
		<tag k="ssr:stedsnr" v="462075" />
	</node>
	<node id="-576642" lat="58.2736277781" lon="7.42035000364">
		<tag k="name" v="Vollan" />
		<tag k="place" v="locality" />
		<tag k="ssr:stedsnr" v="36769" />
	</node>
	<node id="-576641" lat="58.2445916634" lon="7.40883332729">
		<tag k="name" v="Annaskjerr" />
		<tag k="natural" v="wetland" />
		<tag k="ssr:stedsnr" v="36756" />
	</node>
	<node id="-574592" lat="58.2906833338" lon="7.17489167461">
		<tag k="name" v="Moltemyr" />
		<tag k="natural" v="wetland" />
		<tag k="ssr:stedsnr" v="447225" />
	</node>
	<node id="-572608" lat="58.242208332" lon="7.40508333348">
		<tag k="name" v="Langemyr" />
		<tag k="natural" v="wetland" />
		<tag k="ssr:stedsnr" v="219256" />
	</node>
	<node id="-573546" lat="58.0850944418" lon="7.11742777885">
		<tag k="name" v="Vass-slåtta" />
		<tag k="natural" v="wetland" />
		<tag k="ssr:stedsnr" v="293881" />
	</node>
	<node id="-576634" lat="58.2990277739" lon="7.26685000856">
		<tag k="name" v="Krommyra" />
		<tag k="natural" v="wetland" />
		<tag k="ssr:stedsnr" v="36258" />
	</node>
	<node id="-576121" lat="58.258055552" lon="7.2809388945">
		<tag k="loc_name" v="Stegjemyr" />
		<tag k="name" v="Stegemyr" />
		<tag k="natural" v="wetland" />
		<tag k="ssr:stedsnr" v="947833" />
	</node>
	<node id="-573048" lat="58.4364166693" lon="7.46726944902">
		<tag k="name" v="Teremyr" />
		<tag k="natural" v="wetland" />
		<tag k="ssr:stedsnr" v="98120" />
	</node>
	<node id="-576119" lat="58.2536583312" lon="7.39349166549">
		<tag k="name" v="Temyr" />
		<tag k="natural" v="wetland" />
		<tag k="ssr:stedsnr" v="947749" />
	</node>
	<node id="-576148" lat="58.1990250043" lon="7.16421389671">
		<tag k="name" v="Hatlesteinmyra" />
		<tag k="natural" v="wetland" />
		<tag k="ssr:stedsnr" v="871228" />
	</node>
	<node id="-573781" lat="58.1720166628" lon="6.92674443675">
		<tag k="name" v="Homsmyra" />
		<tag k="natural" v="wetland" />
		<tag k="ssr:stedsnr" v="446470" />
	</node>
	<node id="-574577" lat="58.2241027746" lon="7.23080833456">
		<tag k="name" v="Åsemyra" />
		<tag k="natural" v="wetland" />
		<tag k="ssr:stedsnr" v="446647" />
	</node>
	<node id="-574576" lat="58.2415277772" lon="7.22031666114">
		<tag k="name" v="Torvemyra" />
		<tag k="natural" v="wetland" />
		<tag k="ssr:stedsnr" v="446640" />
	</node>
	<node id="-573039" lat="58.2638361072" lon="7.30469721858">
		<tag k="name" v="Spåmyr" />
		<tag k="natural" v="wetland" />
		<tag k="ssr:stedsnr" v="97264" />
	</node>
	<node id="-573036" lat="58.2499499993" lon="7.30757221944">
		<tag k="loc_name" v="Kusamyra" />
		<tag k="name" v="Kusamyr" />
		<tag k="natural" v="wetland" />
		<tag k="ssr:stedsnr" v="97253" />
	</node>
	<node id="-576619" lat="58.330441667" lon="7.29852778289">
		<tag k="name" v="Kleven" />
		<tag k="natural" v="wetland" />
		<tag k="ssr:stedsnr" v="37996" />
	</node>
	<node id="-576618" lat="58.3435194407" lon="7.39842777596">
		<tag k="name" v="Leinlandsmyran" />
		<tag k="natural" v="wetland" />
		<tag k="ssr:stedsnr" v="36975" />
	</node>
	<node id="-576105" lat="58.4971416667" lon="7.36710000027">
		<tag k="loc_name" v="Annerskjerran" />
		<tag k="name" v="Annerkjerran" />
		<tag k="natural" v="wetland" />
		<tag k="ssr:stedsnr" v="947189" />
	</node>
	<node id="-576104" lat="58.439613891" lon="7.43763333675">
		<tag k="name" v="Persmyr" />
		<tag k="natural" v="wetland" />
		<tag k="ssr:stedsnr" v="947350" />
	</node>
	<node id="-574566" lat="58.2320249977" lon="7.18500000564">
		<tag k="name" v="Jonsokmyra" />
		<tag k="natural" v="wetland" />
		<tag k="ssr:stedsnr" v="446333" />
	</node>
	<node id="-573201" lat="58.1128500041" lon="6.96892221537">
		<tag k="name" v="Spikkelandsmyra" />
		<tag k="natural" v="wetland" />
		<tag k="ssr:stedsnr" v="264482" />
	</node>
	<node id="-574822" lat="58.1505083319" lon="7.21761388931">
		<tag k="name" v="Store Surtemyra" />
		<tag k="natural" v="wetland" />
		<tag k="ssr:stedsnr" v="689495" />
	</node>
	<node id="-574562" lat="58.2210166622" lon="7.1942777775">
		<tag k="name" v="Kartan" />
		<tag k="natural" v="wetland" />
		<tag k="ssr:stedsnr" v="446311" />
	</node>
	<node id="-576608" lat="58.2813583317" lon="7.39021944345">
		<tag k="name" v="Langemyr" />
		<tag k="natural" v="wetland" />
		<tag k="ssr:stedsnr" v="23333" />
	</node>
	<node id="-576095" lat="58.4509777741" lon="7.36628054761">
		<tag k="loc_name" v="Bånnskoheislåttæ" />
		<tag k="name" v="Bånskoheislåtten" />
		<tag k="natural" v="wetland" />
		<tag k="ssr:stedsnr" v="947097" />
	</node>
	<node id="-573022" lat="58.2044666678" lon="6.96626665819">
		<tag k="name" v="Traudemyra" />
		<tag k="natural" v="wetland" />
		<tag k="ssr:stedsnr" v="82973" />
	</node>
	<node id="-574951" lat="58.4218527803" lon="7.48091388193">
		<tag k="name" v="Molteteien" />
		<tag k="natural" v="wetland" />
		<tag k="ssr:stedsnr" v="704067" />
	</node>
	<node id="-573020" lat="58.1436055581" lon="7.0567416673">
		<tag k="name" v="Grønndokkmoen" />
		<tag k="place" v="locality" />
		<tag k="ssr:stedsnr" v="82904" />
	</node>
	<node id="-576090" lat="58.455397224" lon="7.41617222024">
		<tag k="name" v="Ballingsmyr" />
		<tag k="natural" v="wetland" />
		<tag k="ssr:stedsnr" v="946129" />
	</node>
	<node id="-575026" lat="58.3148861152" lon="7.35078611496">
		<tag k="name" v="Skrubbekjerran" />
		<tag k="natural" v="wetland" />
		<tag k="ssr:stedsnr" v="582910" />
	</node>
	<node id="-573645" lat="58.3642861078" lon="7.40926110658">
		<tag k="name" v="Daleholtan" />
		<tag k="place" v="locality" />
		<tag k="ssr:stedsnr" v="219219" />
	</node>
	<node id="-573852" lat="58.1527083365" lon="7.18181945276">
		<tag k="name" v="Litletjønnmyra" />
		<tag k="natural" v="wetland" />
		<tag k="ssr:stedsnr" v="447899" />
	</node>
	<node id="-573005" lat="58.2012666634" lon="7.23795555007">
		<tag k="name" v="Trættemyr" />
		<tag k="natural" v="wetland" />
		<tag k="ssr:stedsnr" v="82607" />
	</node>
	<node id="-574602" lat="58.3460111069" lon="7.33742778555">
		<tag k="name" v="Lunddalsmyrå" />
		<tag k="natural" v="wetland" />
		<tag k="ssr:stedsnr" v="462948" />
	</node>
	<node id="-574391" lat="58.2806805515" lon="7.18171110597">
		<tag k="name" v="Ørnesteinen" />
		<tag k="natural" v="stone" />
		<tag k="ssr:stedsnr" v="507242" />
	</node>
	<node id="-574994" lat="58.2790611102" lon="7.41246389738">
		<tag k="loc_name" v="Torvmyrå" />
		<tag k="name" v="Torvmyr" />
		<tag k="natural" v="wetland" />
		<tag k="ssr:stedsnr" v="704835" />
	</node>
	<node id="-574817" lat="58.1577416682" lon="7.12737778276">
		<tag k="name" v="Langemyra" />
		<tag k="natural" v="wetland" />
		<tag k="ssr:stedsnr" v="689434" />
	</node>
	<node id="-573878" lat="58.4565333324" lon="7.40171665962">
		<tag k="name" v="Dyblemyr" />
		<tag k="natural" v="wetland" />
		<tag k="ssr:stedsnr" v="279118" />
	</node>
	<node id="-573887" lat="58.4951250032" lon="7.49394722502">
		<tag k="name" v="Torvemyr" />
		<tag k="natural" v="wetland" />
		<tag k="ssr:stedsnr" v="461171" />
	</node>
	<node id="-575755" lat="58.1170361154" lon="7.09229999896">
		<tag k="name" v="Myra" />
		<tag k="place" v="locality" />
		<tag k="ssr:stedsnr" v="749844" />
	</node>
	<node id="-573175" lat="58.2836388847" lon="7.24682777034">
		<tag k="name" v="Slåttemyra" />
		<tag k="natural" v="wetland" />
		<tag k="ssr:stedsnr" v="264326" />
	</node>
	<node id="-576575" lat="58.2488749964" lon="7.2336583329">
		<tag k="name" v="Langemyran" />
		<tag k="natural" v="wetland" />
		<tag k="ssr:stedsnr" v="21646" />
	</node>
	<node id="-575038" lat="58.4421666704" lon="7.33245832464">
		<tag k="name" v="Homman" />
		<tag k="natural" v="wetland" />
		<tag k="ssr:stedsnr" v="583095" />
	</node>
	<node id="-575037" lat="58.4427999982" lon="7.38689444873">
		<tag k="name" v="Gunvorsmyr" />
		<tag k="natural" v="wetland" />
		<tag k="ssr:stedsnr" v="583087" />
	</node>
	<node id="-575035" lat="58.4137083344" lon="7.36742778251">
		<tag k="name" v="Sletegra" />
		<tag k="place" v="locality" />
		<tag k="ssr:stedsnr" v="583070" />
	</node>
	<node id="-576180" lat="58.1508055599" lon="7.18314722885">
		<tag k="name" v="Svinsoksbølet" />
		<tag k="natural" v="scree" />
		<tag k="ssr:stedsnr" v="871905" />
	</node>
	<node id="-576566" lat="58.0532250003" lon="7.02060555494">
		<tag k="name" v="Jordeskogane" />
		<tag k="place" v="locality" />
		<tag k="ssr:stedsnr" v="21725" />
	</node>
	<node id="-576562" lat="58.2258861103" lon="6.92867222801">
		<tag k="name" v="Indrejordet" />
		<tag k="place" v="locality" />
		<tag k="ssr:stedsnr" v="21494" />
	</node>
	<node id="-572977" lat="58.2725361145" lon="7.24476945192">
		<tag k="name" v="Sothammerkarten" />
>>>>>>> e1d4bc35ff8a6074a6f2e91616a996b547c36f15
		<tag k="natural" v="wetland" />
		<tag k="ssr:stedsnr" v="82318" />
	</node>
<<<<<<< HEAD
	<node lat="58.296472224154115" lon="7.204824995748688" id="-25443">
		<tag k="name" v="Gysura" />
		<tag k="natural" v="scree" />
		<tag k="ssr:stedsnr" v="628352" />
	</node>
	<node lat="58.506652776546034" lon="7.513519436559529" id="-25467">
		<tag k="name" v="Langfjellslåtten" />
		<tag k="natural" v="wetland" />
		<tag k="ssr:stedsnr" v="704179" />
	</node>
	<node lat="58.27906111024345" lon="7.412463897381263" id="-25486">
		<tag k="loc_name" v="Torvmyrå" />
		<tag k="name" v="Torvmyr" />
		<tag k="natural" v="wetland" />
		<tag k="ssr:stedsnr" v="704835" />
	</node>
	<node lat="58.24966111152981" lon="7.383163891679035" id="-25488">
		<tag k="name" v="Lågmyr" />
		<tag k="place" v="locality" />
		<tag k="ssr:stedsnr" v="704853" />
	</node>
	<node lat="58.417297225799274" lon="7.321805548410818" id="-25500">
		<tag k="name" v="Stongsmyr" />
		<tag k="natural" v="wetland" />
		<tag k="ssr:stedsnr" v="643028" />
	</node>
	<node lat="58.42061944662375" lon="7.425991667023977" id="-25502">
		<tag k="name" v="Surtemyr" />
		<tag k="natural" v="wetland" />
		<tag k="ssr:stedsnr" v="643083" />
	</node>
	<node lat="58.43091110932126" lon="7.447213882777864" id="-25504">
		<tag k="name" v="Kjørkjekjerran" />
		<tag k="natural" v="wetland" />
		<tag k="ssr:stedsnr" v="643087" />
	</node>
	<node lat="58.39511110749052" lon="7.4260750036496095" id="-25517">
		<tag k="name" v="Eivindsmyr" />
		<tag k="natural" v="wetland" />
		<tag k="ssr:stedsnr" v="643374" />
	</node>
	<node lat="58.3106111070064" lon="7.369455559575738" id="-25518">
		<tag k="name" v="Breilimoen" />
		<tag k="place" v="locality" />
		<tag k="ssr:stedsnr" v="643907" />
	</node>
	<node lat="58.35894166370806" lon="7.344119451171732" id="-25520">
		<tag k="name" v="Flone" />
		<tag k="place" v="locality" />
		<tag k="ssr:stedsnr" v="643974" />
	</node>
	<node lat="58.27306944703786" lon="7.3167694410163" id="-25523">
		<tag k="landuse" v="meadow" />
		<tag k="loc_name" v="Løslåta" />
		<tag k="name" v="Løslåtta" />
		<tag k="ssr:stedsnr" v="643818" />
	</node>
	<node lat="58.31930833708855" lon="7.3220250024347555" id="-25524">
		<tag k="name" v="Gåssteinen" />
		<tag k="natural" v="stone" />
		<tag k="ssr:stedsnr" v="643890" />
	</node>
	<node lat="58.215277781435866" lon="6.993333329856043" id="-25649">
		<tag k="name" v="Langemyra" />
		<tag k="place" v="locality" />
		<tag k="ssr:stedsnr" v="689005" />
	</node>
	<node lat="58.223038892385446" lon="7.107824993618763" id="-25659">
		<tag k="name" v="Veigjemyra" />
		<tag k="natural" v="wetland" />
		<tag k="ssr:stedsnr" v="689210" />
	</node>
	<node lat="58.25188332902797" lon="7.210374997521372" id="-25661">
		<tag k="name" v="Stokkemyr" />
		<tag k="natural" v="wetland" />
		<tag k="ssr:stedsnr" v="689232" />
	</node>
	<node lat="58.21507222642964" lon="7.10446944153053" id="-25665">
		<tag k="name" v="Torvmyra" />
		<tag k="natural" v="wetland" />
		<tag k="ssr:stedsnr" v="689189" />
	</node>
	<node lat="58.21932777798169" lon="7.1104944433104285" id="-25666">
		<tag k="name" v="Kinnemyrdega" />
		<tag k="natural" v="wetland" />
		<tag k="ssr:stedsnr" v="689196" />
	</node>
	<node lat="58.23603888456961" lon="7.202311111529513" id="-25668">
		<tag k="name" v="Steggjan" />
		<tag k="natural" v="wetland" />
		<tag k="ssr:stedsnr" v="689305" />
	</node>
	<node lat="58.237777776802155" lon="7.204750003961797" id="-25669">
		<tag k="name" v="Stedjan" />
		<tag k="natural" v="wetland" />
		<tag k="ssr:stedsnr" v="689307" />
	</node>
	<node lat="58.22991111362348" lon="7.1837972171026765" id="-25671">
		<tag k="name" v="Kjebemyra" />
		<tag k="natural" v="wetland" />
		<tag k="ssr:stedsnr" v="689314" />
	</node>
	<node lat="58.15774166822167" lon="7.12737778276111" id="-25682">
		<tag k="name" v="Langemyra" />
		<tag k="natural" v="wetland" />
		<tag k="ssr:stedsnr" v="689434" />
	</node>
	<node lat="58.15050833190243" lon="7.217613889314107" id="-25686">
		<tag k="name" v="Store Surtemyra" />
		<tag k="natural" v="wetland" />
		<tag k="ssr:stedsnr" v="689495" />
	</node>
	<node lat="58.26243888642991" lon="7.175036104784558" id="-25696">
		<tag k="name" v="Dyblemyra" />
		<tag k="natural" v="wetland" />
		<tag k="ssr:stedsnr" v="689539" />
	</node>
	<node lat="58.15928055944085" lon="7.168622223335839" id="-25709">
		<tag k="name" v="Storehagen" />
		<tag k="natural" v="wetland" />
		<tag k="ssr:stedsnr" v="689898" />
	</node>
	<node lat="58.421852780309294" lon="7.4809138819313" id="-25725">
		<tag k="name" v="Molteteien" />
		<tag k="natural" v="wetland" />
		<tag k="ssr:stedsnr" v="704067" />
	</node>
	<node lat="58.417652777129476" lon="7.484700005011179" id="-25726">
		<tag k="name" v="Skogedalsmyr" />
		<tag k="natural" v="wetland" />
		<tag k="ssr:stedsnr" v="704071" />
	</node>
	<node lat="58.318086111497195" lon="7.412805553318098" id="-25732">
		<tag k="name" v="Skogeholtmyra" />
		<tag k="natural" v="wetland" />
		<tag k="ssr:stedsnr" v="704272" />
	</node>
	<node lat="58.37599166725082" lon="7.326777775297645" id="-25736">
		<tag k="name" v="Tuvlan" />
		<tag k="natural" v="wetland" />
		<tag k="ssr:stedsnr" v="704310" />
	</node>
	<node lat="58.26668611137761" lon="7.4133499963646985" id="-25739">
		<tag k="name" v="Åsemyr" />
		<tag k="natural" v="wetland" />
		<tag k="ssr:stedsnr" v="704743" />
	</node>
	<node lat="58.2334305554278" lon="7.358838891737906" id="-25742">
		<tag k="name" v="Gruemyra" />
		<tag k="natural" v="wetland" />
		<tag k="ssr:stedsnr" v="704761" />
	</node>
	<node lat="58.2960916705678" lon="7.311655562237645" id="-25748">
		<tag k="name" v="Kåvelandsmyra" />
		<tag k="natural" v="wetland" />
		<tag k="ssr:stedsnr" v="704907" />
	</node>
	<node lat="58.43902499673973" lon="7.485538891322519" id="-25750">
		<tag k="name" v="Hæmyr" />
		<tag k="natural" v="wetland" />
		<tag k="ssr:stedsnr" v="705379" />
=======
	<node id="-575024" lat="58.3045111092" lon="7.35136388394">
		<tag k="name" v="Langemyr" />
		<tag k="natural" v="wetland" />
		<tag k="ssr:stedsnr" v="582310" />
	</node>
	<node id="-572975" lat="58.2546166677" lon="7.23709166889">
		<tag k="name" v="Lonåkeren" />
		<tag k="natural" v="wetland" />
		<tag k="ssr:stedsnr" v="82304" />
	</node>
	<node id="-575022" lat="58.4617999999" lon="7.41753611611">
		<tag k="name" v="Vestmyra" />
		<tag k="place" v="locality" />
		<tag k="ssr:stedsnr" v="582124" />
	</node>
	<node id="-572973" lat="58.2130499956" lon="7.13580554766">
		<tag k="name" v="Dugevollen" />
		<tag k="place" v="locality" />
		<tag k="ssr:stedsnr" v="82167" />
	</node>
	<node id="-572971" lat="58.2201888886" lon="7.01585833424">
		<tag k="name" v="Moltemyra" />
		<tag k="natural" v="wetland" />
		<tag k="ssr:stedsnr" v="82056" />
	</node>
	<node id="-573994" lat="58.3526361149" lon="7.34944444826">
		<tag k="alt_name" v="Stedjan" />
		<tag k="name" v="Stean" />
		<tag k="natural" v="wetland" />
		<tag k="ssr:stedsnr" v="303974" />
	</node>
	<node id="-575014" lat="58.4390249967" lon="7.48553889132">
		<tag k="name" v="Hæmyr" />
		<tag k="natural" v="wetland" />
		<tag k="ssr:stedsnr" v="705379" />
	</node>
	<node id="-572593" lat="58.3972888877" lon="7.36523334117">
		<tag k="name" v="Fålkålsmyra" />
		<tag k="natural" v="wetland" />
		<tag k="ssr:stedsnr" v="219033" />
	</node>
	<node id="-576548" lat="58.2057833311" lon="7.16473055891">
		<tag k="name" v="Langemyr" />
		<tag k="natural" v="wetland" />
		<tag k="ssr:stedsnr" v="21256" />
	</node>
	<node id="-575010" lat="58.2560972198" lon="7.25291945218">
		<tag k="name" v="Stemmyr" />
		<tag k="natural" v="wetland" />
		<tag k="ssr:stedsnr" v="567415" />
	</node>
	<node id="-572956" lat="58.4838333316" lon="7.35908611179">
		<tag k="alt_name" v="Gråstad" />
		<tag k="name" v="Gråstadmyri" />
		<tag k="natural" v="wetland" />
		<tag k="ssr:stedsnr" v="243592" />
	</node>
	<node id="-575002" lat="58.1784972262" lon="7.22820555593">
		<tag k="name" v="Storemyr" />
		<tag k="natural" v="wetland" />
		<tag k="ssr:stedsnr" v="567338" />
	</node>
	<node id="-576175" lat="58.2450055536" lon="7.23448333836">
		<tag k="name" v="Esperåsmyra" />
		<tag k="natural" v="wetland" />
		<tag k="ssr:stedsnr" v="871606" />
	</node>
	<node id="-576535" lat="58.2561861135" lon="7.22088056156">
		<tag k="name" v="Kyrkjemyra" />
		<tag k="natural" v="wetland" />
		<tag k="ssr:stedsnr" v="21337" />
	</node>
	<node id="-574996" lat="58.2496611115" lon="7.38316389168">
		<tag k="name" v="Lågmyr" />
		<tag k="place" v="locality" />
		<tag k="ssr:stedsnr" v="704853" />
	</node>
	<node id="-576531" lat="58.2294888877" lon="7.16446388086">
		<tag k="name" v="Revsteinen" />
		<tag k="natural" v="stone" />
		<tag k="ssr:stedsnr" v="21325" />
	</node>
	<node id="-576530" lat="58.0339611081" lon="6.98481111198">
		<tag k="name" v="Vestmyra" />
		<tag k="natural" v="wetland" />
		<tag k="ssr:stedsnr" v="21323" />
	</node>
	<node id="-576529" lat="58.2348444412" lon="7.21697499175">
		<tag k="name" v="Ulsmyra" />
		<tag k="natural" v="wetland" />
		<tag k="ssr:stedsnr" v="21321" />
	</node>
	<node id="-574987" lat="58.2334305554" lon="7.35883889174">
		<tag k="name" v="Gruemyra" />
		<tag k="natural" v="wetland" />
		<tag k="ssr:stedsnr" v="704761" />
	</node>
	<node id="-574310" lat="58.1950499996" lon="7.21410278126">
		<tag k="historic" v="shieling" />
		<tag k="name" v="Heistøl" />
		<tag k="place" v="locality" />
		<tag k="ssr:stedsnr" v="386528" />
	</node>
	<node id="-576343" lat="58.2003833298" lon="7.11282221438">
		<tag k="name" v="Stormyra" />
		<tag k="natural" v="wetland" />
		<tag k="ssr:stedsnr" v="932110" />
	</node>
	<node id="-576120" lat="58.2526916642" lon="7.28469999316">
		<tag k="name" v="Hamransmyra" />
		<tag k="natural" v="wetland" />
		<tag k="ssr:stedsnr" v="947832" />
	</node>
	<node id="-574380" lat="58.1196472202" lon="7.12272499655">
		<tag k="name" v="Langemyra" />
		<tag k="natural" v="wetland" />
		<tag k="ssr:stedsnr" v="506816" />
	</node>
	<node id="-574980" lat="58.3759916673" lon="7.3267777753">
		<tag k="name" v="Tuvlan" />
		<tag k="natural" v="wetland" />
		<tag k="ssr:stedsnr" v="704310" />
>>>>>>> e1d4bc35ff8a6074a6f2e91616a996b547c36f15
	</node>
</osm>
