<?xml version="1.0" encoding="UTF-8"?>
<osm version="0.6" generator="osmapis">
	<node lat="58.03380000406884" lon="6.964077781078961" id="-22853">
		<tag k="name" v="Herreholmen" />
		<tag k="place" v="islet" />
		<tag k="ssr:stedsnr" v="400" />
	</node>
	<node lat="58.026205552998206" lon="6.986166668032998" id="-22861">
		<tag k="name" v="Håøy" />
		<tag k="place" v="islet" />
		<tag k="ssr:stedsnr" v="652" />
	</node>
	<node lat="58.00817500189987" lon="7.02442500156677" id="-23014">
		<tag k="fixme" v="consider seamark:type=rock or natural=shoal" />
		<tag k="name" v="Stusvikskjærene" />
		<tag k="place" v="islet" />
		<tag k="ssr:stedsnr" v="21302" />
	</node>
	<node lat="58.00203333625451" lon="6.98226665853261" id="-23019">
		<tag k="name" v="Hattevika" />
		<tag k="natural" v="bay" />
		<tag k="ssr:stedsnr" v="21288" />
	</node>
	<node lat="58.04101666428254" lon="6.9791944413778095" id="-23027">
		<tag k="name" v="Sjonevika" />
		<tag k="natural" v="bay" />
		<tag k="ssr:stedsnr" v="21716" />
	</node>
	<node lat="58.04979444370977" lon="6.988677781543018" id="-23028">
		<tag k="name" v="Vellvika" />
		<tag k="natural" v="bay" />
		<tag k="ssr:stedsnr" v="21717" />
	</node>
	<node lat="58.06813055818069" lon="7.011455559437768" id="-23035">
		<tag k="fixme" v="consider seamark:type=rock or natural=shoal" />
		<tag k="name" v="Selskjæret" />
		<tag k="place" v="islet" />
		<tag k="ssr:stedsnr" v="21700" />
	</node>
	<node lat="58.05544999994167" lon="7.048583339843942" id="-23039">
		<tag k="name" v="Perstø" />
		<tag k="natural" v="bay" />
		<tag k="ssr:stedsnr" v="21823" />
	</node>
	<node lat="58.12993055151431" lon="7.0316527864686265" id="-23045">
		<tag k="name" v="Stranda" />
		<tag k="natural" v="bay" />
		<tag k="ssr:stedsnr" v="21884" />
	</node>
	<node lat="58.10868332978146" lon="7.049274999647338" id="-23056">
		<tag k="name" v="Skårstranda" />
		<tag k="natural" v="beach" />
		<tag k="ssr:stedsnr" v="24104" />
	</node>
	<node lat="58.11267222538649" lon="7.027130553310524" id="-23058">
		<tag k="name" v="Ydre Svenevigbukta" />
		<tag k="natural" v="bay" />
		<tag k="ssr:stedsnr" v="24491" />
	</node>
	<node lat="57.99083333217908" lon="6.998055557678251" id="-23059">
		<tag k="name" v="Tareflua" />
		<tag k="natural" v="shoal" />
		<tag k="place" v="locality" />
		<tag k="ssr:stedsnr" v="24992" />
	</node>
	<node lat="58.03236944789712" lon="7.0048694396684" id="-23060">
		<tag k="name" v="Hunsdalshavn" />
		<tag k="natural" v="bay" />
		<tag k="ssr:stedsnr" v="24997" />
	</node>
	<node lat="58.06930277622161" lon="7.1056694409357535" id="-23062">
		<tag k="name" v="Hovdepynten" />
		<tag k="natural" v="cape" />
		<tag k="ssr:stedsnr" v="26476" />
	</node>
	<node lat="58.00536944869842" lon="7.01027777767366" id="-23222">
		<tag k="fixme" v="multiple name tags, choose one and add the other to alt_name; consider seamark:type=rock or natural=shoal" />
		<tag k="name" v="Østre Selør;Lypskjer" />
		<tag k="place" v="islet" />
		<tag k="ssr:stedsnr" v="52922" />
	</node>
	<node lat="58.367500003583466" lon="7.371591667602422" id="-23261">
		<tag k="name" v="Storøyna" />
		<tag k="place" v="islet" />
		<tag k="ssr:stedsnr" v="242946" />
	</node>
	<node lat="57.98711388540602" lon="6.99438611733573" id="-23262">
		<tag k="name" v="Tverrflua" />
		<tag k="natural" v="shoal" />
		<tag k="place" v="locality" />
		<tag k="ssr:stedsnr" v="243013" />
	</node>
	<node lat="58.060851713645995" lon="6.997188580812039" id="-23289">
		<tag k="name" v="Bærøy" />
		<tag k="place" v="island" />
		<tag k="ssr:stedsnr" v="243623" />
	</node>
	<node lat="58.09888333222701" lon="7.020033326668182" id="-23315">
		<tag k="name" v="Seivika" />
		<tag k="natural" v="bay" />
		<tag k="ssr:stedsnr" v="82722" />
	</node>
	<node lat="58.130877777262405" lon="6.989086108947973" id="-23318">
		<tag k="name" v="Museholmen" />
		<tag k="place" v="islet" />
		<tag k="ssr:stedsnr" v="82746" />
	</node>
	<node lat="58.05437499965814" lon="7.048024999694796" id="-23328">
		<tag k="name" v="Brattestø" />
		<tag k="natural" v="bay" />
		<tag k="ssr:stedsnr" v="82835" />
	</node>
	<node lat="58.034838886520305" lon="7.0238611060484155" id="-23336">
		<tag k="name" v="Aspenskjerbåen" />
		<tag k="place" v="locality" />
		<tag k="seamark:type" v="rock" />
		<tag k="ssr:stedsnr" v="85133" />
	</node>
	<node lat="57.9931166667936" lon="7.001866671413089" id="-23448">
		<tag k="name" v="Vaholmen" />
		<tag k="place" v="islet" />
		<tag k="ssr:stedsnr" v="121016" />
	</node>
	<node lat="58.132211113133145" lon="6.910080561303043" id="-23451">
		<tag k="name" v="Asperøya" />
		<tag k="natural" v="cape" />
		<tag k="ssr:stedsnr" v="121281" />
	</node>
	<node lat="58.037891664502105" lon="6.9831777841905875" id="-23478">
		<tag k="name" v="Bådnes" />
		<tag k="natural" v="cape" />
		<tag k="ssr:stedsnr" v="142304" />
	</node>
	<node lat="58.031475003499914" lon="7.005469442211773" id="-23479">
		<tag k="name" v="Hunsdalsholmen" />
		<tag k="place" v="islet" />
		<tag k="ssr:stedsnr" v="142308" />
	</node>
	<node lat="58.01511944473947" lon="6.977322219080882" id="-23487">
		<tag k="fixme" v="consider seamark:type=rock or natural=shoal" />
		<tag k="name" v="Låveskjeran" />
		<tag k="place" v="islet" />
		<tag k="ssr:stedsnr" v="142287" />
	</node>
	<node lat="58.126683331484415" lon="7.182213887858638" id="-23510">
		<tag k="name" v="Svinnes" />
		<tag k="natural" v="cape" />
		<tag k="ssr:stedsnr" v="142946" />
	</node>
	<node lat="58.00659721976913" lon="6.999183325083236" id="-23669">
		<tag k="name" v="Våge" />
		<tag k="natural" v="bay" />
		<tag k="ssr:stedsnr" v="264269" />
	</node>
	<node lat="58.033216667286325" lon="6.97339445059941" id="-23670">
		<tag k="name" v="Lille Grotholm" />
		<tag k="place" v="islet" />
		<tag k="ssr:stedsnr" v="264282" />
	</node>
	<node lat="58.02033888960823" lon="6.9984805558407785" id="-23672">
		<tag k="name" v="Fisersundet" />
		<tag k="natural" v="strait" />
		<tag k="ssr:stedsnr" v="264290" />
	</node>
	<node lat="58.0738416649102" lon="7.096441664626929" id="-23712">
		<tag k="fixme" v="consider seamark:type=rock or natural=shoal" />
		<tag k="name" v="Fiskeskjær" />
		<tag k="place" v="islet" />
		<tag k="ssr:stedsnr" v="264793" />
	</node>
	<node lat="58.074838889258444" lon="7.107763896945721" id="-23713">
		<tag k="name" v="Naudøyna" />
		<tag k="place" v="island" />
		<tag k="ssr:stedsnr" v="264801" />
	</node>
	<node lat="58.06077777992728" lon="7.066902769428312" id="-23715">
		<tag k="name" v="Epledalsbukta" />
		<tag k="natural" v="bay" />
		<tag k="ssr:stedsnr" v="264827" />
	</node>
	<node lat="58.06931944442776" lon="7.011797216563077" id="-23727">
		<tag k="name" v="Jubavika" />
		<tag k="natural" v="bay" />
		<tag k="ssr:stedsnr" v="264669" />
	</node>
	<node lat="58.064797218520546" lon="7.011561115344051" id="-23728">
		<tag k="name" v="Nordstø" />
		<tag k="natural" v="bay" />
		<tag k="ssr:stedsnr" v="264674" />
	</node>
	<node lat="58.07589444583538" lon="6.989936108322144" id="-23729">
		<tag k="name" v="Nesset" />
		<tag k="natural" v="cape" />
		<tag k="ssr:stedsnr" v="264679" />
	</node>
	<node lat="58.09028333055395" lon="7.011116666335747" id="-23733">
		<tag k="name" v="Visdalsodden" />
		<tag k="natural" v="cape" />
		<tag k="ssr:stedsnr" v="264768" />
	</node>
	<node lat="58.02955277792657" lon="7.017827782702459" id="-23762">
		<tag k="name" v="Varmekrona" />
		<tag k="natural" v="bay" />
		<tag k="ssr:stedsnr" v="267047" />
	</node>
	<node lat="58.00823888967686" lon="6.989422216845782" id="-23776">
		<tag k="name" v="Kingholmen" />
		<tag k="place" v="islet" />
		<tag k="ssr:stedsnr" v="203296" />
	</node>
	<node lat="58.03022221961841" lon="6.97611110772246" id="-23785">
		<tag k="name" v="Jaktholmodden" />
		<tag k="natural" v="cape" />
		<tag k="ssr:stedsnr" v="203309" />
	</node>
	<node lat="58.02861944687819" lon="6.998666673458053" id="-23786">
		<tag k="name" v="Kjovenesodden" />
		<tag k="natural" v="cape" />
		<tag k="ssr:stedsnr" v="203323" />
	</node>
	<node lat="58.03721666241765" lon="6.976086117890553" id="-23789">
		<tag k="name" v="Ytre Hovden" />
		<tag k="natural" v="cape" />
		<tag k="ssr:stedsnr" v="203328" />
	</node>
	<node lat="58.074733334998015" lon="6.987249991680242" id="-23804">
		<tag k="name" v="Stuelandsbukta" />
		<tag k="natural" v="bay" />
		<tag k="ssr:stedsnr" v="203711" />
	</node>
	<node lat="58.10645832943043" lon="7.0272888863409" id="-23820">
		<tag k="name" v="Skododden" />
		<tag k="natural" v="cape" />
		<tag k="ssr:stedsnr" v="206213" />
	</node>
	<node lat="58.006933330382566" lon="7.012408340395435" id="-23821">
		<tag k="name" v="Juden" />
		<tag k="natural" v="shoal" />
		<tag k="place" v="locality" />
		<tag k="ssr:stedsnr" v="268566" />
	</node>
	<node lat="58.07874999631653" lon="7.1168194411922645" id="-23826">
		<tag k="name" v="Fladstadbukta" />
		<tag k="natural" v="bay" />
		<tag k="ssr:stedsnr" v="269457" />
	</node>
	<node lat="57.999205558100215" lon="7.012480563610665" id="-23938">
		<tag k="name" v="Ydre Seliflua" />
		<tag k="natural" v="shoal" />
		<tag k="place" v="locality" />
		<tag k="ssr:stedsnr" v="450553" />
	</node>
	<node lat="57.989224999451224" lon="7.0125583393460085" id="-23939">
		<tag k="name" v="Indre Villaflua" />
		<tag k="natural" v="shoal" />
		<tag k="place" v="locality" />
		<tag k="ssr:stedsnr" v="450554" />
	</node>
	<node lat="58.11417777777821" lon="6.950533326413252" id="-23958">
		<tag k="name" v="Kåleviga" />
		<tag k="natural" v="bay" />
		<tag k="ssr:stedsnr" v="264245" />
	</node>
	<node lat="58.002952778388774" lon="6.989247230153869" id="-23961">
		<tag k="name" v="Markøysund" />
		<tag k="natural" v="strait" />
		<tag k="ssr:stedsnr" v="264254" />
	</node>
	<node lat="58.10226666501411" lon="7.024655556931936" id="-24010">
		<tag k="fixme" v="consider seamark:type=rock or natural=shoal" />
		<tag k="name" v="Selskjeran" />
		<tag k="place" v="islet" />
		<tag k="ssr:stedsnr" v="267083" />
	</node>
	<node lat="58.08213888818749" lon="7.008802783153479" id="-24011">
		<tag k="name" v="Håbergflua" />
		<tag k="natural" v="shoal" />
		<tag k="place" v="locality" />
		<tag k="ssr:stedsnr" v="267106" />
	</node>
	<node lat="58.02379167002349" lon="6.976841661402702" id="-24191">
		<tag k="name" v="Myrvigflu" />
		<tag k="place" v="locality" />
		<tag k="seamark:type" v="rock" />
		<tag k="ssr:stedsnr" v="464034" />
	</node>
	<node lat="58.064951207976634" lon="7.006933968890838" id="-24197">
		<tag k="name" v="Bærøybukta" />
		<tag k="natural" v="bay" />
		<tag k="ssr:stedsnr" v="303612" />
	</node>
	<node lat="58.06522777699314" lon="6.980777774198687" id="-24198">
		<tag k="bay" v="fjord" />
		<tag k="name" v="Rosfjorden" />
		<tag k="natural" v="bay" />
		<tag k="ssr:stedsnr" v="303613" />
	</node>
	<node lat="58.122108329965386" lon="6.9483305640625055" id="-24233">
		<tag k="fixme" v="consider seamark:type=rock or natural=shoal" />
		<tag k="name" v="Djupvigskjeran" />
		<tag k="place" v="islet" />
		<tag k="ssr:stedsnr" v="324279" />
	</node>
	<node lat="58.01335277406694" lon="7.022761102969959" id="-24236">
		<tag k="name" v="Straumsnesodden" />
		<tag k="natural" v="cape" />
		<tag k="ssr:stedsnr" v="324305" />
	</node>
	<node lat="58.01761666896583" lon="7.00059722366266" id="-24238">
		<tag k="name" v="Flåna" />
		<tag k="natural" v="strait" />
		<tag k="ssr:stedsnr" v="324308" />
	</node>
	<node lat="58.09781666904744" lon="7.019983328343666" id="-24256">
		<tag k="fixme" v="consider seamark:type=rock or natural=shoal" />
		<tag k="name" v="Storaskjæret" />
		<tag k="place" v="islet" />
		<tag k="ssr:stedsnr" v="324736" />
	</node>
	<node lat="58.009019448147704" lon="6.973869447223365" id="-24269">
		<tag k="fixme" v="multiple name tags, choose one and add the other to alt_name" />
		<tag k="loc_name" v="Austre Torsholmen" />
		<tag k="name" v="Østre Tåsholm;Tjuven" />
		<tag k="place" v="islet" />
		<tag k="ssr:stedsnr" v="327623" />
	</node>
	<node lat="58.07861388738892" lon="6.996702773166973" id="-24270">
		<tag k="name" v="Flesa" />
		<tag k="natural" v="cape" />
		<tag k="ssr:stedsnr" v="328973" />
	</node>
	<node lat="58.05689722132846" lon="6.990886114639965" id="-24310">
		<tag k="name" v="Bærøyflua" />
		<tag k="place" v="locality" />
		<tag k="seamark:type" v="rock" />
		<tag k="ssr:stedsnr" v="342003" />
	</node>
	<node lat="58.027458337114815" lon="6.964391665590145" id="-24311">
		<tag k="name" v="Bjørneskjerflua" />
		<tag k="place" v="locality" />
		<tag k="seamark:type" v="rock" />
		<tag k="ssr:stedsnr" v="342051" />
	</node>
	<node lat="58.03850555950751" lon="7.031611104720451" id="-24546">
		<tag k="fixme" v="consider seamark:type=rock or natural=shoal" />
		<tag k="name" v="Riva" />
		<tag k="place" v="islet" />
		<tag k="ssr:stedsnr" v="481477" />
	</node>
	<node lat="58.028436110488336" lon="7.021358336645207" id="-24547">
		<tag k="fixme" v="consider seamark:type=rock or natural=shoal" />
		<tag k="name" v="Kjelvigholmen" />
		<tag k="place" v="islet" />
		<tag k="ssr:stedsnr" v="481443" />
	</node>
	<node lat="58.02033888865934" lon="7.013830557174815" id="-24556">
		<tag k="name" v="Vraget" />
		<tag k="natural" v="shoal" />
		<tag k="place" v="locality" />
		<tag k="ssr:stedsnr" v="385302" />
	</node>
	<node lat="58.02043611438858" lon="7.021972218419269" id="-24557">
		<tag k="name" v="Grode" />
		<tag k="place" v="locality" />
		<tag k="ssr:stedsnr" v="385303" />
	</node>
	<node lat="58.0626277737082" lon="7.006269440590237" id="-24575">
		<tag k="name" v="Holmen" />
		<tag k="place" v="islet" />
		<tag k="ssr:stedsnr" v="385708" />
	</node>
	<node lat="58.065841670140344" lon="6.995277774404101" id="-24576">
		<tag k="name" v="Mørteholet" />
		<tag k="natural" v="bay" />
		<tag k="ssr:stedsnr" v="385712" />
	</node>
	<node lat="58.00388888653196" lon="6.979999995204234" id="-24603">
		<tag k="name" v="Dannemarksflua" />
		<tag k="natural" v="shoal" />
		<tag k="place" v="locality" />
		<tag k="ssr:stedsnr" v="388989" />
	</node>
	<node lat="57.99666666312484" lon="6.981944440755028" id="-24604">
		<tag k="name" v="Søndre Følflua" />
		<tag k="natural" v="shoal" />
		<tag k="place" v="locality" />
		<tag k="ssr:stedsnr" v="388993" />
	</node>
	<node lat="58.034561108132" lon="6.9731611152867075" id="-24651">
		<tag k="name" v="Grotholmen" />
		<tag k="place" v="islet" />
		<tag k="ssr:stedsnr" v="485543" />
	</node>
	<node lat="58.48681666768077" lon="7.4407444483574405" id="-24653">
		<tag k="name" v="Neset" />
		<tag k="natural" v="cape" />
		<tag k="ssr:stedsnr" v="485547" />
	</node>
	<node lat="58.00335555759986" lon="7.001702776381909" id="-24654">
		<tag k="name" v="Austre Seli" />
		<tag k="place" v="island" />
		<tag k="ssr:stedsnr" v="485626" />
	</node>
	<node lat="58.007258336609006" lon="7.003980559739267" id="-24787">
		<tag k="name" v="Hønseholmen" />
		<tag k="place" v="islet" />
		<tag k="ssr:stedsnr" v="446290" />
	</node>
	<node lat="58.01397500067964" lon="6.991661115764994" id="-24791">
		<tag k="name" v="Kjepsøybukta" />
		<tag k="natural" v="bay" />
		<tag k="ssr:stedsnr" v="446303" />
	</node>
	<node lat="58.14246666684217" lon="7.031147214473128" id="-24813">
		<tag k="name" v="Stamsøya" />
		<tag k="place" v="island" />
		<tag k="ssr:stedsnr" v="446904" />
	</node>
	<node lat="57.97062777609855" lon="7.002949993967329" id="-24930">
		<tag k="name" v="Låmekletten" />
		<tag k="natural" v="shoal" />
		<tag k="place" v="locality" />
		<tag k="ssr:stedsnr" v="485012" />
	</node>
	<node lat="57.99949444777182" lon="6.989316658279084" id="-24957">
		<tag k="name" v="Kålodden" />
		<tag k="natural" v="cape" />
		<tag k="ssr:stedsnr" v="506277" />
	</node>
	<node lat="58.00689722603853" lon="7.003511111690365" id="-24958">
		<tag k="name" v="Kjørgardsvika" />
		<tag k="natural" v="bay" />
		<tag k="ssr:stedsnr" v="506279" />
	</node>
	<node lat="58.0387888854983" lon="6.978591669107407" id="-24971">
		<tag k="name" v="Hovden" />
		<tag k="natural" v="cape" />
		<tag k="ssr:stedsnr" v="506327" />
	</node>
	<node lat="58.06507500445548" lon="7.107322222579155" id="-24983">
		<tag k="name" v="Risholmen" />
		<tag k="place" v="islet" />
		<tag k="ssr:stedsnr" v="506826" />
	</node>
	<node lat="58.041836107390026" lon="6.976499992592969" id="-24985">
		<tag k="name" v="Sjonevikholman" />
		<tag k="place" v="islet" />
		<tag k="ssr:stedsnr" v="506705" />
	</node>
	<node lat="58.0784944429171" lon="7.1149388891437875" id="-24987">
		<tag k="name" v="Bjødnesodden" />
		<tag k="natural" v="cape" />
		<tag k="ssr:stedsnr" v="506773" />
	</node>
	<node lat="58.0779333359822" lon="7.016316659985942" id="-25174">
		<tag k="name" v="Borvikbukta" />
		<tag k="natural" v="bay" />
		<tag k="old_name" v="Borvigen" />
		<tag k="ssr:stedsnr" v="689624" />
	</node>
	<node lat="58.134652774785685" lon="6.903991672329145" id="-25175">
		<tag k="name" v="Litleøya" />
		<tag k="place" v="islet" />
		<tag k="ssr:stedsnr" v="689627" />
	</node>
	<node lat="58.06212777950178" lon="7.003500004360561" id="-25180">
		<tag k="name" v="Furtesundet" />
		<tag k="natural" v="strait" />
		<tag k="ssr:stedsnr" v="689642" />
	</node>
	<node lat="58.07867222480592" lon="7.105877779155252" id="-25186">
		<tag k="name" v="Espeøya" />
		<tag k="place" v="island" />
		<tag k="ssr:stedsnr" v="689749" />
	</node>
	<node lat="58.116205554845834" lon="7.181791671152876" id="-25191">
		<tag k="name" v="Deildliodden" />
		<tag k="natural" v="cape" />
		<tag k="ssr:stedsnr" v="689849" />
	</node>
	<node lat="58.03512777503536" lon="7.018011113310201" id="-25200">
		<tag k="name" v="Nodeholmen" />
		<tag k="place" v="islet" />
		<tag k="ssr:stedsnr" v="692065" />
	</node>
	<node lat="58.09766944282805" lon="7.033977785889748" id="-25201">
		<tag k="name" v="Stibukta" />
		<tag k="natural" v="bay" />
		<tag k="ssr:stedsnr" v="692143" />
	</node>
	<node lat="58.09449722031954" lon="7.032941672788302" id="-25202">
		<tag k="name" v="Rauodden" />
		<tag k="natural" v="cape" />
		<tag k="ssr:stedsnr" v="692146" />
	</node>
	<node lat="58.07919444515915" lon="7.111983341142588" id="-25236">
		<tag k="name" v="Snorodden" />
		<tag k="natural" v="cape" />
		<tag k="ssr:stedsnr" v="567772" />
	</node>
	<node lat="58.12889721933382" lon="6.970341662819335" id="-25285">
		<tag k="name" v="Marehovud" />
		<tag k="natural" v="cape" />
		<tag k="ssr:stedsnr" v="585312" />
	</node>
	<node lat="58.00275277736306" lon="6.993113884865887" id="-25407">
		<tag k="name" v="Glubodden" />
		<tag k="natural" v="cape" />
		<tag k="ssr:stedsnr" v="627306" />
	</node>
	<node lat="58.01137777622385" lon="7.013830563875572" id="-25408">
		<tag k="name" v="Lyngholmsundet" />
		<tag k="natural" v="strait" />
		<tag k="ssr:stedsnr" v="627313" />
	</node>
	<node lat="58.023669440273395" lon="6.998266665573358" id="-25409">
		<tag k="name" v="Kreklingholmen" />
		<tag k="place" v="islet" />
		<tag k="ssr:stedsnr" v="627319" />
	</node>
	<node lat="58.02394444335891" lon="6.982122225526852" id="-25410">
		<tag k="name" v="Kjerringøy" />
		<tag k="place" v="island" />
		<tag k="ssr:stedsnr" v="627320" />
	</node>
	<node lat="58.04533055830155" lon="6.976072220595959" id="-25426">
		<tag k="name" v="Gretlevika" />
		<tag k="natural" v="bay" />
		<tag k="ssr:stedsnr" v="627718" />
	</node>
	<node lat="58.07673333060765" lon="7.118508326086857" id="-25438">
		<tag k="name" v="Todnes" />
		<tag k="natural" v="cape" />
		<tag k="ssr:stedsnr" v="627794" />
	</node>
	<node lat="58.07187777471229" lon="7.0994500048759255" id="-25439">
		<tag k="fixme" v="consider seamark:type=rock or natural=shoal" />
		<tag k="name" v="Sugga" />
		<tag k="place" v="islet" />
		<tag k="ssr:stedsnr" v="627800" />
	</node>
	<node lat="58.072227777054295" lon="7.127319447446266" id="-25455">
		<tag k="name" v="Kittelsnesodden" />
		<tag k="natural" v="cape" />
		<tag k="ssr:stedsnr" v="628392" />
	</node>
	<node lat="58.09407500369028" lon="7.165277778294622" id="-25458">
		<tag k="name" v="Kjøgsøy" />
		<tag k="place" v="islet" />
		<tag k="ssr:stedsnr" v="628904" />
	</node>
	<node lat="58.05428332908771" lon="6.9884805639291026" id="-25478">
		<tag k="fixme" v="consider seamark:type=rock or natural=shoal" />
		<tag k="name" v="Eitlandsskjeran" />
		<tag k="place" v="islet" />
		<tag k="ssr:stedsnr" v="630993" />
	</node>
	<node lat="58.02384166501259" lon="6.994755555528169" id="-25534">
		<tag k="name" v="Sagebomflua" />
		<tag k="place" v="locality" />
		<tag k="seamark:type" v="rock" />
		<tag k="ssr:stedsnr" v="645022" />
	</node>
	<node lat="58.08577778118987" lon="7.0071083263326965" id="-25535">
		<tag k="fixme" v="consider seamark:type=rock or natural=shoal" />
		<tag k="name" v="Kjerringa" />
		<tag k="place" v="islet" />
		<tag k="ssr:stedsnr" v="645373" />
	</node>
	<node lat="58.02843872382806" lon="7.016266268412054" id="-25627">
		<tag k="name" v="Kjelvig" />
		<tag k="natural" v="bay" />
		<tag k="ssr:stedsnr" v="663404" />
	</node>
	<node lat="58.07667499929263" lon="7.116811106563298" id="-25629">
		<tag k="name" v="Holmen" />
		<tag k="place" v="islet" />
		<tag k="ssr:stedsnr" v="666506" />
	</node>
	<node lat="57.9839882087015" lon="7.004219218513292" id="-25631">
		<tag k="fixme" v="consider seamark:type=rock or natural=shoal" />
		<tag k="name" v="Bispen" />
		<tag k="place" v="islet" />
		<tag k="ssr:stedsnr" v="667018" />
	</node>
	<node lat="58.05311666481727" lon="6.994300001377773" id="-25646">
		<tag k="alt_name" v="Neset" />
		<tag k="name" v="Eitlandsneset" />
		<tag k="natural" v="cape" />
		<tag k="ssr:stedsnr" v="667537" />
	</node>
	<node lat="58.09197500210765" lon="7.029000001538835" id="-25647">
		<tag k="name" v="Austadstranda" />
		<tag k="natural" v="beach" />
		<tag k="ssr:stedsnr" v="667490" />
	</node>
	<node lat="58.028158330903736" lon="7.014549998663562" id="-25676">
		<tag k="name" v="Rona" />
		<tag k="place" v="locality" />
		<tag k="ssr:stedsnr" v="689303" />
	</node>
	<node lat="58.00177222196654" lon="6.995075003455698" id="-25688">
		<tag k="name" v="Seliflåna" />
		<tag k="natural" v="bay" />
		<tag k="ssr:stedsnr" v="689282" />
	</node>
	<node lat="58.0125388893827" lon="6.998358325716674" id="-25689">
		<tag k="name" v="Fiskeskjæret" />
		<tag k="place" v="islet" />
		<tag k="ssr:stedsnr" v="689289" />
	</node>
	<node lat="58.10629999921178" lon="7.025941658858125" id="-25710">
		<tag k="name" v="Kvernhusviga" />
		<tag k="natural" v="bay" />
		<tag k="ssr:stedsnr" v="689682" />
	</node>
	<node lat="58.12117500400153" lon="7.057236114357671" id="-25715">
		<tag k="name" v="Rosfjordsanden" />
		<tag k="natural" v="beach" />
		<tag k="ssr:stedsnr" v="689807" />
	</node>
	<node lat="58.14154444574791" lon="7.04130833093759" id="-25717">
		<tag k="name" v="Orreøyene" />
		<tag k="place" v="island" />
		<tag k="ssr:stedsnr" v="689887" />
	</node>
</osm>
