<?xml version="1.0" encoding="UTF-8"?>
<<<<<<< HEAD
<osm version="0.6" generator="osmapis">
	<node lat="58.23928333397224" lon="7.104377770156682" id="-23038">
		<tag k="name" v="Homplandsle" />
		<tag k="place" v="locality" />
		<tag k="ssr:stedsnr" v="22502" />
	</node>
	<node lat="58.445894441817444" lon="7.338305562673185" id="-23075">
=======
<osm generator="osmapis" version="0.6">
	<node id="-573184" lat="58.1801833368" lon="7.10643056015">
		<tag k="highway" v="path" />
		<tag k="name" v="Gjeidestien" />
		<tag k="ssr:stedsnr" v="264398" />
	</node>
	<node id="-573951" lat="58.2854694408" lon="7.35356110619">
		<tag k="bridge" v="yes" />
		<tag k="layer" v="1" />
		<tag k="name" v="Konsmo" />
		<tag k="ssr:stedsnr" v="289023" />
	</node>
	<node id="-573308" lat="58.2538361142" lon="7.36964167271">
		<tag k="highway" v="path" />
		<tag k="name" v="Fårlandsstien" />
		<tag k="ssr:stedsnr" v="279767" />
	</node>
	<node id="-574842" lat="58.1142416635" lon="7.08884721635">
		<tag k="highway" v="path" />
		<tag k="name" v="Stien" />
		<tag k="ssr:stedsnr" v="689780" />
	</node>
	<node id="-573303" lat="58.3842027806" lon="7.35579999585">
		<tag k="fixme" v="consider highway=path" />
		<tag k="highway" v="track" />
		<tag k="name" v="Stokkekleiv" />
		<tag k="ssr:stedsnr" v="158964" />
	</node>
	<node id="-576627" lat="58.4458944418" lon="7.33830556267">
>>>>>>> e1d4bc35ff8a6074a6f2e91616a996b547c36f15
		<tag k="highway" v="path" />
		<tag k="loc_name" v="På stien" />
		<tag k="name" v="Stien" />
		<tag k="ssr:stedsnr" v="36209" />
<<<<<<< HEAD
	</node>
	<node lat="58.37654167105509" lon="7.35093055725315" id="-23100">
		<tag k="highway" v="path" />
		<tag k="name" v="Heieveien" />
		<tag k="ssr:stedsnr" v="37006" />
	</node>
	<node lat="58.35362500430536" lon="7.332577769213824" id="-23116">
		<tag k="bridge" v="yes" />
		<tag k="layer" v="1" />
		<tag k="name" v="Iveland" />
		<tag k="ssr:stedsnr" v="46020" />
	</node>
	<node lat="58.283816667870695" lon="7.36584444392113" id="-23117">
		<tag k="bridge" v="yes" />
		<tag k="layer" v="1" />
		<tag k="name" v="Konsmobekk" />
		<tag k="ssr:stedsnr" v="46021" />
	</node>
	<node lat="58.13078610721649" lon="7.0954055556428655" id="-23118">
		<tag k="bridge" v="yes" />
		<tag k="layer" v="1" />
		<tag k="name" v="Eiåslandbekk" />
		<tag k="ssr:stedsnr" v="46519" />
	</node>
	<node lat="58.2294250027291" lon="7.01273888510823" id="-23364">
		<tag k="bridge" v="yes" />
		<tag k="layer" v="1" />
		<tag k="name" v="Handeland" />
		<tag k="ssr:stedsnr" v="107504" />
	</node>
	<node lat="58.384202780575514" lon="7.355799995848145" id="-23544">
		<tag k="fixme" v="consider highway=path" />
		<tag k="highway" v="track" />
		<tag k="name" v="Stokkekleiv" />
		<tag k="ssr:stedsnr" v="158964" />
	</node>
	<node lat="58.174122226076875" lon="7.015402780189999" id="-23552">
		<tag k="bridge" v="yes" />
		<tag k="layer" v="1" />
		<tag k="name" v="Drageland" />
		<tag k="ssr:stedsnr" v="168459" />
	</node>
	<node lat="58.08966388528542" lon="7.044297224744412" id="-23553">
		<tag k="bridge" v="yes" />
		<tag k="layer" v="1" />
		<tag k="name" v="Austad" />
		<tag k="ssr:stedsnr" v="168462" />
	</node>
	<node lat="58.196930555082034" lon="7.057700007654607" id="-23657">
		<tag k="highway" v="path" />
		<tag k="name" v="Mollstien" />
		<tag k="ssr:stedsnr" v="264018" />
	</node>
	<node lat="58.22383333529117" lon="7.163516662278933" id="-23662">
		<tag k="highway" v="path" />
		<tag k="name" v="Brattestien" />
		<tag k="ssr:stedsnr" v="264283" />
	</node>
	<node lat="58.1801833367912" lon="7.106430560146258" id="-23669">
		<tag k="highway" v="path" />
		<tag k="name" v="Gjeidestien" />
		<tag k="ssr:stedsnr" v="264398" />
	</node>
	<node lat="58.20728610952103" lon="7.026477781091626" id="-23676">
		<tag k="highway" v="path" />
		<tag k="name" v="Ormestien" />
		<tag k="ssr:stedsnr" v="264049" />
	</node>
	<node lat="58.121511106748315" lon="7.060749999595195" id="-23843">
		<tag k="bridge" v="yes" />
		<tag k="layer" v="1" />
		<tag k="name" v="Kjellermo" />
		<tag k="ssr:stedsnr" v="228537" />
	</node>
	<node lat="58.36159166511054" lon="7.340297230821655" id="-23844">
		<tag k="bridge" v="yes" />
		<tag k="layer" v="1" />
		<tag k="name" v="Høyland" />
		<tag k="ssr:stedsnr" v="229030" />
	</node>
	<node lat="58.253836114173396" lon="7.369641672707857" id="-24018">
		<tag k="highway" v="path" />
		<tag k="name" v="Fårlandsstien" />
		<tag k="ssr:stedsnr" v="279767" />
	</node>
	<node lat="58.14972221862839" lon="7.089680557137907" id="-24061">
		<tag k="bridge" v="yes" />
		<tag k="layer" v="1" />
		<tag k="name" v="Ofte" />
		<tag k="ssr:stedsnr" v="289497" />
	</node>
	<node lat="58.15755555926557" lon="7.091158338888427" id="-24062">
		<tag k="bridge" v="yes" />
		<tag k="layer" v="1" />
		<tag k="name" v="Presthøl" />
		<tag k="ssr:stedsnr" v="289500" />
	</node>
	<node lat="58.13550555586873" lon="7.182127770210562" id="-24064">
		<tag k="bridge" v="yes" />
		<tag k="layer" v="1" />
		<tag k="name" v="Lene" />
		<tag k="ssr:stedsnr" v="289508" />
	</node>
	<node lat="58.28526388472488" lon="7.34615000499352" id="-24081">
		<tag k="highway" v="path" />
		<tag k="name" v="Fårestien" />
		<tag k="ssr:stedsnr" v="461929" />
	</node>
	<node lat="58.28510833682744" lon="7.290355562933498" id="-24082">
		<tag k="man_made" v="cairn" />
		<tag k="name" v="Refsvarden" />
		<tag k="place" v="locality" />
		<tag k="ssr:stedsnr" v="461936" />
	</node>
	<node lat="58.16442222004257" lon="7.186127769653581" id="-24258">
		<tag k="fixme" v="consider highway=path" />
		<tag k="highway" v="track" />
		<tag k="name" v="Sandkleiva" />
		<tag k="ssr:stedsnr" v="325907" />
	</node>
	<node lat="58.15518055153674" lon="7.129516670210176" id="-24262">
		<tag k="bridge" v="yes" />
		<tag k="layer" v="1" />
		<tag k="name" v="Slaget bru" />
		<tag k="ssr:stedsnr" v="471484" />
	</node>
	<node lat="58.1602777737381" lon="7.067730547555163" id="-24263">
=======
	</node>
	<node id="-575346" lat="58.2436888881" lon="7.18292499329">
		<tag k="bridge" v="yes" />
		<tag k="layer" v="1" />
		<tag k="name" v="Moisbekk" />
		<tag k="ssr:stedsnr" v="653461" />
	</node>
	<node id="-573169" lat="58.2238333353" lon="7.16351666228">
		<tag k="highway" v="path" />
		<tag k="name" v="Brattestien" />
		<tag k="ssr:stedsnr" v="264283" />
	</node>
	<node id="-575494" lat="58.4974722222" lon="7.48017499928">
		<tag k="bridge" v="yes" />
		<tag k="layer" v="1" />
		<tag k="name" v="Fugletveit" />
		<tag k="ssr:stedsnr" v="714028" />
	</node>
	<node id="-572781" lat="58.3765416711" lon="7.35093055725">
		<tag k="highway" v="path" />
		<tag k="name" v="Heieveien" />
		<tag k="ssr:stedsnr" v="37006" />
	</node>
	<node id="-575723" lat="58.196986108" lon="7.04885278079">
		<tag k="highway" v="path" />
		<tag k="name" v="Utskårstien" />
		<tag k="ssr:stedsnr" v="749013" />
	</node>
	<node id="-573926" lat="58.2851083368" lon="7.29035556293">
		<tag k="man_made" v="cairn" />
		<tag k="name" v="Refsvarden" />
		<tag k="place" v="locality" />
		<tag k="ssr:stedsnr" v="461936" />
	</node>
	<node id="-573925" lat="58.2852638847" lon="7.34615000499">
		<tag k="highway" v="path" />
		<tag k="name" v="Fårestien" />
		<tag k="ssr:stedsnr" v="461929" />
	</node>
	<node id="-575460" lat="58.2902194427" lon="7.2874361196">
		<tag k="man_made" v="cairn" />
		<tag k="name" v="Varden" />
		<tag k="place" v="locality" />
		<tag k="ssr:stedsnr" v="886923" />
	</node>
	<node id="-574246" lat="58.2186861093" lon="6.93380000598">
		<tag k="bridge" v="yes" />
		<tag k="layer" v="1" />
		<tag k="name" v="Stedjansbekk" />
		<tag k="ssr:stedsnr" v="350424" />
	</node>
	<node id="-575458" lat="58.2339333319" lon="7.34227777971">
		<tag k="bridge" v="yes" />
		<tag k="layer" v="1" />
		<tag k="name" v="Gramsbrua" />
		<tag k="ssr:stedsnr" v="886852" />
	</node>
	<node id="-574352" lat="58.1654083338" lon="7.09120277544">
		<tag k="highway" v="path" />
		<tag k="name" v="Gjest Bårdsens vei" />
		<tag k="ssr:stedsnr" v="506439" />
	</node>
	<node id="-576677" lat="58.3536250043" lon="7.33257776921">
		<tag k="bridge" v="yes" />
		<tag k="layer" v="1" />
		<tag k="name" v="Iveland" />
		<tag k="ssr:stedsnr" v="46020" />
	</node>
	<node id="-576348" lat="58.1930750021" lon="7.20913888806">
		<tag k="highway" v="path" />
		<tag k="name" v="Heistølveien" />
		<tag k="ssr:stedsnr" v="932518" />
	</node>
	<node id="-573403" lat="58.3583555554" lon="7.39911388221">
		<tag k="bridge" v="yes" />
		<tag k="layer" v="1" />
		<tag k="name" v="Ågedal" />
		<tag k="ssr:stedsnr" v="289540" />
	</node>
	<node id="-573402" lat="58.3792055544" lon="7.36823610784">
		<tag k="bridge" v="yes" />
		<tag k="layer" v="1" />
		<tag k="name" v="Ytre Øydne" />
		<tag k="ssr:stedsnr" v="289539" />
	</node>
	<node id="-573401" lat="58.1575555593" lon="7.09115833889">
		<tag k="bridge" v="yes" />
		<tag k="layer" v="1" />
		<tag k="name" v="Presthøl" />
		<tag k="ssr:stedsnr" v="289500" />
	</node>
	<node id="-573400" lat="58.1497222186" lon="7.08968055714">
		<tag k="bridge" v="yes" />
		<tag k="layer" v="1" />
		<tag k="name" v="Ofte" />
		<tag k="ssr:stedsnr" v="289497" />
	</node>
	<node id="-574806" lat="58.1853055533" lon="7.10089166725">
		<tag k="bridge" v="yes" />
		<tag k="layer" v="1" />
		<tag k="name" v="Grøvans bru" />
		<tag k="ssr:stedsnr" v="689381" />
	</node>
	<node id="-575053" lat="58.413130558" lon="7.37218054854">
		<tag k="bridge" v="yes" />
		<tag k="layer" v="1" />
		<tag k="name" v="Våråna" />
		<tag k="ssr:stedsnr" v="714445" />
	</node>
	<node id="-576331" lat="58.1082777768" lon="7.04889722865">
		<tag k="man_made" v="quay" />
		<tag k="name" v="Prestjordstranda" />
		<tag k="place" v="locality" />
		<tag k="ssr:stedsnr" v="931841" />
	</node>
	<node id="-575049" lat="58.145283331" lon="7.05791666606">
		<tag k="bridge" v="yes" />
		<tag k="layer" v="1" />
		<tag k="name" v="Faret" />
		<tag k="ssr:stedsnr" v="592524" />
	</node>
	<node id="-573128" lat="58.2072861095" lon="7.02647778109">
		<tag k="highway" v="path" />
		<tag k="name" v="Ormestien" />
		<tag k="ssr:stedsnr" v="264049" />
	</node>
	<node id="-575047" lat="58.0925972248" lon="7.05277222399">
		<tag k="bridge" v="yes" />
		<tag k="layer" v="1" />
		<tag k="name" v="Myran" />
		<tag k="ssr:stedsnr" v="592511" />
	</node>
	<node id="-575046" lat="58.3327638931" lon="7.31267221696">
		<tag k="bridge" v="yes" />
		<tag k="layer" v="1" />
		<tag k="name" v="Røynesdal" />
		<tag k="ssr:stedsnr" v="592024" />
	</node>
	<node id="-573125" lat="58.1969305551" lon="7.05770000765">
		<tag k="highway" v="path" />
		<tag k="name" v="Mollstien" />
		<tag k="ssr:stedsnr" v="264018" />
	</node>
	<node id="-575556" lat="58.3538194483" lon="7.38496388278">
		<tag k="bridge" v="yes" />
		<tag k="layer" v="1" />
		<tag k="name" v="Ågedalstø" />
		<tag k="ssr:stedsnr" v="896550" />
	</node>
	<node id="-575555" lat="58.321433337" lon="7.36622499862">
		<tag k="bridge" v="yes" />
		<tag k="layer" v="1" />
		<tag k="name" v="Øydneskleiv" />
		<tag k="ssr:stedsnr" v="896546" />
	</node>
	<node id="-575554" lat="58.3207777775" lon="7.3679444458">
		<tag k="bridge" v="yes" />
		<tag k="layer" v="1" />
		<tag k="name" v="Øydneskleiv" />
		<tag k="ssr:stedsnr" v="896544" />
	</node>
	<node id="-575553" lat="58.2514583294" lon="7.35279166444">
		<tag k="bridge" v="yes" />
		<tag k="layer" v="1" />
		<tag k="name" v="Viblemo" />
		<tag k="ssr:stedsnr" v="896541" />
	</node>
	<node id="-572992" lat="58.1412416685" lon="7.08891110384">
		<tag k="highway" v="path" />
		<tag k="name" v="Kongens postveg" />
		<tag k="ssr:stedsnr" v="82417" />
	</node>
	<node id="-572990" lat="58.1767499965" lon="7.07355555483">
		<tag k="highway" v="path" />
		<tag k="name" v="Stien" />
		<tag k="ssr:stedsnr" v="82413" />
	</node>
	<node id="-574653" lat="58.4622333301" lon="7.38351667322">
		<tag k="bridge" v="yes" />
		<tag k="layer" v="1" />
		<tag k="name" v="Kleivabekk" />
		<tag k="ssr:stedsnr" v="471020" />
	</node>
	<node id="-575552" lat="58.0862555573" lon="7.10308610287">
		<tag k="bridge" v="yes" />
		<tag k="layer" v="1" />
		<tag k="name" v="Gitlevåg" />
		<tag k="ssr:stedsnr" v="896515" />
	</node>
	<node id="-574394" lat="58.2224499957" lon="7.15290277131">
		<tag k="ford" v="yes" />
		<tag k="name" v="Gautevad" />
		<tag k="place" v="locality" />
		<tag k="ssr:stedsnr" v="507247" />
	</node>
	<node id="-572855" lat="58.2438472256" lon="7.01700277205">
		<tag k="bridge" v="yes" />
		<tag k="layer" v="1" />
		<tag k="name" v="Flatlona" />
		<tag k="ssr:stedsnr" v="46521" />
	</node>
	<node id="-572854" lat="58.1307861072" lon="7.09540555564">
		<tag k="bridge" v="yes" />
		<tag k="layer" v="1" />
		<tag k="name" v="Eiåslandbekk" />
		<tag k="ssr:stedsnr" v="46519" />
	</node>
	<node id="-575497" lat="58.2003888893" lon="6.96976110518">
		<tag k="bridge" v="yes" />
		<tag k="layer" v="1" />
		<tag k="name" v="Ljosevassbekk" />
		<tag k="ssr:stedsnr" v="714423" />
	</node>
	<node id="-572598" lat="58.3749027798" lon="7.3695222154">
		<tag k="alt_name" v="Kringlen" />
		<tag k="bridge" v="yes" />
		<tag k="layer" v="1" />
		<tag k="name" v="Kringlen bru" />
		<tag k="ssr:stedsnr" v="219001" />
	</node>
	<node id="-574768" lat="58.2665500014" lon="7.05091110692">
		<tag k="highway" v="path" />
		<tag k="name" v="Fænveien" />
		<tag k="ssr:stedsnr" v="689164" />
	</node>
	<node id="-573999" lat="58.1602777737" lon="7.06773054756">
>>>>>>> e1d4bc35ff8a6074a6f2e91616a996b547c36f15
		<tag k="bridge" v="yes" />
		<tag k="layer" v="1" />
		<tag k="name" v="Møska" />
		<tag k="ssr:stedsnr" v="471485" />
	</node>
<<<<<<< HEAD
	<node lat="58.07999167086128" lon="7.118236117831795" id="-24264">
		<tag k="bridge" v="yes" />
		<tag k="layer" v="1" />
		<tag k="name" v="Kvernbekk" />
		<tag k="ssr:stedsnr" v="471490" />
	</node>
	<node lat="58.355105552937275" lon="7.3329749997469715" id="-24284">
		<tag k="highway" v="path" />
		<tag k="name" v="Buvegen" />
		<tag k="ssr:stedsnr" v="340350" />
	</node>
	<node lat="58.22842500116713" lon="7.0596361110490875" id="-24749">
=======
	<node id="-573998" lat="58.1551805515" lon="7.12951667021">
		<tag k="bridge" v="yes" />
		<tag k="layer" v="1" />
		<tag k="name" v="Slaget bru" />
		<tag k="ssr:stedsnr" v="471484" />
	</node>
	<node id="-574764" lat="58.1982444408" lon="7.1383527756">
		<tag k="fixme" v="consider highway=path" />
		<tag k="highway" v="track" />
		<tag k="name" v="Timrekleiva" />
		<tag k="ssr:stedsnr" v="689103" />
	</node>
	<node id="-576171" lat="58.2672666664" lon="7.21376111121">
		<tag k="highway" v="path" />
		<tag k="name" v="Brattestien" />
		<tag k="ssr:stedsnr" v="871575" />
	</node>
	<node id="-574428" lat="58.2284250012" lon="7.05963611105">
>>>>>>> e1d4bc35ff8a6074a6f2e91616a996b547c36f15
		<tag k="alt_name" v="Hellevann" />
		<tag k="amenity" v="parking" />
		<tag k="name" v="Hellevatn" />
		<tag k="ssr:stedsnr" v="425424" />
	</node>
<<<<<<< HEAD
	<node lat="58.4622333301348" lon="7.383516673222877" id="-24836">
		<tag k="bridge" v="yes" />
		<tag k="layer" v="1" />
		<tag k="name" v="Kleivabekk" />
		<tag k="ssr:stedsnr" v="471020" />
	</node>
	<node lat="58.27659722588386" lon="7.408391671218315" id="-25007">
		<tag k="highway" v="path" />
		<tag k="name" v="Bergestien" />
		<tag k="ssr:stedsnr" v="522746" />
	</node>
	<node lat="58.40034999796498" lon="7.363536117315732" id="-25024">
		<tag k="bridge" v="yes" />
		<tag k="layer" v="1" />
		<tag k="name" v="Hagåna" />
		<tag k="ssr:stedsnr" v="532026" />
	</node>
	<node lat="58.26655000143827" lon="7.050911106923677" id="-25136">
		<tag k="highway" v="path" />
		<tag k="name" v="Fænveien" />
		<tag k="ssr:stedsnr" v="689164" />
	</node>
	<node lat="58.33276389314587" lon="7.312672216958172" id="-25277">
		<tag k="bridge" v="yes" />
		<tag k="layer" v="1" />
		<tag k="name" v="Røynesdal" />
		<tag k="ssr:stedsnr" v="592024" />
	</node>
	<node lat="58.09259722476509" lon="7.052772223986054" id="-25278">
		<tag k="bridge" v="yes" />
		<tag k="layer" v="1" />
		<tag k="name" v="Myran" />
		<tag k="ssr:stedsnr" v="592511" />
	</node>
	<node lat="58.19824444082199" lon="7.138352775602505" id="-25662">
		<tag k="fixme" v="consider highway=path" />
		<tag k="highway" v="track" />
		<tag k="name" v="Timrekleiva" />
		<tag k="ssr:stedsnr" v="689103" />
	</node>
	<node lat="58.185305553261195" lon="7.100891667248296" id="-25688">
		<tag k="bridge" v="yes" />
		<tag k="layer" v="1" />
		<tag k="name" v="Grøvans bru" />
		<tag k="ssr:stedsnr" v="689381" />
	</node>
	<node lat="58.114241663528766" lon="7.088847216351925" id="-25711">
		<tag k="highway" v="path" />
		<tag k="name" v="Stien" />
		<tag k="ssr:stedsnr" v="689780" />
	</node>
	<node lat="58.33280277665294" lon="7.320191672678035" id="-25717">
		<tag k="bridge" v="yes" />
		<tag k="layer" v="1" />
		<tag k="name" v="Hellevatn" />
		<tag k="ssr:stedsnr" v="896019" />
	</node>
	<node lat="58.11789166896023" lon="7.156266660668397" id="-25719">
=======
	<node id="-576678" lat="58.2838166679" lon="7.36584444392">
		<tag k="bridge" v="yes" />
		<tag k="layer" v="1" />
		<tag k="name" v="Konsmobekk" />
		<tag k="ssr:stedsnr" v="46021" />
	</node>
	<node id="-574245" lat="58.2596111098" lon="7.05547222558">
		<tag k="bridge" v="yes" />
		<tag k="layer" v="1" />
		<tag k="name" v="Trældal" />
		<tag k="ssr:stedsnr" v="350420" />
	</node>
	<node id="-576390" lat="58.1125194426" lon="6.94073333527">
		<tag k="barrier" v="toll_booth" />
		<tag k="name" v="Djupvik" />
		<tag k="ssr:stedsnr" v="951925" />
	</node>
	<node id="-574000" lat="58.0799916709" lon="7.11823611783">
		<tag k="bridge" v="yes" />
		<tag k="layer" v="1" />
		<tag k="name" v="Kvernbekk" />
		<tag k="ssr:stedsnr" v="471490" />
	</node>
	<node id="-575048" lat="58.1535055593" lon="7.13654443713">
		<tag k="bridge" v="yes" />
		<tag k="layer" v="1" />
		<tag k="name" v="Herdalsbrua" />
		<tag k="ssr:stedsnr" v="592519" />
	</node>
	<node id="-575549" lat="58.117891669" lon="7.15626666067">
		<tag k="bridge" v="yes" />
		<tag k="layer" v="1" />
		<tag k="name" v="Øygårdsvassbekk" />
		<tag k="ssr:stedsnr" v="896490" />
	</node>
	<node id="-575258" lat="58.2184861113" lon="7.01770554916">
		<tag k="barrier" v="toll_booth" />
		<tag k="name" v="Handeland" />
		<tag k="ssr:stedsnr" v="725917" />
	</node>
	<node id="-574361" lat="58.2574166655" lon="7.18812777291">
		<tag k="highway" v="path" />
		<tag k="name" v="Bjørosveien" />
		<tag k="ssr:stedsnr" v="506583" />
	</node>
	<node id="-577028" lat="58.1309111119" lon="7.0403305478">
		<tag k="bridge" v="yes" />
		<tag k="layer" v="1" />
		<tag k="name" v="Rosfjord" />
		<tag k="ssr:stedsnr" v="107488" />
	</node>
	<node id="-575525" lat="58.3328027767" lon="7.32019167268">
		<tag k="bridge" v="yes" />
		<tag k="layer" v="1" />
		<tag k="name" v="Hellevatn" />
		<tag k="ssr:stedsnr" v="896019" />
	</node>
	<node id="-576145" lat="58.2075472235" lon="7.14106666359">
		<tag k="highway" v="path" />
		<tag k="name" v="Geitestegen" />
		<tag k="ssr:stedsnr" v="871208" />
	</node>
	<node id="-572688" lat="58.3615916651" lon="7.34029723082">
		<tag k="bridge" v="yes" />
		<tag k="layer" v="1" />
		<tag k="name" v="Høyland" />
		<tag k="ssr:stedsnr" v="229030" />
	</node>
	<node id="-572687" lat="58.196497226" lon="7.12179445216">
>>>>>>> e1d4bc35ff8a6074a6f2e91616a996b547c36f15
		<tag k="bridge" v="yes" />
		<tag k="layer" v="1" />
		<tag k="name" v="Øygårdsvassbekk" />
		<tag k="ssr:stedsnr" v="896490" />
	</node>
<<<<<<< HEAD
	<node lat="58.35381944825727" lon="7.384963882779475" id="-25720">
=======
	<node id="-572686" lat="58.1215111067" lon="7.0607499996">
>>>>>>> e1d4bc35ff8a6074a6f2e91616a996b547c36f15
		<tag k="bridge" v="yes" />
		<tag k="layer" v="1" />
		<tag k="name" v="Ågedalstø" />
		<tag k="ssr:stedsnr" v="896550" />
	</node>
<<<<<<< HEAD
	<node lat="58.218486111261626" lon="7.017705549163379" id="-25932">
		<tag k="barrier" v="toll_booth" />
		<tag k="name" v="Handeland" />
		<tag k="ssr:stedsnr" v="725917" />
=======
	<node id="-573952" lat="58.1355055559" lon="7.18212777021">
		<tag k="bridge" v="yes" />
		<tag k="layer" v="1" />
		<tag k="name" v="Lene" />
		<tag k="ssr:stedsnr" v="289508" />
	</node>
	<node id="-574217" lat="58.16442222" lon="7.18612776965">
		<tag k="fixme" v="consider highway=path" />
		<tag k="highway" v="track" />
		<tag k="name" v="Sandkleiva" />
		<tag k="ssr:stedsnr" v="325907" />
	</node>
	<node id="-575496" lat="58.1298944481" lon="7.10423333787">
		<tag k="bridge" v="yes" />
		<tag k="layer" v="1" />
		<tag k="name" v="Øygårdsvatn" />
		<tag k="ssr:stedsnr" v="714407" />
	</node>
	<node id="-575495" lat="58.3735361152" lon="7.37535277254">
		<tag k="bridge" v="yes" />
		<tag k="layer" v="1" />
		<tag k="name" v="Valand" />
		<tag k="ssr:stedsnr" v="714034" />
	</node>
	<node id="-577030" lat="58.2294250027" lon="7.01273888511">
		<tag k="bridge" v="yes" />
		<tag k="layer" v="1" />
		<tag k="name" v="Handeland" />
		<tag k="ssr:stedsnr" v="107504" />
	</node>
	<node id="-572681" lat="58.1017694474" lon="7.15825554935">
		<tag k="man_made" v="quay" />
		<tag k="name" v="Jaktstøa" />
		<tag k="place" v="locality" />
		<tag k="ssr:stedsnr" v="22923" />
	</node>
	<node id="-572676" lat="58.239283334" lon="7.10437777016">
		<tag k="name" v="Homplandsle" />
		<tag k="place" v="locality" />
		<tag k="ssr:stedsnr" v="22502" />
	</node>
	<node id="-573794" lat="58.0457194425" lon="7.00919167017">
		<tag k="junction" v="yes" />
		<tag k="name" v="Hausviksvingen" />
		<tag k="place" v="locality" />
		<tag k="ssr:stedsnr" v="446712" />
	</node>
	<node id="-577029" lat="58.260083333" lon="7.19649166819">
		<tag k="bridge" v="yes" />
		<tag k="layer" v="1" />
		<tag k="name" v="Kvås" />
		<tag k="ssr:stedsnr" v="107491" />
>>>>>>> e1d4bc35ff8a6074a6f2e91616a996b547c36f15
	</node>
</osm>
