<?xml version="1.0" encoding="UTF-8"?>
<osm version="0.6" generator="osmapis">
	<node lat="58.06450833741692" lon="7.07168055446679" id="-22849">
		<tag k="alt_name" v="Nakkestadvarden" />
		<tag k="name" v="Vardeheia" />
		<tag k="natural" v="hill" />
		<tag k="place" v="locality" />
		<tag k="ssr:stedsnr" v="556" />
	</node>
	<node lat="58.45044166561356" lon="7.398930554086573" id="-22856">
		<tag k="alt_name" v="Mandalshei" />
		<tag k="name" v="Maldalsheii" />
		<tag k="natural" v="hill" />
		<tag k="place" v="locality" />
		<tag k="ssr:stedsnr" v="918" />
	</node>
	<node lat="58.191675001181295" lon="6.968919444463493" id="-22995">
		<tag k="name" v="Josevannsheia" />
		<tag k="natural" v="hill" />
		<tag k="place" v="locality" />
		<tag k="ssr:stedsnr" v="21046" />
	</node>
	<node lat="58.195272224944055" lon="6.97224999660438" id="-22996">
		<tag k="name" v="Breihei" />
		<tag k="natural" v="hill" />
		<tag k="place" v="locality" />
		<tag k="ssr:stedsnr" v="21048" />
	</node>
	<node lat="58.24992222095308" lon="7.14675556202081" id="-23000">
		<tag k="fixme" v="consider natural=peak for the most distinct mountains in the district" />
		<tag k="name" v="Mårfjell" />
		<tag k="natural" v="hill" />
		<tag k="place" v="locality" />
		<tag k="ssr:stedsnr" v="21234" />
	</node>
	<node lat="58.2510249992345" lon="7.054630551371872" id="-23002">
		<tag k="fixme" v="consider natural=peak for the most distinct mountains in the district" />
		<tag k="name" v="Svartafjellet" />
		<tag k="natural" v="hill" />
		<tag k="place" v="locality" />
		<tag k="ssr:stedsnr" v="21140" />
	</node>
	<node lat="58.213769444786614" lon="6.9178250006297395" id="-23006">
		<tag k="name" v="Bustø" />
		<tag k="natural" v="hill" />
		<tag k="place" v="locality" />
		<tag k="ssr:stedsnr" v="21334" />
	</node>
	<node lat="58.21709166867071" lon="6.910405551913665" id="-23008">
		<tag k="name" v="Langheia" />
		<tag k="natural" v="hill" />
		<tag k="place" v="locality" />
		<tag k="ssr:stedsnr" v="21339" />
	</node>
	<node lat="58.21458333520058" lon="6.931922225965002" id="-23009">
		<tag k="name" v="Øygardsheia" />
		<tag k="natural" v="hill" />
		<tag k="place" v="locality" />
		<tag k="ssr:stedsnr" v="21503" />
	</node>
	<node lat="58.25135555702058" lon="7.136555560623966" id="-23011">
		<tag k="fixme" v="consider natural=peak for the most distinct mountains in the district" />
		<tag k="name" v="Bastelifjell" />
		<tag k="natural" v="hill" />
		<tag k="place" v="locality" />
		<tag k="ssr:stedsnr" v="21404" />
	</node>
	<node lat="58.156136112027426" lon="7.12842222493239" id="-23012">
		<tag k="fixme" v="consider natural=peak for the most distinct mountains in the district" />
		<tag k="name" v="Strandekniben" />
		<tag k="natural" v="hill" />
		<tag k="place" v="locality" />
		<tag k="ssr:stedsnr" v="21486" />
	</node>
	<node lat="58.14973055862308" lon="7.11219999328589" id="-23013">
		<tag k="name" v="Gauksåsen" />
		<tag k="natural" v="hill" />
		<tag k="place" v="locality" />
		<tag k="ssr:stedsnr" v="21487" />
	</node>
	<node lat="58.22056944651898" lon="6.976505555512472" id="-23015">
		<tag k="fixme" v="consider natural=peak for the most distinct mountains in the district" />
		<tag k="name" v="Torveheia" />
		<tag k="natural" v="hill" />
		<tag k="place" v="locality" />
		<tag k="ssr:stedsnr" v="21499" />
	</node>
	<node lat="58.06936388637372" lon="7.0192555518497" id="-23017">
		<tag k="name" v="Heggedalen" />
		<tag k="natural" v="valley" />
		<tag k="place" v="locality" />
		<tag k="ssr:stedsnr" v="21703" />
	</node>
	<node lat="58.15098333503643" lon="6.889027772055785" id="-23021">
		<tag k="name" v="Lian" />
		<tag k="natural" v="slope" />
		<tag k="place" v="locality" />
		<tag k="ssr:stedsnr" v="21673" />
	</node>
	<node lat="58.078288887498225" lon="7.023849999959529" id="-23022">
		<tag k="name" v="Orrelia" />
		<tag k="natural" v="slope" />
		<tag k="place" v="locality" />
		<tag k="ssr:stedsnr" v="21680" />
	</node>
	<node lat="58.1458583300655" lon="6.892422222386671" id="-23023">
		<tag k="name" v="Lindelia" />
		<tag k="natural" v="slope" />
		<tag k="place" v="locality" />
		<tag k="ssr:stedsnr" v="21691" />
	</node>
	<node lat="58.14764722273132" lon="6.914300001424195" id="-23024">
		<tag k="name" v="Trolldalen" />
		<tag k="natural" v="valley" />
		<tag k="place" v="locality" />
		<tag k="ssr:stedsnr" v="21693" />
	</node>
	<node lat="58.14607221815997" lon="6.909933326606299" id="-23025">
		<tag k="fixme" v="consider natural=peak for the most distinct mountains in the district" />
		<tag k="name" v="Borgåsheia" />
		<tag k="natural" v="hill" />
		<tag k="place" v="locality" />
		<tag k="ssr:stedsnr" v="21695" />
	</node>
	<node lat="58.06505277809895" lon="7.075400008356393" id="-23027">
		<tag k="name" v="Stifladen" />
		<tag k="place" v="locality" />
		<tag k="ssr:stedsnr" v="21808" />
	</node>
	<node lat="58.110391669601725" lon="7.119744440355778" id="-23029">
		<tag k="name" v="Dalandskogen" />
		<tag k="natural" v="hill" />
		<tag k="place" v="locality" />
		<tag k="ssr:stedsnr" v="21820" />
	</node>
	<node lat="58.13314722410243" lon="7.140830559397138" id="-23033">
		<tag k="fixme" v="consider natural=peak for the most distinct mountains in the district" />
		<tag k="name" v="Skoreheia" />
		<tag k="natural" v="hill" />
		<tag k="place" v="locality" />
		<tag k="ssr:stedsnr" v="21934" />
	</node>
	<node lat="58.15853332934339" lon="7.149283331535312" id="-23035">
		<tag k="name" v="Stompan" />
		<tag k="natural" v="hill" />
		<tag k="place" v="locality" />
		<tag k="ssr:stedsnr" v="21947" />
	</node>
	<node lat="58.285191666969446" lon="7.2153111069717975" id="-23037">
		<tag k="name" v="Titlandsheia" />
		<tag k="natural" v="hill" />
		<tag k="place" v="locality" />
		<tag k="ssr:stedsnr" v="22342" />
	</node>
	<node lat="58.23556111322222" lon="7.135436114963789" id="-23040">
		<tag k="fixme" v="consider natural=peak for the most distinct mountains in the district" />
		<tag k="name" v="Kleveheia" />
		<tag k="natural" v="hill" />
		<tag k="place" v="locality" />
		<tag k="ssr:stedsnr" v="22491" />
	</node>
	<node lat="58.164158332995335" lon="7.150702776685903" id="-23041">
		<tag k="name" v="Heddeheia" />
		<tag k="natural" v="hill" />
		<tag k="place" v="locality" />
		<tag k="ssr:stedsnr" v="22904" />
	</node>
	<node lat="58.11144444823349" lon="7.17811666116677" id="-23042">
		<tag k="fixme" v="consider natural=peak for the most distinct mountains in the district" />
		<tag k="name" v="Berkehovden" />
		<tag k="natural" v="hill" />
		<tag k="place" v="locality" />
		<tag k="ssr:stedsnr" v="22932" />
	</node>
	<node lat="58.34755833438628" lon="7.361036104863336" id="-23071">
		<tag k="name" v="Bjorstedjan" />
		<tag k="place" v="locality" />
		<tag k="ssr:stedsnr" v="36167" />
	</node>
	<node lat="58.34878888995024" lon="7.321616666459798" id="-23072">
		<tag k="name" v="Stolebrokkå" />
		<tag k="natural" v="slope" />
		<tag k="place" v="locality" />
		<tag k="ssr:stedsnr" v="36168" />
	</node>
	<node lat="58.38894722033612" lon="7.411111119044804" id="-23074">
		<tag k="name" v="Myglebåsen" />
		<tag k="natural" v="hill" />
		<tag k="place" v="locality" />
		<tag k="ssr:stedsnr" v="36205" />
	</node>
	<node lat="58.257883331268346" lon="7.297350005612276" id="-23077">
		<tag k="name" v="Brokkekniben" />
		<tag k="natural" v="hill" />
		<tag k="place" v="locality" />
		<tag k="ssr:stedsnr" v="36224" />
	</node>
	<node lat="58.27334721768251" lon="7.29861110401689" id="-23078">
		<tag k="name" v="Hægelandsheia" />
		<tag k="natural" v="hill" />
		<tag k="place" v="locality" />
		<tag k="ssr:stedsnr" v="36264" />
	</node>
	<node lat="58.29004999829288" lon="7.2617138842090245" id="-23079">
		<tag k="name" v="Skofteli" />
		<tag k="natural" v="slope" />
		<tag k="place" v="locality" />
		<tag k="ssr:stedsnr" v="36271" />
	</node>
	<node lat="58.289349998116094" lon="7.283252774208009" id="-23080">
		<tag k="name" v="Spikkerensla" />
		<tag k="natural" v="slope" />
		<tag k="place" v="locality" />
		<tag k="ssr:stedsnr" v="36272" />
	</node>
	<node lat="58.40378888593665" lon="7.393577770383718" id="-23081">
		<tag k="name" v="Lian" />
		<tag k="natural" v="slope" />
		<tag k="place" v="locality" />
		<tag k="ssr:stedsnr" v="36286" />
	</node>
	<node lat="58.3079777782887" lon="7.373797225779557" id="-23083">
		<tag k="name" v="Støa" />
		<tag k="natural" v="valley" />
		<tag k="place" v="locality" />
		<tag k="ssr:stedsnr" v="36901" />
	</node>
	<node lat="58.31323888825281" lon="7.382858324836618" id="-23085">
		<tag k="name" v="Knoddedalen" />
		<tag k="natural" v="valley" />
		<tag k="place" v="locality" />
		<tag k="ssr:stedsnr" v="36909" />
	</node>
	<node lat="58.292338885131976" lon="7.350749996108871" id="-23086">
		<tag k="fixme" v="consider natural=peak for the most distinct mountains in the district" />
		<tag k="name" v="Hudefjellet" />
		<tag k="natural" v="hill" />
		<tag k="place" v="locality" />
		<tag k="ssr:stedsnr" v="36910" />
	</node>
	<node lat="58.297094448556145" lon="7.339269451268775" id="-23087">
		<tag k="fixme" v="consider natural=peak for the most distinct mountains in the district" />
		<tag k="name" v="Kvednåsen" />
		<tag k="natural" v="hill" />
		<tag k="place" v="locality" />
		<tag k="ssr:stedsnr" v="36913" />
	</node>
	<node lat="58.28711388914659" lon="7.2749500064756925" id="-23088">
		<tag k="fixme" v="consider natural=peak for the most distinct mountains in the district" />
		<tag k="name" v="Kjennbakken" />
		<tag k="natural" v="hill" />
		<tag k="place" v="locality" />
		<tag k="ssr:stedsnr" v="36922" />
	</node>
	<node lat="58.42301389326191" lon="7.440080550919023" id="-23090">
		<tag k="name" v="Lislemonen" />
		<tag k="place" v="locality" />
		<tag k="ssr:stedsnr" v="37107" />
	</node>
	<node lat="58.4231472200105" lon="7.454711110102957" id="-23091">
		<tag k="name" v="Siljordsdalen" />
		<tag k="natural" v="valley" />
		<tag k="place" v="locality" />
		<tag k="ssr:stedsnr" v="37108" />
	</node>
	<node lat="58.24982221861251" lon="7.355961111330757" id="-23095">
		<tag k="name" v="Gauksåsen" />
		<tag k="natural" v="hill" />
		<tag k="place" v="locality" />
		<tag k="ssr:stedsnr" v="36871" />
	</node>
	<node lat="58.26038055768214" lon="7.4011888829594055" id="-23098">
		<tag k="name" v="Gullgrubakken" />
		<tag k="natural" v="hill" />
		<tag k="place" v="locality" />
		<tag k="ssr:stedsnr" v="36883" />
	</node>
	<node lat="58.37760833707797" lon="7.367736117597102" id="-23099">
		<tag k="name" v="Langemoen" />
		<tag k="place" v="locality" />
		<tag k="ssr:stedsnr" v="37004" />
	</node>
	<node lat="58.37358333345241" lon="7.393436105085775" id="-23101">
		<tag k="name" v="Storliste" />
		<tag k="place" v="locality" />
		<tag k="ssr:stedsnr" v="37016" />
	</node>
	<node lat="58.429552780072754" lon="7.363544442691123" id="-23102">
		<tag k="loc_name" v="Slettåsbakkjen" />
		<tag k="name" v="Sletåsbakken" />
		<tag k="natural" v="hill" />
		<tag k="place" v="locality" />
		<tag k="ssr:stedsnr" v="37058" />
	</node>
	<node lat="58.430675000331874" lon="7.379500003080277" id="-23103">
		<tag k="fixme" v="consider natural=peak for the most distinct mountains in the district" />
		<tag k="loc_name" v="Migarsfjeddet" />
		<tag k="name" v="Migarsfjellet" />
		<tag k="natural" v="hill" />
		<tag k="place" v="locality" />
		<tag k="ssr:stedsnr" v="37061" />
	</node>
	<node lat="58.421638885255696" lon="7.394050001117548" id="-23104">
		<tag k="loc_name" v="Husefjeddæ" />
		<tag k="name" v="Husefjellet" />
		<tag k="natural" v="hill" />
		<tag k="place" v="locality" />
		<tag k="ssr:stedsnr" v="37064" />
	</node>
	<node lat="58.349824995994794" lon="7.3231416585378035" id="-23105">
		<tag k="fixme" v="consider natural=peak for the most distinct mountains in the district" />
		<tag k="name" v="Vindåsen" />
		<tag k="natural" v="hill" />
		<tag k="place" v="locality" />
		<tag k="ssr:stedsnr" v="37413" />
	</node>
	<node lat="58.34988332985799" lon="7.341019444366345" id="-23106">
		<tag k="name" v="Smålian" />
		<tag k="natural" v="slope" />
		<tag k="place" v="locality" />
		<tag k="ssr:stedsnr" v="37415" />
	</node>
	<node lat="58.38044722185947" lon="7.4058416604282575" id="-23107">
		<tag k="loc_name" v="Tuslarheiæ" />
		<tag k="name" v="Tuslarhei" />
		<tag k="natural" v="hill" />
		<tag k="place" v="locality" />
		<tag k="ssr:stedsnr" v="37418" />
	</node>
	<node lat="58.48310833565681" lon="7.384274994906421" id="-23110">
		<tag k="name" v="Brendeknodden" />
		<tag k="natural" v="hill" />
		<tag k="place" v="locality" />
		<tag k="ssr:stedsnr" v="37177" />
	</node>
	<node lat="58.36505833160241" lon="7.391555548663771" id="-23111">
		<tag k="name" v="Setehaug" />
		<tag k="natural" v="hill" />
		<tag k="place" v="locality" />
		<tag k="ssr:stedsnr" v="37962" />
	</node>
	<node lat="58.35537777609596" lon="7.36183334151844" id="-23112">
		<tag k="name" v="Flisdalen" />
		<tag k="natural" v="valley" />
		<tag k="place" v="locality" />
		<tag k="ssr:stedsnr" v="37963" />
	</node>
	<node lat="58.35648333368226" lon="7.3597361155627405" id="-23113">
		<tag k="name" v="Høgebrotan" />
		<tag k="natural" v="slope" />
		<tag k="place" v="locality" />
		<tag k="ssr:stedsnr" v="37964" />
	</node>
	<node lat="58.19382499904724" lon="6.934138882416371" id="-23228">
		<tag k="fixme" v="consider natural=peak for the most distinct mountains in the district" />
		<tag k="name" v="Kaldåsknipa" />
		<tag k="natural" v="hill" />
		<tag k="place" v="locality" />
		<tag k="ssr:stedsnr" v="61194" />
	</node>
	<node lat="58.39081944787258" lon="7.361141665006242" id="-23243">
		<tag k="alt_name" v="Toppafjellet" />
		<tag k="fixme" v="consider natural=peak for the most distinct mountains in the district" />
		<tag k="loc_name" v="Ytre Toppårfjeddet" />
		<tag k="name" v="Topparfjellet" />
		<tag k="natural" v="hill" />
		<tag k="place" v="locality" />
		<tag k="ssr:stedsnr" v="61973" />
	</node>
	<node lat="58.249044445810476" lon="7.148022220750889" id="-23257">
		<tag k="fixme" v="consider natural=peak for the most distinct mountains in the district" />
		<tag k="name" v="Standheia" />
		<tag k="natural" v="hill" />
		<tag k="place" v="locality" />
		<tag k="ssr:stedsnr" v="243384" />
	</node>
	<node lat="58.20302777748077" lon="6.978802785598357" id="-23267">
		<tag k="fixme" v="consider natural=peak for the most distinct mountains in the district" />
		<tag k="name" v="Stålåsen" />
		<tag k="natural" v="hill" />
		<tag k="place" v="locality" />
		<tag k="ssr:stedsnr" v="243421" />
	</node>
	<node lat="58.05478610854342" lon="7.009072225608845" id="-23276">
		<tag k="alt_name" v="Vederfjellet" />
		<tag k="fixme" v="consider natural=peak for the most distinct mountains in the district" />
		<tag k="name" v="Vedefjellet" />
		<tag k="natural" v="hill" />
		<tag k="place" v="locality" />
		<tag k="ssr:stedsnr" v="243581" />
	</node>
	<node lat="58.274061114232424" lon="7.374158327529559" id="-23282">
		<tag k="alt_name" v="Bjørnskarhei" />
		<tag k="loc_name" v="Bjønnskarheiå" />
		<tag k="name" v="Bjørnskardheia" />
		<tag k="natural" v="hill" />
		<tag k="place" v="locality" />
		<tag k="ssr:stedsnr" v="243825" />
	</node>
	<node lat="58.358322224523334" lon="7.3480499989753705" id="-23285">
		<tag k="alt_name" v="Heptehei" />
		<tag k="name" v="Hepteheii" />
		<tag k="natural" v="hill" />
		<tag k="place" v="locality" />
		<tag k="ssr:stedsnr" v="243969" />
	</node>
	<node lat="58.21032500317169" lon="7.036855557350315" id="-23286">
		<tag k="fixme" v="consider natural=peak for the most distinct mountains in the district" />
		<tag k="name" v="Furefjell" />
		<tag k="natural" v="hill" />
		<tag k="place" v="locality" />
		<tag k="ssr:stedsnr" v="82005" />
	</node>
	<node lat="58.20946111161583" lon="7.047944448261361" id="-23287">
		<tag k="name" v="Storestemmen" />
		<tag k="place" v="locality" />
		<tag k="ssr:stedsnr" v="82011" />
	</node>
	<node lat="58.27847777602117" lon="7.13368054837176" id="-23288">
		<tag k="name" v="Kraban" />
		<tag k="natural" v="slope" />
		<tag k="place" v="locality" />
		<tag k="ssr:stedsnr" v="82147" />
	</node>
	<node lat="58.22207500406759" lon="7.1076750018175785" id="-23290">
		<tag k="name" v="Gullkroken" />
		<tag k="natural" v="valley" />
		<tag k="place" v="locality" />
		<tag k="ssr:stedsnr" v="82191" />
	</node>
	<node lat="58.27210833345413" lon="7.253255554857547" id="-23292">
		<tag k="name" v="Hausbrokkheia" />
		<tag k="natural" v="hill" />
		<tag k="place" v="locality" />
		<tag k="ssr:stedsnr" v="82314" />
	</node>
	<node lat="58.21778332913483" lon="7.038291665128847" id="-23295">
		<tag k="name" v="Måkevannsdalen" />
		<tag k="natural" v="valley" />
		<tag k="place" v="locality" />
		<tag k="ssr:stedsnr" v="82098" />
	</node>
	<node lat="58.19172222350339" lon="7.158033340660429" id="-23297">
		<tag k="name" v="Engeland" />
		<tag k="place" v="locality" />
		<tag k="ssr:stedsnr" v="82205" />
	</node>
	<node lat="58.2538138863962" lon="7.217397213956041" id="-23298">
		<tag k="fixme" v="consider natural=peak for the most distinct mountains in the district" />
		<tag k="name" v="Krægleknipen" />
		<tag k="natural" v="hill" />
		<tag k="place" v="locality" />
		<tag k="ssr:stedsnr" v="82211" />
	</node>
	<node lat="58.261455553733185" lon="7.110913887578041" id="-23299">
		<tag k="fixme" v="consider natural=peak for the most distinct mountains in the district" />
		<tag k="name" v="Lieheia" />
		<tag k="natural" v="hill" />
		<tag k="place" v="locality" />
		<tag k="ssr:stedsnr" v="82224" />
	</node>
	<node lat="58.17365833014516" lon="7.078727784510796" id="-23301">
		<tag k="name" v="Graudebohelleren" />
		<tag k="place" v="locality" />
		<tag k="ssr:stedsnr" v="82407" />
	</node>
	<node lat="58.2398166635649" lon="7.139858332979001" id="-23303">
		<tag k="fixme" v="consider natural=peak for the most distinct mountains in the district" />
		<tag k="name" v="Ørneknipen" />
		<tag k="natural" v="hill" />
		<tag k="place" v="locality" />
		<tag k="ssr:stedsnr" v="82508" />
	</node>
	<node lat="58.240194444498556" lon="7.093061104945868" id="-23304">
		<tag k="name" v="Fenardalen" />
		<tag k="natural" v="valley" />
		<tag k="place" v="locality" />
		<tag k="ssr:stedsnr" v="82516" />
	</node>
	<node lat="58.10741388761799" lon="7.014869438974925" id="-23305">
		<tag k="fixme" v="consider natural=peak for the most distinct mountains in the district" />
		<tag k="name" v="Solåsen" />
		<tag k="natural" v="hill" />
		<tag k="place" v="locality" />
		<tag k="ssr:stedsnr" v="82708" />
	</node>
	<node lat="58.10161111007735" lon="7.007875001371104" id="-23307">
		<tag k="name" v="Ramsdalskaret" />
		<tag k="natural" v="valley" />
		<tag k="place" v="locality" />
		<tag k="ssr:stedsnr" v="82735" />
	</node>
	<node lat="58.13506111221747" lon="6.953233325563157" id="-23308">
		<tag k="name" v="Skogemonan" />
		<tag k="natural" v="slope" />
		<tag k="place" v="locality" />
		<tag k="ssr:stedsnr" v="82739" />
	</node>
	<node lat="58.14289999694168" lon="7.01913334162013" id="-23310">
		<tag k="name" v="Rødhella" />
		<tag k="place" v="locality" />
		<tag k="ssr:stedsnr" v="82752" />
	</node>
	<node lat="58.185247225613665" lon="6.93699165993201" id="-23311">
		<tag k="name" v="Grummedalen" />
		<tag k="natural" v="valley" />
		<tag k="place" v="locality" />
		<tag k="ssr:stedsnr" v="82482" />
	</node>
	<node lat="58.23366110675595" lon="7.219719437407687" id="-23313">
		<tag k="name" v="Geiteryggen" />
		<tag k="natural" v="ridge" />
		<tag k="place" v="locality" />
		<tag k="ssr:stedsnr" v="82609" />
	</node>
	<node lat="58.235436111916556" lon="7.2204000025702" id="-23314">
		<tag k="fixme" v="consider natural=peak for the most distinct mountains in the district" />
		<tag k="name" v="Ålgårdsåsen" />
		<tag k="natural" v="hill" />
		<tag k="place" v="locality" />
		<tag k="ssr:stedsnr" v="82610" />
	</node>
	<node lat="58.19497778164647" lon="7.236316667586238" id="-23315">
		<tag k="name" v="Moltemyrheia" />
		<tag k="natural" v="hill" />
		<tag k="place" v="locality" />
		<tag k="ssr:stedsnr" v="82623" />
	</node>
	<node lat="58.16101666931996" lon="6.917141662505369" id="-23318">
		<tag k="name" v="Botnan" />
		<tag k="natural" v="valley" />
		<tag k="place" v="locality" />
		<tag k="ssr:stedsnr" v="82646" />
	</node>
	<node lat="58.11298055736833" lon="7.076452777456359" id="-23320">
		<tag k="fixme" v="consider natural=peak for the most distinct mountains in the district" />
		<tag k="name" v="Uslettåsen" />
		<tag k="natural" v="hill" />
		<tag k="place" v="locality" />
		<tag k="ssr:stedsnr" v="82846" />
	</node>
	<node lat="58.21248888784282" lon="7.144613889112524" id="-23323">
		<tag k="name" v="Bjørnelia" />
		<tag k="natural" v="slope" />
		<tag k="place" v="locality" />
		<tag k="ssr:stedsnr" v="83295" />
	</node>
	<node lat="58.21860833339668" lon="7.1541222143349135" id="-23324">
		<tag k="name" v="Rudjordslia" />
		<tag k="natural" v="slope" />
		<tag k="place" v="locality" />
		<tag k="ssr:stedsnr" v="83300" />
	</node>
	<node lat="58.46608610991938" lon="7.412075002083286" id="-23328">
		<tag k="loc_name" v="Heddarknodden" />
		<tag k="name" v="Hedderen" />
		<tag k="natural" v="hill" />
		<tag k="place" v="locality" />
		<tag k="ssr:stedsnr" v="97114" />
	</node>
	<node lat="58.46132499771211" lon="7.422397214005051" id="-23329">
		<tag k="name" v="Hallbratthei" />
		<tag k="natural" v="hill" />
		<tag k="place" v="locality" />
		<tag k="ssr:stedsnr" v="97116" />
	</node>
	<node lat="58.457438891740246" lon="7.448080558102581" id="-23330">
		<tag k="name" v="Blonnestadfjell" />
		<tag k="natural" v="hill" />
		<tag k="place" v="locality" />
		<tag k="ssr:stedsnr" v="97119" />
	</node>
	<node lat="58.49459166840804" lon="7.367019451683949" id="-23331">
		<tag k="fixme" v="consider natural=peak for the most distinct mountains in the district" />
		<tag k="name" v="Ørneknodden" />
		<tag k="natural" v="hill" />
		<tag k="place" v="locality" />
		<tag k="ssr:stedsnr" v="97129" />
	</node>
	<node lat="58.35563333181164" lon="7.3306694519461875" id="-23334">
		<tag k="name" v="Solbakkjen" />
		<tag k="natural" v="hill" />
		<tag k="place" v="locality" />
		<tag k="ssr:stedsnr" v="97207" />
	</node>
	<node lat="58.26378889047842" lon="7.3131638959622896" id="-23336">
		<tag k="name" v="Eigelandshei" />
		<tag k="natural" v="hill" />
		<tag k="place" v="locality" />
		<tag k="ssr:stedsnr" v="97262" />
	</node>
	<node lat="58.27310555686598" lon="7.287372218756235" id="-23338">
		<tag k="fixme" v="consider natural=peak for the most distinct mountains in the district" />
		<tag k="name" v="Nonåsen" />
		<tag k="natural" v="hill" />
		<tag k="place" v="locality" />
		<tag k="ssr:stedsnr" v="97267" />
	</node>
	<node lat="58.275997222547026" lon="7.310358337539937" id="-23340">
		<tag k="fixme" v="consider natural=peak for the most distinct mountains in the district" />
		<tag k="name" v="Høgåsen" />
		<tag k="natural" v="hill" />
		<tag k="place" v="locality" />
		<tag k="ssr:stedsnr" v="97307" />
	</node>
	<node lat="58.41788888546617" lon="7.315133325129671" id="-23341">
		<tag k="fixme" v="consider natural=peak for the most distinct mountains in the district" />
		<tag k="loc_name" v="Stainåsen" />
		<tag k="name" v="Stongåsen" />
		<tag k="natural" v="hill" />
		<tag k="place" v="locality" />
		<tag k="ssr:stedsnr" v="97318" />
	</node>
	<node lat="58.41662499712712" lon="7.460513891580542" id="-23342">
		<tag k="name" v="Heptedalen" />
		<tag k="natural" v="valley" />
		<tag k="place" v="locality" />
		<tag k="ssr:stedsnr" v="97377" />
	</node>
	<node lat="58.26702222289436" lon="7.337772218889371" id="-23343">
		<tag k="name" v="Risbakken" />
		<tag k="natural" v="hill" />
		<tag k="place" v="locality" />
		<tag k="ssr:stedsnr" v="97820" />
	</node>
	<node lat="58.27366389081136" lon="7.326722221729154" id="-23344">
		<tag k="loc_name" v="Kjøreberget" />
		<tag k="name" v="Tjøreberget" />
		<tag k="natural" v="hill" />
		<tag k="place" v="locality" />
		<tag k="ssr:stedsnr" v="97825" />
	</node>
	<node lat="58.28523888537201" lon="7.3697083413183115" id="-23347">
		<tag k="name" v="Eigeskaret" />
		<tag k="natural" v="valley" />
		<tag k="place" v="locality" />
		<tag k="ssr:stedsnr" v="97914" />
	</node>
	<node lat="58.281130551742145" lon="7.307013884511029" id="-23349">
		<tag k="fixme" v="consider natural=peak for the most distinct mountains in the district" />
		<tag k="loc_name" v="Fålkefjelle" />
		<tag k="name" v="Folkefjellet" />
		<tag k="natural" v="hill" />
		<tag k="place" v="locality" />
		<tag k="ssr:stedsnr" v="97928" />
	</node>
	<node lat="58.26690833498667" lon="7.401469443336902" id="-23351">
		<tag k="loc_name" v="St.Olavs kjelle" />
		<tag k="name" v="St. Olavs kjelde" />
		<tag k="place" v="locality" />
		<tag k="ssr:stedsnr" v="97863" />
	</node>
	<node lat="58.37439166311362" lon="7.383261104074647" id="-23353">
		<tag k="fixme" v="consider natural=peak for the most distinct mountains in the district" />
		<tag k="name" v="Kjørfjeddan" />
		<tag k="natural" v="hill" />
		<tag k="place" v="locality" />
		<tag k="ssr:stedsnr" v="98017" />
	</node>
	<node lat="58.42398611166632" lon="7.446594444793833" id="-23356">
		<tag k="name" v="Bjørnehiet" />
		<tag k="place" v="locality" />
		<tag k="ssr:stedsnr" v="98070" />
	</node>
	<node lat="58.445433330662155" lon="7.440319451192888" id="-23358">
		<tag k="loc_name" v="Buffedalen" />
		<tag k="name" v="Bufferdalen" />
		<tag k="natural" v="valley" />
		<tag k="place" v="locality" />
		<tag k="ssr:stedsnr" v="98116" />
	</node>
	<node lat="58.44079722384363" lon="7.352841672474352" id="-23360">
		<tag k="loc_name" v="Skynneråsen" />
		<tag k="name" v="Sjinderåsen" />
		<tag k="natural" v="hill" />
		<tag k="place" v="locality" />
		<tag k="ssr:stedsnr" v="98403" />
	</node>
	<node lat="58.34555277867713" lon="7.332813887244359" id="-23361">
		<tag k="name" v="Lunddalen" />
		<tag k="natural" v="valley" />
		<tag k="place" v="locality" />
		<tag k="ssr:stedsnr" v="98413" />
	</node>
	<node lat="58.449144439997845" lon="7.3933777711698125" id="-23362">
		<tag k="name" v="Buvatnhei" />
		<tag k="natural" v="hill" />
		<tag k="place" v="locality" />
		<tag k="ssr:stedsnr" v="98359" />
	</node>
	<node lat="58.328577775693276" lon="7.404222226269324" id="-23363">
		<tag k="fixme" v="consider natural=peak for the most distinct mountains in the district" />
		<tag k="name" v="Boråsen" />
		<tag k="natural" v="hill" />
		<tag k="place" v="locality" />
		<tag k="ssr:stedsnr" v="98983" />
	</node>
	<node lat="58.386422225462326" lon="7.413180549181634" id="-23459">
		<tag k="alt_name" v="Klovsteinheia" />
		<tag k="name" v="Klovsteinsheii" />
		<tag k="natural" v="hill" />
		<tag k="place" v="locality" />
		<tag k="ssr:stedsnr" v="121983" />
	</node>
	<node lat="58.42980000028885" lon="7.472166665656752" id="-23462">
		<tag k="name" v="Selandsdalen" />
		<tag k="natural" v="valley" />
		<tag k="place" v="locality" />
		<tag k="ssr:stedsnr" v="121876" />
	</node>
	<node lat="58.232100000587764" lon="7.050086106241843" id="-23463">
		<tag k="fixme" v="consider natural=peak for the most distinct mountains in the district" />
		<tag k="name" v="Svillingsheia" />
		<tag k="natural" v="hill" />
		<tag k="place" v="locality" />
		<tag k="ssr:stedsnr" v="142092" />
	</node>
	<node lat="58.21754166981941" lon="7.136266665323454" id="-23464">
		<tag k="name" v="Brokka" />
		<tag k="natural" v="slope" />
		<tag k="place" v="locality" />
		<tag k="ssr:stedsnr" v="142202" />
	</node>
	<node lat="58.22979166914409" lon="7.088125005340762" id="-23465">
		<tag k="fixme" v="consider natural=peak for the most distinct mountains in the district" />
		<tag k="name" v="Husefjell" />
		<tag k="natural" v="hill" />
		<tag k="place" v="locality" />
		<tag k="ssr:stedsnr" v="142205" />
	</node>
	<node lat="58.22337499806681" lon="7.066033333563814" id="-23466">
		<tag k="name" v="Lian" />
		<tag k="natural" v="slope" />
		<tag k="place" v="locality" />
		<tag k="ssr:stedsnr" v="142107" />
	</node>
	<node lat="58.261869447895826" lon="7.141741665701849" id="-23468">
		<tag k="name" v="Skareheia" />
		<tag k="natural" v="hill" />
		<tag k="place" v="locality" />
		<tag k="ssr:stedsnr" v="142182" />
	</node>
	<node lat="58.22877777794032" lon="7.18023888605488" id="-23471">
		<tag k="name" v="Vindåsskaret" />
		<tag k="natural" v="valley" />
		<tag k="place" v="locality" />
		<tag k="ssr:stedsnr" v="142309" />
	</node>
	<node lat="58.18302778037095" lon="7.100130548966463" id="-23473">
		<tag k="name" v="Med ura" />
		<tag k="place" v="locality" />
		<tag k="ssr:stedsnr" v="142383" />
	</node>
	<node lat="58.171544443968834" lon="7.0796472147496345" id="-23475">
		<tag k="fixme" v="consider natural=peak for the most distinct mountains in the district" />
		<tag k="name" v="Ingridåsen" />
		<tag k="natural" v="hill" />
		<tag k="place" v="locality" />
		<tag k="ssr:stedsnr" v="142400" />
	</node>
	<node lat="58.178086112096636" lon="7.0810361144102565" id="-23476">
		<tag k="name" v="Bringsjordheia" />
		<tag k="natural" v="hill" />
		<tag k="place" v="locality" />
		<tag k="ssr:stedsnr" v="142401" />
	</node>
	<node lat="58.13097222610828" lon="7.215749992810163" id="-23482">
		<tag k="name" v="Hestebransheia" />
		<tag k="natural" v="hill" />
		<tag k="place" v="locality" />
		<tag k="ssr:stedsnr" v="142411" />
	</node>
	<node lat="58.15868889104911" lon="7.138311112841762" id="-23483">
		<tag k="fixme" v="consider natural=peak for the most distinct mountains in the district" />
		<tag k="name" v="Bjørnen" />
		<tag k="natural" v="hill" />
		<tag k="place" v="locality" />
		<tag k="ssr:stedsnr" v="142430" />
	</node>
	<node lat="58.12999722086427" lon="7.112736105326196" id="-23484">
		<tag k="fixme" v="consider natural=peak for the most distinct mountains in the district" />
		<tag k="name" v="Eigåsen" />
		<tag k="natural" v="hill" />
		<tag k="place" v="locality" />
		<tag k="ssr:stedsnr" v="142416" />
	</node>
	<node lat="58.13843610864244" lon="7.114886116769161" id="-23486">
		<tag k="name" v="Rennelåsfjellet" />
		<tag k="natural" v="hill" />
		<tag k="place" v="locality" />
		<tag k="ssr:stedsnr" v="142418" />
	</node>
	<node lat="58.12085278125567" lon="7.109749995519959" id="-23490">
		<tag k="fixme" v="consider natural=peak for the most distinct mountains in the district" />
		<tag k="name" v="Nonåsen" />
		<tag k="natural" v="hill" />
		<tag k="place" v="locality" />
		<tag k="ssr:stedsnr" v="142830" />
	</node>
	<node lat="58.104272223523715" lon="7.129725005813534" id="-23491">
		<tag k="fixme" v="consider natural=peak for the most distinct mountains in the district" />
		<tag k="name" v="Eigeheia" />
		<tag k="natural" v="hill" />
		<tag k="place" v="locality" />
		<tag k="ssr:stedsnr" v="142833" />
	</node>
	<node lat="58.099605556565685" lon="7.091002773552634" id="-23493">
		<tag k="name" v="Storeheia" />
		<tag k="natural" v="hill" />
		<tag k="place" v="locality" />
		<tag k="ssr:stedsnr" v="142850" />
	</node>
	<node lat="58.1489111126817" lon="7.051297216364775" id="-23495">
		<tag k="name" v="Fareheia" />
		<tag k="natural" v="hill" />
		<tag k="place" v="locality" />
		<tag k="ssr:stedsnr" v="142859" />
	</node>
	<node lat="58.14655000208283" lon="7.031747228246424" id="-23498">
		<tag k="name" v="Hobden" />
		<tag k="natural" v="hill" />
		<tag k="place" v="locality" />
		<tag k="ssr:stedsnr" v="142902" />
	</node>
	<node lat="58.14825833203622" lon="7.152361110768609" id="-23502">
		<tag k="name" v="Floda" />
		<tag k="natural" v="slope" />
		<tag k="place" v="locality" />
		<tag k="ssr:stedsnr" v="142951" />
	</node>
	<node lat="58.14019444276725" lon="7.140983326662857" id="-23503">
		<tag k="name" v="Groheia" />
		<tag k="natural" v="hill" />
		<tag k="place" v="locality" />
		<tag k="ssr:stedsnr" v="142954" />
	</node>
	<node lat="58.29085278155114" lon="7.177944443061913" id="-23504">
		<tag k="name" v="Kalleskaret" />
		<tag k="natural" v="valley" />
		<tag k="place" v="locality" />
		<tag k="ssr:stedsnr" v="143220" />
	</node>
	<node lat="58.28321111211458" lon="7.190513888732066" id="-23505">
		<tag k="name" v="Lunden" />
		<tag k="place" v="locality" />
		<tag k="ssr:stedsnr" v="143223" />
	</node>
	<node lat="58.2777694448509" lon="7.181844439588561" id="-23506">
		<tag k="name" v="Fidjelia" />
		<tag k="natural" v="slope" />
		<tag k="place" v="locality" />
		<tag k="ssr:stedsnr" v="143224" />
	</node>
	<node lat="58.29295278107357" lon="7.2071500020003505" id="-23507">
		<tag k="fixme" v="consider natural=peak for the most distinct mountains in the district" />
		<tag k="name" v="Falkefjell" />
		<tag k="natural" v="hill" />
		<tag k="place" v="locality" />
		<tag k="ssr:stedsnr" v="143328" />
	</node>
	<node lat="58.33338332982593" lon="7.422124998357106" id="-23508">
		<tag k="name" v="Maurbakken" />
		<tag k="natural" v="slope" />
		<tag k="place" v="locality" />
		<tag k="ssr:stedsnr" v="143333" />
	</node>
	<node lat="58.23420000284735" lon="7.1209500024488435" id="-23509">
		<tag k="fixme" v="consider natural=peak for the most distinct mountains in the district" />
		<tag k="name" v="Homplandsknollen" />
		<tag k="natural" v="hill" />
		<tag k="place" v="locality" />
		<tag k="ssr:stedsnr" v="143502" />
	</node>
	<node lat="58.2390388852674" lon="7.110672224451755" id="-23510">
		<tag k="fixme" v="consider natural=peak for the most distinct mountains in the district" />
		<tag k="name" v="Bjensliheia" />
		<tag k="natural" v="hill" />
		<tag k="place" v="locality" />
		<tag k="ssr:stedsnr" v="143509" />
	</node>
	<node lat="58.47469167106862" lon="7.448822215308498" id="-23519">
		<tag k="fixme" v="consider natural=peak for the most distinct mountains in the district" />
		<tag k="name" v="Skarehei" />
		<tag k="natural" v="hill" />
		<tag k="place" v="locality" />
		<tag k="ssr:stedsnr" v="157097" />
	</node>
	<node lat="58.46340000117133" lon="7.376972226256752" id="-23520">
		<tag k="name" v="Åsen" />
		<tag k="natural" v="hill" />
		<tag k="place" v="locality" />
		<tag k="ssr:stedsnr" v="157105" />
	</node>
	<node lat="58.46709722255925" lon="7.387233329323157" id="-23521">
		<tag k="loc_name" v="Enkjerfjeddan" />
		<tag k="name" v="Enkjerfjellet" />
		<tag k="natural" v="hill" />
		<tag k="place" v="locality" />
		<tag k="ssr:stedsnr" v="157108" />
	</node>
	<node lat="58.37706389028222" lon="7.370366664904173" id="-23523">
		<tag k="name" v="Tainlaie" />
		<tag k="place" v="locality" />
		<tag k="ssr:stedsnr" v="158007" />
	</node>
	<node lat="58.37623889097979" lon="7.357983325033078" id="-23524">
		<tag k="name" v="Kvassekleiv" />
		<tag k="natural" v="slope" />
		<tag k="place" v="locality" />
		<tag k="ssr:stedsnr" v="158011" />
	</node>
	<node lat="58.376363890270106" lon="7.375002782172373" id="-23525">
		<tag k="name" v="Kalveskora" />
		<tag k="place" v="locality" />
		<tag k="ssr:stedsnr" v="158014" />
	</node>
	<node lat="58.46938889255209" lon="7.410783337096684" id="-23527">
		<tag k="fixme" v="consider natural=peak for the most distinct mountains in the district" />
		<tag k="name" v="Langemohei" />
		<tag k="natural" v="hill" />
		<tag k="place" v="locality" />
		<tag k="ssr:stedsnr" v="158158" />
	</node>
	<node lat="58.33892499721453" lon="7.327208325939117" id="-23528">
		<tag k="name" v="Hellevannshei" />
		<tag k="natural" v="hill" />
		<tag k="place" v="locality" />
		<tag k="ssr:stedsnr" v="158310" />
	</node>
	<node lat="58.283680559391705" lon="7.301805555742442" id="-23529">
		<tag k="name" v="Vardehei" />
		<tag k="natural" v="hill" />
		<tag k="place" v="locality" />
		<tag k="ssr:stedsnr" v="158316" />
	</node>
	<node lat="58.37683055661174" lon="7.322769447071813" id="-23530">
		<tag k="name" v="Blomlidalen" />
		<tag k="natural" v="valley" />
		<tag k="place" v="locality" />
		<tag k="ssr:stedsnr" v="158350" />
	</node>
	<node lat="58.43733888806775" lon="7.483133335507206" id="-23531">
		<tag k="loc_name" v="Ryllensfjeddan" />
		<tag k="name" v="Ryllensfjell" />
		<tag k="natural" v="hill" />
		<tag k="place" v="locality" />
		<tag k="ssr:stedsnr" v="158355" />
	</node>
	<node lat="58.34884722592034" lon="7.392011116595136" id="-23534">
		<tag k="name" v="Under Lian" />
		<tag k="natural" v="slope" />
		<tag k="place" v="locality" />
		<tag k="ssr:stedsnr" v="158250" />
	</node>
	<node lat="58.26054166425688" lon="7.381833329815079" id="-23536">
		<tag k="name" v="Øyan" />
		<tag k="natural" v="hill" />
		<tag k="place" v="locality" />
		<tag k="ssr:stedsnr" v="158253" />
	</node>
	<node lat="58.39324444800298" lon="7.425150002191825" id="-23537">
		<tag k="fixme" v="consider natural=peak for the most distinct mountains in the district" />
		<tag k="name" v="Spydalsknuten" />
		<tag k="natural" v="hill" />
		<tag k="place" v="locality" />
		<tag k="ssr:stedsnr" v="158254" />
	</node>
	<node lat="58.29199722499144" lon="7.314780557979216" id="-23538">
		<tag k="fixme" v="consider natural=peak for the most distinct mountains in the district" />
		<tag k="loc_name" v="Lyknuden" />
		<tag k="name" v="Lyknuten" />
		<tag k="natural" v="hill" />
		<tag k="place" v="locality" />
		<tag k="ssr:stedsnr" v="158406" />
	</node>
	<node lat="58.31470000140061" lon="7.376794444970271" id="-23539">
		<tag k="name" v="Einardalen" />
		<tag k="natural" v="valley" />
		<tag k="place" v="locality" />
		<tag k="ssr:stedsnr" v="158914" />
	</node>
	<node lat="58.27834444399362" lon="7.3087694480929475" id="-23540">
		<tag k="name" v="Langemyrbakken" />
		<tag k="natural" v="ridge" />
		<tag k="place" v="locality" />
		<tag k="ssr:stedsnr" v="158948" />
	</node>
	<node lat="58.357488888419226" lon="7.311855562191955" id="-23542">
		<tag k="name" v="Lemmen" />
		<tag k="natural" v="ridge" />
		<tag k="place" v="locality" />
		<tag k="ssr:stedsnr" v="158962" />
	</node>
	<node lat="58.355819444383016" lon="7.352083329455031" id="-23543">
		<tag k="name" v="Ringebrokka" />
		<tag k="natural" v="slope" />
		<tag k="place" v="locality" />
		<tag k="ssr:stedsnr" v="158963" />
	</node>
	<node lat="58.3053305522216" lon="7.344005560324453" id="-23548">
		<tag k="fixme" v="consider natural=peak for the most distinct mountains in the district" />
		<tag k="name" v="Heiersåsen" />
		<tag k="natural" v="hill" />
		<tag k="place" v="locality" />
		<tag k="ssr:stedsnr" v="158899" />
	</node>
	<node lat="58.07155278131251" lon="7.017405551447887" id="-23550">
		<tag k="fixme" v="consider natural=peak for the most distinct mountains in the district" />
		<tag k="name" v="Boråsen" />
		<tag k="natural" v="hill" />
		<tag k="place" v="locality" />
		<tag k="ssr:stedsnr" v="324705" />
	</node>
	<node lat="58.0522916669801" lon="7.010758332226546" id="-23551">
		<tag k="name" v="Flæsa" />
		<tag k="place" v="locality" />
		<tag k="ssr:stedsnr" v="324708" />
	</node>
	<node lat="58.21405555753748" lon="7.223077774216352" id="-23639">
		<tag k="fixme" v="consider natural=peak for the most distinct mountains in the district" />
		<tag k="name" v="Dovreheia" />
		<tag k="natural" v="hill" />
		<tag k="place" v="locality" />
		<tag k="ssr:stedsnr" v="182409" />
	</node>
	<node lat="58.231563889098005" lon="7.168355559678736" id="-23666">
		<tag k="name" v="Bakkan" />
		<tag k="natural" v="slope" />
		<tag k="place" v="locality" />
		<tag k="ssr:stedsnr" v="264300" />
	</node>
	<node lat="58.27735277976252" lon="7.264244436841209" id="-23667">
		<tag k="name" v="Høghei" />
		<tag k="natural" v="hill" />
		<tag k="place" v="locality" />
		<tag k="ssr:stedsnr" v="264334" />
	</node>
	<node lat="58.18134722069024" lon="7.118625006277994" id="-23670">
		<tag k="name" v="Mosebergan" />
		<tag k="natural" v="slope" />
		<tag k="place" v="locality" />
		<tag k="ssr:stedsnr" v="264401" />
	</node>
	<node lat="58.13748610731756" lon="7.212525001968178" id="-23673">
		<tag k="fixme" v="consider natural=peak for the most distinct mountains in the district" />
		<tag k="name" v="Myrbakken" />
		<tag k="natural" v="hill" />
		<tag k="place" v="locality" />
		<tag k="ssr:stedsnr" v="264422" />
	</node>
	<node lat="58.19014444162161" lon="6.990944439801506" id="-23674">
		<tag k="fixme" v="consider natural=peak for the most distinct mountains in the district" />
		<tag k="name" v="Bronåsen" />
		<tag k="natural" v="hill" />
		<tag k="place" v="locality" />
		<tag k="ssr:stedsnr" v="264461" />
	</node>
	<node lat="58.2091972241317" lon="6.997233329815671" id="-23675">
		<tag k="name" v="Kalvekrona" />
		<tag k="natural" v="valley" />
		<tag k="place" v="locality" />
		<tag k="ssr:stedsnr" v="264047" />
	</node>
	<node lat="58.22880555781592" lon="6.9797166584354295" id="-23678">
		<tag k="name" v="Slettheia" />
		<tag k="natural" v="hill" />
		<tag k="place" v="locality" />
		<tag k="ssr:stedsnr" v="264058" />
	</node>
	<node lat="58.219344444497814" lon="7.010413889887667" id="-23679">
		<tag k="name" v="Jernkleiva" />
		<tag k="natural" v="slope" />
		<tag k="place" v="locality" />
		<tag k="ssr:stedsnr" v="264061" />
	</node>
	<node lat="58.272955553711576" lon="7.093424997500912" id="-23681">
		<tag k="name" v="Skåreheia" />
		<tag k="natural" v="hill" />
		<tag k="place" v="locality" />
		<tag k="ssr:stedsnr" v="264147" />
	</node>
	<node lat="58.27367222205186" lon="7.140497221081261" id="-23683">
		<tag k="name" v="Borgedalan" />
		<tag k="natural" v="valley" />
		<tag k="place" v="locality" />
		<tag k="ssr:stedsnr" v="264158" />
	</node>
	<node lat="58.21228888454673" lon="7.134627779526289" id="-23684">
		<tag k="name" v="Småbakkan" />
		<tag k="natural" v="slope" />
		<tag k="place" v="locality" />
		<tag k="ssr:stedsnr" v="264163" />
	</node>
	<node lat="58.191961109636274" lon="7.106433337529911" id="-23688">
		<tag k="name" v="Bjarneskoran" />
		<tag k="place" v="locality" />
		<tag k="ssr:stedsnr" v="264120" />
	</node>
	<node lat="58.24609722571244" lon="7.078069452232294" id="-23690">
		<tag k="fixme" v="consider natural=peak for the most distinct mountains in the district" />
		<tag k="name" v="Røyåsen" />
		<tag k="natural" v="hill" />
		<tag k="place" v="locality" />
		<tag k="ssr:stedsnr" v="264132" />
	</node>
	<node lat="58.23647222284579" lon="7.19373332685232" id="-23695">
		<tag k="name" v="Kyrkjebakken" />
		<tag k="natural" v="slope" />
		<tag k="place" v="locality" />
		<tag k="ssr:stedsnr" v="264220" />
	</node>
	<node lat="58.238172225422275" lon="7.19502777291475" id="-23696">
		<tag k="name" v="Risebakken" />
		<tag k="natural" v="slope" />
		<tag k="place" v="locality" />
		<tag k="ssr:stedsnr" v="264221" />
	</node>
	<node lat="58.17465833182459" lon="7.228108332090489" id="-23698">
		<tag k="name" v="Sandeskarheia" />
		<tag k="natural" v="hill" />
		<tag k="place" v="locality" />
		<tag k="ssr:stedsnr" v="264350" />
	</node>
	<node lat="58.157675003000016" lon="7.226569443838019" id="-23699">
		<tag k="name" v="Rødlandsknodden" />
		<tag k="natural" v="ridge" />
		<tag k="place" v="locality" />
		<tag k="ssr:stedsnr" v="264360" />
	</node>
	<node lat="58.298191668522556" lon="7.204061112988673" id="-23700">
		<tag k="name" v="Hobmannsberget" />
		<tag k="natural" v="hill" />
		<tag k="place" v="locality" />
		<tag k="ssr:stedsnr" v="264362" />
	</node>
	<node lat="58.307977775135875" lon="7.209444442699378" id="-23701">
		<tag k="name" v="Slåtta" />
		<tag k="natural" v="slope" />
		<tag k="place" v="locality" />
		<tag k="ssr:stedsnr" v="264364" />
	</node>
	<node lat="58.2502944439635" lon="7.116444447597356" id="-23702">
		<tag k="name" v="Finnesheia" />
		<tag k="natural" v="hill" />
		<tag k="place" v="locality" />
		<tag k="ssr:stedsnr" v="264378" />
	</node>
	<node lat="58.059411112090714" lon="7.0724388899805515" id="-23705">
		<tag k="fixme" v="consider natural=peak for the most distinct mountains in the district" />
		<tag k="name" v="Hengefjellet" />
		<tag k="natural" v="hill" />
		<tag k="place" v="locality" />
		<tag k="ssr:stedsnr" v="264826" />
	</node>
	<node lat="58.15120832935612" lon="7.1693750031764925" id="-23707">
		<tag k="name" v="Lundefjellet" />
		<tag k="natural" v="hill" />
		<tag k="place" v="locality" />
		<tag k="ssr:stedsnr" v="265963" />
	</node>
	<node lat="58.17472221923495" lon="7.028711114378733" id="-23709">
		<tag k="fixme" v="consider natural=peak for the most distinct mountains in the district" />
		<tag k="name" v="Ravnefjell" />
		<tag k="natural" v="hill" />
		<tag k="place" v="locality" />
		<tag k="ssr:stedsnr" v="264466" />
	</node>
	<node lat="58.22947778196201" lon="6.932483327519139" id="-23711">
		<tag k="fixme" v="consider natural=peak for the most distinct mountains in the district" />
		<tag k="name" v="Molteheia" />
		<tag k="natural" v="hill" />
		<tag k="place" v="locality" />
		<tag k="ssr:stedsnr" v="264474" />
	</node>
	<node lat="58.27273055155309" lon="7.181386119661327" id="-23713">
		<tag k="name" v="Solkniben" />
		<tag k="natural" v="hill" />
		<tag k="place" v="locality" />
		<tag k="ssr:stedsnr" v="264561" />
	</node>
	<node lat="58.26701666269067" lon="7.193116666533124" id="-23714">
		<tag k="name" v="Halsen" />
		<tag k="natural" v="valley" />
		<tag k="place" v="locality" />
		<tag k="ssr:stedsnr" v="264562" />
	</node>
	<node lat="58.08073055996389" lon="6.979238882329069" id="-23716">
		<tag k="fixme" v="consider natural=peak for the most distinct mountains in the district" />
		<tag k="name" v="Fløyheia" />
		<tag k="natural" v="hill" />
		<tag k="place" v="locality" />
		<tag k="ssr:stedsnr" v="264654" />
	</node>
	<node lat="58.1771222263645" lon="6.900986112119806" id="-23717">
		<tag k="name" v="Surtansheia" />
		<tag k="natural" v="hill" />
		<tag k="place" v="locality" />
		<tag k="ssr:stedsnr" v="264663" />
	</node>
	<node lat="58.14366666861594" lon="6.9853805531982065" id="-23722">
		<tag k="fixme" v="consider natural=peak for the most distinct mountains in the district" />
		<tag k="name" v="Kyrefjell" />
		<tag k="natural" v="hill" />
		<tag k="place" v="locality" />
		<tag k="ssr:stedsnr" v="264762" />
	</node>
	<node lat="58.137966666965056" lon="7.004266670154334" id="-23723">
		<tag k="fixme" v="consider natural=peak for the most distinct mountains in the district" />
		<tag k="name" v="Ravnefjellet" />
		<tag k="natural" v="hill" />
		<tag k="place" v="locality" />
		<tag k="ssr:stedsnr" v="264763" />
	</node>
	<node lat="58.23643332990032" lon="7.114583334038214" id="-23725">
		<tag k="fixme" v="consider natural=peak for the most distinct mountains in the district" />
		<tag k="name" v="Fugleheia" />
		<tag k="natural" v="hill" />
		<tag k="place" v="locality" />
		<tag k="ssr:stedsnr" v="264515" />
	</node>
	<node lat="58.22496666334227" lon="7.240375006865512" id="-23728">
		<tag k="name" v="Mallisvarden" />
		<tag k="natural" v="ridge" />
		<tag k="place" v="locality" />
		<tag k="ssr:stedsnr" v="264622" />
	</node>
	<node lat="58.12165000441318" lon="7.03051111842888" id="-23730">
		<tag k="fixme" v="consider natural=peak for the most distinct mountains in the district" />
		<tag k="name" v="Heståsen" />
		<tag k="natural" v="hill" />
		<tag k="place" v="locality" />
		<tag k="ssr:stedsnr" v="264724" />
	</node>
	<node lat="58.09247778160266" lon="7.037541670515058" id="-23731">
		<tag k="fixme" v="consider natural=peak for the most distinct mountains in the district" />
		<tag k="name" v="Stølshammer" />
		<tag k="natural" v="hill" />
		<tag k="place" v="locality" />
		<tag k="ssr:stedsnr" v="264864" />
	</node>
	<node lat="58.12753333163772" lon="7.043158338968826" id="-23733">
		<tag k="fixme" v="consider natural=peak for the most distinct mountains in the district" />
		<tag k="name" v="Bjørkebakkene" />
		<tag k="natural" v="hill" />
		<tag k="place" v="locality" />
		<tag k="ssr:stedsnr" v="264877" />
	</node>
	<node lat="58.151372222922674" lon="7.144569452266367" id="-23735">
		<tag k="name" v="Støyden" />
		<tag k="natural" v="hill" />
		<tag k="place" v="locality" />
		<tag k="ssr:stedsnr" v="264961" />
	</node>
	<node lat="58.1206194401513" lon="7.18068055654837" id="-23736">
		<tag k="name" v="Lindlia" />
		<tag k="natural" v="slope" />
		<tag k="place" v="locality" />
		<tag k="ssr:stedsnr" v="265880" />
	</node>
	<node lat="58.29240277991923" lon="7.175413885675434" id="-23739">
		<tag k="name" v="Buliheia" />
		<tag k="natural" v="hill" />
		<tag k="place" v="locality" />
		<tag k="ssr:stedsnr" v="265263" />
	</node>
	<node lat="58.28961667051696" lon="7.174694442106841" id="-23740">
		<tag k="fixme" v="consider natural=peak for the most distinct mountains in the district" />
		<tag k="name" v="Bukkeknodden" />
		<tag k="natural" v="hill" />
		<tag k="place" v="locality" />
		<tag k="ssr:stedsnr" v="265267" />
	</node>
	<node lat="58.2828888874664" lon="7.182547224162647" id="-23743">
		<tag k="name" v="Jernkleiva" />
		<tag k="natural" v="slope" />
		<tag k="place" v="locality" />
		<tag k="ssr:stedsnr" v="265279" />
	</node>
	<node lat="58.22526944587084" lon="7.210577775165515" id="-23746">
		<tag k="name" v="Radeheia" />
		<tag k="natural" v="hill" />
		<tag k="place" v="locality" />
		<tag k="ssr:stedsnr" v="265294" />
	</node>
	<node lat="58.21488055790554" lon="7.198111106977035" id="-23747">
		<tag k="name" v="Heddeskar" />
		<tag k="natural" v="valley" />
		<tag k="place" v="locality" />
		<tag k="ssr:stedsnr" v="265297" />
	</node>
	<node lat="58.11025000309288" lon="7.150911118979233" id="-23750">
		<tag k="fixme" v="consider natural=peak for the most distinct mountains in the district" />
		<tag k="name" v="Orrekniben" />
		<tag k="natural" v="hill" />
		<tag k="place" v="locality" />
		<tag k="ssr:stedsnr" v="265922" />
	</node>
	<node lat="58.124980551587385" lon="7.166536110881453" id="-23751">
		<tag k="fixme" v="consider natural=peak for the most distinct mountains in the district" />
		<tag k="name" v="Eikelandskniben" />
		<tag k="natural" v="hill" />
		<tag k="place" v="locality" />
		<tag k="ssr:stedsnr" v="265929" />
	</node>
	<node lat="58.11479444699522" lon="7.143102770784022" id="-23752">
		<tag k="name" v="Svolldalen" />
		<tag k="natural" v="valley" />
		<tag k="place" v="locality" />
		<tag k="ssr:stedsnr" v="265932" />
	</node>
	<node lat="58.20596111489286" lon="7.077713895732657" id="-23754">
		<tag k="fixme" v="consider natural=peak for the most distinct mountains in the district" />
		<tag k="name" v="Lauvåsen" />
		<tag k="natural" v="hill" />
		<tag k="place" v="locality" />
		<tag k="ssr:stedsnr" v="203002" />
	</node>
	<node lat="58.20599999624934" lon="7.0768083255721566" id="-23755">
		<tag k="name" v="Kjørkeskaret" />
		<tag k="natural" v="valley" />
		<tag k="place" v="locality" />
		<tag k="ssr:stedsnr" v="203010" />
	</node>
	<node lat="58.197130559484194" lon="7.054502783174369" id="-23757">
		<tag k="name" v="Slettefeda" />
		<tag k="place" v="locality" />
		<tag k="ssr:stedsnr" v="203017" />
	</node>
	<node lat="58.20304166648117" lon="7.055616671375263" id="-23758">
		<tag k="name" v="Hestheia" />
		<tag k="natural" v="hill" />
		<tag k="place" v="locality" />
		<tag k="ssr:stedsnr" v="203022" />
	</node>
	<node lat="58.22001388862532" lon="7.033466672501215" id="-23760">
		<tag k="name" v="Spjotsoddheia" />
		<tag k="natural" v="hill" />
		<tag k="place" v="locality" />
		<tag k="ssr:stedsnr" v="203113" />
	</node>
	<node lat="58.21438055234834" lon="7.135272220804891" id="-23762">
		<tag k="fixme" v="consider natural=peak for the most distinct mountains in the district" />
		<tag k="name" v="Håvåsen" />
		<tag k="natural" v="hill" />
		<tag k="place" v="locality" />
		<tag k="ssr:stedsnr" v="203203" />
	</node>
	<node lat="58.21231666392315" lon="7.138841668919092" id="-23763">
		<tag k="name" v="Ytre Slåtta" />
		<tag k="natural" v="slope" />
		<tag k="place" v="locality" />
		<tag k="ssr:stedsnr" v="203205" />
	</node>
	<node lat="58.22481388546172" lon="7.115016662220187" id="-23764">
		<tag k="name" v="Rundeknodden" />
		<tag k="natural" v="hill" />
		<tag k="place" v="locality" />
		<tag k="ssr:stedsnr" v="203208" />
	</node>
	<node lat="58.24804444885875" lon="7.102380562588363" id="-23768">
		<tag k="name" v="Grydingen" />
		<tag k="place" v="locality" />
		<tag k="ssr:stedsnr" v="203405" />
	</node>
	<node lat="58.17716666274272" lon="7.106880552833705" id="-23769">
		<tag k="name" v="Støa" />
		<tag k="natural" v="valley" />
		<tag k="place" v="locality" />
		<tag k="ssr:stedsnr" v="203409" />
	</node>
	<node lat="58.187408333035336" lon="7.126708326631362" id="-23770">
		<tag k="name" v="Svartevannsheia" />
		<tag k="natural" v="hill" />
		<tag k="place" v="locality" />
		<tag k="ssr:stedsnr" v="203415" />
	</node>
	<node lat="58.18226388545407" lon="7.125863893303123" id="-23771">
		<tag k="fixme" v="consider natural=peak for the most distinct mountains in the district" />
		<tag k="name" v="Forefjellet" />
		<tag k="natural" v="hill" />
		<tag k="place" v="locality" />
		<tag k="ssr:stedsnr" v="203419" />
	</node>
	<node lat="58.18437499878257" lon="7.1029499918442385" id="-23772">
		<tag k="name" v="Grostøl" />
		<tag k="natural" v="slope" />
		<tag k="place" v="locality" />
		<tag k="ssr:stedsnr" v="203421" />
	</node>
	<node lat="58.14406944835704" lon="7.200694450434745" id="-23773">
		<tag k="name" v="Holdalen" />
		<tag k="natural" v="valley" />
		<tag k="place" v="locality" />
		<tag k="ssr:stedsnr" v="203445" />
	</node>
	<node lat="58.22441389015193" lon="7.120627775012149" id="-23775">
		<tag k="name" v="Såsbakken" />
		<tag k="natural" v="slope" />
		<tag k="place" v="locality" />
		<tag k="ssr:stedsnr" v="203198" />
	</node>
	<node lat="58.231047218025914" lon="7.1739861057118945" id="-23778">
		<tag k="fixme" v="consider natural=peak for the most distinct mountains in the district" />
		<tag k="name" v="Horsensfjell" />
		<tag k="natural" v="hill" />
		<tag k="place" v="locality" />
		<tag k="ssr:stedsnr" v="203324" />
	</node>
	<node lat="58.23082221822643" lon="7.158836115864127" id="-23779">
		<tag k="name" v="Hagknuden" />
		<tag k="natural" v="hill" />
		<tag k="place" v="locality" />
		<tag k="ssr:stedsnr" v="203327" />
	</node>
	<node lat="58.218344440672396" lon="6.906163883535624" id="-23781">
		<tag k="name" v="Kjørkeheia" />
		<tag k="natural" v="hill" />
		<tag k="place" v="locality" />
		<tag k="ssr:stedsnr" v="203341" />
	</node>
	<node lat="58.21571944757779" lon="6.942105550625386" id="-23783">
		<tag k="name" v="Dansarvollen" />
		<tag k="place" v="locality" />
		<tag k="ssr:stedsnr" v="203488" />
	</node>
	<node lat="58.299755552589" lon="7.181494445731733" id="-23787">
		<tag k="name" v="Stemsheia" />
		<tag k="natural" v="hill" />
		<tag k="place" v="locality" />
		<tag k="ssr:stedsnr" v="203614" />
	</node>
	<node lat="58.07945277508751" lon="6.979430553408868" id="-23789">
		<tag k="fixme" v="consider natural=peak for the most distinct mountains in the district" />
		<tag k="name" v="Vardåsen" />
		<tag k="natural" v="hill" />
		<tag k="place" v="locality" />
		<tag k="ssr:stedsnr" v="203689" />
	</node>
	<node lat="58.07731110878918" lon="7.0534944471131" id="-23790">
		<tag k="fixme" v="consider natural=peak for the most distinct mountains in the district" />
		<tag k="name" v="Skogefjell" />
		<tag k="natural" v="hill" />
		<tag k="place" v="locality" />
		<tag k="ssr:stedsnr" v="203805" />
	</node>
	<node lat="58.17745278165038" lon="7.199980552692376" id="-23792">
		<tag k="fixme" v="consider natural=peak for the most distinct mountains in the district" />
		<tag k="name" v="Knoddan" />
		<tag k="natural" v="hill" />
		<tag k="place" v="locality" />
		<tag k="ssr:stedsnr" v="203554" />
	</node>
	<node lat="58.06247222283292" lon="7.024952781288239" id="-23793">
		<tag k="name" v="Kjeksedalen" />
		<tag k="natural" v="valley" />
		<tag k="place" v="locality" />
		<tag k="ssr:stedsnr" v="203704" />
	</node>
	<node lat="58.065152774884545" lon="6.997733338676503" id="-23794">
		<tag k="fixme" v="consider natural=peak for the most distinct mountains in the district" />
		<tag k="name" v="Skibheia" />
		<tag k="natural" v="hill" />
		<tag k="place" v="locality" />
		<tag k="ssr:stedsnr" v="203707" />
	</node>
	<node lat="58.042655557894726" lon="7.016011107266718" id="-23798">
		<tag k="fixme" v="consider natural=peak for the most distinct mountains in the district" />
		<tag k="name" v="Lindåsen" />
		<tag k="natural" v="hill" />
		<tag k="place" v="locality" />
		<tag k="ssr:stedsnr" v="203730" />
	</node>
	<node lat="58.190863888520056" lon="7.197138888056932" id="-23803">
		<tag k="name" v="Vestheia" />
		<tag k="natural" v="slope" />
		<tag k="place" v="locality" />
		<tag k="ssr:stedsnr" v="204507" />
	</node>
	<node lat="58.241924997315735" lon="7.113933335541378" id="-23804">
		<tag k="fixme" v="consider natural=peak for the most distinct mountains in the district" />
		<tag k="name" v="Røynåsheia" />
		<tag k="natural" v="hill" />
		<tag k="place" v="locality" />
		<tag k="ssr:stedsnr" v="204448" />
	</node>
	<node lat="58.16354166368748" lon="7.203602777862644" id="-23806">
		<tag k="fixme" v="consider natural=peak for the most distinct mountains in the district" />
		<tag k="name" v="Treskoheia" />
		<tag k="natural" v="hill" />
		<tag k="place" v="locality" />
		<tag k="ssr:stedsnr" v="204462" />
	</node>
	<node lat="58.08406110742348" lon="7.147261107309414" id="-23808">
		<tag k="fixme" v="consider natural=peak for the most distinct mountains in the district" />
		<tag k="name" v="Åsen" />
		<tag k="natural" v="hill" />
		<tag k="place" v="locality" />
		<tag k="ssr:stedsnr" v="204912" />
	</node>
	<node lat="58.097702779690856" lon="7.144330553803314" id="-23809">
		<tag k="fixme" v="consider natural=peak for the most distinct mountains in the district" />
		<tag k="name" v="Kleivåsen" />
		<tag k="natural" v="hill" />
		<tag k="place" v="locality" />
		<tag k="ssr:stedsnr" v="204919" />
	</node>
	<node lat="58.4702944415236" lon="7.463763896230329" id="-23818">
		<tag k="name" v="Støyland" />
		<tag k="place" v="locality" />
		<tag k="ssr:stedsnr" v="218123" />
	</node>
	<node lat="58.4573805569886" lon="7.398627774896534" id="-23819">
		<tag k="loc_name" v="Dybleknatten" />
		<tag k="name" v="Dybleknuten" />
		<tag k="natural" v="hill" />
		<tag k="place" v="locality" />
		<tag k="ssr:stedsnr" v="218130" />
	</node>
	<node lat="58.3747555571499" lon="7.343477770085675" id="-23820">
		<tag k="fixme" v="consider natural=peak for the most distinct mountains in the district" />
		<tag k="name" v="Stølsåsen" />
		<tag k="natural" v="hill" />
		<tag k="place" v="locality" />
		<tag k="ssr:stedsnr" v="219004" />
	</node>
	<node lat="58.399061112090756" lon="7.391913897089344" id="-23822">
		<tag k="name" v="Sandvikskotet" />
		<tag k="natural" v="valley" />
		<tag k="place" v="locality" />
		<tag k="ssr:stedsnr" v="219029" />
	</node>
	<node lat="58.34361944373939" lon="7.311030558711359" id="-23823">
		<tag k="fixme" v="consider natural=peak for the most distinct mountains in the district" />
		<tag k="name" v="Røyåsen" />
		<tag k="natural" v="hill" />
		<tag k="place" v="locality" />
		<tag k="ssr:stedsnr" v="218792" />
	</node>
	<node lat="58.46749166339594" lon="7.37556944065205" id="-23824">
		<tag k="name" v="Runsedalen" />
		<tag k="natural" v="valley" />
		<tag k="place" v="locality" />
		<tag k="ssr:stedsnr" v="219122" />
	</node>
	<node lat="58.49235833181729" lon="7.482183327910021" id="-23825">
		<tag k="name" v="Stolpetrødalen" />
		<tag k="natural" v="valley" />
		<tag k="place" v="locality" />
		<tag k="ssr:stedsnr" v="219174" />
	</node>
	<node lat="58.478594443969456" lon="7.509277774332386" id="-23826">
		<tag k="loc_name" v="Rankebakken" />
		<tag k="name" v="Rankebakkan" />
		<tag k="natural" v="slope" />
		<tag k="place" v="locality" />
		<tag k="ssr:stedsnr" v="219187" />
	</node>
	<node lat="58.477602775821744" lon="7.498213895975815" id="-23827">
		<tag k="name" v="Rupemyrholen" />
		<tag k="natural" v="slope" />
		<tag k="place" v="locality" />
		<tag k="ssr:stedsnr" v="219189" />
	</node>
	<node lat="58.297327781835776" lon="7.327324999542309" id="-23828">
		<tag k="name" v="Ormedalen" />
		<tag k="natural" v="valley" />
		<tag k="place" v="locality" />
		<tag k="ssr:stedsnr" v="219306" />
	</node>
	<node lat="58.371283330118885" lon="7.390955562144757" id="-23829">
		<tag k="fixme" v="consider natural=peak for the most distinct mountains in the district" />
		<tag k="name" v="Tåmåsen" />
		<tag k="natural" v="hill" />
		<tag k="place" v="locality" />
		<tag k="ssr:stedsnr" v="219314" />
	</node>
	<node lat="58.37044999699121" lon="7.391113883903957" id="-23830">
		<tag k="name" v="Tåmåsdalen" />
		<tag k="natural" v="valley" />
		<tag k="place" v="locality" />
		<tag k="ssr:stedsnr" v="219316" />
	</node>
	<node lat="58.383083331388896" lon="7.391272220263526" id="-23831">
		<tag k="name" v="Uførsdalsheia" />
		<tag k="natural" v="hill" />
		<tag k="place" v="locality" />
		<tag k="ssr:stedsnr" v="219329" />
	</node>
	<node lat="58.35593055911459" lon="7.3416444508256316" id="-23832">
		<tag k="loc_name" v="Holmebakken" />
		<tag k="name" v="Holmebakkjen" />
		<tag k="natural" v="hill" />
		<tag k="place" v="locality" />
		<tag k="ssr:stedsnr" v="219202" />
	</node>
	<node lat="58.36815555318009" lon="7.39408334045333" id="-23833">
		<tag k="name" v="Hundepytten" />
		<tag k="place" v="locality" />
		<tag k="ssr:stedsnr" v="219214" />
	</node>
	<node lat="58.27661944590607" lon="7.274274994057755" id="-23834">
		<tag k="name" v="Åsan" />
		<tag k="natural" v="slope" />
		<tag k="place" v="locality" />
		<tag k="ssr:stedsnr" v="219289" />
	</node>
	<node lat="58.33144444612984" lon="7.374611104163753" id="-23836">
		<tag k="name" v="Ospelunden" />
		<tag k="natural" v="slope" />
		<tag k="place" v="locality" />
		<tag k="ssr:stedsnr" v="219986" />
	</node>
	<node lat="58.33332500244425" lon="7.413119437288234" id="-23837">
		<tag k="fixme" v="consider natural=peak for the most distinct mountains in the district" />
		<tag k="name" v="Grønåsen" />
		<tag k="natural" v="hill" />
		<tag k="place" v="locality" />
		<tag k="ssr:stedsnr" v="219989" />
	</node>
	<node lat="58.24993888844528" lon="7.396883326140914" id="-23839">
		<tag k="name" v="Vardehei" />
		<tag k="natural" v="hill" />
		<tag k="place" v="locality" />
		<tag k="ssr:stedsnr" v="219880" />
	</node>
	<node lat="58.30223055217801" lon="7.266155562896286" id="-23932">
		<tag k="name" v="Vardehei" />
		<tag k="natural" v="hill" />
		<tag k="place" v="locality" />
		<tag k="ssr:stedsnr" v="242494" />
	</node>
	<node lat="58.161419442431246" lon="7.091194446740547" id="-23936">
		<tag k="name" v="Skrumoen" />
		<tag k="place" v="locality" />
		<tag k="ssr:stedsnr" v="243486" />
	</node>
	<node lat="58.39273888665711" lon="7.3192972152369675" id="-23940">
		<tag k="name" v="Fagerhei" />
		<tag k="natural" v="hill" />
		<tag k="place" v="locality" />
		<tag k="ssr:stedsnr" v="243744" />
	</node>
	<node lat="58.4193888886061" lon="7.490722221577135" id="-23941">
		<tag k="alt_name" v="Krossfjellan" />
		<tag k="name" v="Selandsheii" />
		<tag k="natural" v="hill" />
		<tag k="place" v="locality" />
		<tag k="ssr:stedsnr" v="243885" />
	</node>
	<node lat="58.22865833507613" lon="7.082219441522392" id="-23944">
		<tag k="fixme" v="consider natural=peak for the most distinct mountains in the district" />
		<tag k="name" v="Varbakken" />
		<tag k="natural" v="hill" />
		<tag k="place" v="locality" />
		<tag k="ssr:stedsnr" v="264071" />
	</node>
	<node lat="58.231208331435894" lon="7.097555551981979" id="-23946">
		<tag k="fixme" v="consider natural=peak for the most distinct mountains in the district" />
		<tag k="name" v="Lundeheia" />
		<tag k="natural" v="hill" />
		<tag k="place" v="locality" />
		<tag k="ssr:stedsnr" v="264088" />
	</node>
	<node lat="58.20047222208857" lon="7.129838895456459" id="-23947">
		<tag k="name" v="Kleivan" />
		<tag k="natural" v="slope" />
		<tag k="place" v="locality" />
		<tag k="ssr:stedsnr" v="264094" />
	</node>
	<node lat="58.197352777916414" lon="7.1307888856835975" id="-23948">
		<tag k="name" v="Litleheia" />
		<tag k="natural" v="hill" />
		<tag k="place" v="locality" />
		<tag k="ssr:stedsnr" v="264097" />
	</node>
	<node lat="58.11402221916352" lon="6.958588894211577" id="-23950">
		<tag k="fixme" v="consider natural=peak for the most distinct mountains in the district" />
		<tag k="name" v="Svartups" />
		<tag k="natural" v="hill" />
		<tag k="place" v="locality" />
		<tag k="ssr:stedsnr" v="264246" />
	</node>
	<node lat="58.109927781010114" lon="6.959152784707946" id="-23951">
		<tag k="name" v="Slåtte" />
		<tag k="natural" v="slope" />
		<tag k="place" v="locality" />
		<tag k="ssr:stedsnr" v="264247" />
	</node>
	<node lat="58.00443611453629" lon="7.002763890531222" id="-23953">
		<tag k="fixme" v="consider natural=peak for the most distinct mountains in the district" />
		<tag k="name" v="Døbleheia" />
		<tag k="natural" v="hill" />
		<tag k="place" v="locality" />
		<tag k="ssr:stedsnr" v="264255" />
	</node>
	<node lat="58.119877777365396" lon="6.941838893316634" id="-23954">
		<tag k="name" v="Midtbakkdalen" />
		<tag k="natural" v="valley" />
		<tag k="place" v="locality" />
		<tag k="ssr:stedsnr" v="264257" />
	</node>
	<node lat="58.220041665637744" lon="7.09827222805662" id="-23956">
		<tag k="fixme" v="consider natural=peak for the most distinct mountains in the district" />
		<tag k="name" v="Snareheia" />
		<tag k="natural" v="hill" />
		<tag k="place" v="locality" />
		<tag k="ssr:stedsnr" v="264176" />
	</node>
	<node lat="58.22430555711749" lon="7.112147218895855" id="-23958">
		<tag k="name" v="Lean" />
		<tag k="natural" v="slope" />
		<tag k="place" v="locality" />
		<tag k="ssr:stedsnr" v="264187" />
	</node>
	<node lat="58.22428888988256" lon="7.144911105856623" id="-23960">
		<tag k="name" v="Bjørnsfjell" />
		<tag k="natural" v="hill" />
		<tag k="place" v="locality" />
		<tag k="ssr:stedsnr" v="264306" />
	</node>
	<node lat="58.12986110735128" lon="7.218805554546782" id="-23962">
		<tag k="fixme" v="consider natural=peak for the most distinct mountains in the district" />
		<tag k="name" v="Goggeråsen" />
		<tag k="natural" v="hill" />
		<tag k="place" v="locality" />
		<tag k="ssr:stedsnr" v="264344" />
	</node>
	<node lat="58.13385277349364" lon="7.203497229843203" id="-23964">
		<tag k="name" v="Lonsjordet" />
		<tag k="natural" v="slope" />
		<tag k="place" v="locality" />
		<tag k="ssr:stedsnr" v="264410" />
	</node>
	<node lat="58.13328333422879" lon="7.2154361034548815" id="-23965">
		<tag k="name" v="Versynsheia" />
		<tag k="natural" v="hill" />
		<tag k="place" v="locality" />
		<tag k="ssr:stedsnr" v="264411" />
	</node>
	<node lat="58.1678194479738" lon="7.114691664446987" id="-23966">
		<tag k="name" v="Høylandsreet" />
		<tag k="natural" v="valley" />
		<tag k="place" v="locality" />
		<tag k="ssr:stedsnr" v="264435" />
	</node>
	<node lat="58.16354444643086" lon="7.119205552980849" id="-23967">
		<tag k="fixme" v="consider natural=peak for the most distinct mountains in the district" />
		<tag k="name" v="Rossåsen" />
		<tag k="natural" v="hill" />
		<tag k="place" v="locality" />
		<tag k="ssr:stedsnr" v="264437" />
	</node>
	<node lat="58.218208332951065" lon="6.924413896866871" id="-23970">
		<tag k="fixme" v="consider natural=peak for the most distinct mountains in the district" />
		<tag k="name" v="Åsen" />
		<tag k="natural" v="hill" />
		<tag k="place" v="locality" />
		<tag k="ssr:stedsnr" v="264450" />
	</node>
	<node lat="58.2541916633133" lon="7.249847221538908" id="-23971">
		<tag k="name" v="Kalleskaret" />
		<tag k="natural" v="valley" />
		<tag k="place" v="locality" />
		<tag k="ssr:stedsnr" v="264602" />
	</node>
	<node lat="58.244405559694286" lon="7.229736105650732" id="-23973">
		<tag k="name" v="Sløngen" />
		<tag k="natural" v="slope" />
		<tag k="place" v="locality" />
		<tag k="ssr:stedsnr" v="264606" />
	</node>
	<node lat="58.24392222216405" lon="7.219513893848935" id="-23974">
		<tag k="name" v="Trobrotet" />
		<tag k="natural" v="slope" />
		<tag k="place" v="locality" />
		<tag k="ssr:stedsnr" v="264609" />
	</node>
	<node lat="58.24211666267517" lon="7.228652778039173" id="-23975">
		<tag k="name" v="Solåsen" />
		<tag k="natural" v="ridge" />
		<tag k="place" v="locality" />
		<tag k="ssr:stedsnr" v="264611" />
	</node>
	<node lat="58.193986107723155" lon="7.23732777346961" id="-23976">
		<tag k="name" v="Ålgardalen" />
		<tag k="natural" v="valley" />
		<tag k="place" v="locality" />
		<tag k="ssr:stedsnr" v="264613" />
	</node>
	<node lat="58.14904999709202" lon="6.914899991781156" id="-23977">
		<tag k="name" v="Skårbergan" />
		<tag k="natural" v="slope" />
		<tag k="place" v="locality" />
		<tag k="ssr:stedsnr" v="264640" />
	</node>
	<node lat="58.19497778185687" lon="7.212244436142696" id="-23979">
		<tag k="name" v="Elsaheia" />
		<tag k="natural" v="hill" />
		<tag k="place" v="locality" />
		<tag k="ssr:stedsnr" v="264540" />
	</node>
	<node lat="58.17713888974698" lon="7.207844446352205" id="-23980">
		<tag k="name" v="Åsen" />
		<tag k="natural" v="hill" />
		<tag k="place" v="locality" />
		<tag k="ssr:stedsnr" v="264549" />
	</node>
	<node lat="58.19223888463594" lon="7.223072230601747" id="-23982">
		<tag k="name" v="Stiheia" />
		<tag k="natural" v="hill" />
		<tag k="place" v="locality" />
		<tag k="ssr:stedsnr" v="264596" />
	</node>
	<node lat="58.24091944269461" lon="7.2207888831659135" id="-23984">
		<tag k="name" v="Stembakken" />
		<tag k="natural" v="slope" />
		<tag k="place" v="locality" />
		<tag k="ssr:stedsnr" v="264598" />
	</node>
	<node lat="58.108755552294106" lon="7.019391672865537" id="-23985">
		<tag k="fixme" v="consider natural=peak for the most distinct mountains in the district" />
		<tag k="name" v="Sigvaldsåsen" />
		<tag k="natural" v="hill" />
		<tag k="place" v="locality" />
		<tag k="ssr:stedsnr" v="264712" />
	</node>
	<node lat="58.10355555351375" lon="6.98581944074655" id="-23986">
		<tag k="fixme" v="consider natural=peak for the most distinct mountains in the district" />
		<tag k="name" v="Harefjellet" />
		<tag k="natural" v="hill" />
		<tag k="place" v="locality" />
		<tag k="ssr:stedsnr" v="264744" />
	</node>
	<node lat="58.06494722350278" lon="7.030669437945105" id="-23987">
		<tag k="fixme" v="consider natural=peak for the most distinct mountains in the district" />
		<tag k="name" v="Foråsen" />
		<tag k="natural" v="hill" />
		<tag k="place" v="locality" />
		<tag k="ssr:stedsnr" v="264803" />
	</node>
	<node lat="58.16685833018895" lon="7.0817333256687425" id="-23990">
		<tag k="name" v="Kvasekleiva" />
		<tag k="natural" v="slope" />
		<tag k="place" v="locality" />
		<tag k="ssr:stedsnr" v="264843" />
	</node>
	<node lat="58.08018332893513" lon="7.100736107168019" id="-23994">
		<tag k="name" v="Tinkelvollen" />
		<tag k="place" v="locality" />
		<tag k="ssr:stedsnr" v="264788" />
	</node>
	<node lat="58.13416388547574" lon="7.143050006599707" id="-23996">
		<tag k="fixme" v="consider natural=peak for the most distinct mountains in the district" />
		<tag k="name" v="Bråneheia" />
		<tag k="natural" v="hill" />
		<tag k="place" v="locality" />
		<tag k="ssr:stedsnr" v="264935" />
	</node>
	<node lat="58.14159999549136" lon="7.148761107833927" id="-23997">
		<tag k="fixme" v="consider natural=peak for the most distinct mountains in the district" />
		<tag k="name" v="Ryggheia" />
		<tag k="natural" v="hill" />
		<tag k="place" v="locality" />
		<tag k="ssr:stedsnr" v="264952" />
	</node>
	<node lat="58.27984722366881" lon="7.1446527846645" id="-23998">
		<tag k="name" v="Brokkan" />
		<tag k="natural" v="hill" />
		<tag k="place" v="locality" />
		<tag k="ssr:stedsnr" v="265389" />
	</node>
	<node lat="58.154552782319364" lon="7.17050278535744" id="-23999">
		<tag k="name" v="Tømmerskora" />
		<tag k="place" v="locality" />
		<tag k="ssr:stedsnr" v="265906" />
	</node>
	<node lat="58.155777780447345" lon="7.174158338261417" id="-24000">
		<tag k="fixme" v="consider natural=peak for the most distinct mountains in the district" />
		<tag k="name" v="Tønsberget" />
		<tag k="natural" v="hill" />
		<tag k="place" v="locality" />
		<tag k="ssr:stedsnr" v="265907" />
	</node>
	<node lat="58.47055833137167" lon="7.458186118918754" id="-24003">
		<tag k="name" v="Hestebakken" />
		<tag k="natural" v="slope" />
		<tag k="place" v="locality" />
		<tag k="ssr:stedsnr" v="279107" />
	</node>
	<node lat="58.494008328941916" lon="7.390033338927256" id="-24006">
		<tag k="loc_name" v="Grauteberjet" />
		<tag k="name" v="Grauteberget" />
		<tag k="natural" v="hill" />
		<tag k="place" v="locality" />
		<tag k="ssr:stedsnr" v="279128" />
	</node>
	<node lat="58.453500001175776" lon="7.38796110289947" id="-24007">
		<tag k="loc_name" v="Blikæfjeddstøæ" />
		<tag k="name" v="Blikefjellstø" />
		<tag k="natural" v="valley" />
		<tag k="place" v="locality" />
		<tag k="ssr:stedsnr" v="279138" />
	</node>
	<node lat="58.50954166347016" lon="7.376416668368426" id="-24008">
		<tag k="name" v="Hammerslettan" />
		<tag k="natural" v="slope" />
		<tag k="place" v="locality" />
		<tag k="ssr:stedsnr" v="279206" />
	</node>
	<node lat="58.35093888686495" lon="7.325138886674105" id="-24010">
		<tag k="name" v="Brattevodden" />
		<tag k="natural" v="slope" />
		<tag k="place" v="locality" />
		<tag k="ssr:stedsnr" v="279217" />
	</node>
	<node lat="58.24015278119818" lon="7.363905549221496" id="-24012">
		<tag k="fixme" v="consider natural=peak for the most distinct mountains in the district" />
		<tag k="name" v="Åsen" />
		<tag k="natural" v="hill" />
		<tag k="place" v="locality" />
		<tag k="ssr:stedsnr" v="279277" />
	</node>
	<node lat="58.29261389016361" lon="7.336077783930521" id="-24014">
		<tag k="name" v="Skaren" />
		<tag k="natural" v="slope" />
		<tag k="place" v="locality" />
		<tag k="ssr:stedsnr" v="279314" />
	</node>
	<node lat="58.3947944460897" lon="7.333275005023125" id="-24015">
		<tag k="name" v="Midtheia" />
		<tag k="natural" v="hill" />
		<tag k="place" v="locality" />
		<tag k="ssr:stedsnr" v="279317" />
	</node>
	<node lat="58.42373055827449" lon="7.3563222166125275" id="-24016">
		<tag k="name" v="Skoddedalsrinnan" />
		<tag k="natural" v="ridge" />
		<tag k="place" v="locality" />
		<tag k="ssr:stedsnr" v="279323" />
	</node>
	<node lat="58.25474721864835" lon="7.272422220595509" id="-24019">
		<tag k="loc_name" v="Mjåvannsheiå" />
		<tag k="name" v="Mjåvannshei" />
		<tag k="natural" v="hill" />
		<tag k="place" v="locality" />
		<tag k="ssr:stedsnr" v="279774" />
	</node>
	<node lat="58.31292499668817" lon="7.404722221445761" id="-24021">
		<tag k="name" v="Utjordheia" />
		<tag k="natural" v="hill" />
		<tag k="place" v="locality" />
		<tag k="ssr:stedsnr" v="279904" />
	</node>
	<node lat="58.29685555673001" lon="7.341969446843257" id="-24022">
		<tag k="name" v="Linneskaret" />
		<tag k="natural" v="valley" />
		<tag k="place" v="locality" />
		<tag k="ssr:stedsnr" v="279915" />
	</node>
	<node lat="58.287072226773766" lon="7.267383341067189" id="-24023">
		<tag k="name" v="Borgevollen" />
		<tag k="natural" v="slope" />
		<tag k="place" v="locality" />
		<tag k="ssr:stedsnr" v="279917" />
	</node>
	<node lat="58.24532222003771" lon="7.353572224635012" id="-24026">
		<tag k="fixme" v="consider natural=peak for the most distinct mountains in the district" />
		<tag k="name" v="Skiptingsåsen" />
		<tag k="natural" v="hill" />
		<tag k="place" v="locality" />
		<tag k="ssr:stedsnr" v="279869" />
	</node>
	<node lat="58.37679721835949" lon="7.3547166594068605" id="-24030">
		<tag k="name" v="Sandkleiv" />
		<tag k="natural" v="slope" />
		<tag k="place" v="locality" />
		<tag k="ssr:stedsnr" v="280007" />
	</node>
	<node lat="58.364783330890596" lon="7.350455549302182" id="-24033">
		<tag k="name" v="Sletan" />
		<tag k="place" v="locality" />
		<tag k="ssr:stedsnr" v="280020" />
	</node>
	<node lat="58.3652055554479" lon="7.344991662826451" id="-24034">
		<tag k="name" v="Langeskor" />
		<tag k="place" v="locality" />
		<tag k="ssr:stedsnr" v="280021" />
	</node>
	<node lat="58.44395833034326" lon="7.4114694412315805" id="-24035">
		<tag k="name" v="Ribben" />
		<tag k="natural" v="ridge" />
		<tag k="place" v="locality" />
		<tag k="ssr:stedsnr" v="280312" />
	</node>
	<node lat="58.33239999901873" lon="7.298688890225881" id="-24040">
		<tag k="fixme" v="consider natural=peak for the most distinct mountains in the district" />
		<tag k="loc_name" v="Klefjellet" />
		<tag k="name" v="Klefjell" />
		<tag k="natural" v="hill" />
		<tag k="place" v="locality" />
		<tag k="ssr:stedsnr" v="280996" />
	</node>
	<node lat="58.477186115287694" lon="7.454838885294922" id="-24041">
		<tag k="name" v="Vetingsdalen" />
		<tag k="natural" v="valley" />
		<tag k="place" v="locality" />
		<tag k="ssr:stedsnr" v="461183" />
	</node>
	<node lat="58.47937222447762" lon="7.379411104450208" id="-24042">
		<tag k="fixme" v="consider natural=peak for the most distinct mountains in the district" />
		<tag k="name" v="Heståsen" />
		<tag k="natural" v="hill" />
		<tag k="place" v="locality" />
		<tag k="ssr:stedsnr" v="461188" />
	</node>
	<node lat="58.39555833310447" lon="7.446513883349564" id="-24046">
		<tag k="name" v="Skogebåsen" />
		<tag k="natural" v="ridge" />
		<tag k="place" v="locality" />
		<tag k="ssr:stedsnr" v="461254" />
	</node>
	<node lat="58.29495277374164" lon="7.27199166251594" id="-24047">
		<tag k="name" v="Oselia" />
		<tag k="natural" v="slope" />
		<tag k="place" v="locality" />
		<tag k="ssr:stedsnr" v="461312" />
	</node>
	<node lat="58.289244447889374" lon="7.317269444137263" id="-24048">
		<tag k="name" v="Kovan" />
		<tag k="natural" v="valley" />
		<tag k="place" v="locality" />
		<tag k="ssr:stedsnr" v="461315" />
	</node>
	<node lat="58.400827775989534" lon="7.336550002597739" id="-24050">
		<tag k="name" v="Jåkjerrhei" />
		<tag k="natural" v="hill" />
		<tag k="place" v="locality" />
		<tag k="ssr:stedsnr" v="461319" />
	</node>
	<node lat="58.411619443788894" lon="7.372038885159825" id="-24051">
		<tag k="fixme" v="consider natural=peak for the most distinct mountains in the district" />
		<tag k="name" v="Brubakken" />
		<tag k="natural" v="hill" />
		<tag k="place" v="locality" />
		<tag k="ssr:stedsnr" v="461360" />
	</node>
	<node lat="58.415630557546685" lon="7.391172219662237" id="-24052">
		<tag k="name" v="Bakkan" />
		<tag k="natural" v="slope" />
		<tag k="place" v="locality" />
		<tag k="ssr:stedsnr" v="461361" />
	</node>
	<node lat="58.42243333788738" lon="7.444411114198037" id="-24053">
		<tag k="name" v="Renndalen" />
		<tag k="natural" v="valley" />
		<tag k="place" v="locality" />
		<tag k="ssr:stedsnr" v="461371" />
	</node>
	<node lat="58.27111666420317" lon="7.288966665057562" id="-24054">
		<tag k="name" v="Homman" />
		<tag k="natural" v="slope" />
		<tag k="place" v="locality" />
		<tag k="ssr:stedsnr" v="461272" />
	</node>
	<node lat="58.27551666866831" lon="7.314138885705697" id="-24058">
		<tag k="name" v="Støen" />
		<tag k="natural" v="slope" />
		<tag k="place" v="locality" />
		<tag k="ssr:stedsnr" v="461829" />
	</node>
	<node lat="58.24885000366247" lon="7.269527774062191" id="-24059">
		<tag k="name" v="Vardehei" />
		<tag k="natural" v="hill" />
		<tag k="place" v="locality" />
		<tag k="ssr:stedsnr" v="461831" />
	</node>
	<node lat="58.25232500012587" lon="7.293244445789812" id="-24060">
		<tag k="loc_name" v="Småslåten" />
		<tag k="name" v="Småslåtten" />
		<tag k="natural" v="slope" />
		<tag k="place" v="locality" />
		<tag k="ssr:stedsnr" v="461837" />
	</node>
	<node lat="58.25942778144132" lon="7.2861416676129265" id="-24063">
		<tag k="loc_name" v="Sølvbergje" />
		<tag k="name" v="Sylvberget" />
		<tag k="place" v="locality" />
		<tag k="ssr:stedsnr" v="461846" />
	</node>
	<node lat="58.321963887399434" lon="7.28993054895072" id="-24065">
		<tag k="name" v="Eikelandsheiå" />
		<tag k="natural" v="hill" />
		<tag k="place" v="locality" />
		<tag k="ssr:stedsnr" v="461789" />
	</node>
	<node lat="58.29942221925504" lon="7.369538887370863" id="-24067">
		<tag k="name" v="Haredalen" />
		<tag k="natural" v="valley" />
		<tag k="place" v="locality" />
		<tag k="ssr:stedsnr" v="461899" />
	</node>
	<node lat="58.33150833027855" lon="7.359111117721244" id="-24068">
		<tag k="name" v="Svartups" />
		<tag k="natural" v="cliff" />
		<tag k="ssr:stedsnr" v="461975" />
	</node>
	<node lat="58.33826111015289" lon="7.4258916720878485" id="-24069">
		<tag k="fixme" v="consider natural=peak for the most distinct mountains in the district" />
		<tag k="name" v="Eikåsen" />
		<tag k="natural" v="hill" />
		<tag k="place" v="locality" />
		<tag k="ssr:stedsnr" v="461982" />
	</node>
	<node lat="58.33681666394289" lon="7.404691668511549" id="-24071">
		<tag k="name" v="Hestebeite" />
		<tag k="natural" v="slope" />
		<tag k="place" v="locality" />
		<tag k="ssr:stedsnr" v="461987" />
	</node>
	<node lat="58.377502777131554" lon="7.3270749953287" id="-24072">
		<tag k="name" v="Stakkestengan" />
		<tag k="natural" v="hill" />
		<tag k="place" v="locality" />
		<tag k="ssr:stedsnr" v="462015" />
	</node>
	<node lat="58.37646389319432" lon="7.345719436829136" id="-24073">
		<tag k="name" v="Bjødneholå" />
		<tag k="natural" v="valley" />
		<tag k="place" v="locality" />
		<tag k="ssr:stedsnr" v="462016" />
	</node>
	<node lat="58.29055555585033" lon="7.269369448801704" id="-24076">
		<tag k="name" v="Opselen" />
		<tag k="natural" v="slope" />
		<tag k="place" v="locality" />
		<tag k="ssr:stedsnr" v="461924" />
	</node>
	<node lat="58.39755555826511" lon="7.390041663464982" id="-24097">
		<tag k="loc_name" v="Heimra Svartingsskotet" />
		<tag k="name" v="Svartingsskotet" />
		<tag k="natural" v="hill" />
		<tag k="place" v="locality" />
		<tag k="ssr:stedsnr" v="462043" />
	</node>
	<node lat="58.393530552186604" lon="7.366711108572404" id="-24102">
		<tag k="name" v="Steinskotet" />
		<tag k="natural" v="valley" />
		<tag k="place" v="locality" />
		<tag k="ssr:stedsnr" v="462051" />
	</node>
	<node lat="58.441511108073264" lon="7.344722228707647" id="-24103">
		<tag k="name" v="Høyskarknuten" />
		<tag k="natural" v="hill" />
		<tag k="place" v="locality" />
		<tag k="ssr:stedsnr" v="462088" />
	</node>
	<node lat="58.411880556104755" lon="7.451194446261451" id="-24104">
		<tag k="name" v="Stolknodden" />
		<tag k="natural" v="hill" />
		<tag k="place" v="locality" />
		<tag k="ssr:stedsnr" v="462091" />
	</node>
	<node lat="58.46483888602578" lon="7.463236119767237" id="-24114">
		<tag k="name" v="Fossehei" />
		<tag k="natural" v="hill" />
		<tag k="place" v="locality" />
		<tag k="ssr:stedsnr" v="462336" />
	</node>
	<node lat="58.388305552301446" lon="7.4249944430174155" id="-24142">
		<tag k="name" v="Bjalkedalen" />
		<tag k="natural" v="valley" />
		<tag k="place" v="locality" />
		<tag k="ssr:stedsnr" v="462380" />
	</node>
	<node lat="58.492138884551906" lon="7.500761111888119" id="-24143">
		<tag k="name" v="Tvørrdalen" />
		<tag k="natural" v="valley" />
		<tag k="place" v="locality" />
		<tag k="ssr:stedsnr" v="462386" />
	</node>
	<node lat="58.26527221814464" lon="7.081127777844853" id="-24193">
		<tag k="alt_name" v="Skjongen" />
		<tag k="name" v="Skjøngen" />
		<tag k="natural" v="hill" />
		<tag k="place" v="locality" />
		<tag k="ssr:stedsnr" v="303618" />
	</node>
	<node lat="58.412833332459954" lon="7.470291672634174" id="-24201">
		<tag k="alt_name" v="Gloanheii" />
		<tag k="loc_name" v="Gloanheia" />
		<tag k="name" v="Gloanshei" />
		<tag k="natural" v="hill" />
		<tag k="place" v="locality" />
		<tag k="ssr:stedsnr" v="303892" />
	</node>
	<node lat="58.36918055125623" lon="7.39300555764831" id="-24205">
		<tag k="alt_name" v="Ørneheia" />
		<tag k="name" v="Ørneheii" />
		<tag k="natural" v="hill" />
		<tag k="place" v="locality" />
		<tag k="ssr:stedsnr" v="303946" />
	</node>
	<node lat="58.40235833631934" lon="7.415802776193299" id="-24208">
		<tag k="fixme" v="consider natural=peak for the most distinct mountains in the district" />
		<tag k="name" v="Åsan" />
		<tag k="natural" v="hill" />
		<tag k="place" v="locality" />
		<tag k="ssr:stedsnr" v="303979" />
	</node>
	<node lat="58.2098111118635" lon="7.235649999925097" id="-24209">
		<tag k="alt_name" v="Broneheia" />
		<tag k="name" v="Bronehei" />
		<tag k="natural" v="hill" />
		<tag k="place" v="locality" />
		<tag k="ssr:stedsnr" v="304409" />
	</node>
	<node lat="58.19229167116498" lon="7.130852781089064" id="-24211">
		<tag k="fixme" v="consider natural=peak for the most distinct mountains in the district" />
		<tag k="name" v="Sauknipen" />
		<tag k="natural" v="hill" />
		<tag k="place" v="locality" />
		<tag k="ssr:stedsnr" v="324102" />
	</node>
	<node lat="58.193644441450466" lon="7.119916662100282" id="-24212">
		<tag k="fixme" v="consider natural=peak for the most distinct mountains in the district" />
		<tag k="name" v="Åsen" />
		<tag k="natural" v="hill" />
		<tag k="place" v="locality" />
		<tag k="ssr:stedsnr" v="324105" />
	</node>
	<node lat="58.211655555768395" lon="7.104847216737702" id="-24214">
		<tag k="fixme" v="consider natural=peak for the most distinct mountains in the district" />
		<tag k="name" v="Timheia" />
		<tag k="natural" v="hill" />
		<tag k="place" v="locality" />
		<tag k="ssr:stedsnr" v="324020" />
	</node>
	<node lat="58.20844722660718" lon="7.134155563624447" id="-24217">
		<tag k="name" v="Stubakk" />
		<tag k="natural" v="slope" />
		<tag k="place" v="locality" />
		<tag k="ssr:stedsnr" v="324095" />
	</node>
	<node lat="58.19290833559803" lon="7.169408337635754" id="-24219">
		<tag k="name" v="Moltåsen" />
		<tag k="natural" v="hill" />
		<tag k="place" v="locality" />
		<tag k="ssr:stedsnr" v="324209" />
	</node>
	<node lat="58.19571944144743" lon="7.182438888230664" id="-24220">
		<tag k="name" v="Studehedderen" />
		<tag k="place" v="locality" />
		<tag k="ssr:stedsnr" v="324210" />
	</node>
	<node lat="58.19720555128139" lon="7.1845166697645135" id="-24221">
		<tag k="fixme" v="consider natural=peak for the most distinct mountains in the district" />
		<tag k="name" v="Fagerheia" />
		<tag k="natural" v="hill" />
		<tag k="place" v="locality" />
		<tag k="ssr:stedsnr" v="324212" />
	</node>
	<node lat="58.11135278088688" lon="6.959322217211697" id="-24223">
		<tag k="name" v="Torvebakkan" />
		<tag k="natural" v="hill" />
		<tag k="place" v="locality" />
		<tag k="ssr:stedsnr" v="324277" />
	</node>
	<node lat="58.22995555989977" lon="7.1262416613575414" id="-24225">
		<tag k="fixme" v="consider natural=peak for the most distinct mountains in the district" />
		<tag k="name" v="Hobden" />
		<tag k="natural" v="hill" />
		<tag k="place" v="locality" />
		<tag k="ssr:stedsnr" v="324175" />
	</node>
	<node lat="58.016033334212956" lon="7.004836108659598" id="-24228">
		<tag k="fixme" v="consider natural=peak for the most distinct mountains in the district" />
		<tag k="name" v="Ulvåsen" />
		<tag k="natural" v="hill" />
		<tag k="place" v="locality" />
		<tag k="ssr:stedsnr" v="324307" />
	</node>
	<node lat="58.25142222516693" lon="7.094808332750531" id="-24231">
		<tag k="name" v="Bustikkdalen" />
		<tag k="natural" v="valley" />
		<tag k="place" v="locality" />
		<tag k="ssr:stedsnr" v="324510" />
	</node>
	<node lat="58.175905557557655" lon="7.109769435985649" id="-24232">
		<tag k="name" v="Adolfsbakkan" />
		<tag k="natural" v="hill" />
		<tag k="place" v="locality" />
		<tag k="ssr:stedsnr" v="324403" />
	</node>
	<node lat="58.17999166331974" lon="7.118691665806333" id="-24233">
		<tag k="fixme" v="consider natural=peak for the most distinct mountains in the district" />
		<tag k="name" v="Grasåsen" />
		<tag k="natural" v="hill" />
		<tag k="place" v="locality" />
		<tag k="ssr:stedsnr" v="324404" />
	</node>
	<node lat="58.18831388733776" lon="7.051219451903471" id="-24234">
		<tag k="name" v="Hårigstadheia" />
		<tag k="natural" v="hill" />
		<tag k="place" v="locality" />
		<tag k="ssr:stedsnr" v="324407" />
	</node>
	<node lat="58.12666944355237" lon="7.1999527846734175" id="-24235">
		<tag k="name" v="Skiptingsheia" />
		<tag k="natural" v="hill" />
		<tag k="place" v="locality" />
		<tag k="ssr:stedsnr" v="324419" />
	</node>
	<node lat="58.215091662545895" lon="6.924505558639913" id="-24237">
		<tag k="name" v="Stidøra" />
		<tag k="natural" v="hill" />
		<tag k="place" v="locality" />
		<tag k="ssr:stedsnr" v="324477" />
	</node>
	<node lat="58.11602222549343" lon="6.96890000566251" id="-24238">
		<tag k="name" v="Bankan" />
		<tag k="natural" v="hill" />
		<tag k="place" v="locality" />
		<tag k="ssr:stedsnr" v="324493" />
	</node>
	<node lat="58.1913083336393" lon="7.224224996881508" id="-24241">
		<tag k="name" v="Kartbøldalen" />
		<tag k="natural" v="valley" />
		<tag k="place" v="locality" />
		<tag k="ssr:stedsnr" v="324626" />
	</node>
	<node lat="58.25695833566031" lon="7.185533326652406" id="-24242">
		<tag k="name" v="Tørkelia" />
		<tag k="natural" v="slope" />
		<tag k="place" v="locality" />
		<tag k="ssr:stedsnr" v="324571" />
	</node>
	<node lat="58.116038885592886" lon="7.007327783318062" id="-24243">
		<tag k="fixme" v="consider natural=peak for the most distinct mountains in the district" />
		<tag k="name" v="Gaukshommeren" />
		<tag k="natural" v="hill" />
		<tag k="place" v="locality" />
		<tag k="ssr:stedsnr" v="324721" />
	</node>
	<node lat="58.043433329961076" lon="6.996011103390463" id="-24244">
		<tag k="fixme" v="consider natural=peak for the most distinct mountains in the district" />
		<tag k="name" v="Kjunefjellet" />
		<tag k="natural" v="hill" />
		<tag k="place" v="locality" />
		<tag k="ssr:stedsnr" v="324725" />
	</node>
	<node lat="58.120733335332304" lon="6.988677769434986" id="-24245">
		<tag k="name" v="Nesan" />
		<tag k="natural" v="slope" />
		<tag k="place" v="locality" />
		<tag k="ssr:stedsnr" v="324727" />
	</node>
	<node lat="58.098463892931775" lon="7.009388893006518" id="-24246">
		<tag k="fixme" v="consider natural=peak for the most distinct mountains in the district" />
		<tag k="name" v="Forefjellet" />
		<tag k="natural" v="hill" />
		<tag k="place" v="locality" />
		<tag k="ssr:stedsnr" v="324731" />
	</node>
	<node lat="58.100058333292104" lon="7.00402499163968" id="-24249">
		<tag k="fixme" v="consider natural=peak for the most distinct mountains in the district" />
		<tag k="name" v="Lindefjellet" />
		<tag k="natural" v="hill" />
		<tag k="place" v="locality" />
		<tag k="ssr:stedsnr" v="324742" />
	</node>
	<node lat="58.11688611541028" lon="7.126752780519859" id="-24252">
		<tag k="fixme" v="consider natural=peak for the most distinct mountains in the district" />
		<tag k="name" v="Fjellet" />
		<tag k="natural" v="hill" />
		<tag k="place" v="locality" />
		<tag k="ssr:stedsnr" v="324822" />
	</node>
	<node lat="58.077127776301275" lon="7.053716666634298" id="-24254">
		<tag k="fixme" v="consider natural=peak for the most distinct mountains in the district" />
		<tag k="name" v="Skogeheia" />
		<tag k="natural" v="hill" />
		<tag k="place" v="locality" />
		<tag k="ssr:stedsnr" v="324870" />
	</node>
	<node lat="58.1362194489376" lon="7.0760277853169935" id="-24256">
		<tag k="fixme" v="consider natural=peak for the most distinct mountains in the district" />
		<tag k="name" v="Bastufjellet" />
		<tag k="natural" v="hill" />
		<tag k="place" v="locality" />
		<tag k="ssr:stedsnr" v="324891" />
	</node>
	<node lat="58.42623055750888" lon="7.470341665834347" id="-24270">
		<tag k="name" v="Dauråslia" />
		<tag k="natural" v="slope" />
		<tag k="place" v="locality" />
		<tag k="ssr:stedsnr" v="340098" />
	</node>
	<node lat="58.34236388552701" lon="7.423441661220419" id="-24272">
		<tag k="name" v="Dalen" />
		<tag k="natural" v="valley" />
		<tag k="place" v="locality" />
		<tag k="ssr:stedsnr" v="340221" />
	</node>
	<node lat="58.37706388460883" lon="7.4069083251089785" id="-24273">
		<tag k="name" v="Espåsbeite" />
		<tag k="natural" v="slope" />
		<tag k="place" v="locality" />
		<tag k="ssr:stedsnr" v="340226" />
	</node>
	<node lat="58.44386666485755" lon="7.3741916686296" id="-24274">
		<tag k="loc_name" v="Håmman" />
		<tag k="name" v="Homman" />
		<tag k="natural" v="valley" />
		<tag k="place" v="locality" />
		<tag k="ssr:stedsnr" v="340108" />
	</node>
	<node lat="58.44852777652172" lon="7.475944449551617" id="-24275">
		<tag k="name" v="Fellesskotet" />
		<tag k="natural" v="valley" />
		<tag k="place" v="locality" />
		<tag k="ssr:stedsnr" v="340120" />
	</node>
	<node lat="58.4883972243713" lon="7.422788891834944" id="-24276">
		<tag k="name" v="Søtefitskotet" />
		<tag k="natural" v="valley" />
		<tag k="place" v="locality" />
		<tag k="ssr:stedsnr" v="340148" />
	</node>
	<node lat="58.48695832951113" lon="7.42834722623585" id="-24277">
		<tag k="name" v="Ramstad" />
		<tag k="place" v="locality" />
		<tag k="ssr:stedsnr" v="340152" />
	</node>
	<node lat="58.466627780282565" lon="7.468449996118896" id="-24278">
		<tag k="name" v="Jammerdalen" />
		<tag k="natural" v="valley" />
		<tag k="place" v="locality" />
		<tag k="ssr:stedsnr" v="340156" />
	</node>
	<node lat="58.47356666780662" lon="7.498966673709027" id="-24279">
		<tag k="name" v="Futebrotan" />
		<tag k="natural" v="slope" />
		<tag k="place" v="locality" />
		<tag k="ssr:stedsnr" v="340157" />
	</node>
	<node lat="58.44280833364628" lon="7.472033334526118" id="-24283">
		<tag k="name" v="Entreheia" />
		<tag k="natural" v="hill" />
		<tag k="place" v="locality" />
		<tag k="ssr:stedsnr" v="340346" />
	</node>
	<node lat="58.42854999718376" lon="7.4028250004613" id="-24285">
		<tag k="fixme" v="consider natural=peak for the most distinct mountains in the district" />
		<tag k="name" v="Lokefjellet" />
		<tag k="natural" v="hill" />
		<tag k="place" v="locality" />
		<tag k="ssr:stedsnr" v="340358" />
	</node>
	<node lat="58.40773055361189" lon="7.405236119131911" id="-24287">
		<tag k="fixme" v="consider natural=peak for the most distinct mountains in the district" />
		<tag k="name" v="Teddåsen" />
		<tag k="natural" v="hill" />
		<tag k="place" v="locality" />
		<tag k="ssr:stedsnr" v="340243" />
	</node>
	<node lat="58.2820166709805" lon="7.38798888972401" id="-24288">
		<tag k="loc_name" v="Ormebrokkå" />
		<tag k="name" v="Ormebrokka" />
		<tag k="natural" v="slope" />
		<tag k="place" v="locality" />
		<tag k="ssr:stedsnr" v="340293" />
	</node>
	<node lat="58.271694444212265" lon="7.328655553679137" id="-24289">
		<tag k="name" v="Grasdalen" />
		<tag k="natural" v="valley" />
		<tag k="place" v="locality" />
		<tag k="ssr:stedsnr" v="340301" />
	</node>
	<node lat="58.24835000004451" lon="7.4188611035261784" id="-24290">
		<tag k="alt_name" v="Beintrasheia" />
		<tag k="name" v="Beintråsheia" />
		<tag k="natural" v="hill" />
		<tag k="place" v="locality" />
		<tag k="ssr:stedsnr" v="340750" />
	</node>
	<node lat="58.25133333229183" lon="7.366477775872787" id="-24291">
		<tag k="name" v="Prestefosshaugen" />
		<tag k="natural" v="hill" />
		<tag k="place" v="locality" />
		<tag k="ssr:stedsnr" v="340759" />
	</node>
	<node lat="58.2851277783346" lon="7.296594447836898" id="-24294">
		<tag k="name" v="Spahatten" />
		<tag k="natural" v="hill" />
		<tag k="place" v="locality" />
		<tag k="ssr:stedsnr" v="340944" />
	</node>
	<node lat="58.41048888593338" lon="7.4210722175437605" id="-24295">
		<tag k="name" v="Siljestad" />
		<tag k="natural" v="slope" />
		<tag k="place" v="locality" />
		<tag k="ssr:stedsnr" v="340957" />
	</node>
	<node lat="58.27449721794934" lon="7.359416661724525" id="-24298">
		<tag k="name" v="Merreskotet" />
		<tag k="natural" v="valley" />
		<tag k="place" v="locality" />
		<tag k="ssr:stedsnr" v="340850" />
	</node>
	<node lat="58.244805557832215" lon="7.1991861103698485" id="-24524">
		<tag k="fixme" v="consider natural=peak for the most distinct mountains in the district" />
		<tag k="name" v="Ørneknipen" />
		<tag k="natural" v="hill" />
		<tag k="place" v="locality" />
		<tag k="ssr:stedsnr" v="364399" />
	</node>
	<node lat="58.21097499975307" lon="7.041155557163269" id="-24539">
		<tag k="fixme" v="consider natural=peak for the most distinct mountains in the district" />
		<tag k="name" v="Slettefjell" />
		<tag k="natural" v="hill" />
		<tag k="place" v="locality" />
		<tag k="ssr:stedsnr" v="385007" />
	</node>
	<node lat="58.20373611169078" lon="6.926333338486703" id="-24542">
		<tag k="fixme" v="consider natural=peak for the most distinct mountains in the district" />
		<tag k="name" v="Kallåsen" />
		<tag k="natural" v="hill" />
		<tag k="place" v="locality" />
		<tag k="ssr:stedsnr" v="385049" />
	</node>
	<node lat="58.213833332183206" lon="7.1139861174201755" id="-24544">
		<tag k="name" v="Notingsheia" />
		<tag k="natural" v="hill" />
		<tag k="place" v="locality" />
		<tag k="ssr:stedsnr" v="385202" />
	</node>
	<node lat="58.24057499725986" lon="7.1972499917989605" id="-24545">
		<tag k="fixme" v="consider natural=peak for the most distinct mountains in the district" />
		<tag k="name" v="Bløyfjellet" />
		<tag k="natural" v="hill" />
		<tag k="place" v="locality" />
		<tag k="ssr:stedsnr" v="385214" />
	</node>
	<node lat="58.03037222115932" lon="6.988933330933271" id="-24549">
		<tag k="fixme" v="consider natural=peak for the most distinct mountains in the district" />
		<tag k="name" v="Ytrefjellet" />
		<tag k="natural" v="hill" />
		<tag k="place" v="locality" />
		<tag k="ssr:stedsnr" v="385308" />
	</node>
	<node lat="58.03279166324267" lon="6.9943750026211875" id="-24551">
		<tag k="name" v="Roen" />
		<tag k="natural" v="valley" />
		<tag k="place" v="locality" />
		<tag k="ssr:stedsnr" v="385314" />
	</node>
	<node lat="58.037313892223146" lon="7.009172216413118" id="-24552">
		<tag k="fixme" v="consider natural=peak for the most distinct mountains in the district" />
		<tag k="name" v="Vardåsen" />
		<tag k="natural" v="hill" />
		<tag k="place" v="locality" />
		<tag k="ssr:stedsnr" v="385315" />
	</node>
	<node lat="58.25519444718023" lon="7.236311117980745" id="-24553">
		<tag k="name" v="Austrejordet" />
		<tag k="place" v="locality" />
		<tag k="ssr:stedsnr" v="385318" />
	</node>
	<node lat="58.26374444819804" lon="7.235038891361055" id="-24555">
		<tag k="fixme" v="consider natural=peak for the most distinct mountains in the district" />
		<tag k="name" v="Snødalsheia" />
		<tag k="natural" v="hill" />
		<tag k="place" v="locality" />
		<tag k="ssr:stedsnr" v="385323" />
	</node>
	<node lat="58.30419166582184" lon="7.206766675173401" id="-24557">
		<tag k="fixme" v="consider natural=peak for the most distinct mountains in the district" />
		<tag k="name" v="Gyråsen" />
		<tag k="natural" v="hill" />
		<tag k="place" v="locality" />
		<tag k="ssr:stedsnr" v="385373" />
	</node>
	<node lat="58.171922220581465" lon="7.040038881645402" id="-24558">
		<tag k="name" v="Tjerslandsheia" />
		<tag k="natural" v="hill" />
		<tag k="place" v="locality" />
		<tag k="ssr:stedsnr" v="385395" />
	</node>
	<node lat="58.21313055394791" lon="7.187555548399871" id="-24560">
		<tag k="fixme" v="consider natural=peak for the most distinct mountains in the district" />
		<tag k="name" v="Lundeknipen" />
		<tag k="natural" v="hill" />
		<tag k="place" v="locality" />
		<tag k="ssr:stedsnr" v="385298" />
	</node>
	<node lat="58.18749444228443" lon="7.0843472180265605" id="-24561">
		<tag k="fixme" v="consider natural=peak for the most distinct mountains in the district" />
		<tag k="name" v="Kålåsen" />
		<tag k="natural" v="hill" />
		<tag k="place" v="locality" />
		<tag k="ssr:stedsnr" v="385408" />
	</node>
	<node lat="58.134222226564596" lon="7.200666667623096" id="-24563">
		<tag k="name" v="Nyjordet" />
		<tag k="natural" v="slope" />
		<tag k="place" v="locality" />
		<tag k="ssr:stedsnr" v="385415" />
	</node>
	<node lat="58.13886110962311" lon="7.201347217027629" id="-24564">
		<tag k="name" v="Djupedalen" />
		<tag k="natural" v="valley" />
		<tag k="place" v="locality" />
		<tag k="ssr:stedsnr" v="385421" />
	</node>
	<node lat="58.25958611376443" lon="7.168925001139683" id="-24565">
		<tag k="name" v="Bosbakken" />
		<tag k="natural" v="hill" />
		<tag k="place" v="locality" />
		<tag k="ssr:stedsnr" v="385600" />
	</node>
	<node lat="58.11938610836791" lon="7.026280561047866" id="-24569">
		<tag k="name" v="Kjuringssletta" />
		<tag k="place" v="locality" />
		<tag k="ssr:stedsnr" v="385739" />
	</node>
	<node lat="58.09961111415324" lon="6.994602769427825" id="-24570">
		<tag k="name" v="Litleheia" />
		<tag k="natural" v="hill" />
		<tag k="place" v="locality" />
		<tag k="ssr:stedsnr" v="385756" />
	</node>
	<node lat="58.13371388584231" lon="6.970811110555254" id="-24572">
		<tag k="name" v="Kjelldalen" />
		<tag k="natural" v="valley" />
		<tag k="place" v="locality" />
		<tag k="ssr:stedsnr" v="385762" />
	</node>
	<node lat="58.139661113831494" lon="6.985880553272047" id="-24573">
		<tag k="fixme" v="consider natural=peak for the most distinct mountains in the district" />
		<tag k="name" v="Kløftefjell" />
		<tag k="natural" v="hill" />
		<tag k="place" v="locality" />
		<tag k="ssr:stedsnr" v="385764" />
	</node>
	<node lat="58.139491668282496" lon="7.010358338084164" id="-24574">
		<tag k="name" v="Saltog" />
		<tag k="natural" v="hill" />
		<tag k="place" v="locality" />
		<tag k="ssr:stedsnr" v="385767" />
	</node>
	<node lat="58.143461115401635" lon="7.01161388147011" id="-24575">
		<tag k="name" v="Lastadlia" />
		<tag k="natural" v="slope" />
		<tag k="place" v="locality" />
		<tag k="ssr:stedsnr" v="385770" />
	</node>
	<node lat="58.1620694456895" lon="6.889299995077675" id="-24576">
		<tag k="name" v="Bergevannsheia" />
		<tag k="natural" v="hill" />
		<tag k="place" v="locality" />
		<tag k="ssr:stedsnr" v="385685" />
	</node>
	<node lat="58.08215833750509" lon="7.019038893728545" id="-24577">
		<tag k="name" v="Trolldalen" />
		<tag k="natural" v="valley" />
		<tag k="place" v="locality" />
		<tag k="ssr:stedsnr" v="385693" />
	</node>
	<node lat="58.14542499575489" lon="6.907199997040178" id="-24578">
		<tag k="name" v="Rygarden" />
		<tag k="natural" v="slope" />
		<tag k="place" v="locality" />
		<tag k="ssr:stedsnr" v="385698" />
	</node>
	<node lat="58.07023610880522" lon="7.034088883118248" id="-24579">
		<tag k="name" v="Skartåsen" />
		<tag k="natural" v="hill" />
		<tag k="place" v="locality" />
		<tag k="ssr:stedsnr" v="385805" />
	</node>
	<node lat="58.06306110788901" lon="7.075730549724898" id="-24580">
		<tag k="fixme" v="consider natural=peak for the most distinct mountains in the district" />
		<tag k="name" v="Bjørnåsen" />
		<tag k="natural" v="hill" />
		<tag k="place" v="locality" />
		<tag k="ssr:stedsnr" v="385815" />
	</node>
	<node lat="58.10780833601522" lon="7.109008332253378" id="-24581">
		<tag k="name" v="Bekkedalen" />
		<tag k="natural" v="valley" />
		<tag k="place" v="locality" />
		<tag k="ssr:stedsnr" v="385826" />
	</node>
	<node lat="58.11241388870662" lon="7.083944448397971" id="-24583">
		<tag k="name" v="Osebrokka" />
		<tag k="natural" v="slope" />
		<tag k="place" v="locality" />
		<tag k="ssr:stedsnr" v="385852" />
	</node>
	<node lat="58.07665000078398" lon="7.124405548498114" id="-24585">
		<tag k="name" v="Åskrona" />
		<tag k="natural" v="hill" />
		<tag k="place" v="locality" />
		<tag k="ssr:stedsnr" v="385794" />
	</node>
	<node lat="58.28950833392109" lon="7.179775004134702" id="-24587">
		<tag k="fixme" v="consider natural=peak for the most distinct mountains in the district" />
		<tag k="name" v="Havsåsen" />
		<tag k="natural" v="hill" />
		<tag k="place" v="locality" />
		<tag k="ssr:stedsnr" v="386250" />
	</node>
	<node lat="58.2864416665447" lon="7.187333327645745" id="-24588">
		<tag k="name" v="Mjauninga" />
		<tag k="natural" v="slope" />
		<tag k="place" v="locality" />
		<tag k="ssr:stedsnr" v="386252" />
	</node>
	<node lat="58.28162500274871" lon="7.182702780040686" id="-24589">
		<tag k="name" v="Kalvedalen" />
		<tag k="natural" v="valley" />
		<tag k="place" v="locality" />
		<tag k="ssr:stedsnr" v="386255" />
	</node>
	<node lat="58.16439721919486" lon="7.213088890534804" id="-24590">
		<tag k="fixme" v="consider natural=peak for the most distinct mountains in the district" />
		<tag k="name" v="Gråknoddan" />
		<tag k="natural" v="hill" />
		<tag k="place" v="locality" />
		<tag k="ssr:stedsnr" v="386506" />
	</node>
	<node lat="58.23927499747636" lon="7.107613882397888" id="-24592">
		<tag k="fixme" v="consider natural=peak for the most distinct mountains in the district" />
		<tag k="name" v="Basteliknollen" />
		<tag k="natural" v="hill" />
		<tag k="place" v="locality" />
		<tag k="ssr:stedsnr" v="386497" />
	</node>
	<node lat="58.09099444738948" lon="7.147277784675282" id="-24593">
		<tag k="name" v="Troddehagen" />
		<tag k="natural" v="slope" />
		<tag k="place" v="locality" />
		<tag k="ssr:stedsnr" v="386917" />
	</node>
	<node lat="58.36174444833733" lon="7.403130548965196" id="-24597">
		<tag k="name" v="Langehaugen" />
		<tag k="natural" v="ridge" />
		<tag k="place" v="locality" />
		<tag k="ssr:stedsnr" v="400209" />
	</node>
	<node lat="58.38889721923201" lon="7.401141662677827" id="-24598">
		<tag k="fixme" v="consider natural=peak for the most distinct mountains in the district" />
		<tag k="loc_name" v="Ydre Bjermåsen" />
		<tag k="name" v="Bjermåsen" />
		<tag k="natural" v="hill" />
		<tag k="place" v="locality" />
		<tag k="ssr:stedsnr" v="400226" />
	</node>
	<node lat="58.314116664514955" lon="7.341086118038293" id="-24600">
		<tag k="name" v="Jonsokfjellan" />
		<tag k="natural" v="hill" />
		<tag k="place" v="locality" />
		<tag k="ssr:stedsnr" v="400281" />
	</node>
	<node lat="58.351274996105474" lon="7.334574992610456" id="-24601">
		<tag k="loc_name" v="Lauåsen" />
		<tag k="name" v="Lauvåsen" />
		<tag k="natural" v="hill" />
		<tag k="place" v="locality" />
		<tag k="ssr:stedsnr" v="400187" />
	</node>
	<node lat="58.298986113394825" lon="7.325808335275509" id="-24604">
		<tag k="loc_name" v="Stakkheiå" />
		<tag k="name" v="Stakkheia" />
		<tag k="natural" v="hill" />
		<tag k="place" v="locality" />
		<tag k="ssr:stedsnr" v="400903" />
	</node>
	<node lat="58.25799444110274" lon="7.3959083329397295" id="-24606">
		<tag k="name" v="Tronstadknodden" />
		<tag k="natural" v="hill" />
		<tag k="place" v="locality" />
		<tag k="ssr:stedsnr" v="400885" />
	</node>
	<node lat="58.29894166239814" lon="7.305497215778741" id="-24608">
		<tag k="fixme" v="consider natural=peak for the most distinct mountains in the district" />
		<tag k="name" v="Kalvåsen" />
		<tag k="natural" v="hill" />
		<tag k="place" v="locality" />
		<tag k="ssr:stedsnr" v="400900" />
	</node>
	<node lat="58.3767916703121" lon="7.364308335904565" id="-24609">
		<tag k="name" v="Kreklingheia" />
		<tag k="natural" v="hill" />
		<tag k="place" v="locality" />
		<tag k="ssr:stedsnr" v="401002" />
	</node>
	<node lat="58.37472222010628" lon="7.334830559003131" id="-24610">
		<tag k="name" v="Kittelsdalen" />
		<tag k="natural" v="valley" />
		<tag k="place" v="locality" />
		<tag k="ssr:stedsnr" v="401010" />
	</node>
	<node lat="58.399047226590696" lon="7.328600002494173" id="-24612">
		<tag k="fixme" v="consider natural=peak for the most distinct mountains in the district" />
		<tag k="name" v="Kjålmen" />
		<tag k="natural" v="hill" />
		<tag k="place" v="locality" />
		<tag k="ssr:stedsnr" v="401028" />
	</node>
	<node lat="58.437283328943074" lon="7.36496389437036" id="-24613">
		<tag k="name" v="Kjørkja" />
		<tag k="place" v="locality" />
		<tag k="ssr:stedsnr" v="401111" />
	</node>
	<node lat="58.46800833603101" lon="7.3660611140458325" id="-24614">
		<tag k="loc_name" v="Høgheiæ" />
		<tag k="name" v="Høghei" />
		<tag k="natural" v="hill" />
		<tag k="place" v="locality" />
		<tag k="ssr:stedsnr" v="401127" />
	</node>
	<node lat="58.48460000368827" lon="7.402799995440336" id="-24615">
		<tag k="name" v="Sollidalen" />
		<tag k="natural" v="valley" />
		<tag k="place" v="locality" />
		<tag k="ssr:stedsnr" v="401175" />
	</node>
	<node lat="58.4325472189685" lon="7.492569445397764" id="-24618">
		<tag k="name" v="Trona" />
		<tag k="place" v="locality" />
		<tag k="ssr:stedsnr" v="401084" />
	</node>
	<node lat="58.34753333343527" lon="7.315199997602774" id="-24619">
		<tag k="name" v="Høgåsen" />
		<tag k="natural" v="hill" />
		<tag k="place" v="locality" />
		<tag k="ssr:stedsnr" v="401406" />
	</node>
	<node lat="58.34885555287215" lon="7.381783326057306" id="-24620">
		<tag k="fixme" v="consider natural=peak for the most distinct mountains in the district" />
		<tag k="name" v="Åsen" />
		<tag k="natural" v="hill" />
		<tag k="place" v="locality" />
		<tag k="ssr:stedsnr" v="401410" />
	</node>
	<node lat="58.37537500421882" lon="7.382463896170352" id="-24621">
		<tag k="name" v="Skaret" />
		<tag k="natural" v="valley" />
		<tag k="place" v="locality" />
		<tag k="ssr:stedsnr" v="401933" />
	</node>
	<node lat="58.32421389097405" lon="7.412244436971789" id="-24622">
		<tag k="name" v="Hagehei" />
		<tag k="natural" v="hill" />
		<tag k="place" v="locality" />
		<tag k="ssr:stedsnr" v="401977" />
	</node>
	<node lat="58.323911112505115" lon="7.312005559210668" id="-24624">
		<tag k="name" v="Maskefjellet" />
		<tag k="natural" v="hill" />
		<tag k="place" v="locality" />
		<tag k="ssr:stedsnr" v="401998" />
	</node>
	<node lat="58.27883889132516" lon="7.222944445554259" id="-24635">
		<tag k="alt_name" v="Troddedalsheia" />
		<tag k="name" v="Titlandsheia" />
		<tag k="natural" v="hill" />
		<tag k="place" v="locality" />
		<tag k="ssr:stedsnr" v="485454" />
	</node>
	<node lat="58.467850003507856" lon="7.361808335246851" id="-24637">
		<tag k="alt_name" v="Breidlihei" />
		<tag k="name" v="Breidliheii" />
		<tag k="natural" v="hill" />
		<tag k="place" v="locality" />
		<tag k="ssr:stedsnr" v="485536" />
	</node>
	<node lat="58.48946666672172" lon="7.391938882693848" id="-24638">
		<tag k="alt_name" v="Vardehei" />
		<tag k="name" v="Solliheii" />
		<tag k="natural" v="hill" />
		<tag k="place" v="locality" />
		<tag k="ssr:stedsnr" v="485563" />
	</node>
	<node lat="58.18762499927669" lon="7.166874992535293" id="-24751">
		<tag k="fixme" v="consider natural=peak for the most distinct mountains in the district" />
		<tag k="name" v="Raunåsen" />
		<tag k="natural" v="hill" />
		<tag k="place" v="locality" />
		<tag k="ssr:stedsnr" v="425444" />
	</node>
	<node lat="58.30040833057637" lon="7.189061112171294" id="-24758">
		<tag k="name" v="Fagerhei" />
		<tag k="natural" v="hill" />
		<tag k="place" v="locality" />
		<tag k="ssr:stedsnr" v="425515" />
	</node>
	<node lat="58.22826111067826" lon="7.1125972200098495" id="-24766">
		<tag k="fixme" v="consider natural=peak for the most distinct mountains in the district" />
		<tag k="name" v="Hellestølåsen" />
		<tag k="natural" v="hill" />
		<tag k="place" v="locality" />
		<tag k="ssr:stedsnr" v="446105" />
	</node>
	<node lat="58.227488893023875" lon="7.010636111497774" id="-24767">
		<tag k="name" v="Handelandsheia" />
		<tag k="natural" v="hill" />
		<tag k="place" v="locality" />
		<tag k="ssr:stedsnr" v="446074" />
	</node>
	<node lat="58.216649996611004" lon="7.1268666719379965" id="-24770">
		<tag k="name" v="Bjørndalskvelland" />
		<tag k="natural" v="slope" />
		<tag k="place" v="locality" />
		<tag k="ssr:stedsnr" v="446202" />
	</node>
	<node lat="58.22320555436325" lon="7.1110916672860265" id="-24771">
		<tag k="name" v="Gulltjønnvarden" />
		<tag k="natural" v="hill" />
		<tag k="place" v="locality" />
		<tag k="ssr:stedsnr" v="446227" />
	</node>
	<node lat="58.25105555201216" lon="7.209450000831196" id="-24774">
		<tag k="name" v="Grønåsen" />
		<tag k="natural" v="hill" />
		<tag k="place" v="locality" />
		<tag k="ssr:stedsnr" v="446254" />
	</node>
	<node lat="58.2496972256967" lon="7.2019722199151825" id="-24775">
		<tag k="fixme" v="consider natural=peak for the most distinct mountains in the district" />
		<tag k="name" v="Foråsen" />
		<tag k="natural" v="hill" />
		<tag k="place" v="locality" />
		<tag k="ssr:stedsnr" v="446256" />
	</node>
	<node lat="58.112077781692676" lon="6.962533340892494" id="-24776">
		<tag k="fixme" v="consider natural=peak for the most distinct mountains in the district" />
		<tag k="name" v="Risås" />
		<tag k="natural" v="hill" />
		<tag k="place" v="locality" />
		<tag k="ssr:stedsnr" v="446285" />
	</node>
	<node lat="58.00233611565825" lon="7.001769446709267" id="-24777">
		<tag k="name" v="Vesterbakken" />
		<tag k="natural" v="slope" />
		<tag k="place" v="locality" />
		<tag k="ssr:stedsnr" v="446288" />
	</node>
	<node lat="58.27908055250935" lon="7.089761115786883" id="-24779">
		<tag k="name" v="Skiptingsbakkane" />
		<tag k="natural" v="hill" />
		<tag k="place" v="locality" />
		<tag k="ssr:stedsnr" v="446172" />
	</node>
	<node lat="58.21529444653134" lon="7.167050003504961" id="-24780">
		<tag k="name" v="Øygardsdalen" />
		<tag k="natural" v="valley" />
		<tag k="place" v="locality" />
		<tag k="ssr:stedsnr" v="446325" />
	</node>
	<node lat="58.152197223931395" lon="7.222597228127592" id="-24783">
		<tag k="name" v="Bekkedalsheia" />
		<tag k="natural" v="hill" />
		<tag k="place" v="locality" />
		<tag k="ssr:stedsnr" v="446378" />
	</node>
	<node lat="58.29671666806185" lon="7.226113886080637" id="-24784">
		<tag k="name" v="Storåsen" />
		<tag k="natural" v="hill" />
		<tag k="place" v="locality" />
		<tag k="ssr:stedsnr" v="446380" />
	</node>
	<node lat="58.18665833747662" lon="7.069449998791987" id="-24786">
		<tag k="fixme" v="consider natural=peak for the most distinct mountains in the district" />
		<tag k="name" v="Geitebufjellene" />
		<tag k="natural" v="hill" />
		<tag k="place" v="locality" />
		<tag k="ssr:stedsnr" v="446426" />
	</node>
	<node lat="58.22954166305149" lon="6.957902776500482" id="-24788">
		<tag k="fixme" v="consider natural=peak for the most distinct mountains in the district" />
		<tag k="name" v="Dyråsen" />
		<tag k="natural" v="hill" />
		<tag k="place" v="locality" />
		<tag k="ssr:stedsnr" v="446477" />
	</node>
	<node lat="58.15253889033343" lon="6.962666665510969" id="-24790">
		<tag k="fixme" v="consider natural=peak for the most distinct mountains in the district" />
		<tag k="name" v="Husefjellet" />
		<tag k="natural" v="hill" />
		<tag k="place" v="locality" />
		<tag k="ssr:stedsnr" v="446484" />
	</node>
	<node lat="58.1519166635633" lon="6.944822224678477" id="-24791">
		<tag k="name" v="Dissefjellet" />
		<tag k="natural" v="hill" />
		<tag k="place" v="locality" />
		<tag k="ssr:stedsnr" v="446487" />
	</node>
	<node lat="58.184158332504666" lon="6.948483340218649" id="-24792">
		<tag k="name" v="Husehei" />
		<tag k="natural" v="hill" />
		<tag k="place" v="locality" />
		<tag k="ssr:stedsnr" v="446490" />
	</node>
	<node lat="58.17551944133796" lon="6.970822229129019" id="-24793">
		<tag k="name" v="Skjærstadmonen" />
		<tag k="place" v="locality" />
		<tag k="ssr:stedsnr" v="446492" />
	</node>
	<node lat="58.25925555656495" lon="7.1801111056443165" id="-24795">
		<tag k="fixme" v="consider natural=peak for the most distinct mountains in the district" />
		<tag k="name" v="Snauehove" />
		<tag k="natural" v="hill" />
		<tag k="place" v="locality" />
		<tag k="ssr:stedsnr" v="446585" />
	</node>
	<node lat="58.25468333686584" lon="7.186058333281937" id="-24796">
		<tag k="name" v="Nesøyna" />
		<tag k="place" v="locality" />
		<tag k="ssr:stedsnr" v="446588" />
	</node>
	<node lat="58.043619447657235" lon="7.019947226100565" id="-24797">
		<tag k="fixme" v="consider natural=peak for the most distinct mountains in the district" />
		<tag k="name" v="Bjørkhammeren" />
		<tag k="natural" v="hill" />
		<tag k="place" v="locality" />
		<tag k="ssr:stedsnr" v="446723" />
	</node>
	<node lat="58.09288611002966" lon="6.997397219860297" id="-24800">
		<tag k="fixme" v="consider natural=peak for the most distinct mountains in the district" />
		<tag k="name" v="Risåsen" />
		<tag k="natural" v="hill" />
		<tag k="place" v="locality" />
		<tag k="ssr:stedsnr" v="446776" />
	</node>
	<node lat="58.096508330582076" lon="6.9983888920906585" id="-24801">
		<tag k="name" v="Lægedalen" />
		<tag k="natural" v="valley" />
		<tag k="place" v="locality" />
		<tag k="ssr:stedsnr" v="446778" />
	</node>
	<node lat="58.1450861091341" lon="6.960422218335258" id="-24802">
		<tag k="name" v="Varebakkan" />
		<tag k="natural" v="slope" />
		<tag k="place" v="locality" />
		<tag k="ssr:stedsnr" v="446779" />
	</node>
	<node lat="58.07835278181904" lon="7.069444447889198" id="-24805">
		<tag k="name" v="Birkelandsheia" />
		<tag k="natural" v="hill" />
		<tag k="place" v="locality" />
		<tag k="ssr:stedsnr" v="446802" />
	</node>
	<node lat="58.10664166248903" lon="7.120275002904001" id="-24806">
		<tag k="fixme" v="consider natural=peak for the most distinct mountains in the district" />
		<tag k="name" v="Storheia" />
		<tag k="natural" v="hill" />
		<tag k="place" v="locality" />
		<tag k="ssr:stedsnr" v="446808" />
	</node>
	<node lat="58.16320277604563" lon="7.083063887974508" id="-24807">
		<tag k="name" v="Båvollen" />
		<tag k="place" v="locality" />
		<tag k="ssr:stedsnr" v="446850" />
	</node>
	<node lat="58.21154721772224" lon="6.966905551738928" id="-24809">
		<tag k="name" v="Torveheia" />
		<tag k="natural" v="hill" />
		<tag k="place" v="locality" />
		<tag k="ssr:stedsnr" v="446984" />
	</node>
	<node lat="58.29635555525161" lon="7.19887499212468" id="-24812">
		<tag k="name" v="Kvinemonen" />
		<tag k="place" v="locality" />
		<tag k="ssr:stedsnr" v="447344" />
	</node>
	<node lat="58.18678055224783" lon="7.207066666196114" id="-24813">
		<tag k="name" v="Vareheia" />
		<tag k="natural" v="hill" />
		<tag k="place" v="locality" />
		<tag k="ssr:stedsnr" v="447513" />
	</node>
	<node lat="58.094219443310536" lon="7.146636113264919" id="-24814">
		<tag k="fixme" v="consider natural=peak for the most distinct mountains in the district" />
		<tag k="name" v="Støa" />
		<tag k="natural" v="hill" />
		<tag k="place" v="locality" />
		<tag k="ssr:stedsnr" v="447907" />
	</node>
	<node lat="58.48021944371355" lon="7.432663893930656" id="-24818">
		<tag k="fixme" v="consider natural=peak for the most distinct mountains in the district" />
		<tag k="name" v="Grokleivåsen" />
		<tag k="natural" v="hill" />
		<tag k="place" v="locality" />
		<tag k="ssr:stedsnr" v="461158" />
	</node>
	<node lat="58.48021388505794" lon="7.496741658398747" id="-24821">
		<tag k="fixme" v="consider natural=peak for the most distinct mountains in the district" />
		<tag k="loc_name" v="Utskorna" />
		<tag k="name" v="Utskårna" />
		<tag k="natural" v="hill" />
		<tag k="place" v="locality" />
		<tag k="ssr:stedsnr" v="461180" />
	</node>
	<node lat="58.43759166791085" lon="7.306022218804967" id="-24823">
		<tag k="name" v="Stedjehei" />
		<tag k="natural" v="hill" />
		<tag k="place" v="locality" />
		<tag k="ssr:stedsnr" v="461260" />
	</node>
	<node lat="58.26090555837774" lon="7.4051972143108955" id="-24824">
		<tag k="name" v="Bådneflaten" />
		<tag k="natural" v="hill" />
		<tag k="place" v="locality" />
		<tag k="ssr:stedsnr" v="461766" />
	</node>
	<node lat="58.354311112828185" lon="7.390233328154922" id="-24827">
		<tag k="loc_name" v="Stokkebrunå" />
		<tag k="name" v="Stokkebrua" />
		<tag k="place" v="locality" />
		<tag k="ssr:stedsnr" v="461959" />
	</node>
	<node lat="58.26374167015344" lon="7.323286116907085" id="-24828">
		<tag k="name" v="Krågehei" />
		<tag k="natural" v="hill" />
		<tag k="place" v="locality" />
		<tag k="ssr:stedsnr" v="461817" />
	</node>
	<node lat="58.42352499592718" lon="7.3769166673999855" id="-24830">
		<tag k="loc_name" v="Asåldalen" />
		<tag k="name" v="Aseldalen" />
		<tag k="natural" v="valley" />
		<tag k="place" v="locality" />
		<tag k="ssr:stedsnr" v="462059" />
	</node>
	<node lat="58.435813885532326" lon="7.490894443728159" id="-24833">
		<tag k="name" v="Åsen" />
		<tag k="natural" v="hill" />
		<tag k="place" v="locality" />
		<tag k="ssr:stedsnr" v="462321" />
	</node>
	<node lat="58.382397223088475" lon="7.369238896085305" id="-24834">
		<tag k="name" v="Bladalan" />
		<tag k="natural" v="valley" />
		<tag k="place" v="locality" />
		<tag k="ssr:stedsnr" v="462955" />
	</node>
	<node lat="58.47086944106271" lon="7.422394442006101" id="-24877">
		<tag k="name" v="Klevheie" />
		<tag k="natural" v="hill" />
		<tag k="place" v="locality" />
		<tag k="ssr:stedsnr" v="474318" />
	</node>
	<node lat="58.118091671161366" lon="6.936149999300532" id="-24922">
		<tag k="name" v="Kvina" />
		<tag k="natural" v="hill" />
		<tag k="place" v="locality" />
		<tag k="ssr:stedsnr" v="485215" />
	</node>
	<node lat="58.20936110780919" lon="7.085419450685262" id="-24937">
		<tag k="fixme" v="consider natural=peak for the most distinct mountains in the district" />
		<tag k="name" v="Trodalsfjellet" />
		<tag k="natural" v="hill" />
		<tag k="place" v="locality" />
		<tag k="ssr:stedsnr" v="506002" />
	</node>
	<node lat="58.21088332950698" lon="7.090958339240972" id="-24939">
		<tag k="fixme" v="consider natural=peak for the most distinct mountains in the district" />
		<tag k="name" v="Flåheia" />
		<tag k="natural" v="hill" />
		<tag k="place" v="locality" />
		<tag k="ssr:stedsnr" v="506024" />
	</node>
	<node lat="58.24531389298482" lon="7.060369436630798" id="-24942">
		<tag k="fixme" v="consider natural=peak for the most distinct mountains in the district" />
		<tag k="name" v="Bortjønnåsen" />
		<tag k="natural" v="hill" />
		<tag k="place" v="locality" />
		<tag k="ssr:stedsnr" v="506071" />
	</node>
	<node lat="58.207094443514585" lon="7.1291138929980065" id="-24943">
		<tag k="name" v="Vollan" />
		<tag k="place" v="locality" />
		<tag k="ssr:stedsnr" v="506105" />
	</node>
	<node lat="58.25449722449847" lon="7.088052781179168" id="-24951">
		<tag k="fixme" v="consider natural=peak for the most distinct mountains in the district" />
		<tag k="name" v="Rabnåsen" />
		<tag k="natural" v="hill" />
		<tag k="place" v="locality" />
		<tag k="ssr:stedsnr" v="506405" />
	</node>
	<node lat="58.17837777829075" lon="7.095888887043187" id="-24952">
		<tag k="fixme" v="consider natural=peak for the most distinct mountains in the district" />
		<tag k="name" v="Tvoråsen" />
		<tag k="natural" v="hill" />
		<tag k="place" v="locality" />
		<tag k="ssr:stedsnr" v="506412" />
	</node>
	<node lat="58.19001111415049" lon="7.083402782452383" id="-24953">
		<tag k="name" v="Trettedalen" />
		<tag k="natural" v="valley" />
		<tag k="place" v="locality" />
		<tag k="ssr:stedsnr" v="506422" />
	</node>
	<node lat="58.22668610938985" lon="6.9413416741113" id="-24954">
		<tag k="name" v="Botna" />
		<tag k="natural" v="valley" />
		<tag k="place" v="locality" />
		<tag k="ssr:stedsnr" v="506457" />
	</node>
	<node lat="58.22198888808634" lon="6.938963880442618" id="-24955">
		<tag k="name" v="Botnebakken" />
		<tag k="natural" v="slope" />
		<tag k="place" v="locality" />
		<tag k="ssr:stedsnr" v="506459" />
	</node>
	<node lat="58.26329722022093" lon="7.1298305633673085" id="-24956">
		<tag k="name" v="Tvitjønnheia" />
		<tag k="natural" v="hill" />
		<tag k="place" v="locality" />
		<tag k="ssr:stedsnr" v="506159" />
	</node>
	<node lat="58.27129444522835" lon="7.112691673458566" id="-24957">
		<tag k="name" v="Røseklova" />
		<tag k="natural" v="valley" />
		<tag k="place" v="locality" />
		<tag k="ssr:stedsnr" v="506163" />
	</node>
	<node lat="58.21853889167144" lon="7.194266668769083" id="-24958">
		<tag k="name" v="Revehaugen" />
		<tag k="natural" v="hill" />
		<tag k="place" v="locality" />
		<tag k="ssr:stedsnr" v="506302" />
	</node>
	<node lat="58.03161944376016" lon="6.992547229785021" id="-24960">
		<tag k="fixme" v="consider natural=peak for the most distinct mountains in the district" />
		<tag k="name" v="Vederbakkfjellet" />
		<tag k="natural" v="hill" />
		<tag k="place" v="locality" />
		<tag k="ssr:stedsnr" v="506316" />
	</node>
	<node lat="58.034036113451286" lon="7.007483336861504" id="-24961">
		<tag k="fixme" v="consider natural=peak for the most distinct mountains in the district" />
		<tag k="name" v="Hunsdalsheia" />
		<tag k="natural" v="hill" />
		<tag k="place" v="locality" />
		<tag k="ssr:stedsnr" v="506322" />
	</node>
	<node lat="58.079408336615735" lon="7.021822229401191" id="-24968">
		<tag k="fixme" v="consider natural=peak for the most distinct mountains in the district" />
		<tag k="name" v="Sjøfjellet" />
		<tag k="natural" v="hill" />
		<tag k="place" v="locality" />
		<tag k="ssr:stedsnr" v="506671" />
	</node>
	<node lat="58.118608337141964" lon="7.10301388920704" id="-24970">
		<tag k="fixme" v="consider natural=peak for the most distinct mountains in the district" />
		<tag k="name" v="Husefjellet" />
		<tag k="natural" v="hill" />
		<tag k="place" v="locality" />
		<tag k="ssr:stedsnr" v="506808" />
	</node>
	<node lat="58.109919443853066" lon="7.1328194380284815" id="-24971">
		<tag k="name" v="Hepteheia" />
		<tag k="natural" v="hill" />
		<tag k="place" v="locality" />
		<tag k="ssr:stedsnr" v="506811" />
	</node>
	<node lat="58.11275555433389" lon="7.11536945270323" id="-24973">
		<tag k="name" v="Trælandskogen" />
		<tag k="natural" v="hill" />
		<tag k="place" v="locality" />
		<tag k="ssr:stedsnr" v="506819" />
	</node>
	<node lat="58.27245555283978" lon="7.175230553614766" id="-24975">
		<tag k="fixme" v="consider natural=peak for the most distinct mountains in the district" />
		<tag k="name" v="Revigheia" />
		<tag k="natural" v="hill" />
		<tag k="place" v="locality" />
		<tag k="ssr:stedsnr" v="506556" />
	</node>
	<node lat="58.16078055810702" lon="6.9961361040446315" id="-24977">
		<tag k="fixme" v="consider natural=peak for the most distinct mountains in the district" />
		<tag k="name" v="Refsheia" />
		<tag k="natural" v="hill" />
		<tag k="place" v="locality" />
		<tag k="ssr:stedsnr" v="506772" />
	</node>
	<node lat="58.18571110856048" lon="7.205819440956779" id="-24982">
		<tag k="name" v="Vestrehagen" />
		<tag k="natural" v="valley" />
		<tag k="place" v="locality" />
		<tag k="ssr:stedsnr" v="507561" />
	</node>
	<node lat="58.22168055842602" lon="7.210083330221766" id="-24983">
		<tag k="name" v="Stemvannsheia" />
		<tag k="natural" v="hill" />
		<tag k="place" v="locality" />
		<tag k="ssr:stedsnr" v="507256" />
	</node>
	<node lat="58.22437777859703" lon="7.216319446502911" id="-24984">
		<tag k="name" v="Ormedalen" />
		<tag k="natural" v="valley" />
		<tag k="place" v="locality" />
		<tag k="ssr:stedsnr" v="507258" />
	</node>
	<node lat="58.16578889143241" lon="7.174044440048211" id="-24987">
		<tag k="name" v="Tømmerdalsheia" />
		<tag k="natural" v="hill" />
		<tag k="place" v="locality" />
		<tag k="ssr:stedsnr" v="507917" />
	</node>
	<node lat="58.262816663649595" lon="7.427544451083373" id="-24988">
		<tag k="loc_name" v="Gjildredalen" />
		<tag k="name" v="Jildredalen" />
		<tag k="natural" v="valley" />
		<tag k="place" v="locality" />
		<tag k="ssr:stedsnr" v="508333" />
	</node>
	<node lat="58.43363611544674" lon="7.467616672019073" id="-24990">
		<tag k="name" v="Skaren" />
		<tag k="natural" v="slope" />
		<tag k="place" v="locality" />
		<tag k="ssr:stedsnr" v="522123" />
	</node>
	<node lat="58.434705555573565" lon="7.429530547824024" id="-24991">
		<tag k="name" v="Oluskleiv" />
		<tag k="natural" v="slope" />
		<tag k="place" v="locality" />
		<tag k="ssr:stedsnr" v="522124" />
	</node>
	<node lat="58.34943889120025" lon="7.3219583417238985" id="-24992">
		<tag k="name" v="Budalen" />
		<tag k="natural" v="valley" />
		<tag k="place" v="locality" />
		<tag k="ssr:stedsnr" v="522213" />
	</node>
	<node lat="58.25400555700292" lon="7.310311119194583" id="-24994">
		<tag k="loc_name" v="Kniben" />
		<tag k="name" v="Brastadhei" />
		<tag k="natural" v="hill" />
		<tag k="place" v="locality" />
		<tag k="ssr:stedsnr" v="522260" />
	</node>
	<node lat="58.48204999845037" lon="7.467002781322579" id="-24996">
		<tag k="fixme" v="consider natural=peak for the most distinct mountains in the district" />
		<tag k="name" v="Stønjursfjellet" />
		<tag k="natural" v="hill" />
		<tag k="place" v="locality" />
		<tag k="ssr:stedsnr" v="522178" />
	</node>
	<node lat="58.4752888906551" lon="7.412333338657556" id="-24999">
		<tag k="fixme" v="consider natural=peak for the most distinct mountains in the district" />
		<tag k="name" v="Bruåsen" />
		<tag k="natural" v="hill" />
		<tag k="place" v="locality" />
		<tag k="ssr:stedsnr" v="522187" />
	</node>
	<node lat="58.36530833657932" lon="7.343263884370257" id="-25000">
		<tag k="fixme" v="consider natural=peak for the most distinct mountains in the district" />
		<tag k="name" v="Høylandsfjeddet" />
		<tag k="natural" v="hill" />
		<tag k="place" v="locality" />
		<tag k="ssr:stedsnr" v="522311" />
	</node>
	<node lat="58.42509444740564" lon="7.3833055628702935" id="-25001">
		<tag k="loc_name" v="Brændahei" />
		<tag k="name" v="Brendahei" />
		<tag k="natural" v="hill" />
		<tag k="place" v="locality" />
		<tag k="ssr:stedsnr" v="522315" />
	</node>
	<node lat="58.43014722267939" lon="7.391088881876007" id="-25002">
		<tag k="loc_name" v="Lokefjellsdalen" />
		<tag k="name" v="Logefjellsdalen" />
		<tag k="natural" v="valley" />
		<tag k="place" v="locality" />
		<tag k="ssr:stedsnr" v="522320" />
	</node>
	<node lat="58.38620278009304" lon="7.375727775659501" id="-25003">
		<tag k="name" v="Rolandsheia" />
		<tag k="natural" v="hill" />
		<tag k="place" v="locality" />
		<tag k="ssr:stedsnr" v="522325" />
	</node>
	<node lat="58.42185833165819" lon="7.422519441302144" id="-25005">
		<tag k="name" v="Varpehei" />
		<tag k="natural" v="hill" />
		<tag k="place" v="locality" />
		<tag k="ssr:stedsnr" v="522368" />
	</node>
	<node lat="58.397250002109764" lon="7.442177780950386" id="-25006">
		<tag k="name" v="Grashomman" />
		<tag k="natural" v="slope" />
		<tag k="place" v="locality" />
		<tag k="ssr:stedsnr" v="522381" />
	</node>
	<node lat="58.33206667022748" lon="7.319797226184448" id="-25011">
		<tag k="name" v="Stølsbrotet" />
		<tag k="natural" v="slope" />
		<tag k="place" v="locality" />
		<tag k="ssr:stedsnr" v="522769" />
	</node>
	<node lat="58.24834722422995" lon="7.28378055096947" id="-25013">
		<tag k="name" v="Løpsebakken" />
		<tag k="natural" v="hill" />
		<tag k="place" v="locality" />
		<tag k="ssr:stedsnr" v="522813" />
	</node>
	<node lat="58.30046389088825" lon="7.267658327008412" id="-25015">
		<tag k="name" v="Ribbakkan" />
		<tag k="natural" v="slope" />
		<tag k="place" v="locality" />
		<tag k="ssr:stedsnr" v="522873" />
	</node>
	<node lat="58.33009444114926" lon="7.3706388920073485" id="-25019">
		<tag k="fixme" v="consider natural=peak for the most distinct mountains in the district" />
		<tag k="name" v="Vassvikåsen" />
		<tag k="natural" v="hill" />
		<tag k="place" v="locality" />
		<tag k="ssr:stedsnr" v="522973" />
	</node>
	<node lat="58.32607778144041" lon="7.368158329054154" id="-25020">
		<tag k="name" v="Øydneskleiva" />
		<tag k="natural" v="slope" />
		<tag k="place" v="locality" />
		<tag k="ssr:stedsnr" v="522975" />
	</node>
	<node lat="58.329844442060796" lon="7.381074991601743" id="-25021">
		<tag k="name" v="Skulebrotskotet" />
		<tag k="natural" v="valley" />
		<tag k="place" v="locality" />
		<tag k="ssr:stedsnr" v="522976" />
	</node>
	<node lat="58.3339722252234" lon="7.39818334170697" id="-25022">
		<tag k="name" v="Brattebrokka" />
		<tag k="natural" v="slope" />
		<tag k="place" v="locality" />
		<tag k="ssr:stedsnr" v="522981" />
	</node>
	<node lat="58.13435833603544" lon="6.9367388934942245" id="-25023">
		<tag k="fixme" v="consider natural=peak for the most distinct mountains in the district" />
		<tag k="name" v="Kjempefjellet" />
		<tag k="natural" v="hill" />
		<tag k="place" v="locality" />
		<tag k="ssr:stedsnr" v="525362" />
	</node>
	<node lat="58.16996667045915" lon="6.959411107936269" id="-25103">
		<tag k="alt_name" v="Tvitjødnheia" />
		<tag k="name" v="Grimilsheia" />
		<tag k="natural" v="hill" />
		<tag k="place" v="locality" />
		<tag k="ssr:stedsnr" v="546223" />
	</node>
	<node lat="58.28477778157669" lon="7.290975003622207" id="-25108">
		<tag k="name" v="Måkeheia" />
		<tag k="natural" v="hill" />
		<tag k="place" v="locality" />
		<tag k="ssr:stedsnr" v="546481" />
	</node>
	<node lat="58.08396944222064" lon="7.013577774978178" id="-25111">
		<tag k="name" v="Håberget" />
		<tag k="natural" v="hill" />
		<tag k="place" v="locality" />
		<tag k="ssr:stedsnr" v="546487" />
	</node>
	<node lat="58.414041669540374" lon="7.315513892168497" id="-25114">
		<tag k="alt_name" v="Svartupsheia" />
		<tag k="name" v="Svartupshei" />
		<tag k="natural" v="hill" />
		<tag k="place" v="locality" />
		<tag k="ssr:stedsnr" v="546609" />
	</node>
	<node lat="58.49937221914827" lon="7.379952772249223" id="-25124">
		<tag k="fixme" v="consider natural=peak for the most distinct mountains in the district" />
		<tag k="name" v="Svartefjellet" />
		<tag k="natural" v="hill" />
		<tag k="place" v="locality" />
		<tag k="ssr:stedsnr" v="546888" />
	</node>
	<node lat="58.108955552545616" lon="6.943327785607702" id="-25125">
		<tag k="fixme" v="consider natural=peak for the most distinct mountains in the district" />
		<tag k="name" v="Lonås" />
		<tag k="natural" v="hill" />
		<tag k="place" v="locality" />
		<tag k="ssr:stedsnr" v="688280" />
	</node>
	<node lat="58.21559444497521" lon="6.944583337633246" id="-25126">
		<tag k="fixme" v="consider natural=peak for the most distinct mountains in the district" />
		<tag k="name" v="Tjomshaugen" />
		<tag k="natural" v="hill" />
		<tag k="place" v="locality" />
		<tag k="ssr:stedsnr" v="688470" />
	</node>
	<node lat="58.20409722417575" lon="7.006730560465733" id="-25127">
		<tag k="fixme" v="consider natural=peak for the most distinct mountains in the district" />
		<tag k="name" v="Høgåsen" />
		<tag k="natural" v="hill" />
		<tag k="place" v="locality" />
		<tag k="ssr:stedsnr" v="689048" />
	</node>
	<node lat="58.20942500106154" lon="7.125977770685903" id="-25128">
		<tag k="name" v="Skot" />
		<tag k="natural" v="valley" />
		<tag k="place" v="locality" />
		<tag k="ssr:stedsnr" v="689028" />
	</node>
	<node lat="58.21031666431528" lon="7.093177777719249" id="-25129">
		<tag k="name" v="Snøskaret" />
		<tag k="natural" v="valley" />
		<tag k="place" v="locality" />
		<tag k="ssr:stedsnr" v="689029" />
	</node>
	<node lat="58.22753055139973" lon="7.07730277121111" id="-25132">
		<tag k="fixme" v="consider natural=peak for the most distinct mountains in the district" />
		<tag k="name" v="Grasåsen" />
		<tag k="natural" v="hill" />
		<tag k="place" v="locality" />
		<tag k="ssr:stedsnr" v="689075" />
	</node>
	<node lat="58.23234166671833" lon="7.0656861154632145" id="-25133">
		<tag k="fixme" v="consider natural=peak for the most distinct mountains in the district" />
		<tag k="name" v="Hestheia" />
		<tag k="natural" v="hill" />
		<tag k="place" v="locality" />
		<tag k="ssr:stedsnr" v="689076" />
	</node>
	<node lat="58.2754777815517" lon="7.098541663149133" id="-25135">
		<tag k="name" v="Markedalen" />
		<tag k="natural" v="valley" />
		<tag k="place" v="locality" />
		<tag k="ssr:stedsnr" v="689163" />
	</node>
	<node lat="58.193297220544686" lon="7.192955557127607" id="-25137">
		<tag k="name" v="Lauvbakken" />
		<tag k="natural" v="slope" />
		<tag k="place" v="locality" />
		<tag k="ssr:stedsnr" v="689251" />
	</node>
	<node lat="58.251627782119485" lon="7.192947216486318" id="-25138">
		<tag k="name" v="Bytingsbakken" />
		<tag k="natural" v="slope" />
		<tag k="place" v="locality" />
		<tag k="ssr:stedsnr" v="689223" />
	</node>
	<node lat="58.02728611551835" lon="6.971386118354787" id="-25139">
		<tag k="fixme" v="consider natural=peak for the most distinct mountains in the district" />
		<tag k="name" v="Brennevinsfjellet" />
		<tag k="natural" v="hill" />
		<tag k="place" v="locality" />
		<tag k="ssr:stedsnr" v="689322" />
	</node>
	<node lat="58.19913888468935" lon="7.191299992252443" id="-25140">
		<tag k="name" v="Holafjellet" />
		<tag k="natural" v="hill" />
		<tag k="place" v="locality" />
		<tag k="ssr:stedsnr" v="689256" />
	</node>
	<node lat="58.19986389001234" lon="7.178211117870183" id="-25142">
		<tag k="name" v="Treskebergan" />
		<tag k="natural" v="slope" />
		<tag k="place" v="locality" />
		<tag k="ssr:stedsnr" v="689263" />
	</node>
	<node lat="58.201747217908625" lon="7.164138896967808" id="-25143">
		<tag k="fixme" v="consider natural=peak for the most distinct mountains in the district" />
		<tag k="name" v="Sandheia" />
		<tag k="natural" v="hill" />
		<tag k="place" v="locality" />
		<tag k="ssr:stedsnr" v="689267" />
	</node>
	<node lat="58.27778333352734" lon="7.195313893105129" id="-25144">
		<tag k="name" v="Bjørneskora" />
		<tag k="natural" v="valley" />
		<tag k="place" v="locality" />
		<tag k="ssr:stedsnr" v="689274" />
	</node>
	<node lat="58.219749997941946" lon="6.898099994963959" id="-25148">
		<tag k="name" v="Eigellhola" />
		<tag k="natural" v="valley" />
		<tag k="place" v="locality" />
		<tag k="ssr:stedsnr" v="689328" />
	</node>
	<node lat="58.13329444058007" lon="7.205105551339142" id="-25150">
		<tag k="name" v="Klaubakken" />
		<tag k="natural" v="hill" />
		<tag k="place" v="locality" />
		<tag k="ssr:stedsnr" v="689400" />
	</node>
	<node lat="58.12766388699627" lon="7.122208335455322" id="-25151">
		<tag k="fixme" v="consider natural=peak for the most distinct mountains in the district" />
		<tag k="name" v="Kleivåsen" />
		<tag k="natural" v="hill" />
		<tag k="place" v="locality" />
		<tag k="ssr:stedsnr" v="689417" />
	</node>
	<node lat="58.254452779325014" lon="7.242177779126681" id="-25152">
		<tag k="fixme" v="consider natural=peak for the most distinct mountains in the district" />
		<tag k="name" v="Litleåsen" />
		<tag k="natural" v="hill" />
		<tag k="place" v="locality" />
		<tag k="ssr:stedsnr" v="689418" />
	</node>
	<node lat="58.13889721962931" lon="7.132113891278023" id="-25153">
		<tag k="fixme" v="consider natural=peak for the most distinct mountains in the district" />
		<tag k="name" v="Solåsen" />
		<tag k="natural" v="hill" />
		<tag k="place" v="locality" />
		<tag k="ssr:stedsnr" v="689422" />
	</node>
	<node lat="58.18280833450992" lon="7.220583334121045" id="-25154">
		<tag k="name" v="Lilleokla" />
		<tag k="natural" v="ridge" />
		<tag k="place" v="locality" />
		<tag k="ssr:stedsnr" v="689352" />
	</node>
	<node lat="58.290333337254374" lon="7.199908339024297" id="-25155">
		<tag k="name" v="Gullsletta" />
		<tag k="natural" v="valley" />
		<tag k="place" v="locality" />
		<tag k="ssr:stedsnr" v="689356" />
	</node>
	<node lat="58.292758336437956" lon="7.19948054699484" id="-25156">
		<tag k="name" v="Skaptåsen" />
		<tag k="natural" v="hill" />
		<tag k="place" v="locality" />
		<tag k="ssr:stedsnr" v="689360" />
	</node>
	<node lat="58.245108334752764" lon="7.096558335277178" id="-25159">
		<tag k="name" v="Loneskaret" />
		<tag k="natural" v="valley" />
		<tag k="place" v="locality" />
		<tag k="ssr:stedsnr" v="689469" />
	</node>
	<node lat="58.260072219325956" lon="7.1861527715628215" id="-25160">
		<tag k="name" v="Sletelia" />
		<tag k="natural" v="slope" />
		<tag k="place" v="locality" />
		<tag k="ssr:stedsnr" v="689545" />
	</node>
	<node lat="58.26110000116828" lon="7.144858337357674" id="-25161">
		<tag k="name" v="Hestadskaret" />
		<tag k="natural" v="valley" />
		<tag k="place" v="locality" />
		<tag k="ssr:stedsnr" v="689553" />
	</node>
	<node lat="58.27289444721953" lon="7.204024999178242" id="-25163">
		<tag k="name" v="Svinsoksbrokka" />
		<tag k="natural" v="slope" />
		<tag k="place" v="locality" />
		<tag k="ssr:stedsnr" v="689564" />
	</node>
	<node lat="58.1628194444447" lon="7.121386118491621" id="-25164">
		<tag k="fixme" v="consider natural=peak for the most distinct mountains in the district" />
		<tag k="name" v="Skrubbåsen" />
		<tag k="natural" v="hill" />
		<tag k="place" v="locality" />
		<tag k="ssr:stedsnr" v="689428" />
	</node>
	<node lat="58.15074721916506" lon="7.0128861133525495" id="-25167">
		<tag k="fixme" v="consider natural=peak for the most distinct mountains in the district" />
		<tag k="name" v="Ersåsen" />
		<tag k="natural" v="hill" />
		<tag k="place" v="locality" />
		<tag k="ssr:stedsnr" v="689723" />
	</node>
	<node lat="58.20976111447814" lon="7.223716668965411" id="-25168">
		<tag k="name" v="Ruskedalen" />
		<tag k="natural" v="valley" />
		<tag k="place" v="locality" />
		<tag k="ssr:stedsnr" v="689570" />
	</node>
	<node lat="58.19823889069367" lon="7.229041660718484" id="-25169">
		<tag k="name" v="Haddan" />
		<tag k="natural" v="slope" />
		<tag k="place" v="locality" />
		<tag k="ssr:stedsnr" v="689571" />
	</node>
	<node lat="58.04264999652803" lon="7.001894452004682" id="-25172">
		<tag k="name" v="Holvikdalen" />
		<tag k="natural" v="valley" />
		<tag k="place" v="locality" />
		<tag k="ssr:stedsnr" v="689658" />
	</node>
	<node lat="58.161633335745066" lon="6.982958327294109" id="-25174">
		<tag k="fixme" v="consider natural=peak for the most distinct mountains in the district" />
		<tag k="name" v="Røysåsen" />
		<tag k="natural" v="hill" />
		<tag k="place" v="locality" />
		<tag k="ssr:stedsnr" v="689730" />
	</node>
	<node lat="58.08122778133909" lon="7.100533326023443" id="-25175">
		<tag k="name" v="Langbakkene" />
		<tag k="natural" v="slope" />
		<tag k="place" v="locality" />
		<tag k="ssr:stedsnr" v="689736" />
	</node>
	<node lat="58.07916388633749" lon="7.097138882092699" id="-25176">
		<tag k="fixme" v="consider natural=peak for the most distinct mountains in the district" />
		<tag k="name" v="Vindåsen" />
		<tag k="natural" v="hill" />
		<tag k="place" v="locality" />
		<tag k="ssr:stedsnr" v="689737" />
	</node>
	<node lat="58.0814388854166" lon="7.047719445809237" id="-25178">
		<tag k="fixme" v="consider natural=peak for the most distinct mountains in the district" />
		<tag k="name" v="Sveinåsen" />
		<tag k="natural" v="hill" />
		<tag k="place" v="locality" />
		<tag k="ssr:stedsnr" v="689759" />
	</node>
	<node lat="58.13201111474941" lon="7.189686114003444" id="-25184">
		<tag k="name" v="Brenderheia" />
		<tag k="natural" v="hill" />
		<tag k="place" v="locality" />
		<tag k="ssr:stedsnr" v="689940" />
	</node>
	<node lat="58.15853333368463" lon="7.146730560818238" id="-25187">
		<tag k="name" v="Langedalen" />
		<tag k="natural" v="valley" />
		<tag k="place" v="locality" />
		<tag k="ssr:stedsnr" v="689957" />
	</node>
	<node lat="58.15701666590232" lon="7.146694451126275" id="-25188">
		<tag k="name" v="Søndre Stomp" />
		<tag k="natural" v="hill" />
		<tag k="place" v="locality" />
		<tag k="ssr:stedsnr" v="689961" />
	</node>
	<node lat="58.151319442298565" lon="7.160533326159151" id="-25189">
		<tag k="name" v="Langehaugen" />
		<tag k="natural" v="hill" />
		<tag k="place" v="locality" />
		<tag k="ssr:stedsnr" v="689969" />
	</node>
	<node lat="58.21157500055088" lon="6.917583341422772" id="-25190">
		<tag k="fixme" v="consider natural=peak for the most distinct mountains in the district" />
		<tag k="name" v="Litla Bustø" />
		<tag k="natural" v="hill" />
		<tag k="place" v="locality" />
		<tag k="ssr:stedsnr" v="689972" />
	</node>
	<node lat="58.217033330061" lon="6.987186119630407" id="-25194">
		<tag k="fixme" v="consider natural=peak for the most distinct mountains in the district" />
		<tag k="name" v="Lyngåsen" />
		<tag k="natural" v="hill" />
		<tag k="place" v="locality" />
		<tag k="ssr:stedsnr" v="567003" />
	</node>
	<node lat="58.20143055382464" lon="7.041624992274746" id="-25196">
		<tag k="fixme" v="consider natural=peak for the most distinct mountains in the district" />
		<tag k="name" v="Åsefjell" />
		<tag k="natural" v="hill" />
		<tag k="place" v="locality" />
		<tag k="ssr:stedsnr" v="567025" />
	</node>
	<node lat="58.20480833132452" lon="7.124397222810017" id="-25197">
		<tag k="name" v="Kjeskaret" />
		<tag k="natural" v="slope" />
		<tag k="place" v="locality" />
		<tag k="ssr:stedsnr" v="567105" />
	</node>
	<node lat="58.19692778187954" lon="7.095074992822992" id="-25198">
		<tag k="name" v="Håveheia" />
		<tag k="natural" v="hill" />
		<tag k="place" v="locality" />
		<tag k="ssr:stedsnr" v="567113" />
	</node>
	<node lat="58.1948055511757" lon="7.109616659477546" id="-25199">
		<tag k="name" v="Skot" />
		<tag k="natural" v="slope" />
		<tag k="place" v="locality" />
		<tag k="ssr:stedsnr" v="567124" />
	</node>
	<node lat="58.21854444163684" lon="7.124030556229958" id="-25200">
		<tag k="fixme" v="consider natural=peak for the most distinct mountains in the district" />
		<tag k="name" v="Haugåsen" />
		<tag k="natural" v="hill" />
		<tag k="place" v="locality" />
		<tag k="ssr:stedsnr" v="567171" />
	</node>
	<node lat="58.21753611311057" lon="7.11896666488938" id="-25201">
		<tag k="fixme" v="consider natural=peak for the most distinct mountains in the district" />
		<tag k="name" v="Vindåsen" />
		<tag k="natural" v="hill" />
		<tag k="place" v="locality" />
		<tag k="ssr:stedsnr" v="567172" />
	</node>
	<node lat="58.248616667812186" lon="7.160527775612766" id="-25202">
		<tag k="fixme" v="consider natural=peak for the most distinct mountains in the district" />
		<tag k="name" v="Vindåsen" />
		<tag k="natural" v="hill" />
		<tag k="place" v="locality" />
		<tag k="ssr:stedsnr" v="567203" />
	</node>
	<node lat="58.189900001501215" lon="7.1774361109215175" id="-25203">
		<tag k="name" v="Nonsknipen" />
		<tag k="natural" v="hill" />
		<tag k="place" v="locality" />
		<tag k="ssr:stedsnr" v="567209" />
	</node>
	<node lat="58.18379444769458" lon="7.040361114268008" id="-25207">
		<tag k="name" v="Haugelandskogene" />
		<tag k="natural" v="hill" />
		<tag k="place" v="locality" />
		<tag k="ssr:stedsnr" v="567403" />
	</node>
	<node lat="58.15063888519942" lon="7.209063891085542" id="-25214">
		<tag k="name" v="Kjørkeskarheia" />
		<tag k="natural" v="hill" />
		<tag k="place" v="locality" />
		<tag k="ssr:stedsnr" v="567517" />
	</node>
	<node lat="58.18220555311844" lon="7.02331665848785" id="-25217">
		<tag k="name" v="Hauelian" />
		<tag k="natural" v="slope" />
		<tag k="place" v="locality" />
		<tag k="ssr:stedsnr" v="567460" />
	</node>
	<node lat="58.17369722558449" lon="7.000102776878323" id="-25218">
		<tag k="fixme" v="consider natural=peak for the most distinct mountains in the district" />
		<tag k="name" v="Slåttefjellet" />
		<tag k="natural" v="hill" />
		<tag k="place" v="locality" />
		<tag k="ssr:stedsnr" v="567466" />
	</node>
	<node lat="58.239794444092" lon="7.227925008180434" id="-25219">
		<tag k="name" v="Grasdalslia" />
		<tag k="natural" v="slope" />
		<tag k="place" v="locality" />
		<tag k="ssr:stedsnr" v="567607" />
	</node>
	<node lat="58.236888886083186" lon="7.231005550586707" id="-25220">
		<tag k="name" v="Trindalsheia" />
		<tag k="natural" v="hill" />
		<tag k="place" v="locality" />
		<tag k="ssr:stedsnr" v="567610" />
	</node>
	<node lat="58.24139444280552" lon="7.2357861186296315" id="-25221">
		<tag k="name" v="Storedalen" />
		<tag k="natural" v="valley" />
		<tag k="place" v="locality" />
		<tag k="ssr:stedsnr" v="567614" />
	</node>
	<node lat="58.134561109958995" lon="6.913883341306652" id="-25223">
		<tag k="fixme" v="consider natural=peak for the most distinct mountains in the district" />
		<tag k="name" v="Asperøyfjellet" />
		<tag k="natural" v="hill" />
		<tag k="place" v="locality" />
		<tag k="ssr:stedsnr" v="567658" />
	</node>
	<node lat="58.110750003049404" lon="7.0817083295603975" id="-25224">
		<tag k="fixme" v="consider natural=peak for the most distinct mountains in the district" />
		<tag k="name" v="Tjuvåsen" />
		<tag k="natural" v="hill" />
		<tag k="place" v="locality" />
		<tag k="ssr:stedsnr" v="567805" />
	</node>
	<node lat="58.11441111458477" lon="7.025722220216417" id="-25225">
		<tag k="name" v="Kalvehagen" />
		<tag k="natural" v="slope" />
		<tag k="place" v="locality" />
		<tag k="ssr:stedsnr" v="567710" />
	</node>
	<node lat="58.04073055325976" lon="6.990177771226671" id="-25226">
		<tag k="name" v="Hausvikfjellet" />
		<tag k="natural" v="hill" />
		<tag k="place" v="locality" />
		<tag k="ssr:stedsnr" v="567712" />
	</node>
	<node lat="58.13641944807397" lon="7.153480552096498" id="-25228">
		<tag k="fixme" v="consider natural=peak for the most distinct mountains in the district" />
		<tag k="name" v="Svimåsen" />
		<tag k="natural" v="hill" />
		<tag k="place" v="locality" />
		<tag k="ssr:stedsnr" v="567959" />
	</node>
	<node lat="58.151869448216495" lon="7.051627773127156" id="-25230">
		<tag k="name" v="Møskelandsheia" />
		<tag k="natural" v="hill" />
		<tag k="place" v="locality" />
		<tag k="ssr:stedsnr" v="567861" />
	</node>
	<node lat="58.099822223978194" lon="7.045913881204495" id="-25231">
		<tag k="fixme" v="consider natural=peak for the most distinct mountains in the district" />
		<tag k="name" v="Kvidafjellet" />
		<tag k="natural" v="hill" />
		<tag k="place" v="locality" />
		<tag k="ssr:stedsnr" v="567866" />
	</node>
	<node lat="58.28235277945768" lon="7.195605561250149" id="-25233">
		<tag k="name" v="Sviddebakken" />
		<tag k="natural" v="slope" />
		<tag k="place" v="locality" />
		<tag k="ssr:stedsnr" v="568258" />
	</node>
	<node lat="58.29217221785901" lon="7.2166472181887" id="-25234">
		<tag k="name" v="Fossbekkdalen" />
		<tag k="natural" v="valley" />
		<tag k="place" v="locality" />
		<tag k="ssr:stedsnr" v="568367" />
	</node>
	<node lat="58.28134722198046" lon="7.143991672299999" id="-25235">
		<tag k="name" v="Brule" />
		<tag k="place" v="locality" />
		<tag k="ssr:stedsnr" v="568374" />
	</node>
	<node lat="58.45127499633273" lon="7.430363880669439" id="-25242">
		<tag k="name" v="Bratteskotet" />
		<tag k="natural" v="valley" />
		<tag k="place" v="locality" />
		<tag k="ssr:stedsnr" v="582105" />
	</node>
	<node lat="58.50913055685493" lon="7.510780549933872" id="-25243">
		<tag k="name" v="Bjørkålhei" />
		<tag k="natural" v="hill" />
		<tag k="place" v="locality" />
		<tag k="ssr:stedsnr" v="582198" />
	</node>
	<node lat="58.50632222223846" lon="7.509683341538035" id="-25244">
		<tag k="fixme" v="consider natural=peak for the most distinct mountains in the district" />
		<tag k="name" v="Heståsen" />
		<tag k="natural" v="hill" />
		<tag k="place" v="locality" />
		<tag k="ssr:stedsnr" v="582201" />
	</node>
	<node lat="58.28379444464014" lon="7.375613893661367" id="-25245">
		<tag k="loc_name" v="Bekkjarheiå" />
		<tag k="name" v="Bekkjarheia" />
		<tag k="natural" v="hill" />
		<tag k="place" v="locality" />
		<tag k="ssr:stedsnr" v="582307" />
	</node>
	<node lat="58.311236111129716" lon="7.351183330024776" id="-25247">
		<tag k="name" v="Stoland" />
		<tag k="natural" v="valley" />
		<tag k="place" v="locality" />
		<tag k="ssr:stedsnr" v="582311" />
	</node>
	<node lat="58.42708332948401" lon="7.393383340012175" id="-25249">
		<tag k="loc_name" v="Raundalsheiæ" />
		<tag k="name" v="Raundalsheia" />
		<tag k="natural" v="hill" />
		<tag k="place" v="locality" />
		<tag k="ssr:stedsnr" v="582343" />
	</node>
	<node lat="58.389488891641655" lon="7.354463884919909" id="-25250">
		<tag k="name" v="Høghei" />
		<tag k="natural" v="hill" />
		<tag k="place" v="locality" />
		<tag k="ssr:stedsnr" v="582345" />
	</node>
	<node lat="58.354266667298546" lon="7.399683334052822" id="-25251">
		<tag k="loc_name" v="Lauåsen" />
		<tag k="name" v="Lauvåsen" />
		<tag k="natural" v="slope" />
		<tag k="place" v="locality" />
		<tag k="ssr:stedsnr" v="582347" />
	</node>
	<node lat="58.25463889152806" lon="7.388199993550318" id="-25252">
		<tag k="fixme" v="consider natural=peak for the most distinct mountains in the district" />
		<tag k="name" v="Stavfjell" />
		<tag k="natural" v="hill" />
		<tag k="place" v="locality" />
		<tag k="ssr:stedsnr" v="582289" />
	</node>
	<node lat="58.26698055152838" lon="7.3536388921112525" id="-25254">
		<tag k="name" v="Kjerålsnasa" />
		<tag k="natural" v="hill" />
		<tag k="place" v="locality" />
		<tag k="ssr:stedsnr" v="582849" />
	</node>
	<node lat="58.283505554734134" lon="7.363041667562927" id="-25260">
		<tag k="name" v="Loftsvollen" />
		<tag k="natural" v="slope" />
		<tag k="place" v="locality" />
		<tag k="ssr:stedsnr" v="582913" />
	</node>
	<node lat="58.31457777600811" lon="7.372738889127201" id="-25261">
		<tag k="name" v="Seneskard" />
		<tag k="natural" v="slope" />
		<tag k="place" v="locality" />
		<tag k="ssr:stedsnr" v="582914" />
	</node>
	<node lat="58.278649998057695" lon="7.280516672986423" id="-25262">
		<tag k="name" v="Kvernebakken" />
		<tag k="natural" v="hill" />
		<tag k="place" v="locality" />
		<tag k="ssr:stedsnr" v="582940" />
	</node>
	<node lat="58.436758335635076" lon="7.452211109583095" id="-25263">
		<tag k="name" v="Daleskotet" />
		<tag k="natural" v="valley" />
		<tag k="place" v="locality" />
		<tag k="ssr:stedsnr" v="583115" />
	</node>
	<node lat="58.3748416698046" lon="7.367577773938221" id="-25264">
		<tag k="name" v="Husefjellet" />
		<tag k="natural" v="hill" />
		<tag k="place" v="locality" />
		<tag k="ssr:stedsnr" v="583002" />
	</node>
	<node lat="58.43146666773967" lon="7.39709444736106" id="-25266">
		<tag k="loc_name" v="Lokefjeddæ" />
		<tag k="name" v="Logefjell" />
		<tag k="natural" v="hill" />
		<tag k="place" v="locality" />
		<tag k="ssr:stedsnr" v="583054" />
	</node>
	<node lat="58.421397226197406" lon="7.324763882259469" id="-25267">
		<tag k="fixme" v="consider natural=peak for the most distinct mountains in the district" />
		<tag k="name" v="Meåsen" />
		<tag k="natural" v="hill" />
		<tag k="place" v="locality" />
		<tag k="ssr:stedsnr" v="583058" />
	</node>
	<node lat="58.44326944022723" lon="7.341211106997527" id="-25269">
		<tag k="name" v="Tagedalsknuten" />
		<tag k="natural" v="hill" />
		<tag k="place" v="locality" />
		<tag k="ssr:stedsnr" v="583098" />
	</node>
	<node lat="58.43913888745879" lon="7.402186105607907" id="-25270">
		<tag k="name" v="Bekkedalen" />
		<tag k="natural" v="valley" />
		<tag k="place" v="locality" />
		<tag k="ssr:stedsnr" v="583340" />
	</node>
	<node lat="58.435411109178496" lon="7.485974993397291" id="-25272">
		<tag k="loc_name" v="Grånedalen" />
		<tag k="name" v="Granedalen" />
		<tag k="natural" v="valley" />
		<tag k="place" v="locality" />
		<tag k="ssr:stedsnr" v="583350" />
	</node>
	<node lat="58.434830552391034" lon="7.442897229551019" id="-25273">
		<tag k="name" v="Skoddehei" />
		<tag k="natural" v="hill" />
		<tag k="place" v="locality" />
		<tag k="ssr:stedsnr" v="583352" />
	</node>
	<node lat="58.35728333638894" lon="7.42096944617816" id="-25274">
		<tag k="name" v="Torshusdalen" />
		<tag k="natural" v="valley" />
		<tag k="place" v="locality" />
		<tag k="ssr:stedsnr" v="583404" />
	</node>
	<node lat="58.378652776489204" lon="7.369277775405596" id="-25275">
		<tag k="name" v="Stean" />
		<tag k="place" v="locality" />
		<tag k="ssr:stedsnr" v="583946" />
	</node>
	<node lat="58.26376578730069" lon="7.041636689417631" id="-25364">
		<tag k="alt_name" v="Eigebrokkheia" />
		<tag k="fixme" v="consider natural=peak for the most distinct mountains in the district" />
		<tag k="name" v="Eikebrokkheia" />
		<tag k="natural" v="hill" />
		<tag k="place" v="locality" />
		<tag k="ssr:stedsnr" v="699121" />
	</node>
	<node lat="58.154566665457565" lon="7.022994436349221" id="-25366">
		<tag k="name" v="Treungheia" />
		<tag k="natural" v="hill" />
		<tag k="place" v="locality" />
		<tag k="ssr:stedsnr" v="605507" />
	</node>
	<node lat="58.35990833266998" lon="7.3216500061131535" id="-25385">
		<tag k="fixme" v="multiple name tags, choose one and add the other to alt_name; consider natural=peak for the most distinct mountains in the district" />
		<tag k="loc_name" v="Kvitakvedn" />
		<tag k="name" v="Revsdalsfjellet;Kvidakvedn" />
		<tag k="natural" v="hill" />
		<tag k="place" v="locality" />
		<tag k="ssr:stedsnr" v="606698" />
	</node>
	<node lat="58.4547472244959" lon="7.4373277814058145" id="-25391">
		<tag k="name" v="Skovedalen" />
		<tag k="natural" v="valley" />
		<tag k="place" v="locality" />
		<tag k="ssr:stedsnr" v="703151" />
	</node>
	<node lat="58.37907778025315" lon="7.407366667195606" id="-25393">
		<tag k="loc_name" v="Barlinskaræ" />
		<tag k="name" v="Barlinskaret" />
		<tag k="natural" v="valley" />
		<tag k="place" v="locality" />
		<tag k="ssr:stedsnr" v="704231" />
	</node>
	<node lat="58.263211108293056" lon="7.072497226949943" id="-25394">
		<tag k="name" v="Knagje" />
		<tag k="place" v="locality" />
		<tag k="ssr:stedsnr" v="627144" />
	</node>
	<node lat="58.27506110907488" lon="7.0797083341975915" id="-25395">
		<tag k="fixme" v="consider natural=peak for the most distinct mountains in the district" />
		<tag k="name" v="Braunkonheia" />
		<tag k="natural" v="hill" />
		<tag k="place" v="locality" />
		<tag k="ssr:stedsnr" v="627157" />
	</node>
	<node lat="58.264797224860054" lon="7.099483339543782" id="-25396">
		<tag k="name" v="Kalleskaret" />
		<tag k="natural" v="valley" />
		<tag k="place" v="locality" />
		<tag k="ssr:stedsnr" v="627164" />
	</node>
	<node lat="58.220133335609916" lon="7.111058335180321" id="-25397">
		<tag k="name" v="Tandel" />
		<tag k="natural" v="hill" />
		<tag k="place" v="locality" />
		<tag k="ssr:stedsnr" v="627198" />
	</node>
	<node lat="58.2125444436994" lon="7.047569450864861" id="-25404">
		<tag k="name" v="Bergeheia" />
		<tag k="natural" v="hill" />
		<tag k="place" v="locality" />
		<tag k="ssr:stedsnr" v="627101" />
	</node>
	<node lat="58.220744440179104" lon="7.116266671080902" id="-25405">
		<tag k="name" v="Gulltjønnbakkan" />
		<tag k="natural" v="hill" />
		<tag k="place" v="locality" />
		<tag k="ssr:stedsnr" v="627203" />
	</node>
	<node lat="58.25617777908534" lon="7.107930556745175" id="-25406">
		<tag k="name" v="Grønåsen" />
		<tag k="natural" v="hill" />
		<tag k="place" v="locality" />
		<tag k="ssr:stedsnr" v="627253" />
	</node>
	<node lat="58.161658337395096" lon="7.101830557498087" id="-25409">
		<tag k="name" v="Sauestøa" />
		<tag k="natural" v="valley" />
		<tag k="place" v="locality" />
		<tag k="ssr:stedsnr" v="627449" />
	</node>
	<node lat="58.22823055858983" lon="6.951722223384548" id="-25411">
		<tag k="name" v="Kvassarkleiva" />
		<tag k="natural" v="slope" />
		<tag k="place" v="locality" />
		<tag k="ssr:stedsnr" v="627501" />
	</node>
	<node lat="58.257563889324025" lon="7.172116670498107" id="-25412">
		<tag k="name" v="Ålgårdheia" />
		<tag k="natural" v="hill" />
		<tag k="place" v="locality" />
		<tag k="ssr:stedsnr" v="627606" />
	</node>
	<node lat="58.24004444755127" lon="7.235436114829792" id="-25413">
		<tag k="fixme" v="consider natural=peak for the most distinct mountains in the district" />
		<tag k="name" v="Trindalsheia" />
		<tag k="natural" v="hill" />
		<tag k="place" v="locality" />
		<tag k="ssr:stedsnr" v="627645" />
	</node>
	<node lat="58.17068055388069" lon="6.98116944872229" id="-25414">
		<tag k="name" v="Skjæreheia" />
		<tag k="natural" v="hill" />
		<tag k="place" v="locality" />
		<tag k="ssr:stedsnr" v="627504" />
	</node>
	<node lat="58.07562777933892" lon="7.025172222564894" id="-25416">
		<tag k="fixme" v="consider natural=peak for the most distinct mountains in the district" />
		<tag k="name" v="Andersåsen" />
		<tag k="natural" v="hill" />
		<tag k="place" v="locality" />
		<tag k="ssr:stedsnr" v="627716" />
	</node>
	<node lat="58.11766388696201" lon="6.9892388838898984" id="-25418">
		<tag k="name" v="Stibakken" />
		<tag k="natural" v="slope" />
		<tag k="place" v="locality" />
		<tag k="ssr:stedsnr" v="627748" />
	</node>
	<node lat="58.047255556959094" lon="6.982591672347469" id="-25419">
		<tag k="name" v="Slettedalen" />
		<tag k="natural" v="valley" />
		<tag k="place" v="locality" />
		<tag k="ssr:stedsnr" v="627750" />
	</node>
	<node lat="58.08323055335396" lon="7.0021888821951395" id="-25420">
		<tag k="fixme" v="consider natural=peak for the most distinct mountains in the district" />
		<tag k="name" v="Ørnefjellet" />
		<tag k="natural" v="hill" />
		<tag k="place" v="locality" />
		<tag k="ssr:stedsnr" v="627694" />
	</node>
	<node lat="58.17108055586417" lon="6.900599998012611" id="-25421">
		<tag k="fixme" v="consider natural=peak for the most distinct mountains in the district" />
		<tag k="name" v="Knubben" />
		<tag k="natural" v="hill" />
		<tag k="place" v="locality" />
		<tag k="ssr:stedsnr" v="627697" />
	</node>
	<node lat="58.06099444369014" lon="7.079674991587402" id="-25423">
		<tag k="fixme" v="consider natural=peak for the most distinct mountains in the district" />
		<tag k="name" v="Jofjellet" />
		<tag k="natural" v="hill" />
		<tag k="place" v="locality" />
		<tag k="ssr:stedsnr" v="627848" />
	</node>
	<node lat="58.120874997503506" lon="7.036941660624581" id="-25424">
		<tag k="name" v="Åsen" />
		<tag k="natural" v="hill" />
		<tag k="place" v="locality" />
		<tag k="ssr:stedsnr" v="627858" />
	</node>
	<node lat="58.23897778215181" lon="7.07163333254568" id="-25428">
		<tag k="name" v="Slåtemyrhobden" />
		<tag k="natural" v="hill" />
		<tag k="place" v="locality" />
		<tag k="ssr:stedsnr" v="628063" />
	</node>
	<node lat="58.13237777889715" lon="7.043111104616983" id="-25432">
		<tag k="name" v="Einebakken" />
		<tag k="natural" v="hill" />
		<tag k="place" v="locality" />
		<tag k="ssr:stedsnr" v="627906" />
	</node>
	<node lat="58.132366663899546" lon="7.052638886956641" id="-25433">
		<tag k="name" v="Myrbakken" />
		<tag k="natural" v="hill" />
		<tag k="place" v="locality" />
		<tag k="ssr:stedsnr" v="627909" />
	</node>
	<node lat="58.12703055370055" lon="7.0539361050067715" id="-25434">
		<tag k="fixme" v="consider natural=peak for the most distinct mountains in the district" />
		<tag k="name" v="Naveråsen" />
		<tag k="natural" v="hill" />
		<tag k="place" v="locality" />
		<tag k="ssr:stedsnr" v="627910" />
	</node>
	<node lat="58.228583332845176" lon="7.212069443095288" id="-25435">
		<tag k="name" v="Sollia" />
		<tag k="natural" v="slope" />
		<tag k="place" v="locality" />
		<tag k="ssr:stedsnr" v="628262" />
	</node>
	<node lat="58.25571111486324" lon="7.2596500030109485" id="-25438">
		<tag k="name" v="Revelia" />
		<tag k="natural" v="slope" />
		<tag k="place" v="locality" />
		<tag k="ssr:stedsnr" v="628423" />
	</node>
	<node lat="58.277669442242754" lon="7.22695278382423" id="-25439">
		<tag k="name" v="Troddedalen" />
		<tag k="natural" v="valley" />
		<tag k="place" v="locality" />
		<tag k="ssr:stedsnr" v="628320" />
	</node>
	<node lat="58.293188886437406" lon="7.222888881504419" id="-25440">
		<tag k="fixme" v="consider natural=peak for the most distinct mountains in the district" />
		<tag k="name" v="Ørneheia" />
		<tag k="natural" v="hill" />
		<tag k="place" v="locality" />
		<tag k="ssr:stedsnr" v="628324" />
	</node>
	<node lat="58.29685555771228" lon="7.235475006609673" id="-25441">
		<tag k="fixme" v="consider natural=peak for the most distinct mountains in the district" />
		<tag k="name" v="Høgåsen" />
		<tag k="natural" v="hill" />
		<tag k="place" v="locality" />
		<tag k="ssr:stedsnr" v="628325" />
	</node>
	<node lat="58.295769443770936" lon="7.215938894718355" id="-25444">
		<tag k="name" v="Krekkelhagen" />
		<tag k="natural" v="slope" />
		<tag k="place" v="locality" />
		<tag k="ssr:stedsnr" v="628355" />
	</node>
	<node lat="58.15195277589044" lon="7.197513896684683" id="-25447">
		<tag k="name" v="Moseknipen" />
		<tag k="natural" v="hill" />
		<tag k="place" v="locality" />
		<tag k="ssr:stedsnr" v="628519" />
	</node>
	<node lat="58.19523055814867" lon="7.200216666428323" id="-25448">
		<tag k="name" v="Brudalen" />
		<tag k="natural" v="valley" />
		<tag k="place" v="locality" />
		<tag k="ssr:stedsnr" v="628544" />
	</node>
	<node lat="58.152275002855944" lon="7.1795333365078795" id="-25450">
		<tag k="name" v="Helleren" />
		<tag k="place" v="locality" />
		<tag k="ssr:stedsnr" v="628891" />
	</node>
	<node lat="58.15430555770904" lon="7.1764138830045" id="-25452">
		<tag k="name" v="Opsalshola" />
		<tag k="natural" v="valley" />
		<tag k="place" v="locality" />
		<tag k="ssr:stedsnr" v="628950" />
	</node>
	<node lat="58.42420277751417" lon="7.380833335815085" id="-25459">
		<tag k="fixme" v="consider natural=peak for the most distinct mountains in the district" />
		<tag k="loc_name" v="Æptkjærsheiæ" />
		<tag k="name" v="Eptekjerrhei" />
		<tag k="natural" v="hill" />
		<tag k="place" v="locality" />
		<tag k="ssr:stedsnr" v="704047" />
	</node>
	<node lat="58.4190194404816" lon="7.370183334984183" id="-25460">
		<tag k="name" v="Lysebakken" />
		<tag k="natural" v="slope" />
		<tag k="place" v="locality" />
		<tag k="ssr:stedsnr" v="704050" />
	</node>
	<node lat="58.42159999740859" lon="7.469197220878951" id="-25461">
		<tag k="name" v="Hisåsen" />
		<tag k="natural" v="hill" />
		<tag k="place" v="locality" />
		<tag k="ssr:stedsnr" v="704083" />
	</node>
	<node lat="58.4474583372577" lon="7.40304999473327" id="-25462">
		<tag k="name" v="Vardehei" />
		<tag k="natural" v="hill" />
		<tag k="place" v="locality" />
		<tag k="ssr:stedsnr" v="704088" />
	</node>
	<node lat="58.436836111911724" lon="7.373950007159926" id="-25465">
		<tag k="name" v="Skarkedalen" />
		<tag k="natural" v="valley" />
		<tag k="place" v="locality" />
		<tag k="ssr:stedsnr" v="704098" />
	</node>
	<node lat="58.48324721814367" lon="7.387083338979724" id="-25468">
		<tag k="name" v="Kleivan" />
		<tag k="natural" v="slope" />
		<tag k="place" v="locality" />
		<tag k="ssr:stedsnr" v="704151" />
	</node>
	<node lat="58.50911111061942" lon="7.4770361032364825" id="-25470">
		<tag k="name" v="Hyljestedjan" />
		<tag k="place" v="locality" />
		<tag k="ssr:stedsnr" v="704183" />
	</node>
	<node lat="58.35190555186201" lon="7.315358334942022" id="-25471">
		<tag k="loc_name" v="Osebakken" />
		<tag k="name" v="Osebakkjen" />
		<tag k="natural" v="slope" />
		<tag k="place" v="locality" />
		<tag k="ssr:stedsnr" v="704193" />
	</node>
	<node lat="58.381841667169994" lon="7.4188111127809355" id="-25473">
		<tag k="fixme" v="consider natural=peak for the most distinct mountains in the district" />
		<tag k="name" v="Gaukåsen" />
		<tag k="natural" v="hill" />
		<tag k="place" v="locality" />
		<tag k="ssr:stedsnr" v="704232" />
	</node>
	<node lat="58.261880557800154" lon="7.341675005504051" id="-25474">
		<tag k="name" v="Gilrifjellet" />
		<tag k="natural" v="hill" />
		<tag k="place" v="locality" />
		<tag k="ssr:stedsnr" v="704244" />
	</node>
	<node lat="58.294452780168065" lon="7.336961118284747" id="-25475">
		<tag k="name" v="Nepstadhei" />
		<tag k="natural" v="hill" />
		<tag k="place" v="locality" />
		<tag k="ssr:stedsnr" v="704246" />
	</node>
	<node lat="58.232450001634916" lon="7.342949992995847" id="-25476">
		<tag k="name" v="Regåshaugen" />
		<tag k="natural" v="hill" />
		<tag k="place" v="locality" />
		<tag k="ssr:stedsnr" v="704248" />
	</node>
	<node lat="58.242797221401354" lon="7.271299997404397" id="-25477">
		<tag k="name" v="Stokken" />
		<tag k="place" v="locality" />
		<tag k="ssr:stedsnr" v="704813" />
	</node>
	<node lat="58.26265277738998" lon="7.29338611219015" id="-25478">
		<tag k="name" v="Kvåvan" />
		<tag k="natural" v="slope" />
		<tag k="place" v="locality" />
		<tag k="ssr:stedsnr" v="704818" />
	</node>
	<node lat="58.419402781017" lon="7.354238880955" id="-25479">
		<tag k="name" v="Fossknuten" />
		<tag k="natural" v="hill" />
		<tag k="place" v="locality" />
		<tag k="ssr:stedsnr" v="704296" />
	</node>
	<node lat="58.38673333383106" lon="7.363366667742985" id="-25481">
		<tag k="name" v="Tjovedalen" />
		<tag k="natural" v="valley" />
		<tag k="place" v="locality" />
		<tag k="ssr:stedsnr" v="704299" />
	</node>
	<node lat="58.37720555549391" lon="7.413741660246558" id="-25482">
		<tag k="fixme" v="consider natural=peak for the most distinct mountains in the district" />
		<tag k="name" v="Espåsen" />
		<tag k="natural" v="hill" />
		<tag k="place" v="locality" />
		<tag k="ssr:stedsnr" v="704353" />
	</node>
	<node lat="58.40520278207672" lon="7.441827770037915" id="-25483">
		<tag k="name" v="Skarkedalen" />
		<tag k="natural" v="valley" />
		<tag k="place" v="locality" />
		<tag k="ssr:stedsnr" v="704356" />
	</node>
	<node lat="58.26567222185514" lon="7.324608336121216" id="-25484">
		<tag k="name" v="Hagemyrbakken" />
		<tag k="natural" v="hill" />
		<tag k="place" v="locality" />
		<tag k="ssr:stedsnr" v="704795" />
	</node>
	<node lat="58.27082500359954" lon="7.34519444061934" id="-25485">
		<tag k="fixme" v="consider natural=peak for the most distinct mountains in the district" />
		<tag k="name" v="Rebbåsen" />
		<tag k="natural" v="hill" />
		<tag k="place" v="locality" />
		<tag k="ssr:stedsnr" v="704800" />
	</node>
	<node lat="58.25638333024121" lon="7.303816669079633" id="-25487">
		<tag k="fixme" v="consider natural=peak for the most distinct mountains in the district" />
		<tag k="name" v="Borgeråsen" />
		<tag k="natural" v="hill" />
		<tag k="place" v="locality" />
		<tag k="ssr:stedsnr" v="704839" />
	</node>
	<node lat="58.29860000295416" lon="7.348741666754499" id="-25489">
		<tag k="name" v="Juå" />
		<tag k="natural" v="hill" />
		<tag k="place" v="locality" />
		<tag k="ssr:stedsnr" v="704902" />
	</node>
	<node lat="58.32624166903398" lon="7.378599996824309" id="-25490">
		<tag k="fixme" v="consider natural=peak for the most distinct mountains in the district" />
		<tag k="name" v="Lindåsen" />
		<tag k="natural" v="hill" />
		<tag k="place" v="locality" />
		<tag k="ssr:stedsnr" v="704977" />
	</node>
	<node lat="58.385952776870205" lon="7.365697229151249" id="-25491">
		<tag k="name" v="Tjovedalskotet" />
		<tag k="natural" v="valley" />
		<tag k="place" v="locality" />
		<tag k="ssr:stedsnr" v="704934" />
	</node>
	<node lat="58.36036389164732" lon="7.3347833305470065" id="-25494">
		<tag k="name" v="Brotan" />
		<tag k="natural" v="slope" />
		<tag k="place" v="locality" />
		<tag k="ssr:stedsnr" v="705966" />
	</node>
	<node lat="58.32384444148411" lon="7.4250722220308845" id="-25495">
		<tag k="name" v="Grengebrokka" />
		<tag k="natural" v="slope" />
		<tag k="place" v="locality" />
		<tag k="ssr:stedsnr" v="705970" />
	</node>
	<node lat="58.457602774038605" lon="7.445730559430785" id="-25498">
		<tag k="name" v="Blonnestaddalen" />
		<tag k="natural" v="valley" />
		<tag k="place" v="locality" />
		<tag k="ssr:stedsnr" v="642119" />
	</node>
	<node lat="58.46066667010505" lon="7.392658335588967" id="-25499">
		<tag k="fixme" v="consider natural=peak for the most distinct mountains in the district" />
		<tag k="name" v="Daurmolåsen" />
		<tag k="natural" v="hill" />
		<tag k="place" v="locality" />
		<tag k="ssr:stedsnr" v="642127" />
	</node>
	<node lat="58.419274997976395" lon="7.384413885293137" id="-25501">
		<tag k="name" v="Sessedalen" />
		<tag k="natural" v="valley" />
		<tag k="place" v="locality" />
		<tag k="ssr:stedsnr" v="643079" />
	</node>
	<node lat="58.41546388460549" lon="7.418708340242651" id="-25503">
		<tag k="name" v="Rundehaugen" />
		<tag k="natural" v="hill" />
		<tag k="place" v="locality" />
		<tag k="ssr:stedsnr" v="643084" />
	</node>
	<node lat="58.42934166739205" lon="7.432791670098525" id="-25505">
		<tag k="name" v="Possmyrdalen" />
		<tag k="natural" v="valley" />
		<tag k="place" v="locality" />
		<tag k="ssr:stedsnr" v="643092" />
	</node>
	<node lat="58.43036111327972" lon="7.48149722806127" id="-25507">
		<tag k="fixme" v="consider natural=peak for the most distinct mountains in the district" />
		<tag k="name" v="Huarknodden" />
		<tag k="natural" v="hill" />
		<tag k="place" v="locality" />
		<tag k="ssr:stedsnr" v="643106" />
	</node>
	<node lat="58.42073611500673" lon="7.443155547774836" id="-25508">
		<tag k="name" v="Skotstø" />
		<tag k="natural" v="valley" />
		<tag k="place" v="locality" />
		<tag k="ssr:stedsnr" v="643109" />
	</node>
	<node lat="58.42335833732794" lon="7.479077779704183" id="-25509">
		<tag k="fixme" v="consider natural=peak for the most distinct mountains in the district" />
		<tag k="name" v="Gildreåsen" />
		<tag k="natural" v="hill" />
		<tag k="place" v="locality" />
		<tag k="ssr:stedsnr" v="643110" />
	</node>
	<node lat="58.437899999827216" lon="7.3456861103382085" id="-25510">
		<tag k="name" v="Knipen" />
		<tag k="natural" v="hill" />
		<tag k="place" v="locality" />
		<tag k="ssr:stedsnr" v="643125" />
	</node>
	<node lat="58.482294440321844" lon="7.437458337898216" id="-25511">
		<tag k="name" v="Godal" />
		<tag k="natural" v="valley" />
		<tag k="place" v="locality" />
		<tag k="ssr:stedsnr" v="643173" />
	</node>
	<node lat="58.477074998505266" lon="7.36823055963596" id="-25512">
		<tag k="name" v="Kaldtjønnknuten" />
		<tag k="natural" v="hill" />
		<tag k="place" v="locality" />
		<tag k="ssr:stedsnr" v="643194" />
	</node>
	<node lat="58.36870555324578" lon="7.321663883582225" id="-25513">
		<tag k="name" v="Langemyrdalen" />
		<tag k="natural" v="valley" />
		<tag k="place" v="locality" />
		<tag k="ssr:stedsnr" v="643304" />
	</node>
	<node lat="58.28706944889568" lon="7.36200277679233" id="-25515">
		<tag k="loc_name" v="Kjørkeheiå" />
		<tag k="name" v="Kjørkehei" />
		<tag k="natural" v="hill" />
		<tag k="place" v="locality" />
		<tag k="ssr:stedsnr" v="643278" />
	</node>
	<node lat="58.285608334053464" lon="7.30982778048592" id="-25516">
		<tag k="name" v="Åmlida" />
		<tag k="natural" v="slope" />
		<tag k="place" v="locality" />
		<tag k="ssr:stedsnr" v="643293" />
	</node>
	<node lat="58.29979722282506" lon="7.388408341481126" id="-25519">
		<tag k="name" v="Breidablikk" />
		<tag k="natural" v="hill" />
		<tag k="place" v="locality" />
		<tag k="ssr:stedsnr" v="643924" />
	</node>
	<node lat="58.271283329353665" lon="7.312819436531773" id="-25522">
		<tag k="name" v="Kjempevollen" />
		<tag k="place" v="locality" />
		<tag k="ssr:stedsnr" v="643816" />
	</node>
	<node lat="57.99887500212121" lon="7.001650003835804" id="-25621">
		<tag k="fixme" v="consider natural=peak for the most distinct mountains in the district" />
		<tag k="name" v="Selhovden" />
		<tag k="natural" v="hill" />
		<tag k="place" v="locality" />
		<tag k="ssr:stedsnr" v="667005" />
	</node>
	<node lat="58.22487500139738" lon="7.1345166646762115" id="-25628">
		<tag k="name" v="Stigeheia" />
		<tag k="natural" v="hill" />
		<tag k="place" v="locality" />
		<tag k="ssr:stedsnr" v="667415" />
	</node>
	<node lat="58.34006667008616" lon="7.376663893646887" id="-25644">
		<tag k="alt_name" v="Storåsen" />
		<tag k="fixme" v="consider natural=peak for the most distinct mountains in the district" />
		<tag k="name" v="Nesåsen" />
		<tag k="natural" v="hill" />
		<tag k="place" v="locality" />
		<tag k="ssr:stedsnr" v="667739" />
	</node>
	<node lat="58.17250833691948" lon="7.074313894767175" id="-25648">
		<tag k="name" v="Heptan" />
		<tag k="natural" v="valley" />
		<tag k="place" v="locality" />
		<tag k="ssr:stedsnr" v="688431" />
	</node>
	<node lat="58.20819166695978" lon="7.045222216949952" id="-25650">
		<tag k="name" v="Lillestemmen" />
		<tag k="place" v="locality" />
		<tag k="ssr:stedsnr" v="689014" />
	</node>
	<node lat="58.203033337067644" lon="6.944600008053018" id="-25651">
		<tag k="name" v="Varhei" />
		<tag k="natural" v="hill" />
		<tag k="place" v="locality" />
		<tag k="ssr:stedsnr" v="689039" />
	</node>
	<node lat="58.20554444737569" lon="7.028299998568323" id="-25653">
		<tag k="name" v="Hobden" />
		<tag k="natural" v="hill" />
		<tag k="place" v="locality" />
		<tag k="ssr:stedsnr" v="689043" />
	</node>
	<node lat="58.21717500024861" lon="7.060800006145524" id="-25654">
		<tag k="name" v="Trogedalen" />
		<tag k="natural" v="valley" />
		<tag k="place" v="locality" />
		<tag k="ssr:stedsnr" v="689081" />
	</node>
	<node lat="58.24425833601845" lon="7.148569441248585" id="-25660">
		<tag k="fixme" v="consider natural=peak for the most distinct mountains in the district" />
		<tag k="name" v="Grovknodden" />
		<tag k="natural" v="hill" />
		<tag k="place" v="locality" />
		<tag k="ssr:stedsnr" v="689216" />
	</node>
	<node lat="58.03836944244627" lon="7.020394438343943" id="-25672">
		<tag k="name" v="Prinsebakken" />
		<tag k="natural" v="hill" />
		<tag k="place" v="locality" />
		<tag k="ssr:stedsnr" v="689317" />
	</node>
	<node lat="58.224833330446394" lon="7.161561115654463" id="-25673">
		<tag k="name" v="Flot" />
		<tag k="natural" v="hill" />
		<tag k="place" v="locality" />
		<tag k="ssr:stedsnr" v="689319" />
	</node>
	<node lat="58.280977780400725" lon="7.225100003578532" id="-25675">
		<tag k="name" v="Kvæveheia" />
		<tag k="natural" v="hill" />
		<tag k="place" v="locality" />
		<tag k="ssr:stedsnr" v="689334" />
	</node>
	<node lat="58.281644442949315" lon="7.2323194394782275" id="-25676">
		<tag k="name" v="Stedjan" />
		<tag k="natural" v="slope" />
		<tag k="place" v="locality" />
		<tag k="ssr:stedsnr" v="689335" />
	</node>
	<node lat="58.18898610972073" lon="7.240030557042403" id="-25677">
		<tag k="name" v="Gløvremyrheia" />
		<tag k="natural" v="hill" />
		<tag k="place" v="locality" />
		<tag k="ssr:stedsnr" v="689340" />
	</node>
	<node lat="58.21367499888235" lon="7.140713891170458" id="-25678">
		<tag k="name" v="Kvennhushaugen" />
		<tag k="natural" v="hill" />
		<tag k="place" v="locality" />
		<tag k="ssr:stedsnr" v="689281" />
	</node>
	<node lat="58.131297223826586" lon="7.206166669414145" id="-25681">
		<tag k="name" v="Skaret" />
		<tag k="natural" v="valley" />
		<tag k="place" v="locality" />
		<tag k="ssr:stedsnr" v="689407" />
	</node>
	<node lat="58.15540833364158" lon="7.113183331895005" id="-25684">
		<tag k="name" v="Hagekleiva" />
		<tag k="natural" v="slope" />
		<tag k="place" v="locality" />
		<tag k="ssr:stedsnr" v="689437" />
	</node>
	<node lat="58.21967222222896" lon="6.927916663106523" id="-25685">
		<tag k="name" v="Trøsjeberget" />
		<tag k="natural" v="hill" />
		<tag k="place" v="locality" />
		<tag k="ssr:stedsnr" v="689441" />
	</node>
	<node lat="58.18093055669306" lon="7.100816659509449" id="-25689">
		<tag k="name" v="Sommeldommel" />
		<tag k="place" v="locality" />
		<tag k="ssr:stedsnr" v="689388" />
	</node>
	<node lat="58.18340000055151" lon="7.0669972301948585" id="-25690">
		<tag k="name" v="Grønehaugen" />
		<tag k="natural" v="hill" />
		<tag k="place" v="locality" />
		<tag k="ssr:stedsnr" v="689393" />
	</node>
	<node lat="58.18674166243143" lon="7.080575003508749" id="-25692">
		<tag k="name" v="Indreheia" />
		<tag k="natural" v="hill" />
		<tag k="place" v="locality" />
		<tag k="ssr:stedsnr" v="689396" />
	</node>
	<node lat="58.18138055329769" lon="7.210758326659946" id="-25693">
		<tag k="fixme" v="consider natural=peak for the most distinct mountains in the district" />
		<tag k="name" v="Sådersberget" />
		<tag k="natural" v="hill" />
		<tag k="place" v="locality" />
		<tag k="ssr:stedsnr" v="689514" />
	</node>
	<node lat="58.26472499571102" lon="7.179730556079593" id="-25694">
		<tag k="name" v="Kjørkedalen" />
		<tag k="natural" v="valley" />
		<tag k="place" v="locality" />
		<tag k="ssr:stedsnr" v="689535" />
	</node>
	<node lat="58.26231389074419" lon="7.183697222153132" id="-25695">
		<tag k="name" v="Neseheia" />
		<tag k="natural" v="hill" />
		<tag k="place" v="locality" />
		<tag k="ssr:stedsnr" v="689538" />
	</node>
	<node lat="58.240127773523604" lon="7.218647218210221" id="-25698">
		<tag k="name" v="Fossekleiva" />
		<tag k="natural" v="slope" />
		<tag k="place" v="locality" />
		<tag k="ssr:stedsnr" v="689586" />
	</node>
	<node lat="58.14553055813584" lon="6.9901999990433765" id="-25699">
		<tag k="fixme" v="consider natural=peak for the most distinct mountains in the district" />
		<tag k="name" v="Bukkefjellet" />
		<tag k="natural" v="hill" />
		<tag k="place" v="locality" />
		<tag k="ssr:stedsnr" v="689712" />
	</node>
	<node lat="58.14382499609004" lon="6.980352770198715" id="-25700">
		<tag k="name" v="Melandsskogen" />
		<tag k="natural" v="hill" />
		<tag k="place" v="locality" />
		<tag k="ssr:stedsnr" v="689717" />
	</node>
	<node lat="58.12207500062237" lon="7.00348055782633" id="-25702">
		<tag k="fixme" v="consider natural=peak for the most distinct mountains in the district" />
		<tag k="name" v="Ravneheia" />
		<tag k="natural" v="hill" />
		<tag k="place" v="locality" />
		<tag k="ssr:stedsnr" v="689690" />
	</node>
	<node lat="58.09801388476708" lon="7.00929444416443" id="-25703">
		<tag k="name" v="Hepte" />
		<tag k="place" v="locality" />
		<tag k="ssr:stedsnr" v="689693" />
	</node>
	<node lat="58.119449997644494" lon="7.0769361173845216" id="-25704">
		<tag k="name" v="Skomrakheia" />
		<tag k="natural" v="hill" />
		<tag k="place" v="locality" />
		<tag k="ssr:stedsnr" v="689804" />
	</node>
	<node lat="58.12464722578979" lon="7.064574993209738" id="-25705">
		<tag k="fixme" v="consider natural=peak for the most distinct mountains in the district" />
		<tag k="name" v="Migerfjellet" />
		<tag k="natural" v="hill" />
		<tag k="place" v="locality" />
		<tag k="ssr:stedsnr" v="689806" />
	</node>
	<node lat="58.151494442546245" lon="7.179319436301502" id="-25710">
		<tag k="fixme" v="consider natural=peak for the most distinct mountains in the district" />
		<tag k="name" v="Ørnekniben" />
		<tag k="natural" v="hill" />
		<tag k="place" v="locality" />
		<tag k="ssr:stedsnr" v="689899" />
	</node>
	<node lat="58.150897225525405" lon="7.190458339655431" id="-25713">
		<tag k="name" v="Grubbeheia" />
		<tag k="natural" v="hill" />
		<tag k="place" v="locality" />
		<tag k="ssr:stedsnr" v="689910" />
	</node>
	<node lat="58.11009166508503" lon="7.157541663627575" id="-25714">
		<tag k="fixme" v="consider natural=peak for the most distinct mountains in the district" />
		<tag k="name" v="Ormen" />
		<tag k="natural" v="hill" />
		<tag k="place" v="locality" />
		<tag k="ssr:stedsnr" v="689917" />
	</node>
	<node lat="58.458608335409245" lon="7.435988888077552" id="-25718">
		<tag k="fixme" v="consider natural=peak for the most distinct mountains in the district" />
		<tag k="name" v="Berreknuten" />
		<tag k="natural" v="hill" />
		<tag k="place" v="locality" />
		<tag k="ssr:stedsnr" v="703122" />
	</node>
	<node lat="58.413155555665334" lon="7.477405552806598" id="-25728">
		<tag k="fixme" v="consider natural=peak for the most distinct mountains in the district" />
		<tag k="name" v="Skiptingsknuten" />
		<tag k="natural" v="hill" />
		<tag k="place" v="locality" />
		<tag k="ssr:stedsnr" v="704076" />
	</node>
	<node lat="58.367358334411556" lon="7.412799996815428" id="-25729">
		<tag k="loc_name" v="Daleslåtå" />
		<tag k="name" v="Daleslåtan" />
		<tag k="place" v="locality" />
		<tag k="ssr:stedsnr" v="704203" />
	</node>
	<node lat="58.399608331257866" lon="7.422513888954403" id="-25730">
		<tag k="name" v="Eivindsåsen" />
		<tag k="natural" v="hill" />
		<tag k="place" v="locality" />
		<tag k="ssr:stedsnr" v="704226" />
	</node>
	<node lat="58.2702916630179" lon="7.36229999938701" id="-25731">
		<tag k="name" v="Hosledalen" />
		<tag k="natural" v="valley" />
		<tag k="place" v="locality" />
		<tag k="ssr:stedsnr" v="704261" />
	</node>
	<node lat="58.49609166736144" lon="7.501108324834957" id="-25733">
		<tag k="name" v="Tverrdalen" />
		<tag k="natural" v="valley" />
		<tag k="place" v="locality" />
		<tag k="ssr:stedsnr" v="704160" />
	</node>
	<node lat="58.47675555942438" lon="7.4033111176306505" id="-25734">
		<tag k="name" v="Mjunehei" />
		<tag k="natural" v="hill" />
		<tag k="place" v="locality" />
		<tag k="ssr:stedsnr" v="704169" />
	</node>
	<node lat="58.47942222594011" lon="7.358461116450626" id="-25735">
		<tag k="name" v="Mannevegheia" />
		<tag k="natural" v="hill" />
		<tag k="place" v="locality" />
		<tag k="ssr:stedsnr" v="704172" />
	</node>
	<node lat="58.36969166889375" lon="7.398808341645618" id="-25737">
		<tag k="name" v="Skåldalen" />
		<tag k="natural" v="valley" />
		<tag k="place" v="locality" />
		<tag k="ssr:stedsnr" v="704369" />
	</node>
	<node lat="58.25670833359155" lon="7.414374993309663" id="-25738">
		<tag k="name" v="Husefjell" />
		<tag k="natural" v="hill" />
		<tag k="place" v="locality" />
		<tag k="ssr:stedsnr" v="704732" />
	</node>
	<node lat="58.26479722380004" lon="7.419911110862118" id="-25740">
		<tag k="fixme" v="consider natural=peak for the most distinct mountains in the district" />
		<tag k="name" v="Lauvåsen" />
		<tag k="natural" v="hill" />
		<tag k="place" v="locality" />
		<tag k="ssr:stedsnr" v="704745" />
	</node>
	<node lat="58.25278611370061" lon="7.266744440185703" id="-25743">
		<tag k="name" v="Bjønnhommen" />
		<tag k="natural" v="valley" />
		<tag k="place" v="locality" />
		<tag k="ssr:stedsnr" v="704806" />
	</node>
	<node lat="58.24738889242198" lon="7.278888884546926" id="-25744">
		<tag k="fixme" v="consider natural=peak for the most distinct mountains in the district" />
		<tag k="name" v="Hudefjellet" />
		<tag k="natural" v="hill" />
		<tag k="place" v="locality" />
		<tag k="ssr:stedsnr" v="704808" />
	</node>
	<node lat="58.302575001803355" lon="7.339483340246188" id="-25747">
		<tag k="name" v="Sandkleiv" />
		<tag k="natural" v="slope" />
		<tag k="place" v="locality" />
		<tag k="ssr:stedsnr" v="704878" />
	</node>
	<node lat="58.43202222600171" lon="7.3371444403929145" id="-25751">
		<tag k="name" v="Ulsdalen" />
		<tag k="natural" v="valley" />
		<tag k="place" v="locality" />
		<tag k="ssr:stedsnr" v="705383" />
	</node>
	<node lat="58.47086944106271" lon="7.422394442006101" id="-25881">
		<tag k="name" v="Kleven" />
		<tag k="natural" v="valley" />
		<tag k="place" v="locality" />
		<tag k="ssr:stedsnr" v="899327" />
	</node>
	<node lat="58.437211109824865" lon="7.37142222528952" id="-25935">
		<tag k="fixme" v="consider natural=peak for the most distinct mountains in the district" />
		<tag k="name" v="Skarkedalsknuten" />
		<tag k="natural" v="hill" />
		<tag k="place" v="locality" />
		<tag k="ssr:stedsnr" v="900638" />
	</node>
	<node lat="58.15709011219841" lon="7.010435593610286" id="-25936">
		<tag k="name" v="Nævelandsheia" />
		<tag k="natural" v="hill" />
		<tag k="place" v="locality" />
		<tag k="ssr:stedsnr" v="727504" />
	</node>
	<node lat="58.22744999847884" lon="7.187775008425615" id="-25943">
		<tag k="name" v="Kjebeheia" />
		<tag k="natural" v="hill" />
		<tag k="place" v="locality" />
		<tag k="ssr:stedsnr" v="728395" />
	</node>
</osm>
