<?xml version="1.0" encoding="UTF-8"?>
<osm version="0.6" generator="osmapis">
	<node lat="66.22689068956122" lon="12.90505486062951" id="-16334">
		<tag k="fixme" v="multiple name tags, choose one and add the other to alt_name" />
		<tag k="name" v="Handnesholmen;Mefjordholmen" />
		<tag k="ssr:date" v="2020-09-15" />
		<tag k="ssr:gruppe" v="navigasjon" />
		<tag k="ssr:hovedgruppe" v="infrastruktur" />
		<tag k="ssr:stedsnr" v="258826" />
		<tag k="ssr:type" v="fyrlykt" />
	</node>
	<node lat="66.19795555747018" lon="13.0222916737945" id="-16539">
		<tag k="name" v="Nesna kommune" />
		<tag k="ssr:date" v="2016-05-11" />
		<tag k="ssr:gruppe" v="administrativeIndelinger" />
		<tag k="ssr:hovedgruppe" v="offentligAdministrasjon" />
		<tag k="ssr:stedsnr" v="693965" />
		<tag k="ssr:type" v="kommune" />
	</node>
	<node lat="66.20063999175139" lon="13.011638032515835" id="-16757">
		<tag k="name" v="Havnevegen" />
		<tag k="ssr:date" v="2019-05-30" />
		<tag k="ssr:gruppe" v="veg" />
		<tag k="ssr:hovedgruppe" v="infrastruktur" />
		<tag k="ssr:stedsnr" v="999367" />
		<tag k="ssr:type" v="adressenavn" />
	</node>
	<node lat="66.19894309313938" lon="13.018075648442856" id="-16758">
		<tag k="name" v="Idrettsvegen" />
		<tag k="ssr:date" v="2019-05-30" />
		<tag k="ssr:gruppe" v="veg" />
		<tag k="ssr:hovedgruppe" v="infrastruktur" />
		<tag k="ssr:stedsnr" v="999379" />
		<tag k="ssr:type" v="adressenavn" />
	</node>
	<node lat="66.19775439909758" lon="13.02449532115084" id="-16760">
		<tag k="name" v="Kjærlighetsstien" />
		<tag k="ssr:date" v="2019-05-30" />
		<tag k="ssr:gruppe" v="veg" />
		<tag k="ssr:hovedgruppe" v="infrastruktur" />
		<tag k="ssr:stedsnr" v="999385" />
		<tag k="ssr:type" v="adressenavn" />
	</node>
	<node lat="66.20077277284771" lon="13.01872447779558" id="-16761">
		<tag k="name" v="Kirkebakken" />
		<tag k="ssr:date" v="2019-05-30" />
		<tag k="ssr:gruppe" v="veg" />
		<tag k="ssr:hovedgruppe" v="infrastruktur" />
		<tag k="ssr:stedsnr" v="999388" />
		<tag k="ssr:type" v="adressenavn" />
	</node>
	<node lat="66.19927055182409" lon="13.01068470013187" id="-16762">
		<tag k="name" v="Skomakervegen" />
		<tag k="ssr:date" v="2019-05-30" />
		<tag k="ssr:gruppe" v="veg" />
		<tag k="ssr:hovedgruppe" v="infrastruktur" />
		<tag k="ssr:stedsnr" v="999667" />
		<tag k="ssr:type" v="adressenavn" />
	</node>
	<node lat="66.1962283200594" lon="13.021086275270019" id="-16763">
		<tag k="name" v="Staulhågen" />
		<tag k="ssr:date" v="2019-05-30" />
		<tag k="ssr:gruppe" v="veg" />
		<tag k="ssr:hovedgruppe" v="infrastruktur" />
		<tag k="ssr:stedsnr" v="999668" />
		<tag k="ssr:type" v="adressenavn" />
	</node>
	<node lat="66.20030275423555" lon="13.028286487967536" id="-16765">
		<tag k="name" v="Sjøvegen" />
		<tag k="ssr:date" v="2019-05-30" />
		<tag k="ssr:gruppe" v="veg" />
		<tag k="ssr:hovedgruppe" v="infrastruktur" />
		<tag k="ssr:stedsnr" v="999671" />
		<tag k="ssr:type" v="adressenavn" />
	</node>
	<node lat="66.2022014285667" lon="13.020488388755286" id="-16766">
		<tag k="name" v="Sjåberget" />
		<tag k="ssr:date" v="2019-05-30" />
		<tag k="ssr:gruppe" v="veg" />
		<tag k="ssr:hovedgruppe" v="infrastruktur" />
		<tag k="ssr:stedsnr" v="999672" />
		<tag k="ssr:type" v="adressenavn" />
	</node>
	<node lat="66.19576689712805" lon="13.029520792810565" id="-16767">
		<tag k="name" v="Sørvollvegen" />
		<tag k="ssr:date" v="2019-05-30" />
		<tag k="ssr:gruppe" v="veg" />
		<tag k="ssr:hovedgruppe" v="infrastruktur" />
		<tag k="ssr:stedsnr" v="999673" />
		<tag k="ssr:type" v="adressenavn" />
	</node>
	<node lat="66.20027153889032" lon="13.025736070160995" id="-16768">
		<tag k="name" v="Strandlandsvegen" />
		<tag k="ssr:date" v="2019-05-30" />
		<tag k="ssr:gruppe" v="veg" />
		<tag k="ssr:hovedgruppe" v="infrastruktur" />
		<tag k="ssr:stedsnr" v="999675" />
		<tag k="ssr:type" v="adressenavn" />
	</node>
	<node lat="66.20023233504962" lon="13.00926050935242" id="-16769">
		<tag k="name" v="Sørvestvegen" />
		<tag k="ssr:date" v="2019-05-30" />
		<tag k="ssr:gruppe" v="veg" />
		<tag k="ssr:hovedgruppe" v="infrastruktur" />
		<tag k="ssr:stedsnr" v="999676" />
		<tag k="ssr:type" v="adressenavn" />
	</node>
	<node lat="66.19997349728814" lon="13.011189238361192" id="-16770">
		<tag k="name" v="Strandvegen" />
		<tag k="ssr:date" v="2019-05-30" />
		<tag k="ssr:gruppe" v="veg" />
		<tag k="ssr:hovedgruppe" v="infrastruktur" />
		<tag k="ssr:stedsnr" v="999677" />
		<tag k="ssr:type" v="adressenavn" />
	</node>
	<node lat="66.19832272296648" lon="13.01565556579118" id="-16772">
		<tag k="name" v="Villavegen" />
		<tag k="ssr:date" v="2019-05-30" />
		<tag k="ssr:gruppe" v="veg" />
		<tag k="ssr:hovedgruppe" v="infrastruktur" />
		<tag k="ssr:stedsnr" v="999679" />
		<tag k="ssr:type" v="adressenavn" />
	</node>
	<node lat="66.19415805174867" lon="13.025510269682327" id="-16773">
		<tag k="name" v="Trygstadvegen" />
		<tag k="ssr:date" v="2019-05-30" />
		<tag k="ssr:gruppe" v="veg" />
		<tag k="ssr:hovedgruppe" v="infrastruktur" />
		<tag k="ssr:stedsnr" v="999680" />
		<tag k="ssr:type" v="adressenavn" />
	</node>
	<node lat="66.19602651852838" lon="13.027423727631854" id="-16774">
		<tag k="name" v="Teienvegen" />
		<tag k="ssr:date" v="2019-05-30" />
		<tag k="ssr:gruppe" v="veg" />
		<tag k="ssr:hovedgruppe" v="infrastruktur" />
		<tag k="ssr:stedsnr" v="999682" />
		<tag k="ssr:type" v="adressenavn" />
	</node>
	<node lat="66.2003185523746" lon="13.029739964933801" id="-16775">
		<tag k="name" v="Tingstuvegen" />
		<tag k="ssr:date" v="2019-05-30" />
		<tag k="ssr:gruppe" v="veg" />
		<tag k="ssr:hovedgruppe" v="infrastruktur" />
		<tag k="ssr:stedsnr" v="999685" />
		<tag k="ssr:type" v="adressenavn" />
	</node>
	<node lat="66.19618915138528" lon="13.015491766586386" id="-16777">
		<tag k="name" v="Rabben" />
		<tag k="ssr:date" v="2019-05-30" />
		<tag k="ssr:gruppe" v="veg" />
		<tag k="ssr:hovedgruppe" v="infrastruktur" />
		<tag k="ssr:stedsnr" v="999715" />
		<tag k="ssr:type" v="adressenavn" />
	</node>
	<node lat="66.1993190488219" lon="13.022381267768107" id="-16778">
		<tag k="name" v="Seljestien" />
		<tag k="ssr:date" v="2019-05-30" />
		<tag k="ssr:gruppe" v="veg" />
		<tag k="ssr:hovedgruppe" v="infrastruktur" />
		<tag k="ssr:stedsnr" v="999716" />
		<tag k="ssr:type" v="adressenavn" />
	</node>
	<node lat="66.25476666235782" lon="12.962000004047345" id="-16906">
		<tag k="name" v="Valen" />
		<tag k="ssr:date" v="2016-05-10" />
		<tag k="ssr:gruppe" v="sjøbunn" />
		<tag k="ssr:hovedgruppe" v="sjø" />
		<tag k="ssr:stedsnr" v="167081" />
		<tag k="ssr:type" v="bankeISjø" />
	</node>
	<node lat="66.3153722238478" lon="12.796797220391612" id="-17096">
		<tag k="name" v="Lommøyodden" />
		<tag k="ssr:date" v="2016-05-10" />
		<tag k="ssr:gruppe" v="navigasjon" />
		<tag k="ssr:hovedgruppe" v="infrastruktur" />
		<tag k="ssr:stedsnr" v="440560" />
		<tag k="ssr:type" v="fyrlykt" />
	</node>
	<node lat="67.2804027758844" lon="14.376388898255625" id="-17126">
		<tag k="alt_name:no" v="Nordland" />
		<tag k="loc_name:se" v="Nordlándda fylka" />
		<tag k="loc_name:sma" v="Nordlaanten fylhke" />
		<tag k="name" v="Nordland fylke" />
		<tag k="name:no" v="Nordland fylke" />
		<tag k="name:smj" v="Nordlánda fylkka" />
		<tag k="ssr:date" v="2021-02-03" />
		<tag k="ssr:gruppe" v="administrativeIndelinger" />
		<tag k="ssr:hovedgruppe" v="offentligAdministrasjon" />
		<tag k="ssr:stedsnr" v="511766" />
		<tag k="ssr:type" v="fylke" />
	</node>
	<node lat="66.21312251735617" lon="12.797847349984108" id="-17183">
		<tag k="name" v="Alsøyvågen" />
		<tag k="ssr:date" v="2020-09-15" />
		<tag k="ssr:gruppe" v="navigasjon" />
		<tag k="ssr:hovedgruppe" v="infrastruktur" />
		<tag k="ssr:stedsnr" v="561852" />
		<tag k="ssr:type" v="fyrlykt" />
	</node>
	<node lat="66.22037147267336" lon="13.01508660516724" id="-17239">
		<tag k="name" v="Sauragrunnen" />
		<tag k="ssr:date" v="2020-09-15" />
		<tag k="ssr:gruppe" v="navigasjon" />
		<tag k="ssr:hovedgruppe" v="infrastruktur" />
		<tag k="ssr:stedsnr" v="622849" />
		<tag k="ssr:type" v="fyrlykt" />
	</node>
	<node lat="66.19791510489412" lon="13.012415162092676" id="-17474">
		<tag k="name" v="Hagevegen" />
		<tag k="ssr:date" v="2019-05-30" />
		<tag k="ssr:gruppe" v="veg" />
		<tag k="ssr:hovedgruppe" v="infrastruktur" />
		<tag k="ssr:stedsnr" v="999347" />
		<tag k="ssr:type" v="adressenavn" />
	</node>
	<node lat="66.19736131127053" lon="13.027370691566675" id="-17475">
		<tag k="name" v="Elevheimen" />
		<tag k="ssr:date" v="2019-05-30" />
		<tag k="ssr:gruppe" v="veg" />
		<tag k="ssr:hovedgruppe" v="infrastruktur" />
		<tag k="ssr:stedsnr" v="999351" />
		<tag k="ssr:type" v="adressenavn" />
	</node>
	<node lat="66.19670018088486" lon="13.016317961896727" id="-17476">
		<tag k="name" v="Engvegen" />
		<tag k="ssr:date" v="2019-05-30" />
		<tag k="ssr:gruppe" v="veg" />
		<tag k="ssr:hovedgruppe" v="infrastruktur" />
		<tag k="ssr:stedsnr" v="999356" />
		<tag k="ssr:type" v="adressenavn" />
	</node>
	<node lat="66.19944612006552" lon="13.014008993971323" id="-17477">
		<tag k="name" v="Bjørkvegen" />
		<tag k="ssr:date" v="2019-05-30" />
		<tag k="ssr:gruppe" v="veg" />
		<tag k="ssr:hovedgruppe" v="infrastruktur" />
		<tag k="ssr:stedsnr" v="999473" />
		<tag k="ssr:type" v="adressenavn" />
	</node>
	<node lat="66.19566844569732" lon="13.021865300737675" id="-17478">
		<tag k="name" v="Bekkefaret" />
		<tag k="ssr:date" v="2019-05-30" />
		<tag k="ssr:gruppe" v="veg" />
		<tag k="ssr:hovedgruppe" v="infrastruktur" />
		<tag k="ssr:stedsnr" v="999481" />
		<tag k="ssr:type" v="adressenavn" />
	</node>
	<node lat="66.19771017861372" lon="13.010434230925084" id="-17479">
		<tag k="name" v="Blomstervegen" />
		<tag k="ssr:date" v="2019-05-30" />
		<tag k="ssr:gruppe" v="veg" />
		<tag k="ssr:hovedgruppe" v="infrastruktur" />
		<tag k="ssr:stedsnr" v="999499" />
		<tag k="ssr:type" v="adressenavn" />
	</node>
	<node lat="66.19809724428534" lon="13.018577333542405" id="-17480">
		<tag k="name" v="Bjørklyvegen" />
		<tag k="ssr:date" v="2019-05-30" />
		<tag k="ssr:gruppe" v="veg" />
		<tag k="ssr:hovedgruppe" v="infrastruktur" />
		<tag k="ssr:stedsnr" v="999508" />
		<tag k="ssr:type" v="adressenavn" />
	</node>
	<node lat="66.19796569180636" lon="13.021451932351065" id="-17481">
		<tag k="name" v="Lauvstadvegen" />
		<tag k="ssr:date" v="2019-05-30" />
		<tag k="ssr:gruppe" v="veg" />
		<tag k="ssr:hovedgruppe" v="infrastruktur" />
		<tag k="ssr:stedsnr" v="999694" />
		<tag k="ssr:type" v="adressenavn" />
	</node>
	<node lat="66.19756034223555" lon="13.027981382794062" id="-17482">
		<tag k="name" v="Nesna Lærerhøgskole" />
		<tag k="ssr:date" v="2019-05-30" />
		<tag k="ssr:gruppe" v="veg" />
		<tag k="ssr:hovedgruppe" v="infrastruktur" />
		<tag k="ssr:stedsnr" v="999698" />
		<tag k="ssr:type" v="adressenavn" />
	</node>
	<node lat="66.19668701649334" lon="13.011831966162054" id="-17483">
		<tag k="name" v="Myravegen" />
		<tag k="ssr:date" v="2019-05-30" />
		<tag k="ssr:gruppe" v="veg" />
		<tag k="ssr:hovedgruppe" v="infrastruktur" />
		<tag k="ssr:stedsnr" v="999701" />
		<tag k="ssr:type" v="adressenavn" />
	</node>
	<node lat="66.19809732982387" lon="13.018443582306848" id="-17484">
		<tag k="name" v="Refsnesvegen" />
		<tag k="ssr:date" v="2019-05-30" />
		<tag k="ssr:gruppe" v="veg" />
		<tag k="ssr:hovedgruppe" v="infrastruktur" />
		<tag k="ssr:stedsnr" v="999708" />
		<tag k="ssr:type" v="adressenavn" />
	</node>
	<node lat="66.20062487491208" lon="13.0372719065686" id="-17486">
		<tag k="name" v="Nordvollvegen" />
		<tag k="ssr:date" v="2019-05-30" />
		<tag k="ssr:gruppe" v="veg" />
		<tag k="ssr:hovedgruppe" v="infrastruktur" />
		<tag k="ssr:stedsnr" v="999653" />
		<tag k="ssr:type" v="adressenavn" />
	</node>
	<node lat="66.20030233388286" lon="13.028436926300225" id="-17487">
		<tag k="name" v="Ivar Hjellviks veg" />
		<tag k="ssr:date" v="2019-05-30" />
		<tag k="ssr:gruppe" v="veg" />
		<tag k="ssr:hovedgruppe" v="infrastruktur" />
		<tag k="ssr:stedsnr" v="999657" />
		<tag k="ssr:type" v="adressenavn" />
	</node>
</osm>
