<?xml version="1.0" encoding="UTF-8"?>
<osm version="0.6" generator="osmapis">
	<node id="272902323" lat="60.1024396" lon="11.004343" version="13" timestamp="2022-02-01T07:28:18Z" changeset="116853439" uid="3497659" user="NKA">
		<tag k="junction" v="yes" />
		<tag k="name" v="Eikebergstajet" />
		<tag k="ssr:stedsnr" v="751948" />
	</node>
	<node id="272904140" lat="60.101709" lon="11.0500498" version="5" timestamp="2022-02-01T07:28:18Z" changeset="116853439" uid="3497659" user="NKA">
		<tag k="junction" v="yes" />
		<tag k="name" v="Korsmo" />
		<tag k="ssr:stedsnr" v="84926" />
	</node>
	<node id="302912370" lat="60.0790034" lon="10.9636142" version="6" timestamp="2022-02-01T07:28:18Z" changeset="116853439" uid="3497659" user="NKA">
		<tag k="junction" v="yes" />
		<tag k="name" v="Prestlykkja" />
		<tag k="ssr:stedsnr" v="629927" />
	</node>
	<node id="302949651" lat="60.0694043" lon="11.0206564" version="8" timestamp="2022-02-01T07:28:18Z" changeset="116853439" uid="3497659" user="NKA">
		<tag k="junction" v="yes" />
		<tag k="name" v="Fjellgrinda" />
		<tag k="ssr:stedsnr" v="66528" />
	</node>
	<node id="5894976441" lat="60.0730547" lon="11.0328979" version="2" timestamp="2022-02-01T07:28:18Z" changeset="116853439" uid="3497659" user="NKA">
		<tag k="junction" v="yes" />
		<tag k="name" v="Smedstuen" />
		<tag k="ssr:stedsnr" v="326897" />
	</node>
	<node id="9465227408" lat="60.0813688" lon="11.017565" version="1" timestamp="2022-02-01T07:28:18Z" changeset="116853439" uid="3497659" user="NKA">
		<tag k="name" v="RÃ¸nnegrinda" />
		<tag k="place" v="locality" />
		<tag k="ssr:stedsnr" v="733497" />
	</node>
</osm>
