<?xml version="1.0" encoding="UTF-8"?>
<osm version="0.6" generator="osmapis">
	<node id="444246459" lat="62.7787276" lon="6.9929698" version="5" timestamp="2022-08-05T06:26:01Z" changeset="124506707" uid="3497659" user="NKA">
		<tag k="name" v="Hollingen" />
		<tag k="place" v="village" />
		<tag k="population" v="1118" />
		<tag k="population:date" v="2021-01-01" />
		<tag k="ref:ssb_tettsted" v="6232" />
		<tag k="source:population" v="SSB - befolkning i tettstedet" />
		<tag k="ssr:stedsnr" v="618838" />
	</node>
	<node id="590634907" lat="62.7881698" lon="6.8710357" version="2" timestamp="2022-08-05T06:26:01Z" changeset="124506707" uid="3497659" user="NKA">
		<tag k="name" v="Hjertvika" />
		<tag k="place" v="hamlet" />
		<tag k="ssr:stedsnr" v="618796" />
	</node>
	<node id="590634911" lat="62.8199385" lon="6.8988642" version="2" timestamp="2022-08-05T06:26:01Z" changeset="124506707" uid="3497659" user="NKA">
		<tag k="name" v="Nerbøen" />
		<tag k="place" v="hamlet" />
		<tag k="ssr:stedsnr" v="11775" />
	</node>
	<node id="1020366443" lat="62.7913232" lon="6.9172185" version="8" timestamp="2022-08-05T06:26:01Z" changeset="124506707" uid="3497659" user="NKA">
		<tag k="alt_name" v="Aukra" />
		<tag k="name" v="Aukrasanden" />
		<tag k="place" v="village" />
		<tag k="population" v="961" />
		<tag k="population:date" v="2021-01-01" />
		<tag k="ref:ssb_tettsted" v="6231" />
		<tag k="source:population" v="SSB - befolkning i tettstedet" />
		<tag k="ssr:stedsnr" v="740808" />
		<tag k="wikidata" v="Q2532131" />
		<tag k="wikipedia" v="no:Aukrasanden" />
	</node>
	<node id="2316079321" lat="62.7627456" lon="7.0124304" version="5" timestamp="2022-08-05T06:26:01Z" changeset="124506707" uid="3497659" user="NKA">
		<tag k="historic" v="shieling" />
		<tag k="name" v="Eiskremsetra" />
		<tag k="place" v="isolated_dwelling" />
		<tag k="ssr:stedsnr" v="703149" />
	</node>
	<node id="2316079327" lat="62.7666097" lon="7.0230576" version="5" timestamp="2022-08-05T06:26:01Z" changeset="124506707" uid="3497659" user="NKA">
		<tag k="historic" v="shieling" />
		<tag k="name" v="Fangholsetra" />
		<tag k="place" v="isolated_dwelling" />
		<tag k="ssr:stedsnr" v="679855" />
	</node>
	<node id="4813198766" lat="62.8472114" lon="6.8412091" version="3" timestamp="2022-08-05T06:26:01Z" changeset="124506707" uid="3497659" user="NKA">
		<tag k="name" v="Rishaug" />
		<tag k="place" v="locality" />
		<tag k="ssr:stedsnr" v="885236" />
	</node>
	<node id="4883339653" lat="62.8372083" lon="6.8497835" version="2" timestamp="2022-08-05T06:26:01Z" changeset="124506707" uid="3497659" user="NKA">
		<tag k="name" v="Løvikhaugen" />
		<tag k="place" v="farm" />
		<tag k="ssr:stedsnr" v="922187" />
	</node>
	<node id="4883983219" lat="62.8034967" lon="6.8443778" version="2" timestamp="2022-08-05T06:26:01Z" changeset="124506707" uid="3497659" user="NKA">
		<tag k="name" v="Horremhaugen" />
		<tag k="place" v="farm" />
		<tag k="ssr:stedsnr" v="642314" />
	</node>
	<node id="6214191504" lat="62.7831305" lon="6.6554802" version="2" timestamp="2022-08-05T06:26:01Z" changeset="124506707" uid="3497659" user="NKA">
		<tag k="alt_name" v="Orten" />
		<tag k="name" v="Orta" />
		<tag k="place" v="hamlet" />
		<tag k="ssr:stedsnr" v="133395" />
	</node>
	<node id="9933069268" lat="62.7812836" lon="6.889775" version="1" timestamp="2022-08-05T06:26:01Z" changeset="124506707" uid="3497659" user="NKA">
		<tag k="name" v="Breivikkleiva" />
		<tag k="place" v="farm" />
		<tag k="ssr:stedsnr" v="521899" />
	</node>
	<node id="9933069269" lat="62.782292" lon="6.8741254" version="1" timestamp="2022-08-05T06:26:01Z" changeset="124506707" uid="3497659" user="NKA">
		<tag k="name" v="Hjertviksteinen" />
		<tag k="place" v="farm" />
		<tag k="ssr:stedsnr" v="557829" />
	</node>
	<node id="9933069270" lat="62.7901459" lon="6.9147912" version="1" timestamp="2022-08-05T06:26:01Z" changeset="124506707" uid="3497659" user="NKA">
		<tag k="name" v="Aukra" />
		<tag k="place" v="farm" />
		<tag k="ssr:stedsnr" v="981245" />
	</node>
	<node id="9933069271" lat="62.818825" lon="6.9044779" version="1" timestamp="2022-08-05T06:26:01Z" changeset="124506707" uid="3497659" user="NKA">
		<tag k="name" v="Aukra Industrier" />
		<tag k="place" v="neighbourhood" />
		<tag k="ssr:stedsnr" v="157628" />
	</node>
	<node id="9933069272" lat="62.8242112" lon="6.9527291" version="1" timestamp="2022-08-05T06:26:01Z" changeset="124506707" uid="3497659" user="NKA">
		<tag k="name" v="Hogsneset" />
		<tag k="place" v="hamlet" />
		<tag k="ssr:stedsnr" v="496778" />
	</node>
	<node id="9933069273" lat="62.7844122" lon="6.8807885" version="1" timestamp="2022-08-05T06:26:01Z" changeset="124506707" uid="3497659" user="NKA">
		<tag k="name" v="Korsvika" />
		<tag k="place" v="hamlet" />
		<tag k="ssr:stedsnr" v="72818" />
	</node>
	<node id="9933069274" lat="62.8392611" lon="6.8979168" version="1" timestamp="2022-08-05T06:26:01Z" changeset="124506707" uid="3497659" user="NKA">
		<tag k="name" v="Myran" />
		<tag k="place" v="farm" />
		<tag k="ssr:stedsnr" v="36870" />
	</node>
	<node id="9933069275" lat="62.83465" lon="6.8754223" version="1" timestamp="2022-08-05T06:26:01Z" changeset="124506707" uid="3497659" user="NKA">
		<tag k="name" v="Neset" />
		<tag k="place" v="farm" />
		<tag k="ssr:stedsnr" v="12217" />
	</node>
	<node id="9933069276" lat="62.797769" lon="6.9008073" version="1" timestamp="2022-08-05T06:26:01Z" changeset="124506707" uid="3497659" user="NKA">
		<tag k="name" v="Blomsneset" />
		<tag k="place" v="hamlet" />
		<tag k="ssr:stedsnr" v="72771" />
	</node>
	<node id="9933069277" lat="62.7935472" lon="6.9020168" version="1" timestamp="2022-08-05T06:26:01Z" changeset="124506707" uid="3497659" user="NKA">
		<tag k="name" v="Hukkelberget" />
		<tag k="place" v="farm" />
		<tag k="ssr:stedsnr" v="922804" />
	</node>
	<node id="9933069278" lat="62.8117972" lon="6.9035612" version="1" timestamp="2022-08-05T06:26:01Z" changeset="124506707" uid="3497659" user="NKA">
		<tag k="name" v="Nautneset" />
		<tag k="place" v="farm" />
		<tag k="ssr:stedsnr" v="800771" />
	</node>
	<node id="9933069279" lat="62.7767712" lon="6.9004838" version="1" timestamp="2022-08-05T06:26:01Z" changeset="124506707" uid="3497659" user="NKA">
		<tag k="name" v="Reset" />
		<tag k="place" v="farm" />
		<tag k="ssr:stedsnr" v="232121" />
	</node>
	<node id="9933069280" lat="62.8053415" lon="6.8701612" version="1" timestamp="2022-08-05T06:26:01Z" changeset="124506707" uid="3497659" user="NKA">
		<tag k="name" v="Nyvoll" />
		<tag k="place" v="farm" />
		<tag k="ssr:stedsnr" v="11823" />
	</node>
	<node id="9933069281" lat="62.8304266" lon="6.9016668" version="1" timestamp="2022-08-05T06:26:01Z" changeset="124506707" uid="3497659" user="NKA">
		<tag k="name" v="Bø" />
		<tag k="place" v="farm" />
		<tag k="ssr:stedsnr" v="861744" />
	</node>
	<node id="9933069282" lat="62.7833688" lon="6.8764796" version="1" timestamp="2022-08-05T06:26:01Z" changeset="124506707" uid="3497659" user="NKA">
		<tag k="name" v="Solvik" />
		<tag k="place" v="farm" />
		<tag k="ssr:stedsnr" v="946900" />
	</node>
	<node id="9933069283" lat="62.7940444" lon="6.9175169" version="1" timestamp="2022-08-05T06:26:01Z" changeset="124506707" uid="3497659" user="NKA">
		<tag k="name" v="Kalvtrøa" />
		<tag k="place" v="neighbourhood" />
		<tag k="ssr:stedsnr" v="885899" />
	</node>
	<node id="9933069284" lat="62.798588" lon="6.8937855" version="1" timestamp="2022-08-05T06:26:01Z" changeset="124506707" uid="3497659" user="NKA">
		<tag k="name" v="Solberg" />
		<tag k="place" v="farm" />
		<tag k="ssr:stedsnr" v="232053" />
	</node>
	<node id="9933069285" lat="62.7857267" lon="6.876955" version="1" timestamp="2022-08-05T06:26:01Z" changeset="124506707" uid="3497659" user="NKA">
		<tag k="alt_name" v="Remma" />
		<tag k="name" v="Hjertvikremma" />
		<tag k="place" v="farm" />
		<tag k="ssr:stedsnr" v="885582" />
	</node>
	<node id="9933069286" lat="62.8179278" lon="6.8147389" version="1" timestamp="2022-08-05T06:26:01Z" changeset="124506707" uid="3497659" user="NKA">
		<tag k="name" v="Solemsjøen" />
		<tag k="place" v="farm" />
		<tag k="ssr:stedsnr" v="861764" />
	</node>
	<node id="9933069287" lat="62.8044562" lon="6.8733798" version="1" timestamp="2022-08-05T06:26:01Z" changeset="124506707" uid="3497659" user="NKA">
		<tag k="name" v="Elstad" />
		<tag k="place" v="farm" />
		<tag k="ssr:stedsnr" v="739819" />
	</node>
	<node id="9933069288" lat="62.8253055" lon="6.8830364" version="1" timestamp="2022-08-05T06:26:01Z" changeset="124506707" uid="3497659" user="NKA">
		<tag k="name" v="Hatthaugremma" />
		<tag k="place" v="farm" />
		<tag k="ssr:stedsnr" v="800732" />
	</node>
	<node id="9933069289" lat="62.8033972" lon="6.8797363" version="1" timestamp="2022-08-05T06:26:01Z" changeset="124506707" uid="3497659" user="NKA">
		<tag k="name" v="Bergtun" />
		<tag k="place" v="farm" />
		<tag k="ssr:stedsnr" v="193812" />
	</node>
	<node id="9933069290" lat="62.8342006" lon="6.9466988" version="1" timestamp="2022-08-05T06:26:01Z" changeset="124506707" uid="3497659" user="NKA">
		<tag k="name" v="Eikrem" />
		<tag k="place" v="hamlet" />
		<tag k="ssr:stedsnr" v="679173" />
	</node>
	<node id="9933069291" lat="62.8118139" lon="6.820178" version="1" timestamp="2022-08-05T06:26:01Z" changeset="124506707" uid="3497659" user="NKA">
		<tag k="name" v="Smågehaugen" />
		<tag k="place" v="farm" />
		<tag k="ssr:stedsnr" v="193779" />
	</node>
	<node id="9933069292" lat="62.8152757" lon="6.925989" version="1" timestamp="2022-08-05T06:26:01Z" changeset="124506707" uid="3497659" user="NKA">
		<tag k="name" v="Nerbøstranda" />
		<tag k="place" v="farm" />
		<tag k="ssr:stedsnr" v="870476" />
	</node>
	<node id="9933069293" lat="62.8094306" lon="6.8904667" version="1" timestamp="2022-08-05T06:26:01Z" changeset="124506707" uid="3497659" user="NKA">
		<tag k="name" v="Nordsletta" />
		<tag k="place" v="farm" />
		<tag k="ssr:stedsnr" v="193791" />
	</node>
	<node id="9933069294" lat="62.7840983" lon="6.6553027" version="1" timestamp="2022-08-05T06:26:01Z" changeset="124506707" uid="3497659" user="NKA">
		<tag k="name" v="Nordbø" />
		<tag k="place" v="farm" />
		<tag k="ssr:stedsnr" v="497421" />
	</node>
	<node id="9933069295" lat="62.8322528" lon="6.8880252" version="1" timestamp="2022-08-05T06:26:01Z" changeset="124506707" uid="3497659" user="NKA">
		<tag k="name" v="Inderhaugen" />
		<tag k="place" v="farm" />
		<tag k="ssr:stedsnr" v="193742" />
	</node>
	<node id="9933069296" lat="62.8476091" lon="6.9007944" version="1" timestamp="2022-08-05T06:26:01Z" changeset="124506707" uid="3497659" user="NKA">
		<tag k="name" v="Nedigarden" />
		<tag k="place" v="farm" />
		<tag k="ssr:stedsnr" v="278042" />
	</node>
	<node id="9933069297" lat="62.8166353" lon="6.8264178" version="1" timestamp="2022-08-05T06:26:01Z" changeset="124506707" uid="3497659" user="NKA">
		<tag k="name" v="Solem" />
		<tag k="place" v="farm" />
		<tag k="ssr:stedsnr" v="193758" />
	</node>
	<node id="9933069298" lat="62.8164709" lon="6.9169712" version="1" timestamp="2022-08-05T06:26:01Z" changeset="124506707" uid="3497659" user="NKA">
		<tag k="name" v="Nerbøberget" />
		<tag k="place" v="farm" />
		<tag k="ssr:stedsnr" v="436768" />
	</node>
	<node id="9933069299" lat="62.8348262" lon="6.9130651" version="1" timestamp="2022-08-05T06:26:01Z" changeset="124506707" uid="3497659" user="NKA">
		<tag k="name" v="Dalset" />
		<tag k="place" v="farm" />
		<tag k="ssr:stedsnr" v="740201" />
	</node>
	<node id="9933069300" lat="62.791443" lon="6.8605633" version="1" timestamp="2022-08-05T06:26:01Z" changeset="124506707" uid="3497659" user="NKA">
		<tag k="name" v="Hjertvikberget" />
		<tag k="place" v="neighbourhood" />
		<tag k="ssr:stedsnr" v="218686" />
	</node>
	<node id="9933069301" lat="62.817465" lon="6.9397513" version="1" timestamp="2022-08-05T06:26:01Z" changeset="124506707" uid="3497659" user="NKA">
		<tag k="name" v="Hjermannstad" />
		<tag k="place" v="locality" />
		<tag k="ssr:stedsnr" v="217399" />
	</node>
	<node id="9933069302" lat="62.841675" lon="6.9335917" version="1" timestamp="2022-08-05T06:26:01Z" changeset="124506707" uid="3497659" user="NKA">
		<tag k="name" v="Skarset" />
		<tag k="place" v="farm" />
		<tag k="ssr:stedsnr" v="861170" />
	</node>
	<node id="9933069303" lat="62.8450618" lon="6.9596371" version="1" timestamp="2022-08-05T06:26:01Z" changeset="124506707" uid="3497659" user="NKA">
		<tag k="name" v="Futvika" />
		<tag k="place" v="farm" />
		<tag k="ssr:stedsnr" v="739225" />
	</node>
	<node id="9933069304" lat="62.8317388" lon="6.9070112" version="1" timestamp="2022-08-05T06:26:01Z" changeset="124506707" uid="3497659" user="NKA">
		<tag k="name" v="Solbø" />
		<tag k="place" v="farm" />
		<tag k="ssr:stedsnr" v="618735" />
	</node>
	<node id="9933069305" lat="62.8480605" lon="6.902871" version="1" timestamp="2022-08-05T06:26:01Z" changeset="124506707" uid="3497659" user="NKA">
		<tag k="name" v="Oppigarden" />
		<tag k="place" v="farm" />
		<tag k="ssr:stedsnr" v="642054" />
	</node>
	<node id="9933069306" lat="62.7751363" lon="6.9121033" version="1" timestamp="2022-08-05T06:26:01Z" changeset="124506707" uid="3497659" user="NKA">
		<tag k="name" v="Tangen" />
		<tag k="place" v="hamlet" />
		<tag k="ssr:stedsnr" v="111125" />
	</node>
	<node id="9933069307" lat="62.8454334" lon="6.8079807" version="1" timestamp="2022-08-05T06:26:01Z" changeset="124506707" uid="3497659" user="NKA">
		<tag k="name" v="Rishaug" />
		<tag k="place" v="farm" />
		<tag k="ssr:stedsnr" v="72221" />
	</node>
	<node id="9933069308" lat="62.8364863" lon="6.8921384" version="1" timestamp="2022-08-05T06:26:01Z" changeset="124506707" uid="3497659" user="NKA">
		<tag k="name" v="Nordigarden" />
		<tag k="place" v="farm" />
		<tag k="ssr:stedsnr" v="581855" />
	</node>
	<node id="9933069309" lat="62.7818018" lon="6.6544117" version="1" timestamp="2022-08-05T06:26:01Z" changeset="124506707" uid="3497659" user="NKA">
		<tag k="name" v="Bakken" />
		<tag k="place" v="farm" />
		<tag k="ssr:stedsnr" v="578064" />
	</node>
	<node id="9933069310" lat="62.8046694" lon="6.8554334" version="1" timestamp="2022-08-05T06:26:01Z" changeset="124506707" uid="3497659" user="NKA">
		<tag k="name" v="Nylund" />
		<tag k="place" v="farm" />
		<tag k="ssr:stedsnr" v="557789" />
	</node>
	<node id="9933069311" lat="62.8353472" lon="6.7957501" version="1" timestamp="2022-08-05T06:26:01Z" changeset="124506707" uid="3497659" user="NKA">
		<tag k="name" v="Utheim" />
		<tag k="place" v="farm" />
		<tag k="ssr:stedsnr" v="12208" />
	</node>
	<node id="9933069312" lat="62.7813079" lon="6.6552848" version="1" timestamp="2022-08-05T06:26:01Z" changeset="124506707" uid="3497659" user="NKA">
		<tag k="name" v="Solbakken" />
		<tag k="place" v="isolated_dwelling" />
		<tag k="ssr:stedsnr" v="335676" />
	</node>
	<node id="9933069313" lat="62.8070126" lon="6.8965571" version="1" timestamp="2022-08-05T06:26:01Z" changeset="124506707" uid="3497659" user="NKA">
		<tag k="name" v="Varhaugvika" />
		<tag k="place" v="neighbourhood" />
		<tag k="ssr:stedsnr" v="11805" />
	</node>
	<node id="9933069314" lat="62.8444972" lon="6.9270474" version="1" timestamp="2022-08-05T06:26:01Z" changeset="124506707" uid="3497659" user="NKA">
		<tag k="name" v="Riddervoll" />
		<tag k="place" v="farm" />
		<tag k="ssr:stedsnr" v="315208" />
	</node>
	<node id="9933069315" lat="62.8205429" lon="6.8463872" version="1" timestamp="2022-08-05T06:26:01Z" changeset="124506707" uid="3497659" user="NKA">
		<tag k="name" v="Reitebø" />
		<tag k="place" v="farm" />
		<tag k="ssr:stedsnr" v="11772" />
	</node>
	<node id="9933069316" lat="62.8060278" lon="6.8038585" version="1" timestamp="2022-08-05T06:26:01Z" changeset="124506707" uid="3497659" user="NKA">
		<tag k="name" v="Smågesjøen" />
		<tag k="place" v="farm" />
		<tag k="ssr:stedsnr" v="521045" />
	</node>
	<node id="9933070217" lat="62.7721038" lon="6.9844652" version="1" timestamp="2022-08-05T06:26:01Z" changeset="124506707" uid="3497659" user="NKA">
		<tag k="name" v="Hollingsetra" />
		<tag k="place" v="farm" />
		<tag k="ssr:stedsnr" v="679861" />
	</node>
	<node id="9933070218" lat="62.7845934" lon="6.6519598" version="1" timestamp="2022-08-05T06:26:01Z" changeset="124506707" uid="3497659" user="NKA">
		<tag k="name" v="Garsvik" />
		<tag k="place" v="farm" />
		<tag k="ssr:stedsnr" v="153046" />
	</node>
	<node id="9933070219" lat="62.7833885" lon="6.6535712" version="1" timestamp="2022-08-05T06:26:01Z" changeset="124506707" uid="3497659" user="NKA">
		<tag k="name" v="Hagen" />
		<tag k="place" v="isolated_dwelling" />
		<tag k="ssr:stedsnr" v="275046" />
	</node>
	<node id="9933070220" lat="62.7780753" lon="7.0052352" version="1" timestamp="2022-08-05T06:26:01Z" changeset="124506707" uid="3497659" user="NKA">
		<tag k="name" v="Lauvåsen" />
		<tag k="place" v="farm" />
		<tag k="ssr:stedsnr" v="436837" />
	</node>
	<node id="9933070221" lat="62.8313842" lon="6.8763465" version="1" timestamp="2022-08-05T06:26:01Z" changeset="124506707" uid="3497659" user="NKA">
		<tag k="name" v="Maurset" />
		<tag k="place" v="farm" />
		<tag k="ssr:stedsnr" v="279804" />
	</node>
	<node id="9933070222" lat="62.762406" lon="6.9996127" version="1" timestamp="2022-08-05T06:26:01Z" changeset="124506707" uid="3497659" user="NKA">
		<tag k="name" v="Nordgard" />
		<tag k="place" v="farm" />
		<tag k="ssr:stedsnr" v="51132" />
	</node>
	<node id="9933070223" lat="62.7739756" lon="6.9855752" version="1" timestamp="2022-08-05T06:26:01Z" changeset="124506707" uid="3497659" user="NKA">
		<tag k="name" v="Nedre Hollingen" />
		<tag k="place" v="farm" />
		<tag k="ssr:stedsnr" v="35028" />
	</node>
	<node id="9933070224" lat="62.8045496" lon="6.8599164" version="1" timestamp="2022-08-05T06:26:01Z" changeset="124506707" uid="3497659" user="NKA">
		<tag k="name" v="Myrvang" />
		<tag k="place" v="farm" />
		<tag k="ssr:stedsnr" v="946301" />
	</node>
	<node id="9933070225" lat="62.7681372" lon="6.9946172" version="1" timestamp="2022-08-05T06:26:01Z" changeset="124506707" uid="3497659" user="NKA">
		<tag k="name" v="Hola" />
		<tag k="place" v="farm" />
		<tag k="ssr:stedsnr" v="194858" />
	</node>
	<node id="9933070226" lat="62.7685889" lon="7.0000918" version="1" timestamp="2022-08-05T06:26:01Z" changeset="124506707" uid="3497659" user="NKA">
		<tag k="historic" v="shieling" />
		<tag k="name" v="Gammelsetra" />
		<tag k="place" v="isolated_dwelling" />
		<tag k="ssr:stedsnr" v="885233" />
	</node>
	<node id="9933070227" lat="62.7830304" lon="6.6569852" version="1" timestamp="2022-08-05T06:26:01Z" changeset="124506707" uid="3497659" user="NKA">
		<tag k="name" v="Øvretun" />
		<tag k="place" v="farm" />
		<tag k="ssr:stedsnr" v="32037" />
	</node>
	<node id="9933070228" lat="62.8367722" lon="6.795114" version="1" timestamp="2022-08-05T06:26:01Z" changeset="124506707" uid="3497659" user="NKA">
		<tag k="name" v="Vike" />
		<tag k="place" v="farm" />
		<tag k="ssr:stedsnr" v="679184" />
	</node>
	<node id="9933070229" lat="62.8263263" lon="6.954809" version="1" timestamp="2022-08-05T06:26:01Z" changeset="124506707" uid="3497659" user="NKA">
		<tag k="name" v="Nygjerdet" />
		<tag k="place" v="farm" />
		<tag k="ssr:stedsnr" v="96103" />
	</node>
	<node id="9933070230" lat="62.784" lon="6.6585251" version="1" timestamp="2022-08-05T06:26:01Z" changeset="124506707" uid="3497659" user="NKA">
		<tag k="name" v="Haugly" />
		<tag k="place" v="isolated_dwelling" />
		<tag k="ssr:stedsnr" v="32043" />
	</node>
	<node id="9933070231" lat="62.7779575" lon="6.9762505" version="1" timestamp="2022-08-05T06:26:01Z" changeset="124506707" uid="3497659" user="NKA">
		<tag k="name" v="Hollingsholmen" />
		<tag k="place" v="farm" />
		<tag k="ssr:stedsnr" v="86040" />
	</node>
	<node id="9933070232" lat="62.8088568" lon="6.8084421" version="1" timestamp="2022-08-05T06:26:01Z" changeset="124506707" uid="3497659" user="NKA">
		<tag k="name" v="Småge" />
		<tag k="place" v="hamlet" />
		<tag k="ssr:stedsnr" v="315782" />
	</node>
	<node id="9933070233" lat="62.8025334" lon="6.877228" version="1" timestamp="2022-08-05T06:26:01Z" changeset="124506707" uid="3497659" user="NKA">
		<tag k="name" v="Bergheim" />
		<tag k="place" v="farm" />
		<tag k="ssr:stedsnr" v="739817" />
	</node>
	<node id="9933070234" lat="62.8475778" lon="6.9449445" version="1" timestamp="2022-08-05T06:26:01Z" changeset="124506707" uid="3497659" user="NKA">
		<tag k="name" v="Bergsli" />
		<tag k="place" v="farm" />
		<tag k="ssr:stedsnr" v="679200" />
	</node>
	<node id="9933070235" lat="62.8491277" lon="6.912889" version="1" timestamp="2022-08-05T06:26:01Z" changeset="124506707" uid="3497659" user="NKA">
		<tag k="name" v="Heilohaugan" />
		<tag k="place" v="farm" />
		<tag k="ssr:stedsnr" v="922209" />
	</node>
	<node id="9933070236" lat="62.8305333" lon="6.808914" version="1" timestamp="2022-08-05T06:26:01Z" changeset="124506707" uid="3497659" user="NKA">
		<tag k="alt_name" v="Otterhalsen" />
		<tag k="name" v="Oterhalsen" />
		<tag k="place" v="hamlet" />
		<tag k="ssr:stedsnr" v="11766" />
	</node>
	<node id="9933070237" lat="62.8087828" lon="6.8034824" version="1" timestamp="2022-08-05T06:26:01Z" changeset="124506707" uid="3497659" user="NKA">
		<tag k="name" v="Korsbøen" />
		<tag k="place" v="farm" />
		<tag k="ssr:stedsnr" v="946039" />
	</node>
	<node id="9933070238" lat="62.8172112" lon="6.8040293" version="1" timestamp="2022-08-05T06:26:01Z" changeset="124506707" uid="3497659" user="NKA">
		<tag k="name" v="Røssøyvågen" />
		<tag k="place" v="village" />
		<tag k="ssr:stedsnr" v="861763" />
	</node>
	<node id="9933070239" lat="62.8242428" lon="6.8611888" version="1" timestamp="2022-08-05T06:26:01Z" changeset="124506707" uid="3497659" user="NKA">
		<tag k="name" v="Haugland" />
		<tag k="place" v="farm" />
		<tag k="ssr:stedsnr" v="800728" />
	</node>
	<node id="9933070240" lat="62.7944389" lon="6.8475279" version="1" timestamp="2022-08-05T06:26:01Z" changeset="124506707" uid="3497659" user="NKA">
		<tag k="name" v="Småsundet" />
		<tag k="place" v="isolated_dwelling" />
		<tag k="ssr:stedsnr" v="861829" />
	</node>
	<node id="9933070241" lat="62.8357083" lon="6.7998474" version="1" timestamp="2022-08-05T06:26:01Z" changeset="124506707" uid="3497659" user="NKA">
		<tag k="name" v="Vik" />
		<tag k="place" v="farm" />
		<tag k="ssr:stedsnr" v="618177" />
	</node>
	<node id="9933070242" lat="62.8274357" lon="6.855282" version="1" timestamp="2022-08-05T06:26:01Z" changeset="124506707" uid="3497659" user="NKA">
		<tag k="name" v="Solvang" />
		<tag k="place" v="farm" />
		<tag k="ssr:stedsnr" v="618729" />
	</node>
	<node id="9933070243" lat="62.8336629" lon="6.8737725" version="1" timestamp="2022-08-05T06:26:01Z" changeset="124506707" uid="3497659" user="NKA">
		<tag k="name" v="Skarshaugen" />
		<tag k="place" v="hamlet" />
		<tag k="ssr:stedsnr" v="521791" />
	</node>
	<node id="9933070244" lat="62.7809608" lon="6.6439471" version="1" timestamp="2022-08-05T06:26:01Z" changeset="124506707" uid="3497659" user="NKA">
		<tag k="name" v="Nybø" />
		<tag k="place" v="farm" />
		<tag k="ssr:stedsnr" v="456849" />
	</node>
	<node id="9933070245" lat="62.8198027" lon="6.8463717" version="1" timestamp="2022-08-05T06:26:01Z" changeset="124506707" uid="3497659" user="NKA">
		<tag k="name" v="Ulsgard" />
		<tag k="place" v="farm" />
		<tag k="ssr:stedsnr" v="618745" />
	</node>
	<node id="9933070246" lat="62.826775" lon="6.9552806" version="1" timestamp="2022-08-05T06:26:01Z" changeset="124506707" uid="3497659" user="NKA">
		<tag k="name" v="Hatlebakk" />
		<tag k="place" v="farm" />
		<tag k="ssr:stedsnr" v="460100" />
	</node>
	<node id="9933070247" lat="62.8064788" lon="6.851067" version="1" timestamp="2022-08-05T06:26:01Z" changeset="124506707" uid="3497659" user="NKA">
		<tag k="name" v="Tahaugen" />
		<tag k="place" v="farm" />
		<tag k="ssr:stedsnr" v="193785" />
	</node>
	<node id="9933070248" lat="62.8484334" lon="6.912053" version="1" timestamp="2022-08-05T06:26:01Z" changeset="124506707" uid="3497659" user="NKA">
		<tag k="name" v="Myrstad" />
		<tag k="place" v="farm" />
		<tag k="ssr:stedsnr" v="375189" />
	</node>
	<node id="9933070249" lat="62.8154917" lon="6.8858112" version="1" timestamp="2022-08-05T06:26:01Z" changeset="124506707" uid="3497659" user="NKA">
		<tag k="name" v="Bakkemyra" />
		<tag k="place" v="farm" />
		<tag k="ssr:stedsnr" v="800751" />
	</node>
	<node id="9933070250" lat="62.8068903" lon="6.8362803" version="1" timestamp="2022-08-05T06:26:01Z" changeset="124506707" uid="3497659" user="NKA">
		<tag k="name" v="Smågeleiren" />
		<tag k="place" v="farm" />
		<tag k="ssr:stedsnr" v="703384" />
	</node>
	<node id="9933070251" lat="62.7981333" lon="6.8490057" version="1" timestamp="2022-08-05T06:26:01Z" changeset="124506707" uid="3497659" user="NKA">
		<tag k="name" v="Horremsbakken" />
		<tag k="place" v="farm" />
		<tag k="ssr:stedsnr" v="800783" />
	</node>
	<node id="9933070252" lat="62.8396466" lon="6.786137" version="1" timestamp="2022-08-05T06:26:01Z" changeset="124506707" uid="3497659" user="NKA">
		<tag k="name" v="Bytingsvika" />
		<tag k="place" v="farm" />
		<tag k="ssr:stedsnr" v="375175" />
	</node>
	<node id="9933070253" lat="62.8040966" lon="6.8420808" version="1" timestamp="2022-08-05T06:26:01Z" changeset="124506707" uid="3497659" user="NKA">
		<tag k="name" v="Horrem" />
		<tag k="place" v="hamlet" />
		<tag k="ssr:stedsnr" v="679778" />
	</node>
	<node id="9933070254" lat="62.7660242" lon="6.9967025" version="1" timestamp="2022-08-05T06:26:01Z" changeset="124506707" uid="3497659" user="NKA">
		<tag k="alt_name" v="Vollan" />
		<tag k="name" v="Medvoll" />
		<tag k="place" v="farm" />
		<tag k="ssr:stedsnr" v="437848" />
	</node>
	<node id="9933070255" lat="62.7733469" lon="6.997631" version="1" timestamp="2022-08-05T06:26:01Z" changeset="124506707" uid="3497659" user="NKA">
		<tag k="name" v="Matberget" />
		<tag k="place" v="farm" />
		<tag k="ssr:stedsnr" v="436840" />
	</node>
	<node id="9933070256" lat="62.8297888" lon="6.9551806" version="1" timestamp="2022-08-05T06:26:01Z" changeset="124506707" uid="3497659" user="NKA">
		<tag k="name" v="Kråkneset" />
		<tag k="place" v="farm" />
		<tag k="ssr:stedsnr" v="618732" />
	</node>
	<node id="9933070257" lat="62.78035" lon="6.976839" version="1" timestamp="2022-08-05T06:26:01Z" changeset="124506707" uid="3497659" user="NKA">
		<tag k="name" v="Hjellvika" />
		<tag k="place" v="farm" />
		<tag k="ssr:stedsnr" v="72839" />
	</node>
	<node id="9933070258" lat="62.7766237" lon="6.990648" version="1" timestamp="2022-08-05T06:26:01Z" changeset="124506707" uid="3497659" user="NKA">
		<tag k="name" v="Øvre Hollingen" />
		<tag k="place" v="farm" />
		<tag k="ssr:stedsnr" v="157016" />
	</node>
	<node id="9933070259" lat="62.7581562" lon="7.000419" version="1" timestamp="2022-08-05T06:26:01Z" changeset="124506707" uid="3497659" user="NKA">
		<tag k="name" v="Eiskrem" />
		<tag k="place" v="hamlet" />
		<tag k="ssr:stedsnr" v="862870" />
	</node>
	<node id="9933070260" lat="62.8043401" lon="6.8891716" version="1" timestamp="2022-08-05T06:26:01Z" changeset="124506707" uid="3497659" user="NKA">
		<tag k="name" v="Falkhytta" />
		<tag k="place" v="village" />
		<tag k="ssr:stedsnr" v="254773" />
	</node>
	<node id="9933070261" lat="62.82165" lon="6.9231195" version="1" timestamp="2022-08-05T06:26:01Z" changeset="124506707" uid="3497659" user="NKA">
		<tag k="name" v="Furulia" />
		<tag k="place" v="farm" />
		<tag k="ssr:stedsnr" v="132766" />
	</node>
	<node id="9933070262" lat="62.8076944" lon="6.9022085" version="1" timestamp="2022-08-05T06:26:01Z" changeset="124506707" uid="3497659" user="NKA">
		<tag k="name" v="Varhaug" />
		<tag k="place" v="farm" />
		<tag k="ssr:stedsnr" v="171062" />
	</node>
	<node id="9933070263" lat="62.8174278" lon="6.9157029" version="1" timestamp="2022-08-05T06:26:01Z" changeset="124506707" uid="3497659" user="NKA">
		<tag k="name" v="Nerbøvika" />
		<tag k="place" v="farm" />
		<tag k="ssr:stedsnr" v="132765" />
	</node>
	<node id="9933070264" lat="62.8446667" lon="6.8911057" version="1" timestamp="2022-08-05T06:26:01Z" changeset="124506707" uid="3497659" user="NKA">
		<tag k="name" v="Juvika" />
		<tag k="place" v="hamlet" />
		<tag k="ssr:stedsnr" v="36856" />
	</node>
	<node id="9933070265" lat="62.83593" lon="6.8862535" version="1" timestamp="2022-08-05T06:26:01Z" changeset="124506707" uid="3497659" user="NKA">
		<tag k="name" v="Sørigarden" />
		<tag k="place" v="farm" />
		<tag k="ssr:stedsnr" v="36847" />
	</node>
	<node id="9933070266" lat="62.8467111" lon="6.9341807" version="1" timestamp="2022-08-05T06:26:01Z" changeset="124506707" uid="3497659" user="NKA">
		<tag k="name" v="Solvoll" />
		<tag k="place" v="farm" />
		<tag k="ssr:stedsnr" v="72225" />
	</node>
	<node id="9933070267" lat="62.8428972" lon="6.9008752" version="1" timestamp="2022-08-05T06:26:01Z" changeset="124506707" uid="3497659" user="NKA">
		<tag k="name" v="Kisthaugen" />
		<tag k="place" v="farm" />
		<tag k="ssr:stedsnr" v="72224" />
	</node>
	<node id="9933070268" lat="62.8056233" lon="6.8603027" version="1" timestamp="2022-08-05T06:26:01Z" changeset="124506707" uid="3497659" user="NKA">
		<tag k="name" v="Elvestad" />
		<tag k="place" v="farm" />
		<tag k="ssr:stedsnr" v="825299" />
	</node>
	<node id="9933070269" lat="62.7850579" lon="6.993878" version="1" timestamp="2022-08-05T06:26:01Z" changeset="124506707" uid="3497659" user="NKA">
		<tag k="name" v="Hollingen" />
		<tag k="place" v="farm" />
		<tag k="ssr:stedsnr" v="657128" />
	</node>
	<node id="9933070270" lat="62.7801167" lon="6.8894667" version="1" timestamp="2022-08-05T06:26:01Z" changeset="124506707" uid="3497659" user="NKA">
		<tag k="name" v="Breivika" />
		<tag k="place" v="hamlet" />
		<tag k="ssr:stedsnr" v="800820" />
	</node>
	<node id="9933070271" lat="62.7711438" lon="6.9862131" version="1" timestamp="2022-08-05T06:26:01Z" changeset="124506707" uid="3497659" user="NKA">
		<tag k="name" v="Bukta" />
		<tag k="place" v="farm" />
		<tag k="ssr:stedsnr" v="218021" />
	</node>
	<node id="9933070272" lat="62.8038528" lon="6.8701862" version="1" timestamp="2022-08-05T06:26:01Z" changeset="124506707" uid="3497659" user="NKA">
		<tag k="name" v="Myrbø" />
		<tag k="place" v="farm" />
		<tag k="ssr:stedsnr" v="800782" />
	</node>
	<node id="9933070273" lat="62.8093333" lon="6.887589" version="1" timestamp="2022-08-05T06:26:01Z" changeset="124506707" uid="3497659" user="NKA">
		<tag k="name" v="Hagen" />
		<tag k="place" v="farm" />
		<tag k="ssr:stedsnr" v="11799" />
	</node>
	<node id="9933070274" lat="62.7692011" lon="6.989506" version="1" timestamp="2022-08-05T06:26:01Z" changeset="124506707" uid="3497659" user="NKA">
		<tag k="name" v="Fangholen" />
		<tag k="place" v="farm" />
		<tag k="ssr:stedsnr" v="740854" />
	</node>
	<node id="9933070275" lat="62.7860695" lon="6.8835695" version="1" timestamp="2022-08-05T06:26:01Z" changeset="124506707" uid="3497659" user="NKA">
		<tag k="name" v="Gjerdet" />
		<tag k="place" v="farm" />
		<tag k="ssr:stedsnr" v="922826" />
	</node>
	<node id="9933070276" lat="62.8312297" lon="6.9129535" version="1" timestamp="2022-08-05T06:26:01Z" changeset="124506707" uid="3497659" user="NKA">
		<tag k="name" v="Bjørkeset" />
		<tag k="place" v="farm" />
		<tag k="ssr:stedsnr" v="739769" />
	</node>
	<node id="9933070277" lat="62.8474283" lon="6.9022623" version="1" timestamp="2022-08-05T06:26:01Z" changeset="124506707" uid="3497659" user="NKA">
		<tag k="alt_name" v="Sæter" />
		<tag k="name" v="Seter" />
		<tag k="place" v="hamlet" />
		<tag k="ssr:stedsnr" v="11219" />
	</node>
	<node id="9933070278" lat="62.7713927" lon="6.9945013" version="1" timestamp="2022-08-05T06:26:01Z" changeset="124506707" uid="3497659" user="NKA">
		<tag k="name" v="Råket" />
		<tag k="place" v="farm" />
		<tag k="ssr:stedsnr" v="702205" />
	</node>
	<node id="9933070279" lat="62.8201944" lon="6.9082778" version="1" timestamp="2022-08-05T06:26:01Z" changeset="124506707" uid="3497659" user="NKA">
		<tag k="name" v="Eindalen" />
		<tag k="place" v="farm" />
		<tag k="ssr:stedsnr" v="824708" />
	</node>
	<node id="9933070280" lat="62.8459917" lon="6.8424417" version="1" timestamp="2022-08-05T06:26:01Z" changeset="124506707" uid="3497659" user="NKA">
		<tag k="name" v="Lunheim" />
		<tag k="place" v="farm" />
		<tag k="ssr:stedsnr" v="679194" />
	</node>
	<node id="9933070281" lat="62.8510361" lon="6.9108279" version="1" timestamp="2022-08-05T06:26:01Z" changeset="124506707" uid="3497659" user="NKA">
		<tag k="name" v="Setervika" />
		<tag k="place" v="farm" />
		<tag k="ssr:stedsnr" v="739216" />
	</node>
	<node id="9933070282" lat="62.8372978" lon="6.8888891" version="1" timestamp="2022-08-05T06:26:01Z" changeset="124506707" uid="3497659" user="NKA">
		<tag k="name" v="Ekkerhaugen" />
		<tag k="place" v="farm" />
		<tag k="ssr:stedsnr" v="885818" />
	</node>
	<node id="9933070283" lat="62.8176647" lon="6.9401829" version="1" timestamp="2022-08-05T06:26:01Z" changeset="124506707" uid="3497659" user="NKA">
		<tag k="name" v="Blom" />
		<tag k="place" v="isolated_dwelling" />
		<tag k="ssr:stedsnr" v="763006" />
	</node>
	<node id="9933070284" lat="62.8359943" lon="6.8895218" version="1" timestamp="2022-08-05T06:26:01Z" changeset="124506707" uid="3497659" user="NKA">
		<tag k="name" v="Sporsem" />
		<tag k="place" v="hamlet" />
		<tag k="ssr:stedsnr" v="315197" />
	</node>
	<node id="9933070285" lat="62.832331" lon="6.8511794" version="1" timestamp="2022-08-05T06:26:01Z" changeset="124506707" uid="3497659" user="NKA">
		<tag k="name" v="Skjerset" />
		<tag k="place" v="farm" />
		<tag k="ssr:stedsnr" v="375738" />
	</node>
	<node id="9933070286" lat="62.8055361" lon="6.8603529" version="1" timestamp="2022-08-05T06:26:01Z" changeset="124506707" uid="3497659" user="NKA">
		<tag k="name" v="Elvebakken" />
		<tag k="place" v="farm" />
		<tag k="ssr:stedsnr" v="922753" />
	</node>
	<node id="9933070287" lat="62.7828583" lon="6.8831334" version="1" timestamp="2022-08-05T06:26:01Z" changeset="124506707" uid="3497659" user="NKA">
		<tag k="name" v="Smedbakken" />
		<tag k="place" v="farm" />
		<tag k="ssr:stedsnr" v="194825" />
	</node>
	<node id="9933070288" lat="62.8217873" lon="6.8643153" version="1" timestamp="2022-08-05T06:26:01Z" changeset="124506707" uid="3497659" user="NKA">
		<tag k="name" v="Gåsvang" />
		<tag k="place" v="farm" />
		<tag k="ssr:stedsnr" v="193764" />
	</node>
	<node id="9933070289" lat="62.8107806" lon="6.8841112" version="1" timestamp="2022-08-05T06:26:01Z" changeset="124506707" uid="3497659" user="NKA">
		<tag k="name" v="Dalen" />
		<tag k="place" v="farm" />
		<tag k="ssr:stedsnr" v="375774" />
	</node>
	<node id="9933070290" lat="62.7769055" lon="6.8940084" version="1" timestamp="2022-08-05T06:26:01Z" changeset="124506707" uid="3497659" user="NKA">
		<tag k="name" v="Trollvika" />
		<tag k="place" v="farm" />
		<tag k="ssr:stedsnr" v="193857" />
	</node>
	<node id="9933070291" lat="62.8363444" lon="6.9233778" version="1" timestamp="2022-08-05T06:26:01Z" changeset="124506707" uid="3497659" user="NKA">
		<tag k="name" v="Midtbø" />
		<tag k="place" v="farm" />
		<tag k="ssr:stedsnr" v="375155" />
	</node>
	<node id="9933070292" lat="62.7832196" lon="6.651085" version="1" timestamp="2022-08-05T06:26:01Z" changeset="124506707" uid="3497659" user="NKA">
		<tag k="name" v="Ytterbø" />
		<tag k="place" v="farm" />
		<tag k="ssr:stedsnr" v="578056" />
	</node>
	<node id="9933070293" lat="62.8213628" lon="6.8246455" version="1" timestamp="2022-08-05T06:26:01Z" changeset="124506707" uid="3497659" user="NKA">
		<tag k="name" v="Rød" />
		<tag k="place" v="hamlet" />
		<tag k="ssr:stedsnr" v="679743" />
	</node>
	<node id="9933070294" lat="62.8389444" lon="6.8917695" version="1" timestamp="2022-08-05T06:26:01Z" changeset="124506707" uid="3497659" user="NKA">
		<tag k="name" v="Nyheim" />
		<tag k="place" v="farm" />
		<tag k="ssr:stedsnr" v="861198" />
	</node>
	<node id="9933070295" lat="62.8389" lon="6.8822056" version="1" timestamp="2022-08-05T06:26:01Z" changeset="124506707" uid="3497659" user="NKA">
		<tag k="name" v="Vassdalen" />
		<tag k="place" v="farm" />
		<tag k="ssr:stedsnr" v="861199" />
	</node>
	<node id="9933070296" lat="62.8385694" lon="6.897314" version="1" timestamp="2022-08-05T06:26:01Z" changeset="124506707" uid="3497659" user="NKA">
		<tag k="name" v="Reithaugen" />
		<tag k="place" v="farm" />
		<tag k="ssr:stedsnr" v="254196" />
	</node>
	<node id="9933070297" lat="62.832729" lon="6.8896898" version="1" timestamp="2022-08-05T06:26:01Z" changeset="124506707" uid="3497659" user="NKA">
		<tag k="name" v="Rabben" />
		<tag k="place" v="farm" />
		<tag k="ssr:stedsnr" v="218854" />
	</node>
	<node id="9933070298" lat="62.8039071" lon="6.8636675" version="1" timestamp="2022-08-05T06:26:01Z" changeset="124506707" uid="3497659" user="NKA">
		<tag k="name" v="Midtheim" />
		<tag k="place" v="farm" />
		<tag k="ssr:stedsnr" v="399371" />
	</node>
	<node id="9933070299" lat="62.8027889" lon="6.8728335" version="1" timestamp="2022-08-05T06:26:01Z" changeset="124506707" uid="3497659" user="NKA">
		<tag k="name" v="Fagerheim" />
		<tag k="place" v="farm" />
		<tag k="ssr:stedsnr" v="436807" />
	</node>
	<node id="9933070300" lat="62.8405673" lon="6.8463456" version="1" timestamp="2022-08-05T06:26:01Z" changeset="124506707" uid="3497659" user="NKA">
		<tag k="name" v="Løvika" />
		<tag k="place" v="hamlet" />
		<tag k="ssr:stedsnr" v="132206" />
	</node>
	<node id="9933070301" lat="62.7816778" lon="6.8852361" version="1" timestamp="2022-08-05T06:26:01Z" changeset="124506707" uid="3497659" user="NKA">
		<tag k="name" v="Kleiva" />
		<tag k="place" v="farm" />
		<tag k="ssr:stedsnr" v="133824" />
	</node>
	<node id="9933070302" lat="62.8185337" lon="6.8857722" version="1" timestamp="2022-08-05T06:26:01Z" changeset="124506707" uid="3497659" user="NKA">
		<tag k="name" v="Riksfjord" />
		<tag k="place" v="quarter" />
		<tag k="ssr:stedsnr" v="132767" />
	</node>
	<node id="9933070303" lat="62.7801833" lon="6.644864" version="1" timestamp="2022-08-05T06:26:01Z" changeset="124506707" uid="3497659" user="NKA">
		<tag k="name" v="Gjerdet" />
		<tag k="place" v="farm" />
		<tag k="ssr:stedsnr" v="254414" />
	</node>
	<node id="9933070304" lat="62.8240637" lon="6.8841913" version="1" timestamp="2022-08-05T06:26:01Z" changeset="124506707" uid="3497659" user="NKA">
		<tag k="name" v="Hestholen" />
		<tag k="place" v="farm" />
		<tag k="ssr:stedsnr" v="946791" />
	</node>
	<node id="9933070305" lat="62.8062084" lon="6.8534153" version="1" timestamp="2022-08-05T06:26:01Z" changeset="124506707" uid="3497659" user="NKA">
		<tag k="name" v="Flatset" />
		<tag k="place" v="farm" />
		<tag k="ssr:stedsnr" v="825214" />
	</node>
	<node id="9933070306" lat="62.7788056" lon="6.8931573" version="1" timestamp="2022-08-05T06:26:01Z" changeset="124506707" uid="3497659" user="NKA">
		<tag k="name" v="Nybø" />
		<tag k="place" v="farm" />
		<tag k="ssr:stedsnr" v="596129" />
	</node>
	<node id="9933070307" lat="62.8436343" lon="6.7868157" version="1" timestamp="2022-08-05T06:26:01Z" changeset="124506707" uid="3497659" user="NKA">
		<tag k="name" v="Sandnes" />
		<tag k="place" v="farm" />
		<tag k="ssr:stedsnr" v="581397" />
	</node>
</osm>
