<?xml version="1.0" encoding="UTF-8"?>
<osm version="0.6" generator="osmapis">
	<node lat="61.18422499719553" lon="11.727600006387883" id="-19181">
		<tag k="alt_name" v="Nordre Tverr-Ulvåa" />
		<tag k="name" v="Tverråa" />
		<tag k="ssr:stedsnr" v="7349" />
		<tag k="waterway" v="stream" />
	</node>
	<node lat="61.02011666933904" lon="12.050175007942341" id="-19184">
		<tag k="alt_name" v="Veslestyggfossen" />
		<tag k="name" v="Veslestyggen" />
		<tag k="natural" v="waterfall" />
		<tag k="ssr:stedsnr" v="8896" />
	</node>
	<node lat="60.77209166388431" lon="11.711197220857896" id="-19193">
		<tag k="name" v="Lindtjennet" />
		<tag k="natural" v="water" />
		<tag k="ssr:stedsnr" v="9307" />
	</node>
	<node lat="60.7669104344744" lon="11.678226897962329" id="-19194">
		<tag k="name" v="Gørsildtjenna" />
		<tag k="natural" v="water" />
		<tag k="ssr:stedsnr" v="9308" />
		<tag k="water" v="lake" />
	</node>
	<node lat="60.997794442819625" lon="12.08341110264027" id="-19198">
		<tag k="name" v="Flisflodammen" />
		<tag k="ssr:stedsnr" v="9409" />
		<tag k="waterway" v="dam" />
	</node>
	<node lat="60.92114444475603" lon="11.943888881830668" id="-19216">
		<tag k="name" v="Granrudsbekken" />
		<tag k="ssr:stedsnr" v="41074" />
		<tag k="waterway" v="stream" />
	</node>
	<node lat="60.902088889718065" lon="11.511444438248105" id="-19218">
		<tag k="name" v="Slåttmyrbekken" />
		<tag k="ssr:stedsnr" v="41613" />
		<tag k="waterway" v="stream" />
	</node>
	<node lat="60.80811111221552" lon="11.685025008433326" id="-19239">
		<tag k="name" v="Linntjennet" />
		<tag k="natural" v="water" />
		<tag k="ssr:stedsnr" v="237959" />
	</node>
	<node lat="60.95582222068055" lon="11.814794444797059" id="-19246">
		<tag k="name" v="Ortjernsbekken" />
		<tag k="ssr:stedsnr" v="239166" />
		<tag k="waterway" v="stream" />
	</node>
	<node lat="60.98679166732988" lon="11.456030548952354" id="-19250">
		<tag k="name" v="Rypholmen" />
		<tag k="place" v="islet" />
		<tag k="ssr:stedsnr" v="239774" />
	</node>
	<node lat="60.92311389303662" lon="11.515116664236018" id="-19254">
		<tag k="name" v="Grundsetbekken" />
		<tag k="ssr:stedsnr" v="55589" />
		<tag k="waterway" v="stream" />
	</node>
	<node lat="60.742275002224204" lon="11.624858329473387" id="-19258">
		<tag k="name" v="Bergsvika" />
		<tag k="natural" v="bay" />
		<tag k="ssr:stedsnr" v="56411" />
	</node>
	<node lat="60.89355277553385" lon="11.909858327016291" id="-19260">
		<tag k="name" v="Breifløta" />
		<tag k="natural" v="water" />
		<tag k="ssr:stedsnr" v="57071" />
		<tag k="water" v="lake" />
	</node>
	<node lat="60.830822217980284" lon="11.858147223548249" id="-19270">
		<tag k="name" v="Rønåsbekken" />
		<tag k="ssr:stedsnr" v="59991" />
		<tag k="waterway" v="stream" />
	</node>
	<node lat="61.05367499905211" lon="11.538777777395978" id="-19279">
		<tag k="name" v="Kråkbekken" />
		<tag k="ssr:stedsnr" v="68219" />
		<tag k="waterway" v="stream" />
	</node>
	<node lat="61.02948611119094" lon="12.046138895110158" id="-19284">
		<tag k="alt_name" v="Storstyggfossen" />
		<tag k="name" v="Storstyggen" />
		<tag k="natural" v="waterfall" />
		<tag k="ssr:stedsnr" v="68892" />
	</node>
	<node lat="60.8476722189972" lon="11.522811105463713" id="-19292">
		<tag k="name" v="Hanstjennet" />
		<tag k="natural" v="water" />
		<tag k="ssr:stedsnr" v="70182" />
	</node>
	<node lat="60.811422223286854" lon="11.850327782337631" id="-19312">
		<tag k="name" v="Flotstjennet" />
		<tag k="natural" v="water" />
		<tag k="ssr:stedsnr" v="70504" />
	</node>
	<node lat="60.982991670301296" lon="11.433111107268406" id="-19313">
		<tag k="name" v="Purkskinnsbekken" />
		<tag k="ssr:stedsnr" v="70511" />
		<tag k="waterway" v="stream" />
	</node>
	<node lat="60.81005555255817" lon="11.69964166109489" id="-19318">
		<tag k="name" v="Surtjennet" />
		<tag k="natural" v="water" />
		<tag k="ssr:stedsnr" v="83884" />
	</node>
	<node lat="60.88869722052253" lon="11.61083054815711" id="-19323">
		<tag k="name" v="Åborkulpen" />
		<tag k="natural" v="water" />
		<tag k="ssr:stedsnr" v="102102" />
	</node>
	<node lat="61.10449166660231" lon="11.615858337327552" id="-19328">
		<tag k="name" v="Gardsbekken" />
		<tag k="ssr:stedsnr" v="102884" />
		<tag k="waterway" v="stream" />
	</node>
	<node lat="61.00988888647121" lon="11.764699996012729" id="-19331">
		<tag k="name" v="Kvernbekken" />
		<tag k="ssr:stedsnr" v="250028" />
		<tag k="waterway" v="stream" />
	</node>
	<node lat="61.15090000199109" lon="11.713877769421964" id="-19333">
		<tag k="name" v="Gransjøbekken" />
		<tag k="ssr:stedsnr" v="250159" />
		<tag k="waterway" v="stream" />
	</node>
	<node lat="61.02115555786697" lon="11.4460027806833" id="-19347">
		<tag k="name" v="Sæterbekken" />
		<tag k="ssr:stedsnr" v="250283" />
		<tag k="waterway" v="stream" />
	</node>
	<node lat="60.915830555489904" lon="11.528024995716777" id="-19348">
		<tag k="name" v="Stilla" />
		<tag k="place" v="locality" />
		<tag k="ssr:stedsnr" v="116626" />
	</node>
	<node lat="60.79375833652287" lon="11.645644436031882" id="-19351">
		<tag k="name" v="Sølvbekken" />
		<tag k="ssr:stedsnr" v="116381" />
		<tag k="waterway" v="stream" />
	</node>
	<node lat="61.08870000445079" lon="11.586258327176902" id="-19354">
		<tag k="name" v="Ryssjøveta" />
		<tag k="ssr:stedsnr" v="116925" />
		<tag k="waterway" v="stream" />
	</node>
	<node lat="61.03181111266487" lon="12.104500003459584" id="-19362">
		<tag k="name" v="Halådammen" />
		<tag k="ssr:stedsnr" v="250893" />
		<tag k="waterway" v="dam" />
	</node>
	<node lat="60.846600000153046" lon="11.740469443283693" id="-19377">
		<tag k="name" v="Okstjennet" />
		<tag k="natural" v="water" />
		<tag k="ssr:stedsnr" v="251237" />
	</node>
	<node lat="60.86259630400861" lon="11.84334674145472" id="-19383">
		<tag k="name" v="Abbortjennet" />
		<tag k="natural" v="water" />
		<tag k="ssr:stedsnr" v="251245" />
	</node>
	<node lat="60.96508888831105" lon="11.582261110390785" id="-19389">
		<tag k="name" v="Okstjennet" />
		<tag k="natural" v="water" />
		<tag k="ssr:stedsnr" v="252020" />
	</node>
	<node lat="60.91543888679419" lon="11.627663886511112" id="-19397">
		<tag k="name" v="Nistilen" />
		<tag k="ssr:stedsnr" v="252135" />
		<tag k="waterway" v="stream" />
	</node>
	<node lat="60.89559444510216" lon="11.70770277665976" id="-19406">
		<tag k="name" v="Svarttjennet" />
		<tag k="natural" v="water" />
		<tag k="ssr:stedsnr" v="252116" />
	</node>
	<node lat="60.899894447041746" lon="11.622994438484469" id="-19407">
		<tag k="name" v="Posttjennet" />
		<tag k="natural" v="water" />
		<tag k="ssr:stedsnr" v="252121" />
	</node>
	<node lat="60.82379166235268" lon="11.570686109262144" id="-19425">
		<tag k="name" v="Sjøbekken" />
		<tag k="ssr:stedsnr" v="252265" />
		<tag k="waterway" v="stream" />
	</node>
	<node lat="60.831834087918786" lon="11.52225551841163" id="-19427">
		<tag k="name" v="Abbortjenna" />
		<tag k="natural" v="water" />
		<tag k="ssr:stedsnr" v="252267" />
		<tag k="water" v="lake" />
	</node>
	<node lat="60.991788892655705" lon="11.96546110268901" id="-19439">
		<tag k="name" v="Langjordsbekken" />
		<tag k="ssr:stedsnr" v="252386" />
		<tag k="waterway" v="stream" />
	</node>
	<node lat="60.99112777686547" lon="11.933252779506903" id="-19440">
		<tag k="name" v="Renåa" />
		<tag k="ssr:stedsnr" v="252387" />
		<tag k="waterway" v="stream" />
	</node>
	<node lat="60.970372222957245" lon="11.903736105788832" id="-19441">
		<tag k="name" v="Storbekken" />
		<tag k="ssr:stedsnr" v="252348" />
		<tag k="waterway" v="stream" />
	</node>
	<node lat="60.970711113285454" lon="12.028455553485863" id="-19444">
		<tag k="name" v="Ulvåa" />
		<tag k="old_name" v="Ulvåa, store" />
		<tag k="ssr:stedsnr" v="252369" />
		<tag k="waterway" v="river" />
	</node>
	<node lat="61.012505558140774" lon="11.761874994328839" id="-19447">
		<tag k="name" v="Svartbekken" />
		<tag k="ssr:stedsnr" v="129044" />
		<tag k="waterway" v="stream" />
	</node>
	<node lat="60.79645000312607" lon="11.867341664751354" id="-19452">
		<tag k="name" v="Bjua" />
		<tag k="ssr:stedsnr" v="252460" />
		<tag k="waterway" v="stream" />
	</node>
	<node lat="60.84545000208514" lon="11.911724996707564" id="-19454">
		<tag k="name" v="Flatåstjennet" />
		<tag k="natural" v="water" />
		<tag k="ssr:stedsnr" v="252519" />
	</node>
	<node lat="60.89351111294664" lon="11.533025000199993" id="-19458">
		<tag k="name" v="Langsletta" />
		<tag k="natural" v="water" />
		<tag k="ssr:stedsnr" v="130114" />
	</node>
	<node lat="60.89395555502424" lon="11.618205555918582" id="-19459">
		<tag k="name" v="Oksøye" />
		<tag k="natural" v="water" />
		<tag k="ssr:stedsnr" v="130129" />
	</node>
	<node lat="60.862136111587155" lon="11.958305563499117" id="-19460">
		<tag k="name" v="Renmyrsjøen" />
		<tag k="natural" v="water" />
		<tag k="ssr:stedsnr" v="252523" />
	</node>
	<node lat="60.96988611347204" lon="11.738061105997925" id="-19462">
		<tag k="name" v="Grønbekken" />
		<tag k="ssr:stedsnr" v="130017" />
		<tag k="waterway" v="stream" />
	</node>
	<node lat="60.96368888818389" lon="11.569580548696747" id="-19463">
		<tag k="name" v="Ørtjennet" />
		<tag k="natural" v="water" />
		<tag k="ssr:stedsnr" v="130022" />
	</node>
	<node lat="60.876411113292384" lon="11.930855556439472" id="-19472">
		<tag k="name" v="Kynnsjøen" />
		<tag k="natural" v="water" />
		<tag k="ssr:stedsnr" v="130406" />
	</node>
	<node lat="60.88868889176103" lon="11.880452770683656" id="-19473">
		<tag k="name" v="Gardtjennet" />
		<tag k="natural" v="water" />
		<tag k="ssr:stedsnr" v="130407" />
	</node>
	<node lat="60.87891388804054" lon="11.967213891437636" id="-19474">
		<tag k="name" v="Rundtjennet" />
		<tag k="natural" v="water" />
		<tag k="ssr:stedsnr" v="130410" />
	</node>
	<node lat="60.882494441103695" lon="11.457569441576453" id="-19483">
		<tag k="name" v="Svarttjennet" />
		<tag k="natural" v="water" />
		<tag k="ssr:stedsnr" v="252645" />
	</node>
	<node lat="60.88644722541378" lon="11.507963879982919" id="-19500">
		<tag k="name" v="Åkroken" />
		<tag k="natural" v="water" />
		<tag k="ssr:stedsnr" v="163579" />
		<tag k="water" v="lake" />
	</node>
	<node lat="60.98034999837202" lon="12.00290555336054" id="-19501">
		<tag k="name" v="Rokstadhølen" />
		<tag k="place" v="locality" />
		<tag k="ssr:stedsnr" v="163971" />
	</node>
	<node lat="61.0967583341174" lon="11.690058338654008" id="-19504">
		<tag k="name" v="Gåsengkjøldammen" />
		<tag k="ssr:stedsnr" v="176616" />
		<tag k="waterway" v="dam" />
	</node>
	<node lat="60.82134166609538" lon="11.676050004094504" id="-19510">
		<tag k="name" v="Silkebekken" />
		<tag k="ssr:stedsnr" v="176960" />
		<tag k="waterway" v="stream" />
	</node>
	<node lat="61.012597221020684" lon="11.73187222575137" id="-19518">
		<tag k="name" v="Høymodammen" />
		<tag k="ssr:stedsnr" v="178385" />
		<tag k="waterway" v="dam" />
	</node>
	<node lat="60.9176055579772" lon="11.800322218993688" id="-19521">
		<tag k="name" v="Vestre Lisjøen" />
		<tag k="natural" v="water" />
		<tag k="ssr:stedsnr" v="179811" />
	</node>
	<node lat="60.91884166297362" lon="11.873275003008258" id="-19553">
		<tag k="name" v="Storbekkoset" />
		<tag k="natural" v="bay" />
		<tag k="ssr:stedsnr" v="191463" />
	</node>
	<node lat="61.029586114146" lon="12.067952769174905" id="-19561">
		<tag k="name" v="Halvvegesbekken" />
		<tag k="ssr:stedsnr" v="222505" />
		<tag k="waterway" v="stream" />
	</node>
	<node lat="61.1018888871018" lon="11.569875006684535" id="-19571">
		<tag k="name" v="Sagloken" />
		<tag k="natural" v="water" />
		<tag k="ssr:stedsnr" v="224608" />
	</node>
	<node lat="60.82389444785844" lon="11.59921666032922" id="-19588">
		<tag k="name" v="Hagatjenn" />
		<tag k="natural" v="water" />
		<tag k="ssr:stedsnr" v="240987" />
	</node>
	<node lat="60.88496388623117" lon="11.785241663599543" id="-19589">
		<tag k="name" v="Houmsbekken" />
		<tag k="ssr:stedsnr" v="240998" />
		<tag k="waterway" v="stream" />
	</node>
	<node lat="60.83332777688313" lon="11.783197226960631" id="-19594">
		<tag k="name" v="Saltskrepptjennet" />
		<tag k="natural" v="water" />
		<tag k="ssr:stedsnr" v="241991" />
	</node>
	<node lat="60.86840833073833" lon="11.853241657471859" id="-19596">
		<tag k="name" v="Agsjødammen" />
		<tag k="ssr:stedsnr" v="241993" />
		<tag k="waterway" v="dam" />
	</node>
	<node lat="60.7828626858697" lon="11.520217490336181" id="-19609">
		<tag k="alt_name" v="Gåstjennet" />
		<tag k="name" v="Gåstjernet" />
		<tag k="natural" v="water" />
		<tag k="ssr:stedsnr" v="292525" />
	</node>
	<node lat="60.92321944820033" lon="11.50759722344271" id="-19611">
		<tag k="name" v="Kvernbekken" />
		<tag k="ssr:stedsnr" v="298605" />
		<tag k="waterway" v="stream" />
	</node>
	<node lat="60.74972499970883" lon="11.711186105072182" id="-19612">
		<tag k="name" v="Stokkbekken" />
		<tag k="ssr:stedsnr" v="298393" />
		<tag k="waterway" v="stream" />
	</node>
	<node lat="61.09583610797343" lon="11.630094446480639" id="-19616">
		<tag k="name" v="Gammelrøta" />
		<tag k="ssr:stedsnr" v="298930" />
		<tag k="waterway" v="stream" />
	</node>
	<node lat="61.0614472226001" lon="11.786911120091984" id="-19623">
		<tag k="name" v="Storbekken" />
		<tag k="ssr:stedsnr" v="300105" />
		<tag k="waterway" v="stream" />
	</node>
	<node lat="60.87007778148974" lon="11.93858611839851" id="-19629">
		<tag k="name" v="Tjuvholmen" />
		<tag k="place" v="islet" />
		<tag k="ssr:stedsnr" v="300075" />
	</node>
	<node lat="60.80473055381305" lon="11.634294436837198" id="-19640">
		<tag k="name" v="Løkenholmen" />
		<tag k="place" v="islet" />
		<tag k="ssr:stedsnr" v="302909" />
	</node>
	<node lat="61.15782499686101" lon="11.714658332167044" id="-19650">
		<tag k="name" v="Gransjøen" />
		<tag k="natural" v="water" />
		<tag k="ssr:stedsnr" v="311182" />
	</node>
	<node lat="61.14623611203187" lon="11.755075007047228" id="-19652">
		<tag k="name" v="Røtfløten" />
		<tag k="ssr:stedsnr" v="311200" />
		<tag k="waterway" v="stream" />
	</node>
	<node lat="61.10017499973396" lon="11.676736102182774" id="-19655">
		<tag k="name" v="Ringsåsbekken" />
		<tag k="ssr:stedsnr" v="311208" />
		<tag k="waterway" v="stream" />
	</node>
	<node lat="61.009341662439894" lon="12.11646389595085" id="-19660">
		<tag k="name" v="Sautjennet" />
		<tag k="natural" v="water" />
		<tag k="ssr:stedsnr" v="311875" />
	</node>
	<node lat="61.002027780917324" lon="12.075922217754725" id="-19661">
		<tag k="name" v="Flisfloen" />
		<tag k="natural" v="water" />
		<tag k="ssr:stedsnr" v="311878" />
	</node>
	<node lat="60.83541944867468" lon="11.537100002151204" id="-19670">
		<tag k="name" v="Damtjennsbekken" />
		<tag k="ssr:stedsnr" v="312179" />
		<tag k="waterway" v="stream" />
	</node>
	<node lat="60.954177780936135" lon="11.395199998300022" id="-19674">
		<tag k="name" v="Nordbekken" />
		<tag k="ssr:stedsnr" v="312612" />
		<tag k="waterway" v="stream" />
	</node>
	<node lat="60.99003467770818" lon="11.449699886945051" id="-19675">
		<tag k="fixme" v="multiple name tags, choose one and add the other to alt_name" />
		<tag k="name" v="Ytterøya;Øksetøya" />
		<tag k="place" v="island" />
		<tag k="ssr:stedsnr" v="312566" />
	</node>
	<node lat="60.98443888499864" lon="11.983591660570848" id="-19690">
		<tag k="name" v="Mattisevjua" />
		<tag k="place" v="locality" />
		<tag k="ssr:stedsnr" v="467971" />
	</node>
	<node lat="60.92482222183427" lon="11.553291659221607" id="-19693">
		<tag k="name" v="Vollmyrbekken" />
		<tag k="ssr:stedsnr" v="344112" />
		<tag k="waterway" v="stream" />
	</node>
	<node lat="60.99468055522955" lon="11.436163880142734" id="-19699">
		<tag k="name" v="Granholmen" />
		<tag k="place" v="islet" />
		<tag k="ssr:stedsnr" v="345817" />
	</node>
	<node lat="60.89577777658363" lon="11.488536105158884" id="-19700">
		<tag k="name" v="Kaldkjellbekken" />
		<tag k="ssr:stedsnr" v="345573" />
		<tag k="waterway" v="stream" />
	</node>
	<node lat="60.95566388864937" lon="11.50160555848233" id="-19702">
		<tag k="name" v="Strandøya" />
		<tag k="place" v="island" />
		<tag k="ssr:stedsnr" v="358651" />
	</node>
	<node lat="60.973816666116925" lon="12.019002774643477" id="-19706">
		<tag k="name" v="Fiskebekkroken" />
		<tag k="place" v="locality" />
		<tag k="ssr:stedsnr" v="358956" />
	</node>
	<node lat="60.86675277376878" lon="11.94490278168009" id="-19712">
		<tag k="name" v="Mortkrakkentampen" />
		<tag k="place" v="islet" />
		<tag k="ssr:stedsnr" v="360059" />
	</node>
	<node lat="60.914758329858394" lon="11.554213885927325" id="-19729">
		<tag k="alt_name" v="Søvoll-Loka" />
		<tag k="name" v="Loka" />
		<tag k="natural" v="water" />
		<tag k="ssr:stedsnr" v="373157" />
	</node>
	<node lat="60.92234999854656" lon="11.824502785346647" id="-19730">
		<tag k="alt_name" v="Østre Lisjøen" />
		<tag k="name" v="Lisjøen" />
		<tag k="natural" v="water" />
		<tag k="ssr:stedsnr" v="373163" />
	</node>
	<node lat="60.765713892230224" lon="11.795174991895012" id="-19733">
		<tag k="name" v="Mellomtjennet" />
		<tag k="natural" v="water" />
		<tag k="ssr:stedsnr" v="373316" />
	</node>
	<node lat="60.79302499726162" lon="11.615491672706835" id="-19735">
		<tag k="name" v="Stokkbekken" />
		<tag k="ssr:stedsnr" v="373350" />
		<tag k="waterway" v="stream" />
	</node>
	<node lat="60.966577780115244" lon="11.943705560665197" id="-19745">
		<tag k="name" v="Grastjennet" />
		<tag k="natural" v="water" />
		<tag k="ssr:stedsnr" v="373400" />
	</node>
	<node lat="60.865695417804936" lon="11.860747936415574" id="-19747">
		<tag k="name" v="Agsjøen" />
		<tag k="natural" v="water" />
		<tag k="ssr:stedsnr" v="373596" />
		<tag k="water" v="lake" />
	</node>
	<node lat="60.95406667058955" lon="11.451122217388942" id="-19750">
		<tag k="name" v="Djupbekken" />
		<tag k="ssr:stedsnr" v="373609" />
		<tag k="waterway" v="stream" />
	</node>
	<node lat="60.985811114178645" lon="11.49269167092693" id="-19751">
		<tag k="name" v="Letjenna" />
		<tag k="ssr:stedsnr" v="373995" />
		<tag k="waterway" v="river" />
	</node>
	<node lat="60.837747218637716" lon="11.606638893180934" id="-19759">
		<tag k="name" v="Haugsøya" />
		<tag k="place" v="island" />
		<tag k="ssr:stedsnr" v="480993" />
	</node>
	<node lat="61.06079444653123" lon="11.840055552922891" id="-19771">
		<tag k="name" v="Kvisselhølen" />
		<tag k="place" v="locality" />
		<tag k="ssr:stedsnr" v="482085" />
	</node>
	<node lat="60.975333329200915" lon="12.012961106813757" id="-19796">
		<tag k="name" v="Gælenevjua" />
		<tag k="place" v="locality" />
		<tag k="ssr:stedsnr" v="419950" />
	</node>
	<node lat="60.96879999874927" lon="11.70261944112035" id="-19807">
		<tag k="name" v="Skogbekken" />
		<tag k="ssr:stedsnr" v="423494" />
		<tag k="waterway" v="stream" />
	</node>
	<node lat="60.997205559635795" lon="11.551522217858773" id="-19808">
		<tag k="name" v="Haldammen" />
		<tag k="ssr:stedsnr" v="423616" />
		<tag k="waterway" v="dam" />
	</node>
	<node lat="60.94724722645493" lon="11.823966672788597" id="-19813">
		<tag k="name" v="Øvre Kynndammen" />
		<tag k="ssr:stedsnr" v="423848" />
		<tag k="waterway" v="dam" />
	</node>
	<node lat="60.86434721889567" lon="11.885344449932179" id="-19816">
		<tag k="name" v="Morttjennsbekken" />
		<tag k="ssr:stedsnr" v="423994" />
		<tag k="waterway" v="stream" />
	</node>
	<node lat="60.98382622694185" lon="11.798743050173838" id="-19823">
		<tag k="name" v="Brennbekken" />
		<tag k="ssr:stedsnr" v="434040" />
		<tag k="waterway" v="stream" />
	</node>
	<node lat="60.8721333372333" lon="11.530930551450709" id="-19827">
		<tag k="name" v="Terninga" />
		<tag k="ssr:stedsnr" v="434222" />
		<tag k="waterway" v="river" />
	</node>
	<node lat="61.03100277942888" lon="11.493475007653545" id="-19843">
		<tag k="name" v="Hølbekken" />
		<tag k="ssr:stedsnr" v="493157" />
		<tag k="waterway" v="stream" />
	</node>
	<node lat="60.81206111396014" lon="11.57295000855165" id="-19847">
		<tag k="name" v="Bergebekken" />
		<tag k="ssr:stedsnr" v="494287" />
		<tag k="waterway" v="stream" />
	</node>
	<node lat="60.811241665244324" lon="11.962761115602406" id="-19859">
		<tag k="name" v="Kumyrbekken" />
		<tag k="ssr:stedsnr" v="494504" />
		<tag k="waterway" v="stream" />
	</node>
	<node lat="60.85656389009379" lon="11.532958338497801" id="-19888">
		<tag k="name" v="Bjørntjennet" />
		<tag k="natural" v="water" />
		<tag k="ssr:stedsnr" v="676221" />
	</node>
	<node lat="60.90224444102469" lon="11.700427784307294" id="-19890">
		<tag k="name" v="Dagrostjennet" />
		<tag k="natural" v="water" />
		<tag k="ssr:stedsnr" v="676162" />
	</node>
	<node lat="60.824841668306156" lon="11.675883330195372" id="-19906">
		<tag k="name" v="Sikttjennet" />
		<tag k="natural" v="water" />
		<tag k="ssr:stedsnr" v="677279" />
	</node>
	<node lat="61.01973611491286" lon="11.376102781500474" id="-19933">
		<tag k="name" v="Ertengbekken" />
		<tag k="ssr:stedsnr" v="483268" />
		<tag k="waterway" v="stream" />
	</node>
	<node lat="60.81845832946544" lon="11.636541667230983" id="-19939">
		<tag k="name" v="Kvernbekken" />
		<tag k="ssr:stedsnr" v="484904" />
		<tag k="waterway" v="stream" />
	</node>
	<node lat="61.03410277775882" lon="11.58402778300265" id="-19943">
		<tag k="name" v="Bjørnbekken" />
		<tag k="ssr:stedsnr" v="493210" />
		<tag k="waterway" v="stream" />
	</node>
	<node lat="61.06080278203637" lon="12.114308332966955" id="-19945">
		<tag k="name" v="Stortjennet" />
		<tag k="natural" v="water" />
		<tag k="ssr:stedsnr" v="493934" />
	</node>
	<node lat="61.066788516922614" lon="12.153136718018951" id="-19946">
		<tag k="name" v="Høljesjøen" />
		<tag k="natural" v="water" />
		<tag k="ssr:stedsnr" v="493942" />
		<tag k="water" v="lake" />
	</node>
	<node lat="60.99171667030031" lon="11.921149999309549" id="-19957">
		<tag k="name" v="Knappbekken" />
		<tag k="ssr:stedsnr" v="494406" />
		<tag k="waterway" v="stream" />
	</node>
	<node lat="60.92637500188174" lon="11.88174999492892" id="-19962">
		<tag k="name" v="Storbekken" />
		<tag k="ssr:stedsnr" v="494605" />
		<tag k="waterway" v="stream" />
	</node>
	<node lat="60.87000833111406" lon="11.55296389070648" id="-19969">
		<tag k="name" v="Prestøya" />
		<tag k="old_name" v="Prestholmen" />
		<tag k="place" v="islet" />
		<tag k="ssr:stedsnr" v="495257" />
	</node>
	<node lat="61.08544999758834" lon="12.104394452741078" id="-19974">
		<tag k="name" v="Storsvebekken" />
		<tag k="ssr:stedsnr" v="525723" />
		<tag k="waterway" v="stream" />
	</node>
	<node lat="60.941208337091005" lon="12.085913895251638" id="-19981">
		<tag k="name" v="Gjeddsjøholmen" />
		<tag k="place" v="islet" />
		<tag k="ssr:stedsnr" v="527619" />
	</node>
	<node lat="60.87485833523254" lon="11.937977782758106" id="-19991">
		<tag k="name" v="Ormsundet" />
		<tag k="natural" v="strait" />
		<tag k="ssr:stedsnr" v="542075" />
	</node>
	<node lat="60.832369444310906" lon="11.55944166980807" id="-19997">
		<tag k="name" v="Kvernbekken" />
		<tag k="ssr:stedsnr" v="543975" />
		<tag k="waterway" v="stream" />
	</node>
	<node lat="61.1063250045679" lon="11.669236103508128" id="-20012">
		<tag k="name" v="Bjørbekken" />
		<tag k="ssr:stedsnr" v="554193" />
		<tag k="waterway" v="stream" />
	</node>
	<node lat="60.78328611103942" lon="11.549452786449597" id="-20013">
		<tag k="name" v="Dauvatnet" />
		<tag k="natural" v="water" />
		<tag k="ssr:stedsnr" v="554387" />
	</node>
	<node lat="60.867430559154855" lon="11.941880563517039" id="-20035">
		<tag k="name" v="Baksjøen" />
		<tag k="natural" v="water" />
		<tag k="ssr:stedsnr" v="555518" />
	</node>
	<node lat="61.16924999882179" lon="11.79590278424838" id="-20039">
		<tag k="name" v="Fuglbergtjennet" />
		<tag k="natural" v="water" />
		<tag k="ssr:stedsnr" v="566379" />
	</node>
	<node lat="60.96345555247798" lon="11.498249995765029" id="-20055">
		<tag k="name" v="Kvernbakkøya" />
		<tag k="place" v="island" />
		<tag k="ssr:stedsnr" v="601656" />
	</node>
	<node lat="60.881386114819044" lon="11.960341660249597" id="-20065">
		<tag k="name" v="Hansmyrbekken" />
		<tag k="ssr:stedsnr" v="603057" />
		<tag k="waterway" v="stream" />
	</node>
	<node lat="60.969011112944315" lon="11.803022223478624" id="-20067">
		<tag k="name" v="Ørtjernet" />
		<tag k="natural" v="water" />
		<tag k="ssr:stedsnr" v="603155" />
	</node>
	<node lat="60.91929722345948" lon="11.682386118558318" id="-20069">
		<tag k="name" v="Harptjernet" />
		<tag k="natural" v="water" />
		<tag k="ssr:stedsnr" v="604154" />
	</node>
	<node lat="60.96002500263529" lon="11.679199994535333" id="-20081">
		<tag k="name" v="Bjørnbekken" />
		<tag k="ssr:stedsnr" v="615007" />
		<tag k="waterway" v="stream" />
	</node>
	<node lat="60.866777777264765" lon="11.515874997885508" id="-20099">
		<tag k="name" v="Hansbekken" />
		<tag k="ssr:stedsnr" v="616206" />
		<tag k="waterway" v="stream" />
	</node>
	<node lat="60.97432500324425" lon="11.445224997459865" id="-20105">
		<tag k="name" v="Gjeslemobekken" />
		<tag k="ssr:stedsnr" v="616527" />
		<tag k="waterway" v="stream" />
	</node>
	<node lat="60.996936108677055" lon="11.752313890823872" id="-20107">
		<tag k="name" v="Gubberudtjennet" />
		<tag k="natural" v="water" />
		<tag k="ssr:stedsnr" v="616999" />
	</node>
	<node lat="60.884741668677854" lon="11.642747226185694" id="-20112">
		<tag k="name" v="Holmtjennet" />
		<tag k="natural" v="water" />
		<tag k="ssr:stedsnr" v="647129" />
	</node>
	<node lat="60.89836944674022" lon="11.576519451366055" id="-20127">
		<tag k="name" v="Vesletjennet" />
		<tag k="natural" v="water" />
		<tag k="ssr:stedsnr" v="661096" />
	</node>
	<node lat="61.041347223179" lon="11.672286115609191" id="-20139">
		<tag k="name" v="Julussætertjernet" />
		<tag k="ssr:stedsnr" v="709321" />
		<tag k="waterway" v="stream" />
	</node>
	<node lat="60.779405559082555" lon="11.537905557049896" id="-20143">
		<tag k="name" v="Gulltjennet" />
		<tag k="natural" v="water" />
		<tag k="ssr:stedsnr" v="709403" />
	</node>
	<node lat="61.03052500100402" lon="11.803172220212982" id="-20144">
		<tag k="name" v="Ankjølbekken" />
		<tag k="ssr:stedsnr" v="664015" />
		<tag k="waterway" v="stream" />
	</node>
	<node lat="61.005363888601785" lon="11.739075004294262" id="-20147">
		<tag k="name" v="Krakalandbekken" />
		<tag k="ssr:stedsnr" v="664383" />
		<tag k="waterway" v="stream" />
	</node>
	<node lat="60.91145556007455" lon="11.696988880821845" id="-20150">
		<tag k="name" v="Kvernbekken" />
		<tag k="ssr:stedsnr" v="665135" />
		<tag k="waterway" v="stream" />
	</node>
	<node lat="61.024213890354744" lon="12.05074166245883" id="-20155">
		<tag k="name" v="Bergetjernsbekken" />
		<tag k="ssr:stedsnr" v="890577" />
		<tag k="waterway" v="stream" />
	</node>
	<node lat="60.97151666697285" lon="11.491652785257727" id="-20156">
		<tag k="name" v="Sætersmoøya" />
		<tag k="place" v="island" />
		<tag k="ssr:stedsnr" v="890785" />
	</node>
	<node lat="61.005411113266696" lon="11.487258336257074" id="-20158">
		<tag k="name" v="Vollsvebekken" />
		<tag k="ssr:stedsnr" v="890795" />
		<tag k="waterway" v="stream" />
	</node>
	<node lat="61.15350000269618" lon="11.781230564070475" id="-20164">
		<tag k="name" v="Prestbekken" />
		<tag k="ssr:stedsnr" v="675162" />
		<tag k="waterway" v="stream" />
	</node>
	<node lat="60.89901466601438" lon="11.548325408404269" id="-20181">
		<tag k="fixme" v="multiple name tags, choose one and add the other to alt_name" />
		<tag k="name" v="Prestøya;Mariholmen" />
		<tag k="place" v="islet" />
		<tag k="ssr:stedsnr" v="676148" />
	</node>
	<node lat="60.81394738502779" lon="11.877806517810773" id="-20187">
		<tag k="name" v="Brandtjenna" />
		<tag k="natural" v="water" />
		<tag k="ssr:stedsnr" v="676539" />
		<tag k="water" v="lake" />
	</node>
	<node lat="61.03811666339619" lon="11.691083324781186" id="-20192">
		<tag k="name" v="Brattveltdammen" />
		<tag k="ssr:stedsnr" v="891350" />
		<tag k="waterway" v="dam" />
	</node>
	<node lat="60.88808611379479" lon="11.61910278487678" id="-20194">
		<tag k="name" v="Damtjennet" />
		<tag k="natural" v="water" />
		<tag k="ssr:stedsnr" v="677138" />
	</node>
	<node lat="60.88010000323519" lon="11.953811110807472" id="-20195">
		<tag k="name" v="Svenkebekken" />
		<tag k="ssr:stedsnr" v="677441" />
		<tag k="waterway" v="stream" />
	</node>
	<node lat="60.98613888804189" lon="12.102402783120608" id="-20196">
		<tag k="alt_name" v="Flisa" />
		<tag k="name" v="Vesleflisa" />
		<tag k="ssr:stedsnr" v="677355" />
		<tag k="waterway" v="river" />
	</node>
	<node lat="60.9625583307114" lon="11.913538896728847" id="-20197">
		<tag k="name" v="Rensjøen" />
		<tag k="natural" v="water" />
		<tag k="ssr:stedsnr" v="677379" />
	</node>
	<node lat="60.99389722299262" lon="11.439638896601203" id="-20200">
		<tag k="name" v="Fossholmen" />
		<tag k="place" v="islet" />
		<tag k="ssr:stedsnr" v="892812" />
	</node>
	<node lat="60.90550277962801" lon="11.549549999980771" id="-20205">
		<tag k="name" v="Gullrisvegen" />
		<tag k="natural" v="water" />
		<tag k="ssr:stedsnr" v="707814" />
	</node>
	<node lat="61.020525002379934" lon="11.401697215786005" id="-20208">
		<tag k="name" v="Viuholmen" />
		<tag k="place" v="islet" />
		<tag k="ssr:stedsnr" v="708215" />
	</node>
	<node lat="60.889597221694075" lon="11.585916674471159" id="-20213">
		<tag k="name" v="Løktingdammen" />
		<tag k="natural" v="water" />
		<tag k="ssr:stedsnr" v="722032" />
	</node>
	<node lat="60.903238886359645" lon="11.570402780518036" id="-20214">
		<tag k="name" v="Stavåsbekken" />
		<tag k="ssr:stedsnr" v="722119" />
		<tag k="waterway" v="stream" />
	</node>
	<node lat="61.01529999731852" lon="11.31436389152696" id="-20226">
		<tag k="name" v="Stortjennet" />
		<tag k="natural" v="water" />
		<tag k="ssr:stedsnr" v="725531" />
	</node>
	<node lat="60.864711111779854" lon="11.872338896339473" id="-20252">
		<tag k="name" v="Kvernbekken" />
		<tag k="ssr:stedsnr" v="737576" />
		<tag k="waterway" v="stream" />
	</node>
	<node lat="61.11987777598945" lon="11.677147229899756" id="-20262">
		<tag k="name" v="Paradisdammen" />
		<tag k="ssr:stedsnr" v="905669" />
		<tag k="waterway" v="dam" />
	</node>
	<node lat="60.94542222426258" lon="11.510763894027384" id="-20289">
		<tag k="name" v="Smedøya" />
		<tag k="place" v="islet" />
		<tag k="ssr:stedsnr" v="907590" />
	</node>
	<node lat="60.97953888569138" lon="12.008366669222253" id="-20292">
		<tag k="name" v="Rokstadhølkroken" />
		<tag k="place" v="locality" />
		<tag k="ssr:stedsnr" v="770959" />
	</node>
	<node lat="60.92203889048689" lon="11.8159777792675" id="-20294">
		<tag k="name" v="Nesodden" />
		<tag k="natural" v="cape" />
		<tag k="ssr:stedsnr" v="907781" />
	</node>
	<node lat="60.892663888030164" lon="11.883297220568837" id="-20295">
		<tag k="name" v="Gardtjennsbekken" />
		<tag k="ssr:stedsnr" v="907789" />
		<tag k="waterway" v="stream" />
	</node>
	<node lat="60.934555551628605" lon="11.829597227217484" id="-20305">
		<tag k="name" v="Oksbakktjernet" />
		<tag k="natural" v="water" />
		<tag k="ssr:stedsnr" v="908873" />
	</node>
	<node lat="60.96241667059444" lon="11.428925009309562" id="-20322">
		<tag k="name" v="Storbekken" />
		<tag k="ssr:stedsnr" v="785757" />
		<tag k="waterway" v="stream" />
	</node>
	<node lat="60.94178611447639" lon="11.512833328186385" id="-20323">
		<tag k="name" v="Skjærholmen" />
		<tag k="place" v="islet" />
		<tag k="ssr:stedsnr" v="785618" />
	</node>
	<node lat="61.1196361102295" lon="11.685000006321816" id="-20333">
		<tag k="name" v="Røta" />
		<tag k="ssr:stedsnr" v="796129" />
		<tag k="waterway" v="stream" />
	</node>
	<node lat="60.97927499725398" lon="11.700763896913385" id="-20347">
		<tag k="name" v="Røa" />
		<tag k="ssr:stedsnr" v="798057" />
		<tag k="waterway" v="stream" />
	</node>
	<node lat="60.83233889093091" lon="11.49539722746841" id="-20351">
		<tag k="name" v="Rådelstjenna" />
		<tag k="natural" v="water" />
		<tag k="ssr:stedsnr" v="798252" />
		<tag k="water" v="lake" />
	</node>
	<node lat="60.882578788117236" lon="11.64565693275752" id="-20360">
		<tag k="name" v="Holmtjenna" />
		<tag k="natural" v="water" />
		<tag k="ssr:stedsnr" v="798123" />
		<tag k="water" v="lake" />
	</node>
	<node lat="60.801166664438995" lon="11.543061104709466" id="-20366">
		<tag k="name" v="Hansbekken" />
		<tag k="ssr:stedsnr" v="798308" />
		<tag k="waterway" v="stream" />
	</node>
	<node lat="60.93310000313774" lon="11.899177777237433" id="-20372">
		<tag k="name" v="Enmyrbekken" />
		<tag k="ssr:stedsnr" v="798447" />
		<tag k="waterway" v="stream" />
	</node>
	<node lat="60.87044444489836" lon="11.941866668015091" id="-20377">
		<tag k="name" v="Mortkrakken" />
		<tag k="natural" v="cape" />
		<tag k="ssr:stedsnr" v="798556" />
	</node>
	<node lat="61.06452778059054" lon="11.594349994081464" id="-20380">
		<tag k="name" v="Ballruptjennet" />
		<tag k="natural" v="water" />
		<tag k="ssr:stedsnr" v="917172" />
	</node>
	<node lat="60.97658611365751" lon="12.19795833846031" id="-20394">
		<tag k="name" v="Halåa" />
		<tag k="ssr:stedsnr" v="920361" />
		<tag k="waterway" v="river" />
	</node>
	<node lat="61.011866668090825" lon="11.941738894630108" id="-20395">
		<tag k="name" v="Gråbergstjennet" />
		<tag k="natural" v="water" />
		<tag k="ssr:stedsnr" v="918877" />
	</node>
	<node lat="60.89532777598874" lon="11.570622224562754" id="-20400">
		<tag k="name" v="Sagtjennet" />
		<tag k="natural" v="water" />
		<tag k="ssr:stedsnr" v="919140" />
	</node>
	<node lat="60.84063288760933" lon="11.529251109557412" id="-20402">
		<tag k="name" v="Damtjenna" />
		<tag k="natural" v="water" />
		<tag k="ssr:stedsnr" v="919184" />
		<tag k="water" v="lake" />
	</node>
	<node lat="60.95463333411363" lon="11.411727770025669" id="-20414">
		<tag k="alt_name" v="Storbekk-klyftet" />
		<tag k="name" v="Storbekklyftet" />
		<tag k="place" v="locality" />
		<tag k="ssr:stedsnr" v="919564" />
	</node>
	<node lat="60.814647226369004" lon="11.772294448228536" id="-20424">
		<tag k="name" v="Bleketjennet" />
		<tag k="natural" v="water" />
		<tag k="ssr:stedsnr" v="920259" />
	</node>
	<node lat="60.855438890719206" lon="11.967649996867358" id="-20428">
		<tag k="name" v="Damtjenna" />
		<tag k="natural" v="water" />
		<tag k="ssr:stedsnr" v="920548" />
	</node>
	<node lat="60.92333889106187" lon="12.132961119957391" id="-20450">
		<tag k="name" v="Flisoset" />
		<tag k="natural" v="bay" />
		<tag k="ssr:stedsnr" v="846326" />
	</node>
	<node lat="60.944263887795685" lon="11.490661118378613" id="-20452">
		<tag k="name" v="Rustadbekken" />
		<tag k="ssr:stedsnr" v="846622" />
		<tag k="waterway" v="stream" />
	</node>
	<node lat="61.093563886330244" lon="11.81811389010513" id="-20455">
		<tag k="alt_name" v="Karlbrennbekken" />
		<tag k="name" v="Kalvbrennbekken" />
		<tag k="ssr:stedsnr" v="847116" />
		<tag k="waterway" v="stream" />
	</node>
	<node lat="60.88772500045928" lon="11.779919445528689" id="-20457">
		<tag k="name" v="Nøtåsdammen" />
		<tag k="ssr:stedsnr" v="847811" />
		<tag k="waterway" v="dam" />
	</node>
	<node lat="61.039522221117686" lon="11.98252778138268" id="-20475">
		<tag k="alt_name" v="Jusbekken;Jyssbekken" />
		<tag k="name" v="Gysbekken" />
		<tag k="ssr:stedsnr" v="857879" />
		<tag k="waterway" v="stream" />
	</node>
	<node lat="61.04778888918994" lon="11.870741667994494" id="-20477">
		<tag k="name" v="Ørbekken" />
		<tag k="ssr:stedsnr" v="857886" />
		<tag k="waterway" v="stream" />
	</node>
	<node lat="61.078949996581194" lon="11.577225000028957" id="-20480">
		<tag k="name" v="Ryssjøen" />
		<tag k="natural" v="water" />
		<tag k="ssr:stedsnr" v="858178" />
		<tag k="water" v="lake" />
	</node>
	<node lat="60.94502500340187" lon="11.579352784540056" id="-20493">
		<tag k="name" v="Hundbekken" />
		<tag k="ssr:stedsnr" v="859088" />
		<tag k="waterway" v="stream" />
	</node>
	<node lat="60.98289999921489" lon="11.412924999727824" id="-20499">
		<tag k="name" v="Rådelsbekken" />
		<tag k="ssr:stedsnr" v="859503" />
		<tag k="waterway" v="stream" />
	</node>
	<node lat="61.01087500169565" lon="11.369977780228542" id="-20503">
		<tag k="name" v="Styggedalsbekken" />
		<tag k="ssr:stedsnr" v="931168" />
		<tag k="waterway" v="stream" />
	</node>
	<node lat="60.966452773847585" lon="11.6087333327284" id="-20513">
		<tag k="name" v="Vestre Gåsbekken" />
		<tag k="ssr:stedsnr" v="905721" />
		<tag k="waterway" v="stream" />
	</node>
	<node lat="60.79970555900436" lon="11.65639444057318" id="-20526">
		<tag k="name" v="Sybekken" />
		<tag k="ssr:stedsnr" v="909922" />
		<tag k="waterway" v="stream" />
	</node>
	<node lat="61.010505553822654" lon="11.436819437691899" id="-20531">
		<tag k="name" v="Granbekken" />
		<tag k="ssr:stedsnr" v="918325" />
		<tag k="waterway" v="stream" />
	</node>
	<node lat="61.04133333695058" lon="11.504599998636584" id="-20532">
		<tag k="name" v="Svartbekken" />
		<tag k="ssr:stedsnr" v="918216" />
		<tag k="waterway" v="stream" />
	</node>
	<node lat="60.85539167085605" lon="11.70213610815106" id="-20542">
		<tag k="name" v="Jømna" />
		<tag k="ssr:stedsnr" v="919203" />
		<tag k="waterway" v="river" />
	</node>
	<node lat="60.762155554787746" lon="11.785719446980881" id="-20548">
		<tag k="name" v="Langtjennet" />
		<tag k="natural" v="water" />
		<tag k="ssr:stedsnr" v="919419" />
	</node>
	<node lat="60.75920832909394" lon="11.674119444873915" id="-20549">
		<tag k="name" v="Fisketjennet" />
		<tag k="natural" v="water" />
		<tag k="ssr:stedsnr" v="919423" />
	</node>
	<node lat="60.910169443588984" lon="11.692705559895293" id="-20552">
		<tag k="name" v="Bjørkristjennet" />
		<tag k="natural" v="water" />
		<tag k="ssr:stedsnr" v="919154" />
	</node>
	<node lat="60.91483333213304" lon="11.684519442748263" id="-20553">
		<tag k="name" v="Rogstadtjennet" />
		<tag k="natural" v="water" />
		<tag k="ssr:stedsnr" v="919156" />
	</node>
	<node lat="60.78310833082014" lon="11.611558325688144" id="-20556">
		<tag k="name" v="Stenbekken" />
		<tag k="ssr:stedsnr" v="919304" />
		<tag k="waterway" v="stream" />
	</node>
	<node lat="60.96532222071998" lon="11.442675004667583" id="-20559">
		<tag k="name" v="Øksna" />
		<tag k="ssr:stedsnr" v="919559" />
		<tag k="waterway" v="river" />
	</node>
	<node lat="60.860736111826334" lon="11.484627774395937" id="-20566">
		<tag k="name" v="Klotjennet" />
		<tag k="natural" v="water" />
		<tag k="ssr:stedsnr" v="920216" />
	</node>
	<node lat="60.87322500306966" lon="11.941455552935869" id="-20571">
		<tag k="name" v="Svenkebekksjøen" />
		<tag k="natural" v="water" />
		<tag k="ssr:stedsnr" v="920594" />
	</node>
	<node lat="60.992311115306904" lon="11.76295555305576" id="-20573">
		<tag k="name" v="Jentetjenna" />
		<tag k="natural" v="water" />
		<tag k="ssr:stedsnr" v="920995" />
		<tag k="water" v="lake" />
	</node>
	<node lat="60.91503889193381" lon="11.528336116892888" id="-20593">
		<tag k="name" v="Strandfossen" />
		<tag k="natural" v="waterfall" />
		<tag k="ssr:stedsnr" v="965624" />
	</node>
	<node lat="60.829838887464106" lon="11.613572230191702" id="-20606">
		<tag k="name" v="Tyvholmen" />
		<tag k="place" v="islet" />
		<tag k="ssr:stedsnr" v="966998" />
	</node>
	<node lat="61.087469442670944" lon="11.81037778103177" id="-20611">
		<tag k="name" v="Nysæterdammen" />
		<tag k="ssr:stedsnr" v="968107" />
		<tag k="waterway" v="dam" />
	</node>
	<node lat="60.77316944568922" lon="11.696199998950897" id="-20619">
		<tag k="name" v="Lindtjennsbekken" />
		<tag k="natural" v="water" />
		<tag k="ssr:stedsnr" v="969306" />
	</node>
	<node lat="60.8002000019156" lon="11.728174998510664" id="-20631">
		<tag k="name" v="Holtomsbekken" />
		<tag k="ssr:stedsnr" v="10354" />
		<tag k="waterway" v="stream" />
	</node>
	<node lat="61.077597221346146" lon="11.619677774094178" id="-20641">
		<tag k="name" v="Abbortjennet" />
		<tag k="natural" v="water" />
		<tag k="ssr:stedsnr" v="8186" />
	</node>
	<node lat="61.025724999477916" lon="11.510274995455388" id="-20642">
		<tag k="name" v="Askvollbekken" />
		<tag k="ssr:stedsnr" v="8275" />
		<tag k="waterway" v="stream" />
	</node>
	<node lat="60.95623333019574" lon="11.564877774586556" id="-20651">
		<tag k="name" v="Koltjennet" />
		<tag k="natural" v="water" />
		<tag k="ssr:stedsnr" v="9082" />
	</node>
	<node lat="60.92170555518111" lon="11.788794450892802" id="-20652">
		<tag k="name" v="Kverntjennet" />
		<tag k="natural" v="water" />
		<tag k="ssr:stedsnr" v="9149" />
	</node>
	<node lat="60.83285110686619" lon="11.581407242993867" id="-20653">
		<tag k="name" v="Lintjenna" />
		<tag k="natural" v="water" />
		<tag k="ssr:stedsnr" v="9165" />
		<tag k="water" v="lake" />
	</node>
	<node lat="60.89864166937036" lon="11.690497214958327" id="-20661">
		<tag k="name" v="Hanakamtjennet" />
		<tag k="natural" v="water" />
		<tag k="ssr:stedsnr" v="9123" />
	</node>
	<node lat="60.82245833504261" lon="11.561933334060932" id="-20667">
		<tag k="name" v="Skjærsjøen" />
		<tag k="natural" v="water" />
		<tag k="ssr:stedsnr" v="9275" />
	</node>
	<node lat="60.781975000029625" lon="11.56631110279643" id="-20668">
		<tag k="name" v="Bumyrtjenna" />
		<tag k="natural" v="water" />
		<tag k="ssr:stedsnr" v="9277" />
		<tag k="water" v="lake" />
	</node>
	<node lat="60.984699998582" lon="12.043283336640796" id="-20672">
		<tag k="alt_name" v="Søndre Jyssbekken" />
		<tag k="name" v="Gysbekken" />
		<tag k="ssr:stedsnr" v="9376" />
		<tag k="waterway" v="stream" />
	</node>
	<node lat="60.99172539941725" lon="11.443024996756305" id="-20675">
		<tag k="fixme" v="multiple name tags, choose one and add the other to alt_name" />
		<tag k="name" v="Anstuholmen;Søndre Fossholmen" />
		<tag k="place" v="islet" />
		<tag k="ssr:stedsnr" v="9559" />
	</node>
	<node lat="60.930358332762765" lon="11.490177775640287" id="-20680">
		<tag k="name" v="Kutterbekken" />
		<tag k="ssr:stedsnr" v="10079" />
		<tag k="waterway" v="stream" />
	</node>
	<node lat="60.84440833344084" lon="11.946555546728552" id="-20681">
		<tag k="name" v="Hakaskallbekken" />
		<tag k="ssr:stedsnr" v="10575" />
		<tag k="waterway" v="stream" />
	</node>
	<node lat="61.03215555373276" lon="11.423358328896054" id="-20682">
		<tag k="alt_name" v="Sagbekken" />
		<tag k="name" v="Skjelmobekken" />
		<tag k="ssr:stedsnr" v="21178" />
		<tag k="waterway" v="stream" />
	</node>
	<node lat="61.052113891017015" lon="11.578616672543733" id="-20692">
		<tag k="name" v="Langtjernet" />
		<tag k="natural" v="water" />
		<tag k="ssr:stedsnr" v="41566" />
	</node>
	<node lat="61.068713887739506" lon="11.620816670654651" id="-20694">
		<tag k="name" v="Skjeftbekken" />
		<tag k="ssr:stedsnr" v="41948" />
		<tag k="waterway" v="stream" />
	</node>
	<node lat="60.872005553578056" lon="11.553077786321586" id="-20698">
		<tag k="name" v="Prestfossen" />
		<tag k="natural" v="waterfall" />
		<tag k="ssr:stedsnr" v="55023" />
	</node>
	<node lat="60.89734166768752" lon="11.551747215209067" id="-20700">
		<tag k="name" v="Notholmen" />
		<tag k="place" v="islet" />
		<tag k="ssr:stedsnr" v="55036" />
	</node>
	<node lat="61.11510833493975" lon="11.76413333483617" id="-20703">
		<tag k="name" v="Golandbekken" />
		<tag k="ssr:stedsnr" v="55648" />
		<tag k="waterway" v="stream" />
	</node>
	<node lat="60.9530666631455" lon="12.004080546959031" id="-20707">
		<tag k="name" v="Haladammen" />
		<tag k="ssr:stedsnr" v="55962" />
		<tag k="waterway" v="dam" />
	</node>
	<node lat="60.859441662898405" lon="11.595480548257717" id="-20713">
		<tag k="name" v="Stenbekken" />
		<tag k="ssr:stedsnr" v="57047" />
		<tag k="waterway" v="stream" />
	</node>
	<node lat="60.82725833447561" lon="11.501697216380157" id="-20715">
		<tag k="name" v="Svartkulp" />
		<tag k="ssr:stedsnr" v="57557" />
		<tag k="waterway" v="dam" />
	</node>
	<node lat="61.041461112927955" lon="11.83367499944199" id="-20721">
		<tag k="name" v="Ulvåbekken" />
		<tag k="ssr:stedsnr" v="59088" />
		<tag k="waterway" v="stream" />
	</node>
	<node lat="60.853447225418364" lon="11.818416672309294" id="-20723">
		<tag k="name" v="Storhovsætertjennet" />
		<tag k="natural" v="water" />
		<tag k="ssr:stedsnr" v="59996" />
	</node>
	<node lat="61.15675555124778" lon="11.460758330845463" id="-20724">
		<tag k="alt_name" v="Julusa" />
		<tag k="name" v="Julussa" />
		<tag k="ssr:stedsnr" v="67453" />
		<tag k="waterway" v="river" />
	</node>
	<node lat="60.74556110683158" lon="11.665552777145107" id="-20725">
		<tag k="name" v="Bronkåa" />
		<tag k="ssr:stedsnr" v="67474" />
		<tag k="waterway" v="river" />
	</node>
	<node lat="61.13490555343091" lon="11.663736110508088" id="-20726">
		<tag k="name" v="Paradisbekken" />
		<tag k="ssr:stedsnr" v="68130" />
		<tag k="waterway" v="stream" />
	</node>
	<node lat="61.12067500435351" lon="11.643930561084838" id="-20728">
		<tag k="name" v="Holma" />
		<tag k="ssr:stedsnr" v="68141" />
		<tag k="waterway" v="stream" />
	</node>
	<node lat="61.04347500203004" lon="11.705758334995009" id="-20731">
		<tag k="name" v="Glåmbekken" />
		<tag k="ssr:stedsnr" v="68189" />
		<tag k="waterway" v="stream" />
	</node>
	<node lat="61.02470000026306" lon="11.770449996642334" id="-20735">
		<tag k="name" v="Storbekken" />
		<tag k="ssr:stedsnr" v="68245" />
		<tag k="waterway" v="stream" />
	</node>
	<node lat="61.02654999933581" lon="11.650661113939096" id="-20736">
		<tag k="name" v="Aslakbekken" />
		<tag k="ssr:stedsnr" v="68250" />
		<tag k="waterway" v="stream" />
	</node>
	<node lat="60.98572499887255" lon="11.775705552934216" id="-20742">
		<tag k="loc_name" v="Julussjøen" />
		<tag k="name" v="Bergesjøen" />
		<tag k="natural" v="water" />
		<tag k="ssr:stedsnr" v="70044" />
		<tag k="water" v="lake" />
	</node>
	<node lat="60.88686110949368" lon="11.76468054719913" id="-20748">
		<tag k="name" v="Agåa" />
		<tag k="ssr:stedsnr" v="70118" />
		<tag k="waterway" v="river" />
	</node>
	<node lat="60.83352777599472" lon="11.74020832728191" id="-20755">
		<tag k="name" v="Kalvmyrdammen" />
		<tag k="natural" v="water" />
		<tag k="ssr:stedsnr" v="70260" />
	</node>
	<node lat="60.93332777802001" lon="11.769925007984043" id="-20764">
		<tag k="name" v="Hagabekken" />
		<tag k="ssr:stedsnr" v="70062" />
		<tag k="waterway" v="stream" />
	</node>
	<node lat="60.90838611143147" lon="11.655563880590819" id="-20767">
		<tag k="name" v="Granbekken" />
		<tag k="ssr:stedsnr" v="70139" />
		<tag k="waterway" v="stream" />
	</node>
	<node lat="60.9005000010209" lon="11.715675005309164" id="-20769">
		<tag k="alt_name" v="Vesle Jømna" />
		<tag k="name" v="Vesl-Jømna" />
		<tag k="ssr:stedsnr" v="70143" />
		<tag k="waterway" v="stream" />
	</node>
	<node lat="60.94611944470299" lon="11.940061106739238" id="-20778">
		<tag k="name" v="Rundtjennet" />
		<tag k="natural" v="water" />
		<tag k="ssr:stedsnr" v="70461" />
	</node>
	<node lat="60.954991664308224" lon="11.994730564553583" id="-20779">
		<tag k="name" v="Gjeddsjøen" />
		<tag k="natural" v="water" />
		<tag k="ssr:stedsnr" v="70465" />
	</node>
	<node lat="60.9548055573379" lon="12.066841664328297" id="-20790">
		<tag k="name" v="Klintevjen" />
		<tag k="natural" v="water" />
		<tag k="ssr:stedsnr" v="100545" />
		<tag k="water" v="lake" />
	</node>
	<node lat="60.960955558219496" lon="11.986369437566182" id="-20792">
		<tag k="name" v="Svarttjennsbekken" />
		<tag k="ssr:stedsnr" v="101734" />
		<tag k="waterway" v="stream" />
	</node>
	<node lat="60.9205194485945" lon="11.587841673238067" id="-20794">
		<tag k="name" v="Stavåsdammen" />
		<tag k="ssr:stedsnr" v="102124" />
		<tag k="waterway" v="dam" />
	</node>
	<node lat="60.89830555372071" lon="11.562550007072847" id="-20807">
		<tag k="name" v="Ragnvaldsbekken" />
		<tag k="ssr:stedsnr" v="116041" />
		<tag k="waterway" v="stream" />
	</node>
	<node lat="61.023580554947394" lon="11.75819166595936" id="-20808">
		<tag k="name" v="Bjørnbekken" />
		<tag k="ssr:stedsnr" v="116343" />
		<tag k="waterway" v="stream" />
	</node>
	<node lat="60.9281333342618" lon="11.52206666435163" id="-20813">
		<tag k="name" v="Pukholmen" />
		<tag k="place" v="islet" />
		<tag k="ssr:stedsnr" v="116632" />
	</node>
	<node lat="60.94324722268949" lon="11.747552779362954" id="-20826">
		<tag k="name" v="Skrømtloken" />
		<tag k="natural" v="water" />
		<tag k="ssr:stedsnr" v="118020" />
		<tag k="water" v="pond" />
	</node>
	<node lat="60.93025277751422" lon="11.527780562087088" id="-20829">
		<tag k="name" v="Skolehusbekken" />
		<tag k="ssr:stedsnr" v="118582" />
		<tag k="waterway" v="stream" />
	</node>
	<node lat="60.76580555924847" lon="11.66801388817728" id="-20842">
		<tag k="name" v="Tjennsbekken" />
		<tag k="natural" v="water" />
		<tag k="ssr:stedsnr" v="119315" />
	</node>
	<node lat="60.9263749978358" lon="11.8645333245257" id="-20844">
		<tag k="name" v="Jodammen" />
		<tag k="ssr:stedsnr" v="119860" />
		<tag k="waterway" v="dam" />
	</node>
	<node lat="60.84285833452457" lon="11.819322224891456" id="-20847">
		<tag k="name" v="Dolpa" />
		<tag k="natural" v="water" />
		<tag k="ssr:stedsnr" v="119995" />
	</node>
	<node lat="60.82481110928526" lon="11.758161113607123" id="-20855">
		<tag k="name" v="Morttjennet" />
		<tag k="natural" v="water" />
		<tag k="ssr:stedsnr" v="130269" />
	</node>
	<node lat="61.195733336238845" lon="11.593130555072333" id="-20860">
		<tag k="name" v="Vesle Ulvåa" />
		<tag k="ssr:stedsnr" v="128321" />
		<tag k="waterway" v="river" />
	</node>
	<node lat="61.03622777838682" lon="11.635799997788498" id="-20863">
		<tag k="name" v="Stokkbekken" />
		<tag k="ssr:stedsnr" v="128172" />
		<tag k="waterway" v="stream" />
	</node>
	<node lat="60.848111109007604" lon="11.509974991789589" id="-20874">
		<tag k="name" v="Gildretjennet" />
		<tag k="natural" v="water" />
		<tag k="ssr:stedsnr" v="130178" />
	</node>
	<node lat="60.869822221216026" lon="11.526252772164279" id="-20882">
		<tag k="name" v="Bjørntjennsbekken" />
		<tag k="ssr:stedsnr" v="131230" />
		<tag k="waterway" v="stream" />
	</node>
	<node lat="60.939405552910806" lon="11.961083341913007" id="-20885">
		<tag k="name" v="Gildertjennet" />
		<tag k="natural" v="water" />
		<tag k="ssr:stedsnr" v="130452" />
	</node>
	<node lat="60.887563892221564" lon="11.460105558362434" id="-20887">
		<tag k="name" v="Eldåa" />
		<tag k="ssr:stedsnr" v="130619" />
		<tag k="waterway" v="stream" />
	</node>
	<node lat="60.94763333641865" lon="11.405075009167323" id="-20888">
		<tag k="name" v="Storbekken" />
		<tag k="ssr:stedsnr" v="131548" />
		<tag k="waterway" v="stream" />
	</node>
	<node lat="60.94942777728011" lon="11.460127777280709" id="-20894">
		<tag k="alt_name" v="Øksna, Vesle" />
		<tag k="name" v="Vesle-Øksna" />
		<tag k="ssr:stedsnr" v="131563" />
		<tag k="waterway" v="stream" />
	</node>
	<node lat="61.01469999824968" lon="11.987147222179917" id="-20909">
		<tag k="name" v="Grasholtbekken" />
		<tag k="ssr:stedsnr" v="163592" />
		<tag k="waterway" v="stream" />
	</node>
	<node lat="60.967505551755536" lon="11.497647225123258" id="-20911">
		<tag k="name" v="Kråkhølet" />
		<tag k="natural" v="water" />
		<tag k="ssr:stedsnr" v="176633" />
		<tag k="water" v="pond" />
	</node>
	<node lat="61.03087500377244" lon="11.539044446477638" id="-20914">
		<tag k="name" v="Stranddammen" />
		<tag k="ssr:stedsnr" v="176899" />
		<tag k="waterway" v="dam" />
	</node>
	<node lat="60.923183329579956" lon="11.525794436204496" id="-20920">
		<tag k="name" v="Pølsøya" />
		<tag k="place" v="islet" />
		<tag k="ssr:stedsnr" v="177648" />
	</node>
	<node lat="61.143713888411426" lon="11.824919453209748" id="-20941">
		<tag k="name" v="Grasbekken" />
		<tag k="ssr:stedsnr" v="180085" />
		<tag k="waterway" v="stream" />
	</node>
	<node lat="60.96872777923052" lon="11.739177781755938" id="-20947">
		<tag k="name" v="Monsmyrbekken" />
		<tag k="ssr:stedsnr" v="181434" />
		<tag k="waterway" v="stream" />
	</node>
	<node lat="60.794761106607126" lon="11.585433339254497" id="-20954">
		<tag k="name" v="Norderåa" />
		<tag k="ssr:stedsnr" v="191328" />
		<tag k="waterway" v="river" />
	</node>
	<node lat="60.89282777393943" lon="11.59668888371801" id="-20972">
		<tag k="name" v="Sagåa" />
		<tag k="ssr:stedsnr" v="191109" />
		<tag k="waterway" v="stream" />
	</node>
	<node lat="60.81569722176058" lon="11.748749998310839" id="-20977">
		<tag k="name" v="Støpstjennet" />
		<tag k="natural" v="water" />
		<tag k="ssr:stedsnr" v="191229" />
	</node>
	<node lat="60.997683334172024" lon="11.983416661376886" id="-20983">
		<tag k="name" v="Brennbekken" />
		<tag k="ssr:stedsnr" v="191388" />
		<tag k="waterway" v="stream" />
	</node>
	<node lat="60.836894446227994" lon="11.886761104010953" id="-20985">
		<tag k="name" v="Rønåstjennet" />
		<tag k="natural" v="water" />
		<tag k="ssr:stedsnr" v="191580" />
	</node>
	<node lat="60.95073332976201" lon="11.881441658544158" id="-20986">
		<tag k="name" v="Gropbekken" />
		<tag k="ssr:stedsnr" v="191431" />
		<tag k="waterway" v="stream" />
	</node>
	<node lat="60.94596388785462" lon="12.02891111795694" id="-20988">
		<tag k="name" v="Gjeddsjøåa" />
		<tag k="ssr:stedsnr" v="191444" />
		<tag k="waterway" v="stream" />
	</node>
	<node lat="60.90742499557814" lon="11.69590833227486" id="-20993">
		<tag k="alt_name" v="Vesle-Horna" />
		<tag k="name" v="Horna" />
		<tag k="ssr:stedsnr" v="191992" />
		<tag k="waterway" v="stream" />
	</node>
	<node lat="60.8491500001277" lon="11.885063884583325" id="-20996">
		<tag k="name" v="Ørbekken" />
		<tag k="ssr:stedsnr" v="192591" />
		<tag k="waterway" v="stream" />
	</node>
	<node lat="60.87895833418515" lon="11.729527781997021" id="-21004">
		<tag k="name" v="Granlundsbekken" />
		<tag k="ssr:stedsnr" v="223951" />
		<tag k="waterway" v="stream" />
	</node>
	<node lat="61.01495555253543" lon="12.114713884520794" id="-21010">
		<tag k="fixme" v="multiple name tags, choose one and add the other to alt_name" />
		<tag k="name" v="Halådammen;Enbergsdammen" />
		<tag k="ssr:stedsnr" v="283498" />
		<tag k="waterway" v="dam" />
	</node>
	<node lat="60.99045832905172" lon="11.474722219670374" id="-21014">
		<tag k="name" v="Syringdalsbekken" />
		<tag k="ssr:stedsnr" v="283760" />
		<tag k="waterway" v="stream" />
	</node>
	<node lat="60.8824638900013" lon="11.714186114203843" id="-21021">
		<tag k="name" v="Bjørslettdammen" />
		<tag k="ssr:stedsnr" v="284947" />
		<tag k="waterway" v="dam" />
	</node>
	<node lat="60.92918333043078" lon="11.520561105391653" id="-21025">
		<tag k="name" v="Bånerudfossen" />
		<tag k="natural" v="waterfall" />
		<tag k="ssr:stedsnr" v="300622" />
	</node>
	<node lat="60.903644441401845" lon="11.897150008233913" id="-21044">
		<tag k="name" v="Storbergsæterdammen" />
		<tag k="ssr:stedsnr" v="300833" />
		<tag k="waterway" v="dam" />
	</node>
	<node lat="60.94033333095665" lon="11.830997226293558" id="-21054">
		<tag k="name" v="Nydammen" />
		<tag k="ssr:stedsnr" v="301846" />
		<tag k="waterway" v="dam" />
	</node>
	<node lat="61.12413889320403" lon="11.798091663593262" id="-21057">
		<tag k="name" v="Stortjernet" />
		<tag k="natural" v="water" />
		<tag k="ssr:stedsnr" v="302118" />
	</node>
	<node lat="61.13977222187709" lon="11.712649998074626" id="-21058">
		<tag k="name" v="Røtdammen" />
		<tag k="ssr:stedsnr" v="302547" />
		<tag k="waterway" v="dam" />
	</node>
	<node lat="61.047483335604056" lon="11.518480552892589" id="-21062">
		<tag k="name" v="Sætersmobekken" />
		<tag k="ssr:stedsnr" v="302813" />
		<tag k="waterway" v="stream" />
	</node>
	<node lat="61.06895000423053" lon="11.583161120688477" id="-21070">
		<tag k="name" v="Ryssbergtjennet" />
		<tag k="natural" v="water" />
		<tag k="ssr:stedsnr" v="311257" />
	</node>
	<node lat="60.89648333341872" lon="11.677166660477065" id="-21075">
		<tag k="name" v="Kjerringtjennet" />
		<tag k="natural" v="water" />
		<tag k="ssr:stedsnr" v="312130" />
	</node>
	<node lat="60.794863890876165" lon="11.550819438285023" id="-21084">
		<tag k="name" v="Rudstjennet" />
		<tag k="natural" v="water" />
		<tag k="ssr:stedsnr" v="312347" />
	</node>
	<node lat="60.755252578705324" lon="11.676600706687838" id="-21085">
		<tag k="name" v="Morttjenna" />
		<tag k="natural" v="water" />
		<tag k="ssr:stedsnr" v="312433" />
		<tag k="water" v="lake" />
	</node>
	<node lat="60.87300833148568" lon="11.49293055834891" id="-21095">
		<tag k="name" v="Grasbekken" />
		<tag k="ssr:stedsnr" v="313240" />
		<tag k="waterway" v="stream" />
	</node>
	<node lat="60.88580555358859" lon="11.635111107031122" id="-21102">
		<tag k="name" v="Stortjennet" />
		<tag k="natural" v="water" />
		<tag k="ssr:stedsnr" v="313158" />
	</node>
	<node lat="60.95967222292556" lon="12.070513896254639" id="-21104">
		<tag k="name" v="Neverløpbekken" />
		<tag k="ssr:stedsnr" v="313398" />
		<tag k="waterway" v="stream" />
	</node>
	<node lat="60.82324722207317" lon="11.838316660241109" id="-21106">
		<tag k="name" v="Klesbekken" />
		<tag k="ssr:stedsnr" v="313295" />
		<tag k="waterway" v="stream" />
	</node>
	<node lat="60.82092499578475" lon="11.767944446071175" id="-21108">
		<tag k="name" v="Galttjennet" />
		<tag k="natural" v="water" />
		<tag k="ssr:stedsnr" v="313299" />
	</node>
	<node lat="60.85211111501544" lon="11.873841663648534" id="-21110">
		<tag k="name" v="Bjørnkjelda" />
		<tag k="natural" v="water" />
		<tag k="ssr:stedsnr" v="313576" />
	</node>
	<node lat="60.87278333703645" lon="11.911783336763627" id="-21114">
		<tag k="alt_name" v="Hågåbekken" />
		<tag k="name" v="Høghaugbekken" />
		<tag k="ssr:stedsnr" v="313609" />
		<tag k="waterway" v="stream" />
	</node>
	<node lat="60.996713892474105" lon="11.73080834231017" id="-21115">
		<tag k="name" v="Isakbekken" />
		<tag k="ssr:stedsnr" v="313998" />
		<tag k="waterway" v="stream" />
	</node>
	<node lat="60.95755277578463" lon="11.936536108504955" id="-21124">
		<tag k="name" v="Kalvbekken" />
		<tag k="ssr:stedsnr" v="343387" />
		<tag k="waterway" v="stream" />
	</node>
	<node lat="60.966819443503724" lon="11.920086101962593" id="-21125">
		<tag k="name" v="Rentjernet" />
		<tag k="natural" v="water" />
		<tag k="ssr:stedsnr" v="343389" />
	</node>
	<node lat="61.0555444403613" lon="11.629422218675188" id="-21134">
		<tag k="name" v="Jensgangtjernet" />
		<tag k="natural" v="water" />
		<tag k="ssr:stedsnr" v="358561" />
	</node>
	<node lat="61.00127221860567" lon="11.41821667229601" id="-21135">
		<tag k="name" v="Indsetøya" />
		<tag k="place" v="islet" />
		<tag k="ssr:stedsnr" v="358568" />
	</node>
	<node lat="60.96333610970144" lon="11.634880563337768" id="-21138">
		<tag k="name" v="Østre Gåsbekken" />
		<tag k="ssr:stedsnr" v="358715" />
		<tag k="waterway" v="stream" />
	</node>
	<node lat="60.9543777808053" lon="11.442311102653317" id="-21154">
		<tag k="name" v="Djupbekklyftet" />
		<tag k="ssr:stedsnr" v="360745" />
		<tag k="waterway" v="stream" />
	</node>
	<node lat="60.91105555133722" lon="11.885238885626462" id="-21161">
		<tag k="name" v="Åkroken" />
		<tag k="place" v="locality" />
		<tag k="ssr:stedsnr" v="361840" />
	</node>
	<node lat="61.17918565164439" lon="11.78071731503393" id="-21164">
		<tag k="name" v="Grasbergtjerna" />
		<tag k="natural" v="water" />
		<tag k="ssr:stedsnr" v="361916" />
		<tag k="water" v="lake" />
	</node>
	<node lat="61.02463610775185" lon="11.492400006507912" id="-21191">
		<tag k="name" v="Hansvollbekken" />
		<tag k="ssr:stedsnr" v="371230" />
		<tag k="waterway" v="stream" />
	</node>
	<node lat="61.05101944594629" lon="11.577116662777991" id="-21197">
		<tag k="name" v="Sjutjenna" />
		<tag k="natural" v="water" />
		<tag k="ssr:stedsnr" v="371202" />
		<tag k="water" v="lake" />
	</node>
	<node lat="61.06520833728613" lon="12.057722230868917" id="-21207">
		<tag k="name" v="Bokbekken" />
		<tag k="ssr:stedsnr" v="371928" />
		<tag k="waterway" v="stream" />
	</node>
	<node lat="60.80612778024811" lon="11.874022217236904" id="-21209">
		<tag k="name" v="Gåstjennet" />
		<tag k="natural" v="water" />
		<tag k="ssr:stedsnr" v="373524" />
	</node>
	<node lat="60.841175733166516" lon="11.522055016679525" id="-21228">
		<tag k="name" v="Småtjenna" />
		<tag k="natural" v="water" />
		<tag k="ssr:stedsnr" v="373188" />
		<tag k="water" v="lake" />
	</node>
	<node lat="60.78620833074483" lon="11.519222218522588" id="-21231">
		<tag k="name" v="Langbrutjennet" />
		<tag k="natural" v="water" />
		<tag k="ssr:stedsnr" v="373360" />
	</node>
	<node lat="60.99386388693629" lon="11.56411944865227" id="-21241">
		<tag k="name" v="Vesle Letjenna" />
		<tag k="ssr:stedsnr" v="373975" />
		<tag k="waterway" v="stream" />
	</node>
	<node lat="60.86363889152521" lon="11.720849996935206" id="-21242">
		<tag k="name" v="Grasbekken" />
		<tag k="ssr:stedsnr" v="495240" />
		<tag k="waterway" v="stream" />
	</node>
	<node lat="60.94042777805539" lon="11.756250001251983" id="-21247">
		<tag k="name" v="Kvernbekken" />
		<tag k="ssr:stedsnr" v="495130" />
		<tag k="waterway" v="stream" />
	</node>
	<node lat="61.06069999647173" lon="12.077080556937938" id="-21248">
		<tag k="name" v="Gjertrudstjernet" />
		<tag k="natural" v="water" />
		<tag k="ssr:stedsnr" v="404500" />
	</node>
	<node lat="61.10476944063596" lon="11.584527782166031" id="-21259">
		<tag k="name" v="Strandbekken" />
		<tag k="ssr:stedsnr" v="405670" />
		<tag k="waterway" v="stream" />
	</node>
	<node lat="61.065022218037704" lon="12.130711104799275" id="-21261">
		<tag k="name" v="Ørtjennsbekken" />
		<tag k="ssr:stedsnr" v="406747" />
		<tag k="waterway" v="stream" />
	</node>
	<node lat="60.822072220961935" lon="11.615469442752197" id="-21286">
		<tag k="name" v="Skjefstadholmen" />
		<tag k="place" v="islet" />
		<tag k="ssr:stedsnr" v="422970" />
	</node>
	<node lat="61.11681666515084" lon="11.810477779908455" id="-21295">
		<tag k="name" v="Graslanddammen" />
		<tag k="ssr:stedsnr" v="423088" />
		<tag k="waterway" v="dam" />
	</node>
	<node lat="60.93943888528743" lon="11.516244438964907" id="-21301">
		<tag k="fixme" v="multiple name tags, choose one and add the other to alt_name" />
		<tag k="name" v="Glåma;Glomma" />
		<tag k="ssr:stedsnr" v="426301" />
		<tag k="waterway" v="river" />
	</node>
	<node lat="60.916663885453396" lon="11.492844443360873" id="-21331">
		<tag k="name" v="Lavåsbekken" />
		<tag k="ssr:stedsnr" v="434155" />
		<tag k="waterway" v="stream" />
	</node>
	<node lat="60.8353750031499" lon="11.791552781364917" id="-21337">
		<tag k="name" v="Dottungen" />
		<tag k="ssr:stedsnr" v="434249" />
		<tag k="waterway" v="stream" />
	</node>
	<node lat="60.76139999807426" lon="11.771497230324606" id="-21344">
		<tag k="name" v="Sorma" />
		<tag k="ssr:stedsnr" v="434377" />
		<tag k="waterway" v="stream" />
	</node>
	<node lat="60.99109166715225" lon="11.992266672041874" id="-21346">
		<tag k="name" v="Grasholtbekken" />
		<tag k="ssr:stedsnr" v="434385" />
		<tag k="waterway" v="stream" />
	</node>
	<node lat="60.94381388695902" lon="11.930625003154372" id="-21349">
		<tag k="name" v="Gudmundsbekken" />
		<tag k="ssr:stedsnr" v="434428" />
		<tag k="waterway" v="stream" />
	</node>
	<node lat="60.94713889201773" lon="11.93701388517611" id="-21350">
		<tag k="name" v="Langtjennet" />
		<tag k="natural" v="water" />
		<tag k="ssr:stedsnr" v="434430" />
	</node>
	<node lat="60.925799999570266" lon="11.867152779653676" id="-21352">
		<tag k="name" v="Jodambekken" />
		<tag k="ssr:stedsnr" v="434456" />
		<tag k="waterway" v="stream" />
	</node>
	<node lat="60.933841664278155" lon="11.975447219410587" id="-21353">
		<tag k="loc_name" v="Siljubergstjennet" />
		<tag k="name" v="Silubergstjennet" />
		<tag k="natural" v="water" />
		<tag k="ssr:stedsnr" v="434461" />
	</node>
	<node lat="60.99770555920407" lon="11.446997230652585" id="-21354">
		<tag k="name" v="Nørstbekken" />
		<tag k="ssr:stedsnr" v="434515" />
		<tag k="waterway" v="stream" />
	</node>
	<node lat="60.86806666564763" lon="11.88353332744438" id="-21361">
		<tag k="name" v="Morttjennet" />
		<tag k="natural" v="water" />
		<tag k="ssr:stedsnr" v="495586" />
	</node>
	<node lat="60.99300000097184" lon="11.956791670767068" id="-21369">
		<tag k="name" v="Renosdammen" />
		<tag k="ssr:stedsnr" v="525392" />
		<tag k="waterway" v="dam" />
	</node>
	<node lat="60.99932500097768" lon="11.938388882141599" id="-21370">
		<tag k="name" v="Kjerringhølkroken" />
		<tag k="place" v="locality" />
		<tag k="ssr:stedsnr" v="525393" />
	</node>
	<node lat="61.00418889200136" lon="11.907130560013329" id="-21371">
		<tag k="name" v="Knappkjølbekken" />
		<tag k="ssr:stedsnr" v="525395" />
		<tag k="waterway" v="stream" />
	</node>
	<node lat="61.01749722109791" lon="11.917816665244288" id="-21372">
		<tag k="name" v="Eftasbetta" />
		<tag k="place" v="locality" />
		<tag k="ssr:stedsnr" v="525397" />
	</node>
	<node lat="61.012369446402175" lon="11.926166675361863" id="-21373">
		<tag k="name" v="Tangneshølen" />
		<tag k="place" v="locality" />
		<tag k="ssr:stedsnr" v="525398" />
	</node>
	<node lat="61.10533332893717" lon="11.6523777847714" id="-21386">
		<tag k="name" v="Gammelrøta" />
		<tag k="ssr:stedsnr" v="527869" />
		<tag k="waterway" v="stream" />
	</node>
	<node lat="61.00740833163337" lon="11.735700008534137" id="-21399">
		<tag k="name" v="Volbekken" />
		<tag k="ssr:stedsnr" v="542398" />
		<tag k="waterway" v="stream" />
	</node>
	<node lat="60.831780556140075" lon="11.613002786252846" id="-21402">
		<tag k="name" v="Skjefstadfossen" />
		<tag k="natural" v="waterfall" />
		<tag k="ssr:stedsnr" v="542000" />
	</node>
	<node lat="60.91983611285462" lon="11.481149991539759" id="-21405">
		<tag k="name" v="Kvernsjørusken" />
		<tag k="natural" v="water" />
		<tag k="ssr:stedsnr" v="542649" />
	</node>
	<node lat="61.011516670011986" lon="11.794002775407602" id="-21408">
		<tag k="name" v="Bergerkvernbekken" />
		<tag k="ssr:stedsnr" v="543026" />
		<tag k="waterway" v="stream" />
	</node>
	<node lat="60.91344722040303" lon="11.68703888427797" id="-21413">
		<tag k="name" v="Kverndammen" />
		<tag k="ssr:stedsnr" v="544123" />
		<tag k="waterway" v="dam" />
	</node>
	<node lat="61.04766944520379" lon="11.850219452067769" id="-21415">
		<tag k="name" v="Nuphølen" />
		<tag k="place" v="locality" />
		<tag k="ssr:stedsnr" v="544094" />
	</node>
	<node lat="61.01719444413737" lon="11.385852781521722" id="-21417">
		<tag k="name" v="Lillebekken" />
		<tag k="ssr:stedsnr" v="544247" />
		<tag k="waterway" v="stream" />
	</node>
	<node lat="60.78156667029884" lon="11.665988881158231" id="-21425">
		<tag k="name" v="Søråstjennet" />
		<tag k="natural" v="water" />
		<tag k="ssr:stedsnr" v="554340" />
	</node>
	<node lat="61.003086114913366" lon="12.038202781725289" id="-21429">
		<tag k="alt_name" v="Juskjøltjennet" />
		<tag k="name" v="Gyskjøltjennet" />
		<tag k="natural" v="water" />
		<tag k="old_name" v="Juskjøltj." />
		<tag k="ssr:stedsnr" v="553851" />
	</node>
	<node lat="60.883363887830484" lon="11.862127773131792" id="-21450">
		<tag k="name" v="Rådelsbekken" />
		<tag k="ssr:stedsnr" v="555401" />
		<tag k="waterway" v="stream" />
	</node>
	<node lat="60.82236666973576" lon="11.655661119713821" id="-21459">
		<tag k="name" v="Åstjennet" />
		<tag k="natural" v="water" />
		<tag k="ssr:stedsnr" v="555245" />
	</node>
	<node lat="60.992886110247206" lon="12.133663885757164" id="-21462">
		<tag k="name" v="Gjeddtjennet" />
		<tag k="natural" v="water" />
		<tag k="ssr:stedsnr" v="555332" />
	</node>
	<node lat="60.96864999592579" lon="12.097166661679037" id="-21464">
		<tag k="fixme" v="multiple name tags, choose one and add the other to alt_name" />
		<tag k="name" v="Orrleikbekken;Ørbekken" />
		<tag k="ssr:stedsnr" v="555346" />
		<tag k="waterway" v="stream" />
	</node>
	<node lat="60.91664999992868" lon="11.895472217714715" id="-21465">
		<tag k="name" v="Gildertjennet" />
		<tag k="natural" v="water" />
		<tag k="ssr:stedsnr" v="555436" />
	</node>
	<node lat="60.96357777574841" lon="11.388666667531664" id="-21469">
		<tag k="name" v="Malmveltbekken" />
		<tag k="ssr:stedsnr" v="555537" />
		<tag k="waterway" v="stream" />
	</node>
	<node lat="60.99765833714251" lon="11.489988891348657" id="-21472">
		<tag k="name" v="Øksetbekken" />
		<tag k="ssr:stedsnr" v="555965" />
		<tag k="waterway" v="stream" />
	</node>
	<node lat="60.99246110726952" lon="11.773686109939193" id="-21474">
		<tag k="name" v="Julussa" />
		<tag k="ssr:stedsnr" v="555992" />
		<tag k="waterway" v="stream" />
	</node>
	<node lat="60.79940555214003" lon="11.692347223106118" id="-21476">
		<tag k="name" v="Lømosundet" />
		<tag k="natural" v="strait" />
		<tag k="old_name" v="Ljømosundet" />
		<tag k="ssr:stedsnr" v="573290" />
	</node>
	<node lat="60.9219916636518" lon="11.52716665754354" id="-21496">
		<tag k="name" v="Holmen" />
		<tag k="place" v="islet" />
		<tag k="ssr:stedsnr" v="601609" />
	</node>
	<node lat="60.91996389062468" lon="11.528791660469365" id="-21497">
		<tag k="name" v="Strandhagaøya" />
		<tag k="place" v="island" />
		<tag k="ssr:stedsnr" v="601610" />
	</node>
	<node lat="60.948616667227334" lon="11.574338892830449" id="-21500">
		<tag k="name" v="Ørtjennskanalen" />
		<tag k="ssr:stedsnr" v="601068" />
		<tag k="waterway" v="drain" />
	</node>
	<node lat="60.93178888942622" lon="11.610536106521137" id="-21501">
		<tag k="name" v="Møystaddammen" />
		<tag k="ssr:stedsnr" v="601069" />
		<tag k="waterway" v="dam" />
	</node>
	<node lat="61.04985555180623" lon="11.650216666322866" id="-21505">
		<tag k="name" v="Skavhaugtjernet" />
		<tag k="natural" v="water" />
		<tag k="ssr:stedsnr" v="601525" />
	</node>
	<node lat="60.90759444442241" lon="11.679472220311943" id="-21523">
		<tag k="name" v="Småtjern" />
		<tag k="natural" v="water" />
		<tag k="ssr:stedsnr" v="604143" />
		<tag k="water" v="pond" />
	</node>
	<node lat="60.66491388850713" lon="12.184900008754054" id="-21528">
		<tag k="name" v="Flisa" />
		<tag k="ssr:stedsnr" v="613086" />
		<tag k="waterway" v="river" />
	</node>
	<node lat="61.06884444189768" lon="12.120922219094348" id="-21535">
		<tag k="name" v="Ørtjennet" />
		<tag k="natural" v="water" />
		<tag k="ssr:stedsnr" v="614935" />
	</node>
	<node lat="60.90156077043297" lon="11.661583083320375" id="-21549">
		<tag k="name" v="Skjulstadtjenna" />
		<tag k="natural" v="water" />
		<tag k="ssr:stedsnr" v="615139" />
		<tag k="water" v="lake" />
	</node>
	<node lat="60.84743610962248" lon="11.822488882904196" id="-21550">
		<tag k="name" v="Dolpa" />
		<tag k="natural" v="water" />
		<tag k="ssr:stedsnr" v="615195" />
	</node>
	<node lat="60.99760000409987" lon="11.461730553445033" id="-21552">
		<tag k="fixme" v="multiple name tags, choose one and add the other to alt_name" />
		<tag k="name" v="Næringsbekken;Rønningsbekken" />
		<tag k="ssr:stedsnr" v="615546" />
		<tag k="waterway" v="stream" />
	</node>
	<node lat="60.82174166409623" lon="11.895749992975619" id="-21553">
		<tag k="name" v="Bjørnbekken" />
		<tag k="ssr:stedsnr" v="615581" />
		<tag k="waterway" v="stream" />
	</node>
	<node lat="60.97491388614675" lon="11.54246111604268" id="-21554">
		<tag k="name" v="Ørbekken" />
		<tag k="ssr:stedsnr" v="616027" />
		<tag k="waterway" v="stream" />
	</node>
	<node lat="60.88639722612752" lon="11.612608340188105" id="-21563">
		<tag k="name" v="Smaltjennet" />
		<tag k="natural" v="water" />
		<tag k="ssr:stedsnr" v="616135" />
	</node>
	<node lat="60.96455833082815" lon="11.982883331009612" id="-21571">
		<tag k="name" v="Svarttjennet" />
		<tag k="natural" v="water" />
		<tag k="ssr:stedsnr" v="616388" />
	</node>
	<node lat="60.96335277424447" lon="11.459024996749593" id="-21574">
		<tag k="name" v="Bråtådalsbekken" />
		<tag k="ssr:stedsnr" v="616578" />
		<tag k="waterway" v="stream" />
	</node>
	<node lat="61.04080833137904" lon="11.565763881883289" id="-21585">
		<tag k="name" v="Strandkjøldammen" />
		<tag k="ssr:stedsnr" v="648559" />
		<tag k="waterway" v="dam" />
	</node>
	<node lat="60.86873055474688" lon="11.554522218541383" id="-21592">
		<tag k="name" v="Klokkerfossen" />
		<tag k="natural" v="waterfall" />
		<tag k="ssr:stedsnr" v="661024" />
	</node>
	<node lat="61.041011109664325" lon="11.658786115895682" id="-21598">
		<tag k="name" v="Aksvalbekken" />
		<tag k="ssr:stedsnr" v="662555" />
		<tag k="waterway" v="stream" />
	</node>
	<node lat="60.981499996659466" lon="11.478427768519616" id="-21607">
		<tag k="name" v="Krabbesbekken" />
		<tag k="ssr:stedsnr" v="663758" />
		<tag k="waterway" v="stream" />
	</node>
	<node lat="61.02529166705933" lon="11.719511105954782" id="-21626">
		<tag k="name" v="Vassbekken" />
		<tag k="ssr:stedsnr" v="665468" />
		<tag k="waterway" v="stream" />
	</node>
	<node lat="60.83871110711561" lon="11.819124994432492" id="-21633">
		<tag k="name" v="Oksøyet" />
		<tag k="natural" v="water" />
		<tag k="ssr:stedsnr" v="665995" />
	</node>
	<node lat="60.89967222138937" lon="11.550886107794216" id="-21636">
		<tag k="name" v="Mariveta" />
		<tag k="natural" v="strait" />
		<tag k="ssr:stedsnr" v="722033" />
	</node>
	<node lat="60.900922223988694" lon="11.55173055693676" id="-21637">
		<tag k="name" v="Vesleelva" />
		<tag k="natural" v="strait" />
		<tag k="ssr:stedsnr" v="722037" />
	</node>
	<node lat="61.04846666485563" lon="11.658874994879023" id="-21639">
		<tag k="name" v="Skavhaugbekken" />
		<tag k="ssr:stedsnr" v="722560" />
		<tag k="waterway" v="stream" />
	</node>
	<node lat="60.958563892013586" lon="11.499811112420929" id="-21640">
		<tag k="name" v="Lundsholmen" />
		<tag k="place" v="islet" />
		<tag k="ssr:stedsnr" v="722640" />
	</node>
	<node lat="61.08971944769129" lon="11.792586104595888" id="-21652">
		<tag k="name" v="Knettbekken" />
		<tag k="ssr:stedsnr" v="725089" />
		<tag k="waterway" v="stream" />
	</node>
	<node lat="61.01912222201747" lon="12.095186108237208" id="-21670">
		<tag k="name" v="Bergetjennet" />
		<tag k="natural" v="water" />
		<tag k="ssr:stedsnr" v="736890" />
	</node>
	<node lat="60.99926944730992" lon="12.056819443215884" id="-21680">
		<tag k="name" v="Steintjennet" />
		<tag k="natural" v="water" />
		<tag k="ssr:stedsnr" v="737401" />
	</node>
	<node lat="61.01349444241257" lon="11.925819448956204" id="-21682">
		<tag k="name" v="Buhølen" />
		<tag k="place" v="locality" />
		<tag k="ssr:stedsnr" v="736858" />
	</node>
	<node lat="60.81088888660713" lon="11.77082500748735" id="-21690">
		<tag k="name" v="Sæterbekken" />
		<tag k="ssr:stedsnr" v="737244" />
		<tag k="waterway" v="stream" />
	</node>
	<node lat="60.971858331115705" lon="11.595316669960361" id="-21706">
		<tag k="alt_name" v="Gåsbekken" />
		<tag k="name" v="Vestre-Gåsbekken" />
		<tag k="ssr:stedsnr" v="738051" />
		<tag k="waterway" v="stream" />
	</node>
	<node lat="60.7912527770919" lon="11.65015554931386" id="-21710">
		<tag k="name" v="Sørbekken" />
		<tag k="ssr:stedsnr" v="738369" />
		<tag k="waterway" v="stream" />
	</node>
	<node lat="60.95445555892934" lon="11.89265833420883" id="-21713">
		<tag k="name" v="Langåsbekken" />
		<tag k="ssr:stedsnr" v="738392" />
		<tag k="waterway" v="stream" />
	</node>
	<node lat="61.05296944615347" lon="11.920391661740307" id="-21718">
		<tag k="name" v="Grønstadbekken" />
		<tag k="ssr:stedsnr" v="768358" />
		<tag k="waterway" v="stream" />
	</node>
	<node lat="60.90504999924366" lon="11.534019443596966" id="-21725">
		<tag k="name" v="Engeveta" />
		<tag k="ssr:stedsnr" v="770581" />
		<tag k="waterway" v="stream" />
	</node>
	<node lat="61.14187499663871" lon="11.820436115625972" id="-21746">
		<tag k="name" v="Kroken" />
		<tag k="place" v="locality" />
		<tag k="ssr:stedsnr" v="787090" />
	</node>
	<node lat="61.141283336748664" lon="11.830350008641194" id="-21747">
		<tag k="name" v="Løvåsbekken" />
		<tag k="ssr:stedsnr" v="787092" />
		<tag k="waterway" v="stream" />
	</node>
	<node lat="61.02016389004319" lon="11.363002778183983" id="-21760">
		<tag k="fixme" v="multiple name tags, choose one and add the other to alt_name" />
		<tag k="name" v="Storbekken;Sagbekken" />
		<tag k="ssr:stedsnr" v="796290" />
		<tag k="waterway" v="stream" />
	</node>
	<node lat="60.776125001596874" lon="11.67648055466823" id="-21785">
		<tag k="name" v="Sagbekken" />
		<tag k="ssr:stedsnr" v="798278" />
		<tag k="waterway" v="stream" />
	</node>
	<node lat="60.89189999982617" lon="12.019127773590455" id="-21791">
		<tag k="name" v="Merrabekken" />
		<tag k="ssr:stedsnr" v="798430" />
		<tag k="waterway" v="stream" />
	</node>
	<node lat="60.95069999614599" lon="11.39297500562547" id="-21796">
		<tag k="name" v="Koiebekken" />
		<tag k="ssr:stedsnr" v="798531" />
		<tag k="waterway" v="stream" />
	</node>
	<node lat="61.07470833464903" lon="12.077741669383174" id="-21805">
		<tag k="name" v="Rønningsmyrbekken" />
		<tag k="ssr:stedsnr" v="829508" />
		<tag k="waterway" v="stream" />
	</node>
	<node lat="60.96380833545205" lon="12.04820000222113" id="-21817">
		<tag k="name" v="Bjørhølen" />
		<tag k="place" v="locality" />
		<tag k="ssr:stedsnr" v="844563" />
	</node>
	<node lat="60.977966671054794" lon="12.011272220839112" id="-21824">
		<tag k="name" v="Gælenevjufossen" />
		<tag k="natural" v="waterfall" />
		<tag k="ssr:stedsnr" v="844970" />
	</node>
	<node lat="61.01720555689228" lon="11.337847220680304" id="-21848">
		<tag k="name" v="Gutubekken" />
		<tag k="ssr:stedsnr" v="848271" />
		<tag k="waterway" v="stream" />
	</node>
	<node lat="60.746733329139744" lon="12.201530561680393" id="-21860">
		<tag k="name" v="Kynna" />
		<tag k="ssr:stedsnr" v="857240" />
		<tag k="waterway" v="river" />
	</node>
	<node lat="60.91196111302331" lon="11.501641662139251" id="-21872">
		<tag k="name" v="Ygletjennet" />
		<tag k="natural" v="water" />
		<tag k="ssr:stedsnr" v="859143" />
	</node>
	<node lat="60.77820769370199" lon="11.548000790074116" id="-21876">
		<tag k="name" v="Koietjennet" />
		<tag k="natural" v="water" />
		<tag k="ssr:stedsnr" v="859276" />
	</node>
	<node lat="60.78817500089283" lon="11.799150006049766" id="-21886">
		<tag k="name" v="Rådelsbekken" />
		<tag k="ssr:stedsnr" v="859335" />
		<tag k="waterway" v="stream" />
	</node>
	<node lat="60.97262499637948" lon="11.93714721523129" id="-21888">
		<tag k="name" v="Grastjennsbekken" />
		<tag k="ssr:stedsnr" v="859343" />
		<tag k="waterway" v="stream" />
	</node>
	<node lat="60.959000001060524" lon="11.954288885783935" id="-21891">
		<tag k="name" v="Lørdagsrudbekken" />
		<tag k="ssr:stedsnr" v="859440" />
		<tag k="waterway" v="stream" />
	</node>
	<node lat="60.95095555293019" lon="11.976972220718823" id="-21892">
		<tag k="name" v="Siljubergsbekken" />
		<tag k="ssr:stedsnr" v="859441" />
		<tag k="waterway" v="stream" />
	</node>
	<node lat="61.174952779326006" lon="11.794047215948119" id="-21909">
		<tag k="name" v="Østre Grasbergbekken" />
		<tag k="ssr:stedsnr" v="936968" />
		<tag k="waterway" v="stream" />
	</node>
	<node lat="60.762475003516116" lon="11.592438888086111" id="-21927">
		<tag k="name" v="Rådelsbekken" />
		<tag k="ssr:stedsnr" v="966429" />
		<tag k="waterway" v="stream" />
	</node>
	<node lat="60.90015555793503" lon="11.794905561857568" id="-21928">
		<tag k="name" v="Storbergstjennet" />
		<tag k="natural" v="water" />
		<tag k="ssr:stedsnr" v="967779" />
	</node>
	<node lat="61.015463887881324" lon="11.828975004963468" id="-21930">
		<tag k="name" v="Kubekken" />
		<tag k="ssr:stedsnr" v="968032" />
		<tag k="waterway" v="stream" />
	</node>
	<node lat="60.92292221984217" lon="11.838466663316762" id="-21931">
		<tag k="name" v="Svenskholmen" />
		<tag k="natural" v="cape" />
		<tag k="ssr:stedsnr" v="967801" />
	</node>
	<node lat="61.09533610750838" lon="11.775572225067158" id="-21935">
		<tag k="name" v="Kroka" />
		<tag k="ssr:stedsnr" v="968682" />
		<tag k="waterway" v="stream" />
	</node>
	<node lat="60.930561114346446" lon="11.860738894551845" id="-21942">
		<tag k="name" v="Kavlebrubekken" />
		<tag k="ssr:stedsnr" v="969822" />
		<tag k="waterway" v="stream" />
	</node>
</osm>
