<?xml version="1.0" encoding="UTF-8"?>
<osm version="0.6" generator="osmapis">
	<node lat="61.029383330102824" lon="11.572536113079881" id="-37625">
		<tag k="name" v="Jomfrubrenna" />
		<tag k="place" v="locality" />
		<tag k="ssr:stedsnr" v="7205" />
	</node>
	<node lat="60.785502778320826" lon="11.731288896637727" id="-37657">
		<tag k="name" v="Osmyra" />
		<tag k="natural" v="wetland" />
		<tag k="ssr:stedsnr" v="10351" />
	</node>
	<node lat="61.024830554908" lon="11.957566662964211" id="-37661">
		<tag k="name" v="Gråbergskogen" />
		<tag k="place" v="locality" />
		<tag k="ssr:stedsnr" v="39319" />
	</node>
	<node lat="60.85041666603532" lon="11.627502773887356" id="-37662">
		<tag k="name" v="Skjefstadlimyra" />
		<tag k="natural" v="wetland" />
		<tag k="ssr:stedsnr" v="40013" />
	</node>
	<node lat="60.94752222368757" lon="11.551283331411728" id="-37663">
		<tag k="name" v="Engeteigene" />
		<tag k="place" v="locality" />
		<tag k="ssr:stedsnr" v="40071" />
	</node>
	<node lat="60.88111111105818" lon="11.689377770136026" id="-37674">
		<tag k="name" v="Lensmannsenga" />
		<tag k="place" v="locality" />
		<tag k="ssr:stedsnr" v="41924" />
	</node>
	<node lat="61.02022222031986" lon="11.757527769599147" id="-37678">
		<tag k="name" v="Nyrønningen" />
		<tag k="place" v="locality" />
		<tag k="ssr:stedsnr" v="237373" />
	</node>
	<node lat="60.9855583306702" lon="11.360011109084546" id="-37683">
		<tag k="name" v="Stannarholtmyra" />
		<tag k="natural" v="wetland" />
		<tag k="ssr:stedsnr" v="237549" />
	</node>
	<node lat="60.976705555478276" lon="11.406116663021061" id="-37685">
		<tag k="name" v="Nersæterkjølen" />
		<tag k="natural" v="wetland" />
		<tag k="ssr:stedsnr" v="237563" />
	</node>
	<node lat="61.01635555333222" lon="11.500872213551704" id="-37692">
		<tag k="name" v="Langmyra" />
		<tag k="natural" v="wetland" />
		<tag k="ssr:stedsnr" v="237915" />
	</node>
	<node lat="60.84612777514096" lon="11.590611109193903" id="-37701">
		<tag k="name" v="Ulvenga" />
		<tag k="place" v="locality" />
		<tag k="ssr:stedsnr" v="239056" />
	</node>
	<node lat="60.882822224348104" lon="11.96014165800841" id="-37702">
		<tag k="name" v="Nedre Hansmyra" />
		<tag k="natural" v="wetland" />
		<tag k="ssr:stedsnr" v="239071" />
	</node>
	<node lat="60.91328611008781" lon="11.473013894807416" id="-37704">
		<tag k="name" v="Ormmyra" />
		<tag k="natural" v="wetland" />
		<tag k="ssr:stedsnr" v="239664" />
	</node>
	<node lat="60.97343610809767" lon="12.084580547957056" id="-37711">
		<tag k="name" v="Søndre Orrleikkjølen" />
		<tag k="natural" v="wetland" />
		<tag k="ssr:stedsnr" v="55530" />
	</node>
	<node lat="61.0209249976244" lon="11.884947217280628" id="-37723">
		<tag k="landuse" v="meadow" />
		<tag k="name" v="Bergestranda" />
		<tag k="ssr:stedsnr" v="59101" />
	</node>
	<node lat="60.757180553040385" lon="11.727191661309773" id="-37724">
		<tag k="name" v="Fekja" />
		<tag k="place" v="locality" />
		<tag k="ssr:stedsnr" v="59314" />
	</node>
	<node lat="61.15196667005882" lon="11.81770555613752" id="-37725">
		<tag k="landuse" v="meadow" />
		<tag k="name" v="Horndalsrønningen" />
		<tag k="ssr:stedsnr" v="59073" />
	</node>
	<node lat="61.13818333655438" lon="11.839411106806068" id="-37726">
		<tag k="name" v="Storløkjølen" />
		<tag k="natural" v="wetland" />
		<tag k="ssr:stedsnr" v="59074" />
	</node>
	<node lat="61.038036114249785" lon="11.804408342735105" id="-37727">
		<tag k="name" v="Nedre Svartbergsmyra" />
		<tag k="natural" v="wetland" />
		<tag k="ssr:stedsnr" v="59083" />
	</node>
	<node lat="61.039855556908975" lon="11.81037499380678" id="-37735">
		<tag k="name" v="Mellomste Svartbergsmyra" />
		<tag k="natural" v="wetland" />
		<tag k="ssr:stedsnr" v="241090" />
	</node>
	<node lat="61.11939722306242" lon="11.701900007270597" id="-37748">
		<tag k="name" v="Bjørbekkmyra" />
		<tag k="natural" v="wetland" />
		<tag k="ssr:stedsnr" v="69186" />
	</node>
	<node lat="60.96832499586429" lon="11.56997500341922" id="-37761">
		<tag k="name" v="Ørtjennskjølen" />
		<tag k="natural" v="wetland" />
		<tag k="ssr:stedsnr" v="70035" />
	</node>
	<node lat="60.96197499827114" lon="11.43805000876629" id="-37776">
		<tag k="name" v="Sæternmarka" />
		<tag k="place" v="locality" />
		<tag k="ssr:stedsnr" v="70523" />
	</node>
	<node lat="60.95202500376728" lon="11.922280553229408" id="-37783">
		<tag k="name" v="Ola-Bjørnstadkjølen" />
		<tag k="natural" v="wetland" />
		<tag k="ssr:stedsnr" v="100380" />
	</node>
	<node lat="61.050725001377295" lon="11.776441666331104" id="-37793">
		<tag k="name" v="Fjøsbrennmyra" />
		<tag k="natural" v="wetland" />
		<tag k="ssr:stedsnr" v="102320" />
	</node>
	<node lat="61.061275003908605" lon="11.584611108705673" id="-37813">
		<tag k="name" v="Ballrupmyra" />
		<tag k="natural" v="wetland" />
		<tag k="ssr:stedsnr" v="250224" />
	</node>
	<node lat="60.77316111224276" lon="11.617797223635487" id="-37820">
		<tag k="name" v="Fugleleken" />
		<tag k="place" v="locality" />
		<tag k="ssr:stedsnr" v="116371" />
	</node>
	<node lat="60.962724996603576" lon="11.56005833016302" id="-37822">
		<tag k="name" v="Ørtjennsbrenna" />
		<tag k="place" v="locality" />
		<tag k="ssr:stedsnr" v="116707" />
	</node>
	<node lat="61.02503333695392" lon="11.872483335543963" id="-37835">
		<tag k="landuse" v="meadow" />
		<tag k="name" v="Nordre Ulvåstranda" />
		<tag k="ssr:stedsnr" v="119131" />
	</node>
	<node lat="60.86530278072523" lon="11.473230549441801" id="-37842">
		<tag k="name" v="Åkransmyra" />
		<tag k="natural" v="wetland" />
		<tag k="ssr:stedsnr" v="119628" />
	</node>
	<node lat="60.924969441356765" lon="11.767744442766507" id="-37850">
		<tag k="name" v="Brennfeltet" />
		<tag k="place" v="locality" />
		<tag k="ssr:stedsnr" v="251201" />
	</node>
	<node lat="60.85242777754226" lon="11.506999997975878" id="-37855">
		<tag k="name" v="Kvitkjølen" />
		<tag k="natural" v="wetland" />
		<tag k="ssr:stedsnr" v="251248" />
	</node>
	<node lat="60.888191666137615" lon="11.498099996255071" id="-37874">
		<tag k="name" v="Rundhaugmyra" />
		<tag k="natural" v="wetland" />
		<tag k="ssr:stedsnr" v="252108" />
	</node>
	<node lat="60.89285000331134" lon="11.796949995487005" id="-37875">
		<tag k="alt_name" v="Stensmyra" />
		<tag k="name" v="Steinsmyra" />
		<tag k="natural" v="wetland" />
		<tag k="ssr:stedsnr" v="252110" />
	</node>
	<node lat="60.84088888849915" lon="11.493188893209089" id="-37882">
		<tag k="name" v="Høgmyra" />
		<tag k="natural" v="wetland" />
		<tag k="ssr:stedsnr" v="252156" />
	</node>
	<node lat="60.81727499935836" lon="11.54253611251164" id="-37902">
		<tag k="name" v="Håkåsmyra" />
		<tag k="natural" v="wetland" />
		<tag k="ssr:stedsnr" v="252281" />
	</node>
	<node lat="60.97402499594784" lon="11.42086666890674" id="-37924">
		<tag k="name" v="Blomkjølen" />
		<tag k="natural" v="wetland" />
		<tag k="ssr:stedsnr" v="252497" />
	</node>
	<node lat="60.767030558080684" lon="11.606819450521453" id="-37941">
		<tag k="historic" v="shieling" />
		<tag k="name" v="Sørsætra" />
		<tag k="place" v="locality" />
		<tag k="ssr:stedsnr" v="130309" />
	</node>
	<node lat="60.90970833741828" lon="11.927936111923318" id="-37942">
		<tag k="name" v="Vesterkjølen" />
		<tag k="natural" v="wetland" />
		<tag k="ssr:stedsnr" v="130394" />
	</node>
	<node lat="60.995611106578465" lon="11.595702783068448" id="-37948">
		<tag k="name" v="Saumyra" />
		<tag k="natural" v="wetland" />
		<tag k="ssr:stedsnr" v="130970" />
	</node>
	<node lat="60.807983335368384" lon="11.567652786939334" id="-37953">
		<tag k="name" v="Kavlemyra" />
		<tag k="natural" v="wetland" />
		<tag k="ssr:stedsnr" v="131267" />
	</node>
	<node lat="60.98964166765142" lon="11.51678610379253" id="-37956">
		<tag k="name" v="Dalsmyra" />
		<tag k="natural" v="wetland" />
		<tag k="ssr:stedsnr" v="252982" />
	</node>
	<node lat="60.99427777544735" lon="11.73395000219782" id="-37960">
		<tag k="name" v="Vollfeltet" />
		<tag k="place" v="locality" />
		<tag k="ssr:stedsnr" v="252999" />
	</node>
	<node lat="60.997175002310826" lon="11.814386103533153" id="-37961">
		<tag k="name" v="Strikunta" />
		<tag k="natural" v="wetland" />
		<tag k="ssr:stedsnr" v="252964" />
	</node>
	<node lat="60.91719444124112" lon="11.557572222367108" id="-37968">
		<tag k="name" v="Gravningen" />
		<tag k="place" v="locality" />
		<tag k="ssr:stedsnr" v="162104" />
	</node>
	<node lat="60.86945277468114" lon="11.736902768762947" id="-37970">
		<tag k="name" v="Olamyra" />
		<tag k="natural" v="wetland" />
		<tag k="ssr:stedsnr" v="162956" />
	</node>
	<node lat="61.02043889317761" lon="11.529844441139941" id="-37981">
		<tag k="name" v="Stormyra" />
		<tag k="natural" v="wetland" />
		<tag k="ssr:stedsnr" v="176904" />
	</node>
	<node lat="60.98211388543616" lon="11.562380548510765" id="-37998">
		<tag k="landuse" v="meadow" />
		<tag k="name" v="Starslåtten" />
		<tag k="ssr:stedsnr" v="180558" />
	</node>
	<node lat="61.003919442235606" lon="11.642719437492643" id="-38000">
		<tag k="name" v="Stokkbekkroa" />
		<tag k="place" v="locality" />
		<tag k="ssr:stedsnr" v="180573" />
	</node>
	<node lat="61.08155000353769" lon="11.570444440231626" id="-38006">
		<tag k="name" v="Sjømyra" />
		<tag k="natural" v="wetland" />
		<tag k="ssr:stedsnr" v="190176" />
	</node>
	<node lat="61.077252774785414" lon="11.648261111166283" id="-38007">
		<tag k="name" v="Vinterkjølen" />
		<tag k="natural" v="wetland" />
		<tag k="ssr:stedsnr" v="190177" />
	</node>
	<node lat="60.960161111290724" lon="11.74882777190014" id="-38008">
		<tag k="name" v="Stormyra" />
		<tag k="natural" v="wetland" />
		<tag k="ssr:stedsnr" v="191002" />
	</node>
	<node lat="60.80181389085462" lon="11.536974996716845" id="-38017">
		<tag k="name" v="Styggmyra" />
		<tag k="natural" v="wetland" />
		<tag k="ssr:stedsnr" v="191311" />
	</node>
	<node lat="60.97011111051375" lon="12.053588897815185" id="-38021">
		<tag k="name" v="Gråbeinkjølen" />
		<tag k="natural" v="wetland" />
		<tag k="ssr:stedsnr" v="191366" />
	</node>
	<node lat="60.93805000363325" lon="11.48367500608006" id="-38024">
		<tag k="name" v="Stensmyra" />
		<tag k="natural" v="wetland" />
		<tag k="ssr:stedsnr" v="191069" />
	</node>
	<node lat="60.91380555583703" lon="11.545375002750202" id="-38047">
		<tag k="name" v="Ormdalen" />
		<tag k="place" v="locality" />
		<tag k="ssr:stedsnr" v="223122" />
	</node>
	<node lat="60.91938889233008" lon="11.552283326552114" id="-38048">
		<tag k="name" v="Vollmyra" />
		<tag k="natural" v="wetland" />
		<tag k="ssr:stedsnr" v="223128" />
	</node>
	<node lat="60.76761111153836" lon="11.624780554281937" id="-38059">
		<tag k="name" v="Skrikmyra" />
		<tag k="natural" v="wetland" />
		<tag k="ssr:stedsnr" v="238420" />
	</node>
	<node lat="60.93219999745268" lon="11.54288054891238" id="-38062">
		<tag k="name" v="Merramyra" />
		<tag k="natural" v="wetland" />
		<tag k="ssr:stedsnr" v="239621" />
	</node>
	<node lat="60.943486114500764" lon="11.501416661827065" id="-38064">
		<tag k="name" v="Nordre" />
		<tag k="place" v="locality" />
		<tag k="ssr:stedsnr" v="239635" />
	</node>
	<node lat="60.81568055984373" lon="11.532102781673702" id="-38067">
		<tag k="historic" v="shieling" />
		<tag k="name" v="Bakksvea" />
		<tag k="place" v="locality" />
		<tag k="ssr:stedsnr" v="239586" />
	</node>
	<node lat="60.82222222644382" lon="11.578805553730978" id="-38070">
		<tag k="name" v="Hestmyra" />
		<tag k="natural" v="wetland" />
		<tag k="ssr:stedsnr" v="240985" />
	</node>
	<node lat="60.936213891157266" lon="11.82770000733207" id="-38075">
		<tag k="name" v="Tjennsmyra" />
		<tag k="natural" v="wetland" />
		<tag k="ssr:stedsnr" v="241826" />
	</node>
	<node lat="60.931852776681744" lon="11.907686104859927" id="-38087">
		<tag k="name" v="Enmyra" />
		<tag k="natural" v="wetland" />
		<tag k="ssr:stedsnr" v="282069" />
	</node>
	<node lat="60.908736111817724" lon="11.653722220208637" id="-38094">
		<tag k="landuse" v="meadow" />
		<tag k="name" v="Brennrønningen" />
		<tag k="ssr:stedsnr" v="284104" />
	</node>
	<node lat="60.9094861140057" lon="11.636033330654415" id="-38095">
		<tag k="landuse" v="meadow" />
		<tag k="name" v="Skjulstadsaga" />
		<tag k="ssr:stedsnr" v="284110" />
	</node>
	<node lat="60.901338889989184" lon="11.621224997906282" id="-38096">
		<tag k="name" v="Posttjennsmyra" />
		<tag k="natural" v="wetland" />
		<tag k="ssr:stedsnr" v="284111" />
	</node>
	<node lat="60.91716666232435" lon="11.491502782716156" id="-38100">
		<tag k="name" v="Fredagsmyra" />
		<tag k="natural" v="wetland" />
		<tag k="ssr:stedsnr" v="298603" />
	</node>
	<node lat="60.94635000157399" lon="11.457980562201465" id="-38123">
		<tag k="name" v="Høyhaugmyrene" />
		<tag k="natural" v="wetland" />
		<tag k="ssr:stedsnr" v="300688" />
	</node>
	<node lat="61.14559721825438" lon="11.83221666539493" id="-38149">
		<tag k="name" v="Storløkjølen" />
		<tag k="natural" v="wetland" />
		<tag k="ssr:stedsnr" v="311197" />
	</node>
	<node lat="61.17245000113428" lon="11.734108332954357" id="-38157">
		<tag k="name" v="Ulvåkjølen" />
		<tag k="natural" v="wetland" />
		<tag k="ssr:stedsnr" v="311424" />
	</node>
	<node lat="61.10234722303529" lon="11.861600004731738" id="-38165">
		<tag k="name" v="Botningkjølen" />
		<tag k="natural" v="wetland" />
		<tag k="ssr:stedsnr" v="311979" />
	</node>
	<node lat="60.999722220585326" lon="11.45135832786762" id="-38187">
		<tag k="name" v="Eftasmyra" />
		<tag k="natural" v="wetland" />
		<tag k="ssr:stedsnr" v="466839" />
	</node>
	<node lat="60.87751388959012" lon="11.69900832778447" id="-38188">
		<tag k="name" v="Kvernhusslåttene" />
		<tag k="place" v="locality" />
		<tag k="ssr:stedsnr" v="466934" />
	</node>
	<node lat="61.025455559602136" lon="11.415397224393534" id="-38192">
		<tag k="name" v="Nordre Lønnbergsvea" />
		<tag k="place" v="locality" />
		<tag k="ssr:stedsnr" v="343190" />
	</node>
	<node lat="60.915502775817245" lon="11.627355547977997" id="-38198">
		<tag k="landuse" v="meadow" />
		<tag k="name" v="Brovollsrønningen" />
		<tag k="ssr:stedsnr" v="344100" />
	</node>
	<node lat="60.96272500051646" lon="11.861202779277615" id="-38201">
		<tag k="name" v="Stormyra" />
		<tag k="natural" v="wetland" />
		<tag k="ssr:stedsnr" v="344174" />
	</node>
	<node lat="61.06401944132272" lon="11.613958333603387" id="-38205">
		<tag k="name" v="Storkjølen" />
		<tag k="natural" v="wetland" />
		<tag k="ssr:stedsnr" v="344958" />
	</node>
	<node lat="61.062675004412206" lon="11.61373610907414" id="-38206">
		<tag k="landuse" v="meadow" />
		<tag k="name" v="Lille Jensgangrydningen" />
		<tag k="ssr:stedsnr" v="344960" />
	</node>
	<node lat="61.096488888078824" lon="11.71837778235587" id="-38212">
		<tag k="landuse" v="meadow" />
		<tag k="name" v="Slagghølrønningen" />
		<tag k="ssr:stedsnr" v="358654" />
	</node>
	<node lat="61.0308499986156" lon="11.489536111793402" id="-38217">
		<tag k="historic" v="shieling" />
		<tag k="name" v="Odden sæter" />
		<tag k="place" v="locality" />
		<tag k="ssr:stedsnr" v="358900" />
	</node>
	<node lat="60.792427773757396" lon="11.609869437059642" id="-38218">
		<tag k="historic" v="shieling" />
		<tag k="name" v="Bergmyrvollen" />
		<tag k="place" v="locality" />
		<tag k="ssr:stedsnr" v="359413" />
	</node>
	<node lat="60.88418611274034" lon="11.951536118695289" id="-38220">
		<tag k="name" v="Fuglleikmyra" />
		<tag k="natural" v="wetland" />
		<tag k="ssr:stedsnr" v="360054" />
	</node>
	<node lat="60.83588611353543" lon="11.512544441860996" id="-38242">
		<tag k="alt_name" v="Orreleikmyra" />
		<tag k="name" v="Orrleikkjølen" />
		<tag k="natural" v="wetland" />
		<tag k="ssr:stedsnr" v="373168" />
	</node>
	<node lat="60.96256944527297" lon="11.999802779407545" id="-38263">
		<tag k="name" v="Finjokjølen" />
		<tag k="natural" v="wetland" />
		<tag k="ssr:stedsnr" v="479973" />
	</node>
	<node lat="61.02468055678065" lon="11.604958325736739" id="-38266">
		<tag k="historic" v="shieling" />
		<tag k="name" v="Retvollen" />
		<tag k="place" v="locality" />
		<tag k="ssr:stedsnr" v="480553" />
	</node>
	<node lat="60.92720277394565" lon="11.474944446451794" id="-38275">
		<tag k="name" v="Sagteigen" />
		<tag k="place" v="locality" />
		<tag k="ssr:stedsnr" v="481683" />
	</node>
	<node lat="60.957655558290284" lon="11.448641662366356" id="-38277">
		<tag k="name" v="Limyra" />
		<tag k="natural" v="wetland" />
		<tag k="ssr:stedsnr" v="481746" />
	</node>
	<node lat="60.87839722154801" lon="11.973561102889418" id="-38288">
		<tag k="name" v="Tranmyrholtet" />
		<tag k="place" v="locality" />
		<tag k="ssr:stedsnr" v="482996" />
	</node>
	<node lat="61.045658332820786" lon="11.809738894465747" id="-38290">
		<tag k="name" v="Tjennsmyra" />
		<tag k="natural" v="wetland" />
		<tag k="ssr:stedsnr" v="483125" />
	</node>
	<node lat="60.929427779162324" lon="11.833236103110663" id="-38295">
		<tag k="name" v="Postmyra" />
		<tag k="natural" v="wetland" />
		<tag k="ssr:stedsnr" v="483869" />
	</node>
	<node lat="60.900936111739405" lon="11.704477785100442" id="-38305">
		<tag k="name" v="Tullperholtet" />
		<tag k="place" v="locality" />
		<tag k="ssr:stedsnr" v="404780" />
	</node>
	<node lat="60.905155556925635" lon="11.531366658888567" id="-38308">
		<tag k="name" v="Vesterenga" />
		<tag k="place" v="locality" />
		<tag k="ssr:stedsnr" v="406606" />
	</node>
	<node lat="61.02769722365593" lon="11.825386117547106" id="-38323">
		<tag k="name" v="Fuglleikmyra" />
		<tag k="natural" v="wetland" />
		<tag k="ssr:stedsnr" v="422017" />
	</node>
	<node lat="60.87421667118745" lon="11.972599995742307" id="-38327">
		<tag k="name" v="Mattismyra" />
		<tag k="natural" v="wetland" />
		<tag k="ssr:stedsnr" v="421992" />
	</node>
	<node lat="60.91831111021492" lon="11.702100003974051" id="-38331">
		<tag k="landuse" v="meadow" />
		<tag k="loc_name" v="Skjærbekkrønningen" />
		<tag k="name" v="Skærbekkrønningen" />
		<tag k="ssr:stedsnr" v="423148" />
	</node>
	<node lat="60.90411944518152" lon="11.567974993523022" id="-38335">
		<tag k="name" v="Mosevegen" />
		<tag k="natural" v="wetland" />
		<tag k="ssr:stedsnr" v="423722" />
	</node>
	<node lat="61.10747499752622" lon="11.766455556400713" id="-38344">
		<tag k="name" v="Krokkjølen" />
		<tag k="natural" v="wetland" />
		<tag k="ssr:stedsnr" v="433181" />
	</node>
	<node lat="60.85786388718946" lon="11.51114166135026" id="-38349">
		<tag k="name" v="Kringlemyra" />
		<tag k="natural" v="wetland" />
		<tag k="ssr:stedsnr" v="434206" />
	</node>
	<node lat="60.89186666338741" lon="11.706016662280959" id="-38353">
		<tag k="alt_name" v="Toremyra" />
		<tag k="name" v="Tormyra" />
		<tag k="natural" v="wetland" />
		<tag k="ssr:stedsnr" v="434119" />
	</node>
	<node lat="60.844413885795724" lon="11.531500000813365" id="-38358">
		<tag k="alt_name" v="Mosemyra" />
		<tag k="name" v="Mosamyra" />
		<tag k="natural" v="wetland" />
		<tag k="ssr:stedsnr" v="434186" />
	</node>
	<node lat="60.84688055968943" lon="11.495888888502568" id="-38359">
		<tag k="name" v="Dølholtet" />
		<tag k="place" v="locality" />
		<tag k="ssr:stedsnr" v="434188" />
	</node>
	<node lat="60.787302775214016" lon="11.63816110540931" id="-38362">
		<tag k="name" v="Stormyra" />
		<tag k="natural" v="wetland" />
		<tag k="ssr:stedsnr" v="434320" />
	</node>
	<node lat="60.93317500435116" lon="11.871252776489168" id="-38382">
		<tag k="name" v="Husmyra" />
		<tag k="natural" v="wetland" />
		<tag k="ssr:stedsnr" v="494451" />
	</node>
	<node lat="60.93712777570766" lon="11.963872216530582" id="-38389">
		<tag k="name" v="Gilderkjølen" />
		<tag k="natural" v="wetland" />
		<tag k="ssr:stedsnr" v="464412" />
	</node>
	<node lat="61.10271111056678" lon="11.577925002667998" id="-38409">
		<tag k="name" v="Dolpmyra" />
		<tag k="natural" v="wetland" />
		<tag k="ssr:stedsnr" v="466662" />
	</node>
	<node lat="60.98796389207283" lon="12.014013893857042" id="-38418">
		<tag k="name" v="Nedre Vårmorkjølen" />
		<tag k="natural" v="wetland" />
		<tag k="ssr:stedsnr" v="467915" />
	</node>
	<node lat="60.79158055530379" lon="11.578027779409313" id="-38439">
		<tag k="name" v="Hellemundsmyra" />
		<tag k="natural" v="wetland" />
		<tag k="ssr:stedsnr" v="676359" />
	</node>
	<node lat="60.97876111265056" lon="11.715863883894182" id="-38445">
		<tag k="name" v="Astridkjølen" />
		<tag k="natural" v="wetland" />
		<tag k="ssr:stedsnr" v="677029" />
	</node>
	<node lat="60.86495555473309" lon="11.824169442811833" id="-38449">
		<tag k="alt_name" v="Langmyra, østre;Langmyra" />
		<tag k="name" v="Østre Langmyra" />
		<tag k="natural" v="wetland" />
		<tag k="ssr:stedsnr" v="677223" />
	</node>
	<node lat="60.877852775298315" lon="11.822208324647331" id="-38450">
		<tag k="name" v="Lensmannskjølen" />
		<tag k="natural" v="wetland" />
		<tag k="ssr:stedsnr" v="677226" />
	</node>
	<node lat="61.03340833210623" lon="11.818591663336962" id="-38469">
		<tag k="name" v="Ankjølen" />
		<tag k="natural" v="wetland" />
		<tag k="ssr:stedsnr" v="482013" />
	</node>
	<node lat="60.880766664973926" lon="11.95928611062395" id="-38471">
		<tag k="name" v="Kvernhusbrenna" />
		<tag k="place" v="locality" />
		<tag k="ssr:stedsnr" v="482066" />
	</node>
	<node lat="60.9660111110395" lon="11.742413888901714" id="-38480">
		<tag k="name" v="Monsmyra" />
		<tag k="natural" v="wetland" />
		<tag k="ssr:stedsnr" v="484408" />
	</node>
	<node lat="61.07583333006007" lon="11.751508338913055" id="-38482">
		<tag k="name" v="Langmyra" />
		<tag k="natural" v="wetland" />
		<tag k="ssr:stedsnr" v="492129" />
	</node>
	<node lat="60.92926110748671" lon="11.8621861049022" id="-38500">
		<tag k="name" v="Stormyra" />
		<tag k="natural" v="wetland" />
		<tag k="ssr:stedsnr" v="494462" />
	</node>
	<node lat="60.97602499967591" lon="11.703950007281831" id="-38509">
		<tag k="alt_name" v="Måsåmyra" />
		<tag k="name" v="Mosamyra" />
		<tag k="natural" v="wetland" />
		<tag k="ssr:stedsnr" v="495074" />
	</node>
	<node lat="60.80750000367258" lon="11.554741670816794" id="-38513">
		<tag k="name" v="Stormosamyra" />
		<tag k="natural" v="wetland" />
		<tag k="ssr:stedsnr" v="495278" />
	</node>
	<node lat="60.93293333358558" lon="11.559238883992693" id="-38514">
		<tag k="name" v="Hurrabrenna" />
		<tag k="place" v="locality" />
		<tag k="ssr:stedsnr" v="525073" />
	</node>
	<node lat="60.892163891629174" lon="11.506519439019621" id="-38528">
		<tag k="name" v="Stortjennsmyra" />
		<tag k="natural" v="wetland" />
		<tag k="ssr:stedsnr" v="527613" />
	</node>
	<node lat="61.031561111811875" lon="11.77197499378595" id="-38534">
		<tag k="name" v="Johannesrønningen" />
		<tag k="place" v="locality" />
		<tag k="ssr:stedsnr" v="541421" />
	</node>
	<node lat="60.86713610772782" lon="11.63147221782547" id="-38536">
		<tag k="name" v="Blekemyra" />
		<tag k="natural" v="wetland" />
		<tag k="ssr:stedsnr" v="542011" />
	</node>
	<node lat="60.95841944729565" lon="11.458091669560895" id="-38541">
		<tag k="name" v="Langmyra" />
		<tag k="natural" v="wetland" />
		<tag k="ssr:stedsnr" v="542767" />
	</node>
	<node lat="60.91048055460527" lon="11.786516672714471" id="-38543">
		<tag k="name" v="Djupmyra" />
		<tag k="natural" v="wetland" />
		<tag k="ssr:stedsnr" v="543812" />
	</node>
	<node lat="61.01822222499922" lon="11.717958334065212" id="-38548">
		<tag k="name" v="Lemyrstykket" />
		<tag k="place" v="locality" />
		<tag k="ssr:stedsnr" v="544417" />
	</node>
	<node lat="60.98222777349304" lon="11.638619448615167" id="-38551">
		<tag k="name" v="Nordjordet" />
		<tag k="place" v="locality" />
		<tag k="ssr:stedsnr" v="544577" />
	</node>
	<node lat="60.872422220367596" lon="11.49811944368174" id="-38552">
		<tag k="name" v="Stolpedalsmyra" />
		<tag k="natural" v="wetland" />
		<tag k="ssr:stedsnr" v="544590" />
	</node>
	<node lat="61.0233083339104" lon="11.749247217797137" id="-38555">
		<tag k="name" v="Lykkja" />
		<tag k="place" v="locality" />
		<tag k="ssr:stedsnr" v="553202" />
	</node>
	<node lat="61.0157999977157" lon="11.549549993989006" id="-38556">
		<tag k="name" v="Tresnippen" />
		<tag k="place" v="locality" />
		<tag k="ssr:stedsnr" v="553204" />
	</node>
	<node lat="61.01648611381183" lon="11.817900006379993" id="-38557">
		<tag k="name" v="Røtkjølen" />
		<tag k="natural" v="wetland" />
		<tag k="ssr:stedsnr" v="553205" />
	</node>
	<node lat="60.977649996456144" lon="11.542788883827624" id="-38569">
		<tag k="name" v="Lemyra" />
		<tag k="natural" v="wetland" />
		<tag k="ssr:stedsnr" v="555057" />
	</node>
	<node lat="60.86083888754986" lon="11.810469436809344" id="-38582">
		<tag k="alt_name" v="Langmyra, vestre" />
		<tag k="name" v="Vestre Langmyra" />
		<tag k="natural" v="wetland" />
		<tag k="ssr:stedsnr" v="555179" />
	</node>
	<node lat="61.025858331992026" lon="12.071769449110986" id="-38603">
		<tag k="name" v="Halvvegessteinen" />
		<tag k="natural" v="stone" />
		<tag k="ssr:stedsnr" v="586557" />
	</node>
	<node lat="60.91291666454454" lon="11.63688610857939" id="-38604">
		<tag k="landuse" v="meadow" />
		<tag k="name" v="Nistilkroken" />
		<tag k="ssr:stedsnr" v="587109" />
	</node>
	<node lat="60.923541664751774" lon="11.58285278230022" id="-38605">
		<tag k="name" v="Vindfallet" />
		<tag k="place" v="locality" />
		<tag k="ssr:stedsnr" v="587123" />
	</node>
	<node lat="60.9806083373797" lon="12.082622221048128" id="-38614">
		<tag k="name" v="Nordre Orrleikkjølen" />
		<tag k="natural" v="wetland" />
		<tag k="ssr:stedsnr" v="600522" />
	</node>
	<node lat="61.02912500188991" lon="11.511952772157747" id="-38623">
		<tag k="name" v="Aksalmyra" />
		<tag k="natural" v="wetland" />
		<tag k="ssr:stedsnr" v="601902" />
	</node>
	<node lat="61.03073611134245" lon="11.52625833572167" id="-38627">
		<tag k="name" v="Kontusmarka" />
		<tag k="place" v="locality" />
		<tag k="ssr:stedsnr" v="601899" />
	</node>
	<node lat="61.091566662567146" lon="11.789497212985738" id="-38632">
		<tag k="name" v="Mellomkjølen" />
		<tag k="natural" v="wetland" />
		<tag k="ssr:stedsnr" v="603076" />
	</node>
	<node lat="60.87063055338831" lon="11.480333340372106" id="-38640">
		<tag k="name" v="Stolpdalsmyra" />
		<tag k="natural" v="wetland" />
		<tag k="ssr:stedsnr" v="604623" />
	</node>
	<node lat="61.00647778105441" lon="11.906997217607698" id="-38647">
		<tag k="name" v="Knappkjølen" />
		<tag k="natural" v="wetland" />
		<tag k="ssr:stedsnr" v="614849" />
	</node>
	<node lat="60.88178333445364" lon="11.488583329797754" id="-38666">
		<tag k="name" v="Gampmyra" />
		<tag k="natural" v="wetland" />
		<tag k="ssr:stedsnr" v="616124" />
	</node>
	<node lat="60.91493610773862" lon="11.650088880618522" id="-38683">
		<tag k="name" v="Skjulstadmarka" />
		<tag k="place" v="locality" />
		<tag k="ssr:stedsnr" v="647125" />
	</node>
	<node lat="61.10326111307089" lon="11.599672222979944" id="-38692">
		<tag k="name" v="Øvre Måsåmyra" />
		<tag k="natural" v="wetland" />
		<tag k="ssr:stedsnr" v="648649" />
	</node>
	<node lat="61.00627777944602" lon="11.50230832990255" id="-38695">
		<tag k="name" v="Rismyra" />
		<tag k="natural" v="wetland" />
		<tag k="ssr:stedsnr" v="707782" />
	</node>
	<node lat="61.0105805550102" lon="11.512491669445197" id="-38696">
		<tag k="name" v="Lemyra" />
		<tag k="natural" v="wetland" />
		<tag k="ssr:stedsnr" v="707785" />
	</node>
	<node lat="60.902872220275874" lon="11.672363882310957" id="-38697">
		<tag k="name" v="Langmyrkorsen" />
		<tag k="natural" v="wetland" />
		<tag k="ssr:stedsnr" v="707796" />
	</node>
	<node lat="60.90048055370229" lon="11.681708341618904" id="-38698">
		<tag k="landuse" v="meadow" />
		<tag k="name" v="Husrønningen" />
		<tag k="ssr:stedsnr" v="707797" />
	</node>
	<node lat="61.0159833289749" lon="12.055816668220283" id="-38704">
		<tag k="name" v="Gråbergsvadfloen" />
		<tag k="natural" v="wetland" />
		<tag k="ssr:stedsnr" v="707551" />
	</node>
	<node lat="60.908016664215836" lon="11.638238896569305" id="-38715">
		<tag k="landuse" v="meadow" />
		<tag k="name" v="Larsrønningen" />
		<tag k="ssr:stedsnr" v="709109" />
	</node>
	<node lat="60.91516666708949" lon="11.56021111773533" id="-38716">
		<tag k="name" v="Elgbakken" />
		<tag k="place" v="locality" />
		<tag k="ssr:stedsnr" v="709133" />
	</node>
	<node lat="60.964044444733446" lon="11.84932499812093" id="-38717">
		<tag k="name" v="Ruskåsmyra" />
		<tag k="natural" v="wetland" />
		<tag k="ssr:stedsnr" v="709184" />
	</node>
	<node lat="60.966897224001066" lon="11.550033337481802" id="-38719">
		<tag k="name" v="Skarpberget" />
		<tag k="place" v="locality" />
		<tag k="ssr:stedsnr" v="662722" />
	</node>
	<node lat="60.93956667012224" lon="11.457694438857557" id="-38724">
		<tag k="name" v="Bjørnmyra" />
		<tag k="natural" v="wetland" />
		<tag k="ssr:stedsnr" v="663685" />
	</node>
	<node lat="60.93433889279281" lon="11.456724992796094" id="-38725">
		<tag k="name" v="Eslemyra" />
		<tag k="natural" v="wetland" />
		<tag k="ssr:stedsnr" v="663692" />
	</node>
	<node lat="60.996855551745085" lon="11.990833327500441" id="-38738">
		<tag k="name" v="Øvre Vårmorkjølen" />
		<tag k="natural" v="wetland" />
		<tag k="ssr:stedsnr" v="709923" />
	</node>
	<node lat="60.909433335697685" lon="11.914688879933204" id="-38751">
		<tag k="name" v="Østre Gildermyra" />
		<tag k="natural" v="wetland" />
		<tag k="ssr:stedsnr" v="891090" />
	</node>
	<node lat="61.13067500274322" lon="11.733133334141293" id="-38753">
		<tag k="name" v="Kavlbrukjølen" />
		<tag k="natural" v="wetland" />
		<tag k="ssr:stedsnr" v="675148" />
	</node>
	<node lat="61.00187777564031" lon="11.814280560567019" id="-38756">
		<tag k="name" v="Husmyra" />
		<tag k="natural" v="wetland" />
		<tag k="ssr:stedsnr" v="675018" />
	</node>
	<node lat="61.036880552994724" lon="11.695672222921926" id="-38779">
		<tag k="historic" v="shieling" />
		<tag k="name" v="Anderssætra" />
		<tag k="place" v="locality" />
		<tag k="ssr:stedsnr" v="891346" />
	</node>
	<node lat="60.996088888222566" lon="11.661388896904445" id="-38788">
		<tag k="name" v="Rølikjølen" />
		<tag k="natural" v="wetland" />
		<tag k="ssr:stedsnr" v="677981" />
	</node>
	<node lat="61.07541111160858" lon="11.69303888710182" id="-38816">
		<tag k="name" v="Svenskmyra" />
		<tag k="natural" v="wetland" />
		<tag k="ssr:stedsnr" v="723623" />
	</node>
	<node lat="60.90758055184035" lon="11.687911103087716" id="-38832">
		<tag k="name" v="Rogstadrønningsmyra" />
		<tag k="natural" v="wetland" />
		<tag k="ssr:stedsnr" v="726126" />
	</node>
	<node lat="61.00469722160295" lon="11.55051667385372" id="-38833">
		<tag k="name" v="Øksetmyra" />
		<tag k="natural" v="wetland" />
		<tag k="ssr:stedsnr" v="726607" />
	</node>
	<node lat="61.00699444435752" lon="11.607072220078914" id="-38834">
		<tag k="landuse" v="meadow" />
		<tag k="name" v="Gjefsåsrønningen" />
		<tag k="ssr:stedsnr" v="726609" />
	</node>
	<node lat="61.12516666458761" lon="11.772538888593937" id="-38835">
		<tag k="name" v="Brattkjølen" />
		<tag k="natural" v="wetland" />
		<tag k="ssr:stedsnr" v="726577" />
	</node>
	<node lat="60.940027776353915" lon="11.581075004528318" id="-38845">
		<tag k="alt_name" v="Nordre Stavåsmyra" />
		<tag k="name" v="Stavåsmyra" />
		<tag k="natural" v="wetland" />
		<tag k="ssr:stedsnr" v="737092" />
	</node>
	<node lat="61.050247219337834" lon="11.637602784729088" id="-38864">
		<tag k="name" v="Klokkerrønningen" />
		<tag k="place" v="locality" />
		<tag k="ssr:stedsnr" v="905562" />
	</node>
	<node lat="61.08666666373441" lon="11.604125002693817" id="-38872">
		<tag k="landuse" v="meadow" />
		<tag k="name" v="Røtosengen" />
		<tag k="ssr:stedsnr" v="905939" />
	</node>
	<node lat="61.09388055344274" lon="11.5888833297782" id="-38873">
		<tag k="landuse" v="meadow" />
		<tag k="name" v="Børønningen" />
		<tag k="ssr:stedsnr" v="905940" />
	</node>
	<node lat="60.977725003367546" lon="11.522866663626235" id="-38880">
		<tag k="name" v="Storstensmyra" />
		<tag k="natural" v="wetland" />
		<tag k="ssr:stedsnr" v="768805" />
	</node>
	<node lat="61.01382222447759" lon="11.355549996458938" id="-38890">
		<tag k="name" v="Bergmyra" />
		<tag k="natural" v="wetland" />
		<tag k="ssr:stedsnr" v="907539" />
	</node>
	<node lat="60.83405000204707" lon="11.531244451758026" id="-38900">
		<tag k="name" v="Kolbotnmyra" />
		<tag k="natural" v="wetland" />
		<tag k="ssr:stedsnr" v="907542" />
	</node>
	<node lat="61.092769445632925" lon="11.774411104026827" id="-38901">
		<tag k="historic" v="shieling" />
		<tag k="name" v="Skjærvik" />
		<tag k="place" v="locality" />
		<tag k="ssr:stedsnr" v="907589" />
	</node>
	<node lat="60.914100001299964" lon="11.664569448374607" id="-38912">
		<tag k="name" v="Rørmyra" />
		<tag k="natural" v="wetland" />
		<tag k="ssr:stedsnr" v="908143" />
	</node>
	<node lat="60.91278611197843" lon="11.692752780696374" id="-38913">
		<tag k="name" v="Kvernmyra" />
		<tag k="natural" v="wetland" />
		<tag k="ssr:stedsnr" v="908145" />
	</node>
	<node lat="60.94101111234643" lon="11.83579722378109" id="-38920">
		<tag k="name" v="Skjærmyra" />
		<tag k="natural" v="wetland" />
		<tag k="ssr:stedsnr" v="908874" />
	</node>
	<node lat="60.95344722524707" lon="11.627750007712415" id="-38929">
		<tag k="name" v="Vardemyrene" />
		<tag k="natural" v="wetland" />
		<tag k="ssr:stedsnr" v="783703" />
	</node>
	<node lat="60.97020555343885" lon="11.566663887821015" id="-38930">
		<tag k="name" v="Disenkjølen" />
		<tag k="natural" v="wetland" />
		<tag k="ssr:stedsnr" v="783708" />
	</node>
	<node lat="60.96195278202612" lon="11.651844446571001" id="-38931">
		<tag k="landuse" v="meadow" />
		<tag k="name" v="Horndalsengene" />
		<tag k="ssr:stedsnr" v="783701" />
	</node>
	<node lat="61.06086667126999" lon="11.688705547390294" id="-38933">
		<tag k="name" v="Skjæråskjølen" />
		<tag k="natural" v="wetland" />
		<tag k="ssr:stedsnr" v="784668" />
	</node>
	<node lat="60.87579721802923" lon="11.605758336494981" id="-38935">
		<tag k="name" v="Fuglemyra" />
		<tag k="natural" v="wetland" />
		<tag k="ssr:stedsnr" v="785018" />
	</node>
	<node lat="61.0103777819825" lon="11.313752770741798" id="-38940">
		<tag k="name" v="Småtjennsmyrene" />
		<tag k="natural" v="wetland" />
		<tag k="ssr:stedsnr" v="785560" />
	</node>
	<node lat="60.88564444395258" lon="11.860038889464766" id="-38944">
		<tag k="name" v="Tollefsmyra" />
		<tag k="natural" v="wetland" />
		<tag k="ssr:stedsnr" v="786822" />
	</node>
	<node lat="60.91485555706564" lon="11.496958328029434" id="-38949">
		<tag k="name" v="Kvernmyra" />
		<tag k="natural" v="wetland" />
		<tag k="ssr:stedsnr" v="787642" />
	</node>
	<node lat="60.92836388815409" lon="11.458155547268513" id="-38950">
		<tag k="name" v="Langmyra" />
		<tag k="natural" v="wetland" />
		<tag k="ssr:stedsnr" v="787572" />
	</node>
	<node lat="61.071725001988526" lon="11.714424996789884" id="-38957">
		<tag k="name" v="Løvmyra" />
		<tag k="natural" v="wetland" />
		<tag k="ssr:stedsnr" v="796203" />
	</node>
	<node lat="61.05914999716852" lon="11.814061105987562" id="-38959">
		<tag k="name" v="Bergerkjølen" />
		<tag k="natural" v="wetland" />
		<tag k="ssr:stedsnr" v="796218" />
	</node>
	<node lat="60.80342778110453" lon="11.77716666289353" id="-38973">
		<tag k="name" v="Kalvmyra" />
		<tag k="natural" v="wetland" />
		<tag k="ssr:stedsnr" v="798247" />
	</node>
	<node lat="60.82603888949072" lon="11.81648055221444" id="-38976">
		<tag k="loc_name" v="Breimyra" />
		<tag k="name" v="Breidmyra" />
		<tag k="natural" v="wetland" />
		<tag k="ssr:stedsnr" v="798262" />
	</node>
	<node lat="60.79627499815375" lon="11.577797217279311" id="-38993">
		<tag k="name" v="Svevollen" />
		<tag k="place" v="locality" />
		<tag k="ssr:stedsnr" v="798302" />
	</node>
	<node lat="60.987130557220695" lon="11.66115555861186" id="-39002">
		<tag k="name" v="Hushaugkjølen" />
		<tag k="natural" v="wetland" />
		<tag k="ssr:stedsnr" v="798990" />
	</node>
	<node lat="60.96627499557987" lon="11.883550004786274" id="-39016">
		<tag k="name" v="Høkmyra" />
		<tag k="natural" v="wetland" />
		<tag k="ssr:stedsnr" v="920360" />
	</node>
	<node lat="60.894100003699" lon="11.69110278434545" id="-39022">
		<tag k="name" v="Fjøsmyra" />
		<tag k="natural" v="wetland" />
		<tag k="ssr:stedsnr" v="919138" />
	</node>
	<node lat="60.82673333392503" lon="11.765097216299678" id="-39029">
		<tag k="name" v="Bløtmyra" />
		<tag k="natural" v="wetland" />
		<tag k="ssr:stedsnr" v="919290" />
	</node>
	<node lat="60.94317221866358" lon="12.093449996732971" id="-39034">
		<tag k="name" v="Benkemyra" />
		<tag k="natural" v="wetland" />
		<tag k="ssr:stedsnr" v="919466" />
	</node>
	<node lat="60.81948888521429" lon="11.945550007468608" id="-39038">
		<tag k="name" v="Kumyra" />
		<tag k="natural" v="wetland" />
		<tag k="ssr:stedsnr" v="919572" />
	</node>
	<node lat="60.82026111519889" lon="11.920236117375685" id="-39040">
		<tag k="name" v="Tjennsbergmyra" />
		<tag k="natural" v="wetland" />
		<tag k="ssr:stedsnr" v="919577" />
	</node>
	<node lat="60.93330000276228" lon="11.433975007064232" id="-39050">
		<tag k="name" v="Grundsetskogen" />
		<tag k="place" v="locality" />
		<tag k="ssr:stedsnr" v="920615" />
	</node>
	<node lat="60.964416666906054" lon="11.952749997053651" id="-39055">
		<tag k="name" v="Storkjølen" />
		<tag k="natural" v="wetland" />
		<tag k="ssr:stedsnr" v="829416" />
	</node>
	<node lat="61.01127222456487" lon="11.488822228149543" id="-39065">
		<tag k="name" v="Fugleleiken" />
		<tag k="place" v="locality" />
		<tag k="ssr:stedsnr" v="829775" />
	</node>
	<node lat="60.83901944394011" lon="11.534458340518496" id="-39084">
		<tag k="name" v="Fløtningsmyra" />
		<tag k="natural" v="wetland" />
		<tag k="ssr:stedsnr" v="846575" />
	</node>
	<node lat="60.937769441304155" lon="11.493308337899695" id="-39086">
		<tag k="name" v="Motakmyra" />
		<tag k="natural" v="wetland" />
		<tag k="ssr:stedsnr" v="846626" />
	</node>
	<node lat="61.02502221943533" lon="11.786613884938875" id="-39089">
		<tag k="name" v="Svartbekkrønningen" />
		<tag k="place" v="locality" />
		<tag k="ssr:stedsnr" v="847021" />
	</node>
	<node lat="60.90812222370357" lon="11.869300000861626" id="-39092">
		<tag k="name" v="Vintermyra" />
		<tag k="natural" v="wetland" />
		<tag k="ssr:stedsnr" v="847830" />
	</node>
	<node lat="61.0203527770919" lon="11.88773889626725" id="-39094">
		<tag k="landuse" v="meadow" />
		<tag k="name" v="Tittnabbstranda" />
		<tag k="ssr:stedsnr" v="848125" />
	</node>
	<node lat="60.812800003539714" lon="11.927997231271942" id="-39096">
		<tag k="name" v="Dansketjennsmyra" />
		<tag k="natural" v="wetland" />
		<tag k="ssr:stedsnr" v="848089" />
	</node>
	<node lat="60.94136389030679" lon="11.823375001933364" id="-39103">
		<tag k="name" v="Tovmyra" />
		<tag k="natural" v="wetland" />
		<tag k="ssr:stedsnr" v="848823" />
	</node>
	<node lat="61.130624996982355" lon="11.820033326087012" id="-39105">
		<tag k="name" v="Graslandskjølen" />
		<tag k="natural" v="wetland" />
		<tag k="ssr:stedsnr" v="857136" />
	</node>
	<node lat="61.04262499877564" lon="11.857830547121127" id="-39114">
		<tag k="name" v="Ulvåkjølen" />
		<tag k="natural" v="wetland" />
		<tag k="ssr:stedsnr" v="857890" />
	</node>
	<node lat="61.10076110825661" lon="11.785858335951646" id="-39118">
		<tag k="name" v="Steinkjølen" />
		<tag k="natural" v="wetland" />
		<tag k="ssr:stedsnr" v="858189" />
	</node>
	<node lat="61.00177777979501" lon="11.494916673183347" id="-39145">
		<tag k="name" v="Eggemyra" />
		<tag k="natural" v="wetland" />
		<tag k="ssr:stedsnr" v="890806" />
	</node>
	<node lat="61.09802777781855" lon="11.60957778390555" id="-39152">
		<tag k="name" v="Slåttmyra" />
		<tag k="natural" v="wetland" />
		<tag k="ssr:stedsnr" v="891958" />
	</node>
	<node lat="60.869213891044616" lon="11.598269450384526" id="-39160">
		<tag k="name" v="Stormyra" />
		<tag k="natural" v="wetland" />
		<tag k="ssr:stedsnr" v="907014" />
	</node>
	<node lat="61.01501389062595" lon="11.850625001397466" id="-39186">
		<tag k="name" v="Fløta" />
		<tag k="natural" v="wetland" />
		<tag k="ssr:stedsnr" v="918922" />
	</node>
	<node lat="60.86220000390757" lon="11.648466667363959" id="-39212">
		<tag k="name" v="Lisætermyra" />
		<tag k="natural" v="wetland" />
		<tag k="ssr:stedsnr" v="920220" />
	</node>
	<node lat="60.947966667089474" lon="11.562272224765975" id="-39226">
		<tag k="name" v="Barbrenna" />
		<tag k="place" v="locality" />
		<tag k="ssr:stedsnr" v="950078" />
	</node>
	<node lat="61.065486110648486" lon="11.836052778017034" id="-39268">
		<tag k="landuse" v="meadow" />
		<tag k="name" v="Gottenborgstranda" />
		<tag k="ssr:stedsnr" v="968110" />
	</node>
	<node lat="61.06105555943851" lon="11.80015554827446" id="-39269">
		<tag k="name" v="Tuvmyra" />
		<tag k="natural" v="wetland" />
		<tag k="ssr:stedsnr" v="968111" />
	</node>
	<node lat="60.85365000103797" lon="11.638797214049081" id="-39272">
		<tag k="name" v="Langmyra" />
		<tag k="natural" v="wetland" />
		<tag k="ssr:stedsnr" v="968610" />
	</node>
	<node lat="61.01541944519724" lon="11.456580554287946" id="-39282">
		<tag k="name" v="Folesvea" />
		<tag k="place" v="locality" />
		<tag k="ssr:stedsnr" v="969800" />
	</node>
	<node lat="61.07173610683842" lon="11.736633336033128" id="-39287">
		<tag k="name" v="Elgkjølen" />
		<tag k="natural" v="wetland" />
		<tag k="ssr:stedsnr" v="7175" />
	</node>
	<node lat="61.06321666985059" lon="11.986652779190583" id="-39292">
		<tag k="name" v="Svankjølen" />
		<tag k="natural" v="wetland" />
		<tag k="ssr:stedsnr" v="7929" />
	</node>
	<node lat="61.07098055641935" lon="12.121058326516522" id="-39293">
		<tag k="name" v="Ørtjennmyra" />
		<tag k="natural" v="wetland" />
		<tag k="ssr:stedsnr" v="7934" />
	</node>
	<node lat="61.10394999641518" lon="11.72295554849379" id="-39296">
		<tag k="name" v="Ringsåskjølen" />
		<tag k="natural" v="wetland" />
		<tag k="ssr:stedsnr" v="8199" />
	</node>
	<node lat="61.09437500199801" lon="11.751986113652896" id="-39299">
		<tag k="name" v="Ulvåkjølen" />
		<tag k="natural" v="wetland" />
		<tag k="ssr:stedsnr" v="8174" />
	</node>
	<node lat="60.980391662872755" lon="11.548758329889353" id="-39317">
		<tag k="name" v="Langmyra" />
		<tag k="natural" v="wetland" />
		<tag k="ssr:stedsnr" v="9032" />
	</node>
	<node lat="60.94842500214227" lon="11.441425005418175" id="-39335">
		<tag k="name" v="Ragnhildmyra" />
		<tag k="natural" v="wetland" />
		<tag k="ssr:stedsnr" v="9573" />
	</node>
	<node lat="60.94738611135025" lon="11.475033338250643" id="-39359">
		<tag k="name" v="Maritmyra" />
		<tag k="natural" v="wetland" />
		<tag k="ssr:stedsnr" v="41690" />
	</node>
	<node lat="61.01018888907746" lon="11.333919448337246" id="-39381">
		<tag k="name" v="Fjøsmyra" />
		<tag k="natural" v="wetland" />
		<tag k="ssr:stedsnr" v="57554" />
	</node>
	<node lat="61.048749998590814" lon="11.795777777653147" id="-39394">
		<tag k="landuse" v="meadow" />
		<tag k="name" v="Uthusvollen" />
		<tag k="ssr:stedsnr" v="59084" />
	</node>
	<node lat="60.98135555416253" lon="11.581675001954505" id="-39436">
		<tag k="alt_name" v="Øpinrosa" />
		<tag k="name" v="Øppinrosa" />
		<tag k="natural" v="wetland" />
		<tag k="ssr:stedsnr" v="70054" />
	</node>
	<node lat="60.98847500396329" lon="11.39447499803517" id="-39457">
		<tag k="name" v="Rustadmarka" />
		<tag k="place" v="locality" />
		<tag k="ssr:stedsnr" v="70534" />
	</node>
	<node lat="60.93448610801708" lon="11.449044451292476" id="-39460">
		<tag k="name" v="Tjennslimyra" />
		<tag k="natural" v="wetland" />
		<tag k="ssr:stedsnr" v="70603" />
	</node>
	<node lat="61.0777277742997" lon="12.073880555700415" id="-39461">
		<tag k="name" v="Rønningsmyra" />
		<tag k="natural" v="wetland" />
		<tag k="ssr:stedsnr" v="84169" />
	</node>
	<node lat="61.01996111377997" lon="11.752655559002475" id="-39490">
		<tag k="name" v="Storbekkrønningen" />
		<tag k="place" v="locality" />
		<tag k="ssr:stedsnr" v="116348" />
	</node>
	<node lat="60.92071666758306" lon="11.499902778556843" id="-39494">
		<tag k="name" v="Treerbrenna" />
		<tag k="place" v="locality" />
		<tag k="ssr:stedsnr" v="116629" />
	</node>
	<node lat="60.95561389038458" lon="11.526594442927392" id="-39496">
		<tag k="name" v="Kjurrudalsmyra" />
		<tag k="natural" v="wetland" />
		<tag k="ssr:stedsnr" v="116645" />
	</node>
	<node lat="61.09375277538667" lon="11.574958334845014" id="-39498">
		<tag k="landuse" v="meadow" />
		<tag k="name" v="Håkenengen" />
		<tag k="ssr:stedsnr" v="116934" />
	</node>
	<node lat="60.941286114153144" lon="11.485886111127138" id="-39512">
		<tag k="name" v="Bumyra" />
		<tag k="natural" v="wetland" />
		<tag k="ssr:stedsnr" v="118597" />
	</node>
	<node lat="60.962669440273196" lon="11.435558332664513" id="-39514">
		<tag k="name" v="Veslekjølen" />
		<tag k="natural" v="wetland" />
		<tag k="ssr:stedsnr" v="118746" />
	</node>
	<node lat="60.99784444819712" lon="11.365655562690524" id="-39516">
		<tag k="name" v="Kjeldmyra" />
		<tag k="natural" v="wetland" />
		<tag k="ssr:stedsnr" v="118522" />
	</node>
	<node lat="60.83552500306713" lon="11.498513895920373" id="-39517">
		<tag k="name" v="Rådelsmyra" />
		<tag k="natural" v="wetland" />
		<tag k="ssr:stedsnr" v="118542" />
	</node>
	<node lat="60.889944441428256" lon="11.724569444529315" id="-39523">
		<tag k="historic" v="shieling" />
		<tag k="name" v="Halvorsetvollen" />
		<tag k="place" v="locality" />
		<tag k="ssr:stedsnr" v="119155" />
	</node>
	<node lat="60.83434721919281" lon="11.795052783720609" id="-39531">
		<tag k="name" v="Gunhildbrenna" />
		<tag k="place" v="locality" />
		<tag k="ssr:stedsnr" v="119991" />
	</node>
	<node lat="61.042519447466866" lon="11.495666658575974" id="-39548">
		<tag k="name" v="Hyttmyra" />
		<tag k="natural" v="wetland" />
		<tag k="ssr:stedsnr" v="128166" />
	</node>
	<node lat="61.02325000407847" lon="11.597224991501056" id="-39553">
		<tag k="name" v="Slåttmyra" />
		<tag k="natural" v="wetland" />
		<tag k="ssr:stedsnr" v="129264" />
	</node>
	<node lat="60.90428333359336" lon="11.66086667310574" id="-39563">
		<tag k="name" v="Langmyrkorsen" />
		<tag k="natural" v="wetland" />
		<tag k="ssr:stedsnr" v="130137" />
	</node>
	<node lat="60.841000003136244" lon="11.511638894938738" id="-39566">
		<tag k="name" v="Bjørnholtet" />
		<tag k="place" v="locality" />
		<tag k="ssr:stedsnr" v="130166" />
	</node>
	<node lat="60.98832778098694" lon="11.71771666147886" id="-39578">
		<tag k="name" v="Kloppmyra" />
		<tag k="natural" v="wetland" />
		<tag k="ssr:stedsnr" v="131991" />
	</node>
	<node lat="60.92215555497122" lon="11.605752775868137" id="-39600">
		<tag k="name" v="Stabbursholtet" />
		<tag k="place" v="locality" />
		<tag k="ssr:stedsnr" v="162094" />
	</node>
	<node lat="60.88265000375813" lon="11.687527776006435" id="-39601">
		<tag k="name" v="Elverumsengene" />
		<tag k="place" v="locality" />
		<tag k="ssr:stedsnr" v="162933" />
	</node>
	<node lat="61.01670555388061" lon="11.733483332906744" id="-39621">
		<tag k="loc_name" v="Godbakkrønningen" />
		<tag k="name" v="Gobakkrønningen" />
		<tag k="place" v="locality" />
		<tag k="ssr:stedsnr" v="177939" />
	</node>
	<node lat="61.09361666671964" lon="11.58672777010728" id="-39622">
		<tag k="landuse" v="meadow" />
		<tag k="name" v="Strandrønningen" />
		<tag k="ssr:stedsnr" v="177940" />
	</node>
	<node lat="60.83932499975855" lon="11.635244450506585" id="-39624">
		<tag k="name" v="Bjørnåsen" />
		<tag k="place" v="locality" />
		<tag k="ssr:stedsnr" v="177988" />
	</node>
	<node lat="60.87059166783753" lon="11.896927770077852" id="-39625">
		<tag k="name" v="Stensmyra" />
		<tag k="natural" v="wetland" />
		<tag k="ssr:stedsnr" v="178085" />
	</node>
	<node lat="60.987069443752695" lon="11.899636103823022" id="-39639">
		<tag k="historic" v="shieling" />
		<tag k="name" v="Høgberget sæter" />
		<tag k="place" v="locality" />
		<tag k="ssr:stedsnr" v="180020" />
	</node>
	<node lat="60.91007499757254" lon="11.67140000771625" id="-39641">
		<tag k="name" v="Stormyra" />
		<tag k="natural" v="wetland" />
		<tag k="ssr:stedsnr" v="180132" />
	</node>
	<node lat="60.84534999584874" lon="11.50189722970233" id="-39644">
		<tag k="name" v="Gildretjennskjølen" />
		<tag k="natural" v="wetland" />
		<tag k="ssr:stedsnr" v="180588" />
	</node>
	<node lat="60.87648333597866" lon="11.516188896220743" id="-39645">
		<tag k="name" v="Fuglemyra" />
		<tag k="natural" v="wetland" />
		<tag k="ssr:stedsnr" v="180591" />
	</node>
	<node lat="61.05587499713976" lon="11.802133324284956" id="-39651">
		<tag k="name" v="Åsmyra" />
		<tag k="natural" v="wetland" />
		<tag k="ssr:stedsnr" v="189195" />
	</node>
	<node lat="61.01576388575193" lon="12.025697219378513" id="-39684">
		<tag k="alt_name" v="Juskjølen;Jysskjølen" />
		<tag k="name" v="Gyskjølen" />
		<tag k="natural" v="wetland" />
		<tag k="ssr:stedsnr" v="191386" />
	</node>
	<node lat="60.982661108373605" lon="12.019697228667065" id="-39685">
		<tag k="name" v="Vårmorkjølen" />
		<tag k="natural" v="wetland" />
		<tag k="ssr:stedsnr" v="191387" />
	</node>
	<node lat="60.99503611057817" lon="11.51402777739624" id="-39695">
		<tag k="landuse" v="meadow" />
		<tag k="name" v="Svanåsrønningen" />
		<tag k="ssr:stedsnr" v="191965" />
	</node>
	<node lat="60.860055558441225" lon="11.639224995281419" id="-39698">
		<tag k="name" v="Skjærmyra" />
		<tag k="natural" v="wetland" />
		<tag k="ssr:stedsnr" v="192244" />
	</node>
	<node lat="61.041799999738416" lon="11.919091666881314" id="-39700">
		<tag k="name" v="Langjordet" />
		<tag k="natural" v="wetland" />
		<tag k="ssr:stedsnr" v="206139" />
	</node>
	<node lat="60.99043333012097" lon="11.50435834177049" id="-39710">
		<tag k="landuse" v="meadow" />
		<tag k="name" v="Dalsenga" />
		<tag k="ssr:stedsnr" v="222761" />
	</node>
	<node lat="61.03820555381057" lon="11.70727778178677" id="-39713">
		<tag k="name" v="Løvhaugmyra" />
		<tag k="natural" v="wetland" />
		<tag k="ssr:stedsnr" v="223320" />
	</node>
	<node lat="61.05901110707724" lon="11.638205562925373" id="-39717">
		<tag k="name" v="Merramyra" />
		<tag k="natural" v="wetland" />
		<tag k="ssr:stedsnr" v="223974" />
	</node>
	<node lat="60.945888893095685" lon="11.64275833084181" id="-39718">
		<tag k="landuse" v="meadow" />
		<tag k="name" v="Gravningen" />
		<tag k="ssr:stedsnr" v="224094" />
	</node>
	<node lat="60.89161111153256" lon="11.501166673363198" id="-39727">
		<tag k="landuse" v="meadow" />
		<tag k="name" v="Heyerdalsrønningen" />
		<tag k="ssr:stedsnr" v="284619" />
	</node>
	<node lat="60.911699998752326" lon="11.912174997515963" id="-39734">
		<tag k="name" v="Vestre Gildermyra" />
		<tag k="natural" v="wetland" />
		<tag k="ssr:stedsnr" v="284068" />
	</node>
	<node lat="60.94777777637171" lon="11.500877773117995" id="-39748">
		<tag k="landuse" v="meadow" />
		<tag k="name" v="Enga" />
		<tag k="ssr:stedsnr" v="300644" />
	</node>
	<node lat="60.980113885820295" lon="11.4102000014053" id="-39754">
		<tag k="name" v="Hansmyra" />
		<tag k="natural" v="wetland" />
		<tag k="ssr:stedsnr" v="298539" />
	</node>
	<node lat="60.95819721946791" lon="11.59491943624896" id="-39757">
		<tag k="name" v="Møystadstumyra" />
		<tag k="natural" v="wetland" />
		<tag k="ssr:stedsnr" v="298688" />
	</node>
	<node lat="60.959327775900285" lon="11.436274994597232" id="-39765">
		<tag k="name" v="Slåttmyra" />
		<tag k="natural" v="wetland" />
		<tag k="ssr:stedsnr" v="300763" />
	</node>
	<node lat="60.77128611518541" lon="11.738441666302093" id="-39768">
		<tag k="name" v="Rokmyra" />
		<tag k="natural" v="wetland" />
		<tag k="ssr:stedsnr" v="301278" />
	</node>
	<node lat="60.880294446454" lon="11.51652221673622" id="-39773">
		<tag k="name" v="Svartmyra" />
		<tag k="natural" v="wetland" />
		<tag k="ssr:stedsnr" v="301595" />
	</node>
	<node lat="60.768955554502675" lon="11.77425556037058" id="-39806">
		<tag k="name" v="Stormyra" />
		<tag k="natural" v="wetland" />
		<tag k="ssr:stedsnr" v="312328" />
	</node>
	<node lat="60.98505277900397" lon="11.38937500377546" id="-39814">
		<tag k="name" v="Lassmyra" />
		<tag k="natural" v="wetland" />
		<tag k="ssr:stedsnr" v="312554" />
	</node>
	<node lat="60.87057778188829" lon="11.690283329118136" id="-39817">
		<tag k="name" v="Skrivermyra" />
		<tag k="natural" v="wetland" />
		<tag k="ssr:stedsnr" v="313231" />
	</node>
	<node lat="60.96894999956727" lon="11.424350003666257" id="-39821">
		<tag k="name" v="Storkjølen" />
		<tag k="natural" v="wetland" />
		<tag k="ssr:stedsnr" v="313539" />
	</node>
	<node lat="60.878194444718055" lon="11.6894722142905" id="-39825">
		<tag k="name" v="Engemyra" />
		<tag k="natural" v="wetland" />
		<tag k="ssr:stedsnr" v="313146" />
	</node>
	<node lat="60.819086112828884" lon="11.750949997580966" id="-39831">
		<tag k="name" v="Melåsmyra" />
		<tag k="natural" v="wetland" />
		<tag k="ssr:stedsnr" v="313297" />
	</node>
	<node lat="60.945925000221614" lon="11.418100006641028" id="-39833">
		<tag k="name" v="Kvitkjølen" />
		<tag k="natural" v="wetland" />
		<tag k="ssr:stedsnr" v="313573" />
	</node>
	<node lat="60.93182221958645" lon="11.576324995409887" id="-39849">
		<tag k="name" v="Søndre Stavåsmyra" />
		<tag k="natural" v="wetland" />
		<tag k="ssr:stedsnr" v="343070" />
	</node>
	<node lat="61.053750004009906" lon="11.566997228518003" id="-39856">
		<tag k="name" v="Svellmyra" />
		<tag k="natural" v="wetland" />
		<tag k="ssr:stedsnr" v="344575" />
	</node>
	<node lat="60.96233611409035" lon="11.870161110714392" id="-39860">
		<tag k="name" v="Oksmyra" />
		<tag k="natural" v="wetland" />
		<tag k="ssr:stedsnr" v="344171" />
	</node>
	<node lat="60.911677776799074" lon="11.905519442128009" id="-39864">
		<tag k="historic" v="shieling" />
		<tag k="name" v="Løvhaugsætra" />
		<tag k="place" v="locality" />
		<tag k="ssr:stedsnr" v="345090" />
	</node>
	<node lat="61.099608333593295" lon="11.597050001271075" id="-39884">
		<tag k="name" v="Nedre Måsåmyra" />
		<tag k="natural" v="wetland" />
		<tag k="ssr:stedsnr" v="359931" />
	</node>
	<node lat="60.944430555816176" lon="11.486700002263913" id="-39892">
		<tag k="name" v="Rustadmyra" />
		<tag k="natural" v="wetland" />
		<tag k="ssr:stedsnr" v="360615" />
	</node>
	<node lat="60.94154999799543" lon="11.520777768470122" id="-39893">
		<tag k="name" v="Brubakken" />
		<tag k="place" v="locality" />
		<tag k="ssr:stedsnr" v="360622" />
	</node>
	<node lat="60.96276944581033" lon="11.452119438439777" id="-39898">
		<tag k="name" v="Kloppmyra" />
		<tag k="natural" v="wetland" />
		<tag k="ssr:stedsnr" v="360747" />
	</node>
	<node lat="60.966991669088806" lon="11.429430549430288" id="-39899">
		<tag k="name" v="Brennkjølen" />
		<tag k="natural" v="wetland" />
		<tag k="ssr:stedsnr" v="360751" />
	</node>
	<node lat="60.89882221884729" lon="11.855791666519766" id="-39903">
		<tag k="name" v="Tørrhaldamyra" />
		<tag k="natural" v="wetland" />
		<tag k="ssr:stedsnr" v="361813" />
	</node>
	<node lat="61.145399999431184" lon="11.781138897293372" id="-39908">
		<tag k="name" v="Røtkjølen" />
		<tag k="natural" v="wetland" />
		<tag k="ssr:stedsnr" v="361917" />
	</node>
	<node lat="61.0417861135934" lon="11.82041667525553" id="-39912">
		<tag k="name" v="Øvre Svartbergsmyra" />
		<tag k="natural" v="wetland" />
		<tag k="ssr:stedsnr" v="362103" />
	</node>
	<node lat="61.01617499776986" lon="11.315783327345159" id="-39915">
		<tag k="name" v="Stortjennsmyra" />
		<tag k="natural" v="wetland" />
		<tag k="ssr:stedsnr" v="362254" />
	</node>
	<node lat="60.91309722529239" lon="11.501322214672514" id="-39923">
		<tag k="name" v="Igletjennsmyra" />
		<tag k="natural" v="wetland" />
		<tag k="ssr:stedsnr" v="362621" />
	</node>
	<node lat="60.8166861107438" lon="11.86762500227058" id="-39930">
		<tag k="name" v="Torvdammyra" />
		<tag k="natural" v="wetland" />
		<tag k="ssr:stedsnr" v="362979" />
	</node>
	<node lat="60.834852773756346" lon="11.828022213070449" id="-39931">
		<tag k="name" v="Hansmyra" />
		<tag k="natural" v="wetland" />
		<tag k="ssr:stedsnr" v="362985" />
	</node>
	<node lat="60.97521110823298" lon="11.563741661787267" id="-39933">
		<tag k="name" v="Disen" />
		<tag k="natural" v="wetland" />
		<tag k="ssr:stedsnr" v="373032" />
	</node>
	<node lat="61.11842499819434" lon="11.70574999181437" id="-39935">
		<tag k="name" v="Kavlemyra" />
		<tag k="natural" v="wetland" />
		<tag k="ssr:stedsnr" v="371137" />
	</node>
	<node lat="61.075675002203134" lon="11.794724997538172" id="-39939">
		<tag k="name" v="Ankjølen" />
		<tag k="natural" v="wetland" />
		<tag k="ssr:stedsnr" v="371166" />
	</node>
	<node lat="60.86907499996885" lon="11.806452786768698" id="-39991">
		<tag k="name" v="Buamyra" />
		<tag k="natural" v="wetland" />
		<tag k="ssr:stedsnr" v="495248" />
	</node>
	<node lat="60.93729999904877" lon="11.592777785100203" id="-39999">
		<tag k="name" v="Hølbjørka" />
		<tag k="place" v="locality" />
		<tag k="ssr:stedsnr" v="404066" />
	</node>
	<node lat="61.002466663172356" lon="11.50145833792508" id="-40003">
		<tag k="name" v="Karlsmyra" />
		<tag k="natural" v="wetland" />
		<tag k="ssr:stedsnr" v="404764" />
	</node>
	<node lat="60.96670555442939" lon="11.875472226922842" id="-40007">
		<tag k="name" v="Annemyra" />
		<tag k="natural" v="wetland" />
		<tag k="ssr:stedsnr" v="405133" />
	</node>
	<node lat="60.96682222096274" lon="11.854352782930413" id="-40009">
		<tag k="name" v="Jordsmyra" />
		<tag k="natural" v="wetland" />
		<tag k="ssr:stedsnr" v="405172" />
	</node>
	<node lat="61.08040555381549" lon="11.643791663756028" id="-40011">
		<tag k="name" v="Storkjølen" />
		<tag k="natural" v="wetland" />
		<tag k="ssr:stedsnr" v="405958" />
	</node>
	<node lat="60.84671666627338" lon="11.585422219672601" id="-40033">
		<tag k="name" v="Haugsenga" />
		<tag k="place" v="locality" />
		<tag k="ssr:stedsnr" v="421048" />
	</node>
	<node lat="60.942497220814325" lon="11.461950005641118" id="-40041">
		<tag k="name" v="Storstensmoen" />
		<tag k="place" v="locality" />
		<tag k="ssr:stedsnr" v="421674" />
	</node>
	<node lat="60.91328611008781" lon="11.473013894807416" id="-40042">
		<tag k="name" v="Langmyra" />
		<tag k="natural" v="wetland" />
		<tag k="ssr:stedsnr" v="421682" />
	</node>
	<node lat="60.834344763036526" lon="11.579428934568774" id="-40049">
		<tag k="fixme" v="multiple name tags, choose one and add the other to alt_name" />
		<tag k="name" v="Lintjennsmyra;Hestmyra" />
		<tag k="natural" v="wetland" />
		<tag k="ssr:stedsnr" v="422985" />
	</node>
	<node lat="61.016824996251856" lon="11.90031389543975" id="-40050">
		<tag k="landuse" v="meadow" />
		<tag k="name" v="Syverstranda" />
		<tag k="ssr:stedsnr" v="423116" />
	</node>
	<node lat="60.91078332956864" lon="11.67678332909023" id="-40052">
		<tag k="name" v="Flisbanehaugen" />
		<tag k="place" v="locality" />
		<tag k="ssr:stedsnr" v="423130" />
	</node>
	<node lat="60.914174997055106" lon="11.696886106313306" id="-40054">
		<tag k="name" v="Amundsmyra" />
		<tag k="natural" v="wetland" />
		<tag k="ssr:stedsnr" v="423138" />
	</node>
	<node lat="60.90718332987069" lon="11.695805552083518" id="-40057">
		<tag k="landuse" v="meadow" />
		<tag k="name" v="Rogstadrønningen" />
		<tag k="ssr:stedsnr" v="423140" />
	</node>
	<node lat="61.142027779271224" lon="11.793775005263095" id="-40065">
		<tag k="name" v="Vierriskjølen" />
		<tag k="natural" v="wetland" />
		<tag k="ssr:stedsnr" v="432152" />
	</node>
	<node lat="60.78651666919733" lon="11.790644436920111" id="-40131">
		<tag k="name" v="Gråbeinmyra" />
		<tag k="natural" v="wetland" />
		<tag k="ssr:stedsnr" v="525336" />
	</node>
	<node lat="60.98043333032968" lon="11.513886105343584" id="-40141">
		<tag k="name" v="Veslemyra" />
		<tag k="natural" v="wetland" />
		<tag k="ssr:stedsnr" v="525748" />
	</node>
	<node lat="60.99436110728364" lon="11.495788894279205" id="-40142">
		<tag k="name" v="Vintermyra" />
		<tag k="natural" v="wetland" />
		<tag k="ssr:stedsnr" v="525752" />
	</node>
	<node lat="60.88184444587675" lon="11.759505552614476" id="-40152">
		<tag k="name" v="Mangmannsmyra" />
		<tag k="natural" v="wetland" />
		<tag k="ssr:stedsnr" v="526945" />
	</node>
	<node lat="61.06285278201738" lon="11.639705556626108" id="-40153">
		<tag k="name" v="Langmyra" />
		<tag k="natural" v="wetland" />
		<tag k="ssr:stedsnr" v="526964" />
	</node>
	<node lat="61.05306666464461" lon="11.727086109185334" id="-40156">
		<tag k="name" v="Nyberget" />
		<tag k="place" v="locality" />
		<tag k="ssr:stedsnr" v="527270" />
	</node>
	<node lat="61.00816666345037" lon="11.38203888345195" id="-40164">
		<tag k="name" v="Langmyra" />
		<tag k="natural" v="wetland" />
		<tag k="ssr:stedsnr" v="540562" />
	</node>
	<node lat="60.9587472239552" lon="11.631241673314022" id="-40166">
		<tag k="name" v="Hovinlia" />
		<tag k="place" v="locality" />
		<tag k="ssr:stedsnr" v="540687" />
	</node>
	<node lat="61.051444441777576" lon="11.510638881319034" id="-40188">
		<tag k="name" v="Finngolmyra" />
		<tag k="natural" v="wetland" />
		<tag k="ssr:stedsnr" v="544835" />
	</node>
	<node lat="60.91056944690882" lon="11.705180560194878" id="-40193">
		<tag k="landuse" v="meadow" />
		<tag k="name" v="Amundsrønningen" />
		<tag k="ssr:stedsnr" v="544125" />
	</node>
	<node lat="60.886997224452585" lon="11.741972224602963" id="-40195">
		<tag k="name" v="Måråsmyra" />
		<tag k="natural" v="wetland" />
		<tag k="ssr:stedsnr" v="544144" />
	</node>
	<node lat="60.92024166369333" lon="11.987024993027843" id="-40199">
		<tag k="name" v="Mosemyra" />
		<tag k="natural" v="wetland" />
		<tag k="ssr:stedsnr" v="544947" />
	</node>
	<node lat="61.085433331333824" lon="11.71125554819288" id="-40214">
		<tag k="name" v="Stamyra" />
		<tag k="natural" v="wetland" />
		<tag k="ssr:stedsnr" v="554165" />
	</node>
	<node lat="61.07957499605121" lon="11.830602783953216" id="-40215">
		<tag k="name" v="Storkjølen" />
		<tag k="natural" v="wetland" />
		<tag k="ssr:stedsnr" v="554167" />
	</node>
	<node lat="60.96897777987582" lon="11.597486111308582" id="-40218">
		<tag k="alt_name" v="Breidmyra" />
		<tag k="name" v="Breimyra" />
		<tag k="natural" v="wetland" />
		<tag k="ssr:stedsnr" v="555040" />
	</node>
	<node lat="60.97130555682099" lon="11.578655549431598" id="-40219">
		<tag k="name" v="Rørmyra" />
		<tag k="natural" v="wetland" />
		<tag k="ssr:stedsnr" v="555041" />
	</node>
	<node lat="60.96526666633518" lon="11.608749999489481" id="-40220">
		<tag k="name" v="Gåsmyra" />
		<tag k="natural" v="wetland" />
		<tag k="ssr:stedsnr" v="555007" />
	</node>
	<node lat="60.828702781620095" lon="11.598699998723669" id="-40237">
		<tag k="name" v="Flomyra" />
		<tag k="natural" v="wetland" />
		<tag k="ssr:stedsnr" v="555236" />
	</node>
	<node lat="60.96827500407354" lon="11.41740277284851" id="-40248">
		<tag k="name" v="Fjøskjølen" />
		<tag k="natural" v="wetland" />
		<tag k="ssr:stedsnr" v="555536" />
	</node>
	<node lat="60.991375002512484" lon="11.562699992433446" id="-40253">
		<tag k="name" v="Sagkjølen" />
		<tag k="natural" v="wetland" />
		<tag k="ssr:stedsnr" v="555990" />
	</node>
	<node lat="60.9976333318225" lon="11.475391670478098" id="-40279">
		<tag k="name" v="Kloppmyra" />
		<tag k="natural" v="wetland" />
		<tag k="ssr:stedsnr" v="588892" />
	</node>
	<node lat="60.917524996407636" lon="11.508325004832502" id="-40288">
		<tag k="name" v="Motappmyra" />
		<tag k="natural" v="wetland" />
		<tag k="ssr:stedsnr" v="601612" />
	</node>
	<node lat="60.96371944303596" lon="11.607994435636328" id="-40300">
		<tag k="name" v="Bråtelia" />
		<tag k="place" v="locality" />
		<tag k="ssr:stedsnr" v="601693" />
	</node>
	<node lat="60.961466668889564" lon="11.597002777689154" id="-40301">
		<tag k="name" v="Skrythildsmyra" />
		<tag k="natural" v="wetland" />
		<tag k="ssr:stedsnr" v="601696" />
	</node>
	<node lat="60.95424722153871" lon="11.4888527700314" id="-40304">
		<tag k="name" v="Svingen" />
		<tag k="place" v="locality" />
		<tag k="ssr:stedsnr" v="601626" />
	</node>
	<node lat="60.8987305538863" lon="11.941208333727936" id="-40309">
		<tag k="name" v="Teabrenna" />
		<tag k="place" v="locality" />
		<tag k="ssr:stedsnr" v="603054" />
	</node>
	<node lat="61.021924996161836" lon="11.883283336304316" id="-40313">
		<tag k="landuse" v="meadow" />
		<tag k="name" v="Søndre Ulvåstranda" />
		<tag k="ssr:stedsnr" v="604133" />
	</node>
	<node lat="60.98457221788148" lon="11.6129694414419" id="-40317">
		<tag k="name" v="Hestvangmyra" />
		<tag k="natural" v="wetland" />
		<tag k="ssr:stedsnr" v="604585" />
	</node>
	<node lat="61.05348611096105" lon="11.539791664019987" id="-40320">
		<tag k="historic" v="shieling" />
		<tag k="name" v="Kråkbergsrønningen" />
		<tag k="place" v="locality" />
		<tag k="ssr:stedsnr" v="605840" />
	</node>
	<node lat="61.041375002134124" lon="11.556450003796028" id="-40330">
		<tag k="name" v="Strandkjølen" />
		<tag k="natural" v="wetland" />
		<tag k="ssr:stedsnr" v="614195" />
	</node>
	<node lat="60.96261944774712" lon="11.920944441170443" id="-40369">
		<tag k="name" v="Rensjømyrene" />
		<tag k="natural" v="wetland" />
		<tag k="ssr:stedsnr" v="646398" />
	</node>
	<node lat="60.92119722597783" lon="11.575894451220528" id="-40380">
		<tag k="landuse" v="quarry" />
		<tag k="name" v="Møystadbrottet" />
		<tag k="ssr:stedsnr" v="647141" />
	</node>
	<node lat="60.87938055413067" lon="11.961663884638234" id="-40417">
		<tag k="name" v="Storsteinmyra" />
		<tag k="natural" v="wetland" />
		<tag k="ssr:stedsnr" v="664067" />
	</node>
	<node lat="60.81945277942452" lon="11.513763895065082" id="-40422">
		<tag k="name" v="Slettskjærmarka" />
		<tag k="place" v="locality" />
		<tag k="ssr:stedsnr" v="664556" />
	</node>
	<node lat="60.9262138881623" lon="11.67143888208733" id="-40426">
		<tag k="name" v="Grandal" />
		<tag k="place" v="locality" />
		<tag k="ssr:stedsnr" v="665130" />
	</node>
	<node lat="60.88582222208169" lon="11.774238886016025" id="-40432">
		<tag k="landuse" v="meadow" />
		<tag k="name" v="Lergraven" />
		<tag k="ssr:stedsnr" v="665153" />
	</node>
	<node lat="60.993044445853116" lon="11.6397805609252" id="-40437">
		<tag k="name" v="Rennarmyra" />
		<tag k="natural" v="wetland" />
		<tag k="ssr:stedsnr" v="665637" />
	</node>
	<node lat="61.10956944542886" lon="11.815550004122839" id="-40439">
		<tag k="name" v="Kobberkjølen" />
		<tag k="natural" v="wetland" />
		<tag k="ssr:stedsnr" v="666105" />
	</node>
	<node lat="61.02975555991735" lon="11.54748889544018" id="-40451">
		<tag k="historic" v="shieling" />
		<tag k="name" v="Søgardsvollen" />
		<tag k="place" v="locality" />
		<tag k="ssr:stedsnr" v="722554" />
	</node>
	<node lat="60.98154722268057" lon="12.028463881628536" id="-40454">
		<tag k="name" v="Storkjølen" />
		<tag k="natural" v="wetland" />
		<tag k="ssr:stedsnr" v="722970" />
	</node>
	<node lat="61.06764166718225" lon="11.681352785923881" id="-40457">
		<tag k="name" v="Mellomkjølen" />
		<tag k="natural" v="wetland" />
		<tag k="ssr:stedsnr" v="723641" />
	</node>
	<node lat="61.07152499677691" lon="11.685675008298107" id="-40458">
		<tag k="name" v="Nødselkjølen" />
		<tag k="natural" v="wetland" />
		<tag k="ssr:stedsnr" v="723642" />
	</node>
	<node lat="60.96173055741085" lon="11.44676110404666" id="-40461">
		<tag k="name" v="Øvre Brattbakkmyra" />
		<tag k="natural" v="wetland" />
		<tag k="ssr:stedsnr" v="724744" />
	</node>
	<node lat="60.9405749967851" lon="11.532505547143781" id="-40469">
		<tag k="name" v="Hellebakkmyra" />
		<tag k="natural" v="wetland" />
		<tag k="ssr:stedsnr" v="725570" />
	</node>
	<node lat="61.07325000224671" lon="11.78867499450855" id="-40485">
		<tag k="name" v="Skardkjølen" />
		<tag k="natural" v="wetland" />
		<tag k="ssr:stedsnr" v="735162" />
	</node>
	<node lat="61.12043610831301" lon="11.741425004882782" id="-40492">
		<tag k="name" v="Tørråsstorkjølen" />
		<tag k="natural" v="wetland" />
		<tag k="ssr:stedsnr" v="736142" />
	</node>
	<node lat="61.09065555239082" lon="11.694549995376798" id="-40493">
		<tag k="name" v="Gåsengkjølen" />
		<tag k="natural" v="wetland" />
		<tag k="ssr:stedsnr" v="736165" />
	</node>
	<node lat="60.890244448024866" lon="11.62550278553773" id="-40503">
		<tag k="name" v="Årtjennskjølen" />
		<tag k="natural" v="wetland" />
		<tag k="ssr:stedsnr" v="737130" />
	</node>
	<node lat="60.89630000023145" lon="11.79075555739424" id="-40504">
		<tag k="name" v="Prestmyra" />
		<tag k="natural" v="wetland" />
		<tag k="ssr:stedsnr" v="737139" />
	</node>
	<node lat="60.83846667045104" lon="11.767399992383321" id="-40514">
		<tag k="name" v="Stormyra" />
		<tag k="natural" v="wetland" />
		<tag k="ssr:stedsnr" v="737191" />
	</node>
	<node lat="60.855799998704335" lon="11.746497228050973" id="-40525">
		<tag k="alt_name" v="Måsamyra" />
		<tag k="name" v="Mosamyra" />
		<tag k="natural" v="wetland" />
		<tag k="ssr:stedsnr" v="738226" />
	</node>
	<node lat="60.90325555375108" lon="11.538577772223041" id="-40548">
		<tag k="name" v="Østerenga" />
		<tag k="place" v="locality" />
		<tag k="ssr:stedsnr" v="770580" />
	</node>
	<node lat="61.00335000388076" lon="11.86715000877791" id="-40579">
		<tag k="name" v="Rogstadkjølen" />
		<tag k="natural" v="wetland" />
		<tag k="ssr:stedsnr" v="787030" />
	</node>
	<node lat="60.96935555573162" lon="11.692180552651278" id="-40606">
		<tag k="name" v="Stormyra" />
		<tag k="natural" v="wetland" />
		<tag k="ssr:stedsnr" v="798025" />
	</node>
	<node lat="60.860613892821" lon="11.622216668659933" id="-40611">
		<tag k="fixme" v="multiple name tags, choose one and add the other to alt_name" />
		<tag k="name" v="Mosamyra;Fuglleikmyra" />
		<tag k="natural" v="wetland" />
		<tag k="ssr:stedsnr" v="798217" />
	</node>
	<node lat="60.90199444132424" lon="11.458133325149015" id="-40629">
		<tag k="name" v="Stormyra" />
		<tag k="natural" v="wetland" />
		<tag k="ssr:stedsnr" v="798626" />
	</node>
	<node lat="60.94307500148373" lon="11.556444450304861" id="-40636">
		<tag k="name" v="Båneruds Ramsteig" />
		<tag k="place" v="locality" />
		<tag k="ssr:stedsnr" v="829084" />
	</node>
	<node lat="61.03516389159562" lon="11.771411113325307" id="-40650">
		<tag k="name" v="Slettrønningen" />
		<tag k="place" v="locality" />
		<tag k="ssr:stedsnr" v="830234" />
	</node>
	<node lat="60.88327500054535" lon="11.749827775129518" id="-40651">
		<tag k="name" v="Agåsmyra" />
		<tag k="natural" v="wetland" />
		<tag k="ssr:stedsnr" v="830923" />
	</node>
	<node lat="60.97078967045781" lon="11.366346139978647" id="-40666">
		<tag k="name" v="Brennmyra" />
		<tag k="natural" v="wetland" />
		<tag k="ssr:stedsnr" v="844538" />
	</node>
	<node lat="60.98665277674204" lon="11.365447220965313" id="-40667">
		<tag k="name" v="Jerpåsmyra" />
		<tag k="natural" v="wetland" />
		<tag k="ssr:stedsnr" v="844540" />
	</node>
	<node lat="61.04903332974738" lon="11.645730557133316" id="-40668">
		<tag k="name" v="Skavhaugrønningen" />
		<tag k="place" v="locality" />
		<tag k="ssr:stedsnr" v="844543" />
	</node>
	<node lat="60.96341111304401" lon="11.522822221691596" id="-40670">
		<tag k="name" v="Sætermyra" />
		<tag k="natural" v="wetland" />
		<tag k="ssr:stedsnr" v="844653" />
	</node>
	<node lat="60.916272224618396" lon="11.518688886256669" id="-40674">
		<tag k="name" v="Gravningen" />
		<tag k="place" v="locality" />
		<tag k="ssr:stedsnr" v="845662" />
	</node>
	<node lat="60.96401110711418" lon="11.456836108074105" id="-40683">
		<tag k="name" v="Nedre Brattbakkmyra" />
		<tag k="natural" v="wetland" />
		<tag k="ssr:stedsnr" v="846757" />
	</node>
	<node lat="61.176983331352375" lon="11.758091673542909" id="-40693">
		<tag k="name" v="Vestre Grasbergbekken" />
		<tag k="natural" v="wetland" />
		<tag k="ssr:stedsnr" v="847910" />
	</node>
	<node lat="60.9172000043181" lon="11.7077805527851" id="-40705">
		<tag k="name" v="Rørmyra" />
		<tag k="natural" v="wetland" />
		<tag k="ssr:stedsnr" v="848143" />
	</node>
	<node lat="61.13097500366329" lon="11.766430550258226" id="-40714">
		<tag k="name" v="Langkjølkloppmyra" />
		<tag k="natural" v="wetland" />
		<tag k="ssr:stedsnr" v="857138" />
	</node>
	<node lat="61.0640750009413" lon="11.740327777551228" id="-40717">
		<tag k="name" v="Skarpbergmyra" />
		<tag k="natural" v="wetland" />
		<tag k="ssr:stedsnr" v="857227" />
	</node>
	<node lat="61.0534611075556" lon="11.596186119470893" id="-40722">
		<tag k="name" v="Tverrkjølen" />
		<tag k="natural" v="wetland" />
		<tag k="ssr:stedsnr" v="857241" />
	</node>
	<node lat="61.003127779222304" lon="11.880922218078767" id="-40727">
		<tag k="historic" v="shieling" />
		<tag k="name" v="Bossåsen" />
		<tag k="old_name" v="Bossåssætra" />
		<tag k="place" v="locality" />
		<tag k="ssr:stedsnr" v="857845" />
	</node>
	<node lat="61.08012500358023" lon="11.783411115452132" id="-40728">
		<tag k="name" v="Knettkjølen" />
		<tag k="natural" v="wetland" />
		<tag k="ssr:stedsnr" v="858166" />
	</node>
	<node lat="60.98156111253894" lon="11.521400004543354" id="-40729">
		<tag k="name" v="Torvmyra" />
		<tag k="natural" v="wetland" />
		<tag k="ssr:stedsnr" v="859043" />
	</node>
	<node lat="60.76057777502065" lon="11.638627769266565" id="-40740">
		<tag k="alt_name" v="Breidmyra" />
		<tag k="name" v="Breimyra" />
		<tag k="natural" v="wetland" />
		<tag k="ssr:stedsnr" v="859390" />
	</node>
	<node lat="60.998777778704586" lon="11.627616674192819" id="-40758">
		<tag k="name" v="Fly" />
		<tag k="natural" v="wetland" />
		<tag k="ssr:stedsnr" v="859953" />
	</node>
	<node lat="61.02303333173776" lon="11.876250003881218" id="-40760">
		<tag k="landuse" v="meadow" />
		<tag k="name" v="Ulvåstrendene" />
		<tag k="ssr:stedsnr" v="874134" />
	</node>
	<node lat="60.940788890338304" lon="11.586102771573758" id="-40772">
		<tag k="name" v="Handklemyra" />
		<tag k="natural" v="wetland" />
		<tag k="ssr:stedsnr" v="950075" />
	</node>
	<node lat="60.92753611368617" lon="11.561402786877997" id="-40775">
		<tag k="name" v="Ballerupmyra" />
		<tag k="natural" v="wetland" />
		<tag k="ssr:stedsnr" v="951125" />
	</node>
	<node lat="60.87576666882054" lon="11.760891666269776" id="-40779">
		<tag k="name" v="Østre Nysæterskog" />
		<tag k="place" v="locality" />
		<tag k="ssr:stedsnr" v="951942" />
	</node>
	<node lat="61.08618611019628" lon="11.688661104944728" id="-40787">
		<tag k="name" v="Måsåkjølen" />
		<tag k="natural" v="wetland" />
		<tag k="ssr:stedsnr" v="965647" />
	</node>
	<node lat="60.9649888899381" lon="11.592372213869238" id="-40788">
		<tag k="name" v="Benstimyra" />
		<tag k="natural" v="wetland" />
		<tag k="ssr:stedsnr" v="965703" />
	</node>
	<node lat="60.87347777464564" lon="11.489402772833529" id="-40800">
		<tag k="name" v="Skirbakkmyra" />
		<tag k="natural" v="wetland" />
		<tag k="ssr:stedsnr" v="968614" />
	</node>
	<node lat="61.07987777549845" lon="11.757677786747971" id="-40802">
		<tag k="name" v="Graskjølen" />
		<tag k="natural" v="wetland" />
		<tag k="ssr:stedsnr" v="968678" />
	</node>
	<node lat="60.995582291329775" lon="11.83974351550442" id="-40857">
		<tag k="loc_name" v="Langmyra" />
		<tag k="name" v="Langkjølen" />
		<tag k="natural" v="wetland" />
		<tag k="ssr:stedsnr" v="1071904" />
	</node>
</osm>
