<?xml version="1.0" encoding="UTF-8"?>
<osm generator="osmapis" version="0.6">
	<node id="-329214" lat="61.0384972262" lon="11.6190166739">
		<tag k="name" v="Røyholtleken" />
		<tag k="place" v="locality" />
		<tag k="ssr:stedsnr" v="905557" />
	</node>
	<node id="-329204" lat="61.0017444443" lon="11.3655444369">
		<tag k="fixme" v="consider natural=peak for the most distinct mountains in the district" />
		<tag k="name" v="Øvre Tørrholen" />
		<tag k="natural" v="hill" />
		<tag k="place" v="locality" />
		<tag k="ssr:stedsnr" v="870162" />
	</node>
	<node id="-328702" lat="60.8304250022" lon="11.583200007">
		<tag k="name" v="Smørbukken" />
		<tag k="natural" v="hill" />
		<tag k="place" v="locality" />
		<tag k="ssr:stedsnr" v="676287" />
	</node>
	<node id="-329201" lat="60.8637611088" lon="11.6431249972">
		<tag k="fixme" v="consider natural=peak for the most distinct mountains in the district" />
		<tag k="name" v="Bjørnåsen" />
		<tag k="natural" v="hill" />
		<tag k="place" v="locality" />
		<tag k="ssr:stedsnr" v="859612" />
	</node>
	<node id="-329712" lat="60.8858944485" lon="11.4934944522">
		<tag k="name" v="Kjurrudalen" />
		<tag k="natural" v="valley" />
		<tag k="place" v="locality" />
		<tag k="ssr:stedsnr" v="180600" />
	</node>
	<node id="-328687" lat="61.0613111089" lon="11.6808305636">
		<tag k="name" v="Knappen" />
		<tag k="natural" v="hill" />
		<tag k="place" v="locality" />
		<tag k="ssr:stedsnr" v="675242" />
	</node>
	<node id="-330221" lat="60.9859749964" lon="11.5208222194">
		<tag k="name" v="Okshaugen" />
		<tag k="natural" v="hill" />
		<tag k="place" v="locality" />
		<tag k="ssr:stedsnr" v="586769" />
	</node>
	<node id="-328530" lat="60.9925138929" lon="12.113808341">
		<tag k="name" v="Nysæterbrenna" />
		<tag k="natural" v="hill" />
		<tag k="place" v="locality" />
		<tag k="ssr:stedsnr" v="373423" />
	</node>
	<node id="-330218" lat="60.9700111085" lon="11.9610361179">
		<tag k="name" v="Søndre Ulvåstangen" />
		<tag k="natural" v="hill" />
		<tag k="place" v="locality" />
		<tag k="ssr:stedsnr" v="585382" />
	</node>
	<node id="-330729" lat="60.8241483254" lon="11.6940807082">
		<tag k="name" v="Melåsmoen" />
		<tag k="place" v="locality" />
		<tag k="ssr:stedsnr" v="981875" />
	</node>
	<node id="-330726" lat="60.8754222186" lon="11.8549055581">
		<tag k="name" v="Styggdalen" />
		<tag k="natural" v="valley" />
		<tag k="place" v="locality" />
		<tag k="ssr:stedsnr" v="970000" />
	</node>
	<node id="-330723" lat="61.048752779" lon="11.493338898">
		<tag k="name" v="Djupdalen" />
		<tag k="natural" v="valley" />
		<tag k="place" v="locality" />
		<tag k="ssr:stedsnr" v="969831" />
	</node>
	<node id="-329698" lat="60.8153027744" lon="11.5613472216">
		<tag k="name" v="Tordhaugen" />
		<tag k="natural" v="hill" />
		<tag k="place" v="locality" />
		<tag k="ssr:stedsnr" v="178979" />
	</node>
	<node id="-330207" lat="60.8165611146" lon="11.9150749957">
		<tag k="alt_name" v="Flatåsen" />
		<tag k="fixme" v="consider natural=peak for the most distinct mountains in the district" />
		<tag k="name" v="Sør-Flatåsen" />
		<tag k="natural" v="hill" />
		<tag k="place" v="locality" />
		<tag k="ssr:stedsnr" v="555469" />
	</node>
	<node id="-330202" lat="60.8213055515" lon="11.5808805564">
		<tag k="name" v="Hestmyrhaugen" />
		<tag k="natural" v="hill" />
		<tag k="place" v="locality" />
		<tag k="ssr:stedsnr" v="555250" />
	</node>
	<node id="-328150" lat="60.9339555559" lon="11.9891916674">
		<tag k="fixme" v="consider natural=peak for the most distinct mountains in the district" />
		<tag k="name" v="Bukkåsen" />
		<tag k="natural" v="hill" />
		<tag k="place" v="locality" />
		<tag k="ssr:stedsnr" v="252451" />
	</node>
	<node id="-328661" lat="60.9799805545" lon="11.4172694445">
		<tag k="name" v="Kvitmåsåskjæret" />
		<tag k="natural" v="hill" />
		<tag k="place" v="locality" />
		<tag k="ssr:stedsnr" v="479554" />
	</node>
	<node id="-328656" lat="60.7546444471" lon="11.6926111143">
		<tag k="name" v="Brattskjæra" />
		<tag k="natural" v="slope" />
		<tag k="place" v="locality" />
		<tag k="ssr:stedsnr" v="467474" />
	</node>
	<node id="-330190" lat="60.855299997" lon="11.7910083312">
		<tag k="fixme" v="consider natural=peak for the most distinct mountains in the district" />
		<tag k="name" v="Agåsen" />
		<tag k="natural" v="hill" />
		<tag k="place" v="locality" />
		<tag k="ssr:stedsnr" v="555180" />
	</node>
	<node id="-328653" lat="60.9591777761" lon="11.8688499945">
		<tag k="name" v="Gropa" />
		<tag k="natural" v="valley" />
		<tag k="place" v="locality" />
		<tag k="ssr:stedsnr" v="466154" />
	</node>
	<node id="-328140" lat="60.7873416687" lon="11.5486777845">
		<tag k="name" v="Rudstjennsberget" />
		<tag k="natural" v="hill" />
		<tag k="place" v="locality" />
		<tag k="ssr:stedsnr" v="252334" />
	</node>
	<node id="-329163" lat="60.942641669" lon="11.9419083316">
		<tag k="fixme" v="consider natural=peak for the most distinct mountains in the district" />
		<tag k="name" v="Jenssøkkberget" />
		<tag k="natural" v="hill" />
		<tag k="place" v="locality" />
		<tag k="ssr:stedsnr" v="829410" />
	</node>
	<node id="-330698" lat="60.7513138913" lon="11.6429194363">
		<tag k="name" v="Knappa" />
		<tag k="natural" v="hill" />
		<tag k="place" v="locality" />
		<tag k="ssr:stedsnr" v="966440" />
	</node>
	<node id="-329672" lat="61.0231083363" lon="11.5029611089">
		<tag k="name" v="Høybrenntangen" />
		<tag k="natural" v="ridge" />
		<tag k="place" v="locality" />
		<tag k="ssr:stedsnr" v="176900" />
	</node>
	<node id="-328135" lat="60.8187027762" lon="11.5695055539">
		<tag k="name" v="Rugsveberget" />
		<tag k="natural" v="hill" />
		<tag k="place" v="locality" />
		<tag k="ssr:stedsnr" v="252282" />
	</node>
	<node id="-329158" lat="60.8294666651" lon="11.9587999995">
		<tag k="fixme" v="consider natural=peak for the most distinct mountains in the district" />
		<tag k="name" v="Hakaskallen" />
		<tag k="natural" v="hill" />
		<tag k="place" v="locality" />
		<tag k="ssr:stedsnr" v="798567" />
	</node>
	<node id="-328353" lat="60.8686611157" lon="11.823624994">
		<tag k="fixme" v="consider natural=peak for the most distinct mountains in the district" />
		<tag k="name" v="Bjørnåsen" />
		<tag k="natural" v="hill" />
		<tag k="place" v="locality" />
		<tag k="ssr:stedsnr" v="313223" />
	</node>
	<node id="-330178" lat="60.9764361137" lon="11.9935333349">
		<tag k="fixme" v="consider natural=peak for the most distinct mountains in the district" />
		<tag k="name" v="Rogndalsberget" />
		<tag k="natural" v="hill" />
		<tag k="place" v="locality" />
		<tag k="ssr:stedsnr" v="555328" />
	</node>
	<node id="-330688" lat="60.9922277798" lon="11.3595166758">
		<tag k="name" v="Godalen" />
		<tag k="natural" v="valley" />
		<tag k="place" v="locality" />
		<tag k="ssr:stedsnr" v="965552" />
	</node>
	<node id="-330175" lat="60.7907027765" lon="11.7791138819">
		<tag k="name" v="Kjeksberget" />
		<tag k="natural" v="hill" />
		<tag k="place" v="locality" />
		<tag k="ssr:stedsnr" v="555297" />
	</node>
	<node id="-330686" lat="60.8854527749" lon="11.5557305568">
		<tag k="loc_name" v="Restvolljordet" />
		<tag k="name" v="Restvoldjordet" />
		<tag k="place" v="locality" />
		<tag k="ssr:stedsnr" v="965041" />
	</node>
	<node id="-329149" lat="60.9802944458" lon="11.8413388977">
		<tag k="alt_name" v="Nøtberget, vle" />
		<tag k="name" v="Vesle Nøtberget" />
		<tag k="natural" v="hill" />
		<tag k="place" v="locality" />
		<tag k="ssr:stedsnr" v="798051" />
	</node>
	<node id="-330169" lat="60.7835000044" lon="11.6858805626">
		<tag k="name" v="Øtberget" />
		<tag k="natural" v="hill" />
		<tag k="place" v="locality" />
		<tag k="ssr:stedsnr" v="554343" />
	</node>
	<node id="-329656" lat="60.9917305521" lon="11.5049833353">
		<tag k="name" v="Letjenndalen" />
		<tag k="natural" v="valley" />
		<tag k="place" v="locality" />
		<tag k="ssr:stedsnr" v="161744" />
	</node>
	<node id="-330676" lat="60.8441277818" lon="11.931769447">
		<tag k="name" v="Jenteberget" />
		<tag k="natural" v="hill" />
		<tag k="place" v="locality" />
		<tag k="ssr:stedsnr" v="951084" />
	</node>
	<node id="-330161" lat="61.0377361153" lon="11.9568999955">
		<tag k="alt_name" v="Søndre Flishøgda" />
		<tag k="fixme" v="consider natural=peak for the most distinct mountains in the district" />
		<tag k="name" v="Flishøgda" />
		<tag k="natural" v="hill" />
		<tag k="place" v="locality" />
		<tag k="ssr:stedsnr" v="553918" />
	</node>
	<node id="-328349" lat="60.9828999973" lon="11.6692527704">
		<tag k="fixme" v="consider natural=peak for the most distinct mountains in the district" />
		<tag k="name" v="Brattåsen" />
		<tag k="natural" v="hill" />
		<tag k="place" v="locality" />
		<tag k="ssr:stedsnr" v="313059" />
	</node>
	<node id="-329132" lat="61.0662027754" lon="11.8143361176">
		<tag k="name" v="Nupberget" />
		<tag k="natural" v="hill" />
		<tag k="place" v="locality" />
		<tag k="ssr:stedsnr" v="796209" />
	</node>
	<node id="-328619" lat="60.9736527767" lon="11.4562277854">
		<tag k="fixme" v="consider natural=peak for the most distinct mountains in the district" />
		<tag k="name" v="Brennberget" />
		<tag k="natural" v="hill" />
		<tag k="place" v="locality" />
		<tag k="ssr:stedsnr" v="663764" />
	</node>
	<node id="-329130" lat="61.0747555564" lon="11.7315527787">
		<tag k="alt_name" v="Staberget" />
		<tag k="fixme" v="consider natural=peak for the most distinct mountains in the district" />
		<tag k="name" v="Stavberget" />
		<tag k="natural" v="hill" />
		<tag k="place" v="locality" />
		<tag k="ssr:stedsnr" v="796165" />
	</node>
	<node id="-328274" lat="60.8626250045" lon="11.7996055545">
		<tag k="name" v="Knatten" />
		<tag k="natural" v="hill" />
		<tag k="place" v="locality" />
		<tag k="ssr:stedsnr" v="192234" />
	</node>
	<node id="-330659" lat="60.978224996" lon="11.8843916632">
		<tag k="name" v="Kassiberget" />
		<tag k="natural" v="hill" />
		<tag k="place" v="locality" />
		<tag k="ssr:stedsnr" v="859342" />
	</node>
	<node id="-330146" lat="61.1308749989" lon="11.6230472217">
		<tag k="name" v="Djupdalen" />
		<tag k="natural" v="valley" />
		<tag k="place" v="locality" />
		<tag k="ssr:stedsnr" v="553121" />
	</node>
	<node id="-330655" lat="60.8507500013" lon="11.7230138815">
		<tag k="name" v="Nøtåsberget" />
		<tag k="natural" v="hill" />
		<tag k="place" v="locality" />
		<tag k="ssr:stedsnr" v="859199" />
	</node>
	<node id="-328605" lat="60.9751749969" lon="11.5045944493">
		<tag k="fixme" v="consider natural=peak for the most distinct mountains in the district" />
		<tag k="name" v="Svanåsen" />
		<tag k="natural" v="hill" />
		<tag k="place" v="locality" />
		<tag k="ssr:stedsnr" v="661615" />
	</node>
	<node id="-328091" lat="60.8361916698" lon="11.8632444438">
		<tag k="fixme" v="consider natural=peak for the most distinct mountains in the district" />
		<tag k="name" v="Rønåsen" />
		<tag k="natural" v="hill" />
		<tag k="place" v="locality" />
		<tag k="ssr:stedsnr" v="251650" />
	</node>
	<node id="-330138" lat="61.1748222181" lon="11.786752782">
		<tag k="name" v="Vesle Grasberget" />
		<tag k="natural" v="hill" />
		<tag k="place" v="locality" />
		<tag k="ssr:stedsnr" v="543887" />
	</node>
	<node id="-328599" lat="60.8973000011" lon="11.8468916642">
		<tag k="fixme" v="consider natural=peak for the most distinct mountains in the district" />
		<tag k="name" v="Løvåsen" />
		<tag k="natural" v="hill" />
		<tag k="place" v="locality" />
		<tag k="ssr:stedsnr" v="434623" />
	</node>
	<node id="-329109" lat="60.8063499975" lon="11.5901555512">
		<tag k="name" v="Skanseberget" />
		<tag k="natural" v="hill" />
		<tag k="place" v="locality" />
		<tag k="ssr:stedsnr" v="920268" />
	</node>
	<node id="-330129" lat="61.0789499999" lon="11.7980777695">
		<tag k="name" v="Knettkanken" />
		<tag k="natural" v="hill" />
		<tag k="place" v="locality" />
		<tag k="ssr:stedsnr" v="542095" />
	</node>
	<node id="-329615" lat="60.95470278" lon="11.6179527751">
		<tag k="name" v="Hovinberget" />
		<tag k="natural" v="hill" />
		<tag k="place" v="locality" />
		<tag k="ssr:stedsnr" v="130085" />
	</node>
	<node id="-329102" lat="60.8763083348" lon="11.5254027748">
		<tag k="name" v="Terningmoen" />
		<tag k="place" v="locality" />
		<tag k="ssr:stedsnr" v="920136" />
	</node>
	<node id="-328588" lat="60.9873138904" lon="11.8773027808">
		<tag k="fixme" v="consider natural=peak for the most distinct mountains in the district" />
		<tag k="name" v="Høgknøsen" />
		<tag k="natural" v="hill" />
		<tag k="place" v="locality" />
		<tag k="ssr:stedsnr" v="434351" />
	</node>
	<node id="-329098" lat="60.935250004" lon="11.961616676">
		<tag k="fixme" v="consider natural=peak for the most distinct mountains in the district" />
		<tag k="name" v="Gilderåsen" />
		<tag k="natural" v="hill" />
		<tag k="place" v="locality" />
		<tag k="ssr:stedsnr" v="919497" />
	</node>
	<node id="-330120" lat="60.9532666656" lon="11.8276805594">
		<tag k="name" v="Galgebakken" />
		<tag k="natural" v="slope" />
		<tag k="place" v="locality" />
		<tag k="ssr:stedsnr" v="541151" />
	</node>
	<node id="-329095" lat="60.9255944426" lon="11.980250005">
		<tag k="fixme" v="consider natural=peak for the most distinct mountains in the district" />
		<tag k="name" v="Granåsen" />
		<tag k="natural" v="hill" />
		<tag k="place" v="locality" />
		<tag k="ssr:stedsnr" v="919483" />
	</node>
	<node id="-329606" lat="61.0062222227" lon="11.872758337">
		<tag k="fixme" v="consider natural=peak for the most distinct mountains in the district" />
		<tag k="name" v="Bossåsen" />
		<tag k="natural" v="hill" />
		<tag k="place" v="locality" />
		<tag k="ssr:stedsnr" v="129890" />
	</node>
	<node id="-330116" lat="60.9877777736" lon="11.3667277836">
		<tag k="name" v="Jerpåshaugen" />
		<tag k="natural" v="hill" />
		<tag k="place" v="locality" />
		<tag k="ssr:stedsnr" v="540549" />
	</node>
	<node id="-329091" lat="60.9910361099" lon="11.8798999961">
		<tag k="name" v="Svartberget" />
		<tag k="natural" v="hill" />
		<tag k="place" v="locality" />
		<tag k="ssr:stedsnr" v="919434" />
	</node>
	<node id="-330626" lat="61.0749361134" lon="11.7321138898">
		<tag k="fixme" v="consider natural=peak for the most distinct mountains in the district" />
		<tag k="name" v="Elgkjølhøgda" />
		<tag k="natural" v="hill" />
		<tag k="place" v="locality" />
		<tag k="ssr:stedsnr" v="857230" />
	</node>
	<node id="-330113" lat="60.9585083353" lon="11.5092250088">
		<tag k="name" v="Ytre Egga" />
		<tag k="natural" v="slope" />
		<tag k="place" v="locality" />
		<tag k="ssr:stedsnr" v="540627" />
	</node>
	<node id="-330624" lat="61.047336107" lon="11.4918750022">
		<tag k="name" v="Svartbekkdalen" />
		<tag k="natural" v="valley" />
		<tag k="place" v="locality" />
		<tag k="ssr:stedsnr" v="857208" />
	</node>
	<node id="-329599" lat="61.0503805558" lon="11.4972">
		<tag k="name" v="Djupdalsbrenna" />
		<tag k="natural" v="hill" />
		<tag k="place" v="locality" />
		<tag k="ssr:stedsnr" v="128188" />
	</node>
	<node id="-329365" lat="60.7899083379" lon="11.6676888857">
		<tag k="fixme" v="consider natural=peak for the most distinct mountains in the district" />
		<tag k="name" v="Søråsen" />
		<tag k="natural" v="hill" />
		<tag k="place" v="locality" />
		<tag k="ssr:stedsnr" v="10343" />
	</node>
	<node id="-328766" lat="60.9242611099" lon="11.5731">
		<tag k="fixme" v="consider natural=peak for the most distinct mountains in the district" />
		<tag k="name" v="Stavåsen" />
		<tag k="natural" v="hill" />
		<tag k="place" v="locality" />
		<tag k="ssr:stedsnr" v="555063" />
	</node>
	<node id="-330606" lat="61.0294361149" lon="11.8824277757">
		<tag k="fixme" v="consider natural=peak for the most distinct mountains in the district" />
		<tag k="name" v="Ormåsen" />
		<tag k="natural" v="hill" />
		<tag k="place" v="locality" />
		<tag k="ssr:stedsnr" v="848107" />
	</node>
	<node id="-328272" lat="60.9939861079" lon="11.3382416736">
		<tag k="name" v="Nordhue" />
		<tag k="natural" v="hill" />
		<tag k="place" v="locality" />
		<tag k="ssr:stedsnr" v="191524" />
	</node>
	<node id="-328359" lat="60.8767194458" lon="11.8934333325">
		<tag k="name" v="Gardberget" />
		<tag k="natural" v="hill" />
		<tag k="place" v="locality" />
		<tag k="ssr:stedsnr" v="313604" />
	</node>
	<node id="-329532" lat="60.8701222206" lon="11.7735194473">
		<tag k="name" v="Pegonettalia" />
		<tag k="natural" v="slope" />
		<tag k="place" v="locality" />
		<tag k="ssr:stedsnr" v="102946" />
	</node>
	<node id="-330598" lat="61.0061527749" lon="11.7972222222">
		<tag k="fixme" v="consider natural=peak for the most distinct mountains in the district" />
		<tag k="name" v="Bergeknappen" />
		<tag k="natural" v="hill" />
		<tag k="place" v="locality" />
		<tag k="ssr:stedsnr" v="847038" />
	</node>
	<node id="-328593" lat="60.8078250038" lon="11.5058027713">
		<tag k="name" v="Røyhaugen" />
		<tag k="natural" v="hill" />
		<tag k="place" v="locality" />
		<tag k="ssr:stedsnr" v="434233" />
	</node>
	<node id="-329572" lat="60.828294441" lon="11.5606416651">
		<tag k="name" v="Sjøhaugene" />
		<tag k="natural" v="hill" />
		<tag k="place" v="locality" />
		<tag k="ssr:stedsnr" v="118969" />
	</node>
	<node id="-329571" lat="60.8273388892" lon="11.5514972145">
		<tag k="name" v="Sleppa" />
		<tag k="natural" v="slope" />
		<tag k="place" v="locality" />
		<tag k="ssr:stedsnr" v="118967" />
	</node>
	<node id="-329567" lat="60.9474722186" lon="11.4563249983">
		<tag k="name" v="Høyhaugen" />
		<tag k="natural" v="hill" />
		<tag k="place" v="locality" />
		<tag k="ssr:stedsnr" v="118662" />
	</node>
	<node id="-328030" lat="61.0630833341" lon="11.5140472278">
		<tag k="fixme" v="consider natural=peak for the most distinct mountains in the district" />
		<tag k="name" v="Kråkberget" />
		<tag k="natural" v="hill" />
		<tag k="place" v="locality" />
		<tag k="ssr:stedsnr" v="68209" />
	</node>
	<node id="-328537" lat="60.9992499985" lon="11.6142027714">
		<tag k="fixme" v="consider natural=peak for the most distinct mountains in the district" />
		<tag k="name" v="Gjefsåsen" />
		<tag k="natural" v="hill" />
		<tag k="place" v="locality" />
		<tag k="ssr:stedsnr" v="373973" />
	</node>
	<node id="-330579" lat="61.0729388872" lon="11.7243833307">
		<tag k="name" v="Løvhaugberget" />
		<tag k="natural" v="slope" />
		<tag k="place" v="locality" />
		<tag k="ssr:stedsnr" v="845701" />
	</node>
	<node id="-330066" lat="60.8358777736" lon="11.8418138829">
		<tag k="name" v="Flotsberget" />
		<tag k="natural" v="hill" />
		<tag k="place" v="locality" />
		<tag k="ssr:stedsnr" v="434183" />
	</node>
	<node id="-329552" lat="60.9692083335" lon="11.499536102">
		<tag k="name" v="Oddsleppa" />
		<tag k="natural" v="hill" />
		<tag k="place" v="locality" />
		<tag k="ssr:stedsnr" v="116665" />
	</node>
	<node id="-328527" lat="60.8167666698" lon="11.8099472221">
		<tag k="name" v="Revelberget" />
		<tag k="natural" v="hill" />
		<tag k="place" v="locality" />
		<tag k="ssr:stedsnr" v="373256" />
	</node>
	<node id="-328014" lat="60.8310638928" lon="11.5686194408">
		<tag k="name" v="Fuglehaugen" />
		<tag k="natural" v="hill" />
		<tag k="place" v="locality" />
		<tag k="ssr:stedsnr" v="240981" />
	</node>
	<node id="-328013" lat="61.0577805558" lon="11.8389305468">
		<tag k="name" v="Geitryggene" />
		<tag k="natural" v="hill" />
		<tag k="place" v="locality" />
		<tag k="ssr:stedsnr" v="240103" />
	</node>
	<node id="-328162" lat="60.8487388884" lon="11.6575138897">
		<tag k="fixme" v="consider natural=peak for the most distinct mountains in the district" />
		<tag k="name" v="Furuknappberget" />
		<tag k="natural" v="hill" />
		<tag k="place" v="locality" />
		<tag k="ssr:stedsnr" v="101007" />
	</node>
	<node id="-329545" lat="61.0146388867" lon="11.380047227">
		<tag k="name" v="Nordre Vonkalshaugen" />
		<tag k="natural" v="hill" />
		<tag k="place" v="locality" />
		<tag k="ssr:stedsnr" v="116566" />
	</node>
	<node id="-330051" lat="60.9489611136" lon="11.8292500007">
		<tag k="name" v="Kynndalen" />
		<tag k="natural" v="valley" />
		<tag k="place" v="locality" />
		<tag k="ssr:stedsnr" v="434084" />
	</node>
	<node id="-328508" lat="61.0023083351" lon="11.6280000071">
		<tag k="name" v="Fly" />
		<tag k="place" v="locality" />
		<tag k="ssr:stedsnr" v="372029" />
	</node>
	<node id="-328506" lat="61.0014333352" lon="11.6088916585">
		<tag k="fixme" v="consider natural=peak for the most distinct mountains in the district" />
		<tag k="name" v="Gjefåsen" />
		<tag k="natural" v="hill" />
		<tag k="place" v="locality" />
		<tag k="ssr:stedsnr" v="372011" />
	</node>
	<node id="-329016" lat="61.1079277769" lon="11.7584083297">
		<tag k="name" v="Krokkjøllia" />
		<tag k="natural" v="slope" />
		<tag k="place" v="locality" />
		<tag k="ssr:stedsnr" v="905670" />
	</node>
	<node id="-329527" lat="60.8987138926" lon="11.5005083353">
		<tag k="name" v="Brennerihaugen" />
		<tag k="natural" v="hill" />
		<tag k="place" v="locality" />
		<tag k="ssr:stedsnr" v="102666" />
	</node>
	<node id="-330037" lat="61.1361638928" lon="11.8362583251">
		<tag k="fixme" v="consider natural=peak for the most distinct mountains in the district" />
		<tag k="name" v="Lauvåsen" />
		<tag k="natural" v="hill" />
		<tag k="place" v="locality" />
		<tag k="ssr:stedsnr" v="433488" />
	</node>
	<node id="-330547" lat="60.9575194414" lon="11.8864916751">
		<tag k="fixme" v="consider natural=peak for the most distinct mountains in the district" />
		<tag k="name" v="Sandbakkåsen" />
		<tag k="natural" v="hill" />
		<tag k="place" v="locality" />
		<tag k="ssr:stedsnr" v="830128" />
	</node>
	<node id="-330543" lat="61.0084555564" lon="11.5012333294">
		<tag k="name" v="Rismyrhaugen" />
		<tag k="natural" v="hill" />
		<tag k="place" v="locality" />
		<tag k="ssr:stedsnr" v="829773" />
	</node>
	<node id="-327981" lat="60.9679583315" lon="11.5291944383">
		<tag k="name" v="Skarpberget" />
		<tag k="natural" v="slope" />
		<tag k="place" v="locality" />
		<tag k="ssr:stedsnr" v="237667" />
	</node>
	<node id="-329516" lat="60.9805583306" lon="11.9483111175">
		<tag k="name" v="Nordre Ulvåstangen" />
		<tag k="natural" v="hill" />
		<tag k="place" v="locality" />
		<tag k="ssr:stedsnr" v="100392" />
	</node>
	<node id="-330539" lat="60.9300111112" lon="11.5615972237">
		<tag k="name" v="Gravskoiesletta" />
		<tag k="place" v="locality" />
		<tag k="ssr:stedsnr" v="829080" />
	</node>
	<node id="-329350" lat="60.7602687064" lon="11.6926656397">
		<tag k="name" v="Bronkeberget" />
		<tag k="natural" v="hill" />
		<tag k="place" v="locality" />
		<tag k="ssr:stedsnr" v="9406" />
	</node>
	<node id="-329502" lat="60.9136638894" lon="11.974175009">
		<tag k="name" v="Siljubergsberget" />
		<tag k="natural" v="hill" />
		<tag k="place" v="locality" />
		<tag k="ssr:stedsnr" v="70423" />
	</node>
	<node id="-328989" lat="60.9051361128" lon="11.4996166663">
		<tag k="name" v="Kølhaugene" />
		<tag k="natural" v="hill" />
		<tag k="place" v="locality" />
		<tag k="ssr:stedsnr" v="891638" />
	</node>
	<node id="-330523" lat="60.7626749988" lon="11.6222361166">
		<tag k="name" v="Skrikmyrberget" />
		<tag k="natural" v="hill" />
		<tag k="place" v="locality" />
		<tag k="ssr:stedsnr" v="798299" />
	</node>
	<node id="-328474" lat="60.9548722222" lon="11.950327772">
		<tag k="fixme" v="consider natural=peak for the most distinct mountains in the district" />
		<tag k="name" v="Grastjennåsen" />
		<tag k="natural" v="hill" />
		<tag k="place" v="locality" />
		<tag k="ssr:stedsnr" v="494440" />
	</node>
	<node id="-330520" lat="60.9471972186" lon="11.9159750084">
		<tag k="fixme" v="consider natural=peak for the most distinct mountains in the district" />
		<tag k="name" v="Rognåsen" />
		<tag k="natural" v="hill" />
		<tag k="place" v="locality" />
		<tag k="ssr:stedsnr" v="798433" />
	</node>
	<node id="-330007" lat="60.8386361089" lon="11.5872805572">
		<tag k="name" v="Haugsbergknappen" />
		<tag k="natural" v="hill" />
		<tag k="place" v="locality" />
		<tag k="ssr:stedsnr" v="422984" />
	</node>
	<node id="-328981" lat="60.9001000041" lon="11.6907805529">
		<tag k="name" v="Ormstellet" />
		<tag k="place" v="locality" />
		<tag k="ssr:stedsnr" v="890809" />
	</node>
	<node id="-327956" lat="61.0566833306" lon="11.9236805508">
		<tag k="name" v="Korston" />
		<tag k="natural" v="hill" />
		<tag k="place" v="locality" />
		<tag k="ssr:stedsnr" v="39326" />
	</node>
	<node id="-328003" lat="61.0078250022" lon="11.3632305474">
		<tag k="name" v="Styggdalen" />
		<tag k="natural" v="valley" />
		<tag k="place" v="locality" />
		<tag k="ssr:stedsnr" v="239581" />
	</node>
	<node id="-328975" lat="60.9363555598" lon="11.9272805559">
		<tag k="name" v="Sørsætergropa" />
		<tag k="natural" v="valley" />
		<tag k="place" v="locality" />
		<tag k="ssr:stedsnr" v="889394" />
	</node>
	<node id="-329997" lat="60.9079166672" lon="11.4666944473">
		<tag k="name" v="Femmerkoiehøgda" />
		<tag k="natural" v="hill" />
		<tag k="place" v="locality" />
		<tag k="ssr:stedsnr" v="421659" />
	</node>
	<node id="-329996" lat="60.922666667" lon="11.4675916703">
		<tag k="name" v="Enerhøgda" />
		<tag k="natural" v="hill" />
		<tag k="place" v="locality" />
		<tag k="ssr:stedsnr" v="421654" />
	</node>
	<node id="-329995" lat="60.8387638908" lon="11.6158805521">
		<tag k="name" v="Kvithammarberget" />
		<tag k="natural" v="slope" />
		<tag k="place" v="locality" />
		<tag k="ssr:stedsnr" v="420991" />
	</node>
	<node id="-329089" lat="60.7939527785" lon="11.5164999952">
		<tag k="name" v="Gammalvollhaugen" />
		<tag k="natural" v="hill" />
		<tag k="place" v="locality" />
		<tag k="ssr:stedsnr" v="919346" />
	</node>
	<node id="-329986" lat="61.0061333367" lon="11.3702222161">
		<tag k="name" v="Stannarsta'n" />
		<tag k="place" v="locality" />
		<tag k="ssr:stedsnr" v="419551" />
	</node>
	<node id="-327979" lat="60.963099998" lon="11.5115527693">
		<tag k="name" v="Lundshamaren" />
		<tag k="natural" v="hill" />
		<tag k="place" v="locality" />
		<tag k="ssr:stedsnr" v="237664" />
	</node>
	<node id="-329983" lat="61.0328055553" lon="11.6959722214">
		<tag k="name" v="Norderrudstranda" />
		<tag k="place" v="locality" />
		<tag k="ssr:stedsnr" v="419366" />
	</node>
	<node id="-328957" lat="60.9015250026" lon="11.7732861074">
		<tag k="name" v="Rølsåsberget" />
		<tag k="natural" v="hill" />
		<tag k="place" v="locality" />
		<tag k="ssr:stedsnr" v="676153" />
	</node>
	<node id="-329087" lat="60.7849750014" lon="11.5926250035">
		<tag k="name" v="Hellemundsberget" />
		<tag k="natural" v="hill" />
		<tag k="place" v="locality" />
		<tag k="ssr:stedsnr" v="919300" />
	</node>
	<node id="-329464" lat="60.8260555545" lon="11.6551166633">
		<tag k="fixme" v="consider natural=peak for the most distinct mountains in the district" />
		<tag k="name" v="Oppsalåsen" />
		<tag k="natural" v="hill" />
		<tag k="place" v="locality" />
		<tag k="ssr:stedsnr" v="70277" />
	</node>
	<node id="-328951" lat="61.0127666669" lon="11.6866861031">
		<tag k="name" v="Moberget" />
		<tag k="natural" v="hill" />
		<tag k="place" v="locality" />
		<tag k="ssr:stedsnr" v="675517" />
	</node>
	<node id="-330484" lat="61.0599249993" lon="11.4853277837">
		<tag k="name" v="Djupdalen" />
		<tag k="natural" v="valley" />
		<tag k="place" v="locality" />
		<tag k="ssr:stedsnr" v="797504" />
	</node>
	<node id="-330482" lat="61.0356583328" lon="11.9049472289">
		<tag k="fixme" v="consider natural=peak for the most distinct mountains in the district" />
		<tag k="name" v="Agnåsen" />
		<tag k="natural" v="hill" />
		<tag k="place" v="locality" />
		<tag k="ssr:stedsnr" v="796896" />
	</node>
	<node id="-329969" lat="61.0791388865" lon="12.0543277842">
		<tag k="name" v="Vardeknulen" />
		<tag k="natural" v="hill" />
		<tag k="place" v="locality" />
		<tag k="ssr:stedsnr" v="403701" />
	</node>
	<node id="-329456" lat="60.8057166701" lon="11.8152638925">
		<tag k="fixme" v="consider natural=peak for the most distinct mountains in the district" />
		<tag k="name" v="Borgåsen" />
		<tag k="natural" v="hill" />
		<tag k="place" v="locality" />
		<tag k="ssr:stedsnr" v="70253" />
	</node>
	<node id="-329964" lat="60.8231916663" lon="11.9361777768">
		<tag k="name" v="Tjennsbergknappene" />
		<tag k="natural" v="hill" />
		<tag k="place" v="locality" />
		<tag k="ssr:stedsnr" v="373633" />
	</node>
	<node id="-330474" lat="60.9667888855" lon="11.7403527734">
		<tag k="name" v="Olahorn" />
		<tag k="natural" v="hill" />
		<tag k="place" v="locality" />
		<tag k="ssr:stedsnr" v="787449" />
	</node>
	<node id="-329449" lat="61.1144500045" lon="11.7424499951">
		<tag k="name" v="Tørråshøgda" />
		<tag k="natural" v="hill" />
		<tag k="place" v="locality" />
		<tag k="ssr:stedsnr" v="69187" />
	</node>
	<node id="-330472" lat="60.7651166656" lon="11.7113861141">
		<tag k="name" v="Bronkemoen" />
		<tag k="place" v="locality" />
		<tag k="ssr:stedsnr" v="787320" />
	</node>
	<node id="-330470" lat="60.9166111068" lon="11.6712249988">
		<tag k="name" v="Brattbakken" />
		<tag k="natural" v="slope" />
		<tag k="place" v="locality" />
		<tag k="ssr:stedsnr" v="787124" />
	</node>
	<node id="-328421" lat="60.9850416651" lon="12.0256916749">
		<tag k="name" v="Tykktallbrenna" />
		<tag k="natural" v="hill" />
		<tag k="place" v="locality" />
		<tag k="ssr:stedsnr" v="358955" />
	</node>
	<node id="-329951" lat="60.9936500017" lon="11.8655000012">
		<tag k="fixme" v="consider natural=peak for the most distinct mountains in the district" />
		<tag k="name" v="Skaftet" />
		<tag k="natural" v="hill" />
		<tag k="place" v="locality" />
		<tag k="ssr:stedsnr" v="373438" />
	</node>
	<node id="-328414" lat="61.059424999" lon="11.7479000043">
		<tag k="name" v="Skarpberget" />
		<tag k="natural" v="hill" />
		<tag k="place" v="locality" />
		<tag k="ssr:stedsnr" v="492173" />
	</node>
	<node id="-330459" lat="60.9116638845" lon="11.4769750023">
		<tag k="fixme" v="consider natural=peak for the most distinct mountains in the district" />
		<tag k="name" v="Lavåsen" />
		<tag k="natural" v="hill" />
		<tag k="place" v="locality" />
		<tag k="ssr:stedsnr" v="785638" />
	</node>
	<node id="-328920" lat="61.0571666703" lon="11.9757583314">
		<tag k="fixme" v="consider natural=peak for the most distinct mountains in the district" />
		<tag k="name" v="Svankjølknappen" />
		<tag k="natural" v="hill" />
		<tag k="place" v="locality" />
		<tag k="ssr:stedsnr" v="735928" />
	</node>
	<node id="-328919" lat="61.0638222218" lon="12.0460999935">
		<tag k="name" v="Håberget" />
		<tag k="natural" v="hill" />
		<tag k="place" v="locality" />
		<tag k="ssr:stedsnr" v="735921" />
	</node>
	<node id="-329324" lat="61.0934861154" lon="11.867875004">
		<tag k="alt_name" v="Skardberget" />
		<tag k="name" v="Skallberget" />
		<tag k="natural" v="hill" />
		<tag k="place" v="locality" />
		<tag k="ssr:stedsnr" v="8960" />
	</node>
	<node id="-329940" lat="60.8128250023" lon="11.5845388879">
		<tag k="name" v="Nefsåsberget" />
		<tag k="natural" v="hill" />
		<tag k="place" v="locality" />
		<tag k="ssr:stedsnr" v="373263" />
	</node>
	<node id="-329358" lat="60.7508527772" lon="11.7032722138">
		<tag k="alt_name" v="Bronkeberget" />
		<tag k="name" v="Søndre Bronkeberget" />
		<tag k="natural" v="hill" />
		<tag k="place" v="locality" />
		<tag k="ssr:stedsnr" v="9637" />
	</node>
	<node id="-328402" lat="61.11030833" lon="11.8071750052">
		<tag k="name" v="Sølvbergseggen" />
		<tag k="natural" v="slope" />
		<tag k="place" v="locality" />
		<tag k="ssr:stedsnr" v="484080" />
	</node>
	<node id="-329937" lat="60.8444166658" lon="11.7497749966">
		<tag k="fixme" v="consider natural=peak for the most distinct mountains in the district" />
		<tag k="name" v="Løvåsen" />
		<tag k="natural" v="hill" />
		<tag k="place" v="locality" />
		<tag k="ssr:stedsnr" v="373186" />
	</node>
	<node id="-330448" lat="61.0679722244" lon="11.6725638811">
		<tag k="name" v="Syrningdalen" />
		<tag k="natural" v="valley" />
		<tag k="place" v="locality" />
		<tag k="ssr:stedsnr" v="784677" />
	</node>
	<node id="-330447" lat="61.0726444412" lon="11.7179638825">
		<tag k="name" v="Bringebærberget" />
		<tag k="natural" v="hill" />
		<tag k="place" v="locality" />
		<tag k="ssr:stedsnr" v="784676" />
	</node>
	<node id="-330445" lat="61.0699944441" lon="11.7425527801">
		<tag k="name" v="Holmberget" />
		<tag k="natural" v="hill" />
		<tag k="place" v="locality" />
		<tag k="ssr:stedsnr" v="784657" />
	</node>
	<node id="-328395" lat="61.0094555534" lon="11.3373250006">
		<tag k="name" v="Fjøsmyrhøgda" />
		<tag k="natural" v="hill" />
		<tag k="place" v="locality" />
		<tag k="ssr:stedsnr" v="482587" />
	</node>
	<node id="-329418" lat="61.0237500036" lon="11.8254166628">
		<tag k="name" v="Bukkåsen" />
		<tag k="natural" v="hill" />
		<tag k="place" v="locality" />
		<tag k="ssr:stedsnr" v="58036" />
	</node>
	<node id="-329416" lat="60.9506194485" lon="11.4400861085">
		<tag k="name" v="Hæklehaugen" />
		<tag k="natural" v="hill" />
		<tag k="place" v="locality" />
		<tag k="ssr:stedsnr" v="57751" />
	</node>
	<node id="-328903" lat="60.8761027774" lon="11.522713898">
		<tag k="name" v="Midttangen" />
		<tag k="natural" v="hill" />
		<tag k="place" v="locality" />
		<tag k="ssr:stedsnr" v="726628" />
	</node>
	<node id="-329924" lat="61.0276222254" lon="11.9337361125">
		<tag k="name" v="Gråberget" />
		<tag k="natural" v="hill" />
		<tag k="place" v="locality" />
		<tag k="ssr:stedsnr" v="371914" />
	</node>
	<node id="-329922" lat="61.0530194474" lon="12.1180333263">
		<tag k="fixme" v="multiple name tags, choose one and add the other to alt_name; consider natural=peak for the most distinct mountains in the district" />
		<tag k="name" v="Nygardsbrenna;Ormbrenna" />
		<tag k="natural" v="hill" />
		<tag k="place" v="locality" />
		<tag k="ssr:stedsnr" v="371889" />
	</node>
	<node id="-330432" lat="61.0190666703" lon="11.5689972316">
		<tag k="name" v="Thomasholdet" />
		<tag k="place" v="locality" />
		<tag k="ssr:stedsnr" v="783524" />
	</node>
	<node id="-329916" lat="61.0400861068" lon="11.8157000009">
		<tag k="name" v="Svartberget" />
		<tag k="natural" v="hill" />
		<tag k="place" v="locality" />
		<tag k="ssr:stedsnr" v="371178" />
	</node>
	<node id="-328889" lat="61.0056305595" lon="11.3333333253">
		<tag k="name" v="Nordhuehøgda" />
		<tag k="natural" v="hill" />
		<tag k="place" v="locality" />
		<tag k="ssr:stedsnr" v="725524" />
	</node>
	<node id="-328888" lat="61.0053500044" lon="11.3666944365">
		<tag k="name" v="Nedre Tørrholen" />
		<tag k="natural" v="hill" />
		<tag k="place" v="locality" />
		<tag k="ssr:stedsnr" v="725519" />
	</node>
	<node id="-329910" lat="60.9865861083" lon="11.5805111159">
		<tag k="name" v="Saglia" />
		<tag k="natural" v="slope" />
		<tag k="place" v="locality" />
		<tag k="ssr:stedsnr" v="362580" />
	</node>
	<node id="-329395" lat="60.9817416659" lon="11.4095333398">
		<tag k="name" v="Hansmyrhaugen" />
		<tag k="natural" v="hill" />
		<tag k="place" v="locality" />
		<tag k="ssr:stedsnr" v="55525" />
	</node>
	<node id="-330415" lat="60.9483527801" lon="11.9475166592">
		<tag k="name" v="Grastjennåsen" />
		<tag k="natural" v="hill" />
		<tag k="place" v="locality" />
		<tag k="ssr:stedsnr" v="768389" />
	</node>
	<node id="-328743" lat="60.9287583328" lon="11.4804249971">
		<tag k="name" v="Østerdalen" />
		<tag k="natural" v="valley" />
		<tag k="place" v="locality" />
		<tag k="ssr:stedsnr" v="692157" />
	</node>
	<node id="-328365" lat="61.0128111099" lon="11.3808250045">
		<tag k="name" v="Søndre Vonkalshaugen" />
		<tag k="natural" v="hill" />
		<tag k="place" v="locality" />
		<tag k="ssr:stedsnr" v="479555" />
	</node>
	<node id="-329899" lat="61.0731250027" lon="11.8082166677">
		<tag k="name" v="Knettlia" />
		<tag k="natural" v="slope" />
		<tag k="place" v="locality" />
		<tag k="ssr:stedsnr" v="361099" />
	</node>
	<node id="-330407" lat="60.8696138898" lon="11.6854222232">
		<tag k="name" v="Starmoen" />
		<tag k="place" v="locality" />
		<tag k="ssr:stedsnr" v="750864" />
	</node>
	<node id="-328355" lat="60.8151055564" lon="11.8367861124">
		<tag k="fixme" v="consider natural=peak for the most distinct mountains in the district" />
		<tag k="name" v="Veltborgåsen" />
		<tag k="natural" v="hill" />
		<tag k="place" v="locality" />
		<tag k="ssr:stedsnr" v="313265" />
	</node>
	<node id="-328866" lat="60.9980333337" lon="11.654374991">
		<tag k="name" v="Galenberget" />
		<tag k="natural" v="hill" />
		<tag k="place" v="locality" />
		<tag k="ssr:stedsnr" v="616982" />
	</node>
	<node id="-330401" lat="60.9528555589" lon="11.9047999932">
		<tag k="fixme" v="consider natural=peak for the most distinct mountains in the district" />
		<tag k="name" v="Hølåsen" />
		<tag k="natural" v="hill" />
		<tag k="place" v="locality" />
		<tag k="ssr:stedsnr" v="738391" />
	</node>
	<node id="-328861" lat="60.855794448" lon="11.9159250059">
		<tag k="name" v="Løvberget" />
		<tag k="natural" v="hill" />
		<tag k="place" v="locality" />
		<tag k="ssr:stedsnr" v="616574" />
	</node>
	<node id="-330010" lat="60.7741527805" lon="11.713902777">
		<tag k="name" v="Linddalen" />
		<tag k="natural" v="valley" />
		<tag k="place" v="locality" />
		<tag k="ssr:stedsnr" v="423337" />
	</node>
	<node id="-328858" lat="60.7537499982" lon="11.6571583304">
		<tag k="fixme" v="consider natural=peak for the most distinct mountains in the district" />
		<tag k="name" v="Sæteråsen" />
		<tag k="natural" v="hill" />
		<tag k="place" v="locality" />
		<tag k="ssr:stedsnr" v="616418" />
	</node>
	<node id="-329881" lat="60.959986109" lon="11.5173638804">
		<tag k="name" v="Øvre Egga" />
		<tag k="natural" v="slope" />
		<tag k="place" v="locality" />
		<tag k="ssr:stedsnr" v="358645" />
	</node>
	<node id="-329366" lat="60.7836583307" lon="11.780474991">
		<tag k="name" v="Brattberget" />
		<tag k="natural" v="hill" />
		<tag k="place" v="locality" />
		<tag k="ssr:stedsnr" v="10347" />
	</node>
	<node id="-330389" lat="60.840200002" lon="11.924077782">
		<tag k="name" v="Knatten" />
		<tag k="natural" v="hill" />
		<tag k="place" v="locality" />
		<tag k="ssr:stedsnr" v="737607" />
	</node>
	<node id="-328339" lat="60.9496250037" lon="11.9519055641">
		<tag k="fixme" v="consider natural=peak for the most distinct mountains in the district" />
		<tag k="name" v="Fjælabuåsen" />
		<tag k="natural" v="hill" />
		<tag k="place" v="locality" />
		<tag k="ssr:stedsnr" v="312470" />
	</node>
	<node id="-328472" lat="60.7542750046" lon="11.6297388825">
		<tag k="name" v="Nysvehaugen" />
		<tag k="natural" v="hill" />
		<tag k="place" v="locality" />
		<tag k="ssr:stedsnr" v="494415" />
	</node>
	<node id="-330382" lat="60.947175004" lon="11.9073666662">
		<tag k="fixme" v="consider natural=peak for the most distinct mountains in the district" />
		<tag k="name" v="Rundåsen" />
		<tag k="natural" v="hill" />
		<tag k="place" v="locality" />
		<tag k="ssr:stedsnr" v="737442" />
	</node>
	<node id="-330379" lat="60.9767305548" lon="11.9537722241">
		<tag k="fixme" v="consider natural=peak for the most distinct mountains in the district" />
		<tag k="name" v="Ulvåsen" />
		<tag k="natural" v="hill" />
		<tag k="place" v="locality" />
		<tag k="ssr:stedsnr" v="737353" />
	</node>
	<node id="-328842" lat="61.1746027795" lon="11.7653055595">
		<tag k="name" v="Grasberget" />
		<tag k="natural" v="hill" />
		<tag k="place" v="locality" />
		<tag k="ssr:stedsnr" v="614368" />
	</node>
	<node id="-328469" lat="60.7718888892" lon="11.670875003">
		<tag k="name" v="Midtskogsberget" />
		<tag k="natural" v="hill" />
		<tag k="place" v="locality" />
		<tag k="ssr:stedsnr" v="494306" />
	</node>
	<node id="-329863" lat="60.7723499975" lon="11.6506027747">
		<tag k="name" v="Skallberget" />
		<tag k="natural" v="hill" />
		<tag k="place" v="locality" />
		<tag k="ssr:stedsnr" v="339090" />
	</node>
	<node id="-329862" lat="60.230299997" lon="12.0507111097">
		<tag k="name" v="Glåmdalen" />
		<tag k="natural" v="valley" />
		<tag k="place" v="locality" />
		<tag k="ssr:stedsnr" v="331783" />
	</node>
	<node id="-329348" lat="60.9665305583" lon="12.0884027786">
		<tag k="fixme" v="consider natural=peak for the most distinct mountains in the district" />
		<tag k="name" v="Klintåsen" />
		<tag k="natural" v="hill" />
		<tag k="place" v="locality" />
		<tag k="ssr:stedsnr" v="9389" />
	</node>
	<node id="-329346" lat="60.9864611137" lon="12.0970138832">
		<tag k="alt_name" v="Akerslia" />
		<tag k="name" v="Åkerslia" />
		<tag k="natural" v="slope" />
		<tag k="place" v="locality" />
		<tag k="ssr:stedsnr" v="9368" />
	</node>
	<node id="-328640" lat="60.869638888" lon="11.5137555506">
		<tag k="name" v="Galgeberg" />
		<tag k="natural" v="hill" />
		<tag k="place" v="locality" />
		<tag k="ssr:stedsnr" v="665643" />
	</node>
	<node id="-329342" lat="60.7779722183" lon="11.6544305481">
		<tag k="name" v="Nedre Skallberget" />
		<tag k="natural" v="hill" />
		<tag k="place" v="locality" />
		<tag k="ssr:stedsnr" v="9285" />
	</node>
	<node id="-330365" lat="60.9025055572" lon="11.8318361145">
		<tag k="fixme" v="multiple name tags, choose one and add the other to alt_name; consider natural=peak for the most distinct mountains in the district" />
		<tag k="name" v="Finnsvehallberget;Storberget" />
		<tag k="natural" v="hill" />
		<tag k="place" v="locality" />
		<tag k="ssr:stedsnr" v="737147" />
	</node>
	<node id="-328828" lat="61.0670305581" lon="11.7604611146">
		<tag k="name" v="Langmyrdalen" />
		<tag k="natural" v="valley" />
		<tag k="place" v="locality" />
		<tag k="ssr:stedsnr" v="601630" />
	</node>
	<node id="-328822" lat="60.9183972205" lon="11.5142638964">
		<tag k="name" v="Korsikken" />
		<tag k="natural" v="hill" />
		<tag k="place" v="locality" />
		<tag k="ssr:stedsnr" v="601607" />
	</node>
	<node id="-330350" lat="60.9597666653" lon="11.7919833416">
		<tag k="fixme" v="consider natural=peak for the most distinct mountains in the district" />
		<tag k="name" v="Skuruberget" />
		<tag k="natural" v="hill" />
		<tag k="place" v="locality" />
		<tag k="ssr:stedsnr" v="737003" />
	</node>
	<node id="-328813" lat="61.0648027818" lon="12.0634666602">
		<tag k="name" v="Bokbekkåsen" />
		<tag k="natural" v="hill" />
		<tag k="place" v="locality" />
		<tag k="ssr:stedsnr" v="586525" />
	</node>
	<node id="-330348" lat="61.0078777752" lon="12.1002500086">
		<tag k="name" v="Flisberget" />
		<tag k="natural" v="hill" />
		<tag k="place" v="locality" />
		<tag k="ssr:stedsnr" v="736861" />
	</node>
	<node id="-329323" lat="61.0297833309" lon="11.8345333267">
		<tag k="fixme" v="consider natural=peak for the most distinct mountains in the district" />
		<tag k="name" v="Ulvåsen" />
		<tag k="natural" v="hill" />
		<tag k="place" v="locality" />
		<tag k="ssr:stedsnr" v="8525" />
	</node>
	<node id="-329319" lat="61.0208249965" lon="11.6144000039">
		<tag k="fixme" v="consider natural=peak for the most distinct mountains in the district" />
		<tag k="name" v="Garbuåsen" />
		<tag k="natural" v="hill" />
		<tag k="place" v="locality" />
		<tag k="ssr:stedsnr" v="8258" />
	</node>
	<node id="-328806" lat="60.7839055598" lon="11.5265472192">
		<tag k="name" v="Kronhaugberget" />
		<tag k="natural" v="hill" />
		<tag k="place" v="locality" />
		<tag k="ssr:stedsnr" v="709393" />
	</node>
	<node id="-329829" lat="60.7709499975" lon="11.6843750018">
		<tag k="name" v="Langberget" />
		<tag k="natural" v="hill" />
		<tag k="place" v="locality" />
		<tag k="ssr:stedsnr" v="312323" />
	</node>
	<node id="-328550" lat="60.9660277792" lon="11.8288444517">
		<tag k="name" v="Skjærsvehallen" />
		<tag k="natural" v="slope" />
		<tag k="place" v="locality" />
		<tag k="ssr:stedsnr" v="405170" />
	</node>
	<node id="-329823" lat="60.8398749972" lon="11.5867777698">
		<tag k="name" v="Haugsberget" />
		<tag k="natural" v="hill" />
		<tag k="place" v="locality" />
		<tag k="ssr:stedsnr" v="312177" />
	</node>
	<node id="-330333" lat="61.0512694435" lon="11.9290111042">
		<tag k="name" v="Kvisthøgda" />
		<tag k="natural" v="hill" />
		<tag k="place" v="locality" />
		<tag k="ssr:stedsnr" v="646372" />
	</node>
	<node id="-329308" lat="61.0589250039" lon="11.9045249956">
		<tag k="name" v="Madsberget" />
		<tag k="natural" v="hill" />
		<tag k="place" v="locality" />
		<tag k="ssr:stedsnr" v="7927" />
	</node>
	<node id="-330328" lat="60.9606138846" lon="12.0197638814">
		<tag k="name" v="Gjeddsjøberget" />
		<tag k="natural" v="hill" />
		<tag k="place" v="locality" />
		<tag k="ssr:stedsnr" v="616381" />
	</node>
	<node id="-329060" lat="61.0827611078" lon="12.0886916751">
		<tag k="alt_name" v="Gampehaugen" />
		<tag k="name" v="Gamphaugen" />
		<tag k="natural" v="hill" />
		<tag k="place" v="locality" />
		<tag k="ssr:stedsnr" v="917896" />
	</node>
	<node id="-330326" lat="60.978697224" lon="11.8476999933">
		<tag k="name" v="Svartbråtahøgda" />
		<tag k="natural" v="hill" />
		<tag k="place" v="locality" />
		<tag k="ssr:stedsnr" v="616375" />
	</node>
	<node id="-329813" lat="60.9541333341" lon="11.7364666627">
		<tag k="name" v="Såsæterhøgda" />
		<tag k="natural" v="hill" />
		<tag k="place" v="locality" />
		<tag k="ssr:stedsnr" v="312003" />
	</node>
	<node id="-328787" lat="61.0443222201" lon="11.9519027742">
		<tag k="name" v="Fliskjølåsen" />
		<tag k="natural" v="hill" />
		<tag k="place" v="locality" />
		<tag k="ssr:stedsnr" v="707400" />
	</node>
	<node id="-329810" lat="61.0796722263" lon="11.8851305596">
		<tag k="fixme" v="consider natural=peak for the most distinct mountains in the district" />
		<tag k="name" v="Vesleåsen" />
		<tag k="natural" v="hill" />
		<tag k="place" v="locality" />
		<tag k="ssr:stedsnr" v="311934" />
	</node>
	<node id="-329809" lat="61.0780583329" lon="12.0568305573">
		<tag k="fixme" v="consider natural=peak for the most distinct mountains in the district" />
		<tag k="name" v="Styggberget" />
		<tag k="natural" v="hill" />
		<tag k="place" v="locality" />
		<tag k="ssr:stedsnr" v="311930" />
	</node>
	<node id="-328784" lat="60.9338999962" lon="11.9241222189">
		<tag k="name" v="Gyltberget" />
		<tag k="natural" v="hill" />
		<tag k="place" v="locality" />
		<tag k="ssr:stedsnr" v="555441" />
	</node>
	<node id="-328814" lat="61.0625722265" lon="12.0431027806">
		<tag k="name" v="Håbergsberget" />
		<tag k="natural" v="valley" />
		<tag k="place" v="locality" />
		<tag k="ssr:stedsnr" v="586530" />
	</node>
	<node id="-328716" lat="60.9594527766" lon="11.9044638818">
		<tag k="name" v="Borkbuberget" />
		<tag k="natural" v="hill" />
		<tag k="place" v="locality" />
		<tag k="ssr:stedsnr" v="677378" />
	</node>
	<node id="-329251" lat="60.7632138853" lon="11.639430552">
		<tag k="name" v="Høghaugen" />
		<tag k="natural" v="hill" />
		<tag k="place" v="locality" />
		<tag k="ssr:stedsnr" v="919425" />
	</node>
	<node id="-329398" lat="61.1148777804" lon="11.7531444373">
		<tag k="name" v="Golandbekklia" />
		<tag k="natural" v="slope" />
		<tag k="place" v="locality" />
		<tag k="ssr:stedsnr" v="55650" />
	</node>
	<node id="-328715" lat="60.8151138864" lon="11.756733341">
		<tag k="name" v="Flisknappen" />
		<tag k="natural" v="hill" />
		<tag k="place" v="locality" />
		<tag k="ssr:stedsnr" v="677242" />
	</node>
	<node id="-329791" lat="61.1451249962" lon="11.685250002">
		<tag k="name" v="Gransjøberget" />
		<tag k="natural" v="hill" />
		<tag k="place" v="locality" />
		<tag k="ssr:stedsnr" v="311173" />
	</node>
	<node id="-329790" lat="61.0349277764" lon="11.4606194496">
		<tag k="name" v="Holshaugen" />
		<tag k="natural" v="hill" />
		<tag k="place" v="locality" />
		<tag k="ssr:stedsnr" v="310249" />
	</node>
	<node id="-329788" lat="61.0092472259" lon="11.5504694437">
		<tag k="name" v="Heberget" />
		<tag k="natural" v="hill" />
		<tag k="place" v="locality" />
		<tag k="ssr:stedsnr" v="302592" />
	</node>
	<node id="-330292" lat="61.0612249993" lon="12.0995583316">
		<tag k="name" v="Gunners" />
		<tag k="natural" v="hill" />
		<tag k="place" v="locality" />
		<tag k="ssr:stedsnr" v="614922" />
	</node>
	<node id="-329778" lat="60.8525055558" lon="11.5291888853">
		<tag k="fixme" v="consider natural=peak for the most distinct mountains in the district" />
		<tag k="name" v="Bjørnåsen" />
		<tag k="natural" v="hill" />
		<tag k="place" v="locality" />
		<tag k="ssr:stedsnr" v="301591" />
	</node>
	<node id="-328483" lat="60.8270583336" lon="11.9239611088">
		<tag k="fixme" v="consider natural=peak for the most distinct mountains in the district" />
		<tag k="name" v="Nord-Flatåsen" />
		<tag k="natural" v="hill" />
		<tag k="place" v="locality" />
		<tag k="ssr:stedsnr" v="494577" />
	</node>
	<node id="-330283" lat="61.039286107" lon="11.4773499951">
		<tag k="name" v="Godbakken" />
		<tag k="natural" v="hill" />
		<tag k="place" v="locality" />
		<tag k="ssr:stedsnr" v="614198" />
	</node>
	<node id="-328234" lat="60.9745750026" lon="11.4661833266">
		<tag k="name" v="Geitryggen" />
		<tag k="natural" v="ridge" />
		<tag k="place" v="locality" />
		<tag k="ssr:stedsnr" v="178723" />
	</node>
	<node id="-328745" lat="61.0079416705" lon="11.383827782">
		<tag k="name" v="Langmyrhaugen" />
		<tag k="natural" v="hill" />
		<tag k="place" v="locality" />
		<tag k="ssr:stedsnr" v="540563" />
	</node>
	<node id="-330332" lat="61.0511527762" lon="11.9209166676">
		<tag k="name" v="Kvistberget" />
		<tag k="natural" v="slope" />
		<tag k="place" v="locality" />
		<tag k="ssr:stedsnr" v="646370" />
	</node>
	<node id="-328625" lat="60.8298388846" lon="11.511686113">
		<tag k="name" v="Abbortjennshøgda" />
		<tag k="natural" v="hill" />
		<tag k="place" v="locality" />
		<tag k="ssr:stedsnr" v="664552" />
	</node>
	<node id="-328244" lat="61.1595861109" lon="11.7297250009">
		<tag k="name" v="Gransjøvola" />
		<tag k="natural" v="hill" />
		<tag k="place" v="locality" />
		<tag k="ssr:stedsnr" v="189132" />
	</node>
	<node id="-330275" lat="60.9839083342" lon="11.5709999914">
		<tag k="name" v="Harakjeldlia" />
		<tag k="natural" v="slope" />
		<tag k="place" v="locality" />
		<tag k="ssr:stedsnr" v="604586" />
	</node>
	<node id="-328224" lat="60.9635222211" lon="11.8761694491">
		<tag k="fixme" v="consider natural=peak for the most distinct mountains in the district" />
		<tag k="name" v="Oksmyråsen" />
		<tag k="natural" v="hill" />
		<tag k="place" v="locality" />
		<tag k="ssr:stedsnr" v="284155" />
	</node>
	<node id="-329247" lat="60.7546666663" lon="11.6152305547">
		<tag k="name" v="Gjuvbakkhaugen" />
		<tag k="natural" v="hill" />
		<tag k="place" v="locality" />
		<tag k="ssr:stedsnr" v="919406" />
	</node>
	<node id="-329246" lat="60.7776666662" lon="11.6035500044">
		<tag k="name" v="Eriksbrenna" />
		<tag k="natural" v="hill" />
		<tag k="place" v="locality" />
		<tag k="ssr:stedsnr" v="919306" />
	</node>
	<node id="-329757" lat="60.9378666694" lon="11.9306000092">
		<tag k="fixme" v="consider natural=peak for the most distinct mountains in the district" />
		<tag k="name" v="Korpåsen" />
		<tag k="natural" v="hill" />
		<tag k="place" v="locality" />
		<tag k="ssr:stedsnr" v="191466" />
	</node>
	<node id="-330777" lat="61.0774027759" lon="11.5342083317">
		<tag k="fixme" v="consider natural=peak for the most distinct mountains in the district" />
		<tag k="loc_name" v="Skjærnubben" />
		<tag k="name" v="Skjærnupen" />
		<tag k="natural" v="hill" />
		<tag k="place" v="locality" />
		<tag k="ssr:stedsnr" v="372172" />
	</node>
	<node id="-327971" lat="61.0337250009" lon="11.6978499967">
		<tag k="name" v="Julusstranda" />
		<tag k="place" v="locality" />
		<tag k="ssr:stedsnr" v="55354" />
	</node>
	<node id="-329239" lat="60.8616055595" lon="11.8184750016">
		<tag k="fixme" v="consider natural=peak for the most distinct mountains in the district" />
		<tag k="name" v="Lauvåsen" />
		<tag k="natural" v="hill" />
		<tag k="place" v="locality" />
		<tag k="ssr:stedsnr" v="919209" />
	</node>
	<node id="-329750" lat="60.7667527766" lon="11.6461555527">
		<tag k="name" v="Øvre Skallberget" />
		<tag k="natural" v="hill" />
		<tag k="place" v="locality" />
		<tag k="ssr:stedsnr" v="191384" />
	</node>
	<node id="-328212" lat="60.9317833295" lon="11.5693888884">
		<tag k="name" v="Storsvingen" />
		<tag k="natural" v="slope" />
		<tag k="place" v="locality" />
		<tag k="ssr:stedsnr" v="283055" />
	</node>
	<node id="-328404" lat="60.8669444479" lon="11.7983750003">
		<tag k="name" v="Lilleknatten" />
		<tag k="natural" v="hill" />
		<tag k="place" v="locality" />
		<tag k="ssr:stedsnr" v="483998" />
	</node>
	<node id="-329233" lat="61.1638000037" lon="11.7926000093">
		<tag k="name" v="Fuglberget" />
		<tag k="natural" v="hill" />
		<tag k="place" v="locality" />
		<tag k="ssr:stedsnr" v="918412" />
	</node>
	<node id="-329230" lat="61.0174361106" lon="11.5870777754">
		<tag k="fixme" v="consider natural=peak for the most distinct mountains in the district" />
		<tag k="name" v="Bjørnåsen" />
		<tag k="natural" v="hill" />
		<tag k="place" v="locality" />
		<tag k="ssr:stedsnr" v="918259" />
	</node>
	<node id="-329740" lat="60.8289999994" lon="11.5112361133">
		<tag k="name" v="Svarttjennshaugen" />
		<tag k="natural" v="hill" />
		<tag k="place" v="locality" />
		<tag k="ssr:stedsnr" v="191250" />
	</node>
	<node id="-329739" lat="60.8114722215" lon="11.7364888898">
		<tag k="loc_name" v="Støpberget" />
		<tag k="name" v="Støpsberget" />
		<tag k="natural" v="hill" />
		<tag k="place" v="locality" />
		<tag k="ssr:stedsnr" v="191230" />
	</node>
	<node id="-330249" lat="61.0018250038" lon="11.3957722168">
		<tag k="name" v="Sandbakkhaugen" />
		<tag k="natural" v="hill" />
		<tag k="place" v="locality" />
		<tag k="ssr:stedsnr" v="601530" />
	</node>
	<node id="-330248" lat="61.0467527815" lon="11.648513896">
		<tag k="name" v="Vedmoen" />
		<tag k="place" v="locality" />
		<tag k="ssr:stedsnr" v="601526" />
	</node>
	<node id="-329302" lat="61.0718333345" lon="11.5241027809">
		<tag k="name" v="Marispronga" />
		<tag k="natural" v="valley" />
		<tag k="place" v="locality" />
		<tag k="ssr:stedsnr" v="7212" />
	</node>
	<node id="-329218" lat="60.8649749957" lon="11.6511583331">
		<tag k="name" v="Høyhaugen" />
		<tag k="natural" v="hill" />
		<tag k="place" v="locality" />
		<tag k="ssr:stedsnr" v="907013" />
	</node>
</osm>
