<?xml version="1.0" encoding="UTF-8"?>
<osm version="0.6" generator="osmapis">
	<node lat="60.875130556470914" lon="11.462291668780493" id="-21089">
		<tag k="name" v="Midtskogen" />
		<tag k="ssr:stedsnr" v="21093" />
		<tag k="tourism" v="attraction" />
	</node>
	<node lat="60.94280555432938" lon="11.773763897934966" id="-21115">
		<tag k="amenity" v="place_of_worship" />
		<tag k="denomination" v="lutheran" />
		<tag k="name" v="Sørskogbygda kirke" />
		<tag k="old_name" v="Sætre" />
		<tag k="religion" v="christian" />
		<tag k="ssr:stedsnr" v="44090" />
	</node>
	<node lat="60.926202781757844" lon="11.635127787233051" id="-21207">
		<tag k="amenity" v="community_centre" />
		<tag k="name" v="Norvang" />
		<tag k="ssr:stedsnr" v="102109" />
	</node>
	<node lat="61.04775833625125" lon="11.903541661860737" id="-21241">
		<tag k="amenity" v="community_centre" />
		<tag k="name" v="Gottenborg" />
		<tag k="ssr:stedsnr" v="250869" />
	</node>
	<node lat="60.9509500002546" lon="11.504830552918573" id="-21343">
		<tag k="amenity" v="community_centre" />
		<tag k="name" v="Langenga" />
		<tag k="ssr:stedsnr" v="130009" />
	</node>
	<node lat="60.883983333326164" lon="11.57068888586211" id="-21351">
		<tag k="alt_name" v="Christianfjeld festning" />
		<tag k="name" v="Kristiansfjell" />
		<tag k="ssr:stedsnr" v="130096" />
		<tag k="tourism" v="attraction" />
	</node>
	<node lat="60.875155559260016" lon="11.491247215198404" id="-21519">
		<tag k="name" v="Haugsæterovergangen" />
		<tag k="place" v="locality" />
		<tag k="ssr:stedsnr" v="301588" />
	</node>
	<node lat="60.99252222542506" lon="11.696588892599904" id="-21578">
		<tag k="amenity" v="place_of_worship" />
		<tag k="denomination" v="lutheran" />
		<tag k="name" v="Nordskogbygda kirke" />
		<tag k="old_name" v="Nederberg;Nedreberg" />
		<tag k="religion" v="christian" />
		<tag k="ssr:stedsnr" v="472999" />
	</node>
	<node lat="61.10272500115411" lon="11.716280554387023" id="-21757">
		<tag k="name" v="Slaggholet" />
		<tag k="place" v="locality" />
		<tag k="ssr:stedsnr" v="675214" />
	</node>
	<node lat="61.18013889072693" lon="11.738230557731113" id="-21764">
		<tag k="alt_name" v="Grasbergsætra, nordre" />
		<tag k="name" v="Nordre Grasbergsætra" />
		<tag k="place" v="locality" />
		<tag k="ssr:stedsnr" v="675383" />
	</node>
	<node lat="60.98574722499445" lon="11.74807222736275" id="-22105">
		<tag k="amenity" v="community_centre" />
		<tag k="name" v="Parkeringen" />
		<tag k="ssr:stedsnr" v="725410" />
	</node>
	<node lat="60.87755277454031" lon="11.566055559672803" id="-22178">
		<tag k="amenity" v="place_of_worship" />
		<tag k="denomination" v="lutheran" />
		<tag k="name" v="Elverum kirke" />
		<tag k="religion" v="christian" />
		<tag k="ssr:stedsnr" v="772268" />
	</node>
	<node lat="61.03295277922101" lon="11.721305563067867" id="-22190">
		<tag k="amenity" v="community_centre" />
		<tag k="name" v="Skogvang" />
		<tag k="ssr:stedsnr" v="783360" />
	</node>
	<node lat="60.87015000369358" lon="11.559713881474321" id="-22322">
		<tag k="name" v="Norsk Skogmuseum" />
		<tag k="old_name" v="Norsk skogbruksmuseum" />
		<tag k="ssr:stedsnr" v="844024" />
		<tag k="tourism" v="museum" />
	</node>
</osm>
