<?xml version="1.0" encoding="UTF-8"?>
<osm generator="osmapis" version="0.6">
	<node id="-189152" lat="59.7401805576" lon="10.4132055507">
		<tag k="name" v="Røyken kommune" />
		<tag k="ssr:date" v="2016-05-10" />
		<tag k="ssr:gruppe" v="administrativeIndelinger" />
		<tag k="ssr:hovedgruppe" v="offentligAdministrasjon" />
		<tag k="ssr:stedsnr" v="85831" />
		<tag k="ssr:type" v="kommune" />
	</node>
	<node id="-189501" lat="59.7125527793" lon="10.5179555616">
		<tag k="name" v="Mellomstien" />
		<tag k="ssr:date" v="2019-05-30" />
		<tag k="ssr:gruppe" v="veg" />
		<tag k="ssr:hovedgruppe" v="infrastruktur" />
		<tag k="ssr:stedsnr" v="822142" />
		<tag k="ssr:type" v="adressenavn" />
	</node>
	<node id="-189092" lat="59.7385477768" lon="10.3909352785">
		<tag k="name" v="Heggumstubben" />
		<tag k="ssr:date" v="2019-05-30" />
		<tag k="ssr:gruppe" v="veg" />
		<tag k="ssr:hovedgruppe" v="infrastruktur" />
		<tag k="ssr:stedsnr" v="1034126" />
		<tag k="ssr:type" v="adressenavn" />
	</node>
	<node id="-189093" lat="59.7654346424" lon="10.5011156336">
		<tag k="name" v="Morbergholmen" />
		<tag k="ssr:date" v="2019-05-30" />
		<tag k="ssr:gruppe" v="veg" />
		<tag k="ssr:hovedgruppe" v="infrastruktur" />
		<tag k="ssr:stedsnr" v="1034090" />
		<tag k="ssr:type" v="adressenavn" />
	</node>
	<node id="-189492" lat="59.6974722263" lon="10.5113166699">
		<tag k="name" v="Myraveien" />
		<tag k="ssr:date" v="2019-05-30" />
		<tag k="ssr:gruppe" v="veg" />
		<tag k="ssr:hovedgruppe" v="infrastruktur" />
		<tag k="ssr:stedsnr" v="815979" />
		<tag k="ssr:type" v="adressenavn" />
	</node>
	<node id="-189522" lat="59.7566138895" lon="10.4005138874">
		<tag k="name" v="Moserudhagan" />
		<tag k="ssr:date" v="2019-05-30" />
		<tag k="ssr:gruppe" v="veg" />
		<tag k="ssr:hovedgruppe" v="infrastruktur" />
		<tag k="ssr:stedsnr" v="874791" />
		<tag k="ssr:type" v="adressenavn" />
	</node>
	<node id="-189232" lat="59.7257305563" lon="10.5352416689">
		<tag k="alt_name" v="Nordre Sundbyholmen" />
		<tag k="name" v="Nordre Sundbyholmen lykt" />
		<tag k="ssr:date" v="2016-05-10" />
		<tag k="ssr:gruppe" v="navigasjon" />
		<tag k="ssr:hovedgruppe" v="infrastruktur" />
		<tag k="ssr:stedsnr" v="236074" />
		<tag k="ssr:type" v="fyrlykt" />
	</node>
	<node id="-189007" lat="59.73851944" lon="10.3943583344">
		<tag k="name" v="Østre Heggumåsen" />
		<tag k="ssr:date" v="2019-05-30" />
		<tag k="ssr:gruppe" v="veg" />
		<tag k="ssr:hovedgruppe" v="infrastruktur" />
		<tag k="ssr:stedsnr" v="276260" />
		<tag k="ssr:type" v="adressenavn" />
	</node>
	<node id="-189390" lat="59.7419277793" lon="10.3879861188">
		<tag k="name" v="Bassengveien" />
		<tag k="ssr:date" v="2019-05-30" />
		<tag k="ssr:gruppe" v="veg" />
		<tag k="ssr:hovedgruppe" v="infrastruktur" />
		<tag k="ssr:stedsnr" v="666852" />
		<tag k="ssr:type" v="adressenavn" />
	</node>
	<node id="-189195" lat="59.7457694449" lon="10.3439083245">
		<tag k="name" v="Oddevallveien" />
		<tag k="ssr:date" v="2019-05-30" />
		<tag k="ssr:gruppe" v="veg" />
		<tag k="ssr:hovedgruppe" v="infrastruktur" />
		<tag k="ssr:stedsnr" v="181861" />
		<tag k="ssr:type" v="adressenavn" />
	</node>
	<node id="-189079" lat="59.7672146441" lon="10.4837013123">
		<tag k="name" v="Morbergtoppen" />
		<tag k="ssr:date" v="2019-07-03" />
		<tag k="ssr:gruppe" v="veg" />
		<tag k="ssr:hovedgruppe" v="infrastruktur" />
		<tag k="ssr:stedsnr" v="1072093" />
		<tag k="ssr:type" v="adressenavn" />
	</node>
	<node id="-189096" lat="59.6876134515" lon="10.5329294782">
		<tag k="name" v="Torvøya" />
		<tag k="ssr:date" v="2019-05-30" />
		<tag k="ssr:gruppe" v="veg" />
		<tag k="ssr:hovedgruppe" v="infrastruktur" />
		<tag k="ssr:stedsnr" v="1034100" />
		<tag k="ssr:type" v="adressenavn" />
	</node>
	<node id="-189095" lat="59.7035732034" lon="10.5290738059">
		<tag k="name" v="Gråøya" />
		<tag k="ssr:date" v="2019-05-30" />
		<tag k="ssr:gruppe" v="veg" />
		<tag k="ssr:hovedgruppe" v="infrastruktur" />
		<tag k="ssr:stedsnr" v="1034098" />
		<tag k="ssr:type" v="adressenavn" />
	</node>
	<node id="-189574" lat="59.7456975101" lon="10.3405056119">
		<tag k="name" v="C.A.Johansens plass" />
		<tag k="ssr:date" v="2019-05-30" />
		<tag k="ssr:gruppe" v="veg" />
		<tag k="ssr:hovedgruppe" v="infrastruktur" />
		<tag k="ssr:stedsnr" v="978873" />
		<tag k="ssr:type" v="adressenavn" />
	</node>
	<node id="-189477" lat="59.756794442" lon="10.4005138806">
		<tag k="name" v="Svartvannsveien" />
		<tag k="ssr:date" v="2019-05-30" />
		<tag k="ssr:gruppe" v="veg" />
		<tag k="ssr:hovedgruppe" v="infrastruktur" />
		<tag k="ssr:stedsnr" v="814799" />
		<tag k="ssr:type" v="adressenavn" />
	</node>
	<node id="-189094" lat="59.6965147865" lon="10.5201025702">
		<tag k="name" v="Killingholmen" />
		<tag k="ssr:date" v="2019-05-30" />
		<tag k="ssr:gruppe" v="veg" />
		<tag k="ssr:hovedgruppe" v="infrastruktur" />
		<tag k="ssr:stedsnr" v="1034094" />
		<tag k="ssr:type" v="adressenavn" />
	</node>
	<node id="-189571" lat="60.5908609473" lon="9.63819281559">
		<tag k="fixme" v="multiple name tags, choose one and add the other to alt_name" />
		<tag k="name" v="Austlandet;Østlandet" />
		<tag k="ssr:date" v="2018-01-09" />
		<tag k="ssr:gruppe" v="administrativeIndelinger" />
		<tag k="ssr:hovedgruppe" v="offentligAdministrasjon" />
		<tag k="ssr:stedsnr" v="974775" />
		<tag k="ssr:type" v="annenAdministrativInndeling" />
	</node>
	<node id="-189089" lat="59.7420678118" lon="10.4176511232">
		<tag k="name" v="Brudeberget" />
		<tag k="ssr:date" v="2019-05-30" />
		<tag k="ssr:gruppe" v="veg" />
		<tag k="ssr:hovedgruppe" v="infrastruktur" />
		<tag k="ssr:stedsnr" v="988154" />
		<tag k="ssr:type" v="adressenavn" />
	</node>
</osm>
