<?xml version="1.0" encoding="UTF-8"?>
<<<<<<< HEAD
<osm version="0.6" generator="osmapis">
	<node lat="60.93803611050783" lon="9.582922214061483" id="-19007">
		<tag k="old_name" v="Ørslykkjevegen" />
		<tag k="ssr:date" v="2019-12-27" />
		<tag k="ssr:gruppe" v="veg" />
		<tag k="ssr:hovedgruppe" v="infrastruktur" />
		<tag k="ssr:stedsnr" v="720412" />
		<tag k="ssr:type" v="vegstrekning" />
	</node>
	<node lat="60.930822221793264" lon="9.602311107703713" id="-19921">
		<tag k="old_name" v="Ulvslykkjevegen" />
		<tag k="ssr:date" v="2019-12-27" />
		<tag k="ssr:gruppe" v="veg" />
		<tag k="ssr:hovedgruppe" v="infrastruktur" />
		<tag k="ssr:stedsnr" v="538698" />
		<tag k="ssr:type" v="vegstrekning" />
	</node>
	<node lat="60.952227780283245" lon="9.531472214744829" id="-20460">
=======
<osm generator="osmapis" version="0.6">
	<node id="-397813" lat="60.9522277803" lon="9.53147221474">
		<tag k="old_name" v="Ulvslykkjevegen" />
		<tag k="ssr:date" v="2019-12-27" />
		<tag k="ssr:gruppe" v="veg" />
		<tag k="ssr:hovedgruppe" v="infrastruktur" />
		<tag k="ssr:stedsnr" v="964381" />
		<tag k="ssr:type" v="vegstrekning" />
	</node>
	<node id="-396383" lat="60.9380361105" lon="9.58292221406">
		<tag k="old_name" v="Ørslykkjevegen" />
		<tag k="ssr:date" v="2019-12-27" />
		<tag k="ssr:gruppe" v="veg" />
		<tag k="ssr:hovedgruppe" v="infrastruktur" />
		<tag k="ssr:stedsnr" v="720412" />
		<tag k="ssr:type" v="vegstrekning" />
	</node>
	<node id="-397269" lat="60.9308222218" lon="9.6023111077">
>>>>>>> e1d4bc35ff8a6074a6f2e91616a996b547c36f15
		<tag k="old_name" v="Ulvslykkjevegen" />
		<tag k="ssr:date" v="2019-12-27" />
		<tag k="ssr:gruppe" v="veg" />
		<tag k="ssr:hovedgruppe" v="infrastruktur" />
<<<<<<< HEAD
		<tag k="ssr:stedsnr" v="964381" />
=======
		<tag k="ssr:stedsnr" v="538698" />
>>>>>>> e1d4bc35ff8a6074a6f2e91616a996b547c36f15
		<tag k="ssr:type" v="vegstrekning" />
	</node>
</osm>
