<?xml version="1.0" encoding="UTF-8"?>
<<<<<<< HEAD
<osm version="0.6" generator="osmapis">
	<node lat="60.823191664664535" lon="9.71053888125856" id="-18094">
		<tag k="name" v="Øvre Markestadvegen" />
		<tag k="ssr:date" v="2019-12-27" />
		<tag k="ssr:gruppe" v="veg" />
		<tag k="ssr:hovedgruppe" v="infrastruktur" />
		<tag k="ssr:stedsnr" v="5617" />
		<tag k="ssr:type" v="vegstrekning" />
	</node>
	<node lat="60.83858889289827" lon="9.619616668489543" id="-18114">
		<tag k="name" v="Bagnsvegen" />
		<tag k="ssr:date" v="2019-12-27" />
		<tag k="ssr:gruppe" v="veg" />
		<tag k="ssr:hovedgruppe" v="infrastruktur" />
		<tag k="ssr:stedsnr" v="235155" />
		<tag k="ssr:type" v="vegstrekning" />
	</node>
	<node lat="60.88708055754141" lon="9.623797216322886" id="-18128">
		<tag k="name" v="Fjellslinna" />
		<tag k="ssr:date" v="2019-12-27" />
		<tag k="ssr:gruppe" v="veg" />
		<tag k="ssr:hovedgruppe" v="infrastruktur" />
		<tag k="ssr:stedsnr" v="235519" />
		<tag k="ssr:type" v="vegstrekning" />
	</node>
	<node lat="60.945363884652785" lon="9.647513886295245" id="-18131">
=======
<osm generator="osmapis" version="0.6">
	<node id="-397823" lat="60.8736305577" lon="9.7241083386">
		<tag k="name" v="Delevegen" />
		<tag k="ssr:date" v="2019-12-27" />
		<tag k="ssr:gruppe" v="veg" />
		<tag k="ssr:hovedgruppe" v="infrastruktur" />
		<tag k="ssr:stedsnr" v="964750" />
		<tag k="ssr:type" v="vegstrekning" />
	</node>
	<node id="-397820" lat="60.8367833303" lon="9.73721944302">
		<tag k="name" v="Plassasvingen" />
		<tag k="ssr:date" v="2019-12-27" />
		<tag k="ssr:gruppe" v="veg" />
		<tag k="ssr:hovedgruppe" v="infrastruktur" />
		<tag k="ssr:stedsnr" v="964500" />
		<tag k="ssr:type" v="vegstrekning" />
	</node>
	<node id="-397819" lat="60.8388583361" lon="9.7437249973">
		<tag k="name" v="Plassavegen" />
		<tag k="ssr:date" v="2019-12-27" />
		<tag k="ssr:gruppe" v="veg" />
		<tag k="ssr:hovedgruppe" v="infrastruktur" />
		<tag k="ssr:stedsnr" v="964493" />
		<tag k="ssr:type" v="vegstrekning" />
	</node>
	<node id="-396279" lat="61.0058972238" lon="9.72996667426">
		<tag k="name" v="Tanterhaugvegen" />
		<tag k="ssr:date" v="2019-12-27" />
		<tag k="ssr:gruppe" v="veg" />
		<tag k="ssr:hovedgruppe" v="infrastruktur" />
		<tag k="ssr:stedsnr" v="721450" />
		<tag k="ssr:type" v="vegstrekning" />
	</node>
	<node id="-396275" lat="60.9449972227" lon="9.66363611812">
>>>>>>> e1d4bc35ff8a6074a6f2e91616a996b547c36f15
		<tag k="name" v="Svilosvegen" />
		<tag k="ssr:date" v="2019-12-27" />
		<tag k="ssr:gruppe" v="veg" />
		<tag k="ssr:hovedgruppe" v="infrastruktur" />
<<<<<<< HEAD
		<tag k="ssr:stedsnr" v="235732" />
		<tag k="ssr:type" v="vegstrekning" />
	</node>
	<node lat="60.886480558347984" lon="9.738955547989882" id="-18134">
		<tag k="name" v="Haustsætervegen" />
=======
		<tag k="ssr:stedsnr" v="721195" />
		<tag k="ssr:type" v="vegstrekning" />
	</node>
	<node id="-396271" lat="60.9378888921" lon="9.72433055573">
		<tag k="name" v="Bergstølvegen" />
>>>>>>> e1d4bc35ff8a6074a6f2e91616a996b547c36f15
		<tag k="ssr:date" v="2019-12-27" />
		<tag k="ssr:gruppe" v="veg" />
		<tag k="ssr:hovedgruppe" v="infrastruktur" />
		<tag k="ssr:stedsnr" v="721395" />
		<tag k="ssr:type" v="vegstrekning" />
	</node>
<<<<<<< HEAD
	<node lat="60.8392027747149" lon="9.6961944454211" id="-18153">
		<tag k="name" v="Haustsæterfjellvegen" />
		<tag k="ssr:date" v="2019-12-27" />
		<tag k="ssr:gruppe" v="veg" />
		<tag k="ssr:hovedgruppe" v="infrastruktur" />
		<tag k="ssr:stedsnr" v="236623" />
		<tag k="ssr:type" v="vegstrekning" />
	</node>
	<node lat="60.86789999803453" lon="9.62850554743424" id="-18154">
		<tag k="name" v="Bergsvegen" />
		<tag k="ssr:date" v="2019-12-27" />
		<tag k="ssr:gruppe" v="veg" />
		<tag k="ssr:hovedgruppe" v="infrastruktur" />
		<tag k="ssr:stedsnr" v="236740" />
		<tag k="ssr:type" v="vegstrekning" />
	</node>
	<node lat="60.97258333539613" lon="9.576627779917994" id="-18180">
		<tag k="name" v="Flatigardsvegen" />
		<tag k="ssr:date" v="2019-12-27" />
		<tag k="ssr:gruppe" v="veg" />
		<tag k="ssr:hovedgruppe" v="infrastruktur" />
		<tag k="ssr:stedsnr" v="53073" />
		<tag k="ssr:type" v="vegstrekning" />
	</node>
	<node lat="60.98388055989656" lon="9.74649999122116" id="-18200">
		<tag k="name" v="Breistølvegen" />
		<tag k="ssr:date" v="2019-12-27" />
		<tag k="ssr:gruppe" v="veg" />
		<tag k="ssr:hovedgruppe" v="infrastruktur" />
		<tag k="ssr:stedsnr" v="54177" />
		<tag k="ssr:type" v="vegstrekning" />
	</node>
	<node lat="60.84786666343909" lon="9.630486119009971" id="-18244">
		<tag k="alt_name" v="Nøkkeltjednvegen" />
		<tag k="name" v="Nøkletjernvegen" />
		<tag k="ssr:date" v="2019-12-27" />
		<tag k="ssr:gruppe" v="veg" />
		<tag k="ssr:hovedgruppe" v="infrastruktur" />
		<tag k="ssr:stedsnr" v="114029" />
		<tag k="ssr:type" v="vegstrekning" />
	</node>
	<node lat="60.92680000178044" lon="9.722455558704159" id="-18262">
		<tag k="name" v="Bjødndalsvegen" />
		<tag k="ssr:date" v="2019-12-27" />
		<tag k="ssr:gruppe" v="veg" />
		<tag k="ssr:hovedgruppe" v="infrastruktur" />
		<tag k="ssr:stedsnr" v="114706" />
		<tag k="ssr:type" v="vegstrekning" />
	</node>
	<node lat="60.83753611164693" lon="9.761630563870211" id="-18268">
		<tag k="name" v="Liavegen" />
		<tag k="ssr:date" v="2019-12-27" />
		<tag k="ssr:gruppe" v="veg" />
		<tag k="ssr:hovedgruppe" v="infrastruktur" />
		<tag k="ssr:stedsnr" v="114615" />
		<tag k="ssr:type" v="vegstrekning" />
	</node>
	<node lat="60.87223889005404" lon="9.646658341883096" id="-18368">
		<tag k="name" v="Sørumsvegen" />
		<tag k="ssr:date" v="2019-12-27" />
		<tag k="ssr:gruppe" v="veg" />
		<tag k="ssr:hovedgruppe" v="infrastruktur" />
		<tag k="ssr:stedsnr" v="175974" />
		<tag k="ssr:type" v="vegstrekning" />
	</node>
	<node lat="60.827741663649036" lon="9.720755557508028" id="-18371">
		<tag k="name" v="Spelemannsslettvegen" />
		<tag k="ssr:date" v="2019-12-27" />
		<tag k="ssr:gruppe" v="veg" />
		<tag k="ssr:hovedgruppe" v="infrastruktur" />
		<tag k="ssr:stedsnr" v="176473" />
		<tag k="ssr:type" v="vegstrekning" />
	</node>
	<node lat="60.82249444682581" lon="9.720086102362279" id="-18372">
		<tag k="name" v="Øvre Markestadvegen" />
		<tag k="ssr:date" v="2019-12-27" />
		<tag k="ssr:gruppe" v="veg" />
		<tag k="ssr:hovedgruppe" v="infrastruktur" />
		<tag k="ssr:stedsnr" v="176474" />
		<tag k="ssr:type" v="vegstrekning" />
	</node>
	<node lat="60.88871944562611" lon="9.640308336340478" id="-18400">
		<tag k="name" v="Etnedal kommune" />
		<tag k="ssr:date" v="2019-12-27" />
		<tag k="ssr:gruppe" v="administrativeIndelinger" />
		<tag k="ssr:hovedgruppe" v="offentligAdministrasjon" />
		<tag k="ssr:stedsnr" v="268065" />
		<tag k="ssr:type" v="kommune" />
	</node>
	<node lat="61.0377861095823" lon="9.622386114832112" id="-18417">
		<tag k="name" v="Gamle Lenningsvegen" />
		<tag k="ssr:date" v="2019-12-27" />
		<tag k="ssr:gruppe" v="veg" />
		<tag k="ssr:hovedgruppe" v="infrastruktur" />
		<tag k="ssr:stedsnr" v="235939" />
		<tag k="ssr:type" v="vegstrekning" />
	</node>
	<node lat="60.94481944055019" lon="9.707377778551821" id="-18424">
		<tag k="name" v="Bergstølvegen" />
		<tag k="ssr:date" v="2019-12-27" />
		<tag k="ssr:gruppe" v="veg" />
		<tag k="ssr:hovedgruppe" v="infrastruktur" />
		<tag k="ssr:stedsnr" v="236227" />
		<tag k="ssr:type" v="vegstrekning" />
	</node>
	<node lat="60.88197778083629" lon="9.606861112091968" id="-18439">
		<tag k="name" v="Breiesvegen" />
		<tag k="ssr:date" v="2019-12-27" />
		<tag k="ssr:gruppe" v="veg" />
		<tag k="ssr:hovedgruppe" v="infrastruktur" />
		<tag k="ssr:stedsnr" v="236905" />
		<tag k="ssr:type" v="vegstrekning" />
	</node>
	<node lat="60.85901944823785" lon="9.746347221606207" id="-18444">
		<tag k="name" v="Bamserudvegen" />
		<tag k="ssr:date" v="2019-12-27" />
		<tag k="ssr:gruppe" v="veg" />
		<tag k="ssr:hovedgruppe" v="infrastruktur" />
		<tag k="ssr:stedsnr" v="237282" />
		<tag k="ssr:type" v="vegstrekning" />
	</node>
	<node lat="60.96434444654623" lon="9.739855558682388" id="-18479">
		<tag k="name" v="Juvavegen" />
		<tag k="ssr:date" v="2019-12-27" />
		<tag k="ssr:gruppe" v="veg" />
		<tag k="ssr:hovedgruppe" v="infrastruktur" />
		<tag k="ssr:stedsnr" v="296628" />
		<tag k="ssr:type" v="vegstrekning" />
	</node>
	<node lat="60.943172218859246" lon="9.572366657686544" id="-18522">
		<tag k="name" v="Teljebakkatn" />
		<tag k="ssr:date" v="2019-12-27" />
		<tag k="ssr:gruppe" v="veg" />
		<tag k="ssr:hovedgruppe" v="infrastruktur" />
		<tag k="ssr:stedsnr" v="356410" />
		<tag k="ssr:type" v="vegstrekning" />
	</node>
	<node lat="60.97829167096789" lon="9.613555553651326" id="-18527">
		<tag k="name" v="Solbjørgåsvegen" />
		<tag k="ssr:date" v="2019-12-27" />
		<tag k="ssr:gruppe" v="veg" />
		<tag k="ssr:hovedgruppe" v="infrastruktur" />
		<tag k="ssr:stedsnr" v="356665" />
		<tag k="ssr:type" v="vegstrekning" />
	</node>
	<node lat="60.907144440761215" lon="9.793063896721756" id="-18546">
		<tag k="name" v="Leppdalsvegen" />
		<tag k="ssr:date" v="2019-12-27" />
		<tag k="ssr:gruppe" v="veg" />
		<tag k="ssr:hovedgruppe" v="infrastruktur" />
		<tag k="ssr:stedsnr" v="357801" />
		<tag k="ssr:type" v="vegstrekning" />
	</node>
	<node lat="60.83508055617752" lon="9.741486118584435" id="-18553">
		<tag k="name" v="Peresvingen" />
		<tag k="ssr:date" v="2019-12-27" />
		<tag k="ssr:gruppe" v="veg" />
		<tag k="ssr:hovedgruppe" v="infrastruktur" />
		<tag k="ssr:stedsnr" v="358519" />
		<tag k="ssr:type" v="vegstrekning" />
	</node>
	<node lat="60.87194166993281" lon="9.727938888621363" id="-18555">
		<tag k="name" v="Solbjørgsvegen" />
		<tag k="ssr:date" v="2019-12-27" />
		<tag k="ssr:gruppe" v="veg" />
		<tag k="ssr:hovedgruppe" v="infrastruktur" />
		<tag k="ssr:stedsnr" v="358821" />
		<tag k="ssr:type" v="vegstrekning" />
	</node>
	<node lat="60.85789166653896" lon="9.629433325265925" id="-18577">
		<tag k="name" v="Venstrevegen" />
		<tag k="ssr:date" v="2019-12-27" />
		<tag k="ssr:gruppe" v="veg" />
		<tag k="ssr:hovedgruppe" v="infrastruktur" />
		<tag k="ssr:stedsnr" v="478095" />
		<tag k="ssr:type" v="vegstrekning" />
	</node>
	<node lat="60.863980553006826" lon="9.75034722300775" id="-18631">
		<tag k="name" v="Bamserudsvingen" />
		<tag k="ssr:date" v="2019-12-27" />
		<tag k="ssr:gruppe" v="veg" />
		<tag k="ssr:hovedgruppe" v="infrastruktur" />
		<tag k="ssr:stedsnr" v="479856" />
		<tag k="ssr:type" v="vegstrekning" />
	</node>
	<node lat="60.884952774998084" lon="9.646361109642957" id="-18644">
		<tag k="name" v="Søromsvegen" />
		<tag k="ssr:date" v="2019-12-27" />
		<tag k="ssr:gruppe" v="veg" />
		<tag k="ssr:hovedgruppe" v="infrastruktur" />
		<tag k="ssr:stedsnr" v="417299" />
		<tag k="ssr:type" v="vegstrekning" />
	</node>
	<node lat="60.939733331637534" lon="9.749730558071784" id="-18762">
		<tag k="name" v="Bergstølskogvegen" />
		<tag k="ssr:date" v="2019-12-27" />
		<tag k="ssr:gruppe" v="veg" />
		<tag k="ssr:hovedgruppe" v="infrastruktur" />
		<tag k="ssr:stedsnr" v="478380" />
		<tag k="ssr:type" v="vegstrekning" />
	</node>
	<node lat="60.92479722533066" lon="9.612286106858352" id="-18800">
		<tag k="name" v="Espelivegen" />
		<tag k="ssr:date" v="2019-12-27" />
		<tag k="ssr:gruppe" v="veg" />
		<tag k="ssr:hovedgruppe" v="infrastruktur" />
		<tag k="ssr:stedsnr" v="538105" />
		<tag k="ssr:type" v="vegstrekning" />
	</node>
	<node lat="60.83789444471105" lon="9.629977784348142" id="-18814">
		<tag k="name" v="Meinsetvegen" />
		<tag k="ssr:date" v="2019-12-27" />
		<tag k="ssr:gruppe" v="veg" />
		<tag k="ssr:hovedgruppe" v="infrastruktur" />
		<tag k="ssr:stedsnr" v="539018" />
		<tag k="ssr:type" v="vegstrekning" />
	</node>
	<node lat="60.821363893177896" lon="9.768563889100506" id="-18830">
		<tag k="name" v="Etnavegen" />
		<tag k="ssr:date" v="2019-12-27" />
		<tag k="ssr:gruppe" v="veg" />
		<tag k="ssr:hovedgruppe" v="infrastruktur" />
		<tag k="ssr:stedsnr" v="540579" />
		<tag k="ssr:type" v="vegstrekning" />
	</node>
	<node lat="61.01653888799984" lon="9.522205547675155" id="-18834">
		<tag k="name" v="Brøtavegen" />
		<tag k="ssr:date" v="2019-12-27" />
		<tag k="ssr:gruppe" v="veg" />
		<tag k="ssr:hovedgruppe" v="infrastruktur" />
		<tag k="ssr:stedsnr" v="542683" />
		<tag k="ssr:type" v="vegstrekning" />
	</node>
	<node lat="60.87767222137756" lon="9.662772231238622" id="-18883">
		<tag k="name" v="Turrhaugvegen" />
		<tag k="ssr:date" v="2019-12-27" />
		<tag k="ssr:gruppe" v="veg" />
		<tag k="ssr:hovedgruppe" v="infrastruktur" />
		<tag k="ssr:stedsnr" v="599504" />
		<tag k="ssr:type" v="vegstrekning" />
	</node>
	<node lat="61.09422777642735" lon="9.548686111363812" id="-18929">
		<tag k="name" v="Stuvelivegen" />
		<tag k="ssr:date" v="2019-12-27" />
		<tag k="ssr:gruppe" v="veg" />
		<tag k="ssr:hovedgruppe" v="infrastruktur" />
		<tag k="ssr:stedsnr" v="659431" />
		<tag k="ssr:type" v="vegstrekning" />
	</node>
	<node lat="60.92734999976606" lon="9.698266671848868" id="-18938">
		<tag k="name" v="Nystølvegen" />
		<tag k="ssr:date" v="2019-12-27" />
		<tag k="ssr:gruppe" v="veg" />
		<tag k="ssr:hovedgruppe" v="infrastruktur" />
		<tag k="ssr:stedsnr" v="660182" />
		<tag k="ssr:type" v="vegstrekning" />
	</node>
	<node lat="60.962858330076415" lon="9.700316671517312" id="-18951">
		<tag k="name" v="Kjerringstølvegen" />
		<tag k="ssr:date" v="2019-12-27" />
		<tag k="ssr:gruppe" v="veg" />
		<tag k="ssr:hovedgruppe" v="infrastruktur" />
		<tag k="ssr:stedsnr" v="660794" />
		<tag k="ssr:type" v="vegstrekning" />
	</node>
	<node lat="60.91102222323883" lon="9.779738882600757" id="-18952">
		<tag k="name" v="Langvasslivegen" />
		<tag k="ssr:date" v="2019-12-27" />
		<tag k="ssr:gruppe" v="veg" />
		<tag k="ssr:hovedgruppe" v="infrastruktur" />
		<tag k="ssr:stedsnr" v="660795" />
		<tag k="ssr:type" v="vegstrekning" />
	</node>
	<node lat="60.87539166254959" lon="9.762808329389546" id="-18966">
		<tag k="name" v="Åborvassvegen" />
		<tag k="old_name" v="Øbbervassvegen" />
		<tag k="ssr:date" v="2019-12-27" />
		<tag k="ssr:gruppe" v="veg" />
		<tag k="ssr:hovedgruppe" v="infrastruktur" />
		<tag k="ssr:stedsnr" v="661735" />
		<tag k="ssr:type" v="vegstrekning" />
	</node>
	<node lat="60.88974722165172" lon="9.57929722263688" id="-19002">
		<tag k="name" v="Sveavegen" />
		<tag k="ssr:date" v="2019-12-27" />
		<tag k="ssr:gruppe" v="veg" />
		<tag k="ssr:hovedgruppe" v="infrastruktur" />
		<tag k="ssr:stedsnr" v="720009" />
		<tag k="ssr:type" v="vegstrekning" />
	</node>
	<node lat="60.99464166453384" lon="9.763133333036093" id="-19008">
		<tag k="name" v="Nedre Breistølvegen" />
		<tag k="ssr:date" v="2019-12-27" />
		<tag k="ssr:gruppe" v="veg" />
		<tag k="ssr:hovedgruppe" v="infrastruktur" />
		<tag k="ssr:stedsnr" v="720481" />
		<tag k="ssr:type" v="vegstrekning" />
	</node>
	<node lat="60.94912777864869" lon="9.643030556078921" id="-19017">
=======
	<node id="-396778" lat="60.8375361116" lon="9.76163056387">
		<tag k="name" v="Liavegen" />
		<tag k="ssr:date" v="2019-12-27" />
		<tag k="ssr:gruppe" v="veg" />
		<tag k="ssr:hovedgruppe" v="infrastruktur" />
		<tag k="ssr:stedsnr" v="114615" />
		<tag k="ssr:type" v="vegstrekning" />
	</node>
	<node id="-397800" lat="60.9494611074" lon="9.69352500841">
		<tag k="name" v="Svilosvegen" />
		<tag k="ssr:date" v="2019-12-27" />
		<tag k="ssr:gruppe" v="veg" />
		<tag k="ssr:hovedgruppe" v="infrastruktur" />
		<tag k="ssr:stedsnr" v="963846" />
		<tag k="ssr:type" v="vegstrekning" />
	</node>
	<node id="-396774" lat="60.9413777783" lon="9.62441666898">
		<tag k="name" v="Kringlemovegen" />
		<tag k="ssr:date" v="2019-12-27" />
		<tag k="ssr:gruppe" v="veg" />
		<tag k="ssr:hovedgruppe" v="infrastruktur" />
		<tag k="ssr:stedsnr" v="114546" />
		<tag k="ssr:type" v="vegstrekning" />
	</node>
	<node id="-396768" lat="61.0546722233" lon="9.58450833107">
		<tag k="name" v="Rotvollstølvegen" />
		<tag k="ssr:date" v="2019-12-27" />
		<tag k="ssr:gruppe" v="veg" />
		<tag k="ssr:hovedgruppe" v="infrastruktur" />
		<tag k="ssr:stedsnr" v="114352" />
		<tag k="ssr:type" v="vegstrekning" />
	</node>
	<node id="-397791" lat="60.9624083377" lon="9.56680276939">
		<tag k="name" v="Halvordshusvegen" />
		<tag k="ssr:date" v="2019-12-27" />
		<tag k="ssr:gruppe" v="veg" />
		<tag k="ssr:hovedgruppe" v="infrastruktur" />
		<tag k="ssr:stedsnr" v="963595" />
		<tag k="ssr:type" v="vegstrekning" />
	</node>
	<node id="-397788" lat="60.9680250029" lon="9.58644722432">
		<tag k="name" v="Flatigardslivegen" />
		<tag k="ssr:date" v="2019-12-27" />
		<tag k="ssr:gruppe" v="veg" />
		<tag k="ssr:hovedgruppe" v="infrastruktur" />
		<tag k="ssr:stedsnr" v="963587" />
		<tag k="ssr:type" v="vegstrekning" />
	</node>
	<node id="-396755" lat="60.8841777754" lon="9.63772499449">
		<tag k="name" v="Venstrevegen" />
		<tag k="ssr:date" v="2019-12-27" />
		<tag k="ssr:gruppe" v="veg" />
		<tag k="ssr:hovedgruppe" v="infrastruktur" />
		<tag k="ssr:stedsnr" v="113423" />
		<tag k="ssr:type" v="vegstrekning" />
	</node>
	<node id="-397264" lat="60.9247972253" lon="9.61228610686">
		<tag k="name" v="Espelivegen" />
		<tag k="ssr:date" v="2019-12-27" />
		<tag k="ssr:gruppe" v="veg" />
		<tag k="ssr:hovedgruppe" v="infrastruktur" />
		<tag k="ssr:stedsnr" v="538105" />
		<tag k="ssr:type" v="vegstrekning" />
	</node>
	<node id="-396232" lat="61.0117638848" lon="9.64640554874">
		<tag k="name" v="Langedalstølvegen" />
		<tag k="ssr:date" v="2019-12-27" />
		<tag k="ssr:gruppe" v="veg" />
		<tag k="ssr:hovedgruppe" v="infrastruktur" />
		<tag k="ssr:stedsnr" v="720201" />
		<tag k="ssr:type" v="vegstrekning" />
	</node>
	<node id="-396228" lat="60.977186112" lon="9.59389443963">
		<tag k="name" v="Rønsmovegen" />
		<tag k="ssr:date" v="2019-12-27" />
		<tag k="ssr:gruppe" v="veg" />
		<tag k="ssr:hovedgruppe" v="infrastruktur" />
		<tag k="ssr:stedsnr" v="720080" />
		<tag k="ssr:type" v="vegstrekning" />
	</node>
	<node id="-395715" lat="60.9192222197" lon="9.76498055057">
		<tag k="name" v="Leppedalsvegen" />
		<tag k="ssr:date" v="2019-12-27" />
		<tag k="ssr:gruppe" v="veg" />
		<tag k="ssr:hovedgruppe" v="infrastruktur" />
		<tag k="ssr:stedsnr" v="175707" />
		<tag k="ssr:type" v="vegstrekning" />
	</node>
	<node id="-396214" lat="60.981627782" lon="9.66382777064">
		<tag k="name" v="Nystølvegen" />
		<tag k="ssr:date" v="2019-12-27" />
		<tag k="ssr:gruppe" v="veg" />
		<tag k="ssr:hovedgruppe" v="infrastruktur" />
		<tag k="ssr:stedsnr" v="599620" />
		<tag k="ssr:type" v="vegstrekning" />
	</node>
	<node id="-397741" lat="60.8780472206" lon="9.74257221336">
		<tag k="name" v="Langesjå" />
		<tag k="ssr:date" v="2019-12-27" />
		<tag k="ssr:gruppe" v="veg" />
		<tag k="ssr:hovedgruppe" v="infrastruktur" />
		<tag k="ssr:stedsnr" v="844762" />
		<tag k="ssr:type" v="vegstrekning" />
	</node>
	<node id="-395691" lat="60.8815388857" lon="9.61278611139">
		<tag k="name" v="Fjellslinna" />
		<tag k="ssr:date" v="2019-12-27" />
		<tag k="ssr:gruppe" v="veg" />
		<tag k="ssr:hovedgruppe" v="infrastruktur" />
		<tag k="ssr:stedsnr" v="114921" />
		<tag k="ssr:type" v="vegstrekning" />
	</node>
	<node id="-397733" lat="60.8556000037" lon="9.7665138899">
		<tag k="name" v="Bjørnskarvegen" />
		<tag k="ssr:date" v="2019-12-27" />
		<tag k="ssr:gruppe" v="veg" />
		<tag k="ssr:hovedgruppe" v="infrastruktur" />
		<tag k="ssr:stedsnr" v="844272" />
		<tag k="ssr:type" v="vegstrekning" />
	</node>
	<node id="-397732" lat="60.8575555557" lon="9.75253610863">
		<tag k="name" v="Fossehyttevegen" />
		<tag k="ssr:date" v="2019-12-27" />
		<tag k="ssr:gruppe" v="veg" />
		<tag k="ssr:hovedgruppe" v="infrastruktur" />
		<tag k="ssr:stedsnr" v="844271" />
		<tag k="ssr:type" v="vegstrekning" />
	</node>
	<node id="-395682" lat="60.9268000018" lon="9.7224555587">
		<tag k="name" v="Bjødndalsvegen" />
		<tag k="ssr:date" v="2019-12-27" />
		<tag k="ssr:gruppe" v="veg" />
		<tag k="ssr:hovedgruppe" v="infrastruktur" />
		<tag k="ssr:stedsnr" v="114706" />
		<tag k="ssr:type" v="vegstrekning" />
	</node>
	<node id="-396188" lat="60.8213638932" lon="9.7685638891">
		<tag k="name" v="Etnavegen" />
		<tag k="ssr:date" v="2019-12-27" />
		<tag k="ssr:gruppe" v="veg" />
		<tag k="ssr:hovedgruppe" v="infrastruktur" />
		<tag k="ssr:stedsnr" v="540579" />
		<tag k="ssr:type" v="vegstrekning" />
	</node>
	<node id="-397723" lat="60.8531972249" lon="9.74508888444">
		<tag k="name" v="Storsvingen" />
		<tag k="ssr:date" v="2019-12-27" />
		<tag k="ssr:gruppe" v="veg" />
		<tag k="ssr:hovedgruppe" v="infrastruktur" />
		<tag k="ssr:stedsnr" v="843772" />
		<tag k="ssr:type" v="vegstrekning" />
	</node>
	<node id="-395673" lat="60.8478666634" lon="9.63048611901">
		<tag k="alt_name" v="Nøkkeltjednvegen" />
		<tag k="name" v="Nøkletjernvegen" />
		<tag k="ssr:date" v="2019-12-27" />
		<tag k="ssr:gruppe" v="veg" />
		<tag k="ssr:hovedgruppe" v="infrastruktur" />
		<tag k="ssr:stedsnr" v="114029" />
		<tag k="ssr:type" v="vegstrekning" />
	</node>
	<node id="-395670" lat="61.0034611096" lon="9.57010556284">
		<tag k="name" v="Veslehestekinnvegen" />
		<tag k="ssr:date" v="2019-12-27" />
		<tag k="ssr:gruppe" v="veg" />
		<tag k="ssr:hovedgruppe" v="infrastruktur" />
		<tag k="ssr:stedsnr" v="113342" />
		<tag k="ssr:type" v="vegstrekning" />
	</node>
	<node id="-396689" lat="60.9838805599" lon="9.74649999122">
		<tag k="name" v="Breistølvegen" />
		<tag k="ssr:date" v="2019-12-27" />
		<tag k="ssr:gruppe" v="veg" />
		<tag k="ssr:hovedgruppe" v="infrastruktur" />
		<tag k="ssr:stedsnr" v="54177" />
		<tag k="ssr:type" v="vegstrekning" />
	</node>
	<node id="-397712" lat="60.8695361132" lon="9.70935832433">
		<tag k="name" v="Vikavegen" />
		<tag k="ssr:date" v="2019-12-27" />
		<tag k="ssr:gruppe" v="veg" />
		<tag k="ssr:hovedgruppe" v="infrastruktur" />
		<tag k="ssr:stedsnr" v="843856" />
		<tag k="ssr:type" v="vegstrekning" />
	</node>
	<node id="-396173" lat="61.0087027784" lon="9.55941666914">
		<tag k="name" v="Rennavegen" />
		<tag k="ssr:date" v="2019-12-27" />
		<tag k="ssr:gruppe" v="veg" />
		<tag k="ssr:hovedgruppe" v="infrastruktur" />
		<tag k="ssr:stedsnr" v="538397" />
		<tag k="ssr:type" v="vegstrekning" />
	</node>
	<node id="-397192" lat="60.9329055568" lon="9.7344777748">
		<tag k="name" v="Leppedalsvegen" />
		<tag k="ssr:date" v="2019-12-27" />
		<tag k="ssr:gruppe" v="veg" />
		<tag k="ssr:hovedgruppe" v="infrastruktur" />
		<tag k="ssr:stedsnr" v="418357" />
		<tag k="ssr:type" v="vegstrekning" />
	</node>
	<node id="-397188" lat="60.8820722227" lon="9.69149166611">
		<tag k="name" v="Kleivgardsvegen" />
		<tag k="ssr:date" v="2019-12-27" />
		<tag k="ssr:gruppe" v="veg" />
		<tag k="ssr:hovedgruppe" v="infrastruktur" />
		<tag k="ssr:stedsnr" v="418479" />
		<tag k="ssr:type" v="vegstrekning" />
	</node>
	<node id="-396669" lat="61.0736833349" lon="9.56232221585">
		<tag k="name" v="Stuvelivegen" />
		<tag k="ssr:date" v="2019-12-27" />
		<tag k="ssr:gruppe" v="veg" />
		<tag k="ssr:hovedgruppe" v="infrastruktur" />
		<tag k="ssr:stedsnr" v="53249" />
		<tag k="ssr:type" v="vegstrekning" />
	</node>
	<node id="-397168" lat="60.9071972253" lon="9.64174167559">
		<tag k="name" v="Byfelivegen" />
		<tag k="ssr:date" v="2019-12-27" />
		<tag k="ssr:gruppe" v="veg" />
		<tag k="ssr:hovedgruppe" v="infrastruktur" />
		<tag k="ssr:stedsnr" v="417872" />
		<tag k="ssr:type" v="vegstrekning" />
	</node>
	<node id="-397676" lat="60.9118638873" lon="9.63259721316">
		<tag k="name" v="Sveavegen" />
		<tag k="ssr:date" v="2019-12-27" />
		<tag k="ssr:gruppe" v="veg" />
		<tag k="ssr:hovedgruppe" v="infrastruktur" />
		<tag k="ssr:stedsnr" v="842852" />
		<tag k="ssr:type" v="vegstrekning" />
	</node>
	<node id="-397161" lat="60.9131388871" lon="9.66268056264">
		<tag k="name" v="Byfelivegen" />
		<tag k="ssr:date" v="2019-12-27" />
		<tag k="ssr:gruppe" v="veg" />
		<tag k="ssr:hovedgruppe" v="infrastruktur" />
		<tag k="ssr:stedsnr" v="417561" />
		<tag k="ssr:type" v="vegstrekning" />
	</node>
	<node id="-396177" lat="60.8378944447" lon="9.62997778435">
		<tag k="name" v="Meinsetvegen" />
		<tag k="ssr:date" v="2019-12-27" />
		<tag k="ssr:gruppe" v="veg" />
		<tag k="ssr:hovedgruppe" v="infrastruktur" />
		<tag k="ssr:stedsnr" v="539018" />
		<tag k="ssr:type" v="vegstrekning" />
	</node>
	<node id="-397668" lat="60.9388249961" lon="9.62126666764">
		<tag k="name" v="Røstevegen" />
		<tag k="ssr:date" v="2019-12-27" />
		<tag k="ssr:gruppe" v="veg" />
		<tag k="ssr:hovedgruppe" v="infrastruktur" />
		<tag k="ssr:stedsnr" v="842546" />
		<tag k="ssr:type" v="vegstrekning" />
	</node>
	<node id="-397663" lat="60.9942083324" lon="9.76526666764">
		<tag k="name" v="Øvre Breistølvegen" />
		<tag k="ssr:date" v="2019-12-27" />
		<tag k="ssr:gruppe" v="veg" />
		<tag k="ssr:hovedgruppe" v="infrastruktur" />
		<tag k="ssr:stedsnr" v="842476" />
		<tag k="ssr:type" v="vegstrekning" />
	</node>
	<node id="-397150" lat="60.884952775" lon="9.64636110964">
		<tag k="name" v="Søromsvegen" />
		<tag k="ssr:date" v="2019-12-27" />
		<tag k="ssr:gruppe" v="veg" />
		<tag k="ssr:hovedgruppe" v="infrastruktur" />
		<tag k="ssr:stedsnr" v="417299" />
		<tag k="ssr:type" v="vegstrekning" />
	</node>
	<node id="-396124" lat="60.863980553" lon="9.75034722301">
		<tag k="name" v="Bamserudsvingen" />
		<tag k="ssr:date" v="2019-12-27" />
		<tag k="ssr:gruppe" v="veg" />
		<tag k="ssr:hovedgruppe" v="infrastruktur" />
		<tag k="ssr:stedsnr" v="479856" />
		<tag k="ssr:type" v="vegstrekning" />
	</node>
	<node id="-395834" lat="60.8887194456" lon="9.64030833634">
		<tag k="name" v="Etnedal kommune" />
		<tag k="ssr:date" v="2019-12-27" />
		<tag k="ssr:gruppe" v="administrativeIndelinger" />
		<tag k="ssr:hovedgruppe" v="offentligAdministrasjon" />
		<tag k="ssr:stedsnr" v="268065" />
		<tag k="ssr:type" v="kommune" />
	</node>
	<node id="-397658" lat="60.8931055519" lon="9.60788332747">
		<tag k="name" v="Sørfjellsvegen" />
		<tag k="ssr:date" v="2019-12-27" />
		<tag k="ssr:gruppe" v="veg" />
		<tag k="ssr:hovedgruppe" v="infrastruktur" />
		<tag k="ssr:stedsnr" v="842384" />
		<tag k="ssr:type" v="vegstrekning" />
	</node>
	<node id="-395495" lat="60.8864805583" lon="9.73895554799">
		<tag k="name" v="Haustsætervegen" />
		<tag k="ssr:date" v="2019-12-27" />
		<tag k="ssr:gruppe" v="veg" />
		<tag k="ssr:hovedgruppe" v="infrastruktur" />
		<tag k="ssr:stedsnr" v="236076" />
		<tag k="ssr:type" v="vegstrekning" />
	</node>
	<node id="-395586" lat="60.8796416694" lon="9.66213332449">
		<tag k="name" v="Smeplassvegen" />
		<tag k="ssr:date" v="2019-12-27" />
		<tag k="ssr:gruppe" v="veg" />
		<tag k="ssr:hovedgruppe" v="infrastruktur" />
		<tag k="ssr:stedsnr" v="54515" />
		<tag k="ssr:type" v="vegstrekning" />
	</node>
	<node id="-395582" lat="60.8932250038" lon="9.73496667058">
		<tag k="alt_name" v="Sørresætervegen" />
		<tag k="name" v="Søresætervegen" />
		<tag k="ssr:date" v="2019-12-27" />
		<tag k="ssr:gruppe" v="veg" />
		<tag k="ssr:hovedgruppe" v="infrastruktur" />
		<tag k="ssr:stedsnr" v="54157" />
		<tag k="ssr:type" v="vegstrekning" />
	</node>
	<node id="-396255" lat="60.9491277786" lon="9.64303055608">
>>>>>>> e1d4bc35ff8a6074a6f2e91616a996b547c36f15
		<tag k="name" v="Endrekroken" />
		<tag k="ssr:date" v="2019-12-27" />
		<tag k="ssr:gruppe" v="veg" />
		<tag k="ssr:hovedgruppe" v="infrastruktur" />
		<tag k="ssr:stedsnr" v="720920" />
		<tag k="ssr:type" v="vegstrekning" />
	</node>
<<<<<<< HEAD
	<node lat="60.98762500239733" lon="9.683969443487047" id="-19028">
		<tag k="name" v="Grånstølvegen" />
		<tag k="ssr:date" v="2019-12-27" />
		<tag k="ssr:gruppe" v="veg" />
		<tag k="ssr:hovedgruppe" v="infrastruktur" />
		<tag k="ssr:stedsnr" v="721607" />
		<tag k="ssr:type" v="vegstrekning" />
	</node>
	<node lat="60.87919166775525" lon="9.634769438298555" id="-19031">
		<tag k="name" v="Venstrevegen" />
		<tag k="ssr:date" v="2019-12-27" />
		<tag k="ssr:gruppe" v="veg" />
		<tag k="ssr:hovedgruppe" v="infrastruktur" />
		<tag k="ssr:stedsnr" v="721737" />
		<tag k="ssr:type" v="vegstrekning" />
	</node>
	<node lat="60.834802774448185" lon="9.728327782777946" id="-19036">
		<tag k="name" v="Hyttemyrvegen" />
=======
	<node id="-395573" lat="60.8904527795" lon="9.69613332485">
		<tag k="alt_name" v="Bjørketjednvegen" />
		<tag k="name" v="Bjørketjernvegen" />
		<tag k="ssr:date" v="2019-12-27" />
		<tag k="ssr:gruppe" v="veg" />
		<tag k="ssr:hovedgruppe" v="infrastruktur" />
		<tag k="ssr:stedsnr" v="54011" />
		<tag k="ssr:type" v="vegstrekning" />
	</node>
	<node id="-396076" lat="60.9015999977" lon="9.78347222947">
		<tag k="name" v="Dygdedalsvegen" />
		<tag k="ssr:date" v="2019-12-27" />
		<tag k="ssr:gruppe" v="veg" />
		<tag k="ssr:hovedgruppe" v="infrastruktur" />
		<tag k="ssr:stedsnr" v="661646" />
		<tag k="ssr:type" v="vegstrekning" />
	</node>
	<node id="-397096" lat="60.9071444408" lon="9.79306389672">
		<tag k="name" v="Leppdalsvegen" />
>>>>>>> e1d4bc35ff8a6074a6f2e91616a996b547c36f15
		<tag k="ssr:date" v="2019-12-27" />
		<tag k="ssr:gruppe" v="veg" />
		<tag k="ssr:hovedgruppe" v="infrastruktur" />
		<tag k="ssr:stedsnr" v="357801" />
		<tag k="ssr:type" v="vegstrekning" />
	</node>
<<<<<<< HEAD
	<node lat="60.9498111086591" lon="9.554358337905251" id="-19080">
		<tag k="name" v="Brøtatrøvegen" />
		<tag k="ssr:date" v="2019-12-27" />
		<tag k="ssr:gruppe" v="veg" />
		<tag k="ssr:hovedgruppe" v="infrastruktur" />
		<tag k="ssr:stedsnr" v="902990" />
		<tag k="ssr:type" v="vegstrekning" />
	</node>
	<node lat="61.06276944474003" lon="9.589197222233523" id="-19089">
		<tag k="name" v="Rotvollstølvegen" />
		<tag k="ssr:date" v="2019-12-27" />
		<tag k="ssr:gruppe" v="veg" />
		<tag k="ssr:hovedgruppe" v="infrastruktur" />
		<tag k="ssr:stedsnr" v="903239" />
		<tag k="ssr:type" v="vegstrekning" />
	</node>
	<node lat="60.968363893090086" lon="9.69637499518893" id="-19104">
		<tag k="name" v="Øystølvegen" />
		<tag k="ssr:date" v="2019-12-27" />
		<tag k="ssr:gruppe" v="veg" />
		<tag k="ssr:hovedgruppe" v="infrastruktur" />
		<tag k="ssr:stedsnr" v="903813" />
		<tag k="ssr:type" v="vegstrekning" />
	</node>
	<node lat="60.98270555442361" lon="9.75259167209774" id="-19114">
		<tag k="name" v="Svilosvegen" />
		<tag k="ssr:date" v="2019-12-27" />
		<tag k="ssr:gruppe" v="veg" />
		<tag k="ssr:hovedgruppe" v="infrastruktur" />
		<tag k="ssr:stedsnr" v="904172" />
		<tag k="ssr:type" v="vegstrekning" />
	</node>
	<node lat="60.87591389100601" lon="9.678705562097127" id="-19116">
		<tag k="name" v="Gamle Hovdevegen" />
		<tag k="ssr:date" v="2019-12-27" />
		<tag k="ssr:gruppe" v="veg" />
		<tag k="ssr:hovedgruppe" v="infrastruktur" />
		<tag k="ssr:stedsnr" v="904475" />
		<tag k="ssr:type" v="vegstrekning" />
	</node>
	<node lat="60.86855277684297" lon="9.76550000887707" id="-19132">
		<tag k="alt_name" v="Rismyrtjednvegen" />
		<tag k="name" v="Ryssemyrtjernvegen" />
		<tag k="ssr:date" v="2019-12-27" />
		<tag k="ssr:gruppe" v="veg" />
		<tag k="ssr:hovedgruppe" v="infrastruktur" />
		<tag k="ssr:stedsnr" v="904862" />
		<tag k="ssr:type" v="vegstrekning" />
	</node>
	<node lat="60.93273637242012" lon="9.791457332017002" id="-19133">
		<tag k="name" v="Gjerdlivegen" />
		<tag k="ssr:date" v="2020-06-08" />
		<tag k="ssr:gruppe" v="veg" />
		<tag k="ssr:hovedgruppe" v="infrastruktur" />
		<tag k="ssr:stedsnr" v="904947" />
		<tag k="ssr:type" v="vegstrekning" />
	</node>
	<node lat="60.936691663560936" lon="9.602994439578064" id="-19144">
		<tag k="name" v="Halvordshusvegen" />
		<tag k="ssr:date" v="2019-12-27" />
		<tag k="ssr:gruppe" v="veg" />
		<tag k="ssr:hovedgruppe" v="infrastruktur" />
		<tag k="ssr:stedsnr" v="781558" />
		<tag k="ssr:type" v="vegstrekning" />
	</node>
	<node lat="60.87321110845771" lon="9.73187222787899" id="-19160">
		<tag k="name" v="Klovosvingen" />
		<tag k="ssr:date" v="2019-12-27" />
		<tag k="ssr:gruppe" v="veg" />
		<tag k="ssr:hovedgruppe" v="infrastruktur" />
		<tag k="ssr:stedsnr" v="782803" />
		<tag k="ssr:type" v="vegstrekning" />
	</node>
	<node lat="60.893105551877" lon="9.60788332747089" id="-19218">
		<tag k="name" v="Sørfjellsvegen" />
		<tag k="ssr:date" v="2019-12-27" />
		<tag k="ssr:gruppe" v="veg" />
		<tag k="ssr:hovedgruppe" v="infrastruktur" />
		<tag k="ssr:stedsnr" v="842384" />
		<tag k="ssr:type" v="vegstrekning" />
	</node>
	<node lat="60.99420833243034" lon="9.765266667637128" id="-19223">
		<tag k="name" v="Øvre Breistølvegen" />
		<tag k="ssr:date" v="2019-12-27" />
		<tag k="ssr:gruppe" v="veg" />
		<tag k="ssr:hovedgruppe" v="infrastruktur" />
		<tag k="ssr:stedsnr" v="842476" />
		<tag k="ssr:type" v="vegstrekning" />
	</node>
	<node lat="61.01287221970683" lon="9.584091661489117" id="-19281">
		<tag k="name" v="Hestekinnvegen" />
		<tag k="ssr:date" v="2019-12-27" />
		<tag k="ssr:gruppe" v="veg" />
		<tag k="ssr:hovedgruppe" v="infrastruktur" />
		<tag k="ssr:stedsnr" v="902613" />
		<tag k="ssr:type" v="vegstrekning" />
	</node>
	<node lat="60.968025002932" lon="9.58644722432206" id="-19326">
		<tag k="name" v="Flatigardslivegen" />
		<tag k="ssr:date" v="2019-12-27" />
		<tag k="ssr:gruppe" v="veg" />
		<tag k="ssr:hovedgruppe" v="infrastruktur" />
		<tag k="ssr:stedsnr" v="963587" />
		<tag k="ssr:type" v="vegstrekning" />
	</node>
	<node lat="60.96240833767677" lon="9.566802769393792" id="-19329">
		<tag k="name" v="Halvordshusvegen" />
		<tag k="ssr:date" v="2019-12-27" />
		<tag k="ssr:gruppe" v="veg" />
		<tag k="ssr:hovedgruppe" v="infrastruktur" />
		<tag k="ssr:stedsnr" v="963595" />
		<tag k="ssr:type" v="vegstrekning" />
	</node>
	<node lat="60.87964166937661" lon="9.662133324488767" id="-19376">
		<tag k="name" v="Smeplassvegen" />
		<tag k="ssr:date" v="2019-12-27" />
		<tag k="ssr:gruppe" v="veg" />
		<tag k="ssr:hovedgruppe" v="infrastruktur" />
		<tag k="ssr:stedsnr" v="54515" />
		<tag k="ssr:type" v="vegstrekning" />
	</node>
	<node lat="61.07368333486683" lon="9.56232221584878" id="-19381">
		<tag k="name" v="Stuvelivegen" />
		<tag k="ssr:date" v="2019-12-27" />
		<tag k="ssr:gruppe" v="veg" />
		<tag k="ssr:hovedgruppe" v="infrastruktur" />
		<tag k="ssr:stedsnr" v="53249" />
		<tag k="ssr:type" v="vegstrekning" />
	</node>
	<node lat="60.89045277948647" lon="9.696133324845706" id="-19396">
		<tag k="alt_name" v="Bjørketjednvegen" />
		<tag k="name" v="Bjørketjernvegen" />
		<tag k="ssr:date" v="2019-12-27" />
		<tag k="ssr:gruppe" v="veg" />
		<tag k="ssr:hovedgruppe" v="infrastruktur" />
		<tag k="ssr:stedsnr" v="54011" />
		<tag k="ssr:type" v="vegstrekning" />
	</node>
	<node lat="60.89322500377502" lon="9.734966670583107" id="-19403">
		<tag k="alt_name" v="Sørresætervegen" />
		<tag k="name" v="Søresætervegen" />
		<tag k="ssr:date" v="2019-12-27" />
		<tag k="ssr:gruppe" v="veg" />
		<tag k="ssr:hovedgruppe" v="infrastruktur" />
		<tag k="ssr:stedsnr" v="54157" />
		<tag k="ssr:type" v="vegstrekning" />
	</node>
	<node lat="60.88417777536845" lon="9.637724994486968" id="-19461">
		<tag k="name" v="Venstrevegen" />
=======
	<node id="-395558" lat="60.8590194482" lon="9.74634722161">
		<tag k="name" v="Bamserudvegen" />
		<tag k="ssr:date" v="2019-12-27" />
		<tag k="ssr:gruppe" v="veg" />
		<tag k="ssr:hovedgruppe" v="infrastruktur" />
		<tag k="ssr:stedsnr" v="237282" />
		<tag k="ssr:type" v="vegstrekning" />
	</node>
	<node id="-396581" lat="60.8685527768" lon="9.76550000888">
		<tag k="alt_name" v="Rismyrtjednvegen" />
		<tag k="name" v="Ryssemyrtjernvegen" />
		<tag k="ssr:date" v="2019-12-27" />
		<tag k="ssr:gruppe" v="veg" />
		<tag k="ssr:hovedgruppe" v="infrastruktur" />
		<tag k="ssr:stedsnr" v="904862" />
		<tag k="ssr:type" v="vegstrekning" />
	</node>
	<node id="-397602" lat="60.8732111085" lon="9.73187222788">
		<tag k="name" v="Klovosvingen" />
		<tag k="ssr:date" v="2019-12-27" />
		<tag k="ssr:gruppe" v="veg" />
		<tag k="ssr:hovedgruppe" v="infrastruktur" />
		<tag k="ssr:stedsnr" v="782803" />
		<tag k="ssr:type" v="vegstrekning" />
	</node>
	<node id="-396577" lat="60.875913891" lon="9.6787055621">
		<tag k="name" v="Gamle Hovdevegen" />
		<tag k="ssr:date" v="2019-12-27" />
		<tag k="ssr:gruppe" v="veg" />
		<tag k="ssr:hovedgruppe" v="infrastruktur" />
		<tag k="ssr:stedsnr" v="904475" />
		<tag k="ssr:type" v="vegstrekning" />
	</node>
	<node id="-395552" lat="60.9725833354" lon="9.57662777992">
		<tag k="name" v="Flatigardsvegen" />
		<tag k="ssr:date" v="2019-12-27" />
		<tag k="ssr:gruppe" v="veg" />
		<tag k="ssr:hovedgruppe" v="infrastruktur" />
		<tag k="ssr:stedsnr" v="53073" />
		<tag k="ssr:type" v="vegstrekning" />
	</node>
	<node id="-396569" lat="60.9683638931" lon="9.69637499519">
		<tag k="name" v="Øystølvegen" />
		<tag k="ssr:date" v="2019-12-27" />
		<tag k="ssr:gruppe" v="veg" />
		<tag k="ssr:hovedgruppe" v="infrastruktur" />
		<tag k="ssr:stedsnr" v="903813" />
		<tag k="ssr:type" v="vegstrekning" />
	</node>
	<node id="-396056" lat="60.9628583301" lon="9.70031667152">
		<tag k="name" v="Kjerringstølvegen" />
		<tag k="ssr:date" v="2019-12-27" />
		<tag k="ssr:gruppe" v="veg" />
		<tag k="ssr:hovedgruppe" v="infrastruktur" />
		<tag k="ssr:stedsnr" v="660794" />
		<tag k="ssr:type" v="vegstrekning" />
	</node>
	<node id="-396925" lat="60.8224944468" lon="9.72008610236">
		<tag k="name" v="Øvre Markestadvegen" />
		<tag k="ssr:date" v="2019-12-27" />
		<tag k="ssr:gruppe" v="veg" />
		<tag k="ssr:hovedgruppe" v="infrastruktur" />
		<tag k="ssr:stedsnr" v="176474" />
		<tag k="ssr:type" v="vegstrekning" />
	</node>
	<node id="-397587" lat="61.0018750008" lon="9.65439443864">
		<tag k="name" v="Glennebakkin" />
		<tag k="ssr:date" v="2019-12-27" />
		<tag k="ssr:gruppe" v="veg" />
		<tag k="ssr:hovedgruppe" v="infrastruktur" />
		<tag k="ssr:stedsnr" v="782341" />
		<tag k="ssr:type" v="vegstrekning" />
	</node>
	<node id="-397583" lat="61.0170555558" lon="9.5988388945">
		<tag k="name" v="Dalavegen" />
		<tag k="ssr:date" v="2019-12-27" />
		<tag k="ssr:gruppe" v="veg" />
		<tag k="ssr:hovedgruppe" v="infrastruktur" />
		<tag k="ssr:stedsnr" v="782232" />
		<tag k="ssr:type" v="vegstrekning" />
	</node>
	<node id="-396556" lat="61.0128722197" lon="9.58409166149">
		<tag k="name" v="Hestekinnvegen" />
		<tag k="ssr:date" v="2019-12-27" />
		<tag k="ssr:gruppe" v="veg" />
		<tag k="ssr:hovedgruppe" v="infrastruktur" />
		<tag k="ssr:stedsnr" v="902613" />
		<tag k="ssr:type" v="vegstrekning" />
	</node>
	<node id="-397578" lat="60.9799111104" lon="9.7200944359">
		<tag k="name" v="Gamlestølvegen" />
		<tag k="ssr:date" v="2019-12-27" />
		<tag k="ssr:gruppe" v="veg" />
		<tag k="ssr:hovedgruppe" v="infrastruktur" />
		<tag k="ssr:stedsnr" v="782153" />
		<tag k="ssr:type" v="vegstrekning" />
	</node>
	<node id="-396041" lat="60.9273499998" lon="9.69826667185">
		<tag k="name" v="Nystølvegen" />
		<tag k="ssr:date" v="2019-12-27" />
		<tag k="ssr:gruppe" v="veg" />
		<tag k="ssr:hovedgruppe" v="infrastruktur" />
		<tag k="ssr:stedsnr" v="660182" />
		<tag k="ssr:type" v="vegstrekning" />
	</node>
	<node id="-395527" lat="60.867899998" lon="9.62850554743">
		<tag k="name" v="Bergsvegen" />
		<tag k="ssr:date" v="2019-12-27" />
		<tag k="ssr:gruppe" v="veg" />
		<tag k="ssr:hovedgruppe" v="infrastruktur" />
		<tag k="ssr:stedsnr" v="236740" />
		<tag k="ssr:type" v="vegstrekning" />
	</node>
	<node id="-395523" lat="60.8392027747" lon="9.69619444542">
		<tag k="name" v="Haustsæterfjellvegen" />
		<tag k="ssr:date" v="2019-12-27" />
		<tag k="ssr:gruppe" v="veg" />
		<tag k="ssr:hovedgruppe" v="infrastruktur" />
		<tag k="ssr:stedsnr" v="236623" />
		<tag k="ssr:type" v="vegstrekning" />
	</node>
	<node id="-397054" lat="60.9090000017" lon="9.6346805635">
		<tag k="name" v="Gøttenbergvegen" />
		<tag k="ssr:date" v="2019-12-27" />
		<tag k="ssr:gruppe" v="veg" />
		<tag k="ssr:hovedgruppe" v="infrastruktur" />
		<tag k="ssr:stedsnr" v="356855" />
		<tag k="ssr:type" v="vegstrekning" />
	</node>
	<node id="-397051" lat="60.978291671" lon="9.61355555365">
		<tag k="name" v="Solbjørgåsvegen" />
		<tag k="ssr:date" v="2019-12-27" />
		<tag k="ssr:gruppe" v="veg" />
		<tag k="ssr:hovedgruppe" v="infrastruktur" />
		<tag k="ssr:stedsnr" v="356665" />
		<tag k="ssr:type" v="vegstrekning" />
	</node>
	<node id="-395508" lat="60.9448194406" lon="9.70737777855">
		<tag k="name" v="Bergstølvegen" />
		<tag k="ssr:date" v="2019-12-27" />
		<tag k="ssr:gruppe" v="veg" />
		<tag k="ssr:hovedgruppe" v="infrastruktur" />
		<tag k="ssr:stedsnr" v="236227" />
		<tag k="ssr:type" v="vegstrekning" />
	</node>
	<node id="-397039" lat="60.9431722189" lon="9.57236665769">
		<tag k="name" v="Teljebakkatn" />
>>>>>>> e1d4bc35ff8a6074a6f2e91616a996b547c36f15
		<tag k="ssr:date" v="2019-12-27" />
		<tag k="ssr:gruppe" v="veg" />
		<tag k="ssr:hovedgruppe" v="infrastruktur" />
		<tag k="ssr:stedsnr" v="356410" />
		<tag k="ssr:type" v="vegstrekning" />
	</node>
<<<<<<< HEAD
	<node lat="61.00346110955855" lon="9.570105562844592" id="-19465">
		<tag k="name" v="Veslehestekinnvegen" />
		<tag k="ssr:date" v="2019-12-27" />
		<tag k="ssr:gruppe" v="veg" />
		<tag k="ssr:hovedgruppe" v="infrastruktur" />
		<tag k="ssr:stedsnr" v="113342" />
		<tag k="ssr:type" v="vegstrekning" />
	</node>
	<node lat="61.054672223313176" lon="9.584508331066743" id="-19479">
		<tag k="name" v="Rotvollstølvegen" />
		<tag k="ssr:date" v="2019-12-27" />
		<tag k="ssr:gruppe" v="veg" />
		<tag k="ssr:hovedgruppe" v="infrastruktur" />
		<tag k="ssr:stedsnr" v="114352" />
		<tag k="ssr:type" v="vegstrekning" />
	</node>
	<node lat="60.94137777826632" lon="9.624416668978036" id="-19485">
		<tag k="name" v="Kringlemovegen" />
		<tag k="ssr:date" v="2019-12-27" />
		<tag k="ssr:gruppe" v="veg" />
		<tag k="ssr:hovedgruppe" v="infrastruktur" />
		<tag k="ssr:stedsnr" v="114546" />
		<tag k="ssr:type" v="vegstrekning" />
	</node>
	<node lat="60.88153888572371" lon="9.612786111394932" id="-19495">
		<tag k="name" v="Fjellslinna" />
		<tag k="ssr:date" v="2019-12-27" />
		<tag k="ssr:gruppe" v="veg" />
		<tag k="ssr:hovedgruppe" v="infrastruktur" />
		<tag k="ssr:stedsnr" v="114921" />
		<tag k="ssr:type" v="vegstrekning" />
	</node>
	<node lat="60.98755555860637" lon="9.555958336158602" id="-19542">
		<tag k="name" v="Solbrekklivegen" />
		<tag k="ssr:date" v="2019-12-27" />
		<tag k="ssr:gruppe" v="veg" />
		<tag k="ssr:hovedgruppe" v="infrastruktur" />
		<tag k="ssr:stedsnr" v="174430" />
		<tag k="ssr:type" v="vegstrekning" />
	</node>
	<node lat="60.93739444311215" lon="9.60793333730537" id="-19554">
		<tag k="name" v="Øyavegen" />
		<tag k="ssr:date" v="2019-12-27" />
		<tag k="ssr:gruppe" v="veg" />
		<tag k="ssr:hovedgruppe" v="infrastruktur" />
		<tag k="ssr:stedsnr" v="174586" />
		<tag k="ssr:type" v="vegstrekning" />
	</node>
	<node lat="61.0287527794023" lon="9.61515832493146" id="-19562">
		<tag k="name" v="Gamle Kløvjavegen" />
		<tag k="ssr:date" v="2019-12-27" />
		<tag k="ssr:gruppe" v="veg" />
		<tag k="ssr:hovedgruppe" v="infrastruktur" />
		<tag k="ssr:stedsnr" v="175270" />
		<tag k="ssr:type" v="vegstrekning" />
	</node>
	<node lat="60.88312500075467" lon="9.694536106154438" id="-19567">
		<tag k="name" v="Øygardsvegen" />
		<tag k="ssr:date" v="2019-12-27" />
		<tag k="ssr:gruppe" v="veg" />
		<tag k="ssr:hovedgruppe" v="infrastruktur" />
		<tag k="ssr:stedsnr" v="175490" />
		<tag k="ssr:type" v="vegstrekning" />
	</node>
	<node lat="60.96728610945867" lon="9.761258326536487" id="-19569">
		<tag k="name" v="Juvaskogvegen" />
		<tag k="ssr:date" v="2019-12-27" />
		<tag k="ssr:gruppe" v="veg" />
		<tag k="ssr:hovedgruppe" v="infrastruktur" />
		<tag k="ssr:stedsnr" v="175632" />
		<tag k="ssr:type" v="vegstrekning" />
	</node>
	<node lat="60.91922221972095" lon="9.76498055057353" id="-19571">
		<tag k="name" v="Leppedalsvegen" />
		<tag k="ssr:date" v="2019-12-27" />
		<tag k="ssr:gruppe" v="veg" />
		<tag k="ssr:hovedgruppe" v="infrastruktur" />
		<tag k="ssr:stedsnr" v="175707" />
		<tag k="ssr:type" v="vegstrekning" />
	</node>
	<node lat="60.911358337236734" lon="9.764572226299585" id="-19574">
		<tag k="name" v="Langevasslivegen" />
		<tag k="ssr:date" v="2019-12-27" />
		<tag k="ssr:gruppe" v="veg" />
		<tag k="ssr:hovedgruppe" v="infrastruktur" />
		<tag k="ssr:stedsnr" v="175751" />
		<tag k="ssr:type" v="vegstrekning" />
	</node>
	<node lat="61.01083888484283" lon="9.578986106060835" id="-19726">
		<tag k="name" v="Hestekinnvegen" />
		<tag k="ssr:date" v="2019-12-27" />
		<tag k="ssr:gruppe" v="veg" />
		<tag k="ssr:hovedgruppe" v="infrastruktur" />
		<tag k="ssr:stedsnr" v="356373" />
		<tag k="ssr:type" v="vegstrekning" />
	</node>
	<node lat="60.90900000168949" lon="9.634680563501384" id="-19737">
		<tag k="name" v="Gøttenbergvegen" />
		<tag k="ssr:date" v="2019-12-27" />
		<tag k="ssr:gruppe" v="veg" />
		<tag k="ssr:hovedgruppe" v="infrastruktur" />
		<tag k="ssr:stedsnr" v="356855" />
		<tag k="ssr:type" v="vegstrekning" />
	</node>
	<node lat="60.99053888466435" lon="9.747194437658965" id="-19745">
		<tag k="name" v="Blesavegen" />
		<tag k="ssr:date" v="2019-12-27" />
		<tag k="ssr:gruppe" v="veg" />
		<tag k="ssr:hovedgruppe" v="infrastruktur" />
		<tag k="ssr:stedsnr" v="357179" />
		<tag k="ssr:type" v="vegstrekning" />
	</node>
	<node lat="60.91313888709878" lon="9.662680562636842" id="-19825">
		<tag k="name" v="Byfelivegen" />
		<tag k="ssr:date" v="2019-12-27" />
		<tag k="ssr:gruppe" v="veg" />
		<tag k="ssr:hovedgruppe" v="infrastruktur" />
		<tag k="ssr:stedsnr" v="417561" />
		<tag k="ssr:type" v="vegstrekning" />
	</node>
	<node lat="60.907197225291846" lon="9.641741675587358" id="-19831">
		<tag k="name" v="Byfelivegen" />
		<tag k="ssr:date" v="2019-12-27" />
		<tag k="ssr:gruppe" v="veg" />
		<tag k="ssr:hovedgruppe" v="infrastruktur" />
		<tag k="ssr:stedsnr" v="417872" />
		<tag k="ssr:type" v="vegstrekning" />
	</node>
	<node lat="60.932905556809374" lon="9.73447777480411" id="-19835">
		<tag k="name" v="Leppedalsvegen" />
		<tag k="ssr:date" v="2019-12-27" />
		<tag k="ssr:gruppe" v="veg" />
		<tag k="ssr:hovedgruppe" v="infrastruktur" />
		<tag k="ssr:stedsnr" v="418357" />
		<tag k="ssr:type" v="vegstrekning" />
	</node>
	<node lat="60.88207222274589" lon="9.691491666114308" id="-19859">
		<tag k="name" v="Kleivgardsvegen" />
		<tag k="ssr:date" v="2019-12-27" />
		<tag k="ssr:gruppe" v="veg" />
		<tag k="ssr:hovedgruppe" v="infrastruktur" />
		<tag k="ssr:stedsnr" v="418479" />
		<tag k="ssr:type" v="vegstrekning" />
	</node>
	<node lat="61.00870277840716" lon="9.55941666914082" id="-19923">
		<tag k="name" v="Rennavegen" />
=======
	<node id="-397038" lat="61.0108388848" lon="9.57898610606">
		<tag k="name" v="Hestekinnvegen" />
		<tag k="ssr:date" v="2019-12-27" />
		<tag k="ssr:gruppe" v="veg" />
		<tag k="ssr:hovedgruppe" v="infrastruktur" />
		<tag k="ssr:stedsnr" v="356373" />
		<tag k="ssr:type" v="vegstrekning" />
	</node>
	<node id="-397549" lat="60.9366916636" lon="9.60299443958">
		<tag k="name" v="Halvordshusvegen" />
		<tag k="ssr:date" v="2019-12-27" />
		<tag k="ssr:gruppe" v="veg" />
		<tag k="ssr:hovedgruppe" v="infrastruktur" />
		<tag k="ssr:stedsnr" v="781558" />
		<tag k="ssr:type" v="vegstrekning" />
	</node>
	<node id="-397543" lat="61.0096583303" lon="9.55423610552">
		<tag k="name" v="Kvednhausmovegen" />
		<tag k="ssr:date" v="2019-12-27" />
		<tag k="ssr:gruppe" v="veg" />
		<tag k="ssr:hovedgruppe" v="infrastruktur" />
		<tag k="ssr:stedsnr" v="781341" />
		<tag k="ssr:type" v="vegstrekning" />
	</node>
	<node id="-395494" lat="61.0377861096" lon="9.62238611483">
		<tag k="name" v="Gamle Lenningsvegen" />
		<tag k="ssr:date" v="2019-12-27" />
		<tag k="ssr:gruppe" v="veg" />
		<tag k="ssr:hovedgruppe" v="infrastruktur" />
		<tag k="ssr:stedsnr" v="235939" />
		<tag k="ssr:type" v="vegstrekning" />
	</node>
	<node id="-397539" lat="60.890594447" lon="9.64973888067">
		<tag k="name" v="Kleivgardslivegen" />
		<tag k="ssr:date" v="2019-12-27" />
		<tag k="ssr:gruppe" v="veg" />
		<tag k="ssr:hovedgruppe" v="infrastruktur" />
		<tag k="ssr:stedsnr" v="781289" />
		<tag k="ssr:type" v="vegstrekning" />
	</node>
	<node id="-397536" lat="61.0046583366" lon="9.60435555448">
		<tag k="name" v="Hallavegen" />
		<tag k="ssr:date" v="2019-12-27" />
		<tag k="ssr:gruppe" v="veg" />
		<tag k="ssr:hovedgruppe" v="infrastruktur" />
		<tag k="ssr:stedsnr" v="781195" />
		<tag k="ssr:type" v="vegstrekning" />
	</node>
	<node id="-396240" lat="60.9946416645" lon="9.76313333304">
		<tag k="name" v="Nedre Breistølvegen" />
		<tag k="ssr:date" v="2019-12-27" />
		<tag k="ssr:gruppe" v="veg" />
		<tag k="ssr:hovedgruppe" v="infrastruktur" />
		<tag k="ssr:stedsnr" v="720481" />
		<tag k="ssr:type" v="vegstrekning" />
	</node>
	<node id="-395484" lat="60.9453638847" lon="9.6475138863">
		<tag k="name" v="Svilosvegen" />
		<tag k="ssr:date" v="2019-12-27" />
		<tag k="ssr:gruppe" v="veg" />
		<tag k="ssr:hovedgruppe" v="infrastruktur" />
		<tag k="ssr:stedsnr" v="235732" />
		<tag k="ssr:type" v="vegstrekning" />
	</node>
	<node id="-395478" lat="60.8870805575" lon="9.62379721632">
		<tag k="name" v="Fjellslinna" />
		<tag k="ssr:date" v="2019-12-27" />
		<tag k="ssr:gruppe" v="veg" />
		<tag k="ssr:hovedgruppe" v="infrastruktur" />
		<tag k="ssr:stedsnr" v="235519" />
		<tag k="ssr:type" v="vegstrekning" />
	</node>
	<node id="-395461" lat="60.8385888929" lon="9.61961666849">
		<tag k="name" v="Bagnsvegen" />
		<tag k="ssr:date" v="2019-12-27" />
		<tag k="ssr:gruppe" v="veg" />
		<tag k="ssr:hovedgruppe" v="infrastruktur" />
		<tag k="ssr:stedsnr" v="235155" />
		<tag k="ssr:type" v="vegstrekning" />
	</node>
	<node id="-396470" lat="60.9327363724" lon="9.79145733202">
		<tag k="name" v="Gjerdlivegen" />
		<tag k="ssr:date" v="2020-06-08" />
		<tag k="ssr:gruppe" v="veg" />
		<tag k="ssr:hovedgruppe" v="infrastruktur" />
		<tag k="ssr:stedsnr" v="904947" />
		<tag k="ssr:type" v="vegstrekning" />
	</node>
	<node id="-395441" lat="60.8231916647" lon="9.71053888126">
		<tag k="name" v="Øvre Markestadvegen" />
		<tag k="ssr:date" v="2019-12-27" />
		<tag k="ssr:gruppe" v="veg" />
		<tag k="ssr:hovedgruppe" v="infrastruktur" />
		<tag k="ssr:stedsnr" v="5617" />
		<tag k="ssr:type" v="vegstrekning" />
	</node>
	<node id="-396457" lat="60.9827055544" lon="9.7525916721">
		<tag k="name" v="Svilosvegen" />
		<tag k="ssr:date" v="2019-12-27" />
		<tag k="ssr:gruppe" v="veg" />
		<tag k="ssr:hovedgruppe" v="infrastruktur" />
		<tag k="ssr:stedsnr" v="904172" />
		<tag k="ssr:type" v="vegstrekning" />
	</node>
	<node id="-396057" lat="60.9110222232" lon="9.7797388826">
		<tag k="name" v="Langvasslivegen" />
		<tag k="ssr:date" v="2019-12-27" />
		<tag k="ssr:gruppe" v="veg" />
		<tag k="ssr:hovedgruppe" v="infrastruktur" />
		<tag k="ssr:stedsnr" v="660795" />
		<tag k="ssr:type" v="vegstrekning" />
	</node>
	<node id="-395922" lat="60.8719416699" lon="9.72793888862">
		<tag k="name" v="Solbjørgsvegen" />
		<tag k="ssr:date" v="2019-12-27" />
		<tag k="ssr:gruppe" v="veg" />
		<tag k="ssr:hovedgruppe" v="infrastruktur" />
		<tag k="ssr:stedsnr" v="358821" />
		<tag k="ssr:type" v="vegstrekning" />
	</node>
	<node id="-395921" lat="60.8350805562" lon="9.74148611858">
		<tag k="name" v="Peresvingen" />
		<tag k="ssr:date" v="2019-12-27" />
		<tag k="ssr:gruppe" v="veg" />
		<tag k="ssr:hovedgruppe" v="infrastruktur" />
		<tag k="ssr:stedsnr" v="358519" />
		<tag k="ssr:type" v="vegstrekning" />
	</node>
	<node id="-396429" lat="61.0627694447" lon="9.58919722223">
		<tag k="name" v="Rotvollstølvegen" />
		<tag k="ssr:date" v="2019-12-27" />
		<tag k="ssr:gruppe" v="veg" />
		<tag k="ssr:hovedgruppe" v="infrastruktur" />
		<tag k="ssr:stedsnr" v="903239" />
		<tag k="ssr:type" v="vegstrekning" />
	</node>
	<node id="-396418" lat="60.9498111087" lon="9.55435833791">
		<tag k="name" v="Brøtatrøvegen" />
		<tag k="ssr:date" v="2019-12-27" />
		<tag k="ssr:gruppe" v="veg" />
		<tag k="ssr:hovedgruppe" v="infrastruktur" />
		<tag k="ssr:stedsnr" v="902990" />
		<tag k="ssr:type" v="vegstrekning" />
	</node>
	<node id="-397437" lat="60.9360111153" lon="9.71969445311">
		<tag k="name" v="Nystølvegen" />
>>>>>>> e1d4bc35ff8a6074a6f2e91616a996b547c36f15
		<tag k="ssr:date" v="2019-12-27" />
		<tag k="ssr:gruppe" v="veg" />
		<tag k="ssr:hovedgruppe" v="infrastruktur" />
		<tag k="ssr:stedsnr" v="600079" />
		<tag k="ssr:type" v="vegstrekning" />
	</node>
<<<<<<< HEAD
	<node lat="60.97321944851184" lon="9.542555554558296" id="-19959">
		<tag k="name" v="Storslettlivegen" />
		<tag k="ssr:date" v="2019-12-27" />
		<tag k="ssr:gruppe" v="veg" />
		<tag k="ssr:hovedgruppe" v="infrastruktur" />
		<tag k="ssr:stedsnr" v="540335" />
		<tag k="ssr:type" v="vegstrekning" />
	</node>
	<node lat="61.07545555547938" lon="9.49720834258229" id="-19969">
		<tag k="name" v="Nysetvegen" />
		<tag k="ssr:date" v="2019-12-27" />
		<tag k="ssr:gruppe" v="veg" />
		<tag k="ssr:hovedgruppe" v="infrastruktur" />
		<tag k="ssr:stedsnr" v="540766" />
		<tag k="ssr:type" v="vegstrekning" />
	</node>
	<node lat="61.083638888801296" lon="9.671172219356052" id="-19996">
		<tag k="name" v="Ølsjølivegen" />
		<tag k="ssr:date" v="2019-12-27" />
		<tag k="ssr:gruppe" v="veg" />
		<tag k="ssr:hovedgruppe" v="infrastruktur" />
		<tag k="ssr:stedsnr" v="598244" />
		<tag k="ssr:type" v="vegstrekning" />
	</node>
	<node lat="60.98572499748056" lon="9.56906666218649" id="-20001">
		<tag k="name" v="Jonasbakkin" />
		<tag k="ssr:date" v="2019-12-27" />
		<tag k="ssr:gruppe" v="veg" />
		<tag k="ssr:hovedgruppe" v="infrastruktur" />
		<tag k="ssr:stedsnr" v="598366" />
		<tag k="ssr:type" v="vegstrekning" />
	</node>
	<node lat="60.9360111153202" lon="9.719694453107811" id="-20018">
		<tag k="name" v="Nystølvegen" />
		<tag k="ssr:date" v="2019-12-27" />
		<tag k="ssr:gruppe" v="veg" />
		<tag k="ssr:hovedgruppe" v="infrastruktur" />
		<tag k="ssr:stedsnr" v="600079" />
		<tag k="ssr:type" v="vegstrekning" />
	</node>
	<node lat="60.88851944403601" lon="9.605455557114276" id="-20037">
		<tag k="name" v="Nordfjellsvegen" />
		<tag k="ssr:date" v="2019-12-27" />
		<tag k="ssr:gruppe" v="veg" />
		<tag k="ssr:hovedgruppe" v="infrastruktur" />
		<tag k="ssr:stedsnr" v="599493" />
		<tag k="ssr:type" v="vegstrekning" />
	</node>
	<node lat="60.981627782004296" lon="9.663827770643485" id="-20040">
		<tag k="name" v="Nystølvegen" />
		<tag k="ssr:date" v="2019-12-27" />
		<tag k="ssr:gruppe" v="veg" />
		<tag k="ssr:hovedgruppe" v="infrastruktur" />
		<tag k="ssr:stedsnr" v="599620" />
		<tag k="ssr:type" v="vegstrekning" />
	</node>
	<node lat="60.901599997732234" lon="9.783472229472178" id="-20130">
		<tag k="name" v="Dygdedalsvegen" />
		<tag k="ssr:date" v="2019-12-27" />
		<tag k="ssr:gruppe" v="veg" />
		<tag k="ssr:hovedgruppe" v="infrastruktur" />
		<tag k="ssr:stedsnr" v="661646" />
		<tag k="ssr:type" v="vegstrekning" />
	</node>
	<node lat="60.88192222293007" lon="9.741283342057406" id="-20132">
		<tag k="name" v="Haustsætervegen" />
		<tag k="ssr:date" v="2019-12-27" />
		<tag k="ssr:gruppe" v="veg" />
		<tag k="ssr:hovedgruppe" v="infrastruktur" />
		<tag k="ssr:stedsnr" v="661723" />
		<tag k="ssr:type" v="vegstrekning" />
	</node>
	<node lat="61.01176388478473" lon="9.646405548740438" id="-20143">
		<tag k="name" v="Langedalstølvegen" />
		<tag k="ssr:date" v="2019-12-27" />
		<tag k="ssr:gruppe" v="veg" />
		<tag k="ssr:hovedgruppe" v="infrastruktur" />
		<tag k="ssr:stedsnr" v="720201" />
		<tag k="ssr:type" v="vegstrekning" />
	</node>
	<node lat="60.97718611200204" lon="9.593894439626247" id="-20147">
		<tag k="name" v="Rønsmovegen" />
		<tag k="ssr:date" v="2019-12-27" />
		<tag k="ssr:gruppe" v="veg" />
		<tag k="ssr:hovedgruppe" v="infrastruktur" />
		<tag k="ssr:stedsnr" v="720080" />
		<tag k="ssr:type" v="vegstrekning" />
	</node>
	<node lat="60.94499722270679" lon="9.663636118119022" id="-20179">
		<tag k="name" v="Svilosvegen" />
		<tag k="ssr:date" v="2019-12-27" />
		<tag k="ssr:gruppe" v="veg" />
		<tag k="ssr:hovedgruppe" v="infrastruktur" />
		<tag k="ssr:stedsnr" v="721195" />
		<tag k="ssr:type" v="vegstrekning" />
	</node>
	<node lat="60.93788889211248" lon="9.724330555726793" id="-20184">
		<tag k="name" v="Bergstølvegen" />
		<tag k="ssr:date" v="2019-12-27" />
		<tag k="ssr:gruppe" v="veg" />
		<tag k="ssr:hovedgruppe" v="infrastruktur" />
		<tag k="ssr:stedsnr" v="721395" />
		<tag k="ssr:type" v="vegstrekning" />
	</node>
	<node lat="61.0058972238115" lon="9.729966674258158" id="-20185">
		<tag k="name" v="Tanterhaugvegen" />
		<tag k="ssr:date" v="2019-12-27" />
		<tag k="ssr:gruppe" v="veg" />
		<tag k="ssr:hovedgruppe" v="infrastruktur" />
		<tag k="ssr:stedsnr" v="721450" />
		<tag k="ssr:type" v="vegstrekning" />
	</node>
	<node lat="60.958780553781985" lon="9.604372214050212" id="-20193">
		<tag k="name" v="Flatigardslivegen" />
		<tag k="ssr:date" v="2019-12-27" />
		<tag k="ssr:gruppe" v="veg" />
		<tag k="ssr:hovedgruppe" v="infrastruktur" />
		<tag k="ssr:stedsnr" v="721840" />
		<tag k="ssr:type" v="vegstrekning" />
	</node>
	<node lat="60.891352775143595" lon="9.782316666503318" id="-20207">
		<tag k="name" v="Bergevassdalsvegen" />
		<tag k="ssr:date" v="2019-12-27" />
		<tag k="ssr:gruppe" v="veg" />
		<tag k="ssr:hovedgruppe" v="infrastruktur" />
		<tag k="ssr:stedsnr" v="722700" />
		<tag k="ssr:type" v="vegstrekning" />
	</node>
	<node lat="60.8693694450717" lon="9.698086112592835" id="-20211">
		<tag k="name" v="Hovdevegen" />
		<tag k="ssr:date" v="2019-12-27" />
		<tag k="ssr:gruppe" v="veg" />
		<tag k="ssr:hovedgruppe" v="infrastruktur" />
		<tag k="ssr:stedsnr" v="722863" />
		<tag k="ssr:type" v="vegstrekning" />
	</node>
	<node lat="61.009658330253814" lon="9.554236105524033" id="-20231">
		<tag k="name" v="Kvednhausmovegen" />
		<tag k="ssr:date" v="2019-12-27" />
		<tag k="ssr:gruppe" v="veg" />
		<tag k="ssr:hovedgruppe" v="infrastruktur" />
		<tag k="ssr:stedsnr" v="781341" />
		<tag k="ssr:type" v="vegstrekning" />
	</node>
	<node lat="61.00465833659891" lon="9.604355554483721" id="-20237">
		<tag k="name" v="Hallavegen" />
		<tag k="ssr:date" v="2019-12-27" />
		<tag k="ssr:gruppe" v="veg" />
		<tag k="ssr:hovedgruppe" v="infrastruktur" />
		<tag k="ssr:stedsnr" v="781195" />
		<tag k="ssr:type" v="vegstrekning" />
	</node>
	<node lat="60.890594446990406" lon="9.64973888066857" id="-20238">
		<tag k="name" v="Kleivgardslivegen" />
		<tag k="ssr:date" v="2019-12-27" />
		<tag k="ssr:gruppe" v="veg" />
		<tag k="ssr:hovedgruppe" v="infrastruktur" />
		<tag k="ssr:stedsnr" v="781289" />
		<tag k="ssr:type" v="vegstrekning" />
	</node>
	<node lat="61.017055555820775" lon="9.598838894504938" id="-20259">
		<tag k="name" v="Dalavegen" />
		<tag k="ssr:date" v="2019-12-27" />
		<tag k="ssr:gruppe" v="veg" />
		<tag k="ssr:hovedgruppe" v="infrastruktur" />
		<tag k="ssr:stedsnr" v="782232" />
		<tag k="ssr:type" v="vegstrekning" />
	</node>
	<node lat="60.9799111103597" lon="9.720094435897899" id="-20265">
		<tag k="name" v="Gamlestølvegen" />
		<tag k="ssr:date" v="2019-12-27" />
		<tag k="ssr:gruppe" v="veg" />
		<tag k="ssr:hovedgruppe" v="infrastruktur" />
		<tag k="ssr:stedsnr" v="782153" />
		<tag k="ssr:type" v="vegstrekning" />
	</node>
	<node lat="61.00187500082134" lon="9.654394438636217" id="-20271">
		<tag k="name" v="Glennebakkin" />
		<tag k="ssr:date" v="2019-12-27" />
		<tag k="ssr:gruppe" v="veg" />
		<tag k="ssr:hovedgruppe" v="infrastruktur" />
		<tag k="ssr:stedsnr" v="782341" />
		<tag k="ssr:type" v="vegstrekning" />
	</node>
	<node lat="60.911863887266364" lon="9.632597213155963" id="-20330">
		<tag k="name" v="Sveavegen" />
		<tag k="ssr:date" v="2019-12-27" />
		<tag k="ssr:gruppe" v="veg" />
		<tag k="ssr:hovedgruppe" v="infrastruktur" />
		<tag k="ssr:stedsnr" v="842852" />
		<tag k="ssr:type" v="vegstrekning" />
	</node>
	<node lat="60.93882499608655" lon="9.621266667642393" id="-20335">
		<tag k="name" v="Røstevegen" />
		<tag k="ssr:date" v="2019-12-27" />
		<tag k="ssr:gruppe" v="veg" />
		<tag k="ssr:hovedgruppe" v="infrastruktur" />
		<tag k="ssr:stedsnr" v="842546" />
		<tag k="ssr:type" v="vegstrekning" />
	</node>
	<node lat="60.85319722492443" lon="9.745088884442977" id="-20370">
		<tag k="name" v="Storsvingen" />
		<tag k="ssr:date" v="2019-12-27" />
		<tag k="ssr:gruppe" v="veg" />
		<tag k="ssr:hovedgruppe" v="infrastruktur" />
		<tag k="ssr:stedsnr" v="843772" />
		<tag k="ssr:type" v="vegstrekning" />
	</node>
	<node lat="60.86953611322579" lon="9.709358324330259" id="-20373">
		<tag k="name" v="Vikavegen" />
		<tag k="ssr:date" v="2019-12-27" />
		<tag k="ssr:gruppe" v="veg" />
		<tag k="ssr:hovedgruppe" v="infrastruktur" />
		<tag k="ssr:stedsnr" v="843856" />
		<tag k="ssr:type" v="vegstrekning" />
	</node>
	<node lat="60.85755555571239" lon="9.752536108627204" id="-20382">
		<tag k="name" v="Fossehyttevegen" />
		<tag k="ssr:date" v="2019-12-27" />
		<tag k="ssr:gruppe" v="veg" />
		<tag k="ssr:hovedgruppe" v="infrastruktur" />
		<tag k="ssr:stedsnr" v="844271" />
		<tag k="ssr:type" v="vegstrekning" />
	</node>
	<node lat="60.855600003697816" lon="9.766513889904077" id="-20383">
		<tag k="name" v="Bjørnskarvegen" />
		<tag k="ssr:date" v="2019-12-27" />
		<tag k="ssr:gruppe" v="veg" />
		<tag k="ssr:hovedgruppe" v="infrastruktur" />
		<tag k="ssr:stedsnr" v="844272" />
		<tag k="ssr:type" v="vegstrekning" />
	</node>
	<node lat="60.87804722060371" lon="9.742572213357224" id="-20386">
		<tag k="name" v="Langesjå" />
		<tag k="ssr:date" v="2019-12-27" />
		<tag k="ssr:gruppe" v="veg" />
		<tag k="ssr:hovedgruppe" v="infrastruktur" />
		<tag k="ssr:stedsnr" v="844762" />
		<tag k="ssr:type" v="vegstrekning" />
	</node>
	<node lat="60.94946110740563" lon="9.693525008407065" id="-20436">
		<tag k="name" v="Svilosvegen" />
		<tag k="ssr:date" v="2019-12-27" />
		<tag k="ssr:gruppe" v="veg" />
		<tag k="ssr:hovedgruppe" v="infrastruktur" />
		<tag k="ssr:stedsnr" v="963846" />
		<tag k="ssr:type" v="vegstrekning" />
	</node>
	<node lat="60.83885833605805" lon="9.743724997297726" id="-20454">
		<tag k="name" v="Plassavegen" />
		<tag k="ssr:date" v="2019-12-27" />
		<tag k="ssr:gruppe" v="veg" />
		<tag k="ssr:hovedgruppe" v="infrastruktur" />
		<tag k="ssr:stedsnr" v="964493" />
		<tag k="ssr:type" v="vegstrekning" />
	</node>
	<node lat="60.83678333032601" lon="9.737219443015158" id="-20455">
		<tag k="name" v="Plassasvingen" />
		<tag k="ssr:date" v="2019-12-27" />
		<tag k="ssr:gruppe" v="veg" />
		<tag k="ssr:hovedgruppe" v="infrastruktur" />
		<tag k="ssr:stedsnr" v="964500" />
		<tag k="ssr:type" v="vegstrekning" />
	</node>
	<node lat="60.87363055772754" lon="9.724108338598095" id="-20465">
		<tag k="name" v="Delevegen" />
		<tag k="ssr:date" v="2019-12-27" />
		<tag k="ssr:gruppe" v="veg" />
		<tag k="ssr:hovedgruppe" v="infrastruktur" />
		<tag k="ssr:stedsnr" v="964750" />
		<tag k="ssr:type" v="vegstrekning" />
	</node>
	<node lat="60.96900833632336" lon="9.727477775425095" id="-20470">
=======
	<node id="-396924" lat="60.8277416636" lon="9.72075555751">
		<tag k="name" v="Spelemannsslettvegen" />
		<tag k="ssr:date" v="2019-12-27" />
		<tag k="ssr:gruppe" v="veg" />
		<tag k="ssr:hovedgruppe" v="infrastruktur" />
		<tag k="ssr:stedsnr" v="176473" />
		<tag k="ssr:type" v="vegstrekning" />
	</node>
	<node id="-396914" lat="60.8722388901" lon="9.64665834188">
		<tag k="name" v="Sørumsvegen" />
		<tag k="ssr:date" v="2019-12-27" />
		<tag k="ssr:gruppe" v="veg" />
		<tag k="ssr:hovedgruppe" v="infrastruktur" />
		<tag k="ssr:stedsnr" v="175974" />
		<tag k="ssr:type" v="vegstrekning" />
	</node>
	<node id="-397424" lat="60.8776722214" lon="9.66277223124">
		<tag k="name" v="Turrhaugvegen" />
		<tag k="ssr:date" v="2019-12-27" />
		<tag k="ssr:gruppe" v="veg" />
		<tag k="ssr:hovedgruppe" v="infrastruktur" />
		<tag k="ssr:stedsnr" v="599504" />
		<tag k="ssr:type" v="vegstrekning" />
	</node>
	<node id="-397422" lat="60.888519444" lon="9.60545555711">
		<tag k="name" v="Nordfjellsvegen" />
		<tag k="ssr:date" v="2019-12-27" />
		<tag k="ssr:gruppe" v="veg" />
		<tag k="ssr:hovedgruppe" v="infrastruktur" />
		<tag k="ssr:stedsnr" v="599493" />
		<tag k="ssr:type" v="vegstrekning" />
	</node>
	<node id="-396397" lat="60.9587805538" lon="9.60437221405">
		<tag k="name" v="Flatigardslivegen" />
		<tag k="ssr:date" v="2019-12-27" />
		<tag k="ssr:gruppe" v="veg" />
		<tag k="ssr:hovedgruppe" v="infrastruktur" />
		<tag k="ssr:stedsnr" v="721840" />
		<tag k="ssr:type" v="vegstrekning" />
	</node>
	<node id="-396394" lat="60.9876250024" lon="9.68396944349">
		<tag k="name" v="Grånstølvegen" />
		<tag k="ssr:date" v="2019-12-27" />
		<tag k="ssr:gruppe" v="veg" />
		<tag k="ssr:hovedgruppe" v="infrastruktur" />
		<tag k="ssr:stedsnr" v="721607" />
		<tag k="ssr:type" v="vegstrekning" />
	</node>
	<node id="-396905" lat="60.9113583372" lon="9.7645722263">
		<tag k="name" v="Langevasslivegen" />
		<tag k="ssr:date" v="2019-12-27" />
		<tag k="ssr:gruppe" v="veg" />
		<tag k="ssr:hovedgruppe" v="infrastruktur" />
		<tag k="ssr:stedsnr" v="175751" />
		<tag k="ssr:type" v="vegstrekning" />
	</node>
	<node id="-396901" lat="60.9672861095" lon="9.76125832654">
		<tag k="name" v="Juvaskogvegen" />
		<tag k="ssr:date" v="2019-12-27" />
		<tag k="ssr:gruppe" v="veg" />
		<tag k="ssr:hovedgruppe" v="infrastruktur" />
		<tag k="ssr:stedsnr" v="175632" />
		<tag k="ssr:type" v="vegstrekning" />
	</node>
	<node id="-395875" lat="60.9397333316" lon="9.74973055807">
		<tag k="name" v="Bergstølskogvegen" />
		<tag k="ssr:date" v="2019-12-27" />
		<tag k="ssr:gruppe" v="veg" />
		<tag k="ssr:hovedgruppe" v="infrastruktur" />
		<tag k="ssr:stedsnr" v="478380" />
		<tag k="ssr:type" v="vegstrekning" />
	</node>
	<node id="-396897" lat="60.8831250008" lon="9.69453610615">
		<tag k="name" v="Øygardsvegen" />
		<tag k="ssr:date" v="2019-12-27" />
		<tag k="ssr:gruppe" v="veg" />
		<tag k="ssr:hovedgruppe" v="infrastruktur" />
		<tag k="ssr:stedsnr" v="175490" />
		<tag k="ssr:type" v="vegstrekning" />
	</node>
	<node id="-395866" lat="60.8578916665" lon="9.62943332527">
		<tag k="name" v="Venstrevegen" />
		<tag k="ssr:date" v="2019-12-27" />
		<tag k="ssr:gruppe" v="veg" />
		<tag k="ssr:hovedgruppe" v="infrastruktur" />
		<tag k="ssr:stedsnr" v="478095" />
		<tag k="ssr:type" v="vegstrekning" />
	</node>
	<node id="-396375" lat="60.8897472217" lon="9.57929722264">
		<tag k="name" v="Sveavegen" />
		<tag k="ssr:date" v="2019-12-27" />
		<tag k="ssr:gruppe" v="veg" />
		<tag k="ssr:hovedgruppe" v="infrastruktur" />
		<tag k="ssr:stedsnr" v="720009" />
		<tag k="ssr:type" v="vegstrekning" />
	</node>
	<node id="-396886" lat="61.0287527794" lon="9.61515832493">
		<tag k="name" v="Gamle Kløvjavegen" />
		<tag k="ssr:date" v="2019-12-27" />
		<tag k="ssr:gruppe" v="veg" />
		<tag k="ssr:hovedgruppe" v="infrastruktur" />
		<tag k="ssr:stedsnr" v="175270" />
		<tag k="ssr:type" v="vegstrekning" />
	</node>
	<node id="-397384" lat="60.9857249975" lon="9.56906666219">
		<tag k="name" v="Jonasbakkin" />
		<tag k="ssr:date" v="2019-12-27" />
		<tag k="ssr:gruppe" v="veg" />
		<tag k="ssr:hovedgruppe" v="infrastruktur" />
		<tag k="ssr:stedsnr" v="598366" />
		<tag k="ssr:type" v="vegstrekning" />
	</node>
	<node id="-397068" lat="60.9905388847" lon="9.74719443766">
		<tag k="name" v="Blesavegen" />
		<tag k="ssr:date" v="2019-12-27" />
		<tag k="ssr:gruppe" v="veg" />
		<tag k="ssr:hovedgruppe" v="infrastruktur" />
		<tag k="ssr:stedsnr" v="357179" />
		<tag k="ssr:type" v="vegstrekning" />
	</node>
	<node id="-397378" lat="61.0836388888" lon="9.67117221936">
		<tag k="name" v="Ølsjølivegen" />
		<tag k="ssr:date" v="2019-12-27" />
		<tag k="ssr:gruppe" v="veg" />
		<tag k="ssr:hovedgruppe" v="infrastruktur" />
		<tag k="ssr:stedsnr" v="598244" />
		<tag k="ssr:type" v="vegstrekning" />
	</node>
	<node id="-396863" lat="60.9373944431" lon="9.60793333731">
		<tag k="name" v="Øyavegen" />
		<tag k="ssr:date" v="2019-12-27" />
		<tag k="ssr:gruppe" v="veg" />
		<tag k="ssr:hovedgruppe" v="infrastruktur" />
		<tag k="ssr:stedsnr" v="174586" />
		<tag k="ssr:type" v="vegstrekning" />
	</node>
	<node id="-396349" lat="60.8753916625" lon="9.76280832939">
		<tag k="name" v="Åborvassvegen" />
		<tag k="old_name" v="Øbbervassvegen" />
		<tag k="ssr:date" v="2019-12-27" />
		<tag k="ssr:gruppe" v="veg" />
		<tag k="ssr:hovedgruppe" v="infrastruktur" />
		<tag k="ssr:stedsnr" v="661735" />
		<tag k="ssr:type" v="vegstrekning" />
	</node>
	<node id="-396347" lat="60.8819222229" lon="9.74128334206">
		<tag k="name" v="Haustsætervegen" />
		<tag k="ssr:date" v="2019-12-27" />
		<tag k="ssr:gruppe" v="veg" />
		<tag k="ssr:hovedgruppe" v="infrastruktur" />
		<tag k="ssr:stedsnr" v="661723" />
		<tag k="ssr:type" v="vegstrekning" />
	</node>
	<node id="-396858" lat="60.9875555586" lon="9.55595833616">
		<tag k="name" v="Solbrekklivegen" />
		<tag k="ssr:date" v="2019-12-27" />
		<tag k="ssr:gruppe" v="veg" />
		<tag k="ssr:hovedgruppe" v="infrastruktur" />
		<tag k="ssr:stedsnr" v="174430" />
		<tag k="ssr:type" v="vegstrekning" />
	</node>
	<node id="-395832" lat="60.8819777808" lon="9.60686111209">
		<tag k="name" v="Breiesvegen" />
		<tag k="ssr:date" v="2019-12-27" />
		<tag k="ssr:gruppe" v="veg" />
		<tag k="ssr:hovedgruppe" v="infrastruktur" />
		<tag k="ssr:stedsnr" v="236905" />
		<tag k="ssr:type" v="vegstrekning" />
	</node>
	<node id="-397875" lat="60.8670075919" lon="9.71556130158">
		<tag k="name" v="Lundebruvegen" />
		<tag k="ssr:date" v="2020-06-16" />
		<tag k="ssr:gruppe" v="veg" />
		<tag k="ssr:hovedgruppe" v="infrastruktur" />
		<tag k="ssr:stedsnr" v="1077365" />
		<tag k="ssr:type" v="adressenavn" />
	</node>
	<node id="-397871" lat="69.6388889725" lon="30.5666644427">
		<tag k="fixme" v="multiple name tags, choose one and add the other to alt_name" />
		<tag k="loc_name:se" v="Norgga gonagasriika" />
		<tag k="loc_name:sma" v="Nöörjen gånkarïjhke" />
		<tag k="loc_name:smj" v="Vuona gånågisrijkka" />
		<tag k="name" v="Noreg;Norge" />
		<tag k="name:en" v="Norway" />
		<tag k="name:no" v="Noreg;Norge" />
		<tag k="ssr:date" v="2020-06-04" />
		<tag k="ssr:gruppe" v="administrativeIndelinger" />
		<tag k="ssr:hovedgruppe" v="offentligAdministrasjon" />
		<tag k="ssr:stedsnr" v="26330" />
		<tag k="ssr:type" v="nasjon" />
	</node>
	<node id="-397869" lat="60.7952487072" lon="11.0825912243">
		<tag k="name" v="Innlandet fylke" />
		<tag k="ssr:date" v="2020-01-13" />
		<tag k="ssr:gruppe" v="administrativeIndelinger" />
		<tag k="ssr:hovedgruppe" v="offentligAdministrasjon" />
		<tag k="ssr:stedsnr" v="1074406" />
		<tag k="ssr:type" v="fylke" />
	</node>
	<node id="-396331" lat="61.0942277764" lon="9.54868611136">
		<tag k="name" v="Stuvelivegen" />
		<tag k="ssr:date" v="2019-12-27" />
		<tag k="ssr:gruppe" v="veg" />
		<tag k="ssr:hovedgruppe" v="infrastruktur" />
		<tag k="ssr:stedsnr" v="659431" />
		<tag k="ssr:type" v="vegstrekning" />
	</node>
	<node id="-397863" lat="61.0171396497" lon="9.68416167445">
		<tag k="name" v="Skåletjednbakkin" />
		<tag k="ssr:date" v="2019-12-27" />
		<tag k="ssr:gruppe" v="veg" />
		<tag k="ssr:hovedgruppe" v="infrastruktur" />
		<tag k="ssr:stedsnr" v="1016604" />
		<tag k="ssr:type" v="adressenavn" />
	</node>
	<node id="-397862" lat="61.0893276657" lon="9.5034019207">
		<tag k="name" v="Kalvavegen" />
		<tag k="ssr:date" v="2019-12-27" />
		<tag k="ssr:gruppe" v="veg" />
		<tag k="ssr:hovedgruppe" v="infrastruktur" />
		<tag k="ssr:stedsnr" v="1015671" />
		<tag k="ssr:type" v="adressenavn" />
	</node>
	<node id="-397861" lat="61.0494143322" lon="9.43678662355">
		<tag k="name" v="Bjødnaskardet" />
		<tag k="ssr:date" v="2019-12-27" />
		<tag k="ssr:gruppe" v="veg" />
		<tag k="ssr:hovedgruppe" v="infrastruktur" />
		<tag k="ssr:stedsnr" v="1015545" />
		<tag k="ssr:type" v="adressenavn" />
	</node>
	<node id="-396319" lat="60.8693694451" lon="9.69808611259">
		<tag k="name" v="Hovdevegen" />
		<tag k="ssr:date" v="2019-12-27" />
		<tag k="ssr:gruppe" v="veg" />
		<tag k="ssr:hovedgruppe" v="infrastruktur" />
		<tag k="ssr:stedsnr" v="722863" />
		<tag k="ssr:type" v="vegstrekning" />
	</node>
	<node id="-396313" lat="60.8913527751" lon="9.7823166665">
		<tag k="name" v="Bergevassdalsvegen" />
		<tag k="ssr:date" v="2019-12-27" />
		<tag k="ssr:gruppe" v="veg" />
		<tag k="ssr:hovedgruppe" v="infrastruktur" />
		<tag k="ssr:stedsnr" v="722700" />
		<tag k="ssr:type" v="vegstrekning" />
	</node>
	<node id="-396307" lat="60.8348027744" lon="9.72832778278">
		<tag k="name" v="Hyttemyrvegen" />
		<tag k="ssr:date" v="2019-12-27" />
		<tag k="ssr:gruppe" v="veg" />
		<tag k="ssr:hovedgruppe" v="infrastruktur" />
		<tag k="ssr:stedsnr" v="722518" />
		<tag k="ssr:type" v="vegstrekning" />
	</node>
	<node id="-397328" lat="61.016538888" lon="9.52220554768">
		<tag k="name" v="Brøtavegen" />
		<tag k="ssr:date" v="2019-12-27" />
		<tag k="ssr:gruppe" v="veg" />
		<tag k="ssr:hovedgruppe" v="infrastruktur" />
		<tag k="ssr:stedsnr" v="542683" />
		<tag k="ssr:type" v="vegstrekning" />
	</node>
	<node id="-397323" lat="61.0754555555" lon="9.49720834258">
		<tag k="name" v="Nysetvegen" />
		<tag k="ssr:date" v="2019-12-27" />
		<tag k="ssr:gruppe" v="veg" />
		<tag k="ssr:hovedgruppe" v="infrastruktur" />
		<tag k="ssr:stedsnr" v="540766" />
		<tag k="ssr:type" v="vegstrekning" />
	</node>
	<node id="-395777" lat="60.9643444465" lon="9.73985555868">
		<tag k="name" v="Juvavegen" />
		<tag k="ssr:date" v="2019-12-27" />
		<tag k="ssr:gruppe" v="veg" />
		<tag k="ssr:hovedgruppe" v="infrastruktur" />
		<tag k="ssr:stedsnr" v="296628" />
		<tag k="ssr:type" v="vegstrekning" />
	</node>
	<node id="-397828" lat="60.9690083363" lon="9.72747777543">
>>>>>>> e1d4bc35ff8a6074a6f2e91616a996b547c36f15
		<tag k="name" v="Svilosvegen" />
		<tag k="ssr:date" v="2019-12-27" />
		<tag k="ssr:gruppe" v="veg" />
		<tag k="ssr:hovedgruppe" v="infrastruktur" />
		<tag k="ssr:stedsnr" v="964650" />
		<tag k="ssr:type" v="vegstrekning" />
	</node>
<<<<<<< HEAD
	<node lat="61.0494143321857" lon="9.436786623552342" id="-20500">
		<tag k="name" v="Bjødnaskardet" />
		<tag k="ssr:date" v="2019-12-27" />
		<tag k="ssr:gruppe" v="veg" />
		<tag k="ssr:hovedgruppe" v="infrastruktur" />
		<tag k="ssr:stedsnr" v="1015545" />
		<tag k="ssr:type" v="adressenavn" />
	</node>
	<node lat="61.08932766566752" lon="9.503401920702895" id="-20501">
		<tag k="name" v="Kalvavegen" />
		<tag k="ssr:date" v="2019-12-27" />
		<tag k="ssr:gruppe" v="veg" />
		<tag k="ssr:hovedgruppe" v="infrastruktur" />
		<tag k="ssr:stedsnr" v="1015671" />
		<tag k="ssr:type" v="adressenavn" />
	</node>
	<node lat="61.01713964966709" lon="9.68416167444991" id="-20502">
		<tag k="name" v="Skåletjednbakkin" />
		<tag k="ssr:date" v="2019-12-27" />
		<tag k="ssr:gruppe" v="veg" />
		<tag k="ssr:hovedgruppe" v="infrastruktur" />
		<tag k="ssr:stedsnr" v="1016604" />
		<tag k="ssr:type" v="adressenavn" />
	</node>
	<node lat="60.795248707246294" lon="11.082591224285064" id="-20508">
		<tag k="name" v="Innlandet fylke" />
		<tag k="ssr:date" v="2021-06-08" />
		<tag k="ssr:gruppe" v="administrativeIndelinger" />
		<tag k="ssr:hovedgruppe" v="offentligAdministrasjon" />
		<tag k="ssr:stedsnr" v="1074406" />
		<tag k="ssr:type" v="fylke" />
	</node>
	<node lat="60.867007591919474" lon="9.715561301578052" id="-20509">
		<tag k="name" v="Lundebruvegen" />
		<tag k="ssr:date" v="2020-06-16" />
		<tag k="ssr:gruppe" v="veg" />
		<tag k="ssr:hovedgruppe" v="infrastruktur" />
		<tag k="ssr:stedsnr" v="1077365" />
		<tag k="ssr:type" v="adressenavn" />
	</node>
	<node lat="61.03628321439019" lon="9.70338948147579" id="-20514">
		<tag k="name" v="Øvre Graneistøllie" />
		<tag k="ssr:date" v="2021-03-11" />
		<tag k="ssr:gruppe" v="veg" />
		<tag k="ssr:hovedgruppe" v="infrastruktur" />
		<tag k="ssr:stedsnr" v="1080384" />
		<tag k="ssr:type" v="adressenavn" />
	</node>
	<node lat="61.03607609581461" lon="9.701437736786326" id="-20515">
		<tag k="name" v="Nerre Graneistøllie" />
		<tag k="ssr:date" v="2021-03-11" />
		<tag k="ssr:gruppe" v="veg" />
		<tag k="ssr:hovedgruppe" v="infrastruktur" />
		<tag k="ssr:stedsnr" v="1080385" />
		<tag k="ssr:type" v="adressenavn" />
=======
	<node id="-396290" lat="60.8791916678" lon="9.6347694383">
		<tag k="name" v="Venstrevegen" />
		<tag k="ssr:date" v="2019-12-27" />
		<tag k="ssr:gruppe" v="veg" />
		<tag k="ssr:hovedgruppe" v="infrastruktur" />
		<tag k="ssr:stedsnr" v="721737" />
		<tag k="ssr:type" v="vegstrekning" />
	</node>
	<node id="-397313" lat="60.9732194485" lon="9.54255555456">
		<tag k="name" v="Storslettlivegen" />
		<tag k="ssr:date" v="2019-12-27" />
		<tag k="ssr:gruppe" v="veg" />
		<tag k="ssr:hovedgruppe" v="infrastruktur" />
		<tag k="ssr:stedsnr" v="540335" />
		<tag k="ssr:type" v="vegstrekning" />
>>>>>>> e1d4bc35ff8a6074a6f2e91616a996b547c36f15
	</node>
</osm>
