<?xml version="1.0" encoding="UTF-8"?>
<<<<<<< HEAD
<osm version="0.6" generator="osmapis">
	<node lat="60.57854166289658" lon="10.650691664200124" id="-17429">
		<tag k="old_name" v="Høgsrud" />
		<tag k="place" v="isolated_dwelling" />
		<tag k="ssr:date" v="2019-12-27" />
		<tag k="ssr:gruppe" v="bolighus" />
		<tag k="ssr:hovedgruppe" v="bebyggelse" />
		<tag k="ssr:stedsnr" v="6166" />
		<tag k="ssr:type" v="eneboligMindreBoligbygg" />
	</node>
	<node lat="60.73300555633413" lon="10.701458339148374" id="-17487">
		<tag k="old_name" v="Rostad" />
		<tag k="place" v="farm" />
		<tag k="ssr:date" v="2019-12-27" />
		<tag k="ssr:gruppe" v="gardsbebyggelse" />
		<tag k="ssr:hovedgruppe" v="bebyggelse" />
		<tag k="ssr:stedsnr" v="250407" />
		<tag k="ssr:type" v="bruk" />
	</node>
	<node lat="60.66716111398919" lon="10.662950002259743" id="-17521">
		<tag k="building" v="industrial" />
		<tag k="industrial" v="factory" />
		<tag k="old_name" v="Bøverbru;Bøverbru pipe" />
=======
<osm generator="osmapis" version="0.6">
	<node id="-384604" lat="60.7338833343" lon="10.6845749975">
		<tag k="old_name" v="Ringstad" />
		<tag k="place" v="isolated_dwelling" />
>>>>>>> e1d4bc35ff8a6074a6f2e91616a996b547c36f15
		<tag k="ssr:date" v="2019-12-27" />
		<tag k="ssr:gruppe" v="næring" />
		<tag k="ssr:hovedgruppe" v="bebyggelse" />
		<tag k="ssr:stedsnr" v="188313" />
		<tag k="ssr:type" v="fabrikk" />
	</node>
<<<<<<< HEAD
	<node lat="60.691850003886145" lon="10.600663889909804" id="-17556">
		<tag k="old_name" v="Alstad" />
		<tag k="place" v="isolated_dwelling" />
		<tag k="ssr:date" v="2019-12-27" />
		<tag k="ssr:gruppe" v="bolighus" />
		<tag k="ssr:hovedgruppe" v="bebyggelse" />
		<tag k="ssr:stedsnr" v="249312" />
		<tag k="ssr:type" v="eneboligMindreBoligbygg" />
	</node>
	<node lat="60.73388333429879" lon="10.68457499750315" id="-17603">
		<tag k="old_name" v="Ringstad" />
=======
	<node id="-384825" lat="60.5785416629" lon="10.6506916642">
		<tag k="old_name" v="Høgsrud" />
>>>>>>> e1d4bc35ff8a6074a6f2e91616a996b547c36f15
		<tag k="place" v="isolated_dwelling" />
		<tag k="ssr:date" v="2019-12-27" />
		<tag k="ssr:gruppe" v="bolighus" />
		<tag k="ssr:hovedgruppe" v="bebyggelse" />
		<tag k="ssr:stedsnr" v="371403" />
		<tag k="ssr:type" v="eneboligMindreBoligbygg" />
	</node>
<<<<<<< HEAD
	<node lat="60.678175000275424" lon="10.615752782845878" id="-17774">
=======
	<node id="-384759" lat="60.6781750003" lon="10.6157527828">
>>>>>>> e1d4bc35ff8a6074a6f2e91616a996b547c36f15
		<tag k="building" v="industrial" />
		<tag k="industrial" v="factory" />
		<tag k="old_name" v="Reinsvold Brug" />
		<tag k="ssr:date" v="2019-12-27" />
		<tag k="ssr:gruppe" v="næring" />
		<tag k="ssr:hovedgruppe" v="bebyggelse" />
		<tag k="ssr:stedsnr" v="905243" />
		<tag k="ssr:type" v="fabrikk" />
	</node>
<<<<<<< HEAD
	<node lat="60.69941110979719" lon="10.583838895259218" id="-17994">
		<tag k="old_name" v="Liås" />
		<tag k="place" v="farm" />
		<tag k="ssr:date" v="2019-12-27" />
		<tag k="ssr:gruppe" v="gardsbebyggelse" />
		<tag k="ssr:hovedgruppe" v="bebyggelse" />
		<tag k="ssr:stedsnr" v="310360" />
		<tag k="ssr:type" v="bruk" />
	</node>
	<node lat="60.5322555590068" lon="10.628519452066863" id="-18100">
		<tag k="old_name" v="Dyrudlykkja" />
		<tag k="place" v="farm" />
=======
	<node id="-384938" lat="60.667161114" lon="10.6629500023">
		<tag k="building" v="industrial" />
		<tag k="industrial" v="factory" />
		<tag k="old_name" v="Bøverbru;Bøverbru pipe" />
>>>>>>> e1d4bc35ff8a6074a6f2e91616a996b547c36f15
		<tag k="ssr:date" v="2019-12-27" />
		<tag k="ssr:gruppe" v="gardsbebyggelse" />
		<tag k="ssr:hovedgruppe" v="bebyggelse" />
		<tag k="ssr:stedsnr" v="613089" />
		<tag k="ssr:type" v="bruk" />
	</node>
<<<<<<< HEAD
	<node lat="60.7157333354803" lon="10.577533328369272" id="-18185">
		<tag k="old_name" v="Veltstugua" />
=======
	<node id="-385000" lat="60.6994111098" lon="10.5838388953">
		<tag k="old_name" v="Liås" />
>>>>>>> e1d4bc35ff8a6074a6f2e91616a996b547c36f15
		<tag k="place" v="farm" />
		<tag k="ssr:date" v="2019-12-27" />
		<tag k="ssr:gruppe" v="gardsbebyggelse" />
		<tag k="ssr:hovedgruppe" v="bebyggelse" />
		<tag k="ssr:stedsnr" v="809429" />
		<tag k="ssr:type" v="bruk" />
	</node>
	<node id="-384540" lat="60.7330055563" lon="10.7014583391">
		<tag k="old_name" v="Rostad" />
		<tag k="place" v="farm" />
		<tag k="ssr:date" v="2019-12-27" />
		<tag k="ssr:gruppe" v="gardsbebyggelse" />
		<tag k="ssr:hovedgruppe" v="bebyggelse" />
		<tag k="ssr:stedsnr" v="250407" />
		<tag k="ssr:type" v="bruk" />
	</node>
	<node id="-384486" lat="60.6918500039" lon="10.6006638899">
		<tag k="old_name" v="Alstad" />
		<tag k="place" v="isolated_dwelling" />
		<tag k="ssr:date" v="2019-12-27" />
		<tag k="ssr:gruppe" v="bolighus" />
		<tag k="ssr:hovedgruppe" v="bebyggelse" />
		<tag k="ssr:stedsnr" v="249312" />
		<tag k="ssr:type" v="eneboligMindreBoligbygg" />
	</node>
	<node id="-385189" lat="60.7157333355" lon="10.5775333284">
		<tag k="old_name" v="Veltstugua" />
		<tag k="place" v="farm" />
		<tag k="ssr:date" v="2019-12-27" />
		<tag k="ssr:gruppe" v="gardsbebyggelse" />
		<tag k="ssr:hovedgruppe" v="bebyggelse" />
		<tag k="ssr:stedsnr" v="809429" />
		<tag k="ssr:type" v="bruk" />
	</node>
	<node id="-385124" lat="60.532255559" lon="10.6285194521">
		<tag k="old_name" v="Dyrudlykkja" />
		<tag k="place" v="farm" />
		<tag k="ssr:date" v="2019-12-27" />
		<tag k="ssr:gruppe" v="gardsbebyggelse" />
		<tag k="ssr:hovedgruppe" v="bebyggelse" />
		<tag k="ssr:stedsnr" v="613089" />
		<tag k="ssr:type" v="bruk" />
	</node>
</osm>
