<?xml version="1.0" encoding="UTF-8"?>
<osm generator="osmapis" version="0.6">
	<node id="-355711" lat="58.4379361084" lon="7.51894443798">
		<tag k="junction" v="yes" />
		<tag k="name" v="Brusletta" />
		<tag k="place" v="locality" />
		<tag k="ssr:stedsnr" v="22392" />
	</node>
	<node id="-356348" lat="58.4150888845" lon="7.52079722363">
		<tag k="fixme" v="consider highway=path" />
		<tag k="highway" v="track" />
		<tag k="name" v="Matforkleiv" />
		<tag k="ssr:stedsnr" v="204387" />
	</node>
	<node id="-357887" lat="58.1572027819" lon="7.55624721682">
		<tag k="alt_name" v="Skaftet" />
		<tag k="bridge" v="yes" />
		<tag k="layer" v="1" />
		<tag k="name" v="Skapte bru" />
		<tag k="ssr:stedsnr" v="750973" />
	</node>
	<node id="-357239" lat="58.2012972192" lon="7.59198888079">
		<tag k="fixme" v="consider highway=path" />
		<tag k="highway" v="track" />
		<tag k="name" v="Vikkleiv" />
		<tag k="ssr:stedsnr" v="568862" />
	</node>
	<node id="-356009" lat="58.2445277737" lon="7.50321111902">
		<tag k="bridge" v="yes" />
		<tag k="layer" v="1" />
		<tag k="name" v="Lågåna" />
		<tag k="ssr:stedsnr" v="107002" />
	</node>
	<node id="-356595" lat="58.1734055569" lon="7.54404166824">
		<tag k="fixme" v="consider highway=path" />
		<tag k="highway" v="track" />
		<tag k="name" v="Mjunskleiv" />
		<tag k="ssr:stedsnr" v="265642" />
	</node>
	<node id="-357873" lat="58.1671138929" lon="7.54661110562">
		<tag k="fixme" v="consider highway=path" />
		<tag k="highway" v="track" />
		<tag k="name" v="Gjestkleiv" />
		<tag k="ssr:stedsnr" v="750756" />
	</node>
	<node id="-355440" lat="58.1994839097" lon="7.71968980514">
		<tag k="name" v="Breland stasjon" />
		<tag k="railway" v="station" />
		<tag k="ssr:stedsnr" v="364008" />
		<tag k="train" v="yes" />
	</node>
	<node id="-355182" lat="58.1686055555" lon="7.57478610392">
		<tag k="bridge" v="yes" />
		<tag k="layer" v="1" />
		<tag k="name" v="Eigå" />
		<tag k="ssr:stedsnr" v="289046" />
	</node>
	<node id="-356413" lat="58.2211583363" lon="7.50613333063">
		<tag k="bridge" v="yes" />
		<tag k="layer" v="1" />
		<tag k="name" v="Songåna" />
		<tag k="ssr:stedsnr" v="228009" />
	</node>
	<node id="-355602" lat="58.2275916643" lon="7.48316388342">
		<tag k="bridge" v="yes" />
		<tag k="layer" v="1" />
		<tag k="name" v="Mjunåsen" />
		<tag k="ssr:stedsnr" v="410004" />
	</node>
	<node id="-357481" lat="58.2973472237" lon="7.52561666948">
		<tag k="bridge" v="yes" />
		<tag k="layer" v="1" />
		<tag k="name" v="Stredet øvre" />
		<tag k="ssr:stedsnr" v="653006" />
	</node>
	<node id="-357480" lat="58.2574694451" lon="7.48831666802">
		<tag k="bridge" v="yes" />
		<tag k="layer" v="1" />
		<tag k="name" v="Sveinall" />
		<tag k="ssr:stedsnr" v="653004" />
	</node>
	<node id="-355943" lat="58.4169555577" lon="7.51745833628">
		<tag k="fixme" v="consider highway=path" />
		<tag k="highway" v="track" />
		<tag k="name" v="Tinnkleiv" />
		<tag k="ssr:stedsnr" v="83448" />
	</node>
	<node id="-358246" lat="58.4367361141" lon="7.51867221644">
		<tag k="alt_name" v="Homme" />
		<tag k="bridge" v="yes" />
		<tag k="layer" v="1" />
		<tag k="name" v="Homme bru" />
		<tag k="ssr:stedsnr" v="872466" />
	</node>
	<node id="-355604" lat="58.2478250038" lon="7.58447499989">
		<tag k="bridge" v="yes" />
		<tag k="layer" v="1" />
		<tag k="name" v="Hestbekk" />
		<tag k="ssr:stedsnr" v="411057" />
	</node>
	<node id="-356215" lat="58.3746638891" lon="7.47464721393">
		<tag k="bridge" v="yes" />
		<tag k="layer" v="1" />
		<tag k="name" v="Mindrebø bru" />
		<tag k="ssr:stedsnr" v="168002" />
	</node>
	<node id="-356411" lat="58.39588056" lon="7.52598610903">
		<tag k="bridge" v="yes" />
		<tag k="layer" v="1" />
		<tag k="name" v="Monan" />
		<tag k="ssr:stedsnr" v="228007" />
	</node>
	<node id="-358109" lat="58.1697750038" lon="7.66029167239">
		<tag k="bridge" v="yes" />
		<tag k="layer" v="1" />
		<tag k="name" v="Eiksåbrua" />
		<tag k="ssr:stedsnr" v="836039" />
	</node>
	<node id="-358108" lat="58.1639694444" lon="7.61132499472">
		<tag k="bridge" v="yes" />
		<tag k="layer" v="1" />
		<tag k="name" v="Eidsåna" />
		<tag k="ssr:stedsnr" v="836037" />
	</node>
	<node id="-356409" lat="58.3123527742" lon="7.51815000821">
		<tag k="bridge" v="yes" />
		<tag k="layer" v="1" />
		<tag k="name" v="Nesset" />
		<tag k="ssr:stedsnr" v="228003" />
	</node>
	<node id="-356408" lat="58.3177638921" lon="7.53336388826">
		<tag k="bridge" v="yes" />
		<tag k="layer" v="1" />
		<tag k="name" v="Manflåbrua" />
		<tag k="ssr:stedsnr" v="228001" />
	</node>
	<node id="-356558" lat="58.4580277781" lon="7.51888610298">
		<tag k="highway" v="path" />
		<tag k="name" v="Høyvegen" />
		<tag k="ssr:stedsnr" v="265424" />
	</node>
	<node id="-357325" lat="58.4574166631" lon="7.62370832704">
		<tag k="highway" v="path" />
		<tag k="name" v="Kaddanskleiv" />
		<tag k="ssr:stedsnr" v="628062" />
	</node>
	<node id="-355788" lat="58.169577781" lon="7.57364444938">
		<tag k="bridge" v="yes" />
		<tag k="layer" v="1" />
		<tag k="name" v="Sagbrua" />
		<tag k="ssr:stedsnr" v="46003" />
	</node>
	<node id="-356343" lat="58.4555777803" lon="7.54981111194">
		<tag k="ford" v="yes" />
		<tag k="name" v="Vaet" />
		<tag k="place" v="locality" />
		<tag k="ssr:stedsnr" v="204358" />
	</node>
	<node id="-355399" lat="58.1826333293" lon="7.52775554764">
		<tag k="bridge" v="yes" />
		<tag k="layer" v="1" />
		<tag k="name" v="Øvre Heddelandsbrua" />
		<tag k="ssr:stedsnr" v="350057" />
	</node>
	<node id="-355523" lat="58.4563361084" lon="7.51388333195">
		<tag k="highway" v="path" />
		<tag k="name" v="Slyngen" />
		<tag k="ssr:stedsnr" v="386382" />
	</node>
	<node id="-357694" lat="58.3829500034" lon="7.52919999488">
		<tag k="bridge" v="yes" />
		<tag k="layer" v="1" />
		<tag k="name" v="Bjelland" />
		<tag k="ssr:stedsnr" v="714055" />
	</node>
	<node id="-357693" lat="58.2672416652" lon="7.4541722188">
		<tag k="bridge" v="yes" />
		<tag k="layer" v="1" />
		<tag k="name" v="Fidje nedre bru" />
		<tag k="ssr:stedsnr" v="714053" />
	</node>
	<node id="-356412" lat="58.2995194446" lon="7.50292499716">
		<tag k="bridge" v="yes" />
		<tag k="layer" v="1" />
		<tag k="name" v="Ågevassbekk" />
		<tag k="ssr:stedsnr" v="228010" />
	</node>
	<node id="-357819" lat="58.4392222266" lon="7.60176389485">
		<tag k="ford" v="yes" />
		<tag k="name" v="Åsdølsvaet" />
		<tag k="place" v="locality" />
		<tag k="ssr:stedsnr" v="750417" />
	</node>
	<node id="-356410" lat="58.2217361149" lon="7.49579166293">
		<tag k="bridge" v="yes" />
		<tag k="layer" v="1" />
		<tag k="name" v="Saga" />
		<tag k="ssr:stedsnr" v="228005" />
	</node>
	<node id="-357817" lat="58.4412805531" lon="7.58529999838">
		<tag k="ford" v="yes" />
		<tag k="name" v="Spranget" />
		<tag k="place" v="locality" />
		<tag k="ssr:stedsnr" v="750408" />
	</node>
	<node id="-358200" lat="58.370155557" lon="7.47740277865">
		<tag k="highway" v="path" />
		<tag k="name" v="Vondestien" />
		<tag k="ssr:stedsnr" v="872175" />
	</node>
	<node id="-355636" lat="58.2085555546" lon="7.66319722854">
		<tag k="bridge" v="yes" />
		<tag k="layer" v="1" />
		<tag k="name" v="Krossen" />
		<tag k="ssr:stedsnr" v="896046" />
	</node>
	<node id="-357044" lat="58.1776000015" lon="7.59494999373">
		<tag k="bridge" v="yes" />
		<tag k="layer" v="1" />
		<tag k="name" v="Svartevassbekk" />
		<tag k="ssr:stedsnr" v="532004" />
	</node>
	<node id="-357043" lat="58.2973750015" lon="7.50493888967">
		<tag k="bridge" v="yes" />
		<tag k="layer" v="1" />
		<tag k="name" v="Losfidbekk" />
		<tag k="ssr:stedsnr" v="532002" />
	</node>
	<node id="-355762" lat="58.1652000009" lon="7.57754721376">
		<tag k="highway" v="path" />
		<tag k="name" v="Klubbestien" />
		<tag k="ssr:stedsnr" v="22943" />
	</node>
	<node id="-355635" lat="58.3147861113" lon="7.47121666504">
		<tag k="bridge" v="yes" />
		<tag k="layer" v="1" />
		<tag k="name" v="Dyblemyrbekk" />
		<tag k="ssr:stedsnr" v="896042" />
	</node>
	<node id="-357166" lat="58.2602888886" lon="7.50480555802">
		<tag k="highway" v="path" />
		<tag k="name" v="Lauveien" />
		<tag k="ssr:stedsnr" v="568381" />
	</node>
	<node id="-357692" lat="58.1763861122" lon="7.52439722527">
		<tag k="bridge" v="yes" />
		<tag k="layer" v="1" />
		<tag k="name" v="Varsbekk" />
		<tag k="ssr:stedsnr" v="714008" />
	</node>
	<node id="-356010" lat="58.1523611071" lon="7.70456667396">
		<tag k="bridge" v="yes" />
		<tag k="layer" v="1" />
		<tag k="name" v="Auslandsvassbekk" />
		<tag k="ssr:stedsnr" v="107050" />
	</node>
	<node id="-357673" lat="58.2044194441" lon="7.71751111511">
		<tag k="highway" v="path" />
		<tag k="name" v="Kleiva" />
		<tag k="ssr:stedsnr" v="690717" />
	</node>
	<node id="-356737" lat="58.3699833338" lon="7.4742277856">
		<tag k="highway" v="path" />
		<tag k="name" v="Breistien" />
		<tag k="ssr:stedsnr" v="447147" />
	</node>
	<node id="-356132" lat="58.4100111152" lon="7.52498056064">
		<tag k="highway" v="path" />
		<tag k="name" v="Stien" />
		<tag k="ssr:stedsnr" v="143437" />
	</node>
	<node id="-358304" lat="58.2045611078" lon="7.54321667202">
		<tag k="fixme" v="consider highway=path" />
		<tag k="highway" v="track" />
		<tag k="name" v="Krossveian" />
		<tag k="ssr:stedsnr" v="872971" />
	</node>
	<node id="-357261" lat="58.1623333312" lon="7.55574721743">
		<tag k="bridge" v="yes" />
		<tag k="layer" v="1" />
		<tag k="name" v="Skaue" />
		<tag k="ssr:stedsnr" v="592006" />
	</node>
	<node id="-357018" lat="58.1571694449" lon="7.53848333331">
		<tag k="highway" v="path" />
		<tag k="name" v="Høykleiv" />
		<tag k="ssr:stedsnr" v="507972" />
	</node>
	<node id="-357401" lat="58.4155138867" lon="7.6145472192">
		<tag k="highway" v="path" />
		<tag k="name" v="Gunsteinkleiv" />
		<tag k="ssr:stedsnr" v="628452" />
	</node>
	<node id="-356631" lat="58.2121416705" lon="7.52518332931">
		<tag k="alt_name" v="Bue" />
		<tag k="bridge" v="yes" />
		<tag k="layer" v="1" />
		<tag k="name" v="Finsdal bru" />
		<tag k="ssr:stedsnr" v="265961" />
	</node>
	<node id="-358036" lat="58.2683111118" lon="7.5334333272">
		<tag k="fixme" v="consider highway=path" />
		<tag k="highway" v="track" />
		<tag k="name" v="Småkleivan" />
		<tag k="ssr:stedsnr" v="811475" />
	</node>
	<node id="-355603" lat="58.1996305596" lon="7.71487222787">
		<tag k="bridge" v="yes" />
		<tag k="layer" v="1" />
		<tag k="name" v="Snig" />
		<tag k="ssr:stedsnr" v="410005" />
	</node>
	<node id="-357266" lat="58.1822166708" lon="7.52830277443">
		<tag k="bridge" v="yes" />
		<tag k="layer" v="1" />
		<tag k="name" v="Nedre Heddelandsbrua" />
		<tag k="ssr:stedsnr" v="592056" />
	</node>
	<node id="-357265" lat="58.3843888888" lon="7.59659999559">
		<tag k="bridge" v="yes" />
		<tag k="layer" v="1" />
		<tag k="name" v="Koland" />
		<tag k="ssr:stedsnr" v="592053" />
	</node>
	<node id="-357264" lat="58.1695583291" lon="7.51503610926">
		<tag k="bridge" v="yes" />
		<tag k="layer" v="1" />
		<tag k="name" v="Gangså" />
		<tag k="ssr:stedsnr" v="592054" />
	</node>
	<node id="-357263" lat="58.3577750013" lon="7.51780555896">
		<tag k="bridge" v="yes" />
		<tag k="layer" v="1" />
		<tag k="name" v="Hesså bru" />
		<tag k="ssr:stedsnr" v="592051" />
	</node>
	<node id="-357262" lat="58.3381111085" lon="7.50430833774">
		<tag k="bridge" v="yes" />
		<tag k="layer" v="1" />
		<tag k="name" v="Bergskot bru" />
		<tag k="ssr:stedsnr" v="592048" />
	</node>
	<node id="-357901" lat="58.1736444402" lon="7.56045277962">
		<tag k="bridge" v="yes" />
		<tag k="layer" v="1" />
		<tag k="name" v="Skjævesland" />
		<tag k="ssr:stedsnr" v="775006" />
	</node>
	<node id="-357260" lat="58.1589944419" lon="7.5494833257">
		<tag k="alt_name" v="Øyfid" />
		<tag k="bridge" v="yes" />
		<tag k="layer" v="1" />
		<tag k="name" v="Øyfid bru" />
		<tag k="ssr:stedsnr" v="568990" />
	</node>
	<node id="-356873" lat="58.2705694442" lon="7.43461665979">
		<tag k="bridge" v="yes" />
		<tag k="layer" v="1" />
		<tag k="name" v="Fidje øvre" />
		<tag k="ssr:stedsnr" v="471057" />
	</node>
	<node id="-355321" lat="58.445941668" lon="7.610322218">
		<tag k="highway" v="path" />
		<tag k="name" v="Gamle Abuslandsvegen" />
		<tag k="ssr:stedsnr" v="325435" />
	</node>
	<node id="-356359" lat="58.2545500043" lon="7.51848888621">
		<tag k="alt_name" v="Kleveland" />
		<tag k="bridge" v="yes" />
		<tag k="layer" v="1" />
		<tag k="name" v="Kleveland bru" />
		<tag k="ssr:stedsnr" v="204566" />
	</node>
	<node id="-358533" lat="58.385944448" lon="7.57143055668">
		<tag k="bridge" v="yes" />
		<tag k="layer" v="1" />
		<tag k="name" v="Tønnesland" />
		<tag k="ssr:stedsnr" v="957008" />
	</node>
	<node id="-358532" lat="58.3842916693" lon="7.63852222655">
		<tag k="bridge" v="yes" />
		<tag k="layer" v="1" />
		<tag k="name" v="Øygarden øvre" />
		<tag k="ssr:stedsnr" v="957007" />
	</node>
	<node id="-356846" lat="58.2128583365" lon="7.51257221955">
		<tag k="alt_name" v="Marnardal" />
		<tag k="name" v="Marnardal st." />
		<tag k="railway" v="station" />
		<tag k="ssr:stedsnr" v="447826" />
		<tag k="train" v="yes" />
	</node>
	<node id="-358017" lat="58.3972694415" lon="7.60268333108">
		<tag k="highway" v="path" />
		<tag k="name" v="Kolandsstien" />
		<tag k="ssr:stedsnr" v="811372" />
	</node>
</osm>
