<?xml version="1.0" encoding="UTF-8"?>
<osm generator="osmapis" version="0.6">
	<node id="-356345" lat="58.4488722266" lon="7.58591110917">
		<tag k="name" v="Myglevann" />
		<tag k="natural" v="water" />
		<tag k="ssr:stedsnr" v="204370" />
		<tag k="water" v="lake" />
	</node>
	<node id="-356344" lat="58.4436888917" lon="7.51296944118">
		<tag k="name" v="Hommeneset" />
		<tag k="natural" v="cape" />
		<tag k="ssr:stedsnr" v="204361" />
	</node>
	<node id="-356342" lat="58.4558333326" lon="7.55303055481">
		<tag k="name" v="Midtre Gytjønn" />
		<tag k="natural" v="water" />
		<tag k="ssr:stedsnr" v="204356" />
	</node>
	<node id="-358385" lat="58.4348916662" lon="7.67040000337">
		<tag k="name" v="Rona" />
		<tag k="natural" v="strait" />
		<tag k="ssr:stedsnr" v="932120" />
	</node>
	<node id="-358384" lat="58.446327778" lon="7.65383889506">
		<tag k="name" v="Tjønna" />
		<tag k="natural" v="water" />
		<tag k="ssr:stedsnr" v="932117" />
	</node>
	<node id="-358382" lat="58.1602500022" lon="7.48183332973">
		<tag k="name" v="Nylandstjønn" />
		<tag k="natural" v="water" />
		<tag k="ssr:stedsnr" v="932111" />
	</node>
	<node id="-356329" lat="58.3981055572" lon="7.5040111136">
		<tag k="name" v="Støa" />
		<tag k="natural" v="bay" />
		<tag k="ssr:stedsnr" v="204320" />
	</node>
	<node id="-358376" lat="58.1438694444" lon="7.69461388675">
		<tag k="name" v="Skjærtjønn" />
		<tag k="natural" v="water" />
		<tag k="ssr:stedsnr" v="932066" />
	</node>
	<node id="-358372" lat="58.3724805552" lon="7.57427499331">
		<tag k="name" v="Tjønnedyblan" />
		<tag k="natural" v="water" />
		<tag k="ssr:stedsnr" v="932057" />
		<tag k="water" v="pond" />
	</node>
	<node id="-356322" lat="58.4039861128" lon="7.50645832907">
		<tag k="name" v="Tangen" />
		<tag k="natural" v="cape" />
		<tag k="ssr:stedsnr" v="204302" />
	</node>
	<node id="-356319" lat="58.310205555" lon="7.46295833895">
		<tag k="loc_name" v="Tjønnåstjønn, austre" />
		<tag k="name" v="Austre Tjønnåstjønn" />
		<tag k="natural" v="water" />
		<tag k="ssr:stedsnr" v="204290" />
	</node>
	<node id="-358365" lat="58.1944944488" lon="7.66110834115">
		<tag k="alt_name" v="Pultrevann" />
		<tag k="name" v="Pultrevatnet" />
		<tag k="natural" v="water" />
		<tag k="ssr:stedsnr" v="911735" />
	</node>
	<node id="-358364" lat="58.1918277768" lon="7.71076110392">
		<tag k="alt_name" v="Stemvann" />
		<tag k="name" v="Stemmevatnet" />
		<tag k="natural" v="water" />
		<tag k="ssr:stedsnr" v="911725" />
		<tag k="water" v="lake" />
	</node>
	<node id="-358362" lat="58.370895828" lon="7.54814580749">
		<tag k="alt_name" v="Åltjønn" />
		<tag k="name" v="Åltjørn" />
		<tag k="natural" v="water" />
		<tag k="ssr:stedsnr" v="910953" />
	</node>
	<node id="-356313" lat="58.3673722234" lon="7.55158332798">
		<tag k="name" v="Tjønna" />
		<tag k="natural" v="water" />
		<tag k="ssr:stedsnr" v="204245" />
	</node>
	<node id="-356311" lat="58.318858333" lon="7.51920555579">
		<tag k="name" v="Skueneset" />
		<tag k="natural" v="cape" />
		<tag k="ssr:stedsnr" v="204233" />
	</node>
	<node id="-356310" lat="58.3084500019" lon="7.52647778297">
		<tag k="name" v="Synsodden" />
		<tag k="natural" v="cape" />
		<tag k="ssr:stedsnr" v="204228" />
	</node>
	<node id="-358354" lat="58.1782166686" lon="7.68312500179">
		<tag k="alt_name" v="Ålevann" />
		<tag k="name" v="Ålevatnet" />
		<tag k="natural" v="water" />
		<tag k="ssr:stedsnr" v="910802" />
	</node>
	<node id="-358352" lat="58.1594916691" lon="7.6601388958">
		<tag k="alt_name" v="Heitjønn" />
		<tag k="name" v="Heietjørna" />
		<tag k="natural" v="water" />
		<tag k="ssr:stedsnr" v="910759" />
	</node>
	<node id="-356303" lat="58.4140305535" lon="7.50433611707">
		<tag k="name" v="Bjorbekken" />
		<tag k="ssr:stedsnr" v="204193" />
		<tag k="waterway" v="stream" />
	</node>
	<node id="-358348" lat="58.2090333312" lon="7.70456666533">
		<tag k="alt_name" v="Langetjønn" />
		<tag k="name" v="Langevatnet" />
		<tag k="natural" v="water" />
		<tag k="ssr:stedsnr" v="910684" />
	</node>
	<node id="-358347" lat="58.2009861147" lon="7.63251110615">
		<tag k="alt_name" v="Auslandsvann" />
		<tag k="name" v="Auslandstjørn" />
		<tag k="natural" v="water" />
		<tag k="ssr:stedsnr" v="910678" />
	</node>
	<node id="-358344" lat="58.2422249975" lon="7.54298611929">
		<tag k="alt_name" v="Revetjønn" />
		<tag k="name" v="Revetjørna" />
		<tag k="natural" v="water" />
		<tag k="ssr:stedsnr" v="910643" />
	</node>
	<node id="-356295" lat="58.372141671" lon="7.49471388185">
		<tag k="name" v="Blomestø" />
		<tag k="natural" v="bay" />
		<tag k="ssr:stedsnr" v="204135" />
	</node>
	<node id="-356293" lat="58.381233333" lon="7.42292500372">
		<tag k="name" v="Sauehylen" />
		<tag k="place" v="locality" />
		<tag k="ssr:stedsnr" v="204107" />
	</node>
	<node id="-356289" lat="58.1647055578" lon="7.46673055711">
		<tag k="name" v="Mjåvann" />
		<tag k="natural" v="water" />
		<tag k="ssr:stedsnr" v="204088" />
		<tag k="water" v="lake" />
	</node>
	<node id="-356286" lat="58.427672223" lon="7.62711665923">
		<tag k="name" v="Igletjønn" />
		<tag k="natural" v="water" />
		<tag k="ssr:stedsnr" v="204071" />
	</node>
	<node id="-356285" lat="58.4176444473" lon="7.65186944414">
		<tag k="name" v="Flåna" />
		<tag k="place" v="locality" />
		<tag k="ssr:stedsnr" v="204069" />
	</node>
	<node id="-356283" lat="58.40438056" lon="7.6251166667">
		<tag k="name" v="Fisketjønn" />
		<tag k="natural" v="water" />
		<tag k="ssr:stedsnr" v="204062" />
	</node>
	<node id="-356272" lat="58.2731527805" lon="7.52971666265">
		<tag k="name" v="Fagertjønn" />
		<tag k="natural" v="water" />
		<tag k="ssr:stedsnr" v="204452" />
	</node>
	<node id="-356270" lat="58.1884138933" lon="7.44988056218">
		<tag k="name" v="Igletjønn" />
		<tag k="natural" v="water" />
		<tag k="ssr:stedsnr" v="204430" />
	</node>
	<node id="-356262" lat="58.4275111126" lon="7.65699722061">
		<tag k="name" v="Lomtjønnan" />
		<tag k="natural" v="water" />
		<tag k="ssr:stedsnr" v="182885" />
	</node>
	<node id="-358307" lat="58.1705694469" lon="7.62157222825">
		<tag k="name" v="Heptedalstjønn" />
		<tag k="natural" v="water" />
		<tag k="ssr:stedsnr" v="872996" />
	</node>
	<node id="-358306" lat="58.1658861092" lon="7.59972499642">
		<tag k="name" v="Berjefossen" />
		<tag k="natural" v="waterfall" />
		<tag k="ssr:stedsnr" v="872994" />
	</node>
	<node id="-356254" lat="58.1936499965" lon="7.60118334058">
		<tag k="alt_name" v="Skråvann" />
		<tag k="name" v="Skrovvatnet" />
		<tag k="natural" v="water" />
		<tag k="ssr:stedsnr" v="182708" />
	</node>
	<node id="-358301" lat="58.2105749989" lon="7.60918056067">
		<tag k="name" v="Jensekilen" />
		<tag k="natural" v="bay" />
		<tag k="ssr:stedsnr" v="872950" />
	</node>
	<node id="-356252" lat="58.1903750044" lon="7.66836666055">
		<tag k="alt_name" v="Kringlevann" />
		<tag k="name" v="Kringlevatnet" />
		<tag k="natural" v="water" />
		<tag k="ssr:stedsnr" v="182701" />
	</node>
	<node id="-356251" lat="58.1812055552" lon="7.45965277284">
		<tag k="alt_name" v="Galtevann" />
		<tag k="name" v="Galtevatnet" />
		<tag k="natural" v="water" />
		<tag k="ssr:stedsnr" v="182695" />
	</node>
	<node id="-358295" lat="58.1878611136" lon="7.55781388865">
		<tag k="name" v="Poddetjønn" />
		<tag k="natural" v="water" />
		<tag k="ssr:stedsnr" v="872903" />
	</node>
	<node id="-358290" lat="58.2040583373" lon="7.46951667001">
		<tag k="name" v="Tvitjønnan" />
		<tag k="natural" v="water" />
		<tag k="ssr:stedsnr" v="872875" />
	</node>
	<node id="-358284" lat="58.1686722189" lon="7.65356666508">
		<tag k="name" v="Eiksåvannet" />
		<tag k="natural" v="water" />
		<tag k="ssr:stedsnr" v="872768" />
		<tag k="water" v="lake" />
	</node>
	<node id="-358282" lat="58.158250002" lon="7.64089999789">
		<tag k="name" v="Rødlandstjønn" />
		<tag k="natural" v="water" />
		<tag k="ssr:stedsnr" v="872733" />
	</node>
	<node id="-358279" lat="58.1507416624" lon="7.69471944051">
		<tag k="name" v="Paddetjønn" />
		<tag k="natural" v="water" />
		<tag k="ssr:stedsnr" v="872714" />
	</node>
	<node id="-358276" lat="58.211099997" lon="7.72786666077">
		<tag k="name" v="Tvitjønn" />
		<tag k="natural" v="water" />
		<tag k="ssr:stedsnr" v="872694" />
	</node>
	<node id="-358272" lat="58.1765472239" lon="7.63395832558">
		<tag k="name" v="Langevann" />
		<tag k="natural" v="water" />
		<tag k="ssr:stedsnr" v="872671" />
		<tag k="water" v="lake" />
	</node>
	<node id="-358269" lat="58.1754666659" lon="7.64384443893">
		<tag k="name" v="Løkristjønn" />
		<tag k="natural" v="water" />
		<tag k="ssr:stedsnr" v="872663" />
	</node>
	<node id="-358265" lat="58.1808972225" lon="7.53455278274">
		<tag k="name" v="Songeneset" />
		<tag k="natural" v="cape" />
		<tag k="ssr:stedsnr" v="872640" />
	</node>
	<node id="-356214" lat="58.184569449" lon="7.47503333493">
		<tag k="name" v="Hagetjønn" />
		<tag k="natural" v="water" />
		<tag k="ssr:stedsnr" v="144833" />
	</node>
	<node id="-358261" lat="58.2334527811" lon="7.58452500064">
		<tag k="name" v="Stemtjønn" />
		<tag k="natural" v="water" />
		<tag k="ssr:stedsnr" v="872594" />
	</node>
	<node id="-356207" lat="58.1864861122" lon="7.66772500009">
		<tag k="name" v="Nedre Lomeheitjønn" />
		<tag k="natural" v="water" />
		<tag k="ssr:stedsnr" v="144677" />
	</node>
	<node id="-356203" lat="58.2779722251" lon="7.47168611189">
		<tag k="name" v="Nertjønn" />
		<tag k="natural" v="water" />
		<tag k="ssr:stedsnr" v="144364" />
	</node>
	<node id="-356198" lat="58.1702444455" lon="7.61646110799">
		<tag k="name" v="Drengsvann" />
		<tag k="natural" v="water" />
		<tag k="ssr:stedsnr" v="143998" />
		<tag k="water" v="lake" />
	</node>
	<node id="-358242" lat="58.3957027782" lon="7.57020832589">
		<tag k="name" v="Pottjønn" />
		<tag k="natural" v="water" />
		<tag k="ssr:stedsnr" v="872438" />
	</node>
	<node id="-356189" lat="58.1504387491" lon="7.60081300481">
		<tag k="name" v="Skolandstjønnan" />
		<tag k="natural" v="water" />
		<tag k="ssr:stedsnr" v="143939" />
	</node>
	<node id="-356324" lat="58.3276277778" lon="7.46286111661">
		<tag k="name" v="Lonen" />
		<tag k="natural" v="water" />
		<tag k="ssr:stedsnr" v="204304" />
		<tag k="water" v="lake" />
	</node>
	<node id="-356182" lat="58.2044638868" lon="7.60877221613">
		<tag k="name" v="Jensholmen" />
		<tag k="place" v="islet" />
		<tag k="ssr:stedsnr" v="143864" />
	</node>
	<node id="-356179" lat="58.1988666703" lon="7.46529999997">
		<tag k="name" v="Neset" />
		<tag k="natural" v="cape" />
		<tag k="ssr:stedsnr" v="143852" />
	</node>
	<node id="-356176" lat="58.1585722228" lon="7.51234443733">
		<tag k="name" v="Svartelona" />
		<tag k="natural" v="water" />
		<tag k="ssr:stedsnr" v="143832" />
	</node>
	<node id="-356167" lat="58.1574694405" lon="7.66331388596">
		<tag k="name" v="Bjortjønn" />
		<tag k="natural" v="water" />
		<tag k="ssr:stedsnr" v="143701" />
	</node>
	<node id="-358213" lat="58.3265916651" lon="7.52639166287">
		<tag k="name" v="Søyrøy" />
		<tag k="place" v="islet" />
		<tag k="ssr:stedsnr" v="872285" />
	</node>
	<node id="-358212" lat="58.3184527767" lon="7.52746943613">
		<tag k="name" v="Taugerøy" />
		<tag k="natural" v="cape" />
		<tag k="ssr:stedsnr" v="872275" />
	</node>
	<node id="-358209" lat="58.3278777822" lon="7.51422776978">
		<tag k="name" v="Langdrætodden" />
		<tag k="natural" v="cape" />
		<tag k="ssr:stedsnr" v="872257" />
	</node>
	<node id="-358206" lat="58.3467137744" lon="7.46737300408">
		<tag k="name" v="Lintjønn" />
		<tag k="natural" v="water" />
		<tag k="ssr:stedsnr" v="872232" />
	</node>
	<node id="-356157" lat="58.2274916673" lon="7.63922777894">
		<tag k="name" v="Åmmundtjønn" />
		<tag k="natural" v="water" />
		<tag k="ssr:stedsnr" v="143631" />
	</node>
	<node id="-356153" lat="58.2322722257" lon="7.57723889607">
		<tag k="name" v="Ufetjønn" />
		<tag k="natural" v="water" />
		<tag k="ssr:stedsnr" v="143549" />
	</node>
	<node id="-356152" lat="58.2336916685" lon="7.61086666102">
		<tag k="name" v="Valleslåttjønn" />
		<tag k="natural" v="water" />
		<tag k="ssr:stedsnr" v="143540" />
	</node>
	<node id="-358196" lat="58.368786114" lon="7.62879166875">
		<tag k="name" v="Svart-tjønn" />
		<tag k="natural" v="water" />
		<tag k="ssr:stedsnr" v="872100" />
	</node>
	<node id="-358194" lat="58.4261861103" lon="7.62983055119">
		<tag k="name" v="Stemtjønn" />
		<tag k="natural" v="water" />
		<tag k="ssr:stedsnr" v="872085" />
	</node>
	<node id="-358193" lat="58.4153916707" lon="7.63723888639">
		<tag k="name" v="Djupetjønn" />
		<tag k="natural" v="water" />
		<tag k="ssr:stedsnr" v="872075" />
	</node>
	<node id="-358191" lat="58.4020277795" lon="7.63246667221">
		<tag k="name" v="Øvre Rendlevann" />
		<tag k="natural" v="water" />
		<tag k="ssr:stedsnr" v="872061" />
		<tag k="water" v="lake" />
	</node>
	<node id="-358190" lat="58.363041663" lon="7.59942500268">
		<tag k="name" v="Volletjønn" />
		<tag k="natural" v="water" />
		<tag k="ssr:stedsnr" v="872058" />
	</node>
	<node id="-356138" lat="58.3919249981" lon="7.57427500809">
		<tag k="name" v="Romeneset" />
		<tag k="natural" v="cape" />
		<tag k="ssr:stedsnr" v="143361" />
	</node>
	<node id="-358185" lat="58.1723444441" lon="7.57210000053">
		<tag k="name" v="Trebekken" />
		<tag k="ssr:stedsnr" v="872028" />
		<tag k="waterway" v="stream" />
	</node>
	<node id="-358184" lat="58.2482194478" lon="7.58726666367">
		<tag k="name" v="Hesstjønn" />
		<tag k="natural" v="water" />
		<tag k="ssr:stedsnr" v="872029" />
	</node>
	<node id="-356133" lat="58.4074888882" lon="7.5298527794">
		<tag k="name" v="Sundskilen" />
		<tag k="natural" v="bay" />
		<tag k="ssr:stedsnr" v="143439" />
	</node>
	<node id="-356130" lat="58.425513892" lon="7.53429167316">
		<tag k="name" v="Eikenesan" />
		<tag k="natural" v="cape" />
		<tag k="ssr:stedsnr" v="143431" />
	</node>
	<node id="-358088" lat="58.20291389" lon="7.57637777808">
		<tag k="name" v="Aslakstjønn" />
		<tag k="natural" v="water" />
		<tag k="ssr:stedsnr" v="811923" />
	</node>
	<node id="-356120" lat="58.2404027786" lon="7.45733055759">
		<tag k="name" v="Faksetjønn" />
		<tag k="natural" v="water" />
		<tag k="ssr:stedsnr" v="143249" />
	</node>
	<node id="-358165" lat="58.1895861112" lon="7.71903056288">
		<tag k="name" v="Osmundshølen" />
		<tag k="natural" v="water" />
		<tag k="ssr:stedsnr" v="871074" />
		<tag k="water" v="lake" />
	</node>
	<node id="-358163" lat="58.4005888889" lon="7.46659444826">
		<tag k="name" v="Stemmen" />
		<tag k="natural" v="water" />
		<tag k="ssr:stedsnr" v="850982" />
	</node>
	<node id="-356113" lat="58.2145249993" lon="7.45713055405">
		<tag k="name" v="Inkjevettastjønnan" />
		<tag k="natural" v="water" />
		<tag k="ssr:stedsnr" v="143231" />
	</node>
	<node id="-358160" lat="58.3786194436" lon="7.63527778133">
		<tag k="alt_name" v="Tjomtjønn" />
		<tag k="name" v="Tjåmetjørn" />
		<tag k="natural" v="water" />
		<tag k="ssr:stedsnr" v="850942" />
	</node>
	<node id="-358158" lat="58.4506888844" lon="7.6489722183">
		<tag k="alt_name" v="Skogetjønn" />
		<tag k="name" v="Skogstjørn" />
		<tag k="natural" v="water" />
		<tag k="ssr:stedsnr" v="850916" />
	</node>
	<node id="-358155" lat="58.4278638889" lon="7.53278055557">
		<tag k="alt_name" v="Kavfossen" />
		<tag k="name" v="Lauvfossen" />
		<tag k="natural" v="waterfall" />
		<tag k="ssr:stedsnr" v="850874" />
	</node>
	<node id="-358153" lat="58.3601333353" lon="7.53371944212">
		<tag k="alt_name" v="Tvøråna" />
		<tag k="name" v="Tverråni" />
		<tag k="ssr:stedsnr" v="850787" />
		<tag k="waterway" v="stream" />
	</node>
	<node id="-358151" lat="58.3428722264" lon="7.50307778118">
		<tag k="alt_name" v="Bustjønn" />
		<tag k="name" v="Bustjørn" />
		<tag k="natural" v="water" />
		<tag k="ssr:stedsnr" v="850779" />
	</node>
	<node id="-358147" lat="58.2224277743" lon="7.45080277857">
		<tag k="alt_name" v="Hønelandsvannet" />
		<tag k="name" v="Hønelandsvatnet" />
		<tag k="natural" v="water" />
		<tag k="ssr:stedsnr" v="850731" />
	</node>
	<node id="-358146" lat="58.2071916679" lon="7.44115277504">
		<tag k="alt_name" v="Homestadvannet" />
		<tag k="name" v="Homestadvatnet" />
		<tag k="natural" v="water" />
		<tag k="ssr:stedsnr" v="850723" />
		<tag k="water" v="lake" />
	</node>
	<node id="-356096" lat="58.2233750013" lon="7.41023610708">
		<tag k="name" v="Kjeddingsvannet" />
		<tag k="natural" v="water" />
		<tag k="ssr:stedsnr" v="143281" />
		<tag k="water" v="lake" />
	</node>
	<node id="-358143" lat="58.2301083315" lon="7.60011111718">
		<tag k="alt_name" v="Øygardsvann" />
		<tag k="name" v="Øygardsvatnet" />
		<tag k="natural" v="water" />
		<tag k="ssr:stedsnr" v="850706" />
	</node>
	<node id="-358142" lat="58.2303916709" lon="7.64468055259">
		<tag k="alt_name" v="Eptevann" />
		<tag k="name" v="Eptevatnet" />
		<tag k="natural" v="water" />
		<tag k="ssr:stedsnr" v="850705" />
	</node>
	<node id="-356092" lat="58.2396583329" lon="7.44349165938">
		<tag k="name" v="Gullringstjønn" />
		<tag k="natural" v="water" />
		<tag k="ssr:stedsnr" v="143253" />
	</node>
	<node id="-358139" lat="58.1807666695" lon="7.5195222239">
		<tag k="alt_name" v="Sagebekken" />
		<tag k="name" v="Sagbekken" />
		<tag k="ssr:stedsnr" v="850690" />
		<tag k="waterway" v="stream" />
	</node>
	<node id="-358136" lat="58.2859750037" lon="7.4824027757">
		<tag k="alt_name" v="Ågevann" />
		<tag k="name" v="Ågevatnet" />
		<tag k="natural" v="water" />
		<tag k="ssr:stedsnr" v="849868" />
		<tag k="water" v="lake" />
	</node>
	<node id="-358134" lat="58.1577027798" lon="7.52491111476">
		<tag k="alt_name" v="Indre Åsevann" />
		<tag k="name" v="Åsevatnet" />
		<tag k="natural" v="water" />
		<tag k="ssr:stedsnr" v="849818" />
		<tag k="water" v="lake" />
	</node>
	<node id="-356081" lat="58.1837305513" lon="7.61465555425">
		<tag k="name" v="Måsetjønn" />
		<tag k="natural" v="water" />
		<tag k="ssr:stedsnr" v="143010" />
	</node>
	<node id="-356076" lat="58.4348694444" lon="7.68066666152">
		<tag k="name" v="Oksletjønn" />
		<tag k="natural" v="water" />
		<tag k="ssr:stedsnr" v="143100" />
	</node>
	<node id="-356071" lat="58.187969443" lon="7.71804445041">
		<tag k="name" v="Mevann" />
		<tag k="natural" v="water" />
		<tag k="ssr:stedsnr" v="143079" />
		<tag k="water" v="lake" />
	</node>
	<node id="-356069" lat="58.4368000001" lon="7.57263055683">
		<tag k="name" v="Bomhølen" />
		<tag k="place" v="locality" />
		<tag k="ssr:stedsnr" v="143077" />
	</node>
	<node id="-356068" lat="58.422133332" lon="7.65576944045">
		<tag k="name" v="Sandtjønn" />
		<tag k="natural" v="water" />
		<tag k="ssr:stedsnr" v="143072" />
	</node>
	<node id="-356304" lat="58.1433166687" lon="7.59433610456">
		<tag k="name" v="Bjortjønn" />
		<tag k="natural" v="water" />
		<tag k="ssr:stedsnr" v="204202" />
	</node>
	<node id="-358105" lat="58.2058527766" lon="7.64786945214">
		<tag k="name" v="Homtjønn" />
		<tag k="natural" v="water" />
		<tag k="ssr:stedsnr" v="812708" />
	</node>
	<node id="-358103" lat="58.2118544165" lon="7.69596693846">
		<tag k="name" v="Bikstjønn" />
		<tag k="natural" v="water" />
		<tag k="ssr:stedsnr" v="812698" />
	</node>
	<node id="-358101" lat="58.183658336" lon="7.65373610559">
		<tag k="name" v="Kyraue" />
		<tag k="natural" v="water" />
		<tag k="ssr:stedsnr" v="812686" />
	</node>
	<node id="-358100" lat="58.1886027777" lon="7.67391944676">
		<tag k="name" v="Kringletjønn" />
		<tag k="natural" v="water" />
		<tag k="ssr:stedsnr" v="812670" />
	</node>
	<node id="-356048" lat="58.297399996" lon="7.43328610417">
		<tag k="alt_name" v="Erstjønn" />
		<tag k="name" v="Erstjørn" />
		<tag k="natural" v="water" />
		<tag k="ssr:stedsnr" v="121845" />
	</node>
	<node id="-358095" lat="58.1590944479" lon="7.5233416748">
		<tag k="name" v="Rakkeren" />
		<tag k="natural" v="cape" />
		<tag k="ssr:stedsnr" v="811975" />
	</node>
	<node id="-356045" lat="58.3227111153" lon="7.44396388577">
		<tag k="alt_name" v="Brauskelandsvatnet" />
		<tag k="name" v="Bruskelandsvann" />
		<tag k="natural" v="water" />
		<tag k="ssr:stedsnr" v="121742" />
	</node>
	<node id="-356044" lat="58.2214397658" lon="7.50916284426">
		<tag k="alt_name" v="Songeåna" />
		<tag k="name" v="Songåna" />
		<tag k="ssr:stedsnr" v="121733" />
		<tag k="waterway" v="stream" />
	</node>
	<node id="-356042" lat="58.2323888919" lon="7.4520361123">
		<tag k="alt_name" v="Sandvannet" />
		<tag k="name" v="Sandvatnet" />
		<tag k="natural" v="water" />
		<tag k="ssr:stedsnr" v="121722" />
		<tag k="water" v="lake" />
	</node>
	<node id="-356040" lat="58.1910999992" lon="7.68486666144">
		<tag k="alt_name" v="Mjåvann" />
		<tag k="name" v="Mjåvatn" />
		<tag k="natural" v="water" />
		<tag k="ssr:stedsnr" v="121715" />
	</node>
	<node id="-356036" lat="58.4636388886" lon="7.54043888301">
		<tag k="alt_name" v="Hestebekk" />
		<tag k="name" v="Hestbekken" />
		<tag k="ssr:stedsnr" v="121570" />
		<tag k="waterway" v="stream" />
	</node>
	<node id="-356107" lat="58.3625083341" lon="7.47689444917">
		<tag k="name" v="Klerketjønn" />
		<tag k="natural" v="water" />
		<tag k="ssr:stedsnr" v="143175" />
	</node>
	<node id="-358075" lat="58.1543527777" lon="7.47492778439">
		<tag k="name" v="Lomstjønn" />
		<tag k="natural" v="water" />
		<tag k="ssr:stedsnr" v="811821" />
	</node>
	<node id="-358072" lat="58.177488886" lon="7.47714443658">
		<tag k="name" v="Storebekken" />
		<tag k="ssr:stedsnr" v="811798" />
		<tag k="waterway" v="stream" />
	</node>
	<node id="-355955" lat="58.2805666675" lon="7.52388611476">
		<tag k="name" v="Storøy" />
		<tag k="place" v="islet" />
		<tag k="ssr:stedsnr" v="83490" />
	</node>
	<node id="-358060" lat="58.1649583293" lon="7.63629722916">
		<tag k="name" v="Ladåsodden" />
		<tag k="natural" v="cape" />
		<tag k="ssr:stedsnr" v="811698" />
	</node>
	<node id="-358059" lat="58.1506055555" lon="7.69629722873">
		<tag k="name" v="Laksetjønn" />
		<tag k="natural" v="water" />
		<tag k="ssr:stedsnr" v="811685" />
	</node>
	<node id="-358058" lat="58.1537361152" lon="7.68245832931">
		<tag k="name" v="Austre Solåsvann" />
		<tag k="natural" v="water" />
		<tag k="ssr:stedsnr" v="811681" />
		<tag k="water" v="lake" />
	</node>
	<node id="-358057" lat="58.2056805589" lon="7.63276665957">
		<tag k="name" v="Øvre Smørtjønn" />
		<tag k="natural" v="water" />
		<tag k="ssr:stedsnr" v="811670" />
	</node>
	<node id="-356004" lat="58.1532472242" lon="7.56217776991">
		<tag k="name" v="Skaptet" />
		<tag k="natural" v="water" />
		<tag k="ssr:stedsnr" v="83981" />
		<tag k="water" v="lake" />
	</node>
	<node id="-358050" lat="58.1761999968" lon="7.54431388461">
		<tag k="name" v="Øylineset" />
		<tag k="natural" v="cape" />
		<tag k="ssr:stedsnr" v="811610" />
	</node>
	<node id="-356000" lat="58.2084250007" lon="7.62114443846">
		<tag k="name" v="Leirkilen" />
		<tag k="natural" v="bay" />
		<tag k="ssr:stedsnr" v="83934" />
	</node>
	<node id="-355999" lat="58.2132972261" lon="7.60828055412">
		<tag k="name" v="Tømmerkilen" />
		<tag k="natural" v="bay" />
		<tag k="ssr:stedsnr" v="83932" />
	</node>
	<node id="-357879" lat="58.2028611122" lon="7.60043611418">
		<tag k="name" v="Vikkleivkilen" />
		<tag k="natural" v="bay" />
		<tag k="ssr:stedsnr" v="750851" />
	</node>
	<node id="-355995" lat="58.20855556" lon="7.53354721925">
		<tag k="name" v="Litjønn" />
		<tag k="natural" v="water" />
		<tag k="ssr:stedsnr" v="83916" />
	</node>
	<node id="-355988" lat="58.259894449" lon="7.54640833417">
		<tag k="name" v="Buksetjønn" />
		<tag k="natural" v="water" />
		<tag k="ssr:stedsnr" v="83740" />
	</node>
	<node id="-358035" lat="58.1967555564" lon="7.44536665847">
		<tag k="name" v="Åsstølstjønna" />
		<tag k="natural" v="water" />
		<tag k="ssr:stedsnr" v="811473" />
	</node>
	<node id="-355986" lat="58.1539388872" lon="7.6394111192">
		<tag k="name" v="Fosstjønn" />
		<tag k="natural" v="water" />
		<tag k="ssr:stedsnr" v="83733" />
	</node>
	<node id="-355985" lat="58.1524916708" lon="7.64286111302">
		<tag k="name" v="Lille Tvitjønn" />
		<tag k="natural" v="water" />
		<tag k="ssr:stedsnr" v="83732" />
	</node>
	<node id="-355984" lat="58.1498500032" lon="7.67575554957">
		<tag k="name" v="Heimre tjønn" />
		<tag k="natural" v="water" />
		<tag k="ssr:stedsnr" v="83724" />
	</node>
	<node id="-358031" lat="58.4038527737" lon="7.51450833466">
		<tag k="name" v="Lonan" />
		<tag k="natural" v="water" />
		<tag k="ssr:stedsnr" v="811451" />
		<tag k="water" v="lake" />
	</node>
	<node id="-358030" lat="58.17309167" lon="7.45332500777">
		<tag k="name" v="Gomålstjønn" />
		<tag k="natural" v="water" />
		<tag k="ssr:stedsnr" v="811450" />
	</node>
	<node id="-355981" lat="58.1648638908" lon="7.70305278554">
		<tag k="name" v="Spjottjønn" />
		<tag k="natural" v="water" />
		<tag k="ssr:stedsnr" v="83708" />
	</node>
	<node id="-358028" lat="58.4103138876" lon="7.58330555322">
		<tag k="name" v="Langatjønn" />
		<tag k="natural" v="water" />
		<tag k="ssr:stedsnr" v="811449" />
	</node>
	<node id="-355979" lat="58.1991722216" lon="7.66385555282">
		<tag k="name" v="Styggetjønn" />
		<tag k="natural" v="water" />
		<tag k="ssr:stedsnr" v="83702" />
	</node>
	<node id="-358026" lat="58.4235527754" lon="7.5098861069">
		<tag k="name" v="Surtepytten" />
		<tag k="natural" v="water" />
		<tag k="ssr:stedsnr" v="811432" />
		<tag k="water" v="pond" />
	</node>
	<node id="-358023" lat="58.4344194451" lon="7.53539167189">
		<tag k="name" v="Kvisla" />
		<tag k="ssr:stedsnr" v="811403" />
		<tag k="waterway" v="river" />
	</node>
	<node id="-358016" lat="58.4019944453" lon="7.6177166707">
		<tag k="name" v="Dordistjønn" />
		<tag k="natural" v="water" />
		<tag k="ssr:stedsnr" v="811368" />
	</node>
	<node id="-358015" lat="58.3996111111" lon="7.61608333177">
		<tag k="name" v="Grastjønn" />
		<tag k="natural" v="water" />
		<tag k="ssr:stedsnr" v="811361" />
	</node>
	<node id="-355962" lat="58.2264083349" lon="7.61936667115">
		<tag k="name" v="Åsehølen" />
		<tag k="place" v="locality" />
		<tag k="ssr:stedsnr" v="83530" />
	</node>
	<node id="-358007" lat="58.3353638929" lon="7.50130277702">
		<tag k="name" v="Teinebekken" />
		<tag k="ssr:stedsnr" v="811342" />
		<tag k="waterway" v="stream" />
	</node>
	<node id="-358003" lat="58.3090499983" lon="7.45774166284">
		<tag k="alt_name" v="Tjønnåstjønn, vestre" />
		<tag k="name" v="Vestre Tjønnåstjønn" />
		<tag k="natural" v="water" />
		<tag k="ssr:stedsnr" v="811324" />
	</node>
	<node id="-355949" lat="58.388047223" lon="7.53896388189">
		<tag k="name" v="Skjebbetjønnan" />
		<tag k="natural" v="water" />
		<tag k="ssr:stedsnr" v="83474" />
	</node>
	<node id="-355948" lat="58.209163888" lon="7.44395832699">
		<tag k="name" v="Fantenesan" />
		<tag k="natural" v="cape" />
		<tag k="ssr:stedsnr" v="83471" />
	</node>
	<node id="-355947" lat="58.2096333334" lon="7.44001665864">
		<tag k="name" v="Tinelaget" />
		<tag k="natural" v="water" />
		<tag k="ssr:stedsnr" v="83469" />
		<tag k="water" v="lake" />
	</node>
	<node id="-357990" lat="58.2269578961" lon="7.418743829">
		<tag k="name" v="Kaddanstjønnan" />
		<tag k="natural" v="water" />
		<tag k="ssr:stedsnr" v="811254" />
	</node>
	<node id="-357988" lat="58.2193555594" lon="7.45077500629">
		<tag k="name" v="Torsketjønn" />
		<tag k="natural" v="water" />
		<tag k="ssr:stedsnr" v="811241" />
	</node>
	<node id="-357987" lat="58.1884277754" lon="7.57530554853">
		<tag k="name" v="Hølmetjønn" />
		<tag k="natural" v="water" />
		<tag k="ssr:stedsnr" v="811229" />
	</node>
	<node id="-357985" lat="58.3575916686" lon="7.49511667215">
		<tag k="name" v="Fidjanstjønna" />
		<tag k="natural" v="water" />
		<tag k="ssr:stedsnr" v="811212" />
	</node>
	<node id="-357984" lat="58.355152782" lon="7.47911666772">
		<tag k="name" v="Tjønna" />
		<tag k="natural" v="water" />
		<tag k="ssr:stedsnr" v="811204" />
	</node>
	<node id="-357982" lat="58.367363889" lon="7.48914722083">
		<tag k="name" v="Økteda stø" />
		<tag k="natural" v="bay" />
		<tag k="ssr:stedsnr" v="811173" />
	</node>
	<node id="-357977" lat="58.3199972199" lon="7.43816389018">
		<tag k="name" v="Daletjønn" />
		<tag k="natural" v="water" />
		<tag k="ssr:stedsnr" v="811139" />
	</node>
	<node id="-357975" lat="58.4419944445" lon="7.66718056142">
		<tag k="name" v="Stemlona" />
		<tag k="natural" v="water" />
		<tag k="ssr:stedsnr" v="811124" />
		<tag k="water" v="lake" />
	</node>
	<node id="-355923" lat="58.2773611139" lon="7.47692778197">
		<tag k="name" v="Tjovetjønn" />
		<tag k="natural" v="water" />
		<tag k="ssr:stedsnr" v="83336" />
	</node>
	<node id="-357970" lat="58.1644000011" lon="7.51367499756">
		<tag k="name" v="Holmen" />
		<tag k="natural" v="cape" />
		<tag k="ssr:stedsnr" v="811099" />
	</node>
	<node id="-355939" lat="58.4428055593" lon="7.58435278311">
		<tag k="name" v="Fossan" />
		<tag k="natural" v="waterfall" />
		<tag k="ssr:stedsnr" v="83424" />
	</node>
	<node id="-355918" lat="58.2199194444" lon="7.68706389195">
		<tag k="name" v="Nordre Blakstjønn" />
		<tag k="natural" v="water" />
		<tag k="ssr:stedsnr" v="83323" />
	</node>
	<node id="-355915" lat="58.2885999978" lon="7.40608333327">
		<tag k="name" v="Sveinebekk" />
		<tag k="ssr:stedsnr" v="83307" />
		<tag k="waterway" v="stream" />
	</node>
	<node id="-355596" lat="58.1585250031" lon="7.52058888158">
		<tag k="name" v="Kistensholmen" />
		<tag k="place" v="islet" />
		<tag k="ssr:stedsnr" v="386973" />
	</node>
	<node id="-357952" lat="58.237672222" lon="7.58263888353">
		<tag k="name" v="Kringletjønn" />
		<tag k="natural" v="water" />
		<tag k="ssr:stedsnr" v="811025" />
	</node>
	<node id="-355903" lat="58.1870638888" lon="7.62924999798">
		<tag k="name" v="Bjortjønn" />
		<tag k="natural" v="water" />
		<tag k="ssr:stedsnr" v="83662" />
	</node>
	<node id="-355902" lat="58.1933944484" lon="7.71759167072">
		<tag k="name" v="Geiteneset" />
		<tag k="natural" v="cape" />
		<tag k="ssr:stedsnr" v="83656" />
	</node>
	<node id="-357948" lat="58.4180055594" lon="7.52615278147">
		<tag k="alt_name" v="Revstjønn" />
		<tag k="name" v="Revstjørn" />
		<tag k="natural" v="water" />
		<tag k="ssr:stedsnr" v="789898" />
	</node>
	<node id="-357947" lat="58.4281883814" lon="7.63118022877">
		<tag k="name" v="Krosstjønn" />
		<tag k="natural" v="water" />
		<tag k="ssr:stedsnr" v="789893" />
	</node>
	<node id="-357942" lat="58.1583388874" lon="7.68506388469">
		<tag k="alt_name" v="Auslandsvannet" />
		<tag k="name" v="Auslandsvatnet" />
		<tag k="natural" v="water" />
		<tag k="ssr:stedsnr" v="789773" />
		<tag k="water" v="lake" />
	</node>
	<node id="-357939" lat="58.2231750007" lon="7.4090027752">
		<tag k="name" v="Kjellingvatnet" />
		<tag k="natural" v="water" />
		<tag k="ssr:stedsnr" v="789733" />
	</node>
	<node id="-355890" lat="58.1403777752" lon="7.60527499384">
		<tag k="name" v="Homevann" />
		<tag k="natural" v="water" />
		<tag k="ssr:stedsnr" v="83242" />
		<tag k="water" v="lake" />
	</node>
	<node id="-355889" lat="58.1437416641" lon="7.59186110589">
		<tag k="name" v="Kresjerstjønn" />
		<tag k="natural" v="water" />
		<tag k="ssr:stedsnr" v="83239" />
	</node>
	<node id="-357936" lat="58.3851998336" lon="7.58101567017">
		<tag k="alt_name" v="Døletjønn" />
		<tag k="name" v="Døletjørn" />
		<tag k="natural" v="water" />
		<tag k="ssr:stedsnr" v="788996" />
	</node>
	<node id="-357931" lat="58.1668750045" lon="7.51433055874">
		<tag k="fixme" v="multiple name tags, choose one and add the other to alt_name" />
		<tag k="name" v="Gangsåvatnet;Ufedsvann" />
		<tag k="natural" v="water" />
		<tag k="ssr:stedsnr" v="788793" />
	</node>
	<node id="-355874" lat="58.1698333378" lon="7.51361945138">
		<tag k="name" v="Heptetjønn" />
		<tag k="natural" v="water" />
		<tag k="ssr:stedsnr" v="83086" />
	</node>
	<node id="-355871" lat="58.1802305539" lon="7.70850556262">
		<tag k="name" v="Homevannsneset" />
		<tag k="natural" v="cape" />
		<tag k="ssr:stedsnr" v="83081" />
	</node>
	<node id="-355929" lat="58.4053749978" lon="7.46274445076">
		<tag k="name" v="Langetjønn" />
		<tag k="natural" v="water" />
		<tag k="ssr:stedsnr" v="83356" />
	</node>
	<node id="-357738" lat="58.1744416712" lon="7.69863333256">
		<tag k="alt_name" v="Svartevann" />
		<tag k="name" v="Svartevatnet" />
		<tag k="natural" v="water" />
		<tag k="ssr:stedsnr" v="728758" />
	</node>
	<node id="-355852" lat="58.3700555511" lon="7.48466110997">
		<tag k="name" v="Paddan" />
		<tag k="natural" v="cape" />
		<tag k="ssr:stedsnr" v="83162" />
	</node>
	<node id="-355849" lat="58.4010083333" lon="7.64483333412">
		<tag k="name" v="Rendlevatna" />
		<tag k="natural" v="water" />
		<tag k="ssr:stedsnr" v="61977" />
	</node>
	<node id="-355844" lat="58.3778215392" lon="7.61345757682">
		<tag k="alt_name" v="Geitetjønn" />
		<tag k="name" v="Geittjørn" />
		<tag k="natural" v="water" />
		<tag k="ssr:stedsnr" v="61943" />
	</node>
	<node id="-355841" lat="58.1651888903" lon="7.50903055797">
		<tag k="alt_name" v="Josdalsvann" />
		<tag k="name" v="Jorsdalsvatnet" />
		<tag k="natural" v="water" />
		<tag k="ssr:stedsnr" v="61794" />
	</node>
	<node id="-355837" lat="58.1597138929" lon="7.59398332574">
		<tag k="alt_name" v="Mjåvatnet" />
		<tag k="name" v="Mjåvann" />
		<tag k="natural" v="water" />
		<tag k="ssr:stedsnr" v="61781" />
	</node>
	<node id="-357884" lat="58.2052805583" lon="7.55412777108">
		<tag k="name" v="Saurbekktjønn" />
		<tag k="natural" v="water" />
		<tag k="ssr:stedsnr" v="750952" />
	</node>
	<node id="-357880" lat="58.1841666671" lon="7.53810833153">
		<tag k="name" v="Bokkøy" />
		<tag k="place" v="islet" />
		<tag k="ssr:stedsnr" v="750882" />
	</node>
	<node id="-355831" lat="58.225200003" lon="7.42323610883">
		<tag k="alt_name" v="Kaddevannet" />
		<tag k="name" v="Kallevatnet" />
		<tag k="natural" v="water" />
		<tag k="ssr:stedsnr" v="61739" />
	</node>
	<node id="-355828" lat="58.2153750033" lon="7.46212499512">
		<tag k="alt_name" v="Krogevann" />
		<tag k="name" v="Krokvatnet" />
		<tag k="natural" v="water" />
		<tag k="ssr:stedsnr" v="61735" />
	</node>
	<node id="-357874" lat="58.180633333" lon="7.50866111634">
		<tag k="alt_name" v="Gjellesvann" />
		<tag k="name" v="Nedre Gjellesvatnet" />
		<tag k="natural" v="water" />
		<tag k="ssr:stedsnr" v="750791" />
		<tag k="water" v="lake" />
	</node>
	<node id="-355825" lat="58.2390361137" lon="7.54775000294">
		<tag k="alt_name" v="Kvasshammervann" />
		<tag k="name" v="Kvasshamarvatnet" />
		<tag k="natural" v="water" />
		<tag k="ssr:stedsnr" v="61623" />
	</node>
	<node id="-355824" lat="58.2097301425" lon="7.71961288938">
		<tag k="alt_name" v="Stemtjønn" />
		<tag k="name" v="Stemtjørn" />
		<tag k="natural" v="water" />
		<tag k="ssr:stedsnr" v="61104" />
	</node>
	<node id="-355823" lat="58.1698027813" lon="7.47750554718">
		<tag k="alt_name" v="Stevlevann" />
		<tag k="name" v="Stevlvatnet" />
		<tag k="natural" v="water" />
		<tag k="ssr:stedsnr" v="60819" />
	</node>
	<node id="-355822" lat="58.1797833352" lon="7.5909500055">
		<tag k="alt_name" v="Ravnåsvann" />
		<tag k="name" v="Ramnåsvatnet" />
		<tag k="natural" v="water" />
		<tag k="ssr:stedsnr" v="60810" />
	</node>
	<node id="-357862" lat="58.1554499994" lon="7.6447166725">
		<tag k="name" v="Kjørketjønn" />
		<tag k="natural" v="water" />
		<tag k="ssr:stedsnr" v="750697" />
	</node>
	<node id="-357861" lat="58.1547888879" lon="7.6528666678">
		<tag k="name" v="Steinarstjønn" />
		<tag k="natural" v="water" />
		<tag k="ssr:stedsnr" v="750696" />
	</node>
	<node id="-357856" lat="58.1745027807" lon="7.6742999993">
		<tag k="name" v="Stemtjønn" />
		<tag k="natural" v="water" />
		<tag k="ssr:stedsnr" v="750616" />
	</node>
	<node id="-357853" lat="58.1729889238" lon="7.53759229745">
		<tag k="name" v="Stemman" />
		<tag k="natural" v="water" />
		<tag k="ssr:stedsnr" v="750604" />
	</node>
	<node id="-357852" lat="58.2549611139" lon="7.53193610971">
		<tag k="name" v="Maurtjønn" />
		<tag k="natural" v="water" />
		<tag k="ssr:stedsnr" v="750598" />
	</node>
	<node id="-357841" lat="58.2315777776" lon="7.61196666576">
		<tag k="name" v="Lindalsosen" />
		<tag k="natural" v="water" />
		<tag k="ssr:stedsnr" v="750540" />
		<tag k="water" v="lake" />
	</node>
	<node id="-357836" lat="58.21925" lon="7.60164444303">
		<tag k="name" v="Kvernfossen" />
		<tag k="natural" v="waterfall" />
		<tag k="ssr:stedsnr" v="750506" />
	</node>
	<node id="-355783" lat="58.1964694486" lon="7.65485834096">
		<tag k="name" v="Steinsvann" />
		<tag k="natural" v="water" />
		<tag k="ssr:stedsnr" v="23717" />
		<tag k="water" v="lake" />
	</node>
	<node id="-355574" lat="58.1755138877" lon="7.46783610934">
		<tag k="name" v="Tjønna" />
		<tag k="natural" v="water" />
		<tag k="ssr:stedsnr" v="386781" />
	</node>
	<node id="-357826" lat="58.4044444458" lon="7.52352777615">
		<tag k="name" v="Myrtetjønn" />
		<tag k="natural" v="water" />
		<tag k="ssr:stedsnr" v="750452" />
	</node>
	<node id="-357823" lat="58.2520638856" lon="7.43145277721">
		<tag k="name" v="Haddetjønn" />
		<tag k="natural" v="water" />
		<tag k="ssr:stedsnr" v="750445" />
	</node>
	<node id="-355764" lat="58.152408336" lon="7.5754638845">
		<tag k="name" v="Stemtjønn" />
		<tag k="natural" v="water" />
		<tag k="ssr:stedsnr" v="22950" />
	</node>
	<node id="-355763" lat="58.160536114" lon="7.59458054727">
		<tag k="name" v="Trollnesodden" />
		<tag k="natural" v="cape" />
		<tag k="ssr:stedsnr" v="22946" />
	</node>
	<node id="-356253" lat="58.1895972239" lon="7.51026111836">
		<tag k="alt_name" v="Grimestadbekken" />
		<tag k="name" v="Grimstadbekken" />
		<tag k="ssr:stedsnr" v="182704" />
		<tag k="waterway" v="stream" />
	</node>
	<node id="-355756" lat="58.1979750022" lon="7.46908611098">
		<tag k="name" v="Drivåskilen" />
		<tag k="natural" v="bay" />
		<tag k="ssr:stedsnr" v="22854" />
	</node>
	<node id="-357802" lat="58.1890222228" lon="7.63848611296">
		<tag k="name" v="Ytre Pottjønn" />
		<tag k="natural" v="water" />
		<tag k="ssr:stedsnr" v="751682" />
	</node>
	<node id="-357793" lat="58.3710250005" lon="7.42563611218">
		<tag k="loc_name" v="Sankt Olavs kjelda" />
		<tag k="name" v="St. Olavs kjelda" />
		<tag k="natural" v="spring" />
		<tag k="ssr:stedsnr" v="750116" />
	</node>
	<node id="-355743" lat="58.1501416691" lon="7.64139721964">
		<tag k="name" v="Tvitjønn" />
		<tag k="natural" v="water" />
		<tag k="ssr:stedsnr" v="22713" />
	</node>
	<node id="-355740" lat="58.1704777806" lon="7.69900000513">
		<tag k="name" v="Tvordalstjønn" />
		<tag k="natural" v="water" />
		<tag k="ssr:stedsnr" v="22695" />
	</node>
	<node id="-355567" lat="58.1519111142" lon="7.68707499735">
		<tag k="name" v="Naudbertjønn" />
		<tag k="natural" v="water" />
		<tag k="ssr:stedsnr" v="386692" />
	</node>
	<node id="-357784" lat="58.1794472192" lon="7.70744722022">
		<tag k="name" v="Homenestjønn" />
		<tag k="natural" v="water" />
		<tag k="ssr:stedsnr" v="750070" />
	</node>
	<node id="-355734" lat="58.2332833363" lon="7.57952221957">
		<tag k="name" v="Karttjønn" />
		<tag k="natural" v="water" />
		<tag k="ssr:stedsnr" v="22565" />
	</node>
	<node id="-355732" lat="58.2192166706" lon="7.6159805591">
		<tag k="name" v="Høyeelva" />
		<tag k="ssr:stedsnr" v="22516" />
		<tag k="waterway" v="river" />
	</node>
	<node id="-355727" lat="58.1976111125" lon="7.45739721834">
		<tag k="name" v="Bagerdalstangen" />
		<tag k="natural" v="cape" />
		<tag k="ssr:stedsnr" v="22472" />
	</node>
	<node id="-357774" lat="58.3833916678" lon="7.58515832928">
		<tag k="name" v="Hessåvaet" />
		<tag k="ssr:stedsnr" v="750024" />
		<tag k="waterway" v="stream" />
	</node>
	<node id="-355725" lat="58.182308336" lon="7.44721944465">
		<tag k="name" v="Hestetjønna" />
		<tag k="natural" v="water" />
		<tag k="ssr:stedsnr" v="22468" />
	</node>
	<node id="-357772" lat="58.1779583342" lon="7.61546111319">
		<tag k="name" v="Lonan" />
		<tag k="natural" v="water" />
		<tag k="ssr:stedsnr" v="750011" />
		<tag k="water" v="lake" />
	</node>
	<node id="-357771" lat="58.1819722246" lon="7.62092777016">
		<tag k="name" v="Troåstjønnan" />
		<tag k="natural" v="water" />
		<tag k="ssr:stedsnr" v="750008" />
	</node>
	<node id="-357766" lat="58.2157027753" lon="7.63438889749">
		<tag k="name" v="Fugletjønn" />
		<tag k="natural" v="water" />
		<tag k="ssr:stedsnr" v="750285" />
	</node>
	<node id="-355713" lat="58.4336694475" lon="7.52389722213">
		<tag k="name" v="Breiva" />
		<tag k="place" v="locality" />
		<tag k="ssr:stedsnr" v="22407" />
	</node>
	<node id="-357760" lat="58.3228833376" lon="7.52806666696">
		<tag k="name" v="Småøyane" />
		<tag k="place" v="islet" />
		<tag k="ssr:stedsnr" v="750247" />
	</node>
	<node id="-357757" lat="58.2174527754" lon="7.45547777132">
		<tag k="name" v="Krogebekken" />
		<tag k="ssr:stedsnr" v="750224" />
		<tag k="waterway" v="stream" />
	</node>
	<node id="-357756" lat="58.2140499972" lon="7.43593888824">
		<tag k="name" v="Hunnestjønn" />
		<tag k="natural" v="water" />
		<tag k="ssr:stedsnr" v="750213" />
	</node>
	<node id="-355705" lat="58.2181416639" lon="7.66250833749">
		<tag k="name" v="Skåretjønn" />
		<tag k="natural" v="water" />
		<tag k="ssr:stedsnr" v="22300" />
	</node>
	<node id="-357751" lat="58.3717666698" lon="7.63277223001">
		<tag k="alt_name" v="Ronsetjønn" />
		<tag k="name" v="Rånsetjørn" />
		<tag k="natural" v="water" />
		<tag k="ssr:stedsnr" v="728951" />
	</node>
	<node id="-357749" lat="58.4222722183" lon="7.52880555294">
		<tag k="alt_name" v="Fosskilen" />
		<tag k="name" v="Fossekilen" />
		<tag k="natural" v="bay" />
		<tag k="ssr:stedsnr" v="728891" />
	</node>
	<node id="-357748" lat="58.4200972217" lon="7.65779444001">
		<tag k="alt_name" v="Eptevatnet" />
		<tag k="loc_name" v="Eptevannet" />
		<tag k="name" v="Eptevann" />
		<tag k="natural" v="water" />
		<tag k="ssr:stedsnr" v="728884" />
		<tag k="water" v="lake" />
	</node>
	<node id="-355699" lat="58.3221666634" lon="7.52364166842">
		<tag k="name" v="Tangen" />
		<tag k="natural" v="cape" />
		<tag k="ssr:stedsnr" v="22266" />
	</node>
	<node id="-355698" lat="58.3252583311" lon="7.52715556089">
		<tag k="name" v="Slåtteøy" />
		<tag k="place" v="islet" />
		<tag k="ssr:stedsnr" v="22262" />
	</node>
	<node id="-355696" lat="58.2317000035" lon="7.45304722503">
		<tag k="name" v="Tjomslandsøya" />
		<tag k="place" v="islet" />
		<tag k="ssr:stedsnr" v="22255" />
	</node>
	<node id="-357743" lat="58.2627416709" lon="7.54310554743">
		<tag k="alt_name" v="Hessvann" />
		<tag k="name" v="Hestvatnet" />
		<tag k="natural" v="water" />
		<tag k="ssr:stedsnr" v="728820" />
		<tag k="water" v="lake" />
	</node>
	<node id="-357741" lat="58.3562777813" lon="7.5630250046">
		<tag k="alt_name" v="Eldhusdalsvannet" />
		<tag k="name" v="Eldhusdalsvatnet" />
		<tag k="natural" v="water" />
		<tag k="ssr:stedsnr" v="728767" />
	</node>
	<node id="-357740" lat="58.1720361156" lon="7.59647222467">
		<tag k="name" v="Rustebekken" />
		<tag k="ssr:stedsnr" v="728760" />
		<tag k="waterway" v="stream" />
	</node>
	<node id="-357739" lat="58.1675638925" lon="7.64302500516">
		<tag k="alt_name" v="Mevann" />
		<tag k="name" v="Eksåvatnet" />
		<tag k="natural" v="water" />
		<tag k="ssr:stedsnr" v="728759" />
		<tag k="water" v="lake" />
	</node>
	<node id="-355690" lat="58.1873944442" lon="7.5882527855">
		<tag k="name" v="Gauktjønn" />
		<tag k="natural" v="water" />
		<tag k="ssr:stedsnr" v="22224" />
	</node>
	<node id="-357737" lat="58.1670861112" lon="7.68829999643">
		<tag k="alt_name" v="Røyrvannet" />
		<tag k="name" v="Røyrvatnet" />
		<tag k="natural" v="water" />
		<tag k="ssr:stedsnr" v="728757" />
	</node>
	<node id="-357733" lat="58.3042833304" lon="7.49690000246">
		<tag k="name" v="Skuåna" />
		<tag k="ssr:stedsnr" v="728737" />
		<tag k="waterway" v="stream" />
	</node>
	<node id="-357728" lat="58.1955457926" lon="7.57485178471">
		<tag k="alt_name" v="Bustadtjønn" />
		<tag k="name" v="Bustatjørna" />
		<tag k="natural" v="water" />
		<tag k="ssr:stedsnr" v="728673" />
	</node>
	<node id="-357727" lat="58.1885638014" lon="7.58063904627">
		<tag k="alt_name" v="Gåslevatnet" />
		<tag k="name" v="Gåslevann" />
		<tag k="natural" v="water" />
		<tag k="ssr:stedsnr" v="728669" />
	</node>
	<node id="-355676" lat="58.3673527811" lon="7.62299165949">
		<tag k="name" v="Myrbetjønn" />
		<tag k="natural" v="water" />
		<tag k="ssr:stedsnr" v="22090" />
	</node>
	<node id="-357723" lat="58.2526472229" lon="7.53636111404">
		<tag k="alt_name" v="Mjålandsvann" />
		<tag k="name" v="Mjålandsvatnet" />
		<tag k="natural" v="water" />
		<tag k="ssr:stedsnr" v="728178" />
	</node>
	<node id="-355671" lat="58.4090305556" lon="7.62578611176">
		<tag k="name" v="Krosstjønn" />
		<tag k="natural" v="water" />
		<tag k="ssr:stedsnr" v="22058" />
	</node>
	<node id="-355665" lat="58.3819611079" lon="7.60542221401">
		<tag k="name" v="Askebekken" />
		<tag k="ssr:stedsnr" v="22036" />
		<tag k="waterway" v="stream" />
	</node>
	<node id="-355650" lat="58.2993166701" lon="7.44963333536">
		<tag k="alt_name" v="Urevann" />
		<tag k="name" v="Urdevatn" />
		<tag k="natural" v="water" />
		<tag k="ssr:stedsnr" v="844" />
	</node>
	<node id="-355647" lat="58.1615555523" lon="7.48411110591">
		<tag k="alt_name" v="Høylandsvann" />
		<tag k="name" v="Høylandsvatnet" />
		<tag k="natural" v="water" />
		<tag k="ssr:stedsnr" v="810" />
	</node>
	<node id="-355643" lat="58.2916916661" lon="7.58255555415">
		<tag k="alt_name" v="Finnsåna" />
		<tag k="name" v="Finså" />
		<tag k="ssr:stedsnr" v="750" />
		<tag k="waterway" v="river" />
	</node>
	<node id="-355641" lat="58.2063444435" lon="7.67861943767">
		<tag k="alt_name" v="Sjåvann" />
		<tag k="name" v="Sjåvatnet" />
		<tag k="natural" v="water" />
		<tag k="ssr:stedsnr" v="695" />
	</node>
	<node id="-355640" lat="58.2010527747" lon="7.65137778507">
		<tag k="alt_name" v="Homevann" />
		<tag k="name" v="Hommevatnet" />
		<tag k="natural" v="water" />
		<tag k="ssr:stedsnr" v="693" />
	</node>
	<node id="-355639" lat="58.2391292619" lon="7.40908013978">
		<tag k="alt_name" v="Hunnsevannet" />
		<tag k="name" v="Hundsvatnet" />
		<tag k="natural" v="water" />
		<tag k="ssr:stedsnr" v="485612" />
	</node>
	<node id="-357670" lat="58.1843611106" lon="7.64693056262">
		<tag k="name" v="Søndre Kalvetjønn" />
		<tag k="natural" v="water" />
		<tag k="ssr:stedsnr" v="690705" />
	</node>
	<node id="-357669" lat="58.1836805597" lon="7.62902777278">
		<tag k="name" v="Goåstjønn" />
		<tag k="natural" v="water" />
		<tag k="ssr:stedsnr" v="690702" />
	</node>
	<node id="-357665" lat="58.221074996" lon="7.62459722633">
		<tag k="name" v="Kattetjønn" />
		<tag k="natural" v="water" />
		<tag k="ssr:stedsnr" v="690676" />
	</node>
	<node id="-357663" lat="58.1760861121" lon="7.67337777221">
		<tag k="name" v="Stemtjønn" />
		<tag k="natural" v="water" />
		<tag k="ssr:stedsnr" v="690668" />
	</node>
	<node id="-357653" lat="58.3997555559" lon="7.49048888038">
		<tag k="name" v="Trånevannstjønna" />
		<tag k="natural" v="water" />
		<tag k="ssr:stedsnr" v="690413" />
	</node>
	<node id="-357644" lat="58.3569472213" lon="7.52979167134">
		<tag k="name" v="Hundsøya" />
		<tag k="natural" v="cape" />
		<tag k="ssr:stedsnr" v="690343" />
	</node>
	<node id="-357643" lat="58.355508332" lon="7.54649166387">
		<tag k="name" v="Tjønna" />
		<tag k="natural" v="water" />
		<tag k="ssr:stedsnr" v="690338" />
	</node>
	<node id="-355594" lat="58.2108444455" lon="7.56543611052">
		<tag k="alt_name" v="Brattåsretjønn" />
		<tag k="name" v="Brattåstjørna" />
		<tag k="natural" v="water" />
		<tag k="ssr:stedsnr" v="386953" />
	</node>
	<node id="-357641" lat="58.3539333348" lon="7.56058056145">
		<tag k="name" v="Smådalsbukta" />
		<tag k="natural" v="bay" />
		<tag k="ssr:stedsnr" v="690335" />
	</node>
	<node id="-355591" lat="58.201997219" lon="7.58050277256">
		<tag k="name" v="Orlogstjønn" />
		<tag k="natural" v="water" />
		<tag k="ssr:stedsnr" v="386931" />
	</node>
	<node id="-355274" lat="58.3734944439" lon="7.47901388543">
		<tag k="name" v="Storebekken" />
		<tag k="ssr:stedsnr" v="325186" />
		<tag k="waterway" v="stream" />
	</node>
	<node id="-357636" lat="58.3196444402" lon="7.52867777699">
		<tag k="name" v="Toppøy" />
		<tag k="place" v="islet" />
		<tag k="ssr:stedsnr" v="690308" />
	</node>
	<node id="-355587" lat="58.203211112" lon="7.60506943952">
		<tag k="name" v="Kjerringsundet" />
		<tag k="natural" v="strait" />
		<tag k="ssr:stedsnr" v="386872" />
	</node>
	<node id="-357634" lat="58.3348472206" lon="7.52946388172">
		<tag k="name" v="Sanøy" />
		<tag k="place" v="islet" />
		<tag k="ssr:stedsnr" v="690292" />
	</node>
	<node id="-355883" lat="58.3312527792" lon="7.52321666918">
		<tag k="name" v="Krigsviga" />
		<tag k="natural" v="bay" />
		<tag k="ssr:stedsnr" v="83256" />
	</node>
	<node id="-357629" lat="58.1543833309" lon="7.58668610751">
		<tag k="name" v="Radetjønn" />
		<tag k="natural" v="water" />
		<tag k="ssr:stedsnr" v="689950" />
	</node>
	<node id="-355578" lat="58.2436111106" lon="7.47799167446">
		<tag k="name" v="Raunåstjønn" />
		<tag k="natural" v="water" />
		<tag k="ssr:stedsnr" v="386801" />
	</node>
	<node id="-357625" lat="58.1889250024" lon="7.56130277448">
		<tag k="name" v="Lidingstjønn" />
		<tag k="natural" v="water" />
		<tag k="ssr:stedsnr" v="689881" />
	</node>
	<node id="-355575" lat="58.1766555555" lon="7.46433611493">
		<tag k="alt_name" v="Hundstjønn" />
		<tag k="name" v="Hornstjørna" />
		<tag k="natural" v="water" />
		<tag k="ssr:stedsnr" v="386782" />
	</node>
	<node id="-357622" lat="58.2043361124" lon="7.61690556142">
		<tag k="name" v="Støodden" />
		<tag k="natural" v="cape" />
		<tag k="ssr:stedsnr" v="689857" />
	</node>
	<node id="-357618" lat="58.1536749985" lon="7.49962500634">
		<tag k="name" v="Listadvann" />
		<tag k="natural" v="water" />
		<tag k="ssr:stedsnr" v="689825" />
		<tag k="water" v="lake" />
	</node>
	<node id="-357615" lat="58.197147223" lon="7.51112222389">
		<tag k="name" v="Entredalsbekken" />
		<tag k="ssr:stedsnr" v="689813" />
		<tag k="waterway" v="stream" />
	</node>
	<node id="-357614" lat="58.2093222259" lon="7.48839722845">
		<tag k="name" v="Flegetjønn" />
		<tag k="natural" v="water" />
		<tag k="ssr:stedsnr" v="689811" />
	</node>
	<node id="-355564" lat="58.1855805512" lon="7.64272499438">
		<tag k="name" v="Nordre Kalvetjønn" />
		<tag k="natural" v="water" />
		<tag k="ssr:stedsnr" v="386651" />
	</node>
	<node id="-355558" lat="58.1749999975" lon="7.52428611272">
		<tag k="name" v="Varsbekken" />
		<tag k="ssr:stedsnr" v="386602" />
		<tag k="waterway" v="stream" />
	</node>
	<node id="-355556" lat="58.2398500034" lon="7.5404666708">
		<tag k="name" v="Dyblan" />
		<tag k="natural" v="water" />
		<tag k="ssr:stedsnr" v="386577" />
		<tag k="water" v="lake" />
	</node>
	<node id="-357599" lat="58.2318333368" lon="7.6034222196">
		<tag k="name" v="Øygardstjønn" />
		<tag k="natural" v="water" />
		<tag k="ssr:stedsnr" v="689507" />
	</node>
	<node id="-355549" lat="58.2174027744" lon="7.46625832514">
		<tag k="name" v="Austre Tvitjønn" />
		<tag k="natural" v="water" />
		<tag k="ssr:stedsnr" v="386739" />
	</node>
	<node id="-355548" lat="58.2182027777" lon="7.4625944401">
		<tag k="name" v="Vestre Tvitjønn" />
		<tag k="natural" v="water" />
		<tag k="ssr:stedsnr" v="386735" />
	</node>
	<node id="-355546" lat="58.1701555591" lon="7.63710555099">
		<tag k="name" v="Geittjønn" />
		<tag k="natural" v="water" />
		<tag k="ssr:stedsnr" v="386729" />
	</node>
	<node id="-355545" lat="58.167108337" lon="7.66024443862">
		<tag k="name" v="Eiksåtjønna" />
		<tag k="natural" v="water" />
		<tag k="ssr:stedsnr" v="386724" />
	</node>
	<node id="-355541" lat="58.2634666679" lon="7.54110832866">
		<tag k="name" v="Djupodden" />
		<tag k="natural" v="cape" />
		<tag k="ssr:stedsnr" v="386478" />
	</node>
	<node id="-355540" lat="58.1849777818" lon="7.45585278054">
		<tag k="name" v="Tjønnan" />
		<tag k="natural" v="water" />
		<tag k="ssr:stedsnr" v="386474" />
	</node>
	<node id="-357587" lat="58.4188194459" lon="7.59193055623">
		<tag k="name" v="Søyltjønn" />
		<tag k="natural" v="water" />
		<tag k="ssr:stedsnr" v="689443" />
	</node>
	<node id="-357585" lat="58.4310583296" lon="7.5466027755">
		<tag k="name" v="Tjønna" />
		<tag k="natural" v="water" />
		<tag k="ssr:stedsnr" v="689412" />
	</node>
	<node id="-357584" lat="58.332649999" lon="7.43273888946">
		<tag k="name" v="Fisartjønn" />
		<tag k="natural" v="water" />
		<tag k="ssr:stedsnr" v="689362" />
	</node>
	<node id="-357582" lat="58.3349916625" lon="7.50812222492">
		<tag k="name" v="Monanstjønn" />
		<tag k="natural" v="water" />
		<tag k="ssr:stedsnr" v="689344" />
	</node>
	<node id="-355531" lat="58.419330555" lon="7.5852611039">
		<tag k="name" v="Hommemyrtjønn" />
		<tag k="natural" v="water" />
		<tag k="ssr:stedsnr" v="386434" />
	</node>
	<node id="-357578" lat="58.1860972266" lon="7.57197499795">
		<tag k="name" v="Krossmyrtjønn" />
		<tag k="natural" v="water" />
		<tag k="ssr:stedsnr" v="689264" />
	</node>
	<node id="-355525" lat="58.4525694485" lon="7.59288888789">
		<tag k="name" v="Leirbekken" />
		<tag k="ssr:stedsnr" v="386386" />
		<tag k="waterway" v="stream" />
	</node>
	<node id="-357572" lat="58.3712861106" lon="7.49274443812">
		<tag k="name" v="Skjebbevik" />
		<tag k="natural" v="bay" />
		<tag k="ssr:stedsnr" v="689207" />
	</node>
	<node id="-357565" lat="58.3233277795" lon="7.46163055303">
		<tag k="name" v="Kåvåstjønn" />
		<tag k="natural" v="water" />
		<tag k="ssr:stedsnr" v="689142" />
	</node>
	<node id="-355507" lat="58.3258166675" lon="7.52362499868">
		<tag k="name" v="Lomsøy" />
		<tag k="place" v="islet" />
		<tag k="ssr:stedsnr" v="386267" />
	</node>
	<node id="-357554" lat="58.371319442" lon="7.58171945188">
		<tag k="name" v="Hesstjønn" />
		<tag k="natural" v="water" />
		<tag k="ssr:stedsnr" v="689068" />
	</node>
	<node id="-357549" lat="58.2373222253" lon="7.56928055533">
		<tag k="name" v="Brontjønn" />
		<tag k="natural" v="water" />
		<tag k="ssr:stedsnr" v="689022" />
	</node>
	<node id="-355500" lat="58.3730500017" lon="7.48812777384">
		<tag k="name" v="Storodden" />
		<tag k="place" v="islet" />
		<tag k="ssr:stedsnr" v="386186" />
	</node>
	<node id="-355499" lat="58.3729750028" lon="7.49699166154">
		<tag k="name" v="Stavdalsbukta" />
		<tag k="natural" v="bay" />
		<tag k="ssr:stedsnr" v="386185" />
	</node>
	<node id="-357546" lat="58.1745027777" lon="7.44919999338">
		<tag k="alt_name" v="Risåstjønn" />
		<tag k="name" v="Risåstjørna" />
		<tag k="natural" v="water" />
		<tag k="ssr:stedsnr" v="668812" />
	</node>
	<node id="-357545" lat="58.1769083337" lon="7.48886943673">
		<tag k="alt_name" v="Gjellesvatn, øv;Øvre Gjellesvann" />
		<tag k="name" v="Øvre Gjellesvatn" />
		<tag k="natural" v="water" />
		<tag k="ssr:stedsnr" v="668809" />
	</node>
	<node id="-357542" lat="58.4066916648" lon="7.57512776979">
		<tag k="alt_name" v="Hesttjønn" />
		<tag k="name" v="Hesttjørn" />
		<tag k="natural" v="water" />
		<tag k="ssr:stedsnr" v="667980" />
	</node>
	<node id="-355492" lat="58.4450555587" lon="7.64309999657">
		<tag k="name" v="Lonan" />
		<tag k="natural" v="water" />
		<tag k="ssr:stedsnr" v="386121" />
		<tag k="water" v="lake" />
	</node>
	<node id="-357539" lat="58.4354583374" lon="7.55176110879">
		<tag k="alt_name" v="Kosåna" />
		<tag k="name" v="Kosåni" />
		<tag k="ssr:stedsnr" v="667921" />
		<tag k="waterway" v="river" />
	</node>
	<node id="-357532" lat="58.3011833375" lon="7.43987499781">
		<tag k="alt_name" v="Bjørnhomvann" />
		<tag k="name" v="Bjørnhomvatnet" />
		<tag k="natural" v="water" />
		<tag k="ssr:stedsnr" v="667814" />
	</node>
	<node id="-357529" lat="58.3326166692" lon="7.44363054972">
		<tag k="alt_name" v="Kråkelandsvann" />
		<tag k="name" v="Kråkelandsvatnet" />
		<tag k="natural" v="water" />
		<tag k="ssr:stedsnr" v="667768" />
	</node>
	<node id="-357527" lat="58.1772500018" lon="7.60315555204">
		<tag k="name" v="Spinnebekken" />
		<tag k="ssr:stedsnr" v="667757" />
		<tag k="waterway" v="stream" />
	</node>
	<node id="-357526" lat="58.157656797" lon="7.63422399646">
		<tag k="alt_name" v="Glomsvann" />
		<tag k="name" v="Glomsvatnet" />
		<tag k="natural" v="water" />
		<tag k="ssr:stedsnr" v="667741" />
	</node>
	<node id="-357524" lat="58.3488744134" lon="7.47789508447">
		<tag k="alt_name" v="Furutjønn" />
		<tag k="name" v="Furutjørn" />
		<tag k="natural" v="water" />
		<tag k="ssr:stedsnr" v="667736" />
	</node>
	<node id="-355475" lat="58.1696611098" lon="7.51018610615">
		<tag k="name" v="Fidjebekken" />
		<tag k="ssr:stedsnr" v="386095" />
		<tag k="waterway" v="stream" />
	</node>
	<node id="-357521" lat="58.1391138855" lon="7.57276667142">
		<tag k="alt_name" v="Nomevannet" />
		<tag k="name" v="Nomevatnet" />
		<tag k="natural" v="water" />
		<tag k="ssr:stedsnr" v="667697" />
		<tag k="water" v="lake" />
	</node>
	<node id="-355468" lat="58.1442916701" lon="7.67902778226">
		<tag k="name" v="Svartetjønna" />
		<tag k="natural" v="water" />
		<tag k="ssr:stedsnr" v="386071" />
	</node>
	<node id="-355465" lat="58.3954583301" lon="7.64398611287">
		<tag k="name" v="Lonan" />
		<tag k="natural" v="water" />
		<tag k="ssr:stedsnr" v="386064" />
		<tag k="water" v="lake" />
	</node>
	<node id="-355464" lat="58.3805666665" lon="7.56839166287">
		<tag k="name" v="Stedalstjønna" />
		<tag k="natural" v="water" />
		<tag k="ssr:stedsnr" v="386060" />
	</node>
	<node id="-355455" lat="58.3910372121" lon="7.63430518458">
		<tag k="alt_name" v="Rendlevannsbekken" />
		<tag k="name" v="Rendlevassbekken" />
		<tag k="ssr:stedsnr" v="364994" />
		<tag k="waterway" v="stream" />
	</node>
	<node id="-355454" lat="58.3997888879" lon="7.50526667069">
		<tag k="alt_name" v="Trånevann" />
		<tag k="name" v="Trånevatnet" />
		<tag k="natural" v="water" />
		<tag k="ssr:stedsnr" v="364976" />
		<tag k="water" v="lake" />
	</node>
	<node id="-355452" lat="58.4384611142" lon="7.50384999782">
		<tag k="name" v="Ormvatnet" />
		<tag k="natural" v="water" />
		<tag k="ssr:stedsnr" v="364945" />
		<tag k="water" v="lake" />
	</node>
	<node id="-355448" lat="58.2242999975" lon="7.63307778451">
		<tag k="alt_name" v="Hessvann" />
		<tag k="name" v="Hestvatnet" />
		<tag k="natural" v="water" />
		<tag k="ssr:stedsnr" v="364758" />
	</node>
	<node id="-355443" lat="58.2058638853" lon="7.66226110937">
		<tag k="name" v="Krosstjørna" />
		<tag k="natural" v="water" />
		<tag k="ssr:stedsnr" v="364704" />
	</node>
	<node id="-355436" lat="58.3546500021" lon="7.49837500472">
		<tag k="name" v="Hessåbekken" />
		<tag k="ssr:stedsnr" v="364820" />
		<tag k="waterway" v="stream" />
	</node>
	<node id="-357474" lat="58.2372527775" lon="7.48581666118">
		<tag k="name" v="Nordre Glomsåtjønn" />
		<tag k="natural" v="water" />
		<tag k="ssr:stedsnr" v="629785" />
	</node>
	<node id="-357470" lat="58.1860555515" lon="7.66956943908">
		<tag k="name" v="Øvre Lomeheitjønn" />
		<tag k="natural" v="water" />
		<tag k="ssr:stedsnr" v="629676" />
	</node>
	<node id="-357469" lat="58.1909666666" lon="7.67455833227">
		<tag k="name" v="Hattetjønn" />
		<tag k="natural" v="water" />
		<tag k="ssr:stedsnr" v="629668" />
	</node>
	<node id="-357463" lat="58.264558333" lon="7.44547222327">
		<tag k="name" v="Svotjønn" />
		<tag k="natural" v="water" />
		<tag k="ssr:stedsnr" v="629328" />
	</node>
	<node id="-357454" lat="58.158363885" lon="7.5777861104">
		<tag k="name" v="Gåsetjønn" />
		<tag k="natural" v="water" />
		<tag k="ssr:stedsnr" v="628929" />
	</node>
	<node id="-357447" lat="58.1957841404" lon="7.59252891661">
		<tag k="name" v="Eikestøtjønn" />
		<tag k="natural" v="water" />
		<tag k="ssr:stedsnr" v="628856" />
	</node>
	<node id="-357446" lat="58.2046749978" lon="7.61071944846">
		<tag k="name" v="Halsen" />
		<tag k="natural" v="strait" />
		<tag k="ssr:stedsnr" v="628855" />
	</node>
	<node id="-357440" lat="58.1690833324" lon="7.62701389679">
		<tag k="name" v="Sveinehagetjønn" />
		<tag k="natural" v="water" />
		<tag k="ssr:stedsnr" v="628723" />
	</node>
	<node id="-355390" lat="58.2094749979" lon="7.7273416626">
		<tag k="name" v="Tvitjønn" />
		<tag k="natural" v="water" />
		<tag k="ssr:stedsnr" v="326693" />
	</node>
	<node id="-357432" lat="58.2065777766" lon="7.6358166734">
		<tag k="name" v="Nedre Smørtjønn" />
		<tag k="natural" v="water" />
		<tag k="ssr:stedsnr" v="628666" />
	</node>
	<node id="-357429" lat="58.1826499962" lon="7.56465554964">
		<tag k="name" v="Kyretjønn" />
		<tag k="natural" v="water" />
		<tag k="ssr:stedsnr" v="628603" />
	</node>
	<node id="-355380" lat="58.1592805586" lon="7.55450555543">
		<tag k="name" v="Kilen" />
		<tag k="natural" v="bay" />
		<tag k="ssr:stedsnr" v="325988" />
	</node>
	<node id="-357426" lat="58.1794583343" lon="7.51589444536">
		<tag k="name" v="Polletjønn" />
		<tag k="natural" v="water" />
		<tag k="ssr:stedsnr" v="628595" />
	</node>
	<node id="-357424" lat="58.2504722211" lon="7.54307778269">
		<tag k="name" v="Løyntjønn" />
		<tag k="natural" v="water" />
		<tag k="ssr:stedsnr" v="628580" />
	</node>
	<node id="-357423" lat="58.2497222234" lon="7.5444833297">
		<tag k="name" v="Poddetjønn" />
		<tag k="natural" v="water" />
		<tag k="ssr:stedsnr" v="628579" />
	</node>
	<node id="-357422" lat="58.2481611076" lon="7.54835277735">
		<tag k="name" v="Tvitjønn" />
		<tag k="natural" v="water" />
		<tag k="ssr:stedsnr" v="628577" />
	</node>
	<node id="-355373" lat="58.2114027812" lon="7.60651388064">
		<tag k="name" v="Nesetjønn" />
		<tag k="natural" v="water" />
		<tag k="ssr:stedsnr" v="325924" />
	</node>
	<node id="-355372" lat="58.2119000038" lon="7.61111389226">
		<tag k="name" v="Geideneset" />
		<tag k="natural" v="cape" />
		<tag k="ssr:stedsnr" v="325922" />
	</node>
	<node id="-355506" lat="58.3286305572" lon="7.52765833344">
		<tag k="name" v="Kjeddingneset" />
		<tag k="natural" v="cape" />
		<tag k="ssr:stedsnr" v="386251" />
	</node>
	<node id="-355362" lat="58.1900499966" lon="7.56574999745">
		<tag k="name" v="Hutjønn" />
		<tag k="natural" v="water" />
		<tag k="ssr:stedsnr" v="325870" />
	</node>
	<node id="-355360" lat="58.2036916623" lon="7.47578611357">
		<tag k="name" v="Stemmen" />
		<tag k="ssr:stedsnr" v="325842" />
		<tag k="waterway" v="dam" />
	</node>
	<node id="-357407" lat="58.2061749981" lon="7.44540832617">
		<tag k="name" v="Neset" />
		<tag k="natural" v="cape" />
		<tag k="ssr:stedsnr" v="628470" />
	</node>
	<node id="-357406" lat="58.4012638893" lon="7.55585833894">
		<tag k="name" v="Sundsbekken" />
		<tag k="ssr:stedsnr" v="628465" />
		<tag k="waterway" v="stream" />
	</node>
	<node id="-355349" lat="58.1607194421" lon="7.62547500799">
		<tag k="name" v="Holevollstjønn" />
		<tag k="natural" v="water" />
		<tag k="ssr:stedsnr" v="325711" />
	</node>
	<node id="-357396" lat="58.4382222217" lon="7.60434722572">
		<tag k="name" v="Rolandsbekken" />
		<tag k="ssr:stedsnr" v="628422" />
		<tag k="waterway" v="stream" />
	</node>
	<node id="-355345" lat="58.1542055547" lon="7.6791333379">
		<tag k="name" v="Vestre Solåsvann" />
		<tag k="natural" v="water" />
		<tag k="ssr:stedsnr" v="325679" />
		<tag k="water" v="lake" />
	</node>
	<node id="-357390" lat="58.4531611073" lon="7.5552138827">
		<tag k="name" v="Rasmustjønn" />
		<tag k="natural" v="water" />
		<tag k="ssr:stedsnr" v="628394" />
	</node>
	<node id="-355501" lat="58.3628583346" lon="7.50958889329">
		<tag k="name" v="Heimretjønn" />
		<tag k="natural" v="water" />
		<tag k="ssr:stedsnr" v="386195" />
	</node>
	<node id="-355338" lat="58.2226305536" lon="7.6164888917">
		<tag k="name" v="Stemmen" />
		<tag k="ssr:stedsnr" v="325545" />
		<tag k="waterway" v="dam" />
	</node>
	<node id="-356183" lat="58.1976916696" lon="7.60544999404">
		<tag k="name" v="Rona" />
		<tag k="ssr:stedsnr" v="143872" />
		<tag k="waterway" v="rapids" />
	</node>
	<node id="-357381" lat="58.3407388886" lon="7.5084500014">
		<tag k="name" v="Bjortjønn" />
		<tag k="natural" v="water" />
		<tag k="ssr:stedsnr" v="628347" />
	</node>
	<node id="-355327" lat="58.2104499971" lon="7.45443888396">
		<tag k="name" v="Pålskilen" />
		<tag k="natural" v="bay" />
		<tag k="ssr:stedsnr" v="325474" />
	</node>
	<node id="-357372" lat="58.2178472185" lon="7.69675278423">
		<tag k="name" v="Stemtjønn" />
		<tag k="natural" v="water" />
		<tag k="ssr:stedsnr" v="628307" />
	</node>
	<node id="-355322" lat="58.4110194438" lon="7.5136500007">
		<tag k="name" v="Ålgårdstjønn" />
		<tag k="natural" v="water" />
		<tag k="ssr:stedsnr" v="325450" />
	</node>
	<node id="-357368" lat="58.2824055531" lon="7.43475277125">
		<tag k="name" v="Krobekk" />
		<tag k="ssr:stedsnr" v="628298" />
		<tag k="waterway" v="stream" />
	</node>
	<node id="-355317" lat="58.4455222192" lon="7.58394166832">
		<tag k="name" v="Kvernhushølen" />
		<tag k="place" v="locality" />
		<tag k="ssr:stedsnr" v="325420" />
	</node>
	<node id="-355314" lat="58.1758638934" lon="7.65543611881">
		<tag k="name" v="Slævetjønn" />
		<tag k="natural" v="water" />
		<tag k="ssr:stedsnr" v="325637" />
	</node>
	<node id="-355308" lat="58.3157916664" lon="7.52314722664">
		<tag k="name" v="Langeneset" />
		<tag k="natural" v="cape" />
		<tag k="ssr:stedsnr" v="325293" />
	</node>
	<node id="-355298" lat="58.411466665" lon="7.48579166821">
		<tag k="name" v="Lilletjønn" />
		<tag k="natural" v="water" />
		<tag k="ssr:stedsnr" v="325238" />
	</node>
	<node id="-355297" lat="58.3947944412" lon="7.60010000384">
		<tag k="name" v="Langetjønn" />
		<tag k="natural" v="water" />
		<tag k="ssr:stedsnr" v="325391" />
	</node>
	<node id="-355293" lat="58.3932833351" lon="7.61071945237">
		<tag k="name" v="Stemmen" />
		<tag k="natural" v="water" />
		<tag k="ssr:stedsnr" v="325378" />
	</node>
	<node id="-357332" lat="58.1626805557" lon="7.51450833991">
		<tag k="name" v="Teinetjønn" />
		<tag k="natural" v="water" />
		<tag k="ssr:stedsnr" v="628084" />
	</node>
	<node id="-357331" lat="58.1834222249" lon="7.70583332529">
		<tag k="name" v="Rottåstjønn" />
		<tag k="natural" v="water" />
		<tag k="ssr:stedsnr" v="628079" />
	</node>
	<node id="-355279" lat="58.356691668" lon="7.56249721589">
		<tag k="name" v="Kjeholmen" />
		<tag k="place" v="islet" />
		<tag k="ssr:stedsnr" v="325311" />
	</node>
	<node id="-355277" lat="58.3643527794" lon="7.46409166482">
		<tag k="name" v="Einstaktjønn" />
		<tag k="natural" v="water" />
		<tag k="ssr:stedsnr" v="325200" />
	</node>
	<node id="-355276" lat="58.3678111086" lon="7.48768888516">
		<tag k="name" v="Ungfenårbukta" />
		<tag k="natural" v="bay" />
		<tag k="ssr:stedsnr" v="325192" />
	</node>
	<node id="-355275" lat="58.3693111139" lon="7.4872666677">
		<tag k="name" v="Langetangen" />
		<tag k="natural" v="cape" />
		<tag k="ssr:stedsnr" v="325190" />
	</node>
	<node id="-357322" lat="58.1892500033" lon="7.69566667306">
		<tag k="name" v="Hettjønn" />
		<tag k="natural" v="water" />
		<tag k="ssr:stedsnr" v="628052" />
	</node>
	<node id="-357321" lat="58.2426861139" lon="7.58927500569">
		<tag k="name" v="Krogetjønn" />
		<tag k="natural" v="water" />
		<tag k="ssr:stedsnr" v="628015" />
	</node>
	<node id="-357320" lat="58.1803805561" lon="7.57951388198">
		<tag k="name" v="Surtetjønn" />
		<tag k="natural" v="water" />
		<tag k="ssr:stedsnr" v="628004" />
	</node>
	<node id="-357316" lat="58.3913055584" lon="7.45143055337">
		<tag k="alt_name" v="Sautjørn" />
		<tag k="name" v="Sautjønn" />
		<tag k="natural" v="water" />
		<tag k="ssr:stedsnr" v="606988" />
	</node>
	<node id="-357310" lat="58.4098194483" lon="7.53295000145">
		<tag k="name" v="Sundsfossen" />
		<tag k="natural" v="waterfall" />
		<tag k="ssr:stedsnr" v="606897" />
	</node>
	<node id="-355257" lat="58.1653388909" lon="7.51228888319">
		<tag k="name" v="Tangen" />
		<tag k="natural" v="cape" />
		<tag k="ssr:stedsnr" v="325095" />
	</node>
	<node id="-355255" lat="58.4224694401" lon="7.63077222486">
		<tag k="name" v="Biktjønn" />
		<tag k="natural" v="water" />
		<tag k="ssr:stedsnr" v="325084" />
	</node>
	<node id="-355253" lat="58.4129166672" lon="7.65578054882">
		<tag k="name" v="Bjorkilen" />
		<tag k="natural" v="bay" />
		<tag k="ssr:stedsnr" v="325078" />
	</node>
	<node id="-357300" lat="58.2217416684" lon="7.66348056217">
		<tag k="alt_name" v="Bjørnstølvatnet" />
		<tag k="name" v="Bjørnestølvann" />
		<tag k="natural" v="water" />
		<tag k="ssr:stedsnr" v="606721" />
	</node>
	<node id="-355251" lat="58.4016194424" lon="7.64677222817">
		<tag k="name" v="Neset" />
		<tag k="natural" v="cape" />
		<tag k="ssr:stedsnr" v="325069" />
	</node>
	<node id="-357297" lat="58.2455916669" lon="7.5999055586">
		<tag k="alt_name" v="Grunnevann" />
		<tag k="name" v="Grunnevatnet" />
		<tag k="natural" v="water" />
		<tag k="ssr:stedsnr" v="606653" />
	</node>
	<node id="-355240" lat="58.3539305587" lon="7.48803888736">
		<tag k="name" v="Refsbekken" />
		<tag k="ssr:stedsnr" v="325228" />
		<tag k="waterway" v="stream" />
	</node>
	<node id="-355232" lat="58.1962888849" lon="7.56292499428">
		<tag k="alt_name" v="Hegretjønn" />
		<tag k="name" v="Hegretjørna" />
		<tag k="natural" v="water" />
		<tag k="ssr:stedsnr" v="304729" />
	</node>
	<node id="-355231" lat="58.1859611088" lon="7.66237500478">
		<tag k="alt_name" v="Stemvann" />
		<tag k="name" v="Stemmevatnet" />
		<tag k="natural" v="water" />
		<tag k="ssr:stedsnr" v="304723" />
	</node>
	<node id="-355226" lat="58.3609083291" lon="7.50424444889">
		<tag k="alt_name" v="Skjebbetjønn" />
		<tag k="name" v="Skjebbetjørni" />
		<tag k="natural" v="water" />
		<tag k="ssr:stedsnr" v="303964" />
	</node>
	<node id="-355225" lat="58.4559000035" lon="7.54470555392">
		<tag k="alt_name" v="Gytjønn" />
		<tag k="name" v="Gytjørnane" />
		<tag k="natural" v="water" />
		<tag k="ssr:stedsnr" v="303903" />
	</node>
	<node id="-355217" lat="58.325727774" lon="7.51725834013">
		<tag k="name" v="Manflåvannet" />
		<tag k="natural" v="water" />
		<tag k="ssr:stedsnr" v="303764" />
		<tag k="water" v="lake" />
	</node>
	<node id="-355214" lat="58.2277499957" lon="7.42971111053">
		<tag k="alt_name" v="Blavannet" />
		<tag k="name" v="Bladvatnet" />
		<tag k="natural" v="water" />
		<tag k="ssr:stedsnr" v="303716" />
	</node>
	<node id="-355212" lat="58.2458999982" lon="7.45760000339">
		<tag k="alt_name" v="Uglandsvann" />
		<tag k="name" v="Uglandsvatnet" />
		<tag k="natural" v="water" />
		<tag k="ssr:stedsnr" v="303631" />
	</node>
	<node id="-355534" lat="58.4147555552" lon="7.60616667222">
		<tag k="name" v="Bjønnjordstjønna" />
		<tag k="natural" v="water" />
		<tag k="ssr:stedsnr" v="386445" />
	</node>
	<node id="-357250" lat="58.2022111151" lon="7.52893332909">
		<tag k="name" v="Glemestraumen" />
		<tag k="ssr:stedsnr" v="568908" />
		<tag k="waterway" v="rapids" />
	</node>
	<node id="-357246" lat="58.1863888868" lon="7.55905277187">
		<tag k="name" v="Migeren" />
		<tag k="ssr:stedsnr" v="568895" />
		<tag k="waterway" v="stream" />
	</node>
	<node id="-357244" lat="58.196216664" lon="7.58119722487">
		<tag k="name" v="Surtelandstjønn" />
		<tag k="natural" v="water" />
		<tag k="ssr:stedsnr" v="568880" />
	</node>
	<node id="-357242" lat="58.1918611101" lon="7.53399444064">
		<tag k="name" v="Kålfossen" />
		<tag k="natural" v="waterfall" />
		<tag k="ssr:stedsnr" v="568873" />
	</node>
	<node id="-357240" lat="58.2030055533" lon="7.6070027765">
		<tag k="name" v="Langeholmen" />
		<tag k="place" v="islet" />
		<tag k="ssr:stedsnr" v="568868" />
	</node>
	<node id="-357237" lat="58.1600750045" lon="7.50828056123">
		<tag k="name" v="Sagåstjønn" />
		<tag k="natural" v="water" />
		<tag k="ssr:stedsnr" v="568843" />
	</node>
	<node id="-357232" lat="58.2116638922" lon="7.48089444751">
		<tag k="name" v="Gulltjønn" />
		<tag k="natural" v="water" />
		<tag k="ssr:stedsnr" v="568828" />
	</node>
	<node id="-355473" lat="58.1822333302" lon="7.71463888834">
		<tag k="name" v="Tometjønn" />
		<tag k="natural" v="water" />
		<tag k="ssr:stedsnr" v="386088" />
	</node>
	<node id="-357219" lat="58.2421361112" lon="7.50677777347">
		<tag k="name" v="Logåna" />
		<tag k="ssr:stedsnr" v="568772" />
		<tag k="waterway" v="river" />
	</node>
	<node id="-357210" lat="58.2570111122" lon="7.54151944965">
		<tag k="name" v="Jordtjønn" />
		<tag k="natural" v="water" />
		<tag k="ssr:stedsnr" v="568718" />
	</node>
	<node id="-357198" lat="58.2117999985" lon="7.69593611821">
		<tag k="name" v="Bergetjønn" />
		<tag k="natural" v="water" />
		<tag k="ssr:stedsnr" v="568645" />
	</node>
	<node id="-357195" lat="58.1815666688" lon="7.63642778478">
		<tag k="name" v="Svartevann" />
		<tag k="natural" v="water" />
		<tag k="ssr:stedsnr" v="568623" />
		<tag k="water" v="lake" />
	</node>
	<node id="-357194" lat="58.2220999992" lon="7.6372166721">
		<tag k="name" v="Vindtjønn" />
		<tag k="natural" v="water" />
		<tag k="ssr:stedsnr" v="568618" />
	</node>
	<node id="-357187" lat="58.2204972221" lon="7.52816111497">
		<tag k="name" v="Litjønn" />
		<tag k="natural" v="water" />
		<tag k="ssr:stedsnr" v="568529" />
	</node>
	<node id="-357179" lat="58.3990305592" lon="7.52327777093">
		<tag k="name" v="Monebekk" />
		<tag k="ssr:stedsnr" v="568461" />
		<tag k="waterway" v="stream" />
	</node>
	<node id="-357159" lat="58.3975805567" lon="7.46667776978">
		<tag k="name" v="Moltetjønn" />
		<tag k="natural" v="water" />
		<tag k="ssr:stedsnr" v="568355" />
	</node>
	<node id="-357155" lat="58.2602416704" lon="7.43942499554">
		<tag k="name" v="Hilleråstjønn" />
		<tag k="natural" v="water" />
		<tag k="ssr:stedsnr" v="568335" />
	</node>
	<node id="-357142" lat="58.3242611092" lon="7.52891389268">
		<tag k="name" v="Kalvøy" />
		<tag k="place" v="islet" />
		<tag k="ssr:stedsnr" v="568272" />
	</node>
	<node id="-356142" lat="58.4132055566" lon="7.60924444909">
		<tag k="name" v="Svartupstjønn" />
		<tag k="natural" v="water" />
		<tag k="ssr:stedsnr" v="143465" />
	</node>
	<node id="-357136" lat="58.1476166658" lon="7.56850554874">
		<tag k="name" v="Leirtangen" />
		<tag k="natural" v="cape" />
		<tag k="ssr:stedsnr" v="568240" />
	</node>
	<node id="-357135" lat="58.1479055584" lon="7.56650555967">
		<tag k="name" v="Svanekilen" />
		<tag k="natural" v="bay" />
		<tag k="ssr:stedsnr" v="568238" />
	</node>
	<node id="-357130" lat="58.3662638892" lon="7.49128610902">
		<tag k="name" v="Osebekken" />
		<tag k="ssr:stedsnr" v="568185" />
		<tag k="waterway" v="stream" />
	</node>
	<node id="-357112" lat="58.3714111125" lon="7.59788888183">
		<tag k="name" v="Kattepytten" />
		<tag k="natural" v="water" />
		<tag k="ssr:stedsnr" v="568028" />
		<tag k="water" v="pond" />
	</node>
	<node id="-357108" lat="58.1840694475" lon="7.58573888474">
		<tag k="name" v="Regestemlona" />
		<tag k="natural" v="water" />
		<tag k="ssr:stedsnr" v="568001" />
		<tag k="water" v="lake" />
	</node>
	<node id="-357100" lat="58.3703916636" lon="7.48886666314">
		<tag k="alt_name" v="Mindrebøvann" />
		<tag k="name" v="Mindrebøvatnet" />
		<tag k="natural" v="water" />
		<tag k="ssr:stedsnr" v="546945" />
		<tag k="water" v="lake" />
	</node>
	<node id="-357093" lat="58.2903111126" lon="7.40125554958">
		<tag k="alt_name" v="Renlevann" />
		<tag k="name" v="Rendlevatnet" />
		<tag k="natural" v="water" />
		<tag k="ssr:stedsnr" v="546851" />
	</node>
	<node id="-357089" lat="58.1800361086" lon="7.70018056292">
		<tag k="alt_name" v="Homevann" />
		<tag k="name" v="Hommevatnet" />
		<tag k="natural" v="water" />
		<tag k="ssr:stedsnr" v="546783" />
		<tag k="water" v="lake" />
	</node>
	<node id="-357088" lat="58.171113887" lon="7.45432499623">
		<tag k="alt_name" v="Jogelstjønn" />
		<tag k="name" v="Jogelstjørna" />
		<tag k="natural" v="water" />
		<tag k="ssr:stedsnr" v="546767" />
	</node>
	<node id="-357081" lat="58.2161497073" lon="7.43604482433">
		<tag k="alt_name" v="Langetjønn" />
		<tag k="name" v="Langtjørna" />
		<tag k="natural" v="water" />
		<tag k="ssr:stedsnr" v="546701" />
	</node>
	<node id="-357078" lat="58.2087888889" lon="7.61308055526">
		<tag k="alt_name" v="Høyevann" />
		<tag k="name" v="Høyevatnet" />
		<tag k="natural" v="water" />
		<tag k="ssr:stedsnr" v="546668" />
		<tag k="water" v="lake" />
	</node>
	<node id="-357077" lat="58.2342861155" lon="7.46912500681">
		<tag k="alt_name" v="Eivindstjønn" />
		<tag k="name" v="Eivindstjørna" />
		<tag k="natural" v="water" />
		<tag k="ssr:stedsnr" v="546608" />
	</node>
	<node id="-357037" lat="58.2316638925" lon="7.49363610798">
		<tag k="name" v="Austre Glomsåtjønn" />
		<tag k="natural" v="water" />
		<tag k="ssr:stedsnr" v="508806" />
	</node>
	<node id="-357035" lat="58.1720527737" lon="7.47798611138">
		<tag k="name" v="Kraunetjønn" />
		<tag k="natural" v="water" />
		<tag k="ssr:stedsnr" v="508793" />
	</node>
	<node id="-357031" lat="58.2019222222" lon="7.68050832742">
		<tag k="name" v="Bustentjønn" />
		<tag k="natural" v="water" />
		<tag k="ssr:stedsnr" v="508693" />
	</node>
	<node id="-357030" lat="58.1989500023" lon="7.68540555728">
		<tag k="name" v="Sautjønn" />
		<tag k="natural" v="water" />
		<tag k="ssr:stedsnr" v="508691" />
	</node>
	<node id="-357029" lat="58.2015694469" lon="7.71317777209">
		<tag k="name" v="Brelandsvannet" />
		<tag k="natural" v="water" />
		<tag k="ssr:stedsnr" v="508690" />
		<tag k="water" v="lake" />
	</node>
	<node id="-357016" lat="58.1553249959" lon="7.58361388857">
		<tag k="name" v="Indre Stemtjønn" />
		<tag k="natural" v="water" />
		<tag k="ssr:stedsnr" v="507948" />
	</node>
	<node id="-357015" lat="58.2136694441" lon="7.61064167176">
		<tag k="name" v="Hatteholmen" />
		<tag k="place" v="islet" />
		<tag k="ssr:stedsnr" v="507936" />
	</node>
	<node id="-357011" lat="58.2025638919" lon="7.61233611493">
		<tag k="name" v="Gunnarsholmen" />
		<tag k="place" v="islet" />
		<tag k="ssr:stedsnr" v="507884" />
	</node>
	<node id="-357008" lat="58.2103388861" lon="7.4670222174">
		<tag k="name" v="Bydingstjønn" />
		<tag k="natural" v="water" />
		<tag k="ssr:stedsnr" v="507854" />
	</node>
	<node id="-355778" lat="58.1949972231" lon="7.72300555256">
		<tag k="name" v="Rasmustjønn" />
		<tag k="natural" v="water" />
		<tag k="ssr:stedsnr" v="23677" />
	</node>
	<node id="-357001" lat="58.1524111082" lon="7.67593888664">
		<tag k="name" v="Snøringstjønn" />
		<tag k="natural" v="water" />
		<tag k="ssr:stedsnr" v="507733" />
	</node>
	<node id="-356998" lat="58.1507388887" lon="7.70055832518">
		<tag k="name" v="Hundvallstjønnan" />
		<tag k="natural" v="water" />
		<tag k="ssr:stedsnr" v="507706" />
	</node>
	<node id="-356996" lat="58.179883335" lon="7.66743611527">
		<tag k="name" v="Tjønna" />
		<tag k="natural" v="water" />
		<tag k="ssr:stedsnr" v="507661" />
	</node>
	<node id="-355775" lat="58.2746583306" lon="7.46643888236">
		<tag k="name" v="Auklandstjønn" />
		<tag k="natural" v="water" />
		<tag k="ssr:stedsnr" v="23366" />
	</node>
	<node id="-356971" lat="58.3885305547" lon="7.52806667103">
		<tag k="name" v="Grasholmen" />
		<tag k="place" v="islet" />
		<tag k="ssr:stedsnr" v="507460" />
	</node>
	<node id="-356959" lat="58.3984833356" lon="7.57456944485">
		<tag k="name" v="Stemtjønn" />
		<tag k="natural" v="water" />
		<tag k="ssr:stedsnr" v="507362" />
	</node>
	<node id="-356938" lat="58.2864500028" lon="7.41015833736">
		<tag k="name" v="Svanetjønn" />
		<tag k="natural" v="water" />
		<tag k="ssr:stedsnr" v="507282" />
	</node>
	<node id="-356931" lat="58.1454267545" lon="7.59701503831">
		<tag k="name" v="Nøgeltjønn" />
		<tag k="natural" v="water" />
		<tag k="ssr:stedsnr" v="507229" />
	</node>
	<node id="-356929" lat="58.3511166669" lon="7.4767444361">
		<tag k="name" v="Refsdalsbekken" />
		<tag k="ssr:stedsnr" v="507204" />
		<tag k="waterway" v="stream" />
	</node>
	<node id="-356906" lat="58.1890638897" lon="7.70480277204">
		<tag k="name" v="Rottåstjønn" />
		<tag k="natural" v="water" />
		<tag k="ssr:stedsnr" v="507079" />
	</node>
	<node id="-356903" lat="58.1844388905" lon="7.71202222953">
		<tag k="name" v="Homevannsbekken" />
		<tag k="ssr:stedsnr" v="507076" />
		<tag k="waterway" v="stream" />
	</node>
	<node id="-356902" lat="58.420833337" lon="7.63470277075">
		<tag k="name" v="Leirtjønn" />
		<tag k="natural" v="water" />
		<tag k="ssr:stedsnr" v="507075" />
	</node>
	<node id="-356895" lat="58.2398777769" lon="7.58773055513">
		<tag k="name" v="Dybletjønn" />
		<tag k="natural" v="water" />
		<tag k="ssr:stedsnr" v="507016" />
	</node>
	<node id="-356886" lat="58.1773833363" lon="7.45354999271">
		<tag k="alt_name" v="Dørevann" />
		<tag k="name" v="Dørevatnet" />
		<tag k="natural" v="water" />
		<tag k="ssr:stedsnr" v="485775" />
	</node>
	<node id="-356885" lat="58.1625888845" lon="7.61873889417">
		<tag k="alt_name" v="Birkelandsvann" />
		<tag k="name" v="Birkelandsvatnet" />
		<tag k="natural" v="water" />
		<tag k="ssr:stedsnr" v="485758" />
		<tag k="water" v="lake" />
	</node>
	<node id="-356882" lat="58.1846499976" lon="7.70251110323">
		<tag k="alt_name" v="Fagrevann" />
		<tag k="name" v="Fagrevatnet" />
		<tag k="natural" v="water" />
		<tag k="ssr:stedsnr" v="485656" />
	</node>
	<node id="-356875" lat="58.4572583369" lon="7.52132222484">
		<tag k="alt_name" v="Urdalsbekken" />
		<tag k="name" v="Urddalsbekken" />
		<tag k="ssr:stedsnr" v="485901" />
		<tag k="waterway" v="stream" />
	</node>
	<node id="-356867" lat="58.1887777751" lon="7.64416110832">
		<tag k="name" v="Drengetjønn" />
		<tag k="natural" v="water" />
		<tag k="ssr:stedsnr" v="448694" />
	</node>
	<node id="-356863" lat="58.1654083373" lon="7.59465833497">
		<tag k="name" v="Hantarlona" />
		<tag k="natural" v="water" />
		<tag k="ssr:stedsnr" v="447996" />
		<tag k="water" v="lake" />
	</node>
	<node id="-356861" lat="58.1686555542" lon="7.57105277037">
		<tag k="name" v="Refossen" />
		<tag k="ssr:stedsnr" v="447987" />
		<tag k="waterway" v="rapids" />
	</node>
	<node id="-356857" lat="58.1610888903" lon="7.51635555522">
		<tag k="name" v="Eidsbekken" />
		<tag k="ssr:stedsnr" v="447965" />
		<tag k="waterway" v="stream" />
	</node>
	<node id="-356852" lat="58.1515333355" lon="7.59211111346">
		<tag k="name" v="Trollåstjønn" />
		<tag k="natural" v="water" />
		<tag k="ssr:stedsnr" v="447939" />
	</node>
	<node id="-356851" lat="58.2081805589" lon="7.60322222323">
		<tag k="name" v="Murtetjønn" />
		<tag k="natural" v="water" />
		<tag k="ssr:stedsnr" v="447918" />
	</node>
	<node id="-356849" lat="58.2013916677" lon="7.468402775">
		<tag k="name" v="Hytteholmen" />
		<tag k="place" v="islet" />
		<tag k="ssr:stedsnr" v="447849" />
	</node>
	<node id="-356827" lat="58.165922221" lon="7.66755555426">
		<tag k="name" v="Gumpetjønn" />
		<tag k="natural" v="water" />
		<tag k="ssr:stedsnr" v="447713" />
	</node>
	<node id="-356826" lat="58.1558638929" lon="7.66037778179">
		<tag k="name" v="Langetjønn" />
		<tag k="natural" v="water" />
		<tag k="ssr:stedsnr" v="447697" />
	</node>
	<node id="-356823" lat="58.1787361096" lon="7.6512694386">
		<tag k="name" v="Kalltjønn" />
		<tag k="natural" v="water" />
		<tag k="ssr:stedsnr" v="447620" />
	</node>
	<node id="-356818" lat="58.181213889" lon="7.53656111869">
		<tag k="name" v="Fløyderholmen" />
		<tag k="place" v="islet" />
		<tag k="ssr:stedsnr" v="447599" />
	</node>
	<node id="-356811" lat="58.2250916639" lon="7.56605000256">
		<tag k="name" v="Gaustjønn" />
		<tag k="natural" v="water" />
		<tag k="ssr:stedsnr" v="447532" />
	</node>
	<node id="-356809" lat="58.2304249958" lon="7.61634445278">
		<tag k="name" v="Svartehølen" />
		<tag k="place" v="locality" />
		<tag k="ssr:stedsnr" v="447520" />
	</node>
	<node id="-355745" lat="58.1643333344" lon="7.66756665853">
		<tag k="name" v="Rønningstjønn" />
		<tag k="natural" v="water" />
		<tag k="ssr:stedsnr" v="22727" />
	</node>
	<node id="-356086" lat="58.3799694455" lon="7.56599722732">
		<tag k="name" v="Tønneslandsbekken" />
		<tag k="ssr:stedsnr" v="143050" />
		<tag k="waterway" v="stream" />
	</node>
	<node id="-356801" lat="58.2031277752" lon="7.43989444094">
		<tag k="name" v="Rogholmen" />
		<tag k="place" v="islet" />
		<tag k="ssr:stedsnr" v="447459" />
	</node>
	<node id="-356796" lat="58.4265388894" lon="7.60150555534">
		<tag k="name" v="Krobekken" />
		<tag k="ssr:stedsnr" v="447425" />
		<tag k="waterway" v="stream" />
	</node>
	<node id="-356790" lat="58.3528000003" lon="7.52878889512">
		<tag k="name" v="Toppøyna" />
		<tag k="natural" v="cape" />
		<tag k="ssr:stedsnr" v="447403" />
	</node>
	<node id="-355723" lat="58.4121194412" lon="7.5890750071">
		<tag k="name" v="Lislebekken" />
		<tag k="ssr:stedsnr" v="22451" />
		<tag k="waterway" v="stream" />
	</node>
	<node id="-355398" lat="58.4306277748" lon="7.5155388881">
		<tag k="alt_name" v="Fossetjønnan" />
		<tag k="name" v="Fosstjørn" />
		<tag k="natural" v="water" />
		<tag k="ssr:stedsnr" v="121879" />
	</node>
	<node id="-356769" lat="58.2212361079" lon="7.66883333179">
		<tag k="name" v="Blikksteinsholtet" />
		<tag k="natural" v="cape" />
		<tag k="ssr:stedsnr" v="447291" />
	</node>
	<node id="-356753" lat="58.2234027788" lon="7.44498055119">
		<tag k="name" v="Sauetjønna" />
		<tag k="natural" v="water" />
		<tag k="ssr:stedsnr" v="447238" />
	</node>
	<node id="-356750" lat="58.3374027758" lon="7.52988056111">
		<tag k="name" v="Straumsberget" />
		<tag k="ssr:stedsnr" v="447231" />
		<tag k="waterway" v="rapids" />
	</node>
	<node id="-356749" lat="58.2206916667" lon="7.43888334078">
		<tag k="name" v="Tvitjønnan" />
		<tag k="natural" v="water" />
		<tag k="ssr:stedsnr" v="447227" />
	</node>
	<node id="-356745" lat="58.1431194488" lon="7.60772499472">
		<tag k="name" v="Eigeliheitjønn" />
		<tag k="natural" v="water" />
		<tag k="ssr:stedsnr" v="447212" />
	</node>
	<node id="-356744" lat="58.1390111068" lon="7.57185000472">
		<tag k="name" v="Midtvannsodden" />
		<tag k="natural" v="cape" />
		<tag k="ssr:stedsnr" v="447207" />
	</node>
	<node id="-356734" lat="58.1657416703" lon="7.48230832648">
		<tag k="name" v="Svartelona" />
		<tag k="natural" v="water" />
		<tag k="ssr:stedsnr" v="447120" />
	</node>
	<node id="-356733" lat="58.4375472187" lon="7.65474166035">
		<tag k="name" v="Eptekilen" />
		<tag k="natural" v="bay" />
		<tag k="ssr:stedsnr" v="447118" />
	</node>
	<node id="-356726" lat="58.1792805549" lon="7.68750278523">
		<tag k="name" v="Løndalstjønn" />
		<tag k="natural" v="water" />
		<tag k="ssr:stedsnr" v="447080" />
	</node>
	<node id="-356720" lat="58.3630833373" lon="7.5733222281">
		<tag k="name" v="Stoldalsbekken" />
		<tag k="ssr:stedsnr" v="447055" />
		<tag k="waterway" v="stream" />
	</node>
	<node id="-356718" lat="58.3658638849" lon="7.58615278491">
		<tag k="name" v="Lavåsbekken" />
		<tag k="ssr:stedsnr" v="447054" />
		<tag k="waterway" v="stream" />
	</node>
	<node id="-356703" lat="58.3726042806" lon="7.58680391801">
		<tag k="alt_name" v="Homtjønn" />
		<tag k="name" v="Homtjørn" />
		<tag k="natural" v="water" />
		<tag k="ssr:stedsnr" v="425947" />
	</node>
	<node id="-356701" lat="58.4556416659" lon="7.62557499607">
		<tag k="alt_name" v="Vertjønn" />
		<tag k="name" v="Kallandstjørni" />
		<tag k="natural" v="water" />
		<tag k="ssr:stedsnr" v="425914" />
	</node>
	<node id="-356697" lat="58.2642805522" lon="7.4658583311">
		<tag k="alt_name" v="Logåna" />
		<tag k="name" v="Lågåna" />
		<tag k="ssr:stedsnr" v="425847" />
		<tag k="waterway" v="stream" />
	</node>
	<node id="-356694" lat="58.3447916685" lon="7.59701666887">
		<tag k="alt_name" v="Omsåna" />
		<tag k="name" v="Åmsåna" />
		<tag k="ssr:stedsnr" v="425819" />
		<tag k="waterway" v="river" />
	</node>
	<node id="-356693" lat="58.1739777814" lon="7.5824749978">
		<tag k="name" v="Høyeåna" />
		<tag k="ssr:stedsnr" v="425810" />
		<tag k="waterway" v="stream" />
	</node>
	<node id="-356691" lat="58.1651666644" lon="7.58353610648">
		<tag k="alt_name" v="Eiåna" />
		<tag k="name" v="Eidsåna" />
		<tag k="ssr:stedsnr" v="425803" />
		<tag k="waterway" v="stream" />
	</node>
	<node id="-356689" lat="58.3176784705" lon="7.48460893645">
		<tag k="alt_name" v="Hessvann" />
		<tag k="name" v="Hestvatnet" />
		<tag k="natural" v="water" />
		<tag k="ssr:stedsnr" v="425791" />
	</node>
	<node id="-356684" lat="58.216877775" lon="7.496649997">
		<tag k="name" v="Lindåna" />
		<tag k="ssr:stedsnr" v="425754" />
		<tag k="waterway" v="stream" />
	</node>
	<node id="-356683" lat="58.1997805514" lon="7.66789166382">
		<tag k="alt_name" v="Hedkjerrvann" />
		<tag k="name" v="Hellekjerrvatnet" />
		<tag k="natural" v="water" />
		<tag k="ssr:stedsnr" v="425729" />
	</node>
	<node id="-356682" lat="58.1863499981" lon="7.59742500507">
		<tag k="alt_name" v="Grunnevann" />
		<tag k="name" v="Grunnevatnet" />
		<tag k="natural" v="water" />
		<tag k="ssr:stedsnr" v="425724" />
	</node>
	<node id="-356681" lat="58.1983611112" lon="7.46093611926">
		<tag k="alt_name" v="Bosollvannet" />
		<tag k="name" v="Bosollvatnet" />
		<tag k="natural" v="water" />
		<tag k="ssr:stedsnr" v="425712" />
	</node>
	<node id="-356677" lat="58.248011108" lon="7.5941888858">
		<tag k="alt_name" v="Hessvann" />
		<tag k="name" v="Hestvatnet" />
		<tag k="natural" v="water" />
		<tag k="ssr:stedsnr" v="425651" />
	</node>
	<node id="-356673" lat="58.253125002" lon="7.56348888346">
		<tag k="name" v="Leintjørnane" />
		<tag k="natural" v="water" />
		<tag k="ssr:stedsnr" v="425209" />
	</node>
	<node id="-355381" lat="58.1623444482" lon="7.55150833935">
		<tag k="name" v="Lilleholmen" />
		<tag k="natural" v="cape" />
		<tag k="ssr:stedsnr" v="325989" />
	</node>
	<node id="-356063" lat="58.1462999965" lon="7.67337500536">
		<tag k="name" v="Igletjønn" />
		<tag k="natural" v="water" />
		<tag k="ssr:stedsnr" v="143060" />
	</node>
	<node id="-356634" lat="58.1576138871" lon="7.5519722211">
		<tag k="name" v="Nautøyre" />
		<tag k="place" v="islet" />
		<tag k="ssr:stedsnr" v="265988" />
	</node>
	<node id="-355375" lat="58.1497055529" lon="7.61628054726">
		<tag k="name" v="Bjortjønn" />
		<tag k="natural" v="water" />
		<tag k="ssr:stedsnr" v="325944" />
	</node>
	<node id="-356057" lat="58.3628249993" lon="7.46671111324">
		<tag k="alt_name" v="Sandtjønn" />
		<tag k="name" v="Sandtjørn" />
		<tag k="natural" v="water" />
		<tag k="ssr:stedsnr" v="121965" />
	</node>
	<node id="-356628" lat="58.1513805595" lon="7.6092527729">
		<tag k="name" v="Børsvann" />
		<tag k="natural" v="water" />
		<tag k="ssr:stedsnr" v="265937" />
		<tag k="water" v="lake" />
	</node>
	<node id="-356627" lat="58.1991499983" lon="7.57519443874">
		<tag k="name" v="Rotjønn" />
		<tag k="natural" v="water" />
		<tag k="ssr:stedsnr" v="265933" />
	</node>
	<node id="-356626" lat="58.2088750014" lon="7.57475000792">
		<tag k="name" v="Kattetjønn" />
		<tag k="natural" v="water" />
		<tag k="ssr:stedsnr" v="265930" />
	</node>
	<node id="-356623" lat="58.1934944409" lon="7.58104722447">
		<tag k="name" v="Hudetjønn" />
		<tag k="natural" v="water" />
		<tag k="ssr:stedsnr" v="265891" />
	</node>
	<node id="-356618" lat="58.2091277755" lon="7.46120554916">
		<tag k="name" v="Tosketjønn" />
		<tag k="natural" v="water" />
		<tag k="ssr:stedsnr" v="265856" />
	</node>
	<node id="-356613" lat="58.1817527748" lon="7.5133916678">
		<tag k="name" v="Igletjønn" />
		<tag k="natural" v="water" />
		<tag k="ssr:stedsnr" v="265834" />
	</node>
	<node id="-356606" lat="58.2591361089" lon="7.55106943835">
		<tag k="name" v="Småtjønnane" />
		<tag k="natural" v="water" />
		<tag k="ssr:stedsnr" v="265763" />
	</node>
	<node id="-356605" lat="58.1506916626" lon="7.65319166678">
		<tag k="name" v="Fosstjønn" />
		<tag k="natural" v="water" />
		<tag k="ssr:stedsnr" v="265758" />
	</node>
	<node id="-356603" lat="58.1539388923" lon="7.68966111593">
		<tag k="name" v="Bjørndalstjønn" />
		<tag k="natural" v="water" />
		<tag k="ssr:stedsnr" v="265739" />
	</node>
	<node id="-356052" lat="58.4385527796" lon="7.58149722036">
		<tag k="alt_name" v="Tveitvannet" />
		<tag k="name" v="Tveitevatnet" />
		<tag k="natural" v="water" />
		<tag k="ssr:stedsnr" v="121930" />
		<tag k="water" v="lake" />
	</node>
	<node id="-356596" lat="58.2253611071" lon="7.64339722568">
		<tag k="name" v="Perstjønn" />
		<tag k="natural" v="water" />
		<tag k="ssr:stedsnr" v="265666" />
	</node>
	<node id="-356576" lat="58.2113472206" lon="7.43957500725">
		<tag k="name" v="Røyrtjønna" />
		<tag k="natural" v="water" />
		<tag k="ssr:stedsnr" v="265498" />
	</node>
	<node id="-356574" lat="58.3961480618" lon="7.54600598326">
		<tag k="name" v="Nautårtjønn" />
		<tag k="natural" v="water" />
		<tag k="ssr:stedsnr" v="265496" />
	</node>
	<node id="-356567" lat="58.2528888867" lon="7.45014722457">
		<tag k="name" v="Bertordalsbukta" />
		<tag k="natural" v="bay" />
		<tag k="ssr:stedsnr" v="265476" />
	</node>
	<node id="-356544" lat="58.2218972218" lon="7.66895278412">
		<tag k="name" v="Hestesundet" />
		<tag k="natural" v="strait" />
		<tag k="ssr:stedsnr" v="265346" />
	</node>
	<node id="-356541" lat="58.2177527783" lon="7.68275555828">
		<tag k="name" v="Lavåsstø" />
		<tag k="natural" v="bay" />
		<tag k="ssr:stedsnr" v="265340" />
	</node>
	<node id="-356540" lat="58.2185499992" lon="7.68958889512">
		<tag k="name" v="Ytre Blakstjønn" />
		<tag k="natural" v="water" />
		<tag k="ssr:stedsnr" v="265338" />
	</node>
	<node id="-355359" lat="58.1537583353" lon="7.48702777398">
		<tag k="name" v="Støtjønn" />
		<tag k="natural" v="water" />
		<tag k="ssr:stedsnr" v="325826" />
	</node>
	<node id="-355358" lat="58.1997111147" lon="7.4718222189">
		<tag k="name" v="Sauetjønn" />
		<tag k="natural" v="water" />
		<tag k="ssr:stedsnr" v="325796" />
	</node>
	<node id="-356527" lat="58.3196527757" lon="7.51724723036">
		<tag k="name" v="Badstukilen" />
		<tag k="natural" v="bay" />
		<tag k="ssr:stedsnr" v="265289" />
	</node>
	<node id="-356525" lat="58.3279277757" lon="7.52151388576">
		<tag k="name" v="Katteneset" />
		<tag k="natural" v="cape" />
		<tag k="ssr:stedsnr" v="265272" />
	</node>
	<node id="-356521" lat="58.1476333351" lon="7.60151944189">
		<tag k="name" v="Fiskevann" />
		<tag k="natural" v="water" />
		<tag k="ssr:stedsnr" v="265248" />
	</node>
	<node id="-356510" lat="58.380544444" lon="7.43811388255">
		<tag k="name" v="Orlogstjønn" />
		<tag k="natural" v="water" />
		<tag k="ssr:stedsnr" v="265158" />
	</node>
	<node id="-356507" lat="58.161022226" lon="7.48722221663">
		<tag k="name" v="Holmen" />
		<tag k="natural" v="cape" />
		<tag k="ssr:stedsnr" v="265118" />
	</node>
	<node id="-356505" lat="58.4007682015" lon="7.64410916612">
		<tag k="name" v="Nedre Rendlevann" />
		<tag k="natural" v="water" />
		<tag k="ssr:stedsnr" v="265116" />
	</node>
	<node id="-356504" lat="58.253125002" lon="7.56348888346">
		<tag k="name" v="Øvre Leintjønn" />
		<tag k="natural" v="water" />
		<tag k="ssr:stedsnr" v="265117" />
	</node>
	<node id="-356377" lat="58.1962264358" lon="7.49565653073">
		<tag k="name" v="Kårstjønn" />
		<tag k="natural" v="water" />
		<tag k="ssr:stedsnr" v="204844" />
	</node>
	<node id="-355980" lat="58.1553305561" lon="7.69301944037">
		<tag k="name" v="Vårkilen" />
		<tag k="natural" v="bay" />
		<tag k="ssr:stedsnr" v="83705" />
	</node>
	<node id="-356493" lat="58.4064916673" lon="7.65166944884">
		<tag k="name" v="Bjortjønn" />
		<tag k="natural" v="water" />
		<tag k="ssr:stedsnr" v="265062" />
	</node>
	<node id="-356488" lat="58.3670277815" lon="7.60526944382">
		<tag k="name" v="Jordstjønn" />
		<tag k="natural" v="water" />
		<tag k="ssr:stedsnr" v="265047" />
	</node>
	<node id="-355692" lat="58.2240472206" lon="7.41016111029">
		<tag k="name" v="Støa" />
		<tag k="natural" v="bay" />
		<tag k="ssr:stedsnr" v="22239" />
	</node>
	<node id="-356486" lat="58.3850583345" lon="7.59877499228">
		<tag k="name" v="Kolandsbekken" />
		<tag k="ssr:stedsnr" v="265030" />
		<tag k="waterway" v="stream" />
	</node>
	<node id="-356374" lat="58.168361114" lon="7.55939444959">
		<tag k="name" v="Nodehølen" />
		<tag k="place" v="locality" />
		<tag k="ssr:stedsnr" v="204756" />
	</node>
	<node id="-358530" lat="58.1781916677" lon="7.49413333044">
		<tag k="name" v="Liansbekken" />
		<tag k="ssr:stedsnr" v="933848" />
		<tag k="waterway" v="stream" />
	</node>
	<node id="-356476" lat="58.4465583313" lon="7.62954444723">
		<tag k="alt_name" v="Stemlona" />
		<tag k="name" v="Stemmeloni" />
		<tag k="natural" v="water" />
		<tag k="ssr:stedsnr" v="243920" />
		<tag k="water" v="lake" />
	</node>
	<node id="-356475" lat="58.4490348103" lon="7.62608843173">
		<tag k="alt_name" v="Knibetjønn" />
		<tag k="name" v="Kjærtjørn" />
		<tag k="natural" v="water" />
		<tag k="ssr:stedsnr" v="243921" />
	</node>
	<node id="-356473" lat="58.4172027772" lon="7.56403889297">
		<tag k="alt_name" v="Jørensvatn" />
		<tag k="name" v="Jorunstjørn" />
		<tag k="natural" v="water" />
		<tag k="ssr:stedsnr" v="243878" />
	</node>
	<node id="-356467" lat="58.3588500035" lon="7.60201111115">
		<tag k="alt_name" v="Kråketjønn" />
		<tag k="name" v="Kråketjørn" />
		<tag k="natural" v="water" />
		<tag k="ssr:stedsnr" v="243789" />
	</node>
	<node id="-356462" lat="58.2342805575" lon="7.4363250079">
		<tag k="alt_name" v="Stokkevannet" />
		<tag k="name" v="Stokkevatnet" />
		<tag k="natural" v="water" />
		<tag k="ssr:stedsnr" v="243658" />
	</node>
	<node id="-356459" lat="58.3848749979" lon="7.48530555509">
		<tag k="alt_name" v="Indrejordstjønna" />
		<tag k="name" v="Indrejordstjørni" />
		<tag k="natural" v="water" />
		<tag k="ssr:stedsnr" v="242995" />
	</node>
	<node id="-356053" lat="58.3774499976" lon="7.4208249956">
		<tag k="fixme" v="multiple name tags, choose one and add the other to alt_name" />
		<tag k="name" v="Prestestemmen;Stemmen" />
		<tag k="natural" v="water" />
		<tag k="ssr:stedsnr" v="121944" />
	</node>
	<node id="-356454" lat="58.3116828907" lon="7.47496419144">
		<tag k="alt_name" v="Lammetjønn" />
		<tag k="name" v="Lammetjørn" />
		<tag k="natural" v="water" />
		<tag k="ssr:stedsnr" v="242744" />
	</node>
	<node id="-356452" lat="58.2507666707" lon="7.44841388471">
		<tag k="alt_name" v="Eptevannet" />
		<tag k="name" v="Eptevatnet" />
		<tag k="natural" v="water" />
		<tag k="ssr:stedsnr" v="242195" />
	</node>
	<node id="-356451" lat="58.1915611101" lon="7.61892499624">
		<tag k="alt_name" v="Stemtjønn" />
		<tag k="name" v="Stemmetjørna" />
		<tag k="natural" v="water" />
		<tag k="ssr:stedsnr" v="243722" />
	</node>
	<node id="-358496" lat="58.2086833363" lon="7.58064722724">
		<tag k="name" v="Krisjertjønn" />
		<tag k="natural" v="water" />
		<tag k="ssr:stedsnr" v="932923" />
	</node>
	<node id="-358491" lat="58.1958972268" lon="7.48845834022">
		<tag k="name" v="Vestre Kårstjønn" />
		<tag k="natural" v="water" />
		<tag k="ssr:stedsnr" v="932844" />
	</node>
	<node id="-358484" lat="58.1871527737" lon="7.49232500235">
		<tag k="name" v="Migeren" />
		<tag k="ssr:stedsnr" v="932783" />
		<tag k="waterway" v="stream" />
	</node>
	<node id="-358475" lat="58.1556999964" lon="7.65696944431">
		<tag k="name" v="Holetjønn" />
		<tag k="natural" v="water" />
		<tag k="ssr:stedsnr" v="932680" />
	</node>
	<node id="-358473" lat="58.179336109" lon="7.62961945102">
		<tag k="name" v="Bektjønn" />
		<tag k="natural" v="water" />
		<tag k="ssr:stedsnr" v="932610" />
	</node>
	<node id="-358472" lat="58.1768694439" lon="7.64807222432">
		<tag k="name" v="Kyraue" />
		<tag k="natural" v="water" />
		<tag k="ssr:stedsnr" v="932605" />
	</node>
	<node id="-358465" lat="58.2494305586" lon="7.55838610598">
		<tag k="name" v="Nedre Leintjønn" />
		<tag k="natural" v="water" />
		<tag k="ssr:stedsnr" v="932556" />
	</node>
	<node id="-358459" lat="58.2294999958" lon="7.62022221424">
		<tag k="name" v="Bjorhølen" />
		<tag k="place" v="locality" />
		<tag k="ssr:stedsnr" v="932522" />
	</node>
	<node id="-358458" lat="58.2335666638" lon="7.61383056253">
		<tag k="name" v="Høydalslona" />
		<tag k="natural" v="water" />
		<tag k="ssr:stedsnr" v="932517" />
		<tag k="water" v="lake" />
	</node>
	<node id="-358457" lat="58.2312555582" lon="7.60001111065">
		<tag k="name" v="Tangen" />
		<tag k="natural" v="cape" />
		<tag k="ssr:stedsnr" v="932515" />
	</node>
	<node id="-356406" lat="58.2401944452" lon="7.49215278029">
		<tag k="name" v="Koltjønn" />
		<tag k="natural" v="water" />
		<tag k="ssr:stedsnr" v="205811" />
	</node>
	<node id="-357385" lat="58.3959083306" lon="7.60112778175">
		<tag k="name" v="Tvitjønn" />
		<tag k="natural" v="water" />
		<tag k="ssr:stedsnr" v="628373" />
	</node>
	<node id="-356402" lat="58.1872638875" lon="7.62413054992">
		<tag k="name" v="Sautjønn" />
		<tag k="natural" v="water" />
		<tag k="ssr:stedsnr" v="205690" />
	</node>
	<node id="-356401" lat="58.1921222177" lon="7.63852499715">
		<tag k="name" v="Nordre Pottjønn" />
		<tag k="natural" v="water" />
		<tag k="ssr:stedsnr" v="205686" />
	</node>
	<node id="-358446" lat="58.2495999971" lon="7.44994722743">
		<tag k="name" v="Lyngodden" />
		<tag k="natural" v="cape" />
		<tag k="ssr:stedsnr" v="932461" />
	</node>
	<node id="-358445" lat="58.4011777738" lon="7.53134443667">
		<tag k="name" v="Laksekjerfossen" />
		<tag k="natural" v="waterfall" />
		<tag k="ssr:stedsnr" v="932458" />
	</node>
	<node id="-356388" lat="58.2097333302" lon="7.55096666676">
		<tag k="name" v="Johnsåstjønnan" />
		<tag k="natural" v="water" />
		<tag k="ssr:stedsnr" v="204961" />
	</node>
	<node id="-356386" lat="58.1608861083" lon="7.61192222696">
		<tag k="name" v="Skolandstjønn" />
		<tag k="natural" v="water" />
		<tag k="ssr:stedsnr" v="204948" />
	</node>
	<node id="-356385" lat="58.2004972247" lon="7.58123611287">
		<tag k="name" v="Illjerstjønn" />
		<tag k="natural" v="water" />
		<tag k="ssr:stedsnr" v="204941" />
	</node>
	<node id="-356384" lat="58.2032694403" lon="7.57293334171">
		<tag k="name" v="Poddetjønn" />
		<tag k="natural" v="water" />
		<tag k="ssr:stedsnr" v="204939" />
	</node>
	<node id="-356382" lat="58.1854361122" lon="7.53713611058">
		<tag k="name" v="Storeøy" />
		<tag k="place" v="islet" />
		<tag k="ssr:stedsnr" v="204893" />
	</node>
	<node id="-358425" lat="58.308444444" lon="7.48050000564">
		<tag k="name" v="Kvafossen" />
		<tag k="natural" v="waterfall" />
		<tag k="ssr:stedsnr" v="932321" />
	</node>
	<node id="-358422" lat="58.2226972207" lon="7.4091055614">
		<tag k="name" v="Maurholmen" />
		<tag k="place" v="islet" />
		<tag k="ssr:stedsnr" v="932298" />
	</node>
	<node id="-358418" lat="58.3793222261" lon="7.53191110786">
		<tag k="name" v="Skjeggestadkilen" />
		<tag k="natural" v="bay" />
		<tag k="ssr:stedsnr" v="932280" />
	</node>
	<node id="-356364" lat="58.1736749991" lon="7.63845000056">
		<tag k="name" v="Almedalstjønn" />
		<tag k="natural" v="water" />
		<tag k="ssr:stedsnr" v="204622" />
	</node>
	<node id="-358406" lat="58.4120638895" lon="7.48792222451">
		<tag k="name" v="Sogeheitjønn" />
		<tag k="natural" v="water" />
		<tag k="ssr:stedsnr" v="932229" />
	</node>
	<node id="-356354" lat="58.1983416648" lon="7.53216944215">
		<tag k="name" v="Regevika" />
		<tag k="natural" v="bay" />
		<tag k="ssr:stedsnr" v="204921" />
	</node>
	<node id="-356353" lat="58.1959055596" lon="7.53121111009">
		<tag k="name" v="Toppøy" />
		<tag k="place" v="islet" />
		<tag k="ssr:stedsnr" v="204917" />
	</node>
</osm>
