<?xml version="1.0" encoding="UTF-8"?>
<osm generator="osmapis" version="0.6">
	<node id="-358267" lat="58.1720444434" lon="7.55829444787">
		<tag k="amenity" v="community_centre" />
		<tag k="name" v="Høgtun" />
		<tag k="ssr:stedsnr" v="872645" />
	</node>
	<node id="-356600" lat="58.2042277765" lon="7.69324444442">
		<tag k="amenity" v="community_centre" />
		<tag k="name" v="Breland skole" />
		<tag k="ssr:stedsnr" v="265711" />
	</node>
	<node id="-356695" lat="58.1670000004" lon="7.55371389124">
		<tag k="amenity" v="place_of_worship" />
		<tag k="denomination" v="lutheran" />
		<tag k="name" v="Øyslebø" />
		<tag k="religion" v="christian" />
		<tag k="ssr:stedsnr" v="425820" />
	</node>
	<node id="-356819" lat="58.1710583358" lon="7.55967776953">
		<tag k="name" v="Mjålandstova" />
		<tag k="ssr:stedsnr" v="447603" />
		<tag k="tourism" v="attraction" />
	</node>
	<node id="-357938" lat="58.3800083365" lon="7.52780832932">
		<tag k="alt_name" v="Bjelland kyrkje" />
		<tag k="amenity" v="place_of_worship" />
		<tag k="denomination" v="lutheran" />
		<tag k="name" v="Bjelland" />
		<tag k="religion" v="christian" />
		<tag k="ssr:stedsnr" v="789000" />
	</node>
	<node id="-356620" lat="58.2011722237" lon="7.61078610796">
		<tag k="amenity" v="community_centre" />
		<tag k="name" v="Skogtun" />
		<tag k="ssr:stedsnr" v="265885" />
	</node>
	<node id="-357324" lat="58.1441861139" lon="7.68847778552">
		<tag k="name" v="Minas varde" />
		<tag k="ssr:stedsnr" v="628055" />
		<tag k="tourism" v="viewpoint" />
	</node>
	<node id="-356460" lat="58.2470166644" lon="7.50447500785">
		<tag k="amenity" v="place_of_worship" />
		<tag k="denomination" v="lutheran" />
		<tag k="name" v="Laudal" />
		<tag k="religion" v="christian" />
		<tag k="ssr:stedsnr" v="243627" />
	</node>
</osm>
