<?xml version="1.0" encoding="UTF-8"?>
<osm generator="osmapis" version="0.6">
	<node id="-358400" lat="58.2431416626" lon="7.5735944417">
		<tag k="name" v="Steane" />
		<tag k="place" v="locality" />
		<tag k="ssr:stedsnr" v="811027" />
	</node>
	<node id="-358392" lat="58.3483111119" lon="7.4939583402">
		<tag k="name" v="Langemyr" />
		<tag k="natural" v="wetland" />
		<tag k="ssr:stedsnr" v="789789" />
	</node>
	<node id="-356342" lat="58.1843138916" lon="7.56756944329">
		<tag k="name" v="Orremyr" />
		<tag k="natural" v="wetland" />
		<tag k="ssr:stedsnr" v="83619" />
	</node>
	<node id="-356331" lat="58.147730559" lon="7.59070277886">
		<tag k="name" v="Øygardsmyr" />
		<tag k="natural" v="wetland" />
		<tag k="ssr:stedsnr" v="83222" />
	</node>
	<node id="-356325" lat="58.3008194433" lon="7.45512500159">
		<tag k="name" v="Varåsmyra" />
		<tag k="natural" v="wetland" />
		<tag k="ssr:stedsnr" v="83126" />
	</node>
	<node id="-356322" lat="58.1686083317" lon="7.47425555838">
		<tag k="name" v="Langemyr" />
		<tag k="natural" v="wetland" />
		<tag k="ssr:stedsnr" v="83091" />
	</node>
	<node id="-356320" lat="58.440319447" lon="7.58254166485">
		<tag k="name" v="Tveitvannsholtan" />
		<tag k="place" v="locality" />
		<tag k="ssr:stedsnr" v="83082" />
	</node>
	<node id="-356319" lat="58.1850138929" lon="7.71673333602">
		<tag k="name" v="Peleboan" />
		<tag k="natural" v="wetland" />
		<tag k="ssr:stedsnr" v="83083" />
	</node>
	<node id="-356315" lat="58.3854027754" lon="7.62406665861">
		<tag k="name" v="Karten" />
		<tag k="natural" v="wetland" />
		<tag k="ssr:stedsnr" v="83074" />
	</node>
	<node id="-356314" lat="58.38869444" lon="7.63369721709">
		<tag k="name" v="Stemyr" />
		<tag k="place" v="locality" />
		<tag k="ssr:stedsnr" v="83059" />
	</node>
	<node id="-356312" lat="58.3654444475" lon="7.58989445025">
		<tag k="name" v="Slettebrokmyr" />
		<tag k="natural" v="wetland" />
		<tag k="ssr:stedsnr" v="83043" />
	</node>
	<node id="-356309" lat="58.1746500027" lon="7.58832777821">
		<tag k="name" v="Laksesteinen" />
		<tag k="natural" v="stone" />
		<tag k="ssr:stedsnr" v="83006" />
	</node>
	<node id="-356306" lat="58.350574996" lon="7.47381111764">
		<tag k="name" v="Stor-Stedjan" />
		<tag k="natural" v="wetland" />
		<tag k="ssr:stedsnr" v="83205" />
	</node>
	<node id="-356303" lat="58.3575944412" lon="7.45840278269">
		<tag k="name" v="Langemyr" />
		<tag k="natural" v="wetland" />
		<tag k="ssr:stedsnr" v="83188" />
	</node>
	<node id="-356301" lat="58.3429750036" lon="7.44042500589">
		<tag k="name" v="Sollimyr" />
		<tag k="natural" v="wetland" />
		<tag k="ssr:stedsnr" v="83177" />
	</node>
	<node id="-358347" lat="58.1801916662" lon="7.46444999221">
		<tag k="name" v="Østre Grimestadmyr" />
		<tag k="natural" v="wetland" />
		<tag k="ssr:stedsnr" v="751859" />
	</node>
	<node id="-358343" lat="58.2525694427" lon="7.47429166434">
		<tag k="name" v="Kringlemyrsteinen" />
		<tag k="natural" v="stone" />
		<tag k="ssr:stedsnr" v="751799" />
	</node>
	<node id="-358342" lat="58.1932583288" lon="7.66044165954">
		<tag k="name" v="Røyrmyr" />
		<tag k="natural" v="wetland" />
		<tag k="ssr:stedsnr" v="751712" />
	</node>
	<node id="-358333" lat="58.2006055599" lon="7.55143888648">
		<tag k="name" v="Bessemyr" />
		<tag k="natural" v="wetland" />
		<tag k="ssr:stedsnr" v="750966" />
	</node>
	<node id="-358332" lat="58.2024805577" lon="7.54990555592">
		<tag k="name" v="Flatåsmyr" />
		<tag k="natural" v="wetland" />
		<tag k="ssr:stedsnr" v="750963" />
	</node>
	<node id="-358329" lat="58.1563555589" lon="7.61082778253">
		<tag k="name" v="Kringlemyr" />
		<tag k="natural" v="wetland" />
		<tag k="ssr:stedsnr" v="750928" />
	</node>
	<node id="-358324" lat="58.1543833335" lon="7.48263056242">
		<tag k="name" v="Torvemyr" />
		<tag k="natural" v="wetland" />
		<tag k="ssr:stedsnr" v="750825" />
	</node>
	<node id="-358323" lat="58.154888889" lon="7.48642777574">
		<tag k="name" v="Molkemyr" />
		<tag k="natural" v="wetland" />
		<tag k="ssr:stedsnr" v="750824" />
	</node>
	<node id="-355997" lat="58.2246611136" lon="7.49744444782">
		<tag k="name" v="Einerdalsmyr" />
		<tag k="natural" v="wetland" />
		<tag k="ssr:stedsnr" v="386740" />
	</node>
	<node id="-358315" lat="58.2199666695" lon="7.47741388115">
		<tag k="name" v="Hjuringsmyr" />
		<tag k="natural" v="wetland" />
		<tag k="ssr:stedsnr" v="750736" />
	</node>
	<node id="-358314" lat="58.2295388856" lon="7.46310833444">
		<tag k="name" v="Leinelandsmyra" />
		<tag k="natural" v="wetland" />
		<tag k="ssr:stedsnr" v="750728" />
	</node>
	<node id="-358301" lat="58.1812999963" lon="7.53952499632">
		<tag k="name" v="Monen" />
		<tag k="place" v="locality" />
		<tag k="ssr:stedsnr" v="750610" />
	</node>
	<node id="-358296" lat="58.2439416651" lon="7.54973889129">
		<tag k="name" v="Hæmyr" />
		<tag k="natural" v="wetland" />
		<tag k="ssr:stedsnr" v="750585" />
	</node>
	<node id="-358294" lat="58.2470555538" lon="7.53500833896">
		<tag k="name" v="Hylmemyr" />
		<tag k="natural" v="wetland" />
		<tag k="ssr:stedsnr" v="750575" />
	</node>
	<node id="-358293" lat="58.2381694404" lon="7.52506666453">
		<tag k="name" v="Graudekjerret" />
		<tag k="natural" v="wetland" />
		<tag k="ssr:stedsnr" v="750571" />
	</node>
	<node id="-358292" lat="58.2266305515" lon="7.54401944961">
		<tag k="name" v="Foremonsmyr" />
		<tag k="natural" v="wetland" />
		<tag k="ssr:stedsnr" v="750565" />
	</node>
	<node id="-358289" lat="58.2283527743" lon="7.52167499615">
		<tag k="name" v="Nedre Galtekjerr" />
		<tag k="natural" v="wetland" />
		<tag k="ssr:stedsnr" v="750553" />
	</node>
	<node id="-358284" lat="58.223447225" lon="7.5859000042">
		<tag k="name" v="Olringsmyr" />
		<tag k="natural" v="wetland" />
		<tag k="ssr:stedsnr" v="750512" />
	</node>
	<node id="-358282" lat="58.2183777801" lon="7.60929721521">
		<tag k="landuse" v="meadow" />
		<tag k="name" v="Hessmyr" />
		<tag k="ssr:stedsnr" v="750502" />
	</node>
	<node id="-356233" lat="58.1821083288" lon="7.48887221917">
		<tag k="name" v="Staksmyr" />
		<tag k="natural" v="wetland" />
		<tag k="ssr:stedsnr" v="23862" />
	</node>
	<node id="-358276" lat="58.3949083309" lon="7.54731666585">
		<tag k="name" v="Nautårmyr" />
		<tag k="natural" v="wetland" />
		<tag k="ssr:stedsnr" v="750464" />
	</node>
	<node id="-358269" lat="58.2509694419" lon="7.43606667511">
		<tag k="name" v="Stemmyr" />
		<tag k="natural" v="wetland" />
		<tag k="ssr:stedsnr" v="750442" />
	</node>
	<node id="-358267" lat="58.3530777751" lon="7.5403722183">
		<tag k="name" v="Kringlemyr" />
		<tag k="natural" v="wetland" />
		<tag k="ssr:stedsnr" v="750421" />
	</node>
	<node id="-358265" lat="58.4432500016" lon="7.61687777972">
		<tag k="name" v="Nereholtan" />
		<tag k="place" v="locality" />
		<tag k="ssr:stedsnr" v="750416" />
	</node>
	<node id="-356214" lat="58.1529888904" lon="7.54592222636">
		<tag k="name" v="Store myr" />
		<tag k="natural" v="wetland" />
		<tag k="ssr:stedsnr" v="22982" />
	</node>
	<node id="-356213" lat="58.2018222188" lon="7.53445556285">
		<tag k="name" v="Bulikjerret" />
		<tag k="natural" v="wetland" />
		<tag k="ssr:stedsnr" v="22962" />
	</node>
	<node id="-358258" lat="58.3872194413" lon="7.48409444662">
		<tag k="name" v="Kjemen" />
		<tag k="place" v="locality" />
		<tag k="ssr:stedsnr" v="750334" />
	</node>
	<node id="-358256" lat="58.3952333363" lon="7.46690554991">
		<tag k="name" v="Dybland" />
		<tag k="natural" v="wetland" />
		<tag k="ssr:stedsnr" v="750330" />
	</node>
	<node id="-356206" lat="58.1997000043" lon="7.56078889039">
		<tag k="landuse" v="meadow" />
		<tag k="name" v="Dugan" />
		<tag k="ssr:stedsnr" v="22906" />
	</node>
	<node id="-356202" lat="58.2031972267" lon="7.51003334031">
		<tag k="name" v="Stemkjerret" />
		<tag k="natural" v="wetland" />
		<tag k="ssr:stedsnr" v="22821" />
	</node>
	<node id="-356199" lat="58.1815722238" lon="7.49709999463">
		<tag k="name" v="Volkesteinen" />
		<tag k="natural" v="stone" />
		<tag k="ssr:stedsnr" v="22806" />
	</node>
	<node id="-358242" lat="58.3835722187" lon="7.46071945097">
		<tag k="name" v="Knabemyr" />
		<tag k="natural" v="wetland" />
		<tag k="ssr:stedsnr" v="750119" />
	</node>
	<node id="-358239" lat="58.3792805523" lon="7.43215554883">
		<tag k="name" v="Indre Krokan" />
		<tag k="natural" v="wetland" />
		<tag k="ssr:stedsnr" v="750114" />
	</node>
	<node id="-358238" lat="58.3005805564" lon="7.41223888336">
		<tag k="name" v="Skaremyr" />
		<tag k="natural" v="wetland" />
		<tag k="ssr:stedsnr" v="750110" />
	</node>
	<node id="-358237" lat="58.3101194444" lon="7.43630000808">
		<tag k="name" v="Storemyran" />
		<tag k="natural" v="wetland" />
		<tag k="ssr:stedsnr" v="750104" />
	</node>
	<node id="-358234" lat="58.4432704759" lon="7.67585107095">
		<tag k="name" v="Skollemyrane" />
		<tag k="natural" v="wetland" />
		<tag k="ssr:stedsnr" v="750090" />
	</node>
	<node id="-356185" lat="58.1710777773" lon="7.52472221629">
		<tag k="name" v="Varsmyr" />
		<tag k="place" v="locality" />
		<tag k="ssr:stedsnr" v="22600" />
	</node>
	<node id="-358225" lat="58.1457722231" lon="7.68482500843">
		<tag k="name" v="Storemyra" />
		<tag k="natural" v="wetland" />
		<tag k="ssr:stedsnr" v="750047" />
	</node>
	<node id="-358223" lat="58.3615166626" lon="7.5737750021">
		<tag k="name" v="Bjønnskjerran" />
		<tag k="natural" v="wetland" />
		<tag k="ssr:stedsnr" v="750036" />
	</node>
	<node id="-358216" lat="58.1793083348" lon="7.57089722006">
		<tag k="name" v="Langedalsmyr" />
		<tag k="natural" v="wetland" />
		<tag k="ssr:stedsnr" v="750002" />
	</node>
	<node id="-358214" lat="58.2165861067" lon="7.62788055729">
		<tag k="name" v="Larsesmyr" />
		<tag k="natural" v="wetland" />
		<tag k="ssr:stedsnr" v="750296" />
	</node>
	<node id="-356164" lat="58.3453222262" lon="7.5374472198">
		<tag k="name" v="Djupemyr" />
		<tag k="natural" v="wetland" />
		<tag k="ssr:stedsnr" v="22417" />
	</node>
	<node id="-358210" lat="58.2952166664" lon="7.43493333358">
		<tag k="name" v="Vestre Skuggemyr" />
		<tag k="natural" v="wetland" />
		<tag k="ssr:stedsnr" v="750278" />
	</node>
	<node id="-356161" lat="58.4334472264" lon="7.61193610355">
		<tag k="name" v="Småmyran" />
		<tag k="natural" v="wetland" />
		<tag k="ssr:stedsnr" v="22409" />
	</node>
	<node id="-356157" lat="58.3090222263" lon="7.50133888516">
		<tag k="name" v="Ærkleivmyr" />
		<tag k="natural" v="wetland" />
		<tag k="ssr:stedsnr" v="22336" />
	</node>
	<node id="-356155" lat="58.3174500027" lon="7.48142777856">
		<tag k="name" v="Hessvannskarten" />
		<tag k="natural" v="wetland" />
		<tag k="ssr:stedsnr" v="22316" />
	</node>
	<node id="-356154" lat="58.3121944487" lon="7.46006111384">
		<tag k="name" v="Storemyr" />
		<tag k="natural" v="wetland" />
		<tag k="ssr:stedsnr" v="22308" />
	</node>
	<node id="-356150" lat="58.2270222213" lon="7.68901388973">
		<tag k="name" v="Djupemyr" />
		<tag k="natural" v="wetland" />
		<tag k="ssr:stedsnr" v="22293" />
	</node>
	<node id="-356144" lat="58.2297111097" lon="7.41853332703">
		<tag k="name" v="Kaddansmyran" />
		<tag k="natural" v="wetland" />
		<tag k="ssr:stedsnr" v="22258" />
	</node>
	<node id="-356136" lat="58.3586888929" lon="7.50285278556">
		<tag k="name" v="Liksteinen" />
		<tag k="natural" v="stone" />
		<tag k="ssr:stedsnr" v="22192" />
	</node>
	<node id="-356135" lat="58.3615555539" lon="7.49799999451">
		<tag k="name" v="Storemyr" />
		<tag k="natural" v="wetland" />
		<tag k="ssr:stedsnr" v="22190" />
	</node>
	<node id="-356133" lat="58.3507916657" lon="7.4596972204">
		<tag k="name" v="Ytre Fita" />
		<tag k="place" v="locality" />
		<tag k="ssr:stedsnr" v="22183" />
	</node>
	<node id="-356132" lat="58.3488083319" lon="7.43585554948">
		<tag k="name" v="Storemyr" />
		<tag k="natural" v="wetland" />
		<tag k="ssr:stedsnr" v="22180" />
	</node>
	<node id="-356127" lat="58.38269722" lon="7.4837194431">
		<tag k="name" v="Indrejordet" />
		<tag k="place" v="locality" />
		<tag k="ssr:stedsnr" v="22136" />
	</node>
	<node id="-356125" lat="58.3219138933" lon="7.46203333488">
		<tag k="name" v="Kartan" />
		<tag k="natural" v="wetland" />
		<tag k="ssr:stedsnr" v="22115" />
	</node>
	<node id="-356121" lat="58.1681750024" lon="7.48890555124">
		<tag k="name" v="Toppansmyr" />
		<tag k="natural" v="wetland" />
		<tag k="ssr:stedsnr" v="22087" />
	</node>
	<node id="-356111" lat="58.3775277765" lon="7.60390000709">
		<tag k="name" v="Sisremyr" />
		<tag k="natural" v="wetland" />
		<tag k="ssr:stedsnr" v="22035" />
	</node>
	<node id="-356109" lat="58.3756055514" lon="7.59754722103">
		<tag k="name" v="Djupemyr" />
		<tag k="natural" v="wetland" />
		<tag k="ssr:stedsnr" v="22028" />
	</node>
	<node id="-356108" lat="58.251974999" lon="7.58697499664">
		<tag k="name" v="Trælsjøl" />
		<tag k="natural" v="wetland" />
		<tag k="ssr:stedsnr" v="22024" />
	</node>
	<node id="-356095" lat="58.1786999984" lon="7.6405416702">
		<tag k="name" v="Flatåsen" />
		<tag k="place" v="locality" />
		<tag k="ssr:stedsnr" v="812" />
	</node>
	<node id="-358138" lat="58.1551388882" lon="7.53879999904">
		<tag k="name" v="Runnemyr" />
		<tag k="natural" v="wetland" />
		<tag k="ssr:stedsnr" v="690985" />
	</node>
	<node id="-358137" lat="58.1621611114" lon="7.53146111221">
		<tag k="name" v="Tersmyr" />
		<tag k="natural" v="wetland" />
		<tag k="ssr:stedsnr" v="690978" />
	</node>
	<node id="-358131" lat="58.1807888893" lon="7.48878889574">
		<tag k="name" v="Barlønnmyr" />
		<tag k="natural" v="wetland" />
		<tag k="ssr:stedsnr" v="690850" />
	</node>
	<node id="-358130" lat="58.248183333" lon="7.47669165964">
		<tag k="name" v="Øvste Hagemyr" />
		<tag k="natural" v="wetland" />
		<tag k="ssr:stedsnr" v="690821" />
	</node>
	<node id="-358126" lat="58.1690722258" lon="7.53899444943">
		<tag k="name" v="Gjømyr" />
		<tag k="natural" v="wetland" />
		<tag k="ssr:stedsnr" v="690784" />
	</node>
	<node id="-358123" lat="58.1961861084" lon="7.6318305625">
		<tag k="name" v="Trettebrotmyr" />
		<tag k="natural" v="wetland" />
		<tag k="ssr:stedsnr" v="690729" />
	</node>
	<node id="-358122" lat="58.1941472196" lon="7.64533610561">
		<tag k="name" v="Persmyr" />
		<tag k="natural" v="wetland" />
		<tag k="ssr:stedsnr" v="690727" />
	</node>
	<node id="-358119" lat="58.1987861149" lon="7.63180555099">
		<tag k="name" v="Vestre Auslandsmyr" />
		<tag k="natural" v="wetland" />
		<tag k="ssr:stedsnr" v="690709" />
	</node>
	<node id="-358107" lat="58.4209750001" lon="7.58021666416">
		<tag k="name" v="Hommekjerran" />
		<tag k="natural" v="wetland" />
		<tag k="ssr:stedsnr" v="690499" />
	</node>
	<node id="-358106" lat="58.3496916626" lon="7.51504166597">
		<tag k="name" v="Storemyr" />
		<tag k="natural" v="wetland" />
		<tag k="ssr:stedsnr" v="690481" />
	</node>
	<node id="-358103" lat="58.4500444413" lon="7.52041667376">
		<tag k="name" v="Austehagen" />
		<tag k="place" v="locality" />
		<tag k="ssr:stedsnr" v="690446" />
	</node>
	<node id="-358097" lat="58.3039916678" lon="7.49951389366">
		<tag k="name" v="Stedjan" />
		<tag k="natural" v="wetland" />
		<tag k="ssr:stedsnr" v="690402" />
	</node>
	<node id="-358096" lat="58.3100388871" lon="7.49106667204">
		<tag k="name" v="Silkeholtet" />
		<tag k="natural" v="wetland" />
		<tag k="ssr:stedsnr" v="690397" />
	</node>
	<node id="-358095" lat="58.2788805569" lon="7.48210000131">
		<tag k="name" v="Venemyr" />
		<tag k="natural" v="wetland" />
		<tag k="ssr:stedsnr" v="690378" />
	</node>
	<node id="-356046" lat="58.165772224" lon="7.6015999924">
		<tag k="name" v="Storemyr" />
		<tag k="place" v="locality" />
		<tag k="ssr:stedsnr" v="386994" />
	</node>
	<node id="-356040" lat="58.2075083326" lon="7.55550000734">
		<tag k="name" v="Solkronmyr" />
		<tag k="natural" v="wetland" />
		<tag k="ssr:stedsnr" v="386948" />
	</node>
	<node id="-358084" lat="58.3290944445" lon="7.55118056275">
		<tag k="name" v="Paddemyrstean" />
		<tag k="natural" v="wetland" />
		<tag k="ssr:stedsnr" v="690315" />
	</node>
	<node id="-356028" lat="58.1922472198" lon="7.50895000233">
		<tag k="name" v="Nottingsmyr" />
		<tag k="natural" v="wetland" />
		<tag k="ssr:stedsnr" v="386818" />
	</node>
	<node id="-356027" lat="58.2473888847" lon="7.48116110823">
		<tag k="name" v="Midtre Hagemyr" />
		<tag k="natural" v="wetland" />
		<tag k="ssr:stedsnr" v="386810" />
	</node>
	<node id="-356026" lat="58.2471861137" lon="7.48470832747">
		<tag k="name" v="Nedste Hagemyr" />
		<tag k="natural" v="wetland" />
		<tag k="ssr:stedsnr" v="386804" />
	</node>
	<node id="-356024" lat="58.2349277761" lon="7.46437500665">
		<tag k="name" v="Kjøglemyr" />
		<tag k="natural" v="wetland" />
		<tag k="ssr:stedsnr" v="386789" />
	</node>
	<node id="-358071" lat="58.1929083366" lon="7.59138055388">
		<tag k="name" v="Spirmyr" />
		<tag k="natural" v="wetland" />
		<tag k="ssr:stedsnr" v="689867" />
	</node>
	<node id="-358070" lat="58.1951972267" lon="7.61247778529">
		<tag k="name" v="Storemyr" />
		<tag k="natural" v="wetland" />
		<tag k="ssr:stedsnr" v="689863" />
	</node>
	<node id="-358068" lat="58.1927083366" lon="7.47538611673">
		<tag k="name" v="Storemyr" />
		<tag k="natural" v="wetland" />
		<tag k="ssr:stedsnr" v="689840" />
	</node>
	<node id="-355955" lat="58.3225833349" lon="7.55308054782">
		<tag k="name" v="Kartan" />
		<tag k="natural" v="wetland" />
		<tag k="ssr:stedsnr" v="386272" />
	</node>
	<node id="-358063" lat="58.1551333377" lon="7.48030277671">
		<tag k="name" v="Ormemyr" />
		<tag k="natural" v="wetland" />
		<tag k="ssr:stedsnr" v="689818" />
	</node>
	<node id="-358057" lat="58.2246194465" lon="7.47321110267">
		<tag k="name" v="Mannemyra" />
		<tag k="natural" v="wetland" />
		<tag k="ssr:stedsnr" v="689713" />
	</node>
	<node id="-358054" lat="58.1637527746" lon="7.66058610968">
		<tag k="name" v="Tollandsmyr" />
		<tag k="natural" v="wetland" />
		<tag k="ssr:stedsnr" v="689679" />
	</node>
	<node id="-358053" lat="58.1709777764" lon="7.53398332692">
		<tag k="name" v="Trågedalsmyr" />
		<tag k="natural" v="wetland" />
		<tag k="ssr:stedsnr" v="689562" />
	</node>
	<node id="-358051" lat="58.2465027785" lon="7.55035555266">
		<tag k="name" v="Lømyr" />
		<tag k="natural" v="wetland" />
		<tag k="ssr:stedsnr" v="689548" />
	</node>
	<node id="-355999" lat="58.2162583312" lon="7.59190277408">
		<tag k="name" v="Bjønnåsmyr" />
		<tag k="natural" v="wetland" />
		<tag k="ssr:stedsnr" v="386512" />
	</node>
	<node id="-355998" lat="58.166716671" lon="7.5243888864">
		<tag k="name" v="Åsekjerran" />
		<tag k="natural" v="wetland" />
		<tag k="ssr:stedsnr" v="386758" />
	</node>
	<node id="-358045" lat="58.2235111083" lon="7.58916665852">
		<tag k="name" v="Stakkslåtta" />
		<tag k="natural" v="wetland" />
		<tag k="ssr:stedsnr" v="689496" />
	</node>
	<node id="-358044" lat="58.2182638933" lon="7.60223889546">
		<tag k="name" v="Trogebekkstean" />
		<tag k="natural" v="wetland" />
		<tag k="ssr:stedsnr" v="689487" />
	</node>
	<node id="-358043" lat="58.2237333339" lon="7.60391389462">
		<tag k="name" v="Sjursmyr" />
		<tag k="natural" v="wetland" />
		<tag k="ssr:stedsnr" v="689485" />
	</node>
	<node id="-358041" lat="58.2319027746" lon="7.61821111961">
		<tag k="name" v="Kartemyr" />
		<tag k="natural" v="wetland" />
		<tag k="ssr:stedsnr" v="689475" />
	</node>
	<node id="-358040" lat="58.2729666693" lon="7.51524166582">
		<tag k="name" v="Torjedalen" />
		<tag k="natural" v="wetland" />
		<tag k="ssr:stedsnr" v="689474" />
	</node>
	<node id="-355991" lat="58.1548194436" lon="7.62561944922">
		<tag k="name" v="Fibelmyr" />
		<tag k="natural" v="wetland" />
		<tag k="ssr:stedsnr" v="386714" />
	</node>
	<node id="-355989" lat="58.2226888898" lon="7.6017444517">
		<tag k="name" v="Haslemyrstean" />
		<tag k="natural" v="wetland" />
		<tag k="ssr:stedsnr" v="386499" />
	</node>
	<node id="-355950" lat="58.409216666" lon="7.50495000773">
		<tag k="name" v="Slåtta" />
		<tag k="natural" v="wetland" />
		<tag k="ssr:stedsnr" v="386229" />
	</node>
	<node id="-358033" lat="58.2936416671" lon="7.39422222395">
		<tag k="name" v="Storemyr" />
		<tag k="natural" v="wetland" />
		<tag k="ssr:stedsnr" v="689433" />
	</node>
	<node id="-355983" lat="58.2471500043" lon="7.4457555608">
		<tag k="name" v="Trandlan" />
		<tag k="natural" v="wetland" />
		<tag k="ssr:stedsnr" v="386449" />
	</node>
	<node id="-358028" lat="58.2902666633" lon="7.45669721971">
		<tag k="name" v="Storemyr" />
		<tag k="natural" v="wetland" />
		<tag k="ssr:stedsnr" v="689321" />
	</node>
	<node id="-355979" lat="58.4229222234" lon="7.58576667003">
		<tag k="name" v="Åsmyr" />
		<tag k="natural" v="wetland" />
		<tag k="ssr:stedsnr" v="386436" />
	</node>
	<node id="-355977" lat="58.4235305572" lon="7.61285556276">
		<tag k="name" v="Dikesmyr" />
		<tag k="natural" v="wetland" />
		<tag k="ssr:stedsnr" v="386425" />
	</node>
	<node id="-358023" lat="58.3523722263" lon="7.50592222726">
		<tag k="name" v="Strandbarmyr" />
		<tag k="natural" v="wetland" />
		<tag k="ssr:stedsnr" v="689246" />
	</node>
	<node id="-358022" lat="58.355491666" lon="7.49464165998">
		<tag k="name" v="Fidjan" />
		<tag k="place" v="locality" />
		<tag k="ssr:stedsnr" v="689243" />
	</node>
	<node id="-358021" lat="58.3483944459" lon="7.47073056169">
		<tag k="name" v="Storemyr" />
		<tag k="natural" v="wetland" />
		<tag k="ssr:stedsnr" v="689234" />
	</node>
	<node id="-358020" lat="58.3629805572" lon="7.44628889173">
		<tag k="name" v="Rosåsmyr" />
		<tag k="natural" v="wetland" />
		<tag k="ssr:stedsnr" v="689218" />
	</node>
	<node id="-358016" lat="58.3837999985" lon="7.50237777117">
		<tag k="name" v="Krosfarmyr" />
		<tag k="natural" v="wetland" />
		<tag k="ssr:stedsnr" v="689181" />
	</node>
	<node id="-355966" lat="58.3889499985" lon="7.46862222579">
		<tag k="name" v="Revermyr" />
		<tag k="natural" v="wetland" />
		<tag k="ssr:stedsnr" v="386358" />
	</node>
	<node id="-358013" lat="58.3136416693" lon="7.42126667399">
		<tag k="name" v="Torvemyra" />
		<tag k="natural" v="wetland" />
		<tag k="ssr:stedsnr" v="689151" />
	</node>
	<node id="-355964" lat="58.21638056" lon="7.60265278338">
		<tag k="name" v="Grubbåsmyran" />
		<tag k="natural" v="wetland" />
		<tag k="ssr:stedsnr" v="386503" />
	</node>
	<node id="-358003" lat="58.3903611155" lon="7.62775832961">
		<tag k="name" v="Vestre karten" />
		<tag k="natural" v="wetland" />
		<tag k="ssr:stedsnr" v="689073" />
	</node>
	<node id="-355951" lat="58.1852388883" lon="7.57603610557">
		<tag k="name" v="Timremyr" />
		<tag k="natural" v="wetland" />
		<tag k="ssr:stedsnr" v="386243" />
	</node>
	<node id="-357998" lat="58.24963333" lon="7.58793610785">
		<tag k="name" v="Langemyr" />
		<tag k="natural" v="wetland" />
		<tag k="ssr:stedsnr" v="689034" />
	</node>
	<node id="-357997" lat="58.2413277743" lon="7.59445000223">
		<tag k="name" v="Granmyr" />
		<tag k="natural" v="wetland" />
		<tag k="ssr:stedsnr" v="689026" />
	</node>
	<node id="-357995" lat="58.1744583324" lon="7.60534444318">
		<tag k="name" v="Støngsmyr" />
		<tag k="natural" v="wetland" />
		<tag k="ssr:stedsnr" v="689018" />
	</node>
	<node id="-357990" lat="58.3816583362" lon="7.50972777784">
		<tag k="name" v="Prestemyri" />
		<tag k="natural" v="wetland" />
		<tag k="ssr:stedsnr" v="667996" />
	</node>
	<node id="-355934" lat="58.3416777741" lon="7.45746666405">
		<tag k="name" v="Torvmyra" />
		<tag k="natural" v="wetland" />
		<tag k="ssr:stedsnr" v="386355" />
	</node>
	<node id="-355929" lat="58.3337333352" lon="7.47033610742">
		<tag k="name" v="Torvemyr" />
		<tag k="natural" v="wetland" />
		<tag k="ssr:stedsnr" v="386339" />
	</node>
	<node id="-355928" lat="58.2818083351" lon="7.46918055664">
		<tag k="name" v="Djupemyr" />
		<tag k="natural" v="wetland" />
		<tag k="ssr:stedsnr" v="386328" />
	</node>
	<node id="-355927" lat="58.313280552" lon="7.48493611957">
		<tag k="name" v="Huset" />
		<tag k="place" v="locality" />
		<tag k="ssr:stedsnr" v="386316" />
	</node>
	<node id="-355926" lat="58.2187694409" lon="7.6508749976">
		<tag k="name" v="Spirmyr" />
		<tag k="natural" v="wetland" />
		<tag k="ssr:stedsnr" v="386314" />
	</node>
	<node id="-355921" lat="58.1661777786" lon="7.50644165957">
		<tag k="name" v="Vasstranda" />
		<tag k="natural" v="wetland" />
		<tag k="ssr:stedsnr" v="386093" />
	</node>
	<node id="-355918" lat="58.4192194405" lon="7.62095833517">
		<tag k="name" v="Løslåtta" />
		<tag k="natural" v="wetland" />
		<tag k="ssr:stedsnr" v="386084" />
	</node>
	<node id="-355914" lat="58.1478222217" lon="7.69147222361">
		<tag k="name" v="Bliksmyra" />
		<tag k="natural" v="wetland" />
		<tag k="ssr:stedsnr" v="386068" />
	</node>
	<node id="-355913" lat="58.144444447" lon="7.69976388901">
		<tag k="name" v="Rolighola" />
		<tag k="natural" v="wetland" />
		<tag k="ssr:stedsnr" v="386066" />
	</node>
	<node id="-355910" lat="58.3661333322" lon="7.59291943615">
		<tag k="name" v="Toneskjerran" />
		<tag k="natural" v="wetland" />
		<tag k="ssr:stedsnr" v="386058" />
	</node>
	<node id="-355906" lat="58.1717472238" lon="7.58065833485">
		<tag k="name" v="Sagemyr" />
		<tag k="natural" v="wetland" />
		<tag k="ssr:stedsnr" v="386024" />
	</node>
	<node id="-355904" lat="58.2468694428" lon="7.57773889365">
		<tag k="name" v="Kvæva" />
		<tag k="natural" v="wetland" />
		<tag k="ssr:stedsnr" v="386018" />
	</node>
	<node id="-355903" lat="58.1761805518" lon="7.59709166158">
		<tag k="name" v="Molandsmyr" />
		<tag k="natural" v="wetland" />
		<tag k="ssr:stedsnr" v="386004" />
	</node>
	<node id="-357926" lat="58.1786166681" lon="7.46298332879">
		<tag k="name" v="Røyren" />
		<tag k="natural" v="wetland" />
		<tag k="ssr:stedsnr" v="629847" />
	</node>
	<node id="-357923" lat="58.2452388926" lon="7.47415555872">
		<tag k="name" v="Raunsåsmyr" />
		<tag k="natural" v="wetland" />
		<tag k="ssr:stedsnr" v="629792" />
	</node>
	<node id="-357911" lat="58.2681861143" lon="7.43279166644">
		<tag k="name" v="Lauvåskjerret" />
		<tag k="natural" v="wetland" />
		<tag k="ssr:stedsnr" v="629330" />
	</node>
	<node id="-357906" lat="58.1502916644" lon="7.5516333418">
		<tag k="name" v="Skarperøys" />
		<tag k="natural" v="scree" />
		<tag k="ssr:stedsnr" v="628977" />
	</node>
	<node id="-357903" lat="58.1930611098" lon="7.55694722184">
		<tag k="name" v="Kartemyr" />
		<tag k="natural" v="wetland" />
		<tag k="ssr:stedsnr" v="628945" />
	</node>
	<node id="-356610" lat="58.2557777774" lon="7.55576944773">
		<tag k="name" v="Oljordsmyr" />
		<tag k="natural" v="wetland" />
		<tag k="ssr:stedsnr" v="143597" />
	</node>
	<node id="-355843" lat="58.1753305519" lon="7.50717222083">
		<tag k="name" v="Djupemyr" />
		<tag k="natural" v="wetland" />
		<tag k="ssr:stedsnr" v="326823" />
	</node>
	<node id="-355841" lat="58.1983166659" lon="7.64653889714">
		<tag k="name" v="Faksemyr" />
		<tag k="natural" v="wetland" />
		<tag k="ssr:stedsnr" v="326715" />
	</node>
	<node id="-355840" lat="58.1946611106" lon="7.63933889327">
		<tag k="name" v="Gofasmyr" />
		<tag k="natural" v="wetland" />
		<tag k="ssr:stedsnr" v="326711" />
	</node>
	<node id="-355839" lat="58.2026611118" lon="7.64584166651">
		<tag k="name" v="Forsemyr" />
		<tag k="natural" v="wetland" />
		<tag k="ssr:stedsnr" v="326706" />
	</node>
	<node id="-357884" lat="58.1537555571" lon="7.65066388844">
		<tag k="name" v="Steinars myr" />
		<tag k="natural" v="wetland" />
		<tag k="ssr:stedsnr" v="628704" />
	</node>
	<node id="-357883" lat="58.2062972224" lon="7.62890277022">
		<tag k="name" v="Smørmyr" />
		<tag k="natural" v="wetland" />
		<tag k="ssr:stedsnr" v="628689" />
	</node>
	<node id="-355831" lat="58.2667361147" lon="7.49636667059">
		<tag k="name" v="Kleivmyr" />
		<tag k="natural" v="wetland" />
		<tag k="ssr:stedsnr" v="326325" />
	</node>
	<node id="-355825" lat="58.1554888861" lon="7.53493611779">
		<tag k="name" v="Valåskjerret" />
		<tag k="natural" v="wetland" />
		<tag k="ssr:stedsnr" v="325977" />
	</node>
	<node id="-355824" lat="58.2032166701" lon="7.54699444611">
		<tag k="name" v="Flatåsholtan" />
		<tag k="place" v="locality" />
		<tag k="ssr:stedsnr" v="325960" />
	</node>
	<node id="-355823" lat="58.2108083308" lon="7.55826389711">
		<tag k="name" v="Langemyr" />
		<tag k="natural" v="wetland" />
		<tag k="ssr:stedsnr" v="325949" />
	</node>
	<node id="-357866" lat="58.2419611144" lon="7.55713889522">
		<tag k="name" v="Geitedalskjerret" />
		<tag k="natural" v="wetland" />
		<tag k="ssr:stedsnr" v="628560" />
	</node>
	<node id="-355816" lat="58.1950749989" lon="7.56737500282">
		<tag k="name" v="Holtan" />
		<tag k="place" v="locality" />
		<tag k="ssr:stedsnr" v="325904" />
	</node>
	<node id="-357860" lat="58.2151194421" lon="7.58339445295">
		<tag k="name" v="Pungestean" />
		<tag k="natural" v="wetland" />
		<tag k="ssr:stedsnr" v="628527" />
	</node>
	<node id="-355811" lat="58.1845361148" lon="7.55442778292">
		<tag k="name" v="Holemyr" />
		<tag k="natural" v="wetland" />
		<tag k="ssr:stedsnr" v="325883" />
	</node>
	<node id="-357857" lat="58.1868805528" lon="7.45662777361">
		<tag k="name" v="Gamlemyr" />
		<tag k="natural" v="wetland" />
		<tag k="ssr:stedsnr" v="628479" />
	</node>
	<node id="-357856" lat="58.1841944467" lon="7.44836389225">
		<tag k="name" v="Raglestadkarten" />
		<tag k="natural" v="wetland" />
		<tag k="ssr:stedsnr" v="628476" />
	</node>
	<node id="-355803" lat="58.1848222257" lon="7.50438334009">
		<tag k="name" v="Djupemyr" />
		<tag k="natural" v="wetland" />
		<tag k="ssr:stedsnr" v="325785" />
	</node>
	<node id="-357849" lat="58.2536805579" lon="7.43813332906">
		<tag k="name" v="Finnflaten" />
		<tag k="natural" v="wetland" />
		<tag k="ssr:stedsnr" v="628458" />
	</node>
	<node id="-357847" lat="58.4176777783" lon="7.5697361107">
		<tag k="name" v="Prestmyr" />
		<tag k="natural" v="wetland" />
		<tag k="ssr:stedsnr" v="628450" />
	</node>
	<node id="-357846" lat="58.4255083364" lon="7.58582500427">
		<tag k="name" v="Dyråsmyr" />
		<tag k="natural" v="wetland" />
		<tag k="ssr:stedsnr" v="628446" />
	</node>
	<node id="-357844" lat="58.3508194438" lon="7.5423805639">
		<tag k="name" v="Røyrmyr" />
		<tag k="natural" v="wetland" />
		<tag k="ssr:stedsnr" v="628428" />
	</node>
	<node id="-357838" lat="58.4515722256" lon="7.55702778359">
		<tag k="name" v="Strandbarmyr" />
		<tag k="natural" v="wetland" />
		<tag k="ssr:stedsnr" v="628397" />
	</node>
	<node id="-357835" lat="58.4578999989" lon="7.53680556069">
		<tag k="name" v="Tilkjerran" />
		<tag k="natural" v="wetland" />
		<tag k="ssr:stedsnr" v="628387" />
	</node>
	<node id="-357833" lat="58.4680527775" lon="7.52235277235">
		<tag k="name" v="Dyblemyr" />
		<tag k="natural" v="wetland" />
		<tag k="ssr:stedsnr" v="628379" />
	</node>
	<node id="-355781" lat="58.2898305572" lon="7.53726388573">
		<tag k="name" v="Småstean" />
		<tag k="natural" v="wetland" />
		<tag k="ssr:stedsnr" v="325510" />
	</node>
	<node id="-355779" lat="58.2816277808" lon="7.53253888471">
		<tag k="name" v="Fusskjerran" />
		<tag k="natural" v="wetland" />
		<tag k="ssr:stedsnr" v="325495" />
	</node>
	<node id="-357826" lat="58.3996944466" lon="7.45555278174">
		<tag k="name" v="Marislåtta" />
		<tag k="natural" v="wetland" />
		<tag k="ssr:stedsnr" v="628337" />
	</node>
	<node id="-357825" lat="58.3376388867" lon="7.46604166758">
		<tag k="name" v="Tjønnmyr" />
		<tag k="natural" v="wetland" />
		<tag k="ssr:stedsnr" v="628334" />
	</node>
	<node id="-357824" lat="58.3192583322" lon="7.49005554944">
		<tag k="name" v="Ljosemyr" />
		<tag k="natural" v="wetland" />
		<tag k="ssr:stedsnr" v="628330" />
	</node>
	<node id="-357823" lat="58.3198749959" lon="7.48054721897">
		<tag k="name" v="Småstedjan" />
		<tag k="natural" v="wetland" />
		<tag k="ssr:stedsnr" v="628327" />
	</node>
	<node id="-357822" lat="58.2180166644" lon="7.63098055953">
		<tag k="name" v="Dyblemyr" />
		<tag k="natural" v="wetland" />
		<tag k="ssr:stedsnr" v="628318" />
	</node>
	<node id="-357821" lat="58.2177333365" lon="7.66423055796">
		<tag k="name" v="Gillarmyr" />
		<tag k="natural" v="wetland" />
		<tag k="ssr:stedsnr" v="628314" />
	</node>
	<node id="-355771" lat="58.4169833343" lon="7.60966944326">
		<tag k="name" v="Bjønnjordslåtta" />
		<tag k="natural" v="wetland" />
		<tag k="ssr:stedsnr" v="325460" />
	</node>
	<node id="-357818" lat="58.2932472226" lon="7.45069443666">
		<tag k="name" v="Holemyr" />
		<tag k="natural" v="wetland" />
		<tag k="ssr:stedsnr" v="628306" />
	</node>
	<node id="-357816" lat="58.285583333" lon="7.42779444827">
		<tag k="name" v="Kartemyr" />
		<tag k="natural" v="wetland" />
		<tag k="ssr:stedsnr" v="628299" />
	</node>
	<node id="-355767" lat="58.4398277803" lon="7.61155000393">
		<tag k="name" v="Kvernhusmyr" />
		<tag k="natural" v="wetland" />
		<tag k="ssr:stedsnr" v="325432" />
	</node>
	<node id="-357812" lat="58.323008332" lon="7.55623889619">
		<tag k="name" v="Dragemyr" />
		<tag k="natural" v="wetland" />
		<tag k="ssr:stedsnr" v="628276" />
	</node>
	<node id="-357811" lat="58.3256861092" lon="7.5503638921">
		<tag k="name" v="Småmyran" />
		<tag k="natural" v="wetland" />
		<tag k="ssr:stedsnr" v="628273" />
	</node>
	<node id="-357810" lat="58.3257305567" lon="7.54410278387">
		<tag k="name" v="Stemmen" />
		<tag k="natural" v="wetland" />
		<tag k="ssr:stedsnr" v="628270" />
	</node>
	<node id="-357807" lat="58.3337861125" lon="7.54740833692">
		<tag k="name" v="Harebakk-kjerran" />
		<tag k="natural" v="wetland" />
		<tag k="ssr:stedsnr" v="628255" />
	</node>
	<node id="-357802" lat="58.2201111148" lon="7.42396666451">
		<tag k="name" v="Hønelandskarten" />
		<tag k="natural" v="wetland" />
		<tag k="ssr:stedsnr" v="628242" />
	</node>
	<node id="-355753" lat="58.2284055583" lon="7.4504277845">
		<tag k="name" v="Kvitemyr" />
		<tag k="natural" v="wetland" />
		<tag k="ssr:stedsnr" v="325278" />
	</node>
	<node id="-357800" lat="58.3540277789" lon="7.4959194526">
		<tag k="name" v="Tustedjan" />
		<tag k="natural" v="wetland" />
		<tag k="ssr:stedsnr" v="628215" />
	</node>
	<node id="-357798" lat="58.3571333305" lon="7.49999444872">
		<tag k="name" v="Liksteinsmyra" />
		<tag k="natural" v="wetland" />
		<tag k="ssr:stedsnr" v="628204" />
	</node>
	<node id="-357794" lat="58.3805972205" lon="7.50827222141">
		<tag k="name" v="Graskjerran" />
		<tag k="natural" v="wetland" />
		<tag k="ssr:stedsnr" v="628163" />
	</node>
	<node id="-357791" lat="58.3758944443" lon="7.44945000614">
		<tag k="name" v="Dyblemyr" />
		<tag k="natural" v="wetland" />
		<tag k="ssr:stedsnr" v="628138" />
	</node>
	<node id="-355742" lat="58.4011527779" lon="7.57099445227">
		<tag k="name" v="Slåttan" />
		<tag k="natural" v="wetland" />
		<tag k="ssr:stedsnr" v="325387" />
	</node>
	<node id="-357789" lat="58.3056888878" lon="7.42996945134">
		<tag k="name" v="Bjørkelislåtta" />
		<tag k="natural" v="wetland" />
		<tag k="ssr:stedsnr" v="628130" />
	</node>
	<node id="-357787" lat="58.3145138922" lon="7.44010833083">
		<tag k="name" v="Lensmannskrogen" />
		<tag k="natural" v="wetland" />
		<tag k="ssr:stedsnr" v="628123" />
	</node>
	<node id="-357784" lat="58.4416805551" lon="7.63559444598">
		<tag k="name" v="Moltemyr" />
		<tag k="natural" v="wetland" />
		<tag k="ssr:stedsnr" v="628105" />
	</node>
	<node id="-355735" lat="58.4019500005" lon="7.47796666741">
		<tag k="name" v="Storåker" />
		<tag k="place" v="locality" />
		<tag k="ssr:stedsnr" v="325358" />
	</node>
	<node id="-357782" lat="58.4433638861" lon="7.62157500601">
		<tag k="name" v="Kaddansmyra" />
		<tag k="natural" v="wetland" />
		<tag k="ssr:stedsnr" v="628100" />
	</node>
	<node id="-355732" lat="58.3278944459" lon="7.4733749927">
		<tag k="name" v="Kartemyr" />
		<tag k="natural" v="wetland" />
		<tag k="ssr:stedsnr" v="325351" />
	</node>
	<node id="-355729" lat="58.3195555541" lon="7.45757500039">
		<tag k="name" v="Steibremyra" />
		<tag k="natural" v="wetland" />
		<tag k="ssr:stedsnr" v="325331" />
	</node>
	<node id="-357776" lat="58.4218000005" lon="7.62502777442">
		<tag k="name" v="Runnamyr" />
		<tag k="natural" v="wetland" />
		<tag k="ssr:stedsnr" v="628075" />
	</node>
	<node id="-356930" lat="58.3787388927" lon="7.59423332793">
		<tag k="name" v="Andersmyr" />
		<tag k="natural" v="wetland" />
		<tag k="ssr:stedsnr" v="265025" />
	</node>
	<node id="-355719" lat="58.3761055555" lon="7.49145277067">
		<tag k="name" v="Ølemyr" />
		<tag k="natural" v="wetland" />
		<tag k="ssr:stedsnr" v="325181" />
	</node>
	<node id="-355717" lat="58.3805111098" lon="7.47546666091">
		<tag k="name" v="Orresteinen" />
		<tag k="natural" v="stone" />
		<tag k="ssr:stedsnr" v="325164" />
	</node>
	<node id="-357762" lat="58.4028249975" lon="7.60822222742">
		<tag k="alt_name" v="Kalvedalsmyr" />
		<tag k="name" v="Kalvedalsmyra" />
		<tag k="natural" v="wetland" />
		<tag k="ssr:stedsnr" v="606987" />
	</node>
	<node id="-355713" lat="58.3239972226" lon="7.4649444446">
		<tag k="name" v="Klovsteinen" />
		<tag k="natural" v="stone" />
		<tag k="ssr:stedsnr" v="325130" />
	</node>
	<node id="-355708" lat="58.1626694435" lon="7.50788333942">
		<tag k="name" v="Risbergmyr" />
		<tag k="natural" v="wetland" />
		<tag k="ssr:stedsnr" v="325116" />
	</node>
	<node id="-355707" lat="58.1597111076" lon="7.4795055563">
		<tag k="name" v="Ånsmyr" />
		<tag k="natural" v="wetland" />
		<tag k="ssr:stedsnr" v="325113" />
	</node>
	<node id="-355692" lat="58.3653277794" lon="7.60889165985">
		<tag k="name" v="Dalkjerran" />
		<tag k="natural" v="wetland" />
		<tag k="ssr:stedsnr" v="325028" />
	</node>
	<node id="-355691" lat="58.1769916657" lon="7.61762778025">
		<tag k="name" v="Eldhusmyr" />
		<tag k="natural" v="wetland" />
		<tag k="ssr:stedsnr" v="325015" />
	</node>
	<node id="-355685" lat="58.3583166635" lon="7.45653056069">
		<tag k="name" v="Torvmyr" />
		<tag k="natural" v="wetland" />
		<tag k="ssr:stedsnr" v="325220" />
	</node>
	<node id="-355675" lat="58.3785555535" lon="7.43705833824">
		<tag k="alt_name" v="Skogsmyra" />
		<tag k="name" v="Skogsmyri" />
		<tag k="natural" v="wetland" />
		<tag k="ssr:stedsnr" v="303998" />
	</node>
	<node id="-355667" lat="58.3345611079" lon="7.45843056021">
		<tag k="name" v="Stigemyr" />
		<tag k="natural" v="wetland" />
		<tag k="ssr:stedsnr" v="303795" />
	</node>
	<node id="-357706" lat="58.1622055513" lon="7.51843889218">
		<tag k="name" v="Røyrkjerran" />
		<tag k="natural" v="wetland" />
		<tag k="ssr:stedsnr" v="568972" />
	</node>
	<node id="-357705" lat="58.2065916703" lon="7.54187778443">
		<tag k="name" v="Fuglemyr" />
		<tag k="natural" v="wetland" />
		<tag k="ssr:stedsnr" v="568966" />
	</node>
	<node id="-357694" lat="58.1821277812" lon="7.55427778304">
		<tag k="name" v="Disemyr" />
		<tag k="natural" v="wetland" />
		<tag k="ssr:stedsnr" v="568899" />
	</node>
	<node id="-357692" lat="58.1912805522" lon="7.54802500377">
		<tag k="name" v="Stampemyr" />
		<tag k="natural" v="wetland" />
		<tag k="ssr:stedsnr" v="568884" />
	</node>
	<node id="-357690" lat="58.1973500044" lon="7.57409166294">
		<tag k="name" v="Stedjan" />
		<tag k="natural" v="wetland" />
		<tag k="ssr:stedsnr" v="568876" />
	</node>
	<node id="-357685" lat="58.156058333" lon="7.48915278417">
		<tag k="name" v="Varsmyr" />
		<tag k="natural" v="wetland" />
		<tag k="ssr:stedsnr" v="568846" />
	</node>
	<node id="-357683" lat="58.1568694477" lon="7.48296110365">
		<tag k="name" v="Langemyr" />
		<tag k="natural" v="wetland" />
		<tag k="ssr:stedsnr" v="568841" />
	</node>
	<node id="-357681" lat="58.1557833295" lon="7.47770278304">
		<tag k="name" v="Tobakksmyr" />
		<tag k="natural" v="wetland" />
		<tag k="ssr:stedsnr" v="568834" />
	</node>
	<node id="-357659" lat="58.2239583325" lon="7.47704166428">
		<tag k="name" v="Surtemyr" />
		<tag k="natural" v="wetland" />
		<tag k="ssr:stedsnr" v="568740" />
	</node>
	<node id="-357658" lat="58.2581500006" lon="7.53258610363">
		<tag k="name" v="Kartemyr" />
		<tag k="natural" v="wetland" />
		<tag k="ssr:stedsnr" v="568721" />
	</node>
	<node id="-357653" lat="58.2099111108" lon="7.62591389737">
		<tag k="name" v="Holtan" />
		<tag k="place" v="locality" />
		<tag k="ssr:stedsnr" v="568695" />
	</node>
	<node id="-357652" lat="58.1588416654" lon="7.70566388249">
		<tag k="name" v="Slåtemyr" />
		<tag k="natural" v="wetland" />
		<tag k="ssr:stedsnr" v="568688" />
	</node>
	<node id="-357649" lat="58.1987333309" lon="7.65979444599">
		<tag k="name" v="Stedjan" />
		<tag k="natural" v="wetland" />
		<tag k="ssr:stedsnr" v="568678" />
	</node>
	<node id="-357647" lat="58.2084611105" lon="7.72913055555">
		<tag k="name" v="Sandmyr" />
		<tag k="natural" v="wetland" />
		<tag k="ssr:stedsnr" v="568656" />
	</node>
	<node id="-357637" lat="58.2378333339" lon="7.5331638886">
		<tag k="name" v="Lømyr" />
		<tag k="natural" v="wetland" />
		<tag k="ssr:stedsnr" v="568562" />
	</node>
	<node id="-357636" lat="58.2375166702" lon="7.55734445118">
		<tag k="name" v="Gjelskjerret" />
		<tag k="natural" v="wetland" />
		<tag k="ssr:stedsnr" v="568553" />
	</node>
	<node id="-357632" lat="58.2288222184" lon="7.60611389609">
		<tag k="name" v="Floddemyr" />
		<tag k="natural" v="wetland" />
		<tag k="ssr:stedsnr" v="568511" />
	</node>
	<node id="-357631" lat="58.2280194431" lon="7.58462777548">
		<tag k="name" v="Langekjerran" />
		<tag k="natural" v="wetland" />
		<tag k="ssr:stedsnr" v="568503" />
	</node>
	<node id="-357629" lat="58.2916194464" lon="7.54521111874">
		<tag k="name" v="Opskjerran" />
		<tag k="natural" v="wetland" />
		<tag k="ssr:stedsnr" v="568493" />
	</node>
	<node id="-356774" lat="58.3042666648" lon="7.51072499577">
		<tag k="name" v="Æremyr" />
		<tag k="place" v="locality" />
		<tag k="ssr:stedsnr" v="204313" />
	</node>
	<node id="-357621" lat="58.4150777799" lon="7.61821389231">
		<tag k="name" v="Gunsteinsmyr" />
		<tag k="natural" v="wetland" />
		<tag k="ssr:stedsnr" v="568435" />
	</node>
	<node id="-357616" lat="58.3870166637" lon="7.57271388767">
		<tag k="name" v="Snaddan" />
		<tag k="natural" v="wetland" />
		<tag k="ssr:stedsnr" v="568395" />
	</node>
	<node id="-357614" lat="58.3881333343" lon="7.50145833779">
		<tag k="name" v="Gildremyr" />
		<tag k="natural" v="wetland" />
		<tag k="ssr:stedsnr" v="568385" />
	</node>
	<node id="-357611" lat="58.2732972231" lon="7.50268055723">
		<tag k="name" v="Stømyr" />
		<tag k="natural" v="wetland" />
		<tag k="ssr:stedsnr" v="568378" />
	</node>
	<node id="-357604" lat="58.3184333378" lon="7.49234166743">
		<tag k="name" v="Langemyr" />
		<tag k="natural" v="wetland" />
		<tag k="ssr:stedsnr" v="568345" />
	</node>
	<node id="-357603" lat="58.2792722258" lon="7.48778332567">
		<tag k="name" v="Teråsmyr" />
		<tag k="natural" v="wetland" />
		<tag k="ssr:stedsnr" v="568343" />
	</node>
	<node id="-357599" lat="58.2663722227" lon="7.50366388621">
		<tag k="name" v="Bekkestean" />
		<tag k="natural" v="wetland" />
		<tag k="ssr:stedsnr" v="568316" />
	</node>
	<node id="-357597" lat="58.2962583319" lon="7.40954999496">
		<tag k="name" v="Hunsdalsmyr" />
		<tag k="natural" v="wetland" />
		<tag k="ssr:stedsnr" v="568312" />
	</node>
	<node id="-357596" lat="58.3568805564" lon="7.5491972191">
		<tag k="name" v="Slåttan" />
		<tag k="place" v="locality" />
		<tag k="ssr:stedsnr" v="568304" />
	</node>
	<node id="-357595" lat="58.3574499987" lon="7.54370833236">
		<tag k="name" v="Kartemyr" />
		<tag k="natural" v="wetland" />
		<tag k="ssr:stedsnr" v="568305" />
	</node>
	<node id="-357594" lat="58.2821722221" lon="7.44367221599">
		<tag k="name" v="Flagedalskjerrane" />
		<tag k="natural" v="wetland" />
		<tag k="ssr:stedsnr" v="568294" />
	</node>
	<node id="-357593" lat="58.3801166692" lon="7.562299992">
		<tag k="name" v="Hellesbrokkmyra" />
		<tag k="natural" v="wetland" />
		<tag k="ssr:stedsnr" v="568290" />
	</node>
	<node id="-357592" lat="58.293830553" lon="7.47570555691">
		<tag k="name" v="Laudalsmyr" />
		<tag k="natural" v="wetland" />
		<tag k="ssr:stedsnr" v="568283" />
	</node>
	<node id="-357584" lat="58.1840416651" lon="7.57273056301">
		<tag k="name" v="Krossmyr" />
		<tag k="natural" v="wetland" />
		<tag k="ssr:stedsnr" v="568246" />
	</node>
	<node id="-357580" lat="58.344922226" lon="7.49947777077">
		<tag k="name" v="Bustjønnstean" />
		<tag k="natural" v="wetland" />
		<tag k="ssr:stedsnr" v="568223" />
	</node>
	<node id="-357579" lat="58.3441027758" lon="7.48541110816">
		<tag k="name" v="Storemyran" />
		<tag k="natural" v="wetland" />
		<tag k="ssr:stedsnr" v="568215" />
	</node>
	<node id="-357576" lat="58.3739277753" lon="7.46303889435">
		<tag k="name" v="Brumyr" />
		<tag k="natural" v="wetland" />
		<tag k="ssr:stedsnr" v="568169" />
	</node>
	<node id="-357575" lat="58.36471111" lon="7.43730834004">
		<tag k="name" v="Stølsmyr" />
		<tag k="natural" v="wetland" />
		<tag k="ssr:stedsnr" v="568159" />
	</node>
	<node id="-357570" lat="58.3104694476" lon="7.45599167254">
		<tag k="name" v="Furebakkmyr" />
		<tag k="natural" v="wetland" />
		<tag k="ssr:stedsnr" v="568132" />
	</node>
	<node id="-357566" lat="58.3750833346" lon="7.635116669">
		<tag k="name" v="Stormyr" />
		<tag k="natural" v="wetland" />
		<tag k="ssr:stedsnr" v="568091" />
	</node>
	<node id="-357565" lat="58.4257305536" lon="7.64814722056">
		<tag k="name" v="Dugnesmyr" />
		<tag k="natural" v="wetland" />
		<tag k="ssr:stedsnr" v="568083" />
	</node>
	<node id="-357562" lat="58.3729583289" lon="7.58057221902">
		<tag k="name" v="Søyran" />
		<tag k="natural" v="wetland" />
		<tag k="ssr:stedsnr" v="568055" />
	</node>
	<node id="-357557" lat="58.2382555529" lon="7.59150555881">
		<tag k="name" v="Storemyr" />
		<tag k="natural" v="wetland" />
		<tag k="ssr:stedsnr" v="568018" />
	</node>
	<node id="-357556" lat="58.1734777814" lon="7.61735833607">
		<tag k="name" v="Rundemyr" />
		<tag k="natural" v="wetland" />
		<tag k="ssr:stedsnr" v="568009" />
	</node>
	<node id="-357473" lat="58.2812249969" lon="7.49058055838">
		<tag k="name" v="Djupemyr" />
		<tag k="natural" v="wetland" />
		<tag k="ssr:stedsnr" v="508362" />
	</node>
	<node id="-357466" lat="58.1565638872" lon="7.53179722805">
		<tag k="name" v="Svenskekjerret" />
		<tag k="natural" v="wetland" />
		<tag k="ssr:stedsnr" v="507980" />
	</node>
	<node id="-356194" lat="58.1684583367" lon="7.67727499567">
		<tag k="name" v="Ormemyr" />
		<tag k="place" v="locality" />
		<tag k="ssr:stedsnr" v="22733" />
	</node>
	<node id="-357450" lat="58.2587638872" lon="7.55875277969">
		<tag k="name" v="Lauvslandsstean" />
		<tag k="natural" v="wetland" />
		<tag k="ssr:stedsnr" v="507758" />
	</node>
	<node id="-357446" lat="58.2119055535" lon="7.64415555071">
		<tag k="name" v="Stimyr" />
		<tag k="natural" v="wetland" />
		<tag k="ssr:stedsnr" v="507718" />
	</node>
	<node id="-357439" lat="58.2500416703" lon="7.54849443764">
		<tag k="name" v="Lægemyr" />
		<tag k="natural" v="wetland" />
		<tag k="ssr:stedsnr" v="507597" />
	</node>
	<node id="-357438" lat="58.2460111137" lon="7.55603888529">
		<tag k="name" v="Jakobsmyr" />
		<tag k="natural" v="wetland" />
		<tag k="ssr:stedsnr" v="507588" />
	</node>
	<node id="-357436" lat="58.2362833293" lon="7.55446665967">
		<tag k="name" v="Digesmyr" />
		<tag k="natural" v="wetland" />
		<tag k="ssr:stedsnr" v="507573" />
	</node>
	<node id="-357432" lat="58.2201361152" lon="7.54597777614">
		<tag k="name" v="Stedjan" />
		<tag k="place" v="locality" />
		<tag k="ssr:stedsnr" v="507562" />
	</node>
	<node id="-357429" lat="58.2215222186" lon="7.61793611354">
		<tag k="name" v="Leite" />
		<tag k="place" v="locality" />
		<tag k="ssr:stedsnr" v="507540" />
	</node>
	<node id="-356189" lat="58.1528749977" lon="7.66810832931">
		<tag k="name" v="Løemyr" />
		<tag k="place" v="locality" />
		<tag k="ssr:stedsnr" v="22709" />
	</node>
	<node id="-357415" lat="58.4045388901" lon="7.52484721927">
		<tag k="name" v="Skrømtestein" />
		<tag k="natural" v="stone" />
		<tag k="ssr:stedsnr" v="507446" />
	</node>
	<node id="-357412" lat="58.3439305563" lon="7.52824444352">
		<tag k="name" v="Risesteinen" />
		<tag k="natural" v="stone" />
		<tag k="ssr:stedsnr" v="507423" />
	</node>
	<node id="-357411" lat="58.2941694435" lon="7.39202500816">
		<tag k="name" v="Langakjerran" />
		<tag k="natural" v="wetland" />
		<tag k="ssr:stedsnr" v="507425" />
	</node>
	<node id="-357409" lat="58.444302776" lon="7.55776110702">
		<tag k="name" v="Årlismyr" />
		<tag k="natural" v="wetland" />
		<tag k="ssr:stedsnr" v="507392" />
	</node>
	<node id="-356186" lat="58.1748916657" lon="7.63620555791">
		<tag k="name" v="Langemyr" />
		<tag k="natural" v="wetland" />
		<tag k="ssr:stedsnr" v="22637" />
	</node>
	<node id="-357400" lat="58.3918916666" lon="7.47417499629">
		<tag k="name" v="Langemyr" />
		<tag k="natural" v="wetland" />
		<tag k="ssr:stedsnr" v="507338" />
	</node>
	<node id="-357398" lat="58.3005361152" lon="7.46741111817">
		<tag k="name" v="Varåskjerret" />
		<tag k="natural" v="wetland" />
		<tag k="ssr:stedsnr" v="507334" />
	</node>
	<node id="-357392" lat="58.3156861113" lon="7.48437777796">
		<tag k="name" v="Vassmyr" />
		<tag k="natural" v="wetland" />
		<tag k="ssr:stedsnr" v="507319" />
	</node>
	<node id="-357391" lat="58.3137833345" lon="7.46841110776">
		<tag k="name" v="Steggan" />
		<tag k="place" v="locality" />
		<tag k="ssr:stedsnr" v="507306" />
	</node>
	<node id="-357388" lat="58.365586113" lon="7.51775833089">
		<tag k="name" v="Leitesmyra" />
		<tag k="natural" v="wetland" />
		<tag k="ssr:stedsnr" v="507290" />
	</node>
	<node id="-357386" lat="58.3601638923" lon="7.52643054816">
		<tag k="name" v="Hagen" />
		<tag k="place" v="locality" />
		<tag k="ssr:stedsnr" v="507286" />
	</node>
	<node id="-357383" lat="58.3733499993" lon="7.5400111178">
		<tag k="name" v="Gauksmyr" />
		<tag k="natural" v="wetland" />
		<tag k="ssr:stedsnr" v="507266" />
	</node>
	<node id="-357382" lat="58.2389361123" lon="7.4573861161">
		<tag k="name" v="Graskringla" />
		<tag k="natural" v="wetland" />
		<tag k="ssr:stedsnr" v="507264" />
	</node>
	<node id="-357375" lat="58.3567277744" lon="7.44410834035">
		<tag k="name" v="Skiljebakkmyr" />
		<tag k="natural" v="wetland" />
		<tag k="ssr:stedsnr" v="507194" />
	</node>
	<node id="-357374" lat="58.3501805546" lon="7.44676943864">
		<tag k="name" v="Eikåsmyr" />
		<tag k="natural" v="wetland" />
		<tag k="ssr:stedsnr" v="507192" />
	</node>
	<node id="-357373" lat="58.3671111148" lon="7.45641945106">
		<tag k="name" v="Skiftåsmyr" />
		<tag k="natural" v="wetland" />
		<tag k="ssr:stedsnr" v="507180" />
	</node>
	<node id="-357371" lat="58.3722638928" lon="7.50800555954">
		<tag k="name" v="Ravnen" />
		<tag k="natural" v="stone" />
		<tag k="ssr:stedsnr" v="507167" />
	</node>
	<node id="-357370" lat="58.3774444456" lon="7.49531666984">
		<tag k="name" v="Sveismyr" />
		<tag k="natural" v="wetland" />
		<tag k="ssr:stedsnr" v="507162" />
	</node>
	<node id="-357368" lat="58.3792277815" lon="7.45946944713">
		<tag k="name" v="Holemyr" />
		<tag k="natural" v="wetland" />
		<tag k="ssr:stedsnr" v="507152" />
	</node>
	<node id="-357367" lat="58.3808416699" lon="7.49618888887">
		<tag k="name" v="Felekjerran" />
		<tag k="natural" v="wetland" />
		<tag k="ssr:stedsnr" v="507151" />
	</node>
	<node id="-356356" lat="58.2403416677" lon="7.43126944485">
		<tag k="name" v="Kaddansmyr" />
		<tag k="natural" v="wetland" />
		<tag k="ssr:stedsnr" v="83282" />
	</node>
	<node id="-356015" lat="58.1577111115" lon="7.70490000703">
		<tag k="name" v="Tjønneslåta" />
		<tag k="natural" v="wetland" />
		<tag k="ssr:stedsnr" v="386699" />
	</node>
	<node id="-357361" lat="58.3823500006" lon="7.43201110885">
		<tag k="name" v="Mikkelskjerret" />
		<tag k="natural" v="wetland" />
		<tag k="ssr:stedsnr" v="507128" />
	</node>
	<node id="-357360" lat="58.3194888869" lon="7.44468889169">
		<tag k="name" v="Dyblemyran" />
		<tag k="natural" v="wetland" />
		<tag k="ssr:stedsnr" v="507125" />
	</node>
	<node id="-357358" lat="58.3247333334" lon="7.46837778379">
		<tag k="name" v="Rovmyr" />
		<tag k="natural" v="wetland" />
		<tag k="ssr:stedsnr" v="507122" />
	</node>
	<node id="-357357" lat="58.3256083377" lon="7.46339444746">
		<tag k="name" v="Torvemyr" />
		<tag k="natural" v="wetland" />
		<tag k="ssr:stedsnr" v="507121" />
	</node>
	<node id="-357356" lat="58.1602249969" lon="7.49007223042">
		<tag k="name" v="Kalvemyr" />
		<tag k="place" v="locality" />
		<tag k="ssr:stedsnr" v="507101" />
	</node>
	<node id="-357355" lat="58.1674888894" lon="7.46988611023">
		<tag k="name" v="Torvmyra" />
		<tag k="natural" v="wetland" />
		<tag k="ssr:stedsnr" v="507094" />
	</node>
	<node id="-357354" lat="58.1686500023" lon="7.46435000189">
		<tag k="name" v="Lauvåsmyra" />
		<tag k="natural" v="wetland" />
		<tag k="ssr:stedsnr" v="507093" />
	</node>
	<node id="-356175" lat="58.1950027817" lon="7.45785833064">
		<tag k="name" v="Storemyr" />
		<tag k="natural" v="wetland" />
		<tag k="ssr:stedsnr" v="22474" />
	</node>
	<node id="-357317" lat="58.197055552" lon="7.72640555164">
		<tag k="name" v="Hessmyr" />
		<tag k="natural" v="wetland" />
		<tag k="ssr:stedsnr" v="448710" />
	</node>
	<node id="-357315" lat="58.2092388932" lon="7.72285278083">
		<tag k="name" v="Venemyr" />
		<tag k="natural" v="wetland" />
		<tag k="ssr:stedsnr" v="448704" />
	</node>
	<node id="-357309" lat="58.1604083329" lon="7.54965834069">
		<tag k="name" v="Garveriet" />
		<tag k="place" v="locality" />
		<tag k="ssr:stedsnr" v="447990" />
	</node>
	<node id="-357305" lat="58.1570138873" lon="7.53388889606">
		<tag k="name" v="Vestre Jerbermyr" />
		<tag k="natural" v="wetland" />
		<tag k="ssr:stedsnr" v="447970" />
	</node>
	<node id="-357303" lat="58.1575916696" lon="7.53647500372">
		<tag k="name" v="Jerbermyr" />
		<tag k="natural" v="wetland" />
		<tag k="ssr:stedsnr" v="447961" />
	</node>
	<node id="-357301" lat="58.2026777765" lon="7.56663054877">
		<tag k="name" v="Bjostean" />
		<tag k="natural" v="wetland" />
		<tag k="ssr:stedsnr" v="447954" />
	</node>
	<node id="-357297" lat="58.1994333368" lon="7.52703610443">
		<tag k="name" v="Myra" />
		<tag k="natural" v="wetland" />
		<tag k="ssr:stedsnr" v="447909" />
	</node>
	<node id="-357294" lat="58.1943305572" lon="7.49020833627">
		<tag k="name" v="Heimre Eigekjerret" />
		<tag k="natural" v="wetland" />
		<tag k="ssr:stedsnr" v="447840" />
	</node>
	<node id="-357292" lat="58.2110361122" lon="7.48504999577">
		<tag k="name" v="Krossmyr" />
		<tag k="natural" v="wetland" />
		<tag k="ssr:stedsnr" v="447824" />
	</node>
	<node id="-357291" lat="58.1853388905" lon="7.48307777869">
		<tag k="name" v="Hellersmyr" />
		<tag k="natural" v="wetland" />
		<tag k="ssr:stedsnr" v="447820" />
	</node>
	<node id="-357287" lat="58.1795305541" lon="7.47798332718">
		<tag k="name" v="Krågemyr" />
		<tag k="natural" v="wetland" />
		<tag k="ssr:stedsnr" v="447805" />
	</node>
	<node id="-357284" lat="58.2528944483" lon="7.49640555033">
		<tag k="name" v="Vedmyr" />
		<tag k="natural" v="wetland" />
		<tag k="ssr:stedsnr" v="447760" />
	</node>
	<node id="-357279" lat="58.1651861121" lon="7.53702500386">
		<tag k="name" v="Heståsmyr" />
		<tag k="natural" v="wetland" />
		<tag k="ssr:stedsnr" v="447743" />
	</node>
	<node id="-357276" lat="58.1651638859" lon="7.54258055361">
		<tag k="name" v="Stølsmyr" />
		<tag k="natural" v="wetland" />
		<tag k="ssr:stedsnr" v="447734" />
	</node>
	<node id="-358212" lat="58.3784388878" lon="7.51870000341">
		<tag k="name" v="Stemmyr" />
		<tag k="natural" v="wetland" />
		<tag k="ssr:stedsnr" v="750284" />
	</node>
	<node id="-357269" lat="58.2275694483" lon="7.6303666596">
		<tag k="name" v="Byttingsmyr" />
		<tag k="natural" v="wetland" />
		<tag k="ssr:stedsnr" v="447614" />
	</node>
	<node id="-357268" lat="58.2255555562" lon="7.65156111159">
		<tag k="name" v="Stimyr" />
		<tag k="natural" v="wetland" />
		<tag k="ssr:stedsnr" v="447609" />
	</node>
	<node id="-357262" lat="58.1753222249" lon="7.51643889662">
		<tag k="name" v="Bjørnsmyr" />
		<tag k="natural" v="wetland" />
		<tag k="ssr:stedsnr" v="447585" />
	</node>
	<node id="-357259" lat="58.2255027771" lon="7.53329999179">
		<tag k="name" v="Rogdekjerran" />
		<tag k="natural" v="wetland" />
		<tag k="ssr:stedsnr" v="447541" />
	</node>
	<node id="-357254" lat="58.2739194468" lon="7.52981388182">
		<tag k="name" v="Fagermyr" />
		<tag k="natural" v="wetland" />
		<tag k="ssr:stedsnr" v="447485" />
	</node>
	<node id="-356843" lat="58.271744447" lon="7.47082777204">
		<tag k="name" v="Tjovåsmyr" />
		<tag k="natural" v="wetland" />
		<tag k="ssr:stedsnr" v="205359" />
	</node>
	<node id="-357245" lat="58.4109277797" lon="7.59548334142">
		<tag k="name" v="Folemyr" />
		<tag k="natural" v="wetland" />
		<tag k="ssr:stedsnr" v="447437" />
	</node>
	<node id="-357235" lat="58.4462777791" lon="7.58860278352">
		<tag k="name" v="Nesholtan" />
		<tag k="place" v="locality" />
		<tag k="ssr:stedsnr" v="447386" />
	</node>
	<node id="-357231" lat="58.4052249986" lon="7.61421667424">
		<tag k="name" v="Årelslåtta" />
		<tag k="natural" v="wetland" />
		<tag k="ssr:stedsnr" v="447352" />
	</node>
	<node id="-358205" lat="58.3423194418" lon="7.54299444824">
		<tag k="name" v="Tjeddansmyr" />
		<tag k="natural" v="wetland" />
		<tag k="ssr:stedsnr" v="750227" />
	</node>
	<node id="-357224" lat="58.3286055546" lon="7.50086666119">
		<tag k="name" v="Blauda-kjerret" />
		<tag k="natural" v="wetland" />
		<tag k="ssr:stedsnr" v="447315" />
	</node>
	<node id="-357223" lat="58.4043361103" lon="7.49295276953">
		<tag k="name" v="Rundamyr" />
		<tag k="natural" v="wetland" />
		<tag k="ssr:stedsnr" v="447312" />
	</node>
	<node id="-357219" lat="58.3140416634" lon="7.46216388102">
		<tag k="name" v="Igletjønn" />
		<tag k="natural" v="wetland" />
		<tag k="ssr:stedsnr" v="447300" />
	</node>
	<node id="-357193" lat="58.189958332" lon="7.5711444435">
		<tag k="name" v="Øvre Åsdølsmyr" />
		<tag k="natural" v="wetland" />
		<tag k="ssr:stedsnr" v="447219" />
	</node>
	<node id="-357190" lat="58.14482222" lon="7.5893249998">
		<tag k="name" v="Djubemyr" />
		<tag k="natural" v="wetland" />
		<tag k="ssr:stedsnr" v="447206" />
	</node>
	<node id="-357188" lat="58.4257500006" lon="7.49773055171">
		<tag k="name" v="Langemyr" />
		<tag k="natural" v="wetland" />
		<tag k="ssr:stedsnr" v="447203" />
	</node>
	<node id="-357187" lat="58.3476055516" lon="7.50839999613">
		<tag k="name" v="Sollimyr" />
		<tag k="natural" v="wetland" />
		<tag k="ssr:stedsnr" v="447193" />
	</node>
	<node id="-357185" lat="58.3460916667" lon="7.44264999269">
		<tag k="name" v="Randismyr" />
		<tag k="natural" v="wetland" />
		<tag k="ssr:stedsnr" v="447169" />
	</node>
	<node id="-357183" lat="58.3676111114" lon="7.44105833643">
		<tag k="name" v="Leitesmyr" />
		<tag k="natural" v="wetland" />
		<tag k="ssr:stedsnr" v="447138" />
	</node>
	<node id="-357182" lat="58.1640972188" lon="7.48088610401">
		<tag k="name" v="Stiansmyr" />
		<tag k="natural" v="wetland" />
		<tag k="ssr:stedsnr" v="447122" />
	</node>
	<node id="-357178" lat="58.1630583372" lon="7.47294444022">
		<tag k="name" v="Tosåsmyr" />
		<tag k="natural" v="wetland" />
		<tag k="ssr:stedsnr" v="447108" />
	</node>
	<node id="-357174" lat="58.3725555544" lon="7.62660556362">
		<tag k="name" v="Klevemyr" />
		<tag k="natural" v="wetland" />
		<tag k="ssr:stedsnr" v="447099" />
	</node>
	<node id="-357168" lat="58.3941305563" lon="7.63716110443">
		<tag k="name" v="Heimyr" />
		<tag k="natural" v="wetland" />
		<tag k="ssr:stedsnr" v="447064" />
	</node>
	<node id="-357162" lat="58.3706472233" lon="7.57576665968">
		<tag k="name" v="Dølan" />
		<tag k="natural" v="wetland" />
		<tag k="ssr:stedsnr" v="447050" />
	</node>
	<node id="-357160" lat="58.3799249956" lon="7.60459165848">
		<tag k="name" v="Torvmyr" />
		<tag k="natural" v="wetland" />
		<tag k="ssr:stedsnr" v="447040" />
	</node>
	<node id="-357157" lat="58.2489611145" lon="7.60616389163">
		<tag k="name" v="Storemyr" />
		<tag k="natural" v="wetland" />
		<tag k="ssr:stedsnr" v="447024" />
	</node>
	<node id="-357151" lat="58.3609999983" lon="7.4598694401">
		<tag k="alt_name" v="Stølemyr" />
		<tag k="name" v="Råsåsmyri" />
		<tag k="natural" v="wetland" />
		<tag k="ssr:stedsnr" v="425958" />
	</node>
	<node id="-357132" lat="58.3165055522" lon="7.44189722738">
		<tag k="name" v="Flåna" />
		<tag k="natural" v="wetland" />
		<tag k="ssr:stedsnr" v="425765" />
	</node>
	<node id="-357079" lat="58.2064722184" lon="7.56402499548">
		<tag k="name" v="Hunsdalsmyra" />
		<tag k="natural" v="wetland" />
		<tag k="ssr:stedsnr" v="265967" />
	</node>
	<node id="-357077" lat="58.1534277812" lon="7.62001111889">
		<tag k="name" v="Løemyr" />
		<tag k="natural" v="wetland" />
		<tag k="ssr:stedsnr" v="265953" />
	</node>
	<node id="-357063" lat="58.1567555591" lon="7.47546943799">
		<tag k="name" v="Hålandsmyr" />
		<tag k="natural" v="wetland" />
		<tag k="ssr:stedsnr" v="265855" />
	</node>
	<node id="-355787" lat="58.2139416676" lon="7.55727499284">
		<tag k="name" v="Høymyr" />
		<tag k="natural" v="wetland" />
		<tag k="ssr:stedsnr" v="325568" />
	</node>
	<node id="-357054" lat="58.1698583339" lon="7.67102500342">
		<tag k="name" v="Mørkeløstean" />
		<tag k="natural" v="wetland" />
		<tag k="ssr:stedsnr" v="265775" />
	</node>
	<node id="-357046" lat="58.1750777774" lon="7.64794443782">
		<tag k="name" v="Knudshola" />
		<tag k="natural" v="wetland" />
		<tag k="ssr:stedsnr" v="265684" />
	</node>
	<node id="-357045" lat="58.2291250007" lon="7.67330554803">
		<tag k="name" v="Molbrotmyr" />
		<tag k="natural" v="wetland" />
		<tag k="ssr:stedsnr" v="265673" />
	</node>
	<node id="-357044" lat="58.2281361095" lon="7.65694444117">
		<tag k="name" v="Løemyr" />
		<tag k="natural" v="wetland" />
		<tag k="ssr:stedsnr" v="265665" />
	</node>
	<node id="-357039" lat="58.2461722212" lon="7.54449722475">
		<tag k="name" v="Hellermyr" />
		<tag k="natural" v="wetland" />
		<tag k="ssr:stedsnr" v="265620" />
	</node>
	<node id="-357038" lat="58.2423027816" lon="7.55356944469">
		<tag k="name" v="Holamyr" />
		<tag k="natural" v="wetland" />
		<tag k="ssr:stedsnr" v="265617" />
	</node>
	<node id="-357033" lat="58.2194888862" lon="7.5614805501">
		<tag k="name" v="Tvormyr" />
		<tag k="natural" v="wetland" />
		<tag k="ssr:stedsnr" v="265577" />
	</node>
	<node id="-357031" lat="58.2287138851" lon="7.57721943864">
		<tag k="name" v="Storemyr" />
		<tag k="natural" v="wetland" />
		<tag k="ssr:stedsnr" v="265542" />
	</node>
	<node id="-357030" lat="58.2213861134" lon="7.57936388821">
		<tag k="name" v="Djupemyr" />
		<tag k="natural" v="wetland" />
		<tag k="ssr:stedsnr" v="265538" />
	</node>
	<node id="-357029" lat="58.2823972245" lon="7.54483055774">
		<tag k="name" v="Tjørgrovheimyr" />
		<tag k="natural" v="wetland" />
		<tag k="ssr:stedsnr" v="265519" />
	</node>
	<node id="-357026" lat="58.1975888904" lon="7.44800555021">
		<tag k="name" v="Haukåsmyr" />
		<tag k="natural" v="wetland" />
		<tag k="ssr:stedsnr" v="265510" />
	</node>
	<node id="-357015" lat="58.4153638883" lon="7.59972222308">
		<tag k="name" v="Hommen" />
		<tag k="natural" v="wetland" />
		<tag k="ssr:stedsnr" v="265479" />
	</node>
	<node id="-357010" lat="58.4311555553" lon="7.59331666646">
		<tag k="name" v="Åsmyr" />
		<tag k="natural" v="wetland" />
		<tag k="ssr:stedsnr" v="265445" />
	</node>
	<node id="-357006" lat="58.4624972202" lon="7.5397277693">
		<tag k="name" v="Brendamyr" />
		<tag k="natural" v="wetland" />
		<tag k="ssr:stedsnr" v="265428" />
	</node>
	<node id="-357004" lat="58.462483335" lon="7.51216110627">
		<tag k="name" v="Myran" />
		<tag k="natural" v="wetland" />
		<tag k="ssr:stedsnr" v="265419" />
	</node>
	<node id="-356999" lat="58.3033444474" lon="7.46835834041">
		<tag k="name" v="Kattemyr" />
		<tag k="natural" v="wetland" />
		<tag k="ssr:stedsnr" v="265378" />
	</node>
	<node id="-356996" lat="58.3957361105" lon="7.4556583324">
		<tag k="name" v="Toroslåtta" />
		<tag k="natural" v="wetland" />
		<tag k="ssr:stedsnr" v="265371" />
	</node>
	<node id="-356994" lat="58.3169805555" lon="7.46971666366">
		<tag k="name" v="Jambakkemyra" />
		<tag k="natural" v="wetland" />
		<tag k="ssr:stedsnr" v="265361" />
	</node>
	<node id="-355775" lat="58.3889000035" lon="7.53319444348">
		<tag k="name" v="Mysekjerran" />
		<tag k="natural" v="wetland" />
		<tag k="ssr:stedsnr" v="325478" />
	</node>
	<node id="-356981" lat="58.2789222233" lon="7.44240000339">
		<tag k="name" v="Djupemyr" />
		<tag k="natural" v="wetland" />
		<tag k="ssr:stedsnr" v="265316" />
	</node>
	<node id="-356980" lat="58.2947194478" lon="7.46622777643">
		<tag k="name" v="Djupemyr" />
		<tag k="natural" v="wetland" />
		<tag k="ssr:stedsnr" v="265309" />
	</node>
	<node id="-356978" lat="58.3224527762" lon="7.54349166002">
		<tag k="name" v="Store Moltemyr" />
		<tag k="natural" v="wetland" />
		<tag k="ssr:stedsnr" v="265305" />
	</node>
	<node id="-356976" lat="58.2436500031" lon="7.45186389041">
		<tag k="name" v="Møldalsmyran" />
		<tag k="natural" v="wetland" />
		<tag k="ssr:stedsnr" v="265292" />
	</node>
	<node id="-356970" lat="58.4080249972" lon="7.47324444094">
		<tag k="name" v="Småmyran" />
		<tag k="natural" v="wetland" />
		<tag k="ssr:stedsnr" v="265252" />
	</node>
	<node id="-356967" lat="58.3480027808" lon="7.46037222216">
		<tag k="name" v="Stedjan" />
		<tag k="natural" v="wetland" />
		<tag k="ssr:stedsnr" v="265230" />
	</node>
	<node id="-356965" lat="58.3467555592" lon="7.47393889276">
		<tag k="name" v="Lundemyr" />
		<tag k="natural" v="wetland" />
		<tag k="ssr:stedsnr" v="265218" />
	</node>
	<node id="-356964" lat="58.3627833343" lon="7.45876944667">
		<tag k="name" v="Kallåsmyr" />
		<tag k="natural" v="wetland" />
		<tag k="ssr:stedsnr" v="265213" />
	</node>
	<node id="-356963" lat="58.3524694446" lon="7.46561389245">
		<tag k="name" v="Stemmen" />
		<tag k="natural" v="wetland" />
		<tag k="ssr:stedsnr" v="265208" />
	</node>
	<node id="-356961" lat="58.3805416649" lon="7.50298055047">
		<tag k="name" v="Gomannsmyr" />
		<tag k="natural" v="wetland" />
		<tag k="ssr:stedsnr" v="265181" />
	</node>
	<node id="-356956" lat="58.3783555574" lon="7.44966110568">
		<tag k="name" v="Kjerran" />
		<tag k="natural" v="wetland" />
		<tag k="ssr:stedsnr" v="265154" />
	</node>
	<node id="-356947" lat="58.422652782" lon="7.6480333354">
		<tag k="name" v="Dikesmyr" />
		<tag k="natural" v="wetland" />
		<tag k="ssr:stedsnr" v="265086" />
	</node>
	<node id="-356943" lat="58.3786305519" lon="7.62824999615">
		<tag k="name" v="Øygardsmyr" />
		<tag k="natural" v="wetland" />
		<tag k="ssr:stedsnr" v="265074" />
	</node>
	<node id="-358978" lat="58.1796083298" lon="7.50395556132">
		<tag k="name" v="Snømyr" />
		<tag k="natural" v="wetland" />
		<tag k="ssr:stedsnr" v="933847" />
	</node>
	<node id="-356921" lat="58.411611114" lon="7.55865278329">
		<tag k="alt_name" v="Sundsmyr" />
		<tag k="name" v="Sundsmyra" />
		<tag k="natural" v="wetland" />
		<tag k="ssr:stedsnr" v="243892" />
	</node>
	<node id="-358964" lat="58.2803250024" lon="7.50358611173">
		<tag k="name" v="Sagebenkmyr" />
		<tag k="natural" v="wetland" />
		<tag k="ssr:stedsnr" v="933366" />
	</node>
	<node id="-356787" lat="58.4595861136" lon="7.51439445268">
		<tag k="name" v="Myran" />
		<tag k="natural" v="wetland" />
		<tag k="ssr:stedsnr" v="204350" />
	</node>
	<node id="-358960" lat="58.276824998" lon="7.5043083375">
		<tag k="name" v="Eigebåsmyr" />
		<tag k="natural" v="wetland" />
		<tag k="ssr:stedsnr" v="933340" />
	</node>
	<node id="-358956" lat="58.2956111106" lon="7.4603777801">
		<tag k="name" v="Glamyr" />
		<tag k="natural" v="wetland" />
		<tag k="ssr:stedsnr" v="933292" />
	</node>
	<node id="-355762" lat="58.4535666649" lon="7.61691110871">
		<tag k="name" v="Skorlemyr" />
		<tag k="natural" v="wetland" />
		<tag k="ssr:stedsnr" v="325410" />
	</node>
	<node id="-358954" lat="58.282999996" lon="7.45763888205">
		<tag k="name" v="Skinndybelen" />
		<tag k="natural" v="wetland" />
		<tag k="ssr:stedsnr" v="933284" />
	</node>
	<node id="-358953" lat="58.2956805511" lon="7.51035832597">
		<tag k="name" v="Dyngan" />
		<tag k="place" v="locality" />
		<tag k="ssr:stedsnr" v="933280" />
	</node>
	<node id="-358952" lat="58.1659416647" lon="7.57847222762">
		<tag k="name" v="Suggekjerret" />
		<tag k="natural" v="wetland" />
		<tag k="ssr:stedsnr" v="932996" />
	</node>
	<node id="-358949" lat="58.2017861067" lon="7.55636111484">
		<tag k="name" v="Ristemyr" />
		<tag k="natural" v="wetland" />
		<tag k="ssr:stedsnr" v="932961" />
	</node>
	<node id="-358946" lat="58.2064305532" lon="7.55901667216">
		<tag k="name" v="Sparkålkjerran" />
		<tag k="natural" v="wetland" />
		<tag k="ssr:stedsnr" v="932945" />
	</node>
	<node id="-358940" lat="58.1966611119" lon="7.61753332816">
		<tag k="name" v="Stedjan" />
		<tag k="natural" v="wetland" />
		<tag k="ssr:stedsnr" v="932864" />
	</node>
	<node id="-358937" lat="58.2050222255" lon="7.48477777687">
		<tag k="name" v="Flodmyr" />
		<tag k="natural" v="wetland" />
		<tag k="ssr:stedsnr" v="932841" />
	</node>
	<node id="-358934" lat="58.2091138875" lon="7.47353610606">
		<tag k="name" v="Storemyr" />
		<tag k="natural" v="wetland" />
		<tag k="ssr:stedsnr" v="932816" />
	</node>
	<node id="-358930" lat="58.1882499985" lon="7.49171389368">
		<tag k="name" v="Møglemyr" />
		<tag k="natural" v="wetland" />
		<tag k="ssr:stedsnr" v="932781" />
	</node>
	<node id="-358928" lat="58.1652388914" lon="7.53371666452">
		<tag k="name" v="Hunnekjerret" />
		<tag k="natural" v="wetland" />
		<tag k="ssr:stedsnr" v="932735" />
	</node>
	<node id="-358927" lat="58.2269861071" lon="7.49644165874">
		<tag k="name" v="Bormyr" />
		<tag k="natural" v="wetland" />
		<tag k="ssr:stedsnr" v="932725" />
	</node>
	<node id="-358916" lat="58.1756416629" lon="7.5353694392">
		<tag k="name" v="Blaudekjerran" />
		<tag k="natural" v="wetland" />
		<tag k="ssr:stedsnr" v="932573" />
	</node>
	<node id="-358911" lat="58.2435666646" lon="7.55334445297">
		<tag k="name" v="Djubemyr" />
		<tag k="natural" v="wetland" />
		<tag k="ssr:stedsnr" v="932549" />
	</node>
	<node id="-358909" lat="58.2411416688" lon="7.53555555759">
		<tag k="name" v="Kjergårdmyr" />
		<tag k="natural" v="wetland" />
		<tag k="ssr:stedsnr" v="932542" />
	</node>
	<node id="-358908" lat="58.240744448" lon="7.55841666353">
		<tag k="name" v="Langstekjerret" />
		<tag k="natural" v="wetland" />
		<tag k="ssr:stedsnr" v="932539" />
	</node>
	<node id="-355754" lat="58.3378555544" lon="7.51357500584">
		<tag k="name" v="Joskarmyr" />
		<tag k="natural" v="wetland" />
		<tag k="ssr:stedsnr" v="325282" />
	</node>
	<node id="-358899" lat="58.26709167" lon="7.54347778446">
		<tag k="name" v="Moltemyr" />
		<tag k="natural" v="wetland" />
		<tag k="ssr:stedsnr" v="932484" />
	</node>
	<node id="-356850" lat="58.2061916625" lon="7.72052500827">
		<tag k="name" v="Flodmyr" />
		<tag k="natural" v="wetland" />
		<tag k="ssr:stedsnr" v="205702" />
	</node>
	<node id="-356847" lat="58.1939694476" lon="7.69831110284">
		<tag k="name" v="Stedjan" />
		<tag k="natural" v="wetland" />
		<tag k="ssr:stedsnr" v="205679" />
	</node>
	<node id="-358891" lat="58.4062999968" lon="7.51513610706">
		<tag k="name" v="Ålgårdsmyr" />
		<tag k="natural" v="wetland" />
		<tag k="ssr:stedsnr" v="932456" />
	</node>
	<node id="-358889" lat="58.4119888875" lon="7.57566111346">
		<tag k="name" v="Torvmyra" />
		<tag k="natural" v="wetland" />
		<tag k="ssr:stedsnr" v="932448" />
	</node>
	<node id="-358888" lat="58.4170583318" lon="7.58514999652">
		<tag k="name" v="Hommemyran" />
		<tag k="natural" v="wetland" />
		<tag k="ssr:stedsnr" v="932449" />
	</node>
	<node id="-356839" lat="58.1704083361" lon="7.59364721569">
		<tag k="name" v="Djubemyr" />
		<tag k="natural" v="wetland" />
		<tag k="ssr:stedsnr" v="204997" />
	</node>
	<node id="-358884" lat="58.4540555575" lon="7.53171111492">
		<tag k="name" v="Losskjerran" />
		<tag k="natural" v="wetland" />
		<tag k="ssr:stedsnr" v="932385" />
	</node>
	<node id="-358883" lat="58.3912555592" lon="7.58289166756">
		<tag k="name" v="Surtemyr" />
		<tag k="natural" v="wetland" />
		<tag k="ssr:stedsnr" v="932383" />
	</node>
	<node id="-358881" lat="58.4002055528" lon="7.56581944843">
		<tag k="name" v="Karisteinen" />
		<tag k="natural" v="stone" />
		<tag k="ssr:stedsnr" v="932363" />
	</node>
	<node id="-358880" lat="58.3878861068" lon="7.49611388247">
		<tag k="name" v="Kolfermyr" />
		<tag k="natural" v="wetland" />
		<tag k="ssr:stedsnr" v="932357" />
	</node>
	<node id="-358879" lat="58.3860972236" lon="7.46520556083">
		<tag k="alt_name" v="Lunnåsdalsmyr" />
		<tag k="name" v="Lunnerdalsmyr" />
		<tag k="natural" v="wetland" />
		<tag k="ssr:stedsnr" v="932348" />
	</node>
	<node id="-358878" lat="58.3278194465" lon="7.44569444195">
		<tag k="name" v="Kråkelandsmyran" />
		<tag k="natural" v="wetland" />
		<tag k="ssr:stedsnr" v="932345" />
	</node>
	<node id="-356827" lat="58.1968333373" lon="7.60989999702">
		<tag k="name" v="Homman" />
		<tag k="place" v="locality" />
		<tag k="ssr:stedsnr" v="204880" />
	</node>
	<node id="-356825" lat="58.1936555561" lon="7.48566667368">
		<tag k="name" v="Vestre Eigekjerret" />
		<tag k="natural" v="wetland" />
		<tag k="ssr:stedsnr" v="204846" />
	</node>
	<node id="-358871" lat="58.2156972221" lon="7.64766111329">
		<tag k="name" v="Storemyr" />
		<tag k="natural" v="wetland" />
		<tag k="ssr:stedsnr" v="932313" />
	</node>
	<node id="-358870" lat="58.3710500022" lon="7.52308332924">
		<tag k="name" v="Trygslandsmyran" />
		<tag k="natural" v="wetland" />
		<tag k="ssr:stedsnr" v="932299" />
	</node>
	<node id="-358866" lat="58.3790694443" lon="7.52730555357">
		<tag k="name" v="Lille-Bjelland" />
		<tag k="place" v="locality" />
		<tag k="ssr:stedsnr" v="932281" />
	</node>
	<node id="-356817" lat="58.1692305588" lon="7.64235278205">
		<tag k="name" v="Austre Blaudemyr" />
		<tag k="natural" v="wetland" />
		<tag k="ssr:stedsnr" v="204717" />
	</node>
	<node id="-358864" lat="58.239213885" lon="7.45025000794">
		<tag k="name" v="Bjørnestean" />
		<tag k="natural" v="wetland" />
		<tag k="ssr:stedsnr" v="932275" />
	</node>
	<node id="-358863" lat="58.2381361119" lon="7.42713611702">
		<tag k="name" v="Leinelandsmyran" />
		<tag k="natural" v="wetland" />
		<tag k="ssr:stedsnr" v="932271" />
	</node>
	<node id="-356813" lat="58.2085722182" lon="7.62757778162">
		<tag k="name" v="Trommyr" />
		<tag k="natural" v="wetland" />
		<tag k="ssr:stedsnr" v="204677" />
	</node>
	<node id="-358860" lat="58.2252444425" lon="7.44537221711">
		<tag k="name" v="Vatneslåten" />
		<tag k="natural" v="wetland" />
		<tag k="ssr:stedsnr" v="932258" />
	</node>
	<node id="-356770" lat="58.3280666634" lon="7.45951945033">
		<tag k="name" v="Aubjøråskarten" />
		<tag k="natural" v="wetland" />
		<tag k="ssr:stedsnr" v="204303" />
	</node>
	<node id="-358852" lat="58.4085777803" lon="7.49895554689">
		<tag k="name" v="Gomyr" />
		<tag k="natural" v="wetland" />
		<tag k="ssr:stedsnr" v="932226" />
	</node>
	<node id="-358850" lat="58.3483083296" lon="7.43955556028">
		<tag k="name" v="Viamyr" />
		<tag k="natural" v="wetland" />
		<tag k="ssr:stedsnr" v="932201" />
	</node>
	<node id="-358849" lat="58.3494277778" lon="7.4512027696">
		<tag k="name" v="Småmyran" />
		<tag k="natural" v="wetland" />
		<tag k="ssr:stedsnr" v="932199" />
	</node>
	<node id="-356798" lat="58.4214194449" lon="7.58636666313">
		<tag k="name" v="Kjerran" />
		<tag k="natural" v="wetland" />
		<tag k="ssr:stedsnr" v="204398" />
	</node>
	<node id="-358845" lat="58.3758500002" lon="7.46138888765">
		<tag k="name" v="Dikemyr" />
		<tag k="natural" v="wetland" />
		<tag k="ssr:stedsnr" v="932174" />
	</node>
	<node id="-355743" lat="58.3970138919" lon="7.58121944076">
		<tag k="name" v="Byttingsmyr" />
		<tag k="natural" v="wetland" />
		<tag k="ssr:stedsnr" v="325388" />
	</node>
	<node id="-358835" lat="58.3267777746" lon="7.50280555169">
		<tag k="name" v="Kvidemyr" />
		<tag k="natural" v="wetland" />
		<tag k="ssr:stedsnr" v="932125" />
	</node>
	<node id="-358834" lat="58.432802782" lon="7.64846110987">
		<tag k="name" v="Moltemyr" />
		<tag k="natural" v="wetland" />
		<tag k="ssr:stedsnr" v="932121" />
	</node>
	<node id="-356785" lat="58.4677472205" lon="7.53203333177">
		<tag k="name" v="Lars-slåtta" />
		<tag k="natural" v="wetland" />
		<tag k="ssr:stedsnr" v="204339" />
	</node>
	<node id="-356784" lat="58.4676861144" lon="7.52651666231">
		<tag k="name" v="Kjerrmyr" />
		<tag k="natural" v="wetland" />
		<tag k="ssr:stedsnr" v="204338" />
	</node>
	<node id="-356783" lat="58.3955777775" lon="7.60356666952">
		<tag k="name" v="Kolandsmyr" />
		<tag k="natural" v="wetland" />
		<tag k="ssr:stedsnr" v="204336" />
	</node>
	<node id="-356781" lat="58.4015416623" lon="7.59888889467">
		<tag k="name" v="Kartan" />
		<tag k="natural" v="wetland" />
		<tag k="ssr:stedsnr" v="204333" />
	</node>
	<node id="-358826" lat="58.422655555" lon="7.63723888075">
		<tag k="name" v="Jensmyr" />
		<tag k="natural" v="wetland" />
		<tag k="ssr:stedsnr" v="932084" />
	</node>
	<node id="-356775" lat="58.3226222258" lon="7.43308611174">
		<tag k="name" v="Oljarstranda" />
		<tag k="natural" v="wetland" />
		<tag k="ssr:stedsnr" v="204317" />
	</node>
	<node id="-358822" lat="58.3914055563" lon="7.63367777287">
		<tag k="name" v="Austre karten" />
		<tag k="natural" v="wetland" />
		<tag k="ssr:stedsnr" v="932064" />
	</node>
	<node id="-358818" lat="58.3717277753" lon="7.59757500824">
		<tag k="name" v="Dyblemyr" />
		<tag k="natural" v="wetland" />
		<tag k="ssr:stedsnr" v="932038" />
	</node>
	<node id="-358817" lat="58.3763416627" lon="7.59337777949">
		<tag k="name" v="Hjuringsteinen" />
		<tag k="natural" v="stone" />
		<tag k="ssr:stedsnr" v="932036" />
	</node>
	<node id="-356767" lat="58.3174222198" lon="7.49218610974">
		<tag k="name" v="Lærmyr" />
		<tag k="natural" v="wetland" />
		<tag k="ssr:stedsnr" v="204296" />
	</node>
	<node id="-358813" lat="58.1760222183" lon="7.60082777427">
		<tag k="name" v="Røyrmyr" />
		<tag k="natural" v="wetland" />
		<tag k="ssr:stedsnr" v="932005" />
	</node>
	<node id="-358807" lat="58.4400833325" lon="7.55606665855">
		<tag k="alt_name" v="Bjølkemyr" />
		<tag k="name" v="Bjolkemyr" />
		<tag k="natural" v="wetland" />
		<tag k="ssr:stedsnr" v="910939" />
	</node>
	<node id="-358805" lat="58.4195416698" lon="7.61011945143">
		<tag k="alt_name" v="Brunstean" />
		<tag k="name" v="Byttingsmyri" />
		<tag k="natural" v="wetland" />
		<tag k="ssr:stedsnr" v="910897" />
	</node>
	<node id="-356759" lat="58.235588891" lon="7.44717777487">
		<tag k="name" v="Åsemyra" />
		<tag k="natural" v="wetland" />
		<tag k="ssr:stedsnr" v="204241" />
	</node>
	<node id="-355734" lat="58.4066527806" lon="7.47835556351">
		<tag k="name" v="Kjerran" />
		<tag k="natural" v="wetland" />
		<tag k="ssr:stedsnr" v="325355" />
	</node>
	<node id="-356735" lat="58.1683194482" lon="7.50252221718">
		<tag k="name" v="Fjellfidja" />
		<tag k="place" v="locality" />
		<tag k="ssr:stedsnr" v="204078" />
	</node>
	<node id="-356729" lat="58.3597083357" lon="7.59087777837">
		<tag k="name" v="Storekroken" />
		<tag k="natural" v="wetland" />
		<tag k="ssr:stedsnr" v="204058" />
	</node>
	<node id="-356726" lat="58.3903333361" lon="7.62515000565">
		<tag k="name" v="Røyholtet" />
		<tag k="place" v="locality" />
		<tag k="ssr:stedsnr" v="204048" />
	</node>
	<node id="-356715" lat="58.2430444405" lon="7.44157222501">
		<tag k="name" v="Vestjordet" />
		<tag k="natural" v="wetland" />
		<tag k="ssr:stedsnr" v="204412" />
	</node>
	<node id="-356713" lat="58.4108388848" lon="7.61240555108">
		<tag k="name" v="Tænmyr" />
		<tag k="natural" v="wetland" />
		<tag k="ssr:stedsnr" v="204403" />
	</node>
	<node id="-356705" lat="58.3435500028" lon="7.54389721494">
		<tag k="alt_name" v="Stormyr" />
		<tag k="name" v="Storemyr" />
		<tag k="natural" v="wetland" />
		<tag k="ssr:stedsnr" v="182766" />
	</node>
	<node id="-358750" lat="58.157169441" lon="7.58506945202">
		<tag k="name" v="Byttingsmyr" />
		<tag k="natural" v="wetland" />
		<tag k="ssr:stedsnr" v="872958" />
	</node>
	<node id="-358747" lat="58.1959416661" lon="7.52018332804">
		<tag k="name" v="Øyan" />
		<tag k="place" v="locality" />
		<tag k="ssr:stedsnr" v="872940" />
	</node>
	<node id="-358744" lat="58.2047638917" lon="7.52956111415">
		<tag k="name" v="Lille Maddan" />
		<tag k="place" v="locality" />
		<tag k="ssr:stedsnr" v="872914" />
	</node>
	<node id="-358743" lat="58.1845694468" lon="7.56176111928">
		<tag k="name" v="Snøskallsmyr" />
		<tag k="natural" v="wetland" />
		<tag k="ssr:stedsnr" v="872910" />
	</node>
	<node id="-356694" lat="58.2541083312" lon="7.45960000521">
		<tag k="name" v="Storemyr" />
		<tag k="natural" v="wetland" />
		<tag k="ssr:stedsnr" v="182204" />
	</node>
	<node id="-358741" lat="58.1890694457" lon="7.52148055255">
		<tag k="name" v="Nesan" />
		<tag k="place" v="locality" />
		<tag k="ssr:stedsnr" v="872901" />
	</node>
	<node id="-358730" lat="58.2578833354" lon="7.53621389069">
		<tag k="name" v="Slåttemyr" />
		<tag k="natural" v="wetland" />
		<tag k="ssr:stedsnr" v="872759" />
	</node>
	<node id="-358725" lat="58.2014000043" lon="7.63465832747">
		<tag k="name" v="Øygarden" />
		<tag k="place" v="locality" />
		<tag k="ssr:stedsnr" v="872708" />
	</node>
	<node id="-358717" lat="58.2290916691" lon="7.66667499186">
		<tag k="name" v="Garsmyr" />
		<tag k="natural" v="wetland" />
		<tag k="ssr:stedsnr" v="872662" />
	</node>
	<node id="-358711" lat="58.1745111106" lon="7.54025277677">
		<tag k="name" v="Rossemyr" />
		<tag k="natural" v="wetland" />
		<tag k="ssr:stedsnr" v="872635" />
	</node>
	<node id="-358710" lat="58.2469777761" lon="7.55651388714">
		<tag k="name" v="Mosekjerret" />
		<tag k="natural" v="wetland" />
		<tag k="ssr:stedsnr" v="872622" />
	</node>
	<node id="-356745" lat="58.3467777771" lon="7.44828611556">
		<tag k="name" v="Saumyr" />
		<tag k="natural" v="wetland" />
		<tag k="ssr:stedsnr" v="204149" />
	</node>
	<node id="-356660" lat="58.1833583347" lon="7.48371389687">
		<tag k="name" v="Ratnamyr" />
		<tag k="natural" v="wetland" />
		<tag k="ssr:stedsnr" v="144830" />
	</node>
	<node id="-356658" lat="58.2369222192" lon="7.47720833626">
		<tag k="name" v="Dyblemyr" />
		<tag k="natural" v="wetland" />
		<tag k="ssr:stedsnr" v="144788" />
	</node>
	<node id="-356657" lat="58.2339027753" lon="7.46445833761">
		<tag k="name" v="Pålsmyr" />
		<tag k="natural" v="wetland" />
		<tag k="ssr:stedsnr" v="144787" />
	</node>
	<node id="-358704" lat="58.2251166647" lon="7.6083000048">
		<tag k="name" v="Bodilsteinen" />
		<tag k="natural" v="stone" />
		<tag k="ssr:stedsnr" v="872573" />
	</node>
	<node id="-358703" lat="58.2184694399" lon="7.57521666255">
		<tag k="name" v="Kjønremyr" />
		<tag k="natural" v="wetland" />
		<tag k="ssr:stedsnr" v="872568" />
	</node>
	<node id="-356652" lat="58.1966666627" lon="7.70066389678">
		<tag k="name" v="Poddemyr" />
		<tag k="natural" v="wetland" />
		<tag k="ssr:stedsnr" v="144661" />
	</node>
	<node id="-356647" lat="58.2849500032" lon="7.45287222697">
		<tag k="name" v="Sjendybel" />
		<tag k="natural" v="wetland" />
		<tag k="ssr:stedsnr" v="144311" />
	</node>
	<node id="-358037" lat="58.2037805591" lon="7.45897777646">
		<tag k="name" v="Mælemyr" />
		<tag k="natural" v="wetland" />
		<tag k="ssr:stedsnr" v="689455" />
	</node>
	<node id="-356644" lat="58.1705833362" lon="7.59931944507">
		<tag k="name" v="Holkekjerret" />
		<tag k="natural" v="wetland" />
		<tag k="ssr:stedsnr" v="143996" />
	</node>
	<node id="-358690" lat="58.4545083365" lon="7.52826110329">
		<tag k="name" v="Åsedalsmyra" />
		<tag k="natural" v="wetland" />
		<tag k="ssr:stedsnr" v="872442" />
	</node>
	<node id="-358687" lat="58.3932583377" lon="7.57521667057">
		<tag k="name" v="Søndagsbeite" />
		<tag k="place" v="locality" />
		<tag k="ssr:stedsnr" v="872431" />
	</node>
	<node id="-356638" lat="58.2042916699" lon="7.56313055085">
		<tag k="name" v="Stismyr" />
		<tag k="natural" v="wetland" />
		<tag k="ssr:stedsnr" v="143958" />
	</node>
	<node id="-356637" lat="58.2108194463" lon="7.52236388825">
		<tag k="name" v="Karten" />
		<tag k="place" v="locality" />
		<tag k="ssr:stedsnr" v="143954" />
	</node>
	<node id="-358684" lat="58.2597555575" lon="7.4587888811">
		<tag k="name" v="Diblemyr" />
		<tag k="natural" v="wetland" />
		<tag k="ssr:stedsnr" v="872404" />
	</node>
	<node id="-356634" lat="58.210533335" lon="7.58342499684">
		<tag k="name" v="Heggland" />
		<tag k="place" v="locality" />
		<tag k="ssr:stedsnr" v="143919" />
	</node>
	<node id="-358678" lat="58.4055361129" lon="7.48118611699">
		<tag k="name" v="Martesmyr" />
		<tag k="natural" v="wetland" />
		<tag k="ssr:stedsnr" v="872380" />
	</node>
	<node id="-356625" lat="58.1948416659" lon="7.47260277767">
		<tag k="name" v="Drivesteinen" />
		<tag k="natural" v="stone" />
		<tag k="ssr:stedsnr" v="143844" />
	</node>
	<node id="-358671" lat="58.3696638855" lon="7.52743889509">
		<tag k="name" v="Kringlemyr" />
		<tag k="natural" v="wetland" />
		<tag k="ssr:stedsnr" v="872338" />
	</node>
	<node id="-358669" lat="58.361255558" lon="7.55987222714">
		<tag k="name" v="Stean" />
		<tag k="natural" v="wetland" />
		<tag k="ssr:stedsnr" v="872330" />
	</node>
	<node id="-356619" lat="58.1900222183" lon="7.50811389589">
		<tag k="name" v="Trøkjerr" />
		<tag k="natural" v="wetland" />
		<tag k="ssr:stedsnr" v="143797" />
	</node>
	<node id="-358665" lat="58.2883583338" lon="7.44304166438">
		<tag k="name" v="Djupemyr" />
		<tag k="natural" v="wetland" />
		<tag k="ssr:stedsnr" v="872310" />
	</node>
	<node id="-358664" lat="58.2915444414" lon="7.50718889392">
		<tag k="name" v="Storemyr" />
		<tag k="natural" v="wetland" />
		<tag k="ssr:stedsnr" v="872308" />
	</node>
	<node id="-358661" lat="58.2852888874" lon="7.45920832836">
		<tag k="name" v="Mørkekjerran" />
		<tag k="natural" v="wetland" />
		<tag k="ssr:stedsnr" v="872301" />
	</node>
	<node id="-358658" lat="58.33844722" lon="7.55132500511">
		<tag k="name" v="Nedre Heislåtta" />
		<tag k="natural" v="wetland" />
		<tag k="ssr:stedsnr" v="872263" />
	</node>
	<node id="-356609" lat="58.2514166687" lon="7.52434167315">
		<tag k="name" v="Heptekjerr" />
		<tag k="natural" v="wetland" />
		<tag k="ssr:stedsnr" v="143592" />
	</node>
	<node id="-356608" lat="58.2377055569" lon="7.53535278532">
		<tag k="name" v="Toppmyr" />
		<tag k="natural" v="wetland" />
		<tag k="ssr:stedsnr" v="143570" />
	</node>
	<node id="-358655" lat="58.3298999966" lon="7.5324055483">
		<tag k="name" v="Ytre Stronnen" />
		<tag k="place" v="locality" />
		<tag k="ssr:stedsnr" v="872254" />
	</node>
	<node id="-358654" lat="58.4106055534" lon="7.48042500123">
		<tag k="name" v="Dyblemyr" />
		<tag k="natural" v="wetland" />
		<tag k="ssr:stedsnr" v="872239" />
	</node>
	<node id="-358652" lat="58.3534805525" lon="7.47469444058">
		<tag k="name" v="Furumyra" />
		<tag k="natural" v="wetland" />
		<tag k="ssr:stedsnr" v="872225" />
	</node>
	<node id="-356765" lat="58.2182166657" lon="7.67090833032">
		<tag k="name" v="Andersmyr" />
		<tag k="natural" v="wetland" />
		<tag k="ssr:stedsnr" v="204281" />
	</node>
	<node id="-358648" lat="58.3731694418" lon="7.48400000343">
		<tag k="name" v="Liland" />
		<tag k="place" v="locality" />
		<tag k="ssr:stedsnr" v="872184" />
	</node>
	<node id="-356598" lat="58.2411305537" lon="7.52783055004">
		<tag k="name" v="Stuemyr" />
		<tag k="natural" v="wetland" />
		<tag k="ssr:stedsnr" v="143568" />
	</node>
	<node id="-358644" lat="58.4374611071" lon="7.63665277429">
		<tag k="name" v="Djupemyr" />
		<tag k="natural" v="wetland" />
		<tag k="ssr:stedsnr" v="872103" />
	</node>
	<node id="-358642" lat="58.2070777808" lon="7.73266111468">
		<tag k="name" v="Alsmyr" />
		<tag k="natural" v="wetland" />
		<tag k="ssr:stedsnr" v="872093" />
	</node>
	<node id="-356591" lat="58.3992722222" lon="7.54429721403">
		<tag k="name" v="Hestemyr" />
		<tag k="natural" v="wetland" />
		<tag k="ssr:stedsnr" v="143476" />
	</node>
	<node id="-356590" lat="58.2513472191" lon="7.42855277906">
		<tag k="name" v="Heddan" />
		<tag k="natural" v="wetland" />
		<tag k="ssr:stedsnr" v="143467" />
	</node>
	<node id="-358633" lat="58.3815111127" lon="7.61300554731">
		<tag k="name" v="Hjertruskarten" />
		<tag k="natural" v="wetland" />
		<tag k="ssr:stedsnr" v="872036" />
	</node>
	<node id="-356582" lat="58.2759694444" lon="7.53963056295">
		<tag k="name" v="Skremyr" />
		<tag k="natural" v="wetland" />
		<tag k="ssr:stedsnr" v="143504" />
	</node>
	<node id="-358629" lat="58.175627782" lon="7.5782000025">
		<tag k="name" v="Sporåsmyr" />
		<tag k="natural" v="wetland" />
		<tag k="ssr:stedsnr" v="872005" />
	</node>
	<node id="-358626" lat="58.2025861117" lon="7.51233333523">
		<tag k="name" v="Langekjerret" />
		<tag k="natural" v="wetland" />
		<tag k="ssr:stedsnr" v="871794" />
	</node>
	<node id="-358625" lat="58.1768666662" lon="7.45813888112">
		<tag k="name" v="Revura" />
		<tag k="natural" v="scree" />
		<tag k="ssr:stedsnr" v="871461" />
	</node>
	<node id="-358624" lat="58.1695666636" lon="7.45676667415">
		<tag k="name" v="Stedjan" />
		<tag k="natural" v="wetland" />
		<tag k="ssr:stedsnr" v="871459" />
	</node>
	<node id="-356573" lat="58.2576055559" lon="7.48974722528">
		<tag k="name" v="Øyan" />
		<tag k="place" v="locality" />
		<tag k="ssr:stedsnr" v="143339" />
	</node>
	<node id="-358615" lat="58.1649583298" lon="7.48355834075">
		<tag k="name" v="Myran" />
		<tag k="natural" v="wetland" />
		<tag k="ssr:stedsnr" v="871108" />
	</node>
	<node id="-356565" lat="58.3169444471" lon="7.5474138826">
		<tag k="name" v="Gardstø" />
		<tag k="place" v="locality" />
		<tag k="ssr:stedsnr" v="143243" />
	</node>
	<node id="-356564" lat="58.3191500039" lon="7.54928889308">
		<tag k="name" v="Røykjerran" />
		<tag k="natural" v="wetland" />
		<tag k="ssr:stedsnr" v="143242" />
	</node>
	<node id="-358611" lat="58.3792111115" lon="7.60681110283">
		<tag k="name" v="Stean" />
		<tag k="natural" v="wetland" />
		<tag k="ssr:stedsnr" v="871042" />
	</node>
	<node id="-356557" lat="58.351191665" lon="7.49981111153">
		<tag k="name" v="Bjønnekjerret" />
		<tag k="natural" v="wetland" />
		<tag k="ssr:stedsnr" v="143198" />
	</node>
	<node id="-356553" lat="58.3498250009" lon="7.46228055434">
		<tag k="name" v="Sogemyr" />
		<tag k="natural" v="wetland" />
		<tag k="ssr:stedsnr" v="143169" />
	</node>
	<node id="-356551" lat="58.3467111139" lon="7.43982222572">
		<tag k="name" v="Toråsmyr" />
		<tag k="natural" v="wetland" />
		<tag k="ssr:stedsnr" v="143163" />
	</node>
	<node id="-356385" lat="58.446719442" lon="7.53482221981">
		<tag k="name" v="Loppekjerret" />
		<tag k="natural" v="wetland" />
		<tag k="ssr:stedsnr" v="83422" />
	</node>
	<node id="-356545" lat="58.29543333" lon="7.45543333127">
		<tag k="name" v="Krossløa" />
		<tag k="natural" v="wetland" />
		<tag k="ssr:stedsnr" v="143285" />
	</node>
	<node id="-356538" lat="58.3713499961" lon="7.50194165958">
		<tag k="name" v="Rundamyr" />
		<tag k="natural" v="wetland" />
		<tag k="ssr:stedsnr" v="143148" />
	</node>
	<node id="-356537" lat="58.3689138934" lon="7.43891944184">
		<tag k="landuse" v="meadow" />
		<tag k="name" v="Lonan" />
		<tag k="ssr:stedsnr" v="143127" />
	</node>
	<node id="-358584" lat="58.296011109" lon="7.49101389235">
		<tag k="name" v="Skulandsmyran" />
		<tag k="natural" v="wetland" />
		<tag k="ssr:stedsnr" v="849874" />
	</node>
	<node id="-356531" lat="58.1777111143" lon="7.60429167432">
		<tag k="name" v="Snømyr" />
		<tag k="natural" v="wetland" />
		<tag k="ssr:stedsnr" v="143016" />
	</node>
	<node id="-356530" lat="58.2372805521" lon="7.61183611731">
		<tag k="name" v="Kjørbårstean" />
		<tag k="natural" v="wetland" />
		<tag k="ssr:stedsnr" v="143017" />
	</node>
	<node id="-356526" lat="58.1741000031" lon="7.59220278123">
		<tag k="name" v="Plomåskjerret" />
		<tag k="natural" v="wetland" />
		<tag k="ssr:stedsnr" v="143005" />
	</node>
	<node id="-356522" lat="58.1576361073" lon="7.48697499792">
		<tag k="name" v="Lonan" />
		<tag k="natural" v="wetland" />
		<tag k="ssr:stedsnr" v="143099" />
	</node>
	<node id="-356380" lat="58.3980305557" lon="7.48174722151">
		<tag k="name" v="Fibbejordet" />
		<tag k="natural" v="wetland" />
		<tag k="ssr:stedsnr" v="83378" />
	</node>
	<node id="-356517" lat="58.4397888886" lon="7.58841943962">
		<tag k="name" v="Driftestea" />
		<tag k="natural" v="wetland" />
		<tag k="ssr:stedsnr" v="143078" />
	</node>
	<node id="-356509" lat="58.1477055523" lon="7.70011110967">
		<tag k="name" v="Rydningsmyr" />
		<tag k="natural" v="wetland" />
		<tag k="ssr:stedsnr" v="143057" />
	</node>
	<node id="-358553" lat="58.1960166645" lon="7.65157223013">
		<tag k="name" v="Eldhusmyr" />
		<tag k="natural" v="wetland" />
		<tag k="ssr:stedsnr" v="812709" />
	</node>
	<node id="-358545" lat="58.195155556" lon="7.69411388148">
		<tag k="name" v="Spiremyr" />
		<tag k="natural" v="wetland" />
		<tag k="ssr:stedsnr" v="812665" />
	</node>
	<node id="-358094" lat="58.2576305556" lon="7.44827499551">
		<tag k="name" v="Stangemyr" />
		<tag k="natural" v="wetland" />
		<tag k="ssr:stedsnr" v="690374" />
	</node>
	<node id="-358531" lat="58.1947222257" lon="7.54961666291">
		<tag k="name" v="Feuremyr" />
		<tag k="natural" v="wetland" />
		<tag k="ssr:stedsnr" v="811904" />
	</node>
	<node id="-358529" lat="58.201400004" lon="7.55977777462">
		<tag k="name" v="Hepte" />
		<tag k="place" v="locality" />
		<tag k="ssr:stedsnr" v="811895" />
	</node>
	<node id="-358528" lat="58.1982583318" lon="7.5607694406">
		<tag k="name" v="Timremyr" />
		<tag k="natural" v="wetland" />
		<tag k="ssr:stedsnr" v="811894" />
	</node>
	<node id="-358527" lat="58.202466665" lon="7.52313333097">
		<tag k="name" v="Bjørnemyr" />
		<tag k="natural" v="wetland" />
		<tag k="ssr:stedsnr" v="811890" />
	</node>
	<node id="-358526" lat="58.1854749966" lon="7.55068888492">
		<tag k="name" v="Hestekjerret" />
		<tag k="natural" v="wetland" />
		<tag k="ssr:stedsnr" v="811881" />
	</node>
	<node id="-358525" lat="58.1907888927" lon="7.56298055679">
		<tag k="name" v="Døblemyr" />
		<tag k="natural" v="wetland" />
		<tag k="ssr:stedsnr" v="811864" />
	</node>
	<node id="-358521" lat="58.1861777807" lon="7.47139166245">
		<tag k="name" v="Hagesteinen" />
		<tag k="natural" v="stone" />
		<tag k="ssr:stedsnr" v="811812" />
	</node>
	<node id="-358518" lat="58.1883750042" lon="7.50925000317">
		<tag k="name" v="Troåsmyr" />
		<tag k="natural" v="wetland" />
		<tag k="ssr:stedsnr" v="811784" />
	</node>
	<node id="-358517" lat="58.1715027783" lon="7.51084444439">
		<tag k="name" v="Nedre Lonemyr" />
		<tag k="natural" v="wetland" />
		<tag k="ssr:stedsnr" v="811753" />
	</node>
	<node id="-358516" lat="58.2504638848" lon="7.47545555483">
		<tag k="name" v="Kringlemyr" />
		<tag k="natural" v="wetland" />
		<tag k="ssr:stedsnr" v="811748" />
	</node>
	<node id="-358514" lat="58.1696972207" lon="7.53195000756">
		<tag k="name" v="Snømyr" />
		<tag k="natural" v="wetland" />
		<tag k="ssr:stedsnr" v="811738" />
	</node>
	<node id="-358513" lat="58.2225361155" lon="7.47847778311">
		<tag k="name" v="Brumyr" />
		<tag k="natural" v="wetland" />
		<tag k="ssr:stedsnr" v="811737" />
	</node>
	<node id="-358511" lat="58.2211750024" lon="7.47009999378">
		<tag k="name" v="Gunnarsmyr" />
		<tag k="natural" v="wetland" />
		<tag k="ssr:stedsnr" v="811724" />
	</node>
	<node id="-358510" lat="58.168738887" lon="7.66763888224">
		<tag k="name" v="Haremyr" />
		<tag k="natural" v="wetland" />
		<tag k="ssr:stedsnr" v="811717" />
	</node>
	<node id="-358509" lat="58.2596361105" lon="7.55454166172">
		<tag k="name" v="Småstean" />
		<tag k="natural" v="wetland" />
		<tag k="ssr:stedsnr" v="811710" />
	</node>
	<node id="-358508" lat="58.1544944434" lon="7.66046389369">
		<tag k="name" v="Røyrmyr" />
		<tag k="natural" v="wetland" />
		<tag k="ssr:stedsnr" v="811705" />
	</node>
	<node id="-358503" lat="58.1741083338" lon="7.64384722053">
		<tag k="name" v="Almedalsmyr" />
		<tag k="natural" v="wetland" />
		<tag k="ssr:stedsnr" v="811639" />
	</node>
	<node id="-358500" lat="58.2330166633" lon="7.63855000087">
		<tag k="name" v="Blautemyr" />
		<tag k="natural" v="wetland" />
		<tag k="ssr:stedsnr" v="811626" />
	</node>
	<node id="-356450" lat="58.1565777763" lon="7.56067222734">
		<tag k="name" v="Nomesteinen" />
		<tag k="natural" v="stone" />
		<tag k="ssr:stedsnr" v="83976" />
	</node>
	<node id="-358495" lat="58.2535499969" lon="7.55604166103">
		<tag k="name" v="Barlimyr" />
		<tag k="natural" v="wetland" />
		<tag k="ssr:stedsnr" v="811593" />
	</node>
	<node id="-358494" lat="58.2503499998" lon="7.56319999275">
		<tag k="name" v="Karten" />
		<tag k="natural" v="wetland" />
		<tag k="ssr:stedsnr" v="811588" />
	</node>
	<node id="-358493" lat="58.2447305532" lon="7.52951666681">
		<tag k="name" v="Kringlemyr" />
		<tag k="natural" v="wetland" />
		<tag k="ssr:stedsnr" v="811573" />
	</node>
	<node id="-356444" lat="58.2024666704" lon="7.5248611169">
		<tag k="name" v="Heptemyr" />
		<tag k="natural" v="wetland" />
		<tag k="ssr:stedsnr" v="83920" />
	</node>
	<node id="-358489" lat="58.2331111105" lon="7.61081111427">
		<tag k="name" v="Kjosbestean" />
		<tag k="natural" v="wetland" />
		<tag k="ssr:stedsnr" v="811533" />
	</node>
	<node id="-356440" lat="58.189611114" lon="7.55538333249">
		<tag k="name" v="Langemyr" />
		<tag k="natural" v="wetland" />
		<tag k="ssr:stedsnr" v="83891" />
	</node>
	<node id="-358487" lat="58.2254888906" lon="7.59086389143">
		<tag k="name" v="Bjønnskjerret" />
		<tag k="natural" v="wetland" />
		<tag k="ssr:stedsnr" v="811510" />
	</node>
	<node id="-358484" lat="58.26477222" lon="7.53674721985">
		<tag k="name" v="Timremyr" />
		<tag k="natural" v="wetland" />
		<tag k="ssr:stedsnr" v="811484" />
	</node>
	<node id="-356434" lat="58.2598138921" lon="7.51995832859">
		<tag k="name" v="Kvivollen" />
		<tag k="place" v="locality" />
		<tag k="ssr:stedsnr" v="83738" />
	</node>
	<node id="-358481" lat="58.406869448" lon="7.60180555169">
		<tag k="name" v="Støyland" />
		<tag k="place" v="locality" />
		<tag k="ssr:stedsnr" v="811471" />
	</node>
	<node id="-358474" lat="58.4234972256" lon="7.57430276948">
		<tag k="name" v="Gasmyr" />
		<tag k="natural" v="wetland" />
		<tag k="ssr:stedsnr" v="811444" />
	</node>
	<node id="-356023" lat="58.1774583371" lon="7.47017777393">
		<tag k="name" v="Hestemyr" />
		<tag k="natural" v="wetland" />
		<tag k="ssr:stedsnr" v="386785" />
	</node>
	<node id="-356424" lat="58.2418333292" lon="7.47526945279">
		<tag k="name" v="Snellefidjan" />
		<tag k="natural" v="wetland" />
		<tag k="ssr:stedsnr" v="83801" />
	</node>
	<node id="-358469" lat="58.4540361068" lon="7.55000833057">
		<tag k="name" v="Eldhusmyr" />
		<tag k="natural" v="wetland" />
		<tag k="ssr:stedsnr" v="811396" />
	</node>
	<node id="-358468" lat="58.4550333375" lon="7.60279999438">
		<tag k="name" v="Langesteinen" />
		<tag k="natural" v="stone" />
		<tag k="ssr:stedsnr" v="811395" />
	</node>
	<node id="-358465" lat="58.3865333319" lon="7.57087500131">
		<tag k="name" v="Fita" />
		<tag k="natural" v="wetland" />
		<tag k="ssr:stedsnr" v="811374" />
	</node>
	<node id="-358460" lat="58.3378611146" lon="7.43620554768">
		<tag k="name" v="Storemyr" />
		<tag k="natural" v="wetland" />
		<tag k="ssr:stedsnr" v="811355" />
	</node>
	<node id="-358459" lat="58.386341664" lon="7.47138055108">
		<tag k="name" v="Krokemyr" />
		<tag k="natural" v="wetland" />
		<tag k="ssr:stedsnr" v="811353" />
	</node>
	<node id="-356408" lat="58.2326388914" lon="7.59742500564">
		<tag k="name" v="Hessmyr" />
		<tag k="natural" v="wetland" />
		<tag k="ssr:stedsnr" v="83527" />
	</node>
	<node id="-358452" lat="58.2848416703" lon="7.50409999167">
		<tag k="name" v="Myran" />
		<tag k="natural" v="wetland" />
		<tag k="ssr:stedsnr" v="811329" />
	</node>
	<node id="-358449" lat="58.2746388851" lon="7.42624444914">
		<tag k="name" v="Varemyr" />
		<tag k="place" v="locality" />
		<tag k="ssr:stedsnr" v="811320" />
	</node>
	<node id="-358447" lat="58.2632249994" lon="7.44266389151">
		<tag k="name" v="Poddemyr" />
		<tag k="natural" v="wetland" />
		<tag k="ssr:stedsnr" v="811312" />
	</node>
	<node id="-358446" lat="58.3181222205" lon="7.45914443936">
		<tag k="name" v="Rustemyr" />
		<tag k="natural" v="wetland" />
		<tag k="ssr:stedsnr" v="811306" />
	</node>
	<node id="-358440" lat="58.3737555584" lon="7.55044165898">
		<tag k="name" v="Bjeddansmyra" />
		<tag k="natural" v="wetland" />
		<tag k="ssr:stedsnr" v="811271" />
	</node>
	<node id="-358439" lat="58.3832305517" lon="7.53090278327">
		<tag k="name" v="Skjeggestad-myra" />
		<tag k="place" v="locality" />
		<tag k="ssr:stedsnr" v="811266" />
	</node>
	<node id="-358438" lat="58.2258333371" lon="7.40886111251">
		<tag k="name" v="Flottorpstean" />
		<tag k="natural" v="wetland" />
		<tag k="ssr:stedsnr" v="811258" />
	</node>
	<node id="-356387" lat="58.4473111136" lon="7.61478611429">
		<tag k="name" v="Laudalslåtta" />
		<tag k="natural" v="wetland" />
		<tag k="ssr:stedsnr" v="83434" />
	</node>
	<node id="-358433" lat="58.4101166654" lon="7.49041389647">
		<tag k="name" v="Sogeheimyr" />
		<tag k="natural" v="wetland" />
		<tag k="ssr:stedsnr" v="811216" />
	</node>
	<node id="-358428" lat="58.3688166648" lon="7.46797777334">
		<tag k="name" v="Dybland" />
		<tag k="natural" v="wetland" />
		<tag k="ssr:stedsnr" v="811166" />
	</node>
	<node id="-356377" lat="58.4052916677" lon="7.46823888562">
		<tag k="name" v="Bjenndalslåtta" />
		<tag k="natural" v="wetland" />
		<tag k="ssr:stedsnr" v="83357" />
	</node>
	<node id="-356375" lat="58.3300583338" lon="7.46644166437">
		<tag k="name" v="Bårmyr" />
		<tag k="natural" v="wetland" />
		<tag k="ssr:stedsnr" v="83354" />
	</node>
	<node id="-356369" lat="58.266880553" lon="7.4250611115">
		<tag k="name" v="Torvmyr" />
		<tag k="natural" v="wetland" />
		<tag k="ssr:stedsnr" v="83334" />
	</node>
	<node id="-356368" lat="58.2728222186" lon="7.48235555151">
		<tag k="name" v="Langemyr" />
		<tag k="natural" v="wetland" />
		<tag k="ssr:stedsnr" v="83331" />
	</node>
	<node id="-358409" lat="58.1439250025" lon="7.69771666365">
		<tag k="name" v="Hellermyra" />
		<tag k="natural" v="wetland" />
		<tag k="ssr:stedsnr" v="811069" />
	</node>
	<node id="-356360" lat="58.2879249977" lon="7.41915000538">
		<tag k="name" v="Svanemyr" />
		<tag k="natural" v="wetland" />
		<tag k="ssr:stedsnr" v="83301" />
	</node>
	<node id="-356359" lat="58.2801583305" lon="7.45175277194">
		<tag k="name" v="Kyrdalsmyr" />
		<tag k="natural" v="wetland" />
		<tag k="ssr:stedsnr" v="83293" />
	</node>
	<node id="-358405" lat="58.3695166659" lon="7.5790750066">
		<tag k="name" v="Hesstjønnmyr" />
		<tag k="natural" v="wetland" />
		<tag k="ssr:stedsnr" v="811055" />
	</node>
	<node id="-358404" lat="58.3766944475" lon="7.60858054853">
		<tag k="name" v="Kastemyr" />
		<tag k="natural" v="wetland" />
		<tag k="ssr:stedsnr" v="811053" />
	</node>
	<node id="-356354" lat="58.2272888897" lon="7.41671388822">
		<tag k="name" v="Tjønnemyran" />
		<tag k="natural" v="wetland" />
		<tag k="ssr:stedsnr" v="83276" />
	</node>
	<node id="-358401" lat="58.3692000019" lon="7.61780000811">
		<tag k="name" v="Breimyr" />
		<tag k="natural" v="wetland" />
		<tag k="ssr:stedsnr" v="811040" />
	</node>
</osm>
