<?xml version="1.0" encoding="UTF-8"?>
<osm generator="osmapis" version="0.6">
	<node id="-355840" lat="58.1762750021" lon="7.47302777493">
		<tag k="alt_name" v="Manneråg" />
		<tag k="fixme" v="consider place=hamlet" />
		<tag k="name" v="Manneråk" />
		<tag k="place" v="farm" />
		<tag k="ssr:stedsnr" v="61789" />
	</node>
	<node id="-355838" lat="58.1620499976" lon="7.50256666795">
		<tag k="name" v="Øygarden" />
		<tag k="place" v="farm" />
		<tag k="ssr:stedsnr" v="61783" />
	</node>
	<node id="-358395" lat="58.3745083302" lon="7.43847778611">
		<tag k="name" v="Skaddan" />
		<tag k="place" v="locality" />
		<tag k="ssr:stedsnr" v="932156" />
	</node>
	<node id="-355834" lat="58.3248194414" lon="7.53486666842">
		<tag k="fixme" v="consider place=hamlet" />
		<tag k="name" v="Manflå" />
		<tag k="place" v="farm" />
		<tag k="ssr:stedsnr" v="61768" />
	</node>
	<node id="-355833" lat="58.1645999962" lon="7.67185000748">
		<tag k="name" v="Øygarden" />
		<tag k="place" v="farm" />
		<tag k="ssr:stedsnr" v="61759" />
	</node>
	<node id="-355832" lat="58.3301999973" lon="7.4846583384">
		<tag k="alt_name" v="Haraldstad, øvre;Haraldstad øvre" />
		<tag k="fixme" v="consider place=hamlet" />
		<tag k="name" v="Øvre Haraldstad" />
		<tag k="place" v="farm" />
		<tag k="ssr:stedsnr" v="61749" />
	</node>
	<node id="-355830" lat="58.2140388862" lon="7.52309166307">
		<tag k="name" v="Kroken" />
		<tag k="place" v="farm" />
		<tag k="ssr:stedsnr" v="61738" />
	</node>
	<node id="-355829" lat="58.2131472225" lon="7.51436388618">
		<tag k="fixme" v="consider place=hamlet" />
		<tag k="name" v="Marnardal" />
		<tag k="place" v="village" />
		<tag k="ssr:stedsnr" v="61737" />
	</node>
	<node id="-355827" lat="58.2330666659" lon="7.50776666831">
		<tag k="alt_name" v="Kåland" />
		<tag k="name" v="Koland" />
		<tag k="place" v="farm" />
		<tag k="ssr:stedsnr" v="61726" />
	</node>
	<node id="-355826" lat="58.2076583351" lon="7.64516110889">
		<tag k="alt_name" v="Fossestøl" />
		<tag k="fixme" v="consider place=hamlet" />
		<tag k="name" v="Fosstøl" />
		<tag k="place" v="farm" />
		<tag k="ssr:stedsnr" v="61679" />
	</node>
	<node id="-357544" lat="58.3886305534" lon="7.52596943746">
		<tag k="name" v="Bergan" />
		<tag k="place" v="farm" />
		<tag k="ssr:stedsnr" v="667995" />
	</node>
	<node id="-355310" lat="58.1735527763" lon="7.55688888893">
		<tag k="name" v="Nesan" />
		<tag k="place" v="quarter" />
		<tag k="ssr:stedsnr" v="325609" />
	</node>
	<node id="-356841" lat="58.1753416682" lon="7.48459721965">
		<tag k="name" v="Myran" />
		<tag k="place" v="farm" />
		<tag k="ssr:stedsnr" v="447804" />
	</node>
	<node id="-356326" lat="58.4007416623" lon="7.4832694432">
		<tag k="name" v="Bjenndal" />
		<tag k="place" v="locality" />
		<tag k="ssr:stedsnr" v="204310" />
	</node>
	<node id="-355835" lat="58.344086111" lon="7.47042777549">
		<tag k="name" v="Moland" />
		<tag k="place" v="farm" />
		<tag k="ssr:stedsnr" v="61774" />
	</node>
	<node id="-357530" lat="58.2642249991" lon="7.52054443883">
		<tag k="alt_name" v="Kleveland;Kleveland nedre" />
		<tag k="fixme" v="consider place=hamlet" />
		<tag k="name" v="Nedre Kleveland" />
		<tag k="place" v="farm" />
		<tag k="ssr:stedsnr" v="667798" />
	</node>
	<node id="-357541" lat="58.3756444418" lon="7.5140694366">
		<tag k="alt_name" v="Hefteli" />
		<tag k="name" v="Heptelii" />
		<tag k="place" v="farm" />
		<tag k="ssr:stedsnr" v="667946" />
	</node>
	<node id="-358363" lat="58.3740888886" lon="7.60445000154">
		<tag k="fixme" v="consider place=hamlet" />
		<tag k="name" v="Ask" />
		<tag k="place" v="farm" />
		<tag k="ssr:stedsnr" v="910956" />
	</node>
	<node id="-358361" lat="58.3714388923" lon="7.45816666547">
		<tag k="alt_name" v="Rydlende" />
		<tag k="name" v="Rydlendet" />
		<tag k="place" v="hamlet" />
		<tag k="ssr:stedsnr" v="910949" />
	</node>
	<node id="-358359" lat="58.2313999989" lon="7.42068333684">
		<tag k="fixme" v="consider place=hamlet" />
		<tag k="name" v="Kaddan" />
		<tag k="place" v="farm" />
		<tag k="ssr:stedsnr" v="910918" />
	</node>
	<node id="-358357" lat="58.4276305517" lon="7.61024444849">
		<tag k="alt_name" v="Myra" />
		<tag k="name" v="Myri" />
		<tag k="place" v="farm" />
		<tag k="ssr:stedsnr" v="910894" />
	</node>
	<node id="-358356" lat="58.3004083367" lon="7.48523055595">
		<tag k="fixme" v="consider place=hamlet" />
		<tag k="name" v="Skuland" />
		<tag k="place" v="farm" />
		<tag k="ssr:stedsnr" v="910838" />
	</node>
	<node id="-358353" lat="58.3210472205" lon="7.51878610481">
		<tag k="alt_name" v="Haugeneset;Haukenes" />
		<tag k="fixme" v="consider place=hamlet" />
		<tag k="name" v="Haukeneset" />
		<tag k="place" v="farm" />
		<tag k="ssr:stedsnr" v="910776" />
	</node>
	<node id="-355280" lat="58.2820444443" lon="7.43312222016">
		<tag k="name" v="Fodnestøl" />
		<tag k="place" v="locality" />
		<tag k="ssr:stedsnr" v="325313" />
	</node>
	<node id="-358351" lat="58.3119083358" lon="7.49742221545">
		<tag k="fixme" v="consider place=hamlet" />
		<tag k="name" v="Skogen" />
		<tag k="place" v="farm" />
		<tag k="ssr:stedsnr" v="910757" />
	</node>
	<node id="-356302" lat="58.4205388847" lon="7.49955832857">
		<tag k="name" v="Bua" />
		<tag k="place" v="isolated_dwelling" />
		<tag k="ssr:stedsnr" v="204192" />
	</node>
	<node id="-358349" lat="58.1982555525" lon="7.58798611321">
		<tag k="fixme" v="consider place=hamlet" />
		<tag k="name" v="Surteland" />
		<tag k="place" v="farm" />
		<tag k="ssr:stedsnr" v="910705" />
	</node>
	<node id="-355434" lat="58.1577499982" lon="7.61577222908">
		<tag k="fixme" v="consider place=hamlet" />
		<tag k="name" v="Skoland" />
		<tag k="place" v="farm" />
		<tag k="ssr:stedsnr" v="363773" />
	</node>
	<node id="-358345" lat="58.242463888" lon="7.46430555318">
		<tag k="alt_name" v="Hallingskår" />
		<tag k="fixme" v="consider place=hamlet" />
		<tag k="name" v="Haddingskor" />
		<tag k="place" v="farm" />
		<tag k="ssr:stedsnr" v="910646" />
	</node>
	<node id="-358342" lat="58.2432944433" lon="7.50964443651">
		<tag k="name" v="Skjeggestadlia" />
		<tag k="place" v="quarter" />
		<tag k="ssr:stedsnr" v="908018" />
	</node>
	<node id="-355781" lat="58.1977388872" lon="7.65166389407">
		<tag k="name" v="Timra" />
		<tag k="place" v="locality" />
		<tag k="ssr:stedsnr" v="23708" />
	</node>
	<node id="-355780" lat="58.2140416636" lon="7.70319167487">
		<tag k="name" v="Godåsen" />
		<tag k="place" v="locality" />
		<tag k="ssr:stedsnr" v="23691" />
	</node>
	<node id="-357080" lat="58.2289583308" lon="7.51567499937">
		<tag k="alt_name" v="Kolvekleiv" />
		<tag k="name" v="Kalvekleiv" />
		<tag k="place" v="farm" />
		<tag k="ssr:stedsnr" v="546692" />
	</node>
	<node id="-357312" lat="58.3697527812" lon="7.43779167306">
		<tag k="name" v="Vollen" />
		<tag k="place" v="farm" />
		<tag k="ssr:stedsnr" v="606945" />
	</node>
	<node id="-357311" lat="58.3856361069" lon="7.63030277858">
		<tag k="alt_name" v="Ødegården" />
		<tag k="fixme" v="consider place=hamlet" />
		<tag k="name" v="Øygarden" />
		<tag k="place" v="farm" />
		<tag k="ssr:stedsnr" v="606932" />
	</node>
	<node id="-357309" lat="58.1674361075" lon="7.5515611167">
		<tag k="name" v="Øyslebø" />
		<tag k="place" v="village" />
		<tag k="ssr:stedsnr" v="606776" />
	</node>
	<node id="-357308" lat="58.1629277797" lon="7.62676388998">
		<tag k="alt_name" v="Røkking" />
		<tag k="fixme" v="consider place=hamlet" />
		<tag k="name" v="Røkkinga" />
		<tag k="place" v="farm" />
		<tag k="ssr:stedsnr" v="606777" />
	</node>
	<node id="-357307" lat="58.3139111082" lon="7.44720000678">
		<tag k="name" v="Fjellheim" />
		<tag k="place" v="farm" />
		<tag k="ssr:stedsnr" v="606760" />
	</node>
	<node id="-357306" lat="58.1567888883" lon="7.6826916637">
		<tag k="name" v="Solås" />
		<tag k="place" v="farm" />
		<tag k="ssr:stedsnr" v="606759" />
	</node>
	<node id="-357305" lat="58.3324472229" lon="7.53111666927">
		<tag k="alt_name" v="Stronnen" />
		<tag k="name" v="Stronda" />
		<tag k="place" v="locality" />
		<tag k="ssr:stedsnr" v="606750" />
	</node>
	<node id="-357304" lat="58.222816668" lon="7.46180833963">
		<tag k="fixme" v="consider place=hamlet" />
		<tag k="name" v="Høneland" />
		<tag k="place" v="farm" />
		<tag k="ssr:stedsnr" v="606732" />
	</node>
	<node id="-357303" lat="58.2237861135" lon="7.48973611048">
		<tag k="fixme" v="consider place=hamlet" />
		<tag k="name" v="Sangesland" />
		<tag k="place" v="farm" />
		<tag k="ssr:stedsnr" v="606731" />
	</node>
	<node id="-357301" lat="58.209458333" lon="7.51479722242">
		<tag k="fixme" v="consider place=hamlet" />
		<tag k="name" v="Bue" />
		<tag k="place" v="farm" />
		<tag k="ssr:stedsnr" v="606724" />
	</node>
	<node id="-357812" lat="58.388461115" lon="7.60410555388">
		<tag k="name" v="Hauglandskaret" />
		<tag k="place" v="locality" />
		<tag k="ssr:stedsnr" v="750354" />
	</node>
	<node id="-357299" lat="58.2018895774" lon="7.7062200102">
		<tag k="alt_name" v="Bredland" />
		<tag k="name" v="Breland" />
		<tag k="place" v="hamlet" />
		<tag k="ssr:stedsnr" v="606687" />
	</node>
	<node id="-357298" lat="58.201899997" lon="7.61588610561">
		<tag k="name" v="Støa" />
		<tag k="place" v="farm" />
		<tag k="ssr:stedsnr" v="606685" />
	</node>
	<node id="-355229" lat="58.3837030815" lon="7.60241600523">
		<tag k="fixme" v="consider place=hamlet" />
		<tag k="name" v="Koland" />
		<tag k="place" v="farm" />
		<tag k="ssr:stedsnr" v="303999" />
	</node>
	<node id="-357803" lat="58.2100555565" lon="7.6915111073">
		<tag k="name" v="Berge" />
		<tag k="place" v="locality" />
		<tag k="ssr:stedsnr" v="751691" />
	</node>
	<node id="-356264" lat="58.3712388892" lon="7.44141111619">
		<tag k="name" v="Rosseland" />
		<tag k="place" v="farm" />
		<tag k="ssr:stedsnr" v="182934" />
	</node>
	<node id="-357540" lat="58.4376000021" lon="7.52991388703">
		<tag k="name" v="Stedjan" />
		<tag k="place" v="farm" />
		<tag k="ssr:stedsnr" v="667923" />
	</node>
	<node id="-356261" lat="58.1799250035" lon="7.54336111484">
		<tag k="fixme" v="consider place=hamlet" />
		<tag k="name" v="Usland" />
		<tag k="place" v="farm" />
		<tag k="ssr:stedsnr" v="182785" />
	</node>
	<node id="-356260" lat="58.1728805522" lon="7.56492500428">
		<tag k="alt_name" v="Skjævesland" />
		<tag k="name" v="Sjævesland" />
		<tag k="place" v="village" />
		<tag k="ssr:stedsnr" v="182782" />
	</node>
	<node id="-356259" lat="58.1594138922" lon="7.50373055067">
		<tag k="name" v="Øygarden" />
		<tag k="place" v="farm" />
		<tag k="ssr:stedsnr" v="182781" />
	</node>
	<node id="-356257" lat="58.1496333342" lon="7.56830000239">
		<tag k="fixme" v="consider place=hamlet" />
		<tag k="name" v="Nome" />
		<tag k="place" v="farm" />
		<tag k="ssr:stedsnr" v="182765" />
	</node>
	<node id="-358563" lat="58.2236884778" lon="7.6482770959">
		<tag k="name" v="Bjeddan" />
		<tag k="place" v="farm" />
		<tag k="ssr:stedsnr" v="974163" />
	</node>
	<node id="-355230" lat="58.2033972265" lon="7.71085278424">
		<tag k="alt_name" v="Skor" />
		<tag k="fixme" v="consider place=hamlet" />
		<tag k="name" v="Skår" />
		<tag k="place" v="farm" />
		<tag k="ssr:stedsnr" v="304706" />
	</node>
	<node id="-355741" lat="58.1603500011" lon="7.69221111855">
		<tag k="name" v="Porskjær" />
		<tag k="place" v="farm" />
		<tag k="ssr:stedsnr" v="22700" />
	</node>
	<node id="-355227" lat="58.3891277748" lon="7.57044721982">
		<tag k="alt_name" v="Øvregården" />
		<tag k="name" v="Øvergarden" />
		<tag k="place" v="farm" />
		<tag k="ssr:stedsnr" v="303987" />
	</node>
	<node id="-356250" lat="58.2083888889" lon="7.60025000287">
		<tag k="name" v="Murtestean" />
		<tag k="place" v="farm" />
		<tag k="ssr:stedsnr" v="182685" />
	</node>
	<node id="-356249" lat="58.2485638864" lon="7.46223611101">
		<tag k="fixme" v="consider place=hamlet" />
		<tag k="name" v="Ugland" />
		<tag k="place" v="farm" />
		<tag k="ssr:stedsnr" v="182629" />
	</node>
	<node id="-356248" lat="58.2574361071" lon="7.52621110858">
		<tag k="fixme" v="consider place=hamlet" />
		<tag k="name" v="Kimestad" />
		<tag k="place" v="farm" />
		<tag k="ssr:stedsnr" v="182205" />
	</node>
	<node id="-355222" lat="58.1983666686" lon="7.51933610978">
		<tag k="fixme" v="consider place=hamlet" />
		<tag k="name" v="Heddeland" />
		<tag k="place" v="farm" />
		<tag k="ssr:stedsnr" v="303869" />
	</node>
	<node id="-355221" lat="58.3023277769" lon="7.41528611149">
		<tag k="alt_name" v="Rustad" />
		<tag k="fixme" v="consider place=hamlet" />
		<tag k="name" v="Rusta" />
		<tag k="place" v="farm" />
		<tag k="ssr:stedsnr" v="303842" />
	</node>
	<node id="-355219" lat="58.339152777" lon="7.47420832851">
		<tag k="alt_name" v="Heddåsen" />
		<tag k="fixme" v="consider place=hamlet" />
		<tag k="name" v="Hellåsen" />
		<tag k="place" v="farm" />
		<tag k="ssr:stedsnr" v="303791" />
	</node>
	<node id="-355218" lat="58.1666277762" lon="7.63184165877">
		<tag k="fixme" v="consider place=hamlet" />
		<tag k="name" v="Birkeland" />
		<tag k="place" v="farm" />
		<tag k="ssr:stedsnr" v="303773" />
	</node>
	<node id="-355216" lat="58.3312694419" lon="7.44153889504">
		<tag k="fixme" v="consider place=hamlet" />
		<tag k="name" v="Kråkeland" />
		<tag k="place" v="farm" />
		<tag k="ssr:stedsnr" v="303748" />
	</node>
	<node id="-355215" lat="58.2217416665" lon="7.51725554891">
		<tag k="alt_name" v="Fuglestveit" />
		<tag k="name" v="Fyglestveit" />
		<tag k="place" v="hamlet" />
		<tag k="ssr:stedsnr" v="303734" />
	</node>
	<node id="-355213" lat="58.2383750004" lon="7.46133056044">
		<tag k="name" v="Åsen" />
		<tag k="place" v="farm" />
		<tag k="ssr:stedsnr" v="303651" />
	</node>
	<node id="-357257" lat="58.2015472207" lon="7.56369167162">
		<tag k="name" v="Øygarden" />
		<tag k="place" v="locality" />
		<tag k="ssr:stedsnr" v="568963" />
	</node>
	<node id="-356730" lat="58.154075003" lon="7.68569166282">
		<tag k="name" v="Solås store" />
		<tag k="place" v="farm" />
		<tag k="ssr:stedsnr" v="447106" />
	</node>
	<node id="-357753" lat="58.3525583371" lon="7.45786110773">
		<tag k="fixme" v="multiple name tags, choose one and add the other to alt_name" />
		<tag k="name" v="Nedre Abelset;Hola" />
		<tag k="place" v="farm" />
		<tag k="ssr:stedsnr" v="728971" />
	</node>
	<node id="-357750" lat="58.4547250028" lon="7.47760833557">
		<tag k="name" v="Hommen" />
		<tag k="place" v="farm" />
		<tag k="ssr:stedsnr" v="728900" />
	</node>
	<node id="-356723" lat="58.3793083313" lon="7.62609721403">
		<tag k="name" v="Øygarden" />
		<tag k="place" v="locality" />
		<tag k="ssr:stedsnr" v="447071" />
	</node>
	<node id="-357746" lat="58.4238833318" lon="7.51953888727">
		<tag k="fixme" v="consider place=hamlet" />
		<tag k="name" v="Foss" />
		<tag k="place" v="farm" />
		<tag k="ssr:stedsnr" v="728866" />
	</node>
	<node id="-357745" lat="58.2929999971" lon="7.52638888831">
		<tag k="alt_name" v="Strædet" />
		<tag k="fixme" v="consider place=hamlet" />
		<tag k="name" v="Stræde" />
		<tag k="place" v="farm" />
		<tag k="ssr:stedsnr" v="728864" />
	</node>
	<node id="-357744" lat="58.2866555588" lon="7.40049721679">
		<tag k="alt_name" v="Birketveit" />
		<tag k="fixme" v="consider place=hamlet" />
		<tag k="name" v="Birkjetveit" />
		<tag k="place" v="farm" />
		<tag k="ssr:stedsnr" v="728854" />
	</node>
	<node id="-358255" lat="58.2185" lon="7.61659444873">
		<tag k="name" v="Vollan" />
		<tag k="place" v="farm" />
		<tag k="ssr:stedsnr" v="872556" />
	</node>
	<node id="-357742" lat="58.1802166642" lon="7.67330554893">
		<tag k="fixme" v="consider place=hamlet" />
		<tag k="name" v="Sløgedal" />
		<tag k="place" v="farm" />
		<tag k="ssr:stedsnr" v="728792" />
	</node>
	<node id="-358607" lat="58.2013531165" lon="7.70590536754">
		<tag k="name" v="Breland" />
		<tag k="place" v="farm" />
		<tag k="ssr:stedsnr" v="977537" />
	</node>
	<node id="-358341" lat="58.1686027781" lon="7.57842499158">
		<tag k="name" v="Brendebakke" />
		<tag k="place" v="quarter" />
		<tag k="ssr:stedsnr" v="907101" />
	</node>
	<node id="-357735" lat="58.3071611109" lon="7.45797500538">
		<tag k="alt_name" v="Tjønnåsen" />
		<tag k="fixme" v="consider place=hamlet" />
		<tag k="name" v="Tjørnåsen" />
		<tag k="place" v="farm" />
		<tag k="ssr:stedsnr" v="728744" />
	</node>
	<node id="-357734" lat="58.3132388882" lon="7.52018610777">
		<tag k="name" v="Neset" />
		<tag k="place" v="farm" />
		<tag k="ssr:stedsnr" v="728739" />
	</node>
	<node id="-357731" lat="58.3143499967" lon="7.46623332967">
		<tag k="alt_name" v="Brauskeland" />
		<tag k="fixme" v="consider place=hamlet" />
		<tag k="name" v="Bruskeland" />
		<tag k="place" v="farm" />
		<tag k="ssr:stedsnr" v="728715" />
	</node>
	<node id="-356706" lat="58.3989250007" lon="7.58666667302">
		<tag k="name" v="Bunken" />
		<tag k="place" v="isolated_dwelling" />
		<tag k="ssr:stedsnr" v="425973" />
	</node>
	<node id="-356705" lat="58.3682833338" lon="7.60133055485">
		<tag k="fixme" v="consider place=hamlet" />
		<tag k="name" v="Sundbø" />
		<tag k="place" v="farm" />
		<tag k="ssr:stedsnr" v="425965" />
	</node>
	<node id="-355679" lat="58.3753833289" lon="7.4427333381">
		<tag k="name" v="Myra" />
		<tag k="place" v="locality" />
		<tag k="ssr:stedsnr" v="22131" />
	</node>
	<node id="-357726" lat="58.2022861155" lon="7.69194167118">
		<tag k="alt_name" v="Fladeli;Flatelien" />
		<tag k="fixme" v="consider place=hamlet" />
		<tag k="name" v="Flateli" />
		<tag k="place" v="farm" />
		<tag k="ssr:stedsnr" v="728657" />
	</node>
	<node id="-357725" lat="58.2468333339" lon="7.42946944379">
		<tag k="fixme" v="consider place=hamlet" />
		<tag k="name" v="Leineland" />
		<tag k="place" v="farm" />
		<tag k="ssr:stedsnr" v="728609" />
	</node>
	<node id="-357724" lat="58.2459166635" lon="7.51177777164">
		<tag k="name" v="Storehagen" />
		<tag k="place" v="farm" />
		<tag k="ssr:stedsnr" v="728606" />
	</node>
	<node id="-356699" lat="58.4235638934" lon="7.60812777502">
		<tag k="name" v="Myran" />
		<tag k="place" v="farm" />
		<tag k="ssr:stedsnr" v="425894" />
	</node>
	<node id="-356470" lat="58.3368972256" lon="7.51817500438">
		<tag k="alt_name" v="Homme;Homme ytre" />
		<tag k="fixme" v="consider place=hamlet" />
		<tag k="name" v="Ytre Homme" />
		<tag k="place" v="farm" />
		<tag k="ssr:stedsnr" v="243799" />
	</node>
	<node id="-357091" lat="58.2722916676" lon="7.43031943768">
		<tag k="alt_name" v="Vestre Lian" />
		<tag k="name" v="Lian" />
		<tag k="place" v="farm" />
		<tag k="ssr:stedsnr" v="546785" />
	</node>
	<node id="-356687" lat="58.3075666656" lon="7.5151333358">
		<tag k="name" v="Granli" />
		<tag k="place" v="farm" />
		<tag k="ssr:stedsnr" v="425777" />
	</node>
	<node id="-356686" lat="58.3304138866" lon="7.5145499929">
		<tag k="alt_name" v="Bronneset" />
		<tag k="name" v="Bråneset" />
		<tag k="place" v="farm" />
		<tag k="ssr:stedsnr" v="425772" />
	</node>
	<node id="-357090" lat="58.2772444417" lon="7.43899167417">
		<tag k="fixme" v="consider place=hamlet" />
		<tag k="name" v="Kleiven" />
		<tag k="place" v="farm" />
		<tag k="ssr:stedsnr" v="546784" />
	</node>
	<node id="-355657" lat="58.3839388871" lon="7.55943611358">
		<tag k="alt_name" v="Sølvskar;Sølvskaret" />
		<tag k="fixme" v="consider place=hamlet" />
		<tag k="name" v="Sylvskardet" />
		<tag k="place" v="farm" />
		<tag k="ssr:stedsnr" v="998" />
	</node>
	<node id="-356680" lat="58.2051499958" lon="7.48004166082">
		<tag k="fixme" v="consider place=hamlet" />
		<tag k="name" v="Bosoll" />
		<tag k="place" v="farm" />
		<tag k="ssr:stedsnr" v="425709" />
	</node>
	<node id="-356678" lat="58.2097999993" lon="7.68080000849">
		<tag k="alt_name" v="Villehei" />
		<tag k="fixme" v="consider place=hamlet" />
		<tag k="name" v="Villeheia" />
		<tag k="place" v="farm" />
		<tag k="ssr:stedsnr" v="425704" />
	</node>
	<node id="-355653" lat="58.4386666698" lon="7.62069166026">
		<tag k="fixme" v="consider place=hamlet" />
		<tag k="name" v="Roland" />
		<tag k="place" v="farm" />
		<tag k="ssr:stedsnr" v="937" />
	</node>
	<node id="-356046" lat="58.2699000002" lon="7.43789444206">
		<tag k="alt_name" v="Fidje" />
		<tag k="fixme" v="consider place=hamlet" />
		<tag k="name" v="Fidja" />
		<tag k="place" v="farm" />
		<tag k="ssr:stedsnr" v="121824" />
	</node>
	<node id="-355651" lat="58.2928194426" lon="7.42079443792">
		<tag k="alt_name" v="Birkeland" />
		<tag k="fixme" v="consider place=hamlet" />
		<tag k="name" v="Birkjeland" />
		<tag k="place" v="farm" />
		<tag k="ssr:stedsnr" v="867" />
	</node>
	<node id="-356674" lat="58.2451111142" lon="7.53429999958">
		<tag k="alt_name" v="Bjørnestøl" />
		<tag k="fixme" v="consider place=hamlet" />
		<tag k="name" v="Bjørnstøl" />
		<tag k="place" v="farm" />
		<tag k="ssr:stedsnr" v="425616" />
	</node>
	<node id="-355649" lat="58.2623416675" lon="7.47033888397">
		<tag k="alt_name" v="Fjellestad" />
		<tag k="name" v="Fjelestad" />
		<tag k="place" v="hamlet" />
		<tag k="ssr:stedsnr" v="826" />
	</node>
	<node id="-356672" lat="58.2014361146" lon="7.70687500114">
		<tag k="fixme" v="consider place=hamlet" />
		<tag k="name" v="Breland" />
		<tag k="place" v="farm" />
		<tag k="ssr:stedsnr" v="424985" />
	</node>
	<node id="-355646" lat="58.3404388844" lon="7.46371110734">
		<tag k="alt_name" v="Hjemlestad" />
		<tag k="fixme" v="consider place=hamlet" />
		<tag k="name" v="Gjemlestad" />
		<tag k="place" v="farm" />
		<tag k="ssr:stedsnr" v="809" />
	</node>
	<node id="-355645" lat="58.1530138906" lon="7.49569166955">
		<tag k="fixme" v="consider place=hamlet" />
		<tag k="name" v="Listad" />
		<tag k="place" v="farm" />
		<tag k="ssr:stedsnr" v="797" />
	</node>
	<node id="-355644" lat="58.1715416665" lon="7.65981388941">
		<tag k="fixme" v="consider place=hamlet" />
		<tag k="name" v="Eikså" />
		<tag k="place" v="farm" />
		<tag k="ssr:stedsnr" v="789" />
	</node>
	<node id="-356155" lat="58.1708555555" lon="7.55356389421">
		<tag k="name" v="Matkrogen" />
		<tag k="place" v="quarter" />
		<tag k="ssr:stedsnr" v="143619" />
	</node>
	<node id="-355642" lat="58.2403305542" lon="7.56789167147">
		<tag k="alt_name" v="Finnsådal" />
		<tag k="name" v="Finsådal" />
		<tag k="place" v="hamlet" />
		<tag k="ssr:stedsnr" v="630" />
	</node>
	<node id="-356060" lat="58.3800000043" lon="7.47923056362">
		<tag k="alt_name" v="Nordgard" />
		<tag k="name" v="Nordgarden" />
		<tag k="place" v="farm" />
		<tag k="ssr:stedsnr" v="121995" />
	</node>
	<node id="-355892" lat="58.2169750011" lon="7.42639999421">
		<tag k="alt_name" v="Buksholtet" />
		<tag k="fixme" v="consider place=hamlet" />
		<tag k="name" v="Buksholt" />
		<tag k="place" v="farm" />
		<tag k="ssr:stedsnr" v="83248" />
	</node>
	<node id="-355209" lat="58.2548500005" lon="7.54910277128">
		<tag k="fixme" v="consider place=hamlet" />
		<tag k="name" v="Apesland" />
		<tag k="place" v="farm" />
		<tag k="ssr:stedsnr" v="303221" />
	</node>
	<node id="-356147" lat="58.3952722215" lon="7.52475833099">
		<tag k="name" v="Monan" />
		<tag k="place" v="hamlet" />
		<tag k="ssr:stedsnr" v="143484" />
	</node>
	<node id="-356573" lat="58.2441916666" lon="7.41785277605">
		<tag k="name" v="Heia" />
		<tag k="place" v="locality" />
		<tag k="ssr:stedsnr" v="265494" />
	</node>
	<node id="-355565" lat="58.2133777776" lon="7.71229443729">
		<tag k="name" v="Øygarden" />
		<tag k="place" v="locality" />
		<tag k="ssr:stedsnr" v="386657" />
	</node>
	<node id="-358620" lat="58.225164804" lon="7.47931462368">
		<tag k="fixme" v="consider place=hamlet" />
		<tag k="name" v="Mønnsås" />
		<tag k="place" v="farm" />
		<tag k="ssr:stedsnr" v="978910" />
	</node>
	<node id="-357082" lat="58.2189805529" lon="7.49150554917">
		<tag k="fixme" v="consider place=hamlet" />
		<tag k="name" v="Klamdalen" />
		<tag k="place" v="farm" />
		<tag k="ssr:stedsnr" v="546704" />
	</node>
	<node id="-355445" lat="58.2252194415" lon="7.48264723003">
		<tag k="name" v="Mjunåsen" />
		<tag k="place" v="farm" />
		<tag k="ssr:stedsnr" v="364741" />
	</node>
	<node id="-358159" lat="58.439880553" lon="7.60640277843">
		<tag k="alt_name" v="Valebrokken" />
		<tag k="fixme" v="consider place=hamlet" />
		<tag k="name" v="Valebrokk" />
		<tag k="place" v="farm" />
		<tag k="ssr:stedsnr" v="850920" />
	</node>
	<node id="-358154" lat="58.2769944486" lon="7.52175000816">
		<tag k="name" v="Lislestræde" />
		<tag k="place" v="farm" />
		<tag k="ssr:stedsnr" v="850808" />
	</node>
	<node id="-356055" lat="58.3731861135" lon="7.55591111466">
		<tag k="alt_name" v="Fyllestean" />
		<tag k="name" v="Fyllstean" />
		<tag k="place" v="locality" />
		<tag k="ssr:stedsnr" v="121950" />
	</node>
	<node id="-358152" lat="58.3588333338" lon="7.55036111728">
		<tag k="fixme" v="consider place=hamlet" />
		<tag k="name" v="Tjelland" />
		<tag k="place" v="farm" />
		<tag k="ssr:stedsnr" v="850786" />
	</node>
	<node id="-358150" lat="58.1624083293" lon="7.68593334144">
		<tag k="fixme" v="consider place=hamlet" />
		<tag k="name" v="Ausland" />
		<tag k="place" v="farm" />
		<tag k="ssr:stedsnr" v="850765" />
	</node>
	<node id="-358149" lat="58.3320333373" lon="7.52830000589">
		<tag k="name" v="Grovan" />
		<tag k="place" v="locality" />
		<tag k="ssr:stedsnr" v="850753" />
	</node>
	<node id="-356612" lat="58.2432944433" lon="7.50964443651">
		<tag k="name" v="Kjerrvaneset" />
		<tag k="place" v="quarter" />
		<tag k="ssr:stedsnr" v="265813" />
	</node>
	<node id="-356054" lat="58.3717777809" lon="7.47986389316">
		<tag k="fixme" v="consider place=hamlet" />
		<tag k="name" v="Mindrebø" />
		<tag k="place" v="farm" />
		<tag k="ssr:stedsnr" v="121945" />
	</node>
	<node id="-358145" lat="58.225638893" lon="7.6781611115">
		<tag k="alt_name" v="Bjørnstøl" />
		<tag k="fixme" v="consider place=hamlet" />
		<tag k="name" v="Bjørnestøl" />
		<tag k="place" v="farm" />
		<tag k="ssr:stedsnr" v="850720" />
	</node>
	<node id="-358144" lat="58.2290499966" lon="7.48740000839">
		<tag k="fixme" v="consider place=hamlet" />
		<tag k="name" v="Aukland" />
		<tag k="place" v="farm" />
		<tag k="ssr:stedsnr" v="850717" />
	</node>
	<node id="-358140" lat="58.196116663" lon="7.62568889714">
		<tag k="alt_name" v="Skoddan" />
		<tag k="fixme" v="consider place=hamlet" />
		<tag k="name" v="Skolland" />
		<tag k="place" v="farm" />
		<tag k="ssr:stedsnr" v="850698" />
	</node>
	<node id="-358138" lat="58.3526750032" lon="7.45551666503">
		<tag k="fixme" v="consider place=hamlet" />
		<tag k="name" v="Nedre Abelset" />
		<tag k="place" v="farm" />
		<tag k="ssr:stedsnr" v="849876" />
	</node>
	<node id="-358135" lat="58.2968222233" lon="7.50881111189">
		<tag k="fixme" v="consider place=hamlet" />
		<tag k="name" v="Ågset" />
		<tag k="place" v="farm" />
		<tag k="ssr:stedsnr" v="849853" />
	</node>
	<node id="-358581" lat="58.2241071304" lon="7.50525058062">
		<tag k="name" v="Voan" />
		<tag k="place" v="farm" />
		<tag k="ssr:stedsnr" v="977482" />
	</node>
	<node id="-357217" lat="58.1752250022" lon="7.46079444236">
		<tag k="historic" v="shieling" />
		<tag k="name" v="Goåsløa" />
		<tag k="place" v="locality" />
		<tag k="ssr:stedsnr" v="568766" />
	</node>
	<node id="-357075" lat="58.2491277738" lon="7.50246388277">
		<tag k="name" v="Laudal" />
		<tag k="place" v="farm" />
		<tag k="ssr:stedsnr" v="546588" />
	</node>
	<node id="-357104" lat="58.4058666681" lon="7.59450832992">
		<tag k="fixme" v="consider place=hamlet" />
		<tag k="name" v="Haugland" />
		<tag k="place" v="farm" />
		<tag k="ssr:stedsnr" v="546971" />
	</node>
	<node id="-357103" lat="58.4147694415" lon="7.64558888419">
		<tag k="alt_name" v="Eivenstad" />
		<tag k="name" v="Eivindstad" />
		<tag k="place" v="isolated_dwelling" />
		<tag k="ssr:stedsnr" v="546958" />
	</node>
	<node id="-357101" lat="58.4110944454" lon="7.60044721997">
		<tag k="alt_name" v="Bjønnevollen" />
		<tag k="name" v="Bjørnevollen" />
		<tag k="place" v="farm" />
		<tag k="ssr:stedsnr" v="546955" />
	</node>
	<node id="-357074" lat="58.1925000043" lon="7.52236944186">
		<tag k="name" v="Heddeland" />
		<tag k="place" v="quarter" />
		<tag k="ssr:stedsnr" v="544017" />
	</node>
	<node id="-358634" lat="58.3674901263" lon="7.5528165898">
		<tag k="fixme" v="consider place=hamlet" />
		<tag k="name" v="Tværsland" />
		<tag k="place" v="farm" />
		<tag k="ssr:stedsnr" v="979142" />
	</node>
	<node id="-358633" lat="58.3814121439" lon="7.52587265606">
		<tag k="fixme" v="consider place=hamlet" />
		<tag k="name" v="Bjelland prestegård" />
		<tag k="place" v="farm" />
		<tag k="ssr:stedsnr" v="979141" />
	</node>
	<node id="-358632" lat="58.3258398708" lon="7.48399146986">
		<tag k="name" v="Haraldstad" />
		<tag k="place" v="hamlet" />
		<tag k="ssr:stedsnr" v="979140" />
	</node>
	<node id="-358631" lat="58.3431550748" lon="7.47184739052">
		<tag k="fixme" v="consider place=hamlet" />
		<tag k="name" v="Øvre Moland" />
		<tag k="place" v="farm" />
		<tag k="ssr:stedsnr" v="979138" />
	</node>
	<node id="-358630" lat="58.3698289259" lon="7.45489525537">
		<tag k="fixme" v="consider place=hamlet" />
		<tag k="name" v="Rudlende" />
		<tag k="place" v="farm" />
		<tag k="ssr:stedsnr" v="979127" />
	</node>
	<node id="-358629" lat="58.160133116" lon="7.5129065309">
		<tag k="name" v="Sagåsen" />
		<tag k="place" v="locality" />
		<tag k="ssr:stedsnr" v="979126" />
	</node>
	<node id="-358628" lat="58.2199006336" lon="7.52363584108">
		<tag k="fixme" v="consider place=hamlet" />
		<tag k="name" v="Fuglestveit" />
		<tag k="place" v="farm" />
		<tag k="ssr:stedsnr" v="979125" />
	</node>
	<node id="-358627" lat="58.2120066678" lon="7.53517773699">
		<tag k="fixme" v="consider place=hamlet" />
		<tag k="name" v="Finsdal" />
		<tag k="place" v="farm" />
		<tag k="ssr:stedsnr" v="979100" />
	</node>
	<node id="-358626" lat="58.1715857173" lon="7.56751463699">
		<tag k="fixme" v="consider place=hamlet" />
		<tag k="name" v="Skjævesland" />
		<tag k="place" v="farm" />
		<tag k="ssr:stedsnr" v="979099" />
	</node>
	<node id="-358625" lat="58.1686954414" lon="7.55235617437">
		<tag k="fixme" v="consider place=hamlet" />
		<tag k="name" v="Øyslebø" />
		<tag k="place" v="farm" />
		<tag k="ssr:stedsnr" v="979098" />
	</node>
	<node id="-358624" lat="58.1475946038" lon="7.67392867085">
		<tag k="fixme" v="consider place=hamlet" />
		<tag k="name" v="Lille Solås" />
		<tag k="place" v="farm" />
		<tag k="ssr:stedsnr" v="979096" />
	</node>
	<node id="-358623" lat="58.1558326533" lon="7.68170571333">
		<tag k="fixme" v="consider place=hamlet" />
		<tag k="name" v="Store Solås" />
		<tag k="place" v="farm" />
		<tag k="ssr:stedsnr" v="979095" />
	</node>
	<node id="-358622" lat="58.2411730797" lon="7.56740410401">
		<tag k="fixme" v="consider place=hamlet" />
		<tag k="name" v="Finsådal" />
		<tag k="place" v="farm" />
		<tag k="ssr:stedsnr" v="978928" />
	</node>
	<node id="-358621" lat="58.2481680427" lon="7.5051006861">
		<tag k="fixme" v="consider place=hamlet" />
		<tag k="name" v="Nedre Laudal" />
		<tag k="place" v="farm" />
		<tag k="ssr:stedsnr" v="978925" />
	</node>
	<node id="-357084" lat="58.3150944489" lon="7.42889722268">
		<tag k="alt_name" v="Bjørkeli;Birkelien" />
		<tag k="fixme" v="consider place=hamlet" />
		<tag k="name" v="Birkjeli" />
		<tag k="place" v="farm" />
		<tag k="ssr:stedsnr" v="546737" />
	</node>
	<node id="-358619" lat="58.2179985622" lon="7.5010203761">
		<tag k="fixme" v="consider place=hamlet" />
		<tag k="name" v="Støbakken" />
		<tag k="place" v="farm" />
		<tag k="ssr:stedsnr" v="978906" />
	</node>
	<node id="-358618" lat="58.242086128" lon="7.44522446456">
		<tag k="fixme" v="consider place=hamlet" />
		<tag k="name" v="Mølldal" />
		<tag k="place" v="farm" />
		<tag k="ssr:stedsnr" v="978905" />
	</node>
	<node id="-358617" lat="58.2396992505" lon="7.4595458381">
		<tag k="fixme" v="consider place=hamlet" />
		<tag k="name" v="Tørresås" />
		<tag k="place" v="farm" />
		<tag k="ssr:stedsnr" v="978904" />
	</node>
	<node id="-358616" lat="58.2693207487" lon="7.45122471889">
		<tag k="fixme" v="consider place=hamlet" />
		<tag k="name" v="Øvre Laudal" />
		<tag k="place" v="farm" />
		<tag k="ssr:stedsnr" v="978902" />
	</node>
	<node id="-358615" lat="58.2779107265" lon="7.46598752996">
		<tag k="fixme" v="consider place=hamlet" />
		<tag k="name" v="Indre Aukland" />
		<tag k="place" v="farm" />
		<tag k="ssr:stedsnr" v="978901" />
	</node>
	<node id="-358614" lat="58.286754009" lon="7.50867064496">
		<tag k="fixme" v="consider place=hamlet" />
		<tag k="name" v="Ågset-Ødegård" />
		<tag k="place" v="farm" />
		<tag k="ssr:stedsnr" v="978896" />
	</node>
	<node id="-358613" lat="58.3216663117" lon="7.51784254831">
		<tag k="fixme" v="consider place=hamlet" />
		<tag k="name" v="Nesset" />
		<tag k="place" v="farm" />
		<tag k="ssr:stedsnr" v="978892" />
	</node>
	<node id="-358612" lat="58.2001016041" lon="7.7118964869">
		<tag k="name" v="Breland" />
		<tag k="place" v="farm" />
		<tag k="ssr:stedsnr" v="977542" />
	</node>
	<node id="-358611" lat="58.2024053174" lon="7.70217713733">
		<tag k="name" v="Breland" />
		<tag k="place" v="farm" />
		<tag k="ssr:stedsnr" v="977541" />
	</node>
	<node id="-358610" lat="58.2014505226" lon="7.70555768815">
		<tag k="name" v="Breland" />
		<tag k="place" v="farm" />
		<tag k="ssr:stedsnr" v="977540" />
	</node>
	<node id="-357073" lat="58.2031111098" lon="7.52118055078">
		<tag k="name" v="Manneskaret" />
		<tag k="place" v="quarter" />
		<tag k="ssr:stedsnr" v="544014" />
	</node>
	<node id="-358608" lat="58.2018689347" lon="7.70900295023">
		<tag k="name" v="Breland" />
		<tag k="place" v="farm" />
		<tag k="ssr:stedsnr" v="977538" />
	</node>
	<node id="-356047" lat="58.268088892" lon="7.45066667124">
		<tag k="name" v="Leivoll" />
		<tag k="place" v="farm" />
		<tag k="ssr:stedsnr" v="121826" />
	</node>
	<node id="-358606" lat="58.2024006518" lon="7.70569520499">
		<tag k="name" v="Breland" />
		<tag k="place" v="farm" />
		<tag k="ssr:stedsnr" v="977536" />
	</node>
	<node id="-358605" lat="58.2009412804" lon="7.71134034022">
		<tag k="name" v="Breland" />
		<tag k="place" v="farm" />
		<tag k="ssr:stedsnr" v="977535" />
	</node>
	<node id="-358604" lat="58.3879789578" lon="7.60408233985">
		<tag k="name" v="Koland" />
		<tag k="place" v="farm" />
		<tag k="ssr:stedsnr" v="977531" />
	</node>
	<node id="-358603" lat="58.3847484144" lon="7.60327871526">
		<tag k="name" v="Koland" />
		<tag k="place" v="farm" />
		<tag k="ssr:stedsnr" v="977532" />
	</node>
	<node id="-358602" lat="58.3857561086" lon="7.60524274373">
		<tag k="name" v="Koland" />
		<tag k="place" v="farm" />
		<tag k="ssr:stedsnr" v="977529" />
	</node>
	<node id="-356041" lat="58.2308333365" lon="7.63301388464">
		<tag k="fixme" v="consider place=hamlet" />
		<tag k="name" v="Åsan" />
		<tag k="place" v="farm" />
		<tag k="ssr:stedsnr" v="121717" />
	</node>
	<node id="-358600" lat="58.3845979505" lon="7.60154384828">
		<tag k="name" v="Koland" />
		<tag k="place" v="farm" />
		<tag k="ssr:stedsnr" v="977527" />
	</node>
	<node id="-358599" lat="58.3925907336" lon="7.61194497362">
		<tag k="name" v="Koland" />
		<tag k="place" v="farm" />
		<tag k="ssr:stedsnr" v="977526" />
	</node>
	<node id="-358598" lat="58.3852425415" lon="7.60613899343">
		<tag k="name" v="Koland" />
		<tag k="place" v="farm" />
		<tag k="ssr:stedsnr" v="977525" />
	</node>
	<node id="-358597" lat="58.3842277951" lon="7.59880069892">
		<tag k="name" v="Koland" />
		<tag k="place" v="farm" />
		<tag k="ssr:stedsnr" v="977524" />
	</node>
	<node id="-358596" lat="58.3516748467" lon="7.45397220249">
		<tag k="name" v="Nedre Abelset" />
		<tag k="place" v="farm" />
		<tag k="ssr:stedsnr" v="977523" />
	</node>
	<node id="-355446" lat="58.2273027743" lon="7.46985834154">
		<tag k="fixme" v="consider place=hamlet" />
		<tag k="name" v="Tjomsland" />
		<tag k="place" v="farm" />
		<tag k="ssr:stedsnr" v="364742" />
	</node>
	<node id="-358594" lat="58.352362407" lon="7.45207005499">
		<tag k="name" v="Abelset" />
		<tag k="place" v="hamlet" />
		<tag k="ssr:stedsnr" v="977514" />
	</node>
	<node id="-358593" lat="58.35485173" lon="7.45311124732">
		<tag k="fixme" v="consider place=hamlet" />
		<tag k="name" v="Øvre Abelset" />
		<tag k="place" v="farm" />
		<tag k="ssr:stedsnr" v="977513" />
	</node>
	<node id="-358592" lat="58.3536669247" lon="7.4486739089">
		<tag k="name" v="Abelset" />
		<tag k="place" v="farm" />
		<tag k="ssr:stedsnr" v="977512" />
	</node>
	<node id="-358591" lat="58.2634574875" lon="7.46678245837">
		<tag k="name" v="Fjellestad" />
		<tag k="place" v="farm" />
		<tag k="ssr:stedsnr" v="977509" />
	</node>
	<node id="-358590" lat="58.2624290803" lon="7.46802955366">
		<tag k="name" v="Fjellestad" />
		<tag k="place" v="farm" />
		<tag k="ssr:stedsnr" v="977510" />
	</node>
	<node id="-358589" lat="58.2621557548" lon="7.46881844474">
		<tag k="name" v="Fjellestad" />
		<tag k="place" v="farm" />
		<tag k="ssr:stedsnr" v="977508" />
	</node>
	<node id="-358588" lat="58.261387147" lon="7.47099782626">
		<tag k="name" v="Fjellestad" />
		<tag k="place" v="farm" />
		<tag k="ssr:stedsnr" v="977507" />
	</node>
	<node id="-358587" lat="58.2289431237" lon="7.42466515912">
		<tag k="name" v="Kaddan" />
		<tag k="place" v="farm" />
		<tag k="ssr:stedsnr" v="977505" />
	</node>
	<node id="-358586" lat="58.2317647382" lon="7.4162765306">
		<tag k="name" v="Kaddan" />
		<tag k="place" v="farm" />
		<tag k="ssr:stedsnr" v="977504" />
	</node>
	<node id="-358585" lat="58.2334985444" lon="7.41769675812">
		<tag k="name" v="Kaddan" />
		<tag k="place" v="farm" />
		<tag k="ssr:stedsnr" v="977501" />
	</node>
	<node id="-358584" lat="58.2345751845" lon="7.42038506221">
		<tag k="name" v="Kaddan" />
		<tag k="place" v="farm" />
		<tag k="ssr:stedsnr" v="977502" />
	</node>
	<node id="-358583" lat="58.2317948793" lon="7.42265310612">
		<tag k="name" v="Kaddan" />
		<tag k="place" v="farm" />
		<tag k="ssr:stedsnr" v="977496" />
	</node>
	<node id="-358582" lat="58.2208178862" lon="7.50581392159">
		<tag k="name" v="Voan" />
		<tag k="place" v="farm" />
		<tag k="ssr:stedsnr" v="977483" />
	</node>
	<node id="-358601" lat="58.3824520663" lon="7.6013551581">
		<tag k="name" v="Koland" />
		<tag k="place" v="farm" />
		<tag k="ssr:stedsnr" v="977528" />
	</node>
	<node id="-358580" lat="58.2250123379" lon="7.5084470149">
		<tag k="name" v="Voan" />
		<tag k="place" v="farm" />
		<tag k="ssr:stedsnr" v="977481" />
	</node>
	<node id="-358579" lat="58.3245974899" lon="7.53357901408">
		<tag k="name" v="Manflå" />
		<tag k="place" v="farm" />
		<tag k="ssr:stedsnr" v="977480" />
	</node>
	<node id="-358578" lat="58.3254252447" lon="7.53348708724">
		<tag k="name" v="Manflå" />
		<tag k="place" v="farm" />
		<tag k="ssr:stedsnr" v="977479" />
	</node>
	<node id="-358577" lat="58.3238053141" lon="7.53324677803">
		<tag k="name" v="Manflå" />
		<tag k="place" v="farm" />
		<tag k="ssr:stedsnr" v="977478" />
	</node>
	<node id="-358576" lat="58.3302589075" lon="7.53259029292">
		<tag k="name" v="Manflå" />
		<tag k="place" v="farm" />
		<tag k="ssr:stedsnr" v="977477" />
	</node>
	<node id="-358574" lat="58.184647823" lon="7.52363112384">
		<tag k="name" v="Heddeland" />
		<tag k="place" v="farm" />
		<tag k="ssr:stedsnr" v="974178" />
	</node>
	<node id="-358573" lat="58.1882162479" lon="7.53318749137">
		<tag k="name" v="Heddeland" />
		<tag k="place" v="farm" />
		<tag k="ssr:stedsnr" v="974176" />
	</node>
	<node id="-358571" lat="58.195186944" lon="7.52482642624">
		<tag k="name" v="Heddeland" />
		<tag k="place" v="farm" />
		<tag k="ssr:stedsnr" v="974174" />
	</node>
	<node id="-358570" lat="58.1872114598" lon="7.53070210995">
		<tag k="name" v="Heddeland" />
		<tag k="place" v="farm" />
		<tag k="ssr:stedsnr" v="974175" />
	</node>
	<node id="-358569" lat="58.1881440321" lon="7.52511827804">
		<tag k="name" v="Heddeland" />
		<tag k="place" v="farm" />
		<tag k="ssr:stedsnr" v="974172" />
	</node>
	<node id="-358568" lat="58.1891571738" lon="7.52606937066">
		<tag k="name" v="Heddeland" />
		<tag k="place" v="farm" />
		<tag k="ssr:stedsnr" v="974173" />
	</node>
	<node id="-358567" lat="58.1976548457" lon="7.51934449315">
		<tag k="name" v="Heddeland" />
		<tag k="place" v="farm" />
		<tag k="ssr:stedsnr" v="974168" />
	</node>
	<node id="-358566" lat="58.1871506446" lon="7.52790253281">
		<tag k="name" v="Heddeland" />
		<tag k="place" v="farm" />
		<tag k="ssr:stedsnr" v="974171" />
	</node>
	<node id="-358565" lat="58.1710964938" lon="7.65780302177">
		<tag k="name" v="Eikså" />
		<tag k="place" v="farm" />
		<tag k="ssr:stedsnr" v="974166" />
	</node>
	<node id="-358564" lat="58.1703517101" lon="7.65690726261">
		<tag k="name" v="Eikså" />
		<tag k="place" v="farm" />
		<tag k="ssr:stedsnr" v="974167" />
	</node>
	<node id="-357327" lat="58.1458666643" lon="7.67626666422">
		<tag k="name" v="Bakken" />
		<tag k="place" v="farm" />
		<tag k="ssr:stedsnr" v="628068" />
	</node>
	<node id="-358562" lat="58.1716691385" lon="7.66102088078">
		<tag k="name" v="Eikså" />
		<tag k="place" v="farm" />
		<tag k="ssr:stedsnr" v="974165" />
	</node>
	<node id="-357537" lat="58.4511472228" lon="7.51638888122">
		<tag k="fixme" v="consider place=hamlet" />
		<tag k="name" v="Øvrebø" />
		<tag k="place" v="farm" />
		<tag k="ssr:stedsnr" v="667895" />
	</node>
	<node id="-356511" lat="58.3791472184" lon="7.48344166113">
		<tag k="name" v="Voddan" />
		<tag k="place" v="farm" />
		<tag k="ssr:stedsnr" v="265170" />
	</node>
	<node id="-358561" lat="58.2232302856" lon="7.65000508668">
		<tag k="name" v="Bjeddan" />
		<tag k="place" v="farm" />
		<tag k="ssr:stedsnr" v="974162" />
	</node>
	<node id="-357317" lat="58.3850750003" lon="7.56982499399">
		<tag k="fixme" v="consider place=hamlet" />
		<tag k="name" v="Tønnesland" />
		<tag k="place" v="farm" />
		<tag k="ssr:stedsnr" v="606998" />
	</node>
	<node id="-355441" lat="58.2384416654" lon="7.51542778053">
		<tag k="fixme" v="consider place=hamlet" />
		<tag k="name" v="Mjåland" />
		<tag k="place" v="farm" />
		<tag k="ssr:stedsnr" v="364660" />
	</node>
	<node id="-357531" lat="58.2981638927" lon="7.49005277617">
		<tag k="name" v="Solbakken" />
		<tag k="place" v="farm" />
		<tag k="ssr:stedsnr" v="667811" />
	</node>
	<node id="-356506" lat="58.4425472251" lon="7.62442221499">
		<tag k="name" v="Kniben" />
		<tag k="place" v="locality" />
		<tag k="ssr:stedsnr" v="265119" />
	</node>
	<node id="-357017" lat="58.2104694476" lon="7.53221111011">
		<tag k="name" v="Vollan" />
		<tag k="place" v="farm" />
		<tag k="ssr:stedsnr" v="507959" />
	</node>
	<node id="-357528" lat="58.341416667" lon="7.50441944248">
		<tag k="name" v="Pytten" />
		<tag k="place" v="isolated_dwelling" />
		<tag k="ssr:stedsnr" v="667766" />
	</node>
	<node id="-357525" lat="58.1602888916" lon="7.64889166915">
		<tag k="alt_name" v="Rødland" />
		<tag k="fixme" v="consider place=hamlet" />
		<tag k="name" v="Rødlend" />
		<tag k="place" v="farm" />
		<tag k="ssr:stedsnr" v="667740" />
	</node>
	<node id="-356038" lat="58.2019416635" lon="7.45360000139">
		<tag k="fixme" v="consider place=hamlet" />
		<tag k="name" v="Homestad" />
		<tag k="place" v="farm" />
		<tag k="ssr:stedsnr" v="121702" />
	</node>
	<node id="-358033" lat="58.4038694487" lon="7.58784722876">
		<tag k="name" v="Under Fjellan" />
		<tag k="place" v="farm" />
		<tag k="ssr:stedsnr" v="811469" />
	</node>
	<node id="-357520" lat="58.2128416671" lon="7.53687777742">
		<tag k="alt_name" v="Finnsdal" />
		<tag k="name" v="Finsdal" />
		<tag k="place" v="hamlet" />
		<tag k="ssr:stedsnr" v="667691" />
	</node>
	<node id="-357519" lat="58.2260222197" lon="7.43801111502">
		<tag k="fixme" v="consider place=hamlet" />
		<tag k="name" v="Stokkeland" />
		<tag k="place" v="farm" />
		<tag k="ssr:stedsnr" v="667683" />
	</node>
	<node id="-357518" lat="58.2203305582" lon="7.41348888093">
		<tag k="alt_name" v="Kaddåsen" />
		<tag k="fixme" v="consider place=hamlet" />
		<tag k="name" v="Kallåsen" />
		<tag k="place" v="farm" />
		<tag k="ssr:stedsnr" v="667677" />
	</node>
	<node id="-357517" lat="58.2303277802" lon="7.58993056277">
		<tag k="fixme" v="consider place=hamlet" />
		<tag k="name" v="Fidjestøl" />
		<tag k="place" v="farm" />
		<tag k="ssr:stedsnr" v="667669" />
	</node>
	<node id="-357516" lat="58.2174361077" lon="7.69787777367">
		<tag k="name" v="Nygård" />
		<tag k="place" v="farm" />
		<tag k="ssr:stedsnr" v="667654" />
	</node>
	<node id="-357515" lat="58.2042361144" lon="7.68449166354">
		<tag k="name" v="Kvimyr" />
		<tag k="place" v="farm" />
		<tag k="ssr:stedsnr" v="667649" />
	</node>
	<node id="-356037" lat="58.2174333372" lon="7.61902500129">
		<tag k="fixme" v="consider place=hamlet" />
		<tag k="name" v="Høye" />
		<tag k="place" v="farm" />
		<tag k="ssr:stedsnr" v="121697" />
	</node>
	<node id="-356479" lat="58.400769445" lon="7.58452222839">
		<tag k="name" v="Huset" />
		<tag k="place" v="farm" />
		<tag k="ssr:stedsnr" v="243980" />
	</node>
	<node id="-358526" lat="58.2026000032" lon="7.67539166569">
		<tag k="name" v="Kvitveisholtet" />
		<tag k="place" v="locality" />
		<tag k="ssr:stedsnr" v="933729" />
	</node>
	<node id="-355453" lat="58.3761388875" lon="7.47817221588">
		<tag k="alt_name" v="Bjærland" />
		<tag k="fixme" v="consider place=hamlet" />
		<tag k="name" v="Bjerland" />
		<tag k="place" v="farm" />
		<tag k="ssr:stedsnr" v="364957" />
	</node>
	<node id="-356156" lat="58.229905557" lon="7.65054443729">
		<tag k="name" v="Stien" />
		<tag k="place" v="locality" />
		<tag k="ssr:stedsnr" v="143629" />
	</node>
	<node id="-355451" lat="58.4478444424" lon="7.52932500082">
		<tag k="alt_name" v="Urdal;Uredalen" />
		<tag k="fixme" v="consider place=hamlet" />
		<tag k="name" v="Urddal" />
		<tag k="place" v="farm" />
		<tag k="ssr:stedsnr" v="364940" />
	</node>
	<node id="-355450" lat="58.1483555524" lon="7.67406667123">
		<tag k="alt_name" v="Ytre Solås" />
		<tag k="name" v="Solås" />
		<tag k="place" v="farm" />
		<tag k="ssr:stedsnr" v="364789" />
	</node>
	<node id="-356471" lat="58.1695027799" lon="7.50284722661">
		<tag k="fixme" v="consider place=hamlet" />
		<tag k="name" v="Gangså" />
		<tag k="place" v="farm" />
		<tag k="ssr:stedsnr" v="243801" />
	</node>
	<node id="-358518" lat="58.2895222213" lon="7.51061667252">
		<tag k="name" v="Stykket" />
		<tag k="place" v="locality" />
		<tag k="ssr:stedsnr" v="933372" />
	</node>
	<node id="-356469" lat="58.3560277788" lon="7.52511389022">
		<tag k="fixme" v="consider place=hamlet" />
		<tag k="name" v="Hesså" />
		<tag k="place" v="farm" />
		<tag k="ssr:stedsnr" v="243792" />
	</node>
	<node id="-355444" lat="58.1934388847" lon="7.52430556067">
		<tag k="alt_name" v="Helland" />
		<tag k="name" v="Heddeland" />
		<tag k="place" v="hamlet" />
		<tag k="ssr:stedsnr" v="364729" />
	</node>
	<node id="-356466" lat="58.3223222222" lon="7.48559165873">
		<tag k="alt_name" v="Haraldstad, nedre;Haraldstad nedre" />
		<tag k="fixme" v="consider place=hamlet" />
		<tag k="name" v="Nedre Haraldstad" />
		<tag k="place" v="farm" />
		<tag k="ssr:stedsnr" v="243779" />
	</node>
	<node id="-356465" lat="58.223708336" lon="7.64909445213">
		<tag k="fixme" v="consider place=hamlet" />
		<tag k="name" v="Bjeddan" />
		<tag k="place" v="farm" />
		<tag k="ssr:stedsnr" v="243760" />
	</node>
	<node id="-356464" lat="58.2103666703" lon="7.52588055007">
		<tag k="alt_name" v="Madland" />
		<tag k="name" v="Maddan" />
		<tag k="place" v="farm" />
		<tag k="ssr:stedsnr" v="243752" />
	</node>
	<node id="-356463" lat="58.3635416662" lon="7.52535278609">
		<tag k="fixme" v="consider place=hamlet" />
		<tag k="name" v="Trygsland" />
		<tag k="place" v="farm" />
		<tag k="ssr:stedsnr" v="243965" />
	</node>
	<node id="-355438" lat="58.2770027748" lon="7.52495554919">
		<tag k="fixme" v="consider place=hamlet" />
		<tag k="name" v="Skåleneset" />
		<tag k="place" v="farm" />
		<tag k="ssr:stedsnr" v="364844" />
	</node>
	<node id="-356123" lat="58.2663277786" lon="7.45983888927">
		<tag k="name" v="Lian" />
		<tag k="place" v="farm" />
		<tag k="ssr:stedsnr" v="143335" />
	</node>
	<node id="-355435" lat="58.1590527766" lon="7.48513611852">
		<tag k="fixme" v="consider place=hamlet" />
		<tag k="name" v="Høyland" />
		<tag k="place" v="farm" />
		<tag k="ssr:stedsnr" v="364817" />
	</node>
	<node id="-356458" lat="58.3540194474" lon="7.4514249988">
		<tag k="fixme" v="consider place=hamlet" />
		<tag k="name" v="Øvre Abelset" />
		<tag k="place" v="farm" />
		<tag k="ssr:stedsnr" v="242859" />
	</node>
	<node id="-357076" lat="58.2432750003" lon="7.59321667083">
		<tag k="fixme" v="consider place=hamlet" />
		<tag k="name" v="Skogen" />
		<tag k="place" v="farm" />
		<tag k="ssr:stedsnr" v="546604" />
	</node>
	<node id="-356456" lat="58.2860416647" lon="7.43220000454">
		<tag k="fixme" v="consider place=hamlet" />
		<tag k="name" v="Tisland" />
		<tag k="place" v="farm" />
		<tag k="ssr:stedsnr" v="242843" />
	</node>
	<node id="-356455" lat="58.3039194413" lon="7.43217777404">
		<tag k="alt_name" v="Bjørnhom" />
		<tag k="fixme" v="consider place=hamlet" />
		<tag k="name" v="Bjørnhommen" />
		<tag k="place" v="farm" />
		<tag k="ssr:stedsnr" v="242834" />
	</node>
	<node id="-355942" lat="58.4262194428" lon="7.51964443755">
		<tag k="name" v="Lunnan" />
		<tag k="place" v="farm" />
		<tag k="ssr:stedsnr" v="83442" />
	</node>
	<node id="-358595" lat="58.3503665843" lon="7.45587498605">
		<tag k="name" v="Nedre Abelset" />
		<tag k="place" v="farm" />
		<tag k="ssr:stedsnr" v="977522" />
	</node>
	<node id="-356795" lat="58.4150722214" lon="7.53506943655">
		<tag k="name" v="Lille-Sundet" />
		<tag k="place" v="locality" />
		<tag k="ssr:stedsnr" v="447422" />
	</node>
	<node id="-355439" lat="58.3069166667" lon="7.53432499182">
		<tag k="fixme" v="consider place=hamlet" />
		<tag k="name" v="Folldalen" />
		<tag k="place" v="farm" />
		<tag k="ssr:stedsnr" v="364865" />
	</node>
	<node id="-356453" lat="58.2599111091" lon="7.49362221462">
		<tag k="fixme" v="consider place=hamlet" />
		<tag k="name" v="Sveinall" />
		<tag k="place" v="farm" />
		<tag k="ssr:stedsnr" v="242206" />
	</node>
	<node id="-357980" lat="58.3662555579" lon="7.44930000816">
		<tag k="name" v="Runnan" />
		<tag k="place" v="locality" />
		<tag k="ssr:stedsnr" v="811161" />
	</node>
	<node id="-356707" lat="58.3985083294" lon="7.55019444515">
		<tag k="name" v="Lian" />
		<tag k="place" v="locality" />
		<tag k="ssr:stedsnr" v="425976" />
	</node>
	<node id="-356700" lat="58.4210527752" lon="7.56733610335">
		<tag k="name" v="Holtan" />
		<tag k="place" v="locality" />
		<tag k="ssr:stedsnr" v="425896" />
	</node>
	<node id="-357318" lat="58.3806027782" lon="7.53272499874">
		<tag k="fixme" v="consider place=hamlet" />
		<tag k="name" v="Skjeggestad" />
		<tag k="old_name" v="Skjeggestøl" />
		<tag k="place" v="farm" />
		<tag k="ssr:stedsnr" v="607000" />
	</node>
	<node id="-355397" lat="58.2877222254" lon="7.44536388408">
		<tag k="name" v="Nordheim" />
		<tag k="place" v="farm" />
		<tag k="ssr:stedsnr" v="121865" />
	</node>
	<node id="-355510" lat="58.3840694447" lon="7.52767222886">
		<tag k="fixme" v="consider place=suburb, village or hamlet" />
		<tag k="name" v="Bjelland" />
		<tag k="place" v="quarter" />
		<tag k="ssr:stedsnr" v="386278" />
	</node>
	<node id="-358609" lat="58.1994843829" lon="7.70874534083">
		<tag k="name" v="Breland" />
		<tag k="place" v="farm" />
		<tag k="ssr:stedsnr" v="977539" />
	</node>
	<node id="-357949" lat="58.3525305586" lon="7.45388056031">
		<tag k="alt_name" v="Abelsæth" />
		<tag k="name" v="Åpåse" />
		<tag k="place" v="hamlet" />
		<tag k="ssr:stedsnr" v="789968" />
	</node>
	<node id="-357642" lat="58.351977777" lon="7.55884444511">
		<tag k="alt_name" v="Eldhusdalen" />
		<tag k="name" v="Eldhusdal" />
		<tag k="place" v="locality" />
		<tag k="ssr:stedsnr" v="690337" />
	</node>
	<node id="-357943" lat="58.1582916668" lon="7.69613055329">
		<tag k="alt_name" v="Vigemyr" />
		<tag k="name" v="Vikemyr" />
		<tag k="place" v="farm" />
		<tag k="ssr:stedsnr" v="789777" />
	</node>
	<node id="-356918" lat="58.3716138911" lon="7.44353333577">
		<tag k="name" v="Tupten" />
		<tag k="place" v="locality" />
		<tag k="ssr:stedsnr" v="507141" />
	</node>
	<node id="-357941" lat="58.2253305532" lon="7.50720277993">
		<tag k="alt_name" v="Voan" />
		<tag k="name" v="Vodan" />
		<tag k="place" v="hamlet" />
		<tag k="ssr:stedsnr" v="789744" />
	</node>
	<node id="-357940" lat="58.2331083289" lon="7.48752222118">
		<tag k="alt_name" v="Glomså" />
		<tag k="fixme" v="consider place=hamlet" />
		<tag k="name" v="Glomsåg" />
		<tag k="place" v="farm" />
		<tag k="ssr:stedsnr" v="789739" />
	</node>
	<node id="-356702" lat="58.4401361081" lon="7.52834721952">
		<tag k="alt_name" v="Breilid;Breilien" />
		<tag k="fixme" v="consider place=hamlet" />
		<tag k="name" v="Breidli" />
		<tag k="place" v="farm" />
		<tag k="ssr:stedsnr" v="425927" />
	</node>
	<node id="-357937" lat="58.3799138934" lon="7.53925278118">
		<tag k="name" v="Askedalen" />
		<tag k="place" v="farm" />
		<tag k="ssr:stedsnr" v="788997" />
	</node>
	<node id="-358503" lat="58.1613500011" lon="7.55643333526">
		<tag k="name" v="Skaue" />
		<tag k="place" v="hamlet" />
		<tag k="ssr:stedsnr" v="932975" />
	</node>
	<node id="-357935" lat="58.1538694437" lon="7.60586110604">
		<tag k="name" v="Skoland" />
		<tag k="place" v="farm" />
		<tag k="ssr:stedsnr" v="788926" />
	</node>
	<node id="-355374" lat="58.1582999961" lon="7.6170888926">
		<tag k="name" v="Skoland" />
		<tag k="place" v="farm" />
		<tag k="ssr:stedsnr" v="325934" />
	</node>
	<node id="-357933" lat="58.261888893" lon="7.47000278225">
		<tag k="fixme" v="consider place=hamlet" />
		<tag k="name" v="Fjellestad" />
		<tag k="place" v="farm" />
		<tag k="ssr:stedsnr" v="788873" />
	</node>
	<node id="-357932" lat="58.2872305553" lon="7.50962499684">
		<tag k="alt_name" v="Øygard" />
		<tag k="name" v="Øygarden" />
		<tag k="place" v="hamlet" />
		<tag k="ssr:stedsnr" v="788809" />
	</node>
	<node id="-357042" lat="58.1551277807" lon="7.5066138831">
		<tag k="alt_name" v="Klev" />
		<tag k="fixme" v="consider place=hamlet" />
		<tag k="name" v="Kleiv" />
		<tag k="place" v="farm" />
		<tag k="ssr:stedsnr" v="509668" />
	</node>
	<node id="-357930" lat="58.1983277759" lon="7.52840833305">
		<tag k="name" v="Regeviksmonen" />
		<tag k="place" v="farm" />
		<tag k="ssr:stedsnr" v="788388" />
	</node>
	<node id="-357929" lat="58.199463886" lon="7.52344167014">
		<tag k="name" v="Timberåsen" />
		<tag k="place" v="quarter" />
		<tag k="ssr:stedsnr" v="785020" />
	</node>
	<node id="-357729" lat="58.2320611127" lon="7.42101111429">
		<tag k="alt_name" v="Kaddan" />
		<tag k="name" v="Kalland" />
		<tag k="place" v="hamlet" />
		<tag k="ssr:stedsnr" v="728691" />
	</node>
	<node id="-357414" lat="58.2292305527" lon="7.59963055997">
		<tag k="name" v="Øygarden" />
		<tag k="place" v="locality" />
		<tag k="ssr:stedsnr" v="628535" />
	</node>
	<node id="-357041" lat="58.3651305534" lon="7.58213611193">
		<tag k="fixme" v="consider place=hamlet" />
		<tag k="name" v="Li" />
		<tag k="place" v="farm" />
		<tag k="ssr:stedsnr" v="509094" />
	</node>
	<node id="-356477" lat="58.4476416671" lon="7.50935555879">
		<tag k="alt_name" v="Øvre Homme" />
		<tag k="fixme" v="consider place=hamlet" />
		<tag k="name" v="Homme" />
		<tag k="place" v="farm" />
		<tag k="ssr:stedsnr" v="243925" />
	</node>
	<node id="-357534" lat="58.2781250002" lon="7.46527499951">
		<tag k="name" v="Aukland" />
		<tag k="place" v="farm" />
		<tag k="ssr:stedsnr" v="667837" />
	</node>
	<node id="-357404" lat="58.2429361081" lon="7.44482222907">
		<tag k="name" v="Møldal" />
		<tag k="place" v="locality" />
		<tag k="ssr:stedsnr" v="628462" />
	</node>
	<node id="-356889" lat="58.294383335" lon="7.53229445161">
		<tag k="alt_name" v="Haukedal" />
		<tag k="fixme" v="consider place=hamlet" />
		<tag k="name" v="Haugedal" />
		<tag k="place" v="farm" />
		<tag k="ssr:stedsnr" v="485862" />
	</node>
	<node id="-356888" lat="58.2889000019" lon="7.52894721646">
		<tag k="alt_name" v="Solkroen" />
		<tag k="fixme" v="consider place=hamlet" />
		<tag k="name" v="Solkrona" />
		<tag k="place" v="farm" />
		<tag k="ssr:stedsnr" v="485860" />
	</node>
	<node id="-356887" lat="58.2682388931" lon="7.45511665908">
		<tag k="alt_name" v="Laudal, øvre;Laudal øvre" />
		<tag k="name" v="Øvre Laudal" />
		<tag k="place" v="hamlet" />
		<tag k="ssr:stedsnr" v="485802" />
	</node>
	<node id="-356884" lat="58.1482750028" lon="7.70407499226">
		<tag k="name" v="Folåsen" />
		<tag k="place" v="farm" />
		<tag k="ssr:stedsnr" v="485731" />
	</node>
	<node id="-356883" lat="58.3137666626" lon="7.53322222337">
		<tag k="alt_name" v="Rekevik" />
		<tag k="fixme" v="consider place=hamlet" />
		<tag k="name" v="Regevik" />
		<tag k="place" v="farm" />
		<tag k="ssr:stedsnr" v="485721" />
	</node>
	<node id="-355233" lat="58.1799722224" lon="7.45022222842">
		<tag k="fixme" v="consider place=hamlet" />
		<tag k="name" v="Grimestad" />
		<tag k="place" v="farm" />
		<tag k="ssr:stedsnr" v="304816" />
	</node>
	<node id="-356880" lat="58.2074111153" lon="7.66660555387">
		<tag k="fixme" v="consider place=hamlet" />
		<tag k="name" v="Krossen" />
		<tag k="place" v="farm" />
		<tag k="ssr:stedsnr" v="485637" />
	</node>
	<node id="-356879" lat="58.2373638904" lon="7.55068056094">
		<tag k="alt_name" v="Kvasshammer" />
		<tag k="fixme" v="consider place=hamlet" />
		<tag k="name" v="Kvasshamar" />
		<tag k="place" v="farm" />
		<tag k="ssr:stedsnr" v="485602" />
	</node>
	<node id="-356878" lat="58.3683111134" lon="7.55366666343">
		<tag k="alt_name" v="Tversland" />
		<tag k="name" v="Tvørsland" />
		<tag k="place" v="hamlet" />
		<tag k="ssr:stedsnr" v="485971" />
	</node>
	<node id="-356050" lat="58.4192194429" lon="7.59768333906">
		<tag k="fixme" v="consider place=hamlet" />
		<tag k="name" v="Lisletta" />
		<tag k="place" v="farm" />
		<tag k="ssr:stedsnr" v="121891" />
	</node>
	<node id="-356876" lat="58.447522221" lon="7.51996667153">
		<tag k="alt_name" v="Åsand" />
		<tag k="fixme" v="consider place=hamlet" />
		<tag k="name" v="Åsan" />
		<tag k="place" v="farm" />
		<tag k="ssr:stedsnr" v="485932" />
	</node>
	<node id="-356874" lat="58.1678444413" lon="7.55023610542">
		<tag k="fixme" v="multiple name tags, choose one and add the other to alt_name" />
		<tag k="name" v="Kjerrvaneset;Øyslebø sentrum" />
		<tag k="place" v="quarter" />
		<tag k="ssr:stedsnr" v="482088" />
	</node>
	<node id="-357499" lat="58.3152805577" lon="7.46314721994">
		<tag k="fixme" v="multiple name tags, choose one and add the other to alt_name" />
		<tag k="loc_name" v="Der Veste" />
		<tag k="name" v="Brauskeland;Bruskeland" />
		<tag k="place" v="farm" />
		<tag k="ssr:stedsnr" v="660687" />
	</node>
	<node id="-355847" lat="58.4041555599" lon="7.47876111065">
		<tag k="fixme" v="consider place=hamlet" />
		<tag k="name" v="Røynesdal" />
		<tag k="place" v="farm" />
		<tag k="ssr:stedsnr" v="61962" />
	</node>
	<node id="-357533" lat="58.2963000015" lon="7.41099999232">
		<tag k="alt_name" v="Hunsdal øvre" />
		<tag k="fixme" v="consider place=hamlet" />
		<tag k="name" v="Hundsdal" />
		<tag k="place" v="farm" />
		<tag k="ssr:stedsnr" v="667825" />
	</node>
	<node id="-357892" lat="58.290572226" lon="7.51031666852">
		<tag k="name" v="Snøskar" />
		<tag k="place" v="farm" />
		<tag k="ssr:stedsnr" v="751361" />
	</node>
	<node id="-355843" lat="58.4093194436" lon="7.53185555207">
		<tag k="alt_name" v="Sundet;Lille Sundet" />
		<tag k="fixme" v="consider place=hamlet" />
		<tag k="name" v="Sunde" />
		<tag k="place" v="farm" />
		<tag k="ssr:stedsnr" v="61894" />
	</node>
	<node id="-356865" lat="58.1653000022" lon="7.61507778235">
		<tag k="name" v="Trælkilen" />
		<tag k="place" v="farm" />
		<tag k="ssr:stedsnr" v="448000" />
	</node>
</osm>
