<?xml version="1.0" encoding="UTF-8"?>
<osm version="0.6" generator="osmapis">
	<node id="30144994" lat="59.2217055" lon="11.6965816" version="3" timestamp="2019-02-02T17:43:19Z" changeset="66860957" uid="633013" user="Honning">
		<tag k="name" v="Fossby" />
		<tag k="place" v="village" />
		<tag k="population" v="302" />
		<tag k="population:date" v="2012" />
		<tag k="ssr:stedsnr" v="267329" />
	</node>
	<node id="858640073" lat="59.3008764" lon="11.659426" version="3" timestamp="2019-02-02T17:43:19Z" changeset="66860957" uid="633013" user="Honning">
		<tag k="name" v="Strømsfoss" />
		<tag k="place" v="village" />
		<tag k="ssr:stedsnr" v="609644" />
	</node>
	<node id="914841486" lat="59.14325" lon="11.753" version="2" timestamp="2019-02-02T17:43:20Z" changeset="66860957" uid="633013" user="Honning">
		<tag k="alt_name" v="Bjerkebekk" />
		<tag k="name" v="Bjørkebekk" />
		<tag k="place" v="hamlet" />
		<tag k="ssr:stedsnr" v="112932" />
	</node>
	<node id="2631528879" lat="59.0555833" lon="11.6891305" version="2" timestamp="2019-02-02T17:43:20Z" changeset="66860957" uid="633013" user="Honning">
		<tag k="alt_name" v="Skogsødegården" />
		<tag k="name" v="Ødegården" />
		<tag k="place" v="farm" />
		<tag k="ssr:stedsnr" v="851357" />
	</node>
	<node id="2795168355" lat="59.0969861" lon="11.7111472" version="2" timestamp="2019-02-02T17:43:20Z" changeset="66860957" uid="633013" user="Honning">
		<tag k="name" v="Nordre Stangebråten" />
		<tag k="place" v="farm" />
		<tag k="ssr:stedsnr" v="961058" />
	</node>
	<node id="2795168356" lat="59.0930417" lon="11.7107139" version="2" timestamp="2019-02-02T17:43:20Z" changeset="66860957" uid="633013" user="Honning">
		<tag k="alt_name" v="Stangebråtan" />
		<tag k="name" v="Søndre Stangebråten" />
		<tag k="place" v="farm" />
		<tag k="ssr:stedsnr" v="607494" />
	</node>
	<node id="4560108805" lat="59.0854778" lon="11.7566083" version="2" timestamp="2019-02-02T17:43:20Z" changeset="66860957" uid="633013" user="Honning">
		<tag k="name" v="Petersborg" />
		<tag k="place" v="isolated_dwelling" />
		<tag k="ssr:stedsnr" v="607492" />
	</node>
	<node id="5788063688" lat="59.2456639" lon="11.74875" version="2" timestamp="2019-02-02T17:43:20Z" changeset="66860957" uid="633013" user="Honning">
		<tag k="name" v="Søndre Kollerød" />
		<tag k="place" v="farm" />
		<tag k="ssr:stedsnr" v="294174" />
	</node>
	<node id="5788063689" lat="59.2494" lon="11.7467889" version="2" timestamp="2019-02-02T17:43:20Z" changeset="66860957" uid="633013" user="Honning">
		<tag k="name" v="Nordre Kollerød" />
		<tag k="place" v="farm" />
		<tag k="ssr:stedsnr" v="536782" />
	</node>
	<node id="6234312548" lat="59.2462083" lon="11.6827667" version="2" timestamp="2019-02-02T17:43:20Z" changeset="66860957" uid="633013" user="Honning">
		<tag k="name" v="Aremark" />
		<tag k="place" v="hamlet" />
		<tag k="ssr:stedsnr" v="273384" />
	</node>
	<node id="6254199008" lat="59.2565278" lon="11.7490806" version="1" timestamp="2019-02-02T17:42:59Z" changeset="66860957" uid="633013" user="Honning">
		<tag k="alt_name" v="Framgården" />
		<tag k="name" v="Frammegård" />
		<tag k="place" v="farm" />
		<tag k="ssr:stedsnr" v="731725" />
	</node>
	<node id="6254199009" lat="59.3316778" lon="11.7025417" version="1" timestamp="2019-02-02T17:42:59Z" changeset="66860957" uid="633013" user="Honning">
		<tag k="name" v="Nordby" />
		<tag k="place" v="locality" />
		<tag k="ssr:stedsnr" v="731730" />
	</node>
	<node id="6254199010" lat="59.2941861" lon="11.6339778" version="1" timestamp="2019-02-02T17:43:00Z" changeset="66860957" uid="633013" user="Honning">
		<tag k="name" v="Lundestad" />
		<tag k="place" v="locality" />
		<tag k="ssr:stedsnr" v="766031" />
	</node>
	<node id="6254199011" lat="59.3323361" lon="11.7113861" version="1" timestamp="2019-02-02T17:43:00Z" changeset="66860957" uid="633013" user="Honning">
		<tag k="name" v="Nedre Sørenskas" />
		<tag k="place" v="farm" />
		<tag k="ssr:stedsnr" v="766241" />
	</node>
	<node id="6254199012" lat="59.1736333" lon="11.6530667" version="1" timestamp="2019-02-02T17:43:00Z" changeset="66860957" uid="633013" user="Honning">
		<tag k="name" v="Vestre Åsgård" />
		<tag k="place" v="farm" />
		<tag k="ssr:stedsnr" v="766263" />
	</node>
	<node id="6254199013" lat="59.2259306" lon="11.7241445" version="1" timestamp="2019-02-02T17:43:00Z" changeset="66860957" uid="633013" user="Honning">
		<tag k="name" v="Søndre Espelund" />
		<tag k="place" v="farm" />
		<tag k="ssr:stedsnr" v="766451" />
	</node>
	<node id="6254199014" lat="59.2454806" lon="11.710375" version="1" timestamp="2019-02-02T17:43:00Z" changeset="66860957" uid="633013" user="Honning">
		<tag k="alt_name" v="Kirkerød øvre" />
		<tag k="name" v="Øvre Kirkerød" />
		<tag k="place" v="farm" />
		<tag k="ssr:stedsnr" v="766460" />
	</node>
	<node id="6254199015" lat="59.3299611" lon="11.6349361" version="1" timestamp="2019-02-02T17:43:00Z" changeset="66860957" uid="633013" user="Honning">
		<tag k="name" v="Vatnemellom" />
		<tag k="place" v="neighbourhood" />
		<tag k="ssr:stedsnr" v="770021" />
	</node>
	<node id="6254199016" lat="59.3041111" lon="11.6478889" version="1" timestamp="2019-02-02T17:43:00Z" changeset="66860957" uid="633013" user="Honning">
		<tag k="name" v="Madserød" />
		<tag k="place" v="locality" />
		<tag k="ssr:stedsnr" v="779041" />
	</node>
	<node id="6254199017" lat="59.2979778" lon="11.7724361" version="1" timestamp="2019-02-02T17:43:00Z" changeset="66860957" uid="633013" user="Honning">
		<tag k="name" v="Pålstad" />
		<tag k="place" v="farm" />
		<tag k="ssr:stedsnr" v="779788" />
	</node>
	<node id="6254199018" lat="59.2168667" lon="11.7162889" version="1" timestamp="2019-02-02T17:43:00Z" changeset="66860957" uid="633013" user="Honning">
		<tag k="alt_name" v="Kopperød mellem" />
		<tag k="name" v="Mellom-Kopperød" />
		<tag k="place" v="farm" />
		<tag k="ssr:stedsnr" v="780290" />
	</node>
	<node id="6254199019" lat="59.2098639" lon="11.7232667" version="1" timestamp="2019-02-02T17:43:00Z" changeset="66860957" uid="633013" user="Honning">
		<tag k="name" v="Haug" />
		<tag k="place" v="farm" />
		<tag k="ssr:stedsnr" v="780294" />
	</node>
	<node id="6254199020" lat="59.2229389" lon="11.694825" version="1" timestamp="2019-02-02T17:43:00Z" changeset="66860957" uid="633013" user="Honning">
		<tag k="name" v="Vestre Fossby" />
		<tag k="place" v="farm" />
		<tag k="ssr:stedsnr" v="780295" />
	</node>
	<node id="6254199021" lat="59.2160861" lon="11.6487556" version="1" timestamp="2019-02-02T17:43:00Z" changeset="66860957" uid="633013" user="Honning">
		<tag k="name" v="Tuseter" />
		<tag k="place" v="locality" />
		<tag k="ssr:stedsnr" v="780304" />
	</node>
	<node id="6254199022" lat="59.1837611" lon="11.6379889" version="1" timestamp="2019-02-02T17:43:00Z" changeset="66860957" uid="633013" user="Honning">
		<tag k="name" v="Sandtorp" />
		<tag k="place" v="locality" />
		<tag k="ssr:stedsnr" v="780858" />
	</node>
	<node id="6254199023" lat="59.1809916" lon="11.7241257" version="1" timestamp="2019-02-02T17:43:00Z" changeset="66860957" uid="633013" user="Honning">
		<tag k="name" v="Aspestrand" />
		<tag k="place" v="hamlet" />
		<tag k="ssr:stedsnr" v="780865" />
	</node>
	<node id="6254199024" lat="59.2419944" lon="11.683125" version="1" timestamp="2019-02-02T17:43:00Z" changeset="66860957" uid="633013" user="Honning">
		<tag k="name" v="Kirkeng" />
		<tag k="ssr:stedsnr" v="786144" />
		<tag k="tourism" v="camp_site" />
	</node>
	<node id="6254199025" lat="59.2200472" lon="11.7042722" version="1" timestamp="2019-02-02T17:43:00Z" changeset="66860957" uid="633013" user="Honning">
		<tag k="alt_name" v="Haugby" />
		<tag k="name" v="Haugeby" />
		<tag k="place" v="farm" />
		<tag k="ssr:stedsnr" v="790141" />
	</node>
	<node id="6254199026" lat="59.3034611" lon="11.7233695" version="1" timestamp="2019-02-02T17:43:00Z" changeset="66860957" uid="633013" user="Honning">
		<tag k="name" v="Djupetjernkasa" />
		<tag k="place" v="isolated_dwelling" />
		<tag k="ssr:stedsnr" v="791652" />
	</node>
	<node id="6254199027" lat="59.2954639" lon="11.7460583" version="1" timestamp="2019-02-02T17:43:00Z" changeset="66860957" uid="633013" user="Honning">
		<tag k="alt_name" v="Lagerrholt" />
		<tag k="name" v="Laggarholtet" />
		<tag k="place" v="farm" />
		<tag k="ssr:stedsnr" v="792647" />
	</node>
	<node id="6254199028" lat="59.2985333" lon="11.7563361" version="1" timestamp="2019-02-02T17:43:01Z" changeset="66860957" uid="633013" user="Honning">
		<tag k="name" v="Størholtet" />
		<tag k="place" v="locality" />
		<tag k="ssr:stedsnr" v="792649" />
	</node>
	<node id="6254199029" lat="59.2870361" lon="11.6454861" version="1" timestamp="2019-02-02T17:43:01Z" changeset="66860957" uid="633013" user="Honning">
		<tag k="alt_name" v="Lervik søndre" />
		<tag k="name" v="Søndre Lervik" />
		<tag k="old_name" v="Lervik midtre" />
		<tag k="place" v="farm" />
		<tag k="ssr:stedsnr" v="792656" />
	</node>
	<node id="6254199030" lat="59.274375" lon="11.7928444" version="1" timestamp="2019-02-02T17:43:01Z" changeset="66860957" uid="633013" user="Honning">
		<tag k="name" v="Lia" />
		<tag k="place" v="isolated_dwelling" />
		<tag k="ssr:stedsnr" v="792685" />
	</node>
	<node id="6254199031" lat="59.2840944" lon="11.6928472" version="1" timestamp="2019-02-02T17:43:01Z" changeset="66860957" uid="633013" user="Honning">
		<tag k="name" v="Fangehagen" />
		<tag k="place" v="farm" />
		<tag k="ssr:stedsnr" v="792695" />
	</node>
	<node id="6254199032" lat="59.2600472" lon="11.7586139" version="1" timestamp="2019-02-02T17:43:01Z" changeset="66860957" uid="633013" user="Honning">
		<tag k="name" v="Gleng" />
		<tag k="place" v="farm" />
		<tag k="ssr:stedsnr" v="792723" />
	</node>
	<node id="6254199033" lat="59.2452611" lon="11.6955194" version="1" timestamp="2019-02-02T17:43:01Z" changeset="66860957" uid="633013" user="Honning">
		<tag k="name" v="Lilledal" />
		<tag k="place" v="farm" />
		<tag k="ssr:stedsnr" v="826471" />
	</node>
	<node id="6254199034" lat="59.3233472" lon="11.6916833" version="1" timestamp="2019-02-02T17:43:01Z" changeset="66860957" uid="633013" user="Honning">
		<tag k="name" v="Kvernekasa" />
		<tag k="place" v="locality" />
		<tag k="ssr:stedsnr" v="827001" />
	</node>
	<node id="6254199035" lat="59.297225" lon="11.6752472" version="1" timestamp="2019-02-02T17:43:01Z" changeset="66860957" uid="633013" user="Honning">
		<tag k="name" v="Nordenhaug" />
		<tag k="place" v="isolated_dwelling" />
		<tag k="ssr:stedsnr" v="827055" />
	</node>
	<node id="6254199036" lat="59.2304028" lon="11.7353889" version="1" timestamp="2019-02-02T17:43:01Z" changeset="66860957" uid="633013" user="Honning">
		<tag k="name" v="Espelundhagen" />
		<tag k="place" v="isolated_dwelling" />
		<tag k="ssr:stedsnr" v="827503" />
	</node>
	<node id="6254199037" lat="59.2278778" lon="11.7345028" version="1" timestamp="2019-02-02T17:43:01Z" changeset="66860957" uid="633013" user="Honning">
		<tag k="name" v="Espelundhagen" />
		<tag k="place" v="farm" />
		<tag k="ssr:stedsnr" v="827505" />
	</node>
	<node id="6254199038" lat="59.1668361" lon="11.6646667" version="1" timestamp="2019-02-02T17:43:01Z" changeset="66860957" uid="633013" user="Honning">
		<tag k="alt_name" v="Bøen østre;Ytre Bøen" />
		<tag k="name" v="Østre Bøen" />
		<tag k="place" v="farm" />
		<tag k="ssr:stedsnr" v="830248" />
	</node>
	<node id="6254199039" lat="59.3284639" lon="11.645475" version="1" timestamp="2019-02-02T17:43:01Z" changeset="66860957" uid="633013" user="Honning">
		<tag k="name" v="Strøm" />
		<tag k="place" v="neighbourhood" />
		<tag k="ssr:stedsnr" v="831025" />
	</node>
	<node id="6254199040" lat="59.2618056" lon="11.6854028" version="1" timestamp="2019-02-02T17:43:01Z" changeset="66860957" uid="633013" user="Honning">
		<tag k="name" v="Skjulstad" />
		<tag k="place" v="neighbourhood" />
		<tag k="ssr:stedsnr" v="831027" />
	</node>
	<node id="6254199041" lat="59.2896333" lon="11.6475694" version="1" timestamp="2019-02-02T17:43:01Z" changeset="66860957" uid="633013" user="Honning">
		<tag k="name" v="Nordre Lervik" />
		<tag k="place" v="farm" />
		<tag k="ssr:stedsnr" v="840067" />
	</node>
	<node id="6254199042" lat="59.1109611" lon="11.7468972" version="1" timestamp="2019-02-02T17:43:01Z" changeset="66860957" uid="633013" user="Honning">
		<tag k="name" v="Øvre Lund" />
		<tag k="place" v="locality" />
		<tag k="ssr:stedsnr" v="840393" />
	</node>
	<node id="6254199043" lat="59.15985" lon="11.6679722" version="1" timestamp="2019-02-02T17:43:01Z" changeset="66860957" uid="633013" user="Honning">
		<tag k="name" v="Ødegårdene" />
		<tag k="place" v="locality" />
		<tag k="ssr:stedsnr" v="840500" />
	</node>
	<node id="6254199044" lat="59.2551722" lon="11.7019861" version="1" timestamp="2019-02-02T17:43:01Z" changeset="66860957" uid="633013" user="Honning">
		<tag k="alt_name" v="Iglerød søndre" />
		<tag k="name" v="Søndre Iglerød" />
		<tag k="place" v="farm" />
		<tag k="ssr:stedsnr" v="841076" />
	</node>
	<node id="6254199045" lat="59.1696583" lon="11.7292194" version="1" timestamp="2019-02-02T17:43:02Z" changeset="66860957" uid="633013" user="Honning">
		<tag k="name" v="Nordli" />
		<tag k="place" v="isolated_dwelling" />
		<tag k="ssr:stedsnr" v="841923" />
	</node>
	<node id="6254199046" lat="59.189725" lon="11.6910889" version="1" timestamp="2019-02-02T17:43:02Z" changeset="66860957" uid="633013" user="Honning">
		<tag k="name" v="Nordby" />
		<tag k="place" v="farm" />
		<tag k="ssr:stedsnr" v="841988" />
	</node>
	<node id="6254199047" lat="59.2584917" lon="11.6423278" version="1" timestamp="2019-02-02T17:43:02Z" changeset="66860957" uid="633013" user="Honning">
		<tag k="name" v="Søndre Følingen" />
		<tag k="place" v="farm" />
		<tag k="ssr:stedsnr" v="849976" />
	</node>
	<node id="6254199048" lat="59.1805444" lon="11.6098167" version="1" timestamp="2019-02-02T17:43:02Z" changeset="66860957" uid="633013" user="Honning">
		<tag k="alt_name" v="Tostlund" />
		<tag k="name" v="Tostelund" />
		<tag k="place" v="farm" />
		<tag k="ssr:stedsnr" v="851079" />
	</node>
	<node id="6254199049" lat="59.2370611" lon="11.737725" version="1" timestamp="2019-02-02T17:43:02Z" changeset="66860957" uid="633013" user="Honning">
		<tag k="alt_name" v="Teigen" />
		<tag k="name" v="Flatlandsteigen" />
		<tag k="place" v="farm" />
		<tag k="ssr:stedsnr" v="851122" />
	</node>
	<node id="6254199050" lat="59.2015611" lon="11.6782111" version="1" timestamp="2019-02-02T17:43:02Z" changeset="66860957" uid="633013" user="Honning">
		<tag k="name" v="Vesttorp" />
		<tag k="place" v="farm" />
		<tag k="ssr:stedsnr" v="851164" />
	</node>
	<node id="6254199051" lat="59.2061667" lon="11.719625" version="1" timestamp="2019-02-02T17:43:02Z" changeset="66860957" uid="633013" user="Honning">
		<tag k="name" v="Glenne" />
		<tag k="place" v="farm" />
		<tag k="ssr:stedsnr" v="851166" />
	</node>
	<node id="6254199052" lat="59.1423917" lon="11.634175" version="1" timestamp="2019-02-02T17:43:02Z" changeset="66860957" uid="633013" user="Honning">
		<tag k="name" v="Fjell" />
		<tag k="place" v="hamlet" />
		<tag k="ssr:stedsnr" v="852019" />
	</node>
	<node id="6254199053" lat="59.1467179" lon="11.7509699" version="1" timestamp="2019-02-02T17:43:02Z" changeset="66860957" uid="633013" user="Honning">
		<tag k="alt_name" v="Mellomgården;Mellomgård" />
		<tag k="name" v="Bjerkebekk" />
		<tag k="place" v="farm" />
		<tag k="ssr:stedsnr" v="852021" />
	</node>
	<node id="6254199054" lat="59.1305278" lon="11.76355" version="1" timestamp="2019-02-02T17:43:02Z" changeset="66860957" uid="633013" user="Honning">
		<tag k="name" v="Husa" />
		<tag k="place" v="locality" />
		<tag k="ssr:stedsnr" v="852046" />
	</node>
	<node id="6254199055" lat="59.1308556" lon="11.7535945" version="1" timestamp="2019-02-02T17:43:02Z" changeset="66860957" uid="633013" user="Honning">
		<tag k="alt_name" v="Nordre Svarød" />
		<tag k="name" v="Svarød" />
		<tag k="place" v="isolated_dwelling" />
		<tag k="ssr:stedsnr" v="852047" />
	</node>
	<node id="6254199056" lat="59.2518028" lon="11.7027722" version="1" timestamp="2019-02-02T17:43:02Z" changeset="66860957" uid="633013" user="Honning">
		<tag k="name" v="Rishaugen" />
		<tag k="place" v="farm" />
		<tag k="ssr:stedsnr" v="853606" />
	</node>
	<node id="6254199057" lat="59.3071306" lon="11.6296194" version="1" timestamp="2019-02-02T17:43:02Z" changeset="66860957" uid="633013" user="Honning">
		<tag k="alt_name" v="Øvre Våla" />
		<tag k="name" v="Våla" />
		<tag k="place" v="locality" />
		<tag k="ssr:stedsnr" v="853645" />
	</node>
	<node id="6254199058" lat="59.2927778" lon="11.6783778" version="1" timestamp="2019-02-02T17:43:02Z" changeset="66860957" uid="633013" user="Honning">
		<tag k="alt_name" v="Fange nordre" />
		<tag k="name" v="Nord-Fange" />
		<tag k="place" v="farm" />
		<tag k="ssr:stedsnr" v="853674" />
	</node>
	<node id="6254199059" lat="59.2729639" lon="11.6893167" version="1" timestamp="2019-02-02T17:43:02Z" changeset="66860957" uid="633013" user="Honning">
		<tag k="name" v="Toverød" />
		<tag k="place" v="farm" />
		<tag k="ssr:stedsnr" v="853716" />
	</node>
	<node id="6254199060" lat="59.2696583" lon="11.7937944" version="1" timestamp="2019-02-02T17:43:02Z" changeset="66860957" uid="633013" user="Honning">
		<tag k="name" v="Leksrød" />
		<tag k="place" v="hamlet" />
		<tag k="ssr:stedsnr" v="853720" />
	</node>
	<node id="6254199061" lat="59.3267222" lon="11.6722583" version="1" timestamp="2019-02-02T17:43:02Z" changeset="66860957" uid="633013" user="Honning">
		<tag k="name" v="Nordre Bøen" />
		<tag k="place" v="farm" />
		<tag k="ssr:stedsnr" v="856049" />
	</node>
	<node id="6254199062" lat="59.2789028" lon="11.6446305" version="1" timestamp="2019-02-02T17:43:02Z" changeset="66860957" uid="633013" user="Honning">
		<tag k="name" v="Dagerød" />
		<tag k="place" v="farm" />
		<tag k="ssr:stedsnr" v="901078" />
	</node>
	<node id="6254199063" lat="59.2058306" lon="11.7262056" version="1" timestamp="2019-02-02T17:43:03Z" changeset="66860957" uid="633013" user="Honning">
		<tag k="alt_name" v="Haug nedre" />
		<tag k="name" v="Nedre Haug" />
		<tag k="place" v="farm" />
		<tag k="ssr:stedsnr" v="901299" />
	</node>
	<node id="6254199064" lat="59.2087972" lon="11.7261944" version="1" timestamp="2019-02-02T17:43:03Z" changeset="66860957" uid="633013" user="Honning">
		<tag k="alt_name" v="Haug østre" />
		<tag k="name" v="Østre Haug" />
		<tag k="place" v="farm" />
		<tag k="ssr:stedsnr" v="901306" />
	</node>
	<node id="6254199065" lat="59.28605" lon="11.6510139" version="1" timestamp="2019-02-02T17:43:03Z" changeset="66860957" uid="633013" user="Honning">
		<tag k="name" v="Lervik" />
		<tag k="place" v="neighbourhood" />
		<tag k="ssr:stedsnr" v="905108" />
	</node>
	<node id="6254199066" lat="59.1721383" lon="11.6552256" version="1" timestamp="2019-02-02T17:43:03Z" changeset="66860957" uid="633013" user="Honning">
		<tag k="name" v="Østre Åsgård" />
		<tag k="place" v="farm" />
		<tag k="ssr:stedsnr" v="909970" />
	</node>
	<node id="6254199067" lat="59.156175" lon="11.7450417" version="1" timestamp="2019-02-02T17:43:03Z" changeset="66860957" uid="633013" user="Honning">
		<tag k="name" v="Holtet" />
		<tag k="place" v="farm" />
		<tag k="ssr:stedsnr" v="912007" />
	</node>
	<node id="6254199068" lat="59.1736983" lon="11.7231817" version="1" timestamp="2019-02-02T17:43:03Z" changeset="66860957" uid="633013" user="Honning">
		<tag k="alt_name" v="Aspestrand søndre;Aspestrand;Sørgården" />
		<tag k="name" v="Søndre Aspestrand" />
		<tag k="place" v="farm" />
		<tag k="ssr:stedsnr" v="912092" />
	</node>
	<node id="6254199069" lat="59.1681071" lon="11.7206504" version="1" timestamp="2019-02-02T17:43:03Z" changeset="66860957" uid="633013" user="Honning">
		<tag k="name" v="Mo" />
		<tag k="place" v="farm" />
		<tag k="ssr:stedsnr" v="912095" />
	</node>
	<node id="6254199070" lat="59.167859" lon="11.6628811" version="1" timestamp="2019-02-02T17:43:03Z" changeset="66860957" uid="633013" user="Honning">
		<tag k="alt_name" v="Ytre Bøen" />
		<tag k="name" v="Bøen" />
		<tag k="place" v="hamlet" />
		<tag k="ssr:stedsnr" v="912098" />
	</node>
	<node id="6254199071" lat="59.1590389" lon="11.7387278" version="1" timestamp="2019-02-02T17:43:03Z" changeset="66860957" uid="633013" user="Honning">
		<tag k="name" v="Bråten" />
		<tag k="place" v="farm" />
		<tag k="ssr:stedsnr" v="912115" />
	</node>
	<node id="6254199072" lat="59.2122385" lon="11.7548867" version="1" timestamp="2019-02-02T17:43:03Z" changeset="66860957" uid="633013" user="Honning">
		<tag k="alt_name" v="Bråten" />
		<tag k="name" v="Bråtane" />
		<tag k="place" v="locality" />
		<tag k="ssr:stedsnr" v="912169" />
	</node>
	<node id="6254199073" lat="59.1454444" lon="11.6919083" version="1" timestamp="2019-02-02T17:43:03Z" changeset="66860957" uid="633013" user="Honning">
		<tag k="name" v="Holmegilkasene" />
		<tag k="place" v="locality" />
		<tag k="ssr:stedsnr" v="913013" />
	</node>
	<node id="6254199074" lat="59.3032726" lon="11.6341362" version="1" timestamp="2019-02-02T17:43:03Z" changeset="66860957" uid="633013" user="Honning">
		<tag k="alt_name" v="Siljeholt" />
		<tag k="name" v="Vestre Siljeholt" />
		<tag k="place" v="farm" />
		<tag k="ssr:stedsnr" v="913649" />
	</node>
	<node id="6254199075" lat="59.2890148" lon="11.6777531" version="1" timestamp="2019-02-02T17:43:03Z" changeset="66860957" uid="633013" user="Honning">
		<tag k="name" v="Fange" />
		<tag k="place" v="hamlet" />
		<tag k="ssr:stedsnr" v="913666" />
	</node>
	<node id="6254199076" lat="59.2770917" lon="11.6603417" version="1" timestamp="2019-02-02T17:43:03Z" changeset="66860957" uid="633013" user="Honning">
		<tag k="name" v="Nordre Rive" />
		<tag k="place" v="farm" />
		<tag k="ssr:stedsnr" v="913687" />
	</node>
	<node id="6254199077" lat="59.3143306" lon="11.5962194" version="1" timestamp="2019-02-02T17:43:03Z" changeset="66860957" uid="633013" user="Honning">
		<tag k="alt_name" v="Bråten" />
		<tag k="name" v="Nordre Kilebråten" />
		<tag k="place" v="farm" />
		<tag k="ssr:stedsnr" v="914667" />
	</node>
	<node id="6254199078" lat="59.2625199" lon="11.7478901" version="1" timestamp="2019-02-02T17:43:03Z" changeset="66860957" uid="633013" user="Honning">
		<tag k="alt_name" v="Hallesby nordre;Nordre Hallesby" />
		<tag k="name" v="Nord-Hallesby" />
		<tag k="place" v="farm" />
		<tag k="ssr:stedsnr" v="914748" />
	</node>
	<node id="6254199079" lat="59.3244889" lon="11.6942333" version="1" timestamp="2019-02-02T17:43:03Z" changeset="66860957" uid="633013" user="Honning">
		<tag k="name" v="Hagen" />
		<tag k="place" v="farm" />
		<tag k="ssr:stedsnr" v="583006;948001" />
	</node>
	<node id="6254199080" lat="59.3058306" lon="11.6604806" version="1" timestamp="2019-02-02T17:43:04Z" changeset="66860957" uid="633013" user="Honning">
		<tag k="name" v="Nordre Strøm" />
		<tag k="place" v="farm" />
		<tag k="ssr:stedsnr" v="948061" />
	</node>
	<node id="6254199081" lat="59.1688583" lon="11.6608" version="1" timestamp="2019-02-02T17:43:04Z" changeset="66860957" uid="633013" user="Honning">
		<tag k="alt_name" v="Bøen vestre" />
		<tag k="name" v="Vestre Bøen" />
		<tag k="place" v="farm" />
		<tag k="ssr:stedsnr" v="951451" />
	</node>
	<node id="6254199082" lat="59.1645083" lon="11.7223694" version="1" timestamp="2019-02-02T17:43:04Z" changeset="66860957" uid="633013" user="Honning">
		<tag k="alt_name" v="Grotmal" />
		<tag k="name" v="Grotmål" />
		<tag k="place" v="farm" />
		<tag k="ssr:stedsnr" v="608101;961686" />
	</node>
	<node id="6254199083" lat="59.2931806" lon="11.6771083" version="1" timestamp="2019-02-02T17:43:04Z" changeset="66860957" uid="633013" user="Honning">
		<tag k="name" v="Nord-Fange" />
		<tag k="place" v="farm" />
		<tag k="ssr:stedsnr" v="962083" />
	</node>
	<node id="6254199084" lat="59.1758389" lon="11.7305194" version="1" timestamp="2019-02-02T17:43:04Z" changeset="66860957" uid="633013" user="Honning">
		<tag k="name" v="Ødegården" />
		<tag k="place" v="locality" />
		<tag k="ssr:stedsnr" v="962923" />
	</node>
	<node id="6254199485" lat="59.0946152" lon="11.7103208" version="1" timestamp="2019-02-02T17:43:04Z" changeset="66860957" uid="633013" user="Honning">
		<tag k="alt_name" v="Stangebråtan" />
		<tag k="name" v="Stangebråten" />
		<tag k="place" v="locality" />
		<tag k="ssr:stedsnr" v="981157" />
	</node>
	<node id="6254199486" lat="59.2466167" lon="11.7098694" version="1" timestamp="2019-02-02T17:43:04Z" changeset="66860957" uid="633013" user="Honning">
		<tag k="alt_name" v="Kirkerød lille" />
		<tag k="name" v="Lille Kirkerød" />
		<tag k="place" v="farm" />
		<tag k="ssr:stedsnr" v="280488" />
	</node>
	<node id="6254199487" lat="59.2466056" lon="11.7098694" version="1" timestamp="2019-02-02T17:43:04Z" changeset="66860957" uid="633013" user="Honning">
		<tag k="alt_name" v="Kirkerød vestre" />
		<tag k="name" v="Vestre Kirkerød" />
		<tag k="place" v="farm" />
		<tag k="ssr:stedsnr" v="280490" />
	</node>
	<node id="6254199488" lat="59.2971694" lon="11.6582583" version="1" timestamp="2019-02-02T17:43:04Z" changeset="66860957" uid="633013" user="Honning">
		<tag k="name" v="Nordre Nes" />
		<tag k="place" v="farm" />
		<tag k="ssr:stedsnr" v="281021" />
	</node>
	<node id="6254199489" lat="59.2782361" lon="11.6407167" version="1" timestamp="2019-02-02T17:43:04Z" changeset="66860957" uid="633013" user="Honning">
		<tag k="name" v="Dagerød" />
		<tag k="place" v="farm" />
		<tag k="ssr:stedsnr" v="294082" />
	</node>
	<node id="6254199490" lat="59.2436111" lon="11.7561611" version="1" timestamp="2019-02-02T17:43:04Z" changeset="66860957" uid="633013" user="Honning">
		<tag k="name" v="Kverndalen" />
		<tag k="place" v="farm" />
		<tag k="ssr:stedsnr" v="294117" />
	</node>
	<node id="6254199491" lat="59.3225889" lon="11.6771" version="1" timestamp="2019-02-02T17:43:04Z" changeset="66860957" uid="633013" user="Honning">
		<tag k="name" v="Bingen" />
		<tag k="place" v="locality" />
		<tag k="ssr:stedsnr" v="294188" />
	</node>
	<node id="6254199492" lat="59.2623167" lon="11.7799611" version="1" timestamp="2019-02-02T17:43:04Z" changeset="66860957" uid="633013" user="Honning">
		<tag k="name" v="Holtebrekke" />
		<tag k="place" v="farm" />
		<tag k="ssr:stedsnr" v="294787" />
	</node>
	<node id="6254199493" lat="59.1979972" lon="11.7424111" version="1" timestamp="2019-02-02T17:43:04Z" changeset="66860957" uid="633013" user="Honning">
		<tag k="name" v="Rødskasa" />
		<tag k="place" v="locality" />
		<tag k="ssr:stedsnr" v="294919" />
	</node>
	<node id="6254199494" lat="59.2151694" lon="11.6980861" version="1" timestamp="2019-02-02T17:43:04Z" changeset="66860957" uid="633013" user="Honning">
		<tag k="name" v="Øvre Flateby" />
		<tag k="place" v="farm" />
		<tag k="ssr:stedsnr" v="302963" />
	</node>
	<node id="6254199495" lat="59.2365694" lon="11.6295639" version="1" timestamp="2019-02-02T17:43:04Z" changeset="66860957" uid="633013" user="Honning">
		<tag k="name" v="Føllholtet" />
		<tag k="place" v="locality" />
		<tag k="ssr:stedsnr" v="304127" />
	</node>
	<node id="6254199496" lat="59.1877417" lon="11.67475" version="1" timestamp="2019-02-02T17:43:04Z" changeset="66860957" uid="633013" user="Honning">
		<tag k="name" v="Kvisler" />
		<tag k="place" v="farm" />
		<tag k="ssr:stedsnr" v="305067" />
	</node>
	<node id="6254199497" lat="59.1764056" lon="11.6598806" version="1" timestamp="2019-02-02T17:43:04Z" changeset="66860957" uid="633013" user="Honning">
		<tag k="name" v="Mosserød" />
		<tag k="place" v="hamlet" />
		<tag k="ssr:stedsnr" v="305097" />
	</node>
	<node id="6254199498" lat="59.195325" lon="11.6770611" version="1" timestamp="2019-02-02T17:43:05Z" changeset="66860957" uid="633013" user="Honning">
		<tag k="alt_name" v="Mørholt;Mørholt øvre" />
		<tag k="name" v="Øvre Mørholt" />
		<tag k="place" v="farm" />
		<tag k="ssr:stedsnr" v="305170" />
	</node>
	<node id="6254199499" lat="59.211175" lon="11.70485" version="1" timestamp="2019-02-02T17:43:05Z" changeset="66860957" uid="633013" user="Honning">
		<tag k="name" v="Krossby" />
		<tag k="place" v="farm" />
		<tag k="ssr:stedsnr" v="305175" />
	</node>
	<node id="6254199500" lat="59.2053944" lon="11.6924611" version="1" timestamp="2019-02-02T17:43:05Z" changeset="66860957" uid="633013" user="Honning">
		<tag k="name" v="Nygård" />
		<tag k="place" v="farm" />
		<tag k="ssr:stedsnr" v="305176" />
	</node>
	<node id="6254199501" lat="59.1413306" lon="11.7509167" version="1" timestamp="2019-02-02T17:43:05Z" changeset="66860957" uid="633013" user="Honning">
		<tag k="name" v="Haugen" />
		<tag k="place" v="farm" />
		<tag k="ssr:stedsnr" v="306022" />
	</node>
	<node id="6254199502" lat="59.3149389" lon="11.6754972" version="1" timestamp="2019-02-02T17:43:05Z" changeset="66860957" uid="633013" user="Honning">
		<tag k="name" v="Holteberg" />
		<tag k="place" v="farm" />
		<tag k="ssr:stedsnr" v="306589" />
	</node>
	<node id="6254199503" lat="59.279775" lon="11.6957722" version="1" timestamp="2019-02-02T17:43:05Z" changeset="66860957" uid="633013" user="Honning">
		<tag k="name" v="Østeby" />
		<tag k="place" v="farm" />
		<tag k="ssr:stedsnr" v="306681" />
	</node>
	<node id="6254199504" lat="59.3332139" lon="11.6829139" version="1" timestamp="2019-02-02T17:43:05Z" changeset="66860957" uid="633013" user="Honning">
		<tag k="name" v="Nygård" />
		<tag k="place" v="locality" />
		<tag k="ssr:stedsnr" v="306723" />
	</node>
	<node id="6254199505" lat="59.2607034" lon="11.6399844" version="1" timestamp="2019-02-02T17:43:05Z" changeset="66860957" uid="633013" user="Honning">
		<tag k="name" v="Følingen" />
		<tag k="place" v="farm" />
		<tag k="ssr:stedsnr" v="307738" />
	</node>
	<node id="6254199506" lat="59.3016556" lon="11.6365056" version="1" timestamp="2019-02-02T17:43:05Z" changeset="66860957" uid="633013" user="Honning">
		<tag k="name" v="Østre Siljeholt" />
		<tag k="place" v="farm" />
		<tag k="ssr:stedsnr" v="341040" />
	</node>
	<node id="6254199507" lat="59.2793778" lon="11.6398222" version="1" timestamp="2019-02-02T17:43:05Z" changeset="66860957" uid="633013" user="Honning">
		<tag k="alt_name" v="Dagerød vestre" />
		<tag k="name" v="Vestre Dagerød" />
		<tag k="place" v="farm" />
		<tag k="ssr:stedsnr" v="354097" />
	</node>
	<node id="6254199508" lat="59.2120472" lon="11.7557" version="1" timestamp="2019-02-02T17:43:05Z" changeset="66860957" uid="633013" user="Honning">
		<tag k="name" v="Søndre Bråtane" />
		<tag k="place" v="locality" />
		<tag k="ssr:stedsnr" v="354226" />
	</node>
	<node id="6254199509" lat="59.2673861" lon="11.8041917" version="1" timestamp="2019-02-02T17:43:05Z" changeset="66860957" uid="633013" user="Honning">
		<tag k="name" v="Tolsbysand" />
		<tag k="place" v="farm" />
		<tag k="ssr:stedsnr" v="354871" />
	</node>
	<node id="6254199510" lat="59.21645" lon="11.7168167" version="1" timestamp="2019-02-02T17:43:05Z" changeset="66860957" uid="633013" user="Honning">
		<tag k="alt_name" v="Kopperød østre" />
		<tag k="name" v="Østre Kopperød" />
		<tag k="place" v="farm" />
		<tag k="ssr:stedsnr" v="355297" />
	</node>
	<node id="6254199511" lat="59.207875" lon="11.726" version="1" timestamp="2019-02-02T17:43:05Z" changeset="66860957" uid="633013" user="Honning">
		<tag k="alt_name" v="Haug øvre" />
		<tag k="name" v="Øvre Haug" />
		<tag k="place" v="farm" />
		<tag k="ssr:stedsnr" v="355301" />
	</node>
	<node id="6254199512" lat="59.1474352" lon="11.7344605" version="1" timestamp="2019-02-02T17:43:05Z" changeset="66860957" uid="633013" user="Honning">
		<tag k="name" v="Nedre Holmegil" />
		<tag k="place" v="farm" />
		<tag k="ssr:stedsnr" v="355914" />
	</node>
	<node id="6254199513" lat="59.1445167" lon="11.7522444" version="1" timestamp="2019-02-02T17:43:05Z" changeset="66860957" uid="633013" user="Honning">
		<tag k="name" v="Nydal" />
		<tag k="place" v="farm" />
		<tag k="ssr:stedsnr" v="355920" />
	</node>
	<node id="6254199514" lat="59.1150306" lon="11.6984722" version="1" timestamp="2019-02-02T17:43:05Z" changeset="66860957" uid="633013" user="Honning">
		<tag k="alt_name" v="Mortfallet" />
		<tag k="name" v="Mortefallet" />
		<tag k="place" v="isolated_dwelling" />
		<tag k="ssr:stedsnr" v="365068" />
	</node>
	<node id="6254199515" lat="59.2145139" lon="11.6848695" version="1" timestamp="2019-02-02T17:43:05Z" changeset="66860957" uid="633013" user="Honning">
		<tag k="name" v="Tromopp" />
		<tag k="place" v="isolated_dwelling" />
		<tag k="ssr:stedsnr" v="365165" />
	</node>
	<node id="6254199516" lat="59.1444496" lon="11.734044" version="1" timestamp="2019-02-02T17:43:06Z" changeset="66860957" uid="633013" user="Honning">
		<tag k="name" v="Holmegil" />
		<tag k="place" v="hamlet" />
		<tag k="ssr:stedsnr" v="366016" />
	</node>
	<node id="6254199517" lat="59.1872167" lon="11.6006139" version="1" timestamp="2019-02-02T17:43:06Z" changeset="66860957" uid="633013" user="Honning">
		<tag k="name" v="Hansesetret" />
		<tag k="place" v="locality" />
		<tag k="ssr:stedsnr" v="366056" />
	</node>
	<node id="6254199518" lat="59.187675" lon="11.5919917" version="1" timestamp="2019-02-02T17:43:06Z" changeset="66860957" uid="633013" user="Honning">
		<tag k="name" v="Virås" />
		<tag k="place" v="farm" />
		<tag k="ssr:stedsnr" v="366059" />
	</node>
	<node id="6254199519" lat="59.1613111" lon="11.65785" version="1" timestamp="2019-02-02T17:43:06Z" changeset="66860957" uid="633013" user="Honning">
		<tag k="name" v="Granli" />
		<tag k="place" v="farm" />
		<tag k="ssr:stedsnr" v="366108" />
	</node>
	<node id="6254199520" lat="59.2554194" lon="11.7361139" version="1" timestamp="2019-02-02T17:43:06Z" changeset="66860957" uid="633013" user="Honning">
		<tag k="name" v="Rød" />
		<tag k="place" v="hamlet" />
		<tag k="ssr:stedsnr" v="367602" />
	</node>
	<node id="6254199521" lat="59.3057028" lon="11.5847222" version="1" timestamp="2019-02-02T17:43:06Z" changeset="66860957" uid="633013" user="Honning">
		<tag k="alt_name" v="Hellesåen;Helleåsen, østre" />
		<tag k="name" v="Østre Hellesåen" />
		<tag k="place" v="farm" />
		<tag k="ssr:stedsnr" v="367635" />
	</node>
	<node id="6254199522" lat="59.3083778" lon="11.6167306" version="1" timestamp="2019-02-02T17:43:06Z" changeset="66860957" uid="633013" user="Honning">
		<tag k="name" v="Kilen" />
		<tag k="place" v="farm" />
		<tag k="ssr:stedsnr" v="367639" />
	</node>
	<node id="6254199523" lat="59.2775944" lon="11.6969694" version="1" timestamp="2019-02-02T17:43:06Z" changeset="66860957" uid="633013" user="Honning">
		<tag k="name" v="Elvestad" />
		<tag k="place" v="farm" />
		<tag k="ssr:stedsnr" v="367693" />
	</node>
	<node id="6254199524" lat="59.2794028" lon="11.6933889" version="1" timestamp="2019-02-02T17:43:06Z" changeset="66860957" uid="633013" user="Honning">
		<tag k="name" v="Sloreby" />
		<tag k="place" v="farm" />
		<tag k="ssr:stedsnr" v="367695" />
	</node>
	<node id="6254199525" lat="59.2586417" lon="11.8067556" version="1" timestamp="2019-02-02T17:43:06Z" changeset="66860957" uid="633013" user="Honning">
		<tag k="name" v="Mosviken" />
		<tag k="place" v="farm" />
		<tag k="ssr:stedsnr" v="367724" />
	</node>
	<node id="6254199526" lat="59.2352861" lon="11.6650972" version="1" timestamp="2019-02-02T17:43:06Z" changeset="66860957" uid="633013" user="Honning">
		<tag k="name" v="Mjølnerød" />
		<tag k="place" v="locality" />
		<tag k="ssr:stedsnr" v="401485" />
	</node>
	<node id="6254199527" lat="59.2324972" lon="11.6792583" version="1" timestamp="2019-02-02T17:43:06Z" changeset="66860957" uid="633013" user="Honning">
		<tag k="name" v="Granly" />
		<tag k="place" v="farm" />
		<tag k="ssr:stedsnr" v="402485" />
	</node>
	<node id="6254199528" lat="59.2581778" lon="11.6983278" version="1" timestamp="2019-02-02T17:43:06Z" changeset="66860957" uid="633013" user="Honning">
		<tag k="alt_name" v="Iglerød vestre" />
		<tag k="name" v="Vestre Iglerød" />
		<tag k="place" v="farm" />
		<tag k="ssr:stedsnr" v="476087" />
	</node>
	<node id="6254199529" lat="59.1560056" lon="11.6609389" version="1" timestamp="2019-02-02T17:43:06Z" changeset="66860957" uid="633013" user="Honning">
		<tag k="name" v="Solstad" />
		<tag k="place" v="farm" />
		<tag k="ssr:stedsnr" v="476518" />
	</node>
	<node id="6254199530" lat="59.2492667" lon="11.7548111" version="1" timestamp="2019-02-02T17:43:06Z" changeset="66860957" uid="633013" user="Honning">
		<tag k="name" v="Moskasa" />
		<tag k="place" v="isolated_dwelling" />
		<tag k="ssr:stedsnr" v="476783" />
	</node>
	<node id="6254199531" lat="59.3260694" lon="11.6899806" version="1" timestamp="2019-02-02T17:43:06Z" changeset="66860957" uid="633013" user="Honning">
		<tag k="alt_name" v="Bøenødegård søndre;Søndre Bøenødegård;Søndre Bønøgården" />
		<tag k="name" v="Søndre Bøenødegården" />
		<tag k="place" v="farm" />
		<tag k="ssr:stedsnr" v="887004" />
	</node>
	<node id="6254199532" lat="59.2819472" lon="11.5797778" version="1" timestamp="2019-02-02T17:43:06Z" changeset="66860957" uid="633013" user="Honning">
		<tag k="name" v="Blanketjernhytta" />
		<tag k="place" v="isolated_dwelling" />
		<tag k="ssr:stedsnr" v="887340" />
	</node>
	<node id="6254199533" lat="59.2653056" lon="11.6434167" version="1" timestamp="2019-02-02T17:43:06Z" changeset="66860957" uid="633013" user="Honning">
		<tag k="name" v="Vestre Holt" />
		<tag k="place" v="farm" />
		<tag k="ssr:stedsnr" v="887454" />
	</node>
	<node id="6254199534" lat="59.2662972" lon="11.6423722" version="1" timestamp="2019-02-02T17:43:07Z" changeset="66860957" uid="633013" user="Honning">
		<tag k="name" v="Vestre Holt" />
		<tag k="place" v="farm" />
		<tag k="ssr:stedsnr" v="887453" />
	</node>
	<node id="6254199535" lat="59.210521" lon="11.6905499" version="1" timestamp="2019-02-02T17:43:07Z" changeset="66860957" uid="633013" user="Honning">
		<tag k="name" v="Skodsberg" />
		<tag k="place" v="farm" />
		<tag k="ssr:stedsnr" v="981778" />
	</node>
	<node id="6254199536" lat="59.3278486" lon="11.6918166" version="1" timestamp="2019-02-02T17:43:07Z" changeset="66860957" uid="633013" user="Honning">
		<tag k="name" v="Bøenødegården" />
		<tag k="place" v="locality" />
		<tag k="ssr:stedsnr" v="985614" />
	</node>
	<node id="6254199537" lat="59.1944778" lon="11.7418139" version="1" timestamp="2019-02-02T17:43:07Z" changeset="66860957" uid="633013" user="Honning">
		<tag k="alt_name" v="Vinmo" />
		<tag k="name" v="Vindmo" />
		<tag k="place" v="locality" />
		<tag k="ssr:stedsnr" v="1190" />
	</node>
	<node id="6254199538" lat="59.1470389" lon="11.7563083" version="1" timestamp="2019-02-02T17:43:07Z" changeset="66860957" uid="633013" user="Honning">
		<tag k="name" v="Løkka" />
		<tag k="place" v="farm" />
		<tag k="ssr:stedsnr" v="2026" />
	</node>
	<node id="6254199539" lat="59.1861361" lon="11.6945306" version="1" timestamp="2019-02-02T17:43:07Z" changeset="66860957" uid="633013" user="Honning">
		<tag k="name" v="Rød" />
		<tag k="place" v="farm" />
		<tag k="ssr:stedsnr" v="2073" />
	</node>
	<node id="6254199540" lat="59.1828611" lon="11.6741778" version="1" timestamp="2019-02-02T17:43:07Z" changeset="66860957" uid="633013" user="Honning">
		<tag k="name" v="Svensby" />
		<tag k="place" v="farm" />
		<tag k="ssr:stedsnr" v="2092" />
	</node>
	<node id="6254199541" lat="59.1819556" lon="11.6869361" version="1" timestamp="2019-02-02T17:43:07Z" changeset="66860957" uid="633013" user="Honning">
		<tag k="alt_name" v="Melby" />
		<tag k="name" v="Melleby" />
		<tag k="place" v="farm" />
		<tag k="ssr:stedsnr" v="2095" />
	</node>
	<node id="6254199542" lat="59.1720722" lon="11.7480528" version="1" timestamp="2019-02-02T17:43:07Z" changeset="66860957" uid="633013" user="Honning">
		<tag k="alt_name" v="Nordlihytta" />
		<tag k="name" v="Kjærhytta" />
		<tag k="place" v="isolated_dwelling" />
		<tag k="ssr:stedsnr" v="2112" />
	</node>
	<node id="6254199543" lat="59.2431556" lon="11.7108056" version="1" timestamp="2019-02-02T17:43:07Z" changeset="66860957" uid="633013" user="Honning">
		<tag k="name" v="Sandbekk" />
		<tag k="place" v="farm" />
		<tag k="ssr:stedsnr" v="2245" />
	</node>
	<node id="6254199544" lat="59.2999083" lon="11.6636361" version="1" timestamp="2019-02-02T17:43:07Z" changeset="66860957" uid="633013" user="Honning">
		<tag k="name" v="Lund" />
		<tag k="place" v="farm" />
		<tag k="ssr:stedsnr" v="3636" />
	</node>
	<node id="6254199545" lat="59.3291573" lon="11.693797" version="1" timestamp="2019-02-02T17:43:07Z" changeset="66860957" uid="633013" user="Honning">
		<tag k="alt_name" v="Bøenødegård nordre;Nordre Bøenødegård;Søndre Nordre Bønøgården" />
		<tag k="name" v="Nordre Bøenødegården" />
		<tag k="place" v="farm" />
		<tag k="ssr:stedsnr" v="3731" />
	</node>
	<node id="6254199546" lat="59.324575" lon="11.6739694" version="1" timestamp="2019-02-02T17:43:07Z" changeset="66860957" uid="633013" user="Honning">
		<tag k="name" v="Søndre Bøen" />
		<tag k="place" v="farm" />
		<tag k="ssr:stedsnr" v="6058" />
	</node>
	<node id="6254199547" lat="59.3309917" lon="11.6865028" version="1" timestamp="2019-02-02T17:43:07Z" changeset="66860957" uid="633013" user="Honning">
		<tag k="name" v="Bjørkeli" />
		<tag k="place" v="farm" />
		<tag k="ssr:stedsnr" v="38001" />
	</node>
	<node id="6254199548" lat="59.2367694" lon="11.6863778" version="1" timestamp="2019-02-02T17:43:07Z" changeset="66860957" uid="633013" user="Honning">
		<tag k="name" v="Sjøvik" />
		<tag k="place" v="neighbourhood" />
		<tag k="ssr:stedsnr" v="41022" />
	</node>
	<node id="6254199549" lat="59.1768083" lon="11.6896861" version="1" timestamp="2019-02-02T17:43:07Z" changeset="66860957" uid="633013" user="Honning">
		<tag k="name" v="Grinder" />
		<tag k="place" v="farm" />
		<tag k="ssr:stedsnr" v="51381" />
	</node>
	<node id="6254199550" lat="59.2503028" lon="11.7148444" version="1" timestamp="2019-02-02T17:43:07Z" changeset="66860957" uid="633013" user="Honning">
		<tag k="alt_name" v="Langedal søndre" />
		<tag k="name" v="Langedal" />
		<tag k="place" v="farm" />
		<tag k="ssr:stedsnr" v="52063;853605" />
	</node>
	<node id="6254199551" lat="59.2098861" lon="11.6915722" version="1" timestamp="2019-02-02T17:43:07Z" changeset="66860957" uid="633013" user="Honning">
		<tag k="name" v="Søndre Skotsberg" />
		<tag k="place" v="farm" />
		<tag k="ssr:stedsnr" v="52270" />
	</node>
	<node id="6254199552" lat="59.2234472" lon="11.7014222" version="1" timestamp="2019-02-02T17:43:08Z" changeset="66860957" uid="633013" user="Honning">
		<tag k="alt_name" v="Fosbyåsen" />
		<tag k="name" v="Fossbyåsen" />
		<tag k="place" v="neighbourhood" />
		<tag k="ssr:stedsnr" v="52278" />
	</node>
	<node id="6254199553" lat="59.1955472" lon="11.67855" version="1" timestamp="2019-02-02T17:43:08Z" changeset="66860957" uid="633013" user="Honning">
		<tag k="alt_name" v="Mørholt nedre" />
		<tag k="name" v="Nedre Mørholt" />
		<tag k="place" v="farm" />
		<tag k="ssr:stedsnr" v="52882" />
	</node>
	<node id="6254199554" lat="59.2029278" lon="11.6952805" version="1" timestamp="2019-02-02T17:43:08Z" changeset="66860957" uid="633013" user="Honning">
		<tag k="name" v="Sommerro" />
		<tag k="old_name" v="Sommero" />
		<tag k="place" v="isolated_dwelling" />
		<tag k="ssr:stedsnr" v="52883" />
	</node>
	<node id="6254199555" lat="59.2459889" lon="11.6636194" version="1" timestamp="2019-02-02T17:43:08Z" changeset="66860957" uid="633013" user="Honning">
		<tag k="name" v="Buer" />
		<tag k="place" v="neighbourhood" />
		<tag k="ssr:stedsnr" v="55117" />
	</node>
	<node id="6254199556" lat="59.188925" lon="11.7331" version="1" timestamp="2019-02-02T17:43:08Z" changeset="66860957" uid="633013" user="Honning">
		<tag k="name" v="Løverød" />
		<tag k="place" v="farm" />
		<tag k="ssr:stedsnr" v="62066" />
	</node>
	<node id="6254199557" lat="59.232675" lon="11.6637695" version="1" timestamp="2019-02-02T17:43:08Z" changeset="66860957" uid="633013" user="Honning">
		<tag k="name" v="Plassen" />
		<tag k="place" v="farm" />
		<tag k="ssr:stedsnr" v="62136" />
	</node>
	<node id="6254199558" lat="59.21445" lon="11.7353861" version="1" timestamp="2019-02-02T17:43:08Z" changeset="66860957" uid="633013" user="Honning">
		<tag k="name" v="Rønningen" />
		<tag k="place" v="farm" />
		<tag k="ssr:stedsnr" v="62158" />
	</node>
	<node id="6254199559" lat="59.2422833" lon="11.6822528" version="1" timestamp="2019-02-02T17:43:08Z" changeset="66860957" uid="633013" user="Honning">
		<tag k="name" v="Kirkeng" />
		<tag k="place" v="farm" />
		<tag k="ssr:stedsnr" v="62234" />
	</node>
	<node id="6254199560" lat="59.0595139" lon="11.6828083" version="1" timestamp="2019-02-02T17:43:08Z" changeset="66860957" uid="633013" user="Honning">
		<tag k="name" v="Skogen" />
		<tag k="place" v="locality" />
		<tag k="ssr:stedsnr" v="62385" />
	</node>
	<node id="6254199561" lat="59.1532806" lon="11.6790583" version="1" timestamp="2019-02-02T17:43:08Z" changeset="66860957" uid="633013" user="Honning">
		<tag k="name" v="Rustad" />
		<tag k="place" v="farm" />
		<tag k="ssr:stedsnr" v="63001" />
	</node>
	<node id="6254199562" lat="59.1748472" lon="11.6941361" version="1" timestamp="2019-02-02T17:43:08Z" changeset="66860957" uid="633013" user="Honning">
		<tag k="name" v="Grinder" />
		<tag k="place" v="hamlet" />
		<tag k="ssr:stedsnr" v="63111" />
	</node>
	<node id="6254199563" lat="59.1633667" lon="11.6373083" version="1" timestamp="2019-02-02T17:43:08Z" changeset="66860957" uid="633013" user="Honning">
		<tag k="name" v="Slorerkasa" />
		<tag k="place" v="locality" />
		<tag k="ssr:stedsnr" v="63127" />
	</node>
	<node id="6254199564" lat="59.2509472" lon="11.6536389" version="1" timestamp="2019-02-02T17:43:08Z" changeset="66860957" uid="633013" user="Honning">
		<tag k="name" v="Buer" />
		<tag k="place" v="farm" />
		<tag k="ssr:stedsnr" v="64616" />
	</node>
	<node id="6254199565" lat="59.3285639" lon="11.6342667" version="1" timestamp="2019-02-02T17:43:08Z" changeset="66860957" uid="633013" user="Honning">
		<tag k="alt_name" v="Vatnemellem" />
		<tag k="name" v="Vatnemellom" />
		<tag k="place" v="locality" />
		<tag k="ssr:stedsnr" v="64631" />
	</node>
	<node id="6254199566" lat="59.3143722" lon="11.7223444" version="1" timestamp="2019-02-02T17:43:08Z" changeset="66860957" uid="633013" user="Honning">
		<tag k="name" v="Bøensetret" />
		<tag k="place" v="hamlet" />
		<tag k="ssr:stedsnr" v="64656" />
	</node>
	<node id="6254199567" lat="59.2745667" lon="11.6439778" version="1" timestamp="2019-02-02T17:43:08Z" changeset="66860957" uid="633013" user="Honning">
		<tag k="name" v="Hola" />
		<tag k="place" v="locality" />
		<tag k="ssr:stedsnr" v="64716" />
	</node>
	<node id="6254199568" lat="59.2646472" lon="11.7987028" version="1" timestamp="2019-02-02T17:43:08Z" changeset="66860957" uid="633013" user="Honning">
		<tag k="name" v="Tolsby" />
		<tag k="place" v="farm" />
		<tag k="ssr:stedsnr" v="64729" />
	</node>
	<node id="6254199569" lat="59.2580111" lon="11.6880694" version="1" timestamp="2019-02-02T17:43:08Z" changeset="66860957" uid="633013" user="Honning">
		<tag k="name" v="Skjulstad" />
		<tag k="place" v="farm" />
		<tag k="ssr:stedsnr" v="64741" />
	</node>
	<node id="6254199570" lat="59.2913278" lon="11.6388667" version="1" timestamp="2019-02-02T17:43:09Z" changeset="66860957" uid="633013" user="Honning">
		<tag k="name" v="Hyllestad" />
		<tag k="place" v="locality" />
		<tag k="ssr:stedsnr" v="98036" />
	</node>
	<node id="6254199571" lat="59.2253917" lon="11.7275555" version="1" timestamp="2019-02-02T17:43:09Z" changeset="66860957" uid="633013" user="Honning">
		<tag k="name" v="Østre Espelund" />
		<tag k="place" v="farm" />
		<tag k="ssr:stedsnr" v="98486" />
	</node>
	<node id="6254199572" lat="59.2410583" lon="11.6875583" version="1" timestamp="2019-02-02T17:43:09Z" changeset="66860957" uid="633013" user="Honning">
		<tag k="loc_name" v="Listeberg" />
		<tag k="name" v="Listeberghaugen" />
		<tag k="place" v="neighbourhood" />
		<tag k="ssr:stedsnr" v="98492" />
	</node>
	<node id="6254199573" lat="59.1303278" lon="11.7555639" version="1" timestamp="2019-02-02T17:43:09Z" changeset="66860957" uid="633013" user="Honning">
		<tag k="name" v="Søndre Svarød" />
		<tag k="place" v="locality" />
		<tag k="ssr:stedsnr" v="112319" />
	</node>
	<node id="6254199574" lat="59.1431444" lon="11.6598" version="1" timestamp="2019-02-02T17:43:09Z" changeset="66860957" uid="633013" user="Honning">
		<tag k="name" v="Sund" />
		<tag k="place" v="hamlet" />
		<tag k="ssr:stedsnr" v="111482" />
	</node>
	<node id="6254199575" lat="59.2482444" lon="11.7585361" version="1" timestamp="2019-02-02T17:43:09Z" changeset="66860957" uid="633013" user="Honning">
		<tag k="name" v="Bakkene" />
		<tag k="place" v="isolated_dwelling" />
		<tag k="ssr:stedsnr" v="112786" />
	</node>
	<node id="6254199576" lat="59.2635167" lon="11.7905889" version="1" timestamp="2019-02-02T17:43:09Z" changeset="66860957" uid="633013" user="Honning">
		<tag k="name" v="Gubberød" />
		<tag k="place" v="isolated_dwelling" />
		<tag k="ssr:stedsnr" v="112861" />
	</node>
	<node id="6254199577" lat="59.1997917" lon="11.7047917" version="1" timestamp="2019-02-02T17:43:09Z" changeset="66860957" uid="633013" user="Honning">
		<tag k="name" v="Fossen" />
		<tag k="place" v="locality" />
		<tag k="ssr:stedsnr" v="112881" />
	</node>
	<node id="6254199578" lat="59.1965111" lon="11.6179917" version="1" timestamp="2019-02-02T17:43:09Z" changeset="66860957" uid="633013" user="Honning">
		<tag k="alt_name" v="Svensbysetret" />
		<tag k="name" v="Valbergsetret" />
		<tag k="place" v="locality" />
		<tag k="ssr:stedsnr" v="112885" />
	</node>
	<node id="6254199579" lat="59.3320667" lon="11.7546917" version="1" timestamp="2019-02-02T17:43:09Z" changeset="66860957" uid="633013" user="Honning">
		<tag k="alt_name" v="Korneliussætre" />
		<tag k="name" v="Korneliussetret" />
		<tag k="place" v="locality" />
		<tag k="ssr:stedsnr" v="112947" />
	</node>
	<node id="6254199580" lat="59.2564861" lon="11.6953695" version="1" timestamp="2019-02-02T17:43:09Z" changeset="66860957" uid="633013" user="Honning">
		<tag k="name" v="Aspelund" />
		<tag k="place" v="farm" />
		<tag k="ssr:stedsnr" v="113066" />
	</node>
	<node id="6254199581" lat="59.2514361" lon="11.7152333" version="1" timestamp="2019-02-02T17:43:09Z" changeset="66860957" uid="633013" user="Honning">
		<tag k="alt_name" v="Langedal nordre" />
		<tag k="name" v="Nordre Langedal" />
		<tag k="place" v="farm" />
		<tag k="ssr:stedsnr" v="113069" />
	</node>
	<node id="6254199582" lat="59.2336083" lon="11.5834556" version="1" timestamp="2019-02-02T17:43:09Z" changeset="66860957" uid="633013" user="Honning">
		<tag k="name" v="Fjell" />
		<tag k="place" v="locality" />
		<tag k="ssr:stedsnr" v="122126" />
	</node>
	<node id="6254199583" lat="59.2167639" lon="11.7172806" version="1" timestamp="2019-02-02T17:43:09Z" changeset="66860957" uid="633013" user="Honning">
		<tag k="name" v="Kopperød" />
		<tag k="place" v="farm" />
		<tag k="ssr:stedsnr" v="122154" />
	</node>
	<node id="6254199584" lat="59.112375" lon="11.7661361" version="1" timestamp="2019-02-02T17:43:09Z" changeset="66860957" uid="633013" user="Honning">
		<tag k="name" v="Neverlund" />
		<tag k="place" v="farm" />
		<tag k="ssr:stedsnr" v="122449" />
	</node>
	<node id="6254199885" lat="59.1521861" lon="11.6612333" version="1" timestamp="2019-02-02T17:43:09Z" changeset="66860957" uid="633013" user="Honning">
		<tag k="alt_name" v="Østensvik nedre" />
		<tag k="name" v="Nedre Østensvik" />
		<tag k="place" v="farm" />
		<tag k="ssr:stedsnr" v="123003" />
	</node>
	<node id="6254199886" lat="59.1827528" lon="11.6154861" version="1" timestamp="2019-02-02T17:43:09Z" changeset="66860957" uid="633013" user="Honning">
		<tag k="name" v="Sørli" />
		<tag k="place" v="farm" />
		<tag k="ssr:stedsnr" v="123093" />
	</node>
	<node id="6254199887" lat="59.1652861" lon="11.6513361" version="1" timestamp="2019-02-02T17:43:10Z" changeset="66860957" uid="633013" user="Honning">
		<tag k="name" v="Slorer" />
		<tag k="place" v="farm" />
		<tag k="ssr:stedsnr" v="123125" />
	</node>
	<node id="6254199888" lat="59.2369389" lon="11.8160361" version="1" timestamp="2019-02-02T17:43:10Z" changeset="66860957" uid="633013" user="Honning">
		<tag k="name" v="Bråten" />
		<tag k="place" v="isolated_dwelling" />
		<tag k="ssr:stedsnr" v="123267" />
	</node>
	<node id="6254199889" lat="59.3185583" lon="11.7214833" version="1" timestamp="2019-02-02T17:43:10Z" changeset="66860957" uid="633013" user="Honning">
		<tag k="alt_name" v="Nedre Sørenskas" />
		<tag k="name" v="Sørenskas" />
		<tag k="place" v="isolated_dwelling" />
		<tag k="ssr:stedsnr" v="124592" />
	</node>
	<node id="6254199890" lat="59.2764972" lon="11.6470583" version="1" timestamp="2019-02-02T17:43:10Z" changeset="66860957" uid="633013" user="Honning">
		<tag k="name" v="Ødegården" />
		<tag k="place" v="locality" />
		<tag k="ssr:stedsnr" v="124638" />
	</node>
	<node id="6254199891" lat="59.2723972" lon="11.6809861" version="1" timestamp="2019-02-02T17:43:10Z" changeset="66860957" uid="633013" user="Honning">
		<tag k="name" v="Rud" />
		<tag k="place" v="farm" />
		<tag k="ssr:stedsnr" v="124672" />
	</node>
	<node id="6254199892" lat="59.2765417" lon="11.5846361" version="1" timestamp="2019-02-02T17:43:10Z" changeset="66860957" uid="633013" user="Honning">
		<tag k="name" v="Kutjernshytta" />
		<tag k="place" v="isolated_dwelling" />
		<tag k="ssr:stedsnr" v="158353" />
	</node>
	<node id="6254199893" lat="59.2256167" lon="11.7159333" version="1" timestamp="2019-02-02T17:43:10Z" changeset="66860957" uid="633013" user="Honning">
		<tag k="name" v="Holtekasa" />
		<tag k="place" v="farm" />
		<tag k="ssr:stedsnr" v="158454" />
	</node>
	<node id="6254199894" lat="59.2965333" lon="11.65775" version="1" timestamp="2019-02-02T17:43:10Z" changeset="66860957" uid="633013" user="Honning">
		<tag k="name" v="Søndre Nes" />
		<tag k="place" v="farm" />
		<tag k="ssr:stedsnr" v="159027" />
	</node>
	<node id="6254199895" lat="59.3075917" lon="11.7157389" version="1" timestamp="2019-02-02T17:43:10Z" changeset="66860957" uid="633013" user="Honning">
		<tag k="name" v="Langenes" />
		<tag k="place" v="locality" />
		<tag k="ssr:stedsnr" v="159057" />
	</node>
	<node id="6254199896" lat="59.2849667" lon="11.6094556" version="1" timestamp="2019-02-02T17:43:10Z" changeset="66860957" uid="633013" user="Honning">
		<tag k="name" v="Berggrøthytta" />
		<tag k="place" v="locality" />
		<tag k="ssr:stedsnr" v="159365" />
	</node>
	<node id="6254199897" lat="59.3138554" lon="11.7209058" version="1" timestamp="2019-02-02T17:43:10Z" changeset="66860957" uid="633013" user="Honning">
		<tag k="alt_name" v="Søndre Bøensætre" />
		<tag k="name" v="Søndre Bøensetret" />
		<tag k="place" v="farm" />
		<tag k="ssr:stedsnr" v="172180" />
	</node>
	<node id="6254199898" lat="59.2778528" lon="11.8038056" version="1" timestamp="2019-02-02T17:43:10Z" changeset="66860957" uid="633013" user="Honning">
		<tag k="name" v="Hjerpenes" />
		<tag k="place" v="locality" />
		<tag k="ssr:stedsnr" v="172831" />
	</node>
	<node id="6254199899" lat="59.2161861" lon="11.7092611" version="1" timestamp="2019-02-02T17:43:10Z" changeset="66860957" uid="633013" user="Honning">
		<tag k="name" v="Jersengen" />
		<tag k="place" v="farm" />
		<tag k="ssr:stedsnr" v="173283" />
	</node>
	<node id="6254199900" lat="59.1465667" lon="11.7402195" version="1" timestamp="2019-02-02T17:43:10Z" changeset="66860957" uid="633013" user="Honning">
		<tag k="name" v="Haugen" />
		<tag k="place" v="farm" />
		<tag k="ssr:stedsnr" v="173920" />
	</node>
	<node id="6254199901" lat="59.2281583" lon="11.7030056" version="1" timestamp="2019-02-02T17:43:10Z" changeset="66860957" uid="633013" user="Honning">
		<tag k="alt_name" v="Myrene" />
		<tag k="name" v="Myrane" />
		<tag k="place" v="farm" />
		<tag k="ssr:stedsnr" v="183143" />
	</node>
	<node id="6254199902" lat="59.1503528" lon="11.7645889" version="1" timestamp="2019-02-02T17:43:10Z" changeset="66860957" uid="633013" user="Honning">
		<tag k="name" v="Kolsbu" />
		<tag k="place" v="isolated_dwelling" />
		<tag k="ssr:stedsnr" v="184010" />
	</node>
	<node id="6254199903" lat="59.1386806" lon="11.7443778" version="1" timestamp="2019-02-02T17:43:10Z" changeset="66860957" uid="633013" user="Honning">
		<tag k="alt_name" v="Kvernmoen" />
		<tag k="name" v="Kvernemoen" />
		<tag k="place" v="isolated_dwelling" />
		<tag k="ssr:stedsnr" v="184022" />
	</node>
	<node id="6254199904" lat="59.1367278" lon="11.7744194" version="1" timestamp="2019-02-02T17:43:11Z" changeset="66860957" uid="633013" user="Honning">
		<tag k="alt_name" v="Allingmoen" />
		<tag k="name" v="Alingmoen" />
		<tag k="place" v="farm" />
		<tag k="ssr:stedsnr" v="184027" />
	</node>
	<node id="6254199905" lat="59.0521917" lon="11.7372583" version="1" timestamp="2019-02-02T17:43:11Z" changeset="66860957" uid="633013" user="Honning">
		<tag k="name" v="Budalsvika" />
		<tag k="ssr:stedsnr" v="184445" />
		<tag k="tourism" v="chalet" />
	</node>
	<node id="6254199906" lat="59.2726722" lon="11.6629639" version="1" timestamp="2019-02-02T17:43:11Z" changeset="66860957" uid="633013" user="Honning">
		<tag k="alt_name" v="Rive søndre" />
		<tag k="name" v="Søndre Rive" />
		<tag k="place" v="farm" />
		<tag k="ssr:stedsnr" v="185678" />
	</node>
	<node id="6254199907" lat="59.2959944" lon="11.7422528" version="1" timestamp="2019-02-02T17:43:11Z" changeset="66860957" uid="633013" user="Honning">
		<tag k="name" v="Knatterød" />
		<tag k="place" v="locality" />
		<tag k="ssr:stedsnr" v="185631" />
	</node>
	<node id="6254199908" lat="59.2831417" lon="11.77755" version="1" timestamp="2019-02-02T17:43:11Z" changeset="66860957" uid="633013" user="Honning">
		<tag k="name" v="Enger" />
		<tag k="place" v="hamlet" />
		<tag k="ssr:stedsnr" v="185649" />
	</node>
	<node id="6254199909" lat="59.2886778" lon="11.7028167" version="1" timestamp="2019-02-02T17:43:11Z" changeset="66860957" uid="633013" user="Honning">
		<tag k="alt_name" v="Fangesætret, nordre;Fangesætre;Nordre Fangesætret" />
		<tag k="name" v="Nordre Fangesetret" />
		<tag k="place" v="farm" />
		<tag k="ssr:stedsnr" v="185651" />
	</node>
	<node id="6254199910" lat="59.2565306" lon="11.7651" version="1" timestamp="2019-02-02T17:43:11Z" changeset="66860957" uid="633013" user="Honning">
		<tag k="name" v="Moen" />
		<tag k="place" v="farm" />
		<tag k="ssr:stedsnr" v="185706" />
	</node>
	<node id="6254199911" lat="59.2626333" lon="11.8194722" version="1" timestamp="2019-02-02T17:43:11Z" changeset="66860957" uid="633013" user="Honning">
		<tag k="name" v="Sikerød" />
		<tag k="place" v="farm" />
		<tag k="ssr:stedsnr" v="294869;185709" />
	</node>
	<node id="6254199912" lat="59.2286528" lon="11.6974694" version="1" timestamp="2019-02-02T17:43:11Z" changeset="66860957" uid="633013" user="Honning">
		<tag k="name" v="Myrland" />
		<tag k="place" v="farm" />
		<tag k="ssr:stedsnr" v="219453" />
	</node>
	<node id="6254199913" lat="59.3188139" lon="11.7218389" version="1" timestamp="2019-02-02T17:43:11Z" changeset="66860957" uid="633013" user="Honning">
		<tag k="name" v="Øvre Sørenskas" />
		<tag k="place" v="locality" />
		<tag k="ssr:stedsnr" v="220289" />
	</node>
	<node id="6254199914" lat="59.26195" lon="11.6422639" version="1" timestamp="2019-02-02T17:43:11Z" changeset="66860957" uid="633013" user="Honning">
		<tag k="name" v="Nordre Følingen" />
		<tag k="place" v="farm" />
		<tag k="ssr:stedsnr" v="220491" />
	</node>
	<node id="6254199915" lat="59.2767028" lon="11.6405278" version="1" timestamp="2019-02-02T17:43:11Z" changeset="66860957" uid="633013" user="Honning">
		<tag k="name" v="Søndre Dagerød" />
		<tag k="place" v="farm" />
		<tag k="ssr:stedsnr" v="233093" />
	</node>
	<node id="6254199916" lat="59.2305167" lon="11.752125" version="1" timestamp="2019-02-02T17:43:11Z" changeset="66860957" uid="633013" user="Honning">
		<tag k="name" v="Vegne" />
		<tag k="place" v="farm" />
		<tag k="ssr:stedsnr" v="233148" />
	</node>
	<node id="6254199917" lat="59.2124556" lon="11.753825" version="1" timestamp="2019-02-02T17:43:11Z" changeset="66860957" uid="633013" user="Honning">
		<tag k="name" v="Nordre Bråtane" />
		<tag k="place" v="locality" />
		<tag k="ssr:stedsnr" v="233240" />
	</node>
	<node id="6254199918" lat="59.3236694" lon="11.6572167" version="1" timestamp="2019-02-02T17:43:11Z" changeset="66860957" uid="633013" user="Honning">
		<tag k="name" v="Klokkerhytta" />
		<tag k="place" v="isolated_dwelling" />
		<tag k="ssr:stedsnr" v="234400" />
	</node>
	<node id="6254199919" lat="59.1449639" lon="11.7301055" version="1" timestamp="2019-02-02T17:43:11Z" changeset="66860957" uid="633013" user="Honning">
		<tag k="name" v="Øvre Holmegil" />
		<tag k="place" v="farm" />
		<tag k="ssr:stedsnr" v="234925" />
	</node>
	<node id="6254199920" lat="59.1919278" lon="11.7353389" version="1" timestamp="2019-02-02T17:43:11Z" changeset="66860957" uid="633013" user="Honning">
		<tag k="name" v="Rødsholtet" />
		<tag k="place" v="farm" />
		<tag k="ssr:stedsnr" v="244080" />
	</node>
	<node id="6254199921" lat="59.1812111" lon="11.6049333" version="1" timestamp="2019-02-02T17:43:11Z" changeset="66860957" uid="633013" user="Honning">
		<tag k="name" v="Moen" />
		<tag k="place" v="hamlet" />
		<tag k="ssr:stedsnr" v="244088" />
	</node>
	<node id="6254199922" lat="59.1820194" lon="11.7202278" version="1" timestamp="2019-02-02T17:43:12Z" changeset="66860957" uid="633013" user="Honning">
		<tag k="alt_name" v="Aspestrand vestre;Aspestrand;Vestgården" />
		<tag k="name" v="Vestre Aspestrand" />
		<tag k="place" v="farm" />
		<tag k="ssr:stedsnr" v="244102" />
	</node>
	<node id="6254199923" lat="59.23435" lon="11.7422944" version="1" timestamp="2019-02-02T17:43:12Z" changeset="66860957" uid="633013" user="Honning">
		<tag k="name" v="Rovedal" />
		<tag k="place" v="farm" />
		<tag k="ssr:stedsnr" v="244139" />
	</node>
	<node id="6254199924" lat="59.2175056" lon="11.7551417" version="1" timestamp="2019-02-02T17:43:12Z" changeset="66860957" uid="633013" user="Honning">
		<tag k="alt_name" v="Spanndalen" />
		<tag k="name" v="Spondalen" />
		<tag k="place" v="hamlet" />
		<tag k="ssr:stedsnr" v="244174" />
	</node>
	<node id="6254199925" lat="59.0811333" lon="11.6818611" version="1" timestamp="2019-02-02T17:43:12Z" changeset="66860957" uid="633013" user="Honning">
		<tag k="name" v="Ørnelund" />
		<tag k="place" v="locality" />
		<tag k="ssr:stedsnr" v="244502" />
	</node>
	<node id="6254199926" lat="59.2382944" lon="11.7873" version="1" timestamp="2019-02-02T17:43:12Z" changeset="66860957" uid="633013" user="Honning">
		<tag k="name" v="Doktorhytta" />
		<tag k="place" v="isolated_dwelling" />
		<tag k="ssr:stedsnr" v="245221" />
	</node>
	<node id="6254199927" lat="59.2549417" lon="11.6865972" version="1" timestamp="2019-02-02T17:43:12Z" changeset="66860957" uid="633013" user="Honning">
		<tag k="name" v="Arebekken" />
		<tag k="place" v="farm" />
		<tag k="ssr:stedsnr" v="245600" />
	</node>
	<node id="6254199928" lat="59.2969361" lon="11.65725" version="1" timestamp="2019-02-02T17:43:12Z" changeset="66860957" uid="633013" user="Honning">
		<tag k="name" v="Nes" />
		<tag k="place" v="hamlet" />
		<tag k="ssr:stedsnr" v="246646" />
	</node>
	<node id="6254199929" lat="59.2753917" lon="11.75915" version="1" timestamp="2019-02-02T17:43:12Z" changeset="66860957" uid="633013" user="Honning">
		<tag k="name" v="Lajordet" />
		<tag k="place" v="farm" />
		<tag k="ssr:stedsnr" v="246672" />
	</node>
	<node id="6254199930" lat="59.2986472" lon="11.756925" version="1" timestamp="2019-02-02T17:43:12Z" changeset="66860957" uid="633013" user="Honning">
		<tag k="alt_name" v="Størholt nordre" />
		<tag k="name" v="Nordre Størholt" />
		<tag k="place" v="locality" />
		<tag k="ssr:stedsnr" v="415965" />
	</node>
	<node id="6254199931" lat="59.2146194" lon="11.6960806" version="1" timestamp="2019-02-02T17:43:12Z" changeset="66860957" uid="633013" user="Honning">
		<tag k="name" v="Nedre Flateby" />
		<tag k="place" v="farm" />
		<tag k="ssr:stedsnr" v="416294" />
	</node>
	<node id="6254199932" lat="59.3126972" lon="11.5958694" version="1" timestamp="2019-02-02T17:43:12Z" changeset="66860957" uid="633013" user="Honning">
		<tag k="name" v="Søndre Kilebråten" />
		<tag k="place" v="farm" />
		<tag k="ssr:stedsnr" v="416305" />
	</node>
	<node id="6254199933" lat="59.2171556" lon="11.6292806" version="1" timestamp="2019-02-02T17:43:12Z" changeset="66860957" uid="633013" user="Honning">
		<tag k="name" v="Nordbyseter" />
		<tag k="place" v="locality" />
		<tag k="ssr:stedsnr" v="416304" />
	</node>
	<node id="6254199934" lat="59.1904278" lon="11.6809861" version="1" timestamp="2019-02-02T17:43:12Z" changeset="66860957" uid="633013" user="Honning">
		<tag k="name" v="Bakås" />
		<tag k="place" v="locality" />
		<tag k="ssr:stedsnr" v="416990" />
	</node>
	<node id="6254199935" lat="59.3078917" lon="11.6244945" version="1" timestamp="2019-02-02T17:43:12Z" changeset="66860957" uid="633013" user="Honning">
		<tag k="name" v="Våla" />
		<tag k="place" v="neighbourhood" />
		<tag k="ssr:stedsnr" v="419130" />
	</node>
	<node id="6254199936" lat="59.2303417" lon="11.7814417" version="1" timestamp="2019-02-02T17:43:12Z" changeset="66860957" uid="633013" user="Honning">
		<tag k="name" v="Kollerødhytta" />
		<tag k="place" v="isolated_dwelling" />
		<tag k="ssr:stedsnr" v="426133" />
	</node>
	<node id="6254199937" lat="59.2013639" lon="11.7373917" version="1" timestamp="2019-02-02T17:43:12Z" changeset="66860957" uid="633013" user="Honning">
		<tag k="name" v="Rødsmoen" />
		<tag k="place" v="locality" />
		<tag k="ssr:stedsnr" v="426178" />
	</node>
	<node id="6254199938" lat="59.1995944" lon="11.7050333" version="1" timestamp="2019-02-02T17:43:12Z" changeset="66860957" uid="633013" user="Honning">
		<tag k="name" v="Fossen" />
		<tag k="place" v="farm" />
		<tag k="ssr:stedsnr" v="426180" />
	</node>
	<node id="6254199939" lat="59.1480329" lon="11.7505221" version="1" timestamp="2019-02-02T17:43:13Z" changeset="66860957" uid="633013" user="Honning">
		<tag k="alt_name" v="Nordgården;Nordgård" />
		<tag k="name" v="Bjerkebekk" />
		<tag k="place" v="farm" />
		<tag k="ssr:stedsnr" v="427007" />
	</node>
	<node id="6254199940" lat="59.1508889" lon="11.7506528" version="1" timestamp="2019-02-02T17:43:13Z" changeset="66860957" uid="633013" user="Honning">
		<tag k="name" v="Sand" />
		<tag k="place" v="farm" />
		<tag k="ssr:stedsnr" v="427008" />
	</node>
	<node id="6254199941" lat="59.1402667" lon="11.746025" version="1" timestamp="2019-02-02T17:43:13Z" changeset="66860957" uid="633013" user="Honning">
		<tag k="name" v="Kasa" />
		<tag k="place" v="farm" />
		<tag k="ssr:stedsnr" v="427019" />
	</node>
	<node id="6254199942" lat="59.1835389" lon="11.6682083" version="1" timestamp="2019-02-02T17:43:13Z" changeset="66860957" uid="633013" user="Honning">
		<tag k="name" v="Berger" />
		<tag k="place" v="farm" />
		<tag k="ssr:stedsnr" v="427101" />
	</node>
	<node id="6254199943" lat="59.1743556" lon="11.6266361" version="1" timestamp="2019-02-02T17:43:13Z" changeset="66860957" uid="633013" user="Honning">
		<tag k="name" v="Grøte" />
		<tag k="place" v="locality" />
		<tag k="ssr:stedsnr" v="427110" />
	</node>
	<node id="6254199944" lat="59.2430333" lon="11.6456028" version="1" timestamp="2019-02-02T17:43:13Z" changeset="66860957" uid="633013" user="Honning">
		<tag k="name" v="Bakkeli" />
		<tag k="place" v="farm" />
		<tag k="ssr:stedsnr" v="427270" />
	</node>
	<node id="6254199945" lat="59.2400944" lon="11.6484945" version="1" timestamp="2019-02-02T17:43:13Z" changeset="66860957" uid="633013" user="Honning">
		<tag k="alt_name" v="Buerødegård" />
		<tag k="name" v="Buerøgården" />
		<tag k="place" v="isolated_dwelling" />
		<tag k="ssr:stedsnr" v="427271" />
	</node>
	<node id="6254199946" lat="59.2901111" lon="11.6773056" version="1" timestamp="2019-02-02T17:43:13Z" changeset="66860957" uid="633013" user="Honning">
		<tag k="alt_name" v="Fange mellem;Fange" />
		<tag k="name" v="Mellom-Fange" />
		<tag k="old_name" v="Mellem-Fange" />
		<tag k="place" v="farm" />
		<tag k="ssr:stedsnr" v="428671" />
	</node>
	<node id="6254199947" lat="59.2821972" lon="11.6964556" version="1" timestamp="2019-02-02T17:43:13Z" changeset="66860957" uid="633013" user="Honning">
		<tag k="name" v="Nordby" />
		<tag k="place" v="farm" />
		<tag k="ssr:stedsnr" v="428689" />
	</node>
	<node id="6254199948" lat="59.2661226" lon="11.6459427" version="1" timestamp="2019-02-02T17:43:13Z" changeset="66860957" uid="633013" user="Honning">
		<tag k="name" v="Holt" />
		<tag k="place" v="hamlet" />
		<tag k="ssr:stedsnr" v="428710" />
	</node>
	<node id="6254199949" lat="59.2661167" lon="11.6512028" version="1" timestamp="2019-02-02T17:43:13Z" changeset="66860957" uid="633013" user="Honning">
		<tag k="alt_name" v="Holt" />
		<tag k="name" v="Østre Holt" />
		<tag k="place" v="farm" />
		<tag k="ssr:stedsnr" v="428711" />
	</node>
	<node id="6254199950" lat="59.263275" lon="11.7605583" version="1" timestamp="2019-02-02T17:43:13Z" changeset="66860957" uid="633013" user="Honning">
		<tag k="alt_name" v="Torkildsrød" />
		<tag k="name" v="Torkelsrød" />
		<tag k="place" v="farm" />
		<tag k="ssr:stedsnr" v="428718" />
	</node>
	<node id="6254199951" lat="59.2983056" lon="11.6369139" version="1" timestamp="2019-02-02T17:43:13Z" changeset="66860957" uid="633013" user="Honning">
		<tag k="name" v="Nordre Pina" />
		<tag k="place" v="locality" />
		<tag k="ssr:stedsnr" v="462046" />
	</node>
	<node id="6254199952" lat="59.2289194" lon="11.7242778" version="1" timestamp="2019-02-02T17:43:13Z" changeset="66860957" uid="633013" user="Honning">
		<tag k="name" v="Bekkevangen" />
		<tag k="place" v="locality" />
		<tag k="ssr:stedsnr" v="462461" />
	</node>
	<node id="6254199953" lat="59.2464556" lon="11.6916139" version="1" timestamp="2019-02-02T17:43:13Z" changeset="66860957" uid="633013" user="Honning">
		<tag k="name" v="Nybo" />
		<tag k="place" v="farm" />
		<tag k="ssr:stedsnr" v="462472" />
	</node>
	<node id="6254199954" lat="59.23905" lon="11.6829972" version="1" timestamp="2019-02-02T17:43:13Z" changeset="66860957" uid="633013" user="Honning">
		<tag k="name" v="Kirkeng" />
		<tag k="place" v="neighbourhood" />
		<tag k="ssr:stedsnr" v="466026" />
	</node>
	<node id="6254199955" lat="59.2802667" lon="11.6776917" version="1" timestamp="2019-02-02T17:43:13Z" changeset="66860957" uid="633013" user="Honning">
		<tag k="name" v="Fangebukta" />
		<tag k="place" v="neighbourhood" />
		<tag k="ssr:stedsnr" v="466025" />
	</node>
	<node id="6254199956" lat="59.2553583" lon="11.6799639" version="1" timestamp="2019-02-02T17:43:14Z" changeset="66860957" uid="633013" user="Honning">
		<tag k="name" v="Arebekken" />
		<tag k="place" v="neighbourhood" />
		<tag k="ssr:stedsnr" v="466027" />
	</node>
	<node id="6254199957" lat="59.2423806" lon="11.6822778" version="1" timestamp="2019-02-02T17:43:14Z" changeset="66860957" uid="633013" user="Honning">
		<tag k="alt_name" v="Kirkeng nordre" />
		<tag k="name" v="Nordre Kirkeng" />
		<tag k="place" v="farm" />
		<tag k="ssr:stedsnr" v="483186" />
	</node>
	<node id="6254199958" lat="59.2299806" lon="11.7400722" version="1" timestamp="2019-02-02T17:43:14Z" changeset="66860957" uid="633013" user="Honning">
		<tag k="name" v="Frydenlund" />
		<tag k="place" v="farm" />
		<tag k="ssr:stedsnr" v="486102" />
	</node>
	<node id="6254199959" lat="59.2519611" lon="11.6439639" version="1" timestamp="2019-02-02T17:43:14Z" changeset="66860957" uid="633013" user="Honning">
		<tag k="name" v="Teigen" />
		<tag k="place" v="farm" />
		<tag k="ssr:stedsnr" v="488605" />
	</node>
	<node id="6254199960" lat="59.2904" lon="11.646675" version="1" timestamp="2019-02-02T17:43:14Z" changeset="66860957" uid="633013" user="Honning">
		<tag k="name" v="Lervik" />
		<tag k="place" v="farm" />
		<tag k="ssr:stedsnr" v="488649" />
	</node>
	<node id="6254199961" lat="59.1594306" lon="11.7301389" version="1" timestamp="2019-02-02T17:43:14Z" changeset="66860957" uid="633013" user="Honning">
		<tag k="name" v="Tripperød" />
		<tag k="place" v="farm" />
		<tag k="ssr:stedsnr" v="487101" />
	</node>
	<node id="6254199962" lat="59.222563" lon="11.6964074" version="1" timestamp="2019-02-02T17:43:14Z" changeset="66860957" uid="633013" user="Honning">
		<tag k="name" v="Fossby" />
		<tag k="place" v="farm" />
		<tag k="ssr:stedsnr" v="487154" />
	</node>
	<node id="6254199963" lat="59.2187194" lon="11.7327667" version="1" timestamp="2019-02-02T17:43:14Z" changeset="66860957" uid="633013" user="Honning">
		<tag k="name" v="Tolverød" />
		<tag k="place" v="farm" />
		<tag k="ssr:stedsnr" v="487167" />
	</node>
	<node id="6254199964" lat="59.1964472" lon="11.7204639" version="1" timestamp="2019-02-02T17:43:14Z" changeset="66860957" uid="633013" user="Honning">
		<tag k="alt_name" v="Glennekasa" />
		<tag k="name" v="Bikkjerød" />
		<tag k="place" v="farm" />
		<tag k="ssr:stedsnr" v="487172" />
	</node>
	<node id="6254199965" lat="59.2077611" lon="11.7241333" version="1" timestamp="2019-02-02T17:43:14Z" changeset="66860957" uid="633013" user="Honning">
		<tag k="name" v="Haug" />
		<tag k="place" v="hamlet" />
		<tag k="ssr:stedsnr" v="487175" />
	</node>
	<node id="6254199966" lat="59.1428111" lon="11.7622333" version="1" timestamp="2019-02-02T17:43:14Z" changeset="66860957" uid="633013" user="Honning">
		<tag k="alt_name" v="Store Bjerkebekk;Bjerkebekk" />
		<tag k="name" v="Bjørkebekk" />
		<tag k="place" v="farm" />
		<tag k="ssr:stedsnr" v="488019" />
	</node>
	<node id="6254199967" lat="59.2835444" lon="11.6455333" version="1" timestamp="2019-02-02T17:43:14Z" changeset="66860957" uid="633013" user="Honning">
		<tag k="alt_name" v="Lervik søndre" />
		<tag k="name" v="Søndre Lervik" />
		<tag k="place" v="farm" />
		<tag k="ssr:stedsnr" v="488655" />
	</node>
	<node id="6254199968" lat="59.2803111" lon="11.6456694" version="1" timestamp="2019-02-02T17:43:14Z" changeset="66860957" uid="633013" user="Honning">
		<tag k="alt_name" v="Rivegård" />
		<tag k="name" v="Riveødegård" />
		<tag k="place" v="farm" />
		<tag k="ssr:stedsnr" v="488680" />
	</node>
	<node id="6254199969" lat="59.2780889" lon="11.7818944" version="1" timestamp="2019-02-02T17:43:14Z" changeset="66860957" uid="633013" user="Honning">
		<tag k="name" v="Nyset" />
		<tag k="place" v="farm" />
		<tag k="ssr:stedsnr" v="488692" />
	</node>
	<node id="6254199970" lat="59.2674528" lon="11.6829861" version="1" timestamp="2019-02-02T17:43:14Z" changeset="66860957" uid="633013" user="Honning">
		<tag k="alt_name" v="Fangekasa" />
		<tag k="name" v="Kasa" />
		<tag k="place" v="farm" />
		<tag k="ssr:stedsnr" v="489752" />
	</node>
	<node id="6254199971" lat="59.2595861" lon="11.7409472" version="1" timestamp="2019-02-02T17:43:14Z" changeset="66860957" uid="633013" user="Honning">
		<tag k="alt_name" v="Hallesby søndre;Søndre Hallesby" />
		<tag k="name" v="Sør-Hallesby" />
		<tag k="place" v="farm" />
		<tag k="ssr:stedsnr" v="489759" />
	</node>
	<node id="6254199972" lat="59.3074889" lon="11.6606806" version="1" timestamp="2019-02-02T17:43:14Z" changeset="66860957" uid="633013" user="Honning">
		<tag k="name" v="Nordre Strøm" />
		<tag k="place" v="farm" />
		<tag k="ssr:stedsnr" v="523055" />
	</node>
	<node id="6254199973" lat="59.2281778" lon="11.7279528" version="1" timestamp="2019-02-02T17:43:15Z" changeset="66860957" uid="633013" user="Honning">
		<tag k="name" v="Espelund" />
		<tag k="place" v="farm" />
		<tag k="ssr:stedsnr" v="523533;183142" />
	</node>
	<node id="6254199974" lat="59.2460722" lon="11.7157195" version="1" timestamp="2019-02-02T17:43:15Z" changeset="66860957" uid="633013" user="Honning">
		<tag k="name" v="Holmen" />
		<tag k="place" v="locality" />
		<tag k="ssr:stedsnr" v="523535" />
	</node>
	<node id="6254199975" lat="59.3057583" lon="11.6437806" version="1" timestamp="2019-02-02T17:43:15Z" changeset="66860957" uid="633013" user="Honning">
		<tag k="name" v="Vestre Torget" />
		<tag k="place" v="locality" />
		<tag k="ssr:stedsnr" v="536045" />
	</node>
	<node id="6254199976" lat="59.305375" lon="11.6462111" version="1" timestamp="2019-02-02T17:43:15Z" changeset="66860957" uid="633013" user="Honning">
		<tag k="name" v="Østre Torget" />
		<tag k="place" v="isolated_dwelling" />
		<tag k="ssr:stedsnr" v="536046" />
	</node>
	<node id="6254199977" lat="59.2679889" lon="11.7824056" version="1" timestamp="2019-02-02T17:43:15Z" changeset="66860957" uid="633013" user="Honning">
		<tag k="name" v="Leksrødkasene" />
		<tag k="place" v="isolated_dwelling" />
		<tag k="ssr:stedsnr" v="536147" />
	</node>
	<node id="6254199978" lat="59.2576194" lon="11.7013195" version="1" timestamp="2019-02-02T17:43:15Z" changeset="66860957" uid="633013" user="Honning">
		<tag k="alt_name" v="Iglerød nordre" />
		<tag k="name" v="Nordre Iglerød" />
		<tag k="place" v="farm" />
		<tag k="ssr:stedsnr" v="537069" />
	</node>
	<node id="6254199979" lat="59.2611591" lon="11.743961" version="1" timestamp="2019-02-02T17:43:15Z" changeset="66860957" uid="633013" user="Honning">
		<tag k="name" v="Hallesby" />
		<tag k="place" v="hamlet" />
		<tag k="ssr:stedsnr" v="537135" />
	</node>
	<node id="6254199980" lat="59.2437688" lon="11.6414173" version="1" timestamp="2019-02-02T17:43:15Z" changeset="66860957" uid="633013" user="Honning">
		<tag k="name" v="Gressholt" />
		<tag k="place" v="locality" />
		<tag k="ssr:stedsnr" v="537278" />
	</node>
	<node id="6254199981" lat="59.2382694" lon="11.6749028" version="1" timestamp="2019-02-02T17:43:15Z" changeset="66860957" uid="633013" user="Honning">
		<tag k="name" v="Tangen" />
		<tag k="place" v="locality" />
		<tag k="ssr:stedsnr" v="547152" />
	</node>
	<node id="6254199982" lat="59.2158444" lon="11.7101083" version="1" timestamp="2019-02-02T17:43:15Z" changeset="66860957" uid="633013" user="Honning">
		<tag k="alt_name" v="Gjerdsenga" />
		<tag k="name" v="Jersengen" />
		<tag k="place" v="farm" />
		<tag k="ssr:stedsnr" v="547181" />
	</node>
	<node id="6254199983" lat="59.1427444" lon="11.760075" version="1" timestamp="2019-02-02T17:43:15Z" changeset="66860957" uid="633013" user="Honning">
		<tag k="name" v="Myra" />
		<tag k="place" v="farm" />
		<tag k="ssr:stedsnr" v="548019" />
	</node>
	<node id="6254199984" lat="59.1929028" lon="11.6751917" version="1" timestamp="2019-02-02T17:43:15Z" changeset="66860957" uid="633013" user="Honning">
		<tag k="name" v="Årbu" />
		<tag k="place" v="hamlet" />
		<tag k="ssr:stedsnr" v="548068" />
	</node>
	<node id="6254200185" lat="59.1814194" lon="11.7312389" version="1" timestamp="2019-02-02T17:43:15Z" changeset="66860957" uid="633013" user="Honning">
		<tag k="alt_name" v="Aspestrand østre;Østgården" />
		<tag k="name" v="Østre Aspestrand" />
		<tag k="place" v="farm" />
		<tag k="ssr:stedsnr" v="548078" />
	</node>
	<node id="6254200186" lat="59.30575" lon="11.6593361" version="1" timestamp="2019-02-02T17:43:15Z" changeset="66860957" uid="633013" user="Honning">
		<tag k="name" v="Strøm" />
		<tag k="place" v="farm" />
		<tag k="ssr:stedsnr" v="549637" />
	</node>
	<node id="6254200187" lat="59.2737472" lon="11.7815222" version="1" timestamp="2019-02-02T17:43:15Z" changeset="66860957" uid="633013" user="Honning">
		<tag k="name" v="Engerødegården" />
		<tag k="place" v="farm" />
		<tag k="ssr:stedsnr" v="549688" />
	</node>
	<node id="6254200188" lat="59.2713472" lon="11.7663722" version="1" timestamp="2019-02-02T17:43:15Z" changeset="66860957" uid="633013" user="Honning">
		<tag k="name" v="Røser" />
		<tag k="place" v="hamlet" />
		<tag k="ssr:stedsnr" v="549705" />
	</node>
	<node id="6254200189" lat="59.2604111" lon="11.7808194" version="1" timestamp="2019-02-02T17:43:15Z" changeset="66860957" uid="633013" user="Honning">
		<tag k="alt_name" v="Klokkestein" />
		<tag k="name" v="Klokkesten" />
		<tag k="place" v="farm" />
		<tag k="ssr:stedsnr" v="549715" />
	</node>
	<node id="6254200190" lat="59.184675" lon="11.670625" version="1" timestamp="2019-02-02T17:43:16Z" changeset="66860957" uid="633013" user="Honning">
		<tag k="name" v="Vestlifeltet" />
		<tag k="place" v="neighbourhood" />
		<tag k="ssr:stedsnr" v="567222" />
	</node>
	<node id="6254200191" lat="59.2385528" lon="11.6922528" version="1" timestamp="2019-02-02T17:43:16Z" changeset="66860957" uid="633013" user="Honning">
		<tag k="name" v="Vikheim" />
		<tag k="place" v="farm" />
		<tag k="ssr:stedsnr" v="582436" />
	</node>
	<node id="6254200192" lat="59.2967083" lon="11.6376167" version="1" timestamp="2019-02-02T17:43:16Z" changeset="66860957" uid="633013" user="Honning">
		<tag k="name" v="Søndre Pina" />
		<tag k="place" v="locality" />
		<tag k="ssr:stedsnr" v="583040" />
	</node>
	<node id="6254200193" lat="59.2466" lon="11.6513889" version="1" timestamp="2019-02-02T17:43:16Z" changeset="66860957" uid="633013" user="Honning">
		<tag k="name" v="Korset" />
		<tag k="place" v="locality" />
		<tag k="ssr:stedsnr" v="597307" />
	</node>
	<node id="6254200194" lat="59.2251806" lon="11.7170389" version="1" timestamp="2019-02-02T17:43:16Z" changeset="66860957" uid="633013" user="Honning">
		<tag k="name" v="Solbakken" />
		<tag k="place" v="farm" />
		<tag k="ssr:stedsnr" v="597319" />
	</node>
	<node id="6254200195" lat="59.2675472" lon="11.7891111" version="1" timestamp="2019-02-02T17:43:16Z" changeset="66860957" uid="633013" user="Honning">
		<tag k="name" v="Kasa" />
		<tag k="place" v="farm" />
		<tag k="ssr:stedsnr" v="597804" />
	</node>
	<node id="6254200196" lat="59.1432722" lon="11.7391694" version="1" timestamp="2019-02-02T17:43:16Z" changeset="66860957" uid="633013" user="Honning">
		<tag k="name" v="Neset" />
		<tag k="place" v="farm" />
		<tag k="ssr:stedsnr" v="597933" />
	</node>
	<node id="6254200197" lat="59.2977528" lon="11.6941028" version="1" timestamp="2019-02-02T17:43:16Z" changeset="66860957" uid="633013" user="Honning">
		<tag k="alt_name" v="Myra" />
		<tag k="name" v="Fangemyra" />
		<tag k="place" v="farm" />
		<tag k="ssr:stedsnr" v="598056" />
	</node>
	<node id="6254200198" lat="59.2872" lon="11.6782028" version="1" timestamp="2019-02-02T17:43:16Z" changeset="66860957" uid="633013" user="Honning">
		<tag k="alt_name" v="Mellem-Fange" />
		<tag k="name" v="Mellom-Fange" />
		<tag k="place" v="farm" />
		<tag k="ssr:stedsnr" v="598084" />
	</node>
	<node id="6254200199" lat="59.1971444" lon="11.6257639" version="1" timestamp="2019-02-02T17:43:16Z" changeset="66860957" uid="633013" user="Honning">
		<tag k="alt_name" v="Kvislersæter" />
		<tag k="historic" v="shieling" />
		<tag k="loc_name" v="Kvislersætret" />
		<tag k="name" v="Kvislerseter" />
		<tag k="place" v="locality" />
		<tag k="ssr:stedsnr" v="608163" />
	</node>
	<node id="6254200200" lat="59.2496524" lon="11.7466821" version="1" timestamp="2019-02-02T17:43:16Z" changeset="66860957" uid="633013" user="Honning">
		<tag k="name" v="Kollerød" />
		<tag k="place" v="hamlet" />
		<tag k="ssr:stedsnr" v="608224" />
	</node>
	<node id="6254200201" lat="59.1425611" lon="11.6648389" version="1" timestamp="2019-02-02T17:43:16Z" changeset="66860957" uid="633013" user="Honning">
		<tag k="alt_name" v="Sund" />
		<tag k="name" v="Øvre Sund" />
		<tag k="place" v="farm" />
		<tag k="ssr:stedsnr" v="609013" />
	</node>
	<node id="6254200202" lat="59.3036028" lon="11.6670167" version="1" timestamp="2019-02-02T17:43:16Z" changeset="66860957" uid="633013" user="Honning">
		<tag k="name" v="Bergstrøm" />
		<tag k="place" v="farm" />
		<tag k="ssr:stedsnr" v="609614" />
	</node>
	<node id="6254200203" lat="59.2762611" lon="11.64145" version="1" timestamp="2019-02-02T17:43:16Z" changeset="66860957" uid="633013" user="Honning">
		<tag k="name" v="Dagerød" />
		<tag k="place" v="farm" />
		<tag k="ssr:stedsnr" v="610718" />
	</node>
	<node id="6254200204" lat="59.2737056" lon="11.5884583" version="1" timestamp="2019-02-02T17:43:16Z" changeset="66860957" uid="633013" user="Honning">
		<tag k="alt_name" v="Dagerødsætre;Dagerødsætret" />
		<tag k="name" v="Dagerødsetret" />
		<tag k="place" v="isolated_dwelling" />
		<tag k="ssr:stedsnr" v="610733" />
	</node>
	<node id="6254200205" lat="59.3307083" lon="11.7106222" version="1" timestamp="2019-02-02T17:43:16Z" changeset="66860957" uid="633013" user="Honning">
		<tag k="name" v="Burås" />
		<tag k="place" v="isolated_dwelling" />
		<tag k="ssr:stedsnr" v="610766" />
	</node>
	<node id="6254200206" lat="59.2776833" lon="11.5886194" version="1" timestamp="2019-02-02T17:43:16Z" changeset="66860957" uid="633013" user="Honning">
		<tag k="alt_name" v="Nordrive sætre" />
		<tag k="name" v="Nordrivesetret" />
		<tag k="place" v="locality" />
		<tag k="ssr:stedsnr" v="643328" />
	</node>
	<node id="6254200207" lat="59.2373361" lon="11.6881583" version="1" timestamp="2019-02-02T17:43:17Z" changeset="66860957" uid="633013" user="Honning">
		<tag k="name" v="Sjøvik" />
		<tag k="place" v="farm" />
		<tag k="ssr:stedsnr" v="643450" />
	</node>
	<node id="6254200208" lat="59.3111889" lon="11.6691056" version="1" timestamp="2019-02-02T17:43:17Z" changeset="66860957" uid="633013" user="Honning">
		<tag k="name" v="Brekka" />
		<tag k="place" v="farm" />
		<tag k="ssr:stedsnr" v="644028" />
	</node>
	<node id="6254200210" lat="59.3172056" lon="11.7273361" version="1" timestamp="2019-02-02T17:43:17Z" changeset="66860957" uid="633013" user="Honning">
		<tag k="alt_name" v="Bøensætrehagen" />
		<tag k="name" v="Bøenseterhagen" />
		<tag k="place" v="isolated_dwelling" />
		<tag k="ssr:stedsnr" v="658203" />
	</node>
	<node id="6254200211" lat="59.2187611" lon="11.6839111" version="1" timestamp="2019-02-02T17:43:17Z" changeset="66860957" uid="633013" user="Honning">
		<tag k="name" v="Skakkestad" />
		<tag k="place" v="farm" />
		<tag k="ssr:stedsnr" v="658336" />
	</node>
	<node id="6254200212" lat="59.202075" lon="11.683075" version="1" timestamp="2019-02-02T17:43:17Z" changeset="66860957" uid="633013" user="Honning">
		<tag k="name" v="Løkka" />
		<tag k="place" v="farm" />
		<tag k="ssr:stedsnr" v="658855" />
	</node>
	<node id="6254200213" lat="59.1856722" lon="11.7286083" version="1" timestamp="2019-02-02T17:43:17Z" changeset="66860957" uid="633013" user="Honning">
		<tag k="name" v="Lauvmyr" />
		<tag k="place" v="farm" />
		<tag k="ssr:stedsnr" v="658867" />
	</node>
	<node id="6254200214" lat="59.2982833" lon="11.7563" version="1" timestamp="2019-02-02T17:43:17Z" changeset="66860957" uid="633013" user="Honning">
		<tag k="alt_name" v="Størholt søndre" />
		<tag k="name" v="Søndre Størholt" />
		<tag k="place" v="isolated_dwelling" />
		<tag k="ssr:stedsnr" v="658940" />
	</node>
	<node id="6254200215" lat="59.1585413" lon="11.653663" version="1" timestamp="2019-02-02T17:43:17Z" changeset="66860957" uid="633013" user="Honning">
		<tag k="name" v="Østensvik" />
		<tag k="place" v="hamlet" />
		<tag k="ssr:stedsnr" v="661318" />
	</node>
	<node id="6254200216" lat="59.2371833" lon="11.7147639" version="1" timestamp="2019-02-02T17:43:17Z" changeset="66860957" uid="633013" user="Honning">
		<tag k="alt_name" v="Skulstad" />
		<tag k="name" v="Skjulstad" />
		<tag k="place" v="farm" />
		<tag k="ssr:stedsnr" v="668121" />
	</node>
	<node id="6254200217" lat="59.1883556" lon="11.7445111" version="1" timestamp="2019-02-02T17:43:17Z" changeset="66860957" uid="633013" user="Honning">
		<tag k="alt_name" v="Sandåker" />
		<tag k="name" v="Sandaker" />
		<tag k="place" v="isolated_dwelling" />
		<tag k="ssr:stedsnr" v="669054" />
	</node>
	<node id="6254200218" lat="59.2240778" lon="11.6679056" version="1" timestamp="2019-02-02T17:43:17Z" changeset="66860957" uid="633013" user="Honning">
		<tag k="alt_name" v="Hagen" />
		<tag k="name" v="Haugen" />
		<tag k="place" v="locality" />
		<tag k="ssr:stedsnr" v="669135" />
	</node>
	<node id="6254200219" lat="59.2287789" lon="11.6791527" version="1" timestamp="2019-02-02T17:43:17Z" changeset="66860957" uid="633013" user="Honning">
		<tag k="name" v="Skolleborg" />
		<tag k="place" v="hamlet" />
		<tag k="ssr:stedsnr" v="669138" />
	</node>
	<node id="6254200220" lat="59.2105194" lon="11.6905528" version="1" timestamp="2019-02-02T17:43:17Z" changeset="66860957" uid="633013" user="Honning">
		<tag k="name" v="Skotsberg" />
		<tag k="place" v="hamlet" />
		<tag k="ssr:stedsnr" v="669156" />
	</node>
	<node id="6254200221" lat="59.2092278" lon="11.7375111" version="1" timestamp="2019-02-02T17:43:17Z" changeset="66860957" uid="633013" user="Honning">
		<tag k="name" v="Jettemoen" />
		<tag k="place" v="locality" />
		<tag k="ssr:stedsnr" v="669164" />
	</node>
	<node id="6254200222" lat="59.3083472" lon="11.67215" version="1" timestamp="2019-02-02T17:43:17Z" changeset="66860957" uid="633013" user="Honning">
		<tag k="name" v="Aslakstrøm" />
		<tag k="place" v="farm" />
		<tag k="ssr:stedsnr" v="670643" />
	</node>
	<node id="6254200223" lat="59.2567722" lon="11.7988111" version="1" timestamp="2019-02-02T17:43:17Z" changeset="66860957" uid="633013" user="Honning">
		<tag k="name" v="Berget" />
		<tag k="place" v="isolated_dwelling" />
		<tag k="ssr:stedsnr" v="670724" />
	</node>
	<node id="6254200224" lat="59.3255265" lon="11.6730041" version="1" timestamp="2019-02-02T17:43:18Z" changeset="66860957" uid="633013" user="Honning">
		<tag k="name" v="Bøen" />
		<tag k="place" v="hamlet" />
		<tag k="ssr:stedsnr" v="671641" />
	</node>
	<node id="6254200225" lat="59.2572639" lon="11.7010806" version="1" timestamp="2019-02-02T17:43:18Z" changeset="66860957" uid="633013" user="Honning">
		<tag k="name" v="Iglerød" />
		<tag k="place" v="farm" />
		<tag k="ssr:stedsnr" v="671737" />
	</node>
	<node id="6254200226" lat="59.2600528" lon="11.7357833" version="1" timestamp="2019-02-02T17:43:18Z" changeset="66860957" uid="633013" user="Honning">
		<tag k="name" v="Rødsmoen" />
		<tag k="place" v="farm" />
		<tag k="ssr:stedsnr" v="671738" />
	</node>
	<node id="6254200227" lat="59.2502306" lon="11.8158861" version="1" timestamp="2019-02-02T17:43:18Z" changeset="66860957" uid="633013" user="Honning">
		<tag k="name" v="Mosbekk" />
		<tag k="place" v="farm" />
		<tag k="ssr:stedsnr" v="731585" />
	</node>
	<node id="6254200228" lat="59.3062111" lon="11.6608083" version="1" timestamp="2019-02-02T17:43:18Z" changeset="66860957" uid="633013" user="Honning">
		<tag k="alt_name" v="Mellem-Strøm" />
		<tag k="name" v="Mellom-Strøm" />
		<tag k="place" v="farm" />
		<tag k="ssr:stedsnr" v="705055" />
	</node>
	<node id="6254200229" lat="59.22925" lon="11.7294417" version="1" timestamp="2019-02-02T17:43:18Z" changeset="66860957" uid="633013" user="Honning">
		<tag k="name" v="Nordre Espelund" />
		<tag k="place" v="farm" />
		<tag k="ssr:stedsnr" v="705540" />
	</node>
	<node id="6254200230" lat="59.3057056" lon="11.7140444" version="1" timestamp="2019-02-02T17:43:18Z" changeset="66860957" uid="633013" user="Honning">
		<tag k="name" v="Langenesåsen" />
		<tag k="place" v="locality" />
		<tag k="ssr:stedsnr" v="706046" />
	</node>
	<node id="6254200231" lat="59.3147885" lon="11.7218516" version="1" timestamp="2019-02-02T17:43:18Z" changeset="66860957" uid="633013" user="Honning">
		<tag k="alt_name" v="Nordre Bøensætre;Djuptjernkasa" />
		<tag k="name" v="Nordre Bøensetret" />
		<tag k="place" v="isolated_dwelling" />
		<tag k="ssr:stedsnr" v="709223" />
	</node>
	<node id="6254200232" lat="59.2844028" lon="11.6762611" version="1" timestamp="2019-02-02T17:43:18Z" changeset="66860957" uid="633013" user="Honning">
		<tag k="name" v="Sør-Fange" />
		<tag k="place" v="farm" />
		<tag k="ssr:stedsnr" v="719076" />
	</node>
	<node id="6254200233" lat="59.2096778" lon="11.7504639" version="1" timestamp="2019-02-02T17:43:18Z" changeset="66860957" uid="633013" user="Honning">
		<tag k="name" v="Husebakken" />
		<tag k="place" v="locality" />
		<tag k="ssr:stedsnr" v="719216" />
	</node>
	<node id="6254200234" lat="59.1809111" lon="11.6950528" version="1" timestamp="2019-02-02T17:43:18Z" changeset="66860957" uid="633013" user="Honning">
		<tag k="name" v="Rødskasa" />
		<tag k="place" v="locality" />
		<tag k="ssr:stedsnr" v="719322" />
	</node>
	<node id="6254200235" lat="59.2599694" lon="11.7308278" version="1" timestamp="2019-02-02T17:43:18Z" changeset="66860957" uid="633013" user="Honning">
		<tag k="name" v="Kleva" />
		<tag k="place" v="locality" />
		<tag k="ssr:stedsnr" v="719764" />
	</node>
	<node id="6254200236" lat="59.1755361" lon="11.7385306" version="1" timestamp="2019-02-02T17:43:18Z" changeset="66860957" uid="633013" user="Honning">
		<tag k="name" v="Bukkemoen" />
		<tag k="place" v="locality" />
		<tag k="ssr:stedsnr" v="719925" />
	</node>
	<node id="6254200237" lat="59.2943278" lon="11.6468111" version="1" timestamp="2019-02-02T17:43:18Z" changeset="66860957" uid="633013" user="Honning">
		<tag k="alt_name" v="Nesødegården" />
		<tag k="name" v="Nesødegård" />
		<tag k="place" v="farm" />
		<tag k="ssr:stedsnr" v="731642" />
	</node>
	<node id="6254200238" lat="59.3000722" lon="11.680125" version="1" timestamp="2019-02-02T17:43:18Z" changeset="66860957" uid="633013" user="Honning">
		<tag k="alt_name" v="Kommesaren" />
		<tag k="name" v="Kommisaren" />
		<tag k="place" v="farm" />
		<tag k="ssr:stedsnr" v="731644" />
	</node>
	<node id="6254200239" lat="59.2865583" lon="11.7013389" version="1" timestamp="2019-02-02T17:43:18Z" changeset="66860957" uid="633013" user="Honning">
		<tag k="alt_name" v="Fangesætret, s;Fangesætre;Søndre Fangesætret" />
		<tag k="name" v="Søndre Fangesetret" />
		<tag k="place" v="farm" />
		<tag k="ssr:stedsnr" v="731660" />
	</node>
	<node id="6254200240" lat="59.2224" lon="11.6973417" version="1" timestamp="2019-02-02T17:43:18Z" changeset="66860957" uid="633013" user="Honning">
		<tag k="name" v="Østre Fossby" />
		<tag k="place" v="farm" />
		<tag k="ssr:stedsnr" v="727974" />
	</node>
	<node id="6254200241" lat="59.1131444" lon="11.7507389" version="1" timestamp="2019-02-02T17:43:19Z" changeset="66860957" uid="633013" user="Honning">
		<tag k="alt_name" v="Lund" />
		<tag k="name" v="Nedre Lund" />
		<tag k="place" v="farm" />
		<tag k="ssr:stedsnr" v="729460" />
	</node>
	<node id="6254200242" lat="59.1544944" lon="11.7553528" version="1" timestamp="2019-02-02T17:43:19Z" changeset="66860957" uid="633013" user="Honning">
		<tag k="name" v="Løndal" />
		<tag k="place" v="locality" />
		<tag k="ssr:stedsnr" v="730007" />
	</node>
	<node id="6254200243" lat="59.1909639" lon="11.6886278" version="1" timestamp="2019-02-02T17:43:19Z" changeset="66860957" uid="633013" user="Honning">
		<tag k="name" v="Nordby" />
		<tag k="place" v="farm" />
		<tag k="ssr:stedsnr" v="730067" />
	</node>
	<node id="6254200244" lat="59.2247722" lon="11.7530778" version="1" timestamp="2019-02-02T17:43:19Z" changeset="66860957" uid="633013" user="Honning">
		<tag k="name" v="Krokstad" />
		<tag k="place" v="locality" />
		<tag k="ssr:stedsnr" v="730141" />
	</node>
	<node id="6254200245" lat="59.2212806" lon="11.714725" version="1" timestamp="2019-02-02T17:43:19Z" changeset="66860957" uid="633013" user="Honning">
		<tag k="alt_name" v="Haugebyholtet" />
		<tag k="name" v="Holtet" />
		<tag k="place" v="farm" />
		<tag k="ssr:stedsnr" v="730143" />
	</node>
	<node id="6254197957" lat="59.1576359" lon="11.6486312" version="1" timestamp="2019-02-02T17:42:59Z" changeset="66860957" uid="633013" user="Honning" />
	<node id="6254197958" lat="59.1575926" lon="11.6493501" version="1" timestamp="2019-02-02T17:42:59Z" changeset="66860957" uid="633013" user="Honning" />
	<node id="6254197959" lat="59.1572702" lon="11.6488445" version="1" timestamp="2019-02-02T17:42:59Z" changeset="66860957" uid="633013" user="Honning" />
	<node id="6254197960" lat="59.157264" lon="11.6483697" version="1" timestamp="2019-02-02T17:42:59Z" changeset="66860957" uid="633013" user="Honning" />
	<node id="6254197961" lat="59.1576449" lon="11.6482745" version="1" timestamp="2019-02-02T17:42:59Z" changeset="66860957" uid="633013" user="Honning" />
	<node id="6254197977" lat="59.1584362" lon="11.6521329" version="1" timestamp="2019-02-02T17:42:59Z" changeset="66860957" uid="633013" user="Honning" />
	<node id="6254197978" lat="59.1585731" lon="11.6521208" version="1" timestamp="2019-02-02T17:42:59Z" changeset="66860957" uid="633013" user="Honning" />
	<node id="6254197962" lat="59.1578587" lon="11.6542357" version="1" timestamp="2019-02-02T17:42:59Z" changeset="66860957" uid="633013" user="Honning" />
	<node id="6254197963" lat="59.1577061" lon="11.654166" version="1" timestamp="2019-02-02T17:42:59Z" changeset="66860957" uid="633013" user="Honning" />
	<node id="6254197964" lat="59.1576071" lon="11.6542304" version="1" timestamp="2019-02-02T17:42:59Z" changeset="66860957" uid="633013" user="Honning" />
	<node id="6254197965" lat="59.1573018" lon="11.6542706" version="1" timestamp="2019-02-02T17:42:59Z" changeset="66860957" uid="633013" user="Honning" />
	<node id="6254197966" lat="59.1571326" lon="11.6543725" version="1" timestamp="2019-02-02T17:42:59Z" changeset="66860957" uid="633013" user="Honning" />
	<node id="6254197967" lat="59.1567971" lon="11.6542304" version="1" timestamp="2019-02-02T17:42:59Z" changeset="66860957" uid="633013" user="Honning" />
	<node id="6254197968" lat="59.1567545" lon="11.6542572" version="1" timestamp="2019-02-02T17:42:59Z" changeset="66860957" uid="633013" user="Honning" />
	<node id="6254197969" lat="59.156782" lon="11.6546917" version="1" timestamp="2019-02-02T17:42:59Z" changeset="66860957" uid="633013" user="Honning" />
	<node id="6254197970" lat="59.157057" lon="11.6550431" version="1" timestamp="2019-02-02T17:42:59Z" changeset="66860957" uid="633013" user="Honning" />
	<node id="6254197971" lat="59.1571588" lon="11.6547158" version="1" timestamp="2019-02-02T17:42:59Z" changeset="66860957" uid="633013" user="Honning" />
	<node id="6254197972" lat="59.1579893" lon="11.6551369" version="1" timestamp="2019-02-02T17:42:59Z" changeset="66860957" uid="633013" user="Honning" />
	<node id="6254197973" lat="59.1580746" lon="11.6545254" version="1" timestamp="2019-02-02T17:42:59Z" changeset="66860957" uid="633013" user="Honning" />
	<node id="6254197974" lat="59.1588501" lon="11.6528705" version="1" timestamp="2019-02-02T17:42:59Z" changeset="66860957" uid="633013" user="Honning" />
	<node id="6254197975" lat="59.1586728" lon="11.6535035" version="1" timestamp="2019-02-02T17:42:59Z" changeset="66860957" uid="633013" user="Honning" />
	<node id="6254197976" lat="59.1583998" lon="11.653596" version="1" timestamp="2019-02-02T17:42:59Z" changeset="66860957" uid="633013" user="Honning" />
	<node id="6254197979" lat="59.1586356" lon="11.6523381" version="1" timestamp="2019-02-02T17:42:59Z" changeset="66860957" uid="633013" user="Honning" />
	<node id="6254197980" lat="59.1587786" lon="11.6523837" version="1" timestamp="2019-02-02T17:42:59Z" changeset="66860957" uid="633013" user="Honning" />
	<node id="6254197981" lat="59.1588556" lon="11.6526183" version="1" timestamp="2019-02-02T17:42:59Z" changeset="66860957" uid="633013" user="Honning" />
	<node id="6254197982" lat="59.1600038" lon="11.6880611" version="1" timestamp="2019-02-02T17:42:59Z" changeset="66860957" uid="633013" user="Honning" />
	<node id="6254197983" lat="59.1601853" lon="11.6884741" version="1" timestamp="2019-02-02T17:42:59Z" changeset="66860957" uid="633013" user="Honning" />
	<node id="6254197984" lat="59.1604685" lon="11.6883105" version="1" timestamp="2019-02-02T17:42:59Z" changeset="66860957" uid="633013" user="Honning" />
	<node id="6254198985" lat="59.1606088" lon="11.6881469" version="1" timestamp="2019-02-02T17:42:59Z" changeset="66860957" uid="633013" user="Honning" />
	<node id="6254198986" lat="59.1605167" lon="11.6879082" version="1" timestamp="2019-02-02T17:42:59Z" changeset="66860957" uid="633013" user="Honning" />
	<node id="6254198987" lat="59.160584" lon="11.6875434" version="1" timestamp="2019-02-02T17:42:59Z" changeset="66860957" uid="633013" user="Honning" />
	<node id="6254198988" lat="59.1603434" lon="11.6871518" version="1" timestamp="2019-02-02T17:42:59Z" changeset="66860957" uid="633013" user="Honning" />
	<node id="6254198989" lat="59.1616276" lon="11.6897213" version="1" timestamp="2019-02-02T17:42:59Z" changeset="66860957" uid="633013" user="Honning" />
	<node id="6254198990" lat="59.1614324" lon="11.6899037" version="1" timestamp="2019-02-02T17:42:59Z" changeset="66860957" uid="633013" user="Honning" />
	<node id="6254198991" lat="59.1614187" lon="11.6904402" version="1" timestamp="2019-02-02T17:42:59Z" changeset="66860957" uid="633013" user="Honning" />
	<node id="6254198992" lat="59.1613183" lon="11.6905314" version="1" timestamp="2019-02-02T17:42:59Z" changeset="66860957" uid="633013" user="Honning" />
	<node id="6254198993" lat="59.1607765" lon="11.6898984" version="1" timestamp="2019-02-02T17:42:59Z" changeset="66860957" uid="633013" user="Honning" />
	<node id="6254198994" lat="59.160727" lon="11.6890132" version="1" timestamp="2019-02-02T17:42:59Z" changeset="66860957" uid="633013" user="Honning" />
	<node id="6254198995" lat="59.1612234" lon="11.6891661" version="1" timestamp="2019-02-02T17:42:59Z" changeset="66860957" uid="633013" user="Honning" />
	<node id="6254198996" lat="59.1614475" lon="11.6893941" version="1" timestamp="2019-02-02T17:42:59Z" changeset="66860957" uid="633013" user="Honning" />
	<node id="6254198997" lat="59.1616222" lon="11.6893619" version="1" timestamp="2019-02-02T17:42:59Z" changeset="66860957" uid="633013" user="Honning" />
	<node id="6254198998" lat="59.1616565" lon="11.6895014" version="1" timestamp="2019-02-02T17:42:59Z" changeset="66860957" uid="633013" user="Honning" />
	<node id="6254198999" lat="59.1624237" lon="11.687707" version="1" timestamp="2019-02-02T17:42:59Z" changeset="66860957" uid="633013" user="Honning" />
	<node id="6254199000" lat="59.1623357" lon="11.6879269" version="1" timestamp="2019-02-02T17:42:59Z" changeset="66860957" uid="633013" user="Honning" />
	<node id="6254199001" lat="59.1623866" lon="11.6882595" version="1" timestamp="2019-02-02T17:42:59Z" changeset="66860957" uid="633013" user="Honning" />
	<node id="6254199002" lat="59.1625159" lon="11.6881818" version="1" timestamp="2019-02-02T17:42:59Z" changeset="66860957" uid="633013" user="Honning" />
	<node id="6254199007" lat="59.1625929" lon="11.6868138" version="1" timestamp="2019-02-02T17:42:59Z" changeset="66860957" uid="633013" user="Honning" />
	<node id="6254199003" lat="59.162674" lon="11.688627" version="1" timestamp="2019-02-02T17:42:59Z" changeset="66860957" uid="633013" user="Honning" />
	<node id="6254199004" lat="59.1628568" lon="11.6884124" version="1" timestamp="2019-02-02T17:42:59Z" changeset="66860957" uid="633013" user="Honning" />
	<node id="6254199005" lat="59.1627042" lon="11.68731" version="1" timestamp="2019-02-02T17:42:59Z" changeset="66860957" uid="633013" user="Honning" />
	<node id="6254199006" lat="59.1627908" lon="11.6871035" version="1" timestamp="2019-02-02T17:42:59Z" changeset="66860957" uid="633013" user="Honning" />
	<node id="3669014133" lat="59.2185373" lon="11.6914767" version="1" timestamp="2015-07-27T17:42:16Z" changeset="32914536" uid="188704" user="Karta" />
	<node id="3669014134" lat="59.2180211" lon="11.6915303" version="1" timestamp="2015-07-27T17:42:16Z" changeset="32914536" uid="188704" user="Karta" />
	<node id="3669014137" lat="59.2180102" lon="11.6905004" version="1" timestamp="2015-07-27T17:42:16Z" changeset="32914536" uid="188704" user="Karta" />
	<node id="3669014138" lat="59.2193005" lon="11.6908866" version="1" timestamp="2015-07-27T17:42:16Z" changeset="32914536" uid="188704" user="Karta" />
	<node id="3669014139" lat="59.2188523" lon="11.6891297" version="2" timestamp="2019-10-12T15:22:50Z" changeset="75603256" uid="443181" user="Marius Geitle" />
	<node id="3669014142" lat="59.2159236" lon="11.6905755" version="1" timestamp="2015-07-27T17:42:16Z" changeset="32914536" uid="188704" user="Karta" />
	<node id="3669014143" lat="59.2185757" lon="11.6888159" version="1" timestamp="2015-07-27T17:42:16Z" changeset="32914536" uid="188704" user="Karta" />
	<node id="3669014145" lat="59.2183671" lon="11.6903502" version="1" timestamp="2015-07-27T17:42:16Z" changeset="32914536" uid="188704" user="Karta" />
	<node id="3669014146" lat="59.2190973" lon="11.6896206" version="1" timestamp="2015-07-27T17:42:16Z" changeset="32914536" uid="188704" user="Karta" />
	<node id="3228280138" lat="59.2358259" lon="11.6905889" version="1" timestamp="2014-12-10T15:17:00Z" changeset="27379047" uid="633013" user="Honning" />
	<node id="3228280286" lat="59.2353101" lon="11.6907927" version="1" timestamp="2014-12-10T15:17:01Z" changeset="27379047" uid="633013" user="Honning" />
	<node id="3228280298" lat="59.2353595" lon="11.6914096" version="1" timestamp="2014-12-10T15:17:01Z" changeset="27379047" uid="633013" user="Honning" />
	<node id="3228280302" lat="59.2355543" lon="11.6915277" version="1" timestamp="2014-12-10T15:17:01Z" changeset="27379047" uid="633013" user="Honning" />
	<node id="3228279147" lat="59.2462869" lon="11.6831645" version="1" timestamp="2014-12-10T15:16:57Z" changeset="27379047" uid="633013" user="Honning" />
	<node id="3228279768" lat="59.2467011" lon="11.6838029" version="1" timestamp="2014-12-10T15:16:58Z" changeset="27379047" uid="633013" user="Honning" />
	<node id="3228279778" lat="59.246948" lon="11.6837063" version="1" timestamp="2014-12-10T15:16:58Z" changeset="27379047" uid="633013" user="Honning" />
	<node id="3228279787" lat="59.2467094" lon="11.6840926" version="1" timestamp="2014-12-10T15:16:58Z" changeset="27379047" uid="633013" user="Honning" />
	<node id="3228280087" lat="59.2469041" lon="11.6830572" version="1" timestamp="2014-12-10T15:16:59Z" changeset="27379047" uid="633013" user="Honning" />
	<node id="3228280093" lat="59.2466572" lon="11.6831055" version="1" timestamp="2014-12-10T15:17:00Z" changeset="27379047" uid="633013" user="Honning" />
	<node id="3228280662" lat="59.2464707" lon="11.6841838" version="1" timestamp="2014-12-10T15:17:03Z" changeset="27379047" uid="633013" user="Honning" />
	<node id="3228280670" lat="59.246638" lon="11.6828212" version="1" timestamp="2014-12-10T15:17:03Z" changeset="27379047" uid="633013" user="Honning" />
	<node id="3228280675" lat="59.2463061" lon="11.6828534" version="1" timestamp="2014-12-10T15:17:03Z" changeset="27379047" uid="633013" user="Honning" />
	<node id="6254200209" lat="59.2546733" lon="11.6832197" version="2" timestamp="2021-10-18T18:21:56Z" changeset="112664867" uid="3497659" user="NKA" />
	<node id="9180957628" lat="59.2546684" lon="11.6830493" version="1" timestamp="2021-10-18T18:21:52Z" changeset="112664864" uid="3497659" user="NKA" />
	<node id="9180957629" lat="59.2546686" lon="11.6830531" version="1" timestamp="2021-10-18T18:21:52Z" changeset="112664864" uid="3497659" user="NKA" />
	<node id="9180957630" lat="59.2547123" lon="11.6830449" version="1" timestamp="2021-10-18T18:21:52Z" changeset="112664864" uid="3497659" user="NKA" />
	<node id="9180957631" lat="59.2547177" lon="11.6831572" version="1" timestamp="2021-10-18T18:21:52Z" changeset="112664864" uid="3497659" user="NKA" />
	<node id="9180957632" lat="59.2546707" lon="11.6831659" version="1" timestamp="2021-10-18T18:21:52Z" changeset="112664864" uid="3497659" user="NKA" />
	<node id="9180957633" lat="59.2546008" lon="11.6832332" version="1" timestamp="2021-10-18T18:21:52Z" changeset="112664864" uid="3497659" user="NKA" />
	<node id="9180957634" lat="59.2546003" lon="11.6832231" version="1" timestamp="2021-10-18T18:21:52Z" changeset="112664864" uid="3497659" user="NKA" />
	<node id="9180957635" lat="59.2545534" lon="11.6832318" version="1" timestamp="2021-10-18T18:21:52Z" changeset="112664864" uid="3497659" user="NKA" />
	<node id="9180957636" lat="59.2545506" lon="11.6831729" version="1" timestamp="2021-10-18T18:21:52Z" changeset="112664864" uid="3497659" user="NKA" />
	<node id="9180957637" lat="59.2544691" lon="11.683188" version="1" timestamp="2021-10-18T18:21:52Z" changeset="112664864" uid="3497659" user="NKA" />
	<node id="9180957638" lat="59.2544589" lon="11.6829774" version="1" timestamp="2021-10-18T18:21:52Z" changeset="112664864" uid="3497659" user="NKA" />
	<node id="9180957639" lat="59.2545267" lon="11.6829648" version="1" timestamp="2021-10-18T18:21:52Z" changeset="112664864" uid="3497659" user="NKA" />
	<node id="9180957640" lat="59.2545243" lon="11.6829144" version="1" timestamp="2021-10-18T18:21:52Z" changeset="112664864" uid="3497659" user="NKA" />
	<node id="9180957641" lat="59.2545611" lon="11.6829075" version="1" timestamp="2021-10-18T18:21:52Z" changeset="112664864" uid="3497659" user="NKA" />
	<node id="9180957642" lat="59.2545649" lon="11.6829841" version="1" timestamp="2021-10-18T18:21:52Z" changeset="112664864" uid="3497659" user="NKA" />
	<node id="9180957643" lat="59.254598" lon="11.6829779" version="1" timestamp="2021-10-18T18:21:52Z" changeset="112664864" uid="3497659" user="NKA" />
	<node id="9180957644" lat="59.254602" lon="11.6830616" version="1" timestamp="2021-10-18T18:21:52Z" changeset="112664864" uid="3497659" user="NKA" />
	<node id="3669014135" lat="59.2171426" lon="11.6931075" version="1" timestamp="2015-07-27T17:42:16Z" changeset="32914536" uid="188704" user="Karta" />
	<node id="3669014136" lat="59.2172085" lon="11.6942233" version="1" timestamp="2015-07-27T17:42:16Z" changeset="32914536" uid="188704" user="Karta" />
	<node id="3669014140" lat="59.216621" lon="11.6937512" version="1" timestamp="2015-07-27T17:42:16Z" changeset="32914536" uid="188704" user="Karta" />
	<node id="3669014141" lat="59.2175654" lon="11.69285" version="1" timestamp="2015-07-27T17:42:16Z" changeset="32914536" uid="188704" user="Karta" />
	<node id="3669014144" lat="59.2180211" lon="11.6922492" version="1" timestamp="2015-07-27T17:42:16Z" changeset="32914536" uid="188704" user="Karta" />
	<node id="3228280306" lat="59.2340148" lon="11.6959694" version="2" timestamp="2019-11-09T12:03:27Z" changeset="76842741" uid="2041119" user="LarsBG" />
	<node id="3228280314" lat="59.2339724" lon="11.6945357" version="2" timestamp="2019-11-09T12:03:27Z" changeset="76842741" uid="2041119" user="LarsBG" />
	<node id="3228280317" lat="59.2341836" lon="11.6941885" version="2" timestamp="2019-11-09T12:03:27Z" changeset="76842741" uid="2041119" user="LarsBG" />
	<node id="6959890453" lat="59.234163" lon="11.6945802" version="1" timestamp="2019-11-09T12:03:27Z" changeset="76842741" uid="2041119" user="LarsBG" />
	<node id="6959890454" lat="59.2339943" lon="11.6947035" version="1" timestamp="2019-11-09T12:03:27Z" changeset="76842741" uid="2041119" user="LarsBG" />
	<node id="6959890455" lat="59.2340334" lon="11.695291" version="1" timestamp="2019-11-09T12:03:27Z" changeset="76842741" uid="2041119" user="LarsBG" />
	<node id="6959890456" lat="59.2340286" lon="11.6951676" version="1" timestamp="2019-11-09T12:03:27Z" changeset="76842741" uid="2041119" user="LarsBG" />
	<node id="6959890457" lat="59.2340334" lon="11.695417" version="1" timestamp="2019-11-09T12:03:27Z" changeset="76842741" uid="2041119" user="LarsBG" />
	<node id="3228279140" lat="59.238696" lon="11.6958634" version="2" timestamp="2019-11-09T12:03:27Z" changeset="76842741" uid="2041119" user="LarsBG" />
	<node id="3228279769" lat="59.2348141" lon="11.6943185" version="2" timestamp="2019-11-09T12:03:27Z" changeset="76842741" uid="2041119" user="LarsBG" />
	<node id="3228279774" lat="59.2382631" lon="11.6961076" version="2" timestamp="2019-11-09T12:03:27Z" changeset="76842741" uid="2041119" user="LarsBG" />
	<node id="3228279776" lat="59.2347681" lon="11.6958702" version="2" timestamp="2019-11-09T12:03:27Z" changeset="76842741" uid="2041119" user="LarsBG" />
	<node id="3228279797" lat="59.2400019" lon="11.6948214" version="1" timestamp="2014-12-10T15:16:58Z" changeset="27379047" uid="633013" user="Honning" />
	<node id="3228279814" lat="59.2374201" lon="11.6967419" version="1" timestamp="2014-12-10T15:16:58Z" changeset="27379047" uid="633013" user="Honning" />
	<node id="3228279825" lat="59.2403312" lon="11.6947356" version="1" timestamp="2014-12-10T15:16:59Z" changeset="27379047" uid="633013" user="Honning" />
	<node id="3228279835" lat="59.2370387" lon="11.696817" version="1" timestamp="2014-12-10T15:16:59Z" changeset="27379047" uid="633013" user="Honning" />
	<node id="3228279840" lat="59.2408031" lon="11.6937056" version="1" timestamp="2014-12-10T15:16:59Z" changeset="27379047" uid="633013" user="Honning" />
	<node id="3228279859" lat="59.2392413" lon="11.6964629" version="2" timestamp="2019-11-09T12:03:27Z" changeset="76842741" uid="2041119" user="LarsBG" />
	<node id="3228280067" lat="59.2390766" lon="11.6962926" version="2" timestamp="2019-11-09T12:03:27Z" changeset="76842741" uid="2041119" user="LarsBG" />
	<node id="3228280075" lat="59.2370195" lon="11.6960499" version="1" timestamp="2014-12-10T15:16:59Z" changeset="27379047" uid="633013" user="Honning" />
	<node id="3228280077" lat="59.237121" lon="11.6958943" version="1" timestamp="2014-12-10T15:16:59Z" changeset="27379047" uid="633013" user="Honning" />
	<node id="3228280079" lat="59.2372994" lon="11.6958728" version="1" timestamp="2014-12-10T15:16:59Z" changeset="27379047" uid="633013" user="Honning" />
	<node id="3228280085" lat="59.2392269" lon="11.6971777" version="2" timestamp="2019-11-09T12:03:27Z" changeset="76842741" uid="2041119" user="LarsBG" />
	<node id="3228280103" lat="59.2356064" lon="11.6918817" version="1" timestamp="2014-12-10T15:17:00Z" changeset="27379047" uid="633013" user="Honning" />
	<node id="3228280108" lat="59.2385396" lon="11.6972515" version="2" timestamp="2019-11-09T12:03:27Z" changeset="76842741" uid="2041119" user="LarsBG" />
	<node id="3228280123" lat="59.2387838" lon="11.6973159" version="1" timestamp="2014-12-10T15:17:00Z" changeset="27379047" uid="633013" user="Honning" />
	<node id="3228280141" lat="59.2359" lon="11.6918173" version="1" timestamp="2014-12-10T15:17:00Z" changeset="27379047" uid="633013" user="Honning" />
	<node id="3228280267" lat="59.2405946" lon="11.6937968" version="1" timestamp="2014-12-10T15:17:01Z" changeset="27379047" uid="633013" user="Honning" />
	<node id="3228280280" lat="59.240386" lon="11.6938934" version="1" timestamp="2014-12-10T15:17:01Z" changeset="27379047" uid="633013" user="Honning" />
	<node id="3228280299" lat="59.2402955" lon="11.6940972" version="1" timestamp="2014-12-10T15:17:01Z" changeset="27379047" uid="633013" user="Honning" />
	<node id="3228280313" lat="59.2390143" lon="11.695972" version="2" timestamp="2019-11-09T12:03:27Z" changeset="76842741" uid="2041119" user="LarsBG" />
	<node id="3228280673" lat="59.2400349" lon="11.6954276" version="1" timestamp="2014-12-10T15:17:03Z" changeset="27379047" uid="633013" user="Honning" />
	<node id="3228280689" lat="59.24074" lon="11.69539" version="1" timestamp="2014-12-10T15:17:03Z" changeset="27379047" uid="633013" user="Honning" />
	<node id="6959837851" lat="59.2393523" lon="11.6968359" version="1" timestamp="2019-11-09T12:03:27Z" changeset="76842741" uid="2041119" user="LarsBG" />
	<node id="6959837852" lat="59.2393908" lon="11.6970237" version="1" timestamp="2019-11-09T12:03:27Z" changeset="76842741" uid="2041119" user="LarsBG" />
	<node id="6959837853" lat="59.2393146" lon="11.6967621" version="1" timestamp="2019-11-09T12:03:27Z" changeset="76842741" uid="2041119" user="LarsBG" />
	<node id="6959837854" lat="59.2392783" lon="11.6965529" version="1" timestamp="2019-11-09T12:03:27Z" changeset="76842741" uid="2041119" user="LarsBG" />
	<node id="6959837855" lat="59.2386026" lon="11.6959293" version="1" timestamp="2019-11-09T12:03:27Z" changeset="76842741" uid="2041119" user="LarsBG" />
	<node id="6959837856" lat="59.2384977" lon="11.6960554" version="1" timestamp="2019-11-09T12:03:27Z" changeset="76842741" uid="2041119" user="LarsBG" />
	<node id="6959837857" lat="59.2384394" lon="11.6960956" version="1" timestamp="2019-11-09T12:03:27Z" changeset="76842741" uid="2041119" user="LarsBG" />
	<node id="6959837858" lat="59.2383132" lon="11.6960849" version="1" timestamp="2019-11-09T12:03:27Z" changeset="76842741" uid="2041119" user="LarsBG" />
	<node id="6959837859" lat="59.2382082" lon="11.6961801" version="1" timestamp="2019-11-09T12:03:27Z" changeset="76842741" uid="2041119" user="LarsBG" />
	<node id="6959837860" lat="59.2381575" lon="11.6962633" version="1" timestamp="2019-11-09T12:03:27Z" changeset="76842741" uid="2041119" user="LarsBG" />
	<node id="6959837861" lat="59.2380779" lon="11.6963276" version="1" timestamp="2019-11-09T12:03:27Z" changeset="76842741" uid="2041119" user="LarsBG" />
	<node id="6959837862" lat="59.2378399" lon="11.696915" version="1" timestamp="2019-11-09T12:03:27Z" changeset="76842741" uid="2041119" user="LarsBG" />
	<node id="6959837863" lat="59.2378413" lon="11.696341" version="1" timestamp="2019-11-09T12:03:27Z" changeset="76842741" uid="2041119" user="LarsBG" />
	<node id="6959837864" lat="59.2379688" lon="11.6970786" version="1" timestamp="2019-11-09T12:03:27Z" changeset="76842741" uid="2041119" user="LarsBG" />
	<node id="6959837865" lat="59.2379092" lon="11.697202" version="1" timestamp="2019-11-09T12:03:27Z" changeset="76842741" uid="2041119" user="LarsBG" />
	<node id="6959837866" lat="59.2380278" lon="11.6969982" version="1" timestamp="2019-11-09T12:03:27Z" changeset="76842741" uid="2041119" user="LarsBG" />
	<node id="6959837867" lat="59.2381218" lon="11.6969244" version="1" timestamp="2019-11-09T12:03:27Z" changeset="76842741" uid="2041119" user="LarsBG" />
	<node id="6959837868" lat="59.2383091" lon="11.6968694" version="1" timestamp="2019-11-09T12:03:27Z" changeset="76842741" uid="2041119" user="LarsBG" />
	<node id="6959837869" lat="59.2383777" lon="11.6968748" version="1" timestamp="2019-11-09T12:03:27Z" changeset="76842741" uid="2041119" user="LarsBG" />
	<node id="6959837870" lat="59.2384288" lon="11.696909" version="1" timestamp="2019-11-09T12:03:27Z" changeset="76842741" uid="2041119" user="LarsBG" />
	<node id="6959837871" lat="59.2384778" lon="11.6969794" version="1" timestamp="2019-11-09T12:03:27Z" changeset="76842741" uid="2041119" user="LarsBG" />
	<node id="6959837872" lat="59.2385066" lon="11.6970786" version="1" timestamp="2019-11-09T12:03:27Z" changeset="76842741" uid="2041119" user="LarsBG" />
	<node id="3228280264" lat="59.2412118" lon="11.7091283" version="1" timestamp="2014-12-10T15:17:01Z" changeset="27379047" uid="633013" user="Honning" />
	<node id="3228279149" lat="59.2420459" lon="11.7095467" version="1" timestamp="2014-12-10T15:16:57Z" changeset="27379047" uid="633013" user="Honning" />
	<node id="3228279767" lat="59.2412832" lon="11.7097989" version="1" timestamp="2014-12-10T15:16:58Z" changeset="27379047" uid="633013" user="Honning" />
	<node id="3228280679" lat="59.2419443" lon="11.7087796" version="1" timestamp="2014-12-10T15:17:03Z" changeset="27379047" uid="633013" user="Honning" />
	<way id="316675594" version="2" timestamp="2019-02-02T17:43:20Z" changeset="66860957" uid="633013" user="Honning">
		<tag k="landuse" v="farmyard" />
		<tag k="name" v="Sandbekk" />
		<tag k="place" v="farm" />
		<tag k="ssr:stedsnr" v="37482" />
		<nd ref="3228280679" />
		<nd ref="3228279149" />
		<nd ref="3228279767" />
		<nd ref="3228280264" />
		<nd ref="3228280679" />
	</way>
	<way id="316675598" version="3" timestamp="2019-11-09T12:03:27Z" changeset="76842741" uid="2041119" user="LarsBG">
		<tag k="landuse" v="farmyard" />
		<tag k="name" v="Flatland" />
		<tag k="place" v="farm" />
		<tag k="ssr:stedsnr" v="790100" />
		<nd ref="3228279769" />
		<nd ref="3228279776" />
		<nd ref="3228280306" />
		<nd ref="6959890457" />
		<nd ref="6959890455" />
		<nd ref="6959890456" />
		<nd ref="6959890454" />
		<nd ref="3228280314" />
		<nd ref="6959890453" />
		<nd ref="3228280317" />
		<nd ref="3228279769" />
	</way>
	<way id="316675603" version="2" timestamp="2019-02-02T17:43:20Z" changeset="66860957" uid="633013" user="Honning">
		<tag k="landuse" v="farmyard" />
		<tag k="name" v="Lundeby" />
		<tag k="place" v="farm" />
		<tag k="ssr:stedsnr" v="183108" />
		<nd ref="3228280079" />
		<nd ref="3228280077" />
		<nd ref="3228280075" />
		<nd ref="3228279835" />
		<nd ref="3228279814" />
		<nd ref="3228280079" />
	</way>
	<way id="316675605" version="2" timestamp="2019-02-02T17:43:20Z" changeset="66860957" uid="633013" user="Honning">
		<tag k="alt_name" v="Prestegården" />
		<tag k="landuse" v="farmyard" />
		<tag k="name" v="Aremark prestegård" />
		<tag k="place" v="farm" />
		<tag k="ssr:stedsnr" v="427268" />
		<nd ref="3228280670" />
		<nd ref="3228280093" />
		<nd ref="3228280087" />
		<nd ref="3228279778" />
		<nd ref="3228279768" />
		<nd ref="3228279787" />
		<nd ref="3228280662" />
		<nd ref="3228279147" />
		<nd ref="3228280675" />
		<nd ref="3228280670" />
	</way>
	<way id="316675612" version="3" timestamp="2019-11-09T12:03:27Z" changeset="76842741" uid="2041119" user="LarsBG">
		<tag k="landuse" v="farmyard" />
		<tag k="name" v="Søndre Vik" />
		<tag k="place" v="farm" />
		<tag k="ssr:stedsnr" v="279449" />
		<nd ref="3228280085" />
		<nd ref="3228280123" />
		<nd ref="3228280108" />
		<nd ref="6959837872" />
		<nd ref="6959837871" />
		<nd ref="6959837870" />
		<nd ref="6959837869" />
		<nd ref="6959837868" />
		<nd ref="6959837867" />
		<nd ref="6959837866" />
		<nd ref="6959837864" />
		<nd ref="6959837865" />
		<nd ref="6959837862" />
		<nd ref="6959837863" />
		<nd ref="6959837861" />
		<nd ref="6959837860" />
		<nd ref="6959837859" />
		<nd ref="3228279774" />
		<nd ref="6959837858" />
		<nd ref="6959837857" />
		<nd ref="6959837856" />
		<nd ref="6959837855" />
		<nd ref="3228279140" />
		<nd ref="3228280313" />
		<nd ref="3228280067" />
		<nd ref="3228279859" />
		<nd ref="6959837854" />
		<nd ref="6959837853" />
		<nd ref="6959837851" />
		<nd ref="6959837852" />
		<nd ref="3228280085" />
	</way>
	<way id="316675632" version="2" timestamp="2019-02-02T17:43:20Z" changeset="66860957" uid="633013" user="Honning">
		<tag k="landuse" v="farmyard" />
		<tag k="name" v="Haugland" />
		<tag k="place" v="farm" />
		<tag k="ssr:stedsnr" v="244151" />
		<nd ref="3228280138" />
		<nd ref="3228280141" />
		<nd ref="3228280103" />
		<nd ref="3228280302" />
		<nd ref="3228280298" />
		<nd ref="3228280286" />
		<nd ref="3228280138" />
	</way>
	<way id="316675635" version="2" timestamp="2019-02-02T17:43:21Z" changeset="66860957" uid="633013" user="Honning">
		<tag k="landuse" v="farmyard" />
		<tag k="name" v="Nordre Wiig" />
		<tag k="place" v="farm" />
		<tag k="ssr:stedsnr" v="522455" />
		<nd ref="3228279840" />
		<nd ref="3228280689" />
		<nd ref="3228280673" />
		<nd ref="3228279797" />
		<nd ref="3228279825" />
		<nd ref="3228280299" />
		<nd ref="3228280280" />
		<nd ref="3228280267" />
		<nd ref="3228279840" />
	</way>
	<way id="362631245" version="3" timestamp="2019-02-02T17:43:21Z" changeset="66860957" uid="633013" user="Honning">
		<tag k="alt_name" v="Fladebyåsen" />
		<tag k="landuse" v="residential" />
		<tag k="name" v="Flatebyåsen" />
		<tag k="place" v="neighbourhood" />
		<tag k="ssr:stedsnr" v="300092;59117" />
		<nd ref="3669014139" />
		<nd ref="3669014146" />
		<nd ref="3669014138" />
		<nd ref="3669014133" />
		<nd ref="3669014145" />
		<nd ref="3669014137" />
		<nd ref="3669014134" />
		<nd ref="3669014144" />
		<nd ref="3669014141" />
		<nd ref="3669014135" />
		<nd ref="3669014136" />
		<nd ref="3669014140" />
		<nd ref="3669014142" />
		<nd ref="3669014143" />
		<nd ref="3669014139" />
	</way>
	<way id="667916098" version="1" timestamp="2019-02-02T17:43:19Z" changeset="66860957" uid="633013" user="Honning">
		<tag k="alt_name" v="Østensvik øvre" />
		<tag k="landuse" v="farmyard" />
		<tag k="name" v="Øvre Østensvik" />
		<tag k="place" v="farm" />
		<tag k="ssr:stedsnr" v="718522" />
		<nd ref="6254197961" />
		<nd ref="6254197960" />
		<nd ref="6254197959" />
		<nd ref="6254197958" />
		<nd ref="6254197957" />
		<nd ref="6254197961" />
	</way>
	<way id="667916101" version="1" timestamp="2019-02-02T17:43:19Z" changeset="66860957" uid="633013" user="Honning">
		<tag k="alt_name" v="Østensvik øvre" />
		<tag k="landuse" v="farmyard" />
		<tag k="name" v="Øvre Østensvik" />
		<tag k="place" v="farm" />
		<tag k="ssr:stedsnr" v="669104" />
		<nd ref="6254197973" />
		<nd ref="6254197972" />
		<nd ref="6254197971" />
		<nd ref="6254197970" />
		<nd ref="6254197969" />
		<nd ref="6254197968" />
		<nd ref="6254197967" />
		<nd ref="6254197966" />
		<nd ref="6254197965" />
		<nd ref="6254197964" />
		<nd ref="6254197963" />
		<nd ref="6254197962" />
		<nd ref="6254197973" />
	</way>
	<way id="667916105" version="1" timestamp="2019-02-02T17:43:19Z" changeset="66860957" uid="633013" user="Honning">
		<tag k="alt_name" v="Østensvik øvre" />
		<tag k="landuse" v="farmyard" />
		<tag k="name" v="Øvre Østensvik" />
		<tag k="place" v="farm" />
		<tag k="ssr:stedsnr" v="415535" />
		<nd ref="6254197981" />
		<nd ref="6254197980" />
		<nd ref="6254197979" />
		<nd ref="6254197978" />
		<nd ref="6254197977" />
		<nd ref="6254197976" />
		<nd ref="6254197975" />
		<nd ref="6254197974" />
		<nd ref="6254197981" />
	</way>
	<way id="667916108" version="1" timestamp="2019-02-02T17:43:19Z" changeset="66860957" uid="633013" user="Honning">
		<tag k="landuse" v="farmyard" />
		<tag k="name" v="Ulsrød" />
		<tag k="place" v="farm" />
		<tag k="ssr:stedsnr" v="779512" />
		<nd ref="6254198988" />
		<nd ref="6254198987" />
		<nd ref="6254198986" />
		<nd ref="6254198985" />
		<nd ref="6254197984" />
		<nd ref="6254197983" />
		<nd ref="6254197982" />
		<nd ref="6254198988" />
	</way>
	<way id="667916111" version="1" timestamp="2019-02-02T17:43:19Z" changeset="66860957" uid="633013" user="Honning">
		<tag k="landuse" v="farmyard" />
		<tag k="name" v="Ulsrød" />
		<tag k="place" v="farm" />
		<tag k="ssr:stedsnr" v="608105" />
		<nd ref="6254198998" />
		<nd ref="6254198997" />
		<nd ref="6254198996" />
		<nd ref="6254198995" />
		<nd ref="6254198994" />
		<nd ref="6254198993" />
		<nd ref="6254198992" />
		<nd ref="6254198991" />
		<nd ref="6254198990" />
		<nd ref="6254198989" />
		<nd ref="6254198998" />
	</way>
	<way id="667916112" version="1" timestamp="2019-02-02T17:43:19Z" changeset="66860957" uid="633013" user="Honning">
		<tag k="landuse" v="farmyard" />
		<tag k="name" v="Ulsrød" />
		<tag k="place" v="farm" />
		<tag k="ssr:stedsnr" v="354687" />
		<nd ref="6254199007" />
		<nd ref="6254199006" />
		<nd ref="6254199005" />
		<nd ref="6254199004" />
		<nd ref="6254199003" />
		<nd ref="6254199002" />
		<nd ref="6254199001" />
		<nd ref="6254199000" />
		<nd ref="6254198999" />
		<nd ref="6254199007" />
	</way>
	<way id="993726512" version="1" timestamp="2021-10-18T18:21:56Z" changeset="112664867" uid="3497659" user="NKA">
		<tag k="building" v="house" />
		<tag k="name" v="Arebo" />
		<tag k="ref:bygningsnr" v="147026846" />
		<tag k="ssr:stedsnr" v="658066" />
		<nd ref="9180957644" />
		<nd ref="9180957643" />
		<nd ref="9180957642" />
		<nd ref="9180957641" />
		<nd ref="9180957640" />
		<nd ref="9180957639" />
		<nd ref="9180957638" />
		<nd ref="9180957637" />
		<nd ref="9180957636" />
		<nd ref="9180957635" />
		<nd ref="9180957634" />
		<nd ref="9180957633" />
		<nd ref="6254200209" />
		<nd ref="9180957632" />
		<nd ref="9180957631" />
		<nd ref="9180957630" />
		<nd ref="9180957629" />
		<nd ref="9180957628" />
		<nd ref="9180957644" />
	</way>
</osm>
