<?xml version="1.0" encoding="UTF-8"?>
<osm generator="osmapis" version="0.6">
	<node id="-544512" lat="61.9191362612" lon="6.01621834665">
		<tag k="name" v="Alsåkeråsen" />
		<tag k="ssr:date" v="2019-05-31" />
		<tag k="ssr:gruppe" v="veg" />
		<tag k="ssr:hovedgruppe" v="infrastruktur" />
		<tag k="ssr:stedsnr" v="980690" />
		<tag k="ssr:type" v="adressenavn" />
	</node>
	<node id="-544511" lat="61.9189405787" lon="6.01134002027">
		<tag k="name" v="Nedste Kvilet" />
		<tag k="ssr:date" v="2019-05-31" />
		<tag k="ssr:gruppe" v="veg" />
		<tag k="ssr:hovedgruppe" v="infrastruktur" />
		<tag k="ssr:stedsnr" v="980689" />
		<tag k="ssr:type" v="adressenavn" />
	</node>
	<node id="-544510" lat="61.9162771559" lon="6.00700811249">
		<tag k="name" v="Svedjene" />
		<tag k="ssr:date" v="2019-05-31" />
		<tag k="ssr:gruppe" v="veg" />
		<tag k="ssr:hovedgruppe" v="infrastruktur" />
		<tag k="ssr:stedsnr" v="980687" />
		<tag k="ssr:type" v="adressenavn" />
	</node>
	<node id="-544509" lat="61.9171386445" lon="6.00985829298">
		<tag k="name" v="Røda" />
		<tag k="ssr:date" v="2019-05-31" />
		<tag k="ssr:gruppe" v="veg" />
		<tag k="ssr:hovedgruppe" v="infrastruktur" />
		<tag k="ssr:stedsnr" v="980688" />
		<tag k="ssr:type" v="adressenavn" />
	</node>
	<node id="-544508" lat="61.9177599242" lon="5.9651883733">
		<tag k="name" v="Øvre Åsvegen" />
		<tag k="ssr:date" v="2019-05-31" />
		<tag k="ssr:gruppe" v="veg" />
		<tag k="ssr:hovedgruppe" v="infrastruktur" />
		<tag k="ssr:stedsnr" v="980681" />
		<tag k="ssr:type" v="adressenavn" />
	</node>
	<node id="-544507" lat="61.9164815054" lon="5.97036478643">
		<tag k="name" v="Åsvegen" />
		<tag k="ssr:date" v="2019-05-31" />
		<tag k="ssr:gruppe" v="veg" />
		<tag k="ssr:hovedgruppe" v="infrastruktur" />
		<tag k="ssr:stedsnr" v="980680" />
		<tag k="ssr:type" v="adressenavn" />
	</node>
	<node id="-544503" lat="60.8816104596" lon="6.30047518531">
		<tag k="name" v="Vestlandet" />
		<tag k="ssr:date" v="2019-01-06" />
		<tag k="ssr:gruppe" v="administrativeIndelinger" />
		<tag k="ssr:hovedgruppe" v="offentligAdministrasjon" />
		<tag k="ssr:stedsnr" v="974777" />
		<tag k="ssr:type" v="annenAdministrativInndeling" />
	</node>
	<node id="-542523" lat="61.9138064973" lon="5.97235554971">
		<tag k="name" v="Skårhaugstranda" />
		<tag k="ssr:date" v="2019-05-31" />
		<tag k="ssr:gruppe" v="veg" />
		<tag k="ssr:hovedgruppe" v="infrastruktur" />
		<tag k="ssr:stedsnr" v="1053593" />
		<tag k="ssr:type" v="adressenavn" />
	</node>
	<node id="-542371" lat="61.906838892" lon="5.99322221801">
		<tag k="name" v="Eid kommune" />
		<tag k="ssr:date" v="2016-05-10" />
		<tag k="ssr:gruppe" v="administrativeIndelinger" />
		<tag k="ssr:hovedgruppe" v="offentligAdministrasjon" />
		<tag k="ssr:stedsnr" v="328277" />
		<tag k="ssr:type" v="kommune" />
	</node>
	<node id="-542525" lat="61.9093752468" lon="6.00019078199">
		<tag k="name" v="Bøen" />
		<tag k="ssr:date" v="2019-05-31" />
		<tag k="ssr:gruppe" v="veg" />
		<tag k="ssr:hovedgruppe" v="infrastruktur" />
		<tag k="ssr:stedsnr" v="1053549" />
		<tag k="ssr:type" v="adressenavn" />
	</node>
	<node id="-542378" lat="61.9104000021" lon="5.68481665859">
		<tag k="alt_name" v="Reksnes" />
		<tag k="name" v="Reksnes lykt" />
		<tag k="ssr:date" v="2016-05-10" />
		<tag k="ssr:gruppe" v="navigasjon" />
		<tag k="ssr:hovedgruppe" v="infrastruktur" />
		<tag k="ssr:stedsnr" v="337371" />
		<tag k="ssr:type" v="fyrlykt" />
	</node>
	<node id="-542524" lat="61.9153068515" lon="5.99751891476">
		<tag k="name" v="Teina" />
		<tag k="ssr:date" v="2019-05-31" />
		<tag k="ssr:gruppe" v="veg" />
		<tag k="ssr:hovedgruppe" v="infrastruktur" />
		<tag k="ssr:stedsnr" v="1053541" />
		<tag k="ssr:type" v="adressenavn" />
	</node>
	<node id="-544517" lat="61.9637158313" lon="5.95444990999">
		<tag k="name" v="Rognhogvegen" />
		<tag k="ssr:date" v="2019-05-31" />
		<tag k="ssr:gruppe" v="veg" />
		<tag k="ssr:hovedgruppe" v="infrastruktur" />
		<tag k="ssr:stedsnr" v="980758" />
		<tag k="ssr:type" v="adressenavn" />
	</node>
	<node id="-544516" lat="61.9182924137" lon="6.0095262872">
		<tag k="name" v="Lisjeåsen" />
		<tag k="ssr:date" v="2019-05-31" />
		<tag k="ssr:gruppe" v="veg" />
		<tag k="ssr:hovedgruppe" v="infrastruktur" />
		<tag k="ssr:stedsnr" v="980753" />
		<tag k="ssr:type" v="adressenavn" />
	</node>
	<node id="-544515" lat="61.9163106349" lon="6.09152888083">
		<tag k="name" v="Heggjabygda" />
		<tag k="ssr:date" v="2019-05-31" />
		<tag k="ssr:gruppe" v="veg" />
		<tag k="ssr:hovedgruppe" v="infrastruktur" />
		<tag k="ssr:stedsnr" v="980745" />
		<tag k="ssr:type" v="adressenavn" />
	</node>
	<node id="-544514" lat="61.9584172255" lon="5.93664780773">
		<tag k="name" v="Gamlelø" />
		<tag k="ssr:date" v="2019-05-31" />
		<tag k="ssr:gruppe" v="veg" />
		<tag k="ssr:hovedgruppe" v="infrastruktur" />
		<tag k="ssr:stedsnr" v="980708" />
		<tag k="ssr:type" v="adressenavn" />
	</node>
	<node id="-544513" lat="61.9155877053" lon="5.96730932576">
		<tag k="name" v="Skårhauggeila" />
		<tag k="ssr:date" v="2019-05-31" />
		<tag k="ssr:gruppe" v="veg" />
		<tag k="ssr:hovedgruppe" v="infrastruktur" />
		<tag k="ssr:stedsnr" v="980694" />
		<tag k="ssr:type" v="adressenavn" />
	</node>
</osm>
