<?xml version="1.0" encoding="UTF-8"?>
<osm generator="osmapis" version="0.6">
	<node id="-544726" lat="61.9232583352" lon="5.88718332427">
		<tag k="old_name" v="Lidarende" />
		<tag k="place" v="farm" />
		<tag k="ssr:date" v="2016-05-11" />
		<tag k="ssr:gruppe" v="gardsbebyggelse" />
		<tag k="ssr:hovedgruppe" v="bebyggelse" />
		<tag k="ssr:stedsnr" v="677537" />
		<tag k="ssr:type" v="bruk" />
	</node>
	<node id="-543989" lat="61.9248944432" lon="6.09644722963">
		<tag k="old_name" v="VÃ¥rtun" />
		<tag k="place" v="farm" />
		<tag k="ssr:date" v="2016-05-10" />
		<tag k="ssr:gruppe" v="gardsbebyggelse" />
		<tag k="ssr:hovedgruppe" v="bebyggelse" />
		<tag k="ssr:stedsnr" v="192577" />
		<tag k="ssr:type" v="bruk" />
	</node>
	<node id="-544593" lat="61.9410888932" lon="6.28884722793">
		<tag k="old_name" v="Hattelid" />
		<tag k="place" v="farm" />
		<tag k="ssr:date" v="2016-05-10" />
		<tag k="ssr:gruppe" v="gardsbebyggelse" />
		<tag k="ssr:hovedgruppe" v="bebyggelse" />
		<tag k="ssr:stedsnr" v="631120" />
		<tag k="ssr:type" v="bruk" />
	</node>
</osm>
