<?xml version="1.0" encoding="UTF-8"?>
<osm generator="osmapis" version="0.6">
	<node id="-806078" lat="70.5111694605" lon="28.2471465054">
		<tag k="name" v="Smalfjorden" />
		<tag k="name:no" v="Smalfjorden" />
		<tag k="ssr:date" v="2016-05-10" />
		<tag k="ssr:gruppe" v="navigasjon" />
		<tag k="ssr:hovedgruppe" v="infrastruktur" />
		<tag k="ssr:stedsnr" v="147908" />
		<tag k="ssr:type" v="fyrlykt" />
	</node>
	<node id="-806074" lat="70.1997694711" lon="28.1846881202">
		<tag k="fixme" v="multiple name tags, choose one and add the other to alt_name" />
		<tag k="name" v="Deanu gielda;Deatnu - Tana kommune" />
		<tag k="name:no" v="Tana kommune" />
		<tag k="name:se" v="Deanu gielda;Deatnu" />
		<tag k="ssr:date" v="2016-05-10" />
		<tag k="ssr:gruppe" v="administrativeIndelinger" />
		<tag k="ssr:hovedgruppe" v="offentligAdministrasjon" />
		<tag k="ssr:stedsnr" v="142967" />
		<tag k="ssr:type" v="kommune" />
	</node>
	<node id="-805657" lat="70.4500579748" lon="28.0355548209">
		<tag k="name" v="Smalfjord hyttefelt" />
		<tag k="ssr:date" v="2019-05-31" />
		<tag k="ssr:gruppe" v="veg" />
		<tag k="ssr:hovedgruppe" v="infrastruktur" />
		<tag k="ssr:stedsnr" v="1061427" />
		<tag k="ssr:type" v="adressenavn" />
	</node>
	<node id="-806103" lat="70.5008333536" lon="28.3682492504">
		<tag k="name" v="Veienden" />
		<tag k="name:no" v="Veienden" />
		<tag k="ssr:date" v="2018-01-31" />
		<tag k="ssr:gruppe" v="veg" />
		<tag k="ssr:hovedgruppe" v="infrastruktur" />
		<tag k="ssr:stedsnr" v="155547" />
		<tag k="ssr:type" v="adressetilleggsnavn" />
	</node>
	<node id="-807561" lat="70.5425861324" lon="28.394132574">
		<tag k="name" v="Stangneset" />
		<tag k="name:no" v="Stangneset" />
		<tag k="ssr:date" v="2016-05-11" />
		<tag k="ssr:gruppe" v="navigasjon" />
		<tag k="ssr:hovedgruppe" v="infrastruktur" />
		<tag k="ssr:stedsnr" v="937623" />
		<tag k="ssr:type" v="lanterne" />
	</node>
	<node id="-807604" lat="70.5354611367" lon="28.4274214443">
		<tag k="name" v="Maridalen, Øvre" />
		<tag k="name:no" v="Maridalen, Øvre" />
		<tag k="ssr:date" v="2016-05-11" />
		<tag k="ssr:gruppe" v="navigasjon" />
		<tag k="ssr:hovedgruppe" v="infrastruktur" />
		<tag k="ssr:stedsnr" v="951800" />
		<tag k="ssr:type" v="lanterne" />
	</node>
	<node id="-805790" lat="70.509586131" lon="28.4664853335">
		<tag k="name" v="Lávvonjárga - Teltnes" />
		<tag k="name:no" v="Teltnes" />
		<tag k="name:se" v="Lávvonjárga" />
		<tag k="ssr:date" v="2018-01-24" />
		<tag k="ssr:gruppe" v="navigasjon" />
		<tag k="ssr:hovedgruppe" v="infrastruktur" />
		<tag k="ssr:stedsnr" v="26561" />
		<tag k="ssr:type" v="fyrlykt" />
	</node>
	<node id="-807377" lat="70.5355666878" lon="28.4264575617">
		<tag k="name" v="Maridalen, Nedre" />
		<tag k="name:no" v="Maridalen, Nedre" />
		<tag k="ssr:date" v="2016-05-11" />
		<tag k="ssr:gruppe" v="navigasjon" />
		<tag k="ssr:hovedgruppe" v="infrastruktur" />
		<tag k="ssr:stedsnr" v="830788" />
		<tag k="ssr:type" v="lanterne" />
	</node>
	<node id="-806287" lat="70.5253916874" lon="28.4364964515">
		<tag k="name" v="Vagge Søre" />
		<tag k="name:no" v="Vagge Søre" />
		<tag k="ssr:date" v="2016-05-10" />
		<tag k="ssr:gruppe" v="navigasjon" />
		<tag k="ssr:hovedgruppe" v="infrastruktur" />
		<tag k="ssr:stedsnr" v="223807" />
		<tag k="ssr:type" v="lysbøye" />
	</node>
	<node id="-805709" lat="70.5102183719" lon="28.5523790543">
		<tag k="name" v="Lávvonjárga" />
		<tag k="ssr:date" v="2019-05-31" />
		<tag k="ssr:gruppe" v="veg" />
		<tag k="ssr:hovedgruppe" v="infrastruktur" />
		<tag k="ssr:stedsnr" v="1064380" />
		<tag k="ssr:type" v="adressenavn" />
	</node>
	<node id="-805708" lat="70.4795096626" lon="27.8305353393">
		<tag k="name" v="Deanuvuotna" />
		<tag k="ssr:date" v="2019-05-31" />
		<tag k="ssr:gruppe" v="veg" />
		<tag k="ssr:hovedgruppe" v="infrastruktur" />
		<tag k="ssr:stedsnr" v="1064072" />
		<tag k="ssr:type" v="adressenavn" />
	</node>
	<node id="-807209" lat="70.4507805724" lon="28.0375298684">
		<tag k="name" v="Steinsvikneset" />
		<tag k="name:no" v="Steinsvikneset" />
		<tag k="ssr:date" v="2016-05-11" />
		<tag k="ssr:gruppe" v="navigasjon" />
		<tag k="ssr:hovedgruppe" v="infrastruktur" />
		<tag k="ssr:stedsnr" v="756967" />
		<tag k="ssr:type" v="fyrlykt" />
	</node>
	<node id="-805512" lat="70.5371027961" lon="28.4086992208">
		<tag k="name" v="Stangenes lysbøye" />
		<tag k="name:no" v="Stangenes lysbøye" />
		<tag k="ssr:date" v="2016-05-10" />
		<tag k="ssr:gruppe" v="navigasjon" />
		<tag k="ssr:hovedgruppe" v="infrastruktur" />
		<tag k="ssr:stedsnr" v="344800" />
		<tag k="ssr:type" v="lysbøye" />
	</node>
	<node id="-806854" lat="70.517719462" lon="28.0462104377">
		<tag k="name" v="Bergholmen" />
		<tag k="name:no" v="Bergholmen" />
		<tag k="ssr:date" v="2016-05-10" />
		<tag k="ssr:gruppe" v="navigasjon" />
		<tag k="ssr:hovedgruppe" v="infrastruktur" />
		<tag k="ssr:stedsnr" v="626403" />
		<tag k="ssr:type" v="fyrlykt" />
	</node>
	<node id="-807619" lat="68.4849327361" lon="16.2297866207">
		<tag k="fixme" v="multiple name tags, choose one and add the other to alt_name" />
		<tag k="name" v="Nord-Noreg;Nord-Norge" />
		<tag k="ssr:date" v="2017-05-18" />
		<tag k="ssr:gruppe" v="administrativeIndelinger" />
		<tag k="ssr:hovedgruppe" v="offentligAdministrasjon" />
		<tag k="ssr:stedsnr" v="976106" />
		<tag k="ssr:type" v="annenAdministrativInndeling" />
	</node>
	<node id="-805698" lat="70.4598152065" lon="27.874932536">
		<tag k="name" v="Deanodat" />
		<tag k="ssr:date" v="2019-05-31" />
		<tag k="ssr:gruppe" v="veg" />
		<tag k="ssr:hovedgruppe" v="infrastruktur" />
		<tag k="ssr:stedsnr" v="1063368" />
		<tag k="ssr:type" v="adressenavn" />
	</node>
</osm>
