<?xml version="1.0" encoding="UTF-8"?>
<osm version="0.6" generator="osmapis">
	<node lat="58.93807348629998" lon="9.936335117698677" id="-21773">
		<tag k="alt_name" v="Tvistein fyr" />
		<tag k="name" v="Tvistein" />
		<tag k="ssr:date" v="2020-09-01" />
		<tag k="ssr:gruppe" v="navigasjon" />
		<tag k="ssr:hovedgruppe" v="infrastruktur" />
		<tag k="ssr:stedsnr" v="121921" />
		<tag k="ssr:type" v="fyrstasjon" />
	</node>
	<node lat="58.94870726033224" lon="10.068392917299517" id="-21904">
		<tag k="name" v="Rakkebåene" />
		<tag k="old_name" v="Rakkebåane lydbøye" />
		<tag k="ssr:date" v="2020-09-03" />
		<tag k="ssr:gruppe" v="navigasjon" />
		<tag k="ssr:hovedgruppe" v="infrastruktur" />
		<tag k="ssr:stedsnr" v="183989" />
		<tag k="ssr:type" v="fyrlykt" />
	</node>
	<node lat="58.991688887695794" lon="9.837586117167248" id="-22148">
		<tag k="name" v="Åmlirogna" />
		<tag k="ssr:date" v="2019-12-27" />
		<tag k="ssr:gruppe" v="navigasjon" />
		<tag k="ssr:hovedgruppe" v="infrastruktur" />
		<tag k="ssr:stedsnr" v="450265" />
		<tag k="ssr:type" v="fyrlykt" />
	</node>
	<node lat="59.00758966780318" lon="9.774487668657311" id="-22520">
		<tag k="alt_name" v="Kjørtingen, sørvestre" />
		<tag k="name" v="Kjørtingen" />
		<tag k="ssr:date" v="2019-12-27" />
		<tag k="ssr:gruppe" v="navigasjon" />
		<tag k="ssr:hovedgruppe" v="infrastruktur" />
		<tag k="ssr:stedsnr" v="365311" />
		<tag k="ssr:type" v="fyrlykt" />
	</node>
	<node lat="59.008249996515495" lon="9.77210277578208" id="-22521">
		<tag k="name" v="Geiterøy" />
		<tag k="ssr:date" v="2019-12-27" />
		<tag k="ssr:gruppe" v="navigasjon" />
		<tag k="ssr:hovedgruppe" v="infrastruktur" />
		<tag k="ssr:stedsnr" v="365314" />
		<tag k="ssr:type" v="fyrlykt" />
	</node>
	<node lat="58.98591388780287" lon="9.80327221969851" id="-22548">
		<tag k="name" v="Fugløyskjær" />
		<tag k="ssr:date" v="2019-12-27" />
		<tag k="ssr:gruppe" v="navigasjon" />
		<tag k="ssr:hovedgruppe" v="infrastruktur" />
		<tag k="ssr:stedsnr" v="480520" />
		<tag k="ssr:type" v="lanterne" />
	</node>
	<node lat="59.00869900331755" lon="9.771605130837235" id="-23297">
		<tag k="alt_name" v="Kjørtingen, nordvestre" />
		<tag k="name" v="Kjørtingen" />
		<tag k="ssr:date" v="2019-12-27" />
		<tag k="ssr:gruppe" v="navigasjon" />
		<tag k="ssr:hovedgruppe" v="infrastruktur" />
		<tag k="ssr:stedsnr" v="707255" />
		<tag k="ssr:type" v="fyrlykt" />
	</node>
	<node lat="59.05233611027141" lon="10.027008332567403" id="-23466">
		<tag k="loc_name" v="Larvik" />
		<tag k="name" v="Larvik kommune" />
		<tag k="ssr:date" v="2019-12-27" />
		<tag k="ssr:gruppe" v="administrativeIndelinger" />
		<tag k="ssr:hovedgruppe" v="offentligAdministrasjon" />
		<tag k="ssr:stedsnr" v="752263" />
		<tag k="ssr:type" v="kommune" />
	</node>
	<node lat="58.9691540634733" lon="10.14783828253616" id="-23604">
		<tag k="alt_name" v="Svenner fyr" />
		<tag k="name" v="Svenner" />
		<tag k="old_name" v="Svenner Fyr" />
		<tag k="ssr:date" v="2019-12-27" />
		<tag k="ssr:gruppe" v="navigasjon" />
		<tag k="ssr:hovedgruppe" v="infrastruktur" />
		<tag k="ssr:stedsnr" v="911997" />
		<tag k="ssr:type" v="fyrstasjon" />
	</node>
	<node lat="58.98738722178011" lon="10.052283259319132" id="-23747">
		<tag k="name" v="Stavernsodden" />
		<tag k="ssr:date" v="2019-12-27" />
		<tag k="ssr:gruppe" v="navigasjon" />
		<tag k="ssr:hovedgruppe" v="infrastruktur" />
		<tag k="ssr:stedsnr" v="850986" />
		<tag k="ssr:type" v="fyrstasjon" />
	</node>
	<node lat="59.02916666445057" lon="10.062686117934573" id="-24235">
		<tag k="name" v="Oterøya" />
		<tag k="ssr:date" v="2021-06-08" />
		<tag k="ssr:gruppe" v="navigasjon" />
		<tag k="ssr:hovedgruppe" v="infrastruktur" />
		<tag k="ssr:stedsnr" v="43081" />
		<tag k="ssr:type" v="fyrlykt" />
	</node>
	<node lat="59.04912777365933" lon="10.021002784614534" id="-24288">
		<tag k="name" v="Larvik havn" />
		<tag k="ssr:date" v="2019-12-27" />
		<tag k="ssr:gruppe" v="navigasjon" />
		<tag k="ssr:hovedgruppe" v="infrastruktur" />
		<tag k="ssr:stedsnr" v="87220" />
		<tag k="ssr:type" v="fyrlykt" />
	</node>
</osm>
