<?xml version="1.0" encoding="UTF-8"?>
<osm generator="osmapis" version="0.6">
	<node id="-921597" lat="64.7418833363" lon="11.8130055477">
		<tag k="name" v="Spellabakken" />
		<tag k="place" v="locality" />
		<tag k="ssr:stedsnr" v="900235" />
	</node>
	<node id="-921002" lat="64.6400250001" lon="11.4197583397">
		<tag k="name" v="Botnmyra" />
		<tag k="natural" v="wetland" />
		<tag k="ssr:stedsnr" v="229257" />
	</node>
	<node id="-922102" lat="64.5868833327" lon="11.4661194463">
		<tag k="name" v="Elvenget" />
		<tag k="place" v="locality" />
		<tag k="ssr:stedsnr" v="109602" />
	</node>
	<node id="-921589" lat="64.6769055526" lon="11.7509861189">
		<tag k="name" v="Spikmyra" />
		<tag k="natural" v="wetland" />
		<tag k="ssr:stedsnr" v="414345" />
	</node>
	<node id="-922611" lat="64.6530777747" lon="11.4341111213">
		<tag k="name" v="Setermyra" />
		<tag k="natural" v="wetland" />
		<tag k="ssr:stedsnr" v="560319" />
	</node>
	<node id="-921583" lat="64.6778111106" lon="11.4944611046">
		<tag k="name" v="Storengsmyra" />
		<tag k="natural" v="wetland" />
		<tag k="ssr:stedsnr" v="469305" />
	</node>
	<node id="-922606" lat="64.6978833301" lon="11.798258325">
		<tag k="name" v="Setran" />
		<tag k="place" v="locality" />
		<tag k="ssr:stedsnr" v="900065" />
	</node>
	<node id="-922093" lat="64.6580722265" lon="11.4025972322">
		<tag k="name" v="Tjønnmyra" />
		<tag k="natural" v="wetland" />
		<tag k="ssr:stedsnr" v="653270" />
	</node>
	<node id="-921062" lat="64.731880554" lon="11.5498388864">
		<tag k="name" v="Bjønnurda" />
		<tag k="natural" v="scree" />
		<tag k="ssr:stedsnr" v="171525" />
	</node>
	<node id="-921570" lat="64.6720500018" lon="11.2194305517">
		<tag k="name" v="Kjerkskardmyra" />
		<tag k="natural" v="wetland" />
		<tag k="ssr:stedsnr" v="47858" />
	</node>
	<node id="-921057" lat="64.7324972267" lon="11.5787166637">
		<tag k="name" v="Hesthagan" />
		<tag k="place" v="locality" />
		<tag k="ssr:stedsnr" v="171517" />
	</node>
	<node id="-921050" lat="64.6450416702" lon="11.1717194541">
		<tag k="name" v="Nordvikan" />
		<tag k="place" v="locality" />
		<tag k="ssr:stedsnr" v="350347" />
	</node>
	<node id="-921561" lat="64.7299472261" lon="11.8845999952">
		<tag k="name" v="Helsånesset" />
		<tag k="place" v="locality" />
		<tag k="ssr:stedsnr" v="717032" />
	</node>
	<node id="-922584" lat="64.6061055585" lon="11.4049527844">
		<tag k="name" v="Kløyvamyra" />
		<tag k="natural" v="wetland" />
		<tag k="ssr:stedsnr" v="411477" />
	</node>
	<node id="-922583" lat="64.6189999997" lon="11.3081583388">
		<tag k="name" v="Skjærvikmyran" />
		<tag k="natural" v="wetland" />
		<tag k="ssr:stedsnr" v="924372" />
	</node>
	<node id="-921556" lat="64.6544749993" lon="11.8008083252">
		<tag k="name" v="Tipperary" />
		<tag k="natural" v="wetland" />
		<tag k="ssr:stedsnr" v="229391" />
	</node>
	<node id="-922579" lat="64.7481249996" lon="11.9821305548">
		<tag k="name" v="Skjeftmyra" />
		<tag k="natural" v="wetland" />
		<tag k="ssr:stedsnr" v="135204" />
	</node>
	<node id="-922066" lat="64.656111112" lon="11.2343555495">
		<tag k="name" v="Hallbakksletta" />
		<tag k="place" v="locality" />
		<tag k="ssr:stedsnr" v="47144" />
	</node>
	<node id="-922573" lat="64.6196833377" lon="11.4614583418">
		<tag k="name" v="Postmyra" />
		<tag k="natural" v="wetland" />
		<tag k="ssr:stedsnr" v="168704" />
	</node>
	<node id="-922570" lat="64.7146194434" lon="11.4601666621">
		<tag k="name" v="Sjømarka" />
		<tag k="place" v="locality" />
		<tag k="ssr:stedsnr" v="353390" />
	</node>
	<node id="-921545" lat="64.6798583326" lon="11.4439750016">
		<tag k="name" v="Galtmyra" />
		<tag k="natural" v="wetland" />
		<tag k="ssr:stedsnr" v="742319" />
	</node>
	<node id="-921032" lat="64.7061861076" lon="11.4366416628">
		<tag k="name" v="Rekstran" />
		<tag k="place" v="locality" />
		<tag k="ssr:stedsnr" v="226366" />
	</node>
	<node id="-921031" lat="64.6258583289" lon="11.2688250037">
		<tag k="name" v="Skarvmyra" />
		<tag k="natural" v="wetland" />
		<tag k="ssr:stedsnr" v="836887" />
	</node>
	<node id="-921541" lat="64.6516305591" lon="11.2924027696">
		<tag k="name" v="Røyrmyra" />
		<tag k="natural" v="wetland" />
		<tag k="ssr:stedsnr" v="897932" />
	</node>
	<node id="-922560" lat="64.6963305582" lon="11.4421666661">
		<tag k="name" v="Åsmarka" />
		<tag k="place" v="locality" />
		<tag k="ssr:stedsnr" v="104340" />
	</node>
	<node id="-921535" lat="64.6730944439" lon="11.4369833383">
		<tag k="name" v="Godkartmyra" />
		<tag k="natural" v="wetland" />
		<tag k="ssr:stedsnr" v="714256" />
	</node>
	<node id="-922041" lat="64.6501611078" lon="11.240291673">
		<tag k="name" v="Tjuvholet" />
		<tag k="place" v="locality" />
		<tag k="ssr:stedsnr" v="289016" />
	</node>
	<node id="-921016" lat="64.6609000005" lon="11.2352416671">
		<tag k="name" v="Oskarhagen" />
		<tag k="place" v="locality" />
		<tag k="ssr:stedsnr" v="108141" />
	</node>
	<node id="-921075" lat="64.651302782" lon="11.2983388893">
		<tag k="historic" v="shieling" />
		<tag k="name" v="Tomtvollen" />
		<tag k="place" v="locality" />
		<tag k="ssr:stedsnr" v="411938" />
	</node>
	<node id="-922031" lat="64.7611361147" lon="12.0292277871">
		<tag k="name" v="Bruraøyra" />
		<tag k="place" v="locality" />
		<tag k="ssr:stedsnr" v="414064" />
	</node>
	<node id="-921006" lat="64.7235250002" lon="11.6926194391">
		<tag k="name" v="Langnesurda" />
		<tag k="natural" v="scree" />
		<tag k="ssr:stedsnr" v="839193" />
	</node>
	<node id="-921517" lat="64.6492749971" lon="11.2389583278">
		<tag k="name" v="Faksdalmyran" />
		<tag k="natural" v="wetland" />
		<tag k="ssr:stedsnr" v="864446" />
	</node>
	<node id="-922540" lat="64.6154055577" lon="11.4720833263">
		<tag k="name" v="Heststallen" />
		<tag k="place" v="locality" />
		<tag k="ssr:stedsnr" v="168697" />
	</node>
	<node id="-921515" lat="64.7508861099" lon="11.9184999961">
		<tag k="name" v="Høgmyra" />
		<tag k="natural" v="wetland" />
		<tag k="ssr:stedsnr" v="257874" />
	</node>
	<node id="-922538" lat="64.7438249993" lon="11.932694434">
		<tag k="name" v="Forronessurda" />
		<tag k="natural" v="scree" />
		<tag k="ssr:stedsnr" v="353024" />
	</node>
	<node id="-921504" lat="64.6598083325" lon="11.1854222161">
		<tag k="name" v="Moahaugmyra" />
		<tag k="natural" v="wetland" />
		<tag k="ssr:stedsnr" v="229378" />
	</node>
	<node id="-920991" lat="64.6946583305" lon="11.6899305578">
		<tag k="name" v="Gagnetmyra" />
		<tag k="natural" v="wetland" />
		<tag k="ssr:stedsnr" v="657366" />
	</node>
	<node id="-922519" lat="64.6855249984" lon="11.4681555616">
		<tag k="name" v="Tøddismyran" />
		<tag k="natural" v="wetland" />
		<tag k="ssr:stedsnr" v="288289" />
	</node>
	<node id="-921493" lat="64.7414833374" lon="11.7804861088">
		<tag k="name" v="Setermarka" />
		<tag k="place" v="locality" />
		<tag k="ssr:stedsnr" v="535193" />
	</node>
	<node id="-921991" lat="64.6338722202" lon="11.3743861145">
		<tag k="historic" v="shieling" />
		<tag k="name" v="Jektviksetran" />
		<tag k="place" v="locality" />
		<tag k="ssr:stedsnr" v="229895" />
	</node>
	<node id="-921990" lat="64.6924333328" lon="11.5029472249">
		<tag k="name" v="Sekkvikmyra" />
		<tag k="natural" v="wetland" />
		<tag k="ssr:stedsnr" v="955281" />
	</node>
	<node id="-922501" lat="64.6914500027" lon="11.4532277845">
		<tag k="name" v="Flotta" />
		<tag k="place" v="locality" />
		<tag k="ssr:stedsnr" v="772356" />
	</node>
	<node id="-920962" lat="64.6604833356" lon="11.3106333386">
		<tag k="name" v="Bjønnmyra" />
		<tag k="natural" v="wetland" />
		<tag k="ssr:stedsnr" v="897756" />
	</node>
	<node id="-921471" lat="64.6368416641" lon="11.3220833237">
		<tag k="name" v="Åsmyran" />
		<tag k="natural" v="wetland" />
		<tag k="ssr:stedsnr" v="440436" />
	</node>
	<node id="-922488" lat="64.6579083344" lon="11.2417361144">
		<tag k="name" v="Engan" />
		<tag k="place" v="locality" />
		<tag k="ssr:stedsnr" v="47246" />
	</node>
	<node id="-920951" lat="64.6425666671" lon="11.2073555465">
		<tag k="name" v="Stormyra" />
		<tag k="natural" v="wetland" />
		<tag k="ssr:stedsnr" v="742479" />
	</node>
	<node id="-921973" lat="64.7494999982" lon="11.956033336">
		<tag k="name" v="Aunsetran" />
		<tag k="place" v="locality" />
		<tag k="ssr:stedsnr" v="839022" />
	</node>
	<node id="-922483" lat="64.65485556" lon="11.2137388819">
		<tag k="name" v="Nerengan" />
		<tag k="place" v="locality" />
		<tag k="ssr:stedsnr" v="896043" />
	</node>
	<node id="-922482" lat="64.6539388855" lon="11.2375777755">
		<tag k="name" v="Hesjahaugan" />
		<tag k="place" v="locality" />
		<tag k="ssr:stedsnr" v="714026" />
	</node>
	<node id="-920943" lat="64.651700002" lon="11.2017749951">
		<tag k="name" v="Pallan" />
		<tag k="place" v="locality" />
		<tag k="ssr:stedsnr" v="836045" />
	</node>
	<node id="-921454" lat="64.7452722183" lon="11.946536108">
		<tag k="name" v="Almurdmyra" />
		<tag k="natural" v="wetland" />
		<tag k="ssr:stedsnr" v="717009" />
	</node>
	<node id="-920893" lat="64.6186250006" lon="11.4739916643">
		<tag k="name" v="Kvilamyra" />
		<tag k="natural" v="wetland" />
		<tag k="ssr:stedsnr" v="775691" />
	</node>
	<node id="-922471" lat="64.6842694416" lon="11.2954138869">
		<tag k="name" v="Beretslåtten" />
		<tag k="place" v="locality" />
		<tag k="ssr:stedsnr" v="290788" />
	</node>
	<node id="-921952" lat="64.658891667" lon="11.2132444525">
		<tag k="name" v="Rønningan" />
		<tag k="place" v="locality" />
		<tag k="ssr:stedsnr" v="532116" />
	</node>
	<node id="-920927" lat="64.6603583311" lon="11.1784388795">
		<tag k="name" v="Rakkavikmyra" />
		<tag k="natural" v="wetland" />
		<tag k="ssr:stedsnr" v="897372" />
	</node>
	<node id="-920926" lat="64.6717222222" lon="11.212786116">
		<tag k="name" v="Hammarvollen" />
		<tag k="place" v="locality" />
		<tag k="ssr:stedsnr" v="593840" />
	</node>
	<node id="-922460" lat="64.7283416647" lon="11.5552499922">
		<tag k="name" v="Småmyran" />
		<tag k="natural" v="wetland" />
		<tag k="ssr:stedsnr" v="475503" />
	</node>
	<node id="-921435" lat="64.7301750006" lon="11.9056611115">
		<tag k="name" v="Steinkløyvmyra" />
		<tag k="natural" v="wetland" />
		<tag k="ssr:stedsnr" v="717028" />
	</node>
	<node id="-921946" lat="64.6189000002" lon="11.4418111112">
		<tag k="name" v="Kattamyra" />
		<tag k="natural" v="wetland" />
		<tag k="ssr:stedsnr" v="653659" />
	</node>
	<node id="-922452" lat="64.6746944482" lon="11.8709638895">
		<tag k="name" v="Gammelstallen" />
		<tag k="place" v="locality" />
		<tag k="ssr:stedsnr" v="293069" />
	</node>
	<node id="-921939" lat="64.6146000002" lon="11.301819438">
		<tag k="name" v="Holvikmyran" />
		<tag k="natural" v="wetland" />
		<tag k="ssr:stedsnr" v="560491" />
	</node>
	<node id="-921425" lat="64.7182805565" lon="11.4971027822">
		<tag k="name" v="Sørbekkmyra" />
		<tag k="natural" v="wetland" />
		<tag k="ssr:stedsnr" v="960372" />
	</node>
	<node id="-921933" lat="64.6453833307" lon="11.4664250064">
		<tag k="name" v="Storvassurda" />
		<tag k="natural" v="scree" />
		<tag k="ssr:stedsnr" v="653241" />
	</node>
	<node id="-921414" lat="64.7785777783" lon="12.0927138881">
		<tag k="name" v="Stallan" />
		<tag k="place" v="locality" />
		<tag k="ssr:stedsnr" v="15900" />
	</node>
	<node id="-920901" lat="64.6509777818" lon="11.2431722201">
		<tag k="name" v="Hesjan" />
		<tag k="place" v="locality" />
		<tag k="ssr:stedsnr" v="46018" />
	</node>
	<node id="-922430" lat="64.7467777771" lon="11.8077444545">
		<tag k="name" v="Leisåkmyran" />
		<tag k="natural" v="wetland" />
		<tag k="ssr:stedsnr" v="803225" />
	</node>
	<node id="-921917" lat="64.7176416632" lon="11.8957777741">
		<tag k="name" v="Øver Helsånesset" />
		<tag k="place" v="locality" />
		<tag k="ssr:stedsnr" v="414045" />
	</node>
	<node id="-920892" lat="64.7362888915" lon="11.8103861104">
		<tag k="name" v="Kalvhagan" />
		<tag k="place" v="locality" />
		<tag k="ssr:stedsnr" v="353045" />
	</node>
	<node id="-921915" lat="64.6261861116" lon="11.4249638985">
		<tag k="name" v="Hestvikmyran" />
		<tag k="natural" v="wetland" />
		<tag k="ssr:stedsnr" v="653654" />
	</node>
	<node id="-921914" lat="64.7088749968" lon="11.8982555447">
		<tag k="name" v="Salmarka" />
		<tag k="place" v="locality" />
		<tag k="ssr:stedsnr" v="379193" />
	</node>
	<node id="-920884" lat="64.6194638893" lon="11.3107916595">
		<tag k="name" v="Koløyflyin" />
		<tag k="natural" v="wetland" />
		<tag k="ssr:stedsnr" v="290856" />
	</node>
	<node id="-921906" lat="64.637961113" lon="11.2848166623">
		<tag k="name" v="Villflya" />
		<tag k="natural" v="wetland" />
		<tag k="ssr:stedsnr" v="532955" />
	</node>
	<node id="-921903" lat="64.6353750017" lon="11.3135222186">
		<tag k="name" v="Holåkermyra" />
		<tag k="natural" v="wetland" />
		<tag k="ssr:stedsnr" v="350946" />
	</node>
	<node id="-921902" lat="64.6227194415" lon="11.292425003">
		<tag k="name" v="Aunamyra" />
		<tag k="natural" v="wetland" />
		<tag k="ssr:stedsnr" v="682431" />
	</node>
	<node id="-921389" lat="64.6562527762" lon="11.2192888822">
		<tag k="name" v="Flotta" />
		<tag k="place" v="locality" />
		<tag k="ssr:stedsnr" v="593137" />
	</node>
	<node id="-921388" lat="64.63531111" lon="11.2240305497">
		<tag k="name" v="Råbekkbrenna" />
		<tag k="place" v="locality" />
		<tag k="ssr:stedsnr" v="715024" />
	</node>
	<node id="-920992" lat="64.6072833349" lon="11.3168805659">
		<tag k="name" v="Hestvikmyra" />
		<tag k="natural" v="wetland" />
		<tag k="ssr:stedsnr" v="593851" />
	</node>
	<node id="-920869" lat="64.6735472186" lon="11.2089250066">
		<tag k="name" v="Storvollen" />
		<tag k="place" v="locality" />
		<tag k="ssr:stedsnr" v="836881" />
	</node>
	<node id="-921886" lat="64.7430861109" lon="11.9483500011">
		<tag k="name" v="Almurda" />
		<tag k="natural" v="scree" />
		<tag k="ssr:stedsnr" v="414021" />
	</node>
	<node id="-920860" lat="64.6170472242" lon="11.3714333297">
		<tag k="name" v="Skiftesmyra" />
		<tag k="natural" v="wetland" />
		<tag k="ssr:stedsnr" v="108572" />
	</node>
	<node id="-922393" lat="64.7064666706" lon="11.4327888924">
		<tag k="name" v="Godveitersteinen" />
		<tag k="natural" v="stone" />
		<tag k="ssr:stedsnr" v="44321" />
	</node>
	<node id="-921366" lat="64.6669611146" lon="11.3026555497">
		<tag k="alt_name" v="Spænningsmyra" />
		<tag k="name" v="Spenningsmyra" />
		<tag k="natural" v="wetland" />
		<tag k="ssr:stedsnr" v="14246" />
	</node>
	<node id="-921049" lat="64.6665583365" lon="11.2060555637">
		<tag k="name" v="Vannhagan" />
		<tag k="place" v="locality" />
		<tag k="ssr:stedsnr" v="957152" />
	</node>
	<node id="-921360" lat="64.7357944472" lon="11.5379277833">
		<tag k="name" v="Stormoen" />
		<tag k="place" v="locality" />
		<tag k="ssr:stedsnr" v="718526" />
	</node>
	<node id="-922382" lat="64.6645472239" lon="11.243997222">
		<tag k="name" v="Grønnlimyra" />
		<tag k="natural" v="wetland" />
		<tag k="ssr:stedsnr" v="471131" />
	</node>
	<node id="-921869" lat="64.7425777808" lon="11.8246444521">
		<tag k="name" v="Brenna" />
		<tag k="place" v="locality" />
		<tag k="ssr:stedsnr" v="657204" />
	</node>
	<node id="-921354" lat="64.6437166708" lon="11.2882222302">
		<tag k="name" v="Merramyran" />
		<tag k="natural" v="wetland" />
		<tag k="ssr:stedsnr" v="472958" />
	</node>
	<node id="-922377" lat="64.7835833337" lon="12.0849944506">
		<tag k="name" v="Tømmermoen" />
		<tag k="place" v="locality" />
		<tag k="ssr:stedsnr" v="475109" />
	</node>
	<node id="-922376" lat="64.7223111147" lon="11.5606027874">
		<tag k="historic" v="shieling" />
		<tag k="name" v="Storgravvikvollen" />
		<tag k="place" v="locality" />
		<tag k="ssr:stedsnr" v="475499" />
	</node>
	<node id="-920835" lat="64.6475527767" lon="11.211219442">
		<tag k="name" v="Øvermarka" />
		<tag k="place" v="locality" />
		<tag k="ssr:stedsnr" v="593050" />
	</node>
	<node id="-922367" lat="64.7501694443" lon="11.9071222152">
		<tag k="name" v="Gjerdesmyra" />
		<tag k="natural" v="wetland" />
		<tag k="ssr:stedsnr" v="535007" />
	</node>
	<node id="-922364" lat="64.6811777766" lon="11.7885250022">
		<tag k="name" v="Stormyra" />
		<tag k="natural" v="wetland" />
		<tag k="ssr:stedsnr" v="15205" />
	</node>
	<node id="-920826" lat="64.6547083321" lon="11.2405666599">
		<tag k="name" v="Hesjan" />
		<tag k="place" v="locality" />
		<tag k="ssr:stedsnr" v="653041" />
	</node>
	<node id="-921336" lat="64.7410000019" lon="12.0914611182">
		<tag k="name" v="Danielmomyra" />
		<tag k="natural" v="wetland" />
		<tag k="ssr:stedsnr" v="50111" />
	</node>
	<node id="-920819" lat="64.6486083334" lon="11.263800004">
		<tag k="name" v="Steinsmyra" />
		<tag k="natural" v="wetland" />
		<tag k="ssr:stedsnr" v="108976" />
	</node>
	<node id="-922354" lat="64.7408000019" lon="11.8202055501">
		<tag k="name" v="Gjøta" />
		<tag k="place" v="locality" />
		<tag k="ssr:stedsnr" v="111203" />
	</node>
	<node id="-920922" lat="64.762800003" lon="12.0349500019">
		<tag k="alt_name" v="Krokmyra" />
		<tag k="name" v="Kråkmyra" />
		<tag k="natural" v="wetland" />
		<tag k="ssr:stedsnr" v="499820" />
	</node>
	<node id="-921840" lat="64.6140888874" lon="11.4624750097">
		<tag k="name" v="Brannen" />
		<tag k="place" v="locality" />
		<tag k="ssr:stedsnr" v="593646" />
	</node>
	<node id="-921327" lat="64.7053277743" lon="11.4114361186">
		<tag k="name" v="Brødholmmyran" />
		<tag k="natural" v="wetland" />
		<tag k="ssr:stedsnr" v="530339" />
	</node>
	<node id="-922578" lat="64.6205055517" lon="11.4640083239">
		<tag k="name" v="Orremyra" />
		<tag k="natural" v="wetland" />
		<tag k="ssr:stedsnr" v="532700" />
	</node>
	<node id="-922346" lat="64.7263361153" lon="11.7505138791">
		<tag k="name" v="Fagervikurda" />
		<tag k="natural" v="scree" />
		<tag k="ssr:stedsnr" v="111193" />
	</node>
	<node id="-921320" lat="64.6634249967" lon="11.2893000072">
		<tag k="name" v="Kløyvamyra" />
		<tag k="natural" v="wetland" />
		<tag k="ssr:stedsnr" v="803319" />
	</node>
	<node id="-921830" lat="64.6617972191" lon="11.452513887">
		<tag k="historic" v="shieling" />
		<tag k="name" v="Amundsetran" />
		<tag k="place" v="locality" />
		<tag k="ssr:stedsnr" v="472250" />
	</node>
	<node id="-921827" lat="64.6415055565" lon="11.2832249952">
		<tag k="name" v="Steinsmyran" />
		<tag k="natural" v="wetland" />
		<tag k="ssr:stedsnr" v="439411" />
	</node>
	<node id="-921312" lat="64.6612972199" lon="11.2472638898">
		<tag k="name" v="Stråmyra" />
		<tag k="natural" v="wetland" />
		<tag k="ssr:stedsnr" v="653125" />
	</node>
	<node id="-922331" lat="64.6865472218" lon="11.2421583432">
		<tag k="name" v="Storslåtten" />
		<tag k="place" v="locality" />
		<tag k="ssr:stedsnr" v="714856" />
	</node>
	<node id="-920853" lat="64.6363194476" lon="11.1783083377">
		<tag k="name" v="Sørsjømyran" />
		<tag k="natural" v="wetland" />
		<tag k="ssr:stedsnr" v="897379" />
	</node>
	<node id="-922326" lat="64.7033194445" lon="11.4379055654">
		<tag k="name" v="Spansklia" />
		<tag k="place" v="locality" />
		<tag k="ssr:stedsnr" v="772343" />
	</node>
	<node id="-922321" lat="64.6581666652" lon="11.2214166744">
		<tag k="name" v="Hovsvollan" />
		<tag k="place" v="locality" />
		<tag k="ssr:stedsnr" v="168227" />
	</node>
	<node id="-921122" lat="64.6838249981" lon="11.4493777828">
		<tag k="name" v="Innermomyra" />
		<tag k="natural" v="wetland" />
		<tag k="ssr:stedsnr" v="226394" />
	</node>
	<node id="-921277" lat="64.6402194432" lon="11.193433327">
		<tag k="name" v="Gjerdet" />
		<tag k="place" v="locality" />
		<tag k="ssr:stedsnr" v="836159" />
	</node>
	<node id="-921786" lat="64.6590361109" lon="11.304394434">
		<tag k="name" v="Kjerkmyra" />
		<tag k="natural" v="wetland" />
		<tag k="ssr:stedsnr" v="378338" />
	</node>
	<node id="-921785" lat="64.694622219" lon="11.4483888963">
		<tag k="name" v="Nytrøa" />
		<tag k="place" v="locality" />
		<tag k="ssr:stedsnr" v="711381" />
	</node>
	<node id="-921272" lat="64.6378361098" lon="11.1871805626">
		<tag k="name" v="Gråtarvollen" />
		<tag k="place" v="locality" />
		<tag k="ssr:stedsnr" v="836156" />
	</node>
	<node id="-921033" lat="64.7173388848" lon="11.8863027723">
		<tag k="name" v="Storskardsvollen" />
		<tag k="place" v="locality" />
		<tag k="ssr:stedsnr" v="778048" />
	</node>
	<node id="-922292" lat="64.6160500005" lon="11.4505527831">
		<tag k="name" v="Demmingsmyra" />
		<tag k="natural" v="wetland" />
		<tag k="ssr:stedsnr" v="350610" />
	</node>
	<node id="-921266" lat="64.6579111119" lon="11.1979888965">
		<tag k="name" v="Stormyra" />
		<tag k="natural" v="wetland" />
		<tag k="ssr:stedsnr" v="108222" />
	</node>
	<node id="-921777" lat="64.6071777791" lon="11.4175361065">
		<tag k="name" v="Husmyra" />
		<tag k="natural" v="wetland" />
		<tag k="ssr:stedsnr" v="350488" />
	</node>
	<node id="-921773" lat="64.7219750007" lon="11.5387916649">
		<tag k="name" v="Øversetran" />
		<tag k="place" v="locality" />
		<tag k="ssr:stedsnr" v="111467" />
	</node>
	<node id="-921771" lat="64.7255555573" lon="11.5123972181">
		<tag k="name" v="Naustmyra" />
		<tag k="natural" v="wetland" />
		<tag k="ssr:stedsnr" v="414380" />
	</node>
	<node id="-921257" lat="64.6400222252" lon="11.209891669">
		<tag k="name" v="Småmyran" />
		<tag k="natural" v="wetland" />
		<tag k="ssr:stedsnr" v="957205" />
	</node>
	<node id="-922280" lat="64.704863893" lon="11.437674994">
		<tag k="name" v="Stormyra" />
		<tag k="natural" v="wetland" />
		<tag k="ssr:stedsnr" v="894362" />
	</node>
	<node id="-922277" lat="64.721972224" lon="11.5062500078">
		<tag k="name" v="Stakkstongmyra" />
		<tag k="natural" v="wetland" />
		<tag k="ssr:stedsnr" v="171379" />
	</node>
	<node id="-922266" lat="64.6620138882" lon="11.2345722157">
		<tag k="name" v="Steindikmyra" />
		<tag k="natural" v="wetland" />
		<tag k="ssr:stedsnr" v="229142" />
	</node>
	<node id="-921753" lat="64.6967888911" lon="11.434086105">
		<tag k="name" v="Blikksteinen" />
		<tag k="natural" v="stone" />
		<tag k="ssr:stedsnr" v="711377" />
	</node>
	<node id="-921237" lat="64.6705555534" lon="11.4522583311">
		<tag k="name" v="Urdsvassmyra" />
		<tag k="natural" v="wetland" />
		<tag k="ssr:stedsnr" v="864386" />
	</node>
	<node id="-921235" lat="64.7011555594" lon="11.4365277777">
		<tag k="name" v="Linkjelda" />
		<tag k="natural" v="wetland" />
		<tag k="ssr:stedsnr" v="166323" />
	</node>
	<node id="-921744" lat="64.6809583292" lon="11.4560499988">
		<tag k="name" v="Stormomyran" />
		<tag k="natural" v="wetland" />
		<tag k="ssr:stedsnr" v="317307" />
	</node>
	<node id="-921229" lat="64.6476666624" lon="11.3037249989">
		<tag k="name" v="Dønnelsklompmyra" />
		<tag k="natural" v="wetland" />
		<tag k="ssr:stedsnr" v="836940" />
	</node>
	<node id="-921228" lat="64.6748861102" lon="11.4355249949">
		<tag k="name" v="Kråmyra" />
		<tag k="natural" v="wetland" />
		<tag k="ssr:stedsnr" v="286352" />
	</node>
	<node id="-921226" lat="64.6793027773" lon="11.4408138906">
		<tag k="name" v="Galtmyra" />
		<tag k="natural" v="wetland" />
		<tag k="ssr:stedsnr" v="286351" />
	</node>
	<node id="-921224" lat="64.6214222267" lon="11.4343305553">
		<tag k="name" v="Sveet" />
		<tag k="place" v="locality" />
		<tag k="ssr:stedsnr" v="108627" />
	</node>
	<node id="-922247" lat="64.7107444488" lon="11.4918555461">
		<tag k="name" v="Klubbmarka" />
		<tag k="place" v="locality" />
		<tag k="ssr:stedsnr" v="171370" />
	</node>
	<node id="-921733" lat="64.6322361079" lon="11.3708138955">
		<tag k="name" v="Jektvikmyra" />
		<tag k="natural" v="wetland" />
		<tag k="ssr:stedsnr" v="715537" />
	</node>
	<node id="-922243" lat="64.6359638923" lon="11.2165555659">
		<tag k="name" v="Stormyra" />
		<tag k="place" v="locality" />
		<tag k="ssr:stedsnr" v="532182" />
	</node>
	<node id="-921215" lat="64.6574638854" lon="11.2249611168">
		<tag k="name" v="Lauga" />
		<tag k="place" v="locality" />
		<tag k="ssr:stedsnr" v="472126" />
	</node>
	<node id="-921726" lat="64.6437777781" lon="11.3379499909">
		<tag k="name" v="Knuven" />
		<tag k="place" v="locality" />
		<tag k="ssr:stedsnr" v="168923" />
	</node>
	<node id="-922237" lat="64.6681972222" lon="11.7947583429">
		<tag k="name" v="Skifteshaugmyra" />
		<tag k="natural" v="wetland" />
		<tag k="ssr:stedsnr" v="48378" />
	</node>
	<node id="-921212" lat="64.6483333352" lon="11.2935916659">
		<tag k="name" v="Dønnelsklompmyra" />
		<tag k="natural" v="wetland" />
		<tag k="ssr:stedsnr" v="472934" />
	</node>
	<node id="-921723" lat="64.5974583301" lon="11.3987222243">
		<tag k="name" v="Langmyra" />
		<tag k="natural" v="wetland" />
		<tag k="ssr:stedsnr" v="532486" />
	</node>
	<node id="-921208" lat="64.6458472224" lon="11.1782388904">
		<tag k="name" v="Tørvmyra" />
		<tag k="natural" v="wetland" />
		<tag k="ssr:stedsnr" v="168404" />
	</node>
	<node id="-922231" lat="64.6393611095" lon="11.2707694358">
		<tag k="name" v="Kalskogen" />
		<tag k="place" v="locality" />
		<tag k="ssr:stedsnr" v="229947" />
	</node>
	<node id="-921201" lat="64.7207527735" lon="11.5428888931">
		<tag k="name" v="Øversetermyra" />
		<tag k="natural" v="wetland" />
		<tag k="ssr:stedsnr" v="353503" />
	</node>
	<node id="-921712" lat="64.67424167" lon="11.2184861091">
		<tag k="name" v="Gårdsmyra" />
		<tag k="natural" v="wetland" />
		<tag k="ssr:stedsnr" v="775862" />
	</node>
	<node id="-921707" lat="64.6497777818" lon="11.2889277852">
		<tag k="name" v="Sesslimyra" />
		<tag k="natural" v="wetland" />
		<tag k="ssr:stedsnr" v="439395" />
	</node>
	<node id="-921190" lat="64.7378333357" lon="11.7951638809">
		<tag k="name" v="Søndagshagan" />
		<tag k="place" v="locality" />
		<tag k="ssr:stedsnr" v="232032" />
	</node>
	<node id="-921536" lat="64.6687555515" lon="11.2167750091">
		<tag k="name" v="Storesteinan" />
		<tag k="natural" v="stone" />
		<tag k="ssr:stedsnr" v="47849" />
	</node>
	<node id="-921167" lat="64.7173194418" lon="11.5075555534">
		<tag k="name" v="Skutvikmyra" />
		<tag k="natural" v="wetland" />
		<tag k="ssr:stedsnr" v="257291" />
	</node>
	<node id="-921678" lat="64.6070083359" lon="11.4771361202">
		<tag k="name" v="Skjelhagamyra" />
		<tag k="natural" v="wetland" />
		<tag k="ssr:stedsnr" v="957685" />
	</node>
	<node id="-920845" lat="64.7022416704" lon="11.7986416611">
		<tag k="name" v="Tømmermoen" />
		<tag k="place" v="locality" />
		<tag k="ssr:stedsnr" v="778062" />
	</node>
	<node id="-921163" lat="64.7190833323" lon="11.5490916768">
		<tag k="name" v="Olavsmyra" />
		<tag k="natural" v="wetland" />
		<tag k="ssr:stedsnr" v="718510" />
	</node>
	<node id="-922181" lat="64.7380555545" lon="11.9187499905">
		<tag k="name" v="Jensokmarka" />
		<tag k="place" v="locality" />
		<tag k="ssr:stedsnr" v="293005" />
	</node>
	<node id="-921665" lat="64.7214472205" lon="11.9032444348">
		<tag k="name" v="Tjønnmyra" />
		<tag k="natural" v="wetland" />
		<tag k="ssr:stedsnr" v="111043" />
	</node>
	<node id="-921440" lat="64.6619361135" lon="11.2019555505">
		<tag k="name" v="Gjerthanshaugmyra" />
		<tag k="natural" v="wetland" />
		<tag k="ssr:stedsnr" v="472156" />
	</node>
	<node id="-921658" lat="64.7223777818" lon="11.5313361184">
		<tag k="name" v="Setermyra" />
		<tag k="natural" v="wetland" />
		<tag k="ssr:stedsnr" v="378317" />
	</node>
	<node id="-921144" lat="64.6536166698" lon="11.300586119">
		<tag k="name" v="Dølin" />
		<tag k="place" v="locality" />
		<tag k="ssr:stedsnr" v="593926" />
	</node>
	<node id="-921653" lat="64.6421250028" lon="11.3470138942">
		<tag k="name" v="Hestmarka" />
		<tag k="place" v="locality" />
		<tag k="ssr:stedsnr" v="350874" />
	</node>
	<node id="-921140" lat="64.6318416646" lon="11.2233166693">
		<tag k="name" v="Lendavikmyran" />
		<tag k="natural" v="wetland" />
		<tag k="ssr:stedsnr" v="653085" />
	</node>
	<node id="-921651" lat="64.6599416648" lon="11.2054999934">
		<tag k="name" v="Svartmyra" />
		<tag k="natural" v="wetland" />
		<tag k="ssr:stedsnr" v="653202" />
	</node>
	<node id="-921138" lat="64.6619249968" lon="11.2235361127">
		<tag k="name" v="Litlmyra" />
		<tag k="natural" v="wetland" />
		<tag k="ssr:stedsnr" v="836099" />
	</node>
	<node id="-921648" lat="64.6446527815" lon="11.189388882">
		<tag k="name" v="Trollskardmyra" />
		<tag k="natural" v="wetland" />
		<tag k="ssr:stedsnr" v="775058" />
	</node>
	<node id="-921864" lat="64.6848416669" lon="11.4525055633">
		<tag k="name" v="Lauvbrenna" />
		<tag k="place" v="locality" />
		<tag k="ssr:stedsnr" v="408378" />
	</node>
	<node id="-921133" lat="64.6617472232" lon="11.1698805475">
		<tag k="name" v="Bergljoturda" />
		<tag k="natural" v="scree" />
		<tag k="ssr:stedsnr" v="532357" />
	</node>
	<node id="-922154" lat="64.6271194424" lon="11.2972500039">
		<tag k="name" v="Lettvikmyra" />
		<tag k="natural" v="wetland" />
		<tag k="ssr:stedsnr" v="681374" />
	</node>
	<node id="-921637" lat="64.6590166625" lon="11.188800009">
		<tag k="name" v="Valvikmyra" />
		<tag k="natural" v="wetland" />
		<tag k="ssr:stedsnr" v="472213" />
	</node>
	<node id="-920840" lat="64.6494027799" lon="11.3381000088">
		<tag k="name" v="Pålmyra" />
		<tag k="natural" v="wetland" />
		<tag k="ssr:stedsnr" v="411917" />
	</node>
	<node id="-922140" lat="64.6434000026" lon="11.2821055479">
		<tag k="name" v="Flya" />
		<tag k="natural" v="wetland" />
		<tag k="ssr:stedsnr" v="775983" />
	</node>
	<node id="-921115" lat="64.6608972243" lon="11.1693416759">
		<tag k="name" v="Fremmer Oddmyra" />
		<tag k="natural" v="wetland" />
		<tag k="ssr:stedsnr" v="532362" />
	</node>
	<node id="-922138" lat="64.7272194446" lon="11.8915527799">
		<tag k="name" v="Gressdalnesset" />
		<tag k="place" v="locality" />
		<tag k="ssr:stedsnr" v="596016" />
	</node>
	<node id="-921112" lat="64.6540777755" lon="11.2045361162">
		<tag k="name" v="Stavikmyra" />
		<tag k="natural" v="wetland" />
		<tag k="ssr:stedsnr" v="653050" />
	</node>
	<node id="-922128" lat="64.6801055576" lon="11.4887861012">
		<tag k="name" v="Engesmomyran" />
		<tag k="natural" v="wetland" />
		<tag k="ssr:stedsnr" v="257421" />
	</node>
	<node id="-921102" lat="64.7342777735" lon="11.9040333304">
		<tag k="name" v="Stokkbakkmyra" />
		<tag k="natural" v="wetland" />
		<tag k="ssr:stedsnr" v="657017" />
	</node>
	<node id="-921101" lat="64.639172221" lon="11.2658305559">
		<tag k="name" v="Strandamyra" />
		<tag k="place" v="locality" />
		<tag k="ssr:stedsnr" v="714965" />
	</node>
	<node id="-921153" lat="64.722555553" lon="11.5525111023">
		<tag k="name" v="Skjeftmyra" />
		<tag k="natural" v="wetland" />
		<tag k="ssr:stedsnr" v="718511" />
	</node>
	<node id="-921601" lat="64.6627722249" lon="11.181536118">
		<tag k="name" v="Storvika" />
		<tag k="place" v="locality" />
		<tag k="ssr:stedsnr" v="47455" />
	</node>
</osm>
