<?xml version="1.0" encoding="UTF-8"?>
<osm generator="osmapis" version="0.6">
	<node id="-919547" lat="64.6848305579" lon="11.2034055521">
		<tag k="fixme" v="consider seamark:type=rock or natural=shoal" />
		<tag k="name" v="Måsøystua" />
		<tag k="place" v="islet" />
		<tag k="ssr:stedsnr" v="290835" />
	</node>
	<node id="-919544" lat="64.7126166707" lon="11.4424805484">
		<tag k="name" v="Nordsjøbukta" />
		<tag k="natural" v="bay" />
		<tag k="ssr:stedsnr" v="682289" />
	</node>
	<node id="-919543" lat="64.5995916696" lon="11.3715388939">
		<tag k="name" v="Raknessodden" />
		<tag k="natural" v="cape" />
		<tag k="ssr:stedsnr" v="714519" />
	</node>
	<node id="-919541" lat="64.6025583331" lon="11.2960972124">
		<tag k="fixme" v="consider seamark:type=rock or natural=shoal" />
		<tag k="name" v="Ringskjæret" />
		<tag k="place" v="islet" />
		<tag k="ssr:stedsnr" v="411889" />
	</node>
	<node id="-919535" lat="64.6921805564" lon="11.3114694529">
		<tag k="name" v="Kalvhaggan" />
		<tag k="natural" v="cape" />
		<tag k="ssr:stedsnr" v="136312" />
	</node>
	<node id="-919531" lat="64.6759722179" lon="11.1428444539">
		<tag k="fixme" v="consider seamark:type=rock or natural=shoal" />
		<tag k="name" v="Bjønnen" />
		<tag k="place" v="islet" />
		<tag k="ssr:stedsnr" v="653441" />
	</node>
	<node id="-919529" lat="64.691980553" lon="11.1681305552">
		<tag k="name" v="Foldagrunnen" />
		<tag k="natural" v="shoal" />
		<tag k="place" v="locality" />
		<tag k="ssr:stedsnr" v="574963" />
	</node>
	<node id="-919526" lat="64.6807416668" lon="11.1973638989">
		<tag k="fixme" v="consider seamark:type=rock or natural=shoal" />
		<tag k="name" v="Måsøyskjæret" />
		<tag k="place" v="islet" />
		<tag k="ssr:stedsnr" v="472840" />
	</node>
	<node id="-919520" lat="64.679944442" lon="11.3229138809">
		<tag k="name" v="Kvennhusbukta" />
		<tag k="natural" v="bay" />
		<tag k="ssr:stedsnr" v="108949" />
	</node>
	<node id="-919515" lat="64.7037277777" lon="11.032722228">
		<tag k="name" v="Bårtaren" />
		<tag k="natural" v="shoal" />
		<tag k="place" v="locality" />
		<tag k="ssr:stedsnr" v="317967" />
	</node>
	<node id="-919508" lat="64.5932861148" lon="11.4462277713">
		<tag k="name" v="Storvika" />
		<tag k="natural" v="bay" />
		<tag k="ssr:stedsnr" v="593442" />
	</node>
	<node id="-919504" lat="64.6299888914" lon="11.2192277736">
		<tag k="name" v="Lendavikodden" />
		<tag k="natural" v="cape" />
		<tag k="ssr:stedsnr" v="957099" />
	</node>
	<node id="-919495" lat="64.6481111115" lon="11.2095666683">
		<tag k="name" v="Jøa" />
		<tag k="place" v="island" />
		<tag k="ssr:stedsnr" v="803534" />
	</node>
	<node id="-919488" lat="64.5990805517" lon="11.3093499916">
		<tag k="name" v="Heimarnesstranda" />
		<tag k="natural" v="beach" />
		<tag k="place" v="locality" />
		<tag k="ssr:stedsnr" v="836890" />
	</node>
	<node id="-919480" lat="64.6507333371" lon="11.3970138878">
		<tag k="name" v="Hamn" />
		<tag k="natural" v="bay" />
		<tag k="ssr:stedsnr" v="229279" />
	</node>
	<node id="-919476" lat="64.6183138869" lon="11.3753722166">
		<tag k="name" v="Lendavika" />
		<tag k="natural" v="bay" />
		<tag k="ssr:stedsnr" v="108569" />
	</node>
	<node id="-919473" lat="64.60021389" lon="11.323786113">
		<tag k="name" v="Brennvinsvika" />
		<tag k="natural" v="bay" />
		<tag k="ssr:stedsnr" v="714526" />
	</node>
	<node id="-919472" lat="64.6517333331" lon="11.1798444518">
		<tag k="name" v="Heimervikdden" />
		<tag k="natural" v="cape" />
		<tag k="ssr:stedsnr" v="894485" />
	</node>
	<node id="-919460" lat="64.6301694439" lon="11.2322777852">
		<tag k="fixme" v="consider seamark:type=rock or natural=shoal" />
		<tag k="name" v="Brennhaugskjæret" />
		<tag k="place" v="islet" />
		<tag k="ssr:stedsnr" v="411111" />
	</node>
	<node id="-919458" lat="64.686819445" lon="11.2347583401">
		<tag k="name" v="Skogøya" />
		<tag k="place" v="island" />
		<tag k="ssr:stedsnr" v="196310" />
	</node>
	<node id="-919457" lat="64.7210861102" lon="11.673125005">
		<tag k="name" v="Bukkavika" />
		<tag k="natural" v="bay" />
		<tag k="ssr:stedsnr" v="596189" />
	</node>
	<node id="-919454" lat="64.7066361152" lon="10.9985916747">
		<tag k="name" v="Litlstabben" />
		<tag k="place" v="locality" />
		<tag k="seamark:type" v="rock" />
		<tag k="ssr:stedsnr" v="331319" />
	</node>
	<node id="-919453" lat="64.687166667" lon="11.228411105">
		<tag k="name" v="Nordøyholmen" />
		<tag k="place" v="islet" />
		<tag k="ssr:stedsnr" v="560342" />
	</node>
	<node id="-919450" lat="64.6840333372" lon="11.3172111065">
		<tag k="name" v="Purkvikodden" />
		<tag k="natural" v="cape" />
		<tag k="ssr:stedsnr" v="499287" />
	</node>
	<node id="-919440" lat="64.7179805597" lon="11.0147750087">
		<tag k="name" v="Råsgrunnen" />
		<tag k="natural" v="shoal" />
		<tag k="place" v="locality" />
		<tag k="ssr:stedsnr" v="391331" />
	</node>
	<node id="-919439" lat="64.6903916652" lon="11.0893583295">
		<tag k="name" v="Auststeinodden" />
		<tag k="natural" v="shoal" />
		<tag k="place" v="locality" />
		<tag k="ssr:stedsnr" v="695948" />
	</node>
	<node id="-919433" lat="64.6198194433" lon="11.3756583418">
		<tag k="name" v="Lendavikodden" />
		<tag k="natural" v="cape" />
		<tag k="ssr:stedsnr" v="836510" />
	</node>
	<node id="-919428" lat="64.5909083359" lon="11.4683194346">
		<tag k="name" v="Hommelvika" />
		<tag k="natural" v="bay" />
		<tag k="ssr:stedsnr" v="775721" />
	</node>
	<node id="-919427" lat="64.6707611127" lon="11.1910333284">
		<tag k="name" v="Brakstadhamn" />
		<tag k="natural" v="bay" />
		<tag k="ssr:stedsnr" v="714126" />
	</node>
	<node id="-919424" lat="64.7141277742" lon="11.0469805523">
		<tag k="name" v="Gjæslingslua" />
		<tag k="natural" v="shoal" />
		<tag k="place" v="locality" />
		<tag k="ssr:stedsnr" v="513348" />
	</node>
	<node id="-919423" lat="64.6581027813" lon="11.1587055588">
		<tag k="name" v="Skjæret" />
		<tag k="natural" v="cape" />
		<tag k="ssr:stedsnr" v="955460" />
	</node>
	<node id="-919422" lat="64.5978138918" lon="11.4543055555">
		<tag k="name" v="Litlvika" />
		<tag k="natural" v="bay" />
		<tag k="ssr:stedsnr" v="350720" />
	</node>
	<node id="-921231" lat="64.6019277774" lon="11.2978833253">
		<tag k="name" v="Valholmen" />
		<tag k="place" v="islet" />
		<tag k="ssr:stedsnr" v="742470" />
	</node>
	<node id="-921224" lat="64.6730611121" lon="11.1610027719">
		<tag k="fixme" v="consider seamark:type=rock or natural=shoal" />
		<tag k="name" v="Grønnøyskjæret" />
		<tag k="place" v="islet" />
		<tag k="ssr:stedsnr" v="681994" />
	</node>
	<node id="-921219" lat="64.6308555546" lon="11.2053361041">
		<tag k="alt_name" v="Porkholmen" />
		<tag k="name" v="Purkholmen" />
		<tag k="place" v="islet" />
		<tag k="ssr:stedsnr" v="135493" />
	</node>
	<node id="-921215" lat="64.6383277822" lon="11.2492055565">
		<tag k="name" v="Steinsjøvika" />
		<tag k="natural" v="beach" />
		<tag k="place" v="locality" />
		<tag k="ssr:stedsnr" v="290004" />
	</node>
	<node id="-921214" lat="64.6235472224" lon="11.2660916741">
		<tag k="name" v="Aunaodden" />
		<tag k="natural" v="cape" />
		<tag k="ssr:stedsnr" v="924376" />
	</node>
	<node id="-921211" lat="64.7007555563" lon="10.9859055486">
		<tag k="name" v="Knubbåtholmen" />
		<tag k="place" v="islet" />
		<tag k="ssr:stedsnr" v="14978" />
	</node>
	<node id="-921208" lat="64.6777361082" lon="11.0740027797">
		<tag k="name" v="Småtaran" />
		<tag k="natural" v="shoal" />
		<tag k="place" v="locality" />
		<tag k="ssr:stedsnr" v="89947" />
	</node>
	<node id="-921203" lat="64.7174861113" lon="11.4677388875">
		<tag k="name" v="Stallbukta" />
		<tag k="natural" v="bay" />
		<tag k="ssr:stedsnr" v="197345" />
	</node>
	<node id="-921201" lat="64.618369443" lon="11.3432916736">
		<tag k="name" v="Storvika" />
		<tag k="natural" v="bay" />
		<tag k="ssr:stedsnr" v="925445" />
	</node>
	<node id="-921198" lat="64.6869583356" lon="11.4058833239">
		<tag k="name" v="Varpvikgrunnen" />
		<tag k="natural" v="shoal" />
		<tag k="place" v="locality" />
		<tag k="ssr:stedsnr" v="28332" />
	</node>
	<node id="-921193" lat="64.697024996" lon="10.9978416591">
		<tag k="fixme" v="consider seamark:type=rock or natural=shoal" />
		<tag k="name" v="Isakskjæret" />
		<tag k="place" v="islet" />
		<tag k="ssr:stedsnr" v="633612" />
	</node>
	<node id="-921167" lat="64.6821555512" lon="11.1867416744">
		<tag k="fixme" v="consider seamark:type=rock or natural=shoal" />
		<tag k="name" v="Måskjæret" />
		<tag k="place" v="islet" />
		<tag k="ssr:stedsnr" v="89939" />
	</node>
	<node id="-921165" lat="64.6315611122" lon="11.2348138948">
		<tag k="name" v="Engesnessodden" />
		<tag k="natural" v="cape" />
		<tag k="ssr:stedsnr" v="108100" />
	</node>
	<node id="-921154" lat="64.6791833303" lon="11.2104277848">
		<tag k="name" v="Breivikodden" />
		<tag k="natural" v="cape" />
		<tag k="ssr:stedsnr" v="411870" />
	</node>
	<node id="-921150" lat="64.6591999976" lon="11.1603972226">
		<tag k="name" v="Hovsodden" />
		<tag k="natural" v="cape" />
		<tag k="ssr:stedsnr" v="681999" />
	</node>
	<node id="-921142" lat="64.6731638923" lon="11.1996611029">
		<tag k="name" v="Osen" />
		<tag k="natural" v="bay" />
		<tag k="ssr:stedsnr" v="411871" />
	</node>
	<node id="-921136" lat="64.7009083371" lon="11.4062999987">
		<tag k="name" v="Brødholmen" />
		<tag k="natural" v="cape" />
		<tag k="ssr:stedsnr" v="136293" />
	</node>
	<node id="-921132" lat="64.6377055582" lon="11.2344472198">
		<tag k="name" v="Krokvikmodden" />
		<tag k="natural" v="cape" />
		<tag k="ssr:stedsnr" v="593008" />
	</node>
	<node id="-921131" lat="64.654230551" lon="11.3564777856">
		<tag k="fixme" v="consider seamark:type=rock or natural=shoal" />
		<tag k="name" v="Frendalskjæret" />
		<tag k="place" v="islet" />
		<tag k="ssr:stedsnr" v="108918" />
	</node>
	<node id="-921130" lat="64.6140361124" lon="11.3397555602">
		<tag k="name" v="Franshammaren" />
		<tag k="natural" v="cape" />
		<tag k="ssr:stedsnr" v="318506" />
	</node>
	<node id="-921126" lat="64.636733333" lon="11.3730055649">
		<tag k="name" v="Jektvika" />
		<tag k="natural" v="bay" />
		<tag k="ssr:stedsnr" v="257478" />
	</node>
	<node id="-921124" lat="64.72159444" lon="11.4805611182">
		<tag k="name" v="Sørbekkøyra" />
		<tag k="natural" v="beach" />
		<tag k="place" v="locality" />
		<tag k="ssr:stedsnr" v="778360" />
	</node>
	<node id="-921122" lat="64.7117250019" lon="10.9691861161">
		<tag k="name" v="Odfallet" />
		<tag k="natural" v="shoal" />
		<tag k="place" v="locality" />
		<tag k="ssr:stedsnr" v="573292" />
	</node>
	<node id="-921118" lat="64.6004027805" lon="11.3041944429">
		<tag k="name" v="Storholmen" />
		<tag k="place" v="islet" />
		<tag k="ssr:stedsnr" v="135473" />
	</node>
	<node id="-921115" lat="64.6487333291" lon="11.4062972116">
		<tag k="name" v="Djupvika" />
		<tag k="natural" v="bay" />
		<tag k="ssr:stedsnr" v="168273" />
	</node>
	<node id="-921113" lat="64.7096305539" lon="11.4182333359">
		<tag k="name" v="Kuppelvika" />
		<tag k="natural" v="bay" />
		<tag k="ssr:stedsnr" v="104322" />
	</node>
	<node id="-921111" lat="64.6847777791" lon="11.2083305558">
		<tag k="name" v="Måsøyflauget" />
		<tag k="natural" v="cape" />
		<tag k="ssr:stedsnr" v="411848" />
	</node>
	<node id="-921110" lat="64.6484444443" lon="11.4086972321">
		<tag k="name" v="Dalavika" />
		<tag k="natural" v="bay" />
		<tag k="ssr:stedsnr" v="532252" />
	</node>
	<node id="-921105" lat="64.6743583321" lon="11.1367055454">
		<tag k="fixme" v="consider seamark:type=rock or natural=shoal" />
		<tag k="name" v="Tårnskjæra" />
		<tag k="place" v="islet" />
		<tag k="ssr:stedsnr" v="836414" />
	</node>
	<node id="-921104" lat="64.6032916668" lon="11.3261305617">
		<tag k="name" v="Biskopen" />
		<tag k="natural" v="cape" />
		<tag k="ssr:stedsnr" v="229610" />
	</node>
	<node id="-921102" lat="64.711336112" lon="11.4056083317">
		<tag k="name" v="Storhauet" />
		<tag k="natural" v="cape" />
		<tag k="ssr:stedsnr" v="75268" />
	</node>
	<node id="-921099" lat="64.5900499959" lon="11.4649222138">
		<tag k="name" v="Årbustraumen" />
		<tag k="natural" v="strait" />
		<tag k="ssr:stedsnr" v="500061" />
	</node>
	<node id="-921092" lat="64.7329694426" lon="11.8226166651">
		<tag k="name" v="Lomholmen" />
		<tag k="place" v="islet" />
		<tag k="ssr:stedsnr" v="171037" />
	</node>
	<node id="-921090" lat="64.6490249995" lon="11.1714499982">
		<tag k="name" v="Storsteinvika" />
		<tag k="natural" v="bay" />
		<tag k="ssr:stedsnr" v="287475" />
	</node>
	<node id="-921082" lat="64.636569441" lon="11.2410777878">
		<tag k="name" v="Bårdvikbukta" />
		<tag k="natural" v="bay" />
		<tag k="ssr:stedsnr" v="472002" />
	</node>
	<node id="-921080" lat="64.6516138911" lon="11.1753416602">
		<tag k="fixme" v="consider seamark:type=rock or natural=shoal" />
		<tag k="name" v="Langskjæret" />
		<tag k="place" v="islet" />
		<tag k="ssr:stedsnr" v="287472" />
	</node>
	<node id="-921062" lat="64.6442694477" lon="11.4005694394">
		<tag k="alt_name" v="Kjelnesset" />
		<tag k="name" v="Kjelneset" />
		<tag k="natural" v="cape" />
		<tag k="ssr:stedsnr" v="257470" />
	</node>
	<node id="-921051" lat="64.6417444424" lon="11.1704083366">
		<tag k="fixme" v="consider seamark:type=rock or natural=shoal" />
		<tag k="name" v="Naustskjæret" />
		<tag k="place" v="islet" />
		<tag k="ssr:stedsnr" v="653386" />
	</node>
	<node id="-921048" lat="64.6128888858" lon="11.2775833318">
		<tag k="name" v="Grautvika" />
		<tag k="natural" v="bay" />
		<tag k="ssr:stedsnr" v="14409" />
	</node>
	<node id="-921047" lat="64.7219694412" lon="11.658063891">
		<tag k="name" v="Hommelvika" />
		<tag k="natural" v="bay" />
		<tag k="ssr:stedsnr" v="560296" />
	</node>
	<node id="-921043" lat="64.6831972228" lon="11.2144805524">
		<tag k="name" v="Måsøyvalen" />
		<tag k="place" v="locality" />
		<tag k="ssr:stedsnr" v="411844" />
	</node>
	<node id="-921041" lat="64.6105444479" lon="11.2887416589">
		<tag k="name" v="Oksskardvika" />
		<tag k="natural" v="bay" />
		<tag k="ssr:stedsnr" v="742456" />
	</node>
	<node id="-921034" lat="64.604713887" lon="11.442999999">
		<tag k="name" v="Bonstranda" />
		<tag k="natural" v="beach" />
		<tag k="place" v="locality" />
		<tag k="ssr:stedsnr" v="378456" />
	</node>
	<node id="-921029" lat="64.6242055589" lon="11.2669305542">
		<tag k="name" v="Aunavika" />
		<tag k="natural" v="bay" />
		<tag k="ssr:stedsnr" v="108894" />
	</node>
	<node id="-921028" lat="64.687413893" lon="11.4268222171">
		<tag k="name" v="Moaholmen" />
		<tag k="place" v="islet" />
		<tag k="ssr:stedsnr" v="165345" />
	</node>
	<node id="-921021" lat="64.6677500006" lon="11.1720944409">
		<tag k="name" v="Aunaodden" />
		<tag k="natural" v="cape" />
		<tag k="ssr:stedsnr" v="590466" />
	</node>
	<node id="-921020" lat="64.6887138885" lon="11.4282083285">
		<tag k="name" v="Moholman" />
		<tag k="place" v="islet" />
		<tag k="ssr:stedsnr" v="756321" />
	</node>
	<node id="-921017" lat="64.6587249998" lon="11.1553666572">
		<tag k="name" v="Oksholmen" />
		<tag k="place" v="islet" />
		<tag k="ssr:stedsnr" v="411438" />
	</node>
	<node id="-921010" lat="64.6671277762" lon="11.1609694499">
		<tag k="name" v="Bremsundholman" />
		<tag k="place" v="islet" />
		<tag k="ssr:stedsnr" v="378998" />
	</node>
	<node id="-921003" lat="64.6914138913" lon="11.3252249905">
		<tag k="name" v="Kjerringvika" />
		<tag k="natural" v="bay" />
		<tag k="ssr:stedsnr" v="500317" />
	</node>
	<node id="-920992" lat="64.6898361131" lon="11.3100749982">
		<tag k="name" v="Steinvika" />
		<tag k="natural" v="beach" />
		<tag k="place" v="locality" />
		<tag k="ssr:stedsnr" v="593776" />
	</node>
	<node id="-920991" lat="64.6891388853" lon="11.2673111176">
		<tag k="name" v="Skanken" />
		<tag k="natural" v="cape" />
		<tag k="ssr:stedsnr" v="714845" />
	</node>
	<node id="-920987" lat="64.6607527755" lon="11.1606527771">
		<tag k="name" v="Ausavinsholet" />
		<tag k="natural" v="bay" />
		<tag k="ssr:stedsnr" v="714426" />
	</node>
	<node id="-920986" lat="64.6367833344" lon="11.1705583422">
		<tag k="name" v="Teigbergvika" />
		<tag k="natural" v="bay" />
		<tag k="ssr:stedsnr" v="290363" />
	</node>
	<node id="-920975" lat="64.6390805566" lon="11.2438444514">
		<tag k="name" v="Blikket" />
		<tag k="natural" v="bay" />
		<tag k="ssr:stedsnr" v="957003" />
	</node>
	<node id="-920968" lat="64.6383499962" lon="11.2396888969">
		<tag k="name" v="Stongvikodden" />
		<tag k="natural" v="cape" />
		<tag k="ssr:stedsnr" v="957004" />
	</node>
	<node id="-920966" lat="64.7113916687" lon="11.4117777871">
		<tag k="name" v="Grønnstranda" />
		<tag k="natural" v="beach" />
		<tag k="place" v="locality" />
		<tag k="ssr:stedsnr" v="44315" />
	</node>
	<node id="-920965" lat="64.6353916666" lon="11.4167527675">
		<tag k="name" v="Brannodden" />
		<tag k="natural" v="cape" />
		<tag k="ssr:stedsnr" v="168245" />
	</node>
	<node id="-920946" lat="64.5952638899" lon="11.3169277697">
		<tag k="alt_name" v="Holviknesset" />
		<tag k="name" v="Holvikneset" />
		<tag k="natural" v="cape" />
		<tag k="ssr:stedsnr" v="135447" />
	</node>
	<node id="-920945" lat="64.708888892" lon="11.4056527773">
		<tag k="name" v="Karvstranda" />
		<tag k="natural" v="beach" />
		<tag k="place" v="locality" />
		<tag k="ssr:stedsnr" v="165321" />
	</node>
	<node id="-920942" lat="64.7090416628" lon="11.0131416622">
		<tag k="name" v="Litlbårflesa" />
		<tag k="place" v="islet" />
		<tag k="ssr:stedsnr" v="681966" />
	</node>
	<node id="-920936" lat="64.6009166692" lon="11.3675805569">
		<tag k="name" v="Storengøyra" />
		<tag k="natural" v="shoal" />
		<tag k="place" v="locality" />
		<tag k="ssr:stedsnr" v="229573" />
	</node>
	<node id="-920935" lat="64.595963886" lon="11.312788894">
		<tag k="name" v="Vognkistvika" />
		<tag k="natural" v="bay" />
		<tag k="ssr:stedsnr" v="108872" />
	</node>
	<node id="-920934" lat="64.669049997" lon="11.1753194475">
		<tag k="name" v="Varpvika" />
		<tag k="natural" v="bay" />
		<tag k="ssr:stedsnr" v="411406" />
	</node>
	<node id="-920929" lat="64.6204555556" lon="11.4185444502">
		<tag k="name" v="Djupvikodden" />
		<tag k="natural" v="cape" />
		<tag k="ssr:stedsnr" v="228739" />
	</node>
	<node id="-920922" lat="64.6925500013" lon="11.2617444442">
		<tag k="alt_name" v="Fosnes-Nordøya" />
		<tag k="name" v="Nordøya" />
		<tag k="place" v="islet" />
		<tag k="ssr:stedsnr" v="379265" />
	</node>
	<node id="-920914" lat="64.5991443901" lon="11.3540131952">
		<tag k="name" v="Vedøya" />
		<tag k="place" v="island" />
		<tag k="ssr:stedsnr" v="75515" />
	</node>
	<node id="-920913" lat="64.6982240222" lon="10.9976593501">
		<tag k="fixme" v="consider seamark:type=rock or natural=shoal" />
		<tag k="name" v="Moflesa" />
		<tag k="place" v="islet" />
		<tag k="ssr:stedsnr" v="135970" />
	</node>
	<node id="-920910" lat="64.6022777784" lon="11.2924416583">
		<tag k="name" v="Holviktaren" />
		<tag k="natural" v="shoal" />
		<tag k="place" v="locality" />
		<tag k="ssr:stedsnr" v="210998" />
	</node>
	<node id="-920907" lat="64.6895500007" lon="11.302811104">
		<tag k="name" v="Kuholmen" />
		<tag k="place" v="islet" />
		<tag k="ssr:stedsnr" v="379264" />
	</node>
	<node id="-920896" lat="64.6837472257" lon="11.2271027696">
		<tag k="name" v="Brakstadsundet" />
		<tag k="natural" v="strait" />
		<tag k="ssr:stedsnr" v="257989" />
	</node>
	<node id="-920894" lat="64.6232166667" lon="11.4003222289">
		<tag k="name" v="Stakkvika" />
		<tag k="natural" v="bay" />
		<tag k="ssr:stedsnr" v="378422" />
	</node>
	<node id="-920890" lat="64.6745166643" lon="11.1688527675">
		<tag k="name" v="Grønnøya" />
		<tag k="place" v="islet" />
		<tag k="ssr:stedsnr" v="257990" />
	</node>
	<node id="-920889" lat="64.699905554" lon="11.4226805652">
		<tag k="alt_name" v="Naustnesset" />
		<tag k="name" v="Naustneset" />
		<tag k="natural" v="cape" />
		<tag k="ssr:stedsnr" v="560267" />
	</node>
	<node id="-920888" lat="64.6179000022" lon="11.4099777826">
		<tag k="name" v="Slåttarvika" />
		<tag k="natural" v="bay" />
		<tag k="ssr:stedsnr" v="378419" />
	</node>
	<node id="-920887" lat="64.7108527817" lon="11.4344138992">
		<tag k="name" v="Nordsjøkåren" />
		<tag k="natural" v="beach" />
		<tag k="place" v="locality" />
		<tag k="ssr:stedsnr" v="712298" />
	</node>
	<node id="-920882" lat="64.6666166644" lon="11.155722221">
		<tag k="fixme" v="consider seamark:type=rock or natural=shoal" />
		<tag k="name" v="Svartrevillen" />
		<tag k="place" v="islet" />
		<tag k="ssr:stedsnr" v="108442" />
	</node>
	<node id="-920878" lat="64.6738354886" lon="11.1479240949">
		<tag k="fixme" v="consider seamark:type=rock or natural=shoal" />
		<tag k="name" v="Langskjæret" />
		<tag k="place" v="islet" />
		<tag k="ssr:stedsnr" v="803987" />
	</node>
	<node id="-920869" lat="64.6020861067" lon="11.3691333304">
		<tag k="name" v="Engan" />
		<tag k="natural" v="beach" />
		<tag k="place" v="locality" />
		<tag k="ssr:stedsnr" v="229555" />
	</node>
	<node id="-920867" lat="64.699808336" lon="11.4257166656">
		<tag k="name" v="Sørsjøen" />
		<tag k="natural" v="bay" />
		<tag k="ssr:stedsnr" v="894357" />
	</node>
	<node id="-920865" lat="64.6348333376" lon="11.3936083377">
		<tag k="name" v="Gullbergtaren" />
		<tag k="natural" v="shoal" />
		<tag k="place" v="locality" />
		<tag k="ssr:stedsnr" v="634354" />
	</node>
	<node id="-920861" lat="64.7338638849" lon="11.8106666706">
		<tag k="name" v="Bergholmen" />
		<tag k="place" v="islet" />
		<tag k="ssr:stedsnr" v="596039" />
	</node>
	<node id="-920859" lat="64.6340249984" lon="11.2084250022">
		<tag k="name" v="Kroknessbanken" />
		<tag k="natural" v="cape" />
		<tag k="ssr:stedsnr" v="350179" />
	</node>
	<node id="-920856" lat="64.6488916682" lon="11.4013000011">
		<tag k="name" v="Ospvika" />
		<tag k="natural" v="bay" />
		<tag k="ssr:stedsnr" v="897266" />
	</node>
	<node id="-920855" lat="64.6724500006" lon="11.1360749972">
		<tag k="fixme" v="consider seamark:type=rock or natural=shoal" />
		<tag k="name" v="Tårnet" />
		<tag k="place" v="islet" />
		<tag k="ssr:stedsnr" v="439995" />
	</node>
	<node id="-920852" lat="64.6511611112" lon="11.1677805521">
		<tag k="fixme" v="consider seamark:type=rock or natural=shoal" />
		<tag k="name" v="Storskjæret" />
		<tag k="place" v="islet" />
		<tag k="ssr:stedsnr" v="196487" />
	</node>
	<node id="-920840" lat="64.6830750021" lon="11.2092083375">
		<tag k="name" v="Måsøya" />
		<tag k="place" v="island" />
		<tag k="ssr:stedsnr" v="257982" />
	</node>
	<node id="-920834" lat="64.6858361105" lon="11.3962305649">
		<tag k="name" v="Galtnessvika" />
		<tag k="natural" v="bay" />
		<tag k="ssr:stedsnr" v="955320" />
	</node>
	<node id="-920824" lat="64.6889194443" lon="11.4128944437">
		<tag k="alt_name" v="Movika" />
		<tag k="name" v="Mosvika" />
		<tag k="natural" v="bay" />
		<tag k="ssr:stedsnr" v="878361" />
	</node>
	<node id="-920823" lat="64.6978305528" lon="11.0085361015">
		<tag k="fixme" v="consider seamark:type=rock or natural=shoal" />
		<tag k="name" v="Storbranden" />
		<tag k="place" v="islet" />
		<tag k="ssr:stedsnr" v="378975" />
	</node>
	<node id="-920813" lat="64.6335472185" lon="11.3980138911">
		<tag k="name" v="Gullbergvika" />
		<tag k="natural" v="bay" />
		<tag k="ssr:stedsnr" v="15472" />
	</node>
	<node id="-920810" lat="64.6836083333" lon="11.3967194515">
		<tag k="name" v="Ospvika" />
		<tag k="natural" v="bay" />
		<tag k="ssr:stedsnr" v="712305" />
	</node>
	<node id="-920807" lat="64.7698867476" lon="11.5678739867">
		<tag k="bay" v="fjord" />
		<tag k="name" v="Folda" />
		<tag k="natural" v="bay" />
		<tag k="ssr:stedsnr" v="803978" />
	</node>
	<node id="-920802" lat="64.6204472223" lon="11.3466194423">
		<tag k="name" v="Seivika" />
		<tag k="natural" v="bay" />
		<tag k="ssr:stedsnr" v="654528" />
	</node>
	<node id="-920800" lat="64.6439805528" lon="11.1720138837">
		<tag k="name" v="Storvika" />
		<tag k="natural" v="cape" />
		<tag k="ssr:stedsnr" v="411370" />
	</node>
	<node id="-920796" lat="64.6863861123" lon="11.2293944469">
		<tag k="name" v="Skogøyvalen" />
		<tag k="place" v="locality" />
		<tag k="ssr:stedsnr" v="108835" />
	</node>
	<node id="-920795" lat="64.6221944461" lon="11.4208194494">
		<tag k="name" v="Djupvika" />
		<tag k="natural" v="bay" />
		<tag k="ssr:stedsnr" v="621421" />
	</node>
	<node id="-920792" lat="64.602588885" lon="11.3243805641">
		<tag k="name" v="Biskopvika" />
		<tag k="natural" v="bay" />
		<tag k="ssr:stedsnr" v="350581" />
	</node>
	<node id="-920784" lat="64.6352333377" lon="11.1847111056">
		<tag k="name" v="Øyra" />
		<tag k="natural" v="beach" />
		<tag k="place" v="locality" />
		<tag k="ssr:stedsnr" v="957384" />
	</node>
	<node id="-920781" lat="64.6356305522" lon="11.2064666566">
		<tag k="name" v="Kroknesset" />
		<tag k="natural" v="cape" />
		<tag k="ssr:stedsnr" v="168187" />
	</node>
	<node id="-920771" lat="64.6375416685" lon="11.1684583275">
		<tag k="name" v="Finsandvika" />
		<tag k="natural" v="bay" />
		<tag k="ssr:stedsnr" v="411371" />
	</node>
	<node id="-920759" lat="64.7159916671" lon="11.0247250042">
		<tag k="name" v="Småstabban" />
		<tag k="place" v="locality" />
		<tag k="seamark:type" v="rock" />
		<tag k="ssr:stedsnr" v="803974" />
	</node>
	<node id="-920757" lat="64.6818638902" lon="11.4174250015">
		<tag k="name" v="Hestvika" />
		<tag k="natural" v="bay" />
		<tag k="ssr:stedsnr" v="924313" />
	</node>
	<node id="-920755" lat="64.6451583361" lon="11.4018138968">
		<tag k="name" v="Inner Kjelnessodden" />
		<tag k="natural" v="cape" />
		<tag k="ssr:stedsnr" v="897242" />
	</node>
	<node id="-920749" lat="64.6221666701" lon="11.3923555506">
		<tag k="name" v="Steinvika" />
		<tag k="natural" v="bay" />
		<tag k="ssr:stedsnr" v="897649" />
	</node>
	<node id="-920748" lat="64.626652778" lon="11.3755944385">
		<tag k="name" v="Inner Eistnessbukta" />
		<tag k="natural" v="bay" />
		<tag k="ssr:stedsnr" v="229519" />
	</node>
	<node id="-920740" lat="64.5984277735" lon="11.3224249982">
		<tag k="alt_name" v="Nessaflauga" />
		<tag k="name" v="Nesaflauga" />
		<tag k="natural" v="cape" />
		<tag k="ssr:stedsnr" v="75485" />
	</node>
	<node id="-920738" lat="64.6799472207" lon="11.3155388902">
		<tag k="name" v="Lornstranda" />
		<tag k="natural" v="beach" />
		<tag k="place" v="locality" />
		<tag k="ssr:stedsnr" v="108822" />
	</node>
	<node id="-920733" lat="64.6472388864" lon="11.1652694414">
		<tag k="name" v="Gottoholvika" />
		<tag k="natural" v="bay" />
		<tag k="ssr:stedsnr" v="227439" />
	</node>
	<node id="-920724" lat="64.6525166671" lon="11.3546611026">
		<tag k="name" v="Jekthammarodden" />
		<tag k="natural" v="cape" />
		<tag k="ssr:stedsnr" v="229911" />
	</node>
	<node id="-920722" lat="64.6404916632" lon="11.1808888935">
		<tag k="name" v="Sandskinka" />
		<tag k="natural" v="beach" />
		<tag k="place" v="locality" />
		<tag k="ssr:stedsnr" v="957386" />
	</node>
	<node id="-920718" lat="64.6775666692" lon="11.1516111056">
		<tag k="fixme" v="consider seamark:type=rock or natural=shoal" />
		<tag k="name" v="Svartskjæret" />
		<tag k="place" v="islet" />
		<tag k="ssr:stedsnr" v="439981" />
	</node>
	<node id="-920717" lat="64.6735611124" lon="11.1930277839">
		<tag k="name" v="Litlryggen" />
		<tag k="place" v="islet" />
		<tag k="ssr:stedsnr" v="532162" />
	</node>
	<node id="-920715" lat="64.595936114" lon="11.3520500014">
		<tag k="name" v="Vesterbukta" />
		<tag k="natural" v="bay" />
		<tag k="ssr:stedsnr" v="47567" />
	</node>
	<node id="-920714" lat="64.6849416657" lon="11.2022305524">
		<tag k="name" v="Måskjærgrunnen" />
		<tag k="natural" v="shoal" />
		<tag k="place" v="locality" />
		<tag k="ssr:stedsnr" v="210949" />
	</node>
	<node id="-920700" lat="64.6628916707" lon="11.1888027815">
		<tag k="name" v="Nessabukta" />
		<tag k="natural" v="bay" />
		<tag k="ssr:stedsnr" v="532142" />
	</node>
	<node id="-920698" lat="64.6018083338" lon="11.3226500099">
		<tag k="name" v="Biskopvikstranda" />
		<tag k="natural" v="beach" />
		<tag k="place" v="locality" />
		<tag k="ssr:stedsnr" v="196457" />
	</node>
	<node id="-920696" lat="64.6133527745" lon="11.4277027842">
		<tag k="name" v="Breksillholmen" />
		<tag k="natural" v="cape" />
		<tag k="ssr:stedsnr" v="349724" />
	</node>
	<node id="-920692" lat="64.6018861101" lon="11.336247224">
		<tag k="name" v="Biskoptaren" />
		<tag k="natural" v="shoal" />
		<tag k="place" v="locality" />
		<tag k="ssr:stedsnr" v="513999" />
	</node>
	<node id="-920688" lat="64.6303166682" lon="11.2295083395">
		<tag k="name" v="Engesnesodden" />
		<tag k="natural" v="cape" />
		<tag k="ssr:stedsnr" v="14354" />
	</node>
	<node id="-920682" lat="64.6229861112" lon="11.3756305486">
		<tag k="name" v="Teltodden" />
		<tag k="natural" v="cape" />
		<tag k="ssr:stedsnr" v="47555" />
	</node>
	<node id="-920679" lat="64.6684388925" lon="11.2002388996">
		<tag k="name" v="Brakstadvågen" />
		<tag k="natural" v="bay" />
		<tag k="ssr:stedsnr" v="75998" />
	</node>
	<node id="-920678" lat="64.6666444402" lon="11.1958194387">
		<tag k="name" v="Jævelvika" />
		<tag k="natural" v="bay" />
		<tag k="ssr:stedsnr" v="532144" />
	</node>
	<node id="-920675" lat="64.6282694404" lon="11.3483055553">
		<tag k="name" v="Bergemsholmen" />
		<tag k="place" v="islet" />
		<tag k="ssr:stedsnr" v="621402" />
	</node>
	<node id="-920673" lat="64.5951888892" lon="11.4495249951">
		<tag k="name" v="Årbuholmen" />
		<tag k="place" v="islet" />
		<tag k="ssr:stedsnr" v="864502" />
	</node>
	<node id="-920668" lat="64.6284194448" lon="11.3801694415">
		<tag k="alt_name" v="Eistnesset" />
		<tag k="name" v="Eistneset" />
		<tag k="natural" v="cape" />
		<tag k="ssr:stedsnr" v="621401" />
	</node>
	<node id="-920652" lat="64.6391972196" lon="11.3611444465">
		<tag k="name" v="Ølhammaren" />
		<tag k="natural" v="cape" />
		<tag k="old_name" v="Ølhammeren" />
		<tag k="ssr:stedsnr" v="318435" />
	</node>
	<node id="-920648" lat="64.6846999973" lon="11.2787666608">
		<tag k="name" v="Johalsen" />
		<tag k="natural" v="beach" />
		<tag k="place" v="locality" />
		<tag k="ssr:stedsnr" v="108798" />
	</node>
	<node id="-920645" lat="64.6502722236" lon="11.1620944541">
		<tag k="fixme" v="consider seamark:type=rock or natural=shoal" />
		<tag k="name" v="Litlstonga" />
		<tag k="place" v="islet" />
		<tag k="ssr:stedsnr" v="105450" />
	</node>
	<node id="-920640" lat="64.6147555543" lon="11.4269888901">
		<tag k="name" v="Saltbuvalen" />
		<tag k="natural" v="beach" />
		<tag k="place" v="locality" />
		<tag k="ssr:stedsnr" v="349727" />
	</node>
	<node id="-920638" lat="64.6152222252" lon="11.3826944408">
		<tag k="name" v="Inner Markvalen" />
		<tag k="natural" v="shoal" />
		<tag k="place" v="locality" />
		<tag k="ssr:stedsnr" v="47549" />
	</node>
	<node id="-920633" lat="64.6390944485" lon="11.165805553">
		<tag k="name" v="Langnessvika" />
		<tag k="natural" v="bay" />
		<tag k="ssr:stedsnr" v="108396" />
	</node>
	<node id="-920632" lat="64.6049972262" lon="11.3702666587">
		<tag k="name" v="Litlengbuodden" />
		<tag k="natural" v="cape" />
		<tag k="ssr:stedsnr" v="775533" />
	</node>
	<node id="-920611" lat="64.6338583379" lon="11.3794055496">
		<tag k="name" v="Eistnessholmen" />
		<tag k="place" v="islet" />
		<tag k="ssr:stedsnr" v="654915" />
	</node>
	<node id="-920610" lat="64.6757833291" lon="11.1583250082">
		<tag k="fixme" v="consider seamark:type=rock or natural=shoal" />
		<tag k="name" v="Singsskjæret" />
		<tag k="place" v="islet" />
		<tag k="ssr:stedsnr" v="499987" />
	</node>
	<node id="-920595" lat="64.6446694403" lon="11.4058194449">
		<tag k="name" v="Kjelbotnet" />
		<tag k="natural" v="strait" />
		<tag k="ssr:stedsnr" v="682460" />
	</node>
	<node id="-920594" lat="64.6800444411" lon="11.3267055625">
		<tag k="fixme" v="consider seamark:type=rock or natural=shoal" />
		<tag k="name" v="Rømdallskjæret" />
		<tag k="place" v="islet" />
		<tag k="ssr:stedsnr" v="775953" />
	</node>
	<node id="-920593" lat="64.6800111117" lon="11.3457472308">
		<tag k="name" v="Litl-Moldvika" />
		<tag k="natural" v="bay" />
		<tag k="ssr:stedsnr" v="47947" />
	</node>
	<node id="-920585" lat="64.6149000043" lon="11.3484500053">
		<tag k="name" v="Storvikgrunnen" />
		<tag k="natural" v="shoal" />
		<tag k="place" v="locality" />
		<tag k="ssr:stedsnr" v="513995" />
	</node>
	<node id="-920584" lat="64.6951722238" lon="11.3725638887">
		<tag k="name" v="Østgrunnen" />
		<tag k="natural" v="shoal" />
		<tag k="place" v="locality" />
		<tag k="ssr:stedsnr" v="331960" />
	</node>
	<node id="-920583" lat="64.6561666683" lon="11.1739527767">
		<tag k="name" v="Rakkavikodden" />
		<tag k="natural" v="cape" />
		<tag k="ssr:stedsnr" v="530478" />
	</node>
	<node id="-920578" lat="64.6111979428" lon="11.4291175708">
		<tag k="name" v="Rundholmen" />
		<tag k="place" v="islet" />
		<tag k="ssr:stedsnr" v="196445" />
	</node>
	<node id="-920577" lat="64.6098833293" lon="11.3728166634">
		<tag k="name" v="Buvika" />
		<tag k="natural" v="bay" />
		<tag k="ssr:stedsnr" v="196444" />
	</node>
	<node id="-920572" lat="64.5941777811" lon="11.353930552">
		<tag k="name" v="Sørodden" />
		<tag k="natural" v="cape" />
		<tag k="ssr:stedsnr" v="775544" />
	</node>
	<node id="-920571" lat="64.6016305567" lon="11.2976111089">
		<tag k="name" v="Holvikholman" />
		<tag k="place" v="islet" />
		<tag k="ssr:stedsnr" v="513998" />
	</node>
	<node id="-920570" lat="64.6046388847" lon="11.2961888948">
		<tag k="name" v="Holvikbukta" />
		<tag k="natural" v="bay" />
		<tag k="ssr:stedsnr" v="560507" />
	</node>
	<node id="-920565" lat="64.6676555535" lon="11.1886749985">
		<tag k="name" v="Hamnvika" />
		<tag k="natural" v="bay" />
		<tag k="ssr:stedsnr" v="532140" />
	</node>
	<node id="-920564" lat="64.622680557" lon="11.3803777733">
		<tag k="bay" v="fjord" />
		<tag k="name" v="Nufsfjorden" />
		<tag k="natural" v="bay" />
		<tag k="ssr:stedsnr" v="135392" />
	</node>
	<node id="-920562" lat="64.6093611097" lon="11.336472215">
		<tag k="name" v="Skjærviktaren" />
		<tag k="natural" v="shoal" />
		<tag k="place" v="locality" />
		<tag k="ssr:stedsnr" v="28998" />
	</node>
	<node id="-920561" lat="64.6915138895" lon="11.4123277867">
		<tag k="name" v="Smørgrunnen" />
		<tag k="natural" v="shoal" />
		<tag k="place" v="locality" />
		<tag k="ssr:stedsnr" v="938327" />
	</node>
	<node id="-920560" lat="64.712094448" lon="11.0413499962">
		<tag k="name" v="Edøyslua" />
		<tag k="natural" v="shoal" />
		<tag k="place" v="locality" />
		<tag k="ssr:stedsnr" v="695324" />
	</node>
	<node id="-920559" lat="64.6601583368" lon="11.1557444401">
		<tag k="name" v="Nordodden" />
		<tag k="natural" v="cape" />
		<tag k="ssr:stedsnr" v="348437" />
	</node>
	<node id="-920556" lat="64.6555166709" lon="11.3557138915">
		<tag k="name" v="Frendalbukta" />
		<tag k="natural" v="bay" />
		<tag k="ssr:stedsnr" v="775915" />
	</node>
	<node id="-920550" lat="64.7190638917" lon="11.0363916665">
		<tag k="name" v="Storbårflesa" />
		<tag k="place" v="islet" />
		<tag k="ssr:stedsnr" v="75983" />
	</node>
	<node id="-920549" lat="64.7007944423" lon="10.9954499909">
		<tag k="fixme" v="consider seamark:type=rock or natural=shoal" />
		<tag k="name" v="Langskjæret" />
		<tag k="place" v="islet" />
		<tag k="ssr:stedsnr" v="499980" />
	</node>
	<node id="-920544" lat="64.6325194439" lon="11.2552416577">
		<tag k="name" v="Perevika" />
		<tag k="natural" v="bay" />
		<tag k="ssr:stedsnr" v="229882" />
	</node>
	<node id="-920540" lat="64.6201361144" lon="11.2676444391">
		<tag k="name" v="Olavikodden" />
		<tag k="natural" v="cape" />
		<tag k="ssr:stedsnr" v="682434" />
	</node>
	<node id="-920536" lat="64.6270638897" lon="11.3621583253">
		<tag k="name" v="Aurevika" />
		<tag k="natural" v="bay" />
		<tag k="ssr:stedsnr" v="532542" />
	</node>
	<node id="-920531" lat="64.5912944422" lon="11.4604805509">
		<tag k="name" v="Årbusteinen" />
		<tag k="natural" v="shoal" />
		<tag k="place" v="locality" />
		<tag k="ssr:stedsnr" v="692344" />
	</node>
	<node id="-920530" lat="64.6656416679" lon="11.1634972317">
		<tag k="name" v="Sør Bremsundholmen" />
		<tag k="place" v="islet" />
		<tag k="ssr:stedsnr" v="471452" />
	</node>
	<node id="-920528" lat="64.6460722232" lon="11.1653750086">
		<tag k="name" v="Matmorskjærvika" />
		<tag k="natural" v="bay" />
		<tag k="ssr:stedsnr" v="530464" />
	</node>
	<node id="-920526" lat="64.6008694421" lon="11.3621500054">
		<tag k="name" v="Nordøyra" />
		<tag k="natural" v="shoal" />
		<tag k="place" v="locality" />
		<tag k="ssr:stedsnr" v="350541" />
	</node>
	<node id="-920517" lat="64.6016777769" lon="11.3539388836">
		<tag k="name" v="Kjelvika" />
		<tag k="natural" v="bay" />
		<tag k="ssr:stedsnr" v="350536" />
	</node>
	<node id="-920515" lat="64.6046888863" lon="11.3295638807">
		<tag k="name" v="Hestvikodden" />
		<tag k="natural" v="cape" />
		<tag k="ssr:stedsnr" v="864212" />
	</node>
	<node id="-920514" lat="64.5991388897" lon="11.3602499994">
		<tag k="name" v="Vedøybukta" />
		<tag k="natural" v="bay" />
		<tag k="ssr:stedsnr" v="350535" />
	</node>
	<node id="-920505" lat="64.6074416695" lon="11.3709111142">
		<tag k="name" v="Lobuktodden" />
		<tag k="natural" v="cape" />
		<tag k="ssr:stedsnr" v="775529" />
	</node>
	<node id="-920502" lat="64.6146694444" lon="11.436611117">
		<tag k="name" v="Breksillvågen" />
		<tag k="natural" v="bay" />
		<tag k="ssr:stedsnr" v="682445" />
	</node>
	<node id="-920500" lat="64.6288916701" lon="11.3766305517">
		<tag k="name" v="Ytter Eistnessbukta" />
		<tag k="natural" v="bay" />
		<tag k="ssr:stedsnr" v="47520" />
	</node>
	<node id="-920497" lat="64.6510861113" lon="11.1810472215">
		<tag k="name" v="Heimervika" />
		<tag k="natural" v="bay" />
		<tag k="ssr:stedsnr" v="348424" />
	</node>
	<node id="-920486" lat="64.6814916688" lon="11.3215222234">
		<tag k="name" v="Litlgrunnen" />
		<tag k="natural" v="shoal" />
		<tag k="place" v="locality" />
		<tag k="ssr:stedsnr" v="350936" />
	</node>
	<node id="-920483" lat="64.7120083332" lon="11.0340166764">
		<tag k="name" v="Dragstindsluin" />
		<tag k="natural" v="shoal" />
		<tag k="place" v="locality" />
		<tag k="ssr:stedsnr" v="27322" />
	</node>
	<node id="-920474" lat="64.7266444451" lon="11.5085055535">
		<tag k="name" v="Nordbekkøyra" />
		<tag k="natural" v="cape" />
		<tag k="ssr:stedsnr" v="925355" />
	</node>
	<node id="-920472" lat="64.7227694432" lon="11.4926361081">
		<tag k="name" v="Saltkjeløyra" />
		<tag k="natural" v="beach" />
		<tag k="place" v="locality" />
		<tag k="ssr:stedsnr" v="839386" />
	</node>
	<node id="-920471" lat="64.6895666686" lon="11.250305566">
		<tag k="name" v="Nordøysundet" />
		<tag k="natural" v="strait" />
		<tag k="ssr:stedsnr" v="229862" />
	</node>
	<node id="-920467" lat="64.6092500047" lon="11.3993416573">
		<tag k="name" v="Busalten" />
		<tag k="natural" v="bay" />
		<tag k="ssr:stedsnr" v="560486" />
	</node>
	<node id="-920464" lat="64.6506138879" lon="11.1527055498">
		<tag k="fixme" v="consider seamark:type=rock or natural=shoal" />
		<tag k="name" v="Stonga" />
		<tag k="place" v="islet" />
		<tag k="ssr:stedsnr" v="530458" />
	</node>
	<node id="-920463" lat="64.6577361123" lon="11.1727083389">
		<tag k="name" v="Rakkavika" />
		<tag k="natural" v="bay" />
		<tag k="ssr:stedsnr" v="875157" />
	</node>
	<node id="-920460" lat="64.6851361153" lon="11.3929055623">
		<tag k="alt_name" v="Galtnesset" />
		<tag k="name" v="Galtneset" />
		<tag k="natural" v="cape" />
		<tag k="ssr:stedsnr" v="257387" />
	</node>
	<node id="-920457" lat="64.6304500036" lon="11.2472333438">
		<tag k="fixme" v="consider seamark:type=rock or natural=shoal" />
		<tag k="name" v="Letvikskjæret" />
		<tag k="place" v="islet" />
		<tag k="ssr:stedsnr" v="350089" />
	</node>
	<node id="-920453" lat="64.6518777805" lon="11.1940333296">
		<tag k="name" v="Sandvikbukta" />
		<tag k="natural" v="bay" />
		<tag k="ssr:stedsnr" v="166454" />
	</node>
	<node id="-920450" lat="64.6201416683" lon="11.3940666653">
		<tag k="name" v="Urdvika" />
		<tag k="natural" v="bay" />
		<tag k="ssr:stedsnr" v="318397" />
	</node>
	<node id="-920449" lat="64.6382749996" lon="11.4103222318">
		<tag k="name" v="Langstranda" />
		<tag k="natural" v="beach" />
		<tag k="place" v="locality" />
		<tag k="ssr:stedsnr" v="472246" />
	</node>
	<node id="-920439" lat="64.6407750018" lon="11.3480694441">
		<tag k="name" v="Tjærraverket" />
		<tag k="natural" v="cape" />
		<tag k="ssr:stedsnr" v="775888" />
	</node>
	<node id="-920435" lat="64.629450003" lon="11.2431361209">
		<tag k="name" v="Litlholmen" />
		<tag k="place" v="islet" />
		<tag k="ssr:stedsnr" v="532091" />
	</node>
	<node id="-920429" lat="64.6877777744" lon="11.2859138788">
		<tag k="fixme" v="consider seamark:type=rock or natural=shoal" />
		<tag k="name" v="Hillstøskjæret" />
		<tag k="place" v="islet" />
		<tag k="ssr:stedsnr" v="28970" />
	</node>
	<node id="-920421" lat="64.6158527744" lon="11.3657833405">
		<tag k="name" v="Djupvika" />
		<tag k="natural" v="bay" />
		<tag k="ssr:stedsnr" v="168534" />
	</node>
	<node id="-920418" lat="64.6361388892" lon="11.3606583389">
		<tag k="name" v="Ølhammarbukta" />
		<tag k="natural" v="bay" />
		<tag k="ssr:stedsnr" v="775886" />
	</node>
	<node id="-920417" lat="64.6344166634" lon="11.4120638835">
		<tag k="name" v="Skavodden" />
		<tag k="natural" v="cape" />
		<tag k="ssr:stedsnr" v="290244" />
	</node>
	<node id="-920415" lat="64.6331638894" lon="11.3440583301">
		<tag k="alt_name" v="Nesset" />
		<tag k="name" v="Seierstadneset" />
		<tag k="natural" v="cape" />
		<tag k="ssr:stedsnr" v="135363" />
	</node>
	<node id="-920414" lat="64.6298972213" lon="11.2277972132">
		<tag k="name" v="Bjønnavika" />
		<tag k="natural" v="bay" />
		<tag k="ssr:stedsnr" v="168108" />
	</node>
	<node id="-920408" lat="64.6714805534" lon="11.3564833415">
		<tag k="name" v="Langstranda" />
		<tag k="natural" v="beach" />
		<tag k="place" v="locality" />
		<tag k="ssr:stedsnr" v="47900" />
	</node>
	<node id="-920407" lat="64.6855611123" lon="11.4206333434">
		<tag k="fixme" v="consider seamark:type=rock or natural=shoal" />
		<tag k="name" v="Hestvikskjæret" />
		<tag k="place" v="islet" />
		<tag k="ssr:stedsnr" v="408359" />
	</node>
	<node id="-920404" lat="64.67032222" lon="11.1270638941">
		<tag k="name" v="Gauvan" />
		<tag k="natural" v="shoal" />
		<tag k="place" v="locality" />
		<tag k="ssr:stedsnr" v="28962" />
	</node>
	<node id="-920401" lat="64.6572861122" lon="11.1827000049">
		<tag k="name" v="Valvika" />
		<tag k="natural" v="bay" />
		<tag k="ssr:stedsnr" v="229451" />
	</node>
	<node id="-920400" lat="64.6817666632" lon="11.3360388822">
		<tag k="name" v="Moldviktaren" />
		<tag k="natural" v="shoal" />
		<tag k="place" v="locality" />
		<tag k="ssr:stedsnr" v="756965" />
	</node>
	<node id="-920397" lat="64.6431888917" lon="11.3498611054">
		<tag k="name" v="Olabukta" />
		<tag k="natural" v="bay" />
		<tag k="ssr:stedsnr" v="532905" />
	</node>
	<node id="-920395" lat="64.7047416711" lon="10.986763885">
		<tag k="name" v="Svartskjærslua" />
		<tag k="place" v="locality" />
		<tag k="seamark:type" v="rock" />
		<tag k="ssr:stedsnr" v="148332" />
	</node>
	<node id="-920390" lat="64.6798416704" lon="11.3948666754">
		<tag k="name" v="Varpet" />
		<tag k="natural" v="bay" />
		<tag k="ssr:stedsnr" v="469338" />
	</node>
	<node id="-920382" lat="64.7130555566" lon="11.418658327">
		<tag k="name" v="Nordsjøtaren" />
		<tag k="natural" v="shoal" />
		<tag k="place" v="locality" />
		<tag k="ssr:stedsnr" v="833334" />
	</node>
	<node id="-920375" lat="64.6477055519" lon="11.4039055493">
		<tag k="name" v="Revodden" />
		<tag k="natural" v="cape" />
		<tag k="ssr:stedsnr" v="439401" />
	</node>
	<node id="-920371" lat="64.6890416678" lon="11.4283527699">
		<tag k="name" v="Rønningsholmen" />
		<tag k="place" v="islet" />
		<tag k="ssr:stedsnr" v="711380" />
	</node>
	<node id="-920367" lat="64.6211027793" lon="11.267077769">
		<tag k="name" v="Olavika" />
		<tag k="natural" v="bay" />
		<tag k="ssr:stedsnr" v="775896" />
	</node>
	<node id="-920366" lat="64.6271000013" lon="11.3926750058">
		<tag k="alt_name" v="Jagarnesset" />
		<tag k="name" v="Jagarneset" />
		<tag k="natural" v="cape" />
		<tag k="ssr:stedsnr" v="803397" />
	</node>
	<node id="-920365" lat="64.6191777735" lon="11.3450861038">
		<tag k="name" v="Seivikodden" />
		<tag k="natural" v="cape" />
		<tag k="ssr:stedsnr" v="168520" />
	</node>
	<node id="-920362" lat="64.6534861096" lon="11.1989583232">
		<tag k="name" v="Stavika" />
		<tag k="natural" v="bay" />
		<tag k="ssr:stedsnr" v="107049" />
	</node>
	<node id="-920361" lat="64.6042222247" lon="11.4315611119">
		<tag k="name" v="Båtvika" />
		<tag k="natural" v="bay" />
		<tag k="ssr:stedsnr" v="532508" />
	</node>
	<node id="-920360" lat="64.6322833353" lon="11.2171138918">
		<tag k="name" v="Lendavika" />
		<tag k="natural" v="bay" />
		<tag k="ssr:stedsnr" v="350084" />
	</node>
	<node id="-920346" lat="64.7088500041" lon="10.9435194444">
		<tag k="name" v="Aldgårdknausen" />
		<tag k="place" v="locality" />
		<tag k="ssr:stedsnr" v="148329" />
	</node>
	<node id="-920338" lat="64.5999027819" lon="11.4509777764">
		<tag k="name" v="Skardabukta" />
		<tag k="natural" v="bay" />
		<tag k="ssr:stedsnr" v="775495" />
	</node>
	<node id="-920336" lat="64.6010166686" lon="11.4451166707">
		<tag k="name" v="Hardbaken" />
		<tag k="natural" v="cape" />
		<tag k="ssr:stedsnr" v="532510" />
	</node>
	<node id="-920325" lat="64.6400472188" lon="11.1704444348">
		<tag k="name" v="Ruggelvika" />
		<tag k="natural" v="bay" />
		<tag k="ssr:stedsnr" v="471391" />
	</node>
	<node id="-920323" lat="64.6487694434" lon="11.3987861173">
		<tag k="name" v="Langnessodden" />
		<tag k="natural" v="cape" />
		<tag k="ssr:stedsnr" v="411265" />
	</node>
	<node id="-920314" lat="64.6776777756" lon="11.188638884">
		<tag k="name" v="Kjerstiholmen" />
		<tag k="place" v="islet" />
		<tag k="ssr:stedsnr" v="864991" />
	</node>
	<node id="-920289" lat="64.6796027776" lon="11.2913999968">
		<tag k="name" v="Penesset" />
		<tag k="natural" v="cape" />
		<tag k="ssr:stedsnr" v="229825" />
	</node>
	<node id="-920281" lat="64.6050722256" lon="11.293330546">
		<tag k="name" v="Naustvikodden" />
		<tag k="natural" v="cape" />
		<tag k="ssr:stedsnr" v="47878" />
	</node>
	<node id="-920280" lat="64.6303749989" lon="11.2578972267">
		<tag k="name" v="Seilvika" />
		<tag k="natural" v="bay" />
		<tag k="ssr:stedsnr" v="350876" />
	</node>
	<node id="-920273" lat="64.6372888875" lon="11.232766671">
		<tag k="name" v="Småvikan" />
		<tag k="natural" v="bay" />
		<tag k="ssr:stedsnr" v="229004" />
	</node>
	<node id="-920272" lat="64.6149027785" lon="11.4202750098">
		<tag k="name" v="Nordsundet" />
		<tag k="natural" v="strait" />
		<tag k="ssr:stedsnr" v="75416" />
	</node>
	<node id="-920261" lat="64.7163388917" lon="11.4609472251">
		<tag k="name" v="Litlånhammaren" />
		<tag k="natural" v="cape" />
		<tag k="ssr:stedsnr" v="656379" />
	</node>
	<node id="-920255" lat="64.6298888892" lon="11.209030565">
		<tag k="name" v="Purka" />
		<tag k="natural" v="shoal" />
		<tag k="place" v="locality" />
		<tag k="ssr:stedsnr" v="756960" />
	</node>
	<node id="-920252" lat="64.6434916646" lon="11.3672333262">
		<tag k="bay" v="fjord" />
		<tag k="name" v="Seierstadfjorden" />
		<tag k="natural" v="bay" />
		<tag k="ssr:stedsnr" v="532886" />
	</node>
	<node id="-920240" lat="64.6963250041" lon="11.0174638916">
		<tag k="fixme" v="consider seamark:type=rock or natural=shoal" />
		<tag k="name" v="Litlbranden" />
		<tag k="place" v="islet" />
		<tag k="ssr:stedsnr" v="560982" />
	</node>
	<node id="-920235" lat="64.7355583323" lon="11.8215472293">
		<tag k="name" v="Slåttholmen" />
		<tag k="place" v="islet" />
		<tag k="ssr:stedsnr" v="111041" />
	</node>
	<node id="-920206" lat="64.6371249998" lon="11.2511250066">
		<tag k="name" v="Varpodden" />
		<tag k="natural" v="cape" />
		<tag k="ssr:stedsnr" v="804446" />
	</node>
	<node id="-920198" lat="64.6435361133" lon="11.3975055651">
		<tag k="name" v="Ytter Kjelnessodden" />
		<tag k="natural" v="cape" />
		<tag k="ssr:stedsnr" v="957251" />
	</node>
	<node id="-920197" lat="64.6162388852" lon="11.3895111106">
		<tag k="name" v="Ytter Movika" />
		<tag k="natural" v="bay" />
		<tag k="ssr:stedsnr" v="714658" />
	</node>
	<node id="-920187" lat="64.6861722183" lon="11.2735805533">
		<tag k="fixme" v="consider seamark:type=rock or natural=shoal" />
		<tag k="name" v="Bruraskjæret" />
		<tag k="place" v="islet" />
		<tag k="ssr:stedsnr" v="775838" />
	</node>
	<node id="-920172" lat="64.6562527798" lon="11.1944666696">
		<tag k="name" v="Småvikan" />
		<tag k="natural" v="bay" />
		<tag k="ssr:stedsnr" v="472205" />
	</node>
	<node id="-920170" lat="64.7032055554" lon="11.4059361152">
		<tag k="name" v="Smørvika" />
		<tag k="natural" v="bay" />
		<tag k="ssr:stedsnr" v="925294" />
	</node>
	<node id="-920160" lat="64.6887138874" lon="11.2480888868">
		<tag k="name" v="Nordvika" />
		<tag k="natural" v="bay" />
		<tag k="ssr:stedsnr" v="532856" />
	</node>
	<node id="-920159" lat="64.6349416695" lon="11.2541694421">
		<tag k="name" v="Faksdalvågen" />
		<tag k="natural" v="bay" />
		<tag k="ssr:stedsnr" v="499370" />
	</node>
	<node id="-920145" lat="64.6795194419" lon="11.3981749915">
		<tag k="name" v="Varpvika" />
		<tag k="natural" v="bay" />
		<tag k="ssr:stedsnr" v="742321" />
	</node>
	<node id="-920127" lat="64.6651888923" lon="11.1937833324">
		<tag k="name" v="Trillvika" />
		<tag k="natural" v="bay" />
		<tag k="ssr:stedsnr" v="290177" />
	</node>
	<node id="-920125" lat="64.6895305551" lon="11.3284194541">
		<tag k="name" v="Fosnesodden" />
		<tag k="natural" v="cape" />
		<tag k="ssr:stedsnr" v="925303" />
	</node>
	<node id="-920124" lat="64.6274916663" lon="11.2464138905">
		<tag k="alt_name" v="Storholmen" />
		<tag k="name" v="Letvikholman" />
		<tag k="place" v="islet" />
		<tag k="ssr:stedsnr" v="439377" />
	</node>
	<node id="-920117" lat="64.6878027782" lon="11.252072225">
		<tag k="name" v="Ospvika" />
		<tag k="natural" v="bay" />
		<tag k="ssr:stedsnr" v="775845" />
	</node>
	<node id="-920111" lat="64.684525004" lon="11.2579583307">
		<tag k="name" v="Storvika" />
		<tag k="natural" v="bay" />
		<tag k="ssr:stedsnr" v="532841" />
	</node>
	<node id="-920102" lat="64.731222222" lon="11.772758342">
		<tag k="name" v="Forronessbukta" />
		<tag k="natural" v="bay" />
		<tag k="ssr:stedsnr" v="535194" />
	</node>
	<node id="-920094" lat="64.7031055532" lon="10.9312333332">
		<tag k="name" v="Sølvfestknausen" />
		<tag k="natural" v="shoal" />
		<tag k="place" v="locality" />
		<tag k="ssr:stedsnr" v="270314" />
	</node>
	<node id="-920091" lat="64.7280111124" lon="11.5142111199">
		<tag k="name" v="Bukta" />
		<tag k="natural" v="bay" />
		<tag k="ssr:stedsnr" v="717395" />
	</node>
	<node id="-920086" lat="64.6621694483" lon="11.1757694398">
		<tag k="name" v="Smørvika" />
		<tag k="natural" v="bay" />
		<tag k="ssr:stedsnr" v="168461" />
	</node>
	<node id="-920079" lat="64.6175416625" lon="11.3650277854">
		<tag k="name" v="Bergodden" />
		<tag k="natural" v="cape" />
		<tag k="ssr:stedsnr" v="653555" />
	</node>
	<node id="-920078" lat="64.6835444419" lon="11.3175027682">
		<tag k="name" v="Utafollsodden" />
		<tag k="natural" v="cape" />
		<tag k="ssr:stedsnr" v="47832" />
	</node>
	<node id="-920071" lat="64.6314333377" lon="11.1919055582">
		<tag k="fixme" v="consider seamark:type=rock or natural=shoal" />
		<tag k="name" v="Svartskjæret" />
		<tag k="place" v="islet" />
		<tag k="ssr:stedsnr" v="620494" />
	</node>
	<node id="-920065" lat="64.6438361116" lon="11.4044361081">
		<tag k="name" v="Bukkholet" />
		<tag k="natural" v="bay" />
		<tag k="ssr:stedsnr" v="714213" />
	</node>
	<node id="-920064" lat="64.7467333327" lon="11.8579138941">
		<tag k="name" v="Bolvika" />
		<tag k="natural" v="bay" />
		<tag k="ssr:stedsnr" v="535200" />
	</node>
	<node id="-920063" lat="64.6858833372" lon="11.2365722148">
		<tag k="name" v="Kjøkkenvika" />
		<tag k="natural" v="bay" />
		<tag k="ssr:stedsnr" v="350840" />
	</node>
	<node id="-920062" lat="64.674361114" lon="11.1301888978">
		<tag k="name" v="Tårnfalla" />
		<tag k="natural" v="shoal" />
		<tag k="place" v="locality" />
		<tag k="ssr:stedsnr" v="634960" />
	</node>
	<node id="-920056" lat="64.6966944488" lon="11.0163194375">
		<tag k="fixme" v="consider seamark:type=rock or natural=shoal" />
		<tag k="name" v="Litlbrand" />
		<tag k="place" v="islet" />
		<tag k="ssr:stedsnr" v="634958" />
	</node>
	<node id="-920055" lat="64.6466222238" lon="11.4109722145">
		<tag k="name" v="Buvika" />
		<tag k="natural" v="bay" />
		<tag k="ssr:stedsnr" v="714236" />
	</node>
	<node id="-920049" lat="64.6901472209" lon="11.053747232">
		<tag k="name" v="Storslua" />
		<tag k="natural" v="shoal" />
		<tag k="place" v="locality" />
		<tag k="ssr:stedsnr" v="271957" />
	</node>
	<node id="-920045" lat="64.6807388894" lon="11.3084555632">
		<tag k="name" v="Nishammaren" />
		<tag k="natural" v="cape" />
		<tag k="ssr:stedsnr" v="350826" />
	</node>
	<node id="-920043" lat="64.6705777768" lon="11.1346138801">
		<tag k="fixme" v="consider seamark:type=rock or natural=shoal" />
		<tag k="name" v="Gauven" />
		<tag k="place" v="islet" />
		<tag k="ssr:stedsnr" v="350413" />
	</node>
	<node id="-920038" lat="64.6395138873" lon="11.1662249972">
		<tag k="alt_name" v="Langnessodden" />
		<tag k="name" v="Langnesodden" />
		<tag k="natural" v="cape" />
		<tag k="ssr:stedsnr" v="620505" />
	</node>
	<node id="-920034" lat="64.6685861141" lon="11.2089388886">
		<tag k="name" v="Brakstadleira" />
		<tag k="natural" v="bay" />
		<tag k="ssr:stedsnr" v="593154" />
	</node>
	<node id="-920032" lat="64.6888861095" lon="11.2950777805">
		<tag k="name" v="Langholmen" />
		<tag k="place" v="islet" />
		<tag k="ssr:stedsnr" v="803350" />
	</node>
	<node id="-920027" lat="64.6742194449" lon="11.1975638864">
		<tag k="name" v="Geitvika" />
		<tag k="natural" v="bay" />
		<tag k="ssr:stedsnr" v="653148" />
	</node>
	<node id="-920010" lat="64.6232027748" lon="11.3443527741">
		<tag k="fixme" v="multiple name tags, choose one and add the other to alt_name" />
		<tag k="name" v="Fallet;Herskarodden" />
		<tag k="natural" v="cape" />
		<tag k="ssr:stedsnr" v="500452" />
	</node>
	<node id="-920009" lat="64.6712055516" lon="11.1384999969">
		<tag k="name" v="Midtergauven" />
		<tag k="natural" v="shoal" />
		<tag k="place" v="locality" />
		<tag k="ssr:stedsnr" v="350415" />
	</node>
	<node id="-920007" lat="64.6040000033" lon="11.3283388855">
		<tag k="name" v="Hestvika" />
		<tag k="natural" v="bay" />
		<tag k="ssr:stedsnr" v="593565" />
	</node>
	<node id="-920006" lat="64.6831916647" lon="11.3136611109">
		<tag k="name" v="Anevika" />
		<tag k="natural" v="bay" />
		<tag k="ssr:stedsnr" v="532838" />
	</node>
	<node id="-920005" lat="64.7246249963" lon="11.7318361007">
		<tag k="name" v="Fagervika" />
		<tag k="natural" v="bay" />
		<tag k="ssr:stedsnr" v="535187" />
	</node>
	<node id="-920000" lat="64.6793972195" lon="11.3005277763">
		<tag k="name" v="Strandaøyra" />
		<tag k="natural" v="beach" />
		<tag k="place" v="locality" />
		<tag k="ssr:stedsnr" v="350827" />
	</node>
	<node id="-919997" lat="64.6725805592" lon="11.1401527821">
		<tag k="fixme" v="consider seamark:type=rock or natural=shoal" />
		<tag k="name" v="Litltårnet" />
		<tag k="place" v="islet" />
		<tag k="ssr:stedsnr" v="350416" />
	</node>
	<node id="-919996" lat="64.6562416624" lon="11.1816361033">
		<tag k="name" v="Kjellarhalsen" />
		<tag k="natural" v="cape" />
		<tag k="ssr:stedsnr" v="651461" />
	</node>
	<node id="-919987" lat="64.6775638905" lon="11.3335555464">
		<tag k="alt_name" v="Moldvikbukta" />
		<tag k="name" v="Moldvika" />
		<tag k="natural" v="bay" />
		<tag k="ssr:stedsnr" v="439346" />
	</node>
	<node id="-919984" lat="64.666672226" lon="11.1672194408">
		<tag k="name" v="Bremsundvika" />
		<tag k="natural" v="bay" />
		<tag k="ssr:stedsnr" v="168431" />
	</node>
	<node id="-919974" lat="64.6814111103" lon="11.1979833397">
		<tag k="fixme" v="consider seamark:type=rock or natural=shoal" />
		<tag k="name" v="Måsøyskanken" />
		<tag k="place" v="islet" />
		<tag k="ssr:stedsnr" v="168849" />
	</node>
	<node id="-919968" lat="64.6524361106" lon="11.1874111165">
		<tag k="name" v="Fagernesset" />
		<tag k="natural" v="cape" />
		<tag k="ssr:stedsnr" v="836153" />
	</node>
	<node id="-919967" lat="64.6110166661" lon="11.3296444503">
		<tag k="fixme" v="consider seamark:type=rock or natural=shoal" />
		<tag k="name" v="Jensskjæret" />
		<tag k="place" v="islet" />
		<tag k="ssr:stedsnr" v="290533" />
	</node>
	<node id="-919961" lat="64.6675916667" lon="11.1828527687">
		<tag k="name" v="Aunavika" />
		<tag k="natural" v="bay" />
		<tag k="ssr:stedsnr" v="532414" />
	</node>
	<node id="-919957" lat="64.6796166699" lon="11.1704527727">
		<tag k="name" v="Hermannholmen" />
		<tag k="place" v="islet" />
		<tag k="ssr:stedsnr" v="924980" />
	</node>
	<node id="-919949" lat="64.6364111079" lon="11.1947499921">
		<tag k="name" v="Guristranda" />
		<tag k="natural" v="beach" />
		<tag k="place" v="locality" />
		<tag k="ssr:stedsnr" v="957189" />
	</node>
	<node id="-919934" lat="64.7350027806" lon="11.5221611191">
		<tag k="name" v="Kuppelvika" />
		<tag k="natural" v="bay" />
		<tag k="ssr:stedsnr" v="111374" />
	</node>
	<node id="-919921" lat="64.66145278" lon="11.358866664">
		<tag k="alt_name" v="Lakshammarodden" />
		<tag k="name" v="Lakshammaren" />
		<tag k="natural" v="cape" />
		<tag k="ssr:stedsnr" v="14243" />
	</node>
	<node id="-919910" lat="64.6401305557" lon="11.4083194429">
		<tag k="name" v="Lauvvika" />
		<tag k="natural" v="bay" />
		<tag k="ssr:stedsnr" v="714212" />
	</node>
	<node id="-919903" lat="64.7383611068" lon="11.8198333259">
		<tag k="name" v="Naustodden" />
		<tag k="natural" v="cape" />
		<tag k="ssr:stedsnr" v="171182" />
	</node>
	<node id="-919900" lat="64.6871611147" lon="11.2870944455">
		<tag k="name" v="Hillstøa" />
		<tag k="natural" v="cape" />
		<tag k="ssr:stedsnr" v="75362" />
	</node>
	<node id="-919899" lat="64.6510777756" lon="11.1679611089">
		<tag k="alt_name" v="Stanga" />
		<tag k="fixme" v="consider seamark:type=rock or natural=shoal" />
		<tag k="name" v="Stonga" />
		<tag k="place" v="islet" />
		<tag k="ssr:stedsnr" v="257576" />
	</node>
	<node id="-919897" lat="64.6878638904" lon="11.3277611089">
		<tag k="name" v="Krongelvika" />
		<tag k="natural" v="bay" />
		<tag k="ssr:stedsnr" v="472941" />
	</node>
	<node id="-919887" lat="64.6405972229" lon="11.3686277739">
		<tag k="name" v="Ølhammarstranda" />
		<tag k="natural" v="beach" />
		<tag k="place" v="locality" />
		<tag k="ssr:stedsnr" v="897869" />
	</node>
	<node id="-919881" lat="64.6577583346" lon="11.1662972266">
		<tag k="name" v="Sanden" />
		<tag k="natural" v="beach" />
		<tag k="place" v="locality" />
		<tag k="ssr:stedsnr" v="47386" />
	</node>
	<node id="-919876" lat="64.6459166697" lon="11.1618555621">
		<tag k="fixme" v="consider seamark:type=rock or natural=shoal" />
		<tag k="name" v="Matmorskjæret" />
		<tag k="place" v="islet" />
		<tag k="ssr:stedsnr" v="257569" />
	</node>
	<node id="-919874" lat="64.7144055595" lon="11.451077775">
		<tag k="name" v="Litltaraøyra" />
		<tag k="natural" v="beach" />
		<tag k="place" v="locality" />
		<tag k="ssr:stedsnr" v="166331" />
	</node>
	<node id="-919866" lat="64.7134166655" lon="11.4102888933">
		<tag k="name" v="Omfløttholmen" />
		<tag k="place" v="islet" />
		<tag k="ssr:stedsnr" v="378265" />
	</node>
	<node id="-919862" lat="64.6820944475" lon="11.318427785">
		<tag k="name" v="Fosnesvågen" />
		<tag k="natural" v="bay" />
		<tag k="ssr:stedsnr" v="75356" />
	</node>
	<node id="-919844" lat="64.6314472181" lon="11.2128333315">
		<tag k="fixme" v="consider seamark:type=rock or natural=shoal" />
		<tag k="name" v="Storskjæret" />
		<tag k="place" v="islet" />
		<tag k="ssr:stedsnr" v="593113" />
	</node>
	<node id="-919828" lat="64.6811444445" lon="11.4134805573">
		<tag k="name" v="Hestvikodden" />
		<tag k="natural" v="cape" />
		<tag k="ssr:stedsnr" v="75354" />
	</node>
	<node id="-919826" lat="64.7234611121" lon="11.7754805617">
		<tag k="name" v="Skjelhagabukta" />
		<tag k="natural" v="bay" />
		<tag k="ssr:stedsnr" v="171169" />
	</node>
	<node id="-919824" lat="64.6766555584" lon="11.3574805552">
		<tag k="name" v="Høgsetøyra" />
		<tag k="natural" v="cape" />
		<tag k="ssr:stedsnr" v="864382" />
	</node>
	<node id="-919822" lat="64.619824997" lon="11.3509027763">
		<tag k="bay" v="fjord" />
		<tag k="name" v="Seierstadfjorden" />
		<tag k="natural" v="bay" />
		<tag k="ssr:stedsnr" v="560387" />
	</node>
	<node id="-919820" lat="64.678388889" lon="11.2091777831">
		<tag k="name" v="Breivika" />
		<tag k="natural" v="bay" />
		<tag k="ssr:stedsnr" v="897830" />
	</node>
	<node id="-919819" lat="64.597377775" lon="11.3773111161">
		<tag k="name" v="Bryggodden" />
		<tag k="natural" v="cape" />
		<tag k="ssr:stedsnr" v="472535" />
	</node>
	<node id="-919812" lat="64.5977444416" lon="11.3606972322">
		<tag k="name" v="Sørøyra" />
		<tag k="natural" v="shoal" />
		<tag k="place" v="locality" />
		<tag k="ssr:stedsnr" v="593531" />
	</node>
	<node id="-919808" lat="64.6694694484" lon="11.3811888912">
		<tag k="name" v="Kjerkneset" />
		<tag k="natural" v="cape" />
		<tag k="ssr:stedsnr" v="318319" />
	</node>
	<node id="-919803" lat="64.702438893" lon="11.0094833339">
		<tag k="name" v="Brandknausen" />
		<tag k="natural" v="shoal" />
		<tag k="place" v="locality" />
		<tag k="ssr:stedsnr" v="924976" />
	</node>
	<node id="-919797" lat="64.5984972234" lon="11.4376138809">
		<tag k="name" v="Sjøvikern" />
		<tag k="natural" v="bay" />
		<tag k="ssr:stedsnr" v="653522" />
	</node>
	<node id="-919793" lat="64.6667694414" lon="11.1792166758">
		<tag k="name" v="Langstrandholmen" />
		<tag k="place" v="islet" />
		<tag k="ssr:stedsnr" v="288408" />
	</node>
	<node id="-919792" lat="64.6173166661" lon="11.3794222249">
		<tag k="name" v="Ytter Markvalen" />
		<tag k="natural" v="shoal" />
		<tag k="place" v="locality" />
		<tag k="ssr:stedsnr" v="593512" />
	</node>
	<node id="-919779" lat="64.720624996" lon="11.4718055578">
		<tag k="name" v="Ånholmen" />
		<tag k="place" v="islet" />
		<tag k="ssr:stedsnr" v="682341" />
	</node>
	<node id="-919777" lat="64.6540027799" lon="11.3553222278">
		<tag k="name" v="Finnvika" />
		<tag k="natural" v="bay" />
		<tag k="ssr:stedsnr" v="290893" />
	</node>
	<node id="-919775" lat="64.6354861111" lon="11.1865138958">
		<tag k="name" v="Valan" />
		<tag k="natural" v="beach" />
		<tag k="place" v="locality" />
		<tag k="ssr:stedsnr" v="108200" />
	</node>
	<node id="-919768" lat="64.6082166702" lon="11.3720999975">
		<tag k="name" v="Lobukta" />
		<tag k="natural" v="bay" />
		<tag k="ssr:stedsnr" v="593516" />
	</node>
	<node id="-919764" lat="64.6301638875" lon="11.2150277838">
		<tag k="fixme" v="consider seamark:type=rock or natural=shoal" />
		<tag k="name" v="Lendavikskjæra" />
		<tag k="place" v="islet" />
		<tag k="ssr:stedsnr" v="653089" />
	</node>
	<node id="-919760" lat="64.7016611118" lon="11.4130388982">
		<tag k="alt_name" v="Tjønnvika" />
		<tag k="name" v="Kynnvika" />
		<tag k="natural" v="bay" />
		<tag k="ssr:stedsnr" v="257283" />
	</node>
	<node id="-919758" lat="64.7212111097" lon="11.0240861009">
		<tag k="name" v="Bårflestaren" />
		<tag k="natural" v="shoal" />
		<tag k="place" v="locality" />
		<tag k="ssr:stedsnr" v="452314" />
	</node>
	<node id="-919755" lat="64.6625055573" lon="11.3594138955">
		<tag k="name" v="Lakshammarvika" />
		<tag k="natural" v="bay" />
		<tag k="ssr:stedsnr" v="653923" />
	</node>
	<node id="-919752" lat="64.6379000015" lon="11.1748833407">
		<tag k="name" v="Sørvikan" />
		<tag k="natural" v="cape" />
		<tag k="ssr:stedsnr" v="168390" />
	</node>
	<node id="-919749" lat="64.6838888861" lon="11.425097232">
		<tag k="name" v="Litl-Hestvika" />
		<tag k="natural" v="bay" />
		<tag k="ssr:stedsnr" v="286343" />
	</node>
	<node id="-919736" lat="64.7299999983" lon="11.520661101">
		<tag k="alt_name" v="Kvernvika" />
		<tag k="name" v="Kvennvika" />
		<tag k="natural" v="bay" />
		<tag k="ssr:stedsnr" v="136351" />
	</node>
	<node id="-919734" lat="64.7093777778" lon="11.4270333437">
		<tag k="name" v="Leirvika" />
		<tag k="natural" v="bay" />
		<tag k="ssr:stedsnr" v="621267" />
	</node>
	<node id="-919733" lat="64.6846722187" lon="11.2155777864">
		<tag k="name" v="Måsøybukta" />
		<tag k="natural" v="bay" />
		<tag k="ssr:stedsnr" v="897814" />
	</node>
	<node id="-919729" lat="64.5998388844" lon="11.3513666737">
		<tag k="name" v="Nordbekkodden" />
		<tag k="natural" v="cape" />
		<tag k="ssr:stedsnr" v="411549" />
	</node>
	<node id="-919727" lat="64.6846055535" lon="11.2198916563">
		<tag k="name" v="Nordøya" />
		<tag k="place" v="island" />
		<tag k="ssr:stedsnr" v="897816" />
	</node>
	<node id="-919726" lat="64.6795500023" lon="11.3511694347">
		<tag k="name" v="Gyltodden" />
		<tag k="natural" v="cape" />
		<tag k="old_name" v="Gyltneset" />
		<tag k="ssr:stedsnr" v="864373" />
	</node>
	<node id="-919724" lat="64.6133694459" lon="11.3334166688">
		<tag k="fixme" v="consider seamark:type=rock or natural=shoal" />
		<tag k="name" v="Hågenskjæret" />
		<tag k="place" v="islet" />
		<tag k="ssr:stedsnr" v="472507" />
	</node>
	<node id="-919715" lat="64.6654527798" lon="11.1696055568">
		<tag k="name" v="Bremsundodden" />
		<tag k="natural" v="cape" />
		<tag k="ssr:stedsnr" v="44448" />
	</node>
	<node id="-919710" lat="64.6845027759" lon="11.4204388897">
		<tag k="name" v="Litlhestvikodden" />
		<tag k="natural" v="cape" />
		<tag k="ssr:stedsnr" v="226385" />
	</node>
	<node id="-919695" lat="64.6779638907" lon="11.1565500085">
		<tag k="fixme" v="consider seamark:type=rock or natural=shoal" />
		<tag k="name" v="Raudskjæret" />
		<tag k="place" v="islet" />
		<tag k="ssr:stedsnr" v="620981" />
	</node>
	<node id="-919694" lat="64.6868777783" lon="11.0563944399">
		<tag k="name" v="Veststeinodden" />
		<tag k="natural" v="shoal" />
		<tag k="place" v="locality" />
		<tag k="ssr:stedsnr" v="938962" />
	</node>
	<node id="-919686" lat="64.6975555585" lon="10.9667916628">
		<tag k="fixme" v="consider seamark:type=rock or natural=shoal" />
		<tag k="name" v="Beinrefallet" />
		<tag k="place" v="islet" />
		<tag k="ssr:stedsnr" v="87581" />
	</node>
	<node id="-919679" lat="64.653286108" lon="11.3635305591">
		<tag k="bay" v="fjord" />
		<tag k="name" v="Gyltfjorden" />
		<tag k="natural" v="bay" />
		<tag k="ssr:stedsnr" v="439311" />
	</node>
	<node id="-919677" lat="64.6350305597" lon="11.3446749948">
		<tag k="name" v="Stallbukta" />
		<tag k="natural" v="bay" />
		<tag k="ssr:stedsnr" v="472891" />
	</node>
	<node id="-919667" lat="64.5969666685" lon="11.4481583358">
		<tag k="name" v="Galten" />
		<tag k="natural" v="shoal" />
		<tag k="place" v="locality" />
		<tag k="ssr:stedsnr" v="267317" />
	</node>
	<node id="-919659" lat="64.6452055551" lon="11.3957555453">
		<tag k="alt_name" v="Kjelnessholmen" />
		<tag k="name" v="Kjelnesholmen" />
		<tag k="place" v="islet" />
		<tag k="ssr:stedsnr" v="210343" />
	</node>
	<node id="-919654" lat="64.7080361109" lon="11.4037444415">
		<tag k="name" v="Karvstrandhauet" />
		<tag k="natural" v="cape" />
		<tag k="ssr:stedsnr" v="15291" />
	</node>
	<node id="-919653" lat="64.7225611145" lon="11.7372777752">
		<tag k="name" v="Fagervikodden" />
		<tag k="natural" v="cape" />
		<tag k="ssr:stedsnr" v="596200" />
	</node>
	<node id="-919648" lat="64.6760833314" lon="11.1758333321">
		<tag k="alt_name" v="Bølet" />
		<tag k="name" v="Bøle" />
		<tag k="place" v="islet" />
		<tag k="ssr:stedsnr" v="620988" />
	</node>
	<node id="-919636" lat="64.6700111125" lon="11.1697222224">
		<tag k="name" v="Varpodden" />
		<tag k="natural" v="cape" />
		<tag k="ssr:stedsnr" v="712429" />
	</node>
	<node id="-919635" lat="64.6396166637" lon="11.375422227">
		<tag k="name" v="Ølhammarøyra" />
		<tag k="natural" v="shoal" />
		<tag k="place" v="locality" />
		<tag k="ssr:stedsnr" v="593876" />
	</node>
	<node id="-919634" lat="64.6332916699" lon="11.2029750049">
		<tag k="fixme" v="consider seamark:type=rock or natural=shoal" />
		<tag k="name" v="Kobbskjæret" />
		<tag k="place" v="islet" />
		<tag k="ssr:stedsnr" v="836073" />
	</node>
	<node id="-919628" lat="64.7024416649" lon="11.0094861201">
		<tag k="name" v="Langtaren" />
		<tag k="natural" v="shoal" />
		<tag k="place" v="locality" />
		<tag k="ssr:stedsnr" v="331325" />
	</node>
	<node id="-919627" lat="64.6125805565" lon="11.3337333418">
		<tag k="name" v="Skjærvikbukta" />
		<tag k="natural" v="bay" />
		<tag k="ssr:stedsnr" v="411520" />
	</node>
	<node id="-919621" lat="64.6499527797" lon="11.3963833296">
		<tag k="alt_name" v="Hamnholmen" />
		<tag k="name" v="Havnholmen" />
		<tag k="place" v="islet" />
		<tag k="ssr:stedsnr" v="513353" />
	</node>
	<node id="-919618" lat="64.6226749987" lon="11.3625777878">
		<tag k="name" v="Uggsetbukta" />
		<tag k="natural" v="bay" />
		<tag k="ssr:stedsnr" v="957540" />
	</node>
	<node id="-919613" lat="64.688969447" lon="11.0760111179">
		<tag k="name" v="Steinan" />
		<tag k="place" v="island" />
		<tag k="ssr:stedsnr" v="620972" />
	</node>
	<node id="-919610" lat="64.6564583358" lon="11.1782277734">
		<tag k="name" v="Rotvika" />
		<tag k="natural" v="bay" />
		<tag k="ssr:stedsnr" v="653462" />
	</node>
	<node id="-919609" lat="64.6776416641" lon="11.204661105">
		<tag k="name" v="Bunnaura" />
		<tag k="natural" v="cape" />
		<tag k="ssr:stedsnr" v="653872" />
	</node>
	<node id="-919602" lat="64.701627778" lon="10.9796305472">
		<tag k="fixme" v="consider seamark:type=rock or natural=shoal" />
		<tag k="name" v="Svartskjæret" />
		<tag k="place" v="islet" />
		<tag k="ssr:stedsnr" v="317974" />
	</node>
	<node id="-919595" lat="64.6539833323" lon="11.1936833267">
		<tag k="name" v="Sandvikvågen" />
		<tag k="natural" v="bay" />
		<tag k="ssr:stedsnr" v="135507" />
	</node>
	<node id="-919594" lat="64.7228527779" lon="11.7702527771">
		<tag k="name" v="Bjørkåsodden" />
		<tag k="natural" v="cape" />
		<tag k="ssr:stedsnr" v="414202" />
	</node>
	<node id="-919593" lat="64.7135305589" lon="10.9985750107">
		<tag k="name" v="Storstabben" />
		<tag k="place" v="locality" />
		<tag k="seamark:type" v="rock" />
		<tag k="ssr:stedsnr" v="391323" />
	</node>
	<node id="-919582" lat="64.6799194435" lon="11.3248500031">
		<tag k="alt_name" v="Kvennhusodden" />
		<tag k="name" v="Kvernhusodden" />
		<tag k="natural" v="cape" />
		<tag k="ssr:stedsnr" v="560336" />
	</node>
	<node id="-919581" lat="64.6808361089" lon="11.2175611013">
		<tag k="name" v="Storskardvika" />
		<tag k="natural" v="bay" />
		<tag k="ssr:stedsnr" v="472854" />
	</node>
	<node id="-919580" lat="64.6855805529" lon="11.230994437">
		<tag k="name" v="Vestervika" />
		<tag k="natural" v="bay" />
		<tag k="ssr:stedsnr" v="290831" />
	</node>
	<node id="-919577" lat="64.6872638909" lon="11.2934027688">
		<tag k="name" v="Langholmleira" />
		<tag k="natural" v="beach" />
		<tag k="place" v="locality" />
		<tag k="ssr:stedsnr" v="653843" />
	</node>
	<node id="-919576" lat="64.6677499987" lon="11.1633416591">
		<tag k="name" v="Bremsundet" />
		<tag k="natural" v="strait" />
		<tag k="ssr:stedsnr" v="653428" />
	</node>
	<node id="-919575" lat="64.7105305579" lon="11.407241675">
		<tag k="name" v="Ryneset" />
		<tag k="natural" v="cape" />
		<tag k="ssr:stedsnr" v="574172" />
	</node>
	<node id="-919563" lat="64.6420111096" lon="11.1746499993">
		<tag k="name" v="Nordsjøvika" />
		<tag k="natural" v="bay" />
		<tag k="ssr:stedsnr" v="742482" />
	</node>
	<node id="-919559" lat="64.6674972178" lon="11.3567250067">
		<tag k="name" v="Kalvika" />
		<tag k="natural" v="beach" />
		<tag k="place" v="locality" />
		<tag k="ssr:stedsnr" v="714914" />
	</node>
	<node id="-919554" lat="64.6573499975" lon="11.3569916738">
		<tag k="name" v="Jonodden" />
		<tag k="natural" v="cape" />
		<tag k="ssr:stedsnr" v="411906" />
	</node>
</osm>
