<?xml version="1.0" encoding="UTF-8"?>
<osm generator="osmapis" version="0.6">
	<node id="-902144" lat="64.6389611112" lon="11.262541661">
		<tag k="name" v="Steinsstranda" />
		<tag k="place" v="farm" />
		<tag k="ssr:stedsnr" v="318427" />
	</node>
	<node id="-902655" lat="64.6873555547" lon="11.4730305494">
		<tag k="name" v="Valen" />
		<tag k="place" v="farm" />
		<tag k="ssr:stedsnr" v="804302" />
	</node>
	<node id="-902143" lat="64.6517638854" lon="11.2615333242">
		<tag k="name" v="Vestre Steine" />
		<tag k="place" v="farm" />
		<tag k="ssr:stedsnr" v="484269" />
	</node>
	<node id="-902647" lat="64.6873416709" lon="11.4594166696">
		<tag k="name" v="Heimen" />
		<tag k="place" v="isolated_dwelling" />
		<tag k="ssr:stedsnr" v="804304" />
	</node>
	<node id="-902646" lat="64.6591138912" lon="11.26539167">
		<tag k="name" v="Remma" />
		<tag k="place" v="farm" />
		<tag k="ssr:stedsnr" v="836808" />
	</node>
	<node id="-901620" lat="64.6562111115" lon="11.2024805492">
		<tag k="name" v="Hovssjøen" />
		<tag k="place" v="locality" />
		<tag k="ssr:stedsnr" v="836192" />
	</node>
	<node id="-901619" lat="64.68648333" lon="11.3190555512">
		<tag k="name" v="Skreddarneset" />
		<tag k="place" v="farm" />
		<tag k="ssr:stedsnr" v="803347" />
	</node>
	<node id="-901616" lat="64.6570583331" lon="11.264613883">
		<tag k="fixme" v="consider place=hamlet" />
		<tag k="name" v="Dun" />
		<tag k="place" v="village" />
		<tag k="ssr:stedsnr" v="318341" />
	</node>
	<node id="-901544" lat="64.6725514945" lon="11.2062784081">
		<tag k="fixme" v="consider place=hamlet" />
		<tag k="name" v="Brakstad" />
		<tag k="place" v="farm" />
		<tag k="ssr:stedsnr" v="924987" />
	</node>
	<node id="-901612" lat="64.6638388852" lon="11.2119750085">
		<tag k="name" v="Ramnstad" />
		<tag k="place" v="farm" />
		<tag k="ssr:stedsnr" v="653150" />
	</node>
	<node id="-902123" lat="64.6335666706" lon="11.2804194371">
		<tag k="name" v="Haugen" />
		<tag k="place" v="farm" />
		<tag k="ssr:stedsnr" v="350943" />
	</node>
	<node id="-901610" lat="64.6907444453" lon="11.4857361102">
		<tag k="name" v="Valvika" />
		<tag k="place" v="farm" />
		<tag k="ssr:stedsnr" v="317249" />
	</node>
	<node id="-901607" lat="64.7192361093" lon="11.5945777834">
		<tag k="name" v="Langstrandteigen" />
		<tag k="place" v="locality" />
		<tag k="ssr:stedsnr" v="657496" />
	</node>
	<node id="-902225" lat="64.6520666699" lon="11.2598000056">
		<tag k="alt_name" v="Stein" />
		<tag k="fixme" v="consider place=hamlet" />
		<tag k="name" v="Steine" />
		<tag k="place" v="farm" />
		<tag k="ssr:stedsnr" v="682450" />
	</node>
	<node id="-901087" lat="64.6332166693" lon="11.2303694528">
		<tag k="name" v="Engesneset" />
		<tag k="place" v="farm" />
		<tag k="ssr:stedsnr" v="925482" />
	</node>
	<node id="-901593" lat="64.6488805577" lon="11.4031166602">
		<tag k="name" v="Breivika" />
		<tag k="place" v="farm" />
		<tag k="ssr:stedsnr" v="560410" />
	</node>
	<node id="-901592" lat="64.6527388916" lon="11.2648444389">
		<tag k="amenity" v="school" />
		<tag k="name" v="Jøa barne- og ungdomsskole" />
		<tag k="old_name" v="Jøa skole" />
		<tag k="ssr:stedsnr" v="653978" />
	</node>
	<node id="-901187" lat="64.6539861071" lon="11.2632027758">
		<tag k="name" v="Moan" />
		<tag k="place" v="farm" />
		<tag k="ssr:stedsnr" v="864361" />
	</node>
	<node id="-901625" lat="64.6372999979" lon="11.2677583384">
		<tag k="name" v="Litlenget" />
		<tag k="place" v="farm" />
		<tag k="ssr:stedsnr" v="836985" />
	</node>
	<node id="-902612" lat="64.7799500022" lon="12.0918027774">
		<tag k="name" v="Skrøyvstadsetran" />
		<tag k="place" v="locality" />
		<tag k="ssr:stedsnr" v="76882" />
	</node>
	<node id="-901073" lat="64.6844305596" lon="11.4393333248">
		<tag k="alt_name" v="Sagnesset" />
		<tag k="name" v="Sagneset" />
		<tag k="place" v="farm" />
		<tag k="ssr:stedsnr" v="560333" />
	</node>
	<node id="-902605" lat="64.6335055549" lon="11.2695805601">
		<tag k="name" v="Mohammar" />
		<tag k="place" v="farm" />
		<tag k="ssr:stedsnr" v="545049" />
	</node>
	<node id="-902086" lat="64.7061388928" lon="11.4431805659">
		<tag k="name" v="Øvergården" />
		<tag k="place" v="farm" />
		<tag k="ssr:stedsnr" v="833340" />
	</node>
	<node id="-902592" lat="64.6343444421" lon="11.1792361121">
		<tag k="name" v="Sørsjøen" />
		<tag k="place" v="locality" />
		<tag k="ssr:stedsnr" v="653381" />
	</node>
	<node id="-901706" lat="64.6529083375" lon="11.3452833252">
		<tag k="name" v="Nygård" />
		<tag k="place" v="farm" />
		<tag k="ssr:stedsnr" v="621348" />
	</node>
	<node id="-901050" lat="64.6554888878" lon="11.2448555487">
		<tag k="alt_name" v="Fjelstad" />
		<tag k="name" v="Fjellstad" />
		<tag k="place" v="farm" />
		<tag k="ssr:stedsnr" v="197385" />
	</node>
	<node id="-901279" lat="64.6648805538" lon="11.731180549">
		<tag k="name" v="Sela" />
		<tag k="place" v="locality" />
		<tag k="ssr:stedsnr" v="439843" />
	</node>
	<node id="-902071" lat="64.6190396403" lon="11.4335778185">
		<tag k="fixme" v="consider place=hamlet" />
		<tag k="loc_name" v="Breksiltan" />
		<tag k="name" v="Breksillan" />
		<tag k="place" v="farm" />
		<tag k="ssr:stedsnr" v="682447" />
	</node>
	<node id="-901553" lat="64.6826222199" lon="11.2968666687">
		<tag k="name" v="Bergly" />
		<tag k="place" v="isolated_dwelling" />
		<tag k="ssr:stedsnr" v="350811" />
	</node>
	<node id="-902573" lat="64.6388111089" lon="11.182894442">
		<tag k="name" v="Sandvollan" />
		<tag k="place" v="farm" />
		<tag k="ssr:stedsnr" v="439495" />
	</node>
	<node id="-902572" lat="64.6177138867" lon="11.5162250071">
		<tag k="name" v="Svartdalsstua" />
		<tag k="place" v="isolated_dwelling" />
		<tag k="ssr:stedsnr" v="897688" />
	</node>
	<node id="-902059" lat="64.6328638885" lon="11.4808416739">
		<tag k="name" v="Plassasetran" />
		<tag k="place" v="isolated_dwelling" />
		<tag k="ssr:stedsnr" v="500518" />
	</node>
	<node id="-902570" lat="64.7226027758" lon="11.6151861183">
		<tag k="name" v="Fjærangsteigen" />
		<tag k="place" v="locality" />
		<tag k="ssr:stedsnr" v="839482" />
	</node>
	<node id="-901545" lat="64.6222307557" lon="11.3648817021">
		<tag k="fixme" v="consider place=hamlet" />
		<tag k="name" v="Uggset" />
		<tag k="place" v="farm" />
		<tag k="ssr:stedsnr" v="196361" />
	</node>
	<node id="-902056" lat="64.7125781827" lon="11.7394351654">
		<tag k="fixme" v="consider place=hamlet" />
		<tag k="name" v="Eida" />
		<tag k="place" v="farm" />
		<tag k="ssr:stedsnr" v="804228" />
	</node>
	<node id="-901543" lat="64.6020527773" lon="11.3077249951">
		<tag k="name" v="Stranda" />
		<tag k="place" v="farm" />
		<tag k="ssr:stedsnr" v="925542" />
	</node>
	<node id="-902052" lat="64.6873333324" lon="11.4324972304">
		<tag k="name" v="Amundrønningen" />
		<tag k="place" v="isolated_dwelling" />
		<tag k="ssr:stedsnr" v="833350" />
	</node>
	<node id="-901016" lat="64.6759721343" lon="11.3311053215">
		<tag k="fixme" v="consider place=hamlet" />
		<tag k="name" v="Moldvika" />
		<tag k="place" v="farm" />
		<tag k="ssr:stedsnr" v="695953" />
	</node>
	<node id="-902549" lat="64.6986111092" lon="11.449719436">
		<tag k="alt_name" v="Øset" />
		<tag k="name" v="Oset" />
		<tag k="place" v="farm" />
		<tag k="ssr:stedsnr" v="878372" />
	</node>
	<node id="-902545" lat="64.5957777795" lon="11.4601750018">
		<tag k="name" v="Skjelhaggan" />
		<tag k="place" v="farm" />
		<tag k="ssr:stedsnr" v="803475" />
	</node>
	<node id="-902030" lat="64.7343361112" lon="11.5225000032">
		<tag k="building" v="industrial" />
		<tag k="name" v="Saga" />
		<tag k="ssr:stedsnr" v="839389" />
	</node>
	<node id="-901516" lat="64.7613777751" lon="11.9370361152">
		<tag k="name" v="Kovasetran" />
		<tag k="place" v="locality" />
		<tag k="ssr:stedsnr" v="682893" />
	</node>
	<node id="-902539" lat="64.6507633518" lon="11.2004322866">
		<tag k="fixme" v="consider place=hamlet" />
		<tag k="name" v="Sandvika" />
		<tag k="place" v="farm" />
		<tag k="ssr:stedsnr" v="439503" />
	</node>
	<node id="-902537" lat="64.6964380211" lon="11.7867812496">
		<tag k="fixme" v="consider place=hamlet" />
		<tag k="name" v="Saksa" />
		<tag k="place" v="farm" />
		<tag k="ssr:stedsnr" v="682224" />
	</node>
	<node id="-900998" lat="64.6854277788" lon="11.4334111086">
		<tag k="name" v="Moen" />
		<tag k="place" v="farm" />
		<tag k="ssr:stedsnr" v="513347" />
	</node>
	<node id="-901509" lat="64.6533282654" lon="11.3896869023">
		<tag k="fixme" v="consider place=hamlet" />
		<tag k="name" v="Tingstaden" />
		<tag k="place" v="farm" />
		<tag k="ssr:stedsnr" v="743365" />
	</node>
	<node id="-902019" lat="64.6325807659" lon="11.261432611">
		<tag k="fixme" v="consider place=hamlet" />
		<tag k="name" v="Letvika" />
		<tag k="place" v="farm" />
		<tag k="ssr:stedsnr" v="742349" />
	</node>
	<node id="-902529" lat="64.6958777816" lon="11.4572027677">
		<tag k="name" v="Åstøa" />
		<tag k="place" v="isolated_dwelling" />
		<tag k="ssr:stedsnr" v="288266" />
	</node>
	<node id="-902016" lat="64.6847083311" lon="11.4356972148">
		<tag k="name" v="Haugen" />
		<tag k="place" v="farm" />
		<tag k="ssr:stedsnr" v="378347" />
	</node>
	<node id="-902527" lat="64.6878166641" lon="11.4359583431">
		<tag k="name" v="Sandbakken" />
		<tag k="place" v="farm" />
		<tag k="ssr:stedsnr" v="379272" />
	</node>
	<node id="-900988" lat="64.6513215685" lon="11.2659722912">
		<tag k="amenity" v="sports_centre" />
		<tag k="name" v="Fyret" />
		<tag k="ssr:stedsnr" v="981314" />
	</node>
	<node id="-902010" lat="64.6363083325" lon="11.2662333271">
		<tag k="name" v="Ålstranda" />
		<tag k="place" v="farm" />
		<tag k="ssr:stedsnr" v="75443" />
	</node>
	<node id="-901496" lat="64.6757361151" lon="11.7333055641">
		<tag k="name" v="Soksdalsstua" />
		<tag k="place" v="isolated_dwelling" />
		<tag k="ssr:stedsnr" v="960329" />
	</node>
	<node id="-902515" lat="64.6935416625" lon="11.4385833382">
		<tag k="name" v="Øyra" />
		<tag k="place" v="farm" />
		<tag k="ssr:stedsnr" v="379262" />
	</node>
	<node id="-902512" lat="64.6577888908" lon="11.205177777">
		<tag k="name" v="Sjølia" />
		<tag k="place" v="farm" />
		<tag k="ssr:stedsnr" v="257999" />
	</node>
	<node id="-901999" lat="64.6358444419" lon="11.4298638932">
		<tag k="name" v="Nordbotnet" />
		<tag k="place" v="farm" />
		<tag k="ssr:stedsnr" v="864471" />
	</node>
	<node id="-902507" lat="64.6355138911" lon="11.411666671">
		<tag k="name" v="Innerbotnet" />
		<tag k="place" v="isolated_dwelling" />
		<tag k="ssr:stedsnr" v="621465" />
	</node>
	<node id="-901994" lat="64.6136611077" lon="11.3261527862">
		<tag k="name" v="Bakketun" />
		<tag k="place" v="farm" />
		<tag k="ssr:stedsnr" v="350512" />
	</node>
	<node id="-901990" lat="64.6395083355" lon="11.2944500054">
		<tag k="name" v="Dønnes" />
		<tag k="place" v="farm" />
		<tag k="ssr:stedsnr" v="500512" />
	</node>
	<node id="-901470" lat="64.6580694479" lon="11.2643027743">
		<tag k="name" v="Ner-Dun" />
		<tag k="place" v="farm" />
		<tag k="ssr:stedsnr" v="350795" />
	</node>
	<node id="-901978" lat="64.6772406877" lon="11.7167336283">
		<tag k="fixme" v="consider place=hamlet" />
		<tag k="name" v="Hende" />
		<tag k="place" v="farm" />
		<tag k="ssr:stedsnr" v="742342" />
	</node>
	<node id="-902483" lat="64.7313015917" lon="11.5285625436">
		<tag k="fixme" v="consider place=hamlet" />
		<tag k="name" v="Kvernvika" />
		<tag k="place" v="farm" />
		<tag k="ssr:stedsnr" v="864295" />
	</node>
	<node id="-901458" lat="64.6587416653" lon="11.1704388968">
		<tag k="name" v="Bjørkvika" />
		<tag k="place" v="isolated_dwelling" />
		<tag k="ssr:stedsnr" v="47384" />
	</node>
	<node id="-902479" lat="64.6587731154" lon="11.2185989771">
		<tag k="fixme" v="consider place=hamlet" />
		<tag k="name" v="Hov" />
		<tag k="place" v="farm" />
		<tag k="ssr:stedsnr" v="803210" />
	</node>
	<node id="-902477" lat="64.7047849671" lon="11.441862125">
		<tag k="fixme" v="consider place=hamlet" />
		<tag k="name" v="Østtun" />
		<tag k="place" v="farm" />
		<tag k="ssr:stedsnr" v="439235" />
	</node>
	<node id="-902474" lat="64.6711111137" lon="11.2027805528">
		<tag k="name" v="Hammarhaugen" />
		<tag k="place" v="farm" />
		<tag k="ssr:stedsnr" v="257995" />
	</node>
	<node id="-901957" lat="64.6320416677" lon="11.4173777812">
		<tag k="name" v="Hestvika" />
		<tag k="place" v="isolated_dwelling" />
		<tag k="ssr:stedsnr" v="836669" />
	</node>
	<node id="-901003" lat="64.6808805534" lon="11.4193249898">
		<tag k="name" v="Hestvika" />
		<tag k="place" v="farm" />
		<tag k="ssr:stedsnr" v="196305" />
	</node>
	<node id="-901436" lat="64.660925004" lon="11.2523222241">
		<tag k="name" v="Bakkan" />
		<tag k="place" v="farm" />
		<tag k="ssr:stedsnr" v="803330" />
	</node>
	<node id="-901435" lat="64.6369555518" lon="11.2709944431">
		<tag k="name" v="Storenget" />
		<tag k="place" v="farm" />
		<tag k="ssr:stedsnr" v="472950" />
	</node>
	<node id="-902111" lat="64.716349996" lon="11.9103555451">
		<tag k="name" v="Klenningen" />
		<tag k="place" v="locality" />
		<tag k="ssr:stedsnr" v="864217" />
	</node>
	<node id="-901944" lat="64.6450188901" lon="11.4171166243">
		<tag k="fixme" v="consider place=hamlet" />
		<tag k="name" v="Kjelbotnet" />
		<tag k="place" v="farm" />
		<tag k="ssr:stedsnr" v="75430" />
	</node>
	<node id="-902453" lat="64.6587111087" lon="11.2378583311">
		<tag k="name" v="Lauga" />
		<tag k="place" v="farm" />
		<tag k="ssr:stedsnr" v="229137" />
	</node>
	<node id="-902447" lat="64.611350002" lon="11.327102788">
		<tag k="name" v="Stranda" />
		<tag k="place" v="farm" />
		<tag k="ssr:stedsnr" v="47605" />
	</node>
	<node id="-902441" lat="64.7067527782" lon="11.4496777862">
		<tag k="name" v="Bakkan" />
		<tag k="place" v="farm" />
		<tag k="ssr:stedsnr" v="712289" />
	</node>
	<node id="-902438" lat="64.6498361138" lon="11.3514500055">
		<tag k="name" v="Rønningen" />
		<tag k="place" v="farm" />
		<tag k="ssr:stedsnr" v="621433" />
	</node>
	<node id="-901925" lat="64.655169441" lon="11.7019749997">
		<tag k="name" v="Hauksetran" />
		<tag k="place" v="locality" />
		<tag k="ssr:stedsnr" v="257369" />
	</node>
	<node id="-901924" lat="64.6307805554" lon="11.3391444445">
		<tag k="name" v="Lia" />
		<tag k="place" v="farm" />
		<tag k="ssr:stedsnr" v="742354" />
	</node>
	<node id="-902434" lat="64.6572368704" lon="11.2128084363">
		<tag k="alt_name" v="Ner-Hov" />
		<tag k="name" v="Hov" />
		<tag k="place" v="farm" />
		<tag k="ssr:stedsnr" v="439996" />
	</node>
	<node id="-902432" lat="64.6267033507" lon="11.3383374206">
		<tag k="fixme" v="consider place=hamlet" />
		<tag k="name" v="Bergem" />
		<tag k="place" v="farm" />
		<tag k="ssr:stedsnr" v="257434" />
	</node>
	<node id="-901407" lat="64.6405750038" lon="11.1744055605">
		<tag k="name" v="Nordsjøen" />
		<tag k="place" v="locality" />
		<tag k="ssr:stedsnr" v="532382" />
	</node>
	<node id="-901913" lat="64.6971638875" lon="11.4548916674">
		<tag k="amenity" v="school" />
		<tag k="name" v="Salsnes oppvekstsenter" />
		<tag k="old_name" v="Salsnes skole" />
		<tag k="ssr:stedsnr" v="711375" />
	</node>
	<node id="-902422" lat="64.6154888922" lon="11.3270194406">
		<tag k="name" v="Skjærvika" />
		<tag k="place" v="farm" />
		<tag k="ssr:stedsnr" v="439471" />
	</node>
	<node id="-901393" lat="64.640966664" lon="11.1864361036">
		<tag k="name" v="Haugtun" />
		<tag k="place" v="farm" />
		<tag k="ssr:stedsnr" v="257567" />
	</node>
	<node id="-902414" lat="64.6769027807" lon="11.2057583283">
		<tag k="name" v="Havmannvika" />
		<tag k="place" v="locality" />
		<tag k="ssr:stedsnr" v="108848" />
	</node>
	<node id="-901515" lat="64.598336114" lon="11.379">
		<tag k="name" v="Jønnvika" />
		<tag k="place" v="farm" />
		<tag k="ssr:stedsnr" v="925536" />
	</node>
	<node id="-902404" lat="64.620555098" lon="11.2813186499">
		<tag k="fixme" v="consider place=hamlet" />
		<tag k="name" v="Aunet" />
		<tag k="place" v="farm" />
		<tag k="ssr:stedsnr" v="378416" />
	</node>
	<node id="-902399" lat="64.7627944479" lon="12.0233416616">
		<tag k="name" v="Øykvika" />
		<tag k="place" v="locality" />
		<tag k="ssr:stedsnr" v="475075" />
	</node>
	<node id="-901373" lat="64.6448694474" lon="11.194519443">
		<tag k="name" v="Myrset" />
		<tag k="place" v="farm" />
		<tag k="ssr:stedsnr" v="681514" />
	</node>
	<node id="-901759" lat="64.6237472188" lon="11.2795055451">
		<tag k="name" v="Aunabrekka" />
		<tag k="place" v="locality" />
		<tag k="ssr:stedsnr" v="168902" />
	</node>
	<node id="-901366" lat="64.6316749965" lon="11.276311121">
		<tag k="name" v="Nygård" />
		<tag k="place" v="farm" />
		<tag k="ssr:stedsnr" v="196335" />
	</node>
	<node id="-902697" lat="64.5946887441" lon="11.4347560225">
		<tag k="fixme" v="consider place=hamlet" />
		<tag k="name" v="Årbuan" />
		<tag k="place" v="farm" />
		<tag k="ssr:stedsnr" v="621498" />
	</node>
	<node id="-901876" lat="64.6184888865" lon="11.4700944511">
		<tag k="name" v="Breksillsetran" />
		<tag k="place" v="locality" />
		<tag k="ssr:stedsnr" v="75423" />
	</node>
	<node id="-901363" lat="64.6267305563" lon="11.3329805457">
		<tag k="alt_name" v="Bjørkly" />
		<tag k="name" v="Bjørkli" />
		<tag k="place" v="farm" />
		<tag k="ssr:stedsnr" v="499319" />
	</node>
	<node id="-901208" lat="64.6900361096" lon="11.4396722323">
		<tag k="name" v="Rønningen" />
		<tag k="place" v="farm" />
		<tag k="ssr:stedsnr" v="682297" />
	</node>
	<node id="-901863" lat="64.6878166667" lon="11.4346500092">
		<tag k="fixme" v="consider place=hamlet" />
		<tag k="name" v="Salsnes" />
		<tag k="place" v="village" />
		<tag k="ssr:stedsnr" v="925312" />
	</node>
	<node id="-902372" lat="64.6383444418" lon="11.2303333264">
		<tag k="name" v="Krokvikmoen" />
		<tag k="place" v="farm" />
		<tag k="ssr:stedsnr" v="15468" />
	</node>
	<node id="-902365" lat="64.6692305523" lon="11.1839277816">
		<tag k="name" v="Aunet" />
		<tag k="place" v="isolated_dwelling" />
		<tag k="ssr:stedsnr" v="957381" />
	</node>
	<node id="-901498" lat="64.6463583314" lon="11.3494722162">
		<tag k="alt_name" v="Stranda" />
		<tag k="name" v="Jostranda" />
		<tag k="place" v="farm" />
		<tag k="ssr:stedsnr" v="560406" />
	</node>
	<node id="-902359" lat="64.6349583354" lon="11.3178416724">
		<tag k="name" v="Odden" />
		<tag k="place" v="farm" />
		<tag k="ssr:stedsnr" v="378401" />
	</node>
	<node id="-901559" lat="64.635349996" lon="11.3261944425">
		<tag k="name" v="Åsmyra" />
		<tag k="place" v="farm" />
		<tag k="ssr:stedsnr" v="897863" />
	</node>
	<node id="-902350" lat="64.6030981242" lon="11.4269553007">
		<tag k="fixme" v="consider place=hamlet" />
		<tag k="name" v="Myrvika" />
		<tag k="place" v="farm" />
		<tag k="ssr:stedsnr" v="14367" />
	</node>
	<node id="-902093" lat="64.6840590963" lon="11.3003476916">
		<tag k="fixme" v="consider place=hamlet" />
		<tag k="name" v="Fosnes" />
		<tag k="place" v="farm" />
		<tag k="ssr:stedsnr" v="257392" />
	</node>
	<node id="-901828" lat="64.6563000019" lon="11.3521333323">
		<tag k="name" v="Frenndal" />
		<tag k="place" v="farm" />
		<tag k="ssr:stedsnr" v="257360" />
	</node>
	<node id="-901238" lat="64.7413576155" lon="11.9065495298">
		<tag k="fixme" v="consider place=hamlet" />
		<tag k="name" v="Straumen" />
		<tag k="place" v="farm" />
		<tag k="ssr:stedsnr" v="378227" />
	</node>
	<node id="-901813" lat="64.7041974978" lon="11.4345463816">
		<tag k="fixme" v="consider place=hamlet" />
		<tag k="name" v="Vestgården" />
		<tag k="place" v="farm" />
		<tag k="ssr:stedsnr" v="925320" />
	</node>
	<node id="-901798" lat="64.703952775" lon="11.4426833421">
		<tag k="name" v="Sætergården" />
		<tag k="place" v="farm" />
		<tag k="ssr:stedsnr" v="469324" />
	</node>
	<node id="-901284" lat="64.6586972224" lon="11.2259888804">
		<tag k="name" v="Omsletta" />
		<tag k="place" v="isolated_dwelling" />
		<tag k="ssr:stedsnr" v="411143" />
	</node>
	<node id="-902307" lat="64.6213972199" lon="11.3339333309">
		<tag k="name" v="Bergemsmoen" />
		<tag k="place" v="farm" />
		<tag k="ssr:stedsnr" v="654539" />
	</node>
	<node id="-901794" lat="64.6793777752" lon="11.2836277801">
		<tag k="name" v="Brumoen" />
		<tag k="place" v="farm" />
		<tag k="ssr:stedsnr" v="135342" />
	</node>
	<node id="-901281" lat="64.6040597475" lon="11.3968819106">
		<tag k="fixme" v="consider place=hamlet" />
		<tag k="name" v="Nufsfjord" />
		<tag k="place" v="farm" />
		<tag k="ssr:stedsnr" v="621545" />
	</node>
	<node id="-902303" lat="64.6371165592" lon="11.3427625098">
		<tag k="fixme" v="consider place=hamlet" />
		<tag k="name" v="Seierstad" />
		<tag k="place" v="farm" />
		<tag k="ssr:stedsnr" v="682477" />
	</node>
	<node id="-902387" lat="64.6356305584" lon="11.2760777776">
		<tag k="name" v="Moen" />
		<tag k="place" v="farm" />
		<tag k="ssr:stedsnr" v="15471" />
	</node>
	<node id="-901270" lat="64.6126916638" lon="11.3904499973">
		<tag k="name" v="Moen" />
		<tag k="place" v="isolated_dwelling" />
		<tag k="ssr:stedsnr" v="471691" />
	</node>
	<node id="-901230" lat="64.7100694431" lon="11.4353027819">
		<tag k="name" v="Nordsjøen" />
		<tag k="place" v="farm" />
		<tag k="ssr:stedsnr" v="15290" />
	</node>
	<node id="-902802" lat="64.6571912591" lon="11.26451522">
		<tag k="fixme" v="consider place=hamlet" />
		<tag k="name" v="Dun" />
		<tag k="place" v="farm" />
		<tag k="ssr:stedsnr" v="971347" />
	</node>
	<node id="-902288" lat="64.6562416685" lon="11.2660027699">
		<tag k="name" v="Øver-Dun" />
		<tag k="place" v="farm" />
		<tag k="ssr:stedsnr" v="714802" />
	</node>
	<node id="-901229" lat="64.6373277794" lon="11.2744305636">
		<tag k="name" v="Øverenget" />
		<tag k="place" v="farm" />
		<tag k="ssr:stedsnr" v="411949" />
	</node>
	<node id="-901259" lat="64.6910876983" lon="11.4496045282">
		<tag k="fixme" v="consider place=hamlet" />
		<tag k="name" v="Mo" />
		<tag k="place" v="farm" />
		<tag k="ssr:stedsnr" v="621277" />
	</node>
	<node id="-901255" lat="64.688224998" lon="11.4484055522">
		<tag k="name" v="Sandbakken" />
		<tag k="place" v="isolated_dwelling" />
		<tag k="ssr:stedsnr" v="226380" />
	</node>
	<node id="-902790" lat="64.6986438174" lon="10.9990450076">
		<tag k="fixme" v="consider place=hamlet" />
		<tag k="name" v="Moflesa" />
		<tag k="place" v="farm" />
		<tag k="ssr:stedsnr" v="971343" />
	</node>
	<node id="-901253" lat="64.6402211822" lon="11.2507366706">
		<tag k="name" v="Faksdal" />
		<tag k="place" v="farm" />
		<tag k="ssr:stedsnr" v="714984" />
	</node>
	<node id="-901764" lat="64.6591277794" lon="11.3543472182">
		<tag k="name" v="Frenndalsvika" />
		<tag k="place" v="farm" />
		<tag k="ssr:stedsnr" v="15370" />
	</node>
	<node id="-901250" lat="64.6947055599" lon="11.456961107">
		<tag k="name" v="Åsheim" />
		<tag k="place" v="farm" />
		<tag k="ssr:stedsnr" v="773293" />
	</node>
	<node id="-902272" lat="64.6060388904" lon="11.3009972237">
		<tag k="name" v="Vika" />
		<tag k="place" v="farm" />
		<tag k="ssr:stedsnr" v="168598" />
	</node>
	<node id="-902271" lat="64.6122638919" lon="11.4379777684">
		<tag k="name" v="Breksillstranda" />
		<tag k="place" v="farm" />
		<tag k="ssr:stedsnr" v="864526" />
	</node>
	<node id="-901756" lat="64.6340999962" lon="11.3375444351">
		<tag k="name" v="Bergli" />
		<tag k="place" v="farm" />
		<tag k="ssr:stedsnr" v="168900" />
	</node>
	<node id="-901242" lat="64.676583336" lon="11.6243750007">
		<tag k="name" v="Fredrikheimen" />
		<tag k="place" v="locality" />
		<tag k="ssr:stedsnr" v="778465" />
	</node>
	<node id="-902262" lat="64.6455638887" lon="11.3490444535">
		<tag k="name" v="Moan" />
		<tag k="place" v="farm" />
		<tag k="ssr:stedsnr" v="682455" />
	</node>
	<node id="-902773" lat="64.6785749965" lon="11.2926777831">
		<tag k="name" v="Myrmo" />
		<tag k="place" v="farm" />
		<tag k="ssr:stedsnr" v="836832" />
	</node>
	<node id="-902259" lat="64.6397432428" lon="11.190016487">
		<tag k="fixme" v="consider place=hamlet" />
		<tag k="name" v="Tranås" />
		<tag k="place" v="farm" />
		<tag k="ssr:stedsnr" v="499445" />
	</node>
	<node id="-902254" lat="64.638116166" lon="11.3123730067">
		<tag k="fixme" v="consider place=hamlet" />
		<tag k="name" v="Gjesset" />
		<tag k="place" v="farm" />
		<tag k="ssr:stedsnr" v="318430" />
	</node>
	<node id="-902253" lat="64.6482305547" lon="11.3507638891">
		<tag k="name" v="Øyra" />
		<tag k="place" v="farm" />
		<tag k="ssr:stedsnr" v="682454" />
	</node>
	<node id="-902251" lat="64.6060972185" lon="11.4273694467">
		<tag k="name" v="Nord-Myrvika" />
		<tag k="place" v="farm" />
		<tag k="ssr:stedsnr" v="229508" />
	</node>
	<node id="-901737" lat="64.6405186972" lon="11.2548128914">
		<tag k="fixme" v="consider place=hamlet" />
		<tag k="name" v="Faksdal" />
		<tag k="place" v="farm" />
		<tag k="ssr:stedsnr" v="804445" />
	</node>
	<node id="-901736" lat="64.6357972239" lon="11.2286388941">
		<tag k="name" v="Elvabakken" />
		<tag k="place" v="farm" />
		<tag k="ssr:stedsnr" v="560440" />
	</node>
	<node id="-901219" lat="64.6519027796" lon="11.3515222322">
		<tag k="alt_name" v="Jekthammar" />
		<tag k="name" v="Jekthammaren" />
		<tag k="old_name" v="Jægthammaren" />
		<tag k="place" v="farm" />
		<tag k="ssr:stedsnr" v="439315" />
	</node>
	<node id="-901729" lat="64.6455638891" lon="11.2497222132">
		<tag k="barrier" v="fence" />
		<tag k="name" v="Gjerdet" />
		<tag k="ssr:stedsnr" v="350022" />
	</node>
	<node id="-902750" lat="64.6373416684" lon="11.3349194384">
		<tag k="name" v="Rønningen" />
		<tag k="place" v="farm" />
		<tag k="ssr:stedsnr" v="957890" />
	</node>
	<node id="-901724" lat="64.6805611103" lon="11.289908326">
		<tag k="name" v="Leite" />
		<tag k="place" v="farm" />
		<tag k="ssr:stedsnr" v="14274" />
	</node>
	<node id="-901723" lat="64.6843361151" lon="11.2721527875">
		<tag k="name" v="Leirvika" />
		<tag k="place" v="farm" />
		<tag k="ssr:stedsnr" v="135328" />
	</node>
	<node id="-902745" lat="64.6073851645" lon="11.3066033566">
		<tag k="fixme" v="consider place=hamlet" />
		<tag k="name" v="Holvika" />
		<tag k="place" v="farm" />
		<tag k="ssr:stedsnr" v="682556" />
	</node>
	<node id="-901720" lat="64.5754888864" lon="11.4559166725">
		<tag k="historic" v="shieling" />
		<tag k="name" v="Trøttengsetran" />
		<tag k="place" v="locality" />
		<tag k="ssr:stedsnr" v="959630" />
	</node>
	<node id="-901714" lat="64.6839472199" lon="11.3079361157">
		<tag k="name" v="Sørli" />
		<tag k="place" v="farm" />
		<tag k="ssr:stedsnr" v="135330" />
	</node>
	<node id="-902737" lat="64.646677776" lon="11.3244999909">
		<tag k="name" v="Finnhytta" />
		<tag k="place" v="locality" />
		<tag k="ssr:stedsnr" v="957907" />
	</node>
	<node id="-901197" lat="64.7014944453" lon="11.4260333266">
		<tag k="name" v="Strand" />
		<tag k="place" v="farm" />
		<tag k="ssr:stedsnr" v="136317" />
	</node>
	<node id="-902730" lat="64.7018168016" lon="11.4424189281">
		<tag k="fixme" v="consider place=hamlet" />
		<tag k="name" v="Reppen" />
		<tag k="place" v="farm" />
		<tag k="ssr:stedsnr" v="439262" />
	</node>
	<node id="-902217" lat="64.6347638898" lon="11.2790583333">
		<tag k="name" v="Nyheim" />
		<tag k="place" v="farm" />
		<tag k="ssr:stedsnr" v="378386" />
	</node>
	<node id="-902214" lat="64.6616777783" lon="11.1918333428">
		<tag k="alt_name" v="Hovsnesset" />
		<tag k="name" v="Hovsneset" />
		<tag k="place" v="farm" />
		<tag k="ssr:stedsnr" v="197000" />
	</node>
	<node id="-902211" lat="64.632644442" lon="11.2832555563">
		<tag k="name" v="Heimdal" />
		<tag k="place" v="farm" />
		<tag k="ssr:stedsnr" v="378385" />
	</node>
	<node id="-901185" lat="64.6753833298" lon="11.3349805607">
		<tag k="name" v="Moen" />
		<tag k="place" v="farm" />
		<tag k="ssr:stedsnr" v="392964" />
	</node>
	<node id="-902197" lat="64.6318722245" lon="11.3354499904">
		<tag k="name" v="Myrvang" />
		<tag k="place" v="farm" />
		<tag k="ssr:stedsnr" v="317346" />
	</node>
	<node id="-901172" lat="64.6648555521" lon="11.2468416607">
		<tag k="name" v="Granheim" />
		<tag k="place" v="locality" />
		<tag k="ssr:stedsnr" v="500388" />
	</node>
	<node id="-902707" lat="64.6593500029" lon="11.1969055559">
		<tag k="name" v="Myrheim" />
		<tag k="place" v="farm" />
		<tag k="ssr:stedsnr" v="681998" />
	</node>
	<node id="-901167" lat="64.7492083313" lon="11.960830561">
		<tag k="name" v="Aunet" />
		<tag k="place" v="locality" />
		<tag k="ssr:stedsnr" v="778024" />
	</node>
	<node id="-902185" lat="64.740319784" lon="11.8187956244">
		<tag k="fixme" v="consider place=hamlet" />
		<tag k="name" v="Leisåk" />
		<tag k="place" v="farm" />
		<tag k="ssr:stedsnr" v="560225" />
	</node>
	<node id="-901160" lat="64.6353916662" lon="11.2691833333">
		<tag k="name" v="Skogtun" />
		<tag k="place" v="farm" />
		<tag k="ssr:stedsnr" v="108959" />
	</node>
	<node id="-902695" lat="64.7213833372" lon="11.6003111067">
		<tag k="name" v="Ekorndalteigen" />
		<tag k="place" v="locality" />
		<tag k="ssr:stedsnr" v="293493" />
	</node>
	<node id="-901158" lat="64.6395861087" lon="11.2726166624">
		<tag k="name" v="Botnet" />
		<tag k="place" v="farm" />
		<tag k="ssr:stedsnr" v="925470" />
	</node>
	<node id="-902181" lat="64.6562722182" lon="11.2110416621">
		<tag k="name" v="Litlgården" />
		<tag k="place" v="isolated_dwelling" />
		<tag k="ssr:stedsnr" v="47135" />
	</node>
	<node id="-901152" lat="64.7665250031" lon="12.0456527779">
		<tag k="name" v="Nesjan" />
		<tag k="place" v="locality" />
		<tag k="ssr:stedsnr" v="171096" />
	</node>
	<node id="-901663" lat="64.7217916709" lon="11.4996583375">
		<tag k="name" v="Granmo" />
		<tag k="place" v="farm" />
		<tag k="ssr:stedsnr" v="960361" />
	</node>
	<node id="-902173" lat="64.764733335" lon="12.0424527781">
		<tag k="name" v="Liabakkan" />
		<tag k="place" v="locality" />
		<tag k="ssr:stedsnr" v="960103" />
	</node>
	<node id="-902171" lat="64.6271916638" lon="11.2740749988">
		<tag k="name" v="Nymoen" />
		<tag k="place" v="farm" />
		<tag k="ssr:stedsnr" v="681371" />
	</node>
	<node id="-901658" lat="64.6403611074" lon="11.2344361087">
		<tag k="name" v="Bårdvika" />
		<tag k="place" v="farm" />
		<tag k="ssr:stedsnr" v="560417" />
	</node>
	<node id="-901513" lat="64.6492861125" lon="11.3088027856">
		<tag k="name" v="Gjessetsetran" />
		<tag k="place" v="locality" />
		<tag k="ssr:stedsnr" v="290931" />
	</node>
	<node id="-901648" lat="64.6679500023" lon="11.4509194381">
		<tag k="name" v="Urdsvassnaustet" />
		<tag k="place" v="locality" />
		<tag k="ssr:stedsnr" v="108259" />
	</node>
	<node id="-901581" lat="64.6369972237" lon="11.2290805573">
		<tag k="name" v="Gjerdet" />
		<tag k="place" v="locality" />
		<tag k="ssr:stedsnr" v="532005" />
	</node>
	<node id="-902226" lat="64.7698550699" lon="12.0452217305">
		<tag k="fixme" v="consider place=hamlet" />
		<tag k="name" v="Skrøyvstad" />
		<tag k="place" v="farm" />
		<tag k="ssr:stedsnr" v="742909" />
	</node>
	<node id="-901549" lat="64.6774833347" lon="11.2967555551">
		<tag k="name" v="Leirbekken" />
		<tag k="place" v="farm" />
		<tag k="ssr:stedsnr" v="75373" />
	</node>
	<node id="-902155" lat="64.6821666642" lon="11.4447111144">
		<tag k="name" v="Innermoen" />
		<tag k="place" v="locality" />
		<tag k="ssr:stedsnr" v="453339" />
	</node>
	<node id="-901642" lat="64.6329249973" lon="11.2705777801">
		<tag k="fixme" v="multiple name tags, choose one and add the other to alt_name" />
		<tag k="name" v="Mohammar;Strømmoen" />
		<tag k="place" v="farm" />
		<tag k="ssr:stedsnr" v="75388" />
	</node>
	<node id="-901641" lat="64.6455444429" lon="11.2646611167">
		<tag k="name" v="Hylla" />
		<tag k="place" v="farm" />
		<tag k="ssr:stedsnr" v="836982" />
	</node>
	<node id="-901634" lat="64.6287861092" lon="11.2848361035">
		<tag k="name" v="Lauvhaugen" />
		<tag k="place" v="farm" />
		<tag k="ssr:stedsnr" v="75385" />
	</node>
</osm>
