<?xml version="1.0" encoding="UTF-8"?>
<osm generator="osmapis" version="0.6">
	<node id="-921599" lat="64.7604805528" lon="11.9876694438">
		<tag k="fixme" v="consider natural=peak for the most distinct mountains in the district" />
		<tag k="name" v="Naustmofjellet" />
		<tag k="natural" v="hill" />
		<tag k="place" v="locality" />
		<tag k="ssr:stedsnr" v="257887" />
	</node>
	<node id="-921598" lat="64.694780555" lon="11.8029361034">
		<tag k="name" v="Pehusmoen" />
		<tag k="place" v="locality" />
		<tag k="ssr:stedsnr" v="717041" />
	</node>
	<node id="-921596" lat="64.7630305594" lon="12.0574388992">
		<tag k="name" v="Hyllan" />
		<tag k="natural" v="slope" />
		<tag k="place" v="locality" />
		<tag k="ssr:stedsnr" v="232117" />
	</node>
	<node id="-921594" lat="64.7284750028" lon="11.5316222292">
		<tag k="name" v="Sankthanshaugen" />
		<tag k="natural" v="hill" />
		<tag k="place" v="locality" />
		<tag k="ssr:stedsnr" v="657508" />
	</node>
	<node id="-921593" lat="64.7761250047" lon="11.9979499907">
		<tag k="fixme" v="consider natural=peak for the most distinct mountains in the district" />
		<tag k="name" v="Svanatjønnfjellet" />
		<tag k="natural" v="hill" />
		<tag k="place" v="locality" />
		<tag k="ssr:stedsnr" v="803901" />
	</node>
	<node id="-921588" lat="64.6316888923" lon="11.4993416675">
		<tag k="name" v="Stakkstongdalen" />
		<tag k="natural" v="valley" />
		<tag k="place" v="locality" />
		<tag k="ssr:stedsnr" v="593596" />
	</node>
	<node id="-921586" lat="64.6705305524" lon="11.2256444432">
		<tag k="name" v="Storsletta" />
		<tag k="place" v="locality" />
		<tag k="ssr:stedsnr" v="47859" />
	</node>
	<node id="-921584" lat="64.6377888857" lon="11.2207916612">
		<tag k="name" v="Småhaugan" />
		<tag k="natural" v="hill" />
		<tag k="place" v="locality" />
		<tag k="ssr:stedsnr" v="775023" />
	</node>
	<node id="-921580" lat="64.6551861108" lon="11.2501805628">
		<tag k="fixme" v="consider natural=peak for the most distinct mountains in the district" />
		<tag k="name" v="Vesterfjellet" />
		<tag k="natural" v="hill" />
		<tag k="place" v="locality" />
		<tag k="ssr:stedsnr" v="107017" />
	</node>
	<node id="-921579" lat="64.7607999957" lon="12.0715583327">
		<tag k="name" v="Halvgåtthaugen" />
		<tag k="natural" v="hill" />
		<tag k="place" v="locality" />
		<tag k="ssr:stedsnr" v="742843" />
	</node>
	<node id="-921577" lat="64.6887416678" lon="11.5354305598">
		<tag k="fixme" v="consider natural=peak for the most distinct mountains in the district" />
		<tag k="name" v="Durmålfjellet" />
		<tag k="natural" v="hill" />
		<tag k="place" v="locality" />
		<tag k="ssr:stedsnr" v="803353" />
	</node>
	<node id="-921575" lat="64.6418388847" lon="11.3298527678">
		<tag k="fixme" v="consider natural=peak for the most distinct mountains in the district" />
		<tag k="name" v="Høgåsen" />
		<tag k="natural" v="hill" />
		<tag k="place" v="locality" />
		<tag k="ssr:stedsnr" v="168891" />
	</node>
	<node id="-921574" lat="64.7693583358" lon="12.0653138864">
		<tag k="name" v="Jensokhevlan" />
		<tag k="natural" v="hill" />
		<tag k="place" v="locality" />
		<tag k="ssr:stedsnr" v="75931" />
	</node>
	<node id="-921573" lat="64.7805611104" lon="11.9554749923">
		<tag k="fixme" v="consider natural=peak for the most distinct mountains in the district" />
		<tag k="name" v="Elgåvassfjellet" />
		<tag k="natural" v="hill" />
		<tag k="place" v="locality" />
		<tag k="ssr:stedsnr" v="318905" />
	</node>
	<node id="-921565" lat="64.699672219" lon="11.7115361164">
		<tag k="name" v="Trolldalen" />
		<tag k="natural" v="valley" />
		<tag k="place" v="locality" />
		<tag k="ssr:stedsnr" v="414351" />
	</node>
	<node id="-921560" lat="64.6396250013" lon="11.3294277777">
		<tag k="fixme" v="consider natural=peak for the most distinct mountains in the district" />
		<tag k="name" v="Seierstadåsen" />
		<tag k="natural" v="hill" />
		<tag k="place" v="locality" />
		<tag k="ssr:stedsnr" v="350867" />
	</node>
	<node id="-921559" lat="64.661555557" lon="11.269772232">
		<tag k="name" v="Langgjøta" />
		<tag k="natural" v="valley" />
		<tag k="place" v="locality" />
		<tag k="ssr:stedsnr" v="229801" />
	</node>
	<node id="-921558" lat="64.6402249998" lon="11.3073083328">
		<tag k="name" v="Storkløyva" />
		<tag k="natural" v="slope" />
		<tag k="place" v="locality" />
		<tag k="ssr:stedsnr" v="290968" />
	</node>
	<node id="-921557" lat="64.6054777795" lon="11.3223777872">
		<tag k="name" v="Biskophaugen" />
		<tag k="natural" v="hill" />
		<tag k="place" v="locality" />
		<tag k="ssr:stedsnr" v="472590" />
	</node>
	<node id="-921548" lat="64.6344388918" lon="11.2299749994">
		<tag k="name" v="Storhaugen" />
		<tag k="natural" v="hill" />
		<tag k="place" v="locality" />
		<tag k="ssr:stedsnr" v="350017" />
	</node>
	<node id="-921547" lat="64.6887083317" lon="11.3164166635">
		<tag k="name" v="Forrohaugen" />
		<tag k="natural" v="hill" />
		<tag k="place" v="locality" />
		<tag k="ssr:stedsnr" v="925308" />
	</node>
	<node id="-921544" lat="64.6775611136" lon="11.2075500003">
		<tag k="name" v="Breivikhaugen" />
		<tag k="natural" v="hill" />
		<tag k="place" v="locality" />
		<tag k="ssr:stedsnr" v="350847" />
	</node>
	<node id="-921543" lat="64.6720750042" lon="11.8763000082">
		<tag k="name" v="Elvdalen" />
		<tag k="natural" v="valley" />
		<tag k="place" v="locality" />
		<tag k="ssr:stedsnr" v="865814" />
	</node>
	<node id="-921542" lat="64.789438893" lon="12.1213611016">
		<tag k="fixme" v="consider natural=peak for the most distinct mountains in the district" />
		<tag k="name" v="Berrfjellet" />
		<tag k="natural" v="hill" />
		<tag k="place" v="locality" />
		<tag k="ssr:stedsnr" v="621899" />
	</node>
	<node id="-921538" lat="64.7714111099" lon="12.1107638961">
		<tag k="name" v="Hevlan" />
		<tag k="natural" v="hill" />
		<tag k="place" v="locality" />
		<tag k="ssr:stedsnr" v="657131" />
	</node>
	<node id="-921533" lat="64.64662222" lon="11.1997388852">
		<tag k="name" v="Trollskardet" />
		<tag k="natural" v="valley" />
		<tag k="place" v="locality" />
		<tag k="ssr:stedsnr" v="653173" />
	</node>
	<node id="-921529" lat="64.6712666687" lon="11.4566638929">
		<tag k="name" v="Finnhusmoen" />
		<tag k="place" v="locality" />
		<tag k="ssr:stedsnr" v="227303" />
	</node>
	<node id="-921528" lat="64.6601583368" lon="11.2907833326">
		<tag k="name" v="Kløyva" />
		<tag k="natural" v="slope" />
		<tag k="place" v="locality" />
		<tag k="ssr:stedsnr" v="229784" />
	</node>
	<node id="-921527" lat="64.6490555566" lon="11.2151805659">
		<tag k="name" v="Stauringshaugen" />
		<tag k="natural" v="hill" />
		<tag k="place" v="locality" />
		<tag k="ssr:stedsnr" v="350026" />
	</node>
	<node id="-921526" lat="64.6652444405" lon="11.3159416576">
		<tag k="fixme" v="consider natural=peak for the most distinct mountains in the district" />
		<tag k="name" v="Einarskardfjellet" />
		<tag k="natural" v="hill" />
		<tag k="place" v="locality" />
		<tag k="ssr:stedsnr" v="257338" />
	</node>
	<node id="-921525" lat="64.6122833369" lon="11.4430361062">
		<tag k="name" v="Aksla" />
		<tag k="place" v="locality" />
		<tag k="ssr:stedsnr" v="836616" />
	</node>
	<node id="-921524" lat="64.7443527796" lon="12.1015222322">
		<tag k="name" v="Danielmodalen" />
		<tag k="natural" v="valley" />
		<tag k="place" v="locality" />
		<tag k="ssr:stedsnr" v="657127" />
	</node>
	<node id="-921523" lat="64.6155194403" lon="11.3781055455">
		<tag k="name" v="Rypedalen" />
		<tag k="natural" v="valley" />
		<tag k="place" v="locality" />
		<tag k="ssr:stedsnr" v="897516" />
	</node>
	<node id="-921522" lat="64.659730554" lon="11.4045861079">
		<tag k="name" v="Bjønnstien" />
		<tag k="natural" v="valley" />
		<tag k="place" v="locality" />
		<tag k="ssr:stedsnr" v="714257" />
	</node>
	<node id="-921520" lat="64.7890666662" lon="12.0472499937">
		<tag k="fixme" v="consider natural=peak for the most distinct mountains in the district" />
		<tag k="name" v="Skrøyvstadfjellet" />
		<tag k="natural" v="hill" />
		<tag k="place" v="locality" />
		<tag k="ssr:stedsnr" v="318896" />
	</node>
	<node id="-921516" lat="64.6366194467" lon="11.2107305614">
		<tag k="name" v="Kroknesshaugen" />
		<tag k="natural" v="hill" />
		<tag k="place" v="locality" />
		<tag k="ssr:stedsnr" v="472191" />
	</node>
	<node id="-921513" lat="64.6539555598" lon="11.2167777792">
		<tag k="name" v="Loskardhaugen" />
		<tag k="natural" v="hill" />
		<tag k="place" v="locality" />
		<tag k="ssr:stedsnr" v="532036" />
	</node>
	<node id="-921512" lat="64.6687055515" lon="11.4807388884">
		<tag k="name" v="Seiertuvholet" />
		<tag k="natural" v="valley" />
		<tag k="place" v="locality" />
		<tag k="ssr:stedsnr" v="621344" />
	</node>
	<node id="-921510" lat="64.6498694412" lon="11.2546194499">
		<tag k="name" v="Olahaugen" />
		<tag k="natural" v="hill" />
		<tag k="place" v="locality" />
		<tag k="ssr:stedsnr" v="472998" />
	</node>
	<node id="-921509" lat="64.7933500028" lon="12.0196805588">
		<tag k="name" v="Finnvikdalen" />
		<tag k="natural" v="valley" />
		<tag k="place" v="locality" />
		<tag k="ssr:stedsnr" v="560948" />
	</node>
	<node id="-921508" lat="64.6512416687" lon="11.2719499976">
		<tag k="fixme" v="consider natural=peak for the most distinct mountains in the district" />
		<tag k="name" v="Måssahaugen" />
		<tag k="natural" v="hill" />
		<tag k="place" v="locality" />
		<tag k="ssr:stedsnr" v="653998" />
	</node>
	<node id="-921507" lat="64.7276111079" lon="11.5153111023">
		<tag k="name" v="Olahogget" />
		<tag k="natural" v="slope" />
		<tag k="place" v="locality" />
		<tag k="ssr:stedsnr" v="717397" />
	</node>
	<node id="-921506" lat="64.6677805566" lon="11.2187888928">
		<tag k="name" v="Litl-Ramnfjellet" />
		<tag k="natural" v="hill" />
		<tag k="place" v="locality" />
		<tag k="ssr:stedsnr" v="168872" />
	</node>
	<node id="-921503" lat="64.6790333321" lon="11.2358361206">
		<tag k="name" v="Kalvhagan" />
		<tag k="natural" v="valley" />
		<tag k="place" v="locality" />
		<tag k="ssr:stedsnr" v="47838" />
	</node>
	<node id="-921501" lat="64.6799388892" lon="11.4087999924">
		<tag k="name" v="Knivhammaren" />
		<tag k="natural" v="hill" />
		<tag k="place" v="locality" />
		<tag k="ssr:stedsnr" v="530357" />
	</node>
	<node id="-921500" lat="64.811241228" lon="12.0505779551">
		<tag k="alt_name" v="Hopadalen, vestre" />
		<tag k="name" v="Vestre Hopadalen" />
		<tag k="natural" v="valley" />
		<tag k="place" v="locality" />
		<tag k="ssr:stedsnr" v="136927" />
	</node>
	<node id="-921499" lat="64.6817138848" lon="11.4221916666">
		<tag k="name" v="Hestvikhaugan" />
		<tag k="natural" v="hill" />
		<tag k="place" v="locality" />
		<tag k="ssr:stedsnr" v="530356" />
	</node>
	<node id="-921497" lat="64.6728277804" lon="11.2306277823">
		<tag k="name" v="Skåkkjeringsteinen" />
		<tag k="natural" v="hill" />
		<tag k="place" v="locality" />
		<tag k="ssr:stedsnr" v="653135" />
	</node>
	<node id="-921495" lat="64.7501750022" lon="11.9271694441">
		<tag k="fixme" v="consider natural=peak for the most distinct mountains in the district" />
		<tag k="name" v="Høgmyrtinden" />
		<tag k="natural" v="hill" />
		<tag k="place" v="locality" />
		<tag k="ssr:stedsnr" v="257871" />
	</node>
	<node id="-921494" lat="64.7577777784" lon="11.9883472135">
		<tag k="name" v="Flauga" />
		<tag k="natural" v="cliff" />
		<tag k="ssr:stedsnr" v="657095" />
	</node>
	<node id="-921492" lat="64.6787444475" lon="11.2666833295">
		<tag k="fixme" v="consider natural=peak for the most distinct mountains in the district" />
		<tag k="name" v="Seksklumpen" />
		<tag k="natural" v="hill" />
		<tag k="place" v="locality" />
		<tag k="ssr:stedsnr" v="532844" />
	</node>
	<node id="-921490" lat="64.6506194471" lon="11.4692055625">
		<tag k="fixme" v="consider natural=peak for the most distinct mountains in the district" />
		<tag k="name" v="Litlseiertuva" />
		<tag k="natural" v="hill" />
		<tag k="place" v="locality" />
		<tag k="ssr:stedsnr" v="682366" />
	</node>
	<node id="-921486" lat="64.728427778" lon="11.9120694407">
		<tag k="name" v="Vakkerliholet" />
		<tag k="natural" v="valley" />
		<tag k="place" v="locality" />
		<tag k="ssr:stedsnr" v="111010" />
	</node>
	<node id="-921483" lat="64.6719666664" lon="11.2406222221">
		<tag k="name" v="Kvilbakken" />
		<tag k="natural" v="slope" />
		<tag k="place" v="locality" />
		<tag k="ssr:stedsnr" v="653132" />
	</node>
	<node id="-921479" lat="64.672952776" lon="11.2511750051">
		<tag k="name" v="Langbrumoen" />
		<tag k="place" v="locality" />
		<tag k="ssr:stedsnr" v="653131" />
	</node>
	<node id="-921478" lat="64.6426111097" lon="11.2214861101">
		<tag k="name" v="Karlsenhaugen" />
		<tag k="natural" v="hill" />
		<tag k="place" v="locality" />
		<tag k="ssr:stedsnr" v="168028" />
	</node>
	<node id="-921476" lat="64.6453500037" lon="11.2952750007">
		<tag k="alt_name" v="Dønnelsklumpen" />
		<tag k="name" v="Dønnesklumpen" />
		<tag k="natural" v="hill" />
		<tag k="place" v="locality" />
		<tag k="ssr:stedsnr" v="197450" />
	</node>
	<node id="-921475" lat="64.7369805539" lon="12.1040555644">
		<tag k="name" v="Skrøyvdalen" />
		<tag k="natural" v="valley" />
		<tag k="old_name" v="Skroyvdalen" />
		<tag k="place" v="locality" />
		<tag k="ssr:stedsnr" v="135849" />
	</node>
	<node id="-921470" lat="64.677588885" lon="11.5536083308">
		<tag k="name" v="Grønnlia" />
		<tag k="natural" v="slope" />
		<tag k="place" v="locality" />
		<tag k="ssr:stedsnr" v="657481" />
	</node>
	<node id="-921469" lat="64.7517500033" lon="12.0118777805">
		<tag k="name" v="Storvikdalen" />
		<tag k="natural" v="valley" />
		<tag k="place" v="locality" />
		<tag k="ssr:stedsnr" v="135848" />
	</node>
	<node id="-921463" lat="64.6650944466" lon="11.2174833374">
		<tag k="name" v="Ramnfjellaksla" />
		<tag k="place" v="locality" />
		<tag k="ssr:stedsnr" v="653128" />
	</node>
	<node id="-921462" lat="64.7157999973" lon="11.4977666655">
		<tag k="name" v="Bjønnadalen" />
		<tag k="natural" v="valley" />
		<tag k="place" v="locality" />
		<tag k="ssr:stedsnr" v="717388" />
	</node>
	<node id="-921461" lat="64.6394416671" lon="11.2170777678">
		<tag k="name" v="Storhaugen" />
		<tag k="natural" v="hill" />
		<tag k="place" v="locality" />
		<tag k="ssr:stedsnr" v="168031" />
	</node>
	<node id="-921455" lat="64.6633388856" lon="11.2277499943">
		<tag k="name" v="Geitaberga" />
		<tag k="natural" v="hill" />
		<tag k="place" v="locality" />
		<tag k="ssr:stedsnr" v="653126" />
	</node>
	<node id="-921448" lat="64.666883337" lon="11.8154500032">
		<tag k="name" v="Lomtjønndalen" />
		<tag k="natural" v="valley" />
		<tag k="place" v="locality" />
		<tag k="ssr:stedsnr" v="378853" />
	</node>
	<node id="-921441" lat="64.681466668" lon="11.509336102">
		<tag k="name" v="Råfjellkråa" />
		<tag k="natural" v="valley" />
		<tag k="place" v="locality" />
		<tag k="ssr:stedsnr" v="439353" />
	</node>
	<node id="-921431" lat="64.6275361127" lon="11.4387777809">
		<tag k="name" v="Mårdalen" />
		<tag k="natural" v="valley" />
		<tag k="place" v="locality" />
		<tag k="ssr:stedsnr" v="411610" />
	</node>
	<node id="-921430" lat="64.6846305591" lon="11.4943416631">
		<tag k="name" v="Kavelbrua" />
		<tag k="natural" v="slope" />
		<tag k="place" v="locality" />
		<tag k="ssr:stedsnr" v="227286" />
	</node>
	<node id="-921429" lat="64.6516277798" lon="11.278655557">
		<tag k="name" v="Sesslia" />
		<tag k="natural" v="slope" />
		<tag k="place" v="locality" />
		<tag k="ssr:stedsnr" v="290938" />
	</node>
	<node id="-921424" lat="64.6660361142" lon="11.201188891">
		<tag k="name" v="Vannhagahaugan" />
		<tag k="natural" v="hill" />
		<tag k="place" v="locality" />
		<tag k="ssr:stedsnr" v="472160" />
	</node>
	<node id="-921423" lat="64.6261972221" lon="11.4520583327">
		<tag k="fixme" v="consider natural=peak for the most distinct mountains in the district" />
		<tag k="name" v="Brennfjellhatten" />
		<tag k="natural" v="hill" />
		<tag k="ssr:stedsnr" v="290546" />
	</node>
	<node id="-921422" lat="64.5863750046" lon="11.4569416567">
		<tag k="name" v="Straumahatten" />
		<tag k="natural" v="hill" />
		<tag k="place" v="locality" />
		<tag k="ssr:stedsnr" v="257047" />
	</node>
	<node id="-921420" lat="64.6820472183" lon="11.2992638971">
		<tag k="name" v="Løsthaugen" />
		<tag k="natural" v="hill" />
		<tag k="place" v="locality" />
		<tag k="ssr:stedsnr" v="532833" />
	</node>
	<node id="-921415" lat="64.668444442" lon="11.2493833363">
		<tag k="alt_name" v="Grønnlihalsen" />
		<tag k="name" v="Granlihalsen" />
		<tag k="natural" v="hill" />
		<tag k="place" v="locality" />
		<tag k="ssr:stedsnr" v="742296" />
	</node>
	<node id="-921413" lat="64.7725000001" lon="12.0891805501">
		<tag k="alt_name" v="Skavholet" />
		<tag k="name" v="Skardholet" />
		<tag k="natural" v="valley" />
		<tag k="place" v="locality" />
		<tag k="ssr:stedsnr" v="196901" />
	</node>
	<node id="-921410" lat="64.7267722258" lon="11.5632805629">
		<tag k="name" v="Svartdalshøgda" />
		<tag k="natural" v="hill" />
		<tag k="place" v="locality" />
		<tag k="ssr:stedsnr" v="232451" />
	</node>
	<node id="-921408" lat="64.7467972202" lon="11.8183694465">
		<tag k="name" v="Kvennakroken" />
		<tag k="natural" v="valley" />
		<tag k="place" v="locality" />
		<tag k="ssr:stedsnr" v="293251" />
	</node>
	<node id="-921406" lat="64.657758332" lon="11.6739416658">
		<tag k="name" v="Heivikdalen" />
		<tag k="natural" v="valley" />
		<tag k="place" v="locality" />
		<tag k="ssr:stedsnr" v="318345" />
	</node>
	<node id="-921405" lat="64.6180750022" lon="11.4475138975">
		<tag k="name" v="Davermoen" />
		<tag k="place" v="locality" />
		<tag k="ssr:stedsnr" v="290555" />
	</node>
	<node id="-921397" lat="64.7615638862" lon="11.8566305528">
		<tag k="fixme" v="consider natural=peak for the most distinct mountains in the district" />
		<tag k="name" v="Salvikfjellet" />
		<tag k="natural" v="hill" />
		<tag k="place" v="locality" />
		<tag k="ssr:stedsnr" v="621877" />
	</node>
	<node id="-921396" lat="64.6599249986" lon="11.2260333253">
		<tag k="name" v="Sammarfjøshaugen" />
		<tag k="natural" v="hill" />
		<tag k="place" v="locality" />
		<tag k="ssr:stedsnr" v="290150" />
	</node>
	<node id="-921395" lat="64.6416694472" lon="11.2671555638">
		<tag k="name" v="Røddølin" />
		<tag k="natural" v="valley" />
		<tag k="place" v="locality" />
		<tag k="ssr:stedsnr" v="593978" />
	</node>
	<node id="-921393" lat="64.6775527823" lon="11.2257944413">
		<tag k="name" v="Storskardlia" />
		<tag k="natural" v="slope" />
		<tag k="place" v="locality" />
		<tag k="ssr:stedsnr" v="350830" />
	</node>
	<node id="-921392" lat="64.6928083364" lon="11.4560722225">
		<tag k="name" v="Vasshaugen" />
		<tag k="natural" v="hill" />
		<tag k="place" v="locality" />
		<tag k="ssr:stedsnr" v="469272" />
	</node>
	<node id="-921387" lat="64.6654999988" lon="11.809327788">
		<tag k="name" v="Elghaugen" />
		<tag k="natural" v="hill" />
		<tag k="place" v="locality" />
		<tag k="ssr:stedsnr" v="47403" />
	</node>
	<node id="-921384" lat="64.6162833357" lon="11.2844333437">
		<tag k="fixme" v="consider natural=peak for the most distinct mountains in the district" />
		<tag k="name" v="Aunafjellet" />
		<tag k="natural" v="hill" />
		<tag k="place" v="locality" />
		<tag k="ssr:stedsnr" v="897864" />
	</node>
	<node id="-921383" lat="64.6393583371" lon="11.1987527777">
		<tag k="name" v="Gjerdhaugen" />
		<tag k="natural" v="hill" />
		<tag k="place" v="locality" />
		<tag k="ssr:stedsnr" v="957195" />
	</node>
	<node id="-921382" lat="64.6695555572" lon="11.2853111094">
		<tag k="fixme" v="consider natural=peak for the most distinct mountains in the district" />
		<tag k="name" v="Brennfjellet" />
		<tag k="natural" v="hill" />
		<tag k="place" v="locality" />
		<tag k="ssr:stedsnr" v="803322" />
	</node>
	<node id="-921377" lat="64.6844194412" lon="11.4828333332">
		<tag k="name" v="Valaåsen" />
		<tag k="place" v="locality" />
		<tag k="ssr:stedsnr" v="530333" />
	</node>
	<node id="-921374" lat="64.6528222212" lon="11.2616861029">
		<tag k="name" v="Brekka" />
		<tag k="natural" v="slope" />
		<tag k="place" v="locality" />
		<tag k="ssr:stedsnr" v="593955" />
	</node>
	<node id="-921372" lat="64.6132611093" lon="11.4354972244">
		<tag k="name" v="Mohaugen" />
		<tag k="natural" v="hill" />
		<tag k="place" v="locality" />
		<tag k="ssr:stedsnr" v="592723" />
	</node>
	<node id="-921367" lat="64.6365583365" lon="11.299869453">
		<tag k="name" v="Fosshaugan" />
		<tag k="natural" v="hill" />
		<tag k="place" v="locality" />
		<tag k="ssr:stedsnr" v="472955" />
	</node>
	<node id="-921364" lat="64.6105194411" lon="11.3241166607">
		<tag k="name" v="Skjærvikstorhaugen" />
		<tag k="natural" v="hill" />
		<tag k="place" v="locality" />
		<tag k="ssr:stedsnr" v="411598" />
	</node>
	<node id="-921363" lat="64.6363222256" lon="11.2912249997">
		<tag k="name" v="Tverrdalan" />
		<tag k="natural" v="valley" />
		<tag k="place" v="locality" />
		<tag k="ssr:stedsnr" v="836965" />
	</node>
	<node id="-921359" lat="64.6599833355" lon="11.2458361124">
		<tag k="name" v="Lovasshaugan" />
		<tag k="natural" v="hill" />
		<tag k="place" v="locality" />
		<tag k="ssr:stedsnr" v="593142" />
	</node>
	<node id="-921357" lat="64.6632027822" lon="11.2582083281">
		<tag k="name" v="Jamthallaren" />
		<tag k="natural" v="hill" />
		<tag k="place" v="locality" />
		<tag k="ssr:stedsnr" v="775787" />
	</node>
	<node id="-921353" lat="64.6601277813" lon="11.3908888992">
		<tag k="fixme" v="consider natural=peak for the most distinct mountains in the district" />
		<tag k="name" v="Tingstadfjellet" />
		<tag k="natural" v="hill" />
		<tag k="place" v="locality" />
		<tag k="ssr:stedsnr" v="135296" />
	</node>
	<node id="-921352" lat="64.6631750013" lon="11.3377777771">
		<tag k="fixme" v="consider natural=peak for the most distinct mountains in the district" />
		<tag k="name" v="Kolfjellet" />
		<tag k="natural" v="hill" />
		<tag k="place" v="locality" />
		<tag k="ssr:stedsnr" v="803318" />
	</node>
	<node id="-921350" lat="64.6484027766" lon="11.3178999947">
		<tag k="alt_name" v="Vardfjellet" />
		<tag k="fixme" v="consider natural=peak for the most distinct mountains in the district" />
		<tag k="name" v="Gjessetfjellet" />
		<tag k="natural" v="hill" />
		<tag k="place" v="locality" />
		<tag k="ssr:stedsnr" v="560403" />
	</node>
	<node id="-921348" lat="64.63756667" lon="11.2036777854">
		<tag k="name" v="Sandbakken" />
		<tag k="natural" v="slope" />
		<tag k="place" v="locality" />
		<tag k="ssr:stedsnr" v="957188" />
	</node>
	<node id="-921347" lat="64.6305027761" lon="11.4445833283">
		<tag k="name" v="Bjønndalen" />
		<tag k="natural" v="valley" />
		<tag k="place" v="locality" />
		<tag k="ssr:stedsnr" v="714601" />
	</node>
	<node id="-921346" lat="64.6353749961" lon="11.8819777719">
		<tag k="fixme" v="consider natural=peak for the most distinct mountains in the district" />
		<tag k="name" v="Storengaksla - Gåahketjahke" />
		<tag k="name:no" v="Storengaksla" />
		<tag k="name:sma" v="Gåahketjahke" />
		<tag k="natural" v="hill" />
		<tag k="place" v="locality" />
		<tag k="ssr:stedsnr" v="135834" />
	</node>
	<node id="-921345" lat="64.6746916701" lon="11.2340527684">
		<tag k="name" v="Hammarhaugen" />
		<tag k="natural" v="hill" />
		<tag k="place" v="locality" />
		<tag k="ssr:stedsnr" v="864400" />
	</node>
	<node id="-921340" lat="64.6669666654" lon="11.2765833333">
		<tag k="fixme" v="consider natural=peak for the most distinct mountains in the district" />
		<tag k="name" v="Kjerkfjellet" />
		<tag k="natural" v="hill" />
		<tag k="place" v="locality" />
		<tag k="ssr:stedsnr" v="775783" />
	</node>
	<node id="-921337" lat="64.6473222263" lon="11.1911722209">
		<tag k="name" v="Nonsskardet" />
		<tag k="natural" v="valley" />
		<tag k="place" v="locality" />
		<tag k="ssr:stedsnr" v="651451" />
	</node>
	<node id="-921332" lat="64.6722111084" lon="11.20301666">
		<tag k="name" v="Stonghaugen" />
		<tag k="natural" v="hill" />
		<tag k="place" v="locality" />
		<tag k="ssr:stedsnr" v="836148" />
	</node>
	<node id="-921331" lat="64.6240777761" lon="11.4472138857">
		<tag k="name" v="Smådalan" />
		<tag k="natural" v="valley" />
		<tag k="place" v="locality" />
		<tag k="ssr:stedsnr" v="714598" />
	</node>
	<node id="-921330" lat="64.7639833293" lon="12.0231083431">
		<tag k="name" v="Naustmoen" />
		<tag k="place" v="locality" />
		<tag k="ssr:stedsnr" v="682890" />
	</node>
	<node id="-921326" lat="64.7841444478" lon="12.023338889">
		<tag k="name" v="Svanatjønndalen" />
		<tag k="natural" v="valley" />
		<tag k="place" v="locality" />
		<tag k="ssr:stedsnr" v="232064" />
	</node>
	<node id="-921325" lat="64.7027444436" lon="11.4193777713">
		<tag k="name" v="Geitaberget" />
		<tag k="natural" v="hill" />
		<tag k="place" v="locality" />
		<tag k="ssr:stedsnr" v="348312" />
	</node>
	<node id="-921323" lat="64.6899999975" lon="11.7013111037">
		<tag k="name" v="Gangnetdalen" />
		<tag k="natural" v="valley" />
		<tag k="place" v="locality" />
		<tag k="ssr:stedsnr" v="75368" />
	</node>
	<node id="-921319" lat="64.6747027793" lon="11.2892222282">
		<tag k="fixme" v="consider natural=peak for the most distinct mountains in the district" />
		<tag k="name" v="Brennhaugen" />
		<tag k="natural" v="hill" />
		<tag k="place" v="locality" />
		<tag k="ssr:stedsnr" v="775780" />
	</node>
	<node id="-921318" lat="64.7938750022" lon="12.1056138882">
		<tag k="alt_name" v="Langkjolihevlan" />
		<tag k="fixme" v="consider natural=peak for the most distinct mountains in the district" />
		<tag k="name" v="Langkjølihevlan" />
		<tag k="natural" v="hill" />
		<tag k="place" v="locality" />
		<tag k="ssr:stedsnr" v="15891" />
	</node>
	<node id="-921317" lat="64.6870833332" lon="11.4930333406">
		<tag k="name" v="Vikahaugen" />
		<tag k="natural" v="hill" />
		<tag k="place" v="locality" />
		<tag k="ssr:stedsnr" v="681255" />
	</node>
	<node id="-921314" lat="64.7618527762" lon="12.0599805503">
		<tag k="alt_name" v="Hyllenghaugan" />
		<tag k="name" v="Hyllenghaugen" />
		<tag k="natural" v="hill" />
		<tag k="place" v="locality" />
		<tag k="ssr:stedsnr" v="621868" />
	</node>
	<node id="-921311" lat="64.6599805557" lon="11.2309944354">
		<tag k="name" v="Røddølshaugan" />
		<tag k="natural" v="hill" />
		<tag k="place" v="locality" />
		<tag k="ssr:stedsnr" v="472131" />
	</node>
	<node id="-921309" lat="64.654613886" lon="11.4597083314">
		<tag k="name" v="Hansvika" />
		<tag k="natural" v="slope" />
		<tag k="place" v="locality" />
		<tag k="ssr:stedsnr" v="45303" />
	</node>
	<node id="-921308" lat="64.649525003" lon="11.865050003">
		<tag k="name" v="Sørskardet" />
		<tag k="natural" v="valley" />
		<tag k="place" v="locality" />
		<tag k="ssr:stedsnr" v="621867" />
	</node>
	<node id="-921306" lat="64.6897972199" lon="11.3262333398">
		<tag k="name" v="Karavikhaugen" />
		<tag k="natural" v="hill" />
		<tag k="place" v="locality" />
		<tag k="ssr:stedsnr" v="653957" />
	</node>
	<node id="-921303" lat="64.6814027756" lon="11.2773583378">
		<tag k="fixme" v="consider natural=peak for the most distinct mountains in the district" />
		<tag k="name" v="Høglia" />
		<tag k="natural" v="hill" />
		<tag k="place" v="locality" />
		<tag k="ssr:stedsnr" v="439336" />
	</node>
	<node id="-921301" lat="64.6372638932" lon="11.440036117">
		<tag k="name" v="Tømmerdalen" />
		<tag k="natural" v="valley" />
		<tag k="place" v="locality" />
		<tag k="ssr:stedsnr" v="714211" />
	</node>
	<node id="-921299" lat="64.641858337" lon="11.2956500028">
		<tag k="fixme" v="consider natural=peak for the most distinct mountains in the district" />
		<tag k="name" v="Dønnelsklomphaugan" />
		<tag k="natural" v="hill" />
		<tag k="place" v="locality" />
		<tag k="ssr:stedsnr" v="593943" />
	</node>
	<node id="-921298" lat="64.6575638931" lon="11.1942166725">
		<tag k="name" v="Småvikhaugen" />
		<tag k="natural" v="hill" />
		<tag k="place" v="locality" />
		<tag k="ssr:stedsnr" v="957211" />
	</node>
	<node id="-921289" lat="64.6591333334" lon="11.2743499936">
		<tag k="name" v="Merragråhaugen" />
		<tag k="natural" v="hill" />
		<tag k="place" v="locality" />
		<tag k="ssr:stedsnr" v="47798" />
	</node>
	<node id="-921288" lat="64.6127694458" lon="11.4823555515">
		<tag k="name" v="Pålengkløyva" />
		<tag k="natural" v="slope" />
		<tag k="place" v="locality" />
		<tag k="ssr:stedsnr" v="471721" />
	</node>
	<node id="-921286" lat="64.7570750022" lon="11.7671749973">
		<tag k="fixme" v="consider natural=peak for the most distinct mountains in the district" />
		<tag k="name" v="Bugafjellet" />
		<tag k="natural" v="hill" />
		<tag k="place" v="locality" />
		<tag k="ssr:stedsnr" v="439862" />
	</node>
	<node id="-921283" lat="64.6561000044" lon="11.7561249988">
		<tag k="name" v="Klakktjønndalen" />
		<tag k="natural" v="valley" />
		<tag k="place" v="locality" />
		<tag k="ssr:stedsnr" v="742813" />
	</node>
	<node id="-921282" lat="64.7058666676" lon="11.4542666653">
		<tag k="name" v="Brennhaugen" />
		<tag k="natural" v="hill" />
		<tag k="place" v="locality" />
		<tag k="ssr:stedsnr" v="166332" />
	</node>
	<node id="-921280" lat="64.6178083321" lon="11.4342361198">
		<tag k="name" v="Kjerringhaugen" />
		<tag k="natural" v="hill" />
		<tag k="place" v="locality" />
		<tag k="ssr:stedsnr" v="714614" />
	</node>
	<node id="-921279" lat="64.6468666684" lon="11.2540361098">
		<tag k="name" v="Åshaugan" />
		<tag k="natural" v="hill" />
		<tag k="place" v="locality" />
		<tag k="ssr:stedsnr" v="411999" />
	</node>
	<node id="-921278" lat="64.7783305577" lon="12.0746388896">
		<tag k="name" v="Tverrbekkremma" />
		<tag k="natural" v="slope" />
		<tag k="place" v="locality" />
		<tag k="ssr:stedsnr" v="50102" />
	</node>
	<node id="-921269" lat="64.650711112" lon="11.3142305567">
		<tag k="name" v="Kjerrringbråten" />
		<tag k="natural" v="slope" />
		<tag k="place" v="locality" />
		<tag k="ssr:stedsnr" v="653949" />
	</node>
	<node id="-921258" lat="64.6897444404" lon="11.4424305453">
		<tag k="name" v="Lyshaugen" />
		<tag k="natural" v="hill" />
		<tag k="place" v="locality" />
		<tag k="ssr:stedsnr" v="893334" />
	</node>
	<node id="-921253" lat="64.661555557" lon="11.269772232">
		<tag k="name" v="Beretlia" />
		<tag k="natural" v="slope" />
		<tag k="place" v="locality" />
		<tag k="ssr:stedsnr" v="775793" />
	</node>
	<node id="-921251" lat="64.6925861093" lon="11.5164277717">
		<tag k="name" v="Dumållia" />
		<tag k="natural" v="slope" />
		<tag k="place" v="locality" />
		<tag k="ssr:stedsnr" v="45295" />
	</node>
	<node id="-921248" lat="64.6527861107" lon="11.7068250018">
		<tag k="fixme" v="consider natural=peak for the most distinct mountains in the district" />
		<tag k="name" v="Middagsfjellet" />
		<tag k="natural" v="hill" />
		<tag k="place" v="locality" />
		<tag k="ssr:stedsnr" v="560397" />
	</node>
	<node id="-921242" lat="64.7068194437" lon="11.8283916727">
		<tag k="name" v="Gudmundlia" />
		<tag k="natural" v="slope" />
		<tag k="place" v="locality" />
		<tag k="ssr:stedsnr" v="232043" />
	</node>
	<node id="-921239" lat="64.6949027749" lon="11.8782333241">
		<tag k="name" v="Salmarkskardet" />
		<tag k="natural" v="valley" />
		<tag k="place" v="locality" />
		<tag k="ssr:stedsnr" v="232044" />
	</node>
	<node id="-921236" lat="64.6625444444" lon="11.2952499956">
		<tag k="name" v="Svalikroken" />
		<tag k="natural" v="valley" />
		<tag k="place" v="locality" />
		<tag k="ssr:stedsnr" v="47789" />
	</node>
	<node id="-921232" lat="64.6408972233" lon="11.2448194372">
		<tag k="name" v="Bårdvikkløyva" />
		<tag k="natural" v="slope" />
		<tag k="place" v="locality" />
		<tag k="ssr:stedsnr" v="897026" />
	</node>
	<node id="-921231" lat="64.7755777754" lon="11.9617666582">
		<tag k="name" v="Svanatjønndalen" />
		<tag k="natural" v="valley" />
		<tag k="place" v="locality" />
		<tag k="ssr:stedsnr" v="136897" />
	</node>
	<node id="-921225" lat="64.6434027756" lon="11.5774777733">
		<tag k="name" v="Tvistholet" />
		<tag k="natural" v="valley" />
		<tag k="place" v="locality" />
		<tag k="ssr:stedsnr" v="594703" />
	</node>
	<node id="-921223" lat="64.6587777749" lon="11.2973888844">
		<tag k="fixme" v="consider natural=peak for the most distinct mountains in the district" />
		<tag k="name" v="Geitaberget" />
		<tag k="natural" v="hill" />
		<tag k="place" v="locality" />
		<tag k="ssr:stedsnr" v="47785" />
	</node>
	<node id="-921217" lat="64.6698499961" lon="11.4638083366">
		<tag k="name" v="Maritsletta" />
		<tag k="natural" v="slope" />
		<tag k="place" v="locality" />
		<tag k="ssr:stedsnr" v="773303" />
	</node>
	<node id="-921209" lat="64.6513" lon="11.7294583392">
		<tag k="name" v="Ormengan" />
		<tag k="natural" v="valley" />
		<tag k="place" v="locality" />
		<tag k="ssr:stedsnr" v="75880" />
	</node>
	<node id="-921207" lat="64.7539444464" lon="11.8892611168">
		<tag k="name" v="Jettenlia" />
		<tag k="natural" v="slope" />
		<tag k="place" v="locality" />
		<tag k="ssr:stedsnr" v="803847" />
	</node>
	<node id="-921203" lat="64.6672444461" lon="11.4562527794">
		<tag k="fixme" v="multiple name tags, choose one and add the other to alt_name" />
		<tag k="name" v="Hyttemoen;Maritsletta" />
		<tag k="place" v="locality" />
		<tag k="ssr:stedsnr" v="75350" />
	</node>
	<node id="-921200" lat="64.6253361129" lon="11.2673305565">
		<tag k="name" v="Aunaskarvet" />
		<tag k="natural" v="hill" />
		<tag k="place" v="locality" />
		<tag k="ssr:stedsnr" v="653910" />
	</node>
	<node id="-921198" lat="64.5785388907" lon="11.4280750024">
		<tag k="fixme" v="consider natural=peak for the most distinct mountains in the district" />
		<tag k="name" v="Svanfjellet" />
		<tag k="natural" v="hill" />
		<tag k="place" v="locality" />
		<tag k="ssr:stedsnr" v="803035" />
	</node>
	<node id="-921194" lat="64.7764916661" lon="12.0796972306">
		<tag k="name" v="Åbakkan" />
		<tag k="natural" v="slope" />
		<tag k="place" v="locality" />
		<tag k="ssr:stedsnr" v="718122" />
	</node>
	<node id="-921188" lat="64.7586750017" lon="11.9555388968">
		<tag k="fixme" v="consider natural=peak for the most distinct mountains in the district" />
		<tag k="name" v="Survikfjellet" />
		<tag k="natural" v="hill" />
		<tag k="place" v="locality" />
		<tag k="ssr:stedsnr" v="803858" />
	</node>
	<node id="-921185" lat="64.6313861143" lon="11.2583972142">
		<tag k="name" v="Ankelskardet" />
		<tag k="natural" v="valley" />
		<tag k="place" v="locality" />
		<tag k="ssr:stedsnr" v="897852" />
	</node>
	<node id="-921184" lat="64.6291944457" lon="11.2693111204">
		<tag k="name" v="Foråsen" />
		<tag k="natural" v="hill" />
		<tag k="place" v="locality" />
		<tag k="ssr:stedsnr" v="897854" />
	</node>
	<node id="-921182" lat="64.7556750033" lon="11.834619436">
		<tag k="fixme" v="consider natural=peak for the most distinct mountains in the district" />
		<tag k="name" v="Låvikfjellet" />
		<tag k="natural" v="hill" />
		<tag k="place" v="locality" />
		<tag k="ssr:stedsnr" v="682886" />
	</node>
	<node id="-921180" lat="64.6746916687" lon="11.2968055481">
		<tag k="name" v="Fosnesmoan" />
		<tag k="place" v="locality" />
		<tag k="ssr:stedsnr" v="532784" />
	</node>
	<node id="-921177" lat="64.6729388899" lon="11.6968638792">
		<tag k="name" v="Skoghaugen" />
		<tag k="natural" v="hill" />
		<tag k="place" v="locality" />
		<tag k="ssr:stedsnr" v="864395" />
	</node>
	<node id="-921176" lat="64.7553361116" lon="12.0114888841">
		<tag k="name" v="Storvikhammaren" />
		<tag k="natural" v="hill" />
		<tag k="place" v="locality" />
		<tag k="ssr:stedsnr" v="50083" />
	</node>
	<node id="-921175" lat="64.766986115" lon="11.9229916688">
		<tag k="name" v="Kovadalen" />
		<tag k="natural" v="valley" />
		<tag k="place" v="locality" />
		<tag k="ssr:stedsnr" v="778106" />
	</node>
	<node id="-921172" lat="64.7292138891" lon="11.5273833257">
		<tag k="name" v="Sammarfjøshaugen" />
		<tag k="natural" v="hill" />
		<tag k="place" v="locality" />
		<tag k="ssr:stedsnr" v="778490" />
	</node>
	<node id="-921166" lat="64.6765694468" lon="11.22691388">
		<tag k="name" v="Brakstadstakken" />
		<tag k="natural" v="hill" />
		<tag k="place" v="locality" />
		<tag k="ssr:stedsnr" v="864396" />
	</node>
	<node id="-921165" lat="64.652219447" lon="11.3502805522">
		<tag k="name" v="Storhaugen" />
		<tag k="natural" v="hill" />
		<tag k="place" v="locality" />
		<tag k="ssr:stedsnr" v="290904" />
	</node>
	<node id="-921164" lat="64.6567277779" lon="11.8430749963">
		<tag k="fixme" v="consider natural=peak for the most distinct mountains in the district" />
		<tag k="name" v="Tjønnabben" />
		<tag k="natural" v="hill" />
		<tag k="place" v="locality" />
		<tag k="ssr:stedsnr" v="75876" />
	</node>
	<node id="-921161" lat="64.7290222213" lon="11.5477777712">
		<tag k="name" v="Johannahaugen" />
		<tag k="natural" v="hill" />
		<tag k="place" v="locality" />
		<tag k="ssr:stedsnr" v="50463" />
	</node>
	<node id="-921160" lat="64.7560222193" lon="11.9666249984">
		<tag k="name" v="Ørnflauget" />
		<tag k="natural" v="cliff" />
		<tag k="ssr:stedsnr" v="50079" />
	</node>
	<node id="-921159" lat="64.6739305601" lon="11.200616657">
		<tag k="name" v="Geitvikhaugen" />
		<tag k="natural" v="hill" />
		<tag k="place" v="locality" />
		<tag k="ssr:stedsnr" v="957176" />
	</node>
	<node id="-921157" lat="64.7099805549" lon="11.4547555542">
		<tag k="alt_name" v="Litl-Huskleppen" />
		<tag k="fixme" v="consider natural=peak for the most distinct mountains in the district" />
		<tag k="name" v="Litlhuskleppen" />
		<tag k="natural" v="hill" />
		<tag k="place" v="locality" />
		<tag k="ssr:stedsnr" v="378250" />
	</node>
	<node id="-921156" lat="64.6842333293" lon="11.797822213">
		<tag k="name" v="Knutdalen" />
		<tag k="natural" v="valley" />
		<tag k="place" v="locality" />
		<tag k="ssr:stedsnr" v="657055" />
	</node>
	<node id="-921155" lat="64.6651944402" lon="11.2705166649">
		<tag k="name" v="Buhalsen" />
		<tag k="natural" v="valley" />
		<tag k="place" v="locality" />
		<tag k="ssr:stedsnr" v="350781" />
	</node>
	<node id="-921147" lat="64.6305055514" lon="11.2287083276">
		<tag k="name" v="Brennhaugen" />
		<tag k="natural" v="hill" />
		<tag k="place" v="locality" />
		<tag k="ssr:stedsnr" v="290099" />
	</node>
	<node id="-921142" lat="64.6699277767" lon="11.2069527812">
		<tag k="name" v="Brakstadhammaren" />
		<tag k="natural" v="hill" />
		<tag k="place" v="locality" />
		<tag k="ssr:stedsnr" v="836133" />
	</node>
	<node id="-921139" lat="64.7409444486" lon="12.094669442">
		<tag k="name" v="Danielmoen" />
		<tag k="place" v="locality" />
		<tag k="ssr:stedsnr" v="900134" />
	</node>
	<node id="-921137" lat="64.6125388918" lon="11.3284249985">
		<tag k="name" v="Sjøhaugen" />
		<tag k="natural" v="hill" />
		<tag k="place" v="locality" />
		<tag k="ssr:stedsnr" v="593496" />
	</node>
	<node id="-921136" lat="64.7308277793" lon="11.5407166638">
		<tag k="name" v="Vassvikhaugen" />
		<tag k="natural" v="hill" />
		<tag k="place" v="locality" />
		<tag k="ssr:stedsnr" v="50458" />
	</node>
	<node id="-921135" lat="64.6755611142" lon="11.2286694427">
		<tag k="name" v="Granlia" />
		<tag k="natural" v="slope" />
		<tag k="place" v="locality" />
		<tag k="ssr:stedsnr" v="957143" />
	</node>
	<node id="-921134" lat="64.6717999972" lon="11.1967666728">
		<tag k="name" v="Nausthaugen" />
		<tag k="natural" v="hill" />
		<tag k="place" v="locality" />
		<tag k="ssr:stedsnr" v="108185" />
	</node>
	<node id="-921132" lat="64.6782444473" lon="11.8133166685">
		<tag k="name" v="Aunkroken" />
		<tag k="natural" v="hill" />
		<tag k="place" v="locality" />
		<tag k="ssr:stedsnr" v="232020" />
	</node>
	<node id="-921126" lat="64.62861944" lon="11.2887999992">
		<tag k="name" v="Aunadalen" />
		<tag k="natural" v="valley" />
		<tag k="place" v="locality" />
		<tag k="ssr:stedsnr" v="499314" />
	</node>
	<node id="-921125" lat="64.750011113" lon="12.0387888789">
		<tag k="fixme" v="consider natural=peak for the most distinct mountains in the district" />
		<tag k="name" v="Storvikfjellet" />
		<tag k="natural" v="hill" />
		<tag k="place" v="locality" />
		<tag k="ssr:stedsnr" v="196865" />
	</node>
	<node id="-921124" lat="64.6756749957" lon="11.2121666616">
		<tag k="name" v="Gårdshaugen" />
		<tag k="natural" v="hill" />
		<tag k="place" v="locality" />
		<tag k="ssr:stedsnr" v="620985" />
	</node>
	<node id="-921119" lat="64.6546666642" lon="11.3226250072">
		<tag k="name" v="Hålondbakken" />
		<tag k="natural" v="slope" />
		<tag k="place" v="locality" />
		<tag k="ssr:stedsnr" v="836914" />
	</node>
	<node id="-921116" lat="64.6595555555" lon="11.2369944419">
		<tag k="name" v="Røddølin" />
		<tag k="natural" v="slope" />
		<tag k="place" v="locality" />
		<tag k="ssr:stedsnr" v="836102" />
	</node>
	<node id="-921114" lat="64.6357722208" lon="11.3057694446">
		<tag k="name" v="Øyadalen" />
		<tag k="natural" v="valley" />
		<tag k="place" v="locality" />
		<tag k="ssr:stedsnr" v="411961" />
	</node>
	<node id="-921111" lat="64.7378611099" lon="12.1162138924">
		<tag k="name" v="Urddalen" />
		<tag k="natural" v="valley" />
		<tag k="place" v="locality" />
		<tag k="ssr:stedsnr" v="900130" />
	</node>
	<node id="-921108" lat="64.6141888911" lon="11.3689416753">
		<tag k="name" v="Flaugtrappen" />
		<tag k="natural" v="hill" />
		<tag k="place" v="locality" />
		<tag k="ssr:stedsnr" v="593506" />
	</node>
	<node id="-921106" lat="64.6339250034" lon="11.3011083327">
		<tag k="name" v="Øyahalsen" />
		<tag k="natural" v="hill" />
		<tag k="place" v="locality" />
		<tag k="ssr:stedsnr" v="411957" />
	</node>
	<node id="-921100" lat="64.70823709" lon="11.4122423339">
		<tag k="name" v="Ryneshaugan" />
		<tag k="natural" v="hill" />
		<tag k="place" v="locality" />
		<tag k="ssr:stedsnr" v="974424" />
	</node>
	<node id="-921099" lat="64.678325002" lon="11.7616749958">
		<tag k="name" v="Skifteshaugen" />
		<tag k="natural" v="hill" />
		<tag k="place" v="locality" />
		<tag k="ssr:stedsnr" v="682853" />
	</node>
	<node id="-921097" lat="64.6021083308" lon="11.4566138812">
		<tag k="name" v="Skardarenna" />
		<tag k="natural" v="gorge" />
		<tag k="ssr:stedsnr" v="775727" />
	</node>
	<node id="-921095" lat="64.6542333306" lon="11.3348166623">
		<tag k="name" v="Kvithaugen" />
		<tag k="natural" v="hill" />
		<tag k="place" v="locality" />
		<tag k="ssr:stedsnr" v="472909" />
	</node>
	<node id="-921094" lat="64.6632027775" lon="11.4623916735">
		<tag k="name" v="Litlseiertuvaksla" />
		<tag k="place" v="locality" />
		<tag k="ssr:stedsnr" v="166294" />
	</node>
	<node id="-921093" lat="64.672158335" lon="11.1885861146">
		<tag k="name" v="Ryggen" />
		<tag k="natural" v="hill" />
		<tag k="place" v="locality" />
		<tag k="ssr:stedsnr" v="108181" />
	</node>
	<node id="-921092" lat="64.6636027793" lon="11.2233583348">
		<tag k="name" v="Litlmyrhaugen" />
		<tag k="natural" v="hill" />
		<tag k="place" v="locality" />
		<tag k="ssr:stedsnr" v="957142" />
	</node>
	<node id="-921091" lat="64.6414194441" lon="11.2908083277">
		<tag k="name" v="Hommelhaugen" />
		<tag k="natural" v="hill" />
		<tag k="place" v="locality" />
		<tag k="ssr:stedsnr" v="411959" />
	</node>
	<node id="-921090" lat="64.6654000002" lon="11.6933916749">
		<tag k="name" v="Haukhaugen" />
		<tag k="natural" v="hill" />
		<tag k="place" v="locality" />
		<tag k="ssr:stedsnr" v="75335" />
	</node>
	<node id="-921087" lat="64.7750527779" lon="12.0373999911">
		<tag k="fixme" v="consider natural=peak for the most distinct mountains in the district" />
		<tag k="name" v="Hustinden" />
		<tag k="natural" v="hill" />
		<tag k="place" v="locality" />
		<tag k="ssr:stedsnr" v="379881" />
	</node>
	<node id="-921084" lat="64.6596000022" lon="11.7366833345">
		<tag k="fixme" v="consider natural=peak for the most distinct mountains in the district" />
		<tag k="name" v="Selifjellet" />
		<tag k="natural" v="hill" />
		<tag k="place" v="locality" />
		<tag k="ssr:stedsnr" v="682871" />
	</node>
	<node id="-921083" lat="64.640399999" lon="11.1724583348">
		<tag k="name" v="Nausthaugen" />
		<tag k="natural" v="hill" />
		<tag k="place" v="locality" />
		<tag k="ssr:stedsnr" v="775353" />
	</node>
	<node id="-921082" lat="64.7195222261" lon="11.6067972212">
		<tag k="name" v="Ekorndalen" />
		<tag k="natural" v="valley" />
		<tag k="place" v="locality" />
		<tag k="ssr:stedsnr" v="50446" />
	</node>
	<node id="-921074" lat="64.7350388909" lon="11.531925001">
		<tag k="name" v="Finnberga" />
		<tag k="natural" v="hill" />
		<tag k="place" v="locality" />
		<tag k="ssr:stedsnr" v="171526" />
	</node>
	<node id="-921070" lat="64.6744833323" lon="11.7968000011">
		<tag k="alt_name" v="Brannfjell" />
		<tag k="fixme" v="consider natural=peak for the most distinct mountains in the district" />
		<tag k="name" v="Brannfjellet" />
		<tag k="natural" v="hill" />
		<tag k="place" v="locality" />
		<tag k="ssr:stedsnr" v="621832" />
	</node>
	<node id="-921067" lat="64.6513944414" lon="11.2646083274">
		<tag k="name" v="Krakahaugen" />
		<tag k="natural" v="hill" />
		<tag k="place" v="locality" />
		<tag k="ssr:stedsnr" v="109000" />
	</node>
	<node id="-921065" lat="64.6655277776" lon="11.2938472221">
		<tag k="fixme" v="consider natural=peak for the most distinct mountains in the district" />
		<tag k="name" v="Aglen-rundhaugen" />
		<tag k="natural" v="hill" />
		<tag k="place" v="locality" />
		<tag k="ssr:stedsnr" v="168785" />
	</node>
	<node id="-921060" lat="64.6067972227" lon="11.4819999904">
		<tag k="name" v="Sagåsen" />
		<tag k="natural" v="hill" />
		<tag k="place" v="locality" />
		<tag k="ssr:stedsnr" v="775743" />
	</node>
	<node id="-921059" lat="64.6509805572" lon="11.3291361191">
		<tag k="name" v="Forrohaugen" />
		<tag k="natural" v="hill" />
		<tag k="place" v="locality" />
		<tag k="ssr:stedsnr" v="836919" />
	</node>
	<node id="-921054" lat="64.6302611123" lon="11.4872333365">
		<tag k="name" v="Krestianvika" />
		<tag k="natural" v="slope" />
		<tag k="place" v="locality" />
		<tag k="ssr:stedsnr" v="471673" />
	</node>
	<node id="-921052" lat="64.6746111084" lon="11.2037694346">
		<tag k="name" v="Havmannvikskardet" />
		<tag k="natural" v="valley" />
		<tag k="place" v="locality" />
		<tag k="ssr:stedsnr" v="714149" />
	</node>
	<node id="-921044" lat="64.6491472253" lon="11.2754666672">
		<tag k="fixme" v="consider natural=peak for the most distinct mountains in the district" />
		<tag k="name" v="Raudberghaugen" />
		<tag k="natural" v="hill" />
		<tag k="place" v="locality" />
		<tag k="ssr:stedsnr" v="714978" />
	</node>
	<node id="-921041" lat="64.5984444458" lon="11.4609444499">
		<tag k="name" v="Skjelhagamoen" />
		<tag k="place" v="locality" />
		<tag k="ssr:stedsnr" v="47739" />
	</node>
	<node id="-921040" lat="64.656930558" lon="11.303902784">
		<tag k="name" v="Kjerkmoen" />
		<tag k="place" v="locality" />
		<tag k="ssr:stedsnr" v="168780" />
	</node>
	<node id="-921039" lat="64.6631222224" lon="11.2064333306">
		<tag k="name" v="Forrohaugen" />
		<tag k="natural" v="hill" />
		<tag k="place" v="locality" />
		<tag k="ssr:stedsnr" v="957154" />
	</node>
	<node id="-921038" lat="64.7572027741" lon="11.7824027833">
		<tag k="name" v="Skogkjerringlia" />
		<tag k="natural" v="slope" />
		<tag k="place" v="locality" />
		<tag k="ssr:stedsnr" v="596201" />
	</node>
	<node id="-921035" lat="64.7854388851" lon="12.0785305569">
		<tag k="name" v="Nordlia" />
		<tag k="natural" v="slope" />
		<tag k="place" v="locality" />
		<tag k="ssr:stedsnr" v="804880" />
	</node>
	<node id="-921027" lat="64.5975444429" lon="11.4827444506">
		<tag k="name" v="Blautdikhaugen" />
		<tag k="natural" v="hill" />
		<tag k="place" v="locality" />
		<tag k="ssr:stedsnr" v="47738" />
	</node>
	<node id="-921025" lat="64.6462722183" lon="11.1709444438">
		<tag k="name" v="Klokkanihaugen" />
		<tag k="natural" v="hill" />
		<tag k="place" v="locality" />
		<tag k="ssr:stedsnr" v="44429" />
	</node>
	<node id="-921024" lat="64.6578527812" lon="11.3258277862">
		<tag k="fixme" v="multiple name tags, choose one and add the other to alt_name" />
		<tag k="loc_name" v="Hålondbakkfjella" />
		<tag k="name" v="Flatfjellet;Hollonbakkfjella" />
		<tag k="natural" v="hill" />
		<tag k="place" v="locality" />
		<tag k="ssr:stedsnr" v="864360" />
	</node>
	<node id="-921019" lat="64.6514277822" lon="11.2190527822">
		<tag k="fixme" v="multiple name tags, choose one and add the other to alt_name" />
		<tag k="name" v="Juvulskardet;Roggo" />
		<tag k="natural" v="valley" />
		<tag k="place" v="locality" />
		<tag k="ssr:stedsnr" v="653039" />
	</node>
	<node id="-921018" lat="64.667663889" lon="11.3406277722">
		<tag k="alt_name" v="Vikaskardet" />
		<tag k="name" v="Vikarskardet" />
		<tag k="natural" v="valley" />
		<tag k="place" v="locality" />
		<tag k="ssr:stedsnr" v="439302" />
	</node>
	<node id="-921017" lat="64.7094500015" lon="11.4872833319">
		<tag k="name" v="Vassklubben" />
		<tag k="natural" v="hill" />
		<tag k="place" v="locality" />
		<tag k="ssr:stedsnr" v="15274" />
	</node>
	<node id="-921010" lat="64.6139055538" lon="11.2869361104">
		<tag k="name" v="Pallan" />
		<tag k="natural" v="hill" />
		<tag k="place" v="locality" />
		<tag k="ssr:stedsnr" v="378509" />
	</node>
	<node id="-921009" lat="64.6633055578" lon="11.2669833322">
		<tag k="fixme" v="consider natural=peak for the most distinct mountains in the district" />
		<tag k="name" v="Dunafjellet" />
		<tag k="natural" v="hill" />
		<tag k="place" v="locality" />
		<tag k="ssr:stedsnr" v="500385" />
	</node>
	<node id="-921005" lat="64.607922222" lon="11.2989055606">
		<tag k="name" v="Brannhaugen" />
		<tag k="natural" v="hill" />
		<tag k="place" v="locality" />
		<tag k="ssr:stedsnr" v="836897" />
	</node>
	<node id="-921001" lat="64.6985666692" lon="11.6310499973">
		<tag k="fixme" v="consider natural=peak for the most distinct mountains in the district" />
		<tag k="name" v="Kjerringnesfjellet" />
		<tag k="natural" v="hill" />
		<tag k="place" v="locality" />
		<tag k="ssr:stedsnr" v="136318" />
	</node>
	<node id="-921000" lat="64.623869443" lon="11.2728416573">
		<tag k="name" v="Storroggo" />
		<tag k="natural" v="valley" />
		<tag k="place" v="locality" />
		<tag k="ssr:stedsnr" v="593873" />
	</node>
	<node id="-920990" lat="64.6048916666" lon="11.4284666582">
		<tag k="name" v="Spennhaugen" />
		<tag k="natural" v="hill" />
		<tag k="place" v="locality" />
		<tag k="ssr:stedsnr" v="957507" />
	</node>
	<node id="-920985" lat="64.6450305519" lon="11.7319083351">
		<tag k="fixme" v="consider natural=peak for the most distinct mountains in the district" />
		<tag k="name" v="Hopan" />
		<tag k="natural" v="hill" />
		<tag k="place" v="locality" />
		<tag k="ssr:stedsnr" v="196830" />
	</node>
	<node id="-920981" lat="64.6441277782" lon="11.2184611165">
		<tag k="name" v="Lauvlia" />
		<tag k="natural" v="slope" />
		<tag k="place" v="locality" />
		<tag k="ssr:stedsnr" v="472042" />
	</node>
	<node id="-920972" lat="64.6251361088" lon="11.4756555639">
		<tag k="name" v="Finntrappen" />
		<tag k="natural" v="hill" />
		<tag k="place" v="locality" />
		<tag k="ssr:stedsnr" v="47709" />
	</node>
	<node id="-920968" lat="64.6076722244" lon="11.4375222257">
		<tag k="name" v="Spennhaugen" />
		<tag k="natural" v="hill" />
		<tag k="place" v="locality" />
		<tag k="ssr:stedsnr" v="411498" />
	</node>
	<node id="-920966" lat="64.6253583324" lon="11.5090888945">
		<tag k="name" v="Tyskerhaugen" />
		<tag k="natural" v="hill" />
		<tag k="place" v="locality" />
		<tag k="ssr:stedsnr" v="532721" />
	</node>
	<node id="-920965" lat="64.6766666667" lon="11.4224083382">
		<tag k="name" v="Hausvegen" />
		<tag k="natural" v="slope" />
		<tag k="place" v="locality" />
		<tag k="ssr:stedsnr" v="499280" />
	</node>
	<node id="-920964" lat="64.7250250015" lon="11.5207138879">
		<tag k="name" v="Kløyvaberga" />
		<tag k="natural" v="hill" />
		<tag k="place" v="locality" />
		<tag k="ssr:stedsnr" v="232357" />
	</node>
	<node id="-920963" lat="64.6144527749" lon="11.3961611114">
		<tag k="fixme" v="consider natural=peak for the most distinct mountains in the district" />
		<tag k="name" v="Mofjellet" />
		<tag k="natural" v="hill" />
		<tag k="place" v="locality" />
		<tag k="ssr:stedsnr" v="378503" />
	</node>
	<node id="-920961" lat="64.6315027751" lon="11.3623694402">
		<tag k="name" v="Ramflauget" />
		<tag k="natural" v="hill" />
		<tag k="place" v="locality" />
		<tag k="ssr:stedsnr" v="411506" />
	</node>
	<node id="-920959" lat="64.6881694432" lon="11.8031972204">
		<tag k="name" v="Halvgåtthaugen" />
		<tag k="natural" v="hill" />
		<tag k="place" v="locality" />
		<tag k="ssr:stedsnr" v="353061" />
	</node>
	<node id="-920958" lat="64.6642555513" lon="11.7027749892">
		<tag k="name" v="Hauka" />
		<tag k="natural" v="hill" />
		<tag k="place" v="locality" />
		<tag k="ssr:stedsnr" v="864337" />
	</node>
	<node id="-920954" lat="64.6534277755" lon="11.2167250051">
		<tag k="name" v="Loskardet" />
		<tag k="natural" v="valley" />
		<tag k="place" v="locality" />
		<tag k="ssr:stedsnr" v="836041" />
	</node>
	<node id="-920952" lat="64.7176638856" lon="11.5231888943">
		<tag k="fixme" v="consider natural=peak for the most distinct mountains in the district" />
		<tag k="name" v="Brennfjellet" />
		<tag k="natural" v="hill" />
		<tag k="place" v="locality" />
		<tag k="ssr:stedsnr" v="318260" />
	</node>
	<node id="-920949" lat="64.6247527777" lon="11.4394555522">
		<tag k="name" v="Sula" />
		<tag k="natural" v="hill" />
		<tag k="place" v="locality" />
		<tag k="ssr:stedsnr" v="471638" />
	</node>
	<node id="-920947" lat="64.6898000001" lon="11.8702194436">
		<tag k="name" v="Østenholet" />
		<tag k="natural" v="valley" />
		<tag k="place" v="locality" />
		<tag k="ssr:stedsnr" v="353056" />
	</node>
	<node id="-920944" lat="64.7281138896" lon="11.5982833406">
		<tag k="fixme" v="consider natural=peak for the most distinct mountains in the district" />
		<tag k="name" v="Hesthagafjellet" />
		<tag k="natural" v="hill" />
		<tag k="place" v="locality" />
		<tag k="ssr:stedsnr" v="171480" />
	</node>
	<node id="-920942" lat="64.6176000041" lon="11.3280583321">
		<tag k="name" v="Skjæra" />
		<tag k="natural" v="slope" />
		<tag k="place" v="locality" />
		<tag k="ssr:stedsnr" v="108543" />
	</node>
	<node id="-920939" lat="64.7488027749" lon="11.9929472283">
		<tag k="name" v="Skjeftmyrhaugan" />
		<tag k="natural" v="hill" />
		<tag k="place" v="locality" />
		<tag k="ssr:stedsnr" v="293122" />
	</node>
	<node id="-920936" lat="64.7310499986" lon="11.9038305518">
		<tag k="name" v="Steinkløyva" />
		<tag k="natural" v="slope" />
		<tag k="place" v="locality" />
		<tag k="ssr:stedsnr" v="50014" />
	</node>
	<node id="-920934" lat="64.6263583344" lon="11.4700027691">
		<tag k="name" v="Elghaugen" />
		<tag k="natural" v="hill" />
		<tag k="place" v="locality" />
		<tag k="ssr:stedsnr" v="47700" />
	</node>
	<node id="-920933" lat="64.6060833307" lon="11.3763527768">
		<tag k="fixme" v="consider natural=peak for the most distinct mountains in the district" />
		<tag k="name" v="Litlengfjellet" />
		<tag k="natural" v="hill" />
		<tag k="place" v="locality" />
		<tag k="ssr:stedsnr" v="714521" />
	</node>
	<node id="-920931" lat="64.7607555517" lon="12.045299996">
		<tag k="fixme" v="consider natural=peak for the most distinct mountains in the district" />
		<tag k="name" v="Middagsfjellet" />
		<tag k="natural" v="hill" />
		<tag k="place" v="locality" />
		<tag k="ssr:stedsnr" v="499816" />
	</node>
	<node id="-920930" lat="64.6041583347" lon="11.3875666688">
		<tag k="fixme" v="consider natural=peak for the most distinct mountains in the district" />
		<tag k="name" v="Langfjellet" />
		<tag k="natural" v="hill" />
		<tag k="place" v="locality" />
		<tag k="ssr:stedsnr" v="411482" />
	</node>
	<node id="-920928" lat="64.6790694441" lon="11.339105557">
		<tag k="name" v="Moldvikhamran" />
		<tag k="natural" v="hill" />
		<tag k="place" v="locality" />
		<tag k="ssr:stedsnr" v="108951" />
	</node>
	<node id="-920924" lat="64.6796083367" lon="11.7960666766">
		<tag k="name" v="Nilsholet" />
		<tag k="natural" v="valley" />
		<tag k="place" v="locality" />
		<tag k="ssr:stedsnr" v="778033" />
	</node>
	<node id="-920919" lat="64.6285361147" lon="11.2649888902">
		<tag k="name" v="Kløyva" />
		<tag k="natural" v="slope" />
		<tag k="place" v="locality" />
		<tag k="ssr:stedsnr" v="411886" />
	</node>
	<node id="-920917" lat="64.6528305583" lon="11.231405554">
		<tag k="name" v="Banglohaugan" />
		<tag k="natural" v="hill" />
		<tag k="place" v="locality" />
		<tag k="ssr:stedsnr" v="46027" />
	</node>
	<node id="-920910" lat="64.6578138872" lon="11.1889472123">
		<tag k="name" v="Valvikhaugen" />
		<tag k="natural" v="hill" />
		<tag k="place" v="locality" />
		<tag k="ssr:stedsnr" v="229226" />
	</node>
	<node id="-920908" lat="64.6100388927" lon="11.3778888887">
		<tag k="fixme" v="consider natural=peak for the most distinct mountains in the district" />
		<tag k="name" v="Buvikfjellet" />
		<tag k="natural" v="hill" />
		<tag k="place" v="locality" />
		<tag k="ssr:stedsnr" v="714514" />
	</node>
	<node id="-920906" lat="64.7291638904" lon="11.5480611085">
		<tag k="alt_name" v="Kvernvikfjellet" />
		<tag k="fixme" v="consider natural=peak for the most distinct mountains in the district" />
		<tag k="name" v="Kvennvikfjellet" />
		<tag k="natural" v="hill" />
		<tag k="place" v="locality" />
		<tag k="ssr:stedsnr" v="439283" />
	</node>
	<node id="-920905" lat="64.6605249974" lon="11.4391777856">
		<tag k="fixme" v="consider natural=peak for the most distinct mountains in the district" />
		<tag k="name" v="Hestmarkfjellet" />
		<tag k="natural" v="hill" />
		<tag k="place" v="locality" />
		<tag k="ssr:stedsnr" v="560331" />
	</node>
	<node id="-920900" lat="64.5861888854" lon="11.4016777731">
		<tag k="name" v="Hunddalhaugan" />
		<tag k="natural" v="hill" />
		<tag k="place" v="locality" />
		<tag k="ssr:stedsnr" v="560051" />
	</node>
	<node id="-920897" lat="64.5987888918" lon="11.4287472267">
		<tag k="name" v="Middagsbakken" />
		<tag k="natural" v="slope" />
		<tag k="place" v="locality" />
		<tag k="ssr:stedsnr" v="290432" />
	</node>
	<node id="-920896" lat="64.7247333358" lon="11.5098972236">
		<tag k="name" v="Nordbekkdalan" />
		<tag k="natural" v="hill" />
		<tag k="place" v="locality" />
		<tag k="ssr:stedsnr" v="474388" />
	</node>
	<node id="-920895" lat="64.6571555523" lon="11.2785805589">
		<tag k="name" v="Kulihaugen" />
		<tag k="natural" v="hill" />
		<tag k="place" v="locality" />
		<tag k="ssr:stedsnr" v="897773" />
	</node>
	<node id="-920894" lat="64.6337749956" lon="11.2191916731">
		<tag k="name" v="Riarkløyva" />
		<tag k="natural" v="slope" />
		<tag k="place" v="locality" />
		<tag k="ssr:stedsnr" v="290021" />
	</node>
	<node id="-920891" lat="64.7121888881" lon="11.4636861072">
		<tag k="name" v="Grovin" />
		<tag k="natural" v="valley" />
		<tag k="place" v="locality" />
		<tag k="ssr:stedsnr" v="292360" />
	</node>
	<node id="-920887" lat="64.726458333" lon="11.527911106">
		<tag k="name" v="Finnhyttdalen" />
		<tag k="natural" v="valley" />
		<tag k="place" v="locality" />
		<tag k="ssr:stedsnr" v="171513" />
	</node>
	<node id="-920885" lat="64.7251750013" lon="11.569969436">
		<tag k="fixme" v="consider natural=peak for the most distinct mountains in the district" />
		<tag k="name" v="Gravvikfjellet" />
		<tag k="natural" v="hill" />
		<tag k="place" v="locality" />
		<tag k="ssr:stedsnr" v="136335" />
	</node>
	<node id="-920883" lat="64.6763000043" lon="11.2199055646">
		<tag k="name" v="Leirvikskardet" />
		<tag k="natural" v="valley" />
		<tag k="place" v="locality" />
		<tag k="ssr:stedsnr" v="290855" />
	</node>
	<node id="-920881" lat="64.5984166703" lon="11.3551361142">
		<tag k="name" v="Litlhaugen" />
		<tag k="natural" v="hill" />
		<tag k="place" v="locality" />
		<tag k="ssr:stedsnr" v="714529" />
	</node>
	<node id="-920880" lat="64.6881444489" lon="11.318022215">
		<tag k="name" v="Utafollshaugen" />
		<tag k="natural" v="hill" />
		<tag k="place" v="locality" />
		<tag k="ssr:stedsnr" v="897792" />
	</node>
	<node id="-920879" lat="64.6147361153" lon="11.3396333279">
		<tag k="name" v="Svartskulen" />
		<tag k="natural" v="hill" />
		<tag k="place" v="locality" />
		<tag k="ssr:stedsnr" v="836495" />
	</node>
	<node id="-920877" lat="64.6447361099" lon="11.1807305464">
		<tag k="name" v="Langsanddalen" />
		<tag k="natural" v="valley" />
		<tag k="place" v="locality" />
		<tag k="ssr:stedsnr" v="955446" />
	</node>
	<node id="-920875" lat="64.6653444418" lon="11.2464222176">
		<tag k="name" v="Grønnlia" />
		<tag k="natural" v="slope" />
		<tag k="place" v="locality" />
		<tag k="ssr:stedsnr" v="714112" />
	</node>
	<node id="-920873" lat="64.6197416669" lon="11.368800004">
		<tag k="name" v="Klokkatihaugen" />
		<tag k="natural" v="hill" />
		<tag k="place" v="locality" />
		<tag k="ssr:stedsnr" v="411532" />
	</node>
	<node id="-920872" lat="64.6046194466" lon="11.3847361022">
		<tag k="name" v="Flatfjellet" />
		<tag k="natural" v="hill" />
		<tag k="place" v="locality" />
		<tag k="ssr:stedsnr" v="108576" />
	</node>
	<node id="-920864" lat="64.6708472192" lon="11.3438472184">
		<tag k="fixme" v="consider natural=peak for the most distinct mountains in the district" />
		<tag k="name" v="Moldvikfjellet" />
		<tag k="natural" v="hill" />
		<tag k="place" v="locality" />
		<tag k="ssr:stedsnr" v="197380" />
	</node>
	<node id="-920862" lat="64.6359888866" lon="11.4967861184">
		<tag k="name" v="Bessfarhatten" />
		<tag k="natural" v="hill" />
		<tag k="place" v="locality" />
		<tag k="ssr:stedsnr" v="229269" />
	</node>
	<node id="-920859" lat="64.7479500015" lon="11.826075008">
		<tag k="alt_name" v="Låvfjellet" />
		<tag k="fixme" v="consider natural=peak for the most distinct mountains in the district" />
		<tag k="name" v="Låvefjellet" />
		<tag k="natural" v="hill" />
		<tag k="place" v="locality" />
		<tag k="ssr:stedsnr" v="378222" />
	</node>
	<node id="-920858" lat="64.7092055566" lon="11.4089972183">
		<tag k="name" v="Rynesmoen" />
		<tag k="place" v="locality" />
		<tag k="ssr:stedsnr" v="226363" />
	</node>
	<node id="-920856" lat="64.6243916687" lon="11.327372215">
		<tag k="fixme" v="consider natural=peak for the most distinct mountains in the district" />
		<tag k="name" v="Bergemsåsen" />
		<tag k="natural" v="hill" />
		<tag k="place" v="locality" />
		<tag k="ssr:stedsnr" v="593482" />
	</node>
	<node id="-920849" lat="64.6187805596" lon="11.3374055463">
		<tag k="name" v="Brennhaugen" />
		<tag k="natural" v="hill" />
		<tag k="place" v="locality" />
		<tag k="ssr:stedsnr" v="290468" />
	</node>
	<node id="-920843" lat="64.7219611076" lon="11.4997305576">
		<tag k="name" v="Sørbekkmoen" />
		<tag k="place" v="locality" />
		<tag k="ssr:stedsnr" v="439296" />
	</node>
	<node id="-920838" lat="64.6453999959" lon="11.2134611183">
		<tag k="name" v="Lauvlifjellet" />
		<tag k="natural" v="hill" />
		<tag k="place" v="locality" />
		<tag k="ssr:stedsnr" v="593049" />
	</node>
	<node id="-920837" lat="64.7039472192" lon="11.7982277853">
		<tag k="name" v="Litlenghaugen" />
		<tag k="natural" v="hill" />
		<tag k="place" v="locality" />
		<tag k="ssr:stedsnr" v="778057" />
	</node>
	<node id="-920836" lat="64.6719500018" lon="11.3446916591">
		<tag k="fixme" v="consider natural=peak for the most distinct mountains in the district" />
		<tag k="name" v="Gyltfjellet" />
		<tag k="natural" v="hill" />
		<tag k="place" v="locality" />
		<tag k="ssr:stedsnr" v="560344" />
	</node>
	<node id="-920832" lat="64.7224416624" lon="11.9002027768">
		<tag k="name" v="Sammargodhaugan" />
		<tag k="natural" v="hill" />
		<tag k="place" v="locality" />
		<tag k="ssr:stedsnr" v="50033" />
	</node>
	<node id="-922629" lat="64.6901416642" lon="11.8130194389">
		<tag k="alt_name" v="Bjønndalen" />
		<tag k="name" v="Bjørndalen" />
		<tag k="natural" v="valley" />
		<tag k="place" v="locality" />
		<tag k="ssr:stedsnr" v="257221" />
	</node>
	<node id="-922627" lat="64.6232111093" lon="11.4892305573">
		<tag k="name" v="Mastervika" />
		<tag k="natural" v="valley" />
		<tag k="place" v="locality" />
		<tag k="ssr:stedsnr" v="168717" />
	</node>
	<node id="-922624" lat="64.6954416631" lon="11.8625999978">
		<tag k="alt_name" v="Durmålslifjellet" />
		<tag k="fixme" v="consider natural=peak for the most distinct mountains in the district" />
		<tag k="name" v="Durmålsfjellet" />
		<tag k="natural" v="hill" />
		<tag k="place" v="locality" />
		<tag k="ssr:stedsnr" v="257222" />
	</node>
	<node id="-922623" lat="64.7760333375" lon="11.9524083254">
		<tag k="name" v="Elgåvasslia" />
		<tag k="natural" v="slope" />
		<tag k="place" v="locality" />
		<tag k="ssr:stedsnr" v="440877" />
	</node>
	<node id="-922622" lat="64.6216777793" lon="11.3050777688">
		<tag k="name" v="Koløyan" />
		<tag k="natural" v="hill" />
		<tag k="place" v="locality" />
		<tag k="ssr:stedsnr" v="924374" />
	</node>
	<node id="-922617" lat="64.713208329" lon="11.4766944543">
		<tag k="name" v="Storhuskleppen" />
		<tag k="natural" v="hill" />
		<tag k="place" v="locality" />
		<tag k="ssr:stedsnr" v="136302" />
	</node>
	<node id="-922615" lat="64.5990888859" lon="11.4747527877">
		<tag k="fixme" v="consider natural=peak for the most distinct mountains in the district" />
		<tag k="name" v="Skjelhaggafjellet" />
		<tag k="natural" v="hill" />
		<tag k="place" v="locality" />
		<tag k="ssr:stedsnr" v="257495" />
	</node>
	<node id="-922614" lat="64.6510694471" lon="11.2199000027">
		<tag k="fixme" v="multiple name tags, choose one and add the other to alt_name; consider natural=peak for the most distinct mountains in the district" />
		<tag k="name" v="Høybrekkfjellet;Sandvikhatten" />
		<tag k="natural" v="hill" />
		<tag k="place" v="locality" />
		<tag k="ssr:stedsnr" v="925451" />
	</node>
	<node id="-922604" lat="64.6550944481" lon="11.2005361106">
		<tag k="name" v="Morhammaren" />
		<tag k="natural" v="hill" />
		<tag k="place" v="locality" />
		<tag k="ssr:stedsnr" v="411055" />
	</node>
	<node id="-922603" lat="64.6311138865" lon="11.3989944472">
		<tag k="name" v="Gullbergnova" />
		<tag k="place" v="locality" />
		<tag k="ssr:stedsnr" v="47685" />
	</node>
	<node id="-922601" lat="64.6039833371" lon="11.4195027716">
		<tag k="name" v="Sammarfjøshaugen" />
		<tag k="natural" v="hill" />
		<tag k="place" v="locality" />
		<tag k="ssr:stedsnr" v="714479" />
	</node>
	<node id="-922598" lat="64.7436499965" lon="12.1454999954">
		<tag k="name" v="Durmålsslettet" />
		<tag k="natural" v="slope" />
		<tag k="place" v="locality" />
		<tag k="ssr:stedsnr" v="682260" />
	</node>
	<node id="-922596" lat="64.7135138864" lon="11.4695111207">
		<tag k="name" v="Storbrennbakken" />
		<tag k="natural" v="slope" />
		<tag k="place" v="locality" />
		<tag k="ssr:stedsnr" v="595376" />
	</node>
	<node id="-922594" lat="64.6795611125" lon="11.242002786">
		<tag k="name" v="Brennskardet" />
		<tag k="natural" v="valley" />
		<tag k="place" v="locality" />
		<tag k="ssr:stedsnr" v="472831" />
	</node>
	<node id="-922593" lat="64.6084666679" lon="11.4181750027">
		<tag k="name" v="Skyttarhaugen" />
		<tag k="natural" v="hill" />
		<tag k="place" v="locality" />
		<tag k="ssr:stedsnr" v="714476" />
	</node>
	<node id="-922590" lat="64.6097222218" lon="11.4331888973">
		<tag k="name" v="Tunova" />
		<tag k="natural" v="hill" />
		<tag k="place" v="locality" />
		<tag k="ssr:stedsnr" v="714471" />
	</node>
	<node id="-922586" lat="64.6432694401" lon="11.2128583339">
		<tag k="name" v="Storeinen" />
		<tag k="place" v="locality" />
		<tag k="ssr:stedsnr" v="714051" />
	</node>
	<node id="-922582" lat="64.7771111098" lon="11.9718666653">
		<tag k="name" v="Kovadalen" />
		<tag k="natural" v="valley" />
		<tag k="place" v="locality" />
		<tag k="ssr:stedsnr" v="293111" />
	</node>
	<node id="-922581" lat="64.6455055525" lon="11.203694453">
		<tag k="name" v="Maurbrekka" />
		<tag k="natural" v="slope" />
		<tag k="place" v="locality" />
		<tag k="ssr:stedsnr" v="714050" />
	</node>
	<node id="-922577" lat="64.6679194436" lon="11.3985722316">
		<tag k="name" v="Langvasslia" />
		<tag k="natural" v="slope" />
		<tag k="place" v="locality" />
		<tag k="ssr:stedsnr" v="168297" />
	</node>
	<node id="-922575" lat="64.724902777" lon="11.9010222259">
		<tag k="name" v="Smølmodalen" />
		<tag k="natural" v="valley" />
		<tag k="place" v="locality" />
		<tag k="ssr:stedsnr" v="535034" />
	</node>
	<node id="-922574" lat="64.6590388908" lon="11.9458416706">
		<tag k="name" v="Saksdalen - Duvriejælla" />
		<tag k="name:no" v="Saksdalen" />
		<tag k="name:sma" v="Duvriejælla" />
		<tag k="natural" v="valley" />
		<tag k="place" v="locality" />
		<tag k="ssr:stedsnr" v="378186" />
	</node>
	<node id="-922572" lat="64.6594361123" lon="11.2848638851">
		<tag k="name" v="Kjerringholet" />
		<tag k="natural" v="valley" />
		<tag k="place" v="locality" />
		<tag k="ssr:stedsnr" v="897749" />
	</node>
	<node id="-922568" lat="64.66238333" lon="11.326302768">
		<tag k="fixme" v="consider natural=peak for the most distinct mountains in the district" />
		<tag k="name" v="Frendalfjellet" />
		<tag k="natural" v="hill" />
		<tag k="place" v="locality" />
		<tag k="ssr:stedsnr" v="714912" />
	</node>
	<node id="-922567" lat="64.7241611102" lon="11.5278222153">
		<tag k="name" v="Høghaugen" />
		<tag k="natural" v="hill" />
		<tag k="place" v="locality" />
		<tag k="ssr:stedsnr" v="50375" />
	</node>
	<node id="-922564" lat="64.7780527771" lon="12.0636277812">
		<tag k="name" v="Rønesshevlan" />
		<tag k="natural" v="hill" />
		<tag k="place" v="locality" />
		<tag k="ssr:stedsnr" v="596117" />
	</node>
	<node id="-922562" lat="64.7176388903" lon="11.4753722289">
		<tag k="name" v="Myrrikbakken" />
		<tag k="natural" v="slope" />
		<tag k="place" v="locality" />
		<tag k="ssr:stedsnr" v="778391" />
	</node>
	<node id="-922558" lat="64.6673499977" lon="11.2369500079">
		<tag k="fixme" v="consider natural=peak for the most distinct mountains in the district" />
		<tag k="name" v="Ramnfjellet" />
		<tag k="natural" v="hill" />
		<tag k="place" v="locality" />
		<tag k="ssr:stedsnr" v="864336" />
	</node>
	<node id="-922557" lat="64.6531083318" lon="11.2045805642">
		<tag k="name" v="Buskardhaugen" />
		<tag k="natural" v="hill" />
		<tag k="place" v="locality" />
		<tag k="ssr:stedsnr" v="836040" />
	</node>
	<node id="-922555" lat="64.6804805594" lon="11.8392583361">
		<tag k="name" v="Svenskdalen" />
		<tag k="natural" v="valley" />
		<tag k="place" v="locality" />
		<tag k="ssr:stedsnr" v="171059" />
	</node>
	<node id="-922553" lat="64.7193027812" lon="11.9057722129">
		<tag k="name" v="Salmarkheia" />
		<tag k="natural" v="hill" />
		<tag k="place" v="locality" />
		<tag k="ssr:stedsnr" v="535039" />
	</node>
	<node id="-922552" lat="64.6848000043" lon="11.9954750063">
		<tag k="fixme" v="consider natural=peak for the most distinct mountains in the district" />
		<tag k="name" v="Lundvassfjella" />
		<tag k="natural" v="hill" />
		<tag k="place" v="locality" />
		<tag k="ssr:stedsnr" v="257216" />
	</node>
	<node id="-922551" lat="64.6710416705" lon="11.4422277832">
		<tag k="name" v="Storbakken" />
		<tag k="natural" v="slope" />
		<tag k="place" v="locality" />
		<tag k="ssr:stedsnr" v="47263" />
	</node>
	<node id="-922550" lat="64.6646583311" lon="11.5105027733">
		<tag k="name" v="Damdalen" />
		<tag k="natural" v="valley" />
		<tag k="place" v="locality" />
		<tag k="ssr:stedsnr" v="895270" />
	</node>
	<node id="-922545" lat="64.6486500026" lon="11.1995638937">
		<tag k="name" v="Middagsfjellet" />
		<tag k="natural" v="hill" />
		<tag k="place" v="locality" />
		<tag k="ssr:stedsnr" v="411049" />
	</node>
	<node id="-922542" lat="64.7170027784" lon="11.5010944344">
		<tag k="name" v="Skutvikhaugan" />
		<tag k="natural" v="hill" />
		<tag k="place" v="locality" />
		<tag k="ssr:stedsnr" v="50367" />
	</node>
	<node id="-922541" lat="64.7207472191" lon="11.5241333362">
		<tag k="name" v="Merrakløyva" />
		<tag k="natural" v="slope" />
		<tag k="place" v="locality" />
		<tag k="ssr:stedsnr" v="353394" />
	</node>
	<node id="-922539" lat="64.6422611152" lon="11.4188305544">
		<tag k="name" v="Botnskardet" />
		<tag k="natural" v="valley" />
		<tag k="place" v="locality" />
		<tag k="ssr:stedsnr" v="47258" />
	</node>
	<node id="-922537" lat="64.6466722187" lon="11.2200333388">
		<tag k="fixme" v="consider natural=peak for the most distinct mountains in the district" />
		<tag k="name" v="Sandvikhatten" />
		<tag k="natural" v="hill" />
		<tag k="place" v="locality" />
		<tag k="ssr:stedsnr" v="836028" />
	</node>
	<node id="-922535" lat="64.6566166653" lon="11.3852305552">
		<tag k="name" v="Nordhaugen" />
		<tag k="natural" v="hill" />
		<tag k="place" v="locality" />
		<tag k="ssr:stedsnr" v="714906" />
	</node>
	<node id="-922534" lat="64.5937194465" lon="11.4216333372">
		<tag k="name" v="Stuvfjellet" />
		<tag k="natural" v="hill" />
		<tag k="place" v="locality" />
		<tag k="ssr:stedsnr" v="621500" />
	</node>
	<node id="-922532" lat="64.6415222219" lon="11.1984972299">
		<tag k="name" v="Tronga" />
		<tag k="natural" v="valley" />
		<tag k="place" v="locality" />
		<tag k="ssr:stedsnr" v="229203" />
	</node>
	<node id="-922531" lat="64.6565388915" lon="11.2677055567">
		<tag k="name" v="Øverdunshaugen" />
		<tag k="natural" v="hill" />
		<tag k="place" v="locality" />
		<tag k="ssr:stedsnr" v="653825" />
	</node>
	<node id="-922529" lat="64.6373749969" lon="11.4521305496">
		<tag k="name" v="Storslettet" />
		<tag k="place" v="locality" />
		<tag k="ssr:stedsnr" v="47254" />
	</node>
	<node id="-922527" lat="64.729594445" lon="12.1348777694">
		<tag k="name" v="Sørhevlan" />
		<tag k="natural" v="hill" />
		<tag k="place" v="locality" />
		<tag k="ssr:stedsnr" v="596125" />
	</node>
	<node id="-922517" lat="64.6450611109" lon="11.234733334">
		<tag k="name" v="Svartroggo" />
		<tag k="natural" v="valley" />
		<tag k="place" v="locality" />
		<tag k="ssr:stedsnr" v="714031" />
	</node>
	<node id="-922513" lat="64.678799997" lon="11.747624997">
		<tag k="alt_name" v="Soksdalen" />
		<tag k="name" v="Saksdalen" />
		<tag k="natural" v="valley" />
		<tag k="place" v="locality" />
		<tag k="ssr:stedsnr" v="743808" />
	</node>
	<node id="-922511" lat="64.648869441" lon="11.2357888881">
		<tag k="name" v="Sollohaugen" />
		<tag k="natural" v="hill" />
		<tag k="place" v="locality" />
		<tag k="ssr:stedsnr" v="714033" />
	</node>
	<node id="-922510" lat="64.6488055544" lon="11.417933339">
		<tag k="name" v="Litlkløyva" />
		<tag k="natural" v="slope" />
		<tag k="place" v="locality" />
		<tag k="ssr:stedsnr" v="532250" />
	</node>
	<node id="-922503" lat="64.7527194449" lon="11.899841665">
		<tag k="name" v="Kovadørlia" />
		<tag k="natural" v="slope" />
		<tag k="place" v="locality" />
		<tag k="ssr:stedsnr" v="353004" />
	</node>
	<node id="-922500" lat="64.6430972248" lon="11.1883166622">
		<tag k="fixme" v="consider natural=peak for the most distinct mountains in the district" />
		<tag k="name" v="Mulfjellet" />
		<tag k="natural" v="hill" />
		<tag k="place" v="locality" />
		<tag k="ssr:stedsnr" v="229198" />
	</node>
	<node id="-922497" lat="64.6019611118" lon="11.4299361125">
		<tag k="name" v="Stufjellet" />
		<tag k="natural" v="hill" />
		<tag k="place" v="locality" />
		<tag k="ssr:stedsnr" v="714453" />
	</node>
	<node id="-922495" lat="64.7442249958" lon="11.9555055477">
		<tag k="alt_name" v="Aunetinden" />
		<tag k="fixme" v="consider natural=peak for the most distinct mountains in the district" />
		<tag k="name" v="Auntinden" />
		<tag k="natural" v="hill" />
		<tag k="place" v="locality" />
		<tag k="ssr:stedsnr" v="803222" />
	</node>
	<node id="-922492" lat="64.6781777804" lon="11.2811888908">
		<tag k="name" v="Klebekkmoen" />
		<tag k="place" v="locality" />
		<tag k="ssr:stedsnr" v="290792" />
	</node>
	<node id="-922491" lat="64.6010527772" lon="11.4153333389">
		<tag k="name" v="Stufjellet" />
		<tag k="natural" v="hill" />
		<tag k="place" v="locality" />
		<tag k="ssr:stedsnr" v="714448" />
	</node>
	<node id="-922489" lat="64.7480861116" lon="11.7890611191">
		<tag k="name" v="Leisåklia" />
		<tag k="natural" v="slope" />
		<tag k="place" v="locality" />
		<tag k="ssr:stedsnr" v="960180" />
	</node>
	<node id="-922485" lat="64.6791333308" lon="11.4745138822">
		<tag k="name" v="Litlvarttåa" />
		<tag k="place" v="locality" />
		<tag k="ssr:stedsnr" v="834297" />
	</node>
	<node id="-922480" lat="64.7695388894" lon="12.05693889">
		<tag k="name" v="Storåsen" />
		<tag k="natural" v="hill" />
		<tag k="place" v="locality" />
		<tag k="ssr:stedsnr" v="839107" />
	</node>
	<node id="-922479" lat="64.6300111111" lon="11.4057166653">
		<tag k="name" v="Gullberget" />
		<tag k="natural" v="hill" />
		<tag k="place" v="locality" />
		<tag k="ssr:stedsnr" v="924355" />
	</node>
	<node id="-922478" lat="64.6580250001" lon="11.8225833313">
		<tag k="name" v="Djupmyrdalen" />
		<tag k="natural" v="valley" />
		<tag k="place" v="locality" />
		<tag k="ssr:stedsnr" v="499796" />
	</node>
	<node id="-922477" lat="64.7714638881" lon="11.9925499905">
		<tag k="name" v="Naustmotjønndalen" />
		<tag k="natural" v="valley" />
		<tag k="place" v="locality" />
		<tag k="ssr:stedsnr" v="924886" />
	</node>
	<node id="-922470" lat="64.6816555599" lon="11.4379444476">
		<tag k="name" v="Saghaugen" />
		<tag k="natural" v="hill" />
		<tag k="place" v="locality" />
		<tag k="ssr:stedsnr" v="347351" />
	</node>
	<node id="-922467" lat="64.6661638884" lon="11.4417861069">
		<tag k="name" v="Liaberga" />
		<tag k="natural" v="hill" />
		<tag k="place" v="locality" />
		<tag k="ssr:stedsnr" v="532235" />
	</node>
	<node id="-922464" lat="64.7190666644" lon="12.0571222156">
		<tag k="fixme" v="consider natural=peak for the most distinct mountains in the district" />
		<tag k="name" v="Salfjella - Saalenjaarke" />
		<tag k="name:no" v="Salfjella" />
		<tag k="name:sma" v="Saalenjaarke" />
		<tag k="natural" v="hill" />
		<tag k="place" v="locality" />
		<tag k="ssr:stedsnr" v="15224" />
	</node>
	<node id="-922463" lat="64.6483666641" lon="11.1935861116">
		<tag k="fixme" v="consider natural=peak for the most distinct mountains in the district" />
		<tag k="name" v="Sandvikfjellet" />
		<tag k="natural" v="hill" />
		<tag k="place" v="locality" />
		<tag k="ssr:stedsnr" v="439504" />
	</node>
	<node id="-922459" lat="64.6478055535" lon="11.4995083412">
		<tag k="name" v="Langvasslia" />
		<tag k="natural" v="slope" />
		<tag k="place" v="locality" />
		<tag k="ssr:stedsnr" v="350233" />
	</node>
	<node id="-922454" lat="64.6480611139" lon="11.2228638963">
		<tag k="name" v="Vannhagan" />
		<tag k="natural" v="valley" />
		<tag k="place" v="locality" />
		<tag k="ssr:stedsnr" v="714043" />
	</node>
	<node id="-922453" lat="64.6412138851" lon="11.4719166672">
		<tag k="name" v="Storvassvika" />
		<tag k="place" v="locality" />
		<tag k="ssr:stedsnr" v="532239" />
	</node>
	<node id="-922451" lat="64.6782666622" lon="11.4248888928">
		<tag k="name" v="Wimfieldholet" />
		<tag k="natural" v="valley" />
		<tag k="place" v="locality" />
		<tag k="ssr:stedsnr" v="347333" />
	</node>
	<node id="-922450" lat="64.610038886" lon="11.4775972214">
		<tag k="name" v="Pålenghaugen" />
		<tag k="natural" v="hill" />
		<tag k="place" v="locality" />
		<tag k="ssr:stedsnr" v="897728" />
	</node>
	<node id="-922449" lat="64.7334249962" lon="11.9008472172">
		<tag k="name" v="Nonshaugen" />
		<tag k="natural" v="hill" />
		<tag k="place" v="locality" />
		<tag k="ssr:stedsnr" v="535012" />
	</node>
	<node id="-922446" lat="64.6671388922" lon="11.2176444458">
		<tag k="name" v="Litlramnfjellholet" />
		<tag k="natural" v="valley" />
		<tag k="place" v="locality" />
		<tag k="ssr:stedsnr" v="714882" />
	</node>
	<node id="-922444" lat="64.6817611091" lon="11.2894750004">
		<tag k="name" v="Leitehaugan" />
		<tag k="natural" v="hill" />
		<tag k="place" v="locality" />
		<tag k="ssr:stedsnr" v="836827" />
	</node>
	<node id="-922443" lat="64.70022222" lon="11.7519777704">
		<tag k="name" v="Mannberga" />
		<tag k="natural" v="hill" />
		<tag k="place" v="locality" />
		<tag k="ssr:stedsnr" v="50344" />
	</node>
	<node id="-922440" lat="64.6746194485" lon="11.8206277816">
		<tag k="name" v="Kristendalen" />
		<tag k="natural" v="valley" />
		<tag k="place" v="locality" />
		<tag k="ssr:stedsnr" v="293078" />
	</node>
	<node id="-922436" lat="64.658025002" lon="11.3174472124">
		<tag k="name" v="Rødbergskroken" />
		<tag k="natural" v="valley" />
		<tag k="place" v="locality" />
		<tag k="ssr:stedsnr" v="653799" />
	</node>
	<node id="-922432" lat="64.7363638908" lon="11.5323833266">
		<tag k="name" v="Litlmyrdalen" />
		<tag k="natural" v="hill" />
		<tag k="place" v="locality" />
		<tag k="ssr:stedsnr" v="839513" />
	</node>
	<node id="-922429" lat="64.7541722193" lon="11.957316668">
		<tag k="name" v="Skifteshammaren" />
		<tag k="natural" v="hill" />
		<tag k="place" v="locality" />
		<tag k="ssr:stedsnr" v="171023" />
	</node>
	<node id="-922427" lat="64.6825333343" lon="11.4620166627">
		<tag k="name" v="Mosmoan" />
		<tag k="place" v="locality" />
		<tag k="ssr:stedsnr" v="651312" />
	</node>
	<node id="-922425" lat="64.7351944407" lon="11.526597228">
		<tag k="name" v="Småhevlan" />
		<tag k="natural" v="hill" />
		<tag k="place" v="locality" />
		<tag k="ssr:stedsnr" v="475515" />
	</node>
	<node id="-922424" lat="64.6707222222" lon="11.2135861089">
		<tag k="name" v="Hammarhaugen" />
		<tag k="natural" v="ridge" />
		<tag k="place" v="locality" />
		<tag k="ssr:stedsnr" v="957874" />
	</node>
	<node id="-922421" lat="64.6865944476" lon="11.8134638955">
		<tag k="name" v="Fjellakseldalen" />
		<tag k="natural" v="valley" />
		<tag k="place" v="locality" />
		<tag k="ssr:stedsnr" v="293075" />
	</node>
	<node id="-922420" lat="64.6082444467" lon="11.4526416723">
		<tag k="fixme" v="multiple name tags, choose one and add the other to alt_name; consider natural=peak for the most distinct mountains in the district" />
		<tag k="name" v="Mellomfjella;Midterfjellet" />
		<tag k="natural" v="hill" />
		<tag k="place" v="locality" />
		<tag k="ssr:stedsnr" v="14407" />
	</node>
	<node id="-922417" lat="64.7346055587" lon="11.9278999996">
		<tag k="fixme" v="consider natural=peak for the most distinct mountains in the district" />
		<tag k="name" v="Svartdalsfjellet" />
		<tag k="natural" v="hill" />
		<tag k="place" v="locality" />
		<tag k="ssr:stedsnr" v="803228" />
	</node>
	<node id="-922416" lat="64.7340277743" lon="11.8967500023">
		<tag k="alt_name" v="Nonshaugen" />
		<tag k="name" v="Stor-Nonshaugen" />
		<tag k="natural" v="hill" />
		<tag k="place" v="locality" />
		<tag k="ssr:stedsnr" v="682249" />
	</node>
	<node id="-922413" lat="64.639872226" lon="11.1839333299">
		<tag k="name" v="Badstuhaugen" />
		<tag k="natural" v="hill" />
		<tag k="place" v="locality" />
		<tag k="ssr:stedsnr" v="653380" />
	</node>
	<node id="-922412" lat="64.6825138931" lon="11.4294388902">
		<tag k="name" v="Litlgalten" />
		<tag k="natural" v="hill" />
		<tag k="place" v="locality" />
		<tag k="ssr:stedsnr" v="165343" />
	</node>
	<node id="-922410" lat="64.6454527788" lon="11.4138500088">
		<tag k="name" v="Elghaugen" />
		<tag k="natural" v="hill" />
		<tag k="place" v="locality" />
		<tag k="ssr:stedsnr" v="532247" />
	</node>
	<node id="-922408" lat="64.6631583366" lon="11.1781111035">
		<tag k="name" v="Storhammaren" />
		<tag k="natural" v="hill" />
		<tag k="place" v="locality" />
		<tag k="ssr:stedsnr" v="411439" />
	</node>
	<node id="-922407" lat="64.7024888896" lon="11.6082999951">
		<tag k="name" v="Ramnflauget" />
		<tag k="natural" v="cliff" />
		<tag k="ssr:stedsnr" v="75253" />
	</node>
	<node id="-922401" lat="64.6569305542" lon="11.204461111">
		<tag k="name" v="Sjøhaugen" />
		<tag k="natural" v="hill" />
		<tag k="place" v="locality" />
		<tag k="ssr:stedsnr" v="47227" />
	</node>
	<node id="-922400" lat="64.6626027761" lon="11.3168777872">
		<tag k="name" v="Moldvikskardet" />
		<tag k="natural" v="valley" />
		<tag k="place" v="locality" />
		<tag k="ssr:stedsnr" v="472773" />
	</node>
	<node id="-922395" lat="64.6417527759" lon="11.3220694465">
		<tag k="name" v="Tørrmoen" />
		<tag k="place" v="locality" />
		<tag k="ssr:stedsnr" v="108882" />
	</node>
	<node id="-922394" lat="64.6462305518" lon="11.2309472181">
		<tag k="name" v="Juvulskardet" />
		<tag k="natural" v="valley" />
		<tag k="place" v="locality" />
		<tag k="ssr:stedsnr" v="896023" />
	</node>
	<node id="-922390" lat="64.6627222264" lon="11.4358527818">
		<tag k="name" v="Marithola" />
		<tag k="natural" v="valley" />
		<tag k="place" v="locality" />
		<tag k="ssr:stedsnr" v="168252" />
	</node>
	<node id="-922389" lat="64.7153944426" lon="11.7594111016">
		<tag k="name" v="Jøtulspraget" />
		<tag k="natural" v="cliff" />
		<tag k="ssr:stedsnr" v="778334" />
	</node>
	<node id="-922388" lat="64.7231722232" lon="11.6276666694">
		<tag k="name" v="Valdskiftdalen" />
		<tag k="natural" v="valley" />
		<tag k="place" v="locality" />
		<tag k="ssr:stedsnr" v="839487" />
	</node>
	<node id="-922387" lat="64.6399027754" lon="11.3613749948">
		<tag k="name" v="Bukkholet" />
		<tag k="natural" v="hill" />
		<tag k="place" v="locality" />
		<tag k="ssr:stedsnr" v="108886" />
	</node>
	<node id="-922383" lat="64.7328166635" lon="11.5212999892">
		<tag k="name" v="Kvennberget" />
		<tag k="natural" v="hill" />
		<tag k="place" v="locality" />
		<tag k="ssr:stedsnr" v="535388" />
	</node>
	<node id="-922374" lat="64.7021999958" lon="11.7879888985">
		<tag k="name" v="Kvennhusdalen" />
		<tag k="natural" v="valley" />
		<tag k="place" v="locality" />
		<tag k="ssr:stedsnr" v="353356" />
	</node>
	<node id="-922373" lat="64.728783334" lon="11.8957972284">
		<tag k="name" v="Gressdalen" />
		<tag k="natural" v="valley" />
		<tag k="place" v="locality" />
		<tag k="ssr:stedsnr" v="171012" />
	</node>
	<node id="-922372" lat="64.757177775" lon="12.0233861184">
		<tag k="name" v="Litlvikhaugen" />
		<tag k="natural" v="hill" />
		<tag k="place" v="locality" />
		<tag k="ssr:stedsnr" v="839084" />
	</node>
	<node id="-922366" lat="64.6670777771" lon="11.809266677">
		<tag k="name" v="Tverrdalen" />
		<tag k="natural" v="valley" />
		<tag k="place" v="locality" />
		<tag k="ssr:stedsnr" v="472387" />
	</node>
	<node id="-922358" lat="64.6437000026" lon="11.1847083306">
		<tag k="name" v="Mulen" />
		<tag k="place" v="locality" />
		<tag k="ssr:stedsnr" v="290371" />
	</node>
	<node id="-922357" lat="64.6448694469" lon="11.1774888966">
		<tag k="name" v="Storhaugen" />
		<tag k="natural" v="hill" />
		<tag k="place" v="locality" />
		<tag k="ssr:stedsnr" v="469480" />
	</node>
	<node id="-922356" lat="64.6163861136" lon="11.4349722241">
		<tag k="name" v="Svintrøholet" />
		<tag k="natural" v="slope" />
		<tag k="place" v="locality" />
		<tag k="ssr:stedsnr" v="775604" />
	</node>
	<node id="-922352" lat="64.6466388904" lon="11.2238611135">
		<tag k="name" v="Liakløyva" />
		<tag k="natural" v="slope" />
		<tag k="place" v="locality" />
		<tag k="ssr:stedsnr" v="896034" />
	</node>
	<node id="-922350" lat="64.6396027814" lon="11.2306138866">
		<tag k="name" v="Krokvikmohaugen" />
		<tag k="natural" v="hill" />
		<tag k="place" v="locality" />
		<tag k="ssr:stedsnr" v="957021" />
	</node>
	<node id="-922348" lat="64.7117611096" lon="11.4794250048">
		<tag k="name" v="Larstrappen" />
		<tag k="natural" v="hill" />
		<tag k="place" v="locality" />
		<tag k="ssr:stedsnr" v="171398" />
	</node>
	<node id="-922347" lat="64.7068861104" lon="11.7507416717">
		<tag k="name" v="Geitaberget" />
		<tag k="natural" v="hill" />
		<tag k="place" v="locality" />
		<tag k="ssr:stedsnr" v="50326" />
	</node>
	<node id="-922345" lat="64.7941444462" lon="12.1142166668">
		<tag k="name" v="Kaldholet" />
		<tag k="natural" v="valley" />
		<tag k="place" v="locality" />
		<tag k="ssr:stedsnr" v="76871" />
	</node>
	<node id="-922343" lat="64.5966583367" lon="11.3567027835">
		<tag k="name" v="Storhaugen" />
		<tag k="natural" v="hill" />
		<tag k="place" v="locality" />
		<tag k="ssr:stedsnr" v="229571" />
	</node>
	<node id="-922342" lat="64.6082277776" lon="11.2913916693">
		<tag k="name" v="Kjellarholen" />
		<tag k="natural" v="hill" />
		<tag k="place" v="locality" />
		<tag k="ssr:stedsnr" v="108868" />
	</node>
	<node id="-922332" lat="64.6304833336" lon="11.424636106">
		<tag k="name" v="Hesthauet" />
		<tag k="natural" v="hill" />
		<tag k="place" v="locality" />
		<tag k="ssr:stedsnr" v="924352" />
	</node>
	<node id="-922324" lat="64.7237999988" lon="11.8434305643">
		<tag k="fixme" v="consider natural=peak for the most distinct mountains in the district" />
		<tag k="name" v="Oksvikfjellet" />
		<tag k="natural" v="hill" />
		<tag k="place" v="locality" />
		<tag k="ssr:stedsnr" v="318190" />
	</node>
	<node id="-922322" lat="64.7438499973" lon="11.9165888944">
		<tag k="name" v="Øverstraummoen" />
		<tag k="place" v="locality" />
		<tag k="ssr:stedsnr" v="171001" />
	</node>
	<node id="-922320" lat="64.5773527783" lon="11.4468694479">
		<tag k="alt_name" v="Krika" />
		<tag k="name" v="Krita" />
		<tag k="natural" v="valley" />
		<tag k="place" v="locality" />
		<tag k="ssr:stedsnr" v="864028" />
	</node>
	<node id="-922319" lat="64.6643416689" lon="11.2333166644">
		<tag k="name" v="Eikrabben" />
		<tag k="place" v="locality" />
		<tag k="ssr:stedsnr" v="229150" />
	</node>
	<node id="-922317" lat="64.6692694412" lon="11.2372638788">
		<tag k="name" v="Slåttarholet" />
		<tag k="natural" v="valley" />
		<tag k="place" v="locality" />
		<tag k="ssr:stedsnr" v="229151" />
	</node>
	<node id="-922315" lat="64.7074270371" lon="11.4117840382">
		<tag k="name" v="Ryneshaugen" />
		<tag k="natural" v="hill" />
		<tag k="place" v="locality" />
		<tag k="ssr:stedsnr" v="500313" />
	</node>
	<node id="-922314" lat="64.7563333343" lon="12.0598388914">
		<tag k="name" v="Hyllenget" />
		<tag k="place" v="locality" />
		<tag k="ssr:stedsnr" v="475101" />
	</node>
	<node id="-922313" lat="64.6727166706" lon="11.2785416683">
		<tag k="name" v="Kvennhusholet" />
		<tag k="natural" v="valley" />
		<tag k="place" v="locality" />
		<tag k="ssr:stedsnr" v="290756" />
	</node>
	<node id="-922312" lat="64.6555277818" lon="11.2057333388">
		<tag k="name" v="Hedninghaugan" />
		<tag k="natural" v="hill" />
		<tag k="place" v="locality" />
		<tag k="ssr:stedsnr" v="168226" />
	</node>
	<node id="-922310" lat="64.721102775" lon="11.4835888976">
		<tag k="name" v="Penghaugen" />
		<tag k="natural" v="hill" />
		<tag k="place" v="locality" />
		<tag k="ssr:stedsnr" v="535377" />
	</node>
	<node id="-922306" lat="64.6443916673" lon="11.1982138851">
		<tag k="name" v="Hatlahaugen" />
		<tag k="natural" v="hill" />
		<tag k="place" v="locality" />
		<tag k="ssr:stedsnr" v="47202" />
	</node>
	<node id="-922299" lat="64.6286444412" lon="11.2814888907">
		<tag k="name" v="Lauvhaugen" />
		<tag k="natural" v="hill" />
		<tag k="place" v="locality" />
		<tag k="ssr:stedsnr" v="108865" />
	</node>
	<node id="-922298" lat="64.7465250034" lon="11.9600777811">
		<tag k="name" v="Ytter Aunlia" />
		<tag k="natural" v="slope" />
		<tag k="place" v="locality" />
		<tag k="ssr:stedsnr" v="293035" />
	</node>
	<node id="-922297" lat="64.6583194422" lon="11.278666661">
		<tag k="name" v="Svarvan" />
		<tag k="place" v="locality" />
		<tag k="ssr:stedsnr" v="593746" />
	</node>
	<node id="-922296" lat="64.6889027756" lon="11.7921611151">
		<tag k="name" v="Storbakken" />
		<tag k="natural" v="slope" />
		<tag k="place" v="locality" />
		<tag k="ssr:stedsnr" v="596051" />
	</node>
	<node id="-922293" lat="64.6024055516" lon="11.37436112">
		<tag k="fixme" v="consider natural=peak for the most distinct mountains in the district" />
		<tag k="name" v="Storengklumpen" />
		<tag k="natural" v="hill" />
		<tag k="place" v="locality" />
		<tag k="ssr:stedsnr" v="864539" />
	</node>
	<node id="-922289" lat="64.6939222221" lon="11.8387861036">
		<tag k="name" v="Fokkholet" />
		<tag k="natural" v="valley" />
		<tag k="place" v="locality" />
		<tag k="ssr:stedsnr" v="596053" />
	</node>
	<node id="-922285" lat="64.6761083315" lon="11.2015777792">
		<tag k="name" v="Havmannvikhaugen" />
		<tag k="natural" v="hill" />
		<tag k="place" v="locality" />
		<tag k="ssr:stedsnr" v="47195" />
	</node>
	<node id="-922268" lat="64.6821111072" lon="11.4713277818">
		<tag k="name" v="Kolhushøgda" />
		<tag k="place" v="locality" />
		<tag k="ssr:stedsnr" v="409289" />
	</node>
	<node id="-922265" lat="64.7288111108" lon="11.7401166595">
		<tag k="fixme" v="consider natural=peak for the most distinct mountains in the district" />
		<tag k="name" v="Fagervikfjellet" />
		<tag k="natural" v="hill" />
		<tag k="place" v="locality" />
		<tag k="ssr:stedsnr" v="136246" />
	</node>
	<node id="-922262" lat="64.619625" lon="11.4932083421">
		<tag k="name" v="Dyrvadhaugen" />
		<tag k="natural" v="hill" />
		<tag k="place" v="locality" />
		<tag k="ssr:stedsnr" v="378425" />
	</node>
	<node id="-922257" lat="64.7154166697" lon="11.488819446">
		<tag k="name" v="Storvassvikmoen" />
		<tag k="place" v="locality" />
		<tag k="ssr:stedsnr" v="171372" />
	</node>
	<node id="-922256" lat="64.7646305522" lon="12.1347833398">
		<tag k="fixme" v="consider natural=peak for the most distinct mountains in the district" />
		<tag k="name" v="Durmålsfjellet" />
		<tag k="natural" v="hill" />
		<tag k="place" v="locality" />
		<tag k="ssr:stedsnr" v="499470" />
	</node>
	<node id="-922252" lat="64.6134055534" lon="11.3734555581">
		<tag k="fixme" v="consider natural=peak for the most distinct mountains in the district" />
		<tag k="name" v="Storhaugen" />
		<tag k="natural" v="hill" />
		<tag k="place" v="locality" />
		<tag k="ssr:stedsnr" v="229545" />
	</node>
	<node id="-922241" lat="64.5997861077" lon="11.4306722155">
		<tag k="name" v="Ellevklompen" />
		<tag k="natural" v="hill" />
		<tag k="place" v="locality" />
		<tag k="ssr:stedsnr" v="471513" />
	</node>
	<node id="-922239" lat="64.6656888893" lon="11.3078999995">
		<tag k="fixme" v="consider natural=peak for the most distinct mountains in the district" />
		<tag k="name" v="Einarskardhaugen" />
		<tag k="natural" v="hill" />
		<tag k="place" v="locality" />
		<tag k="ssr:stedsnr" v="593737" />
	</node>
	<node id="-922236" lat="64.7431499971" lon="11.99275">
		<tag k="fixme" v="consider natural=peak for the most distinct mountains in the district" />
		<tag k="name" v="Skjeftmyrfjellet" />
		<tag k="natural" v="hill" />
		<tag k="place" v="locality" />
		<tag k="ssr:stedsnr" v="196213" />
	</node>
	<node id="-922235" lat="64.6688222231" lon="11.1881944453">
		<tag k="name" v="Hamnvikhaugen" />
		<tag k="natural" v="hill" />
		<tag k="place" v="locality" />
		<tag k="ssr:stedsnr" v="47183" />
	</node>
	<node id="-922232" lat="64.6848472184" lon="11.3032638841">
		<tag k="name" v="Burshaugen" />
		<tag k="natural" v="hill" />
		<tag k="place" v="locality" />
		<tag k="ssr:stedsnr" v="714831" />
	</node>
	<node id="-922229" lat="64.7479944402" lon="11.7587583366">
		<tag k="name" v="Bugaskardet" />
		<tag k="natural" v="valley" />
		<tag k="place" v="locality" />
		<tag k="ssr:stedsnr" v="75223" />
	</node>
	<node id="-922224" lat="64.7131249999" lon="11.7679583276">
		<tag k="fixme" v="consider natural=peak for the most distinct mountains in the district" />
		<tag k="name" v="Bjørkåsen" />
		<tag k="natural" v="hill" />
		<tag k="place" v="locality" />
		<tag k="ssr:stedsnr" v="682216" />
	</node>
	<node id="-922223" lat="64.6791194435" lon="11.918433341">
		<tag k="name" v="Lonvasslia" />
		<tag k="natural" v="slope" />
		<tag k="place" v="locality" />
		<tag k="ssr:stedsnr" v="596046" />
	</node>
	<node id="-922221" lat="64.7684222249" lon="12.0302333363">
		<tag k="name" v="Jøvra" />
		<tag k="natural" v="slope" />
		<tag k="place" v="locality" />
		<tag k="ssr:stedsnr" v="475074" />
	</node>
	<node id="-922219" lat="64.6606499996" lon="11.2741916643">
		<tag k="name" v="Smørklaven" />
		<tag k="natural" v="valley" />
		<tag k="place" v="locality" />
		<tag k="ssr:stedsnr" v="411798" />
	</node>
	<node id="-922216" lat="64.6741694417" lon="11.2620694535">
		<tag k="name" v="Treklumpen" />
		<tag k="natural" v="hill" />
		<tag k="place" v="locality" />
		<tag k="ssr:stedsnr" v="593743" />
	</node>
	<node id="-922212" lat="64.6285555594" lon="11.4524583324">
		<tag k="name" v="Utsikten" />
		<tag k="natural" v="hill" />
		<tag k="place" v="locality" />
		<tag k="ssr:stedsnr" v="168625" />
	</node>
	<node id="-922210" lat="64.7155472193" lon="11.8073277775">
		<tag k="fixme" v="consider natural=peak for the most distinct mountains in the district" />
		<tag k="name" v="Kvernvassfjellet" />
		<tag k="natural" v="hill" />
		<tag k="place" v="locality" />
		<tag k="ssr:stedsnr" v="743244" />
	</node>
	<node id="-922209" lat="64.6721888888" lon="11.266197219">
		<tag k="name" v="Dunalia" />
		<tag k="natural" v="slope" />
		<tag k="place" v="locality" />
		<tag k="ssr:stedsnr" v="593745" />
	</node>
	<node id="-922208" lat="64.6910083363" lon="11.3175611044">
		<tag k="name" v="Kalvhagafjellet" />
		<tag k="natural" v="hill" />
		<tag k="place" v="locality" />
		<tag k="ssr:stedsnr" v="714825" />
	</node>
	<node id="-922206" lat="64.6664250044" lon="11.9195083257">
		<tag k="name" v="Storgranlia" />
		<tag k="natural" v="slope" />
		<tag k="place" v="locality" />
		<tag k="ssr:stedsnr" v="776388" />
	</node>
	<node id="-922205" lat="64.6800194465" lon="11.2784833341">
		<tag k="name" v="Typperrogge" />
		<tag k="natural" v="valley" />
		<tag k="place" v="locality" />
		<tag k="ssr:stedsnr" v="108832" />
	</node>
	<node id="-922203" lat="64.6679555536" lon="11.5385611083">
		<tag k="fixme" v="consider natural=peak for the most distinct mountains in the district" />
		<tag k="name" v="Råfjellet" />
		<tag k="natural" v="hill" />
		<tag k="place" v="locality" />
		<tag k="ssr:stedsnr" v="925383" />
	</node>
	<node id="-922199" lat="64.6513472205" lon="11.1889194438">
		<tag k="name" v="Nausthaugen" />
		<tag k="natural" v="hill" />
		<tag k="place" v="locality" />
		<tag k="ssr:stedsnr" v="532167" />
	</node>
	<node id="-922197" lat="64.6637999991" lon="11.2835944426">
		<tag k="name" v="Svartdalen" />
		<tag k="natural" v="valley" />
		<tag k="place" v="locality" />
		<tag k="ssr:stedsnr" v="593722" />
	</node>
	<node id="-922195" lat="64.7795944476" lon="12.1545388984">
		<tag k="name" v="Urddalen" />
		<tag k="natural" v="valley" />
		<tag k="place" v="locality" />
		<tag k="ssr:stedsnr" v="865886" />
	</node>
	<node id="-922193" lat="64.6018499986" lon="11.4720638917">
		<tag k="name" v="Kringgåttholet" />
		<tag k="natural" v="valley" />
		<tag k="place" v="locality" />
		<tag k="ssr:stedsnr" v="836734" />
	</node>
	<node id="-922192" lat="64.705244441" lon="11.8035833374">
		<tag k="name" v="Krikfjellet" />
		<tag k="natural" v="hill" />
		<tag k="place" v="locality" />
		<tag k="ssr:stedsnr" v="839045" />
	</node>
	<node id="-922187" lat="64.6574944472" lon="11.2903916615">
		<tag k="name" v="Svarvbakkan" />
		<tag k="natural" v="slope" />
		<tag k="place" v="locality" />
		<tag k="ssr:stedsnr" v="411776" />
	</node>
	<node id="-922183" lat="64.6470361122" lon="11.2789388952">
		<tag k="name" v="Gæln-Krestendalen" />
		<tag k="natural" v="valley" />
		<tag k="place" v="locality" />
		<tag k="ssr:stedsnr" v="47983" />
	</node>
	<node id="-922182" lat="64.6696305572" lon="11.1877249964">
		<tag k="name" v="Aunahaugen" />
		<tag k="natural" v="hill" />
		<tag k="place" v="locality" />
		<tag k="ssr:stedsnr" v="350164" />
	</node>
	<node id="-922179" lat="64.6768000031" lon="11.918938899">
		<tag k="name" v="Lonvassdalen" />
		<tag k="natural" v="valley" />
		<tag k="place" v="locality" />
		<tag k="ssr:stedsnr" v="475058" />
	</node>
	<node id="-922177" lat="64.6369750005" lon="11.1756416652">
		<tag k="name" v="Spissfugltuva" />
		<tag k="natural" v="hill" />
		<tag k="place" v="locality" />
		<tag k="ssr:stedsnr" v="411366" />
	</node>
	<node id="-922174" lat="64.6422472211" lon="11.1985749991">
		<tag k="fixme" v="consider natural=peak for the most distinct mountains in the district" />
		<tag k="name" v="Trongfjellet" />
		<tag k="natural" v="hill" />
		<tag k="place" v="locality" />
		<tag k="ssr:stedsnr" v="532174" />
	</node>
	<node id="-922172" lat="64.671383331" lon="11.3036444525">
		<tag k="fixme" v="consider natural=peak for the most distinct mountains in the district" />
		<tag k="name" v="Rundhaugen" />
		<tag k="natural" v="hill" />
		<tag k="place" v="locality" />
		<tag k="ssr:stedsnr" v="411785" />
	</node>
	<node id="-922169" lat="64.7325111074" lon="11.8883388914">
		<tag k="name" v="Storvikhammaren" />
		<tag k="natural" v="hill" />
		<tag k="place" v="locality" />
		<tag k="ssr:stedsnr" v="293014" />
	</node>
	<node id="-922167" lat="64.7589500018" lon="12.0610611125">
		<tag k="name" v="Dørskardet" />
		<tag k="natural" v="valley" />
		<tag k="place" v="locality" />
		<tag k="ssr:stedsnr" v="414093" />
	</node>
	<node id="-922166" lat="64.7815499997" lon="12.1001194435">
		<tag k="name" v="Finntrappen" />
		<tag k="natural" v="slope" />
		<tag k="place" v="locality" />
		<tag k="ssr:stedsnr" v="960108" />
	</node>
	<node id="-922162" lat="64.727588889" lon="11.5666638976">
		<tag k="name" v="Svartdalen" />
		<tag k="natural" v="valley" />
		<tag k="place" v="locality" />
		<tag k="ssr:stedsnr" v="960503" />
	</node>
	<node id="-922161" lat="64.6259500037" lon="11.4347555484">
		<tag k="name" v="Stordalen" />
		<tag k="natural" v="valley" />
		<tag k="place" v="locality" />
		<tag k="ssr:stedsnr" v="378404" />
	</node>
	<node id="-922160" lat="64.6631055576" lon="11.1948361047">
		<tag k="name" v="Nordsjøberget" />
		<tag k="natural" v="hill" />
		<tag k="place" v="locality" />
		<tag k="ssr:stedsnr" v="47164" />
	</node>
	<node id="-922159" lat="64.672558333" lon="11.2848027706">
		<tag k="name" v="Setran" />
		<tag k="natural" v="valley" />
		<tag k="place" v="locality" />
		<tag k="ssr:stedsnr" v="714783" />
	</node>
	<node id="-922158" lat="64.6588194478" lon="11.3142416745">
		<tag k="name" v="Bjønnabogen" />
		<tag k="natural" v="slope" />
		<tag k="place" v="locality" />
		<tag k="ssr:stedsnr" v="593731" />
	</node>
	<node id="-922157" lat="64.6467277812" lon="11.1941333436">
		<tag k="fixme" v="consider natural=peak for the most distinct mountains in the district" />
		<tag k="name" v="Trollskardfjellet" />
		<tag k="natural" v="hill" />
		<tag k="place" v="locality" />
		<tag k="ssr:stedsnr" v="227444" />
	</node>
	<node id="-922155" lat="64.6175166695" lon="11.3239388843">
		<tag k="name" v="Skjærvikodden" />
		<tag k="natural" v="hill" />
		<tag k="place" v="locality" />
		<tag k="ssr:stedsnr" v="229529" />
	</node>
	<node id="-922141" lat="64.7045750014" lon="11.6389777848">
		<tag k="name" v="Matkroken" />
		<tag k="natural" v="cliff" />
		<tag k="ssr:stedsnr" v="864262" />
	</node>
	<node id="-922139" lat="64.7051138895" lon="11.7540916629">
		<tag k="name" v="Hammaren" />
		<tag k="natural" v="hill" />
		<tag k="place" v="locality" />
		<tag k="ssr:stedsnr" v="293390" />
	</node>
	<node id="-922136" lat="64.7279027746" lon="11.753883325">
		<tag k="fixme" v="consider natural=peak for the most distinct mountains in the district" />
		<tag k="name" v="Furunesfjellet" />
		<tag k="natural" v="hill" />
		<tag k="place" v="locality" />
		<tag k="ssr:stedsnr" v="75209" />
	</node>
	<node id="-922135" lat="64.6094194406" lon="11.4669250068">
		<tag k="name" v="Rypedalen" />
		<tag k="natural" v="valley" />
		<tag k="place" v="locality" />
		<tag k="ssr:stedsnr" v="290699" />
	</node>
	<node id="-922131" lat="64.6231194457" lon="11.3400972154">
		<tag k="name" v="Middagshaugen" />
		<tag k="natural" v="hill" />
		<tag k="place" v="locality" />
		<tag k="ssr:stedsnr" v="229522" />
	</node>
	<node id="-922130" lat="64.7065194487" lon="11.4177972264">
		<tag k="name" v="Høgkleiva" />
		<tag k="natural" v="slope" />
		<tag k="place" v="locality" />
		<tag k="ssr:stedsnr" v="712285" />
	</node>
	<node id="-922126" lat="64.6409249973" lon="11.4421277796">
		<tag k="name" v="Flakahaugan" />
		<tag k="natural" v="hill" />
		<tag k="place" v="locality" />
		<tag k="ssr:stedsnr" v="318436" />
	</node>
	<node id="-922125" lat="64.6164583313" lon="11.3239777879">
		<tag k="name" v="Smihaugen" />
		<tag k="natural" v="hill" />
		<tag k="place" v="locality" />
		<tag k="ssr:stedsnr" v="654536" />
	</node>
	<node id="-922122" lat="64.6755000014" lon="11.7671055494">
		<tag k="name" v="Tronga" />
		<tag k="natural" v="valley" />
		<tag k="place" v="locality" />
		<tag k="ssr:stedsnr" v="900360" />
	</node>
	<node id="-922121" lat="64.7235499986" lon="11.8616499902">
		<tag k="name" v="Oksvikdalen" />
		<tag k="natural" v="valley" />
		<tag k="place" v="locality" />
		<tag k="ssr:stedsnr" v="439191" />
	</node>
	<node id="-922119" lat="64.6540888849" lon="11.3409666563">
		<tag k="name" v="Brennhaugen" />
		<tag k="natural" v="hill" />
		<tag k="place" v="locality" />
		<tag k="ssr:stedsnr" v="229910" />
	</node>
	<node id="-922115" lat="64.7040749984" lon="11.4300222151">
		<tag k="name" v="Kjelbakken" />
		<tag k="natural" v="slope" />
		<tag k="place" v="locality" />
		<tag k="ssr:stedsnr" v="712281" />
	</node>
	<node id="-922113" lat="64.6104444417" lon="11.4615611169">
		<tag k="name" v="Brannen" />
		<tag k="natural" v="slope" />
		<tag k="place" v="locality" />
		<tag k="ssr:stedsnr" v="836741" />
	</node>
	<node id="-922110" lat="64.7447555527" lon="11.920849998">
		<tag k="name" v="Litlvikhaugen" />
		<tag k="natural" v="hill" />
		<tag k="place" v="locality" />
		<tag k="ssr:stedsnr" v="293001" />
	</node>
	<node id="-922107" lat="64.6169555553" lon="11.3382638888">
		<tag k="name" v="Kløyva" />
		<tag k="natural" v="slope" />
		<tag k="place" v="locality" />
		<tag k="ssr:stedsnr" v="654533" />
	</node>
	<node id="-922106" lat="64.7222833307" lon="11.5463138798">
		<tag k="name" v="Loddohaugen" />
		<tag k="natural" v="hill" />
		<tag k="place" v="locality" />
		<tag k="ssr:stedsnr" v="536489" />
	</node>
	<node id="-922105" lat="64.6531055596" lon="11.2108194409">
		<tag k="name" v="Sandvikbrekka" />
		<tag k="natural" v="slope" />
		<tag k="place" v="locality" />
		<tag k="ssr:stedsnr" v="592050" />
	</node>
	<node id="-922104" lat="64.6485611131" lon="11.2539861118">
		<tag k="name" v="Klokkarbryn" />
		<tag k="natural" v="valley" />
		<tag k="place" v="locality" />
		<tag k="ssr:stedsnr" v="775971" />
	</node>
	<node id="-922103" lat="64.6817666634" lon="11.7313944379">
		<tag k="name" v="Litlmarkdalen" />
		<tag k="natural" v="valley" />
		<tag k="place" v="locality" />
		<tag k="ssr:stedsnr" v="900362" />
	</node>
	<node id="-922101" lat="64.6607361136" lon="11.175074993">
		<tag k="name" v="Smørvikhaugan" />
		<tag k="natural" v="hill" />
		<tag k="place" v="locality" />
		<tag k="ssr:stedsnr" v="836344" />
	</node>
	<node id="-922100" lat="64.6594249985" lon="11.166491676">
		<tag k="name" v="Fremmer Oddhaugen" />
		<tag k="natural" v="hill" />
		<tag k="place" v="locality" />
		<tag k="ssr:stedsnr" v="836342" />
	</node>
	<node id="-922099" lat="64.6895111153" lon="11.6602222254">
		<tag k="name" v="Svartberget" />
		<tag k="natural" v="hill" />
		<tag k="place" v="locality" />
		<tag k="ssr:stedsnr" v="171343" />
	</node>
	<node id="-922096" lat="64.647247225" lon="11.2273055636">
		<tag k="fixme" v="consider natural=peak for the most distinct mountains in the district" />
		<tag k="name" v="Liafjellet" />
		<tag k="natural" v="hill" />
		<tag k="place" v="locality" />
		<tag k="ssr:stedsnr" v="289027" />
	</node>
	<node id="-922095" lat="64.7449500032" lon="11.7503499962">
		<tag k="fixme" v="consider natural=peak for the most distinct mountains in the district" />
		<tag k="name" v="Blåfjellet" />
		<tag k="natural" v="hill" />
		<tag k="place" v="locality" />
		<tag k="ssr:stedsnr" v="864235" />
	</node>
	<node id="-922089" lat="64.6647000016" lon="11.2948361207">
		<tag k="name" v="Fokkskardet" />
		<tag k="natural" v="valley" />
		<tag k="place" v="locality" />
		<tag k="ssr:stedsnr" v="714768" />
	</node>
	<node id="-922087" lat="64.6879222261" lon="11.4856749997">
		<tag k="name" v="Vikaskardet" />
		<tag k="natural" v="valley" />
		<tag k="place" v="locality" />
		<tag k="ssr:stedsnr" v="712249" />
	</node>
	<node id="-922084" lat="64.6589555587" lon="11.2021527758">
		<tag k="name" v="Litl Brennhaugen" />
		<tag k="natural" v="hill" />
		<tag k="place" v="locality" />
		<tag k="ssr:stedsnr" v="897204" />
	</node>
	<node id="-922083" lat="64.6296083322" lon="11.419761117">
		<tag k="name" v="Hestvikkløyva" />
		<tag k="natural" v="slope" />
		<tag k="place" v="locality" />
		<tag k="ssr:stedsnr" v="349726" />
	</node>
	<node id="-922081" lat="64.7248472245" lon="11.5940027695">
		<tag k="name" v="Ingeborgholet" />
		<tag k="natural" v="valley" />
		<tag k="place" v="locality" />
		<tag k="ssr:stedsnr" v="536469" />
	</node>
	<node id="-922074" lat="64.6577611137" lon="11.3117055499">
		<tag k="fixme" v="consider natural=peak for the most distinct mountains in the district" />
		<tag k="name" v="Raudberget" />
		<tag k="natural" v="hill" />
		<tag k="place" v="locality" />
		<tag k="ssr:stedsnr" v="714765" />
	</node>
	<node id="-922071" lat="64.6394638923" lon="11.311141658">
		<tag k="name" v="Langroggohaugen" />
		<tag k="natural" v="ridge" />
		<tag k="place" v="locality" />
		<tag k="ssr:stedsnr" v="47959" />
	</node>
	<node id="-922056" lat="64.6640111115" lon="11.2503305457">
		<tag k="name" v="Grønnlimoen" />
		<tag k="place" v="locality" />
		<tag k="ssr:stedsnr" v="47139" />
	</node>
	<node id="-922054" lat="64.6348638886" lon="11.176630547">
		<tag k="name" v="Hallarhaugen" />
		<tag k="natural" v="hill" />
		<tag k="place" v="locality" />
		<tag k="ssr:stedsnr" v="108394" />
	</node>
	<node id="-922053" lat="64.6262388882" lon="11.4519833237">
		<tag k="fixme" v="consider natural=peak for the most distinct mountains in the district" />
		<tag k="name" v="Brennfjellet" />
		<tag k="natural" v="hill" />
		<tag k="place" v="locality" />
		<tag k="ssr:stedsnr" v="317349" />
	</node>
	<node id="-922050" lat="64.7763222231" lon="12.0232138869">
		<tag k="fixme" v="consider natural=peak for the most distinct mountains in the district" />
		<tag k="name" v="Øykvikfjellet" />
		<tag k="natural" v="hill" />
		<tag k="place" v="locality" />
		<tag k="ssr:stedsnr" v="317873" />
	</node>
	<node id="-922047" lat="64.6625805567" lon="11.6141555625">
		<tag k="name" v="Storgranholet" />
		<tag k="natural" v="valley" />
		<tag k="place" v="locality" />
		<tag k="ssr:stedsnr" v="959708" />
	</node>
	<node id="-922035" lat="64.6600805548" lon="11.3475305516">
		<tag k="fixme" v="consider natural=peak for the most distinct mountains in the district" />
		<tag k="name" v="Moafjellet" />
		<tag k="natural" v="hill" />
		<tag k="place" v="locality" />
		<tag k="ssr:stedsnr" v="229900" />
	</node>
	<node id="-922030" lat="64.7740805516" lon="12.0727527721">
		<tag k="name" v="Durmålshevlan" />
		<tag k="natural" v="hill" />
		<tag k="place" v="locality" />
		<tag k="ssr:stedsnr" v="742907" />
	</node>
	<node id="-922025" lat="64.6519138863" lon="11.2182888795">
		<tag k="fixme" v="consider natural=peak for the most distinct mountains in the district" />
		<tag k="name" v="Svartroggfjellet" />
		<tag k="natural" v="hill" />
		<tag k="place" v="locality" />
		<tag k="ssr:stedsnr" v="592040" />
	</node>
	<node id="-922024" lat="64.7443972251" lon="11.7981333259">
		<tag k="name" v="Storvikhøgda" />
		<tag k="natural" v="valley" />
		<tag k="place" v="locality" />
		<tag k="ssr:stedsnr" v="232204" />
	</node>
	<node id="-922022" lat="64.6408222259" lon="11.3432583255">
		<tag k="name" v="Sammarfjøsberget" />
		<tag k="natural" v="hill" />
		<tag k="place" v="locality" />
		<tag k="ssr:stedsnr" v="229891" />
	</node>
	<node id="-922021" lat="64.5980222186" lon="11.4139694363">
		<tag k="name" v="Durmålsfjellet" />
		<tag k="natural" v="hill" />
		<tag k="place" v="locality" />
		<tag k="ssr:stedsnr" v="75469" />
	</node>
	<node id="-922020" lat="64.5896416622" lon="11.4068750027">
		<tag k="name" v="Stordalen" />
		<tag k="natural" v="valley" />
		<tag k="place" v="locality" />
		<tag k="ssr:stedsnr" v="439167" />
	</node>
	<node id="-922019" lat="64.6629638855" lon="11.5901944406">
		<tag k="name" v="Skrømthaugen" />
		<tag k="natural" v="hill" />
		<tag k="place" v="locality" />
		<tag k="ssr:stedsnr" v="48725" />
	</node>
	<node id="-922018" lat="64.6722805546" lon="11.4907083426">
		<tag k="alt_name" v="Tjærraverkdalen" />
		<tag k="name" v="Tjæraverkdalen" />
		<tag k="natural" v="valley" />
		<tag k="place" v="locality" />
		<tag k="ssr:stedsnr" v="925376" />
	</node>
	<node id="-922015" lat="64.6515194481" lon="11.2474944477">
		<tag k="name" v="Flatfjellet" />
		<tag k="natural" v="hill" />
		<tag k="place" v="locality" />
		<tag k="ssr:stedsnr" v="592015" />
	</node>
	<node id="-922013" lat="64.7364500021" lon="11.8023527803">
		<tag k="name" v="Meraftahaugen" />
		<tag k="natural" v="hill" />
		<tag k="place" v="locality" />
		<tag k="ssr:stedsnr" v="864245" />
	</node>
	<node id="-922010" lat="64.6018638885" lon="11.3140611138">
		<tag k="name" v="Holvikstorhaugen" />
		<tag k="natural" v="hill" />
		<tag k="place" v="locality" />
		<tag k="ssr:stedsnr" v="560500" />
	</node>
	<node id="-922009" lat="64.5996333294" lon="11.383966669">
		<tag k="name" v="Jønnvikkløyva" />
		<tag k="natural" v="slope" />
		<tag k="place" v="locality" />
		<tag k="ssr:stedsnr" v="532553" />
	</node>
	<node id="-922008" lat="64.665977779" lon="11.4737111031">
		<tag k="name" v="Storseiertuvaksla" />
		<tag k="place" v="locality" />
		<tag k="ssr:stedsnr" v="712263" />
	</node>
	<node id="-922003" lat="64.6520722242" lon="11.2301361017">
		<tag k="name" v="Stor Høybrekka" />
		<tag k="natural" v="slope" />
		<tag k="place" v="locality" />
		<tag k="ssr:stedsnr" v="471037" />
	</node>
	<node id="-922002" lat="64.6395055571" lon="11.3677444382">
		<tag k="name" v="Bjønnbakkan" />
		<tag k="natural" v="slope" />
		<tag k="place" v="locality" />
		<tag k="ssr:stedsnr" v="654913" />
	</node>
	<node id="-922001" lat="64.6011749977" lon="11.3863027805">
		<tag k="name" v="Jønnvikkløyva" />
		<tag k="natural" v="slope" />
		<tag k="place" v="locality" />
		<tag k="ssr:stedsnr" v="229495" />
	</node>
	<node id="-922000" lat="64.6214250015" lon="11.4978777843">
		<tag k="name" v="Mastervikhøgda" />
		<tag k="natural" v="valley" />
		<tag k="place" v="locality" />
		<tag k="ssr:stedsnr" v="290672" />
	</node>
	<node id="-921998" lat="64.6379194442" lon="11.3183444454">
		<tag k="name" v="Stonghaugen" />
		<tag k="natural" v="hill" />
		<tag k="place" v="locality" />
		<tag k="ssr:stedsnr" v="350951" />
	</node>
	<node id="-921995" lat="64.5904083312" lon="11.4712277818">
		<tag k="name" v="Hommelvikflauget" />
		<tag k="natural" v="hill" />
		<tag k="place" v="locality" />
		<tag k="ssr:stedsnr" v="836724" />
	</node>
	<node id="-921994" lat="64.6575249986" lon="11.6396499975">
		<tag k="fixme" v="consider natural=peak for the most distinct mountains in the district" />
		<tag k="name" v="Heivikfjellet" />
		<tag k="natural" v="hill" />
		<tag k="place" v="locality" />
		<tag k="ssr:stedsnr" v="48723" />
	</node>
	<node id="-921992" lat="64.6639583348" lon="11.3097888854">
		<tag k="name" v="Einarskardet" />
		<tag k="natural" v="valley" />
		<tag k="place" v="locality" />
		<tag k="ssr:stedsnr" v="957783" />
	</node>
	<node id="-921986" lat="64.6547194416" lon="11.2718777803">
		<tag k="alt_name" v="Durmålsfjellet" />
		<tag k="fixme" v="multiple name tags, choose one and add the other to alt_name" />
		<tag k="name" v="Durmålfjellet;Steinsfjellet" />
		<tag k="natural" v="hill" />
		<tag k="place" v="locality" />
		<tag k="ssr:stedsnr" v="925379" />
	</node>
	<node id="-921985" lat="64.6375388848" lon="11.1785805582">
		<tag k="name" v="Ytterjordhaugen" />
		<tag k="natural" v="hill" />
		<tag k="place" v="locality" />
		<tag k="ssr:stedsnr" v="108389" />
	</node>
	<node id="-921984" lat="64.6195333312" lon="11.5160888979">
		<tag k="name" v="Svartdalen" />
		<tag k="natural" v="valley" />
		<tag k="place" v="locality" />
		<tag k="ssr:stedsnr" v="621409" />
	</node>
	<node id="-921982" lat="64.6688583318" lon="11.2474111131">
		<tag k="name" v="Gjetlholet" />
		<tag k="natural" v="valley" />
		<tag k="place" v="locality" />
		<tag k="ssr:stedsnr" v="350134" />
	</node>
	<node id="-921976" lat="64.6781833354" lon="11.3254499919">
		<tag k="name" v="Storkløyva" />
		<tag k="natural" v="slope" />
		<tag k="place" v="locality" />
		<tag k="ssr:stedsnr" v="775949" />
	</node>
	<node id="-921968" lat="64.6630027805" lon="11.2468166565">
		<tag k="name" v="Småhaugan" />
		<tag k="natural" v="hill" />
		<tag k="place" v="locality" />
		<tag k="ssr:stedsnr" v="350130" />
	</node>
	<node id="-921967" lat="64.7560305537" lon="11.9668138798">
		<tag k="name" v="Ørnflauget" />
		<tag k="natural" v="hill" />
		<tag k="place" v="locality" />
		<tag k="ssr:stedsnr" v="475031" />
	</node>
	<node id="-921961" lat="64.7540638918" lon="11.9465361186">
		<tag k="name" v="Surviklia" />
		<tag k="natural" v="slope" />
		<tag k="place" v="locality" />
		<tag k="ssr:stedsnr" v="475029" />
	</node>
	<node id="-921960" lat="64.6661972209" lon="11.2950555539">
		<tag k="name" v="Nordskardet" />
		<tag k="natural" v="valley" />
		<tag k="place" v="locality" />
		<tag k="ssr:stedsnr" v="714774" />
	</node>
	<node id="-921957" lat="64.6440611081" lon="11.2277472128">
		<tag k="name" v="Lian" />
		<tag k="natural" v="slope" />
		<tag k="place" v="locality" />
		<tag k="ssr:stedsnr" v="592027" />
	</node>
	<node id="-921951" lat="64.6319305572" lon="11.3064194342">
		<tag k="name" v="Øyahatten" />
		<tag k="natural" v="hill" />
		<tag k="place" v="locality" />
		<tag k="ssr:stedsnr" v="229880" />
	</node>
	<node id="-921947" lat="64.6674388917" lon="11.2378972311">
		<tag k="fixme" v="consider natural=peak for the most distinct mountains in the district" />
		<tag k="name" v="Skreddarfallklumpen" />
		<tag k="natural" v="hill" />
		<tag k="ssr:stedsnr" v="168141" />
	</node>
	<node id="-921945" lat="64.5980611109" lon="11.4642111132">
		<tag k="name" v="Vardbakken" />
		<tag k="natural" v="slope" />
		<tag k="place" v="locality" />
		<tag k="ssr:stedsnr" v="593673" />
	</node>
	<node id="-921942" lat="64.6465416688" lon="11.2365194354">
		<tag k="name" v="Vannhagahaugen" />
		<tag k="natural" v="hill" />
		<tag k="place" v="locality" />
		<tag k="ssr:stedsnr" v="471023" />
	</node>
	<node id="-921941" lat="64.6622138889" lon="11.2762972319">
		<tag k="name" v="Dunavasslian" />
		<tag k="natural" v="slope" />
		<tag k="place" v="locality" />
		<tag k="ssr:stedsnr" v="108784" />
	</node>
	<node id="-921940" lat="64.6724500037" lon="11.2358583372">
		<tag k="name" v="Skreddarfallet" />
		<tag k="natural" v="hill" />
		<tag k="place" v="locality" />
		<tag k="ssr:stedsnr" v="168146" />
	</node>
	<node id="-921932" lat="64.663711107" lon="11.221119434">
		<tag k="name" v="Bjørkholet" />
		<tag k="natural" v="valley" />
		<tag k="place" v="locality" />
		<tag k="ssr:stedsnr" v="168144" />
	</node>
	<node id="-921928" lat="64.7427722225" lon="11.7503388977">
		<tag k="name" v="Blåfjellia" />
		<tag k="natural" v="slope" />
		<tag k="place" v="locality" />
		<tag k="ssr:stedsnr" v="657191" />
	</node>
	<node id="-921927" lat="64.660169443" lon="11.4200027828">
		<tag k="name" v="Storkløyva" />
		<tag k="natural" v="slope" />
		<tag k="place" v="locality" />
		<tag k="ssr:stedsnr" v="653239" />
	</node>
	<node id="-921926" lat="64.8060583342" lon="12.1661499927">
		<tag k="fixme" v="consider natural=peak for the most distinct mountains in the district" />
		<tag k="name" v="Middagsfjellet" />
		<tag k="natural" v="hill" />
		<tag k="place" v="locality" />
		<tag k="ssr:stedsnr" v="378935" />
	</node>
	<node id="-921918" lat="64.6015067975" lon="11.4536342898">
		<tag k="alt_name" v="Brudeskaret;Skardet" />
		<tag k="name" v="Bruraskardet" />
		<tag k="natural" v="valley" />
		<tag k="place" v="locality" />
		<tag k="ssr:stedsnr" v="500530" />
	</node>
	<node id="-921916" lat="64.6370500028" lon="11.2792361037">
		<tag k="name" v="Storlodalen" />
		<tag k="natural" v="valley" />
		<tag k="place" v="locality" />
		<tag k="ssr:stedsnr" v="532952" />
	</node>
	<node id="-921910" lat="64.6132111146" lon="11.4590916604">
		<tag k="name" v="Demninga" />
		<tag k="natural" v="hill" />
		<tag k="place" v="locality" />
		<tag k="ssr:stedsnr" v="560496" />
	</node>
	<node id="-921907" lat="64.6390083375" lon="11.2974944536">
		<tag k="name" v="Måssaskardet" />
		<tag k="natural" v="valley" />
		<tag k="place" v="locality" />
		<tag k="ssr:stedsnr" v="350947" />
	</node>
	<node id="-921905" lat="64.6883500043" lon="11.6795805529">
		<tag k="name" v="Jektmasterdalen" />
		<tag k="natural" v="valley" />
		<tag k="place" v="locality" />
		<tag k="ssr:stedsnr" v="257395" />
	</node>
	<node id="-921904" lat="64.6751916677" lon="11.4523499911">
		<tag k="fixme" v="consider natural=peak for the most distinct mountains in the district" />
		<tag k="name" v="Åsen" />
		<tag k="natural" v="hill" />
		<tag k="place" v="locality" />
		<tag k="ssr:stedsnr" v="472279" />
	</node>
	<node id="-921901" lat="64.6304305527" lon="11.4701972166">
		<tag k="name" v="Dyrvadhaugan" />
		<tag k="natural" v="hill" />
		<tag k="place" v="locality" />
		<tag k="ssr:stedsnr" v="593656" />
	</node>
	<node id="-921900" lat="64.6673611095" lon="11.4061527751">
		<tag k="fixme" v="consider natural=peak for the most distinct mountains in the district" />
		<tag k="name" v="Galten" />
		<tag k="natural" v="hill" />
		<tag k="place" v="locality" />
		<tag k="ssr:stedsnr" v="925359" />
	</node>
	<node id="-921895" lat="64.6379416657" lon="11.546061109">
		<tag k="name" v="Øverdalen" />
		<tag k="natural" v="valley" />
		<tag k="place" v="locality" />
		<tag k="ssr:stedsnr" v="500517" />
	</node>
	<node id="-921890" lat="64.7378583362" lon="11.9028055551">
		<tag k="name" v="Stokkbakken" />
		<tag k="natural" v="slope" />
		<tag k="place" v="locality" />
		<tag k="ssr:stedsnr" v="839004" />
	</node>
	<node id="-921889" lat="64.7219250034" lon="11.9706749924">
		<tag k="name" v="Bjørndalen" />
		<tag k="natural" v="valley" />
		<tag k="place" v="locality" />
		<tag k="ssr:stedsnr" v="500242" />
	</node>
	<node id="-921888" lat="64.63039167" lon="11.4600333281">
		<tag k="name" v="Prekstolen" />
		<tag k="natural" v="hill" />
		<tag k="place" v="locality" />
		<tag k="ssr:stedsnr" v="836696" />
	</node>
	<node id="-921884" lat="64.640369445" lon="11.2022027791">
		<tag k="fixme" v="consider natural=peak for the most distinct mountains in the district" />
		<tag k="name" v="Gjerdfjellet" />
		<tag k="natural" v="hill" />
		<tag k="place" v="locality" />
		<tag k="ssr:stedsnr" v="897191" />
	</node>
	<node id="-921883" lat="64.6428750019" lon="11.4144555525">
		<tag k="name" v="Urdvikklompen" />
		<tag k="natural" v="hill" />
		<tag k="place" v="locality" />
		<tag k="ssr:stedsnr" v="290247" />
	</node>
	<node id="-921879" lat="64.7209472243" lon="12.1683527748">
		<tag k="name" v="Stigen" />
		<tag k="natural" v="slope" />
		<tag k="place" v="locality" />
		<tag k="ssr:stedsnr" v="500241" />
	</node>
	<node id="-921875" lat="64.6507638924" lon="11.1944555575">
		<tag k="name" v="Sammarfjøsbakken" />
		<tag k="natural" v="slope" />
		<tag k="place" v="locality" />
		<tag k="ssr:stedsnr" v="897183" />
	</node>
	<node id="-921874" lat="64.7398833369" lon="11.8190972296">
		<tag k="name" v="Kronhaugen" />
		<tag k="natural" v="hill" />
		<tag k="place" v="locality" />
		<tag k="ssr:stedsnr" v="657203" />
	</node>
	<node id="-921873" lat="64.6761722211" lon="11.4407944416">
		<tag k="name" v="Smådølin" />
		<tag k="natural" v="valley" />
		<tag k="place" v="locality" />
		<tag k="ssr:stedsnr" v="408376" />
	</node>
	<node id="-921872" lat="64.598041668" lon="11.3750111088">
		<tag k="name" v="Notberget" />
		<tag k="natural" v="hill" />
		<tag k="place" v="locality" />
		<tag k="ssr:stedsnr" v="350525" />
	</node>
	<node id="-921871" lat="64.6472499961" lon="11.2272944411">
		<tag k="name" v="Faksdalfjellet" />
		<tag k="natural" v="hill" />
		<tag k="place" v="locality" />
		<tag k="ssr:stedsnr" v="803416" />
	</node>
	<node id="-921870" lat="64.6819249982" lon="11.2352194464">
		<tag k="name" v="Valdskiftet" />
		<tag k="natural" v="slope" />
		<tag k="place" v="locality" />
		<tag k="ssr:stedsnr" v="229860" />
	</node>
	<node id="-921867" lat="64.6499361075" lon="11.4120194438">
		<tag k="name" v="Dalavikkløyva" />
		<tag k="natural" v="slope" />
		<tag k="place" v="locality" />
		<tag k="ssr:stedsnr" v="472264" />
	</node>
	<node id="-921863" lat="64.6101861113" lon="11.4449333395">
		<tag k="name" v="Aksla" />
		<tag k="natural" v="hill" />
		<tag k="place" v="locality" />
		<tag k="ssr:stedsnr" v="560487" />
	</node>
	<node id="-921862" lat="64.6919611126" lon="11.3214194548">
		<tag k="name" v="Nordhola" />
		<tag k="natural" v="hill" />
		<tag k="place" v="locality" />
		<tag k="ssr:stedsnr" v="532941" />
	</node>
	<node id="-921860" lat="64.7219638932" lon="11.5093138827">
		<tag k="name" v="Sagbukkhaugen" />
		<tag k="natural" v="hill" />
		<tag k="place" v="locality" />
		<tag k="ssr:stedsnr" v="596370" />
	</node>
	<node id="-921859" lat="64.622744446" lon="11.3692916726">
		<tag k="name" v="Stallhaugen" />
		<tag k="natural" v="hill" />
		<tag k="place" v="locality" />
		<tag k="ssr:stedsnr" v="350521" />
	</node>
	<node id="-921855" lat="64.7173333302" lon="11.8262249969">
		<tag k="name" v="Roparskardet" />
		<tag k="natural" v="valley" />
		<tag k="place" v="locality" />
		<tag k="ssr:stedsnr" v="500246" />
	</node>
	<node id="-921852" lat="64.6945333298" lon="11.7799750089">
		<tag k="name" v="Marsteinhaugen" />
		<tag k="natural" v="hill" />
		<tag k="place" v="locality" />
		<tag k="ssr:stedsnr" v="475374" />
	</node>
	<node id="-921850" lat="64.6583833366" lon="11.1765638796">
		<tag k="name" v="Rakkavikhaugen" />
		<tag k="natural" v="hill" />
		<tag k="place" v="locality" />
		<tag k="ssr:stedsnr" v="229454" />
	</node>
	<node id="-921849" lat="64.7209333346" lon="11.5534888839">
		<tag k="name" v="Seterkløyva" />
		<tag k="natural" v="slope" />
		<tag k="place" v="locality" />
		<tag k="ssr:stedsnr" v="111475" />
	</node>
	<node id="-921846" lat="64.6546805552" lon="11.2873416568">
		<tag k="name" v="Surlia" />
		<tag k="natural" v="slope" />
		<tag k="place" v="locality" />
		<tag k="ssr:stedsnr" v="714301" />
	</node>
	<node id="-921839" lat="64.6609499958" lon="11.1877222304">
		<tag k="name" v="Stonghaugen" />
		<tag k="natural" v="hill" />
		<tag k="place" v="locality" />
		<tag k="ssr:stedsnr" v="897153" />
	</node>
	<node id="-921838" lat="64.6874888879" lon="11.7878916673">
		<tag k="name" v="Langdalen" />
		<tag k="natural" v="valley" />
		<tag k="place" v="locality" />
		<tag k="ssr:stedsnr" v="839356" />
	</node>
	<node id="-921835" lat="64.6728555527" lon="11.2720277743">
		<tag k="name" v="Treklumpen" />
		<tag k="natural" v="hill" />
		<tag k="place" v="locality" />
		<tag k="ssr:stedsnr" v="621375" />
	</node>
	<node id="-921834" lat="64.7557222205" lon="11.9148444346">
		<tag k="name" v="Lendbekklia" />
		<tag k="natural" v="slope" />
		<tag k="place" v="locality" />
		<tag k="ssr:stedsnr" v="414008" />
	</node>
	<node id="-921831" lat="64.7524277756" lon="11.9336166732">
		<tag k="name" v="Gåshola" />
		<tag k="natural" v="valley" />
		<tag k="place" v="locality" />
		<tag k="ssr:stedsnr" v="742876" />
	</node>
	<node id="-921828" lat="64.6618499996" lon="11.4800083359">
		<tag k="name" v="Seiertuva" />
		<tag k="natural" v="hill" />
		<tag k="place" v="locality" />
		<tag k="ssr:stedsnr" v="378343" />
	</node>
	<node id="-921826" lat="64.7551638903" lon="11.8666777847">
		<tag k="name" v="Bolvikdalen" />
		<tag k="natural" v="valley" />
		<tag k="place" v="locality" />
		<tag k="ssr:stedsnr" v="925883" />
	</node>
	<node id="-921824" lat="64.6891305554" lon="11.4997277857">
		<tag k="name" v="Skavdalen" />
		<tag k="natural" v="valley" />
		<tag k="place" v="locality" />
		<tag k="ssr:stedsnr" v="287317" />
	</node>
	<node id="-921818" lat="64.6350000005" lon="11.3220250006">
		<tag k="name" v="Kløyva" />
		<tag k="natural" v="slope" />
		<tag k="place" v="locality" />
		<tag k="ssr:stedsnr" v="775885" />
	</node>
	<node id="-921817" lat="64.7795583353" lon="12.1164416735">
		<tag k="alt_name" v="Kvernvassdalen" />
		<tag k="name" v="Kvennvassdalen" />
		<tag k="natural" v="valley" />
		<tag k="place" v="locality" />
		<tag k="ssr:stedsnr" v="378915" />
	</node>
	<node id="-921814" lat="64.7484305554" lon="11.8180777804">
		<tag k="name" v="Stokkbakken" />
		<tag k="natural" v="slope" />
		<tag k="place" v="locality" />
		<tag k="ssr:stedsnr" v="778207" />
	</node>
	<node id="-921813" lat="64.6181527802" lon="11.4681250017">
		<tag k="name" v="Seteråsen" />
		<tag k="natural" v="hill" />
		<tag k="place" v="locality" />
		<tag k="ssr:stedsnr" v="593651" />
	</node>
	<node id="-921807" lat="64.7200500031" lon="11.5068666649">
		<tag k="name" v="Øvermoen" />
		<tag k="place" v="locality" />
		<tag k="ssr:stedsnr" v="656387" />
	</node>
	<node id="-921805" lat="64.673974997" lon="11.2256027725">
		<tag k="name" v="Rabben" />
		<tag k="place" v="locality" />
		<tag k="ssr:stedsnr" v="897149" />
	</node>
	<node id="-921800" lat="64.6037666635" lon="11.2991305577">
		<tag k="name" v="Valhaugen" />
		<tag k="natural" v="hill" />
		<tag k="place" v="locality" />
		<tag k="ssr:stedsnr" v="775882" />
	</node>
	<node id="-921799" lat="64.6809694409" lon="11.266686106">
		<tag k="name" v="Leirvikskardet" />
		<tag k="natural" v="valley" />
		<tag k="place" v="locality" />
		<tag k="ssr:stedsnr" v="229851" />
	</node>
	<node id="-921797" lat="64.7425944415" lon="11.7991333264">
		<tag k="name" v="Vikavarden" />
		<tag k="natural" v="hill" />
		<tag k="place" v="locality" />
		<tag k="ssr:stedsnr" v="778204" />
	</node>
	<node id="-921796" lat="64.6164944403" lon="11.3285333282">
		<tag k="name" v="Klokkarhaugen" />
		<tag k="natural" v="hill" />
		<tag k="place" v="locality" />
		<tag k="ssr:stedsnr" v="350507" />
	</node>
	<node id="-921793" lat="64.6334638878" lon="11.4238749994">
		<tag k="name" v="Andersvikan" />
		<tag k="natural" v="slope" />
		<tag k="place" v="locality" />
		<tag k="ssr:stedsnr" v="290241" />
	</node>
	<node id="-921787" lat="64.6046694485" lon="11.4629916761">
		<tag k="name" v="Skardadalen" />
		<tag k="natural" v="valley" />
		<tag k="place" v="locality" />
		<tag k="ssr:stedsnr" v="714728" />
	</node>
	<node id="-921782" lat="64.6802472251" lon="11.2326111096">
		<tag k="name" v="Aunabakken" />
		<tag k="natural" v="slope" />
		<tag k="place" v="locality" />
		<tag k="ssr:stedsnr" v="229843" />
	</node>
	<node id="-921781" lat="64.6656027743" lon="11.427374997">
		<tag k="name" v="Skardenget" />
		<tag k="place" v="locality" />
		<tag k="ssr:stedsnr" v="257373" />
	</node>
	<node id="-921780" lat="64.7136972189" lon="11.7466361035">
		<tag k="name" v="Bjørkåsen" />
		<tag k="place" v="locality" />
		<tag k="ssr:stedsnr" v="475360" />
	</node>
	<node id="-921779" lat="64.7117500009" lon="11.8515999935">
		<tag k="fixme" v="consider natural=peak for the most distinct mountains in the district" />
		<tag k="name" v="Storskardfjellet" />
		<tag k="natural" v="hill" />
		<tag k="place" v="locality" />
		<tag k="ssr:stedsnr" v="197224" />
	</node>
	<node id="-921775" lat="64.7268861147" lon="11.5165500101">
		<tag k="name" v="Nausthaugen" />
		<tag k="natural" v="hill" />
		<tag k="place" v="locality" />
		<tag k="ssr:stedsnr" v="414379" />
	</node>
	<node id="-921774" lat="64.6895666687" lon="11.7773499954">
		<tag k="name" v="Nonshaugen" />
		<tag k="natural" v="hill" />
		<tag k="place" v="locality" />
		<tag k="ssr:stedsnr" v="596341" />
	</node>
	<node id="-921768" lat="64.7238750002" lon="11.9181805606">
		<tag k="name" v="Fossenget" />
		<tag k="place" v="locality" />
		<tag k="ssr:stedsnr" v="864209" />
	</node>
	<node id="-921767" lat="64.6330944476" lon="11.4190555624">
		<tag k="name" v="Hamran" />
		<tag k="natural" v="hill" />
		<tag k="place" v="locality" />
		<tag k="ssr:stedsnr" v="593229" />
	</node>
	<node id="-921764" lat="64.6128499959" lon="11.2835055461">
		<tag k="name" v="Oksskardet" />
		<tag k="natural" v="valley" />
		<tag k="place" v="locality" />
		<tag k="ssr:stedsnr" v="47892" />
	</node>
	<node id="-921763" lat="64.6656583373" lon="11.5806500028">
		<tag k="name" v="Demmingsvasslia" />
		<tag k="natural" v="slope" />
		<tag k="place" v="locality" />
		<tag k="ssr:stedsnr" v="898746" />
	</node>
	<node id="-921762" lat="64.6621000034" lon="11.9325250092">
		<tag k="name" v="Saksdalen" />
		<tag k="natural" v="valley" />
		<tag k="place" v="locality" />
		<tag k="ssr:stedsnr" v="864202" />
	</node>
	<node id="-921758" lat="64.6998944449" lon="11.7319277709">
		<tag k="alt_name" v="Eidfjellet" />
		<tag k="fixme" v="consider natural=peak for the most distinct mountains in the district" />
		<tag k="name" v="Eidafjellet" />
		<tag k="natural" v="hill" />
		<tag k="place" v="locality" />
		<tag k="ssr:stedsnr" v="500226" />
	</node>
	<node id="-921749" lat="64.7078694423" lon="11.4501694546">
		<tag k="name" v="Brekkreina" />
		<tag k="natural" v="slope" />
		<tag k="place" v="locality" />
		<tag k="ssr:stedsnr" v="408351" />
	</node>
	<node id="-921747" lat="64.6997000019" lon="11.8125999911">
		<tag k="fixme" v="consider natural=peak for the most distinct mountains in the district" />
		<tag k="name" v="Fokktuva" />
		<tag k="natural" v="hill" />
		<tag k="place" v="locality" />
		<tag k="ssr:stedsnr" v="864201" />
	</node>
	<node id="-921746" lat="64.6631055576" lon="11.1948361047">
		<tag k="name" v="Brekka" />
		<tag k="natural" v="slope" />
		<tag k="place" v="locality" />
		<tag k="ssr:stedsnr" v="897158" />
	</node>
	<node id="-921741" lat="64.7402027756" lon="11.7283861113">
		<tag k="name" v="Skjærivassbakkan" />
		<tag k="natural" v="slope" />
		<tag k="place" v="locality" />
		<tag k="ssr:stedsnr" v="50195" />
	</node>
	<node id="-921738" lat="64.6488805587" lon="11.1971638799">
		<tag k="name" v="Raudberga" />
		<tag k="natural" v="hill" />
		<tag k="place" v="locality" />
		<tag k="ssr:stedsnr" v="107052" />
	</node>
	<node id="-921737" lat="64.739919443" lon="12.0792472157">
		<tag k="alt_name" v="Fangnesdalen" />
		<tag k="name" v="Sør Fangnessdalen" />
		<tag k="natural" v="valley" />
		<tag k="place" v="locality" />
		<tag k="ssr:stedsnr" v="560198" />
	</node>
	<node id="-921735" lat="64.6272777779" lon="11.368061109">
		<tag k="fixme" v="consider natural=peak for the most distinct mountains in the district" />
		<tag k="name" v="Langhaugen" />
		<tag k="natural" v="hill" />
		<tag k="place" v="locality" />
		<tag k="ssr:stedsnr" v="350496" />
	</node>
	<node id="-921734" lat="64.6406666622" lon="11.2714250096">
		<tag k="name" v="Sagbakken" />
		<tag k="natural" v="slope" />
		<tag k="place" v="locality" />
		<tag k="ssr:stedsnr" v="897977" />
	</node>
	<node id="-921731" lat="64.6819527753" lon="11.5018472205">
		<tag k="name" v="Brannen" />
		<tag k="natural" v="slope" />
		<tag k="place" v="locality" />
		<tag k="ssr:stedsnr" v="287310" />
	</node>
	<node id="-921729" lat="64.6681388934" lon="11.4232027802">
		<tag k="name" v="Olavaslettet" />
		<tag k="place" v="locality" />
		<tag k="ssr:stedsnr" v="593236" />
	</node>
	<node id="-921728" lat="64.599891664" lon="11.4367111118">
		<tag k="name" v="Valdskifthammaren" />
		<tag k="natural" v="hill" />
		<tag k="place" v="locality" />
		<tag k="ssr:stedsnr" v="168512" />
	</node>
	<node id="-921727" lat="64.6446888892" lon="11.2120472298">
		<tag k="name" v="Brannen" />
		<tag k="place" v="locality" />
		<tag k="ssr:stedsnr" v="775051" />
	</node>
	<node id="-921725" lat="64.6978999981" lon="11.9218250071">
		<tag k="fixme" v="consider natural=peak for the most distinct mountains in the district" />
		<tag k="name" v="Salmarkfjella" />
		<tag k="natural" v="hill" />
		<tag k="place" v="locality" />
		<tag k="ssr:stedsnr" v="500211" />
	</node>
	<node id="-921721" lat="64.6171611146" lon="11.4896888925">
		<tag k="name" v="Pålenghaugan" />
		<tag k="natural" v="hill" />
		<tag k="place" v="locality" />
		<tag k="ssr:stedsnr" v="714691" />
	</node>
	<node id="-921720" lat="64.7195111096" lon="11.4795777864">
		<tag k="name" v="Østenhogget" />
		<tag k="natural" v="slope" />
		<tag k="place" v="locality" />
		<tag k="ssr:stedsnr" v="414374" />
	</node>
	<node id="-921716" lat="64.6465166646" lon="11.3347916711">
		<tag k="name" v="Sammardalen" />
		<tag k="natural" v="valley" />
		<tag k="place" v="locality" />
		<tag k="ssr:stedsnr" v="168922" />
	</node>
	<node id="-921715" lat="64.7558833353" lon="11.7776249991">
		<tag k="name" v="Skogkjerringdalen" />
		<tag k="natural" v="valley" />
		<tag k="place" v="locality" />
		<tag k="ssr:stedsnr" v="50194" />
	</node>
	<node id="-921714" lat="64.6946027756" lon="11.8187749941">
		<tag k="name" v="Fokktuvdalen" />
		<tag k="natural" v="valley" />
		<tag k="place" v="locality" />
		<tag k="ssr:stedsnr" v="560179" />
	</node>
	<node id="-921710" lat="64.6199388908" lon="11.4274555573">
		<tag k="name" v="Holmmarka" />
		<tag k="natural" v="slope" />
		<tag k="place" v="locality" />
		<tag k="ssr:stedsnr" v="593621" />
	</node>
	<node id="-921706" lat="64.6579583305" lon="11.3534472148">
		<tag k="name" v="Glimthaugen" />
		<tag k="natural" v="hill" />
		<tag k="place" v="locality" />
		<tag k="ssr:stedsnr" v="532895" />
	</node>
	<node id="-921705" lat="64.6623305536" lon="11.335397216">
		<tag k="name" v="Sørskardet" />
		<tag k="natural" v="valley" />
		<tag k="place" v="locality" />
		<tag k="ssr:stedsnr" v="350888" />
	</node>
	<node id="-921704" lat="64.6610194448" lon="11.202441662">
		<tag k="name" v="Langhaugen" />
		<tag k="natural" v="hill" />
		<tag k="place" v="locality" />
		<tag k="ssr:stedsnr" v="653188" />
	</node>
	<node id="-921703" lat="64.6060888914" lon="11.4025499937">
		<tag k="name" v="Fjordakløyva" />
		<tag k="natural" v="slope" />
		<tag k="place" v="locality" />
		<tag k="ssr:stedsnr" v="350476" />
	</node>
	<node id="-921701" lat="64.703502782" lon="11.8441555495">
		<tag k="name" v="Storskardet" />
		<tag k="natural" v="valley" />
		<tag k="place" v="locality" />
		<tag k="ssr:stedsnr" v="500212" />
	</node>
	<node id="-921700" lat="64.6295361131" lon="11.3087999898">
		<tag k="alt_name" v="Øya" />
		<tag k="name" v="Storøya" />
		<tag k="natural" v="hill" />
		<tag k="place" v="locality" />
		<tag k="ssr:stedsnr" v="14303" />
	</node>
	<node id="-921699" lat="64.6496583312" lon="11.2060472234">
		<tag k="name" v="Storkroken" />
		<tag k="natural" v="valley" />
		<tag k="place" v="locality" />
		<tag k="ssr:stedsnr" v="107044" />
	</node>
	<node id="-921698" lat="64.6695166707" lon="11.6016083381">
		<tag k="name" v="Nordlia" />
		<tag k="natural" v="slope" />
		<tag k="place" v="locality" />
		<tag k="ssr:stedsnr" v="898720" />
	</node>
	<node id="-921697" lat="64.724552781" lon="11.7821305597">
		<tag k="name" v="Skjelhagahammaren" />
		<tag k="natural" v="hill" />
		<tag k="place" v="locality" />
		<tag k="ssr:stedsnr" v="50191" />
	</node>
	<node id="-921696" lat="64.708538889" lon="11.4603138872">
		<tag k="name" v="Svebakken" />
		<tag k="natural" v="slope" />
		<tag k="place" v="locality" />
		<tag k="ssr:stedsnr" v="960399" />
	</node>
	<node id="-921695" lat="64.5980833337" lon="11.4228388815">
		<tag k="fixme" v="consider natural=peak for the most distinct mountains in the district" />
		<tag k="name" v="Urdfjellet" />
		<tag k="natural" v="hill" />
		<tag k="place" v="locality" />
		<tag k="ssr:stedsnr" v="47477" />
	</node>
	<node id="-921693" lat="64.6500250036" lon="11.2123944352">
		<tag k="name" v="Grøtingan" />
		<tag k="natural" v="slope" />
		<tag k="place" v="locality" />
		<tag k="ssr:stedsnr" v="107035" />
	</node>
	<node id="-921692" lat="64.6757777817" lon="11.3394083438">
		<tag k="name" v="Villfjellet" />
		<tag k="place" v="locality" />
		<tag k="ssr:stedsnr" v="532899" />
	</node>
	<node id="-921685" lat="64.6811750028" lon="11.2814805518">
		<tag k="name" v="Høglia" />
		<tag k="natural" v="slope" />
		<tag k="place" v="locality" />
		<tag k="ssr:stedsnr" v="229824" />
	</node>
	<node id="-921681" lat="64.6517805528" lon="11.215480558">
		<tag k="name" v="Svartroggo" />
		<tag k="natural" v="valley" />
		<tag k="place" v="locality" />
		<tag k="ssr:stedsnr" v="107040" />
	</node>
	<node id="-921679" lat="64.7053305548" lon="11.7384138855">
		<tag k="name" v="Bjønnaberga" />
		<tag k="natural" v="hill" />
		<tag k="place" v="locality" />
		<tag k="ssr:stedsnr" v="596335" />
	</node>
	<node id="-921676" lat="64.6732749994" lon="11.7568277757">
		<tag k="fixme" v="consider natural=peak for the most distinct mountains in the district" />
		<tag k="name" v="Klakkfjellet" />
		<tag k="natural" v="hill" />
		<tag k="place" v="locality" />
		<tag k="ssr:stedsnr" v="865816" />
	</node>
	<node id="-921673" lat="64.6626833293" lon="11.2377861072">
		<tag k="name" v="Kristianmoen" />
		<tag k="place" v="locality" />
		<tag k="ssr:stedsnr" v="897140" />
	</node>
	<node id="-921672" lat="64.6518999997" lon="11.2040361194">
		<tag k="name" v="Barden" />
		<tag k="natural" v="slope" />
		<tag k="place" v="locality" />
		<tag k="ssr:stedsnr" v="532050" />
	</node>
	<node id="-921671" lat="64.6878305545" lon="11.7588527806">
		<tag k="alt_name" v="Soksdalsfjellet" />
		<tag k="fixme" v="consider natural=peak for the most distinct mountains in the district" />
		<tag k="name" v="Saksdalsfjellet" />
		<tag k="natural" v="hill" />
		<tag k="place" v="locality" />
		<tag k="ssr:stedsnr" v="76222" />
	</node>
	<node id="-921670" lat="64.8241666637" lon="12.0707499998">
		<tag k="fixme" v="consider natural=peak for the most distinct mountains in the district" />
		<tag k="name" v="Mjøsundfjellet - Gaskevarie" />
		<tag k="name:no" v="Mjøsundfjellet" />
		<tag k="name:sma" v="Gaskevarie" />
		<tag k="natural" v="hill" />
		<tag k="place" v="locality" />
		<tag k="ssr:stedsnr" v="621917" />
	</node>
	<node id="-921668" lat="64.5967694432" lon="11.4346249993">
		<tag k="name" v="Sjømarka" />
		<tag k="natural" v="slope" />
		<tag k="place" v="locality" />
		<tag k="ssr:stedsnr" v="350466" />
	</node>
	<node id="-921663" lat="64.6251083354" lon="11.5051944417">
		<tag k="name" v="Sandådalen" />
		<tag k="natural" v="valley" />
		<tag k="place" v="locality" />
		<tag k="ssr:stedsnr" v="836649" />
	</node>
	<node id="-921661" lat="64.8128999961" lon="12.0683250018">
		<tag k="alt_name" v="Hopadalen, austre;Hopadalen" />
		<tag k="name" v="Austre Hopadalen" />
		<tag k="natural" v="valley" />
		<tag k="place" v="locality" />
		<tag k="ssr:stedsnr" v="75942" />
	</node>
	<node id="-921660" lat="64.6485833298" lon="11.2061138877">
		<tag k="fixme" v="consider natural=peak for the most distinct mountains in the district" />
		<tag k="name" v="Storfjellet" />
		<tag k="natural" v="hill" />
		<tag k="place" v="locality" />
		<tag k="ssr:stedsnr" v="350044" />
	</node>
	<node id="-921659" lat="64.6298583298" lon="11.2740694473">
		<tag k="name" v="Ragnhildgårdberget" />
		<tag k="natural" v="hill" />
		<tag k="place" v="locality" />
		<tag k="ssr:stedsnr" v="47871" />
	</node>
	<node id="-921657" lat="64.7713694439" lon="12.0869888895">
		<tag k="alt_name" v="Grønndalen" />
		<tag k="name" v="Grøndalen" />
		<tag k="natural" v="valley" />
		<tag k="place" v="locality" />
		<tag k="ssr:stedsnr" v="439913" />
	</node>
	<node id="-921656" lat="64.6438888851" lon="11.4423888888">
		<tag k="name" v="Småslettet" />
		<tag k="place" v="locality" />
		<tag k="ssr:stedsnr" v="411248" />
	</node>
	<node id="-921647" lat="64.6373972223" lon="11.1950388795">
		<tag k="name" v="Gurihaugen" />
		<tag k="natural" v="hill" />
		<tag k="place" v="locality" />
		<tag k="ssr:stedsnr" v="290205" />
	</node>
	<node id="-921643" lat="64.673691669" lon="11.3143555605">
		<tag k="name" v="Andreasfjellet" />
		<tag k="natural" v="hill" />
		<tag k="place" v="locality" />
		<tag k="ssr:stedsnr" v="742337" />
	</node>
	<node id="-921638" lat="64.6205166695" lon="11.4226638994">
		<tag k="name" v="Holmhaugan" />
		<tag k="natural" v="hill" />
		<tag k="place" v="locality" />
		<tag k="ssr:stedsnr" v="290605" />
	</node>
	<node id="-921636" lat="64.6645972256" lon="11.2056055495">
		<tag k="name" v="Gjerthanshaugen" />
		<tag k="natural" v="hill" />
		<tag k="place" v="locality" />
		<tag k="ssr:stedsnr" v="864992" />
	</node>
	<node id="-921635" lat="64.6469416684" lon="11.2651277726">
		<tag k="name" v="Hyllhaugan" />
		<tag k="natural" v="hill" />
		<tag k="place" v="locality" />
		<tag k="ssr:stedsnr" v="290999" />
	</node>
	<node id="-921633" lat="64.7720777818" lon="11.9633833265">
		<tag k="fixme" v="consider natural=peak for the most distinct mountains in the district" />
		<tag k="name" v="Kovatinden" />
		<tag k="natural" v="hill" />
		<tag k="place" v="locality" />
		<tag k="ssr:stedsnr" v="135875" />
	</node>
	<node id="-921632" lat="64.7534027779" lon="12.0970916581">
		<tag k="name" v="Fangnesdalen" />
		<tag k="natural" v="valley" />
		<tag k="place" v="locality" />
		<tag k="ssr:stedsnr" v="378890" />
	</node>
	<node id="-921627" lat="64.6565805554" lon="11.1985111102">
		<tag k="name" v="Nausthaugen" />
		<tag k="natural" v="hill" />
		<tag k="place" v="locality" />
		<tag k="ssr:stedsnr" v="653197" />
	</node>
	<node id="-921626" lat="64.6150777758" lon="11.2735611152">
		<tag k="name" v="Aunafloget" />
		<tag k="natural" v="hill" />
		<tag k="place" v="locality" />
		<tag k="ssr:stedsnr" v="350879" />
	</node>
	<node id="-921625" lat="64.7601749986" lon="11.8950388961">
		<tag k="fixme" v="consider natural=peak for the most distinct mountains in the district" />
		<tag k="name" v="Jettenlifjellet" />
		<tag k="natural" v="hill" />
		<tag k="place" v="locality" />
		<tag k="ssr:stedsnr" v="257892" />
	</node>
	<node id="-921623" lat="64.7593166632" lon="12.0335250038">
		<tag k="name" v="Litlvikdalen" />
		<tag k="natural" v="valley" />
		<tag k="place" v="locality" />
		<tag k="ssr:stedsnr" v="317814" />
	</node>
	<node id="-921622" lat="64.6624000019" lon="11.3838416564">
		<tag k="name" v="Engesroggo" />
		<tag k="place" v="locality" />
		<tag k="ssr:stedsnr" v="378320" />
	</node>
	<node id="-921621" lat="64.6814166661" lon="11.811161108">
		<tag k="name" v="Aunet" />
		<tag k="place" v="locality" />
		<tag k="ssr:stedsnr" v="960024" />
	</node>
	<node id="-921619" lat="64.6530305556" lon="11.5945638825">
		<tag k="name" v="Ambudalen" />
		<tag k="natural" v="valley" />
		<tag k="place" v="locality" />
		<tag k="ssr:stedsnr" v="257356" />
	</node>
	<node id="-921618" lat="64.6685944403" lon="11.4347083225">
		<tag k="name" v="Skardengdalen" />
		<tag k="natural" v="valley" />
		<tag k="place" v="locality" />
		<tag k="ssr:stedsnr" v="411255" />
	</node>
	<node id="-921617" lat="64.6293194474" lon="11.3046500094">
		<tag k="name" v="Øyadalen" />
		<tag k="natural" v="valley" />
		<tag k="place" v="locality" />
		<tag k="ssr:stedsnr" v="47867" />
	</node>
	<node id="-921615" lat="64.6467277788" lon="11.2135500075">
		<tag k="name" v="Sesshudalen" />
		<tag k="natural" v="valley" />
		<tag k="place" v="locality" />
		<tag k="ssr:stedsnr" v="47047" />
	</node>
	<node id="-921614" lat="64.6563027734" lon="11.2591611155">
		<tag k="name" v="Barden" />
		<tag k="place" v="locality" />
		<tag k="ssr:stedsnr" v="229814" />
	</node>
	<node id="-921613" lat="64.7427722235" lon="11.8116138962">
		<tag k="name" v="Stormyrabben" />
		<tag k="natural" v="hill" />
		<tag k="place" v="locality" />
		<tag k="ssr:stedsnr" v="718212" />
	</node>
	<node id="-921612" lat="64.6319166646" lon="11.2869916728">
		<tag k="name" v="Krakmoen" />
		<tag k="place" v="locality" />
		<tag k="ssr:stedsnr" v="350862" />
	</node>
	<node id="-921611" lat="64.6262250014" lon="11.4917000006">
		<tag k="fixme" v="multiple name tags, choose one and add the other to alt_name; consider natural=peak for the most distinct mountains in the district" />
		<tag k="name" v="Mastervikfjellet;Mastervikklompen" />
		<tag k="natural" v="hill" />
		<tag k="place" v="locality" />
		<tag k="ssr:stedsnr" v="75407" />
	</node>
	<node id="-921610" lat="64.6422111145" lon="11.2435694422">
		<tag k="name" v="Solkløyvhaugen" />
		<tag k="natural" v="hill" />
		<tag k="place" v="locality" />
		<tag k="ssr:stedsnr" v="775026" />
	</node>
	<node id="-921609" lat="64.6763611151" lon="11.2456166692">
		<tag k="alt_name" v="Skåkkjerringa" />
		<tag k="fixme" v="multiple name tags, choose one and add the other to alt_name; consider natural=peak for the most distinct mountains in the district" />
		<tag k="name" v="Brakstadkjerringa;Skåkkjerringfjellet" />
		<tag k="natural" v="hill" />
		<tag k="place" v="locality" />
		<tag k="ssr:stedsnr" v="318363" />
	</node>
	<node id="-921608" lat="64.6128333292" lon="11.369241661">
		<tag k="name" v="Flauga" />
		<tag k="natural" v="hill" />
		<tag k="place" v="locality" />
		<tag k="ssr:stedsnr" v="897509" />
	</node>
	<node id="-921606" lat="64.7839638877" lon="12.0953638918">
		<tag k="name" v="Trettmyrdalen" />
		<tag k="natural" v="valley" />
		<tag k="place" v="locality" />
		<tag k="ssr:stedsnr" v="657121" />
	</node>
	<node id="-921605" lat="64.7914527781" lon="12.1070833428">
		<tag k="name" v="Kaldholet" />
		<tag k="natural" v="valley" />
		<tag k="place" v="locality" />
		<tag k="ssr:stedsnr" v="232115" />
	</node>
	<node id="-921604" lat="64.6395083371" lon="11.7411999932">
		<tag k="name" v="Rundtuva" />
		<tag k="natural" v="hill" />
		<tag k="place" v="locality" />
		<tag k="ssr:stedsnr" v="257886" />
	</node>
	<node id="-921603" lat="64.768969446" lon="11.9603500001">
		<tag k="name" v="Smikroken" />
		<tag k="natural" v="valley" />
		<tag k="place" v="locality" />
		<tag k="ssr:stedsnr" v="803896" />
	</node>
	<node id="-921602" lat="64.6538083371" lon="11.2342694505">
		<tag k="name" v="Litl Høybrekka" />
		<tag k="natural" v="slope" />
		<tag k="place" v="locality" />
		<tag k="ssr:stedsnr" v="350036" />
	</node>
</osm>
