<?xml version="1.0" encoding="UTF-8"?>
<osm generator="osmapis" version="0.6">
	<node id="-919552" lat="64.7476027743" lon="11.9779166561">
		<tag k="name" v="Skjeftmyrbekken" />
		<tag k="ssr:stedsnr" v="535083" />
		<tag k="waterway" v="stream" />
	</node>
	<node id="-919551" lat="64.7337777757" lon="11.731588879">
		<tag k="name" v="Langnessbekken" />
		<tag k="ssr:stedsnr" v="414205" />
		<tag k="waterway" v="stream" />
	</node>
	<node id="-919546" lat="64.7458749975" lon="11.9028305629">
		<tag k="name" v="Tverrlandet" />
		<tag k="natural" v="cape" />
		<tag k="ssr:stedsnr" v="621224" />
	</node>
	<node id="-919538" lat="64.7026694458" lon="11.5523861202">
		<tag k="name" v="Gunnarholet" />
		<tag k="natural" v="bay" />
		<tag k="ssr:stedsnr" v="171471" />
	</node>
	<node id="-919527" lat="64.6245833335" lon="11.4836888789">
		<tag k="name" v="Mastervikholmen" />
		<tag k="place" v="islet" />
		<tag k="ssr:stedsnr" v="532708" />
	</node>
	<node id="-919524" lat="64.6978555561" lon="11.6822277674">
		<tag k="name" v="Litl-Gagneta" />
		<tag k="natural" v="bay" />
		<tag k="ssr:stedsnr" v="232344" />
	</node>
	<node id="-919522" lat="64.6685833359" lon="11.5099277789">
		<tag k="name" v="Damtjønna" />
		<tag k="natural" v="water" />
		<tag k="ssr:stedsnr" v="196291" />
	</node>
	<node id="-919521" lat="64.6289333377" lon="11.468419444">
		<tag k="name" v="Litlurdsvatnet" />
		<tag k="natural" v="water" />
		<tag k="ssr:stedsnr" v="532707" />
	</node>
	<node id="-919518" lat="64.7099999959" lon="11.5833333371">
		<tag k="name" v="Salvatnet" />
		<tag k="natural" v="water" />
		<tag k="ssr:stedsnr" v="136306" />
		<tag k="water" v="lake" />
	</node>
	<node id="-919517" lat="64.7582250018" lon="11.9276416713">
		<tag k="alt_name" v="Lendbekken" />
		<tag k="name" v="Leinbekken" />
		<tag k="ssr:stedsnr" v="864870" />
		<tag k="waterway" v="stream" />
	</node>
	<node id="-919513" lat="64.7259388914" lon="11.8775222188">
		<tag k="name" v="Groftholet" />
		<tag k="natural" v="bay" />
		<tag k="ssr:stedsnr" v="50008" />
	</node>
	<node id="-919509" lat="64.6031166678" lon="11.4283777742">
		<tag k="name" v="Saghuselva" />
		<tag k="ssr:stedsnr" v="957515" />
		<tag k="waterway" v="stream" />
	</node>
	<node id="-919496" lat="64.7818249971" lon="11.9936333313">
		<tag k="name" v="Svanatjønnin" />
		<tag k="natural" v="water" />
		<tag k="ssr:stedsnr" v="197905" />
	</node>
	<node id="-919494" lat="64.6711388921" lon="11.6671083322">
		<tag k="name" v="Breivikholmen" />
		<tag k="place" v="islet" />
		<tag k="ssr:stedsnr" v="196287" />
	</node>
	<node id="-919492" lat="64.6875944433" lon="11.7943722315">
		<tag k="name" v="Litlfossen" />
		<tag k="natural" v="waterfall" />
		<tag k="ssr:stedsnr" v="50045" />
	</node>
	<node id="-919484" lat="64.7551999977" lon="12.0047305465">
		<tag k="name" v="Båtneset" />
		<tag k="natural" v="cape" />
		<tag k="ssr:stedsnr" v="560881" />
	</node>
	<node id="-919477" lat="64.6670444406" lon="11.5921305508">
		<tag k="loc_name" v="Demningsvatna" />
		<tag k="name" v="Demmingsvatna" />
		<tag k="natural" v="water" />
		<tag k="ssr:stedsnr" v="439308" />
		<tag k="water" v="lake" />
	</node>
	<node id="-919474" lat="64.7503444484" lon="11.9629361064">
		<tag k="name" v="Aunodden" />
		<tag k="natural" v="cape" />
		<tag k="ssr:stedsnr" v="560883" />
	</node>
	<node id="-919471" lat="64.7068027752" lon="11.7277333366">
		<tag k="alt_name" v="Geisnessbukta" />
		<tag k="name" v="Geisnesbukta" />
		<tag k="natural" v="bay" />
		<tag k="ssr:stedsnr" v="925205" />
	</node>
	<node id="-919469" lat="64.7196749986" lon="11.4984916578">
		<tag k="name" v="Sørbekken" />
		<tag k="ssr:stedsnr" v="803270" />
		<tag k="waterway" v="stream" />
	</node>
	<node id="-919467" lat="64.6538472184" lon="11.3081888979">
		<tag k="name" v="Namdalsbekken" />
		<tag k="ssr:stedsnr" v="957941" />
		<tag k="waterway" v="stream" />
	</node>
	<node id="-919463" lat="64.7581611128" lon="12.047174993">
		<tag k="name" v="Litlviktjønna" />
		<tag k="natural" v="water" />
		<tag k="ssr:stedsnr" v="900105" />
	</node>
	<node id="-919461" lat="64.7063388887" lon="11.796413895">
		<tag k="name" v="Kvennbekken" />
		<tag k="ssr:stedsnr" v="50040" />
		<tag k="waterway" v="stream" />
	</node>
	<node id="-919456" lat="64.7232833298" lon="11.641602772">
		<tag k="name" v="Litl-Hommelvika" />
		<tag k="natural" v="bay" />
		<tag k="ssr:stedsnr" v="171506" />
	</node>
	<node id="-919452" lat="64.7074694441" lon="11.4762305466">
		<tag k="name" v="Storvassvika" />
		<tag k="natural" v="bay" />
		<tag k="ssr:stedsnr" v="621259" />
	</node>
	<node id="-919447" lat="64.7015555533" lon="11.7062805564">
		<tag k="name" v="Beretvika" />
		<tag k="natural" v="bay" />
		<tag k="ssr:stedsnr" v="15279" />
	</node>
	<node id="-919445" lat="64.6346972266" lon="11.2872611097">
		<tag k="name" v="Haugabekken" />
		<tag k="ssr:stedsnr" v="957962" />
		<tag k="waterway" v="stream" />
	</node>
	<node id="-919436" lat="64.6792111149" lon="11.8518611081">
		<tag k="name" v="Storfossen" />
		<tag k="natural" v="waterfall" />
		<tag k="ssr:stedsnr" v="353063" />
	</node>
	<node id="-919434" lat="64.7320972249" lon="11.8756861199">
		<tag k="name" v="Storøyodden" />
		<tag k="natural" v="cape" />
		<tag k="ssr:stedsnr" v="657010" />
	</node>
	<node id="-919431" lat="64.7238305557" lon="11.9444500011">
		<tag k="name" v="Bjørndalselva" />
		<tag k="ssr:stedsnr" v="925222" />
		<tag k="waterway" v="stream" />
	</node>
	<node id="-919429" lat="64.6774527806" lon="11.3225444347">
		<tag k="name" v="Kvennhusbekken" />
		<tag k="ssr:stedsnr" v="714961" />
		<tag k="waterway" v="stream" />
	</node>
	<node id="-919426" lat="64.7386452031" lon="11.9494004214">
		<tag k="name" v="Auntjønna" />
		<tag k="natural" v="water" />
		<tag k="ssr:stedsnr" v="925223" />
	</node>
	<node id="-921232" lat="64.6498027817" lon="11.5845138819">
		<tag k="name" v="Sørelva" />
		<tag k="ssr:stedsnr" v="560318" />
		<tag k="waterway" v="stream" />
	</node>
	<node id="-921227" lat="64.7542500033" lon="12.0975666683">
		<tag k="name" v="Fangnesbekken" />
		<tag k="ssr:stedsnr" v="500894" />
		<tag k="waterway" v="stream" />
	</node>
	<node id="-921226" lat="64.6676027785" lon="11.593358331">
		<tag k="name" v="Ner Demmingsvatnet" />
		<tag k="natural" v="water" />
		<tag k="ssr:stedsnr" v="838763" />
	</node>
	<node id="-921225" lat="64.6193055564" lon="11.4829333382">
		<tag k="name" v="Oluftomta" />
		<tag k="natural" v="cape" />
		<tag k="ssr:stedsnr" v="350685" />
	</node>
	<node id="-921218" lat="64.7535666633" lon="11.9177361189">
		<tag k="name" v="Kovafjorden" />
		<tag k="natural" v="strait" />
		<tag k="ssr:stedsnr" v="499810" />
	</node>
	<node id="-921216" lat="64.6641000043" lon="11.906574998">
		<tag k="alt_name" v="Soksvatna" />
		<tag k="name" v="Saksvatna" />
		<tag k="natural" v="water" />
		<tag k="ssr:stedsnr" v="196813" />
		<tag k="water" v="lake" />
	</node>
	<node id="-921213" lat="64.6808638915" lon="11.8205861136">
		<tag k="name" v="Storhøla" />
		<tag k="place" v="locality" />
		<tag k="ssr:stedsnr" v="353027" />
	</node>
	<node id="-921206" lat="64.7123083354" lon="11.5136888835">
		<tag k="name" v="Draughalsen" />
		<tag k="natural" v="cape" />
		<tag k="ssr:stedsnr" v="292354" />
	</node>
	<node id="-921197" lat="64.7533527788" lon="11.9552305474">
		<tag k="name" v="Survikern" />
		<tag k="natural" v="bay" />
		<tag k="ssr:stedsnr" v="500901" />
	</node>
	<node id="-921195" lat="64.7229333343" lon="11.6999999973">
		<tag k="name" v="Langneset" />
		<tag k="natural" v="cape" />
		<tag k="ssr:stedsnr" v="500363" />
	</node>
	<node id="-921194" lat="64.5974027777" lon="11.405361104">
		<tag k="name" v="Stordalvatnet" />
		<tag k="natural" v="water" />
		<tag k="ssr:stedsnr" v="318517" />
	</node>
	<node id="-921191" lat="64.7550000027" lon="11.9286777782">
		<tag k="name" v="Sandvikodden" />
		<tag k="natural" v="cape" />
		<tag k="ssr:stedsnr" v="500900" />
	</node>
	<node id="-921186" lat="64.6475416709" lon="11.6972555485">
		<tag k="name" v="Haukvatnet" />
		<tag k="natural" v="water" />
		<tag k="ssr:stedsnr" v="925449" />
	</node>
	<node id="-921175" lat="64.7836999995" lon="12.0230416674">
		<tag k="name" v="Svanatjønnbekken" />
		<tag k="ssr:stedsnr" v="197892" />
		<tag k="waterway" v="stream" />
	</node>
	<node id="-921172" lat="64.6878722177" lon="11.5482666733">
		<tag k="name" v="Steintjønna" />
		<tag k="natural" v="water" />
		<tag k="ssr:stedsnr" v="293489" />
	</node>
	<node id="-921160" lat="64.598050002" lon="11.3951555461">
		<tag k="name" v="Prestvatnet" />
		<tag k="natural" v="water" />
		<tag k="ssr:stedsnr" v="682551" />
	</node>
	<node id="-921155" lat="64.6770250044" lon="11.8354027756">
		<tag k="name" v="Sakselva" />
		<tag k="ssr:stedsnr" v="136821" />
		<tag k="waterway" v="river" />
	</node>
	<node id="-921153" lat="64.6635166629" lon="11.2757749981">
		<tag k="name" v="Dunavatnet" />
		<tag k="natural" v="water" />
		<tag k="ssr:stedsnr" v="864335" />
	</node>
	<node id="-921152" lat="64.7451166708" lon="11.9327333285">
		<tag k="name" v="Forronessbukta" />
		<tag k="natural" v="bay" />
		<tag k="ssr:stedsnr" v="353022" />
	</node>
	<node id="-921149" lat="64.7209500044" lon="11.6506500072">
		<tag k="name" v="Hommelvikskjæret" />
		<tag k="place" v="islet" />
		<tag k="ssr:stedsnr" v="197337" />
	</node>
	<node id="-921134" lat="64.6392250027" lon="11.467625004">
		<tag k="name" v="Storvatnet" />
		<tag k="natural" v="water" />
		<tag k="ssr:stedsnr" v="257484" />
		<tag k="water" v="lake" />
	</node>
	<node id="-921128" lat="64.7543777768" lon="11.8703000056">
		<tag k="name" v="Bolvikbekken" />
		<tag k="ssr:stedsnr" v="864857" />
		<tag k="waterway" v="stream" />
	</node>
	<node id="-921120" lat="64.7005555581" lon="11.6196999912">
		<tag k="alt_name" v="Korsbekktjønna" />
		<tag k="name" v="Korsbekkvatnet" />
		<tag k="natural" v="water" />
		<tag k="ssr:stedsnr" v="440313" />
	</node>
	<node id="-921114" lat="64.7002583364" lon="11.7646527805">
		<tag k="alt_name" v="Sokstjønna" />
		<tag k="name" v="Sakstjønna" />
		<tag k="natural" v="water" />
		<tag k="ssr:stedsnr" v="257207" />
		<tag k="water" v="lake" />
	</node>
	<node id="-921112" lat="64.7315472231" lon="11.5672805651">
		<tag k="name" v="Kvernvikvatnet" />
		<tag k="natural" v="water" />
		<tag k="ssr:stedsnr" v="500337" />
		<tag k="water" v="lake" />
	</node>
	<node id="-921108" lat="64.69913889" lon="11.6891055575">
		<tag k="name" v="Hjelplausvika" />
		<tag k="natural" v="bay" />
		<tag k="ssr:stedsnr" v="804308" />
	</node>
	<node id="-921100" lat="64.7227249965" lon="11.7944250019">
		<tag k="alt_name" v="Bjørnavika" />
		<tag k="name" v="Bjønnavika" />
		<tag k="natural" v="bay" />
		<tag k="ssr:stedsnr" v="682241" />
	</node>
	<node id="-921096" lat="64.6672305564" lon="11.7309250097">
		<tag k="name" v="Hendelva" />
		<tag k="ssr:stedsnr" v="560836" />
		<tag k="waterway" v="stream" />
	</node>
	<node id="-921093" lat="64.6095194433" lon="11.4151749922">
		<tag k="name" v="Roparbekken" />
		<tag k="ssr:stedsnr" v="803490" />
		<tag k="waterway" v="stream" />
	</node>
	<node id="-921081" lat="64.7191749981" lon="11.8905249899">
		<tag k="name" v="Helsåtjønna" />
		<tag k="natural" v="water" />
		<tag k="ssr:stedsnr" v="682239" />
	</node>
	<node id="-921075" lat="64.7045361115" lon="11.5443388846">
		<tag k="alt_name" v="Døranesset" />
		<tag k="name" v="Døraneset" />
		<tag k="natural" v="cape" />
		<tag k="ssr:stedsnr" v="743283" />
	</node>
	<node id="-921074" lat="64.775755558" lon="12.0673666584">
		<tag k="alt_name" v="Kvernvasselva" />
		<tag k="name" v="Kvennvasselva" />
		<tag k="ssr:stedsnr" v="924887" />
		<tag k="waterway" v="stream" />
	</node>
	<node id="-921071" lat="64.7177916679" lon="11.5851444457">
		<tag k="name" v="Langstranda" />
		<tag k="natural" v="beach" />
		<tag k="ssr:stedsnr" v="75260" />
	</node>
	<node id="-921068" lat="64.7158138862" lon="11.5479805643">
		<tag k="name" v="Gangvika" />
		<tag k="natural" v="bay" />
		<tag k="ssr:stedsnr" v="75261" />
	</node>
	<node id="-921067" lat="64.7420500001" lon="11.8099750085">
		<tag k="name" v="Leisåkelva" />
		<tag k="ssr:stedsnr" v="682253" />
		<tag k="waterway" v="stream" />
	</node>
	<node id="-921064" lat="64.7058388903" lon="11.6566500031">
		<tag k="alt_name" v="Kjerringnessvika" />
		<tag k="name" v="Kjerringnesvika" />
		<tag k="natural" v="bay" />
		<tag k="ssr:stedsnr" v="439243" />
	</node>
	<node id="-921063" lat="64.7388527736" lon="11.7905499928">
		<tag k="name" v="Storvika" />
		<tag k="natural" v="bay" />
		<tag k="ssr:stedsnr" v="682254" />
	</node>
	<node id="-921061" lat="64.6947722184" lon="11.4393583415">
		<tag k="name" v="Storhølen" />
		<tag k="place" v="locality" />
		<tag k="ssr:stedsnr" v="165351" />
	</node>
	<node id="-921054" lat="64.7312916694" lon="11.5825194348">
		<tag k="name" v="Hesthagabekken" />
		<tag k="ssr:stedsnr" v="475508" />
		<tag k="waterway" v="stream" />
	</node>
	<node id="-921053" lat="64.6985694407" lon="11.5715805452">
		<tag k="alt_name" v="Migand" />
		<tag k="name" v="Migan" />
		<tag k="natural" v="bay" />
		<tag k="ssr:stedsnr" v="379277" />
	</node>
	<node id="-921045" lat="64.729616669" lon="11.5737111124">
		<tag k="alt_name" v="Groftavika" />
		<tag k="name" v="Groftvika" />
		<tag k="natural" v="bay" />
		<tag k="ssr:stedsnr" v="500332" />
	</node>
	<node id="-921040" lat="64.7451444451" lon="11.918474996">
		<tag k="name" v="Øverstraumen" />
		<tag k="natural" v="strait" />
		<tag k="ssr:stedsnr" v="353001" />
	</node>
	<node id="-921039" lat="64.6714055588" lon="11.1972000066">
		<tag k="name" v="Stortjønna" />
		<tag k="natural" v="water" />
		<tag k="ssr:stedsnr" v="714879" />
	</node>
	<node id="-921032" lat="64.7344027768" lon="11.5251250024">
		<tag k="name" v="Øset" />
		<tag k="natural" v="bay" />
		<tag k="ssr:stedsnr" v="839514" />
	</node>
	<node id="-921015" lat="64.6421527762" lon="11.4633666578">
		<tag k="name" v="Storvassholman" />
		<tag k="place" v="islet" />
		<tag k="ssr:stedsnr" v="168257" />
	</node>
	<node id="-921012" lat="64.7265083304" lon="11.8750000005">
		<tag k="name" v="Oksvika" />
		<tag k="natural" v="bay" />
		<tag k="ssr:stedsnr" v="15212" />
	</node>
	<node id="-921011" lat="64.734891665" lon="11.8146555629">
		<tag k="name" v="Skogholmen" />
		<tag k="place" v="islet" />
		<tag k="ssr:stedsnr" v="293059" />
	</node>
	<node id="-921009" lat="64.6994611134" lon="11.4343666661">
		<tag k="name" v="Svarttjønna" />
		<tag k="natural" v="water" />
		<tag k="ssr:stedsnr" v="44326" />
	</node>
	<node id="-921008" lat="64.6398027781" lon="11.340369442">
		<tag k="name" v="Seierstadbekken" />
		<tag k="ssr:stedsnr" v="108883" />
		<tag k="waterway" v="stream" />
	</node>
	<node id="-920998" lat="64.7358833364" lon="11.86197778">
		<tag k="name" v="Storøya" />
		<tag k="place" v="island" />
		<tag k="ssr:stedsnr" v="682228" />
	</node>
	<node id="-920997" lat="64.7056250003" lon="11.6650444429">
		<tag k="alt_name" v="Kjerringnesset" />
		<tag k="name" v="Kjerringneset" />
		<tag k="natural" v="cape" />
		<tag k="ssr:stedsnr" v="804293" />
	</node>
	<node id="-920990" lat="64.7422444417" lon="11.9051388877">
		<tag k="name" v="Nerstraumen" />
		<tag k="natural" v="strait" />
		<tag k="ssr:stedsnr" v="535002" />
	</node>
	<node id="-920985" lat="64.6403444466" lon="11.2716333293">
		<tag k="name" v="Steinselva" />
		<tag k="ssr:stedsnr" v="621454" />
		<tag k="waterway" v="stream" />
	</node>
	<node id="-920984" lat="64.6950861123" lon="11.4419111114">
		<tag k="name" v="Moselva" />
		<tag k="ssr:stedsnr" v="197311" />
		<tag k="waterway" v="river" />
	</node>
	<node id="-920976" lat="64.7658388887" lon="12.0511888863">
		<tag k="name" v="Fossholman" />
		<tag k="place" v="islet" />
		<tag k="ssr:stedsnr" v="475113" />
	</node>
	<node id="-920957" lat="64.6822138871" lon="11.6968222116">
		<tag k="name" v="Lamvikern" />
		<tag k="natural" v="bay" />
		<tag k="ssr:stedsnr" v="718368" />
	</node>
	<node id="-920955" lat="64.7400000012" lon="11.9331750095">
		<tag k="name" v="Tinnaurtjønna" />
		<tag k="natural" v="water" />
		<tag k="ssr:stedsnr" v="136260" />
	</node>
	<node id="-920950" lat="64.717288889" lon="12.0235000059">
		<tag k="name" v="Klenningvatnet" />
		<tag k="natural" v="water" />
		<tag k="ssr:stedsnr" v="318193" />
		<tag k="water" v="lake" />
	</node>
	<node id="-920941" lat="64.7368888889" lon="11.9130083408">
		<tag k="name" v="Kvennhusbekken" />
		<tag k="ssr:stedsnr" v="171011" />
		<tag k="waterway" v="stream" />
	</node>
	<node id="-920940" lat="64.7080999994" lon="11.4898916706">
		<tag k="name" v="Klubbvika" />
		<tag k="natural" v="bay" />
		<tag k="ssr:stedsnr" v="171401" />
	</node>
	<node id="-920933" lat="64.7669055514" lon="12.0333750083">
		<tag k="name" v="Jutulnesset" />
		<tag k="natural" v="cape" />
		<tag k="ssr:stedsnr" v="839104" />
	</node>
	<node id="-920931" lat="64.6343083307" lon="11.4480888909">
		<tag k="name" v="Nordbotnvatnet" />
		<tag k="natural" v="water" />
		<tag k="ssr:stedsnr" v="621464" />
	</node>
	<node id="-920924" lat="64.7243083333" lon="11.720224999">
		<tag k="alt_name" v="Mosavikholmen" />
		<tag k="name" v="Måssavikholmen" />
		<tag k="place" v="islet" />
		<tag k="ssr:stedsnr" v="318198" />
	</node>
	<node id="-920917" lat="64.5761638896" lon="11.4287833308">
		<tag k="name" v="Sandvatnet" />
		<tag k="natural" v="water" />
		<tag k="ssr:stedsnr" v="864027" />
	</node>
	<node id="-920908" lat="64.7124000037" lon="11.5080638934">
		<tag k="name" v="Skutvika" />
		<tag k="natural" v="bay" />
		<tag k="ssr:stedsnr" v="439234" />
	</node>
	<node id="-920901" lat="64.6961555596" lon="11.571219435">
		<tag k="name" v="Migan" />
		<tag k="ssr:stedsnr" v="596445" />
		<tag k="waterway" v="stream" />
	</node>
	<node id="-920900" lat="64.8089111075" lon="12.0575250083">
		<tag k="name" v="Hopen" />
		<tag k="natural" v="strait" />
		<tag k="ssr:stedsnr" v="317903" />
	</node>
	<node id="-920897" lat="64.6051861089" lon="11.4177388973">
		<tag k="name" v="Klubbvatnet" />
		<tag k="natural" v="water" />
		<tag k="ssr:stedsnr" v="803461" />
	</node>
	<node id="-920893" lat="64.717561107" lon="11.5581194363">
		<tag k="name" v="Gravvika" />
		<tag k="natural" v="bay" />
		<tag k="ssr:stedsnr" v="500304" />
	</node>
	<node id="-920892" lat="64.7531444447" lon="11.9286388957">
		<tag k="name" v="Gåsholet" />
		<tag k="natural" v="bay" />
		<tag k="ssr:stedsnr" v="293033" />
	</node>
	<node id="-920884" lat="64.6932083335" lon="11.4656416607">
		<tag k="name" v="Granodden" />
		<tag k="natural" v="cape" />
		<tag k="ssr:stedsnr" v="409292" />
	</node>
	<node id="-920881" lat="64.7017638892" lon="11.4083055653">
		<tag k="name" v="Brødholmhalsen" />
		<tag k="natural" v="strait" />
		<tag k="ssr:stedsnr" v="894355" />
	</node>
	<node id="-920880" lat="64.6958666633" lon="11.4756916748">
		<tag k="name" v="Øyrin" />
		<tag k="place" v="islet" />
		<tag k="ssr:stedsnr" v="409294" />
	</node>
	<node id="-920877" lat="64.6439999958" lon="11.1949444378">
		<tag k="name" v="Leirbekken" />
		<tag k="ssr:stedsnr" v="775173" />
		<tag k="waterway" v="stream" />
	</node>
	<node id="-920876" lat="64.7196750021" lon="11.9148499989">
		<tag k="name" v="Salmarkelva" />
		<tag k="ssr:stedsnr" v="136248" />
		<tag k="waterway" v="stream" />
	</node>
	<node id="-920875" lat="64.6128750026" lon="11.4843416682">
		<tag k="name" v="Skjelhagatjønna" />
		<tag k="natural" v="bay" />
		<tag k="ssr:stedsnr" v="653729" />
	</node>
	<node id="-920860" lat="64.7103472225" lon="11.7180916702">
		<tag k="name" v="Geisnessodden" />
		<tag k="natural" v="cape" />
		<tag k="ssr:stedsnr" v="535346" />
	</node>
	<node id="-920857" lat="64.7276027751" lon="11.8902833232">
		<tag k="name" v="Helsåa" />
		<tag k="ssr:stedsnr" v="136241" />
		<tag k="waterway" v="stream" />
	</node>
	<node id="-920851" lat="64.7037444428" lon="11.7315611051">
		<tag k="name" v="Ytter Bjønnavika" />
		<tag k="natural" v="bay" />
		<tag k="ssr:stedsnr" v="535348" />
	</node>
	<node id="-920848" lat="64.7101361139" lon="11.7415527851">
		<tag k="name" v="Eidelva" />
		<tag k="ssr:stedsnr" v="535350" />
		<tag k="waterway" v="stream" />
	</node>
	<node id="-920844" lat="64.7387249977" lon="11.8897833274">
		<tag k="name" v="Litløysundet" />
		<tag k="natural" v="strait" />
		<tag k="ssr:stedsnr" v="900005" />
	</node>
	<node id="-920839" lat="64.6790361085" lon="11.540475006">
		<tag k="name" v="Øver Råfjellvatna" />
		<tag k="natural" v="water" />
		<tag k="ssr:stedsnr" v="839472" />
	</node>
	<node id="-920833" lat="64.6388027737" lon="11.2255361044">
		<tag k="name" v="Fallet" />
		<tag k="ssr:stedsnr" v="108012" />
		<tag k="waterway" v="rapids" />
	</node>
	<node id="-920832" lat="64.6219222247" lon="11.4331111143">
		<tag k="name" v="Stordalsbekken" />
		<tag k="ssr:stedsnr" v="168622" />
		<tag k="waterway" v="stream" />
	</node>
	<node id="-920826" lat="64.7329138906" lon="11.8636999905">
		<tag k="name" v="Hasselvika" />
		<tag k="natural" v="bay" />
		<tag k="ssr:stedsnr" v="318180" />
	</node>
	<node id="-920821" lat="64.698802777" lon="11.5043444356">
		<tag k="name" v="Sekkvikskjæret" />
		<tag k="place" v="islet" />
		<tag k="ssr:stedsnr" v="171369" />
	</node>
	<node id="-920820" lat="64.7174499958" lon="11.753449993">
		<tag k="name" v="Bjørkåsbukta" />
		<tag k="natural" v="bay" />
		<tag k="ssr:stedsnr" v="743243" />
	</node>
	<node id="-920817" lat="64.7023222185" lon="11.7711138848">
		<tag k="name" v="Øyvikern" />
		<tag k="natural" v="bay" />
		<tag k="ssr:stedsnr" v="535355" />
	</node>
	<node id="-920808" lat="64.6699166663" lon="11.2163138802">
		<tag k="name" v="Brakstadbekken" />
		<tag k="ssr:stedsnr" v="350166" />
		<tag k="waterway" v="stream" />
	</node>
	<node id="-920806" lat="64.8065166668" lon="12.135350006">
		<tag k="name" v="Mevassvika" />
		<tag k="natural" v="bay" />
		<tag k="ssr:stedsnr" v="14907" />
	</node>
	<node id="-920794" lat="64.7320638885" lon="11.5775500005">
		<tag k="name" v="Sørvika" />
		<tag k="natural" v="bay" />
		<tag k="ssr:stedsnr" v="536495" />
	</node>
	<node id="-920790" lat="64.697427778" lon="11.7667972229">
		<tag k="name" v="Stakkvika" />
		<tag k="natural" v="bay" />
		<tag k="ssr:stedsnr" v="293401" />
	</node>
	<node id="-920786" lat="64.7126611146" lon="11.7966222244">
		<tag k="alt_name" v="Kvernvatnet" />
		<tag k="name" v="Kvennvatnet" />
		<tag k="natural" v="water" />
		<tag k="ssr:stedsnr" v="318165" />
	</node>
	<node id="-920779" lat="64.6464277784" lon="11.5768638866">
		<tag k="name" v="Sørvatnet" />
		<tag k="natural" v="water" />
		<tag k="ssr:stedsnr" v="15463" />
	</node>
	<node id="-920777" lat="64.701758337" lon="11.6226499977">
		<tag k="name" v="Korsbekken" />
		<tag k="ssr:stedsnr" v="560252" />
		<tag k="waterway" v="stream" />
	</node>
	<node id="-920776" lat="64.6772805575" lon="11.5425361098">
		<tag k="name" v="Råfjellvatna" />
		<tag k="natural" v="water" />
		<tag k="ssr:stedsnr" v="257423" />
		<tag k="water" v="lake" />
	</node>
	<node id="-920774" lat="64.6821277762" lon="11.6103305564">
		<tag k="name" v="Nedre Fossbekkvatnet" />
		<tag k="natural" v="water" />
		<tag k="ssr:stedsnr" v="257424" />
	</node>
	<node id="-920770" lat="64.6096166645" lon="11.4897250029">
		<tag k="name" v="Skjelhaggaholmen" />
		<tag k="place" v="islet" />
		<tag k="ssr:stedsnr" v="500572" />
	</node>
	<node id="-920769" lat="64.7132999983" lon="11.5269388941">
		<tag k="alt_name" v="Korsavika" />
		<tag k="name" v="Korsvika" />
		<tag k="natural" v="bay" />
		<tag k="ssr:stedsnr" v="560254" />
	</node>
	<node id="-920762" lat="64.7332333347" lon="11.8875305657">
		<tag k="name" v="Storvika" />
		<tag k="natural" v="bay" />
		<tag k="ssr:stedsnr" v="293011" />
	</node>
	<node id="-920758" lat="64.7427527754" lon="12.0868555557">
		<tag k="name" v="Skrøyvdalselva" />
		<tag k="ssr:stedsnr" v="439187" />
		<tag k="waterway" v="river" />
	</node>
	<node id="-920754" lat="64.6519722187" lon="11.8008361185">
		<tag k="name" v="Øver Storengvatnet" />
		<tag k="natural" v="water" />
		<tag k="ssr:stedsnr" v="169410" />
		<tag k="water" v="lake" />
	</node>
	<node id="-920753" lat="64.6332361123" lon="11.508586101">
		<tag k="alt_name" v="Sandåtjønna" />
		<tag k="name" v="Sandåvatnet" />
		<tag k="natural" v="water" />
		<tag k="ssr:stedsnr" v="682481" />
	</node>
	<node id="-920752" lat="64.7188333336" lon="11.5327833277">
		<tag k="name" v="Lomtjønna" />
		<tag k="natural" v="water" />
		<tag k="ssr:stedsnr" v="414072" />
	</node>
	<node id="-920751" lat="64.7383166648" lon="11.8719611121">
		<tag k="name" v="Storøygrunnen" />
		<tag k="natural" v="shoal" />
		<tag k="place" v="locality" />
		<tag k="ssr:stedsnr" v="596013" />
	</node>
	<node id="-920750" lat="64.6772944485" lon="11.4782555487">
		<tag k="name" v="Sagelva" />
		<tag k="ssr:stedsnr" v="439186" />
		<tag k="waterway" v="river" />
	</node>
	<node id="-920730" lat="64.7056944433" lon="11.6189999927">
		<tag k="alt_name" v="Digernesset" />
		<tag k="name" v="Digerneset" />
		<tag k="natural" v="cape" />
		<tag k="ssr:stedsnr" v="197277" />
	</node>
	<node id="-920729" lat="64.6892749961" lon="11.4702055532">
		<tag k="name" v="Markalebukta" />
		<tag k="natural" v="bay" />
		<tag k="ssr:stedsnr" v="106283" />
	</node>
	<node id="-920726" lat="64.7131500005" lon="11.7295805576">
		<tag k="alt_name" v="Eidholmen" />
		<tag k="name" v="Eidaholmen" />
		<tag k="place" v="islet" />
		<tag k="ssr:stedsnr" v="318164" />
	</node>
	<node id="-920697" lat="64.6639055523" lon="11.3227249931">
		<tag k="name" v="Øver Moldvikvatnet" />
		<tag k="natural" v="water" />
		<tag k="ssr:stedsnr" v="229902" />
	</node>
	<node id="-920681" lat="64.6695305583" lon="11.3976277694">
		<tag k="name" v="Langvatnet" />
		<tag k="natural" v="water" />
		<tag k="ssr:stedsnr" v="653267" />
	</node>
	<node id="-920676" lat="64.7459305584" lon="11.9177305617">
		<tag k="name" v="Øver Tverrlandet" />
		<tag k="natural" v="cape" />
		<tag k="ssr:stedsnr" v="596004" />
	</node>
	<node id="-920674" lat="64.6922361139" lon="12.0697694409">
		<tag k="name" v="Fosskalltjønna" />
		<tag k="natural" v="water" />
		<tag k="ssr:stedsnr" v="804237" />
	</node>
	<node id="-920671" lat="64.7571138853" lon="11.9945138965">
		<tag k="name" v="Skjæra" />
		<tag k="place" v="islet" />
		<tag k="ssr:stedsnr" v="960091" />
	</node>
	<node id="-920669" lat="64.6929999972" lon="11.4856916569">
		<tag k="name" v="Vikaskjæret" />
		<tag k="place" v="islet" />
		<tag k="ssr:stedsnr" v="712247" />
	</node>
	<node id="-920667" lat="64.6659722184" lon="11.6240222124">
		<tag k="name" v="Aurebekken" />
		<tag k="ssr:stedsnr" v="959706" />
		<tag k="waterway" v="stream" />
	</node>
	<node id="-920666" lat="64.7425333361" lon="11.867163899">
		<tag k="name" v="Nordvika" />
		<tag k="natural" v="bay" />
		<tag k="ssr:stedsnr" v="839011" />
	</node>
	<node id="-920665" lat="64.6939500006" lon="11.9785250084">
		<tag k="name" v="Lundvatna" />
		<tag k="natural" v="water" />
		<tag k="ssr:stedsnr" v="440243" />
		<tag k="water" v="lake" />
	</node>
	<node id="-920664" lat="64.7359527769" lon="11.555213892">
		<tag k="name" v="Langnesodden" />
		<tag k="natural" v="cape" />
		<tag k="ssr:stedsnr" v="439181" />
	</node>
	<node id="-920663" lat="64.761552781" lon="12.0218305459">
		<tag k="name" v="Holmen" />
		<tag k="natural" v="cape" />
		<tag k="ssr:stedsnr" v="414066" />
	</node>
	<node id="-920661" lat="64.6993916627" lon="11.7576694415">
		<tag k="name" v="Leirvika" />
		<tag k="natural" v="bay" />
		<tag k="ssr:stedsnr" v="171330" />
	</node>
	<node id="-920655" lat="64.7424805534" lon="11.9371083265">
		<tag k="name" v="Forronessbekken" />
		<tag k="ssr:stedsnr" v="475039" />
		<tag k="waterway" v="stream" />
	</node>
	<node id="-920654" lat="64.807597222" lon="12.0663944392">
		<tag k="name" v="Hopaodden" />
		<tag k="natural" v="cape" />
		<tag k="ssr:stedsnr" v="257950" />
	</node>
	<node id="-920651" lat="64.7512724566" lon="11.9023699923">
		<tag k="name" v="Kovadøra" />
		<tag k="natural" v="strait" />
		<tag k="ssr:stedsnr" v="596009" />
	</node>
	<node id="-920650" lat="64.6619861152" lon="11.7291944464">
		<tag k="name" v="Fossengfossen" />
		<tag k="natural" v="waterfall" />
		<tag k="ssr:stedsnr" v="716749" />
	</node>
	<node id="-920644" lat="64.6777333357" lon="11.4498472186">
		<tag k="name" v="Setervadet" />
		<tag k="place" v="locality" />
		<tag k="ssr:stedsnr" v="257407" />
	</node>
	<node id="-920642" lat="64.6352499979" lon="11.5424222286">
		<tag k="name" v="Øverdalstjønna" />
		<tag k="natural" v="water" />
		<tag k="ssr:stedsnr" v="48727" />
	</node>
	<node id="-920639" lat="64.6921499961" lon="11.4851444535">
		<tag k="name" v="Vikaodden" />
		<tag k="natural" v="cape" />
		<tag k="ssr:stedsnr" v="106275" />
	</node>
	<node id="-920635" lat="64.7421555551" lon="11.8905194405">
		<tag k="name" v="Litløyhamn" />
		<tag k="natural" v="bay" />
		<tag k="ssr:stedsnr" v="596011" />
	</node>
	<node id="-920634" lat="64.8001861158" lon="12.070838881">
		<tag k="name" v="Hustindvika" />
		<tag k="natural" v="bay" />
		<tag k="ssr:stedsnr" v="257952" />
	</node>
	<node id="-920622" lat="64.6224500031" lon="11.484533343">
		<tag k="name" v="Mastervikvatnet" />
		<tag k="natural" v="water" />
		<tag k="ssr:stedsnr" v="135396" />
	</node>
	<node id="-920620" lat="64.6143166632" lon="11.48304445">
		<tag k="name" v="Påløset" />
		<tag k="natural" v="cape" />
		<tag k="ssr:stedsnr" v="135394" />
	</node>
	<node id="-920618" lat="64.6772499979" lon="11.7042055515">
		<tag k="name" v="Breivikhalsen" />
		<tag k="natural" v="strait" />
		<tag k="ssr:stedsnr" v="171322" />
	</node>
	<node id="-920612" lat="64.7147055535" lon="12.0930250063">
		<tag k="name" v="Sandtjønna" />
		<tag k="natural" v="water" />
		<tag k="ssr:stedsnr" v="804247" />
		<tag k="water" v="lake" />
	</node>
	<node id="-920602" lat="64.7357222202" lon="11.7579222322">
		<tag k="name" v="Måssaviktjønna" />
		<tag k="natural" v="water" />
		<tag k="ssr:stedsnr" v="560227" />
	</node>
	<node id="-920599" lat="64.6836916677" lon="11.6763305568">
		<tag k="alt_name" v="Stårkårnessodden" />
		<tag k="name" v="Storkarnesodden" />
		<tag k="natural" v="cape" />
		<tag k="ssr:stedsnr" v="317334" />
	</node>
	<node id="-920589" lat="64.7353249961" lon="11.8216527829">
		<tag k="name" v="Leisåkholman" />
		<tag k="place" v="islet" />
		<tag k="ssr:stedsnr" v="864241" />
	</node>
	<node id="-920586" lat="64.6711555596" lon="11.694255553">
		<tag k="name" v="Skogodden" />
		<tag k="natural" v="cape" />
		<tag k="ssr:stedsnr" v="925372" />
	</node>
	<node id="-920581" lat="64.6696083339" lon="11.6239416627">
		<tag k="name" v="Ambudalsholmen" />
		<tag k="place" v="islet" />
		<tag k="ssr:stedsnr" v="925373" />
	</node>
	<node id="-920580" lat="64.631336108" lon="11.4763666708">
		<tag k="name" v="Dyrvadholmen" />
		<tag k="place" v="islet" />
		<tag k="ssr:stedsnr" v="621407" />
	</node>
	<node id="-920569" lat="64.7686583312" lon="11.8934055565">
		<tag k="name" v="Godfisktjønnbekken" />
		<tag k="ssr:stedsnr" v="14876" />
		<tag k="waterway" v="stream" />
	</node>
	<node id="-920568" lat="64.6615222253" lon="11.5726694395">
		<tag k="name" v="Øver Demmingsvatnet" />
		<tag k="natural" v="water" />
		<tag k="ssr:stedsnr" v="351739" />
	</node>
	<node id="-920554" lat="64.6573722178" lon="11.2143055588">
		<tag k="name" v="Lunddalsbekken" />
		<tag k="ssr:stedsnr" v="532115" />
		<tag k="waterway" v="stream" />
	</node>
	<node id="-920542" lat="64.6788444405" lon="11.5891083288">
		<tag k="name" v="Øvre Fossbekkvatnet" />
		<tag k="natural" v="water" />
		<tag k="ssr:stedsnr" v="621387" />
	</node>
	<node id="-920541" lat="64.6904083323" lon="11.6486222308">
		<tag k="name" v="Voggvika" />
		<tag k="natural" v="bay" />
		<tag k="ssr:stedsnr" v="536450" />
	</node>
	<node id="-920537" lat="64.7988666647" lon="12.0384777757">
		<tag k="name" v="Finnvika" />
		<tag k="natural" v="bay" />
		<tag k="ssr:stedsnr" v="135922" />
	</node>
	<node id="-920535" lat="64.6914083347" lon="11.5755583358">
		<tag k="alt_name" v="Migandvatnet" />
		<tag k="name" v="Miganvatnet" />
		<tag k="natural" v="water" />
		<tag k="ssr:stedsnr" v="257399" />
	</node>
	<node id="-920529" lat="64.6102287235" lon="11.4948642613">
		<tag k="alt_name" v="Skjerivatnet" />
		<tag k="name" v="Skjærivatnet" />
		<tag k="natural" v="water" />
		<tag k="ssr:stedsnr" v="560494" />
		<tag k="water" v="lake" />
	</node>
	<node id="-920527" lat="64.6596916681" lon="11.2187027729">
		<tag k="name" v="Smibekken" />
		<tag k="ssr:stedsnr" v="350122" />
		<tag k="waterway" v="stream" />
	</node>
	<node id="-920519" lat="64.6011055594" lon="11.4047277687">
		<tag k="name" v="Gardsvatnet" />
		<tag k="natural" v="water" />
		<tag k="ssr:stedsnr" v="500532" />
	</node>
	<node id="-920504" lat="64.6819972236" lon="11.4529305496">
		<tag k="name" v="Gælnsjurdalsbekken" />
		<tag k="ssr:stedsnr" v="833357" />
		<tag k="waterway" v="stream" />
	</node>
	<node id="-920499" lat="64.7176861148" lon="11.7455583265">
		<tag k="name" v="Jøtulhanda" />
		<tag k="natural" v="cape" />
		<tag k="ssr:stedsnr" v="560207" />
	</node>
	<node id="-920498" lat="64.7408249967" lon="11.9010027741">
		<tag k="name" v="Straumavågen" />
		<tag k="natural" v="bay" />
		<tag k="ssr:stedsnr" v="839003" />
	</node>
	<node id="-920493" lat="64.6217888882" lon="11.4778194518">
		<tag k="name" v="Kvilakjosen" />
		<tag k="natural" v="bay" />
		<tag k="ssr:stedsnr" v="290647" />
	</node>
	<node id="-920487" lat="64.7472249961" lon="11.9468555573">
		<tag k="name" v="Kvalstranda" />
		<tag k="natural" v="beach" />
		<tag k="ssr:stedsnr" v="414023" />
	</node>
	<node id="-920482" lat="64.7229750033" lon="11.5165194505">
		<tag k="name" v="Raudsandbekken" />
		<tag k="ssr:stedsnr" v="596367" />
		<tag k="waterway" v="stream" />
	</node>
	<node id="-920459" lat="64.7411277766" lon="11.8856250051">
		<tag k="name" v="Litløya" />
		<tag k="place" v="islet" />
		<tag k="ssr:stedsnr" v="560214" />
	</node>
	<node id="-920454" lat="64.6409027788" lon="11.7050138897">
		<tag k="name" v="Fiskløysa" />
		<tag k="natural" v="water" />
		<tag k="ssr:stedsnr" v="439409" />
	</node>
	<node id="-920447" lat="64.6341000027" lon="11.4667000029">
		<tag k="name" v="Dyrvadodden" />
		<tag k="natural" v="cape" />
		<tag k="ssr:stedsnr" v="593239" />
	</node>
	<node id="-920443" lat="64.6325305528" lon="11.4694638902">
		<tag k="name" v="Storvassøset" />
		<tag k="natural" v="cape" />
		<tag k="ssr:stedsnr" v="135368" />
	</node>
	<node id="-920438" lat="64.7324722199" lon="12.148255557">
		<tag k="name" v="Krokåa" />
		<tag k="ssr:stedsnr" v="500232" />
		<tag k="waterway" v="stream" />
	</node>
	<node id="-920428" lat="64.7385583319" lon="12.1188000036">
		<tag k="name" v="Urdåa" />
		<tag k="ssr:stedsnr" v="500231" />
		<tag k="waterway" v="stream" />
	</node>
	<node id="-920427" lat="64.6710194462" lon="11.4293666634">
		<tag k="name" v="Skardengbekken" />
		<tag k="ssr:stedsnr" v="621372" />
		<tag k="waterway" v="stream" />
	</node>
	<node id="-920425" lat="64.5999888929" lon="11.4242194399">
		<tag k="alt_name" v="Gårdsvatnet" />
		<tag k="name" v="Gardsvatnet" />
		<tag k="natural" v="water" />
		<tag k="ssr:stedsnr" v="560202" />
	</node>
	<node id="-920416" lat="64.6406472189" lon="11.3028361058">
		<tag k="name" v="Seterbekken" />
		<tag k="ssr:stedsnr" v="439413" />
		<tag k="waterway" v="stream" />
	</node>
	<node id="-920412" lat="64.6325972185" lon="11.4655305472">
		<tag k="name" v="Storvasskjosen" />
		<tag k="natural" v="bay" />
		<tag k="ssr:stedsnr" v="593652" />
	</node>
	<node id="-920409" lat="64.7663055586" lon="12.0302916667">
		<tag k="name" v="Skrøyvstadelva" />
		<tag k="ssr:stedsnr" v="378913" />
		<tag k="waterway" v="river" />
	</node>
	<node id="-920398" lat="64.7511944464" lon="11.981952771">
		<tag k="name" v="Flakaneset" />
		<tag k="natural" v="cape" />
		<tag k="ssr:stedsnr" v="742872" />
	</node>
	<node id="-920396" lat="64.8295250002" lon="12.1351194488">
		<tag k="name" v="Kvaltjønnin" />
		<tag k="natural" v="water" />
		<tag k="ssr:stedsnr" v="621918" />
	</node>
	<node id="-920394" lat="64.611077775" lon="11.5002555634">
		<tag k="name" v="Rørskjæret" />
		<tag k="place" v="islet" />
		<tag k="ssr:stedsnr" v="957727" />
	</node>
	<node id="-920384" lat="64.696025003" lon="11.7773055615">
		<tag k="name" v="Buvika" />
		<tag k="natural" v="bay" />
		<tag k="ssr:stedsnr" v="596340" />
	</node>
	<node id="-920372" lat="64.6094194411" lon="11.4812777677">
		<tag k="name" v="Skjelhagabekken" />
		<tag k="ssr:stedsnr" v="593636" />
		<tag k="waterway" v="stream" />
	</node>
	<node id="-920363" lat="64.6988666661" lon="11.7006888852">
		<tag k="name" v="Ytter-Gagneta" />
		<tag k="natural" v="bay" />
		<tag k="ssr:stedsnr" v="839364" />
	</node>
	<node id="-920358" lat="64.7474777743" lon="11.8695166662">
		<tag k="name" v="Jetna" />
		<tag k="natural" v="bay" />
		<tag k="ssr:stedsnr" v="414006" />
	</node>
	<node id="-920354" lat="64.8159611148" lon="12.1693583266">
		<tag k="name" v="Middagsbekken" />
		<tag k="ssr:stedsnr" v="621931" />
		<tag k="waterway" v="stream" />
	</node>
	<node id="-920351" lat="64.6743055586" lon="11.5457166612">
		<tag k="name" v="Ner Råfjellvatnet" />
		<tag k="natural" v="water" />
		<tag k="ssr:stedsnr" v="898749" />
	</node>
	<node id="-920349" lat="64.7298777793" lon="11.9279027851">
		<tag k="name" v="Auntjønnbekken" />
		<tag k="ssr:stedsnr" v="560197" />
		<tag k="waterway" v="stream" />
	</node>
	<node id="-920348" lat="64.6832888871" lon="11.6717833345">
		<tag k="alt_name" v="Stårkårnessbukta" />
		<tag k="name" v="Storkarnesbukta" />
		<tag k="natural" v="bay" />
		<tag k="ssr:stedsnr" v="621379" />
	</node>
	<node id="-920342" lat="64.8026249979" lon="12.036772214">
		<tag k="name" v="Brannodden" />
		<tag k="natural" v="cape" />
		<tag k="ssr:stedsnr" v="111065" />
	</node>
	<node id="-920330" lat="64.6436361137" lon="11.5036833399">
		<tag k="name" v="Langvatnet" />
		<tag k="natural" v="water" />
		<tag k="ssr:stedsnr" v="500493" />
	</node>
	<node id="-920324" lat="64.6520499973" lon="11.2364138988">
		<tag k="name" v="Sumphola" />
		<tag k="natural" v="water" />
		<tag k="ssr:stedsnr" v="107041" />
		<tag k="water" v="pond" />
	</node>
	<node id="-920319" lat="64.6953638894" lon="11.5094055562">
		<tag k="name" v="Sekkvika" />
		<tag k="natural" v="bay" />
		<tag k="ssr:stedsnr" v="925318" />
	</node>
	<node id="-920317" lat="64.6781055512" lon="11.6111361109">
		<tag k="name" v="Fossbekken" />
		<tag k="ssr:stedsnr" v="803379" />
		<tag k="waterway" v="stream" />
	</node>
	<node id="-920300" lat="64.6514027802" lon="11.4571444458">
		<tag k="name" v="Halsen" />
		<tag k="natural" v="strait" />
		<tag k="ssr:stedsnr" v="378334" />
	</node>
	<node id="-920297" lat="64.7017666652" lon="11.814200004">
		<tag k="name" v="Seterbekken" />
		<tag k="ssr:stedsnr" v="111049" />
		<tag k="waterway" v="stream" />
	</node>
	<node id="-920296" lat="64.6179250007" lon="11.5015055635">
		<tag k="alt_name" v="Sandåelva" />
		<tag k="name" v="Sandaelva" />
		<tag k="ssr:stedsnr" v="75421" />
		<tag k="waterway" v="stream" />
	</node>
	<node id="-920294" lat="64.6644333298" lon="11.5559000028">
		<tag k="name" v="Støvelvatnet" />
		<tag k="natural" v="water" />
		<tag k="ssr:stedsnr" v="621356" />
	</node>
	<node id="-920293" lat="64.631466671" lon="11.4746388821">
		<tag k="name" v="Dyrvadet" />
		<tag k="natural" v="strait" />
		<tag k="ssr:stedsnr" v="714684" />
	</node>
	<node id="-920292" lat="64.6868944402" lon="11.6526749974">
		<tag k="name" v="Langstrupen" />
		<tag k="natural" v="strait" />
		<tag k="ssr:stedsnr" v="742329" />
	</node>
	<node id="-920290" lat="64.7069500027" lon="11.9274749913">
		<tag k="alt_name" v="Klenningsbekken" />
		<tag k="name" v="Klenningelva" />
		<tag k="ssr:stedsnr" v="500216" />
		<tag k="waterway" v="stream" />
	</node>
	<node id="-920288" lat="64.7396638857" lon="11.7711972173">
		<tag k="name" v="Skruvvelvikbekken" />
		<tag k="ssr:stedsnr" v="718200" />
		<tag k="waterway" v="stream" />
	</node>
	<node id="-920286" lat="64.7060222192" lon="11.4573750042">
		<tag k="name" v="Brennhauglandet" />
		<tag k="natural" v="beach" />
		<tag k="ssr:stedsnr" v="414376" />
	</node>
	<node id="-920283" lat="64.655261113" lon="11.4957888852">
		<tag k="name" v="Seiertuvvatnet" />
		<tag k="natural" v="water" />
		<tag k="ssr:stedsnr" v="378331" />
	</node>
	<node id="-920270" lat="64.639383332" lon="11.3022499963">
		<tag k="name" v="Gjessetbekken" />
		<tag k="ssr:stedsnr" v="897954" />
		<tag k="waterway" v="stream" />
	</node>
	<node id="-920268" lat="64.6054111142" lon="11.3072500058">
		<tag k="name" v="Holvikbekken" />
		<tag k="ssr:stedsnr" v="47876" />
		<tag k="waterway" v="stream" />
	</node>
	<node id="-920258" lat="64.6836000031" lon="11.9324277685">
		<tag k="name" v="Lundvasselva" />
		<tag k="ssr:stedsnr" v="76220" />
		<tag k="waterway" v="river" />
	</node>
	<node id="-920256" lat="64.6710111137" lon="11.3147805552">
		<tag k="name" v="Gammelkvernvatnet" />
		<tag k="natural" v="water" />
		<tag k="ssr:stedsnr" v="742340" />
	</node>
	<node id="-920251" lat="64.5949749969" lon="11.4103944381">
		<tag k="name" v="Vestervikvatnet" />
		<tag k="natural" v="water" />
		<tag k="ssr:stedsnr" v="499388" />
	</node>
	<node id="-920250" lat="64.6561999984" lon="11.2081111105">
		<tag k="name" v="Hovselva" />
		<tag k="ssr:stedsnr" v="593206" />
		<tag k="waterway" v="river" />
	</node>
	<node id="-920248" lat="64.6568055599" lon="11.3479583429">
		<tag k="name" v="Frendalbekken" />
		<tag k="ssr:stedsnr" v="350882" />
		<tag k="waterway" v="stream" />
	</node>
	<node id="-920247" lat="64.6373277785" lon="11.4579222242">
		<tag k="name" v="Storslættjønna" />
		<tag k="natural" v="water" />
		<tag k="ssr:stedsnr" v="411258" />
	</node>
	<node id="-920246" lat="64.7756527758" lon="11.9199555464">
		<tag k="name" v="Langvatnet" />
		<tag k="natural" v="water" />
		<tag k="ssr:stedsnr" v="135876" />
		<tag k="water" v="lake" />
	</node>
	<node id="-920237" lat="64.7000361116" lon="11.5272361212">
		<tag k="name" v="Sellivika" />
		<tag k="natural" v="bay" />
		<tag k="ssr:stedsnr" v="925322" />
	</node>
	<node id="-920236" lat="64.664877778" lon="11.3306194353">
		<tag k="name" v="Ner Moldvikvatnet" />
		<tag k="natural" v="water" />
		<tag k="ssr:stedsnr" v="350883" />
	</node>
	<node id="-920234" lat="64.6704749976" lon="11.3919500087">
		<tag k="alt_name" v="Varpvikvatna" />
		<tag k="name" v="Varpvikvatnet" />
		<tag k="natural" v="water" />
		<tag k="ssr:stedsnr" v="742334" />
	</node>
	<node id="-920222" lat="64.6761555554" lon="11.2676944484">
		<tag k="name" v="Fosneselva" />
		<tag k="ssr:stedsnr" v="14288" />
		<tag k="waterway" v="stream" />
	</node>
	<node id="-920201" lat="64.6315916665" lon="11.2707388925">
		<tag k="name" v="Hundbekken" />
		<tag k="ssr:stedsnr" v="350860" />
		<tag k="waterway" v="stream" />
	</node>
	<node id="-920193" lat="64.6500861109" lon="11.8287388981">
		<tag k="name" v="Kjøpmannsnesset" />
		<tag k="natural" v="cape" />
		<tag k="ssr:stedsnr" v="837410" />
	</node>
	<node id="-920182" lat="64.6205388902" lon="11.4803361127">
		<tag k="name" v="Kvilaholmen" />
		<tag k="place" v="islet" />
		<tag k="ssr:stedsnr" v="108697" />
	</node>
	<node id="-920178" lat="64.5883563327" lon="11.420790124">
		<tag k="name" v="Årbuvatnet" />
		<tag k="natural" v="water" />
		<tag k="ssr:stedsnr" v="621051" />
		<tag k="water" v="lake" />
	</node>
	<node id="-920177" lat="64.7519833316" lon="11.8134555474">
		<tag k="name" v="Leisåkvatna" />
		<tag k="natural" v="water" />
		<tag k="ssr:stedsnr" v="317806" />
	</node>
	<node id="-920175" lat="64.7803361068" lon="12.0752333353">
		<tag k="name" v="Tverrbekken" />
		<tag k="ssr:stedsnr" v="682922" />
		<tag k="waterway" v="stream" />
	</node>
	<node id="-920174" lat="64.6394055518" lon="11.3258861167">
		<tag k="name" v="Gjessetbekken" />
		<tag k="ssr:stedsnr" v="350870" />
		<tag k="waterway" v="stream" />
	</node>
	<node id="-920173" lat="64.686408336" lon="11.6914916655">
		<tag k="alt_name" v="Gagnetvika" />
		<tag k="name" v="Inner-Gagneta" />
		<tag k="natural" v="bay" />
		<tag k="ssr:stedsnr" v="135337" />
	</node>
	<node id="-920157" lat="64.763863885" lon="11.9922527675">
		<tag k="name" v="Naustmotjønnin" />
		<tag k="natural" v="water" />
		<tag k="ssr:stedsnr" v="378871" />
	</node>
	<node id="-920143" lat="64.6737388853" lon="11.3317999949">
		<tag k="fixme" v="multiple name tags, choose one and add the other to alt_name" />
		<tag k="name" v="Kvernhusbekken;Moldvikbekken" />
		<tag k="ssr:stedsnr" v="682391" />
		<tag k="waterway" v="stream" />
	</node>
	<node id="-920140" lat="64.6450666678" lon="11.4269638822">
		<tag k="alt_name" v="Kvennvatnet" />
		<tag k="name" v="Kvernvatnet" />
		<tag k="natural" v="water" />
		<tag k="ssr:stedsnr" v="197459" />
	</node>
	<node id="-920137" lat="64.6361638883" lon="11.5063277686">
		<tag k="name" v="Øver-Sandåa" />
		<tag k="ssr:stedsnr" v="957254" />
		<tag k="waterway" v="stream" />
	</node>
	<node id="-920136" lat="64.6208055599" lon="11.4705777832">
		<tag k="name" v="Setervatnet" />
		<tag k="natural" v="water" />
		<tag k="ssr:stedsnr" v="500474" />
	</node>
	<node id="-920120" lat="64.7280527745" lon="11.5930805656">
		<tag k="name" v="Hesthaggatjønna" />
		<tag k="natural" v="water" />
		<tag k="ssr:stedsnr" v="378302" />
	</node>
	<node id="-920108" lat="64.6454888918" lon="11.2776499925">
		<tag k="name" v="Tørrnesset" />
		<tag k="natural" v="cape" />
		<tag k="ssr:stedsnr" v="836989" />
	</node>
	<node id="-920104" lat="64.6613361111" lon="11.2307472209">
		<tag k="name" v="Steindikjet" />
		<tag k="ssr:stedsnr" v="290157" />
		<tag k="waterway" v="drain" />
	</node>
	<node id="-920097" lat="64.6365944411" lon="11.2288416581">
		<tag k="name" v="Elva" />
		<tag k="ssr:stedsnr" v="350005" />
		<tag k="waterway" v="river" />
	</node>
	<node id="-920093" lat="64.6798944445" lon="11.6299111119">
		<tag k="name" v="Petratrappen" />
		<tag k="natural" v="cape" />
		<tag k="ssr:stedsnr" v="657483" />
	</node>
	<node id="-920083" lat="64.7558916628" lon="12.0169027741">
		<tag k="name" v="Storvika" />
		<tag k="natural" v="bay" />
		<tag k="ssr:stedsnr" v="318886" />
	</node>
	<node id="-920072" lat="64.6604305525" lon="11.2375972308">
		<tag k="name" v="Røddølsbekken" />
		<tag k="ssr:stedsnr" v="803334" />
		<tag k="waterway" v="stream" />
	</node>
	<node id="-920070" lat="64.7254777741" lon="11.7141999908">
		<tag k="alt_name" v="Mosevika" />
		<tag k="name" v="Måssavika" />
		<tag k="natural" v="bay" />
		<tag k="ssr:stedsnr" v="621320" />
	</node>
	<node id="-920058" lat="64.7519555575" lon="12.0512694354">
		<tag k="alt_name" v="Hyltengbekken" />
		<tag k="name" v="Hyllengbekken" />
		<tag k="ssr:stedsnr" v="803879" />
		<tag k="waterway" v="stream" />
	</node>
	<node id="-920053" lat="64.7073194443" lon="11.4271277786">
		<tag k="name" v="Leirbekken" />
		<tag k="ssr:stedsnr" v="530343" />
		<tag k="waterway" v="stream" />
	</node>
	<node id="-920050" lat="64.7544694421" lon="11.9822138866">
		<tag k="name" v="Skrøyvstadvatnet" />
		<tag k="natural" v="water" />
		<tag k="ssr:stedsnr" v="621885" />
		<tag k="water" v="lake" />
	</node>
	<node id="-920040" lat="64.6644305518" lon="11.6055250015">
		<tag k="name" v="Ambudalselva" />
		<tag k="ssr:stedsnr" v="742299" />
		<tag k="waterway" v="stream" />
	</node>
	<node id="-920033" lat="64.6674944478" lon="11.2698416582">
		<tag k="name" v="Fosnesvatnet" />
		<tag k="natural" v="water" />
		<tag k="ssr:stedsnr" v="621334" />
	</node>
	<node id="-920023" lat="64.7336055516" lon="11.5428166595">
		<tag k="name" v="Vassvika" />
		<tag k="natural" v="cape" />
		<tag k="ssr:stedsnr" v="378285" />
	</node>
	<node id="-920022" lat="64.8136499968" lon="12.1147833433">
		<tag k="name" v="Mjøsundvatnet" />
		<tag k="natural" v="water" />
		<tag k="ssr:stedsnr" v="743916" />
		<tag k="water" v="lake" />
	</node>
	<node id="-920018" lat="64.6734333296" lon="11.725199993">
		<tag k="alt_name" v="Litlvatnet" />
		<tag k="name" v="Litlevatnet" />
		<tag k="natural" v="water" />
		<tag k="ssr:stedsnr" v="378857" />
	</node>
	<node id="-920017" lat="64.7098027752" lon="11.4744638856">
		<tag k="name" v="Småvassvikern" />
		<tag k="natural" v="bay" />
		<tag k="ssr:stedsnr" v="111384" />
	</node>
	<node id="-920015" lat="64.7240777763" lon="11.5203833346">
		<tag k="name" v="Nordbekken" />
		<tag k="ssr:stedsnr" v="621329" />
		<tag k="waterway" v="stream" />
	</node>
	<node id="-919992" lat="64.6489972191" lon="11.813816662">
		<tag k="name" v="Stornestjønna" />
		<tag k="natural" v="water" />
		<tag k="ssr:stedsnr" v="958421" />
	</node>
	<node id="-919986" lat="64.7434472194" lon="12.1278499973">
		<tag k="name" v="Urdåtjønna" />
		<tag k="natural" v="water" />
		<tag k="ssr:stedsnr" v="925263" />
	</node>
	<node id="-919982" lat="64.6696999991" lon="11.7864749975">
		<tag k="name" v="Skifteshaugtjønna" />
		<tag k="natural" v="water" />
		<tag k="ssr:stedsnr" v="378848" />
	</node>
	<node id="-919979" lat="64.6640777768" lon="11.3954694509">
		<tag k="name" v="Lauvlivatnet" />
		<tag k="natural" v="water" />
		<tag k="ssr:stedsnr" v="682352" />
	</node>
	<node id="-919971" lat="64.6831416699" lon="11.6555555585">
		<tag k="name" v="Hannaneset" />
		<tag k="natural" v="cape" />
		<tag k="ssr:stedsnr" v="864404" />
	</node>
	<node id="-919962" lat="64.676144446" lon="11.6467166614">
		<tag k="name" v="Breivika" />
		<tag k="natural" v="water" />
		<tag k="ssr:stedsnr" v="864405" />
	</node>
	<node id="-919955" lat="64.7621944401" lon="12.0294055518">
		<tag k="name" v="Ånelonet" />
		<tag k="natural" v="water" />
		<tag k="ssr:stedsnr" v="232060" />
		<tag k="water" v="lake" />
	</node>
	<node id="-919950" lat="64.7235972204" lon="11.6844583247">
		<tag k="name" v="Avløyftbekken" />
		<tag k="ssr:stedsnr" v="15335" />
		<tag k="waterway" v="stream" />
	</node>
	<node id="-919944" lat="64.7074444431" lon="11.7121972303">
		<tag k="name" v="Rakkarvika" />
		<tag k="natural" v="bay" />
		<tag k="ssr:stedsnr" v="960327" />
	</node>
	<node id="-919940" lat="64.6927555598" lon="11.4932416644">
		<tag k="name" v="Småvikern" />
		<tag k="natural" v="bay" />
		<tag k="ssr:stedsnr" v="378273" />
	</node>
	<node id="-919939" lat="64.6525250007" lon="11.8199250102">
		<tag k="name" v="Storneset" />
		<tag k="natural" v="cape" />
		<tag k="ssr:stedsnr" v="621854" />
	</node>
	<node id="-919935" lat="64.7367083333" lon="11.7767000033">
		<tag k="alt_name" v="Skravelvika" />
		<tag k="name" v="Skrovelvika" />
		<tag k="natural" v="bay" />
		<tag k="ssr:stedsnr" v="925261" />
	</node>
	<node id="-919927" lat="64.7815166686" lon="12.1105472248">
		<tag k="name" v="Kvenntjønnin" />
		<tag k="natural" v="water" />
		<tag k="ssr:stedsnr" v="50112" />
	</node>
	<node id="-919922" lat="64.7620999994" lon="12.0245166627">
		<tag k="name" v="Øykvika" />
		<tag k="natural" v="bay" />
		<tag k="ssr:stedsnr" v="682889" />
	</node>
	<node id="-919919" lat="64.6943499986" lon="11.441611118">
		<tag k="name" v="Oldernesset" />
		<tag k="natural" v="cape" />
		<tag k="ssr:stedsnr" v="893338" />
	</node>
	<node id="-919916" lat="64.7235805524" lon="11.6235861144">
		<tag k="name" v="Valdskiftbekken" />
		<tag k="ssr:stedsnr" v="15331" />
		<tag k="waterway" v="stream" />
	</node>
	<node id="-919913" lat="64.7757611091" lon="11.9084333316">
		<tag k="name" v="Skiftesåa" />
		<tag k="ssr:stedsnr" v="474096" />
		<tag k="waterway" v="stream" />
	</node>
	<node id="-919911" lat="64.6563194406" lon="11.224894437">
		<tag k="name" v="Kanalen" />
		<tag k="ssr:stedsnr" v="803331" />
		<tag k="waterway" v="stream" />
	</node>
	<node id="-919908" lat="64.7516944419" lon="11.8133388898">
		<tag k="name" v="Hansholtjønna" />
		<tag k="natural" v="water" />
		<tag k="ssr:stedsnr" v="171178" />
	</node>
	<node id="-919906" lat="64.6667583358" lon="11.6817055529">
		<tag k="name" v="Heivika" />
		<tag k="natural" v="bay" />
		<tag k="ssr:stedsnr" v="682360" />
	</node>
	<node id="-919901" lat="64.7313138934" lon="11.5603638793">
		<tag k="name" v="Digermulen" />
		<tag k="natural" v="cape" />
		<tag k="ssr:stedsnr" v="621314" />
	</node>
	<node id="-919898" lat="64.7006361073" lon="11.5828361119">
		<tag k="alt_name" v="Mossanesset" />
		<tag k="name" v="Moaneset" />
		<tag k="natural" v="cape" />
		<tag k="ssr:stedsnr" v="257307" />
	</node>
	<node id="-919896" lat="64.6623222211" lon="11.4551027771">
		<tag k="name" v="Mevassodden" />
		<tag k="natural" v="cape" />
		<tag k="ssr:stedsnr" v="45301" />
	</node>
	<node id="-919871" lat="64.6066833341" lon="11.3905722172">
		<tag k="name" v="Storelva" />
		<tag k="ssr:stedsnr" v="897466" />
		<tag k="waterway" v="river" />
	</node>
	<node id="-919870" lat="64.659249999" lon="11.4575638815">
		<tag k="name" v="Urdsvatnet" />
		<tag k="natural" v="water" />
		<tag k="ssr:stedsnr" v="743373" />
		<tag k="water" v="lake" />
	</node>
	<node id="-919860" lat="64.6694277788" lon="11.771975">
		<tag k="name" v="Klakktjønna" />
		<tag k="natural" v="water" />
		<tag k="ssr:stedsnr" v="317765" />
	</node>
	<node id="-919853" lat="64.6640750011" lon="11.3229444447">
		<tag k="name" v="Moldvikvatna" />
		<tag k="natural" v="water" />
		<tag k="ssr:stedsnr" v="682354" />
	</node>
	<node id="-919852" lat="64.6315222216" lon="11.2278916727">
		<tag k="name" v="Lomtjønna" />
		<tag k="natural" v="water" />
		<tag k="ssr:stedsnr" v="653084" />
		<tag k="water" v="pond" />
	</node>
	<node id="-919851" lat="64.7826611106" lon="12.1373805486">
		<tag k="alt_name" v="Kvernvatnet" />
		<tag k="name" v="Kvennvatnet" />
		<tag k="natural" v="water" />
		<tag k="ssr:stedsnr" v="560915" />
		<tag k="water" v="lake" />
	</node>
	<node id="-919850" lat="64.716941667" lon="11.9036777752">
		<tag k="name" v="Salmarkfossen" />
		<tag k="natural" v="waterfall" />
		<tag k="ssr:stedsnr" v="657050" />
	</node>
	<node id="-919849" lat="64.6468833298" lon="11.8348250053">
		<tag k="name" v="Storengelva" />
		<tag k="ssr:stedsnr" v="682879" />
		<tag k="waterway" v="river" />
	</node>
	<node id="-919846" lat="64.6503249974" lon="11.7241500028">
		<tag k="name" v="Uggsetvatnet" />
		<tag k="natural" v="water" />
		<tag k="ssr:stedsnr" v="439853" />
	</node>
	<node id="-919840" lat="64.6952249961" lon="11.67759999">
		<tag k="name" v="Svartvikern" />
		<tag k="natural" v="bay" />
		<tag k="ssr:stedsnr" v="621284" />
	</node>
	<node id="-919836" lat="64.6511194488" lon="11.8386750085">
		<tag k="name" v="Tjønnabbtjønna" />
		<tag k="natural" v="water" />
		<tag k="ssr:stedsnr" v="682878" />
	</node>
	<node id="-919827" lat="64.6495000026" lon="11.7724499954">
		<tag k="name" v="Storengvatna" />
		<tag k="natural" v="water" />
		<tag k="ssr:stedsnr" v="682877" />
		<tag k="water" v="lake" />
	</node>
	<node id="-919817" lat="64.7663888866" lon="12.06098888">
		<tag k="name" v="Jokvennbekken" />
		<tag k="ssr:stedsnr" v="353131" />
		<tag k="waterway" v="stream" />
	</node>
	<node id="-919816" lat="64.8077083367" lon="12.0843472211">
		<tag k="name" v="Mjøsundet" />
		<tag k="natural" v="strait" />
		<tag k="ssr:stedsnr" v="778092" />
	</node>
	<node id="-919802" lat="64.747174998" lon="11.9346333398">
		<tag k="alt_name" v="Forronessodden" />
		<tag k="name" v="Furunesodden" />
		<tag k="natural" v="cape" />
		<tag k="ssr:stedsnr" v="925253" />
	</node>
	<node id="-919801" lat="64.6688277817" lon="11.2872999977">
		<tag k="name" v="Kjerktjønna" />
		<tag k="natural" v="water" />
		<tag k="ssr:stedsnr" v="532781" />
	</node>
	<node id="-919799" lat="64.6307527818" lon="11.4281138801">
		<tag k="name" v="Hesthauvatnet" />
		<tag k="natural" v="water" />
		<tag k="ssr:stedsnr" v="592686" />
	</node>
	<node id="-919789" lat="64.703341664" lon="11.7638777734">
		<tag k="name" v="Yttervika" />
		<tag k="natural" v="bay" />
		<tag k="ssr:stedsnr" v="960321" />
	</node>
	<node id="-919784" lat="64.765813886" lon="11.9459916755">
		<tag k="name" v="Kovabekken" />
		<tag k="ssr:stedsnr" v="803861" />
		<tag k="waterway" v="river" />
	</node>
	<node id="-919780" lat="64.7448249977" lon="11.776425002">
		<tag k="name" v="Storvikbekken" />
		<tag k="ssr:stedsnr" v="925256" />
		<tag k="waterway" v="stream" />
	</node>
	<node id="-919776" lat="64.6555527792" lon="11.8939749934">
		<tag k="name" v="Sørvatnet" />
		<tag k="natural" v="water" />
		<tag k="ssr:stedsnr" v="621848" />
	</node>
	<node id="-919756" lat="64.7547138878" lon="12.0641916759">
		<tag k="name" v="Strendern" />
		<tag k="natural" v="beach" />
		<tag k="ssr:stedsnr" v="778099" />
	</node>
	<node id="-919754" lat="64.7452805592" lon="11.9106527747">
		<tag k="name" v="Straumatjønna" />
		<tag k="natural" v="water" />
		<tag k="ssr:stedsnr" v="925251" />
	</node>
	<node id="-919751" lat="64.7537555547" lon="12.0145861192">
		<tag k="name" v="Storvikbekken" />
		<tag k="ssr:stedsnr" v="778100" />
		<tag k="waterway" v="stream" />
	</node>
	<node id="-919747" lat="64.6082222268" lon="11.3270555472">
		<tag k="name" v="Skittenvassbekken" />
		<tag k="ssr:stedsnr" v="957593" />
		<tag k="waterway" v="stream" />
	</node>
	<node id="-919737" lat="64.5808388922" lon="11.4399388887">
		<tag k="alt_name" v="Vakkervatna" />
		<tag k="name" v="Vakkervatnet" />
		<tag k="natural" v="water" />
		<tag k="ssr:stedsnr" v="196043" />
	</node>
	<node id="-919735" lat="64.8012055537" lon="12.1128833335">
		<tag k="name" v="Naustvika" />
		<tag k="natural" v="bay" />
		<tag k="ssr:stedsnr" v="500943" />
	</node>
	<node id="-919719" lat="64.6600777815" lon="11.2133083265">
		<tag k="name" v="Kanalen" />
		<tag k="ssr:stedsnr" v="411141" />
		<tag k="waterway" v="drain" />
	</node>
	<node id="-919709" lat="64.6159583342" lon="11.4584722163">
		<tag k="name" v="Demminga" />
		<tag k="natural" v="water" />
		<tag k="ssr:stedsnr" v="229698" />
	</node>
	<node id="-919704" lat="64.7548583377" lon="11.8127305457">
		<tag k="name" v="Litltjønna" />
		<tag k="natural" v="water" />
		<tag k="ssr:stedsnr" v="839205" />
	</node>
	<node id="-919692" lat="64.7432750043" lon="12.0841194364">
		<tag k="name" v="Fangnesset" />
		<tag k="natural" v="cape" />
		<tag k="ssr:stedsnr" v="535108" />
	</node>
	<node id="-919684" lat="64.6630055569" lon="11.8049305545">
		<tag k="name" v="Lomtjønna" />
		<tag k="natural" v="water" />
		<tag k="ssr:stedsnr" v="135804" />
	</node>
	<node id="-919683" lat="64.6736000003" lon="11.7089666595">
		<tag k="name" v="Hendvågen" />
		<tag k="natural" v="bay" />
		<tag k="ssr:stedsnr" v="560360" />
	</node>
	<node id="-919675" lat="64.6435666632" lon="11.1812333378">
		<tag k="name" v="Nordvassbekken" />
		<tag k="ssr:stedsnr" v="470410" />
		<tag k="waterway" v="stream" />
	</node>
	<node id="-919672" lat="64.7599722225" lon="12.0022333253">
		<tag k="name" v="Lamhagan" />
		<tag k="natural" v="cape" />
		<tag k="ssr:stedsnr" v="778082" />
	</node>
	<node id="-919669" lat="64.739175001" lon="11.8940027806">
		<tag k="name" v="Litlvika" />
		<tag k="natural" v="bay" />
		<tag k="ssr:stedsnr" v="232002" />
	</node>
	<node id="-919664" lat="64.7406805514" lon="11.8976166748">
		<tag k="name" v="Lomnessodden" />
		<tag k="natural" v="cape" />
		<tag k="ssr:stedsnr" v="232003" />
	</node>
	<node id="-919652" lat="64.7629055513" lon="12.0189749934">
		<tag k="name" v="Naustmobekken" />
		<tag k="ssr:stedsnr" v="778076" />
		<tag k="waterway" v="stream" />
	</node>
	<node id="-919649" lat="64.7226888902" lon="11.6307361014">
		<tag k="name" v="Ripsbærvika" />
		<tag k="natural" v="bay" />
		<tag k="ssr:stedsnr" v="778458" />
	</node>
	<node id="-919632" lat="64.74623333" lon="11.8622527678">
		<tag k="name" v="Jettenliodden" />
		<tag k="natural" v="cape" />
		<tag k="ssr:stedsnr" v="378221" />
	</node>
	<node id="-919626" lat="64.696899997" lon="11.4860499931">
		<tag k="name" v="Mosholmen" />
		<tag k="place" v="islet" />
		<tag k="ssr:stedsnr" v="682302" />
	</node>
	<node id="-919620" lat="64.7714416632" lon="12.0576638873">
		<tag k="name" v="Rønesset" />
		<tag k="natural" v="cape" />
		<tag k="ssr:stedsnr" v="171100" />
	</node>
	<node id="-919614" lat="64.6681888924" lon="11.4333694369">
		<tag k="name" v="Tronga" />
		<tag k="ssr:stedsnr" v="560347" />
		<tag k="waterway" v="stream" />
	</node>
	<node id="-919605" lat="64.7598944419" lon="11.9740361033">
		<tag k="name" v="Surviktjønna" />
		<tag k="natural" v="water" />
		<tag k="ssr:stedsnr" v="560862" />
	</node>
	<node id="-919603" lat="64.6698055566" lon="11.419475004">
		<tag k="name" v="Olatjønna" />
		<tag k="natural" v="water" />
		<tag k="ssr:stedsnr" v="47303" />
	</node>
	<node id="-919601" lat="64.6655138883" lon="11.6521333307">
		<tag k="name" v="Tømmervika" />
		<tag k="natural" v="bay" />
		<tag k="ssr:stedsnr" v="864342" />
	</node>
	<node id="-919600" lat="64.7299000034" lon="11.7781749954">
		<tag k="alt_name" v="Forronesset" />
		<tag k="name" v="Furuneset" />
		<tag k="natural" v="cape" />
		<tag k="ssr:stedsnr" v="378199" />
	</node>
	<node id="-919589" lat="64.7481333293" lon="11.9726250091">
		<tag k="name" v="Aunbukta" />
		<tag k="natural" v="bay" />
		<tag k="ssr:stedsnr" v="293132" />
	</node>
	<node id="-919588" lat="64.7783611094" lon="12.0812638856">
		<tag k="name" v="Seterfossen" />
		<tag k="natural" v="waterfall" />
		<tag k="ssr:stedsnr" v="171092" />
	</node>
	<node id="-919586" lat="64.8120611148" lon="12.0106277817">
		<tag k="name" v="Nordvika" />
		<tag k="natural" v="bay" />
		<tag k="ssr:stedsnr" v="76915" />
	</node>
	<node id="-919585" lat="64.7415250003" lon="11.8322833414">
		<tag k="alt_name" v="Hevelsnesset" />
		<tag k="name" v="Hevelsnesodden" />
		<tag k="natural" v="cape" />
		<tag k="ssr:stedsnr" v="621233" />
	</node>
	<node id="-919583" lat="64.727180553" lon="11.8056249952">
		<tag k="alt_name" v="Bjørnavikodden" />
		<tag k="name" v="Bjønnavikodden" />
		<tag k="natural" v="cape" />
		<tag k="ssr:stedsnr" v="378198" />
	</node>
	<node id="-919579" lat="64.805827778" lon="12.039705555">
		<tag k="alt_name" v="Storholmen" />
		<tag k="name" v="Storøya" />
		<tag k="place" v="islet" />
		<tag k="ssr:stedsnr" v="76916" />
	</node>
	<node id="-919573" lat="64.7762527751" lon="12.0684361101">
		<tag k="name" v="Skogstufossen" />
		<tag k="natural" v="waterfall" />
		<tag k="ssr:stedsnr" v="171094" />
	</node>
	<node id="-919566" lat="64.7502083361" lon="11.958208335">
		<tag k="name" v="Loddovika" />
		<tag k="natural" v="bay" />
		<tag k="ssr:stedsnr" v="778019" />
	</node>
	<node id="-919562" lat="64.6857722185" lon="11.550358338">
		<tag k="name" v="Dumåltjønna" />
		<tag k="natural" v="water" />
		<tag k="ssr:stedsnr" v="900468" />
	</node>
	<node id="-919561" lat="64.7655916708" lon="11.8971333344">
		<tag k="name" v="Godfisktjønna" />
		<tag k="natural" v="water" />
		<tag k="ssr:stedsnr" v="560866" />
	</node>
</osm>
