<?xml version="1.0" encoding="UTF-8"?>
<osm generator="osmapis" version="0.6">
	<node id="-922368" lat="64.7218861074" lon="11.5693166755">
		<tag k="highway" v="path" />
		<tag k="name" v="Dyrstien" />
		<tag k="ssr:stedsnr" v="475502" />
	</node>
	<node id="-920831" lat="64.7159888893" lon="11.4806333389">
		<tag k="fixme" v="consider highway=path" />
		<tag k="highway" v="track" />
		<tag k="name" v="Seterkløyva" />
		<tag k="ssr:stedsnr" v="474406" />
	</node>
	<node id="-921722" lat="64.6265833379" lon="11.4069722165">
		<tag k="highway" v="path" />
		<tag k="name" v="Gullbergstien" />
		<tag k="ssr:stedsnr" v="593618" />
	</node>
	<node id="-921072" lat="64.6695666699" lon="11.1994722283">
		<tag k="man_made" v="quay" />
		<tag k="name" v="Sørsjøen" />
		<tag k="place" v="locality" />
		<tag k="ssr:stedsnr" v="108176" />
	</node>
	<node id="-921709" lat="64.7660416655" lon="12.0283305648">
		<tag k="highway" v="path" />
		<tag k="name" v="Stigan" />
		<tag k="ssr:stedsnr" v="717062" />
	</node>
	<node id="-921578" lat="64.7512666621" lon="11.9040750079">
		<tag k="barrier" v="toll_booth" />
		<tag k="name" v="Kovadøra" />
		<tag k="ssr:stedsnr" v="317800" />
	</node>
	<node id="-922466" lat="64.6443888926" lon="11.4130916722">
		<tag k="fixme" v="verify maritime location" />
		<tag k="mooring" v="yes" />
		<tag k="name" v="Botnsjøen" />
		<tag k="place" v="locality" />
		<tag k="ssr:stedsnr" v="350231" />
	</node>
	<node id="-922337" lat="64.6050472264" lon="11.2976111014">
		<tag k="fixme" v="verify maritime location" />
		<tag k="mooring" v="yes" />
		<tag k="name" v="Naustvika" />
		<tag k="place" v="locality" />
		<tag k="ssr:stedsnr" v="108874" />
	</node>
	<node id="-921168" lat="64.6675694462" lon="11.2039388902">
		<tag k="fixme" v="verify maritime location" />
		<tag k="mooring" v="yes" />
		<tag k="name" v="Aglstøa" />
		<tag k="place" v="locality" />
		<tag k="ssr:stedsnr" v="836140" />
	</node>
	<node id="-922078" lat="64.637744447" lon="11.3453583242">
		<tag k="amenity" v="ferry_terminal" />
		<tag k="name" v="Seierstad ferjekai" />
		<tag k="ssr:stedsnr" v="703861" />
	</node>
	<node id="-921181" lat="64.640858332" lon="11.3172583252">
		<tag k="fixme" v="consider highway=path" />
		<tag k="highway" v="track" />
		<tag k="name" v="Steinveien" />
		<tag k="ssr:stedsnr" v="411963" />
	</node>
	<node id="-922064" lat="64.6364555583" lon="11.360194435">
		<tag k="amenity" v="ferry_terminal" />
		<tag k="name" v="Ølhammaren ferjekai" />
		<tag k="old_name" v="Ølhammeren ferjekai" />
		<tag k="ssr:stedsnr" v="825840" />
	</node>
	<node id="-920904" lat="64.7225694454" lon="11.8873666639">
		<tag k="highway" v="path" />
		<tag k="name" v="Krøtterveien" />
		<tag k="ssr:stedsnr" v="50010" />
	</node>
	<node id="-921669" lat="64.7235333309" lon="11.5027916677">
		<tag k="highway" v="path" />
		<tag k="name" v="Seterveien" />
		<tag k="ssr:stedsnr" v="656382" />
	</node>
	<node id="-921772" lat="64.6515249973" lon="11.3344638783">
		<tag k="junction" v="yes" />
		<tag k="name" v="Svingen" />
		<tag k="place" v="locality" />
		<tag k="ssr:stedsnr" v="350898" />
	</node>
	<node id="-922150" lat="64.6365000034" lon="11.2535611074">
		<tag k="man_made" v="quay" />
		<tag k="name" v="Faksdalsjøen" />
		<tag k="place" v="locality" />
		<tag k="ssr:stedsnr" v="775981" />
	</node>
	<node id="-922017" lat="64.7627083338" lon="12.05695277">
		<tag k="layer" v="-1" />
		<tag k="name" v="Skrøyvstad" />
		<tag k="ssr:stedsnr" v="287761" />
		<tag k="tunnel" v="yes" />
	</node>
	<node id="-921117" lat="64.7424999991" lon="11.809858336">
		<tag k="ford" v="yes" />
		<tag k="name" v="Vikavadet" />
		<tag k="place" v="locality" />
		<tag k="ssr:stedsnr" v="596208" />
	</node>
	<node id="-922137" lat="64.6235222186" lon="11.2676694422">
		<tag k="fixme" v="verify maritime location" />
		<tag k="mooring" v="yes" />
		<tag k="name" v="Aunasjøen" />
		<tag k="place" v="locality" />
		<tag k="ssr:stedsnr" v="471904" />
	</node>
	<node id="-922515" lat="64.6861083301" lon="11.4445777821">
		<tag k="highway" v="path" />
		<tag k="name" v="Steinveien" />
		<tag k="ssr:stedsnr" v="529348" />
	</node>
	<node id="-921227" lat="64.6454305515" lon="11.3066472124">
		<tag k="highway" v="path" />
		<tag k="name" v="Fjellveien" />
		<tag k="ssr:stedsnr" v="472931" />
	</node>
	<node id="-921607" lat="64.674849999" lon="11.473441669">
		<tag k="name" v="Velta" />
		<tag k="place" v="locality" />
		<tag k="ssr:stedsnr" v="14286" />
	</node>
	<node id="-922244" lat="64.6732805559" lon="11.1969388858">
		<tag k="man_made" v="quay" />
		<tag k="name" v="Nordsjøen" />
		<tag k="place" v="locality" />
		<tag k="ssr:stedsnr" v="47187" />
	</node>
</osm>
