<?xml version="1.0" encoding="UTF-8"?>
<osm version="0.6" generator="osmapis">
	<node lat="61.78970833089163" lon="5.9628805492077745" id="-35427">
		<tag k="name" v="Uranes" />
		<tag k="ssr:date" v="2019-12-27" />
		<tag k="ssr:gruppe" v="navigasjon" />
		<tag k="ssr:hovedgruppe" v="infrastruktur" />
		<tag k="ssr:stedsnr" v="41218" />
		<tag k="ssr:type" v="lanterne" />
	</node>
	<node lat="61.837125091212904" lon="5.995089278596425" id="-35546">
		<tag k="name" v="Eikenes lanterne" />
		<tag k="ssr:date" v="2020-09-01" />
		<tag k="ssr:gruppe" v="navigasjon" />
		<tag k="ssr:hovedgruppe" v="infrastruktur" />
		<tag k="ssr:stedsnr" v="252612" />
		<tag k="ssr:type" v="lanterne" />
	</node>
	<node lat="61.84679166881971" lon="6.0788444459864035" id="-35832">
		<tag k="alt_name" v="Anden" />
		<tag k="name" v="Anden lykt" />
		<tag k="old_name" v="Anda lykt" />
		<tag k="ssr:date" v="2019-12-27" />
		<tag k="ssr:gruppe" v="navigasjon" />
		<tag k="ssr:hovedgruppe" v="infrastruktur" />
		<tag k="ssr:stedsnr" v="277126" />
		<tag k="ssr:type" v="fyrlykt" />
	</node>
	<node lat="61.84481944609982" lon="5.985238892952076" id="-35880">
		<tag k="name" v="Jektehammaren" />
		<tag k="ssr:date" v="2019-12-27" />
		<tag k="ssr:gruppe" v="sjøbunn" />
		<tag k="ssr:hovedgruppe" v="sjø" />
		<tag k="ssr:stedsnr" v="336406" />
		<tag k="ssr:type" v="ryggISjø" />
	</node>
</osm>
