<?xml version="1.0" encoding="UTF-8"?>
<osm generator="osmapis" version="0.6">
	<node id="-522939" lat="61.4579194445" lon="7.52357221898">
		<tag k="alt_name" v="Havhella" />
		<tag k="name" v="Havhella lykt" />
		<tag k="ssr:date" v="2016-05-10" />
		<tag k="ssr:gruppe" v="navigasjon" />
		<tag k="ssr:hovedgruppe" v="infrastruktur" />
		<tag k="ssr:stedsnr" v="419553" />
		<tag k="ssr:type" v="fyrlykt" />
	</node>
	<node id="-522233" lat="61.3788361068" lon="7.36381666886">
		<tag k="alt_name" v="Nes" />
		<tag k="name" v="Nes lykt" />
		<tag k="ssr:date" v="2016-05-10" />
		<tag k="ssr:gruppe" v="navigasjon" />
		<tag k="ssr:hovedgruppe" v="infrastruktur" />
		<tag k="ssr:stedsnr" v="115573" />
		<tag k="ssr:type" v="fyrlykt" />
	</node>
	<node id="-522231" lat="61.2060801162" lon="7.39483379858">
		<tag k="alt_name" v="Kvarvnes" />
		<tag k="name" v="Kvarvnes lykt" />
		<tag k="ssr:date" v="2018-08-01" />
		<tag k="ssr:gruppe" v="navigasjon" />
		<tag k="ssr:hovedgruppe" v="infrastruktur" />
		<tag k="ssr:stedsnr" v="115246" />
		<tag k="ssr:type" v="fyrlykt" />
	</node>
	<node id="-521558" lat="61.3151157892" lon="7.20087707783">
		<tag k="name" v="Buene" />
		<tag k="ssr:date" v="2019-05-31" />
		<tag k="ssr:gruppe" v="veg" />
		<tag k="ssr:hovedgruppe" v="infrastruktur" />
		<tag k="ssr:stedsnr" v="1052516" />
		<tag k="ssr:type" v="adressenavn" />
	</node>
	<node id="-523637" lat="61.6852944478" lon="7.65404444751">
		<tag k="name" v="Breheimen" />
		<tag k="ssr:date" v="2016-05-10" />
		<tag k="ssr:gruppe" v="terrengområder" />
		<tag k="ssr:hovedgruppe" v="terreng" />
		<tag k="ssr:stedsnr" v="572299" />
		<tag k="ssr:type" v="landskapsområde" />
	</node>
	<node id="-522765" lat="61.2651694457" lon="7.3303277807">
		<tag k="alt_name" v="Skophammerneset;Skophammerneset lykt" />
		<tag k="name" v="Skophamarneset lykt" />
		<tag k="ssr:date" v="2016-05-10" />
		<tag k="ssr:gruppe" v="navigasjon" />
		<tag k="ssr:hovedgruppe" v="infrastruktur" />
		<tag k="ssr:stedsnr" v="236527" />
		<tag k="ssr:type" v="fyrlykt" />
	</node>
	<node id="-525196" lat="60.8816104596" lon="6.30047518531">
		<tag k="name" v="Vestlandet" />
		<tag k="ssr:date" v="2019-01-06" />
		<tag k="ssr:gruppe" v="administrativeIndelinger" />
		<tag k="ssr:hovedgruppe" v="offentligAdministrasjon" />
		<tag k="ssr:stedsnr" v="974777" />
		<tag k="ssr:type" v="annenAdministrativInndeling" />
	</node>
	<node id="-524620" lat="61.4031222188" lon="7.29792499432">
		<tag k="name" v="Luster kommune" />
		<tag k="ssr:date" v="2016-05-11" />
		<tag k="ssr:gruppe" v="administrativeIndelinger" />
		<tag k="ssr:hovedgruppe" v="offentligAdministrasjon" />
		<tag k="ssr:stedsnr" v="815265" />
		<tag k="ssr:type" v="kommune" />
	</node>
</osm>
