<?xml version="1.0" encoding="UTF-8"?>
<<<<<<< HEAD
<osm version="0.6" generator="osmapis">
	<node lat="59.231716665959574" lon="11.098947221760545" id="-9088">
		<tag k="name" v="Kurebekken" />
		<tag k="ssr:stedsnr" v="22447" />
		<tag k="waterway" v="stream" />
	</node>
	<node lat="59.28178610661927" lon="10.778552781081641" id="-9101">
		<tag k="name" v="Kallerødbekken" />
		<tag k="ssr:stedsnr" v="45104" />
		<tag k="waterway" v="stream" />
	</node>
	<node lat="59.1863722247569" lon="11.06598333195079" id="-9244">
		<tag k="name" v="Korsebergbekken" />
		<tag k="ssr:stedsnr" v="265456" />
		<tag k="waterway" v="stream" />
	</node>
	<node lat="59.21163333462364" lon="10.969330558496113" id="-9322">
		<tag k="name" v="Nordre dam" />
		<tag k="natural" v="water" />
		<tag k="ssr:stedsnr" v="297511" />
	</node>
	<node lat="59.196336108934425" lon="11.039719445367291" id="-9329">
		<tag k="name" v="Søndre Grimstad bekk" />
		<tag k="ssr:stedsnr" v="299822" />
		<tag k="waterway" v="stream" />
	</node>
	<node lat="59.23990559664978" lon="10.989680150558224" id="-9335">
=======
<osm generator="osmapis" version="0.6">
	<node id="-219903" lat="59.2625583356" lon="10.9301111092">
		<tag k="name" v="Veumbekken" />
		<tag k="ssr:stedsnr" v="724841" />
		<tag k="waterway" v="stream" />
	</node>
	<node id="-219901" lat="59.2147611157" lon="11.0522749951">
		<tag k="name" v="Norsjø" />
		<tag k="natural" v="water" />
		<tag k="ssr:stedsnr" v="724536" />
		<tag k="water" v="pond" />
	</node>
	<node id="-220154" lat="59.2252444475" lon="11.0632583295">
		<tag k="name" v="Opphusbekken" />
		<tag k="ssr:stedsnr" v="933523" />
		<tag k="waterway" v="stream" />
	</node>
	<node id="-220153" lat="59.2277361097" lon="11.054863886">
		<tag k="name" v="Lindalbekken" />
		<tag k="ssr:stedsnr" v="933522" />
		<tag k="waterway" v="stream" />
	</node>
	<node id="-219510" lat="59.2116333346" lon="10.9693305585">
		<tag k="name" v="Nordre dam" />
		<tag k="natural" v="water" />
		<tag k="ssr:stedsnr" v="297511" />
	</node>
	<node id="-220402" lat="59.2645583338" lon="11.0827944366">
		<tag k="name" v="Gretnesbekken" />
		<tag k="ssr:stedsnr" v="143069" />
		<tag k="waterway" v="stream" />
	</node>
	<node id="-220143" lat="59.1967333306" lon="10.9796444426">
		<tag k="name" v="Oldenborgila" />
		<tag k="natural" v="spring" />
		<tag k="ssr:stedsnr" v="904413" />
	</node>
	<node id="-220270" lat="59.1953944481" lon="10.945336103">
		<tag k="name" v="Møllerodden" />
		<tag k="natural" v="cape" />
		<tag k="ssr:stedsnr" v="55393" />
	</node>
	<node id="-220652" lat="59.2207305519" lon="10.8963111101">
		<tag k="name" v="Ålebekken" />
		<tag k="ssr:stedsnr" v="418373" />
		<tag k="waterway" v="stream" />
	</node>
	<node id="-220907" lat="59.1790222267" lon="11.0554805585">
		<tag k="name" v="Ødegårdsbekken" />
		<tag k="ssr:stedsnr" v="750848" />
		<tag k="waterway" v="stream" />
	</node>
	<node id="-220649" lat="59.2639888845" lon="10.7469750085">
		<tag k="name" v="Evja" />
		<tag k="natural" v="bay" />
		<tag k="ssr:stedsnr" v="418258" />
	</node>
	<node id="-219452" lat="59.1863722248" lon="11.065983332">
		<tag k="name" v="Korsebergbekken" />
		<tag k="ssr:stedsnr" v="265456" />
		<tag k="waterway" v="stream" />
	</node>
	<node id="-219750" lat="59.2671103088" lon="11.0265869088">
		<tag k="name" v="Visterflo" />
		<tag k="ssr:stedsnr" v="467911" />
		<tag k="waterway" v="river" />
	</node>
	<node id="-220517" lat="59.1758999968" lon="11.0526500038">
		<tag k="alt_name" v="Trongsmyra" />
		<tag k="name" v="Trangsmyr" />
		<tag k="ssr:stedsnr" v="305686" />
		<tag k="waterway" v="stream" />
	</node>
	<node id="-220767" lat="59.2284416703" lon="10.9131277827">
		<tag k="name" v="Seutelva" />
		<tag k="ssr:stedsnr" v="548489" />
		<tag k="waterway" v="river" />
	</node>
	<node id="-220893" lat="59.2614972196" lon="11.0454722171">
		<tag k="name" v="Moumlandet" />
		<tag k="natural" v="beach" />
		<tag k="ssr:stedsnr" v="648600" />
	</node>
	<node id="-220379" lat="59.188074997" lon="10.9481750008">
		<tag k="name" v="Østerelva" />
		<tag k="ssr:stedsnr" v="122362" />
		<tag k="waterway" v="river" />
	</node>
	<node id="-220505" lat="59.2399055966" lon="10.9896801506">
>>>>>>> e1d4bc35ff8a6074a6f2e91616a996b547c36f15
		<tag k="fixme" v="multiple name tags, choose one and add the other to alt_name" />
		<tag k="name" v="Råbekken;Evjebekken" />
		<tag k="ssr:stedsnr" v="304272" />
		<tag k="waterway" v="stream" />
	</node>
<<<<<<< HEAD
	<node lat="59.190766670638446" lon="10.973872229754296" id="-9366">
		<tag k="name" v="Oldenborgbekken" />
		<tag k="ssr:stedsnr" v="358404" />
		<tag k="waterway" v="stream" />
	</node>
	<node lat="59.22208055696833" lon="11.010411118873867" id="-9376">
		<tag k="name" v="Klokkerfossen" />
		<tag k="natural" v="waterfall" />
		<tag k="ssr:stedsnr" v="359714" />
	</node>
	<node lat="59.24837500354589" lon="10.949525004158335" id="-9392">
		<tag k="name" v="Stordammen" />
		<tag k="natural" v="water" />
		<tag k="ssr:stedsnr" v="366512" />
	</node>
	<node lat="59.20712499771747" lon="10.903438881529661" id="-9405">
=======
	<node id="-220248" lat="59.2161138874" lon="11.0697972234">
		<tag k="name" v="Tverrbekken" />
		<tag k="ssr:stedsnr" v="22866" />
		<tag k="waterway" v="stream" />
	</node>
	<node id="-220886" lat="59.2738944472" lon="10.7274750043">
		<tag k="name" v="Stangerholmen" />
		<tag k="natural" v="cape" />
		<tag k="ssr:stedsnr" v="634902" />
	</node>
	<node id="-219593" lat="59.2071249977" lon="10.9034388815">
>>>>>>> e1d4bc35ff8a6074a6f2e91616a996b547c36f15
		<tag k="name" v="Kjerringholmen" />
		<tag k="place" v="islet" />
		<tag k="ssr:stedsnr" v="479230" />
	</node>
<<<<<<< HEAD
	<node lat="59.238000002404334" lon="10.85387499450871" id="-9465">
		<tag k="alt_name" v="Kjennetjernet" />
		<tag k="name" v="Kjennetjern" />
=======
	<node id="-220614" lat="59.2483750035" lon="10.9495250042">
		<tag k="name" v="Stordammen" />
>>>>>>> e1d4bc35ff8a6074a6f2e91616a996b547c36f15
		<tag k="natural" v="water" />
		<tag k="ssr:stedsnr" v="487516" />
	</node>
<<<<<<< HEAD
	<node lat="60.93943888528743" lon="11.516244438964907" id="-9495">
		<tag k="fixme" v="multiple name tags, choose one and add the other to alt_name" />
		<tag k="name" v="Glåma;Glomma" />
		<tag k="ssr:stedsnr" v="426301" />
		<tag k="waterway" v="river" />
	</node>
	<node lat="59.2671103088204" lon="11.02658690878437" id="-9517">
		<tag k="name" v="Visterflo" />
		<tag k="ssr:stedsnr" v="467911" />
		<tag k="waterway" v="river" />
	</node>
	<node lat="59.23326944444234" lon="10.94854444000939" id="-9529">
		<tag k="name" v="Bjørndalsdammene" />
		<tag k="natural" v="water" />
		<tag k="ssr:stedsnr" v="481703" />
	</node>
	<node lat="59.158199998865626" lon="11.086116661085542" id="-9549">
		<tag k="alt_name" v="Fosserdammen" />
		<tag k="name" v="Fossedammen" />
=======
	<node id="-220996" lat="59.2029583308" lon="10.9446805537">
		<tag k="name" v="Isegran" />
		<tag k="place" v="island" />
		<tag k="ssr:stedsnr" v="790325" />
	</node>
	<node id="-219331" lat="59.2183361116" lon="11.061708331">
		<tag k="name" v="Hunnebekken" />
		<tag k="ssr:stedsnr" v="22456" />
		<tag k="waterway" v="stream" />
	</node>
	<node id="-219329" lat="59.231716666" lon="11.0989472218">
		<tag k="name" v="Kurebekken" />
		<tag k="ssr:stedsnr" v="22447" />
		<tag k="waterway" v="stream" />
	</node>
	<node id="-219837" lat="59.2016805573" lon="10.9424361062">
		<tag k="name" v="Nøkledypet" />
		<tag k="natural" v="strait" />
		<tag k="ssr:stedsnr" v="540152" />
	</node>
	<node id="-219708" lat="59.2182500026" lon="10.9569555617">
		<tag k="name" v="Bingedammen" />
>>>>>>> e1d4bc35ff8a6074a6f2e91616a996b547c36f15
		<tag k="natural" v="water" />
		<tag k="ssr:stedsnr" v="488610" />
	</node>
<<<<<<< HEAD
	<node lat="59.217916670695764" lon="10.916724991828872" id="-9619">
		<tag k="name" v="Floa" />
		<tag k="natural" v="bay" />
		<tag k="ssr:stedsnr" v="602250" />
	</node>
	<node lat="59.26149721955634" lon="11.045472217079016" id="-9652">
		<tag k="name" v="Moumlandet" />
		<tag k="natural" v="beach" />
		<tag k="ssr:stedsnr" v="648600" />
	</node>
	<node lat="59.17550833530408" lon="10.937363894008756" id="-9661">
		<tag k="name" v="Bommen" />
		<tag k="natural" v="water" />
		<tag k="ssr:stedsnr" v="661634" />
	</node>
	<node lat="59.18768651695284" lon="11.041703131915348" id="-9795">
		<tag k="loc_name" v="Bergsjorddammene" />
		<tag k="name" v="Bergjorddammene" />
=======
	<node id="-220347" lat="59.2667611143" lon="10.7523972259">
		<tag k="name" v="Kallerødbekken" />
		<tag k="ssr:stedsnr" v="115286" />
		<tag k="waterway" v="stream" />
	</node>
	<node id="-220858" lat="59.2479388923" lon="10.9623055529">
		<tag k="name" v="Borredalsdammen" />
		<tag k="natural" v="water" />
		<tag k="ssr:stedsnr" v="608536" />
	</node>
	<node id="-220253" lat="59.2817861066" lon="10.7785527811">
		<tag k="name" v="Kallerødbekken" />
		<tag k="ssr:stedsnr" v="45104" />
		<tag k="waterway" v="stream" />
	</node>
	<node id="-221100" lat="59.3186166636" lon="10.9676083265">
		<tag k="name" v="Visterflo" />
>>>>>>> e1d4bc35ff8a6074a6f2e91616a996b547c36f15
		<tag k="natural" v="water" />
		<tag k="ssr:stedsnr" v="784801" />
	</node>
<<<<<<< HEAD
	<node lat="59.214291667207156" lon="10.930291668315629" id="-9809">
		<tag k="name" v="Vesterelva" />
		<tag k="ssr:stedsnr" v="911388" />
		<tag k="waterway" v="river" />
	</node>
	<node lat="59.205375002853515" lon="10.901874997801777" id="-9884">
=======
	<node id="-219664" lat="59.222080557" lon="11.0104111189">
		<tag k="name" v="Klokkerfossen" />
		<tag k="natural" v="waterfall" />
		<tag k="ssr:stedsnr" v="359714" />
	</node>
	<node id="-219814" lat="59.2380000024" lon="10.8538749945">
		<tag k="alt_name" v="Kjennetjernet" />
		<tag k="name" v="Kjennetjern" />
		<tag k="natural" v="water" />
		<tag k="ssr:stedsnr" v="487516" />
	</node>
	<node id="-221093" lat="59.2053750029" lon="10.9018749978">
>>>>>>> e1d4bc35ff8a6074a6f2e91616a996b547c36f15
		<tag k="name" v="Hutholmen" />
		<tag k="place" v="islet" />
		<tag k="ssr:stedsnr" v="851321" />
	</node>
<<<<<<< HEAD
	<node lat="59.19673333061379" lon="10.979644442608805" id="-9899">
		<tag k="name" v="Oldenborgila" />
		<tag k="natural" v="spring" />
		<tag k="ssr:stedsnr" v="904413" />
	</node>
	<node lat="59.227736109664875" lon="11.054863886011328" id="-9936">
		<tag k="name" v="Lindalbekken" />
		<tag k="ssr:stedsnr" v="933522" />
		<tag k="waterway" v="stream" />
	</node>
	<node lat="59.2252444475072" lon="11.063258329489035" id="-9937">
		<tag k="name" v="Opphusbekken" />
		<tag k="ssr:stedsnr" v="933523" />
		<tag k="waterway" v="stream" />
	</node>
	<node lat="59.2183361116469" lon="11.061708330964748" id="-10030">
		<tag k="name" v="Hunnebekken" />
		<tag k="ssr:stedsnr" v="22456" />
		<tag k="waterway" v="stream" />
	</node>
	<node lat="59.21611388738664" lon="11.069797223396977" id="-10032">
		<tag k="name" v="Tverrbekken" />
		<tag k="ssr:stedsnr" v="22866" />
		<tag k="waterway" v="stream" />
	</node>
	<node lat="59.1953944481361" lon="10.945336103031769" id="-10049">
		<tag k="name" v="Møllerodden" />
		<tag k="natural" v="cape" />
		<tag k="ssr:stedsnr" v="55393" />
	</node>
	<node lat="59.26676111431337" lon="10.752397225876134" id="-10099">
		<tag k="name" v="Kallerødbekken" />
		<tag k="ssr:stedsnr" v="115286" />
		<tag k="waterway" v="stream" />
	</node>
	<node lat="59.18807499696794" lon="10.948175000846032" id="-10121">
		<tag k="name" v="Østerelva" />
		<tag k="ssr:stedsnr" v="122362" />
		<tag k="waterway" v="river" />
	</node>
	<node lat="59.26455833377873" lon="11.08279443660912" id="-10149">
		<tag k="name" v="Gretnesbekken" />
		<tag k="ssr:stedsnr" v="143069" />
		<tag k="waterway" v="stream" />
	</node>
	<node lat="59.21032499635361" lon="10.914302772802042" id="-10238">
		<tag k="name" v="Hølen" />
		<tag k="natural" v="bay" />
		<tag k="ssr:stedsnr" v="297317" />
	</node>
	<node lat="59.1758999968126" lon="11.05265000382678" id="-10281">
		<tag k="alt_name" v="Trongsmyra" />
		<tag k="name" v="Trangsmyr" />
		<tag k="ssr:stedsnr" v="305686" />
		<tag k="waterway" v="stream" />
	</node>
	<node lat="59.30083611511052" lon="10.897027780076328" id="-10322">
=======
	<node id="-220960" lat="59.1986916701" lon="11.0257611054">
		<tag k="name" v="Laverødbekken" />
		<tag k="ssr:stedsnr" v="784821" />
		<tag k="waterway" v="stream" />
	</node>
	<node id="-220959" lat="59.187686517" lon="11.0417031319">
		<tag k="loc_name" v="Bergsjorddammene" />
		<tag k="name" v="Bergjorddammene" />
		<tag k="natural" v="water" />
		<tag k="ssr:stedsnr" v="784801" />
	</node>
	<node id="-220828" lat="59.2552277811" lon="10.8731472224">
		<tag k="name" v="Torpebekken" />
		<tag k="ssr:stedsnr" v="602781" />
		<tag k="waterway" v="stream" />
	</node>
	<node id="-220825" lat="59.2179166707" lon="10.9167249918">
		<tag k="name" v="Floa" />
		<tag k="natural" v="bay" />
		<tag k="ssr:stedsnr" v="602250" />
	</node>
	<node id="-220696" lat="60.9394388853" lon="11.516244439">
		<tag k="fixme" v="multiple name tags, choose one and add the other to alt_name" />
		<tag k="name" v="Glomma;Glåma" />
		<tag k="ssr:stedsnr" v="426301" />
		<tag k="waterway" v="river" />
	</node>
	<node id="-219716" lat="59.1755083353" lon="10.937363894">
		<tag k="name" v="Bommen" />
		<tag k="natural" v="water" />
		<tag k="ssr:stedsnr" v="661634" />
	</node>
	<node id="-220566" lat="59.2104722186" lon="10.9681944487">
		<tag k="name" v="Søndre dam" />
		<tag k="natural" v="water" />
		<tag k="ssr:stedsnr" v="358544" />
	</node>
	<node id="-219801" lat="59.2332694444" lon="10.94854444">
		<tag k="name" v="Bjørndalsdammene" />
		<tag k="natural" v="water" />
		<tag k="ssr:stedsnr" v="481703" />
	</node>
	<node id="-219578" lat="59.1963361089" lon="11.0397194454">
		<tag k="name" v="Søndre Grimstad bekk" />
		<tag k="ssr:stedsnr" v="299822" />
		<tag k="waterway" v="stream" />
	</node>
	<node id="-220560" lat="59.3008361151" lon="10.8970277801">
>>>>>>> e1d4bc35ff8a6074a6f2e91616a996b547c36f15
		<tag k="name" v="Kjølbergelva" />
		<tag k="ssr:stedsnr" v="357545" />
		<tag k="waterway" v="river" />
	</node>
<<<<<<< HEAD
	<node lat="59.210472218555736" lon="10.968194448746251" id="-10325">
		<tag k="name" v="Søndre dam" />
		<tag k="natural" v="water" />
		<tag k="ssr:stedsnr" v="358544" />
	</node>
	<node lat="59.22073055194859" lon="10.896311110111172" id="-10383">
		<tag k="name" v="Ålebekken" />
		<tag k="ssr:stedsnr" v="418373" />
		<tag k="waterway" v="stream" />
	</node>
	<node lat="59.26398888445082" lon="10.746975008515511" id="-10385">
		<tag k="name" v="Evja" />
		<tag k="natural" v="bay" />
		<tag k="ssr:stedsnr" v="418258" />
	</node>
	<node lat="59.20168055728179" lon="10.94243610624566" id="-10456">
		<tag k="name" v="Nøkledypet" />
		<tag k="natural" v="strait" />
		<tag k="ssr:stedsnr" v="540152" />
	</node>
	<node lat="59.22844167031553" lon="10.913127782701492" id="-10486">
		<tag k="name" v="Seutelva" />
		<tag k="ssr:stedsnr" v="548489" />
		<tag k="waterway" v="river" />
	</node>
	<node lat="59.25522778112609" lon="10.873147222429177" id="-10526">
		<tag k="name" v="Torpebekken" />
		<tag k="ssr:stedsnr" v="602781" />
		<tag k="waterway" v="stream" />
	</node>
	<node lat="59.2479388922868" lon="10.96230555287325" id="-10552">
		<tag k="name" v="Borredalsdammen" />
		<tag k="natural" v="water" />
		<tag k="ssr:stedsnr" v="608536" />
	</node>
	<node lat="59.27389444715252" lon="10.727475004270024" id="-10572">
		<tag k="name" v="Stangerholmen" />
		<tag k="natural" v="cape" />
		<tag k="ssr:stedsnr" v="634902" />
	</node>
	<node lat="59.218250002571004" lon="10.956955561669215" id="-10592">
		<tag k="name" v="Bingedammen" />
		<tag k="natural" v="water" />
		<tag k="ssr:stedsnr" v="661466" />
	</node>
	<node lat="59.214761115703354" lon="11.052274995119626" id="-10653">
		<tag k="name" v="Norsjø" />
		<tag k="natural" v="water" />
		<tag k="ssr:stedsnr" v="724536" />
		<tag k="water" v="pond" />
	</node>
	<node lat="59.26255833561263" lon="10.930111109224821" id="-10656">
		<tag k="name" v="Veumbekken" />
		<tag k="ssr:stedsnr" v="724841" />
		<tag k="waterway" v="stream" />
	</node>
	<node lat="59.17902222669189" lon="11.055480558474281" id="-10700">
		<tag k="name" v="Ødegårdsbekken" />
		<tag k="ssr:stedsnr" v="750848" />
		<tag k="waterway" v="stream" />
=======
	<node id="-220175" lat="59.2629222179" lon="11.028449994">
		<tag k="name" v="Nesøya" />
		<tag k="place" v="islet" />
		<tag k="ssr:stedsnr" v="968017" />
	</node>
	<node id="-219656" lat="59.1907666706" lon="10.9738722298">
		<tag k="name" v="Oldenborgbekken" />
		<tag k="ssr:stedsnr" v="358404" />
		<tag k="waterway" v="stream" />
	</node>
	<node id="-219654" lat="59.1581999989" lon="11.0861166611">
		<tag k="alt_name" v="Fosserdammen" />
		<tag k="name" v="Fossedammen" />
		<tag k="natural" v="water" />
		<tag k="ssr:stedsnr" v="488610" />
	</node>
	<node id="-220036" lat="59.2142916672" lon="10.9302916683">
		<tag k="name" v="Vesterelva" />
		<tag k="ssr:stedsnr" v="911388" />
		<tag k="waterway" v="river" />
	</node>
	<node id="-219499" lat="59.2103249964" lon="10.9143027728">
		<tag k="name" v="Hølen" />
		<tag k="natural" v="bay" />
		<tag k="ssr:stedsnr" v="297317" />
>>>>>>> e1d4bc35ff8a6074a6f2e91616a996b547c36f15
	</node>
	<node lat="59.198691670094284" lon="11.025761105383626" id="-10730">
		<tag k="name" v="Laverødbekken" />
		<tag k="ssr:stedsnr" v="784821" />
		<tag k="waterway" v="stream" />
	</node>
	<node lat="59.202958330848126" lon="10.944680553680428" id="-10745">
		<tag k="name" v="Isegran" />
		<tag k="place" v="island" />
		<tag k="ssr:stedsnr" v="790325" />
	</node>
	<node lat="59.31861666357664" lon="10.967608326463154" id="-10832">
		<tag k="name" v="Visterflo" />
		<tag k="natural" v="water" />
		<tag k="ssr:stedsnr" v="852394" />
		<tag k="water" v="lake" />
	</node>
	<node lat="59.26292221793591" lon="11.028449993964957" id="-10886">
		<tag k="name" v="Nesøya" />
		<tag k="place" v="islet" />
		<tag k="ssr:stedsnr" v="968017" />
	</node>
</osm>
