<?xml version="1.0" encoding="UTF-8"?>
<<<<<<< HEAD
<osm version="0.6" generator="osmapis">
	<node lat="59.26596666495426" lon="11.017033333189826" id="-9083">
		<tag k="amenity" v="place_of_worship" />
		<tag k="denomination" v="lutheran" />
		<tag k="name" v="Rolvsøy kirke" />
		<tag k="religion" v="christian" />
		<tag k="ssr:stedsnr" v="3102" />
	</node>
	<node lat="59.261813890225994" lon="10.734161107495739" id="-9092">
		<tag k="name" v="Tangen" />
=======
<osm generator="osmapis" version="0.6">
	<node id="-219520" lat="59.2223944401" lon="10.8079305637">
		<tag k="name" v="Østentorøysa" />
		<tag k="place" v="locality" />
		<tag k="ssr:stedsnr" v="297984" />
	</node>
	<node id="-221055" lat="59.2037305574" lon="10.995688887">
		<tag k="name" v="Åsenstua" />
		<tag k="ssr:stedsnr" v="844770" />
		<tag k="tourism" v="attraction" />
	</node>
	<node id="-219518" lat="59.1375861086" lon="10.9412500073">
		<tag k="alt_name" v="Steinvarpet" />
		<tag k="name" v="Stenvarpet" />
		<tag k="place" v="locality" />
		<tag k="ssr:stedsnr" v="297845" />
	</node>
	<node id="-220799" lat="59.2345083368" lon="10.9147305574">
		<tag k="name" v="Høddalen" />
		<tag k="place" v="locality" />
		<tag k="ssr:stedsnr" v="572841" />
	</node>
	<node id="-220919" lat="59.2208666699" lon="10.9261083405">
		<tag k="cemetery" v="grave" />
		<tag k="name" v="Vestre gravlund" />
>>>>>>> e1d4bc35ff8a6074a6f2e91616a996b547c36f15
		<tag k="place" v="locality" />
		<tag k="ssr:stedsnr" v="236290" />
	</node>
<<<<<<< HEAD
	<node lat="59.19773332953904" lon="10.962908327541415" id="-9143">
		<tag k="name" v="Kongsten fort" />
		<tag k="ssr:stedsnr" v="62311" />
		<tag k="tourism" v="attraction" />
	</node>
	<node lat="59.22380833434623" lon="11.047597215169036" id="-9224">
		<tag k="amenity" v="community_centre" />
		<tag k="loc_name" v="Bøndenes hus" />
		<tag k="name" v="Bøndernes hus" />
		<tag k="ssr:stedsnr" v="177769" />
	</node>
	<node lat="59.224030551597785" lon="11.053919436366673" id="-9225">
		<tag k="name" v="Solli" />
		<tag k="place" v="locality" />
		<tag k="ssr:stedsnr" v="177772" />
	</node>
	<node lat="59.2314305578541" lon="10.934083332317428" id="-9315">
		<tag k="name" v="Ringen" />
=======
	<node id="-220533" lat="59.2645249999" lon="11.0786972202">
		<tag k="name" v="Roald Amundsens minne" />
		<tag k="ssr:stedsnr" v="325067" />
		<tag k="tourism" v="attraction" />
	</node>
	<node id="-220275" lat="59.2232527768" lon="10.7958666687">
		<tag k="name" v="Hauglund" />
>>>>>>> e1d4bc35ff8a6074a6f2e91616a996b547c36f15
		<tag k="place" v="locality" />
		<tag k="ssr:stedsnr" v="461832" />
	</node>
<<<<<<< HEAD
	<node lat="59.24595555358376" lon="10.999313891928178" id="-9333">
		<tag k="name" v="Hans Nielsen Hauges Minde" />
		<tag k="ssr:stedsnr" v="301892" />
		<tag k="tourism" v="museum" />
	</node>
	<node lat="59.26954722460748" lon="10.753786105942728" id="-9365">
		<tag k="name" v="Enga" />
=======
	<node id="-219795" lat="59.1860833298" lon="10.9413222259">
		<tag k="name" v="Barkedalen" />
		<tag k="place" v="locality" />
		<tag k="ssr:stedsnr" v="479663" />
	</node>
	<node id="-220271" lat="59.1125055536" lon="10.757230553">
		<tag k="name" v="Kua" />
>>>>>>> e1d4bc35ff8a6074a6f2e91616a996b547c36f15
		<tag k="place" v="locality" />
		<tag k="ssr:stedsnr" v="358215" />
	</node>
<<<<<<< HEAD
	<node lat="59.203322223026944" lon="11.053638884992184" id="-9379">
		<tag k="name" v="Hasselgrinda" />
=======
	<node id="-219502" lat="59.2150888852" lon="10.8877111033">
		<tag k="name" v="Olsebingen" />
>>>>>>> e1d4bc35ff8a6074a6f2e91616a996b547c36f15
		<tag k="place" v="locality" />
		<tag k="ssr:stedsnr" v="359817" />
	</node>
<<<<<<< HEAD
	<node lat="59.186083329803004" lon="10.941322225860018" id="-9415">
		<tag k="name" v="Barkedalen" />
=======
	<node id="-220268" lat="59.2736833321" lon="10.8207916716">
		<tag k="name" v="Persekroken" />
>>>>>>> e1d4bc35ff8a6074a6f2e91616a996b547c36f15
		<tag k="place" v="locality" />
		<tag k="ssr:stedsnr" v="479663" />
	</node>
<<<<<<< HEAD
	<node lat="59.224205556055615" lon="11.046797217302764" id="-9480">
		<tag k="name" v="Borgeli" />
=======
	<node id="-220011" lat="59.1838611069" lon="11.0280694529">
		<tag k="name" v="Svarteport" />
>>>>>>> e1d4bc35ff8a6074a6f2e91616a996b547c36f15
		<tag k="place" v="locality" />
		<tag k="ssr:stedsnr" v="420754" />
	</node>
<<<<<<< HEAD
	<node lat="59.279938884564025" lon="10.76046388824521" id="-9527">
		<tag k="name" v="Tatersvingen" />
		<tag k="place" v="locality" />
		<tag k="ssr:stedsnr" v="481563" />
	</node>
	<node lat="59.25546944561696" lon="10.849936118389897" id="-9530">
		<tag k="name" v="Kampenhaug" />
		<tag k="ssr:stedsnr" v="481766" />
		<tag k="tourism" v="attraction" />
	</node>
	<node lat="59.23600000209844" lon="11.008847226677812" id="-9558">
		<tag k="amenity" v="place_of_worship" />
		<tag k="denomination" v="lutheran" />
		<tag k="name" v="Kjølstad kirke" />
		<tag k="religion" v="christian" />
		<tag k="ssr:stedsnr" v="512269" />
	</node>
	<node lat="59.20240555689591" lon="10.915400002581459" id="-9567">
		<tag k="name" v="Bjørneklova" />
=======
	<node id="-220260" lat="59.2037277733" lon="10.9472111166">
		<tag k="amenity" v="community_centre" />
		<tag k="name" v="Universitetets arkeologiske stasjon" />
		<tag k="ssr:stedsnr" v="54140" />
	</node>
	<node id="-219747" lat="59.2582944418" lon="11.0019333353">
		<tag k="amenity" v="community_centre" />
		<tag k="name" v="Solheim" />
		<tag k="ssr:stedsnr" v="665970" />
	</node>
	<node id="-220001" lat="59.2217222259" lon="10.9780777821">
		<tag k="name" v="Narnte teglverk" />
>>>>>>> e1d4bc35ff8a6074a6f2e91616a996b547c36f15
		<tag k="place" v="locality" />
		<tag k="ssr:stedsnr" v="540220" />
	</node>
<<<<<<< HEAD
	<node lat="59.17306944874753" lon="11.053416668863882" id="-9569">
		<tag k="name" v="Revamoen" />
=======
	<node id="-219744" lat="59.2448444403" lon="10.9614250018">
		<tag k="name" v="Ula" />
>>>>>>> e1d4bc35ff8a6074a6f2e91616a996b547c36f15
		<tag k="place" v="locality" />
		<tag k="ssr:stedsnr" v="540464" />
	</node>
<<<<<<< HEAD
	<node lat="59.19296110791179" lon="11.027488892589835" id="-9572">
		<tag k="name" v="Svartepus" />
		<tag k="place" v="locality" />
		<tag k="ssr:stedsnr" v="541824" />
	</node>
	<node lat="59.22215277441745" lon="10.91566666338114" id="-9614">
=======
	<node id="-219867" lat="59.2675305589" lon="11.0082638896">
		<tag k="alt_name" v="Hasselhei" />
		<tag k="name" v="Heigård" />
		<tag k="place" v="locality" />
		<tag k="ssr:stedsnr" v="604033" />
	</node>
	<node id="-219863" lat="59.2102888918" lon="10.9415222193">
		<tag k="amenity" v="community_centre" />
		<tag k="name" v="Lykkeberg" />
		<tag k="ssr:stedsnr" v="600839" />
	</node>
	<node id="-219990" lat="59.2648388883" lon="10.9427111153">
		<tag k="amenity" v="community_centre" />
		<tag k="name" v="Evenrød" />
		<tag k="ssr:stedsnr" v="731104" />
	</node>
	<node id="-219861" lat="59.2221527744" lon="10.9156666634">
>>>>>>> e1d4bc35ff8a6074a6f2e91616a996b547c36f15
		<tag k="name" v="Bureskjær" />
		<tag k="place" v="locality" />
		<tag k="ssr:stedsnr" v="600353" />
	</node>
<<<<<<< HEAD
	<node lat="59.26753055893369" lon="11.008263889622647" id="-9623">
		<tag k="alt_name" v="Hasselhei" />
		<tag k="name" v="Heigård" />
		<tag k="place" v="locality" />
		<tag k="ssr:stedsnr" v="604033" />
	</node>
	<node lat="59.20227499625072" lon="10.952555561687793" id="-9647">
=======
	<node id="-220884" lat="59.2022749963" lon="10.9525555617">
>>>>>>> e1d4bc35ff8a6074a6f2e91616a996b547c36f15
		<tag k="amenity" v="place_of_worship" />
		<tag k="denomination" v="lutheran" />
		<tag k="name" v="Østre Fredrikstad kirke" />
		<tag k="religion" v="christian" />
		<tag k="ssr:stedsnr" v="633310" />
	</node>
<<<<<<< HEAD
	<node lat="59.32333610851722" lon="10.96025278001222" id="-9654">
		<tag k="name" v="Gåserevet" />
		<tag k="place" v="locality" />
		<tag k="ssr:stedsnr" v="658435" />
	</node>
	<node lat="59.18298610786902" lon="11.048338881707112" id="-9655">
		<tag k="name" v="Veelsmyra" />
		<tag k="place" v="locality" />
		<tag k="ssr:stedsnr" v="659932" />
	</node>
	<node lat="59.24484444028155" lon="10.961425001839322" id="-9677">
		<tag k="name" v="Ula" />
=======
	<node id="-219982" lat="59.1911861069" lon="11.058091658">
		<tag k="name" v="Tela" />
		<tag k="place" v="locality" />
		<tag k="ssr:stedsnr" v="725012" />
	</node>
	<node id="-220497" lat="59.2278277823" lon="11.0433333261">
		<tag k="amenity" v="place_of_worship" />
		<tag k="denomination" v="lutheran" />
		<tag k="name" v="Borge kirke" />
		<tag k="religion" v="christian" />
		<tag k="ssr:stedsnr" v="304250" />
	</node>
	<node id="-220752" lat="59.2647805548" lon="10.9766611173">
		<tag k="name" v="Borgeli" />
>>>>>>> e1d4bc35ff8a6074a6f2e91616a996b547c36f15
		<tag k="place" v="locality" />
		<tag k="ssr:stedsnr" v="665889" />
	</node>
<<<<<<< HEAD
	<node lat="59.26253889165347" lon="10.969777780850972" id="-9693">
		<tag k="name" v="Hattehytta" />
=======
	<node id="-219727" lat="59.2146055587" lon="11.0278249939">
		<tag k="name" v="Blodhellene" />
>>>>>>> e1d4bc35ff8a6074a6f2e91616a996b547c36f15
		<tag k="place" v="locality" />
		<tag k="ssr:stedsnr" v="670116" />
	</node>
	<node lat="59.191088885184456" lon="10.811194439855363" id="-9705">
		<tag k="name" v="Slevik skanse" />
		<tag k="ssr:stedsnr" v="691800" />
		<tag k="tourism" v="attraction" />
	</node>
<<<<<<< HEAD
	<node lat="59.19118610692596" lon="11.05809165795725" id="-9717">
		<tag k="name" v="Tela" />
		<tag k="place" v="locality" />
		<tag k="ssr:stedsnr" v="725012" />
	</node>
	<node lat="59.26483888828567" lon="10.942711115304249" id="-9732">
		<tag k="amenity" v="community_centre" />
		<tag k="name" v="Evenrød" />
		<tag k="ssr:stedsnr" v="731104" />
	</node>
	<node lat="59.18386110694042" lon="11.028069452920985" id="-9749">
		<tag k="name" v="Svarteport" />
		<tag k="place" v="locality" />
		<tag k="ssr:stedsnr" v="904439" />
	</node>
	<node lat="59.22172222588721" lon="10.978077782149187" id="-9752">
		<tag k="name" v="Narnte teglverk" />
=======
	<node id="-220494" lat="59.2459555536" lon="10.9993138919">
		<tag k="name" v="Hans Nielsen Hauges Minde" />
		<tag k="ssr:stedsnr" v="301892" />
		<tag k="tourism" v="museum" />
	</node>
	<node id="-220237" lat="59.265966665" lon="11.0170333332">
		<tag k="amenity" v="place_of_worship" />
		<tag k="denomination" v="lutheran" />
		<tag k="name" v="Rolvsøy kirke" />
		<tag k="religion" v="christian" />
		<tag k="ssr:stedsnr" v="3102" />
	</node>
	<node id="-219426" lat="59.2423111132" lon="10.7683777824">
		<tag k="name" v="Spikekjøtt" />
		<tag k="place" v="locality" />
		<tag k="ssr:stedsnr" v="115919" />
	</node>
	<node id="-219338" lat="59.2618138902" lon="10.7341611075">
		<tag k="name" v="Tangen" />
		<tag k="place" v="locality" />
		<tag k="ssr:stedsnr" v="236290" />
	</node>
	<node id="-221001" lat="59.2156805537" lon="10.9387833326">
		<tag k="amenity" v="place_of_worship" />
		<tag k="denomination" v="lutheran" />
		<tag k="name" v="Glemmen nye kirke" />
		<tag k="religion" v="christian" />
		<tag k="ssr:stedsnr" v="790500" />
	</node>
	<node id="-220742" lat="59.2781249979" lon="10.8878833389">
		<tag k="name" v="Tuka" />
>>>>>>> e1d4bc35ff8a6074a6f2e91616a996b547c36f15
		<tag k="place" v="locality" />
		<tag k="ssr:stedsnr" v="904487" />
	</node>
<<<<<<< HEAD
	<node lat="59.22086666990594" lon="10.926108340517203" id="-9770">
		<tag k="cemetery" v="grave" />
		<tag k="name" v="Vestre gravlund" />
		<tag k="place" v="locality" />
		<tag k="ssr:stedsnr" v="768999" />
	</node>
	<node lat="59.188913891259304" lon="10.974763891556899" id="-9784">
		<tag k="name" v="Øvold" />
=======
	<node id="-220101" lat="59.2376500034" lon="10.971227785">
		<tag k="amenity" v="place_of_worship" />
		<tag k="denomination" v="lutheran" />
		<tag k="name" v="Gamle Glemmen kirke" />
		<tag k="religion" v="christian" />
		<tag k="ssr:stedsnr" v="937325" />
	</node>
	<node id="-220738" lat="59.2387555519" lon="10.7656000011">
		<tag k="name" v="Munkebogen" />
>>>>>>> e1d4bc35ff8a6074a6f2e91616a996b547c36f15
		<tag k="place" v="locality" />
		<tag k="ssr:stedsnr" v="783421" />
	</node>
<<<<<<< HEAD
	<node lat="59.218580551804" lon="10.898294446258593" id="-9835">
=======
	<node id="-220096" lat="59.2562972265" lon="10.850436116">
>>>>>>> e1d4bc35ff8a6074a6f2e91616a996b547c36f15
		<tag k="amenity" v="place_of_worship" />
		<tag k="denomination" v="lutheran" />
		<tag k="name" v="Gressvik kirke" />
		<tag k="religion" v="christian" />
<<<<<<< HEAD
		<tag k="ssr:stedsnr" v="912261" />
	</node>
	<node lat="59.22853888990915" lon="11.00106388560982" id="-9875">
		<tag k="name" v="Løen" />
=======
		<tag k="ssr:stedsnr" v="815273" />
	</node>
	<node id="-219839" lat="59.1992111069" lon="10.9591055584">
		<tag k="name" v="Den dekkede vei" />
		<tag k="ssr:stedsnr" v="540406" />
		<tag k="tourism" v="attraction" />
	</node>
	<node id="-219710" lat="59.2073444484" lon="10.9653166688">
		<tag k="name" v="Gudevoll" />
>>>>>>> e1d4bc35ff8a6074a6f2e91616a996b547c36f15
		<tag k="place" v="locality" />
		<tag k="ssr:stedsnr" v="845734" />
	</node>
<<<<<<< HEAD
	<node lat="59.26365555858026" lon="11.006686111522644" id="-9878">
		<tag k="name" v="Rønningen" />
=======
	<node id="-220733" lat="59.1730694487" lon="11.0534166689">
		<tag k="name" v="Revamoen" />
>>>>>>> e1d4bc35ff8a6074a6f2e91616a996b547c36f15
		<tag k="place" v="locality" />
		<tag k="ssr:stedsnr" v="847016" />
	</node>
<<<<<<< HEAD
	<node lat="59.21433610831921" lon="11.059900006690196" id="-10025">
		<tag k="amenity" v="place_of_worship" />
		<tag k="fixme" v="specify religion=*, denomination=*, building=* etc" />
		<tag k="name" v="Furuheim" />
		<tag k="ssr:stedsnr" v="22015" />
	</node>
	<node lat="59.20372777325113" lon="10.947211116617696" id="-10041">
		<tag k="amenity" v="community_centre" />
		<tag k="name" v="Universitetets arkeologiske stasjon" />
		<tag k="ssr:stedsnr" v="54140" />
	</node>
	<node lat="59.11250555359426" lon="10.757230552950894" id="-10045">
		<tag k="name" v="Kua" />
=======
	<node id="-219836" lat="59.2024055569" lon="10.9154000026">
		<tag k="name" v="Bjørneklova" />
		<tag k="place" v="locality" />
		<tag k="ssr:stedsnr" v="540220" />
	</node>
	<node id="-219835" lat="59.1910888852" lon="10.8111944399">
		<tag k="name" v="Slevik skanse" />
		<tag k="ssr:stedsnr" v="691800" />
		<tag k="tourism" v="attraction" />
	</node>
	<node id="-219702" lat="59.193258336" lon="10.8885222147">
		<tag k="name" v="Oven" />
>>>>>>> e1d4bc35ff8a6074a6f2e91616a996b547c36f15
		<tag k="place" v="locality" />
		<tag k="ssr:stedsnr" v="55420" />
	</node>
<<<<<<< HEAD
	<node lat="59.27368333209608" lon="10.820791671585768" id="-10048">
		<tag k="name" v="Persekroken" />
=======
	<node id="-220084" lat="59.1889138913" lon="10.9747638916">
		<tag k="name" v="Øvold" />
>>>>>>> e1d4bc35ff8a6074a6f2e91616a996b547c36f15
		<tag k="place" v="locality" />
		<tag k="ssr:stedsnr" v="55113" />
	</node>
<<<<<<< HEAD
	<node lat="59.22325277681772" lon="10.795866668744118" id="-10050">
		<tag k="name" v="Hauglund" />
=======
	<node id="-219699" lat="59.3233361085" lon="10.96025278">
		<tag k="name" v="Gåserevet" />
>>>>>>> e1d4bc35ff8a6074a6f2e91616a996b547c36f15
		<tag k="place" v="locality" />
		<tag k="ssr:stedsnr" v="55957" />
	</node>
<<<<<<< HEAD
	<node lat="59.2509277818872" lon="10.991602783470482" id="-10075">
		<tag k="name" v="Grønli" />
=======
	<node id="-220977" lat="59.2331027771" lon="10.9945833261">
		<tag k="name" v="Gropa" />
>>>>>>> e1d4bc35ff8a6074a6f2e91616a996b547c36f15
		<tag k="place" v="locality" />
		<tag k="ssr:stedsnr" v="64049" />
	</node>
<<<<<<< HEAD
	<node lat="59.20936944046834" lon="10.94248611239718" id="-10089">
		<tag k="amenity" v="place_of_worship" />
		<tag k="denomination" v="lutheran" />
		<tag k="name" v="Fredrikstad domkirke" />
		<tag k="religion" v="christian" />
		<tag k="ssr:stedsnr" v="87271" />
	</node>
	<node lat="59.24231111324765" lon="10.768377782359194" id="-10102">
		<tag k="name" v="Spikekjøtt" />
		<tag k="place" v="locality" />
		<tag k="ssr:stedsnr" v="115919" />
	</node>
	<node lat="59.271430553259165" lon="10.899216674998202" id="-10114">
		<tag k="amenity" v="community_centre" />
		<tag k="name" v="Haredalen" />
		<tag k="ssr:stedsnr" v="117815" />
	</node>
	<node lat="59.18325832897004" lon="11.0014638874533" id="-10165">
		<tag k="alt_name" v="Pernes" />
		<tag k="amenity" v="community_centre" />
		<tag k="name" v="Pernesstua" />
		<tag k="old_name" v="Persnæs" />
		<tag k="ssr:stedsnr" v="176425" />
	</node>
	<node lat="59.18516667038133" lon="11.047313888428965" id="-10183">
		<tag k="amenity" v="community_centre" />
		<tag k="name" v="Folkets hus" />
		<tag k="ssr:stedsnr" v="177897" />
	</node>
	<node lat="59.18120555821753" lon="10.92816389762961" id="-10201">
=======
	<node id="-219775" lat="59.2625388917" lon="10.9697777809">
		<tag k="name" v="Hattehytta" />
		<tag k="place" v="locality" />
		<tag k="ssr:stedsnr" v="670116" />
	</node>
	<node id="-220335" lat="59.2093694405" lon="10.9424861124">
>>>>>>> e1d4bc35ff8a6074a6f2e91616a996b547c36f15
		<tag k="amenity" v="place_of_worship" />
		<tag k="denomination" v="lutheran" />
		<tag k="name" v="Fredrikstad domkirke" />
		<tag k="religion" v="christian" />
		<tag k="ssr:stedsnr" v="87271" />
	</node>
<<<<<<< HEAD
	<node lat="59.137586108591805" lon="10.941250007318892" id="-10233">
		<tag k="alt_name" v="Steinvarpet" />
		<tag k="name" v="Stenvarpet" />
=======
	<node id="-219566" lat="59.2314305579" lon="10.9340833323">
		<tag k="name" v="Ringen" />
>>>>>>> e1d4bc35ff8a6074a6f2e91616a996b547c36f15
		<tag k="place" v="locality" />
		<tag k="ssr:stedsnr" v="297845" />
	</node>
<<<<<<< HEAD
	<node lat="59.21508888524606" lon="10.887711103282898" id="-10240">
		<tag k="name" v="Olsebingen" />
		<tag k="place" v="locality" />
		<tag k="ssr:stedsnr" v="297391" />
	</node>
	<node lat="59.22239444014966" lon="10.807930563707384" id="-10257">
		<tag k="name" v="Østentorøysa" />
		<tag k="place" v="locality" />
		<tag k="ssr:stedsnr" v="297984" />
	</node>
	<node lat="59.227827782348506" lon="11.043333326114613" id="-10272">
=======
	<node id="-219821" lat="59.2360000021" lon="11.0088472267">
>>>>>>> e1d4bc35ff8a6074a6f2e91616a996b547c36f15
		<tag k="amenity" v="place_of_worship" />
		<tag k="denomination" v="lutheran" />
		<tag k="name" v="Borge kirke" />
		<tag k="religion" v="christian" />
		<tag k="ssr:stedsnr" v="304250" />
	</node>
<<<<<<< HEAD
	<node lat="59.26452499988435" lon="11.078697220237778" id="-10299">
		<tag k="name" v="Roald Amundsens minne" />
		<tag k="ssr:stedsnr" v="325067" />
		<tag k="tourism" v="attraction" />
	</node>
	<node lat="59.18508889282432" lon="10.929188888639418" id="-10326">
		<tag k="name" v="Hellebekk" />
		<tag k="place" v="locality" />
		<tag k="ssr:stedsnr" v="358679" />
	</node>
	<node lat="59.17946944519889" lon="10.901988893254533" id="-10327">
		<tag k="name" v="Sandvika" />
=======
	<node id="-219947" lat="59.1829861079" lon="11.0483388817">
		<tag k="name" v="Veelsmyra" />
>>>>>>> e1d4bc35ff8a6074a6f2e91616a996b547c36f15
		<tag k="place" v="locality" />
		<tag k="ssr:stedsnr" v="358682" />
	</node>
<<<<<<< HEAD
	<node lat="59.19921110688742" lon="10.959105558431219" id="-10447">
		<tag k="name" v="Den dekkede vei" />
		<tag k="ssr:stedsnr" v="540406" />
		<tag k="tourism" v="attraction" />
	</node>
	<node lat="59.23875555192815" lon="10.76560000111888" id="-10453">
		<tag k="name" v="Munkebogen" />
=======
	<node id="-219617" lat="59.2554694456" lon="10.8499361184">
		<tag k="name" v="Kampenhaug" />
		<tag k="ssr:stedsnr" v="481766" />
		<tag k="tourism" v="attraction" />
	</node>
	<node id="-220323" lat="59.2509277819" lon="10.9916027835">
		<tag k="name" v="Grønli" />
>>>>>>> e1d4bc35ff8a6074a6f2e91616a996b547c36f15
		<tag k="place" v="locality" />
		<tag k="ssr:stedsnr" v="540915" />
	</node>
<<<<<<< HEAD
	<node lat="59.27812499791904" lon="10.88788333889454" id="-10463">
		<tag k="name" v="Tuka" />
		<tag k="place" v="locality" />
		<tag k="ssr:stedsnr" v="541927" />
	</node>
	<node lat="59.264780554849445" lon="10.976661117290055" id="-10474">
		<tag k="name" v="Borgeli" />
		<tag k="place" v="locality" />
		<tag k="ssr:stedsnr" v="543960" />
	</node>
	<node lat="59.23450833675637" lon="10.914730557432948" id="-10503">
		<tag k="name" v="Høddalen" />
=======
	<node id="-220578" lat="59.203322223" lon="11.053638885">
		<tag k="name" v="Hasselgrinda" />
		<tag k="place" v="locality" />
		<tag k="ssr:stedsnr" v="359817" />
	</node>
	<node id="-220447" lat="59.1851666704" lon="11.0473138884">
		<tag k="amenity" v="community_centre" />
		<tag k="name" v="Folkets hus" />
		<tag k="ssr:stedsnr" v="177897" />
	</node>
	<node id="-219845" lat="59.1929611079" lon="11.0274888926">
		<tag k="name" v="Svartepus" />
		<tag k="place" v="locality" />
		<tag k="ssr:stedsnr" v="541824" />
	</node>
	<node id="-220444" lat="59.2240305516" lon="11.0539194364">
		<tag k="name" v="Solli" />
>>>>>>> e1d4bc35ff8a6074a6f2e91616a996b547c36f15
		<tag k="place" v="locality" />
		<tag k="ssr:stedsnr" v="572841" />
	</node>
<<<<<<< HEAD
	<node lat="59.21028889181182" lon="10.941522219295686" id="-10515">
=======
	<node id="-220443" lat="59.2238083343" lon="11.0475972152">
>>>>>>> e1d4bc35ff8a6074a6f2e91616a996b547c36f15
		<tag k="amenity" v="community_centre" />
		<tag k="name" v="Lykkeberg" />
		<tag k="ssr:stedsnr" v="600839" />
	</node>
<<<<<<< HEAD
	<node lat="59.18826233152478" lon="11.071434277886262" id="-10545">
		<tag k="amenity" v="place_of_worship" />
		<tag k="denomination" v="lutheran" />
		<tag k="name" v="Torsnes kirke" />
		<tag k="religion" v="christian" />
		<tag k="ssr:stedsnr" v="608323" />
	</node>
	<node lat="59.19325833598394" lon="10.888522214723007" id="-10583">
		<tag k="name" v="Oven" />
		<tag k="place" v="locality" />
		<tag k="ssr:stedsnr" v="661217" />
	</node>
	<node lat="59.20734444843392" lon="10.96531666883924" id="-10584">
		<tag k="name" v="Gudevoll" />
		<tag k="place" v="locality" />
		<tag k="ssr:stedsnr" v="661489" />
	</node>
	<node lat="59.21460555868075" lon="11.02782499385687" id="-10602">
		<tag k="name" v="Blodhellene" />
=======
	<node id="-220570" lat="59.1794694452" lon="10.9019888933">
		<tag k="name" v="Sandvika" />
		<tag k="place" v="locality" />
		<tag k="ssr:stedsnr" v="358682" />
	</node>
	<node id="-220463" lat="59.1812055582" lon="10.9281638976">
		<tag k="amenity" v="place_of_worship" />
		<tag k="denomination" v="lutheran" />
		<tag k="name" v="Kråkerøy kirke" />
		<tag k="religion" v="christian" />
		<tag k="ssr:stedsnr" v="184350" />
	</node>
	<node id="-220312" lat="59.1977333295" lon="10.9629083275">
		<tag k="name" v="Kongsten fort" />
		<tag k="ssr:stedsnr" v="62311" />
		<tag k="tourism" v="attraction" />
	</node>
	<node id="-219799" lat="59.2799388846" lon="10.7604638882">
		<tag k="name" v="Tatersvingen" />
>>>>>>> e1d4bc35ff8a6074a6f2e91616a996b547c36f15
		<tag k="place" v="locality" />
		<tag k="ssr:stedsnr" v="663542" />
	</node>
<<<<<<< HEAD
	<node lat="59.25829444178924" lon="11.0019333352783" id="-10613">
		<tag k="amenity" v="community_centre" />
		<tag k="name" v="Solheim" />
		<tag k="ssr:stedsnr" v="665970" />
	</node>
	<node lat="59.31549722360552" lon="10.94026111035142" id="-10663">
		<tag k="name" v="Underås" />
=======
	<node id="-220569" lat="59.1850888928" lon="10.9291888886">
		<tag k="name" v="Hellebekk" />
		<tag k="place" v="locality" />
		<tag k="ssr:stedsnr" v="358679" />
	</node>
	<node id="-221076" lat="59.2636555586" lon="11.0066861115">
		<tag k="name" v="Rønningen" />
>>>>>>> e1d4bc35ff8a6074a6f2e91616a996b547c36f15
		<tag k="place" v="locality" />
		<tag k="ssr:stedsnr" v="724940" />
	</node>
<<<<<<< HEAD
	<node lat="59.23310277710867" lon="10.994583326092599" id="-10742">
		<tag k="name" v="Gropa" />
=======
	<node id="-220563" lat="59.2695472246" lon="10.7537861059">
		<tag k="name" v="Enga" />
>>>>>>> e1d4bc35ff8a6074a6f2e91616a996b547c36f15
		<tag k="place" v="locality" />
		<tag k="ssr:stedsnr" v="786879" />
	</node>
<<<<<<< HEAD
	<node lat="59.215680553669706" lon="10.938783332596296" id="-10746">
		<tag k="amenity" v="place_of_worship" />
		<tag k="denomination" v="lutheran" />
		<tag k="name" v="Glemmen nye kirke" />
		<tag k="religion" v="christian" />
		<tag k="ssr:stedsnr" v="790500" />
	</node>
	<node lat="59.25629722645663" lon="10.850436115984882" id="-10779">
		<tag k="amenity" v="place_of_worship" />
		<tag k="denomination" v="lutheran" />
		<tag k="name" v="Onsøy kirke" />
		<tag k="religion" v="christian" />
		<tag k="ssr:stedsnr" v="815273" />
	</node>
	<node lat="59.20373055740639" lon="10.99568888704197" id="-10797">
		<tag k="name" v="Åsenstua" />
		<tag k="ssr:stedsnr" v="844770" />
		<tag k="tourism" v="attraction" />
	</node>
	<node lat="59.219177778015386" lon="11.00805278196897" id="-10801">
=======
	<node id="-220848" lat="59.1882623315" lon="11.0714342779">
		<tag k="amenity" v="place_of_worship" />
		<tag k="denomination" v="lutheran" />
		<tag k="name" v="Torsnes kirke" />
		<tag k="religion" v="christian" />
		<tag k="ssr:stedsnr" v="608323" />
	</node>
	<node id="-220431" lat="59.183258329" lon="11.0014638875">
		<tag k="alt_name" v="Pernes" />
		<tag k="amenity" v="community_centre" />
		<tag k="name" v="Pernesstua" />
		<tag k="old_name" v="Persnæs" />
		<tag k="ssr:stedsnr" v="176425" />
	</node>
	<node id="-220172" lat="59.2052083299" lon="10.9877027862">
		<tag k="name" v="Signely" />
		<tag k="place" v="locality" />
		<tag k="ssr:stedsnr" v="966817" />
	</node>
	<node id="-221066" lat="59.219177778" lon="11.008052782">
>>>>>>> e1d4bc35ff8a6074a6f2e91616a996b547c36f15
		<tag k="name" v="Gullskår" />
		<tag k="place" v="locality" />
		<tag k="ssr:stedsnr" v="845739" />
	</node>
<<<<<<< HEAD
	<node lat="59.158127779340354" lon="11.019847223481058" id="-10802">
		<tag k="name" v="Knubben" />
		<tag k="place" v="locality" />
		<tag k="ssr:stedsnr" v="845697" />
	</node>
	<node lat="59.2376500033766" lon="10.971227785012745" id="-10859">
=======
	<node id="-221065" lat="59.2285388899" lon="11.0010638856">
		<tag k="name" v="Løen" />
		<tag k="place" v="locality" />
		<tag k="ssr:stedsnr" v="845734" />
	</node>
	<node id="-220040" lat="59.2185805518" lon="10.8982944463">
>>>>>>> e1d4bc35ff8a6074a6f2e91616a996b547c36f15
		<tag k="amenity" v="place_of_worship" />
		<tag k="denomination" v="lutheran" />
		<tag k="name" v="Gamle Glemmen kirke" />
		<tag k="religion" v="christian" />
<<<<<<< HEAD
		<tag k="ssr:stedsnr" v="937325" />
	</node>
	<node lat="59.15603055684158" lon="10.911497226374083" id="-10866">
=======
		<tag k="ssr:stedsnr" v="912261" />
	</node>
	<node id="-219910" lat="59.3154972236" lon="10.9402611104">
		<tag k="name" v="Underås" />
		<tag k="place" v="locality" />
		<tag k="ssr:stedsnr" v="724940" />
	</node>
	<node id="-221062" lat="59.1581277793" lon="11.0198472235">
		<tag k="name" v="Knubben" />
		<tag k="place" v="locality" />
		<tag k="ssr:stedsnr" v="845697" />
	</node>
	<node id="-220677" lat="59.2242055561" lon="11.0467972173">
		<tag k="name" v="Borgeli" />
		<tag k="place" v="locality" />
		<tag k="ssr:stedsnr" v="420754" />
	</node>
	<node id="-220162" lat="59.1560305568" lon="10.9114972264">
>>>>>>> e1d4bc35ff8a6074a6f2e91616a996b547c36f15
		<tag k="name" v="Fjelle" />
		<tag k="place" v="locality" />
		<tag k="ssr:stedsnr" v="964419" />
	</node>
<<<<<<< HEAD
	<node lat="59.20520832988488" lon="10.98770278623279" id="-10883">
		<tag k="name" v="Signely" />
		<tag k="place" v="locality" />
		<tag k="ssr:stedsnr" v="966817" />
	</node>
=======
>>>>>>> e1d4bc35ff8a6074a6f2e91616a996b547c36f15
</osm>
