<?xml version="1.0" encoding="UTF-8"?>
<osm generator="osmapis" version="0.6">
	<node id="-206327" lat="59.1900138921" lon="11.0008416631">
		<tag k="name" v="Styggemyr" />
		<tag k="natural" v="wetland" />
		<tag k="ssr:stedsnr" v="238816" />
	</node>
	<node id="-206325" lat="59.2263638882" lon="11.0301194403">
		<tag k="name" v="Prestegårdsskogen" />
		<tag k="place" v="locality" />
		<tag k="ssr:stedsnr" v="238751" />
	</node>
	<node id="-206324" lat="59.2262222188" lon="11.0207500072">
		<tag k="name" v="Hellete" />
		<tag k="place" v="locality" />
		<tag k="ssr:stedsnr" v="238715" />
	</node>
	<node id="-206438" lat="59.2554540016" lon="10.9555315904">
		<tag k="alt_name" v="Langemyr" />
		<tag k="name" v="Stordamsmyra" />
		<tag k="natural" v="wetland" />
		<tag k="ssr:stedsnr" v="185070" />
	</node>
	<node id="-206691" lat="59.2782944441" lon="10.8435916695">
		<tag k="name" v="Skogland" />
		<tag k="place" v="locality" />
		<tag k="ssr:stedsnr" v="663803" />
	</node>
	<node id="-207582" lat="59.1595805527" lon="11.0668277722">
		<tag k="name" v="Orsmyr" />
		<tag k="natural" v="wetland" />
		<tag k="ssr:stedsnr" v="366685" />
	</node>
	<node id="-207708" lat="59.2491111092" lon="10.944011116">
		<tag k="name" v="Veumskogen" />
		<tag k="place" v="locality" />
		<tag k="ssr:stedsnr" v="543857" />
	</node>
	<node id="-206807" lat="59.2765666689" lon="10.929866674">
		<tag k="name" v="Veummyra" />
		<tag k="natural" v="wetland" />
		<tag k="ssr:stedsnr" v="542962" />
	</node>
	<node id="-207051" lat="59.2721527779" lon="10.8512027729">
		<tag k="fixme" v="multiple name tags, choose one and add the other to alt_name" />
		<tag k="name" v="Langemyr;Rostadmyra" />
		<tag k="natural" v="wetland" />
		<tag k="ssr:stedsnr" v="792103" />
	</node>
	<node id="-207687" lat="59.2899444405" lon="10.8245055592">
		<tag k="alt_name" v="Storemyr søndre" />
		<tag k="name" v="Søndre Storemyr" />
		<tag k="natural" v="wetland" />
		<tag k="ssr:stedsnr" v="540138" />
	</node>
	<node id="-206532" lat="59.1858305526" lon="11.0047805637">
		<tag k="name" v="Dalskogen" />
		<tag k="place" v="locality" />
		<tag k="ssr:stedsnr" v="299804" />
	</node>
	<node id="-207043" lat="59.2678416628" lon="10.9379027754">
		<tag k="name" v="Evenrødskogen" />
		<tag k="place" v="locality" />
		<tag k="ssr:stedsnr" v="922767" />
	</node>
	<node id="-207546" lat="59.2327027762" lon="10.8015694479">
		<tag k="name" v="Breidmosen" />
		<tag k="natural" v="wetland" />
		<tag k="ssr:stedsnr" v="365284" />
	</node>
	<node id="-207161" lat="59.2239500044" lon="10.8691500038">
		<tag k="name" v="Dammyr" />
		<tag k="natural" v="wetland" />
		<tag k="ssr:stedsnr" v="1263" />
	</node>
	<node id="-207666" lat="59.1698250038" lon="11.0641222273">
		<tag k="name" v="Moltemyr" />
		<tag k="natural" v="wetland" />
		<tag k="ssr:stedsnr" v="427652" />
	</node>
	<node id="-207664" lat="59.1518472243" lon="11.0598472295">
		<tag k="name" v="Humlekjærmyra" />
		<tag k="natural" v="wetland" />
		<tag k="ssr:stedsnr" v="427643" />
	</node>
	<node id="-207790" lat="59.153780555" lon="10.9130138858">
		<tag k="name" v="Kringle" />
		<tag k="natural" v="wetland" />
		<tag k="ssr:stedsnr" v="602838" />
	</node>
	<node id="-207402" lat="59.2004083335" lon="10.9979305618">
		<tag k="name" v="Regimentsmyra" />
		<tag k="natural" v="wetland" />
		<tag k="ssr:stedsnr" v="177800" />
	</node>
	<node id="-207012" lat="59.2392249977" lon="10.7799750083">
		<tag k="name" v="Elingårdskogen" />
		<tag k="place" v="locality" />
		<tag k="ssr:stedsnr" v="912498" />
	</node>
	<node id="-207792" lat="59.2325194475" lon="11.0276083283">
		<tag k="name" v="Balterødskogen" />
		<tag k="place" v="locality" />
		<tag k="ssr:stedsnr" v="604784" />
	</node>
	<node id="-206874" lat="59.2392805522" lon="11.0093749961">
		<tag k="name" v="Torpelund" />
		<tag k="place" v="locality" />
		<tag k="ssr:stedsnr" v="726883" />
	</node>
	<node id="-207896" lat="59.2927166683" lon="10.8202638952">
		<tag k="alt_name" v="Storemyr nordre" />
		<tag k="name" v="Nordre Storemyr" />
		<tag k="natural" v="wetland" />
		<tag k="ssr:stedsnr" v="783111" />
	</node>
	<node id="-207255" lat="59.1467472257" lon="11.0921694406">
		<tag k="name" v="Sekkemyra" />
		<tag k="natural" v="wetland" />
		<tag k="ssr:stedsnr" v="63655" />
	</node>
	<node id="-207128" lat="59.157305558" lon="11.0288222184">
		<tag k="name" v="Eiemyr" />
		<tag k="natural" v="wetland" />
		<tag k="ssr:stedsnr" v="966672" />
	</node>
	<node id="-207884" lat="59.1950444413" lon="10.9228861111">
		<tag k="name" v="Rødsmyra" />
		<tag k="natural" v="wetland" />
		<tag k="ssr:stedsnr" v="782211" />
	</node>
	<node id="-206487" lat="59.2294166661" lon="11.0451805615">
		<tag k="landuse" v="meadow" />
		<tag k="name" v="Borgenga" />
		<tag k="ssr:stedsnr" v="240771" />
	</node>
	<node id="-207234" lat="59.316819444" lon="10.9479277792">
		<tag k="name" v="Haugeskogen" />
		<tag k="place" v="locality" />
		<tag k="ssr:stedsnr" v="56104" />
	</node>
	<node id="-206977" lat="59.2729500003" lon="10.9088833301">
		<tag k="landuse" v="meadow" />
		<tag k="name" v="Veumenga" />
		<tag k="ssr:stedsnr" v="906840" />
	</node>
</osm>
