<?xml version="1.0" encoding="UTF-8"?>
<osm version="0.6" generator="osmapis">
	<node lat="59.2041222208153" lon="10.741449991578552" id="-9934">
		<tag k="alt_name" v="Hankøkrakk;Hankøkrakken" />
		<tag k="name" v="Hankekrakk" />
		<tag k="natural" v="shoal" />
		<tag k="place" v="locality" />
		<tag k="ssr:stedsnr" v="1297" />
	</node>
	<node lat="59.1350111101196" lon="11.068130558260139" id="-9945">
		<tag k="name" v="Langvikkilen" />
		<tag k="natural" v="bay" />
		<tag k="ssr:stedsnr" v="22411" />
	</node>
	<node lat="59.14037500138025" lon="10.90883889284618" id="-9948">
		<tag k="name" v="Vestre Sauholmen" />
		<tag k="place" v="islet" />
		<tag k="ssr:stedsnr" v="236013" />
	</node>
	<node lat="59.127716670859144" lon="10.945358337769195" id="-9951">
		<tag k="name" v="Putteflaket" />
		<tag k="natural" v="bay" />
		<tag k="ssr:stedsnr" v="236584" />
	</node>
	<node lat="59.1981666626769" lon="10.77141666774704" id="-9953">
		<tag k="name" v="Hankøbukta" />
		<tag k="natural" v="bay" />
		<tag k="ssr:stedsnr" v="237018" />
	</node>
	<node lat="59.22224444105258" lon="10.91504165965452" id="-9954">
		<tag k="name" v="Havnegrunnen" />
		<tag k="natural" v="shoal" />
		<tag k="place" v="locality" />
		<tag k="ssr:stedsnr" v="40996" />
	</node>
	<node lat="59.13590277582401" lon="10.964769437088934" id="-9975">
		<tag k="fixme" v="consider seamark:type=rock or natural=shoal" />
		<tag k="name" v="Belgen" />
		<tag k="place" v="islet" />
		<tag k="ssr:stedsnr" v="54825" />
	</node>
	<node lat="59.14260833642791" lon="10.903038885787828" id="-9976">
		<tag k="name" v="Lille Brattholmen" />
		<tag k="place" v="islet" />
		<tag k="ssr:stedsnr" v="55005" />
	</node>
	<node lat="59.12001944779887" lon="10.940500005614652" id="-9978">
		<tag k="name" v="Granholmsundet" />
		<tag k="natural" v="strait" />
		<tag k="ssr:stedsnr" v="55118" />
	</node>
	<node lat="59.14761944470764" lon="10.989466660507109" id="-9980">
		<tag k="name" v="Løvøykalven" />
		<tag k="place" v="islet" />
		<tag k="ssr:stedsnr" v="55713" />
	</node>
	<node lat="59.13760072574459" lon="10.91862574396627" id="-9982">
		<tag k="name" v="Tyttebærtangen" />
		<tag k="natural" v="cape" />
		<tag k="ssr:stedsnr" v="55807" />
	</node>
	<node lat="59.150205559429715" lon="11.020919440836511" id="-9985">
		<tag k="fixme" v="consider seamark:type=rock or natural=shoal" />
		<tag k="name" v="Skjærskjær" />
		<tag k="place" v="islet" />
		<tag k="ssr:stedsnr" v="56672" />
	</node>
	<node lat="59.17328333499189" lon="10.710638889169747" id="-10003">
		<tag k="name" v="Søndre Missingen" />
		<tag k="place" v="island" />
		<tag k="ssr:stedsnr" v="62090" />
	</node>
	<node lat="59.188247218076626" lon="10.792236117288214" id="-10010">
		<tag k="name" v="Merrapanna" />
		<tag k="natural" v="cape" />
		<tag k="ssr:stedsnr" v="63385" />
	</node>
	<node lat="59.12462221850293" lon="11.085297213304289" id="-10013">
		<tag k="name" v="Munketangen" />
		<tag k="natural" v="cape" />
		<tag k="ssr:stedsnr" v="63725" />
	</node>
	<node lat="59.21232499620598" lon="11.077405554242928" id="-10022">
		<tag k="name" v="Skivikbukta" />
		<tag k="natural" v="bay" />
		<tag k="ssr:stedsnr" v="83019" />
	</node>
	<node lat="59.1750500033767" lon="10.895274991572364" id="-10028">
		<tag k="name" v="Langsomholmen" />
		<tag k="place" v="islet" />
		<tag k="ssr:stedsnr" v="245334" />
	</node>
	<node lat="59.164649995783144" lon="10.885125004487248" id="-10029">
		<tag k="name" v="Måkekollen" />
		<tag k="place" v="islet" />
		<tag k="ssr:stedsnr" v="245652" />
	</node>
	<node lat="59.16417777464297" lon="11.017755563204574" id="-10030">
		<tag k="name" v="Ulvika" />
		<tag k="natural" v="bay" />
		<tag k="ssr:stedsnr" v="245655" />
	</node>
	<node lat="59.1624750042561" lon="10.89250278493352" id="-10031">
		<tag k="name" v="Teiebærholmen" />
		<tag k="place" v="islet" />
		<tag k="ssr:stedsnr" v="245661" />
	</node>
	<node lat="59.155875000305855" lon="10.833424994435054" id="-10032">
		<tag k="name" v="Strømholmen" />
		<tag k="place" v="islet" />
		<tag k="ssr:stedsnr" v="245664" />
	</node>
	<node lat="59.138224996934674" lon="10.999699992967349" id="-10033">
		<tag k="fixme" v="consider seamark:type=rock or natural=shoal" />
		<tag k="name" v="Hasle" />
		<tag k="place" v="islet" />
		<tag k="ssr:stedsnr" v="245691" />
	</node>
	<node lat="59.1428583362085" lon="10.981830551320025" id="-10034">
		<tag k="alt_name" v="Lille Frett" />
		<tag k="fixme" v="consider seamark:type=rock or natural=shoal" />
		<tag k="name" v="Lille Fritt" />
		<tag k="place" v="islet" />
		<tag k="ssr:stedsnr" v="245692" />
	</node>
	<node lat="59.13887221904866" lon="11.033255564102799" id="-10035">
		<tag k="name" v="Torskeskjæra" />
		<tag k="place" v="islet" />
		<tag k="ssr:stedsnr" v="245693" />
	</node>
	<node lat="59.134544442948986" lon="10.935099997692035" id="-10036">
		<tag k="name" v="Håholmen" />
		<tag k="place" v="islet" />
		<tag k="ssr:stedsnr" v="245701" />
	</node>
	<node lat="59.19799166531482" lon="10.900761115352886" id="-10040">
		<tag k="name" v="Nedre Rødsbukta" />
		<tag k="natural" v="bay" />
		<tag k="ssr:stedsnr" v="102203" />
	</node>
	<node lat="59.13280833499862" lon="10.930983332336204" id="-10041">
		<tag k="fixme" v="consider seamark:type=rock or natural=shoal" />
		<tag k="name" v="Bukkholmskjæra" />
		<tag k="place" v="islet" />
		<tag k="ssr:stedsnr" v="115010" />
	</node>
	<node lat="59.102350002677255" lon="10.772094439664604" id="-10045">
		<tag k="name" v="Slepodden" />
		<tag k="natural" v="cape" />
		<tag k="ssr:stedsnr" v="115981" />
	</node>
	<node lat="59.21179721866499" lon="10.782825007339557" id="-10055">
		<tag k="name" v="Husebukta" />
		<tag k="natural" v="bay" />
		<tag k="ssr:stedsnr" v="122313" />
	</node>
	<node lat="59.04973889196587" lon="10.693050001206057" id="-10059">
		<tag k="name" v="Nordre Storegrunn" />
		<tag k="natural" v="shoal" />
		<tag k="place" v="locality" />
		<tag k="ssr:stedsnr" v="123505" />
	</node>
	<node lat="59.19042499902399" lon="10.80012500658155" id="-10062">
		<tag k="alt_name" v="Gjetøya" />
		<tag k="name" v="Geitøya" />
		<tag k="natural" v="cape" />
		<tag k="ssr:stedsnr" v="123402" />
	</node>
	<node lat="59.148272225207286" lon="10.850622225961777" id="-10063">
		<tag k="name" v="Torgautgrunnen" />
		<tag k="natural" v="shoal" />
		<tag k="place" v="locality" />
		<tag k="ssr:stedsnr" v="124572" />
	</node>
	<node lat="59.25956388800025" lon="10.67591388038499" id="-10064">
		<tag k="name" v="Hella" />
		<tag k="natural" v="shoal" />
		<tag k="place" v="locality" />
		<tag k="ssr:stedsnr" v="124600" />
	</node>
	<node lat="59.25407777503986" lon="10.703916661828773" id="-10066">
		<tag k="fixme" v="consider seamark:type=rock or natural=shoal" />
		<tag k="name" v="Veslekalv" />
		<tag k="place" v="islet" />
		<tag k="ssr:stedsnr" v="143438" />
	</node>
	<node lat="59.19537222404138" lon="10.771483339861604" id="-10067">
		<tag k="name" v="Sveholmsund" />
		<tag k="natural" v="strait" />
		<tag k="ssr:stedsnr" v="144826" />
	</node>
	<node lat="59.22191388714293" lon="10.704116673393623" id="-10068">
		<tag k="name" v="Bogribba" />
		<tag k="natural" v="shoal" />
		<tag k="place" v="locality" />
		<tag k="ssr:stedsnr" v="145804" />
	</node>
	<node lat="59.21434721896439" lon="10.754016661965645" id="-10069">
		<tag k="name" v="Hakan" />
		<tag k="natural" v="shoal" />
		<tag k="place" v="locality" />
		<tag k="ssr:stedsnr" v="145812" />
	</node>
	<node lat="59.28587222348315" lon="10.738000007045272" id="-10070">
		<tag k="alt_name" v="Steinane" />
		<tag k="name" v="Steinene" />
		<tag k="place" v="islet" />
		<tag k="ssr:stedsnr" v="145779" />
	</node>
	<node lat="59.18725277437091" lon="10.785994440918584" id="-10074">
		<tag k="fixme" v="consider seamark:type=rock or natural=shoal" />
		<tag k="name" v="Navneskjær" />
		<tag k="place" v="islet" />
		<tag k="ssr:stedsnr" v="176066" />
	</node>
	<node lat="59.218430559082975" lon="10.74424166672253" id="-10077">
		<tag k="name" v="Langholmene" />
		<tag k="place" v="islet" />
		<tag k="ssr:stedsnr" v="176920" />
	</node>
	<node lat="59.2224500002893" lon="10.745975005836375" id="-10087">
		<tag k="name" v="Brattholmen" />
		<tag k="place" v="islet" />
		<tag k="ssr:stedsnr" v="183240" />
	</node>
	<node lat="59.12475000337641" lon="11.081975000140538" id="-10090">
		<tag k="name" v="Stuestall" />
		<tag k="natural" v="bay" />
		<tag k="ssr:stedsnr" v="183692" />
	</node>
	<node lat="59.15834444436012" lon="10.889061111882748" id="-10093">
		<tag k="fixme" v="consider seamark:type=rock or natural=shoal" />
		<tag k="name" v="Sjumannsskjær" />
		<tag k="place" v="islet" />
		<tag k="ssr:stedsnr" v="184633" />
	</node>
	<node lat="59.27285277898141" lon="10.684563881512133" id="-10096">
		<tag k="name" v="Sletterhausen" />
		<tag k="natural" v="shoal" />
		<tag k="place" v="locality" />
		<tag k="ssr:stedsnr" v="185629" />
	</node>
	<node lat="59.191863890234245" lon="10.764611119554319" id="-10104">
		<tag k="name" v="Nordre Garnholmen" />
		<tag k="place" v="islet" />
		<tag k="ssr:stedsnr" v="268849" />
	</node>
	<node lat="59.18400555413645" lon="10.76826666280446" id="-10108">
		<tag k="name" v="Nebba" />
		<tag k="natural" v="shoal" />
		<tag k="place" v="locality" />
		<tag k="ssr:stedsnr" v="271994" />
	</node>
	<node lat="59.179791668722" lon="10.816091660908704" id="-10113">
		<tag k="name" v="Fredrikstadholmen" />
		<tag k="place" v="islet" />
		<tag k="ssr:stedsnr" v="449795" />
	</node>
	<node lat="59.28124722589948" lon="10.74381389208943" id="-10114">
		<tag k="alt_name" v="Gunhildskjær" />
		<tag k="name" v="Gunnhildskjær" />
		<tag k="place" v="islet" />
		<tag k="ssr:stedsnr" v="449758" />
	</node>
	<node lat="59.151588889860875" lon="10.992933338399146" id="-10118">
		<tag k="fixme" v="consider seamark:type=rock or natural=shoal" />
		<tag k="name" v="Løvøyknubben" />
		<tag k="place" v="islet" />
		<tag k="ssr:stedsnr" v="236710" />
	</node>
	<node lat="59.14957222134311" lon="10.97856389311153" id="-10119">
		<tag k="fixme" v="consider seamark:type=rock or natural=shoal" />
		<tag k="name" v="Skjellskjær" />
		<tag k="place" v="islet" />
		<tag k="ssr:stedsnr" v="236713" />
	</node>
	<node lat="59.18033611506636" lon="10.804780557155107" id="-10123">
		<tag k="fixme" v="consider seamark:type=rock or natural=shoal" />
		<tag k="name" v="Gåseskjæra" />
		<tag k="place" v="islet" />
		<tag k="ssr:stedsnr" v="237230" />
	</node>
	<node lat="59.17798611305997" lon="10.815419451798583" id="-10124">
		<tag k="name" v="Rakholmen" />
		<tag k="place" v="islet" />
		<tag k="ssr:stedsnr" v="237200" />
	</node>
	<node lat="59.13880278088963" lon="10.915691667983973" id="-10133">
		<tag k="name" v="Bjørnevågtangen" />
		<tag k="natural" v="cape" />
		<tag k="ssr:stedsnr" v="239886" />
	</node>
	<node lat="59.21937500399064" lon="10.734225004753915" id="-10138">
		<tag k="fixme" v="consider seamark:type=rock or natural=shoal" />
		<tag k="name" v="Skarven" />
		<tag k="place" v="islet" />
		<tag k="ssr:stedsnr" v="244299" />
	</node>
	<node lat="59.19946659693125" lon="10.782977910558813" id="-10144">
		<tag k="name" v="Karibukta" />
		<tag k="natural" v="bay" />
		<tag k="ssr:stedsnr" v="244335" />
	</node>
	<node lat="59.15969999785598" lon="10.897474999585963" id="-10149">
		<tag k="name" v="Tjeldholmen" />
		<tag k="place" v="islet" />
		<tag k="ssr:stedsnr" v="245606" />
	</node>
	<node lat="59.1723999969746" lon="10.973074992865646" id="-10150">
		<tag k="fixme" v="consider seamark:type=rock or natural=shoal" />
		<tag k="name" v="Gullmoen" />
		<tag k="place" v="islet" />
		<tag k="ssr:stedsnr" v="245633" />
	</node>
	<node lat="59.17935832991051" lon="10.997525007301896" id="-10151">
		<tag k="alt_name" v="Persnestangen" />
		<tag k="name" v="Pernestangen" />
		<tag k="natural" v="cape" />
		<tag k="ssr:stedsnr" v="245635" />
	</node>
	<node lat="59.16600832963817" lon="10.804830561025339" id="-10152">
		<tag k="alt_name" v="Kvenneskjær" />
		<tag k="fixme" v="consider seamark:type=rock or natural=shoal" />
		<tag k="name" v="Kverneskjær" />
		<tag k="place" v="islet" />
		<tag k="ssr:stedsnr" v="245644" />
	</node>
	<node lat="59.1684500038878" lon="10.827050000781552" id="-10153">
		<tag k="name" v="Foten" />
		<tag k="natural" v="cape" />
		<tag k="ssr:stedsnr" v="245650" />
	</node>
	<node lat="59.266269445861234" lon="10.677963892049503" id="-10159">
		<tag k="name" v="Nordre Bågrunnen" />
		<tag k="natural" v="shoal" />
		<tag k="place" v="locality" />
		<tag k="ssr:stedsnr" v="246636" />
	</node>
	<node lat="59.24098055174049" lon="10.726830548869554" id="-10160">
		<tag k="name" v="Larshausen" />
		<tag k="natural" v="shoal" />
		<tag k="place" v="locality" />
		<tag k="ssr:stedsnr" v="453798" />
	</node>
	<node lat="59.2095250017341" lon="10.797891668198691" id="-10162">
		<tag k="name" v="Mølen" />
		<tag k="natural" v="cape" />
		<tag k="ssr:stedsnr" v="453994" />
	</node>
	<node lat="59.265247225338435" lon="11.058383334307871" id="-10172">
		<tag k="alt_name" v="Holberget" />
		<tag k="name" v="Vestenodden" />
		<tag k="natural" v="cape" />
		<tag k="ssr:stedsnr" v="285881" />
	</node>
	<node lat="59.132242016044536" lon="10.939301130539222" id="-10175">
		<tag k="alt_name" v="Kubugten" />
		<tag k="name" v="Kubukt" />
		<tag k="natural" v="bay" />
		<tag k="ssr:stedsnr" v="297032" />
	</node>
	<node lat="59.11626388887718" lon="10.98380556391703" id="-10196">
		<tag k="fixme" v="consider seamark:type=rock or natural=shoal" />
		<tag k="name" v="Fugleskjæra" />
		<tag k="place" v="islet" />
		<tag k="ssr:stedsnr" v="304715" />
	</node>
	<node lat="59.21767500360537" lon="10.784825002159458" id="-10198">
		<tag k="name" v="Eriksholmen" />
		<tag k="place" v="islet" />
		<tag k="ssr:stedsnr" v="305317" />
	</node>
	<node lat="59.187841666480814" lon="10.887802783354438" id="-10207">
		<tag k="name" v="Sturødgrunnen" />
		<tag k="natural" v="shoal" />
		<tag k="place" v="locality" />
		<tag k="ssr:stedsnr" v="465361" />
	</node>
	<node lat="59.21507222370109" lon="10.962888883053813" id="-10209">
		<tag k="name" v="Bilettberget" />
		<tag k="natural" v="cape" />
		<tag k="ssr:stedsnr" v="466401" />
	</node>
	<node lat="59.143555556816374" lon="11.112166675173098" id="-10210">
		<tag k="name" v="Løkholmen" />
		<tag k="place" v="islet" />
		<tag k="ssr:stedsnr" v="325418" />
	</node>
	<node lat="59.129169440216586" lon="11.095811114431392" id="-10211">
		<tag k="fixme" v="consider seamark:type=rock or natural=shoal" />
		<tag k="name" v="Tamburskjæra" />
		<tag k="place" v="islet" />
		<tag k="ssr:stedsnr" v="325424" />
	</node>
	<node lat="59.1859749971222" lon="10.771016659247962" id="-10212">
		<tag k="name" v="Søndre Garnholmen" />
		<tag k="place" v="islet" />
		<tag k="ssr:stedsnr" v="328802" />
	</node>
	<node lat="59.215941670991356" lon="10.789755559313498" id="-10213">
		<tag k="name" v="Einerodden" />
		<tag k="natural" v="cape" />
		<tag k="ssr:stedsnr" v="328815" />
	</node>
	<node lat="59.196122225656886" lon="10.806308335742315" id="-10214">
		<tag k="name" v="Buvika" />
		<tag k="natural" v="bay" />
		<tag k="ssr:stedsnr" v="328818" />
	</node>
	<node lat="59.19620277580476" lon="10.897333326398831" id="-10219">
		<tag k="fixme" v="consider seamark:type=rock or natural=shoal" />
		<tag k="name" v="Gyteskjær" />
		<tag k="place" v="islet" />
		<tag k="ssr:stedsnr" v="344176" />
	</node>
	<node lat="59.187977773622116" lon="10.942655559598675" id="-10226">
		<tag k="name" v="Fuglevikbukta" />
		<tag k="natural" v="bay" />
		<tag k="ssr:stedsnr" v="358449" />
	</node>
	<node lat="59.177116666413" lon="10.88353610492299" id="-10228">
		<tag k="alt_name" v="Fuglesundet" />
		<tag k="name" v="Faulesund" />
		<tag k="natural" v="strait" />
		<tag k="ssr:stedsnr" v="358697" />
	</node>
	<node lat="59.157663888238915" lon="10.948458325316397" id="-10231">
		<tag k="name" v="Nøteskjæret" />
		<tag k="natural" v="cape" />
		<tag k="ssr:stedsnr" v="358820" />
	</node>
	<node lat="59.23982777409646" lon="10.713619442958796" id="-10239">
		<tag k="alt_name" v="Rauøyfjorden" />
		<tag k="bay" v="fjord" />
		<tag k="name" v="Rauerfjorden" />
		<tag k="natural" v="bay" />
		<tag k="ssr:stedsnr" v="365004" />
	</node>
	<node lat="59.21076111394238" lon="10.764697224207083" id="-10241">
		<tag k="alt_name" v="Trosvik" />
		<tag k="name" v="Trosvika" />
		<tag k="natural" v="bay" />
		<tag k="ssr:stedsnr" v="365317" />
	</node>
	<node lat="59.20707499751037" lon="10.799144440770103" id="-10244">
		<tag k="name" v="Kallen" />
		<tag k="place" v="islet" />
		<tag k="ssr:stedsnr" v="365297" />
	</node>
	<node lat="59.19542500056502" lon="10.898474993299494" id="-10248">
		<tag k="name" v="Rødsbukta" />
		<tag k="natural" v="bay" />
		<tag k="ssr:stedsnr" v="366328" />
	</node>
	<node lat="59.20000260412502" lon="10.791242227469574" id="-10249">
		<tag k="name" v="Orholmen" />
		<tag k="place" v="islet" />
		<tag k="ssr:stedsnr" v="366341" />
	</node>
	<node lat="59.15432499995349" lon="10.89094999644669" id="-10251">
		<tag k="alt_name" v="Dritaren" />
		<tag k="name" v="Driteren" />
		<tag k="place" v="islet" />
		<tag k="ssr:stedsnr" v="366628" />
	</node>
	<node lat="59.1546000026361" lon="10.979425008421252" id="-10252">
		<tag k="alt_name" v="Sildeholmen" />
		<tag k="name" v="Sildholmen" />
		<tag k="place" v="islet" />
		<tag k="ssr:stedsnr" v="366630" />
	</node>
	<node lat="59.1586583353954" lon="10.97884443772706" id="-10253">
		<tag k="fixme" v="consider seamark:type=rock or natural=shoal" />
		<tag k="name" v="Dueskjær" />
		<tag k="place" v="islet" />
		<tag k="ssr:stedsnr" v="366631" />
	</node>
	<node lat="59.1676250021597" lon="10.91374999671614" id="-10254">
		<tag k="alt_name" v="Goenvad" />
		<tag k="name" v="Gonvad" />
		<tag k="natural" v="bay" />
		<tag k="ssr:stedsnr" v="366678" />
	</node>
	<node lat="59.16719999650577" lon="11.005000000318367" id="-10256">
		<tag k="name" v="Marikova" />
		<tag k="place" v="islet" />
		<tag k="ssr:stedsnr" v="366681" />
	</node>
	<node lat="59.159538892365696" lon="10.826877773896872" id="-10259">
		<tag k="name" v="Langevarp" />
		<tag k="natural" v="bay" />
		<tag k="ssr:stedsnr" v="366687" />
	</node>
	<node lat="59.110519443164016" lon="10.7586305561442" id="-10267">
		<tag k="name" v="Tjørna" />
		<tag k="place" v="islet" />
		<tag k="ssr:stedsnr" v="479430" />
	</node>
	<node lat="59.263861110141264" lon="10.737175004826087" id="-10276">
		<tag k="name" v="Tangen" />
		<tag k="natural" v="cape" />
		<tag k="ssr:stedsnr" v="373811" />
	</node>
	<node lat="59.151169443198555" lon="10.953788892631989" id="-10277">
		<tag k="name" v="Kjøkøygrunnen" />
		<tag k="natural" v="shoal" />
		<tag k="place" v="locality" />
		<tag k="ssr:stedsnr" v="479830" />
	</node>
	<node lat="59.22064166472314" lon="10.75353610760151" id="-10279">
		<tag k="fixme" v="consider seamark:type=rock or natural=shoal" />
		<tag k="name" v="Bjørnen" />
		<tag k="place" v="islet" />
		<tag k="ssr:stedsnr" v="479944" />
	</node>
	<node lat="59.20959999648423" lon="10.789174998850562" id="-10280">
		<tag k="name" v="Herrevika" />
		<tag k="natural" v="bay" />
		<tag k="ssr:stedsnr" v="479991" />
	</node>
	<node lat="59.20180555905981" lon="10.94603333742691" id="-10281">
		<tag k="name" v="Isegranbukta" />
		<tag k="natural" v="bay" />
		<tag k="ssr:stedsnr" v="480436" />
	</node>
	<node lat="59.16829722660664" lon="10.951547216893903" id="-10282">
		<tag k="name" v="Løytnantbukta" />
		<tag k="natural" v="bay" />
		<tag k="ssr:stedsnr" v="481643" />
	</node>
	<node lat="59.1532833307152" lon="11.019349997874416" id="-10285">
		<tag k="fixme" v="consider seamark:type=rock or natural=shoal" />
		<tag k="name" v="Drittskjær" />
		<tag k="place" v="islet" />
		<tag k="ssr:stedsnr" v="481655" />
	</node>
	<node lat="59.25187222588097" lon="10.697933329382828" id="-10288">
		<tag k="name" v="Tjoren" />
		<tag k="place" v="locality" />
		<tag k="seamark:type" v="rock" />
		<tag k="ssr:stedsnr" v="380202" />
	</node>
	<node lat="59.14484166793141" lon="10.90700832723641" id="-10291">
		<tag k="fixme" v="consider seamark:type=rock or natural=shoal" />
		<tag k="name" v="Kaholmskjæra" />
		<tag k="place" v="islet" />
		<tag k="ssr:stedsnr" v="481869" />
	</node>
	<node lat="59.256124998816986" lon="10.64015833801159" id="-10292">
		<tag k="name" v="Nordre Fjelegrunnen" />
		<tag k="natural" v="shoal" />
		<tag k="place" v="locality" />
		<tag k="ssr:stedsnr" v="482193" />
	</node>
	<node lat="59.134661113401" lon="11.053950004017128" id="-10296">
		<tag k="name" v="Kuholmen" />
		<tag k="place" v="islet" />
		<tag k="ssr:stedsnr" v="386410" />
	</node>
	<node lat="59.23054444066438" lon="10.711680548740143" id="-10300">
		<tag k="name" v="Stor Hausen" />
		<tag k="natural" v="shoal" />
		<tag k="place" v="locality" />
		<tag k="ssr:stedsnr" v="388812" />
	</node>
	<node lat="59.21632222453678" lon="10.738172222648972" id="-10307">
		<tag k="fixme" v="consider seamark:type=rock or natural=shoal" />
		<tag k="name" v="Hatten" />
		<tag k="place" v="islet" />
		<tag k="ssr:stedsnr" v="486324" />
	</node>
	<node lat="59.174450000317286" lon="10.814899991877429" id="-10309">
		<tag k="name" v="Bløte" />
		<tag k="place" v="islet" />
		<tag k="ssr:stedsnr" v="486375" />
	</node>
	<node lat="59.18232499557866" lon="11.009000000856986" id="-10311">
		<tag k="name" v="Neskilen" />
		<tag k="natural" v="bay" />
		<tag k="ssr:stedsnr" v="486388" />
	</node>
	<node lat="59.1856249999093" lon="10.876452780982108" id="-10313">
		<tag k="name" v="Vikerkilen" />
		<tag k="natural" v="bay" />
		<tag k="ssr:stedsnr" v="486400" />
	</node>
	<node lat="59.22261944652472" lon="10.70085554941598" id="-10314">
		<tag k="name" v="Bogen" />
		<tag k="natural" v="bay" />
		<tag k="ssr:stedsnr" v="487030" />
	</node>
	<node lat="59.1752750018011" lon="10.956702773200265" id="-10321">
		<tag k="name" v="Alshussundet" />
		<tag k="natural" v="strait" />
		<tag k="ssr:stedsnr" v="487371" />
	</node>
	<node lat="59.18359166665297" lon="10.78034166959204" id="-10322">
		<tag k="fixme" v="consider seamark:type=rock or natural=shoal" />
		<tag k="name" v="Navneskjæra" />
		<tag k="place" v="islet" />
		<tag k="ssr:stedsnr" v="487396" />
	</node>
	<node lat="59.159405555791395" lon="11.10668332683544" id="-10328">
		<tag k="name" v="Sandtangen" />
		<tag k="natural" v="cape" />
		<tag k="ssr:stedsnr" v="418202" />
	</node>
	<node lat="59.216025003420434" lon="10.69303334157258" id="-10330">
		<tag k="name" v="Grisen" />
		<tag k="place" v="locality" />
		<tag k="seamark:type" v="rock" />
		<tag k="ssr:stedsnr" v="419446" />
	</node>
	<node lat="59.16592222066765" lon="10.843680563304117" id="-10332">
		<tag k="name" v="Lundebukta" />
		<tag k="natural" v="bay" />
		<tag k="ssr:stedsnr" v="419685" />
	</node>
	<node lat="59.18107222166034" lon="10.857761112840993" id="-10333">
		<tag k="name" v="Stensvik" />
		<tag k="natural" v="bay" />
		<tag k="ssr:stedsnr" v="419690" />
	</node>
	<node lat="59.17011944474302" lon="10.862330549986604" id="-10335">
		<tag k="name" v="Marnetbåen" />
		<tag k="place" v="locality" />
		<tag k="seamark:type" v="rock" />
		<tag k="ssr:stedsnr" v="420385" />
	</node>
	<node lat="59.17350833022777" lon="10.891386103005773" id="-10336">
		<tag k="name" v="Epleholmen" />
		<tag k="place" v="islet" />
		<tag k="ssr:stedsnr" v="420387" />
	</node>
	<node lat="59.18041426175753" lon="10.809801585566714" id="-10351">
		<tag k="fixme" v="consider seamark:type=rock or natural=shoal" />
		<tag k="name" v="Gåseskjæra" />
		<tag k="place" v="islet" />
		<tag k="ssr:stedsnr" v="426340" />
	</node>
	<node lat="59.11992500056438" lon="11.084050002824267" id="-10355">
		<tag k="name" v="Buskholmen" />
		<tag k="place" v="islet" />
		<tag k="ssr:stedsnr" v="426697" />
	</node>
	<node lat="59.16727500161078" lon="11.008924994795112" id="-10358">
		<tag k="name" v="Marikovsundet" />
		<tag k="natural" v="strait" />
		<tag k="ssr:stedsnr" v="427670" />
	</node>
	<node lat="59.11756389028539" lon="11.096111108378633" id="-10359">
		<tag k="name" v="Galgeholmene" />
		<tag k="place" v="islet" />
		<tag k="ssr:stedsnr" v="427825" />
	</node>
	<node lat="59.14568055844108" lon="11.111952784845355" id="-10365">
		<tag k="name" v="Vestre Furuholmsundet" />
		<tag k="natural" v="strait" />
		<tag k="ssr:stedsnr" v="447383" />
	</node>
	<node lat="59.17804166804874" lon="10.741761112663081" id="-10368">
		<tag k="name" v="Søndre Seihausen" />
		<tag k="natural" v="shoal" />
		<tag k="place" v="locality" />
		<tag k="ssr:stedsnr" v="449780" />
	</node>
	<node lat="59.2333388899451" lon="10.710258336649842" id="-10369">
		<tag k="name" v="Jensekrakken" />
		<tag k="natural" v="shoal" />
		<tag k="place" v="locality" />
		<tag k="ssr:stedsnr" v="449781" />
	</node>
	<node lat="59.22850833615242" lon="10.730622224140987" id="-10370">
		<tag k="alt_name" v="Smaugstangen" />
		<tag k="name" v="Smaustangen" />
		<tag k="natural" v="cape" />
		<tag k="ssr:stedsnr" v="449783" />
	</node>
	<node lat="59.248711111742566" lon="10.723455557132203" id="-10371">
		<tag k="name" v="Skjelrevet" />
		<tag k="natural" v="shoal" />
		<tag k="place" v="locality" />
		<tag k="ssr:stedsnr" v="449789" />
	</node>
	<node lat="59.257397223050766" lon="10.780350006347879" id="-10372">
		<tag k="name" v="Gaustadholmen" />
		<tag k="natural" v="cape" />
		<tag k="ssr:stedsnr" v="453817" />
	</node>
	<node lat="59.1246055583433" lon="10.937055549216531" id="-10392">
		<tag k="name" v="Furuholmen" />
		<tag k="place" v="islet" />
		<tag k="ssr:stedsnr" v="486756" />
	</node>
	<node lat="59.17467499977828" lon="11.005049995877597" id="-10398">
		<tag k="alt_name" v="Ospholmen" />
		<tag k="name" v="Ospeholmen" />
		<tag k="place" v="islet" />
		<tag k="ssr:stedsnr" v="487702" />
	</node>
	<node lat="59.16282500315089" lon="10.805324994545046" id="-10399">
		<tag k="fixme" v="consider seamark:type=rock or natural=shoal" />
		<tag k="name" v="Knappen" />
		<tag k="place" v="islet" />
		<tag k="ssr:stedsnr" v="487723" />
	</node>
	<node lat="59.15687499966372" lon="10.835599992686465" id="-10400">
		<tag k="name" v="Kjerringa" />
		<tag k="place" v="islet" />
		<tag k="ssr:stedsnr" v="487725" />
	</node>
	<node lat="59.1784556748037" lon="10.949005458862551" id="-10401">
		<tag k="alt_name" v="Kalderabukta" />
		<tag k="name" v="Kallerabukta" />
		<tag k="natural" v="bay" />
		<tag k="ssr:stedsnr" v="487701" />
	</node>
	<node lat="59.21250555754051" lon="11.07256944327959" id="-10410">
		<tag k="name" v="Klemmeodden" />
		<tag k="natural" v="cape" />
		<tag k="ssr:stedsnr" v="507013" />
	</node>
	<node lat="59.13409444778526" lon="11.056697223564937" id="-10411">
		<tag k="fixme" v="consider seamark:type=rock or natural=shoal" />
		<tag k="name" v="Båtskjær" />
		<tag k="place" v="islet" />
		<tag k="ssr:stedsnr" v="507412" />
	</node>
	<node lat="59.26519722576547" lon="11.103141666679772" id="-10417">
		<tag k="name" v="Dombergodden" />
		<tag k="natural" v="cape" />
		<tag k="ssr:stedsnr" v="525063" />
	</node>
	<node lat="59.14456110983167" lon="11.008400008545767" id="-10426">
		<tag k="fixme" v="consider seamark:type=rock or natural=shoal" />
		<tag k="name" v="Ramsøyknubben" />
		<tag k="place" v="islet" />
		<tag k="ssr:stedsnr" v="540713" />
	</node>
	<node lat="59.14810000278241" lon="10.949600004582086" id="-10437">
		<tag k="name" v="Tangodden" />
		<tag k="natural" v="cape" />
		<tag k="ssr:stedsnr" v="548660" />
	</node>
	<node lat="59.16964354034744" lon="10.732597414276485" id="-10439">
		<tag k="name" v="Missingskjæra" />
		<tag k="place" v="islet" />
		<tag k="ssr:stedsnr" v="548670" />
	</node>
	<node lat="59.16737500112924" lon="10.888950004919678" id="-10440">
		<tag k="name" v="Oterholmen" />
		<tag k="place" v="islet" />
		<tag k="ssr:stedsnr" v="548677" />
	</node>
	<node lat="59.14589166676231" lon="10.950444436094417" id="-10441">
		<tag k="name" v="Kjøkøya" />
		<tag k="place" v="island" />
		<tag k="ssr:stedsnr" v="548714" />
	</node>
	<node lat="59.1215472178945" lon="10.735897225846475" id="-10442">
		<tag k="name" v="Strutsrevet" />
		<tag k="natural" v="shoal" />
		<tag k="place" v="locality" />
		<tag k="ssr:stedsnr" v="548721" />
	</node>
	<node lat="59.132952773536985" lon="11.033361113723396" id="-10443">
		<tag k="name" v="Bevøya" />
		<tag k="natural" v="cape" />
		<tag k="ssr:stedsnr" v="548723" />
	</node>
	<node lat="59.124136108095726" lon="11.069825002986907" id="-10453">
		<tag k="name" v="Askedalstangen" />
		<tag k="natural" v="cape" />
		<tag k="ssr:stedsnr" v="690456" />
	</node>
	<node lat="59.19355890962658" lon="10.79978816330521" id="-10456">
		<tag k="name" v="Ramsklovbukta" />
		<tag k="natural" v="bay" />
		<tag k="ssr:stedsnr" v="692831" />
	</node>
	<node lat="59.18881388671574" lon="10.77124443984197" id="-10457">
		<tag k="alt_name" v="Mellom Garnholmen" />
		<tag k="name" v="Midtre Garnholmen" />
		<tag k="place" v="islet" />
		<tag k="ssr:stedsnr" v="692850" />
	</node>
	<node lat="59.26230277932499" lon="10.744108325111439" id="-10460">
		<tag k="name" v="Buholmen" />
		<tag k="place" v="islet" />
		<tag k="ssr:stedsnr" v="570814" />
	</node>
	<node lat="59.2769694423101" lon="10.741905555641207" id="-10462">
		<tag k="name" v="Skjeløysundet" />
		<tag k="natural" v="strait" />
		<tag k="ssr:stedsnr" v="570763" />
	</node>
	<node lat="59.18936389254696" lon="10.885033337170775" id="-10463">
		<tag k="name" v="Sturødbukta" />
		<tag k="natural" v="bay" />
		<tag k="ssr:stedsnr" v="586147" />
	</node>
	<node lat="59.15835555604897" lon="10.836924997629113" id="-10467">
		<tag k="name" v="Kjerringholmgrunnen" />
		<tag k="natural" v="shoal" />
		<tag k="place" v="locality" />
		<tag k="ssr:stedsnr" v="599711" />
	</node>
	<node lat="59.18799444177169" lon="10.940380549652637" id="-10468">
		<tag k="name" v="Fuglevikstrand" />
		<tag k="natural" v="beach" />
		<tag k="ssr:stedsnr" v="599819" />
	</node>
	<node lat="59.1483611086689" lon="11.015861119686736" id="-10480">
		<tag k="name" v="Løkholmen" />
		<tag k="natural" v="cape" />
		<tag k="ssr:stedsnr" v="602660" />
	</node>
	<node lat="59.12369722337183" lon="11.037441671892767" id="-10484">
		<tag k="name" v="Bevøyskjæra" />
		<tag k="place" v="islet" />
		<tag k="ssr:stedsnr" v="607692" />
	</node>
	<node lat="59.2139861076851" lon="10.703355553530134" id="-10485">
		<tag k="alt_name" v="Rauøytangen" />
		<tag k="name" v="Rauertangen" />
		<tag k="natural" v="cape" />
		<tag k="ssr:stedsnr" v="608050" />
	</node>
	<node lat="59.24753055403715" lon="10.730999999738152" id="-10492">
		<tag k="name" v="Teineholmen" />
		<tag k="place" v="islet" />
		<tag k="ssr:stedsnr" v="608498" />
	</node>
	<node lat="59.155372221842995" lon="10.956469452255504" id="-10496">
		<tag k="name" v="Flyndregrunnen" />
		<tag k="natural" v="shoal" />
		<tag k="place" v="locality" />
		<tag k="ssr:stedsnr" v="609590" />
	</node>
	<node lat="59.15375000082638" lon="11.005824997060293" id="-10497">
		<tag k="name" v="Tvisle" />
		<tag k="place" v="islet" />
		<tag k="ssr:stedsnr" v="609593" />
	</node>
	<node lat="59.15167500014445" lon="10.805299993514817" id="-10498">
		<tag k="alt_name" v="Svartskjær" />
		<tag k="fixme" v="consider seamark:type=rock or natural=shoal" />
		<tag k="name" v="Brotta" />
		<tag k="place" v="islet" />
		<tag k="ssr:stedsnr" v="609594" />
	</node>
	<node lat="59.16182499642718" lon="10.999250001330786" id="-10499">
		<tag k="name" v="Langholmen" />
		<tag k="place" v="islet" />
		<tag k="ssr:stedsnr" v="609645" />
	</node>
	<node lat="59.140599998174835" lon="10.89087499143693" id="-10500">
		<tag k="name" v="Mule" />
		<tag k="place" v="islet" />
		<tag k="ssr:stedsnr" v="609689" />
	</node>
	<node lat="59.11296389227856" lon="10.756591675043921" id="-10501">
		<tag k="name" v="Tjørna" />
		<tag k="place" v="islet" />
		<tag k="ssr:stedsnr" v="617987" />
	</node>
	<node lat="59.265516670024205" lon="10.724805551887972" id="-10504">
		<tag k="name" v="Sundbåen" />
		<tag k="place" v="locality" />
		<tag k="seamark:type" v="rock" />
		<tag k="ssr:stedsnr" v="631838" />
	</node>
	<node lat="59.20243888602249" lon="10.766069441885502" id="-10506">
		<tag k="name" v="Vadbuktodden" />
		<tag k="natural" v="cape" />
		<tag k="ssr:stedsnr" v="634978" />
	</node>
	<node lat="59.169441666226874" lon="10.713022219941022" id="-10507">
		<tag k="name" v="Ovnskjær" />
		<tag k="place" v="islet" />
		<tag k="ssr:stedsnr" v="634984" />
	</node>
	<node lat="59.25109444504572" lon="10.663761112539053" id="-10508">
		<tag k="name" v="Søre Fjelegrunnen" />
		<tag k="natural" v="shoal" />
		<tag k="place" v="locality" />
		<tag k="ssr:stedsnr" v="634988" />
	</node>
	<node lat="59.17899722282539" lon="10.899355552911572" id="-10515">
		<tag k="name" v="Ølbergtangen" />
		<tag k="natural" v="cape" />
		<tag k="ssr:stedsnr" v="661304" />
	</node>
	<node lat="59.16748889025814" lon="10.860350006134667" id="-10516">
		<tag k="fixme" v="consider seamark:type=rock or natural=shoal" />
		<tag k="name" v="Marnetbåen" />
		<tag k="place" v="islet" />
		<tag k="ssr:stedsnr" v="661334" />
	</node>
	<node lat="59.09223333195522" lon="10.78353055777523" id="-10518">
		<tag k="name" v="Søsternesa" />
		<tag k="natural" v="cape" />
		<tag k="ssr:stedsnr" v="661403" />
	</node>
	<node lat="59.14559166265677" lon="11.024755557149051" id="-10521">
		<tag k="fixme" v="consider seamark:type=rock or natural=shoal" />
		<tag k="name" v="Herreknubben" />
		<tag k="place" v="islet" />
		<tag k="ssr:stedsnr" v="661699" />
	</node>
	<node lat="59.22765000086661" lon="10.767425007895293" id="-10539">
		<tag k="alt_name" v="Hankesundet" />
		<tag k="loc_name" v="Hankøsund" />
		<tag k="name" v="Hankøsundet" />
		<tag k="natural" v="strait" />
		<tag k="ssr:stedsnr" v="668296" />
	</node>
	<node lat="59.182516671152555" lon="11.090091666527462" id="-10540">
		<tag k="name" v="Tosekilen" />
		<tag k="natural" v="bay" />
		<tag k="ssr:stedsnr" v="668387" />
	</node>
	<node lat="59.13333055873638" lon="11.048063885746025" id="-10545">
		<tag k="name" v="Drakentangen" />
		<tag k="natural" v="cape" />
		<tag k="ssr:stedsnr" v="669731" />
	</node>
	<node lat="59.26158055687209" lon="10.728266665567531" id="-10550">
		<tag k="name" v="Risholmen" />
		<tag k="place" v="islet" />
		<tag k="ssr:stedsnr" v="670114" />
	</node>
	<node lat="59.15037500043046" lon="10.88254999582035" id="-10555">
		<tag k="fixme" v="consider seamark:type=rock or natural=shoal" />
		<tag k="name" v="Råholmflua" />
		<tag k="place" v="islet" />
		<tag k="ssr:stedsnr" v="670621" />
	</node>
	<node lat="59.1435049436093" lon="10.967933333265812" id="-10557">
		<tag k="alt_name" v="Kalkestøtta" />
		<tag k="fixme" v="consider seamark:type=rock or natural=shoal" />
		<tag k="name" v="Kalkegrunnen" />
		<tag k="place" v="islet" />
		<tag k="ssr:stedsnr" v="670706" />
	</node>
	<node lat="59.14006110677404" lon="10.903963890676467" id="-10558">
		<tag k="name" v="Brattholmene" />
		<tag k="place" v="islet" />
		<tag k="ssr:stedsnr" v="670712" />
	</node>
	<node lat="59.18138888840507" lon="10.879377773160936" id="-10559">
		<tag k="name" v="Fredrikstadgrunnen" />
		<tag k="natural" v="shoal" />
		<tag k="place" v="locality" />
		<tag k="ssr:stedsnr" v="890352" />
	</node>
	<node lat="59.21581110957891" lon="11.06740832709201" id="-10562">
		<tag k="name" v="Vispen badeplass" />
		<tag k="natural" v="beach" />
		<tag k="ssr:stedsnr" v="690526" />
	</node>
	<node lat="59.175463889045965" lon="10.785719445323076" id="-10565">
		<tag k="name" v="Ostekrakk" />
		<tag k="natural" v="shoal" />
		<tag k="place" v="locality" />
		<tag k="ssr:stedsnr" v="692825" />
	</node>
	<node lat="59.276038889593266" lon="10.726983328693366" id="-10566">
		<tag k="alt_name" v="Ølberen" />
		<tag k="name" v="Ølbern" />
		<tag k="place" v="islet" />
		<tag k="ssr:stedsnr" v="692774" />
	</node>
	<node lat="59.243855553356305" lon="10.73521111966127" id="-10567">
		<tag k="name" v="Flåtavika" />
		<tag k="natural" v="bay" />
		<tag k="ssr:stedsnr" v="695770" />
	</node>
	<node lat="59.14802222239335" lon="10.944394450411583" id="-10571">
		<tag k="name" v="Sandbukta" />
		<tag k="natural" v="bay" />
		<tag k="ssr:stedsnr" v="722844" />
	</node>
	<node lat="59.183883329501334" lon="10.953344445241123" id="-10572">
		<tag k="name" v="Janbukta" />
		<tag k="natural" v="bay" />
		<tag k="ssr:stedsnr" v="723506" />
	</node>
	<node lat="59.13829444597947" lon="10.909930559589496" id="-10593">
		<tag k="name" v="Store Sauholmen" />
		<tag k="place" v="islet" />
		<tag k="ssr:stedsnr" v="731708" />
	</node>
	<node lat="59.15674444446603" lon="11.108477772001145" id="-10595">
		<tag k="name" v="Knarrvikskjær" />
		<tag k="natural" v="cape" />
		<tag k="ssr:stedsnr" v="903185" />
	</node>
	<node lat="59.110627775172624" lon="10.760541664149553" id="-10603">
		<tag k="name" v="Tjørnebukta" />
		<tag k="natural" v="bay" />
		<tag k="ssr:stedsnr" v="904424" />
	</node>
	<node lat="59.11332500293729" lon="10.764452776552421" id="-10605">
		<tag k="name" v="Skuffen" />
		<tag k="natural" v="bay" />
		<tag k="ssr:stedsnr" v="904430" />
	</node>
	<node lat="59.12199999747107" lon="10.956844450537002" id="-10612">
		<tag k="name" v="Risholmene" />
		<tag k="place" v="islet" />
		<tag k="ssr:stedsnr" v="904578" />
	</node>
	<node lat="59.17086389003533" lon="10.894161109644568" id="-10613">
		<tag k="fixme" v="consider seamark:type=rock or natural=shoal" />
		<tag k="name" v="Skogsholmskjær" />
		<tag k="place" v="islet" />
		<tag k="ssr:stedsnr" v="904632" />
	</node>
	<node lat="59.19760555366554" lon="10.784372215278292" id="-10615">
		<tag k="name" v="Kariholmen" />
		<tag k="place" v="islet" />
		<tag k="ssr:stedsnr" v="752807" />
	</node>
	<node lat="59.20829722312296" lon="10.789680556140809" id="-10616">
		<tag k="fixme" v="multiple name tags, choose one and add the other to alt_name" />
		<tag k="name" v="Pølsesund;Herviksundet" />
		<tag k="natural" v="strait" />
		<tag k="ssr:stedsnr" v="752819" />
	</node>
	<node lat="59.26213333589155" lon="10.715974992825716" id="-10620">
		<tag k="name" v="Skredderen" />
		<tag k="natural" v="shoal" />
		<tag k="place" v="locality" />
		<tag k="ssr:stedsnr" v="756896" />
	</node>
	<node lat="59.25689444768385" lon="10.72892778418186" id="-10621">
		<tag k="name" v="Sandbukta" />
		<tag k="natural" v="bay" />
		<tag k="ssr:stedsnr" v="756901" />
	</node>
	<node lat="59.198622221810396" lon="10.895875006838594" id="-10629">
		<tag k="name" v="Krossnespynten" />
		<tag k="natural" v="cape" />
		<tag k="ssr:stedsnr" v="769149" />
	</node>
	<node lat="59.20155278035165" lon="10.798211104984677" id="-10638">
		<tag k="name" v="Rørvik" />
		<tag k="natural" v="bay" />
		<tag k="ssr:stedsnr" v="783016" />
	</node>
	<node lat="59.14593055520895" lon="10.976972224446257" id="-10644">
		<tag k="fixme" v="consider seamark:type=rock or natural=shoal" />
		<tag k="name" v="Belgeskjær" />
		<tag k="place" v="islet" />
		<tag k="ssr:stedsnr" v="783748" />
	</node>
	<node lat="59.16453333701014" lon="10.965869437009221" id="-10650">
		<tag k="fixme" v="consider seamark:type=rock or natural=shoal" />
		<tag k="name" v="Tuppeskjæret" />
		<tag k="place" v="islet" />
		<tag k="ssr:stedsnr" v="784665" />
	</node>
	<node lat="59.18538610954545" lon="10.860711103863048" id="-10668">
		<tag k="name" v="Fjellskilen" />
		<tag k="natural" v="bay" />
		<tag k="ssr:stedsnr" v="911389" />
	</node>
	<node lat="59.234300002693715" lon="10.763141662756466" id="-10670">
		<tag k="alt_name" v="Letretangen;Lærtretangen" />
		<tag k="name" v="Lettretangen" />
		<tag k="natural" v="cape" />
		<tag k="ssr:stedsnr" v="790246" />
	</node>
	<node lat="59.17669782633322" lon="10.882215370056858" id="-10678">
		<tag k="alt_name" v="Enhusholmen" />
		<tag k="name" v="Glufsa" />
		<tag k="place" v="islet" />
		<tag k="ssr:stedsnr" v="791329" />
	</node>
	<node lat="59.149749999947296" lon="10.90037500773093" id="-10679">
		<tag k="alt_name" v="Femdalsundet" />
		<tag k="name" v="Femdalssundet" />
		<tag k="natural" v="strait" />
		<tag k="ssr:stedsnr" v="791640" />
	</node>
	<node lat="59.13739722563786" lon="11.069349994173153" id="-10682">
		<tag k="name" v="Langvik" />
		<tag k="natural" v="bay" />
		<tag k="ssr:stedsnr" v="791718" />
	</node>
	<node lat="59.23123567961305" lon="10.692820644074766" id="-10684">
		<tag k="alt_name" v="Rauøy" />
		<tag k="name" v="Rauer" />
		<tag k="place" v="island" />
		<tag k="ssr:stedsnr" v="912023" />
	</node>
	<node lat="59.20317499797478" lon="10.794349999292471" id="-10687">
		<tag k="name" v="Løkholmen" />
		<tag k="place" v="islet" />
		<tag k="ssr:stedsnr" v="912296" />
	</node>
	<node lat="59.20972499968417" lon="10.742524991555978" id="-10688">
		<tag k="alt_name" v="Gurikrakken" />
		<tag k="name" v="Gurikrakk" />
		<tag k="natural" v="shoal" />
		<tag k="place" v="locality" />
		<tag k="ssr:stedsnr" v="912301" />
	</node>
	<node lat="59.171850000360095" lon="10.826825002451464" id="-10699">
		<tag k="name" v="Helleskilen" />
		<tag k="natural" v="bay" />
		<tag k="ssr:stedsnr" v="912684" />
	</node>
	<node lat="59.16120000145574" lon="10.946624994390174" id="-10704">
		<tag k="name" v="Futerødbukta" />
		<tag k="natural" v="bay" />
		<tag k="ssr:stedsnr" v="913596" />
	</node>
	<node lat="59.15470019897259" lon="10.80600081327881" id="-10706">
		<tag k="fixme" v="consider seamark:type=rock or natural=shoal" />
		<tag k="name" v="Svartskjær" />
		<tag k="place" v="islet" />
		<tag k="ssr:stedsnr" v="913602" />
	</node>
	<node lat="59.1908777811568" lon="10.747172222564473" id="-10717">
		<tag k="name" v="Nordre Seihausen" />
		<tag k="natural" v="shoal" />
		<tag k="place" v="locality" />
		<tag k="ssr:stedsnr" v="817985" />
	</node>
	<node lat="59.132755556990496" lon="10.952461115840832" id="-10721">
		<tag k="name" v="Ekebukt" />
		<tag k="natural" v="bay" />
		<tag k="ssr:stedsnr" v="843831" />
	</node>
	<node lat="59.16574721987276" lon="10.90918611111847" id="-10727">
		<tag k="fixme" v="consider seamark:type=rock or natural=shoal" />
		<tag k="name" v="Oksetangskjæra" />
		<tag k="place" v="islet" />
		<tag k="ssr:stedsnr" v="844686" />
	</node>
	<node lat="59.148494446393876" lon="11.013736119564461" id="-10731">
		<tag k="name" v="Ramsøybåsen" />
		<tag k="natural" v="bay" />
		<tag k="ssr:stedsnr" v="845703" />
	</node>
	<node lat="59.12486944816007" lon="10.957741666272868" id="-10738">
		<tag k="name" v="Lille Risholmen" />
		<tag k="place" v="islet" />
		<tag k="ssr:stedsnr" v="849986" />
	</node>
	<node lat="59.1543611152738" lon="10.710491669785192" id="-10739">
		<tag k="name" v="Skjolden" />
		<tag k="natural" v="shoal" />
		<tag k="place" v="locality" />
		<tag k="ssr:stedsnr" v="851108" />
	</node>
	<node lat="59.193563098433394" lon="10.807007961231992" id="-10741">
		<tag k="name" v="Slevikkilen" />
		<tag k="natural" v="bay" />
		<tag k="ssr:stedsnr" v="851314" />
	</node>
	<node lat="59.157697218893624" lon="10.997608326814222" id="-10745">
		<tag k="alt_name" v="Grønnskjær" />
		<tag k="fixme" v="consider seamark:type=rock or natural=shoal" />
		<tag k="name" v="Grønneskjæret" />
		<tag k="place" v="islet" />
		<tag k="ssr:stedsnr" v="852613" />
	</node>
	<node lat="59.15223610998163" lon="10.891488882491268" id="-10747">
		<tag k="name" v="Store Råholmen" />
		<tag k="place" v="islet" />
		<tag k="ssr:stedsnr" v="852621" />
	</node>
	<node lat="59.14694166792324" lon="10.945258336618647" id="-10748">
		<tag k="name" v="Kjøkøysundet" />
		<tag k="natural" v="strait" />
		<tag k="ssr:stedsnr" v="852625" />
	</node>
	<node lat="59.16109999962662" lon="10.721172221437323" id="-10750">
		<tag k="name" v="Tyta" />
		<tag k="natural" v="shoal" />
		<tag k="place" v="locality" />
		<tag k="ssr:stedsnr" v="852658" />
	</node>
	<node lat="59.18822499818846" lon="10.807647229281816" id="-10751">
		<tag k="name" v="Sauholmen" />
		<tag k="place" v="islet" />
		<tag k="ssr:stedsnr" v="852372" />
	</node>
	<node lat="59.1260861113442" lon="11.06868888802908" id="-10755">
		<tag k="name" v="Den blå sten" />
		<tag k="natural" v="cape" />
		<tag k="ssr:stedsnr" v="904162" />
	</node>
	<node lat="59.16366111282218" lon="10.90070834198461" id="-10756">
		<tag k="alt_name" v="Mempil" />
		<tag k="name" v="Bempilen" />
		<tag k="place" v="islet" />
		<tag k="ssr:stedsnr" v="904403" />
	</node>
	<node lat="59.161041662545216" lon="10.96815277119326" id="-10758">
		<tag k="fixme" v="consider seamark:type=rock or natural=shoal" />
		<tag k="name" v="Tuppa" />
		<tag k="place" v="islet" />
		<tag k="ssr:stedsnr" v="904718" />
	</node>
	<node lat="59.179633329464416" lon="10.872297220179563" id="-10759">
		<tag k="fixme" v="consider seamark:type=rock or natural=shoal" />
		<tag k="name" v="Gåsungene" />
		<tag k="place" v="islet" />
		<tag k="ssr:stedsnr" v="904654" />
	</node>
	<node lat="59.14524166325249" lon="10.89549166819861" id="-10761">
		<tag k="fixme" v="consider seamark:type=rock or natural=shoal" />
		<tag k="name" v="Håkaskjær" />
		<tag k="place" v="islet" />
		<tag k="ssr:stedsnr" v="906853" />
	</node>
	<node lat="59.16878055805673" lon="10.736516667946976" id="-10763">
		<tag k="fixme" v="consider seamark:type=rock or natural=shoal" />
		<tag k="name" v="Lågeskjeret" />
		<tag k="place" v="islet" />
		<tag k="ssr:stedsnr" v="907165" />
	</node>
	<node lat="59.182102777054624" lon="10.963569450028984" id="-10768">
		<tag k="name" v="Øra" />
		<tag k="natural" v="cape" />
		<tag k="ssr:stedsnr" v="911375" />
	</node>
	<node lat="59.22672500152236" lon="10.748013887278816" id="-10769">
		<tag k="name" v="Småholmene" />
		<tag k="place" v="islet" />
		<tag k="ssr:stedsnr" v="911277" />
	</node>
	<node lat="59.1242694404292" lon="11.058147215176719" id="-10770">
		<tag k="fixme" v="consider seamark:type=rock or natural=shoal" />
		<tag k="name" v="Terneskjær" />
		<tag k="place" v="islet" />
		<tag k="ssr:stedsnr" v="911705" />
	</node>
	<node lat="59.2155388852263" lon="10.770216667105071" id="-10771">
		<tag k="alt_name" v="Hanke" />
		<tag k="name" v="Hankø" />
		<tag k="place" v="island" />
		<tag k="ssr:stedsnr" v="912311" />
	</node>
	<node lat="59.21432500163225" lon="10.78942222099934" id="-10772">
		<tag k="alt_name" v="Furuøy" />
		<tag k="name" v="Furuholmen" />
		<tag k="place" v="islet" />
		<tag k="ssr:stedsnr" v="912315" />
	</node>
	<node lat="59.136149995482256" lon="11.008950007365994" id="-10782">
		<tag k="name" v="Møkkalassa" />
		<tag k="place" v="islet" />
		<tag k="ssr:stedsnr" v="912724" />
	</node>
	<node lat="59.25795833388602" lon="10.783688889104859" id="-10787">
		<tag k="name" v="Elingårdskilen" />
		<tag k="natural" v="bay" />
		<tag k="ssr:stedsnr" v="913113" />
	</node>
	<node lat="59.25699166252565" lon="10.741894439889949" id="-10788">
		<tag k="name" v="Sundet" />
		<tag k="natural" v="bay" />
		<tag k="ssr:stedsnr" v="913116" />
	</node>
	<node lat="59.154199999383366" lon="10.82778055768794" id="-10790">
		<tag k="alt_name" v="Strømmen" />
		<tag k="name" v="Strømsund" />
		<tag k="natural" v="strait" />
		<tag k="ssr:stedsnr" v="913606" />
	</node>
	<node lat="59.278361114780886" lon="10.715116659475317" id="-10791">
		<tag k="fixme" v="consider seamark:type=rock or natural=shoal" />
		<tag k="name" v="Rødskjær" />
		<tag k="place" v="islet" />
		<tag k="ssr:stedsnr" v="913613" />
	</node>
	<node lat="59.14234999942183" lon="10.896849992503133" id="-10792">
		<tag k="name" v="Skogholmen" />
		<tag k="place" v="islet" />
		<tag k="ssr:stedsnr" v="913704" />
	</node>
	<node lat="59.21011388729612" lon="10.743502783175183" id="-10797">
		<tag k="name" v="Åspekrakk" />
		<tag k="natural" v="shoal" />
		<tag k="place" v="locality" />
		<tag k="ssr:stedsnr" v="934791" />
	</node>
	<node lat="59.171883335276696" lon="10.739883330608006" id="-10798">
		<tag k="name" v="Storegrunnen" />
		<tag k="natural" v="shoal" />
		<tag k="place" v="locality" />
		<tag k="ssr:stedsnr" v="935805" />
	</node>
	<node lat="59.222986108959375" lon="10.773238887476248" id="-10799">
		<tag k="name" v="Gjallarnes" />
		<tag k="natural" v="cape" />
		<tag k="ssr:stedsnr" v="935809" />
	</node>
	<node lat="59.21062777946725" lon="10.781169451018393" id="-10800">
		<tag k="name" v="Varmbadbukta" />
		<tag k="natural" v="bay" />
		<tag k="ssr:stedsnr" v="935833" />
	</node>
	<node lat="59.19369166576473" lon="10.793986105860057" id="-10801">
		<tag k="name" v="Sand" />
		<tag k="place" v="locality" />
		<tag k="ssr:stedsnr" v="935834" />
	</node>
	<node lat="59.179286114065754" lon="10.875044437969517" id="-10802">
		<tag k="name" v="Nordre Kråkebåen" />
		<tag k="place" v="locality" />
		<tag k="seamark:type" v="rock" />
		<tag k="ssr:stedsnr" v="950341" />
	</node>
	<node lat="59.206230555652596" lon="10.89943056285694" id="-10804">
		<tag k="name" v="Kjerringholmsundet" />
		<tag k="natural" v="strait" />
		<tag k="ssr:stedsnr" v="952943" />
	</node>
	<node lat="59.17361666322341" lon="10.898041665086682" id="-10808">
		<tag k="name" v="Sauholmen" />
		<tag k="place" v="islet" />
		<tag k="ssr:stedsnr" v="964338" />
	</node>
	<node lat="59.11004166626975" lon="10.982449997153992" id="-10811">
		<tag k="fixme" v="consider seamark:type=rock or natural=shoal" />
		<tag k="name" v="Fugleskjæra" />
		<tag k="place" v="islet" />
		<tag k="ssr:stedsnr" v="964592" />
	</node>
	<node lat="59.20836666578014" lon="10.794102779296674" id="-10812">
		<tag k="fixme" v="consider seamark:type=rock or natural=shoal" />
		<tag k="name" v="Pølseskjær" />
		<tag k="place" v="islet" />
		<tag k="ssr:stedsnr" v="965117" />
	</node>
	<node lat="59.17441111474979" lon="10.945122223314703" id="-10815">
		<tag k="name" v="Alshusbukta" />
		<tag k="natural" v="bay" />
		<tag k="ssr:stedsnr" v="965293" />
	</node>
	<node lat="59.16136110879769" lon="10.973033333526825" id="-10816">
		<tag k="fixme" v="consider seamark:type=rock or natural=shoal" />
		<tag k="name" v="Lureskjær" />
		<tag k="place" v="islet" />
		<tag k="ssr:stedsnr" v="965739" />
	</node>
	<node lat="59.14796389177751" lon="10.90106111751993" id="-10821">
		<tag k="name" v="Tjuvebukta" />
		<tag k="natural" v="bay" />
		<tag k="ssr:stedsnr" v="967812" />
	</node>
	<node lat="59.16013537879237" lon="10.810008115591087" id="-10850">
		<tag k="name" v="Fanterenna" />
		<tag k="natural" v="strait" />
		<tag k="ssr:stedsnr" v="986433" />
	</node>
	<node lat="59.1931101521287" lon="10.788862596308013" id="-10852">
		<tag k="name" v="Bjørnhausen" />
		<tag k="natural" v="shoal" />
		<tag k="place" v="locality" />
		<tag k="ssr:stedsnr" v="986441" />
	</node>
	<node lat="59.25387944446663" lon="10.73581191332712" id="-10854">
		<tag k="name" v="Bukta" />
		<tag k="natural" v="bay" />
		<tag k="ssr:stedsnr" v="986484" />
	</node>
	<node lat="59.12221906599584" lon="11.031842690224678" id="-10855">
		<tag k="fixme" v="consider seamark:type=rock or natural=shoal" />
		<tag k="name" v="Bevøyskjærbåen" />
		<tag k="place" v="islet" />
		<tag k="ssr:stedsnr" v="989698" />
	</node>
	<node lat="59.229772220897516" lon="10.762480549718019" id="-10859">
		<tag k="name" v="Nordkapp" />
		<tag k="natural" v="cape" />
		<tag k="ssr:stedsnr" v="1281" />
	</node>
	<node lat="59.18081389161367" lon="10.790402779062033" id="-10860">
		<tag k="alt_name" v="Dekningsskjær" />
		<tag k="fixme" v="consider seamark:type=rock or natural=shoal" />
		<tag k="name" v="Dekneskjær" />
		<tag k="place" v="islet" />
		<tag k="ssr:stedsnr" v="1347" />
	</node>
	<node lat="59.17357499659188" lon="10.792211103152276" id="-10861">
		<tag k="fixme" v="consider seamark:type=rock or natural=shoal" />
		<tag k="name" v="Svarteskjær" />
		<tag k="place" v="islet" />
		<tag k="ssr:stedsnr" v="1350" />
	</node>
	<node lat="59.178930553071005" lon="10.798616662480251" id="-10862">
		<tag k="alt_name" v="Soffieskjær" />
		<tag k="fixme" v="consider seamark:type=rock or natural=shoal" />
		<tag k="name" v="Sofiskjær" />
		<tag k="place" v="islet" />
		<tag k="ssr:stedsnr" v="1351" />
	</node>
	<node lat="59.09763611088151" lon="10.697575005561363" id="-10864">
		<tag k="name" v="Høka" />
		<tag k="natural" v="shoal" />
		<tag k="place" v="locality" />
		<tag k="ssr:stedsnr" v="1438" />
	</node>
	<node lat="59.167350003870595" lon="10.787397226433015" id="-10865">
		<tag k="alt_name" v="Lyngholmflaket" />
		<tag k="name" v="Lyngholmflakket" />
		<tag k="natural" v="shoal" />
		<tag k="place" v="locality" />
		<tag k="ssr:stedsnr" v="2675" />
	</node>
	<node lat="59.17059999577914" lon="10.847250001587103" id="-10866">
		<tag k="name" v="Øyenkilen" />
		<tag k="natural" v="bay" />
		<tag k="ssr:stedsnr" v="2677" />
	</node>
	<node lat="59.1657500013995" lon="10.897022218812918" id="-10867">
		<tag k="name" v="Burholmen" />
		<tag k="place" v="islet" />
		<tag k="ssr:stedsnr" v="2678" />
	</node>
	<node lat="59.164000001135875" lon="10.981613880502143" id="-10868">
		<tag k="name" v="Hestholmen" />
		<tag k="place" v="islet" />
		<tag k="ssr:stedsnr" v="2681" />
	</node>
	<node lat="59.19977500202567" lon="10.756861117705395" id="-10869">
		<tag k="fixme" v="consider seamark:type=rock or natural=shoal" />
		<tag k="name" v="Gåseskjæra" />
		<tag k="place" v="islet" />
		<tag k="ssr:stedsnr" v="2353" />
	</node>
	<node lat="59.18012499754357" lon="10.896174999962929" id="-10870">
		<tag k="name" v="Enhuskilen" />
		<tag k="natural" v="bay" />
		<tag k="ssr:stedsnr" v="2370" />
	</node>
	<node lat="59.147276338226966" lon="10.970842792244486" id="-10874">
		<tag k="fixme" v="multiple name tags, choose one and add the other to alt_name; consider seamark:type=rock or natural=shoal" />
		<tag k="name" v="Lille Belgen;Svartskjær" />
		<tag k="place" v="islet" />
		<tag k="ssr:stedsnr" v="2663" />
	</node>
	<node lat="59.16056433540905" lon="10.828881564801591" id="-10875">
		<tag k="fixme" v="multiple name tags, choose one and add the other to alt_name" />
		<tag k="name" v="Torgauten;Torgautøyene" />
		<tag k="place" v="island" />
		<tag k="ssr:stedsnr" v="2686" />
	</node>
	<node lat="59.24737500344358" lon="10.704525002085614" id="-10891">
		<tag k="name" v="Kalvsgrunnen" />
		<tag k="natural" v="shoal" />
		<tag k="place" v="locality" />
		<tag k="ssr:stedsnr" v="24819" />
	</node>
	<node lat="59.245916669149025" lon="10.733530552828318" id="-10892">
		<tag k="fixme" v="consider seamark:type=rock or natural=shoal" />
		<tag k="name" v="Båtskjær" />
		<tag k="place" v="islet" />
		<tag k="ssr:stedsnr" v="24822" />
	</node>
	<node lat="59.14258333468095" lon="11.107552779264882" id="-10900">
		<tag k="name" v="Plassebukta" />
		<tag k="natural" v="bay" />
		<tag k="ssr:stedsnr" v="54147" />
	</node>
	<node lat="59.1292777784502" lon="10.93817500124574" id="-10905">
		<tag k="name" v="Puttesundet" />
		<tag k="natural" v="strait" />
		<tag k="ssr:stedsnr" v="55028" />
	</node>
	<node lat="59.110524998974086" lon="10.765513891098141" id="-10909">
		<tag k="name" v="Søstrene" />
		<tag k="place" v="island" />
		<tag k="ssr:stedsnr" v="57284" />
	</node>
	<node lat="59.11072777594299" lon="10.765155548642936" id="-10920">
		<tag k="name" v="Nordre Søster" />
		<tag k="place" v="island" />
		<tag k="ssr:stedsnr" v="62699" />
	</node>
	<node lat="59.0638555586532" lon="10.750697227340899" id="-10923">
		<tag k="name" v="Fjellknausene" />
		<tag k="natural" v="shoal" />
		<tag k="place" v="locality" />
		<tag k="ssr:stedsnr" v="62528" />
	</node>
	<node lat="59.121733336392914" lon="10.988716670746044" id="-10924">
		<tag k="name" v="Fugleskjærgrunnen" />
		<tag k="natural" v="shoal" />
		<tag k="place" v="locality" />
		<tag k="ssr:stedsnr" v="62751" />
	</node>
	<node lat="59.1536249999089" lon="10.996799995220238" id="-10926">
		<tag k="alt_name" v="Fårenøt" />
		<tag k="fixme" v="consider seamark:type=rock or natural=shoal" />
		<tag k="name" v="Fårenot" />
		<tag k="place" v="islet" />
		<tag k="ssr:stedsnr" v="63634" />
	</node>
	<node lat="59.16771388832672" lon="10.872783332900603" id="-10927">
		<tag k="alt_name" v="Leira" />
		<tag k="name" v="Lera" />
		<tag k="natural" v="bay" />
		<tag k="ssr:stedsnr" v="63652" />
	</node>
	<node lat="59.144399999730524" lon="11.028674997804846" id="-10929">
		<tag k="alt_name" v="Rødmann" />
		<tag k="fixme" v="consider seamark:type=rock or natural=shoal" />
		<tag k="name" v="Rødmannen" />
		<tag k="place" v="islet" />
		<tag k="ssr:stedsnr" v="63656" />
	</node>
	<node lat="59.130241668274635" lon="11.059483329513442" id="-10931">
		<tag k="fixme" v="consider seamark:type=rock or natural=shoal" />
		<tag k="name" v="Langvikskjæret" />
		<tag k="place" v="islet" />
		<tag k="ssr:stedsnr" v="63733" />
	</node>
	<node lat="59.08706388745749" lon="10.751461107140418" id="-10946">
		<tag k="name" v="Lille Høka" />
		<tag k="natural" v="shoal" />
		<tag k="place" v="locality" />
		<tag k="ssr:stedsnr" v="86060" />
	</node>
	<node lat="59.24795000157762" lon="10.700080560914445" id="-10948">
		<tag k="fixme" v="multiple name tags, choose one and add the other to alt_name" />
		<tag k="name" v="Merra;Kalvbukta" />
		<tag k="natural" v="bay" />
		<tag k="ssr:stedsnr" v="89785" />
	</node>
	<node lat="59.12998055795771" lon="10.940469446891187" id="-10953">
		<tag k="alt_name" v="Cuba" />
		<tag k="name" v="Puttholmen" />
		<tag k="place" v="islet" />
		<tag k="ssr:stedsnr" v="115030" />
	</node>
	<node lat="59.18034166853623" lon="10.948697223430703" id="-10956">
		<tag k="name" v="Kalleraodden" />
		<tag k="natural" v="cape" />
		<tag k="ssr:stedsnr" v="115466" />
	</node>
	<node lat="59.16827499612901" lon="10.90903054741157" id="-10958">
		<tag k="name" v="Strålsundtangen" />
		<tag k="natural" v="cape" />
		<tag k="ssr:stedsnr" v="115629" />
	</node>
	<node lat="59.18002270433968" lon="10.883982282716596" id="-10959">
		<tag k="alt_name" v="Palebukta" />
		<tag k="name" v="Pålebukta" />
		<tag k="natural" v="bay" />
		<tag k="ssr:stedsnr" v="115640" />
	</node>
	<node lat="59.122038885167186" lon="10.936963889142076" id="-10961">
		<tag k="name" v="Gren" />
		<tag k="natural" v="bay" />
		<tag k="ssr:stedsnr" v="115867" />
	</node>
	<node lat="59.22222499771914" lon="10.779727781309898" id="-10980">
		<tag k="name" v="Hovsvikene" />
		<tag k="natural" v="bay" />
		<tag k="ssr:stedsnr" v="122274" />
	</node>
	<node lat="59.195549997218826" lon="10.768449994387266" id="-10988">
		<tag k="name" v="Sveholmen" />
		<tag k="place" v="islet" />
		<tag k="ssr:stedsnr" v="123357" />
	</node>
	<node lat="59.16085000411353" lon="10.889749993017263" id="-10994">
		<tag k="alt_name" v="Tvileten;Tvelettene" />
		<tag k="name" v="Tveletten" />
		<tag k="place" v="islet" />
		<tag k="ssr:stedsnr" v="123673" />
	</node>
	<node lat="59.15469999632397" lon="10.972452784367936" id="-10995">
		<tag k="name" v="Grøtholmen" />
		<tag k="place" v="islet" />
		<tag k="ssr:stedsnr" v="123677" />
	</node>
	<node lat="59.09891666237624" lon="10.778219436181312" id="-10996">
		<tag k="name" v="Søndre Søster" />
		<tag k="place" v="island" />
		<tag k="ssr:stedsnr" v="123738" />
	</node>
	<node lat="59.14557500340885" lon="10.897574993213029" id="-11004">
		<tag k="name" v="Klovholmen" />
		<tag k="place" v="islet" />
		<tag k="ssr:stedsnr" v="124580" />
	</node>
	<node lat="59.147499999745236" lon="11.032750000124162" id="-11005">
		<tag k="fixme" v="consider seamark:type=rock or natural=shoal" />
		<tag k="name" v="Knubben" />
		<tag k="place" v="islet" />
		<tag k="ssr:stedsnr" v="124582" />
	</node>
	<node lat="59.14934999636704" lon="10.986425008156884" id="-11006">
		<tag k="name" v="Løvøy" />
		<tag k="place" v="island" />
		<tag k="ssr:stedsnr" v="124583" />
	</node>
	<node lat="59.16404721918181" lon="11.100197217194417" id="-11010">
		<tag k="name" v="Orebukta" />
		<tag k="natural" v="bay" />
		<tag k="ssr:stedsnr" v="143422" />
	</node>
	<node lat="59.26763611143242" lon="10.719272213634321" id="-11014">
		<tag k="name" v="Krakken" />
		<tag k="natural" v="shoal" />
		<tag k="place" v="locality" />
		<tag k="ssr:stedsnr" v="149787" />
	</node>
	<node lat="59.28114444530854" lon="10.71660554849163" id="-11015">
		<tag k="name" v="Rødskjærrabben" />
		<tag k="place" v="locality" />
		<tag k="seamark:type" v="rock" />
		<tag k="ssr:stedsnr" v="149889" />
	</node>
	<node lat="59.218936110612574" lon="10.710822227317456" id="-11016">
		<tag k="name" v="Skogkrakken" />
		<tag k="natural" v="shoal" />
		<tag k="place" v="locality" />
		<tag k="ssr:stedsnr" v="149972" />
	</node>
	<node lat="59.163472218305806" lon="10.828591661136189" id="-11017">
		<tag k="name" v="Veoren" />
		<tag k="natural" v="cape" />
		<tag k="ssr:stedsnr" v="149976" />
	</node>
	<node lat="59.18209166394548" lon="10.798427785251711" id="-11018">
		<tag k="alt_name" v="Steinsholmen" />
		<tag k="name" v="Stensholmen" />
		<tag k="place" v="island" />
		<tag k="ssr:stedsnr" v="149993" />
	</node>
	<node lat="59.15200277397047" lon="11.037497221995196" id="-11024">
		<tag k="name" v="Tokholmen" />
		<tag k="natural" v="cape" />
		<tag k="ssr:stedsnr" v="175095" />
	</node>
	<node lat="59.183039476410976" lon="10.99799069966027" id="-11025">
		<tag k="alt_name" v="Persnes" />
		<tag k="name" v="Pernes" />
		<tag k="natural" v="cape" />
		<tag k="ssr:stedsnr" v="175220" />
	</node>
	<node lat="59.26006944566395" lon="10.729636116812348" id="-11026">
		<tag k="name" v="Vadsund" />
		<tag k="natural" v="strait" />
		<tag k="ssr:stedsnr" v="175289" />
	</node>
	<node lat="59.13055000341617" lon="10.936097215582217" id="-11028">
		<tag k="name" v="Hestholmen" />
		<tag k="place" v="islet" />
		<tag k="ssr:stedsnr" v="176025" />
	</node>
	<node lat="59.13962016980255" lon="10.90389210004655" id="-11029">
		<tag k="name" v="Store Brattholmen" />
		<tag k="place" v="islet" />
		<tag k="ssr:stedsnr" v="176131" />
	</node>
	<node lat="59.11417777325242" lon="10.758505563488566" id="-11030">
		<tag k="name" v="Nordhavn" />
		<tag k="natural" v="bay" />
		<tag k="ssr:stedsnr" v="176398" />
	</node>
	<node lat="59.170666670143085" lon="10.887238889417826" id="-11032">
		<tag k="fixme" v="consider seamark:type=rock or natural=shoal" />
		<tag k="name" v="Teneskjær" />
		<tag k="place" v="islet" />
		<tag k="ssr:stedsnr" v="176639" />
	</node>
	<node lat="59.15961666701287" lon="10.947063896588215" id="-11033">
		<tag k="name" v="Sjøbergbukta" />
		<tag k="natural" v="bay" />
		<tag k="ssr:stedsnr" v="176736" />
	</node>
	<node lat="59.15721944318516" lon="11.037161110057799" id="-11038">
		<tag k="name" v="Roppestadholmen" />
		<tag k="natural" v="cape" />
		<tag k="ssr:stedsnr" v="177686" />
	</node>
	<node lat="59.190200251823164" lon="10.7672752870746" id="-11056">
		<tag k="name" v="Garnholmene" />
		<tag k="place" v="islet" />
		<tag k="ssr:stedsnr" v="184312" />
	</node>
	<node lat="59.153840343237185" lon="11.034401784819389" id="-11058">
		<tag k="alt_name" v="Ødegårdskilen" />
		<tag k="name" v="Øgårdskilen" />
		<tag k="natural" v="bay" />
		<tag k="ssr:stedsnr" v="184643" />
	</node>
	<node lat="59.18893611220134" lon="10.796725006839372" id="-11060">
		<tag k="alt_name" v="Kjelholmen" />
		<tag k="name" v="Tjeldholmen" />
		<tag k="place" v="islet" />
		<tag k="ssr:stedsnr" v="184375" />
	</node>
	<node lat="59.1304250027818" lon="10.931975003187317" id="-11062">
		<tag k="name" v="Rispeholmen" />
		<tag k="place" v="islet" />
		<tag k="ssr:stedsnr" v="184722" />
	</node>
	<node lat="59.14892500300683" lon="10.915399992736427" id="-11065">
		<tag k="name" v="Bjørnevågkilen" />
		<tag k="natural" v="bay" />
		<tag k="ssr:stedsnr" v="184654" />
	</node>
	<node lat="59.169316671083834" lon="10.81366388070974" id="-11066">
		<tag k="fixme" v="consider seamark:type=rock or natural=shoal" />
		<tag k="name" v="Luseskjær" />
		<tag k="place" v="islet" />
		<tag k="ssr:stedsnr" v="184669" />
	</node>
	<node lat="59.1700249969116" lon="10.901699993784527" id="-11067">
		<tag k="name" v="Poseholmen" />
		<tag k="place" v="islet" />
		<tag k="ssr:stedsnr" v="184671" />
	</node>
	<node lat="59.171083329949234" lon="10.994083326075401" id="-11068">
		<tag k="fixme" v="consider seamark:type=rock or natural=shoal" />
		<tag k="name" v="Gåseskjær" />
		<tag k="place" v="islet" />
		<tag k="ssr:stedsnr" v="184676" />
	</node>
	<node lat="59.13910000205178" lon="10.982066672167361" id="-11074">
		<tag k="alt_name" v="Store Frett" />
		<tag k="fixme" v="consider seamark:type=rock or natural=shoal" />
		<tag k="name" v="Store Fritt" />
		<tag k="place" v="islet" />
		<tag k="ssr:stedsnr" v="185689" />
	</node>
	<node lat="59.13717777681035" lon="10.913155559581938" id="-11075">
		<tag k="name" v="Lille Sauholmen" />
		<tag k="place" v="islet" />
		<tag k="ssr:stedsnr" v="185695" />
	</node>
	<node lat="59.212269447560935" lon="11.075961107289322" id="-11078">
		<tag k="name" v="Sarabadet" />
		<tag k="natural" v="beach" />
		<tag k="ssr:stedsnr" v="204012" />
	</node>
	<node lat="59.23244166260391" lon="10.741972216345731" id="-11082">
		<tag k="alt_name" v="Sandvika" />
		<tag k="name" v="Storesandvik" />
		<tag k="natural" v="bay" />
		<tag k="ssr:stedsnr" v="206803" />
	</node>
	<node lat="59.17853332930497" lon="10.778894435990582" id="-11084">
		<tag k="name" v="Navneskjærgrunnene" />
		<tag k="natural" v="shoal" />
		<tag k="place" v="locality" />
		<tag k="ssr:stedsnr" v="210984" />
	</node>
	<node lat="59.17875833353923" lon="10.868208325820666" id="-11086">
		<tag k="name" v="Faratangen" />
		<tag k="natural" v="cape" />
		<tag k="ssr:stedsnr" v="283296" />
	</node>
	<node lat="59.163050003060604" lon="10.904125008608842" id="-11099">
		<tag k="name" v="Enebærholmen" />
		<tag k="place" v="islet" />
		<tag k="ssr:stedsnr" v="297403" />
	</node>
	<node lat="59.144275002731696" lon="10.869858341552288" id="-11100">
		<tag k="fixme" v="consider seamark:type=rock or natural=shoal" />
		<tag k="name" v="Stangeskjærbåen" />
		<tag k="place" v="islet" />
		<tag k="ssr:stedsnr" v="296688" />
	</node>
	<node lat="59.14408333183895" lon="10.899780554136385" id="-11101">
		<tag k="name" v="Brattholmen" />
		<tag k="place" v="islet" />
		<tag k="ssr:stedsnr" v="297002" />
	</node>
	<node lat="59.1376083322428" lon="10.923455556312042" id="-11102">
		<tag k="name" v="Kalkkilen" />
		<tag k="natural" v="bay" />
		<tag k="ssr:stedsnr" v="297010" />
	</node>
	<node lat="59.273530553925525" lon="10.729966663264614" id="-11106">
		<tag k="name" v="Langebog" />
		<tag k="natural" v="bay" />
		<tag k="ssr:stedsnr" v="297183" />
	</node>
	<node lat="59.09620277925428" lon="10.782322215474085" id="-11110">
		<tag k="name" v="Gjørvika" />
		<tag k="natural" v="bay" />
		<tag k="ssr:stedsnr" v="297417" />
	</node>
	<node lat="59.16498611512003" lon="10.834830552835411" id="-11112">
		<tag k="name" v="Hubukta" />
		<tag k="natural" v="bay" />
		<tag k="ssr:stedsnr" v="297669" />
	</node>
	<node lat="59.16506388654694" lon="10.880372219892195" id="-11114">
		<tag k="name" v="Måkekollflu" />
		<tag k="place" v="locality" />
		<tag k="seamark:type" v="rock" />
		<tag k="ssr:stedsnr" v="297817" />
	</node>
	<node lat="59.21230833692083" lon="10.911961109388992" id="-11118">
		<tag k="name" v="Åsgårdsøra" />
		<tag k="natural" v="shoal" />
		<tag k="place" v="locality" />
		<tag k="ssr:stedsnr" v="299038" />
	</node>
	<node lat="59.14840555775727" lon="10.899791665390241" id="-11123">
		<tag k="name" v="Gastgiveren" />
		<tag k="natural" v="cape" />
		<tag k="ssr:stedsnr" v="299838" />
	</node>
	<node lat="59.23543169329266" lon="10.753092891741385" id="-11136">
		<tag k="fixme" v="multiple name tags, choose one and add the other to alt_name" />
		<tag k="name" v="Grunnvika;Stokkevika" />
		<tag k="natural" v="bay" />
		<tag k="ssr:stedsnr" v="304263" />
	</node>
	<node lat="59.18061453507383" lon="10.803155285973641" id="-11138">
		<tag k="name" v="Stensholmene" />
		<tag k="place" v="islet" />
		<tag k="ssr:stedsnr" v="304358" />
	</node>
	<node lat="59.16895698977086" lon="10.729343196760478" id="-11140">
		<tag k="fixme" v="consider seamark:type=rock or natural=shoal" />
		<tag k="name" v="Rundeskjær" />
		<tag k="place" v="islet" />
		<tag k="ssr:stedsnr" v="305691" />
	</node>
	<node lat="59.197474999091746" lon="10.763149992854084" id="-11145">
		<tag k="fixme" v="consider seamark:type=rock or natural=shoal" />
		<tag k="name" v="Svartetangen" />
		<tag k="place" v="islet" />
		<tag k="ssr:stedsnr" v="305337" />
	</node>
	<node lat="59.12904999553315" lon="11.034150000870683" id="-11147">
		<tag k="name" v="Bevøytangen" />
		<tag k="natural" v="cape" />
		<tag k="ssr:stedsnr" v="305742" />
	</node>
	<node lat="59.27435402167159" lon="10.733368994023564" id="-11149">
		<tag k="alt_name" v="Skjeløya" />
		<tag k="name" v="Skjeløy" />
		<tag k="place" v="island" />
		<tag k="ssr:stedsnr" v="306375" />
	</node>
	<node lat="59.1528222266027" lon="10.794649996990863" id="-11152">
		<tag k="name" v="Skårekrakk" />
		<tag k="natural" v="shoal" />
		<tag k="place" v="locality" />
		<tag k="ssr:stedsnr" v="306583" />
	</node>
	<node lat="59.15507500304846" lon="10.815183332799394" id="-11153">
		<tag k="fixme" v="consider seamark:type=rock or natural=shoal" />
		<tag k="name" v="Olaskjæret" />
		<tag k="place" v="islet" />
		<tag k="ssr:stedsnr" v="306594" />
	</node>
	<node lat="59.116552775150275" lon="10.651405553858803" id="-11162">
		<tag k="name" v="Riergrunnene" />
		<tag k="natural" v="shoal" />
		<tag k="place" v="locality" />
		<tag k="ssr:stedsnr" v="327741" />
	</node>
	<node lat="59.17847222459827" lon="10.711550003784849" id="-11163">
		<tag k="name" v="Skatet" />
		<tag k="natural" v="shoal" />
		<tag k="place" v="locality" />
		<tag k="ssr:stedsnr" v="327783" />
	</node>
	<node lat="59.1700138892037" lon="10.735616671929927" id="-11164">
		<tag k="fixme" v="consider seamark:type=rock or natural=shoal" />
		<tag k="name" v="Lave Skjæret" />
		<tag k="place" v="islet" />
		<tag k="ssr:stedsnr" v="328627" />
	</node>
	<node lat="59.244669442140136" lon="10.689311105330493" id="-11165">
		<tag k="name" v="Møkkalassodden" />
		<tag k="natural" v="cape" />
		<tag k="ssr:stedsnr" v="328794" />
	</node>
	<node lat="59.23494166838797" lon="10.70514166270237" id="-11166">
		<tag k="alt_name" v="Kjelsbergtangen" />
		<tag k="name" v="Fjellsbergtangen" />
		<tag k="natural" v="cape" />
		<tag k="ssr:stedsnr" v="331805" />
	</node>
	<node lat="59.20782500223623" lon="10.715602769410689" id="-11167">
		<tag k="name" v="Storegrunnen" />
		<tag k="natural" v="shoal" />
		<tag k="place" v="locality" />
		<tag k="ssr:stedsnr" v="331981" />
	</node>
	<node lat="59.195627779217176" lon="10.776430557229776" id="-11168">
		<tag k="name" v="Hatten" />
		<tag k="natural" v="cape" />
		<tag k="ssr:stedsnr" v="331985" />
	</node>
	<node lat="59.269761114546355" lon="11.09468333100352" id="-11169">
		<tag k="name" v="Hustangen" />
		<tag k="natural" v="cape" />
		<tag k="ssr:stedsnr" v="343185" />
	</node>
	<node lat="59.204944446869995" lon="10.903247219838676" id="-11170">
		<tag k="name" v="Hutholmsundet" />
		<tag k="natural" v="strait" />
		<tag k="ssr:stedsnr" v="345933" />
	</node>
	<node lat="59.208486110434684" lon="10.897508331978838" id="-11171">
		<tag k="name" v="Ålebukta" />
		<tag k="natural" v="bay" />
		<tag k="ssr:stedsnr" v="345938" />
	</node>
	<node lat="59.115813889756836" lon="11.015327775887439" id="-11179">
		<tag k="name" v="Ramsøyhakket" />
		<tag k="natural" v="bay" />
		<tag k="ssr:stedsnr" v="357594" />
	</node>
	<node lat="59.190783333070485" lon="10.893127778260801" id="-11194">
		<tag k="fixme" v="consider seamark:type=rock or natural=shoal" />
		<tag k="name" v="Treskjær" />
		<tag k="place" v="islet" />
		<tag k="ssr:stedsnr" v="360157" />
	</node>
	<node lat="59.13833611018362" lon="10.936836116818398" id="-11201">
		<tag k="name" v="Vraketangen" />
		<tag k="natural" v="cape" />
		<tag k="ssr:stedsnr" v="360848" />
	</node>
	<node lat="59.214972223183594" lon="10.636341670814504" id="-11205">
		<tag k="bay" v="fjord" />
		<tag k="name" v="Oslofjorden" />
		<tag k="natural" v="bay" />
		<tag k="ssr:stedsnr" v="365030" />
	</node>
	<node lat="59.23134722153553" lon="10.742949993733943" id="-11208">
		<tag k="alt_name" v="Hakan" />
		<tag k="name" v="Risholmsundet" />
		<tag k="natural" v="strait" />
		<tag k="ssr:stedsnr" v="365287" />
	</node>
	<node lat="59.18082499617527" lon="10.888125006098308" id="-11210">
		<tag k="name" v="Langøya" />
		<tag k="natural" v="cape" />
		<tag k="ssr:stedsnr" v="365353" />
	</node>
	<node lat="59.17392499614746" lon="10.858208340976825" id="-11211">
		<tag k="name" v="Marnetvika" />
		<tag k="natural" v="bay" />
		<tag k="ssr:stedsnr" v="365373" />
	</node>
	<node lat="59.181691666448735" lon="10.92378054685894" id="-11212">
		<tag k="name" v="Kråkerøy" />
		<tag k="place" v="island" />
		<tag k="ssr:stedsnr" v="365375" />
	</node>
	<node lat="59.18324999962231" lon="10.981824994136925" id="-11213">
		<tag k="name" v="Gansrødbukta" />
		<tag k="natural" v="bay" />
		<tag k="ssr:stedsnr" v="365376" />
	</node>
	<node lat="59.257580556502624" lon="10.735658328232327" id="-11216">
		<tag k="alt_name" v="Engalsvikøya" />
		<tag k="name" v="Engelsvikøya" />
		<tag k="place" v="island" />
		<tag k="ssr:stedsnr" v="367100" />
	</node>
	<node lat="59.11801944735759" lon="11.015702777534734" id="-11217">
		<tag k="name" v="Humlekjær-Ramsøy" />
		<tag k="old_name" v="Humlekjær" />
		<tag k="place" v="island" />
		<tag k="ssr:stedsnr" v="365764" />
	</node>
	<node lat="59.171311294608216" lon="10.732678907471529" id="-11226">
		<tag k="fixme" v="consider seamark:type=rock or natural=shoal" />
		<tag k="name" v="Storeskjær" />
		<tag k="place" v="islet" />
		<tag k="ssr:stedsnr" v="366667" />
	</node>
	<node lat="59.26322777390328" lon="10.694391664144593" id="-11230">
		<tag k="fixme" v="consider seamark:type=rock or natural=shoal" />
		<tag k="name" v="Svartebåene" />
		<tag k="place" v="islet" />
		<tag k="ssr:stedsnr" v="367636" />
	</node>
	<node lat="59.1796361136627" lon="10.807872216496712" id="-11233">
		<tag k="fixme" v="consider seamark:type=rock or natural=shoal" />
		<tag k="name" v="Lille Gåseskjær" />
		<tag k="place" v="islet" />
		<tag k="ssr:stedsnr" v="387827" />
	</node>
	<node lat="59.206761112046195" lon="10.804930560490881" id="-11235">
		<tag k="alt_name" v="Stellausbukta" />
		<tag k="name" v="Stellaugsbukta" />
		<tag k="natural" v="bay" />
		<tag k="ssr:stedsnr" v="388801" />
	</node>
	<node lat="59.12893333269246" lon="10.94320832822133" id="-11247">
		<tag k="name" v="Kaninholmen" />
		<tag k="place" v="islet" />
		<tag k="ssr:stedsnr" v="418599" />
	</node>
	<node lat="59.17438055347997" lon="10.887636103328456" id="-11249">
		<tag k="name" v="Rødholmen" />
		<tag k="place" v="islet" />
		<tag k="ssr:stedsnr" v="419655" />
	</node>
	<node lat="59.16068610863007" lon="10.97553056311465" id="-11254">
		<tag k="name" v="Tareholmen" />
		<tag k="place" v="islet" />
		<tag k="ssr:stedsnr" v="419748" />
	</node>
	<node lat="59.2242527745273" lon="10.75673611823385" id="-11255">
		<tag k="fixme" v="consider seamark:type=rock or natural=shoal" />
		<tag k="name" v="Galten" />
		<tag k="place" v="islet" />
		<tag k="ssr:stedsnr" v="419955" />
	</node>
	<node lat="59.164055559300174" lon="11.015263897264894" id="-11261">
		<tag k="name" v="Småtangen" />
		<tag k="natural" v="cape" />
		<tag k="ssr:stedsnr" v="420670" />
	</node>
	<node lat="59.127500002843085" lon="11.109475006038497" id="-11273">
		<tag k="name" v="Tosekalven" />
		<tag k="place" v="island" />
		<tag k="ssr:stedsnr" v="426764" />
	</node>
	<node lat="59.13629040429799" lon="11.05904375346382" id="-11274">
		<tag k="fixme" v="multiple name tags, choose one and add the other to alt_name" />
		<tag k="name" v="Brevik;Brevikbukta" />
		<tag k="natural" v="bay" />
		<tag k="ssr:stedsnr" v="427692" />
	</node>
	<node lat="59.15966111443253" lon="11.001305555001114" id="-11276">
		<tag k="alt_name" v="Namnløs" />
		<tag k="fixme" v="consider seamark:type=rock or natural=shoal" />
		<tag k="name" v="Navnløs" />
		<tag k="place" v="islet" />
		<tag k="ssr:stedsnr" v="427629" />
	</node>
	<node lat="59.17575555516996" lon="10.820216671517413" id="-11280">
		<tag k="alt_name" v="Djupeklov" />
		<tag k="name" v="Dypeklov" />
		<tag k="natural" v="bay" />
		<tag k="ssr:stedsnr" v="427656" />
	</node>
	<node lat="59.16690288430795" lon="10.827540837799944" id="-11281">
		<tag k="name" v="Dragsund" />
		<tag k="natural" v="strait" />
		<tag k="ssr:stedsnr" v="427657" />
	</node>
	<node lat="59.17032499735389" lon="10.907150003211871" id="-11282">
		<tag k="name" v="Hellekilen" />
		<tag k="natural" v="bay" />
		<tag k="ssr:stedsnr" v="427663" />
	</node>
	<node lat="59.15114722012768" lon="11.006650004103177" id="-11291">
		<tag k="name" v="Ramsøysundet" />
		<tag k="natural" v="strait" />
		<tag k="ssr:stedsnr" v="670630" />
	</node>
	<node lat="59.125758334182464" lon="10.898411109936866" id="-11292">
		<tag k="name" v="Blinda" />
		<tag k="natural" v="shoal" />
		<tag k="place" v="locality" />
		<tag k="ssr:stedsnr" v="670660" />
	</node>
	<node lat="59.160175002426676" lon="11.112424995426093" id="-11294">
		<tag k="alt_name" v="Hammaren" />
		<tag k="name" v="Hammeren" />
		<tag k="place" v="islet" />
		<tag k="ssr:stedsnr" v="670796" />
	</node>
	<node lat="59.23876666229826" lon="10.732097219487876" id="-11296">
		<tag k="name" v="Garntangen" />
		<tag k="natural" v="cape" />
		<tag k="ssr:stedsnr" v="510836" />
	</node>
	<node lat="59.242050003631846" lon="10.764380558964161" id="-11297">
		<tag k="alt_name" v="Møskevika" />
		<tag k="name" v="Møskevik" />
		<tag k="natural" v="bay" />
		<tag k="ssr:stedsnr" v="510842" />
	</node>
	<node lat="59.11473055198186" lon="10.744033329870673" id="-11299">
		<tag k="alt_name" v="Struteskjær" />
		<tag k="fixme" v="consider seamark:type=rock or natural=shoal" />
		<tag k="name" v="Strutskjær" />
		<tag k="place" v="islet" />
		<tag k="ssr:stedsnr" v="510342" />
	</node>
	<node lat="59.25340833340679" lon="10.69519443984894" id="-11300">
		<tag k="name" v="Guttormskrakken" />
		<tag k="natural" v="shoal" />
		<tag k="place" v="locality" />
		<tag k="ssr:stedsnr" v="513896" />
	</node>
	<node lat="59.19876944553177" lon="10.898630551357389" id="-11302">
		<tag k="name" v="Gyteskjærgrunnen" />
		<tag k="natural" v="shoal" />
		<tag k="place" v="locality" />
		<tag k="ssr:stedsnr" v="526175" />
	</node>
	<node lat="59.175280558903225" lon="10.863136115737394" id="-11303">
		<tag k="name" v="Kilegrunnen" />
		<tag k="natural" v="shoal" />
		<tag k="place" v="locality" />
		<tag k="ssr:stedsnr" v="526355" />
	</node>
	<node lat="59.165227776029624" lon="10.899344439055326" id="-11318">
		<tag k="fixme" v="consider seamark:type=rock or natural=shoal" />
		<tag k="name" v="Bursholmskjæret" />
		<tag k="place" v="islet" />
		<tag k="ssr:stedsnr" v="540652" />
	</node>
	<node lat="59.157233332393034" lon="10.890575000787496" id="-11323">
		<tag k="fixme" v="consider seamark:type=rock or natural=shoal" />
		<tag k="name" v="Rødstruten" />
		<tag k="place" v="islet" />
		<tag k="ssr:stedsnr" v="542832" />
	</node>
	<node lat="59.15565833561708" lon="10.901891670798017" id="-11326">
		<tag k="name" v="Labukta" />
		<tag k="natural" v="bay" />
		<tag k="ssr:stedsnr" v="542838" />
	</node>
	<node lat="59.151027776866485" lon="10.908366660100176" id="-11327">
		<tag k="name" v="Sandbukta" />
		<tag k="natural" v="bay" />
		<tag k="ssr:stedsnr" v="542839" />
	</node>
	<node lat="59.17792500317655" lon="10.877000001262193" id="-11337">
		<tag k="name" v="Kråka" />
		<tag k="place" v="islet" />
		<tag k="ssr:stedsnr" v="547378" />
	</node>
	<node lat="59.118422219634574" lon="10.942949992982381" id="-11341">
		<tag k="name" v="Granholmen" />
		<tag k="place" v="islet" />
		<tag k="ssr:stedsnr" v="547779" />
	</node>
	<node lat="59.24510000209346" lon="10.77216944886569" id="-11343">
		<tag k="alt_name" v="Døvika" />
		<tag k="name" v="Døvik" />
		<tag k="natural" v="bay" />
		<tag k="ssr:stedsnr" v="548477" />
	</node>
	<node lat="59.15887154772926" lon="10.90443146632037" id="-11345">
		<tag k="name" v="Randholmen" />
		<tag k="natural" v="cape" />
		<tag k="ssr:stedsnr" v="548626" />
	</node>
	<node lat="59.158049999306314" lon="10.967874993395023" id="-11346">
		<tag k="name" v="Rognholmen" />
		<tag k="place" v="islet" />
		<tag k="ssr:stedsnr" v="548630" />
	</node>
	<node lat="59.15184999751672" lon="11.02632499393613" id="-11347">
		<tag k="name" v="Herretangen" />
		<tag k="natural" v="cape" />
		<tag k="ssr:stedsnr" v="548635" />
	</node>
	<node lat="59.15180833589245" lon="11.013669451613909" id="-11348">
		<tag k="name" v="Nes-Ramsøy" />
		<tag k="place" v="island" />
		<tag k="ssr:stedsnr" v="548638" />
	</node>
	<node lat="59.147822220813325" lon="10.893483328066973" id="-11349">
		<tag k="name" v="Lille Råholmen" />
		<tag k="place" v="islet" />
		<tag k="ssr:stedsnr" v="548650" />
	</node>
	<node lat="59.13933611145022" lon="10.889097227841006" id="-11357">
		<tag k="fixme" v="consider seamark:type=rock or natural=shoal" />
		<tag k="name" v="Stangeskjær" />
		<tag k="place" v="islet" />
		<tag k="ssr:stedsnr" v="558129" />
	</node>
	<node lat="59.113188887612864" lon="10.743955552892439" id="-11359">
		<tag k="name" v="Brottet" />
		<tag k="natural" v="shoal" />
		<tag k="place" v="locality" />
		<tag k="ssr:stedsnr" v="570298" />
	</node>
	<node lat="59.20156111364261" lon="10.750155551603774" id="-11360">
		<tag k="name" v="Gåseskjærbåen" />
		<tag k="place" v="locality" />
		<tag k="seamark:type" v="rock" />
		<tag k="ssr:stedsnr" v="570799" />
	</node>
	<node lat="59.23787499670796" lon="10.759949991257136" id="-11362">
		<tag k="alt_name" v="Buvika" />
		<tag k="name" v="Buvik" />
		<tag k="natural" v="bay" />
		<tag k="ssr:stedsnr" v="574837" />
	</node>
	<node lat="59.218111113161" lon="10.753636116207458" id="-11363">
		<tag k="name" v="Tjuvtangen" />
		<tag k="natural" v="cape" />
		<tag k="ssr:stedsnr" v="574985" />
	</node>
	<node lat="59.27030060534775" lon="11.094374663518282" id="-11364">
		<tag k="name" v="Amtmannsgrunnen" />
		<tag k="natural" v="shoal" />
		<tag k="place" v="locality" />
		<tag k="ssr:stedsnr" v="585175" />
	</node>
	<node lat="59.176741663450485" lon="10.873505554956406" id="-11366">
		<tag k="name" v="Søre Kråkebåen" />
		<tag k="place" v="locality" />
		<tag k="seamark:type" v="rock" />
		<tag k="ssr:stedsnr" v="586361" />
	</node>
	<node lat="59.139211110490464" lon="11.10458333920973" id="-11371">
		<tag k="name" v="Den dype tangen" />
		<tag k="natural" v="cape" />
		<tag k="ssr:stedsnr" v="600159" />
	</node>
	<node lat="59.21258055397871" lon="10.736375004447684" id="-11379">
		<tag k="fixme" v="consider seamark:type=rock or natural=shoal" />
		<tag k="name" v="Flateguri" />
		<tag k="place" v="islet" />
		<tag k="ssr:stedsnr" v="600942" />
	</node>
	<node lat="59.17762778166648" lon="10.966097227440555" id="-11380">
		<tag k="name" v="Øraspissen" />
		<tag k="natural" v="cape" />
		<tag k="ssr:stedsnr" v="601501" />
	</node>
	<node lat="59.17813611471185" lon="10.812383341397712" id="-11393">
		<tag k="fixme" v="consider seamark:type=rock or natural=shoal" />
		<tag k="name" v="Rakeskjæra" />
		<tag k="place" v="islet" />
		<tag k="ssr:stedsnr" v="607369" />
	</node>
	<node lat="59.135024622083" lon="10.916984753655587" id="-11397">
		<tag k="name" v="Arisholmen" />
		<tag k="place" v="islet" />
		<tag k="ssr:stedsnr" v="608751" />
	</node>
	<node lat="59.20887500130114" lon="10.791950006681189" id="-11401">
		<tag k="alt_name" v="Skjærehallen;Skjærhalden" />
		<tag k="name" v="Skjærhallen" />
		<tag k="place" v="islet" />
		<tag k="ssr:stedsnr" v="608275" />
	</node>
	<node lat="59.18378333429263" lon="10.723486108060431" id="-11404">
		<tag k="name" v="Nordre Missingen" />
		<tag k="place" v="islet" />
		<tag k="ssr:stedsnr" v="608324" />
	</node>
	<node lat="59.18460000124877" lon="10.819125002645693" id="-11407">
		<tag k="name" v="Oksrødkilen" />
		<tag k="natural" v="bay" />
		<tag k="ssr:stedsnr" v="608381" />
	</node>
	<node lat="59.17200555135504" lon="10.858600001004675" id="-11411">
		<tag k="name" v="Store Marnet" />
		<tag k="natural" v="cape" />
		<tag k="ssr:stedsnr" v="608703" />
	</node>
	<node lat="59.16644999687955" lon="10.99210000208389" id="-11414">
		<tag k="alt_name" v="Tammeren" />
		<tag k="name" v="Tambern" />
		<tag k="place" v="islet" />
		<tag k="ssr:stedsnr" v="609646" />
	</node>
	<node lat="59.163097220384074" lon="10.776424999374626" id="-11415">
		<tag k="name" v="Tollefskrakk" />
		<tag k="natural" v="shoal" />
		<tag k="place" v="locality" />
		<tag k="ssr:stedsnr" v="609650" />
	</node>
	<node lat="59.14764999871273" lon="10.907124993612687" id="-11416">
		<tag k="name" v="Kaholmen" />
		<tag k="natural" v="cape" />
		<tag k="ssr:stedsnr" v="609605" />
	</node>
	<node lat="59.151149999313056" lon="10.978775004782767" id="-11417">
		<tag k="name" v="Brattholmen" />
		<tag k="place" v="islet" />
		<tag k="ssr:stedsnr" v="609609" />
	</node>
	<node lat="59.14702499978767" lon="10.953224999435397" id="-11418">
		<tag k="name" v="Rørvikbukta" />
		<tag k="natural" v="bay" />
		<tag k="ssr:stedsnr" v="609610" />
	</node>
	<node lat="59.13429999582162" lon="11.11960832629754" id="-11419">
		<tag k="name" v="Flyndreholmen" />
		<tag k="place" v="islet" />
		<tag k="ssr:stedsnr" v="609726" />
	</node>
	<node lat="59.24147777600121" lon="10.731822228041963" id="-11425">
		<tag k="name" v="Garnhausen" />
		<tag k="natural" v="shoal" />
		<tag k="place" v="locality" />
		<tag k="ssr:stedsnr" v="631817" />
	</node>
	<node lat="59.23939722298407" lon="10.701686111426405" id="-11426">
		<tag k="name" v="Grunnvika" />
		<tag k="natural" v="bay" />
		<tag k="ssr:stedsnr" v="631824" />
	</node>
	<node lat="59.207380554544365" lon="10.803277779472843" id="-11427">
		<tag k="name" v="Oleanatangen" />
		<tag k="natural" v="cape" />
		<tag k="ssr:stedsnr" v="631829" />
	</node>
	<node lat="59.122327115371725" lon="10.962394365594127" id="-11428">
		<tag k="name" v="Risholmgrunnen" />
		<tag k="natural" v="shoal" />
		<tag k="place" v="locality" />
		<tag k="ssr:stedsnr" v="634799" />
	</node>
	<node lat="59.13880277968257" lon="11.036677772866234" id="-11438">
		<tag k="name" v="Bevøystranda" />
		<tag k="natural" v="beach" />
		<tag k="ssr:stedsnr" v="660121" />
	</node>
	<node lat="59.11071111393075" lon="11.015344441489487" id="-11446">
		<tag k="name" v="Ramsøyflaket" />
		<tag k="natural" v="bay" />
		<tag k="ssr:stedsnr" v="661585" />
	</node>
	<node lat="59.1667388911972" lon="10.891816658337612" id="-11453">
		<tag k="fixme" v="consider seamark:type=rock or natural=shoal" />
		<tag k="name" v="Skuteskjær" />
		<tag k="place" v="islet" />
		<tag k="ssr:stedsnr" v="661624" />
	</node>
	<node lat="59.11474444860616" lon="10.989813884564995" id="-11454">
		<tag k="name" v="Østre Fugleskjærgrunnen" />
		<tag k="natural" v="shoal" />
		<tag k="place" v="locality" />
		<tag k="ssr:stedsnr" v="661894" />
	</node>
	<node lat="59.118316665778906" lon="10.73936111828628" id="-11458">
		<tag k="name" v="Struten" />
		<tag k="place" v="islet" />
		<tag k="ssr:stedsnr" v="661871" />
	</node>
	<node lat="59.1677694410293" lon="10.972266665953644" id="-11459">
		<tag k="name" v="Gassene" />
		<tag k="place" v="islet" />
		<tag k="ssr:stedsnr" v="663633" />
	</node>
	<node lat="59.16413055339391" lon="10.883958339148132" id="-11466">
		<tag k="fixme" v="consider seamark:type=rock or natural=shoal" />
		<tag k="name" v="Måkekollskjær" />
		<tag k="place" v="islet" />
		<tag k="ssr:stedsnr" v="663867" />
	</node>
	<node lat="59.25014166892452" lon="10.703194439345136" id="-11472">
		<tag k="alt_name" v="Rauøykalven" />
		<tag k="name" v="Rauerkalven" />
		<tag k="place" v="islet" />
		<tag k="ssr:stedsnr" v="669001" />
	</node>
	<node lat="59.11778611438239" lon="11.085572225799316" id="-11473">
		<tag k="fixme" v="consider seamark:type=rock or natural=shoal" />
		<tag k="name" v="Toseskjæra" />
		<tag k="place" v="islet" />
		<tag k="ssr:stedsnr" v="668721" />
	</node>
	<node lat="59.16535000418588" lon="10.825622224156911" id="-11475">
		<tag k="name" v="Båstangen" />
		<tag k="natural" v="cape" />
		<tag k="ssr:stedsnr" v="669662" />
	</node>
	<node lat="59.198933336540264" lon="11.073649995520055" id="-11480">
		<tag k="name" v="Talbergsundet" />
		<tag k="natural" v="strait" />
		<tag k="ssr:stedsnr" v="669300" />
	</node>
	<node lat="59.202749999840286" lon="10.767874994166096" id="-11482">
		<tag k="alt_name" v="Vabukta" />
		<tag k="name" v="Vadbukta" />
		<tag k="natural" v="bay" />
		<tag k="ssr:stedsnr" v="669258" />
	</node>
	<node lat="59.20832499907162" lon="11.071450000334584" id="-11483">
		<tag k="alt_name" v="Hunnebotn" />
		<tag k="name" v="Hunnebonn" />
		<tag k="natural" v="bay" />
		<tag k="ssr:stedsnr" v="669264" />
	</node>
	<node lat="59.115800002368786" lon="11.103450002811995" id="-11488">
		<tag k="name" v="Galgegrunnen" />
		<tag k="natural" v="shoal" />
		<tag k="place" v="locality" />
		<tag k="ssr:stedsnr" v="669852" />
	</node>
	<node lat="59.15268333676893" lon="10.828838880397033" id="-11494">
		<tag k="name" v="Strømtangen" />
		<tag k="place" v="islet" />
		<tag k="ssr:stedsnr" v="721689" />
	</node>
	<node lat="59.142672220609285" lon="11.026977780181058" id="-11503">
		<tag k="name" v="Rødmannsskjæra" />
		<tag k="place" v="islet" />
		<tag k="ssr:stedsnr" v="722549" />
	</node>
	<node lat="59.177205553146344" lon="10.854911113836957" id="-11504">
		<tag k="name" v="Solbukta" />
		<tag k="natural" v="bay" />
		<tag k="ssr:stedsnr" v="722691" />
	</node>
	<node lat="59.17645278087728" lon="10.891583334754316" id="-11505">
		<tag k="alt_name" v="Enhusskjæret" />
		<tag k="fixme" v="consider seamark:type=rock or natural=shoal" />
		<tag k="name" v="Kuskjær" />
		<tag k="place" v="islet" />
		<tag k="ssr:stedsnr" v="722693" />
	</node>
	<node lat="59.2813305581605" lon="10.732275007560675" id="-11508">
		<tag k="name" v="Skjeløykollen" />
		<tag k="natural" v="cape" />
		<tag k="ssr:stedsnr" v="723547" />
	</node>
	<node lat="59.15840277461352" lon="10.899822217257318" id="-11516">
		<tag k="name" v="Tjeldholmsundet" />
		<tag k="natural" v="strait" />
		<tag k="ssr:stedsnr" v="724844" />
	</node>
	<node lat="59.15046388599862" lon="10.899102782536964" id="-11517">
		<tag k="name" v="Sauholmen" />
		<tag k="place" v="islet" />
		<tag k="ssr:stedsnr" v="724849" />
	</node>
	<node lat="59.17331666842564" lon="10.891655557721972" id="-11532">
		<tag k="name" v="Skogholmene" />
		<tag k="place" v="islet" />
		<tag k="ssr:stedsnr" v="730355" />
	</node>
	<node lat="59.184286113015766" lon="10.802905547329246" id="-11535">
		<tag k="fixme" v="consider seamark:type=rock or natural=shoal" />
		<tag k="name" v="Langskjær" />
		<tag k="place" v="islet" />
		<tag k="ssr:stedsnr" v="730374" />
	</node>
	<node lat="59.1859986944148" lon="10.78799889068352" id="-11536">
		<tag k="fixme" v="consider seamark:type=rock or natural=shoal" />
		<tag k="name" v="Folungene" />
		<tag k="place" v="islet" />
		<tag k="ssr:stedsnr" v="730375" />
	</node>
	<node lat="59.12389999818819" lon="11.100252775038069" id="-11537">
		<tag k="name" v="Gåsa" />
		<tag k="place" v="islet" />
		<tag k="ssr:stedsnr" v="730877" />
	</node>
	<node lat="59.094547220660374" lon="10.791577776071467" id="-11540">
		<tag k="alt_name" v="Gjyra" />
		<tag k="name" v="Gyren" />
		<tag k="natural" v="shoal" />
		<tag k="place" v="locality" />
		<tag k="ssr:stedsnr" v="730755" />
	</node>
	<node lat="59.2664277791324" lon="10.735375000965929" id="-11541">
		<tag k="name" v="Klokkerbukta" />
		<tag k="natural" v="bay" />
		<tag k="ssr:stedsnr" v="731086" />
	</node>
	<node lat="59.15192777565581" lon="10.816783337524136" id="-11551">
		<tag k="alt_name" v="Grindskjær" />
		<tag k="fixme" v="consider seamark:type=rock or natural=shoal" />
		<tag k="name" v="Grindskjæret" />
		<tag k="place" v="islet" />
		<tag k="ssr:stedsnr" v="731600" />
	</node>
	<node lat="59.15718055620609" lon="10.793941659388054" id="-11559">
		<tag k="fixme" v="consider seamark:type=rock or natural=shoal" />
		<tag k="name" v="Fjeset" />
		<tag k="place" v="islet" />
		<tag k="ssr:stedsnr" v="756989" />
	</node>
	<node lat="59.16666388521224" lon="10.742286111002706" id="-11560">
		<tag k="name" v="Trekta" />
		<tag k="natural" v="shoal" />
		<tag k="place" v="locality" />
		<tag k="ssr:stedsnr" v="756992" />
	</node>
	<node lat="59.18683055160891" lon="10.888183338348641" id="-11562">
		<tag k="name" v="Washingtongrunnen" />
		<tag k="natural" v="shoal" />
		<tag k="place" v="locality" />
		<tag k="ssr:stedsnr" v="768329" />
	</node>
	<node lat="59.21571388893566" lon="10.920544436233785" id="-11565">
		<tag k="name" v="Korsepynten" />
		<tag k="natural" v="cape" />
		<tag k="ssr:stedsnr" v="769189" />
	</node>
	<node lat="59.13977222280174" lon="11.02568889749695" id="-11576">
		<tag k="name" v="Rødmannsskjæra" />
		<tag k="place" v="islet" />
		<tag k="ssr:stedsnr" v="782488" />
	</node>
	<node lat="59.22673339470218" lon="10.741963902336819" id="-11577">
		<tag k="name" v="Risholmen" />
		<tag k="place" v="island" />
		<tag k="ssr:stedsnr" v="782912" />
	</node>
	<node lat="59.12651666983632" lon="10.96652222072909" id="-11578">
		<tag k="name" v="Belgebåen" />
		<tag k="place" v="locality" />
		<tag k="seamark:type" v="rock" />
		<tag k="ssr:stedsnr" v="782913" />
	</node>
	<node lat="59.22400277651196" lon="10.686122214097384" id="-11580">
		<tag k="name" v="Kuene" />
		<tag k="place" v="locality" />
		<tag k="seamark:type" v="rock" />
		<tag k="ssr:stedsnr" v="783444" />
	</node>
	<node lat="59.14442777906502" lon="11.013444452963192" id="-11583">
		<tag k="fixme" v="consider seamark:type=rock or natural=shoal" />
		<tag k="name" v="Løkholmskjær" />
		<tag k="place" v="islet" />
		<tag k="ssr:stedsnr" v="783734" />
	</node>
	<node lat="59.15307777618177" lon="10.903847225797485" id="-11595">
		<tag k="fixme" v="consider seamark:type=rock or natural=shoal" />
		<tag k="name" v="Benteskjæra" />
		<tag k="place" v="islet" />
		<tag k="ssr:stedsnr" v="785837" />
	</node>
	<node lat="59.163858329763116" lon="10.840927772306548" id="-11597">
		<tag k="name" v="Huet" />
		<tag k="natural" v="cape" />
		<tag k="ssr:stedsnr" v="785868" />
	</node>
	<node lat="59.193050002757076" lon="10.784966665073794" id="-11602">
		<tag k="fixme" v="consider seamark:type=rock or natural=shoal" />
		<tag k="name" v="Sildeskjær" />
		<tag k="place" v="islet" />
		<tag k="ssr:stedsnr" v="790318" />
	</node>
	<node lat="59.12175367921408" lon="10.956283467135183" id="-11613">
		<tag k="alt_name" v="Store Risholmen" />
		<tag k="name" v="Risholmen" />
		<tag k="place" v="islet" />
		<tag k="ssr:stedsnr" v="790767" />
	</node>
	<node lat="59.17095000213807" lon="10.802700004076053" id="-11619">
		<tag k="name" v="Lyngholmen" />
		<tag k="place" v="islet" />
		<tag k="ssr:stedsnr" v="791659" />
	</node>
	<node lat="59.167174998807006" lon="10.830199998463367" id="-11620">
		<tag k="name" v="Dammen" />
		<tag k="natural" v="bay" />
		<tag k="ssr:stedsnr" v="791660" />
	</node>
	<node lat="59.16649444223801" lon="10.85894722379544" id="-11621">
		<tag k="fixme" v="consider seamark:type=rock or natural=shoal" />
		<tag k="name" v="Lille Marnet" />
		<tag k="place" v="islet" />
		<tag k="ssr:stedsnr" v="791669" />
	</node>
	<node lat="59.159933336512644" lon="10.807552771531917" id="-11622">
		<tag k="alt_name" v="Flateskjæra" />
		<tag k="fixme" v="consider seamark:type=rock or natural=shoal" />
		<tag k="name" v="Flatskjæra" />
		<tag k="place" v="islet" />
		<tag k="ssr:stedsnr" v="791682" />
	</node>
	<node lat="59.147824999484186" lon="11.11580000048818" id="-11623">
		<tag k="name" v="Furuholmen" />
		<tag k="place" v="islet" />
		<tag k="ssr:stedsnr" v="791794" />
	</node>
	<node lat="59.12980000114791" lon="11.011199992881288" id="-11625">
		<tag k="fixme" v="consider seamark:type=rock or natural=shoal" />
		<tag k="name" v="Børresen" />
		<tag k="place" v="islet" />
		<tag k="ssr:stedsnr" v="791728" />
	</node>
	<node lat="59.24887499727095" lon="10.690044445189724" id="-11633">
		<tag k="name" v="Merrahausen" />
		<tag k="natural" v="shoal" />
		<tag k="place" v="locality" />
		<tag k="ssr:stedsnr" v="813794" />
	</node>
	<node lat="59.22474646873145" lon="10.686790444713496" id="-11635">
		<tag k="name" v="Store Havna" />
		<tag k="natural" v="bay" />
		<tag k="ssr:stedsnr" v="813797" />
	</node>
	<node lat="59.165838888208775" lon="10.707152777321065" id="-11636">
		<tag k="name" v="Langgrunnen" />
		<tag k="natural" v="shoal" />
		<tag k="place" v="locality" />
		<tag k="ssr:stedsnr" v="813799" />
	</node>
	<node lat="59.25433611032784" lon="10.68006666970648" id="-11639">
		<tag k="name" v="Bjørnhausen" />
		<tag k="natural" v="shoal" />
		<tag k="place" v="locality" />
		<tag k="ssr:stedsnr" v="817804" />
	</node>
	<node lat="59.25926428361017" lon="11.025463610643586" id="-11640">
		<tag k="fixme" v="multiple name tags, choose one and add the other to alt_name" />
		<tag k="name" v="Renudtangen;Tangen" />
		<tag k="natural" v="cape" />
		<tag k="ssr:stedsnr" v="829911" />
	</node>
	<node lat="59.13713333468245" lon="10.928308334268914" id="-11648">
		<tag k="name" v="Den lange kilen" />
		<tag k="natural" v="bay" />
		<tag k="ssr:stedsnr" v="844010" />
	</node>
	<node lat="59.13927222343134" lon="10.908830550253334" id="-11649">
		<tag k="name" v="Jadahølet" />
		<tag k="natural" v="bay" />
		<tag k="ssr:stedsnr" v="844011" />
	</node>
	<node lat="59.18153611288842" lon="11.011111103746417" id="-11651">
		<tag k="fixme" v="consider seamark:type=rock or natural=shoal" />
		<tag k="name" v="Kristianskjær" />
		<tag k="place" v="islet" />
		<tag k="ssr:stedsnr" v="844457" />
	</node>
	<node lat="59.1506222193758" lon="10.98212221586503" id="-11654">
		<tag k="name" v="Løvøyrenna" />
		<tag k="natural" v="strait" />
		<tag k="ssr:stedsnr" v="844758" />
	</node>
	<node lat="59.104167988845546" lon="10.762495294645722" id="-11681">
		<tag k="alt_name" v="Nålene" />
		<tag k="fixme" v="consider seamark:type=rock or natural=shoal" />
		<tag k="name" v="Øyskjæra" />
		<tag k="place" v="islet" />
		<tag k="ssr:stedsnr" v="851686" />
	</node>
	<node lat="59.22510000433397" lon="10.761174997254718" id="-11684">
		<tag k="alt_name" v="Apalviken" />
		<tag k="name" v="Apalvika" />
		<tag k="natural" v="bay" />
		<tag k="ssr:stedsnr" v="851254" />
	</node>
	<node lat="59.22967221820784" lon="10.757994439869226" id="-11685">
		<tag k="alt_name" v="Stangerholmen" />
		<tag k="name" v="Stangerholmene" />
		<tag k="place" v="islet" />
		<tag k="ssr:stedsnr" v="851267" />
	</node>
	<node lat="59.12029999999327" lon="10.929872214114548" id="-11686">
		<tag k="name" v="Hesten" />
		<tag k="place" v="islet" />
		<tag k="ssr:stedsnr" v="851732" />
	</node>
	<node lat="59.132924996686285" lon="10.929500003746817" id="-11691">
		<tag k="alt_name" v="Bakkholmen" />
		<tag k="name" v="Bukkholmen" />
		<tag k="place" v="islet" />
		<tag k="ssr:stedsnr" v="852693" />
	</node>
	<node lat="59.129051119215355" lon="10.995286067621043" id="-11692">
		<tag k="name" v="Alfegrunnen" />
		<tag k="natural" v="shoal" />
		<tag k="place" v="locality" />
		<tag k="ssr:stedsnr" v="852702" />
	</node>
	<node lat="59.13742222277042" lon="10.756599996493733" id="-11693">
		<tag k="name" v="Strutskrakkene" />
		<tag k="natural" v="shoal" />
		<tag k="place" v="locality" />
		<tag k="ssr:stedsnr" v="852632" />
	</node>
	<node lat="59.13597500019201" lon="11.107405554534177" id="-11699">
		<tag k="name" v="Risholmen" />
		<tag k="place" v="islet" />
		<tag k="ssr:stedsnr" v="872461" />
	</node>
	<node lat="59.12179444891798" lon="11.075283325287062" id="-11700">
		<tag k="fixme" v="consider seamark:type=rock or natural=shoal" />
		<tag k="name" v="Amorskjær" />
		<tag k="place" v="islet" />
		<tag k="ssr:stedsnr" v="872462" />
	</node>
	<node lat="59.15008889053456" lon="11.1156583338701" id="-11706">
		<tag k="name" v="Østre Furuholmsundet" />
		<tag k="natural" v="strait" />
		<tag k="ssr:stedsnr" v="872456" />
	</node>
	<node lat="59.17985833671841" lon="10.809411108850162" id="-11709">
		<tag k="fixme" v="consider seamark:type=rock or natural=shoal" />
		<tag k="name" v="Store Gåseskjær" />
		<tag k="place" v="islet" />
		<tag k="ssr:stedsnr" v="873816" />
	</node>
	<node lat="59.24568889332003" lon="10.691605547926146" id="-11710">
		<tag k="alt_name" v="Kolabukta" />
		<tag k="name" v="Kølabukta" />
		<tag k="natural" v="bay" />
		<tag k="ssr:stedsnr" v="874797" />
	</node>
	<node lat="59.24987222668571" lon="10.684055554950078" id="-11711">
		<tag k="name" v="Djupkrakken" />
		<tag k="natural" v="shoal" />
		<tag k="place" v="locality" />
		<tag k="ssr:stedsnr" v="874798" />
	</node>
	<node lat="59.195499995802166" lon="10.756483328438316" id="-11712">
		<tag k="name" v="Piggrunnene" />
		<tag k="natural" v="shoal" />
		<tag k="place" v="locality" />
		<tag k="ssr:stedsnr" v="874806" />
	</node>
	<node lat="59.25992777746207" lon="10.74133055183941" id="-11713">
		<tag k="name" v="Kattholmen" />
		<tag k="place" v="islet" />
		<tag k="ssr:stedsnr" v="874818" />
	</node>
	<node lat="59.28293333081141" lon="10.736766674228495" id="-11715">
		<tag k="fixme" v="consider seamark:type=rock or natural=shoal" />
		<tag k="name" v="Terneskjær" />
		<tag k="place" v="islet" />
		<tag k="ssr:stedsnr" v="878787" />
	</node>
	<node lat="59.21163888567587" lon="10.793241665270529" id="-11716">
		<tag k="alt_name" v="Gullikskjæret" />
		<tag k="fixme" v="consider seamark:type=rock or natural=shoal" />
		<tag k="name" v="Gullikskjær" />
		<tag k="place" v="islet" />
		<tag k="ssr:stedsnr" v="878972" />
	</node>
	<node lat="59.252963884859255" lon="10.703861109383293" id="-11718">
		<tag k="fixme" v="consider seamark:type=rock or natural=shoal" />
		<tag k="name" v="Kalveskjær" />
		<tag k="place" v="islet" />
		<tag k="ssr:stedsnr" v="938778" />
	</node>
	<node lat="59.223680551508664" lon="10.733452784600122" id="-11719">
		<tag k="alt_name" v="Smauskrakk" />
		<tag k="name" v="Smauskrakken" />
		<tag k="natural" v="shoal" />
		<tag k="place" v="locality" />
		<tag k="ssr:stedsnr" v="938783" />
	</node>
	<node lat="59.18043333514024" lon="10.760772218934466" id="-11720">
		<tag k="name" v="Langekrakken" />
		<tag k="natural" v="shoal" />
		<tag k="place" v="locality" />
		<tag k="ssr:stedsnr" v="938981" />
	</node>
	<node lat="59.20832499907162" lon="11.071450000334584" id="-11726">
		<tag k="name" v="Heierbukta" />
		<tag k="natural" v="bay" />
		<tag k="ssr:stedsnr" v="964252" />
	</node>
	<node lat="59.13035833588585" lon="11.035547221839526" id="-11729">
		<tag k="name" v="Bevøysundet" />
		<tag k="natural" v="bay" />
		<tag k="ssr:stedsnr" v="964577" />
	</node>
	<node lat="59.20490833403397" lon="10.947575005169876" id="-11736">
		<tag k="name" v="Møllehullet" />
		<tag k="natural" v="strait" />
		<tag k="ssr:stedsnr" v="966471" />
	</node>
	<node lat="59.12145147931029" lon="11.018679523271425" id="-11748">
		<tag k="alt_name" v="Ramsøbukta" />
		<tag k="name" v="Ramsøybukta" />
		<tag k="natural" v="bay" />
		<tag k="ssr:stedsnr" v="972384" />
	</node>
	<node lat="59.177937578294376" lon="10.868321424397585" id="-11755">
		<tag k="name" v="Faratangodden" />
		<tag k="natural" v="cape" />
		<tag k="ssr:stedsnr" v="982615" />
	</node>
	<node lat="59.249943498095355" lon="10.731509318781537" id="-11760">
		<tag k="name" v="Øytangen" />
		<tag k="natural" v="cape" />
		<tag k="ssr:stedsnr" v="986485" />
	</node>
	<node lat="59.28543671993618" lon="10.744823834105963" id="-11761">
		<tag k="name" v="Saltnessund" />
		<tag k="natural" v="strait" />
		<tag k="ssr:stedsnr" v="987083" />
	</node>
	<node lat="59.17180763973466" lon="10.952128863666198" id="-11763">
		<tag k="name" v="Alshustangen" />
		<tag k="natural" v="cape" />
		<tag k="ssr:stedsnr" v="989716" />
	</node>
	<node lat="59.12808110044687" lon="10.9812880931321" id="-11764">
		<tag k="name" v="Frittflaket" />
		<tag k="natural" v="shoal" />
		<tag k="place" v="locality" />
		<tag k="ssr:stedsnr" v="989945" />
	</node>
</osm>
