<?xml version="1.0" encoding="UTF-8"?>
<osm version="0.6" generator="osmapis">
	<node lat="59.21121667036095" lon="10.776824998836828" id="-25673">
		<tag k="fixme" v="consider natural=peak for the most distinct mountains in the district" />
		<tag k="name" v="Bloksberg" />
		<tag k="natural" v="hill" />
		<tag k="place" v="locality" />
		<tag k="ssr:stedsnr" v="1311" />
	</node>
	<node lat="59.219733337140596" lon="10.961666664935588" id="-25675">
		<tag k="fixme" v="consider natural=peak for the most distinct mountains in the district" />
		<tag k="name" v="Kjæråsen" />
		<tag k="natural" v="hill" />
		<tag k="place" v="locality" />
		<tag k="ssr:stedsnr" v="1315" />
	</node>
	<node lat="59.155055556409195" lon="11.075633331023921" id="-25686">
		<tag k="name" v="Toseryggen" />
		<tag k="natural" v="ridge" />
		<tag k="place" v="locality" />
		<tag k="ssr:stedsnr" v="22393" />
	</node>
	<node lat="59.19145664101487" lon="10.974825915509319" id="-25697">
		<tag k="name" v="Knollen" />
		<tag k="natural" v="hill" />
		<tag k="place" v="locality" />
		<tag k="ssr:stedsnr" v="237426" />
	</node>
	<node lat="59.26731111175564" lon="10.976738887017786" id="-25734">
		<tag k="fixme" v="consider natural=peak for the most distinct mountains in the district" />
		<tag k="name" v="Borgeåshatten" />
		<tag k="natural" v="hill" />
		<tag k="place" v="locality" />
		<tag k="ssr:stedsnr" v="58873" />
	</node>
	<node lat="59.236474997482425" lon="11.0486027737913" id="-25738">
		<tag k="fixme" v="consider natural=peak for the most distinct mountains in the district" />
		<tag k="name" v="Ravneberget" />
		<tag k="natural" v="hill" />
		<tag k="place" v="locality" />
		<tag k="ssr:stedsnr" v="58770" />
	</node>
	<node lat="59.246936107278714" lon="11.053472215756425" id="-25740">
		<tag k="name" v="Bjørnesten" />
		<tag k="natural" v="hill" />
		<tag k="place" v="locality" />
		<tag k="ssr:stedsnr" v="240767" />
	</node>
	<node lat="59.197599999767114" lon="10.926916669719706" id="-25743">
		<tag k="name" v="Ulvedalen" />
		<tag k="natural" v="valley" />
		<tag k="place" v="locality" />
		<tag k="ssr:stedsnr" v="62310" />
	</node>
	<node lat="59.23739444511923" lon="10.97172777574889" id="-25750">
		<tag k="name" v="Kirkefjellet" />
		<tag k="natural" v="hill" />
		<tag k="place" v="locality" />
		<tag k="ssr:stedsnr" v="240876" />
	</node>
	<node lat="59.177316663797185" lon="11.064605555050749" id="-25754">
		<tag k="fixme" v="consider natural=peak for the most distinct mountains in the district" />
		<tag k="name" v="Tose varde" />
		<tag k="natural" v="hill" />
		<tag k="old_name" v="Tosevarde" />
		<tag k="place" v="locality" />
		<tag k="ssr:stedsnr" v="63661" />
	</node>
	<node lat="59.193519441795154" lon="10.916705554929116" id="-25762">
		<tag k="fixme" v="consider natural=peak for the most distinct mountains in the district" />
		<tag k="name" v="Enhusfjellet" />
		<tag k="natural" v="hill" />
		<tag k="place" v="locality" />
		<tag k="ssr:stedsnr" v="244325" />
	</node>
	<node lat="59.15073610973703" lon="11.077452773461859" id="-25766">
		<tag k="name" v="Rasdalen" />
		<tag k="natural" v="valley" />
		<tag k="place" v="locality" />
		<tag k="ssr:stedsnr" v="83417" />
	</node>
	<node lat="59.19195277651299" lon="11.044883337039739" id="-25793">
		<tag k="fixme" v="consider natural=peak for the most distinct mountains in the district" />
		<tag k="name" v="Lyarkollen" />
		<tag k="natural" v="hill" />
		<tag k="place" v="locality" />
		<tag k="ssr:stedsnr" v="117827" />
	</node>
	<node lat="59.24050832999807" lon="10.945063883826842" id="-25829">
		<tag k="name" v="Dølasletta" />
		<tag k="place" v="locality" />
		<tag k="ssr:stedsnr" v="179871" />
	</node>
	<node lat="59.23219444580909" lon="10.948377769742146" id="-25831">
		<tag k="name" v="Bjørndalen" />
		<tag k="natural" v="valley" />
		<tag k="place" v="locality" />
		<tag k="ssr:stedsnr" v="183245" />
	</node>
	<node lat="59.25854166789699" lon="11.103263896255127" id="-25840">
		<tag k="fixme" v="consider natural=peak for the most distinct mountains in the district" />
		<tag k="name" v="Årumfjellet" />
		<tag k="natural" v="hill" />
		<tag k="place" v="locality" />
		<tag k="ssr:stedsnr" v="265059" />
	</node>
	<node lat="59.22250555284335" lon="10.965472228196855" id="-25859">
		<tag k="fixme" v="consider natural=peak for the most distinct mountains in the district" />
		<tag k="name" v="Lislebyfjellet" />
		<tag k="natural" v="hill" />
		<tag k="place" v="locality" />
		<tag k="ssr:stedsnr" v="236478" />
	</node>
	<node lat="59.21369166921469" lon="10.883744453314533" id="-25864">
		<tag k="name" v="Volleberget" />
		<tag k="natural" v="ridge" />
		<tag k="place" v="locality" />
		<tag k="ssr:stedsnr" v="236829" />
	</node>
	<node lat="59.201050001898395" lon="10.980663887717691" id="-25871">
		<tag k="fixme" v="consider natural=peak for the most distinct mountains in the district" />
		<tag k="name" v="Katrineborg" />
		<tag k="natural" v="hill" />
		<tag k="place" v="locality" />
		<tag k="ssr:stedsnr" v="238790" />
	</node>
	<node lat="59.26138611438039" lon="10.89929166010861" id="-25875">
		<tag k="name" v="Kjølberg" />
		<tag k="natural" v="hill" />
		<tag k="place" v="locality" />
		<tag k="ssr:stedsnr" v="239831" />
	</node>
	<node lat="59.20160833006966" lon="11.03230833411652" id="-25885">
		<tag k="fixme" v="consider natural=peak for the most distinct mountains in the district" />
		<tag k="name" v="Grimstadåsen" />
		<tag k="natural" v="hill" />
		<tag k="place" v="locality" />
		<tag k="ssr:stedsnr" v="244330" />
	</node>
	<node lat="59.264297224381984" lon="10.919611105520856" id="-25898">
		<tag k="fixme" v="consider natural=peak for the most distinct mountains in the district" />
		<tag k="name" v="Vesterfjellet" />
		<tag k="natural" v="hill" />
		<tag k="place" v="locality" />
		<tag k="ssr:stedsnr" v="246120" />
	</node>
	<node lat="59.25369721917495" lon="10.730977776447142" id="-25904">
		<tag k="fixme" v="consider natural=peak for the most distinct mountains in the district" />
		<tag k="name" v="Guleberget" />
		<tag k="natural" v="hill" />
		<tag k="place" v="locality" />
		<tag k="ssr:stedsnr" v="453800" />
	</node>
	<node lat="59.2530861147038" lon="11.11591666759539" id="-25907">
		<tag k="name" v="Berget" />
		<tag k="natural" v="hill" />
		<tag k="place" v="locality" />
		<tag k="ssr:stedsnr" v="265187" />
	</node>
	<node lat="59.265747226746" lon="10.747452775061209" id="-25911">
		<tag k="fixme" v="consider natural=peak for the most distinct mountains in the district" />
		<tag k="name" v="Holsberget" />
		<tag k="natural" v="hill" />
		<tag k="place" v="locality" />
		<tag k="ssr:stedsnr" v="267824" />
	</node>
	<node lat="59.25001944278614" lon="11.011444445450518" id="-25913">
		<tag k="name" v="Ombergfjellet" />
		<tag k="natural" v="hill" />
		<tag k="place" v="locality" />
		<tag k="ssr:stedsnr" v="282110" />
	</node>
	<node lat="59.261836112279205" lon="11.064475002132387" id="-25914">
		<tag k="name" v="Holberget" />
		<tag k="natural" v="hill" />
		<tag k="place" v="locality" />
		<tag k="ssr:stedsnr" v="285878" />
	</node>
	<node lat="59.215222223685835" lon="10.81271943650304" id="-25941">
		<tag k="fixme" v="consider natural=peak for the most distinct mountains in the district" />
		<tag k="name" v="Knipsungen" />
		<tag k="natural" v="hill" />
		<tag k="place" v="locality" />
		<tag k="ssr:stedsnr" v="305311" />
	</node>
	<node lat="59.16865833240933" lon="10.945547228346278" id="-25999">
		<tag k="fixme" v="consider natural=peak for the most distinct mountains in the district" />
		<tag k="name" v="Olavsåsen" />
		<tag k="natural" v="hill" />
		<tag k="place" v="locality" />
		<tag k="ssr:stedsnr" v="366679" />
	</node>
	<node lat="59.29417222359464" lon="10.800147224194829" id="-26009">
		<tag k="name" v="Pirakken" />
		<tag k="natural" v="ridge" />
		<tag k="place" v="locality" />
		<tag k="ssr:stedsnr" v="479119" />
	</node>
	<node lat="59.182777775340526" lon="10.831774995151934" id="-26018">
		<tag k="fixme" v="consider natural=peak for the most distinct mountains in the district" />
		<tag k="name" v="Krittberget" />
		<tag k="natural" v="hill" />
		<tag k="place" v="locality" />
		<tag k="ssr:stedsnr" v="479679" />
	</node>
	<node lat="59.19778888635349" lon="11.001122215430303" id="-26033">
		<tag k="name" v="Svarteklova" />
		<tag k="natural" v="valley" />
		<tag k="place" v="locality" />
		<tag k="ssr:stedsnr" v="481826" />
	</node>
	<node lat="59.23384722042196" lon="10.947650000448208" id="-26049">
		<tag k="name" v="Oredalen" />
		<tag k="natural" v="valley" />
		<tag k="place" v="locality" />
		<tag k="ssr:stedsnr" v="486275" />
	</node>
	<node lat="59.21732777610189" lon="10.832172222070659" id="-26051">
		<tag k="fixme" v="consider natural=peak for the most distinct mountains in the district" />
		<tag k="name" v="Lasselifjellet" />
		<tag k="natural" v="hill" />
		<tag k="place" v="locality" />
		<tag k="ssr:stedsnr" v="486322" />
	</node>
	<node lat="59.2099361156018" lon="11.016074994469435" id="-26076">
		<tag k="fixme" v="consider natural=peak for the most distinct mountains in the district" />
		<tag k="name" v="Svarteberget" />
		<tag k="natural" v="hill" />
		<tag k="place" v="locality" />
		<tag k="ssr:stedsnr" v="419497" />
	</node>
	<node lat="59.19716944112974" lon="11.054058327092202" id="-26084">
		<tag k="fixme" v="consider natural=peak for the most distinct mountains in the district" />
		<tag k="name" v="Fuglenebbåsen" />
		<tag k="natural" v="hill" />
		<tag k="place" v="locality" />
		<tag k="ssr:stedsnr" v="420836" />
	</node>
	<node lat="59.26100833702242" lon="11.000705562674938" id="-26090">
		<tag k="name" v="Kirkeberget" />
		<tag k="natural" v="hill" />
		<tag k="place" v="locality" />
		<tag k="ssr:stedsnr" v="422010" />
	</node>
	<node lat="59.22085833077902" lon="10.869438891891342" id="-26092">
		<tag k="alt_name" v="Sprinkelen" />
		<tag k="fixme" v="consider natural=peak for the most distinct mountains in the district" />
		<tag k="name" v="Sprinkelet" />
		<tag k="natural" v="hill" />
		<tag k="place" v="locality" />
		<tag k="ssr:stedsnr" v="426244" />
	</node>
	<node lat="59.18722222387215" lon="10.84787221970366" id="-26127">
		<tag k="fixme" v="consider natural=peak for the most distinct mountains in the district" />
		<tag k="name" v="Møklegårdsveten" />
		<tag k="natural" v="hill" />
		<tag k="place" v="locality" />
		<tag k="ssr:stedsnr" v="479416" />
	</node>
	<node lat="59.254611113117996" lon="10.850222216855048" id="-26135">
		<tag k="fixme" v="consider natural=peak for the most distinct mountains in the district" />
		<tag k="name" v="Kirkeberget" />
		<tag k="natural" v="hill" />
		<tag k="place" v="locality" />
		<tag k="ssr:stedsnr" v="481771" />
	</node>
	<node lat="59.22434721816476" lon="10.812711108824761" id="-26136">
		<tag k="fixme" v="consider natural=peak for the most distinct mountains in the district" />
		<tag k="name" v="Østento" />
		<tag k="natural" v="hill" />
		<tag k="place" v="locality" />
		<tag k="ssr:stedsnr" v="486260" />
	</node>
	<node lat="59.23642222139899" lon="11.070297227100944" id="-26179">
		<tag k="fixme" v="consider natural=peak for the most distinct mountains in the district" />
		<tag k="name" v="Vetatoppen" />
		<tag k="natural" v="hill" />
		<tag k="place" v="locality" />
		<tag k="ssr:stedsnr" v="547307" />
	</node>
	<node lat="59.17664999753711" lon="11.04732500850741" id="-26183">
		<tag k="fixme" v="consider natural=peak for the most distinct mountains in the district" />
		<tag k="name" v="Petteråsen" />
		<tag k="natural" v="hill" />
		<tag k="place" v="locality" />
		<tag k="ssr:stedsnr" v="548669" />
	</node>
	<node lat="59.2597111075603" lon="11.081105559016098" id="-26192">
		<tag k="name" v="Gretnesdalen" />
		<tag k="natural" v="valley" />
		<tag k="place" v="locality" />
		<tag k="ssr:stedsnr" v="690053" />
	</node>
	<node lat="59.20794444111703" lon="11.060450004523773" id="-26195">
		<tag k="fixme" v="consider natural=peak for the most distinct mountains in the district" />
		<tag k="name" v="Heierenåsen" />
		<tag k="natural" v="hill" />
		<tag k="place" v="locality" />
		<tag k="ssr:stedsnr" v="690024" />
	</node>
	<node lat="59.297041663386224" lon="10.812063887769705" id="-26214">
		<tag k="fixme" v="consider natural=peak for the most distinct mountains in the district" />
		<tag k="name" v="Solbergåsen" />
		<tag k="natural" v="hill" />
		<tag k="place" v="locality" />
		<tag k="ssr:stedsnr" v="600128" />
	</node>
	<node lat="59.18254721852845" lon="10.931583337685147" id="-26216">
		<tag k="name" v="Holtevarden" />
		<tag k="natural" v="hill" />
		<tag k="place" v="locality" />
		<tag k="ssr:stedsnr" v="600313" />
	</node>
	<node lat="59.213633331938674" lon="10.896338896894967" id="-26219">
		<tag k="fixme" v="consider natural=peak for the most distinct mountains in the district" />
		<tag k="name" v="Mulefjell" />
		<tag k="natural" v="hill" />
		<tag k="place" v="locality" />
		<tag k="ssr:stedsnr" v="600848" />
	</node>
	<node lat="59.30011666922246" lon="10.97036944078939" id="-26220">
		<tag k="fixme" v="consider natural=peak for the most distinct mountains in the district" />
		<tag k="name" v="Ringstadåsen" />
		<tag k="natural" v="hill" />
		<tag k="place" v="locality" />
		<tag k="ssr:stedsnr" v="602101" />
	</node>
	<node lat="59.1903194405092" lon="10.930219445200704" id="-26223">
		<tag k="name" v="Klovadalen" />
		<tag k="natural" v="valley" />
		<tag k="place" v="locality" />
		<tag k="ssr:stedsnr" v="602251" />
	</node>
	<node lat="59.24801944365605" lon="10.76411388108808" id="-26236">
		<tag k="fixme" v="consider natural=peak for the most distinct mountains in the district" />
		<tag k="name" v="Bråtaberget" />
		<tag k="natural" v="hill" />
		<tag k="place" v="locality" />
		<tag k="ssr:stedsnr" v="608518" />
	</node>
	<node lat="59.27520278091995" lon="10.825155556213053" id="-26259">
		<tag k="fixme" v="consider natural=peak for the most distinct mountains in the district" />
		<tag k="name" v="Bjørnåsfjellet" />
		<tag k="natural" v="hill" />
		<tag k="place" v="locality" />
		<tag k="ssr:stedsnr" v="661104" />
	</node>
	<node lat="59.182122224410435" lon="10.918938886589654" id="-26265">
		<tag k="fixme" v="consider natural=peak for the most distinct mountains in the district" />
		<tag k="name" v="Kariknatten" />
		<tag k="natural" v="hill" />
		<tag k="place" v="locality" />
		<tag k="ssr:stedsnr" v="661637" />
	</node>
	<node lat="59.19721110998052" lon="10.847116674932867" id="-26271">
		<tag k="alt_name" v="Valhallberget;Valhallåsen" />
		<tag k="fixme" v="consider natural=peak for the most distinct mountains in the district" />
		<tag k="name" v="Valhall" />
		<tag k="natural" v="hill" />
		<tag k="old_name" v="Vardeåsen" />
		<tag k="place" v="locality" />
		<tag k="ssr:stedsnr" v="663312" />
	</node>
	<node lat="59.25803889109989" lon="10.990497221739815" id="-26279">
		<tag k="name" v="Rådalen" />
		<tag k="natural" v="valley" />
		<tag k="place" v="locality" />
		<tag k="ssr:stedsnr" v="665883" />
	</node>
	<node lat="59.24028889281555" lon="10.956727780446402" id="-26323">
		<tag k="fixme" v="consider natural=peak for the most distinct mountains in the district" />
		<tag k="name" v="Høyfjell" />
		<tag k="natural" v="hill" />
		<tag k="place" v="locality" />
		<tag k="ssr:stedsnr" v="726870" />
	</node>
	<node lat="59.24572777498947" lon="11.017575008598161" id="-26325">
		<tag k="name" v="Torpeberget" />
		<tag k="natural" v="hill" />
		<tag k="place" v="locality" />
		<tag k="ssr:stedsnr" v="726879" />
	</node>
	<node lat="59.21626666877963" lon="11.060094449408068" id="-26347">
		<tag k="name" v="Klevane" />
		<tag k="natural" v="slope" />
		<tag k="place" v="locality" />
		<tag k="ssr:stedsnr" v="750013" />
	</node>
	<node lat="59.1099194417144" lon="10.767019452207386" id="-26350">
		<tag k="name" v="Hogget" />
		<tag k="natural" v="valley" />
		<tag k="place" v="locality" />
		<tag k="ssr:stedsnr" v="904429" />
	</node>
	<node lat="59.24059444273134" lon="10.763386109815329" id="-26360">
		<tag k="name" v="Prekestolen" />
		<tag k="natural" v="hill" />
		<tag k="place" v="locality" />
		<tag k="ssr:stedsnr" v="752805" />
	</node>
	<node lat="59.2265055517417" lon="10.773363892722436" id="-26365">
		<tag k="fixme" v="consider natural=peak for the most distinct mountains in the district" />
		<tag k="name" v="Suberget" />
		<tag k="natural" v="hill" />
		<tag k="place" v="locality" />
		<tag k="ssr:stedsnr" v="756818" />
	</node>
	<node lat="59.28359166829163" lon="10.860186111308666" id="-26372">
		<tag k="fixme" v="consider natural=peak for the most distinct mountains in the district" />
		<tag k="name" v="Partlefjellet" />
		<tag k="natural" v="hill" />
		<tag k="place" v="locality" />
		<tag k="ssr:stedsnr" v="906837" />
	</node>
	<node lat="59.28880277990037" lon="10.988361119692257" id="-26377">
		<tag k="name" v="Rødsfjellet" />
		<tag k="natural" v="ridge" />
		<tag k="place" v="locality" />
		<tag k="ssr:stedsnr" v="908034" />
	</node>
	<node lat="59.207825000786556" lon="11.014391661097553" id="-26383">
		<tag k="fixme" v="consider natural=peak for the most distinct mountains in the district" />
		<tag k="name" v="Ravneberget" />
		<tag k="natural" v="hill" />
		<tag k="place" v="locality" />
		<tag k="ssr:stedsnr" v="782477" />
	</node>
	<node lat="59.295347222261114" lon="10.875930558141647" id="-26401">
		<tag k="name" v="Katrineklova" />
		<tag k="natural" v="valley" />
		<tag k="place" v="locality" />
		<tag k="ssr:stedsnr" v="784919" />
	</node>
	<node lat="59.27330000177256" lon="10.937019449169346" id="-26402">
		<tag k="fixme" v="consider natural=peak for the most distinct mountains in the district" />
		<tag k="name" v="Borgåsen" />
		<tag k="natural" v="hill" />
		<tag k="place" v="locality" />
		<tag k="ssr:stedsnr" v="785804" />
	</node>
	<node lat="59.2131638866799" lon="10.946872222951127" id="-26408">
		<tag k="name" v="Dammyrfjellet" />
		<tag k="natural" v="hill" />
		<tag k="place" v="locality" />
		<tag k="ssr:stedsnr" v="787000" />
	</node>
	<node lat="59.17438610722198" lon="11.071230549350194" id="-26462">
		<tag k="fixme" v="consider natural=peak for the most distinct mountains in the district" />
		<tag k="name" v="Dalåsen" />
		<tag k="natural" v="hill" />
		<tag k="place" v="locality" />
		<tag k="ssr:stedsnr" v="811436" />
	</node>
	<node lat="59.171541668028894" lon="11.070286105944843" id="-26463">
		<tag k="fixme" v="consider natural=peak for the most distinct mountains in the district" />
		<tag k="name" v="Hansåsen" />
		<tag k="natural" v="hill" />
		<tag k="place" v="locality" />
		<tag k="ssr:stedsnr" v="811438" />
	</node>
	<node lat="59.30019999567071" lon="10.958886118696945" id="-26477">
		<tag k="name" v="Grettelandsdalen" />
		<tag k="natural" v="valley" />
		<tag k="place" v="locality" />
		<tag k="ssr:stedsnr" v="845109" />
	</node>
	<node lat="59.278216667424864" lon="10.862877783343814" id="-26483">
		<tag k="fixme" v="consider natural=peak for the most distinct mountains in the district" />
		<tag k="name" v="Kalvås" />
		<tag k="natural" v="hill" />
		<tag k="place" v="locality" />
		<tag k="ssr:stedsnr" v="846814" />
	</node>
	<node lat="59.14922777574849" lon="10.933463896356095" id="-26497">
		<tag k="fixme" v="consider natural=peak for the most distinct mountains in the district" />
		<tag k="name" v="Lunderamsa" />
		<tag k="natural" v="hill" />
		<tag k="place" v="locality" />
		<tag k="ssr:stedsnr" v="852626" />
	</node>
	<node lat="59.09340842831968" lon="10.78078244028607" id="-26506">
		<tag k="alt_name" v="Kjerka" />
		<tag k="name" v="Alkehullet" />
		<tag k="natural" v="cliff" />
		<tag k="ssr:stedsnr" v="904423" />
	</node>
	<node lat="59.24342499659388" lon="10.924083330590616" id="-26511">
		<tag k="fixme" v="consider natural=peak for the most distinct mountains in the district" />
		<tag k="name" v="Gluppefjellet" />
		<tag k="natural" v="hill" />
		<tag k="place" v="locality" />
		<tag k="ssr:stedsnr" v="906862" />
	</node>
	<node lat="59.254544440874746" lon="11.036969442121663" id="-26514">
		<tag k="name" v="Påskefjellet" />
		<tag k="natural" v="hill" />
		<tag k="place" v="locality" />
		<tag k="ssr:stedsnr" v="908900" />
	</node>
	<node lat="59.2200126797339" lon="10.869102118658041" id="-26575">
		<tag k="fixme" v="consider natural=peak for the most distinct mountains in the district" />
		<tag k="name" v="Åleberget" />
		<tag k="natural" v="hill" />
		<tag k="place" v="locality" />
		<tag k="ssr:stedsnr" v="978124" />
	</node>
	<node lat="59.253238892053574" lon="11.089158325195328" id="-26713">
		<tag k="name" v="Brudalen" />
		<tag k="natural" v="valley" />
		<tag k="place" v="locality" />
		<tag k="ssr:stedsnr" v="22053" />
	</node>
	<node lat="59.260644439973575" lon="11.11365833905946" id="-26716">
		<tag k="name" v="Gatedalen" />
		<tag k="natural" v="valley" />
		<tag k="place" v="locality" />
		<tag k="ssr:stedsnr" v="22161" />
	</node>
	<node lat="59.25042777668775" lon="11.116727784603773" id="-26768">
		<tag k="alt_name" v="Molteberg nordre" />
		<tag k="name" v="Nordre Molteberg" />
		<tag k="natural" v="hill" />
		<tag k="place" v="locality" />
		<tag k="ssr:stedsnr" v="83163" />
	</node>
	<node lat="59.17683055264694" lon="11.05498611223754" id="-26769">
		<tag k="fixme" v="consider natural=peak for the most distinct mountains in the district" />
		<tag k="name" v="Svarteberget" />
		<tag k="natural" v="hill" />
		<tag k="place" v="locality" />
		<tag k="ssr:stedsnr" v="83447" />
	</node>
	<node lat="59.204916667413556" lon="10.908869439555813" id="-26778">
		<tag k="name" v="Rødsfjellet" />
		<tag k="natural" v="hill" />
		<tag k="place" v="locality" />
		<tag k="ssr:stedsnr" v="102940" />
	</node>
	<node lat="59.28823888689966" lon="10.80885833639458" id="-26779">
		<tag k="fixme" v="consider natural=peak for the most distinct mountains in the district" />
		<tag k="name" v="Solbergfjellet" />
		<tag k="natural" v="hill" />
		<tag k="place" v="locality" />
		<tag k="ssr:stedsnr" v="106110" />
	</node>
	<node lat="59.17646944493449" lon="11.052500006519194" id="-26783">
		<tag k="name" v="Vabakken" />
		<tag k="natural" v="slope" />
		<tag k="place" v="locality" />
		<tag k="ssr:stedsnr" v="115438" />
	</node>
	<node lat="59.24984444204232" lon="10.886933327142145" id="-26794">
		<tag k="fixme" v="consider natural=peak for the most distinct mountains in the district" />
		<tag k="name" v="Borgåsen" />
		<tag k="natural" v="hill" />
		<tag k="place" v="locality" />
		<tag k="ssr:stedsnr" v="117192" />
	</node>
	<node lat="59.23599999935921" lon="10.758250000388466" id="-26813">
		<tag k="fixme" v="consider natural=peak for the most distinct mountains in the district" />
		<tag k="name" v="Kollen" />
		<tag k="natural" v="hill" />
		<tag k="place" v="locality" />
		<tag k="ssr:stedsnr" v="122290" />
	</node>
	<node lat="59.20484999704543" lon="10.786475005179103" id="-26819">
		<tag k="fixme" v="consider natural=peak for the most distinct mountains in the district" />
		<tag k="name" v="Håbogen" />
		<tag k="natural" v="hill" />
		<tag k="place" v="locality" />
		<tag k="ssr:stedsnr" v="123311" />
	</node>
	<node lat="59.23666666296787" lon="10.9906194401124" id="-26848">
		<tag k="name" v="Nøklebyberget" />
		<tag k="natural" v="hill" />
		<tag k="place" v="locality" />
		<tag k="ssr:stedsnr" v="161446" />
	</node>
	<node lat="59.2039916661295" lon="10.821283330681155" id="-26856">
		<tag k="fixme" v="consider natural=peak for the most distinct mountains in the district" />
		<tag k="name" v="Kirkeberget" />
		<tag k="natural" v="hill" />
		<tag k="place" v="locality" />
		<tag k="ssr:stedsnr" v="176018" />
	</node>
	<node lat="59.29339722329536" lon="10.87424166541613" id="-26871">
		<tag k="fixme" v="consider natural=peak for the most distinct mountains in the district" />
		<tag k="name" v="Burås" />
		<tag k="natural" v="hill" />
		<tag k="place" v="locality" />
		<tag k="ssr:stedsnr" v="177916" />
	</node>
	<node lat="59.292336107524136" lon="10.992255555787995" id="-26879">
		<tag k="fixme" v="consider natural=peak for the most distinct mountains in the district" />
		<tag k="name" v="Blåfjell" />
		<tag k="natural" v="hill" />
		<tag k="place" v="locality" />
		<tag k="ssr:stedsnr" v="180029" />
	</node>
	<node lat="59.206461107126" lon="10.834025001744044" id="-26882">
		<tag k="name" v="Geiteryggen" />
		<tag k="natural" v="ridge" />
		<tag k="place" v="locality" />
		<tag k="ssr:stedsnr" v="183312" />
	</node>
	<node lat="59.14049999672511" lon="11.077147221822887" id="-26892">
		<tag k="fixme" v="consider natural=peak for the most distinct mountains in the district" />
		<tag k="name" v="Slottsfjellet" />
		<tag k="natural" v="hill" />
		<tag k="place" v="locality" />
		<tag k="ssr:stedsnr" v="184726" />
	</node>
	<node lat="59.29081111497102" lon="10.910969445960117" id="-26902">
		<tag k="alt_name" v="Høyomfjellet" />
		<tag k="fixme" v="consider natural=peak for the most distinct mountains in the district" />
		<tag k="name" v="Høyumfjellet" />
		<tag k="natural" v="hill" />
		<tag k="place" v="locality" />
		<tag k="ssr:stedsnr" v="185370" />
	</node>
	<node lat="59.161430551412465" lon="11.055099992202594" id="-26909">
		<tag k="name" v="Midtre Grandalen" />
		<tag k="natural" v="valley" />
		<tag k="place" v="locality" />
		<tag k="ssr:stedsnr" v="204868" />
	</node>
	<node lat="59.19835833516593" lon="10.913283328289964" id="-26918">
		<tag k="fixme" v="consider natural=peak for the most distinct mountains in the district" />
		<tag k="name" v="Åkerberget" />
		<tag k="natural" v="hill" />
		<tag k="place" v="locality" />
		<tag k="ssr:stedsnr" v="297235" />
	</node>
	<node lat="59.21194444221288" lon="10.903794451201723" id="-26919">
		<tag k="fixme" v="consider natural=peak for the most distinct mountains in the district" />
		<tag k="name" v="Lenafjellet" />
		<tag k="natural" v="hill" />
		<tag k="place" v="locality" />
		<tag k="ssr:stedsnr" v="297844" />
	</node>
	<node lat="59.24566388721575" lon="10.828694445657709" id="-26924">
		<tag k="name" v="Elinsberget" />
		<tag k="natural" v="hill" />
		<tag k="place" v="locality" />
		<tag k="ssr:stedsnr" v="297295" />
	</node>
	<node lat="59.21959722511282" lon="10.95636666656632" id="-26937">
		<tag k="fixme" v="consider natural=peak for the most distinct mountains in the district" />
		<tag k="name" v="Bratthammeren" />
		<tag k="natural" v="hill" />
		<tag k="place" v="locality" />
		<tag k="ssr:stedsnr" v="297482" />
	</node>
	<node lat="59.20528055303469" lon="11.000597221520565" id="-26942">
		<tag k="fixme" v="consider natural=peak for the most distinct mountains in the district" />
		<tag k="name" v="Haugstenåsen" />
		<tag k="natural" v="hill" />
		<tag k="place" v="locality" />
		<tag k="ssr:stedsnr" v="297752" />
	</node>
	<node lat="59.267949996139926" lon="10.887180563152487" id="-26955">
		<tag k="fixme" v="consider natural=peak for the most distinct mountains in the district" />
		<tag k="name" v="Flaskeberget" />
		<tag k="natural" v="hill" />
		<tag k="place" v="locality" />
		<tag k="ssr:stedsnr" v="299821" />
	</node>
	<node lat="59.236122221368284" lon="10.87183611051775" id="-26964">
		<tag k="fixme" v="consider natural=peak for the most distinct mountains in the district" />
		<tag k="name" v="Vetaberget" />
		<tag k="natural" v="hill" />
		<tag k="place" v="locality" />
		<tag k="ssr:stedsnr" v="304256" />
	</node>
	<node lat="59.190666668160084" lon="11.074438892442473" id="-26990">
		<tag k="fixme" v="consider natural=peak for the most distinct mountains in the district" />
		<tag k="name" v="Løen" />
		<tag k="natural" v="hill" />
		<tag k="place" v="locality" />
		<tag k="ssr:stedsnr" v="325445" />
	</node>
	<node lat="59.23564722216251" lon="10.747749995626739" id="-27038">
		<tag k="alt_name" v="Stokkvikberget" />
		<tag k="fixme" v="consider natural=peak for the most distinct mountains in the district" />
		<tag k="name" v="Steggeberget" />
		<tag k="natural" v="hill" />
		<tag k="place" v="locality" />
		<tag k="ssr:stedsnr" v="365286" />
	</node>
	<node lat="59.189258337702505" lon="10.818188881996548" id="-27045">
		<tag k="fixme" v="consider natural=peak for the most distinct mountains in the district" />
		<tag k="name" v="Havneberget" />
		<tag k="natural" v="hill" />
		<tag k="place" v="locality" />
		<tag k="ssr:stedsnr" v="365388" />
	</node>
	<node lat="59.15559999907137" lon="10.936902779948102" id="-27050">
		<tag k="alt_name" v="Breidfjellet" />
		<tag k="fixme" v="consider natural=peak for the most distinct mountains in the district" />
		<tag k="name" v="Breifjell" />
		<tag k="natural" v="hill" />
		<tag k="place" v="locality" />
		<tag k="ssr:stedsnr" v="366636" />
	</node>
	<node lat="59.19124999816416" lon="10.813594450198018" id="-27051">
		<tag k="fixme" v="consider natural=peak for the most distinct mountains in the district" />
		<tag k="name" v="Blåsopp" />
		<tag k="natural" v="hill" />
		<tag k="place" v="locality" />
		<tag k="ssr:stedsnr" v="366387" />
	</node>
	<node lat="59.154674995898624" lon="11.05507499546137" id="-27055">
		<tag k="fixme" v="consider natural=peak for the most distinct mountains in the district" />
		<tag k="name" v="Blåsåsen" />
		<tag k="natural" v="hill" />
		<tag k="place" v="locality" />
		<tag k="ssr:stedsnr" v="366644" />
	</node>
	<node lat="59.22178611280179" lon="10.91245555752848" id="-27071">
		<tag k="fixme" v="consider natural=peak for the most distinct mountains in the district" />
		<tag k="name" v="Galoppen" />
		<tag k="natural" v="hill" />
		<tag k="place" v="locality" />
		<tag k="ssr:stedsnr" v="418353" />
	</node>
	<node lat="59.22406111298219" lon="10.937241669242695" id="-27073">
		<tag k="fixme" v="consider natural=peak for the most distinct mountains in the district" />
		<tag k="name" v="Bjørnefjell" />
		<tag k="natural" v="hill" />
		<tag k="place" v="locality" />
		<tag k="ssr:stedsnr" v="418377" />
	</node>
	<node lat="59.29354444287611" lon="10.862030559366882" id="-27090">
		<tag k="fixme" v="consider natural=peak for the most distinct mountains in the district" />
		<tag k="name" v="Røsåberget" />
		<tag k="natural" v="hill" />
		<tag k="place" v="locality" />
		<tag k="ssr:stedsnr" v="421850" />
	</node>
	<node lat="59.1927472260785" lon="11.010683339644224" id="-27092">
		<tag k="name" v="Skremmelia" />
		<tag k="natural" v="slope" />
		<tag k="place" v="locality" />
		<tag k="ssr:stedsnr" v="420819" />
	</node>
	<node lat="59.240930556716826" lon="10.951119435849563" id="-27095">
		<tag k="name" v="Renna" />
		<tag k="natural" v="valley" />
		<tag k="place" v="locality" />
		<tag k="ssr:stedsnr" v="422869" />
	</node>
	<node lat="59.24860833556962" lon="10.94529722294108" id="-27098">
		<tag k="fixme" v="consider natural=peak for the most distinct mountains in the district" />
		<tag k="name" v="Krikenåsen" />
		<tag k="natural" v="hill" />
		<tag k="place" v="locality" />
		<tag k="ssr:stedsnr" v="422885" />
	</node>
	<node lat="59.20837126912508" lon="10.9356557642474" id="-27099">
		<tag k="alt_name" v="Eskildsfjellet" />
		<tag k="name" v="Bjølstadfjellet" />
		<tag k="natural" v="hill" />
		<tag k="place" v="locality" />
		<tag k="ssr:stedsnr" v="423989" />
	</node>
	<node lat="59.13982222208146" lon="11.049144442679655" id="-27106">
		<tag k="fixme" v="multiple name tags, choose one and add the other to alt_name; consider natural=peak for the most distinct mountains in the district" />
		<tag k="name" v="Hvalås;Vardefjellet" />
		<tag k="natural" v="hill" />
		<tag k="place" v="locality" />
		<tag k="ssr:stedsnr" v="427694" />
	</node>
	<node lat="59.168022224308984" lon="11.080916664735154" id="-27120">
		<tag k="fixme" v="consider natural=peak for the most distinct mountains in the district" />
		<tag k="name" v="Brekkåsen" />
		<tag k="natural" v="hill" />
		<tag k="place" v="locality" />
		<tag k="ssr:stedsnr" v="447447" />
	</node>
	<node lat="59.29126944093118" lon="10.843925006417098" id="-27126">
		<tag k="name" v="Bjørndalen" />
		<tag k="natural" v="valley" />
		<tag k="place" v="locality" />
		<tag k="ssr:stedsnr" v="495843" />
	</node>
	<node lat="59.208522226157605" lon="10.813886109647544" id="-27138">
		<tag k="fixme" v="consider natural=peak for the most distinct mountains in the district" />
		<tag k="name" v="Skjellumsfjellet" />
		<tag k="natural" v="hill" />
		<tag k="place" v="locality" />
		<tag k="ssr:stedsnr" v="540033" />
	</node>
	<node lat="59.217530555524434" lon="10.935502772885952" id="-27139">
		<tag k="fixme" v="consider natural=peak for the most distinct mountains in the district" />
		<tag k="name" v="St. Hansfjellet" />
		<tag k="natural" v="hill" />
		<tag k="place" v="locality" />
		<tag k="ssr:stedsnr" v="539454" />
	</node>
	<node lat="59.0979027778412" lon="10.782619444685531" id="-27147">
		<tag k="name" v="Raset" />
		<tag k="natural" v="cliff" />
		<tag k="ssr:stedsnr" v="540421" />
	</node>
	<node lat="59.262394443483814" lon="10.885661116592136" id="-27150">
		<tag k="fixme" v="consider natural=peak for the most distinct mountains in the district" />
		<tag k="name" v="Brusås" />
		<tag k="natural" v="hill" />
		<tag k="place" v="locality" />
		<tag k="ssr:stedsnr" v="542795" />
	</node>
	<node lat="59.24316111366141" lon="10.893822222585138" id="-27156">
		<tag k="fixme" v="consider natural=peak for the most distinct mountains in the district" />
		<tag k="name" v="Skåratoppen" />
		<tag k="natural" v="hill" />
		<tag k="place" v="locality" />
		<tag k="ssr:stedsnr" v="542835" />
	</node>
	<node lat="59.2173388875983" lon="10.806366658306937" id="-27172">
		<tag k="fixme" v="consider natural=peak for the most distinct mountains in the district" />
		<tag k="name" v="Onsøyknipen" />
		<tag k="natural" v="hill" />
		<tag k="place" v="locality" />
		<tag k="ssr:stedsnr" v="547329" />
	</node>
	<node lat="59.22263611110027" lon="11.017963896004511" id="-27204">
		<tag k="name" v="Påleberget" />
		<tag k="natural" v="hill" />
		<tag k="place" v="locality" />
		<tag k="ssr:stedsnr" v="599728" />
	</node>
	<node lat="59.30423055986567" lon="10.920894439808439" id="-27220">
		<tag k="name" v="Svartdalen" />
		<tag k="natural" v="valley" />
		<tag k="place" v="locality" />
		<tag k="ssr:stedsnr" v="602918" />
	</node>
	<node lat="59.22668332896025" lon="11.00490000541593" id="-27263">
		<tag k="name" v="Kjølberg" />
		<tag k="natural" v="hill" />
		<tag k="place" v="locality" />
		<tag k="ssr:stedsnr" v="646434" />
	</node>
	<node lat="59.22205833144417" lon="10.961766660798155" id="-27281">
		<tag k="fixme" v="consider natural=peak for the most distinct mountains in the district" />
		<tag k="name" v="Mørkedalen" />
		<tag k="natural" v="hill" />
		<tag k="place" v="locality" />
		<tag k="ssr:stedsnr" v="661465" />
	</node>
	<node lat="59.20943889016402" lon="11.013366673672722" id="-27283">
		<tag k="name" v="Bjørneklova" />
		<tag k="natural" v="valley" />
		<tag k="place" v="locality" />
		<tag k="ssr:stedsnr" v="661470" />
	</node>
	<node lat="59.21598889034289" lon="10.894927773232407" id="-27289">
		<tag k="name" v="Åledalen" />
		<tag k="natural" v="valley" />
		<tag k="place" v="locality" />
		<tag k="ssr:stedsnr" v="661860" />
	</node>
	<node lat="59.24953055249601" lon="11.050155553787297" id="-27302">
		<tag k="fixme" v="consider natural=peak for the most distinct mountains in the district" />
		<tag k="name" v="Gudmundsberget" />
		<tag k="natural" v="hill" />
		<tag k="place" v="locality" />
		<tag k="ssr:stedsnr" v="665775" />
	</node>
	<node lat="59.18878611320952" lon="11.022127770480033" id="-27310">
		<tag k="alt_name" v="Varden" />
		<tag k="fixme" v="consider natural=peak for the most distinct mountains in the district" />
		<tag k="name" v="Vardenibba" />
		<tag k="natural" v="hill" />
		<tag k="place" v="locality" />
		<tag k="ssr:stedsnr" v="669291" />
	</node>
	<node lat="59.198265968941406" lon="10.804190701576102" id="-27327">
		<tag k="fixme" v="consider natural=peak for the most distinct mountains in the district" />
		<tag k="name" v="Vilbergtoppen" />
		<tag k="natural" v="hill" />
		<tag k="place" v="locality" />
		<tag k="ssr:stedsnr" v="722050" />
	</node>
	<node lat="59.19493888487188" lon="10.935522214029467" id="-27329">
		<tag k="fixme" v="consider natural=peak for the most distinct mountains in the district" />
		<tag k="name" v="Svenskeberget" />
		<tag k="natural" v="hill" />
		<tag k="place" v="locality" />
		<tag k="ssr:stedsnr" v="722236" />
	</node>
	<node lat="59.20718055305728" lon="10.919294440305405" id="-27330">
		<tag k="fixme" v="consider natural=peak for the most distinct mountains in the district" />
		<tag k="name" v="Åsgårdsvarden" />
		<tag k="natural" v="hill" />
		<tag k="place" v="locality" />
		<tag k="ssr:stedsnr" v="722241" />
	</node>
	<node lat="59.244136115083684" lon="10.913147221367861" id="-27352">
		<tag k="fixme" v="consider natural=peak for the most distinct mountains in the district" />
		<tag k="name" v="Korpeknotten" />
		<tag k="natural" v="hill" />
		<tag k="place" v="locality" />
		<tag k="ssr:stedsnr" v="724856" />
	</node>
	<node lat="59.274330555927335" lon="10.841780551712302" id="-27356">
		<tag k="fixme" v="consider natural=peak for the most distinct mountains in the district" />
		<tag k="name" v="Blåbærberget" />
		<tag k="natural" v="hill" />
		<tag k="place" v="locality" />
		<tag k="ssr:stedsnr" v="724815" />
	</node>
	<node lat="59.261705559385994" lon="10.976833332554078" id="-27361">
		<tag k="name" v="Borredalen" />
		<tag k="natural" v="valley" />
		<tag k="place" v="locality" />
		<tag k="ssr:stedsnr" v="726962" />
	</node>
	<node lat="59.16929722156608" lon="11.098155560645525" id="-27391">
		<tag k="name" v="Ma" />
		<tag k="place" v="locality" />
		<tag k="ssr:stedsnr" v="750456" />
	</node>
	<node lat="59.26760833417944" lon="10.883441661983902" id="-27427">
		<tag k="fixme" v="consider natural=peak for the most distinct mountains in the district" />
		<tag k="name" v="Stangeberget" />
		<tag k="natural" v="hill" />
		<tag k="place" v="locality" />
		<tag k="ssr:stedsnr" v="785790" />
	</node>
	<node lat="59.239919441564055" lon="10.886805552109903" id="-27428">
		<tag k="fixme" v="consider natural=peak for the most distinct mountains in the district" />
		<tag k="name" v="Lienfjell" />
		<tag k="natural" v="hill" />
		<tag k="place" v="locality" />
		<tag k="ssr:stedsnr" v="785833" />
	</node>
	<node lat="59.22604722343203" lon="11.076047223836959" id="-27435">
		<tag k="fixme" v="consider natural=peak for the most distinct mountains in the district" />
		<tag k="name" v="Ramnefjellet" />
		<tag k="natural" v="hill" />
		<tag k="place" v="locality" />
		<tag k="ssr:stedsnr" v="790241" />
	</node>
	<node lat="59.19799901865812" lon="10.796273083200708" id="-27461">
		<tag k="name" v="Ramseklov" />
		<tag k="place" v="locality" />
		<tag k="ssr:stedsnr" v="792054" />
	</node>
	<node lat="59.228444442314625" lon="10.684288880502457" id="-27468">
		<tag k="name" v="Svarteberget" />
		<tag k="natural" v="cliff" />
		<tag k="ssr:stedsnr" v="813796" />
	</node>
	<node lat="59.20383611529144" lon="10.80791111424722" id="-27484">
		<tag k="fixme" v="consider natural=peak for the most distinct mountains in the district" />
		<tag k="name" v="Lensmannsfjellet" />
		<tag k="natural" v="hill" />
		<tag k="place" v="locality" />
		<tag k="ssr:stedsnr" v="844020" />
	</node>
	<node lat="59.1615527760496" lon="11.052269444106056" id="-27491">
		<tag k="name" v="Vestre Grandalen" />
		<tag k="natural" v="valley" />
		<tag k="place" v="locality" />
		<tag k="ssr:stedsnr" v="845682" />
	</node>
	<node lat="59.200750001617294" lon="11.008405551292158" id="-27495">
		<tag k="name" v="Klokkerfjellet" />
		<tag k="natural" v="hill" />
		<tag k="place" v="locality" />
		<tag k="ssr:stedsnr" v="845841" />
	</node>
	<node lat="59.23988610938252" lon="11.018947218557447" id="-27505">
		<tag k="fixme" v="consider natural=peak for the most distinct mountains in the district" />
		<tag k="name" v="Torpåsen" />
		<tag k="natural" v="hill" />
		<tag k="place" v="locality" />
		<tag k="ssr:stedsnr" v="847888" />
	</node>
	<node lat="59.2356749959112" lon="10.836061114112907" id="-27508">
		<tag k="fixme" v="consider natural=peak for the most distinct mountains in the district" />
		<tag k="name" v="Lerberget" />
		<tag k="natural" v="hill" />
		<tag k="place" v="locality" />
		<tag k="ssr:stedsnr" v="851448" />
	</node>
	<node lat="59.2128722210184" lon="11.046591662230583" id="-27575">
		<tag k="name" v="Gulliksdalen" />
		<tag k="natural" v="valley" />
		<tag k="place" v="locality" />
		<tag k="ssr:stedsnr" v="966580" />
	</node>
	<node lat="59.292377773790925" lon="10.98649721758622" id="-27580">
		<tag k="fixme" v="consider natural=peak for the most distinct mountains in the district" />
		<tag k="name" v="Høydalsfjellet" />
		<tag k="natural" v="hill" />
		<tag k="place" v="locality" />
		<tag k="ssr:stedsnr" v="968060" />
	</node>
</osm>
