<?xml version="1.0" encoding="UTF-8"?>
<osm generator="osmapis" version="0.6">
	<node id="-208808" lat="59.2222780993" lon="10.7609726546">
		<tag k="fixme" v="consider place=hamlet" />
		<tag k="loc_name" v="Hanke" />
		<tag k="name" v="Hankø" />
		<tag k="place" v="farm" />
		<tag k="ssr:stedsnr" v="1072756" />
	</node>
	<node id="-208771" lat="59.2510809048" lon="10.8318914349">
		<tag k="fixme" v="consider place=hamlet" />
		<tag k="name" v="Vestre Utne" />
		<tag k="place" v="farm" />
		<tag k="ssr:stedsnr" v="985613" />
	</node>
	<node id="-208763" lat="59.2631400819" lon="11.063474339">
		<tag k="name" v="Vesten" />
		<tag k="place" v="quarter" />
		<tag k="ssr:stedsnr" v="981830" />
	</node>
	<node id="-208762" lat="59.1684449879" lon="10.933357313">
		<tag k="name" v="Holmelia" />
		<tag k="place" v="quarter" />
		<tag k="ssr:stedsnr" v="981829" />
	</node>
	<node id="-208756" lat="59.2277198454" lon="10.9905235735">
		<tag k="fixme" v="consider place=hamlet" />
		<tag k="loc_name" v="Sellebakk" />
		<tag k="name" v="Sellebak" />
		<tag k="place" v="farm" />
		<tag k="ssr:stedsnr" v="972001" />
	</node>
	<node id="-208755" lat="59.2158305555" lon="10.9301527723">
		<tag k="name" v="Stranda" />
		<tag k="place" v="quarter" />
		<tag k="ssr:stedsnr" v="968995" />
	</node>
	<node id="-208754" lat="59.2455166663" lon="11.0368499921">
		<tag k="name" v="Bergli" />
		<tag k="place" v="isolated_dwelling" />
		<tag k="ssr:stedsnr" v="968779" />
	</node>
	<node id="-208753" lat="59.2577972208" lon="10.8422749988">
		<tag k="alt_name" v="Mossik søndre" />
		<tag k="name" v="Søndre Mossik" />
		<tag k="place" v="farm" />
		<tag k="ssr:stedsnr" v="967748" />
	</node>
	<node id="-208752" lat="59.2712416704" lon="10.9042083315">
		<tag k="alt_name" v="Ødegården nordre" />
		<tag k="name" v="Nordre Ødegården" />
		<tag k="place" v="farm" />
		<tag k="ssr:stedsnr" v="967773" />
	</node>
	<node id="-208751" lat="59.3032250027" lon="10.8803166671">
		<tag k="alt_name" v="Ørmen nordre" />
		<tag k="name" v="Nordre Ørmen" />
		<tag k="place" v="farm" />
		<tag k="ssr:stedsnr" v="966895" />
	</node>
	<node id="-208749" lat="59.2219055568" lon="10.9527666731">
		<tag k="name" v="Lillebekk" />
		<tag k="place" v="farm" />
		<tag k="ssr:stedsnr" v="966585" />
	</node>
	<node id="-208747" lat="59.215030555" lon="11.0194749925">
		<tag k="name" v="Bråten" />
		<tag k="place" v="locality" />
		<tag k="ssr:stedsnr" v="966576" />
	</node>
	<node id="-208746" lat="59.2409249956" lon="10.8519000048">
		<tag k="alt_name" v="Kjenne østre" />
		<tag k="name" v="Østre Kjenne" />
		<tag k="place" v="farm" />
		<tag k="ssr:stedsnr" v="966230" />
	</node>
	<node id="-208745" lat="59.2500138865" lon="10.7626916708">
		<tag k="name" v="Åsheim" />
		<tag k="place" v="isolated_dwelling" />
		<tag k="ssr:stedsnr" v="965924" />
	</node>
	<node id="-208739" lat="59.2086833298" lon="10.9426222279">
		<tag k="leisure" v="park" />
		<tag k="name" v="Kirkeparken" />
		<tag k="ssr:stedsnr" v="964889" />
	</node>
	<node id="-208735" lat="59.2632499955" lon="10.7509888953">
		<tag k="name" v="Bråten" />
		<tag k="place" v="farm" />
		<tag k="ssr:stedsnr" v="964292" />
	</node>
	<node id="-208732" lat="59.2146444432" lon="11.0787777831">
		<tag k="fixme" v="consider place=hamlet" />
		<tag k="name" v="Skivika" />
		<tag k="place" v="farm" />
		<tag k="ssr:stedsnr" v="962606" />
	</node>
	<node id="-208726" lat="59.1999722258" lon="10.9029194473">
		<tag k="name" v="Rød" />
		<tag k="place" v="isolated_dwelling" />
		<tag k="ssr:stedsnr" v="952942" />
	</node>
	<node id="-208722" lat="59.1772583363" lon="11.0871472242">
		<tag k="alt_name" v="Heie søndre" />
		<tag k="name" v="Søndre Heie" />
		<tag k="place" v="farm" />
		<tag k="ssr:stedsnr" v="872492" />
	</node>
	<node id="-208721" lat="59.1769888922" lon="11.0894583409">
		<tag k="name" v="Heieplass" />
		<tag k="place" v="isolated_dwelling" />
		<tag k="ssr:stedsnr" v="872490" />
	</node>
	<node id="-208720" lat="59.1912527741" lon="11.0627111136">
		<tag k="name" v="Lera" />
		<tag k="place" v="locality" />
		<tag k="ssr:stedsnr" v="872485" />
	</node>
	<node id="-208719" lat="59.1987194426" lon="11.0578888934">
		<tag k="name" v="Sandbakken" />
		<tag k="place" v="locality" />
		<tag k="ssr:stedsnr" v="872482" />
	</node>
	<node id="-208718" lat="59.2610444451" lon="11.0607694507">
		<tag k="alt_name" v="Vesten mellem" />
		<tag k="name" v="Mellom-Vesten" />
		<tag k="place" v="farm" />
		<tag k="ssr:stedsnr" v="872088" />
	</node>
	<node id="-208711" lat="59.1738361115" lon="10.9247222183">
		<tag k="name" v="Strålsund" />
		<tag k="place" v="farm" />
		<tag k="ssr:stedsnr" v="852352" />
	</node>
	<node id="-208709" lat="59.2864833304" lon="10.903761107">
		<tag k="name" v="Svirød" />
		<tag k="place" v="farm" />
		<tag k="ssr:stedsnr" v="852392" />
	</node>
	<node id="-208705" lat="59.243766666" lon="10.8261916676">
		<tag k="alt_name" v="Øtne" />
		<tag k="name" v="Utne" />
		<tag k="place" v="farm" />
		<tag k="ssr:stedsnr" v="851451" />
	</node>
	<node id="-208702" lat="59.2047499983" lon="10.8962499973">
		<tag k="fixme" v="consider place=suburb, village or hamlet" />
		<tag k="name" v="Krossnes" />
		<tag k="place" v="quarter" />
		<tag k="ssr:stedsnr" v="851320" />
	</node>
	<node id="-208700" lat="59.19216389" lon="11.0394166582">
		<tag k="name" v="Stubbene" />
		<tag k="place" v="farm" />
		<tag k="ssr:stedsnr" v="851303" />
	</node>
	<node id="-208699" lat="59.212716666" lon="11.0008750046">
		<tag k="name" v="Begby" />
		<tag k="place" v="village" />
		<tag k="ssr:stedsnr" v="851283" />
	</node>
	<node id="-208698" lat="59.2107499982" lon="11.0539250061">
		<tag k="fixme" v="consider place=hamlet" />
		<tag k="name" v="Grimstad" />
		<tag k="place" v="farm" />
		<tag k="ssr:stedsnr" v="851278" />
	</node>
	<node id="-208697" lat="59.2022055585" lon="10.8023083351">
		<tag k="name" v="Rørvik" />
		<tag k="place" v="neighbourhood" />
		<tag k="ssr:stedsnr" v="851277" />
	</node>
	<node id="-208694" lat="59.2235194488" lon="10.7783916743">
		<tag k="name" v="Elinborg" />
		<tag k="place" v="isolated_dwelling" />
		<tag k="ssr:stedsnr" v="851246" />
	</node>
	<node id="-208693" lat="59.2177461422" lon="10.8476901664">
		<tag k="fixme" v="consider place=hamlet" />
		<tag k="name" v="Solbrekke" />
		<tag k="place" v="farm" />
		<tag k="ssr:stedsnr" v="851240" />
	</node>
	<node id="-208689" lat="59.250316665" lon="11.0083750071">
		<tag k="name" v="Omberg gartneri" />
		<tag k="place" v="locality" />
		<tag k="ssr:stedsnr" v="847864" />
	</node>
	<node id="-208688" lat="59.242061107" lon="11.0344527731">
		<tag k="name" v="Lilleborgsand" />
		<tag k="place" v="isolated_dwelling" />
		<tag k="ssr:stedsnr" v="847768" />
	</node>
	<node id="-208687" lat="59.2832555574" lon="10.9998000061">
		<tag k="alt_name" v="Rostad mellem" />
		<tag k="name" v="Mellom-Rostad" />
		<tag k="place" v="farm" />
		<tag k="ssr:stedsnr" v="847025" />
	</node>
	<node id="-208685" lat="59.1915027742" lon="10.9206388865">
		<tag k="amenity" v="school" />
		<tag k="name" v="Kråkerøy ungdomsskole" />
		<tag k="ssr:stedsnr" v="846206" />
	</node>
	<node id="-208684" lat="59.1873249957" lon="10.914030558">
		<tag k="alt_name" v="Enhus store" />
		<tag k="name" v="Store Enhus" />
		<tag k="place" v="farm" />
		<tag k="ssr:stedsnr" v="846168" />
	</node>
	<node id="-208683" lat="59.2068777781" lon="10.8547499967">
		<tag k="name" v="Brekke" />
		<tag k="place" v="farm" />
		<tag k="ssr:stedsnr" v="846157" />
	</node>
	<node id="-208682" lat="59.243833337" lon="10.853338882">
		<tag k="name" v="Vestgård" />
		<tag k="place" v="farm" />
		<tag k="ssr:stedsnr" v="846118" />
	</node>
	<node id="-208681" lat="59.2443694481" lon="10.968430558">
		<tag k="name" v="Bjørningstad" />
		<tag k="place" v="farm" />
		<tag k="ssr:stedsnr" v="845850" />
	</node>
	<node id="-208680" lat="59.2375027752" lon="10.9465944405">
		<tag k="amenity" v="nursing_home" />
		<tag k="name" v="Furutun habiliteringshjem" />
		<tag k="ssr:stedsnr" v="845848" />
	</node>
	<node id="-208679" lat="59.1942861149" lon="11.0415555526">
		<tag k="name" v="Glosli" />
		<tag k="place" v="farm" />
		<tag k="ssr:stedsnr" v="845847" />
	</node>
	<node id="-208677" lat="59.236516667" lon="10.983930556">
		<tag k="alt_name" v="Nøkleby østre" />
		<tag k="name" v="Østre Nøkleby" />
		<tag k="place" v="farm" />
		<tag k="ssr:stedsnr" v="845743" />
	</node>
	<node id="-208674" lat="59.2271611092" lon="11.0053833264">
		<tag k="alt_name" v="Kjølberg søndre" />
		<tag k="name" v="Søndre Kjølberg" />
		<tag k="place" v="farm" />
		<tag k="ssr:stedsnr" v="845731" />
	</node>
	<node id="-208670" lat="59.218097225" lon="11.0159083337">
		<tag k="name" v="Ekeberg" />
		<tag k="place" v="quarter" />
		<tag k="ssr:stedsnr" v="845642" />
	</node>
	<node id="-208669" lat="59.2075694443" lon="11.0278638903">
		<tag k="name" v="Kasa" />
		<tag k="place" v="isolated_dwelling" />
		<tag k="ssr:stedsnr" v="845603" />
	</node>
	<node id="-208668" lat="59.246183335" lon="10.8434694519">
		<tag k="name" v="Løkkeberg" />
		<tag k="place" v="farm" />
		<tag k="ssr:stedsnr" v="845240" />
	</node>
	<node id="-208666" lat="59.2076250014" lon="10.9503583329">
		<tag k="amenity" v="school" />
		<tag k="name" v="Cicignon barne- og ungdomsskole" />
		<tag k="ssr:stedsnr" v="844923" />
	</node>
	<node id="-208662" lat="59.2769027744" lon="10.7809833403">
		<tag k="alt_name" v="Kjerre;Kjærre" />
		<tag k="name" v="Kjære" />
		<tag k="place" v="farm" />
		<tag k="ssr:stedsnr" v="844660" />
	</node>
	<node id="-208660" lat="59.1920666654" lon="10.9730027836">
		<tag k="name" v="Klokkerstua" />
		<tag k="place" v="isolated_dwelling" />
		<tag k="ssr:stedsnr" v="844417" />
	</node>
	<node id="-208659" lat="59.1915111148" lon="10.9656500086">
		<tag k="alt_name" v="Sundby" />
		<tag k="name" v="Sommero" />
		<tag k="place" v="locality" />
		<tag k="ssr:stedsnr" v="844416" />
	</node>
	<node id="-208658" lat="59.1958999966" lon="10.9736777757">
		<tag k="name" v="Grafslund" />
		<tag k="place" v="locality" />
		<tag k="ssr:stedsnr" v="844410" />
	</node>
	<node id="-208652" lat="59.2087666675" lon="10.9928833301">
		<tag k="name" v="Lillebyhaugen" />
		<tag k="place" v="isolated_dwelling" />
		<tag k="ssr:stedsnr" v="843524" />
	</node>
	<node id="-208651" lat="59.1962166624" lon="10.9023777862">
		<tag k="alt_name" v="Gyteskjær" />
		<tag k="name" v="Gryteskjær" />
		<tag k="place" v="isolated_dwelling" />
		<tag k="ssr:stedsnr" v="843296" />
	</node>
	<node id="-208640" lat="59.1780250008" lon="11.0857750068">
		<tag k="alt_name" v="Heie nordre" />
		<tag k="name" v="Nordre Heie" />
		<tag k="place" v="farm" />
		<tag k="ssr:stedsnr" v="811433" />
	</node>
	<node id="-208639" lat="59.188686107" lon="11.0706888889">
		<tag k="alt_name" v="Holm nordre" />
		<tag k="name" v="Nordre Holm" />
		<tag k="place" v="farm" />
		<tag k="ssr:stedsnr" v="811427" />
	</node>
	<node id="-208638" lat="59.2031583357" lon="11.0622444459">
		<tag k="alt_name" v="Heieren østre" />
		<tag k="name" v="Østre Heieren" />
		<tag k="place" v="farm" />
		<tag k="ssr:stedsnr" v="811414" />
	</node>
	<node id="-208637" lat="59.2557888865" lon="11.0640499971">
		<tag k="alt_name" v="Tofteberg østre" />
		<tag k="name" v="Østre Tofteberg" />
		<tag k="place" v="farm" />
		<tag k="ssr:stedsnr" v="811088" />
	</node>
	<node id="-208636" lat="59.2571666696" lon="11.070241665">
		<tag k="alt_name" v="Veberg vestre" />
		<tag k="name" v="Vestre Veberg" />
		<tag k="place" v="farm" />
		<tag k="ssr:stedsnr" v="811081" />
	</node>
	<node id="-208635" lat="59.2542444466" lon="11.064408327">
		<tag k="alt_name" v="Tofteberg østre" />
		<tag k="name" v="Østre Tofteberg" />
		<tag k="place" v="farm" />
		<tag k="ssr:stedsnr" v="811080" />
	</node>
	<node id="-208634" lat="59.2509999956" lon="11.0758722252">
		<tag k="alt_name" v="Kviberg søndre" />
		<tag k="name" v="Søndre Kviberg" />
		<tag k="place" v="farm" />
		<tag k="ssr:stedsnr" v="811068" />
	</node>
	<node id="-208633" lat="59.2556555557" lon="11.0945694401">
		<tag k="alt_name" v="Årum mellem" />
		<tag k="name" v="Mellom-Årum" />
		<tag k="place" v="farm" />
		<tag k="ssr:stedsnr" v="811065" />
	</node>
	<node id="-208631" lat="59.2735805585" lon="10.7828555533">
		<tag k="name" v="Kjære" />
		<tag k="place" v="isolated_dwelling" />
		<tag k="ssr:stedsnr" v="792376" />
	</node>
	<node id="-208630" lat="59.2816418679" lon="10.8071566773">
		<tag k="name" v="Bossum" />
		<tag k="place" v="hamlet" />
		<tag k="ssr:stedsnr" v="792373" />
	</node>
	<node id="-208629" lat="59.2596265821" lon="10.9195377111">
		<tag k="fixme" v="consider place=hamlet" />
		<tag k="name" v="Strand" />
		<tag k="place" v="farm" />
		<tag k="ssr:stedsnr" v="792082" />
	</node>
	<node id="-208628" lat="59.2613666645" lon="10.9185166623">
		<tag k="name" v="Strandli" />
		<tag k="place" v="farm" />
		<tag k="ssr:stedsnr" v="792080" />
	</node>
	<node id="-208627" lat="59.260175004" lon="10.9495833418">
		<tag k="alt_name" v="Pompedalen" />
		<tag k="name" v="Pumpedalen" />
		<tag k="place" v="farm" />
		<tag k="ssr:stedsnr" v="792076" />
	</node>
	<node id="-208626" lat="59.2534749993" lon="11.0747499938">
		<tag k="name" v="Haugen" />
		<tag k="place" v="farm" />
		<tag k="ssr:stedsnr" v="792070" />
	</node>
	<node id="-208625" lat="59.1997472191" lon="10.7970999985">
		<tag k="name" v="Ramseklov" />
		<tag k="place" v="isolated_dwelling" />
		<tag k="ssr:stedsnr" v="792054" />
	</node>
	<node id="-208623" lat="59.138597224" lon="11.0760972225">
		<tag k="alt_name" v="Vrakbogen" />
		<tag k="name" v="Vrakebukta" />
		<tag k="place" v="isolated_dwelling" />
		<tag k="ssr:stedsnr" v="791720" />
	</node>
	<node id="-208617" lat="59.1724229331" lon="11.0092334387">
		<tag k="fixme" v="consider place=hamlet" />
		<tag k="name" v="Havna" />
		<tag k="place" v="farm" />
		<tag k="ssr:stedsnr" v="791651" />
	</node>
	<node id="-208616" lat="59.147699998" lon="11.0499972277">
		<tag k="fixme" v="consider place=hamlet" />
		<tag k="name" v="Humlekjær" />
		<tag k="place" v="farm" />
		<tag k="ssr:stedsnr" v="791648" />
	</node>
	<node id="-208615" lat="59.146299997" lon="10.9561444499">
		<tag k="name" v="Rørvik" />
		<tag k="place" v="isolated_dwelling" />
		<tag k="ssr:stedsnr" v="791643" />
	</node>
	<node id="-208612" lat="59.2985972199" lon="10.8921444406">
		<tag k="name" v="Ørmen" />
		<tag k="place" v="farm" />
		<tag k="ssr:stedsnr" v="791395" />
	</node>
	<node id="-208610" lat="59.2423249979" lon="10.7966250047">
		<tag k="name" v="Hov" />
		<tag k="place" v="farm" />
		<tag k="ssr:stedsnr" v="790487" />
	</node>
	<node id="-208609" lat="59.247575004" lon="11.0754500034">
		<tag k="name" v="Haugli" />
		<tag k="place" v="farm" />
		<tag k="ssr:stedsnr" v="790483" />
	</node>
	<node id="-208608" lat="59.181324996" lon="10.8651222253">
		<tag k="name" v="Stenvik" />
		<tag k="place" v="isolated_dwelling" />
		<tag k="ssr:stedsnr" v="790351" />
	</node>
	<node id="-208607" lat="59.1776305599" lon="10.8408277789">
		<tag k="name" v="Myra" />
		<tag k="place" v="farm" />
		<tag k="ssr:stedsnr" v="790346" />
	</node>
	<node id="-208604" lat="59.1977111103" lon="10.875616674">
		<tag k="alt_name" v="Oksevika" />
		<tag k="name" v="Okseviken" />
		<tag k="place" v="quarter" />
		<tag k="ssr:stedsnr" v="790304" />
	</node>
	<node id="-208603" lat="59.1948972199" lon="11.0558222243">
		<tag k="name" v="Fuglenebb" />
		<tag k="place" v="farm" />
		<tag k="ssr:stedsnr" v="790302" />
	</node>
	<node id="-208602" lat="59.2205277807" lon="10.9916583282">
		<tag k="name" v="Nygård" />
		<tag k="place" v="farm" />
		<tag k="ssr:stedsnr" v="790295" />
	</node>
	<node id="-208601" lat="59.2217611154" lon="10.9932027854">
		<tag k="name" v="Vestby" />
		<tag k="place" v="farm" />
		<tag k="ssr:stedsnr" v="790293" />
	</node>
	<node id="-208600" lat="59.2182999983" lon="10.9903500049">
		<tag k="name" v="Sørby" />
		<tag k="place" v="farm" />
		<tag k="ssr:stedsnr" v="790291" />
	</node>
	<node id="-208599" lat="59.2095833342" lon="10.927433337">
		<tag k="name" v="Åsgård" />
		<tag k="place" v="farm" />
		<tag k="ssr:stedsnr" v="790274" />
	</node>
	<node id="-208598" lat="59.2066333345" lon="11.0263888936">
		<tag k="name" v="Nybøle" />
		<tag k="place" v="farm" />
		<tag k="ssr:stedsnr" v="790268" />
	</node>
	<node id="-208597" lat="59.2107250044" lon="11.0405749976">
		<tag k="name" v="Laverød" />
		<tag k="place" v="farm" />
		<tag k="ssr:stedsnr" v="790267" />
	</node>
	<node id="-208596" lat="59.2296472261" lon="10.991383342">
		<tag k="loc_name" v="Sellbakk;Selbak" />
		<tag k="name" v="Sellebakk" />
		<tag k="place" v="village" />
		<tag k="ssr:stedsnr" v="790260" />
	</node>
	<node id="-208595" lat="59.232869443" lon="11.0517861125">
		<tag k="name" v="Linddalen" />
		<tag k="place" v="farm" />
		<tag k="ssr:stedsnr" v="790255" />
	</node>
	<node id="-208594" lat="59.2348222183" lon="11.0876749926">
		<tag k="name" v="Hystad" />
		<tag k="place" v="farm" />
		<tag k="ssr:stedsnr" v="790248" />
	</node>
	<node id="-208592" lat="59.2300249988" lon="10.9009249912">
		<tag k="name" v="Brekke" />
		<tag k="place" v="isolated_dwelling" />
		<tag k="ssr:stedsnr" v="790244" />
	</node>
	<node id="-208588" lat="59.2493055571" lon="10.9847805555">
		<tag k="amenity" v="school" />
		<tag k="name" v="Haugeåsen ungdomsskole" />
		<tag k="ssr:stedsnr" v="786897" />
	</node>
	<node id="-208585" lat="59.2169972263" lon="10.9302527857">
		<tag k="name" v="Holmen" />
		<tag k="place" v="suburb" />
		<tag k="ssr:stedsnr" v="786323" />
	</node>
	<node id="-208584" lat="59.2846361117" lon="10.9412611188">
		<tag k="alt_name" v="Åsen søndre" />
		<tag k="name" v="Søndre Åsen" />
		<tag k="place" v="farm" />
		<tag k="ssr:stedsnr" v="786062" />
	</node>
	<node id="-208582" lat="59.2470388906" lon="10.9208861103">
		<tag k="amenity" v="school" />
		<tag k="name" v="Ambjørnrød skole" />
		<tag k="ssr:stedsnr" v="785841" />
	</node>
	<node id="-208577" lat="59.268386107" lon="10.8454083396">
		<tag k="name" v="Nymark" />
		<tag k="place" v="farm" />
		<tag k="ssr:stedsnr" v="785787" />
	</node>
	<node id="-208576" lat="59.2628888896" lon="10.8581805515">
		<tag k="name" v="Haugerød" />
		<tag k="place" v="farm" />
		<tag k="ssr:stedsnr" v="785785" />
	</node>
	<node id="-208575" lat="59.2590978936" lon="10.8446791317">
		<tag k="fixme" v="consider place=hamlet" />
		<tag k="name" v="Mossik" />
		<tag k="place" v="farm" />
		<tag k="ssr:stedsnr" v="785782" />
	</node>
	<node id="-208574" lat="59.2561111119" lon="10.8791750082">
		<tag k="name" v="Lunden" />
		<tag k="place" v="farm" />
		<tag k="ssr:stedsnr" v="785775" />
	</node>
	<node id="-208573" lat="59.2567805524" lon="10.879369442">
		<tag k="name" v="Ågård" />
		<tag k="place" v="farm" />
		<tag k="ssr:stedsnr" v="785773" />
	</node>
	<node id="-208571" lat="59.2066750007" lon="11.0293694523">
		<tag k="name" v="Kroken" />
		<tag k="place" v="farm" />
		<tag k="ssr:stedsnr" v="784847" />
	</node>
	<node id="-208567" lat="59.2249222225" lon="11.0441222141">
		<tag k="name" v="Bingen" />
		<tag k="place" v="isolated_dwelling" />
		<tag k="ssr:stedsnr" v="784757" />
	</node>
	<node id="-208565" lat="59.2137944464" lon="11.0122722239">
		<tag k="name" v="Fjelly" />
		<tag k="place" v="isolated_dwelling" />
		<tag k="ssr:stedsnr" v="784617" />
	</node>
	<node id="-208563" lat="59.2117527762" lon="11.0125722248">
		<tag k="name" v="Øby" />
		<tag k="place" v="isolated_dwelling" />
		<tag k="ssr:stedsnr" v="784566" />
	</node>
	<node id="-208562" lat="59.1976388931" lon="10.9423805582">
		<tag k="name" v="Bekkhus" />
		<tag k="place" v="isolated_dwelling" />
		<tag k="ssr:stedsnr" v="784409" />
	</node>
	<node id="-208561" lat="59.2194361114" lon="10.9280777777">
		<tag k="leisure" v="pitch" />
		<tag k="name" v="Fredrikstad stadion" />
		<tag k="ssr:stedsnr" v="784253" />
	</node>
	<node id="-208560" lat="59.240858331" lon="10.8477416736">
		<tag k="alt_name" v="Kjenne vestre" />
		<tag k="name" v="Vestre Kjenne" />
		<tag k="place" v="farm" />
		<tag k="ssr:stedsnr" v="784241" />
	</node>
	<node id="-208559" lat="59.3185305583" lon="10.9602583413">
		<tag k="name" v="Nes" />
		<tag k="place" v="farm" />
		<tag k="ssr:stedsnr" v="784093" />
	</node>
	<node id="-208552" lat="59.1763944448" lon="10.9459000015">
		<tag k="name" v="Holmebakken" />
		<tag k="place" v="isolated_dwelling" />
		<tag k="ssr:stedsnr" v="783465" />
	</node>
	<node id="-208551" lat="59.1802527777" lon="11.0438527812">
		<tag k="alt_name" v="Kjelsås søndre" />
		<tag k="name" v="Søndre Kjelsås" />
		<tag k="place" v="farm" />
		<tag k="ssr:stedsnr" v="783445" />
	</node>
	<node id="-208543" lat="59.2126555566" lon="10.9508361119">
		<tag k="name" v="Bydalen" />
		<tag k="place" v="suburb" />
		<tag k="ssr:stedsnr" v="782485" />
	</node>
	<node id="-208541" lat="59.217605555" lon="10.893072227">
		<tag k="alt_name" v="Åle øvre" />
		<tag k="name" v="Øvre Åle" />
		<tag k="place" v="farm" />
		<tag k="ssr:stedsnr" v="782337" />
	</node>
	<node id="-208540" lat="59.1870111101" lon="10.8788972213">
		<tag k="name" v="Sturød" />
		<tag k="place" v="farm" />
		<tag k="ssr:stedsnr" v="782326" />
	</node>
	<node id="-208539" lat="59.2573361146" lon="10.7318305521">
		<tag k="fixme" v="consider natural=beach + surface=sand" />
		<tag k="leisure" v="swimming_area" />
		<tag k="name" v="Solviken" />
		<tag k="place" v="locality" />
		<tag k="ssr:stedsnr" v="782279" />
	</node>
	<node id="-208538" lat="59.202930556" lon="10.9356222285">
		<tag k="amenity" v="nursing_home" />
		<tag k="name" v="Solliheimen" />
		<tag k="ssr:stedsnr" v="782216" />
	</node>
	<node id="-208536" lat="59.1997750041" lon="11.0209055506">
		<tag k="name" v="Nordre Dal" />
		<tag k="place" v="farm" />
		<tag k="ssr:stedsnr" v="782208" />
	</node>
	<node id="-208535" lat="59.2665083301" lon="10.7869138851">
		<tag k="name" v="Bjerke" />
		<tag k="place" v="farm" />
		<tag k="ssr:stedsnr" v="782133" />
	</node>
	<node id="-208534" lat="59.1662444413" lon="11.0486499989">
		<tag k="name" v="Søndre Ødegården" />
		<tag k="place" v="isolated_dwelling" />
		<tag k="ssr:stedsnr" v="782095" />
	</node>
	<node id="-208532" lat="59.2630861113" lon="11.0209166716">
		<tag k="name" v="Nes" />
		<tag k="place" v="quarter" />
		<tag k="ssr:stedsnr" v="770553" />
	</node>
	<node id="-208528" lat="59.2173805538" lon="10.9467444455">
		<tag k="name" v="Glemmen" />
		<tag k="place" v="suburb" />
		<tag k="ssr:stedsnr" v="768985" />
	</node>
	<node id="-208527" lat="59.1976388931" lon="10.9423805582">
		<tag k="name" v="Bekkhus" />
		<tag k="place" v="isolated_dwelling" />
		<tag k="ssr:stedsnr" v="768772" />
	</node>
	<node id="-208515" lat="59.247436109" lon="11.1078222152">
		<tag k="alt_name" v="Molteberg søndre" />
		<tag k="name" v="Søndre Molteberg" />
		<tag k="place" v="farm" />
		<tag k="ssr:stedsnr" v="750446" />
	</node>
	<node id="-208514" lat="59.2431861132" lon="11.0741388866">
		<tag k="name" v="Storhaug" />
		<tag k="place" v="farm" />
		<tag k="ssr:stedsnr" v="750443" />
	</node>
	<node id="-208513" lat="59.1888305515" lon="11.0644805521">
		<tag k="alt_name" v="Korseberg nordre" />
		<tag k="name" v="Nordre Korseberg" />
		<tag k="place" v="farm" />
		<tag k="ssr:stedsnr" v="750433" />
	</node>
	<node id="-208512" lat="59.2609472266" lon="11.0577416712">
		<tag k="alt_name" v="Vesten vestre" />
		<tag k="name" v="Vestre Vesten" />
		<tag k="place" v="farm" />
		<tag k="ssr:stedsnr" v="750074" />
	</node>
	<node id="-208511" lat="59.2627611142" lon="11.0572777795">
		<tag k="alt_name" v="Vesten vestre" />
		<tag k="name" v="Vestre Vesten" />
		<tag k="place" v="farm" />
		<tag k="ssr:stedsnr" v="750073" />
	</node>
	<node id="-208510" lat="59.2619972241" lon="11.1010083411">
		<tag k="name" v="Sunnstad" />
		<tag k="place" v="farm" />
		<tag k="ssr:stedsnr" v="750052" />
	</node>
	<node id="-208509" lat="59.2162666688" lon="11.0600944494">
		<tag k="name" v="Klevane" />
		<tag k="place" v="isolated_dwelling" />
		<tag k="ssr:stedsnr" v="750013" />
	</node>
	<node id="-208508" lat="59.265113888" lon="10.7917361059">
		<tag k="name" v="Halsen" />
		<tag k="place" v="farm" />
		<tag k="ssr:stedsnr" v="743233" />
	</node>
	<node id="-208507" lat="59.2798249977" lon="10.8578916664">
		<tag k="name" v="Kongsberg" />
		<tag k="place" v="farm" />
		<tag k="ssr:stedsnr" v="737824" />
	</node>
	<node id="-208502" lat="59.2165527806" lon="10.9748888931">
		<tag k="name" v="Narnte" />
		<tag k="place" v="quarter" />
		<tag k="ssr:stedsnr" v="648205" />
	</node>
	<node id="-208501" lat="59.1920999966" lon="10.9196749991">
		<tag k="leisure" v="pitch" />
		<tag k="name" v="Kråkerøy stadion" />
		<tag k="ssr:stedsnr" v="647390" />
	</node>
	<node id="-208492" lat="59.2201222203" lon="10.7847305558">
		<tag k="name" v="Finnstad" />
		<tag k="place" v="farm" />
		<tag k="ssr:stedsnr" v="631831" />
	</node>
	<node id="-208488" lat="59.2170277776" lon="11.0754333399">
		<tag k="leisure" v="park" />
		<tag k="name" v="Oldtidspark" />
		<tag k="ssr:stedsnr" v="629498" />
	</node>
	<node id="-208487" lat="59.2027472247" lon="11.0587527772">
		<tag k="alt_name" v="Heieren vestre" />
		<tag k="name" v="Vestre Heieren" />
		<tag k="place" v="farm" />
		<tag k="ssr:stedsnr" v="629435" />
	</node>
	<node id="-208485" lat="59.2522611105" lon="11.0115749938">
		<tag k="fixme" v="consider place=hamlet" />
		<tag k="name" v="Omberg" />
		<tag k="place" v="farm" />
		<tag k="ssr:stedsnr" v="610080" />
	</node>
	<node id="-208484" lat="59.2577666649" lon="10.9881444444">
		<tag k="name" v="Rådalen" />
		<tag k="place" v="farm" />
		<tag k="ssr:stedsnr" v="610073" />
	</node>
	<node id="-208483" lat="59.1418750033" lon="11.1013499927">
		<tag k="name" v="Mjølnaren" />
		<tag k="place" v="isolated_dwelling" />
		<tag k="ssr:stedsnr" v="609728" />
	</node>
	<node id="-208475" lat="59.3089472222" lon="10.9190888932">
		<tag k="alt_name" v="Ælin, s" />
		<tag k="name" v="Søndre Ælin" />
		<tag k="place" v="farm" />
		<tag k="ssr:stedsnr" v="609423" />
	</node>
	<node id="-208474" lat="59.2712972238" lon="10.8689638878">
		<tag k="name" v="Norum" />
		<tag k="place" v="farm" />
		<tag k="ssr:stedsnr" v="609122" />
	</node>
	<node id="-208472" lat="59.2553750008" lon="10.7862916657">
		<tag k="name" v="Star" />
		<tag k="place" v="farm" />
		<tag k="ssr:stedsnr" v="609113" />
	</node>
	<node id="-208471" lat="59.2746999958" lon="10.9154861034">
		<tag k="alt_name" v="Julehus" />
		<tag k="name" v="Fjelly" />
		<tag k="place" v="isolated_dwelling" />
		<tag k="ssr:stedsnr" v="609108" />
	</node>
	<node id="-208470" lat="59.264127781" lon="10.816841673">
		<tag k="name" v="Gjølberg" />
		<tag k="place" v="farm" />
		<tag k="ssr:stedsnr" v="609096" />
	</node>
	<node id="-208467" lat="59.249377583" lon="10.8023256377">
		<tag k="name" v="Lundeby" />
		<tag k="place" v="farm" />
		<tag k="ssr:stedsnr" v="608524" />
	</node>
	<node id="-208466" lat="59.2489722226" lon="10.7706333316">
		<tag k="name" v="Bekkeløkka" />
		<tag k="place" v="isolated_dwelling" />
		<tag k="ssr:stedsnr" v="608521" />
	</node>
	<node id="-208464" lat="59.241546477" lon="10.9692424386">
		<tag k="fixme" v="consider place=hamlet" />
		<tag k="name" v="Glemmen" />
		<tag k="place" v="farm" />
		<tag k="ssr:stedsnr" v="608511" />
	</node>
	<node id="-208463" lat="59.2360972225" lon="10.9162972296">
		<tag k="name" v="Gluppe" />
		<tag k="place" v="quarter" />
		<tag k="ssr:stedsnr" v="608509" />
	</node>
	<node id="-208460" lat="59.203622221" lon="10.9769249957">
		<tag k="name" v="Sundby" />
		<tag k="place" v="isolated_dwelling" />
		<tag k="ssr:stedsnr" v="608347" />
	</node>
	<node id="-208457" lat="59.2095583313" lon="10.8418277768">
		<tag k="name" v="Halvorsrød" />
		<tag k="place" v="farm" />
		<tag k="ssr:stedsnr" v="608308" />
	</node>
	<node id="-208456" lat="59.2993527765" lon="10.9437500004">
		<tag k="name" v="Druteng" />
		<tag k="place" v="farm" />
		<tag k="ssr:stedsnr" v="608420" />
	</node>
	<node id="-208453" lat="59.2149472224" lon="10.8820750058">
		<tag k="name" v="Trondalen" />
		<tag k="place" v="farm" />
		<tag k="ssr:stedsnr" v="608298" />
	</node>
	<node id="-208452" lat="59.2157690954" lon="10.97075756">
		<tag k="alt_name" v="Sindingberget" />
		<tag k="fixme" v="consider place=suburb, village or hamlet" />
		<tag k="name" v="Nabbetorp" />
		<tag k="place" v="quarter" />
		<tag k="ssr:stedsnr" v="608290" />
	</node>
	<node id="-208449" lat="59.1858749995" lon="11.0277000027">
		<tag k="name" v="Skallebakke" />
		<tag k="place" v="farm" />
		<tag k="ssr:stedsnr" v="607384" />
	</node>
	<node id="-208448" lat="59.189486114" lon="10.9754777792">
		<tag k="name" v="Øra" />
		<tag k="place" v="locality" />
		<tag k="ssr:stedsnr" v="607382" />
	</node>
	<node id="-208447" lat="59.2503083288" lon="11.0083750077">
		<tag k="name" v="Saksegård" />
		<tag k="place" v="farm" />
		<tag k="ssr:stedsnr" v="604877" />
	</node>
	<node id="-208446" lat="59.2516944451" lon="11.0508666604">
		<tag k="alt_name" v="Tofteberg østre" />
		<tag k="name" v="Østre Tofteberg" />
		<tag k="place" v="farm" />
		<tag k="ssr:stedsnr" v="604865" />
	</node>
	<node id="-208442" lat="59.1614638907" lon="10.9328250063">
		<tag k="amenity" v="school" />
		<tag k="name" v="Lunde skole" />
		<tag k="ssr:stedsnr" v="602833" />
	</node>
	<node id="-208440" lat="59.1482444411" lon="11.0502333342">
		<tag k="alt_name" v="Humlekjær østre" />
		<tag k="name" v="Østre Humlekjær" />
		<tag k="place" v="farm" />
		<tag k="ssr:stedsnr" v="602656" />
	</node>
	<node id="-208439" lat="59.2114555551" lon="11.0113805576">
		<tag k="name" v="Moen" />
		<tag k="place" v="quarter" />
		<tag k="ssr:stedsnr" v="602606" />
	</node>
	<node id="-208430" lat="59.2490777777" lon="10.7595749947">
		<tag k="alt_name" v="Rød vestre" />
		<tag k="name" v="Vestre Rød" />
		<tag k="place" v="farm" />
		<tag k="ssr:stedsnr" v="600922" />
	</node>
	<node id="-208429" lat="59.1760861082" lon="10.8464666702">
		<tag k="alt_name" v="Ødegården søndre" />
		<tag k="name" v="Søndre Ødegården" />
		<tag k="place" v="farm" />
		<tag k="ssr:stedsnr" v="600660" />
	</node>
	<node id="-208428" lat="59.1650166676" lon="11.0284750025">
		<tag k="name" v="Enerhaugen" />
		<tag k="place" v="isolated_dwelling" />
		<tag k="ssr:stedsnr" v="600476" />
	</node>
	<node id="-208427" lat="59.1665416631" lon="10.9272499962">
		<tag k="name" v="Femdal" />
		<tag k="place" v="isolated_dwelling" />
		<tag k="ssr:stedsnr" v="600638" />
	</node>
	<node id="-208425" lat="59.26436944" lon="10.7659777825">
		<tag k="alt_name" v="Stene vestre" />
		<tag k="name" v="Vestre Stene" />
		<tag k="place" v="farm" />
		<tag k="ssr:stedsnr" v="600288" />
	</node>
	<node id="-208424" lat="59.2600222187" lon="10.7778194454">
		<tag k="alt_name" v="Gaustad nedre" />
		<tag k="name" v="Nedre Gaustad" />
		<tag k="place" v="farm" />
		<tag k="ssr:stedsnr" v="600147" />
	</node>
	<node id="-208416" lat="59.2815444455" lon="10.7732555589">
		<tag k="name" v="Kallerød" />
		<tag k="place" v="farm" />
		<tag k="ssr:stedsnr" v="591098" />
	</node>
	<node id="-208415" lat="59.2680888887" lon="11.0179833343">
		<tag k="name" v="Rolvsøy" />
		<tag k="place" v="quarter" />
		<tag k="ssr:stedsnr" v="588920" />
	</node>
	<node id="-208405" lat="59.2697944488" lon="10.7533416626">
		<tag k="name" v="Husløs" />
		<tag k="place" v="hamlet" />
		<tag k="ssr:stedsnr" v="570760" />
	</node>
	<node id="-208403" lat="59.1709777811" lon="11.086972229">
		<tag k="name" v="Heidenberg" />
		<tag k="place" v="isolated_dwelling" />
		<tag k="ssr:stedsnr" v="568456" />
	</node>
	<node id="-208402" lat="59.2589722242" lon="11.1123722233">
		<tag k="alt_name" v="Årum østre" />
		<tag k="name" v="Østre Årum" />
		<tag k="place" v="farm" />
		<tag k="ssr:stedsnr" v="568186" />
	</node>
	<node id="-208401" lat="59.2534250042" lon="11.1060861073">
		<tag k="alt_name" v="Årum mellem;Mellem Årum" />
		<tag k="name" v="Mellom-Årum" />
		<tag k="place" v="farm" />
		<tag k="ssr:stedsnr" v="568056" />
	</node>
	<node id="-208399" lat="59.2781694437" lon="10.8053194488">
		<tag k="alt_name" v="Lund;Lund vestre" />
		<tag k="name" v="Vestre Lund" />
		<tag k="place" v="farm" />
		<tag k="ssr:stedsnr" v="549382" />
	</node>
	<node id="-208398" lat="59.2793055575" lon="10.7509805586">
		<tag k="name" v="Voll" />
		<tag k="place" v="farm" />
		<tag k="ssr:stedsnr" v="549378" />
	</node>
	<node id="-208397" lat="59.2888694409" lon="10.9367277846">
		<tag k="name" v="Spetalen" />
		<tag k="place" v="farm" />
		<tag k="ssr:stedsnr" v="549376" />
	</node>
	<node id="-208396" lat="59.2694777742" lon="10.9138444385">
		<tag k="alt_name" v="Kjevelsrødbråten" />
		<tag k="name" v="Bråten" />
		<tag k="place" v="isolated_dwelling" />
		<tag k="ssr:stedsnr" v="549138" />
	</node>
	<node id="-208395" lat="59.2602638859" lon="10.7586249966">
		<tag k="name" v="Skontorp" />
		<tag k="place" v="farm" />
		<tag k="ssr:stedsnr" v="549131" />
	</node>
	<node id="-208394" lat="59.2542666678" lon="10.8238083406">
		<tag k="name" v="Stene" />
		<tag k="place" v="farm" />
		<tag k="ssr:stedsnr" v="549125" />
	</node>
	<node id="-208393" lat="59.2744749962" lon="10.8762861113">
		<tag k="alt_name" v="Linderød" />
		<tag k="name" v="Linderud" />
		<tag k="place" v="farm" />
		<tag k="ssr:stedsnr" v="549124" />
	</node>
	<node id="-208392" lat="59.2589055542" lon="11.1011388802">
		<tag k="fixme" v="consider place=suburb, village or hamlet" />
		<tag k="name" v="Årum" />
		<tag k="place" v="quarter" />
		<tag k="ssr:stedsnr" v="548897" />
	</node>
	<node id="-208391" lat="59.2509250022" lon="11.0951472218">
		<tag k="alt_name" v="Årum søndre" />
		<tag k="name" v="Årum" />
		<tag k="place" v="farm" />
		<tag k="ssr:stedsnr" v="548895" />
	</node>
	<node id="-208378" lat="59.2448194412" lon="11.0435250021">
		<tag k="name" v="Gnollen" />
		<tag k="place" v="farm" />
		<tag k="ssr:stedsnr" v="548513" />
	</node>
	<node id="-208375" lat="59.1801472253" lon="10.938797223">
		<tag k="alt_name" v="Buskog" />
		<tag k="name" v="Buskogen" />
		<tag k="place" v="quarter" />
		<tag k="ssr:stedsnr" v="548374" />
	</node>
	<node id="-208373" lat="59.186024998" lon="11.014975006">
		<tag k="alt_name" v="Hommelvik" />
		<tag k="name" v="Humlevika" />
		<tag k="place" v="isolated_dwelling" />
		<tag k="ssr:stedsnr" v="547396" />
	</node>
	<node id="-208372" lat="59.1845722262" lon="11.0733249982">
		<tag k="name" v="Holmsdalen" />
		<tag k="place" v="isolated_dwelling" />
		<tag k="ssr:stedsnr" v="547387" />
	</node>
	<node id="-208370" lat="59.1834722246" lon="10.8707916633">
		<tag k="alt_name" v="Faretangen" />
		<tag k="name" v="Faratangen" />
		<tag k="place" v="neighbourhood" />
		<tag k="ssr:stedsnr" v="547376" />
	</node>
	<node id="-208369" lat="59.2054722232" lon="10.9933499995">
		<tag k="name" v="Lilleby" />
		<tag k="place" v="quarter" />
		<tag k="ssr:stedsnr" v="547372" />
	</node>
	<node id="-208367" lat="59.2143388848" lon="10.8568888962">
		<tag k="name" v="Fjelle" />
		<tag k="place" v="farm" />
		<tag k="ssr:stedsnr" v="547323" />
	</node>
	<node id="-208363" lat="59.2676472212" lon="10.9912527729">
		<tag k="amenity" v="sports_centre" />
		<tag k="name" v="Rolvsøyhallen" />
		<tag k="ssr:stedsnr" v="543962" />
	</node>
	<node id="-208360" lat="59.2147444439" lon="10.9572472202">
		<tag k="name" v="Lahellemoen" />
		<tag k="place" v="suburb" />
		<tag k="ssr:stedsnr" v="543414" />
	</node>
	<node id="-208359" lat="59.212230556" lon="10.9558416595">
		<tag k="name" v="Kapellfjellet" />
		<tag k="place" v="suburb" />
		<tag k="ssr:stedsnr" v="543348" />
	</node>
	<node id="-208355" lat="59.2046138851" lon="11.0497583313">
		<tag k="alt_name" v="Grimstad østre" />
		<tag k="name" v="Østre Grimstad" />
		<tag k="place" v="farm" />
		<tag k="ssr:stedsnr" v="542833" />
	</node>
	<node id="-208351" lat="59.3048265741" lon="10.8879668567">
		<tag k="fixme" v="consider place=hamlet" />
		<tag k="name" v="Ørmen" />
		<tag k="place" v="farm" />
		<tag k="ssr:stedsnr" v="541976" />
	</node>
	<node id="-208350" lat="59.2306972222" lon="11.0095694526">
		<tag k="amenity" v="school" />
		<tag k="name" v="Borge ungdomsskole" />
		<tag k="ssr:stedsnr" v="541749" />
	</node>
	<node id="-208349" lat="59.321400004" lon="10.9539555554">
		<tag k="name" v="Huset" />
		<tag k="place" v="farm" />
		<tag k="ssr:stedsnr" v="541103" />
	</node>
	<node id="-208342" lat="59.2215555574" lon="10.933680561">
		<tag k="name" v="Frydenberg" />
		<tag k="place" v="suburb" />
		<tag k="ssr:stedsnr" v="540376" />
	</node>
	<node id="-208341" lat="59.2566222194" lon="10.8248277799">
		<tag k="name" v="Granholt" />
		<tag k="place" v="farm" />
		<tag k="ssr:stedsnr" v="540143" />
	</node>
	<node id="-208335" lat="59.1857694482" lon="11.0231416721">
		<tag k="name" v="Nebba" />
		<tag k="place" v="farm" />
		<tag k="ssr:stedsnr" v="539185" />
	</node>
	<node id="-208333" lat="59.2109750008" lon="10.9539111158">
		<tag k="name" v="Gullbergsiden" />
		<tag k="place" v="quarter" />
		<tag k="ssr:stedsnr" v="527335" />
	</node>
	<node id="-208332" lat="59.2279583317" lon="10.9143277719">
		<tag k="name" v="Seut" />
		<tag k="place" v="quarter" />
		<tag k="ssr:stedsnr" v="525993" />
	</node>
	<node id="-208330" lat="59.2831666639" lon="10.81569723">
		<tag k="name" v="Løvli" />
		<tag k="place" v="farm" />
		<tag k="ssr:stedsnr" v="428364" />
	</node>
	<node id="-208329" lat="59.2777444452" lon="10.8540888898">
		<tag k="name" v="Ulvedalen" />
		<tag k="place" v="farm" />
		<tag k="ssr:stedsnr" v="428346" />
	</node>
	<node id="-208328" lat="59.274199996" lon="10.8871000082">
		<tag k="alt_name" v="Amundrud" />
		<tag k="name" v="Amundrød" />
		<tag k="place" v="farm" />
		<tag k="ssr:stedsnr" v="428099" />
	</node>
	<node id="-208327" lat="59.2539777748" lon="10.9175055558">
		<tag k="name" v="Krabberød" />
		<tag k="place" v="quarter" />
		<tag k="ssr:stedsnr" v="428069" />
	</node>
	<node id="-208318" lat="59.1441861124" lon="11.0716527746">
		<tag k="name" v="Langvik" />
		<tag k="place" v="farm" />
		<tag k="ssr:stedsnr" v="427645" />
	</node>
	<node id="-208316" lat="59.244988888" lon="10.8114055484">
		<tag k="name" v="Birkeland" />
		<tag k="place" v="farm" />
		<tag k="ssr:stedsnr" v="427480" />
	</node>
	<node id="-208315" lat="59.2447749998" lon="10.7523500014">
		<tag k="name" v="Haviken" />
		<tag k="place" v="farm" />
		<tag k="ssr:stedsnr" v="427479" />
	</node>
	<node id="-208314" lat="59.2488027806" lon="11.095097229">
		<tag k="name" v="Søndre Årum" />
		<tag k="old_name" v="Årum, søndre" />
		<tag k="place" v="farm" />
		<tag k="ssr:stedsnr" v="426588" />
	</node>
	<node id="-208311" lat="59.1845027757" lon="11.0581638806">
		<tag k="name" v="Rød" />
		<tag k="place" v="farm" />
		<tag k="ssr:stedsnr" v="426348" />
	</node>
	<node id="-208310" lat="59.1740305593" lon="10.84562223">
		<tag k="name" v="Torgauten" />
		<tag k="place" v="farm" />
		<tag k="ssr:stedsnr" v="426343" />
	</node>
	<node id="-208308" lat="59.2042500029" lon="10.858899997">
		<tag k="alt_name" v="Fjellehamna" />
		<tag k="name" v="Fjellehavna" />
		<tag k="place" v="isolated_dwelling" />
		<tag k="ssr:stedsnr" v="426327" />
	</node>
	<node id="-208307" lat="59.2177999976" lon="10.9855749937">
		<tag k="name" v="Huseby" />
		<tag k="place" v="farm" />
		<tag k="ssr:stedsnr" v="426302" />
	</node>
	<node id="-208305" lat="59.2118666628" lon="11.0178166596">
		<tag k="name" v="Fredheim" />
		<tag k="place" v="farm" />
		<tag k="ssr:stedsnr" v="426292" />
	</node>
	<node id="-208304" lat="59.2243499973" lon="11.0845472195">
		<tag k="name" v="Holtet" />
		<tag k="place" v="farm" />
		<tag k="ssr:stedsnr" v="426254" />
	</node>
	<node id="-208303" lat="59.2284555556" lon="11.0836305636">
		<tag k="alt_name" v="Mo" />
		<tag k="name" v="Oremo" />
		<tag k="place" v="farm" />
		<tag k="ssr:stedsnr" v="426253" />
	</node>
	<node id="-208300" lat="59.2601944473" lon="11.0404472156">
		<tag k="alt_name" v="Moum nordre" />
		<tag k="name" v="Nordre Moum" />
		<tag k="place" v="farm" />
		<tag k="ssr:stedsnr" v="422959" />
	</node>
	<node id="-208298" lat="59.2460333348" lon="11.0268861175">
		<tag k="alt_name" v="Moum søndre" />
		<tag k="name" v="Søndre Moum" />
		<tag k="place" v="farm" />
		<tag k="ssr:stedsnr" v="422878" />
	</node>
	<node id="-208297" lat="59.2516638922" lon="11.0401999976">
		<tag k="alt_name" v="Moum østre" />
		<tag k="name" v="Østre Moum" />
		<tag k="place" v="farm" />
		<tag k="ssr:stedsnr" v="422875" />
	</node>
	<node id="-208295" lat="59.2623888861" lon="10.9434694472">
		<tag k="name" v="Tronsebråten" />
		<tag k="place" v="isolated_dwelling" />
		<tag k="ssr:stedsnr" v="422866" />
	</node>
	<node id="-208293" lat="59.2752749975" lon="10.88251389">
		<tag k="name" v="Breidablikk" />
		<tag k="place" v="farm" />
		<tag k="ssr:stedsnr" v="421846" />
	</node>
	<node id="-208292" lat="59.2741583314" lon="10.8670944482">
		<tag k="name" v="Valle" />
		<tag k="place" v="farm" />
		<tag k="ssr:stedsnr" v="421839" />
	</node>
	<node id="-208291" lat="59.2696861109" lon="10.9037361025">
		<tag k="alt_name" v="Ødegården mellem" />
		<tag k="name" v="Mellom-Ødegården" />
		<tag k="place" v="farm" />
		<tag k="ssr:stedsnr" v="421830" />
	</node>
	<node id="-208290" lat="59.2581027773" lon="10.8510777751">
		<tag k="alt_name" v="Kolberg nordre" />
		<tag k="name" v="Nordre Kolberg" />
		<tag k="place" v="farm" />
		<tag k="ssr:stedsnr" v="421801" />
	</node>
	<node id="-208289" lat="59.2559416699" lon="10.8640805505">
		<tag k="name" v="Torp" />
		<tag k="place" v="farm" />
		<tag k="ssr:stedsnr" v="421791" />
	</node>
	<node id="-208288" lat="59.2182583301" lon="10.9427277844">
		<tag k="amenity" v="school" />
		<tag k="name" v="Glemmen videregående skole" />
		<tag k="ssr:stedsnr" v="421496" />
	</node>
	<node id="-208286" lat="59.2231944485" lon="11.0108472259">
		<tag k="name" v="Begby" />
		<tag k="place" v="farm" />
		<tag k="ssr:stedsnr" v="420746" />
	</node>
	<node id="-208284" lat="59.207847222" lon="10.9522972153">
		<tag k="name" v="Riverside" />
		<tag k="place" v="quarter" />
		<tag k="ssr:stedsnr" v="420480" />
	</node>
	<node id="-208280" lat="59.3195277751" lon="10.9566944423">
		<tag k="name" v="Hauge" />
		<tag k="place" v="farm" />
		<tag k="ssr:stedsnr" v="420113" />
	</node>
	<node id="-208275" lat="59.2087944454" lon="10.891199998">
		<tag k="name" v="Ålekilene" />
		<tag k="place" v="quarter" />
		<tag k="ssr:stedsnr" v="419829" />
	</node>
	<node id="-208273" lat="59.2130249986" lon="10.8449222254">
		<tag k="name" v="Løkkeberg" />
		<tag k="place" v="farm" />
		<tag k="ssr:stedsnr" v="419821" />
	</node>
	<node id="-208268" lat="59.26813889" lon="10.7514861164">
		<tag k="alt_name" v="Husløs søndre" />
		<tag k="name" v="Søndre Husløs" />
		<tag k="place" v="farm" />
		<tag k="ssr:stedsnr" v="419182" />
	</node>
	<node id="-208267" lat="59.252911107" lon="10.8140361039">
		<tag k="name" v="Hauge" />
		<tag k="place" v="farm" />
		<tag k="ssr:stedsnr" v="419148" />
	</node>
	<node id="-208266" lat="59.204994444" lon="10.9686333414">
		<tag k="name" v="Mineberget" />
		<tag k="place" v="quarter" />
		<tag k="ssr:stedsnr" v="419147" />
	</node>
	<node id="-208265" lat="59.2000055582" lon="10.8127694381">
		<tag k="alt_name" v="Slevik vestre" />
		<tag k="name" v="Vestre Slevik" />
		<tag k="place" v="isolated_dwelling" />
		<tag k="ssr:stedsnr" v="419059" />
	</node>
	<node id="-208260" lat="59.2167694452" lon="10.8918861046">
		<tag k="alt_name" v="Åle nedre" />
		<tag k="name" v="Nedre Åle" />
		<tag k="place" v="farm" />
		<tag k="ssr:stedsnr" v="418348" />
	</node>
	<node id="-208254" lat="59.2139416709" lon="10.9610361085">
		<tag k="name" v="Lahelle" />
		<tag k="place" v="quarter" />
		<tag k="ssr:stedsnr" v="406379" />
	</node>
	<node id="-208253" lat="59.221013889" lon="10.9083138885">
		<tag k="name" v="Hauge" />
		<tag k="place" v="isolated_dwelling" />
		<tag k="ssr:stedsnr" v="404997" />
	</node>
	<node id="-208251" lat="59.2300916625" lon="10.9059972203">
		<tag k="name" v="Ørebekk" />
		<tag k="place" v="suburb" />
		<tag k="ssr:stedsnr" v="388128" />
	</node>
	<node id="-208249" lat="59.2589750037" lon="11.0953749964">
		<tag k="alt_name" v="Årum nordre" />
		<tag k="name" v="Nordre Årum" />
		<tag k="place" v="farm" />
		<tag k="ssr:stedsnr" v="386063" />
	</node>
	<node id="-208245" lat="59.2954305583" lon="10.9827750057">
		<tag k="name" v="Høydal" />
		<tag k="place" v="farm" />
		<tag k="ssr:stedsnr" v="367330" />
	</node>
	<node id="-208244" lat="59.2625222198" lon="10.8642138953">
		<tag k="name" v="Fredheim" />
		<tag k="place" v="farm" />
		<tag k="ssr:stedsnr" v="367106" />
	</node>
	<node id="-208242" lat="59.2633638885" lon="11.0889000073">
		<tag k="name" v="Gretnes" />
		<tag k="place" v="farm" />
		<tag k="ssr:stedsnr" v="367098" />
	</node>
	<node id="-208241" lat="59.2527666676" lon="10.7887722188">
		<tag k="name" v="Espesti" />
		<tag k="place" v="farm" />
		<tag k="ssr:stedsnr" v="367050" />
	</node>
	<node id="-208240" lat="59.2507555573" lon="11.0755861197">
		<tag k="name" v="Kviberg" />
		<tag k="place" v="farm" />
		<tag k="ssr:stedsnr" v="367049" />
	</node>
	<node id="-208239" lat="59.2526805542" lon="10.8255750002">
		<tag k="name" v="Hauge" />
		<tag k="place" v="farm" />
		<tag k="ssr:stedsnr" v="367047" />
	</node>
	<node id="-208238" lat="59.1441250018" lon="11.106050001">
		<tag k="name" v="Bjerkeli" />
		<tag k="place" v="isolated_dwelling" />
		<tag k="ssr:stedsnr" v="366778" />
	</node>
	<node id="-208236" lat="59.1702472237" lon="11.0549249935">
		<tag k="name" v="Øgarden" />
		<tag k="place" v="isolated_dwelling" />
		<tag k="ssr:stedsnr" v="366686" />
	</node>
	<node id="-208230" lat="59.1482962452" lon="11.0447463257">
		<tag k="alt_name" v="Humlekjær vestre;Vestgården" />
		<tag k="name" v="Vestre Humlekjær" />
		<tag k="place" v="farm" />
		<tag k="ssr:stedsnr" v="366659" />
	</node>
	<node id="-208223" lat="59.3005305567" lon="10.9468583285">
		<tag k="name" v="Bråten" />
		<tag k="place" v="farm" />
		<tag k="ssr:stedsnr" v="366429" />
	</node>
	<node id="-208222" lat="59.308963885" lon="10.9678777717">
		<tag k="fixme" v="consider place=hamlet" />
		<tag k="name" v="Gretteland" />
		<tag k="place" v="farm" />
		<tag k="ssr:stedsnr" v="366427" />
	</node>
	<node id="-208221" lat="59.2970755047" lon="10.979609148">
		<tag k="fixme" v="multiple name tags, choose one and add the other to alt_name" />
		<tag k="name" v="Enga;Ringstadengen" />
		<tag k="place" v="farm" />
		<tag k="ssr:stedsnr" v="366426" />
	</node>
	<node id="-208217" lat="59.1937527761" lon="10.9778444375">
		<tag k="name" v="Torslund" />
		<tag k="place" v="farm" />
		<tag k="ssr:stedsnr" v="366315" />
	</node>
	<node id="-208216" lat="59.133249997" lon="11.0936250054">
		<tag k="name" v="Tamburen" />
		<tag k="place" v="isolated_dwelling" />
		<tag k="ssr:stedsnr" v="365774" />
	</node>
	<node id="-208213" lat="59.246074999" lon="11.1125000068">
		<tag k="name" v="Molteberg" />
		<tag k="place" v="farm" />
		<tag k="ssr:stedsnr" v="365602" />
	</node>
	<node id="-208207" lat="59.2031999961" lon="10.9529944504">
		<tag k="name" v="Gamlebyen" />
		<tag k="place" v="suburb" />
		<tag k="ssr:stedsnr" v="365351" />
	</node>
	<node id="-208206" lat="59.2181660665" lon="10.9297605831">
		<tag k="name" v="Fredrikstad" />
		<tag k="place" v="town" />
		<tag k="ssr:stedsnr" v="365324" />
	</node>
	<node id="-208205" lat="59.2168472231" lon="11.0583999942">
		<tag k="name" v="Porsmyr" />
		<tag k="place" v="isolated_dwelling" />
		<tag k="ssr:stedsnr" v="365319" />
	</node>
	<node id="-208203" lat="59.2094749954" lon="11.0048500085">
		<tag k="name" v="Moen" />
		<tag k="place" v="farm" />
		<tag k="ssr:stedsnr" v="365303" />
	</node>
	<node id="-208194" lat="59.2438361128" lon="10.9280166708">
		<tag k="name" v="Gluppe" />
		<tag k="place" v="farm" />
		<tag k="ssr:stedsnr" v="360834" />
	</node>
	<node id="-208193" lat="59.247761113" lon="10.9225583325">
		<tag k="alt_name" v="Ambjørnrød nordre" />
		<tag k="name" v="Nordre Ambjørnrød" />
		<tag k="place" v="locality" />
		<tag k="ssr:stedsnr" v="360828" />
	</node>
	<node id="-208192" lat="59.1604305514" lon="10.9327499978">
		<tag k="name" v="Lunde" />
		<tag k="place" v="hamlet" />
		<tag k="ssr:stedsnr" v="360826" />
	</node>
	<node id="-208191" lat="59.2594027756" lon="10.9195111043">
		<tag k="name" v="Strand" />
		<tag k="place" v="farm" />
		<tag k="ssr:stedsnr" v="360790" />
	</node>
	<node id="-208190" lat="59.2491972186" lon="10.859538894">
		<tag k="name" v="Skuggerød" />
		<tag k="place" v="farm" />
		<tag k="ssr:stedsnr" v="360137" />
	</node>
	<node id="-208189" lat="59.3059249984" lon="10.8886000029">
		<tag k="name" v="Ørmen" />
		<tag k="place" v="hamlet" />
		<tag k="ssr:stedsnr" v="359895" />
	</node>
	<node id="-208187" lat="59.223269446" lon="10.9469222157">
		<tag k="name" v="Trara" />
		<tag k="place" v="suburb" />
		<tag k="ssr:stedsnr" v="359585" />
	</node>
	<node id="-208186" lat="59.2206611099" lon="11.0271694455">
		<tag k="name" v="Visur" />
		<tag k="place" v="farm" />
		<tag k="ssr:stedsnr" v="359737" />
	</node>
	<node id="-208185" lat="59.3144583312" lon="10.9681777693">
		<tag k="name" v="Fallet" />
		<tag k="place" v="isolated_dwelling" />
		<tag k="ssr:stedsnr" v="359085" />
	</node>
	<node id="-208184" lat="59.213452774" lon="10.7822138888">
		<tag k="name" v="Bloksberg" />
		<tag k="place" v="isolated_dwelling" />
		<tag k="ssr:stedsnr" v="358991" />
	</node>
	<node id="-208178" lat="59.1665777772" lon="11.0445944469">
		<tag k="name" v="Bråten" />
		<tag k="place" v="isolated_dwelling" />
		<tag k="ssr:stedsnr" v="358498" />
	</node>
	<node id="-208177" lat="59.1723027742" lon="11.0329111137">
		<tag k="name" v="Roppestad" />
		<tag k="place" v="hamlet" />
		<tag k="ssr:stedsnr" v="358481" />
	</node>
	<node id="-208175" lat="59.208172223" lon="10.9882583373">
		<tag k="alt_name" v="Lilleby søndre" />
		<tag k="name" v="Søndre Lilleby" />
		<tag k="place" v="farm" />
		<tag k="ssr:stedsnr" v="358535" />
	</node>
	<node id="-208169" lat="59.267447225" lon="10.8042638884">
		<tag k="name" v="Huseby" />
		<tag k="place" v="farm" />
		<tag k="ssr:stedsnr" v="357140" />
	</node>
	<node id="-208168" lat="59.2696388915" lon="10.8170138932">
		<tag k="alt_name" v="Forsetlund store" />
		<tag k="name" v="Store Forsetlund" />
		<tag k="place" v="farm" />
		<tag k="ssr:stedsnr" v="357139" />
	</node>
	<node id="-208167" lat="59.170502775" lon="11.0493611079">
		<tag k="name" v="Nordre Ødegården" />
		<tag k="place" v="isolated_dwelling" />
		<tag k="ssr:stedsnr" v="357107" />
	</node>
	<node id="-208156" lat="59.2553000004" lon="10.8416666669">
		<tag k="name" v="Mossikhuset" />
		<tag k="place" v="farm" />
		<tag k="ssr:stedsnr" v="339817" />
	</node>
	<node id="-208149" lat="59.261327778" lon="11.0923027808">
		<tag k="amenity" v="school" />
		<tag k="name" v="Årum sentralskole" />
		<tag k="ssr:stedsnr" v="326053" />
	</node>
	<node id="-208148" lat="59.1649555599" lon="11.0930027727">
		<tag k="name" v="Verket" />
		<tag k="place" v="farm" />
		<tag k="ssr:stedsnr" v="325469" />
	</node>
	<node id="-208146" lat="59.1973999994" lon="11.0588527692">
		<tag k="name" v="Lergrinda" />
		<tag k="place" v="locality" />
		<tag k="ssr:stedsnr" v="325443" />
	</node>
	<node id="-208142" lat="59.2517833334" lon="10.7647638953">
		<tag k="alt_name" v="Rødsbråten" />
		<tag k="name" v="Rødsbråtan" />
		<tag k="place" v="farm" />
		<tag k="ssr:stedsnr" v="307075" />
	</node>
	<node id="-208141" lat="59.1683722217" lon="11.0900999975">
		<tag k="name" v="Underlia" />
		<tag k="place" v="farm" />
		<tag k="ssr:stedsnr" v="306650" />
	</node>
	<node id="-208140" lat="59.1697833347" lon="11.0142361063">
		<tag k="name" v="Storenga" />
		<tag k="place" v="isolated_dwelling" />
		<tag k="ssr:stedsnr" v="306646" />
	</node>
	<node id="-208137" lat="59.1609777795" lon="11.0230222168">
		<tag k="name" v="Husvik" />
		<tag k="place" v="farm" />
		<tag k="ssr:stedsnr" v="306580" />
	</node>
	<node id="-208136" lat="59.282182106" lon="10.7748280325">
		<tag k="fixme" v="consider place=hamlet" />
		<tag k="name" v="Kallerød" />
		<tag k="place" v="farm" />
		<tag k="ssr:stedsnr" v="306392" />
	</node>
	<node id="-208134" lat="59.2825305536" lon="10.9175444476">
		<tag k="alt_name" v="Veumbråten" />
		<tag k="name" v="Bråten" />
		<tag k="place" v="locality" />
		<tag k="ssr:stedsnr" v="306366" />
	</node>
	<node id="-208133" lat="59.2648250021" lon="10.9052861108">
		<tag k="name" v="Kjevelsrød" />
		<tag k="place" v="farm" />
		<tag k="ssr:stedsnr" v="306114" />
	</node>
	<node id="-208132" lat="59.2770500018" lon="10.9415777865">
		<tag k="fixme" v="consider place=hamlet" />
		<tag k="name" v="Gunnerød" />
		<tag k="place" v="farm" />
		<tag k="ssr:stedsnr" v="306106" />
	</node>
	<node id="-208131" lat="59.2667861147" lon="10.789577785">
		<tag k="alt_name" v="Fjæro" />
		<tag k="name" v="Fjærå" />
		<tag k="place" v="farm" />
		<tag k="ssr:stedsnr" v="306103" />
	</node>
	<node id="-208129" lat="59.1717055574" lon="10.8506750083">
		<tag k="name" v="Øyenkilen" />
		<tag k="place" v="hamlet" />
		<tag k="ssr:stedsnr" v="305697" />
	</node>
	<node id="-208126" lat="59.2481999991" lon="11.0196722175">
		<tag k="name" v="Torp" />
		<tag k="place" v="farm" />
		<tag k="ssr:stedsnr" v="305544" />
	</node>
	<node id="-208125" lat="59.2465999961" lon="10.8429972189">
		<tag k="name" v="Lund" />
		<tag k="place" v="farm" />
		<tag k="ssr:stedsnr" v="305528" />
	</node>
	<node id="-208124" lat="59.2367999964" lon="10.8419250048">
		<tag k="name" v="Lere" />
		<tag k="place" v="farm" />
		<tag k="ssr:stedsnr" v="305510" />
	</node>
	<node id="-208123" lat="59.3004916668" lon="10.9440972165">
		<tag k="name" v="Liane" />
		<tag k="place" v="farm" />
		<tag k="ssr:stedsnr" v="305439" />
	</node>
	<node id="-208122" lat="59.2898833306" lon="10.8911611195">
		<tag k="name" v="Ørmen sæter" />
		<tag k="place" v="farm" />
		<tag k="ssr:stedsnr" v="305421" />
	</node>
	<node id="-208120" lat="59.2429916631" lon="10.9893222227">
		<tag k="name" v="Evje" />
		<tag k="place" v="farm" />
		<tag k="ssr:stedsnr" v="305287" />
	</node>
	<node id="-208118" lat="59.1857777775" lon="10.8407944408">
		<tag k="name" v="Møklegård" />
		<tag k="place" v="farm" />
		<tag k="ssr:stedsnr" v="304374" />
	</node>
	<node id="-208117" lat="59.1906361146" lon="10.8591916631">
		<tag k="alt_name" v="Elslett" />
		<tag k="name" v="Elveslett" />
		<tag k="place" v="isolated_dwelling" />
		<tag k="ssr:stedsnr" v="304373" />
	</node>
	<node id="-208114" lat="59.2335722231" lon="10.7315999926">
		<tag k="alt_name" v="Smausthamna" />
		<tag k="name" v="Smausthavna" />
		<tag k="place" v="isolated_dwelling" />
		<tag k="ssr:stedsnr" v="304266" />
	</node>
	<node id="-208112" lat="59.2349250015" lon="10.8286249985">
		<tag k="fixme" v="multiple name tags, choose one and add the other to alt_name" />
		<tag k="name" v="Leere søndre;Lund" />
		<tag k="place" v="farm" />
		<tag k="ssr:stedsnr" v="304259" />
	</node>
	<node id="-208111" lat="59.2298000015" lon="10.8564999941">
		<tag k="fixme" v="consider place=hamlet" />
		<tag k="name" v="Tvete" />
		<tag k="place" v="farm" />
		<tag k="ssr:stedsnr" v="304257" />
	</node>
	<node id="-208109" lat="59.2292527822" lon="11.0820499919">
		<tag k="alt_name" v="Hystad, l" />
		<tag k="name" v="Lille Hystad" />
		<tag k="place" v="farm" />
		<tag k="ssr:stedsnr" v="304252" />
	</node>
	<node id="-208108" lat="59.226275001" lon="11.0595722297">
		<tag k="alt_name" v="Opphus søndre" />
		<tag k="name" v="Opphus" />
		<tag k="place" v="farm" />
		<tag k="ssr:stedsnr" v="304251" />
	</node>
	<node id="-208105" lat="59.2499944419" lon="11.0332416709">
		<tag k="name" v="Moum nordvestre" />
		<tag k="place" v="farm" />
		<tag k="ssr:stedsnr" v="301894" />
	</node>
	<node id="-208103" lat="59.2453388911" lon="10.9991750019">
		<tag k="alt_name" v="Hauge østre" />
		<tag k="name" v="Østre Hauge" />
		<tag k="place" v="farm" />
		<tag k="ssr:stedsnr" v="301890" />
	</node>
	<node id="-208102" lat="59.2537861148" lon="10.9913194525">
		<tag k="amenity" v="nursing_home" />
		<tag k="name" v="Grønlien aldershjem" />
		<tag k="ssr:stedsnr" v="301886" />
	</node>
	<node id="-208100" lat="59.2951333338" lon="10.946338885">
		<tag k="name" v="Koppedalen" />
		<tag k="place" v="farm" />
		<tag k="ssr:stedsnr" v="301048" />
	</node>
	<node id="-208095" lat="59.2559833319" lon="11.0710999972">
		<tag k="alt_name" v="Veberg vestre" />
		<tag k="name" v="Vestre Veberg" />
		<tag k="place" v="farm" />
		<tag k="ssr:stedsnr" v="204070" />
	</node>
	<node id="-208087" lat="59.2840277759" lon="10.8223611025">
		<tag k="name" v="Dalen" />
		<tag k="place" v="farm" />
		<tag k="ssr:stedsnr" v="185362" />
	</node>
	<node id="-208086" lat="59.1284499958" lon="11.0753000057">
		<tag k="name" v="Askedalen" />
		<tag k="place" v="isolated_dwelling" />
		<tag k="ssr:stedsnr" v="184735" />
	</node>
	<node id="-208079" lat="59.1551000014" lon="11.0496250051">
		<tag k="alt_name" v="Kile;Kile vestre" />
		<tag k="name" v="Vestre Kile" />
		<tag k="place" v="farm" />
		<tag k="ssr:stedsnr" v="184648" />
	</node>
	<node id="-208076" lat="59.2481299952" lon="10.8792475461">
		<tag k="alt_name" v="Borge østre" />
		<tag k="name" v="Østre Borge" />
		<tag k="place" v="farm" />
		<tag k="ssr:stedsnr" v="184501" />
	</node>
	<node id="-208075" lat="59.2913000009" lon="10.8229388871">
		<tag k="alt_name" v="Stormyr" />
		<tag k="name" v="Storemyr" />
		<tag k="place" v="farm" />
		<tag k="ssr:stedsnr" v="184406" />
	</node>
	<node id="-208069" lat="59.2396722202" lon="11.0837972305">
		<tag k="name" v="Sandheia" />
		<tag k="place" v="farm" />
		<tag k="ssr:stedsnr" v="183251" />
	</node>
	<node id="-208066" lat="59.2263749962" lon="10.8084916642">
		<tag k="name" v="Fjellberg" />
		<tag k="place" v="farm" />
		<tag k="ssr:stedsnr" v="183235" />
	</node>
	<node id="-208063" lat="59.2490805521" lon="11.0331166619">
		<tag k="alt_name" v="Moum vestre" />
		<tag k="name" v="Vestre Moum" />
		<tag k="place" v="farm" />
		<tag k="ssr:stedsnr" v="179886" />
	</node>
	<node id="-208062" lat="59.2376611128" lon="11.0204638809">
		<tag k="name" v="Kjølstadløkken" />
		<tag k="place" v="farm" />
		<tag k="ssr:stedsnr" v="179885" />
	</node>
	<node id="-208060" lat="59.2446111119" lon="10.8523805586">
		<tag k="alt_name" v="Ørebekk vestre" />
		<tag k="name" v="Vestre Ørebekk" />
		<tag k="place" v="isolated_dwelling" />
		<tag k="ssr:stedsnr" v="178833" />
	</node>
	<node id="-208059" lat="59.2487944446" lon="10.8888222192">
		<tag k="name" v="Borgås" />
		<tag k="place" v="farm" />
		<tag k="ssr:stedsnr" v="178830" />
	</node>
	<node id="-208058" lat="59.2276805594" lon="10.9516611089">
		<tag k="amenity" v="nursing_home" />
		<tag k="name" v="Fredrikstad rekonvalesenthjem" />
		<tag k="ssr:stedsnr" v="178551" />
	</node>
	<node id="-208056" lat="59.2472305588" lon="10.9817999924">
		<tag k="name" v="Rå" />
		<tag k="place" v="farm" />
		<tag k="ssr:stedsnr" v="177751" />
	</node>
	<node id="-208052" lat="59.1637805577" lon="11.029486111">
		<tag k="name" v="Gata" />
		<tag k="place" v="isolated_dwelling" />
		<tag k="ssr:stedsnr" v="177689" />
	</node>
	<node id="-208050" lat="59.152349998" lon="11.0456333294">
		<tag k="alt_name" v="Kile søndre" />
		<tag k="name" v="Søndre Kile" />
		<tag k="place" v="farm" />
		<tag k="ssr:stedsnr" v="177678" />
	</node>
	<node id="-208049" lat="59.1764944402" lon="10.9058999926">
		<tag k="name" v="Sandvika" />
		<tag k="place" v="isolated_dwelling" />
		<tag k="ssr:stedsnr" v="177387" />
	</node>
	<node id="-208048" lat="59.242502778" lon="10.8419750004">
		<tag k="name" v="Leere" />
		<tag k="place" v="farm" />
		<tag k="ssr:stedsnr" v="177224" />
	</node>
	<node id="-208047" lat="59.2186611088" lon="10.7920861042">
		<tag k="name" v="Solbakken" />
		<tag k="place" v="isolated_dwelling" />
		<tag k="ssr:stedsnr" v="177216" />
	</node>
	<node id="-208046" lat="59.314122223" lon="10.9666277859">
		<tag k="name" v="Gretteland" />
		<tag k="place" v="farm" />
		<tag k="ssr:stedsnr" v="177090" />
	</node>
	<node id="-208040" lat="59.1858555548" lon="11.0491777706">
		<tag k="amenity" v="school" />
		<tag k="name" v="Torsnes skole" />
		<tag k="ssr:stedsnr" v="176413" />
	</node>
	<node id="-208038" lat="59.2697055568" lon="10.7513722277">
		<tag k="alt_name" v="Husløs nordre" />
		<tag k="name" v="Nordre Husløs" />
		<tag k="place" v="farm" />
		<tag k="ssr:stedsnr" v="176209" />
	</node>
	<node id="-208028" lat="59.2177249956" lon="10.9212166643">
		<tag k="name" v="Peterstomta" />
		<tag k="place" v="quarter" />
		<tag k="ssr:stedsnr" v="162196" />
	</node>
	<node id="-208027" lat="59.2181749982" lon="10.9529916629">
		<tag k="name" v="Karivoll" />
		<tag k="place" v="isolated_dwelling" />
		<tag k="ssr:stedsnr" v="161978" />
	</node>
	<node id="-208021" lat="59.2446111119" lon="10.8523805586">
		<tag k="alt_name" v="Vestgård vestre" />
		<tag k="name" v="Vestre Vestgård" />
		<tag k="place" v="farm" />
		<tag k="ssr:stedsnr" v="146120" />
	</node>
	<node id="-208018" lat="59.2481722238" lon="11.0862749964">
		<tag k="name" v="Heia" />
		<tag k="place" v="farm" />
		<tag k="ssr:stedsnr" v="143468" />
	</node>
	<node id="-208017" lat="59.1741250015" lon="11.0894694486">
		<tag k="name" v="Borgen" />
		<tag k="place" v="isolated_dwelling" />
		<tag k="ssr:stedsnr" v="143449" />
	</node>
	<node id="-208016" lat="59.1804805558" lon="11.076072224">
		<tag k="name" v="Gullmoen" />
		<tag k="place" v="quarter" />
		<tag k="ssr:stedsnr" v="143446" />
	</node>
	<node id="-208013" lat="59.2647138898" lon="11.0788916659">
		<tag k="name" v="Tomta" />
		<tag k="place" v="locality" />
		<tag k="ssr:stedsnr" v="143071" />
	</node>
	<node id="-208011" lat="59.2124138873" lon="11.0552333409">
		<tag k="alt_name" v="Grimstad mellem" />
		<tag k="name" v="Mellom-Grimstad" />
		<tag k="place" v="farm" />
		<tag k="ssr:stedsnr" v="143018" />
	</node>
	<node id="-208010" lat="59.1618555528" lon="11.0940277697">
		<tag k="alt_name" v="Thorsø herregård;Thorsø;Tose" />
		<tag k="name" v="Torsø herregård" />
		<tag k="place" v="farm" />
		<tag k="ssr:stedsnr" v="131966" />
	</node>
	<node id="-208005" lat="59.1473916673" lon="10.9283083332">
		<tag k="fixme" v="consider place=hamlet" />
		<tag k="name" v="Bjørnevågen" />
		<tag k="place" v="farm" />
		<tag k="ssr:stedsnr" v="124577" />
	</node>
	<node id="-208003" lat="59.2694027815" lon="10.8166694457">
		<tag k="fixme" v="consider place=hamlet" />
		<tag k="name" v="Forsetlund" />
		<tag k="place" v="farm" />
		<tag k="ssr:stedsnr" v="124095" />
	</node>
	<node id="-208002" lat="59.252263886" lon="10.7513305612">
		<tag k="name" v="Grønli" />
		<tag k="place" v="farm" />
		<tag k="ssr:stedsnr" v="124072" />
	</node>
	<node id="-207998" lat="59.247497223" lon="10.8209555478">
		<tag k="name" v="Hauge" />
		<tag k="place" v="farm" />
		<tag k="ssr:stedsnr" v="123544" />
	</node>
	<node id="-207997" lat="59.2494249956" lon="10.7518750013">
		<tag k="name" v="Dalen" />
		<tag k="place" v="farm" />
		<tag k="ssr:stedsnr" v="123542" />
	</node>
	<node id="-207996" lat="59.2379027773" lon="10.9318194475">
		<tag k="name" v="Brønnerød" />
		<tag k="place" v="farm" />
		<tag k="ssr:stedsnr" v="123531" />
	</node>
	<node id="-207995" lat="59.2405027798" lon="10.860766671">
		<tag k="name" v="Branndalen" />
		<tag k="place" v="farm" />
		<tag k="ssr:stedsnr" v="123528" />
	</node>
	<node id="-207992" lat="59.2047305557" lon="10.8822888822">
		<tag k="fixme" v="consider place=suburb, village or hamlet" />
		<tag k="name" v="Rød" />
		<tag k="place" v="quarter" />
		<tag k="ssr:stedsnr" v="123366" />
	</node>
	<node id="-207991" lat="59.1977972189" lon="10.791722216">
		<tag k="name" v="Ramseklovene" />
		<tag k="place" v="isolated_dwelling" />
		<tag k="ssr:stedsnr" v="123361" />
	</node>
	<node id="-207988" lat="59.1763368631" lon="10.8470268991">
		<tag k="alt_name" v="Ødegård" />
		<tag k="fixme" v="consider place=hamlet" />
		<tag k="name" v="Ødegården" />
		<tag k="place" v="farm" />
		<tag k="ssr:stedsnr" v="122361" />
	</node>
	<node id="-207987" lat="59.2164138925" lon="11.0020722216">
		<tag k="name" v="Slettevoll" />
		<tag k="place" v="farm" />
		<tag k="ssr:stedsnr" v="122327" />
	</node>
	<node id="-207985" lat="59.2144750029" lon="10.8497500027">
		<tag k="alt_name" v="Stenakrød" />
		<tag k="name" v="Stenakerrød" />
		<tag k="place" v="farm" />
		<tag k="ssr:stedsnr" v="122314" />
	</node>
	<node id="-207983" lat="59.2097064136" lon="10.8042334077">
		<tag k="name" v="Østre Vikene" />
		<tag k="place" v="hamlet" />
		<tag k="ssr:stedsnr" v="122310" />
	</node>
	<node id="-207982" lat="59.2408888849" lon="11.0502333367">
		<tag k="name" v="Pinnerød" />
		<tag k="place" v="farm" />
		<tag k="ssr:stedsnr" v="122297" />
	</node>
	<node id="-207980" lat="59.2306694419" lon="10.9149861076">
		<tag k="name" v="Labråten" />
		<tag k="place" v="farm" />
		<tag k="ssr:stedsnr" v="122285" />
	</node>
	<node id="-207979" lat="59.2277472218" lon="11.0871472235">
		<tag k="name" v="Løvli" />
		<tag k="place" v="farm" />
		<tag k="ssr:stedsnr" v="122279" />
	</node>
	<node id="-207978" lat="59.218026624" lon="10.7913834421">
		<tag k="name" v="Vestre Vikene" />
		<tag k="place" v="hamlet" />
		<tag k="ssr:stedsnr" v="122275" />
	</node>
	<node id="-207975" lat="59.3049472255" lon="10.8878777754">
		<tag k="name" v="Høyum" />
		<tag k="place" v="farm" />
		<tag k="ssr:stedsnr" v="117883" />
	</node>
	<node id="-207974" lat="59.2916499974" lon="10.8893888804">
		<tag k="alt_name" v="Ørmen søndre" />
		<tag k="name" v="Søndre Ørmen" />
		<tag k="place" v="farm" />
		<tag k="ssr:stedsnr" v="117876" />
	</node>
	<node id="-207973" lat="59.2553694435" lon="10.8700833359">
		<tag k="alt_name" v="Torp østre" />
		<tag k="name" v="Østre Torp" />
		<tag k="place" v="farm" />
		<tag k="ssr:stedsnr" v="117778" />
	</node>
	<node id="-207972" lat="59.1617666644" lon="10.9280833307">
		<tag k="name" v="Femdal" />
		<tag k="place" v="farm" />
		<tag k="ssr:stedsnr" v="117843" />
	</node>
	<node id="-207971" lat="59.2278527744" lon="11.0411972174">
		<tag k="name" v="Prestegården" />
		<tag k="place" v="farm" />
		<tag k="ssr:stedsnr" v="117747" />
	</node>
	<node id="-207970" lat="59.2249083357" lon="11.0461722287">
		<tag k="amenity" v="school" />
		<tag k="name" v="Borge barneskole" />
		<tag k="ssr:stedsnr" v="117745" />
	</node>
	<node id="-207969" lat="59.2219194486" lon="11.021355552">
		<tag k="name" v="Visur" />
		<tag k="place" v="farm" />
		<tag k="ssr:stedsnr" v="117741" />
	</node>
	<node id="-207966" lat="59.2443499991" lon="10.8743194405">
		<tag k="name" v="Branndalen" />
		<tag k="place" v="farm" />
		<tag k="ssr:stedsnr" v="117154" />
	</node>
	<node id="-207965" lat="59.3198749976" lon="10.9581027735">
		<tag k="name" v="Haugeli" />
		<tag k="place" v="farm" />
		<tag k="ssr:stedsnr" v="117131" />
	</node>
	<node id="-207955" lat="59.2487666697" lon="10.7994000018">
		<tag k="name" v="Lunder" />
		<tag k="place" v="farm" />
		<tag k="ssr:stedsnr" v="115309" />
	</node>
	<node id="-207954" lat="59.2476416631" lon="10.7996055502">
		<tag k="name" v="Lunder" />
		<tag k="place" v="farm" />
		<tag k="ssr:stedsnr" v="115308" />
	</node>
	<node id="-207952" lat="59.251200003" lon="10.8720472297">
		<tag k="name" v="Akerbingen" />
		<tag k="place" v="farm" />
		<tag k="ssr:stedsnr" v="111336" />
	</node>
	<node id="-207944" lat="59.1981111096" lon="10.8062444523">
		<tag k="name" v="Nesteng" />
		<tag k="place" v="isolated_dwelling" />
		<tag k="ssr:stedsnr" v="85781" />
	</node>
	<node id="-207943" lat="59.2330722235" lon="10.9771055506">
		<tag k="name" v="Lisleby" />
		<tag k="place" v="suburb" />
		<tag k="ssr:stedsnr" v="85147" />
	</node>
	<node id="-207940" lat="59.2796361077" lon="10.9518083345">
		<tag k="alt_name" v="Slærød" />
		<tag k="name" v="Slerød" />
		<tag k="place" v="farm" />
		<tag k="ssr:stedsnr" v="64379" />
	</node>
	<node id="-207939" lat="59.282222225" lon="10.8198888911">
		<tag k="alt_name" v="Bossum" />
		<tag k="name" v="Havrebingen" />
		<tag k="place" v="farm" />
		<tag k="ssr:stedsnr" v="64376" />
	</node>
	<node id="-207938" lat="59.284769442" lon="10.8560000004">
		<tag k="alt_name" v="Lauvmyr" />
		<tag k="name" v="Løvmyr" />
		<tag k="place" v="farm" />
		<tag k="ssr:stedsnr" v="64374" />
	</node>
	<node id="-207937" lat="59.272058329" lon="10.7663527714">
		<tag k="name" v="Berger" />
		<tag k="place" v="farm" />
		<tag k="ssr:stedsnr" v="64085" />
	</node>
	<node id="-207936" lat="59.2679805558" lon="10.8549833417">
		<tag k="name" v="Lunderød" />
		<tag k="place" v="farm" />
		<tag k="ssr:stedsnr" v="64082" />
	</node>
	<node id="-207935" lat="59.2577055538" lon="10.8979972281">
		<tag k="name" v="Kjølberg" />
		<tag k="old_name" v="Kiølberg Herregaard" />
		<tag k="place" v="farm" />
		<tag k="ssr:stedsnr" v="64059" />
	</node>
	<node id="-207934" lat="59.2603166665" lon="10.8933194406">
		<tag k="name" v="Solgård" />
		<tag k="place" v="farm" />
		<tag k="ssr:stedsnr" v="64057" />
	</node>
	<node id="-207926" lat="59.2361694424" lon="10.987944444">
		<tag k="fixme" v="consider place=suburb, village or hamlet" />
		<tag k="name" v="Nøkleby" />
		<tag k="place" v="quarter" />
		<tag k="ssr:stedsnr" v="62489" />
	</node>
	<node id="-207925" lat="59.2356638889" lon="10.8971750005">
		<tag k="name" v="Dale" />
		<tag k="place" v="farm" />
		<tag k="ssr:stedsnr" v="62485" />
	</node>
	<node id="-207924" lat="59.1846679408" lon="11.0406414262">
		<tag k="alt_name" v="Gulbrand" />
		<tag k="loc_name" v="Bergsjordet" />
		<tag k="name" v="Berg" />
		<tag k="place" v="farm" />
		<tag k="ssr:stedsnr" v="62364" />
	</node>
	<node id="-207923" lat="59.2005969816" lon="11.0217215697">
		<tag k="fixme" v="consider place=hamlet" />
		<tag k="name" v="Dal" />
		<tag k="place" v="farm" />
		<tag k="ssr:stedsnr" v="62323" />
	</node>
	<node id="-207920" lat="59.1912999992" lon="10.8748083252">
		<tag k="name" v="Viker" />
		<tag k="place" v="farm" />
		<tag k="ssr:stedsnr" v="62306" />
	</node>
	<node id="-207919" lat="59.2235500009" lon="11.0543750054">
		<tag k="name" v="Skogli" />
		<tag k="place" v="isolated_dwelling" />
		<tag k="ssr:stedsnr" v="62289" />
	</node>
	<node id="-207918" lat="59.2261666704" lon="10.8013111068">
		<tag k="name" v="Hasseldalen" />
		<tag k="place" v="hamlet" />
		<tag k="ssr:stedsnr" v="62252" />
	</node>
	<node id="-207916" lat="59.2653194461" lon="10.9896416667">
		<tag k="amenity" v="school" />
		<tag k="name" v="Rekustad skole" />
		<tag k="ssr:stedsnr" v="58953" />
	</node>
	<node id="-207915" lat="59.2488222245" lon="10.9970444495">
		<tag k="alt_name" v="Hauge vestre" />
		<tag k="name" v="Vestre Hauge" />
		<tag k="place" v="farm" />
		<tag k="ssr:stedsnr" v="58894" />
	</node>
	<node id="-207913" lat="59.2334694488" lon="11.0081027702">
		<tag k="alt_name" v="Kjølstad søndre" />
		<tag k="name" v="Søndre Kjølstad" />
		<tag k="place" v="farm" />
		<tag k="ssr:stedsnr" v="58769" />
	</node>
	<node id="-207912" lat="59.1726000012" lon="11.0821972225">
		<tag k="alt_name" v="Skauen" />
		<tag k="name" v="Skogen" />
		<tag k="place" v="farm" />
		<tag k="ssr:stedsnr" v="63663" />
	</node>
	<node id="-207910" lat="59.1730666707" lon="11.0421472211">
		<tag k="name" v="Nesskolen" />
		<tag k="place" v="isolated_dwelling" />
		<tag k="ssr:stedsnr" v="63659" />
	</node>
	<node id="-207905" lat="59.158538888" lon="10.9433638903">
		<tag k="name" v="Ødegården" />
		<tag k="place" v="hamlet" />
		<tag k="ssr:stedsnr" v="63627" />
	</node>
	<node id="-207904" lat="59.2816333372" lon="11.0100250048">
		<tag k="name" v="Samhold" />
		<tag k="place" v="isolated_dwelling" />
		<tag k="ssr:stedsnr" v="58019" />
	</node>
	<node id="-207903" lat="59.2669499978" lon="11.0040361176">
		<tag k="name" v="Nygård" />
		<tag k="place" v="isolated_dwelling" />
		<tag k="ssr:stedsnr" v="58008" />
	</node>
	<node id="-207902" lat="59.2777388847" lon="10.9405694358">
		<tag k="alt_name" v="Gunnerød søndre" />
		<tag k="name" v="Søndre Gunnerød" />
		<tag k="place" v="farm" />
		<tag k="ssr:stedsnr" v="57943" />
	</node>
	<node id="-207901" lat="59.2347888853" lon="10.9005472304">
		<tag k="alt_name" v="Ørebekk vestre" />
		<tag k="name" v="Vestre Ørebekk" />
		<tag k="place" v="farm" />
		<tag k="ssr:stedsnr" v="57840" />
	</node>
	<node id="-207900" lat="59.161297223" lon="10.9178777711">
		<tag k="name" v="Fjellberg" />
		<tag k="place" v="farm" />
		<tag k="ssr:stedsnr" v="57833" />
	</node>
	<node id="-207899" lat="59.289500001" lon="10.8815083255">
		<tag k="name" v="Ødegården" />
		<tag k="place" v="farm" />
		<tag k="ssr:stedsnr" v="57824" />
	</node>
	<node id="-207898" lat="59.2675388871" lon="10.9017916604">
		<tag k="name" v="Sundet" />
		<tag k="place" v="farm" />
		<tag k="ssr:stedsnr" v="57810" />
	</node>
	<node id="-207897" lat="59.261177779" lon="10.8808750006">
		<tag k="name" v="Torpebråten" />
		<tag k="place" v="farm" />
		<tag k="ssr:stedsnr" v="57785" />
	</node>
	<node id="-207895" lat="59.2017250001" lon="10.8806361072">
		<tag k="alt_name" v="Rød østre" />
		<tag k="name" v="Østre Rød" />
		<tag k="place" v="farm" />
		<tag k="ssr:stedsnr" v="57163" />
	</node>
	<node id="-207894" lat="59.1984388875" lon="10.8606500033">
		<tag k="alt_name" v="Dale lille" />
		<tag k="name" v="Lille Dale" />
		<tag k="place" v="farm" />
		<tag k="ssr:stedsnr" v="57162" />
	</node>
	<node id="-207893" lat="59.2800055545" lon="11.0031194423">
		<tag k="alt_name" v="Rostad søndre" />
		<tag k="name" v="Søndre Rostad" />
		<tag k="place" v="farm" />
		<tag k="ssr:stedsnr" v="57016" />
	</node>
	<node id="-207892" lat="59.2969972255" lon="10.8898611031">
		<tag k="alt_name" v="Ørmen søndre" />
		<tag k="name" v="Søndre Ørmen" />
		<tag k="place" v="farm" />
		<tag k="ssr:stedsnr" v="56975" />
	</node>
	<node id="-207891" lat="59.2937250034" lon="10.906080556">
		<tag k="name" v="Høyum" />
		<tag k="place" v="farm" />
		<tag k="ssr:stedsnr" v="56885" />
	</node>
	<node id="-207888" lat="59.2481250005" lon="10.8465750031">
		<tag k="alt_name" v="Lund store" />
		<tag k="name" v="Store Lund" />
		<tag k="place" v="farm" />
		<tag k="ssr:stedsnr" v="56524" />
	</node>
	<node id="-207886" lat="59.2868916624" lon="10.9399333343">
		<tag k="alt_name" v="Åsen nordre" />
		<tag k="name" v="Nordre Åsen" />
		<tag k="place" v="locality" />
		<tag k="ssr:stedsnr" v="56089" />
	</node>
	<node id="-207884" lat="59.138036114" lon="10.9187972221">
		<tag k="name" v="Tyttebærtangen" />
		<tag k="place" v="isolated_dwelling" />
		<tag k="ssr:stedsnr" v="55807" />
	</node>
	<node id="-207877" lat="59.2856722205" lon="10.8248888922">
		<tag k="alt_name" v="Bossum nordre" />
		<tag k="name" v="Nordre Bossum" />
		<tag k="place" v="farm" />
		<tag k="ssr:stedsnr" v="55108" />
	</node>
	<node id="-207874" lat="59.1766416639" lon="10.8477583306">
		<tag k="alt_name" v="Ødegården nordre" />
		<tag k="name" v="Nordre Ødegården" />
		<tag k="place" v="farm" />
		<tag k="ssr:stedsnr" v="54678" />
	</node>
	<node id="-207873" lat="59.1998411039" lon="10.9147575609">
		<tag k="fixme" v="consider place=hamlet" />
		<tag k="name" v="Rød" />
		<tag k="place" v="farm" />
		<tag k="ssr:stedsnr" v="54239" />
	</node>
	<node id="-207872" lat="59.19923889" lon="10.9271500027">
		<tag k="amenity" v="school" />
		<tag k="name" v="Rødsmyra skole" />
		<tag k="ssr:stedsnr" v="54232" />
	</node>
	<node id="-207864" lat="59.2823027737" lon="10.7747694361">
		<tag k="name" v="Kallerød" />
		<tag k="place" v="farm" />
		<tag k="ssr:stedsnr" v="45110" />
	</node>
	<node id="-207857" lat="59.2471666653" lon="11.1126444476">
		<tag k="alt_name" v="Molteberg nordre" />
		<tag k="name" v="Nordre Molteberg" />
		<tag k="place" v="farm" />
		<tag k="ssr:stedsnr" v="22477" />
	</node>
	<node id="-207855" lat="59.2636222237" lon="11.075713883">
		<tag k="alt_name" v="Vesten østre" />
		<tag k="name" v="Østre Vesten" />
		<tag k="place" v="farm" />
		<tag k="ssr:stedsnr" v="22081" />
	</node>
	<node id="-207854" lat="59.2516027747" lon="11.0645833306">
		<tag k="alt_name" v="Kviberg vestre" />
		<tag k="name" v="Vestre Kviberg" />
		<tag k="place" v="farm" />
		<tag k="ssr:stedsnr" v="22080" />
	</node>
	<node id="-207852" lat="59.2552472255" lon="11.0939555511">
		<tag k="name" v="Årum" />
		<tag k="place" v="farm" />
		<tag k="ssr:stedsnr" v="22050" />
	</node>
	<node id="-207850" lat="59.2809722259" lon="10.816547224">
		<tag k="name" v="Bjørkelund" />
		<tag k="place" v="farm" />
		<tag k="ssr:stedsnr" v="3341" />
	</node>
	<node id="-207849" lat="59.280208332" lon="10.9975305511">
		<tag k="name" v="Haugen" />
		<tag k="place" v="farm" />
		<tag k="ssr:stedsnr" v="3335" />
	</node>
	<node id="-207848" lat="59.268041668" lon="10.9473527699">
		<tag k="name" v="Evenrød" />
		<tag k="place" v="farm" />
		<tag k="ssr:stedsnr" v="3104" />
	</node>
	<node id="-207846" lat="59.2790583307" lon="10.901041662">
		<tag k="name" v="Lundheim" />
		<tag k="place" v="farm" />
		<tag k="ssr:stedsnr" v="3093" />
	</node>
	<node id="-207845" lat="59.2537999992" lon="10.9956111127">
		<tag k="name" v="Saksegård" />
		<tag k="place" v="farm" />
		<tag k="ssr:stedsnr" v="3063" />
	</node>
	<node id="-207844" lat="59.2497694411" lon="10.9341916636">
		<tag k="alt_name" v="Østfold psykiatriske sykehus" />
		<tag k="amenity" v="hospital" />
		<tag k="name" v="Veum" />
		<tag k="ssr:stedsnr" v="3058" />
	</node>
	<node id="-207843" lat="59.1316555596" lon="10.9437638823">
		<tag k="name" v="Putten" />
		<tag k="place" v="hamlet" />
		<tag k="ssr:stedsnr" v="2721" />
	</node>
	<node id="-207835" lat="59.2500027797" lon="11.0332444475">
		<tag k="fixme" v="consider place=hamlet" />
		<tag k="name" v="Moum" />
		<tag k="place" v="farm" />
		<tag k="ssr:stedsnr" v="2525" />
	</node>
	<node id="-207834" lat="59.2464722198" lon="10.9985388844">
		<tag k="fixme" v="consider place=suburb, village or hamlet" />
		<tag k="name" v="Hauge" />
		<tag k="place" v="quarter" />
		<tag k="ssr:stedsnr" v="2522" />
	</node>
	<node id="-207833" lat="59.2449250021" lon="10.9817750001">
		<tag k="name" v="Rå" />
		<tag k="place" v="farm" />
		<tag k="ssr:stedsnr" v="2520" />
	</node>
	<node id="-207832" lat="59.2447250008" lon="10.8009499945">
		<tag k="name" v="Hovslett" />
		<tag k="place" v="farm" />
		<tag k="ssr:stedsnr" v="2500" />
	</node>
	<node id="-207829" lat="59.1959833289" lon="10.8583805558">
		<tag k="name" v="Dale" />
		<tag k="place" v="farm" />
		<tag k="ssr:stedsnr" v="2345" />
	</node>
	<node id="-207828" lat="59.1925888905" lon="10.8651805631">
		<tag k="name" v="Fjelle" />
		<tag k="place" v="farm" />
		<tag k="ssr:stedsnr" v="2344" />
	</node>
	<node id="-207826" lat="59.1917750019" lon="10.8615777815">
		<tag k="name" v="Langeteig" />
		<tag k="place" v="farm" />
		<tag k="ssr:stedsnr" v="1374" />
	</node>
	<node id="-207821" lat="59.2202638849" lon="11.0588055547">
		<tag k="alt_name" v="Kjølshunn" />
		<tag k="name" v="Kjølsund" />
		<tag k="place" v="farm" />
		<tag k="ssr:stedsnr" v="1313" />
	</node>
	<node id="-207816" lat="59.2293499968" lon="11.0866249934">
		<tag k="name" v="Kuremyr" />
		<tag k="place" v="farm" />
		<tag k="ssr:stedsnr" v="1272" />
	</node>
	<node id="-207815" lat="59.21881111" lon="10.8289749987">
		<tag k="name" v="Myrvoll" />
		<tag k="place" v="farm" />
		<tag k="ssr:stedsnr" v="1265" />
	</node>
	<node id="-207805" lat="59.2430987022" lon="10.9351950579">
		<tag k="name" v="Brønnerød" />
		<tag k="place" v="quarter" />
		<tag k="ssr:stedsnr" v="981855" />
	</node>
	<node id="-207804" lat="59.2594075816" lon="10.7334087054">
		<tag k="name" v="Solviken" />
		<tag k="place" v="neighbourhood" />
		<tag k="ssr:stedsnr" v="981854" />
	</node>
	<node id="-207803" lat="59.2541036137" lon="10.7311093204">
		<tag k="name" v="Engelsvikøya" />
		<tag k="place" v="neighbourhood" />
		<tag k="ssr:stedsnr" v="981853" />
	</node>
	<node id="-207802" lat="59.1533935453" lon="11.0393627489">
		<tag k="name" v="Kile" />
		<tag k="place" v="neighbourhood" />
		<tag k="ssr:stedsnr" v="981852" />
	</node>
	<node id="-207801" lat="59.1468917371" lon="11.0370812712">
		<tag k="name" v="Humlekjær" />
		<tag k="place" v="neighbourhood" />
		<tag k="ssr:stedsnr" v="981851" />
	</node>
	<node id="-207800" lat="59.1606598001" lon="11.0379454454">
		<tag k="name" v="Roppestadholmen" />
		<tag k="place" v="neighbourhood" />
		<tag k="ssr:stedsnr" v="981850" />
	</node>
	<node id="-207799" lat="59.1802570944" lon="10.9005346753">
		<tag k="name" v="Ølbergtangen" />
		<tag k="place" v="neighbourhood" />
		<tag k="ssr:stedsnr" v="981849" />
	</node>
	<node id="-207798" lat="59.18039529" lon="10.9040870493">
		<tag k="name" v="Sandbukta" />
		<tag k="place" v="neighbourhood" />
		<tag k="ssr:stedsnr" v="981848" />
	</node>
	<node id="-207797" lat="59.1787087445" lon="10.9063132858">
		<tag k="name" v="Sandvika" />
		<tag k="place" v="neighbourhood" />
		<tag k="ssr:stedsnr" v="981846" />
	</node>
	<node id="-207796" lat="59.1895352009" lon="10.9016577636">
		<tag k="name" v="Langøyåsen" />
		<tag k="place" v="quarter" />
		<tag k="ssr:stedsnr" v="981843" />
	</node>
	<node id="-207795" lat="59.1825582351" lon="10.8557651819">
		<tag k="name" v="Stensvik" />
		<tag k="place" v="quarter" />
		<tag k="ssr:stedsnr" v="981841" />
	</node>
	<node id="-207794" lat="59.2160573189" lon="11.0562711239">
		<tag k="name" v="Kjølsund" />
		<tag k="place" v="quarter" />
		<tag k="ssr:stedsnr" v="981840" />
	</node>
	<node id="-207793" lat="59.1833990299" lon="10.8395723971">
		<tag k="name" v="Møklegård" />
		<tag k="place" v="quarter" />
		<tag k="ssr:stedsnr" v="981838" />
	</node>
	<node id="-207792" lat="59.1379721349" lon="10.9336140512">
		<tag k="name" v="Tangen" />
		<tag k="place" v="quarter" />
		<tag k="ssr:stedsnr" v="981837" />
	</node>
	<node id="-207791" lat="59.2015767847" lon="10.8358907364">
		<tag k="name" v="Slevik platå" />
		<tag k="place" v="quarter" />
		<tag k="ssr:stedsnr" v="981836" />
	</node>
	<node id="-207789" lat="59.2242808407" lon="11.0129937914">
		<tag k="name" v="Sperling" />
		<tag k="place" v="quarter" />
		<tag k="ssr:stedsnr" v="981833" />
	</node>
	<node id="-207788" lat="59.2271602617" lon="11.016099722">
		<tag k="name" v="Kjølbergskogen" />
		<tag k="place" v="quarter" />
		<tag k="ssr:stedsnr" v="981832" />
	</node>
	<node id="-207784" lat="59.2460055554" lon="10.9214944471">
		<tag k="alt_name" v="Ambjørnrød søndre" />
		<tag k="name" v="Søndre Ambjørnrød" />
		<tag k="place" v="locality" />
		<tag k="ssr:stedsnr" v="967818" />
	</node>
	<node id="-207780" lat="59.1626416681" lon="11.0459333277">
		<tag k="name" v="Kileløkka" />
		<tag k="place" v="isolated_dwelling" />
		<tag k="ssr:stedsnr" v="966665" />
	</node>
	<node id="-207778" lat="59.1718638862" lon="11.0254500002">
		<tag k="alt_name" v="Roppestad vestre" />
		<tag k="name" v="Vestre Roppestad" />
		<tag k="place" v="farm" />
		<tag k="ssr:stedsnr" v="965509" />
	</node>
	<node id="-207777" lat="59.2906694488" lon="10.7961333391">
		<tag k="name" v="Solberg" />
		<tag k="place" v="farm" />
		<tag k="ssr:stedsnr" v="965120" />
	</node>
	<node id="-207775" lat="59.2077805569" lon="10.7764694515">
		<tag k="alt_name" v="Hankø bad" />
		<tag k="name" v="Hankø fjordhotell &amp; spa" />
		<tag k="ssr:stedsnr" v="965018" />
		<tag k="tourism" v="hotel" />
	</node>
	<node id="-207774" lat="59.2097555552" lon="10.9017111031">
		<tag k="name" v="Haugetangen" />
		<tag k="place" v="quarter" />
		<tag k="ssr:stedsnr" v="964820" />
	</node>
	<node id="-207771" lat="59.1993583376" lon="10.9148805577">
		<tag k="name" v="Rød" />
		<tag k="place" v="farm" />
		<tag k="ssr:stedsnr" v="964263" />
	</node>
	<node id="-207770" lat="59.1871944469" lon="11.0221916681">
		<tag k="name" v="Strandløkka" />
		<tag k="place" v="farm" />
		<tag k="ssr:stedsnr" v="964257" />
	</node>
	<node id="-207769" lat="59.2189083305" lon="10.924297223">
		<tag k="name" v="Trosvikberget" />
		<tag k="place" v="quarter" />
		<tag k="ssr:stedsnr" v="950999" />
	</node>
	<node id="-207762" lat="59.2496277778" lon="11.1077638806">
		<tag k="alt_name" v="Årum øvre" />
		<tag k="name" v="Øvre Årum" />
		<tag k="place" v="farm" />
		<tag k="ssr:stedsnr" v="933507" />
	</node>
	<node id="-207759" lat="59.2310972213" lon="11.027297228">
		<tag k="name" v="Kaisastuen" />
		<tag k="place" v="isolated_dwelling" />
		<tag k="ssr:stedsnr" v="908807" />
	</node>
	<node id="-207743" lat="59.2435194417" lon="11.1126749958">
		<tag k="alt_name" v="Molteberg søndre" />
		<tag k="name" v="Søndre Molteberg" />
		<tag k="place" v="farm" />
		<tag k="ssr:stedsnr" v="872528" />
	</node>
	<node id="-207742" lat="59.2480388897" lon="11.1206694399">
		<tag k="name" v="Molteberghellane" />
		<tag k="place" v="farm" />
		<tag k="ssr:stedsnr" v="872525" />
	</node>
	<node id="-207741" lat="59.2464722187" lon="11.0762888842">
		<tag k="name" v="Søndre Haugen" />
		<tag k="place" v="farm" />
		<tag k="ssr:stedsnr" v="872506" />
	</node>
	<node id="-207737" lat="59.2619027772" lon="11.0726361057">
		<tag k="alt_name" v="Vesten østre" />
		<tag k="name" v="Østre Vesten" />
		<tag k="place" v="farm" />
		<tag k="ssr:stedsnr" v="872078" />
	</node>
	<node id="-207736" lat="59.2582777815" lon="11.0646111032">
		<tag k="alt_name" v="Tofteberg østre" />
		<tag k="name" v="Østre Tofteberg" />
		<tag k="place" v="farm" />
		<tag k="ssr:stedsnr" v="872074" />
	</node>
	<node id="-207735" lat="59.281625004" lon="10.9011722148">
		<tag k="alt_name" v="Enga" />
		<tag k="name" v="Engen" />
		<tag k="place" v="farm" />
		<tag k="ssr:stedsnr" v="853378" />
	</node>
	<node id="-207734" lat="59.2648999981" lon="10.8506055544">
		<tag k="fixme" v="consider place=hamlet" />
		<tag k="name" v="Ek" />
		<tag k="place" v="farm" />
		<tag k="ssr:stedsnr" v="853077" />
	</node>
	<node id="-207732" lat="59.1720472243" lon="10.9464583329">
		<tag k="name" v="Alshus" />
		<tag k="place" v="quarter" />
		<tag k="ssr:stedsnr" v="852354" />
	</node>
	<node id="-207731" lat="59.1558250035" lon="11.0745944497">
		<tag k="alt_name" v="Myra, vestre" />
		<tag k="name" v="Vestre Myra" />
		<tag k="place" v="farm" />
		<tag k="ssr:stedsnr" v="852619" />
	</node>
	<node id="-207729" lat="59.1594276846" lon="10.9254595923">
		<tag k="fixme" v="consider place=hamlet" />
		<tag k="name" v="Femdal" />
		<tag k="place" v="farm" />
		<tag k="ssr:stedsnr" v="852604" />
	</node>
	<node id="-207728" lat="59.2483999996" lon="10.8101499984">
		<tag k="name" v="Hovland" />
		<tag k="place" v="farm" />
		<tag k="ssr:stedsnr" v="851468" />
	</node>
	<node id="-207727" lat="59.2352999961" lon="10.9625250007">
		<tag k="name" v="Høyendal" />
		<tag k="old_name" v="Høiendal" />
		<tag k="place" v="farm" />
		<tag k="ssr:stedsnr" v="851460" />
	</node>
	<node id="-207726" lat="59.2372638895" lon="10.9155500009">
		<tag k="alt_name" v="Gluppehamna" />
		<tag k="name" v="Gluppehavna" />
		<tag k="place" v="quarter" />
		<tag k="ssr:stedsnr" v="851456" />
	</node>
	<node id="-207725" lat="59.2407749994" lon="10.8519388928">
		<tag k="fixme" v="consider place=hamlet" />
		<tag k="name" v="Kjenne" />
		<tag k="place" v="farm" />
		<tag k="ssr:stedsnr" v="851455" />
	</node>
	<node id="-207722" lat="59.2296727156" lon="10.8563718081">
		<tag k="alt_name" v="Tvete østre" />
		<tag k="name" v="Østre Tvete" />
		<tag k="place" v="farm" />
		<tag k="ssr:stedsnr" v="844836" />
	</node>
	<node id="-207721" lat="59.2086055596" lon="10.8538111084">
		<tag k="name" v="Brekke" />
		<tag k="place" v="farm" />
		<tag k="ssr:stedsnr" v="844831" />
	</node>
	<node id="-207709" lat="59.2392138931" lon="11.0987027774">
		<tag k="alt_name" v="Skjelin søndre" />
		<tag k="name" v="Søndre Skjelin" />
		<tag k="place" v="farm" />
		<tag k="ssr:stedsnr" v="933502" />
	</node>
	<node id="-207708" lat="59.2552166645" lon="11.1092611023">
		<tag k="name" v="Kroken" />
		<tag k="place" v="farm" />
		<tag k="ssr:stedsnr" v="933079" />
	</node>
	<node id="-207705" lat="59.196075002" lon="10.8246611152">
		<tag k="fixme" v="consider place=suburb, village or hamlet" />
		<tag k="name" v="Slevik" />
		<tag k="place" v="quarter" />
		<tag k="ssr:stedsnr" v="813160" />
	</node>
	<node id="-207702" lat="59.3118111069" lon="10.9225138925">
		<tag k="name" v="Nordre Ælin" />
		<tag k="place" v="farm" />
		<tag k="ssr:stedsnr" v="791412" />
	</node>
	<node id="-207701" lat="59.3233349939" lon="10.9571336488">
		<tag k="fixme" v="multiple name tags, choose one and add the other to alt_name" />
		<tag k="name" v="Hauge;Holmen" />
		<tag k="place" v="farm" />
		<tag k="ssr:stedsnr" v="791403" />
	</node>
	<node id="-207700" lat="59.2898809882" lon="10.9643448222">
		<tag k="alt_name" v="Ringstadhavna" />
		<tag k="name" v="Havna" />
		<tag k="place" v="farm" />
		<tag k="ssr:stedsnr" v="791373" />
	</node>
	<node id="-207698" lat="59.1793861092" lon="11.0263861148">
		<tag k="fixme" v="consider place=hamlet" />
		<tag k="name" v="Nes" />
		<tag k="place" v="farm" />
		<tag k="ssr:stedsnr" v="790354" />
	</node>
	<node id="-207697" lat="59.235488889" lon="11.0111138952">
		<tag k="amenity" v="nursing_home" />
		<tag k="name" v="Borge sykehjem" />
		<tag k="ssr:stedsnr" v="786775" />
	</node>
	<node id="-207695" lat="59.1705055524" lon="10.8281111144">
		<tag k="fixme" v="consider natural=beach + surface=sand" />
		<tag k="leisure" v="swimming_area" />
		<tag k="name" v="Foten" />
		<tag k="place" v="locality" />
		<tag k="ssr:stedsnr" v="783422" />
	</node>
	<node id="-207693" lat="59.1980666711" lon="10.9723333335">
		<tag k="name" v="Bekkevoll" />
		<tag k="place" v="farm" />
		<tag k="ssr:stedsnr" v="783415" />
	</node>
	<node id="-207692" lat="59.1974250012" lon="10.8224388941">
		<tag k="name" v="Østre Slevik" />
		<tag k="place" v="farm" />
		<tag k="ssr:stedsnr" v="777112" />
	</node>
	<node id="-207686" lat="59.1528999996" lon="11.0230000036">
		<tag k="name" v="Herre" />
		<tag k="place" v="isolated_dwelling" />
		<tag k="ssr:stedsnr" v="913598" />
	</node>
	<node id="-207684" lat="59.3067027793" lon="10.8906972299">
		<tag k="name" v="Ørmenneset" />
		<tag k="place" v="farm" />
		<tag k="ssr:stedsnr" v="913419" />
	</node>
	<node id="-207681" lat="59.2614499959" lon="10.7738888968">
		<tag k="fixme" v="consider place=hamlet" />
		<tag k="name" v="Gaustad" />
		<tag k="place" v="farm" />
		<tag k="ssr:stedsnr" v="913112" />
	</node>
	<node id="-207680" lat="59.2569833303" lon="10.7727333289">
		<tag k="alt_name" v="Rød;Rød vestre" />
		<tag k="name" v="Vestre Rød" />
		<tag k="place" v="farm" />
		<tag k="ssr:stedsnr" v="913111" />
	</node>
	<node id="-207679" lat="59.2767750036" lon="10.8795083249">
		<tag k="name" v="Nor" />
		<tag k="place" v="farm" />
		<tag k="ssr:stedsnr" v="913108" />
	</node>
	<node id="-207678" lat="59.2691750032" lon="11.004988885">
		<tag k="name" v="Rekustad" />
		<tag k="place" v="farm" />
		<tag k="ssr:stedsnr" v="913105" />
	</node>
	<node id="-207677" lat="59.2654888928" lon="10.8379472305">
		<tag k="alt_name" v="Skogen" />
		<tag k="name" v="Skauen" />
		<tag k="place" v="farm" />
		<tag k="ssr:stedsnr" v="913098" />
	</node>
	<node id="-207676" lat="59.2592472262" lon="10.8579055623">
		<tag k="fixme" v="consider place=hamlet" />
		<tag k="name" v="Kolberg" />
		<tag k="place" v="farm" />
		<tag k="ssr:stedsnr" v="913079" />
	</node>
	<node id="-207675" lat="59.2551752256" lon="10.8640070802">
		<tag k="fixme" v="consider place=hamlet" />
		<tag k="name" v="Torp" />
		<tag k="place" v="farm" />
		<tag k="ssr:stedsnr" v="913077" />
	</node>
	<node id="-207674" lat="59.1646750017" lon="11.1190000078">
		<tag k="alt_name" v="Hammaren;Hammaren2;Hammaren22;Hammaren222" />
		<tag k="name" v="Helle" />
		<tag k="place" v="isolated_dwelling" />
		<tag k="ssr:stedsnr" v="912953" />
	</node>
	<node id="-207673" lat="59.140036109" lon="11.0614555579">
		<tag k="alt_name" v="Bredvik" />
		<tag k="name" v="Brevik" />
		<tag k="place" v="farm" />
		<tag k="ssr:stedsnr" v="912735" />
	</node>
	<node id="-207670" lat="59.1707060565" lon="11.043530566">
		<tag k="alt_name" v="Refsdal" />
		<tag k="fixme" v="consider place=hamlet" />
		<tag k="name" v="Refsal" />
		<tag k="place" v="farm" />
		<tag k="ssr:stedsnr" v="912675" />
	</node>
	<node id="-207669" lat="59.1785944412" lon="11.0085222193">
		<tag k="name" v="Holmen" />
		<tag k="place" v="isolated_dwelling" />
		<tag k="ssr:stedsnr" v="912674" />
	</node>
	<node id="-207668" lat="59.2419749985" lon="11.0382361087">
		<tag k="name" v="Lilleborge" />
		<tag k="place" v="farm" />
		<tag k="ssr:stedsnr" v="912527" />
	</node>
	<node id="-207667" lat="59.245727778" lon="10.8907749997">
		<tag k="name" v="Skjønnerød" />
		<tag k="place" v="farm" />
		<tag k="ssr:stedsnr" v="912523" />
	</node>
	<node id="-207666" lat="59.2398999982" lon="10.8229750029">
		<tag k="alt_name" v="Skollerød" />
		<tag k="name" v="Skallerød" />
		<tag k="place" v="farm" />
		<tag k="ssr:stedsnr" v="912499" />
	</node>
	<node id="-207664" lat="59.244972218" lon="11.0851972212">
		<tag k="alt_name" v="Heia" />
		<tag k="name" v="Sandheia" />
		<tag k="place" v="farm" />
		<tag k="ssr:stedsnr" v="912495" />
	</node>
	<node id="-207663" lat="59.2901510455" lon="10.7991671473">
		<tag k="fixme" v="consider place=hamlet" />
		<tag k="name" v="Solberg" />
		<tag k="place" v="farm" />
		<tag k="ssr:stedsnr" v="912417" />
	</node>
	<node id="-207662" lat="59.179274997" lon="10.930452785">
		<tag k="name" v="Holte" />
		<tag k="place" v="farm" />
		<tag k="ssr:stedsnr" v="912361" />
	</node>
	<node id="-207661" lat="59.1778277776" lon="10.9251027847">
		<tag k="name" v="Allerød" />
		<tag k="place" v="farm" />
		<tag k="ssr:stedsnr" v="912359" />
	</node>
	<node id="-207660" lat="59.2028527781" lon="10.9402611191">
		<tag k="name" v="Smertu" />
		<tag k="place" v="suburb" />
		<tag k="ssr:stedsnr" v="912353" />
	</node>
	<node id="-207659" lat="59.1986750013" lon="10.9026361093">
		<tag k="name" v="Nyborg" />
		<tag k="place" v="isolated_dwelling" />
		<tag k="ssr:stedsnr" v="912340" />
	</node>
	<node id="-207658" lat="59.1886527738" lon="10.8752944465">
		<tag k="fixme" v="consider place=suburb, village or hamlet" />
		<tag k="name" v="Viker" />
		<tag k="place" v="quarter" />
		<tag k="ssr:stedsnr" v="912324" />
	</node>
	<node id="-207657" lat="59.1896555592" lon="10.8618361142">
		<tag k="name" v="Fjelle" />
		<tag k="place" v="farm" />
		<tag k="ssr:stedsnr" v="912322" />
	</node>
	<node id="-207656" lat="59.2172805566" lon="11.0105333346">
		<tag k="name" v="Begby" />
		<tag k="place" v="farm" />
		<tag k="ssr:stedsnr" v="912320" />
	</node>
	<node id="-207655" lat="59.2209665993" lon="11.0272682975">
		<tag k="fixme" v="consider place=hamlet" />
		<tag k="name" v="Visur" />
		<tag k="place" v="farm" />
		<tag k="ssr:stedsnr" v="912318" />
	</node>
	<node id="-207651" lat="59.2209249991" lon="10.8369999975">
		<tag k="name" v="Ekeberg" />
		<tag k="place" v="farm" />
		<tag k="ssr:stedsnr" v="912264" />
	</node>
	<node id="-207645" lat="59.1843749998" lon="11.0701111027">
		<tag k="name" v="Holm" />
		<tag k="place" v="quarter" />
		<tag k="ssr:stedsnr" v="911380" />
	</node>
	<node id="-207643" lat="59.1876341476" lon="10.9126253204">
		<tag k="fixme" v="consider place=hamlet" />
		<tag k="name" v="Enhus" />
		<tag k="place" v="farm" />
		<tag k="ssr:stedsnr" v="911372" />
	</node>
	<node id="-207642" lat="59.1784500027" lon="11.0863722174">
		<tag k="fixme" v="consider place=hamlet" />
		<tag k="name" v="Heie" />
		<tag k="place" v="farm" />
		<tag k="ssr:stedsnr" v="911365" />
	</node>
	<node id="-207641" lat="59.2411083317" lon="11.0230000073">
		<tag k="name" v="Kjølstadløkka" />
		<tag k="place" v="village" />
		<tag k="ssr:stedsnr" v="911293" />
	</node>
	<node id="-207640" lat="59.2326972258" lon="11.0467222151">
		<tag k="fixme" v="consider place=hamlet" />
		<tag k="name" v="Borge" />
		<tag k="place" v="farm" />
		<tag k="ssr:stedsnr" v="911283" />
	</node>
	<node id="-207639" lat="59.2324472257" lon="11.008597225">
		<tag k="fixme" v="consider place=hamlet" />
		<tag k="name" v="Kjølstad" />
		<tag k="place" v="farm" />
		<tag k="ssr:stedsnr" v="911282" />
	</node>
	<node id="-207638" lat="59.2286444417" lon="11.0018611031">
		<tag k="name" v="Kjølberg" />
		<tag k="place" v="quarter" />
		<tag k="ssr:stedsnr" v="911281" />
	</node>
	<node id="-207635" lat="59.2646187708" lon="10.9501377369">
		<tag k="fixme" v="consider place=hamlet" />
		<tag k="name" v="Bjørnerød" />
		<tag k="place" v="farm" />
		<tag k="ssr:stedsnr" v="908891" />
	</node>
	<node id="-207634" lat="59.2645222235" lon="10.9515388962">
		<tag k="alt_name" v="Bjørnerød søndre" />
		<tag k="name" v="Søndre Bjørnerød" />
		<tag k="place" v="farm" />
		<tag k="ssr:stedsnr" v="908890" />
	</node>
	<node id="-207633" lat="59.2806972241" lon="10.9991416615">
		<tag k="alt_name" v="Rostad søndre" />
		<tag k="name" v="Søndre Rostad" />
		<tag k="place" v="farm" />
		<tag k="ssr:stedsnr" v="908042" />
	</node>
	<node id="-207628" lat="59.1887388853" lon="11.0366388962">
		<tag k="name" v="Glosli" />
		<tag k="place" v="quarter" />
		<tag k="ssr:stedsnr" v="906818" />
	</node>
	<node id="-207627" lat="59.2304916686" lon="10.9725388866">
		<tag k="leisure" v="pitch" />
		<tag k="name" v="Sentralidrettsanlegget" />
		<tag k="ssr:stedsnr" v="906585" />
	</node>
	<node id="-207626" lat="59.3090583377" lon="10.9509111034">
		<tag k="name" v="Nylende" />
		<tag k="place" v="farm" />
		<tag k="ssr:stedsnr" v="906083" />
	</node>
	<node id="-207622" lat="59.1821305539" lon="11.0376638804">
		<tag k="name" v="Løkka" />
		<tag k="place" v="farm" />
		<tag k="ssr:stedsnr" v="904442" />
	</node>
	<node id="-207620" lat="59.1849111125" lon="11.029916668">
		<tag k="alt_name" v="Berg søndre" />
		<tag k="name" v="Søndre Berg" />
		<tag k="place" v="farm" />
		<tag k="ssr:stedsnr" v="904436" />
	</node>
	<node id="-207617" lat="59.1893888921" lon="10.9557777742">
		<tag k="name" v="Øra" />
		<tag k="place" v="quarter" />
		<tag k="ssr:stedsnr" v="904392" />
	</node>
	<node id="-207616" lat="59.224061113" lon="10.9372416692">
		<tag k="amenity" v="nursing_home" />
		<tag k="name" v="Bjørnefjell" />
		<tag k="ssr:stedsnr" v="904384" />
	</node>
	<node id="-207615" lat="59.1950888923" lon="10.9101055586">
		<tag k="amenity" v="school" />
		<tag k="name" v="Rød skole" />
		<tag k="ssr:stedsnr" v="904237" />
	</node>
	<node id="-207613" lat="59.2603888907" lon="10.8215555584">
		<tag k="name" v="Gjølstad" />
		<tag k="place" v="farm" />
		<tag k="ssr:stedsnr" v="904141" />
	</node>
	<node id="-207612" lat="59.2226805599" lon="10.9840750072">
		<tag k="name" v="Sorgenfri" />
		<tag k="place" v="quarter" />
		<tag k="ssr:stedsnr" v="904493" />
	</node>
	<node id="-207610" lat="59.1985888895" lon="10.8208027709">
		<tag k="name" v="Mellegård" />
		<tag k="place" v="farm" />
		<tag k="ssr:stedsnr" v="904046" />
	</node>
	<node id="-207605" lat="59.2757555593" lon="10.8624222262">
		<tag k="name" v="Kongsberg" />
		<tag k="place" v="farm" />
		<tag k="ssr:stedsnr" v="731353" />
	</node>
	<node id="-207604" lat="59.2755638905" lon="10.76439723">
		<tag k="name" v="Kråketorp" />
		<tag k="place" v="farm" />
		<tag k="ssr:stedsnr" v="731349" />
	</node>
	<node id="-207603" lat="59.2837777822" lon="10.9571888955">
		<tag k="name" v="Leiret" />
		<tag k="place" v="locality" />
		<tag k="ssr:stedsnr" v="731345" />
	</node>
	<node id="-207602" lat="59.2897027745" lon="10.8699138959">
		<tag k="name" v="Mollestad" />
		<tag k="place" v="farm" />
		<tag k="ssr:stedsnr" v="731340" />
	</node>
	<node id="-207601" lat="59.262866665" lon="10.8892277846">
		<tag k="alt_name" v="Solli" />
		<tag k="name" v="Sollia" />
		<tag k="place" v="farm" />
		<tag k="ssr:stedsnr" v="731107" />
	</node>
	<node id="-207594" lat="59.2916638873" lon="10.9950611068">
		<tag k="name" v="Bråten" />
		<tag k="place" v="isolated_dwelling" />
		<tag k="ssr:stedsnr" v="726039" />
	</node>
	<node id="-207593" lat="59.2745638905" lon="11.0128388907">
		<tag k="amenity" v="school" />
		<tag k="name" v="Haugetun folkehøyskole" />
		<tag k="ssr:stedsnr" v="726026" />
	</node>
	<node id="-207591" lat="59.2932000011" lon="10.885855558">
		<tag k="alt_name" v="Ørmen mellem" />
		<tag k="name" v="Mellom-Ørmen" />
		<tag k="place" v="farm" />
		<tag k="ssr:stedsnr" v="724832" />
	</node>
	<node id="-207590" lat="59.2765583316" lon="10.8701583327">
		<tag k="name" v="Valle" />
		<tag k="place" v="farm" />
		<tag k="ssr:stedsnr" v="724816" />
	</node>
	<node id="-207588" lat="59.2589777823" lon="10.9348722236">
		<tag k="name" v="Grindbakke" />
		<tag k="place" v="farm" />
		<tag k="ssr:stedsnr" v="724794" />
	</node>
	<node id="-207587" lat="59.1850194441" lon="11.0509638946">
		<tag k="name" v="Veel" />
		<tag k="place" v="village" />
		<tag k="ssr:stedsnr" v="722398" />
	</node>
	<node id="-207586" lat="59.2237555521" lon="10.9233083362">
		<tag k="name" v="Trosvik" />
		<tag k="place" v="farm" />
		<tag k="ssr:stedsnr" v="722389" />
	</node>
	<node id="-207585" lat="59.2103638884" lon="10.9401249938">
		<tag k="alt_name" v="Rådhuset" />
		<tag k="amenity" v="townhall" />
		<tag k="name" v="Fredrikstad rådhus" />
		<tag k="ssr:stedsnr" v="891183" />
	</node>
	<node id="-207581" lat="59.2352388896" lon="10.7373527787">
		<tag k="alt_name" v="Smauget" />
		<tag k="name" v="Smauet" />
		<tag k="place" v="farm" />
		<tag k="ssr:stedsnr" v="692822" />
	</node>
	<node id="-207578" lat="59.2301722234" lon="10.8955555633">
		<tag k="name" v="Bråten" />
		<tag k="place" v="farm" />
		<tag k="ssr:stedsnr" v="299841" />
	</node>
	<node id="-207576" lat="59.2434722193" lon="10.9019944422">
		<tag k="alt_name" v="Skåra nordre" />
		<tag k="name" v="Nordre Skåra" />
		<tag k="place" v="farm" />
		<tag k="ssr:stedsnr" v="299834" />
	</node>
	<node id="-207575" lat="59.2408472197" lon="10.9253416671">
		<tag k="alt_name" v="Gluppe søndre" />
		<tag k="name" v="Søndre Gluppe" />
		<tag k="place" v="farm" />
		<tag k="ssr:stedsnr" v="299832" />
	</node>
	<node id="-207574" lat="59.2047027819" lon="10.906963896">
		<tag k="fixme" v="consider place=suburb, village or hamlet" />
		<tag k="name" v="Glombo" />
		<tag k="place" v="quarter" />
		<tag k="ssr:stedsnr" v="669313" />
	</node>
	<node id="-207573" lat="59.2029722268" lon="11.0586499932">
		<tag k="fixme" v="consider place=hamlet" />
		<tag k="name" v="Heieren" />
		<tag k="place" v="farm" />
		<tag k="ssr:stedsnr" v="669309" />
	</node>
	<node id="-207572" lat="59.1909250006" lon="10.9382500058">
		<tag k="name" v="Fuglevik" />
		<tag k="place" v="farm" />
		<tag k="ssr:stedsnr" v="669304" />
	</node>
	<node id="-207568" lat="59.2250194421" lon="11.0447944377">
		<tag k="alt_name" v="Borge store" />
		<tag k="name" v="Store Borge" />
		<tag k="place" v="farm" />
		<tag k="ssr:stedsnr" v="906768" />
	</node>
	<node id="-207567" lat="59.2144333328" lon="10.9842972136">
		<tag k="name" v="Lundheim" />
		<tag k="place" v="suburb" />
		<tag k="ssr:stedsnr" v="664334" />
	</node>
	<node id="-207566" lat="59.2315748056" lon="10.9639777908">
		<tag k="name" v="Hassingen" />
		<tag k="place" v="suburb" />
		<tag k="ssr:stedsnr" v="664332" />
	</node>
	<node id="-207554" lat="59.1496000015" lon="11.0972750039">
		<tag k="alt_name" v="Østre Myra" />
		<tag k="name" v="Myra" />
		<tag k="place" v="isolated_dwelling" />
		<tag k="ssr:stedsnr" v="731787" />
	</node>
	<node id="-207551" lat="59.2628250013" lon="11.0719888929">
		<tag k="name" v="Vesten" />
		<tag k="place" v="farm" />
		<tag k="ssr:stedsnr" v="731102" />
	</node>
	<node id="-207550" lat="59.2743135462" lon="10.866487101">
		<tag k="fixme" v="consider place=hamlet" />
		<tag k="name" v="Valle" />
		<tag k="place" v="farm" />
		<tag k="ssr:stedsnr" v="731094" />
	</node>
	<node id="-207549" lat="59.2778388894" lon="10.9010611167">
		<tag k="name" v="Fosse" />
		<tag k="place" v="farm" />
		<tag k="ssr:stedsnr" v="731092" />
	</node>
	<node id="-207547" lat="59.2639805537" lon="10.7591083304">
		<tag k="name" v="Stene" />
		<tag k="place" v="farm" />
		<tag k="ssr:stedsnr" v="731085" />
	</node>
	<node id="-207546" lat="59.2522944425" lon="10.8119861022">
		<tag k="name" v="Haugland" />
		<tag k="place" v="farm" />
		<tag k="ssr:stedsnr" v="731058" />
	</node>
	<node id="-207545" lat="59.2502072612" lon="10.833214729">
		<tag k="alt_name" v="Øtne" />
		<tag k="name" v="Utne" />
		<tag k="place" v="hamlet" />
		<tag k="ssr:stedsnr" v="731057" />
	</node>
	<node id="-207544" lat="59.1671555571" lon="10.9317111146">
		<tag k="fixme" v="consider place=hamlet" />
		<tag k="name" v="Femdal" />
		<tag k="place" v="farm" />
		<tag k="ssr:stedsnr" v="730719" />
	</node>
	<node id="-207542" lat="59.2465194471" lon="10.9665027782">
		<tag k="name" v="Bråten" />
		<tag k="place" v="farm" />
		<tag k="ssr:stedsnr" v="730526" />
	</node>
	<node id="-207541" lat="59.247745232" lon="10.7989662647">
		<tag k="fixme" v="consider place=hamlet" />
		<tag k="name" v="Lunder" />
		<tag k="place" v="farm" />
		<tag k="ssr:stedsnr" v="730520" />
	</node>
	<node id="-207540" lat="59.2344638931" lon="10.9372861189">
		<tag k="name" v="Sandbekk" />
		<tag k="place" v="farm" />
		<tag k="ssr:stedsnr" v="730511" />
	</node>
	<node id="-207539" lat="59.244227776" lon="10.9007388806">
		<tag k="name" v="Skåra" />
		<tag k="place" v="hamlet" />
		<tag k="ssr:stedsnr" v="730509" />
	</node>
	<node id="-207538" lat="59.2065694472" lon="10.9767277727">
		<tag k="name" v="Borgar" />
		<tag k="place" v="isolated_dwelling" />
		<tag k="ssr:stedsnr" v="730345" />
	</node>
	<node id="-207537" lat="59.2009777766" lon="10.8583694503">
		<tag k="name" v="Dyrød" />
		<tag k="place" v="farm" />
		<tag k="ssr:stedsnr" v="730340" />
	</node>
	<node id="-207536" lat="59.1997749964" lon="10.8057222199">
		<tag k="name" v="Ødegard" />
		<tag k="place" v="farm" />
		<tag k="ssr:stedsnr" v="730333" />
	</node>
	<node id="-207535" lat="59.209625002" lon="10.991922227">
		<tag k="name" v="Fjellstad" />
		<tag k="place" v="farm" />
		<tag k="ssr:stedsnr" v="730288" />
	</node>
	<node id="-207534" lat="59.2146750017" lon="10.9869500016">
		<tag k="alt_name" v="Lunden" />
		<tag k="name" v="Lundheim" />
		<tag k="place" v="isolated_dwelling" />
		<tag k="ssr:stedsnr" v="730286" />
	</node>
	<node id="-207533" lat="59.2334583328" lon="11.031925004">
		<tag k="name" v="Balterød" />
		<tag k="place" v="farm" />
		<tag k="ssr:stedsnr" v="729304" />
	</node>
	<node id="-207532" lat="59.2246750021" lon="10.9009999926">
		<tag k="name" v="Hurrød" />
		<tag k="place" v="farm" />
		<tag k="ssr:stedsnr" v="729276" />
	</node>
	<node id="-207531" lat="59.2259249975" lon="10.9264500045">
		<tag k="amenity" v="school" />
		<tag k="name" v="Trosvik skole" />
		<tag k="ssr:stedsnr" v="729274" />
	</node>
	<node id="-207530" lat="59.237461109" lon="10.7518416729">
		<tag k="alt_name" v="Grundvik" />
		<tag k="name" v="Grunnvik" />
		<tag k="place" v="isolated_dwelling" />
		<tag k="ssr:stedsnr" v="634821" />
	</node>
	<node id="-207529" lat="59.2252166675" lon="10.9554444419">
		<tag k="name" v="Skovbøle" />
		<tag k="place" v="farm" />
		<tag k="ssr:stedsnr" v="299579" />
	</node>
	<node id="-207528" lat="59.1842305542" lon="11.0689472277">
		<tag k="fixme" v="consider place=suburb, village or hamlet" />
		<tag k="name" v="Toremyr" />
		<tag k="place" v="quarter" />
		<tag k="ssr:stedsnr" v="629467" />
	</node>
	<node id="-207523" lat="59.2650111129" lon="10.9589722266">
		<tag k="fixme" v="consider tourism=alpine_hut or tourism=chalet" />
		<tag k="name" v="Skihytta" />
		<tag k="ssr:stedsnr" v="726865" />
		<tag k="tourism" v="wilderness_hut" />
	</node>
	<node id="-207522" lat="59.2322722197" lon="11.0468055522">
		<tag k="alt_name" v="Borge nordre" />
		<tag k="name" v="Nordre Borge" />
		<tag k="place" v="farm" />
		<tag k="ssr:stedsnr" v="726769" />
	</node>
	<node id="-207521" lat="59.2460500014" lon="11.0379361108">
		<tag k="name" v="Torpeløkken" />
		<tag k="place" v="isolated_dwelling" />
		<tag k="ssr:stedsnr" v="726767" />
	</node>
	<node id="-207519" lat="59.2847305523" lon="10.8963777826">
		<tag k="name" v="Sandberg" />
		<tag k="place" v="farm" />
		<tag k="ssr:stedsnr" v="724932" />
	</node>
	<node id="-207517" lat="59.2297916631" lon="10.9277166739">
		<tag k="name" v="Stræbsomhet" />
		<tag k="place" v="isolated_dwelling" />
		<tag k="ssr:stedsnr" v="724851" />
	</node>
	<node id="-207514" lat="59.1580722203" lon="10.9149861194">
		<tag k="name" v="Fjellberg" />
		<tag k="place" v="farm" />
		<tag k="ssr:stedsnr" v="724842" />
	</node>
	<node id="-207512" lat="59.2093472231" lon="11.0520916599">
		<tag k="alt_name" v="Grimstad mellem" />
		<tag k="name" v="Mellom-Grimstad" />
		<tag k="place" v="farm" />
		<tag k="ssr:stedsnr" v="724541" />
	</node>
	<node id="-207510" lat="59.2131083334" lon="11.0084472283">
		<tag k="name" v="Strippa" />
		<tag k="old_name" v="Srippa" />
		<tag k="place" v="locality" />
		<tag k="ssr:stedsnr" v="724582" />
	</node>
	<node id="-207509" lat="59.249661109" lon="10.8740694495">
		<tag k="alt_name" v="Borge mellem" />
		<tag k="name" v="Mellom-Borge" />
		<tag k="place" v="farm" />
		<tag k="ssr:stedsnr" v="724141" />
	</node>
	<node id="-207507" lat="59.2249111126" lon="11.0522361025">
		<tag k="name" v="Berghagen" />
		<tag k="place" v="isolated_dwelling" />
		<tag k="ssr:stedsnr" v="723729" />
	</node>
	<node id="-207502" lat="59.1490611087" lon="10.9488083313">
		<tag k="name" v="Tangen" />
		<tag k="place" v="isolated_dwelling" />
		<tag k="ssr:stedsnr" v="722727" />
	</node>
	<node id="-207498" lat="59.2225416647" lon="10.9979972255">
		<tag k="name" v="Østby" />
		<tag k="place" v="farm" />
		<tag k="ssr:stedsnr" v="722522" />
	</node>
	<node id="-207497" lat="59.1699416646" lon="11.0318277821">
		<tag k="alt_name" v="Roppestad østre" />
		<tag k="name" v="Østre Roppestad" />
		<tag k="place" v="farm" />
		<tag k="ssr:stedsnr" v="722498" />
	</node>
	<node id="-207496" lat="59.1778472265" lon="11.0421000077">
		<tag k="name" v="Sandlia" />
		<tag k="place" v="farm" />
		<tag k="ssr:stedsnr" v="722466" />
	</node>
	<node id="-207493" lat="59.28760556" lon="10.7923027781">
		<tag k="name" v="Solberg" />
		<tag k="place" v="farm" />
		<tag k="ssr:stedsnr" v="722120" />
	</node>
	<node id="-207485" lat="59.2820694444" lon="10.9307944506">
		<tag k="alt_name" v="Veum" />
		<tag k="fixme" v="consider place=hamlet" />
		<tag k="name" v="Nordre Veum" />
		<tag k="place" v="farm" />
		<tag k="ssr:stedsnr" v="609368" />
	</node>
	<node id="-207484" lat="59.2711944419" lon="10.7460972143">
		<tag k="fixme" v="consider place=suburb, village or hamlet" />
		<tag k="name" v="Lervik" />
		<tag k="place" v="quarter" />
		<tag k="ssr:stedsnr" v="609102" />
	</node>
	<node id="-207483" lat="59.1755499989" lon="10.9392750061">
		<tag k="name" v="Holme" />
		<tag k="place" v="farm" />
		<tag k="ssr:stedsnr" v="608356" />
	</node>
	<node id="-207482" lat="59.2259805546" lon="10.8224194442">
		<tag k="alt_name" v="Lisleng" />
		<tag k="name" v="Lilleng" />
		<tag k="place" v="farm" />
		<tag k="ssr:stedsnr" v="608243" />
	</node>
	<node id="-207479" lat="59.2666388893" lon="10.997841661">
		<tag k="amenity" v="school" />
		<tag k="name" v="Steinerskolen" />
		<tag k="ssr:stedsnr" v="604981" />
	</node>
	<node id="-207478" lat="59.2549027784" lon="11.0433750077">
		<tag k="name" v="Snekkerhaugen" />
		<tag k="place" v="quarter" />
		<tag k="ssr:stedsnr" v="604966" />
	</node>
	<node id="-207476" lat="59.2430000022" lon="10.9747694449">
		<tag k="name" v="Råbekken" />
		<tag k="place" v="quarter" />
		<tag k="ssr:stedsnr" v="602737" />
	</node>
	<node id="-207475" lat="59.1891888905" lon="10.8567666715">
		<tag k="alt_name" v="Elveslett vestre" />
		<tag k="name" v="Vestre Elveslett" />
		<tag k="place" v="farm" />
		<tag k="ssr:stedsnr" v="602210" />
	</node>
	<node id="-207469" lat="59.2630222198" lon="10.7962388936">
		<tag k="name" v="Vallestrand" />
		<tag k="place" v="farm" />
		<tag k="ssr:stedsnr" v="600158" />
	</node>
	<node id="-207461" lat="59.2679321398" lon="10.8049370505">
		<tag k="fixme" v="consider place=hamlet" />
		<tag k="name" v="Huseby" />
		<tag k="place" v="farm" />
		<tag k="ssr:stedsnr" v="549111" />
	</node>
	<node id="-207459" lat="59.2876999983" lon="11.0046083335">
		<tag k="name" v="Rostadengen" />
		<tag k="place" v="farm" />
		<tag k="ssr:stedsnr" v="543015" />
	</node>
	<node id="-207458" lat="59.2728888921" lon="11.0183916715">
		<tag k="amenity" v="school" />
		<tag k="name" v="Seiersborg ungdomsskole" />
		<tag k="ssr:stedsnr" v="543012" />
	</node>
	<node id="-207453" lat="59.2130499977" lon="10.928033337">
		<tag k="leisure" v="pitch" />
		<tag k="name" v="Fredrikstad stadion" />
		<tag k="ssr:stedsnr" v="540835" />
	</node>
	<node id="-207452" lat="59.2335888871" lon="10.8530111122">
		<tag k="alt_name" v="Tvete vestre" />
		<tag k="name" v="Vestre Tvete" />
		<tag k="place" v="farm" />
		<tag k="ssr:stedsnr" v="540824" />
	</node>
	<node id="-207450" lat="59.1987805516" lon="10.9548972168">
		<tag k="alt_name" v="Kongsten hageby" />
		<tag k="name" v="Kongsten" />
		<tag k="place" v="suburb" />
		<tag k="ssr:stedsnr" v="540409" />
	</node>
	<node id="-207448" lat="59.2649277814" lon="10.7979555537">
		<tag k="alt_name" v="Huseby lille" />
		<tag k="name" v="Lille Huseby" />
		<tag k="place" v="farm" />
		<tag k="ssr:stedsnr" v="540158" />
	</node>
	<node id="-207444" lat="59.2457305529" lon="11.1124111062">
		<tag k="alt_name" v="Molteberg søndre" />
		<tag k="name" v="Søndre Molteberg" />
		<tag k="place" v="farm" />
		<tag k="ssr:stedsnr" v="690540" />
	</node>
	<node id="-207442" lat="59.1662472191" lon="11.0762666748">
		<tag k="name" v="Svensken" />
		<tag k="place" v="locality" />
		<tag k="ssr:stedsnr" v="690523" />
	</node>
	<node id="-207441" lat="59.2419527782" lon="11.0962166719">
		<tag k="alt_name" v="Skjelin vestre" />
		<tag k="name" v="Vestre Skjelin" />
		<tag k="place" v="farm" />
		<tag k="ssr:stedsnr" v="690512" />
	</node>
	<node id="-207438" lat="59.2634166647" lon="11.0723222225">
		<tag k="alt_name" v="Vesten østre" />
		<tag k="name" v="Østre Vesten" />
		<tag k="place" v="farm" />
		<tag k="ssr:stedsnr" v="690075" />
	</node>
	<node id="-207437" lat="59.2637805575" lon="11.1016055585">
		<tag k="name" v="Domberg" />
		<tag k="place" v="farm" />
		<tag k="ssr:stedsnr" v="690054" />
	</node>
	<node id="-207434" lat="59.1881583363" lon="10.8963444482">
		<tag k="name" v="Langeløkken" />
		<tag k="place" v="farm" />
		<tag k="ssr:stedsnr" v="526376" />
	</node>
	<node id="-207430" lat="59.1757361115" lon="11.0899166736">
		<tag k="name" v="Myra" />
		<tag k="place" v="isolated_dwelling" />
		<tag k="ssr:stedsnr" v="508499" />
	</node>
	<node id="-207429" lat="59.1899750039" lon="11.0618499995">
		<tag k="name" v="Åsen" />
		<tag k="place" v="isolated_dwelling" />
		<tag k="ssr:stedsnr" v="508493" />
	</node>
	<node id="-207427" lat="59.1883972208" lon="11.0639722158">
		<tag k="alt_name" v="Korseberg søndre" />
		<tag k="name" v="Søndre Korseberg" />
		<tag k="place" v="farm" />
		<tag k="ssr:stedsnr" v="508468" />
	</node>
	<node id="-207426" lat="59.2496222234" lon="10.9235222283">
		<tag k="name" v="Ambjørnrød" />
		<tag k="place" v="suburb" />
		<tag k="ssr:stedsnr" v="487536" />
	</node>
	<node id="-207425" lat="59.2527166683" lon="10.7381722169">
		<tag k="fixme" v="consider place=suburb, village or hamlet" />
		<tag k="name" v="Engelsviken" />
		<tag k="place" v="quarter" />
		<tag k="ssr:stedsnr" v="487529" />
	</node>
	<node id="-207423" lat="59.2422138919" lon="10.7382861173">
		<tag k="name" v="Levvel" />
		<tag k="place" v="farm" />
		<tag k="ssr:stedsnr" v="487510" />
	</node>
	<node id="-207415" lat="59.2605611127" lon="11.0076444432">
		<tag k="name" v="Valle" />
		<tag k="place" v="quarter" />
		<tag k="ssr:stedsnr" v="483016" />
	</node>
	<node id="-207414" lat="59.2134694453" lon="10.945786116">
		<tag k="name" v="Damyr" />
		<tag k="place" v="suburb" />
		<tag k="ssr:stedsnr" v="482357" />
	</node>
	<node id="-207413" lat="59.2316277743" lon="10.9640166644">
		<tag k="name" v="Leie" />
		<tag k="place" v="suburb" />
		<tag k="ssr:stedsnr" v="482356" />
	</node>
	<node id="-207410" lat="59.2285611087" lon="10.9511833282">
		<tag k="amenity" v="nursing_home" />
		<tag k="name" v="Åsebråten barnepsykiatrisk klinikk" />
		<tag k="ssr:stedsnr" v="481572" />
	</node>
	<node id="-207407" lat="59.3033972264" lon="10.974966663">
		<tag k="amenity" v="school" />
		<tag k="name" v="Nylende skole" />
		<tag k="ssr:stedsnr" v="481103" />
	</node>
	<node id="-207404" lat="59.1843861078" lon="10.8999333294">
		<tag k="fixme" v="consider natural=beach + surface=sand" />
		<tag k="leisure" v="swimming_area" />
		<tag k="name" v="Enhus badested" />
		<tag k="place" v="locality" />
		<tag k="ssr:stedsnr" v="479660" />
	</node>
	<node id="-207402" lat="59.1973472196" lon="10.9480194458">
		<tag k="fixme" v="consider place=suburb, village or hamlet" />
		<tag k="name" v="Vaterland" />
		<tag k="place" v="quarter" />
		<tag k="ssr:stedsnr" v="479412" />
	</node>
	<node id="-207401" lat="59.2004666703" lon="10.9604055587">
		<tag k="amenity" v="sports_centre" />
		<tag k="name" v="Kongstenhallen" />
		<tag k="ssr:stedsnr" v="479410" />
	</node>
	<node id="-207400" lat="59.2646277736" lon="10.7773944444">
		<tag k="name" v="Abildgård" />
		<tag k="place" v="farm" />
		<tag k="ssr:stedsnr" v="479158" />
	</node>
	<node id="-207397" lat="59.1357555601" lon="11.1043194386">
		<tag k="name" v="Kvernbauen" />
		<tag k="place" v="isolated_dwelling" />
		<tag k="ssr:stedsnr" v="670748" />
	</node>
	<node id="-207394" lat="59.1664972212" lon="11.0225250033">
		<tag k="fixme" v="multiple name tags, choose one and add the other to alt_name" />
		<tag k="name" v="Lindholmen;Roppestad" />
		<tag k="place" v="isolated_dwelling" />
		<tag k="ssr:stedsnr" v="670667" />
	</node>
	<node id="-207391" lat="59.1463805531" lon="10.93956388">
		<tag k="fixme" v="consider place=suburb, village or hamlet" />
		<tag k="name" v="Trolldalen" />
		<tag k="place" v="quarter" />
		<tag k="ssr:stedsnr" v="670625" />
	</node>
	<node id="-207389" lat="59.1586222214" lon="11.0379472302">
		<tag k="name" v="Holmen" />
		<tag k="place" v="isolated_dwelling" />
		<tag k="ssr:stedsnr" v="670619" />
	</node>
	<node id="-207388" lat="59.3085861069" lon="10.9350888892">
		<tag k="name" v="Horgen" />
		<tag k="place" v="farm" />
		<tag k="ssr:stedsnr" v="670426" />
	</node>
	<node id="-207387" lat="59.2758722231" lon="10.7754527776">
		<tag k="alt_name" v="Kjære" />
		<tag k="fixme" v="consider place=suburb, village or hamlet" />
		<tag k="name" v="Kjerre" />
		<tag k="place" v="quarter" />
		<tag k="ssr:stedsnr" v="670377" />
	</node>
	<node id="-207386" lat="59.2635166651" lon="10.8918305572">
		<tag k="name" v="Nordby" />
		<tag k="place" v="farm" />
		<tag k="ssr:stedsnr" v="670122" />
	</node>
	<node id="-207383" lat="59.252152782" lon="10.8026472226">
		<tag k="fixme" v="consider place=hamlet" />
		<tag k="name" v="Elingård" />
		<tag k="place" v="farm" />
		<tag k="ssr:stedsnr" v="670112" />
	</node>
	<node id="-207382" lat="59.2776083371" lon="10.9085500009">
		<tag k="name" v="Veumneset" />
		<tag k="place" v="farm" />
		<tag k="ssr:stedsnr" v="670107" />
	</node>
	<node id="-207381" lat="59.266475033" lon="10.8642773433">
		<tag k="fixme" v="multiple name tags, choose one and add the other to alt_name" />
		<tag k="name" v="Onsøy prestegård;Prestegården" />
		<tag k="place" v="farm" />
		<tag k="ssr:stedsnr" v="670101" />
	</node>
	<node id="-207379" lat="59.1295749991" lon="11.0845499946">
		<tag k="name" v="Munken" />
		<tag k="place" v="isolated_dwelling" />
		<tag k="ssr:stedsnr" v="669734" />
	</node>
	<node id="-207377" lat="59.1674222187" lon="10.9391805513">
		<tag k="name" v="Vennersberg" />
		<tag k="place" v="farm" />
		<tag k="ssr:stedsnr" v="669676" />
	</node>
	<node id="-207376" lat="59.1667611151" lon="10.9238166734">
		<tag k="alt_name" v="Goen" />
		<tag k="name" v="Gonrød" />
		<tag k="place" v="farm" />
		<tag k="ssr:stedsnr" v="669672" />
	</node>
	<node id="-207375" lat="59.1676583365" lon="10.9202277803">
		<tag k="name" v="Nygård" />
		<tag k="place" v="farm" />
		<tag k="ssr:stedsnr" v="669671" />
	</node>
	<node id="-207373" lat="59.1775499972" lon="11.0356000052">
		<tag k="name" v="Struten" />
		<tag k="place" v="isolated_dwelling" />
		<tag k="ssr:stedsnr" v="669657" />
	</node>
	<node id="-207372" lat="59.2486250012" lon="10.8206472273">
		<tag k="name" v="Stene" />
		<tag k="place" v="farm" />
		<tag k="ssr:stedsnr" v="669511" />
	</node>
	<node id="-207370" lat="59.1915583337" lon="11.0287000079">
		<tag k="name" v="Skalle" />
		<tag k="place" v="farm" />
		<tag k="ssr:stedsnr" v="669293" />
	</node>
	<node id="-207368" lat="59.2095749968" lon="10.9723249943">
		<tag k="name" v="Gudeberg" />
		<tag k="place" v="locality" />
		<tag k="ssr:stedsnr" v="669273" />
	</node>
	<node id="-207361" lat="59.2328749977" lon="10.9315472202">
		<tag k="alt_name" v="Hjørnerød" />
		<tag k="name" v="Jørnerød" />
		<tag k="place" v="farm" />
		<tag k="ssr:stedsnr" v="668292" />
	</node>
	<node id="-207356" lat="59.2361222192" lon="11.0079777772">
		<tag k="name" v="Kjølstad prestegård" />
		<tag k="place" v="isolated_dwelling" />
		<tag k="ssr:stedsnr" v="665891" />
	</node>
	<node id="-207355" lat="59.2533583354" lon="10.988261112">
		<tag k="amenity" v="school" />
		<tag k="name" v="Hauge barneskole" />
		<tag k="ssr:stedsnr" v="665890" />
	</node>
	<node id="-207351" lat="59.2777916678" lon="11.0017250053">
		<tag k="name" v="Haugen" />
		<tag k="place" v="farm" />
		<tag k="ssr:stedsnr" v="665017" />
	</node>
	<node id="-207350" lat="59.2270166659" lon="10.9936861064">
		<tag k="name" v="Løen" />
		<tag k="place" v="quarter" />
		<tag k="ssr:stedsnr" v="664381" />
	</node>
	<node id="-207349" lat="59.2583871603" lon="10.7910819649">
		<tag k="alt_name" v="Valle vestre;Vestre Valle;Valle" />
		<tag k="name" v="Søndre Valle" />
		<tag k="place" v="locality" />
		<tag k="ssr:stedsnr" v="664166" />
	</node>
	<node id="-207348" lat="59.2832638903" lon="10.9314055488">
		<tag k="name" v="Bjørnulds-Ødegården" />
		<tag k="place" v="farm" />
		<tag k="ssr:stedsnr" v="663984" />
	</node>
	<node id="-207347" lat="59.239927782" lon="10.9042333301">
		<tag k="alt_name" v="Skåra søndre" />
		<tag k="name" v="Søndre Skåra" />
		<tag k="place" v="farm" />
		<tag k="ssr:stedsnr" v="663836" />
	</node>
	<node id="-207346" lat="59.241280556" lon="10.9062027694">
		<tag k="name" v="Skåra" />
		<tag k="place" v="farm" />
		<tag k="ssr:stedsnr" v="663835" />
	</node>
	<node id="-207345" lat="59.2357638854" lon="10.9198833336">
		<tag k="name" v="Pettersand" />
		<tag k="place" v="suburb" />
		<tag k="ssr:stedsnr" v="663833" />
	</node>
	<node id="-207343" lat="59.2713647448" lon="10.9047471541">
		<tag k="fixme" v="consider place=hamlet" />
		<tag k="name" v="Ødegården" />
		<tag k="place" v="farm" />
		<tag k="ssr:stedsnr" v="663801" />
	</node>
	<node id="-207342" lat="59.2617777787" lon="10.8472611116">
		<tag k="name" v="Mossikrød" />
		<tag k="place" v="farm" />
		<tag k="ssr:stedsnr" v="663780" />
	</node>
	<node id="-207341" lat="59.2231944419" lon="11.0242361146">
		<tag k="name" v="Visurlien" />
		<tag k="place" v="isolated_dwelling" />
		<tag k="ssr:stedsnr" v="663750" />
	</node>
	<node id="-207340" lat="59.2206250012" lon="11.00976666">
		<tag k="name" v="Begby" />
		<tag k="place" v="farm" />
		<tag k="ssr:stedsnr" v="663745" />
	</node>
	<node id="-207339" lat="59.2796638887" lon="10.9391166748">
		<tag k="alt_name" v="Gunnerød nordre" />
		<tag k="name" v="Nordre Gunnerød" />
		<tag k="place" v="farm" />
		<tag k="ssr:stedsnr" v="663946" />
	</node>
	<node id="-207333" lat="59.2253361088" lon="10.8528083245">
		<tag k="alt_name" v="Tvete østre" />
		<tag k="name" v="Østre Tvete" />
		<tag k="place" v="farm" />
		<tag k="ssr:stedsnr" v="661842" />
	</node>
	<node id="-207332" lat="59.2176416639" lon="10.8481694402">
		<tag k="name" v="Solbrekke" />
		<tag k="place" v="farm" />
		<tag k="ssr:stedsnr" v="661836" />
	</node>
	<node id="-207323" lat="59.1394666624" lon="11.0383972209">
		<tag k="name" v="Bevø camping" />
		<tag k="ssr:stedsnr" v="661496" />
		<tag k="tourism" v="camp_site" />
	</node>
	<node id="-207322" lat="59.2151638915" lon="10.9893666635">
		<tag k="name" v="Haugsten" />
		<tag k="place" v="farm" />
		<tag k="ssr:stedsnr" v="661494" />
	</node>
	<node id="-207314" lat="59.1722916667" lon="11.0089416681">
		<tag k="alt_name" v="Havna vestre" />
		<tag k="name" v="Vestre Havna" />
		<tag k="place" v="farm" />
		<tag k="ssr:stedsnr" v="661399" />
	</node>
	<node id="-207313" lat="59.223858336" lon="10.930308337">
		<tag k="name" v="Christianslund" />
		<tag k="place" v="quarter" />
		<tag k="ssr:stedsnr" v="661360" />
	</node>
	<node id="-207311" lat="59.256011114" lon="10.8261277835">
		<tag k="name" v="Utnehaugen" />
		<tag k="place" v="farm" />
		<tag k="ssr:stedsnr" v="661120" />
	</node>
	<node id="-207310" lat="59.1976083295" lon="11.0214777787">
		<tag k="name" v="Søndre Dal" />
		<tag k="place" v="farm" />
		<tag k="ssr:stedsnr" v="660220" />
	</node>
	<node id="-207308" lat="59.2501166627" lon="10.8680944524">
		<tag k="alt_name" v="Borge nedre" />
		<tag k="name" v="Nedre Borge" />
		<tag k="place" v="farm" />
		<tag k="ssr:stedsnr" v="657357" />
	</node>
	<node id="-207307" lat="59.2634305516" lon="10.895824993">
		<tag k="name" v="Lundestad" />
		<tag k="place" v="farm" />
		<tag k="ssr:stedsnr" v="428106" />
	</node>
	<node id="-207306" lat="59.2615583306" lon="10.8023861089">
		<tag k="name" v="Nordli" />
		<tag k="place" v="farm" />
		<tag k="ssr:stedsnr" v="428102" />
	</node>
	<node id="-207302" lat="59.2912499973" lon="10.8915944394">
		<tag k="amenity" v="nursing_home" />
		<tag k="name" v="Blåkorshjemmet" />
		<tag k="ssr:stedsnr" v="420910" />
	</node>
	<node id="-207301" lat="59.299572226" lon="10.884416663">
		<tag k="alt_name" v="Ørmen søndre" />
		<tag k="name" v="Søndre Ørmen" />
		<tag k="place" v="farm" />
		<tag k="ssr:stedsnr" v="420904" />
	</node>
	<node id="-207300" lat="59.2151611094" lon="10.8839333347">
		<tag k="name" v="Oremo" />
		<tag k="place" v="farm" />
		<tag k="ssr:stedsnr" v="419229" />
	</node>
	<node id="-207297" lat="59.2565388928" lon="10.7452500009">
		<tag k="name" v="Engelsvikenga" />
		<tag k="place" v="farm" />
		<tag k="ssr:stedsnr" v="510851" />
	</node>
	<node id="-207293" lat="59.3073249994" lon="10.9544666666">
		<tag k="loc_name" v="Engset" />
		<tag k="name" v="Engseth" />
		<tag k="place" v="farm" />
		<tag k="ssr:stedsnr" v="299092" />
	</node>
	<node id="-207292" lat="59.3037527766" lon="10.9732833412">
		<tag k="fixme" v="consider place=suburb, village or hamlet" />
		<tag k="name" v="Nylende" />
		<tag k="place" v="quarter" />
		<tag k="ssr:stedsnr" v="299087" />
	</node>
	<node id="-207289" lat="59.2132583335" lon="11.0578583278">
		<tag k="alt_name" v="Grimstad nordre" />
		<tag k="name" v="Nordre Grimstad" />
		<tag k="place" v="farm" />
		<tag k="ssr:stedsnr" v="507012" />
	</node>
	<node id="-207287" lat="59.1719500003" lon="10.9457166725">
		<tag k="name" v="Alshus" />
		<tag k="place" v="farm" />
		<tag k="ssr:stedsnr" v="388159" />
	</node>
	<node id="-207286" lat="59.2230421282" lon="11.0636944204">
		<tag k="alt_name" v="Hunn nordre" />
		<tag k="name" v="Nordre Hunn" />
		<tag k="place" v="farm" />
		<tag k="ssr:stedsnr" v="386465" />
	</node>
	<node id="-207280" lat="59.2305777803" lon="11.0017277798">
		<tag k="amenity" v="sports_centre" />
		<tag k="name" v="Borgehallen" />
		<tag k="ssr:stedsnr" v="361777" />
	</node>
	<node id="-207279" lat="59.2424583358" lon="10.9323749958">
		<tag k="name" v="Brønnerødlia" />
		<tag k="place" v="isolated_dwelling" />
		<tag k="ssr:stedsnr" v="360824" />
	</node>
	<node id="-207278" lat="59.1905444451" lon="10.9124611071">
		<tag k="alt_name" v="Enhus lille" />
		<tag k="name" v="Lille Enhus" />
		<tag k="place" v="farm" />
		<tag k="ssr:stedsnr" v="360158" />
	</node>
	<node id="-207276" lat="59.2413027808" lon="10.9788277824">
		<tag k="alt_name" v="Glemmen østre" />
		<tag k="name" v="Østre Glemmen" />
		<tag k="place" v="farm" />
		<tag k="ssr:stedsnr" v="359721" />
	</node>
	<node id="-207275" lat="59.2363972216" lon="10.9818722245">
		<tag k="alt_name" v="Nøkleby øvre" />
		<tag k="name" v="Øvre Nøkleby" />
		<tag k="place" v="farm" />
		<tag k="ssr:stedsnr" v="359716" />
	</node>
	<node id="-207270" lat="59.1459722231" lon="10.9464472214">
		<tag k="name" v="Rekvin" />
		<tag k="place" v="isolated_dwelling" />
		<tag k="ssr:stedsnr" v="358816" />
	</node>
	<node id="-207268" lat="59.1741277817" lon="11.021997217">
		<tag k="name" v="Lønnlia" />
		<tag k="place" v="farm" />
		<tag k="ssr:stedsnr" v="358424" />
	</node>
	<node id="-207267" lat="59.1741777733" lon="11.013041671">
		<tag k="alt_name" v="Havna østre" />
		<tag k="name" v="Østre Havna" />
		<tag k="place" v="farm" />
		<tag k="ssr:stedsnr" v="358405" />
	</node>
	<node id="-207263" lat="59.3167777766" lon="10.9590138963">
		<tag k="fixme" v="consider place=hamlet" />
		<tag k="name" v="Nes" />
		<tag k="place" v="farm" />
		<tag k="ssr:stedsnr" v="488403" />
	</node>
	<node id="-207262" lat="59.2801000031" lon="10.9650694517">
		<tag k="name" v="Skårød" />
		<tag k="place" v="farm" />
		<tag k="ssr:stedsnr" v="488358" />
	</node>
	<node id="-207261" lat="59.2831636052" lon="11.0006796026">
		<tag k="fixme" v="consider place=hamlet" />
		<tag k="name" v="Rostad" />
		<tag k="place" v="farm" />
		<tag k="ssr:stedsnr" v="488355" />
	</node>
	<node id="-207260" lat="59.2751777774" lon="10.8989138944">
		<tag k="alt_name" v="Myra" />
		<tag k="name" v="Myren" />
		<tag k="place" v="farm" />
		<tag k="ssr:stedsnr" v="488099" />
	</node>
	<node id="-207259" lat="59.2797999959" lon="10.9237805617">
		<tag k="name" v="Nysted" />
		<tag k="place" v="farm" />
		<tag k="ssr:stedsnr" v="488098" />
	</node>
	<node id="-207258" lat="59.2735305536" lon="11.0033333394">
		<tag k="name" v="Holme" />
		<tag k="place" v="farm" />
		<tag k="ssr:stedsnr" v="488095" />
	</node>
	<node id="-207257" lat="59.2654388927" lon="10.8443888928">
		<tag k="alt_name" v="Slåtte" />
		<tag k="name" v="Slottet" />
		<tag k="place" v="farm" />
		<tag k="ssr:stedsnr" v="488089" />
	</node>
	<node id="-207250" lat="59.1779499955" lon="10.9036500072">
		<tag k="name" v="Sandbukta" />
		<tag k="place" v="isolated_dwelling" />
		<tag k="ssr:stedsnr" v="487362" />
	</node>
	<node id="-207249" lat="59.206322218" lon="11.0070166669">
		<tag k="alt_name" v="Grårud" />
		<tag k="name" v="Grårød" />
		<tag k="place" v="farm" />
		<tag k="ssr:stedsnr" v="487355" />
	</node>
	<node id="-207248" lat="59.195227777" lon="11.0232972178">
		<tag k="name" v="Skallegård" />
		<tag k="place" v="farm" />
		<tag k="ssr:stedsnr" v="487332" />
	</node>
	<node id="-207247" lat="59.2111305583" lon="10.9339861077">
		<tag k="name" v="Bjølstad" />
		<tag k="place" v="farm" />
		<tag k="ssr:stedsnr" v="487307" />
	</node>
	<node id="-207246" lat="59.2124972198" lon="10.9792972175">
		<tag k="name" v="Løkkeberg" />
		<tag k="place" v="farm" />
		<tag k="ssr:stedsnr" v="487296" />
	</node>
	<node id="-207245" lat="59.2090222245" lon="10.8185111045">
		<tag k="name" v="Skjellum" />
		<tag k="place" v="isolated_dwelling" />
		<tag k="ssr:stedsnr" v="487291" />
	</node>
	<node id="-207244" lat="59.2409000024" lon="11.0978333327">
		<tag k="name" v="Skjelin" />
		<tag k="place" v="farm" />
		<tag k="ssr:stedsnr" v="486927" />
	</node>
	<node id="-207243" lat="59.2318750009" lon="11.0961250056">
		<tag k="name" v="Kure" />
		<tag k="place" v="farm" />
		<tag k="ssr:stedsnr" v="486921" />
	</node>
	<node id="-207241" lat="59.1848722181" lon="11.0545999918">
		<tag k="name" v="Korseberg" />
		<tag k="place" v="farm" />
		<tag k="ssr:stedsnr" v="486392" />
	</node>
	<node id="-207238" lat="59.2213500024" lon="11.0129194482">
		<tag k="fixme" v="consider place=hamlet" />
		<tag k="name" v="Begby" />
		<tag k="place" v="farm" />
		<tag k="ssr:stedsnr" v="486333" />
	</node>
	<node id="-207237" lat="59.2338749984" lon="10.822900006">
		<tag k="alt_name" v="Torp;Torp søndre" />
		<tag k="name" v="Søndre Torp" />
		<tag k="place" v="farm" />
		<tag k="ssr:stedsnr" v="486283" />
	</node>
	<node id="-207236" lat="59.2088138887" lon="10.9351499984">
		<tag k="name" v="Hauertomtene" />
		<tag k="place" v="quarter" />
		<tag k="ssr:stedsnr" v="483994" />
	</node>
	<node id="-207235" lat="59.2478916659" lon="11.019419451">
		<tag k="alt_name" v="Torp nordre" />
		<tag k="name" v="Nordre Torp" />
		<tag k="place" v="farm" />
		<tag k="ssr:stedsnr" v="483899" />
	</node>
	<node id="-207234" lat="59.2513472195" lon="11.0535277819">
		<tag k="name" v="Lund" />
		<tag k="place" v="farm" />
		<tag k="ssr:stedsnr" v="483885" />
	</node>
	<node id="-207233" lat="59.2858055511" lon="11.0009500034">
		<tag k="alt_name" v="Rostad søndre" />
		<tag k="name" v="Søndre Rostad" />
		<tag k="place" v="farm" />
		<tag k="ssr:stedsnr" v="483032" />
	</node>
	<node id="-207231" lat="59.1593222242" lon="10.9252361085">
		<tag k="name" v="Femdal" />
		<tag k="place" v="farm" />
		<tag k="ssr:stedsnr" v="481843" />
	</node>
	<node id="-207228" lat="59.2540249976" lon="10.8630833339">
		<tag k="name" v="Torp" />
		<tag k="place" v="farm" />
		<tag k="ssr:stedsnr" v="481768" />
	</node>
	<node id="-207225" lat="59.2193055593" lon="11.0148583329">
		<tag k="name" v="Begby" />
		<tag k="place" v="farm" />
		<tag k="ssr:stedsnr" v="481595" />
	</node>
	<node id="-207224" lat="59.2258777734" lon="10.9456166686">
		<tag k="amenity" v="sports_centre" />
		<tag k="name" v="Stjernehallen" />
		<tag k="ssr:stedsnr" v="481578" />
	</node>
	<node id="-207223" lat="59.2000472186" lon="10.8736777844">
		<tag k="name" v="Rødsåsen" />
		<tag k="place" v="quarter" />
		<tag k="ssr:stedsnr" v="481225" />
	</node>
	<node id="-207215" lat="59.1853083302" lon="10.8364611061">
		<tag k="name" v="Askelund" />
		<tag k="place" v="farm" />
		<tag k="ssr:stedsnr" v="479680" />
	</node>
	<node id="-207213" lat="59.1694805557" lon="11.0118027793">
		<tag k="name" v="Tangen" />
		<tag k="place" v="locality" />
		<tag k="ssr:stedsnr" v="479435" />
	</node>
	<node id="-207211" lat="59.1535833344" lon="10.9172527753">
		<tag k="name" v="Eidet" />
		<tag k="place" v="farm" />
		<tag k="ssr:stedsnr" v="479400" />
	</node>
	<node id="-207209" lat="59.1687777776" lon="11.0373055636">
		<tag k="alt_name" v="Refsal øvre" />
		<tag k="name" v="Øvre Refsal" />
		<tag k="place" v="farm" />
		<tag k="ssr:stedsnr" v="479484" />
	</node>
	<node id="-207205" lat="59.2205333301" lon="10.9213944451">
		<tag k="amenity" v="nursing_home" />
		<tag k="name" v="Fjeldberg sykehjem" />
		<tag k="ssr:stedsnr" v="479377" />
	</node>
	<node id="-207204" lat="59.2005666682" lon="10.89179723">
		<tag k="name" v="Krossnes" />
		<tag k="place" v="farm" />
		<tag k="ssr:stedsnr" v="479231" />
	</node>
	<node id="-207202" lat="59.2421083345" lon="10.8176166745">
		<tag k="name" v="Haug" />
		<tag k="place" v="farm" />
		<tag k="ssr:stedsnr" v="479288" />
	</node>
	<node id="-207198" lat="59.1552777791" lon="11.0199583411">
		<tag k="name" v="Langestrand" />
		<tag k="place" v="isolated_dwelling" />
		<tag k="ssr:stedsnr" v="478100" />
	</node>
	<node id="-207194" lat="59.2229356289" lon="11.0646233954">
		<tag k="fixme" v="consider place=hamlet" />
		<tag k="name" v="Hunn" />
		<tag k="place" v="farm" />
		<tag k="ssr:stedsnr" v="305324" />
	</node>
	<node id="-207193" lat="59.2152227792" lon="11.0740865178">
		<tag k="fixme" v="multiple name tags, choose one and add the other to alt_name" />
		<tag k="name" v="Skivika;Skjærvika" />
		<tag k="old_name" v="Skiviken" />
		<tag k="place" v="village" />
		<tag k="ssr:stedsnr" v="305322" />
	</node>
	<node id="-207190" lat="59.2649138877" lon="10.9505611194">
		<tag k="alt_name" v="Bjørnerød nordre" />
		<tag k="name" v="Nordre Bjørnerød" />
		<tag k="place" v="farm" />
		<tag k="ssr:stedsnr" v="301866" />
	</node>
	<node id="-207189" lat="59.2296749971" lon="11.0048833385">
		<tag k="alt_name" v="Kjølberg nordre" />
		<tag k="name" v="Nordre Kjølberg" />
		<tag k="place" v="farm" />
		<tag k="ssr:stedsnr" v="299715" />
	</node>
	<node id="-207186" lat="59.2635305576" lon="10.9336055604">
		<tag k="alt_name" v="Veum søndre" />
		<tag k="name" v="Søndre Veum" />
		<tag k="place" v="farm" />
		<tag k="ssr:stedsnr" v="299809" />
	</node>
	<node id="-207184" lat="59.251269444" lon="10.9160722309">
		<tag k="name" v="Krabberød" />
		<tag k="place" v="farm" />
		<tag k="ssr:stedsnr" v="299802" />
	</node>
	<node id="-207173" lat="59.2456388933" lon="10.7667611036">
		<tag k="name" v="Bastevik" />
		<tag k="place" v="isolated_dwelling" />
		<tag k="ssr:stedsnr" v="267805" />
	</node>
	<node id="-207161" lat="59.2546777813" lon="11.0628444467">
		<tag k="name" v="Tofteberg" />
		<tag k="place" v="farm" />
		<tag k="ssr:stedsnr" v="246071" />
	</node>
	<node id="-207160" lat="59.258172225" lon="11.0951222187">
		<tag k="name" v="Årum" />
		<tag k="place" v="farm" />
		<tag k="ssr:stedsnr" v="245920" />
	</node>
	<node id="-207159" lat="59.2602138859" lon="11.1050222306">
		<tag k="alt_name" v="Bilet" />
		<tag k="name" v="Bilett" />
		<tag k="place" v="farm" />
		<tag k="ssr:stedsnr" v="245915" />
	</node>
	<node id="-207153" lat="59.3031055535" lon="10.9586250079">
		<tag k="name" v="Nylende" />
		<tag k="place" v="farm" />
		<tag k="ssr:stedsnr" v="245402" />
	</node>
	<node id="-207152" lat="59.2469000031" lon="10.7736500034">
		<tag k="name" v="Ytterstad" />
		<tag k="place" v="isolated_dwelling" />
		<tag k="ssr:stedsnr" v="244508" />
	</node>
	<node id="-207151" lat="59.2092388887" lon="10.7682944405">
		<tag k="fixme" v="consider natural=beach + surface=sand" />
		<tag k="leisure" v="swimming_area" />
		<tag k="name" v="Trouville bad" />
		<tag k="place" v="locality" />
		<tag k="ssr:stedsnr" v="244281" />
	</node>
	<node id="-207149" lat="59.1980861094" lon="10.8361666646">
		<tag k="name" v="Langgård" />
		<tag k="place" v="farm" />
		<tag k="ssr:stedsnr" v="244317" />
	</node>
	<node id="-207148" lat="59.1924111071" lon="10.8341999962">
		<tag k="name" v="Oksrød" />
		<tag k="place" v="farm" />
		<tag k="ssr:stedsnr" v="244314" />
	</node>
	<node id="-207147" lat="59.1944944449" lon="10.9922972243">
		<tag k="name" v="Gansrød" />
		<tag k="place" v="farm" />
		<tag k="ssr:stedsnr" v="244306" />
	</node>
	<node id="-207146" lat="59.1956500026" lon="11.0351250036">
		<tag k="name" v="Glosli" />
		<tag k="place" v="quarter" />
		<tag k="ssr:stedsnr" v="244305" />
	</node>
	<node id="-207145" lat="59.215119444" lon="11.0695416671">
		<tag k="name" v="Vispen" />
		<tag k="place" v="locality" />
		<tag k="ssr:stedsnr" v="447449" />
	</node>
	<node id="-207143" lat="59.1866055526" lon="11.0725888813">
		<tag k="alt_name" v="Holm søndre" />
		<tag k="name" v="Søndre Holm" />
		<tag k="place" v="farm" />
		<tag k="ssr:stedsnr" v="447394" />
	</node>
	<node id="-207142" lat="59.1888722221" lon="11.057850007">
		<tag k="alt_name" v="Veel nordre" />
		<tag k="name" v="Nordre Veel" />
		<tag k="place" v="farm" />
		<tag k="ssr:stedsnr" v="447390" />
	</node>
	<node id="-207138" lat="59.2412083316" lon="11.0974166596">
		<tag k="alt_name" v="Skjelin søndre" />
		<tag k="name" v="Søndre Skjelin" />
		<tag k="place" v="farm" />
		<tag k="ssr:stedsnr" v="447441" />
	</node>
	<node id="-207137" lat="59.182619449" lon="11.0754472175">
		<tag k="name" v="Kuhaugen" />
		<tag k="place" v="hamlet" />
		<tag k="ssr:stedsnr" v="447426" />
	</node>
	<node id="-207136" lat="59.2624333315" lon="11.0700611192">
		<tag k="alt_name" v="Vesten nordre" />
		<tag k="name" v="Nordre Vesten" />
		<tag k="place" v="farm" />
		<tag k="ssr:stedsnr" v="447076" />
	</node>
	<node id="-207135" lat="59.2524222233" lon="11.0751083334">
		<tag k="alt_name" v="Kviberg nordre" />
		<tag k="name" v="Nordre Kviberg" />
		<tag k="place" v="farm" />
		<tag k="ssr:stedsnr" v="447065" />
	</node>
	<node id="-207134" lat="59.2138416629" lon="11.0801027708">
		<tag k="name" v="Børjedalen" />
		<tag k="place" v="locality" />
		<tag k="ssr:stedsnr" v="447017" />
	</node>
	<node id="-207129" lat="59.2123388882" lon="10.9001027692">
		<tag k="name" v="Ålestranda" />
		<tag k="place" v="hamlet" />
		<tag k="ssr:stedsnr" v="297858" />
	</node>
	<node id="-207126" lat="59.2164194419" lon="10.8412861075">
		<tag k="name" v="Solbrekke" />
		<tag k="place" v="farm" />
		<tag k="ssr:stedsnr" v="297834" />
	</node>
	<node id="-207121" lat="59.1719111104" lon="10.9322416688">
		<tag k="name" v="Enga" />
		<tag k="place" v="farm" />
		<tag k="ssr:stedsnr" v="297645" />
	</node>
	<node id="-207119" lat="59.2095555574" lon="10.9929999972">
		<tag k="name" v="Haugsten" />
		<tag k="place" v="farm" />
		<tag k="ssr:stedsnr" v="297507" />
	</node>
	<node id="-207118" lat="59.208752779" lon="10.9879083389">
		<tag k="alt_name" v="Lilleby nordre" />
		<tag k="name" v="Nordre Lilleby" />
		<tag k="place" v="farm" />
		<tag k="ssr:stedsnr" v="297504" />
	</node>
	<node id="-207116" lat="59.1705111076" lon="11.0436388948">
		<tag k="name" v="Refsal" />
		<tag k="place" v="farm" />
		<tag k="ssr:stedsnr" v="297477" />
	</node>
	<node id="-207114" lat="59.1923305595" lon="10.9691833354">
		<tag k="name" v="Rosenlund" />
		<tag k="place" v="locality" />
		<tag k="ssr:stedsnr" v="297413" />
	</node>
	<node id="-207111" lat="59.2205027767" lon="10.941016668">
		<tag k="leisure" v="park" />
		<tag k="name" v="Brattliparken" />
		<tag k="ssr:stedsnr" v="297386" />
	</node>
	<node id="-207110" lat="59.1812805585" lon="10.9477361036">
		<tag k="name" v="Kallera" />
		<tag k="place" v="isolated_dwelling" />
		<tag k="ssr:stedsnr" v="297334" />
	</node>
	<node id="-207104" lat="59.2714777823" lon="10.8223222186">
		<tag k="alt_name" v="Forsetlund nordre" />
		<tag k="name" v="Nordre Forsetlund" />
		<tag k="place" v="farm" />
		<tag k="ssr:stedsnr" v="297177" />
	</node>
	<node id="-207103" lat="59.2079888859" lon="10.9607138917">
		<tag k="name" v="Prestelandet" />
		<tag k="place" v="quarter" />
		<tag k="ssr:stedsnr" v="297157" />
	</node>
	<node id="-207102" lat="59.290280552" lon="10.7995722137">
		<tag k="name" v="Solberg" />
		<tag k="place" v="farm" />
		<tag k="ssr:stedsnr" v="297148" />
	</node>
	<node id="-207101" lat="59.1932333331" lon="10.7919611028">
		<tag k="fixme" v="consider natural=beach + surface=sand" />
		<tag k="leisure" v="swimming_area" />
		<tag k="name" v="Merrapanna" />
		<tag k="place" v="locality" />
		<tag k="ssr:stedsnr" v="297075" />
	</node>
	<node id="-207100" lat="59.1316583334" lon="10.9399361047">
		<tag k="alt_name" v="Kubugten" />
		<tag k="name" v="Kubukt" />
		<tag k="place" v="isolated_dwelling" />
		<tag k="ssr:stedsnr" v="297032" />
	</node>
	<node id="-207096" lat="59.2690666701" lon="10.7686583326">
		<tag k="fixme" v="consider place=suburb, village or hamlet" />
		<tag k="name" v="Manstad" />
		<tag k="place" v="quarter" />
		<tag k="ssr:stedsnr" v="206160" />
	</node>
	<node id="-207095" lat="59.2499873809" lon="10.8740696318">
		<tag k="name" v="Borge" />
		<tag k="place" v="hamlet" />
		<tag k="ssr:stedsnr" v="299163" />
	</node>
	<node id="-207094" lat="59.2612111092" lon="10.8276166693">
		<tag k="alt_name" v="Forsetlund vestre" />
		<tag k="name" v="Vestre Forsetlund" />
		<tag k="place" v="farm" />
		<tag k="ssr:stedsnr" v="185109" />
	</node>
	<node id="-207093" lat="59.2794138923" lon="10.8820583285">
		<tag k="alt_name" v="Thorbjørnrød" />
		<tag k="name" v="Torbjørnrød" />
		<tag k="place" v="farm" />
		<tag k="ssr:stedsnr" v="185105" />
	</node>
	<node id="-207092" lat="59.2563361133" lon="11.07213611">
		<tag k="name" v="Veberg" />
		<tag k="place" v="farm" />
		<tag k="ssr:stedsnr" v="185071" />
	</node>
	<node id="-207090" lat="59.2511194458" lon="10.8099055539">
		<tag k="name" v="Berg" />
		<tag k="place" v="farm" />
		<tag k="ssr:stedsnr" v="185068" />
	</node>
	<node id="-207089" lat="59.2182472256" lon="10.9063888971">
		<tag k="name" v="Gressvik" />
		<tag k="place" v="village" />
		<tag k="ssr:stedsnr" v="183268" />
	</node>
	<node id="-207088" lat="59.2132222237" lon="10.9846972298">
		<tag k="name" v="Haugesten" />
		<tag k="place" v="farm" />
		<tag k="ssr:stedsnr" v="183265" />
	</node>
	<node id="-207086" lat="59.207958409" lon="10.8542469871">
		<tag k="fixme" v="consider place=hamlet" />
		<tag k="name" v="Brekke" />
		<tag k="place" v="farm" />
		<tag k="ssr:stedsnr" v="183311" />
	</node>
	<node id="-207083" lat="59.289111109" lon="10.9685555551">
		<tag k="alt_name" v="Høydal lille" />
		<tag k="name" v="Lille Høydal" />
		<tag k="place" v="locality" />
		<tag k="ssr:stedsnr" v="180023" />
	</node>
	<node id="-207081" lat="59.2588861127" lon="10.844613882">
		<tag k="name" v="Mossik" />
		<tag k="place" v="farm" />
		<tag k="ssr:stedsnr" v="178770" />
	</node>
	<node id="-207080" lat="59.2571472224" lon="10.8543777744">
		<tag k="name" v="Kolberg" />
		<tag k="place" v="farm" />
		<tag k="ssr:stedsnr" v="178765" />
	</node>
	<node id="-207079" lat="59.2251805588" lon="10.9632055612">
		<tag k="name" v="Falchåsen" />
		<tag k="place" v="suburb" />
		<tag k="ssr:stedsnr" v="178552" />
	</node>
	<node id="-207077" lat="59.2416833301" lon="10.9690472212">
		<tag k="alt_name" v="Glemmen vestre" />
		<tag k="name" v="Vestre Glemmen" />
		<tag k="place" v="farm" />
		<tag k="ssr:stedsnr" v="177752" />
	</node>
	<node id="-207076" lat="59.1872722215" lon="11.0328222224">
		<tag k="name" v="Berg" />
		<tag k="place" v="farm" />
		<tag k="ssr:stedsnr" v="177803" />
	</node>
	<node id="-207073" lat="59.2553944411" lon="10.9104972179">
		<tag k="name" v="Strand" />
		<tag k="place" v="farm" />
		<tag k="ssr:stedsnr" v="299801" />
	</node>
	<node id="-207068" lat="59.2932972252" lon="10.9963138946">
		<tag k="fixme" v="consider place=suburb, village or hamlet" />
		<tag k="name" v="Rostadneset" />
		<tag k="place" v="quarter" />
		<tag k="ssr:stedsnr" v="270340" />
	</node>
	<node id="-207067" lat="59.2371888875" lon="11.0011333295">
		<tag k="name" v="Sandem" />
		<tag k="place" v="farm" />
		<tag k="ssr:stedsnr" v="269790" />
	</node>
	<node id="-207064" lat="59.1682194415" lon="11.0870500001">
		<tag k="name" v="Brekkhaug" />
		<tag k="place" v="isolated_dwelling" />
		<tag k="ssr:stedsnr" v="265495" />
	</node>
	<node id="-207063" lat="59.1697499966" lon="11.0788472284">
		<tag k="name" v="Skjellia" />
		<tag k="place" v="farm" />
		<tag k="ssr:stedsnr" v="265466" />
	</node>
	<node id="-207060" lat="59.251783329" lon="11.0600888875">
		<tag k="alt_name" v="Tofteberg østre" />
		<tag k="name" v="Østre Tofteberg" />
		<tag k="place" v="farm" />
		<tag k="ssr:stedsnr" v="265087" />
	</node>
	<node id="-207059" lat="59.2544083347" lon="11.0937361061">
		<tag k="alt_name" v="Årum søndre" />
		<tag k="name" v="Søndre Årum" />
		<tag k="place" v="farm" />
		<tag k="ssr:stedsnr" v="265083" />
	</node>
	<node id="-207058" lat="59.2616888844" lon="11.0584750043">
		<tag k="name" v="Vesten" />
		<tag k="place" v="farm" />
		<tag k="ssr:stedsnr" v="265080" />
	</node>
	<node id="-207057" lat="59.2656138863" lon="11.0928138906">
		<tag k="name" v="Sundløkka" />
		<tag k="place" v="quarter" />
		<tag k="ssr:stedsnr" v="265077" />
	</node>
	<node id="-207056" lat="59.2575722212" lon="11.0951055516">
		<tag k="alt_name" v="Årum vestre" />
		<tag k="name" v="Vestre Årum" />
		<tag k="place" v="farm" />
		<tag k="ssr:stedsnr" v="265075" />
	</node>
	<node id="-207054" lat="59.2875249998" lon="10.9961000078">
		<tag k="name" v="Rød" />
		<tag k="place" v="farm" />
		<tag k="ssr:stedsnr" v="124343" />
	</node>
	<node id="-207053" lat="59.2936805574" lon="10.9729472196">
		<tag k="alt_name" v="Ringstad;Ringstad lille" />
		<tag k="name" v="Lille Ringstad" />
		<tag k="place" v="farm" />
		<tag k="ssr:stedsnr" v="124342" />
	</node>
	<node id="-207052" lat="59.2986774787" lon="10.9029574954">
		<tag k="fixme" v="consider place=hamlet" />
		<tag k="name" v="Høyum" />
		<tag k="place" v="farm" />
		<tag k="ssr:stedsnr" v="124340" />
	</node>
	<node id="-207051" lat="59.2731416627" lon="10.8149499948">
		<tag k="alt_name" v="Bossum;Bossum søndre" />
		<tag k="name" v="Søndre Bossum" />
		<tag k="place" v="farm" />
		<tag k="ssr:stedsnr" v="124329" />
	</node>
	<node id="-207050" lat="59.1951194447" lon="11.0041694503">
		<tag k="alt_name" v="Ulfeng" />
		<tag k="name" v="Olveng" />
		<tag k="place" v="farm" />
		<tag k="ssr:stedsnr" v="123344" />
	</node>
	<node id="-207049" lat="59.1945750015" lon="10.9674250048">
		<tag k="alt_name" v="Nøisom" />
		<tag k="name" v="Nøysom" />
		<tag k="place" v="isolated_dwelling" />
		<tag k="ssr:stedsnr" v="123340" />
	</node>
	<node id="-207048" lat="59.2060500014" lon="11.0487138822">
		<tag k="fixme" v="consider place=hamlet" />
		<tag k="name" v="Grimstad" />
		<tag k="place" v="farm" />
		<tag k="ssr:stedsnr" v="123314" />
	</node>
	<node id="-207045" lat="59.2050805542" lon="11.0474555623">
		<tag k="alt_name" v="Grimstad vestre" />
		<tag k="name" v="Vestre Grimstad" />
		<tag k="place" v="farm" />
		<tag k="ssr:stedsnr" v="117842" />
	</node>
	<node id="-207044" lat="59.2415083353" lon="10.9255027823">
		<tag k="alt_name" v="Gluppe nordre" />
		<tag k="name" v="Nordre Gluppe" />
		<tag k="place" v="farm" />
		<tag k="ssr:stedsnr" v="117841" />
	</node>
	<node id="-207042" lat="59.1883527795" lon="11.0383305534">
		<tag k="amenity" v="nursing_home" />
		<tag k="name" v="Torsnes sykehjem" />
		<tag k="ssr:stedsnr" v="117825" />
	</node>
	<node id="-207041" lat="59.2714305533" lon="10.899216675">
		<tag k="name" v="Haredalen" />
		<tag k="place" v="isolated_dwelling" />
		<tag k="ssr:stedsnr" v="117815" />
	</node>
	<node id="-207040" lat="59.1973055539" lon="11.036291674">
		<tag k="alt_name" v="Glosli vestre" />
		<tag k="name" v="Vestre Glosli" />
		<tag k="place" v="locality" />
		<tag k="ssr:stedsnr" v="117813" />
	</node>
	<node id="-207039" lat="59.2059638934" lon="10.9658">
		<tag k="name" v="Gudeberg" />
		<tag k="place" v="quarter" />
		<tag k="ssr:stedsnr" v="117803" />
	</node>
	<node id="-207038" lat="59.2889777746" lon="10.9001777761">
		<tag k="name" v="Krabberød-ødegården" />
		<tag k="place" v="farm" />
		<tag k="ssr:stedsnr" v="117904" />
	</node>
	<node id="-207037" lat="59.2145722259" lon="10.9529972266">
		<tag k="building" v="industrial" />
		<tag k="industrial" v="factory" />
		<tag k="name" v="Fredrikstad Bryggeri" />
		<tag k="ssr:stedsnr" v="116428" />
	</node>
	<node id="-207035" lat="59.2069472264" lon="10.9470444376">
		<tag k="name" v="Cicignon" />
		<tag k="place" v="suburb" />
		<tag k="ssr:stedsnr" v="115908" />
	</node>
	<node id="-207034" lat="59.1833861146" lon="11.0451777791">
		<tag k="alt_name" v="Kjelsås nordre" />
		<tag k="name" v="Nordre Kjelsås" />
		<tag k="place" v="farm" />
		<tag k="ssr:stedsnr" v="115441" />
	</node>
	<node id="-207029" lat="59.2451999997" lon="11.1251333255">
		<tag k="name" v="Vinås" />
		<tag k="place" v="farm" />
		<tag k="ssr:stedsnr" v="83478" />
	</node>
	<node id="-207028" lat="59.2200611124" lon="11.0632861068">
		<tag k="alt_name" v="Hunn søndre" />
		<tag k="name" v="Søndre Hunn" />
		<tag k="place" v="farm" />
		<tag k="ssr:stedsnr" v="83472" />
	</node>
	<node id="-207027" lat="59.2328027736" lon="11.0779222154">
		<tag k="name" v="Skomakersten" />
		<tag k="place" v="locality" />
		<tag k="ssr:stedsnr" v="83458" />
	</node>
	<node id="-207022" lat="59.2799138926" lon="10.7848527704">
		<tag k="name" v="Koret" />
		<tag k="place" v="farm" />
		<tag k="ssr:stedsnr" v="246381" />
	</node>
	<node id="-207021" lat="59.2762277789" lon="10.7378722292">
		<tag k="name" v="Rønning" />
		<tag k="place" v="farm" />
		<tag k="ssr:stedsnr" v="246376" />
	</node>
	<node id="-207020" lat="59.2627972197" lon="10.9413361164">
		<tag k="alt_name" v="Veum søndre" />
		<tag k="name" v="Søndre Veum" />
		<tag k="place" v="farm" />
		<tag k="ssr:stedsnr" v="246121" />
	</node>
	<node id="-207018" lat="59.2587194415" lon="10.9137861085">
		<tag k="alt_name" v="Ingulsrud" />
		<tag k="name" v="Ingjulsrød" />
		<tag k="place" v="farm" />
		<tag k="ssr:stedsnr" v="246075" />
	</node>
	<node id="-207008" lat="59.3149694459" lon="10.9412">
		<tag k="name" v="Hengedy" />
		<tag k="place" v="farm" />
		<tag k="ssr:stedsnr" v="245392" />
	</node>
	<node id="-207007" lat="59.2436638923" lon="11.0226416705">
		<tag k="name" v="Torp" />
		<tag k="place" v="village" />
		<tag k="ssr:stedsnr" v="244529" />
	</node>
	<node id="-207006" lat="59.2400111126" lon="10.8154027771">
		<tag k="name" v="Østli" />
		<tag k="place" v="farm" />
		<tag k="ssr:stedsnr" v="244495" />
	</node>
	<node id="-207005" lat="59.2400472194" lon="10.7399111052">
		<tag k="name" v="Smauget" />
		<tag k="place" v="farm" />
		<tag k="ssr:stedsnr" v="244491" />
	</node>
	<node id="-207004" lat="59.1976250006" lon="10.9880944483">
		<tag k="name" v="Bjerringløkka" />
		<tag k="place" v="farm" />
		<tag k="ssr:stedsnr" v="244341" />
	</node>
	<node id="-207002" lat="59.1806388575" lon="11.0441523442">
		<tag k="alt_name" v="Kjeslås" />
		<tag k="fixme" v="consider place=hamlet" />
		<tag k="name" v="Kjelsås" />
		<tag k="place" v="farm" />
		<tag k="ssr:stedsnr" v="244369" />
	</node>
	<node id="-207000" lat="59.2164722267" lon="10.8919472162">
		<tag k="fixme" v="consider place=hamlet" />
		<tag k="name" v="Åle" />
		<tag k="place" v="farm" />
		<tag k="ssr:stedsnr" v="244294" />
	</node>
	<node id="-206999" lat="59.1955416649" lon="10.8023444457">
		<tag k="name" v="Uteng" />
		<tag k="place" v="isolated_dwelling" />
		<tag k="ssr:stedsnr" v="244334" />
	</node>
	<node id="-206997" lat="59.2298861074" lon="10.6958222144">
		<tag k="name" v="Rauøy" />
		<tag k="place" v="farm" />
		<tag k="ssr:stedsnr" v="244027" />
	</node>
	<node id="-206994" lat="59.2567277787" lon="11.0380805482">
		<tag k="alt_name" v="Moum nordre" />
		<tag k="name" v="Nordre Moum" />
		<tag k="place" v="farm" />
		<tag k="ssr:stedsnr" v="240966" />
	</node>
	<node id="-206993" lat="59.2652888907" lon="10.9957805543">
		<tag k="amenity" v="nursing_home" />
		<tag k="name" v="Rolvsøy velferdssenter" />
		<tag k="ssr:stedsnr" v="240960" />
	</node>
	<node id="-206991" lat="59.2128805583" lon="10.9412333337">
		<tag k="name" v="Apenesfjellet" />
		<tag k="place" v="suburb" />
		<tag k="ssr:stedsnr" v="240350" />
	</node>
	<node id="-206989" lat="59.1562583328" lon="10.9336166632">
		<tag k="name" v="Lundeskogen" />
		<tag k="place" v="hamlet" />
		<tag k="ssr:stedsnr" v="239856" />
	</node>
	<node id="-206987" lat="59.2602305517" lon="10.9406111063">
		<tag k="name" v="Veumlia" />
		<tag k="place" v="farm" />
		<tag k="ssr:stedsnr" v="239829" />
	</node>
	<node id="-206986" lat="59.2620694457" lon="10.9121888917">
		<tag k="alt_name" v="Strand øvre" />
		<tag k="name" v="Øvre Strand" />
		<tag k="place" v="farm" />
		<tag k="ssr:stedsnr" v="239828" />
	</node>
	<node id="-206985" lat="59.2517083341" lon="10.9312861167">
		<tag k="name" v="Veum" />
		<tag k="place" v="hamlet" />
		<tag k="ssr:stedsnr" v="239824" />
	</node>
	<node id="-206984" lat="59.2600916657" lon="10.8558166614">
		<tag k="alt_name" v="Kolberg søndre" />
		<tag k="name" v="Søndre Kolberg" />
		<tag k="place" v="farm" />
		<tag k="ssr:stedsnr" v="239816" />
	</node>
	<node id="-206983" lat="59.2867583368" lon="10.9398027788">
		<tag k="alt_name" v="Åsen nordre;Spetalåsen" />
		<tag k="name" v="Nordre Åsen" />
		<tag k="place" v="farm" />
		<tag k="ssr:stedsnr" v="238953" />
	</node>
	<node id="-206981" lat="59.1939222198" lon="11.027405551">
		<tag k="name" v="Lund" />
		<tag k="place" v="farm" />
		<tag k="ssr:stedsnr" v="238821" />
	</node>
	<node id="-206976" lat="59.1464944446" lon="11.0507916591">
		<tag k="alt_name" v="Humlekjær sydvestre" />
		<tag k="name" v="Sydvestre Humlekjær" />
		<tag k="place" v="farm" />
		<tag k="ssr:stedsnr" v="238664" />
	</node>
	<node id="-206975" lat="59.2486527764" lon="10.8389749919">
		<tag k="alt_name" v="Lund store" />
		<tag k="name" v="Store Lund" />
		<tag k="place" v="farm" />
		<tag k="ssr:stedsnr" v="238233" />
	</node>
	<node id="-206974" lat="59.2498888917" lon="10.8348833276">
		<tag k="alt_name" v="Utne østre" />
		<tag k="name" v="Østre Utne" />
		<tag k="place" v="farm" />
		<tag k="ssr:stedsnr" v="238231" />
	</node>
	<node id="-206973" lat="59.2489361121" lon="10.8418999914">
		<tag k="alt_name" v="Lund lille" />
		<tag k="name" v="Lille Lund" />
		<tag k="place" v="isolated_dwelling" />
		<tag k="ssr:stedsnr" v="238224" />
	</node>
	<node id="-206972" lat="59.1989777774" lon="10.8831638897">
		<tag k="alt_name" v="Okseviken østre" />
		<tag k="name" v="Østre Okseviken" />
		<tag k="place" v="farm" />
		<tag k="ssr:stedsnr" v="238204" />
	</node>
	<node id="-206971" lat="59.3047249964" lon="10.9696527824">
		<tag k="name" v="Ringstad" />
		<tag k="place" v="farm" />
		<tag k="ssr:stedsnr" v="238094" />
	</node>
	<node id="-206970" lat="59.2140703717" lon="10.7929151803">
		<tag k="fixme" v="consider place=hamlet" />
		<tag k="name" v="Vikene" />
		<tag k="place" v="village" />
		<tag k="ssr:stedsnr" v="237977" />
	</node>
	<node id="-206969" lat="59.1691694488" lon="11.028913882">
		<tag k="alt_name" v="Roppestad østre" />
		<tag k="name" v="Østre Roppestad" />
		<tag k="place" v="farm" />
		<tag k="ssr:stedsnr" v="237513" />
	</node>
	<node id="-206968" lat="59.1717222181" lon="11.0321972262">
		<tag k="alt_name" v="Roppestad østre" />
		<tag k="name" v="Østre Roppestad" />
		<tag k="place" v="farm" />
		<tag k="ssr:stedsnr" v="237512" />
	</node>
	<node id="-206967" lat="59.1970055585" lon="10.8196666654">
		<tag k="name" v="Enghaugen" />
		<tag k="place" v="farm" />
		<tag k="ssr:stedsnr" v="55052" />
	</node>
	<node id="-206965" lat="59.191575004" lon="10.9752305645">
		<tag k="name" v="Knollen" />
		<tag k="place" v="isolated_dwelling" />
		<tag k="ssr:stedsnr" v="237426" />
	</node>
	<node id="-206962" lat="59.2396777776" lon="10.8162416658">
		<tag k="name" v="Dalen" />
		<tag k="place" v="isolated_dwelling" />
		<tag k="ssr:stedsnr" v="54313" />
	</node>
	<node id="-206961" lat="59.2053277819" lon="10.9621555521">
		<tag k="amenity" v="school" />
		<tag k="name" v="Gudeberg barne- og ungdomsskole" />
		<tag k="ssr:stedsnr" v="54120" />
	</node>
	<node id="-206960" lat="59.2527277741" lon="10.8259527828">
		<tag k="name" v="Hauge" />
		<tag k="place" v="farm" />
		<tag k="ssr:stedsnr" v="54119" />
	</node>
	<node id="-206957" lat="59.2270722224" lon="10.8527611089">
		<tag k="alt_name" v="Tvete vestre" />
		<tag k="name" v="Vestre Tvete" />
		<tag k="place" v="farm" />
		<tag k="ssr:stedsnr" v="236833" />
	</node>
	<node id="-206955" lat="59.1418444431" lon="10.9556361129">
		<tag k="name" v="Revbakke" />
		<tag k="place" v="isolated_dwelling" />
		<tag k="ssr:stedsnr" v="236817" />
	</node>
	<node id="-206951" lat="59.1851111095" lon="10.9397972199">
		<tag k="name" v="Barkedalen" />
		<tag k="place" v="hamlet" />
		<tag k="ssr:stedsnr" v="236632" />
	</node>
	<node id="-206947" lat="59.2684555557" lon="10.7693472278">
		<tag k="amenity" v="school" />
		<tag k="name" v="Manstad skole" />
		<tag k="ssr:stedsnr" v="236245" />
	</node>
	<node id="-206942" lat="59.2845555592" lon="10.7795555595">
		<tag k="name" v="Kallerød" />
		<tag k="place" v="farm" />
		<tag k="ssr:stedsnr" v="227115" />
	</node>
	<node id="-206940" lat="59.2322777738" lon="11.0751138838">
		<tag k="name" v="Pengeberget" />
		<tag k="place" v="locality" />
		<tag k="ssr:stedsnr" v="22448" />
	</node>
	<node id="-206938" lat="59.1952305536" lon="11.0715472228">
		<tag k="name" v="Vestenga" />
		<tag k="place" v="locality" />
		<tag k="ssr:stedsnr" v="22428" />
	</node>
	<node id="-206937" lat="59.1863000017" lon="11.0692527804">
		<tag k="alt_name" v="Holm nedre" />
		<tag k="name" v="Nedre Holm" />
		<tag k="place" v="farm" />
		<tag k="ssr:stedsnr" v="22422" />
	</node>
	<node id="-206935" lat="59.2143361083" lon="11.0599000067">
		<tag k="name" v="Furuheim" />
		<tag k="place" v="isolated_dwelling" />
		<tag k="ssr:stedsnr" v="22015" />
	</node>
	<node id="-206933" lat="59.2547500013" lon="11.1116722281">
		<tag k="name" v="Kroken" />
		<tag k="place" v="farm" />
		<tag k="ssr:stedsnr" v="2907" />
	</node>
</osm>
