<?xml version="1.0" encoding="UTF-8"?>
<osm generator="osmapis" version="0.6">
	<node id="-10112" lat="58.8533245869" lon="5.7415774381">
		<tag k="alt_name" v="Sandnes" />
		<tag k="name" v="Sandnes kommune" />
		<tag k="ssr:date" v="2019-12-27" />
		<tag k="ssr:gruppe" v="administrativeIndelinger" />
		<tag k="ssr:hovedgruppe" v="offentligAdministrasjon" />
		<tag k="ssr:stedsnr" v="144894" />
		<tag k="ssr:type" v="kommune" />
	</node>
	<node id="-10431" lat="58.8126500032" lon="5.74872777038">
		<tag k="name" v="Kreklingstien" />
		<tag k="ssr:date" v="2019-12-27" />
		<tag k="ssr:gruppe" v="veg" />
		<tag k="ssr:hovedgruppe" v="infrastruktur" />
		<tag k="ssr:stedsnr" v="358547" />
		<tag k="ssr:type" v="adressenavn" />
	</node>
	<node id="-9662" lat="58.8271654179" lon="5.73459477215">
		<tag k="name" v="Faksavolltunet" />
		<tag k="ssr:date" v="2019-12-27" />
		<tag k="ssr:gruppe" v="veg" />
		<tag k="ssr:hovedgruppe" v="infrastruktur" />
		<tag k="ssr:stedsnr" v="1031429" />
		<tag k="ssr:type" v="adressenavn" />
	</node>
	<node id="-8333" lat="59.0422722244" lon="6.58196389327">
		<tag k="alt_name" v="Geitanes" />
		<tag k="name" v="Geitanes lykt" />
		<tag k="old_name" v="Geitaneset" />
		<tag k="ssr:date" v="2019-12-27" />
		<tag k="ssr:gruppe" v="navigasjon" />
		<tag k="ssr:hovedgruppe" v="infrastruktur" />
		<tag k="ssr:stedsnr" v="84121" />
		<tag k="ssr:type" v="fyrlykt" />
	</node>
	<node id="-9018" lat="58.9647333358" lon="5.7311888923">
		<tag k="alt_name" v="Rogaland" />
		<tag k="name" v="Rogaland fylke" />
		<tag k="ssr:date" v="2019-12-27" />
		<tag k="ssr:gruppe" v="administrativeIndelinger" />
		<tag k="ssr:hovedgruppe" v="offentligAdministrasjon" />
		<tag k="ssr:stedsnr" v="511115" />
		<tag k="ssr:type" v="fylke" />
	</node>
	<node id="-9663" lat="58.9119997038" lon="5.96502115326">
		<tag k="name" v="Foreknuten" />
		<tag k="ssr:date" v="2019-12-27" />
		<tag k="ssr:gruppe" v="veg" />
		<tag k="ssr:hovedgruppe" v="infrastruktur" />
		<tag k="ssr:stedsnr" v="1031617" />
		<tag k="ssr:type" v="adressenavn" />
	</node>
	<node id="-9965" lat="58.8131638915" lon="5.73705555362">
		<tag k="name" v="Tranebærstien" />
		<tag k="ssr:date" v="2019-12-27" />
		<tag k="ssr:gruppe" v="veg" />
		<tag k="ssr:hovedgruppe" v="infrastruktur" />
		<tag k="ssr:stedsnr" v="116536" />
		<tag k="ssr:type" v="adressenavn" />
	</node>
	<node id="-8533" lat="58.9707999973" lon="6.19108611657">
		<tag k="alt_name" v="Kvassnos" />
		<tag k="name" v="Kvassnos lykt" />
		<tag k="ssr:date" v="2019-12-27" />
		<tag k="ssr:gruppe" v="navigasjon" />
		<tag k="ssr:hovedgruppe" v="infrastruktur" />
		<tag k="ssr:stedsnr" v="244812" />
		<tag k="ssr:type" v="fyrlykt" />
	</node>
	<node id="-9587" lat="59.0169638919" lon="6.3405083353">
		<tag k="alt_name" v="Lysefjorden" />
		<tag k="name" v="Lysefjorden lykt" />
		<tag k="old_name" v="Lysefjord" />
		<tag k="ssr:date" v="2019-12-27" />
		<tag k="ssr:gruppe" v="navigasjon" />
		<tag k="ssr:hovedgruppe" v="infrastruktur" />
		<tag k="ssr:stedsnr" v="873105" />
		<tag k="ssr:type" v="fyrlykt" />
	</node>
	<node id="-8434" lat="58.8297222234" lon="5.72762777762">
		<tag k="name" v="Jonashagen" />
		<tag k="ssr:date" v="2019-12-27" />
		<tag k="ssr:gruppe" v="veg" />
		<tag k="ssr:hovedgruppe" v="infrastruktur" />
		<tag k="ssr:stedsnr" v="282678" />
		<tag k="ssr:type" v="adressenavn" />
	</node>
	<node id="-10352" lat="58.935036113" lon="6.10520000408">
		<tag k="alt_name" v="Bergsholmen" />
		<tag k="name" v="Bergsholmen lykt" />
		<tag k="ssr:date" v="2019-12-27" />
		<tag k="ssr:gruppe" v="navigasjon" />
		<tag k="ssr:hovedgruppe" v="infrastruktur" />
		<tag k="ssr:stedsnr" v="304752" />
		<tag k="ssr:type" v="fyrlykt" />
	</node>
	<node id="-11407" lat="58.9103339784" lon="5.96553564247">
		<tag k="name" v="Ørnasteinen" />
		<tag k="ssr:date" v="2019-12-27" />
		<tag k="ssr:gruppe" v="veg" />
		<tag k="ssr:hovedgruppe" v="infrastruktur" />
		<tag k="ssr:stedsnr" v="1038968" />
		<tag k="ssr:type" v="adressenavn" />
	</node>
	<node id="-11406" lat="58.8385200317" lon="5.77787159346">
		<tag k="name" v="Vedafjellveien" />
		<tag k="ssr:date" v="2019-12-27" />
		<tag k="ssr:gruppe" v="veg" />
		<tag k="ssr:hovedgruppe" v="infrastruktur" />
		<tag k="ssr:stedsnr" v="1037109" />
		<tag k="ssr:type" v="adressenavn" />
	</node>
	<node id="-11405" lat="58.8385125623" lon="5.778940273">
		<tag k="name" v="Langaberget" />
		<tag k="ssr:date" v="2019-12-27" />
		<tag k="ssr:gruppe" v="veg" />
		<tag k="ssr:hovedgruppe" v="infrastruktur" />
		<tag k="ssr:stedsnr" v="1035241" />
		<tag k="ssr:type" v="adressenavn" />
	</node>
	<node id="-11404" lat="58.8316595044" lon="5.76672010681">
		<tag k="name" v="Kodleberget" />
		<tag k="ssr:date" v="2019-12-27" />
		<tag k="ssr:gruppe" v="veg" />
		<tag k="ssr:hovedgruppe" v="infrastruktur" />
		<tag k="ssr:stedsnr" v="1034796" />
		<tag k="ssr:type" v="adressenavn" />
	</node>
	<node id="-11403" lat="58.8511004622" lon="5.76439137466">
		<tag k="name" v="Engrappveien" />
		<tag k="ssr:date" v="2019-12-27" />
		<tag k="ssr:gruppe" v="veg" />
		<tag k="ssr:hovedgruppe" v="infrastruktur" />
		<tag k="ssr:stedsnr" v="1030978" />
		<tag k="ssr:type" v="adressenavn" />
	</node>
	<node id="-9664" lat="58.8365767278" lon="5.75487666933">
		<tag k="name" v="Svebastadveien" />
		<tag k="ssr:date" v="2019-12-27" />
		<tag k="ssr:gruppe" v="veg" />
		<tag k="ssr:hovedgruppe" v="infrastruktur" />
		<tag k="ssr:stedsnr" v="1072391" />
		<tag k="ssr:type" v="adressenavn" />
	</node>
	<node id="-10758" lat="58.9330055536" lon="5.9929249931">
		<tag k="alt_name" v="Aspøy" />
		<tag k="name" v="Aspøy lykt" />
		<tag k="old_name" v="Aspøyna" />
		<tag k="ssr:date" v="2019-12-27" />
		<tag k="ssr:gruppe" v="navigasjon" />
		<tag k="ssr:hovedgruppe" v="infrastruktur" />
		<tag k="ssr:stedsnr" v="547735" />
		<tag k="ssr:type" v="fyrlykt" />
	</node>
	<node id="-9227" lat="58.9717333352" lon="5.87990554672">
		<tag k="name" v="Tingholmen" />
		<tag k="ssr:date" v="2019-12-27" />
		<tag k="ssr:gruppe" v="navigasjon" />
		<tag k="ssr:hovedgruppe" v="infrastruktur" />
		<tag k="ssr:stedsnr" v="729787" />
		<tag k="ssr:type" v="fyrlykt" />
	</node>
	<node id="-9666" lat="58.8476419486" lon="5.72505248877">
		<tag k="name" v="Nygårdshøgda" />
		<tag k="ssr:date" v="2019-12-27" />
		<tag k="ssr:gruppe" v="veg" />
		<tag k="ssr:hovedgruppe" v="infrastruktur" />
		<tag k="ssr:stedsnr" v="1072389" />
		<tag k="ssr:type" v="adressenavn" />
	</node>
	<node id="-9665" lat="58.8667545154" lon="5.74051053768">
		<tag k="name" v="Flørliveien" />
		<tag k="ssr:date" v="2019-12-27" />
		<tag k="ssr:gruppe" v="veg" />
		<tag k="ssr:hovedgruppe" v="infrastruktur" />
		<tag k="ssr:stedsnr" v="1072388" />
		<tag k="ssr:type" v="adressenavn" />
	</node>
</osm>
