<?xml version="1.0" encoding="UTF-8"?>
<osm generator="osmapis" version="0.6">
	<node id="-3567" lat="59.0463611156" lon="5.38650000442">
		<tag k="name" v="Makrelleia" />
		<tag k="place" v="locality" />
		<tag k="ssr:stedsnr" v="527594" />
	</node>
	<node id="-3829" lat="59.0693694408" lon="5.42940000324">
		<tag k="bridge" v="yes" />
		<tag k="layer" v="1" />
		<tag k="name" v="Vinterhavn" />
		<tag k="ssr:stedsnr" v="593469" />
	</node>
	<node id="-3705" lat="59.0575505516" lon="5.41754750496">
		<tag k="amenity" v="ferry_terminal" />
		<tag k="name" v="Kvitsøy ferjekai" />
		<tag k="ssr:stedsnr" v="108510" />
	</node>
	<node id="-3641" lat="59.0585500043" lon="5.39756388914">
		<tag k="bridge" v="yes" />
		<tag k="layer" v="1" />
		<tag k="name" v="Grønningen" />
		<tag k="ssr:stedsnr" v="775470" />
	</node>
	<node id="-3737" lat="59.0640222184" lon="5.43868334214">
		<tag k="man_made" v="tower" />
		<tag k="name" v="Kvitsøy kringkaster" />
		<tag k="ssr:stedsnr" v="161944" />
		<tag k="tower:type" v="communications" />
	</node>
</osm>
