<?xml version="1.0" encoding="UTF-8"?>
<osm generator="osmapis" version="0.6">
	<node id="-3919" lat="59.0586116603" lon="5.47170664264">
		<tag k="alt_name" v="Trættholmsundet" />
		<tag k="name" v="Trettholmsundet" />
		<tag k="natural" v="strait" />
		<tag k="ssr:stedsnr" v="972958" />
	</node>
	<node id="-3918" lat="59.0816188084" lon="5.48965888589">
		<tag k="name" v="Eimesundet" />
		<tag k="natural" v="strait" />
		<tag k="ssr:stedsnr" v="972957" />
	</node>
	<node id="-3917" lat="59.0470000025" lon="5.40267499373">
		<tag k="fixme" v="consider seamark:type=rock or natural=shoal" />
		<tag k="name" v="Grasskjer" />
		<tag k="place" v="islet" />
		<tag k="ssr:stedsnr" v="965922" />
	</node>
	<node id="-3916" lat="59.0480607696" lon="5.39864025894">
		<tag k="name" v="Nordre Torholmen" />
		<tag k="place" v="islet" />
		<tag k="ssr:stedsnr" v="965921" />
	</node>
	<node id="-3915" lat="59.0470638901" lon="5.39949443784">
		<tag k="name" v="Søre Torholmen" />
		<tag k="place" v="islet" />
		<tag k="ssr:stedsnr" v="965918" />
	</node>
	<node id="-3914" lat="59.0472805561" lon="5.41314999777">
		<tag k="name" v="Terneskjera" />
		<tag k="place" v="islet" />
		<tag k="ssr:stedsnr" v="965898" />
	</node>
	<node id="-3913" lat="59.043605558" lon="5.42005556235">
		<tag k="name" v="Ole-Bertelane" />
		<tag k="natural" v="shoal" />
		<tag k="place" v="locality" />
		<tag k="ssr:stedsnr" v="965893" />
	</node>
	<node id="-3912" lat="59.0513666636" lon="5.40324722487">
		<tag k="name" v="Konta" />
		<tag k="place" v="locality" />
		<tag k="seamark:type" v="rock" />
		<tag k="ssr:stedsnr" v="965888" />
	</node>
	<node id="-3911" lat="59.0479416692" lon="5.40064167368">
		<tag k="name" v="Austre Torholmen" />
		<tag k="place" v="islet" />
		<tag k="ssr:stedsnr" v="965886" />
	</node>
	<node id="-3910" lat="59.0785083346" lon="5.42815277677">
		<tag k="name" v="Hellesøyflua" />
		<tag k="natural" v="shoal" />
		<tag k="place" v="locality" />
		<tag k="ssr:stedsnr" v="965281" />
	</node>
	<node id="-3909" lat="59.0751083314" lon="5.42089443846">
		<tag k="name" v="Sauholmen" />
		<tag k="place" v="islet" />
		<tag k="ssr:stedsnr" v="964974" />
	</node>
	<node id="-3907" lat="59.0549722209" lon="5.41011388472">
		<tag k="name" v="Litla Ådnøya" />
		<tag k="place" v="islet" />
		<tag k="ssr:stedsnr" v="952594" />
	</node>
	<node id="-3906" lat="59.0541194454" lon="5.4036750065">
		<tag k="fixme" v="consider seamark:type=rock or natural=shoal" />
		<tag k="name" v="Bjørnskjeret" />
		<tag k="place" v="islet" />
		<tag k="ssr:stedsnr" v="952592" />
	</node>
	<node id="-3905" lat="59.0492527759" lon="5.39704999719">
		<tag k="fixme" v="consider seamark:type=rock or natural=shoal" />
		<tag k="name" v="Sutleskjer" />
		<tag k="place" v="islet" />
		<tag k="ssr:stedsnr" v="952572" />
	</node>
	<node id="-3904" lat="59.0061805587" lon="5.38723332628">
		<tag k="name" v="Higlasanden" />
		<tag k="natural" v="beach" />
		<tag k="place" v="locality" />
		<tag k="ssr:stedsnr" v="951439" />
	</node>
	<node id="-3903" lat="59.0553361098" lon="5.42298610283">
		<tag k="fixme" v="consider seamark:type=rock or natural=shoal" />
		<tag k="name" v="Klauaskjera" />
		<tag k="place" v="islet" />
		<tag k="ssr:stedsnr" v="951434" />
	</node>
	<node id="-3901" lat="59.0631472261" lon="5.42259444596">
		<tag k="fixme" v="consider seamark:type=rock or natural=shoal" />
		<tag k="name" v="Terneskjer" />
		<tag k="place" v="islet" />
		<tag k="ssr:stedsnr" v="950830" />
	</node>
	<node id="-3900" lat="59.0672027817" lon="5.4214194485">
		<tag k="fixme" v="consider seamark:type=rock or natural=shoal" />
		<tag k="name" v="Torneskjer" />
		<tag k="place" v="islet" />
		<tag k="ssr:stedsnr" v="950824" />
	</node>
	<node id="-3899" lat="59.0651083362" lon="5.42231943782">
		<tag k="fixme" v="consider seamark:type=rock or natural=shoal" />
		<tag k="name" v="Lyngskjera" />
		<tag k="place" v="islet" />
		<tag k="ssr:stedsnr" v="950822" />
	</node>
	<node id="-3898" lat="59.0574388867" lon="5.41289165945">
		<tag k="fixme" v="consider seamark:type=rock or natural=shoal" />
		<tag k="name" v="Nåleputa" />
		<tag k="place" v="islet" />
		<tag k="ssr:stedsnr" v="950820" />
	</node>
	<node id="-3897" lat="59.0589472186" lon="5.40500278104">
		<tag k="fixme" v="consider seamark:type=rock or natural=shoal" />
		<tag k="name" v="Engelen" />
		<tag k="place" v="islet" />
		<tag k="ssr:stedsnr" v="950814" />
	</node>
	<node id="-3895" lat="59.0682083376" lon="5.45958054874">
		<tag k="name" v="Gamlegrunnen" />
		<tag k="natural" v="shoal" />
		<tag k="place" v="locality" />
		<tag k="ssr:stedsnr" v="950670" />
	</node>
	<node id="-3893" lat="59.0780027792" lon="5.48718888056">
		<tag k="name" v="Nordra Ternøybukta" />
		<tag k="natural" v="bay" />
		<tag k="ssr:stedsnr" v="950611" />
	</node>
	<node id="-3892" lat="58.9842861143" lon="5.40798611277">
		<tag k="name" v="Håboflua" />
		<tag k="place" v="locality" />
		<tag k="seamark:type" v="rock" />
		<tag k="ssr:stedsnr" v="875576" />
	</node>
	<node id="-3889" lat="59.0084111147" lon="5.38729444848">
		<tag k="name" v="Higgelen" />
		<tag k="place" v="island" />
		<tag k="ssr:stedsnr" v="851414" />
	</node>
	<node id="-3888" lat="59.0501833379" lon="5.40663333863">
		<tag k="name" v="Helleskjergrunnen" />
		<tag k="natural" v="shoal" />
		<tag k="place" v="locality" />
		<tag k="ssr:stedsnr" v="844893" />
	</node>
	<node id="-3887" lat="59.0539388893" lon="5.45284722595">
		<tag k="name" v="Søra Bussholmflua" />
		<tag k="natural" v="shoal" />
		<tag k="place" v="locality" />
		<tag k="ssr:stedsnr" v="844664" />
	</node>
	<node id="-3886" lat="59.0131805516" lon="5.38329166524">
		<tag k="name" v="Begholmflæet" />
		<tag k="natural" v="bay" />
		<tag k="ssr:stedsnr" v="844624" />
	</node>
	<node id="-3885" lat="59.0343361085" lon="5.39437499464">
		<tag k="name" v="Grottasund" />
		<tag k="natural" v="strait" />
		<tag k="ssr:stedsnr" v="844614" />
	</node>
	<node id="-3884" lat="59.059877782" lon="5.39319443604">
		<tag k="name" v="Kvernhusvika" />
		<tag k="natural" v="bay" />
		<tag k="ssr:stedsnr" v="844438" />
	</node>
	<node id="-3883" lat="59.0772333309" lon="5.42098611042">
		<tag k="name" v="Knarrholmen" />
		<tag k="place" v="islet" />
		<tag k="ssr:stedsnr" v="843984" />
	</node>
	<node id="-3882" lat="59.048225004" lon="5.38890556131">
		<tag k="name" v="Hysesanden" />
		<tag k="place" v="locality" />
		<tag k="ssr:stedsnr" v="831536" />
	</node>
	<node id="-3881" lat="59.01452222" lon="5.42081667426">
		<tag k="name" v="Raudholmbukta" />
		<tag k="natural" v="bay" />
		<tag k="ssr:stedsnr" v="830498" />
	</node>
	<node id="-3880" lat="59.0727805578" lon="5.43166389557">
		<tag k="name" v="Aslakstø" />
		<tag k="natural" v="bay" />
		<tag k="ssr:stedsnr" v="829969" />
	</node>
	<node id="-3879" lat="59.0580444446" lon="5.40776666137">
		<tag k="fixme" v="consider seamark:type=rock or natural=shoal" />
		<tag k="name" v="Litlingen" />
		<tag k="place" v="islet" />
		<tag k="ssr:stedsnr" v="829836" />
	</node>
	<node id="-3878" lat="59.0597833369" lon="5.42973333169">
		<tag k="fixme" v="consider seamark:type=rock or natural=shoal" />
		<tag k="name" v="Vindnes" />
		<tag k="place" v="islet" />
		<tag k="ssr:stedsnr" v="829783" />
	</node>
	<node id="-3877" lat="59.07242778" lon="5.47162777723">
		<tag k="name" v="Raunaneset" />
		<tag k="natural" v="cape" />
		<tag k="ssr:stedsnr" v="829691" />
	</node>
	<node id="-3876" lat="59.0718527747" lon="5.40426388627">
		<tag k="fixme" v="consider seamark:type=rock or natural=shoal" />
		<tag k="name" v="Nettskjer" />
		<tag k="place" v="islet" />
		<tag k="ssr:stedsnr" v="829685" />
	</node>
	<node id="-3875" lat="59.0731194425" lon="5.40102222371">
		<tag k="fixme" v="consider seamark:type=rock or natural=shoal" />
		<tag k="name" v="Tønneskjer" />
		<tag k="place" v="islet" />
		<tag k="ssr:stedsnr" v="829683" />
	</node>
	<node id="-3874" lat="59.0723166662" lon="5.48206110965">
		<tag k="name" v="Sandøyosen" />
		<tag k="natural" v="strait" />
		<tag k="ssr:stedsnr" v="829657" />
	</node>
	<node id="-3873" lat="59.0869888921" lon="5.48378888472">
		<tag k="name" v="Skotasundet" />
		<tag k="natural" v="strait" />
		<tag k="ssr:stedsnr" v="829643" />
	</node>
	<node id="-3872" lat="59.0752638855" lon="5.41871111849">
		<tag k="name" v="Aurvik" />
		<tag k="natural" v="bay" />
		<tag k="ssr:stedsnr" v="829390" />
	</node>
	<node id="-3871" lat="59.0708166652" lon="5.40288888092">
		<tag k="name" v="Hålandsvika" />
		<tag k="natural" v="bay" />
		<tag k="ssr:stedsnr" v="790491" />
	</node>
	<node id="-3870" lat="59.0428805545" lon="5.40912499584">
		<tag k="name" v="Nordre Stokkagrunnane" />
		<tag k="natural" v="shoal" />
		<tag k="place" v="locality" />
		<tag k="ssr:stedsnr" v="783902" />
	</node>
	<node id="-3869" lat="59.0551833332" lon="5.46027499941">
		<tag k="name" v="Oksholmsloane" />
		<tag k="natural" v="shoal" />
		<tag k="place" v="locality" />
		<tag k="ssr:stedsnr" v="783645" />
	</node>
	<node id="-3868" lat="59.0090083346" lon="5.37904165873">
		<tag k="fixme" v="consider seamark:type=rock or natural=shoal" />
		<tag k="name" v="Glepsa" />
		<tag k="place" v="islet" />
		<tag k="ssr:stedsnr" v="783607" />
	</node>
	<node id="-3867" lat="59.0117805562" lon="5.39068888975">
		<tag k="name" v="Higlasundet" />
		<tag k="natural" v="strait" />
		<tag k="ssr:stedsnr" v="783606" />
	</node>
	<node id="-3866" lat="59.0593083307" lon="5.3937777703">
		<tag k="name" v="Langåkervika" />
		<tag k="natural" v="bay" />
		<tag k="ssr:stedsnr" v="783440" />
	</node>
	<node id="-3865" lat="59.0555416707" lon="5.40441667263">
		<tag k="fixme" v="consider seamark:type=rock or natural=shoal" />
		<tag k="name" v="Midtra Rossøyskjera" />
		<tag k="place" v="islet" />
		<tag k="ssr:stedsnr" v="770590" />
	</node>
	<node id="-3864" lat="59.0543833374" lon="5.39762777807">
		<tag k="fixme" v="consider seamark:type=rock or natural=shoal" />
		<tag k="name" v="Saggaskjer" />
		<tag k="place" v="islet" />
		<tag k="ssr:stedsnr" v="770586" />
	</node>
	<node id="-3863" lat="59.0614638931" lon="5.43589166136">
		<tag k="name" v="Krågøyskjergrunnen" />
		<tag k="natural" v="shoal" />
		<tag k="place" v="locality" />
		<tag k="ssr:stedsnr" v="768960" />
	</node>
	<node id="-3862" lat="59.0580416628" lon="5.41092500103">
		<tag k="name" v="Binnholmen" />
		<tag k="place" v="islet" />
		<tag k="ssr:stedsnr" v="768852" />
	</node>
	<node id="-3861" lat="59.078480559" lon="5.48565555976">
		<tag k="fixme" v="consider seamark:type=rock or natural=shoal" />
		<tag k="name" v="Ternøykeipen" />
		<tag k="place" v="islet" />
		<tag k="ssr:stedsnr" v="768646" />
	</node>
	<node id="-3860" lat="59.078361113" lon="5.48053332859">
		<tag k="name" v="Skorpeflua" />
		<tag k="natural" v="shoal" />
		<tag k="place" v="locality" />
		<tag k="ssr:stedsnr" v="768635" />
	</node>
	<node id="-3859" lat="59.0740194471" lon="5.42830555189">
		<tag k="name" v="Skjermen" />
		<tag k="natural" v="bay" />
		<tag k="ssr:stedsnr" v="768366" />
	</node>
	<node id="-3858" lat="59.0523749974" lon="5.41244166648">
		<tag k="name" v="Vestre Langholmen" />
		<tag k="place" v="islet" />
		<tag k="ssr:stedsnr" v="767410" />
	</node>
	<node id="-3857" lat="59.0522527746" lon="5.38092499239">
		<tag k="name" v="Saltskjerflua" />
		<tag k="natural" v="shoal" />
		<tag k="place" v="locality" />
		<tag k="ssr:stedsnr" v="767397" />
	</node>
	<node id="-3855" lat="59.0529499961" lon="5.40978333597">
		<tag k="fixme" v="consider seamark:type=rock or natural=shoal" />
		<tag k="name" v="Søra Gulaskjer" />
		<tag k="place" v="islet" />
		<tag k="ssr:stedsnr" v="648635" />
	</node>
	<node id="-3854" lat="59.0559583373" lon="5.41419722584">
		<tag k="fixme" v="consider seamark:type=rock or natural=shoal" />
		<tag k="name" v="Nordra Fånøyskjeret" />
		<tag k="place" v="islet" />
		<tag k="ssr:stedsnr" v="648630" />
	</node>
	<node id="-3853" lat="59.0558777782" lon="5.38736666763">
		<tag k="name" v="Flatholmskota" />
		<tag k="natural" v="cape" />
		<tag k="ssr:stedsnr" v="648625" />
	</node>
	<node id="-3852" lat="59.0528944439" lon="5.38836111853">
		<tag k="fixme" v="consider seamark:type=rock or natural=shoal" />
		<tag k="name" v="Sjogbiten" />
		<tag k="place" v="islet" />
		<tag k="ssr:stedsnr" v="648598" />
	</node>
	<node id="-3851" lat="59.0612527773" lon="5.43968332827">
		<tag k="name" v="Krågøyvika" />
		<tag k="natural" v="bay" />
		<tag k="ssr:stedsnr" v="646956" />
	</node>
	<node id="-3850" lat="59.0608333336" lon="5.42377777786">
		<tag k="name" v="Brandholmane" />
		<tag k="place" v="islet" />
		<tag k="ssr:stedsnr" v="646947" />
	</node>
	<node id="-3849" lat="59.0567694452" lon="5.43056943605">
		<tag k="fixme" v="consider seamark:type=rock or natural=shoal" />
		<tag k="name" v="Skarvaskjer" />
		<tag k="place" v="islet" />
		<tag k="ssr:stedsnr" v="646826" />
	</node>
	<node id="-3848" lat="59.0645194408" lon="5.4270583362">
		<tag k="name" v="Leirvik" />
		<tag k="natural" v="bay" />
		<tag k="ssr:stedsnr" v="646823" />
	</node>
	<node id="-3847" lat="59.0582805574" lon="5.41173888439">
		<tag k="name" v="Hønsavika" />
		<tag k="natural" v="bay" />
		<tag k="ssr:stedsnr" v="646820" />
	</node>
	<node id="-3846" lat="59.0601805522" lon="5.40637499805">
		<tag k="fixme" v="consider seamark:type=rock or natural=shoal" />
		<tag k="name" v="Skjeret" />
		<tag k="place" v="islet" />
		<tag k="ssr:stedsnr" v="646816" />
	</node>
	<node id="-3844" lat="59.0501472192" lon="5.39049999879">
		<tag k="name" v="Harholmen" />
		<tag k="place" v="islet" />
		<tag k="ssr:stedsnr" v="646401" />
	</node>
	<node id="-3843" lat="59.0093833324" lon="5.3731305511">
		<tag k="name" v="Snorkla" />
		<tag k="place" v="locality" />
		<tag k="seamark:type" v="rock" />
		<tag k="ssr:stedsnr" v="631541" />
	</node>
	<node id="-3842" lat="59.0024666682" lon="5.36688889714">
		<tag k="name" v="Kobbafluene" />
		<tag k="place" v="locality" />
		<tag k="seamark:type" v="rock" />
		<tag k="ssr:stedsnr" v="631586" />
	</node>
	<node id="-3841" lat="59.0501416661" lon="5.4002361081">
		<tag k="name" v="Risøya" />
		<tag k="place" v="island" />
		<tag k="ssr:stedsnr" v="631580" />
	</node>
	<node id="-3840" lat="59.0212805538" lon="5.37009722018">
		<tag k="name" v="Vestre Gjerdholmane" />
		<tag k="place" v="islet" />
		<tag k="ssr:stedsnr" v="608519" />
	</node>
	<node id="-3839" lat="59.0072833303" lon="5.37741111393">
		<tag k="name" v="Higlane" />
		<tag k="place" v="island" />
		<tag k="ssr:stedsnr" v="608463" />
	</node>
	<node id="-3838" lat="59.0706777745" lon="5.41739444717">
		<tag k="name" v="Aurvika" />
		<tag k="natural" v="bay" />
		<tag k="ssr:stedsnr" v="607489" />
	</node>
	<node id="-3837" lat="59.0779305587" lon="5.43358889515">
		<tag k="name" v="Skarstein" />
		<tag k="place" v="islet" />
		<tag k="ssr:stedsnr" v="607488" />
	</node>
	<node id="-3836" lat="59.0771138849" lon="5.42449444588">
		<tag k="fixme" v="consider seamark:type=rock or natural=shoal" />
		<tag k="name" v="Leiaskjer" />
		<tag k="place" v="islet" />
		<tag k="ssr:stedsnr" v="607485" />
	</node>
	<node id="-3835" lat="59.0678194466" lon="5.40403888723">
		<tag k="fixme" v="consider seamark:type=rock or natural=shoal" />
		<tag k="name" v="Indra Kobbskjer" />
		<tag k="place" v="islet" />
		<tag k="ssr:stedsnr" v="604494" />
	</node>
	<node id="-3834" lat="59.0676666695" lon="5.44181388744">
		<tag k="fixme" v="consider seamark:type=rock or natural=shoal" />
		<tag k="name" v="Nordra Krågøyskjer" />
		<tag k="place" v="islet" />
		<tag k="ssr:stedsnr" v="602618" />
	</node>
	<node id="-3833" lat="59.0695250016" lon="5.43812777087">
		<tag k="name" v="Ronavika" />
		<tag k="natural" v="bay" />
		<tag k="ssr:stedsnr" v="602616" />
	</node>
	<node id="-3832" lat="59.0564694468" lon="5.43794722968">
		<tag k="name" v="Paradisbukta" />
		<tag k="natural" v="bay" />
		<tag k="ssr:stedsnr" v="601859" />
	</node>
	<node id="-3831" lat="59.0535805526" lon="5.4617666745">
		<tag k="name" v="Oksholmsundet" />
		<tag k="natural" v="strait" />
		<tag k="ssr:stedsnr" v="601639" />
	</node>
	<node id="-3830" lat="59.0581111123" lon="5.39688889512">
		<tag k="alt_name" v="Ystabøsundet" />
		<tag k="name" v="Ydstebøsundet" />
		<tag k="natural" v="strait" />
		<tag k="ssr:stedsnr" v="601441" />
	</node>
	<node id="-3828" lat="59.0577027791" lon="5.42008888717">
		<tag k="fixme" v="consider seamark:type=rock or natural=shoal" />
		<tag k="name" v="Kobbasloane" />
		<tag k="place" v="islet" />
		<tag k="ssr:stedsnr" v="586842" />
	</node>
	<node id="-3827" lat="59.0572666651" lon="5.40985554698">
		<tag k="fixme" v="consider seamark:type=rock or natural=shoal" />
		<tag k="name" v="Sysselskjer" />
		<tag k="place" v="islet" />
		<tag k="ssr:stedsnr" v="586836" />
	</node>
	<node id="-3825" lat="58.9907416654" lon="5.36551388703">
		<tag k="name" v="Vestre Råsa" />
		<tag k="place" v="locality" />
		<tag k="seamark:type" v="rock" />
		<tag k="ssr:stedsnr" v="572621" />
	</node>
	<node id="-3824" lat="59.016291669" lon="5.36788610225">
		<tag k="fixme" v="consider seamark:type=rock or natural=shoal" />
		<tag k="name" v="Smørfadet" />
		<tag k="place" v="islet" />
		<tag k="ssr:stedsnr" v="547533" />
	</node>
	<node id="-3823" lat="59.033236111" lon="5.42309166162">
		<tag k="name" v="Midtra Hogga" />
		<tag k="place" v="islet" />
		<tag k="ssr:stedsnr" v="547528" />
	</node>
	<node id="-3822" lat="59.0295000754" lon="5.3952317298">
		<tag k="name" v="Sparholmtåa" />
		<tag k="place" v="islet" />
		<tag k="ssr:stedsnr" v="547526" />
	</node>
	<node id="-3820" lat="59.0496000018" lon="5.4116000028">
		<tag k="name" v="Ugløya" />
		<tag k="place" v="islet" />
		<tag k="ssr:stedsnr" v="547513" />
	</node>
	<node id="-3819" lat="59.0110999959" lon="5.37767222076">
		<tag k="name" v="Kvitholmen" />
		<tag k="place" v="islet" />
		<tag k="ssr:stedsnr" v="547483" />
	</node>
	<node id="-3817" lat="59.0681388885" lon="5.40096943786">
		<tag k="name" v="Løssihola" />
		<tag k="natural" v="bay" />
		<tag k="ssr:stedsnr" v="544484" />
	</node>
	<node id="-3816" lat="59.0455972217" lon="5.40231666832">
		<tag k="fixme" v="consider seamark:type=rock or natural=shoal" />
		<tag k="name" v="Søra Lyngskjer" />
		<tag k="place" v="islet" />
		<tag k="ssr:stedsnr" v="540902" />
	</node>
	<node id="-3815" lat="59.0500916666" lon="5.46467222026">
		<tag k="name" v="Stølane" />
		<tag k="natural" v="shoal" />
		<tag k="place" v="locality" />
		<tag k="ssr:stedsnr" v="540641" />
	</node>
	<node id="-3814" lat="59.0345972213" lon="5.41375556131">
		<tag k="name" v="Midtgrunnen" />
		<tag k="natural" v="shoal" />
		<tag k="place" v="locality" />
		<tag k="ssr:stedsnr" v="540624" />
	</node>
	<node id="-3813" lat="59.0762916634" lon="5.4275805553">
		<tag k="fixme" v="consider seamark:type=rock or natural=shoal" />
		<tag k="name" v="Harangskjer" />
		<tag k="place" v="islet" />
		<tag k="ssr:stedsnr" v="540259" />
	</node>
	<node id="-3812" lat="59.0556500005" lon="5.42520555258">
		<tag k="name" v="Klaua" />
		<tag k="natural" v="cape" />
		<tag k="ssr:stedsnr" v="539885" />
	</node>
	<node id="-3811" lat="59.0750472214" lon="5.39690832931">
		<tag k="name" v="Kalvanes" />
		<tag k="natural" v="cape" />
		<tag k="ssr:stedsnr" v="539985" />
	</node>
	<node id="-3810" lat="59.068113887" lon="5.42151667251">
		<tag k="alt_name" v="Kjørkjesundet" />
		<tag k="name" v="Kyrkjesundet" />
		<tag k="natural" v="strait" />
		<tag k="ssr:stedsnr" v="539964" />
	</node>
	<node id="-3809" lat="59.0109166668" lon="5.40461666011">
		<tag k="name" v="Hugaskodsundet" />
		<tag k="natural" v="strait" />
		<tag k="ssr:stedsnr" v="526513" />
	</node>
	<node id="-3808" lat="59.0623999996" lon="5.43628333483">
		<tag k="fixme" v="consider seamark:type=rock or natural=shoal" />
		<tag k="name" v="Krågøyskjeret" />
		<tag k="place" v="islet" />
		<tag k="ssr:stedsnr" v="525944" />
	</node>
	<node id="-3807" lat="59.0714027811" lon="5.47555556051">
		<tag k="name" v="Hyttevågen" />
		<tag k="natural" v="bay" />
		<tag k="ssr:stedsnr" v="525672" />
	</node>
	<node id="-3806" lat="59.0687194445" lon="5.40759444873">
		<tag k="name" v="Sandvågen" />
		<tag k="natural" v="bay" />
		<tag k="ssr:stedsnr" v="525663" />
	</node>
	<node id="-3805" lat="59.0707416641" lon="5.56304722812">
		<tag k="bay" v="fjord" />
		<tag k="name" v="Kvitsøyfjorden" />
		<tag k="natural" v="bay" />
		<tag k="ssr:stedsnr" v="427782" />
	</node>
	<node id="-3804" lat="59.0151694486" lon="5.37752221612">
		<tag k="name" v="Begholmen" />
		<tag k="place" v="islet" />
		<tag k="ssr:stedsnr" v="426474" />
	</node>
	<node id="-3803" lat="58.9680888869" lon="5.41416666308">
		<tag k="bay" v="fjord" />
		<tag k="name" v="Håsteinsfjorden" />
		<tag k="natural" v="bay" />
		<tag k="ssr:stedsnr" v="425114" />
	</node>
	<node id="-3801" lat="59.0451500014" lon="5.40632222063">
		<tag k="name" v="Buøyflæet" />
		<tag k="natural" v="bay" />
		<tag k="ssr:stedsnr" v="419899" />
	</node>
	<node id="-3800" lat="59.0452222235" lon="5.41735833078">
		<tag k="name" v="Svartabeistet" />
		<tag k="place" v="islet" />
		<tag k="ssr:stedsnr" v="419881" />
	</node>
	<node id="-3799" lat="59.0508666709" lon="5.39982776874">
		<tag k="name" v="Nordra Risøysundet" />
		<tag k="natural" v="strait" />
		<tag k="ssr:stedsnr" v="419875" />
	</node>
	<node id="-3798" lat="59.0499416652" lon="5.42648055431">
		<tag k="name" v="Kanelesgrunnane" />
		<tag k="natural" v="shoal" />
		<tag k="place" v="locality" />
		<tag k="ssr:stedsnr" v="419869" />
	</node>
	<node id="-3797" lat="59.0548500006" lon="5.43788889418">
		<tag k="name" v="Hestholmvågane" />
		<tag k="natural" v="bay" />
		<tag k="ssr:stedsnr" v="419864" />
	</node>
	<node id="-3796" lat="59.05167222" lon="5.42083889445">
		<tag k="fixme" v="consider seamark:type=rock or natural=shoal" />
		<tag k="name" v="Skaskjera" />
		<tag k="place" v="islet" />
		<tag k="ssr:stedsnr" v="419860" />
	</node>
	<node id="-3795" lat="59.0355944463" lon="5.39985833134">
		<tag k="name" v="Nordre Sparholmvågen" />
		<tag k="natural" v="bay" />
		<tag k="ssr:stedsnr" v="419601" />
	</node>
	<node id="-3794" lat="59.0781388851" lon="5.4143972165">
		<tag k="name" v="Nordholmgrunnen" />
		<tag k="natural" v="shoal" />
		<tag k="place" v="locality" />
		<tag k="ssr:stedsnr" v="419262" />
	</node>
	<node id="-3793" lat="59.0179472188" lon="5.40947777267">
		<tag k="name" v="Nordre Longe" />
		<tag k="natural" v="shoal" />
		<tag k="place" v="locality" />
		<tag k="ssr:stedsnr" v="405541" />
	</node>
	<node id="-3792" lat="59.0180944468" lon="5.41807221779">
		<tag k="name" v="Turre Raudholmgrunnene" />
		<tag k="natural" v="shoal" />
		<tag k="place" v="locality" />
		<tag k="ssr:stedsnr" v="405534" />
	</node>
	<node id="-3791" lat="59.0224388861" lon="5.41911944776">
		<tag k="name" v="Nordre Raudholmgrunnen" />
		<tag k="natural" v="shoal" />
		<tag k="place" v="locality" />
		<tag k="ssr:stedsnr" v="405533" />
	</node>
	<node id="-3790" lat="59.058650001" lon="5.41505000505">
		<tag k="name" v="Sandrenna" />
		<tag k="natural" v="bay" />
		<tag k="ssr:stedsnr" v="404822" />
	</node>
	<node id="-3789" lat="59.0849472231" lon="5.47980554781">
		<tag k="name" v="Keipflua" />
		<tag k="natural" v="shoal" />
		<tag k="place" v="locality" />
		<tag k="ssr:stedsnr" v="404650" />
	</node>
	<node id="-3788" lat="59.0642472195" lon="5.46428056415">
		<tag k="name" v="Sandholmtarane" />
		<tag k="natural" v="shoal" />
		<tag k="place" v="locality" />
		<tag k="ssr:stedsnr" v="404678" />
	</node>
	<node id="-3787" lat="59.0510277746" lon="5.38142222865">
		<tag k="name" v="Svortingsloen" />
		<tag k="natural" v="shoal" />
		<tag k="place" v="locality" />
		<tag k="ssr:stedsnr" v="403384" />
	</node>
	<node id="-3786" lat="59.0509805572" lon="5.37750000017">
		<tag k="name" v="Nordra Svortingflua" />
		<tag k="natural" v="shoal" />
		<tag k="place" v="locality" />
		<tag k="ssr:stedsnr" v="403373" />
	</node>
	<node id="-3785" lat="59.076216671" lon="5.48220555683">
		<tag k="name" v="Skorpe" />
		<tag k="place" v="islet" />
		<tag k="ssr:stedsnr" v="365875" />
	</node>
	<node id="-3784" lat="59.059549998" lon="5.43239444191">
		<tag k="name" v="Fle" />
		<tag k="natural" v="strait" />
		<tag k="ssr:stedsnr" v="365505" />
	</node>
	<node id="-3783" lat="59.0659277819" lon="5.39030833515">
		<tag k="name" v="Klavanesholmane" />
		<tag k="place" v="islet" />
		<tag k="ssr:stedsnr" v="365500" />
	</node>
	<node id="-3782" lat="59.0489805554" lon="5.39446111138">
		<tag k="name" v="Nordre Skodholmen" />
		<tag k="place" v="islet" />
		<tag k="ssr:stedsnr" v="365493" />
	</node>
	<node id="-3781" lat="59.0658222183" lon="5.4247583276">
		<tag k="name" v="Langøy" />
		<tag k="place" v="island" />
		<tag k="ssr:stedsnr" v="365489" />
	</node>
	<node id="-3780" lat="59.0093833338" lon="5.42026944306">
		<tag k="name" v="Søra Raudholmskadet" />
		<tag k="place" v="locality" />
		<tag k="seamark:type" v="rock" />
		<tag k="ssr:stedsnr" v="365463" />
	</node>
	<node id="-3779" lat="59.0557792495" lon="5.41918205297">
		<tag k="name" v="Duøyklubben" />
		<tag k="place" v="islet" />
		<tag k="ssr:stedsnr" v="358886" />
	</node>
	<node id="-3778" lat="59.0481972261" lon="5.41704721517">
		<tag k="name" v="Kvitabeistet" />
		<tag k="place" v="islet" />
		<tag k="ssr:stedsnr" v="358884" />
	</node>
	<node id="-3777" lat="59.0128805599" lon="5.37736389125">
		<tag k="fixme" v="consider seamark:type=rock or natural=shoal" />
		<tag k="name" v="Blåmannen" />
		<tag k="place" v="islet" />
		<tag k="ssr:stedsnr" v="358621" />
	</node>
	<node id="-3776" lat="59.0212138869" lon="5.3751083295">
		<tag k="fixme" v="consider seamark:type=rock or natural=shoal" />
		<tag k="name" v="Gjerdholmsloen" />
		<tag k="place" v="islet" />
		<tag k="ssr:stedsnr" v="358618" />
	</node>
	<node id="-3775" lat="59.0262861106" lon="5.37907222864">
		<tag k="name" v="Midflua" />
		<tag k="natural" v="shoal" />
		<tag k="place" v="locality" />
		<tag k="ssr:stedsnr" v="358614" />
	</node>
	<node id="-3774" lat="59.0297083348" lon="5.38535555581">
		<tag k="name" v="Sjoalandsfluene" />
		<tag k="natural" v="shoal" />
		<tag k="place" v="locality" />
		<tag k="ssr:stedsnr" v="358612" />
	</node>
	<node id="-3773" lat="59.0293222212" lon="5.39673055762">
		<tag k="name" v="Sugga" />
		<tag k="place" v="locality" />
		<tag k="seamark:type" v="rock" />
		<tag k="ssr:stedsnr" v="358611" />
	</node>
	<node id="-3772" lat="59.0638249987" lon="5.39030278641">
		<tag k="name" v="Klavanessundet" />
		<tag k="natural" v="strait" />
		<tag k="ssr:stedsnr" v="358428" />
	</node>
	<node id="-3771" lat="59.0152250014" lon="5.41086110994">
		<tag k="name" v="Hålandsgrunnen" />
		<tag k="natural" v="shoal" />
		<tag k="place" v="locality" />
		<tag k="ssr:stedsnr" v="344535" />
	</node>
	<node id="-3770" lat="59.021216671" lon="5.43577222369">
		<tag k="name" v="Leiaboskadet" />
		<tag k="natural" v="shoal" />
		<tag k="place" v="locality" />
		<tag k="ssr:stedsnr" v="344532" />
	</node>
	<node id="-3769" lat="59.0249499997" lon="5.42574444646">
		<tag k="name" v="Seiagrunnen" />
		<tag k="natural" v="shoal" />
		<tag k="place" v="locality" />
		<tag k="ssr:stedsnr" v="344530" />
	</node>
	<node id="-3768" lat="59.0570194473" lon="5.42926943969">
		<tag k="name" v="Skarvaskjergrunnen" />
		<tag k="place" v="locality" />
		<tag k="seamark:type" v="rock" />
		<tag k="ssr:stedsnr" v="343875" />
	</node>
	<node id="-3767" lat="59.0588972227" lon="5.40771388278">
		<tag k="name" v="Neset" />
		<tag k="natural" v="cape" />
		<tag k="ssr:stedsnr" v="343866" />
	</node>
	<node id="-3766" lat="59.0615555584" lon="5.40213054885">
		<tag k="name" v="Hålandsstranden" />
		<tag k="natural" v="beach" />
		<tag k="place" v="locality" />
		<tag k="ssr:stedsnr" v="343864" />
	</node>
	<node id="-3764" lat="59.0714055568" lon="5.46975832656">
		<tag k="name" v="Søra Raunabukta" />
		<tag k="natural" v="bay" />
		<tag k="ssr:stedsnr" v="343727" />
	</node>
	<node id="-3763" lat="59.0716333293" lon="5.40996110294">
		<tag k="name" v="Hesthagneset" />
		<tag k="natural" v="cape" />
		<tag k="ssr:stedsnr" v="343716" />
	</node>
	<node id="-3762" lat="59.074102777" lon="5.39920833247">
		<tag k="fixme" v="consider seamark:type=rock or natural=shoal" />
		<tag k="name" v="Kobbskjer" />
		<tag k="place" v="islet" />
		<tag k="ssr:stedsnr" v="343715" />
	</node>
	<node id="-3761" lat="59.0786555576" lon="5.47517778543">
		<tag k="name" v="Bekaren" />
		<tag k="place" v="locality" />
		<tag k="seamark:type" v="rock" />
		<tag k="ssr:stedsnr" v="343668" />
	</node>
	<node id="-3760" lat="59.052841667" lon="5.40005833837">
		<tag k="name" v="Bladøya" />
		<tag k="place" v="islet" />
		<tag k="ssr:stedsnr" v="343392" />
	</node>
	<node id="-3759" lat="59.0602027786" lon="5.38776667119">
		<tag k="alt_name" v="Revingsundet" />
		<tag k="name" v="Revingssundet" />
		<tag k="natural" v="strait" />
		<tag k="ssr:stedsnr" v="343378" />
	</node>
	<node id="-3758" lat="59.0451416661" lon="5.37986110589">
		<tag k="name" v="Kalvskinnbåen" />
		<tag k="natural" v="shoal" />
		<tag k="place" v="locality" />
		<tag k="ssr:stedsnr" v="343372" />
	</node>
	<node id="-3757" lat="59.0729055521" lon="5.4248055496">
		<tag k="name" v="Sildaberget" />
		<tag k="natural" v="cape" />
		<tag k="ssr:stedsnr" v="343365" />
	</node>
	<node id="-3756" lat="58.9899916629" lon="5.37081667333">
		<tag k="name" v="Austre Råsa" />
		<tag k="place" v="locality" />
		<tag k="seamark:type" v="rock" />
		<tag k="ssr:stedsnr" v="329578" />
	</node>
	<node id="-3754" lat="59.0359785699" lon="5.4092392098">
		<tag k="fixme" v="consider seamark:type=rock or natural=shoal" />
		<tag k="name" v="Stabben" />
		<tag k="place" v="islet" />
		<tag k="ssr:stedsnr" v="305523" />
	</node>
	<node id="-3753" lat="59.0309388924" lon="5.42580556152">
		<tag k="name" v="Søra Hogga" />
		<tag k="place" v="islet" />
		<tag k="ssr:stedsnr" v="305522" />
	</node>
	<node id="-3752" lat="59.0507444465" lon="5.41559721883">
		<tag k="name" v="Langholmen" />
		<tag k="place" v="islet" />
		<tag k="ssr:stedsnr" v="305506" />
	</node>
	<node id="-3751" lat="59.0804138907" lon="5.50669721788">
		<tag k="name" v="Terneboane" />
		<tag k="natural" v="shoal" />
		<tag k="place" v="locality" />
		<tag k="ssr:stedsnr" v="304872" />
	</node>
	<node id="-3749" lat="59.069394443" lon="5.40114999636">
		<tag k="name" v="Flatholmgrunnen" />
		<tag k="natural" v="shoal" />
		<tag k="place" v="locality" />
		<tag k="ssr:stedsnr" v="301491" />
	</node>
	<node id="-3748" lat="58.9971472213" lon="5.41796944656">
		<tag k="name" v="Larsboen" />
		<tag k="place" v="locality" />
		<tag k="seamark:type" v="rock" />
		<tag k="ssr:stedsnr" v="208585" />
	</node>
	<node id="-3747" lat="59.0050888859" lon="5.38898611765">
		<tag k="name" v="Higlagrunnen" />
		<tag k="place" v="locality" />
		<tag k="seamark:type" v="rock" />
		<tag k="ssr:stedsnr" v="207567" />
	</node>
	<node id="-3746" lat="59.0651805561" lon="5.47204165855">
		<tag k="name" v="Lyngholmen" />
		<tag k="place" v="islet" />
		<tag k="ssr:stedsnr" v="184799" />
	</node>
	<node id="-3745" lat="59.0405277795" lon="5.40663332925">
		<tag k="alt_name" v="Hestskjeret, s" />
		<tag k="fixme" v="consider seamark:type=rock or natural=shoal" />
		<tag k="name" v="Søra Hestaskjeret" />
		<tag k="place" v="islet" />
		<tag k="ssr:stedsnr" v="183453" />
	</node>
	<node id="-3744" lat="59.0412277768" lon="5.39719443613">
		<tag k="alt_name" v="Grunnungskjer, nordre" />
		<tag k="fixme" v="consider seamark:type=rock or natural=shoal" />
		<tag k="name" v="Nordra Grunnungskjer" />
		<tag k="place" v="islet" />
		<tag k="ssr:stedsnr" v="183450" />
	</node>
	<node id="-3743" lat="59.0564222232" lon="5.42422222619">
		<tag k="alt_name" v="Klauavågane" />
		<tag k="name" v="Klauvvågane" />
		<tag k="natural" v="bay" />
		<tag k="ssr:stedsnr" v="183423" />
	</node>
	<node id="-3742" lat="59.0524722206" lon="5.45804166893">
		<tag k="name" v="Bussholmvika" />
		<tag k="natural" v="bay" />
		<tag k="ssr:stedsnr" v="176622" />
	</node>
	<node id="-3741" lat="59.0342027796" lon="5.41838334124">
		<tag k="name" v="Hoggafluene" />
		<tag k="natural" v="shoal" />
		<tag k="place" v="locality" />
		<tag k="ssr:stedsnr" v="176600" />
	</node>
	<node id="-3740" lat="59.0323027797" lon="5.39692222813">
		<tag k="name" v="Søre Sparholmvågen" />
		<tag k="natural" v="bay" />
		<tag k="ssr:stedsnr" v="176577" />
	</node>
	<node id="-3739" lat="59.0739305574" lon="5.39397223037">
		<tag k="name" v="Øyarvikpynten" />
		<tag k="natural" v="cape" />
		<tag k="ssr:stedsnr" v="176401" />
	</node>
	<node id="-3735" lat="59.0723583374" lon="5.42999722979">
		<tag k="name" v="Vadvika" />
		<tag k="natural" v="bay" />
		<tag k="ssr:stedsnr" v="161958" />
	</node>
	<node id="-3734" lat="59.0712138931" lon="5.43484721621">
		<tag k="name" v="Bratthammar" />
		<tag k="natural" v="cape" />
		<tag k="ssr:stedsnr" v="161956" />
	</node>
	<node id="-3733" lat="59.0734361142" lon="5.47332222202">
		<tag k="name" v="Kobbavågen" />
		<tag k="natural" v="bay" />
		<tag k="ssr:stedsnr" v="161650" />
	</node>
	<node id="-3732" lat="59.072700004" lon="5.47072500055">
		<tag k="name" v="Nordra Raunabukta" />
		<tag k="natural" v="bay" />
		<tag k="ssr:stedsnr" v="161649" />
	</node>
	<node id="-3731" lat="59.0728111111" lon="5.39765000569">
		<tag k="name" v="Ramsen" />
		<tag k="natural" v="cape" />
		<tag k="ssr:stedsnr" v="161648" />
	</node>
	<node id="-3730" lat="59.0628916697" lon="5.47356666348">
		<tag k="fixme" v="consider seamark:type=rock or natural=shoal" />
		<tag k="name" v="Prestsloen" />
		<tag k="place" v="islet" />
		<tag k="ssr:stedsnr" v="161642" />
	</node>
	<node id="-3729" lat="59.0745388924" lon="5.48948055658">
		<tag k="name" v="Søraustra Ternøybukta" />
		<tag k="natural" v="bay" />
		<tag k="ssr:stedsnr" v="161623" />
	</node>
	<node id="-3726" lat="59.0689083375" lon="5.48344444432">
		<tag k="fixme" v="consider seamark:type=rock or natural=shoal" />
		<tag k="name" v="Fjæraskjer" />
		<tag k="place" v="islet" />
		<tag k="ssr:stedsnr" v="122854" />
	</node>
	<node id="-3725" lat="59.0719555529" lon="5.48814167369">
		<tag k="alt_name" v="Søra Grasskjer" />
		<tag k="fixme" v="consider seamark:type=rock or natural=shoal" />
		<tag k="name" v="Grasskjer" />
		<tag k="place" v="islet" />
		<tag k="ssr:stedsnr" v="122852" />
	</node>
	<node id="-3724" lat="59.0798583364" lon="5.48253055132">
		<tag k="alt_name" v="Skorpeskjera" />
		<tag k="fixme" v="consider seamark:type=rock or natural=shoal" />
		<tag k="name" v="Eimeskjera" />
		<tag k="place" v="islet" />
		<tag k="ssr:stedsnr" v="122842" />
	</node>
	<node id="-3723" lat="59.0408055569" lon="5.44895556399">
		<tag k="name" v="Gjerdholmen" />
		<tag k="place" v="islet" />
		<tag k="ssr:stedsnr" v="122481" />
	</node>
	<node id="-3722" lat="59.0423923711" lon="5.40305279118">
		<tag k="name" v="Austra Buøya" />
		<tag k="place" v="island" />
		<tag k="ssr:stedsnr" v="122476" />
	</node>
	<node id="-3721" lat="59.0704749974" lon="5.38993610479">
		<tag k="name" v="Nyggjet" />
		<tag k="place" v="islet" />
		<tag k="ssr:stedsnr" v="122463" />
	</node>
	<node id="-3720" lat="59.0481222215" lon="5.42150833044">
		<tag k="name" v="Fluarholmen" />
		<tag k="place" v="islet" />
		<tag k="ssr:stedsnr" v="122461" />
	</node>
	<node id="-3719" lat="59.0477527737" lon="5.38228888683">
		<tag k="alt_name" v="Svortingen, store" />
		<tag k="name" v="Store Svortingen" />
		<tag k="place" v="islet" />
		<tag k="ssr:stedsnr" v="122456" />
	</node>
	<node id="-3718" lat="59.0701138908" lon="5.40055277535">
		<tag k="name" v="Flatholmen" />
		<tag k="place" v="islet" />
		<tag k="ssr:stedsnr" v="119533" />
	</node>
	<node id="-3717" lat="59.0455277769" lon="5.43363611345">
		<tag k="name" v="Kåregrunnane" />
		<tag k="natural" v="shoal" />
		<tag k="place" v="locality" />
		<tag k="ssr:stedsnr" v="116987" />
	</node>
	<node id="-3716" lat="59.0478333376" lon="5.42668055562">
		<tag k="name" v="Fluarholmgrunnen" />
		<tag k="natural" v="shoal" />
		<tag k="place" v="locality" />
		<tag k="ssr:stedsnr" v="116984" />
	</node>
	<node id="-3715" lat="59.0423805566" lon="5.40504166162">
		<tag k="name" v="Hestaskjervika" />
		<tag k="natural" v="bay" />
		<tag k="ssr:stedsnr" v="116890" />
	</node>
	<node id="-3714" lat="59.0521083303" lon="5.40542222393">
		<tag k="fixme" v="consider seamark:type=rock or natural=shoal" />
		<tag k="name" v="Ådnøyskjeret" />
		<tag k="place" v="islet" />
		<tag k="ssr:stedsnr" v="116869" />
	</node>
	<node id="-3713" lat="59.0531777752" lon="5.43108056051">
		<tag k="name" v="Vardholmskaget" />
		<tag k="natural" v="shoal" />
		<tag k="place" v="locality" />
		<tag k="ssr:stedsnr" v="116863" />
	</node>
	<node id="-3712" lat="59.0606472246" lon="5.38529444594">
		<tag k="name" v="Revingsnakken" />
		<tag k="natural" v="cape" />
		<tag k="ssr:stedsnr" v="116397" />
	</node>
	<node id="-3711" lat="59.0576333305" lon="5.39039444616">
		<tag k="name" v="Gåsaskjer" />
		<tag k="natural" v="strait" />
		<tag k="ssr:stedsnr" v="116455" />
	</node>
	<node id="-3710" lat="59.0581999978" lon="5.38878055058">
		<tag k="alt_name" v="Flatholmen" />
		<tag k="name" v="Fladholmen" />
		<tag k="place" v="islet" />
		<tag k="ssr:stedsnr" v="114986" />
	</node>
	<node id="-3709" lat="59.0630472223" lon="5.3885166667">
		<tag k="alt_name" v="Søre Kalvanesholmen" />
		<tag k="name" v="Søre Klavanesholmen" />
		<tag k="place" v="islet" />
		<tag k="ssr:stedsnr" v="114985" />
	</node>
	<node id="-3708" lat="59.0676000017" lon="5.42794167176">
		<tag k="name" v="Leiasundet" />
		<tag k="natural" v="strait" />
		<tag k="ssr:stedsnr" v="114978" />
	</node>
	<node id="-3707" lat="59.0645333296" lon="5.43573055481">
		<tag k="name" v="Krågøyvågen" />
		<tag k="natural" v="bay" />
		<tag k="ssr:stedsnr" v="114970" />
	</node>
	<node id="-3704" lat="59.038322222" lon="5.40389721379">
		<tag k="fixme" v="consider seamark:type=rock or natural=shoal" />
		<tag k="name" v="Sparholmskjeret" />
		<tag k="place" v="islet" />
		<tag k="ssr:stedsnr" v="103621" />
	</node>
	<node id="-3703" lat="59.053380554" lon="5.41108056377">
		<tag k="fixme" v="consider seamark:type=rock or natural=shoal" />
		<tag k="name" v="Nordra Gulaskjer" />
		<tag k="place" v="islet" />
		<tag k="ssr:stedsnr" v="103615" />
	</node>
	<node id="-3702" lat="59.0545222231" lon="5.40260277974">
		<tag k="fixme" v="consider seamark:type=rock or natural=shoal" />
		<tag k="name" v="Søra Rossøyskjera" />
		<tag k="place" v="islet" />
		<tag k="ssr:stedsnr" v="103614" />
	</node>
	<node id="-3701" lat="59.0590472253" lon="5.40663332834">
		<tag k="name" v="Elsene" />
		<tag k="natural" v="shoal" />
		<tag k="place" v="locality" />
		<tag k="ssr:stedsnr" v="103613" />
	</node>
	<node id="-3700" lat="59.0506194467" lon="5.38907222051">
		<tag k="fixme" v="consider seamark:type=rock or natural=shoal" />
		<tag k="name" v="Harholmskatet" />
		<tag k="place" v="islet" />
		<tag k="ssr:stedsnr" v="103595" />
	</node>
	<node id="-3699" lat="59.0169472225" lon="5.41786110781">
		<tag k="name" v="Syvertsen" />
		<tag k="natural" v="shoal" />
		<tag k="place" v="locality" />
		<tag k="ssr:stedsnr" v="102585" />
	</node>
	<node id="-3698" lat="59.0209444423" lon="5.41932778435">
		<tag k="name" v="Flate Raudholmgrunnen" />
		<tag k="natural" v="shoal" />
		<tag k="place" v="locality" />
		<tag k="ssr:stedsnr" v="102583" />
	</node>
	<node id="-3697" lat="59.0072666655" lon="5.40813333616">
		<tag k="name" v="Søraustre Hugagrunnen" />
		<tag k="natural" v="shoal" />
		<tag k="place" v="locality" />
		<tag k="ssr:stedsnr" v="102576" />
	</node>
	<node id="-3693" lat="59.0679194405" lon="5.47276944094">
		<tag k="fixme" v="consider seamark:type=rock or natural=shoal" />
		<tag k="name" v="Sandøyskjera" />
		<tag k="place" v="islet" />
		<tag k="ssr:stedsnr" v="101668" />
	</node>
	<node id="-3692" lat="59.084505558" lon="5.48833888766">
		<tag k="name" v="Keila" />
		<tag k="natural" v="bay" />
		<tag k="ssr:stedsnr" v="101663" />
	</node>
	<node id="-3691" lat="59.0335028308" lon="5.39503123502">
		<tag k="name" v="Midtre Sparholmen" />
		<tag k="old_name" v="Sparholmen" />
		<tag k="place" v="islet" />
		<tag k="ssr:stedsnr" v="89786" />
	</node>
	<node id="-3690" lat="59.0853222204" lon="5.47009166655">
		<tag k="name" v="Fjærboflua" />
		<tag k="place" v="locality" />
		<tag k="seamark:type" v="rock" />
		<tag k="ssr:stedsnr" v="89777" />
	</node>
	<node id="-3689" lat="59.0797055578" lon="5.43965834164">
		<tag k="name" v="Fjæraflua" />
		<tag k="natural" v="shoal" />
		<tag k="place" v="locality" />
		<tag k="ssr:stedsnr" v="85507" />
	</node>
	<node id="-3688" lat="59.0788888921" lon="5.43214721874">
		<tag k="name" v="Skarsteingrunnen" />
		<tag k="place" v="locality" />
		<tag k="seamark:type" v="rock" />
		<tag k="ssr:stedsnr" v="85505" />
	</node>
	<node id="-3687" lat="59.0595166622" lon="5.49601388707">
		<tag k="fixme" v="consider seamark:type=rock or natural=shoal" />
		<tag k="name" v="Seisbo" />
		<tag k="place" v="islet" />
		<tag k="ssr:stedsnr" v="62832" />
	</node>
	<node id="-3686" lat="59.0239277807" lon="5.39994445149">
		<tag k="name" v="Sparholmosen" />
		<tag k="natural" v="strait" />
		<tag k="ssr:stedsnr" v="62494" />
	</node>
	<node id="-3685" lat="59.0349111096" lon="5.42286388447">
		<tag k="name" v="Nordra Hogga" />
		<tag k="place" v="islet" />
		<tag k="ssr:stedsnr" v="62491" />
	</node>
	<node id="-3684" lat="59.0771777769" lon="5.41446111845">
		<tag k="name" v="Nordholmen" />
		<tag k="place" v="islet" />
		<tag k="ssr:stedsnr" v="62479" />
	</node>
	<node id="-3683" lat="59.0555388853" lon="5.39169723069">
		<tag k="name" v="Kalvholmen" />
		<tag k="place" v="islet" />
		<tag k="ssr:stedsnr" v="62473" />
	</node>
	<node id="-3682" lat="59.0718888925" lon="5.39421943732">
		<tag k="name" v="Avlaupet" />
		<tag k="natural" v="bay" />
		<tag k="ssr:stedsnr" v="59497" />
	</node>
	<node id="-3681" lat="59.0691138882" lon="5.44117499834">
		<tag k="name" v="Krågøytåa" />
		<tag k="natural" v="cape" />
		<tag k="ssr:stedsnr" v="57580" />
	</node>
	<node id="-3680" lat="59.0747194476" lon="5.43872499388">
		<tag k="name" v="Jartholmgrunnane" />
		<tag k="natural" v="shoal" />
		<tag k="place" v="locality" />
		<tag k="ssr:stedsnr" v="57578" />
	</node>
	<node id="-3679" lat="59.0406388882" lon="5.40253889282">
		<tag k="name" v="Haltarvika" />
		<tag k="natural" v="bay" />
		<tag k="ssr:stedsnr" v="55898" />
	</node>
	<node id="-3678" lat="59.0480916663" lon="5.40964445234">
		<tag k="fixme" v="consider seamark:type=rock or natural=shoal" />
		<tag k="name" v="Vardholmsteinen" />
		<tag k="place" v="islet" />
		<tag k="ssr:stedsnr" v="55889" />
	</node>
	<node id="-3677" lat="59.0495333345" lon="5.40560277265">
		<tag k="fixme" v="consider seamark:type=rock or natural=shoal" />
		<tag k="name" v="Nordra Helleskjer" />
		<tag k="place" v="islet" />
		<tag k="ssr:stedsnr" v="55884" />
	</node>
	<node id="-3676" lat="59.0600138871" lon="5.39003888864">
		<tag k="name" v="Steinvik" />
		<tag k="natural" v="bay" />
		<tag k="ssr:stedsnr" v="55381" />
	</node>
	<node id="-3675" lat="59.032150001" lon="5.42116110874">
		<tag k="name" v="Byttegrunnen" />
		<tag k="natural" v="shoal" />
		<tag k="place" v="locality" />
		<tag k="ssr:stedsnr" v="55600" />
	</node>
	<node id="-3674" lat="59.0329138869" lon="5.40209167522">
		<tag k="name" v="Leiasundet" />
		<tag k="natural" v="strait" />
		<tag k="ssr:stedsnr" v="55599" />
	</node>
	<node id="-3673" lat="59.064052781" lon="5.3894916735">
		<tag k="alt_name" v="Midtre Kalvanesholmen" />
		<tag k="name" v="Midtre Klavanesholmane" />
		<tag k="place" v="islet" />
		<tag k="ssr:stedsnr" v="54981" />
	</node>
	<node id="-3672" lat="59.0539805559" lon="5.40095000664">
		<tag k="fixme" v="consider seamark:type=rock or natural=shoal" />
		<tag k="name" v="Steinskjeret" />
		<tag k="place" v="islet" />
		<tag k="ssr:stedsnr" v="42582" />
	</node>
	<node id="-3671" lat="59.0562055592" lon="5.40467777559">
		<tag k="fixme" v="consider seamark:type=rock or natural=shoal" />
		<tag k="name" v="Nordra Rossøyskjera" />
		<tag k="place" v="islet" />
		<tag k="ssr:stedsnr" v="42581" />
	</node>
	<node id="-3670" lat="59.0642111117" lon="5.45871667054">
		<tag k="name" v="Nygrunnen" />
		<tag k="natural" v="shoal" />
		<tag k="place" v="locality" />
		<tag k="ssr:stedsnr" v="40714" />
	</node>
	<node id="-3669" lat="59.0673749989" lon="5.46863610446">
		<tag k="fixme" v="consider seamark:type=rock or natural=shoal" />
		<tag k="name" v="Helleskjeret" />
		<tag k="place" v="islet" />
		<tag k="ssr:stedsnr" v="40713" />
	</node>
	<node id="-3668" lat="59.0764111154" lon="5.48417222982">
		<tag k="name" v="Skorpesundet" />
		<tag k="natural" v="strait" />
		<tag k="ssr:stedsnr" v="40648" />
	</node>
	<node id="-3667" lat="59.083105558" lon="5.46495833078">
		<tag k="fixme" v="consider seamark:type=rock or natural=shoal" />
		<tag k="name" v="Stora Mele" />
		<tag k="place" v="islet" />
		<tag k="ssr:stedsnr" v="28805" />
	</node>
	<node id="-3666" lat="59.066361107" lon="5.50966111673">
		<tag k="name" v="Stakken" />
		<tag k="natural" v="shoal" />
		<tag k="place" v="locality" />
		<tag k="ssr:stedsnr" v="2803" />
	</node>
	<node id="-3665" lat="59.0612333347" lon="5.47263888047">
		<tag k="alt_name" v="Trættholmskjeret;Trættholmskjera" />
		<tag k="fixme" v="consider seamark:type=rock or natural=shoal" />
		<tag k="name" v="Trettholmskjera" />
		<tag k="place" v="islet" />
		<tag k="ssr:stedsnr" v="2801" />
	</node>
	<node id="-3664" lat="59.0715083306" lon="5.47295000108">
		<tag k="name" v="Sandøya" />
		<tag k="place" v="island" />
		<tag k="ssr:stedsnr" v="1868" />
	</node>
	<node id="-3663" lat="59.0541583299" lon="5.41810554759">
		<tag k="name" v="Duøya" />
		<tag k="place" v="islet" />
		<tag k="ssr:stedsnr" v="1486" />
	</node>
	<node id="-3662" lat="59.0500722235" lon="5.3848888858">
		<tag k="alt_name" v="Svortingen, l" />
		<tag k="name" v="Litle Svortingen" />
		<tag k="place" v="islet" />
		<tag k="ssr:stedsnr" v="1482" />
	</node>
	<node id="-3661" lat="59.0119750013" lon="5.37353611644">
		<tag k="name" v="Austre Imsen" />
		<tag k="place" v="islet" />
		<tag k="ssr:stedsnr" v="1451" />
	</node>
	<node id="-3660" lat="59.0110888885" lon="5.4056444447">
		<tag k="fixme" v="consider seamark:type=rock or natural=shoal" />
		<tag k="name" v="Hugaskoda" />
		<tag k="place" v="islet" />
		<tag k="ssr:stedsnr" v="1325" />
	</node>
	<node id="-3659" lat="59.0389831014" lon="5.39454209342">
		<tag k="alt_name" v="Nordra Drabben" />
		<tag k="fixme" v="consider seamark:type=rock or natural=shoal" />
		<tag k="name" v="Vestre Drabben" />
		<tag k="place" v="islet" />
		<tag k="ssr:stedsnr" v="977826" />
	</node>
	<node id="-3658" lat="59.0387743737" lon="5.3959861295">
		<tag k="alt_name" v="Søra Drabben" />
		<tag k="fixme" v="consider seamark:type=rock or natural=shoal" />
		<tag k="name" v="Austre Drabben" />
		<tag k="place" v="islet" />
		<tag k="ssr:stedsnr" v="977825" />
	</node>
	<node id="-3657" lat="59.0429666662" lon="5.4008999979">
		<tag k="name" v="Buøyvad" />
		<tag k="natural" v="strait" />
		<tag k="ssr:stedsnr" v="905929" />
	</node>
	<node id="-3656" lat="59.0616749967" lon="5.38773610749">
		<tag k="fixme" v="consider seamark:type=rock or natural=shoal" />
		<tag k="name" v="Gullskjer" />
		<tag k="place" v="islet" />
		<tag k="ssr:stedsnr" v="905478" />
	</node>
	<node id="-3655" lat="59.0585055594" lon="5.39330278013">
		<tag k="name" v="Kalvhagneset" />
		<tag k="natural" v="cape" />
		<tag k="ssr:stedsnr" v="905420" />
	</node>
	<node id="-3654" lat="59.05776944" lon="5.40238610921">
		<tag k="alt_name" v="Rossøya" />
		<tag k="name" v="Rossøyna" />
		<tag k="place" v="island" />
		<tag k="ssr:stedsnr" v="903976" />
	</node>
	<node id="-3653" lat="59.0743055542" lon="5.42532500565">
		<tag k="name" v="Revet" />
		<tag k="place" v="locality" />
		<tag k="seamark:type" v="rock" />
		<tag k="ssr:stedsnr" v="950396" />
	</node>
	<node id="-3652" lat="59.0678444475" lon="5.38911110472">
		<tag k="name" v="Søra Nyggjeflua" />
		<tag k="natural" v="shoal" />
		<tag k="place" v="locality" />
		<tag k="ssr:stedsnr" v="950330" />
	</node>
	<node id="-3650" lat="59.022766667" lon="5.43657221658">
		<tag k="fixme" v="consider seamark:type=rock or natural=shoal" />
		<tag k="name" v="Leiaboen" />
		<tag k="place" v="islet" />
		<tag k="ssr:stedsnr" v="938784" />
	</node>
	<node id="-3649" lat="59.0565777804" lon="5.40739722371">
		<tag k="fixme" v="consider seamark:type=rock or natural=shoal" />
		<tag k="name" v="Kalvaskjer" />
		<tag k="place" v="islet" />
		<tag k="ssr:stedsnr" v="831568" />
	</node>
	<node id="-3648" lat="59.0243249959" lon="5.45072222403">
		<tag k="name" v="Indra Leiaboflua" />
		<tag k="natural" v="shoal" />
		<tag k="place" v="locality" />
		<tag k="ssr:stedsnr" v="830512" />
	</node>
	<node id="-3647" lat="58.9999138874" lon="5.42273333047">
		<tag k="name" v="Hidleboen" />
		<tag k="place" v="locality" />
		<tag k="seamark:type" v="rock" />
		<tag k="ssr:stedsnr" v="935596" />
	</node>
	<node id="-3646" lat="59.0603180624" lon="5.38153511296">
		<tag k="name" v="Revingsgrunnen" />
		<tag k="natural" v="shoal" />
		<tag k="place" v="locality" />
		<tag k="ssr:stedsnr" v="829409" />
	</node>
	<node id="-3645" lat="59.0103388864" lon="5.36842778187">
		<tag k="name" v="Vestre Imsen" />
		<tag k="place" v="islet" />
		<tag k="ssr:stedsnr" v="790510" />
	</node>
	<node id="-3644" lat="59.0297388895" lon="5.42531944171">
		<tag k="fixme" v="consider seamark:type=rock or natural=shoal" />
		<tag k="name" v="Hugaskota" />
		<tag k="place" v="islet" />
		<tag k="ssr:stedsnr" v="790508" />
	</node>
	<node id="-3643" lat="59.0342765282" lon="5.39871670306">
		<tag k="name" v="Sparholmane" />
		<tag k="place" v="islet" />
		<tag k="ssr:stedsnr" v="790504" />
	</node>
	<node id="-3642" lat="59.0316583326" lon="5.38543055254">
		<tag k="fixme" v="consider seamark:type=rock or natural=shoal" />
		<tag k="name" v="Sjoaland" />
		<tag k="place" v="islet" />
		<tag k="ssr:stedsnr" v="790503" />
	</node>
	<node id="-3640" lat="59.0060166682" lon="5.36879722408">
		<tag k="name" v="Snorkla" />
		<tag k="natural" v="shoal" />
		<tag k="place" v="locality" />
		<tag k="ssr:stedsnr" v="769527" />
	</node>
	<node id="-3639" lat="59.0142611099" lon="5.41887222596">
		<tag k="name" v="Grytesundet" />
		<tag k="natural" v="strait" />
		<tag k="ssr:stedsnr" v="769513" />
	</node>
	<node id="-3638" lat="59.0625638888" lon="5.42008888177">
		<tag k="name" v="Kuneset" />
		<tag k="natural" v="cape" />
		<tag k="ssr:stedsnr" v="768856" />
	</node>
	<node id="-3637" lat="59.0660138888" lon="5.47204166255">
		<tag k="fixme" v="consider seamark:type=rock or natural=shoal" />
		<tag k="name" v="Lyngholmskjeret" />
		<tag k="place" v="islet" />
		<tag k="ssr:stedsnr" v="768683" />
	</node>
	<node id="-3636" lat="59.0669111137" lon="5.47231667418">
		<tag k="name" v="Lyngholmflæet" />
		<tag k="natural" v="bay" />
		<tag k="ssr:stedsnr" v="768682" />
	</node>
	<node id="-3635" lat="59.0877083364" lon="5.49550277472">
		<tag k="alt_name" v="Litla Kjerringa" />
		<tag k="fixme" v="consider seamark:type=rock or natural=shoal" />
		<tag k="name" v="Litla Kjeringa" />
		<tag k="place" v="islet" />
		<tag k="ssr:stedsnr" v="768680" />
	</node>
	<node id="-3634" lat="59.0892388845" lon="5.49749722286">
		<tag k="name" v="Nodel" />
		<tag k="natural" v="shoal" />
		<tag k="place" v="locality" />
		<tag k="ssr:stedsnr" v="768676" />
	</node>
	<node id="-3633" lat="59.0762472221" lon="5.49272777958">
		<tag k="name" v="Austra Ternøyflua" />
		<tag k="natural" v="shoal" />
		<tag k="place" v="locality" />
		<tag k="ssr:stedsnr" v="768656" />
	</node>
	<node id="-3632" lat="59.0749166664" lon="5.39681945025">
		<tag k="name" v="Kalvaneset" />
		<tag k="place" v="islet" />
		<tag k="ssr:stedsnr" v="767308" />
	</node>
	<node id="-3631" lat="59.0596777791" lon="5.47095000538">
		<tag k="alt_name" v="Trættholmen" />
		<tag k="name" v="Trettholmen" />
		<tag k="place" v="islet" />
		<tag k="ssr:stedsnr" v="912831" />
	</node>
	<node id="-3630" lat="59.0437194404" lon="5.40731111149">
		<tag k="alt_name" v="Hestskjeret, nordre" />
		<tag k="fixme" v="consider seamark:type=rock or natural=shoal" />
		<tag k="name" v="Nordra Hestaskjeret" />
		<tag k="place" v="islet" />
		<tag k="ssr:stedsnr" v="912525" />
	</node>
	<node id="-3629" lat="59.0543944409" lon="5.43156944685">
		<tag k="name" v="Vardholmen" />
		<tag k="place" v="islet" />
		<tag k="ssr:stedsnr" v="912500" />
	</node>
	<node id="-3628" lat="59.0818722199" lon="5.46454444326">
		<tag k="name" v="Litla Mele" />
		<tag k="natural" v="shoal" />
		<tag k="place" v="locality" />
		<tag k="ssr:stedsnr" v="911843" />
	</node>
	<node id="-3627" lat="59.0718916711" lon="5.43203611764">
		<tag k="name" v="Krossøy" />
		<tag k="place" v="island" />
		<tag k="ssr:stedsnr" v="911487" />
	</node>
	<node id="-3626" lat="59.0720611088" lon="5.42709722334">
		<tag k="name" v="Hellesøy" />
		<tag k="natural" v="cape" />
		<tag k="ssr:stedsnr" v="911485" />
	</node>
	<node id="-3625" lat="59.1171888847" lon="5.25613333666">
		<tag k="bay" v="fjord" />
		<tag k="name" v="Skudenesfjorden" />
		<tag k="natural" v="bay" />
		<tag k="ssr:stedsnr" v="911414" />
	</node>
	<node id="-3623" lat="59.0394249984" lon="5.40020556377">
		<tag k="fixme" v="consider seamark:type=rock or natural=shoal" />
		<tag k="name" v="Høgaskjer" />
		<tag k="place" v="islet" />
		<tag k="ssr:stedsnr" v="905932" />
	</node>
	<node id="-3622" lat="59.0424388908" lon="5.39450000135">
		<tag k="fixme" v="consider seamark:type=rock or natural=shoal" />
		<tag k="name" v="Buøyskjera" />
		<tag k="place" v="islet" />
		<tag k="ssr:stedsnr" v="905930" />
	</node>
	<node id="-3621" lat="59.0405578563" lon="5.39663107861">
		<tag k="alt_name" v="Grunnungsskjera" />
		<tag k="fixme" v="consider seamark:type=rock or natural=shoal" />
		<tag k="name" v="Grunnungskjera" />
		<tag k="place" v="islet" />
		<tag k="ssr:stedsnr" v="905902" />
	</node>
	<node id="-3620" lat="59.0436194429" lon="5.41527500666">
		<tag k="name" v="Svartabeistgrunnane" />
		<tag k="natural" v="shoal" />
		<tag k="place" v="locality" />
		<tag k="ssr:stedsnr" v="905895" />
	</node>
	<node id="-3619" lat="59.0612388891" lon="5.49188611096">
		<tag k="name" v="Seisbofluene" />
		<tag k="natural" v="shoal" />
		<tag k="place" v="locality" />
		<tag k="ssr:stedsnr" v="905677" />
	</node>
	<node id="-3618" lat="59.0470387682" lon="5.45326488679">
		<tag k="name" v="Gjerdholmsundet" />
		<tag k="natural" v="strait" />
		<tag k="ssr:stedsnr" v="905676" />
	</node>
	<node id="-3617" lat="59.0107250028" lon="5.36683611602">
		<tag k="name" v="Imsakeila" />
		<tag k="natural" v="bay" />
		<tag k="ssr:stedsnr" v="905635" />
	</node>
	<node id="-3616" lat="59.0157916701" lon="5.39047777638">
		<tag k="name" v="Magerøysloane" />
		<tag k="place" v="locality" />
		<tag k="seamark:type" v="rock" />
		<tag k="ssr:stedsnr" v="905629" />
	</node>
	<node id="-3615" lat="59.0334249989" lon="5.42798611524">
		<tag k="name" v="Skitgrunnane" />
		<tag k="natural" v="shoal" />
		<tag k="place" v="locality" />
		<tag k="ssr:stedsnr" v="905658" />
	</node>
	<node id="-3614" lat="59.0736722189" lon="5.39563889294">
		<tag k="name" v="Øyarvik" />
		<tag k="natural" v="bay" />
		<tag k="ssr:stedsnr" v="726515" />
	</node>
	<node id="-3613" lat="59.0614472184" lon="5.38950556404">
		<tag k="fixme" v="consider seamark:type=rock or natural=shoal" />
		<tag k="name" v="Springarskjeret" />
		<tag k="place" v="islet" />
		<tag k="ssr:stedsnr" v="722438" />
	</node>
	<node id="-3612" lat="59.0705972266" lon="5.39367500808">
		<tag k="name" v="Gløv" />
		<tag k="natural" v="bay" />
		<tag k="ssr:stedsnr" v="722422" />
	</node>
	<node id="-3611" lat="59.0709387538" lon="5.40841492772">
		<tag k="name" v="Saltvik" />
		<tag k="natural" v="bay" />
		<tag k="ssr:stedsnr" v="721986" />
	</node>
	<node id="-3610" lat="59.0575472208" lon="5.39797777476">
		<tag k="name" v="Grøningen" />
		<tag k="place" v="islet" />
		<tag k="ssr:stedsnr" v="721978" />
	</node>
	<node id="-3609" lat="59.0152444482" lon="5.41903333674">
		<tag k="fixme" v="consider seamark:type=rock or natural=shoal" />
		<tag k="name" v="Nordra Raudholmskadet" />
		<tag k="place" v="islet" />
		<tag k="ssr:stedsnr" v="891528" />
	</node>
	<node id="-3608" lat="59.0605750043" lon="5.43008610897">
		<tag k="name" v="Vindnesgrunnen" />
		<tag k="natural" v="shoal" />
		<tag k="place" v="locality" />
		<tag k="ssr:stedsnr" v="890959" />
	</node>
	<node id="-3606" lat="59.0579166669" lon="5.40643611824">
		<tag k="fixme" v="consider seamark:type=rock or natural=shoal" />
		<tag k="name" v="Flataskjer" />
		<tag k="place" v="islet" />
		<tag k="ssr:stedsnr" v="890849" />
	</node>
	<node id="-3605" lat="59.0580055522" lon="5.42297222482">
		<tag k="fixme" v="consider seamark:type=rock or natural=shoal" />
		<tag k="name" v="Stillene" />
		<tag k="place" v="islet" />
		<tag k="ssr:stedsnr" v="890810" />
	</node>
	<node id="-3604" lat="59.0732388923" lon="5.48926388482">
		<tag k="fixme" v="consider seamark:type=rock or natural=shoal" />
		<tag k="name" v="Nordra Grasskjer" />
		<tag k="place" v="islet" />
		<tag k="ssr:stedsnr" v="890683" />
	</node>
	<node id="-3603" lat="59.0890000039" lon="5.49041110669">
		<tag k="fixme" v="consider seamark:type=rock or natural=shoal" />
		<tag k="name" v="Kobbsloen" />
		<tag k="place" v="islet" />
		<tag k="ssr:stedsnr" v="890671" />
	</node>
	<node id="-3602" lat="59.0357083325" lon="5.39625277335">
		<tag k="name" v="Nordre Sparholmen" />
		<tag k="place" v="islet" />
		<tag k="ssr:stedsnr" v="695772" />
	</node>
	<node id="-3601" lat="59.0709944411" lon="5.37448333401">
		<tag k="bay" v="fjord" />
		<tag k="name" v="Kyrkjereksteren" />
		<tag k="natural" v="bay" />
		<tag k="ssr:stedsnr" v="695763" />
	</node>
	<node id="-3600" lat="59.0594611085" lon="5.41093611389">
		<tag k="name" v="Naustvollvågen" />
		<tag k="natural" v="bay" />
		<tag k="ssr:stedsnr" v="889400" />
	</node>
	<node id="-3599" lat="59.0538083297" lon="5.3811805532">
		<tag k="name" v="Saltskjergrunnen" />
		<tag k="natural" v="shoal" />
		<tag k="place" v="locality" />
		<tag k="ssr:stedsnr" v="889395" />
	</node>
	<node id="-3598" lat="59.0485722203" lon="5.37911665908">
		<tag k="fixme" v="consider seamark:type=rock or natural=shoal" />
		<tag k="name" v="Rundaskjeret" />
		<tag k="place" v="islet" />
		<tag k="ssr:stedsnr" v="889389" />
	</node>
	<node id="-3597" lat="59.0486305521" lon="5.4047388829">
		<tag k="fixme" v="consider seamark:type=rock or natural=shoal" />
		<tag k="name" v="Søra Helleskjer" />
		<tag k="place" v="islet" />
		<tag k="ssr:stedsnr" v="662880" />
	</node>
	<node id="-3596" lat="59.0513277772" lon="5.40675833575">
		<tag k="fixme" v="consider seamark:type=rock or natural=shoal" />
		<tag k="name" v="Nordra Lyngskjer" />
		<tag k="place" v="islet" />
		<tag k="ssr:stedsnr" v="662872" />
	</node>
	<node id="-3595" lat="59.0156361122" lon="5.40394999768">
		<tag k="name" v="Hugaskodgrunnane" />
		<tag k="natural" v="shoal" />
		<tag k="place" v="locality" />
		<tag k="ssr:stedsnr" v="647523" />
	</node>
	<node id="-3594" lat="59.0271111069" lon="5.42325555659">
		<tag k="name" v="Søra Hoggaflua" />
		<tag k="natural" v="shoal" />
		<tag k="place" v="locality" />
		<tag k="ssr:stedsnr" v="647516" />
	</node>
	<node id="-3593" lat="59.0740083314" lon="5.484802771">
		<tag k="name" v="Sørvestra Ternøybukta" />
		<tag k="natural" v="bay" />
		<tag k="ssr:stedsnr" v="646673" />
	</node>
	<node id="-3592" lat="59.0399305581" lon="5.39607222336">
		<tag k="alt_name" v="Grunnungskjer, s" />
		<tag k="fixme" v="consider seamark:type=rock or natural=shoal" />
		<tag k="name" v="Søra Grunnungskjer" />
		<tag k="place" v="islet" />
		<tag k="ssr:stedsnr" v="729486" />
	</node>
	<node id="-3590" lat="59.0662722196" lon="5.4101388822">
		<tag k="name" v="Kvitsøy" />
		<tag k="place" v="island" />
		<tag k="ssr:stedsnr" v="729473" />
	</node>
	<node id="-3589" lat="59.0135833334" lon="5.42140278012">
		<tag k="name" v="Raudholmen" />
		<tag k="place" v="islet" />
		<tag k="ssr:stedsnr" v="729448" />
	</node>
	<node id="-3588" lat="59.0872194473" lon="5.48225000109">
		<tag k="alt_name" v="Eimeskåta" />
		<tag k="name" v="Eimeskota" />
		<tag k="place" v="islet" />
		<tag k="ssr:stedsnr" v="729358" />
	</node>
	<node id="-3587" lat="59.0462472216" lon="5.40962778159">
		<tag k="name" v="Vardholmgrunnen" />
		<tag k="natural" v="shoal" />
		<tag k="place" v="locality" />
		<tag k="ssr:stedsnr" v="722909" />
	</node>
	<node id="-3586" lat="59.0506972184" lon="5.42190000583">
		<tag k="name" v="Saragrunnane" />
		<tag k="natural" v="shoal" />
		<tag k="place" v="locality" />
		<tag k="ssr:stedsnr" v="722890" />
	</node>
	<node id="-3585" lat="59.0347916671" lon="5.40396943844">
		<tag k="fixme" v="consider seamark:type=rock or natural=shoal" />
		<tag k="name" v="Suggeryggen" />
		<tag k="place" v="islet" />
		<tag k="ssr:stedsnr" v="722635" />
	</node>
	<node id="-3584" lat="59.0662444413" lon="5.39236945229">
		<tag k="name" v="Skiftesvik" />
		<tag k="natural" v="bay" />
		<tag k="ssr:stedsnr" v="722443" />
	</node>
	<node id="-3583" lat="59.0762416671" lon="5.48770277412">
		<tag k="name" v="Ternøya" />
		<tag k="place" v="island" />
		<tag k="ssr:stedsnr" v="607842" />
	</node>
	<node id="-3582" lat="59.0156833305" lon="5.38175555554">
		<tag k="fixme" v="consider seamark:type=rock or natural=shoal" />
		<tag k="name" v="Begholmskjeret" />
		<tag k="place" v="islet" />
		<tag k="ssr:stedsnr" v="601592" />
	</node>
	<node id="-3581" lat="59.057911115" lon="5.39388888566">
		<tag k="name" v="Hegerholmgrunnen" />
		<tag k="natural" v="shoal" />
		<tag k="place" v="locality" />
		<tag k="ssr:stedsnr" v="601398" />
	</node>
	<node id="-3579" lat="59.0548083347" lon="5.41264166812">
		<tag k="fixme" v="consider seamark:type=rock or natural=shoal" />
		<tag k="name" v="Søra Fånøyskjeret" />
		<tag k="place" v="islet" />
		<tag k="ssr:stedsnr" v="709618" />
	</node>
	<node id="-3578" lat="59.0563266071" lon="5.39823488107">
		<tag k="name" v="Grøningsnaget" />
		<tag k="natural" v="cape" />
		<tag k="ssr:stedsnr" v="709615" />
	</node>
	<node id="-3577" lat="59.0469111097" lon="5.39237499907">
		<tag k="name" v="Skridgrunnen" />
		<tag k="natural" v="shoal" />
		<tag k="place" v="locality" />
		<tag k="ssr:stedsnr" v="709585" />
	</node>
	<node id="-3576" lat="59.0187249964" lon="5.42625278357">
		<tag k="name" v="Pittersen" />
		<tag k="natural" v="shoal" />
		<tag k="place" v="locality" />
		<tag k="ssr:stedsnr" v="709526" />
	</node>
	<node id="-3575" lat="59.0603222191" lon="5.43718056313">
		<tag k="fixme" v="consider seamark:type=rock or natural=shoal" />
		<tag k="name" v="Austra Hestaskjer" />
		<tag k="place" v="islet" />
		<tag k="ssr:stedsnr" v="708953" />
	</node>
	<node id="-3574" lat="59.0652638858" lon="5.49215556001">
		<tag k="name" v="Fjæreskjerfluene" />
		<tag k="natural" v="shoal" />
		<tag k="place" v="locality" />
		<tag k="ssr:stedsnr" v="707642" />
	</node>
	<node id="-3572" lat="59.0908611122" lon="5.50199444279">
		<tag k="name" v="Kjerringfluene" />
		<tag k="place" v="locality" />
		<tag k="seamark:type" v="rock" />
		<tag k="ssr:stedsnr" v="570526" />
	</node>
	<node id="-3571" lat="59.0200277775" lon="5.36615000024">
		<tag k="fixme" v="consider seamark:type=rock or natural=shoal" />
		<tag k="name" v="Gjerdholmskjeret" />
		<tag k="place" v="islet" />
		<tag k="ssr:stedsnr" v="540597" />
	</node>
	<node id="-3570" lat="59.012650001" lon="5.39416945235">
		<tag k="fixme" v="consider seamark:type=rock or natural=shoal" />
		<tag k="name" v="Magerøyskota" />
		<tag k="place" v="islet" />
		<tag k="ssr:stedsnr" v="540604" />
	</node>
	<node id="-3569" lat="59.0676333322" lon="5.39215278321">
		<tag k="name" v="Tausahola" />
		<tag k="natural" v="bay" />
		<tag k="ssr:stedsnr" v="540432" />
	</node>
	<node id="-3568" lat="59.0488388933" lon="5.38515833781">
		<tag k="name" v="Svortingskota" />
		<tag k="natural" v="cape" />
		<tag k="ssr:stedsnr" v="527596" />
	</node>
	<node id="-3566" lat="59.0216666706" lon="5.43016666476">
		<tag k="name" v="Leiabofluene" />
		<tag k="natural" v="shoal" />
		<tag k="place" v="locality" />
		<tag k="ssr:stedsnr" v="526578" />
	</node>
	<node id="-3564" lat="59.0495777782" lon="5.37745556159">
		<tag k="fixme" v="consider seamark:type=rock or natural=shoal" />
		<tag k="name" v="Storaskjeret" />
		<tag k="place" v="islet" />
		<tag k="ssr:stedsnr" v="525418" />
	</node>
	<node id="-3561" lat="59.045102777" lon="5.39363055919">
		<tag k="name" v="Søre Skodholmen" />
		<tag k="place" v="islet" />
		<tag k="ssr:stedsnr" v="486504" />
	</node>
	<node id="-3560" lat="59.016786112" lon="5.37714443795">
		<tag k="name" v="Begholmgrunnen" />
		<tag k="natural" v="shoal" />
		<tag k="place" v="locality" />
		<tag k="ssr:stedsnr" v="480615" />
	</node>
	<node id="-3559" lat="59.0658944409" lon="5.39038056052">
		<tag k="alt_name" v="Nordre Kalvanesholmen" />
		<tag k="name" v="Nordre Klavanesholmen" />
		<tag k="place" v="islet" />
		<tag k="ssr:stedsnr" v="478984" />
	</node>
	<node id="-3558" lat="59.0254833357" lon="5.38832777674">
		<tag k="name" v="Måneboane" />
		<tag k="natural" v="shoal" />
		<tag k="place" v="locality" />
		<tag k="ssr:stedsnr" v="669508" />
	</node>
	<node id="-3557" lat="59.0948111093" lon="5.5039055601">
		<tag k="fixme" v="consider seamark:type=rock or natural=shoal" />
		<tag k="name" v="Sveina" />
		<tag k="place" v="islet" />
		<tag k="ssr:stedsnr" v="669298" />
	</node>
	<node id="-3556" lat="59.063888892" lon="5.44013055113">
		<tag k="name" v="Krågøy" />
		<tag k="place" v="island" />
		<tag k="ssr:stedsnr" v="668486" />
	</node>
	<node id="-3555" lat="59.0863749959" lon="5.48736111214">
		<tag k="name" v="Eime" />
		<tag k="place" v="island" />
		<tag k="ssr:stedsnr" v="668370" />
	</node>
	<node id="-3554" lat="59.0606499996" lon="5.43379445202">
		<tag k="name" v="Skitsloen" />
		<tag k="natural" v="shoal" />
		<tag k="place" v="locality" />
		<tag k="ssr:stedsnr" v="465957" />
	</node>
	<node id="-3553" lat="59.061375004" lon="5.43139999707">
		<tag k="name" v="Stevelsgrunnen" />
		<tag k="natural" v="shoal" />
		<tag k="place" v="locality" />
		<tag k="ssr:stedsnr" v="465953" />
	</node>
	<node id="-3552" lat="59.0532749979" lon="5.38436110451">
		<tag k="fixme" v="consider seamark:type=rock or natural=shoal" />
		<tag k="name" v="Saltskjeret" />
		<tag k="place" v="islet" />
		<tag k="ssr:stedsnr" v="464410" />
	</node>
	<node id="-3551" lat="59.0418222237" lon="5.40886943955">
		<tag k="name" v="Stokken" />
		<tag k="place" v="islet" />
		<tag k="ssr:stedsnr" v="662896" />
	</node>
	<node id="-3550" lat="59.01785" lon="5.39371388496">
		<tag k="name" v="Magerøyflua" />
		<tag k="natural" v="shoal" />
		<tag k="place" v="locality" />
		<tag k="ssr:stedsnr" v="662629" />
	</node>
	<node id="-3548" lat="59.0548861083" lon="5.42451667103">
		<tag k="name" v="Klauagrunnane" />
		<tag k="natural" v="shoal" />
		<tag k="place" v="locality" />
		<tag k="ssr:stedsnr" v="661885" />
	</node>
	<node id="-3547" lat="59.0652666681" lon="5.38948610776">
		<tag k="name" v="Grunnasund" />
		<tag k="natural" v="strait" />
		<tag k="ssr:stedsnr" v="661418" />
	</node>
	<node id="-3546" lat="59.0606222178" lon="5.39213888755">
		<tag k="name" v="Vikane" />
		<tag k="natural" v="bay" />
		<tag k="ssr:stedsnr" v="661416" />
	</node>
	<node id="-3545" lat="59.074983329" lon="5.39366944655">
		<tag k="name" v="Hålandsavlaupet" />
		<tag k="place" v="locality" />
		<tag k="ssr:stedsnr" v="661409" />
	</node>
	<node id="-3544" lat="59.0041916666" lon="5.34841110707">
		<tag k="name" v="Imsagrunnen" />
		<tag k="place" v="locality" />
		<tag k="seamark:type" v="rock" />
		<tag k="ssr:stedsnr" v="450613" />
	</node>
	<node id="-3543" lat="59.0466722192" lon="5.39674444368">
		<tag k="name" v="Styrmannsskjer" />
		<tag k="place" v="islet" />
		<tag k="ssr:stedsnr" v="419914" />
	</node>
	<node id="-3542" lat="59.0582055515" lon="5.47219722445">
		<tag k="alt_name" v="Trættholmsloane" />
		<tag k="fixme" v="consider seamark:type=rock or natural=shoal" />
		<tag k="name" v="Trettholmsloane" />
		<tag k="place" v="islet" />
		<tag k="ssr:stedsnr" v="419644" />
	</node>
	<node id="-3541" lat="59.0334333308" lon="5.40228056153">
		<tag k="fixme" v="consider seamark:type=rock or natural=shoal" />
		<tag k="name" v="Leisten" />
		<tag k="place" v="islet" />
		<tag k="ssr:stedsnr" v="419623" />
	</node>
	<node id="-3540" lat="59.0361722249" lon="5.40612777527">
		<tag k="name" v="Stabbagrunnen" />
		<tag k="natural" v="shoal" />
		<tag k="place" v="locality" />
		<tag k="ssr:stedsnr" v="419621" />
	</node>
	<node id="-3539" lat="59.0302277798" lon="5.395344445">
		<tag k="name" v="Søre Sparholmen" />
		<tag k="place" v="islet" />
		<tag k="ssr:stedsnr" v="513788" />
	</node>
	<node id="-3538" lat="59.0654333294" lon="5.47189166993">
		<tag k="name" v="Austholmane" />
		<tag k="place" v="island" />
		<tag k="ssr:stedsnr" v="510602" />
	</node>
	<node id="-3536" lat="59.0623111105" lon="5.43173889167">
		<tag k="name" v="Stevelsholmen" />
		<tag k="place" v="islet" />
		<tag k="ssr:stedsnr" v="404966" />
	</node>
	<node id="-3534" lat="59.0833861074" lon="5.48323056154">
		<tag k="name" v="Eimeflua" />
		<tag k="natural" v="shoal" />
		<tag k="place" v="locality" />
		<tag k="ssr:stedsnr" v="404652" />
	</node>
	<node id="-3533" lat="59.0759194409" lon="5.41705556007">
		<tag k="name" v="Nordholmkeila" />
		<tag k="natural" v="strait" />
		<tag k="ssr:stedsnr" v="404628" />
	</node>
	<node id="-3532" lat="59.0723388883" lon="5.43916389728">
		<tag k="name" v="Søre Jartholmgrunnen" />
		<tag k="natural" v="shoal" />
		<tag k="place" v="locality" />
		<tag k="ssr:stedsnr" v="403310" />
	</node>
	<node id="-3531" lat="59.0406916637" lon="5.42977777775">
		<tag k="name" v="Peragrunnane" />
		<tag k="natural" v="shoal" />
		<tag k="place" v="locality" />
		<tag k="ssr:stedsnr" v="298984" />
	</node>
	<node id="-3530" lat="59.050397222" lon="5.45754444079">
		<tag k="name" v="Bussholmen" />
		<tag k="place" v="islet" />
		<tag k="ssr:stedsnr" v="365504" />
	</node>
	<node id="-3528" lat="59.054438889" lon="5.43308055825">
		<tag k="name" v="Vardholmsundet" />
		<tag k="natural" v="strait" />
		<tag k="ssr:stedsnr" v="358865" />
	</node>
	<node id="-3527" lat="59.0380472224" lon="5.44630833524">
		<tag k="fixme" v="consider seamark:type=rock or natural=shoal" />
		<tag k="name" v="Gjerdholmskota" />
		<tag k="place" v="islet" />
		<tag k="ssr:stedsnr" v="358658" />
	</node>
	<node id="-3526" lat="59.0470805589" lon="5.39007222967">
		<tag k="fixme" v="consider seamark:type=rock or natural=shoal" />
		<tag k="name" v="Nonskjer" />
		<tag k="place" v="islet" />
		<tag k="ssr:stedsnr" v="345527" />
	</node>
	<node id="-3525" lat="59.052430558" lon="5.42445833666">
		<tag k="name" v="Flisagrunnane" />
		<tag k="natural" v="shoal" />
		<tag k="place" v="locality" />
		<tag k="ssr:stedsnr" v="344452" />
	</node>
	<node id="-3524" lat="59.0593648657" lon="5.38520951917">
		<tag k="name" v="Revingen" />
		<tag k="place" v="islet" />
		<tag k="ssr:stedsnr" v="486492" />
	</node>
	<node id="-3523" lat="59.0749361103" lon="5.43360833688">
		<tag k="name" v="Nordre Hestholmen" />
		<tag k="place" v="islet" />
		<tag k="ssr:stedsnr" v="486490" />
	</node>
	<node id="-3521" lat="59.0135305564" lon="5.39064443689">
		<tag k="name" v="Magerøya" />
		<tag k="place" v="islet" />
		<tag k="ssr:stedsnr" v="486463" />
	</node>
	<node id="-3520" lat="59.0083055584" lon="5.40382777455">
		<tag k="fixme" v="consider seamark:type=rock or natural=shoal" />
		<tag k="name" v="Hugen" />
		<tag k="place" v="islet" />
		<tag k="ssr:stedsnr" v="486462" />
	</node>
	<node id="-3519" lat="58.9909305514" lon="5.41515000246">
		<tag k="fixme" v="consider seamark:type=rock or natural=shoal" />
		<tag k="name" v="Håboen" />
		<tag k="place" v="islet" />
		<tag k="ssr:stedsnr" v="485091" />
	</node>
	<node id="-3518" lat="59.0439277818" lon="5.43462222811">
		<tag k="name" v="Gjertholmfluene" />
		<tag k="natural" v="shoal" />
		<tag k="place" v="locality" />
		<tag k="ssr:stedsnr" v="479990" />
	</node>
	<node id="-3517" lat="59.052202774" lon="5.41523611203">
		<tag k="fixme" v="consider seamark:type=rock or natural=shoal" />
		<tag k="name" v="Bringebærskjeret" />
		<tag k="place" v="islet" />
		<tag k="ssr:stedsnr" v="479899" />
	</node>
	<node id="-3516" lat="59.0508333379" lon="5.40899167051">
		<tag k="name" v="Gulaflæ" />
		<tag k="natural" v="bay" />
		<tag k="ssr:stedsnr" v="479892" />
	</node>
	<node id="-3515" lat="59.0496833327" lon="5.49032500416">
		<tag k="name" v="Krågefluene" />
		<tag k="natural" v="shoal" />
		<tag k="place" v="locality" />
		<tag k="ssr:stedsnr" v="479643" />
	</node>
	<node id="-3514" lat="59.0556194468" lon="5.45483889173">
		<tag k="name" v="Nordre Bussholmgrunnen" />
		<tag k="natural" v="shoal" />
		<tag k="place" v="locality" />
		<tag k="ssr:stedsnr" v="479638" />
	</node>
	<node id="-3513" lat="59.0572444407" lon="5.39455277141">
		<tag k="name" v="Hegerholmen" />
		<tag k="place" v="islet" />
		<tag k="ssr:stedsnr" v="479396" />
	</node>
	<node id="-3512" lat="59.057605554" lon="5.43618888649">
		<tag k="name" v="Hestholmen" />
		<tag k="place" v="islet" />
		<tag k="ssr:stedsnr" v="304310" />
	</node>
	<node id="-3511" lat="59.0702611077" lon="5.43712777606">
		<tag k="name" v="Galtaneset" />
		<tag k="natural" v="cape" />
		<tag k="ssr:stedsnr" v="299621" />
	</node>
	<node id="-3510" lat="59.0665916622" lon="5.44063333136">
		<tag k="name" v="Skotahamn" />
		<tag k="natural" v="bay" />
		<tag k="ssr:stedsnr" v="299617" />
	</node>
	<node id="-3509" lat="59.0534111078" lon="5.39793889326">
		<tag k="name" v="Saggaskjersundet" />
		<tag k="natural" v="strait" />
		<tag k="ssr:stedsnr" v="466636" />
	</node>
	<node id="-3508" lat="59.027455559" lon="5.43640000743">
		<tag k="name" v="Tormodflua" />
		<tag k="natural" v="shoal" />
		<tag k="place" v="locality" />
		<tag k="ssr:stedsnr" v="466534" />
	</node>
	<node id="-3505" lat="59.1085250023" lon="5.40188610386">
		<tag k="name" v="Sedegrunnen" />
		<tag k="natural" v="shoal" />
		<tag k="place" v="locality" />
		<tag k="ssr:stedsnr" v="465701" />
	</node>
	<node id="-3504" lat="59.0705416631" lon="5.46303888239">
		<tag k="fixme" v="consider seamark:type=rock or natural=shoal" />
		<tag k="name" v="Sandøysloen" />
		<tag k="place" v="islet" />
		<tag k="ssr:stedsnr" v="465693" />
	</node>
	<node id="-3503" lat="59.0726472261" lon="5.40213611636">
		<tag k="name" v="Tønneskjergrunnen" />
		<tag k="natural" v="shoal" />
		<tag k="place" v="locality" />
		<tag k="ssr:stedsnr" v="465686" />
	</node>
	<node id="-3502" lat="59.0743805579" lon="5.41499722259">
		<tag k="name" v="Nordholmsundet" />
		<tag k="natural" v="strait" />
		<tag k="ssr:stedsnr" v="465677" />
	</node>
	<node id="-3501" lat="59.0727361144" lon="5.48954167298">
		<tag k="name" v="Grasskjersundet" />
		<tag k="natural" v="strait" />
		<tag k="ssr:stedsnr" v="465651" />
	</node>
	<node id="-3500" lat="59.0779305601" lon="5.48983055852">
		<tag k="name" v="Austra Ternøybukta" />
		<tag k="natural" v="bay" />
		<tag k="ssr:stedsnr" v="465642" />
	</node>
	<node id="-3499" lat="59.0469333304" lon="5.41068888872">
		<tag k="name" v="Vardholmen" />
		<tag k="place" v="islet" />
		<tag k="ssr:stedsnr" v="298873" />
	</node>
	<node id="-3498" lat="59.0470416663" lon="5.40808056381">
		<tag k="name" v="Piggskjergrunnen" />
		<tag k="natural" v="shoal" />
		<tag k="place" v="locality" />
		<tag k="ssr:stedsnr" v="298869" />
	</node>
	<node id="-3497" lat="59.0488027753" lon="5.40058610893">
		<tag k="name" v="Søra Risøysundet" />
		<tag k="natural" v="strait" />
		<tag k="ssr:stedsnr" v="298862" />
	</node>
	<node id="-3496" lat="59.0461777793" lon="5.42660832583">
		<tag k="name" v="Sandholmflua" />
		<tag k="place" v="locality" />
		<tag k="seamark:type" v="rock" />
		<tag k="ssr:stedsnr" v="298855" />
	</node>
	<node id="-3495" lat="59.054105552" lon="5.42103889526">
		<tag k="name" v="Krossholmen" />
		<tag k="place" v="islet" />
		<tag k="ssr:stedsnr" v="298842" />
	</node>
	<node id="-3494" lat="59.0445944425" lon="5.46911110793">
		<tag k="name" v="Gåsholmen" />
		<tag k="place" v="islet" />
		<tag k="ssr:stedsnr" v="271814" />
	</node>
	<node id="-3493" lat="58.9954027801" lon="5.35544166773">
		<tag k="name" v="Skoraflua" />
		<tag k="place" v="locality" />
		<tag k="seamark:type" v="rock" />
		<tag k="ssr:stedsnr" v="269617" />
	</node>
	<node id="-3492" lat="59.0351416664" lon="5.40168333573">
		<tag k="name" v="Austre Sparholmen" />
		<tag k="place" v="islet" />
		<tag k="ssr:stedsnr" v="453799" />
	</node>
	<node id="-3491" lat="59.0551333348" lon="5.46470000435">
		<tag k="name" v="Oksholmen" />
		<tag k="place" v="islet" />
		<tag k="ssr:stedsnr" v="244515" />
	</node>
	<node id="-3489" lat="59.045452777" lon="5.39584166799">
		<tag k="fixme" v="consider seamark:type=rock or natural=shoal" />
		<tag k="name" v="Trivardaskjer" />
		<tag k="place" v="islet" />
		<tag k="ssr:stedsnr" v="237926" />
	</node>
	<node id="-3488" lat="59.0554611129" lon="5.38854444712">
		<tag k="fixme" v="consider seamark:type=rock or natural=shoal" />
		<tag k="name" v="Gulaskjer" />
		<tag k="place" v="islet" />
		<tag k="ssr:stedsnr" v="224587" />
	</node>
	<node id="-3487" lat="59.0516666637" lon="5.39887221785">
		<tag k="name" v="Bladøyskatet" />
		<tag k="place" v="islet" />
		<tag k="ssr:stedsnr" v="224560" />
	</node>
	<node id="-3486" lat="59.0545611103" lon="5.4082527731">
		<tag k="name" v="Ådnøya" />
		<tag k="place" v="island" />
		<tag k="ssr:stedsnr" v="222666" />
	</node>
	<node id="-3485" lat="59.0720277788" lon="5.42296111856">
		<tag k="name" v="Salthyrna" />
		<tag k="natural" v="cape" />
		<tag k="ssr:stedsnr" v="222654" />
	</node>
	<node id="-3484" lat="59.0559694447" lon="5.4172861035">
		<tag k="name" v="Duøydyna" />
		<tag k="place" v="locality" />
		<tag k="seamark:type" v="rock" />
		<tag k="ssr:stedsnr" v="298836" />
	</node>
	<node id="-3483" lat="59.0579166704" lon="5.46318888158">
		<tag k="name" v="Nordre Oksholmgrunnen" />
		<tag k="natural" v="shoal" />
		<tag k="place" v="locality" />
		<tag k="ssr:stedsnr" v="298634" />
	</node>
	<node id="-3482" lat="59.0104250041" lon="5.38244721494">
		<tag k="fixme" v="consider seamark:type=rock or natural=shoal" />
		<tag k="name" v="Seiaskjera" />
		<tag k="place" v="islet" />
		<tag k="ssr:stedsnr" v="298591" />
	</node>
	<node id="-3481" lat="59.019069445" lon="5.37618889321">
		<tag k="name" v="Midgrunnen" />
		<tag k="natural" v="shoal" />
		<tag k="place" v="locality" />
		<tag k="ssr:stedsnr" v="298586" />
	</node>
	<node id="-3480" lat="59.0728166637" lon="5.416994439">
		<tag k="name" v="Nordbøvågen" />
		<tag k="natural" v="bay" />
		<tag k="ssr:stedsnr" v="296977" />
	</node>
	<node id="-3479" lat="59.0881833354" lon="5.49689166257">
		<tag k="alt_name" v="Kjerringholmen;Store Kjerringa" />
		<tag k="name" v="Stora Kjeringa" />
		<tag k="place" v="islet" />
		<tag k="ssr:stedsnr" v="183310" />
	</node>
	<node id="-3478" lat="59.055594446" lon="5.41315277164">
		<tag k="fixme" v="consider seamark:type=rock or natural=shoal" />
		<tag k="name" v="Midtra Fånøyskjeret" />
		<tag k="place" v="islet" />
		<tag k="ssr:stedsnr" v="285610" />
	</node>
	<node id="-3477" lat="59.051341664" lon="5.38463334179">
		<tag k="fixme" v="consider seamark:type=rock or natural=shoal" />
		<tag k="name" v="Sivåta" />
		<tag k="place" v="islet" />
		<tag k="ssr:stedsnr" v="285572" />
	</node>
	<node id="-3476" lat="59.0500916667" lon="5.39495555594">
		<tag k="fixme" v="consider seamark:type=rock or natural=shoal" />
		<tag k="name" v="Skotholmnakken" />
		<tag k="place" v="islet" />
		<tag k="ssr:stedsnr" v="285569" />
	</node>
	<node id="-3475" lat="59.0635416677" lon="5.38856945117">
		<tag k="name" v="Djupasund" />
		<tag k="natural" v="strait" />
		<tag k="ssr:stedsnr" v="283958" />
	</node>
	<node id="-3474" lat="59.0574138876" lon="5.4311833405">
		<tag k="name" v="Skarvagrunnen" />
		<tag k="place" v="locality" />
		<tag k="seamark:type" v="rock" />
		<tag k="ssr:stedsnr" v="283850" />
	</node>
	<node id="-3473" lat="59.0603472261" lon="5.40496110783">
		<tag k="name" v="Haganeset" />
		<tag k="natural" v="cape" />
		<tag k="ssr:stedsnr" v="283838" />
	</node>
	<node id="-3472" lat="59.0606666637" lon="5.40185554944">
		<tag k="fixme" v="consider seamark:type=rock or natural=shoal" />
		<tag k="name" v="Skjåskjeret" />
		<tag k="place" v="islet" />
		<tag k="ssr:stedsnr" v="283834" />
	</node>
	<node id="-3471" lat="59.0580944454" lon="5.40893054884">
		<tag k="name" v="Straumsund" />
		<tag k="natural" v="strait" />
		<tag k="ssr:stedsnr" v="283830" />
	</node>
	<node id="-3470" lat="59.0738472263" lon="5.41266111933">
		<tag k="name" v="Tjørnavika" />
		<tag k="natural" v="bay" />
		<tag k="ssr:stedsnr" v="283668" />
	</node>
	<node id="-3469" lat="59.0741416705" lon="5.49964722882">
		<tag k="name" v="Austre Nygrunnen" />
		<tag k="natural" v="shoal" />
		<tag k="place" v="locality" />
		<tag k="ssr:stedsnr" v="283633" />
	</node>
	<node id="-3468" lat="59.0473583297" lon="5.37626110721">
		<tag k="name" v="Søra Svortingflua" />
		<tag k="natural" v="shoal" />
		<tag k="place" v="locality" />
		<tag k="ssr:stedsnr" v="282389" />
	</node>
	<node id="-3467" lat="59.0744277747" lon="5.44116389195">
		<tag k="name" v="Austre Jartholmgrunnen" />
		<tag k="natural" v="shoal" />
		<tag k="place" v="locality" />
		<tag k="ssr:stedsnr" v="282301" />
	</node>
	<node id="-3466" lat="59.037922218" lon="5.39752222746">
		<tag k="name" v="Søra Buøysundet" />
		<tag k="natural" v="strait" />
		<tag k="ssr:stedsnr" v="163602" />
	</node>
	<node id="-3465" lat="59.0421305529" lon="5.42129166203">
		<tag k="name" v="Sandholmen" />
		<tag k="place" v="islet" />
		<tag k="ssr:stedsnr" v="162713" />
	</node>
	<node id="-3464" lat="59.0041999958" lon="5.41066666724">
		<tag k="name" v="Hugasundet" />
		<tag k="natural" v="strait" />
		<tag k="ssr:stedsnr" v="162524" />
	</node>
	<node id="-3462" lat="59.0502805556" lon="5.41496389174">
		<tag k="name" v="Austre Langholmen" />
		<tag k="place" v="islet" />
		<tag k="ssr:stedsnr" v="161423" />
	</node>
	<node id="-3461" lat="59.0610194483" lon="5.40646110713">
		<tag k="name" v="Skjeravågen" />
		<tag k="natural" v="bay" />
		<tag k="ssr:stedsnr" v="161412" />
	</node>
	<node id="-3460" lat="59.0735861082" lon="5.43931388985">
		<tag k="name" v="Jartholmen" />
		<tag k="place" v="islet" />
		<tag k="ssr:stedsnr" v="146568" />
	</node>
	<node id="-3459" lat="59.0004583369" lon="5.39149166601">
		<tag k="name" v="Higlafluene" />
		<tag k="place" v="locality" />
		<tag k="seamark:type" v="rock" />
		<tag k="ssr:stedsnr" v="146564" />
	</node>
	<node id="-3458" lat="59.0582166637" lon="5.41596945209">
		<tag k="name" v="Vollsøya" />
		<tag k="place" v="island" />
		<tag k="ssr:stedsnr" v="146556" />
	</node>
	<node id="-3457" lat="59.046083335" lon="5.39821944064">
		<tag k="name" v="Mattisfluene" />
		<tag k="natural" v="shoal" />
		<tag k="place" v="locality" />
		<tag k="ssr:stedsnr" v="116910" />
	</node>
	<node id="-3456" lat="59.0601583372" lon="5.38939444489">
		<tag k="name" v="Hesthagneset" />
		<tag k="natural" v="cape" />
		<tag k="ssr:stedsnr" v="116402" />
	</node>
	<node id="-3455" lat="59.0575749971" lon="5.4086722308">
		<tag k="fixme" v="consider seamark:type=rock or natural=shoal" />
		<tag k="name" v="Kalvaskjerklubben" />
		<tag k="place" v="islet" />
		<tag k="ssr:stedsnr" v="101854" />
	</node>
	<node id="-3453" lat="59.045389617" lon="5.41736265894">
		<tag k="fixme" v="consider seamark:type=rock or natural=shoal" />
		<tag k="name" v="Svartabeistet" />
		<tag k="place" v="islet" />
		<tag k="ssr:stedsnr" v="244531" />
	</node>
	<node id="-3452" lat="59.0644638858" lon="5.46703333267">
		<tag k="name" v="Sandholmen" />
		<tag k="place" v="islet" />
		<tag k="ssr:stedsnr" v="244488" />
	</node>
	<node id="-3451" lat="59.0430611087" lon="5.39776944545">
		<tag k="name" v="Vestra Buøya" />
		<tag k="place" v="island" />
		<tag k="ssr:stedsnr" v="244523" />
	</node>
	<node id="-3450" lat="59.0532694456" lon="5.44290555962">
		<tag k="name" v="Krågøyosen" />
		<tag k="natural" v="strait" />
		<tag k="ssr:stedsnr" v="244519" />
	</node>
	<node id="-3449" lat="59.043761112" lon="5.43900276907">
		<tag k="name" v="Hansagrunnen" />
		<tag k="natural" v="shoal" />
		<tag k="place" v="locality" />
		<tag k="ssr:stedsnr" v="237990" />
	</node>
	<node id="-3448" lat="59.0397638882" lon="5.3897749978">
		<tag k="name" v="Buøyflua" />
		<tag k="natural" v="shoal" />
		<tag k="place" v="locality" />
		<tag k="ssr:stedsnr" v="237929" />
	</node>
	<node id="-3447" lat="59.0468333293" lon="5.40738612015">
		<tag k="name" v="Piggskjer" />
		<tag k="place" v="islet" />
		<tag k="ssr:stedsnr" v="237885" />
	</node>
	<node id="-3446" lat="59.0497638899" lon="5.40346945099">
		<tag k="name" v="Hansholmen" />
		<tag k="place" v="islet" />
		<tag k="ssr:stedsnr" v="237880" />
	</node>
	<node id="-3445" lat="59.0476166653" lon="5.4537111197">
		<tag k="name" v="Bussholmflua" />
		<tag k="natural" v="shoal" />
		<tag k="place" v="locality" />
		<tag k="ssr:stedsnr" v="237656" />
	</node>
	<node id="-3444" lat="59.0120555532" lon="5.37131389418">
		<tag k="fixme" v="consider seamark:type=rock or natural=shoal" />
		<tag k="name" v="Kobbalorten" />
		<tag k="place" v="islet" />
		<tag k="ssr:stedsnr" v="55576" />
	</node>
	<node id="-3443" lat="59.0496083359" lon="5.44572222256">
		<tag k="name" v="Rasmussen" />
		<tag k="natural" v="shoal" />
		<tag k="place" v="locality" />
		<tag k="ssr:stedsnr" v="55605" />
	</node>
	<node id="-3441" lat="59.072536112" lon="5.39195278">
		<tag k="name" v="Knutagrunnen" />
		<tag k="natural" v="shoal" />
		<tag k="place" v="locality" />
		<tag k="ssr:stedsnr" v="237454" />
	</node>
	<node id="-3439" lat="59.0613638847" lon="5.3858666671">
		<tag k="alt_name" v="Revingskjeret" />
		<tag k="fixme" v="consider seamark:type=rock or natural=shoal" />
		<tag k="name" v="Revingsskjeret" />
		<tag k="place" v="islet" />
		<tag k="ssr:stedsnr" v="237408" />
	</node>
	<node id="-3438" lat="59.0771777743" lon="5.43206110793">
		<tag k="fixme" v="consider seamark:type=rock or natural=shoal" />
		<tag k="name" v="Skota" />
		<tag k="place" v="islet" />
		<tag k="ssr:stedsnr" v="237261" />
	</node>
	<node id="-3437" lat="59.0256694453" lon="5.42150278635">
		<tag k="name" v="Tollusen" />
		<tag k="natural" v="shoal" />
		<tag k="place" v="locality" />
		<tag k="ssr:stedsnr" v="41525" />
	</node>
	<node id="-3436" lat="59.0569361113" lon="5.41805555367">
		<tag k="name" v="Betjenargrunnen" />
		<tag k="place" v="locality" />
		<tag k="seamark:type" v="rock" />
		<tag k="ssr:stedsnr" v="40854" />
	</node>
	<node id="-3435" lat="59.0876277807" lon="5.49016666013">
		<tag k="name" v="Skarvaberget" />
		<tag k="natural" v="cape" />
		<tag k="ssr:stedsnr" v="40651" />
	</node>
	<node id="-3434" lat="59.0706555544" lon="5.42952778311">
		<tag k="name" v="Vintrahamn" />
		<tag k="natural" v="bay" />
		<tag k="ssr:stedsnr" v="39272" />
	</node>
	<node id="-3433" lat="59.037113893" lon="5.4037444384">
		<tag k="fixme" v="consider seamark:type=rock or natural=shoal" />
		<tag k="name" v="Harangskjera" />
		<tag k="place" v="islet" />
		<tag k="ssr:stedsnr" v="224593" />
	</node>
	<node id="-3432" lat="59.0079499959" lon="5.39553333062">
		<tag k="name" v="Hoggafluene" />
		<tag k="natural" v="shoal" />
		<tag k="place" v="locality" />
		<tag k="ssr:stedsnr" v="223533" />
	</node>
	<node id="-3431" lat="59.0118888909" lon="5.41762222334">
		<tag k="name" v="Gunnaren" />
		<tag k="natural" v="shoal" />
		<tag k="place" v="locality" />
		<tag k="ssr:stedsnr" v="223527" />
	</node>
	<node id="-3430" lat="59.0689388905" lon="5.42728055621">
		<tag k="name" v="Vad" />
		<tag k="natural" v="strait" />
		<tag k="ssr:stedsnr" v="222964" />
	</node>
	<node id="-3428" lat="59.0602027807" lon="5.42864165989">
		<tag k="name" v="Olskårsvikane" />
		<tag k="natural" v="bay" />
		<tag k="ssr:stedsnr" v="222833" />
	</node>
	<node id="-3427" lat="59.0619694463" lon="5.4307277844">
		<tag k="name" v="Stevelsholmflua" />
		<tag k="place" v="locality" />
		<tag k="seamark:type" v="rock" />
		<tag k="ssr:stedsnr" v="222831" />
	</node>
	<node id="-3426" lat="59.0703166649" lon="5.46636110976">
		<tag k="fixme" v="consider seamark:type=rock or natural=shoal" />
		<tag k="name" v="Måkaskjera" />
		<tag k="place" v="islet" />
		<tag k="ssr:stedsnr" v="222672" />
	</node>
	<node id="-3425" lat="59.0858166693" lon="5.49194166173">
		<tag k="name" v="Eimebukta" />
		<tag k="natural" v="bay" />
		<tag k="ssr:stedsnr" v="222640" />
	</node>
	<node id="-3424" lat="59.0843000036" lon="5.49008889229">
		<tag k="name" v="Gulenakken" />
		<tag k="natural" v="cape" />
		<tag k="ssr:stedsnr" v="222637" />
	</node>
	<node id="-3423" lat="59.0787361085" lon="5.49041389707">
		<tag k="fixme" v="consider seamark:type=rock or natural=shoal" />
		<tag k="name" v="Ternøyskjeret" />
		<tag k="place" v="islet" />
		<tag k="ssr:stedsnr" v="222613" />
	</node>
	<node id="-3422" lat="59.056100004" lon="5.38282499159">
		<tag k="fixme" v="consider seamark:type=rock or natural=shoal" />
		<tag k="name" v="Revingsloane" />
		<tag k="place" v="islet" />
		<tag k="ssr:stedsnr" v="222387" />
	</node>
</osm>
