<?xml version="1.0" encoding="UTF-8"?>
<<<<<<< HEAD
<osm version="0.6" generator="osmapis">
	<node lat="59.06089722365671" lon="5.416369441617908" id="-684">
		<tag k="name" v="Vollsøya" />
		<tag k="place" v="quarter" />
		<tag k="ssr:stedsnr" v="237544" />
	</node>
	<node lat="59.06737846605026" lon="5.433631282483155" id="-739">
		<tag k="alt_name" v="Kvitsøen;Vidding" />
		<tag k="fixme" v="consider place=hamlet" />
		<tag k="name" v="Kviting" />
		<tag k="place" v="farm" />
		<tag k="ssr:stedsnr" v="244504" />
	</node>
	<node lat="59.06225555913593" lon="5.402438884416947" id="-768">
		<tag k="alt_name" v="Ystabøhamn" />
		<tag k="name" v="Ydstebøhamn" />
		<tag k="place" v="village" />
		<tag k="ssr:stedsnr" v="329369" />
	</node>
	<node lat="59.06889296145809" lon="5.413131549545694" id="-861">
		<tag k="alt_name" v="Norbø" />
		<tag k="fixme" v="consider place=hamlet" />
		<tag k="name" v="Nordbø" />
		<tag k="place" v="farm" />
		<tag k="ssr:stedsnr" v="729476" />
	</node>
	<node lat="59.061017053384674" lon="5.3963348714002795" id="-895">
=======
<osm generator="osmapis" version="0.6">
	<node id="-36255" lat="59.0610170534" lon="5.3963348714">
>>>>>>> e1d4bc35ff8a6074a6f2e91616a996b547c36f15
		<tag k="alt_name" v="Ystabø" />
		<tag k="fixme" v="consider place=hamlet" />
		<tag k="name" v="Ydstebø" />
		<tag k="place" v="farm" />
		<tag k="ssr:stedsnr" v="851438" />
	</node>
<<<<<<< HEAD
	<node lat="59.061401787660714" lon="5.409650949397763" id="-929">
		<tag k="fixme" v="consider place=hamlet" />
		<tag k="name" v="Naustvoll" />
		<tag k="place" v="farm" />
		<tag k="ssr:stedsnr" v="54974" />
	</node>
	<node lat="59.066897218591315" lon="5.429480564630154" id="-970">
=======
	<node id="-35806" lat="59.0608972237" lon="5.41636944162">
		<tag k="name" v="Vollsøya" />
		<tag k="place" v="quarter" />
		<tag k="ssr:stedsnr" v="237544" />
	</node>
	<node id="-36092" lat="59.0668972186" lon="5.42948056463">
>>>>>>> e1d4bc35ff8a6074a6f2e91616a996b547c36f15
		<tag k="fixme" v="consider place=suburb, village or hamlet" />
		<tag k="name" v="Leiasund" />
		<tag k="place" v="quarter" />
		<tag k="ssr:stedsnr" v="161333" />
	</node>
<<<<<<< HEAD
	<node lat="59.06318851624213" lon="5.406391496449312" id="-1013">
		<tag k="fixme" v="consider place=hamlet" />
		<tag k="name" v="Meling" />
		<tag k="place" v="farm" />
		<tag k="ssr:stedsnr" v="304468" />
	</node>
	<node lat="59.05953610685149" lon="5.412672223062697" id="-1032">
=======
	<node id="-36119" lat="59.0622555591" lon="5.40243888442">
		<tag k="alt_name" v="Ystabøhamn" />
		<tag k="name" v="Ydstebøhamn" />
		<tag k="place" v="village" />
		<tag k="ssr:stedsnr" v="329369" />
	</node>
	<node id="-35893" lat="59.0595361069" lon="5.41267222306">
>>>>>>> e1d4bc35ff8a6074a6f2e91616a996b547c36f15
		<tag k="name" v="Naustvoll" />
		<tag k="place" v="quarter" />
		<tag k="ssr:stedsnr" v="359566" />
	</node>
<<<<<<< HEAD
	<node lat="59.05833888899479" lon="5.416461118005296" id="-1100">
		<tag k="name" v="Vollsøya" />
		<tag k="place" v="quarter" />
		<tag k="ssr:stedsnr" v="662548" />
	</node>
	<node lat="59.065728779022656" lon="5.398673052222968" id="-1162">
=======
	<node id="-35955" lat="59.0704364092" lon="5.41447548589">
		<tag k="fixme" v="consider place=hamlet" />
		<tag k="name" v="Norbø" />
		<tag k="place" v="farm" />
		<tag k="ssr:stedsnr" v="729476" />
	</node>
	<node id="-36114" lat="59.0631885162" lon="5.40639149645">
		<tag k="fixme" v="consider place=hamlet" />
		<tag k="name" v="Meling" />
		<tag k="place" v="farm" />
		<tag k="ssr:stedsnr" v="304468" />
	</node>
	<node id="-36272" lat="59.065728779" lon="5.39867305222">
>>>>>>> e1d4bc35ff8a6074a6f2e91616a996b547c36f15
		<tag k="fixme" v="consider place=hamlet" />
		<tag k="name" v="Håland" />
		<tag k="place" v="farm" />
		<tag k="ssr:stedsnr" v="964972" />
	</node>
<<<<<<< HEAD
=======
	<node id="-35854" lat="59.0673784661" lon="5.43363128248">
		<tag k="alt_name" v="Kvitsøen;Vidding" />
		<tag k="fixme" v="consider place=hamlet" />
		<tag k="name" v="Kviting" />
		<tag k="place" v="farm" />
		<tag k="ssr:stedsnr" v="244504" />
	</node>
	<node id="-35913" lat="59.058338889" lon="5.41646111801">
		<tag k="name" v="Vollsøya" />
		<tag k="place" v="quarter" />
		<tag k="ssr:stedsnr" v="662548" />
	</node>
	<node id="-35804" lat="59.0614017877" lon="5.4096509494">
		<tag k="fixme" v="consider place=hamlet" />
		<tag k="name" v="Naustvoll" />
		<tag k="place" v="farm" />
		<tag k="ssr:stedsnr" v="54974" />
	</node>
>>>>>>> e1d4bc35ff8a6074a6f2e91616a996b547c36f15
</osm>
