<?xml version="1.0" encoding="UTF-8"?>
<osm version="0.6" generator="osmapis">
	<node lat="59.65860000008443" lon="6.784819441705284" id="-34500">
		<tag k="name" v="Brattlandsdalåa" />
		<tag k="ssr:stedsnr" v="3049" />
		<tag k="waterway" v="river" />
	</node>
	<node lat="59.94698333553837" lon="6.597666661604388" id="-34501">
		<tag k="loc_name" v="Låtevatn" />
		<tag k="name" v="Lotevatnet" />
		<tag k="natural" v="water" />
		<tag k="ssr:stedsnr" v="3122" />
		<tag k="water" v="lake" />
	</node>
	<node lat="59.97686039723596" lon="6.556214520881841" id="-34504">
		<tag k="name" v="Niptjørn" />
		<tag k="natural" v="water" />
		<tag k="ssr:stedsnr" v="3371" />
	</node>
	<node lat="59.96462702586441" lon="6.584752898287415" id="-34505">
		<tag k="alt_name" v="Søkkjetjørn" />
		<tag k="name" v="Sokkatjørn" />
		<tag k="natural" v="water" />
		<tag k="ssr:stedsnr" v="3389" />
	</node>
	<node lat="60.10084463298244" lon="6.487488665124606" id="-34507">
		<tag k="alt_name" v="Kvanngrødvatnet, nedre" />
		<tag k="loc_name" v="Nedsta Kvanngrøvatnet" />
		<tag k="name" v="Nedre Kvanngrødvatnet" />
		<tag k="natural" v="water" />
		<tag k="ssr:stedsnr" v="4117" />
	</node>
	<node lat="59.89755833171355" lon="6.679361119512443" id="-34509">
		<tag k="name" v="Nyastølsvatnet" />
		<tag k="natural" v="water" />
		<tag k="ssr:stedsnr" v="4175" />
		<tag k="water" v="lake" />
	</node>
	<node lat="59.88051889063764" lon="6.98394185110444" id="-34519">
		<tag k="loc_name" v="Austra Middyrvatnet" />
		<tag k="name" v="Middyrvatnet" />
		<tag k="natural" v="water" />
		<tag k="ssr:stedsnr" v="4604" />
		<tag k="water" v="lake" />
	</node>
	<node lat="59.77646944868972" lon="6.7965166650509" id="-34523">
		<tag k="name" v="Risebekk" />
		<tag k="ssr:stedsnr" v="4822" />
		<tag k="waterway" v="stream" />
	</node>
	<node lat="60.3166472248126" lon="6.32989166877782" id="-34527">
		<tag k="alt_name" v="Manavikelvi" />
		<tag k="name" v="Monavikelvi" />
		<tag k="ssr:stedsnr" v="5008" />
		<tag k="waterway" v="stream" />
	</node>
	<node lat="60.076683334166596" lon="6.515500004007528" id="-34531">
		<tag k="alt_name" v="Breiskredbekken" />
		<tag k="name" v="Breidskredbekken" />
		<tag k="ssr:stedsnr" v="5072" />
		<tag k="waterway" v="stream" />
	</node>
	<node lat="60.073261111391524" lon="6.469624993886294" id="-34532">
		<tag k="name" v="Blåvatnet" />
		<tag k="natural" v="water" />
		<tag k="ssr:stedsnr" v="5073" />
	</node>
	<node lat="60.28415361512466" lon="7.07728416092915" id="-34551">
		<tag k="name" v="Vatnalivatnet" />
		<tag k="natural" v="water" />
		<tag k="ssr:stedsnr" v="5476" />
		<tag k="water" v="lake" />
	</node>
	<node lat="60.253449082220165" lon="6.831730883859926" id="-34553">
		<tag k="name" v="Langeløk" />
		<tag k="natural" v="water" />
		<tag k="ssr:stedsnr" v="5624" />
	</node>
	<node lat="60.26084350441429" lon="6.268656895763555" id="-34555">
		<tag k="name" v="Kroktjørni" />
		<tag k="natural" v="water" />
		<tag k="ssr:stedsnr" v="5366" />
	</node>
	<node lat="60.191457964243845" lon="6.17739867406635" id="-34559">
		<tag k="name" v="Langavatnet" />
		<tag k="natural" v="water" />
		<tag k="ssr:stedsnr" v="5521" />
	</node>
	<node lat="60.198383331935574" lon="6.230913880274963" id="-34566">
		<tag k="name" v="Demmevatnet" />
		<tag k="natural" v="water" />
		<tag k="ssr:stedsnr" v="5817" />
	</node>
	<node lat="60.239999998670456" lon="6.536650006715336" id="-34567">
		<tag k="alt_name" v="Strutelvi" />
		<tag k="name" v="Strutåna" />
		<tag k="ssr:stedsnr" v="5777" />
		<tag k="waterway" v="stream" />
	</node>
	<node lat="60.27548889129072" lon="6.959905558302076" id="-34569">
		<tag k="name" v="Fossane" />
		<tag k="natural" v="waterfall" />
		<tag k="ssr:stedsnr" v="22189" />
	</node>
	<node lat="60.366096998277804" lon="6.597518743297856" id="-34570">
		<tag k="name" v="Stora Hausanutvatnet" />
		<tag k="natural" v="water" />
		<tag k="ssr:stedsnr" v="22194" />
		<tag k="water" v="lake" />
	</node>
	<node lat="60.41977500009686" lon="6.6162805575146875" id="-34577">
		<tag k="name" v="Vetlebekken" />
		<tag k="ssr:stedsnr" v="38107" />
		<tag k="waterway" v="stream" />
	</node>
	<node lat="60.24822800710041" lon="6.416591435427647" id="-34583">
		<tag k="name" v="Ytstetjørn" />
		<tag k="natural" v="water" />
		<tag k="ssr:stedsnr" v="38064" />
	</node>
	<node lat="60.32190555631907" lon="6.464572226780366" id="-34584">
		<tag k="name" v="Ljosåni" />
		<tag k="ssr:stedsnr" v="38075" />
		<tag k="waterway" v="stream" />
	</node>
	<node lat="59.944366667190806" lon="6.5971611045091105" id="-34587">
		<tag k="name" v="Tymbervika" />
		<tag k="natural" v="bay" />
		<tag k="ssr:stedsnr" v="38396" />
	</node>
	<node lat="59.87541110834249" lon="6.888813894949905" id="-34588">
		<tag k="name" v="Valldalsdammen" />
		<tag k="ssr:stedsnr" v="38502" />
		<tag k="waterway" v="dam" />
	</node>
	<node lat="60.03328001939626" lon="6.575959048264861" id="-34590">
		<tag k="name" v="Lusatjørn" />
		<tag k="natural" v="water" />
		<tag k="ssr:stedsnr" v="38512" />
	</node>
	<node lat="60.3166333320519" lon="6.676622223369191" id="-34593">
		<tag k="name" v="Holmane" />
		<tag k="place" v="islet" />
		<tag k="ssr:stedsnr" v="38524" />
	</node>
	<node lat="60.023199998949245" lon="6.543402770990501" id="-34594">
		<tag k="name" v="Kvernaneset" />
		<tag k="natural" v="cape" />
		<tag k="ssr:stedsnr" v="38530" />
	</node>
	<node lat="60.33202500124658" lon="6.494613897744678" id="-34626">
		<tag k="name" v="Lonena" />
		<tag k="natural" v="water" />
		<tag k="ssr:stedsnr" v="38879" />
		<tag k="water" v="lake" />
	</node>
	<node lat="60.40379167055648" lon="6.580966657668895" id="-34629">
		<tag k="alt_name" v="Demmane" />
		<tag k="name" v="Demmena" />
		<tag k="natural" v="water" />
		<tag k="ssr:stedsnr" v="237169" />
	</node>
	<node lat="59.95037500101089" lon="6.653819452829393" id="-34644">
		<tag k="name" v="Bjørnavadet" />
		<tag k="place" v="locality" />
		<tag k="ssr:stedsnr" v="64122" />
	</node>
	<node lat="59.904200001674646" lon="6.644075004805044" id="-34647">
		<tag k="name" v="Løyningsvatnet" />
		<tag k="natural" v="water" />
		<tag k="ssr:stedsnr" v="64145" />
		<tag k="water" v="lake" />
	</node>
	<node lat="59.92379999640411" lon="6.891788880884655" id="-34649">
		<tag k="name" v="Holdøla" />
		<tag k="ssr:stedsnr" v="64171" />
		<tag k="waterway" v="stream" />
	</node>
	<node lat="59.88570277753554" lon="6.9080361172044435" id="-34650">
		<tag k="name" v="Tangavadet" />
		<tag k="natural" v="shoal" />
		<tag k="place" v="locality" />
		<tag k="ssr:stedsnr" v="64203" />
	</node>
	<node lat="59.959083336245186" lon="7.213425008312828" id="-34654">
		<tag k="name" v="Borda" />
		<tag k="ssr:stedsnr" v="64368" />
		<tag k="waterway" v="river" />
	</node>
	<node lat="59.98433139311442" lon="6.564823619674132" id="-34655">
		<tag k="alt_name" v="Massøyni" />
		<tag k="name" v="Massøyna" />
		<tag k="place" v="island" />
		<tag k="ssr:stedsnr" v="64405" />
	</node>
	<node lat="60.232563884977665" lon="6.8520583413492195" id="-34658">
		<tag k="name" v="Reppo" />
		<tag k="ssr:stedsnr" v="65008" />
		<tag k="waterway" v="river" />
	</node>
	<node lat="59.8159790582552" lon="6.714101555059534" id="-34662">
		<tag k="name" v="Reinsvatnet" />
		<tag k="natural" v="water" />
		<tag k="ssr:stedsnr" v="65217" />
		<tag k="water" v="lake" />
	</node>
	<node lat="59.8160027816994" lon="6.749569440567216" id="-34663">
		<tag k="name" v="Håraelva" />
		<tag k="ssr:stedsnr" v="65218" />
		<tag k="waterway" v="river" />
	</node>
	<node lat="60.13914722121433" lon="6.533302779283873" id="-34667">
		<tag k="name" v="Gjerdfoss" />
		<tag k="natural" v="waterfall" />
		<tag k="ssr:stedsnr" v="65174" />
	</node>
	<node lat="60.231371826975646" lon="6.31784607692442" id="-34674">
		<tag k="name" v="Freddalsvatnet" />
		<tag k="natural" v="water" />
		<tag k="ssr:stedsnr" v="65808" />
	</node>
	<node lat="60.19585833341259" lon="6.506508326629908" id="-34676">
		<tag k="fixme" v="multiple name tags, choose one and add the other to alt_name" />
		<tag k="name" v="Luravatnet;Vetlavatnet" />
		<tag k="natural" v="water" />
		<tag k="ssr:stedsnr" v="65860" />
	</node>
	<node lat="59.855980554652824" lon="7.048463885541715" id="-34679">
		<tag k="name" v="Middyrelva" />
		<tag k="ssr:stedsnr" v="65871" />
		<tag k="waterway" v="stream" />
	</node>
	<node lat="60.32436995168642" lon="6.526557380884311" id="-34682">
		<tag k="alt_name" v="Samladalsvatnet, in" />
		<tag k="name" v="Samladalsvatnet" />
		<tag k="natural" v="water" />
		<tag k="ssr:stedsnr" v="66008" />
		<tag k="water" v="lake" />
	</node>
	<node lat="60.3038055592447" lon="6.692724990748203" id="-34689">
		<tag k="name" v="Skrikjo" />
		<tag k="ssr:stedsnr" v="66306" />
		<tag k="waterway" v="stream" />
	</node>
	<node lat="60.31508610822453" lon="6.392508337924787" id="-34693">
		<tag k="name" v="Orrebekken" />
		<tag k="ssr:stedsnr" v="66047" />
		<tag k="waterway" v="stream" />
	</node>
	<node lat="60.323494605103534" lon="6.812745680416588" id="-34699">
		<tag k="name" v="Rjuvavatnet" />
		<tag k="natural" v="water" />
		<tag k="ssr:stedsnr" v="66297" />
		<tag k="water" v="lake" />
	</node>
	<node lat="59.97114999866057" lon="6.717994444030287" id="-34707">
		<tag k="loc_name" v="Storetjørna;Storatjørn" />
		<tag k="name" v="Storetjørni" />
		<tag k="natural" v="water" />
		<tag k="ssr:stedsnr" v="81523" />
	</node>
	<node lat="59.930663891053605" lon="6.669405561341681" id="-34715">
		<tag k="name" v="Sandabekken" />
		<tag k="ssr:stedsnr" v="246174" />
		<tag k="waterway" v="stream" />
	</node>
	<node lat="59.977061482764235" lon="6.518373161687521" id="-34718">
		<tag k="name" v="Vierdalsloni" />
		<tag k="natural" v="water" />
		<tag k="ssr:stedsnr" v="246397" />
	</node>
	<node lat="59.96503888944432" lon="6.534136110889158" id="-34719">
		<tag k="name" v="Andaretjørn" />
		<tag k="natural" v="water" />
		<tag k="ssr:stedsnr" v="246399" />
	</node>
	<node lat="59.96930282205591" lon="6.540170169916354" id="-34720">
		<tag k="name" v="Leitetjørn" />
		<tag k="natural" v="water" />
		<tag k="ssr:stedsnr" v="246400" />
	</node>
	<node lat="59.8106836721521" lon="6.901237941080645" id="-34722">
		<tag k="name" v="Austmannatjørna" />
		<tag k="natural" v="water" />
		<tag k="ssr:stedsnr" v="246764" />
	</node>
	<node lat="59.798750002002784" lon="6.771408339439292" id="-34723">
		<tag k="name" v="Vikanes" />
		<tag k="natural" v="cape" />
		<tag k="ssr:stedsnr" v="246755" />
	</node>
	<node lat="60.14988055682052" lon="6.529866658130286" id="-34731">
		<tag k="name" v="Skyrfosselvi" />
		<tag k="ssr:stedsnr" v="247172" />
		<tag k="waterway" v="stream" />
	</node>
	<node lat="59.83489166501982" lon="6.612977774771972" id="-34739">
		<tag k="name" v="Steinatjørnane" />
		<tag k="natural" v="water" />
		<tag k="ssr:stedsnr" v="247226" />
		<tag k="water" v="lake" />
	</node>
	<node lat="60.184452777004516" lon="6.981972220149486" id="-34743">
		<tag k="name" v="Stora Kinso" />
		<tag k="ssr:stedsnr" v="247295" />
		<tag k="waterway" v="river" />
	</node>
	<node lat="60.130863893022216" lon="6.743130555705196" id="-34747">
		<tag k="name" v="Tysso" />
		<tag k="ssr:stedsnr" v="247398" />
		<tag k="waterway" v="river" />
	</node>
	<node lat="60.40428480582494" lon="6.823054950983371" id="-34749">
		<tag k="name" v="Steintjørnane" />
		<tag k="natural" v="water" />
		<tag k="ssr:stedsnr" v="248338" />
		<tag k="water" v="lake" />
	</node>
	<node lat="60.40626944767363" lon="6.740852778698605" id="-34751">
		<tag k="alt_name" v="Maurelvi" />
		<tag k="name" v="Mauro" />
		<tag k="ssr:stedsnr" v="248343" />
		<tag k="waterway" v="stream" />
	</node>
	<node lat="60.09618888610598" lon="6.54881944066901" id="-34752">
		<tag k="name" v="Slevebekken" />
		<tag k="ssr:stedsnr" v="247092" />
		<tag k="waterway" v="stream" />
	</node>
	<node lat="60.23770555309398" lon="6.971594450127121" id="-34753">
		<tag k="name" v="Kinsevatnet" />
		<tag k="natural" v="water" />
		<tag k="ssr:stedsnr" v="247327" />
		<tag k="water" v="lake" />
	</node>
	<node lat="60.030408335676434" lon="6.802622218395163" id="-34754">
		<tag k="name" v="Nordra Blåvatnet" />
		<tag k="natural" v="water" />
		<tag k="ssr:stedsnr" v="247336" />
		<tag k="water" v="lake" />
	</node>
	<node lat="60.13650728317609" lon="6.75398207125006" id="-34757">
		<tag k="name" v="Tyssestrengene" />
		<tag k="natural" v="waterfall" />
		<tag k="ssr:stedsnr" v="247443" />
	</node>
	<node lat="60.20910277985421" lon="6.619963891270428" id="-34760">
		<tag k="alt_name" v="Skreda" />
		<tag k="name" v="Skredo" />
		<tag k="ssr:stedsnr" v="247453" />
		<tag k="waterway" v="stream" />
	</node>
	<node lat="60.23701388856771" lon="6.203894436102223" id="-34765">
		<tag k="name" v="Torsneselva" />
		<tag k="ssr:stedsnr" v="247721" />
		<tag k="waterway" v="stream" />
	</node>
	<node lat="60.238903019348975" lon="6.234349831378538" id="-34766">
		<tag k="name" v="Vassvikane" />
		<tag k="natural" v="bay" />
		<tag k="ssr:stedsnr" v="247781" />
	</node>
	<node lat="60.22938611054433" lon="6.220949994780108" id="-34768">
		<tag k="name" v="Halvgjengesbekkene" />
		<tag k="ssr:stedsnr" v="247793" />
		<tag k="waterway" v="stream" />
	</node>
	<node lat="60.132425001493026" lon="6.170108330894042" id="-34770">
		<tag k="name" v="Hessvikelva" />
		<tag k="ssr:stedsnr" v="98160" />
		<tag k="waterway" v="river" />
	</node>
	<node lat="59.746961107099686" lon="6.761022220124624" id="-34771">
		<tag k="name" v="Nipebekken" />
		<tag k="ssr:stedsnr" v="98361" />
		<tag k="waterway" v="stream" />
	</node>
	<node lat="59.78990833251984" lon="6.76684444945618" id="-34783">
		<tag k="name" v="Veslaelva" />
		<tag k="ssr:stedsnr" v="99316" />
		<tag k="waterway" v="river" />
	</node>
	<node lat="59.784330553223484" lon="6.790033331658623" id="-34785">
		<tag k="name" v="Stuvaledbekken" />
		<tag k="ssr:stedsnr" v="99364" />
		<tag k="waterway" v="stream" />
	</node>
	<node lat="59.81506110815777" lon="6.8162861043302385" id="-34786">
		<tag k="name" v="Gjertrabekk" />
		<tag k="ssr:stedsnr" v="99367" />
		<tag k="waterway" v="stream" />
	</node>
	<node lat="59.86227777576773" lon="6.855450004439337" id="-34807">
		<tag k="name" v="Fellesteinsbekken" />
		<tag k="ssr:stedsnr" v="99484" />
		<tag k="waterway" v="stream" />
	</node>
	<node lat="60.1188083368888" lon="6.603969436278259" id="-34824">
		<tag k="name" v="Smibekken" />
		<tag k="ssr:stedsnr" v="99710" />
		<tag k="waterway" v="stream" />
	</node>
	<node lat="60.36675000216244" lon="6.631733340014664" id="-34837">
		<tag k="name" v="Haustveitelvi" />
		<tag k="ssr:stedsnr" v="99873" />
		<tag k="waterway" v="river" />
	</node>
	<node lat="60.17359444244381" lon="6.549758325157326" id="-34849">
		<tag k="name" v="Osen" />
		<tag k="natural" v="bay" />
		<tag k="ssr:stedsnr" v="99980" />
	</node>
	<node lat="60.237466670258144" lon="6.5546333369098955" id="-34850">
		<tag k="name" v="Millomå" />
		<tag k="ssr:stedsnr" v="99982" />
		<tag k="waterway" v="stream" />
	</node>
	<node lat="60.30803796106636" lon="6.91588144114874" id="-34854">
		<tag k="name" v="Lonavatnet" />
		<tag k="natural" v="water" />
		<tag k="ssr:stedsnr" v="248292" />
		<tag k="water" v="lake" />
	</node>
	<node lat="60.253147246226085" lon="6.344174599799281" id="-34857">
		<tag k="name" v="Grytingsvatnet" />
		<tag k="natural" v="water" />
		<tag k="ssr:stedsnr" v="248376" />
		<tag k="water" v="lake" />
	</node>
	<node lat="60.26403952254832" lon="6.3135277403762355" id="-34859">
		<tag k="name" v="Snodalstjørni" />
		<tag k="natural" v="water" />
		<tag k="ssr:stedsnr" v="248480" />
	</node>
	<node lat="60.28527499733726" lon="6.931852780164714" id="-34868">
		<tag k="name" v="Austmannavatnet" />
		<tag k="natural" v="water" />
		<tag k="ssr:stedsnr" v="248688" />
		<tag k="water" v="lake" />
	</node>
	<node lat="60.277605552806065" lon="6.852902782306549" id="-34869">
		<tag k="name" v="Gravdalsvatnet" />
		<tag k="natural" v="water" />
		<tag k="ssr:stedsnr" v="248693" />
		<tag k="water" v="lake" />
	</node>
	<node lat="60.014069448317464" lon="6.489424994221769" id="-34888">
		<tag k="name" v="Kvanndalsvatn" />
		<tag k="natural" v="water" />
		<tag k="ssr:stedsnr" v="125018" />
	</node>
	<node lat="60.01391090734043" lon="6.458513439708205" id="-34889">
		<tag k="name" v="Blåvatn" />
		<tag k="natural" v="water" />
		<tag k="ssr:stedsnr" v="125023" />
	</node>
	<node lat="60.05394181494776" lon="6.6631236768552125" id="-34896">
		<tag k="name" v="Vetlatjørn" />
		<tag k="natural" v="water" />
		<tag k="ssr:stedsnr" v="125410" />
	</node>
	<node lat="59.99784444626222" lon="6.515388882606645" id="-34897">
		<tag k="name" v="Midtstølsbekken" />
		<tag k="ssr:stedsnr" v="125430" />
		<tag k="waterway" v="stream" />
	</node>
	<node lat="59.98222222408799" lon="6.51908889613046" id="-34898">
		<tag k="name" v="Årebukti" />
		<tag k="place" v="locality" />
		<tag k="ssr:stedsnr" v="125431" />
	</node>
	<node lat="59.98951154097831" lon="6.565373308244785" id="-34900">
		<tag k="alt_name" v="Orøyni" />
		<tag k="name" v="Orrøyna" />
		<tag k="place" v="island" />
		<tag k="ssr:stedsnr" v="125437" />
	</node>
	<node lat="59.98763506141539" lon="6.5251603547783645" id="-34901">
		<tag k="name" v="Midtstølsvatnet" />
		<tag k="natural" v="water" />
		<tag k="ssr:stedsnr" v="125439" />
		<tag k="water" v="lake" />
	</node>
	<node lat="60.106064314988075" lon="6.928595188536359" id="-34902">
		<tag k="name" v="Nedsta Håvardsvatnet" />
		<tag k="natural" v="water" />
		<tag k="ssr:stedsnr" v="125451" />
		<tag k="water" v="lake" />
	</node>
	<node lat="59.792950157194355" lon="6.701159522151015" id="-34911">
		<tag k="name" v="Langetjørn" />
		<tag k="natural" v="water" />
		<tag k="ssr:stedsnr" v="125802" />
	</node>
	<node lat="59.85658889171596" lon="7.144102782062764" id="-34914">
		<tag k="name" v="Nupselva" />
		<tag k="ssr:stedsnr" v="125838" />
		<tag k="waterway" v="stream" />
	</node>
	<node lat="60.39477984484866" lon="6.542113124773394" id="-34917">
		<tag k="name" v="Nykkevatnet" />
		<tag k="natural" v="water" />
		<tag k="ssr:stedsnr" v="126154" />
	</node>
	<node lat="60.25140833756766" lon="6.291383338536755" id="-34928">
		<tag k="name" v="Tverrbrekka" />
		<tag k="place" v="locality" />
		<tag k="ssr:stedsnr" v="126398" />
	</node>
	<node lat="60.32346255085366" lon="7.10242226003577" id="-34933">
		<tag k="name" v="Vivetjørnane" />
		<tag k="natural" v="water" />
		<tag k="ssr:stedsnr" v="126520" />
		<tag k="water" v="lake" />
	</node>
	<node lat="60.30483332999745" lon="7.033288891796132" id="-34934">
		<tag k="name" v="Skuggabjørgselvi" />
		<tag k="ssr:stedsnr" v="126521" />
		<tag k="waterway" v="stream" />
	</node>
	<node lat="60.25720103143429" lon="6.704045390575926" id="-34944">
		<tag k="name" v="Raudkleivvatnet" />
		<tag k="natural" v="water" />
		<tag k="ssr:stedsnr" v="126647" />
		<tag k="water" v="lake" />
	</node>
	<node lat="60.256377775655665" lon="6.637427779983576" id="-34945">
		<tag k="name" v="Vetlelvi" />
		<tag k="ssr:stedsnr" v="126650" />
		<tag k="waterway" v="river" />
	</node>
	<node lat="60.269324995885526" lon="6.541588885884095" id="-34951">
		<tag k="name" v="Drivfoss" />
		<tag k="natural" v="waterfall" />
		<tag k="ssr:stedsnr" v="127408" />
	</node>
	<node lat="60.281644294700584" lon="6.2966282421050055" id="-34953">
		<tag k="alt_name" v="Eidesvatnet" />
		<tag k="name" v="Byrkjelandsvatnet" />
		<tag k="natural" v="water" />
		<tag k="ssr:stedsnr" v="127614" />
		<tag k="water" v="lake" />
	</node>
	<node lat="60.061988140980915" lon="7.015704308376439" id="-34954">
		<tag k="name" v="Juklavotni" />
		<tag k="natural" v="water" />
		<tag k="ssr:stedsnr" v="127654" />
		<tag k="water" v="lake" />
	</node>
	<node lat="60.25719444018669" lon="6.236505559047773" id="-34956">
		<tag k="name" v="Skredbekken" />
		<tag k="ssr:stedsnr" v="127399" />
		<tag k="waterway" v="stream" />
	</node>
	<node lat="60.3523916639154" lon="6.619658325714784" id="-34966">
		<tag k="name" v="Kalvatræbekken" />
		<tag k="ssr:stedsnr" v="159254" />
		<tag k="waterway" v="stream" />
	</node>
	<node lat="59.72027154221584" lon="6.754600364631489" id="-34998">
		<tag k="name" v="Langatjørna" />
		<tag k="natural" v="water" />
		<tag k="ssr:stedsnr" v="185232" />
	</node>
	<node lat="60.25203037040985" lon="6.702397851858687" id="-35002">
		<tag k="name" v="Ysjevatnet" />
		<tag k="natural" v="water" />
		<tag k="ssr:stedsnr" v="186012" />
		<tag k="water" v="lake" />
	</node>
	<node lat="60.120366665521345" lon="7.040755556347285" id="-35008">
		<tag k="name" v="Sledalsvatnet" />
		<tag k="natural" v="water" />
		<tag k="ssr:stedsnr" v="186284" />
		<tag k="water" v="lake" />
	</node>
	<node lat="59.91165600539337" lon="6.604057175806537" id="-35009">
		<tag k="name" v="Lontjørnane" />
		<tag k="natural" v="water" />
		<tag k="ssr:stedsnr" v="186177" />
		<tag k="water" v="lake" />
	</node>
	<node lat="59.84031844603474" lon="6.725872995159981" id="-35010">
		<tag k="name" v="Elversvatnet" />
		<tag k="natural" v="water" />
		<tag k="ssr:stedsnr" v="186192" />
	</node>
	<node lat="59.8701108719123" lon="6.809475074530896" id="-35011">
		<tag k="name" v="Tuftevotna" />
		<tag k="natural" v="water" />
		<tag k="ssr:stedsnr" v="186200" />
		<tag k="water" v="lake" />
	</node>
	<node lat="60.12252999721059" lon="6.65576191486307" id="-35014">
		<tag k="name" v="Ringedalsvatnet" />
		<tag k="natural" v="water" />
		<tag k="ssr:stedsnr" v="186475" />
		<tag k="water" v="lake" />
	</node>
	<node lat="59.9543381715866" lon="6.547937903470791" id="-35015">
		<tag k="name" v="Stølsvatnet" />
		<tag k="natural" v="water" />
		<tag k="ssr:stedsnr" v="186490" />
	</node>
	<node lat="60.175586106695256" lon="6.785663887872579" id="-35017">
		<tag k="name" v="Vattagilsløkene" />
		<tag k="natural" v="water" />
		<tag k="ssr:stedsnr" v="186493" />
		<tag k="water" v="lake" />
	</node>
	<node lat="59.95530000390889" lon="7.061627774286855" id="-35026">
		<tag k="name" v="Trossovtjørna" />
		<tag k="natural" v="water" />
		<tag k="ssr:stedsnr" v="186788" />
	</node>
	<node lat="60.02232580122372" lon="6.862179389238605" id="-35032">
		<tag k="loc_name" v="Stora Buatjørna" />
		<tag k="name" v="Stora Buatjørni" />
		<tag k="natural" v="water" />
		<tag k="ssr:stedsnr" v="187332" />
	</node>
	<node lat="60.19719166574412" lon="6.208977771302795" id="-35036">
		<tag k="alt_name" v="Solbjørgsvatnet, vesla;Vesla Solbjørgsvatn" />
		<tag k="name" v="Vetla Solbjørgsvatnet" />
		<tag k="natural" v="water" />
		<tag k="ssr:stedsnr" v="187507" />
		<tag k="water" v="lake" />
	</node>
	<node lat="60.018448680644454" lon="7.204412352002111" id="-35037">
		<tag k="name" v="Sigridtjørni" />
		<tag k="natural" v="water" />
		<tag k="ssr:stedsnr" v="187272" />
	</node>
	<node lat="60.34318622188546" lon="6.789450734766823" id="-35038">
		<tag k="name" v="Nykkjesøyfossen" />
		<tag k="natural" v="waterfall" />
		<tag k="ssr:stedsnr" v="187274" />
	</node>
	<node lat="60.22630833452876" lon="6.561883328622736" id="-35048">
		<tag k="name" v="Fossåna" />
		<tag k="ssr:stedsnr" v="187807" />
		<tag k="waterway" v="stream" />
	</node>
	<node lat="60.20081519143605" lon="6.2616053381234495" id="-35049">
		<tag k="name" v="Kufjellsvatnet" />
		<tag k="natural" v="water" />
		<tag k="ssr:stedsnr" v="187821" />
	</node>
	<node lat="60.44224999988532" lon="6.843758334130212" id="-35071">
		<tag k="name" v="Tverrelvi" />
		<tag k="ssr:stedsnr" v="219403" />
		<tag k="waterway" v="river" />
	</node>
	<node lat="60.36320277811446" lon="6.417591660286446" id="-35076">
		<tag k="name" v="Storåselvi" />
		<tag k="ssr:stedsnr" v="220111" />
		<tag k="waterway" v="river" />
	</node>
	<node lat="60.33860056363667" lon="6.34650916374859" id="-35079">
		<tag k="name" v="Laholmen" />
		<tag k="place" v="islet" />
		<tag k="ssr:stedsnr" v="220082" />
	</node>
	<node lat="59.748180553898955" lon="6.764322229228698" id="-35088">
		<tag k="name" v="Holmabekken" />
		<tag k="ssr:stedsnr" v="220416" />
		<tag k="waterway" v="stream" />
	</node>
	<node lat="60.20302075670044" lon="6.107903385852024" id="-35100">
		<tag k="name" v="Nautaneset" />
		<tag k="natural" v="cape" />
		<tag k="ssr:stedsnr" v="220694" />
	</node>
	<node lat="60.219299998310504" lon="6.14980833986242" id="-35106">
		<tag k="name" v="Blokkebærvika" />
		<tag k="natural" v="bay" />
		<tag k="ssr:stedsnr" v="220715" />
	</node>
	<node lat="60.2621583376781" lon="6.232744451707636" id="-35115">
		<tag k="name" v="Hauganeset" />
		<tag k="natural" v="cape" />
		<tag k="ssr:stedsnr" v="220790" />
	</node>
	<node lat="60.08001462018024" lon="7.304900237774195" id="-35123">
		<tag k="name" v="Øvsta Krokavatnet" />
		<tag k="natural" v="water" />
		<tag k="ssr:stedsnr" v="270923" />
		<tag k="water" v="lake" />
	</node>
	<node lat="60.27176111480143" lon="6.573644441737061" id="-35141">
		<tag k="name" v="Fosseteigbekken" />
		<tag k="ssr:stedsnr" v="221826" />
		<tag k="waterway" v="stream" />
	</node>
	<node lat="60.10287500324522" lon="6.503249998756546" id="-35163">
		<tag k="name" v="Skyrfoss" />
		<tag k="natural" v="waterfall" />
		<tag k="ssr:stedsnr" v="247112" />
	</node>
	<node lat="60.127623406705624" lon="7.270773066280568" id="-35167">
		<tag k="loc_name" v="Grjottjørnane" />
		<tag k="name" v="Grottjørnane" />
		<tag k="natural" v="water" />
		<tag k="ssr:stedsnr" v="247265" />
		<tag k="water" v="lake" />
	</node>
	<node lat="60.09536388980186" lon="7.079577771396076" id="-35168">
		<tag k="name" v="Bergvio" />
		<tag k="ssr:stedsnr" v="247286" />
		<tag k="waterway" v="river" />
	</node>
	<node lat="60.18586684510363" lon="6.743855888816437" id="-35171">
		<tag k="name" v="Kjetilshyl" />
		<tag k="natural" v="water" />
		<tag k="ssr:stedsnr" v="247410" />
	</node>
	<node lat="60.175318054798545" lon="6.707584705323371" id="-35172">
		<tag k="name" v="Øvra Bersavatnet" />
		<tag k="natural" v="water" />
		<tag k="ssr:stedsnr" v="247416" />
		<tag k="water" v="lake" />
	</node>
	<node lat="60.183233331710845" lon="6.959341663007342" id="-35174">
		<tag k="name" v="Vetla Kinso" />
		<tag k="ssr:stedsnr" v="247422" />
		<tag k="waterway" v="river" />
	</node>
	<node lat="60.09003888636612" lon="6.840052771277751" id="-35177">
		<tag k="name" v="Nybuhylen" />
		<tag k="place" v="locality" />
		<tag k="ssr:stedsnr" v="247360" />
	</node>
	<node lat="60.323113891085825" lon="6.4281527744671605" id="-35184">
		<tag k="alt_name" v="Fodnasetvatnet" />
		<tag k="name" v="Fonnastølsvatnet" />
		<tag k="natural" v="water" />
		<tag k="ssr:stedsnr" v="248002" />
	</node>
	<node lat="60.32594243538539" lon="6.4687889277529145" id="-35185">
		<tag k="alt_name" v="Vidalsvatnet" />
		<tag k="name" v="Viddalsvatnet" />
		<tag k="natural" v="water" />
		<tag k="ssr:stedsnr" v="248006" />
		<tag k="water" v="lake" />
	</node>
	<node lat="60.32013541471087" lon="6.447986291061535" id="-35186">
		<tag k="name" v="Tjørnadalstjørn" />
		<tag k="natural" v="water" />
		<tag k="ssr:stedsnr" v="248007" />
	</node>
	<node lat="60.34309140685996" lon="6.465310414803747" id="-35192">
		<tag k="alt_name" v="Tautaretjørn" />
		<tag k="name" v="Tautartjørni" />
		<tag k="natural" v="water" />
		<tag k="ssr:stedsnr" v="248104" />
	</node>
	<node lat="60.36249444310106" lon="6.503038883298333" id="-35195">
		<tag k="name" v="Ytståna" />
		<tag k="ssr:stedsnr" v="248113" />
		<tag k="waterway" v="stream" />
	</node>
	<node lat="60.408855556996556" lon="6.5140500056618205" id="-35198">
		<tag k="name" v="Vinesbekken" />
		<tag k="ssr:stedsnr" v="248166" />
		<tag k="waterway" v="stream" />
	</node>
	<node lat="60.19911502118903" lon="6.1455913088400225" id="-35205">
		<tag k="name" v="Lomavatnet" />
		<tag k="natural" v="water" />
		<tag k="ssr:stedsnr" v="248558" />
	</node>
	<node lat="60.218380558999115" lon="6.563569442401705" id="-35209">
		<tag k="name" v="Skredbekken" />
		<tag k="ssr:stedsnr" v="248849" />
		<tag k="waterway" v="stream" />
	</node>
	<node lat="60.31243610935839" lon="6.5594944384462455" id="-35212">
		<tag k="name" v="Søtetjørna" />
		<tag k="natural" v="water" />
		<tag k="ssr:stedsnr" v="263304" />
	</node>
	<node lat="59.89636842621175" lon="6.670129795910578" id="-35214">
		<tag k="loc_name" v="Løyntjørna" />
		<tag k="name" v="Løyntjørni" />
		<tag k="natural" v="water" />
		<tag k="ssr:stedsnr" v="263505" />
	</node>
	<node lat="60.432069443972196" lon="6.564447228115882" id="-35222">
		<tag k="name" v="Sagbekken" />
		<tag k="ssr:stedsnr" v="281095" />
		<tag k="waterway" v="stream" />
	</node>
	<node lat="59.70488610767947" lon="6.725019443811975" id="-35228">
		<tag k="name" v="Nesabekken" />
		<tag k="ssr:stedsnr" v="281378" />
		<tag k="waterway" v="stream" />
	</node>
	<node lat="60.129136110136" lon="6.512527772681503" id="-35229">
		<tag k="name" v="Fossane" />
		<tag k="natural" v="waterfall" />
		<tag k="ssr:stedsnr" v="281408" />
	</node>
	<node lat="60.19810277597917" lon="6.6280527709704415" id="-35236">
		<tag k="loc_name" v="Vetlåna" />
		<tag k="name" v="Vesleelvi" />
		<tag k="ssr:stedsnr" v="281481" />
		<tag k="waterway" v="stream" />
	</node>
	<node lat="60.295972218717615" lon="6.343969451133126" id="-35237">
		<tag k="name" v="Djupadalsbekken" />
		<tag k="ssr:stedsnr" v="281607" />
		<tag k="waterway" v="stream" />
	</node>
	<node lat="60.10092221852536" lon="6.526302785499008" id="-35240">
		<tag k="name" v="Vikelva" />
		<tag k="ssr:stedsnr" v="281619" />
		<tag k="waterway" v="river" />
	</node>
	<node lat="60.28856563303379" lon="6.305278790749596" id="-35241">
		<tag k="name" v="Djupavik" />
		<tag k="natural" v="bay" />
		<tag k="ssr:stedsnr" v="281622" />
	</node>
	<node lat="60.28650543831088" lon="6.298964484240115" id="-35242">
		<tag k="name" v="Eidesfossen" />
		<tag k="natural" v="waterfall" />
		<tag k="ssr:stedsnr" v="281624" />
	</node>
	<node lat="60.330238884852484" lon="6.480374995100427" id="-35272">
		<tag k="name" v="Holmane" />
		<tag k="place" v="islet" />
		<tag k="ssr:stedsnr" v="281908" />
	</node>
	<node lat="60.36089166863227" lon="6.676902781448657" id="-35273">
		<tag k="name" v="Kvernabekken" />
		<tag k="ssr:stedsnr" v="281909" />
		<tag k="waterway" v="stream" />
	</node>
	<node lat="60.3653527802012" lon="6.680394450183536" id="-35274">
		<tag k="name" v="Dalebekken" />
		<tag k="ssr:stedsnr" v="281910" />
		<tag k="waterway" v="stream" />
	</node>
	<node lat="60.12006388920122" lon="7.177097221261972" id="-35282">
		<tag k="name" v="Perapytten" />
		<tag k="natural" v="water" />
		<tag k="ssr:stedsnr" v="283170" />
		<tag k="water" v="lake" />
	</node>
	<node lat="60.34729166550873" lon="6.609400002002993" id="-35287">
		<tag k="name" v="Ytsta Indre Jåstadelvi" />
		<tag k="ssr:stedsnr" v="462123" />
		<tag k="waterway" v="river" />
	</node>
	<node lat="60.134963884855175" lon="6.175363888539154" id="-35288">
		<tag k="name" v="Hessvikelva" />
		<tag k="ssr:stedsnr" v="462150" />
		<tag k="waterway" v="stream" />
	</node>
	<node lat="59.75185555522718" lon="6.778363891182873" id="-35289">
		<tag k="name" v="Sandholmen" />
		<tag k="place" v="islet" />
		<tag k="ssr:stedsnr" v="462348" />
	</node>
	<node lat="59.947841669781035" lon="6.543444446682211" id="-35291">
		<tag k="name" v="Øktarevassbekken" />
		<tag k="ssr:stedsnr" v="462637" />
		<tag k="waterway" v="stream" />
	</node>
	<node lat="59.86665555278293" lon="6.856127776642867" id="-35298">
		<tag k="name" v="Jønnbubekken" />
		<tag k="ssr:stedsnr" v="463460" />
		<tag k="waterway" v="stream" />
	</node>
	<node lat="59.909063892375045" lon="6.526863884017558" id="-35300">
		<tag k="name" v="Ronanes" />
		<tag k="natural" v="cape" />
		<tag k="ssr:stedsnr" v="463470" />
	</node>
	<node lat="60.342798265727424" lon="6.375343969953569" id="-35302">
		<tag k="name" v="Høyneset" />
		<tag k="natural" v="cape" />
		<tag k="ssr:stedsnr" v="463042" />
	</node>
	<node lat="59.800586113490354" lon="6.785599998446709" id="-35311">
		<tag k="name" v="Einernes" />
		<tag k="natural" v="cape" />
		<tag k="ssr:stedsnr" v="463279" />
	</node>
	<node lat="59.738511107783694" lon="6.786113880797694" id="-35316">
		<tag k="name" v="Toraldbekken" />
		<tag k="ssr:stedsnr" v="463251" />
		<tag k="waterway" v="stream" />
	</node>
	<node lat="60.19941944536805" lon="6.6314027773537525" id="-35332">
		<tag k="name" v="Stølsbekken" />
		<tag k="ssr:stedsnr" v="463440" />
		<tag k="waterway" v="stream" />
	</node>
	<node lat="60.228412465028605" lon="6.328462799041903" id="-35336">
		<tag k="name" v="Veslefreidalselvi" />
		<tag k="ssr:stedsnr" v="463478" />
		<tag k="waterway" v="river" />
	</node>
	<node lat="60.30057500226553" lon="6.68874167400211" id="-35339">
		<tag k="name" v="Storbekk" />
		<tag k="ssr:stedsnr" v="463501" />
		<tag k="waterway" v="stream" />
	</node>
	<node lat="60.279369071452344" lon="6.66658698580608" id="-35342">
		<tag k="name" v="Klyvjahaugsvatn" />
		<tag k="natural" v="water" />
		<tag k="ssr:stedsnr" v="463453" />
	</node>
	<node lat="60.30523447687416" lon="6.374111243674836" id="-35346">
		<tag k="name" v="Kvitaneset" />
		<tag k="natural" v="cape" />
		<tag k="ssr:stedsnr" v="463560" />
	</node>
	<node lat="60.23474721901769" lon="6.192016660031691" id="-35366">
		<tag k="name" v="Ytrestø" />
		<tag k="natural" v="beach" />
		<tag k="ssr:stedsnr" v="463646" />
	</node>
	<node lat="60.28861645796774" lon="6.662414616002302" id="-35367">
		<tag k="name" v="Vesjo" />
		<tag k="ssr:stedsnr" v="463789" />
		<tag k="waterway" v="stream" />
	</node>
	<node lat="60.298383333344695" lon="6.58565555597875" id="-35374">
		<tag k="name" v="Oppkomefossen" />
		<tag k="natural" v="waterfall" />
		<tag k="ssr:stedsnr" v="463841" />
	</node>
	<node lat="60.28381090823974" lon="6.577135450343096" id="-35387">
		<tag k="name" v="Svortetjørn" />
		<tag k="natural" v="water" />
		<tag k="ssr:stedsnr" v="302023" />
	</node>
	<node lat="59.73774444341526" lon="6.794405563206437" id="-35390">
		<tag k="name" v="Botnaelva" />
		<tag k="ssr:stedsnr" v="306217" />
		<tag k="waterway" v="stream" />
	</node>
	<node lat="60.13147639424461" lon="7.116614159661195" id="-35391">
		<tag k="name" v="Ingvaldspytten" />
		<tag k="natural" v="water" />
		<tag k="ssr:stedsnr" v="465194" />
	</node>
	<node lat="59.878527781417155" lon="6.648716665605687" id="-35393">
		<tag k="name" v="Stølselvi" />
		<tag k="ssr:stedsnr" v="307192" />
		<tag k="waterway" v="stream" />
	</node>
	<node lat="59.840919447068586" lon="6.847255554561805" id="-35397">
		<tag k="name" v="Kvernabekken" />
		<tag k="ssr:stedsnr" v="307220" />
		<tag k="waterway" v="stream" />
	</node>
	<node lat="59.81738611453329" lon="6.788344441723355" id="-35400">
		<tag k="name" v="Håranes" />
		<tag k="natural" v="cape" />
		<tag k="ssr:stedsnr" v="307257" />
	</node>
	<node lat="59.93856293255848" lon="6.568346324363942" id="-35402">
		<tag k="name" v="Trollatjørn" />
		<tag k="natural" v="water" />
		<tag k="ssr:stedsnr" v="307455" />
	</node>
	<node lat="60.16328267786873" lon="6.836856625816169" id="-35403">
		<tag k="name" v="Nedsta Tyssevatnet" />
		<tag k="natural" v="water" />
		<tag k="ssr:stedsnr" v="307469" />
		<tag k="water" v="lake" />
	</node>
	<node lat="60.24231525437296" lon="6.958473002594568" id="-35408">
		<tag k="name" v="Sperredalsvatnet" />
		<tag k="natural" v="water" />
		<tag k="ssr:stedsnr" v="308003" />
		<tag k="water" v="lake" />
	</node>
	<node lat="60.33431694316719" lon="6.450818231434207" id="-35412">
		<tag k="alt_name" v="Såtatjørni" />
		<tag k="name" v="Såtetjørn" />
		<tag k="natural" v="water" />
		<tag k="ssr:stedsnr" v="308015" />
	</node>
	<node lat="60.117900000049026" lon="7.014516661094921" id="-35420">
		<tag k="name" v="Buatjørn" />
		<tag k="natural" v="water" />
		<tag k="ssr:stedsnr" v="308257" />
	</node>
	<node lat="60.06930832933313" lon="6.619333336602479" id="-35430">
		<tag k="name" v="Ragdetjørn" />
		<tag k="natural" v="water" />
		<tag k="ssr:stedsnr" v="308357" />
	</node>
	<node lat="60.25491666820472" lon="6.945966666525366" id="-35434">
		<tag k="name" v="Båtadalsbekken" />
		<tag k="ssr:stedsnr" v="308617" />
		<tag k="waterway" v="stream" />
	</node>
	<node lat="60.14079999695913" lon="6.152383331577012" id="-35443">
		<tag k="name" v="Fosselva" />
		<tag k="ssr:stedsnr" v="308889" />
		<tag k="waterway" v="stream" />
	</node>
	<node lat="60.309071794842666" lon="6.487100152516748" id="-35444">
		<tag k="name" v="Kvanngrøvatnet" />
		<tag k="natural" v="water" />
		<tag k="ssr:stedsnr" v="309038" />
		<tag k="water" v="lake" />
	</node>
	<node lat="60.31853055374204" lon="6.908308329948386" id="-35446">
		<tag k="name" v="Tverrelvi" />
		<tag k="ssr:stedsnr" v="309332" />
		<tag k="waterway" v="river" />
	</node>
	<node lat="60.299794440928515" lon="6.830505558940062" id="-35449">
		<tag k="name" v="Gruvleløken" />
		<tag k="ssr:stedsnr" v="309345" />
		<tag k="waterway" v="stream" />
	</node>
	<node lat="60.38697499634053" lon="7.019861116198166" id="-35459">
		<tag k="name" v="Bytesbekk" />
		<tag k="ssr:stedsnr" v="309707" />
		<tag k="waterway" v="stream" />
	</node>
	<node lat="60.193374859624164" lon="6.708064161388395" id="-35466">
		<tag k="name" v="Andetjørn" />
		<tag k="natural" v="water" />
		<tag k="ssr:stedsnr" v="325843" />
	</node>
	<node lat="60.1847305582413" lon="6.598255550522767" id="-35474">
		<tag k="name" v="Salebekken" />
		<tag k="ssr:stedsnr" v="340419" />
		<tag k="waterway" v="stream" />
	</node>
	<node lat="60.337022220274676" lon="6.801436116051711" id="-35476">
		<tag k="name" v="Vierdalsbekken" />
		<tag k="ssr:stedsnr" v="340802" />
		<tag k="waterway" v="stream" />
	</node>
	<node lat="60.32246666531562" lon="6.594713890733235" id="-35481">
		<tag k="name" v="Fossane" />
		<tag k="natural" v="waterfall" />
		<tag k="ssr:stedsnr" v="341208" />
	</node>
	<node lat="60.2719611091015" lon="6.552302775698434" id="-35485">
		<tag k="name" v="Kambafossen" />
		<tag k="ssr:stedsnr" v="341223" />
		<tag k="waterway" v="rapids" />
	</node>
	<node lat="60.42366944355783" lon="6.615822227447617" id="-35517">
		<tag k="name" v="Kvernelvi" />
		<tag k="ssr:stedsnr" v="342098" />
		<tag k="waterway" v="river" />
	</node>
	<node lat="60.24681388811574" lon="6.626547223327656" id="-35520">
		<tag k="name" v="Skrebekken" />
		<tag k="ssr:stedsnr" v="342415" />
		<tag k="waterway" v="stream" />
	</node>
	<node lat="60.316477062238505" lon="6.71264902838635" id="-35522">
		<tag k="name" v="Saltpytt" />
		<tag k="natural" v="water" />
		<tag k="ssr:stedsnr" v="342445" />
	</node>
	<node lat="60.21404444387348" lon="6.110663884274391" id="-35535">
		<tag k="name" v="Kysnesstrondi" />
		<tag k="natural" v="beach" />
		<tag k="ssr:stedsnr" v="342583" />
	</node>
	<node lat="60.377388893050316" lon="6.833522224424126" id="-35539">
		<tag k="name" v="Grytingselvi" />
		<tag k="ssr:stedsnr" v="342762" />
		<tag k="waterway" v="river" />
	</node>
	<node lat="59.72899166476591" lon="6.720908334514829" id="-35548">
		<tag k="name" v="Kolåsåna" />
		<tag k="ssr:stedsnr" v="367177" />
		<tag k="waterway" v="stream" />
	</node>
	<node lat="59.80851666942556" lon="6.800574996787096" id="-35549">
		<tag k="name" v="Grytøyr" />
		<tag k="natural" v="cape" />
		<tag k="ssr:stedsnr" v="367181" />
	</node>
	<node lat="60.04608888884998" lon="6.44260833696231" id="-35552">
		<tag k="name" v="Nordbakkelvi" />
		<tag k="ssr:stedsnr" v="368071" />
		<tag k="waterway" v="stream" />
	</node>
	<node lat="60.024691667704474" lon="6.539666667970295" id="-35554">
		<tag k="name" v="Strondsfossen" />
		<tag k="natural" v="waterfall" />
		<tag k="ssr:stedsnr" v="368031" />
	</node>
	<node lat="60.04364166446275" lon="6.499733335900048" id="-35556">
		<tag k="alt_name" v="Buerelvi;Buarelva" />
		<tag k="fixme" v="multiple name tags, choose one and add the other to alt_name" />
		<tag k="name" v="Jordalselvi;Buarelvi" />
		<tag k="ssr:stedsnr" v="368050" />
		<tag k="waterway" v="river" />
	</node>
	<node lat="59.91718333018988" lon="6.953930549594467" id="-35559">
		<tag k="name" v="Kvesso" />
		<tag k="ssr:stedsnr" v="368206" />
		<tag k="waterway" v="river" />
	</node>
	<node lat="60.04204722095368" lon="7.148469436456151" id="-35565">
		<tag k="name" v="Vetla Kvenno" />
		<tag k="ssr:stedsnr" v="368278" />
		<tag k="waterway" v="river" />
	</node>
	<node lat="59.966688886173095" lon="6.631144452465841" id="-35570">
		<tag k="name" v="Røynebekken" />
		<tag k="ssr:stedsnr" v="368169" />
		<tag k="waterway" v="stream" />
	</node>
	<node lat="59.89370000235645" lon="6.696436117989567" id="-35572">
		<tag k="name" v="Loni" />
		<tag k="place" v="locality" />
		<tag k="ssr:stedsnr" v="368193" />
	</node>
	<node lat="60.11422499857524" lon="7.267444439339001" id="-35573">
		<tag k="loc_name" v="Grjoto" />
		<tag k="name" v="Groto" />
		<tag k="ssr:stedsnr" v="368303" />
		<tag k="waterway" v="river" />
	</node>
	<node lat="59.99920036270596" lon="6.837345780263864" id="-35576">
		<tag k="alt_name" v="Setevatn, øvre" />
		<tag k="name" v="Setevatn" />
		<tag k="natural" v="water" />
		<tag k="ssr:stedsnr" v="368370" />
		<tag k="water" v="lake" />
	</node>
	<node lat="60.16976389188743" lon="6.126955557670609" id="-35578">
		<tag k="name" v="Kvisla" />
		<tag k="ssr:stedsnr" v="368620" />
		<tag k="waterway" v="stream" />
	</node>
	<node lat="60.07904166649931" lon="7.426699992676465" id="-35579">
		<tag k="name" v="Skrubbahylen" />
		<tag k="place" v="locality" />
		<tag k="ssr:stedsnr" v="368685" />
	</node>
	<node lat="60.35043422427976" lon="6.512124020204004" id="-35584">
		<tag k="alt_name" v="Gråfjellstjørn" />
		<tag k="name" v="Gråfjelltjørni" />
		<tag k="natural" v="water" />
		<tag k="ssr:stedsnr" v="369114" />
	</node>
	<node lat="60.41477499614856" lon="6.547380560965978" id="-35587">
		<tag k="alt_name" v="Sessbekken" />
		<tag k="name" v="Sessabekken" />
		<tag k="ssr:stedsnr" v="369166" />
		<tag k="waterway" v="stream" />
	</node>
	<node lat="60.41486666253973" lon="6.5627583408796495" id="-35588">
		<tag k="name" v="Gjerdselvi" />
		<tag k="ssr:stedsnr" v="369168" />
		<tag k="waterway" v="stream" />
	</node>
	<node lat="60.30507499705165" lon="6.74782777347186" id="-35591">
		<tag k="name" v="Kjølo" />
		<tag k="ssr:stedsnr" v="369284" />
		<tag k="waterway" v="stream" />
	</node>
	<node lat="60.28064722465915" lon="6.399033327352863" id="-35592">
		<tag k="name" v="Brattabøelvi" />
		<tag k="ssr:stedsnr" v="369412" />
		<tag k="waterway" v="stream" />
	</node>
	<node lat="60.225893894254796" lon="6.328479910005086" id="-35597">
		<tag k="name" v="Kvanndalsvatnet" />
		<tag k="natural" v="water" />
		<tag k="ssr:stedsnr" v="369804" />
	</node>
	<node lat="60.357213892942276" lon="6.895877777775345" id="-35599">
		<tag k="name" v="Insta Tjørni" />
		<tag k="natural" v="water" />
		<tag k="ssr:stedsnr" v="385203" />
	</node>
	<node lat="60.35203095135787" lon="6.882953219701045" id="-35600">
		<tag k="name" v="Heimsta Tjørni" />
		<tag k="natural" v="water" />
		<tag k="ssr:stedsnr" v="385204" />
	</node>
	<node lat="60.38948327803175" lon="6.5947703711232935" id="-35604">
		<tag k="name" v="Grimsvatnet" />
		<tag k="natural" v="water" />
		<tag k="ssr:stedsnr" v="386221" />
		<tag k="water" v="lake" />
	</node>
	<node lat="60.36205833409372" lon="6.612975007394356" id="-35605">
		<tag k="name" v="Heimabekken" />
		<tag k="ssr:stedsnr" v="401229" />
		<tag k="waterway" v="stream" />
	</node>
	<node lat="60.38899722495903" lon="6.54540833722113" id="-35610">
		<tag k="name" v="Fossen" />
		<tag k="natural" v="waterfall" />
		<tag k="ssr:stedsnr" v="402181" />
	</node>
	<node lat="59.79096666683114" lon="6.783341666766141" id="-35614">
		<tag k="name" v="Migandebekken" />
		<tag k="ssr:stedsnr" v="402331" />
		<tag k="waterway" v="stream" />
	</node>
	<node lat="59.75092777484544" lon="6.786733333757438" id="-35615">
		<tag k="name" v="Åkroken" />
		<tag k="place" v="locality" />
		<tag k="ssr:stedsnr" v="402379" />
	</node>
	<node lat="59.77892500013396" lon="6.769461107211499" id="-35619">
		<tag k="name" v="Bytesbekk" />
		<tag k="ssr:stedsnr" v="402284" />
		<tag k="waterway" v="stream" />
	</node>
	<node lat="59.825288885263696" lon="6.749094444184386" id="-35625">
		<tag k="name" v="Reinstigbekken" />
		<tag k="ssr:stedsnr" v="402488" />
		<tag k="waterway" v="stream" />
	</node>
</osm>
