<?xml version="1.0" encoding="UTF-8"?>
<osm version="0.6" generator="osmapis">
	<node lat="60.14086110849655" lon="6.5795555512294195" id="-26673">
		<tag k="name" v="Furo" />
		<tag k="place" v="farm" />
		<tag k="ssr:stedsnr" v="4178" />
	</node>
	<node lat="60.23651111221725" lon="6.953824999811673" id="-26680">
		<tag k="name" v="Oalsåkrane" />
		<tag k="place" v="locality" />
		<tag k="ssr:stedsnr" v="4465" />
	</node>
	<node lat="60.325216664984396" lon="6.39139166060512" id="-26692">
		<tag k="historic" v="shieling" />
		<tag k="name" v="Reishellar" />
		<tag k="place" v="isolated_dwelling" />
		<tag k="ssr:stedsnr" v="5018" />
	</node>
	<node lat="60.34711944442007" lon="6.421350006721381" id="-26697">
		<tag k="historic" v="shieling" />
		<tag k="name" v="Grimestølen" />
		<tag k="place" v="isolated_dwelling" />
		<tag k="ssr:stedsnr" v="5118" />
	</node>
	<node lat="60.37496775280659" lon="6.460469268202437" id="-26699">
		<tag k="alt_name" v="Kvalvikane, indre;Kvalvikane;Kvalvik indre;Indre Kvalvikane" />
		<tag k="fixme" v="consider place=hamlet" />
		<tag k="name" v="Indre Kvalvik" />
		<tag k="place" v="farm" />
		<tag k="ssr:stedsnr" v="5165" />
	</node>
	<node lat="60.375916670320926" lon="6.643136113901354" id="-26705">
		<tag k="fixme" v="consider place=hamlet" />
		<tag k="name" v="Hauso" />
		<tag k="place" v="farm" />
		<tag k="ssr:stedsnr" v="5257" />
	</node>
	<node lat="60.2767361091108" lon="6.264433329413236" id="-26709">
		<tag k="name" v="Rabben" />
		<tag k="place" v="farm" />
		<tag k="ssr:stedsnr" v="5461" />
	</node>
	<node lat="60.18996914692538" lon="6.6122980882388855" id="-26712">
		<tag k="alt_name" v="Fresvikestølen" />
		<tag k="historic" v="shieling" />
		<tag k="name" v="Oppsåta" />
		<tag k="place" v="isolated_dwelling" />
		<tag k="ssr:stedsnr" v="5470" />
	</node>
	<node lat="60.25579910277308" lon="6.344160043438033" id="-26720">
		<tag k="historic" v="shieling" />
		<tag k="name" v="Flatabøgrytingen" />
		<tag k="place" v="isolated_dwelling" />
		<tag k="ssr:stedsnr" v="5369" />
	</node>
	<node lat="60.374576814030696" lon="6.727523338827746" id="-26735">
		<tag k="fixme" v="consider place=hamlet" />
		<tag k="name" v="Bråvoll" />
		<tag k="place" v="farm" />
		<tag k="ssr:stedsnr" v="24935" />
	</node>
	<node lat="60.424705554600585" lon="6.542266668730103" id="-26741">
		<tag k="name" v="Øyri" />
		<tag k="place" v="farm" />
		<tag k="ssr:stedsnr" v="38114" />
	</node>
	<node lat="60.331419443837206" lon="6.670349994688604" id="-26769">
		<tag k="name" v="Rosshagen" />
		<tag k="place" v="farm" />
		<tag k="ssr:stedsnr" v="38619" />
	</node>
	<node lat="60.23128888731937" lon="6.232508341280147" id="-26774">
		<tag k="name" v="Stokke" />
		<tag k="place" v="farm" />
		<tag k="ssr:stedsnr" v="38702" />
	</node>
	<node lat="60.276499997932135" lon="6.254833328970974" id="-26775">
		<tag k="fixme" v="consider place=hamlet" />
		<tag k="name" v="Underhaug" />
		<tag k="place" v="farm" />
		<tag k="ssr:stedsnr" v="38713" />
	</node>
	<node lat="60.27441388851639" lon="6.256999999342753" id="-26776">
		<tag k="name" v="Kinn" />
		<tag k="place" v="farm" />
		<tag k="ssr:stedsnr" v="38718" />
	</node>
	<node lat="60.29675555906685" lon="6.5927250014488825" id="-26783">
		<tag k="name" v="Nyeslåtten" />
		<tag k="place" v="farm" />
		<tag k="ssr:stedsnr" v="38858" />
	</node>
	<node lat="60.37484444532122" lon="6.787019446989256" id="-26790">
		<tag k="historic" v="shieling" />
		<tag k="name" v="Smørstein" />
		<tag k="place" v="isolated_dwelling" />
		<tag k="ssr:stedsnr" v="39710" />
	</node>
	<node lat="60.434441665883114" lon="6.562605546853496" id="-26796">
		<tag k="name" v="Hesthamar" />
		<tag k="place" v="farm" />
		<tag k="ssr:stedsnr" v="238098" />
	</node>
	<node lat="59.80235555742884" lon="6.85603611908257" id="-26820">
		<tag k="historic" v="shieling" />
		<tag k="name" v="Nyastølen" />
		<tag k="place" v="isolated_dwelling" />
		<tag k="ssr:stedsnr" v="64801" />
	</node>
	<node lat="59.84210833148331" lon="6.725794442742586" id="-26824">
		<tag k="name" v="Ullshaug" />
		<tag k="place" v="locality" />
		<tag k="ssr:stedsnr" v="65201" />
	</node>
	<node lat="59.8552750022923" lon="6.867683332743192" id="-26832">
		<tag k="historic" v="shieling" />
		<tag k="name" v="Nyastøl" />
		<tag k="place" v="isolated_dwelling" />
		<tag k="ssr:stedsnr" v="65189" />
	</node>
	<node lat="59.856358335299575" lon="7.106816674684831" id="-26842">
		<tag k="historic" v="shieling" />
		<tag k="name" v="Nupshallene" />
		<tag k="place" v="isolated_dwelling" />
		<tag k="ssr:stedsnr" v="65870" />
	</node>
	<node lat="59.849516664401754" lon="7.131699998072892" id="-26844">
		<tag k="name" v="Midtfjellsvollen" />
		<tag k="place" v="isolated_dwelling" />
		<tag k="ssr:stedsnr" v="65881" />
	</node>
	<node lat="60.31994166593299" lon="6.414691659301803" id="-26845">
		<tag k="historic" v="shieling" />
		<tag k="name" v="Vatnasete" />
		<tag k="place" v="isolated_dwelling" />
		<tag k="ssr:stedsnr" v="66002" />
	</node>
	<node lat="60.38066110951031" lon="6.686180547083742" id="-26855">
		<tag k="fixme" v="consider place=hamlet" />
		<tag k="name" v="Ystanes" />
		<tag k="place" v="farm" />
		<tag k="ssr:stedsnr" v="66356" />
	</node>
	<node lat="60.340421390672134" lon="6.377954552929504" id="-26859">
		<tag k="fixme" v="consider place=hamlet" />
		<tag k="name" v="Vik" />
		<tag k="place" v="farm" />
		<tag k="ssr:stedsnr" v="66099" />
	</node>
	<node lat="60.36239767670912" lon="6.709215139430665" id="-26861">
		<tag k="historic" v="shieling" />
		<tag k="name" v="Heng" />
		<tag k="place" v="isolated_dwelling" />
		<tag k="ssr:stedsnr" v="66256" />
	</node>
	<node lat="60.31030111340467" lon="6.599789455915852" id="-26862">
		<tag k="fixme" v="multiple name tags, choose one and add the other to alt_name" />
		<tag k="historic" v="shieling" />
		<tag k="name" v="Hudnasete;Stølen" />
		<tag k="place" v="isolated_dwelling" />
		<tag k="ssr:stedsnr" v="66296" />
	</node>
	<node lat="60.299530557636146" lon="6.6024888955322165" id="-26864">
		<tag k="fixme" v="consider place=hamlet" />
		<tag k="name" v="Aga" />
		<tag k="place" v="village" />
		<tag k="ssr:stedsnr" v="66299" />
	</node>
	<node lat="60.114456031340374" lon="6.559408016732408" id="-26870">
		<tag k="alt_name" v="Tyssedalstveit" />
		<tag k="fixme" v="consider place=hamlet" />
		<tag k="name" v="Tyssedalstveiti" />
		<tag k="place" v="farm" />
		<tag k="ssr:stedsnr" v="242737" />
	</node>
	<node lat="60.098841494568326" lon="6.514136168515893" id="-26873">
		<tag k="name" v="Eitrheim" />
		<tag k="place" v="farm" />
		<tag k="ssr:stedsnr" v="82615" />
	</node>
	<node lat="59.88046944456446" lon="6.66123610299609" id="-26877">
		<tag k="leisure" v="pitch" />
		<tag k="name" v="Korlevoll skistadion" />
		<tag k="ssr:stedsnr" v="85185" />
	</node>
	<node lat="59.71915555741523" lon="6.760580553442619" id="-26881">
		<tag k="historic" v="shieling" />
		<tag k="name" v="Dalastølen" />
		<tag k="place" v="isolated_dwelling" />
		<tag k="ssr:stedsnr" v="246241" />
	</node>
	<node lat="59.81148055508373" lon="6.809225003335233" id="-26885">
		<tag k="name" v="Kvile" />
		<tag k="place" v="farm" />
		<tag k="ssr:stedsnr" v="246761" />
	</node>
	<node lat="59.81318333079088" lon="6.810575006337975" id="-26888">
		<tag k="name" v="Tveita" />
		<tag k="place" v="farm" />
		<tag k="ssr:stedsnr" v="246760" />
	</node>
	<node lat="59.96144166806172" lon="6.672994449365016" id="-26891">
		<tag k="historic" v="shieling" />
		<tag k="name" v="Fisketjørnstølen" />
		<tag k="place" v="isolated_dwelling" />
		<tag k="ssr:stedsnr" v="247156" />
	</node>
	<node lat="59.85343888933976" lon="6.830319440365133" id="-26897">
		<tag k="historic" v="shieling" />
		<tag k="name" v="Austdalen" />
		<tag k="place" v="isolated_dwelling" />
		<tag k="ssr:stedsnr" v="247188" />
	</node>
	<node lat="60.15516666739083" lon="6.572449993648376" id="-26898">
		<tag k="name" v="Teigen" />
		<tag k="place" v="farm" />
		<tag k="ssr:stedsnr" v="247193" />
	</node>
	<node lat="59.86386666826844" lon="6.868652781932691" id="-26899">
		<tag k="historic" v="shieling" />
		<tag k="name" v="Bråstølflota" />
		<tag k="place" v="isolated_dwelling" />
		<tag k="ssr:stedsnr" v="247206" />
	</node>
	<node lat="60.18286111216554" lon="6.551827784123722" id="-26904">
		<tag k="name" v="Eikhamrane" />
		<tag k="place" v="farm" />
		<tag k="ssr:stedsnr" v="247231" />
	</node>
	<node lat="60.02023888735111" lon="7.022244445628531" id="-26906">
		<tag k="name" v="Tyristein" />
		<tag k="place" v="locality" />
		<tag k="ssr:stedsnr" v="247253" />
	</node>
	<node lat="60.236419447297514" lon="6.92801667103248" id="-26922">
		<tag k="historic" v="shieling" />
		<tag k="name" v="Langhellefiti" />
		<tag k="place" v="isolated_dwelling" />
		<tag k="ssr:stedsnr" v="247446" />
	</node>
	<node lat="60.16883888467914" lon="6.152769445411313" id="-26925">
		<tag k="historic" v="shieling" />
		<tag k="name" v="Heimasætret" />
		<tag k="place" v="isolated_dwelling" />
		<tag k="ssr:stedsnr" v="247541" />
	</node>
	<node lat="59.75316389252621" lon="6.795441663474528" id="-26931">
		<tag k="fixme" v="consider place=hamlet" />
		<tag k="name" v="Botnen" />
		<tag k="place" v="village" />
		<tag k="ssr:stedsnr" v="247752" />
	</node>
	<node lat="60.249034807056596" lon="6.552070487600219" id="-26933">
		<tag k="fixme" v="consider place=hamlet" />
		<tag k="name" v="Reisete" />
		<tag k="place" v="farm" />
		<tag k="ssr:stedsnr" v="247795" />
	</node>
	<node lat="60.147888886778304" lon="6.52978055876355" id="-26938">
		<tag k="historic" v="shieling" />
		<tag k="name" v="Stuastøl" />
		<tag k="place" v="isolated_dwelling" />
		<tag k="ssr:stedsnr" v="98685" />
	</node>
	<node lat="60.42280278061761" lon="6.542855549771049" id="-26941">
		<tag k="name" v="Midttun" />
		<tag k="place" v="farm" />
		<tag k="ssr:stedsnr" v="99102" />
	</node>
	<node lat="60.36977222250766" lon="6.365208334270123" id="-26951">
		<tag k="alt_name" v="Vikane, in;Vikane" />
		<tag k="name" v="Indre Vikane" />
		<tag k="place" v="farm" />
		<tag k="ssr:stedsnr" v="248081" />
	</node>
	<node lat="60.34470277516471" lon="6.390052771510314" id="-26953">
		<tag k="fixme" v="consider place=hamlet" />
		<tag k="name" v="Eiki" />
		<tag k="place" v="farm" />
		<tag k="ssr:stedsnr" v="248092" />
	</node>
	<node lat="60.33862222565235" lon="6.365302785536529" id="-26956">
		<tag k="name" v="Plasset" />
		<tag k="place" v="farm" />
		<tag k="ssr:stedsnr" v="99061" />
	</node>
	<node lat="60.31112500291504" lon="6.431036111780862" id="-26965">
		<tag k="name" v="Håvasete" />
		<tag k="place" v="locality" />
		<tag k="ssr:stedsnr" v="248050" />
	</node>
	<node lat="60.42152500297913" lon="6.542166668408508" id="-26966">
		<tag k="name" v="Midtun" />
		<tag k="place" v="farm" />
		<tag k="ssr:stedsnr" v="248130" />
	</node>
	<node lat="60.2660361119302" lon="6.649791665171298" id="-26969">
		<tag k="historic" v="shieling" />
		<tag k="name" v="Gunnhildstøl" />
		<tag k="place" v="isolated_dwelling" />
		<tag k="ssr:stedsnr" v="99474" />
	</node>
	<node lat="60.30529722562132" lon="6.280491659598469" id="-26993">
		<tag k="name" v="Kyrkjesteg" />
		<tag k="place" v="farm" />
		<tag k="ssr:stedsnr" v="99765" />
	</node>
	<node lat="60.32935455729374" lon="6.659778289376026" id="-26997">
		<tag k="name" v="Solbakken" />
		<tag k="place" v="farm" />
		<tag k="ssr:stedsnr" v="99813" />
	</node>
	<node lat="60.353208337533516" lon="6.719494446014334" id="-27007">
		<tag k="historic" v="shieling" />
		<tag k="name" v="Vetla Kvanndal" />
		<tag k="place" v="isolated_dwelling" />
		<tag k="ssr:stedsnr" v="248262" />
	</node>
	<node lat="60.32154150068202" lon="6.653828121963255" id="-27009">
		<tag k="fixme" v="consider place=hamlet" />
		<tag k="name" v="Århus" />
		<tag k="place" v="farm" />
		<tag k="ssr:stedsnr" v="248279" />
	</node>
	<node lat="60.297380552926164" lon="6.700341663563973" id="-27017">
		<tag k="historic" v="shieling" />
		<tag k="name" v="Skriksete" />
		<tag k="place" v="isolated_dwelling" />
		<tag k="ssr:stedsnr" v="248289" />
	</node>
	<node lat="60.38858512728304" lon="6.643874022065599" id="-27019">
		<tag k="fixme" v="consider place=hamlet" />
		<tag k="name" v="Indre Langasete" />
		<tag k="place" v="farm" />
		<tag k="ssr:stedsnr" v="248348" />
	</node>
	<node lat="60.21232157596359" lon="6.156621335182554" id="-27024">
		<tag k="fixme" v="consider place=hamlet" />
		<tag k="name" v="Gangdal" />
		<tag k="place" v="farm" />
		<tag k="ssr:stedsnr" v="248497" />
	</node>
	<node lat="60.189161111902386" lon="6.086269445444444" id="-27025">
		<tag k="alt_name" v="Hamaren" />
		<tag k="name" v="Hammaren" />
		<tag k="place" v="farm" />
		<tag k="ssr:stedsnr" v="248574" />
	</node>
	<node lat="60.25181444997557" lon="6.621033411613395" id="-27031">
		<tag k="name" v="Sekse" />
		<tag k="place" v="hamlet" />
		<tag k="ssr:stedsnr" v="248679" />
	</node>
	<node lat="60.391227779051896" lon="6.502072216505079" id="-27038">
		<tag k="name" v="Alsåker" />
		<tag k="place" v="hamlet" />
		<tag k="ssr:stedsnr" v="104113" />
	</node>
	<node lat="60.08186944569725" lon="6.529261109498696" id="-27040">
		<tag k="alt_name" v="Eigne Heim" />
		<tag k="name" v="Egne Hjem" />
		<tag k="place" v="quarter" />
		<tag k="ssr:stedsnr" v="104697" />
	</node>
	<node lat="60.05352222222411" lon="6.557372217214169" id="-27054">
		<tag k="fixme" v="consider place=hamlet" />
		<tag k="name" v="Vasstun" />
		<tag k="place" v="farm" />
		<tag k="ssr:stedsnr" v="125055" />
	</node>
	<node lat="59.96753889257324" lon="6.572116673616894" id="-27069">
		<tag k="fixme" v="consider place=hamlet" />
		<tag k="name" v="Grønsdal" />
		<tag k="place" v="farm" />
		<tag k="ssr:stedsnr" v="125458" />
	</node>
	<node lat="59.90966110797732" lon="6.53631388510079" id="-27074">
		<tag k="alt_name" v="Vassviki" />
		<tag k="fixme" v="consider place=hamlet" />
		<tag k="name" v="Vassvik" />
		<tag k="place" v="farm" />
		<tag k="ssr:stedsnr" v="125497" />
	</node>
	<node lat="59.77550000223438" lon="6.792200008244142" id="-27076">
		<tag k="name" v="Huskakk" />
		<tag k="place" v="farm" />
		<tag k="ssr:stedsnr" v="125821" />
	</node>
</osm>
