<?xml version="1.0" encoding="UTF-8"?>
<osm version="0.6" generator="osmapis">
	<node lat="60.21170000390641" lon="6.566936118253708" id="-26662">
		<tag k="bridge" v="yes" />
		<tag k="layer" v="1" />
		<tag k="name" v="Idlegjel" />
		<tag k="ssr:stedsnr" v="229762" />
	</node>
	<node lat="59.65860000008443" lon="6.784819441705284" id="-26663">
		<tag k="name" v="Brattlandsdalåa" />
		<tag k="ssr:stedsnr" v="3049" />
		<tag k="waterway" v="river" />
	</node>
	<node lat="59.94698333553837" lon="6.597666661604388" id="-26664">
		<tag k="loc_name" v="Låtevatn" />
		<tag k="name" v="Lotevatnet" />
		<tag k="natural" v="water" />
		<tag k="ssr:stedsnr" v="3122" />
		<tag k="water" v="lake" />
	</node>
	<node lat="59.94451389297053" lon="6.701344443509443" id="-26665">
		<tag k="name" v="Austdalen" />
		<tag k="natural" v="valley" />
		<tag k="place" v="locality" />
		<tag k="ssr:stedsnr" v="3125" />
	</node>
	<node lat="59.9880138858802" lon="6.542538881621965" id="-26666">
		<tag k="name" v="Boldalsbrekkene" />
		<tag k="natural" v="slope" />
		<tag k="place" v="locality" />
		<tag k="ssr:stedsnr" v="3370" />
	</node>
	<node lat="59.97686039723596" lon="6.556214520881841" id="-26667">
		<tag k="name" v="Niptjørn" />
		<tag k="natural" v="water" />
		<tag k="ssr:stedsnr" v="3371" />
	</node>
	<node lat="59.96462702586441" lon="6.584752898287415" id="-26668">
		<tag k="alt_name" v="Søkkjetjørn" />
		<tag k="name" v="Sokkatjørn" />
		<tag k="natural" v="water" />
		<tag k="ssr:stedsnr" v="3389" />
	</node>
	<node lat="60.088049995888674" lon="6.513599997814064" id="-26669">
		<tag k="name" v="Husaskreda" />
		<tag k="natural" v="valley" />
		<tag k="place" v="locality" />
		<tag k="ssr:stedsnr" v="4101" />
	</node>
	<node lat="60.10084463298244" lon="6.487488665124606" id="-26670">
		<tag k="alt_name" v="Kvanngrødvatnet, nedre" />
		<tag k="loc_name" v="Nedsta Kvanngrøvatnet" />
		<tag k="name" v="Nedre Kvanngrødvatnet" />
		<tag k="natural" v="water" />
		<tag k="ssr:stedsnr" v="4117" />
	</node>
	<node lat="60.11803058452132" lon="6.504482706672979" id="-26671">
		<tag k="fixme" v="consider natural=peak for the most distinct mountains in the district" />
		<tag k="name" v="Ånuten" />
		<tag k="natural" v="hill" />
		<tag k="place" v="locality" />
		<tag k="ssr:stedsnr" v="4126" />
	</node>
	<node lat="59.89755833171355" lon="6.679361119512443" id="-26672">
		<tag k="name" v="Nyastølsvatnet" />
		<tag k="natural" v="water" />
		<tag k="ssr:stedsnr" v="4175" />
		<tag k="water" v="lake" />
	</node>
	<node lat="60.14086110849655" lon="6.5795555512294195" id="-26673">
		<tag k="name" v="Furo" />
		<tag k="place" v="farm" />
		<tag k="ssr:stedsnr" v="4178" />
	</node>
	<node lat="60.022502777901096" lon="6.456366659080697" id="-26674">
		<tag k="name" v="Røyrgjuv" />
		<tag k="natural" v="valley" />
		<tag k="place" v="locality" />
		<tag k="ssr:stedsnr" v="4028" />
	</node>
	<node lat="60.05066666469839" lon="6.431383341048592" id="-26675">
		<tag k="fixme" v="consider natural=peak for the most distinct mountains in the district" />
		<tag k="name" v="Nordbakkenuten" />
		<tag k="natural" v="hill" />
		<tag k="place" v="locality" />
		<tag k="ssr:stedsnr" v="4064" />
	</node>
	<node lat="59.9892333342645" lon="6.790524995863863" id="-26676">
		<tag k="name" v="Gjerdberg" />
		<tag k="natural" v="hill" />
		<tag k="place" v="locality" />
		<tag k="ssr:stedsnr" v="4095" />
	</node>
	<node lat="60.174844440814795" lon="6.496452777865057" id="-26677">
		<tag k="fixme" v="consider natural=peak for the most distinct mountains in the district" />
		<tag k="name" v="Ruklenuten" />
		<tag k="natural" v="hill" />
		<tag k="place" v="locality" />
		<tag k="ssr:stedsnr" v="4216" />
	</node>
	<node lat="60.12606224855741" lon="6.598527961422421" id="-26678">
		<tag k="name" v="Svelget" />
		<tag k="natural" v="valley" />
		<tag k="place" v="locality" />
		<tag k="ssr:stedsnr" v="4403" />
	</node>
	<node lat="60.23459444588176" lon="6.9583333306132715" id="-26679">
		<tag k="name" v="Sperredalen" />
		<tag k="natural" v="valley" />
		<tag k="place" v="locality" />
		<tag k="ssr:stedsnr" v="4464" />
	</node>
	<node lat="60.23651111221725" lon="6.953824999811673" id="-26680">
		<tag k="name" v="Oalsåkrane" />
		<tag k="place" v="locality" />
		<tag k="ssr:stedsnr" v="4465" />
	</node>
	<node lat="59.91099721967142" lon="6.566677770899256" id="-26681">
		<tag k="loc_name" v="Juvarsdalen" />
		<tag k="name" v="Gjuvarsdalen" />
		<tag k="natural" v="valley" />
		<tag k="place" v="locality" />
		<tag k="ssr:stedsnr" v="4467" />
	</node>
	<node lat="59.88051889063764" lon="6.98394185110444" id="-26682">
		<tag k="loc_name" v="Austra Middyrvatnet" />
		<tag k="name" v="Middyrvatnet" />
		<tag k="natural" v="water" />
		<tag k="ssr:stedsnr" v="4604" />
		<tag k="water" v="lake" />
	</node>
	<node lat="60.24345833230138" lon="6.248236117796428" id="-26683">
		<tag k="name" v="Mørkelii" />
		<tag k="natural" v="slope" />
		<tag k="place" v="locality" />
		<tag k="ssr:stedsnr" v="4806" />
	</node>
	<node lat="60.24899444818029" lon="6.3947500061752285" id="-26684">
		<tag k="name" v="Svartavassleitet" />
		<tag k="natural" v="valley" />
		<tag k="place" v="locality" />
		<tag k="ssr:stedsnr" v="4815" />
	</node>
	<node lat="60.24603333024383" lon="6.336611119927524" id="-26685">
		<tag k="fixme" v="consider natural=peak for the most distinct mountains in the district" />
		<tag k="name" v="Øykjafjell" />
		<tag k="natural" v="hill" />
		<tag k="place" v="locality" />
		<tag k="ssr:stedsnr" v="4821" />
	</node>
	<node lat="59.77646944868972" lon="6.7965166650509" id="-26686">
		<tag k="name" v="Risebekk" />
		<tag k="ssr:stedsnr" v="4822" />
		<tag k="waterway" v="stream" />
	</node>
	<node lat="59.894249998719864" lon="7.140230551028792" id="-26687">
		<tag k="name" v="Nupsfonn" />
		<tag k="natural" v="glacier" />
		<tag k="ssr:stedsnr" v="4860" />
	</node>
	<node lat="60.31185277393503" lon="6.35752776968193" id="-26688">
		<tag k="name" v="Raudsteindalen" />
		<tag k="natural" v="valley" />
		<tag k="place" v="locality" />
		<tag k="ssr:stedsnr" v="5005" />
	</node>
	<node lat="60.310119440832295" lon="6.340338880433135" id="-26689">
		<tag k="name" v="Espedalen" />
		<tag k="natural" v="valley" />
		<tag k="place" v="locality" />
		<tag k="ssr:stedsnr" v="5007" />
	</node>
	<node lat="60.3166472248126" lon="6.32989166877782" id="-26690">
		<tag k="alt_name" v="Manavikelvi" />
		<tag k="name" v="Monavikelvi" />
		<tag k="ssr:stedsnr" v="5008" />
		<tag k="waterway" v="stream" />
	</node>
	<node lat="60.33325555462003" lon="6.567580553448043" id="-26691">
		<tag k="fixme" v="consider natural=peak for the most distinct mountains in the district" />
		<tag k="name" v="Jåstadnuten" />
		<tag k="natural" v="hill" />
		<tag k="place" v="locality" />
		<tag k="ssr:stedsnr" v="5015" />
	</node>
	<node lat="60.325216664984396" lon="6.39139166060512" id="-26692">
		<tag k="historic" v="shieling" />
		<tag k="name" v="Reishellar" />
		<tag k="place" v="isolated_dwelling" />
		<tag k="ssr:stedsnr" v="5018" />
	</node>
	<node lat="60.3020916675452" lon="6.356777780286457" id="-26693">
		<tag k="name" v="Langedalen" />
		<tag k="natural" v="valley" />
		<tag k="place" v="locality" />
		<tag k="ssr:stedsnr" v="5020" />
	</node>
	<node lat="60.076683334166596" lon="6.515500004007528" id="-26694">
		<tag k="alt_name" v="Breiskredbekken" />
		<tag k="name" v="Breidskredbekken" />
		<tag k="ssr:stedsnr" v="5072" />
		<tag k="waterway" v="stream" />
	</node>
	<node lat="60.073261111391524" lon="6.469624993886294" id="-26695">
		<tag k="name" v="Blåvatnet" />
		<tag k="natural" v="water" />
		<tag k="ssr:stedsnr" v="5073" />
	</node>
	<node lat="60.35954166927579" lon="6.447280551657455" id="-26696">
		<tag k="name" v="Dammaskolten" />
		<tag k="natural" v="hill" />
		<tag k="place" v="locality" />
		<tag k="ssr:stedsnr" v="5106" />
	</node>
	<node lat="60.34711944442007" lon="6.421350006721381" id="-26697">
		<tag k="historic" v="shieling" />
		<tag k="name" v="Grimestølen" />
		<tag k="place" v="isolated_dwelling" />
		<tag k="ssr:stedsnr" v="5118" />
	</node>
	<node lat="60.14023888975123" lon="6.520194441278663" id="-26698">
		<tag k="name" v="Stølslii" />
		<tag k="natural" v="slope" />
		<tag k="place" v="locality" />
		<tag k="ssr:stedsnr" v="5159" />
	</node>
	<node lat="60.37496775280659" lon="6.460469268202437" id="-26699">
		<tag k="alt_name" v="Kvalvikane, indre;Kvalvikane;Kvalvik indre;Indre Kvalvikane" />
		<tag k="fixme" v="consider place=hamlet" />
		<tag k="name" v="Indre Kvalvik" />
		<tag k="place" v="farm" />
		<tag k="ssr:stedsnr" v="5165" />
	</node>
	<node lat="60.136683336185534" lon="6.521275005476621" id="-26700">
		<tag k="fixme" v="consider natural=peak for the most distinct mountains in the district" />
		<tag k="name" v="Rylken" />
		<tag k="natural" v="hill" />
		<tag k="place" v="locality" />
		<tag k="ssr:stedsnr" v="5171" />
	</node>
	<node lat="60.142594446535455" lon="6.531313885320263" id="-26701">
		<tag k="alt_name" v="Aksla" />
		<tag k="fixme" v="consider natural=peak for the most distinct mountains in the district" />
		<tag k="name" v="Oksli" />
		<tag k="natural" v="hill" />
		<tag k="place" v="locality" />
		<tag k="ssr:stedsnr" v="5180" />
	</node>
	<node lat="60.1492055534357" lon="6.501141670682283" id="-26702">
		<tag k="fixme" v="consider natural=peak for the most distinct mountains in the district" />
		<tag k="name" v="Bjørnstignuten" />
		<tag k="natural" v="hill" />
		<tag k="place" v="locality" />
		<tag k="ssr:stedsnr" v="5181" />
	</node>
	<node lat="60.212236115001396" lon="7.162038894830934" id="-26703">
		<tag k="name" v="Nasene" />
		<tag k="natural" v="hill" />
		<tag k="place" v="locality" />
		<tag k="ssr:stedsnr" v="5310" />
	</node>
	<node lat="60.20423332961582" lon="7.1408305532872625" id="-26704">
		<tag k="fixme" v="consider natural=peak for the most distinct mountains in the district" />
		<tag k="name" v="Langgrø" />
		<tag k="natural" v="hill" />
		<tag k="place" v="locality" />
		<tag k="ssr:stedsnr" v="5304" />
	</node>
	<node lat="60.375916670320926" lon="6.643136113901354" id="-26705">
		<tag k="fixme" v="consider place=hamlet" />
		<tag k="name" v="Hauso" />
		<tag k="place" v="farm" />
		<tag k="ssr:stedsnr" v="5257" />
	</node>
	<node lat="60.290327776036" lon="6.296741665413504" id="-26706">
		<tag k="name" v="Toni" />
		<tag k="place" v="locality" />
		<tag k="ssr:stedsnr" v="5418" />
	</node>
	<node lat="60.30033055430179" lon="6.563041669346558" id="-26707">
		<tag k="alt_name" v="Storehellerane" />
		<tag k="name" v="Storhellerane" />
		<tag k="place" v="locality" />
		<tag k="ssr:stedsnr" v="5421" />
	</node>
	<node lat="60.29303333097526" lon="6.323502773829681" id="-26708">
		<tag k="name" v="Ilaskori" />
		<tag k="natural" v="slope" />
		<tag k="place" v="locality" />
		<tag k="ssr:stedsnr" v="5431" />
	</node>
	<node lat="60.2767361091108" lon="6.264433329413236" id="-26709">
		<tag k="name" v="Rabben" />
		<tag k="place" v="farm" />
		<tag k="ssr:stedsnr" v="5461" />
	</node>
	<node lat="60.21592777735775" lon="6.855658329157608" id="-26710">
		<tag k="name" v="Simlehaugane" />
		<tag k="natural" v="hill" />
		<tag k="place" v="locality" />
		<tag k="ssr:stedsnr" v="5464" />
	</node>
	<node lat="60.21953055269373" lon="6.913250004408417" id="-26711">
		<tag k="fixme" v="consider natural=peak for the most distinct mountains in the district" />
		<tag k="name" v="Vargen" />
		<tag k="natural" v="hill" />
		<tag k="place" v="locality" />
		<tag k="ssr:stedsnr" v="5469" />
	</node>
	<node lat="60.18996914692538" lon="6.6122980882388855" id="-26712">
		<tag k="alt_name" v="Fresvikestølen" />
		<tag k="historic" v="shieling" />
		<tag k="name" v="Oppsåta" />
		<tag k="place" v="isolated_dwelling" />
		<tag k="ssr:stedsnr" v="5470" />
	</node>
	<node lat="60.20627777737523" lon="6.134411112302758" id="-26713">
		<tag k="name" v="Kyrkjeberget" />
		<tag k="natural" v="hill" />
		<tag k="place" v="locality" />
		<tag k="ssr:stedsnr" v="5475" />
	</node>
	<node lat="60.28415361512466" lon="7.07728416092915" id="-26714">
		<tag k="name" v="Vatnalivatnet" />
		<tag k="natural" v="water" />
		<tag k="ssr:stedsnr" v="5476" />
		<tag k="water" v="lake" />
	</node>
	<node lat="60.20895833076024" lon="6.175574991886275" id="-26715">
		<tag k="name" v="Kvanngrød" />
		<tag k="natural" v="slope" />
		<tag k="place" v="locality" />
		<tag k="ssr:stedsnr" v="5477" />
	</node>
	<node lat="60.253449082220165" lon="6.831730883859926" id="-26716">
		<tag k="name" v="Langeløk" />
		<tag k="natural" v="water" />
		<tag k="ssr:stedsnr" v="5624" />
	</node>
	<node lat="60.2561611132844" lon="6.308219437785159" id="-26717">
		<tag k="name" v="Breidsetenotten" />
		<tag k="natural" v="hill" />
		<tag k="place" v="locality" />
		<tag k="ssr:stedsnr" v="5365" />
	</node>
	<node lat="60.26084350441429" lon="6.268656895763555" id="-26718">
		<tag k="name" v="Kroktjørni" />
		<tag k="natural" v="water" />
		<tag k="ssr:stedsnr" v="5366" />
	</node>
	<node lat="60.26011388901995" lon="6.3626999970239115" id="-26719">
		<tag k="name" v="Nonskarddalen" />
		<tag k="natural" v="valley" />
		<tag k="place" v="locality" />
		<tag k="ssr:stedsnr" v="5368" />
	</node>
	<node lat="60.25579910277308" lon="6.344160043438033" id="-26720">
		<tag k="historic" v="shieling" />
		<tag k="name" v="Flatabøgrytingen" />
		<tag k="place" v="isolated_dwelling" />
		<tag k="ssr:stedsnr" v="5369" />
	</node>
	<node lat="60.33729444432233" lon="7.081486107031458" id="-26721">
		<tag k="name" v="Kjelabotn" />
		<tag k="natural" v="valley" />
		<tag k="place" v="locality" />
		<tag k="ssr:stedsnr" v="5520" />
	</node>
	<node lat="60.191457964243845" lon="6.17739867406635" id="-26722">
		<tag k="name" v="Langavatnet" />
		<tag k="natural" v="water" />
		<tag k="ssr:stedsnr" v="5521" />
	</node>
	<node lat="60.35308332987846" lon="7.115977780325764" id="-26723">
		<tag k="name" v="Flatarehaug" />
		<tag k="natural" v="hill" />
		<tag k="place" v="locality" />
		<tag k="ssr:stedsnr" v="5526" />
	</node>
	<node lat="60.18533055944927" lon="6.093986107572444" id="-26724">
		<tag k="alt_name" v="Gausvika, vesla;Vesle Gausvika" />
		<tag k="name" v="Vetla Gausvika" />
		<tag k="natural" v="bay" />
		<tag k="ssr:stedsnr" v="5535" />
	</node>
	<node lat="60.23752777711814" lon="6.214927781324743" id="-26725">
		<tag k="fixme" v="consider natural=peak for the most distinct mountains in the district" />
		<tag k="name" v="Øydjordsfjellet" />
		<tag k="natural" v="hill" />
		<tag k="place" v="locality" />
		<tag k="ssr:stedsnr" v="5709" />
	</node>
	<node lat="60.22263611520774" lon="6.3874166620290875" id="-26726">
		<tag k="name" v="Urdadalen" />
		<tag k="natural" v="valley" />
		<tag k="place" v="locality" />
		<tag k="ssr:stedsnr" v="5801" />
	</node>
	<node lat="60.2105777763893" lon="6.527377773033563" id="-26727">
		<tag k="fixme" v="consider natural=peak for the most distinct mountains in the district" />
		<tag k="name" v="Såta" />
		<tag k="natural" v="hill" />
		<tag k="place" v="locality" />
		<tag k="ssr:stedsnr" v="5813" />
	</node>
	<node lat="60.207171721036865" lon="6.565554493668923" id="-26728">
		<tag k="name" v="Himlesviki" />
		<tag k="natural" v="bay" />
		<tag k="ssr:stedsnr" v="5815" />
	</node>
	<node lat="60.198383331935574" lon="6.230913880274963" id="-26729">
		<tag k="name" v="Demmevatnet" />
		<tag k="natural" v="water" />
		<tag k="ssr:stedsnr" v="5817" />
	</node>
	<node lat="60.239999998670456" lon="6.536650006715336" id="-26730">
		<tag k="alt_name" v="Strutelvi" />
		<tag k="name" v="Strutåna" />
		<tag k="ssr:stedsnr" v="5777" />
		<tag k="waterway" v="stream" />
	</node>
	<node lat="60.26406666568118" lon="6.777116659587776" id="-26731">
		<tag k="fixme" v="consider natural=peak for the most distinct mountains in the district" />
		<tag k="name" v="Blåsenborg" />
		<tag k="natural" v="hill" />
		<tag k="place" v="locality" />
		<tag k="ssr:stedsnr" v="22188" />
	</node>
	<node lat="60.27548889129072" lon="6.959905558302076" id="-26732">
		<tag k="name" v="Fossane" />
		<tag k="natural" v="waterfall" />
		<tag k="ssr:stedsnr" v="22189" />
	</node>
	<node lat="60.366096998277804" lon="6.597518743297856" id="-26733">
		<tag k="name" v="Stora Hausanutvatnet" />
		<tag k="natural" v="water" />
		<tag k="ssr:stedsnr" v="22194" />
		<tag k="water" v="lake" />
	</node>
	<node lat="60.18387222553508" lon="6.571144447681413" id="-26734">
		<tag k="bay" v="fjord" />
		<tag k="name" v="Sørfjorden" />
		<tag k="natural" v="bay" />
		<tag k="ssr:stedsnr" v="24295" />
	</node>
	<node lat="60.374576814030696" lon="6.727523338827746" id="-26735">
		<tag k="fixme" v="consider place=hamlet" />
		<tag k="name" v="Bråvoll" />
		<tag k="place" v="farm" />
		<tag k="ssr:stedsnr" v="24935" />
	</node>
	<node lat="60.34491110922899" lon="6.6284222185167305" id="-26736">
		<tag k="name" v="Krossen" />
		<tag k="natural" v="cape" />
		<tag k="ssr:stedsnr" v="37170" />
	</node>
	<node lat="60.34783889166317" lon="6.6210805555546886" id="-26737">
		<tag k="name" v="Kleivi" />
		<tag k="natural" v="slope" />
		<tag k="place" v="locality" />
		<tag k="ssr:stedsnr" v="37171" />
	</node>
	<node lat="60.351827781591794" lon="6.752394444840555" id="-26738">
		<tag k="name" v="Tveitane" />
		<tag k="place" v="locality" />
		<tag k="ssr:stedsnr" v="37721" />
	</node>
	<node lat="60.35968610791951" lon="6.758469447153168" id="-26739">
		<tag k="name" v="Orreleikane" />
		<tag k="place" v="locality" />
		<tag k="ssr:stedsnr" v="37723" />
	</node>
	<node lat="60.41977500009686" lon="6.6162805575146875" id="-26740">
		<tag k="name" v="Vetlebekken" />
		<tag k="ssr:stedsnr" v="38107" />
		<tag k="waterway" v="stream" />
	</node>
	<node lat="60.424705554600585" lon="6.542266668730103" id="-26741">
		<tag k="name" v="Øyri" />
		<tag k="place" v="farm" />
		<tag k="ssr:stedsnr" v="38114" />
	</node>
	<node lat="60.407066667467504" lon="6.5438361176103745" id="-26742">
		<tag k="name" v="Geiren" />
		<tag k="place" v="locality" />
		<tag k="ssr:stedsnr" v="38121" />
	</node>
	<node lat="60.40463333331689" lon="6.62021944893775" id="-26743">
		<tag k="name" v="Selskodalen" />
		<tag k="natural" v="valley" />
		<tag k="place" v="locality" />
		<tag k="ssr:stedsnr" v="38165" />
	</node>
	<node lat="60.40326666573304" lon="6.61483610985144" id="-26744">
		<tag k="name" v="Skjerurslåtta" />
		<tag k="place" v="locality" />
		<tag k="ssr:stedsnr" v="38167" />
	</node>
	<node lat="60.3306444407944" lon="6.3940305592268" id="-26745">
		<tag k="name" v="Ingeleivsleitet" />
		<tag k="natural" v="slope" />
		<tag k="place" v="locality" />
		<tag k="ssr:stedsnr" v="38059" />
	</node>
	<node lat="60.24822800710041" lon="6.416591435427647" id="-26746">
		<tag k="name" v="Ytstetjørn" />
		<tag k="natural" v="water" />
		<tag k="ssr:stedsnr" v="38064" />
	</node>
	<node lat="60.32190555631907" lon="6.464572226780366" id="-26747">
		<tag k="name" v="Ljosåni" />
		<tag k="ssr:stedsnr" v="38075" />
		<tag k="waterway" v="stream" />
	</node>
	<node lat="60.40046944226226" lon="6.6219416617477975" id="-26748">
		<tag k="name" v="Myrane" />
		<tag k="natural" v="wetland" />
		<tag k="ssr:stedsnr" v="38077" />
	</node>
	<node lat="59.76650277890223" lon="6.804555547254672" id="-26749">
		<tag k="name" v="Hattebergmyra" />
		<tag k="natural" v="wetland" />
		<tag k="ssr:stedsnr" v="38309" />
	</node>
	<node lat="59.944366667190806" lon="6.5971611045091105" id="-26750">
		<tag k="name" v="Tymbervika" />
		<tag k="natural" v="bay" />
		<tag k="ssr:stedsnr" v="38396" />
	</node>
	<node lat="59.87541110834249" lon="6.888813894949905" id="-26751">
		<tag k="name" v="Valldalsdammen" />
		<tag k="ssr:stedsnr" v="38502" />
		<tag k="waterway" v="dam" />
	</node>
	<node lat="60.24901944723766" lon="6.621025006109114" id="-26752">
		<tag k="name" v="Sakshaug" />
		<tag k="natural" v="hill" />
		<tag k="place" v="locality" />
		<tag k="ssr:stedsnr" v="38509" />
	</node>
	<node lat="60.03328001939626" lon="6.575959048264861" id="-26753">
		<tag k="name" v="Lusatjørn" />
		<tag k="natural" v="water" />
		<tag k="ssr:stedsnr" v="38512" />
	</node>
	<node lat="60.04119166690447" lon="6.524861102937955" id="-26754">
		<tag k="name" v="Purkeset" />
		<tag k="place" v="locality" />
		<tag k="ssr:stedsnr" v="38521" />
	</node>
	<node lat="60.27278333252333" lon="6.294888888433334" id="-26755">
		<tag k="name" v="Halsgjelet" />
		<tag k="natural" v="gorge" />
		<tag k="ssr:stedsnr" v="38522" />
	</node>
	<node lat="60.3166333320519" lon="6.676622223369191" id="-26756">
		<tag k="name" v="Holmane" />
		<tag k="place" v="islet" />
		<tag k="ssr:stedsnr" v="38524" />
	</node>
	<node lat="60.023199998949245" lon="6.543402770990501" id="-26757">
		<tag k="name" v="Kvernaneset" />
		<tag k="natural" v="cape" />
		<tag k="ssr:stedsnr" v="38530" />
	</node>
	<node lat="60.36222500384002" lon="6.687111102314655" id="-26758">
		<tag k="name" v="Lauhaug" />
		<tag k="natural" v="hill" />
		<tag k="place" v="locality" />
		<tag k="ssr:stedsnr" v="38532" />
	</node>
	<node lat="60.01672777649288" lon="6.660627775296803" id="-26759">
		<tag k="name" v="Storegjelet" />
		<tag k="place" v="locality" />
		<tag k="ssr:stedsnr" v="38535" />
	</node>
	<node lat="60.355200001549086" lon="6.675091672162838" id="-26760">
		<tag k="name" v="Skorane" />
		<tag k="natural" v="slope" />
		<tag k="place" v="locality" />
		<tag k="ssr:stedsnr" v="38536" />
	</node>
	<node lat="60.28341388796101" lon="6.631397216487254" id="-26761">
		<tag k="name" v="Beitarhaugen" />
		<tag k="natural" v="hill" />
		<tag k="place" v="locality" />
		<tag k="ssr:stedsnr" v="38537" />
	</node>
	<node lat="60.27824999820147" lon="6.364936106899171" id="-26762">
		<tag k="name" v="Ståhaug" />
		<tag k="natural" v="hill" />
		<tag k="place" v="locality" />
		<tag k="ssr:stedsnr" v="38540" />
	</node>
	<node lat="60.15048889323685" lon="6.189794447168826" id="-26763">
		<tag k="fixme" v="consider natural=peak for the most distinct mountains in the district" />
		<tag k="name" v="Vetlafjellet" />
		<tag k="natural" v="hill" />
		<tag k="place" v="locality" />
		<tag k="ssr:stedsnr" v="38411" />
	</node>
	<node lat="60.14071944851012" lon="6.531622221674622" id="-26764">
		<tag k="name" v="Røyrgjelhaugen" />
		<tag k="natural" v="hill" />
		<tag k="place" v="locality" />
		<tag k="ssr:stedsnr" v="38421" />
	</node>
	<node lat="59.811358337775275" lon="6.818499997415638" id="-26765">
		<tag k="name" v="Tveitlia" />
		<tag k="natural" v="slope" />
		<tag k="place" v="locality" />
		<tag k="ssr:stedsnr" v="38458" />
	</node>
	<node lat="60.095263888629546" lon="6.549424998541918" id="-26766">
		<tag k="loc_name" v="Hundaflot" />
		<tag k="name" v="Hundaflott" />
		<tag k="place" v="locality" />
		<tag k="ssr:stedsnr" v="38605" />
	</node>
	<node lat="60.33047222522723" lon="6.6788777827872785" id="-26767">
		<tag k="ford" v="yes" />
		<tag k="name" v="Kaldavad" />
		<tag k="place" v="locality" />
		<tag k="ssr:stedsnr" v="38610" />
	</node>
	<node lat="60.33693611387054" lon="6.661111115074947" id="-26768">
		<tag k="name" v="Håfjell" />
		<tag k="place" v="locality" />
		<tag k="ssr:stedsnr" v="38616" />
	</node>
	<node lat="60.331419443837206" lon="6.670349994688604" id="-26769">
		<tag k="name" v="Rosshagen" />
		<tag k="place" v="farm" />
		<tag k="ssr:stedsnr" v="38619" />
	</node>
	<node lat="60.286055556983825" lon="6.390758326757676" id="-26770">
		<tag k="name" v="Koprebakkane" />
		<tag k="natural" v="slope" />
		<tag k="place" v="locality" />
		<tag k="ssr:stedsnr" v="38622" />
	</node>
	<node lat="60.28624722564795" lon="6.380180556652929" id="-26771">
		<tag k="name" v="Omnskor" />
		<tag k="place" v="locality" />
		<tag k="ssr:stedsnr" v="38624" />
	</node>
	<node lat="60.3560166701405" lon="6.3960222282055295" id="-26772">
		<tag k="name" v="Hjellestadhamrane" />
		<tag k="natural" v="hill" />
		<tag k="place" v="locality" />
		<tag k="ssr:stedsnr" v="38628" />
	</node>
	<node lat="60.042911114200415" lon="6.492030552647771" id="-26773">
		<tag k="name" v="Smylveshamar" />
		<tag k="place" v="locality" />
		<tag k="ssr:stedsnr" v="38632" />
	</node>
	<node lat="60.23128888731937" lon="6.232508341280147" id="-26774">
		<tag k="name" v="Stokke" />
		<tag k="place" v="farm" />
		<tag k="ssr:stedsnr" v="38702" />
	</node>
	<node lat="60.276499997932135" lon="6.254833328970974" id="-26775">
		<tag k="fixme" v="consider place=hamlet" />
		<tag k="name" v="Underhaug" />
		<tag k="place" v="farm" />
		<tag k="ssr:stedsnr" v="38713" />
	</node>
	<node lat="60.27441388851639" lon="6.256999999342753" id="-26776">
		<tag k="name" v="Kinn" />
		<tag k="place" v="farm" />
		<tag k="ssr:stedsnr" v="38718" />
	</node>
	<node lat="60.27295555647447" lon="6.263694451555391" id="-26777">
		<tag k="name" v="Urane" />
		<tag k="natural" v="scree" />
		<tag k="ssr:stedsnr" v="38721" />
	</node>
	<node lat="60.421844448400584" lon="6.7563805502618255" id="-26778">
		<tag k="name" v="Håvardsrinden" />
		<tag k="natural" v="ridge" />
		<tag k="place" v="locality" />
		<tag k="ssr:stedsnr" v="38772" />
	</node>
	<node lat="60.426991666746005" lon="6.75879721908426" id="-26779">
		<tag k="name" v="Endresvodalen" />
		<tag k="natural" v="valley" />
		<tag k="place" v="locality" />
		<tag k="ssr:stedsnr" v="38774" />
	</node>
	<node lat="60.25619721892924" lon="6.235163887572524" id="-26780">
		<tag k="name" v="Lynghaugen" />
		<tag k="natural" v="hill" />
		<tag k="place" v="locality" />
		<tag k="ssr:stedsnr" v="38778" />
	</node>
	<node lat="60.38105832981858" lon="6.485022226214913" id="-26781">
		<tag k="name" v="Nybbevik" />
		<tag k="place" v="locality" />
		<tag k="ssr:stedsnr" v="38910" />
	</node>
	<node lat="60.33340833364123" lon="6.6650833423009175" id="-26782">
		<tag k="name" v="Spannskor" />
		<tag k="natural" v="slope" />
		<tag k="place" v="locality" />
		<tag k="ssr:stedsnr" v="38822" />
	</node>
	<node lat="60.29675555906685" lon="6.5927250014488825" id="-26783">
		<tag k="name" v="Nyeslåtten" />
		<tag k="place" v="farm" />
		<tag k="ssr:stedsnr" v="38858" />
	</node>
	<node lat="60.346077776139964" lon="6.409544447242813" id="-26784">
		<tag k="name" v="Rodna" />
		<tag k="place" v="locality" />
		<tag k="ssr:stedsnr" v="38860" />
	</node>
	<node lat="60.26663055836406" lon="6.29674722098448" id="-26785">
		<tag k="name" v="Tveddalsrindane" />
		<tag k="natural" v="hill" />
		<tag k="place" v="locality" />
		<tag k="ssr:stedsnr" v="38866" />
	</node>
	<node lat="60.37169722500452" lon="6.634530564030731" id="-26786">
		<tag k="name" v="Skarvhagen" />
		<tag k="natural" v="slope" />
		<tag k="place" v="locality" />
		<tag k="ssr:stedsnr" v="38867" />
	</node>
	<node lat="60.419738912838326" lon="6.634841561670603" id="-26787">
		<tag k="name" v="Veng" />
		<tag k="natural" v="stone" />
		<tag k="ssr:stedsnr" v="38873" />
	</node>
	<node lat="60.417284025012165" lon="6.644330778017245" id="-26788">
		<tag k="name" v="Hagastykket" />
		<tag k="place" v="locality" />
		<tag k="ssr:stedsnr" v="38877" />
	</node>
	<node lat="60.33202500124658" lon="6.494613897744678" id="-26789">
		<tag k="name" v="Lonena" />
		<tag k="natural" v="water" />
		<tag k="ssr:stedsnr" v="38879" />
		<tag k="water" v="lake" />
	</node>
	<node lat="60.37484444532122" lon="6.787019446989256" id="-26790">
		<tag k="historic" v="shieling" />
		<tag k="name" v="Smørstein" />
		<tag k="place" v="isolated_dwelling" />
		<tag k="ssr:stedsnr" v="39710" />
	</node>
	<node lat="60.173908337389186" lon="6.584224992444389" id="-26791">
		<tag k="name" v="Sjonaskallen" />
		<tag k="natural" v="hill" />
		<tag k="place" v="locality" />
		<tag k="ssr:stedsnr" v="39759" />
	</node>
	<node lat="60.40379167055648" lon="6.580966657668895" id="-26792">
		<tag k="alt_name" v="Demmane" />
		<tag k="name" v="Demmena" />
		<tag k="natural" v="water" />
		<tag k="ssr:stedsnr" v="237169" />
	</node>
	<node lat="60.11199444119175" lon="6.537263888412846" id="-26793">
		<tag k="name" v="Mulaneset" />
		<tag k="natural" v="cape" />
		<tag k="ssr:stedsnr" v="43691" />
	</node>
	<node lat="60.36474769415618" lon="6.3495792381399605" id="-26794">
		<tag k="name" v="Langneset" />
		<tag k="natural" v="cape" />
		<tag k="ssr:stedsnr" v="44096" />
	</node>
	<node lat="60.09638888452759" lon="6.546033329490344" id="-26795">
		<tag k="alt_name" v="Lindeneset, vla" />
		<tag k="name" v="Indra Lindeneset" />
		<tag k="natural" v="cape" />
		<tag k="ssr:stedsnr" v="238097" />
	</node>
	<node lat="60.434441665883114" lon="6.562605546853496" id="-26796">
		<tag k="name" v="Hesthamar" />
		<tag k="place" v="farm" />
		<tag k="ssr:stedsnr" v="238098" />
	</node>
	<node lat="60.313072224049456" lon="6.305313886334332" id="-26797">
		<tag k="name" v="Doktorflui" />
		<tag k="old_name" v="Doktorflesa" />
		<tag k="place" v="locality" />
		<tag k="seamark:type" v="rock" />
		<tag k="ssr:stedsnr" v="44909" />
	</node>
	<node lat="60.245793986912226" lon="6.56724383950279" id="-26798">
		<tag k="bridge" v="yes" />
		<tag k="layer" v="1" />
		<tag k="name" v="Bleie" />
		<tag k="ssr:stedsnr" v="46786" />
	</node>
	<node lat="60.24039999949419" lon="6.6198138966296645" id="-26799">
		<tag k="bridge" v="yes" />
		<tag k="layer" v="1" />
		<tag k="name" v="Glåmo" />
		<tag k="ssr:stedsnr" v="46787" />
	</node>
	<node lat="60.20561944707217" lon="6.563483330834149" id="-26800">
		<tag k="bridge" v="yes" />
		<tag k="layer" v="1" />
		<tag k="name" v="Måge" />
		<tag k="ssr:stedsnr" v="46789" />
	</node>
	<node lat="60.31540833085283" lon="6.322627773749846" id="-26801">
		<tag k="bridge" v="yes" />
		<tag k="layer" v="1" />
		<tag k="name" v="Månevik" />
		<tag k="ssr:stedsnr" v="46872" />
	</node>
	<node lat="60.347936114041225" lon="6.401388891012614" id="-26802">
		<tag k="bridge" v="yes" />
		<tag k="layer" v="1" />
		<tag k="name" v="Samland" />
		<tag k="ssr:stedsnr" v="46874" />
	</node>
	<node lat="59.78921944633776" lon="6.769186114074029" id="-26803">
		<tag k="bridge" v="yes" />
		<tag k="layer" v="1" />
		<tag k="name" v="Ekkje" />
		<tag k="ssr:stedsnr" v="46880" />
	</node>
	<node lat="60.424050002349375" lon="6.621780551209828" id="-26806">
		<tag k="amenity" v="ferry_terminal" />
		<tag k="name" v="Utne ferjekai" />
		<tag k="ssr:stedsnr" v="60122" />
	</node>
	<node lat="59.95037500101089" lon="6.653819452829393" id="-26807">
		<tag k="name" v="Bjørnavadet" />
		<tag k="place" v="locality" />
		<tag k="ssr:stedsnr" v="64122" />
	</node>
	<node lat="59.957800004268904" lon="6.8302694439729885" id="-26808">
		<tag k="fixme" v="consider natural=peak for the most distinct mountains in the district" />
		<tag k="name" v="Loftsnuten" />
		<tag k="natural" v="hill" />
		<tag k="place" v="locality" />
		<tag k="ssr:stedsnr" v="64131" />
	</node>
	<node lat="59.74266666688314" lon="6.781911105878238" id="-26809">
		<tag k="fixme" v="consider natural=peak for the most distinct mountains in the district" />
		<tag k="name" v="Straumberghalsen" />
		<tag k="natural" v="hill" />
		<tag k="place" v="locality" />
		<tag k="ssr:stedsnr" v="64134" />
	</node>
	<node lat="59.904200001674646" lon="6.644075004805044" id="-26810">
		<tag k="name" v="Løyningsvatnet" />
		<tag k="natural" v="water" />
		<tag k="ssr:stedsnr" v="64145" />
		<tag k="water" v="lake" />
	</node>
	<node lat="59.92324166394474" lon="6.620519447868506" id="-26811">
		<tag k="fixme" v="consider natural=peak for the most distinct mountains in the district" />
		<tag k="name" v="Nos" />
		<tag k="natural" v="hill" />
		<tag k="place" v="locality" />
		<tag k="ssr:stedsnr" v="64165" />
	</node>
	<node lat="59.92379999640411" lon="6.891788880884655" id="-26812">
		<tag k="name" v="Holdøla" />
		<tag k="ssr:stedsnr" v="64171" />
		<tag k="waterway" v="stream" />
	</node>
	<node lat="59.88570277753554" lon="6.9080361172044435" id="-26813">
		<tag k="name" v="Tangavadet" />
		<tag k="natural" v="shoal" />
		<tag k="place" v="locality" />
		<tag k="ssr:stedsnr" v="64203" />
	</node>
	<node lat="59.72918333155382" lon="6.787908331834033" id="-26814">
		<tag k="fixme" v="consider natural=peak for the most distinct mountains in the district" />
		<tag k="name" v="Svartenutskora" />
		<tag k="natural" v="hill" />
		<tag k="place" v="locality" />
		<tag k="ssr:stedsnr" v="64216" />
	</node>
	<node lat="59.81181666882745" lon="6.734030549253601" id="-26815">
		<tag k="fixme" v="consider natural=peak for the most distinct mountains in the district" />
		<tag k="name" v="Gausnibb" />
		<tag k="natural" v="hill" />
		<tag k="place" v="locality" />
		<tag k="ssr:stedsnr" v="64220" />
	</node>
	<node lat="59.724288885675264" lon="6.692499995078087" id="-26816">
		<tag k="fixme" v="consider natural=peak for the most distinct mountains in the district" />
		<tag k="name" v="Sauabakknuten" />
		<tag k="natural" v="hill" />
		<tag k="place" v="locality" />
		<tag k="ssr:stedsnr" v="64221" />
	</node>
	<node lat="59.959083336245186" lon="7.213425008312828" id="-26817">
		<tag k="name" v="Borda" />
		<tag k="ssr:stedsnr" v="64368" />
		<tag k="waterway" v="river" />
	</node>
	<node lat="59.98433139311442" lon="6.564823619674132" id="-26818">
		<tag k="alt_name" v="Massøyni" />
		<tag k="name" v="Massøyna" />
		<tag k="place" v="island" />
		<tag k="ssr:stedsnr" v="64405" />
	</node>
	<node lat="59.78702500009386" lon="7.048486114146148" id="-26819">
		<tag k="fixme" v="consider natural=peak for the most distinct mountains in the district" />
		<tag k="name" v="Høghellernuten" />
		<tag k="natural" v="hill" />
		<tag k="place" v="locality" />
		<tag k="ssr:stedsnr" v="64924" />
	</node>
	<node lat="59.80235555742884" lon="6.85603611908257" id="-26820">
		<tag k="historic" v="shieling" />
		<tag k="name" v="Nyastølen" />
		<tag k="place" v="isolated_dwelling" />
		<tag k="ssr:stedsnr" v="64801" />
	</node>
	<node lat="60.232563884977665" lon="6.8520583413492195" id="-26821">
		<tag k="name" v="Reppo" />
		<tag k="ssr:stedsnr" v="65008" />
		<tag k="waterway" v="river" />
	</node>
	<node lat="60.06511666563131" lon="6.5504249944729" id="-26822">
		<tag k="name" v="Opo" />
		<tag k="ssr:stedsnr" v="65063" />
		<tag k="waterway" v="river" />
	</node>
	<node lat="60.080091662442854" lon="6.515133332469417" id="-26823">
		<tag k="name" v="Røynhammarskreda" />
		<tag k="natural" v="valley" />
		<tag k="place" v="locality" />
		<tag k="ssr:stedsnr" v="65071" />
	</node>
	<node lat="59.84210833148331" lon="6.725794442742586" id="-26824">
		<tag k="name" v="Ullshaug" />
		<tag k="place" v="locality" />
		<tag k="ssr:stedsnr" v="65201" />
	</node>
	<node lat="59.86293587255179" lon="6.6922768104983765" id="-26825">
		<tag k="name" v="Seljestadjuvet" />
		<tag k="natural" v="valley" />
		<tag k="place" v="locality" />
		<tag k="ssr:stedsnr" v="65213" />
	</node>
	<node lat="59.8159790582552" lon="6.714101555059534" id="-26826">
		<tag k="name" v="Reinsvatnet" />
		<tag k="natural" v="water" />
		<tag k="ssr:stedsnr" v="65217" />
		<tag k="water" v="lake" />
	</node>
	<node lat="59.8160027816994" lon="6.749569440567216" id="-26827">
		<tag k="name" v="Håraelva" />
		<tag k="ssr:stedsnr" v="65218" />
		<tag k="waterway" v="river" />
	</node>
	<node lat="60.104950002636684" lon="6.51320555091975" id="-26828">
		<tag k="fixme" v="consider natural=peak for the most distinct mountains in the district" />
		<tag k="name" v="Husatinden" />
		<tag k="natural" v="hill" />
		<tag k="place" v="locality" />
		<tag k="ssr:stedsnr" v="65114" />
	</node>
	<node lat="60.118741665861094" lon="6.535911108879434" id="-26829">
		<tag k="name" v="Smylvehaugen" />
		<tag k="natural" v="hill" />
		<tag k="place" v="locality" />
		<tag k="ssr:stedsnr" v="65121" />
	</node>
	<node lat="60.13788333643864" lon="6.529288889915984" id="-26830">
		<tag k="name" v="Fivelsmyr" />
		<tag k="natural" v="wetland" />
		<tag k="ssr:stedsnr" v="65172" />
	</node>
	<node lat="60.13914722121433" lon="6.533302779283873" id="-26831">
		<tag k="name" v="Gjerdfoss" />
		<tag k="natural" v="waterfall" />
		<tag k="ssr:stedsnr" v="65174" />
	</node>
	<node lat="59.8552750022923" lon="6.867683332743192" id="-26832">
		<tag k="historic" v="shieling" />
		<tag k="name" v="Nyastøl" />
		<tag k="place" v="isolated_dwelling" />
		<tag k="ssr:stedsnr" v="65189" />
	</node>
	<node lat="60.1541583341347" lon="6.509399995943735" id="-26833">
		<tag k="fixme" v="consider natural=peak for the most distinct mountains in the district" />
		<tag k="name" v="Storenuten" />
		<tag k="natural" v="hill" />
		<tag k="place" v="locality" />
		<tag k="ssr:stedsnr" v="65191" />
	</node>
	<node lat="60.15282499904432" lon="6.583938884510945" id="-26834">
		<tag k="name" v="Skuggaberg" />
		<tag k="natural" v="hill" />
		<tag k="place" v="locality" />
		<tag k="ssr:stedsnr" v="65197" />
	</node>
	<node lat="60.154194446590566" lon="7.068311119181435" id="-26835">
		<tag k="name" v="Grøndalshæ" />
		<tag k="natural" v="hill" />
		<tag k="place" v="locality" />
		<tag k="ssr:stedsnr" v="65311" />
	</node>
	<node lat="60.12100555898642" lon="6.851863893520712" id="-26836">
		<tag k="name" v="Bukkaskaret" />
		<tag k="natural" v="valley" />
		<tag k="place" v="locality" />
		<tag k="ssr:stedsnr" v="65411" />
	</node>
	<node lat="60.05630555870827" lon="7.386933327194101" id="-26837">
		<tag k="name" v="Jakobsbudalen" />
		<tag k="natural" v="valley" />
		<tag k="place" v="locality" />
		<tag k="ssr:stedsnr" v="65633" />
	</node>
	<node lat="60.231371826975646" lon="6.31784607692442" id="-26838">
		<tag k="name" v="Freddalsvatnet" />
		<tag k="natural" v="water" />
		<tag k="ssr:stedsnr" v="65808" />
	</node>
	<node lat="60.22802499799416" lon="6.383663895909554" id="-26839">
		<tag k="fixme" v="consider natural=peak for the most distinct mountains in the district" />
		<tag k="name" v="Steinafjell" />
		<tag k="natural" v="hill" />
		<tag k="place" v="locality" />
		<tag k="ssr:stedsnr" v="65812" />
	</node>
	<node lat="60.19585833341259" lon="6.506508326629908" id="-26840">
		<tag k="fixme" v="multiple name tags, choose one and add the other to alt_name" />
		<tag k="name" v="Luravatnet;Vetlavatnet" />
		<tag k="natural" v="water" />
		<tag k="ssr:stedsnr" v="65860" />
	</node>
	<node lat="59.90703055202539" lon="7.006808338456047" id="-26841">
		<tag k="name" v="Slettedalen" />
		<tag k="natural" v="valley" />
		<tag k="place" v="locality" />
		<tag k="ssr:stedsnr" v="65868" />
	</node>
	<node lat="59.856358335299575" lon="7.106816674684831" id="-26842">
		<tag k="historic" v="shieling" />
		<tag k="name" v="Nupshallene" />
		<tag k="place" v="isolated_dwelling" />
		<tag k="ssr:stedsnr" v="65870" />
	</node>
	<node lat="59.855980554652824" lon="7.048463885541715" id="-26843">
		<tag k="name" v="Middyrelva" />
		<tag k="ssr:stedsnr" v="65871" />
		<tag k="waterway" v="stream" />
	</node>
	<node lat="59.849516664401754" lon="7.131699998072892" id="-26844">
		<tag k="name" v="Midtfjellsvollen" />
		<tag k="place" v="isolated_dwelling" />
		<tag k="ssr:stedsnr" v="65881" />
	</node>
	<node lat="60.31994166593299" lon="6.414691659301803" id="-26845">
		<tag k="historic" v="shieling" />
		<tag k="name" v="Vatnasete" />
		<tag k="place" v="isolated_dwelling" />
		<tag k="ssr:stedsnr" v="66002" />
	</node>
	<node lat="60.32436995168642" lon="6.526557380884311" id="-26846">
		<tag k="alt_name" v="Samladalsvatnet, in" />
		<tag k="name" v="Samladalsvatnet" />
		<tag k="natural" v="water" />
		<tag k="ssr:stedsnr" v="66008" />
		<tag k="water" v="lake" />
	</node>
	<node lat="60.32245833481844" lon="6.484030552615383" id="-26847">
		<tag k="name" v="Djupadalen" />
		<tag k="natural" v="valley" />
		<tag k="place" v="locality" />
		<tag k="ssr:stedsnr" v="66010" />
	</node>
	<node lat="60.307744444798686" lon="6.307233330929553" id="-26848">
		<tag k="name" v="Lyingahaugen" />
		<tag k="natural" v="hill" />
		<tag k="place" v="locality" />
		<tag k="ssr:stedsnr" v="66016" />
	</node>
	<node lat="60.30312499752533" lon="6.3508499987529765" id="-26849">
		<tag k="fixme" v="consider natural=peak for the most distinct mountains in the district" />
		<tag k="name" v="Gaddane" />
		<tag k="natural" v="hill" />
		<tag k="place" v="locality" />
		<tag k="ssr:stedsnr" v="66024" />
	</node>
	<node lat="60.24811111167115" lon="6.204666659046083" id="-26850">
		<tag k="name" v="Saltkjelsfjøra" />
		<tag k="natural" v="bay" />
		<tag k="old_name" v="Saltkjelen" />
		<tag k="ssr:stedsnr" v="65754" />
	</node>
	<node lat="59.98520000049716" lon="7.015461111652743" id="-26851">
		<tag k="fixme" v="consider natural=peak for the most distinct mountains in the district" />
		<tag k="name" v="Middalsrusta" />
		<tag k="natural" v="hill" />
		<tag k="place" v="locality" />
		<tag k="ssr:stedsnr" v="65763" />
	</node>
	<node lat="60.13671944195151" lon="6.147425002268343" id="-26852">
		<tag k="name" v="Tømmervika" />
		<tag k="natural" v="bay" />
		<tag k="ssr:stedsnr" v="65902" />
	</node>
	<node lat="60.3038055592447" lon="6.692724990748203" id="-26853">
		<tag k="name" v="Skrikjo" />
		<tag k="ssr:stedsnr" v="66306" />
		<tag k="waterway" v="stream" />
	</node>
	<node lat="60.40924722501804" lon="6.624366659644655" id="-26854">
		<tag k="name" v="Utnesdalen" />
		<tag k="natural" v="valley" />
		<tag k="place" v="locality" />
		<tag k="ssr:stedsnr" v="66346" />
	</node>
	<node lat="60.38066110951031" lon="6.686180547083742" id="-26855">
		<tag k="fixme" v="consider place=hamlet" />
		<tag k="name" v="Ystanes" />
		<tag k="place" v="farm" />
		<tag k="ssr:stedsnr" v="66356" />
	</node>
	<node lat="60.27046666913344" lon="6.48290832991675" id="-26856">
		<tag k="loc_name" v="Klokkaren" />
		<tag k="man_made" v="cairn" />
		<tag k="name" v="Klokkarane" />
		<tag k="place" v="locality" />
		<tag k="ssr:stedsnr" v="66368" />
	</node>
	<node lat="60.31508610822453" lon="6.392508337924787" id="-26857">
		<tag k="name" v="Orrebekken" />
		<tag k="ssr:stedsnr" v="66047" />
		<tag k="waterway" v="stream" />
	</node>
	<node lat="60.31208055386325" lon="6.437477778557312" id="-26858">
		<tag k="name" v="Torsteinskorfjellet" />
		<tag k="natural" v="hill" />
		<tag k="place" v="locality" />
		<tag k="ssr:stedsnr" v="66051" />
	</node>
	<node lat="60.340421390672134" lon="6.377954552929504" id="-26859">
		<tag k="fixme" v="consider place=hamlet" />
		<tag k="name" v="Vik" />
		<tag k="place" v="farm" />
		<tag k="ssr:stedsnr" v="66099" />
	</node>
	<node lat="60.37248610946876" lon="6.957505559052251" id="-26860">
		<tag k="name" v="Dyrafonn" />
		<tag k="natural" v="glacier" />
		<tag k="ssr:stedsnr" v="66251" />
	</node>
	<node lat="60.36239767670912" lon="6.709215139430665" id="-26861">
		<tag k="historic" v="shieling" />
		<tag k="name" v="Heng" />
		<tag k="place" v="isolated_dwelling" />
		<tag k="ssr:stedsnr" v="66256" />
	</node>
	<node lat="60.31030111340467" lon="6.599789455915852" id="-26862">
		<tag k="fixme" v="multiple name tags, choose one and add the other to alt_name" />
		<tag k="historic" v="shieling" />
		<tag k="name" v="Hudnasete;Stølen" />
		<tag k="place" v="isolated_dwelling" />
		<tag k="ssr:stedsnr" v="66296" />
	</node>
	<node lat="60.323494605103534" lon="6.812745680416588" id="-26863">
		<tag k="name" v="Rjuvavatnet" />
		<tag k="natural" v="water" />
		<tag k="ssr:stedsnr" v="66297" />
		<tag k="water" v="lake" />
	</node>
	<node lat="60.299530557636146" lon="6.6024888955322165" id="-26864">
		<tag k="fixme" v="consider place=hamlet" />
		<tag k="name" v="Aga" />
		<tag k="place" v="village" />
		<tag k="ssr:stedsnr" v="66299" />
	</node>
	<node lat="60.29590000283307" lon="6.332444443245577" id="-26865">
		<tag k="fixme" v="consider natural=peak for the most distinct mountains in the district" />
		<tag k="name" v="Hædna" />
		<tag k="natural" v="hill" />
		<tag k="place" v="locality" />
		<tag k="ssr:stedsnr" v="66416" />
	</node>
	<node lat="60.27394444660279" lon="7.20841389204505" id="-26866">
		<tag k="name" v="Rjupehaug" />
		<tag k="natural" v="hill" />
		<tag k="place" v="locality" />
		<tag k="ssr:stedsnr" v="66594" />
	</node>
	<node lat="60.226061112226894" lon="6.194441660854352" id="-26867">
		<tag k="name" v="Hamnen" />
		<tag k="natural" v="bay" />
		<tag k="ssr:stedsnr" v="66709" />
	</node>
	<node lat="60.290738889311775" lon="6.900730558994632" id="-26868">
		<tag k="name" v="Rekadalen" />
		<tag k="natural" v="valley" />
		<tag k="place" v="locality" />
		<tag k="ssr:stedsnr" v="66670" />
	</node>
	<node lat="60.420691663099106" lon="6.876588890518857" id="-26869">
		<tag k="name" v="Skoddadalen" />
		<tag k="natural" v="valley" />
		<tag k="place" v="locality" />
		<tag k="ssr:stedsnr" v="67606" />
	</node>
	<node lat="60.114456031340374" lon="6.559408016732408" id="-26870">
		<tag k="alt_name" v="Tyssedalstveit" />
		<tag k="fixme" v="consider place=hamlet" />
		<tag k="name" v="Tyssedalstveiti" />
		<tag k="place" v="farm" />
		<tag k="ssr:stedsnr" v="242737" />
	</node>
	<node lat="59.97114999866057" lon="6.717994444030287" id="-26871">
		<tag k="loc_name" v="Storetjørna;Storatjørn" />
		<tag k="name" v="Storetjørni" />
		<tag k="natural" v="water" />
		<tag k="ssr:stedsnr" v="81523" />
	</node>
	<node lat="60.348738885885425" lon="6.7432583376263135" id="-26872">
		<tag k="fixme" v="consider natural=peak for the most distinct mountains in the district" />
		<tag k="name" v="Tveitafjellet" />
		<tag k="natural" v="hill" />
		<tag k="place" v="locality" />
		<tag k="ssr:stedsnr" v="82194" />
	</node>
	<node lat="60.098841494568326" lon="6.514136168515893" id="-26873">
		<tag k="name" v="Eitrheim" />
		<tag k="place" v="farm" />
		<tag k="ssr:stedsnr" v="82615" />
	</node>
	<node lat="60.22739166563695" lon="7.0739527741839465" id="-26874">
		<tag k="name" v="Grøndalen" />
		<tag k="natural" v="valley" />
		<tag k="place" v="locality" />
		<tag k="ssr:stedsnr" v="82946" />
	</node>
	<node lat="60.388802781277384" lon="6.717072219145418" id="-26875">
		<tag k="name" v="Flugebakken" />
		<tag k="natural" v="slope" />
		<tag k="place" v="locality" />
		<tag k="ssr:stedsnr" v="83182" />
	</node>
	<node lat="60.09894999981634" lon="7.487983339709965" id="-26876">
		<tag k="name" v="Hardangervidda" />
		<tag k="natural" v="plateau" />
		<tag k="ssr:stedsnr" v="85109" />
	</node>
	<node lat="59.88046944456446" lon="6.66123610299609" id="-26877">
		<tag k="leisure" v="pitch" />
		<tag k="name" v="Korlevoll skistadion" />
		<tag k="ssr:stedsnr" v="85185" />
	</node>
	<node lat="60.006747221513514" lon="6.60293889612155" id="-26878">
		<tag k="fixme" v="consider natural=peak for the most distinct mountains in the district" />
		<tag k="name" v="Rundenuten" />
		<tag k="natural" v="hill" />
		<tag k="place" v="locality" />
		<tag k="ssr:stedsnr" v="85512" />
	</node>
	<node lat="59.930663891053605" lon="6.669405561341681" id="-26879">
		<tag k="name" v="Sandabekken" />
		<tag k="ssr:stedsnr" v="246174" />
		<tag k="waterway" v="stream" />
	</node>
	<node lat="59.69925997381087" lon="6.759035901043074" id="-26880">
		<tag k="fixme" v="consider natural=peak for the most distinct mountains in the district" />
		<tag k="loc_name" v="Marknut" />
		<tag k="name" v="Martnuten" />
		<tag k="natural" v="hill" />
		<tag k="place" v="locality" />
		<tag k="ssr:stedsnr" v="246199" />
	</node>
	<node lat="59.71915555741523" lon="6.760580553442619" id="-26881">
		<tag k="historic" v="shieling" />
		<tag k="name" v="Dalastølen" />
		<tag k="place" v="isolated_dwelling" />
		<tag k="ssr:stedsnr" v="246241" />
	</node>
	<node lat="59.977061482764235" lon="6.518373161687521" id="-26882">
		<tag k="name" v="Vierdalsloni" />
		<tag k="natural" v="water" />
		<tag k="ssr:stedsnr" v="246397" />
	</node>
	<node lat="59.96503888944432" lon="6.534136110889158" id="-26883">
		<tag k="name" v="Andaretjørn" />
		<tag k="natural" v="water" />
		<tag k="ssr:stedsnr" v="246399" />
	</node>
	<node lat="59.96930282205591" lon="6.540170169916354" id="-26884">
		<tag k="name" v="Leitetjørn" />
		<tag k="natural" v="water" />
		<tag k="ssr:stedsnr" v="246400" />
	</node>
	<node lat="59.81148055508373" lon="6.809225003335233" id="-26885">
		<tag k="name" v="Kvile" />
		<tag k="place" v="farm" />
		<tag k="ssr:stedsnr" v="246761" />
	</node>
	<node lat="59.8106836721521" lon="6.901237941080645" id="-26886">
		<tag k="name" v="Austmannatjørna" />
		<tag k="natural" v="water" />
		<tag k="ssr:stedsnr" v="246764" />
	</node>
	<node lat="59.798750002002784" lon="6.771408339439292" id="-26887">
		<tag k="name" v="Vikanes" />
		<tag k="natural" v="cape" />
		<tag k="ssr:stedsnr" v="246755" />
	</node>
	<node lat="59.81318333079088" lon="6.810575006337975" id="-26888">
		<tag k="name" v="Tveita" />
		<tag k="place" v="farm" />
		<tag k="ssr:stedsnr" v="246760" />
	</node>
	<node lat="59.99324444124162" lon="6.6196722239802375" id="-26889">
		<tag k="name" v="Hildalsdalen" />
		<tag k="natural" v="valley" />
		<tag k="place" v="locality" />
		<tag k="ssr:stedsnr" v="247089" />
	</node>
	<node lat="59.96454444653129" lon="6.68950833540715" id="-26890">
		<tag k="fixme" v="consider natural=peak for the most distinct mountains in the district" />
		<tag k="name" v="Halsen" />
		<tag k="natural" v="hill" />
		<tag k="place" v="locality" />
		<tag k="ssr:stedsnr" v="247154" />
	</node>
	<node lat="59.96144166806172" lon="6.672994449365016" id="-26891">
		<tag k="historic" v="shieling" />
		<tag k="name" v="Fisketjørnstølen" />
		<tag k="place" v="isolated_dwelling" />
		<tag k="ssr:stedsnr" v="247156" />
	</node>
	<node lat="60.12782499859268" lon="6.579849997709778" id="-26892">
		<tag k="alt_name" v="Tyssenuten" />
		<tag k="fixme" v="consider natural=peak for the most distinct mountains in the district" />
		<tag k="name" v="Tyssedalsnuten" />
		<tag k="natural" v="hill" />
		<tag k="place" v="locality" />
		<tag k="ssr:stedsnr" v="247157" />
	</node>
	<node lat="60.140272218129326" lon="6.528030553256145" id="-26893">
		<tag k="name" v="Litleli" />
		<tag k="natural" v="slope" />
		<tag k="place" v="locality" />
		<tag k="ssr:stedsnr" v="247163" />
	</node>
	<node lat="60.14033610690335" lon="6.59011388025484" id="-26894">
		<tag k="fixme" v="consider natural=peak for the most distinct mountains in the district" />
		<tag k="name" v="Reinatinden" />
		<tag k="natural" v="hill" />
		<tag k="place" v="locality" />
		<tag k="ssr:stedsnr" v="247168" />
	</node>
	<node lat="60.14988055682052" lon="6.529866658130286" id="-26895">
		<tag k="name" v="Skyrfosselvi" />
		<tag k="ssr:stedsnr" v="247172" />
		<tag k="waterway" v="stream" />
	</node>
	<node lat="60.14487777553048" lon="6.52079999469601" id="-26896">
		<tag k="name" v="Turtnagili" />
		<tag k="natural" v="valley" />
		<tag k="place" v="locality" />
		<tag k="ssr:stedsnr" v="247173" />
	</node>
	<node lat="59.85343888933976" lon="6.830319440365133" id="-26897">
		<tag k="historic" v="shieling" />
		<tag k="name" v="Austdalen" />
		<tag k="place" v="isolated_dwelling" />
		<tag k="ssr:stedsnr" v="247188" />
	</node>
	<node lat="60.15516666739083" lon="6.572449993648376" id="-26898">
		<tag k="name" v="Teigen" />
		<tag k="place" v="farm" />
		<tag k="ssr:stedsnr" v="247193" />
	</node>
	<node lat="59.86386666826844" lon="6.868652781932691" id="-26899">
		<tag k="historic" v="shieling" />
		<tag k="name" v="Bråstølflota" />
		<tag k="place" v="isolated_dwelling" />
		<tag k="ssr:stedsnr" v="247206" />
	</node>
	<node lat="59.866188890606104" lon="6.778774992457459" id="-26900">
		<tag k="fixme" v="consider natural=peak for the most distinct mountains in the district" />
		<tag k="name" v="Grøndalsnuten" />
		<tag k="natural" v="hill" />
		<tag k="place" v="locality" />
		<tag k="ssr:stedsnr" v="247208" />
	</node>
	<node lat="59.856124998071856" lon="6.664388880944674" id="-26901">
		<tag k="fixme" v="consider natural=peak for the most distinct mountains in the district" />
		<tag k="name" v="Histeinsnuten" />
		<tag k="natural" v="hill" />
		<tag k="place" v="locality" />
		<tag k="ssr:stedsnr" v="247213" />
	</node>
	<node lat="60.17769999995438" lon="6.576575007734982" id="-26902">
		<tag k="alt_name" v="Moshamar" />
		<tag k="name" v="Moshammarneset" />
		<tag k="natural" v="cape" />
		<tag k="ssr:stedsnr" v="247219" />
	</node>
	<node lat="59.83489166501982" lon="6.612977774771972" id="-26903">
		<tag k="name" v="Steinatjørnane" />
		<tag k="natural" v="water" />
		<tag k="ssr:stedsnr" v="247226" />
		<tag k="water" v="lake" />
	</node>
	<node lat="60.18286111216554" lon="6.551827784123722" id="-26904">
		<tag k="name" v="Eikhamrane" />
		<tag k="place" v="farm" />
		<tag k="ssr:stedsnr" v="247231" />
	</node>
	<node lat="60.06204721815941" lon="7.257444439207551" id="-26905">
		<tag k="fixme" v="consider natural=peak for the most distinct mountains in the district" />
		<tag k="name" v="Tua" />
		<tag k="natural" v="hill" />
		<tag k="place" v="locality" />
		<tag k="ssr:stedsnr" v="247242" />
	</node>
	<node lat="60.02023888735111" lon="7.022244445628531" id="-26906">
		<tag k="name" v="Tyristein" />
		<tag k="place" v="locality" />
		<tag k="ssr:stedsnr" v="247253" />
	</node>
	<node lat="60.184452777004516" lon="6.981972220149486" id="-26907">
		<tag k="name" v="Stora Kinso" />
		<tag k="ssr:stedsnr" v="247295" />
		<tag k="waterway" v="river" />
	</node>
	<node lat="60.21579999971173" lon="7.127936104791847" id="-26908">
		<tag k="fixme" v="consider natural=peak for the most distinct mountains in the district" />
		<tag k="name" v="Smørstamp" />
		<tag k="natural" v="hill" />
		<tag k="place" v="locality" />
		<tag k="ssr:stedsnr" v="247300" />
	</node>
	<node lat="60.04054166400539" lon="6.899902776561318" id="-26909">
		<tag k="name" v="Finahalli" />
		<tag k="natural" v="slope" />
		<tag k="place" v="locality" />
		<tag k="ssr:stedsnr" v="247385" />
	</node>
	<node lat="60.035219446278354" lon="6.633494436146828" id="-26910">
		<tag k="name" v="Sjauseteskaret" />
		<tag k="natural" v="valley" />
		<tag k="place" v="locality" />
		<tag k="ssr:stedsnr" v="247387" />
	</node>
	<node lat="60.130863893022216" lon="6.743130555705196" id="-26911">
		<tag k="name" v="Tysso" />
		<tag k="ssr:stedsnr" v="247398" />
		<tag k="waterway" v="river" />
	</node>
	<node lat="60.41936666544408" lon="6.801074997173789" id="-26912">
		<tag k="name" v="Fagradal" />
		<tag k="natural" v="valley" />
		<tag k="place" v="locality" />
		<tag k="ssr:stedsnr" v="248333" />
	</node>
	<node lat="60.40428480582494" lon="6.823054950983371" id="-26913">
		<tag k="name" v="Steintjørnane" />
		<tag k="natural" v="water" />
		<tag k="ssr:stedsnr" v="248338" />
		<tag k="water" v="lake" />
	</node>
	<node lat="60.41308888854654" lon="6.859363882512494" id="-26914">
		<tag k="fixme" v="consider natural=peak for the most distinct mountains in the district" />
		<tag k="name" v="Storeflåtten" />
		<tag k="natural" v="hill" />
		<tag k="place" v="locality" />
		<tag k="ssr:stedsnr" v="248341" />
	</node>
	<node lat="60.40626944767363" lon="6.740852778698605" id="-26915">
		<tag k="alt_name" v="Maurelvi" />
		<tag k="name" v="Mauro" />
		<tag k="ssr:stedsnr" v="248343" />
		<tag k="waterway" v="stream" />
	</node>
	<node lat="60.09618888610598" lon="6.54881944066901" id="-26916">
		<tag k="name" v="Slevebekken" />
		<tag k="ssr:stedsnr" v="247092" />
		<tag k="waterway" v="stream" />
	</node>
	<node lat="60.23770555309398" lon="6.971594450127121" id="-26917">
		<tag k="name" v="Kinsevatnet" />
		<tag k="natural" v="water" />
		<tag k="ssr:stedsnr" v="247327" />
		<tag k="water" v="lake" />
	</node>
	<node lat="60.030408335676434" lon="6.802622218395163" id="-26918">
		<tag k="name" v="Nordra Blåvatnet" />
		<tag k="natural" v="water" />
		<tag k="ssr:stedsnr" v="247336" />
		<tag k="water" v="lake" />
	</node>
	<node lat="60.02252222126806" lon="6.884661112277923" id="-26919">
		<tag k="name" v="Svartenutskori" />
		<tag k="natural" v="ridge" />
		<tag k="place" v="locality" />
		<tag k="ssr:stedsnr" v="247338" />
	</node>
	<node lat="60.148933336087026" lon="6.670366670288737" id="-26920">
		<tag k="name" v="Trombeskar" />
		<tag k="natural" v="valley" />
		<tag k="place" v="locality" />
		<tag k="ssr:stedsnr" v="247434" />
	</node>
	<node lat="60.13650728317609" lon="6.75398207125006" id="-26921">
		<tag k="name" v="Tyssestrengene" />
		<tag k="natural" v="waterfall" />
		<tag k="ssr:stedsnr" v="247443" />
	</node>
	<node lat="60.236419447297514" lon="6.92801667103248" id="-26922">
		<tag k="historic" v="shieling" />
		<tag k="name" v="Langhellefiti" />
		<tag k="place" v="isolated_dwelling" />
		<tag k="ssr:stedsnr" v="247446" />
	</node>
	<node lat="60.22068610997058" lon="6.82250556443917" id="-26923">
		<tag k="loc_name" v="Grjothaugen" />
		<tag k="name" v="Grothaugen" />
		<tag k="natural" v="hill" />
		<tag k="place" v="locality" />
		<tag k="ssr:stedsnr" v="247451" />
	</node>
	<node lat="60.20910277985421" lon="6.619963891270428" id="-26924">
		<tag k="alt_name" v="Skreda" />
		<tag k="name" v="Skredo" />
		<tag k="ssr:stedsnr" v="247453" />
		<tag k="waterway" v="stream" />
	</node>
	<node lat="60.16883888467914" lon="6.152769445411313" id="-26925">
		<tag k="historic" v="shieling" />
		<tag k="name" v="Heimasætret" />
		<tag k="place" v="isolated_dwelling" />
		<tag k="ssr:stedsnr" v="247541" />
	</node>
	<node lat="60.15525277870345" lon="6.170327785789327" id="-26927">
		<tag k="fixme" v="consider natural=peak for the most distinct mountains in the district" />
		<tag k="name" v="Saualifjell" />
		<tag k="natural" v="hill" />
		<tag k="place" v="locality" />
		<tag k="ssr:stedsnr" v="247594" />
	</node>
	<node lat="60.090125004323696" lon="7.3601277764689" id="-26928">
		<tag k="fixme" v="consider natural=peak for the most distinct mountains in the district" />
		<tag k="name" v="Krokavassekslene" />
		<tag k="natural" v="hill" />
		<tag k="place" v="locality" />
		<tag k="ssr:stedsnr" v="247719" />
	</node>
	<node lat="60.23701388856771" lon="6.203894436102223" id="-26929">
		<tag k="name" v="Torsneselva" />
		<tag k="ssr:stedsnr" v="247721" />
		<tag k="waterway" v="stream" />
	</node>
	<node lat="60.238903019348975" lon="6.234349831378538" id="-26930">
		<tag k="name" v="Vassvikane" />
		<tag k="natural" v="bay" />
		<tag k="ssr:stedsnr" v="247781" />
	</node>
	<node lat="59.75316389252621" lon="6.795441663474528" id="-26931">
		<tag k="fixme" v="consider place=hamlet" />
		<tag k="name" v="Botnen" />
		<tag k="place" v="village" />
		<tag k="ssr:stedsnr" v="247752" />
	</node>
	<node lat="60.22938611054433" lon="6.220949994780108" id="-26932">
		<tag k="name" v="Halvgjengesbekkene" />
		<tag k="ssr:stedsnr" v="247793" />
		<tag k="waterway" v="stream" />
	</node>
	<node lat="60.249034807056596" lon="6.552070487600219" id="-26933">
		<tag k="fixme" v="consider place=hamlet" />
		<tag k="name" v="Reisete" />
		<tag k="place" v="farm" />
		<tag k="ssr:stedsnr" v="247795" />
	</node>
	<node lat="60.132425001493026" lon="6.170108330894042" id="-26934">
		<tag k="name" v="Hessvikelva" />
		<tag k="ssr:stedsnr" v="98160" />
		<tag k="waterway" v="river" />
	</node>
	<node lat="59.746961107099686" lon="6.761022220124624" id="-26935">
		<tag k="name" v="Nipebekken" />
		<tag k="ssr:stedsnr" v="98361" />
		<tag k="waterway" v="stream" />
	</node>
	<node lat="60.15202453594874" lon="6.5381348259659875" id="-26936">
		<tag k="name" v="Einstabbehaugen" />
		<tag k="natural" v="hill" />
		<tag k="place" v="locality" />
		<tag k="ssr:stedsnr" v="98673" />
	</node>
	<node lat="60.14924931752133" lon="6.536933487193875" id="-26937">
		<tag k="name" v="Naltane" />
		<tag k="place" v="locality" />
		<tag k="ssr:stedsnr" v="98677" />
	</node>
	<node lat="60.147888886778304" lon="6.52978055876355" id="-26938">
		<tag k="historic" v="shieling" />
		<tag k="name" v="Stuastøl" />
		<tag k="place" v="isolated_dwelling" />
		<tag k="ssr:stedsnr" v="98685" />
	</node>
	<node lat="60.2489916709183" lon="6.358030547032784" id="-26939">
		<tag k="name" v="Osadalskaret" />
		<tag k="natural" v="valley" />
		<tag k="place" v="locality" />
		<tag k="ssr:stedsnr" v="98816" />
	</node>
	<node lat="60.30372499613111" lon="6.389794442695416" id="-26940">
		<tag k="name" v="Brennemyrane" />
		<tag k="natural" v="wetland" />
		<tag k="ssr:stedsnr" v="248033" />
	</node>
	<node lat="60.42280278061761" lon="6.542855549771049" id="-26941">
		<tag k="name" v="Midttun" />
		<tag k="place" v="farm" />
		<tag k="ssr:stedsnr" v="99102" />
	</node>
	<node lat="60.425738889207146" lon="6.583088885655437" id="-26942">
		<tag k="name" v="Geitastedekkena" />
		<tag k="place" v="locality" />
		<tag k="ssr:stedsnr" v="99103" />
	</node>
	<node lat="60.419794444426635" lon="6.6137916629580165" id="-26943">
		<tag k="name" v="Berget" />
		<tag k="natural" v="hill" />
		<tag k="place" v="locality" />
		<tag k="ssr:stedsnr" v="99111" />
	</node>
	<node lat="60.41085555520083" lon="6.626536107932768" id="-26944">
		<tag k="name" v="Hjallane" />
		<tag k="place" v="locality" />
		<tag k="ssr:stedsnr" v="99163" />
	</node>
	<node lat="60.40901111397032" lon="6.614880561994878" id="-26945">
		<tag k="name" v="Herborgslåtta" />
		<tag k="place" v="locality" />
		<tag k="ssr:stedsnr" v="99171" />
	</node>
	<node lat="60.38939166844412" lon="6.547488896718845" id="-26946">
		<tag k="name" v="Viersmyr" />
		<tag k="natural" v="wetland" />
		<tag k="ssr:stedsnr" v="99181" />
	</node>
	<node lat="59.78990833251984" lon="6.76684444945618" id="-26947">
		<tag k="name" v="Veslaelva" />
		<tag k="ssr:stedsnr" v="99316" />
		<tag k="waterway" v="river" />
	</node>
	<node lat="59.79426388993268" lon="6.75610832547756" id="-26948">
		<tag k="historic" v="shieling" />
		<tag k="name" v="Ekkjevikstølen" />
		<tag k="place" v="locality" />
		<tag k="ssr:stedsnr" v="99317" />
	</node>
	<node lat="59.784330553223484" lon="6.790033331658623" id="-26949">
		<tag k="name" v="Stuvaledbekken" />
		<tag k="ssr:stedsnr" v="99364" />
		<tag k="waterway" v="stream" />
	</node>
	<node lat="59.81506110815777" lon="6.8162861043302385" id="-26950">
		<tag k="name" v="Gjertrabekk" />
		<tag k="ssr:stedsnr" v="99367" />
		<tag k="waterway" v="stream" />
	</node>
	<node lat="60.36977222250766" lon="6.365208334270123" id="-26951">
		<tag k="alt_name" v="Vikane, in;Vikane" />
		<tag k="name" v="Indre Vikane" />
		<tag k="place" v="farm" />
		<tag k="ssr:stedsnr" v="248081" />
	</node>
	<node lat="60.34132500382296" lon="6.419886118577817" id="-26952">
		<tag k="name" v="Marhellelii" />
		<tag k="natural" v="slope" />
		<tag k="place" v="locality" />
		<tag k="ssr:stedsnr" v="248089" />
	</node>
	<node lat="60.34470277516471" lon="6.390052771510314" id="-26953">
		<tag k="fixme" v="consider place=hamlet" />
		<tag k="name" v="Eiki" />
		<tag k="place" v="farm" />
		<tag k="ssr:stedsnr" v="248092" />
	</node>
	<node lat="60.41342777958429" lon="6.542511106948167" id="-26954">
		<tag k="name" v="Tunga" />
		<tag k="natural" v="hill" />
		<tag k="place" v="locality" />
		<tag k="ssr:stedsnr" v="99016" />
	</node>
	<node lat="60.33824167044649" lon="6.349524992490811" id="-26955">
		<tag k="fixme" v="consider seamark:type=rock or natural=shoal" />
		<tag k="name" v="Kjerringaskjer" />
		<tag k="place" v="islet" />
		<tag k="ssr:stedsnr" v="99059" />
	</node>
	<node lat="60.33862222565235" lon="6.365302785536529" id="-26956">
		<tag k="name" v="Plasset" />
		<tag k="place" v="farm" />
		<tag k="ssr:stedsnr" v="99061" />
	</node>
	<node lat="60.3901290128328" lon="6.612882883652727" id="-26957">
		<tag k="fixme" v="multiple name tags, choose one and add the other to alt_name" />
		<tag k="historic" v="shieling" />
		<tag k="name" v="Hausastølen;Sjusete" />
		<tag k="place" v="locality" />
		<tag k="ssr:stedsnr" v="99069" />
	</node>
	<node lat="60.26083333487519" lon="6.4045166723060305" id="-26958">
		<tag k="name" v="Kjeaskori" />
		<tag k="place" v="locality" />
		<tag k="ssr:stedsnr" v="99072" />
	</node>
	<node lat="60.314644443351504" lon="6.419783336563164" id="-26959">
		<tag k="name" v="Vasslii" />
		<tag k="natural" v="slope" />
		<tag k="place" v="locality" />
		<tag k="ssr:stedsnr" v="99076" />
	</node>
	<node lat="60.32681388458013" lon="6.400344449218019" id="-26960">
		<tag k="name" v="Haugskvilet" />
		<tag k="natural" v="hill" />
		<tag k="place" v="locality" />
		<tag k="ssr:stedsnr" v="99077" />
	</node>
	<node lat="60.32647778040121" lon="6.408727784695705" id="-26961">
		<tag k="name" v="Bjørnespjot" />
		<tag k="natural" v="hill" />
		<tag k="place" v="locality" />
		<tag k="ssr:stedsnr" v="99078" />
	</node>
	<node lat="60.392816662343094" lon="6.6129055515389785" id="-26962">
		<tag k="name" v="Hausaheiane" />
		<tag k="natural" v="hill" />
		<tag k="place" v="locality" />
		<tag k="ssr:stedsnr" v="99079" />
	</node>
	<node lat="60.32386666697087" lon="6.604925006649476" id="-26963">
		<tag k="name" v="Bersastein" />
		<tag k="natural" v="stone" />
		<tag k="ssr:stedsnr" v="99212" />
	</node>
	<node lat="59.756224996963724" lon="6.812841666717863" id="-26964">
		<tag k="name" v="Skora" />
		<tag k="place" v="locality" />
		<tag k="ssr:stedsnr" v="99262" />
	</node>
	<node lat="60.31112500291504" lon="6.431036111780862" id="-26965">
		<tag k="name" v="Håvasete" />
		<tag k="place" v="locality" />
		<tag k="ssr:stedsnr" v="248050" />
	</node>
	<node lat="60.42152500297913" lon="6.542166668408508" id="-26966">
		<tag k="name" v="Midtun" />
		<tag k="place" v="farm" />
		<tag k="ssr:stedsnr" v="248130" />
	</node>
	<node lat="60.21726110855636" lon="6.631752771095706" id="-26967">
		<tag k="name" v="Lyngtuedalen" />
		<tag k="natural" v="valley" />
		<tag k="place" v="locality" />
		<tag k="ssr:stedsnr" v="99464" />
	</node>
	<node lat="60.22750000086704" lon="6.630272215950843" id="-26968">
		<tag k="name" v="Drembelhaug" />
		<tag k="natural" v="hill" />
		<tag k="place" v="locality" />
		<tag k="ssr:stedsnr" v="99469" />
	</node>
	<node lat="60.2660361119302" lon="6.649791665171298" id="-26969">
		<tag k="historic" v="shieling" />
		<tag k="name" v="Gunnhildstøl" />
		<tag k="place" v="isolated_dwelling" />
		<tag k="ssr:stedsnr" v="99474" />
	</node>
	<node lat="60.281769445402944" lon="6.666072226088085" id="-26970">
		<tag k="fixme" v="consider natural=peak for the most distinct mountains in the district" />
		<tag k="name" v="Klyvjahaugen" />
		<tag k="natural" v="hill" />
		<tag k="place" v="locality" />
		<tag k="ssr:stedsnr" v="99479" />
	</node>
	<node lat="59.86227777576773" lon="6.855450004439337" id="-26971">
		<tag k="name" v="Fellesteinsbekken" />
		<tag k="ssr:stedsnr" v="99484" />
		<tag k="waterway" v="stream" />
	</node>
	<node lat="60.37663333772449" lon="6.726711117535658" id="-26972">
		<tag k="name" v="Hestadalane" />
		<tag k="natural" v="valley" />
		<tag k="place" v="locality" />
		<tag k="ssr:stedsnr" v="99612" />
	</node>
	<node lat="60.29339166944547" lon="6.314866666801005" id="-26973">
		<tag k="name" v="Grasdalsmyri" />
		<tag k="natural" v="wetland" />
		<tag k="ssr:stedsnr" v="99616" />
	</node>
	<node lat="60.0570805523101" lon="6.563452785868437" id="-26974">
		<tag k="name" v="Flotten" />
		<tag k="place" v="locality" />
		<tag k="ssr:stedsnr" v="99624" />
	</node>
	<node lat="60.05793332917086" lon="6.565780555153928" id="-26975">
		<tag k="name" v="Flottura" />
		<tag k="natural" v="scree" />
		<tag k="ssr:stedsnr" v="99625" />
	</node>
	<node lat="60.24770000089104" lon="6.621055563748247" id="-26976">
		<tag k="name" v="Gløshaug" />
		<tag k="natural" v="hill" />
		<tag k="place" v="locality" />
		<tag k="ssr:stedsnr" v="99505" />
	</node>
	<node lat="60.28974166310631" lon="6.639736109639033" id="-26977">
		<tag k="name" v="Austmannaminnet" />
		<tag k="place" v="locality" />
		<tag k="ssr:stedsnr" v="99508" />
	</node>
	<node lat="60.03415555304692" lon="6.60846944451065" id="-26978">
		<tag k="name" v="Bruhaug" />
		<tag k="natural" v="hill" />
		<tag k="place" v="locality" />
		<tag k="ssr:stedsnr" v="99513" />
	</node>
	<node lat="60.24401389089036" lon="6.316591669996678" id="-26979">
		<tag k="name" v="Korkatrekkjaren" />
		<tag k="place" v="locality" />
		<tag k="ssr:stedsnr" v="99566" />
	</node>
	<node lat="60.24398055550897" lon="6.301880550884979" id="-26980">
		<tag k="name" v="Andvereleitet" />
		<tag k="natural" v="slope" />
		<tag k="place" v="locality" />
		<tag k="ssr:stedsnr" v="99568" />
	</node>
	<node lat="59.98737222372855" lon="6.568474993399302" id="-26981">
		<tag k="name" v="Krossgard" />
		<tag k="place" v="locality" />
		<tag k="ssr:stedsnr" v="99569" />
	</node>
	<node lat="60.247647220890975" lon="6.2983694509784796" id="-26982">
		<tag k="name" v="Osterli" />
		<tag k="natural" v="slope" />
		<tag k="place" v="locality" />
		<tag k="ssr:stedsnr" v="99570" />
	</node>
	<node lat="60.315960303885824" lon="6.673205329798726" id="-26983">
		<tag k="name" v="Tveitane" />
		<tag k="place" v="locality" />
		<tag k="ssr:stedsnr" v="99571" />
	</node>
	<node lat="59.99132777671169" lon="6.528152781338127" id="-26984">
		<tag k="name" v="Hovden" />
		<tag k="natural" v="hill" />
		<tag k="place" v="locality" />
		<tag k="ssr:stedsnr" v="99572" />
	</node>
	<node lat="60.3243935285513" lon="6.663417897255404" id="-26985">
		<tag k="name" v="Bjordalen" />
		<tag k="natural" v="valley" />
		<tag k="place" v="locality" />
		<tag k="ssr:stedsnr" v="99573" />
	</node>
	<node lat="60.20420555665869" lon="6.205811117950989" id="-26986">
		<tag k="name" v="Elleveskar" />
		<tag k="natural" v="valley" />
		<tag k="place" v="locality" />
		<tag k="ssr:stedsnr" v="99703" />
	</node>
	<node lat="60.233530552886286" lon="6.24225000554444" id="-26987">
		<tag k="name" v="Amundsstegsgjelet" />
		<tag k="place" v="locality" />
		<tag k="ssr:stedsnr" v="99709" />
	</node>
	<node lat="60.1188083368888" lon="6.603969436278259" id="-26988">
		<tag k="name" v="Smibekken" />
		<tag k="ssr:stedsnr" v="99710" />
		<tag k="waterway" v="stream" />
	</node>
	<node lat="60.12769166237249" lon="6.59789444367151" id="-26989">
		<tag k="name" v="Svelgberget" />
		<tag k="natural" v="hill" />
		<tag k="place" v="locality" />
		<tag k="ssr:stedsnr" v="99715" />
	</node>
	<node lat="60.13009999592285" lon="6.599083331653953" id="-26990">
		<tag k="loc_name" v="Burtnagjelet" />
		<tag k="name" v="Burtnadgjelet" />
		<tag k="place" v="locality" />
		<tag k="ssr:stedsnr" v="99716" />
	</node>
	<node lat="60.12552778041052" lon="6.559863886297257" id="-26991">
		<tag k="name" v="Alskor" />
		<tag k="place" v="locality" />
		<tag k="ssr:stedsnr" v="99717" />
	</node>
	<node lat="60.247402776601376" lon="6.22853889401248" id="-26992">
		<tag k="fixme" v="consider natural=peak for the most distinct mountains in the district" />
		<tag k="name" v="Legenolten" />
		<tag k="natural" v="hill" />
		<tag k="place" v="locality" />
		<tag k="ssr:stedsnr" v="99760" />
	</node>
	<node lat="60.30529722562132" lon="6.280491659598469" id="-26993">
		<tag k="name" v="Kyrkjesteg" />
		<tag k="place" v="farm" />
		<tag k="ssr:stedsnr" v="99765" />
	</node>
	<node lat="60.435480559387926" lon="6.585375008108563" id="-26994">
		<tag k="name" v="Skomakarstolen" />
		<tag k="natural" v="cape" />
		<tag k="old_name" v="Skoma" />
		<tag k="ssr:stedsnr" v="248152" />
	</node>
	<node lat="60.37768055932369" lon="6.801769449403589" id="-26995">
		<tag k="highway" v="path" />
		<tag k="name" v="Flatakvilet" />
		<tag k="ssr:stedsnr" v="99807" />
	</node>
	<node lat="60.418572221716055" lon="6.750138895268653" id="-26996">
		<tag k="name" v="Krossen" />
		<tag k="place" v="locality" />
		<tag k="ssr:stedsnr" v="99808" />
	</node>
	<node lat="60.32935455729374" lon="6.659778289376026" id="-26997">
		<tag k="name" v="Solbakken" />
		<tag k="place" v="farm" />
		<tag k="ssr:stedsnr" v="99813" />
	</node>
	<node lat="60.241002781995014" lon="6.242394446151261" id="-26998">
		<tag k="name" v="Skuffo" />
		<tag k="place" v="locality" />
		<tag k="ssr:stedsnr" v="99818" />
	</node>
	<node lat="60.294186112918716" lon="6.584002778202716" id="-26999">
		<tag k="name" v="Kolleskor" />
		<tag k="natural" v="hill" />
		<tag k="place" v="locality" />
		<tag k="ssr:stedsnr" v="99865" />
	</node>
	<node lat="60.32831111545608" lon="6.415413890535997" id="-27000">
		<tag k="name" v="Tossegjelet" />
		<tag k="place" v="locality" />
		<tag k="ssr:stedsnr" v="99872" />
	</node>
	<node lat="60.36675000216244" lon="6.631733340014664" id="-27001">
		<tag k="name" v="Haustveitelvi" />
		<tag k="ssr:stedsnr" v="99873" />
		<tag k="waterway" v="river" />
	</node>
	<node lat="60.3815166662888" lon="6.636155552903752" id="-27002">
		<tag k="name" v="Kleivahaug" />
		<tag k="natural" v="hill" />
		<tag k="place" v="locality" />
		<tag k="ssr:stedsnr" v="99874" />
	</node>
	<node lat="60.289130557452495" lon="6.429247224682968" id="-27003">
		<tag k="ford" v="yes" />
		<tag k="name" v="Smalabruvad" />
		<tag k="place" v="locality" />
		<tag k="ssr:stedsnr" v="99875" />
	</node>
	<node lat="60.37697500451343" lon="6.7211527796787" id="-27004">
		<tag k="name" v="Grandane" />
		<tag k="natural" v="beach" />
		<tag k="ssr:stedsnr" v="99879" />
		<tag k="surface" v="sand" />
	</node>
	<node lat="60.33997499807209" lon="6.436636102451234" id="-27005">
		<tag k="name" v="Kvitakjetta" />
		<tag k="place" v="locality" />
		<tag k="ssr:stedsnr" v="99885" />
	</node>
	<node lat="60.37457777876003" lon="6.938800000357173" id="-27006">
		<tag k="fixme" v="consider natural=peak for the most distinct mountains in the district" />
		<tag k="name" v="Sovarenuten" />
		<tag k="natural" v="hill" />
		<tag k="place" v="locality" />
		<tag k="ssr:stedsnr" v="248260" />
	</node>
	<node lat="60.353208337533516" lon="6.719494446014334" id="-27007">
		<tag k="historic" v="shieling" />
		<tag k="name" v="Vetla Kvanndal" />
		<tag k="place" v="isolated_dwelling" />
		<tag k="ssr:stedsnr" v="248262" />
	</node>
	<node lat="60.35302181989833" lon="6.6949827145911796" id="-27008">
		<tag k="fixme" v="consider natural=peak for the most distinct mountains in the district" />
		<tag k="name" v="Nipa" />
		<tag k="natural" v="hill" />
		<tag k="place" v="locality" />
		<tag k="ssr:stedsnr" v="248264" />
	</node>
	<node lat="60.32154150068202" lon="6.653828121963255" id="-27009">
		<tag k="fixme" v="consider place=hamlet" />
		<tag k="name" v="Århus" />
		<tag k="place" v="farm" />
		<tag k="ssr:stedsnr" v="248279" />
	</node>
	<node lat="60.3823750036861" lon="6.495988880488228" id="-27010">
		<tag k="name" v="Lauvhaug" />
		<tag k="natural" v="hill" />
		<tag k="place" v="locality" />
		<tag k="ssr:stedsnr" v="99905" />
	</node>
	<node lat="60.350030551401154" lon="6.490297214149448" id="-27011">
		<tag k="name" v="Lauvamyr" />
		<tag k="natural" v="wetland" />
		<tag k="ssr:stedsnr" v="99920" />
	</node>
	<node lat="60.21868333308499" lon="6.564144453393092" id="-27012">
		<tag k="highway" v="path" />
		<tag k="name" v="Raudstig" />
		<tag k="ssr:stedsnr" v="99967" />
	</node>
	<node lat="60.17359444244381" lon="6.549758325157326" id="-27013">
		<tag k="name" v="Osen" />
		<tag k="natural" v="bay" />
		<tag k="ssr:stedsnr" v="99980" />
	</node>
	<node lat="60.237466670258144" lon="6.5546333369098955" id="-27014">
		<tag k="name" v="Millomå" />
		<tag k="ssr:stedsnr" v="99982" />
		<tag k="waterway" v="stream" />
	</node>
	<node lat="60.38379048135036" lon="6.707386780601791" id="-27015">
		<tag k="name" v="Kinsarvikbukti" />
		<tag k="natural" v="bay" />
		<tag k="ssr:stedsnr" v="248248" />
	</node>
	<node lat="60.321175843464864" lon="6.694475444802691" id="-27016">
		<tag k="name" v="Nosi" />
		<tag k="natural" v="hill" />
		<tag k="place" v="locality" />
		<tag k="ssr:stedsnr" v="248282" />
	</node>
	<node lat="60.297380552926164" lon="6.700341663563973" id="-27017">
		<tag k="historic" v="shieling" />
		<tag k="name" v="Skriksete" />
		<tag k="place" v="isolated_dwelling" />
		<tag k="ssr:stedsnr" v="248289" />
	</node>
	<node lat="60.30803796106636" lon="6.91588144114874" id="-27018">
		<tag k="name" v="Lonavatnet" />
		<tag k="natural" v="water" />
		<tag k="ssr:stedsnr" v="248292" />
		<tag k="water" v="lake" />
	</node>
	<node lat="60.38858512728304" lon="6.643874022065599" id="-27019">
		<tag k="fixme" v="consider place=hamlet" />
		<tag k="name" v="Indre Langasete" />
		<tag k="place" v="farm" />
		<tag k="ssr:stedsnr" v="248348" />
	</node>
	<node lat="60.271944447855475" lon="6.3763944385705305" id="-27020">
		<tag k="name" v="Vedahaugen" />
		<tag k="natural" v="hill" />
		<tag k="place" v="locality" />
		<tag k="ssr:stedsnr" v="248368" />
	</node>
	<node lat="60.253147246226085" lon="6.344174599799281" id="-27021">
		<tag k="name" v="Grytingsvatnet" />
		<tag k="natural" v="water" />
		<tag k="ssr:stedsnr" v="248376" />
		<tag k="water" v="lake" />
	</node>
	<node lat="60.290602776817366" lon="6.459552769625723" id="-27022">
		<tag k="name" v="Skarvabotnen" />
		<tag k="natural" v="valley" />
		<tag k="place" v="locality" />
		<tag k="ssr:stedsnr" v="248448" />
	</node>
	<node lat="60.26403952254832" lon="6.3135277403762355" id="-27023">
		<tag k="name" v="Snodalstjørni" />
		<tag k="natural" v="water" />
		<tag k="ssr:stedsnr" v="248480" />
	</node>
	<node lat="60.21232157596359" lon="6.156621335182554" id="-27024">
		<tag k="fixme" v="consider place=hamlet" />
		<tag k="name" v="Gangdal" />
		<tag k="place" v="farm" />
		<tag k="ssr:stedsnr" v="248497" />
	</node>
	<node lat="60.189161111902386" lon="6.086269445444444" id="-27025">
		<tag k="alt_name" v="Hamaren" />
		<tag k="name" v="Hammaren" />
		<tag k="place" v="farm" />
		<tag k="ssr:stedsnr" v="248574" />
	</node>
	<node lat="60.33661944437885" lon="7.0585694455369214" id="-27026">
		<tag k="name" v="Djupebotnen" />
		<tag k="natural" v="valley" />
		<tag k="place" v="locality" />
		<tag k="ssr:stedsnr" v="248543" />
	</node>
	<node lat="60.15156666692253" lon="6.7210444465354025" id="-27027">
		<tag k="fixme" v="consider natural=peak for the most distinct mountains in the district" />
		<tag k="name" v="Storenuten" />
		<tag k="natural" v="hill" />
		<tag k="place" v="locality" />
		<tag k="ssr:stedsnr" v="248628" />
	</node>
	<node lat="60.26898611245304" lon="7.012205564137381" id="-27028">
		<tag k="name" v="Vikebygd" />
		<tag k="natural" v="hill" />
		<tag k="place" v="locality" />
		<tag k="ssr:stedsnr" v="248642" />
	</node>
	<node lat="60.2796083309178" lon="6.888936110702486" id="-27029">
		<tag k="fixme" v="consider natural=peak for the most distinct mountains in the district" />
		<tag k="name" v="Oksli" />
		<tag k="natural" v="hill" />
		<tag k="place" v="locality" />
		<tag k="ssr:stedsnr" v="248666" />
	</node>
	<node lat="60.25645833093265" lon="6.845575002539144" id="-27030">
		<tag k="name" v="Moldkleivhøgdi" />
		<tag k="natural" v="hill" />
		<tag k="place" v="locality" />
		<tag k="ssr:stedsnr" v="248676" />
	</node>
	<node lat="60.25181444997557" lon="6.621033411613395" id="-27031">
		<tag k="name" v="Sekse" />
		<tag k="place" v="hamlet" />
		<tag k="ssr:stedsnr" v="248679" />
	</node>
	<node lat="60.28527499733726" lon="6.931852780164714" id="-27032">
		<tag k="name" v="Austmannavatnet" />
		<tag k="natural" v="water" />
		<tag k="ssr:stedsnr" v="248688" />
		<tag k="water" v="lake" />
	</node>
	<node lat="60.277605552806065" lon="6.852902782306549" id="-27033">
		<tag k="name" v="Gravdalsvatnet" />
		<tag k="natural" v="water" />
		<tag k="ssr:stedsnr" v="248693" />
		<tag k="water" v="lake" />
	</node>
	<node lat="60.27430555216318" lon="6.659805553540329" id="-27034">
		<tag k="name" v="Grimsdalen" />
		<tag k="natural" v="valley" />
		<tag k="place" v="locality" />
		<tag k="ssr:stedsnr" v="248695" />
	</node>
	<node lat="60.13141111379701" lon="6.164236114833058" id="-27035">
		<tag k="name" v="Husafjellet" />
		<tag k="natural" v="hill" />
		<tag k="place" v="locality" />
		<tag k="ssr:stedsnr" v="248885" />
	</node>
	<node lat="60.208105552625454" lon="6.278294438046883" id="-27036">
		<tag k="name" v="Glomsdalsskardet" />
		<tag k="natural" v="valley" />
		<tag k="place" v="locality" />
		<tag k="ssr:stedsnr" v="248841" />
	</node>
	<node lat="60.21323333006203" lon="6.563661112096331" id="-27037">
		<tag k="alt_name" v="Illagil" />
		<tag k="name" v="Illegjel" />
		<tag k="natural" v="valley" />
		<tag k="place" v="locality" />
		<tag k="ssr:stedsnr" v="248846" />
	</node>
	<node lat="60.391227779051896" lon="6.502072216505079" id="-27038">
		<tag k="name" v="Alsåker" />
		<tag k="place" v="hamlet" />
		<tag k="ssr:stedsnr" v="104113" />
	</node>
	<node lat="60.14384166563252" lon="6.130916659950635" id="-27039">
		<tag k="name" v="Apalvikneset" />
		<tag k="natural" v="cape" />
		<tag k="ssr:stedsnr" v="104433" />
	</node>
	<node lat="60.08186944569725" lon="6.529261109498696" id="-27040">
		<tag k="alt_name" v="Eigne Heim" />
		<tag k="name" v="Egne Hjem" />
		<tag k="place" v="quarter" />
		<tag k="ssr:stedsnr" v="104697" />
	</node>
	<node lat="59.77324444252088" lon="6.742450004156244" id="-27046">
		<tag k="bridge" v="yes" />
		<tag k="layer" v="1" />
		<tag k="name" v="Ekkjeskar" />
		<tag k="ssr:stedsnr" v="107875" />
	</node>
	<node lat="60.14586944683533" lon="6.541616657527361" id="-27047">
		<tag k="bridge" v="yes" />
		<tag k="layer" v="1" />
		<tag k="name" v="Apold" />
		<tag k="ssr:stedsnr" v="107879" />
	</node>
	<node lat="60.19310000016949" lon="7.069183338972876" id="-27050">
		<tag k="man_made" v="cairn" />
		<tag k="name" v="Hårteigen" />
		<tag k="place" v="locality" />
		<tag k="ssr:stedsnr" v="111314" />
	</node>
	<node lat="60.01428055224445" lon="6.5855750089366225" id="-27051">
		<tag k="fixme" v="consider natural=peak for the most distinct mountains in the district" />
		<tag k="name" v="Eidesfjellet" />
		<tag k="natural" v="hill" />
		<tag k="place" v="locality" />
		<tag k="ssr:stedsnr" v="125016" />
	</node>
	<node lat="60.014069448317464" lon="6.489424994221769" id="-27052">
		<tag k="name" v="Kvanndalsvatn" />
		<tag k="natural" v="water" />
		<tag k="ssr:stedsnr" v="125018" />
	</node>
	<node lat="60.01391090734043" lon="6.458513439708205" id="-27053">
		<tag k="name" v="Blåvatn" />
		<tag k="natural" v="water" />
		<tag k="ssr:stedsnr" v="125023" />
	</node>
	<node lat="60.05352222222411" lon="6.557372217214169" id="-27054">
		<tag k="fixme" v="consider place=hamlet" />
		<tag k="name" v="Vasstun" />
		<tag k="place" v="farm" />
		<tag k="ssr:stedsnr" v="125055" />
	</node>
	<node lat="60.050644445739934" lon="6.499041674978711" id="-27055">
		<tag k="name" v="Bjørnskortinden" />
		<tag k="natural" v="hill" />
		<tag k="place" v="locality" />
		<tag k="ssr:stedsnr" v="125064" />
	</node>
	<node lat="60.05310000158375" lon="6.455252786479415" id="-27056">
		<tag k="name" v="Såta" />
		<tag k="natural" v="hill" />
		<tag k="place" v="locality" />
		<tag k="ssr:stedsnr" v="125067" />
	</node>
	<node lat="59.987763888953005" lon="6.823825003085623" id="-27057">
		<tag k="name" v="Isvassnutane" />
		<tag k="natural" v="hill" />
		<tag k="place" v="locality" />
		<tag k="ssr:stedsnr" v="125107" />
	</node>
	<node lat="59.97746666756637" lon="6.664394453054361" id="-27058">
		<tag k="fixme" v="consider natural=peak for the most distinct mountains in the district" />
		<tag k="name" v="Bunuten" />
		<tag k="natural" v="hill" />
		<tag k="place" v="locality" />
		<tag k="ssr:stedsnr" v="125110" />
	</node>
	<node lat="59.83085041142535" lon="6.822734924041018" id="-27059">
		<tag k="alt_name" v="Røldal" />
		<tag k="amenity" v="place_of_worship" />
		<tag k="denomination" v="lutheran" />
		<tag k="name" v="Røldal stavkyrkje" />
		<tag k="religion" v="christian" />
		<tag k="ssr:stedsnr" v="125255" />
	</node>
	<node lat="60.05394181494776" lon="6.6631236768552125" id="-27060">
		<tag k="name" v="Vetlatjørn" />
		<tag k="natural" v="water" />
		<tag k="ssr:stedsnr" v="125410" />
	</node>
	<node lat="59.99784444626222" lon="6.515388882606645" id="-27061">
		<tag k="name" v="Midtstølsbekken" />
		<tag k="ssr:stedsnr" v="125430" />
		<tag k="waterway" v="stream" />
	</node>
	<node lat="59.98222222408799" lon="6.51908889613046" id="-27062">
		<tag k="name" v="Årebukti" />
		<tag k="place" v="locality" />
		<tag k="ssr:stedsnr" v="125431" />
	</node>
	<node lat="60.12425833632159" lon="6.600944442614126" id="-27063">
		<tag k="name" v="Svelgarhaugen" />
		<tag k="natural" v="hill" />
		<tag k="place" v="locality" />
		<tag k="ssr:stedsnr" v="125434" />
	</node>
	<node lat="59.98951154097831" lon="6.565373308244785" id="-27064">
		<tag k="alt_name" v="Orøyni" />
		<tag k="name" v="Orrøyna" />
		<tag k="place" v="island" />
		<tag k="ssr:stedsnr" v="125437" />
	</node>
	<node lat="59.98763506141539" lon="6.5251603547783645" id="-27065">
		<tag k="name" v="Midtstølsvatnet" />
		<tag k="natural" v="water" />
		<tag k="ssr:stedsnr" v="125439" />
		<tag k="water" v="lake" />
	</node>
	<node lat="60.106064314988075" lon="6.928595188536359" id="-27066">
		<tag k="name" v="Nedsta Håvardsvatnet" />
		<tag k="natural" v="water" />
		<tag k="ssr:stedsnr" v="125451" />
		<tag k="water" v="lake" />
	</node>
	<node lat="60.10141828222201" lon="6.746469429009465" id="-27067">
		<tag k="name" v="Floren" />
		<tag k="natural" v="valley" />
		<tag k="place" v="locality" />
		<tag k="ssr:stedsnr" v="125455" />
	</node>
	<node lat="60.11475833403469" lon="6.9373972299527065" id="-27068">
		<tag k="fixme" v="consider natural=peak for the most distinct mountains in the district" />
		<tag k="name" v="Bakkanuten" />
		<tag k="natural" v="hill" />
		<tag k="place" v="locality" />
		<tag k="ssr:stedsnr" v="125457" />
	</node>
	<node lat="59.96753889257324" lon="6.572116673616894" id="-27069">
		<tag k="fixme" v="consider place=hamlet" />
		<tag k="name" v="Grønsdal" />
		<tag k="place" v="farm" />
		<tag k="ssr:stedsnr" v="125458" />
	</node>
	<node lat="59.9206583308494" lon="6.6744916753249095" id="-27070">
		<tag k="fixme" v="consider natural=peak for the most distinct mountains in the district" />
		<tag k="name" v="Grøneggi" />
		<tag k="natural" v="hill" />
		<tag k="place" v="locality" />
		<tag k="ssr:stedsnr" v="125198" />
	</node>
	<node lat="59.93134999994207" lon="6.882649996006565" id="-27071">
		<tag k="name" v="Holdøledalen" />
		<tag k="natural" v="valley" />
		<tag k="place" v="locality" />
		<tag k="ssr:stedsnr" v="125200" />
	</node>
	<node lat="60.11645000173818" lon="7.169575006496224" id="-27072">
		<tag k="name" v="Ambjørgsfljåna" />
		<tag k="place" v="locality" />
		<tag k="ssr:stedsnr" v="125302" />
	</node>
	<node lat="60.13340832971344" lon="7.220863889960161" id="-27073">
		<tag k="fixme" v="consider natural=peak for the most distinct mountains in the district" />
		<tag k="name" v="Flautenuten" />
		<tag k="natural" v="hill" />
		<tag k="place" v="locality" />
		<tag k="ssr:stedsnr" v="125307" />
	</node>
	<node lat="59.90966110797732" lon="6.53631388510079" id="-27074">
		<tag k="alt_name" v="Vassviki" />
		<tag k="fixme" v="consider place=hamlet" />
		<tag k="name" v="Vassvik" />
		<tag k="place" v="farm" />
		<tag k="ssr:stedsnr" v="125497" />
	</node>
	<node lat="59.792950157194355" lon="6.701159522151015" id="-27075">
		<tag k="name" v="Langetjørn" />
		<tag k="natural" v="water" />
		<tag k="ssr:stedsnr" v="125802" />
	</node>
	<node lat="59.77550000223438" lon="6.792200008244142" id="-27076">
		<tag k="name" v="Huskakk" />
		<tag k="place" v="farm" />
		<tag k="ssr:stedsnr" v="125821" />
	</node>
</osm>
