<?xml version="1.0" encoding="UTF-8"?>
<osm generator="osmapis" version="0.6">
	<node id="-610958" lat="60.0208749982" lon="6.30709165878">
		<tag k="fixme" v="consider boundary=protected_area and relevant protect_class if not nature reserve" />
		<tag k="leisure" v="nature_reserve" />
		<tag k="name" v="Folgefonna nasjonalpark" />
		<tag k="ssr:stedsnr" v="524270" />
	</node>
	<node id="-611873" lat="59.9963111143" lon="6.57370277962">
		<tag k="fixme" v="consider boundary=protected_area and relevant protect_class if not nature reserve" />
		<tag k="leisure" v="nature_reserve" />
		<tag k="name" v="Hildal naturreservat" />
		<tag k="ssr:stedsnr" v="827425" />
	</node>
	<node id="-610070" lat="60.1730583325" lon="7.41045556266">
		<tag k="fixme" v="consider boundary=protected_area and relevant protect_class if not nature reserve" />
		<tag k="leisure" v="nature_reserve" />
		<tag k="name" v="Hardangervidda nasjonalpark" />
		<tag k="ssr:stedsnr" v="186651" />
	</node>
	<node id="-612082" lat="60.3107282095" lon="6.66543529259">
		<tag k="fixme" v="consider boundary=protected_area and relevant protect_class if not nature reserve" />
		<tag k="leisure" v="nature_reserve" />
		<tag k="name" v="Ullensvang naturreservat" />
		<tag k="ssr:stedsnr" v="975676" />
	</node>
	<node id="-612113" lat="60.3875412877" lon="6.50520733969">
		<tag k="fixme" v="consider boundary=protected_area and relevant protect_class if not nature reserve" />
		<tag k="leisure" v="nature_reserve" />
		<tag k="name" v="AlsÃ¥ker naturreservat" />
		<tag k="ssr:stedsnr" v="988997" />
	</node>
</osm>
