<?xml version="1.0" encoding="UTF-8"?>
<osm version="0.6" generator="osmapis">
	<node lat="59.894249998719864" lon="7.140230551028792" id="-30420">
		<tag k="name" v="Nupsfonn" />
		<tag k="natural" v="glacier" />
		<tag k="ssr:stedsnr" v="4860" />
	</node>
	<node lat="60.40326666573304" lon="6.61483610985144" id="-30477">
		<tag k="name" v="Skjerurslåtta" />
		<tag k="place" v="locality" />
		<tag k="ssr:stedsnr" v="38167" />
	</node>
	<node lat="60.40046944226226" lon="6.6219416617477975" id="-30481">
		<tag k="name" v="Myrane" />
		<tag k="natural" v="wetland" />
		<tag k="ssr:stedsnr" v="38077" />
	</node>
	<node lat="59.76650277890223" lon="6.804555547254672" id="-30482">
		<tag k="name" v="Hattebergmyra" />
		<tag k="natural" v="wetland" />
		<tag k="ssr:stedsnr" v="38309" />
	</node>
	<node lat="60.27295555647447" lon="6.263694451555391" id="-30510">
		<tag k="name" v="Urane" />
		<tag k="natural" v="scree" />
		<tag k="ssr:stedsnr" v="38721" />
	</node>
	<node lat="60.419738912838326" lon="6.634841561670603" id="-30520">
		<tag k="name" v="Veng" />
		<tag k="natural" v="stone" />
		<tag k="ssr:stedsnr" v="38873" />
	</node>
	<node lat="60.417284025012165" lon="6.644330778017245" id="-30521">
		<tag k="name" v="Hagastykket" />
		<tag k="place" v="locality" />
		<tag k="ssr:stedsnr" v="38877" />
	</node>
	<node lat="60.13788333643864" lon="6.529288889915984" id="-30563">
		<tag k="name" v="Fivelsmyr" />
		<tag k="natural" v="wetland" />
		<tag k="ssr:stedsnr" v="65172" />
	</node>
	<node lat="60.37248610946876" lon="6.957505559052251" id="-30593">
		<tag k="name" v="Dyrafonn" />
		<tag k="natural" v="glacier" />
		<tag k="ssr:stedsnr" v="66251" />
	</node>
	<node lat="60.30372499613111" lon="6.389794442695416" id="-30673">
		<tag k="name" v="Brennemyrane" />
		<tag k="natural" v="wetland" />
		<tag k="ssr:stedsnr" v="248033" />
	</node>
	<node lat="60.40901111397032" lon="6.614880561994878" id="-30678">
		<tag k="name" v="Herborgslåtta" />
		<tag k="place" v="locality" />
		<tag k="ssr:stedsnr" v="99171" />
	</node>
	<node lat="60.38939166844412" lon="6.547488896718845" id="-30679">
		<tag k="name" v="Viersmyr" />
		<tag k="natural" v="wetland" />
		<tag k="ssr:stedsnr" v="99181" />
	</node>
	<node lat="59.79426388993268" lon="6.75610832547756" id="-30681">
		<tag k="historic" v="shieling" />
		<tag k="name" v="Ekkjevikstølen" />
		<tag k="place" v="locality" />
		<tag k="ssr:stedsnr" v="99317" />
	</node>
	<node lat="60.3901290128328" lon="6.612882883652727" id="-30690">
		<tag k="fixme" v="multiple name tags, choose one and add the other to alt_name" />
		<tag k="historic" v="shieling" />
		<tag k="name" v="Hausastølen;Sjusete" />
		<tag k="place" v="locality" />
		<tag k="ssr:stedsnr" v="99069" />
	</node>
	<node lat="60.32386666697087" lon="6.604925006649476" id="-30696">
		<tag k="name" v="Bersastein" />
		<tag k="natural" v="stone" />
		<tag k="ssr:stedsnr" v="99212" />
	</node>
	<node lat="60.29339166944547" lon="6.314866666801005" id="-30706">
		<tag k="name" v="Grasdalsmyri" />
		<tag k="natural" v="wetland" />
		<tag k="ssr:stedsnr" v="99616" />
	</node>
	<node lat="60.05793332917086" lon="6.565780555153928" id="-30708">
		<tag k="name" v="Flottura" />
		<tag k="natural" v="scree" />
		<tag k="ssr:stedsnr" v="99625" />
	</node>
	<node lat="60.37697500451343" lon="6.7211527796787" id="-30737">
		<tag k="name" v="Grandane" />
		<tag k="natural" v="beach" />
		<tag k="ssr:stedsnr" v="99879" />
		<tag k="surface" v="sand" />
	</node>
	<node lat="60.350030551401154" lon="6.490297214149448" id="-30744">
		<tag k="name" v="Lauvamyr" />
		<tag k="natural" v="wetland" />
		<tag k="ssr:stedsnr" v="99920" />
	</node>
	<node lat="60.19420000381093" lon="6.730430556600967" id="-30838">
		<tag k="name" v="Henrikssteinen" />
		<tag k="natural" v="stone" />
		<tag k="ssr:stedsnr" v="126498" />
	</node>
	<node lat="59.751150000864975" lon="6.781266666691555" id="-30876">
		<tag k="name" v="Eidesmyrane" />
		<tag k="natural" v="wetland" />
		<tag k="ssr:stedsnr" v="159398" />
	</node>
	<node lat="59.815316668800016" lon="6.764161112073259" id="-30880">
		<tag k="landuse" v="meadow" />
		<tag k="name" v="Midttunhagen" />
		<tag k="ssr:stedsnr" v="159500" />
	</node>
	<node lat="60.440533332566964" lon="6.830438888337725" id="-30883">
		<tag k="name" v="Løstein" />
		<tag k="natural" v="stone" />
		<tag k="ssr:stedsnr" v="159705" />
	</node>
	<node lat="60.00090833428985" lon="7.126599996029547" id="-30957">
		<tag k="name" v="Søre Skavlen" />
		<tag k="place" v="locality" />
		<tag k="ssr:stedsnr" v="264882" />
	</node>
	<node lat="60.10603889337451" lon="7.098138887502866" id="-30960">
		<tag k="name" v="Stormstein" />
		<tag k="natural" v="stone" />
		<tag k="ssr:stedsnr" v="203994" />
	</node>
	<node lat="60.378327781191615" lon="6.788380562934043" id="-30962">
		<tag k="name" v="Kviteskred" />
		<tag k="natural" v="scree" />
		<tag k="ssr:stedsnr" v="204152" />
	</node>
	<node lat="60.426209675636606" lon="6.612848745200283" id="-30963">
		<tag k="name" v="Ytrehagen" />
		<tag k="place" v="locality" />
		<tag k="ssr:stedsnr" v="204155" />
	</node>
	<node lat="60.36443333048246" lon="6.436736115334928" id="-30971">
		<tag k="name" v="Barnamyr" />
		<tag k="natural" v="wetland" />
		<tag k="ssr:stedsnr" v="220108" />
	</node>
	<node lat="60.196277780388435" lon="6.1616222152932325" id="-30996">
		<tag k="name" v="Grønemyrane" />
		<tag k="natural" v="wetland" />
		<tag k="ssr:stedsnr" v="220690" />
	</node>
	<node lat="60.42106944221122" lon="6.7532416649939915" id="-31011">
		<tag k="name" v="Gråur" />
		<tag k="natural" v="scree" />
		<tag k="ssr:stedsnr" v="220789" />
	</node>
	<node lat="60.39860555892827" lon="6.655944447761179" id="-31013">
		<tag k="name" v="Esjehagen" />
		<tag k="place" v="locality" />
		<tag k="ssr:stedsnr" v="221009" />
	</node>
	<node lat="60.10870555827739" lon="6.743766658503759" id="-31067">
		<tag k="loc_name" v="Støet" />
		<tag k="name" v="Stødet" />
		<tag k="place" v="locality" />
		<tag k="ssr:stedsnr" v="247408" />
	</node>
	<node lat="60.253777021713304" lon="6.567645425961971" id="-31120">
		<tag k="landuse" v="meadow" />
		<tag k="name" v="Tjukkateig" />
		<tag k="ssr:stedsnr" v="281203" />
	</node>
	<node lat="60.27688055485094" lon="6.5681416609487435" id="-31122">
		<tag k="name" v="Slåttena" />
		<tag k="place" v="locality" />
		<tag k="ssr:stedsnr" v="281223" />
	</node>
	<node lat="60.233897225108954" lon="6.317363895524384" id="-31142">
		<tag k="landuse" v="quarry" />
		<tag k="name" v="Botnabrotet" />
		<tag k="ssr:stedsnr" v="281519" />
	</node>
	<node lat="60.37437355669502" lon="6.6972747552725505" id="-31150">
		<tag k="name" v="Tordivlane" />
		<tag k="natural" v="stone" />
		<tag k="ssr:stedsnr" v="281589" />
	</node>
	<node lat="60.235952777098134" lon="6.275686113718727" id="-31154">
		<tag k="historic" v="shieling" />
		<tag k="name" v="Torsnesstølen" />
		<tag k="place" v="locality" />
		<tag k="ssr:stedsnr" v="281711" />
	</node>
	<node lat="60.2378666668173" lon="6.230688882172685" id="-31155">
		<tag k="name" v="Stora Vassmyri" />
		<tag k="natural" v="wetland" />
		<tag k="ssr:stedsnr" v="281717" />
	</node>
	<node lat="60.27979166515188" lon="6.2657972295482605" id="-31156">
		<tag k="historic" v="shieling" />
		<tag k="name" v="Mjåstølen" />
		<tag k="place" v="locality" />
		<tag k="ssr:stedsnr" v="281718" />
	</node>
	<node lat="60.395549999470525" lon="6.61886944021844" id="-31200">
		<tag k="name" v="Langaskarv" />
		<tag k="place" v="locality" />
		<tag k="ssr:stedsnr" v="463062" />
	</node>
	<node lat="60.42775555280585" lon="6.586302777473706" id="-31202">
		<tag k="historic" v="shieling" />
		<tag k="name" v="Mjøstølen" />
		<tag k="place" v="locality" />
		<tag k="ssr:stedsnr" v="463084" />
	</node>
	<node lat="60.41145833012919" lon="6.611938893703262" id="-31204">
		<tag k="name" v="Mosur" />
		<tag k="natural" v="scree" />
		<tag k="ssr:stedsnr" v="463135" />
	</node>
	<node lat="60.30705555746844" lon="6.365225004934481" id="-31242">
		<tag k="name" v="Raudstein" />
		<tag k="natural" v="stone" />
		<tag k="ssr:stedsnr" v="463559" />
	</node>
	<node lat="60.290899997951605" lon="6.323119449112345" id="-31246">
		<tag k="name" v="Rosshagen" />
		<tag k="place" v="locality" />
		<tag k="ssr:stedsnr" v="463570" />
	</node>
	<node lat="60.37437778206504" lon="6.64592500327564" id="-31272">
		<tag k="name" v="Sanden" />
		<tag k="natural" v="beach" />
		<tag k="ssr:stedsnr" v="463844" />
		<tag k="surface" v="sand" />
	</node>
	<node lat="60.41699444507222" lon="6.637952784137043" id="-31273">
		<tag k="name" v="Almeteigen" />
		<tag k="place" v="locality" />
		<tag k="ssr:stedsnr" v="463847" />
	</node>
	<node lat="60.303355557062076" lon="6.250872215884037" id="-31277">
		<tag k="name" v="Kjeasteinane" />
		<tag k="natural" v="stone" />
		<tag k="ssr:stedsnr" v="463719" />
	</node>
	<node lat="60.38328055371223" lon="6.746702771519451" id="-31286">
		<tag k="name" v="Gråur" />
		<tag k="natural" v="scree" />
		<tag k="ssr:stedsnr" v="463887" />
	</node>
	<node lat="60.13449166822458" lon="6.527488887516048" id="-31321">
		<tag k="name" v="Svagemyr" />
		<tag k="natural" v="wetland" />
		<tag k="ssr:stedsnr" v="308147" />
	</node>
	<node lat="60.23527777359132" lon="6.435366663752939" id="-31336">
		<tag k="name" v="Sandosen" />
		<tag k="place" v="locality" />
		<tag k="ssr:stedsnr" v="308815" />
	</node>
	<node lat="60.00719166270873" lon="7.12624444329346" id="-31364">
		<tag k="name" v="Nordre Skavlen" />
		<tag k="place" v="locality" />
		<tag k="ssr:stedsnr" v="325867" />
	</node>
	<node lat="60.286586110434264" lon="6.568644446751212" id="-31367">
		<tag k="name" v="Ravnabergurane" />
		<tag k="natural" v="scree" />
		<tag k="ssr:stedsnr" v="340229" />
	</node>
	<node lat="60.41249999949781" lon="6.6153444414255755" id="-31374">
		<tag k="name" v="Jørundslåtta" />
		<tag k="place" v="locality" />
		<tag k="ssr:stedsnr" v="341155" />
	</node>
	<node lat="59.782436109677406" lon="6.801244451342658" id="-31377">
		<tag k="name" v="Myra" />
		<tag k="natural" v="wetland" />
		<tag k="ssr:stedsnr" v="341312" />
	</node>
	<node lat="60.2719722184942" lon="6.560133331644501" id="-31381">
		<tag k="name" v="Langeteigen" />
		<tag k="place" v="locality" />
		<tag k="ssr:stedsnr" v="341222" />
	</node>
	<node lat="60.27666944385292" lon="6.554291670537187" id="-31383">
		<tag k="historic" v="shieling" />
		<tag k="name" v="Stølen" />
		<tag k="place" v="locality" />
		<tag k="ssr:stedsnr" v="341224" />
	</node>
	<node lat="59.83121110950978" lon="6.817419436060702" id="-31398">
		<tag k="name" v="Saltvoll" />
		<tag k="place" v="locality" />
		<tag k="ssr:stedsnr" v="341508" />
	</node>
	<node lat="60.415261113892086" lon="6.625141671955951" id="-31410">
		<tag k="name" v="Rosshagen" />
		<tag k="place" v="locality" />
		<tag k="ssr:stedsnr" v="342023" />
	</node>
	<node lat="60.38815277838789" lon="6.62358889451705" id="-31411">
		<tag k="name" v="Gullur" />
		<tag k="natural" v="scree" />
		<tag k="ssr:stedsnr" v="342060" />
	</node>
	<node lat="60.37617777406468" lon="6.680166663849914" id="-31422">
		<tag k="name" v="Pundsteigen" />
		<tag k="place" v="locality" />
		<tag k="ssr:stedsnr" v="342505" />
	</node>
	<node lat="60.23865832951115" lon="6.258741673668094" id="-31434">
		<tag k="name" v="Batasteinane" />
		<tag k="natural" v="stone" />
		<tag k="ssr:stedsnr" v="342753" />
	</node>
	<node lat="60.21491110861099" lon="6.2208027788780615" id="-31435">
		<tag k="name" v="Kaldesteinane" />
		<tag k="natural" v="stone" />
		<tag k="ssr:stedsnr" v="342758" />
	</node>
	<node lat="60.43147222584779" lon="6.571808326003493" id="-31506">
		<tag k="name" v="Skrottamyri" />
		<tag k="natural" v="wetland" />
		<tag k="ssr:stedsnr" v="402093" />
	</node>
	<node lat="60.15152499696518" lon="6.12746388629046" id="-31523">
		<tag k="name" v="Sirimyr" />
		<tag k="natural" v="wetland" />
		<tag k="ssr:stedsnr" v="402490" />
	</node>
	<node lat="60.20612651199267" lon="6.687636792996048" id="-31622">
		<tag k="loc_name" v="Longefonn" />
		<tag k="name" v="Langefonn" />
		<tag k="place" v="locality" />
		<tag k="ssr:stedsnr" v="490475" />
	</node>
	<node lat="59.80665277913772" lon="6.917861115794889" id="-31629">
		<tag k="name" v="Skjortefonn" />
		<tag k="natural" v="glacier" />
		<tag k="ssr:stedsnr" v="428771" />
	</node>
	<node lat="60.472052780216885" lon="6.837136103746171" id="-31686">
		<tag k="name" v="Kalvhagen" />
		<tag k="place" v="locality" />
		<tag k="ssr:stedsnr" v="430411" />
	</node>
	<node lat="60.2308999997013" lon="6.806747222962916" id="-31758">
		<tag k="name" v="Træsfonn" />
		<tag k="place" v="locality" />
		<tag k="ssr:stedsnr" v="672002" />
	</node>
	<node lat="60.40933267951499" lon="6.663923929024915" id="-31819">
		<tag k="historic" v="shieling" />
		<tag k="name" v="Nesmjøstølen" />
		<tag k="place" v="locality" />
		<tag k="ssr:stedsnr" v="463006" />
	</node>
	<node lat="59.97824444273787" lon="6.551786111919336" id="-31826">
		<tag k="name" v="Eirikslåtta" />
		<tag k="place" v="locality" />
		<tag k="ssr:stedsnr" v="463405" />
	</node>
	<node lat="60.21947221978504" lon="6.194805563085423" id="-31843">
		<tag k="name" v="Lisbet-slåttena" />
		<tag k="place" v="locality" />
		<tag k="ssr:stedsnr" v="463655" />
	</node>
	<node lat="60.23475833432757" lon="6.230674998784778" id="-31846">
		<tag k="name" v="Maristeinane" />
		<tag k="natural" v="stone" />
		<tag k="ssr:stedsnr" v="463660" />
	</node>
	<node lat="60.20767500193291" lon="6.5443555600818915" id="-31859">
		<tag k="historic" v="shieling" />
		<tag k="name" v="Seten" />
		<tag k="place" v="locality" />
		<tag k="ssr:stedsnr" v="463955" />
	</node>
	<node lat="60.332158329387504" lon="6.433655554476963" id="-31887">
		<tag k="name" v="Såtesteinane" />
		<tag k="natural" v="stone" />
		<tag k="ssr:stedsnr" v="490032" />
	</node>
	<node lat="60.228441663880346" lon="6.529174994332806" id="-31921">
		<tag k="name" v="Nonssteinen" />
		<tag k="natural" v="stone" />
		<tag k="ssr:stedsnr" v="490819" />
	</node>
	<node lat="60.28122777385572" lon="6.511838889696829" id="-31936">
		<tag k="name" v="Brottefonn" />
		<tag k="natural" v="glacier" />
		<tag k="ssr:stedsnr" v="491527" />
	</node>
	<node lat="60.356409246867855" lon="6.394894248030981" id="-31950">
		<tag k="name" v="Langemyr" />
		<tag k="natural" v="wetland" />
		<tag k="ssr:stedsnr" v="523107" />
	</node>
	<node lat="60.18361944341317" lon="6.1297638892690705" id="-31961">
		<tag k="name" v="Dukamyr" />
		<tag k="natural" v="wetland" />
		<tag k="ssr:stedsnr" v="523525" />
	</node>
	<node lat="60.37908546599193" lon="6.620523724224464" id="-31974">
		<tag k="name" v="Slåtten" />
		<tag k="place" v="locality" />
		<tag k="ssr:stedsnr" v="524064" />
	</node>
	<node lat="60.25176666926498" lon="6.218777777270945" id="-31998">
		<tag k="historic" v="shieling" />
		<tag k="name" v="Vikastølen" />
		<tag k="place" v="locality" />
		<tag k="ssr:stedsnr" v="524655" />
	</node>
	<node lat="60.30440000268533" lon="6.608355556128497" id="-32000">
		<tag k="name" v="Myrane" />
		<tag k="natural" v="wetland" />
		<tag k="ssr:stedsnr" v="524805" />
	</node>
	<node lat="60.33125833689179" lon="6.402897213900065" id="-32004">
		<tag k="name" v="Fogelimyr" />
		<tag k="natural" v="wetland" />
		<tag k="ssr:stedsnr" v="524861" />
	</node>
	<node lat="60.28016944812172" lon="6.585013882095645" id="-32008">
		<tag k="name" v="Rygg" />
		<tag k="natural" v="stone" />
		<tag k="ssr:stedsnr" v="524918" />
	</node>
	<node lat="60.286577779775236" lon="6.5822777823222" id="-32009">
		<tag k="name" v="Rogdaurane" />
		<tag k="natural" v="scree" />
		<tag k="ssr:stedsnr" v="524919" />
	</node>
	<node lat="60.30342221876538" lon="6.258622221603533" id="-32011">
		<tag k="name" v="Helleuri" />
		<tag k="natural" v="scree" />
		<tag k="ssr:stedsnr" v="530901" />
	</node>
	<node lat="60.326293053229875" lon="6.4390062148623715" id="-32049">
		<tag k="alt_name" v="Skitnasete" />
		<tag k="historic" v="shieling" />
		<tag k="name" v="Skipasete" />
		<tag k="place" v="locality" />
		<tag k="ssr:stedsnr" v="551007" />
	</node>
	<node lat="60.27852222535262" lon="6.3275277747429355" id="-32113">
		<tag k="historic" v="shieling" />
		<tag k="name" v="Byrkjesete" />
		<tag k="place" v="locality" />
		<tag k="ssr:stedsnr" v="584512" />
	</node>
	<node lat="60.043533328943326" lon="6.499197219682" id="-32129">
		<tag k="name" v="Jord" />
		<tag k="place" v="locality" />
		<tag k="ssr:stedsnr" v="584626" />
	</node>
	<node lat="60.34324999950942" lon="6.681836110663818" id="-32150">
		<tag k="name" v="Skredena" />
		<tag k="natural" v="scree" />
		<tag k="ssr:stedsnr" v="584790" />
	</node>
	<node lat="60.33646388452454" lon="6.379813884103085" id="-32236">
		<tag k="name" v="Vikehagen" />
		<tag k="place" v="locality" />
		<tag k="ssr:stedsnr" v="705091" />
	</node>
	<node lat="59.78523888893536" lon="6.767102782277286" id="-32249">
		<tag k="name" v="Innigardsteigen" />
		<tag k="place" v="locality" />
		<tag k="ssr:stedsnr" v="705316" />
	</node>
	<node lat="60.420344441902294" lon="6.581836119315325" id="-32276">
		<tag k="name" v="Nonstein" />
		<tag k="natural" v="stone" />
		<tag k="ssr:stedsnr" v="706085" />
	</node>
	<node lat="60.47038889145399" lon="6.837658329725364" id="-32282">
		<tag k="name" v="Storemyr" />
		<tag k="natural" v="wetland" />
		<tag k="ssr:stedsnr" v="643694" />
	</node>
	<node lat="60.357644444989006" lon="6.4264111115760425" id="-32284">
		<tag k="name" v="Dosane" />
		<tag k="place" v="locality" />
		<tag k="ssr:stedsnr" v="644085" />
	</node>
	<node lat="60.32947777386431" lon="6.6027833418400546" id="-32294">
		<tag k="historic" v="shieling" />
		<tag k="name" v="Mjøstølen" />
		<tag k="place" v="locality" />
		<tag k="ssr:stedsnr" v="644133" />
	</node>
	<node lat="60.365919444652775" lon="6.74222221992963" id="-32336">
		<tag k="name" v="Tjukkaskog" />
		<tag k="place" v="locality" />
		<tag k="ssr:stedsnr" v="706556" />
	</node>
	<node lat="60.44407777822967" lon="6.8149527758112765" id="-32337">
		<tag k="name" v="Skjerastein" />
		<tag k="natural" v="stone" />
		<tag k="ssr:stedsnr" v="706610" />
	</node>
	<node lat="60.22144166611132" lon="6.205591672975239" id="-32344">
		<tag k="name" v="Moltemyr" />
		<tag k="natural" v="wetland" />
		<tag k="ssr:stedsnr" v="645624" />
	</node>
	<node lat="60.19756944108441" lon="6.1267527713725745" id="-32355">
		<tag k="historic" v="shieling" />
		<tag k="name" v="Gamlasete" />
		<tag k="place" v="locality" />
		<tag k="ssr:stedsnr" v="645594" />
	</node>
	<node lat="60.37421944450254" lon="6.464055562824549" id="-32362">
		<tag k="historic" v="shieling" />
		<tag k="name" v="Mjøstølen" />
		<tag k="place" v="locality" />
		<tag k="ssr:stedsnr" v="645888" />
	</node>
	<node lat="60.19526803901387" lon="6.5480232106254865" id="-32364">
		<tag k="name" v="Breiaskarv" />
		<tag k="place" v="locality" />
		<tag k="ssr:stedsnr" v="645987" />
	</node>
	<node lat="60.362013210830646" lon="6.405829914042787" id="-32378">
		<tag k="name" v="Langemyr" />
		<tag k="natural" v="wetland" />
		<tag k="ssr:stedsnr" v="706931" />
	</node>
	<node lat="60.35903333494175" lon="6.410869439238096" id="-32438">
		<tag k="name" v="Renningsmyri" />
		<tag k="natural" v="wetland" />
		<tag k="ssr:stedsnr" v="673088" />
	</node>
	<node lat="60.36052499857081" lon="6.392725003407343" id="-32439">
		<tag k="alt_name" v="Åsmyr" />
		<tag k="name" v="Åsmyri" />
		<tag k="natural" v="wetland" />
		<tag k="ssr:stedsnr" v="673089" />
	</node>
	<node lat="60.32798055914462" lon="6.604297213163366" id="-32451">
		<tag k="name" v="Svinaskreda" />
		<tag k="natural" v="scree" />
		<tag k="place" v="locality" />
		<tag k="ssr:stedsnr" v="689208" />
	</node>
	<node lat="60.3226166704848" lon="6.605594440679707" id="-32453">
		<tag k="name" v="Lindeskreda" />
		<tag k="natural" v="scree" />
		<tag k="ssr:stedsnr" v="689188" />
	</node>
	<node lat="60.17511111368751" lon="6.121152782785453" id="-32481">
		<tag k="name" v="Nutahagen" />
		<tag k="place" v="locality" />
		<tag k="ssr:stedsnr" v="705513" />
	</node>
	<node lat="60.28718333516808" lon="6.356202779020005" id="-32485">
		<tag k="name" v="Armodstiguri" />
		<tag k="natural" v="scree" />
		<tag k="ssr:stedsnr" v="705672" />
	</node>
	<node lat="60.37170675591752" lon="6.698668178040761" id="-32507">
		<tag k="name" v="Daurmålstein" />
		<tag k="natural" v="stone" />
		<tag k="ssr:stedsnr" v="706520" />
	</node>
	<node lat="60.36311944399078" lon="6.729622218974485" id="-32512">
		<tag k="name" v="Sagflatane" />
		<tag k="place" v="locality" />
		<tag k="ssr:stedsnr" v="706568" />
	</node>
	<node lat="60.042569441042744" lon="6.467655549601844" id="-32514">
		<tag k="name" v="Seljemyr" />
		<tag k="natural" v="wetland" />
		<tag k="ssr:stedsnr" v="706575" />
	</node>
	<node lat="60.28317500104262" lon="6.255858337593899" id="-32523">
		<tag k="name" v="Fureskukken" />
		<tag k="place" v="locality" />
		<tag k="ssr:stedsnr" v="706663" />
	</node>
	<node lat="60.21334722299393" lon="6.543263880108663" id="-32532">
		<tag k="historic" v="shieling" />
		<tag k="name" v="Lindvikstølen" />
		<tag k="place" v="locality" />
		<tag k="ssr:stedsnr" v="706962" />
	</node>
	<node lat="60.090813893200014" lon="6.549455555293622" id="-32579">
		<tag k="name" v="Kviturd" />
		<tag k="natural" v="scree" />
		<tag k="ssr:stedsnr" v="733118" />
	</node>
	<node lat="59.83741944468745" lon="6.869225007252003" id="-32615">
		<tag k="name" v="Liamyrane" />
		<tag k="natural" v="wetland" />
		<tag k="ssr:stedsnr" v="748481" />
	</node>
	<node lat="60.280738887507404" lon="6.563252781752263" id="-32628">
		<tag k="historic" v="shieling" />
		<tag k="name" v="Fitjasete" />
		<tag k="place" v="locality" />
		<tag k="ssr:stedsnr" v="766210" />
	</node>
	<node lat="60.29041944417402" lon="6.37160278396333" id="-32656">
		<tag k="name" v="Ridaremyr" />
		<tag k="natural" v="wetland" />
		<tag k="ssr:stedsnr" v="766601" />
	</node>
	<node lat="60.14668333059363" lon="6.538280554819301" id="-32665">
		<tag k="name" v="Kyrastein" />
		<tag k="natural" v="stone" />
		<tag k="ssr:stedsnr" v="766695" />
	</node>
	<node lat="60.042749664038254" lon="6.423228558798286" id="-32761">
		<tag k="alt_name" v="Buerbreen, øvre;Øvre Buerbreen" />
		<tag k="name" v="Øvre Buarbreen" />
		<tag k="natural" v="glacier" />
		<tag k="ssr:stedsnr" v="914059" />
	</node>
	<node lat="60.19679999989709" lon="6.1369888902160215" id="-32829">
		<tag k="name" v="Storemyr" />
		<tag k="natural" v="wetland" />
		<tag k="ssr:stedsnr" v="915537" />
	</node>
	<node lat="60.29112500170629" lon="6.568958337680975" id="-32852">
		<tag k="name" v="Slåtta" />
		<tag k="place" v="locality" />
		<tag k="ssr:stedsnr" v="826217" />
	</node>
	<node lat="60.04614722195203" lon="6.537744436063504" id="-32877">
		<tag k="name" v="Tveitæ" />
		<tag k="place" v="locality" />
		<tag k="ssr:stedsnr" v="827576" />
	</node>
	<node lat="60.22323611532911" lon="6.557991671856607" id="-32896">
		<tag k="historic" v="shieling" />
		<tag k="name" v="Liastølen" />
		<tag k="place" v="locality" />
		<tag k="ssr:stedsnr" v="827966" />
	</node>
	<node lat="60.40163333475603" lon="6.740288892276754" id="-32906">
		<tag k="historic" v="shieling" />
		<tag k="name" v="Stølen" />
		<tag k="place" v="locality" />
		<tag k="ssr:stedsnr" v="828568" />
	</node>
	<node lat="60.342469443531826" lon="6.47720000452239" id="-32915">
		<tag k="name" v="Samdalsskarvet" />
		<tag k="place" v="locality" />
		<tag k="ssr:stedsnr" v="828875" />
	</node>
	<node lat="60.27139444480997" lon="6.373127779405005" id="-32970">
		<tag k="name" v="Stormyri" />
		<tag k="natural" v="wetland" />
		<tag k="ssr:stedsnr" v="855377" />
	</node>
	<node lat="60.37124167096915" lon="6.794302774847097" id="-32992">
		<tag k="name" v="Kviteskred" />
		<tag k="natural" v="scree" />
		<tag k="ssr:stedsnr" v="872205" />
	</node>
	<node lat="60.03122500124374" lon="7.381555551085479" id="-33001">
		<tag k="name" v="Reinsmyr" />
		<tag k="natural" v="wetland" />
		<tag k="ssr:stedsnr" v="932930" />
	</node>
	<node lat="60.347438891484536" lon="6.624269435565937" id="-33004">
		<tag k="name" v="Kalvhagen" />
		<tag k="place" v="locality" />
		<tag k="ssr:stedsnr" v="887149" />
	</node>
	<node lat="60.35586944251888" lon="6.6160027777641215" id="-33006">
		<tag k="loc_name" v="Askjellstveit" />
		<tag k="name" v="Askilstveit" />
		<tag k="place" v="locality" />
		<tag k="ssr:stedsnr" v="887221" />
	</node>
	<node lat="60.458419444860446" lon="6.833900006336857" id="-33010">
		<tag k="name" v="Ospeskogen" />
		<tag k="place" v="locality" />
		<tag k="ssr:stedsnr" v="887725" />
	</node>
	<node lat="60.37560000120989" lon="6.561433330716694" id="-33015">
		<tag k="name" v="Fossdalbeitet" />
		<tag k="place" v="locality" />
		<tag k="ssr:stedsnr" v="888146" />
	</node>
	<node lat="60.3957638848206" lon="6.564191668328294" id="-33017">
		<tag k="name" v="Kollesteinen" />
		<tag k="natural" v="stone" />
		<tag k="ssr:stedsnr" v="888099" />
	</node>
	<node lat="59.8139444480479" lon="6.758908326970761" id="-33023">
		<tag k="name" v="Turtveitmyrane" />
		<tag k="natural" v="wetland" />
		<tag k="ssr:stedsnr" v="888395" />
	</node>
	<node lat="60.292691670163414" lon="6.3354333278996355" id="-33037">
		<tag k="name" v="Damsmyri" />
		<tag k="natural" v="wetland" />
		<tag k="ssr:stedsnr" v="888551" />
	</node>
	<node lat="60.37145833003121" lon="6.722780551763654" id="-33039">
		<tag k="name" v="Hjallane" />
		<tag k="place" v="locality" />
		<tag k="ssr:stedsnr" v="888553" />
	</node>
	<node lat="60.365963887010686" lon="6.726619435691006" id="-33043">
		<tag k="name" v="Erreflaten" />
		<tag k="place" v="locality" />
		<tag k="ssr:stedsnr" v="888559" />
	</node>
	<node lat="60.201330553374" lon="6.109988882092993" id="-33045">
		<tag k="name" v="Hagen" />
		<tag k="place" v="locality" />
		<tag k="ssr:stedsnr" v="888595" />
	</node>
	<node lat="60.24421666439007" lon="6.222633338286078" id="-33050">
		<tag k="name" v="Skaramyri" />
		<tag k="natural" v="wetland" />
		<tag k="ssr:stedsnr" v="888712" />
	</node>
	<node lat="60.23964166378366" lon="6.240141675230333" id="-33059">
		<tag k="name" v="Ryssur" />
		<tag k="natural" v="scree" />
		<tag k="ssr:stedsnr" v="888658" />
	</node>
	<node lat="60.202847218836204" lon="6.550574997326735" id="-33065">
		<tag k="name" v="Geitnaskarv" />
		<tag k="place" v="locality" />
		<tag k="ssr:stedsnr" v="888947" />
	</node>
	<node lat="60.200716669585525" lon="6.554294445311578" id="-33066">
		<tag k="historic" v="shieling" />
		<tag k="name" v="Mjøsstølen" />
		<tag k="place" v="locality" />
		<tag k="ssr:stedsnr" v="888952" />
	</node>
	<node lat="60.33626944535518" lon="6.3656944477421895" id="-33151">
		<tag k="landuse" v="meadow" />
		<tag k="name" v="Haugshagen" />
		<tag k="ssr:stedsnr" v="948081" />
	</node>
	<node lat="59.74768889201563" lon="6.7918444407379495" id="-33157">
		<tag k="historic" v="shieling" />
		<tag k="name" v="Nedste Stølen" />
		<tag k="place" v="locality" />
		<tag k="ssr:stedsnr" v="948401" />
	</node>
	<node lat="59.80703055269648" lon="6.840069445702944" id="-33158">
		<tag k="name" v="Klorsteinane" />
		<tag k="natural" v="stone" />
		<tag k="ssr:stedsnr" v="948503" />
	</node>
	<node lat="60.11152222141469" lon="6.558030547595324" id="-33177">
		<tag k="name" v="Tveitaura" />
		<tag k="natural" v="scree" />
		<tag k="ssr:stedsnr" v="948713" />
	</node>
	<node lat="60.42774999920074" lon="6.751349991602226" id="-33179">
		<tag k="name" v="Errefloten" />
		<tag k="place" v="locality" />
		<tag k="ssr:stedsnr" v="948806" />
	</node>
	<node lat="60.297261107710135" lon="6.280769446134186" id="-33180">
		<tag k="historic" v="shieling" />
		<tag k="name" v="Gamlestøl" />
		<tag k="place" v="locality" />
		<tag k="ssr:stedsnr" v="948817" />
	</node>
	<node lat="60.29571388530208" lon="6.262736111533526" id="-33182">
		<tag k="name" v="Hornsmyrane" />
		<tag k="natural" v="wetland" />
		<tag k="ssr:stedsnr" v="948829" />
	</node>
	<node lat="60.28898055341171" lon="6.643191668077345" id="-33189">
		<tag k="name" v="Markastein" />
		<tag k="natural" v="stone" />
		<tag k="ssr:stedsnr" v="949427" />
	</node>
	<node lat="60.238588892276724" lon="6.205261106615882" id="-33211">
		<tag k="name" v="Svaena" />
		<tag k="place" v="locality" />
		<tag k="ssr:stedsnr" v="949583" />
	</node>
	<node lat="60.23831666516198" lon="6.316436108264724" id="-33214">
		<tag k="name" v="Nipeuri" />
		<tag k="natural" v="scree" />
		<tag k="ssr:stedsnr" v="949705" />
	</node>
	<node lat="60.29143055695797" lon="6.5910111104067015" id="-33215">
		<tag k="name" v="Lessingestein" />
		<tag k="natural" v="stone" />
		<tag k="ssr:stedsnr" v="949796" />
	</node>
	<node lat="60.3592416709547" lon="6.41328055728337" id="-33216">
		<tag k="name" v="Ulvsmyr" />
		<tag k="natural" v="wetland" />
		<tag k="ssr:stedsnr" v="949797" />
	</node>
	<node lat="60.03614166566857" lon="6.432458327857637" id="-33252">
		<tag k="alt_name" v="Buerbreen, nedre;Nedre Buerbreen" />
		<tag k="name" v="Nedre Buarbreen" />
		<tag k="natural" v="glacier" />
		<tag k="ssr:stedsnr" v="4047" />
	</node>
	<node lat="60.271688885116305" lon="7.152086106400849" id="-33316">
		<tag k="name" v="Hallaskarmyrane" />
		<tag k="natural" v="wetland" />
		<tag k="ssr:stedsnr" v="5598" />
	</node>
	<node lat="60.42555000380422" lon="6.544555547436572" id="-33319">
		<tag k="name" v="Skarpeleira" />
		<tag k="place" v="locality" />
		<tag k="ssr:stedsnr" v="6145" />
	</node>
	<node lat="60.34946944450983" lon="6.355169446289359" id="-33342">
		<tag k="name" v="Hundstein" />
		<tag k="natural" v="stone" />
		<tag k="ssr:stedsnr" v="37636" />
	</node>
	<node lat="60.33834722124784" lon="6.612516674699075" id="-33352">
		<tag k="name" v="Velureslåttena" />
		<tag k="place" v="locality" />
		<tag k="ssr:stedsnr" v="38154" />
	</node>
	<node lat="60.384847219899356" lon="6.6866250018006115" id="-33373">
		<tag k="name" v="Nyeteigen" />
		<tag k="place" v="locality" />
		<tag k="ssr:stedsnr" v="38593" />
	</node>
	<node lat="60.18152777784525" lon="6.145397229838024" id="-33377">
		<tag k="name" v="Fallemyrane" />
		<tag k="natural" v="wetland" />
		<tag k="ssr:stedsnr" v="38437" />
	</node>
	<node lat="60.16669166449421" lon="6.130355558525255" id="-33378">
		<tag k="name" v="Storemyr" />
		<tag k="natural" v="wetland" />
		<tag k="ssr:stedsnr" v="38438" />
	</node>
	<node lat="60.01331666878283" lon="6.565074998391638" id="-33389">
		<tag k="name" v="Tjørnura" />
		<tag k="natural" v="scree" />
		<tag k="ssr:stedsnr" v="38552" />
	</node>
	<node lat="60.43532222325959" lon="6.798477770213019" id="-33398">
		<tag k="name" v="Kvanngro" />
		<tag k="natural" v="stone" />
		<tag k="ssr:stedsnr" v="38648" />
	</node>
	<node lat="60.12679722623962" lon="6.533994441152004" id="-33401">
		<tag k="name" v="Sveur" />
		<tag k="natural" v="scree" />
		<tag k="ssr:stedsnr" v="38654" />
	</node>
	<node lat="60.15407777546302" lon="6.535919444991344" id="-33413">
		<tag k="loc_name" v="Lauvhogget" />
		<tag k="name" v="Lauvhoggen" />
		<tag k="place" v="locality" />
		<tag k="ssr:stedsnr" v="38677" />
	</node>
	<node lat="60.2505138879878" lon="6.216458338080932" id="-33427">
		<tag k="historic" v="shieling" />
		<tag k="name" v="Belnesstølen" />
		<tag k="place" v="locality" />
		<tag k="ssr:stedsnr" v="38735" />
	</node>
	<node lat="60.170088884928354" lon="6.6007888909126144" id="-33428">
		<tag k="name" v="Myrane" />
		<tag k="natural" v="wetland" />
		<tag k="ssr:stedsnr" v="38833" />
	</node>
</osm>
