<?xml version="1.0" encoding="UTF-8"?>
<osm version="0.6" generator="osmapis">
	<node lat="60.21170000390641" lon="6.566936118253708" id="-34325">
		<tag k="bridge" v="yes" />
		<tag k="layer" v="1" />
		<tag k="name" v="Idlegjel" />
		<tag k="ssr:stedsnr" v="229762" />
	</node>
	<node lat="60.33047222522723" lon="6.6788777827872785" id="-34430">
		<tag k="ford" v="yes" />
		<tag k="name" v="Kaldavad" />
		<tag k="place" v="locality" />
		<tag k="ssr:stedsnr" v="38610" />
	</node>
	<node lat="60.245793986912226" lon="6.56724383950279" id="-34461">
		<tag k="bridge" v="yes" />
		<tag k="layer" v="1" />
		<tag k="name" v="Bleie" />
		<tag k="ssr:stedsnr" v="46786" />
	</node>
	<node lat="60.24039999949419" lon="6.6198138966296645" id="-34462">
		<tag k="bridge" v="yes" />
		<tag k="layer" v="1" />
		<tag k="name" v="Gl책mo" />
		<tag k="ssr:stedsnr" v="46787" />
	</node>
	<node lat="60.20561944707217" lon="6.563483330834149" id="-34463">
		<tag k="bridge" v="yes" />
		<tag k="layer" v="1" />
		<tag k="name" v="M책ge" />
		<tag k="ssr:stedsnr" v="46789" />
	</node>
	<node lat="60.31540833085283" lon="6.322627773749846" id="-34464">
		<tag k="bridge" v="yes" />
		<tag k="layer" v="1" />
		<tag k="name" v="M책nevik" />
		<tag k="ssr:stedsnr" v="46872" />
	</node>
	<node lat="60.347936114041225" lon="6.401388891012614" id="-34465">
		<tag k="bridge" v="yes" />
		<tag k="layer" v="1" />
		<tag k="name" v="Samland" />
		<tag k="ssr:stedsnr" v="46874" />
	</node>
	<node lat="59.78921944633776" lon="6.769186114074029" id="-34466">
		<tag k="bridge" v="yes" />
		<tag k="layer" v="1" />
		<tag k="name" v="Ekkje" />
		<tag k="ssr:stedsnr" v="46880" />
	</node>
	<node lat="60.424050002349375" lon="6.621780551209828" id="-34469">
		<tag k="amenity" v="ferry_terminal" />
		<tag k="name" v="Utne ferjekai" />
		<tag k="ssr:stedsnr" v="60122" />
	</node>
	<node lat="60.27046666913344" lon="6.48290832991675" id="-34519">
		<tag k="loc_name" v="Klokkaren" />
		<tag k="man_made" v="cairn" />
		<tag k="name" v="Klokkarane" />
		<tag k="place" v="locality" />
		<tag k="ssr:stedsnr" v="66368" />
	</node>
	<node lat="60.37768055932369" lon="6.801769449403589" id="-34658">
		<tag k="highway" v="path" />
		<tag k="name" v="Flatakvilet" />
		<tag k="ssr:stedsnr" v="99807" />
	</node>
	<node lat="60.289130557452495" lon="6.429247224682968" id="-34666">
		<tag k="ford" v="yes" />
		<tag k="name" v="Smalabruvad" />
		<tag k="place" v="locality" />
		<tag k="ssr:stedsnr" v="99875" />
	</node>
	<node lat="60.21868333308499" lon="6.564144453393092" id="-34675">
		<tag k="highway" v="path" />
		<tag k="name" v="Raudstig" />
		<tag k="ssr:stedsnr" v="99967" />
	</node>
	<node lat="59.77324444252088" lon="6.742450004156244" id="-34709">
		<tag k="bridge" v="yes" />
		<tag k="layer" v="1" />
		<tag k="name" v="Ekkjeskar" />
		<tag k="ssr:stedsnr" v="107875" />
	</node>
	<node lat="60.14586944683533" lon="6.541616657527361" id="-34710">
		<tag k="bridge" v="yes" />
		<tag k="layer" v="1" />
		<tag k="name" v="Apold" />
		<tag k="ssr:stedsnr" v="107879" />
	</node>
	<node lat="60.19310000016949" lon="7.069183338972876" id="-34713">
		<tag k="man_made" v="cairn" />
		<tag k="name" v="H책rteigen" />
		<tag k="place" v="locality" />
		<tag k="ssr:stedsnr" v="111314" />
	</node>
</osm>
