<?xml version="1.0" encoding="UTF-8"?>
<osm version="0.6" generator="osmapis">
	<node lat="59.94451389297053" lon="6.701344443509443" id="-26665">
		<tag k="name" v="Austdalen" />
		<tag k="natural" v="valley" />
		<tag k="place" v="locality" />
		<tag k="ssr:stedsnr" v="3125" />
	</node>
	<node lat="59.9880138858802" lon="6.542538881621965" id="-26666">
		<tag k="name" v="Boldalsbrekkene" />
		<tag k="natural" v="slope" />
		<tag k="place" v="locality" />
		<tag k="ssr:stedsnr" v="3370" />
	</node>
	<node lat="60.088049995888674" lon="6.513599997814064" id="-26669">
		<tag k="name" v="Husaskreda" />
		<tag k="natural" v="valley" />
		<tag k="place" v="locality" />
		<tag k="ssr:stedsnr" v="4101" />
	</node>
	<node lat="60.11803058452132" lon="6.504482706672979" id="-26671">
		<tag k="fixme" v="consider natural=peak for the most distinct mountains in the district" />
		<tag k="name" v="Ånuten" />
		<tag k="natural" v="hill" />
		<tag k="place" v="locality" />
		<tag k="ssr:stedsnr" v="4126" />
	</node>
	<node lat="60.022502777901096" lon="6.456366659080697" id="-26674">
		<tag k="name" v="Røyrgjuv" />
		<tag k="natural" v="valley" />
		<tag k="place" v="locality" />
		<tag k="ssr:stedsnr" v="4028" />
	</node>
	<node lat="60.05066666469839" lon="6.431383341048592" id="-26675">
		<tag k="fixme" v="consider natural=peak for the most distinct mountains in the district" />
		<tag k="name" v="Nordbakkenuten" />
		<tag k="natural" v="hill" />
		<tag k="place" v="locality" />
		<tag k="ssr:stedsnr" v="4064" />
	</node>
	<node lat="59.9892333342645" lon="6.790524995863863" id="-26676">
		<tag k="name" v="Gjerdberg" />
		<tag k="natural" v="hill" />
		<tag k="place" v="locality" />
		<tag k="ssr:stedsnr" v="4095" />
	</node>
	<node lat="60.174844440814795" lon="6.496452777865057" id="-26677">
		<tag k="fixme" v="consider natural=peak for the most distinct mountains in the district" />
		<tag k="name" v="Ruklenuten" />
		<tag k="natural" v="hill" />
		<tag k="place" v="locality" />
		<tag k="ssr:stedsnr" v="4216" />
	</node>
	<node lat="60.12606224855741" lon="6.598527961422421" id="-26678">
		<tag k="name" v="Svelget" />
		<tag k="natural" v="valley" />
		<tag k="place" v="locality" />
		<tag k="ssr:stedsnr" v="4403" />
	</node>
	<node lat="60.23459444588176" lon="6.9583333306132715" id="-26679">
		<tag k="name" v="Sperredalen" />
		<tag k="natural" v="valley" />
		<tag k="place" v="locality" />
		<tag k="ssr:stedsnr" v="4464" />
	</node>
	<node lat="59.91099721967142" lon="6.566677770899256" id="-26681">
		<tag k="loc_name" v="Juvarsdalen" />
		<tag k="name" v="Gjuvarsdalen" />
		<tag k="natural" v="valley" />
		<tag k="place" v="locality" />
		<tag k="ssr:stedsnr" v="4467" />
	</node>
	<node lat="60.24345833230138" lon="6.248236117796428" id="-26683">
		<tag k="name" v="Mørkelii" />
		<tag k="natural" v="slope" />
		<tag k="place" v="locality" />
		<tag k="ssr:stedsnr" v="4806" />
	</node>
	<node lat="60.24899444818029" lon="6.3947500061752285" id="-26684">
		<tag k="name" v="Svartavassleitet" />
		<tag k="natural" v="valley" />
		<tag k="place" v="locality" />
		<tag k="ssr:stedsnr" v="4815" />
	</node>
	<node lat="60.24603333024383" lon="6.336611119927524" id="-26685">
		<tag k="fixme" v="consider natural=peak for the most distinct mountains in the district" />
		<tag k="name" v="Øykjafjell" />
		<tag k="natural" v="hill" />
		<tag k="place" v="locality" />
		<tag k="ssr:stedsnr" v="4821" />
	</node>
	<node lat="60.31185277393503" lon="6.35752776968193" id="-26688">
		<tag k="name" v="Raudsteindalen" />
		<tag k="natural" v="valley" />
		<tag k="place" v="locality" />
		<tag k="ssr:stedsnr" v="5005" />
	</node>
	<node lat="60.310119440832295" lon="6.340338880433135" id="-26689">
		<tag k="name" v="Espedalen" />
		<tag k="natural" v="valley" />
		<tag k="place" v="locality" />
		<tag k="ssr:stedsnr" v="5007" />
	</node>
	<node lat="60.33325555462003" lon="6.567580553448043" id="-26691">
		<tag k="fixme" v="consider natural=peak for the most distinct mountains in the district" />
		<tag k="name" v="Jåstadnuten" />
		<tag k="natural" v="hill" />
		<tag k="place" v="locality" />
		<tag k="ssr:stedsnr" v="5015" />
	</node>
	<node lat="60.3020916675452" lon="6.356777780286457" id="-26693">
		<tag k="name" v="Langedalen" />
		<tag k="natural" v="valley" />
		<tag k="place" v="locality" />
		<tag k="ssr:stedsnr" v="5020" />
	</node>
	<node lat="60.35954166927579" lon="6.447280551657455" id="-26696">
		<tag k="name" v="Dammaskolten" />
		<tag k="natural" v="hill" />
		<tag k="place" v="locality" />
		<tag k="ssr:stedsnr" v="5106" />
	</node>
	<node lat="60.14023888975123" lon="6.520194441278663" id="-26698">
		<tag k="name" v="Stølslii" />
		<tag k="natural" v="slope" />
		<tag k="place" v="locality" />
		<tag k="ssr:stedsnr" v="5159" />
	</node>
	<node lat="60.136683336185534" lon="6.521275005476621" id="-26700">
		<tag k="fixme" v="consider natural=peak for the most distinct mountains in the district" />
		<tag k="name" v="Rylken" />
		<tag k="natural" v="hill" />
		<tag k="place" v="locality" />
		<tag k="ssr:stedsnr" v="5171" />
	</node>
	<node lat="60.142594446535455" lon="6.531313885320263" id="-26701">
		<tag k="alt_name" v="Aksla" />
		<tag k="fixme" v="consider natural=peak for the most distinct mountains in the district" />
		<tag k="name" v="Oksli" />
		<tag k="natural" v="hill" />
		<tag k="place" v="locality" />
		<tag k="ssr:stedsnr" v="5180" />
	</node>
	<node lat="60.1492055534357" lon="6.501141670682283" id="-26702">
		<tag k="fixme" v="consider natural=peak for the most distinct mountains in the district" />
		<tag k="name" v="Bjørnstignuten" />
		<tag k="natural" v="hill" />
		<tag k="place" v="locality" />
		<tag k="ssr:stedsnr" v="5181" />
	</node>
	<node lat="60.212236115001396" lon="7.162038894830934" id="-26703">
		<tag k="name" v="Nasene" />
		<tag k="natural" v="hill" />
		<tag k="place" v="locality" />
		<tag k="ssr:stedsnr" v="5310" />
	</node>
	<node lat="60.20423332961582" lon="7.1408305532872625" id="-26704">
		<tag k="fixme" v="consider natural=peak for the most distinct mountains in the district" />
		<tag k="name" v="Langgrø" />
		<tag k="natural" v="hill" />
		<tag k="place" v="locality" />
		<tag k="ssr:stedsnr" v="5304" />
	</node>
	<node lat="60.290327776036" lon="6.296741665413504" id="-26706">
		<tag k="name" v="Toni" />
		<tag k="place" v="locality" />
		<tag k="ssr:stedsnr" v="5418" />
	</node>
	<node lat="60.30033055430179" lon="6.563041669346558" id="-26707">
		<tag k="alt_name" v="Storehellerane" />
		<tag k="name" v="Storhellerane" />
		<tag k="place" v="locality" />
		<tag k="ssr:stedsnr" v="5421" />
	</node>
	<node lat="60.29303333097526" lon="6.323502773829681" id="-26708">
		<tag k="name" v="Ilaskori" />
		<tag k="natural" v="slope" />
		<tag k="place" v="locality" />
		<tag k="ssr:stedsnr" v="5431" />
	</node>
	<node lat="60.21592777735775" lon="6.855658329157608" id="-26710">
		<tag k="name" v="Simlehaugane" />
		<tag k="natural" v="hill" />
		<tag k="place" v="locality" />
		<tag k="ssr:stedsnr" v="5464" />
	</node>
	<node lat="60.21953055269373" lon="6.913250004408417" id="-26711">
		<tag k="fixme" v="consider natural=peak for the most distinct mountains in the district" />
		<tag k="name" v="Vargen" />
		<tag k="natural" v="hill" />
		<tag k="place" v="locality" />
		<tag k="ssr:stedsnr" v="5469" />
	</node>
	<node lat="60.20627777737523" lon="6.134411112302758" id="-26713">
		<tag k="name" v="Kyrkjeberget" />
		<tag k="natural" v="hill" />
		<tag k="place" v="locality" />
		<tag k="ssr:stedsnr" v="5475" />
	</node>
	<node lat="60.20895833076024" lon="6.175574991886275" id="-26715">
		<tag k="name" v="Kvanngrød" />
		<tag k="natural" v="slope" />
		<tag k="place" v="locality" />
		<tag k="ssr:stedsnr" v="5477" />
	</node>
	<node lat="60.2561611132844" lon="6.308219437785159" id="-26717">
		<tag k="name" v="Breidsetenotten" />
		<tag k="natural" v="hill" />
		<tag k="place" v="locality" />
		<tag k="ssr:stedsnr" v="5365" />
	</node>
	<node lat="60.26011388901995" lon="6.3626999970239115" id="-26719">
		<tag k="name" v="Nonskarddalen" />
		<tag k="natural" v="valley" />
		<tag k="place" v="locality" />
		<tag k="ssr:stedsnr" v="5368" />
	</node>
	<node lat="60.33729444432233" lon="7.081486107031458" id="-26721">
		<tag k="name" v="Kjelabotn" />
		<tag k="natural" v="valley" />
		<tag k="place" v="locality" />
		<tag k="ssr:stedsnr" v="5520" />
	</node>
	<node lat="60.35308332987846" lon="7.115977780325764" id="-26723">
		<tag k="name" v="Flatarehaug" />
		<tag k="natural" v="hill" />
		<tag k="place" v="locality" />
		<tag k="ssr:stedsnr" v="5526" />
	</node>
	<node lat="60.23752777711814" lon="6.214927781324743" id="-26725">
		<tag k="fixme" v="consider natural=peak for the most distinct mountains in the district" />
		<tag k="name" v="Øydjordsfjellet" />
		<tag k="natural" v="hill" />
		<tag k="place" v="locality" />
		<tag k="ssr:stedsnr" v="5709" />
	</node>
	<node lat="60.22263611520774" lon="6.3874166620290875" id="-26726">
		<tag k="name" v="Urdadalen" />
		<tag k="natural" v="valley" />
		<tag k="place" v="locality" />
		<tag k="ssr:stedsnr" v="5801" />
	</node>
	<node lat="60.2105777763893" lon="6.527377773033563" id="-26727">
		<tag k="fixme" v="consider natural=peak for the most distinct mountains in the district" />
		<tag k="name" v="Såta" />
		<tag k="natural" v="hill" />
		<tag k="place" v="locality" />
		<tag k="ssr:stedsnr" v="5813" />
	</node>
	<node lat="60.26406666568118" lon="6.777116659587776" id="-26731">
		<tag k="fixme" v="consider natural=peak for the most distinct mountains in the district" />
		<tag k="name" v="Blåsenborg" />
		<tag k="natural" v="hill" />
		<tag k="place" v="locality" />
		<tag k="ssr:stedsnr" v="22188" />
	</node>
	<node lat="60.34783889166317" lon="6.6210805555546886" id="-26737">
		<tag k="name" v="Kleivi" />
		<tag k="natural" v="slope" />
		<tag k="place" v="locality" />
		<tag k="ssr:stedsnr" v="37171" />
	</node>
	<node lat="60.351827781591794" lon="6.752394444840555" id="-26738">
		<tag k="name" v="Tveitane" />
		<tag k="place" v="locality" />
		<tag k="ssr:stedsnr" v="37721" />
	</node>
	<node lat="60.35968610791951" lon="6.758469447153168" id="-26739">
		<tag k="name" v="Orreleikane" />
		<tag k="place" v="locality" />
		<tag k="ssr:stedsnr" v="37723" />
	</node>
	<node lat="60.407066667467504" lon="6.5438361176103745" id="-26742">
		<tag k="name" v="Geiren" />
		<tag k="place" v="locality" />
		<tag k="ssr:stedsnr" v="38121" />
	</node>
	<node lat="60.40463333331689" lon="6.62021944893775" id="-26743">
		<tag k="name" v="Selskodalen" />
		<tag k="natural" v="valley" />
		<tag k="place" v="locality" />
		<tag k="ssr:stedsnr" v="38165" />
	</node>
	<node lat="60.3306444407944" lon="6.3940305592268" id="-26745">
		<tag k="name" v="Ingeleivsleitet" />
		<tag k="natural" v="slope" />
		<tag k="place" v="locality" />
		<tag k="ssr:stedsnr" v="38059" />
	</node>
	<node lat="60.24901944723766" lon="6.621025006109114" id="-26752">
		<tag k="name" v="Sakshaug" />
		<tag k="natural" v="hill" />
		<tag k="place" v="locality" />
		<tag k="ssr:stedsnr" v="38509" />
	</node>
	<node lat="60.04119166690447" lon="6.524861102937955" id="-26754">
		<tag k="name" v="Purkeset" />
		<tag k="place" v="locality" />
		<tag k="ssr:stedsnr" v="38521" />
	</node>
	<node lat="60.27278333252333" lon="6.294888888433334" id="-26755">
		<tag k="name" v="Halsgjelet" />
		<tag k="natural" v="gorge" />
		<tag k="ssr:stedsnr" v="38522" />
	</node>
	<node lat="60.36222500384002" lon="6.687111102314655" id="-26758">
		<tag k="name" v="Lauhaug" />
		<tag k="natural" v="hill" />
		<tag k="place" v="locality" />
		<tag k="ssr:stedsnr" v="38532" />
	</node>
	<node lat="60.01672777649288" lon="6.660627775296803" id="-26759">
		<tag k="name" v="Storegjelet" />
		<tag k="place" v="locality" />
		<tag k="ssr:stedsnr" v="38535" />
	</node>
	<node lat="60.355200001549086" lon="6.675091672162838" id="-26760">
		<tag k="name" v="Skorane" />
		<tag k="natural" v="slope" />
		<tag k="place" v="locality" />
		<tag k="ssr:stedsnr" v="38536" />
	</node>
	<node lat="60.28341388796101" lon="6.631397216487254" id="-26761">
		<tag k="name" v="Beitarhaugen" />
		<tag k="natural" v="hill" />
		<tag k="place" v="locality" />
		<tag k="ssr:stedsnr" v="38537" />
	</node>
	<node lat="60.27824999820147" lon="6.364936106899171" id="-26762">
		<tag k="name" v="Ståhaug" />
		<tag k="natural" v="hill" />
		<tag k="place" v="locality" />
		<tag k="ssr:stedsnr" v="38540" />
	</node>
	<node lat="60.15048889323685" lon="6.189794447168826" id="-26763">
		<tag k="fixme" v="consider natural=peak for the most distinct mountains in the district" />
		<tag k="name" v="Vetlafjellet" />
		<tag k="natural" v="hill" />
		<tag k="place" v="locality" />
		<tag k="ssr:stedsnr" v="38411" />
	</node>
	<node lat="60.14071944851012" lon="6.531622221674622" id="-26764">
		<tag k="name" v="Røyrgjelhaugen" />
		<tag k="natural" v="hill" />
		<tag k="place" v="locality" />
		<tag k="ssr:stedsnr" v="38421" />
	</node>
	<node lat="59.811358337775275" lon="6.818499997415638" id="-26765">
		<tag k="name" v="Tveitlia" />
		<tag k="natural" v="slope" />
		<tag k="place" v="locality" />
		<tag k="ssr:stedsnr" v="38458" />
	</node>
	<node lat="60.095263888629546" lon="6.549424998541918" id="-26766">
		<tag k="loc_name" v="Hundaflot" />
		<tag k="name" v="Hundaflott" />
		<tag k="place" v="locality" />
		<tag k="ssr:stedsnr" v="38605" />
	</node>
	<node lat="60.33693611387054" lon="6.661111115074947" id="-26768">
		<tag k="name" v="Håfjell" />
		<tag k="place" v="locality" />
		<tag k="ssr:stedsnr" v="38616" />
	</node>
	<node lat="60.286055556983825" lon="6.390758326757676" id="-26770">
		<tag k="name" v="Koprebakkane" />
		<tag k="natural" v="slope" />
		<tag k="place" v="locality" />
		<tag k="ssr:stedsnr" v="38622" />
	</node>
	<node lat="60.28624722564795" lon="6.380180556652929" id="-26771">
		<tag k="name" v="Omnskor" />
		<tag k="place" v="locality" />
		<tag k="ssr:stedsnr" v="38624" />
	</node>
	<node lat="60.3560166701405" lon="6.3960222282055295" id="-26772">
		<tag k="name" v="Hjellestadhamrane" />
		<tag k="natural" v="hill" />
		<tag k="place" v="locality" />
		<tag k="ssr:stedsnr" v="38628" />
	</node>
	<node lat="60.042911114200415" lon="6.492030552647771" id="-26773">
		<tag k="name" v="Smylveshamar" />
		<tag k="place" v="locality" />
		<tag k="ssr:stedsnr" v="38632" />
	</node>
	<node lat="60.421844448400584" lon="6.7563805502618255" id="-26778">
		<tag k="name" v="Håvardsrinden" />
		<tag k="natural" v="ridge" />
		<tag k="place" v="locality" />
		<tag k="ssr:stedsnr" v="38772" />
	</node>
	<node lat="60.426991666746005" lon="6.75879721908426" id="-26779">
		<tag k="name" v="Endresvodalen" />
		<tag k="natural" v="valley" />
		<tag k="place" v="locality" />
		<tag k="ssr:stedsnr" v="38774" />
	</node>
	<node lat="60.25619721892924" lon="6.235163887572524" id="-26780">
		<tag k="name" v="Lynghaugen" />
		<tag k="natural" v="hill" />
		<tag k="place" v="locality" />
		<tag k="ssr:stedsnr" v="38778" />
	</node>
	<node lat="60.38105832981858" lon="6.485022226214913" id="-26781">
		<tag k="name" v="Nybbevik" />
		<tag k="place" v="locality" />
		<tag k="ssr:stedsnr" v="38910" />
	</node>
	<node lat="60.33340833364123" lon="6.6650833423009175" id="-26782">
		<tag k="name" v="Spannskor" />
		<tag k="natural" v="slope" />
		<tag k="place" v="locality" />
		<tag k="ssr:stedsnr" v="38822" />
	</node>
	<node lat="60.346077776139964" lon="6.409544447242813" id="-26784">
		<tag k="name" v="Rodna" />
		<tag k="place" v="locality" />
		<tag k="ssr:stedsnr" v="38860" />
	</node>
	<node lat="60.26663055836406" lon="6.29674722098448" id="-26785">
		<tag k="name" v="Tveddalsrindane" />
		<tag k="natural" v="hill" />
		<tag k="place" v="locality" />
		<tag k="ssr:stedsnr" v="38866" />
	</node>
	<node lat="60.37169722500452" lon="6.634530564030731" id="-26786">
		<tag k="name" v="Skarvhagen" />
		<tag k="natural" v="slope" />
		<tag k="place" v="locality" />
		<tag k="ssr:stedsnr" v="38867" />
	</node>
	<node lat="60.173908337389186" lon="6.584224992444389" id="-26791">
		<tag k="name" v="Sjonaskallen" />
		<tag k="natural" v="hill" />
		<tag k="place" v="locality" />
		<tag k="ssr:stedsnr" v="39759" />
	</node>
	<node lat="59.957800004268904" lon="6.8302694439729885" id="-26808">
		<tag k="fixme" v="consider natural=peak for the most distinct mountains in the district" />
		<tag k="name" v="Loftsnuten" />
		<tag k="natural" v="hill" />
		<tag k="place" v="locality" />
		<tag k="ssr:stedsnr" v="64131" />
	</node>
	<node lat="59.74266666688314" lon="6.781911105878238" id="-26809">
		<tag k="fixme" v="consider natural=peak for the most distinct mountains in the district" />
		<tag k="name" v="Straumberghalsen" />
		<tag k="natural" v="hill" />
		<tag k="place" v="locality" />
		<tag k="ssr:stedsnr" v="64134" />
	</node>
	<node lat="59.92324166394474" lon="6.620519447868506" id="-26811">
		<tag k="fixme" v="consider natural=peak for the most distinct mountains in the district" />
		<tag k="name" v="Nos" />
		<tag k="natural" v="hill" />
		<tag k="place" v="locality" />
		<tag k="ssr:stedsnr" v="64165" />
	</node>
	<node lat="59.72918333155382" lon="6.787908331834033" id="-26814">
		<tag k="fixme" v="consider natural=peak for the most distinct mountains in the district" />
		<tag k="name" v="Svartenutskora" />
		<tag k="natural" v="hill" />
		<tag k="place" v="locality" />
		<tag k="ssr:stedsnr" v="64216" />
	</node>
	<node lat="59.81181666882745" lon="6.734030549253601" id="-26815">
		<tag k="fixme" v="consider natural=peak for the most distinct mountains in the district" />
		<tag k="name" v="Gausnibb" />
		<tag k="natural" v="hill" />
		<tag k="place" v="locality" />
		<tag k="ssr:stedsnr" v="64220" />
	</node>
	<node lat="59.724288885675264" lon="6.692499995078087" id="-26816">
		<tag k="fixme" v="consider natural=peak for the most distinct mountains in the district" />
		<tag k="name" v="Sauabakknuten" />
		<tag k="natural" v="hill" />
		<tag k="place" v="locality" />
		<tag k="ssr:stedsnr" v="64221" />
	</node>
	<node lat="59.78702500009386" lon="7.048486114146148" id="-26819">
		<tag k="fixme" v="consider natural=peak for the most distinct mountains in the district" />
		<tag k="name" v="Høghellernuten" />
		<tag k="natural" v="hill" />
		<tag k="place" v="locality" />
		<tag k="ssr:stedsnr" v="64924" />
	</node>
	<node lat="60.080091662442854" lon="6.515133332469417" id="-26823">
		<tag k="name" v="Røynhammarskreda" />
		<tag k="natural" v="valley" />
		<tag k="place" v="locality" />
		<tag k="ssr:stedsnr" v="65071" />
	</node>
	<node lat="59.86293587255179" lon="6.6922768104983765" id="-26825">
		<tag k="name" v="Seljestadjuvet" />
		<tag k="natural" v="valley" />
		<tag k="place" v="locality" />
		<tag k="ssr:stedsnr" v="65213" />
	</node>
	<node lat="60.104950002636684" lon="6.51320555091975" id="-26828">
		<tag k="fixme" v="consider natural=peak for the most distinct mountains in the district" />
		<tag k="name" v="Husatinden" />
		<tag k="natural" v="hill" />
		<tag k="place" v="locality" />
		<tag k="ssr:stedsnr" v="65114" />
	</node>
	<node lat="60.118741665861094" lon="6.535911108879434" id="-26829">
		<tag k="name" v="Smylvehaugen" />
		<tag k="natural" v="hill" />
		<tag k="place" v="locality" />
		<tag k="ssr:stedsnr" v="65121" />
	</node>
	<node lat="60.1541583341347" lon="6.509399995943735" id="-26833">
		<tag k="fixme" v="consider natural=peak for the most distinct mountains in the district" />
		<tag k="name" v="Storenuten" />
		<tag k="natural" v="hill" />
		<tag k="place" v="locality" />
		<tag k="ssr:stedsnr" v="65191" />
	</node>
	<node lat="60.15282499904432" lon="6.583938884510945" id="-26834">
		<tag k="name" v="Skuggaberg" />
		<tag k="natural" v="hill" />
		<tag k="place" v="locality" />
		<tag k="ssr:stedsnr" v="65197" />
	</node>
	<node lat="60.154194446590566" lon="7.068311119181435" id="-26835">
		<tag k="name" v="Grøndalshæ" />
		<tag k="natural" v="hill" />
		<tag k="place" v="locality" />
		<tag k="ssr:stedsnr" v="65311" />
	</node>
	<node lat="60.12100555898642" lon="6.851863893520712" id="-26836">
		<tag k="name" v="Bukkaskaret" />
		<tag k="natural" v="valley" />
		<tag k="place" v="locality" />
		<tag k="ssr:stedsnr" v="65411" />
	</node>
	<node lat="60.05630555870827" lon="7.386933327194101" id="-26837">
		<tag k="name" v="Jakobsbudalen" />
		<tag k="natural" v="valley" />
		<tag k="place" v="locality" />
		<tag k="ssr:stedsnr" v="65633" />
	</node>
	<node lat="60.22802499799416" lon="6.383663895909554" id="-26839">
		<tag k="fixme" v="consider natural=peak for the most distinct mountains in the district" />
		<tag k="name" v="Steinafjell" />
		<tag k="natural" v="hill" />
		<tag k="place" v="locality" />
		<tag k="ssr:stedsnr" v="65812" />
	</node>
	<node lat="59.90703055202539" lon="7.006808338456047" id="-26841">
		<tag k="name" v="Slettedalen" />
		<tag k="natural" v="valley" />
		<tag k="place" v="locality" />
		<tag k="ssr:stedsnr" v="65868" />
	</node>
	<node lat="60.32245833481844" lon="6.484030552615383" id="-26847">
		<tag k="name" v="Djupadalen" />
		<tag k="natural" v="valley" />
		<tag k="place" v="locality" />
		<tag k="ssr:stedsnr" v="66010" />
	</node>
	<node lat="60.307744444798686" lon="6.307233330929553" id="-26848">
		<tag k="name" v="Lyingahaugen" />
		<tag k="natural" v="hill" />
		<tag k="place" v="locality" />
		<tag k="ssr:stedsnr" v="66016" />
	</node>
	<node lat="60.30312499752533" lon="6.3508499987529765" id="-26849">
		<tag k="fixme" v="consider natural=peak for the most distinct mountains in the district" />
		<tag k="name" v="Gaddane" />
		<tag k="natural" v="hill" />
		<tag k="place" v="locality" />
		<tag k="ssr:stedsnr" v="66024" />
	</node>
	<node lat="59.98520000049716" lon="7.015461111652743" id="-26851">
		<tag k="fixme" v="consider natural=peak for the most distinct mountains in the district" />
		<tag k="name" v="Middalsrusta" />
		<tag k="natural" v="hill" />
		<tag k="place" v="locality" />
		<tag k="ssr:stedsnr" v="65763" />
	</node>
	<node lat="60.40924722501804" lon="6.624366659644655" id="-26854">
		<tag k="name" v="Utnesdalen" />
		<tag k="natural" v="valley" />
		<tag k="place" v="locality" />
		<tag k="ssr:stedsnr" v="66346" />
	</node>
	<node lat="60.31208055386325" lon="6.437477778557312" id="-26858">
		<tag k="name" v="Torsteinskorfjellet" />
		<tag k="natural" v="hill" />
		<tag k="place" v="locality" />
		<tag k="ssr:stedsnr" v="66051" />
	</node>
	<node lat="60.29590000283307" lon="6.332444443245577" id="-26865">
		<tag k="fixme" v="consider natural=peak for the most distinct mountains in the district" />
		<tag k="name" v="Hædna" />
		<tag k="natural" v="hill" />
		<tag k="place" v="locality" />
		<tag k="ssr:stedsnr" v="66416" />
	</node>
	<node lat="60.27394444660279" lon="7.20841389204505" id="-26866">
		<tag k="name" v="Rjupehaug" />
		<tag k="natural" v="hill" />
		<tag k="place" v="locality" />
		<tag k="ssr:stedsnr" v="66594" />
	</node>
	<node lat="60.290738889311775" lon="6.900730558994632" id="-26868">
		<tag k="name" v="Rekadalen" />
		<tag k="natural" v="valley" />
		<tag k="place" v="locality" />
		<tag k="ssr:stedsnr" v="66670" />
	</node>
	<node lat="60.420691663099106" lon="6.876588890518857" id="-26869">
		<tag k="name" v="Skoddadalen" />
		<tag k="natural" v="valley" />
		<tag k="place" v="locality" />
		<tag k="ssr:stedsnr" v="67606" />
	</node>
	<node lat="60.348738885885425" lon="6.7432583376263135" id="-26872">
		<tag k="fixme" v="consider natural=peak for the most distinct mountains in the district" />
		<tag k="name" v="Tveitafjellet" />
		<tag k="natural" v="hill" />
		<tag k="place" v="locality" />
		<tag k="ssr:stedsnr" v="82194" />
	</node>
	<node lat="60.22739166563695" lon="7.0739527741839465" id="-26874">
		<tag k="name" v="Grøndalen" />
		<tag k="natural" v="valley" />
		<tag k="place" v="locality" />
		<tag k="ssr:stedsnr" v="82946" />
	</node>
	<node lat="60.388802781277384" lon="6.717072219145418" id="-26875">
		<tag k="name" v="Flugebakken" />
		<tag k="natural" v="slope" />
		<tag k="place" v="locality" />
		<tag k="ssr:stedsnr" v="83182" />
	</node>
	<node lat="60.09894999981634" lon="7.487983339709965" id="-26876">
		<tag k="name" v="Hardangervidda" />
		<tag k="natural" v="plateau" />
		<tag k="ssr:stedsnr" v="85109" />
	</node>
	<node lat="60.006747221513514" lon="6.60293889612155" id="-26878">
		<tag k="fixme" v="consider natural=peak for the most distinct mountains in the district" />
		<tag k="name" v="Rundenuten" />
		<tag k="natural" v="hill" />
		<tag k="place" v="locality" />
		<tag k="ssr:stedsnr" v="85512" />
	</node>
	<node lat="59.69925997381087" lon="6.759035901043074" id="-26880">
		<tag k="fixme" v="consider natural=peak for the most distinct mountains in the district" />
		<tag k="loc_name" v="Marknut" />
		<tag k="name" v="Martnuten" />
		<tag k="natural" v="hill" />
		<tag k="place" v="locality" />
		<tag k="ssr:stedsnr" v="246199" />
	</node>
	<node lat="59.99324444124162" lon="6.6196722239802375" id="-26889">
		<tag k="name" v="Hildalsdalen" />
		<tag k="natural" v="valley" />
		<tag k="place" v="locality" />
		<tag k="ssr:stedsnr" v="247089" />
	</node>
	<node lat="59.96454444653129" lon="6.68950833540715" id="-26890">
		<tag k="fixme" v="consider natural=peak for the most distinct mountains in the district" />
		<tag k="name" v="Halsen" />
		<tag k="natural" v="hill" />
		<tag k="place" v="locality" />
		<tag k="ssr:stedsnr" v="247154" />
	</node>
	<node lat="60.12782499859268" lon="6.579849997709778" id="-26892">
		<tag k="alt_name" v="Tyssenuten" />
		<tag k="fixme" v="consider natural=peak for the most distinct mountains in the district" />
		<tag k="name" v="Tyssedalsnuten" />
		<tag k="natural" v="hill" />
		<tag k="place" v="locality" />
		<tag k="ssr:stedsnr" v="247157" />
	</node>
	<node lat="60.140272218129326" lon="6.528030553256145" id="-26893">
		<tag k="name" v="Litleli" />
		<tag k="natural" v="slope" />
		<tag k="place" v="locality" />
		<tag k="ssr:stedsnr" v="247163" />
	</node>
	<node lat="60.14033610690335" lon="6.59011388025484" id="-26894">
		<tag k="fixme" v="consider natural=peak for the most distinct mountains in the district" />
		<tag k="name" v="Reinatinden" />
		<tag k="natural" v="hill" />
		<tag k="place" v="locality" />
		<tag k="ssr:stedsnr" v="247168" />
	</node>
	<node lat="60.14487777553048" lon="6.52079999469601" id="-26896">
		<tag k="name" v="Turtnagili" />
		<tag k="natural" v="valley" />
		<tag k="place" v="locality" />
		<tag k="ssr:stedsnr" v="247173" />
	</node>
	<node lat="59.866188890606104" lon="6.778774992457459" id="-26900">
		<tag k="fixme" v="consider natural=peak for the most distinct mountains in the district" />
		<tag k="name" v="Grøndalsnuten" />
		<tag k="natural" v="hill" />
		<tag k="place" v="locality" />
		<tag k="ssr:stedsnr" v="247208" />
	</node>
	<node lat="59.856124998071856" lon="6.664388880944674" id="-26901">
		<tag k="fixme" v="consider natural=peak for the most distinct mountains in the district" />
		<tag k="name" v="Histeinsnuten" />
		<tag k="natural" v="hill" />
		<tag k="place" v="locality" />
		<tag k="ssr:stedsnr" v="247213" />
	</node>
	<node lat="60.06204721815941" lon="7.257444439207551" id="-26905">
		<tag k="fixme" v="consider natural=peak for the most distinct mountains in the district" />
		<tag k="name" v="Tua" />
		<tag k="natural" v="hill" />
		<tag k="place" v="locality" />
		<tag k="ssr:stedsnr" v="247242" />
	</node>
	<node lat="60.21579999971173" lon="7.127936104791847" id="-26908">
		<tag k="fixme" v="consider natural=peak for the most distinct mountains in the district" />
		<tag k="name" v="Smørstamp" />
		<tag k="natural" v="hill" />
		<tag k="place" v="locality" />
		<tag k="ssr:stedsnr" v="247300" />
	</node>
	<node lat="60.04054166400539" lon="6.899902776561318" id="-26909">
		<tag k="name" v="Finahalli" />
		<tag k="natural" v="slope" />
		<tag k="place" v="locality" />
		<tag k="ssr:stedsnr" v="247385" />
	</node>
	<node lat="60.035219446278354" lon="6.633494436146828" id="-26910">
		<tag k="name" v="Sjauseteskaret" />
		<tag k="natural" v="valley" />
		<tag k="place" v="locality" />
		<tag k="ssr:stedsnr" v="247387" />
	</node>
	<node lat="60.41936666544408" lon="6.801074997173789" id="-26912">
		<tag k="name" v="Fagradal" />
		<tag k="natural" v="valley" />
		<tag k="place" v="locality" />
		<tag k="ssr:stedsnr" v="248333" />
	</node>
	<node lat="60.41308888854654" lon="6.859363882512494" id="-26914">
		<tag k="fixme" v="consider natural=peak for the most distinct mountains in the district" />
		<tag k="name" v="Storeflåtten" />
		<tag k="natural" v="hill" />
		<tag k="place" v="locality" />
		<tag k="ssr:stedsnr" v="248341" />
	</node>
	<node lat="60.02252222126806" lon="6.884661112277923" id="-26919">
		<tag k="name" v="Svartenutskori" />
		<tag k="natural" v="ridge" />
		<tag k="place" v="locality" />
		<tag k="ssr:stedsnr" v="247338" />
	</node>
	<node lat="60.148933336087026" lon="6.670366670288737" id="-26920">
		<tag k="name" v="Trombeskar" />
		<tag k="natural" v="valley" />
		<tag k="place" v="locality" />
		<tag k="ssr:stedsnr" v="247434" />
	</node>
	<node lat="60.22068610997058" lon="6.82250556443917" id="-26923">
		<tag k="loc_name" v="Grjothaugen" />
		<tag k="name" v="Grothaugen" />
		<tag k="natural" v="hill" />
		<tag k="place" v="locality" />
		<tag k="ssr:stedsnr" v="247451" />
	</node>
	<node lat="60.15525277870345" lon="6.170327785789327" id="-26927">
		<tag k="fixme" v="consider natural=peak for the most distinct mountains in the district" />
		<tag k="name" v="Saualifjell" />
		<tag k="natural" v="hill" />
		<tag k="place" v="locality" />
		<tag k="ssr:stedsnr" v="247594" />
	</node>
	<node lat="60.090125004323696" lon="7.3601277764689" id="-26928">
		<tag k="fixme" v="consider natural=peak for the most distinct mountains in the district" />
		<tag k="name" v="Krokavassekslene" />
		<tag k="natural" v="hill" />
		<tag k="place" v="locality" />
		<tag k="ssr:stedsnr" v="247719" />
	</node>
	<node lat="60.15202453594874" lon="6.5381348259659875" id="-26936">
		<tag k="name" v="Einstabbehaugen" />
		<tag k="natural" v="hill" />
		<tag k="place" v="locality" />
		<tag k="ssr:stedsnr" v="98673" />
	</node>
	<node lat="60.14924931752133" lon="6.536933487193875" id="-26937">
		<tag k="name" v="Naltane" />
		<tag k="place" v="locality" />
		<tag k="ssr:stedsnr" v="98677" />
	</node>
	<node lat="60.2489916709183" lon="6.358030547032784" id="-26939">
		<tag k="name" v="Osadalskaret" />
		<tag k="natural" v="valley" />
		<tag k="place" v="locality" />
		<tag k="ssr:stedsnr" v="98816" />
	</node>
	<node lat="60.425738889207146" lon="6.583088885655437" id="-26942">
		<tag k="name" v="Geitastedekkena" />
		<tag k="place" v="locality" />
		<tag k="ssr:stedsnr" v="99103" />
	</node>
	<node lat="60.419794444426635" lon="6.6137916629580165" id="-26943">
		<tag k="name" v="Berget" />
		<tag k="natural" v="hill" />
		<tag k="place" v="locality" />
		<tag k="ssr:stedsnr" v="99111" />
	</node>
	<node lat="60.41085555520083" lon="6.626536107932768" id="-26944">
		<tag k="name" v="Hjallane" />
		<tag k="place" v="locality" />
		<tag k="ssr:stedsnr" v="99163" />
	</node>
	<node lat="60.34132500382296" lon="6.419886118577817" id="-26952">
		<tag k="name" v="Marhellelii" />
		<tag k="natural" v="slope" />
		<tag k="place" v="locality" />
		<tag k="ssr:stedsnr" v="248089" />
	</node>
	<node lat="60.41342777958429" lon="6.542511106948167" id="-26954">
		<tag k="name" v="Tunga" />
		<tag k="natural" v="hill" />
		<tag k="place" v="locality" />
		<tag k="ssr:stedsnr" v="99016" />
	</node>
	<node lat="60.26083333487519" lon="6.4045166723060305" id="-26958">
		<tag k="name" v="Kjeaskori" />
		<tag k="place" v="locality" />
		<tag k="ssr:stedsnr" v="99072" />
	</node>
	<node lat="60.314644443351504" lon="6.419783336563164" id="-26959">
		<tag k="name" v="Vasslii" />
		<tag k="natural" v="slope" />
		<tag k="place" v="locality" />
		<tag k="ssr:stedsnr" v="99076" />
	</node>
	<node lat="60.32681388458013" lon="6.400344449218019" id="-26960">
		<tag k="name" v="Haugskvilet" />
		<tag k="natural" v="hill" />
		<tag k="place" v="locality" />
		<tag k="ssr:stedsnr" v="99077" />
	</node>
	<node lat="60.32647778040121" lon="6.408727784695705" id="-26961">
		<tag k="name" v="Bjørnespjot" />
		<tag k="natural" v="hill" />
		<tag k="place" v="locality" />
		<tag k="ssr:stedsnr" v="99078" />
	</node>
	<node lat="60.392816662343094" lon="6.6129055515389785" id="-26962">
		<tag k="name" v="Hausaheiane" />
		<tag k="natural" v="hill" />
		<tag k="place" v="locality" />
		<tag k="ssr:stedsnr" v="99079" />
	</node>
	<node lat="59.756224996963724" lon="6.812841666717863" id="-26964">
		<tag k="name" v="Skora" />
		<tag k="place" v="locality" />
		<tag k="ssr:stedsnr" v="99262" />
	</node>
	<node lat="60.21726110855636" lon="6.631752771095706" id="-26967">
		<tag k="name" v="Lyngtuedalen" />
		<tag k="natural" v="valley" />
		<tag k="place" v="locality" />
		<tag k="ssr:stedsnr" v="99464" />
	</node>
	<node lat="60.22750000086704" lon="6.630272215950843" id="-26968">
		<tag k="name" v="Drembelhaug" />
		<tag k="natural" v="hill" />
		<tag k="place" v="locality" />
		<tag k="ssr:stedsnr" v="99469" />
	</node>
	<node lat="60.281769445402944" lon="6.666072226088085" id="-26970">
		<tag k="fixme" v="consider natural=peak for the most distinct mountains in the district" />
		<tag k="name" v="Klyvjahaugen" />
		<tag k="natural" v="hill" />
		<tag k="place" v="locality" />
		<tag k="ssr:stedsnr" v="99479" />
	</node>
	<node lat="60.37663333772449" lon="6.726711117535658" id="-26972">
		<tag k="name" v="Hestadalane" />
		<tag k="natural" v="valley" />
		<tag k="place" v="locality" />
		<tag k="ssr:stedsnr" v="99612" />
	</node>
	<node lat="60.0570805523101" lon="6.563452785868437" id="-26974">
		<tag k="name" v="Flotten" />
		<tag k="place" v="locality" />
		<tag k="ssr:stedsnr" v="99624" />
	</node>
	<node lat="60.24770000089104" lon="6.621055563748247" id="-26976">
		<tag k="name" v="Gløshaug" />
		<tag k="natural" v="hill" />
		<tag k="place" v="locality" />
		<tag k="ssr:stedsnr" v="99505" />
	</node>
	<node lat="60.28974166310631" lon="6.639736109639033" id="-26977">
		<tag k="name" v="Austmannaminnet" />
		<tag k="place" v="locality" />
		<tag k="ssr:stedsnr" v="99508" />
	</node>
	<node lat="60.03415555304692" lon="6.60846944451065" id="-26978">
		<tag k="name" v="Bruhaug" />
		<tag k="natural" v="hill" />
		<tag k="place" v="locality" />
		<tag k="ssr:stedsnr" v="99513" />
	</node>
	<node lat="60.24401389089036" lon="6.316591669996678" id="-26979">
		<tag k="name" v="Korkatrekkjaren" />
		<tag k="place" v="locality" />
		<tag k="ssr:stedsnr" v="99566" />
	</node>
	<node lat="60.24398055550897" lon="6.301880550884979" id="-26980">
		<tag k="name" v="Andvereleitet" />
		<tag k="natural" v="slope" />
		<tag k="place" v="locality" />
		<tag k="ssr:stedsnr" v="99568" />
	</node>
	<node lat="59.98737222372855" lon="6.568474993399302" id="-26981">
		<tag k="name" v="Krossgard" />
		<tag k="place" v="locality" />
		<tag k="ssr:stedsnr" v="99569" />
	</node>
	<node lat="60.247647220890975" lon="6.2983694509784796" id="-26982">
		<tag k="name" v="Osterli" />
		<tag k="natural" v="slope" />
		<tag k="place" v="locality" />
		<tag k="ssr:stedsnr" v="99570" />
	</node>
	<node lat="60.315960303885824" lon="6.673205329798726" id="-26983">
		<tag k="name" v="Tveitane" />
		<tag k="place" v="locality" />
		<tag k="ssr:stedsnr" v="99571" />
	</node>
	<node lat="59.99132777671169" lon="6.528152781338127" id="-26984">
		<tag k="name" v="Hovden" />
		<tag k="natural" v="hill" />
		<tag k="place" v="locality" />
		<tag k="ssr:stedsnr" v="99572" />
	</node>
	<node lat="60.3243935285513" lon="6.663417897255404" id="-26985">
		<tag k="name" v="Bjordalen" />
		<tag k="natural" v="valley" />
		<tag k="place" v="locality" />
		<tag k="ssr:stedsnr" v="99573" />
	</node>
	<node lat="60.20420555665869" lon="6.205811117950989" id="-26986">
		<tag k="name" v="Elleveskar" />
		<tag k="natural" v="valley" />
		<tag k="place" v="locality" />
		<tag k="ssr:stedsnr" v="99703" />
	</node>
	<node lat="60.233530552886286" lon="6.24225000554444" id="-26987">
		<tag k="name" v="Amundsstegsgjelet" />
		<tag k="place" v="locality" />
		<tag k="ssr:stedsnr" v="99709" />
	</node>
	<node lat="60.12769166237249" lon="6.59789444367151" id="-26989">
		<tag k="name" v="Svelgberget" />
		<tag k="natural" v="hill" />
		<tag k="place" v="locality" />
		<tag k="ssr:stedsnr" v="99715" />
	</node>
	<node lat="60.13009999592285" lon="6.599083331653953" id="-26990">
		<tag k="loc_name" v="Burtnagjelet" />
		<tag k="name" v="Burtnadgjelet" />
		<tag k="place" v="locality" />
		<tag k="ssr:stedsnr" v="99716" />
	</node>
	<node lat="60.12552778041052" lon="6.559863886297257" id="-26991">
		<tag k="name" v="Alskor" />
		<tag k="place" v="locality" />
		<tag k="ssr:stedsnr" v="99717" />
	</node>
	<node lat="60.247402776601376" lon="6.22853889401248" id="-26992">
		<tag k="fixme" v="consider natural=peak for the most distinct mountains in the district" />
		<tag k="name" v="Legenolten" />
		<tag k="natural" v="hill" />
		<tag k="place" v="locality" />
		<tag k="ssr:stedsnr" v="99760" />
	</node>
	<node lat="60.418572221716055" lon="6.750138895268653" id="-26996">
		<tag k="name" v="Krossen" />
		<tag k="place" v="locality" />
		<tag k="ssr:stedsnr" v="99808" />
	</node>
	<node lat="60.241002781995014" lon="6.242394446151261" id="-26998">
		<tag k="name" v="Skuffo" />
		<tag k="place" v="locality" />
		<tag k="ssr:stedsnr" v="99818" />
	</node>
	<node lat="60.294186112918716" lon="6.584002778202716" id="-26999">
		<tag k="name" v="Kolleskor" />
		<tag k="natural" v="hill" />
		<tag k="place" v="locality" />
		<tag k="ssr:stedsnr" v="99865" />
	</node>
	<node lat="60.32831111545608" lon="6.415413890535997" id="-27000">
		<tag k="name" v="Tossegjelet" />
		<tag k="place" v="locality" />
		<tag k="ssr:stedsnr" v="99872" />
	</node>
	<node lat="60.3815166662888" lon="6.636155552903752" id="-27002">
		<tag k="name" v="Kleivahaug" />
		<tag k="natural" v="hill" />
		<tag k="place" v="locality" />
		<tag k="ssr:stedsnr" v="99874" />
	</node>
	<node lat="60.33997499807209" lon="6.436636102451234" id="-27005">
		<tag k="name" v="Kvitakjetta" />
		<tag k="place" v="locality" />
		<tag k="ssr:stedsnr" v="99885" />
	</node>
	<node lat="60.37457777876003" lon="6.938800000357173" id="-27006">
		<tag k="fixme" v="consider natural=peak for the most distinct mountains in the district" />
		<tag k="name" v="Sovarenuten" />
		<tag k="natural" v="hill" />
		<tag k="place" v="locality" />
		<tag k="ssr:stedsnr" v="248260" />
	</node>
	<node lat="60.35302181989833" lon="6.6949827145911796" id="-27008">
		<tag k="fixme" v="consider natural=peak for the most distinct mountains in the district" />
		<tag k="name" v="Nipa" />
		<tag k="natural" v="hill" />
		<tag k="place" v="locality" />
		<tag k="ssr:stedsnr" v="248264" />
	</node>
	<node lat="60.3823750036861" lon="6.495988880488228" id="-27010">
		<tag k="name" v="Lauvhaug" />
		<tag k="natural" v="hill" />
		<tag k="place" v="locality" />
		<tag k="ssr:stedsnr" v="99905" />
	</node>
	<node lat="60.321175843464864" lon="6.694475444802691" id="-27016">
		<tag k="name" v="Nosi" />
		<tag k="natural" v="hill" />
		<tag k="place" v="locality" />
		<tag k="ssr:stedsnr" v="248282" />
	</node>
	<node lat="60.271944447855475" lon="6.3763944385705305" id="-27020">
		<tag k="name" v="Vedahaugen" />
		<tag k="natural" v="hill" />
		<tag k="place" v="locality" />
		<tag k="ssr:stedsnr" v="248368" />
	</node>
	<node lat="60.290602776817366" lon="6.459552769625723" id="-27022">
		<tag k="name" v="Skarvabotnen" />
		<tag k="natural" v="valley" />
		<tag k="place" v="locality" />
		<tag k="ssr:stedsnr" v="248448" />
	</node>
	<node lat="60.33661944437885" lon="7.0585694455369214" id="-27026">
		<tag k="name" v="Djupebotnen" />
		<tag k="natural" v="valley" />
		<tag k="place" v="locality" />
		<tag k="ssr:stedsnr" v="248543" />
	</node>
	<node lat="60.15156666692253" lon="6.7210444465354025" id="-27027">
		<tag k="fixme" v="consider natural=peak for the most distinct mountains in the district" />
		<tag k="name" v="Storenuten" />
		<tag k="natural" v="hill" />
		<tag k="place" v="locality" />
		<tag k="ssr:stedsnr" v="248628" />
	</node>
	<node lat="60.26898611245304" lon="7.012205564137381" id="-27028">
		<tag k="name" v="Vikebygd" />
		<tag k="natural" v="hill" />
		<tag k="place" v="locality" />
		<tag k="ssr:stedsnr" v="248642" />
	</node>
	<node lat="60.2796083309178" lon="6.888936110702486" id="-27029">
		<tag k="fixme" v="consider natural=peak for the most distinct mountains in the district" />
		<tag k="name" v="Oksli" />
		<tag k="natural" v="hill" />
		<tag k="place" v="locality" />
		<tag k="ssr:stedsnr" v="248666" />
	</node>
	<node lat="60.25645833093265" lon="6.845575002539144" id="-27030">
		<tag k="name" v="Moldkleivhøgdi" />
		<tag k="natural" v="hill" />
		<tag k="place" v="locality" />
		<tag k="ssr:stedsnr" v="248676" />
	</node>
	<node lat="60.27430555216318" lon="6.659805553540329" id="-27034">
		<tag k="name" v="Grimsdalen" />
		<tag k="natural" v="valley" />
		<tag k="place" v="locality" />
		<tag k="ssr:stedsnr" v="248695" />
	</node>
	<node lat="60.13141111379701" lon="6.164236114833058" id="-27035">
		<tag k="name" v="Husafjellet" />
		<tag k="natural" v="hill" />
		<tag k="place" v="locality" />
		<tag k="ssr:stedsnr" v="248885" />
	</node>
	<node lat="60.208105552625454" lon="6.278294438046883" id="-27036">
		<tag k="name" v="Glomsdalsskardet" />
		<tag k="natural" v="valley" />
		<tag k="place" v="locality" />
		<tag k="ssr:stedsnr" v="248841" />
	</node>
	<node lat="60.21323333006203" lon="6.563661112096331" id="-27037">
		<tag k="alt_name" v="Illagil" />
		<tag k="name" v="Illegjel" />
		<tag k="natural" v="valley" />
		<tag k="place" v="locality" />
		<tag k="ssr:stedsnr" v="248846" />
	</node>
	<node lat="60.01428055224445" lon="6.5855750089366225" id="-27051">
		<tag k="fixme" v="consider natural=peak for the most distinct mountains in the district" />
		<tag k="name" v="Eidesfjellet" />
		<tag k="natural" v="hill" />
		<tag k="place" v="locality" />
		<tag k="ssr:stedsnr" v="125016" />
	</node>
	<node lat="60.050644445739934" lon="6.499041674978711" id="-27055">
		<tag k="name" v="Bjørnskortinden" />
		<tag k="natural" v="hill" />
		<tag k="place" v="locality" />
		<tag k="ssr:stedsnr" v="125064" />
	</node>
	<node lat="60.05310000158375" lon="6.455252786479415" id="-27056">
		<tag k="name" v="Såta" />
		<tag k="natural" v="hill" />
		<tag k="place" v="locality" />
		<tag k="ssr:stedsnr" v="125067" />
	</node>
	<node lat="59.987763888953005" lon="6.823825003085623" id="-27057">
		<tag k="name" v="Isvassnutane" />
		<tag k="natural" v="hill" />
		<tag k="place" v="locality" />
		<tag k="ssr:stedsnr" v="125107" />
	</node>
	<node lat="59.97746666756637" lon="6.664394453054361" id="-27058">
		<tag k="fixme" v="consider natural=peak for the most distinct mountains in the district" />
		<tag k="name" v="Bunuten" />
		<tag k="natural" v="hill" />
		<tag k="place" v="locality" />
		<tag k="ssr:stedsnr" v="125110" />
	</node>
	<node lat="60.12425833632159" lon="6.600944442614126" id="-27063">
		<tag k="name" v="Svelgarhaugen" />
		<tag k="natural" v="hill" />
		<tag k="place" v="locality" />
		<tag k="ssr:stedsnr" v="125434" />
	</node>
	<node lat="60.10141828222201" lon="6.746469429009465" id="-27067">
		<tag k="name" v="Floren" />
		<tag k="natural" v="valley" />
		<tag k="place" v="locality" />
		<tag k="ssr:stedsnr" v="125455" />
	</node>
	<node lat="60.11475833403469" lon="6.9373972299527065" id="-27068">
		<tag k="fixme" v="consider natural=peak for the most distinct mountains in the district" />
		<tag k="name" v="Bakkanuten" />
		<tag k="natural" v="hill" />
		<tag k="place" v="locality" />
		<tag k="ssr:stedsnr" v="125457" />
	</node>
	<node lat="59.9206583308494" lon="6.6744916753249095" id="-27070">
		<tag k="fixme" v="consider natural=peak for the most distinct mountains in the district" />
		<tag k="name" v="Grøneggi" />
		<tag k="natural" v="hill" />
		<tag k="place" v="locality" />
		<tag k="ssr:stedsnr" v="125198" />
	</node>
	<node lat="59.93134999994207" lon="6.882649996006565" id="-27071">
		<tag k="name" v="Holdøledalen" />
		<tag k="natural" v="valley" />
		<tag k="place" v="locality" />
		<tag k="ssr:stedsnr" v="125200" />
	</node>
	<node lat="60.11645000173818" lon="7.169575006496224" id="-27072">
		<tag k="name" v="Ambjørgsfljåna" />
		<tag k="place" v="locality" />
		<tag k="ssr:stedsnr" v="125302" />
	</node>
	<node lat="60.13340832971344" lon="7.220863889960161" id="-27073">
		<tag k="fixme" v="consider natural=peak for the most distinct mountains in the district" />
		<tag k="name" v="Flautenuten" />
		<tag k="natural" v="hill" />
		<tag k="place" v="locality" />
		<tag k="ssr:stedsnr" v="125307" />
	</node>
</osm>
