<?xml version="1.0" encoding="UTF-8"?>
<osm version="0.6" generator="osmapis">
	<node lat="60.18533055944927" lon="6.093986107572444" id="-28549">
		<tag k="alt_name" v="Gausvika, vesla;Vesle Gausvika" />
		<tag k="name" v="Vetla Gausvika" />
		<tag k="natural" v="bay" />
		<tag k="ssr:stedsnr" v="5535" />
	</node>
	<node lat="60.207171721036865" lon="6.565554493668923" id="-28553">
		<tag k="name" v="Himlesviki" />
		<tag k="natural" v="bay" />
		<tag k="ssr:stedsnr" v="5815" />
	</node>
	<node lat="60.18387222553508" lon="6.571144447681413" id="-28559">
		<tag k="bay" v="fjord" />
		<tag k="name" v="Sørfjorden" />
		<tag k="natural" v="bay" />
		<tag k="ssr:stedsnr" v="24295" />
	</node>
	<node lat="60.34491110922899" lon="6.6284222185167305" id="-28561">
		<tag k="name" v="Krossen" />
		<tag k="natural" v="cape" />
		<tag k="ssr:stedsnr" v="37170" />
	</node>
	<node lat="60.11199444119175" lon="6.537263888412846" id="-28618">
		<tag k="name" v="Mulaneset" />
		<tag k="natural" v="cape" />
		<tag k="ssr:stedsnr" v="43691" />
	</node>
	<node lat="60.36474769415618" lon="6.3495792381399605" id="-28619">
		<tag k="name" v="Langneset" />
		<tag k="natural" v="cape" />
		<tag k="ssr:stedsnr" v="44096" />
	</node>
	<node lat="60.09638888452759" lon="6.546033329490344" id="-28620">
		<tag k="alt_name" v="Lindeneset, vla" />
		<tag k="name" v="Indra Lindeneset" />
		<tag k="natural" v="cape" />
		<tag k="ssr:stedsnr" v="238097" />
	</node>
	<node lat="60.313072224049456" lon="6.305313886334332" id="-28622">
		<tag k="name" v="Doktorflui" />
		<tag k="old_name" v="Doktorflesa" />
		<tag k="place" v="locality" />
		<tag k="seamark:type" v="rock" />
		<tag k="ssr:stedsnr" v="44909" />
	</node>
	<node lat="60.24811111167115" lon="6.204666659046083" id="-28675">
		<tag k="name" v="Saltkjelsfjøra" />
		<tag k="natural" v="bay" />
		<tag k="old_name" v="Saltkjelen" />
		<tag k="ssr:stedsnr" v="65754" />
	</node>
	<node lat="60.13671944195151" lon="6.147425002268343" id="-28677">
		<tag k="name" v="Tømmervika" />
		<tag k="natural" v="bay" />
		<tag k="ssr:stedsnr" v="65902" />
	</node>
	<node lat="60.226061112226894" lon="6.194441660854352" id="-28692">
		<tag k="name" v="Hamnen" />
		<tag k="natural" v="bay" />
		<tag k="ssr:stedsnr" v="66709" />
	</node>
	<node lat="60.17769999995438" lon="6.576575007734982" id="-28727">
		<tag k="alt_name" v="Moshamar" />
		<tag k="name" v="Moshammarneset" />
		<tag k="natural" v="cape" />
		<tag k="ssr:stedsnr" v="247219" />
	</node>
	<node lat="60.33824167044649" lon="6.349524992490811" id="-28780">
		<tag k="fixme" v="consider seamark:type=rock or natural=shoal" />
		<tag k="name" v="Kjerringaskjer" />
		<tag k="place" v="islet" />
		<tag k="ssr:stedsnr" v="99059" />
	</node>
	<node lat="60.435480559387926" lon="6.585375008108563" id="-28819">
		<tag k="name" v="Skomakarstolen" />
		<tag k="natural" v="cape" />
		<tag k="old_name" v="Skoma" />
		<tag k="ssr:stedsnr" v="248152" />
	</node>
	<node lat="60.38379048135036" lon="6.707386780601791" id="-28840">
		<tag k="name" v="Kinsarvikbukti" />
		<tag k="natural" v="bay" />
		<tag k="ssr:stedsnr" v="248248" />
	</node>
	<node lat="60.14384166563252" lon="6.130916659950635" id="-28864">
		<tag k="name" v="Apalvikneset" />
		<tag k="natural" v="cape" />
		<tag k="ssr:stedsnr" v="104433" />
	</node>
	<node lat="60.08734444410431" lon="6.537197223405524" id="-28904">
		<tag k="name" v="Eitrheimsneset" />
		<tag k="natural" v="cape" />
		<tag k="ssr:stedsnr" v="126104" />
	</node>
	<node lat="60.28843888952743" lon="6.2383416750612435" id="-28926">
		<tag k="name" v="Kåpeviki" />
		<tag k="natural" v="bay" />
		<tag k="ssr:stedsnr" v="126444" />
	</node>
	<node lat="60.275580551553674" lon="6.234608331079276" id="-28929">
		<tag k="name" v="Sætveitneset" />
		<tag k="natural" v="cape" />
		<tag k="ssr:stedsnr" v="126456" />
	</node>
	<node lat="60.284013888824916" lon="6.621249991806133" id="-28952">
		<tag k="name" v="Selsvik" />
		<tag k="natural" v="bay" />
		<tag k="ssr:stedsnr" v="158716" />
	</node>
	<node lat="60.085255551688995" lon="6.530086111797098" id="-28960">
		<tag k="name" v="Struten" />
		<tag k="natural" v="cape" />
		<tag k="ssr:stedsnr" v="159454" />
	</node>
	<node lat="60.15298611235497" lon="6.12043611368185" id="-28970">
		<tag k="fixme" v="consider seamark:type=rock or natural=shoal" />
		<tag k="name" v="Fureskjeret" />
		<tag k="place" v="islet" />
		<tag k="ssr:stedsnr" v="159506" />
	</node>
	<node lat="60.40073888657463" lon="6.5039583292658465" id="-28979">
		<tag k="fixme" v="consider seamark:type=rock or natural=shoal" />
		<tag k="name" v="Trongskjeret" />
		<tag k="place" v="islet" />
		<tag k="ssr:stedsnr" v="164113" />
	</node>
	<node lat="60.370475715555614" lon="6.354304010214031" id="-28980">
		<tag k="name" v="Samlaneset" />
		<tag k="natural" v="cape" />
		<tag k="ssr:stedsnr" v="165085" />
	</node>
	<node lat="60.283141630572146" lon="6.2441963518476316" id="-29029">
		<tag k="name" v="Sjursviki" />
		<tag k="natural" v="bay" />
		<tag k="ssr:stedsnr" v="187415" />
	</node>
	<node lat="60.27197031551242" lon="6.233648418424711" id="-29031">
		<tag k="name" v="Djupaviki" />
		<tag k="natural" v="bay" />
		<tag k="ssr:stedsnr" v="187425" />
	</node>
	<node lat="60.22281110800686" lon="6.188130553720449" id="-29035">
		<tag k="alt_name" v="Skiparvik, yt" />
		<tag k="name" v="Ytre Skiparvik" />
		<tag k="natural" v="bay" />
		<tag k="ssr:stedsnr" v="187689" />
	</node>
	<node lat="60.46938055121809" lon="6.82876111011105" id="-29061">
		<tag k="name" v="Låtanes" />
		<tag k="natural" v="cape" />
		<tag k="ssr:stedsnr" v="219721" />
	</node>
	<node lat="60.18199166546829" lon="6.5852722158025525" id="-29114">
		<tag k="name" v="Glyttet" />
		<tag k="natural" v="cape" />
		<tag k="ssr:stedsnr" v="221413" />
	</node>
	<node lat="60.290867721705574" lon="6.63264512729326" id="-29117">
		<tag k="name" v="Ytsta Djupevik" />
		<tag k="natural" v="bay" />
		<tag k="ssr:stedsnr" v="221483" />
	</node>
	<node lat="60.240836109923585" lon="6.197269443289465" id="-29127">
		<tag k="name" v="Saghaugskulten" />
		<tag k="natural" v="bay" />
		<tag k="ssr:stedsnr" v="221814" />
	</node>
	<node lat="60.35991964183379" lon="6.350612170060979" id="-29179">
		<tag k="name" v="Dysviki" />
		<tag k="natural" v="bay" />
		<tag k="ssr:stedsnr" v="248069" />
	</node>
	<node lat="60.35025926401945" lon="6.353616470579073" id="-29182">
		<tag k="name" v="Mulen" />
		<tag k="natural" v="cape" />
		<tag k="ssr:stedsnr" v="248107" />
	</node>
	<node lat="60.42977777902457" lon="6.634949999127394" id="-29188">
		<tag k="bay" v="fjord" />
		<tag k="name" v="Utnefjorden" />
		<tag k="natural" v="bay" />
		<tag k="ssr:stedsnr" v="248317" />
	</node>
	<node lat="60.142030557666295" lon="6.128730563223996" id="-29224">
		<tag k="fixme" v="consider seamark:type=rock or natural=shoal" />
		<tag k="name" v="Årsandskjeret" />
		<tag k="place" v="islet" />
		<tag k="ssr:stedsnr" v="281479" />
	</node>
	<node lat="60.374922226614984" lon="6.713697226490657" id="-29240">
		<tag k="name" v="Sandvikbukti" />
		<tag k="natural" v="bay" />
		<tag k="ssr:stedsnr" v="281583" />
	</node>
	<node lat="60.28277223042723" lon="6.244810659907231" id="-29245">
		<tag k="alt_name" v="Huhamaren" />
		<tag k="name" v="Huhammar" />
		<tag k="natural" v="cape" />
		<tag k="ssr:stedsnr" v="281703" />
	</node>
	<node lat="60.11092222300463" lon="6.554961111904368" id="-29273">
		<tag k="name" v="Tveitabukta" />
		<tag k="natural" v="bay" />
		<tag k="old_name" v="Tveitabukt" />
		<tag k="ssr:stedsnr" v="286736" />
	</node>
	<node lat="60.24061389018605" lon="6.6176833333594836" id="-29290">
		<tag k="name" v="Buanes" />
		<tag k="natural" v="cape" />
		<tag k="ssr:stedsnr" v="463471" />
	</node>
	<node lat="60.092155551490904" lon="6.550152780638397" id="-29336">
		<tag k="name" v="Tømmervik" />
		<tag k="natural" v="bay" />
		<tag k="ssr:stedsnr" v="463563" />
	</node>
	<node lat="60.415511109768836" lon="6.7400361027365125" id="-29354">
		<tag k="fixme" v="consider seamark:type=rock or natural=shoal" />
		<tag k="name" v="Tangskjer" />
		<tag k="place" v="islet" />
		<tag k="ssr:stedsnr" v="463644" />
	</node>
	<node lat="60.3040861127002" lon="6.266527770679224" id="-29370">
		<tag k="name" v="Mekjelsviki" />
		<tag k="natural" v="bay" />
		<tag k="ssr:stedsnr" v="463723" />
	</node>
	<node lat="60.42012777361451" lon="6.53516944295692" id="-29431">
		<tag k="name" v="Tråviki" />
		<tag k="natural" v="bay" />
		<tag k="ssr:stedsnr" v="309144" />
	</node>
	<node lat="60.30108888818265" lon="6.640083333060447" id="-29437">
		<tag k="name" v="Kvernarauga" />
		<tag k="natural" v="cape" />
		<tag k="ssr:stedsnr" v="309340" />
	</node>
	<node lat="60.42688907417114" lon="6.618081829701438" id="-29439">
		<tag k="name" v="Tingviki" />
		<tag k="natural" v="bay" />
		<tag k="ssr:stedsnr" v="309388" />
	</node>
	<node lat="60.428474929598075" lon="6.605456297695002" id="-29451">
		<tag k="name" v="Høyviki" />
		<tag k="natural" v="bay" />
		<tag k="ssr:stedsnr" v="325213" />
	</node>
	<node lat="60.435330551179845" lon="6.772052780280962" id="-29494">
		<tag k="name" v="Fiskurstrandi" />
		<tag k="natural" v="beach" />
		<tag k="ssr:stedsnr" v="341707" />
	</node>
	<node lat="60.15330555574326" lon="6.550474991008002" id="-29504">
		<tag k="name" v="Belgen" />
		<tag k="natural" v="cape" />
		<tag k="ssr:stedsnr" v="341742" />
	</node>
	<node lat="60.23222499629889" lon="6.610394447229026" id="-29512">
		<tag k="name" v="Vansvik" />
		<tag k="natural" v="bay" />
		<tag k="ssr:stedsnr" v="342393" />
	</node>
	<node lat="60.28108055974298" lon="6.594897223743937" id="-29519">
		<tag k="name" v="Koren" />
		<tag k="natural" v="bay" />
		<tag k="ssr:stedsnr" v="342818" />
	</node>
	<node lat="60.162205702545855" lon="6.54841031166236" id="-29529">
		<tag k="alt_name" v="Digranesvika" />
		<tag k="name" v="Digranesviki" />
		<tag k="natural" v="bay" />
		<tag k="old_name" v="Digranesvik" />
		<tag k="ssr:stedsnr" v="346717" />
	</node>
	<node lat="60.37752499972042" lon="6.46538056076242" id="-29530">
		<tag k="fixme" v="consider seamark:type=rock or natural=shoal" />
		<tag k="name" v="Kvalvikskjeret" />
		<tag k="place" v="islet" />
		<tag k="ssr:stedsnr" v="347078" />
	</node>
	<node lat="60.12584444028354" lon="6.55626389482492" id="-29560">
		<tag k="name" v="Bergneset" />
		<tag k="natural" v="cape" />
		<tag k="ssr:stedsnr" v="368182" />
	</node>
	<node lat="60.29085555745425" lon="6.235941664378709" id="-29572">
		<tag k="name" v="Kyrkjene" />
		<tag k="natural" v="cape" />
		<tag k="ssr:stedsnr" v="369026" />
	</node>
	<node lat="60.41237480313161" lon="6.521028963694198" id="-29574">
		<tag k="alt_name" v="Furaviki;Foreviki" />
		<tag k="name" v="Foraviki" />
		<tag k="natural" v="bay" />
		<tag k="ssr:stedsnr" v="369123" />
	</node>
	<node lat="60.25178888683629" lon="6.614494448741522" id="-29584">
		<tag k="name" v="Skutenes" />
		<tag k="natural" v="cape" />
		<tag k="ssr:stedsnr" v="369611" />
	</node>
	<node lat="60.03746944580139" lon="6.544005547449463" id="-29612">
		<tag k="name" v="Storenes" />
		<tag k="natural" v="cape" />
		<tag k="ssr:stedsnr" v="402414" />
	</node>
	<node lat="60.128227778347835" lon="6.157188895383438" id="-29613">
		<tag k="name" v="Øykjaneset" />
		<tag k="natural" v="cape" />
		<tag k="ssr:stedsnr" v="402476" />
	</node>
	<node lat="60.403552775436225" lon="6.507372223220035" id="-29639">
		<tag k="name" v="Holmaviki" />
		<tag k="natural" v="bay" />
		<tag k="ssr:stedsnr" v="407130" />
	</node>
	<node lat="60.31861111411404" lon="6.320652783847873" id="-29640">
		<tag k="name" v="Bruraskjeret" />
		<tag k="natural" v="shoal" />
		<tag k="place" v="locality" />
		<tag k="ssr:stedsnr" v="408931" />
	</node>
	<node lat="60.13061666373522" lon="6.525263886385594" id="-29651">
		<tag k="name" v="Øyane" />
		<tag k="place" v="islet" />
		<tag k="ssr:stedsnr" v="489157" />
	</node>
	<node lat="60.38675833437548" lon="6.687999999776804" id="-29773">
		<tag k="name" v="Krossanes" />
		<tag k="natural" v="cape" />
		<tag k="ssr:stedsnr" v="430355" />
	</node>
	<node lat="60.16927744188182" lon="6.107182852264014" id="-29928">
		<tag k="name" v="Hamnaneset" />
		<tag k="natural" v="cape" />
		<tag k="ssr:stedsnr" v="463394" />
	</node>
	<node lat="60.43693888985991" lon="6.770127773311773" id="-29941">
		<tag k="name" v="Ringøyviki" />
		<tag k="natural" v="bay" />
		<tag k="ssr:stedsnr" v="463617" />
	</node>
	<node lat="60.43037777700197" lon="6.751388893366819" id="-29945">
		<tag k="name" v="Havni" />
		<tag k="natural" v="bay" />
		<tag k="ssr:stedsnr" v="463756" />
	</node>
	<node lat="60.16310555224339" lon="6.108197226843975" id="-29977">
		<tag k="alt_name" v="Stegen" />
		<tag k="name" v="Stigen" />
		<tag k="natural" v="cape" />
		<tag k="ssr:stedsnr" v="489598" />
	</node>
	<node lat="60.10062500117272" lon="6.547319436345615" id="-29990">
		<tag k="alt_name" v="Ytra Lindeneset" />
		<tag k="name" v="Lindenes" />
		<tag k="natural" v="cape" />
		<tag k="ssr:stedsnr" v="490106" />
	</node>
	<node lat="60.1514055567571" lon="6.549158337892972" id="-29993">
		<tag k="name" v="Eikeneset" />
		<tag k="natural" v="cape" />
		<tag k="ssr:stedsnr" v="490196" />
	</node>
	<node lat="60.224500004285204" lon="6.5718749939014085" id="-30014">
		<tag k="name" v="Aksnes" />
		<tag k="natural" v="cape" />
		<tag k="ssr:stedsnr" v="490824" />
	</node>
	<node lat="60.33510833730802" lon="6.341858326117124" id="-30018">
		<tag k="name" v="Lassaviki" />
		<tag k="natural" v="bay" />
		<tag k="ssr:stedsnr" v="491104" />
	</node>
	<node lat="60.28128610876604" lon="6.6192944396724425" id="-30031">
		<tag k="alt_name" v="Børveneset" />
		<tag k="name" v="Ossvikneset" />
		<tag k="natural" v="cape" />
		<tag k="ssr:stedsnr" v="491677" />
	</node>
	<node lat="60.177024995648225" lon="6.09377777596223" id="-30052">
		<tag k="name" v="Neset" />
		<tag k="natural" v="cape" />
		<tag k="ssr:stedsnr" v="523522" />
	</node>
	<node lat="60.47023055621052" lon="6.826291674705675" id="-30064">
		<tag k="name" v="Kvernabekksviki" />
		<tag k="natural" v="bay" />
		<tag k="ssr:stedsnr" v="523770" />
	</node>
	<node lat="60.288186115415876" lon="6.623580552038899" id="-30065">
		<tag k="alt_name" v="Ytre Rosstadneset" />
		<tag k="name" v="Rosten" />
		<tag k="natural" v="cape" />
		<tag k="ssr:stedsnr" v="523773" />
	</node>
	<node lat="60.41634523133945" lon="6.528826915389873" id="-30067">
		<tag k="name" v="Ytrabøholmen" />
		<tag k="natural" v="cape" />
		<tag k="ssr:stedsnr" v="524070" />
	</node>
	<node lat="60.336627126143455" lon="6.3433581654545605" id="-30139">
		<tag k="name" v="Holmsundet" />
		<tag k="natural" v="strait" />
		<tag k="ssr:stedsnr" v="551112" />
	</node>
	<node lat="60.36771667005696" lon="6.349955553795186" id="-30146">
		<tag k="name" v="Krossaneset" />
		<tag k="natural" v="cape" />
		<tag k="ssr:stedsnr" v="551093" />
	</node>
	<node lat="60.218708329081984" lon="6.151572216594252" id="-30151">
		<tag k="name" v="Gangdalsneset" />
		<tag k="natural" v="cape" />
		<tag k="ssr:stedsnr" v="551513" />
	</node>
	<node lat="60.24436666824722" lon="6.201769436428758" id="-30161">
		<tag k="alt_name" v="Øydjordsneset" />
		<tag k="name" v="Øyjordsneset" />
		<tag k="natural" v="cape" />
		<tag k="ssr:stedsnr" v="551754" />
	</node>
	<node lat="60.47406666422503" lon="6.836291667686595" id="-30192">
		<tag k="alt_name" v="Gangsto" />
		<tag k="name" v="Gangstod" />
		<tag k="natural" v="cape" />
		<tag k="ssr:stedsnr" v="583699" />
	</node>
	<node lat="60.42178755483224" lon="6.627944481801893" id="-30252">
		<tag k="name" v="Jaktastodbukti" />
		<tag k="natural" v="bay" />
		<tag k="ssr:stedsnr" v="600801" />
	</node>
	<node lat="60.39545555281449" lon="6.710330556509836" id="-30293">
		<tag k="alt_name" v="Kyrkjeneset" />
		<tag k="name" v="Kyrkjenes" />
		<tag k="natural" v="cape" />
		<tag k="ssr:stedsnr" v="611387" />
	</node>
	<node lat="60.305686107975525" lon="6.289550005386738" id="-30300">
		<tag k="name" v="Viki" />
		<tag k="natural" v="bay" />
		<tag k="ssr:stedsnr" v="612070" />
	</node>
	<node lat="60.339519738056616" lon="6.345587032952403" id="-30302">
		<tag k="name" v="Herandsholmen" />
		<tag k="place" v="islet" />
		<tag k="ssr:stedsnr" v="612124" />
	</node>
	<node lat="60.42910000204133" lon="6.74971667190934" id="-30310">
		<tag k="alt_name" v="Ulsnesneset" />
		<tag k="name" v="Ulsnes" />
		<tag k="natural" v="cape" />
		<tag k="ssr:stedsnr" v="612374" />
	</node>
	<node lat="60.30539103207494" lon="6.611629465158899" id="-30330">
		<tag k="name" v="Klokkesteinviki" />
		<tag k="natural" v="bay" />
		<tag k="ssr:stedsnr" v="705236" />
	</node>
	<node lat="60.30735833001504" lon="6.611752772982582" id="-30333">
		<tag k="name" v="Fantaviki" />
		<tag k="natural" v="bay" />
		<tag k="ssr:stedsnr" v="705276" />
	</node>
	<node lat="60.47469166636181" lon="6.843288887030586" id="-30373">
		<tag k="name" v="Buhamrane" />
		<tag k="natural" v="cape" />
		<tag k="ssr:stedsnr" v="643705" />
	</node>
	<node lat="60.306439584674706" lon="6.611933623795685" id="-30378">
		<tag k="name" v="Krakaviki" />
		<tag k="natural" v="bay" />
		<tag k="ssr:stedsnr" v="644256" />
	</node>
	<node lat="60.11851389227952" lon="6.155819438809566" id="-30382">
		<tag k="name" v="Midtvika" />
		<tag k="natural" v="bay" />
		<tag k="ssr:stedsnr" v="706395" />
	</node>
	<node lat="60.13182222618455" lon="6.150169451954164" id="-30389">
		<tag k="name" v="Bjøllevika" />
		<tag k="natural" v="bay" />
		<tag k="ssr:stedsnr" v="644476" />
	</node>
	<node lat="60.154086108294706" lon="6.118877782736979" id="-30390">
		<tag k="name" v="Ytsta Knarrvika" />
		<tag k="natural" v="bay" />
		<tag k="ssr:stedsnr" v="644490" />
	</node>
	<node lat="60.44206388690319" lon="6.776888888953539" id="-30430">
		<tag k="name" v="Ørestein" />
		<tag k="natural" v="cape" />
		<tag k="ssr:stedsnr" v="706612" />
	</node>
	<node lat="60.22228055952945" lon="6.185377769421367" id="-30435">
		<tag k="name" v="Ytre Skiparviknes" />
		<tag k="natural" v="cape" />
		<tag k="ssr:stedsnr" v="645622" />
	</node>
	<node lat="60.43551389297523" lon="6.771422214723468" id="-30449">
		<tag k="name" v="Gråten" />
		<tag k="natural" v="cape" />
		<tag k="ssr:stedsnr" v="645597" />
	</node>
	<node lat="60.41892313910138" lon="6.640456474880836" id="-30469">
		<tag k="alt_name" v="Rånes" />
		<tag k="name" v="Råanes" />
		<tag k="natural" v="cape" />
		<tag k="ssr:stedsnr" v="706847" />
	</node>
	<node lat="60.32236666703031" lon="6.328658325110588" id="-30474">
		<tag k="name" v="Høganeset" />
		<tag k="natural" v="cape" />
		<tag k="ssr:stedsnr" v="650917" />
	</node>
	<node lat="60.380222221933316" lon="6.4773305626599145" id="-30475">
		<tag k="name" v="Mikkelsneset" />
		<tag k="natural" v="cape" />
		<tag k="ssr:stedsnr" v="651097" />
	</node>
	<node lat="60.214166670905875" lon="6.157183335446927" id="-30515">
		<tag k="name" v="Gangdalsviki" />
		<tag k="natural" v="bay" />
		<tag k="old_name" v="Gangdalsvika" />
		<tag k="ssr:stedsnr" v="672490" />
	</node>
	<node lat="60.19491944334101" lon="6.55738888460156" id="-30529">
		<tag k="name" v="Lauvnes" />
		<tag k="natural" v="cape" />
		<tag k="ssr:stedsnr" v="672869" />
	</node>
	<node lat="60.45189167091461" lon="6.8040916625665515" id="-30541">
		<tag k="name" v="Bjotveitviki" />
		<tag k="natural" v="bay" />
		<tag k="old_name" v="Bjotveitv." />
		<tag k="ssr:stedsnr" v="893332" />
	</node>
	<node lat="60.27810556008702" lon="6.24260000765908" id="-30564">
		<tag k="name" v="Jondalsviki" />
		<tag k="natural" v="bay" />
		<tag k="ssr:stedsnr" v="705127" />
	</node>
	<node lat="60.04929722106884" lon="6.54229721937494" id="-30611">
		<tag k="name" v="Hetlevik" />
		<tag k="natural" v="bay" />
		<tag k="ssr:stedsnr" v="706581" />
	</node>
	<node lat="60.373719446151696" lon="6.644330550264008" id="-30627">
		<tag k="name" v="Hausaneset" />
		<tag k="natural" v="cape" />
		<tag k="ssr:stedsnr" v="711297" />
	</node>
	<node lat="60.16686666293211" lon="6.549230559837403" id="-30650">
		<tag k="name" v="Storaneset" />
		<tag k="natural" v="cape" />
		<tag k="ssr:stedsnr" v="732218" />
	</node>
	<node lat="60.38985555456472" lon="6.405336112481224" id="-30678">
		<tag k="alt_name" v="Indre Samlen" />
		<tag k="bay" v="fjord" />
		<tag k="name" v="Indre Samlafjorden" />
		<tag k="natural" v="bay" />
		<tag k="ssr:stedsnr" v="733393" />
	</node>
	<node lat="60.15687500225241" lon="6.112652780359528" id="-30681">
		<tag k="name" v="Knarrvikeneset" />
		<tag k="natural" v="cape" />
		<tag k="ssr:stedsnr" v="733581" />
	</node>
	<node lat="60.29008742209393" lon="6.6294637808665176" id="-30713">
		<tag k="alt_name" v="Ytre Djupevik" />
		<tag k="name" v="Djupevik" />
		<tag k="natural" v="bay" />
		<tag k="ssr:stedsnr" v="765707" />
	</node>
	<node lat="60.0872905259842" lon="6.531602988741147" id="-30732">
		<tag k="name" v="Eitrheimsvågen" />
		<tag k="natural" v="bay" />
		<tag k="ssr:stedsnr" v="766410" />
	</node>
	<node lat="60.361702364226474" lon="6.669153130086323" id="-30741">
		<tag k="name" v="Tveitneset" />
		<tag k="natural" v="cape" />
		<tag k="ssr:stedsnr" v="766619" />
	</node>
	<node lat="60.195254541039496" lon="6.592279886524863" id="-30763">
		<tag k="alt_name" v="Djupevikneset indre" />
		<tag k="name" v="Insta Djupevikneset" />
		<tag k="natural" v="cape" />
		<tag k="ssr:stedsnr" v="767439" />
	</node>
	<node lat="60.320755557698114" lon="6.650822221857076" id="-30768">
		<tag k="name" v="Osen" />
		<tag k="natural" v="cape" />
		<tag k="ssr:stedsnr" v="767545" />
	</node>
	<node lat="60.270983333344965" lon="6.231547217885028" id="-30775">
		<tag k="name" v="Djupevikneset" />
		<tag k="natural" v="cape" />
		<tag k="ssr:stedsnr" v="771612" />
	</node>
	<node lat="59.94999999761597" lon="5.708333330211666" id="-30810">
		<tag k="bay" v="fjord" />
		<tag k="name" v="Hardangerfjorden" />
		<tag k="natural" v="bay" />
		<tag k="ssr:stedsnr" v="793474" />
	</node>
	<node lat="60.47452500266875" lon="6.842158329941757" id="-30827">
		<tag k="name" v="Buneset" />
		<tag k="natural" v="cape" />
		<tag k="ssr:stedsnr" v="794411" />
	</node>
	<node lat="60.216935395848466" lon="6.1775972906459575" id="-30840">
		<tag k="name" v="Urdavika" />
		<tag k="natural" v="bay" />
		<tag k="ssr:stedsnr" v="794515" />
	</node>
	<node lat="60.12649167024304" lon="6.539288893097012" id="-30856">
		<tag k="alt_name" v="Furenes" />
		<tag k="name" v="Fureneset" />
		<tag k="natural" v="cape" />
		<tag k="ssr:stedsnr" v="914147" />
	</node>
	<node lat="60.146136967454815" lon="6.543954219465344" id="-30898">
		<tag k="alt_name" v="Solnes" />
		<tag k="name" v="Solneset" />
		<tag k="natural" v="cape" />
		<tag k="ssr:stedsnr" v="915163" />
	</node>
	<node lat="60.18269999730513" lon="6.093377776537081" id="-30918">
		<tag k="name" v="Kalvaneset" />
		<tag k="natural" v="cape" />
		<tag k="ssr:stedsnr" v="915523" />
	</node>
	<node lat="60.20214486568905" lon="6.565886117301837" id="-30929">
		<tag k="alt_name" v="Utståviki" />
		<tag k="name" v="Utstodviki" />
		<tag k="natural" v="bay" />
		<tag k="old_name" v="Utstod;Utstodvik" />
		<tag k="ssr:stedsnr" v="915851" />
	</node>
	<node lat="60.42485555471201" lon="6.540700004173129" id="-30931">
		<tag k="alt_name" v="Lotestangen" />
		<tag k="name" v="Tangen" />
		<tag k="natural" v="cape" />
		<tag k="ssr:stedsnr" v="916147" />
	</node>
	<node lat="60.42640833332742" lon="6.746963891019274" id="-30975">
		<tag k="name" v="Dirraviki" />
		<tag k="natural" v="bay" />
		<tag k="ssr:stedsnr" v="827720" />
	</node>
	<node lat="60.42764166680956" lon="6.54583054951989" id="-30990">
		<tag k="name" v="Kjeringaholmen" />
		<tag k="place" v="islet" />
		<tag k="ssr:stedsnr" v="828112" />
	</node>
	<node lat="60.20167724693203" lon="6.596794314714519" id="-30999">
		<tag k="name" v="Otrahola" />
		<tag k="natural" v="bay" />
		<tag k="ssr:stedsnr" v="828411" />
	</node>
	<node lat="60.32689663124743" lon="6.334302111481794" id="-31058">
		<tag k="name" v="Hereitangen" />
		<tag k="natural" v="cape" />
		<tag k="ssr:stedsnr" v="855103" />
	</node>
	<node lat="60.323723954872136" lon="6.656724684685572" id="-31073">
		<tag k="name" v="Havni" />
		<tag k="natural" v="bay" />
		<tag k="ssr:stedsnr" v="855295" />
	</node>
	<node lat="60.13542317495878" lon="6.561305332424699" id="-31078">
		<tag k="alt_name" v="Bergneset" />
		<tag k="name" v="Eikeneset" />
		<tag k="natural" v="cape" />
		<tag k="ssr:stedsnr" v="855619" />
	</node>
	<node lat="60.1978467261367" lon="6.592862251257188" id="-31117">
		<tag k="alt_name" v="Djupevikneset ytre" />
		<tag k="name" v="Ytsta Djupevikneset" />
		<tag k="natural" v="cape" />
		<tag k="ssr:stedsnr" v="888401" />
	</node>
	<node lat="60.41139384524816" lon="6.513816526276498" id="-31160">
		<tag k="name" v="Vinesneset" />
		<tag k="natural" v="cape" />
		<tag k="ssr:stedsnr" v="893122" />
	</node>
	<node lat="60.171974607344715" lon="6.547670813975909" id="-31161">
		<tag k="loc_name" v="Kvitnavika" />
		<tag k="name" v="Kvitnovik" />
		<tag k="natural" v="bay" />
		<tag k="ssr:stedsnr" v="893763" />
	</node>
	<node lat="60.33879174551818" lon="6.340690360235275" id="-31213">
		<tag k="name" v="Storeklubben" />
		<tag k="place" v="islet" />
		<tag k="ssr:stedsnr" v="916104" />
	</node>
	<node lat="60.332418775200644" lon="6.338786730518817" id="-31214">
		<tag k="name" v="Midtviki" />
		<tag k="natural" v="bay" />
		<tag k="ssr:stedsnr" v="916110" />
	</node>
	<node lat="60.370702097918375" lon="6.432383004730739" id="-31219">
		<tag k="name" v="Bjotveitneset" />
		<tag k="natural" v="cape" />
		<tag k="ssr:stedsnr" v="916075" />
	</node>
	<node lat="60.43453333715461" lon="6.757613892591772" id="-31225">
		<tag k="name" v="Sengjanes" />
		<tag k="natural" v="cape" />
		<tag k="ssr:stedsnr" v="916367" />
	</node>
	<node lat="60.257555555619234" lon="6.207405553961347" id="-31235">
		<tag k="name" v="Sandviki" />
		<tag k="natural" v="bay" />
		<tag k="ssr:stedsnr" v="916781" />
	</node>
	<node lat="60.141011113719415" lon="6.136963890021884" id="-31257">
		<tag k="name" v="Samsofjæra" />
		<tag k="natural" v="beach" />
		<tag k="ssr:stedsnr" v="948537" />
	</node>
	<node lat="60.14046944400473" lon="6.138358327961597" id="-31263">
		<tag k="name" v="Fløytet" />
		<tag k="natural" v="cape" />
		<tag k="ssr:stedsnr" v="948498" />
	</node>
	<node lat="60.12981667013314" lon="6.155255551713977" id="-31264">
		<tag k="name" v="Hamnavika" />
		<tag k="natural" v="bay" />
		<tag k="ssr:stedsnr" v="948501" />
	</node>
	<node lat="60.37816111221969" lon="6.71954443616804" id="-31297">
		<tag k="name" v="Flusko" />
		<tag k="natural" v="cape" />
		<tag k="ssr:stedsnr" v="949533" />
	</node>
	<node lat="60.36841330128285" lon="6.401095401408086" id="-31312">
		<tag k="name" v="Ådnavikneset" />
		<tag k="natural" v="cape" />
		<tag k="ssr:stedsnr" v="949918" />
	</node>
	<node lat="60.21720555596297" lon="6.11903333914362" id="-31317">
		<tag k="name" v="Grotnesviki" />
		<tag k="natural" v="bay" />
		<tag k="old_name" v="Grotnesvika" />
		<tag k="ssr:stedsnr" v="953689" />
	</node>
	<node lat="60.28056389254531" lon="6.248069442948994" id="-31318">
		<tag k="name" v="Vikesanden" />
		<tag k="natural" v="bay" />
		<tag k="ssr:stedsnr" v="954997" />
	</node>
	<node lat="60.1944204680029" lon="6.5919732698615645" id="-31378">
		<tag k="name" v="Djupevik" />
		<tag k="natural" v="bay" />
		<tag k="ssr:stedsnr" v="4886" />
	</node>
	<node lat="60.436735943079405" lon="6.567832117595888" id="-31387">
		<tag k="name" v="Træneset" />
		<tag k="natural" v="cape" />
		<tag k="ssr:stedsnr" v="5148" />
	</node>
	<node lat="60.16840000423267" lon="6.106324998745584" id="-31420">
		<tag k="name" v="Klubben" />
		<tag k="natural" v="cape" />
		<tag k="ssr:stedsnr" v="6646" />
	</node>
	<node lat="60.258033334798505" lon="6.204505550122325" id="-31423">
		<tag k="alt_name" v="Belsneset, in;Belsneset, indre;Indre Belsneset" />
		<tag k="name" v="Belsneset" />
		<tag k="natural" v="cape" />
		<tag k="ssr:stedsnr" v="6773" />
	</node>
	<node lat="60.354705551687225" lon="6.6261333355996275" id="-31433">
		<tag k="name" v="Solstrand" />
		<tag k="natural" v="beach" />
		<tag k="ssr:stedsnr" v="37226" />
	</node>
	<node lat="60.18158610802817" lon="6.0928638883792186" id="-31449">
		<tag k="name" v="Eikevika" />
		<tag k="natural" v="bay" />
		<tag k="ssr:stedsnr" v="38462" />
	</node>
	<node lat="60.14127222126935" lon="6.134641664144791" id="-31451">
		<tag k="name" v="Klubben" />
		<tag k="natural" v="cape" />
		<tag k="ssr:stedsnr" v="38475" />
	</node>
	<node lat="60.326916463433285" lon="6.656705026604543" id="-31488">
		<tag k="name" v="Ringolvsnes" />
		<tag k="natural" v="cape" />
		<tag k="ssr:stedsnr" v="38642" />
	</node>
	<node lat="60.43848611471527" lon="6.774738889524506" id="-31501">
		<tag k="name" v="Bønes" />
		<tag k="natural" v="cape" />
		<tag k="ssr:stedsnr" v="38665" />
	</node>
	<node lat="60.41990555406426" lon="6.744266663289473" id="-31506">
		<tag k="fixme" v="consider seamark:type=rock or natural=shoal" />
		<tag k="name" v="Knosaskjer" />
		<tag k="place" v="islet" />
		<tag k="ssr:stedsnr" v="38680" />
	</node>
	<node lat="60.28939679298338" lon="6.628222747408073" id="-31533">
		<tag k="alt_name" v="Indre Djupevik" />
		<tag k="name" v="Insta Djupevik" />
		<tag k="natural" v="bay" />
		<tag k="ssr:stedsnr" v="44758" />
	</node>
	<node lat="60.340132553465786" lon="6.350942907869616" id="-31631">
		<tag k="name" v="Vesleklubben" />
		<tag k="place" v="islet" />
		<tag k="ssr:stedsnr" v="66109" />
	</node>
	<node lat="60.303338887839644" lon="6.256141664001669" id="-31637">
		<tag k="name" v="Flataskarv" />
		<tag k="natural" v="cape" />
		<tag k="ssr:stedsnr" v="66055" />
	</node>
	<node lat="60.368911112472446" lon="6.41483888839037" id="-31640">
		<tag k="name" v="Rabbaneset" />
		<tag k="natural" v="cape" />
		<tag k="ssr:stedsnr" v="66070" />
	</node>
	<node lat="60.40581667049352" lon="6.6692166593988045" id="-31647">
		<tag k="alt_name" v="Troneset" />
		<tag k="name" v="Trones" />
		<tag k="natural" v="cape" />
		<tag k="ssr:stedsnr" v="66343" />
	</node>
	<node lat="60.42538610833924" lon="6.543183334442104" id="-31690">
		<tag k="name" v="Torve" />
		<tag k="natural" v="cape" />
		<tag k="ssr:stedsnr" v="99120" />
	</node>
	<node lat="60.38356388884301" lon="6.496380550365612" id="-31703">
		<tag k="alt_name" v="Alsåkerbukti" />
		<tag k="name" v="Alsviki" />
		<tag k="natural" v="bay" />
		<tag k="old_name" v="Alsåkerbukt" />
		<tag k="ssr:stedsnr" v="99990" />
	</node>
	<node lat="60.16739444380297" lon="6.104166672489023" id="-31722">
		<tag k="name" v="Sydvesten" />
		<tag k="natural" v="cape" />
		<tag k="ssr:stedsnr" v="99433" />
	</node>
	<node lat="60.24008611260484" lon="6.194911119521881" id="-31752">
		<tag k="name" v="Laberg" />
		<tag k="natural" v="cape" />
		<tag k="ssr:stedsnr" v="99675" />
	</node>
	<node lat="60.23923611138791" lon="6.1913666652462656" id="-31753">
		<tag k="name" v="Torsneset" />
		<tag k="natural" v="cape" />
		<tag k="ssr:stedsnr" v="99676" />
	</node>
	<node lat="60.447961109867066" lon="6.794786116964186" id="-31754">
		<tag k="fixme" v="consider seamark:type=rock or natural=shoal" />
		<tag k="name" v="Gabrielskjeret" />
		<tag k="place" v="islet" />
		<tag k="ssr:stedsnr" v="99679" />
	</node>
	<node lat="60.13778610888382" lon="6.145461113104824" id="-31773">
		<tag k="name" v="Tømmerneset" />
		<tag k="natural" v="cape" />
		<tag k="ssr:stedsnr" v="104436" />
	</node>
</osm>
