<?xml version="1.0" encoding="UTF-8"?>
<<<<<<< HEAD
<osm version="0.6" generator="osmapis">
	<node lat="70.57570833741008" lon="23.57314991489705" id="-38636">
=======
<osm generator="osmapis" version="0.6">
	<node id="-848925" lat="70.5757083374" lon="23.5731499149">
>>>>>>> e1d4bc35ff8a6074a6f2e91616a996b547c36f15
		<tag k="amenity" v="ferry_terminal" />
		<tag k="name" v="Kjerringholmen" />
		<tag k="ssr:stedsnr" v="151721" />
	</node>
<<<<<<< HEAD
	<node lat="70.124569444631" lon="24.155897092595115" id="-39076">
=======
	<node id="-849371" lat="70.4461888913" lon="24.3415692983">
		<tag k="highway" v="path" />
		<tag k="name" v="Skillevegen" />
		<tag k="ssr:stedsnr" v="392944" />
	</node>
	<node id="-848115" lat="70.6772583346" lon="23.6755110266">
		<tag k="man_made" v="tower" />
		<tag k="name" v="Hammerfest Radio" />
		<tag k="ssr:stedsnr" v="602764" />
		<tag k="tower:type" v="communications" />
	</node>
	<node id="-847953" lat="70.1245694446" lon="24.1558970926">
>>>>>>> e1d4bc35ff8a6074a6f2e91616a996b547c36f15
		<tag k="ford" v="yes" />
		<tag k="name" v="Čáhcesuohpa" />
		<tag k="name:se" v="Čáhcesuohpa" />
		<tag k="old_name:se" v="Čaccesuoppa" />
		<tag k="place" v="locality" />
		<tag k="ssr:stedsnr" v="686025" />
	</node>
<<<<<<< HEAD
	<node lat="70.61339166803111" lon="24.632277632978195" id="-39219">
		<tag k="landuse" v="harbour" />
		<tag k="name" v="Hamna" />
		<tag k="seamark:type" v="harbour" />
		<tag k="ssr:stedsnr" v="578202" />
=======
	<node id="-848106" lat="70.613391668" lon="24.632277633">
		<tag k="landuse" v="harbour" />
		<tag k="name" v="Hamna" />
		<tag k="seamark:type" v="harbour" />
		<tag k="ssr:stedsnr" v="578202" />
	</node>
	<node id="-849218" lat="70.6803583375" lon="23.6768804767">
		<tag k="aeroway" v="aerodrome" />
		<tag k="alt_name" v="Hammerfest" />
		<tag k="name" v="Hammerfest lufthavn" />
		<tag k="ssr:stedsnr" v="330886" />
	</node>
	<node id="-848170" lat="70.7923694445" lon="23.4138999268">
		<tag k="man_made" v="quay" />
		<tag k="name" v="Hamna" />
		<tag k="place" v="locality" />
		<tag k="ssr:stedsnr" v="882227" />
	</node>
	<node id="-849991" lat="70.5040166726" lon="23.9814471245">
		<tag k="landuse" v="harbour" />
		<tag k="name" v="Hamna" />
		<tag k="seamark:type" v="harbour" />
		<tag k="ssr:stedsnr" v="818549" />
	</node>
	<node id="-847525" lat="70.6242249986" lon="23.66362214">
		<tag k="highway" v="path" />
		<tag k="name" v="Straumvegen" />
		<tag k="ssr:stedsnr" v="274155" />
	</node>
	<node id="-848356" lat="70.6645305595" lon="23.6788193567">
		<tag k="man_made" v="quay" />
		<tag k="name" v="Batteriet" />
		<tag k="place" v="locality" />
		<tag k="ssr:stedsnr" v="821365" />
	</node>
	<node id="-847875" lat="70.617327781" lon="24.6030970668">
		<tag k="landuse" v="harbour" />
		<tag k="name" v="Masterelva" />
		<tag k="seamark:type" v="harbour" />
		<tag k="ssr:stedsnr" v="518137" />
	</node>
	<node id="-849570" lat="70.6633750051" lon="23.6865721383">
		<tag k="man_made" v="quay" />
		<tag k="name" v="Jernteppet" />
		<tag k="place" v="locality" />
		<tag k="ssr:stedsnr" v="577209" />
>>>>>>> e1d4bc35ff8a6074a6f2e91616a996b547c36f15
	</node>
</osm>
