<?xml version="1.0" encoding="UTF-8"?>
<osm version="0.6" generator="osmapis">
	<node lat="70.5355722244128" lon="24.114058208175493" id="-44438">
		<tag k="name" v="Ytre Klubbenes" />
		<tag k="place" v="hamlet" />
		<tag k="ssr:stedsnr" v="230851" />
	</node>
	<node lat="70.39917778234167" lon="24.45881374969904" id="-44440">
		<tag k="alt_name" v="Muggheim" />
		<tag k="name" v="Myggheim" />
		<tag k="place" v="isolated_dwelling" />
		<tag k="ssr:stedsnr" v="19602" />
	</node>
	<node lat="70.81122500093291" lon="23.428847156330054" id="-44453">
		<tag k="name" v="Mefjord" />
		<tag k="place" v="hamlet" />
		<tag k="ssr:stedsnr" v="20147" />
	</node>
	<node lat="70.71603611300077" lon="23.293858252432116" id="-44455">
		<tag k="alt_name:no" v="Indre Hellefjord" />
		<tag k="fixme" v="consider place=hamlet" />
		<tag k="loc_name:se" v="Heallovuonna" />
		<tag k="name" v="Hellefjord" />
		<tag k="name:no" v="Hellefjord" />
		<tag k="place" v="village" />
		<tag k="ssr:stedsnr" v="20261" />
	</node>
	<node lat="70.6635472206585" lon="22.960974927652543" id="-44461">
		<tag k="name" v="Mebotn" />
		<tag k="place" v="farm" />
		<tag k="ssr:stedsnr" v="20443" />
	</node>
	<node lat="70.68798889435038" lon="23.689894359360466" id="-44487">
		<tag k="name" v="Prærien" />
		<tag k="place" v="suburb" />
		<tag k="ssr:stedsnr" v="31215" />
	</node>
	<node lat="70.68444167062968" lon="23.584963795151413" id="-44493">
		<tag k="alt_name" v="Statoil Melkøya" />
		<tag k="building" v="industrial" />
		<tag k="industrial" v="factory" />
		<tag k="name" v="Equinor Melkøya" />
		<tag k="ssr:stedsnr" v="237775" />
	</node>
	<node lat="70.63241666719993" lon="23.836249892815697" id="-44494">
		<tag k="fixme" v="consider tourism=alpine_hut or tourism=chalet" />
		<tag k="name" v="Rundvannshytta" />
		<tag k="ssr:stedsnr" v="56584" />
		<tag k="tourism" v="wilderness_hut" />
	</node>
	<node lat="70.58592500409962" lon="23.57783326035492" id="-44496">
		<tag k="name" v="Støvelhamna" />
		<tag k="place" v="farm" />
		<tag k="ssr:stedsnr" v="60995" />
	</node>
	<node lat="70.60222777989364" lon="23.690722140781666" id="-44497">
		<tag k="name" v="Mollstranda" />
		<tag k="place" v="farm" />
		<tag k="ssr:stedsnr" v="242912" />
	</node>
	<node lat="70.5220388903668" lon="23.320769369071108" id="-44498">
		<tag k="name" v="Sør-Tverrfjorden" />
		<tag k="place" v="farm" />
		<tag k="ssr:stedsnr" v="242992" />
	</node>
	<node lat="70.54445833177174" lon="23.148283251223532" id="-44503">
		<tag k="fixme" v="consider place=suburb, village or hamlet" />
		<tag k="name" v="Kårhamn" />
		<tag k="place" v="quarter" />
		<tag k="ssr:stedsnr" v="80098" />
	</node>
	<node lat="70.58590617428585" lon="23.075444108916553" id="-44507">
		<tag k="name" v="Nordbukta" />
		<tag k="place" v="farm" />
		<tag k="ssr:stedsnr" v="80398" />
	</node>
	<node lat="70.60745278461731" lon="23.411552697407593" id="-44550">
		<tag k="name" v="Øra" />
		<tag k="place" v="farm" />
		<tag k="ssr:stedsnr" v="93164" />
	</node>
	<node lat="70.83878611381124" lon="23.371613814225302" id="-44551">
		<tag k="name" v="Kjøttvika" />
		<tag k="place" v="farm" />
		<tag k="ssr:stedsnr" v="93364" />
	</node>
	<node lat="70.48039444402521" lon="24.223291550045577" id="-44560">
		<tag k="name" v="Fægfjord" />
		<tag k="place" v="hamlet" />
		<tag k="ssr:stedsnr" v="140841" />
	</node>
	<node lat="70.5832027803345" lon="23.477291595219494" id="-44568">
		<tag k="alt_name" v="Moen" />
		<tag k="name" v="Moan" />
		<tag k="place" v="isolated_dwelling" />
		<tag k="ssr:stedsnr" v="141234" />
	</node>
	<node lat="70.68027222901637" lon="24.307922112486935" id="-44573">
		<tag k="name" v="Bekkarbukt - Gearretgohppi" />
		<tag k="name:no" v="Bekkarbukt" />
		<tag k="name:se" v="Gearretgohppi" />
		<tag k="old_name:se" v="Gærretgåppi" />
		<tag k="place" v="farm" />
		<tag k="ssr:stedsnr" v="141141" />
	</node>
	<node lat="70.70466389227849" lon="22.90508605898863" id="-44578">
		<tag k="name" v="Sanden" />
		<tag k="place" v="locality" />
		<tag k="ssr:stedsnr" v="141508" />
	</node>
	<node lat="70.47154167195211" lon="23.937744334142643" id="-44602">
		<tag k="name" v="Fossvang" />
		<tag k="place" v="locality" />
		<tag k="ssr:stedsnr" v="150965" />
	</node>
	<node lat="70.51741389753862" lon="24.766244285076617" id="-44630">
		<tag k="name" v="Heastageađgi" />
		<tag k="name:se" v="Heastageađgi" />
		<tag k="old_name:se" v="Hæstagæđgi" />
		<tag k="place" v="isolated_dwelling" />
		<tag k="ssr:stedsnr" v="263921" />
	</node>
	<node lat="70.62071666527251" lon="23.476277695845702" id="-44634">
		<tag k="name" v="Ersvik" />
		<tag k="place" v="isolated_dwelling" />
		<tag k="ssr:stedsnr" v="262226" />
	</node>
	<node lat="70.46667222999764" lon="24.267108203951544" id="-44659">
		<tag k="name" v="Govdedak - Gorahat" />
		<tag k="name:no" v="Govdedak" />
		<tag k="name:se" v="Gorahat" />
		<tag k="old_name:se" v="Gårahat" />
		<tag k="place" v="farm" />
		<tag k="ssr:stedsnr" v="262883" />
	</node>
	<node lat="70.45651666832919" lon="24.27708319365598" id="-44660">
		<tag k="name" v="Øyen" />
		<tag k="place" v="locality" />
		<tag k="ssr:stedsnr" v="262889" />
	</node>
	<node lat="70.50912241959337" lon="23.859337356235265" id="-44669">
		<tag k="name" v="Hammarnes" />
		<tag k="place" v="farm" />
		<tag k="ssr:stedsnr" v="263186" />
	</node>
	<node lat="70.54170833612498" lon="23.730802688240136" id="-44672">
		<tag k="alt_name" v="Søre Skjåholmen" />
		<tag k="name" v="Skjåholmen" />
		<tag k="place" v="farm" />
		<tag k="ssr:stedsnr" v="263248" />
	</node>
	<node lat="70.63923055657011" lon="23.14744992334666" id="-44674">
		<tag k="name" v="Nordsida" />
		<tag k="place" v="farm" />
		<tag k="ssr:stedsnr" v="263440" />
	</node>
	<node lat="70.6266419760079" lon="24.584025055117007" id="-44682">
		<tag k="name" v="Sæterjord - Bađatluokta" />
		<tag k="name:no" v="Sæterjord" />
		<tag k="name:se" v="Bađatluokta" />
		<tag k="place" v="farm" />
		<tag k="ssr:stedsnr" v="263767" />
	</node>
	<node lat="70.44295833328226" lon="23.63523601483572" id="-44690">
		<tag k="name" v="Jernelv - Ruovdejohka" />
		<tag k="name:no" v="Jernelv" />
		<tag k="name:se" v="Ruovdejohka" />
		<tag k="old_name:se" v="Ruovdejåkka" />
		<tag k="place" v="isolated_dwelling" />
		<tag k="ssr:stedsnr" v="263977" />
	</node>
	<node lat="70.56230534269253" lon="23.695710758079088" id="-44703">
		<tag k="name" v="Fløystad" />
		<tag k="place" v="locality" />
		<tag k="ssr:stedsnr" v="202197" />
	</node>
	<node lat="70.80113494785624" lon="23.316311891843366" id="-44705">
		<tag k="fixme" v="multiple name tags, choose one and add the other to alt_name" />
		<tag k="name" v="Finnvik;Østre Finnvik" />
		<tag k="place" v="farm" />
		<tag k="ssr:stedsnr" v="202086" />
	</node>
	<node lat="70.49154444951165" lon="24.11358043008339" id="-44718">
		<tag k="name" v="Tveelva" />
		<tag k="place" v="farm" />
		<tag k="ssr:stedsnr" v="202840" />
	</node>
	<node lat="70.80153282852957" lon="23.31267203380655" id="-44738">
		<tag k="name" v="Vestre Finnvik" />
		<tag k="place" v="farm" />
		<tag k="ssr:stedsnr" v="214475" />
	</node>
	<node lat="70.61235278496034" lon="24.62846373341492" id="-44740">
		<tag k="name" v="Goavkejohka" />
		<tag k="name:se" v="Goavkejohka" />
		<tag k="old_name:se" v="Goavkejåkka" />
		<tag k="place" v="hamlet" />
		<tag k="ssr:stedsnr" v="220315" />
	</node>
	<node lat="70.69186944851798" lon="23.599069358896063" id="-44749">
		<tag k="building" v="industrial" />
		<tag k="industrial" v="factory" />
		<tag k="name" v="Flammetårn" />
		<tag k="ssr:stedsnr" v="237792" />
	</node>
	<node lat="70.70903333645349" lon="23.302980483759857" id="-44752">
		<tag k="name" v="Hellefjorden" />
		<tag k="place" v="farm" />
		<tag k="ssr:stedsnr" v="242491" />
	</node>
	<node lat="70.53362500457034" lon="22.930566598506477" id="-44771">
		<tag k="name" v="Vatnhamna" />
		<tag k="place" v="farm" />
		<tag k="ssr:stedsnr" v="262119" />
	</node>
	<node lat="70.68831666432507" lon="22.879574945127317" id="-44778">
		<tag k="name" v="Koppardalen" />
		<tag k="place" v="farm" />
		<tag k="ssr:stedsnr" v="262503" />
	</node>
	<node lat="70.6291638909503" lon="23.657511034219812" id="-44788">
		<tag k="name" v="Leirvik" />
		<tag k="place" v="hamlet" />
		<tag k="ssr:stedsnr" v="263041" />
	</node>
	<node lat="70.74267778263761" lon="23.15094159329725" id="-44818">
		<tag k="name" v="Hønseby" />
		<tag k="place" v="hamlet" />
		<tag k="ssr:stedsnr" v="274090" />
	</node>
	<node lat="70.40449166628765" lon="22.949183260111578" id="-44831">
		<tag k="name" v="Lakselv" />
		<tag k="place" v="locality" />
		<tag k="ssr:stedsnr" v="276905" />
	</node>
	<node lat="70.52635555760385" lon="22.85676105239717" id="-44832">
		<tag k="name" v="Komagfjord" />
		<tag k="place" v="locality" />
		<tag k="ssr:stedsnr" v="277707" />
	</node>
	<node lat="70.5657972221706" lon="23.695633231208483" id="-44845">
		<tag k="name" v="Gerdheim" />
		<tag k="place" v="farm" />
		<tag k="ssr:stedsnr" v="323208" />
	</node>
	<node lat="70.53625833891306" lon="23.370838804629955" id="-44851">
		<tag k="name" v="Hønsebyhamn" />
		<tag k="place" v="farm" />
		<tag k="ssr:stedsnr" v="323132" />
	</node>
	<node lat="70.75905277871618" lon="23.119508279100643" id="-44853">
		<tag k="name" v="Skarvfjordhamn" />
		<tag k="place" v="hamlet" />
		<tag k="ssr:stedsnr" v="323179" />
	</node>
	<node lat="70.59869878419278" lon="23.09363718107913" id="-44856">
		<tag k="name" v="Nordbø" />
		<tag k="place" v="farm" />
		<tag k="ssr:stedsnr" v="323403" />
	</node>
	<node lat="70.54753888985157" lon="23.728247117047236" id="-44880">
		<tag k="name" v="Skjåholmen" />
		<tag k="place" v="hamlet" />
		<tag k="ssr:stedsnr" v="332602" />
	</node>
	<node lat="70.64884444423208" lon="23.829377686795542" id="-44892">
		<tag k="fixme" v="consider tourism=alpine_hut or tourism=chalet" />
		<tag k="name" v="Glimmevannshytta" />
		<tag k="ssr:stedsnr" v="480536" />
		<tag k="tourism" v="wilderness_hut" />
	</node>
	<node lat="70.61018889481628" lon="23.39091936135311" id="-44916">
		<tag k="name" v="Lille Fagervika" />
		<tag k="place" v="farm" />
		<tag k="ssr:stedsnr" v="384416" />
	</node>
	<node lat="70.4989666685484" lon="24.070791540086272" id="-44923">
		<tag k="name" v="Leirbukt - Láiragohppi" />
		<tag k="name:no" v="Leirbukt" />
		<tag k="name:se" v="Láiragohppi" />
		<tag k="old_name:se" v="Lairagappi" />
		<tag k="place" v="farm" />
		<tag k="ssr:stedsnr" v="384810" />
	</node>
	<node lat="70.78027304279267" lon="23.38255073605967" id="-44944">
		<tag k="name" v="Finnelva" />
		<tag k="place" v="farm" />
		<tag k="ssr:stedsnr" v="484890" />
	</node>
	<node lat="70.66335833914252" lon="23.68206101530124" id="-44956">
		<tag k="name" v="Hammerfest" />
		<tag k="place" v="town" />
		<tag k="ssr:stedsnr" v="445004" />
	</node>
	<node lat="70.63534166767718" lon="23.679166587865343" id="-44960">
		<tag k="fixme" v="consider place=suburb, village or hamlet" />
		<tag k="name" v="Indrefjord" />
		<tag k="place" v="quarter" />
		<tag k="ssr:stedsnr" v="445030" />
	</node>
	<node lat="70.51475833385066" lon="23.216505478954264" id="-44962">
		<tag k="name" v="Østre Sandan" />
		<tag k="place" v="farm" />
		<tag k="ssr:stedsnr" v="445081" />
	</node>
	<node lat="70.6651250020108" lon="23.69815545721157" id="-44987">
		<tag k="name" v="Elvetun" />
		<tag k="place" v="suburb" />
		<tag k="ssr:stedsnr" v="456218" />
	</node>
	<node lat="70.5764194444586" lon="23.493511034580745" id="-44994">
		<tag k="name" v="Lille Survika" />
		<tag k="place" v="farm" />
		<tag k="ssr:stedsnr" v="464926" />
	</node>
	<node lat="70.70120000291149" lon="23.238544385886577" id="-44997">
		<tag k="name" v="Lundhavn" />
		<tag k="place" v="farm" />
		<tag k="ssr:stedsnr" v="485471" />
	</node>
	<node lat="70.55952777529619" lon="22.997527720353933" id="-44998">
		<tag k="name" v="Husfjordnes" />
		<tag k="place" v="farm" />
		<tag k="ssr:stedsnr" v="485964" />
	</node>
	<node lat="70.69096667394462" lon="23.989658232439325" id="-45000">
		<tag k="name" v="Storvik" />
		<tag k="place" v="isolated_dwelling" />
		<tag k="ssr:stedsnr" v="505005" />
	</node>
	<node lat="70.5391055616881" lon="23.392008263578518" id="-45005">
		<tag k="name" v="Skakkebakken" />
		<tag k="place" v="hamlet" />
		<tag k="ssr:stedsnr" v="505116" />
	</node>
	<node lat="70.52220833897987" lon="23.281666586135053" id="-45010">
		<tag k="name" v="Gammelvær" />
		<tag k="place" v="locality" />
		<tag k="ssr:stedsnr" v="505071" />
	</node>
	<node lat="70.49260555755484" lon="24.283130429004885" id="-45031">
		<tag k="name" v="Linnes" />
		<tag k="place" v="isolated_dwelling" />
		<tag k="ssr:stedsnr" v="514883" />
	</node>
	<node lat="70.41111111488951" lon="22.92989714606378" id="-45042">
		<tag k="name" v="Ulvetind" />
		<tag k="place" v="locality" />
		<tag k="ssr:stedsnr" v="519874" />
	</node>
	<node lat="70.53453373528409" lon="23.34405353162235" id="-45070">
		<tag k="name" v="Veggvika" />
		<tag k="place" v="farm" />
		<tag k="ssr:stedsnr" v="687113" />
	</node>
	<node lat="70.51901666573647" lon="23.97063044785391" id="-45080">
		<tag k="fixme" v="consider place=hamlet" />
		<tag k="name" v="Stallogargo - Stállogárggu" />
		<tag k="name:no" v="Stallogargo" />
		<tag k="name:se" v="Stállogárggu" />
		<tag k="old_name:no" v="Stállogárggu" />
		<tag k="place" v="village" />
		<tag k="ssr:stedsnr" v="687164" />
	</node>
	<node lat="70.742580553297" lon="23.148711047796787" id="-45092">
		<tag k="name" v="Hønseby" />
		<tag k="place" v="farm" />
		<tag k="ssr:stedsnr" v="687262" />
	</node>
	<node lat="70.73271111378729" lon="23.359266595881653" id="-45093">
		<tag k="name" v="Skippernes" />
		<tag k="place" v="farm" />
		<tag k="ssr:stedsnr" v="687272" />
	</node>
	<node lat="70.69429067386244" lon="22.890250037939342" id="-45100">
		<tag k="name" v="Olajordet" />
		<tag k="place" v="isolated_dwelling" />
		<tag k="ssr:stedsnr" v="687479" />
	</node>
	<node lat="70.43915277916457" lon="23.785769351842692" id="-45136">
		<tag k="fixme" v="consider place=hamlet" />
		<tag k="name" v="Neverfjord - Náivuotna" />
		<tag k="name:no" v="Neverfjord" />
		<tag k="name:se" v="Náivuotna" />
		<tag k="old_name:se" v="Naivuodna" />
		<tag k="place" v="village" />
		<tag k="ssr:stedsnr" v="688976" />
	</node>
	<node lat="70.78818333409033" lon="23.421899913285735" id="-45143">
		<tag k="name" v="Ytre Akkarfjord" />
		<tag k="old_name" v="Akkarfjord, yt" />
		<tag k="place" v="hamlet" />
		<tag k="ssr:stedsnr" v="565213" />
	</node>
	<node lat="70.56480000544538" lon="23.55821657753353" id="-45146">
		<tag k="name" v="Vika" />
		<tag k="place" v="isolated_dwelling" />
		<tag k="ssr:stedsnr" v="565176" />
	</node>
	<node lat="70.53279722158548" lon="23.409813817964853" id="-45150">
		<tag k="fixme" v="consider place=hamlet" />
		<tag k="name" v="Hønsebybotn" />
		<tag k="place" v="village" />
		<tag k="ssr:stedsnr" v="566123" />
	</node>
	<node lat="70.52191389138713" lon="23.74701935755107" id="-45154">
		<tag k="name" v="Kargenes - Jiernáhkki" />
		<tag k="name:no" v="Kargenes" />
		<tag k="name:se" v="Jiernáhkki" />
		<tag k="old_name:se" v="Jiernakki" />
		<tag k="place" v="isolated_dwelling" />
		<tag k="ssr:stedsnr" v="566213" />
	</node>
	<node lat="70.61220278360992" lon="23.649872128219485" id="-45204">
		<tag k="loc_name:se" v="Áhkkárvuotna" />
		<tag k="name" v="Akkarfjord" />
		<tag k="name:no" v="Akkarfjord" />
		<tag k="place" v="hamlet" />
		<tag k="ssr:stedsnr" v="698157" />
	</node>
	<node lat="70.60590000171976" lon="23.630658239191106" id="-45209">
		<tag k="name" v="Berg" />
		<tag k="place" v="farm" />
		<tag k="ssr:stedsnr" v="699322" />
	</node>
	<node lat="70.52200000540223" lon="22.93034994732448" id="-45210">
		<tag k="name" v="Vatnholmen" />
		<tag k="place" v="farm" />
		<tag k="ssr:stedsnr" v="606966" />
	</node>
	<node lat="70.54520278244863" lon="23.992097125936283" id="-45219">
		<tag k="name" v="Storbukt" />
		<tag k="place" v="hamlet" />
		<tag k="ssr:stedsnr" v="626206" />
	</node>
	<node lat="70.48497222757078" lon="24.187563771634913" id="-45239">
		<tag k="name" v="Kaggelv" />
		<tag k="place" v="farm" />
		<tag k="ssr:stedsnr" v="627851" />
	</node>
	<node lat="70.48923055479459" lon="24.2951109901891" id="-45240">
		<tag k="name" v="Rågeluft - Roggeluokta" />
		<tag k="name:no" v="Rågeluft" />
		<tag k="name:se" v="Roggeluokta" />
		<tag k="old_name:se" v="Råggeluokta" />
		<tag k="place" v="hamlet" />
		<tag k="ssr:stedsnr" v="627859" />
	</node>
	<node lat="70.66042500301089" lon="23.70711100859199" id="-45254">
		<tag k="name" v="Rairo" />
		<tag k="place" v="suburb" />
		<tag k="ssr:stedsnr" v="637227" />
	</node>
	<node lat="70.6338750059341" lon="24.69728874125082" id="-45290">
		<tag k="name" v="Birjastrand - Birjjágáddi" />
		<tag k="name:no" v="Birjastrand" />
		<tag k="name:se" v="Birjjágáddi" />
		<tag k="old_name:se" v="Birjagaddi" />
		<tag k="place" v="farm" />
		<tag k="ssr:stedsnr" v="688853" />
	</node>
	<node lat="70.50678611319711" lon="24.259088756720494" id="-45296">
		<tag k="name" v="Erdal" />
		<tag k="place" v="locality" />
		<tag k="ssr:stedsnr" v="696914" />
	</node>
	<node lat="70.43211111391922" lon="24.50467762193353" id="-45304">
		<tag k="name" v="Skaidiplassen" />
		<tag k="place" v="square" />
		<tag k="ssr:stedsnr" v="898230" />
	</node>
	<node lat="70.56487777848803" lon="22.96947770259649" id="-45315">
		<tag k="name" v="Elvedalen" />
		<tag k="place" v="isolated_dwelling" />
		<tag k="ssr:stedsnr" v="747369" />
	</node>
	<node lat="70.53954722536686" lon="23.53660825104394" id="-45331">
		<tag k="name" v="Eidvågeidet - Roavvi" />
		<tag k="name:no" v="Eidvågeidet" />
		<tag k="name:se" v="Roavvi" />
		<tag k="place" v="hamlet" />
		<tag k="ssr:stedsnr" v="748211" />
	</node>
	<node lat="70.54201111127739" lon="22.937141615314157" id="-45332">
		<tag k="name" v="Slåtten" />
		<tag k="place" v="farm" />
		<tag k="ssr:stedsnr" v="748118" />
	</node>
	<node lat="70.51020000611175" lon="23.778313793864456" id="-45335">
		<tag k="name" v="Stangnes" />
		<tag k="place" v="isolated_dwelling" />
		<tag k="ssr:stedsnr" v="748166" />
	</node>
	<node lat="70.75190555529169" lon="22.95229992470433" id="-45337">
		<tag k="name" v="Sandøy" />
		<tag k="place" v="isolated_dwelling" />
		<tag k="ssr:stedsnr" v="748179" />
	</node>
	<node lat="70.56643889593933" lon="24.14680266967612" id="-45344">
		<tag k="name" v="Indre Brennsvik" />
		<tag k="old_name" v="Brennsvik, in" />
		<tag k="place" v="farm" />
		<tag k="ssr:stedsnr" v="748811" />
	</node>
	<node lat="70.46974166965875" lon="23.618577678322563" id="-45350">
		<tag k="name" v="Russelv - Ruoššajohka" />
		<tag k="name:no" v="Russelv" />
		<tag k="name:se" v="Ruoššajohka" />
		<tag k="old_name:se" v="Ruoššajåkka" />
		<tag k="place" v="hamlet" />
		<tag k="ssr:stedsnr" v="748959" />
	</node>
	<node lat="70.57639722381329" lon="23.493991570144736" id="-45375">
		<tag k="name" v="Lille Survik" />
		<tag k="place" v="farm" />
		<tag k="ssr:stedsnr" v="788867" />
	</node>
	<node lat="70.5354500008872" lon="24.110977661656932" id="-45396">
		<tag k="alt_name:no" v="Klubbukt" />
		<tag k="fixme" v="consider place=hamlet" />
		<tag k="name" v="Klubbukta - Klubbu" />
		<tag k="name:no" v="Klubbukta" />
		<tag k="name:se" v="Klubbu" />
		<tag k="old_name:se" v="Klubbo" />
		<tag k="place" v="village" />
		<tag k="ssr:stedsnr" v="809797" />
	</node>
	<node lat="70.47313611413782" lon="23.79606656820351" id="-45399">
		<tag k="name" v="Fiskelv - Hávgajohka" />
		<tag k="name:no" v="Fiskelv" />
		<tag k="name:se" v="Hávgajohka" />
		<tag k="old_name:se" v="Havgajåkka" />
		<tag k="place" v="farm" />
		<tag k="ssr:stedsnr" v="809968" />
	</node>
	<node lat="70.56061111844178" lon="23.557327687885447" id="-45408">
		<tag k="name" v="Kvistnesfjord" />
		<tag k="place" v="farm" />
		<tag k="ssr:stedsnr" v="821424" />
	</node>
	<node lat="70.56168055401515" lon="22.887813830666595" id="-45410">
		<tag k="alt_name" v="Husfjord" />
		<tag k="fixme" v="consider place=hamlet" />
		<tag k="name" v="Husfjorden" />
		<tag k="place" v="village" />
		<tag k="ssr:stedsnr" v="821572" />
	</node>
	<node lat="70.62109444579256" lon="23.83124989854013" id="-45414">
		<tag k="fixme" v="consider tourism=alpine_hut or tourism=chalet" />
		<tag k="name" v="Monte Negrohytta" />
		<tag k="ssr:stedsnr" v="845591" />
		<tag k="tourism" v="wilderness_hut" />
	</node>
	<node lat="70.51486667066224" lon="23.206258252465993" id="-45428">
		<tag k="name" v="Vestre Sandan" />
		<tag k="place" v="farm" />
		<tag k="ssr:stedsnr" v="930077" />
	</node>
	<node lat="70.51125555562166" lon="23.84572212515902" id="-45442">
		<tag k="name" v="Hanselv" />
		<tag k="place" v="farm" />
		<tag k="ssr:stedsnr" v="930164" />
	</node>
	<node lat="70.55613333636248" lon="23.464824929045374" id="-45447">
		<tag k="name" v="Lillevoll" />
		<tag k="place" v="farm" />
		<tag k="ssr:stedsnr" v="930187" />
	</node>
	<node lat="70.7299361116846" lon="23.3180638013751" id="-45470">
		<tag k="alt_name" v="Sætra" />
		<tag k="name" v="Sæter" />
		<tag k="place" v="farm" />
		<tag k="ssr:stedsnr" v="870307" />
	</node>
	<node lat="70.38496111857495" lon="23.582661017779188" id="-45499">
		<tag k="fixme" v="consider place=hamlet" />
		<tag k="name" v="Saraby - Jiepmaluokta" />
		<tag k="name:no" v="Saraby" />
		<tag k="name:se" v="Jiepmaluokta" />
		<tag k="old_name:se" v="Jiebmaluokta" />
		<tag k="place" v="village" />
		<tag k="ssr:stedsnr" v="930790" />
	</node>
	<node lat="70.50474166513949" lon="24.056319336290173" id="-45502">
		<tag k="fixme" v="consider place=hamlet" />
		<tag k="name" v="Slettelv - Šleafttajohka" />
		<tag k="name:no" v="Slettelv" />
		<tag k="name:se" v="Šleafttajohka" />
		<tag k="old_name:se" v="Šlæftajåkka" />
		<tag k="place" v="village" />
		<tag k="ssr:stedsnr" v="930850" />
	</node>
	<node lat="70.47883122517884" lon="24.310157544688824" id="-45505">
		<tag k="loc_name:se" v="Stohkkebákti;Stohkkebávti" />
		<tag k="name" v="Stokkeberg" />
		<tag k="name:no" v="Stokkeberg" />
		<tag k="place" v="farm" />
		<tag k="ssr:stedsnr" v="930858" />
	</node>
	<node lat="70.49025062780493" lon="24.13849777562163" id="-45511">
		<tag k="name" v="Fiskevik" />
		<tag k="place" v="farm" />
		<tag k="ssr:stedsnr" v="930838" />
	</node>
	<node lat="70.4339444477273" lon="24.50100540403815" id="-45524">
		<tag k="name" v="Skaidi gjestehus" />
		<tag k="ssr:stedsnr" v="878658" />
		<tag k="tourism" v="guest_house" />
	</node>
	<node lat="70.55275555735984" lon="23.720038794310053" id="-45532">
		<tag k="name" v="Nordre Skjåholmen" />
		<tag k="place" v="farm" />
		<tag k="ssr:stedsnr" v="882714" />
	</node>
	<node lat="70.47668611347224" lon="23.615638802283403" id="-45534">
		<tag k="name" v="Nordmannsjord" />
		<tag k="place" v="farm" />
		<tag k="ssr:stedsnr" v="883202" />
	</node>
	<node lat="70.61140128900101" lon="24.640718593639967" id="-45573">
		<tag k="fixme" v="consider place=hamlet" />
		<tag k="loc_name:se" v="Goavkejohka" />
		<tag k="name" v="Kokelv" />
		<tag k="name:no" v="Kokelv" />
		<tag k="place" v="village" />
		<tag k="ssr:stedsnr" v="937917" />
	</node>
	<node lat="70.71164722120902" lon="23.300158255403606" id="-45583">
		<tag k="name" v="Hellefjord" />
		<tag k="place" v="farm" />
		<tag k="ssr:stedsnr" v="970034" />
	</node>
	<node lat="70.7161194496942" lon="23.29507214908241" id="-45584">
		<tag k="name" v="Hellefjorden" />
		<tag k="place" v="farm" />
		<tag k="ssr:stedsnr" v="970043" />
	</node>
	<node lat="70.5771655956579" lon="23.494404430270972" id="-45586">
		<tag k="name" v="Gaskagohppi" />
		<tag k="name:se" v="Gaskagohppi" />
		<tag k="place" v="locality" />
		<tag k="ssr:stedsnr" v="975923" />
	</node>
	<node lat="70.57639871180628" lon="23.49346378941177" id="-45587">
		<tag k="name" v="Gaskagohppi" />
		<tag k="name:se" v="Gaskagohppi" />
		<tag k="place" v="locality" />
		<tag k="ssr:stedsnr" v="975924" />
	</node>
	<node lat="70.57404261623388" lon="23.493157360657424" id="-45588">
		<tag k="name" v="Gáŋku" />
		<tag k="name:se" v="Gáŋku" />
		<tag k="place" v="locality" />
		<tag k="ssr:stedsnr" v="975925" />
	</node>
	<node lat="70.58579762026963" lon="23.578017509165342" id="-45589">
		<tag k="name" v="Stevvelhavna" />
		<tag k="name:se" v="Stevvelhavna" />
		<tag k="place" v="locality" />
		<tag k="ssr:stedsnr" v="975928" />
	</node>
	<node lat="70.5744420949166" lon="23.489961658439668" id="-45592">
		<tag k="name" v="Gáŋku" />
		<tag k="name:se" v="Gáŋku" />
		<tag k="place" v="locality" />
		<tag k="ssr:stedsnr" v="975943" />
	</node>
	<node lat="70.61621145988104" lon="23.550399636241345" id="-45593">
		<tag k="name" v="Sparegot" />
		<tag k="place" v="farm" />
		<tag k="ssr:stedsnr" v="975944" />
	</node>
	<node lat="70.55629034066905" lon="23.464014078292298" id="-45594">
		<tag k="name" v="Suoidnegohppi" />
		<tag k="name:se" v="Suoidnegohppi" />
		<tag k="place" v="locality" />
		<tag k="ssr:stedsnr" v="975948" />
	</node>
	<node lat="70.61012907250462" lon="23.39100930215812" id="-45596">
		<tag k="name" v="Unna-Fádderviikaš" />
		<tag k="name:se" v="Unna-Fádderviikaš" />
		<tag k="place" v="locality" />
		<tag k="ssr:stedsnr" v="975954" />
	</node>
	<node lat="70.61424288111324" lon="23.44543134319625" id="-45597">
		<tag k="name" v="Stuora Fádderviika" />
		<tag k="name:se" v="Stuora Fádderviika" />
		<tag k="place" v="locality" />
		<tag k="ssr:stedsnr" v="975956" />
	</node>
	<node lat="70.6119629664396" lon="23.459170994948828" id="-45598">
		<tag k="name" v="Stuora Fádderviika" />
		<tag k="name:se" v="Stuora Fádderviika" />
		<tag k="place" v="locality" />
		<tag k="ssr:stedsnr" v="975963" />
	</node>
	<node lat="70.66647499981917" lon="24.46661931732637" id="-45634">
		<tag k="name" v="Jåvik" />
		<tag k="place" v="isolated_dwelling" />
		<tag k="ssr:stedsnr" v="20151" />
	</node>
	<node lat="70.5557224441173" lon="23.533445803159648" id="-45646">
		<tag k="name" v="Kristinehamn" />
		<tag k="place" v="hamlet" />
		<tag k="ssr:stedsnr" v="20186" />
	</node>
	<node lat="70.72035277642145" lon="23.103258275936206" id="-45648">
		<tag k="name" v="Veststraumen" />
		<tag k="place" v="isolated_dwelling" />
		<tag k="ssr:stedsnr" v="20483" />
	</node>
	<node lat="70.4438536667179" lon="24.335065749483416" id="-45650">
		<tag k="name" v="Indrevoll" />
		<tag k="place" v="farm" />
		<tag k="ssr:stedsnr" v="20684" />
	</node>
	<node lat="70.4736329713794" lon="24.25647167883242" id="-45656">
		<tag k="name" v="Dalheim" />
		<tag k="place" v="farm" />
		<tag k="ssr:stedsnr" v="20851" />
	</node>
	<node lat="70.4474250026882" lon="24.381980420489768" id="-45662">
		<tag k="name" v="Valle" />
		<tag k="place" v="farm" />
		<tag k="ssr:stedsnr" v="20884" />
	</node>
	<node lat="70.66849444425537" lon="23.697361028244" id="-45688">
		<tag k="name" v="Molla" />
		<tag k="place" v="suburb" />
		<tag k="ssr:stedsnr" v="31226" />
	</node>
	<node lat="70.61720556459944" lon="24.70401373439159" id="-45692">
		<tag k="name" v="Solbakken" />
		<tag k="place" v="farm" />
		<tag k="ssr:stedsnr" v="32174" />
	</node>
	<node lat="70.51249166948998" lon="23.074674939987936" id="-45696">
		<tag k="name" v="Vestre Seines" />
		<tag k="place" v="isolated_dwelling" />
		<tag k="ssr:stedsnr" v="32930" />
	</node>
	<node lat="70.5259388888255" lon="23.15051103911369" id="-45697">
		<tag k="name" v="Rastabynes" />
		<tag k="place" v="isolated_dwelling" />
		<tag k="ssr:stedsnr" v="32931" />
	</node>
	<node lat="70.40728055357799" lon="22.943299927753806" id="-45699">
		<tag k="name" v="Perselv" />
		<tag k="place" v="locality" />
		<tag k="ssr:stedsnr" v="33874" />
	</node>
	<node lat="70.67950277655845" lon="23.00568327844293" id="-45706">
		<tag k="name" v="Gammelheim" />
		<tag k="place" v="farm" />
		<tag k="ssr:stedsnr" v="60481" />
	</node>
	<node lat="70.82184444877855" lon="23.319169361732996" id="-45719">
		<tag k="name" v="Gamvik" />
		<tag k="place" v="farm" />
		<tag k="ssr:stedsnr" v="80075" />
	</node>
	<node lat="70.69320555672235" lon="23.05019159517114" id="-45735">
		<tag k="name" v="Saramyra" />
		<tag k="place" v="locality" />
		<tag k="ssr:stedsnr" v="80480" />
	</node>
	<node lat="70.69081944939929" lon="23.055705484081905" id="-45736">
		<tag k="alt_name" v="Bottsfjord" />
		<tag k="fixme" v="consider place=hamlet" />
		<tag k="name" v="Båtsfjord" />
		<tag k="place" v="village" />
		<tag k="ssr:stedsnr" v="80481" />
	</node>
	<node lat="70.35221389415979" lon="24.356658209420676" id="-45742">
		<tag k="name" v="Knottheim" />
		<tag k="place" v="isolated_dwelling" />
		<tag k="ssr:stedsnr" v="80685" />
	</node>
	<node lat="70.26903611350089" lon="24.100858220726238" id="-45749">
		<tag k="name" v="Áisaroaivi" />
		<tag k="name:se" v="Áisaroaivi" />
		<tag k="old_name:se" v="Aisaroaivi" />
		<tag k="place" v="hamlet" />
		<tag k="ssr:stedsnr" v="80708" />
	</node>
	<node lat="70.57018055862156" lon="23.69869435175934" id="-45770">
		<tag k="name" v="Nilsjorda" />
		<tag k="place" v="locality" />
		<tag k="ssr:stedsnr" v="81215" />
	</node>
	<node lat="70.56677778364194" lon="24.14174710930431" id="-45818">
		<tag k="name" v="Brennsvik" />
		<tag k="place" v="hamlet" />
		<tag k="ssr:stedsnr" v="89987" />
	</node>
	<node lat="70.62703889354714" lon="23.39938325683217" id="-45832">
		<tag k="name" v="Grunnvåg" />
		<tag k="place" v="farm" />
		<tag k="ssr:stedsnr" v="93229" />
	</node>
	<node lat="70.57725555761294" lon="23.49440823695528" id="-45837">
		<tag k="name" v="Lille Survika" />
		<tag k="place" v="farm" />
		<tag k="ssr:stedsnr" v="99958" />
	</node>
	<node lat="70.40557222225983" lon="22.948911031466466" id="-45839">
		<tag k="name" v="Bårdfjorden" />
		<tag k="place" v="locality" />
		<tag k="ssr:stedsnr" v="101399" />
	</node>
	<node lat="70.51572777978906" lon="23.228736038120527" id="-45844">
		<tag k="name" v="Skreifjordeidet" />
		<tag k="place" v="farm" />
		<tag k="ssr:stedsnr" v="121992" />
	</node>
	<node lat="70.56489444321102" lon="22.981347150756644" id="-45845">
		<tag k="name" v="Søndre Husfjordlia" />
		<tag k="place" v="farm" />
		<tag k="ssr:stedsnr" v="121955" />
	</node>
	<node lat="70.59384444666826" lon="22.979055506179495" id="-45846">
		<tag k="name" v="Vestre Hamnefjorden" />
		<tag k="place" v="farm" />
		<tag k="ssr:stedsnr" v="121958" />
	</node>
	<node lat="70.46683593603747" lon="24.318870665762475" id="-45871">
		<tag k="name" v="Futbukt" />
		<tag k="old_name" v="Futbukta" />
		<tag k="place" v="farm" />
		<tag k="ssr:stedsnr" v="140853" />
	</node>
	<node lat="70.52476209215394" lon="23.15872235306726" id="-45890">
		<tag k="name" v="Rastaby" />
		<tag k="place" v="farm" />
		<tag k="ssr:stedsnr" v="141066" />
	</node>
	<node lat="70.51215278150275" lon="23.16988604194639" id="-45894">
		<tag k="name" v="Gåsenga - Dálvesadji" />
		<tag k="name:no" v="Gåsenga" />
		<tag k="name:se" v="Dálvesadji" />
		<tag k="old_name:se" v="Dalvesaddji" />
		<tag k="place" v="isolated_dwelling" />
		<tag k="ssr:stedsnr" v="141080" />
	</node>
	<node lat="70.60727500494423" lon="23.54415270157534" id="-45904">
		<tag k="name" v="Rásláttat" />
		<tag k="name:se" v="Rásláttat" />
		<tag k="old_name:se" v="Rasladdat" />
		<tag k="place" v="farm" />
		<tag k="ssr:stedsnr" v="141220" />
	</node>
	<node lat="70.6836563553012" lon="23.141558367583514" id="-45911">
		<tag k="name" v="Låtret" />
		<tag k="place" v="isolated_dwelling" />
		<tag k="ssr:stedsnr" v="141468" />
	</node>
	<node lat="70.69234722418001" lon="23.17438882449096" id="-45917">
		<tag k="fixme" v="consider place=hamlet" />
		<tag k="name" v="Langstrand" />
		<tag k="place" v="village" />
		<tag k="ssr:stedsnr" v="141493" />
	</node>
	<node lat="70.64138055845963" lon="24.563705402973593" id="-45924">
		<tag k="name" v="Turnes" />
		<tag k="place" v="locality" />
		<tag k="ssr:stedsnr" v="141750" />
	</node>
	<node lat="70.61545000495495" lon="24.604969301060912" id="-45929">
		<tag k="name" v="Masterelv - Sivlejohka" />
		<tag k="name:no" v="Masterelv" />
		<tag k="name:se" v="Sivlejohka" />
		<tag k="old_name:se" v="Sivlejåkka" />
		<tag k="place" v="farm" />
		<tag k="ssr:stedsnr" v="141729" />
	</node>
	<node lat="70.67898889385066" lon="23.639586023267846" id="-45956">
		<tag k="name" v="Meland" />
		<tag k="place" v="hamlet" />
		<tag k="ssr:stedsnr" v="152140" />
	</node>
	<node lat="70.60159166632174" lon="23.67348601239138" id="-45958">
		<tag k="name" v="Akkarfjord" />
		<tag k="place" v="farm" />
		<tag k="ssr:stedsnr" v="153322" />
	</node>
	<node lat="70.48345000334795" lon="23.826049890505274" id="-45966">
		<tag k="name" v="Gjevebukt" />
		<tag k="place" v="isolated_dwelling" />
		<tag k="ssr:stedsnr" v="154683" />
	</node>
	<node lat="70.86322777888194" lon="23.32261937929776" id="-45974">
		<tag k="name" v="Tarhalshytta" />
		<tag k="place" v="isolated_dwelling" />
		<tag k="ssr:stedsnr" v="180688" />
	</node>
	<node lat="70.7797250001812" lon="23.3835360459256" id="-46002">
		<tag k="name" v="Finnelva" />
		<tag k="place" v="hamlet" />
		<tag k="ssr:stedsnr" v="202162" />
	</node>
	<node lat="70.5303527763339" lon="22.911022155720932" id="-46017">
		<tag k="name" v="Øster-Vatnan" />
		<tag k="place" v="farm" />
		<tag k="ssr:stedsnr" v="202120" />
	</node>
	<node lat="70.52360278417295" lon="23.327761029839245" id="-46018">
		<tag k="loc_name:se" v="Doaresvuotna" />
		<tag k="name" v="Tverrfjorden" />
		<tag k="name:no" v="Tverrfjorden" />
		<tag k="place" v="hamlet" />
		<tag k="ssr:stedsnr" v="202123" />
	</node>
	<node lat="70.68729722621606" lon="22.91326659704623" id="-46038">
		<tag k="name" v="Koppardalsommarset" />
		<tag k="place" v="locality" />
		<tag k="ssr:stedsnr" v="202476" />
	</node>
	<node lat="70.44161389329024" lon="24.466244316805337" id="-46044">
		<tag k="name" v="Enebakk" />
		<tag k="place" v="farm" />
		<tag k="ssr:stedsnr" v="202676" />
	</node>
	<node lat="70.46077222885027" lon="24.26713321419836" id="-46053">
		<tag k="name" v="Dypelva" />
		<tag k="place" v="farm" />
		<tag k="ssr:stedsnr" v="202873" />
	</node>
	<node lat="70.44660833460273" lon="24.3191526375837" id="-46054">
		<tag k="name" v="Ariselva" />
		<tag k="place" v="farm" />
		<tag k="ssr:stedsnr" v="202880" />
	</node>
	<node lat="70.49620833902603" lon="23.981988775693722" id="-46060">
		<tag k="name" v="Aritsjorda" />
		<tag k="place" v="locality" />
		<tag k="ssr:stedsnr" v="202953" />
	</node>
	<node lat="70.43171111602271" lon="23.611908249047104" id="-46062">
		<tag k="name" v="Rastaby" />
		<tag k="place" v="hamlet" />
		<tag k="ssr:stedsnr" v="202983" />
	</node>
	<node lat="70.4708222267229" lon="23.791230445253266" id="-46072">
		<tag k="name" v="Gárgu" />
		<tag k="name:se" v="Gárgu" />
		<tag k="place" v="farm" />
		<tag k="ssr:stedsnr" v="211817" />
	</node>
	<node lat="70.5337833334914" lon="24.136277664417026" id="-46075">
		<tag k="loc_name:se" v="Dálvesajjohka" />
		<tag k="name" v="Vinterelv" />
		<tag k="name:no" v="Vinterelv" />
		<tag k="place" v="hamlet" />
		<tag k="ssr:stedsnr" v="211952" />
	</node>
	<node lat="70.63714999932569" lon="23.147591594241167" id="-46089">
		<tag k="name" v="Slettnes" />
		<tag k="place" v="farm" />
		<tag k="ssr:stedsnr" v="214269" />
	</node>
	<node lat="70.52925833672735" lon="23.149894386498076" id="-46092">
		<tag k="name" v="Jonsbukta" />
		<tag k="place" v="locality" />
		<tag k="ssr:stedsnr" v="214948" />
	</node>
	<node lat="70.70981389066017" lon="23.30259437891349" id="-46102">
		<tag k="fixme" v="consider place=hamlet" />
		<tag k="name" v="Ytre Hellefjord" />
		<tag k="place" v="village" />
		<tag k="ssr:stedsnr" v="275142" />
	</node>
	<node lat="70.53292222379119" lon="24.138897094837567" id="-46111">
		<tag k="name" v="Indre Klubbenes" />
		<tag k="place" v="hamlet" />
		<tag k="ssr:stedsnr" v="290853" />
	</node>
	<node lat="70.6083027790858" lon="23.095002722647926" id="-46117">
		<tag k="name" v="Hjelltinvik" />
		<tag k="place" v="farm" />
		<tag k="ssr:stedsnr" v="303959" />
	</node>
	<node lat="70.70470000714333" lon="23.936736008133476" id="-46131">
		<tag k="fixme" v="multiple name tags, choose one and add the other to alt_name" />
		<tag k="name" v="Risvåg;Indre Risvåg" />
		<tag k="place" v="isolated_dwelling" />
		<tag k="ssr:stedsnr" v="323060" />
	</node>
	<node lat="70.6140916700146" lon="23.44520548017308" id="-46149">
		<tag k="name" v="Store Fagervika" />
		<tag k="place" v="farm" />
		<tag k="ssr:stedsnr" v="323241" />
	</node>
	<node lat="70.37807499973928" lon="23.566172132528443" id="-46176">
		<tag k="name" v="Gárgu" />
		<tag k="name:se" v="Gárgu" />
		<tag k="old_name:se" v="Gargo" />
		<tag k="place" v="locality" />
		<tag k="ssr:stedsnr" v="323766" />
	</node>
	<node lat="70.62374500932164" lon="24.593510878962288" id="-46177">
		<tag k="alt_name:no" v="Storjorda" />
		<tag k="name" v="Storjord - Stuorragieddi" />
		<tag k="name:no" v="Storjord" />
		<tag k="name:se" v="Stuorragieddi" />
		<tag k="place" v="farm" />
		<tag k="ssr:stedsnr" v="323770" />
	</node>
	<node lat="70.52554722228969" lon="24.176063762775755" id="-46179">
		<tag k="loc_name:se" v="Leaibeluovta" />
		<tag k="name" v="Oldervik" />
		<tag k="name:no" v="Oldervik" />
		<tag k="place" v="hamlet" />
		<tag k="ssr:stedsnr" v="323782" />
	</node>
	<node lat="70.51113333613513" lon="24.025297111188436" id="-46205">
		<tag k="fixme" v="consider place=hamlet" />
		<tag k="name" v="Halsen" />
		<tag k="place" v="village" />
		<tag k="ssr:stedsnr" v="332565" />
	</node>
	<node lat="70.49239444558249" lon="24.10176100534401" id="-46210">
		<tag k="alt_name" v="Langøra" />
		<tag k="name" v="Langør" />
		<tag k="place" v="farm" />
		<tag k="ssr:stedsnr" v="332981" />
	</node>
	<node lat="70.66772222165416" lon="23.005438818342498" id="-46218">
		<tag k="name" v="Straumen" />
		<tag k="place" v="isolated_dwelling" />
		<tag k="ssr:stedsnr" v="335723" />
	</node>
	<node lat="70.51253055501813" lon="23.08228326193302" id="-46223">
		<tag k="name" v="Østre Seines" />
		<tag k="place" v="isolated_dwelling" />
		<tag k="ssr:stedsnr" v="336929" />
	</node>
	<node lat="70.49928611290179" lon="24.071961004706605" id="-46228">
		<tag k="name" v="Einarstrand" />
		<tag k="place" v="farm" />
		<tag k="ssr:stedsnr" v="351849" />
	</node>
	<node lat="70.69330833396047" lon="22.884658267028694" id="-46233">
		<tag k="name" v="Kopperdalen" />
		<tag k="place" v="farm" />
		<tag k="ssr:stedsnr" v="363464" />
	</node>
	<node lat="70.67659167164747" lon="22.94484715785253" id="-46234">
		<tag k="name" v="Solnes" />
		<tag k="place" v="farm" />
		<tag k="ssr:stedsnr" v="363465" />
	</node>
	<node lat="70.51738888665618" lon="23.224619375154706" id="-46235">
		<tag k="name" v="Skreifjordstrand" />
		<tag k="place" v="farm" />
		<tag k="ssr:stedsnr" v="363990" />
	</node>
	<node lat="70.68208889244099" lon="24.349080437821062" id="-46250">
		<tag k="name" v="Revsneshamn - Áhpenjárgohppi" />
		<tag k="name:no" v="Revsneshamn" />
		<tag k="name:se" v="Áhpenjárgohppi" />
		<tag k="old_name:se" v="Appenjargåppi" />
		<tag k="place" v="farm" />
		<tag k="ssr:stedsnr" v="383137" />
	</node>
	<node lat="70.7947416721797" lon="23.409111025163337" id="-46296">
		<tag k="fixme" v="consider place=suburb, village or hamlet" />
		<tag k="loc_name:se" v="Áhkkárvuotna" />
		<tag k="name" v="Akkarfjord" />
		<tag k="name:no" v="Akkarfjord" />
		<tag k="place" v="quarter" />
		<tag k="ssr:stedsnr" v="384094" />
	</node>
	<node lat="70.50876388932146" lon="23.87522488546721" id="-46298">
		<tag k="name" v="Alnes" />
		<tag k="place" v="farm" />
		<tag k="ssr:stedsnr" v="384181" />
	</node>
	<node lat="70.66745765497164" lon="22.944956753542844" id="-46308">
		<tag k="name" v="Storelv" />
		<tag k="place" v="farm" />
		<tag k="ssr:stedsnr" v="384457" />
	</node>
	<node lat="70.62347500260366" lon="24.67740818448619" id="-46314">
		<tag k="name" v="Selkopp - Sealguohppi" />
		<tag k="name:no" v="Selkopp" />
		<tag k="name:se" v="Sealguohppi" />
		<tag k="old_name:se" v="Sælguoppi" />
		<tag k="place" v="farm" />
		<tag k="ssr:stedsnr" v="384826" />
	</node>
	<node lat="70.51218889584169" lon="23.843394345813614" id="-46330">
		<tag k="name" v="Hanselv" />
		<tag k="place" v="hamlet" />
		<tag k="ssr:stedsnr" v="392660" />
	</node>
	<node lat="70.48225000097726" lon="23.823913798107288" id="-46339">
		<tag k="name" v="Jeveluft" />
		<tag k="place" v="locality" />
		<tag k="ssr:stedsnr" v="393798" />
	</node>
	<node lat="70.67304556836007" lon="23.013030615297218" id="-46349">
		<tag k="name" v="Store Sandvik" />
		<tag k="place" v="farm" />
		<tag k="ssr:stedsnr" v="396583" />
	</node>
	<node lat="70.3898638896299" lon="23.47901934739039" id="-46351">
		<tag k="name" v="Olderbukta" />
		<tag k="place" v="isolated_dwelling" />
		<tag k="ssr:stedsnr" v="397554" />
	</node>
	<node lat="70.78364445039281" lon="23.46300270804526" id="-46365">
		<tag k="name" v="Bismervik" />
		<tag k="place" v="farm" />
		<tag k="ssr:stedsnr" v="444199" />
	</node>
	<node lat="70.58304444502684" lon="23.071322157416496" id="-46368">
		<tag k="name" v="Oksevika" />
		<tag k="place" v="isolated_dwelling" />
		<tag k="ssr:stedsnr" v="444376" />
	</node>
	<node lat="70.47453024836817" lon="24.25475165966205" id="-46382">
		<tag k="name" v="Markopp - Márgohppi" />
		<tag k="name:no" v="Markopp" />
		<tag k="name:se" v="Márgohppi" />
		<tag k="old_name:no" v="Markop" />
		<tag k="place" v="hamlet" />
		<tag k="ssr:stedsnr" v="444845" />
	</node>
	<node lat="70.22330555883806" lon="23.966197112784016" id="-46383">
		<tag k="name" v="Gietkanášša" />
		<tag k="name:se" v="Gietkanášša" />
		<tag k="old_name:se" v="Gietkarnašša" />
		<tag k="place" v="locality" />
		<tag k="ssr:stedsnr" v="444850" />
	</node>
	<node lat="70.64125833706694" lon="23.67212492246482" id="-46392">
		<tag k="name" v="Rypefjord" />
		<tag k="place" v="village" />
		<tag k="ssr:stedsnr" v="445016" />
	</node>
	<node lat="70.59301944292166" lon="23.087749939507702" id="-46415">
		<tag k="loc_name:no" v="Urelva" />
		<tag k="name" v="Urdelv - Juovvajohka" />
		<tag k="name:no" v="Urdelv" />
		<tag k="name:se" v="Juovvajohka" />
		<tag k="old_name:se" v="Juovvajåkka" />
		<tag k="place" v="hamlet" />
		<tag k="ssr:stedsnr" v="445412" />
	</node>
	<node lat="70.48800556176828" lon="24.295980417021298" id="-46430">
		<tag k="name" v="Lian" />
		<tag k="place" v="hamlet" />
		<tag k="ssr:stedsnr" v="445846" />
	</node>
	<node lat="70.49883114188363" lon="23.896401630499664" id="-46433">
		<tag k="name" v="Beritsjorda" />
		<tag k="place" v="farm" />
		<tag k="ssr:stedsnr" v="445944" />
	</node>
	<node lat="70.42124635989083" lon="23.679174954056897" id="-46446">
		<tag k="name" v="Oldervik - Leaibeluokta" />
		<tag k="name:no" v="Oldervik" />
		<tag k="name:se" v="Leaibeluokta" />
		<tag k="old_name:se" v="Læibeluokta" />
		<tag k="place" v="farm" />
		<tag k="ssr:stedsnr" v="506000" />
	</node>
	<node lat="70.53347778163294" lon="23.383130483194854" id="-46468">
		<tag k="name" v="Sommarset" />
		<tag k="place" v="locality" />
		<tag k="ssr:stedsnr" v="505122" />
	</node>
	<node lat="70.5140111130382" lon="23.54648324267767" id="-46477">
		<tag k="name" v="Vassbukt" />
		<tag k="place" v="farm" />
		<tag k="ssr:stedsnr" v="505183" />
	</node>
	<node lat="70.5891277773801" lon="23.68248880085672" id="-46489">
		<tag k="name" v="Lyngslett" />
		<tag k="place" v="isolated_dwelling" />
		<tag k="ssr:stedsnr" v="505250" />
	</node>
	<node lat="70.57620833763475" lon="23.493811028808047" id="-46490">
		<tag k="alt_name" v="Survik, yt" />
		<tag k="loc_name" v="Store Survika" />
		<tag k="name" v="Ytre Survik" />
		<tag k="place" v="farm" />
		<tag k="ssr:stedsnr" v="505253" />
	</node>
	<node lat="70.63198888632843" lon="23.138883265230483" id="-46492">
		<tag k="name" v="Sørsida" />
		<tag k="place" v="farm" />
		<tag k="ssr:stedsnr" v="505429" />
	</node>
	<node lat="70.17594003650524" lon="23.88936820320158" id="-46511">
		<tag k="name" v="Levddon" />
		<tag k="name:se" v="Levddon" />
		<tag k="place" v="locality" />
		<tag k="ssr:stedsnr" v="505832" />
	</node>
	<node lat="70.5377222301309" lon="24.111427657847496" id="-46539">
		<tag k="name" v="Kildeberg" />
		<tag k="place" v="locality" />
		<tag k="ssr:stedsnr" v="514957" />
	</node>
	<node lat="70.4899941246411" lon="23.146967337927308" id="-46564">
		<tag k="name" v="Kalvebukta med Kargen" />
		<tag k="place" v="farm" />
		<tag k="ssr:stedsnr" v="545970" />
	</node>
	<node lat="70.70130000083499" lon="23.23988049560836" id="-46589">
		<tag k="name" v="Lunnhamn" />
		<tag k="place" v="locality" />
		<tag k="ssr:stedsnr" v="565469" />
	</node>
	<node lat="70.43253889031503" lon="24.501966517655717" id="-46602">
		<tag k="fixme" v="consider place=hamlet" />
		<tag k="name" v="Skaidi" />
		<tag k="old_name" v="Skáidi" />
		<tag k="place" v="village" />
		<tag k="ssr:stedsnr" v="565653" />
	</node>
	<node lat="70.43750576075544" lon="24.484995187528597" id="-46604">
		<tag k="name" v="Livheim" />
		<tag k="place" v="farm" />
		<tag k="ssr:stedsnr" v="565656" />
	</node>
	<node lat="70.45091666800435" lon="24.338908205545504" id="-46616">
		<tag k="name" v="Lyngmo" />
		<tag k="place" v="farm" />
		<tag k="ssr:stedsnr" v="565872" />
	</node>
	<node lat="70.64883333684071" lon="24.544913742996062" id="-46654">
		<tag k="name" v="Sommarjord - Geassegieddi" />
		<tag k="name:no" v="Sommarjord" />
		<tag k="name:se" v="Geassegieddi" />
		<tag k="old_name:se" v="Gæssegieddi" />
		<tag k="place" v="locality" />
		<tag k="ssr:stedsnr" v="566786" />
	</node>
	<node lat="70.46819444586053" lon="24.317988745777722" id="-46671">
		<tag k="alt_name:no" v="Futbukt" />
		<tag k="loc_name:se" v="Mohkki" />
		<tag k="name" v="Futbukta" />
		<tag k="name:no" v="Futbukta" />
		<tag k="place" v="hamlet" />
		<tag k="ssr:stedsnr" v="574951" />
	</node>
	<node lat="70.44628069288596" lon="24.32123157880051" id="-46672">
		<tag k="name" v="Elvesletta" />
		<tag k="place" v="farm" />
		<tag k="ssr:stedsnr" v="574952" />
	</node>
	<node lat="70.40044722326324" lon="23.62431935840113" id="-46687">
		<tag k="name" v="Porsa" />
		<tag k="place" v="hamlet" />
		<tag k="ssr:stedsnr" v="578167" />
	</node>
	<node lat="70.62347500260366" lon="24.67740818448619" id="-46694">
		<tag k="fixme" v="multiple name tags, choose one and add the other to alt_name" />
		<tag k="name" v="Sealguohppi;Selkopp" />
		<tag k="name:se" v="Sealguohppi;Selkopp" />
		<tag k="place" v="hamlet" />
		<tag k="ssr:stedsnr" v="585378" />
	</node>
	<node lat="70.52993333506024" lon="22.911941609204256" id="-46695">
		<tag k="loc_name:se" v="Vattan" />
		<tag k="name" v="Vatnan" />
		<tag k="name:no" v="Vatnan" />
		<tag k="place" v="hamlet" />
		<tag k="ssr:stedsnr" v="585898" />
	</node>
	<node lat="70.74789444767833" lon="23.329097137928358" id="-46701">
		<tag k="name" v="Skippernesfjorden" />
		<tag k="place" v="farm" />
		<tag k="ssr:stedsnr" v="606588" />
	</node>
	<node lat="70.76765676527627" lon="23.114891933999374" id="-46720">
		<tag k="name" v="Sæter" />
		<tag k="place" v="farm" />
		<tag k="ssr:stedsnr" v="626194" />
	</node>
	<node lat="70.66420277627529" lon="23.128899926907827" id="-46748">
		<tag k="name" v="Olajordet" />
		<tag k="place" v="locality" />
		<tag k="ssr:stedsnr" v="626490" />
	</node>
	<node lat="70.67533889283801" lon="23.00698605611061" id="-46749">
		<tag k="name" v="Oterurda" />
		<tag k="place" v="farm" />
		<tag k="ssr:stedsnr" v="626494" />
	</node>
	<node lat="70.4453333368387" lon="24.403138759917553" id="-46765">
		<tag k="name" v="Solbakken" />
		<tag k="place" v="farm" />
		<tag k="ssr:stedsnr" v="626883" />
	</node>
	<node lat="70.4537138903317" lon="24.280663748375062" id="-46795">
		<tag k="building" v="industrial" />
		<tag k="name" v="Folldal Verk" />
		<tag k="ssr:stedsnr" v="635918" />
	</node>
	<node lat="70.5123805591387" lon="23.28486659213618" id="-46807">
		<tag k="name" v="Gippelværnes" />
		<tag k="place" v="locality" />
		<tag k="ssr:stedsnr" v="638962" />
	</node>
	<node lat="70.52237500181838" lon="23.321755466556333" id="-46808">
		<tag k="name" v="Sinmyr" />
		<tag k="place" v="farm" />
		<tag k="ssr:stedsnr" v="638963" />
	</node>
	<node lat="70.61485560800703" lon="24.606214939983253" id="-46812">
		<tag k="fixme" v="multiple name tags, choose one and add the other to alt_name" />
		<tag k="name" v="Sivlejohka;Masterelv" />
		<tag k="name:se" v="Sivlejohka;Masterelv" />
		<tag k="place" v="hamlet" />
		<tag k="ssr:stedsnr" v="646356" />
	</node>
	<node lat="70.58431944952586" lon="23.860049891301998" id="-46815">
		<tag k="fixme" v="consider tourism=alpine_hut or tourism=chalet" />
		<tag k="name" v="Svartfjellhytta" />
		<tag k="ssr:stedsnr" v="662574" />
		<tag k="tourism" v="wilderness_hut" />
	</node>
	<node lat="70.64040278038769" lon="23.6693943651857" id="-46817">
		<tag k="building" v="industrial" />
		<tag k="industrial" v="factory" />
		<tag k="name" v="Tankanlegg" />
		<tag k="ssr:stedsnr" v="662800" />
	</node>
	<node lat="70.50438611406987" lon="22.703505487270547" id="-46819">
		<tag k="name" v="Ramnneset" />
		<tag k="place" v="farm" />
		<tag k="ssr:stedsnr" v="667966" />
	</node>
	<node lat="70.53395833122465" lon="22.890497155336543" id="-46825">
		<tag k="name" v="Vestre Vatnan" />
		<tag k="place" v="farm" />
		<tag k="ssr:stedsnr" v="728964" />
	</node>
	<node lat="70.47767222262107" lon="24.19563320241873" id="-46850">
		<tag k="name" v="Øvergård" />
		<tag k="place" v="farm" />
		<tag k="ssr:stedsnr" v="747846" />
	</node>
	<node lat="70.72190833730328" lon="23.806308235925037" id="-46860">
		<tag k="fixme" v="consider place=hamlet" />
		<tag k="name" v="Forsøl" />
		<tag k="place" v="village" />
		<tag k="ssr:stedsnr" v="748044" />
	</node>
	<node lat="70.50695624666527" lon="23.168236647911247" id="-46864">
		<tag k="name" v="Engdal" />
		<tag k="place" v="farm" />
		<tag k="ssr:stedsnr" v="748082" />
	</node>
	<node lat="70.50274444893888" lon="23.979974903444482" id="-46879">
		<tag k="name" v="Kvalsund - Ráhkkerávju" />
		<tag k="name:no" v="Kvalsund" />
		<tag k="name:se" v="Ráhkkerávju" />
		<tag k="old_name:se" v="Rakkeravjo" />
		<tag k="place" v="village" />
		<tag k="ssr:stedsnr" v="748162" />
	</node>
	<node lat="70.60034445079329" lon="23.62759157520207" id="-46880">
		<tag k="name" v="Strømsnes" />
		<tag k="place" v="hamlet" />
		<tag k="ssr:stedsnr" v="748229" />
	</node>
	<node lat="70.49983055964007" lon="23.98276656277667" id="-46904">
		<tag k="alt_name" v="Finnebyen" />
		<tag k="fixme" v="consider place=suburb, village or hamlet" />
		<tag k="name" v="Finnbyen" />
		<tag k="place" v="quarter" />
		<tag k="ssr:stedsnr" v="748950" />
	</node>
	<node lat="70.51708055832802" lon="23.960588774342238" id="-46920">
		<tag k="name" v="Ikarnes" />
		<tag k="place" v="hamlet" />
		<tag k="ssr:stedsnr" v="757540" />
	</node>
	<node lat="70.63425833440128" lon="23.683149920242027" id="-46927">
		<tag k="name" v="Breidablikk" />
		<tag k="place" v="suburb" />
		<tag k="ssr:stedsnr" v="759230" />
	</node>
	<node lat="70.612083612709" lon="23.45903316630493" id="-46934">
		<tag k="name" v="Store Fagervika" />
		<tag k="place" v="farm" />
		<tag k="ssr:stedsnr" v="760188" />
	</node>
	<node lat="70.71631388969399" lon="23.293786050729164" id="-46955">
		<tag k="name" v="Hellefjorden" />
		<tag k="place" v="farm" />
		<tag k="ssr:stedsnr" v="788523" />
	</node>
	<node lat="70.50468055879888" lon="24.260338768485017" id="-46982">
		<tag k="name" v="Indre Erdal - Earnjoaski" />
		<tag k="name:no" v="Indre Erdal" />
		<tag k="name:se" v="Earnjoaski" />
		<tag k="old_name:no" v="Erdal, in" />
		<tag k="old_name:se" v="Ærnjoaski" />
		<tag k="place" v="farm" />
		<tag k="ssr:stedsnr" v="808833" />
	</node>
	<node lat="70.7886444474107" lon="23.2966693733801" id="-46994">
		<tag k="name" v="Sommarset" />
		<tag k="place" v="locality" />
		<tag k="ssr:stedsnr" v="809158" />
	</node>
	<node lat="70.52407209069091" lon="22.78992636387538" id="-47010">
		<tag k="name" v="Strandvollen" />
		<tag k="place" v="locality" />
		<tag k="ssr:stedsnr" v="809331" />
	</node>
	<node lat="70.492655563254" lon="24.09834710183787" id="-47029">
		<tag k="fixme" v="consider place=hamlet" />
		<tag k="name" v="Gárgu" />
		<tag k="name:se" v="Gárgu" />
		<tag k="place" v="village" />
		<tag k="ssr:stedsnr" v="809836" />
	</node>
	<node lat="70.49810555743016" lon="23.974958226229166" id="-47035">
		<tag k="name" v="Storjorda" />
		<tag k="place" v="locality" />
		<tag k="ssr:stedsnr" v="809947" />
	</node>
	<node lat="70.43382222117305" lon="23.72213046046245" id="-47037">
		<tag k="name" v="Varmelva" />
		<tag k="place" v="locality" />
		<tag k="ssr:stedsnr" v="809976" />
	</node>
	<node lat="70.46299444709614" lon="23.78491100435645" id="-47062">
		<tag k="name" v="Klubben" />
		<tag k="place" v="farm" />
		<tag k="ssr:stedsnr" v="822555" />
	</node>
	<node lat="70.54274604300082" lon="23.993602335921437" id="-47067">
		<tag k="name" v="Johannesplass" />
		<tag k="place" v="farm" />
		<tag k="ssr:stedsnr" v="837202" />
	</node>
	<node lat="70.51134444348916" lon="24.0379304500694" id="-47068">
		<tag k="name" v="Indre Halsen" />
		<tag k="place" v="hamlet" />
		<tag k="ssr:stedsnr" v="837146" />
	</node>
	<node lat="70.49509722658993" lon="23.49946380549148" id="-47071">
		<tag k="fixme" v="consider tourism=alpine_hut or tourism=chalet" />
		<tag k="name" v="Tindstua" />
		<tag k="ssr:stedsnr" v="849554" />
		<tag k="tourism" v="wilderness_hut" />
	</node>
	<node lat="70.59560556188912" lon="23.024405491577653" id="-47072">
		<tag k="name" v="Østre Hamnefjord" />
		<tag k="place" v="farm" />
		<tag k="ssr:stedsnr" v="849961" />
	</node>
	<node lat="70.57647222843238" lon="22.883549935430317" id="-47073">
		<tag k="name" v="Husfjordbunnen" />
		<tag k="place" v="farm" />
		<tag k="ssr:stedsnr" v="849973" />
	</node>
	<node lat="70.53567778148916" lon="23.14012494436457" id="-47077">
		<tag k="name" v="Boie" />
		<tag k="place" v="locality" />
		<tag k="ssr:stedsnr" v="869116" />
	</node>
	<node lat="70.62010482573513" lon="23.649098607727154" id="-47087">
		<tag k="name" v="Saragammen" />
		<tag k="place" v="farm" />
		<tag k="ssr:stedsnr" v="869247" />
	</node>
	<node lat="70.60733611096266" lon="23.65296101038303" id="-47089">
		<tag k="name" v="Akkarfjord" />
		<tag k="place" v="farm" />
		<tag k="ssr:stedsnr" v="869257" />
	</node>
	<node lat="70.51051111394311" lon="24.02171656227964" id="-47110">
		<tag k="fixme" v="multiple name tags, choose one and add the other to alt_name; consider place=hamlet" />
		<tag k="name" v="Ytre Halsen;Halsen - Čeaváhaš" />
		<tag k="name:no" v="Ytre Halsen;Halsen" />
		<tag k="name:se" v="Čeaváhaš" />
		<tag k="old_name:se" v="Čævahaš" />
		<tag k="place" v="village" />
		<tag k="ssr:stedsnr" v="869815" />
	</node>
	<node lat="70.51727778544242" lon="24.21841375723043" id="-47117">
		<tag k="name" v="Ytre Erdal" />
		<tag k="old_name" v="Erdal, yt" />
		<tag k="place" v="farm" />
		<tag k="ssr:stedsnr" v="869862" />
	</node>
	<node lat="70.39981389395929" lon="23.623638805412707" id="-47121">
		<tag k="name" v="Porsa - Borsi" />
		<tag k="name:no" v="Porsa" />
		<tag k="name:se" v="Borsi" />
		<tag k="old_name:se" v="Bårsi" />
		<tag k="place" v="farm" />
		<tag k="ssr:stedsnr" v="869987" />
	</node>
	<node lat="70.53239166899985" lon="23.419305485941823" id="-47126">
		<tag k="name" v="Hønseby" />
		<tag k="place" v="farm" />
		<tag k="ssr:stedsnr" v="870242" />
	</node>
	<node lat="70.74275833615147" lon="23.3554749381682" id="-47128">
		<tag k="alt_name" v="Markusjord" />
		<tag k="name" v="Markusjorda" />
		<tag k="place" v="locality" />
		<tag k="ssr:stedsnr" v="870292" />
	</node>
	<node lat="70.6590770920813" lon="23.158442532022935" id="-47130">
		<tag k="name" v="Storbukta" />
		<tag k="place" v="locality" />
		<tag k="ssr:stedsnr" v="870458" />
	</node>
	<node lat="70.570125004407" lon="24.156580436043544" id="-47136">
		<tag k="name" v="Ytre Brennsvik" />
		<tag k="old_name" v="Brennsvik, yt" />
		<tag k="place" v="farm" />
		<tag k="ssr:stedsnr" v="870802" />
	</node>
	<node lat="70.49872222683709" lon="23.89786101493271" id="-47157">
		<tag k="name" v="Beretsjord" />
		<tag k="place" v="hamlet" />
		<tag k="ssr:stedsnr" v="878595" />
	</node>
	<node lat="70.4843027771411" lon="24.190260991775727" id="-47162">
		<tag k="name" v="Kakelv" />
		<tag k="place" v="hamlet" />
		<tag k="ssr:stedsnr" v="878994" />
	</node>
	<node lat="70.65915833647423" lon="23.716905477070785" id="-47170">
		<tag k="name" v="Bybo" />
		<tag k="place" v="suburb" />
		<tag k="ssr:stedsnr" v="881197" />
	</node>
	<node lat="70.5745472216561" lon="23.489988817353" id="-47175">
		<tag k="name" v="Surviknes" />
		<tag k="old_name" v="Indre Survik" />
		<tag k="place" v="farm" />
		<tag k="ssr:stedsnr" v="883127" />
	</node>
	<node lat="70.65945278362317" lon="23.18486381307084" id="-47176">
		<tag k="name" v="Odden" />
		<tag k="place" v="farm" />
		<tag k="ssr:stedsnr" v="937019" />
	</node>
	<node lat="70.43315278124395" lon="24.521024868241664" id="-47180">
		<tag k="name" v="Repparfjord turisthotell" />
		<tag k="ssr:stedsnr" v="939621" />
		<tag k="tourism" v="hotel" />
	</node>
	<node lat="70.65708889088596" lon="23.708097122341215" id="-47192">
		<tag k="name" v="Gratishaugen" />
		<tag k="place" v="suburb" />
		<tag k="ssr:stedsnr" v="941195" />
	</node>
	<node lat="70.67542222522759" lon="23.005911057574288" id="-47203">
		<tag k="name" v="Sandvik" />
		<tag k="place" v="locality" />
		<tag k="ssr:stedsnr" v="942556" />
	</node>
	<node lat="70.52489444790537" lon="22.810383286919897" id="-47215">
		<tag k="name" v="Straumen" />
		<tag k="place" v="isolated_dwelling" />
		<tag k="ssr:stedsnr" v="944722" />
	</node>
	<node lat="70.63136389406164" lon="23.138555475867925" id="-47216">
		<tag k="name" v="Slettnes" />
		<tag k="place" v="hamlet" />
		<tag k="ssr:stedsnr" v="952058" />
	</node>
	<node lat="70.5100555594773" lon="24.00747212420815" id="-47219">
		<tag k="name" v="Bjerkneseng" />
		<tag k="place" v="isolated_dwelling" />
		<tag k="ssr:stedsnr" v="958168" />
	</node>
	<node lat="70.68061145421173" lon="23.001467402932093" id="-47224">
		<tag k="name" v="Fiskenes" />
		<tag k="place" v="farm" />
		<tag k="ssr:stedsnr" v="970010" />
	</node>
	<node lat="70.57411944865142" lon="23.493027693307006" id="-47225">
		<tag k="name" v="Store Survika" />
		<tag k="place" v="farm" />
		<tag k="ssr:stedsnr" v="970572" />
	</node>
	<node lat="70.5713833371045" lon="23.487902696232197" id="-47226">
		<tag k="name" v="Store Survika" />
		<tag k="place" v="farm" />
		<tag k="ssr:stedsnr" v="970577" />
	</node>
	<node lat="70.56519166461729" lon="22.96846938824943" id="-47227">
		<tag k="name" v="Nordre Husfjordlia" />
		<tag k="place" v="farm" />
		<tag k="ssr:stedsnr" v="970687" />
	</node>
	<node lat="70.56614810193264" lon="23.6960021329565" id="-47229">
		<tag k="name" v="Grøtnes" />
		<tag k="place" v="farm" />
		<tag k="ssr:stedsnr" v="979535" />
	</node>
	<node lat="70.52894033586125" lon="23.40389382207116" id="-47231">
		<tag k="name" v="Sørelva" />
		<tag k="place" v="farm" />
		<tag k="ssr:stedsnr" v="980821" />
	</node>
	<node lat="70.52910104495678" lon="23.392502895705984" id="-47232">
		<tag k="name" v="Sørelven" />
		<tag k="place" v="farm" />
		<tag k="ssr:stedsnr" v="980822" />
	</node>
	<node lat="70.61145091717184" lon="24.62963311356175" id="-47233">
		<tag k="name" v="Vestre Kokelv - Goavkejohka" />
		<tag k="name:no" v="Vestre Kokelv" />
		<tag k="name:se" v="Goavkejohka" />
		<tag k="old_name:no" v="Kogelv vestre" />
		<tag k="place" v="farm" />
		<tag k="ssr:stedsnr" v="989676" />
	</node>
	<node lat="70.53662475213785" lon="22.931547913376697" id="-47299">
		<tag k="name" v="Slåttebukt" />
		<tag k="place" v="farm" />
		<tag k="ssr:stedsnr" v="1073803" />
	</node>
	<node lat="69.65483861708206" lon="18.954055597917613" id="-47308">
		<tag k="amenity" v="school" />
		<tag k="name" v="Ishavsbyen videregående skole" />
		<tag k="ssr:stedsnr" v="1075695" />
	</node>
	<node lat="70.52150725621256" lon="23.974289768484486" id="-47310">
		<tag k="name" v="M1684         Gullibu" />
		<tag k="place" v="farm" />
		<tag k="ssr:stedsnr" v="1078331" />
	</node>
	<node lat="70.44544225035604" lon="24.410324175108173" id="-47312">
		<tag k="name" v="Solmyr" />
		<tag k="place" v="farm" />
		<tag k="ssr:stedsnr" v="1079755" />
	</node>
	<node lat="70.44253041601601" lon="24.4710235829356" id="-47381">
		<tag k="name" v="Snippen" />
		<tag k="place" v="farm" />
		<tag k="ssr:stedsnr" v="1081483" />
	</node>
	<node lat="70.47298963703113" lon="24.321893310251077" id="-47385">
		<tag k="name" v="Futbukta" />
		<tag k="old_name" v="M0026         Futbugten" />
		<tag k="place" v="farm" />
		<tag k="ssr:stedsnr" v="1082812" />
	</node>
	<node lat="70.46520070736732" lon="24.326796574125865" id="-47386">
		<tag k="name" v="Søndre Futbukta" />
		<tag k="old_name" v="M0452         Futbukt søndre" />
		<tag k="place" v="farm" />
		<tag k="ssr:stedsnr" v="1082815" />
	</node>
	<node lat="70.52765359809433" lon="24.17740664813766" id="-47387">
		<tag k="name" v="Oldervik" />
		<tag k="old_name" v="M0016         Oldervik" />
		<tag k="place" v="farm" />
		<tag k="ssr:stedsnr" v="1082816" />
	</node>
	<node lat="70.52705162474535" lon="24.189609201649116" id="-47388">
		<tag k="name" v="Oldervik - Leaibeluovta" />
		<tag k="name:no" v="Oldervik" />
		<tag k="name:se" v="Leaibeluovta" />
		<tag k="old_name:no" v="M0017A        Oldervik" />
		<tag k="place" v="farm" />
		<tag k="ssr:stedsnr" v="1082817" />
	</node>
	<node lat="70.52429037198416" lon="24.19423527778818" id="-47389">
		<tag k="name" v="Oldervik" />
		<tag k="old_name" v="M0017B        Oldervik" />
		<tag k="place" v="farm" />
		<tag k="ssr:stedsnr" v="1082822" />
	</node>
	<node lat="70.53305030021838" lon="24.141449624730424" id="-47390">
		<tag k="name" v="Vinterelv - Dálvesajjohka" />
		<tag k="name:no" v="Vinterelv" />
		<tag k="name:se" v="Dálvesajjohka" />
		<tag k="old_name:no" v="M0881         Vinterelv" />
		<tag k="old_name:se" v="Dálvesaijohka" />
		<tag k="place" v="farm" />
		<tag k="ssr:stedsnr" v="1082823" />
	</node>
</osm>
