<?xml version="1.0" encoding="UTF-8"?>
<osm generator="osmapis" version="0.6">
	<node id="-833792" lat="70.5094194461" lon="23.9145998843">
		<tag k="name" v="Stalloen - Stállu" />
		<tag k="name:no" v="Stalloen" />
		<tag k="name:se" v="Stállu" />
		<tag k="natural" v="stone" />
		<tag k="ssr:stedsnr" v="566172" />
	</node>
	<node id="-831865" lat="70.7963277762" lon="23.4444193745">
		<tag k="name" v="Myrane" />
		<tag k="natural" v="wetland" />
		<tag k="ssr:stedsnr" v="202153" />
	</node>
	<node id="-832340" lat="70.2444138926" lon="24.2173054231">
		<tag k="name" v="Goahtemuorleakši" />
		<tag k="name:se" v="Goahtemuorleakši" />
		<tag k="natural" v="wetland" />
		<tag k="old_name:se" v="Goattemuorlækši" />
		<tag k="ssr:stedsnr" v="687992" />
	</node>
	<node id="-833654" lat="70.6247083371" lon="24.7550081831">
		<tag k="name" v="Bovnnahatjeakkit" />
		<tag k="name:se" v="Bovnnahatjeakkit" />
		<tag k="natural" v="wetland" />
		<tag k="old_name:se" v="Båvnahatjæggit" />
		<tag k="ssr:stedsnr" v="384828" />
	</node>
	<node id="-834293" lat="70.5818138942" lon="23.6928776742">
		<tag k="name" v="Madamskogen" />
		<tag k="place" v="locality" />
		<tag k="ssr:stedsnr" v="820242" />
	</node>
	<node id="-832702" lat="70.4469305543" lon="22.8708054887">
		<tag k="name" v="Storura" />
		<tag k="natural" v="scree" />
		<tag k="ssr:stedsnr" v="944828" />
	</node>
	<node id="-833776" lat="70.1523000026" lon="24.1158220871">
		<tag k="name" v="Bastinvuopmi" />
		<tag k="name:se" v="Bastinvuopmi" />
		<tag k="old_name:se" v="Bastinvuobmi" />
		<tag k="place" v="locality" />
		<tag k="ssr:stedsnr" v="565966" />
	</node>
	<node id="-834156" lat="70.7685000023" lon="23.2982749304">
		<tag k="name" v="Indre Bastafjord" />
		<tag k="place" v="locality" />
		<tag k="ssr:stedsnr" v="760344" />
	</node>
	<node id="-834410" lat="70.6515527853" lon="24.5311998544">
		<tag k="name" v="Ura" />
		<tag k="natural" v="scree" />
		<tag k="ssr:stedsnr" v="958750" />
	</node>
	<node id="-832361" lat="70.6039000072" lon="24.6416109594">
		<tag k="name" v="Stuorrajeaggi" />
		<tag k="name:se" v="Stuorrajeaggi" />
		<tag k="natural" v="wetland" />
		<tag k="old_name:se" v="Stuorrajæggi" />
		<tag k="ssr:stedsnr" v="688895" />
	</node>
	<node id="-832165" lat="70.7259500012" lon="23.0620777115">
		<tag k="name" v="Veststraumelva" />
		<tag k="place" v="locality" />
		<tag k="ssr:stedsnr" v="517195" />
	</node>
	<node id="-832866" lat="70.6613916717" lon="23.7225137939">
		<tag k="name" v="Nissenstykket" />
		<tag k="place" v="locality" />
		<tag k="ssr:stedsnr" v="31201" />
	</node>
	<node id="-833248" lat="70.5953611158" lon="24.7482165131">
		<tag k="name" v="Ruossavuovdi" />
		<tag k="name:se" v="Ruossavuovdi" />
		<tag k="place" v="locality" />
		<tag k="ssr:stedsnr" v="154247" />
	</node>
	<node id="-834141" lat="70.6017027771" lon="23.6571915708">
		<tag k="name" v="Stabban" />
		<tag k="natural" v="stone" />
		<tag k="ssr:stedsnr" v="759177" />
	</node>
	<node id="-834010" lat="70.703941673" lon="23.7879943428">
		<tag k="name" v="Perheimen" />
		<tag k="place" v="locality" />
		<tag k="ssr:stedsnr" v="637215" />
	</node>
	<node id="-834132" lat="70.5421055585" lon="24.1134637617">
		<tag k="name" v="Hestemyra" />
		<tag k="natural" v="wetland" />
		<tag k="ssr:stedsnr" v="757979" />
	</node>
	<node id="-832849" lat="70.6533805597" lon="23.7532971385">
		<tag k="name" v="Glimmevassmyra" />
		<tag k="natural" v="wetland" />
		<tag k="ssr:stedsnr" v="30156" />
	</node>
	<node id="-832848" lat="70.6523083392" lon="23.6744860198">
		<tag k="name" v="Jansvasskogen" />
		<tag k="place" v="locality" />
		<tag k="ssr:stedsnr" v="30154" />
	</node>
	<node id="-832334" lat="70.2026583367" lon="24.0783165499">
		<tag k="name" v="Suoidneleakši" />
		<tag k="name:se" v="Suoidneleakši" />
		<tag k="natural" v="wetland" />
		<tag k="old_name:se" v="Suoidnelækši;Suoidnelæksi" />
		<tag k="ssr:stedsnr" v="687935" />
	</node>
	<node id="-831970" lat="70.5359000079" lon="24.1697998835">
		<tag k="name" v="Stormyra" />
		<tag k="natural" v="wetland" />
		<tag k="ssr:stedsnr" v="453963" />
	</node>
	<node id="-831690" lat="70.8158861161" lon="23.3759166078">
		<tag k="name" v="Stormyra" />
		<tag k="natural" v="wetland" />
		<tag k="ssr:stedsnr" v="262078" />
	</node>
	<node id="-832695" lat="70.7953444452" lon="23.1998415956">
		<tag k="name" v="Skipsvik" />
		<tag k="place" v="locality" />
		<tag k="ssr:stedsnr" v="943729" />
	</node>
	<node id="-832200" lat="70.4489138969" lon="24.3529776425">
		<tag k="name" v="Forbygninga" />
		<tag k="place" v="locality" />
		<tag k="ssr:stedsnr" v="453924" />
	</node>
	<node id="-833219" lat="70.504205561" lon="24.0389304527">
		<tag k="name" v="Langmyra" />
		<tag k="natural" v="wetland" />
		<tag k="ssr:stedsnr" v="150994" />
	</node>
	<node id="-832192" lat="70.6082027782" lon="24.6746387324">
		<tag k="name" v="Miessejeaggi" />
		<tag k="name:se" v="Miessejeaggi" />
		<tag k="natural" v="wetland" />
		<tag k="old_name:se" v="Miessejæggi" />
		<tag k="ssr:stedsnr" v="445911" />
	</node>
	<node id="-832447" lat="70.4416833327" lon="24.3840637572">
		<tag k="name" v="Sandmelen" />
		<tag k="place" v="locality" />
		<tag k="ssr:stedsnr" v="878907" />
	</node>
	<node id="-833854" lat="70.4822083393" lon="24.3066165341">
		<tag k="name" v="Lillejorda" />
		<tag k="place" v="locality" />
		<tag k="ssr:stedsnr" v="574961" />
	</node>
	<node id="-833975" lat="70.2248166685" lon="24.0270665439">
		<tag k="name" v="Ribatjeakkit" />
		<tag k="name:se" v="Ribatjeakkit" />
		<tag k="natural" v="wetland" />
		<tag k="old_name:se" v="Ribatjæggit" />
		<tag k="ssr:stedsnr" v="626999" />
	</node>
	<node id="-833589" lat="70.4079250061" lon="23.7220860229">
		<tag k="landuse" v="quarry" />
		<tag k="name" v="Bakkesgruvene" />
		<tag k="ssr:stedsnr" v="383764" />
	</node>
	<node id="-832434" lat="70.6869972213" lon="23.6043749104">
		<tag k="alt_name" v="Storsteinen" />
		<tag k="name" v="Storstein" />
		<tag k="natural" v="stone" />
		<tag k="ssr:stedsnr" v="637112" />
	</node>
	<node id="-833841" lat="70.414950001" lon="23.5678804711">
		<tag k="name" v="Russurda" />
		<tag k="natural" v="scree" />
		<tag k="ssr:stedsnr" v="566982" />
	</node>
	<node id="-833197" lat="70.6147055615" lon="24.7398748604">
		<tag k="name" v="Stormyra" />
		<tag k="natural" v="wetland" />
		<tag k="ssr:stedsnr" v="141886" />
	</node>
	<node id="-832677" lat="70.6643916715" lon="23.7144165791">
		<tag k="name" v="Kallandskogen" />
		<tag k="place" v="locality" />
		<tag k="ssr:stedsnr" v="941191" />
	</node>
	<node id="-833051" lat="70.6030694465" lon="23.685805465">
		<tag k="name" v="Stormyra" />
		<tag k="natural" v="wetland" />
		<tag k="ssr:stedsnr" v="92134" />
	</node>
	<node id="-832156" lat="70.6898833371" lon="23.6045388071">
		<tag k="alt_name" v="Øvre Storsteinen" />
		<tag k="name" v="Øvre Storstein" />
		<tag k="natural" v="stone" />
		<tag k="ssr:stedsnr" v="516106" />
	</node>
	<node id="-834394" lat="70.5792527849" lon="24.6128637594">
		<tag k="name" v="Stuorajeaggi" />
		<tag k="name:se" v="Stuorajeaggi" />
		<tag k="natural" v="wetland" />
		<tag k="old_name:se" v="Stuorajæggi" />
		<tag k="ssr:stedsnr" v="870800" />
	</node>
	<node id="-832398" lat="70.6893916711" lon="23.5936054689">
		<tag k="name" v="Stormyra" />
		<tag k="natural" v="wetland" />
		<tag k="ssr:stedsnr" v="576103" />
	</node>
	<node id="-832651" lat="70.783777778" lon="23.1970416084">
		<tag k="name" v="Finnfjord" />
		<tag k="place" v="locality" />
		<tag k="ssr:stedsnr" v="821354" />
	</node>
	<node id="-831882" lat="70.4540194499" lon="23.0839721643">
		<tag k="name" v="Nordmannsjøkelen - Dáččavuonjiehkki" />
		<tag k="name:no" v="Nordmannsjøkelen" />
		<tag k="name:se" v="Dáččavuonjiehkki" />
		<tag k="natural" v="glacier" />
		<tag k="old_name:se" v="Dažžavuonjiekki" />
		<tag k="ssr:stedsnr" v="444052" />
	</node>
	<node id="-832648" lat="70.6895694467" lon="23.6060554664">
		<tag k="alt_name" v="Indrermyra" />
		<tag k="name" v="Innermyra" />
		<tag k="natural" v="wetland" />
		<tag k="ssr:stedsnr" v="819104" />
	</node>
	<node id="-831877" lat="70.7111305575" lon="23.8062082446">
		<tag k="name" v="Láidderohtu" />
		<tag k="name:se" v="Láidderohtu" />
		<tag k="place" v="locality" />
		<tag k="ssr:stedsnr" v="213216" />
	</node>
	<node id="-831745" lat="70.1671666676" lon="24.088977646">
		<tag k="name" v="Bastinleakši" />
		<tag k="name:se" v="Bastinleakši" />
		<tag k="natural" v="wetland" />
		<tag k="old_name:se" v="Bastinlækši" />
		<tag k="ssr:stedsnr" v="262965" />
	</node>
</osm>
