<?xml version="1.0" encoding="UTF-8"?>
<osm version="0.6" generator="osmapis">
	<node lat="70.46652500237272" lon="22.969574936533654" id="-41688">
		<tag k="fixme" v="consider natural=peak for the most distinct mountains in the district" />
		<tag k="name" v="Sjutalet" />
		<tag k="natural" v="hill" />
		<tag k="place" v="locality" />
		<tag k="ssr:stedsnr" v="19048" />
	</node>
	<node lat="70.37902222658043" lon="24.288058217068464" id="-41690">
		<tag k="fixme" v="consider natural=peak for the most distinct mountains in the district" />
		<tag k="name" v="Breidalsfjellet - Muvrarášša" />
		<tag k="name:no" v="Breidalsfjellet" />
		<tag k="name:se" v="Muvrarášša" />
		<tag k="natural" v="hill" />
		<tag k="old_name:se" v="Muvrarašša" />
		<tag k="place" v="locality" />
		<tag k="ssr:stedsnr" v="19594" />
	</node>
	<node lat="70.68576111578159" lon="23.786461021327728" id="-41692">
		<tag k="name" v="Kvalfjorddalen - Bollovággi" />
		<tag k="name:no" v="Kvalfjorddalen" />
		<tag k="name:se" v="Bollovággi" />
		<tag k="natural" v="valley" />
		<tag k="old_name:se" v="Bålluvaggi" />
		<tag k="place" v="locality" />
		<tag k="ssr:stedsnr" v="20003" />
	</node>
	<node lat="70.23433333313268" lon="24.235805434708546" id="-41698">
		<tag k="fixme" v="consider natural=peak for the most distinct mountains in the district" />
		<tag k="name" v="Njunnásbuolža" />
		<tag k="name:se" v="Njunnásbuolža" />
		<tag k="natural" v="hill" />
		<tag k="old_name:se" v="Njunnasbuolža" />
		<tag k="place" v="locality" />
		<tag k="ssr:stedsnr" v="19987" />
	</node>
	<node lat="70.20666944649487" lon="24.024441560030134" id="-41699">
		<tag k="fixme" v="consider natural=peak for the most distinct mountains in the district" />
		<tag k="name" v="Stohkkečomat" />
		<tag k="name:se" v="Stohkkečomat" />
		<tag k="natural" v="hill" />
		<tag k="old_name:se" v="Ståkkečåmat;Stohkkečopma" />
		<tag k="place" v="locality" />
		<tag k="ssr:stedsnr" v="19989" />
	</node>
	<node lat="70.64285277823434" lon="24.015319345561494" id="-41700">
		<tag k="name" v="Torskefjorddalen - Olggut Dorskavuonávži" />
		<tag k="name:no" v="Torskefjorddalen" />
		<tag k="name:se" v="Olggut Dorskavuonávži" />
		<tag k="natural" v="valley" />
		<tag k="old_name:se" v="Dårskavuonavži, ålgot" />
		<tag k="place" v="locality" />
		<tag k="ssr:stedsnr" v="20139" />
	</node>
	<node lat="70.52372777654061" lon="22.76492772644688" id="-41703">
		<tag k="fixme" v="consider natural=peak for the most distinct mountains in the district" />
		<tag k="name" v="Strandafjellet" />
		<tag k="natural" v="hill" />
		<tag k="place" v="locality" />
		<tag k="ssr:stedsnr" v="20313" />
	</node>
	<node lat="70.65530000431175" lon="23.071208266667742" id="-41708">
		<tag k="alt_name:no" v="Kuvikfjell" />
		<tag k="fixme" v="consider natural=peak for the most distinct mountains in the district" />
		<tag k="name" v="Kuvikfjellet - Gussarášša" />
		<tag k="name:no" v="Kuvikfjellet" />
		<tag k="name:se" v="Gussarášša" />
		<tag k="natural" v="hill" />
		<tag k="old_name:se" v="Gussarašša" />
		<tag k="place" v="locality" />
		<tag k="ssr:stedsnr" v="20437" />
	</node>
	<node lat="70.66249444517722" lon="22.99164716559552" id="-41709">
		<tag k="alt_name" v="Straumtind" />
		<tag k="name" v="Straumtinden" />
		<tag k="natural" v="hill" />
		<tag k="place" v="locality" />
		<tag k="ssr:stedsnr" v="20441" />
	</node>
	<node lat="70.40039166591067" lon="24.39886654013766" id="-41713">
		<tag k="fixme" v="consider natural=peak for the most distinct mountains in the district" />
		<tag k="name" v="Svartfjellet" />
		<tag k="natural" v="hill" />
		<tag k="place" v="locality" />
		<tag k="ssr:stedsnr" v="20545" />
	</node>
	<node lat="70.35132778014878" lon="23.968758225633863" id="-41717">
		<tag k="name" v="Láhku" />
		<tag k="name:se" v="Láhku" />
		<tag k="natural" v="plateau" />
		<tag k="old_name:se" v="Lakko" />
		<tag k="ssr:stedsnr" v="20800" />
	</node>
	<node lat="70.4978277847227" lon="24.304733195802985" id="-41719">
		<tag k="name" v="Bestefarberget - Ádjábákti" />
		<tag k="name:no" v="Bestefarberget" />
		<tag k="name:se" v="Ádjábákti" />
		<tag k="natural" v="hill" />
		<tag k="old_name:se" v="Addjabakti" />
		<tag k="place" v="locality" />
		<tag k="ssr:stedsnr" v="20842" />
	</node>
	<node lat="70.41076389318464" lon="23.458527695279777" id="-41721">
		<tag k="name" v="Olderdalen - Birranvággi" />
		<tag k="name:no" v="Olderdalen" />
		<tag k="name:se" v="Birranvággi" />
		<tag k="natural" v="valley" />
		<tag k="old_name:se" v="Birranvaggi" />
		<tag k="place" v="locality" />
		<tag k="ssr:stedsnr" v="20995" />
	</node>
	<node lat="70.41483055370561" lon="23.437272141289373" id="-41722">
		<tag k="fixme" v="consider natural=peak for the most distinct mountains in the district" />
		<tag k="name" v="Kastarfjellet - Kásttárvárri" />
		<tag k="name:no" v="Kastarfjellet" />
		<tag k="name:se" v="Kásttárvárri" />
		<tag k="natural" v="hill" />
		<tag k="old_name:se" v="Kastarvarri" />
		<tag k="place" v="locality" />
		<tag k="ssr:stedsnr" v="20999" />
	</node>
	<node lat="70.46590545137606" lon="24.099201925177244" id="-41723">
		<tag k="fixme" v="consider natural=peak for the most distinct mountains in the district" />
		<tag k="name" v="Steinfjellet - Nussir" />
		<tag k="name:no" v="Steinfjellet" />
		<tag k="name:se" v="Nussir" />
		<tag k="natural" v="hill" />
		<tag k="place" v="locality" />
		<tag k="ssr:stedsnr" v="21848" />
	</node>
	<node lat="70.60022778015771" lon="23.88457768262859" id="-41724">
		<tag k="name" v="Torskefjordhøyden" />
		<tag k="natural" v="hill" />
		<tag k="place" v="locality" />
		<tag k="ssr:stedsnr" v="24886" />
	</node>
	<node lat="70.66893611184715" lon="23.710561016075822" id="-41727">
		<tag k="fixme" v="consider natural=peak for the most distinct mountains in the district" />
		<tag k="loc_name:se" v="Mollavárri" />
		<tag k="name" v="Mollafjellet" />
		<tag k="name:no" v="Mollafjellet" />
		<tag k="natural" v="hill" />
		<tag k="place" v="locality" />
		<tag k="ssr:stedsnr" v="28804" />
	</node>
	<node lat="70.54868888910106" lon="24.112163780599218" id="-41728">
		<tag k="name" v="Čearru" />
		<tag k="name:se" v="Čearru" />
		<tag k="place" v="locality" />
		<tag k="ssr:stedsnr" v="29966" />
	</node>
	<node lat="70.54837222287755" lon="24.130383203315663" id="-41729">
		<tag k="fixme" v="consider natural=peak for the most distinct mountains in the district" />
		<tag k="name" v="Sámmolčohkka" />
		<tag k="name:se" v="Sámmolčohkka" />
		<tag k="natural" v="hill" />
		<tag k="place" v="locality" />
		<tag k="ssr:stedsnr" v="29969" />
	</node>
	<node lat="70.68876944289887" lon="23.58858325351882" id="-41732">
		<tag k="name" v="Fyrberget" />
		<tag k="natural" v="hill" />
		<tag k="place" v="locality" />
		<tag k="ssr:stedsnr" v="30111" />
	</node>
	<node lat="70.61273889165085" lon="23.699086028125937" id="-41753">
		<tag k="fixme" v="consider natural=peak for the most distinct mountains in the district" />
		<tag k="name" v="Rávdnjevárri" />
		<tag k="name:se" v="Rávdnjevárri" />
		<tag k="natural" v="hill" />
		<tag k="old_name:se" v="Ravdnjevarri" />
		<tag k="place" v="locality" />
		<tag k="ssr:stedsnr" v="80239" />
	</node>
	<node lat="70.57323611690948" lon="22.954463823284733" id="-41755">
		<tag k="fixme" v="consider natural=peak for the most distinct mountains in the district" />
		<tag k="name" v="Risen" />
		<tag k="natural" v="hill" />
		<tag k="place" v="locality" />
		<tag k="ssr:stedsnr" v="80396" />
	</node>
	<node lat="70.69529444909146" lon="22.879741616472252" id="-41757">
		<tag k="name" v="Storlia" />
		<tag k="natural" v="slope" />
		<tag k="place" v="locality" />
		<tag k="ssr:stedsnr" v="80488" />
	</node>
	<node lat="70.73626667032582" lon="23.7756693478245" id="-41764">
		<tag k="fixme" v="consider natural=peak for the most distinct mountains in the district" />
		<tag k="name" v="Forsøllitoppen - Muvravárri" />
		<tag k="name:no" v="Forsøllitoppen" />
		<tag k="name:se" v="Muvravárri" />
		<tag k="natural" v="hill" />
		<tag k="old_name:se" v="Muvravarri" />
		<tag k="place" v="locality" />
		<tag k="ssr:stedsnr" v="81102" />
	</node>
	<node lat="70.74036389092909" lon="23.269574916379494" id="-41773">
		<tag k="fixme" v="consider natural=peak for the most distinct mountains in the district" />
		<tag k="name" v="Brennfjellet" />
		<tag k="natural" v="hill" />
		<tag k="place" v="locality" />
		<tag k="ssr:stedsnr" v="81294" />
	</node>
	<node lat="70.74588055833448" lon="22.82555550975607" id="-41774">
		<tag k="name" v="Fugleberget" />
		<tag k="natural" v="hill" />
		<tag k="place" v="locality" />
		<tag k="ssr:stedsnr" v="81296" />
	</node>
	<node lat="70.5607611159522" lon="24.522133186506977" id="-41778">
		<tag k="fixme" v="consider natural=peak for the most distinct mountains in the district" />
		<tag k="name" v="Látnjavárri" />
		<tag k="name:se" v="Látnjavárri" />
		<tag k="natural" v="hill" />
		<tag k="old_name:se" v="Ladnjavarri" />
		<tag k="place" v="locality" />
		<tag k="ssr:stedsnr" v="81804" />
	</node>
	<node lat="70.5839388884497" lon="24.270613768495966" id="-41781">
		<tag k="name" v="Kvalvikdalen - Fálesvággi" />
		<tag k="name:no" v="Kvalvikdalen" />
		<tag k="name:se" v="Fálesvággi" />
		<tag k="natural" v="valley" />
		<tag k="old_name:se" v="Falesvaggi" />
		<tag k="place" v="locality" />
		<tag k="ssr:stedsnr" v="81821" />
	</node>
	<node lat="70.48773611706712" lon="24.048919322908585" id="-41782">
		<tag k="fixme" v="consider natural=peak for the most distinct mountains in the district" />
		<tag k="name" v="Barfjellet" />
		<tag k="natural" v="hill" />
		<tag k="place" v="locality" />
		<tag k="ssr:stedsnr" v="81840" />
	</node>
	<node lat="70.61203611472267" lon="24.916844279661102" id="-41783">
		<tag k="fixme" v="consider natural=peak for the most distinct mountains in the district" />
		<tag k="name" v="Gárdevárnjunni" />
		<tag k="name:se" v="Gárdevárnjunni" />
		<tag k="natural" v="hill" />
		<tag k="old_name:se" v="Gardevarnjunni" />
		<tag k="place" v="locality" />
		<tag k="ssr:stedsnr" v="81918" />
	</node>
	<node lat="70.56319029274806" lon="23.694275000662632" id="-41788">
		<tag k="name" v="Fløystad" />
		<tag k="place" v="locality" />
		<tag k="ssr:stedsnr" v="89614" />
	</node>
	<node lat="70.53766667210165" lon="24.123580436814873" id="-41790">
		<tag k="name" v="Adamshaugen" />
		<tag k="natural" v="hill" />
		<tag k="place" v="locality" />
		<tag k="ssr:stedsnr" v="89972" />
	</node>
	<node lat="70.4810444450818" lon="23.936388779198513" id="-41791">
		<tag k="name" v="Rásseriidi" />
		<tag k="name:se" v="Rásseriidi" />
		<tag k="natural" v="hill" />
		<tag k="place" v="locality" />
		<tag k="ssr:stedsnr" v="89979" />
	</node>
	<node lat="70.68205278417396" lon="23.63423325039641" id="-41792">
		<tag k="name" v="Melandskjerringa" />
		<tag k="natural" v="cliff" />
		<tag k="ssr:stedsnr" v="91125" />
	</node>
	<node lat="70.63773889068572" lon="23.728052674067865" id="-41793">
		<tag k="fixme" v="consider natural=peak for the most distinct mountains in the district" />
		<tag k="name" v="Tverrfjellet" />
		<tag k="natural" v="hill" />
		<tag k="place" v="locality" />
		<tag k="ssr:stedsnr" v="91169" />
	</node>
	<node lat="70.65421666738857" lon="23.6597971252599" id="-41794">
		<tag k="name" v="Klinkastupet" />
		<tag k="natural" v="cliff" />
		<tag k="ssr:stedsnr" v="92177" />
	</node>
	<node lat="70.73106944722072" lon="23.75486658665162" id="-41795">
		<tag k="fixme" v="consider natural=peak for the most distinct mountains in the district" />
		<tag k="name" v="Storfjelltoppen" />
		<tag k="natural" v="hill" />
		<tag k="place" v="locality" />
		<tag k="ssr:stedsnr" v="92204" />
	</node>
	<node lat="70.76408888703199" lon="22.764241607256757" id="-41805">
		<tag k="name" v="Kjerringa" />
		<tag k="natural" v="hill" />
		<tag k="place" v="locality" />
		<tag k="ssr:stedsnr" v="140100" />
	</node>
	<node lat="70.7435055601931" lon="23.765749896196173" id="-41816">
		<tag k="fixme" v="consider natural=peak for the most distinct mountains in the district" />
		<tag k="name" v="Migan" />
		<tag k="natural" v="hill" />
		<tag k="place" v="locality" />
		<tag k="ssr:stedsnr" v="141098" />
	</node>
	<node lat="70.56003055950316" lon="23.410936021786718" id="-41826">
		<tag k="name" v="Storklubben" />
		<tag k="natural" v="hill" />
		<tag k="place" v="locality" />
		<tag k="ssr:stedsnr" v="141394" />
	</node>
	<node lat="70.6191888941117" lon="23.027899935813323" id="-41830">
		<tag k="alt_name" v="Flatfjell" />
		<tag k="fixme" v="consider natural=peak for the most distinct mountains in the district" />
		<tag k="name" v="Flatfjellet" />
		<tag k="natural" v="hill" />
		<tag k="place" v="locality" />
		<tag k="ssr:stedsnr" v="141432" />
	</node>
	<node lat="70.61753889438444" lon="22.98078326353736" id="-41831">
		<tag k="fixme" v="consider natural=peak for the most distinct mountains in the district" />
		<tag k="name" v="Hamnefjordfjellet" />
		<tag k="natural" v="hill" />
		<tag k="place" v="locality" />
		<tag k="ssr:stedsnr" v="141433" />
	</node>
	<node lat="70.58563889599107" lon="24.449863764767628" id="-41834">
		<tag k="fixme" v="consider natural=peak for the most distinct mountains in the district" />
		<tag k="name" v="Doggoaivi" />
		<tag k="name:se" v="Doggoaivi" />
		<tag k="natural" v="hill" />
		<tag k="old_name:se" v="Dåggoaivi" />
		<tag k="place" v="locality" />
		<tag k="ssr:stedsnr" v="141791" />
	</node>
	<node lat="70.59756945035151" lon="24.321791540149647" id="-41835">
		<tag k="fixme" v="consider natural=peak for the most distinct mountains in the district" />
		<tag k="name" v="Rievdnjačeabet" />
		<tag k="name:se" v="Rievdnjačeabet" />
		<tag k="natural" v="hill" />
		<tag k="old_name:se" v="Rievdnjačæbet" />
		<tag k="place" v="locality" />
		<tag k="ssr:stedsnr" v="141799" />
	</node>
	<node lat="70.41529166787784" lon="23.501969349108627" id="-41841">
		<tag k="fixme" v="consider natural=peak for the most distinct mountains in the district" />
		<tag k="name" v="Gressnesfjellet - Rássenjárvárri" />
		<tag k="name:no" v="Gressnesfjellet" />
		<tag k="name:se" v="Rássenjárvárri" />
		<tag k="natural" v="hill" />
		<tag k="old_name:se" v="Rassenjarvarri" />
		<tag k="place" v="locality" />
		<tag k="ssr:stedsnr" v="141984" />
	</node>
	<node lat="70.6466277831813" lon="23.69638046407856" id="-41843">
		<tag k="name" v="Tyvsletta" />
		<tag k="place" v="locality" />
		<tag k="ssr:stedsnr" v="145435" />
	</node>
	<node lat="70.64663333448866" lon="23.72251101205462" id="-41844">
		<tag k="name" v="Tyvskaret" />
		<tag k="natural" v="valley" />
		<tag k="place" v="locality" />
		<tag k="ssr:stedsnr" v="145436" />
	</node>
	<node lat="70.25408888759961" lon="23.749286018993878" id="-41845">
		<tag k="fixme" v="consider natural=peak for the most distinct mountains in the district" />
		<tag k="name" v="Dauingstind - Jámeščohkka" />
		<tag k="name:no" v="Dauingstind" />
		<tag k="name:se" v="Jámeščohkka" />
		<tag k="natural" v="hill" />
		<tag k="old_name:se" v="Jameščåkka" />
		<tag k="place" v="locality" />
		<tag k="ssr:stedsnr" v="145811" />
	</node>
	<node lat="70.41343611189374" lon="24.513552622511064" id="-41847">
		<tag k="name" v="Skaidilia" />
		<tag k="natural" v="slope" />
		<tag k="place" v="locality" />
		<tag k="ssr:stedsnr" v="150602" />
	</node>
	<node lat="70.39944722267666" lon="23.62865546928121" id="-41848">
		<tag k="name" v="Todalen" />
		<tag k="natural" v="valley" />
		<tag k="place" v="locality" />
		<tag k="ssr:stedsnr" v="150908" />
	</node>
	<node lat="70.54046944561794" lon="24.131297107761437" id="-41850">
		<tag k="name" v="Kokkeberget" />
		<tag k="natural" v="hill" />
		<tag k="place" v="locality" />
		<tag k="ssr:stedsnr" v="150957" />
	</node>
	<node lat="70.49680000283348" lon="24.275305430452107" id="-41853">
		<tag k="name" v="Vággi" />
		<tag k="name:se" v="Vággi" />
		<tag k="natural" v="valley" />
		<tag k="place" v="locality" />
		<tag k="ssr:stedsnr" v="150872" />
	</node>
	<node lat="70.62462778133424" lon="23.682027698825316" id="-41857">
		<tag k="alt_name" v="Saragammfjellet" />
		<tag k="fixme" v="consider natural=peak for the most distinct mountains in the district" />
		<tag k="name" v="Saragamfjellet" />
		<tag k="natural" v="hill" />
		<tag k="place" v="locality" />
		<tag k="ssr:stedsnr" v="152255" />
	</node>
	<node lat="70.62355555756395" lon="23.722430456478165" id="-41858">
		<tag k="name" v="Tverrfjellbruna" />
		<tag k="place" v="locality" />
		<tag k="ssr:stedsnr" v="152257" />
	</node>
	<node lat="70.62252222731519" lon="23.712288799177355" id="-41859">
		<tag k="name" v="Fjordholla" />
		<tag k="natural" v="valley" />
		<tag k="place" v="locality" />
		<tag k="ssr:stedsnr" v="152259" />
	</node>
	<node lat="70.62025277727747" lon="23.708524911397237" id="-41860">
		<tag k="name" v="Trangskaret" />
		<tag k="natural" v="valley" />
		<tag k="place" v="locality" />
		<tag k="ssr:stedsnr" v="152260" />
	</node>
	<node lat="70.39995277742533" lon="23.67140267451672" id="-41861">
		<tag k="name" v="Grønnlia" />
		<tag k="natural" v="slope" />
		<tag k="place" v="locality" />
		<tag k="ssr:stedsnr" v="153173" />
	</node>
	<node lat="70.54070000097764" lon="22.88160270872916" id="-41865">
		<tag k="fixme" v="consider natural=peak for the most distinct mountains in the district" />
		<tag k="name" v="Komagaksla" />
		<tag k="natural" v="hill" />
		<tag k="place" v="locality" />
		<tag k="ssr:stedsnr" v="262099" />
	</node>
	<node lat="70.47528333831382" lon="23.160488807947768" id="-41869">
		<tag k="fixme" v="consider natural=peak for the most distinct mountains in the district" />
		<tag k="name" v="Flasketind - Bohtal" />
		<tag k="name:no" v="Flasketind" />
		<tag k="name:se" v="Bohtal" />
		<tag k="natural" v="hill" />
		<tag k="old_name:se" v="Båttal" />
		<tag k="place" v="locality" />
		<tag k="ssr:stedsnr" v="262063" />
	</node>
	<node lat="70.8032333342856" lon="23.384574928144815" id="-41873">
		<tag k="fixme" v="consider natural=peak for the most distinct mountains in the district" />
		<tag k="name" v="To-seksognittifjellet" />
		<tag k="natural" v="hill" />
		<tag k="place" v="locality" />
		<tag k="ssr:stedsnr" v="262074" />
	</node>
	<node lat="70.57608611973657" lon="24.89420817288946" id="-41877">
		<tag k="fixme" v="consider natural=peak for the most distinct mountains in the district" />
		<tag k="name" v="Oarječohkka" />
		<tag k="name:se" v="Oarječohkka" />
		<tag k="natural" v="hill" />
		<tag k="old_name:se" v="Oarječåkka" />
		<tag k="place" v="locality" />
		<tag k="ssr:stedsnr" v="263899" />
	</node>
	<node lat="70.57499444603722" lon="24.83046928804022" id="-41878">
		<tag k="name" v="Russelvdalen - Ruoššavággi" />
		<tag k="name:no" v="Russelvdalen" />
		<tag k="name:se" v="Ruoššavággi" />
		<tag k="natural" v="valley" />
		<tag k="old_name:se" v="Ruoššavaggi" />
		<tag k="place" v="locality" />
		<tag k="ssr:stedsnr" v="263901" />
	</node>
	<node lat="70.51073055682102" lon="24.631894281774468" id="-41880">
		<tag k="fixme" v="consider natural=peak for the most distinct mountains in the district" />
		<tag k="name" v="Bielločohkka" />
		<tag k="name:se" v="Bielločohkka" />
		<tag k="natural" v="hill" />
		<tag k="old_name:se" v="Biellučåkka" />
		<tag k="place" v="locality" />
		<tag k="ssr:stedsnr" v="263923" />
	</node>
	<node lat="70.60683889184558" lon="23.52342212628831" id="-41882">
		<tag k="fixme" v="consider natural=peak for the most distinct mountains in the district" />
		<tag k="name" v="Beatnatnjárgačohkka" />
		<tag k="name:se" v="Beatnatnjárgačohkka" />
		<tag k="natural" v="hill" />
		<tag k="old_name:se" v="Bædnatnjargačåkka" />
		<tag k="place" v="locality" />
		<tag k="ssr:stedsnr" v="262218" />
	</node>
	<node lat="70.44029445000076" lon="24.515574871572763" id="-41896">
		<tag k="name" v="Hofsethøgda" />
		<tag k="natural" v="hill" />
		<tag k="place" v="locality" />
		<tag k="ssr:stedsnr" v="262653" />
	</node>
	<node lat="70.29857500579448" lon="24.097474871135145" id="-41898">
		<tag k="name" v="Mikkeldalen" />
		<tag k="natural" v="valley" />
		<tag k="place" v="locality" />
		<tag k="ssr:stedsnr" v="262667" />
	</node>
	<node lat="70.27212222530535" lon="24.360916522015682" id="-41902">
		<tag k="name" v="Lásotgorsa" />
		<tag k="name:se" v="Lásotgorsa" />
		<tag k="natural" v="valley" />
		<tag k="old_name:se" v="Lasutgårsa" />
		<tag k="place" v="locality" />
		<tag k="ssr:stedsnr" v="262736" />
	</node>
	<node lat="70.47986667200801" lon="24.39628597882912" id="-41905">
		<tag k="fixme" v="consider natural=peak for the most distinct mountains in the district" />
		<tag k="name" v="Čuovvárri" />
		<tag k="name:se" v="Čuovvárri" />
		<tag k="natural" v="hill" />
		<tag k="old_name:se" v="Čuovvarri" />
		<tag k="place" v="locality" />
		<tag k="ssr:stedsnr" v="262876" />
	</node>
	<node lat="70.67772222818024" lon="23.697733252439505" id="-41913">
		<tag k="fixme" v="consider natural=peak for the most distinct mountains in the district" />
		<tag k="name" v="Fuglenesfjellet" />
		<tag k="natural" v="hill" />
		<tag k="place" v="locality" />
		<tag k="ssr:stedsnr" v="263019" />
	</node>
	<node lat="70.71726945187697" lon="23.7257165679482" id="-41915">
		<tag k="fixme" v="consider natural=peak for the most distinct mountains in the district" />
		<tag k="name" v="Miillet" />
		<tag k="name:se" v="Miillet" />
		<tag k="natural" v="hill" />
		<tag k="old_name:se" v="Miilet" />
		<tag k="place" v="locality" />
		<tag k="ssr:stedsnr" v="263069" />
	</node>
	<node lat="70.52604445172162" lon="23.184177697487836" id="-41916">
		<tag k="name" v="Stordalen" />
		<tag k="natural" v="valley" />
		<tag k="place" v="locality" />
		<tag k="ssr:stedsnr" v="263144" />
	</node>
	<node lat="70.56076111123048" lon="23.481458255049322" id="-41922">
		<tag k="fixme" v="consider natural=peak for the most distinct mountains in the district" />
		<tag k="name" v="Skarvfjellet - Skárfovárri" />
		<tag k="name:no" v="Skarvfjellet" />
		<tag k="name:se" v="Skárfovárri" />
		<tag k="natural" v="hill" />
		<tag k="old_name:se" v="Skarfuvarri" />
		<tag k="place" v="locality" />
		<tag k="ssr:stedsnr" v="263232" />
	</node>
	<node lat="70.65089445080763" lon="24.68273041995548" id="-41933">
		<tag k="name" v="Vassberget" />
		<tag k="natural" v="hill" />
		<tag k="place" v="locality" />
		<tag k="ssr:stedsnr" v="263870" />
	</node>
	<node lat="70.54376111934728" lon="24.803088740000682" id="-41935">
		<tag k="alt_name:se" v="Miesseoaivi" />
		<tag k="fixme" v="consider natural=peak for the most distinct mountains in the district" />
		<tag k="name" v="Davit Miessoaivi" />
		<tag k="name:se" v="Davit Miessoaivi" />
		<tag k="natural" v="hill" />
		<tag k="old_name:se" v="Miessoaivi, davit" />
		<tag k="place" v="locality" />
		<tag k="ssr:stedsnr" v="263931" />
	</node>
	<node lat="70.45581389368526" lon="23.513913797791513" id="-41936">
		<tag k="name" v="Ruollavággi" />
		<tag k="name:se" v="Ruollavággi" />
		<tag k="natural" v="valley" />
		<tag k="old_name:se" v="Ruollavaggi" />
		<tag k="place" v="locality" />
		<tag k="ssr:stedsnr" v="263958" />
	</node>
	<node lat="70.71142222737413" lon="23.76869991176652" id="-41942">
		<tag k="fixme" v="consider natural=peak for the most distinct mountains in the district" />
		<tag k="loc_name:se" v="Fošølvárri" />
		<tag k="name" v="Årresjåfjellet" />
		<tag k="name:no" v="Årresjåfjellet" />
		<tag k="natural" v="hill" />
		<tag k="place" v="locality" />
		<tag k="ssr:stedsnr" v="267398" />
	</node>
	<node lat="70.41495278311085" lon="24.334419317698266" id="-41944">
		<tag k="fixme" v="consider natural=peak for the most distinct mountains in the district" />
		<tag k="name" v="Rødfjellet - Ruksesbávtterášša" />
		<tag k="name:no" v="Rødfjellet" />
		<tag k="name:se" v="Ruksesbávtterášša" />
		<tag k="natural" v="hill" />
		<tag k="old_name:se" v="Ruksesbavterašša" />
		<tag k="place" v="locality" />
		<tag k="ssr:stedsnr" v="201606" />
	</node>
	<node lat="70.41720278585125" lon="24.41069153370778" id="-41945">
		<tag k="name" v="Riehpovuonmohkki" />
		<tag k="name:se" v="Riehpovuonmohkki" />
		<tag k="natural" v="plateau" />
		<tag k="old_name:se" v="Rieppuvuonmåkki" />
		<tag k="ssr:stedsnr" v="201608" />
	</node>
	<node lat="70.27966389257995" lon="24.062405441063817" id="-41946">
		<tag k="name" v="Breidalen" />
		<tag k="natural" v="valley" />
		<tag k="place" v="locality" />
		<tag k="ssr:stedsnr" v="201700" />
	</node>
	<node lat="70.55599444921299" lon="23.76113325008421" id="-41951">
		<tag k="fixme" v="consider natural=peak for the most distinct mountains in the district" />
		<tag k="name" v="Gieldaluokvárit" />
		<tag k="name:se" v="Gieldaluokvárit" />
		<tag k="natural" v="hill" />
		<tag k="old_name:se" v="Gieldaluokvarit" />
		<tag k="place" v="locality" />
		<tag k="ssr:stedsnr" v="202195" />
	</node>
	<node lat="70.52595833482856" lon="23.75326101642346" id="-41953">
		<tag k="fixme" v="consider natural=peak for the most distinct mountains in the district" />
		<tag k="name" v="Kargenesfjellet - Jiernákvárri" />
		<tag k="name:no" v="Kargenesfjellet" />
		<tag k="name:se" v="Jiernákvárri" />
		<tag k="natural" v="hill" />
		<tag k="old_name:se" v="Jiernakvarri" />
		<tag k="place" v="locality" />
		<tag k="ssr:stedsnr" v="202199" />
	</node>
	<node lat="70.74427500203247" lon="23.725236029310388" id="-41957">
		<tag k="name" v="Murtoboađovággi" />
		<tag k="name:se" v="Murtoboađovággi" />
		<tag k="natural" v="valley" />
		<tag k="old_name:se" v="Murtuboađuvaggi" />
		<tag k="place" v="locality" />
		<tag k="ssr:stedsnr" v="202089" />
	</node>
	<node lat="70.51459444389792" lon="23.92774434652896" id="-41960">
		<tag k="name" v="Stallogargoflogan - Goaŋki" />
		<tag k="name:no" v="Stallogargoflogan" />
		<tag k="name:se" v="Goaŋki" />
		<tag k="natural" v="cliff" />
		<tag k="ssr:stedsnr" v="202204" />
	</node>
	<node lat="70.71658333463083" lon="23.166211036257156" id="-41961">
		<tag k="fixme" v="consider natural=peak for the most distinct mountains in the district" />
		<tag k="name" v="Veststraumfjellet" />
		<tag k="natural" v="hill" />
		<tag k="place" v="locality" />
		<tag k="ssr:stedsnr" v="202266" />
	</node>
	<node lat="70.37796389485284" lon="23.61875824818193" id="-41969">
		<tag k="fixme" v="consider natural=peak for the most distinct mountains in the district" />
		<tag k="name" v="Sarabytinden - Jiepmaluovttoaivi" />
		<tag k="name:no" v="Sarabytinden" />
		<tag k="name:se" v="Jiepmaluovttoaivi" />
		<tag k="natural" v="hill" />
		<tag k="old_name:se" v="Jiebmaluovtoaivi" />
		<tag k="place" v="locality" />
		<tag k="ssr:stedsnr" v="202791" />
	</node>
	<node lat="70.39610278309596" lon="24.047597107254006" id="-41970">
		<tag k="fixme" v="consider natural=peak for the most distinct mountains in the district" />
		<tag k="name" v="Magerfjellet - Sahárášša" />
		<tag k="name:no" v="Magerfjellet" />
		<tag k="name:se" v="Sahárášša" />
		<tag k="natural" v="hill" />
		<tag k="old_name:se" v="Saharašša" />
		<tag k="place" v="locality" />
		<tag k="ssr:stedsnr" v="202794" />
	</node>
	<node lat="70.62053055782134" lon="24.004580455784453" id="-41971">
		<tag k="alt_name" v="Blåhukerten, l" />
		<tag k="fixme" v="consider natural=peak for the most distinct mountains in the district" />
		<tag k="name" v="Lille Blåhukerten" />
		<tag k="natural" v="hill" />
		<tag k="place" v="locality" />
		<tag k="ssr:stedsnr" v="202795" />
	</node>
	<node lat="70.4657444457544" lon="23.88875265862119" id="-41973">
		<tag k="alt_name:no" v="Ørnhaugen" />
		<tag k="fixme" v="consider natural=peak for the most distinct mountains in the district" />
		<tag k="name" v="Ørnetinden - Goaskinčohkka" />
		<tag k="name:no" v="Ørnetinden" />
		<tag k="name:se" v="Goaskinčohkka" />
		<tag k="natural" v="hill" />
		<tag k="old_name:se" v="Goaskinčåkka" />
		<tag k="place" v="locality" />
		<tag k="ssr:stedsnr" v="202967" />
	</node>
	<node lat="70.40487222924713" lon="23.637294355492788" id="-41975">
		<tag k="name" v="Kvenklubben - Gielddavárri" />
		<tag k="name:no" v="Kvenklubben" />
		<tag k="name:se" v="Gielddavárri" />
		<tag k="natural" v="hill" />
		<tag k="old_name:se" v="Gieldavarri" />
		<tag k="place" v="locality" />
		<tag k="ssr:stedsnr" v="202990" />
	</node>
	<node lat="70.42848611599175" lon="23.807788790460325" id="-41977">
		<tag k="name" v="Finnvasshøgda" />
		<tag k="natural" v="hill" />
		<tag k="place" v="locality" />
		<tag k="ssr:stedsnr" v="202997" />
	</node>
	<node lat="70.50269167142336" lon="24.008855439908054" id="-41983">
		<tag k="fixme" v="consider natural=peak for the most distinct mountains in the district" />
		<tag k="name" v="Russenesfjellet" />
		<tag k="natural" v="hill" />
		<tag k="place" v="locality" />
		<tag k="ssr:stedsnr" v="211544" />
	</node>
	<node lat="70.51067500393398" lon="23.825080453465773" id="-41984">
		<tag k="name" v="Volla" />
		<tag k="place" v="locality" />
		<tag k="ssr:stedsnr" v="211587" />
	</node>
	<node lat="70.608622221542" lon="23.619291577267894" id="-41986">
		<tag k="name" v="Kvannslåkhøgda" />
		<tag k="natural" v="hill" />
		<tag k="place" v="locality" />
		<tag k="ssr:stedsnr" v="213080" />
	</node>
	<node lat="70.50878333695633" lon="24.038202660897642" id="-41995">
		<tag k="name" v="Batteriet" />
		<tag k="natural" v="hill" />
		<tag k="place" v="locality" />
		<tag k="ssr:stedsnr" v="271996" />
	</node>
	<node lat="70.70031111198304" lon="23.884038783256745" id="-41996">
		<tag k="fixme" v="consider natural=peak for the most distinct mountains in the district" />
		<tag k="name" v="Sørhamnfjellet" />
		<tag k="natural" v="hill" />
		<tag k="place" v="locality" />
		<tag k="ssr:stedsnr" v="449870" />
	</node>
	<node lat="70.267902784117" lon="23.821969349937277" id="-41999">
		<tag k="fixme" v="consider natural=peak for the most distinct mountains in the district" />
		<tag k="name" v="Mattistinden - Bártnaščohkka" />
		<tag k="name:no" v="Mattistinden" />
		<tag k="name:se" v="Bártnaščohkka" />
		<tag k="natural" v="hill" />
		<tag k="old_name:se" v="Bardnaščåkka" />
		<tag k="place" v="locality" />
		<tag k="ssr:stedsnr" v="450797" />
	</node>
	<node lat="70.65573490374835" lon="23.66625002465725" id="-42006">
		<tag k="name" v="Kubakken" />
		<tag k="natural" v="slope" />
		<tag k="place" v="locality" />
		<tag k="ssr:stedsnr" v="455151" />
	</node>
	<node lat="70.64360000228392" lon="23.712066584392936" id="-42007">
		<tag k="name" v="Revskaret" />
		<tag k="natural" v="valley" />
		<tag k="place" v="locality" />
		<tag k="ssr:stedsnr" v="455159" />
	</node>
	<node lat="70.61680277810578" lon="23.657505456565065" id="-42010">
		<tag k="alt_name" v="Saragammfjellet" />
		<tag k="fixme" v="consider natural=peak for the most distinct mountains in the district" />
		<tag k="name" v="Saragamfjellet" />
		<tag k="natural" v="hill" />
		<tag k="place" v="locality" />
		<tag k="ssr:stedsnr" v="456181" />
	</node>
	<node lat="70.67165833875299" lon="23.70599713792425" id="-42012">
		<tag k="name" v="Blåbærdalen" />
		<tag k="natural" v="valley" />
		<tag k="place" v="locality" />
		<tag k="ssr:stedsnr" v="456239" />
	</node>
	<node lat="70.53266111720914" lon="23.308369369674043" id="-42019">
		<tag k="fixme" v="consider natural=peak for the most distinct mountains in the district" />
		<tag k="name" v="Veggen" />
		<tag k="natural" v="hill" />
		<tag k="place" v="locality" />
		<tag k="ssr:stedsnr" v="262110" />
	</node>
	<node lat="70.68625555522308" lon="22.989747168380987" id="-42030">
		<tag k="name" v="Klubben" />
		<tag k="natural" v="hill" />
		<tag k="place" v="locality" />
		<tag k="ssr:stedsnr" v="262499" />
	</node>
	<node lat="70.70033055950663" lon="23.714211025366414" id="-42038">
		<tag k="fixme" v="consider natural=peak for the most distinct mountains in the district" />
		<tag k="name" v="Latnjavárri" />
		<tag k="name:se" v="Latnjavárri" />
		<tag k="natural" v="hill" />
		<tag k="old_name:se" v="Ladnjavarri" />
		<tag k="place" v="locality" />
		<tag k="ssr:stedsnr" v="263078" />
	</node>
	<node lat="70.69823056224392" lon="23.927999899871722" id="-42039">
		<tag k="fixme" v="consider natural=peak for the most distinct mountains in the district" />
		<tag k="name" v="Middagsfjell" />
		<tag k="natural" v="hill" />
		<tag k="place" v="locality" />
		<tag k="ssr:stedsnr" v="263082" />
	</node>
	<node lat="70.71940000278914" lon="23.03662215515539" id="-42046">
		<tag k="name" v="Gavahaugen" />
		<tag k="natural" v="hill" />
		<tag k="place" v="locality" />
		<tag k="ssr:stedsnr" v="263298" />
	</node>
	<node lat="70.2825972263236" lon="23.939941547073815" id="-42048">
		<tag k="name" v="Sievjogeinnodatvággi" />
		<tag k="name:se" v="Sievjogeinnodatvággi" />
		<tag k="natural" v="valley" />
		<tag k="old_name:se" v="Sievjugeinudatvaggi" />
		<tag k="place" v="locality" />
		<tag k="ssr:stedsnr" v="263810" />
	</node>
	<node lat="70.59961389141569" lon="24.510335972136797" id="-42050">
		<tag k="fixme" v="consider natural=peak for the most distinct mountains in the district" />
		<tag k="name" v="Doggečohkka" />
		<tag k="name:se" v="Doggečohkka" />
		<tag k="natural" v="hill" />
		<tag k="old_name:se" v="Dåggečåkka" />
		<tag k="place" v="locality" />
		<tag k="ssr:stedsnr" v="263814" />
	</node>
	<node lat="70.58915833653256" lon="24.662844298686068" id="-42051">
		<tag k="name" v="Guohcavággi" />
		<tag k="name:se" v="Guohcavággi" />
		<tag k="natural" v="valley" />
		<tag k="old_name:se" v="Guoccavaggi" />
		<tag k="place" v="locality" />
		<tag k="ssr:stedsnr" v="263889" />
	</node>
	<node lat="70.57619444792329" lon="24.85756929103479" id="-42052">
		<tag k="fixme" v="consider natural=peak for the most distinct mountains in the district" />
		<tag k="name" v="Oarjedievvá" />
		<tag k="name:se" v="Oarjedievvá" />
		<tag k="natural" v="hill" />
		<tag k="old_name:se" v="Oarjedievva" />
		<tag k="place" v="locality" />
		<tag k="ssr:stedsnr" v="263898" />
	</node>
	<node lat="70.67700555525933" lon="23.795313800220875" id="-42061">
		<tag k="name" v="Mellomskaret" />
		<tag k="natural" v="valley" />
		<tag k="place" v="locality" />
		<tag k="ssr:stedsnr" v="267907" />
	</node>
	<node lat="70.67935278253668" lon="23.705324918374473" id="-42069">
		<tag k="name" v="Stordalen" />
		<tag k="natural" v="valley" />
		<tag k="place" v="locality" />
		<tag k="ssr:stedsnr" v="274205" />
	</node>
	<node lat="70.71241944426619" lon="23.77880267928233" id="-42072">
		<tag k="fixme" v="consider natural=peak for the most distinct mountains in the district" />
		<tag k="name" v="Tovassfjellet" />
		<tag k="natural" v="hill" />
		<tag k="place" v="locality" />
		<tag k="ssr:stedsnr" v="274182" />
	</node>
	<node lat="70.66876944883884" lon="23.65947213421457" id="-42076">
		<tag k="name" v="Skansen" />
		<tag k="place" v="locality" />
		<tag k="ssr:stedsnr" v="275406" />
	</node>
	<node lat="70.84805000434821" lon="23.313961040714098" id="-42097">
		<tag k="fixme" v="consider natural=peak for the most distinct mountains in the district" />
		<tag k="name" v="Høgfjellet" />
		<tag k="natural" v="hill" />
		<tag k="place" v="locality" />
		<tag k="ssr:stedsnr" v="323125" />
	</node>
	<node lat="70.85083889284422" lon="23.067761049115948" id="-42098">
		<tag k="name" v="Lillestauren" />
		<tag k="natural" v="hill" />
		<tag k="place" v="locality" />
		<tag k="ssr:stedsnr" v="323127" />
	</node>
	<node lat="70.63237499855468" lon="23.026655494416822" id="-42106">
		<tag k="name" v="Slettnesfjorddalen" />
		<tag k="natural" v="valley" />
		<tag k="place" v="locality" />
		<tag k="ssr:stedsnr" v="323430" />
	</node>
	<node lat="70.71102500434533" lon="23.08998604992059" id="-42108">
		<tag k="fixme" v="consider natural=peak for the most distinct mountains in the district" />
		<tag k="name" v="Blåfjellet" />
		<tag k="natural" v="hill" />
		<tag k="place" v="locality" />
		<tag k="ssr:stedsnr" v="323502" />
	</node>
	<node lat="70.43033055685375" lon="24.630580397472592" id="-42109">
		<tag k="fixme" v="consider natural=peak for the most distinct mountains in the district" />
		<tag k="name" v="Unna Háhttiraš" />
		<tag k="name:se" v="Unna Háhttiraš" />
		<tag k="natural" v="hill" />
		<tag k="old_name:se" v="Hattiraš, unna" />
		<tag k="place" v="locality" />
		<tag k="ssr:stedsnr" v="323733" />
	</node>
	<node lat="70.46356389087869" lon="24.5394387419065" id="-42113">
		<tag k="fixme" v="consider natural=peak for the most distinct mountains in the district" />
		<tag k="name" v="Čiŋkarášša" />
		<tag k="name:se" v="Čiŋkarášša" />
		<tag k="natural" v="hill" />
		<tag k="old_name:se" v="Čiŋkarašša;Činkarášša" />
		<tag k="place" v="locality" />
		<tag k="ssr:stedsnr" v="323871" />
	</node>
	<node lat="70.450594447841" lon="24.284349872877538" id="-42114">
		<tag k="name" v="Arisberget - Árešbákti" />
		<tag k="name:no" v="Arisberget" />
		<tag k="name:se" v="Árešbákti" />
		<tag k="natural" v="hill" />
		<tag k="old_name:se" v="Arešbakti" />
		<tag k="place" v="locality" />
		<tag k="ssr:stedsnr" v="323875" />
	</node>
	<node lat="70.43622500636319" lon="24.025949891698833" id="-42116">
		<tag k="fixme" v="consider natural=peak for the most distinct mountains in the district" />
		<tag k="name" v="Hoalločohkat" />
		<tag k="name:se" v="Hoalločohkat" />
		<tag k="natural" v="hill" />
		<tag k="old_name:se" v="Hoallučåkkat" />
		<tag k="place" v="locality" />
		<tag k="ssr:stedsnr" v="323879" />
	</node>
	<node lat="70.60660555988575" lon="24.70133594718872" id="-42120">
		<tag k="alt_name:se" v="Ruossavárri" />
		<tag k="fixme" v="consider natural=peak for the most distinct mountains in the district" />
		<tag k="name" v="Ruoššavárit" />
		<tag k="name:se" v="Ruoššavárit" />
		<tag k="natural" v="hill" />
		<tag k="old_name:se" v="Ruoššavarit" />
		<tag k="place" v="locality" />
		<tag k="ssr:stedsnr" v="323903" />
	</node>
	<node lat="70.5952250055249" lon="24.80879149559606" id="-42121">
		<tag k="name" v="Stuorrávžžečohkat" />
		<tag k="name:se" v="Stuorrávžžečohkat" />
		<tag k="natural" v="hill" />
		<tag k="old_name:se" v="Stuorravžečåkkat" />
		<tag k="place" v="locality" />
		<tag k="ssr:stedsnr" v="323905" />
	</node>
	<node lat="70.47872222064417" lon="23.42731103429407" id="-42122">
		<tag k="fixme" v="consider natural=peak for the most distinct mountains in the district" />
		<tag k="name" v="Suolorášša" />
		<tag k="name:se" v="Suolorášša" />
		<tag k="natural" v="hill" />
		<tag k="old_name:se" v="Suolurašša" />
		<tag k="place" v="locality" />
		<tag k="ssr:stedsnr" v="323971" />
	</node>
	<node lat="70.47908611395845" lon="24.326930428724392" id="-42127">
		<tag k="fixme" v="consider natural=peak for the most distinct mountains in the district" />
		<tag k="name" v="Spihča" />
		<tag k="name:se" v="Spihča" />
		<tag k="natural" v="hill" />
		<tag k="place" v="locality" />
		<tag k="ssr:stedsnr" v="271950" />
	</node>
	<node lat="70.51275833793291" lon="23.861786010458534" id="-42128">
		<tag k="name" v="Hammarnesdalen" />
		<tag k="natural" v="valley" />
		<tag k="place" v="locality" />
		<tag k="ssr:stedsnr" v="332596" />
	</node>
	<node lat="70.5398277816762" lon="24.143313783791022" id="-42130">
		<tag k="fixme" v="consider natural=peak for the most distinct mountains in the district" />
		<tag k="name" v="Buktafjellet" />
		<tag k="natural" v="hill" />
		<tag k="place" v="locality" />
		<tag k="ssr:stedsnr" v="332947" />
	</node>
	<node lat="70.86320833737481" lon="23.322252702828507" id="-42142">
		<tag k="name" v="Tarhalsskaret" />
		<tag k="natural" v="valley" />
		<tag k="place" v="locality" />
		<tag k="ssr:stedsnr" v="383114" />
	</node>
	<node lat="70.43654166605194" lon="22.927236043471684" id="-42143">
		<tag k="fixme" v="consider natural=peak for the most distinct mountains in the district" />
		<tag k="name" v="Bårdfjordfjell - Dáččavuongáisá" />
		<tag k="name:no" v="Bårdfjordfjell" />
		<tag k="name:se" v="Dáččavuongáisá" />
		<tag k="natural" v="hill" />
		<tag k="old_name:se" v="Dažžavuongaisa" />
		<tag k="place" v="locality" />
		<tag k="ssr:stedsnr" v="383055" />
	</node>
	<node lat="70.19520000269272" lon="24.276358196031715" id="-42150">
		<tag k="fixme" v="consider natural=peak for the most distinct mountains in the district" />
		<tag k="name" v="Opmobuolža" />
		<tag k="name:se" v="Opmobuolža" />
		<tag k="natural" v="hill" />
		<tag k="old_name:se" v="Åbmubuolža" />
		<tag k="place" v="locality" />
		<tag k="ssr:stedsnr" v="383957" />
	</node>
	<node lat="70.66269722389873" lon="24.024886003582296" id="-42152">
		<tag k="fixme" v="consider natural=peak for the most distinct mountains in the district" />
		<tag k="name" v="Jalgesvárit" />
		<tag k="name:se" v="Jalgesvárit" />
		<tag k="natural" v="hill" />
		<tag k="old_name:se" v="Jalgesvarit" />
		<tag k="place" v="locality" />
		<tag k="ssr:stedsnr" v="384019" />
	</node>
	<node lat="70.65413333735225" lon="23.67421379723481" id="-42154">
		<tag k="fixme" v="consider natural=peak for the most distinct mountains in the district" />
		<tag k="name" v="Salen - Rakča" />
		<tag k="name:no" v="Salen" />
		<tag k="name:se" v="Rakča" />
		<tag k="natural" v="hill" />
		<tag k="place" v="locality" />
		<tag k="ssr:stedsnr" v="384022" />
	</node>
	<node lat="70.6957500042125" lon="23.73653602411845" id="-42155">
		<tag k="name" v="Fuglenesdalen" />
		<tag k="natural" v="valley" />
		<tag k="place" v="locality" />
		<tag k="ssr:stedsnr" v="384068" />
	</node>
	<node lat="70.49840555923664" lon="23.03795549111601" id="-42159">
		<tag k="alt_name" v="Vassvikdalen, nordre" />
		<tag k="name" v="Nordre Vassvikdalen" />
		<tag k="natural" v="valley" />
		<tag k="place" v="locality" />
		<tag k="ssr:stedsnr" v="384097" />
	</node>
	<node lat="70.80206666842481" lon="23.34563602590916" id="-42160">
		<tag k="name" v="Botnskaret" />
		<tag k="natural" v="valley" />
		<tag k="place" v="locality" />
		<tag k="ssr:stedsnr" v="384100" />
	</node>
	<node lat="70.59287499714684" lon="23.032666606165385" id="-42163">
		<tag k="name" v="Hammarnakkan" />
		<tag k="natural" v="hill" />
		<tag k="place" v="locality" />
		<tag k="ssr:stedsnr" v="384402" />
	</node>
	<node lat="70.42427222608073" lon="24.151263768812115" id="-42168">
		<tag k="fixme" v="consider natural=peak for the most distinct mountains in the district" />
		<tag k="name" v="Guoirratrášša" />
		<tag k="name:se" v="Guoirratrášša" />
		<tag k="natural" v="hill" />
		<tag k="old_name:se" v="Guoiratrašša" />
		<tag k="place" v="locality" />
		<tag k="ssr:stedsnr" v="384650" />
	</node>
	<node lat="70.37096389261289" lon="24.364799855587215" id="-42169">
		<tag k="name" v="Repparfjorddalen" />
		<tag k="natural" v="valley" />
		<tag k="place" v="locality" />
		<tag k="ssr:stedsnr" v="384655" />
	</node>
	<node lat="70.25208611231358" lon="23.84514154991461" id="-42171">
		<tag k="fixme" v="consider natural=peak for the most distinct mountains in the district" />
		<tag k="name" v="Nadjetčohkka" />
		<tag k="name:se" v="Nadjetčohkka" />
		<tag k="natural" v="hill" />
		<tag k="old_name:se" v="Naddjetčåkka" />
		<tag k="place" v="locality" />
		<tag k="ssr:stedsnr" v="384809" />
	</node>
	<node lat="70.48590000638674" lon="24.025172104228652" id="-42173">
		<tag k="fixme" v="consider natural=peak for the most distinct mountains in the district" />
		<tag k="name" v="Jalgesvárit" />
		<tag k="name:se" v="Jalgesvárit" />
		<tag k="natural" v="hill" />
		<tag k="old_name:se" v="Jalgesvarit" />
		<tag k="place" v="locality" />
		<tag k="ssr:stedsnr" v="384815" />
	</node>
	<node lat="70.41633056191144" lon="23.776613796508077" id="-42176">
		<tag k="fixme" v="consider natural=peak for the most distinct mountains in the district" />
		<tag k="name" v="Middagstinden - Oggošhárji" />
		<tag k="name:no" v="Middagstinden" />
		<tag k="name:se" v="Oggošhárji" />
		<tag k="natural" v="hill" />
		<tag k="old_name:se" v="Åggušharji" />
		<tag k="place" v="locality" />
		<tag k="ssr:stedsnr" v="384998" />
	</node>
	<node lat="70.57124166989651" lon="23.51637491188351" id="-42180">
		<tag k="fixme" v="consider natural=peak for the most distinct mountains in the district" />
		<tag k="name" v="Melkartinden" />
		<tag k="natural" v="hill" />
		<tag k="place" v="locality" />
		<tag k="ssr:stedsnr" v="388892" />
	</node>
	<node lat="70.46491389357527" lon="23.801569337905207" id="-42182">
		<tag k="name" v="Skarhaugen" />
		<tag k="natural" v="hill" />
		<tag k="place" v="locality" />
		<tag k="ssr:stedsnr" v="393814" />
	</node>
	<node lat="70.64808611385784" lon="23.639555458379515" id="-42184">
		<tag k="name" v="Langstranddalen" />
		<tag k="natural" v="valley" />
		<tag k="place" v="locality" />
		<tag k="ssr:stedsnr" v="395179" />
	</node>
	<node lat="70.63204166426459" lon="23.663033248473376" id="-42186">
		<tag k="name" v="Leirvikhaugen" />
		<tag k="natural" v="hill" />
		<tag k="place" v="locality" />
		<tag k="ssr:stedsnr" v="395183" />
	</node>
	<node lat="70.60441944590376" lon="23.64998880121354" id="-42187">
		<tag k="name" v="Seihaugen" />
		<tag k="natural" v="hill" />
		<tag k="place" v="locality" />
		<tag k="ssr:stedsnr" v="395190" />
	</node>
	<node lat="70.36275278551345" lon="24.409863759441265" id="-42202">
		<tag k="fixme" v="consider natural=peak for the most distinct mountains in the district" />
		<tag k="name" v="Guovžavárri" />
		<tag k="name:se" v="Guovžavárri" />
		<tag k="natural" v="hill" />
		<tag k="old_name:se" v="Guovžavarri" />
		<tag k="place" v="locality" />
		<tag k="ssr:stedsnr" v="444676" />
	</node>
	<node lat="70.65112500448193" lon="23.747588792178224" id="-42206">
		<tag k="name" v="Vearavággi" />
		<tag k="name:se" v="Vearavággi" />
		<tag k="natural" v="valley" />
		<tag k="old_name:se" v="Væravaggi" />
		<tag k="place" v="locality" />
		<tag k="ssr:stedsnr" v="445011" />
	</node>
	<node lat="70.50649722827923" lon="23.41755268844558" id="-42212">
		<tag k="fixme" v="consider natural=peak for the most distinct mountains in the district" />
		<tag k="name" v="Glimmerfjellet" />
		<tag k="natural" v="hill" />
		<tag k="place" v="locality" />
		<tag k="ssr:stedsnr" v="445084" />
	</node>
	<node lat="70.50351111661837" lon="24.378297101829094" id="-42217">
		<tag k="name" v="Erdalen - Earnjoasvággi" />
		<tag k="name:no" v="Erdalen" />
		<tag k="name:se" v="Earnjoasvággi" />
		<tag k="natural" v="valley" />
		<tag k="old_name:se" v="Ærnjoasvaggi" />
		<tag k="place" v="locality" />
		<tag k="ssr:stedsnr" v="445839" />
	</node>
	<node lat="70.54924167317493" lon="24.717410969477797" id="-42220">
		<tag k="fixme" v="consider natural=peak for the most distinct mountains in the district" />
		<tag k="name" v="Davit Biellogielas" />
		<tag k="name:se" v="Davit Biellogielas" />
		<tag k="natural" v="hill" />
		<tag k="old_name:se" v="Biellugielas, davit" />
		<tag k="place" v="locality" />
		<tag k="ssr:stedsnr" v="445932" />
	</node>
	<node lat="70.47730278094048" lon="23.84803879514987" id="-42221">
		<tag k="name" v="Čoavddavággi" />
		<tag k="name:se" v="Čoavddavággi" />
		<tag k="natural" v="valley" />
		<tag k="old_name:se" v="Čoavdavaggi" />
		<tag k="place" v="locality" />
		<tag k="ssr:stedsnr" v="445976" />
	</node>
	<node lat="70.44908611415306" lon="23.602841571683914" id="-42224">
		<tag k="fixme" v="consider natural=peak for the most distinct mountains in the district" />
		<tag k="name" v="Bákteleakvárri" />
		<tag k="name:se" v="Bákteleakvárri" />
		<tag k="natural" v="hill" />
		<tag k="old_name:se" v="Baktelækvarri" />
		<tag k="place" v="locality" />
		<tag k="ssr:stedsnr" v="445987" />
	</node>
	<node lat="70.7077361163396" lon="23.71387770234253" id="-42227">
		<tag k="name" v="Steindalen" />
		<tag k="natural" v="valley" />
		<tag k="place" v="locality" />
		<tag k="ssr:stedsnr" v="449413" />
	</node>
	<node lat="70.5043194471953" lon="24.01565543924091" id="-42228">
		<tag k="name" v="Fribergdalen" />
		<tag k="natural" v="valley" />
		<tag k="place" v="locality" />
		<tag k="ssr:stedsnr" v="453565" />
	</node>
	<node lat="70.50048333769436" lon="24.269694328882043" id="-42229">
		<tag k="name" v="Slobobergan" />
		<tag k="natural" v="hill" />
		<tag k="place" v="locality" />
		<tag k="ssr:stedsnr" v="453903" />
	</node>
	<node lat="70.53212500299657" lon="24.120941544889966" id="-42230">
		<tag k="name" v="Ørnehaugen - Gokkodaura" />
		<tag k="name:fkv" v="Gokkodaura" />
		<tag k="name:no" v="Ørnehaugen" />
		<tag k="natural" v="hill" />
		<tag k="place" v="locality" />
		<tag k="ssr:stedsnr" v="453961" />
	</node>
	<node lat="70.7187222228155" lon="23.79933880600348" id="-42234">
		<tag k="name" v="Reavangurra" />
		<tag k="name:se" v="Reavangurra" />
		<tag k="natural" v="valley" />
		<tag k="place" v="locality" />
		<tag k="ssr:stedsnr" v="456212" />
	</node>
	<node lat="70.57690000401544" lon="24.551999852597064" id="-42238">
		<tag k="name" v="Lamjjetvággi" />
		<tag k="name:se" v="Lamjjetvággi" />
		<tag k="natural" v="valley" />
		<tag k="place" v="locality" />
		<tag k="ssr:stedsnr" v="457129" />
	</node>
	<node lat="70.43338333261711" lon="23.807288780628916" id="-42239">
		<tag k="name" v="Arondalen" />
		<tag k="natural" v="valley" />
		<tag k="place" v="locality" />
		<tag k="ssr:stedsnr" v="457158" />
	</node>
	<node lat="70.12056945207257" lon="23.96500820642189" id="-42251">
		<tag k="fixme" v="consider natural=peak for the most distinct mountains in the district" />
		<tag k="name" v="Unna Návggastat" />
		<tag k="name:se" v="Unna Návggastat" />
		<tag k="natural" v="hill" />
		<tag k="place" v="locality" />
		<tag k="ssr:stedsnr" v="504918" />
	</node>
	<node lat="70.73683333540308" lon="23.70410547281942" id="-42253">
		<tag k="fixme" v="consider natural=peak for the most distinct mountains in the district" />
		<tag k="name" v="Mylingen" />
		<tag k="natural" v="hill" />
		<tag k="place" v="locality" />
		<tag k="ssr:stedsnr" v="505102" />
	</node>
	<node lat="70.77586667248246" lon="23.10491938547903" id="-42256">
		<tag k="fixme" v="consider natural=peak for the most distinct mountains in the district" />
		<tag k="name" v="Svartfjellet" />
		<tag k="natural" v="hill" />
		<tag k="place" v="locality" />
		<tag k="ssr:stedsnr" v="505173" />
	</node>
	<node lat="70.77082777931656" lon="23.11194160162935" id="-42257">
		<tag k="fixme" v="consider natural=peak for the most distinct mountains in the district" />
		<tag k="name" v="Sætertinden" />
		<tag k="natural" v="hill" />
		<tag k="place" v="locality" />
		<tag k="ssr:stedsnr" v="505174" />
	</node>
	<node lat="70.84415000338929" lon="23.31485827674144" id="-42260">
		<tag k="fixme" v="multiple name tags, choose one and add the other to alt_name; consider natural=peak for the most distinct mountains in the district" />
		<tag k="name" v="Vardfjellet;Kjøttvikfjellet" />
		<tag k="natural" v="hill" />
		<tag k="old_name" v="Kjøtvikfjellet;Kjøtvikfjell" />
		<tag k="place" v="locality" />
		<tag k="ssr:stedsnr" v="505073" />
	</node>
	<node lat="70.71467221951018" lon="23.20960826506539" id="-42263">
		<tag k="fixme" v="consider natural=peak for the most distinct mountains in the district" />
		<tag k="name" v="Børsenasfjellet" />
		<tag k="natural" v="hill" />
		<tag k="place" v="locality" />
		<tag k="ssr:stedsnr" v="505268" />
	</node>
	<node lat="70.72741944690878" lon="22.820988824703804" id="-42265">
		<tag k="fixme" v="consider natural=peak for the most distinct mountains in the district" />
		<tag k="name" v="Talborfjellet" />
		<tag k="natural" v="hill" />
		<tag k="place" v="locality" />
		<tag k="ssr:stedsnr" v="505279" />
	</node>
	<node lat="70.58250278108304" lon="24.62598874672549" id="-42271">
		<tag k="name" v="Kokelvdalen - Goavkejohvággi" />
		<tag k="name:no" v="Kokelvdalen" />
		<tag k="name:se" v="Goavkejohvággi" />
		<tag k="natural" v="valley" />
		<tag k="old_name:se" v="Goavkejåkvaggi" />
		<tag k="place" v="locality" />
		<tag k="ssr:stedsnr" v="505870" />
	</node>
	<node lat="70.68772500216566" lon="23.821130467626546" id="-42277">
		<tag k="name" v="Kvalfjordskaret" />
		<tag k="natural" v="valley" />
		<tag k="place" v="locality" />
		<tag k="ssr:stedsnr" v="513803" />
	</node>
	<node lat="70.45716389296963" lon="24.336988752310766" id="-42282">
		<tag k="fixme" v="consider natural=peak for the most distinct mountains in the district" />
		<tag k="name" v="Čuovvárri" />
		<tag k="name:se" v="Čuovvárri" />
		<tag k="natural" v="hill" />
		<tag k="place" v="locality" />
		<tag k="ssr:stedsnr" v="514918" />
	</node>
	<node lat="70.65074167062853" lon="23.651894370402992" id="-42286">
		<tag k="name" v="Heia" />
		<tag k="natural" v="hill" />
		<tag k="place" v="locality" />
		<tag k="ssr:stedsnr" v="516161" />
	</node>
	<node lat="70.55614999970308" lon="23.55428324333894" id="-42290">
		<tag k="name" v="Klubben" />
		<tag k="natural" v="hill" />
		<tag k="place" v="locality" />
		<tag k="ssr:stedsnr" v="517406" />
	</node>
	<node lat="70.33829444602692" lon="24.04634709821748" id="-42296">
		<tag k="fixme" v="consider natural=peak for the most distinct mountains in the district" />
		<tag k="name" v="Gaskavákgierratrášša" />
		<tag k="name:se" v="Gaskavákgierratrášša" />
		<tag k="natural" v="hill" />
		<tag k="old_name:se" v="Gaskavaggierratrašša;Gaskávaggierratrášša" />
		<tag k="place" v="locality" />
		<tag k="ssr:stedsnr" v="686677" />
	</node>
	<node lat="70.44495833644619" lon="22.90169993705513" id="-42307">
		<tag k="alt_name" v="Bårdveggen" />
		<tag k="fixme" v="consider natural=peak for the most distinct mountains in the district" />
		<tag k="name" v="Ytre Bårdveggen" />
		<tag k="natural" v="hill" />
		<tag k="old_name" v="Bårdveggen, ytre" />
		<tag k="place" v="locality" />
		<tag k="ssr:stedsnr" v="687050" />
	</node>
	<node lat="70.82670000058708" lon="23.386961039793253" id="-42311">
		<tag k="name" v="Klipadalen" />
		<tag k="natural" v="valley" />
		<tag k="place" v="locality" />
		<tag k="ssr:stedsnr" v="687074" />
	</node>
	<node lat="70.83262222424895" lon="23.359927716138653" id="-42312">
		<tag k="name" v="Tinden" />
		<tag k="natural" v="hill" />
		<tag k="place" v="locality" />
		<tag k="ssr:stedsnr" v="687075" />
	</node>
	<node lat="70.52876389069522" lon="22.835302731968827" id="-42320">
		<tag k="fixme" v="consider natural=peak for the most distinct mountains in the district" />
		<tag k="name" v="Lillefjellet" />
		<tag k="natural" v="hill" />
		<tag k="place" v="locality" />
		<tag k="ssr:stedsnr" v="687117" />
	</node>
	<node lat="70.76842222112067" lon="23.41903879952534" id="-42328">
		<tag k="fixme" v="consider natural=peak for the most distinct mountains in the district" />
		<tag k="name" v="Borvikklubben" />
		<tag k="natural" v="hill" />
		<tag k="place" v="locality" />
		<tag k="ssr:stedsnr" v="687161" />
	</node>
	<node lat="70.55705833362616" lon="23.852147119423247" id="-42332">
		<tag k="fixme" v="consider natural=peak for the most distinct mountains in the district" />
		<tag k="name" v="Boazorášša" />
		<tag k="name:se" v="Boazorášša" />
		<tag k="natural" v="hill" />
		<tag k="old_name:se" v="Boazurašša" />
		<tag k="place" v="locality" />
		<tag k="ssr:stedsnr" v="687181" />
	</node>
	<node lat="70.53106389051452" lon="23.97865822572511" id="-42336">
		<tag k="fixme" v="consider natural=peak for the most distinct mountains in the district" />
		<tag k="name" v="Blankeneshaugen - Gihpenjároaivi" />
		<tag k="name:no" v="Blankeneshaugen" />
		<tag k="name:se" v="Gihpenjároaivi" />
		<tag k="natural" v="hill" />
		<tag k="old_name:se" v="Gippenjaroaivi" />
		<tag k="place" v="locality" />
		<tag k="ssr:stedsnr" v="687216" />
	</node>
	<node lat="70.7455027783455" lon="23.20784714182" id="-42340">
		<tag k="name" v="Hønsebydalen" />
		<tag k="natural" v="valley" />
		<tag k="place" v="locality" />
		<tag k="ssr:stedsnr" v="687261" />
	</node>
	<node lat="70.6820277767823" lon="22.941480486659756" id="-42348">
		<tag k="name" v="Skilleberg" />
		<tag k="natural" v="hill" />
		<tag k="place" v="locality" />
		<tag k="ssr:stedsnr" v="687475" />
	</node>
	<node lat="70.38426111529877" lon="24.55560818950868" id="-42350">
		<tag k="fixme" v="consider natural=peak for the most distinct mountains in the district" />
		<tag k="name" v="Doggoaivi" />
		<tag k="name:se" v="Doggoaivi" />
		<tag k="natural" v="hill" />
		<tag k="place" v="locality" />
		<tag k="ssr:stedsnr" v="687628" />
	</node>
	<node lat="70.42777222939401" lon="24.498735975129033" id="-42351">
		<tag k="name" v="Skaidisletta - Skáiddeguolbba" />
		<tag k="name:no" v="Skaidisletta" />
		<tag k="name:se" v="Skáiddeguolbba" />
		<tag k="old_name:se" v="Skaideguolba" />
		<tag k="place" v="locality" />
		<tag k="ssr:stedsnr" v="687647" />
	</node>
	<node lat="70.42016111079123" lon="24.051502670951734" id="-42352">
		<tag k="name" v="Guoirratvággi" />
		<tag k="name:se" v="Guoirratvággi" />
		<tag k="natural" v="valley" />
		<tag k="old_name:se" v="Guoiratvaggi" />
		<tag k="place" v="locality" />
		<tag k="ssr:stedsnr" v="687651" />
	</node>
	<node lat="70.38871389421378" lon="24.41394152037799" id="-42354">
		<tag k="name" v="Virošgorsa" />
		<tag k="name:se" v="Virošgorsa" />
		<tag k="natural" v="valley" />
		<tag k="old_name:se" v="Virušgårsa" />
		<tag k="place" v="locality" />
		<tag k="ssr:stedsnr" v="687632" />
	</node>
	<node lat="70.27498334216999" lon="24.021633209299797" id="-42355">
		<tag k="fixme" v="consider natural=peak for the most distinct mountains in the district" />
		<tag k="name" v="Roabačohkka" />
		<tag k="name:se" v="Roabačohkka" />
		<tag k="natural" v="hill" />
		<tag k="old_name:se" v="Roabačåkka" />
		<tag k="place" v="locality" />
		<tag k="ssr:stedsnr" v="687719" />
	</node>
	<node lat="70.39556944755873" lon="23.768633235396738" id="-42358">
		<tag k="fixme" v="consider natural=peak for the most distinct mountains in the district" />
		<tag k="name" v="Midterfjellet - Luovosvárri" />
		<tag k="name:no" v="Midterfjellet" />
		<tag k="name:se" v="Luovosvárri" />
		<tag k="natural" v="hill" />
		<tag k="old_name:se" v="Luovusvarri" />
		<tag k="place" v="locality" />
		<tag k="ssr:stedsnr" v="687768" />
	</node>
	<node lat="70.62179167279126" lon="24.07848044855942" id="-42361">
		<tag k="fixme" v="consider natural=peak for the most distinct mountains in the district" />
		<tag k="name" v="Middagsfjellet" />
		<tag k="natural" v="hill" />
		<tag k="place" v="locality" />
		<tag k="ssr:stedsnr" v="687777" />
	</node>
	<node lat="70.63752500031343" lon="24.098424874217514" id="-42362">
		<tag k="fixme" v="consider natural=peak for the most distinct mountains in the district" />
		<tag k="name" v="Slåka" />
		<tag k="natural" v="hill" />
		<tag k="place" v="locality" />
		<tag k="ssr:stedsnr" v="687782" />
	</node>
	<node lat="70.24352777807893" lon="24.043002668859348" id="-42367">
		<tag k="fixme" v="consider natural=peak for the most distinct mountains in the district" />
		<tag k="name" v="Gárdečopma" />
		<tag k="name:se" v="Gárdečopma" />
		<tag k="natural" v="hill" />
		<tag k="old_name:se" v="Gardečåbma" />
		<tag k="place" v="locality" />
		<tag k="ssr:stedsnr" v="687988" />
	</node>
	<node lat="70.16972222163582" lon="24.019924878652894" id="-42368">
		<tag k="fixme" v="consider natural=peak for the most distinct mountains in the district" />
		<tag k="name" v="Mađđoaivi" />
		<tag k="name:se" v="Mađđoaivi" />
		<tag k="natural" v="hill" />
		<tag k="place" v="locality" />
		<tag k="ssr:stedsnr" v="687950" />
	</node>
	<node lat="70.47287499871598" lon="23.459688810325694" id="-42369">
		<tag k="name" v="Geaidnovággi" />
		<tag k="name:se" v="Geaidnovággi" />
		<tag k="natural" v="valley" />
		<tag k="old_name:se" v="Gæidnuvaggi" />
		<tag k="place" v="locality" />
		<tag k="ssr:stedsnr" v="687960" />
	</node>
	<node lat="70.6489416645987" lon="23.79537490871714" id="-42372">
		<tag k="name" v="Riebansilbavárri" />
		<tag k="name:se" v="Riebansilbavárri" />
		<tag k="natural" v="hill" />
		<tag k="old_name:se" v="Riebansilbavarri" />
		<tag k="place" v="locality" />
		<tag k="ssr:stedsnr" v="688017" />
	</node>
	<node lat="70.15393334090795" lon="24.043788760297748" id="-42373">
		<tag k="name" v="Ruššoleahki" />
		<tag k="name:se" v="Ruššoleahki" />
		<tag k="natural" v="valley" />
		<tag k="old_name:se" v="Ruššulækki" />
		<tag k="place" v="locality" />
		<tag k="ssr:stedsnr" v="687967" />
	</node>
	<node lat="70.75605000061529" lon="23.316322150961152" id="-42376">
		<tag k="name" v="Tjuven" />
		<tag k="natural" v="hill" />
		<tag k="place" v="locality" />
		<tag k="ssr:stedsnr" v="688198" />
	</node>
	<node lat="70.75401944199265" lon="23.39544159804504" id="-42377">
		<tag k="fixme" v="consider natural=peak for the most distinct mountains in the district" />
		<tag k="name" v="Nova" />
		<tag k="natural" v="hill" />
		<tag k="place" v="locality" />
		<tag k="ssr:stedsnr" v="688199" />
	</node>
	<node lat="70.62834166674439" lon="24.71146373950533" id="-42380">
		<tag k="fixme" v="consider natural=peak for the most distinct mountains in the district" />
		<tag k="name" v="Ringstadfjellet - Riŋstavárri" />
		<tag k="name:no" v="Ringstadfjellet" />
		<tag k="name:se" v="Riŋstavárri" />
		<tag k="natural" v="hill" />
		<tag k="old_name:se" v="Riŋstavarri" />
		<tag k="place" v="locality" />
		<tag k="ssr:stedsnr" v="688856" />
	</node>
	<node lat="70.5687444484495" lon="24.703041525269864" id="-42382">
		<tag k="fixme" v="consider natural=peak for the most distinct mountains in the district" />
		<tag k="name" v="Guohcavárri" />
		<tag k="name:se" v="Guohcavárri" />
		<tag k="natural" v="hill" />
		<tag k="old_name:se" v="Guoccavarri" />
		<tag k="place" v="locality" />
		<tag k="ssr:stedsnr" v="688893" />
	</node>
	<node lat="70.61148889563805" lon="24.81858596159423" id="-42384">
		<tag k="fixme" v="consider natural=peak for the most distinct mountains in the district" />
		<tag k="name" v="Juovssaidčohkat" />
		<tag k="name:se" v="Juovssaidčohkat" />
		<tag k="natural" v="hill" />
		<tag k="old_name:se" v="Juovsaidčåkkat;Juovsaidčohkkat" />
		<tag k="place" v="locality" />
		<tag k="ssr:stedsnr" v="688898" />
	</node>
	<node lat="70.58428889492353" lon="23.859302676022196" id="-42386">
		<tag k="fixme" v="consider natural=peak for the most distinct mountains in the district" />
		<tag k="name" v="Svartfjellet - Muvrarášša" />
		<tag k="name:no" v="Svartfjellet" />
		<tag k="name:se" v="Muvrarášša" />
		<tag k="natural" v="hill" />
		<tag k="old_name:se" v="Muvraráššá;Muvrarašša" />
		<tag k="place" v="locality" />
		<tag k="ssr:stedsnr" v="691272" />
	</node>
	<node lat="70.47799999833411" lon="23.299247150429494" id="-42388">
		<tag k="name" v="Fosselvdalen - Sevdnjosvággi" />
		<tag k="name:no" v="Fosselvdalen" />
		<tag k="name:se" v="Sevdnjosvággi" />
		<tag k="natural" v="valley" />
		<tag k="old_name:se" v="Sevdnjusvaggi" />
		<tag k="place" v="locality" />
		<tag k="ssr:stedsnr" v="565066" />
	</node>
	<node lat="70.5423944464051" lon="23.16863603770118" id="-42398">
		<tag k="fixme" v="consider natural=peak for the most distinct mountains in the district" />
		<tag k="name" v="Kårhamnfjellet" />
		<tag k="natural" v="hill" />
		<tag k="place" v="locality" />
		<tag k="ssr:stedsnr" v="566113" />
	</node>
	<node lat="70.53716111598617" lon="23.40537493535245" id="-42400">
		<tag k="name" v="Olgočohkka" />
		<tag k="name:se" v="Olgočohkka" />
		<tag k="natural" v="hill" />
		<tag k="old_name:se" v="Ålgučåkka" />
		<tag k="place" v="locality" />
		<tag k="ssr:stedsnr" v="566124" />
	</node>
	<node lat="70.56254444890372" lon="23.95627767767763" id="-42402">
		<tag k="fixme" v="consider natural=peak for the most distinct mountains in the district" />
		<tag k="name" v="Gálbbefierranoaivi" />
		<tag k="name:se" v="Gálbbefierranoaivi" />
		<tag k="natural" v="hill" />
		<tag k="old_name:se" v="Galbefierranoaivi" />
		<tag k="place" v="locality" />
		<tag k="ssr:stedsnr" v="566206" />
	</node>
	<node lat="70.70132222049357" lon="23.26604437444156" id="-42411">
		<tag k="fixme" v="consider natural=peak for the most distinct mountains in the district" />
		<tag k="name" v="Pikfjellet" />
		<tag k="natural" v="hill" />
		<tag k="place" v="locality" />
		<tag k="ssr:stedsnr" v="566502" />
	</node>
	<node lat="70.60758889334743" lon="24.435780434253523" id="-42413">
		<tag k="fixme" v="consider natural=peak for the most distinct mountains in the district" />
		<tag k="name" v="Sivlejohrášša" />
		<tag k="name:se" v="Sivlejohrášša" />
		<tag k="natural" v="hill" />
		<tag k="old_name:se" v="Sivlejåkrašša;Sivlejotrášša" />
		<tag k="place" v="locality" />
		<tag k="ssr:stedsnr" v="566760" />
	</node>
	<node lat="70.68159166988406" lon="23.875927681932822" id="-42416">
		<tag k="name" v="Storviktåta" />
		<tag k="natural" v="hill" />
		<tag k="place" v="locality" />
		<tag k="ssr:stedsnr" v="692877" />
	</node>
	<node lat="70.56332500134774" lon="24.01795822995222" id="-42420">
		<tag k="name" v="Monsneshaugen" />
		<tag k="natural" v="hill" />
		<tag k="place" v="locality" />
		<tag k="ssr:stedsnr" v="566815" />
	</node>
	<node lat="70.44483055755146" lon="23.594722128567167" id="-42422">
		<tag k="name" v="Bákteleakvággi" />
		<tag k="name:se" v="Bákteleakvággi" />
		<tag k="natural" v="valley" />
		<tag k="old_name:se" v="Baktelækvaggi" />
		<tag k="place" v="locality" />
		<tag k="ssr:stedsnr" v="566966" />
	</node>
	<node lat="70.42935000512328" lon="23.77563878875175" id="-42423">
		<tag k="name" v="Náivuonvággi" />
		<tag k="name:se" v="Náivuonvággi" />
		<tag k="natural" v="valley" />
		<tag k="old_name:se" v="Naivuonvaggi" />
		<tag k="place" v="locality" />
		<tag k="ssr:stedsnr" v="566967" />
	</node>
	<node lat="70.41540277602365" lon="23.883897126344312" id="-42425">
		<tag k="fixme" v="consider natural=peak for the most distinct mountains in the district" />
		<tag k="name" v="Skinnfjellet - Njahkkerášša" />
		<tag k="name:no" v="Skinnfjellet" />
		<tag k="name:se" v="Njahkkerášša" />
		<tag k="natural" v="hill" />
		<tag k="old_name:se" v="Njakkerašša" />
		<tag k="place" v="locality" />
		<tag k="ssr:stedsnr" v="692994" />
	</node>
	<node lat="70.22160000479103" lon="23.76854156307455" id="-42427">
		<tag k="fixme" v="consider natural=peak for the most distinct mountains in the district" />
		<tag k="name" v="Veifjellet - Geaidnočohkka" />
		<tag k="name:no" v="Veifjellet" />
		<tag k="name:se" v="Geaidnočohkka" />
		<tag k="natural" v="hill" />
		<tag k="place" v="locality" />
		<tag k="ssr:stedsnr" v="693833" />
	</node>
	<node lat="70.6913638870938" lon="23.597694364651407" id="-42433">
		<tag k="name" v="Minefeltet" />
		<tag k="place" v="locality" />
		<tag k="ssr:stedsnr" v="576104" />
	</node>
	<node lat="70.65700277849385" lon="23.69449434120303" id="-42434">
		<tag k="name" v="Baksalen" />
		<tag k="natural" v="slope" />
		<tag k="place" v="locality" />
		<tag k="ssr:stedsnr" v="576148" />
	</node>
	<node lat="70.58558056442016" lon="24.64158040652834" id="-42440">
		<tag k="name" v="Suossavággi" />
		<tag k="name:se" v="Suossavággi" />
		<tag k="natural" v="valley" />
		<tag k="place" v="locality" />
		<tag k="ssr:stedsnr" v="578119" />
	</node>
	<node lat="70.63429445076524" lon="24.76468317397497" id="-42441">
		<tag k="fixme" v="consider natural=peak for the most distinct mountains in the district" />
		<tag k="name" v="Njukčunskáidi" />
		<tag k="name:se" v="Njukčunskáidi" />
		<tag k="natural" v="hill" />
		<tag k="place" v="locality" />
		<tag k="ssr:stedsnr" v="578146" />
	</node>
	<node lat="70.50631389383624" lon="24.037580440625764" id="-42452">
		<tag k="name" v="Kvitbergan" />
		<tag k="natural" v="hill" />
		<tag k="place" v="locality" />
		<tag k="ssr:stedsnr" v="696997" />
	</node>
	<node lat="70.72475278475297" lon="23.76437490867151" id="-42455">
		<tag k="name" v="Mylingskaret" />
		<tag k="natural" v="valley" />
		<tag k="place" v="locality" />
		<tag k="ssr:stedsnr" v="698188" />
	</node>
	<node lat="70.57149722024685" lon="23.698108241853973" id="-42457">
		<tag k="name" v="Kvitbergan" />
		<tag k="natural" v="hill" />
		<tag k="place" v="locality" />
		<tag k="ssr:stedsnr" v="698213" />
	</node>
	<node lat="70.6105194435793" lon="23.62404991412133" id="-42462">
		<tag k="name" v="Jassaskora" />
		<tag k="natural" v="valley" />
		<tag k="place" v="locality" />
		<tag k="ssr:stedsnr" v="700399" />
	</node>
	<node lat="70.13522222698165" lon="24.10784153371365" id="-42464">
		<tag k="fixme" v="consider natural=peak for the most distinct mountains in the district" />
		<tag k="name" v="Hávskesoaivi" />
		<tag k="name:se" v="Hávskesoaivi" />
		<tag k="natural" v="hill" />
		<tag k="old_name:se" v="Havskesoaivi" />
		<tag k="place" v="locality" />
		<tag k="ssr:stedsnr" v="625016" />
	</node>
	<node lat="70.72050000475285" lon="23.704402697797338" id="-42466">
		<tag k="fixme" v="consider natural=peak for the most distinct mountains in the district" />
		<tag k="name" v="Steinfjellet - Gámmevárri" />
		<tag k="name:no" v="Steinfjellet" />
		<tag k="name:se" v="Gámmevárri" />
		<tag k="natural" v="hill" />
		<tag k="old_name:se" v="Gammevarri" />
		<tag k="place" v="locality" />
		<tag k="ssr:stedsnr" v="626061" />
	</node>
	<node lat="70.56515000186889" lon="23.76898880310639" id="-42469">
		<tag k="name" v="Guohcahárji" />
		<tag k="name:se" v="Guohcahárji" />
		<tag k="natural" v="hill" />
		<tag k="old_name:se" v="Guoccaharji" />
		<tag k="place" v="locality" />
		<tag k="ssr:stedsnr" v="626211" />
	</node>
	<node lat="70.65305555359579" lon="23.85371657617883" id="-42480">
		<tag k="fixme" v="consider natural=peak for the most distinct mountains in the district" />
		<tag k="name" v="Jalgesvárri" />
		<tag k="name:se" v="Jalgesvárri" />
		<tag k="natural" v="hill" />
		<tag k="old_name:se" v="Jalgesvarri" />
		<tag k="place" v="locality" />
		<tag k="ssr:stedsnr" v="627012" />
	</node>
	<node lat="70.61228611589574" lon="24.71159706406689" id="-42481">
		<tag k="name" v="Storberget" />
		<tag k="natural" v="hill" />
		<tag k="place" v="locality" />
		<tag k="ssr:stedsnr" v="626908" />
	</node>
	<node lat="70.20772500212074" lon="24.065658204018202" id="-42482">
		<tag k="fixme" v="consider natural=peak for the most distinct mountains in the district" />
		<tag k="name" v="Jorehačopma" />
		<tag k="name:se" v="Jorehačopma" />
		<tag k="natural" v="hill" />
		<tag k="old_name:se" v="Jårehačåbma" />
		<tag k="place" v="locality" />
		<tag k="ssr:stedsnr" v="626949" />
	</node>
	<node lat="70.75649444566149" lon="23.142455498149282" id="-42485">
		<tag k="fixme" v="consider natural=peak for the most distinct mountains in the district" />
		<tag k="name" v="Skarvtinden" />
		<tag k="natural" v="hill" />
		<tag k="place" v="locality" />
		<tag k="ssr:stedsnr" v="627200" />
	</node>
	<node lat="70.55687778306877" lon="24.62663041601725" id="-42491">
		<tag k="fixme" v="consider natural=peak for the most distinct mountains in the district" />
		<tag k="name" v="Lavnnjetoaivi" />
		<tag k="name:se" v="Lavnnjetoaivi" />
		<tag k="natural" v="hill" />
		<tag k="old_name:se" v="Lavnjetoaivi" />
		<tag k="place" v="locality" />
		<tag k="ssr:stedsnr" v="627900" />
	</node>
	<node lat="70.55413889784678" lon="24.6457526247031" id="-42493">
		<tag k="name" v="Lavnnjetvággi" />
		<tag k="name:se" v="Lavnnjetvággi" />
		<tag k="natural" v="valley" />
		<tag k="old_name:se" v="Lavnjetvaggi" />
		<tag k="place" v="locality" />
		<tag k="ssr:stedsnr" v="627948" />
	</node>
	<node lat="70.57549166596606" lon="23.52510268227157" id="-42495">
		<tag k="name" v="Seilandstunga" />
		<tag k="natural" v="hill" />
		<tag k="place" v="locality" />
		<tag k="ssr:stedsnr" v="630898" />
	</node>
	<node lat="70.61243611730671" lon="23.6967193428691" id="-42498">
		<tag k="fixme" v="consider natural=peak for the most distinct mountains in the district" />
		<tag k="name" v="Ørntinden" />
		<tag k="natural" v="hill" />
		<tag k="place" v="locality" />
		<tag k="ssr:stedsnr" v="634811" />
	</node>
	<node lat="70.47499166486446" lon="23.862002682617312" id="-42501">
		<tag k="name" v="Morderhaugen" />
		<tag k="natural" v="hill" />
		<tag k="place" v="locality" />
		<tag k="ssr:stedsnr" v="635990" />
	</node>
	<node lat="70.64978888789719" lon="23.738091578716634" id="-42506">
		<tag k="name" v="Mellomskaret" />
		<tag k="natural" v="valley" />
		<tag k="place" v="locality" />
		<tag k="ssr:stedsnr" v="637177" />
	</node>
</osm>
