<?xml version="1.0" encoding="UTF-8"?>
<osm version="0.6" generator="osmapis">
	<node lat="70.65751388860852" lon="23.435261023672258" id="-38475">
		<tag k="name" v="Håja - Jievju" />
		<tag k="name:no" v="Håja" />
		<tag k="name:se" v="Jievju" />
		<tag k="old_name:se" v="Jievjo" />
		<tag k="place" v="island" />
		<tag k="ssr:stedsnr" v="20011" />
	</node>
	<node lat="70.73653611811288" lon="23.81314989719098" id="-38476">
		<tag k="alt_name" v="Laddoskjeret" />
		<tag k="fixme" v="consider seamark:type=rock or natural=shoal" />
		<tag k="name" v="Laddoskjæran" />
		<tag k="place" v="islet" />
		<tag k="ssr:stedsnr" v="20038" />
	</node>
	<node lat="70.81665278271555" lon="23.054463824520646" id="-38477">
		<tag k="alt_name" v="Saksnæringskjera" />
		<tag k="fixme" v="consider seamark:type=rock or natural=shoal" />
		<tag k="name" v="Saksnæringskjæran" />
		<tag k="place" v="islet" />
		<tag k="ssr:stedsnr" v="20088" />
	</node>
	<node lat="70.54803889539308" lon="22.93823604416382" id="-38478">
		<tag k="name" v="Skredbukta" />
		<tag k="natural" v="bay" />
		<tag k="ssr:stedsnr" v="20094" />
	</node>
	<node lat="70.54746110986827" lon="23.24798604183163" id="-38479">
		<tag k="alt_name" v="Veggenes, s" />
		<tag k="name" v="Søre Veggenes" />
		<tag k="natural" v="cape" />
		<tag k="ssr:stedsnr" v="20096" />
	</node>
	<node lat="70.65598889566728" lon="24.54174708481652" id="-38483">
		<tag k="name" v="Fuglholmen - Lássá" />
		<tag k="name:no" v="Fuglholmen" />
		<tag k="name:se" v="Lássá" />
		<tag k="old_name:se" v="Lassa" />
		<tag k="place" v="islet" />
		<tag k="ssr:stedsnr" v="20141" />
	</node>
	<node lat="70.73357222417306" lon="22.954430500910497" id="-38487">
		<tag k="name" v="Svegrunnen" />
		<tag k="natural" v="shoal" />
		<tag k="place" v="locality" />
		<tag k="ssr:stedsnr" v="20286" />
	</node>
	<node lat="70.57828889141408" lon="23.386186019356636" id="-38488">
		<tag k="name" v="Vinna - Stuora Skihččol" />
		<tag k="name:no" v="Vinna" />
		<tag k="name:se" v="Stuora Skihččol" />
		<tag k="old_name:se" v="Skiččul stuora" />
		<tag k="place" v="island" />
		<tag k="ssr:stedsnr" v="20393" />
	</node>
	<node lat="70.58660833635047" lon="23.01008603610555" id="-38489">
		<tag k="name" v="Krånki" />
		<tag k="natural" v="bay" />
		<tag k="ssr:stedsnr" v="20397" />
	</node>
	<node lat="70.67811944421773" lon="22.943463832985778" id="-38493">
		<tag k="name" v="Ytterbukta" />
		<tag k="natural" v="bay" />
		<tag k="ssr:stedsnr" v="20453" />
	</node>
	<node lat="70.71204444813863" lon="23.02331383099664" id="-38494">
		<tag k="name" v="Grasdalgrunnen" />
		<tag k="natural" v="shoal" />
		<tag k="place" v="locality" />
		<tag k="ssr:stedsnr" v="20487" />
	</node>
	<node lat="70.63687778426913" lon="24.22994989391972" id="-38497">
		<tag k="name" v="Sommarvikneset" />
		<tag k="natural" v="cape" />
		<tag k="ssr:stedsnr" v="20797" />
	</node>
	<node lat="70.54537500585738" lon="24.000824886617853" id="-38500">
		<tag k="name" v="Storbukta - Goavdeluokta" />
		<tag k="name:no" v="Storbukta" />
		<tag k="name:se" v="Goavdeluokta" />
		<tag k="natural" v="bay" />
		<tag k="ssr:stedsnr" v="20811" />
	</node>
	<node lat="70.48612777774582" lon="24.205338767179605" id="-38502">
		<tag k="name" v="Ollineset" />
		<tag k="natural" v="cape" />
		<tag k="ssr:stedsnr" v="20847" />
	</node>
	<node lat="70.48923611358053" lon="23.838352672903877" id="-38508">
		<tag k="name" v="Skapeluftlandet" />
		<tag k="natural" v="beach" />
		<tag k="ssr:stedsnr" v="25809" />
	</node>
	<node lat="70.53450556181075" lon="24.101147099247243" id="-38513">
		<tag k="name" v="Mollfjæra" />
		<tag k="natural" v="beach" />
		<tag k="ssr:stedsnr" v="29977" />
	</node>
	<node lat="70.68656388913627" lon="23.630438796768768" id="-38515">
		<tag k="name" v="Kransviknes" />
		<tag k="natural" v="cape" />
		<tag k="ssr:stedsnr" v="30117" />
	</node>
	<node lat="70.69575000174804" lon="23.807258229663145" id="-38519">
		<tag k="name" v="Revet" />
		<tag k="natural" v="strait" />
		<tag k="ssr:stedsnr" v="31220" />
	</node>
	<node lat="70.62542222942929" lon="24.67959151036805" id="-38520">
		<tag k="name" v="Gárgu" />
		<tag k="name:se" v="Gárgu" />
		<tag k="natural" v="beach" />
		<tag k="ssr:stedsnr" v="32103" />
	</node>
	<node lat="70.74715555545667" lon="22.968158268936136" id="-38521">
		<tag k="fixme" v="consider seamark:type=rock or natural=shoal" />
		<tag k="name" v="Stangskjæret" />
		<tag k="place" v="islet" />
		<tag k="ssr:stedsnr" v="33585" />
	</node>
	<node lat="70.52502500674863" lon="22.891886044183515" id="-38522">
		<tag k="fixme" v="consider seamark:type=rock or natural=shoal" />
		<tag k="name" v="Rødbergskjæret" />
		<tag k="place" v="islet" />
		<tag k="ssr:stedsnr" v="34612" />
	</node>
	<node lat="70.67567500573028" lon="24.47526930349218" id="-38533">
		<tag k="name" v="Danielsvikneset" />
		<tag k="natural" v="cape" />
		<tag k="ssr:stedsnr" v="80124" />
	</node>
	<node lat="70.78699166898606" lon="23.504691589845503" id="-38536">
		<tag k="name" v="Lillenæringen" />
		<tag k="natural" v="cape" />
		<tag k="ssr:stedsnr" v="80241" />
	</node>
	<node lat="70.6855416693023" lon="24.37979985950356" id="-38543">
		<tag k="name" v="Storvikneset" />
		<tag k="natural" v="cape" />
		<tag k="ssr:stedsnr" v="81019" />
	</node>
	<node lat="70.5326972268166" lon="24.120649873130183" id="-38544">
		<tag k="name" v="Innerneset - Miefnjárga" />
		<tag k="name:no" v="Innerneset" />
		<tag k="name:se" v="Miefnjárga" />
		<tag k="natural" v="cape" />
		<tag k="old_name:se" v="Miefnjarga" />
		<tag k="ssr:stedsnr" v="81022" />
	</node>
	<node lat="70.51903889481113" lon="23.295524927744044" id="-38545">
		<tag k="bay" v="fjord" />
		<tag k="name" v="Tverrfjorden - Doaresvuonna" />
		<tag k="name:no" v="Tverrfjorden" />
		<tag k="name:se" v="Doaresvuonna" />
		<tag k="natural" v="bay" />
		<tag k="old_name:se" v="Doaresvuodna" />
		<tag k="ssr:stedsnr" v="81035" />
	</node>
	<node lat="70.81620833177274" lon="23.25736381744339" id="-38547">
		<tag k="bay" v="fjord" />
		<tag k="name" v="Gamvikfjorden" />
		<tag k="natural" v="bay" />
		<tag k="ssr:stedsnr" v="81104" />
	</node>
	<node lat="70.64213610964043" lon="24.113463778694936" id="-38548">
		<tag k="name" v="Kalvikneset" />
		<tag k="natural" v="cape" />
		<tag k="ssr:stedsnr" v="81141" />
	</node>
	<node lat="70.70254999985505" lon="24.454435982169528" id="-38550">
		<tag k="bay" v="fjord" />
		<tag k="name" v="Revsbotn - Jáhkovuonna" />
		<tag k="name:no" v="Revsbotn" />
		<tag k="name:se" v="Jáhkovuonna" />
		<tag k="natural" v="bay" />
		<tag k="old_name:se" v="Jakkuvuodna;Jáhkovuotna" />
		<tag k="ssr:stedsnr" v="81190" />
	</node>
	<node lat="70.70983055820851" lon="24.34087486715267" id="-38551">
		<tag k="alt_name" v="Nesegrunnen, s" />
		<tag k="name" v="Søre Nesegrunnen" />
		<tag k="natural" v="shoal" />
		<tag k="place" v="locality" />
		<tag k="ssr:stedsnr" v="81194" />
	</node>
	<node lat="70.74538611193677" lon="23.69137491076326" id="-38552">
		<tag k="name" v="Mylingsbukta" />
		<tag k="natural" v="bay" />
		<tag k="ssr:stedsnr" v="81087" />
	</node>
	<node lat="70.72683333088975" lon="22.868777716675226" id="-38553">
		<tag k="name" v="Reppaneset" />
		<tag k="natural" v="cape" />
		<tag k="ssr:stedsnr" v="81287" />
	</node>
	<node lat="70.71307222359678" lon="23.332916584621092" id="-38554">
		<tag k="name" v="Nordnes" />
		<tag k="natural" v="cape" />
		<tag k="ssr:stedsnr" v="81289" />
	</node>
	<node lat="70.73621944335261" lon="22.96446103513562" id="-38557">
		<tag k="name" v="Per-Nilsagrunnen" />
		<tag k="natural" v="shoal" />
		<tag k="place" v="locality" />
		<tag k="ssr:stedsnr" v="81300" />
	</node>
	<node lat="70.60988888828366" lon="23.387997149609255" id="-38558">
		<tag k="name" v="Lille Fagervika - Unna-Fádderviikaš" />
		<tag k="name:no" v="Lille Fagervika" />
		<tag k="name:se" v="Unna-Fádderviikaš" />
		<tag k="natural" v="bay" />
		<tag k="ssr:stedsnr" v="81436" />
	</node>
	<node lat="70.70763055436147" lon="23.32402493461221" id="-38559">
		<tag k="name" v="Piggsteinen" />
		<tag k="natural" v="cape" />
		<tag k="ssr:stedsnr" v="81524" />
	</node>
	<node lat="70.56315833618466" lon="24.034299878557576" id="-38561">
		<tag k="name" v="Bergeneset" />
		<tag k="natural" v="cape" />
		<tag k="ssr:stedsnr" v="81813" />
	</node>
	<node lat="70.58018611068735" lon="23.477144357195108" id="-38568">
		<tag k="name" v="Krangelnes" />
		<tag k="natural" v="cape" />
		<tag k="ssr:stedsnr" v="85886" />
	</node>
	<node lat="70.50953611601234" lon="23.825033223386693" id="-38569">
		<tag k="name" v="Lábbágohppi" />
		<tag k="name:se" v="Lábbágohppi" />
		<tag k="natural" v="bay" />
		<tag k="ssr:stedsnr" v="89613" />
	</node>
	<node lat="70.78521111555462" lon="23.376338810245" id="-38578">
		<tag k="name" v="Akkarfjordbotn" />
		<tag k="natural" v="bay" />
		<tag k="ssr:stedsnr" v="93216" />
	</node>
	<node lat="70.56074166774127" lon="23.69351936357629" id="-38579">
		<tag k="name" v="Indrevalen" />
		<tag k="place" v="locality" />
		<tag k="ssr:stedsnr" v="93426" />
	</node>
	<node lat="70.48668611167763" lon="23.665519339473764" id="-38584">
		<tag k="name" v="Skjærgrunnen" />
		<tag k="natural" v="shoal" />
		<tag k="place" v="locality" />
		<tag k="ssr:stedsnr" v="94163" />
	</node>
	<node lat="70.48413611199061" lon="23.652566566769966" id="-38585">
		<tag k="fixme" v="consider seamark:type=rock or natural=shoal" />
		<tag k="name" v="Komagskjæret" />
		<tag k="place" v="islet" />
		<tag k="ssr:stedsnr" v="94166" />
	</node>
	<node lat="70.57671111195427" lon="23.348049917917223" id="-38588">
		<tag k="name" v="Kalvvikneset" />
		<tag k="natural" v="cape" />
		<tag k="ssr:stedsnr" v="140397" />
	</node>
	<node lat="70.69431111519573" lon="23.81047489821601" id="-38592">
		<tag k="name" v="Pollen - Bollovuotna" />
		<tag k="name:no" v="Pollen" />
		<tag k="name:se" v="Bollovuotna" />
		<tag k="natural" v="bay" />
		<tag k="old_name:se" v="Bålluvuodna" />
		<tag k="ssr:stedsnr" v="141006" />
	</node>
	<node lat="70.72313888853768" lon="23.644788806377363" id="-38593">
		<tag k="name" v="Kvalvikneset" />
		<tag k="natural" v="cape" />
		<tag k="ssr:stedsnr" v="141038" />
	</node>
	<node lat="70.72363889022837" lon="23.646802681305488" id="-38594">
		<tag k="alt_name" v="Kvalvika, in" />
		<tag k="name" v="Indre Kvalvika" />
		<tag k="natural" v="bay" />
		<tag k="ssr:stedsnr" v="141042" />
	</node>
	<node lat="70.7927083364459" lon="23.329583255853073" id="-38595">
		<tag k="name" v="Nordbukta" />
		<tag k="natural" v="bay" />
		<tag k="ssr:stedsnr" v="141083" />
	</node>
	<node lat="70.78999166806001" lon="23.3081054935406" id="-38596">
		<tag k="name" v="Finnvika" />
		<tag k="natural" v="bay" />
		<tag k="ssr:stedsnr" v="141084" />
	</node>
	<node lat="70.50148056184113" lon="23.161513812084152" id="-38597">
		<tag k="name" v="Hamnebukta" />
		<tag k="natural" v="bay" />
		<tag k="ssr:stedsnr" v="141092" />
	</node>
	<node lat="70.58838889152725" lon="23.63166657509458" id="-38600">
		<tag k="name" v="Lysgrunnen" />
		<tag k="natural" v="shoal" />
		<tag k="place" v="locality" />
		<tag k="ssr:stedsnr" v="141237" />
	</node>
	<node lat="70.4107888944992" lon="23.55267213012735" id="-38601">
		<tag k="alt_name:no" v="Oldervika" />
		<tag k="name" v="Olderbukta - Guicagohppi" />
		<tag k="name:no" v="Olderbukta" />
		<tag k="name:se" v="Guicagohppi" />
		<tag k="natural" v="bay" />
		<tag k="old_name:se" v="Guicagåppi" />
		<tag k="ssr:stedsnr" v="140988" />
	</node>
	<node lat="70.817466664931" lon="23.07217494067112" id="-38603">
		<tag k="name" v="Saksnæringen" />
		<tag k="natural" v="cape" />
		<tag k="ssr:stedsnr" v="141106" />
	</node>
	<node lat="70.72056389253726" lon="24.392655433288677" id="-38605">
		<tag k="name" v="Stakgrunnen" />
		<tag k="natural" v="shoal" />
		<tag k="place" v="locality" />
		<tag k="ssr:stedsnr" v="141183" />
	</node>
	<node lat="70.51553889066696" lon="22.77379993397866" id="-38606">
		<tag k="alt_name" v="Langstranda" />
		<tag k="name" v="Langstrand" />
		<tag k="natural" v="beach" />
		<tag k="ssr:stedsnr" v="141303" />
	</node>
	<node lat="70.51105278066387" lon="22.812516607755978" id="-38607">
		<tag k="name" v="Rundholmen" />
		<tag k="place" v="islet" />
		<tag k="ssr:stedsnr" v="141304" />
	</node>
	<node lat="70.62138055895362" lon="23.101899933276272" id="-38614">
		<tag k="name" v="Kjerraneset" />
		<tag k="natural" v="cape" />
		<tag k="ssr:stedsnr" v="141434" />
	</node>
	<node lat="70.56607500728033" lon="24.04124987968419" id="-38615">
		<tag k="loc_name:se" v="Suovdeluokta" />
		<tag k="name" v="Toknebukta" />
		<tag k="name:no" v="Toknebukta" />
		<tag k="natural" v="bay" />
		<tag k="ssr:stedsnr" v="141785" />
	</node>
	<node lat="70.47608055933586" lon="24.311577649313605" id="-38631">
		<tag k="name" v="Storstein" />
		<tag k="natural" v="beach" />
		<tag k="ssr:stedsnr" v="150922" />
	</node>
	<node lat="70.64879166821665" lon="23.63599436075902" id="-38637">
		<tag k="name" v="Langstrand" />
		<tag k="natural" v="beach" />
		<tag k="ssr:stedsnr" v="152202" />
	</node>
	<node lat="70.57971111397585" lon="23.688766578732373" id="-38638">
		<tag k="name" v="Grøtneslandet" />
		<tag k="natural" v="beach" />
		<tag k="ssr:stedsnr" v="152251" />
	</node>
	<node lat="70.60595555751397" lon="23.599908252403555" id="-38644">
		<tag k="name" v="Steinvikgrunnen" />
		<tag k="natural" v="shoal" />
		<tag k="place" v="locality" />
		<tag k="ssr:stedsnr" v="153404" />
	</node>
	<node lat="70.59970556091962" lon="23.583122137235335" id="-38645">
		<tag k="name" v="Kommagnesgrunnen" />
		<tag k="natural" v="shoal" />
		<tag k="place" v="locality" />
		<tag k="ssr:stedsnr" v="153406" />
	</node>
	<node lat="70.54174445027475" lon="23.213202710580923" id="-38646">
		<tag k="name" v="Kobbevikneset" />
		<tag k="natural" v="cape" />
		<tag k="ssr:stedsnr" v="262098" />
	</node>
	<node lat="70.76562777834786" lon="22.76763328917063" id="-38648">
		<tag k="name" v="Kjerringbukta" />
		<tag k="natural" v="bay" />
		<tag k="ssr:stedsnr" v="262122" />
	</node>
	<node lat="70.49987222120379" lon="23.205894363085687" id="-38650">
		<tag k="name" v="Sandvannet" />
		<tag k="natural" v="bay" />
		<tag k="ssr:stedsnr" v="179558" />
	</node>
	<node lat="70.84412222041972" lon="23.231233261870642" id="-38653">
		<tag k="alt_name" v="Gamvikskjera, store" />
		<tag k="fixme" v="consider seamark:type=rock or natural=shoal" />
		<tag k="name" v="Store Gamvikskjera" />
		<tag k="place" v="islet" />
		<tag k="ssr:stedsnr" v="262069" />
	</node>
	<node lat="70.48425555933618" lon="23.131708266767603" id="-38654">
		<tag k="name" v="Sørbotn" />
		<tag k="natural" v="bay" />
		<tag k="ssr:stedsnr" v="262070" />
	</node>
	<node lat="70.68201389129233" lon="24.444860974006417" id="-38656">
		<tag k="name" v="Langkeila" />
		<tag k="natural" v="bay" />
		<tag k="ssr:stedsnr" v="262136" />
	</node>
	<node lat="70.81631944720556" lon="22.950236065521896" id="-38658">
		<tag k="name" v="Skarvholmskallen" />
		<tag k="natural" v="shoal" />
		<tag k="place" v="locality" />
		<tag k="ssr:stedsnr" v="262084" />
	</node>
	<node lat="70.61034999963867" lon="23.574744348108805" id="-38666">
		<tag k="name" v="Bukkøya - Bohkkasuolu" />
		<tag k="name:no" v="Bukkøya" />
		<tag k="name:se" v="Bohkkasuolu" />
		<tag k="old_name:se" v="Båkkasuolo" />
		<tag k="place" v="island" />
		<tag k="ssr:stedsnr" v="262227" />
	</node>
	<node lat="70.59805000029267" lon="23.66534158817152" id="-38667">
		<tag k="name" v="Mollstrandneset - Molstrandnjárga" />
		<tag k="name:no" v="Mollstrandneset" />
		<tag k="name:se" v="Molstrandnjárga" />
		<tag k="natural" v="cape" />
		<tag k="ssr:stedsnr" v="262239" />
	</node>
	<node lat="70.53932500442838" lon="22.716577711919754" id="-38669">
		<tag k="name" v="Rekvedbukta" />
		<tag k="natural" v="bay" />
		<tag k="ssr:stedsnr" v="262289" />
	</node>
	<node lat="70.66358333216637" lon="22.980727719457455" id="-38670">
		<tag k="name" v="Tverrlandet" />
		<tag k="natural" v="beach" />
		<tag k="ssr:stedsnr" v="262463" />
	</node>
	<node lat="70.47919167451266" lon="24.257363764315645" id="-38688">
		<tag k="name" v="Márgohppi" />
		<tag k="name:se" v="Márgohppi" />
		<tag k="natural" v="bay" />
		<tag k="old_name:se" v="Margåppi" />
		<tag k="ssr:stedsnr" v="262877" />
	</node>
	<node lat="70.72392222307583" lon="23.888311010043033" id="-38694">
		<tag k="alt_name" v="Tjuvgrunnen, øvre" />
		<tag k="name" v="Øvre Tjuvgrunnen" />
		<tag k="natural" v="shoal" />
		<tag k="place" v="locality" />
		<tag k="ssr:stedsnr" v="263044" />
	</node>
	<node lat="70.55029445161006" lon="23.70790822967908" id="-38699">
		<tag k="name" v="Skjåholmen - Skadjasuolu" />
		<tag k="name:no" v="Skjåholmen" />
		<tag k="name:se" v="Skadjasuolu" />
		<tag k="old_name:se" v="Skaddjasuolo" />
		<tag k="place" v="islet" />
		<tag k="ssr:stedsnr" v="263218" />
	</node>
	<node lat="70.51014444523298" lon="23.77449990325447" id="-38701">
		<tag k="name" v="Stangnes - Stággonjárga" />
		<tag k="name:no" v="Stangnes" />
		<tag k="name:se" v="Stággonjárga" />
		<tag k="natural" v="cape" />
		<tag k="old_name:se" v="Staggunjarga" />
		<tag k="ssr:stedsnr" v="263188" />
	</node>
	<node lat="70.62714722179551" lon="23.391522131932238" id="-38706">
		<tag k="name" v="Grunnvågneset" />
		<tag k="natural" v="cape" />
		<tag k="ssr:stedsnr" v="263443" />
	</node>
	<node lat="70.69772499815548" lon="23.160238824927028" id="-38708">
		<tag k="name" v="Værbotn" />
		<tag k="natural" v="bay" />
		<tag k="ssr:stedsnr" v="263514" />
	</node>
	<node lat="70.70998889452213" lon="22.93344993439826" id="-38709">
		<tag k="name" v="Kvalvika" />
		<tag k="natural" v="bay" />
		<tag k="ssr:stedsnr" v="263525" />
	</node>
	<node lat="70.70799444622345" lon="22.93064993127486" id="-38710">
		<tag k="alt_name" v="Bromleneset" />
		<tag k="name" v="Brommelnes" />
		<tag k="natural" v="cape" />
		<tag k="ssr:stedsnr" v="263527" />
	</node>
	<node lat="70.49372500509132" lon="24.197347106810216" id="-38711">
		<tag k="bay" v="fjord" />
		<tag k="name" v="Repparfjorden - Riehpovuotna" />
		<tag k="name:no" v="Repparfjorden" />
		<tag k="name:se" v="Riehpovuotna" />
		<tag k="natural" v="bay" />
		<tag k="old_name:se" v="Rieppuvuodna" />
		<tag k="ssr:stedsnr" v="263835" />
	</node>
	<node lat="70.60196111494436" lon="24.225358220221782" id="-38712">
		<tag k="name" v="Kvalvika - Fálesluokta" />
		<tag k="name:no" v="Kvalvika" />
		<tag k="name:se" v="Fálesluokta" />
		<tag k="natural" v="bay" />
		<tag k="old_name:se" v="Falesluokta" />
		<tag k="ssr:stedsnr" v="263760" />
	</node>
	<node lat="70.67525555480859" lon="23.003916590039967" id="-38722">
		<tag k="name" v="Sandvika" />
		<tag k="natural" v="bay" />
		<tag k="ssr:stedsnr" v="267015" />
	</node>
	<node lat="70.31600555415227" lon="22.992624920815416" id="-38729">
		<tag k="name" v="Rognsundet - Čoalmmenuorri" />
		<tag k="name:no" v="Rognsundet" />
		<tag k="name:se" v="Čoalmmenuorri" />
		<tag k="natural" v="strait" />
		<tag k="old_name:se" v="Čoalmenuorri" />
		<tag k="ssr:stedsnr" v="201895" />
	</node>
	<node lat="70.55943611582396" lon="23.449977687524818" id="-38732">
		<tag k="name" v="Djupvika" />
		<tag k="natural" v="bay" />
		<tag k="ssr:stedsnr" v="202194" />
	</node>
	<node lat="70.7462777797833" lon="23.72863880845377" id="-38738">
		<tag k="alt_name" v="Mortebøbukta" />
		<tag k="name" v="Mortebåbukta" />
		<tag k="natural" v="bay" />
		<tag k="ssr:stedsnr" v="202088" />
	</node>
	<node lat="70.76976944588257" lon="22.79834994189801" id="-38741">
		<tag k="name" v="Stålet" />
		<tag k="natural" v="cape" />
		<tag k="ssr:stedsnr" v="202099" />
	</node>
	<node lat="70.72129166481376" lon="23.096652708820205" id="-38744">
		<tag k="name" v="Veststraumen" />
		<tag k="natural" v="bay" />
		<tag k="ssr:stedsnr" v="202267" />
	</node>
	<node lat="70.79063055993362" lon="23.028472156764916" id="-38748">
		<tag k="name" v="Skarvnæringen" />
		<tag k="natural" v="cape" />
		<tag k="ssr:stedsnr" v="202553" />
	</node>
	<node lat="70.63008889529065" lon="24.105224903713093" id="-38754">
		<tag k="bay" v="fjord" />
		<tag k="name" v="Mellafjorden - Gaska-Dorskavuotna" />
		<tag k="name:no" v="Mellafjorden" />
		<tag k="name:se" v="Gaska-Dorskavuotna" />
		<tag k="natural" v="bay" />
		<tag k="old_name:no" v="Torskefjorden, midtre;m Torskefjord;Midtre Torskefjorden" />
		<tag k="old_name:se" v="Dårskavuodna gaska" />
		<tag k="ssr:stedsnr" v="202797" />
	</node>
	<node lat="70.68611388969627" lon="23.60327769620706" id="-38767">
		<tag k="name" v="Lillekeila" />
		<tag k="natural" v="bay" />
		<tag k="ssr:stedsnr" v="213114" />
	</node>
	<node lat="70.5663833401055" lon="24.135630436785192" id="-38774">
		<tag k="alt_name" v="Johannesnestangen" />
		<tag k="name" v="Johannesnes" />
		<tag k="natural" v="cape" />
		<tag k="ssr:stedsnr" v="271984" />
	</node>
	<node lat="70.4886972239176" lon="24.149774877140107" id="-38776">
		<tag k="name" v="Perneset" />
		<tag k="natural" v="cape" />
		<tag k="ssr:stedsnr" v="271991" />
	</node>
	<node lat="70.689847221254" lon="23.616727681377796" id="-38786">
		<tag k="name" v="Melkøyneset" />
		<tag k="natural" v="cape" />
		<tag k="ssr:stedsnr" v="455097" />
	</node>
	<node lat="70.68332499893582" lon="23.585983254358137" id="-38787">
		<tag k="name" v="Skagodden" />
		<tag k="natural" v="cape" />
		<tag k="ssr:stedsnr" v="455119" />
	</node>
	<node lat="70.64533611257527" lon="23.651533243852874" id="-38790">
		<tag k="name" v="Rørvik" />
		<tag k="natural" v="bay" />
		<tag k="ssr:stedsnr" v="456176" />
	</node>
	<node lat="70.73029166857863" lon="23.81095823643643" id="-38791">
		<tag k="name" v="Auersbukta" />
		<tag k="natural" v="bay" />
		<tag k="ssr:stedsnr" v="456227" />
	</node>
	<node lat="70.63491389203551" lon="23.663519366151167" id="-38793">
		<tag k="name" v="Kvalviknes" />
		<tag k="natural" v="cape" />
		<tag k="ssr:stedsnr" v="456200" />
	</node>
	<node lat="70.5324777786346" lon="22.93298050536694" id="-38795">
		<tag k="name" v="Vatnhamna - Váhttángohppi" />
		<tag k="name:no" v="Vatnhamna" />
		<tag k="name:se" v="Váhttángohppi" />
		<tag k="natural" v="bay" />
		<tag k="ssr:stedsnr" v="457566" />
	</node>
	<node lat="70.6426777779737" lon="23.155049924576193" id="-38796">
		<tag k="name" v="Nordsida" />
		<tag k="natural" v="beach" />
		<tag k="ssr:stedsnr" v="456995" />
	</node>
	<node lat="70.61660000580476" lon="23.576397142182106" id="-38797">
		<tag k="name" v="Taregrunnen" />
		<tag k="natural" v="shoal" />
		<tag k="place" v="locality" />
		<tag k="ssr:stedsnr" v="457448" />
	</node>
	<node lat="70.74092222270988" lon="23.136049945774676" id="-38799">
		<tag k="bay" v="fjord" />
		<tag k="name" v="Hønsebyfjorden" />
		<tag k="natural" v="bay" />
		<tag k="ssr:stedsnr" v="457480" />
	</node>
	<node lat="70.53894722243065" lon="23.124608275680757" id="-38800">
		<tag k="name" v="Klemetbukta - Lohnjárgohppi" />
		<tag k="name:no" v="Klemetbukta" />
		<tag k="name:se" v="Lohnjárgohppi" />
		<tag k="natural" v="bay" />
		<tag k="old_name:se" v="Låtnjargåppi" />
		<tag k="ssr:stedsnr" v="262104" />
	</node>
	<node lat="70.88416666600214" lon="23.624999919117144" id="-38804">
		<tag k="name" v="Yttergrunnen" />
		<tag k="natural" v="shoal" />
		<tag k="place" v="locality" />
		<tag k="ssr:stedsnr" v="262148" />
	</node>
	<node lat="70.87612500466047" lon="23.73843325201043" id="-38805">
		<tag k="name" v="Austergrunnen" />
		<tag k="natural" v="shoal" />
		<tag k="place" v="locality" />
		<tag k="ssr:stedsnr" v="262151" />
	</node>
	<node lat="70.52345000031227" lon="22.72946105315168" id="-38806">
		<tag k="bay" v="fjord" />
		<tag k="name" v="Kobbefjorden - Gohppalvuotna" />
		<tag k="name:no" v="Kobbefjorden" />
		<tag k="name:se" v="Gohppalvuotna" />
		<tag k="natural" v="bay" />
		<tag k="old_name:se" v="Gåppalvuodna" />
		<tag k="ssr:stedsnr" v="262298" />
	</node>
	<node lat="70.5745416697595" lon="23.0672971445931" id="-38807">
		<tag k="alt_name" v="Finnfellbukta" />
		<tag k="name" v="Finnfellen" />
		<tag k="natural" v="bay" />
		<tag k="ssr:stedsnr" v="262393" />
	</node>
	<node lat="70.5739111102942" lon="22.887402722652645" id="-38808">
		<tag k="name" v="Pollen" />
		<tag k="natural" v="bay" />
		<tag k="old_name" v="Mebotn;Midbotn" />
		<tag k="ssr:stedsnr" v="262398" />
	</node>
	<node lat="70.69339167077747" lon="23.001672154015615" id="-38810">
		<tag k="name" v="Stor-Sandvikholmen" />
		<tag k="place" v="islet" />
		<tag k="ssr:stedsnr" v="262506" />
	</node>
	<node lat="70.67867222830971" lon="23.395211027834154" id="-38811">
		<tag k="name" v="Ravelsgrunnen" />
		<tag k="natural" v="shoal" />
		<tag k="place" v="locality" />
		<tag k="ssr:stedsnr" v="262493" />
	</node>
	<node lat="70.52217777820108" lon="23.11201936219715" id="-38822">
		<tag k="bay" v="fjord" />
		<tag k="name" v="Skreifjorden - Govdavuonna" />
		<tag k="name:no" v="Skreifjorden" />
		<tag k="name:se" v="Govdavuonna" />
		<tag k="natural" v="bay" />
		<tag k="old_name:se" v="Gåvdavuodna" />
		<tag k="ssr:stedsnr" v="263093" />
	</node>
	<node lat="70.52004999937766" lon="23.27626103010804" id="-38823">
		<tag k="name" v="Gammelværneset" />
		<tag k="natural" v="cape" />
		<tag k="ssr:stedsnr" v="263096" />
	</node>
	<node lat="70.5072194457873" lon="23.24827491308865" id="-38825">
		<tag k="alt_name" v="Sauneset" />
		<tag k="name" v="Sandnes" />
		<tag k="natural" v="cape" />
		<tag k="ssr:stedsnr" v="263100" />
	</node>
	<node lat="70.7551611157785" lon="23.07379159755073" id="-38826">
		<tag k="alt_name" v="Holmegrunnen" />
		<tag k="name" v="Holmgrunnen" />
		<tag k="natural" v="shoal" />
		<tag k="place" v="locality" />
		<tag k="ssr:stedsnr" v="263204" />
	</node>
	<node lat="70.72909444363502" lon="23.360688799275426" id="-38827">
		<tag k="name" v="Skippernesodden - Skihppanas" />
		<tag k="name:no" v="Skippernesodden" />
		<tag k="name:se" v="Skihppanas" />
		<tag k="natural" v="cape" />
		<tag k="ssr:stedsnr" v="263291" />
	</node>
	<node lat="70.55411667181792" lon="24.104960996188968" id="-38836">
		<tag k="name" v="Enkeneset - Deafnjárga" />
		<tag k="name:no" v="Enkeneset" />
		<tag k="name:se" v="Deafnjárga" />
		<tag k="natural" v="cape" />
		<tag k="old_name:se" v="Dæfnjarga" />
		<tag k="ssr:stedsnr" v="263798" />
	</node>
	<node lat="70.41518055683396" lon="23.660199905548115" id="-38838">
		<tag k="name" v="Noppen" />
		<tag k="natural" v="cape" />
		<tag k="ssr:stedsnr" v="263988" />
	</node>
	<node lat="70.43771389442672" lon="23.67399711812215" id="-38839">
		<tag k="name" v="Klakken" />
		<tag k="natural" v="shoal" />
		<tag k="place" v="locality" />
		<tag k="ssr:stedsnr" v="458199" />
	</node>
	<node lat="70.50942222703804" lon="23.999408237846367" id="-38840">
		<tag k="name" v="Russenes" />
		<tag k="natural" v="cape" />
		<tag k="ssr:stedsnr" v="267814" />
	</node>
	<node lat="70.52023333996658" lon="23.977983230464083" id="-38845">
		<tag k="name" v="Andreasneset" />
		<tag k="natural" v="cape" />
		<tag k="ssr:stedsnr" v="272502" />
	</node>
	<node lat="70.5241250019134" lon="23.990649892524896" id="-38846">
		<tag k="name" v="Lille Blankenes" />
		<tag k="natural" v="cape" />
		<tag k="ssr:stedsnr" v="272505" />
	</node>
	<node lat="70.72327222501997" lon="23.813938802139713" id="-38850">
		<tag k="name" v="Sandbuktnes" />
		<tag k="natural" v="cape" />
		<tag k="ssr:stedsnr" v="274202" />
	</node>
	<node lat="70.67085000019972" lon="23.680502674875978" id="-38853">
		<tag k="name" v="Fuglenesfjæra" />
		<tag k="natural" v="beach" />
		<tag k="ssr:stedsnr" v="274211" />
	</node>
	<node lat="70.80438055529001" lon="23.146466604166747" id="-38856">
		<tag k="name" v="Jernklubben" />
		<tag k="natural" v="cape" />
		<tag k="ssr:stedsnr" v="275274" />
	</node>
	<node lat="70.63282500332163" lon="23.43608602874797" id="-38857">
		<tag k="name" v="Skogvikskallen" />
		<tag k="natural" v="shoal" />
		<tag k="place" v="locality" />
		<tag k="ssr:stedsnr" v="275405" />
	</node>
	<node lat="70.80712777557684" lon="23.450624928370832" id="-38859">
		<tag k="name" v="Nordanvindshamna" />
		<tag k="natural" v="bay" />
		<tag k="ssr:stedsnr" v="275388" />
	</node>
	<node lat="70.45838889362979" lon="23.700683240224148" id="-38860">
		<tag k="name" v="Storegrunnen" />
		<tag k="natural" v="shoal" />
		<tag k="place" v="locality" />
		<tag k="ssr:stedsnr" v="276222" />
	</node>
	<node lat="70.84143888781118" lon="23.24140548519167" id="-38870">
		<tag k="fixme" v="consider seamark:type=rock or natural=shoal" />
		<tag k="name" v="Gamvikskjæran" />
		<tag k="place" v="islet" />
		<tag k="ssr:stedsnr" v="285716" />
	</node>
	<node lat="70.49072500385628" lon="24.286458214078152" id="-38871">
		<tag k="name" v="Roggeluftneset" />
		<tag k="natural" v="cape" />
		<tag k="ssr:stedsnr" v="271933" />
	</node>
	<node lat="70.56129722212688" lon="23.68231657574108" id="-38877">
		<tag k="alt_name:no" v="Grøtnes" />
		<tag k="name" v="Grøtneset - Guohcanjárga" />
		<tag k="name:no" v="Grøtneset" />
		<tag k="name:se" v="Guohcanjárga" />
		<tag k="natural" v="cape" />
		<tag k="old_name:se" v="Guoccanjarga" />
		<tag k="ssr:stedsnr" v="323212" />
	</node>
	<node lat="70.52325833609038" lon="23.53448880150626" id="-38878">
		<tag k="name" v="Vassbukta - Čáhcegohppi" />
		<tag k="name:no" v="Vassbukta" />
		<tag k="name:se" v="Čáhcegohppi" />
		<tag k="natural" v="bay" />
		<tag k="old_name:se" v="Čaccegåppi" />
		<tag k="ssr:stedsnr" v="323217" />
	</node>
	<node lat="70.85390278187278" lon="23.064372151372005" id="-38881">
		<tag k="name" v="Lille-Kamøya" />
		<tag k="place" v="island" />
		<tag k="ssr:stedsnr" v="323131" />
	</node>
	<node lat="70.68623056151607" lon="24.038385993868843" id="-38886">
		<tag k="name" v="Skogvika" />
		<tag k="natural" v="bay" />
		<tag k="ssr:stedsnr" v="323187" />
	</node>
	<node lat="70.57181111864377" lon="24.15917766378834" id="-38892">
		<tag k="name" v="Store Brennsvik - Olggut Buollánluokta" />
		<tag k="name:no" v="Store Brennsvik" />
		<tag k="name:se" v="Olggut Buollánluokta" />
		<tag k="natural" v="bay" />
		<tag k="old_name:se" v="Buollanluokta ålgot" />
		<tag k="ssr:stedsnr" v="323804" />
	</node>
	<node lat="70.4409166678861" lon="23.742649899806032" id="-38906">
		<tag k="name" v="Segelnes - Borjjasnjárga" />
		<tag k="name:no" v="Segelnes" />
		<tag k="name:se" v="Borjjasnjárga" />
		<tag k="natural" v="cape" />
		<tag k="old_name:se" v="Bårjasnjarga" />
		<tag k="ssr:stedsnr" v="323973" />
	</node>
	<node lat="70.45361110859163" lon="23.629158250315324" id="-38907">
		<tag k="name" v="Torneneset" />
		<tag k="natural" v="cape" />
		<tag k="ssr:stedsnr" v="323981" />
	</node>
	<node lat="70.62987500098562" lon="23.650877679127735" id="-38915">
		<tag k="name" v="Leirvika" />
		<tag k="natural" v="strait" />
		<tag k="ssr:stedsnr" v="334163" />
	</node>
	<node lat="70.7196222228275" lon="23.824266570662687" id="-38917">
		<tag k="fixme" v="consider seamark:type=rock or natural=shoal" />
		<tag k="name" v="Jeddalass" />
		<tag k="place" v="islet" />
		<tag k="ssr:stedsnr" v="334200" />
	</node>
	<node lat="70.74620833678787" lon="22.91872772822703" id="-38918">
		<tag k="name" v="Stokkenesgrunnen" />
		<tag k="natural" v="shoal" />
		<tag k="place" v="locality" />
		<tag k="ssr:stedsnr" v="336508" />
	</node>
	<node lat="70.5217444458774" lon="22.748922166184457" id="-38919">
		<tag k="name" v="Lammeneset" />
		<tag k="natural" v="cape" />
		<tag k="ssr:stedsnr" v="337713" />
	</node>
	<node lat="70.63893333613237" lon="24.644555402740107" id="-38920">
		<tag k="name" v="Nordgrunnen - Davveboađđu" />
		<tag k="name:no" v="Nordgrunnen" />
		<tag k="name:se" v="Davveboađđu" />
		<tag k="natural" v="shoal" />
		<tag k="place" v="locality" />
		<tag k="ssr:stedsnr" v="351710" />
	</node>
	<node lat="70.48995555758044" lon="24.14385544600942" id="-38921">
		<tag k="name" v="Ytre Fiskevik" />
		<tag k="natural" v="bay" />
		<tag k="ssr:stedsnr" v="478193" />
	</node>
	<node lat="70.69248333627964" lon="22.900116611516452" id="-38928">
		<tag k="name" v="Koppardalsbukta" />
		<tag k="natural" v="bay" />
		<tag k="ssr:stedsnr" v="383505" />
	</node>
	<node lat="70.68759444615802" lon="22.99782771761932" id="-38929">
		<tag k="name" v="Stor-Sandvika" />
		<tag k="natural" v="bay" />
		<tag k="ssr:stedsnr" v="383507" />
	</node>
	<node lat="70.68301944319924" lon="22.991830504773855" id="-38931">
		<tag k="name" v="Klubbebukta" />
		<tag k="natural" v="bay" />
		<tag k="ssr:stedsnr" v="383501" />
	</node>
	<node lat="70.49123611784583" lon="23.147791591899036" id="-38938">
		<tag k="name" v="Garnklubben" />
		<tag k="natural" v="cape" />
		<tag k="ssr:stedsnr" v="384102" />
	</node>
	<node lat="70.55069444777956" lon="23.553055481336788" id="-38943">
		<tag k="name" v="Fiskebuktholmen - Guollegopnjárga" />
		<tag k="name:no" v="Fiskebuktholmen" />
		<tag k="name:se" v="Guollegopnjárga" />
		<tag k="natural" v="cape" />
		<tag k="old_name:se" v="Guollegåpnjarga" />
		<tag k="ssr:stedsnr" v="384206" />
	</node>
	<node lat="70.60900555674615" lon="23.108572157182863" id="-38946">
		<tag k="name" v="Søre Gjeltindneset" />
		<tag k="natural" v="cape" />
		<tag k="ssr:stedsnr" v="384411" />
	</node>
	<node lat="70.80817500320641" lon="23.145538825648206" id="-38948">
		<tag k="bay" v="fjord" />
		<tag k="name" v="Finnfjorden" />
		<tag k="natural" v="bay" />
		<tag k="ssr:stedsnr" v="384517" />
	</node>
	<node lat="70.48650277843154" lon="24.164663763672486" id="-38956">
		<tag k="name" v="Kvitbergbukta" />
		<tag k="natural" v="bay" />
		<tag k="ssr:stedsnr" v="384817" />
	</node>
	<node lat="70.4965333378781" lon="23.155869372564837" id="-38959">
		<tag k="loc_name:se" v="Fyranjárga" />
		<tag k="name" v="Fyrneset" />
		<tag k="name:no" v="Fyrneset" />
		<tag k="natural" v="cape" />
		<tag k="ssr:stedsnr" v="482569" />
	</node>
	<node lat="70.50664722537856" lon="23.9913443346613" id="-38961">
		<tag k="name" v="Steinnes" />
		<tag k="natural" v="cape" />
		<tag k="ssr:stedsnr" v="388791" />
	</node>
	<node lat="70.5681611179577" lon="24.14288877235451" id="-38963">
		<tag k="name" v="Brennsvika" />
		<tag k="natural" v="bay" />
		<tag k="ssr:stedsnr" v="392981" />
	</node>
	<node lat="70.71606944372787" lon="23.830063798226018" id="-38965">
		<tag k="name" v="Badjolbmogávva" />
		<tag k="name:se" v="Badjolbmogávva" />
		<tag k="natural" v="bay" />
		<tag k="ssr:stedsnr" v="395293" />
	</node>
	<node lat="70.61615277863511" lon="24.653427618251456" id="-38970">
		<tag k="name" v="Riddu" />
		<tag k="name:se" v="Riddu" />
		<tag k="natural" v="beach" />
		<tag k="ssr:stedsnr" v="396182" />
	</node>
	<node lat="70.60157499878676" lon="23.649186023307397" id="-38971">
		<tag k="name" v="Langneset" />
		<tag k="natural" v="cape" />
		<tag k="ssr:stedsnr" v="396307" />
	</node>
	<node lat="70.6927499993317" lon="23.0061221523347" id="-38972">
		<tag k="name" v="Jernneset" />
		<tag k="natural" v="cape" />
		<tag k="ssr:stedsnr" v="396515" />
	</node>
	<node lat="70.65264166945607" lon="23.63479434835195" id="-38973">
		<tag k="name" v="Molvikbåen" />
		<tag k="place" v="locality" />
		<tag k="seamark:type" v="rock" />
		<tag k="ssr:stedsnr" v="396436" />
	</node>
	<node lat="70.48279166932797" lon="23.12731936453104" id="-38974">
		<tag k="name" v="Skreifjordbotn" />
		<tag k="natural" v="bay" />
		<tag k="ssr:stedsnr" v="396895" />
	</node>
	<node lat="70.67648333558833" lon="24.27554709670754" id="-38978">
		<tag k="name" v="Teistberget" />
		<tag k="natural" v="cape" />
		<tag k="ssr:stedsnr" v="412949" />
	</node>
	<node lat="70.41238888546381" lon="22.829180504636028" id="-38983">
		<tag k="name" v="Bårdfjordnesbukta" />
		<tag k="natural" v="bay" />
		<tag k="ssr:stedsnr" v="444034" />
	</node>
	<node lat="70.63222222090128" lon="23.595374908887333" id="-38989">
		<tag k="fixme" v="consider seamark:type=rock or natural=shoal" />
		<tag k="name" v="Rypklubbskjæret - Ávjjot" />
		<tag k="name:no" v="Rypklubbskjæret" />
		<tag k="name:se" v="Ávjjot" />
		<tag k="old_name:se" v="Avjut" />
		<tag k="place" v="islet" />
		<tag k="ssr:stedsnr" v="445027" />
	</node>
	<node lat="70.63468889192919" lon="23.656986023877696" id="-38990">
		<tag k="name" v="Tennskjæret" />
		<tag k="natural" v="cape" />
		<tag k="ssr:stedsnr" v="445028" />
	</node>
	<node lat="70.49890000406994" lon="23.28217214042882" id="-38992">
		<tag k="alt_name:no" v="Storhamna" />
		<tag k="name" v="Skjelbukthamna - Skálžogohppi" />
		<tag k="name:no" v="Skjelbukthamna" />
		<tag k="name:se" v="Skálžogohppi" />
		<tag k="natural" v="bay" />
		<tag k="old_name:se" v="Skalžugåppi" />
		<tag k="ssr:stedsnr" v="445080" />
	</node>
	<node lat="70.4967250055037" lon="23.137536047618266" id="-38995">
		<tag k="alt_name" v="Kalveklubben" />
		<tag k="name" v="Hamneneset" />
		<tag k="natural" v="cape" />
		<tag k="ssr:stedsnr" v="445090" />
	</node>
	<node lat="70.50960556031815" lon="22.76892217307627" id="-38996">
		<tag k="name" v="Klubbholmen" />
		<tag k="place" v="islet" />
		<tag k="ssr:stedsnr" v="445302" />
	</node>
	<node lat="70.68053333794037" lon="23.146961045253303" id="-38998">
		<tag k="name" v="Låterbukta" />
		<tag k="natural" v="bay" />
		<tag k="ssr:stedsnr" v="445482" />
	</node>
	<node lat="70.64081667155264" lon="24.68144984384658" id="-39000">
		<tag k="name" v="Birjavika - Birjjáluokta" />
		<tag k="name:no" v="Birjavika" />
		<tag k="name:se" v="Birjjáluokta" />
		<tag k="natural" v="bay" />
		<tag k="old_name:se" v="Birjaluokta" />
		<tag k="ssr:stedsnr" v="445877" />
	</node>
	<node lat="70.58297222799399" lon="23.00867493893612" id="-39007">
		<tag k="name" v="Ytre-Djupvika" />
		<tag k="natural" v="bay" />
		<tag k="ssr:stedsnr" v="449021" />
	</node>
	<node lat="70.47510277647518" lon="22.930527723168478" id="-39008">
		<tag k="bay" v="fjord" />
		<tag k="name" v="Bumannsfjorden" />
		<tag k="natural" v="bay" />
		<tag k="ssr:stedsnr" v="449023" />
	</node>
	<node lat="70.63737500047071" lon="24.68262207847033" id="-39019">
		<tag k="name" v="Selkoppklubben" />
		<tag k="natural" v="cape" />
		<tag k="ssr:stedsnr" v="457114" />
	</node>
	<node lat="70.60846111653103" lon="23.343786041812013" id="-39022">
		<tag k="name" v="Svegrunnen" />
		<tag k="natural" v="shoal" />
		<tag k="place" v="locality" />
		<tag k="ssr:stedsnr" v="457272" />
	</node>
	<node lat="70.81791389167022" lon="23.31954992093454" id="-39023">
		<tag k="name" v="Lille Sand" />
		<tag k="natural" v="beach" />
		<tag k="ssr:stedsnr" v="457460" />
	</node>
	<node lat="70.69431666915655" lon="22.980872155072824" id="-39024">
		<tag k="name" v="Klubbenesgrunnen" />
		<tag k="natural" v="shoal" />
		<tag k="place" v="locality" />
		<tag k="ssr:stedsnr" v="457521" />
	</node>
	<node lat="70.67834167292838" lon="23.641491579303977" id="-39030">
		<tag k="name" v="Melandet" />
		<tag k="natural" v="beach" />
		<tag k="ssr:stedsnr" v="505002" />
	</node>
	<node lat="70.77245833464765" lon="23.077272162448462" id="-39037">
		<tag k="name" v="Keila" />
		<tag k="natural" v="bay" />
		<tag k="ssr:stedsnr" v="505170" />
	</node>
	<node lat="70.83516666842314" lon="22.921499938534744" id="-39040">
		<tag k="name" v="Smågrunnan" />
		<tag k="natural" v="shoal" />
		<tag k="place" v="locality" />
		<tag k="ssr:stedsnr" v="505070" />
	</node>
	<node lat="70.55287778363139" lon="23.545838816703505" id="-39043">
		<tag k="name" v="Fiskebukta - Guollegohppi" />
		<tag k="name:no" v="Fiskebukta" />
		<tag k="name:se" v="Guollegohppi" />
		<tag k="natural" v="bay" />
		<tag k="old_name:se" v="Guollegåppi" />
		<tag k="ssr:stedsnr" v="505205" />
	</node>
	<node lat="70.72033611286523" lon="22.93628327898317" id="-39046">
		<tag k="name" v="Fuglenesbukta" />
		<tag k="natural" v="bay" />
		<tag k="ssr:stedsnr" v="505272" />
	</node>
	<node lat="70.60652222486003" lon="23.10048604773869" id="-39048">
		<tag k="name" v="Sandvika" />
		<tag k="natural" v="bay" />
		<tag k="ssr:stedsnr" v="505413" />
	</node>
	<node lat="70.56903333443242" lon="24.056177673763656" id="-39050">
		<tag k="name" v="Toknebuktneset" />
		<tag k="natural" v="cape" />
		<tag k="ssr:stedsnr" v="505813" />
	</node>
	<node lat="71.06380277784255" lon="23.246936041858405" id="-39054">
		<tag k="name" v="Ytre-Tubåen" />
		<tag k="natural" v="shoal" />
		<tag k="place" v="locality" />
		<tag k="ssr:stedsnr" v="510010" />
	</node>
	<node lat="70.59336389441215" lon="22.986344372101613" id="-39055">
		<tag k="name" v="Indre-Gåsvika" />
		<tag k="natural" v="bay" />
		<tag k="ssr:stedsnr" v="510025" />
	</node>
	<node lat="70.57061944771243" lon="23.05552215883398" id="-39056">
		<tag k="name" v="Fellavalen" />
		<tag k="natural" v="bay" />
		<tag k="ssr:stedsnr" v="510029" />
	</node>
	<node lat="70.57438333689736" lon="23.572144350295556" id="-39057">
		<tag k="name" v="Kjerringholmsundet" />
		<tag k="natural" v="strait" />
		<tag k="ssr:stedsnr" v="510030" />
	</node>
	<node lat="70.4706222284245" lon="24.315027638863278" id="-39063">
		<tag k="name" v="Ytre Futbukta" />
		<tag k="natural" v="bay" />
		<tag k="ssr:stedsnr" v="514914" />
	</node>
	<node lat="70.64597222443349" lon="23.162505491234345" id="-39071">
		<tag k="name" v="Ramneset" />
		<tag k="natural" v="cape" />
		<tag k="ssr:stedsnr" v="517279" />
	</node>
	<node lat="70.51872500130425" lon="23.972544329145315" id="-39077">
		<tag k="name" v="Trolløyra" />
		<tag k="natural" v="beach" />
		<tag k="ssr:stedsnr" v="533210" />
	</node>
	<node lat="70.71402777730312" lon="23.857977668798174" id="-39079">
		<tag k="name" v="Kvalfjordneset - Fállenjárga" />
		<tag k="name:no" v="Kvalfjordneset" />
		<tag k="name:se" v="Fállenjárga" />
		<tag k="natural" v="cape" />
		<tag k="ssr:stedsnr" v="687037" />
	</node>
	<node lat="70.70770000126564" lon="23.816991569563612" id="-39080">
		<tag k="bay" v="fjord" />
		<tag k="name" v="Kvalfjorden - Fállevuonna" />
		<tag k="name:no" v="Kvalfjorden" />
		<tag k="name:se" v="Fállevuonna" />
		<tag k="natural" v="bay" />
		<tag k="old_name:se" v="Fallevuodna" />
		<tag k="ssr:stedsnr" v="687038" />
	</node>
	<node lat="70.7316361145107" lon="23.80293879322751" id="-39081">
		<tag k="name" v="Ytter-Forsøl" />
		<tag k="natural" v="bay" />
		<tag k="ssr:stedsnr" v="687031" />
	</node>
	<node lat="70.55337500305453" lon="22.955622162228554" id="-39082">
		<tag k="name" v="Vinnaskallen" />
		<tag k="natural" v="shoal" />
		<tag k="place" v="locality" />
		<tag k="ssr:stedsnr" v="687102" />
	</node>
	<node lat="70.54736944420132" lon="23.366433257241763" id="-39084">
		<tag k="name" v="Nordmannsneset - Dážanjárga" />
		<tag k="name:no" v="Nordmannsneset" />
		<tag k="name:se" v="Dážanjárga" />
		<tag k="natural" v="cape" />
		<tag k="old_name:se" v="Dažanjarga" />
		<tag k="ssr:stedsnr" v="687109" />
	</node>
	<node lat="70.84879722305149" lon="23.366019361549267" id="-39085">
		<tag k="name" v="Vardbukta" />
		<tag k="natural" v="bay" />
		<tag k="ssr:stedsnr" v="687111" />
	</node>
	<node lat="70.720519450086" lon="23.83943879397594" id="-39086">
		<tag k="alt_name" v="Kirkegårdsbukta" />
		<tag k="name" v="Kjerkegårdsbukta" />
		<tag k="natural" v="bay" />
		<tag k="ssr:stedsnr" v="687040" />
	</node>
	<node lat="70.69651111534174" lon="23.783061017236403" id="-39087">
		<tag k="alt_name" v="Kvalfjordbotn" />
		<tag k="name" v="Vesterbotn" />
		<tag k="natural" v="bay" />
		<tag k="ssr:stedsnr" v="687043" />
	</node>
	<node lat="70.70906666713924" lon="23.96391656640056" id="-39088">
		<tag k="fixme" v="multiple name tags, choose one and add the other to alt_name; consider seamark:type=rock or natural=shoal" />
		<tag k="name" v="Risvågskjæret;Storskjæret" />
		<tag k="place" v="islet" />
		<tag k="ssr:stedsnr" v="687047" />
	</node>
	<node lat="70.70548333357202" lon="23.9402582323003" id="-39090">
		<tag k="name" v="Risvåg" />
		<tag k="natural" v="bay" />
		<tag k="ssr:stedsnr" v="687052" />
	</node>
	<node lat="70.69791667161367" lon="23.624999907412413" id="-39091">
		<tag k="alt_name" v="Skjervika" />
		<tag k="name" v="Skjærvika" />
		<tag k="natural" v="bay" />
		<tag k="ssr:stedsnr" v="687058" />
	</node>
	<node lat="70.82716944399179" lon="23.05850826450903" id="-39092">
		<tag k="name" v="Kamøysundet" />
		<tag k="natural" v="strait" />
		<tag k="ssr:stedsnr" v="687069" />
	</node>
	<node lat="70.84420000427131" lon="23.38307216129402" id="-39095">
		<tag k="alt_name" v="Kvitneset, yt" />
		<tag k="fixme" v="multiple name tags, choose one and add the other to alt_name" />
		<tag k="name" v="Kvitneset;Ytre Kvitneset" />
		<tag k="natural" v="cape" />
		<tag k="ssr:stedsnr" v="687077" />
	</node>
	<node lat="70.51568333506012" lon="22.823511065624153" id="-39096">
		<tag k="name" v="Gåshopen" />
		<tag k="natural" v="cape" />
		<tag k="ssr:stedsnr" v="687079" />
	</node>
	<node lat="70.84410278194024" lon="23.388991589686782" id="-39097">
		<tag k="name" v="Kvitnesgrunnen" />
		<tag k="natural" v="shoal" />
		<tag k="place" v="locality" />
		<tag k="ssr:stedsnr" v="687081" />
	</node>
	<node lat="70.79434999823738" lon="23.176902717153368" id="-39098">
		<tag k="name" v="Finnfjordholmen" />
		<tag k="place" v="islet" />
		<tag k="ssr:stedsnr" v="687086" />
	</node>
	<node lat="70.88333333429102" lon="23.70277767862294" id="-39099">
		<tag k="name" v="Fallet" />
		<tag k="natural" v="shoal" />
		<tag k="place" v="locality" />
		<tag k="ssr:stedsnr" v="687141" />
	</node>
	<node lat="70.53154166843784" lon="22.84824160469855" id="-39103">
		<tag k="name" v="Komagfjordbotn" />
		<tag k="natural" v="bay" />
		<tag k="ssr:stedsnr" v="687118" />
	</node>
	<node lat="70.874097223261" lon="22.839308279894908" id="-39104">
		<tag k="name" v="Flatskjærskallen" />
		<tag k="natural" v="shoal" />
		<tag k="place" v="locality" />
		<tag k="ssr:stedsnr" v="687119" />
	</node>
	<node lat="70.68819999883358" lon="24.479605426674695" id="-39105">
		<tag k="name" v="Ljånesgrunnen" />
		<tag k="natural" v="shoal" />
		<tag k="place" v="locality" />
		<tag k="ssr:stedsnr" v="687130" />
	</node>
	<node lat="70.65763056170418" lon="24.52104154031801" id="-39106">
		<tag k="name" v="Larsvika - Lásseluokta" />
		<tag k="name:no" v="Larsvika" />
		<tag k="name:se" v="Lásseluokta" />
		<tag k="natural" v="bay" />
		<tag k="old_name:se" v="Lasseluokta" />
		<tag k="ssr:stedsnr" v="687136" />
	</node>
	<node lat="70.66667777972698" lon="24.46962207480318" id="-39107">
		<tag k="name" v="Ljåvika - Liššagohppi" />
		<tag k="name:no" v="Ljåvika" />
		<tag k="name:se" v="Liššagohppi" />
		<tag k="natural" v="bay" />
		<tag k="old_name:se" v="Liššagåppi" />
		<tag k="ssr:stedsnr" v="687148" />
	</node>
	<node lat="70.79107500039092" lon="23.23659993361321" id="-39109">
		<tag k="fixme" v="multiple name tags, choose one and add the other to alt_name" />
		<tag k="name" v="Veivika;Store Veivika" />
		<tag k="natural" v="bay" />
		<tag k="ssr:stedsnr" v="687152" />
	</node>
	<node lat="70.5549416717736" lon="23.473780464785246" id="-39115">
		<tag k="name" v="Revneset" />
		<tag k="natural" v="cape" />
		<tag k="ssr:stedsnr" v="687185" />
	</node>
	<node lat="70.72517222065382" lon="22.953386062205734" id="-39116">
		<tag k="name" v="Fuglenesgrunnan" />
		<tag k="natural" v="shoal" />
		<tag k="place" v="locality" />
		<tag k="ssr:stedsnr" v="687249" />
	</node>
	<node lat="70.54756945088074" lon="23.486330472453314" id="-39117">
		<tag k="name" v="Sommarneset" />
		<tag k="natural" v="cape" />
		<tag k="ssr:stedsnr" v="687212" />
	</node>
	<node lat="70.60090555841856" lon="23.405886031348498" id="-39119">
		<tag k="name" v="Fagervika - Fádderviika" />
		<tag k="name:no" v="Fagervika" />
		<tag k="name:se" v="Fádderviika" />
		<tag k="natural" v="bay" />
		<tag k="ssr:stedsnr" v="687222" />
	</node>
	<node lat="70.62267778186809" lon="23.561324904997285" id="-39120">
		<tag k="name" v="Hundneset - Beatnatnjárga" />
		<tag k="name:no" v="Hundneset" />
		<tag k="name:se" v="Beatnatnjárga" />
		<tag k="natural" v="cape" />
		<tag k="old_name:se" v="Bædnatnjarga" />
		<tag k="ssr:stedsnr" v="687224" />
	</node>
	<node lat="70.6608749995433" lon="23.007194372994956" id="-39126">
		<tag k="name" v="Straumen" />
		<tag k="natural" v="bay" />
		<tag k="ssr:stedsnr" v="687438" />
	</node>
	<node lat="70.62105833616228" lon="23.361780478441798" id="-39128">
		<tag k="name" v="Russesteinen" />
		<tag k="natural" v="cape" />
		<tag k="ssr:stedsnr" v="687414" />
	</node>
	<node lat="70.74554166923905" lon="22.799149947872095" id="-39139">
		<tag k="name" v="Ytre-Reppa" />
		<tag k="natural" v="bay" />
		<tag k="ssr:stedsnr" v="687757" />
	</node>
	<node lat="70.64043889109264" lon="24.564769314506524" id="-39141">
		<tag k="name" v="Turnesbukta - Durenjárgávva" />
		<tag k="name:no" v="Turnesbukta" />
		<tag k="name:se" v="Durenjárgávva" />
		<tag k="natural" v="bay" />
		<tag k="old_name:se" v="Durenjargavva" />
		<tag k="ssr:stedsnr" v="687774" />
	</node>
	<node lat="70.52432500499194" lon="22.849458279424606" id="-39157">
		<tag k="bay" v="fjord" />
		<tag k="name" v="Komagfjorden" />
		<tag k="natural" v="bay" />
		<tag k="ssr:stedsnr" v="688030" />
	</node>
	<node lat="70.6905583365752" lon="22.95924994433526" id="-39160">
		<tag k="bay" v="fjord" />
		<tag k="name" v="Sandøyfjorden - Sáttovuotna" />
		<tag k="name:no" v="Sandøyfjorden" />
		<tag k="name:se" v="Sáttovuotna" />
		<tag k="natural" v="bay" />
		<tag k="old_name:se" v="Sadduvuodna" />
		<tag k="ssr:stedsnr" v="688278" />
	</node>
	<node lat="70.6997055543411" lon="23.029491604021" id="-39161">
		<tag k="name" v="Stormola" />
		<tag k="natural" v="bay" />
		<tag k="ssr:stedsnr" v="688491" />
	</node>
	<node lat="70.59071388755082" lon="23.008797143451677" id="-39169">
		<tag k="name" v="Indre-Djupvika" />
		<tag k="natural" v="bay" />
		<tag k="ssr:stedsnr" v="692047" />
	</node>
	<node lat="70.49413889403287" lon="23.275508259480127" id="-39171">
		<tag k="name" v="Skjelbukt" />
		<tag k="natural" v="bay" />
		<tag k="ssr:stedsnr" v="565070" />
	</node>
	<node lat="70.84226388768361" lon="23.02807494737095" id="-39172">
		<tag k="name" v="Sørbukta" />
		<tag k="natural" v="bay" />
		<tag k="ssr:stedsnr" v="565072" />
	</node>
	<node lat="70.78483888857482" lon="23.501838810805925" id="-39173">
		<tag k="name" v="Lillenæringsbukta" />
		<tag k="natural" v="bay" />
		<tag k="ssr:stedsnr" v="565208" />
	</node>
	<node lat="70.6821916683244" lon="24.462288742539283" id="-39176">
		<tag k="name" v="Ljåneset" />
		<tag k="natural" v="cape" />
		<tag k="ssr:stedsnr" v="565117" />
	</node>
	<node lat="70.5138249984113" lon="22.799155493370733" id="-39178">
		<tag k="alt_name" v="Markusneset" />
		<tag k="name" v="Markusnes" />
		<tag k="natural" v="cape" />
		<tag k="ssr:stedsnr" v="565273" />
	</node>
	<node lat="70.53621666650353" lon="22.826597165259514" id="-39183">
		<tag k="name" v="Straumen" />
		<tag k="natural" v="bay" />
		<tag k="ssr:stedsnr" v="566125" />
	</node>
	<node lat="70.76130000215343" lon="23.946852677217578" id="-39187">
		<tag k="name" v="Øvregrunnen" />
		<tag k="natural" v="shoal" />
		<tag k="place" v="locality" />
		<tag k="ssr:stedsnr" v="566230" />
	</node>
	<node lat="70.75737778178649" lon="23.775152679746313" id="-39188">
		<tag k="name" v="Brosmeklakken" />
		<tag k="natural" v="shoal" />
		<tag k="place" v="locality" />
		<tag k="ssr:stedsnr" v="566232" />
	</node>
	<node lat="70.78010000548778" lon="23.48757493403956" id="-39189">
		<tag k="name" v="Tua" />
		<tag k="natural" v="cape" />
		<tag k="ssr:stedsnr" v="566235" />
	</node>
	<node lat="70.72242499764224" lon="22.845030505306976" id="-39191">
		<tag k="name" v="Indre-Reppa" />
		<tag k="natural" v="bay" />
		<tag k="ssr:stedsnr" v="566278" />
	</node>
	<node lat="70.7885527801932" lon="23.34115270018443" id="-39192">
		<tag k="name" v="Eidet" />
		<tag k="place" v="locality" />
		<tag k="ssr:stedsnr" v="566163" />
	</node>
	<node lat="70.59696389691317" lon="24.121966543626254" id="-39194">
		<tag k="name" v="Fagerbukta" />
		<tag k="natural" v="bay" />
		<tag k="ssr:stedsnr" v="566757" />
	</node>
	<node lat="70.62804999905873" lon="24.12123044981476" id="-39197">
		<tag k="name" v="Holmeneset" />
		<tag k="natural" v="cape" />
		<tag k="ssr:stedsnr" v="566775" />
	</node>
	<node lat="70.57685000401582" lon="23.491566573406022" id="-39206">
		<tag k="name" v="Lille-Survika" />
		<tag k="natural" v="bay" />
		<tag k="ssr:stedsnr" v="692867" />
	</node>
	<node lat="70.54611388793461" lon="23.507974918138416" id="-39208">
		<tag k="name" v="Kårvika" />
		<tag k="natural" v="bay" />
		<tag k="ssr:stedsnr" v="570901" />
	</node>
	<node lat="70.59166667029696" lon="24.86666650093002" id="-39210">
		<tag k="name" v="Porsangerhalvøya" />
		<tag k="name:no" v="Porsangerhalvøya" />
		<tag k="natural" v="cape" />
		<tag k="ssr:stedsnr" v="574811" />
	</node>
	<node lat="70.62440556132272" lon="23.56809715213478" id="-39225">
		<tag k="name" v="Hundnesnaget" />
		<tag k="natural" v="strait" />
		<tag k="ssr:stedsnr" v="578391" />
	</node>
	<node lat="70.4567194435764" lon="23.208502693966498" id="-39226">
		<tag k="name" v="Jøfjordbotn" />
		<tag k="natural" v="bay" />
		<tag k="ssr:stedsnr" v="578548" />
	</node>
	<node lat="70.53296111093489" lon="23.407647144874687" id="-39227">
		<tag k="name" v="Hønsebybotn" />
		<tag k="natural" v="bay" />
		<tag k="ssr:stedsnr" v="578754" />
	</node>
	<node lat="70.47768333734578" lon="23.25756935963685" id="-39228">
		<tag k="name" v="Midtgrunnen" />
		<tag k="natural" v="shoal" />
		<tag k="place" v="locality" />
		<tag k="ssr:stedsnr" v="578953" />
	</node>
	<node lat="70.54820556087111" lon="22.733147160798318" id="-39229">
		<tag k="name" v="Kvitneset" />
		<tag k="natural" v="cape" />
		<tag k="ssr:stedsnr" v="580705" />
	</node>
	<node lat="70.72172499996724" lon="23.82648880374683" id="-39236">
		<tag k="name" v="Fállágohppi" />
		<tag k="name:se" v="Fállágohppi" />
		<tag k="natural" v="bay" />
		<tag k="ssr:stedsnr" v="698181" />
	</node>
	<node lat="70.72542778008338" lon="23.83146658223733" id="-39238">
		<tag k="name" v="Lilleholmen" />
		<tag k="natural" v="cape" />
		<tag k="ssr:stedsnr" v="698193" />
	</node>
	<node lat="70.54722222874908" lon="23.543302697243494" id="-39242">
		<tag k="name" v="Søre Kristinehamna" />
		<tag k="natural" v="bay" />
		<tag k="ssr:stedsnr" v="700345" />
	</node>
	<node lat="70.59443333663657" lon="23.594266587455447" id="-39243">
		<tag k="name" v="Klakkgrunnen" />
		<tag k="natural" v="shoal" />
		<tag k="place" v="locality" />
		<tag k="ssr:stedsnr" v="700396" />
	</node>
	<node lat="70.61510555955319" lon="23.56004990311479" id="-39245">
		<tag k="name" v="Sprengsnesgrunnen" />
		<tag k="natural" v="shoal" />
		<tag k="place" v="locality" />
		<tag k="ssr:stedsnr" v="700494" />
	</node>
	<node lat="70.71892777758904" lon="23.841038793638816" id="-39247">
		<tag k="alt_name" v="Kirkenes" />
		<tag k="name" v="Kjerkegårdsneset" />
		<tag k="natural" v="cape" />
		<tag k="ssr:stedsnr" v="626053" />
	</node>
	<node lat="70.5629000023974" lon="23.437044349914586" id="-39252">
		<tag k="name" v="Hellegjengneset" />
		<tag k="natural" v="cape" />
		<tag k="ssr:stedsnr" v="626212" />
	</node>
	<node lat="70.97354444370163" lon="23.079488821326315" id="-39253">
		<tag k="name" v="Forsagdeskallen" />
		<tag k="natural" v="shoal" />
		<tag k="place" v="locality" />
		<tag k="ssr:stedsnr" v="626151" />
	</node>
	<node lat="70.52892778177852" lon="23.147016601468035" id="-39254">
		<tag k="name" v="Jonsbukta - Geassegohppi" />
		<tag k="name:no" v="Jonsbukta" />
		<tag k="name:se" v="Geassegohppi" />
		<tag k="natural" v="bay" />
		<tag k="old_name:se" v="Gæssegåppi" />
		<tag k="ssr:stedsnr" v="626152" />
	</node>
	<node lat="70.53020278265025" lon="23.21898880673379" id="-39255">
		<tag k="name" v="Tindalandet" />
		<tag k="natural" v="beach" />
		<tag k="ssr:stedsnr" v="626155" />
	</node>
	<node lat="70.68921111584496" lon="22.927322168262773" id="-39258">
		<tag k="alt_name" v="Falkeneset" />
		<tag k="name" v="Falkenes" />
		<tag k="natural" v="cape" />
		<tag k="ssr:stedsnr" v="626510" />
	</node>
	<node lat="70.6920583352909" lon="24.0153609916959" id="-39266">
		<tag k="fixme" v="multiple name tags, choose one and add the other to alt_name" />
		<tag k="loc_name:se" v="Storvihnjárga" />
		<tag k="name" v="Indreneset;Storvikneset" />
		<tag k="name:no" v="Indreneset;Storvikneset" />
		<tag k="natural" v="cape" />
		<tag k="ssr:stedsnr" v="627199" />
	</node>
	<node lat="70.75848611349767" lon="23.041149940042153" id="-39268">
		<tag k="name" v="Yttergrunnen" />
		<tag k="natural" v="shoal" />
		<tag k="place" v="locality" />
		<tag k="ssr:stedsnr" v="627205" />
	</node>
	<node lat="70.55505000040709" lon="24.10728043179878" id="-39269">
		<tag k="name" v="Enkenesbukta" />
		<tag k="natural" v="bay" />
		<tag k="ssr:stedsnr" v="627804" />
	</node>
	<node lat="70.5118222219661" lon="24.023144330577338" id="-39284">
		<tag k="name" v="Fribergbukta" />
		<tag k="natural" v="bay" />
		<tag k="ssr:stedsnr" v="635995" />
	</node>
</osm>
