<?xml version="1.0" encoding="UTF-8"?>
<osm version="0.6" generator="osmapis">
	<node lat="70.18084444920788" lon="24.083910994306013" id="-5">
		<tag k="name" v="Guovttijohnjálbmi" />
		<tag k="name:se" v="Guovttijohnjálbmi" />
		<tag k="natural" v="bay" />
		<tag k="old_name:se" v="Guovtijåknjalbmi" />
		<tag k="ssr:stedsnr" v="19942" />
	</node>
	<node lat="70.36728333970784" lon="23.698713805264173" id="-28">
		<tag k="name" v="Bjørnstadvatnet" />
		<tag k="natural" v="water" />
		<tag k="ssr:stedsnr" v="20793" />
		<tag k="water" v="lake" />
	</node>
	<node lat="70.34405278004662" lon="23.82029434555871" id="-30">
		<tag k="name" v="Fjellvatnet" />
		<tag k="natural" v="water" />
		<tag k="ssr:stedsnr" v="20798" />
		<tag k="water" v="lake" />
	</node>
	<node lat="70.54595833887056" lon="24.147283209099445" id="-44">
		<tag k="name" v="Rundvatnet" />
		<tag k="natural" v="water" />
		<tag k="ssr:stedsnr" v="29971" />
	</node>
	<node lat="70.73029722308955" lon="23.785927696028306" id="-49">
		<tag k="name" v="Forsøllivannet" />
		<tag k="natural" v="water" />
		<tag k="ssr:stedsnr" v="31209" />
	</node>
	<node lat="70.54054722541137" lon="23.41052768965317" id="-62">
		<tag k="name" v="Fjordvannet" />
		<tag k="natural" v="water" />
		<tag k="ssr:stedsnr" v="80105" />
	</node>
	<node lat="70.54291944426856" lon="23.405613801944906" id="-63">
		<tag k="name" v="Vollavannet" />
		<tag k="natural" v="water" />
		<tag k="ssr:stedsnr" v="80107" />
	</node>
	<node lat="70.6742777828936" lon="24.40786375922732" id="-64">
		<tag k="name" v="Gohttaluohjávri" />
		<tag k="name:se" v="Gohttaluohjávri" />
		<tag k="natural" v="water" />
		<tag k="old_name:se" v="Gåttaluokjavri" />
		<tag k="ssr:stedsnr" v="80123" />
	</node>
	<node lat="70.41772222267426" lon="24.47130818826016" id="-72">
		<tag k="name" v="Svartelva - Riehpovuonmohkejohka" />
		<tag k="name:no" v="Svartelva" />
		<tag k="name:se" v="Riehpovuonmohkejohka" />
		<tag k="old_name:se" v="Rieppuvuonmåkkejåkka" />
		<tag k="ssr:stedsnr" v="80642" />
		<tag k="waterway" v="river" />
	</node>
	<node lat="70.35569166908917" lon="24.32706374682496" id="-73">
		<tag k="name" v="Dápmotjohka" />
		<tag k="name:se" v="Dápmotjohka" />
		<tag k="old_name:se" v="Dabmutjåkka" />
		<tag k="ssr:stedsnr" v="80688" />
		<tag k="waterway" v="stream" />
	</node>
	<node lat="70.68806389032449" lon="23.968316575097983" id="-74">
		<tag k="name" v="Storvikvannet" />
		<tag k="natural" v="water" />
		<tag k="ssr:stedsnr" v="81006" />
		<tag k="water" v="lake" />
	</node>
	<node lat="70.65620277831876" lon="24.28259987129414" id="-81">
		<tag k="name" v="Guommajohka" />
		<tag k="name:se" v="Guommajohka" />
		<tag k="old_name:se" v="Guommajåkka" />
		<tag k="ssr:stedsnr" v="81145" />
		<tag k="waterway" v="stream" />
	</node>
	<node lat="70.58250555795597" lon="24.302441545290623" id="-94">
		<tag k="name" v="Nuorttat Fálesjohka" />
		<tag k="name:se" v="Nuorttat Fálesjohka" />
		<tag k="old_name:se" v="Falesjåkka, nuortat" />
		<tag k="ssr:stedsnr" v="81820" />
		<tag k="waterway" v="stream" />
	</node>
	<node lat="70.53827500567024" lon="24.733899844004323" id="-98">
		<tag k="name" v="Miessejávrrit" />
		<tag k="name:se" v="Miessejávrrit" />
		<tag k="natural" v="water" />
		<tag k="old_name:se" v="Miessejavrit" />
		<tag k="ssr:stedsnr" v="81933" />
		<tag k="water" v="lake" />
	</node>
	<node lat="70.55318056283298" lon="24.703355410656645" id="-99">
		<tag k="name" v="Biellogiellasjávrrit" />
		<tag k="name:se" v="Biellogiellasjávrrit" />
		<tag k="natural" v="water" />
		<tag k="old_name:se" v="Biellugiellasjavrit" />
		<tag k="ssr:stedsnr" v="81938" />
		<tag k="water" v="lake" />
	</node>
	<node lat="70.42556667094215" lon="23.724847123734264" id="-112">
		<tag k="name" v="Varmelvvatnet" />
		<tag k="natural" v="water" />
		<tag k="ssr:stedsnr" v="93163" />
	</node>
	<node lat="70.69862778205537" lon="23.22838882471473" id="-121">
		<tag k="name" v="Korsdalsvannet" />
		<tag k="natural" v="water" />
		<tag k="ssr:stedsnr" v="140467" />
	</node>
	<node lat="70.49068055691937" lon="24.717255410687844" id="-122">
		<tag k="name" v="Gumpejávri" />
		<tag k="name:se" v="Gumpejávri" />
		<tag k="natural" v="water" />
		<tag k="ssr:stedsnr" v="140686" />
		<tag k="water" v="lake" />
	</node>
	<node lat="70.24050833815387" lon="24.050955441079378" id="-134">
		<tag k="name" v="Rihccejávri" />
		<tag k="name:se" v="Rihccejávri" />
		<tag k="natural" v="water" />
		<tag k="old_name:se" v="Riccejavri" />
		<tag k="ssr:stedsnr" v="140991" />
	</node>
	<node lat="70.49746111644455" lon="23.58004434652491" id="-142">
		<tag k="name" v="Storvatnet - Čulkojávri" />
		<tag k="name:no" v="Storvatnet" />
		<tag k="name:se" v="Čulkojávri" />
		<tag k="natural" v="water" />
		<tag k="old_name:se" v="Čulkujavri" />
		<tag k="ssr:stedsnr" v="141534" />
		<tag k="water" v="lake" />
	</node>
	<node lat="70.2784861153656" lon="24.05931377738347" id="-143">
		<tag k="name" v="Geaidnojohka" />
		<tag k="name:no" v="Breidalselva" />
		<tag k="name:se" v="Geaidnojohka" />
		<tag k="old_name:se" v="Gæidnujåkka" />
		<tag k="ssr:stedsnr" v="141539" />
		<tag k="waterway" v="river" />
	</node>
	<node lat="70.60804167108274" lon="24.77311650137176" id="-151">
		<tag k="name" v="Unnaávžžejogaš" />
		<tag k="name:se" v="Unnaávžžejogaš" />
		<tag k="old_name:se" v="Unnavžejågaš" />
		<tag k="ssr:stedsnr" v="141889" />
		<tag k="waterway" v="stream" />
	</node>
	<node lat="70.5261777816078" lon="24.765591512521755" id="-152">
		<tag k="name" v="Loddejávrrit" />
		<tag k="name:se" v="Loddejávrrit" />
		<tag k="natural" v="water" />
		<tag k="old_name:se" v="Låddejavrit" />
		<tag k="ssr:stedsnr" v="141898" />
		<tag k="water" v="lake" />
	</node>
	<node lat="70.52833611373073" lon="24.66835540402478" id="-153">
		<tag k="name" v="Lavnnjetjávri" />
		<tag k="name:se" v="Lavnnjetjávri" />
		<tag k="natural" v="water" />
		<tag k="old_name:se" v="Lavnjetjavri" />
		<tag k="ssr:stedsnr" v="141899" />
	</node>
	<node lat="70.49358333431752" lon="23.49960268278452" id="-154">
		<tag k="name" v="Vassbuktvannet - Buogojávri" />
		<tag k="name:no" v="Vassbuktvannet" />
		<tag k="name:se" v="Buogojávri" />
		<tag k="natural" v="water" />
		<tag k="old_name:se" v="Buogujavri" />
		<tag k="ssr:stedsnr" v="141940" />
		<tag k="water" v="lake" />
	</node>
	<node lat="70.42378611102178" lon="23.76764713087563" id="-156">
		<tag k="alt_name" v="Vesterdalsvatn" />
		<tag k="name" v="Vesterdalsvatnet" />
		<tag k="natural" v="water" />
		<tag k="ssr:stedsnr" v="141994" />
	</node>
	<node lat="70.45593610895695" lon="23.53973603377957" id="-166">
		<tag k="name" v="Trollvatnan" />
		<tag k="natural" v="water" />
		<tag k="ssr:stedsnr" v="150864" />
		<tag k="water" v="lake" />
	</node>
	<node lat="70.67369166697002" lon="24.344238764998185" id="-181">
		<tag k="name" v="Bekkarbuktvatnet" />
		<tag k="natural" v="water" />
		<tag k="ssr:stedsnr" v="262129" />
	</node>
	<node lat="70.48030277858852" lon="23.138099927799512" id="-184">
		<tag k="name" v="Bohtalskáidi" />
		<tag k="name:se" v="Bohtalskáidi" />
		<tag k="natural" v="cape" />
		<tag k="old_name:se" v="Båttalskaidi" />
		<tag k="ssr:stedsnr" v="262065" />
	</node>
	<node lat="70.58446667304345" lon="23.948122118896627" id="-200">
		<tag k="name" v="Suolojohka" />
		<tag k="name:se" v="Suolojohka" />
		<tag k="old_name:se" v="Suolujåkka" />
		<tag k="ssr:stedsnr" v="262242" />
		<tag k="waterway" v="stream" />
	</node>
	<node lat="70.24942500237735" lon="24.20561098653171" id="-203">
		<tag k="name" v="Goahtemuorjohka" />
		<tag k="name:se" v="Goahtemuorjohka" />
		<tag k="old_name:se" v="Goattemuorjåkka" />
		<tag k="ssr:stedsnr" v="262465" />
		<tag k="waterway" v="river" />
	</node>
	<node lat="70.6708638947549" lon="23.024088832023313" id="-204">
		<tag k="name" v="Sandvikvannet" />
		<tag k="natural" v="water" />
		<tag k="ssr:stedsnr" v="262469" />
	</node>
	<node lat="70.67224444724185" lon="23.050938837775128" id="-205">
		<tag k="name" v="Korsvannet" />
		<tag k="natural" v="water" />
		<tag k="ssr:stedsnr" v="262470" />
	</node>
	<node lat="70.67811944944701" lon="23.030563835578704" id="-206">
		<tag k="name" v="Mellomvannet" />
		<tag k="natural" v="water" />
		<tag k="ssr:stedsnr" v="262476" />
	</node>
	<node lat="70.67499444194716" lon="23.134938826818892" id="-207">
		<tag k="name" v="Straumvannet" />
		<tag k="natural" v="water" />
		<tag k="ssr:stedsnr" v="262479" />
	</node>
	<node lat="70.68714166350814" lon="23.06231938755693" id="-208">
		<tag k="name" v="Rundvannet" />
		<tag k="natural" v="water" />
		<tag k="ssr:stedsnr" v="262485" />
	</node>
	<node lat="70.29844167268733" lon="24.088260998516073" id="-211">
		<tag k="name" v="Gaskavákjohka" />
		<tag k="name:se" v="Gaskavákjohka" />
		<tag k="old_name:se" v="Gaskavatjåkka" />
		<tag k="ssr:stedsnr" v="262665" />
		<tag k="waterway" v="river" />
	</node>
	<node lat="70.38962222826463" lon="24.433022071772218" id="-214">
		<tag k="name" v="Brattelva - Virošjohka" />
		<tag k="name:no" v="Brattelva" />
		<tag k="name:se" v="Virošjohka" />
		<tag k="old_name:se" v="Virušjåkka" />
		<tag k="ssr:stedsnr" v="262636" />
		<tag k="waterway" v="stream" />
	</node>
	<node lat="70.32489722441477" lon="24.311608196981204" id="-215">
		<tag k="name" v="Trangdalselva - Juovssajohka" />
		<tag k="name:no" v="Trangdalselva" />
		<tag k="name:se" v="Juovssajohka" />
		<tag k="old_name:se" v="Juovsajåkka" />
		<tag k="ssr:stedsnr" v="262683" />
		<tag k="waterway" v="stream" />
	</node>
	<node lat="70.38776666620358" lon="23.716913792679737" id="-217">
		<tag k="name" v="Trekantvatnet" />
		<tag k="natural" v="water" />
		<tag k="ssr:stedsnr" v="262791" />
	</node>
	<node lat="70.50486666727205" lon="24.60776929742573" id="-218">
		<tag k="name" v="Bierffetjohka" />
		<tag k="name:se" v="Bierffetjohka" />
		<tag k="old_name:se" v="Bierfetjåkka" />
		<tag k="ssr:stedsnr" v="262875" />
		<tag k="waterway" v="river" />
	</node>
	<node lat="70.46654445220388" lon="24.482927627818686" id="-221">
		<tag k="name" v="Bávttevuolesjávri" />
		<tag k="name:se" v="Bávttevuolesjávri" />
		<tag k="natural" v="water" />
		<tag k="old_name:se" v="Bavtevuolesjavri" />
		<tag k="ssr:stedsnr" v="262881" />
	</node>
	<node lat="70.18944444784968" lon="24.060944311261093" id="-224">
		<tag k="name" v="Jovnnajohka" />
		<tag k="name:se" v="Jovnnajohka" />
		<tag k="old_name:se" v="Jåvnajåkka" />
		<tag k="ssr:stedsnr" v="262956" />
		<tag k="waterway" v="river" />
	</node>
	<node lat="70.63600278057228" lon="23.79265267547082" id="-228">
		<tag k="name" v="Vearajávrrit" />
		<tag k="name:se" v="Vearajávrrit" />
		<tag k="natural" v="water" />
		<tag k="old_name:se" v="Værajavrit" />
		<tag k="ssr:stedsnr" v="263023" />
		<tag k="water" v="lake" />
	</node>
	<node lat="70.5256805549904" lon="23.89291934289311" id="-234">
		<tag k="name" v="Skrikarvatnet - Láttojávri" />
		<tag k="name:no" v="Skrikarvatnet" />
		<tag k="name:se" v="Láttojávri" />
		<tag k="natural" v="water" />
		<tag k="old_name:se" v="Laddujavri" />
		<tag k="ssr:stedsnr" v="263241" />
	</node>
	<node lat="70.65297499849454" lon="22.963547144702297" id="-239">
		<tag k="name" v="Tverrfjellvannet" />
		<tag k="natural" v="water" />
		<tag k="ssr:stedsnr" v="263462" />
	</node>
	<node lat="70.64506944674154" lon="24.763633190274565" id="-246">
		<tag k="name" v="Dápmotláttu" />
		<tag k="name:se" v="Dápmotláttu" />
		<tag k="natural" v="water" />
		<tag k="old_name:se" v="Dabmutladdo" />
		<tag k="ssr:stedsnr" v="263855" />
	</node>
	<node lat="70.58299444665126" lon="24.85604428379902" id="-248">
		<tag k="name" v="Oarjejohka" />
		<tag k="name:se" v="Oarjejohka" />
		<tag k="old_name:se" v="Oarjejåkka" />
		<tag k="ssr:stedsnr" v="263882" />
		<tag k="waterway" v="stream" />
	</node>
	<node lat="70.46228333834773" lon="23.52566657527175" id="-251">
		<tag k="name" v="Vuolit Ruollajávri" />
		<tag k="name:se" v="Vuolit Ruollajávri" />
		<tag k="natural" v="water" />
		<tag k="old_name:se" v="Ruollajavri, vuolit" />
		<tag k="ssr:stedsnr" v="263959" />
		<tag k="water" v="lake" />
	</node>
	<node lat="70.4834166731301" lon="23.981597116982055" id="-252">
		<tag k="alt_name" v="Bergelva, l" />
		<tag k="name" v="Lille Bergelva" />
		<tag k="ssr:stedsnr" v="263968" />
		<tag k="waterway" v="stream" />
	</node>
	<node lat="70.45579167267987" lon="23.186294379178317" id="-255">
		<tag k="name" v="Sommarvannet - Geassejávri" />
		<tag k="name:no" v="Sommarvannet" />
		<tag k="name:se" v="Geassejávri" />
		<tag k="natural" v="water" />
		<tag k="old_name:se" v="Gæssejavri" />
		<tag k="ssr:stedsnr" v="201045" />
	</node>
	<node lat="70.67333333399715" lon="23.956341554988096" id="-262">
		<tag k="name" v="Rennervannene" />
		<tag k="natural" v="water" />
		<tag k="ssr:stedsnr" v="202002" />
		<tag k="water" v="lake" />
	</node>
	<node lat="70.24639722784616" lon="24.16179431995306" id="-263">
		<tag k="name" v="Johkamohkki" />
		<tag k="name:se" v="Johkamohkki" />
		<tag k="natural" v="cape" />
		<tag k="old_name:se" v="Jåkkamåkki" />
		<tag k="ssr:stedsnr" v="201992" />
	</node>
	<node lat="70.49850277823728" lon="23.129724939245325" id="-269">
		<tag k="name" v="Hamnevannet" />
		<tag k="natural" v="water" />
		<tag k="ssr:stedsnr" v="202087" />
	</node>
	<node lat="70.8096888877396" lon="23.409711025675524" id="-272">
		<tag k="name" v="Mefjellvannet" />
		<tag k="natural" v="water" />
		<tag k="ssr:stedsnr" v="202090" />
	</node>
	<node lat="70.72088056149066" lon="23.06847493143964" id="-277">
		<tag k="name" v="Elvavannet" />
		<tag k="natural" v="water" />
		<tag k="ssr:stedsnr" v="202269" />
		<tag k="water" v="lake" />
	</node>
	<node lat="70.65537500103616" lon="23.114191603739616" id="-278">
		<tag k="name" v="Kuvikvannet" />
		<tag k="natural" v="water" />
		<tag k="ssr:stedsnr" v="202449" />
	</node>
	<node lat="70.5811055594588" lon="22.91258328669155" id="-279">
		<tag k="name" v="Nordbotnvannet" />
		<tag k="natural" v="water" />
		<tag k="ssr:stedsnr" v="202396" />
	</node>
	<node lat="70.63501389462992" lon="24.49305542268603" id="-282">
		<tag k="name" v="Nihkajávri" />
		<tag k="name:se" v="Nihkajávri" />
		<tag k="natural" v="water" />
		<tag k="old_name:se" v="Nikkajavri" />
		<tag k="ssr:stedsnr" v="202787" />
	</node>
	<node lat="70.44084722124126" lon="23.860569336825783" id="-288">
		<tag k="alt_name" v="Kjosen, midtre" />
		<tag k="name" v="Midtre Kjosen" />
		<tag k="place" v="locality" />
		<tag k="ssr:stedsnr" v="202978" />
	</node>
	<node lat="70.40841666625207" lon="23.973527662852188" id="-290">
		<tag k="alt_name:no" v="Saltvatnet, øvre" />
		<tag k="name" v="Øvre Saltvatnet - Bajimus Suolojávri" />
		<tag k="name:no" v="Øvre Saltvatnet" />
		<tag k="name:se" v="Bajimus Suolojávri" />
		<tag k="natural" v="water" />
		<tag k="old_name:se" v="Suolujavri bajimus;Bajimus Suolojávre" />
		<tag k="ssr:stedsnr" v="202992" />
		<tag k="water" v="lake" />
	</node>
	<node lat="70.4185805587226" lon="23.806577677421004" id="-292">
		<tag k="alt_name:no" v="Øvre Neverfjordvatn" />
		<tag k="name" v="Øvre Neverfjordvatnet - Bajit Fiettarjávri" />
		<tag k="name:no" v="Øvre Neverfjordvatnet" />
		<tag k="name:se" v="Bajit Fiettarjávri" />
		<tag k="natural" v="water" />
		<tag k="old_name:no" v="Neverfjordvatnet, øvre" />
		<tag k="old_name:se" v="Fieddarjavri bajit" />
		<tag k="ssr:stedsnr" v="202999" />
		<tag k="water" v="lake" />
	</node>
	<node lat="70.4704861107984" lon="23.850969331095225" id="-293">
		<tag k="name" v="Øvre Fiskelvvatn - Bajit Čoavddajávri" />
		<tag k="name:no" v="Øvre Fiskelvvatn" />
		<tag k="name:se" v="Bajit Čoavddajávri" />
		<tag k="natural" v="water" />
		<tag k="old_name:se" v="Čoavdajavri, bajit" />
		<tag k="ssr:stedsnr" v="268424" />
		<tag k="water" v="lake" />
	</node>
	<node lat="70.44999444573821" lon="23.537469359134807" id="-296">
		<tag k="name" v="Bajit Ruollajávri" />
		<tag k="name:se" v="Bajit Ruollajávri" />
		<tag k="natural" v="water" />
		<tag k="old_name:se" v="Ruollajavri, bajit" />
		<tag k="ssr:stedsnr" v="207398" />
		<tag k="water" v="lake" />
	</node>
	<node lat="70.63253333706913" lon="24.747630391154477" id="-302">
		<tag k="name" v="Njukčunjohka" />
		<tag k="name:se" v="Njukčunjohka" />
		<tag k="ssr:stedsnr" v="215195" />
		<tag k="waterway" v="stream" />
	</node>
	<node lat="70.472402783402" lon="23.932961009050036" id="-307">
		<tag k="name" v="Korselva" />
		<tag k="natural" v="bay" />
		<tag k="ssr:stedsnr" v="271986" />
	</node>
	<node lat="70.51102222809021" lon="23.910980440014413" id="-316">
		<tag k="name" v="Ráššejohka" />
		<tag k="name:se" v="Ráššejohka" />
		<tag k="ssr:stedsnr" v="453573" />
		<tag k="waterway" v="stream" />
	</node>
	<node lat="70.4553333343889" lon="22.95214159673874" id="-331">
		<tag k="name" v="Dáččavuonjávri" />
		<tag k="name:se" v="Dáččavuonjávri" />
		<tag k="natural" v="water" />
		<tag k="old_name:se" v="Dažžavuonjavri" />
		<tag k="ssr:stedsnr" v="262053" />
		<tag k="water" v="lake" />
	</node>
	<node lat="70.64685834038026" lon="24.2754776545883" id="-336">
		<tag k="name" v="Kråkefjellvatnet - Guommajávri" />
		<tag k="name:no" v="Kråkefjellvatnet" />
		<tag k="name:se" v="Guommajávri" />
		<tag k="natural" v="water" />
		<tag k="old_name:se" v="Guommajavri" />
		<tag k="ssr:stedsnr" v="262147" />
		<tag k="water" v="lake" />
	</node>
	<node lat="70.42408889204523" lon="24.593577629581425" id="-346">
		<tag k="name" v="Skaidielva" />
		<tag k="name:no" v="Skaidielva" />
		<tag k="name:se" v="Skáiddejohka" />
		<tag k="ssr:stedsnr" v="262649" />
		<tag k="waterway" v="river" />
	</node>
	<node lat="70.35183333691694" lon="24.547597073499432" id="-347">
		<tag k="name" v="Jovssebajávrrit" />
		<tag k="name:se" v="Jovssebajávrrit" />
		<tag k="natural" v="water" />
		<tag k="old_name:se" v="Jåvsebajavrit" />
		<tag k="ssr:stedsnr" v="262701" />
		<tag k="water" v="lake" />
	</node>
	<node lat="70.40426111699009" lon="23.75806934570238" id="-348">
		<tag k="alt_name" v="Sennavatnan, nedre" />
		<tag k="name" v="Nedre Sennavatn" />
		<tag k="natural" v="water" />
		<tag k="ssr:stedsnr" v="262792" />
		<tag k="water" v="lake" />
	</node>
	<node lat="70.39208610929116" lon="23.606241580290067" id="-349">
		<tag k="name" v="Norddalsvatnet" />
		<tag k="natural" v="water" />
		<tag k="ssr:stedsnr" v="262797" />
	</node>
	<node lat="70.35903611240934" lon="23.69342211920766" id="-350">
		<tag k="alt_name:no" v="Hermannvatn" />
		<tag k="name" v="Hermannvatnet - Golmmačiegatjávri" />
		<tag k="name:no" v="Hermannvatnet" />
		<tag k="name:se" v="Golmmačiegatjávri" />
		<tag k="natural" v="water" />
		<tag k="old_name:se" v="Gålmačiegatjavri" />
		<tag k="ssr:stedsnr" v="262798" />
		<tag k="water" v="lake" />
	</node>
	<node lat="70.68604166626378" lon="23.79185546799107" id="-351">
		<tag k="name" v="Sjåvannet - Bolloluoppal" />
		<tag k="name:no" v="Sjåvannet" />
		<tag k="name:se" v="Bolloluoppal" />
		<tag k="natural" v="water" />
		<tag k="old_name:se" v="Bålluluobbal" />
		<tag k="ssr:stedsnr" v="263002" />
	</node>
	<node lat="70.50967778076856" lon="23.22978602800754" id="-357">
		<tag k="name" v="Martavannet" />
		<tag k="natural" v="water" />
		<tag k="ssr:stedsnr" v="263099" />
	</node>
	<node lat="70.27228055679858" lon="23.860058223212736" id="-364">
		<tag k="name" v="Varisjohka" />
		<tag k="name:se" v="Varisjohka" />
		<tag k="old_name:se" v="Varisjåkka" />
		<tag k="ssr:stedsnr" v="263813" />
		<tag k="waterway" v="river" />
	</node>
	<node lat="70.54809999984448" lon="24.198652658815178" id="-368">
		<tag k="name" v="Ruollajávri" />
		<tag k="name:se" v="Ruollajávri" />
		<tag k="natural" v="water" />
		<tag k="old_name:se" v="Ruollajavri" />
		<tag k="ssr:stedsnr" v="263792" />
	</node>
	<node lat="70.56764444706899" lon="24.208097099598" id="-370">
		<tag k="name" v="Njoammeljohka" />
		<tag k="name:se" v="Njoammeljohka" />
		<tag k="old_name:se" v="Njoammeljåkka" />
		<tag k="ssr:stedsnr" v="263801" />
		<tag k="waterway" v="stream" />
	</node>
	<node lat="70.63892500284925" lon="23.710069351723842" id="-381">
		<tag k="name" v="Tyvvannet" />
		<tag k="natural" v="water" />
		<tag k="ssr:stedsnr" v="273175" />
	</node>
	<node lat="70.68808056056031" lon="23.724316588868845" id="-385">
		<tag k="name" v="Rundvannet" />
		<tag k="natural" v="water" />
		<tag k="ssr:stedsnr" v="274206" />
	</node>
	<node lat="70.71908333691663" lon="23.78963880966241" id="-388">
		<tag k="name" v="Vassbotnelva" />
		<tag k="ssr:stedsnr" v="274187" />
		<tag k="waterway" v="river" />
	</node>
	<node lat="70.46656389624825" lon="24.324249861150836" id="-405">
		<tag k="name" v="Neselva" />
		<tag k="ssr:stedsnr" v="271947" />
		<tag k="waterway" v="stream" />
	</node>
	<node lat="70.5044972247676" lon="23.50569436920068" id="-416">
		<tag k="name" v="Čáhcegopjávrrit" />
		<tag k="name:no" v="Tindvannene" />
		<tag k="name:se" v="Čáhcegopjávrrit" />
		<tag k="natural" v="water" />
		<tag k="old_name:se" v="Čaccegåpjavrit" />
		<tag k="ssr:stedsnr" v="323176" />
	</node>
	<node lat="70.680830555518" lon="22.885438837086873" id="-422">
		<tag k="name" v="Buktafjellvannene" />
		<tag k="natural" v="water" />
		<tag k="ssr:stedsnr" v="323482" />
		<tag k="water" v="lake" />
	</node>
	<node lat="70.57918611590976" lon="24.070594345601222" id="-426">
		<tag k="name" v="Iselva" />
		<tag k="ssr:stedsnr" v="323812" />
		<tag k="waterway" v="stream" />
	</node>
	<node lat="70.27509166733327" lon="23.79843043602846" id="-427">
		<tag k="name" v="Vuolit Varisjávri" />
		<tag k="name:se" v="Vuolit Varisjávri" />
		<tag k="natural" v="water" />
		<tag k="old_name:se" v="Varisjavri, vuolit" />
		<tag k="ssr:stedsnr" v="323815" />
		<tag k="water" v="lake" />
	</node>
	<node lat="70.43801111178101" lon="24.01781100866022" id="-430">
		<tag k="name" v="Bergvatnet" />
		<tag k="natural" v="water" />
		<tag k="ssr:stedsnr" v="323878" />
	</node>
	<node lat="70.58792222570861" lon="24.710080391825652" id="-432">
		<tag k="name" v="Skillevatnet - Rátkkajávri" />
		<tag k="name:no" v="Skillevatnet" />
		<tag k="name:se" v="Rátkkajávri" />
		<tag k="natural" v="water" />
		<tag k="old_name:se" v="Ratkajavri" />
		<tag k="ssr:stedsnr" v="323887" />
	</node>
	<node lat="70.36108055827252" lon="23.604730474600764" id="-433">
		<tag k="name" v="Gosvikvatnan" />
		<tag k="natural" v="water" />
		<tag k="ssr:stedsnr" v="323771" />
		<tag k="water" v="lake" />
	</node>
	<node lat="70.36795277975651" lon="23.79468877678371" id="-434">
		<tag k="alt_name:no" v="Rustvatn" />
		<tag k="name" v="Rustvatnet - Állejávri" />
		<tag k="name:no" v="Rustvatnet" />
		<tag k="name:se" v="Állejávri" />
		<tag k="natural" v="water" />
		<tag k="old_name:se" v="Allejavri" />
		<tag k="ssr:stedsnr" v="323772" />
	</node>
	<node lat="70.44383611347516" lon="23.864697113705535" id="-438">
		<tag k="alt_name" v="Kjosen, nedre" />
		<tag k="name" v="Nedre Kjosen" />
		<tag k="place" v="locality" />
		<tag k="ssr:stedsnr" v="323972" />
	</node>
	<node lat="70.50381110944" lon="24.048769341975518" id="-446">
		<tag k="name" v="Slettelva" />
		<tag k="ssr:stedsnr" v="332999" />
		<tag k="waterway" v="river" />
	</node>
	<node lat="70.6638055561943" lon="23.70604990665225" id="-447">
		<tag k="name" v="Holmen" />
		<tag k="natural" v="cape" />
		<tag k="ssr:stedsnr" v="334203" />
	</node>
	<node lat="70.7195416672402" lon="23.764797123744273" id="-449">
		<tag k="name" v="Reindalselva" />
		<tag k="ssr:stedsnr" v="334196" />
		<tag k="waterway" v="stream" />
	</node>
	<node lat="70.54471667228587" lon="24.14165545149727" id="-455">
		<tag k="name" v="Buktavatnet" />
		<tag k="natural" v="water" />
		<tag k="ssr:stedsnr" v="271970" />
		<tag k="water" v="lake" />
	</node>
	<node lat="70.6186472273994" lon="23.82055545972497" id="-459">
		<tag k="name" v="Guhkesjávri" />
		<tag k="name:no" v="Montenegrovannet" />
		<tag k="name:se" v="Guhkesjávri" />
		<tag k="natural" v="water" />
		<tag k="old_name:se" v="Gukkesjavri" />
		<tag k="ssr:stedsnr" v="383250" />
	</node>
	<node lat="70.69694167274221" lon="23.063491596888852" id="-463">
		<tag k="name" v="Korselva" />
		<tag k="ssr:stedsnr" v="383509" />
		<tag k="waterway" v="stream" />
	</node>
	<node lat="70.64537222924504" lon="23.9305387818414" id="-466">
		<tag k="name" v="Dápmotjávri" />
		<tag k="name:no" v="Holmvannet" />
		<tag k="name:se" v="Dápmotjávri" />
		<tag k="natural" v="water" />
		<tag k="old_name:se" v="Dabmutjavri;Dabmutjávrrit" />
		<tag k="ssr:stedsnr" v="384017" />
		<tag k="water" v="lake" />
	</node>
	<node lat="70.58919722926582" lon="24.583674867265863" id="-468">
		<tag k="name" v="Boazojohka" />
		<tag k="name:se" v="Boazojohka" />
		<tag k="old_name:se" v="Boazujåkka;Boazujohka" />
		<tag k="ssr:stedsnr" v="384021" />
		<tag k="waterway" v="river" />
	</node>
	<node lat="70.80025000324015" lon="23.402024936005272" id="-472">
		<tag k="name" v="Hamnevannet" />
		<tag k="natural" v="water" />
		<tag k="ssr:stedsnr" v="384104" />
	</node>
	<node lat="70.66005278121382" lon="24.3082248714721" id="-473">
		<tag k="name" v="Guovdajohka" />
		<tag k="name:se" v="Guovdajohka" />
		<tag k="old_name:se" v="Guovdajåkka" />
		<tag k="ssr:stedsnr" v="384164" />
		<tag k="waterway" v="stream" />
	</node>
	<node lat="70.54135277943453" lon="23.773694342185046" id="-477">
		<tag k="name" v="Gieldaluokjohka" />
		<tag k="name:se" v="Gieldaluokjohka" />
		<tag k="old_name:se" v="Gieldaluokjåkka" />
		<tag k="ssr:stedsnr" v="384208" />
		<tag k="waterway" v="river" />
	</node>
	<node lat="70.4267138923916" lon="24.36690264108929" id="-482">
		<tag k="alt_name" v="Lomvatnan" />
		<tag k="name" v="Lomvatna" />
		<tag k="natural" v="water" />
		<tag k="ssr:stedsnr" v="384647" />
	</node>
	<node lat="70.46294444951886" lon="24.609610950661303" id="-485">
		<tag k="name" v="Guorrojohka" />
		<tag k="name:se" v="Guorrojohka" />
		<tag k="old_name:se" v="Guorrujåkka;Guorrujohka" />
		<tag k="ssr:stedsnr" v="384656" />
		<tag k="waterway" v="river" />
	</node>
	<node lat="70.47249722066942" lon="24.14452766646117" id="-490">
		<tag k="name" v="Fægfjordvatnet" />
		<tag k="natural" v="water" />
		<tag k="ssr:stedsnr" v="384823" />
	</node>
	<node lat="70.61691666926144" lon="23.669383244991213" id="-500">
		<tag k="name" v="Nerneset" />
		<tag k="natural" v="cape" />
		<tag k="ssr:stedsnr" v="395180" />
	</node>
	<node lat="70.2554777813614" lon="24.10336654927518" id="-518">
		<tag k="name" v="Leavššejohka" />
		<tag k="name:se" v="Leavššejohka" />
		<tag k="old_name:se" v="Lævšejåkka" />
		<tag k="ssr:stedsnr" v="444982" />
		<tag k="waterway" v="stream" />
	</node>
	<node lat="70.6712222229854" lon="23.143755490988063" id="-530">
		<tag k="name" v="Jakobbuktvannet" />
		<tag k="natural" v="water" />
		<tag k="ssr:stedsnr" v="445481" />
	</node>
	<node lat="70.43494444319177" lon="23.797041571465265" id="-537">
		<tag k="name" v="Finnvatnet" />
		<tag k="natural" v="water" />
		<tag k="ssr:stedsnr" v="445977" />
	</node>
	<node lat="70.43682500266776" lon="23.490211024316324" id="-538">
		<tag k="name" v="Sáttojávri" />
		<tag k="name:se" v="Sáttojávri" />
		<tag k="natural" v="water" />
		<tag k="old_name:se" v="Saddujavri" />
		<tag k="ssr:stedsnr" v="445982" />
	</node>
	<node lat="70.54604444624793" lon="24.11414709412834" id="-547">
		<tag k="name" v="Lomvatnet" />
		<tag k="natural" v="water" />
		<tag k="ssr:stedsnr" v="453971" />
	</node>
	<node lat="70.54848889627442" lon="24.139174877143276" id="-548">
		<tag k="name" v="Nøkkelvatnet" />
		<tag k="natural" v="water" />
		<tag k="ssr:stedsnr" v="453972" />
	</node>
	<node lat="70.67690555988712" lon="23.743127699283107" id="-565">
		<tag k="name" v="Hyggevannet - Njárgajávri" />
		<tag k="name:no" v="Hyggevannet" />
		<tag k="name:se" v="Njárgajávri" />
		<tag k="natural" v="water" />
		<tag k="old_name:se" v="Njargajavri" />
		<tag k="ssr:stedsnr" v="505016" />
		<tag k="water" v="lake" />
	</node>
	<node lat="70.13583333566429" lon="24.061110989858957" id="-567">
		<tag k="name" v="Ruššoleakjohka" />
		<tag k="name:se" v="Ruššoleakjohka" />
		<tag k="old_name:se" v="Ruššulækjåkka" />
		<tag k="ssr:stedsnr" v="504972" />
		<tag k="waterway" v="river" />
	</node>
	<node lat="70.51800556186514" lon="23.854566575594113" id="-577">
		<tag k="name" v="Hanselva - Mártejohka" />
		<tag k="name:no" v="Hanselva" />
		<tag k="name:se" v="Mártejohka" />
		<tag k="old_name:se" v="Martejåkka" />
		<tag k="ssr:stedsnr" v="505218" />
		<tag k="waterway" v="river" />
	</node>
	<node lat="70.47954445252186" lon="24.70739983909127" id="-582">
		<tag k="name" v="Njárgajávri" />
		<tag k="name:se" v="Njárgajávri" />
		<tag k="natural" v="water" />
		<tag k="old_name:se" v="Njargajavri" />
		<tag k="ssr:stedsnr" v="505711" />
	</node>
	<node lat="70.27581667497526" lon="23.959797106212942" id="-584">
		<tag k="name" v="Šlihparguollejávri" />
		<tag k="name:se" v="Šlihparguollejávri" />
		<tag k="natural" v="water" />
		<tag k="old_name:se" v="Šlipparguollejavri" />
		<tag k="ssr:stedsnr" v="505815" />
	</node>
	<node lat="70.47218056237492" lon="23.830422123736525" id="-593">
		<tag k="name" v="Fiskelvvatnan" />
		<tag k="natural" v="water" />
		<tag k="ssr:stedsnr" v="514867" />
		<tag k="water" v="lake" />
	</node>
	<node lat="70.42671667085153" lon="24.36689986128513" id="-594">
		<tag k="name" v="Lomvatnet" />
		<tag k="natural" v="water" />
		<tag k="ssr:stedsnr" v="514869" />
	</node>
	<node lat="70.57056111555123" lon="24.164638773584535" id="-598">
		<tag k="name" v="Brennsvikelva" />
		<tag k="ssr:stedsnr" v="514974" />
		<tag k="waterway" v="stream" />
	</node>
	<node lat="70.71267778135095" lon="23.75816102736463" id="-602">
		<tag k="name" v="Grytavannet" />
		<tag k="natural" v="water" />
		<tag k="ssr:stedsnr" v="516212" />
	</node>
	<node lat="70.5449305605602" lon="23.399258260044952" id="-616">
		<tag k="name" v="Karbuktvannet" />
		<tag k="natural" v="water" />
		<tag k="ssr:stedsnr" v="687108" />
	</node>
	<node lat="70.78701111037465" lon="23.116494380625127" id="-641">
		<tag k="name" v="Saksfjordvannet" />
		<tag k="natural" v="water" />
		<tag k="ssr:stedsnr" v="687151" />
	</node>
	<node lat="70.6775138889726" lon="24.005830456261975" id="-645">
		<tag k="name" v="Hukertvannet" />
		<tag k="natural" v="water" />
		<tag k="ssr:stedsnr" v="687169" />
		<tag k="water" v="lake" />
	</node>
	<node lat="70.55625833623098" lon="23.787833239665574" id="-646">
		<tag k="name" v="Gieldaluokjávri" />
		<tag k="name:se" v="Gieldaluokjávri" />
		<tag k="natural" v="water" />
		<tag k="old_name:se" v="Gieldaluokjavri" />
		<tag k="ssr:stedsnr" v="687180" />
	</node>
	<node lat="70.6107305598197" lon="23.500738814541133" id="-654">
		<tag k="name" v="Ersvikelva - Jallajohka" />
		<tag k="name:no" v="Ersvikelva" />
		<tag k="name:se" v="Jallajohka" />
		<tag k="old_name:se" v="Jallajåkka" />
		<tag k="ssr:stedsnr" v="687231" />
		<tag k="waterway" v="stream" />
	</node>
	<node lat="70.65604444859724" lon="22.990644381328867" id="-658">
		<tag k="name" v="Lomungen" />
		<tag k="natural" v="water" />
		<tag k="ssr:stedsnr" v="687437" />
	</node>
	<node lat="70.20690833531613" lon="23.824169342867016" id="-660">
		<tag k="name" v="Suolojohka" />
		<tag k="name:se" v="Suolojohka" />
		<tag k="old_name:se" v="Suolujåkka" />
		<tag k="ssr:stedsnr" v="687441" />
		<tag k="waterway" v="river" />
	</node>
	<node lat="70.63858889588549" lon="22.89900826373149" id="-662">
		<tag k="name" v="Moltebærvannet" />
		<tag k="natural" v="water" />
		<tag k="ssr:stedsnr" v="687426" />
	</node>
	<node lat="70.42129167321316" lon="24.05488601055277" id="-668">
		<tag k="name" v="Guoirratjohka" />
		<tag k="name:se" v="Guoirratjohka" />
		<tag k="old_name:se" v="Guoiratjåkka" />
		<tag k="ssr:stedsnr" v="687652" />
		<tag k="waterway" v="stream" />
	</node>
	<node lat="70.43883333522226" lon="24.285960972209637" id="-671">
		<tag k="name" v="Ytre Ariselv - Olggut Árešjohka" />
		<tag k="name:no" v="Ytre Ariselv" />
		<tag k="name:se" v="Olggut Árešjohka" />
		<tag k="old_name:no" v="Ariselv ytre" />
		<tag k="old_name:se" v="Arešjåkka, ålgot" />
		<tag k="ssr:stedsnr" v="687661" />
		<tag k="waterway" v="river" />
	</node>
	<node lat="70.6235861147426" lon="24.095483234318035" id="-675">
		<tag k="name" v="Halsevatnet" />
		<tag k="natural" v="water" />
		<tag k="ssr:stedsnr" v="687776" />
	</node>
	<node lat="70.50815000323641" lon="24.347316547165676" id="-678">
		<tag k="name" v="Heargejohka" />
		<tag k="name:se" v="Heargejohka" />
		<tag k="old_name:se" v="Hærgejåkka" />
		<tag k="ssr:stedsnr" v="687851" />
		<tag k="waterway" v="stream" />
	</node>
	<node lat="70.50465000024573" lon="24.326330421284872" id="-679">
		<tag k="name" v="Erdalselva - Earnjoasjohka" />
		<tag k="name:no" v="Erdalselva" />
		<tag k="name:se" v="Earnjoasjohka" />
		<tag k="old_name:se" v="Ærnjoasjåkka" />
		<tag k="ssr:stedsnr" v="687852" />
		<tag k="waterway" v="river" />
	</node>
	<node lat="70.45745556032674" lon="24.210191535946564" id="-680">
		<tag k="name" v="Čiekŋalisjohka" />
		<tag k="name:no" v="Dypelva" />
		<tag k="name:se" v="Čiekŋalisjohka" />
		<tag k="old_name:se" v="Čiegŋalisjåkka" />
		<tag k="ssr:stedsnr" v="687867" />
		<tag k="waterway" v="river" />
	</node>
	<node lat="70.19953611240882" lon="23.95880544957128" id="-681">
		<tag k="name" v="Áidejohka" />
		<tag k="name:se" v="Áidejohka" />
		<tag k="old_name:se" v="Aidejåkka" />
		<tag k="ssr:stedsnr" v="687878" />
		<tag k="waterway" v="river" />
	</node>
	<node lat="70.22386111538509" lon="24.188591544227716" id="-686">
		<tag k="name" v="Njunnásjohka" />
		<tag k="name:se" v="Njunnásjohka" />
		<tag k="old_name:se" v="Njunnasjåkka" />
		<tag k="ssr:stedsnr" v="687999" />
		<tag k="waterway" v="river" />
	</node>
	<node lat="70.49140556070559" lon="23.597924915259444" id="-689">
		<tag k="name" v="Kirstenvatnet" />
		<tag k="natural" v="water" />
		<tag k="ssr:stedsnr" v="687969" />
	</node>
	<node lat="70.58228611682554" lon="24.655605420051867" id="-696">
		<tag k="name" v="Råttvatnet - Guohcajávri" />
		<tag k="name:no" v="Råttvatnet" />
		<tag k="name:se" v="Guohcajávri" />
		<tag k="natural" v="water" />
		<tag k="old_name:se" v="Guoccajavri" />
		<tag k="ssr:stedsnr" v="688879" />
	</node>
	<node lat="70.35543611340671" lon="24.354199870029017" id="-712">
		<tag k="name" v="Guovžagorži" />
		<tag k="name:se" v="Guovžagorži" />
		<tag k="natural" v="waterfall" />
		<tag k="old_name:se" v="Guovžagårži" />
		<tag k="ssr:stedsnr" v="565693" />
	</node>
	<node lat="70.543152777772" lon="23.804288778859622" id="-719">
		<tag k="name" v="Skjåholmvatna - Cubbošjávrrit" />
		<tag k="name:no" v="Skjåholmvatna" />
		<tag k="name:se" v="Cubbošjávrrit" />
		<tag k="natural" v="water" />
		<tag k="old_name:se" v="Cubbušjavrit" />
		<tag k="ssr:stedsnr" v="566221" />
		<tag k="water" v="lake" />
	</node>
	<node lat="70.72589999976562" lon="23.304099928512535" id="-723">
		<tag k="alt_name" v="Setervatnet" />
		<tag k="name" v="Sætervatnet" />
		<tag k="natural" v="water" />
		<tag k="ssr:stedsnr" v="566269" />
	</node>
	<node lat="70.63859722986894" lon="24.54933874978153" id="-729">
		<tag k="name" v="Durejávri" />
		<tag k="name:se" v="Durejávri" />
		<tag k="natural" v="water" />
		<tag k="old_name:se" v="Durejavri" />
		<tag k="ssr:stedsnr" v="566773" />
	</node>
	<node lat="70.5984166704626" lon="24.62887762675506" id="-733">
		<tag k="name" v="Kokelva" />
		<tag k="name:no" v="Kokelva" />
		<tag k="name:se" v="Goavkejohka" />
		<tag k="old_name:se" v="Goavkejåkka" />
		<tag k="ssr:stedsnr" v="566809" />
		<tag k="waterway" v="river" />
	</node>
	<node lat="70.56062222232784" lon="24.167469313648066" id="-734">
		<tag k="name" v="Brennsvikvatnet - Buollánluohjávri" />
		<tag k="name:no" v="Brennsvikvatnet" />
		<tag k="name:se" v="Buollánluohjávri" />
		<tag k="natural" v="water" />
		<tag k="old_name:se" v="Buollanluokjavri" />
		<tag k="ssr:stedsnr" v="566813" />
		<tag k="water" v="lake" />
	</node>
	<node lat="70.47218056237492" lon="23.830422123736525" id="-736">
		<tag k="name" v="Nedre Fiskelvvatn - Vuolit Čoavddajávri" />
		<tag k="name:no" v="Nedre Fiskelvvatn" />
		<tag k="name:se" v="Vuolit Čoavddajávri" />
		<tag k="natural" v="water" />
		<tag k="old_name:se" v="Čoavdajavri, vuolit" />
		<tag k="ssr:stedsnr" v="566958" />
		<tag k="water" v="lake" />
	</node>
	<node lat="70.34676111005923" lon="23.913833233830964" id="-750">
		<tag k="name" v="Rámsojávrrit" />
		<tag k="name:se" v="Rámsojávrrit" />
		<tag k="natural" v="water" />
		<tag k="old_name:se" v="Ramsujavrit" />
		<tag k="ssr:stedsnr" v="576206" />
		<tag k="water" v="lake" />
	</node>
	<node lat="70.72001945080686" lon="23.77703045636766" id="-751">
		<tag k="name" v="Mylingskarselva" />
		<tag k="ssr:stedsnr" v="577206" />
		<tag k="waterway" v="stream" />
	</node>
	<node lat="70.60949723125461" lon="24.583447074777904" id="-753">
		<tag k="name" v="Trollskarvatnet" />
		<tag k="natural" v="water" />
		<tag k="ssr:stedsnr" v="578209" />
	</node>
	<node lat="70.40868888792502" lon="23.705719347628133" id="-754">
		<tag k="name" v="Barsvatn" />
		<tag k="natural" v="water" />
		<tag k="ssr:stedsnr" v="578215" />
	</node>
	<node lat="70.57453056240419" lon="24.8073637372219" id="-757">
		<tag k="name" v="Russeidet" />
		<tag k="place" v="locality" />
		<tag k="ssr:stedsnr" v="578152" />
	</node>
	<node lat="70.63373611019958" lon="23.68992212385996" id="-763">
		<tag k="name" v="Breidablikkvannet" />
		<tag k="natural" v="water" />
		<tag k="ssr:stedsnr" v="695793" />
		<tag k="water" v="lake" />
	</node>
	<node lat="70.50317222580607" lon="24.27498043813355" id="-766">
		<tag k="name" v="Kildeelva" />
		<tag k="ssr:stedsnr" v="696899" />
		<tag k="waterway" v="stream" />
	</node>
	<node lat="70.50726944779178" lon="23.377505485372332" id="-782">
		<tag k="name" v="Storvannet - Stuorajávri" />
		<tag k="name:no" v="Storvannet" />
		<tag k="name:se" v="Stuorajávri" />
		<tag k="natural" v="water" />
		<tag k="old_name:se" v="Stuorajavri" />
		<tag k="ssr:stedsnr" v="626102" />
		<tag k="water" v="lake" />
	</node>
	<node lat="70.63260000540193" lon="23.052699936699682" id="-789">
		<tag k="name" v="Storvannet" />
		<tag k="natural" v="water" />
		<tag k="ssr:stedsnr" v="626458" />
	</node>
	<node lat="70.6802999999666" lon="23.05188603979184" id="-790">
		<tag k="name" v="Båtsfjordvannet" />
		<tag k="natural" v="water" />
		<tag k="ssr:stedsnr" v="626509" />
		<tag k="water" v="lake" />
	</node>
	<node lat="70.43728055719875" lon="24.062797098088765" id="-792">
		<tag k="name" v="Langvatnet - Hoallojávri" />
		<tag k="name:no" v="Langvatnet" />
		<tag k="name:se" v="Hoallojávri" />
		<tag k="natural" v="water" />
		<tag k="old_name:se" v="Hoallujavri" />
		<tag k="ssr:stedsnr" v="626555" />
		<tag k="water" v="lake" />
	</node>
	<node lat="70.49551388940596" lon="24.021338783416542" id="-793">
		<tag k="fixme" v="multiple name tags, choose one and add the other to alt_name" />
		<tag k="name" v="Lille Halsevatn;Nedre Halsevatnet" />
		<tag k="natural" v="water" />
		<tag k="old_name" v="Halsevatnet, nedre" />
		<tag k="ssr:stedsnr" v="626847" />
	</node>
	<node lat="70.21825833486676" lon="24.319777635419108" id="-798">
		<tag k="name" v="Bajit Gáhččalanjávri" />
		<tag k="name:se" v="Bajit Gáhččalanjávri" />
		<tag k="natural" v="water" />
		<tag k="old_name:se" v="Gaččalanjavri, bajit" />
		<tag k="ssr:stedsnr" v="626953" />
		<tag k="water" v="lake" />
	</node>
	<node lat="70.56661111614223" lon="24.748627610692672" id="-805">
		<tag k="name" v="Giđđajohka" />
		<tag k="name:se" v="Giđđajohka" />
		<tag k="old_name:se" v="Giđđajåkka" />
		<tag k="ssr:stedsnr" v="627898" />
		<tag k="waterway" v="stream" />
	</node>
	<node lat="70.42788055591515" lon="23.421288811887802" id="-809">
		<tag k="name" v="Jiehkevuolesjávri" />
		<tag k="name:se" v="Jiehkevuolesjávri" />
		<tag k="natural" v="water" />
		<tag k="old_name:se" v="Jiekkevuolesjavri" />
		<tag k="ssr:stedsnr" v="627996" />
	</node>
	<node lat="70.32841389132905" lon="23.90117489502487" id="-812">
		<tag k="name" v="Vuolit Suhpodanjávri" />
		<tag k="name:se" v="Vuolit Suhpodanjávri" />
		<tag k="natural" v="water" />
		<tag k="old_name:se" v="Suppudanjavri, vuolit" />
		<tag k="ssr:stedsnr" v="632450" />
		<tag k="water" v="lake" />
	</node>
	<node lat="70.53207499995129" lon="24.002983228488024" id="-814">
		<tag k="name" v="Selgošgáddi" />
		<tag k="name:se" v="Selgošgáddi" />
		<tag k="natural" v="beach" />
		<tag k="ssr:stedsnr" v="635780" />
	</node>
	<node lat="70.32760277967716" lon="23.898486003611442" id="-815">
		<tag k="name" v="Bollevatnan" />
		<tag k="natural" v="water" />
		<tag k="ssr:stedsnr" v="635887" />
		<tag k="water" v="lake" />
	</node>
	<node lat="70.39959722239172" lon="24.486744307981372" id="-842">
		<tag k="name" v="Heastajohka" />
		<tag k="name:se" v="Heastajohka" />
		<tag k="old_name:se" v="Hæstajåkka" />
		<tag k="ssr:stedsnr" v="687634" />
		<tag k="waterway" v="stream" />
	</node>
	<node lat="70.345166672433" lon="24.0423720972141" id="-844">
		<tag k="name" v="Ruohtojávri" />
		<tag k="name:se" v="Ruohtojávri" />
		<tag k="natural" v="water" />
		<tag k="old_name:se" v="Ruottujavri" />
		<tag k="ssr:stedsnr" v="687687" />
	</node>
	<node lat="70.34601944812098" lon="24.215997106206444" id="-845">
		<tag k="name" v="Fanasjohka" />
		<tag k="name:se" v="Fanasjohka" />
		<tag k="old_name:se" v="Fanasjåkka" />
		<tag k="ssr:stedsnr" v="687691" />
		<tag k="waterway" v="stream" />
	</node>
	<node lat="70.35648333933791" lon="24.075538784749586" id="-846">
		<tag k="name" v="Bohtaljávri" />
		<tag k="name:se" v="Bohtaljávri" />
		<tag k="natural" v="water" />
		<tag k="old_name:se" v="Båttaljavri" />
		<tag k="ssr:stedsnr" v="687692" />
	</node>
	<node lat="70.33238611029584" lon="23.87620822114371" id="-847">
		<tag k="name" v="Bajit Suhpodanjávri" />
		<tag k="name:se" v="Bajit Suhpodanjávri" />
		<tag k="natural" v="water" />
		<tag k="old_name:se" v="Suppudanjavri, bajit" />
		<tag k="ssr:stedsnr" v="687785" />
		<tag k="water" v="lake" />
	</node>
	<node lat="70.53895000202286" lon="24.50738041515601" id="-856">
		<tag k="name" v="Goavkejávri" />
		<tag k="name:se" v="Goavkejávri" />
		<tag k="natural" v="water" />
		<tag k="old_name:se" v="Goavkejavri" />
		<tag k="ssr:stedsnr" v="688798" />
	</node>
	<node lat="70.58965833936396" lon="24.65304985595093" id="-857">
		<tag k="alt_name:no" v="Rottelva" />
		<tag k="name" v="Råttelva - Guohcajohka" />
		<tag k="name:no" v="Råttelva" />
		<tag k="name:se" v="Guohcajohka" />
		<tag k="old_name:se" v="Guoccajåkka" />
		<tag k="ssr:stedsnr" v="688884" />
		<tag k="waterway" v="stream" />
	</node>
	<node lat="70.68159444605277" lon="23.695055478691195" id="-866">
		<tag k="name" v="Tvillingvannene" />
		<tag k="natural" v="water" />
		<tag k="ssr:stedsnr" v="698218" />
		<tag k="water" v="lake" />
	</node>
	<node lat="70.33478333517432" lon="24.002397111788255" id="-883">
		<tag k="name" v="Gárdejávri" />
		<tag k="name:se" v="Gárdejávri" />
		<tag k="natural" v="water" />
		<tag k="old_name:se" v="Gardejavri" />
		<tag k="ssr:stedsnr" v="747671" />
	</node>
	<node lat="70.39230277804846" lon="23.78290266347606" id="-884">
		<tag k="alt_name" v="Falkvatn" />
		<tag k="name" v="Falkvatnan" />
		<tag k="natural" v="water" />
		<tag k="ssr:stedsnr" v="747766" />
		<tag k="water" v="lake" />
	</node>
	<node lat="70.4590472278267" lon="24.58025542002566" id="-886">
		<tag k="name" v="Gobesisjávri" />
		<tag k="name:se" v="Gobesisjávri" />
		<tag k="natural" v="water" />
		<tag k="old_name:se" v="Gåbesisjavri" />
		<tag k="ssr:stedsnr" v="747866" />
	</node>
	<node lat="70.5266861138017" lon="23.410088799177363" id="-890">
		<tag k="name" v="Mollavannet" />
		<tag k="natural" v="water" />
		<tag k="ssr:stedsnr" v="748065" />
	</node>
	<node lat="70.82806944596435" lon="23.35635826374383" id="-892">
		<tag k="name" v="Klipavannene" />
		<tag k="natural" v="water" />
		<tag k="ssr:stedsnr" v="748067" />
		<tag k="water" v="lake" />
	</node>
	<node lat="70.55875277854075" lon="24.41749430426583" id="-908">
		<tag k="name" v="Boazojávri" />
		<tag k="name:se" v="Boazojávri" />
		<tag k="natural" v="water" />
		<tag k="old_name:se" v="Boazujavri" />
		<tag k="ssr:stedsnr" v="748807" />
	</node>
	<node lat="70.60648889458352" lon="24.00789990608344" id="-911">
		<tag k="name" v="Fjellfinnvatnet" />
		<tag k="natural" v="water" />
		<tag k="ssr:stedsnr" v="748768" />
	</node>
	<node lat="70.46326666647434" lon="23.577233252385536" id="-916">
		<tag k="name" v="Russelvvatnet - Bákteleakjávri" />
		<tag k="name:no" v="Russelvvatnet" />
		<tag k="name:se" v="Bákteleakjávri" />
		<tag k="natural" v="water" />
		<tag k="old_name:se" v="Baktelækjavri" />
		<tag k="ssr:stedsnr" v="748961" />
		<tag k="water" v="lake" />
	</node>
	<node lat="70.48888056149609" lon="23.562602689650305" id="-917">
		<tag k="name" v="Reinvatnet - Boazojávri" />
		<tag k="name:no" v="Reinvatnet" />
		<tag k="name:se" v="Boazojávri" />
		<tag k="natural" v="water" />
		<tag k="old_name:se" v="Boazujavri" />
		<tag k="ssr:stedsnr" v="748962" />
	</node>
	<node lat="70.2729944499265" lon="23.77481379111215" id="-921">
		<tag k="name" v="Fjellvatnan" />
		<tag k="natural" v="water" />
		<tag k="ssr:stedsnr" v="753967" />
		<tag k="water" v="lake" />
	</node>
	<node lat="70.61415833184155" lon="23.668911017618314" id="-928">
		<tag k="name" v="Øvreneset" />
		<tag k="natural" v="cape" />
		<tag k="ssr:stedsnr" v="759146" />
	</node>
	<node lat="70.72024166942222" lon="23.756363788032257" id="-933">
		<tag k="name" v="Marinevannet" />
		<tag k="natural" v="water" />
		<tag k="ssr:stedsnr" v="759199" />
	</node>
	<node lat="70.82525556045196" lon="23.400024915704435" id="-945">
		<tag k="name" v="Klipavannet" />
		<tag k="natural" v="water" />
		<tag k="ssr:stedsnr" v="809098" />
	</node>
	<node lat="70.76331944505337" lon="23.173766611785798" id="-954">
		<tag k="name" v="Mikkelvannene" />
		<tag k="natural" v="water" />
		<tag k="ssr:stedsnr" v="809175" />
		<tag k="water" v="lake" />
	</node>
	<node lat="70.76490278321435" lon="23.160561033852886" id="-955">
		<tag k="name" v="Nedre Hårfjellvannet" />
		<tag k="natural" v="water" />
		<tag k="ssr:stedsnr" v="809177" />
	</node>
	<node lat="70.35167222245772" lon="23.78341934803136" id="-960">
		<tag k="name" v="Trangvatnet" />
		<tag k="natural" v="water" />
		<tag k="ssr:stedsnr" v="809784" />
		<tag k="water" v="lake" />
	</node>
	<node lat="70.52835555857838" lon="24.335333199230416" id="-961">
		<tag k="name" v="Heargejávri" />
		<tag k="name:se" v="Heargejávri" />
		<tag k="natural" v="water" />
		<tag k="old_name:se" v="Hærgejavri" />
		<tag k="ssr:stedsnr" v="809789" />
	</node>
	<node lat="70.60361944883968" lon="24.717883193061503" id="-964">
		<tag k="name" v="Moskkijogaš" />
		<tag k="name:se" v="Moskkijogaš" />
		<tag k="old_name:se" v="Måskijågaš" />
		<tag k="ssr:stedsnr" v="809910" />
		<tag k="waterway" v="stream" />
	</node>
	<node lat="70.62274722359568" lon="23.751919352819332" id="-970">
		<tag k="name" v="Tverrfjellvannene" />
		<tag k="natural" v="water" />
		<tag k="ssr:stedsnr" v="817783" />
		<tag k="water" v="lake" />
	</node>
	<node lat="70.77844444606957" lon="23.382097154730786" id="-977">
		<tag k="name" v="Finnelv" />
		<tag k="ssr:stedsnr" v="821710" />
		<tag k="waterway" v="river" />
	</node>
	<node lat="70.40841389360983" lon="22.946844384816988" id="-983">
		<tag k="name" v="Lárasjávri" />
		<tag k="name:se" v="Lárasjávri" />
		<tag k="natural" v="water" />
		<tag k="old_name:se" v="Larasjavri" />
		<tag k="ssr:stedsnr" v="929028" />
	</node>
	<node lat="70.31906945337282" lon="24.336427637889592" id="-985">
		<tag k="name" v="Nivatna - Juovssajávrrit" />
		<tag k="name:no" v="Nivatna" />
		<tag k="name:se" v="Juovssajávrrit" />
		<tag k="natural" v="water" />
		<tag k="old_name:se" v="Juovsajavrit" />
		<tag k="ssr:stedsnr" v="929637" />
		<tag k="water" v="lake" />
	</node>
	<node lat="70.64375555817645" lon="24.529647094120712" id="-1020">
		<tag k="name" v="Šloavkajávri" />
		<tag k="name:se" v="Šloavkajávri" />
		<tag k="natural" v="water" />
		<tag k="old_name:se" v="Šloavkajavri" />
		<tag k="ssr:stedsnr" v="869804" />
	</node>
	<node lat="70.63399444533022" lon="24.38411375443153" id="-1021">
		<tag k="name" v="Njeaiddánjávri" />
		<tag k="name:se" v="Njeaiddánjávri" />
		<tag k="natural" v="water" />
		<tag k="old_name:se" v="Njæidanjavri" />
		<tag k="ssr:stedsnr" v="869805" />
		<tag k="water" v="lake" />
	</node>
	<node lat="70.53329166560407" lon="23.460655479393417" id="-1024">
		<tag k="name" v="Eidvågvannet - Muotkevuonjávri" />
		<tag k="name:no" v="Eidvågvannet" />
		<tag k="name:se" v="Muotkevuonjávri" />
		<tag k="natural" v="water" />
		<tag k="old_name:se" v="Muotkevuonjavri" />
		<tag k="ssr:stedsnr" v="930215" />
		<tag k="water" v="lake" />
	</node>
	<node lat="70.65227500031567" lon="24.791916514738734" id="-1031">
		<tag k="alt_name:no" v="Svaneelva" />
		<tag k="name" v="Svanelva - Njukčunjohka" />
		<tag k="name:no" v="Svanelva" />
		<tag k="name:se" v="Njukčunjohka" />
		<tag k="old_name:se" v="Njukčonjåkka" />
		<tag k="ssr:stedsnr" v="870022" />
		<tag k="waterway" v="river" />
	</node>
	<node lat="70.56296111382699" lon="24.63319708041957" id="-1043">
		<tag k="name" v="Lavnnjetjohka" />
		<tag k="name:se" v="Lavnnjetjohka" />
		<tag k="old_name:se" v="Lavnjetjåkka" />
		<tag k="ssr:stedsnr" v="870882" />
		<tag k="waterway" v="river" />
	</node>
	<node lat="70.56184167222189" lon="22.744838835951146" id="-1044">
		<tag k="name" v="Kobbefjordvannet" />
		<tag k="natural" v="water" />
		<tag k="ssr:stedsnr" v="930359" />
	</node>
	<node lat="70.19222500191283" lon="24.205808192709913" id="-1052">
		<tag k="name" v="Opmojohka" />
		<tag k="name:se" v="Opmojohka" />
		<tag k="old_name:se" v="Åbmujåkka" />
		<tag k="ssr:stedsnr" v="930471" />
		<tag k="waterway" v="river" />
	</node>
	<node lat="70.36545000732168" lon="24.627016518483952" id="-1057">
		<tag k="name" v="Bavtevuolesjávri" />
		<tag k="name:se" v="Bavtevuolesjávri" />
		<tag k="natural" v="water" />
		<tag k="ssr:stedsnr" v="930532" />
	</node>
	<node lat="70.48775000057164" lon="24.72913595752136" id="-1058">
		<tag k="name" v="Gumppeluoppal" />
		<tag k="name:se" v="Gumppeluoppal" />
		<tag k="natural" v="water" />
		<tag k="old_name:se" v="Gumpeluobbal" />
		<tag k="ssr:stedsnr" v="930725" />
	</node>
	<node lat="70.34125833572661" lon="24.013574872614747" id="-1062">
		<tag k="name" v="Háiggirjávri" />
		<tag k="name:se" v="Háiggirjávri" />
		<tag k="natural" v="water" />
		<tag k="old_name:se" v="Haigirjavri" />
		<tag k="ssr:stedsnr" v="930691" />
	</node>
	<node lat="70.40160833147603" lon="23.46929713867506" id="-1064">
		<tag k="name" v="Birranvággejávri" />
		<tag k="name:se" v="Birranvággejávri" />
		<tag k="natural" v="water" />
		<tag k="old_name:se" v="Birranvaggejavri" />
		<tag k="ssr:stedsnr" v="930782" />
	</node>
	<node lat="70.5138527782613" lon="24.51653041515817" id="-1069">
		<tag k="name" v="Ákhojávri" />
		<tag k="name:se" v="Ákhojávri" />
		<tag k="natural" v="water" />
		<tag k="old_name:se" v="Akkujavri" />
		<tag k="ssr:stedsnr" v="930852" />
	</node>
	<node lat="70.47480555626707" lon="24.51354985248346" id="-1073">
		<tag k="name" v="Dápmotjávri" />
		<tag k="name:se" v="Dápmotjávri" />
		<tag k="natural" v="water" />
		<tag k="old_name:se" v="Dalmutjavri" />
		<tag k="ssr:stedsnr" v="930870" />
	</node>
	<node lat="70.43970833870071" lon="23.989694348921624" id="-1080">
		<tag k="name" v="Bajit Suololuoppal" />
		<tag k="name:se" v="Bajit Suololuoppal" />
		<tag k="old_name:se" v="Suoluluobbal, bajit" />
		<tag k="place" v="locality" />
		<tag k="ssr:stedsnr" v="930979" />
	</node>
	<node lat="70.45106967533232" lon="24.00246703127284" id="-1081">
		<tag k="loc_name:no" v="Tohundreogtretten" />
		<tag k="name" v="Vuolit Suololuoppal" />
		<tag k="name:se" v="Vuolit Suololuoppal" />
		<tag k="natural" v="water" />
		<tag k="old_name:se" v="Suoluluobbal, vuolit" />
		<tag k="ssr:stedsnr" v="930981" />
	</node>
	<node lat="70.45197778365544" lon="23.886538778554655" id="-1082">
		<tag k="name" v="Neverfjordelva - Fiettarjohka" />
		<tag k="name:no" v="Neverfjordelva" />
		<tag k="name:se" v="Fiettarjohka" />
		<tag k="old_name:se" v="Fieddarjåkka" />
		<tag k="ssr:stedsnr" v="930982" />
		<tag k="waterway" v="river" />
	</node>
	<node lat="70.55129722751052" lon="24.7669109613346" id="-1083">
		<tag k="name" v="Fierbmejávri" />
		<tag k="name:se" v="Fierbmejávri" />
		<tag k="natural" v="water" />
		<tag k="old_name:se" v="Fierbmejavri" />
		<tag k="ssr:stedsnr" v="930923" />
	</node>
	<node lat="70.49924167240374" lon="23.98007767871243" id="-1088">
		<tag k="name" v="Ariselv" />
		<tag k="ssr:stedsnr" v="878606" />
		<tag k="waterway" v="stream" />
	</node>
	<node lat="70.6171916678468" lon="23.654233241985057" id="-1094">
		<tag k="name" v="Gjørmevannet" />
		<tag k="natural" v="water" />
		<tag k="ssr:stedsnr" v="881155" />
	</node>
	<node lat="70.41731667200261" lon="23.529199927401503" id="-1106">
		<tag k="name" v="Olderbuktvatnan" />
		<tag k="natural" v="water" />
		<tag k="ssr:stedsnr" v="906570" />
		<tag k="water" v="lake" />
	</node>
	<node lat="70.47047222186744" lon="23.37475270009875" id="-1109">
		<tag k="name" v="Øvrevannet" />
		<tag k="natural" v="water" />
		<tag k="ssr:stedsnr" v="929050" />
		<tag k="water" v="lake" />
	</node>
	<node lat="70.34101389158447" lon="24.41579431588123" id="-1111">
		<tag k="name" v="Ánddeš-Bierjávri" />
		<tag k="name:se" v="Ánddeš-Bierjávri" />
		<tag k="natural" v="water" />
		<tag k="old_name:se" v="Andeš-Bierjavri" />
		<tag k="ssr:stedsnr" v="929648" />
	</node>
	<node lat="70.67664444382095" lon="23.77988325051303" id="-1112">
		<tag k="name" v="Bollojávri" />
		<tag k="name:no" v="Dobbelvannene" />
		<tag k="name:se" v="Bollojávri" />
		<tag k="natural" v="water" />
		<tag k="old_name:se" v="Bållujavri" />
		<tag k="ssr:stedsnr" v="930001" />
	</node>
	<node lat="70.52009444878178" lon="23.866894337597024" id="-1120">
		<tag k="name" v="Láttojohka" />
		<tag k="name:se" v="Láttojohka" />
		<tag k="old_name:se" v="Laddujåkka" />
		<tag k="ssr:stedsnr" v="930207" />
		<tag k="waterway" v="stream" />
	</node>
	<node lat="70.6412222235397" lon="23.129299945130366" id="-1124">
		<tag k="name" v="Lillevannet" />
		<tag k="natural" v="water" />
		<tag k="ssr:stedsnr" v="930450" />
	</node>
	<node lat="70.61505000341704" lon="24.073822109540504" id="-1129">
		<tag k="loc_name" v="Unna Dorskavuonjohka" />
		<tag k="name" v="Indrefjordelva" />
		<tag k="ssr:stedsnr" v="930795" />
		<tag k="waterway" v="river" />
	</node>
	<node lat="70.63819166747517" lon="24.331860983131648" id="-1130">
		<tag k="name" v="Unna Guommajávrráš" />
		<tag k="name:se" v="Unna Guommajávrráš" />
		<tag k="natural" v="water" />
		<tag k="old_name:se" v="Guommajavraš, unna" />
		<tag k="ssr:stedsnr" v="930800" />
		<tag k="water" v="lake" />
	</node>
	<node lat="70.20384167052121" lon="24.111910974351648" id="-1132">
		<tag k="name" v="Gáhččalanjohka" />
		<tag k="name:se" v="Gáhččalanjohka" />
		<tag k="old_name:se" v="Gaččalanjåkka" />
		<tag k="ssr:stedsnr" v="930943" />
		<tag k="waterway" v="stream" />
	</node>
	<node lat="70.3909194515385" lon="24.387541538085724" id="-1145">
		<tag k="name" v="Brattelvvatnet" />
		<tag k="natural" v="water" />
		<tag k="ssr:stedsnr" v="272864" />
	</node>
	<node lat="70.52718780899345" lon="23.397696405053974" id="-1165">
		<tag k="name" v="Sørelva" />
		<tag k="ssr:stedsnr" v="980755" />
		<tag k="waterway" v="stream" />
	</node>
	<node lat="70.53058888869694" lon="23.860766551908853" id="-1171">
		<tag k="name" v="Mártejávrrit" />
		<tag k="name:se" v="Mártejávrrit" />
		<tag k="natural" v="water" />
		<tag k="old_name:se" v="Martejavrit" />
		<tag k="ssr:stedsnr" v="20196" />
	</node>
	<node lat="70.35445555867453" lon="24.450394306972747" id="-1178">
		<tag k="name" v="Čellejávrrit" />
		<tag k="name:se" v="Čellejávrrit" />
		<tag k="natural" v="water" />
		<tag k="old_name:se" v="Čellejavrit" />
		<tag k="ssr:stedsnr" v="19670" />
	</node>
	<node lat="70.16778055613135" lon="23.903208211121672" id="-1179">
		<tag k="name" v="Arturbekken" />
		<tag k="ssr:stedsnr" v="19809" />
		<tag k="waterway" v="stream" />
	</node>
	<node lat="70.24752222705321" lon="23.83693044641224" id="-1181">
		<tag k="name" v="Buoiddesguolluoppal" />
		<tag k="name:se" v="Buoiddesguolluoppal" />
		<tag k="natural" v="water" />
		<tag k="old_name:se" v="Buoidesguolluobbal" />
		<tag k="ssr:stedsnr" v="19769" />
	</node>
	<node lat="70.22801111304808" lon="23.944447100129796" id="-1182">
		<tag k="name" v="Jonasvatnet - Joavnnajávri" />
		<tag k="name:no" v="Jonasvatnet" />
		<tag k="name:se" v="Joavnnajávri" />
		<tag k="natural" v="water" />
		<tag k="old_name:se" v="Joavnajavri" />
		<tag k="ssr:stedsnr" v="19851" />
	</node>
	<node lat="70.66270278148036" lon="23.707905466711896" id="-1184">
		<tag k="name" v="Storvannet - Gávpotjávri" />
		<tag k="name:no" v="Storvannet" />
		<tag k="name:se" v="Gávpotjávri" />
		<tag k="natural" v="water" />
		<tag k="old_name:se" v="Gavputjavri" />
		<tag k="ssr:stedsnr" v="20014" />
		<tag k="water" v="lake" />
	</node>
	<node lat="70.63111111420221" lon="23.79515269450695" id="-1186">
		<tag k="name" v="Rundvannet" />
		<tag k="natural" v="water" />
		<tag k="ssr:stedsnr" v="20023" />
		<tag k="water" v="lake" />
	</node>
	<node lat="70.83941944509067" lon="23.04034717198059" id="-1201">
		<tag k="name" v="Storevannet" />
		<tag k="natural" v="water" />
		<tag k="ssr:stedsnr" v="20073" />
	</node>
	<node lat="70.61664166634984" lon="23.037813829095782" id="-1206">
		<tag k="name" v="Sløkvannet" />
		<tag k="natural" v="water" />
		<tag k="ssr:stedsnr" v="20411" />
	</node>
	<node lat="70.61184722458596" lon="24.68132485265091" id="-1218">
		<tag k="name" v="Riebangurjogaš" />
		<tag k="name:se" v="Riebangurjogaš" />
		<tag k="old_name:se" v="Riebangurjågaš" />
		<tag k="ssr:stedsnr" v="20903" />
		<tag k="waterway" v="stream" />
	</node>
	<node lat="70.40878889259132" lon="24.000052662727455" id="-1220">
		<tag k="name" v="Fallbakkvatnet" />
		<tag k="natural" v="water" />
		<tag k="ssr:stedsnr" v="20676" />
	</node>
	<node lat="70.2751000053107" lon="23.929947123145052" id="-1225">
		<tag k="name" v="Sievjogeinnodatjávri" />
		<tag k="name:se" v="Sievjogeinnodatjávri" />
		<tag k="natural" v="water" />
		<tag k="old_name:se" v="Sievjugenudatjavri" />
		<tag k="ssr:stedsnr" v="20825" />
	</node>
	<node lat="70.49082778254179" lon="24.52498874612502" id="-1226">
		<tag k="name" v="Čiŋkajávri" />
		<tag k="name:se" v="Čiŋkajávri" />
		<tag k="natural" v="water" />
		<tag k="old_name:se" v="Čiŋkajavri;Činkajávri" />
		<tag k="ssr:stedsnr" v="20850" />
		<tag k="water" v="lake" />
	</node>
	<node lat="70.46713056138472" lon="24.263366554912423" id="-1229">
		<tag k="name" v="Gorahatjohka" />
		<tag k="name:se" v="Gorahatjohka" />
		<tag k="old_name:se" v="Gårhatjåkka" />
		<tag k="ssr:stedsnr" v="20862" />
		<tag k="waterway" v="stream" />
	</node>
	<node lat="70.4525055587895" lon="24.021624897701837" id="-1230">
		<tag k="name" v="Goahtejogaš" />
		<tag k="name:se" v="Goahtejogaš" />
		<tag k="old_name:se" v="Goattejågaš" />
		<tag k="ssr:stedsnr" v="20867" />
		<tag k="waterway" v="stream" />
	</node>
	<node lat="70.62758611566731" lon="24.754535960643636" id="-1232">
		<tag k="name" v="Rávdoljohka" />
		<tag k="name:se" v="Rávdoljohka" />
		<tag k="old_name:se" v="Ravduljåkka" />
		<tag k="ssr:stedsnr" v="20877" />
		<tag k="waterway" v="river" />
	</node>
	<node lat="70.43840833256883" lon="23.856274899814803" id="-1236">
		<tag k="alt_name" v="Kjosen, øvre" />
		<tag k="name" v="Øvre Kjosen" />
		<tag k="place" v="locality" />
		<tag k="ssr:stedsnr" v="20977" />
	</node>
	<node lat="70.42882778325038" lon="23.720419347007937" id="-1237">
		<tag k="name" v="Varmelva - Báhkkajohka" />
		<tag k="name:no" v="Varmelva" />
		<tag k="name:se" v="Báhkkajohka" />
		<tag k="old_name:se" v="Bakkajåkka" />
		<tag k="ssr:stedsnr" v="20978" />
		<tag k="waterway" v="stream" />
	</node>
	<node lat="70.27509444451167" lon="23.75693046229872" id="-1240">
		<tag k="name" v="Bajit Varisjávri" />
		<tag k="name:se" v="Bajit Varisjávri" />
		<tag k="natural" v="water" />
		<tag k="old_name:se" v="Varisjavri, bajit" />
		<tag k="ssr:stedsnr" v="25418" />
		<tag k="water" v="lake" />
	</node>
	<node lat="70.43230000208376" lon="24.490524844122522" id="-1243">
		<tag k="name" v="Trekanten" />
		<tag k="natural" v="cape" />
		<tag k="ssr:stedsnr" v="29611" />
	</node>
	<node lat="70.40425833581827" lon="24.26118597451603" id="-1247">
		<tag k="name" v="Vegdalsvatnet" />
		<tag k="natural" v="water" />
		<tag k="ssr:stedsnr" v="29944" />
	</node>
	<node lat="70.3924250071061" lon="24.344663756105362" id="-1248">
		<tag k="name" v="Geaidnočohjohka" />
		<tag k="name:se" v="Geaidnočohjohka" />
		<tag k="ssr:stedsnr" v="29946" />
		<tag k="waterway" v="stream" />
	</node>
	<node lat="70.60632778375086" lon="23.61791381047513" id="-1254">
		<tag k="name" v="Olavannet" />
		<tag k="natural" v="water" />
		<tag k="ssr:stedsnr" v="31073" />
	</node>
	<node lat="70.59238056199315" lon="23.68416656667415" id="-1258">
		<tag k="name" v="Baggajohka" />
		<tag k="name:se" v="Baggajohka" />
		<tag k="ssr:stedsnr" v="31156" />
		<tag k="waterway" v="stream" />
	</node>
	<node lat="70.6211388897745" lon="23.677077688674046" id="-1261">
		<tag k="name" v="Lillevannet" />
		<tag k="natural" v="water" />
		<tag k="ssr:stedsnr" v="31244" />
	</node>
	<node lat="70.4069861166434" lon="24.31790820368139" id="-1262">
		<tag k="name" v="Bajit Geiadnočohjávri" />
		<tag k="name:se" v="Bajit Geiadnočohjávri" />
		<tag k="natural" v="water" />
		<tag k="ssr:stedsnr" v="31326" />
		<tag k="water" v="lake" />
	</node>
	<node lat="70.24393056123988" lon="24.070019337534763" id="-1276">
		<tag k="name" v="Rihccejohka" />
		<tag k="name:se" v="Rihccejohka" />
		<tag k="old_name:se" v="Riccejåkka" />
		<tag k="ssr:stedsnr" v="49560" />
		<tag k="waterway" v="stream" />
	</node>
	<node lat="70.53486389515118" lon="24.4757748769641" id="-1278">
		<tag k="name" v="Doaresjávri" />
		<tag k="name:se" v="Doaresjávri" />
		<tag k="natural" v="water" />
		<tag k="old_name:se" v="Doaresjavri" />
		<tag k="ssr:stedsnr" v="81786" />
	</node>
	<node lat="70.5188500068275" lon="24.223905438695834" id="-1279">
		<tag k="name" v="Godderiiddjohka" />
		<tag k="name:no" v="Godderielva" />
		<tag k="name:se" v="Godderiiddjohka" />
		<tag k="old_name:se" v="Gådderiidjåkka" />
		<tag k="ssr:stedsnr" v="81789" />
		<tag k="waterway" v="stream" />
	</node>
	<node lat="70.26535278209376" lon="23.871774903177272" id="-1282">
		<tag k="name" v="Stuoraluoppal" />
		<tag k="name:se" v="Stuoraluoppal" />
		<tag k="natural" v="water" />
		<tag k="old_name:se" v="Stuoraluobbal" />
		<tag k="ssr:stedsnr" v="81828" />
		<tag k="water" v="lake" />
	</node>
	<node lat="70.42501944622141" lon="23.91734988304445" id="-1283">
		<tag k="name" v="Portvatnan" />
		<tag k="natural" v="water" />
		<tag k="ssr:stedsnr" v="81993" />
		<tag k="water" v="lake" />
	</node>
	<node lat="70.41971944652558" lon="23.526844356867613" id="-1284">
		<tag k="name" v="Vuolit Guicavákkejávri" />
		<tag k="name:se" v="Vuolit Guicavákkejávri" />
		<tag k="natural" v="water" />
		<tag k="old_name:se" v="Guicavaggejavri vuolit" />
		<tag k="ssr:stedsnr" v="81994" />
		<tag k="water" v="lake" />
	</node>
	<node lat="70.40430277841836" lon="22.978466596483596" id="-1287">
		<tag k="name" v="Máŋnajávri" />
		<tag k="name:se" v="Máŋnajávri" />
		<tag k="natural" v="water" />
		<tag k="old_name:se" v="Maŋnajavri" />
		<tag k="ssr:stedsnr" v="80027" />
	</node>
	<node lat="70.43657778392523" lon="24.30919430456535" id="-1303">
		<tag k="name" v="Indre Ariselv - Siskkit Árešjohka" />
		<tag k="name:no" v="Indre Ariselv" />
		<tag k="name:se" v="Siskkit Árešjohka" />
		<tag k="old_name:no" v="Ariselv indre" />
		<tag k="old_name:se" v="Arešjåkka, siskit" />
		<tag k="ssr:stedsnr" v="80654" />
		<tag k="waterway" v="river" />
	</node>
	<node lat="70.3662916670458" lon="24.098174884324738" id="-1308">
		<tag k="name" v="Bohtaljohka" />
		<tag k="name:se" v="Bohtaljohka" />
		<tag k="old_name:se" v="Båttaljåkka" />
		<tag k="ssr:stedsnr" v="80632" />
		<tag k="waterway" v="stream" />
	</node>
	<node lat="70.37580000396876" lon="24.032216561099176" id="-1309">
		<tag k="name" v="Holmvatnet - Govdavák-Suolojávri" />
		<tag k="name:no" v="Holmvatnet" />
		<tag k="name:se" v="Govdavák-Suolojávri" />
		<tag k="natural" v="water" />
		<tag k="old_name:se" v="Gåvdavag-Suolujavri;Govdavág-Suolojávri" />
		<tag k="ssr:stedsnr" v="80539" />
		<tag k="water" v="lake" />
	</node>
	<node lat="70.40022778108992" lon="23.73450823820862" id="-1314">
		<tag k="alt_name" v="Sennavatnan, midtre" />
		<tag k="name" v="Midtre Sennavatn" />
		<tag k="natural" v="water" />
		<tag k="ssr:stedsnr" v="80765" />
		<tag k="water" v="lake" />
	</node>
	<node lat="70.39768611550625" lon="23.72045544582381" id="-1315">
		<tag k="alt_name" v="Sennavatnan, øvre" />
		<tag k="name" v="Øvre Sennavatn" />
		<tag k="natural" v="water" />
		<tag k="ssr:stedsnr" v="80766" />
		<tag k="water" v="lake" />
	</node>
	<node lat="70.35525833823135" lon="23.807222114874474" id="-1316">
		<tag k="name" v="Gihtaidjohka" />
		<tag k="name:se" v="Gihtaidjohka" />
		<tag k="old_name:se" v="Gittaidjåkka" />
		<tag k="ssr:stedsnr" v="80776" />
		<tag k="waterway" v="river" />
	</node>
	<node lat="70.5180194482686" lon="24.529588738125003" id="-1317">
		<tag k="name" v="Ádjájávri" />
		<tag k="name:se" v="Ádjájávri" />
		<tag k="natural" v="water" />
		<tag k="old_name:se" v="Addjajavri" />
		<tag k="ssr:stedsnr" v="80847" />
	</node>
	<node lat="70.26761111512539" lon="24.37400819396492" id="-1321">
		<tag k="name" v="Goahtemuorjávri" />
		<tag k="name:se" v="Goahtemuorjávri" />
		<tag k="natural" v="water" />
		<tag k="old_name:se" v="Goattemuorjavri" />
		<tag k="ssr:stedsnr" v="80709" />
	</node>
	<node lat="70.20900277940731" lon="23.799113774455417" id="-1325">
		<tag k="name" v="Čáhppesjohka" />
		<tag k="name:se" v="Čáhppesjohka" />
		<tag k="old_name:se" v="Čappesjåkka" />
		<tag k="ssr:stedsnr" v="80888" />
		<tag k="waterway" v="stream" />
	</node>
	<node lat="70.21628611794098" lon="24.03759431599426" id="-1326">
		<tag k="name" v="Ribatjávri" />
		<tag k="name:se" v="Ribatjávri" />
		<tag k="natural" v="water" />
		<tag k="old_name:se" v="Ribatjavri" />
		<tag k="ssr:stedsnr" v="80999" />
		<tag k="water" v="lake" />
	</node>
	<node lat="70.48006111679027" lon="24.320508204059102" id="-1329">
		<tag k="name" v="Iselva - Iisajohka" />
		<tag k="name:no" v="Iselva" />
		<tag k="name:se" v="Iisajohka" />
		<tag k="old_name:se" v="Iisajåkka" />
		<tag k="ssr:stedsnr" v="80854" />
		<tag k="waterway" v="stream" />
	</node>
	<node lat="70.46775000183621" lon="24.254002658550867" id="-1330">
		<tag k="name" v="Gorahatjávri" />
		<tag k="name:se" v="Gorahatjávri" />
		<tag k="natural" v="water" />
		<tag k="old_name:se" v="Gårhatjavri" />
		<tag k="ssr:stedsnr" v="80866" />
	</node>
	<node lat="70.2326027828639" lon="23.802741568912804" id="-1331">
		<tag k="name" v="Guhkesjávri" />
		<tag k="name:se" v="Guhkesjávri" />
		<tag k="natural" v="water" />
		<tag k="old_name:se" v="Gukkesjavri" />
		<tag k="ssr:stedsnr" v="80873" />
	</node>
	<node lat="70.20555277843265" lon="24.147213770000203" id="-1333">
		<tag k="name" v="Gáhččalanluoppal" />
		<tag k="name:se" v="Gáhččalanluoppal" />
		<tag k="natural" v="water" />
		<tag k="old_name:se" v="Gaččalanluobbal" />
		<tag k="ssr:stedsnr" v="80952" />
	</node>
	<node lat="70.17708333862969" lon="24.13461933014089" id="-1334">
		<tag k="name" v="Gussajohka" />
		<tag k="name:se" v="Gussajohka" />
		<tag k="old_name:se" v="Gussajåkka" />
		<tag k="ssr:stedsnr" v="80957" />
		<tag k="waterway" v="stream" />
	</node>
	<node lat="70.53221388778583" lon="23.765752683778103" id="-1343">
		<tag k="name" v="Skjåholmelva - Cubbošjohka" />
		<tag k="name:no" v="Skjåholmelva" />
		<tag k="name:se" v="Cubbošjohka" />
		<tag k="old_name:se" v="Cubbušjåkka" />
		<tag k="ssr:stedsnr" v="81227" />
		<tag k="waterway" v="river" />
	</node>
	<node lat="70.52573888758852" lon="23.44776380474109" id="-1344">
		<tag k="name" v="Durejávri" />
		<tag k="name:no" v="Torvannet" />
		<tag k="name:se" v="Durejávri" />
		<tag k="natural" v="water" />
		<tag k="old_name:se" v="Durejavri" />
		<tag k="ssr:stedsnr" v="81230" />
	</node>
	<node lat="70.77964722606846" lon="23.136061044864444" id="-1352">
		<tag k="name" v="Sætravannet" />
		<tag k="natural" v="water" />
		<tag k="ssr:stedsnr" v="81157" />
	</node>
	<node lat="70.68541111267915" lon="24.005074888575002" id="-1356">
		<tag k="name" v="Småvannene" />
		<tag k="natural" v="water" />
		<tag k="ssr:stedsnr" v="81181" />
		<tag k="water" v="lake" />
	</node>
	<node lat="70.56894167062336" lon="23.896899896630384" id="-1358">
		<tag k="name" v="Goavdeluokjávrrit" />
		<tag k="name:se" v="Goavdeluokjávrrit" />
		<tag k="natural" v="water" />
		<tag k="old_name:se" v="Goavdeluokjavrit" />
		<tag k="ssr:stedsnr" v="81264" />
	</node>
	<node lat="70.57200000574778" lon="23.770316565715905" id="-1359">
		<tag k="name" v="Guohcajávrrit" />
		<tag k="name:se" v="Guohcajávrrit" />
		<tag k="natural" v="water" />
		<tag k="old_name:se" v="Guoccajavrit" />
		<tag k="ssr:stedsnr" v="81265" />
	</node>
	<node lat="70.72886944313802" lon="23.195688827405395" id="-1361">
		<tag k="name" v="Langstrandvannet" />
		<tag k="natural" v="water" />
		<tag k="ssr:stedsnr" v="81284" />
		<tag k="water" v="lake" />
	</node>
	<node lat="70.62239444425066" lon="24.53469430375186" id="-1373">
		<tag k="name" v="Ráššageašjávri" />
		<tag k="name:se" v="Ráššageašjávri" />
		<tag k="natural" v="water" />
		<tag k="old_name:se" v="Raššagæšjavri" />
		<tag k="ssr:stedsnr" v="81768" />
	</node>
	<node lat="70.4737583368164" lon="23.918380450158658" id="-1378">
		<tag k="name" v="Rundvatnet" />
		<tag k="natural" v="water" />
		<tag k="ssr:stedsnr" v="81952" />
	</node>
	<node lat="70.47902499863473" lon="23.82817768096725" id="-1381">
		<tag k="alt_name:no" v="Jeveluftvatnet" />
		<tag k="name" v="Gjeveluftvatnet - Leansmanjávri" />
		<tag k="name:no" v="Gjeveluftvatnet" />
		<tag k="name:se" v="Leansmanjávri" />
		<tag k="natural" v="water" />
		<tag k="old_name:se" v="Lænsmanjavri" />
		<tag k="ssr:stedsnr" v="81962" />
		<tag k="water" v="lake" />
	</node>
	<node lat="70.32868889177632" lon="24.396655402974076" id="-1418">
		<tag k="name" v="Gávvajávri" />
		<tag k="name:se" v="Gávvajávri" />
		<tag k="natural" v="water" />
		<tag k="old_name:se" v="Gavvajavri" />
		<tag k="ssr:stedsnr" v="140654" />
		<tag k="water" v="lake" />
	</node>
	<node lat="70.42296389003606" lon="23.38489158748923" id="-1421">
		<tag k="name" v="Reatkajávrrit" />
		<tag k="name:se" v="Reatkajávrrit" />
		<tag k="natural" v="water" />
		<tag k="old_name:se" v="Rætkajavrit" />
		<tag k="ssr:stedsnr" v="140035" />
		<tag k="water" v="lake" />
	</node>
	<node lat="70.44794444529666" lon="23.19056103204639" id="-1424">
		<tag k="name" v="Straumvannene" />
		<tag k="natural" v="water" />
		<tag k="ssr:stedsnr" v="140049" />
		<tag k="water" v="lake" />
	</node>
	<node lat="70.59667500379429" lon="23.513608242349683" id="-1430">
		<tag k="name" v="Rásláttjávri" />
		<tag k="name:no" v="Rasladdvannet" />
		<tag k="name:se" v="Rásláttjávri" />
		<tag k="natural" v="water" />
		<tag k="old_name:se" v="Rasladdjavri" />
		<tag k="ssr:stedsnr" v="141246" />
	</node>
	<node lat="70.40241111826542" lon="24.127722113402598" id="-1433">
		<tag k="name" v="Guoirratjávrrit" />
		<tag k="name:se" v="Guoirratjávrrit" />
		<tag k="natural" v="water" />
		<tag k="old_name:se" v="Guoiratjavrit" />
		<tag k="ssr:stedsnr" v="140626" />
		<tag k="water" v="lake" />
	</node>
	<node lat="70.395355558635" lon="24.303610987484856" id="-1434">
		<tag k="name" v="Geaidnočohjávrrit" />
		<tag k="name:se" v="Geaidnočohjávrrit" />
		<tag k="natural" v="water" />
		<tag k="old_name:se" v="Geidnučåkjavrit;Geaidnočohkjávrrit" />
		<tag k="ssr:stedsnr" v="140627" />
		<tag k="water" v="lake" />
	</node>
	<node lat="70.40222500808498" lon="24.34722485824533" id="-1435">
		<tag k="name" v="Riehpovuonmohkejávri" />
		<tag k="name:se" v="Riehpovuonmohkejávri" />
		<tag k="natural" v="water" />
		<tag k="old_name:se" v="Rieppuvuonmåkkejavri" />
		<tag k="ssr:stedsnr" v="140629" />
	</node>
	<node lat="70.43235278461451" lon="24.67879706752518" id="-1436">
		<tag k="name" v="Suolojávri" />
		<tag k="name:se" v="Suolojávri" />
		<tag k="natural" v="water" />
		<tag k="old_name:se" v="Suolujavri" />
		<tag k="ssr:stedsnr" v="140717" />
	</node>
	<node lat="70.2389333384748" lon="23.835147119498146" id="-1437">
		<tag k="name" v="Buoiddesguoljávri" />
		<tag k="name:se" v="Buoiddesguoljávri" />
		<tag k="natural" v="water" />
		<tag k="old_name:se" v="Buoidesguoljavri" />
		<tag k="ssr:stedsnr" v="140761" />
		<tag k="water" v="lake" />
	</node>
	<node lat="70.23622777873256" lon="23.803147112253157" id="-1438">
		<tag k="name" v="Juovvajávri" />
		<tag k="name:se" v="Juovvajávri" />
		<tag k="natural" v="water" />
		<tag k="old_name:se" v="Juovvajavri" />
		<tag k="ssr:stedsnr" v="140764" />
	</node>
	<node lat="70.4658555640934" lon="24.218210983872133" id="-1441">
		<tag k="name" v="Fiskevatna" />
		<tag k="natural" v="water" />
		<tag k="ssr:stedsnr" v="140849" />
	</node>
	<node lat="70.4555138893568" lon="24.388652645589183" id="-1443">
		<tag k="name" v="Čuovvárjohka" />
		<tag k="name:se" v="Čuovvárjohka" />
		<tag k="old_name:se" v="Čuovvarjåkka;Čuovvárrijohka" />
		<tag k="ssr:stedsnr" v="140859" />
		<tag k="waterway" v="river" />
	</node>
	<node lat="70.19496944995954" lon="23.874133220657217" id="-1445">
		<tag k="name" v="Leavššeluoppal" />
		<tag k="name:se" v="Leavššeluoppal" />
		<tag k="natural" v="water" />
		<tag k="old_name:se" v="Lævšeluobbal" />
		<tag k="ssr:stedsnr" v="140868" />
	</node>
	<node lat="70.16867222860044" lon="24.187391527502786" id="-1447">
		<tag k="name" v="Bajit Gussaluoppal" />
		<tag k="name:se" v="Bajit Gussaluoppal" />
		<tag k="natural" v="water" />
		<tag k="old_name:se" v="Gussaluobbal, bajit" />
		<tag k="ssr:stedsnr" v="140960" />
		<tag k="water" v="lake" />
	</node>
	<node lat="70.15130555751028" lon="24.20743598856525" id="-1448">
		<tag k="name" v="Linnjajávri" />
		<tag k="name:se" v="Linnjajávri" />
		<tag k="natural" v="water" />
		<tag k="old_name:se" v="Linnjajavri" />
		<tag k="ssr:stedsnr" v="140965" />
		<tag k="water" v="lake" />
	</node>
	<node lat="70.21638333489227" lon="24.14763043484392" id="-1449">
		<tag k="name" v="Jeaggejávrráš" />
		<tag k="name:se" v="Jeaggejávrráš" />
		<tag k="natural" v="water" />
		<tag k="old_name:se" v="Jæggejavraš" />
		<tag k="ssr:stedsnr" v="141000" />
		<tag k="water" v="lake" />
	</node>
	<node lat="70.65080000172345" lon="23.671197124196844" id="-1455">
		<tag k="name" v="Jansvannet" />
		<tag k="natural" v="water" />
		<tag k="ssr:stedsnr" v="141025" />
	</node>
	<node lat="70.51769166799095" lon="23.3981638192889" id="-1464">
		<tag k="name" v="Ráššajávri" />
		<tag k="name:se" v="Ráššajávri" />
		<tag k="natural" v="water" />
		<tag k="old_name:se" v="Raššajavri" />
		<tag k="ssr:stedsnr" v="141070" />
	</node>
	<node lat="70.50838611307287" lon="24.773630393506323" id="-1474">
		<tag k="name" v="Heastajávri" />
		<tag k="name:se" v="Heastajávri" />
		<tag k="natural" v="water" />
		<tag k="old_name:se" v="Hæstajavri" />
		<tag k="ssr:stedsnr" v="141901" />
	</node>
	<node lat="70.6728805603525" lon="22.89034160866095" id="-1484">
		<tag k="name" v="Djupvannet" />
		<tag k="natural" v="water" />
		<tag k="ssr:stedsnr" v="141477" />
	</node>
	<node lat="70.4018138962285" lon="24.65413316785862" id="-1487">
		<tag k="name" v="Lásotjohka" />
		<tag k="name:se" v="Lásotjohka" />
		<tag k="old_name:se" v="Lasotjåkka" />
		<tag k="ssr:stedsnr" v="141543" />
		<tag k="waterway" v="stream" />
	</node>
	<node lat="70.4112944510251" lon="24.24284152961675" id="-1492">
		<tag k="name" v="Arisvatnet - Árešjávri" />
		<tag k="name:no" v="Arisvatnet" />
		<tag k="name:se" v="Árešjávri" />
		<tag k="natural" v="water" />
		<tag k="old_name:se" v="Arešjavri" />
		<tag k="ssr:stedsnr" v="141643" />
		<tag k="water" v="lake" />
	</node>
	<node lat="70.35692222232468" lon="24.009669320484036" id="-1497">
		<tag k="name" v="Rámsojávrrit" />
		<tag k="name:se" v="Rámsojávrrit" />
		<tag k="natural" v="water" />
		<tag k="old_name:se" v="Ramsujavrit" />
		<tag k="ssr:stedsnr" v="141754" />
		<tag k="water" v="lake" />
	</node>
	<node lat="70.2578999991863" lon="23.847936003486076" id="-1503">
		<tag k="name" v="Jámešluoppal" />
		<tag k="name:se" v="Jámešluoppal" />
		<tag k="natural" v="water" />
		<tag k="old_name:se" v="Jamešluobbal" />
		<tag k="ssr:stedsnr" v="141805" />
	</node>
	<node lat="70.48065278128072" lon="23.942010999898613" id="-1506">
		<tag k="name" v="Kvalsundelva" />
		<tag k="ssr:stedsnr" v="141955" />
		<tag k="waterway" v="river" />
	</node>
	<node lat="70.66168889604343" lon="23.733083232290657" id="-1511">
		<tag k="name" v="Svartvannet" />
		<tag k="natural" v="water" />
		<tag k="ssr:stedsnr" v="149783" />
	</node>
	<node lat="70.71333056340423" lon="23.802577673787464" id="-1517">
		<tag k="name" v="Storvannet" />
		<tag k="natural" v="water" />
		<tag k="ssr:stedsnr" v="152213" />
	</node>
	<node lat="70.68063611334027" lon="23.772511019000852" id="-1520">
		<tag k="loc_name:se" v="Bollojohka" />
		<tag k="name" v="Sjåvasselva" />
		<tag k="name:no" v="Sjåvasselva" />
		<tag k="ssr:stedsnr" v="152231" />
		<tag k="waterway" v="stream" />
	</node>
	<node lat="70.68200000420697" lon="23.703433255155655" id="-1521">
		<tag k="name" v="Storvannet" />
		<tag k="natural" v="water" />
		<tag k="ssr:stedsnr" v="152232" />
		<tag k="water" v="lake" />
	</node>
	<node lat="70.65487778262866" lon="23.710758242585054" id="-1524">
		<tag k="name" v="Rumpetrollvannet" />
		<tag k="natural" v="water" />
		<tag k="ssr:stedsnr" v="152164" />
	</node>
	<node lat="70.64818889065972" lon="23.662166580651544" id="-1525">
		<tag k="name" v="Rørvikvannet" />
		<tag k="natural" v="water" />
		<tag k="ssr:stedsnr" v="152182" />
	</node>
	<node lat="70.34562500636376" lon="24.448824868388932" id="-1551">
		<tag k="name" v="Ánddeš-Bierjohka" />
		<tag k="name:se" v="Ánddeš-Bierjohka" />
		<tag k="old_name:se" v="Andeš-Bierjåkka" />
		<tag k="ssr:stedsnr" v="201649" />
		<tag k="waterway" v="stream" />
	</node>
	<node lat="70.35242500893284" lon="24.398872081639723" id="-1552">
		<tag k="name" v="Guovžajohka" />
		<tag k="name:se" v="Guovžajohka" />
		<tag k="old_name:se" v="Guovžajåkka" />
		<tag k="ssr:stedsnr" v="201650" />
		<tag k="waterway" v="stream" />
	</node>
	<node lat="70.49274722430987" lon="24.66653872235604" id="-1554">
		<tag k="name" v="Bierfetjávri" />
		<tag k="name:se" v="Bierfetjávri" />
		<tag k="natural" v="water" />
		<tag k="ssr:stedsnr" v="201668" />
		<tag k="water" v="lake" />
	</node>
	<node lat="70.30528056373676" lon="24.139455432208763" id="-1556">
		<tag k="name" v="Båtdalselva - Áisarjohka" />
		<tag k="name:no" v="Båtdalselva" />
		<tag k="name:se" v="Áisarjohka" />
		<tag k="old_name:se" v="Aisarjåkka" />
		<tag k="ssr:stedsnr" v="201625" />
		<tag k="waterway" v="stream" />
	</node>
	<node lat="70.31781667546107" lon="24.266402641196194" id="-1557">
		<tag k="name" v="Ráhpesvárjogažat" />
		<tag k="name:se" v="Ráhpesvárjogažat" />
		<tag k="old_name:se" v="Rappesvarjågažat" />
		<tag k="ssr:stedsnr" v="201631" />
		<tag k="waterway" v="stream" />
	</node>
	<node lat="70.25298889423973" lon="24.012830452978083" id="-1558">
		<tag k="name" v="Voggenestjernet - Nadjetluoppal" />
		<tag k="name:no" v="Voggenestjernet" />
		<tag k="name:se" v="Nadjetluoppal" />
		<tag k="natural" v="water" />
		<tag k="old_name:se" v="Naddjetluobbal" />
		<tag k="ssr:stedsnr" v="201681" />
		<tag k="water" v="lake" />
	</node>
	<node lat="70.28880277859376" lon="24.180180421698935" id="-1559">
		<tag k="name" v="Rávnnajávri" />
		<tag k="name:se" v="Rávnnajávri" />
		<tag k="natural" v="water" />
		<tag k="old_name:se" v="Ravnajavri" />
		<tag k="ssr:stedsnr" v="201690" />
	</node>
	<node lat="70.23505278452595" lon="23.919027681116685" id="-1560">
		<tag k="name" v="Streaŋgajávri" />
		<tag k="name:se" v="Streaŋgajávri" />
		<tag k="natural" v="water" />
		<tag k="old_name:se" v="Stræŋgajavri" />
		<tag k="ssr:stedsnr" v="201835" />
	</node>
	<node lat="70.71727778456116" lon="23.777288798618198" id="-1566">
		<tag k="fixme" v="multiple name tags, choose one and add the other to alt_name" />
		<tag k="loc_name:se" v="Foŋøljávri" />
		<tag k="name" v="Vassbotnvannet;Forsølvannet" />
		<tag k="name:no" v="Vassbotnvannet;Forsølvannet" />
		<tag k="natural" v="water" />
		<tag k="ssr:stedsnr" v="202038" />
	</node>
	<node lat="70.65800278310834" lon="24.4508137468248" id="-1568">
		<tag k="name" v="Liššajohka" />
		<tag k="name:se" v="Liššajohka" />
		<tag k="old_name:se" v="Liššajåkka" />
		<tag k="ssr:stedsnr" v="202145" />
		<tag k="waterway" v="stream" />
	</node>
	<node lat="70.52425833828286" lon="23.390611032928778" id="-1576">
		<tag k="name" v="Pervannet" />
		<tag k="natural" v="water" />
		<tag k="ssr:stedsnr" v="202062" />
	</node>
	<node lat="70.83742500060123" lon="23.33564715808273" id="-1582">
		<tag k="name" v="Vassvikvannet" />
		<tag k="natural" v="water" />
		<tag k="ssr:stedsnr" v="202078" />
	</node>
	<node lat="70.80492500444133" lon="23.30730549519664" id="-1585">
		<tag k="name" v="Finnvikvannet" />
		<tag k="natural" v="water" />
		<tag k="ssr:stedsnr" v="202084" />
	</node>
	<node lat="70.65829444750152" lon="24.006955457022116" id="-1592">
		<tag k="name" v="Kultfjellvannet" />
		<tag k="natural" v="water" />
		<tag k="ssr:stedsnr" v="202130" />
		<tag k="water" v="lake" />
	</node>
	<node lat="70.58924444836948" lon="23.461169363237566" id="-1602">
		<tag k="name" v="Josságopjávri" />
		<tag k="name:no" v="Tommyvannet" />
		<tag k="name:se" v="Josságopjávri" />
		<tag k="natural" v="water" />
		<tag k="old_name:se" v="Jåssagåpjavri" />
		<tag k="ssr:stedsnr" v="202249" />
	</node>
	<node lat="70.68267499968816" lon="23.012813817703005" id="-1611">
		<tag k="name" v="Fiskenesvannet" />
		<tag k="natural" v="water" />
		<tag k="ssr:stedsnr" v="202484" />
	</node>
	<node lat="70.59896389307696" lon="23.021627714375644" id="-1612">
		<tag k="name" v="Hammarnakkvannet" />
		<tag k="natural" v="water" />
		<tag k="ssr:stedsnr" v="202407" />
	</node>
	<node lat="70.64393611229377" lon="22.888630490920683" id="-1615">
		<tag k="name" v="Ulvetindvannet" />
		<tag k="natural" v="water" />
		<tag k="ssr:stedsnr" v="202436" />
	</node>
	<node lat="70.59317500669265" lon="24.369183216165144" id="-1629">
		<tag k="name" v="Ráššavuolejávri" />
		<tag k="name:se" v="Ráššavuolejávri" />
		<tag k="natural" v="water" />
		<tag k="old_name:se" v="Raššavuolejavri" />
		<tag k="ssr:stedsnr" v="202831" />
		<tag k="water" v="lake" />
	</node>
	<node lat="70.26520000853904" lon="24.063552653245022" id="-1630">
		<tag k="name" v="Nadjetjohka" />
		<tag k="name:se" v="Nadjetjohka" />
		<tag k="old_name:se" v="Naddjetjåkka" />
		<tag k="ssr:stedsnr" v="202836" />
		<tag k="waterway" v="river" />
	</node>
	<node lat="70.47665833991312" lon="23.97129434304211" id="-1633">
		<tag k="alt_name" v="Bergelva, store" />
		<tag k="name" v="Store Bergelva" />
		<tag k="ssr:stedsnr" v="202962" />
		<tag k="waterway" v="stream" />
	</node>
	<node lat="70.60270000486751" lon="24.66864430529831" id="-1635">
		<tag k="name" v="Geađgejogaš" />
		<tag k="name:se" v="Geađgejogaš" />
		<tag k="old_name:se" v="Gæđgejågaš" />
		<tag k="ssr:stedsnr" v="202909" />
		<tag k="waterway" v="stream" />
	</node>
	<node lat="70.46738889040493" lon="23.80012211658553" id="-1643">
		<tag k="name" v="Fiskelva" />
		<tag k="ssr:stedsnr" v="211815" />
		<tag k="waterway" v="stream" />
	</node>
	<node lat="70.4945972221421" lon="24.029513765765675" id="-1646">
		<tag k="name" v="Halsevatna" />
		<tag k="natural" v="water" />
		<tag k="ssr:stedsnr" v="211999" />
		<tag k="water" v="lake" />
	</node>
	<node lat="70.65051111700312" lon="23.680299901996886" id="-1657">
		<tag k="name" v="Kukjønna" />
		<tag k="natural" v="water" />
		<tag k="ssr:stedsnr" v="213163" />
	</node>
	<node lat="70.39301945031548" lon="24.310797088028814" id="-1659">
		<tag k="name" v="Geaidnočohjávri" />
		<tag k="name:se" v="Geaidnočohjávri" />
		<tag k="natural" v="water" />
		<tag k="ssr:stedsnr" v="213366" />
		<tag k="water" v="lake" />
	</node>
	<node lat="70.60078333498583" lon="24.611380399169658" id="-1660">
		<tag k="name" v="Holmevatnet" />
		<tag k="natural" v="water" />
		<tag k="ssr:stedsnr" v="214198" />
	</node>
	<node lat="70.23063333524803" lon="23.886210994964838" id="-1694">
		<tag k="name" v="Ođđaguollejávri" />
		<tag k="name:se" v="Ođđaguollejávri" />
		<tag k="natural" v="water" />
		<tag k="old_name:se" v="Åđđaguollejavri" />
		<tag k="ssr:stedsnr" v="322841" />
	</node>
	<node lat="70.40331944426957" lon="24.49499430563906" id="-1695">
		<tag k="name" v="Trollelva" />
		<tag k="ssr:stedsnr" v="322638" />
		<tag k="waterway" v="stream" />
	</node>
	<node lat="70.27738889364538" lon="24.207852657816236" id="-1697">
		<tag k="name" v="Skadjajávri" />
		<tag k="name:se" v="Skadjajávri" />
		<tag k="natural" v="water" />
		<tag k="old_name:se" v="Skaddjajavri" />
		<tag k="ssr:stedsnr" v="322707" />
	</node>
	<node lat="70.67401945163486" lon="24.364641531502503" id="-1711">
		<tag k="name" v="Revsnesvatnet" />
		<tag k="natural" v="water" />
		<tag k="ssr:stedsnr" v="323151" />
		<tag k="water" v="lake" />
	</node>
	<node lat="70.66161389441562" lon="24.377013762755514" id="-1712">
		<tag k="name" v="Unna Njeaiddánjávrráš" />
		<tag k="name:se" v="Unna Njeaiddánjávrráš" />
		<tag k="natural" v="water" />
		<tag k="old_name:se" v="Njæidanjavraš, unna" />
		<tag k="ssr:stedsnr" v="323164" />
	</node>
	<node lat="70.2577361130964" lon="23.93964155198223" id="-1729">
		<tag k="name" v="Nadjetjávri" />
		<tag k="name:se" v="Nadjetjávri" />
		<tag k="natural" v="water" />
		<tag k="old_name:se" v="Naddjetjavri" />
		<tag k="ssr:stedsnr" v="323823" />
		<tag k="water" v="lake" />
	</node>
	<node lat="70.49163889276558" lon="24.023924900585826" id="-1730">
		<tag k="fixme" v="multiple name tags, choose one and add the other to alt_name" />
		<tag k="name" v="Store Halsevatn;Øvre Halsevatnet" />
		<tag k="natural" v="water" />
		<tag k="old_name" v="Halsevatnet, øvre" />
		<tag k="ssr:stedsnr" v="323832" />
	</node>
	<node lat="70.65572221944713" lon="22.91029994042832" id="-1733">
		<tag k="name" v="Trollkorsvannet" />
		<tag k="natural" v="water" />
		<tag k="ssr:stedsnr" v="323443" />
	</node>
	<node lat="70.65721944710671" lon="22.879813839516064" id="-1734">
		<tag k="name" v="Steinvannet" />
		<tag k="natural" v="water" />
		<tag k="ssr:stedsnr" v="323444" />
	</node>
	<node lat="70.6684416707983" lon="23.053772167135033" id="-1735">
		<tag k="name" v="Ráššajávri" />
		<tag k="name:se" v="Ráššajávri" />
		<tag k="natural" v="water" />
		<tag k="old_name:se" v="Raššajavri" />
		<tag k="ssr:stedsnr" v="323455" />
	</node>
	<node lat="70.6691388874075" lon="22.923255497753935" id="-1737">
		<tag k="name" v="Sommarsetvannet" />
		<tag k="natural" v="water" />
		<tag k="ssr:stedsnr" v="323470" />
	</node>
	<node lat="70.6969944437696" lon="23.190305472479846" id="-1740">
		<tag k="name" v="Blåvannene" />
		<tag k="natural" v="water" />
		<tag k="ssr:stedsnr" v="323497" />
		<tag k="water" v="lake" />
	</node>
	<node lat="70.42421666532945" lon="24.03260822247981" id="-1743">
		<tag k="name" v="Gressneset" />
		<tag k="natural" v="cape" />
		<tag k="ssr:stedsnr" v="323666" />
	</node>
	<node lat="70.34488611228969" lon="24.090369334826946" id="-1744">
		<tag k="name" v="Bajit Áisarjávri" />
		<tag k="name:se" v="Bajit Áisarjávri" />
		<tag k="natural" v="water" />
		<tag k="old_name:se" v="Aisarjavri, bajit" />
		<tag k="ssr:stedsnr" v="323688" />
	</node>
	<node lat="70.64928611474562" lon="24.506566538039994" id="-1750">
		<tag k="name" v="Nihkajohka" />
		<tag k="name:se" v="Nihkajohka" />
		<tag k="old_name:se" v="Nikkajåkka" />
		<tag k="ssr:stedsnr" v="323779" />
		<tag k="waterway" v="stream" />
	</node>
	<node lat="70.53806389721669" lon="24.758369291859378" id="-1755">
		<tag k="name" v="Miessejávrreguotku" />
		<tag k="name:se" v="Miessejávrreguotku" />
		<tag k="old_name:se" v="Miessejavreguotko" />
		<tag k="place" v="locality" />
		<tag k="ssr:stedsnr" v="323932" />
	</node>
	<node lat="70.2116027835046" lon="24.079191558333164" id="-1756">
		<tag k="name" v="Ribatjohka" />
		<tag k="name:se" v="Ribatjohka" />
		<tag k="old_name:se" v="Ribatjåkka" />
		<tag k="ssr:stedsnr" v="323941" />
		<tag k="waterway" v="stream" />
	</node>
	<node lat="70.46953333721186" lon="23.944672118911654" id="-1759">
		<tag k="name" v="Korsfossen" />
		<tag k="natural" v="waterfall" />
		<tag k="ssr:stedsnr" v="323962" />
	</node>
	<node lat="70.49677778415239" lon="24.57486375198521" id="-1760">
		<tag k="name" v="Čiŋkajohka" />
		<tag k="name:se" v="Čiŋkajohka" />
		<tag k="old_name:se" v="Čiŋkajåkka;Činkajohka" />
		<tag k="ssr:stedsnr" v="323839" />
		<tag k="waterway" v="river" />
	</node>
	<node lat="70.46726667141284" lon="24.008991545512142" id="-1763">
		<tag k="name" v="Nussirjávri" />
		<tag k="name:se" v="Nussirjávri" />
		<tag k="natural" v="water" />
		<tag k="old_name:se" v="Nussirjavri" />
		<tag k="ssr:stedsnr" v="323855" />
	</node>
	<node lat="70.46572500357964" lon="24.368497088686723" id="-1767">
		<tag k="name" v="Neselvatnet - Njárgajávri" />
		<tag k="name:no" v="Neselvatnet" />
		<tag k="name:se" v="Njárgajávri" />
		<tag k="natural" v="water" />
		<tag k="old_name:se" v="Njargajavri" />
		<tag k="ssr:stedsnr" v="323860" />
	</node>
	<node lat="70.63468055697598" lon="24.72313317982743" id="-1768">
		<tag k="name" v="Holmvatnet - Guollejávri" />
		<tag k="name:no" v="Holmvatnet" />
		<tag k="name:se" v="Guollejávri" />
		<tag k="natural" v="water" />
		<tag k="ssr:stedsnr" v="323863" />
	</node>
	<node lat="70.4511305574856" lon="24.08765265966884" id="-1769">
		<tag k="name" v="Krokvatnet" />
		<tag k="natural" v="water" />
		<tag k="ssr:stedsnr" v="323865" />
	</node>
	<node lat="70.6931111157618" lon="23.663422125419576" id="-1774">
		<tag k="name" v="Melandsvannene" />
		<tag k="natural" v="water" />
		<tag k="ssr:stedsnr" v="331771" />
		<tag k="water" v="lake" />
	</node>
	<node lat="70.5590083363618" lon="24.132030451128124" id="-1782">
		<tag k="name" v="Andersvatnet" />
		<tag k="natural" v="water" />
		<tag k="ssr:stedsnr" v="332972" />
	</node>
	<node lat="70.46260278113526" lon="23.920724895108048" id="-1784">
		<tag k="name" v="Reinkalvelva - Miessejohka" />
		<tag k="name:no" v="Reinkalvelva" />
		<tag k="name:se" v="Miessejohka" />
		<tag k="ssr:stedsnr" v="332983" />
		<tag k="waterway" v="stream" />
	</node>
	<node lat="70.67190277842542" lon="23.690124897543573" id="-1788">
		<tag k="name" v="Svartelva" />
		<tag k="ssr:stedsnr" v="334222" />
		<tag k="waterway" v="stream" />
	</node>
	<node lat="70.67035000334529" lon="23.701161033443867" id="-1789">
		<tag k="name" v="Mollabekken" />
		<tag k="ssr:stedsnr" v="334224" />
		<tag k="waterway" v="stream" />
	</node>
	<node lat="70.59202500325648" lon="24.799852625605606" id="-1794">
		<tag k="name" v="Ávžžijogaš" />
		<tag k="name:se" v="Ávžžijogaš" />
		<tag k="ssr:stedsnr" v="336184" />
		<tag k="waterway" v="stream" />
	</node>
	<node lat="70.13390834088213" lon="24.122647085453863" id="-1815">
		<tag k="name" v="Hávskesjohka" />
		<tag k="name:se" v="Hávskesjohka" />
		<tag k="old_name:se" v="Havskesjåkka" />
		<tag k="ssr:stedsnr" v="383035" />
		<tag k="waterway" v="stream" />
	</node>
	<node lat="70.34126666851807" lon="24.263033209806174" id="-1833">
		<tag k="name" v="Govdavákjohka" />
		<tag k="name:no" v="Breidalselva" />
		<tag k="name:se" v="Govdavákjohka" />
		<tag k="old_name:se" v="Gåvdavagjåkka" />
		<tag k="ssr:stedsnr" v="383639" />
		<tag k="waterway" v="river" />
	</node>
	<node lat="70.4041222269825" lon="23.941924902238807" id="-1837">
		<tag k="name" v="Pinsevatnet" />
		<tag k="natural" v="water" />
		<tag k="ssr:stedsnr" v="383759" />
		<tag k="water" v="lake" />
	</node>
	<node lat="70.411175006165" lon="24.408724866832515" id="-1839">
		<tag k="name" v="Svartfjellvatnet" />
		<tag k="natural" v="water" />
		<tag k="ssr:stedsnr" v="383646" />
		<tag k="water" v="lake" />
	</node>
	<node lat="70.29406666761662" lon="24.20008042764265" id="-1840">
		<tag k="name" v="Guhkesgurjohka" />
		<tag k="name:se" v="Guhkesgurjohka" />
		<tag k="old_name:se" v="Gukkesgurjåkka" />
		<tag k="ssr:stedsnr" v="383711" />
		<tag k="waterway" v="river" />
	</node>
	<node lat="70.27739445176137" lon="24.238269306313263" id="-1841">
		<tag k="name" v="Suhpodanjávrrit" />
		<tag k="name:se" v="Suhpodanjávrrit" />
		<tag k="natural" v="water" />
		<tag k="old_name:se" v="Suppudanjavrit" />
		<tag k="ssr:stedsnr" v="383713" />
	</node>
	<node lat="70.38599722432154" lon="23.666311001950923" id="-1842">
		<tag k="fixme" v="multiple name:no tags, choose one and add the other to alt_name:no" />
		<tag k="name" v="Vuolit Borsejávri" />
		<tag k="name:no" v="Porsavatn;Storvatnet" />
		<tag k="name:se" v="Vuolit Borsejávri" />
		<tag k="natural" v="water" />
		<tag k="old_name:se" v="Bårsejavri, vuolit" />
		<tag k="ssr:stedsnr" v="383767" />
		<tag k="water" v="lake" />
	</node>
	<node lat="70.18644445112827" lon="23.920324893679723" id="-1846">
		<tag k="name" v="Ádjájohka" />
		<tag k="name:se" v="Ádjájohka" />
		<tag k="old_name:se" v="Addjajåkka" />
		<tag k="ssr:stedsnr" v="383846" />
		<tag k="waterway" v="stream" />
	</node>
	<node lat="70.80973889215012" lon="23.38934160578171" id="-1859">
		<tag k="name" v="Småvannene" />
		<tag k="natural" v="water" />
		<tag k="ssr:stedsnr" v="384110" />
		<tag k="water" v="lake" />
	</node>
	<node lat="70.76936944705415" lon="23.33340549199084" id="-1872">
		<tag k="name" v="Linjevannet" />
		<tag k="natural" v="water" />
		<tag k="ssr:stedsnr" v="384182" />
	</node>
	<node lat="70.6420277763246" lon="22.920244378372352" id="-1877">
		<tag k="name" v="Blådalvannene" />
		<tag k="natural" v="water" />
		<tag k="ssr:stedsnr" v="384429" />
		<tag k="water" v="lake" />
	</node>
	<node lat="70.49171111533201" lon="23.96542212113392" id="-1890">
		<tag k="alt_name" v="Okseelva" />
		<tag k="name" v="Okselva" />
		<tag k="ssr:stedsnr" v="384931" />
		<tag k="waterway" v="stream" />
	</node>
	<node lat="70.4387583372331" lon="24.032152673728778" id="-1892">
		<tag k="name" v="Randulvsvatnet" />
		<tag k="natural" v="water" />
		<tag k="ssr:stedsnr" v="384857" />
	</node>
	<node lat="70.60040556262061" lon="24.663402633083027" id="-1893">
		<tag k="name" v="Gumppejogaš" />
		<tag k="name:se" v="Gumppejogaš" />
		<tag k="old_name:se" v="Gumpejågaš" />
		<tag k="ssr:stedsnr" v="384892" />
		<tag k="waterway" v="stream" />
	</node>
	<node lat="70.60337778135982" lon="24.695869292791244" id="-1894">
		<tag k="name" v="Sámmolčohkajávri" />
		<tag k="name:se" v="Sámmolčohkajávri" />
		<tag k="natural" v="water" />
		<tag k="old_name:se" v="Sammulčåkkajavri" />
		<tag k="ssr:stedsnr" v="384894" />
	</node>
	<node lat="70.45838333751225" lon="23.80798045524594" id="-1896">
		<tag k="alt_name" v="Litlevatnet" />
		<tag k="name" v="Lillevatnet" />
		<tag k="natural" v="water" />
		<tag k="ssr:stedsnr" v="384971" />
	</node>
	<node lat="70.4415777834374" lon="23.421644377461458" id="-1897">
		<tag k="name" v="Bajit Guhkesjávri" />
		<tag k="name:se" v="Bajit Guhkesjávri" />
		<tag k="natural" v="water" />
		<tag k="old_name:se" v="Gukkesjavri, bajit" />
		<tag k="ssr:stedsnr" v="384976" />
		<tag k="water" v="lake" />
	</node>
	<node lat="70.37624722318083" lon="24.20119986338657" id="-1902">
		<tag k="name" v="Stuora Govdavákjávri" />
		<tag k="name:no" v="Breidalsvatnet" />
		<tag k="name:se" v="Stuora Govdavákjávri" />
		<tag k="natural" v="water" />
		<tag k="old_name:se" v="Gåvdavagjavri, stuora" />
		<tag k="ssr:stedsnr" v="391669" />
		<tag k="water" v="lake" />
	</node>
	<node lat="70.65990000183439" lon="23.71280824521289" id="-1915">
		<tag k="name" v="Elvestrand" />
		<tag k="natural" v="beach" />
		<tag k="ssr:stedsnr" v="395220" />
	</node>
	<node lat="70.6857500013905" lon="23.079055478245348" id="-1944">
		<tag k="name" v="Stokklivannet" />
		<tag k="natural" v="water" />
		<tag k="ssr:stedsnr" v="444474" />
	</node>
	<node lat="70.36939445195563" lon="24.20013043541121" id="-1945">
		<tag k="name" v="Govdavákluobbalat" />
		<tag k="name:se" v="Govdavákluobbalat" />
		<tag k="natural" v="water" />
		<tag k="old_name:se" v="Gåvdavagluobbalat" />
		<tag k="ssr:stedsnr" v="444609" />
	</node>
	<node lat="70.30891389432587" lon="24.28639985591389" id="-1951">
		<tag k="name" v="Ráhpesvárjávrrit" />
		<tag k="name:se" v="Ráhpesvárjávrrit" />
		<tag k="natural" v="water" />
		<tag k="old_name:se" v="Rappesvarjavrit" />
		<tag k="ssr:stedsnr" v="444646" />
		<tag k="water" v="lake" />
	</node>
	<node lat="70.3255888897012" lon="24.223233206366086" id="-1952">
		<tag k="name" v="Linnjajohka" />
		<tag k="name:se" v="Linnjajohka" />
		<tag k="old_name:se" v="Linnjajåkka" />
		<tag k="ssr:stedsnr" v="444655" />
		<tag k="waterway" v="stream" />
	</node>
	<node lat="70.4631472258013" lon="24.326863746879102" id="-1958">
		<tag k="loc_name:se" v="Njárgajohka" />
		<tag k="name" v="Neselva" />
		<tag k="name:no" v="Neselva" />
		<tag k="ssr:stedsnr" v="444867" />
		<tag k="waterway" v="stream" />
	</node>
	<node lat="70.3666083396553" lon="23.749238801963696" id="-1962">
		<tag k="alt_name" v="Hansvatn" />
		<tag k="name" v="Hansvatnet" />
		<tag k="natural" v="water" />
		<tag k="ssr:stedsnr" v="445780" />
		<tag k="water" v="lake" />
	</node>
	<node lat="70.35354722289745" lon="23.901738783196254" id="-1963">
		<tag k="name" v="Gorsajávri" />
		<tag k="name:se" v="Gorsajávri" />
		<tag k="natural" v="water" />
		<tag k="old_name:se" v="Gårsajavri" />
		<tag k="ssr:stedsnr" v="445784" />
		<tag k="water" v="lake" />
	</node>
	<node lat="70.55436388902939" lon="23.96070823425007" id="-1964">
		<tag k="name" v="Goavdeluokjohka" />
		<tag k="name:no" v="Storbuktelva" />
		<tag k="name:se" v="Goavdeluokjohka" />
		<tag k="old_name:se" v="Goavdeluokjåkka" />
		<tag k="ssr:stedsnr" v="445012" />
		<tag k="waterway" v="river" />
	</node>
	<node lat="70.65056945102639" lon="23.718188804770016" id="-1969">
		<tag k="name" v="Langvannet" />
		<tag k="natural" v="water" />
		<tag k="ssr:stedsnr" v="445022" />
	</node>
	<node lat="70.54247500056358" lon="23.89267490472825" id="-1971">
		<tag k="name" v="Spártojávrrit" />
		<tag k="name:se" v="Spártojávrrit" />
		<tag k="natural" v="water" />
		<tag k="old_name:se" v="Spartujavrit" />
		<tag k="ssr:stedsnr" v="445195" />
		<tag k="water" v="lake" />
	</node>
	<node lat="70.17400833689696" lon="24.247469316903977" id="-1972">
		<tag k="name" v="Gussajávrrit" />
		<tag k="name:se" v="Gussajávrrit" />
		<tag k="natural" v="water" />
		<tag k="old_name:se" v="Gussajavrit" />
		<tag k="ssr:stedsnr" v="444956" />
		<tag k="water" v="lake" />
	</node>
	<node lat="70.42145278391025" lon="24.326002661281397" id="-1998">
		<tag k="name" v="Ruksesbávttejohka" />
		<tag k="name:se" v="Ruksesbávttejohka" />
		<tag k="old_name:se" v="Ruksesbavte jåkka" />
		<tag k="ssr:stedsnr" v="445670" />
		<tag k="waterway" v="stream" />
	</node>
	<node lat="70.60025833915103" lon="24.099008231801648" id="-2001">
		<tag k="name" v="Gorvatna - Roahkonášjávrrit" />
		<tag k="name:no" v="Gorvatna" />
		<tag k="name:se" v="Roahkonášjávrrit" />
		<tag k="natural" v="water" />
		<tag k="old_name:se" v="Roakkunašjavrit" />
		<tag k="ssr:stedsnr" v="445770" />
		<tag k="water" v="lake" />
	</node>
	<node lat="70.49853661904702" lon="23.93679877124863" id="-2007">
		<tag k="name" v="Trollvatnet - Hánddaljávri" />
		<tag k="name:no" v="Trollvatnet" />
		<tag k="name:se" v="Hánddaljávri" />
		<tag k="natural" v="water" />
		<tag k="old_name:se" v="Handaljavri" />
		<tag k="ssr:stedsnr" v="445946" />
		<tag k="water" v="lake" />
	</node>
	<node lat="70.6323138912135" lon="24.037272117638448" id="-2010">
		<tag k="name" v="Mannvatnet - Njárgajávri" />
		<tag k="name:no" v="Mannvatnet" />
		<tag k="name:se" v="Njárgajávri" />
		<tag k="natural" v="water" />
		<tag k="old_name:se" v="Njargajavri" />
		<tag k="ssr:stedsnr" v="445786" />
		<tag k="water" v="lake" />
	</node>
	<node lat="70.44084444998308" lon="24.11352487453872" id="-2011">
		<tag k="name" v="Rundvatnet" />
		<tag k="natural" v="water" />
		<tag k="ssr:stedsnr" v="445897" />
	</node>
	<node lat="70.41160555990068" lon="23.784036005988902" id="-2017">
		<tag k="alt_name" v="Marie Olsen vatnet" />
		<tag k="name" v="Marie Olsentjørna" />
		<tag k="natural" v="water" />
		<tag k="ssr:stedsnr" v="505984" />
	</node>
	<node lat="70.39631111330003" lon="24.382774864186658" id="-2020">
		<tag k="name" v="Brattelvvatna - Virošjávrrit" />
		<tag k="name:no" v="Brattelvvatna" />
		<tag k="name:se" v="Virošjávrrit" />
		<tag k="natural" v="water" />
		<tag k="old_name:se" v="Virušjavrit" />
		<tag k="ssr:stedsnr" v="504634" />
	</node>
	<node lat="70.31010278223278" lon="24.42307762698967" id="-2021">
		<tag k="name" v="Guhkesgurjávri" />
		<tag k="name:se" v="Guhkesgurjávri" />
		<tag k="natural" v="water" />
		<tag k="old_name:se" v="Gukkesgurjavri" />
		<tag k="ssr:stedsnr" v="504659" />
		<tag k="water" v="lake" />
	</node>
	<node lat="70.22826944876584" lon="23.95883878713861" id="-2022">
		<tag k="name" v="Joavnnajohka" />
		<tag k="name:se" v="Joavnnajohka" />
		<tag k="old_name:se" v="Joavnajåkka" />
		<tag k="ssr:stedsnr" v="504841" />
		<tag k="waterway" v="stream" />
	</node>
	<node lat="70.81969444956557" lon="23.413597136424908" id="-2031">
		<tag k="name" v="Trollbuktvannet" />
		<tag k="natural" v="water" />
		<tag k="ssr:stedsnr" v="505095" />
	</node>
	<node lat="70.65847222283962" lon="22.926786054822536" id="-2034">
		<tag k="name" v="Storelva" />
		<tag k="ssr:stedsnr" v="505033" />
		<tag k="waterway" v="river" />
	</node>
	<node lat="70.53211667264648" lon="23.377783262780973" id="-2045">
		<tag k="name" v="Hamnevannet" />
		<tag k="natural" v="water" />
		<tag k="ssr:stedsnr" v="505125" />
	</node>
	<node lat="70.5119194447445" lon="23.525552699275337" id="-2050">
		<tag k="name" v="Čáhcegopjohka" />
		<tag k="name:se" v="Čáhcegopjohka" />
		<tag k="old_name:se" v="Čaccegåpjåkka" />
		<tag k="ssr:stedsnr" v="505181" />
		<tag k="waterway" v="stream" />
	</node>
	<node lat="70.60625833290877" lon="23.49208602714007" id="-2058">
		<tag k="name" v="Ersvikvannet - Jallajávri" />
		<tag k="name:no" v="Ersvikvannet" />
		<tag k="name:se" v="Jallajávri" />
		<tag k="natural" v="water" />
		<tag k="old_name:se" v="Jallajavri" />
		<tag k="ssr:stedsnr" v="505234" />
	</node>
	<node lat="70.61518888818813" lon="23.669047125372757" id="-2061">
		<tag k="name" v="Rávdnjejávri" />
		<tag k="name:no" v="Saragamvannet" />
		<tag k="name:se" v="Rávdnjejávri" />
		<tag k="natural" v="water" />
		<tag k="old_name:se" v="Ravdnjejavri" />
		<tag k="ssr:stedsnr" v="505242" />
	</node>
	<node lat="70.72294166815115" lon="23.315747150059213" id="-2065">
		<tag k="name" v="Sæterelva" />
		<tag k="ssr:stedsnr" v="505259" />
		<tag k="waterway" v="stream" />
	</node>
	<node lat="70.63980277951228" lon="22.879638838888663" id="-2070">
		<tag k="name" v="Fiskevannet" />
		<tag k="natural" v="water" />
		<tag k="ssr:stedsnr" v="505439" />
	</node>
	<node lat="70.26932222694585" lon="24.096424877961375" id="-2072">
		<tag k="name" v="Repparfjordelva - Riehpovuonjohka" />
		<tag k="name:no" v="Repparfjordelva" />
		<tag k="name:se" v="Riehpovuonjohka" />
		<tag k="old_name:se" v="Rieppuvuonjåkka" />
		<tag k="ssr:stedsnr" v="505644" />
		<tag k="waterway" v="river" />
	</node>
	<node lat="70.60164444817119" lon="24.595430412956816" id="-2076">
		<tag k="alt_name:se" v="Oaggojávri" />
		<tag k="name" v="Oaggunjávri" />
		<tag k="name:se" v="Oaggunjávri" />
		<tag k="natural" v="water" />
		<tag k="old_name:se" v="Oaggonjavri" />
		<tag k="ssr:stedsnr" v="505765" />
		<tag k="water" v="lake" />
	</node>
	<node lat="70.3880083376346" lon="23.9545165635805" id="-2077">
		<tag k="name" v="Triovatnan" />
		<tag k="natural" v="water" />
		<tag k="ssr:stedsnr" v="505776" />
		<tag k="water" v="lake" />
	</node>
	<node lat="70.63205278106402" lon="24.261755438072434" id="-2078">
		<tag k="name" v="Sommarvikvatnet - Gieldaluohjávri" />
		<tag k="name:no" v="Sommarvikvatnet" />
		<tag k="name:se" v="Gieldaluohjávri" />
		<tag k="natural" v="water" />
		<tag k="old_name:se" v="Gieldaluokjavri" />
		<tag k="ssr:stedsnr" v="505778" />
	</node>
	<node lat="70.37178333108277" lon="23.568952695808782" id="-2079">
		<tag k="name" v="Gárggojávri" />
		<tag k="name:se" v="Gárggojávri" />
		<tag k="natural" v="water" />
		<tag k="old_name:se" v="Gargujavri" />
		<tag k="ssr:stedsnr" v="505781" />
	</node>
	<node lat="70.32998888845023" lon="23.95554433198713" id="-2080">
		<tag k="name" v="Gárdejávri" />
		<tag k="name:se" v="Gárdejávri" />
		<tag k="natural" v="water" />
		<tag k="old_name:se" v="Gardejavri" />
		<tag k="ssr:stedsnr" v="505783" />
		<tag k="water" v="lake" />
	</node>
	<node lat="70.64476111794518" lon="24.492113756172625" id="-2081">
		<tag k="name" v="Sáidejohka" />
		<tag k="name:se" v="Sáidejohka" />
		<tag k="old_name:se" v="Saidejåkka" />
		<tag k="ssr:stedsnr" v="505785" />
		<tag k="waterway" v="stream" />
	</node>
	<node lat="70.26100000267257" lon="23.867602676254442" id="-2084">
		<tag k="name" v="Bikkobierluoppal" />
		<tag k="name:se" v="Bikkobierluoppal" />
		<tag k="natural" v="water" />
		<tag k="old_name:se" v="Biggubierluobbal" />
		<tag k="ssr:stedsnr" v="505826" />
	</node>
	<node lat="70.17458611693118" lon="23.952130428990923" id="-2086">
		<tag k="fixme" v="multiple name:no tags, choose one and add the other to alt_name:no" />
		<tag k="name" v="Vuoksajohka" />
		<tag k="name:no" v="Okselva;Okselva, øvre;Øvre Okselva" />
		<tag k="name:se" v="Vuoksajohka" />
		<tag k="old_name:se" v="Vuoksajåkka" />
		<tag k="ssr:stedsnr" v="505833" />
		<tag k="waterway" v="river" />
	</node>
	<node lat="70.51164445182987" lon="24.411735987544077" id="-2088">
		<tag k="name" v="Earnjoasjávri" />
		<tag k="name:se" v="Earnjoasjávri" />
		<tag k="natural" v="water" />
		<tag k="old_name:se" v="Ærnjoasjavri" />
		<tag k="ssr:stedsnr" v="505840" />
	</node>
	<node lat="70.47501666712037" lon="24.01223043160074" id="-2089">
		<tag k="alt_name" v="Bergvatn" />
		<tag k="name" v="Bergvatnet" />
		<tag k="natural" v="water" />
		<tag k="ssr:stedsnr" v="505843" />
	</node>
	<node lat="70.44143333672866" lon="24.004691551571263" id="-2093">
		<tag k="name" v="Hoallojohka" />
		<tag k="name:se" v="Hoallojohka" />
		<tag k="old_name:se" v="Hoallujåkka" />
		<tag k="ssr:stedsnr" v="505856" />
		<tag k="waterway" v="stream" />
	</node>
	<node lat="70.21342778430797" lon="24.22472764555328" id="-2096">
		<tag k="name" v="Vuolit Gáhččalanjávri" />
		<tag k="name:se" v="Vuolit Gáhččalanjávri" />
		<tag k="natural" v="water" />
		<tag k="old_name:se" v="Gaččalanjavri, vuolit" />
		<tag k="ssr:stedsnr" v="505923" />
		<tag k="water" v="lake" />
	</node>
	<node lat="70.484652777937" lon="23.858058228883362" id="-2098">
		<tag k="alt_name" v="Skabeluftvatnet" />
		<tag k="name" v="Svartbergvatnet" />
		<tag k="natural" v="water" />
		<tag k="ssr:stedsnr" v="505953" />
		<tag k="water" v="lake" />
	</node>
	<node lat="70.59993889689547" lon="24.839858165306808" id="-2100">
		<tag k="name" v="Stuorrávžžejogaš" />
		<tag k="name:se" v="Stuorrávžžejogaš" />
		<tag k="old_name:se" v="Stuorravžejågaš" />
		<tag k="ssr:stedsnr" v="505890" />
		<tag k="waterway" v="stream" />
	</node>
	<node lat="70.68395555779799" lon="24.01634712666642" id="-2103">
		<tag k="name" v="Skogvikvannet" />
		<tag k="natural" v="water" />
		<tag k="ssr:stedsnr" v="506195" />
	</node>
	<node lat="70.43157778473709" lon="24.329338769011432" id="-2112">
		<tag k="name" v="Porselva" />
		<tag k="ssr:stedsnr" v="514945" />
		<tag k="waterway" v="river" />
	</node>
	<node lat="70.65130278062445" lon="23.752144351601363" id="-2119">
		<tag k="name" v="Ingebrigtsvannet" />
		<tag k="natural" v="water" />
		<tag k="ssr:stedsnr" v="516158" />
	</node>
	<node lat="70.69339166475251" lon="23.778311023485916" id="-2120">
		<tag k="name" v="Vesterpollelva" />
		<tag k="ssr:stedsnr" v="516226" />
		<tag k="waterway" v="stream" />
	</node>
	<node lat="70.58513333928936" lon="24.788491517860606" id="-2126">
		<tag k="name" v="Russelvfoss" />
		<tag k="natural" v="waterfall" />
		<tag k="ssr:stedsnr" v="518223" />
	</node>
	<node lat="70.64129722675678" lon="23.791161006363733" id="-2131">
		<tag k="name" v="Vestfjelldammen" />
		<tag k="natural" v="water" />
		<tag k="ssr:stedsnr" v="526993" />
		<tag k="water" v="lake" />
	</node>
	<node lat="70.80133056040322" lon="23.45865271359695" id="-2151">
		<tag k="name" v="Russevikvannet" />
		<tag k="natural" v="water" />
		<tag k="ssr:stedsnr" v="565134" />
	</node>
	<node lat="70.57488333487824" lon="23.94198046197371" id="-2154">
		<tag k="name" v="Suolojávri" />
		<tag k="name:se" v="Suolojávri" />
		<tag k="natural" v="water" />
		<tag k="old_name:se" v="Suolujavri" />
		<tag k="ssr:stedsnr" v="565224" />
	</node>
	<node lat="70.59960000301861" lon="23.962855458145253" id="-2158">
		<tag k="name" v="Unna Dorskavuonjávri" />
		<tag k="name:se" v="Unna Dorskavuonjávri" />
		<tag k="natural" v="water" />
		<tag k="old_name:se" v="Dårskavuonjavri, unna" />
		<tag k="ssr:stedsnr" v="565234" />
	</node>
	<node lat="70.6942638915464" lon="23.95714155186752" id="-2166">
		<tag k="name" v="Fjellvikvannet" />
		<tag k="natural" v="water" />
		<tag k="ssr:stedsnr" v="566067" />
	</node>
	<node lat="70.31168611826209" lon="24.076522095251672" id="-2173">
		<tag k="name" v="Mikkeldalsvatnet - Gaskavákjávri" />
		<tag k="name:no" v="Mikkeldalsvatnet" />
		<tag k="name:se" v="Gaskavákjávri" />
		<tag k="natural" v="water" />
		<tag k="old_name:se" v="Gaskavagjavri" />
		<tag k="ssr:stedsnr" v="565667" />
	</node>
	<node lat="70.32443055678745" lon="24.24615820230643" id="-2179">
		<tag k="name" v="Fiskehølen" />
		<tag k="place" v="locality" />
		<tag k="ssr:stedsnr" v="565672" />
	</node>
	<node lat="70.3233611151634" lon="24.129808216779622" id="-2182">
		<tag k="name" v="Båtdalsvatnet - Áisarjávri" />
		<tag k="name:no" v="Båtdalsvatnet" />
		<tag k="name:se" v="Áisarjávri" />
		<tag k="natural" v="water" />
		<tag k="old_name:se" v="Aisarjavri" />
		<tag k="ssr:stedsnr" v="565680" />
		<tag k="water" v="lake" />
	</node>
	<node lat="70.39811667296222" lon="23.496294359312873" id="-2184">
		<tag k="name" v="Gressnesvatnet - Rássenjárvárejávri" />
		<tag k="name:no" v="Gressnesvatnet" />
		<tag k="name:se" v="Rássenjárvárejávri" />
		<tag k="natural" v="water" />
		<tag k="old_name:se" v="Rassenjarvarejavri" />
		<tag k="ssr:stedsnr" v="565771" />
	</node>
	<node lat="70.2438555588655" lon="23.87565544587107" id="-2185">
		<tag k="name" v="Ođđaguollejohka" />
		<tag k="name:se" v="Ođđaguollejohka" />
		<tag k="old_name:se" v="Åđđáguollejåkka" />
		<tag k="ssr:stedsnr" v="565786" />
		<tag k="waterway" v="stream" />
	</node>
	<node lat="70.3767833403627" lon="23.7928137857683" id="-2187">
		<tag k="alt_name:no" v="Indrevatn" />
		<tag k="name" v="Innervatnet - Mihkkalašgoahtesaijávri" />
		<tag k="name:no" v="Innervatnet" />
		<tag k="name:se" v="Mihkkalašgoahtesaijávri" />
		<tag k="natural" v="water" />
		<tag k="old_name:se" v="Mikkalašgoattesajavri" />
		<tag k="ssr:stedsnr" v="565788" />
		<tag k="water" v="lake" />
	</node>
	<node lat="70.20286666633227" lon="23.965324886453274" id="-2188">
		<tag k="name" v="Áidejávri" />
		<tag k="name:se" v="Áidejávri" />
		<tag k="natural" v="water" />
		<tag k="old_name:se" v="Aidejavri" />
		<tag k="ssr:stedsnr" v="565868" />
	</node>
	<node lat="70.44872778387612" lon="24.03511656036138" id="-2191">
		<tag k="name" v="Stangvatnet" />
		<tag k="natural" v="water" />
		<tag k="ssr:stedsnr" v="565873" />
	</node>
	<node lat="70.21865000588122" lon="23.80418046130377" id="-2194">
		<tag k="name" v="Holmvatnet - Suolojávri" />
		<tag k="name:no" v="Holmvatnet" />
		<tag k="name:se" v="Suolojávri" />
		<tag k="natural" v="water" />
		<tag k="old_name:se" v="Suolujavri" />
		<tag k="ssr:stedsnr" v="565858" />
		<tag k="water" v="lake" />
	</node>
	<node lat="70.16985833616855" lon="24.152199867782937" id="-2195">
		<tag k="name" v="Vuolit Gussaluoppal" />
		<tag k="name:se" v="Vuolit Gussaluoppal" />
		<tag k="natural" v="water" />
		<tag k="old_name:se" v="Gussaluobbal, vuolit" />
		<tag k="ssr:stedsnr" v="565957" />
		<tag k="water" v="lake" />
	</node>
	<node lat="70.62683889208029" lon="24.27596931371798" id="-2196">
		<tag k="name" v="Sommarvikelva - Gieldaluohjohka" />
		<tag k="name:no" v="Sommarvikelva" />
		<tag k="name:se" v="Gieldaluohjohka" />
		<tag k="old_name:se" v="Gieldaluokjåkka" />
		<tag k="ssr:stedsnr" v="566022" />
		<tag k="waterway" v="river" />
	</node>
	<node lat="70.64915277900283" lon="23.770044344251527" id="-2197">
		<tag k="name" v="Riebansilbaskáidi" />
		<tag k="name:se" v="Riebansilbaskáidi" />
		<tag k="natural" v="cape" />
		<tag k="old_name:se" v="Riebansilbaskaidi" />
		<tag k="ssr:stedsnr" v="566025" />
	</node>
	<node lat="70.76700555650885" lon="23.140286033830364" id="-2204">
		<tag k="name" v="Lomvannet" />
		<tag k="natural" v="water" />
		<tag k="ssr:stedsnr" v="566176" />
	</node>
	<node lat="70.7533416730622" lon="23.198894369543716" id="-2207">
		<tag k="name" v="Øvre Hårfjellvannet" />
		<tag k="natural" v="water" />
		<tag k="ssr:stedsnr" v="566189" />
	</node>
	<node lat="70.55701666948723" lon="23.90008324124149" id="-2209">
		<tag k="name" v="Bajimus Spártojávri" />
		<tag k="name:se" v="Bajimus Spártojávri" />
		<tag k="natural" v="water" />
		<tag k="old_name:se" v="Spartujavri, bajimus" />
		<tag k="ssr:stedsnr" v="566201" />
	</node>
	<node lat="70.63995278214826" lon="23.10806937546676" id="-2215">
		<tag k="name" v="Trollvannet" />
		<tag k="natural" v="water" />
		<tag k="ssr:stedsnr" v="566437" />
	</node>
	<node lat="70.58342777676624" lon="24.579752644347913" id="-2220">
		<tag k="name" v="Váibmobávččaganjávri" />
		<tag k="name:se" v="Váibmobávččaganjávri" />
		<tag k="natural" v="water" />
		<tag k="old_name:se" v="Vaibmubavčaganjavri" />
		<tag k="ssr:stedsnr" v="566817" />
	</node>
	<node lat="70.57635000560774" lon="24.51573041055552" id="-2221">
		<tag k="name" v="Boazoluoppal" />
		<tag k="name:se" v="Boazoluoppal" />
		<tag k="natural" v="water" />
		<tag k="old_name:se" v="Boazuluobbal" />
		<tag k="ssr:stedsnr" v="566819" />
	</node>
	<node lat="70.26091389433886" lon="23.778308233725838" id="-2223">
		<tag k="name" v="Guhkesluoppal" />
		<tag k="name:se" v="Guhkesluoppal" />
		<tag k="natural" v="water" />
		<tag k="old_name:se" v="Gukkesluobbal" />
		<tag k="ssr:stedsnr" v="566832" />
	</node>
	<node lat="70.25646944932407" lon="23.809488775888873" id="-2224">
		<tag k="name" v="Dauingsvatnet - Jámešjávri" />
		<tag k="name:no" v="Dauingsvatnet" />
		<tag k="name:se" v="Jámešjávri" />
		<tag k="natural" v="water" />
		<tag k="old_name:se" v="Jamešjavri" />
		<tag k="ssr:stedsnr" v="566834" />
		<tag k="water" v="lake" />
	</node>
	<node lat="70.2611111124981" lon="23.992758222027817" id="-2225">
		<tag k="name" v="Issáhaguollejávri" />
		<tag k="name:se" v="Issáhaguollejávri" />
		<tag k="natural" v="water" />
		<tag k="old_name:se" v="Issaguollejavri" />
		<tag k="ssr:stedsnr" v="566837" />
	</node>
	<node lat="70.478727778712" lon="24.042780428690527" id="-2226">
		<tag k="name" v="Bierajávri" />
		<tag k="name:se" v="Bierajávri" />
		<tag k="natural" v="water" />
		<tag k="old_name:se" v="Bierajavri" />
		<tag k="ssr:stedsnr" v="566850" />
		<tag k="water" v="lake" />
	</node>
	<node lat="70.5227111120622" lon="24.671263736746685" id="-2232">
		<tag k="name" v="Bielločohkajávri" />
		<tag k="name:se" v="Bielločohkajávri" />
		<tag k="natural" v="water" />
		<tag k="old_name:se" v="Biellučåkkajavri" />
		<tag k="ssr:stedsnr" v="566921" />
	</node>
	<node lat="70.43410833414681" lon="23.838808232544885" id="-2237">
		<tag k="alt_name:no" v="Nedre Neverfjordvatn" />
		<tag k="name" v="Nedre Neverfjordvatnet - Vuolit Fiettarjávri" />
		<tag k="name:no" v="Nedre Neverfjordvatnet" />
		<tag k="name:se" v="Vuolit Fiettarjávri" />
		<tag k="natural" v="water" />
		<tag k="old_name:no" v="Neverfjordvatnet, nedre" />
		<tag k="old_name:se" v="Fieddarjavri vuolit" />
		<tag k="ssr:stedsnr" v="566997" />
		<tag k="water" v="lake" />
	</node>
	<node lat="70.51512222359726" lon="23.781611018687272" id="-2242">
		<tag k="name" v="Stagneselva" />
		<tag k="ssr:stedsnr" v="574639" />
		<tag k="waterway" v="stream" />
	</node>
	<node lat="70.61417222511612" lon="23.647111008919914" id="-2254">
		<tag k="name" v="Dikvannet" />
		<tag k="natural" v="water" />
		<tag k="ssr:stedsnr" v="577149" />
	</node>
	<node lat="70.5830416681489" lon="24.600988752797154" id="-2259">
		<tag k="name" v="Falkavatnet" />
		<tag k="natural" v="water" />
		<tag k="ssr:stedsnr" v="578128" />
	</node>
	<node lat="70.29678333857778" lon="24.152480419178154" id="-2279">
		<tag k="name" v="Fossen - Áisargorži" />
		<tag k="name:no" v="Fossen" />
		<tag k="name:se" v="Áisargorži" />
		<tag k="natural" v="waterfall" />
		<tag k="old_name:se" v="Aisargårzi" />
		<tag k="ssr:stedsnr" v="625647" />
	</node>
	<node lat="70.7020777837301" lon="23.924488794723004" id="-2283">
		<tag k="loc_name:se" v="Risvahluoppal" />
		<tag k="name" v="Risvågvannet" />
		<tag k="name:no" v="Risvågvannet" />
		<tag k="natural" v="water" />
		<tag k="ssr:stedsnr" v="626069" />
	</node>
	<node lat="70.44151111312847" lon="23.1612249168804" id="-2286">
		<tag k="name" v="Strovmmajávri" />
		<tag k="name:se" v="Strovmmajávri" />
		<tag k="natural" v="water" />
		<tag k="old_name:se" v="Stråvmajavri;Strovmmajavri" />
		<tag k="ssr:stedsnr" v="626075" />
		<tag k="water" v="lake" />
	</node>
	<node lat="70.72946111744844" lon="23.73420546876868" id="-2287">
		<tag k="name" v="Gámmejávrrit" />
		<tag k="name:no" v="Kuskarvannene" />
		<tag k="name:se" v="Gámmejávrrit" />
		<tag k="natural" v="water" />
		<tag k="old_name:se" v="Gammejavrit" />
		<tag k="ssr:stedsnr" v="626037" />
	</node>
	<node lat="70.82123888719777" lon="23.349041594085104" id="-2297">
		<tag k="name" v="Jensvardvannet" />
		<tag k="natural" v="water" />
		<tag k="ssr:stedsnr" v="626090" />
	</node>
	<node lat="70.48103055365092" lon="23.3758360290719" id="-2298">
		<tag k="name" v="Mellanvannet" />
		<tag k="natural" v="water" />
		<tag k="ssr:stedsnr" v="626093" />
	</node>
	<node lat="70.74383611001919" lon="23.16694158975654" id="-2317">
		<tag k="name" v="Mikkelelva" />
		<tag k="ssr:stedsnr" v="626284" />
		<tag k="waterway" v="stream" />
	</node>
	<node lat="70.26184999989235" lon="24.144349878944887" id="-2325">
		<tag k="name" v="Skadjavárjohka" />
		<tag k="name:se" v="Skadjavárjohka" />
		<tag k="old_name:se" v="Skaddjavarjåkka" />
		<tag k="ssr:stedsnr" v="626728" />
		<tag k="waterway" v="stream" />
	</node>
	<node lat="70.42583055788869" lon="24.665580410271627" id="-2327">
		<tag k="name" v="Suolojohka" />
		<tag k="name:se" v="Suolojohka" />
		<tag k="old_name:se" v="Suolujåkka" />
		<tag k="ssr:stedsnr" v="626741" />
		<tag k="waterway" v="stream" />
	</node>
	<node lat="70.35045833972279" lon="23.85683045179726" id="-2332">
		<tag k="name" v="Gressvatnet - Gievdnejávri" />
		<tag k="name:no" v="Gressvatnet" />
		<tag k="name:se" v="Gievdnejávri" />
		<tag k="natural" v="water" />
		<tag k="old_name:se" v="Gievdnejavri" />
		<tag k="ssr:stedsnr" v="626792" />
		<tag k="water" v="lake" />
	</node>
	<node lat="70.3461972244793" lon="23.715116576680053" id="-2333">
		<tag k="name" v="Gihtaidjohmohkki" />
		<tag k="name:se" v="Gihtaidjohmohkki" />
		<tag k="old_name:se" v="Gittaidjåkmåkki" />
		<tag k="ssr:stedsnr" v="626795" />
		<tag k="waterway" v="river" />
	</node>
	<node lat="70.45420278271159" lon="24.183097105677362" id="-2336">
		<tag k="name" v="Ásajávri" />
		<tag k="name:se" v="Ásajávri" />
		<tag k="natural" v="water" />
		<tag k="old_name:se" v="Asajavri" />
		<tag k="ssr:stedsnr" v="626867" />
		<tag k="water" v="lake" />
	</node>
	<node lat="70.44821944964755" lon="24.23954153691842" id="-2337">
		<tag k="name" v="Geresjohka" />
		<tag k="name:se" v="Geresjohka" />
		<tag k="old_name:se" v="Geresjåkka" />
		<tag k="ssr:stedsnr" v="626875" />
		<tag k="waterway" v="stream" />
	</node>
	<node lat="70.44192500497627" lon="24.101691559064232" id="-2338">
		<tag k="name" v="Hoalloluoppal" />
		<tag k="name:se" v="Hoalloluoppal" />
		<tag k="natural" v="water" />
		<tag k="old_name:se" v="Hoalluluobbal" />
		<tag k="ssr:stedsnr" v="626878" />
	</node>
	<node lat="70.44837500186857" lon="24.31729153866437" id="-2340">
		<tag k="name" v="Oldernes" />
		<tag k="natural" v="cape" />
		<tag k="ssr:stedsnr" v="626885" />
	</node>
	<node lat="70.49757778053457" lon="23.452638795788886" id="-2341">
		<tag k="name" v="Buogovárčeabetjávri" />
		<tag k="name:se" v="Buogovárčeabetjávri" />
		<tag k="natural" v="water" />
		<tag k="old_name:se" v="Buoguvarčæbetjavri" />
		<tag k="ssr:stedsnr" v="626965" />
	</node>
	<node lat="70.55129166579547" lon="22.713416622905388" id="-2345">
		<tag k="name" v="Nordbotnvatnet" />
		<tag k="natural" v="water" />
		<tag k="ssr:stedsnr" v="627033" />
	</node>
	<node lat="70.51635833603761" lon="24.77085540466934" id="-2357">
		<tag k="name" v="Smávvaguollejávrrit" />
		<tag k="name:se" v="Smávvaguollejávrrit" />
		<tag k="natural" v="water" />
		<tag k="old_name:se" v="Smavvaguollejavrit" />
		<tag k="ssr:stedsnr" v="627927" />
	</node>
	<node lat="70.64440000607696" lon="23.752533237520375" id="-2365">
		<tag k="name" v="Nedre Freidigvannet" />
		<tag k="natural" v="water" />
		<tag k="ssr:stedsnr" v="634794" />
		<tag k="water" v="lake" />
	</node>
	<node lat="70.65501944627422" lon="23.736169361605786" id="-2366">
		<tag k="name" v="Inntaksdammen" />
		<tag k="natural" v="water" />
		<tag k="ssr:stedsnr" v="634795" />
		<tag k="water" v="lake" />
	</node>
	<node lat="70.44771945093584" lon="24.32587209745596" id="-2370">
		<tag k="name" v="Hestekulpen" />
		<tag k="place" v="locality" />
		<tag k="ssr:stedsnr" v="635913" />
	</node>
	<node lat="70.49887499942838" lon="24.275833205495353" id="-2372">
		<tag k="name" v="Vággijohka" />
		<tag k="name:se" v="Vággijohka" />
		<tag k="ssr:stedsnr" v="635873" />
		<tag k="waterway" v="stream" />
	</node>
	<node lat="70.47415555456296" lon="23.279258266249464" id="-2408">
		<tag k="name" v="Fosselv" />
		<tag k="ssr:stedsnr" v="747050" />
		<tag k="waterway" v="stream" />
	</node>
	<node lat="70.47880000685016" lon="24.63076650867644" id="-2420">
		<tag k="name" v="Guorrujohgierratjávrrit" />
		<tag k="name:se" v="Guorrujohgierratjávrrit" />
		<tag k="natural" v="water" />
		<tag k="old_name:se" v="Guorrujåkgierratjavrit" />
		<tag k="ssr:stedsnr" v="747681" />
	</node>
	<node lat="70.38874166898832" lon="24.189124883896095" id="-2421">
		<tag k="name" v="Govdavákjávrrit" />
		<tag k="name:se" v="Govdavákjávrrit" />
		<tag k="natural" v="water" />
		<tag k="old_name:se" v="Gåvdavagjavrit;Gavdarágjávri" />
		<tag k="ssr:stedsnr" v="747633" />
		<tag k="water" v="lake" />
	</node>
	<node lat="70.40989445119342" lon="24.27928599445686" id="-2423">
		<tag k="name" v="Ruksesbávttejávri" />
		<tag k="name:no" v="Rødfjellvannet" />
		<tag k="name:se" v="Ruksesbávttejávri" />
		<tag k="natural" v="water" />
		<tag k="old_name:se" v="Ruksesbavtejavri" />
		<tag k="ssr:stedsnr" v="747638" />
		<tag k="water" v="lake" />
	</node>
	<node lat="70.46433333232855" lon="24.139847109103176" id="-2427">
		<tag k="name" v="Svartfjellvatnet" />
		<tag k="natural" v="water" />
		<tag k="ssr:stedsnr" v="747853" />
	</node>
	<node lat="70.45708334167698" lon="24.22702764778611" id="-2428">
		<tag k="name" v="Langvatnet" />
		<tag k="natural" v="water" />
		<tag k="ssr:stedsnr" v="747856" />
	</node>
	<node lat="70.20226667064443" lon="24.305522072139375" id="-2429">
		<tag k="name" v="Opmojávri" />
		<tag k="name:se" v="Opmojávri" />
		<tag k="natural" v="water" />
		<tag k="old_name:se" v="Åbmujavri" />
		<tag k="ssr:stedsnr" v="747945" />
		<tag k="water" v="lake" />
	</node>
	<node lat="70.16547222166153" lon="24.010980441670476" id="-2430">
		<tag k="name" v="Mađđejohka" />
		<tag k="name:se" v="Mađđejohka" />
		<tag k="old_name:se" v="Mađđejåkka" />
		<tag k="ssr:stedsnr" v="747956" />
		<tag k="waterway" v="river" />
	</node>
	<node lat="70.14751667161266" lon="24.162522084101678" id="-2431">
		<tag k="name" v="Linnjaluoppal" />
		<tag k="name:se" v="Linnjaluoppal" />
		<tag k="natural" v="water" />
		<tag k="old_name:se" v="Linnjaluobbal" />
		<tag k="ssr:stedsnr" v="747959" />
	</node>
	<node lat="70.57376944748431" lon="24.284722107837084" id="-2434">
		<tag k="name" v="Kvalvikelva - Fálesjohka" />
		<tag k="name:no" v="Kvalvikelva" />
		<tag k="name:se" v="Fálesjohka" />
		<tag k="old_name:se" v="Falesjåkka" />
		<tag k="ssr:stedsnr" v="748028" />
		<tag k="waterway" v="river" />
	</node>
	<node lat="70.58813889194822" lon="24.581258181619702" id="-2435">
		<tag k="name" v="Reinelva" />
		<tag k="ssr:stedsnr" v="748030" />
		<tag k="waterway" v="river" />
	</node>
	<node lat="70.22068333380072" lon="24.11654709323741" id="-2439">
		<tag k="name" v="Bastinjohka" />
		<tag k="name:no" v="Myrlandselva" />
		<tag k="name:se" v="Bastinjohka" />
		<tag k="old_name:se" v="Bastinjåkka" />
		<tag k="ssr:stedsnr" v="747995" />
		<tag k="waterway" v="river" />
	</node>
	<node lat="70.74220555685488" lon="23.732049921934255" id="-2443">
		<tag k="name" v="Mortebåvannene" />
		<tag k="natural" v="water" />
		<tag k="ssr:stedsnr" v="748090" />
		<tag k="water" v="lake" />
	</node>
	<node lat="70.56483055834644" lon="23.72693324181207" id="-2446">
		<tag k="name" v="Grøtneselva - Guohcajohka" />
		<tag k="name:no" v="Grøtneselva" />
		<tag k="name:se" v="Guohcajohka" />
		<tag k="old_name:se" v="Guoccajåkka" />
		<tag k="ssr:stedsnr" v="748190" />
		<tag k="waterway" v="river" />
	</node>
	<node lat="70.67401945163486" lon="24.364641531502503" id="-2448">
		<tag k="name" v="Njárgajávri" />
		<tag k="name:se" v="Njárgajávri" />
		<tag k="natural" v="water" />
		<tag k="old_name:se" v="Njargajavri" />
		<tag k="ssr:stedsnr" v="748137" />
		<tag k="water" v="lake" />
	</node>
	<node lat="70.3623944521403" lon="23.85507489414269" id="-2471">
		<tag k="name" v="Holmvatnet - Gihtaidsuolojávri" />
		<tag k="name:no" v="Holmvatnet" />
		<tag k="name:se" v="Gihtaidsuolojávri" />
		<tag k="natural" v="water" />
		<tag k="old_name:se" v="Gittaidsuolujavri;Gittaidsuolojávri" />
		<tag k="ssr:stedsnr" v="748781" />
		<tag k="water" v="lake" />
	</node>
	<node lat="70.59144444776422" lon="24.674355396646842" id="-2475">
		<tag k="name" v="Gáldojogašjávri" />
		<tag k="name:se" v="Gáldojogašjávri" />
		<tag k="natural" v="water" />
		<tag k="old_name:se" v="Galdujågašjavri" />
		<tag k="ssr:stedsnr" v="748895" />
	</node>
	<node lat="70.42916944701057" lon="23.444766589272064" id="-2477">
		<tag k="name" v="Langvatnet - Vuolit Guhkesjávri" />
		<tag k="name:no" v="Langvatnet" />
		<tag k="name:se" v="Vuolit Guhkesjávri" />
		<tag k="natural" v="water" />
		<tag k="old_name:se" v="Gukkesjavri, vuolit" />
		<tag k="ssr:stedsnr" v="748981" />
		<tag k="water" v="lake" />
	</node>
	<node lat="70.53411667034088" lon="24.80207762682327" id="-2479">
		<tag k="name" v="Miessejohka" />
		<tag k="name:se" v="Miessejohka" />
		<tag k="old_name:se" v="Miessejåkka" />
		<tag k="ssr:stedsnr" v="748943" />
		<tag k="waterway" v="river" />
	</node>
	<node lat="70.43171389098181" lon="23.844058222412258" id="-2482">
		<tag k="name" v="Olebukta" />
		<tag k="natural" v="bay" />
		<tag k="ssr:stedsnr" v="748993" />
	</node>
	<node lat="70.39641667133424" lon="24.38241374957256" id="-2498">
		<tag k="name" v="Virošjávri" />
		<tag k="name:se" v="Virošjávri" />
		<tag k="natural" v="water" />
		<tag k="ssr:stedsnr" v="757870" />
	</node>
	<node lat="70.70869722934128" lon="23.793324903010355" id="-2502">
		<tag k="name" v="Kalvelva" />
		<tag k="ssr:stedsnr" v="759196" />
		<tag k="waterway" v="stream" />
	</node>
	<node lat="70.7124277783368" lon="23.784233230068395" id="-2503">
		<tag k="name" v="Tovannene" />
		<tag k="natural" v="water" />
		<tag k="ssr:stedsnr" v="759197" />
		<tag k="water" v="lake" />
	</node>
	<node lat="70.67959722488163" lon="23.682508236078736" id="-2505">
		<tag k="name" v="Mellomvannet" />
		<tag k="natural" v="water" />
		<tag k="ssr:stedsnr" v="759232" />
	</node>
	<node lat="70.21982778634646" lon="23.855555438523247" id="-2541">
		<tag k="name" v="Vuostájávri" />
		<tag k="name:se" v="Vuostájávri" />
		<tag k="natural" v="water" />
		<tag k="old_name:se" v="Vuostajavri" />
		<tag k="ssr:stedsnr" v="808842" />
	</node>
	<node lat="70.327583339585" lon="24.337605420412785" id="-2547">
		<tag k="name" v="Buikojávrrit" />
		<tag k="name:se" v="Buikojávrrit" />
		<tag k="natural" v="water" />
		<tag k="old_name:se" v="Buikujavrit" />
		<tag k="ssr:stedsnr" v="808662" />
	</node>
	<node lat="70.3629027858687" lon="24.286355426329536" id="-2549">
		<tag k="name" v="Dápmotjávri" />
		<tag k="name:se" v="Dápmotjávri" />
		<tag k="natural" v="water" />
		<tag k="old_name:se" v="Dabmutjavri" />
		<tag k="ssr:stedsnr" v="808677" />
	</node>
	<node lat="70.38139722926537" lon="24.18704709511392" id="-2551">
		<tag k="name" v="Bajit Govdavákjávri" />
		<tag k="name:se" v="Bajit Govdavákjávri" />
		<tag k="natural" v="water" />
		<tag k="old_name:se" v="Gåvdavagjavri, bajit" />
		<tag k="ssr:stedsnr" v="808628" />
	</node>
	<node lat="70.3840916667518" lon="23.63178323706226" id="-2555">
		<tag k="name" v="Trollvatnet" />
		<tag k="natural" v="water" />
		<tag k="ssr:stedsnr" v="808772" />
	</node>
	<node lat="70.16534722878552" lon="23.9929804311824" id="-2557">
		<tag k="name" v="Mađđejávri" />
		<tag k="name:se" v="Mađđejávri" />
		<tag k="natural" v="water" />
		<tag k="old_name:se" v="Mađđejavri" />
		<tag k="ssr:stedsnr" v="808815" />
		<tag k="water" v="lake" />
	</node>
	<node lat="70.18445277804898" lon="23.88557489161252" id="-2558">
		<tag k="name" v="Bierfaljávri" />
		<tag k="name:se" v="Bierfaljávri" />
		<tag k="natural" v="water" />
		<tag k="old_name:se" v="Bierfaljavri" />
		<tag k="ssr:stedsnr" v="808818" />
	</node>
	<node lat="70.473811118335" lon="24.170722111290807" id="-2561">
		<tag k="name" v="Fægfjordelva - Veaiggosvuonjohka" />
		<tag k="name:no" v="Fægfjordelva" />
		<tag k="name:se" v="Veaiggosvuonjohka" />
		<tag k="old_name:se" v="Væigusvuonjåkka" />
		<tag k="ssr:stedsnr" v="808835" />
		<tag k="waterway" v="river" />
	</node>
	<node lat="70.5452944468961" lon="23.523466583810293" id="-2562">
		<tag k="name" v="Čohkadoggejávri" />
		<tag k="name:no" v="Eidevannet" />
		<tag k="name:se" v="Čohkadoggejávri" />
		<tag k="natural" v="water" />
		<tag k="old_name:se" v="Čåkkadåggejavri" />
		<tag k="ssr:stedsnr" v="809220" />
	</node>
	<node lat="70.69541389441595" lon="23.91800267676746" id="-2577">
		<tag k="loc_name:se" v="Risváhjávri" />
		<tag k="name" v="Middagsfjellvannet" />
		<tag k="name:no" v="Middagsfjellvannet" />
		<tag k="natural" v="water" />
		<tag k="ssr:stedsnr" v="809070" />
	</node>
	<node lat="70.61800556205168" lon="24.67993320059063" id="-2578">
		<tag k="name" v="Russelva - Ruoššajohka" />
		<tag k="name:no" v="Russelva" />
		<tag k="name:se" v="Ruoššajohka" />
		<tag k="old_name:se" v="Ruoššajåkka" />
		<tag k="ssr:stedsnr" v="809124" />
		<tag k="waterway" v="river" />
	</node>
	<node lat="70.63969166847144" lon="23.124308262101767" id="-2591">
		<tag k="name" v="Storvannet" />
		<tag k="natural" v="water" />
		<tag k="ssr:stedsnr" v="809457" />
	</node>
	<node lat="70.67177222166197" lon="23.11263881825753" id="-2595">
		<tag k="name" v="Olajordvannet" />
		<tag k="natural" v="water" />
		<tag k="ssr:stedsnr" v="809480" />
	</node>
	<node lat="70.26449166975205" lon="23.967122112814984" id="-2598">
		<tag k="name" v="Jovssebajávri" />
		<tag k="name:se" v="Jovssebajávri" />
		<tag k="natural" v="water" />
		<tag k="old_name:se" v="Jåvsebajavri" />
		<tag k="ssr:stedsnr" v="809819" />
	</node>
	<node lat="70.40648055775783" lon="24.08480822818368" id="-2599">
		<tag k="name" v="Skreivatnet" />
		<tag k="natural" v="water" />
		<tag k="ssr:stedsnr" v="809662" />
	</node>
	<node lat="70.42697500608368" lon="24.023669321719666" id="-2600">
		<tag k="alt_name:no" v="Saltvatnet ned" />
		<tag k="name" v="Nedre Saltvatnet - Nussir-Suolojávri" />
		<tag k="name:no" v="Nedre Saltvatnet" />
		<tag k="name:se" v="Nussir-Suolojávri" />
		<tag k="natural" v="water" />
		<tag k="old_name:se" v="Nussir-Suolujavri" />
		<tag k="ssr:stedsnr" v="809674" />
		<tag k="water" v="lake" />
	</node>
	<node lat="70.61253888957462" lon="24.55962762923877" id="-2604">
		<tag k="name" v="Masterelva - Sivlejohka" />
		<tag k="name:no" v="Masterelva" />
		<tag k="name:se" v="Sivlejohka" />
		<tag k="old_name:se" v="Sivlejåkka" />
		<tag k="ssr:stedsnr" v="809764" />
		<tag k="waterway" v="river" />
	</node>
	<node lat="70.48801111444327" lon="24.103308221207335" id="-2608">
		<tag k="name" v="Tveelva" />
		<tag k="ssr:stedsnr" v="809837" />
		<tag k="waterway" v="stream" />
	</node>
	<node lat="70.48159444596251" lon="24.076983207949308" id="-2609">
		<tag k="name" v="Bierajohka" />
		<tag k="name:se" v="Bierajohka" />
		<tag k="old_name:se" v="Bierajåkka" />
		<tag k="ssr:stedsnr" v="809845" />
		<tag k="waterway" v="stream" />
	</node>
	<node lat="70.63370833683065" lon="24.843780389077526" id="-2610">
		<tag k="name" v="Šáregašjogaš" />
		<tag k="name:se" v="Šáregašjogaš" />
		<tag k="old_name:se" v="Šaregašjågaš" />
		<tag k="ssr:stedsnr" v="809858" />
		<tag k="waterway" v="stream" />
	</node>
	<node lat="70.53721111808792" lon="24.651708197182828" id="-2612">
		<tag k="name" v="Lavnnjetluoppal" />
		<tag k="name:se" v="Lavnnjetluoppal" />
		<tag k="natural" v="water" />
		<tag k="old_name:se" v="Lavnjetluobbal" />
		<tag k="ssr:stedsnr" v="809941" />
	</node>
	<node lat="70.4300777844804" lon="23.470661017630338" id="-2616">
		<tag k="name" v="Guicavákkejávri" />
		<tag k="name:se" v="Guicavákkejávri" />
		<tag k="natural" v="water" />
		<tag k="old_name:se" v="Guicavaggejavri" />
		<tag k="ssr:stedsnr" v="809980" />
		<tag k="water" v="lake" />
	</node>
	<node lat="70.49249166849563" lon="23.948433233511352" id="-2621">
		<tag k="name" v="Trollvasselva" />
		<tag k="ssr:stedsnr" v="818560" />
		<tag k="waterway" v="stream" />
	</node>
	<node lat="70.54126388744359" lon="24.113791558951235" id="-2625">
		<tag k="name" v="Áimajohka" />
		<tag k="name:se" v="Áimajohka" />
		<tag k="ssr:stedsnr" v="818961" />
		<tag k="waterway" v="stream" />
	</node>
	<node lat="70.81284166495699" lon="23.361711047444558" id="-2653">
		<tag k="name" v="Gamvikvannet" />
		<tag k="natural" v="water" />
		<tag k="ssr:stedsnr" v="869094" />
	</node>
	<node lat="70.46911944523889" lon="23.946505446488683" id="-2672">
		<tag k="fixme" v="multiple name:no tags, choose one and add the other to alt_name:no" />
		<tag k="name" v="Suolojohka" />
		<tag k="name:no" v="Tverrelva;Korselva" />
		<tag k="name:se" v="Suolojohka" />
		<tag k="old_name:se" v="Suolujåkka" />
		<tag k="ssr:stedsnr" v="869562" />
		<tag k="waterway" v="river" />
	</node>
	<node lat="70.27226111367095" lon="24.292327637843577" id="-2679">
		<tag k="name" v="Čáhppesjávri" />
		<tag k="name:se" v="Čáhppesjávri" />
		<tag k="natural" v="water" />
		<tag k="old_name:se" v="Čoppesjavri" />
		<tag k="ssr:stedsnr" v="869728" />
	</node>
	<node lat="70.27603888847482" lon="24.182483205758917" id="-2680">
		<tag k="name" v="Sáiva" />
		<tag k="name:se" v="Sáiva" />
		<tag k="natural" v="water" />
		<tag k="old_name:se" v="Saiva" />
		<tag k="ssr:stedsnr" v="869747" />
		<tag k="water" v="lake" />
	</node>
	<node lat="70.39311111432069" lon="23.64219713539185" id="-2682">
		<tag k="name" v="Dammen - Borseluoppal" />
		<tag k="name:no" v="Dammen" />
		<tag k="name:se" v="Borseluoppal" />
		<tag k="natural" v="water" />
		<tag k="old_name:se" v="Bårseluobbal" />
		<tag k="ssr:stedsnr" v="869792" />
	</node>
	<node lat="70.36073889398638" lon="23.88043045100581" id="-2683">
		<tag k="name" v="Čoalbmejávri" />
		<tag k="name:se" v="Čoalbmejávri" />
		<tag k="natural" v="water" />
		<tag k="old_name:se" v="Čoalbmejavri" />
		<tag k="ssr:stedsnr" v="869796" />
	</node>
	<node lat="70.37724722708595" lon="23.723758239368465" id="-2684">
		<tag k="alt_name:no" v="Gruvevatn" />
		<tag k="name" v="Gruvvatnet - Bajit Borsejávri" />
		<tag k="name:no" v="Gruvvatnet" />
		<tag k="name:se" v="Bajit Borsejávri" />
		<tag k="natural" v="water" />
		<tag k="old_name:se" v="Bårsejavri, bajit" />
		<tag k="ssr:stedsnr" v="869797" />
		<tag k="water" v="lake" />
	</node>
	<node lat="70.18975555693574" lon="23.85394987915812" id="-2686">
		<tag k="name" v="Sennalandvatna - Leavššejávrrit" />
		<tag k="name:no" v="Sennalandvatna" />
		<tag k="name:se" v="Leavššejávrrit" />
		<tag k="natural" v="water" />
		<tag k="old_name:se" v="Lævšejavrit" />
		<tag k="ssr:stedsnr" v="869842" />
		<tag k="water" v="lake" />
	</node>
	<node lat="70.21556111540825" lon="23.862794336886935" id="-2689">
		<tag k="name" v="Vuostájohka" />
		<tag k="name:se" v="Vuostájohka" />
		<tag k="old_name:se" v="Vuostajåkka" />
		<tag k="ssr:stedsnr" v="869881" />
		<tag k="waterway" v="stream" />
	</node>
	<node lat="70.2125444504637" lon="23.92998599704108" id="-2690">
		<tag k="name" v="Voggeneselva - Gietkanašjohka" />
		<tag k="name:no" v="Voggeneselva" />
		<tag k="name:se" v="Gietkanašjohka" />
		<tag k="old_name:se" v="Gielkanašjåkka;Gietkanašjåkka" />
		<tag k="ssr:stedsnr" v="869882" />
		<tag k="waterway" v="river" />
	</node>
	<node lat="70.6101972276233" lon="23.01101938360011" id="-2692">
		<tag k="name" v="Melkarvannet" />
		<tag k="natural" v="water" />
		<tag k="ssr:stedsnr" v="870425" />
		<tag k="water" v="lake" />
	</node>
	<node lat="70.51542222446712" lon="24.473374874324445" id="-2696">
		<tag k="name" v="Ráššajávri" />
		<tag k="name:se" v="Ráššajávri" />
		<tag k="natural" v="water" />
		<tag k="old_name:se" v="Raššajavri" />
		<tag k="ssr:stedsnr" v="869863" />
	</node>
	<node lat="70.25159167083515" lon="24.2819776497537" id="-2700">
		<tag k="name" v="Goahtemuorskáidi" />
		<tag k="name:se" v="Goahtemuorskáidi" />
		<tag k="natural" v="cape" />
		<tag k="old_name:se" v="Goattemuorskaidi" />
		<tag k="ssr:stedsnr" v="869991" />
	</node>
	<node lat="70.66217500476753" lon="23.790794356001772" id="-2701">
		<tag k="name" v="Riebansilbajávri" />
		<tag k="name:no" v="Glimmevannet" />
		<tag k="name:se" v="Riebansilbajávri" />
		<tag k="natural" v="water" />
		<tag k="old_name:se" v="Riebansilbajavri" />
		<tag k="ssr:stedsnr" v="870011" />
		<tag k="water" v="lake" />
	</node>
	<node lat="70.67093611009938" lon="23.755805457986575" id="-2702">
		<tag k="name" v="Langvannet - Guhkesjávri" />
		<tag k="name:no" v="Langvannet" />
		<tag k="name:se" v="Guhkesjávri" />
		<tag k="natural" v="water" />
		<tag k="old_name:se" v="Gukkesjavri" />
		<tag k="ssr:stedsnr" v="870015" />
	</node>
	<node lat="70.65217500411289" lon="23.001347151805152" id="-2707">
		<tag k="name" v="Johanvannet" />
		<tag k="natural" v="water" />
		<tag k="ssr:stedsnr" v="870454" />
	</node>
	<node lat="70.55318889275148" lon="24.1290415521381" id="-2712">
		<tag k="name" v="Smalvatnet - Skurčojávri" />
		<tag k="name:no" v="Smalvatnet" />
		<tag k="name:se" v="Skurčojávri" />
		<tag k="natural" v="water" />
		<tag k="old_name:se" v="Skurčujavri" />
		<tag k="ssr:stedsnr" v="870795" />
		<tag k="water" v="lake" />
	</node>
	<node lat="70.63616389555565" lon="24.708724853886867" id="-2718">
		<tag k="name" v="Birjaelva - Ristenjohka" />
		<tag k="name:no" v="Birjaelva" />
		<tag k="name:se" v="Ristenjohka" />
		<tag k="ssr:stedsnr" v="870855" />
		<tag k="waterway" v="stream" />
	</node>
	<node lat="70.49198889216649" lon="23.87787210616303" id="-2719">
		<tag k="name" v="Nakkelva" />
		<tag k="name:no" v="Nakkelva" />
		<tag k="name:se" v="Náhkkejohka" />
		<tag k="ssr:stedsnr" v="870939" />
		<tag k="waterway" v="stream" />
	</node>
	<node lat="70.47719166606775" lon="23.900744330043974" id="-2720">
		<tag k="name" v="Langvatnet - Rávdojávri" />
		<tag k="name:no" v="Langvatnet" />
		<tag k="name:se" v="Rávdojávri" />
		<tag k="natural" v="water" />
		<tag k="old_name:se" v="Ravdujavri" />
		<tag k="ssr:stedsnr" v="870952" />
		<tag k="water" v="lake" />
	</node>
	<node lat="70.50058611647887" lon="24.65197485089366" id="-2721">
		<tag k="name" v="Bierffetluoppal" />
		<tag k="name:se" v="Bierffetluoppal" />
		<tag k="natural" v="water" />
		<tag k="old_name:se" v="Bierfetluobbal" />
		<tag k="ssr:stedsnr" v="870956" />
		<tag k="water" v="lake" />
	</node>
	<node lat="70.5971388939788" lon="24.649605396937353" id="-2723">
		<tag k="name" v="Gáldojogaš" />
		<tag k="name:se" v="Gáldojogaš" />
		<tag k="old_name:se" v="Galdujågaš" />
		<tag k="ssr:stedsnr" v="870898" />
		<tag k="waterway" v="stream" />
	</node>
	<node lat="70.46535556161788" lon="24.347963766392613" id="-2741">
		<tag k="name" v="Neselvvatnet" />
		<tag k="natural" v="water" />
		<tag k="ssr:stedsnr" v="878943" />
	</node>
	<node lat="70.60829444264144" lon="23.624766588779003" id="-2757">
		<tag k="name" v="Jossavannet" />
		<tag k="natural" v="water" />
		<tag k="ssr:stedsnr" v="938798" />
	</node>
	<node lat="70.6110194470316" lon="23.632299920245124" id="-2763">
		<tag k="name" v="Storvikvannet" />
		<tag k="natural" v="water" />
		<tag k="ssr:stedsnr" v="941061" />
	</node>
	<node lat="70.60656110992637" lon="23.624074912874477" id="-2764">
		<tag k="name" v="Sennavannet" />
		<tag k="natural" v="water" />
		<tag k="ssr:stedsnr" v="941070" />
	</node>
	<node lat="70.69874722725463" lon="23.626663797973055" id="-2765">
		<tag k="name" v="Skjærvikelva" />
		<tag k="ssr:stedsnr" v="941091" />
		<tag k="waterway" v="stream" />
	</node>
	<node lat="70.73613888782437" lon="23.803569360652386" id="-2772">
		<tag k="name" v="Láttu" />
		<tag k="name:se" v="Láttu" />
		<tag k="natural" v="water" />
		<tag k="ssr:stedsnr" v="941204" />
	</node>
	<node lat="70.64942222262522" lon="23.652044360029173" id="-2774">
		<tag k="name" v="Kjønna" />
		<tag k="natural" v="water" />
		<tag k="ssr:stedsnr" v="941149" />
	</node>
	<node lat="70.61493055899491" lon="23.716511009590345" id="-2778">
		<tag k="name" v="Nedre Olavannet" />
		<tag k="natural" v="water" />
		<tag k="ssr:stedsnr" v="941225" />
	</node>
	<node lat="70.63734167008631" lon="24.699177636948818" id="-2783">
		<tag k="name" v="Birdaelva" />
		<tag k="ssr:stedsnr" v="943145" />
		<tag k="waterway" v="stream" />
	</node>
	<node lat="70.58528888902619" lon="24.694641522914193" id="-2784">
		<tag k="name" v="Rátkkajávrrit" />
		<tag k="name:se" v="Rátkkajávrrit" />
		<tag k="natural" v="water" />
		<tag k="ssr:stedsnr" v="943155" />
	</node>
	<node lat="70.39244722472023" lon="23.696516577470977" id="-2785">
		<tag k="name" v="Dolomittholmen" />
		<tag k="place" v="islet" />
		<tag k="ssr:stedsnr" v="943212" />
	</node>
</osm>
