<?xml version="1.0" encoding="UTF-8"?>
<osm generator="osmapis" version="0.6">
	<node id="-544768" lat="61.9522777803" lon="6.48677778201">
		<tag k="historic" v="shieling" />
		<tag k="name" v="Kongsviksætra" />
		<tag k="place" v="locality" />
		<tag k="ssr:stedsnr" v="192900" />
	</node>
	<node id="-544762" lat="61.9987827283" lon="6.61755668689">
		<tag k="fixme" v="consider place=hamlet" />
		<tag k="name" v="Solheim" />
		<tag k="place" v="farm" />
		<tag k="ssr:stedsnr" v="192241" />
	</node>
	<node id="-544760" lat="61.9400611098" lon="6.50095555325">
		<tag k="name" v="Kjøs" />
		<tag k="place" v="neighbourhood" />
		<tag k="ssr:stedsnr" v="161843" />
	</node>
	<node id="-544593" lat="61.9684213307" lon="6.53028148807">
		<tag k="fixme" v="consider place=hamlet" />
		<tag k="name" v="Grodås" />
		<tag k="place" v="farm" />
		<tag k="ssr:stedsnr" v="374907" />
	</node>
	<node id="-544736" lat="61.9724027814" lon="6.56393888063">
		<tag k="historic" v="shieling" />
		<tag k="name" v="Gamlesetra" />
		<tag k="place" v="locality" />
		<tag k="ssr:stedsnr" v="153653" />
	</node>
	<node id="-544735" lat="62.0037055537" lon="6.48884167321">
		<tag k="alt_name" v="Lillestølsetra" />
		<tag k="historic" v="shieling" />
		<tag k="loc_name" v="Litlestølssetra" />
		<tag k="name" v="Litlestølssætra" />
		<tag k="place" v="locality" />
		<tag k="ssr:stedsnr" v="132245" />
	</node>
	<node id="-544733" lat="61.959436115" lon="6.547775007">
		<tag k="name" v="Solli" />
		<tag k="place" v="farm" />
		<tag k="ssr:stedsnr" v="131928" />
	</node>
	<node id="-544731" lat="61.9966203402" lon="6.52683979977">
		<tag k="fixme" v="consider place=hamlet" />
		<tag k="name" v="Haugen" />
		<tag k="place" v="farm" />
		<tag k="ssr:stedsnr" v="131864" />
	</node>
	<node id="-544729" lat="61.9993263761" lon="6.62882480075">
		<tag k="fixme" v="consider place=hamlet" />
		<tag k="name" v="Brendefur" />
		<tag k="place" v="farm" />
		<tag k="ssr:stedsnr" v="131216" />
	</node>
	<node id="-544728" lat="61.9984666637" lon="6.60271666213">
		<tag k="fixme" v="consider place=hamlet" />
		<tag k="name" v="Indre Hornindal" />
		<tag k="place" v="village" />
		<tag k="ssr:stedsnr" v="131214" />
	</node>
	<node id="-544714" lat="61.9982666689" lon="6.59098055795">
		<tag k="fixme" v="consider place=hamlet" />
		<tag k="name" v="Dobakk" />
		<tag k="place" v="farm" />
		<tag k="ssr:stedsnr" v="92374" />
	</node>
	<node id="-544700" lat="62.0284611149" lon="6.6723972294">
		<tag k="historic" v="shieling" />
		<tag k="name" v="Hornindalssætra" />
		<tag k="place" v="locality" />
		<tag k="ssr:stedsnr" v="72667" />
	</node>
	<node id="-544699" lat="61.938233332" lon="6.51521110462">
		<tag k="name" v="Hagvik" />
		<tag k="place" v="farm" />
		<tag k="ssr:stedsnr" v="71950" />
	</node>
	<node id="-544698" lat="61.9701333355" lon="6.54121388519">
		<tag k="historic" v="shieling" />
		<tag k="name" v="Kyrkjhornssætra" />
		<tag k="place" v="locality" />
		<tag k="ssr:stedsnr" v="71919" />
	</node>
	<node id="-544696" lat="61.9971388865" lon="6.58121666149">
		<tag k="name" v="Lyngstad" />
		<tag k="place" v="farm" />
		<tag k="ssr:stedsnr" v="71837" />
	</node>
	<node id="-544694" lat="62.0118138878" lon="6.72281111446">
		<tag k="historic" v="shieling" />
		<tag k="name" v="Terdalssætra" />
		<tag k="place" v="locality" />
		<tag k="ssr:stedsnr" v="71499" />
	</node>
	<node id="-544693" lat="61.9579111069" lon="6.52616388189">
		<tag k="historic" v="shieling" />
		<tag k="name" v="Vikasætra" />
		<tag k="place" v="locality" />
		<tag k="ssr:stedsnr" v="70878" />
	</node>
	<node id="-544692" lat="61.9570670254" lon="6.55566479876">
		<tag k="fixme" v="consider place=hamlet" />
		<tag k="name" v="Lida" />
		<tag k="place" v="farm" />
		<tag k="ssr:stedsnr" v="70876" />
	</node>
	<node id="-544691" lat="61.9530444454" lon="6.48694166496">
		<tag k="historic" v="shieling" />
		<tag k="name" v="Svorasætra" />
		<tag k="place" v="locality" />
		<tag k="ssr:stedsnr" v="70859" />
	</node>
	<node id="-544688" lat="61.9498222263" lon="6.47530832861">
		<tag k="name" v="Kongsvik" />
		<tag k="place" v="farm" />
		<tag k="ssr:stedsnr" v="53457" />
	</node>
	<node id="-544660" lat="62.0004402226" lon="6.57561535232">
		<tag k="fixme" v="consider place=hamlet" />
		<tag k="name" v="Engebø" />
		<tag k="place" v="farm" />
		<tag k="ssr:stedsnr" v="11710" />
	</node>
	<node id="-544658" lat="62.01383647" lon="6.69220297256">
		<tag k="fixme" v="consider place=hamlet" />
		<tag k="name" v="Muldsvor" />
		<tag k="place" v="farm" />
		<tag k="ssr:stedsnr" v="11254" />
	</node>
	<node id="-544657" lat="61.9666861101" lon="6.52501388413">
		<tag k="fixme" v="consider place=suburb, village or hamlet" />
		<tag k="name" v="Grodås" />
		<tag k="place" v="quarter" />
		<tag k="ssr:stedsnr" v="10911" />
	</node>
	<node id="-544655" lat="61.9803361111" lon="6.5245944488">
		<tag k="name" v="Løvland" />
		<tag k="place" v="farm" />
		<tag k="ssr:stedsnr" v="10859" />
	</node>
	<node id="-544653" lat="61.9787777794" lon="6.71957222584">
		<tag k="alt_name" v="Strynesetra" />
		<tag k="historic" v="shieling" />
		<tag k="name" v="Strynesætra" />
		<tag k="place" v="locality" />
		<tag k="ssr:stedsnr" v="10243" />
	</node>
	<node id="-545143" lat="61.9980782491" lon="6.61256170286">
		<tag k="fixme" v="consider place=hamlet" />
		<tag k="name" v="Bakke" />
		<tag k="place" v="farm" />
		<tag k="ssr:stedsnr" v="978087" />
	</node>
	<node id="-545140" lat="61.9645638917" lon="6.52997499448">
		<tag k="name" v="Nyland" />
		<tag k="place" v="quarter" />
		<tag k="ssr:stedsnr" v="950848" />
	</node>
	<node id="-544626" lat="61.9986138862" lon="6.65647778461">
		<tag k="historic" v="shieling" />
		<tag k="name" v="Gards-stølane" />
		<tag k="place" v="locality" />
		<tag k="ssr:stedsnr" v="396612" />
	</node>
	<node id="-545122" lat="61.9983138868" lon="6.60406666493">
		<tag k="name" v="Ljosvang" />
		<tag k="place" v="farm" />
		<tag k="ssr:stedsnr" v="942224" />
	</node>
	<node id="-545121" lat="62.0051611079" lon="6.58795832874">
		<tag k="historic" v="shieling" />
		<tag k="name" v="Dovesetra" />
		<tag k="place" v="locality" />
		<tag k="ssr:stedsnr" v="942225" />
	</node>
	<node id="-545116" lat="62.0026077984" lon="6.64871309351">
		<tag k="fixme" v="consider place=hamlet" />
		<tag k="name" v="Raftevollen" />
		<tag k="place" v="farm" />
		<tag k="ssr:stedsnr" v="921266" />
	</node>
	<node id="-545114" lat="62.0173138856" lon="6.57988334043">
		<tag k="historic" v="shieling" />
		<tag k="name" v="Hjortedalssætra" />
		<tag k="place" v="locality" />
		<tag k="ssr:stedsnr" v="921257" />
	</node>
	<node id="-545112" lat="61.9335008473" lon="6.52184173556">
		<tag k="name" v="Øyebakken" />
		<tag k="place" v="isolated_dwelling" />
		<tag k="ssr:stedsnr" v="920919" />
	</node>
	<node id="-545111" lat="61.9617583312" lon="6.51278332975">
		<tag k="name" v="Midtre Svor" />
		<tag k="place" v="farm" />
		<tag k="ssr:stedsnr" v="920902" />
	</node>
	<node id="-545107" lat="61.9937750017" lon="6.44695555716">
		<tag k="historic" v="shieling" />
		<tag k="name" v="Otredalssætra" />
		<tag k="place" v="locality" />
		<tag k="ssr:stedsnr" v="920829" />
	</node>
	<node id="-545105" lat="61.9925356559" lon="6.61238931374">
		<tag k="fixme" v="consider place=hamlet" />
		<tag k="loc_name" v="Taranset" />
		<tag k="name" v="Taraldset" />
		<tag k="place" v="farm" />
		<tag k="ssr:stedsnr" v="920213" />
	</node>
	<node id="-544588" lat="61.9565722266" lon="6.55936667388">
		<tag k="name" v="Liskog" />
		<tag k="place" v="farm" />
		<tag k="ssr:stedsnr" v="373881" />
	</node>
	<node id="-545094" lat="61.9750861917" lon="6.51190543276">
		<tag k="fixme" v="consider place=hamlet" />
		<tag k="name" v="Ytrehorne" />
		<tag k="place" v="farm" />
		<tag k="ssr:stedsnr" v="875163" />
	</node>
	<node id="-545093" lat="62.0209610987" lon="6.71812610426">
		<tag k="fixme" v="consider place=hamlet" />
		<tag k="name" v="Lyngvoll" />
		<tag k="place" v="farm" />
		<tag k="ssr:stedsnr" v="861226" />
	</node>
	<node id="-545081" lat="61.9935444455" lon="6.53689167435">
		<tag k="name" v="Tytebærhaugen" />
		<tag k="place" v="quarter" />
		<tag k="ssr:stedsnr" v="829868" />
	</node>
	<node id="-545080" lat="62.0089194467" lon="6.57080554584">
		<tag k="historic" v="shieling" />
		<tag k="name" v="Gamlesetra" />
		<tag k="place" v="locality" />
		<tag k="ssr:stedsnr" v="821645" />
	</node>
	<node id="-544564" lat="61.9588111132" lon="6.54258887942">
		<tag k="name" v="Hogden" />
		<tag k="place" v="farm" />
		<tag k="ssr:stedsnr" v="335238" />
	</node>
	<node id="-544558" lat="61.9938472206" lon="6.69795556062">
		<tag k="historic" v="shieling" />
		<tag k="name" v="Sandgrova" />
		<tag k="place" v="locality" />
		<tag k="ssr:stedsnr" v="314246" />
	</node>
	<node id="-544557" lat="61.9812507054" lon="6.44810944194">
		<tag k="fixme" v="consider place=hamlet" />
		<tag k="name" v="Otterdal" />
		<tag k="place" v="village" />
		<tag k="ssr:stedsnr" v="313891" />
	</node>
	<node id="-544556" lat="61.9792436284" lon="6.52189042498">
		<tag k="name" v="Kyrkjhorne" />
		<tag k="place" v="farm" />
		<tag k="ssr:stedsnr" v="313875" />
	</node>
	<node id="-544553" lat="61.94093611" lon="6.49782223165">
		<tag k="name" v="Kjøs" />
		<tag k="place" v="farm" />
		<tag k="ssr:stedsnr" v="313944" />
	</node>
	<node id="-544552" lat="61.9319423142" lon="6.50780372904">
		<tag k="fixme" v="consider place=hamlet" />
		<tag k="name" v="Jutdalen" />
		<tag k="place" v="farm" />
		<tag k="ssr:stedsnr" v="313925" />
	</node>
	<node id="-545047" lat="61.9900472225" lon="6.52554722861">
		<tag k="name" v="Hingarden" />
		<tag k="place" v="farm" />
		<tag k="ssr:stedsnr" v="821229" />
	</node>
	<node id="-545044" lat="61.9377249988" lon="6.49211110645">
		<tag k="name" v="Innerhola" />
		<tag k="place" v="farm" />
		<tag k="ssr:stedsnr" v="799922" />
	</node>
	<node id="-545043" lat="61.99128253" lon="6.5318773409">
		<tag k="fixme" v="consider place=hamlet" />
		<tag k="name" v="Gausemel" />
		<tag k="place" v="farm" />
		<tag k="ssr:stedsnr" v="799899" />
	</node>
	<node id="-545042" lat="61.9843538323" lon="6.52131972311">
		<tag k="fixme" v="consider place=hamlet" />
		<tag k="name" v="Lødøen" />
		<tag k="place" v="farm" />
		<tag k="ssr:stedsnr" v="799896" />
	</node>
	<node id="-545041" lat="61.9916751752" lon="6.52068366676">
		<tag k="fixme" v="consider place=hamlet" />
		<tag k="name" v="Lødemel" />
		<tag k="place" v="farm" />
		<tag k="ssr:stedsnr" v="799894" />
	</node>
	<node id="-545039" lat="61.9833000019" lon="6.63275832583">
		<tag k="historic" v="shieling" />
		<tag k="name" v="Nyesætra" />
		<tag k="place" v="locality" />
		<tag k="ssr:stedsnr" v="799257" />
	</node>
	<node id="-545037" lat="61.9975861133" lon="6.68941666937">
		<tag k="alt_name" v="Knutsdalsetra" />
		<tag k="name" v="Knutsdalssætra" />
		<tag k="place" v="locality" />
		<tag k="ssr:stedsnr" v="799236" />
	</node>
	<node id="-545035" lat="61.9594444463" lon="6.51694166594">
		<tag k="name" v="Svor" />
		<tag k="place" v="locality" />
		<tag k="ssr:stedsnr" v="781744" />
	</node>
	<node id="-545034" lat="61.994474996" lon="6.6940638876">
		<tag k="historic" v="shieling" />
		<tag k="name" v="Fellessetra" />
		<tag k="place" v="locality" />
		<tag k="ssr:stedsnr" v="760644" />
	</node>
	<node id="-545018" lat="62.0016361101" lon="6.57293889444">
		<tag k="name" v="Engelund" />
		<tag k="place" v="farm" />
		<tag k="ssr:stedsnr" v="760251" />
	</node>
	<node id="-545017" lat="61.9961166678" lon="6.4949472301">
		<tag k="historic" v="shieling" />
		<tag k="name" v="Gamlesetra" />
		<tag k="place" v="locality" />
		<tag k="ssr:stedsnr" v="760245" />
	</node>
	<node id="-545016" lat="61.9692111096" lon="6.52418056512">
		<tag k="name" v="Hornindal" />
		<tag k="place" v="village" />
		<tag k="ssr:stedsnr" v="759662" />
	</node>
	<node id="-545015" lat="61.9820162566" lon="6.44775169273">
		<tag k="fixme" v="consider place=hamlet" />
		<tag k="name" v="Otterdal" />
		<tag k="place" v="farm" />
		<tag k="ssr:stedsnr" v="756851" />
	</node>
	<node id="-545011" lat="62.016263891" lon="6.56504167393">
		<tag k="historic" v="shieling" />
		<tag k="name" v="Bruasætra" />
		<tag k="place" v="locality" />
		<tag k="ssr:stedsnr" v="739242" />
	</node>
	<node id="-545010" lat="61.9434278141" lon="6.48547680316">
		<tag k="fixme" v="consider place=hamlet" />
		<tag k="name" v="Kjøs" />
		<tag k="place" v="farm" />
		<tag k="ssr:stedsnr" v="738942" />
	</node>
	<node id="-545009" lat="61.9885145517" lon="6.57844876173">
		<tag k="fixme" v="consider place=hamlet" />
		<tag k="name" v="Sætra" />
		<tag k="place" v="farm" />
		<tag k="ssr:stedsnr" v="738896" />
	</node>
	<node id="-545006" lat="61.9649888914" lon="6.5245611025">
		<tag k="name" v="Urdene" />
		<tag k="place" v="quarter" />
		<tag k="ssr:stedsnr" v="709233" />
	</node>
	<node id="-545005" lat="61.9936722264" lon="6.55357222213">
		<tag k="name" v="Fannemel" />
		<tag k="place" v="quarter" />
		<tag k="ssr:stedsnr" v="707858" />
	</node>
	<node id="-544976" lat="61.9991367139" lon="6.6519395335">
		<tag k="fixme" v="consider place=hamlet" />
		<tag k="name" v="Nygard" />
		<tag k="place" v="farm" />
		<tag k="ssr:stedsnr" v="678253" />
	</node>
	<node id="-544975" lat="61.9729496512" lon="6.524629332">
		<tag k="fixme" v="consider place=hamlet" />
		<tag k="name" v="Kyrkjhorne" />
		<tag k="place" v="farm" />
		<tag k="ssr:stedsnr" v="678252" />
	</node>
	<node id="-544974" lat="61.9385805582" lon="6.50656667235">
		<tag k="name" v="Kjøs" />
		<tag k="place" v="farm" />
		<tag k="ssr:stedsnr" v="677942" />
	</node>
	<node id="-544973" lat="61.9366749979" lon="6.52143888491">
		<tag k="name" v="Røvik" />
		<tag k="place" v="farm" />
		<tag k="ssr:stedsnr" v="677921" />
	</node>
	<node id="-544972" lat="61.9612132098" lon="6.54547701012">
		<tag k="fixme" v="consider place=hamlet" />
		<tag k="name" v="Grothaugen" />
		<tag k="place" v="farm" />
		<tag k="ssr:stedsnr" v="677901" />
	</node>
	<node id="-544971" lat="61.9599111112" lon="6.5663500045">
		<tag k="historic" v="shieling" />
		<tag k="name" v="Grothaugsætra" />
		<tag k="place" v="locality" />
		<tag k="ssr:stedsnr" v="677900" />
	</node>
	<node id="-544970" lat="61.953711113" lon="6.55446388056">
		<tag k="historic" v="shieling" />
		<tag k="name" v="Grodåssætra" />
		<tag k="place" v="locality" />
		<tag k="ssr:stedsnr" v="677889" />
	</node>
	<node id="-544967" lat="61.9645638917" lon="6.52997499448">
		<tag k="name" v="Kirkhornsbakkane" />
		<tag k="place" v="quarter" />
		<tag k="ssr:stedsnr" v="646846" />
	</node>
	<node id="-544964" lat="61.9986388865" lon="6.68826943692">
		<tag k="historic" v="shieling" />
		<tag k="name" v="Litleknutsdalssetra" />
		<tag k="place" v="locality" />
		<tag k="ssr:stedsnr" v="638624" />
	</node>
	<node id="-544955" lat="61.9970749207" lon="6.59777694505">
		<tag k="fixme" v="consider place=hamlet" />
		<tag k="name" v="Rygg" />
		<tag k="place" v="farm" />
		<tag k="ssr:stedsnr" v="638351" />
	</node>
	<node id="-544930" lat="61.9855833307" lon="6.50375833983">
		<tag k="name" v="Litlestøylen" />
		<tag k="place" v="farm" />
		<tag k="ssr:stedsnr" v="617262" />
	</node>
	<node id="-544927" lat="61.9506848745" lon="6.46678957226">
		<tag k="fixme" v="consider place=hamlet" />
		<tag k="name" v="Kongsvik" />
		<tag k="place" v="farm" />
		<tag k="ssr:stedsnr" v="616897" />
	</node>
	<node id="-544924" lat="61.9855753735" lon="6.50203501351">
		<tag k="fixme" v="consider place=hamlet" />
		<tag k="name" v="Litlestøylen" />
		<tag k="old_name" v="Lillestøl;Litlestølen" />
		<tag k="place" v="farm" />
		<tag k="ssr:stedsnr" v="616878" />
	</node>
	<node id="-544923" lat="61.9959345527" lon="6.57175237341">
		<tag k="fixme" v="consider place=hamlet" />
		<tag k="name" v="Kroken" />
		<tag k="place" v="farm" />
		<tag k="ssr:stedsnr" v="616846" />
	</node>
	<node id="-544922" lat="61.9992936743" lon="6.58297338575">
		<tag k="fixme" v="consider place=hamlet" />
		<tag k="name" v="Espen" />
		<tag k="place" v="farm" />
		<tag k="ssr:stedsnr" v="616840" />
	</node>
	<node id="-544906" lat="61.9847194465" lon="6.51725000775">
		<tag k="name" v="Løvoll" />
		<tag k="place" v="farm" />
		<tag k="ssr:stedsnr" v="578218" />
	</node>
	<node id="-544889" lat="62.0000555556" lon="6.63080278121">
		<tag k="name" v="Birkeland" />
		<tag k="place" v="farm" />
		<tag k="ssr:stedsnr" v="556315" />
	</node>
	<node id="-544888" lat="61.9838055511" lon="6.63956110341">
		<tag k="alt_name" v="Tomasgardsetra" />
		<tag k="historic" v="shieling" />
		<tag k="name" v="Tomasgardsætra" />
		<tag k="place" v="locality" />
		<tag k="ssr:stedsnr" v="556299" />
	</node>
	<node id="-544532" lat="61.9495361155" lon="6.54810556162">
		<tag k="historic" v="shieling" />
		<tag k="name" v="Per i svorsetra" />
		<tag k="place" v="locality" />
		<tag k="ssr:stedsnr" v="275224" />
	</node>
	<node id="-544885" lat="61.9383953084" lon="6.48906204184">
		<tag k="fixme" v="consider place=hamlet" />
		<tag k="name" v="Hola" />
		<tag k="place" v="farm" />
		<tag k="ssr:stedsnr" v="555908" />
	</node>
	<node id="-544880" lat="62.0087555553" lon="6.55994721702">
		<tag k="aerialway" v="drag_lift" />
		<tag k="fixme" v="consider the other aerialway types" />
		<tag k="name" v="Hornindal Skisenter" />
		<tag k="ssr:stedsnr" v="544598" />
	</node>
	<node id="-544856" lat="62.0201027745" lon="6.5618083311">
		<tag k="historic" v="shieling" />
		<tag k="name" v="Storesætra" />
		<tag k="place" v="locality" />
		<tag k="ssr:stedsnr" v="496697" />
	</node>
	<node id="-544852" lat="61.9945845938" lon="6.55875458132">
		<tag k="fixme" v="consider place=hamlet" />
		<tag k="name" v="Fannemel" />
		<tag k="place" v="farm" />
		<tag k="ssr:stedsnr" v="495892" />
	</node>
	<node id="-544850" lat="61.978207346" lon="6.51247797701">
		<tag k="fixme" v="consider place=hamlet" />
		<tag k="name" v="Vellene" />
		<tag k="place" v="farm" />
		<tag k="ssr:stedsnr" v="495865" />
	</node>
	<node id="-544849" lat="61.9761527748" lon="6.48943055218">
		<tag k="historic" v="shieling" />
		<tag k="name" v="Ytrehornssætra" />
		<tag k="place" v="locality" />
		<tag k="ssr:stedsnr" v="495863" />
	</node>
	<node id="-544846" lat="61.9782888857" lon="6.63315555992">
		<tag k="historic" v="shieling" />
		<tag k="name" v="Holskarsætra" />
		<tag k="place" v="locality" />
		<tag k="ssr:stedsnr" v="495256" />
	</node>
	<node id="-544842" lat="62.002619443" lon="6.55027499122">
		<tag k="name" v="Harevadet" />
		<tag k="place" v="neighbourhood" />
		<tag k="ssr:stedsnr" v="483887" />
	</node>
	<node id="-544815" lat="61.9980805594" lon="6.57223610562">
		<tag k="name" v="Krokabakk" />
		<tag k="place" v="farm" />
		<tag k="ssr:stedsnr" v="457219" />
	</node>
	<node id="-544814" lat="61.9995666649" lon="6.49176388862">
		<tag k="historic" v="shieling" />
		<tag k="name" v="Midtsetra" />
		<tag k="place" v="locality" />
		<tag k="ssr:stedsnr" v="457214" />
	</node>
	<node id="-544813" lat="62.0261749832" lon="6.71131062955">
		<tag k="fixme" v="consider place=hamlet" />
		<tag k="name" v="Støverstein" />
		<tag k="place" v="farm" />
		<tag k="ssr:stedsnr" v="436679" />
	</node>
	<node id="-544810" lat="61.9879990356" lon="6.53529364674">
		<tag k="fixme" v="consider place=hamlet" />
		<tag k="name" v="Tomasgarden" />
		<tag k="place" v="farm" />
		<tag k="ssr:stedsnr" v="435890" />
	</node>
	<node id="-544808" lat="61.9972553854" lon="6.54654813636">
		<tag k="fixme" v="consider place=hamlet" />
		<tag k="name" v="Hjellbakkane" />
		<tag k="place" v="farm" />
		<tag k="ssr:stedsnr" v="435845" />
	</node>
	<node id="-544806" lat="61.9627750024" lon="6.5308833341">
		<tag k="name" v="Lund" />
		<tag k="place" v="farm" />
		<tag k="ssr:stedsnr" v="434876" />
	</node>
	<node id="-544805" lat="61.9600698895" lon="6.50816139478">
		<tag k="alt_name" v="Svor, yt" />
		<tag k="fixme" v="consider place=hamlet" />
		<tag k="name" v="Ytre Svor" />
		<tag k="place" v="farm" />
		<tag k="ssr:stedsnr" v="434874" />
	</node>
	<node id="-544799" lat="61.9758222236" lon="6.54442777226">
		<tag k="historic" v="shieling" />
		<tag k="name" v="Lønnssætra" />
		<tag k="place" v="locality" />
		<tag k="ssr:stedsnr" v="253869" />
	</node>
	<node id="-544795" lat="61.9954737482" lon="6.64440458712">
		<tag k="fixme" v="consider place=hamlet" />
		<tag k="name" v="Seljeset" />
		<tag k="place" v="farm" />
		<tag k="ssr:stedsnr" v="253260" />
	</node>
	<node id="-544770" lat="62.0012751316" lon="6.63859581057">
		<tag k="fixme" v="consider place=hamlet" />
		<tag k="name" v="Indre Haugen" />
		<tag k="place" v="farm" />
		<tag k="ssr:stedsnr" v="193247" />
	</node>
	<node id="-544769" lat="61.9630127384" lon="6.51904943819">
		<tag k="alt_name" v="Svor, in" />
		<tag k="fixme" v="consider place=hamlet" />
		<tag k="name" v="Indre Svor" />
		<tag k="place" v="farm" />
		<tag k="ssr:stedsnr" v="192909" />
	</node>
</osm>
