<?xml version="1.0" encoding="UTF-8"?>
<osm generator="osmapis" version="0.6">
	<node id="-544766" lat="61.9752111121" lon="6.59265278229">
		<tag k="fixme" v="consider natural=peak for the most distinct mountains in the district" />
		<tag k="name" v="Dragsteinholten" />
		<tag k="natural" v="hill" />
		<tag k="place" v="locality" />
		<tag k="ssr:stedsnr" v="192884" />
	</node>
	<node id="-544764" lat="61.97559167" lon="6.66226666324">
		<tag k="name" v="Daurmålhornet" />
		<tag k="natural" v="hill" />
		<tag k="place" v="locality" />
		<tag k="ssr:stedsnr" v="192265" />
	</node>
	<node id="-544763" lat="61.9689111147" lon="6.60377778539">
		<tag k="name" v="Storehornet" />
		<tag k="natural" v="hill" />
		<tag k="place" v="locality" />
		<tag k="ssr:stedsnr" v="192258" />
	</node>
	<node id="-544761" lat="61.9622805592" lon="6.6563611099">
		<tag k="fixme" v="consider natural=peak for the most distinct mountains in the district" />
		<tag k="name" v="Holskarhornet" />
		<tag k="natural" v="hill" />
		<tag k="place" v="locality" />
		<tag k="ssr:stedsnr" v="192223" />
	</node>
	<node id="-544759" lat="61.9418861131" lon="6.52701111883">
		<tag k="name" v="Blåsvadet" />
		<tag k="place" v="locality" />
		<tag k="ssr:stedsnr" v="153447" />
	</node>
	<node id="-544758" lat="61.9382138863" lon="6.52814999574">
		<tag k="name" v="Sloka" />
		<tag k="place" v="locality" />
		<tag k="ssr:stedsnr" v="153446" />
	</node>
	<node id="-544757" lat="61.9408750014" lon="6.52809167262">
		<tag k="name" v="Lægdene" />
		<tag k="place" v="locality" />
		<tag k="ssr:stedsnr" v="153444" />
	</node>
	<node id="-544756" lat="61.9857916712" lon="6.44937222759">
		<tag k="name" v="Geilane" />
		<tag k="place" v="locality" />
		<tag k="ssr:stedsnr" v="153433" />
	</node>
	<node id="-544755" lat="61.9746027749" lon="6.50155833012">
		<tag k="fixme" v="consider natural=peak for the most distinct mountains in the district" />
		<tag k="name" v="Tågafurnausen" />
		<tag k="natural" v="hill" />
		<tag k="place" v="locality" />
		<tag k="ssr:stedsnr" v="153425" />
	</node>
	<node id="-544754" lat="61.9783333358" lon="6.49055555628">
		<tag k="fixme" v="consider natural=peak for the most distinct mountains in the district" />
		<tag k="name" v="Flåna" />
		<tag k="natural" v="hill" />
		<tag k="place" v="locality" />
		<tag k="ssr:stedsnr" v="153422" />
	</node>
	<node id="-544753" lat="62.0043333309" lon="6.53239166529">
		<tag k="name" v="Storesteinbakkane" />
		<tag k="natural" v="slope" />
		<tag k="place" v="locality" />
		<tag k="ssr:stedsnr" v="153415" />
	</node>
	<node id="-544752" lat="61.9896833305" lon="6.61285554728">
		<tag k="name" v="Stridshaugen" />
		<tag k="natural" v="hill" />
		<tag k="place" v="locality" />
		<tag k="ssr:stedsnr" v="153393" />
	</node>
	<node id="-544751" lat="61.9865916679" lon="6.6163777794">
		<tag k="name" v="Nakkerindane" />
		<tag k="natural" v="ridge" />
		<tag k="place" v="locality" />
		<tag k="ssr:stedsnr" v="153392" />
	</node>
	<node id="-544750" lat="61.996286109" lon="6.59194166501">
		<tag k="name" v="Bakkane" />
		<tag k="natural" v="slope" />
		<tag k="place" v="locality" />
		<tag k="ssr:stedsnr" v="153388" />
	</node>
	<node id="-544749" lat="61.9891333316" lon="6.58649444981">
		<tag k="name" v="Sætremarka" />
		<tag k="place" v="locality" />
		<tag k="ssr:stedsnr" v="153387" />
	</node>
	<node id="-544748" lat="62.0202749983" lon="6.54228611401">
		<tag k="name" v="Rauhammaren" />
		<tag k="natural" v="hill" />
		<tag k="place" v="locality" />
		<tag k="ssr:stedsnr" v="153358" />
	</node>
	<node id="-544747" lat="61.9840500013" lon="6.61617222338">
		<tag k="name" v="Nakken" />
		<tag k="natural" v="hill" />
		<tag k="place" v="locality" />
		<tag k="ssr:stedsnr" v="153356" />
	</node>
	<node id="-544746" lat="62.0237722222" lon="6.58069166821">
		<tag k="name" v="Storereset" />
		<tag k="natural" v="hill" />
		<tag k="place" v="locality" />
		<tag k="ssr:stedsnr" v="153354" />
	</node>
	<node id="-544745" lat="62.0155472199" lon="6.57497222434">
		<tag k="name" v="Sla" />
		<tag k="place" v="locality" />
		<tag k="ssr:stedsnr" v="153348" />
	</node>
	<node id="-544744" lat="62.0074805549" lon="6.65974166589">
		<tag k="name" v="Fura" />
		<tag k="natural" v="slope" />
		<tag k="place" v="locality" />
		<tag k="ssr:stedsnr" v="153341" />
	</node>
	<node id="-544743" lat="61.9878944404" lon="6.7128361047">
		<tag k="name" v="Sjurskresvora" />
		<tag k="natural" v="slope" />
		<tag k="place" v="locality" />
		<tag k="ssr:stedsnr" v="153330" />
	</node>
	<node id="-544742" lat="61.9824027738" lon="6.70280000914">
		<tag k="fixme" v="consider natural=peak for the most distinct mountains in the district" />
		<tag k="name" v="Ullagrasholtane" />
		<tag k="natural" v="hill" />
		<tag k="place" v="locality" />
		<tag k="ssr:stedsnr" v="153329" />
	</node>
	<node id="-544741" lat="62.0156500021" lon="6.67923611357">
		<tag k="name" v="Heivadbakken" />
		<tag k="natural" v="slope" />
		<tag k="place" v="locality" />
		<tag k="ssr:stedsnr" v="153313" />
	</node>
	<node id="-544740" lat="62.0162138859" lon="6.69386389359">
		<tag k="name" v="Trollhaugen" />
		<tag k="natural" v="hill" />
		<tag k="place" v="locality" />
		<tag k="ssr:stedsnr" v="153311" />
	</node>
	<node id="-544739" lat="62.0154583292" lon="6.72026388599">
		<tag k="name" v="Steinråsa" />
		<tag k="natural" v="slope" />
		<tag k="place" v="locality" />
		<tag k="ssr:stedsnr" v="153303" />
	</node>
	<node id="-544738" lat="61.9596555582" lon="6.52354445373">
		<tag k="name" v="Hamrane" />
		<tag k="natural" v="hill" />
		<tag k="place" v="locality" />
		<tag k="ssr:stedsnr" v="153295" />
	</node>
	<node id="-544732" lat="61.9596249981" lon="6.58075555797">
		<tag k="name" v="Kvanngrøda" />
		<tag k="natural" v="slope" />
		<tag k="place" v="locality" />
		<tag k="ssr:stedsnr" v="131927" />
	</node>
	<node id="-544730" lat="61.9843916702" lon="6.74314999718">
		<tag k="fixme" v="consider natural=peak for the most distinct mountains in the district" />
		<tag k="name" v="Langerusthornet" />
		<tag k="natural" v="hill" />
		<tag k="place" v="locality" />
		<tag k="ssr:stedsnr" v="131227" />
	</node>
	<node id="-544726" lat="61.9580305574" lon="6.77433889648">
		<tag k="fixme" v="consider natural=peak for the most distinct mountains in the district" />
		<tag k="name" v="Steindalsegga" />
		<tag k="natural" v="hill" />
		<tag k="place" v="locality" />
		<tag k="ssr:stedsnr" v="131183" />
	</node>
	<node id="-544725" lat="62.0045416656" lon="6.68866944624">
		<tag k="name" v="Aksla" />
		<tag k="natural" v="hill" />
		<tag k="place" v="locality" />
		<tag k="ssr:stedsnr" v="93293" />
	</node>
	<node id="-544724" lat="62.017236111" lon="6.71609722391">
		<tag k="name" v="Furekransen" />
		<tag k="natural" v="hill" />
		<tag k="place" v="locality" />
		<tag k="ssr:stedsnr" v="93275" />
	</node>
	<node id="-544723" lat="61.9572305562" lon="6.48212500827">
		<tag k="name" v="Løypet" />
		<tag k="natural" v="slope" />
		<tag k="place" v="locality" />
		<tag k="ssr:stedsnr" v="93273" />
	</node>
	<node id="-544720" lat="61.9236861152" lon="6.49997223114">
		<tag k="name" v="Gamlesetbakkane" />
		<tag k="natural" v="slope" />
		<tag k="place" v="locality" />
		<tag k="ssr:stedsnr" v="92447" />
	</node>
	<node id="-544719" lat="61.9374972216" lon="6.49586110736">
		<tag k="name" v="Kleiva" />
		<tag k="natural" v="slope" />
		<tag k="place" v="locality" />
		<tag k="ssr:stedsnr" v="92430" />
	</node>
	<node id="-544718" lat="62.0029666669" lon="6.50735555879">
		<tag k="name" v="Blåsvadet" />
		<tag k="natural" v="hill" />
		<tag k="place" v="locality" />
		<tag k="ssr:stedsnr" v="92427" />
	</node>
	<node id="-544717" lat="61.9810888917" lon="6.49524721249">
		<tag k="name" v="Slettebakken" />
		<tag k="natural" v="slope" />
		<tag k="place" v="locality" />
		<tag k="ssr:stedsnr" v="92410" />
	</node>
	<node id="-544716" lat="62.0189666683" lon="6.5206499943">
		<tag k="name" v="Lisjenibba" />
		<tag k="natural" v="hill" />
		<tag k="place" v="locality" />
		<tag k="ssr:stedsnr" v="92386" />
	</node>
	<node id="-544715" lat="61.9702277822" lon="6.52779166536">
		<tag k="name" v="Rabbane" />
		<tag k="natural" v="hill" />
		<tag k="place" v="locality" />
		<tag k="ssr:stedsnr" v="92385" />
	</node>
	<node id="-544713" lat="62.0040083378" lon="6.60003333431">
		<tag k="name" v="Litlelada" />
		<tag k="natural" v="hill" />
		<tag k="place" v="locality" />
		<tag k="ssr:stedsnr" v="92372" />
	</node>
	<node id="-544712" lat="61.9825083302" lon="6.61600277017">
		<tag k="name" v="Langerabben" />
		<tag k="natural" v="plateau" />
		<tag k="ssr:stedsnr" v="92351" />
	</node>
	<node id="-544710" lat="62.0441" lon="6.67684445185">
		<tag k="name" v="Sletteskreda" />
		<tag k="natural" v="gorge" />
		<tag k="ssr:stedsnr" v="92319" />
	</node>
	<node id="-544709" lat="62.0107527753" lon="6.69868889611">
		<tag k="name" v="Muldsvorberget" />
		<tag k="natural" v="hill" />
		<tag k="place" v="locality" />
		<tag k="ssr:stedsnr" v="92310" />
	</node>
	<node id="-544708" lat="61.9603527812" lon="6.5098638963">
		<tag k="name" v="Fjøsen" />
		<tag k="place" v="locality" />
		<tag k="ssr:stedsnr" v="92297" />
	</node>
	<node id="-544697" lat="61.9936250042" lon="6.49998610506">
		<tag k="name" v="Kviven" />
		<tag k="natural" v="hill" />
		<tag k="place" v="locality" />
		<tag k="ssr:stedsnr" v="71840" />
	</node>
	<node id="-544690" lat="61.9608749983" lon="6.64778889409">
		<tag k="name" v="Holskaret" />
		<tag k="natural" v="valley" />
		<tag k="place" v="locality" />
		<tag k="ssr:stedsnr" v="70178" />
	</node>
	<node id="-544689" lat="61.9603611089" lon="6.77689722601">
		<tag k="loc_name" v="Skoraskaret" />
		<tag k="name" v="Knutsdalsskaret" />
		<tag k="natural" v="valley" />
		<tag k="place" v="locality" />
		<tag k="ssr:stedsnr" v="70175" />
	</node>
	<node id="-544687" lat="61.9535916685" lon="6.47393888597">
		<tag k="name" v="Halsen" />
		<tag k="place" v="locality" />
		<tag k="ssr:stedsnr" v="32402" />
	</node>
	<node id="-544686" lat="61.9587500001" lon="6.55154722356">
		<tag k="name" v="Almbakkane" />
		<tag k="natural" v="slope" />
		<tag k="place" v="locality" />
		<tag k="ssr:stedsnr" v="32368" />
	</node>
	<node id="-544685" lat="61.9630444464" lon="6.5444666591">
		<tag k="name" v="Gnaghola" />
		<tag k="natural" v="valley" />
		<tag k="place" v="locality" />
		<tag k="ssr:stedsnr" v="32366" />
	</node>
	<node id="-544684" lat="61.9835944434" lon="6.53129999409">
		<tag k="name" v="Nyemarka" />
		<tag k="place" v="locality" />
		<tag k="ssr:stedsnr" v="32361" />
	</node>
	<node id="-544683" lat="61.9966944426" lon="6.61671943969">
		<tag k="name" v="Solheimsreinene" />
		<tag k="natural" v="hill" />
		<tag k="place" v="locality" />
		<tag k="ssr:stedsnr" v="32359" />
	</node>
	<node id="-544682" lat="61.9959222249" lon="6.58162499067">
		<tag k="name" v="Øyane" />
		<tag k="place" v="locality" />
		<tag k="ssr:stedsnr" v="32352" />
	</node>
	<node id="-544681" lat="61.9902555531" lon="6.64645554983">
		<tag k="name" v="Bergeteigane" />
		<tag k="natural" v="slope" />
		<tag k="place" v="locality" />
		<tag k="ssr:stedsnr" v="32344" />
	</node>
	<node id="-544680" lat="61.9801611125" lon="6.57696944416">
		<tag k="name" v="Hornskorråsa" />
		<tag k="natural" v="hill" />
		<tag k="place" v="locality" />
		<tag k="ssr:stedsnr" v="32340" />
	</node>
	<node id="-544679" lat="61.9832861084" lon="6.61066388297">
		<tag k="name" v="Svartehammaren" />
		<tag k="natural" v="ridge" />
		<tag k="place" v="locality" />
		<tag k="ssr:stedsnr" v="32333" />
	</node>
	<node id="-544678" lat="61.9927861145" lon="6.6600805468">
		<tag k="name" v="Bakkane" />
		<tag k="natural" v="slope" />
		<tag k="place" v="locality" />
		<tag k="ssr:stedsnr" v="32332" />
	</node>
	<node id="-544677" lat="62.0325305544" lon="6.65950276992">
		<tag k="name" v="Nausane" />
		<tag k="natural" v="hill" />
		<tag k="place" v="locality" />
		<tag k="ssr:stedsnr" v="32325" />
	</node>
	<node id="-544676" lat="62.0211111112" lon="6.65898333598">
		<tag k="name" v="Uraholtane" />
		<tag k="natural" v="slope" />
		<tag k="place" v="locality" />
		<tag k="ssr:stedsnr" v="32317" />
	</node>
	<node id="-544675" lat="62.0078666673" lon="6.65378888105">
		<tag k="name" v="Svåhaugen" />
		<tag k="natural" v="hill" />
		<tag k="place" v="locality" />
		<tag k="ssr:stedsnr" v="32314" />
	</node>
	<node id="-544674" lat="61.9822500021" lon="6.71354721922">
		<tag k="name" v="Nyelademarka" />
		<tag k="place" v="locality" />
		<tag k="ssr:stedsnr" v="32299" />
	</node>
	<node id="-544673" lat="62.0245722245" lon="6.68086943732">
		<tag k="name" v="Arneladehaugen" />
		<tag k="natural" v="hill" />
		<tag k="place" v="locality" />
		<tag k="ssr:stedsnr" v="32292" />
	</node>
	<node id="-544672" lat="62.0097527793" lon="6.68270000522">
		<tag k="name" v="Nyemarka" />
		<tag k="place" v="locality" />
		<tag k="ssr:stedsnr" v="32290" />
	</node>
	<node id="-544671" lat="62.0249305599" lon="6.71616110568">
		<tag k="name" v="Kvernhusbakken" />
		<tag k="natural" v="slope" />
		<tag k="place" v="locality" />
		<tag k="ssr:stedsnr" v="32284" />
	</node>
	<node id="-544670" lat="61.9609444488" lon="6.5137722171">
		<tag k="name" v="Slettebøen" />
		<tag k="place" v="locality" />
		<tag k="ssr:stedsnr" v="32275" />
	</node>
	<node id="-544659" lat="62.0396250025" lon="6.5964333293">
		<tag k="fixme" v="consider natural=peak for the most distinct mountains in the district" />
		<tag k="name" v="Indre Aksla" />
		<tag k="natural" v="hill" />
		<tag k="place" v="locality" />
		<tag k="ssr:stedsnr" v="11701" />
	</node>
	<node id="-544656" lat="61.9521916696" lon="6.53583889748">
		<tag k="fixme" v="consider natural=peak for the most distinct mountains in the district" />
		<tag k="name" v="Bordtaket" />
		<tag k="natural" v="hill" />
		<tag k="place" v="locality" />
		<tag k="ssr:stedsnr" v="10893" />
	</node>
	<node id="-544652" lat="61.9885916697" lon="6.66732499677">
		<tag k="name" v="Seljesethornet" />
		<tag k="natural" v="hill" />
		<tag k="place" v="locality" />
		<tag k="ssr:stedsnr" v="10227" />
	</node>
	<node id="-544651" lat="61.9959122912" lon="6.62289977383">
		<tag k="name" v="Hornindalen" />
		<tag k="natural" v="valley" />
		<tag k="place" v="locality" />
		<tag k="ssr:stedsnr" v="990082" />
	</node>
	<node id="-544650" lat="62.0544741564" lon="6.68983453139">
		<tag k="name" v="Sætreskaret" />
		<tag k="natural" v="valley" />
		<tag k="place" v="locality" />
		<tag k="ssr:stedsnr" v="989366" />
	</node>
	<node id="-544649" lat="62.0635488058" lon="6.67992617217">
		<tag k="fixme" v="consider natural=peak for the most distinct mountains in the district" />
		<tag k="name" v="Sætrenibba" />
		<tag k="natural" v="hill" />
		<tag k="ssr:stedsnr" v="989364" />
	</node>
	<node id="-544648" lat="61.9553996934" lon="6.75932421107">
		<tag k="loc_name" v="Kyrkjeeidsskaret" />
		<tag k="name" v="Seljesetskaret" />
		<tag k="natural" v="valley" />
		<tag k="place" v="locality" />
		<tag k="ssr:stedsnr" v="70168" />
	</node>
	<node id="-544647" lat="61.9564016413" lon="6.71299076707">
		<tag k="name" v="Natakupa" />
		<tag k="natural" v="valley" />
		<tag k="place" v="locality" />
		<tag k="ssr:stedsnr" v="985060" />
	</node>
	<node id="-544645" lat="61.9566633603" lon="6.68270790589">
		<tag k="fixme" v="consider natural=peak for the most distinct mountains in the district" />
		<tag k="name" v="Karifjellet" />
		<tag k="natural" v="hill" />
		<tag k="place" v="locality" />
		<tag k="ssr:stedsnr" v="373172" />
	</node>
	<node id="-544640" lat="62.0117527814" lon="6.65157778236">
		<tag k="name" v="Liabakkane" />
		<tag k="natural" v="slope" />
		<tag k="place" v="locality" />
		<tag k="ssr:stedsnr" v="882314" />
	</node>
	<node id="-544639" lat="61.9907361109" lon="6.70251389666">
		<tag k="name" v="Krokane" />
		<tag k="natural" v="slope" />
		<tag k="place" v="locality" />
		<tag k="ssr:stedsnr" v="882301" />
	</node>
	<node id="-544638" lat="61.9796805541" lon="6.71869721603">
		<tag k="name" v="Klokketeigane" />
		<tag k="place" v="locality" />
		<tag k="ssr:stedsnr" v="882295" />
	</node>
	<node id="-544637" lat="62.0316694478" lon="6.66701111142">
		<tag k="name" v="Rabben" />
		<tag k="natural" v="hill" />
		<tag k="place" v="locality" />
		<tag k="ssr:stedsnr" v="882290" />
	</node>
	<node id="-544636" lat="62.0142249962" lon="6.66433611319">
		<tag k="name" v="Hovdebakkane" />
		<tag k="natural" v="slope" />
		<tag k="place" v="locality" />
		<tag k="ssr:stedsnr" v="882285" />
	</node>
	<node id="-544635" lat="61.9600194436" lon="6.51586943998">
		<tag k="name" v="Svoda" />
		<tag k="natural" v="hill" />
		<tag k="place" v="locality" />
		<tag k="ssr:stedsnr" v="882277" />
	</node>
	<node id="-544634" lat="61.9624555516" lon="6.51016111109">
		<tag k="name" v="Saltfloten" />
		<tag k="place" v="locality" />
		<tag k="ssr:stedsnr" v="882275" />
	</node>
	<node id="-544633" lat="61.9584666695" lon="6.50257778147">
		<tag k="name" v="Kolmilplassen" />
		<tag k="place" v="locality" />
		<tag k="ssr:stedsnr" v="882270" />
	</node>
	<node id="-544632" lat="61.9539833373" lon="6.50348333651">
		<tag k="name" v="Stordalen" />
		<tag k="natural" v="valley" />
		<tag k="place" v="locality" />
		<tag k="ssr:stedsnr" v="882268" />
	</node>
	<node id="-544625" lat="61.9299333369" lon="6.50593611414">
		<tag k="name" v="Krekane" />
		<tag k="place" v="locality" />
		<tag k="ssr:stedsnr" v="396428" />
	</node>
	<node id="-544624" lat="61.9309388932" lon="6.51293889229">
		<tag k="fixme" v="consider natural=peak for the most distinct mountains in the district" />
		<tag k="name" v="Jutedalshammaren" />
		<tag k="natural" v="hill" />
		<tag k="place" v="locality" />
		<tag k="ssr:stedsnr" v="396426" />
	</node>
	<node id="-544623" lat="61.9351083341" lon="6.52109443715">
		<tag k="name" v="Nova" />
		<tag k="natural" v="hill" />
		<tag k="place" v="locality" />
		<tag k="ssr:stedsnr" v="396425" />
	</node>
	<node id="-544622" lat="61.9337527777" lon="6.51897221695">
		<tag k="fixme" v="consider natural=peak for the most distinct mountains in the district" />
		<tag k="name" v="Jutedalsfossen" />
		<tag k="natural" v="hill" />
		<tag k="place" v="locality" />
		<tag k="ssr:stedsnr" v="396423" />
	</node>
	<node id="-544621" lat="62.0011083362" lon="6.49273889388">
		<tag k="name" v="Askjel" />
		<tag k="natural" v="hill" />
		<tag k="place" v="locality" />
		<tag k="ssr:stedsnr" v="396406" />
	</node>
	<node id="-544620" lat="61.9925722192" lon="6.45362778704">
		<tag k="name" v="Hillene" />
		<tag k="natural" v="hill" />
		<tag k="place" v="locality" />
		<tag k="ssr:stedsnr" v="396402" />
	</node>
	<node id="-544619" lat="61.9819361078" lon="6.51877500306">
		<tag k="name" v="Brattebakken" />
		<tag k="natural" v="slope" />
		<tag k="place" v="locality" />
		<tag k="ssr:stedsnr" v="396396" />
	</node>
	<node id="-544618" lat="61.9809638925" lon="6.50584166037">
		<tag k="name" v="Steikvia" />
		<tag k="place" v="locality" />
		<tag k="ssr:stedsnr" v="396395" />
	</node>
	<node id="-544617" lat="61.9810194452" lon="6.46544167454">
		<tag k="name" v="Vardehola" />
		<tag k="natural" v="valley" />
		<tag k="place" v="locality" />
		<tag k="ssr:stedsnr" v="396388" />
	</node>
	<node id="-544616" lat="61.9531361114" lon="6.56921944313">
		<tag k="name" v="Ronshaugen" />
		<tag k="natural" v="hill" />
		<tag k="place" v="locality" />
		<tag k="ssr:stedsnr" v="396380" />
	</node>
	<node id="-544615" lat="62.0061833367" lon="6.57563610211">
		<tag k="name" v="Høgsteråså" />
		<tag k="natural" v="plateau" />
		<tag k="ssr:stedsnr" v="396358" />
	</node>
	<node id="-544614" lat="62.0058166688" lon="6.57739999898">
		<tag k="name" v="Slokeholten" />
		<tag k="natural" v="hill" />
		<tag k="place" v="locality" />
		<tag k="ssr:stedsnr" v="396354" />
	</node>
	<node id="-544613" lat="61.9950861125" lon="6.63304722101">
		<tag k="name" v="Anders Nygards plassen" />
		<tag k="place" v="locality" />
		<tag k="ssr:stedsnr" v="396345" />
	</node>
	<node id="-544612" lat="62.0226500007" lon="6.58569166308">
		<tag k="name" v="Reset" />
		<tag k="natural" v="hill" />
		<tag k="place" v="locality" />
		<tag k="ssr:stedsnr" v="396323" />
	</node>
	<node id="-544611" lat="62.0169222244" lon="6.57548610524">
		<tag k="name" v="Strupen" />
		<tag k="natural" v="hill" />
		<tag k="place" v="locality" />
		<tag k="ssr:stedsnr" v="396315" />
	</node>
	<node id="-544610" lat="61.9866999991" lon="6.70920277019">
		<tag k="name" v="Sjurska" />
		<tag k="place" v="locality" />
		<tag k="ssr:stedsnr" v="396298" />
	</node>
	<node id="-544609" lat="61.9789888859" lon="6.71301388034">
		<tag k="name" v="Svartehola" />
		<tag k="natural" v="valley" />
		<tag k="place" v="locality" />
		<tag k="ssr:stedsnr" v="396296" />
	</node>
	<node id="-544608" lat="62.0156333304" lon="6.66881388779">
		<tag k="name" v="Lasseladehaugen" />
		<tag k="natural" v="hill" />
		<tag k="place" v="locality" />
		<tag k="ssr:stedsnr" v="396291" />
	</node>
	<node id="-544607" lat="62.0088499967" lon="6.66396111433">
		<tag k="name" v="Furebakken" />
		<tag k="natural" v="slope" />
		<tag k="place" v="locality" />
		<tag k="ssr:stedsnr" v="396289" />
	</node>
	<node id="-544606" lat="62.0182555525" lon="6.7054555601">
		<tag k="name" v="Instelahaugen" />
		<tag k="natural" v="hill" />
		<tag k="place" v="locality" />
		<tag k="ssr:stedsnr" v="396281" />
	</node>
	<node id="-544601" lat="61.9459055581" lon="6.493705557">
		<tag k="name" v="Nakken" />
		<tag k="natural" v="hill" />
		<tag k="place" v="locality" />
		<tag k="ssr:stedsnr" v="392198" />
	</node>
	<node id="-544595" lat="62.0238611095" lon="6.63224166073">
		<tag k="fixme" v="consider natural=peak for the most distinct mountains in the district" />
		<tag k="name" v="Sandfjellet" />
		<tag k="natural" v="hill" />
		<tag k="place" v="locality" />
		<tag k="ssr:stedsnr" v="375672" />
	</node>
	<node id="-544594" lat="61.9485388928" lon="6.49899166501">
		<tag k="fixme" v="consider natural=peak for the most distinct mountains in the district" />
		<tag k="name" v="Kjølen" />
		<tag k="natural" v="hill" />
		<tag k="place" v="locality" />
		<tag k="ssr:stedsnr" v="374940" />
	</node>
	<node id="-544591" lat="62.0379112086" lon="6.70366186553">
		<tag k="fixme" v="consider natural=peak for the most distinct mountains in the district" />
		<tag k="name" v="Lidafjellet" />
		<tag k="natural" v="hill" />
		<tag k="place" v="locality" />
		<tag k="ssr:stedsnr" v="374716" />
	</node>
	<node id="-544590" lat="61.9699500021" lon="6.60673056126">
		<tag k="fixme" v="consider natural=peak for the most distinct mountains in the district" />
		<tag k="name" v="Godmordalsegga" />
		<tag k="natural" v="hill" />
		<tag k="place" v="locality" />
		<tag k="ssr:stedsnr" v="374265" />
	</node>
	<node id="-544589" lat="61.9691888848" lon="6.62396389065">
		<tag k="name" v="Godmordalen" />
		<tag k="natural" v="valley" />
		<tag k="place" v="locality" />
		<tag k="ssr:stedsnr" v="374264" />
	</node>
	<node id="-544587" lat="61.9567888913" lon="6.58855277071">
		<tag k="name" v="Geitskaret" />
		<tag k="natural" v="valley" />
		<tag k="place" v="locality" />
		<tag k="ssr:stedsnr" v="373878" />
	</node>
	<node id="-544586" lat="61.9585305537" lon="6.62301943768">
		<tag k="fixme" v="consider natural=peak for the most distinct mountains in the district" />
		<tag k="name" v="Gulkoppen" />
		<tag k="natural" v="hill" />
		<tag k="place" v="locality" />
		<tag k="ssr:stedsnr" v="373182" />
	</node>
	<node id="-544585" lat="61.9392944456" lon="6.52498610927">
		<tag k="name" v="Moldstadbakkane" />
		<tag k="natural" v="slope" />
		<tag k="place" v="locality" />
		<tag k="ssr:stedsnr" v="335446" />
	</node>
	<node id="-544583" lat="61.9778111111" lon="6.45884166714">
		<tag k="name" v="Breisvadet" />
		<tag k="natural" v="hill" />
		<tag k="place" v="locality" />
		<tag k="ssr:stedsnr" v="335412" />
	</node>
	<node id="-544582" lat="61.9600749972" lon="6.55452778053">
		<tag k="name" v="Reset" />
		<tag k="natural" v="cliff" />
		<tag k="ssr:stedsnr" v="335400" />
	</node>
	<node id="-544581" lat="61.9596138849" lon="6.55869444096">
		<tag k="name" v="Rognebakkane" />
		<tag k="natural" v="slope" />
		<tag k="place" v="locality" />
		<tag k="ssr:stedsnr" v="335396" />
	</node>
	<node id="-544580" lat="61.9767999999" lon="6.53214166255">
		<tag k="name" v="Skrustegen" />
		<tag k="natural" v="slope" />
		<tag k="place" v="locality" />
		<tag k="ssr:stedsnr" v="335393" />
	</node>
	<node id="-544579" lat="62.0000138902" lon="6.59810554701">
		<tag k="name" v="Ryggjaråsa" />
		<tag k="natural" v="hill" />
		<tag k="place" v="locality" />
		<tag k="ssr:stedsnr" v="335378" />
	</node>
	<node id="-544578" lat="61.9941277745" lon="6.64671944812">
		<tag k="name" v="Bærhaugen" />
		<tag k="natural" v="hill" />
		<tag k="place" v="locality" />
		<tag k="ssr:stedsnr" v="335353" />
	</node>
	<node id="-544577" lat="62.0280027804" lon="6.65809166261">
		<tag k="name" v="Stokkelia" />
		<tag k="natural" v="slope" />
		<tag k="place" v="locality" />
		<tag k="ssr:stedsnr" v="335350" />
	</node>
	<node id="-544576" lat="62.0252222222" lon="6.56796111446">
		<tag k="name" v="Smaleskreda" />
		<tag k="natural" v="gorge" />
		<tag k="ssr:stedsnr" v="335347" />
	</node>
	<node id="-544575" lat="61.9934638899" lon="6.66813333005">
		<tag k="name" v="Svorabakken" />
		<tag k="natural" v="slope" />
		<tag k="place" v="locality" />
		<tag k="ssr:stedsnr" v="335333" />
	</node>
	<node id="-544574" lat="62.0007749997" lon="6.66898055136">
		<tag k="name" v="Bruane" />
		<tag k="place" v="locality" />
		<tag k="ssr:stedsnr" v="335330" />
	</node>
	<node id="-544573" lat="62.0409277802" lon="6.6643555557">
		<tag k="name" v="Omnfjellskredene" />
		<tag k="natural" v="gorge" />
		<tag k="ssr:stedsnr" v="335321" />
	</node>
	<node id="-544572" lat="61.9499138908" lon="6.48452221947">
		<tag k="name" v="Branden" />
		<tag k="place" v="locality" />
		<tag k="ssr:stedsnr" v="335307" />
	</node>
	<node id="-544561" lat="62.0534444486" lon="6.56095554911">
		<tag k="fixme" v="consider natural=peak for the most distinct mountains in the district" />
		<tag k="name" v="Blåbredhornet" />
		<tag k="natural" v="hill" />
		<tag k="place" v="locality" />
		<tag k="ssr:stedsnr" v="314714" />
	</node>
	<node id="-544560" lat="61.9978055558" lon="6.73407777278">
		<tag k="name" v="Tirddalen" />
		<tag k="natural" v="valley" />
		<tag k="place" v="locality" />
		<tag k="ssr:stedsnr" v="314258" />
	</node>
	<node id="-544559" lat="61.9993500021" lon="6.76114166045">
		<tag k="fixme" v="consider natural=peak for the most distinct mountains in the district" />
		<tag k="name" v="Røyrhusnibba" />
		<tag k="natural" v="hill" />
		<tag k="place" v="locality" />
		<tag k="ssr:stedsnr" v="314257" />
	</node>
	<node id="-544554" lat="62.0050027745" lon="6.43022778422">
		<tag k="name" v="Litledalen" />
		<tag k="natural" v="valley" />
		<tag k="place" v="locality" />
		<tag k="ssr:stedsnr" v="313840" />
	</node>
	<node id="-544550" lat="61.9715277767" lon="6.55834721433">
		<tag k="name" v="Kyrkjhornsdalen" />
		<tag k="natural" v="valley" />
		<tag k="place" v="locality" />
		<tag k="ssr:stedsnr" v="313919" />
	</node>
	<node id="-544549" lat="61.9669166658" lon="6.55869165894">
		<tag k="name" v="Blaueren" />
		<tag k="natural" v="hill" />
		<tag k="place" v="locality" />
		<tag k="ssr:stedsnr" v="313915" />
	</node>
	<node id="-544546" lat="62.0206083344" lon="6.57756944515">
		<tag k="name" v="Litlereset" />
		<tag k="natural" v="hill" />
		<tag k="place" v="locality" />
		<tag k="ssr:stedsnr" v="275340" />
	</node>
	<node id="-544545" lat="62.0128194409" lon="6.57739165741">
		<tag k="name" v="Lia" />
		<tag k="natural" v="slope" />
		<tag k="place" v="locality" />
		<tag k="ssr:stedsnr" v="275332" />
	</node>
	<node id="-544544" lat="61.9980027816" lon="6.66563610303">
		<tag k="name" v="Hjellreset" />
		<tag k="natural" v="slope" />
		<tag k="place" v="locality" />
		<tag k="ssr:stedsnr" v="275325" />
	</node>
	<node id="-544543" lat="62.0195861115" lon="6.70843611852">
		<tag k="name" v="Nyhjellshaugen" />
		<tag k="natural" v="hill" />
		<tag k="place" v="locality" />
		<tag k="ssr:stedsnr" v="275302" />
	</node>
	<node id="-544542" lat="62.0210111143" lon="6.70331665853">
		<tag k="name" v="Øyeskogen" />
		<tag k="place" v="locality" />
		<tag k="ssr:stedsnr" v="275296" />
	</node>
	<node id="-544541" lat="61.9429083373" lon="6.49746943869">
		<tag k="name" v="Dekka" />
		<tag k="natural" v="slope" />
		<tag k="place" v="locality" />
		<tag k="ssr:stedsnr" v="275284" />
	</node>
	<node id="-544531" lat="61.9391250022" lon="6.51501943672">
		<tag k="name" v="Løypet" />
		<tag k="natural" v="slope" />
		<tag k="place" v="locality" />
		<tag k="ssr:stedsnr" v="274405" />
	</node>
	<node id="-544529" lat="61.9990250002" lon="6.43683333769">
		<tag k="name" v="Otredalsdalen" />
		<tag k="natural" v="valley" />
		<tag k="place" v="locality" />
		<tag k="ssr:stedsnr" v="274377" />
	</node>
	<node id="-544528" lat="61.983988893" lon="6.45665555945">
		<tag k="name" v="Sikhammaren" />
		<tag k="natural" v="hill" />
		<tag k="place" v="locality" />
		<tag k="ssr:stedsnr" v="274370" />
	</node>
	<node id="-544527" lat="61.9632472214" lon="6.55272221842">
		<tag k="name" v="Kvissforflata" />
		<tag k="place" v="locality" />
		<tag k="ssr:stedsnr" v="274356" />
	</node>
	<node id="-544526" lat="62.0157888885" lon="6.53056389076">
		<tag k="name" v="Smårauhammrane" />
		<tag k="natural" v="hill" />
		<tag k="place" v="locality" />
		<tag k="ssr:stedsnr" v="274350" />
	</node>
	<node id="-544525" lat="62.0027416682" lon="6.62016110621">
		<tag k="name" v="Steinbakkane" />
		<tag k="natural" v="slope" />
		<tag k="place" v="locality" />
		<tag k="ssr:stedsnr" v="274343" />
	</node>
	<node id="-544524" lat="62.0047583342" lon="6.56017776918">
		<tag k="name" v="Katuglehaugen" />
		<tag k="natural" v="hill" />
		<tag k="place" v="locality" />
		<tag k="ssr:stedsnr" v="274332" />
	</node>
	<node id="-544523" lat="61.9876944435" lon="6.63862221302">
		<tag k="name" v="Brauta" />
		<tag k="natural" v="slope" />
		<tag k="place" v="locality" />
		<tag k="ssr:stedsnr" v="274328" />
	</node>
	<node id="-544522" lat="61.9798611104" lon="6.5505250049">
		<tag k="name" v="Lødøenmarka" />
		<tag k="place" v="locality" />
		<tag k="ssr:stedsnr" v="274322" />
	</node>
	<node id="-545139" lat="62.0046861067" lon="6.51486666172">
		<tag k="name" v="Fosseskreda" />
		<tag k="natural" v="gorge" />
		<tag k="ssr:stedsnr" v="942420" />
	</node>
	<node id="-545138" lat="61.9884999959" lon="6.47918611718">
		<tag k="name" v="Kvitesvorene" />
		<tag k="natural" v="hill" />
		<tag k="place" v="locality" />
		<tag k="ssr:stedsnr" v="942416" />
	</node>
	<node id="-545137" lat="61.9923944451" lon="6.43784166628">
		<tag k="name" v="Furehaugen" />
		<tag k="natural" v="hill" />
		<tag k="place" v="locality" />
		<tag k="ssr:stedsnr" v="942402" />
	</node>
	<node id="-545136" lat="62.0019999958" lon="6.53880556372">
		<tag k="name" v="Pinflata" />
		<tag k="place" v="locality" />
		<tag k="ssr:stedsnr" v="942385" />
	</node>
	<node id="-545135" lat="62.0003416704" lon="6.57277222891">
		<tag k="name" v="Engene" />
		<tag k="place" v="locality" />
		<tag k="ssr:stedsnr" v="942350" />
	</node>
	<node id="-545134" lat="61.9964861088" lon="6.62991111689">
		<tag k="name" v="Rabbegjølet" />
		<tag k="natural" v="gorge" />
		<tag k="ssr:stedsnr" v="942341" />
	</node>
	<node id="-545133" lat="61.9986527813" lon="6.65781388152">
		<tag k="name" v="Spønebakken" />
		<tag k="natural" v="slope" />
		<tag k="place" v="locality" />
		<tag k="ssr:stedsnr" v="942338" />
	</node>
	<node id="-545132" lat="61.9822111101" lon="6.54953888203">
		<tag k="fixme" v="consider natural=peak for the most distinct mountains in the district" />
		<tag k="name" v="Husåsen" />
		<tag k="natural" v="hill" />
		<tag k="place" v="locality" />
		<tag k="ssr:stedsnr" v="942331" />
	</node>
	<node id="-545131" lat="61.9845416706" lon="6.62842499256">
		<tag k="name" v="Karigjølbakken" />
		<tag k="natural" v="slope" />
		<tag k="place" v="locality" />
		<tag k="ssr:stedsnr" v="942325" />
	</node>
	<node id="-545130" lat="62.0088055525" lon="6.58043611746">
		<tag k="name" v="Bulegeholten" />
		<tag k="natural" v="hill" />
		<tag k="place" v="locality" />
		<tag k="ssr:stedsnr" v="942315" />
	</node>
	<node id="-545129" lat="62.0148694477" lon="6.65162221685">
		<tag k="name" v="Holtane" />
		<tag k="natural" v="slope" />
		<tag k="place" v="locality" />
		<tag k="ssr:stedsnr" v="942312" />
	</node>
	<node id="-545128" lat="62.0397194425" lon="6.67657778036">
		<tag k="name" v="Klubbskreda" />
		<tag k="natural" v="gorge" />
		<tag k="ssr:stedsnr" v="942295" />
	</node>
	<node id="-545127" lat="62.0297361111" lon="6.68469165941">
		<tag k="name" v="Hattfurbakken" />
		<tag k="natural" v="slope" />
		<tag k="place" v="locality" />
		<tag k="ssr:stedsnr" v="942292" />
	</node>
	<node id="-545117" lat="62.0029750008" lon="6.7072749931">
		<tag k="fixme" v="consider natural=peak for the most distinct mountains in the district" />
		<tag k="name" v="Muldsvorhornet" />
		<tag k="natural" v="hill" />
		<tag k="place" v="locality" />
		<tag k="ssr:stedsnr" v="921268" />
	</node>
	<node id="-545115" lat="62.0052972194" lon="6.40111110474">
		<tag k="fixme" v="consider natural=peak for the most distinct mountains in the district" />
		<tag k="name" v="Otredalsfjellet" />
		<tag k="natural" v="hill" />
		<tag k="place" v="locality" />
		<tag k="ssr:stedsnr" v="921264" />
	</node>
	<node id="-545110" lat="61.9900861067" lon="6.48268888608">
		<tag k="name" v="Rabben" />
		<tag k="natural" v="hill" />
		<tag k="place" v="locality" />
		<tag k="ssr:stedsnr" v="920885" />
	</node>
	<node id="-545109" lat="61.9819888929" lon="6.4730472266">
		<tag k="name" v="Storevarden" />
		<tag k="natural" v="hill" />
		<tag k="place" v="locality" />
		<tag k="ssr:stedsnr" v="920866" />
	</node>
	<node id="-545106" lat="61.9699083357" lon="6.79375554925">
		<tag k="fixme" v="multiple name tags, choose one and add the other to alt_name; consider natural=peak for the most distinct mountains in the district" />
		<tag k="name" v="Blåfjellet;Holtafjellet" />
		<tag k="natural" v="hill" />
		<tag k="place" v="locality" />
		<tag k="ssr:stedsnr" v="920228" />
	</node>
	<node id="-545103" lat="61.9943861113" lon="6.72346667119">
		<tag k="name" v="Litlehornet" />
		<tag k="natural" v="hill" />
		<tag k="place" v="locality" />
		<tag k="ssr:stedsnr" v="920205" />
	</node>
	<node id="-545102" lat="61.9554079748" lon="6.69941163433">
		<tag k="name" v="Sølvberget" />
		<tag k="place" v="locality" />
		<tag k="ssr:stedsnr" v="920181" />
	</node>
	<node id="-545101" lat="61.9941694487" lon="6.48614166245">
		<tag k="name" v="Småsvodene" />
		<tag k="natural" v="hill" />
		<tag k="place" v="locality" />
		<tag k="ssr:stedsnr" v="881413" />
	</node>
	<node id="-545100" lat="61.9981055541" lon="6.49501666618">
		<tag k="name" v="Mørevadhaugen" />
		<tag k="natural" v="hill" />
		<tag k="place" v="locality" />
		<tag k="ssr:stedsnr" v="881408" />
	</node>
	<node id="-545099" lat="61.9871222233" lon="6.43191945038">
		<tag k="name" v="Flåna" />
		<tag k="natural" v="hill" />
		<tag k="place" v="locality" />
		<tag k="ssr:stedsnr" v="881406" />
	</node>
	<node id="-545098" lat="61.9296444457" lon="6.49741389392">
		<tag k="name" v="Sortevikvadet" />
		<tag k="place" v="locality" />
		<tag k="ssr:stedsnr" v="881401" />
	</node>
	<node id="-545097" lat="61.9849444419" lon="6.50608610927">
		<tag k="name" v="Skaret" />
		<tag k="natural" v="valley" />
		<tag k="place" v="locality" />
		<tag k="ssr:stedsnr" v="881398" />
	</node>
	<node id="-545096" lat="62.0079083353" lon="6.4331249994">
		<tag k="name" v="Buvass-skredene" />
		<tag k="natural" v="valley" />
		<tag k="place" v="locality" />
		<tag k="ssr:stedsnr" v="881372" />
	</node>
	<node id="-545095" lat="62.0036138902" lon="6.5857305487">
		<tag k="name" v="Siklebakken" />
		<tag k="natural" v="gorge" />
		<tag k="ssr:stedsnr" v="881347" />
	</node>
	<node id="-545092" lat="62.0136666649" lon="6.46016666624">
		<tag k="fixme" v="consider natural=peak for the most distinct mountains in the district" />
		<tag k="name" v="Kviven" />
		<tag k="natural" v="hill" />
		<tag k="place" v="locality" />
		<tag k="ssr:stedsnr" v="861222" />
	</node>
	<node id="-545090" lat="62.0378277816" lon="6.49484443605">
		<tag k="fixme" v="consider natural=peak for the most distinct mountains in the district" />
		<tag k="name" v="Gjugra" />
		<tag k="natural" v="hill" />
		<tag k="place" v="locality" />
		<tag k="ssr:stedsnr" v="860735" />
	</node>
	<node id="-545089" lat="61.9982138845" lon="6.73675833565">
		<tag k="name" v="Terdalen" />
		<tag k="natural" v="valley" />
		<tag k="place" v="locality" />
		<tag k="ssr:stedsnr" v="860511" />
	</node>
	<node id="-545088" lat="61.9886638877" lon="6.70273887991">
		<tag k="name" v="Knutsdalen" />
		<tag k="natural" v="valley" />
		<tag k="place" v="locality" />
		<tag k="ssr:stedsnr" v="860286" />
	</node>
	<node id="-545084" lat="61.9474305517" lon="6.578230559">
		<tag k="name" v="Småskora" />
		<tag k="place" v="locality" />
		<tag k="ssr:stedsnr" v="859910" />
	</node>
	<node id="-545082" lat="61.9603611101" lon="6.59246666354">
		<tag k="name" v="Vardefjellet" />
		<tag k="natural" v="hill" />
		<tag k="place" v="locality" />
		<tag k="ssr:stedsnr" v="859863" />
	</node>
	<node id="-545079" lat="61.928375" lon="6.50428055005">
		<tag k="name" v="Lia" />
		<tag k="natural" v="slope" />
		<tag k="place" v="locality" />
		<tag k="ssr:stedsnr" v="821446" />
	</node>
	<node id="-545078" lat="62.0025916638" lon="6.51870000742">
		<tag k="name" v="Reset" />
		<tag k="natural" v="hill" />
		<tag k="place" v="locality" />
		<tag k="ssr:stedsnr" v="821435" />
	</node>
	<node id="-545077" lat="61.9959972246" lon="6.5016027827">
		<tag k="name" v="Fletene" />
		<tag k="place" v="locality" />
		<tag k="ssr:stedsnr" v="821432" />
	</node>
	<node id="-545075" lat="61.9979416624" lon="6.43504999618">
		<tag k="name" v="Høgehaugen" />
		<tag k="natural" v="hill" />
		<tag k="place" v="locality" />
		<tag k="ssr:stedsnr" v="821422" />
	</node>
	<node id="-545074" lat="61.9742916681" lon="6.48093333094">
		<tag k="name" v="Bekkeliene" />
		<tag k="natural" v="slope" />
		<tag k="place" v="locality" />
		<tag k="ssr:stedsnr" v="821419" />
	</node>
	<node id="-545072" lat="61.9913611144" lon="6.51478332491">
		<tag k="name" v="Kringla" />
		<tag k="place" v="locality" />
		<tag k="ssr:stedsnr" v="821406" />
	</node>
	<node id="-545070" lat="62.0060555591" lon="6.62546944115">
		<tag k="name" v="Høgberget" />
		<tag k="natural" v="hill" />
		<tag k="place" v="locality" />
		<tag k="ssr:stedsnr" v="821391" />
	</node>
	<node id="-545069" lat="61.9997472228" lon="6.58832222441">
		<tag k="name" v="Espegeilane" />
		<tag k="natural" v="hill" />
		<tag k="place" v="locality" />
		<tag k="ssr:stedsnr" v="821386" />
	</node>
	<node id="-545068" lat="62.0146361078" lon="6.56584722531">
		<tag k="name" v="Litlekvia" />
		<tag k="place" v="locality" />
		<tag k="ssr:stedsnr" v="821362" />
	</node>
	<node id="-545067" lat="62.0049472229" lon="6.67642500116">
		<tag k="name" v="Hjellhaugane" />
		<tag k="natural" v="hill" />
		<tag k="place" v="locality" />
		<tag k="ssr:stedsnr" v="821348" />
	</node>
	<node id="-545066" lat="61.985269442" lon="6.7101333243">
		<tag k="name" v="Langerusta" />
		<tag k="place" v="locality" />
		<tag k="ssr:stedsnr" v="821339" />
	</node>
	<node id="-545065" lat="62.0245722264" lon="6.66884444494">
		<tag k="name" v="Skrivarhaugen" />
		<tag k="natural" v="hill" />
		<tag k="place" v="locality" />
		<tag k="ssr:stedsnr" v="821330" />
	</node>
	<node id="-545064" lat="62.0232916624" lon="6.66465277896">
		<tag k="name" v="Grønemyrbakkane" />
		<tag k="natural" v="slope" />
		<tag k="place" v="locality" />
		<tag k="ssr:stedsnr" v="821328" />
	</node>
	<node id="-545063" lat="62.0248722228" lon="6.70377778281">
		<tag k="name" v="Hestehaugen" />
		<tag k="natural" v="hill" />
		<tag k="place" v="locality" />
		<tag k="ssr:stedsnr" v="821320" />
	</node>
	<node id="-545062" lat="62.0235888857" lon="6.71953889245">
		<tag k="name" v="Kvitlane" />
		<tag k="place" v="locality" />
		<tag k="ssr:stedsnr" v="821317" />
	</node>
	<node id="-545061" lat="61.959394441" lon="6.49413056026">
		<tag k="name" v="Skavikebakken" />
		<tag k="natural" v="slope" />
		<tag k="place" v="locality" />
		<tag k="ssr:stedsnr" v="821310" />
	</node>
	<node id="-545060" lat="61.9502611136" lon="6.48449166902">
		<tag k="name" v="Klypet" />
		<tag k="natural" v="hill" />
		<tag k="place" v="locality" />
		<tag k="ssr:stedsnr" v="821306" />
	</node>
	<node id="-545059" lat="61.9592527813" lon="6.5147249959">
		<tag k="name" v="Nausen" />
		<tag k="natural" v="hill" />
		<tag k="place" v="locality" />
		<tag k="ssr:stedsnr" v="821304" />
	</node>
	<node id="-545058" lat="61.9433500032" lon="6.5031305487">
		<tag k="name" v="Novene" />
		<tag k="natural" v="hill" />
		<tag k="place" v="locality" />
		<tag k="ssr:stedsnr" v="821301" />
	</node>
	<node id="-545057" lat="61.9581916673" lon="6.50590554652">
		<tag k="name" v="Fonna" />
		<tag k="natural" v="hill" />
		<tag k="place" v="locality" />
		<tag k="ssr:stedsnr" v="821299" />
	</node>
	<node id="-545046" lat="62.0184611144" lon="6.50566943858">
		<tag k="fixme" v="consider natural=peak for the most distinct mountains in the district" />
		<tag k="name" v="Høgenibba" />
		<tag k="natural" v="hill" />
		<tag k="place" v="locality" />
		<tag k="ssr:stedsnr" v="800674" />
	</node>
	<node id="-545040" lat="61.9729861106" lon="6.42821943992">
		<tag k="fixme" v="multiple name tags, choose one and add the other to alt_name" />
		<tag k="name" v="Otredalsnakken;Nakken" />
		<tag k="natural" v="ridge" />
		<tag k="place" v="locality" />
		<tag k="ssr:stedsnr" v="799875" />
	</node>
	<node id="-545038" lat="61.9721138921" lon="6.76237777444">
		<tag k="fixme" v="consider natural=peak for the most distinct mountains in the district" />
		<tag k="name" v="Mannefjellet" />
		<tag k="natural" v="hill" />
		<tag k="place" v="locality" />
		<tag k="ssr:stedsnr" v="799242" />
	</node>
	<node id="-545036" lat="61.9556666649" lon="6.72803056102">
		<tag k="fixme" v="consider natural=peak for the most distinct mountains in the district" />
		<tag k="name" v="Kragefjellet" />
		<tag k="natural" v="hill" />
		<tag k="place" v="locality" />
		<tag k="ssr:stedsnr" v="799196" />
	</node>
	<node id="-545033" lat="61.9475527791" lon="6.47006667017">
		<tag k="name" v="Hamnebakkane" />
		<tag k="natural" v="slope" />
		<tag k="place" v="locality" />
		<tag k="ssr:stedsnr" v="760436" />
	</node>
	<node id="-545032" lat="61.9763666682" lon="6.52220832555">
		<tag k="name" v="Abelbakken" />
		<tag k="natural" v="slope" />
		<tag k="place" v="locality" />
		<tag k="ssr:stedsnr" v="760396" />
	</node>
	<node id="-545031" lat="61.9693027806" lon="6.53126110222">
		<tag k="name" v="Monshjellen" />
		<tag k="place" v="locality" />
		<tag k="ssr:stedsnr" v="760395" />
	</node>
	<node id="-545030" lat="62.0038777753" lon="6.61147500736">
		<tag k="name" v="Bakkeberget" />
		<tag k="natural" v="hill" />
		<tag k="place" v="locality" />
		<tag k="ssr:stedsnr" v="760391" />
	</node>
	<node id="-545029" lat="62.0051500019" lon="6.5793194423">
		<tag k="name" v="Slokeholten" />
		<tag k="natural" v="hill" />
		<tag k="place" v="locality" />
		<tag k="ssr:stedsnr" v="760383" />
	</node>
	<node id="-545028" lat="62.0238222219" lon="6.54577500223">
		<tag k="name" v="Ryggen" />
		<tag k="natural" v="ridge" />
		<tag k="place" v="locality" />
		<tag k="ssr:stedsnr" v="760367" />
	</node>
	<node id="-545027" lat="62.0175472254" lon="6.54455833801">
		<tag k="name" v="Piparholten" />
		<tag k="natural" v="hill" />
		<tag k="place" v="locality" />
		<tag k="ssr:stedsnr" v="760364" />
	</node>
	<node id="-545026" lat="62.0156583378" lon="6.67405">
		<tag k="name" v="Nyelhaugen" />
		<tag k="natural" v="hill" />
		<tag k="place" v="locality" />
		<tag k="ssr:stedsnr" v="760327" />
	</node>
	<node id="-545025" lat="61.9500111155" lon="6.48846389193">
		<tag k="name" v="Hildehjellen" />
		<tag k="natural" v="hill" />
		<tag k="place" v="locality" />
		<tag k="ssr:stedsnr" v="760312" />
	</node>
	<node id="-545008" lat="61.9732611123" lon="6.69733056433">
		<tag k="fixme" v="consider natural=peak for the most distinct mountains in the district" />
		<tag k="name" v="Nonsteinsfjellet" />
		<tag k="natural" v="hill" />
		<tag k="place" v="locality" />
		<tag k="ssr:stedsnr" v="738245" />
	</node>
	<node id="-545004" lat="61.9337750017" lon="6.50105555293">
		<tag k="fixme" v="consider natural=peak for the most distinct mountains in the district" />
		<tag k="name" v="Storehaugen" />
		<tag k="natural" v="hill" />
		<tag k="place" v="locality" />
		<tag k="ssr:stedsnr" v="699417" />
	</node>
	<node id="-545003" lat="61.9998277776" lon="6.49470554816">
		<tag k="name" v="Skogalebakkane" />
		<tag k="natural" v="slope" />
		<tag k="place" v="locality" />
		<tag k="ssr:stedsnr" v="699409" />
	</node>
	<node id="-545002" lat="61.9906416692" lon="6.43506387917">
		<tag k="name" v="Svartefjellet" />
		<tag k="place" v="locality" />
		<tag k="ssr:stedsnr" v="699402" />
	</node>
	<node id="-545001" lat="61.985127778" lon="6.43784444859">
		<tag k="name" v="Ingeborghesjane" />
		<tag k="place" v="locality" />
		<tag k="ssr:stedsnr" v="699394" />
	</node>
	<node id="-545000" lat="61.9965249991" lon="6.53840278654">
		<tag k="name" v="Geilane" />
		<tag k="place" v="locality" />
		<tag k="ssr:stedsnr" v="699393" />
	</node>
	<node id="-544999" lat="61.9611499968" lon="6.56890833362">
		<tag k="name" v="Kyrkja" />
		<tag k="natural" v="hill" />
		<tag k="place" v="locality" />
		<tag k="ssr:stedsnr" v="699381" />
	</node>
	<node id="-544998" lat="61.9815750021" lon="6.53294999657">
		<tag k="name" v="Lønsmarka" />
		<tag k="place" v="locality" />
		<tag k="ssr:stedsnr" v="699373" />
	</node>
	<node id="-544997" lat="61.988194446" lon="6.55663610284">
		<tag k="name" v="Tomasgardmarka" />
		<tag k="place" v="locality" />
		<tag k="ssr:stedsnr" v="699360" />
	</node>
	<node id="-544996" lat="61.9901138848" lon="6.63054721685">
		<tag k="name" v="Taraldsetlia" />
		<tag k="natural" v="slope" />
		<tag k="place" v="locality" />
		<tag k="ssr:stedsnr" v="699347" />
	</node>
	<node id="-544995" lat="62.0048916623" lon="6.66023888456">
		<tag k="name" v="Gjølet" />
		<tag k="place" v="locality" />
		<tag k="ssr:stedsnr" v="699345" />
	</node>
	<node id="-544994" lat="61.9827583341" lon="6.62661388847">
		<tag k="name" v="Godfartreet" />
		<tag k="natural" v="gorge" />
		<tag k="ssr:stedsnr" v="699335" />
	</node>
	<node id="-544993" lat="62.0069555545" lon="6.63884166615">
		<tag k="name" v="Lægda" />
		<tag k="natural" v="slope" />
		<tag k="place" v="locality" />
		<tag k="ssr:stedsnr" v="699326" />
	</node>
	<node id="-544992" lat="62.0247083317" lon="6.58874166326">
		<tag k="name" v="Smalelvtunet" />
		<tag k="place" v="locality" />
		<tag k="ssr:stedsnr" v="699324" />
	</node>
	<node id="-544991" lat="62.0030666683" lon="6.6811194394">
		<tag k="name" v="Høgehaugen" />
		<tag k="natural" v="hill" />
		<tag k="place" v="locality" />
		<tag k="ssr:stedsnr" v="699321" />
	</node>
	<node id="-544990" lat="61.9994999966" lon="6.67786943648">
		<tag k="name" v="Haraldereva" />
		<tag k="place" v="locality" />
		<tag k="ssr:stedsnr" v="699316" />
	</node>
	<node id="-544989" lat="62.0054000011" lon="6.69197221286">
		<tag k="name" v="Akslebakkane" />
		<tag k="natural" v="slope" />
		<tag k="place" v="locality" />
		<tag k="ssr:stedsnr" v="699315" />
	</node>
	<node id="-544988" lat="61.9917694475" lon="6.69095278097">
		<tag k="name" v="Brenden" />
		<tag k="place" v="locality" />
		<tag k="ssr:stedsnr" v="699313" />
	</node>
	<node id="-544987" lat="61.954811107" lon="6.49097778679">
		<tag k="name" v="Kloven" />
		<tag k="natural" v="hill" />
		<tag k="place" v="locality" />
		<tag k="ssr:stedsnr" v="699287" />
	</node>
	<node id="-544978" lat="62.0232777742" lon="6.58897500941">
		<tag k="name" v="Hjortedalen" />
		<tag k="natural" v="valley" />
		<tag k="place" v="locality" />
		<tag k="ssr:stedsnr" v="678688" />
	</node>
	<node id="-544968" lat="61.9635194405" lon="6.6005166615">
		<tag k="name" v="Kyrhornsdalen" />
		<tag k="natural" v="valley" />
		<tag k="place" v="locality" />
		<tag k="ssr:stedsnr" v="677185" />
	</node>
	<node id="-544965" lat="61.9773722204" lon="6.52537223146">
		<tag k="name" v="Prestegardskroken" />
		<tag k="place" v="locality" />
		<tag k="ssr:stedsnr" v="638626" />
	</node>
	<node id="-544963" lat="61.9295777786" lon="6.50988333452">
		<tag k="name" v="Skaret" />
		<tag k="natural" v="valley" />
		<tag k="place" v="locality" />
		<tag k="ssr:stedsnr" v="638405" />
	</node>
	<node id="-544962" lat="61.9356666681" lon="6.4938944471">
		<tag k="name" v="Holehammaren" />
		<tag k="natural" v="hill" />
		<tag k="place" v="locality" />
		<tag k="ssr:stedsnr" v="638395" />
	</node>
	<node id="-544961" lat="61.9827888905" lon="6.48479166242">
		<tag k="name" v="Blåsvedene" />
		<tag k="place" v="locality" />
		<tag k="ssr:stedsnr" v="638382" />
	</node>
	<node id="-544960" lat="61.9830166693" lon="6.43843333828">
		<tag k="name" v="Svarthammaren" />
		<tag k="natural" v="hill" />
		<tag k="place" v="locality" />
		<tag k="ssr:stedsnr" v="638376" />
	</node>
	<node id="-544959" lat="62.0028666639" lon="6.53144722214">
		<tag k="name" v="Ulvegjølet" />
		<tag k="natural" v="hill" />
		<tag k="place" v="locality" />
		<tag k="ssr:stedsnr" v="638373" />
	</node>
	<node id="-544958" lat="61.9795777773" lon="6.51973332727">
		<tag k="name" v="Porsemyrbakkane" />
		<tag k="natural" v="slope" />
		<tag k="place" v="locality" />
		<tag k="ssr:stedsnr" v="638364" />
	</node>
	<node id="-544957" lat="61.9656166698" lon="6.5323555503">
		<tag k="name" v="Hogden" />
		<tag k="natural" v="hill" />
		<tag k="place" v="locality" />
		<tag k="ssr:stedsnr" v="638361" />
	</node>
	<node id="-544956" lat="62.0034638909" lon="6.59021111139">
		<tag k="name" v="Verslesvoda" />
		<tag k="natural" v="slope" />
		<tag k="place" v="locality" />
		<tag k="ssr:stedsnr" v="638356" />
	</node>
	<node id="-544954" lat="62.0031611095" lon="6.54718055793">
		<tag k="name" v="Harevadet" />
		<tag k="place" v="locality" />
		<tag k="ssr:stedsnr" v="638347" />
	</node>
	<node id="-544953" lat="61.9880111078" lon="6.5417222223">
		<tag k="name" v="Trøda" />
		<tag k="place" v="locality" />
		<tag k="ssr:stedsnr" v="638346" />
	</node>
	<node id="-544952" lat="61.9994166656" lon="6.55632777441">
		<tag k="name" v="Holane" />
		<tag k="place" v="locality" />
		<tag k="ssr:stedsnr" v="638345" />
	</node>
	<node id="-544951" lat="62.0017416685" lon="6.55183611387">
		<tag k="name" v="Holebakkane" />
		<tag k="natural" v="slope" />
		<tag k="place" v="locality" />
		<tag k="ssr:stedsnr" v="638343" />
	</node>
	<node id="-544950" lat="62.0149972245" lon="6.57431388575">
		<tag k="name" v="Slaktarbakken" />
		<tag k="natural" v="slope" />
		<tag k="place" v="locality" />
		<tag k="ssr:stedsnr" v="638327" />
	</node>
	<node id="-544949" lat="62.0011527749" lon="6.67299445097">
		<tag k="name" v="Brubakken" />
		<tag k="natural" v="slope" />
		<tag k="place" v="locality" />
		<tag k="ssr:stedsnr" v="638321" />
	</node>
	<node id="-544948" lat="61.9957805557" lon="6.67744165983">
		<tag k="name" v="Høgetreteigen" />
		<tag k="place" v="locality" />
		<tag k="ssr:stedsnr" v="638316" />
	</node>
	<node id="-544947" lat="61.9899527785" lon="6.69463333059">
		<tag k="name" v="Ørnepurka" />
		<tag k="place" v="locality" />
		<tag k="ssr:stedsnr" v="638313" />
	</node>
	<node id="-544946" lat="62.0272472207" lon="6.69869166183">
		<tag k="name" v="Bjørnalogen" />
		<tag k="natural" v="slope" />
		<tag k="place" v="locality" />
		<tag k="ssr:stedsnr" v="638297" />
	</node>
	<node id="-544945" lat="62.026880552" lon="6.70476111153">
		<tag k="name" v="Bjørnaura" />
		<tag k="natural" v="slope" />
		<tag k="place" v="locality" />
		<tag k="ssr:stedsnr" v="638291" />
	</node>
	<node id="-544944" lat="62.0129611081" lon="6.71884166326">
		<tag k="name" v="Rauderadet" />
		<tag k="natural" v="hill" />
		<tag k="place" v="locality" />
		<tag k="ssr:stedsnr" v="638288" />
	</node>
	<node id="-544943" lat="61.9564111108" lon="6.48204721902">
		<tag k="name" v="Kleivabakken" />
		<tag k="natural" v="slope" />
		<tag k="place" v="locality" />
		<tag k="ssr:stedsnr" v="638285" />
	</node>
	<node id="-544942" lat="61.9529777777" lon="6.48346388203">
		<tag k="name" v="Fossane" />
		<tag k="natural" v="hill" />
		<tag k="place" v="locality" />
		<tag k="ssr:stedsnr" v="638282" />
	</node>
	<node id="-544937" lat="61.9896972219" lon="6.44007776855">
		<tag k="name" v="Otterdal" />
		<tag k="natural" v="valley" />
		<tag k="place" v="locality" />
		<tag k="ssr:stedsnr" v="617831" />
	</node>
	<node id="-544936" lat="61.9990638861" lon="6.4448305579">
		<tag k="name" v="Storehaugen" />
		<tag k="natural" v="hill" />
		<tag k="place" v="locality" />
		<tag k="ssr:stedsnr" v="617830" />
	</node>
	<node id="-544935" lat="62.072027782" lon="6.65761110462">
		<tag k="fixme" v="consider natural=peak for the most distinct mountains in the district" />
		<tag k="name" v="Hornindalsrokken" />
		<tag k="natural" v="hill" />
		<tag k="place" v="locality" />
		<tag k="ssr:stedsnr" v="617759" />
	</node>
	<node id="-544934" lat="62.0679194403" lon="6.64510277957">
		<tag k="name" v="Tysseholten" />
		<tag k="natural" v="hill" />
		<tag k="place" v="locality" />
		<tag k="ssr:stedsnr" v="617741" />
	</node>
	<node id="-544933" lat="62.0352583377" lon="6.67721111566">
		<tag k="name" v="Sætredalen" />
		<tag k="natural" v="valley" />
		<tag k="place" v="locality" />
		<tag k="ssr:stedsnr" v="617710" />
	</node>
	<node id="-544932" lat="62.0349388924" lon="6.64757777048">
		<tag k="name" v="Kringdalen" />
		<tag k="natural" v="valley" />
		<tag k="place" v="locality" />
		<tag k="ssr:stedsnr" v="617708" />
	</node>
	<node id="-544931" lat="62.0160138888" lon="6.42804444985">
		<tag k="name" v="Otredalsskaret" />
		<tag k="natural" v="valley" />
		<tag k="place" v="locality" />
		<tag k="ssr:stedsnr" v="617292" />
	</node>
	<node id="-544929" lat="61.9290833346" lon="6.51383888841">
		<tag k="name" v="Branden" />
		<tag k="natural" v="hill" />
		<tag k="place" v="locality" />
		<tag k="ssr:stedsnr" v="616971" />
	</node>
	<node id="-544926" lat="61.9468805598" lon="6.52503611156">
		<tag k="fixme" v="multiple name tags, choose one and add the other to alt_name; consider natural=peak for the most distinct mountains in the district" />
		<tag k="name" v="Middagsfjellet;Øyenibba" />
		<tag k="natural" v="hill" />
		<tag k="place" v="locality" />
		<tag k="ssr:stedsnr" v="616895" />
	</node>
	<node id="-544918" lat="61.9923750039" lon="6.446624994">
		<tag k="name" v="Råsa" />
		<tag k="place" v="locality" />
		<tag k="ssr:stedsnr" v="578390" />
	</node>
	<node id="-544917" lat="61.9757472178" lon="6.49915555279">
		<tag k="name" v="Kvilet" />
		<tag k="place" v="locality" />
		<tag k="ssr:stedsnr" v="578389" />
	</node>
	<node id="-544916" lat="61.9795638847" lon="6.50875833583">
		<tag k="name" v="Vellebakken" />
		<tag k="natural" v="slope" />
		<tag k="place" v="locality" />
		<tag k="ssr:stedsnr" v="578385" />
	</node>
	<node id="-544915" lat="62.011652778" lon="6.57348055931">
		<tag k="name" v="Arnehjellen" />
		<tag k="natural" v="hill" />
		<tag k="place" v="locality" />
		<tag k="ssr:stedsnr" v="578327" />
	</node>
	<node id="-544914" lat="61.9960861136" lon="6.66825277947">
		<tag k="name" v="Bakkane" />
		<tag k="natural" v="slope" />
		<tag k="place" v="locality" />
		<tag k="ssr:stedsnr" v="578318" />
	</node>
	<node id="-544913" lat="61.9728333351" lon="6.71953055551">
		<tag k="name" v="Tullerinden" />
		<tag k="natural" v="hill" />
		<tag k="place" v="locality" />
		<tag k="ssr:stedsnr" v="578307" />
	</node>
	<node id="-544912" lat="62.0192027784" lon="6.71922500825">
		<tag k="name" v="Råsahaugane" />
		<tag k="natural" v="hill" />
		<tag k="place" v="locality" />
		<tag k="ssr:stedsnr" v="578293" />
	</node>
	<node id="-544905" lat="61.9403388921" lon="6.50500832987">
		<tag k="name" v="Bratta" />
		<tag k="natural" v="slope" />
		<tag k="place" v="locality" />
		<tag k="ssr:stedsnr" v="577452" />
	</node>
	<node id="-544904" lat="61.9924277764" lon="6.49108610571">
		<tag k="name" v="Bjørkehaugen" />
		<tag k="natural" v="hill" />
		<tag k="place" v="locality" />
		<tag k="ssr:stedsnr" v="577439" />
	</node>
	<node id="-544903" lat="62.0029638876" lon="6.49458888396">
		<tag k="name" v="Kvithella" />
		<tag k="place" v="locality" />
		<tag k="ssr:stedsnr" v="577431" />
	</node>
	<node id="-544902" lat="62.0034333343" lon="6.48374444367">
		<tag k="name" v="Hilla" />
		<tag k="natural" v="hill" />
		<tag k="place" v="locality" />
		<tag k="ssr:stedsnr" v="577432" />
	</node>
	<node id="-544901" lat="61.989941667" lon="6.50407222521">
		<tag k="name" v="Teigen" />
		<tag k="place" v="locality" />
		<tag k="ssr:stedsnr" v="577403" />
	</node>
	<node id="-544900" lat="61.9521611116" lon="6.54342499162">
		<tag k="name" v="Gløshammaren" />
		<tag k="natural" v="hill" />
		<tag k="place" v="locality" />
		<tag k="ssr:stedsnr" v="577394" />
	</node>
	<node id="-544899" lat="61.962380556" lon="6.56239165792">
		<tag k="name" v="Flatene" />
		<tag k="place" v="locality" />
		<tag k="ssr:stedsnr" v="577392" />
	</node>
	<node id="-544898" lat="61.9834527766" lon="6.55838055228">
		<tag k="name" v="Tomasgardmarka" />
		<tag k="place" v="locality" />
		<tag k="ssr:stedsnr" v="577359" />
	</node>
	<node id="-544897" lat="62.0227861079" lon="6.68258054715">
		<tag k="name" v="Hornindalslida" />
		<tag k="natural" v="slope" />
		<tag k="place" v="locality" />
		<tag k="ssr:stedsnr" v="576033" />
	</node>
	<node id="-544895" lat="61.9434222207" lon="6.50534721306">
		<tag k="name" v="Novene" />
		<tag k="natural" v="hill" />
		<tag k="place" v="locality" />
		<tag k="ssr:stedsnr" v="573163" />
	</node>
	<node id="-544894" lat="61.9269888852" lon="6.49091388278">
		<tag k="name" v="Jutdalslida" />
		<tag k="natural" v="slope" />
		<tag k="place" v="locality" />
		<tag k="ssr:stedsnr" v="556973" />
	</node>
	<node id="-544893" lat="61.9754138877" lon="6.49563889664">
		<tag k="alt_name" v="Hornsnakken" />
		<tag k="fixme" v="consider natural=peak for the most distinct mountains in the district" />
		<tag k="name" v="Ytrehornsnakken" />
		<tag k="natural" v="hill" />
		<tag k="place" v="locality" />
		<tag k="ssr:stedsnr" v="556858" />
	</node>
	<node id="-544887" lat="61.9779694429" lon="6.6076666703">
		<tag k="name" v="Myraftaholten" />
		<tag k="natural" v="hill" />
		<tag k="place" v="locality" />
		<tag k="ssr:stedsnr" v="556300" />
	</node>
	<node id="-544886" lat="61.9846138879" lon="6.66692221874">
		<tag k="name" v="Spelevollen" />
		<tag k="place" v="locality" />
		<tag k="ssr:stedsnr" v="556292" />
	</node>
	<node id="-544883" lat="61.9653277798" lon="6.57097221999">
		<tag k="name" v="Nonskora" />
		<tag k="place" v="locality" />
		<tag k="ssr:stedsnr" v="555860" />
	</node>
	<node id="-544881" lat="61.9648027766" lon="6.61762778485">
		<tag k="name" v="Botnagavlen" />
		<tag k="natural" v="ridge" />
		<tag k="place" v="locality" />
		<tag k="ssr:stedsnr" v="555154" />
	</node>
	<node id="-544878" lat="61.9972055537" lon="6.45421389342">
		<tag k="name" v="Tågefurnausane" />
		<tag k="natural" v="mountain_range" />
		<tag k="ssr:stedsnr" v="517416" />
	</node>
	<node id="-544877" lat="61.9879055534" lon="6.43741111998">
		<tag k="name" v="Trollhammaren" />
		<tag k="natural" v="hill" />
		<tag k="place" v="locality" />
		<tag k="ssr:stedsnr" v="517412" />
	</node>
	<node id="-544876" lat="62.0065166679" lon="6.43022222829">
		<tag k="name" v="Buvass-skredene" />
		<tag k="natural" v="gorge" />
		<tag k="ssr:stedsnr" v="517403" />
	</node>
	<node id="-544875" lat="61.9744944421" lon="6.50587221522">
		<tag k="name" v="Nakkebruna" />
		<tag k="natural" v="slope" />
		<tag k="place" v="locality" />
		<tag k="ssr:stedsnr" v="517401" />
	</node>
	<node id="-544874" lat="61.977655554" lon="6.50482221309">
		<tag k="name" v="Stokkegardhola" />
		<tag k="natural" v="valley" />
		<tag k="place" v="locality" />
		<tag k="ssr:stedsnr" v="517397" />
	</node>
	<node id="-544873" lat="61.978897222" lon="6.43820277345">
		<tag k="name" v="Kvithammaren" />
		<tag k="natural" v="hill" />
		<tag k="place" v="locality" />
		<tag k="ssr:stedsnr" v="517391" />
	</node>
	<node id="-544872" lat="62.002341671" lon="6.63673888357">
		<tag k="name" v="Rinden" />
		<tag k="natural" v="ridge" />
		<tag k="place" v="locality" />
		<tag k="ssr:stedsnr" v="517353" />
	</node>
	<node id="-544871" lat="61.9998472249" lon="6.65945832811">
		<tag k="name" v="Hjellane" />
		<tag k="natural" v="slope" />
		<tag k="place" v="locality" />
		<tag k="ssr:stedsnr" v="517349" />
	</node>
	<node id="-544870" lat="61.9950111069" lon="6.65365000163">
		<tag k="name" v="Geilane" />
		<tag k="natural" v="slope" />
		<tag k="place" v="locality" />
		<tag k="ssr:stedsnr" v="517347" />
	</node>
	<node id="-544869" lat="61.9863694434" lon="6.63675278427">
		<tag k="name" v="Bøfura" />
		<tag k="natural" v="slope" />
		<tag k="place" v="locality" />
		<tag k="ssr:stedsnr" v="517345" />
	</node>
	<node id="-544868" lat="62.0141888909" lon="6.54916667144">
		<tag k="name" v="Høgeholten" />
		<tag k="natural" v="hill" />
		<tag k="place" v="locality" />
		<tag k="ssr:stedsnr" v="517334" />
	</node>
	<node id="-544867" lat="62.0135249961" lon="6.55794999111">
		<tag k="name" v="Svartehammaren" />
		<tag k="natural" v="hill" />
		<tag k="place" v="locality" />
		<tag k="ssr:stedsnr" v="517333" />
	</node>
	<node id="-544866" lat="61.9857611104" lon="6.70053056511">
		<tag k="name" v="Svartelandet" />
		<tag k="place" v="locality" />
		<tag k="ssr:stedsnr" v="517317" />
	</node>
	<node id="-544865" lat="61.9811527764" lon="6.71799166668">
		<tag k="name" v="Nyelasvora" />
		<tag k="natural" v="hill" />
		<tag k="place" v="locality" />
		<tag k="ssr:stedsnr" v="517314" />
	</node>
	<node id="-544864" lat="62.0177194444" lon="6.66392221781">
		<tag k="name" v="Hovden" />
		<tag k="natural" v="hill" />
		<tag k="place" v="locality" />
		<tag k="ssr:stedsnr" v="517308" />
	</node>
	<node id="-544863" lat="62.0114333363" lon="6.68588888921">
		<tag k="name" v="Stor-Ola plassen" />
		<tag k="place" v="locality" />
		<tag k="ssr:stedsnr" v="517301" />
	</node>
	<node id="-544859" lat="62.0396888854" lon="6.58566110446">
		<tag k="name" v="Blåbreddalen" />
		<tag k="natural" v="valley" />
		<tag k="place" v="locality" />
		<tag k="ssr:stedsnr" v="496711" />
	</node>
	<node id="-544858" lat="62.0316194474" lon="6.57117499084">
		<tag k="fixme" v="consider natural=peak for the most distinct mountains in the district" />
		<tag k="name" v="Ytre Aksla" />
		<tag k="natural" v="hill" />
		<tag k="place" v="locality" />
		<tag k="ssr:stedsnr" v="496706" />
	</node>
	<node id="-544857" lat="62.0467361114" lon="6.64898055208">
		<tag k="fixme" v="consider natural=peak for the most distinct mountains in the district" />
		<tag k="name" v="Nausen" />
		<tag k="natural" v="hill" />
		<tag k="place" v="locality" />
		<tag k="ssr:stedsnr" v="496701" />
	</node>
	<node id="-544855" lat="61.9317888927" lon="6.4935694518">
		<tag k="name" v="Storehaugen" />
		<tag k="natural" v="hill" />
		<tag k="place" v="locality" />
		<tag k="ssr:stedsnr" v="495924" />
	</node>
	<node id="-544853" lat="61.9487525146" lon="6.54836258883">
		<tag k="name" v="Gaddelia" />
		<tag k="natural" v="slope" />
		<tag k="place" v="locality" />
		<tag k="ssr:stedsnr" v="495900" />
	</node>
	<node id="-544851" lat="61.9950638882" lon="6.47444721594">
		<tag k="fixme" v="consider natural=peak for the most distinct mountains in the district" />
		<tag k="name" v="Svarthamrane" />
		<tag k="natural" v="hill" />
		<tag k="place" v="locality" />
		<tag k="ssr:stedsnr" v="495889" />
	</node>
	<node id="-544848" lat="61.9769611104" lon="6.46416943678">
		<tag k="name" v="Høgefloget" />
		<tag k="natural" v="hill" />
		<tag k="place" v="locality" />
		<tag k="ssr:stedsnr" v="495862" />
	</node>
	<node id="-544847" lat="61.9956972213" lon="6.47169999334">
		<tag k="fixme" v="consider natural=peak for the most distinct mountains in the district" />
		<tag k="name" v="Gløvrefjellet" />
		<tag k="natural" v="hill" />
		<tag k="place" v="locality" />
		<tag k="ssr:stedsnr" v="495841" />
	</node>
	<node id="-544841" lat="62.0015555563" lon="6.50192778387">
		<tag k="name" v="Grendaberget" />
		<tag k="natural" v="hill" />
		<tag k="place" v="locality" />
		<tag k="ssr:stedsnr" v="457419" />
	</node>
	<node id="-544840" lat="62.0049444475" lon="6.44115555031">
		<tag k="name" v="Langhamrane" />
		<tag k="natural" v="hill" />
		<tag k="place" v="locality" />
		<tag k="ssr:stedsnr" v="457409" />
	</node>
	<node id="-544839" lat="61.9734833369" lon="6.46557778069">
		<tag k="name" v="Djuphammaren" />
		<tag k="natural" v="hill" />
		<tag k="place" v="locality" />
		<tag k="ssr:stedsnr" v="457399" />
	</node>
	<node id="-544838" lat="61.9773777751" lon="6.43802499481">
		<tag k="name" v="Svartehamrane" />
		<tag k="natural" v="hill" />
		<tag k="place" v="locality" />
		<tag k="ssr:stedsnr" v="457396" />
	</node>
	<node id="-544837" lat="61.9994249974" lon="6.53771388072">
		<tag k="name" v="Sjølskotet" />
		<tag k="place" v="locality" />
		<tag k="ssr:stedsnr" v="457388" />
	</node>
	<node id="-544836" lat="61.9899944456" lon="6.50758611475">
		<tag k="name" v="Kipaplassen" />
		<tag k="place" v="locality" />
		<tag k="ssr:stedsnr" v="457387" />
	</node>
	<node id="-544835" lat="61.9556472193" lon="6.5700527844">
		<tag k="name" v="Geitskarhola" />
		<tag k="natural" v="valley" />
		<tag k="place" v="locality" />
		<tag k="ssr:stedsnr" v="457384" />
	</node>
	<node id="-544834" lat="61.975761114" lon="6.51938333447">
		<tag k="name" v="Grønevollen" />
		<tag k="place" v="locality" />
		<tag k="ssr:stedsnr" v="457373" />
	</node>
	<node id="-544832" lat="62.0035166672" lon="6.63465832399">
		<tag k="name" v="Haugenbakkane" />
		<tag k="natural" v="slope" />
		<tag k="place" v="locality" />
		<tag k="ssr:stedsnr" v="457358" />
	</node>
	<node id="-544831" lat="61.9869027815" lon="6.63038333282">
		<tag k="name" v="Myrlabakkane" />
		<tag k="natural" v="slope" />
		<tag k="place" v="locality" />
		<tag k="ssr:stedsnr" v="457353" />
	</node>
	<node id="-544830" lat="61.9877944478" lon="6.64453888865">
		<tag k="name" v="Klypebakken" />
		<tag k="natural" v="slope" />
		<tag k="place" v="locality" />
		<tag k="ssr:stedsnr" v="457351" />
	</node>
	<node id="-544829" lat="62.0115944441" lon="6.56853611564">
		<tag k="name" v="Kleivingane" />
		<tag k="place" v="locality" />
		<tag k="ssr:stedsnr" v="457342" />
	</node>
	<node id="-544828" lat="62.0096277791" lon="6.58245277468">
		<tag k="name" v="Blomskredene" />
		<tag k="natural" v="gorge" />
		<tag k="ssr:stedsnr" v="457338" />
	</node>
	<node id="-544827" lat="62.0176833341" lon="6.58744721798">
		<tag k="name" v="Nausen" />
		<tag k="natural" v="hill" />
		<tag k="place" v="locality" />
		<tag k="ssr:stedsnr" v="457334" />
	</node>
	<node id="-544826" lat="61.9914361125" lon="6.67763333559">
		<tag k="name" v="Kusvadet" />
		<tag k="natural" v="slope" />
		<tag k="place" v="locality" />
		<tag k="ssr:stedsnr" v="457320" />
	</node>
	<node id="-544825" lat="62.002597224" lon="6.69343611084">
		<tag k="name" v="Gauphamrane" />
		<tag k="natural" v="hill" />
		<tag k="place" v="locality" />
		<tag k="ssr:stedsnr" v="457319" />
	</node>
	<node id="-544824" lat="61.9927611153" lon="6.70223889062">
		<tag k="name" v="Blomrusta" />
		<tag k="natural" v="slope" />
		<tag k="place" v="locality" />
		<tag k="ssr:stedsnr" v="457317" />
	</node>
	<node id="-544823" lat="62.0246805542" lon="6.67434166162">
		<tag k="name" v="Trollhaugen" />
		<tag k="natural" v="hill" />
		<tag k="place" v="locality" />
		<tag k="ssr:stedsnr" v="457308" />
	</node>
	<node id="-544822" lat="61.9563611139" lon="6.51689721283">
		<tag k="name" v="Svarterota" />
		<tag k="natural" v="hill" />
		<tag k="place" v="locality" />
		<tag k="ssr:stedsnr" v="457286" />
	</node>
	<node id="-544821" lat="61.9460250034" lon="6.50832221814">
		<tag k="name" v="Nausen" />
		<tag k="natural" v="hill" />
		<tag k="place" v="locality" />
		<tag k="ssr:stedsnr" v="457282" />
	</node>
	<node id="-544820" lat="61.9610611086" lon="6.50621110692">
		<tag k="name" v="Kilda" />
		<tag k="natural" v="slope" />
		<tag k="place" v="locality" />
		<tag k="ssr:stedsnr" v="457280" />
	</node>
	<node id="-544812" lat="61.9444833306" lon="6.49435833729">
		<tag k="fixme" v="consider natural=peak for the most distinct mountains in the district" />
		<tag k="name" v="Nausen" />
		<tag k="natural" v="hill" />
		<tag k="place" v="locality" />
		<tag k="ssr:stedsnr" v="435943" />
	</node>
	<node id="-544811" lat="61.9488749168" lon="6.55662549473">
		<tag k="name" v="Gropa" />
		<tag k="natural" v="hill" />
		<tag k="place" v="locality" />
		<tag k="ssr:stedsnr" v="435935" />
	</node>
	<node id="-544809" lat="61.9762166655" lon="6.5363222295">
		<tag k="fixme" v="consider natural=peak for the most distinct mountains in the district" />
		<tag k="name" v="Aksla" />
		<tag k="natural" v="hill" />
		<tag k="place" v="locality" />
		<tag k="ssr:stedsnr" v="435876" />
	</node>
	<node id="-544807" lat="62.0520222221" lon="6.6205388896">
		<tag k="fixme" v="consider natural=peak for the most distinct mountains in the district" />
		<tag k="name" v="Tussa" />
		<tag k="natural" v="hill" />
		<tag k="place" v="locality" />
		<tag k="ssr:stedsnr" v="435734" />
	</node>
	<node id="-544804" lat="61.9546777774" lon="6.46386111521">
		<tag k="name" v="Kjøsahammaren" />
		<tag k="natural" v="hill" />
		<tag k="place" v="locality" />
		<tag k="ssr:stedsnr" v="434852" />
	</node>
	<node id="-544803" lat="62.0388527812" lon="6.56164722006">
		<tag k="name" v="Litledalen" />
		<tag k="natural" v="valley" />
		<tag k="place" v="locality" />
		<tag k="ssr:stedsnr" v="254682" />
	</node>
	<node id="-544800" lat="61.9778527807" lon="6.5623250042">
		<tag k="name" v="Olaskora" />
		<tag k="natural" v="slope" />
		<tag k="place" v="locality" />
		<tag k="ssr:stedsnr" v="253871" />
	</node>
	<node id="-544798" lat="61.9779833373" lon="6.57979721622">
		<tag k="fixme" v="consider natural=peak for the most distinct mountains in the district" />
		<tag k="name" v="Sætrehornet" />
		<tag k="natural" v="hill" />
		<tag k="place" v="locality" />
		<tag k="ssr:stedsnr" v="253870" />
	</node>
	<node id="-544797" lat="62.0414777767" lon="6.56484167293">
		<tag k="name" v="Litledalsegga" />
		<tag k="natural" v="ridge" />
		<tag k="place" v="locality" />
		<tag k="ssr:stedsnr" v="253719" />
	</node>
	<node id="-544796" lat="62.025030557" lon="6.52478611831">
		<tag k="name" v="Guridalen" />
		<tag k="natural" v="valley" />
		<tag k="place" v="locality" />
		<tag k="ssr:stedsnr" v="253700" />
	</node>
	<node id="-544792" lat="61.9349194416" lon="6.49964723181">
		<tag k="name" v="Brattesvadlia" />
		<tag k="natural" v="slope" />
		<tag k="place" v="locality" />
		<tag k="ssr:stedsnr" v="214437" />
	</node>
	<node id="-544791" lat="62.0044916663" lon="6.51367222264">
		<tag k="name" v="Fossesvadet" />
		<tag k="natural" v="hill" />
		<tag k="place" v="locality" />
		<tag k="ssr:stedsnr" v="214423" />
	</node>
	<node id="-544790" lat="61.9888861127" lon="6.44743333584">
		<tag k="name" v="Nyeledet" />
		<tag k="place" v="locality" />
		<tag k="ssr:stedsnr" v="214414" />
	</node>
	<node id="-544789" lat="61.9890194464" lon="6.45743333299">
		<tag k="fixme" v="consider natural=peak for the most distinct mountains in the district" />
		<tag k="name" v="Furenakken" />
		<tag k="natural" v="hill" />
		<tag k="place" v="locality" />
		<tag k="ssr:stedsnr" v="214412" />
	</node>
	<node id="-544788" lat="61.9837916695" lon="6.48856388189">
		<tag k="name" v="Gropagjølet" />
		<tag k="natural" v="valley" />
		<tag k="place" v="locality" />
		<tag k="ssr:stedsnr" v="214399" />
	</node>
	<node id="-544787" lat="61.9814555526" lon="6.45960833971">
		<tag k="name" v="Bjørnastigen" />
		<tag k="natural" v="valley" />
		<tag k="place" v="locality" />
		<tag k="ssr:stedsnr" v="214397" />
	</node>
	<node id="-544786" lat="61.9847555555" lon="6.57634166939">
		<tag k="name" v="Instekvia" />
		<tag k="place" v="locality" />
		<tag k="ssr:stedsnr" v="214381" />
	</node>
	<node id="-544785" lat="62.0010305534" lon="6.61350834203">
		<tag k="name" v="Høglibakkane" />
		<tag k="natural" v="slope" />
		<tag k="place" v="locality" />
		<tag k="ssr:stedsnr" v="214377" />
	</node>
	<node id="-544784" lat="61.9939527789" lon="6.62735834174">
		<tag k="name" v="Vålane" />
		<tag k="natural" v="slope" />
		<tag k="place" v="locality" />
		<tag k="ssr:stedsnr" v="214355" />
	</node>
	<node id="-544783" lat="61.976880558" lon="6.54902222682">
		<tag k="name" v="Klubben" />
		<tag k="natural" v="hill" />
		<tag k="place" v="locality" />
		<tag k="ssr:stedsnr" v="214345" />
	</node>
	<node id="-544782" lat="62.0038249989" lon="6.66706944565">
		<tag k="name" v="Elvakroken" />
		<tag k="place" v="locality" />
		<tag k="ssr:stedsnr" v="214323" />
	</node>
	<node id="-544781" lat="61.9951277791" lon="6.70445555219">
		<tag k="name" v="Litleskaret" />
		<tag k="natural" v="valley" />
		<tag k="place" v="locality" />
		<tag k="ssr:stedsnr" v="214319" />
	</node>
	<node id="-544780" lat="62.0332777762" lon="6.67416111235">
		<tag k="name" v="Reset" />
		<tag k="natural" v="hill" />
		<tag k="place" v="locality" />
		<tag k="ssr:stedsnr" v="214311" />
	</node>
	<node id="-544779" lat="62.0184138926" lon="6.66777778002">
		<tag k="name" v="Litlehovden" />
		<tag k="natural" v="hill" />
		<tag k="place" v="locality" />
		<tag k="ssr:stedsnr" v="214309" />
	</node>
	<node id="-544778" lat="62.0234416657" lon="6.70965000717">
		<tag k="name" v="Elvabakkane" />
		<tag k="natural" v="slope" />
		<tag k="place" v="locality" />
		<tag k="ssr:stedsnr" v="214298" />
	</node>
	<node id="-544777" lat="62.0223499962" lon="6.7000222242">
		<tag k="name" v="Merkingsgardsbakken" />
		<tag k="natural" v="slope" />
		<tag k="place" v="locality" />
		<tag k="ssr:stedsnr" v="214297" />
	</node>
	<node id="-544772" lat="62.0414722255" lon="6.52658610549">
		<tag k="name" v="Kråpet" />
		<tag k="natural" v="valley" />
		<tag k="place" v="locality" />
		<tag k="ssr:stedsnr" v="193686" />
	</node>
</osm>
