<?xml version="1.0" encoding="UTF-8"?>
<osm generator="osmapis" version="0.6">
	<node id="-544767" lat="61.9851083379" lon="6.42853056208">
		<tag k="name" v="Svartfjellgrova" />
		<tag k="ssr:stedsnr" v="192892" />
		<tag k="waterway" v="stream" />
	</node>
	<node id="-544765" lat="61.9822361119" lon="6.59740554983">
		<tag k="name" v="Sætregrova" />
		<tag k="ssr:stedsnr" v="192271" />
		<tag k="waterway" v="stream" />
	</node>
	<node id="-544737" lat="61.9733194467" lon="6.7180083425">
		<tag k="name" v="Natakupelva" />
		<tag k="ssr:stedsnr" v="153259" />
		<tag k="waterway" v="river" />
	</node>
	<node id="-545104" lat="61.9874194433" lon="6.76131110956">
		<tag k="name" v="Terdalsvatnet" />
		<tag k="natural" v="water" />
		<tag k="ssr:stedsnr" v="920207" />
	</node>
	<node id="-544734" lat="62.0140722267" lon="6.61646944864">
		<tag k="name" v="Litledalsvatnet" />
		<tag k="natural" v="water" />
		<tag k="ssr:stedsnr" v="132243" />
	</node>
	<node id="-544727" lat="61.9631777739" lon="6.74471667256">
		<tag k="name" v="Botnavatnet" />
		<tag k="natural" v="water" />
		<tag k="ssr:stedsnr" v="131187" />
	</node>
	<node id="-544707" lat="61.9526666643" lon="6.45644443647">
		<tag k="name" v="Urvika" />
		<tag k="natural" v="bay" />
		<tag k="ssr:stedsnr" v="92285" />
	</node>
	<node id="-544706" lat="61.9751388866" lon="6.51882778641">
		<tag k="name" v="Kvitla" />
		<tag k="ssr:stedsnr" v="92264" />
		<tag k="waterway" v="river" />
	</node>
	<node id="-544705" lat="62.0189222198" lon="6.58776111142">
		<tag k="name" v="Krokgrova" />
		<tag k="ssr:stedsnr" v="92253" />
		<tag k="waterway" v="stream" />
	</node>
	<node id="-544695" lat="62.0572944434" lon="6.67330833093">
		<tag k="name" v="Store Luka" />
		<tag k="natural" v="water" />
		<tag k="ssr:stedsnr" v="71744" />
	</node>
	<node id="-544669" lat="61.9452305537" lon="6.47248333957">
		<tag k="name" v="Smellen" />
		<tag k="natural" v="beach" />
		<tag k="ssr:stedsnr" v="32270" />
	</node>
	<node id="-544667" lat="61.979297218" lon="6.45514722707">
		<tag k="name" v="Otredalsstranda" />
		<tag k="natural" v="beach" />
		<tag k="ssr:stedsnr" v="32249" />
	</node>
	<node id="-544666" lat="61.9771638889" lon="6.45894723">
		<tag k="name" v="Høgefloggrova" />
		<tag k="ssr:stedsnr" v="32248" />
		<tag k="waterway" v="stream" />
	</node>
	<node id="-544665" lat="61.9853555569" lon="6.45892777398">
		<tag k="name" v="Strekegrova" />
		<tag k="ssr:stedsnr" v="32243" />
		<tag k="waterway" v="stream" />
	</node>
	<node id="-544664" lat="61.9373305576" lon="6.52487499867">
		<tag k="name" v="Botnagrova" />
		<tag k="ssr:stedsnr" v="32241" />
		<tag k="waterway" v="stream" />
	</node>
	<node id="-544663" lat="62.0273944476" lon="6.58761388013">
		<tag k="name" v="Blabredøla" />
		<tag k="ssr:stedsnr" v="32217" />
		<tag k="waterway" v="river" />
	</node>
	<node id="-544654" lat="61.9797666663" lon="6.44944443509">
		<tag k="name" v="Otredalsbukta" />
		<tag k="natural" v="bay" />
		<tag k="ssr:stedsnr" v="10854" />
	</node>
	<node id="-544630" lat="61.9937888902" lon="6.57480832825">
		<tag k="name" v="Krokaøya" />
		<tag k="place" v="islet" />
		<tag k="ssr:stedsnr" v="882253" />
	</node>
	<node id="-544629" lat="61.9720666624" lon="6.47226389097">
		<tag k="name" v="Merkingsgjølet" />
		<tag k="ssr:stedsnr" v="882244" />
		<tag k="waterway" v="stream" />
	</node>
	<node id="-544628" lat="61.9826416635" lon="6.50796943783">
		<tag k="name" v="Brokøya" />
		<tag k="natural" v="cape" />
		<tag k="ssr:stedsnr" v="882245" />
	</node>
	<node id="-545126" lat="62.0025277747" lon="6.6036999963">
		<tag k="name" v="Bakketjønna" />
		<tag k="natural" v="water" />
		<tag k="ssr:stedsnr" v="942264" />
	</node>
	<node id="-545125" lat="61.9715861107" lon="6.53107221684">
		<tag k="name" v="Kirkhornselva" />
		<tag k="ssr:stedsnr" v="942245" />
		<tag k="waterway" v="river" />
	</node>
	<node id="-545124" lat="62.0263972228" lon="6.54505555531">
		<tag k="name" v="Guridøla" />
		<tag k="ssr:stedsnr" v="942237" />
		<tag k="waterway" v="river" />
	</node>
	<node id="-544571" lat="61.9947803662" lon="6.45392537268">
		<tag k="name" v="Litlevatnet" />
		<tag k="natural" v="water" />
		<tag k="ssr:stedsnr" v="335296" />
		<tag k="water" v="lake" />
	</node>
	<node id="-545120" lat="61.9455263144" lon="6.47045562856">
		<tag k="name" v="Hamnen" />
		<tag k="natural" v="bay" />
		<tag k="ssr:stedsnr" v="938267" />
	</node>
	<node id="-545119" lat="62.0301111089" lon="6.6635222217">
		<tag k="name" v="Kringdøla" />
		<tag k="ssr:stedsnr" v="921714" />
		<tag k="waterway" v="stream" />
	</node>
	<node id="-545118" lat="62.0207194453" lon="6.72310277163">
		<tag k="name" v="Terdøla" />
		<tag k="ssr:stedsnr" v="921506" />
		<tag k="waterway" v="stream" />
	</node>
	<node id="-544605" lat="62.0033055588" lon="6.56407778669">
		<tag k="name" v="Såpegrova" />
		<tag k="ssr:stedsnr" v="396235" />
		<tag k="waterway" v="stream" />
	</node>
	<node id="-544604" lat="62.0078805564" lon="6.65234999819">
		<tag k="name" v="Gamlehjellgjølet" />
		<tag k="ssr:stedsnr" v="396222" />
		<tag k="waterway" v="stream" />
	</node>
	<node id="-544603" lat="62.0121305597" lon="6.55816111771">
		<tag k="name" v="Tverrelvane" />
		<tag k="ssr:stedsnr" v="396216" />
		<tag k="waterway" v="stream" />
	</node>
	<node id="-545113" lat="61.9355388896" lon="6.51573611084">
		<tag k="name" v="Kjøsapollen" />
		<tag k="natural" v="bay" />
		<tag k="ssr:stedsnr" v="920933" />
	</node>
	<node id="-545108" lat="61.9976472267" lon="6.49451389285">
		<tag k="name" v="Kvivselva" />
		<tag k="ssr:stedsnr" v="920834" />
		<tag k="waterway" v="stream" />
	</node>
	<node id="-544592" lat="61.9868444427" lon="6.45626666864">
		<tag k="name" v="Furegjølgrova" />
		<tag k="ssr:stedsnr" v="374883" />
		<tag k="waterway" v="stream" />
	</node>
	<node id="-545087" lat="61.9836916633" lon="6.69236945422">
		<tag k="name" v="Tverrelva" />
		<tag k="ssr:stedsnr" v="860285" />
		<tag k="waterway" v="stream" />
	</node>
	<node id="-545086" lat="61.9905388887" lon="6.65083055772">
		<tag k="name" v="Storegrova" />
		<tag k="ssr:stedsnr" v="860265" />
		<tag k="waterway" v="stream" />
	</node>
	<node id="-545085" lat="61.981547218" lon="6.6299999927">
		<tag k="name" v="Holskarelva" />
		<tag k="ssr:stedsnr" v="860260" />
		<tag k="waterway" v="stream" />
	</node>
	<node id="-545083" lat="61.9454722225" lon="6.57419166542">
		<tag k="name" v="Småskorvatnet" />
		<tag k="natural" v="water" />
		<tag k="ssr:stedsnr" v="859908" />
	</node>
	<node id="-544570" lat="61.9743027786" lon="6.46254722942">
		<tag k="name" v="Ormetua" />
		<tag k="natural" v="cape" />
		<tag k="ssr:stedsnr" v="335285" />
	</node>
	<node id="-544569" lat="61.9588805583" lon="6.57135555095">
		<tag k="name" v="Fossen" />
		<tag k="natural" v="waterfall" />
		<tag k="ssr:stedsnr" v="335267" />
	</node>
	<node id="-544568" lat="62.0090055572" lon="6.65497222485">
		<tag k="name" v="Furegrova" />
		<tag k="ssr:stedsnr" v="335261" />
		<tag k="waterway" v="stream" />
	</node>
	<node id="-544567" lat="62.0250388917" lon="6.5561583301">
		<tag k="name" v="Litledalselva" />
		<tag k="ssr:stedsnr" v="335256" />
		<tag k="waterway" v="river" />
	</node>
	<node id="-544566" lat="62.0269944482" lon="6.70220554695">
		<tag k="name" v="Kvernhusgrova" />
		<tag k="ssr:stedsnr" v="335257" />
		<tag k="waterway" v="stream" />
	</node>
	<node id="-544562" lat="62.0563805543" lon="6.65948610411">
		<tag k="name" v="Litle Luka" />
		<tag k="natural" v="water" />
		<tag k="ssr:stedsnr" v="314716" />
	</node>
	<node id="-544555" lat="61.9970583359" lon="6.42967222403">
		<tag k="alt_name" v="Kalveskredegrøvene" />
		<tag k="name" v="Kalveskredgrova" />
		<tag k="ssr:stedsnr" v="313841" />
		<tag k="waterway" v="stream" />
	</node>
	<node id="-545056" lat="61.9491194432" lon="6.46353610574">
		<tag k="name" v="Kongsviksaga" />
		<tag k="natural" v="bay" />
		<tag k="ssr:stedsnr" v="821291" />
	</node>
	<node id="-545054" lat="61.9729722228" lon="6.51133610154">
		<tag k="name" v="Storebryggja" />
		<tag k="natural" v="bay" />
		<tag k="ssr:stedsnr" v="821281" />
	</node>
	<node id="-545053" lat="61.9715194403" lon="6.49611389324">
		<tag k="name" v="Ytre-hornstranda" />
		<tag k="natural" v="beach" />
		<tag k="ssr:stedsnr" v="821278" />
	</node>
	<node id="-545052" lat="62.0057944428" lon="6.64047222008">
		<tag k="name" v="Kvernhusgrova" />
		<tag k="ssr:stedsnr" v="821253" />
		<tag k="waterway" v="stream" />
	</node>
	<node id="-545051" lat="61.9712805515" lon="6.47588888126">
		<tag k="name" v="Grytegjølet" />
		<tag k="ssr:stedsnr" v="821251" />
		<tag k="waterway" v="stream" />
	</node>
	<node id="-545050" lat="61.9908583319" lon="6.69787777122">
		<tag k="name" v="Knutsdøla" />
		<tag k="ssr:stedsnr" v="821246" />
		<tag k="waterway" v="river" />
	</node>
	<node id="-544537" lat="61.9806944454" lon="6.4444000055">
		<tag k="name" v="Vika" />
		<tag k="place" v="islet" />
		<tag k="ssr:stedsnr" v="275265" />
	</node>
	<node id="-544536" lat="61.9641249975" lon="6.52164722738">
		<tag k="name" v="Vikaelva" />
		<tag k="ssr:stedsnr" v="275248" />
		<tag k="waterway" v="river" />
	</node>
	<node id="-544535" lat="62.0166555591" lon="6.5826333353">
		<tag k="name" v="Jolegrova" />
		<tag k="ssr:stedsnr" v="275238" />
		<tag k="waterway" v="stream" />
	</node>
	<node id="-545045" lat="61.9272916695" lon="6.50863055653">
		<tag k="name" v="Bakketjønna" />
		<tag k="natural" v="water" />
		<tag k="ssr:stedsnr" v="799973" />
	</node>
	<node id="-545023" lat="61.9931000017" lon="6.44813333598">
		<tag k="name" v="Litlevassgrova" />
		<tag k="ssr:stedsnr" v="760291" />
		<tag k="waterway" v="stream" />
	</node>
	<node id="-545022" lat="61.9880000044" lon="6.44148889401">
		<tag k="name" v="Rabbegrova" />
		<tag k="ssr:stedsnr" v="760289" />
		<tag k="waterway" v="stream" />
	</node>
	<node id="-545021" lat="61.9817416669" lon="6.62612499524">
		<tag k="name" v="Steinvadet" />
		<tag k="ssr:stedsnr" v="760281" />
		<tag k="waterway" v="stream" />
	</node>
	<node id="-545020" lat="61.95281389" lon="6.56422221974">
		<tag k="name" v="Småskorelva" />
		<tag k="ssr:stedsnr" v="760274" />
		<tag k="waterway" v="stream" />
	</node>
	<node id="-545019" lat="62.0136611118" lon="6.64033055691">
		<tag k="name" v="Svågreinene" />
		<tag k="ssr:stedsnr" v="760273" />
		<tag k="waterway" v="stream" />
	</node>
	<node id="-545014" lat="61.9896616899" lon="6.44429800273">
		<tag k="name" v="Brattegjølfossen" />
		<tag k="natural" v="waterfall" />
		<tag k="ssr:stedsnr" v="756161" />
	</node>
	<node id="-545013" lat="62.0634722229" lon="6.65624165885">
		<tag k="name" v="Blåvatnet" />
		<tag k="natural" v="water" />
		<tag k="ssr:stedsnr" v="739725" />
	</node>
	<node id="-545012" lat="62.0071555562" lon="6.65162500231">
		<tag k="name" v="Svåna" />
		<tag k="ssr:stedsnr" v="739244" />
		<tag k="waterway" v="stream" />
	</node>
	<node id="-545007" lat="61.995733337" lon="6.60298889274">
		<tag k="name" v="Storelva" />
		<tag k="ssr:stedsnr" v="738232" />
		<tag k="waterway" v="river" />
	</node>
	<node id="-544986" lat="61.9783722211" lon="6.44332778352">
		<tag k="name" v="Litleneset" />
		<tag k="natural" v="cape" />
		<tag k="ssr:stedsnr" v="699282" />
	</node>
	<node id="-544985" lat="61.9470694461" lon="6.46391944552">
		<tag k="name" v="Ragnhildneset" />
		<tag k="ssr:stedsnr" v="699280" />
		<tag k="waterway" v="stream" />
	</node>
	<node id="-544984" lat="61.9566500014" lon="6.47658888367">
		<tag k="name" v="Vinkjellaren" />
		<tag k="natural" v="beach" />
		<tag k="ssr:stedsnr" v="699278" />
	</node>
	<node id="-544983" lat="61.9703194463" lon="6.51884166423">
		<tag k="name" v="Fiktøyna" />
		<tag k="natural" v="cape" />
		<tag k="ssr:stedsnr" v="699270" />
	</node>
	<node id="-544982" lat="61.9894333332" lon="6.62584721397">
		<tag k="name" v="Engagrova" />
		<tag k="ssr:stedsnr" v="699253" />
		<tag k="waterway" v="stream" />
	</node>
	<node id="-544981" lat="62.0472388864" lon="6.666058324">
		<tag k="name" v="Litlelukegrova" />
		<tag k="ssr:stedsnr" v="699242" />
		<tag k="waterway" v="stream" />
	</node>
	<node id="-544979" lat="62.0024944406" lon="6.5165694369">
		<tag k="name" v="Fosselva" />
		<tag k="ssr:stedsnr" v="678808" />
		<tag k="waterway" v="stream" />
	</node>
	<node id="-544977" lat="62.0127805533" lon="6.52727222462">
		<tag k="fixme" v="multiple name tags, choose one and add the other to alt_name" />
		<tag k="name" v="Dammane;Hingardsvatna" />
		<tag k="natural" v="water" />
		<tag k="ssr:stedsnr" v="678270" />
	</node>
	<node id="-544969" lat="61.984836111" lon="6.70518333927">
		<tag k="name" v="Knutsdøla" />
		<tag k="ssr:stedsnr" v="677219" />
		<tag k="waterway" v="river" />
	</node>
	<node id="-545142" lat="61.9873488108" lon="6.51679190448">
		<tag k="name" v="Lønsøyane" />
		<tag k="natural" v="cape" />
		<tag k="ssr:stedsnr" v="976749" />
	</node>
	<node id="-544941" lat="61.9613416658" lon="6.49995000808">
		<tag k="name" v="Skavika" />
		<tag k="natural" v="bay" />
		<tag k="ssr:stedsnr" v="638254" />
	</node>
	<node id="-544940" lat="61.9923611085" lon="6.64789167369">
		<tag k="name" v="Storegrova" />
		<tag k="ssr:stedsnr" v="638245" />
		<tag k="waterway" v="stream" />
	</node>
	<node id="-544939" lat="61.9624499965" lon="6.54084722966">
		<tag k="name" v="Megrova" />
		<tag k="ssr:stedsnr" v="638241" />
		<tag k="waterway" v="stream" />
	</node>
	<node id="-544540" lat="61.9565361132" lon="6.46825554941">
		<tag k="name" v="Svorastranda" />
		<tag k="natural" v="beach" />
		<tag k="ssr:stedsnr" v="275277" />
	</node>
	<node id="-544928" lat="61.9512805527" lon="6.45256666315">
		<tag k="name" v="Skjerneset" />
		<tag k="natural" v="cape" />
		<tag k="ssr:stedsnr" v="616899" />
	</node>
	<node id="-544925" lat="61.9919833339" lon="6.56436389668">
		<tag k="name" v="Horndøla" />
		<tag k="ssr:stedsnr" v="616886" />
		<tag k="waterway" v="river" />
	</node>
	<node id="-544538" lat="61.9801999973" lon="6.51649167375">
		<tag k="name" v="Prestegardsøyane" />
		<tag k="natural" v="strait" />
		<tag k="ssr:stedsnr" v="275269" />
	</node>
	<node id="-544921" lat="61.9662472252" lon="6.64103888662">
		<tag k="name" v="Holskarvatnet" />
		<tag k="natural" v="water" />
		<tag k="ssr:stedsnr" v="616172" />
	</node>
	<node id="-544911" lat="61.9822333373" lon="6.51066665905">
		<tag k="name" v="Bruøya" />
		<tag k="natural" v="cape" />
		<tag k="ssr:stedsnr" v="578274" />
	</node>
	<node id="-544910" lat="62.0080611155" lon="6.52846111529">
		<tag k="alt_name" v="Svadagrova" />
		<tag k="name" v="Svadgrova" />
		<tag k="ssr:stedsnr" v="578265" />
		<tag k="waterway" v="stream" />
	</node>
	<node id="-544909" lat="62.0057277752" lon="6.64676110486">
		<tag k="name" v="Raftevoldgrova" />
		<tag k="ssr:stedsnr" v="578252" />
		<tag k="waterway" v="stream" />
	</node>
	<node id="-544908" lat="62.0190444457" lon="6.55996667391">
		<tag k="name" v="Guridøla" />
		<tag k="ssr:stedsnr" v="578234" />
		<tag k="waterway" v="river" />
	</node>
	<node id="-544907" lat="62.0251916624" lon="6.72178888973">
		<tag k="name" v="Gjølsgrova" />
		<tag k="ssr:stedsnr" v="578225" />
		<tag k="waterway" v="stream" />
	</node>
	<node id="-544896" lat="61.9603583365" lon="6.49824166913">
		<tag k="name" v="Skavika" />
		<tag k="natural" v="bay" />
		<tag k="ssr:stedsnr" v="573165" />
	</node>
	<node id="-544892" lat="61.9965388921" lon="6.44408054824">
		<tag k="name" v="Bjørnholgrova" />
		<tag k="ssr:stedsnr" v="556827" />
		<tag k="waterway" v="stream" />
	</node>
	<node id="-544891" lat="62.040700003" lon="6.6712111096">
		<tag k="name" v="Buvatnet" />
		<tag k="natural" v="water" />
		<tag k="ssr:stedsnr" v="556717" />
	</node>
	<node id="-544890" lat="62.021619444" lon="6.67786943634">
		<tag k="name" v="Sætreelva" />
		<tag k="ssr:stedsnr" v="556714" />
		<tag k="waterway" v="river" />
	</node>
	<node id="-544884" lat="61.9304305588" lon="6.52331667247">
		<tag k="name" v="Jutdalstjønna" />
		<tag k="natural" v="water" />
		<tag k="ssr:stedsnr" v="555891" />
	</node>
	<node id="-544882" lat="61.9740305514" lon="6.78030834083">
		<tag k="name" v="Fossevatnet" />
		<tag k="natural" v="water" />
		<tag k="ssr:stedsnr" v="555194" />
	</node>
	<node id="-544862" lat="61.9900473669" lon="6.54670960502">
		<tag k="name" v="Sagøyna" />
		<tag k="place" v="island" />
		<tag k="ssr:stedsnr" v="517267" />
	</node>
	<node id="-544861" lat="61.9887333335" lon="6.43274722282">
		<tag k="name" v="Svartefjellgrova" />
		<tag k="ssr:stedsnr" v="517257" />
		<tag k="waterway" v="stream" />
	</node>
	<node id="-544860" lat="61.9515250039" lon="6.47441943471">
		<tag k="name" v="Grova" />
		<tag k="ssr:stedsnr" v="517252" />
		<tag k="waterway" v="stream" />
	</node>
	<node id="-544854" lat="61.9574444433" lon="6.54178610587">
		<tag k="fixme" v="multiple name tags, choose one and add the other to alt_name" />
		<tag k="name" v="Vikaelva;Åresvora" />
		<tag k="ssr:stedsnr" v="495907" />
		<tag k="waterway" v="stream" />
	</node>
	<node id="-544845" lat="61.9717619902" lon="6.67901326314">
		<tag k="loc_name" v="Litlekupa" />
		<tag k="name" v="Litlekupane" />
		<tag k="natural" v="water" />
		<tag k="ssr:stedsnr" v="495247" />
		<tag k="water" v="lake" />
	</node>
	<node id="-544844" lat="61.9598583348" lon="6.70513333739">
		<tag k="name" v="Natakupvatnet" />
		<tag k="natural" v="water" />
		<tag k="ssr:stedsnr" v="495209" />
	</node>
	<node id="-544819" lat="62.0084860972" lon="6.51161323407">
		<tag k="name" v="Demmevatn" />
		<tag k="natural" v="water" />
		<tag k="ssr:stedsnr" v="457269" />
		<tag k="water" v="lake" />
	</node>
	<node id="-544818" lat="61.9843027769" lon="6.43289166855">
		<tag k="name" v="Remgrova" />
		<tag k="ssr:stedsnr" v="457260" />
		<tag k="waterway" v="stream" />
	</node>
	<node id="-544817" lat="62.000674998" lon="6.59813333517">
		<tag k="name" v="Ryggjagrova" />
		<tag k="ssr:stedsnr" v="457252" />
		<tag k="waterway" v="stream" />
	</node>
	<node id="-544816" lat="62.0384611134" lon="6.67065556031">
		<tag k="name" v="Osane" />
		<tag k="natural" v="bay" />
		<tag k="ssr:stedsnr" v="457243" />
	</node>
	<node id="-544801" lat="61.9692611141" lon="6.43072499127">
		<tag k="name" v="Nakkebryggja" />
		<tag k="natural" v="cape" />
		<tag k="ssr:stedsnr" v="253904" />
	</node>
	<node id="-544794" lat="61.9591555561" lon="6.48827221359">
		<tag k="name" v="Svorastranda" />
		<tag k="natural" v="beach" />
		<tag k="ssr:stedsnr" v="252876" />
	</node>
	<node id="-544776" lat="61.9730083322" lon="6.43600556503">
		<tag k="name" v="Svagrova" />
		<tag k="ssr:stedsnr" v="214258" />
		<tag k="waterway" v="stream" />
	</node>
	<node id="-544775" lat="62.0018000006" lon="6.4433083244">
		<tag k="name" v="Måseggegrova" />
		<tag k="ssr:stedsnr" v="214255" />
		<tag k="waterway" v="stream" />
	</node>
	<node id="-544774" lat="61.9943888923" lon="6.5891166717">
		<tag k="name" v="Havrevadgrova" />
		<tag k="ssr:stedsnr" v="214253" />
		<tag k="waterway" v="stream" />
	</node>
	<node id="-544773" lat="62.0258333326" lon="6.59321388307">
		<tag k="name" v="Smalelva" />
		<tag k="ssr:stedsnr" v="214235" />
		<tag k="waterway" v="river" />
	</node>
	<node id="-544771" lat="62.0443805574" lon="6.60906665975">
		<tag k="name" v="Tussevatna" />
		<tag k="natural" v="water" />
		<tag k="ssr:stedsnr" v="193674" />
	</node>
</osm>
