<?xml version="1.0" encoding="UTF-8"?>
<osm generator="osmapis" version="0.6">
	<node id="-545536" lat="62.0120861113" lon="6.56547499678">
		<tag k="highway" v="path" />
		<tag k="name" v="Rjømestegen" />
		<tag k="ssr:stedsnr" v="92652" />
	</node>
	<node id="-545694" lat="61.9697305559" lon="6.5239777787">
		<tag k="bridge" v="yes" />
		<tag k="layer" v="1" />
		<tag k="name" v="Grodås" />
		<tag k="ssr:stedsnr" v="533724" />
	</node>
	<node id="-545781" lat="61.9923361083" lon="6.59143334256">
		<tag k="highway" v="path" />
		<tag k="name" v="Gamlevegen" />
		<tag k="ssr:stedsnr" v="638627" />
	</node>
	<node id="-545358" lat="61.9401416645" lon="6.49281943558">
		<tag k="bridge" v="yes" />
		<tag k="layer" v="1" />
		<tag k="name" v="Kjøs" />
		<tag k="ssr:stedsnr" v="290657" />
	</node>
	<node id="-545357" lat="62.003302775" lon="6.65522500914">
		<tag k="bridge" v="yes" />
		<tag k="layer" v="1" />
		<tag k="name" v="Sva" />
		<tag k="ssr:stedsnr" v="290656" />
	</node>
	<node id="-545452" lat="61.9987500001" lon="6.64069166432">
		<tag k="bridge" v="yes" />
		<tag k="layer" v="1" />
		<tag k="name" v="Seljeset" />
		<tag k="ssr:stedsnr" v="897681" />
	</node>
	<node id="-545451" lat="61.9302166629" lon="6.53728611658">
		<tag k="bridge" v="yes" />
		<tag k="layer" v="1" />
		<tag k="name" v="Øen" />
		<tag k="ssr:stedsnr" v="897678" />
	</node>
	<node id="-545608" lat="61.9495611155" lon="6.46395833152">
		<tag k="layer" v="-1" />
		<tag k="name" v="Kjøshammar" />
		<tag k="ssr:stedsnr" v="226306" />
		<tag k="tunnel" v="yes" />
	</node>
	<node id="-545735" lat="61.991222221" lon="6.53834167577">
		<tag k="bridge" v="yes" />
		<tag k="layer" v="1" />
		<tag k="name" v="Gausemel" />
		<tag k="ssr:stedsnr" v="593658" />
	</node>
	<node id="-545734" lat="61.9643055593" lon="6.52109999573">
		<tag k="bridge" v="yes" />
		<tag k="layer" v="1" />
		<tag k="name" v="Svor" />
		<tag k="ssr:stedsnr" v="593655" />
	</node>
</osm>
