<?xml version="1.0" encoding="UTF-8"?>
<osm generator="osmapis" version="0.6">
	<node id="-545526" lat="62.0111777802" lon="6.63656111218">
		<tag k="name" v="Kyrkjesteinen" />
		<tag k="natural" v="stone" />
		<tag k="ssr:stedsnr" v="92334" />
	</node>
	<node id="-545906" lat="61.969161109" lon="6.42934722562">
		<tag k="alt_name" v="Nesasteinen" />
		<tag k="name" v="Nesastein" />
		<tag k="natural" v="stone" />
		<tag k="ssr:stedsnr" v="860908" />
	</node>
	<node id="-545648" lat="62.00386651" lon="6.57618257778">
		<tag k="landuse" v="meadow" />
		<tag k="name" v="Engakroken" />
		<tag k="ssr:stedsnr" v="457366" />
	</node>
	<node id="-545519" lat="61.9838722262" lon="6.71447221621">
		<tag k="name" v="Steinmyrteigane" />
		<tag k="natural" v="wetland" />
		<tag k="ssr:stedsnr" v="92251" />
	</node>
	<node id="-545518" lat="62.0207861151" lon="6.68333056303">
		<tag k="name" v="Horndalslimyra" />
		<tag k="natural" v="wetland" />
		<tag k="ssr:stedsnr" v="92243" />
	</node>
	<node id="-545517" lat="62.0199027771" lon="6.69025834183">
		<tag k="name" v="Haralflotmyra" />
		<tag k="natural" v="wetland" />
		<tag k="ssr:stedsnr" v="92242" />
	</node>
	<node id="-545891" lat="61.9953972196" lon="6.49787500506">
		<tag k="name" v="Kalvesteinane" />
		<tag k="natural" v="stone" />
		<tag k="ssr:stedsnr" v="821429" />
	</node>
	<node id="-545888" lat="61.9752944416" lon="6.46131666937">
		<tag k="name" v="Hidsteinen" />
		<tag k="natural" v="stone" />
		<tag k="ssr:stedsnr" v="821416" />
	</node>
	<node id="-545375" lat="61.996324997" lon="6.65052777516">
		<tag k="name" v="Svortemyra" />
		<tag k="natural" v="wetland" />
		<tag k="ssr:stedsnr" v="335250" />
	</node>
	<node id="-545886" lat="61.9966583349" lon="6.51068055427">
		<tag k="name" v="Uklesteinen" />
		<tag k="natural" v="stone" />
		<tag k="ssr:stedsnr" v="821407" />
	</node>
	<node id="-545753" lat="62.021836109" lon="6.70962500141">
		<tag k="name" v="Per-Ratevollmyra" />
		<tag k="natural" v="wetland" />
		<tag k="ssr:stedsnr" v="638219" />
	</node>
	<node id="-545617" lat="62.0567666704" lon="6.57666944609">
		<tag k="name" v="Blåbreden" />
		<tag k="natural" v="glacier" />
		<tag k="ssr:stedsnr" v="254681" />
	</node>
	<node id="-545864" lat="62.0002166672" lon="6.67515832749">
		<tag k="name" v="Brubakkemyra" />
		<tag k="natural" v="wetland" />
		<tag k="ssr:stedsnr" v="821239" />
	</node>
	<node id="-545863" lat="62.0062083311" lon="6.55636110637">
		<tag k="name" v="Myrane" />
		<tag k="natural" v="wetland" />
		<tag k="ssr:stedsnr" v="821238" />
	</node>
	<node id="-545477" lat="62.0046805563" lon="6.597924994">
		<tag k="name" v="Storelademyrane" />
		<tag k="natural" v="wetland" />
		<tag k="ssr:stedsnr" v="32214" />
	</node>
	<node id="-545476" lat="62.0134277784" lon="6.67508887976">
		<tag k="name" v="Orremyra" />
		<tag k="natural" v="wetland" />
		<tag k="ssr:stedsnr" v="32202" />
	</node>
	<node id="-545344" lat="62.0223944431" lon="6.55068332974">
		<tag k="name" v="Ryggjamyra" />
		<tag k="natural" v="wetland" />
		<tag k="ssr:stedsnr" v="275235" />
	</node>
	<node id="-545343" lat="62.0004027787" lon="6.6640000001">
		<tag k="name" v="Stubbediket" />
		<tag k="natural" v="wetland" />
		<tag k="ssr:stedsnr" v="275230" />
	</node>
	<node id="-545340" lat="61.9880361097" lon="6.45313055651">
		<tag k="name" v="Kjøsastrekane" />
		<tag k="place" v="locality" />
		<tag k="ssr:stedsnr" v="274379" />
	</node>
	<node id="-545458" lat="62.0492277767" lon="6.74824722486">
		<tag k="name" v="Bjørnasteinen" />
		<tag k="natural" v="stone" />
		<tag k="ssr:stedsnr" v="214796" />
	</node>
	<node id="-545394" lat="61.9979666648" lon="6.5001583418">
		<tag k="name" v="Ladansteinen" />
		<tag k="natural" v="stone" />
		<tag k="ssr:stedsnr" v="335432" />
	</node>
	<node id="-545437" lat="62.0486305599" lon="6.67204722346">
		<tag k="name" v="Svedene" />
		<tag k="place" v="locality" />
		<tag k="ssr:stedsnr" v="882223" />
	</node>
	<node id="-545938" lat="62.0054250024" lon="6.67172499993">
		<tag k="name" v="Øyemyrane" />
		<tag k="natural" v="wetland" />
		<tag k="ssr:stedsnr" v="942234" />
	</node>
	<node id="-545412" lat="62.0014888907" lon="6.48953889522">
		<tag k="name" v="Skitnemyrane" />
		<tag k="natural" v="wetland" />
		<tag k="ssr:stedsnr" v="396206" />
	</node>
	<node id="-545795" lat="61.9999555522" lon="6.44503333984">
		<tag k="name" v="Storehaugmyra" />
		<tag k="natural" v="wetland" />
		<tag k="ssr:stedsnr" v="699231" />
	</node>
	<node id="-545537" lat="62.0012333344" lon="6.5274722157">
		<tag k="name" v="Slettebjørkmyra" />
		<tag k="natural" v="wetland" />
		<tag k="ssr:stedsnr" v="93209" />
	</node>
</osm>
