<?xml version="1.0" encoding="UTF-8"?>
<osm generator="osmapis" version="0.6">
	<node id="-5618" lat="59.2640083333" lon="11.1506777817">
		<tag k="landuse" v="meadow" />
		<tag k="name" v="Edonløkka" />
		<tag k="ssr:stedsnr" v="750061" />
	</node>
	<node id="-4588" lat="59.3953472253" lon="11.0860944392">
		<tag k="name" v="Bjørdam" />
		<tag k="natural" v="wetland" />
		<tag k="ssr:stedsnr" v="83706" />
	</node>
	<node id="-5095" lat="59.1448666652" lon="11.2125694412">
		<tag k="name" v="Rotemyr" />
		<tag k="natural" v="wetland" />
		<tag k="ssr:stedsnr" v="507026" />
	</node>
	<node id="-5094" lat="59.3237527739" lon="11.1756416668">
		<tag k="name" v="Søndre Sauemyra" />
		<tag k="natural" v="wetland" />
		<tag k="ssr:stedsnr" v="489964" />
	</node>
	<node id="-4572" lat="59.3706666701" lon="11.2055444398">
		<tag k="name" v="Kullerudmosen" />
		<tag k="natural" v="wetland" />
		<tag k="ssr:stedsnr" v="83364" />
	</node>
	<node id="-5594" lat="59.3407305543" lon="11.2440472301">
		<tag k="alt_name" v="Knatterudmosen" />
		<tag k="name" v="Knatterødmosen" />
		<tag k="natural" v="wetland" />
		<tag k="ssr:stedsnr" v="731797" />
	</node>
	<node id="-5588" lat="59.2805952537" lon="11.0549858093">
		<tag k="alt_name" v="Langemyr;Yvenmosen" />
		<tag k="name" v="Langmyr" />
		<tag k="natural" v="wetland" />
		<tag k="ssr:stedsnr" v="731352" />
	</node>
	<node id="-4543" lat="59.3162361104" lon="11.2837000015">
		<tag k="historic" v="shieling" />
		<tag k="name" v="Finnebuene" />
		<tag k="place" v="locality" />
		<tag k="ssr:stedsnr" v="83029" />
	</node>
	<node id="-4541" lat="59.2227750021" lon="11.1339361149">
		<tag k="name" v="Langemyr" />
		<tag k="natural" v="wetland" />
		<tag k="ssr:stedsnr" v="83023" />
	</node>
	<node id="-4255" lat="59.3548305522" lon="11.1160666598">
		<tag k="name" v="Solbergskogen" />
		<tag k="place" v="locality" />
		<tag k="ssr:stedsnr" v="386262" />
	</node>
	<node id="-5044" lat="59.3820750011" lon="11.1829916597">
		<tag k="name" v="Køya" />
		<tag k="place" v="locality" />
		<tag k="ssr:stedsnr" v="447712" />
	</node>
	<node id="-4527" lat="59.2820000006" lon="11.3192000028">
		<tag k="name" v="Tjernsmosen" />
		<tag k="natural" v="wetland" />
		<tag k="ssr:stedsnr" v="63889" />
	</node>
	<node id="-4720" lat="59.3905694438" lon="11.0336444448">
		<tag k="name" v="Vesle Grisemyr" />
		<tag k="natural" v="wetland" />
		<tag k="ssr:stedsnr" v="173042" />
	</node>
	<node id="-4524" lat="59.2769129666" lon="11.3147658748">
		<tag k="alt_name" v="Breidmosen" />
		<tag k="name" v="Breimosen" />
		<tag k="natural" v="wetland" />
		<tag k="ssr:stedsnr" v="63868" />
	</node>
	<node id="-5106" lat="59.2371138928" lon="11.2599499995">
		<tag k="name" v="Bossmyr" />
		<tag k="natural" v="wetland" />
		<tag k="ssr:stedsnr" v="507133" />
	</node>
	<node id="-5543" lat="59.3874194478" lon="11.0243527764">
		<tag k="name" v="Høyfjellmosen" />
		<tag k="natural" v="wetland" />
		<tag k="ssr:stedsnr" v="719038" />
	</node>
	<node id="-5531" lat="59.2562" lon="11.2756888901">
		<tag k="name" v="Jensemyr" />
		<tag k="natural" v="wetland" />
		<tag k="ssr:stedsnr" v="690940" />
	</node>
	<node id="-5527" lat="59.2848666649" lon="11.1875472134">
		<tag k="name" v="Kampenesmyra" />
		<tag k="natural" v="wetland" />
		<tag k="ssr:stedsnr" v="690908" />
	</node>
	<node id="-6025" lat="59.2224500012" lon="11.2921444472">
		<tag k="name" v="Stensrudmosen" />
		<tag k="natural" v="wetland" />
		<tag k="ssr:stedsnr" v="962597" />
	</node>
	<node id="-4484" lat="59.3214444482" lon="11.0071916745">
		<tag k="name" v="Langemyr" />
		<tag k="natural" v="wetland" />
		<tag k="ssr:stedsnr" v="52361" />
	</node>
	<node id="-6016" lat="59.3729666677" lon="11.0311999921">
		<tag k="name" v="Veimyr" />
		<tag k="natural" v="wetland" />
		<tag k="ssr:stedsnr" v="962428" />
	</node>
	<node id="-4475" lat="59.3967722258" lon="11.0008833394">
		<tag k="name" v="Ravnsjømyr" />
		<tag k="natural" v="wetland" />
		<tag k="ssr:stedsnr" v="52032" />
	</node>
	<node id="-6008" lat="59.3853444486" lon="11.0340361083">
		<tag k="name" v="Store Grisemyr" />
		<tag k="natural" v="wetland" />
		<tag k="ssr:stedsnr" v="962046" />
	</node>
	<node id="-5268" lat="59.2589055514" lon="11.3032694391">
		<tag k="historic" v="shieling" />
		<tag k="name" v="Grønnli" />
		<tag k="place" v="locality" />
		<tag k="ssr:stedsnr" v="569154" />
	</node>
	<node id="-4461" lat="59.2616499958" lon="11.2602583252">
		<tag k="name" v="Tretterbråten" />
		<tag k="place" v="locality" />
		<tag k="ssr:stedsnr" v="22934" />
	</node>
	<node id="-4459" lat="59.25525833" lon="11.2287972271">
		<tag k="name" v="Ødegården" />
		<tag k="place" v="locality" />
		<tag k="ssr:stedsnr" v="22900" />
	</node>
	<node id="-4457" lat="59.2821344814" lon="11.2459846555">
		<tag k="landuse" v="quarry" />
		<tag k="name" v="Rånesgruba" />
		<tag k="ssr:stedsnr" v="22889" />
	</node>
	<node id="-5989" lat="59.3099833375" lon="11.088858338">
		<tag k="name" v="Svartedal" />
		<tag k="place" v="locality" />
		<tag k="ssr:stedsnr" v="933432" />
	</node>
	<node id="-5961" lat="59.1434111143" lon="11.2195722294">
		<tag k="landuse" v="meadow" />
		<tag k="name" v="Bjønnenga" />
		<tag k="ssr:stedsnr" v="933039" />
	</node>
	<node id="-5955" lat="59.292752778" lon="11.0898722227">
		<tag k="name" v="Trompeten" />
		<tag k="place" v="locality" />
		<tag k="ssr:stedsnr" v="933012" />
	</node>
	<node id="-4416" lat="59.2311444467" lon="11.2586416695">
		<tag k="name" v="Sandbekkmosen" />
		<tag k="natural" v="wetland" />
		<tag k="ssr:stedsnr" v="22127" />
	</node>
	<node id="-4923" lat="59.32343889" lon="11.1036361121">
		<tag k="name" v="Skjørenlandet" />
		<tag k="natural" v="wetland" />
		<tag k="ssr:stedsnr" v="265438" />
	</node>
	<node id="-4920" lat="59.3633611088" lon="11.2133361066">
		<tag k="name" v="Krogsmyra" />
		<tag k="natural" v="wetland" />
		<tag k="ssr:stedsnr" v="265390" />
	</node>
	<node id="-4915" lat="59.3728416636" lon="11.1446388888">
		<tag k="name" v="Dammyr" />
		<tag k="natural" v="wetland" />
		<tag k="ssr:stedsnr" v="265314" />
	</node>
	<node id="-5421" lat="59.2140361085" lon="11.2805944435">
		<tag k="name" v="Gåserødhagen" />
		<tag k="place" v="locality" />
		<tag k="ssr:stedsnr" v="658734" />
	</node>
	<node id="-4900" lat="59.2399833351" lon="11.217697218">
		<tag k="name" v="Hellemyra" />
		<tag k="natural" v="wetland" />
		<tag k="ssr:stedsnr" v="265100" />
	</node>
	<node id="-4383" lat="59.1705250017" lon="11.1896249952">
		<tag k="alt_name" v="Langemyr" />
		<tag k="name" v="Langmyr" />
		<tag k="natural" v="wetland" />
		<tag k="ssr:stedsnr" v="2937" />
	</node>
	<node id="-4891" lat="59.3293500036" lon="11.1788722259">
		<tag k="name" v="Nordre Sauemyra" />
		<tag k="natural" v="wetland" />
		<tag k="ssr:stedsnr" v="246953" />
	</node>
	<node id="-5398" lat="59.3820833361" lon="11.2434666625">
		<tag k="name" v="Kommuneskogen" />
		<tag k="place" v="locality" />
		<tag k="ssr:stedsnr" v="629723" />
	</node>
	<node id="-5336" lat="59.2532305539" lon="11.2580222204">
		<tag k="alt_name" v="Tvetermyra (Bredemosen)" />
		<tag k="name" v="Tvetermosen" />
		<tag k="natural" v="wetland" />
		<tag k="ssr:stedsnr" v="609918" />
	</node>
	<node id="-5902" lat="59.3554944459" lon="10.996255555">
		<tag k="name" v="Vassengene" />
		<tag k="natural" v="wetland" />
		<tag k="ssr:stedsnr" v="901491" />
	</node>
	<node id="-4361" lat="59.2271999965" lon="11.1267027724">
		<tag k="name" v="Bremosan" />
		<tag k="natural" v="wetland" />
		<tag k="ssr:stedsnr" v="1902" />
	</node>
	<node id="-5635" lat="59.3174638874" lon="11.2755222207">
		<tag k="name" v="Brånan" />
		<tag k="natural" v="wetland" />
		<tag k="ssr:stedsnr" v="750429" />
	</node>
	<node id="-5885" lat="59.2699027818" lon="11.2444083423">
		<tag k="name" v="Gjetemyra" />
		<tag k="natural" v="wetland" />
		<tag k="ssr:stedsnr" v="872922" />
	</node>
	<node id="-5368" lat="59.2572416648" lon="11.337102781">
		<tag k="name" v="Sørle skog" />
		<tag k="place" v="locality" />
		<tag k="ssr:stedsnr" v="629122" />
	</node>
	<node id="-4850" lat="59.3337722195" lon="11.011577774">
		<tag k="name" v="Venilmyrene" />
		<tag k="natural" v="wetland" />
		<tag k="ssr:stedsnr" v="234385" />
	</node>
	<node id="-4844" lat="59.3725444416" lon="11.0380222295">
		<tag k="name" v="Dammyr" />
		<tag k="natural" v="wetland" />
		<tag k="ssr:stedsnr" v="234423" />
	</node>
	<node id="-5346" lat="59.1682277793" lon="11.2145111041">
		<tag k="name" v="Bømosen" />
		<tag k="natural" v="wetland" />
		<tag k="ssr:stedsnr" v="628085" />
	</node>
	<node id="-4829" lat="59.3079888864" lon="11.2170722247">
		<tag k="name" v="Bråten" />
		<tag k="place" v="locality" />
		<tag k="ssr:stedsnr" v="204394" />
	</node>
	<node id="-4315" lat="59.3766972233" lon="10.9879055532">
		<tag k="name" v="Laengmosen" />
		<tag k="natural" v="wetland" />
		<tag k="ssr:stedsnr" v="476456" />
	</node>
	<node id="-5848" lat="59.2870361116" lon="11.3121722175">
		<tag k="name" v="Djupmosen" />
		<tag k="natural" v="wetland" />
		<tag k="ssr:stedsnr" v="872170" />
	</node>
	<node id="-5412" lat="59.3840388908" lon="11.0428666729">
		<tag k="name" v="Delingsmyrene" />
		<tag k="natural" v="wetland" />
		<tag k="ssr:stedsnr" v="658042" />
	</node>
	<node id="-4307" lat="59.3533444473" lon="10.9764249991">
		<tag k="name" v="Trestikkmyra" />
		<tag k="natural" v="wetland" />
		<tag k="ssr:stedsnr" v="476384" />
	</node>
	<node id="-4300" lat="59.3925666683" lon="11.0410194372">
		<tag k="name" v="Tjuutmyr" />
		<tag k="natural" v="wetland" />
		<tag k="ssr:stedsnr" v="476062" />
	</node>
	<node id="-4299" lat="59.3799638896" lon="11.028238886">
		<tag k="name" v="Olamyr" />
		<tag k="natural" v="wetland" />
		<tag k="ssr:stedsnr" v="476058" />
	</node>
	<node id="-4297" lat="59.3816805568" lon="11.0247138958">
		<tag k="name" v="Vesletjernmosen" />
		<tag k="natural" v="wetland" />
		<tag k="ssr:stedsnr" v="476052" />
	</node>
	<node id="-4805" lat="59.2908805573" lon="11.1556972284">
		<tag k="name" v="Lunden" />
		<tag k="place" v="locality" />
		<tag k="ssr:stedsnr" v="204086" />
	</node>
	<node id="-5817" lat="59.3270500041" lon="11.2807722235">
		<tag k="name" v="Fosseidene" />
		<tag k="natural" v="wetland" />
		<tag k="ssr:stedsnr" v="853771" />
	</node>
	<node id="-4278" lat="59.2726777753" lon="11.2742416652">
		<tag k="name" v="Revalemmen" />
		<tag k="place" v="locality" />
		<tag k="ssr:stedsnr" v="386908" />
	</node>
	<node id="-5289" lat="59.2304555586" lon="11.2797277822">
		<tag k="name" v="Moltemyr" />
		<tag k="natural" v="wetland" />
		<tag k="ssr:stedsnr" v="597632" />
	</node>
	<node id="-5791" lat="59.2261277748" lon="11.2831249934">
		<tag k="alt_name" v="Ysterødmosen" />
		<tag k="name" v="Ystrødmosan" />
		<tag k="natural" v="wetland" />
		<tag k="ssr:stedsnr" v="851907" />
	</node>
	<node id="-5277" lat="59.3771333323" lon="11.0329277833">
		<tag k="name" v="Dammosen" />
		<tag k="natural" v="wetland" />
		<tag k="ssr:stedsnr" v="598428" />
	</node>
	<node id="-5276" lat="59.3797388908" lon="11.0479083372">
		<tag k="name" v="Delingsmyr" />
		<tag k="natural" v="wetland" />
		<tag k="ssr:stedsnr" v="598426" />
	</node>
	<node id="-4250" lat="59.2858944451" lon="11.3192555497">
		<tag k="name" v="Helgemyr" />
		<tag k="natural" v="wetland" />
		<tag k="ssr:stedsnr" v="386175" />
	</node>
	<node id="-4244" lat="59.2626083315" lon="11.3359194439">
		<tag k="name" v="Saghyttskogen" />
		<tag k="place" v="locality" />
		<tag k="ssr:stedsnr" v="386140" />
	</node>
	<node id="-4240" lat="59.2880166654" lon="11.1585472299">
		<tag k="name" v="Hestehagen" />
		<tag k="place" v="locality" />
		<tag k="ssr:stedsnr" v="386114" />
	</node>
	<node id="-4237" lat="59.2786472212" lon="11.1587833359">
		<tag k="name" v="Skauløkka" />
		<tag k="place" v="locality" />
		<tag k="ssr:stedsnr" v="386105" />
	</node>
	<node id="-5765" lat="59.2569277746" lon="11.3098499928">
		<tag k="historic" v="shieling" />
		<tag k="name" v="Grasskott" />
		<tag k="place" v="locality" />
		<tag k="ssr:stedsnr" v="812157" />
	</node>
	<node id="-5248" lat="59.3227499964" lon="11.2664138871">
		<tag k="name" v="Østmarka" />
		<tag k="place" v="locality" />
		<tag k="ssr:stedsnr" v="568425" />
	</node>
	<node id="-5759" lat="59.2880638879" lon="11.2548777693">
		<tag k="name" v="Vahusberget" />
		<tag k="place" v="locality" />
		<tag k="ssr:stedsnr" v="811870" />
	</node>
	<node id="-5757" lat="59.3961972183" lon="11.1106722291">
		<tag k="name" v="Storemyr" />
		<tag k="natural" v="wetland" />
		<tag k="ssr:stedsnr" v="811675" />
	</node>
	<node id="-4721" lat="59.3016916666" lon="11.0268944517">
		<tag k="name" v="Visterskogen" />
		<tag k="place" v="locality" />
		<tag k="ssr:stedsnr" v="173282" />
	</node>
	<node id="-5744" lat="59.2956527749" lon="11.0567583314">
		<tag k="name" v="Haraldstadmyr" />
		<tag k="natural" v="wetland" />
		<tag k="ssr:stedsnr" v="811376" />
	</node>
	<node id="-4719" lat="59.3844416636" lon="10.9829722178">
		<tag k="name" v="Ulvehimyra" />
		<tag k="natural" v="wetland" />
		<tag k="ssr:stedsnr" v="173024" />
	</node>
	<node id="-4706" lat="59.3902833329" lon="11.0577888944">
		<tag k="alt_name" v="Tjuetmyra" />
		<tag k="name" v="Tjuutmyra" />
		<tag k="natural" v="wetland" />
		<tag k="ssr:stedsnr" v="143689" />
	</node>
	<node id="-5207" lat="59.2033583295" lon="11.1816722183">
		<tag k="name" v="Salta" />
		<tag k="place" v="locality" />
		<tag k="ssr:stedsnr" v="568057" />
	</node>
	<node id="-4169" lat="59.3833277792" lon="11.0192666615">
		<tag k="name" v="Kølamyr" />
		<tag k="natural" v="wetland" />
		<tag k="ssr:stedsnr" v="355042" />
	</node>
	<node id="-4678" lat="59.3604694471" lon="11.0597388976">
		<tag k="name" v="Røsemyra" />
		<tag k="natural" v="wetland" />
		<tag k="ssr:stedsnr" v="143262" />
	</node>
	<node id="-4675" lat="59.256161112" lon="11.1324805627">
		<tag k="landuse" v="meadow" />
		<tag k="name" v="Løkkebråten" />
		<tag k="ssr:stedsnr" v="143137" />
	</node>
	<node id="-4155" lat="59.3834138912" lon="11.0945972261">
		<tag k="name" v="Bastemarka" />
		<tag k="place" v="locality" />
		<tag k="ssr:stedsnr" v="326720" />
	</node>
	<node id="-5672" lat="59.3938555568" lon="10.9884361031">
		<tag k="name" v="Stokklimosen" />
		<tag k="natural" v="wetland" />
		<tag k="ssr:stedsnr" v="780045" />
	</node>
	<node id="-4131" lat="59.2811194448" lon="11.2989499925">
		<tag k="name" v="Frokostmyra" />
		<tag k="natural" v="wetland" />
		<tag k="ssr:stedsnr" v="326165" />
	</node>
	<node id="-5662" lat="59.2824611135" lon="11.2650055589">
		<tag k="name" v="Skaenmyra" />
		<tag k="natural" v="wetland" />
		<tag k="ssr:stedsnr" v="750902" />
	</node>
	<node id="-4125" lat="59.1773722257" lon="11.1218222229">
		<tag k="name" v="Dammyr" />
		<tag k="natural" v="wetland" />
		<tag k="ssr:stedsnr" v="325468" />
	</node>
	<node id="-5660" lat="59.2661833362" lon="11.2322222292">
		<tag k="name" v="Åkermyra" />
		<tag k="place" v="locality" />
		<tag k="ssr:stedsnr" v="750897" />
	</node>
	<node id="-5137" lat="59.3064277781" lon="11.2121416728">
		<tag k="landuse" v="meadow" />
		<tag k="name" v="Langenga" />
		<tag k="ssr:stedsnr" v="508506" />
	</node>
	<node id="-5132" lat="59.3108083363" lon="11.0784416733">
		<tag k="name" v="Skinnfellrød" />
		<tag k="place" v="locality" />
		<tag k="ssr:stedsnr" v="508436" />
	</node>
	<node id="-5126" lat="59.3430611119" lon="11.1226416731">
		<tag k="name" v="Gravlunden" />
		<tag k="place" v="locality" />
		<tag k="ssr:stedsnr" v="508254" />
	</node>
	<node id="-5123" lat="59.2602138875" lon="11.3217861132">
		<tag k="historic" v="shieling" />
		<tag k="name" v="Brodalskasa" />
		<tag k="place" v="locality" />
		<tag k="ssr:stedsnr" v="508134" />
	</node>
	<node id="-5035" lat="59.3889444426" lon="11.1184916719">
		<tag k="name" v="Køya" />
		<tag k="place" v="locality" />
		<tag k="ssr:stedsnr" v="447669" />
	</node>
</osm>
