<?xml version="1.0" encoding="UTF-8"?>
<osm generator="osmapis" version="0.6">
	<node id="-5619" lat="59.1321055598" lon="11.1748361103">
		<tag k="name" v="Stokksund" />
		<tag k="natural" v="strait" />
		<tag k="ssr:stedsnr" v="750063" />
	</node>
	<node id="-5099" lat="59.1484972224" lon="11.1934499972">
		<tag k="name" v="Kollholmen" />
		<tag k="place" v="islet" />
		<tag k="ssr:stedsnr" v="507053" />
	</node>
	<node id="-4584" lat="59.1446999997" lon="11.1544166631">
		<tag k="name" v="Sandbukta" />
		<tag k="natural" v="bay" />
		<tag k="ssr:stedsnr" v="83428" />
	</node>
	<node id="-4583" lat="59.147711108" lon="11.1333138866">
		<tag k="name" v="Bjørn" />
		<tag k="place" v="islet" />
		<tag k="ssr:stedsnr" v="83426" />
	</node>
	<node id="-4068" lat="59.1205499994" lon="11.2136749958">
		<tag k="name" v="Røsneskilen" />
		<tag k="natural" v="bay" />
		<tag k="ssr:stedsnr" v="304886" />
	</node>
	<node id="-5082" lat="59.1780249978" lon="11.1673500023">
		<tag k="name" v="Kjerringholmen" />
		<tag k="place" v="islet" />
		<tag k="ssr:stedsnr" v="487961" />
	</node>
	<node id="-5592" lat="59.1469527748" lon="11.1939999956">
		<tag k="name" v="Grimsøykilen" />
		<tag k="natural" v="bay" />
		<tag k="ssr:stedsnr" v="731766" />
	</node>
	<node id="-5582" lat="59.1797250015" lon="11.1875749985">
		<tag k="name" v="Sildevika" />
		<tag k="natural" v="bay" />
		<tag k="ssr:stedsnr" v="730957" />
	</node>
	<node id="-4685" lat="59.1640472192" lon="11.1001972172">
		<tag k="name" v="Orebukta" />
		<tag k="natural" v="bay" />
		<tag k="ssr:stedsnr" v="143422" />
	</node>
	<node id="-4042" lat="59.2694333326" lon="11.088274993">
		<tag k="fixme" v="multiple name tags, choose one and add the other to alt_name" />
		<tag k="name" v="Berggrenodden;Buvikodden" />
		<tag k="natural" v="cape" />
		<tag k="ssr:stedsnr" v="282171" />
	</node>
	<node id="-4551" lat="59.136299996" lon="11.1741805625">
		<tag k="name" v="Dusa" />
		<tag k="place" v="sea" />
		<tag k="ssr:stedsnr" v="83077" />
	</node>
	<node id="-5569" lat="59.1215750031" lon="11.2025027807">
		<tag k="name" v="Tangekilen" />
		<tag k="natural" v="bay" />
		<tag k="ssr:stedsnr" v="730873" />
	</node>
	<node id="-4521" lat="59.1448277818" lon="11.1257499979">
		<tag k="alt_name" v="Bukkeholmen" />
		<tag k="name" v="Bukkholmen" />
		<tag k="place" v="islet" />
		<tag k="ssr:stedsnr" v="63786" />
	</node>
	<node id="-4519" lat="59.1456750029" lon="11.1550250024">
		<tag k="name" v="Ørnekuppa" />
		<tag k="place" v="islet" />
		<tag k="ssr:stedsnr" v="63774" />
	</node>
	<node id="-5030" lat="59.18981389" lon="11.1647472202">
		<tag k="name" v="Feriehjembukta" />
		<tag k="natural" v="bay" />
		<tag k="ssr:stedsnr" v="447432" />
	</node>
	<node id="-5027" lat="59.1566750029" lon="11.153794437">
		<tag k="name" v="Smørklunken" />
		<tag k="place" v="islet" />
		<tag k="ssr:stedsnr" v="447377" />
	</node>
	<node id="-5026" lat="59.1546027814" lon="11.1402944413">
		<tag k="name" v="Kallerholmen" />
		<tag k="natural" v="cape" />
		<tag k="ssr:stedsnr" v="447374" />
	</node>
	<node id="-4501" lat="59.1479944482" lon="11.1463555551">
		<tag k="alt_name" v="Nordre Kallsøya" />
		<tag k="name" v="Nordre Karlsøy" />
		<tag k="place" v="island" />
		<tag k="ssr:stedsnr" v="62773" />
	</node>
	<node id="-4500" lat="59.1407527822" lon="11.1335694415">
		<tag k="alt_name" v="Søndre Kallsøya" />
		<tag k="loc_name" v="Karlsøya" />
		<tag k="name" v="Søndre Karlsøy" />
		<tag k="place" v="island" />
		<tag k="ssr:stedsnr" v="62771" />
	</node>
	<node id="-4496" lat="59.1761555543" lon="11.1831777788">
		<tag k="name" v="Lille Sildevika" />
		<tag k="natural" v="bay" />
		<tag k="ssr:stedsnr" v="54772" />
	</node>
	<node id="-4493" lat="59.1425833347" lon="11.1075527793">
		<tag k="name" v="Plassebukta" />
		<tag k="natural" v="bay" />
		<tag k="ssr:stedsnr" v="54147" />
	</node>
	<node id="-5514" lat="59.1448333302" lon="11.1204027814">
		<tag k="name" v="Vassnestangen" />
		<tag k="natural" v="cape" />
		<tag k="ssr:stedsnr" v="690472" />
	</node>
	<node id="-4105" lat="59.1480972245" lon="11.2083277773">
		<tag k="name" v="Moatangen" />
		<tag k="natural" v="cape" />
		<tag k="ssr:stedsnr" v="325039" />
	</node>
	<node id="-5512" lat="59.1484694438" lon="11.1191111146">
		<tag k="name" v="Sildodden" />
		<tag k="natural" v="cape" />
		<tag k="ssr:stedsnr" v="690468" />
	</node>
	<node id="-5511" lat="59.1527444456" lon="11.1499722241">
		<tag k="name" v="Bjerkenes" />
		<tag k="natural" v="cape" />
		<tag k="ssr:stedsnr" v="690467" />
	</node>
	<node id="-4996" lat="59.1170888933" lon="11.1929472157">
		<tag k="name" v="Kålvikholmen" />
		<tag k="place" v="islet" />
		<tag k="ssr:stedsnr" v="447004" />
	</node>
	<node id="-4977" lat="59.1227500025" lon="11.1721555558">
		<tag k="name" v="Krakken" />
		<tag k="natural" v="shoal" />
		<tag k="place" v="locality" />
		<tag k="ssr:stedsnr" v="427821" />
	</node>
	<node id="-4975" lat="59.1426027798" lon="11.1781000077">
		<tag k="alt_name" v="Bjørkholmen" />
		<tag k="name" v="Bjerkholmen" />
		<tag k="place" v="islet" />
		<tag k="ssr:stedsnr" v="427747" />
	</node>
	<node id="-5991" lat="59.1571944428" lon="11.1597027814">
		<tag k="name" v="Sandbukta" />
		<tag k="natural" v="bay" />
		<tag k="ssr:stedsnr" v="933447" />
	</node>
	<node id="-5476" lat="59.1645666693" lon="11.1767194492">
		<tag k="name" v="Galten" />
		<tag k="place" v="islet" />
		<tag k="ssr:stedsnr" v="690092" />
	</node>
	<node id="-5473" lat="59.1244611148" lon="11.1858444362">
		<tag k="name" v="Bauen" />
		<tag k="natural" v="bay" />
		<tag k="ssr:stedsnr" v="690077" />
	</node>
	<node id="-5467" lat="59.1474861125" lon="11.1763555577">
		<tag k="name" v="Blykista" />
		<tag k="natural" v="bay" />
		<tag k="ssr:stedsnr" v="690046" />
	</node>
	<node id="-4442" lat="59.1403944482" lon="11.1584000002">
		<tag k="fixme" v="consider seamark:type=rock or natural=shoal" />
		<tag k="name" v="Lilleknubben" />
		<tag k="place" v="islet" />
		<tag k="ssr:stedsnr" v="22401" />
	</node>
	<node id="-5462" lat="59.1478166645" lon="11.2007194409">
		<tag k="fixme" v="consider seamark:type=rock or natural=shoal" />
		<tag k="name" v="Vassøsskjær" />
		<tag k="place" v="islet" />
		<tag k="ssr:stedsnr" v="690034" />
	</node>
	<node id="-5457" lat="59.1377416708" lon="11.126938897">
		<tag k="name" v="Hummerkloa" />
		<tag k="natural" v="cape" />
		<tag k="ssr:stedsnr" v="676802" />
	</node>
	<node id="-5966" lat="59.1253805519" lon="11.2043749913">
		<tag k="name" v="Grønnbukta" />
		<tag k="natural" v="bay" />
		<tag k="ssr:stedsnr" v="933090" />
	</node>
	<node id="-6029" lat="59.1383944428" lon="11.1871527718">
		<tag k="name" v="Grimsøy" />
		<tag k="natural" v="cape" />
		<tag k="ssr:stedsnr" v="964741" />
	</node>
	<node id="-5959" lat="59.2103861152" lon="11.0775444441">
		<tag k="name" v="Hestadypet" />
		<tag k="natural" v="bay" />
		<tag k="ssr:stedsnr" v="933028" />
	</node>
	<node id="-4922" lat="59.1536638878" lon="11.1176333302">
		<tag k="name" v="Sauvika" />
		<tag k="natural" v="bay" />
		<tag k="ssr:stedsnr" v="265430" />
	</node>
	<node id="-4921" lat="59.1517666685" lon="11.1368222251">
		<tag k="name" v="Skorpen" />
		<tag k="place" v="islet" />
		<tag k="ssr:stedsnr" v="265426" />
	</node>
	<node id="-4404" lat="59.1339027817" lon="11.1731444418">
		<tag k="fixme" v="consider seamark:type=rock or natural=shoal" />
		<tag k="name" v="Bjørnskjær" />
		<tag k="place" v="islet" />
		<tag k="ssr:stedsnr" v="22068" />
	</node>
	<node id="-5425" lat="59.1492999973" lon="11.1352833371">
		<tag k="name" v="Olsengsundet" />
		<tag k="natural" v="strait" />
		<tag k="ssr:stedsnr" v="660140" />
	</node>
	<node id="-4395" lat="59.1458888862" lon="11.1994666605">
		<tag k="fixme" v="consider seamark:type=rock or natural=shoal" />
		<tag k="name" v="Flua" />
		<tag k="place" v="islet" />
		<tag k="ssr:stedsnr" v="22026" />
	</node>
	<node id="-4392" lat="59.1195277761" lon="11.1915666718">
		<tag k="name" v="Kålvika" />
		<tag k="natural" v="bay" />
		<tag k="ssr:stedsnr" v="22006" />
	</node>
	<node id="-4894" lat="59.1199944415" lon="11.1912472225">
		<tag k="name" v="Hvitsand" />
		<tag k="natural" v="beach" />
		<tag k="place" v="locality" />
		<tag k="ssr:stedsnr" v="265003" />
	</node>
	<node id="-5508" lat="59.1333527794" lon="11.1272888975">
		<tag k="name" v="Håhjellingen" />
		<tag k="place" v="islet" />
		<tag k="ssr:stedsnr" v="690454" />
	</node>
	<node id="-5908" lat="59.1567444445" lon="11.108477772">
		<tag k="name" v="Knarrvikskjær" />
		<tag k="natural" v="cape" />
		<tag k="ssr:stedsnr" v="903185" />
	</node>
	<node id="-4877" lat="59.1530815682" lon="11.1414442275">
		<tag k="alt_name" v="Kallsøysundet" />
		<tag k="name" v="Karlsøysundet" />
		<tag k="natural" v="strait" />
		<tag k="ssr:stedsnr" v="245792" />
	</node>
	<node id="-4356" lat="59.1363222204" lon="11.143861103">
		<tag k="alt_name" v="Store Fårnøt;Fårnøt" />
		<tag k="name" v="Fårnøtt" />
		<tag k="place" v="islet" />
		<tag k="ssr:stedsnr" v="1769" />
	</node>
	<node id="-4862" lat="59.1332972207" lon="11.1733333294">
		<tag k="fixme" v="consider seamark:type=rock or natural=shoal" />
		<tag k="name" v="Svartskjæra" />
		<tag k="place" v="islet" />
		<tag k="ssr:stedsnr" v="244793" />
	</node>
	<node id="-4861" lat="59.1270000032" lon="11.1804500033">
		<tag k="alt_name" v="Grønnsund" />
		<tag k="name" v="Grønsund" />
		<tag k="natural" v="strait" />
		<tag k="ssr:stedsnr" v="244775" />
	</node>
	<node id="-5364" lat="59.153144442" lon="11.1833388941">
		<tag k="name" v="Løkkevika" />
		<tag k="natural" v="bay" />
		<tag k="ssr:stedsnr" v="629064" />
	</node>
	<node id="-4325" lat="59.1579138919" lon="11.162494452">
		<tag k="name" v="Brudeskjæret" />
		<tag k="natural" v="cape" />
		<tag k="ssr:stedsnr" v="478771" />
	</node>
	<node id="-4825" lat="59.1432666672" lon="11.12814166">
		<tag k="name" v="Bukkenesholmene" />
		<tag k="place" v="islet" />
		<tag k="ssr:stedsnr" v="204377" />
	</node>
	<node id="-5328" lat="59.1560777766" lon="11.1728500029">
		<tag k="name" v="Askholmen" />
		<tag k="place" v="islet" />
		<tag k="ssr:stedsnr" v="609776" />
	</node>
	<node id="-5831" lat="59.1454638867" lon="11.1910333397">
		<tag k="name" v="Vadholmen" />
		<tag k="place" v="islet" />
		<tag k="ssr:stedsnr" v="872050" />
	</node>
	<node id="-5830" lat="59.1492583291" lon="11.1952722306">
		<tag k="name" v="Bussevika" />
		<tag k="natural" v="bay" />
		<tag k="ssr:stedsnr" v="872048" />
	</node>
	<node id="-5828" lat="59.1451583374" lon="11.2028027811">
		<tag k="name" v="Jonetangen" />
		<tag k="natural" v="cape" />
		<tag k="ssr:stedsnr" v="872031" />
	</node>
	<node id="-4800" lat="59.1309805528" lon="11.1980611143">
		<tag k="name" v="Strandeleira" />
		<tag k="natural" v="shoal" />
		<tag k="place" v="locality" />
		<tag k="ssr:stedsnr" v="204074" />
	</node>
	<node id="-5820" lat="59.112022221" lon="11.1966250045">
		<tag k="name" v="Tangetangen" />
		<tag k="natural" v="cape" />
		<tag k="ssr:stedsnr" v="872002" />
	</node>
	<node id="-4794" lat="59.147408337" lon="11.2137305578">
		<tag k="name" v="Åkentokilen" />
		<tag k="natural" v="bay" />
		<tag k="ssr:stedsnr" v="204020" />
	</node>
	<node id="-4788" lat="59.1415722217" lon="11.1451694477">
		<tag k="name" v="Liktangen" />
		<tag k="natural" v="cape" />
		<tag k="ssr:stedsnr" v="190843" />
	</node>
	<node id="-5296" lat="59.1133749979" lon="11.1793888868">
		<tag k="name" v="Ribbergrunnen" />
		<tag k="natural" v="shoal" />
		<tag k="place" v="locality" />
		<tag k="ssr:stedsnr" v="607832" />
	</node>
	<node id="-5294" lat="59.1392111105" lon="11.1045833392">
		<tag k="name" v="Den dype tangen" />
		<tag k="natural" v="cape" />
		<tag k="ssr:stedsnr" v="600159" />
	</node>
	<node id="-4754" lat="59.1500250012" lon="11.2046500003">
		<tag k="alt_name" v="Moalera" />
		<tag k="name" v="Moaleira" />
		<tag k="natural" v="bay" />
		<tag k="ssr:stedsnr" v="184784" />
	</node>
	<node id="-4745" lat="59.1383027811" lon="11.1549444393">
		<tag k="name" v="Knubbholmene" />
		<tag k="place" v="islet" />
		<tag k="ssr:stedsnr" v="183791" />
	</node>
	<node id="-4744" lat="59.1720277772" lon="11.1083861133">
		<tag k="name" v="Ørebekktangen" />
		<tag k="natural" v="cape" />
		<tag k="ssr:stedsnr" v="175201" />
	</node>
	<node id="-4229" lat="59.127269443" lon="11.1747833393">
		<tag k="name" v="Grimsøtangen" />
		<tag k="natural" v="cape" />
		<tag k="ssr:stedsnr" v="386092" />
	</node>
	<node id="-5243" lat="59.1565000019" lon="11.1578194529">
		<tag k="name" v="Stortangen" />
		<tag k="natural" v="cape" />
		<tag k="ssr:stedsnr" v="568411" />
	</node>
	<node id="-5749" lat="59.189750002" lon="11.1547888928">
		<tag k="name" v="Salbu" />
		<tag k="natural" v="cape" />
		<tag k="ssr:stedsnr" v="811420" />
	</node>
	<node id="-4202" lat="59.1176749959" lon="11.1903250022">
		<tag k="name" v="Økebukta" />
		<tag k="natural" v="bay" />
		<tag k="ssr:stedsnr" v="366827" />
	</node>
	<node id="-5223" lat="59.1731194439" lon="11.1797722258">
		<tag k="name" v="Svullen" />
		<tag k="natural" v="cape" />
		<tag k="ssr:stedsnr" v="568112" />
	</node>
	<node id="-5216" lat="59.1839999957" lon="11.1866833347">
		<tag k="name" v="Sandvika" />
		<tag k="natural" v="bay" />
		<tag k="ssr:stedsnr" v="568086" />
	</node>
	<node id="-5214" lat="59.1400361102" lon="11.1785222308">
		<tag k="name" v="Søndre Struten" />
		<tag k="natural" v="bay" />
		<tag k="ssr:stedsnr" v="568079" />
	</node>
	<node id="-5213" lat="59.1357111075" lon="11.1766916696">
		<tag k="fixme" v="consider seamark:type=rock or natural=shoal" />
		<tag k="name" v="Danmark" />
		<tag k="place" v="islet" />
		<tag k="ssr:stedsnr" v="568076" />
	</node>
	<node id="-4185" lat="59.1329749962" lon="11.1379000026">
		<tag k="alt_name" v="Lillefårnøt" />
		<tag k="name" v="Veslefårnøtt" />
		<tag k="place" v="islet" />
		<tag k="ssr:stedsnr" v="365788" />
	</node>
	<node id="-4184" lat="59.1330749978" lon="11.1503000045">
		<tag k="fixme" v="consider seamark:type=rock or natural=shoal" />
		<tag k="name" v="Slengeskjær" />
		<tag k="place" v="islet" />
		<tag k="ssr:stedsnr" v="365777" />
	</node>
	<node id="-4964" lat="59.1594055558" lon="11.1066833268">
		<tag k="name" v="Sandtangen" />
		<tag k="natural" v="cape" />
		<tag k="ssr:stedsnr" v="418202" />
	</node>
	<node id="-5206" lat="59.1465361102" lon="11.1785972159">
		<tag k="name" v="Treskoen" />
		<tag k="natural" v="bay" />
		<tag k="ssr:stedsnr" v="568053" />
	</node>
	<node id="-4692" lat="59.1629083291" lon="11.1171055569">
		<tag k="name" v="Skottodden" />
		<tag k="natural" v="cape" />
		<tag k="ssr:stedsnr" v="143393" />
	</node>
	<node id="-5709" lat="59.1719860964" lon="11.17118689">
		<tag k="name" v="Skjebergkilen" />
		<tag k="natural" v="bay" />
		<tag k="ssr:stedsnr" v="791958" />
	</node>
	<node id="-4684" lat="59.1467083342" lon="11.1575166712">
		<tag k="fixme" v="consider seamark:type=rock or natural=shoal" />
		<tag k="name" v="Ørnungene" />
		<tag k="place" v="islet" />
		<tag k="ssr:stedsnr" v="143416" />
	</node>
	<node id="-5696" lat="59.148200003" lon="11.178874994">
		<tag k="name" v="Granholmen" />
		<tag k="place" v="islet" />
		<tag k="ssr:stedsnr" v="791781" />
	</node>
	<node id="-4192" lat="59.1940777772" lon="11.1473500044">
		<tag k="alt_name" v="Hornneskilen" />
		<tag k="name" v="Horneskilen" />
		<tag k="natural" v="bay" />
		<tag k="ssr:stedsnr" v="365978" />
	</node>
	<node id="-5181" lat="59.1456750017" lon="11.1386194405">
		<tag k="alt_name" v="Nøtsund" />
		<tag k="name" v="Nøtsundet" />
		<tag k="natural" v="strait" />
		<tag k="ssr:stedsnr" v="548774" />
	</node>
	<node id="-4668" lat="59.1523277736" lon="11.1895555626">
		<tag k="name" v="Knarrvika" />
		<tag k="natural" v="bay" />
		<tag k="ssr:stedsnr" v="143049" />
	</node>
	<node id="-4664" lat="59.1433250013" lon="11.181641668">
		<tag k="name" v="Nordre Struten" />
		<tag k="natural" v="bay" />
		<tag k="ssr:stedsnr" v="143027" />
	</node>
	<node id="-5687" lat="59.1355000007" lon="11.1785999953">
		<tag k="alt_name" v="Dusebukta" />
		<tag k="name" v="Duseleira" />
		<tag k="natural" v="bay" />
		<tag k="ssr:stedsnr" v="790790" />
	</node>
	<node id="-5685" lat="59.1360250044" lon="11.2024194449">
		<tag k="name" v="Ilekaskilen" />
		<tag k="natural" v="bay" />
		<tag k="ssr:stedsnr" v="782726" />
	</node>
	<node id="-4443" lat="59.1435833334" lon="11.1263638853">
		<tag k="name" v="Hansesundet" />
		<tag k="natural" v="strait" />
		<tag k="ssr:stedsnr" v="22412" />
	</node>
	<node id="-4123" lat="59.1366000022" lon="11.1563083415">
		<tag k="fixme" v="consider seamark:type=rock or natural=shoal" />
		<tag k="name" v="Storknubben" />
		<tag k="place" v="islet" />
		<tag k="ssr:stedsnr" v="325422" />
	</node>
	<node id="-4122" lat="59.1503222185" lon="11.1183444511">
		<tag k="name" v="Trollkoven" />
		<tag k="natural" v="bay" />
		<tag k="ssr:stedsnr" v="325412" />
	</node>
	<node id="-5138" lat="59.1910388855" lon="11.1605194433">
		<tag k="name" v="Flyndrevik" />
		<tag k="natural" v="beach" />
		<tag k="place" v="locality" />
		<tag k="ssr:stedsnr" v="508513" />
	</node>
	<node id="-5136" lat="59.1717194446" lon="11.109091671">
		<tag k="name" v="Revebukta" />
		<tag k="natural" v="bay" />
		<tag k="ssr:stedsnr" v="508504" />
	</node>
	<node id="-4111" lat="59.138908331" lon="11.2049944415">
		<tag k="name" v="Hansemakerkilen" />
		<tag k="natural" v="bay" />
		<tag k="ssr:stedsnr" v="325082" />
	</node>
	<node id="-4622" lat="59.1185750023" lon="11.1839500048">
		<tag k="name" v="Øketangen" />
		<tag k="natural" v="cape" />
		<tag k="ssr:stedsnr" v="123873" />
	</node>
	<node id="-4695" lat="59.1411027742" lon="11.1508388852">
		<tag k="name" v="Brenteholmene" />
		<tag k="place" v="islet" />
		<tag k="ssr:stedsnr" v="143400" />
	</node>
	<node id="-4614" lat="59.1108000004" lon="11.1697250062">
		<tag k="name" v="Haslau" />
		<tag k="place" v="islet" />
		<tag k="ssr:stedsnr" v="122830" />
	</node>
	<node id="-4613" lat="59.1820416644" lon="11.1872277791">
		<tag k="name" v="Skjønvikodden" />
		<tag k="natural" v="cape" />
		<tag k="ssr:stedsnr" v="114784" />
	</node>
	<node id="-4098" lat="59.1470027818" lon="11.1899499962">
		<tag k="name" v="Saltholmen" />
		<tag k="place" v="islet" />
		<tag k="ssr:stedsnr" v="306765" />
	</node>
</osm>
