<?xml version="1.0" encoding="UTF-8"?>
<osm generator="osmapis" version="0.6">
	<node id="-456222" lat="60.4116445268" lon="7.29692343354">
		<tag k="name" v="Luffarbekken" />
		<tag k="ssr:date" v="2019-05-30" />
		<tag k="ssr:gruppe" v="veg" />
		<tag k="ssr:hovedgruppe" v="infrastruktur" />
		<tag k="ssr:stedsnr" v="990434" />
		<tag k="ssr:type" v="adressenavn" />
	</node>
	<node id="-456221" lat="60.413624746" lon="7.28606944238">
		<tag k="name" v="Nedre Lialeitet" />
		<tag k="ssr:date" v="2019-05-30" />
		<tag k="ssr:gruppe" v="veg" />
		<tag k="ssr:hovedgruppe" v="infrastruktur" />
		<tag k="ssr:stedsnr" v="990433" />
		<tag k="ssr:type" v="adressenavn" />
	</node>
	<node id="-456220" lat="60.4141008962" lon="7.28747901695">
		<tag k="name" v="Lialeitet" />
		<tag k="ssr:date" v="2019-05-30" />
		<tag k="ssr:gruppe" v="veg" />
		<tag k="ssr:hovedgruppe" v="infrastruktur" />
		<tag k="ssr:stedsnr" v="990432" />
		<tag k="ssr:type" v="adressenavn" />
	</node>
	<node id="-456219" lat="60.4149596375" lon="7.28581759883">
		<tag k="name" v="Øykjaflotlia" />
		<tag k="ssr:date" v="2019-05-30" />
		<tag k="ssr:gruppe" v="veg" />
		<tag k="ssr:hovedgruppe" v="infrastruktur" />
		<tag k="ssr:stedsnr" v="990431" />
		<tag k="ssr:type" v="adressenavn" />
	</node>
	<node id="-456218" lat="60.4127379418" lon="7.28415491849">
		<tag k="name" v="Gardslivegen" />
		<tag k="ssr:date" v="2019-05-30" />
		<tag k="ssr:gruppe" v="veg" />
		<tag k="ssr:hovedgruppe" v="infrastruktur" />
		<tag k="ssr:stedsnr" v="990430" />
		<tag k="ssr:type" v="adressenavn" />
	</node>
	<node id="-457463" lat="60.8816104596" lon="6.30047518531">
		<tag k="name" v="Vestlandet" />
		<tag k="ssr:date" v="2019-01-06" />
		<tag k="ssr:gruppe" v="administrativeIndelinger" />
		<tag k="ssr:hovedgruppe" v="offentligAdministrasjon" />
		<tag k="ssr:stedsnr" v="974777" />
		<tag k="ssr:type" v="annenAdministrativInndeling" />
	</node>
	<node id="-456526" lat="60.4378833297" lon="7.28350277579">
		<tag k="name" v="Gryteskarsete" />
		<tag k="ssr:date" v="2019-05-30" />
		<tag k="ssr:gruppe" v="veg" />
		<tag k="ssr:hovedgruppe" v="infrastruktur" />
		<tag k="ssr:stedsnr" v="182967" />
		<tag k="ssr:type" v="adressenavn" />
	</node>
	<node id="-456813" lat="60.4674055585" lon="7.06971666058">
		<tag k="alt_name" v="Eidfjord" />
		<tag k="name" v="Eidfjord kommune" />
		<tag k="ssr:date" v="2019-02-26" />
		<tag k="ssr:gruppe" v="administrativeIndelinger" />
		<tag k="ssr:hovedgruppe" v="offentligAdministrasjon" />
		<tag k="ssr:stedsnr" v="509212" />
		<tag k="ssr:type" v="kommune" />
	</node>
	<node id="-457257" lat="60.4658305569" lon="6.92554443575">
		<tag k="name" v="Hardanger" />
		<tag k="ssr:date" v="2016-05-11" />
		<tag k="ssr:gruppe" v="terrengområder" />
		<tag k="ssr:hovedgruppe" v="terreng" />
		<tag k="ssr:stedsnr" v="813334" />
		<tag k="ssr:type" v="landskapsområde" />
	</node>
	<node id="-455963" lat="60.4645989468" lon="7.06927696362">
		<tag k="name" v="Brotkanten" />
		<tag k="ssr:date" v="2019-05-30" />
		<tag k="ssr:gruppe" v="veg" />
		<tag k="ssr:hovedgruppe" v="infrastruktur" />
		<tag k="ssr:stedsnr" v="1037400" />
		<tag k="ssr:type" v="adressenavn" />
	</node>
</osm>
