<?xml version="1.0" encoding="UTF-8"?>
<osm generator="osmapis" version="0.6">
	<node id="-394752" lat="59.4778000026" lon="5.37931943952">
		<tag k="name" v="Kunes" />
		<tag k="natural" v="cape" />
		<tag k="ssr:stedsnr" v="329301" />
	</node>
	<node id="-395263" lat="59.3940194413" lon="5.34184444436">
		<tag k="name" v="Vassbrekkevatnet" />
		<tag k="natural" v="water" />
		<tag k="ssr:stedsnr" v="790610" />
	</node>
	<node id="-394748" lat="59.4777249979" lon="5.32421944351">
		<tag k="alt_name" v="Holmalidvatnet" />
		<tag k="name" v="Holmalivatnet" />
		<tag k="natural" v="water" />
		<tag k="ssr:stedsnr" v="306685" />
		<tag k="water" v="lake" />
	</node>
	<node id="-395003" lat="59.4740944415" lon="5.28209999415">
		<tag k="name" v="Bakkavatnet" />
		<tag k="natural" v="water" />
		<tag k="ssr:stedsnr" v="245678" />
	</node>
	<node id="-394751" lat="59.4790472216" lon="5.38157499176">
		<tag k="name" v="Tømmervik" />
		<tag k="natural" v="bay" />
		<tag k="ssr:stedsnr" v="329299" />
	</node>
	<node id="-394872" lat="59.4114972187" lon="5.3491500009">
		<tag k="name" v="Toskatjørn" />
		<tag k="natural" v="water" />
		<tag k="ssr:stedsnr" v="62614" />
	</node>
	<node id="-394999" lat="59.4420749962" lon="5.26209999338">
		<tag k="name" v="Tornesvatnet" />
		<tag k="natural" v="water" />
		<tag k="ssr:stedsnr" v="244705" />
	</node>
	<node id="-394996" lat="59.4172222215" lon="5.30804445325">
		<tag k="name" v="Eivindsvatnet" />
		<tag k="natural" v="water" />
		<tag k="ssr:stedsnr" v="244637" />
		<tag k="water" v="lake" />
	</node>
	<node id="-395123" lat="59.4003055554" lon="5.34641666388">
		<tag k="name" v="Paddetjørn" />
		<tag k="natural" v="water" />
		<tag k="ssr:stedsnr" v="572994" />
	</node>
	<node id="-395121" lat="59.5034611094" lon="5.23475278093">
		<tag k="name" v="Ølkonå" />
		<tag k="ssr:stedsnr" v="572898" />
		<tag k="waterway" v="stream" />
	</node>
	<node id="-395119" lat="59.4536805599" lon="5.24451945112">
		<tag k="name" v="Båsabekken" />
		<tag k="ssr:stedsnr" v="572871" />
		<tag k="waterway" v="stream" />
	</node>
	<node id="-395238" lat="59.4793194462" lon="5.37711944051">
		<tag k="name" v="Sundet" />
		<tag k="natural" v="bay" />
		<tag k="ssr:stedsnr" v="754353" />
	</node>
	<node id="-394725" lat="59.3900583304" lon="5.29507222134">
		<tag k="name" v="Isdammen" />
		<tag k="natural" v="water" />
		<tag k="ssr:stedsnr" v="269975" />
	</node>
	<node id="-395110" lat="59.4399222267" lon="5.32158888892">
		<tag k="name" v="Dubergselva" />
		<tag k="ssr:stedsnr" v="572611" />
		<tag k="waterway" v="stream" />
	</node>
	<node id="-394722" lat="59.4829083332" lon="5.26780834126">
		<tag k="name" v="Lintjørn" />
		<tag k="natural" v="water" />
		<tag k="ssr:stedsnr" v="269637" />
	</node>
	<node id="-395105" lat="59.4764833291" lon="5.3796833416">
		<tag k="name" v="Klubben" />
		<tag k="natural" v="cape" />
		<tag k="ssr:stedsnr" v="572325" />
	</node>
	<node id="-395232" lat="59.4054611116" lon="5.3306861134">
		<tag k="name" v="Løkavatnet" />
		<tag k="natural" v="water" />
		<tag k="ssr:stedsnr" v="730665" />
	</node>
	<node id="-394896" lat="59.45852222" lon="5.26280555784">
		<tag k="name" v="Nesavatnet" />
		<tag k="natural" v="water" />
		<tag k="ssr:stedsnr" v="87519" />
		<tag k="water" v="lake" />
	</node>
	<node id="-394846" lat="59.4740583344" lon="5.3791611117">
		<tag k="name" v="Butrevika" />
		<tag k="natural" v="bay" />
		<tag k="ssr:stedsnr" v="26317" />
	</node>
	<node id="-394973" lat="59.4665805569" lon="5.34588333033">
		<tag k="name" v="Dråttetjørn" />
		<tag k="natural" v="water" />
		<tag k="ssr:stedsnr" v="209082" />
	</node>
	<node id="-395100" lat="59.4617638912" lon="5.29428055026">
		<tag k="name" v="Saltveitvatnet" />
		<tag k="natural" v="water" />
		<tag k="ssr:stedsnr" v="548674" />
	</node>
	<node id="-394970" lat="59.4730666653" lon="5.25771667162">
		<tag k="name" v="Sandtjørn" />
		<tag k="natural" v="water" />
		<tag k="ssr:stedsnr" v="208894" />
	</node>
	<node id="-394839" lat="59.4278249966" lon="5.27882500746">
		<tag k="alt_name" v="norda Skeisvatnet" />
		<tag k="name" v="Skeisvatnet" />
		<tag k="natural" v="water" />
		<tag k="ssr:stedsnr" v="1657" />
	</node>
	<node id="-395350" lat="59.4488888912" lon="5.30268056029">
		<tag k="name" v="Skoklandstjørn" />
		<tag k="natural" v="water" />
		<tag k="ssr:stedsnr" v="937565" />
	</node>
	<node id="-394961" lat="59.4594055588" lon="5.25381388601">
		<tag k="alt_name" v="Fiskavatnet" />
		<tag k="name" v="Fiskevatnet" />
		<tag k="natural" v="water" />
		<tag k="ssr:stedsnr" v="185620" />
	</node>
	<node id="-395085" lat="59.4753861105" lon="5.38614166433">
		<tag k="loc_name" v="Kidjaneset" />
		<tag k="name" v="Kiggjaneset" />
		<tag k="place" v="island" />
		<tag k="ssr:stedsnr" v="521011" />
	</node>
	<node id="-394956" lat="59.4346166697" lon="5.28256389408">
		<tag k="alt_name" v="Uradalsvatnet" />
		<tag k="name" v="Urdadalsvatnet" />
		<tag k="natural" v="water" />
		<tag k="ssr:stedsnr" v="183622" />
	</node>
	<node id="-395273" lat="59.4749463672" lon="5.33686998457">
		<tag k="alt_name" v="Longatjørn" />
		<tag k="name" v="Langatjørna" />
		<tag k="natural" v="water" />
		<tag k="ssr:stedsnr" v="791702" />
	</node>
	<node id="-394721" lat="59.4798916668" lon="5.2736944399">
		<tag k="name" v="Toratjørn" />
		<tag k="natural" v="water" />
		<tag k="ssr:stedsnr" v="269632" />
	</node>
	<node id="-394945" lat="59.4451305522" lon="5.34150832604">
		<tag k="name" v="Skårepyttane" />
		<tag k="natural" v="water" />
		<tag k="ssr:stedsnr" v="157005" />
		<tag k="water" v="pond" />
	</node>
	<node id="-394943" lat="59.4817277794" lon="5.27638888629">
		<tag k="name" v="Kvednabekken" />
		<tag k="ssr:stedsnr" v="148662" />
		<tag k="waterway" v="stream" />
	</node>
	<node id="-395321" lat="59.427186114" lon="5.33560000654">
		<tag k="name" v="Iglavasstjørn" />
		<tag k="natural" v="water" />
		<tag k="ssr:stedsnr" v="876622" />
	</node>
	<node id="-395063" lat="59.4564305509" lon="5.34416943698">
		<tag k="name" v="Sandvatnet" />
		<tag k="natural" v="water" />
		<tag k="ssr:stedsnr" v="486706" />
		<tag k="water" v="lake" />
	</node>
	<node id="-394934" lat="59.4835055516" lon="5.39113888845">
		<tag k="name" v="Skarpaneset" />
		<tag k="natural" v="cape" />
		<tag k="ssr:stedsnr" v="147317" />
	</node>
	<node id="-395317" lat="59.4449805581" lon="5.29092777647">
		<tag k="name" v="Ølkonå" />
		<tag k="place" v="locality" />
		<tag k="ssr:stedsnr" v="876549" />
	</node>
	<node id="-394795" lat="59.4473194485" lon="5.31531943642">
		<tag k="name" v="Litlestemtjørn" />
		<tag k="natural" v="water" />
		<tag k="ssr:stedsnr" v="390488" />
	</node>
	<node id="-395058" lat="59.4343250024" lon="5.33537500185">
		<tag k="name" v="Krokavatnet" />
		<tag k="natural" v="water" />
		<tag k="ssr:stedsnr" v="486651" />
	</node>
	<node id="-395293" lat="59.4412722225" lon="5.08106665889">
		<tag k="name" v="Kalvatjørn" />
		<tag k="natural" v="water" />
		<tag k="ssr:stedsnr" v="816675" />
	</node>
	<node id="-395308" lat="59.4698416652" lon="5.32585555063">
		<tag k="name" v="Kallandsvatnet" />
		<tag k="natural" v="water" />
		<tag k="ssr:stedsnr" v="852678" />
		<tag k="water" v="lake" />
	</node>
	<node id="-395307" lat="59.4705722179" lon="5.33701111538">
		<tag k="name" v="Kvernavatnet" />
		<tag k="natural" v="water" />
		<tag k="ssr:stedsnr" v="852674" />
	</node>
	<node id="-394794" lat="59.4346833299" lon="5.0828194519">
		<tag k="name" v="Kvalbeintjørn" />
		<tag k="natural" v="water" />
		<tag k="ssr:stedsnr" v="390487" />
	</node>
	<node id="-394769" lat="59.464936108" lon="5.26292221951">
		<tag k="name" v="Breiavatnet" />
		<tag k="natural" v="water" />
		<tag k="ssr:stedsnr" v="330662" />
		<tag k="water" v="lake" />
	</node>
	<node id="-395176" lat="59.4722194446" lon="5.28817221786">
		<tag k="name" v="Djupatjørn" />
		<tag k="natural" v="water" />
		<tag k="ssr:stedsnr" v="633638" />
	</node>
	<node id="-395173" lat="59.4251444442" lon="5.28347500471">
		<tag k="name" v="Røyrvatnet" />
		<tag k="natural" v="water" />
		<tag k="ssr:stedsnr" v="633578" />
		<tag k="water" v="lake" />
	</node>
	<node id="-395172" lat="59.4395222267" lon="5.26696111484">
		<tag k="name" v="Kvaladalselva" />
		<tag k="ssr:stedsnr" v="633567" />
		<tag k="waterway" v="river" />
	</node>
	<node id="-394787" lat="59.4424750024" lon="5.33640000573">
		<tag k="name" v="Bårdshaugvatna" />
		<tag k="natural" v="water" />
		<tag k="ssr:stedsnr" v="365685" />
	</node>
	<node id="-395170" lat="59.446594448" lon="5.27129445142">
		<tag k="name" v="Dubberselva" />
		<tag k="ssr:stedsnr" v="633562" />
		<tag k="waterway" v="stream" />
	</node>
	<node id="-394783" lat="59.4104638926" lon="5.31401110317">
		<tag k="name" v="Gåsavatnet" />
		<tag k="natural" v="water" />
		<tag k="ssr:stedsnr" v="365626" />
	</node>
	<node id="-395038" lat="59.4464583377" lon="5.32098611768">
		<tag k="name" v="Otrabekken" />
		<tag k="ssr:stedsnr" v="452571" />
		<tag k="waterway" v="stream" />
	</node>
	<node id="-395037" lat="59.4429472232" lon="5.33667777459">
		<tag k="alt_name" v="søra Bårdhaugvatnet" />
		<tag k="name" v="Søra Bårdshaugvatnet" />
		<tag k="natural" v="water" />
		<tag k="ssr:stedsnr" v="452568" />
		<tag k="water" v="lake" />
	</node>
	<node id="-394907" lat="59.4900527748" lon="5.24447222285">
		<tag k="name" v="Kvednavatnet" />
		<tag k="natural" v="water" />
		<tag k="ssr:stedsnr" v="87855" />
		<tag k="water" v="lake" />
	</node>
	<node id="-394976" lat="59.4448111075" lon="5.33490000041">
		<tag k="alt_name" v="norda Bårdshaugvatnet" />
		<tag k="name" v="Nordra Bårdshaugvatnet" />
		<tag k="natural" v="water" />
		<tag k="ssr:stedsnr" v="209550" />
		<tag k="water" v="lake" />
	</node>
	<node id="-395031" lat="59.4951416676" lon="5.25179166937">
		<tag k="name" v="Haugatjørn" />
		<tag k="natural" v="water" />
		<tag k="ssr:stedsnr" v="451867" />
	</node>
	<node id="-395285" lat="59.4920888868" lon="5.36317778171">
		<tag k="name" v="Halsatjørn" />
		<tag k="natural" v="water" />
		<tag k="ssr:stedsnr" v="816090" />
	</node>
	<node id="-394747" lat="59.4639444425" lon="5.26897500409">
		<tag k="name" v="Førlandsvatnet" />
		<tag k="natural" v="water" />
		<tag k="ssr:stedsnr" v="306673" />
	</node>
	<node id="-395025" lat="59.4662305524" lon="5.36047499489">
		<tag k="name" v="Mannabergstjørn" />
		<tag k="natural" v="water" />
		<tag k="ssr:stedsnr" v="451090" />
	</node>
	<node id="-395152" lat="59.4631888886" lon="5.30796665936">
		<tag k="name" v="Gåsavatnet" />
		<tag k="natural" v="water" />
		<tag k="ssr:stedsnr" v="609636" />
	</node>
	<node id="-395151" lat="59.4552583355" lon="5.32459722053">
		<tag k="name" v="Nevrabekken" />
		<tag k="ssr:stedsnr" v="609634" />
		<tag k="waterway" v="stream" />
	</node>
	<node id="-394766" lat="59.4379833303" lon="5.33868610321">
		<tag k="name" v="Raudtjørn" />
		<tag k="natural" v="water" />
		<tag k="ssr:stedsnr" v="330648" />
	</node>
	<node id="-395149" lat="59.4638388922" lon="5.28775834173">
		<tag k="name" v="Randvatnet" />
		<tag k="natural" v="water" />
		<tag k="ssr:stedsnr" v="609627" />
	</node>
	<node id="-395276" lat="59.4717138915" lon="5.37952778058">
		<tag k="name" v="Krossneset" />
		<tag k="natural" v="cape" />
		<tag k="ssr:stedsnr" v="815296" />
	</node>
	<node id="-394903" lat="59.4715972216" lon="5.31469444149">
		<tag k="name" v="Dyrtjørn" />
		<tag k="natural" v="water" />
		<tag k="ssr:stedsnr" v="87607" />
	</node>
	<node id="-395145" lat="59.452472221" lon="5.31639722686">
		<tag k="alt_name" v="Rotavatnet" />
		<tag k="name" v="Rotatjørna" />
		<tag k="natural" v="water" />
		<tag k="ssr:stedsnr" v="608715" />
	</node>
	<node id="-395012" lat="59.4428166696" lon="5.29971944317">
		<tag k="alt_name" v="Tjelltjørn" />
		<tag k="name" v="Tjelltjørna" />
		<tag k="natural" v="water" />
		<tag k="ssr:stedsnr" v="426675" />
	</node>
	<node id="-394755" lat="59.4875416676" lon="5.2420111191">
		<tag k="name" v="Rennevatnet" />
		<tag k="natural" v="water" />
		<tag k="ssr:stedsnr" v="329824" />
		<tag k="water" v="lake" />
	</node>
	<node id="-394789" lat="59.4596166641" lon="5.36320277025">
		<tag k="name" v="Kvernavatnet" />
		<tag k="natural" v="water" />
		<tag k="ssr:stedsnr" v="367597" />
	</node>
	<node id="-395265" lat="59.4266638902" lon="5.29246665921">
		<tag k="name" v="Arkavatnet" />
		<tag k="natural" v="water" />
		<tag k="ssr:stedsnr" v="790689" />
	</node>
</osm>
