<?xml version="1.0" encoding="UTF-8"?>
<<<<<<< HEAD
<osm version="0.6" generator="osmapis">
	<node lat="59.40613055428095" lon="5.294644450699587" id="-17">
		<tag k="name" v="Grønåsen" />
		<tag k="natural" v="hill" />
		<tag k="place" v="locality" />
		<tag k="ssr:stedsnr" v="239075" />
	</node>
	<node lat="59.417586109984335" lon="5.300444437453451" id="-27">
		<tag k="name" v="Skåreskard" />
		<tag k="natural" v="valley" />
		<tag k="place" v="locality" />
		<tag k="ssr:stedsnr" v="241896" />
	</node>
	<node lat="59.44433333697697" lon="5.287977782419034" id="-34">
		<tag k="name" v="Kleivane" />
		<tag k="natural" v="valley" />
		<tag k="place" v="locality" />
		<tag k="ssr:stedsnr" v="87515" />
	</node>
	<node lat="59.45757222300427" lon="5.283244437409826" id="-35">
		<tag k="alt_name" v="norde Dalshaug" />
		<tag k="name" v="Nordre Dalshaug" />
		<tag k="natural" v="hill" />
		<tag k="place" v="locality" />
		<tag k="ssr:stedsnr" v="87525" />
	</node>
	<node lat="59.45827222370382" lon="5.272427786120352" id="-37">
		<tag k="name" v="Sletthammar" />
		<tag k="natural" v="hill" />
		<tag k="place" v="locality" />
		<tag k="ssr:stedsnr" v="87528" />
	</node>
	<node lat="59.48436110727527" lon="5.3630583368973435" id="-40">
		<tag k="alt_name" v="Kjersfjellet" />
		<tag k="fixme" v="consider natural=peak for the most distinct mountains in the district" />
		<tag k="name" v="Kjersfjell" />
		<tag k="natural" v="hill" />
		<tag k="place" v="locality" />
		<tag k="ssr:stedsnr" v="245682" />
	</node>
	<node lat="59.3935083299498" lon="5.310738897310823" id="-46">
		<tag k="name" v="Skuggaberg" />
		<tag k="natural" v="hill" />
		<tag k="place" v="locality" />
		<tag k="ssr:stedsnr" v="118088" />
	</node>
	<node lat="59.48306944208299" lon="5.3867305578158655" id="-60">
		<tag k="fixme" v="consider natural=peak for the most distinct mountains in the district" />
		<tag k="name" v="Litle Grasåsen" />
		<tag k="natural" v="hill" />
		<tag k="place" v="locality" />
		<tag k="ssr:stedsnr" v="208307" />
	</node>
	<node lat="59.492650003774614" lon="5.3645638837318215" id="-62">
		<tag k="fixme" v="consider natural=peak for the most distinct mountains in the district" />
		<tag k="name" v="Brotaskogfjellet" />
		<tag k="natural" v="hill" />
		<tag k="place" v="locality" />
		<tag k="ssr:stedsnr" v="209088" />
	</node>
	<node lat="59.40824721774923" lon="5.32464166389079" id="-75">
		<tag k="fixme" v="consider natural=peak for the most distinct mountains in the district" />
		<tag k="name" v="Eikjehammar" />
		<tag k="natural" v="hill" />
		<tag k="place" v="locality" />
		<tag k="ssr:stedsnr" v="269996" />
	</node>
	<node lat="59.455752780019786" lon="5.284397215909346" id="-84">
		<tag k="name" v="Søre Dalshaug" />
		<tag k="natural" v="hill" />
		<tag k="place" v="locality" />
		<tag k="ssr:stedsnr" v="451540" />
	</node>
	<node lat="59.417091665238324" lon="5.340827774136986" id="-93">
		<tag k="fixme" v="consider natural=peak for the most distinct mountains in the district" />
		<tag k="name" v="Stora Trongjo" />
		<tag k="natural" v="hill" />
		<tag k="place" v="locality" />
		<tag k="ssr:stedsnr" v="452999" />
	</node>
	<node lat="59.392577780343345" lon="5.331197213637945" id="-95">
		<tag k="name" v="Legehaug" />
		<tag k="natural" v="hill" />
		<tag k="place" v="locality" />
		<tag k="ssr:stedsnr" v="269522" />
	</node>
	<node lat="59.4402000038514" lon="5.083361119341329" id="-96">
		<tag k="alt_name" v="Brøvaren;Varden" />
		<tag k="name" v="Brødvarden" />
		<tag k="natural" v="hill" />
		<tag k="place" v="locality" />
		<tag k="ssr:stedsnr" v="269527" />
	</node>
	<node lat="59.40285833571349" lon="5.296905549591379" id="-107">
		<tag k="name" v="Hestmyr" />
		<tag k="place" v="locality" />
		<tag k="ssr:stedsnr" v="300089" />
	</node>
	<node lat="59.42187777845241" lon="5.3287888936717485" id="-111">
		<tag k="fixme" v="consider natural=peak for the most distinct mountains in the district" />
		<tag k="name" v="Steinsfjellet" />
		<tag k="natural" v="hill" />
		<tag k="place" v="locality" />
		<tag k="ssr:stedsnr" v="305679" />
	</node>
	<node lat="59.451344448277794" lon="5.256561113109833" id="-113">
		<tag k="alt_name" v="Torevaren" />
		<tag k="name" v="Torevarden" />
		<tag k="natural" v="hill" />
		<tag k="place" v="locality" />
		<tag k="ssr:stedsnr" v="305707" />
	</node>
	<node lat="59.46273008021239" lon="5.349304497144792" id="-123">
		<tag k="alt_name" v="norde Lauvåsen" />
=======
<osm generator="osmapis" version="0.6">
	<node id="-10240" lat="59.4358555513" lon="5.33915000421">
		<tag k="alt_name" v="norde Krokavassnuten" />
>>>>>>> e1d4bc35ff8a6074a6f2e91616a996b547c36f15
		<tag k="fixme" v="consider natural=peak for the most distinct mountains in the district" />
		<tag k="name" v="Nordre Lauvåsen" />
		<tag k="natural" v="hill" />
		<tag k="place" v="locality" />
		<tag k="ssr:stedsnr" v="330571" />
	</node>
<<<<<<< HEAD
	<node lat="59.451047225799584" lon="5.349758339723172" id="-124">
		<tag k="name" v="Utboredalen" />
		<tag k="natural" v="valley" />
=======
	<node id="-10236" lat="59.3986666655" lon="5.32533611789">
		<tag k="name" v="Brakahaug" />
		<tag k="natural" v="hill" />
>>>>>>> e1d4bc35ff8a6074a6f2e91616a996b547c36f15
		<tag k="place" v="locality" />
		<tag k="ssr:stedsnr" v="339006" />
	</node>
<<<<<<< HEAD
	<node lat="59.40032222554934" lon="5.287311110298872" id="-128">
		<tag k="name" v="Havåsen" />
=======
	<node id="-9723" lat="59.4726972185" lon="5.33139999239">
		<tag k="name" v="Duberg" />
>>>>>>> e1d4bc35ff8a6074a6f2e91616a996b547c36f15
		<tag k="natural" v="hill" />
		<tag k="place" v="locality" />
		<tag k="ssr:stedsnr" v="360062" />
	</node>
<<<<<<< HEAD
	<node lat="59.40243055244845" lon="5.288455548413911" id="-129">
		<tag k="name" v="Kyrkjeberget" />
=======
	<node id="-9722" lat="59.4527694458" lon="5.27558056403">
		<tag k="name" v="Slettebrekkene" />
		<tag k="natural" v="slope" />
>>>>>>> e1d4bc35ff8a6074a6f2e91616a996b547c36f15
		<tag k="place" v="locality" />
		<tag k="ssr:stedsnr" v="360067" />
	</node>
<<<<<<< HEAD
	<node lat="59.42904999788271" lon="5.29513610584369" id="-137">
		<tag k="name" v="Geitaklubben" />
=======
	<node id="-10232" lat="59.4373638868" lon="5.09727222579">
		<tag k="name" v="Hidlershaugen" />
>>>>>>> e1d4bc35ff8a6074a6f2e91616a996b547c36f15
		<tag k="natural" v="hill" />
		<tag k="place" v="locality" />
		<tag k="ssr:stedsnr" v="390507" />
	</node>
<<<<<<< HEAD
	<node lat="59.45054999704035" lon="5.260169436408908" id="-138">
=======
	<node id="-9716" lat="59.4170916652" lon="5.34082777414">
>>>>>>> e1d4bc35ff8a6074a6f2e91616a996b547c36f15
		<tag k="fixme" v="consider natural=peak for the most distinct mountains in the district" />
		<tag k="name" v="Raunefjell" />
		<tag k="natural" v="hill" />
		<tag k="place" v="locality" />
		<tag k="ssr:stedsnr" v="390849" />
	</node>
<<<<<<< HEAD
	<node lat="59.435569445839384" lon="5.315522217206117" id="-146">
		<tag k="name" v="Åsestølen" />
=======
	<node id="-10222" lat="59.4796805554" lon="5.32791389179">
		<tag k="fixme" v="consider natural=peak for the most distinct mountains in the district" />
		<tag k="name" v="Slettafjellet" />
>>>>>>> e1d4bc35ff8a6074a6f2e91616a996b547c36f15
		<tag k="natural" v="hill" />
		<tag k="place" v="locality" />
		<tag k="ssr:stedsnr" v="399006" />
	</node>
<<<<<<< HEAD
	<node lat="59.40638611249791" lon="5.31028333496389" id="-151">
		<tag k="fixme" v="consider natural=peak for the most distinct mountains in the district" />
		<tag k="name" v="Storasundfjellet" />
=======
	<node id="-10221" lat="59.4415500017" lon="5.31754165992">
		<tag k="name" v="Nordamyrshaugen" />
>>>>>>> e1d4bc35ff8a6074a6f2e91616a996b547c36f15
		<tag k="natural" v="hill" />
		<tag k="place" v="locality" />
		<tag k="ssr:stedsnr" v="487657" />
	</node>
<<<<<<< HEAD
	<node lat="59.47276110761164" lon="5.251691673388371" id="-152">
		<tag k="name" v="Storhaug" />
=======
	<node id="-9708" lat="59.4947333369" lon="5.23713610609">
		<tag k="fixme" v="consider natural=peak for the most distinct mountains in the district" />
		<tag k="name" v="Mikkjelsfjellet" />
>>>>>>> e1d4bc35ff8a6074a6f2e91616a996b547c36f15
		<tag k="natural" v="hill" />
		<tag k="place" v="locality" />
		<tag k="ssr:stedsnr" v="488691" />
	</node>
<<<<<<< HEAD
	<node lat="59.48043888453347" lon="5.38050000233755" id="-158">
		<tag k="fixme" v="consider natural=peak for the most distinct mountains in the district" />
		<tag k="name" v="Tømmerhaugen" />
=======
	<node id="-9706" lat="59.45575278" lon="5.28439721591">
		<tag k="name" v="Søre Dalshaug" />
>>>>>>> e1d4bc35ff8a6074a6f2e91616a996b547c36f15
		<tag k="natural" v="hill" />
		<tag k="place" v="locality" />
		<tag k="ssr:stedsnr" v="451324" />
	</node>
<<<<<<< HEAD
	<node lat="59.47990277632184" lon="5.337366671964225" id="-159">
=======
	<node id="-9702" lat="59.4799027763" lon="5.33736667196">
>>>>>>> e1d4bc35ff8a6074a6f2e91616a996b547c36f15
		<tag k="fixme" v="consider natural=peak for the most distinct mountains in the district" />
		<tag k="name" v="Ørnanuten" />
		<tag k="natural" v="hill" />
		<tag k="place" v="locality" />
		<tag k="ssr:stedsnr" v="451069" />
	</node>
<<<<<<< HEAD
	<node lat="59.494733336879875" lon="5.2371361060912465" id="-162">
=======
	<node id="-10208" lat="59.483691671" lon="5.38521389408">
>>>>>>> e1d4bc35ff8a6074a6f2e91616a996b547c36f15
		<tag k="fixme" v="consider natural=peak for the most distinct mountains in the district" />
		<tag k="name" v="Mikkjelsfjellet" />
		<tag k="natural" v="hill" />
		<tag k="place" v="locality" />
		<tag k="ssr:stedsnr" v="451869" />
	</node>
<<<<<<< HEAD
	<node lat="59.45276944583053" lon="5.275580564033999" id="-166">
		<tag k="name" v="Slettebrekkene" />
		<tag k="natural" v="slope" />
		<tag k="place" v="locality" />
		<tag k="ssr:stedsnr" v="460021" />
	</node>
	<node lat="59.472697218485195" lon="5.33139999238526" id="-167">
		<tag k="name" v="Duberg" />
=======
	<node id="-10201" lat="59.4341250016" lon="5.32300833262">
		<tag k="alt_name" v="Jøtnafjellet" />
		<tag k="fixme" v="consider natural=peak for the most distinct mountains in the district" />
		<tag k="name" v="Jøtnafjell" />
>>>>>>> e1d4bc35ff8a6074a6f2e91616a996b547c36f15
		<tag k="natural" v="hill" />
		<tag k="place" v="locality" />
		<tag k="ssr:stedsnr" v="460058" />
	</node>
<<<<<<< HEAD
	<node lat="59.41141388841502" lon="5.280663884408944" id="-168">
		<tag k="name" v="Hollenderhaugen" />
=======
	<node id="-9688" lat="59.4342611109" lon="5.30975277939">
		<tag k="name" v="Svartaberg" />
>>>>>>> e1d4bc35ff8a6074a6f2e91616a996b547c36f15
		<tag k="natural" v="hill" />
		<tag k="place" v="locality" />
		<tag k="ssr:stedsnr" v="482067" />
	</node>
	<node lat="59.41486111024266" lon="5.27862777772664" id="-170">
		<tag k="name" v="Flatmyr" />
		<tag k="place" v="locality" />
		<tag k="ssr:stedsnr" v="483917" />
	</node>
<<<<<<< HEAD
	<node lat="59.474441670083834" lon="5.365991672804428" id="-173">
=======
	<node id="-10190" lat="59.4157722219" lon="5.34107776956">
>>>>>>> e1d4bc35ff8a6074a6f2e91616a996b547c36f15
		<tag k="fixme" v="consider natural=peak for the most distinct mountains in the district" />
		<tag k="name" v="Klauv" />
		<tag k="natural" v="hill" />
		<tag k="place" v="locality" />
		<tag k="ssr:stedsnr" v="488697" />
	</node>
<<<<<<< HEAD
	<node lat="59.42905555896039" lon="5.334558336458122" id="-177">
		<tag k="name" v="Tjuvahelleren" />
=======
	<node id="-10189" lat="59.4168833322" lon="5.32053610981">
		<tag k="name" v="Stølshaug" />
>>>>>>> e1d4bc35ff8a6074a6f2e91616a996b547c36f15
		<tag k="natural" v="hill" />
		<tag k="place" v="locality" />
		<tag k="ssr:stedsnr" v="512630" />
	</node>
<<<<<<< HEAD
	<node lat="59.45580277590332" lon="5.330838896213755" id="-178">
		<tag k="fixme" v="consider natural=peak for the most distinct mountains in the district" />
		<tag k="name" v="Litla Eidsfjellet" />
=======
	<node id="-10187" lat="59.4706916713" lon="5.24762500618">
		<tag k="name" v="Storefjellet" />
>>>>>>> e1d4bc35ff8a6074a6f2e91616a996b547c36f15
		<tag k="natural" v="hill" />
		<tag k="place" v="locality" />
		<tag k="ssr:stedsnr" v="512567" />
	</node>
<<<<<<< HEAD
	<node lat="59.48155833177594" lon="5.230586119145155" id="-180">
		<tag k="name" v="Varen" />
=======
	<node id="-10186" lat="59.4687527815" lon="5.26873889566">
		<tag k="name" v="Vinsjanshaugen" />
>>>>>>> e1d4bc35ff8a6074a6f2e91616a996b547c36f15
		<tag k="natural" v="hill" />
		<tag k="place" v="locality" />
		<tag k="ssr:stedsnr" v="512911" />
	</node>
<<<<<<< HEAD
	<node lat="59.42682777482023" lon="5.341594446777752" id="-182">
		<tag k="name" v="Trolladalen" />
		<tag k="natural" v="valley" />
		<tag k="place" v="locality" />
		<tag k="ssr:stedsnr" v="521013" />
	</node>
	<node lat="59.39521389072155" lon="5.330688891955888" id="-187">
		<tag k="name" v="Myrhaug" />
=======
	<node id="-10185" lat="59.4735972208" lon="5.27264166846">
		<tag k="name" v="Andskoteheiane" />
>>>>>>> e1d4bc35ff8a6074a6f2e91616a996b547c36f15
		<tag k="natural" v="hill" />
		<tag k="place" v="locality" />
		<tag k="ssr:stedsnr" v="544774" />
	</node>
<<<<<<< HEAD
	<node lat="59.4615750033345" lon="5.242111104419419" id="-190">
		<tag k="alt_name" v="Tømmerhamar" />
		<tag k="fixme" v="consider natural=peak for the most distinct mountains in the district" />
		<tag k="name" v="Tømmerhammar" />
=======
	<node id="-10184" lat="59.4691749979" lon="5.30055000618">
		<tag k="name" v="Håvåsen" />
>>>>>>> e1d4bc35ff8a6074a6f2e91616a996b547c36f15
		<tag k="natural" v="hill" />
		<tag k="place" v="locality" />
		<tag k="ssr:stedsnr" v="548671" />
	</node>
<<<<<<< HEAD
	<node lat="59.49003888494426" lon="5.356352774066903" id="-197">
		<tag k="name" v="Sælateigane" />
=======
	<node id="-9671" lat="59.3925777803" lon="5.33119721364">
		<tag k="name" v="Legehaug" />
>>>>>>> e1d4bc35ff8a6074a6f2e91616a996b547c36f15
		<tag k="natural" v="hill" />
		<tag k="place" v="locality" />
		<tag k="ssr:stedsnr" v="572099" />
	</node>
<<<<<<< HEAD
	<node lat="59.436233329008964" lon="5.31857776953515" id="-205">
=======
	<node id="-10178" lat="59.436233329" lon="5.31857776954">
>>>>>>> e1d4bc35ff8a6074a6f2e91616a996b547c36f15
		<tag k="fixme" v="consider natural=peak for the most distinct mountains in the district" />
		<tag k="name" v="Kruk" />
		<tag k="natural" v="hill" />
		<tag k="place" v="locality" />
		<tag k="ssr:stedsnr" v="572551" />
	</node>
<<<<<<< HEAD
	<node lat="59.47069167131221" lon="5.247625006178668" id="-208">
		<tag k="name" v="Storefjellet" />
=======
	<node id="-10177" lat="59.4528166672" lon="5.27116111385">
		<tag k="name" v="Dyraskarhaugen" />
>>>>>>> e1d4bc35ff8a6074a6f2e91616a996b547c36f15
		<tag k="natural" v="hill" />
		<tag k="place" v="locality" />
		<tag k="ssr:stedsnr" v="572895" />
	</node>
<<<<<<< HEAD
	<node lat="59.4157722219467" lon="5.341077769564313" id="-210">
		<tag k="fixme" v="consider natural=peak for the most distinct mountains in the district" />
		<tag k="name" v="Litla Trongjo" />
=======
	<node id="-10175" lat="59.4900388849" lon="5.35635277407">
		<tag k="name" v="Sælateigane" />
>>>>>>> e1d4bc35ff8a6074a6f2e91616a996b547c36f15
		<tag k="natural" v="hill" />
		<tag k="place" v="locality" />
		<tag k="ssr:stedsnr" v="572998" />
	</node>
<<<<<<< HEAD
	<node lat="59.43744721907124" lon="5.085927783866988" id="-214">
		<tag k="name" v="Tuå" />
=======
	<node id="-9660" lat="59.4843611073" lon="5.3630583369">
		<tag k="alt_name" v="Kjersfjellet" />
		<tag k="fixme" v="consider natural=peak for the most distinct mountains in the district" />
		<tag k="name" v="Kjersfjell" />
>>>>>>> e1d4bc35ff8a6074a6f2e91616a996b547c36f15
		<tag k="natural" v="hill" />
		<tag k="place" v="locality" />
		<tag k="ssr:stedsnr" v="694499" />
	</node>
<<<<<<< HEAD
	<node lat="59.42594444793783" lon="5.324758336288577" id="-215">
		<tag k="alt_name" v="norde Nuten" />
=======
	<node id="-10171" lat="59.4615750033" lon="5.24211110442">
		<tag k="alt_name" v="Tømmerhamar" />
>>>>>>> e1d4bc35ff8a6074a6f2e91616a996b547c36f15
		<tag k="fixme" v="consider natural=peak for the most distinct mountains in the district" />
		<tag k="name" v="Nordre Nuten" />
		<tag k="natural" v="hill" />
		<tag k="place" v="locality" />
		<tag k="ssr:stedsnr" v="694593" />
	</node>
<<<<<<< HEAD
	<node lat="59.4406999997648" lon="5.246319448272866" id="-216">
		<tag k="name" v="Høgahaug" />
		<tag k="natural" v="hill" />
		<tag k="place" v="locality" />
		<tag k="ssr:stedsnr" v="694842" />
	</node>
	<node lat="59.483691671047936" lon="5.385213894080098" id="-234">
		<tag k="fixme" v="consider natural=peak for the most distinct mountains in the district" />
		<tag k="name" v="Grasåsen" />
=======
	<node id="-10168" lat="59.3952138907" lon="5.33068889196">
		<tag k="name" v="Myrhaug" />
		<tag k="natural" v="hill" />
		<tag k="place" v="locality" />
		<tag k="ssr:stedsnr" v="544774" />
	</node>
	<node id="-9654" lat="59.41758611" lon="5.30044443745">
		<tag k="name" v="Skåreskard" />
		<tag k="natural" v="valley" />
		<tag k="place" v="locality" />
		<tag k="ssr:stedsnr" v="241896" />
	</node>
	<node id="-9651" lat="59.4061305543" lon="5.2946444507">
		<tag k="name" v="Grønåsen" />
>>>>>>> e1d4bc35ff8a6074a6f2e91616a996b547c36f15
		<tag k="natural" v="hill" />
		<tag k="place" v="locality" />
		<tag k="ssr:stedsnr" v="609683" />
	</node>
<<<<<<< HEAD
	<node lat="59.45265000355649" lon="5.271933339794044" id="-235">
		<tag k="name" v="Dyrskar" />
=======
	<node id="-10161" lat="59.4268277748" lon="5.34159444678">
		<tag k="name" v="Trolladalen" />
>>>>>>> e1d4bc35ff8a6074a6f2e91616a996b547c36f15
		<tag k="natural" v="valley" />
		<tag k="place" v="locality" />
		<tag k="ssr:stedsnr" v="703050" />
	</node>
<<<<<<< HEAD
	<node lat="59.39734166788573" lon="5.330969442034361" id="-252">
		<tag k="name" v="Skjenhaug" />
=======
	<node id="-10144" lat="59.4332750008" lon="5.3129833325">
		<tag k="name" v="Klump" />
>>>>>>> e1d4bc35ff8a6074a6f2e91616a996b547c36f15
		<tag k="natural" v="hill" />
		<tag k="place" v="locality" />
		<tag k="ssr:stedsnr" v="666750" />
	</node>
<<<<<<< HEAD
	<node lat="59.47703055431716" lon="5.282497214945977" id="-258">
		<tag k="fixme" v="consider natural=peak for the most distinct mountains in the district" />
		<tag k="name" v="Bakkafjellet" />
=======
	<node id="-10143" lat="59.4647277762" lon="5.3347972285">
		<tag k="name" v="Leitene" />
>>>>>>> e1d4bc35ff8a6074a6f2e91616a996b547c36f15
		<tag k="natural" v="hill" />
		<tag k="place" v="locality" />
		<tag k="ssr:stedsnr" v="694610" />
	</node>
<<<<<<< HEAD
	<node lat="59.46448055864758" lon="5.372405560089926" id="-273">
		<tag k="name" v="Hamrane" />
=======
	<node id="-10141" lat="59.450549997" lon="5.26016943641">
		<tag k="fixme" v="consider natural=peak for the most distinct mountains in the district" />
		<tag k="name" v="Raunefjell" />
>>>>>>> e1d4bc35ff8a6074a6f2e91616a996b547c36f15
		<tag k="natural" v="hill" />
		<tag k="place" v="locality" />
		<tag k="ssr:stedsnr" v="764008" />
	</node>
<<<<<<< HEAD
	<node lat="59.44567778187943" lon="5.246427770246255" id="-294">
		<tag k="name" v="Ramnehaugen" />
		<tag k="natural" v="hill" />
=======
	<node id="-10135" lat="59.4872472216" lon="5.36252222281">
		<tag k="name" v="Skogaskar" />
		<tag k="natural" v="valley" />
>>>>>>> e1d4bc35ff8a6074a6f2e91616a996b547c36f15
		<tag k="place" v="locality" />
		<tag k="ssr:stedsnr" v="816886" />
	</node>
<<<<<<< HEAD
	<node lat="59.43312777381313" lon="5.265588897679009" id="-304">
		<tag k="name" v="Steinsneshaugen" />
=======
	<node id="-10134" lat="59.4899916641" lon="5.36506111498">
		<tag k="name" v="Ormhaugen" />
>>>>>>> e1d4bc35ff8a6074a6f2e91616a996b547c36f15
		<tag k="natural" v="hill" />
		<tag k="place" v="locality" />
		<tag k="ssr:stedsnr" v="876561" />
	</node>
<<<<<<< HEAD
	<node lat="59.43881111324828" lon="5.296102781363257" id="-305">
		<tag k="fixme" v="consider natural=peak for the most distinct mountains in the district" />
		<tag k="name" v="Risbrekka" />
		<tag k="natural" v="hill" />
		<tag k="place" v="locality" />
		<tag k="ssr:stedsnr" v="876562" />
	</node>
	<node lat="59.43106944378763" lon="5.296150004091356" id="-306">
		<tag k="name" v="Slettebrekka" />
		<tag k="natural" v="slope" />
=======
	<node id="-10123" lat="59.4024305524" lon="5.28845554841">
		<tag k="name" v="Kyrkjeberget" />
		<tag k="place" v="locality" />
		<tag k="ssr:stedsnr" v="360067" />
	</node>
	<node id="-10122" lat="59.4003222255" lon="5.2873111103">
		<tag k="name" v="Havåsen" />
		<tag k="natural" v="hill" />
		<tag k="place" v="locality" />
		<tag k="ssr:stedsnr" v="360062" />
	</node>
	<node id="-10118" lat="59.4510472258" lon="5.34975833972">
		<tag k="name" v="Utboredalen" />
		<tag k="natural" v="valley" />
>>>>>>> e1d4bc35ff8a6074a6f2e91616a996b547c36f15
		<tag k="place" v="locality" />
		<tag k="ssr:stedsnr" v="885015" />
	</node>
<<<<<<< HEAD
	<node lat="59.432330553851735" lon="5.331725007013757" id="-316">
=======
	<node id="-10116" lat="59.4627300802" lon="5.34930449714">
		<tag k="alt_name" v="norde Lauvåsen" />
>>>>>>> e1d4bc35ff8a6074a6f2e91616a996b547c36f15
		<tag k="fixme" v="consider natural=peak for the most distinct mountains in the district" />
		<tag k="name" v="Ørnanuten" />
		<tag k="natural" v="hill" />
		<tag k="place" v="locality" />
		<tag k="ssr:stedsnr" v="937641" />
	</node>
<<<<<<< HEAD
	<node lat="59.41829482448714" lon="5.294492583244252" id="-320">
		<tag k="name" v="Presthaug" />
		<tag k="natural" v="hill" />
=======
	<node id="-10110" lat="59.5018749986" lon="5.23253889478">
		<tag k="name" v="Smørsundsdalen" />
		<tag k="natural" v="valley" />
>>>>>>> e1d4bc35ff8a6074a6f2e91616a996b547c36f15
		<tag k="place" v="locality" />
		<tag k="ssr:stedsnr" v="969907" />
	</node>
<<<<<<< HEAD
	<node lat="59.483372223369834" lon="5.255952774571477" id="-325">
		<tag k="fixme" v="consider natural=peak for the most distinct mountains in the district" />
		<tag k="name" v="Bergafjellet" />
		<tag k="natural" v="hill" />
		<tag k="place" v="locality" />
		<tag k="ssr:stedsnr" v="2697" />
	</node>
	<node lat="59.480072222096815" lon="5.366141662342619" id="-332">
		<tag k="name" v="Ørehaugen" />
=======
	<node id="-10105" lat="59.4554833354" lon="5.25578056255">
		<tag k="alt_name" v="norde Asparhaug" />
		<tag k="name" v="Nordre Asparhaug" />
>>>>>>> e1d4bc35ff8a6074a6f2e91616a996b547c36f15
		<tag k="natural" v="hill" />
		<tag k="place" v="locality" />
		<tag k="ssr:stedsnr" v="27045" />
	</node>
<<<<<<< HEAD
	<node lat="59.49223333019029" lon="5.266847221880124" id="-337">
		<tag k="name" v="Nesatuå" />
=======
	<node id="-10093" lat="59.4218777785" lon="5.32878889367">
		<tag k="fixme" v="consider natural=peak for the most distinct mountains in the district" />
		<tag k="name" v="Steinsfjellet" />
>>>>>>> e1d4bc35ff8a6074a6f2e91616a996b547c36f15
		<tag k="natural" v="hill" />
		<tag k="place" v="locality" />
		<tag k="ssr:stedsnr" v="27641" />
	</node>
<<<<<<< HEAD
	<node lat="59.48266389047124" lon="5.377577773402811" id="-355">
=======
	<node id="-10091" lat="59.4204972266" lon="5.3352722269">
>>>>>>> e1d4bc35ff8a6074a6f2e91616a996b547c36f15
		<tag k="fixme" v="consider natural=peak for the most distinct mountains in the district" />
		<tag k="name" v="Bruhaugen" />
		<tag k="natural" v="hill" />
		<tag k="place" v="locality" />
		<tag k="ssr:stedsnr" v="87288" />
	</node>
<<<<<<< HEAD
	<node lat="59.496400002874005" lon="5.239372226110205" id="-361">
=======
	<node id="-10090" lat="59.4877444403" lon="5.25966944162">
>>>>>>> e1d4bc35ff8a6074a6f2e91616a996b547c36f15
		<tag k="fixme" v="consider natural=peak for the most distinct mountains in the district" />
		<tag k="name" v="Syllarefjellet" />
		<tag k="natural" v="hill" />
		<tag k="place" v="locality" />
		<tag k="ssr:stedsnr" v="87853" />
	</node>
<<<<<<< HEAD
	<node lat="59.458497223025624" lon="5.247097221428725" id="-363">
		<tag k="name" v="Revadalen" />
=======
	<node id="-10087" lat="59.4271166648" lon="5.31378889418">
		<tag k="name" v="Djupadalen" />
>>>>>>> e1d4bc35ff8a6074a6f2e91616a996b547c36f15
		<tag k="natural" v="valley" />
		<tag k="place" v="locality" />
		<tag k="ssr:stedsnr" v="87858" />
	</node>
<<<<<<< HEAD
	<node lat="59.428172221393936" lon="5.259716661691196" id="-364">
		<tag k="name" v="Krosshaugen" />
=======
	<node id="-10080" lat="59.4926500038" lon="5.36456388373">
		<tag k="fixme" v="consider natural=peak for the most distinct mountains in the district" />
		<tag k="name" v="Brotaskogfjellet" />
>>>>>>> e1d4bc35ff8a6074a6f2e91616a996b547c36f15
		<tag k="natural" v="hill" />
		<tag k="place" v="locality" />
		<tag k="ssr:stedsnr" v="87865" />
	</node>
<<<<<<< HEAD
	<node lat="59.39143162701225" lon="5.313689979114022" id="-367">
		<tag k="name" v="Niphaug" />
=======
	<node id="-10070" lat="59.4830694421" lon="5.38673055782">
		<tag k="fixme" v="consider natural=peak for the most distinct mountains in the district" />
		<tag k="name" v="Litle Grasåsen" />
>>>>>>> e1d4bc35ff8a6074a6f2e91616a996b547c36f15
		<tag k="natural" v="hill" />
		<tag k="place" v="locality" />
		<tag k="ssr:stedsnr" v="118092" />
	</node>
<<<<<<< HEAD
	<node lat="59.389036112073946" lon="5.295030552081262" id="-368">
		<tag k="name" v="Sakkastadhaugen" />
		<tag k="natural" v="hill" />
		<tag k="place" v="locality" />
		<tag k="ssr:stedsnr" v="118097" />
	</node>
	<node lat="59.4286805597374" lon="5.30313333849435" id="-372">
		<tag k="alt_name" v="Arkjå" />
=======
	<node id="-10066" lat="59.4623475596" lon="5.34876814907">
>>>>>>> e1d4bc35ff8a6074a6f2e91616a996b547c36f15
		<tag k="fixme" v="consider natural=peak for the most distinct mountains in the district" />
		<tag k="name" v="Arka" />
		<tag k="natural" v="hill" />
		<tag k="place" v="locality" />
		<tag k="ssr:stedsnr" v="122641" />
	</node>
<<<<<<< HEAD
	<node lat="59.447047220876144" lon="5.342083337548672" id="-374">
		<tag k="alt_name" v="Høgafjellet" />
		<tag k="fixme" v="consider natural=peak for the most distinct mountains in the district" />
		<tag k="name" v="Høgafjell" />
		<tag k="natural" v="hill" />
		<tag k="place" v="locality" />
		<tag k="ssr:stedsnr" v="122657" />
	</node>
	<node lat="59.448011108063" lon="5.280561103299223" id="-376">
=======
	<node id="-10056" lat="59.4815611092" lon="5.23058610967">
		<tag k="name" v="Varden" />
		<tag k="natural" v="hill" />
		<tag k="place" v="locality" />
		<tag k="ssr:stedsnr" v="157046" />
	</node>
	<node id="-10055" lat="59.4147249955" lon="5.33269165896">
		<tag k="name" v="Buene" />
		<tag k="natural" v="slope" />
		<tag k="place" v="locality" />
		<tag k="ssr:stedsnr" v="157042" />
	</node>
	<node id="-10053" lat="59.4122055529" lon="5.29956388052">
>>>>>>> e1d4bc35ff8a6074a6f2e91616a996b547c36f15
		<tag k="fixme" v="consider natural=peak for the most distinct mountains in the district" />
		<tag k="name" v="Nuten" />
		<tag k="natural" v="hill" />
		<tag k="place" v="locality" />
		<tag k="ssr:stedsnr" v="122672" />
	</node>
<<<<<<< HEAD
	<node lat="59.48103611435508" lon="5.34791944973113" id="-378">
=======
	<node id="-10045" lat="59.4810361144" lon="5.34791944973">
>>>>>>> e1d4bc35ff8a6074a6f2e91616a996b547c36f15
		<tag k="fixme" v="consider natural=peak for the most distinct mountains in the district" />
		<tag k="name" v="Såt" />
		<tag k="natural" v="hill" />
		<tag k="place" v="locality" />
		<tag k="ssr:stedsnr" v="123740" />
	</node>
<<<<<<< HEAD
	<node lat="59.41220555288344" lon="5.299563880524887" id="-388">
=======
	<node id="-10043" lat="59.4480111081" lon="5.2805611033">
>>>>>>> e1d4bc35ff8a6074a6f2e91616a996b547c36f15
		<tag k="fixme" v="consider natural=peak for the most distinct mountains in the district" />
		<tag k="name" v="Vardafjellet" />
		<tag k="natural" v="hill" />
		<tag k="place" v="locality" />
		<tag k="ssr:stedsnr" v="148943" />
	</node>
<<<<<<< HEAD
	<node lat="59.41472499546518" lon="5.3326916589577635" id="-390">
		<tag k="name" v="Buene" />
		<tag k="natural" v="slope" />
		<tag k="place" v="locality" />
		<tag k="ssr:stedsnr" v="157042" />
	</node>
	<node lat="59.48156110922886" lon="5.23058610967155" id="-391">
		<tag k="name" v="Varden" />
=======
	<node id="-10041" lat="59.4470472209" lon="5.34208333755">
		<tag k="alt_name" v="Høgafjellet" />
		<tag k="fixme" v="consider natural=peak for the most distinct mountains in the district" />
		<tag k="name" v="Høgafjell" />
>>>>>>> e1d4bc35ff8a6074a6f2e91616a996b547c36f15
		<tag k="natural" v="hill" />
		<tag k="place" v="locality" />
		<tag k="ssr:stedsnr" v="157046" />
	</node>
<<<<<<< HEAD
	<node lat="59.46234755959189" lon="5.348768149067125" id="-401">
=======
	<node id="-10039" lat="59.4286805597" lon="5.30313333849">
		<tag k="alt_name" v="Arkjå" />
>>>>>>> e1d4bc35ff8a6074a6f2e91616a996b547c36f15
		<tag k="fixme" v="consider natural=peak for the most distinct mountains in the district" />
		<tag k="name" v="Lauvåsen" />
		<tag k="natural" v="hill" />
		<tag k="place" v="locality" />
		<tag k="ssr:stedsnr" v="185615" />
	</node>
<<<<<<< HEAD
	<node lat="59.42711666482629" lon="5.313788894175807" id="-414">
		<tag k="name" v="Djupadalen" />
		<tag k="natural" v="valley" />
=======
	<node id="-10033" lat="59.3890361121" lon="5.29503055208">
		<tag k="name" v="Sakkastadhaugen" />
		<tag k="natural" v="hill" />
>>>>>>> e1d4bc35ff8a6074a6f2e91616a996b547c36f15
		<tag k="place" v="locality" />
		<tag k="ssr:stedsnr" v="209564" />
	</node>
<<<<<<< HEAD
	<node lat="59.420497226645715" lon="5.335272226897734" id="-419">
		<tag k="fixme" v="consider natural=peak for the most distinct mountains in the district" />
		<tag k="name" v="Hetleberg" />
=======
	<node id="-10032" lat="59.391431627" lon="5.31368997911">
		<tag k="name" v="Niphaug" />
>>>>>>> e1d4bc35ff8a6074a6f2e91616a996b547c36f15
		<tag k="natural" v="hill" />
		<tag k="place" v="locality" />
		<tag k="ssr:stedsnr" v="209999" />
	</node>
<<<<<<< HEAD
	<node lat="59.487744440274035" lon="5.259669441618875" id="-420">
		<tag k="fixme" v="consider natural=peak for the most distinct mountains in the district" />
		<tag k="name" v="Hammaren" />
=======
	<node id="-10031" lat="59.3935083299" lon="5.31073889731">
		<tag k="name" v="Skuggaberg" />
>>>>>>> e1d4bc35ff8a6074a6f2e91616a996b547c36f15
		<tag k="natural" v="hill" />
		<tag k="place" v="locality" />
		<tag k="ssr:stedsnr" v="209864" />
	</node>
<<<<<<< HEAD
	<node lat="59.43426111087982" lon="5.309752779387453" id="-421">
		<tag k="name" v="Svartaberg" />
=======
	<node id="-10024" lat="59.4281722214" lon="5.25971666169">
		<tag k="name" v="Krosshaugen" />
>>>>>>> e1d4bc35ff8a6074a6f2e91616a996b547c36f15
		<tag k="natural" v="hill" />
		<tag k="place" v="locality" />
		<tag k="ssr:stedsnr" v="278015" />
	</node>
<<<<<<< HEAD
	<node lat="59.44636388743647" lon="5.289497227886847" id="-422">
		<tag k="name" v="Karikovane" />
=======
	<node id="-10023" lat="59.458497223" lon="5.24709722143">
		<tag k="name" v="Revadalen" />
		<tag k="natural" v="valley" />
>>>>>>> e1d4bc35ff8a6074a6f2e91616a996b547c36f15
		<tag k="place" v="locality" />
		<tag k="ssr:stedsnr" v="278056" />
	</node>
<<<<<<< HEAD
	<node lat="59.45548333540377" lon="5.255780562553184" id="-429">
		<tag k="alt_name" v="norde Asparhaug" />
		<tag k="name" v="Nordre Asparhaug" />
=======
	<node id="-10021" lat="59.4964000029" lon="5.23937222611">
		<tag k="fixme" v="consider natural=peak for the most distinct mountains in the district" />
		<tag k="name" v="Syllarefjellet" />
>>>>>>> e1d4bc35ff8a6074a6f2e91616a996b547c36f15
		<tag k="natural" v="hill" />
		<tag k="place" v="locality" />
		<tag k="ssr:stedsnr" v="329833" />
	</node>
<<<<<<< HEAD
	<node lat="59.50187499861628" lon="5.232538894776789" id="-436">
		<tag k="name" v="Smørsundsdalen" />
		<tag k="natural" v="valley" />
=======
	<node id="-10016" lat="59.4582722237" lon="5.27242778612">
		<tag k="name" v="Sletthammar" />
		<tag k="natural" v="hill" />
>>>>>>> e1d4bc35ff8a6074a6f2e91616a996b547c36f15
		<tag k="place" v="locality" />
		<tag k="ssr:stedsnr" v="329885" />
	</node>
<<<<<<< HEAD
	<node lat="59.48999166407144" lon="5.365061114977696" id="-454">
		<tag k="name" v="Ormhaugen" />
=======
	<node id="-10014" lat="59.457572223" lon="5.28324443741">
		<tag k="alt_name" v="norde Dalshaug" />
		<tag k="name" v="Nordre Dalshaug" />
>>>>>>> e1d4bc35ff8a6074a6f2e91616a996b547c36f15
		<tag k="natural" v="hill" />
		<tag k="place" v="locality" />
		<tag k="ssr:stedsnr" v="390081" />
	</node>
<<<<<<< HEAD
	<node lat="59.487247221574954" lon="5.362522222811268" id="-455">
		<tag k="name" v="Skogaskar" />
=======
	<node id="-10011" lat="59.444333337" lon="5.28797778242">
		<tag k="name" v="Kleivane" />
>>>>>>> e1d4bc35ff8a6074a6f2e91616a996b547c36f15
		<tag k="natural" v="valley" />
		<tag k="place" v="locality" />
		<tag k="ssr:stedsnr" v="390083" />
	</node>
<<<<<<< HEAD
	<node lat="59.46439999944881" lon="5.25112777072201" id="-463">
		<tag k="name" v="Bjørkhaug" />
=======
	<node id="-10009" lat="59.4826638905" lon="5.3775777734">
		<tag k="fixme" v="consider natural=peak for the most distinct mountains in the district" />
		<tag k="name" v="Bruhaugen" />
>>>>>>> e1d4bc35ff8a6074a6f2e91616a996b547c36f15
		<tag k="natural" v="hill" />
		<tag k="place" v="locality" />
		<tag k="ssr:stedsnr" v="390882" />
	</node>
<<<<<<< HEAD
	<node lat="59.40355000159076" lon="5.3135416647848555" id="-464">
		<tag k="fixme" v="consider natural=peak for the most distinct mountains in the district" />
		<tag k="name" v="Lysskarfjellet" />
		<tag k="natural" v="hill" />
		<tag k="place" v="locality" />
		<tag k="ssr:stedsnr" v="391918" />
	</node>
	<node lat="59.464727776216854" lon="5.33479722849828" id="-466">
		<tag k="name" v="Leitene" />
		<tag k="natural" v="hill" />
=======
	<node id="-9689" lat="59.4463638874" lon="5.28949722789">
		<tag k="name" v="Karikovane" />
		<tag k="place" v="locality" />
		<tag k="ssr:stedsnr" v="278056" />
	</node>
	<node id="-9983" lat="59.4028583357" lon="5.29690554959">
		<tag k="name" v="Hestmyr" />
>>>>>>> e1d4bc35ff8a6074a6f2e91616a996b547c36f15
		<tag k="place" v="locality" />
		<tag k="ssr:stedsnr" v="399042" />
	</node>
<<<<<<< HEAD
	<node lat="59.433275000844084" lon="5.31298333249671" id="-467">
		<tag k="name" v="Klump" />
=======
	<node id="-10289" lat="59.4682694469" lon="5.36730276873">
		<tag k="name" v="Mannaberg" />
		<tag k="natural" v="hill" />
		<tag k="place" v="locality" />
		<tag k="ssr:stedsnr" v="876095" />
	</node>
	<node id="-9977" lat="59.4922333302" lon="5.26684722188">
		<tag k="name" v="Nesatuå" />
>>>>>>> e1d4bc35ff8a6074a6f2e91616a996b547c36f15
		<tag k="natural" v="hill" />
		<tag k="place" v="locality" />
		<tag k="ssr:stedsnr" v="399049" />
	</node>
<<<<<<< HEAD
	<node lat="59.40101666383543" lon="5.330725002975666" id="-475">
=======
	<node id="-9959" lat="59.4833722234" lon="5.25595277457">
>>>>>>> e1d4bc35ff8a6074a6f2e91616a996b547c36f15
		<tag k="fixme" v="consider natural=peak for the most distinct mountains in the district" />
		<tag k="name" v="Skjenarefjellet" />
		<tag k="natural" v="hill" />
		<tag k="place" v="locality" />
		<tag k="ssr:stedsnr" v="426624" />
	</node>
<<<<<<< HEAD
	<node lat="59.45415000337248" lon="5.255222230625931" id="-486">
		<tag k="name" v="Søre Asparhaug" />
=======
	<node id="-9954" lat="59.3915455986" lon="5.31878760201">
		<tag k="name" v="Jamnhaug" />
>>>>>>> e1d4bc35ff8a6074a6f2e91616a996b547c36f15
		<tag k="natural" v="hill" />
		<tag k="place" v="locality" />
		<tag k="ssr:stedsnr" v="511844" />
	</node>
<<<<<<< HEAD
	<node lat="59.476463886148636" lon="5.3326861061160304" id="-489">
		<tag k="name" v="Iglahaugen" />
=======
	<node id="-9953" lat="59.3940549615" lon="5.31809349618">
		<tag k="name" v="Raglatua" />
>>>>>>> e1d4bc35ff8a6074a6f2e91616a996b547c36f15
		<tag k="natural" v="hill" />
		<tag k="place" v="locality" />
		<tag k="ssr:stedsnr" v="512053" />
	</node>
<<<<<<< HEAD
	<node lat="59.43934722414334" lon="5.090030555544772" id="-492">
		<tag k="loc_name" v="Sjøbuhaugen;Skybbehaugen" />
		<tag k="name" v="Sjubbehaugen" />
=======
	<node id="-9952" lat="59.4182948245" lon="5.29449258324">
		<tag k="name" v="Presthaug" />
>>>>>>> e1d4bc35ff8a6074a6f2e91616a996b547c36f15
		<tag k="natural" v="hill" />
		<tag k="place" v="locality" />
		<tag k="ssr:stedsnr" v="512557" />
	</node>
<<<<<<< HEAD
	<node lat="59.42513611457299" lon="5.3269166605206015" id="-494">
		<tag k="fixme" v="consider natural=peak for the most distinct mountains in the district" />
		<tag k="name" v="Søre Nuten" />
		<tag k="natural" v="hill" />
		<tag k="place" v="locality" />
		<tag k="ssr:stedsnr" v="512637" />
	</node>
	<node lat="59.476666668152134" lon="5.307791660044699" id="-495">
		<tag k="name" v="Gravdalsåsen" />
		<tag k="natural" v="hill" />
=======
	<node id="-9951" lat="59.4019166622" lon="5.30173332729">
		<tag k="name" v="Porshaug" />
		<tag k="natural" v="hill" />
		<tag k="place" v="locality" />
		<tag k="ssr:stedsnr" v="967078" />
	</node>
	<node id="-9940" lat="59.4310694438" lon="5.29615000409">
		<tag k="name" v="Slettebrekka" />
		<tag k="natural" v="slope" />
		<tag k="place" v="locality" />
		<tag k="ssr:stedsnr" v="885015" />
	</node>
	<node id="-9678" lat="59.4082472177" lon="5.32464166389">
		<tag k="fixme" v="consider natural=peak for the most distinct mountains in the district" />
		<tag k="name" v="Eikjehammar" />
		<tag k="natural" v="hill" />
		<tag k="place" v="locality" />
		<tag k="ssr:stedsnr" v="269996" />
	</node>
	<node id="-9937" lat="59.4366555567" lon="5.08751389565">
		<tag k="name" v="Dalen" />
		<tag k="natural" v="valley" />
>>>>>>> e1d4bc35ff8a6074a6f2e91616a996b547c36f15
		<tag k="place" v="locality" />
		<tag k="ssr:stedsnr" v="512655" />
	</node>
<<<<<<< HEAD
	<node lat="59.47843055872426" lon="5.270919437972744" id="-496">
		<tag k="name" v="Klumpane" />
=======
	<node id="-9931" lat="59.4663583356" lon="5.29472499315">
		<tag k="name" v="Åsen" />
>>>>>>> e1d4bc35ff8a6074a6f2e91616a996b547c36f15
		<tag k="natural" v="hill" />
		<tag k="place" v="locality" />
		<tag k="ssr:stedsnr" v="512657" />
	</node>
<<<<<<< HEAD
	<node lat="59.414202775842" lon="5.303263881047039" id="-500">
		<tag k="name" v="Mosskardsfjellet" />
=======
	<node id="-9930" lat="59.4930805595" lon="5.26360555737">
		<tag k="name" v="Storhaug" />
>>>>>>> e1d4bc35ff8a6074a6f2e91616a996b547c36f15
		<tag k="natural" v="hill" />
		<tag k="place" v="locality" />
		<tag k="ssr:stedsnr" v="544925" />
	</node>
<<<<<<< HEAD
	<node lat="59.46917499785388" lon="5.300550006175011" id="-502">
		<tag k="name" v="Håvåsen" />
=======
	<node id="-9928" lat="59.4323305539" lon="5.33172500701">
		<tag k="fixme" v="consider natural=peak for the most distinct mountains in the district" />
		<tag k="name" v="Ørnanuten" />
>>>>>>> e1d4bc35ff8a6074a6f2e91616a996b547c36f15
		<tag k="natural" v="hill" />
		<tag k="place" v="locality" />
		<tag k="ssr:stedsnr" v="572631" />
	</node>
<<<<<<< HEAD
	<node lat="59.4735972207978" lon="5.272641668458337" id="-503">
		<tag k="name" v="Andskoteheiane" />
=======
	<node id="-9926" lat="59.4221055599" lon="5.30245000496">
		<tag k="name" v="Kvernahaugen" />
>>>>>>> e1d4bc35ff8a6074a6f2e91616a996b547c36f15
		<tag k="natural" v="hill" />
		<tag k="place" v="locality" />
		<tag k="ssr:stedsnr" v="572634" />
	</node>
<<<<<<< HEAD
	<node lat="59.46875278147623" lon="5.268738895664519" id="-504">
		<tag k="name" v="Vinsjanshaugen" />
=======
	<node id="-9925" lat="59.4612055555" lon="5.34790555934">
		<tag k="fixme" v="consider natural=peak for the most distinct mountains in the district" />
		<tag k="name" v="Søre Lauvåsen" />
>>>>>>> e1d4bc35ff8a6074a6f2e91616a996b547c36f15
		<tag k="natural" v="hill" />
		<tag k="place" v="locality" />
		<tag k="ssr:stedsnr" v="572637" />
	</node>
<<<<<<< HEAD
	<node lat="59.45281666722612" lon="5.271161113845266" id="-507">
		<tag k="name" v="Dyraskarhaugen" />
		<tag k="natural" v="hill" />
=======
	<node id="-9924" lat="59.4498916697" lon="5.33895276864">
		<tag k="name" v="Sandvassbrekkene" />
		<tag k="natural" v="slope" />
>>>>>>> e1d4bc35ff8a6074a6f2e91616a996b547c36f15
		<tag k="place" v="locality" />
		<tag k="ssr:stedsnr" v="572534" />
	</node>
<<<<<<< HEAD
	<node lat="59.41688333215961" lon="5.320536109813479" id="-509">
		<tag k="name" v="Stølshaug" />
=======
	<node id="-9920" lat="59.4852000041" lon="5.35243888426">
		<tag k="fixme" v="consider natural=peak for the most distinct mountains in the district" />
		<tag k="name" v="Trettelivarden" />
>>>>>>> e1d4bc35ff8a6074a6f2e91616a996b547c36f15
		<tag k="natural" v="hill" />
		<tag k="place" v="locality" />
		<tag k="ssr:stedsnr" v="572982" />
	</node>
<<<<<<< HEAD
	<node lat="59.45237221869412" lon="5.267655548278198" id="-510">
		<tag k="name" v="Halsane" />
=======
	<node id="-9913" lat="59.450266667" lon="5.29299444257">
		<tag k="name" v="Grønebrekksdalen" />
		<tag k="natural" v="valley" />
>>>>>>> e1d4bc35ff8a6074a6f2e91616a996b547c36f15
		<tag k="place" v="locality" />
		<tag k="ssr:stedsnr" v="581060" />
	</node>
<<<<<<< HEAD
	<node lat="59.43412500161112" lon="5.323008332616006" id="-518">
		<tag k="alt_name" v="Jøtnafjellet" />
		<tag k="fixme" v="consider natural=peak for the most distinct mountains in the district" />
		<tag k="name" v="Jøtnafjell" />
=======
	<node id="-9908" lat="59.4713861139" lon="5.34764167377">
		<tag k="fixme" v="consider natural=peak for the most distinct mountains in the district" />
		<tag k="name" v="Harafjellet" />
		<tag k="natural" v="hill" />
		<tag k="place" v="locality" />
		<tag k="ssr:stedsnr" v="816070" />
	</node>
	<node id="-9907" lat="59.4753277816" lon="5.34514443922">
		<tag k="name" v="Nipane" />
>>>>>>> e1d4bc35ff8a6074a6f2e91616a996b547c36f15
		<tag k="natural" v="hill" />
		<tag k="place" v="locality" />
		<tag k="ssr:stedsnr" v="608667" />
	</node>
<<<<<<< HEAD
	<node lat="59.46008889191478" lon="5.33124167302836" id="-527">
=======
	<node id="-9672" lat="59.4402000039" lon="5.08336111934">
		<tag k="alt_name" v="Brøvaren;Varden" />
		<tag k="name" v="Brødvarden" />
		<tag k="natural" v="hill" />
		<tag k="place" v="locality" />
		<tag k="ssr:stedsnr" v="269527" />
	</node>
	<node id="-9890" lat="59.4770305543" lon="5.28249721495">
>>>>>>> e1d4bc35ff8a6074a6f2e91616a996b547c36f15
		<tag k="fixme" v="consider natural=peak for the most distinct mountains in the district" />
		<tag k="name" v="Eidsfjellet" />
		<tag k="natural" v="hill" />
		<tag k="place" v="locality" />
		<tag k="ssr:stedsnr" v="609617" />
	</node>
<<<<<<< HEAD
	<node lat="59.44155000168089" lon="5.317541659917154" id="-542">
		<tag k="name" v="Nordamyrshaugen" />
=======
	<node id="-9879" lat="59.4903138904" lon="5.2375305591">
		<tag k="name" v="Bogshamnshaugen" />
>>>>>>> e1d4bc35ff8a6074a6f2e91616a996b547c36f15
		<tag k="natural" v="hill" />
		<tag k="place" v="locality" />
		<tag k="ssr:stedsnr" v="642053" />
	</node>
<<<<<<< HEAD
	<node lat="59.47968055537161" lon="5.327913891787799" id="-543">
=======
	<node id="-9869" lat="59.4388111132" lon="5.29610278136">
>>>>>>> e1d4bc35ff8a6074a6f2e91616a996b547c36f15
		<tag k="fixme" v="consider natural=peak for the most distinct mountains in the district" />
		<tag k="name" v="Slettafjellet" />
		<tag k="natural" v="hill" />
		<tag k="place" v="locality" />
		<tag k="ssr:stedsnr" v="642059" />
	</node>
<<<<<<< HEAD
	<node lat="59.39558889063151" lon="5.283986115044781" id="-559">
		<tag k="name" v="Orshaugane" />
=======
	<node id="-9868" lat="59.4331277738" lon="5.26558889768">
		<tag k="name" v="Steinsneshaugen" />
>>>>>>> e1d4bc35ff8a6074a6f2e91616a996b547c36f15
		<tag k="natural" v="hill" />
		<tag k="place" v="locality" />
		<tag k="ssr:stedsnr" v="725084" />
	</node>
<<<<<<< HEAD
	<node lat="59.49395000376286" lon="5.2434944487500665" id="-565">
=======
	<node id="-9860" lat="59.4939500038" lon="5.24349444875">
>>>>>>> e1d4bc35ff8a6074a6f2e91616a996b547c36f15
		<tag k="fixme" v="multiple name tags, choose one and add the other to alt_name" />
		<tag k="name" v="Skiftesvikfjellet;Midtfjellet" />
		<tag k="natural" v="hill" />
		<tag k="place" v="locality" />
		<tag k="ssr:stedsnr" v="730777" />
	</node>
<<<<<<< HEAD
	<node lat="59.43736388681979" lon="5.097272225791031" id="-571">
		<tag k="name" v="Hidlershaugen" />
=======
	<node id="-9846" lat="59.3955888906" lon="5.28398611504">
		<tag k="name" v="Orshaugane" />
>>>>>>> e1d4bc35ff8a6074a6f2e91616a996b547c36f15
		<tag k="natural" v="hill" />
		<tag k="place" v="locality" />
		<tag k="ssr:stedsnr" v="755076" />
	</node>
	<node lat="59.39866666547092" lon="5.325336117892773" id="-574">
		<tag k="name" v="Brakahaug" />
		<tag k="natural" v="hill" />
		<tag k="place" v="locality" />
		<tag k="ssr:stedsnr" v="755542" />
	</node>
<<<<<<< HEAD
	<node lat="59.43585555125052" lon="5.339150004206072" id="-576">
		<tag k="alt_name" v="norde Krokavassnuten" />
=======
	<node id="-10259" lat="59.4898055558" lon="5.23183333447">
		<tag k="name" v="Svehaug" />
		<tag k="natural" v="hill" />
		<tag k="place" v="locality" />
		<tag k="ssr:stedsnr" v="791696" />
	</node>
	<node id="-9839" lat="59.4600888919" lon="5.33124167303">
>>>>>>> e1d4bc35ff8a6074a6f2e91616a996b547c36f15
		<tag k="fixme" v="consider natural=peak for the most distinct mountains in the district" />
		<tag k="name" v="Nordre Krokavassnuten" />
		<tag k="natural" v="hill" />
		<tag k="place" v="locality" />
		<tag k="ssr:stedsnr" v="755612" />
	</node>
<<<<<<< HEAD
	<node lat="59.398611114811736" lon="5.316255552559416" id="-581">
		<tag k="name" v="Svehaug" />
		<tag k="natural" v="hill" />
=======
	<node id="-9824" lat="59.4523722187" lon="5.26765554828">
		<tag k="name" v="Halsane" />
>>>>>>> e1d4bc35ff8a6074a6f2e91616a996b547c36f15
		<tag k="place" v="locality" />
		<tag k="ssr:stedsnr" v="755978" />
	</node>
<<<<<<< HEAD
	<node lat="59.41761944263627" lon="5.316180553569108" id="-582">
		<tag k="name" v="Husabråtene" />
		<tag k="natural" v="slope" />
=======
	<node id="-9816" lat="59.4526500036" lon="5.27193333979">
		<tag k="name" v="Dyrskar" />
		<tag k="natural" v="valley" />
>>>>>>> e1d4bc35ff8a6074a6f2e91616a996b547c36f15
		<tag k="place" v="locality" />
		<tag k="ssr:stedsnr" v="755931" />
	</node>
<<<<<<< HEAD
	<node lat="59.40710277809937" lon="5.340688893052548" id="-583">
		<tag k="name" v="Bergsodden" />
=======
	<node id="-9811" lat="59.4406999998" lon="5.24631944827">
		<tag k="name" v="Høgahaug" />
>>>>>>> e1d4bc35ff8a6074a6f2e91616a996b547c36f15
		<tag k="natural" v="hill" />
		<tag k="place" v="locality" />
		<tag k="ssr:stedsnr" v="764054" />
	</node>
<<<<<<< HEAD
	<node lat="59.489805555778936" lon="5.231833334469489" id="-590">
		<tag k="name" v="Svehaug" />
=======
	<node id="-9810" lat="59.4259444479" lon="5.32475833629">
		<tag k="alt_name" v="norde Nuten" />
		<tag k="fixme" v="consider natural=peak for the most distinct mountains in the district" />
		<tag k="name" v="Nordre Nuten" />
>>>>>>> e1d4bc35ff8a6074a6f2e91616a996b547c36f15
		<tag k="natural" v="hill" />
		<tag k="place" v="locality" />
		<tag k="ssr:stedsnr" v="791696" />
	</node>
<<<<<<< HEAD
	<node lat="59.475327781564445" lon="5.345144439223869" id="-598">
		<tag k="name" v="Nipane" />
=======
	<node id="-9808" lat="59.4374472191" lon="5.08592778387">
		<tag k="name" v="Tuå" />
>>>>>>> e1d4bc35ff8a6074a6f2e91616a996b547c36f15
		<tag k="natural" v="hill" />
		<tag k="place" v="locality" />
		<tag k="ssr:stedsnr" v="816069" />
	</node>
<<<<<<< HEAD
	<node lat="59.47138611393383" lon="5.3476416737673755" id="-599">
		<tag k="fixme" v="consider natural=peak for the most distinct mountains in the district" />
		<tag k="name" v="Harafjellet" />
=======
	<node id="-9807" lat="59.4142027758" lon="5.30326388105">
		<tag k="name" v="Mosskardsfjellet" />
>>>>>>> e1d4bc35ff8a6074a6f2e91616a996b547c36f15
		<tag k="natural" v="hill" />
		<tag k="place" v="locality" />
		<tag k="ssr:stedsnr" v="816070" />
	</node>
<<<<<<< HEAD
	<node lat="59.45026666696553" lon="5.292994442571687" id="-602">
		<tag k="name" v="Grønebrekksdalen" />
		<tag k="natural" v="valley" />
=======
	<node id="-9802" lat="59.4784305587" lon="5.27091943797">
		<tag k="name" v="Klumpane" />
		<tag k="natural" v="hill" />
>>>>>>> e1d4bc35ff8a6074a6f2e91616a996b547c36f15
		<tag k="place" v="locality" />
		<tag k="ssr:stedsnr" v="816593" />
	</node>
<<<<<<< HEAD
	<node lat="59.42041666815479" lon="5.3290916744961745" id="-604">
		<tag k="fixme" v="consider natural=peak for the most distinct mountains in the district" />
		<tag k="name" v="Taumakisto" />
=======
	<node id="-9801" lat="59.4766666682" lon="5.30779166004">
		<tag k="name" v="Gravdalsåsen" />
>>>>>>> e1d4bc35ff8a6074a6f2e91616a996b547c36f15
		<tag k="natural" v="hill" />
		<tag k="place" v="locality" />
		<tag k="ssr:stedsnr" v="816999" />
	</node>
<<<<<<< HEAD
	<node lat="59.42604166817687" lon="5.31684443997862" id="-606">
		<tag k="name" v="Stakk" />
=======
	<node id="-9800" lat="59.4815583318" lon="5.23058611915">
		<tag k="name" v="Varen" />
>>>>>>> e1d4bc35ff8a6074a6f2e91616a996b547c36f15
		<tag k="natural" v="hill" />
		<tag k="place" v="locality" />
		<tag k="ssr:stedsnr" v="851638" />
	</node>
<<<<<<< HEAD
	<node lat="59.46826944685799" lon="5.367302768734754" id="-613">
		<tag k="name" v="Mannaberg" />
=======
	<node id="-9799" lat="59.4764638861" lon="5.33268610612">
		<tag k="name" v="Iglahaugen" />
>>>>>>> e1d4bc35ff8a6074a6f2e91616a996b547c36f15
		<tag k="natural" v="hill" />
		<tag k="place" v="locality" />
		<tag k="ssr:stedsnr" v="876095" />
	</node>
<<<<<<< HEAD
	<node lat="59.43665555674587" lon="5.087513895653718" id="-617">
		<tag k="name" v="Dalen" />
		<tag k="natural" v="valley" />
=======
	<node id="-9798" lat="61.2177777797" lon="6.59979722139">
		<tag k="alt_name" v="Alskori" />
		<tag k="name" v="Almskori" />
>>>>>>> e1d4bc35ff8a6074a6f2e91616a996b547c36f15
		<tag k="place" v="locality" />
		<tag k="ssr:stedsnr" v="876544" />
	</node>
<<<<<<< HEAD
	<node lat="59.49031389038091" lon="5.237530559095276" id="-626">
		<tag k="name" v="Bogshamnshaugen" />
		<tag k="natural" v="hill" />
		<tag k="place" v="locality" />
		<tag k="ssr:stedsnr" v="876898" />
	</node>
	<node lat="59.48520000405946" lon="5.352438884259841" id="-631">
		<tag k="fixme" v="consider natural=peak for the most distinct mountains in the district" />
		<tag k="name" v="Trettelivarden" />
		<tag k="natural" v="hill" />
=======
	<node id="-9794" lat="59.4148611102" lon="5.27862777773">
		<tag k="name" v="Flatmyr" />
>>>>>>> e1d4bc35ff8a6074a6f2e91616a996b547c36f15
		<tag k="place" v="locality" />
		<tag k="ssr:stedsnr" v="937067" />
	</node>
<<<<<<< HEAD
	<node lat="59.449891669707306" lon="5.3389527686424465" id="-636">
		<tag k="name" v="Sandvassbrekkene" />
		<tag k="natural" v="slope" />
		<tag k="place" v="locality" />
		<tag k="ssr:stedsnr" v="937572" />
	</node>
	<node lat="59.4612055555212" lon="5.3479055593368106" id="-637">
		<tag k="fixme" v="consider natural=peak for the most distinct mountains in the district" />
		<tag k="name" v="Søre Lauvåsen" />
=======
	<node id="-9793" lat="59.4114138884" lon="5.28066388441">
		<tag k="name" v="Hollenderhaugen" />
>>>>>>> e1d4bc35ff8a6074a6f2e91616a996b547c36f15
		<tag k="natural" v="hill" />
		<tag k="place" v="locality" />
		<tag k="ssr:stedsnr" v="937573" />
	</node>
<<<<<<< HEAD
	<node lat="59.42210555989078" lon="5.302450004962695" id="-638">
		<tag k="name" v="Kvernahaugen" />
=======
	<node id="-9788" lat="59.3973416679" lon="5.33096944203">
		<tag k="name" v="Skjenhaug" />
>>>>>>> e1d4bc35ff8a6074a6f2e91616a996b547c36f15
		<tag k="natural" v="hill" />
		<tag k="place" v="locality" />
		<tag k="ssr:stedsnr" v="937582" />
	</node>
<<<<<<< HEAD
	<node lat="59.49308055951574" lon="5.263605557371907" id="-640">
		<tag k="name" v="Storhaug" />
=======
	<node id="-9783" lat="59.4804388845" lon="5.38050000234">
		<tag k="fixme" v="consider natural=peak for the most distinct mountains in the district" />
		<tag k="name" v="Tømmerhaugen" />
>>>>>>> e1d4bc35ff8a6074a6f2e91616a996b547c36f15
		<tag k="natural" v="hill" />
		<tag k="place" v="locality" />
		<tag k="ssr:stedsnr" v="937652" />
	</node>
<<<<<<< HEAD
	<node lat="59.46635833556814" lon="5.294724993146769" id="-641">
		<tag k="name" v="Åsen" />
		<tag k="natural" v="hill" />
		<tag k="place" v="locality" />
		<tag k="ssr:stedsnr" v="937654" />
	</node>
	<node lat="59.40191666218874" lon="5.301733327292303" id="-647">
		<tag k="name" v="Porshaug" />
=======
	<node id="-9777" lat="59.4010166638" lon="5.33072500298">
		<tag k="fixme" v="consider natural=peak for the most distinct mountains in the district" />
		<tag k="name" v="Skjenarefjellet" />
		<tag k="natural" v="hill" />
		<tag k="place" v="locality" />
		<tag k="ssr:stedsnr" v="426624" />
	</node>
	<node id="-9774" lat="59.4251361146" lon="5.32691666052">
		<tag k="fixme" v="consider natural=peak for the most distinct mountains in the district" />
		<tag k="name" v="Søre Nuten" />
>>>>>>> e1d4bc35ff8a6074a6f2e91616a996b547c36f15
		<tag k="natural" v="hill" />
		<tag k="place" v="locality" />
		<tag k="ssr:stedsnr" v="967078" />
	</node>
<<<<<<< HEAD
	<node lat="59.39405496147095" lon="5.318093496184914" id="-651">
		<tag k="name" v="Raglatua" />
=======
	<node id="-9773" lat="59.429055559" lon="5.33455833646">
		<tag k="name" v="Tjuvahelleren" />
>>>>>>> e1d4bc35ff8a6074a6f2e91616a996b547c36f15
		<tag k="natural" v="hill" />
		<tag k="place" v="locality" />
		<tag k="ssr:stedsnr" v="979848" />
	</node>
<<<<<<< HEAD
	<node lat="59.39154559863288" lon="5.318787602005349" id="-652">
		<tag k="name" v="Jamnhaug" />
=======
	<node id="-9771" lat="59.4558027759" lon="5.33083889621">
		<tag k="fixme" v="consider natural=peak for the most distinct mountains in the district" />
		<tag k="name" v="Litla Eidsfjellet" />
>>>>>>> e1d4bc35ff8a6074a6f2e91616a996b547c36f15
		<tag k="natural" v="hill" />
		<tag k="place" v="locality" />
		<tag k="ssr:stedsnr" v="979849" />
	</node>
	<node id="-9769" lat="59.4393472241" lon="5.09003055554">
		<tag k="name" v="Sjubbehaugen" />
		<tag k="natural" v="hill" />
		<tag k="place" v="locality" />
		<tag k="ssr:stedsnr" v="512557" />
	</node>
	<node id="-10279" lat="59.4260416682" lon="5.31684443998">
		<tag k="name" v="Stakk" />
		<tag k="natural" v="hill" />
		<tag k="place" v="locality" />
		<tag k="ssr:stedsnr" v="851638" />
	</node>
	<node id="-9766" lat="59.4541500034" lon="5.25522223063">
		<tag k="name" v="Søre Asparhaug" />
		<tag k="natural" v="hill" />
		<tag k="place" v="locality" />
		<tag k="ssr:stedsnr" v="511844" />
	</node>
	<node id="-9649" lat="59.4800722221" lon="5.36614166234">
		<tag k="name" v="Ørehaugen" />
		<tag k="natural" v="hill" />
		<tag k="place" v="locality" />
		<tag k="ssr:stedsnr" v="27045" />
	</node>
	<node id="-10275" lat="59.4204166682" lon="5.3290916745">
		<tag k="fixme" v="consider natural=peak for the most distinct mountains in the district" />
		<tag k="name" v="Taumakisto" />
		<tag k="natural" v="hill" />
		<tag k="place" v="locality" />
		<tag k="ssr:stedsnr" v="816999" />
	</node>
	<node id="-10274" lat="59.4456777819" lon="5.24642777025">
		<tag k="name" v="Ramnehaugen" />
		<tag k="natural" v="hill" />
		<tag k="place" v="locality" />
		<tag k="ssr:stedsnr" v="816886" />
	</node>
	<node id="-9761" lat="59.4355694458" lon="5.31552221721">
		<tag k="name" v="Åsestølen" />
		<tag k="natural" v="hill" />
		<tag k="place" v="locality" />
		<tag k="ssr:stedsnr" v="399006" />
	</node>
	<node id="-9759" lat="59.4035500016" lon="5.31354166478">
		<tag k="fixme" v="consider natural=peak for the most distinct mountains in the district" />
		<tag k="name" v="Lysskarfjellet" />
		<tag k="natural" v="hill" />
		<tag k="place" v="locality" />
		<tag k="ssr:stedsnr" v="391918" />
	</node>
	<node id="-9756" lat="59.4643999994" lon="5.25112777072">
		<tag k="name" v="Bjørkhaug" />
		<tag k="natural" v="hill" />
		<tag k="place" v="locality" />
		<tag k="ssr:stedsnr" v="390882" />
	</node>
	<node id="-9751" lat="59.4290499979" lon="5.29513610584">
		<tag k="name" v="Geitaklubben" />
		<tag k="natural" v="hill" />
		<tag k="place" v="locality" />
		<tag k="ssr:stedsnr" v="390507" />
	</node>
	<node id="-9748" lat="59.4744416701" lon="5.3659916728">
		<tag k="fixme" v="consider natural=peak for the most distinct mountains in the district" />
		<tag k="name" v="Klauv" />
		<tag k="natural" v="hill" />
		<tag k="place" v="locality" />
		<tag k="ssr:stedsnr" v="488697" />
	</node>
	<node id="-9747" lat="59.4727611076" lon="5.25169167339">
		<tag k="name" v="Storhaug" />
		<tag k="natural" v="hill" />
		<tag k="place" v="locality" />
		<tag k="ssr:stedsnr" v="488691" />
	</node>
	<node id="-9746" lat="59.4063861125" lon="5.31028333496">
		<tag k="fixme" v="consider natural=peak for the most distinct mountains in the district" />
		<tag k="name" v="Storasundfjellet" />
		<tag k="natural" v="hill" />
		<tag k="place" v="locality" />
		<tag k="ssr:stedsnr" v="487657" />
	</node>
	<node id="-10248" lat="59.4644805586" lon="5.37240556009">
		<tag k="name" v="Hamrane" />
		<tag k="natural" v="hill" />
		<tag k="place" v="locality" />
		<tag k="ssr:stedsnr" v="764008" />
	</node>
	<node id="-10247" lat="59.4071027781" lon="5.34068889305">
		<tag k="name" v="Bergsodden" />
		<tag k="natural" v="hill" />
		<tag k="place" v="locality" />
		<tag k="ssr:stedsnr" v="764054" />
	</node>
	<node id="-10246" lat="59.3986111148" lon="5.31625555256">
		<tag k="name" v="Svehaug" />
		<tag k="natural" v="hill" />
		<tag k="place" v="locality" />
		<tag k="ssr:stedsnr" v="755978" />
	</node>
	<node id="-10245" lat="59.4176194426" lon="5.31618055357">
		<tag k="name" v="Husabråtene" />
		<tag k="natural" v="slope" />
		<tag k="place" v="locality" />
		<tag k="ssr:stedsnr" v="755931" />
	</node>
	<node id="-9729" lat="59.4513444483" lon="5.25656111311">
		<tag k="alt_name" v="Torevaren" />
		<tag k="name" v="Torevarden" />
		<tag k="natural" v="hill" />
		<tag k="place" v="locality" />
		<tag k="ssr:stedsnr" v="305707" />
	</node>
</osm>
