<?xml version="1.0" encoding="UTF-8"?>
<<<<<<< HEAD
<osm version="0.6" generator="osmapis">
	<node lat="59.419469445657626" lon="5.2635000009639255" id="-48">
		<tag k="alt_name" v="Skåre" />
		<tag k="amenity" v="place_of_worship" />
		<tag k="denomination" v="lutheran" />
		<tag k="name" v="Skåre kirke" />
		<tag k="religion" v="christian" />
		<tag k="ssr:stedsnr" v="122587" />
	</node>
	<node lat="59.394416670890124" lon="5.2878944467752325" id="-102">
		<tag k="cemetery" v="grave" />
		<tag k="name" v="Vår Frelsers gravlund" />
		<tag k="place" v="locality" />
		<tag k="ssr:stedsnr" v="269976" />
	</node>
	<node lat="59.42902382120437" lon="5.258296571619661" id="-163">
		<tag k="historic" v="heritage" />
		<tag k="name" v="Haraldshaugen" />
		<tag k="place" v="locality" />
		<tag k="ssr:stedsnr" v="451881" />
	</node>
	<node lat="59.39374444303588" lon="5.288419440859145" id="-169">
=======
<osm generator="osmapis" version="0.6">
	<node id="-9760" lat="59.438258338" lon="5.27018611585">
		<tag k="amenity" v="place_of_worship" />
		<tag k="denomination" v="lutheran" />
		<tag k="name" v="Udland kirke" />
		<tag k="religion" v="christian" />
		<tag k="ssr:stedsnr" v="393856" />
	</node>
	<node id="-9776" lat="59.3994777755" lon="5.28955277094">
		<tag k="alt_name" v="Rossabø" />
		<tag k="amenity" v="place_of_worship" />
		<tag k="denomination" v="lutheran" />
		<tag k="name" v="Rossabø kirke" />
		<tag k="religion" v="christian" />
		<tag k="ssr:stedsnr" v="426623" />
	</node>
	<node id="-10038" lat="59.4194694457" lon="5.26350000096">
		<tag k="alt_name" v="Skåre" />
>>>>>>> e1d4bc35ff8a6074a6f2e91616a996b547c36f15
		<tag k="amenity" v="place_of_worship" />
		<tag k="denomination" v="lutheran" />
		<tag k="name" v="Rossabø kapell" />
		<tag k="religion" v="christian" />
		<tag k="ssr:stedsnr" v="482075" />
	</node>
<<<<<<< HEAD
	<node lat="59.439125003856354" lon="5.272741664679463" id="-213">
=======
	<node id="-9809" lat="59.4391250039" lon="5.27274166468">
>>>>>>> e1d4bc35ff8a6074a6f2e91616a996b547c36f15
		<tag k="cemetery" v="grave" />
		<tag k="name" v="Udland kirkegård" />
		<tag k="place" v="locality" />
		<tag k="ssr:stedsnr" v="694530" />
	</node>
<<<<<<< HEAD
	<node lat="59.41445277319406" lon="5.270066658415367" id="-274">
		<tag k="amenity" v="place_of_worship" />
		<tag k="denomination" v="lutheran" />
		<tag k="name" v="Vår Frelsers kirke" />
		<tag k="religion" v="christian" />
		<tag k="ssr:stedsnr" v="907067" />
	</node>
	<node lat="59.42913875004767" lon="5.258993218329965" id="-400">
		<tag k="name" v="Haraldstøtta" />
		<tag k="ssr:stedsnr" v="183626" />
		<tag k="tourism" v="attraction" />
	</node>
	<node lat="59.438258337976016" lon="5.270186115854312" id="-465">
=======
	<node id="-10064" lat="59.42913875" lon="5.25899321833">
		<tag k="name" v="Haraldstøtta" />
		<tag k="ssr:stedsnr" v="183626" />
		<tag k="tourism" v="attraction" />
	</node>
	<node id="-9677" lat="59.3944166709" lon="5.28789444678">
		<tag k="cemetery" v="grave" />
		<tag k="name" v="Vår Frelsers gravlund" />
		<tag k="place" v="locality" />
		<tag k="ssr:stedsnr" v="269976" />
	</node>
	<node id="-9709" lat="59.4290238212" lon="5.25829657162">
		<tag k="historic" v="heritage" />
		<tag k="name" v="Haraldshaugen" />
		<tag k="place" v="locality" />
		<tag k="ssr:stedsnr" v="451881" />
	</node>
	<node id="-9899" lat="59.4144527732" lon="5.27006665842">
>>>>>>> e1d4bc35ff8a6074a6f2e91616a996b547c36f15
		<tag k="amenity" v="place_of_worship" />
		<tag k="denomination" v="lutheran" />
		<tag k="name" v="Udland kirke" />
		<tag k="religion" v="christian" />
		<tag k="ssr:stedsnr" v="393856" />
	</node>
	<node lat="59.39947777550761" lon="5.289552770942311" id="-474">
		<tag k="alt_name" v="Rossabø" />
		<tag k="amenity" v="place_of_worship" />
		<tag k="denomination" v="lutheran" />
		<tag k="name" v="Rossabø kirke" />
		<tag k="religion" v="christian" />
		<tag k="ssr:stedsnr" v="426623" />
	</node>
	<node id="-9736" lat="59.393744443" lon="5.28841944086">
		<tag k="amenity" v="place_of_worship" />
		<tag k="denomination" v="lutheran" />
		<tag k="name" v="Rossabø kapell" />
		<tag k="religion" v="christian" />
		<tag k="ssr:stedsnr" v="482075" />
	</node>
</osm>
