<?xml version="1.0" encoding="UTF-8"?>
<osm generator="osmapis" version="0.6">
	<node id="-395264" lat="59.4309777815" lon="5.27960555971">
		<tag k="name" v="Skeisvoll" />
		<tag k="place" v="isolated_dwelling" />
		<tag k="ssr:stedsnr" v="790675" />
	</node>
	<node id="-395263" lat="59.3940194413" lon="5.34184444436">
		<tag k="name" v="Vassbrekkevatnet" />
		<tag k="natural" v="water" />
		<tag k="ssr:stedsnr" v="790610" />
	</node>
	<node id="-395262" lat="59.4007638863" lon="5.30026111352">
		<tag k="name" v="Porshaug" />
		<tag k="place" v="quarter" />
		<tag k="ssr:stedsnr" v="783116" />
	</node>
	<node id="-395261" lat="59.4074277815" lon="5.28341944228">
		<tag k="bridge" v="yes" />
		<tag k="layer" v="1" />
		<tag k="name" v="Bjørgvinsgate" />
		<tag k="ssr:stedsnr" v="775272" />
	</node>
	<node id="-395260" lat="59.4118527755" lon="5.24894444038">
		<tag k="name" v="Storåkergrunnen" />
		<tag k="natural" v="shoal" />
		<tag k="place" v="locality" />
		<tag k="ssr:stedsnr" v="770860" />
	</node>
	<node id="-395259" lat="59.4110222243" lon="5.25854167035">
		<tag k="building" v="civic" />
		<tag k="name" v="Karmsund Havnevesen" />
		<tag k="ssr:stedsnr" v="770859" />
	</node>
	<node id="-395258" lat="59.4171638853" lon="5.24144165891">
		<tag k="name" v="Åkerøya" />
		<tag k="place" v="islet" />
		<tag k="ssr:stedsnr" v="770824" />
	</node>
	<node id="-395257" lat="59.4071027781" lon="5.34068889305">
		<tag k="name" v="Bergsodden" />
		<tag k="natural" v="hill" />
		<tag k="place" v="locality" />
		<tag k="ssr:stedsnr" v="764054" />
	</node>
	<node id="-395256" lat="59.4644805586" lon="5.37240556009">
		<tag k="name" v="Hamrane" />
		<tag k="natural" v="hill" />
		<tag k="place" v="locality" />
		<tag k="ssr:stedsnr" v="764008" />
	</node>
	<node id="-395255" lat="59.3986111148" lon="5.31625555256">
		<tag k="name" v="Svehaug" />
		<tag k="natural" v="hill" />
		<tag k="place" v="locality" />
		<tag k="ssr:stedsnr" v="755978" />
	</node>
	<node id="-395254" lat="59.4176194426" lon="5.31618055357">
		<tag k="name" v="Husabråtene" />
		<tag k="natural" v="slope" />
		<tag k="place" v="locality" />
		<tag k="ssr:stedsnr" v="755931" />
	</node>
	<node id="-395253" lat="59.4712916651" lon="5.27860556369">
		<tag k="name" v="Viksemarka" />
		<tag k="place" v="farm" />
		<tag k="ssr:stedsnr" v="755631" />
	</node>
	<node id="-395252" lat="59.4500999994" lon="5.06565833547">
		<tag k="name" v="Dammen" />
		<tag k="natural" v="strait" />
		<tag k="ssr:stedsnr" v="755623" />
	</node>
	<node id="-395251" lat="59.4499083347" lon="5.06432777107">
		<tag k="name" v="Kjellaren" />
		<tag k="place" v="islet" />
		<tag k="ssr:stedsnr" v="755620" />
	</node>
	<node id="-395250" lat="59.4862916692" lon="5.26610832523">
		<tag k="name" v="Mjelkeviksundet" />
		<tag k="natural" v="strait" />
		<tag k="ssr:stedsnr" v="755621" />
	</node>
	<node id="-395249" lat="59.4358555513" lon="5.33915000421">
		<tag k="alt_name" v="norde Krokavassnuten" />
		<tag k="fixme" v="consider natural=peak for the most distinct mountains in the district" />
		<tag k="name" v="Nordre Krokavassnuten" />
		<tag k="natural" v="hill" />
		<tag k="place" v="locality" />
		<tag k="ssr:stedsnr" v="755612" />
	</node>
	<node id="-395248" lat="59.4391861152" lon="5.09216389484">
		<tag k="name" v="Kanalen" />
		<tag k="natural" v="strait" />
		<tag k="ssr:stedsnr" v="755554" />
	</node>
	<node id="-395247" lat="59.4339888908" lon="5.07752499245">
		<tag k="name" v="Måsatongjen" />
		<tag k="natural" v="cape" />
		<tag k="ssr:stedsnr" v="755548" />
	</node>
	<node id="-395246" lat="59.4303055539" lon="5.09116666624">
		<tag k="alt_name" v="norde Bryggjeland" />
		<tag k="name" v="Nordre Bryggjeland" />
		<tag k="place" v="islet" />
		<tag k="ssr:stedsnr" v="755543" />
	</node>
	<node id="-395245" lat="59.3986666655" lon="5.32533611789">
		<tag k="name" v="Brakahaug" />
		<tag k="natural" v="hill" />
		<tag k="place" v="locality" />
		<tag k="ssr:stedsnr" v="755542" />
	</node>
	<node id="-395244" lat="59.4518444441" lon="5.06836943906">
		<tag k="name" v="Røværsholmen" />
		<tag k="place" v="islet" />
		<tag k="ssr:stedsnr" v="755527" />
	</node>
	<node id="-395243" lat="59.4314194438" lon="5.09516944895">
		<tag k="name" v="Bryggjelandsosen" />
		<tag k="natural" v="bay" />
		<tag k="ssr:stedsnr" v="755100" />
	</node>
	<node id="-395242" lat="59.437202782" lon="5.09410278332">
		<tag k="name" v="Vindkjeft" />
		<tag k="natural" v="strait" />
		<tag k="ssr:stedsnr" v="755081" />
	</node>
	<node id="-395241" lat="59.4373638868" lon="5.09727222579">
		<tag k="name" v="Hidlershaugen" />
		<tag k="natural" v="hill" />
		<tag k="place" v="locality" />
		<tag k="ssr:stedsnr" v="755076" />
	</node>
	<node id="-395240" lat="59.4693444447" lon="5.25052776945">
		<tag k="name" v="Mekjarevik" />
		<tag k="natural" v="bay" />
		<tag k="ssr:stedsnr" v="754891" />
	</node>
	<node id="-395239" lat="59.4526305585" lon="5.24006665776">
		<tag k="name" v="Båsane" />
		<tag k="natural" v="bay" />
		<tag k="ssr:stedsnr" v="754854" />
	</node>
	<node id="-395238" lat="59.4793194462" lon="5.37711944051">
		<tag k="name" v="Sundet" />
		<tag k="natural" v="bay" />
		<tag k="ssr:stedsnr" v="754353" />
	</node>
	<node id="-395237" lat="59.4328095715" lon="5.2711812722">
		<tag k="fixme" v="consider place=hamlet" />
		<tag k="name" v="Austrheim" />
		<tag k="place" v="farm" />
		<tag k="ssr:stedsnr" v="749982" />
	</node>
	<node id="-395236" lat="59.4939500038" lon="5.24349444875">
		<tag k="fixme" v="multiple name tags, choose one and add the other to alt_name" />
		<tag k="name" v="Midtfjellet;Skiftesvikfjellet" />
		<tag k="natural" v="hill" />
		<tag k="place" v="locality" />
		<tag k="ssr:stedsnr" v="730777" />
	</node>
	<node id="-395235" lat="59.4992277754" lon="5.22348056423">
		<tag k="name" v="Grønevik" />
		<tag k="natural" v="bay" />
		<tag k="ssr:stedsnr" v="730776" />
	</node>
	<node id="-395234" lat="59.4761111089" lon="5.22997500559">
		<tag k="alt_name" v="Bleivik" />
		<tag k="name" v="Bleivika" />
		<tag k="natural" v="bay" />
		<tag k="ssr:stedsnr" v="730727" />
	</node>
	<node id="-395233" lat="59.4016255828" lon="5.29778156944">
		<tag k="fixme" v="consider place=hamlet" />
		<tag k="name" v="Hemmingstad" />
		<tag k="place" v="farm" />
		<tag k="ssr:stedsnr" v="730678" />
	</node>
	<node id="-395232" lat="59.4054611116" lon="5.3306861134">
		<tag k="name" v="Løkavatnet" />
		<tag k="natural" v="water" />
		<tag k="ssr:stedsnr" v="730665" />
	</node>
	<node id="-395231" lat="59.4139277754" lon="5.33098889488">
		<tag k="alt_name" v="Skåredalen" />
		<tag k="name" v="Skåredal" />
		<tag k="place" v="farm" />
		<tag k="ssr:stedsnr" v="730654" />
	</node>
	<node id="-395230" lat="59.4364333321" lon="5.06416389384">
		<tag k="alt_name" v="Silenningane" />
		<tag k="name" v="Sileningane" />
		<tag k="place" v="islet" />
		<tag k="ssr:stedsnr" v="730291" />
	</node>
	<node id="-395229" lat="59.4492972185" lon="5.07796388624">
		<tag k="alt_name" v="Åleskjeret;Åleskjer" />
		<tag k="fixme" v="consider seamark:type=rock or natural=shoal" />
		<tag k="name" v="Ålaskjeret" />
		<tag k="place" v="islet" />
		<tag k="ssr:stedsnr" v="730290" />
	</node>
	<node id="-395228" lat="59.4314944454" lon="5.20246111105">
		<tag k="name" v="Skåreholmen" />
		<tag k="place" v="islet" />
		<tag k="ssr:stedsnr" v="729646" />
	</node>
	<node id="-395227" lat="59.3955888906" lon="5.28398611504">
		<tag k="name" v="Orshaugane" />
		<tag k="natural" v="hill" />
		<tag k="place" v="locality" />
		<tag k="ssr:stedsnr" v="725084" />
	</node>
	<node id="-395226" lat="59.4021527791" lon="5.29701666114">
		<tag k="name" v="Storhaug" />
		<tag k="place" v="isolated_dwelling" />
		<tag k="ssr:stedsnr" v="725082" />
	</node>
	<node id="-395225" lat="59.4164222244" lon="5.27265555815">
		<tag k="bridge" v="yes" />
		<tag k="layer" v="1" />
		<tag k="name" v="Flotmyr" />
		<tag k="ssr:stedsnr" v="715336" />
	</node>
	<node id="-395224" lat="59.4305416641" lon="5.2629388831">
		<tag k="bridge" v="yes" />
		<tag k="layer" v="1" />
		<tag k="name" v="Austrheimveien" />
		<tag k="ssr:stedsnr" v="715331" />
	</node>
	<node id="-395223" lat="59.4383027799" lon="5.27304443864">
		<tag k="bridge" v="yes" />
		<tag k="layer" v="1" />
		<tag k="name" v="Udland" />
		<tag k="ssr:stedsnr" v="715317" />
	</node>
	<node id="-395222" lat="59.4800305513" lon="5.3053583339">
		<tag k="bridge" v="yes" />
		<tag k="layer" v="1" />
		<tag k="name" v="Søravåge" />
		<tag k="ssr:stedsnr" v="715315" />
	</node>
	<node id="-395221" lat="59.397083335" lon="5.32093333731">
		<tag k="bridge" v="yes" />
		<tag k="layer" v="1" />
		<tag k="name" v="Raglamyr" />
		<tag k="ssr:stedsnr" v="715310" />
	</node>
	<node id="-395218" lat="59.4312888923" lon="5.30921944447">
		<tag k="historic" v="shieling" />
		<tag k="name" v="Arkastølen" />
		<tag k="place" v="locality" />
		<tag k="ssr:stedsnr" v="703058" />
	</node>
	<node id="-395217" lat="59.4526500036" lon="5.27193333979">
		<tag k="name" v="Dyrskar" />
		<tag k="natural" v="valley" />
		<tag k="place" v="locality" />
		<tag k="ssr:stedsnr" v="703050" />
	</node>
	<node id="-395216" lat="59.4146388861" lon="5.32730833252">
		<tag k="name" v="Tømmerdal" />
		<tag k="place" v="farm" />
		<tag k="ssr:stedsnr" v="694998" />
	</node>
	<node id="-395215" lat="59.410517988" lon="5.33626914286">
		<tag k="alt_name" v="Fedjedal" />
		<tag k="fixme" v="consider place=hamlet" />
		<tag k="name" v="Fedjedalen" />
		<tag k="place" v="farm" />
		<tag k="ssr:stedsnr" v="694997" />
	</node>
	<node id="-395214" lat="59.4752749965" lon="5.23493055948">
		<tag k="name" v="Såteholmen" />
		<tag k="place" v="islet" />
		<tag k="ssr:stedsnr" v="694890" />
	</node>
	<node id="-395213" lat="59.4373166648" lon="5.23850277887">
		<tag k="name" v="Skjelavik" />
		<tag k="natural" v="bay" />
		<tag k="ssr:stedsnr" v="694867" />
	</node>
	<node id="-395212" lat="59.420683329" lon="5.25533332957">
		<tag k="alt_name" v="Norde Svinholmen" />
		<tag k="name" v="Nordre Svinholmen" />
		<tag k="place" v="islet" />
		<tag k="ssr:stedsnr" v="694863" />
	</node>
	<node id="-395211" lat="59.4473138868" lon="5.24248055612">
		<tag k="name" v="Kvernaneset" />
		<tag k="natural" v="cape" />
		<tag k="ssr:stedsnr" v="694861" />
	</node>
	<node id="-395210" lat="59.4406999998" lon="5.24631944827">
		<tag k="name" v="Høgahaug" />
		<tag k="natural" v="hill" />
		<tag k="place" v="locality" />
		<tag k="ssr:stedsnr" v="694842" />
	</node>
	<node id="-395209" lat="59.4391305533" lon="5.23878611465">
		<tag k="name" v="Ørevik" />
		<tag k="natural" v="bay" />
		<tag k="ssr:stedsnr" v="694843" />
	</node>
	<node id="-395208" lat="59.4770305543" lon="5.28249721495">
		<tag k="fixme" v="consider natural=peak for the most distinct mountains in the district" />
		<tag k="name" v="Bakkafjellet" />
		<tag k="natural" v="hill" />
		<tag k="place" v="locality" />
		<tag k="ssr:stedsnr" v="694610" />
	</node>
	<node id="-395207" lat="59.4815607711" lon="5.30184124069">
		<tag k="name" v="Søra Vågsvågen" />
		<tag k="natural" v="bay" />
		<tag k="ssr:stedsnr" v="694606" />
	</node>
	<node id="-395206" lat="59.4259444479" lon="5.32475833629">
		<tag k="alt_name" v="norde Nuten" />
		<tag k="fixme" v="consider natural=peak for the most distinct mountains in the district" />
		<tag k="name" v="Nordre Nuten" />
		<tag k="natural" v="hill" />
		<tag k="place" v="locality" />
		<tag k="ssr:stedsnr" v="694593" />
	</node>
	<node id="-395205" lat="59.4391250039" lon="5.27274166468">
		<tag k="cemetery" v="grave" />
		<tag k="name" v="Udland kirkegård" />
		<tag k="place" v="locality" />
		<tag k="ssr:stedsnr" v="694530" />
	</node>
	<node id="-395204" lat="59.4356277748" lon="5.07686388533">
		<tag k="name" v="Breiaviksletta" />
		<tag k="place" v="locality" />
		<tag k="ssr:stedsnr" v="694521" />
	</node>
	<node id="-395203" lat="59.4354638891" lon="5.08138333237">
		<tag k="alt_name" v="Kråkevågen" />
		<tag k="name" v="Kråkvågen" />
		<tag k="natural" v="bay" />
		<tag k="ssr:stedsnr" v="694519" />
	</node>
	<node id="-395202" lat="59.4374472191" lon="5.08592778387">
		<tag k="name" v="Tuå" />
		<tag k="natural" v="hill" />
		<tag k="place" v="locality" />
		<tag k="ssr:stedsnr" v="694499" />
	</node>
	<node id="-395201" lat="59.4414833289" lon="5.10567777111">
		<tag k="name" v="Stangelandssundet" />
		<tag k="natural" v="strait" />
		<tag k="ssr:stedsnr" v="694071" />
	</node>
	<node id="-395200" lat="59.4650694472" lon="5.35170555719">
		<tag k="name" v="Lauvåsmyr" />
		<tag k="natural" v="wetland" />
		<tag k="ssr:stedsnr" v="694063" />
	</node>
	<node id="-395199" lat="59.4220305527" lon="5.12079166111">
		<tag k="fixme" v="consider seamark:type=rock or natural=shoal" />
		<tag k="name" v="Mele" />
		<tag k="place" v="islet" />
		<tag k="ssr:stedsnr" v="693901" />
	</node>
	<node id="-395198" lat="59.4290333292" lon="5.08323332654">
		<tag k="fixme" v="consider seamark:type=rock or natural=shoal" />
		<tag k="name" v="Gryteskjeret" />
		<tag k="place" v="islet" />
		<tag k="ssr:stedsnr" v="693895" />
	</node>
	<node id="-395197" lat="59.5058805511" lon="5.18152499472">
		<tag k="name" v="Gagnlaus" />
		<tag k="natural" v="shoal" />
		<tag k="place" v="locality" />
		<tag k="ssr:stedsnr" v="692284" />
	</node>
	<node id="-395196" lat="59.5080944454" lon="5.11822500271">
		<tag k="name" v="Nordra Gåseskjerflua" />
		<tag k="natural" v="shoal" />
		<tag k="place" v="locality" />
		<tag k="ssr:stedsnr" v="692279" />
	</node>
	<node id="-395195" lat="59.4719388888" lon="5.14201944841">
		<tag k="name" v="Bramsflua" />
		<tag k="natural" v="shoal" />
		<tag k="place" v="locality" />
		<tag k="ssr:stedsnr" v="670675" />
	</node>
	<node id="-395194" lat="59.4003810801" lon="5.33980887243">
		<tag k="fixme" v="consider place=hamlet" />
		<tag k="name" v="Ørpetveit" />
		<tag k="place" v="farm" />
		<tag k="ssr:stedsnr" v="669623" />
	</node>
	<node id="-395193" lat="59.3973416679" lon="5.33096944203">
		<tag k="name" v="Skjenhaug" />
		<tag k="natural" v="hill" />
		<tag k="place" v="locality" />
		<tag k="ssr:stedsnr" v="666750" />
	</node>
	<node id="-395192" lat="59.4283611145" lon="5.25376666146">
		<tag k="name" v="Tresodden" />
		<tag k="natural" v="cape" />
		<tag k="ssr:stedsnr" v="665954" />
	</node>
	<node id="-395191" lat="59.4245194451" lon="5.25339721947">
		<tag k="name" v="Mannabergsholmane" />
		<tag k="place" v="islet" />
		<tag k="ssr:stedsnr" v="665924" />
	</node>
	<node id="-395190" lat="59.3948111098" lon="5.304358335">
		<tag k="amenity" v="nursing_home" />
		<tag k="name" v="Rossabøheimen" />
		<tag k="ssr:stedsnr" v="664088" />
	</node>
	<node id="-395189" lat="59.4039861115" lon="5.28153055932">
		<tag k="name" v="Skuggeberg" />
		<tag k="place" v="isolated_dwelling" />
		<tag k="ssr:stedsnr" v="664076" />
	</node>
	<node id="-395188" lat="59.4089222177" lon="5.27622777583">
		<tag k="amenity" v="university" />
		<tag k="name" v="Haugesund høgskole" />
		<tag k="ssr:stedsnr" v="663234" />
	</node>
	<node id="-395187" lat="59.4076805542" lon="5.32845556075">
		<tag k="name" v="Eikjehammar" />
		<tag k="place" v="quarter" />
		<tag k="ssr:stedsnr" v="661221" />
	</node>
	<node id="-395186" lat="59.3939250014" lon="5.31085833375">
		<tag k="name" v="Skuggaberg" />
		<tag k="place" v="quarter" />
		<tag k="ssr:stedsnr" v="661139" />
	</node>
	<node id="-395185" lat="59.3942638869" lon="5.30623054972">
		<tag k="bridge" v="yes" />
		<tag k="layer" v="1" />
		<tag k="name" v="Spanneveien" />
		<tag k="ssr:stedsnr" v="654290" />
	</node>
	<node id="-395184" lat="59.3945722195" lon="5.30685000872">
		<tag k="bridge" v="yes" />
		<tag k="layer" v="1" />
		<tag k="name" v="Skuggaberg" />
		<tag k="ssr:stedsnr" v="654289" />
	</node>
	<node id="-395183" lat="59.4130083291" lon="5.26666111808">
		<tag k="man_made" v="quay" />
		<tag k="name" v="Indre kai" />
		<tag k="place" v="locality" />
		<tag k="ssr:stedsnr" v="648841" />
	</node>
	<node id="-395181" lat="59.4161333325" lon="5.24718056439">
		<tag k="name" v="Svinholmen" />
		<tag k="place" v="islet" />
		<tag k="ssr:stedsnr" v="648828" />
	</node>
	<node id="-395180" lat="59.4112388858" lon="5.27956110277">
		<tag k="name" v="Hollenderhaugen" />
		<tag k="place" v="quarter" />
		<tag k="ssr:stedsnr" v="646055" />
	</node>
	<node id="-395179" lat="59.4796805554" lon="5.32791389179">
		<tag k="fixme" v="consider natural=peak for the most distinct mountains in the district" />
		<tag k="name" v="Slettafjellet" />
		<tag k="natural" v="hill" />
		<tag k="place" v="locality" />
		<tag k="ssr:stedsnr" v="642059" />
	</node>
	<node id="-395178" lat="59.4415500017" lon="5.31754165992">
		<tag k="name" v="Nordamyrshaugen" />
		<tag k="natural" v="hill" />
		<tag k="place" v="locality" />
		<tag k="ssr:stedsnr" v="642053" />
	</node>
	<node id="-395177" lat="59.4682388902" lon="5.23629165857">
		<tag k="name" v="Terneholmen" />
		<tag k="place" v="islet" />
		<tag k="ssr:stedsnr" v="642043" />
	</node>
	<node id="-395176" lat="59.4722194446" lon="5.28817221786">
		<tag k="name" v="Djupatjørn" />
		<tag k="natural" v="water" />
		<tag k="ssr:stedsnr" v="633638" />
	</node>
	<node id="-395175" lat="59.467219443" lon="5.3130083329">
		<tag k="name" v="Storaleitemyr" />
		<tag k="natural" v="wetland" />
		<tag k="ssr:stedsnr" v="633635" />
	</node>
	<node id="-395174" lat="59.4454722198" lon="5.08982223023">
		<tag k="name" v="Vestra Nipsholmsundet" />
		<tag k="natural" v="strait" />
		<tag k="ssr:stedsnr" v="633625" />
	</node>
	<node id="-395173" lat="59.4251444442" lon="5.28347500471">
		<tag k="name" v="Røyrvatnet" />
		<tag k="natural" v="water" />
		<tag k="ssr:stedsnr" v="633578" />
		<tag k="water" v="lake" />
	</node>
	<node id="-395172" lat="59.4395222267" lon="5.26696111484">
		<tag k="name" v="Kvaladalselva" />
		<tag k="ssr:stedsnr" v="633567" />
		<tag k="waterway" v="river" />
	</node>
	<node id="-395171" lat="59.4610972184" lon="5.3035999938">
		<tag k="name" v="Joamyr" />
		<tag k="natural" v="wetland" />
		<tag k="ssr:stedsnr" v="633564" />
	</node>
	<node id="-395170" lat="59.446594448" lon="5.27129445142">
		<tag k="name" v="Dubberselva" />
		<tag k="ssr:stedsnr" v="633562" />
		<tag k="waterway" v="stream" />
	</node>
	<node id="-395169" lat="59.4294583352" lon="5.08726388953">
		<tag k="name" v="Kåretåna" />
		<tag k="natural" v="cape" />
		<tag k="ssr:stedsnr" v="633559" />
	</node>
	<node id="-395168" lat="59.452883335" lon="5.06405000251">
		<tag k="fixme" v="consider seamark:type=rock or natural=shoal" />
		<tag k="name" v="Holmaskajene" />
		<tag k="place" v="islet" />
		<tag k="ssr:stedsnr" v="633554" />
	</node>
	<node id="-395167" lat="59.4252333313" lon="5.12726389095">
		<tag k="name" v="Glette" />
		<tag k="place" v="islet" />
		<tag k="ssr:stedsnr" v="633105" />
	</node>
	<node id="-395166" lat="59.4375611117" lon="5.10759445009">
		<tag k="alt_name" v="norde Ulvøyvåg" />
		<tag k="name" v="Nordre Ulvøyvåg" />
		<tag k="natural" v="bay" />
		<tag k="ssr:stedsnr" v="633082" />
	</node>
	<node id="-395165" lat="59.4354638905" lon="5.10247222705">
		<tag k="alt_name" v="Ulvøysund" />
		<tag k="name" v="Ulvøysundet" />
		<tag k="natural" v="strait" />
		<tag k="ssr:stedsnr" v="633078" />
	</node>
	<node id="-395164" lat="59.4353499977" lon="5.09760832626">
		<tag k="name" v="Storakast" />
		<tag k="natural" v="bay" />
		<tag k="ssr:stedsnr" v="633076" />
	</node>
	<node id="-395163" lat="59.4164472184" lon="5.2507305507">
		<tag k="name" v="Vibrandsøysundet" />
		<tag k="natural" v="strait" />
		<tag k="ssr:stedsnr" v="632761" />
	</node>
	<node id="-395160" lat="59.4319583322" lon="5.22572500659">
		<tag k="name" v="Skåre-Treboen" />
		<tag k="natural" v="shoal" />
		<tag k="place" v="locality" />
		<tag k="ssr:stedsnr" v="631609" />
	</node>
	<node id="-395159" lat="59.4678972251" lon="5.25158333312">
		<tag k="name" v="Slumpen" />
		<tag k="natural" v="bay" />
		<tag k="ssr:stedsnr" v="631303" />
	</node>
	<node id="-395158" lat="59.5085972185" lon="5.16931667366">
		<tag k="name" v="Storflua" />
		<tag k="natural" v="shoal" />
		<tag k="place" v="locality" />
		<tag k="ssr:stedsnr" v="631295" />
	</node>
	<node id="-395157" lat="59.4741916664" lon="5.18795277256">
		<tag k="name" v="Storflua" />
		<tag k="natural" v="shoal" />
		<tag k="place" v="locality" />
		<tag k="ssr:stedsnr" v="631291" />
	</node>
	<node id="-395156" lat="59.483691671" lon="5.38521389408">
		<tag k="fixme" v="consider natural=peak for the most distinct mountains in the district" />
		<tag k="name" v="Grasåsen" />
		<tag k="natural" v="hill" />
		<tag k="place" v="locality" />
		<tag k="ssr:stedsnr" v="609683" />
	</node>
	<node id="-395155" lat="59.4687555541" lon="5.18144166463">
		<tag k="alt_name" v="Bleiskjer, store;Stora Bleiskjer" />
		<tag k="fixme" v="consider seamark:type=rock or natural=shoal" />
		<tag k="name" v="Stora Bleiskjeret" />
		<tag k="place" v="islet" />
		<tag k="ssr:stedsnr" v="609681" />
	</node>
	<node id="-395154" lat="59.4684166627" lon="5.24001944653">
		<tag k="name" v="Førlandsvågen" />
		<tag k="natural" v="bay" />
		<tag k="ssr:stedsnr" v="609670" />
	</node>
	<node id="-395153" lat="59.4615666637" lon="5.19251666864">
		<tag k="alt_name" v="Bleiskjer, l" />
		<tag k="fixme" v="consider seamark:type=rock or natural=shoal" />
		<tag k="name" v="Litla Bleiskjeret" />
		<tag k="place" v="islet" />
		<tag k="ssr:stedsnr" v="609641" />
	</node>
	<node id="-395152" lat="59.4631888886" lon="5.30796665936">
		<tag k="name" v="Gåsavatnet" />
		<tag k="natural" v="water" />
		<tag k="ssr:stedsnr" v="609636" />
	</node>
	<node id="-395151" lat="59.4552583355" lon="5.32459722053">
		<tag k="name" v="Nevrabekken" />
		<tag k="ssr:stedsnr" v="609634" />
		<tag k="waterway" v="stream" />
	</node>
	<node id="-395150" lat="59.4570611752" lon="5.28941595078">
		<tag k="fixme" v="consider place=hamlet" />
		<tag k="name" v="Storstein" />
		<tag k="place" v="farm" />
		<tag k="ssr:stedsnr" v="609631" />
	</node>
	<node id="-395149" lat="59.4638388922" lon="5.28775834173">
		<tag k="name" v="Randvatnet" />
		<tag k="natural" v="water" />
		<tag k="ssr:stedsnr" v="609627" />
	</node>
	<node id="-395148" lat="59.4600888919" lon="5.33124167303">
		<tag k="fixme" v="consider natural=peak for the most distinct mountains in the district" />
		<tag k="name" v="Eidsfjellet" />
		<tag k="natural" v="hill" />
		<tag k="place" v="locality" />
		<tag k="ssr:stedsnr" v="609617" />
	</node>
	<node id="-395147" lat="59.4460861097" lon="5.09180278408">
		<tag k="name" v="Nipsholmen" />
		<tag k="place" v="islet" />
		<tag k="ssr:stedsnr" v="609615" />
	</node>
	<node id="-395146" lat="59.4541191956" lon="5.2991867636">
		<tag k="fixme" v="consider place=hamlet" />
		<tag k="name" v="Skokland" />
		<tag k="place" v="farm" />
		<tag k="ssr:stedsnr" v="608717" />
	</node>
	<node id="-395145" lat="59.452472221" lon="5.31639722686">
		<tag k="alt_name" v="Rotavatnet" />
		<tag k="name" v="Rotatjørna" />
		<tag k="natural" v="water" />
		<tag k="ssr:stedsnr" v="608715" />
	</node>
	<node id="-395144" lat="59.4488444437" lon="5.26288610727">
		<tag k="name" v="Fagerheim" />
		<tag k="place" v="farm" />
		<tag k="ssr:stedsnr" v="608712" />
	</node>
	<node id="-395143" lat="59.4344166687" lon="5.24058610292">
		<tag k="name" v="Kvalsvik" />
		<tag k="natural" v="bay" />
		<tag k="ssr:stedsnr" v="608671" />
	</node>
	<node id="-395142" lat="59.4341250016" lon="5.32300833262">
		<tag k="alt_name" v="Jøtnafjellet" />
		<tag k="fixme" v="consider natural=peak for the most distinct mountains in the district" />
		<tag k="name" v="Jøtnafjell" />
		<tag k="natural" v="hill" />
		<tag k="place" v="locality" />
		<tag k="ssr:stedsnr" v="608667" />
	</node>
	<node id="-395141" lat="59.394472397" lon="5.33792437223">
		<tag k="alt_name" v="Vassbrekka" />
		<tag k="fixme" v="consider place=hamlet" />
		<tag k="name" v="Vassbrekke" />
		<tag k="place" v="farm" />
		<tag k="ssr:stedsnr" v="608659" />
	</node>
	<node id="-395140" lat="59.4122944478" lon="5.3260666641">
		<tag k="name" v="Nyland" />
		<tag k="place" v="farm" />
		<tag k="ssr:stedsnr" v="608647" />
	</node>
	<node id="-395139" lat="59.410208329" lon="5.2640444464">
		<tag k="alt_name" v="Risøy" />
		<tag k="name" v="Risøya" />
		<tag k="place" v="island" />
		<tag k="ssr:stedsnr" v="608645" />
	</node>
	<node id="-395138" lat="59.4161611107" lon="5.24387222568">
		<tag k="alt_name" v="Vibrandøya;Vibrandsøy" />
		<tag k="name" v="Vibrandsøya" />
		<tag k="place" v="islet" />
		<tag k="ssr:stedsnr" v="608636" />
	</node>
	<node id="-395137" lat="59.3892638565" lon="5.30334910977">
		<tag k="alt_name" v="Sakkestad" />
		<tag k="name" v="Sakkastad" />
		<tag k="place" v="suburb" />
		<tag k="ssr:stedsnr" v="608617" />
	</node>
	<node id="-395136" lat="59.4270750003" lon="5.25600833597">
		<tag k="name" v="Tresberg" />
		<tag k="natural" v="cape" />
		<tag k="ssr:stedsnr" v="604951" />
	</node>
	<node id="-395135" lat="59.429683332" lon="5.25384722027">
		<tag k="name" v="Lahammaren" />
		<tag k="natural" v="cape" />
		<tag k="ssr:stedsnr" v="604946" />
	</node>
	<node id="-395134" lat="59.4214472246" lon="5.25661111138">
		<tag k="name" v="Asalvika" />
		<tag k="natural" v="bay" />
		<tag k="ssr:stedsnr" v="604913" />
	</node>
	<node id="-395133" lat="59.3911277738" lon="5.30798611087">
		<tag k="name" v="Bleikemyr" />
		<tag k="place" v="isolated_dwelling" />
		<tag k="ssr:stedsnr" v="603079" />
	</node>
	<node id="-395132" lat="59.3965722204" lon="5.28696388294">
		<tag k="name" v="Skarpavoll" />
		<tag k="place" v="isolated_dwelling" />
		<tag k="ssr:stedsnr" v="603070" />
	</node>
	<node id="-395131" lat="59.4101277801" lon="5.27565555087">
		<tag k="amenity" v="townhall" />
		<tag k="name" v="Haugesund rådhus" />
		<tag k="ssr:stedsnr" v="602247" />
	</node>
	<node id="-395130" lat="59.408880551" lon="5.28013054824">
		<tag k="amenity" v="hospital" />
		<tag k="name" v="Haugesund sykehus" />
		<tag k="ssr:stedsnr" v="602245" />
	</node>
	<node id="-395129" lat="59.3997333295" lon="5.33675278183">
		<tag k="bridge" v="yes" />
		<tag k="layer" v="1" />
		<tag k="name" v="Vassbrekke" />
		<tag k="ssr:stedsnr" v="593259" />
	</node>
	<node id="-395128" lat="59.4068666669" lon="5.26629999344">
		<tag k="man_made" v="quay" />
		<tag k="name" v="Risholmen" />
		<tag k="place" v="locality" />
		<tag k="ssr:stedsnr" v="588890" />
	</node>
	<node id="-395127" lat="59.4159361129" lon="5.24062499921">
		<tag k="fixme" v="consider seamark:type=rock or natural=shoal" />
		<tag k="name" v="Skateskjeret" />
		<tag k="place" v="islet" />
		<tag k="ssr:stedsnr" v="588860" />
	</node>
	<node id="-395126" lat="59.4345861141" lon="5.23652222102">
		<tag k="name" v="Fantaflua" />
		<tag k="natural" v="shoal" />
		<tag k="place" v="locality" />
		<tag k="ssr:stedsnr" v="587771" />
	</node>
	<node id="-395125" lat="59.4523722187" lon="5.26765554828">
		<tag k="name" v="Halsane" />
		<tag k="place" v="locality" />
		<tag k="ssr:stedsnr" v="581060" />
	</node>
	<node id="-395124" lat="59.4157722219" lon="5.34107776956">
		<tag k="fixme" v="consider natural=peak for the most distinct mountains in the district" />
		<tag k="name" v="Litla Trongjo" />
		<tag k="natural" v="hill" />
		<tag k="place" v="locality" />
		<tag k="ssr:stedsnr" v="572998" />
	</node>
	<node id="-395123" lat="59.4003055554" lon="5.34641666388">
		<tag k="name" v="Paddetjørn" />
		<tag k="natural" v="water" />
		<tag k="ssr:stedsnr" v="572994" />
	</node>
	<node id="-395122" lat="59.4168833322" lon="5.32053610981">
		<tag k="name" v="Stølshaug" />
		<tag k="natural" v="hill" />
		<tag k="place" v="locality" />
		<tag k="ssr:stedsnr" v="572982" />
	</node>
	<node id="-395121" lat="59.5034611094" lon="5.23475278093">
		<tag k="name" v="Ølkonå" />
		<tag k="ssr:stedsnr" v="572898" />
		<tag k="waterway" v="stream" />
	</node>
	<node id="-395120" lat="59.4706916713" lon="5.24762500618">
		<tag k="name" v="Storefjellet" />
		<tag k="natural" v="hill" />
		<tag k="place" v="locality" />
		<tag k="ssr:stedsnr" v="572895" />
	</node>
	<node id="-395119" lat="59.4536805599" lon="5.24451945112">
		<tag k="name" v="Båsabekken" />
		<tag k="ssr:stedsnr" v="572871" />
		<tag k="waterway" v="stream" />
	</node>
	<node id="-395118" lat="59.4445166686" lon="5.24159444067">
		<tag k="name" v="Grønavik" />
		<tag k="natural" v="bay" />
		<tag k="ssr:stedsnr" v="572865" />
	</node>
	<node id="-395117" lat="59.4985583293" lon="5.24673611469">
		<tag k="name" v="Selvågen" />
		<tag k="natural" v="bay" />
		<tag k="ssr:stedsnr" v="572861" />
	</node>
	<node id="-395116" lat="59.4687527815" lon="5.26873889566">
		<tag k="name" v="Vinsjanshaugen" />
		<tag k="natural" v="hill" />
		<tag k="place" v="locality" />
		<tag k="ssr:stedsnr" v="572637" />
	</node>
	<node id="-395115" lat="59.4735972208" lon="5.27264166846">
		<tag k="name" v="Andskoteheiane" />
		<tag k="natural" v="hill" />
		<tag k="place" v="locality" />
		<tag k="ssr:stedsnr" v="572634" />
	</node>
	<node id="-395114" lat="59.4691749979" lon="5.30055000618">
		<tag k="name" v="Håvåsen" />
		<tag k="natural" v="hill" />
		<tag k="place" v="locality" />
		<tag k="ssr:stedsnr" v="572631" />
	</node>
	<node id="-395113" lat="59.4455111128" lon="5.07850832632">
		<tag k="name" v="Gannvikneset" />
		<tag k="natural" v="cape" />
		<tag k="ssr:stedsnr" v="572622" />
	</node>
	<node id="-395112" lat="59.4411472228" lon="5.07385554772">
		<tag k="name" v="Idlaklubb" />
		<tag k="natural" v="cape" />
		<tag k="ssr:stedsnr" v="572619" />
	</node>
	<node id="-395111" lat="59.489891662" lon="5.26865832683">
		<tag k="name" v="Roaldsundet" />
		<tag k="natural" v="strait" />
		<tag k="ssr:stedsnr" v="572616" />
	</node>
	<node id="-395110" lat="59.4399222267" lon="5.32158888892">
		<tag k="name" v="Dubergselva" />
		<tag k="ssr:stedsnr" v="572611" />
		<tag k="waterway" v="stream" />
	</node>
	<node id="-395109" lat="59.4423305553" lon="5.08852499696">
		<tag k="alt_name" v="Suggevåg" />
		<tag k="name" v="Suggevågen" />
		<tag k="natural" v="bay" />
		<tag k="ssr:stedsnr" v="572602" />
	</node>
	<node id="-395108" lat="59.436233329" lon="5.31857776954">
		<tag k="fixme" v="consider natural=peak for the most distinct mountains in the district" />
		<tag k="name" v="Kruk" />
		<tag k="natural" v="hill" />
		<tag k="place" v="locality" />
		<tag k="ssr:stedsnr" v="572551" />
	</node>
	<node id="-395107" lat="59.4528166672" lon="5.27116111385">
		<tag k="name" v="Dyraskarhaugen" />
		<tag k="natural" v="hill" />
		<tag k="place" v="locality" />
		<tag k="ssr:stedsnr" v="572534" />
	</node>
	<node id="-395106" lat="59.433561111" lon="5.08833056087">
		<tag k="alt_name" v="Buvågen" />
		<tag k="name" v="Buavågen" />
		<tag k="natural" v="bay" />
		<tag k="ssr:stedsnr" v="572532" />
	</node>
	<node id="-395105" lat="59.4764833291" lon="5.3796833416">
		<tag k="name" v="Klubben" />
		<tag k="natural" v="cape" />
		<tag k="ssr:stedsnr" v="572325" />
	</node>
	<node id="-395104" lat="59.4805527803" lon="5.38662222476">
		<tag k="name" v="Bleikmyr" />
		<tag k="natural" v="wetland" />
		<tag k="ssr:stedsnr" v="572320" />
	</node>
	<node id="-395103" lat="59.4257138854" lon="5.13039444336">
		<tag k="name" v="Søre Glåpen" />
		<tag k="place" v="islet" />
		<tag k="ssr:stedsnr" v="572115" />
	</node>
	<node id="-395102" lat="59.4900388849" lon="5.35635277407">
		<tag k="name" v="Sælateigane" />
		<tag k="natural" v="hill" />
		<tag k="place" v="locality" />
		<tag k="ssr:stedsnr" v="572099" />
	</node>
	<node id="-395101" lat="59.4524055572" lon="5.21971666216">
		<tag k="name" v="Tømmerflua" />
		<tag k="natural" v="shoal" />
		<tag k="place" v="locality" />
		<tag k="ssr:stedsnr" v="570280" />
	</node>
	<node id="-395100" lat="59.4617638912" lon="5.29428055026">
		<tag k="name" v="Saltveitvatnet" />
		<tag k="natural" v="water" />
		<tag k="ssr:stedsnr" v="548674" />
	</node>
	<node id="-395099" lat="59.4546111128" lon="5.20415555639">
		<tag k="name" v="Grunnane" />
		<tag k="natural" v="shoal" />
		<tag k="place" v="locality" />
		<tag k="ssr:stedsnr" v="548672" />
	</node>
	<node id="-395098" lat="59.4615750033" lon="5.24211110442">
		<tag k="alt_name" v="Tømmerhamar" />
		<tag k="fixme" v="consider natural=peak for the most distinct mountains in the district" />
		<tag k="name" v="Tømmerhammar" />
		<tag k="natural" v="hill" />
		<tag k="place" v="locality" />
		<tag k="ssr:stedsnr" v="548671" />
	</node>
	<node id="-395097" lat="59.4417861103" lon="5.08235833394">
		<tag k="name" v="Røvær" />
		<tag k="place" v="island" />
		<tag k="ssr:stedsnr" v="548311" />
	</node>
	<node id="-395095" lat="59.4142027758" lon="5.30326388105">
		<tag k="name" v="Mosskardsfjellet" />
		<tag k="natural" v="hill" />
		<tag k="place" v="locality" />
		<tag k="ssr:stedsnr" v="544925" />
	</node>
	<node id="-395094" lat="59.3952138907" lon="5.33068889196">
		<tag k="name" v="Myrhaug" />
		<tag k="natural" v="hill" />
		<tag k="place" v="locality" />
		<tag k="ssr:stedsnr" v="544774" />
	</node>
	<node id="-395093" lat="59.3875638871" lon="5.29549166569">
		<tag k="name" v="Klubben" />
		<tag k="natural" v="cape" />
		<tag k="ssr:stedsnr" v="543130" />
	</node>
	<node id="-395092" lat="59.3903555583" lon="5.28935277413">
		<tag k="name" v="Rossabøflua" />
		<tag k="natural" v="shoal" />
		<tag k="place" v="locality" />
		<tag k="ssr:stedsnr" v="543107" />
	</node>
	<node id="-395091" lat="59.3935944419" lon="5.2846472216">
		<tag k="name" v="Rossabønakken" />
		<tag k="natural" v="cape" />
		<tag k="ssr:stedsnr" v="543103" />
	</node>
	<node id="-395090" lat="59.3913972218" lon="5.28832222252">
		<tag k="name" v="Nordre Torgersvik" />
		<tag k="natural" v="bay" />
		<tag k="ssr:stedsnr" v="543098" />
	</node>
	<node id="-395089" lat="59.4268027745" lon="5.26577777841">
		<tag k="bridge" v="yes" />
		<tag k="layer" v="1" />
		<tag k="name" v="Gard" />
		<tag k="ssr:stedsnr" v="532282" />
	</node>
	<node id="-395088" lat="59.4087277772" lon="5.26101667215">
		<tag k="name" v="Risøyflua" />
		<tag k="natural" v="shoal" />
		<tag k="place" v="locality" />
		<tag k="ssr:stedsnr" v="527862" />
	</node>
	<node id="-395087" lat="59.3964277774" lon="5.32939444171">
		<tag k="layer" v="-1" />
		<tag k="name" v="Myrhaugundergangen" />
		<tag k="ssr:stedsnr" v="525016" />
		<tag k="tunnel" v="yes" />
	</node>
	<node id="-395086" lat="59.4268277748" lon="5.34159444678">
		<tag k="name" v="Trolladalen" />
		<tag k="natural" v="valley" />
		<tag k="place" v="locality" />
		<tag k="ssr:stedsnr" v="521013" />
	</node>
	<node id="-395085" lat="59.4753861105" lon="5.38614166433">
		<tag k="loc_name" v="Kidjaneset" />
		<tag k="name" v="Kiggjaneset" />
		<tag k="place" v="island" />
		<tag k="ssr:stedsnr" v="521011" />
	</node>
	<node id="-395084" lat="59.4815583318" lon="5.23058611915">
		<tag k="name" v="Varen" />
		<tag k="natural" v="hill" />
		<tag k="place" v="locality" />
		<tag k="ssr:stedsnr" v="512911" />
	</node>
	<node id="-395083" lat="59.4784305587" lon="5.27091943797">
		<tag k="name" v="Klumpane" />
		<tag k="natural" v="hill" />
		<tag k="place" v="locality" />
		<tag k="ssr:stedsnr" v="512657" />
	</node>
	<node id="-395082" lat="59.4766666682" lon="5.30779166004">
		<tag k="name" v="Gravdalsåsen" />
		<tag k="natural" v="hill" />
		<tag k="place" v="locality" />
		<tag k="ssr:stedsnr" v="512655" />
	</node>
	<node id="-395081" lat="59.4251361146" lon="5.32691666052">
		<tag k="fixme" v="consider natural=peak for the most distinct mountains in the district" />
		<tag k="name" v="Søre Nuten" />
		<tag k="natural" v="hill" />
		<tag k="place" v="locality" />
		<tag k="ssr:stedsnr" v="512637" />
	</node>
	<node id="-395080" lat="59.429055559" lon="5.33455833646">
		<tag k="name" v="Tjuvahelleren" />
		<tag k="natural" v="hill" />
		<tag k="place" v="locality" />
		<tag k="ssr:stedsnr" v="512630" />
	</node>
	<node id="-395079" lat="59.4309281195" lon="5.26410703163">
		<tag k="fixme" v="consider place=hamlet" />
		<tag k="name" v="Steinsnes" />
		<tag k="place" v="farm" />
		<tag k="ssr:stedsnr" v="512578" />
	</node>
	<node id="-395078" lat="59.4558027759" lon="5.33083889621">
		<tag k="fixme" v="consider natural=peak for the most distinct mountains in the district" />
		<tag k="name" v="Litla Eidsfjellet" />
		<tag k="natural" v="hill" />
		<tag k="place" v="locality" />
		<tag k="ssr:stedsnr" v="512567" />
	</node>
	<node id="-395077" lat="59.4373444447" lon="5.07499999749">
		<tag k="name" v="Sloggemyrane" />
		<tag k="natural" v="wetland" />
		<tag k="ssr:stedsnr" v="512558" />
	</node>
	<node id="-395076" lat="59.4393472241" lon="5.09003055554">
		<tag k="name" v="Sjubbehaugen" />
		<tag k="natural" v="hill" />
		<tag k="place" v="locality" />
		<tag k="ssr:stedsnr" v="512557" />
	</node>
	<node id="-395075" lat="59.4331416637" lon="5.07990277491">
		<tag k="name" v="Hestamarksodden" />
		<tag k="natural" v="cape" />
		<tag k="ssr:stedsnr" v="512554" />
	</node>
	<node id="-395074" lat="59.4364500045" lon="5.09127777866">
		<tag k="alt_name" v="Bekkarvik" />
		<tag k="name" v="Bekkarsvik" />
		<tag k="natural" v="bay" />
		<tag k="ssr:stedsnr" v="512551" />
	</node>
	<node id="-395073" lat="59.4764638861" lon="5.33268610612">
		<tag k="name" v="Iglahaugen" />
		<tag k="natural" v="hill" />
		<tag k="place" v="locality" />
		<tag k="ssr:stedsnr" v="512053" />
	</node>
	<node id="-395072" lat="59.4308277762" lon="5.25135277135">
		<tag k="name" v="Vesteholmen" />
		<tag k="place" v="islet" />
		<tag k="ssr:stedsnr" v="511855" />
	</node>
	<node id="-395071" lat="59.4236527793" lon="5.25648888489">
		<tag k="name" v="Rekavik" />
		<tag k="natural" v="bay" />
		<tag k="ssr:stedsnr" v="511854" />
	</node>
	<node id="-395070" lat="59.4541500034" lon="5.25522223063">
		<tag k="name" v="Søre Asparhaug" />
		<tag k="natural" v="hill" />
		<tag k="place" v="locality" />
		<tag k="ssr:stedsnr" v="511844" />
	</node>
	<node id="-395069" lat="59.4953583349" lon="5.26141388829">
		<tag k="name" v="Straumen" />
		<tag k="natural" v="strait" />
		<tag k="ssr:stedsnr" v="511713" />
	</node>
	<node id="-395068" lat="59.4465694421" lon="5.08496667141">
		<tag k="fixme" v="multiple name tags, choose one and add the other to alt_name" />
		<tag k="name" v="Veret;Værodden" />
		<tag k="natural" v="cape" />
		<tag k="ssr:stedsnr" v="511490" />
	</node>
	<node id="-395067" lat="59.4790861106" lon="5.29444722706">
		<tag k="alt_name" v="Søre Vikse" />
		<tag k="name" v="Vikse" />
		<tag k="place" v="farm" />
		<tag k="ssr:stedsnr" v="488706" />
	</node>
	<node id="-395066" lat="59.4744416701" lon="5.3659916728">
		<tag k="fixme" v="consider natural=peak for the most distinct mountains in the district" />
		<tag k="name" v="Klauv" />
		<tag k="natural" v="hill" />
		<tag k="place" v="locality" />
		<tag k="ssr:stedsnr" v="488697" />
	</node>
	<node id="-395065" lat="59.4727611076" lon="5.25169167339">
		<tag k="name" v="Storhaug" />
		<tag k="natural" v="hill" />
		<tag k="place" v="locality" />
		<tag k="ssr:stedsnr" v="488691" />
	</node>
	<node id="-395064" lat="59.4063861125" lon="5.31028333496">
		<tag k="fixme" v="consider natural=peak for the most distinct mountains in the district" />
		<tag k="name" v="Storasundfjellet" />
		<tag k="natural" v="hill" />
		<tag k="place" v="locality" />
		<tag k="ssr:stedsnr" v="487657" />
	</node>
	<node id="-395063" lat="59.4564305509" lon="5.34416943698">
		<tag k="name" v="Sandvatnet" />
		<tag k="natural" v="water" />
		<tag k="ssr:stedsnr" v="486706" />
		<tag k="water" v="lake" />
	</node>
	<node id="-395062" lat="59.4467334687" lon="5.23896040256">
		<tag k="alt_name" v="Årebrotholmane" />
		<tag k="name" v="Årabrotholmane" />
		<tag k="place" v="islet" />
		<tag k="ssr:stedsnr" v="486705" />
	</node>
	<node id="-395061" lat="59.4372861108" lon="5.0981222156">
		<tag k="alt_name" v="Hillerøy;Hidlersøy" />
		<tag k="name" v="Hillerøya" />
		<tag k="place" v="islet" />
		<tag k="ssr:stedsnr" v="486696" />
	</node>
	<node id="-395060" lat="59.4347722244" lon="5.12003888356">
		<tag k="alt_name" v="Gitterøy;Gjitterøy" />
		<tag k="name" v="Gitterøya" />
		<tag k="place" v="island" />
		<tag k="ssr:stedsnr" v="486695" />
	</node>
	<node id="-395059" lat="59.4187833346" lon="5.14580000777">
		<tag k="fixme" v="consider seamark:type=rock or natural=shoal" />
		<tag k="name" v="Seiskjer" />
		<tag k="place" v="islet" />
		<tag k="ssr:stedsnr" v="486677" />
	</node>
	<node id="-395058" lat="59.4343250024" lon="5.33537500185">
		<tag k="name" v="Krokavatnet" />
		<tag k="natural" v="water" />
		<tag k="ssr:stedsnr" v="486651" />
	</node>
	<node id="-395057" lat="59.4168055556" lon="5.28061666264">
		<tag k="name" v="Geitafjellet" />
		<tag k="place" v="quarter" />
		<tag k="ssr:stedsnr" v="483942" />
	</node>
	<node id="-395056" lat="59.4191944433" lon="5.27931388406">
		<tag k="name" v="Nerhaug" />
		<tag k="place" v="isolated_dwelling" />
		<tag k="ssr:stedsnr" v="483938" />
	</node>
	<node id="-395055" lat="59.4164333302" lon="5.24977777509">
		<tag k="fixme" v="consider seamark:type=rock or natural=shoal" />
		<tag k="name" v="Flataskjeret" />
		<tag k="place" v="islet" />
		<tag k="ssr:stedsnr" v="483936" />
	</node>
	<node id="-395054" lat="59.415647219" lon="5.26213888753">
		<tag k="name" v="Nordre Smedasundet" />
		<tag k="natural" v="strait" />
		<tag k="ssr:stedsnr" v="483927" />
	</node>
	<node id="-395053" lat="59.4148611102" lon="5.27862777773">
		<tag k="name" v="Flatmyr" />
		<tag k="place" v="locality" />
		<tag k="ssr:stedsnr" v="483917" />
	</node>
	<node id="-395052" lat="59.3849944446" lon="5.29772776908">
		<tag k="name" v="Nilsastø" />
		<tag k="natural" v="bay" />
		<tag k="ssr:stedsnr" v="482092" />
	</node>
	<node id="-395051" lat="59.393744443" lon="5.28841944086">
		<tag k="amenity" v="place_of_worship" />
		<tag k="denomination" v="lutheran" />
		<tag k="name" v="Rossabø kapell" />
		<tag k="religion" v="christian" />
		<tag k="ssr:stedsnr" v="482075" />
	</node>
	<node id="-395050" lat="59.4114138884" lon="5.28066388441">
		<tag k="name" v="Hollenderhaugen" />
		<tag k="natural" v="hill" />
		<tag k="place" v="locality" />
		<tag k="ssr:stedsnr" v="482067" />
	</node>
	<node id="-395049" lat="59.4267416714" lon="5.26506945266">
		<tag k="bridge" v="yes" />
		<tag k="layer" v="1" />
		<tag k="name" v="Gard" />
		<tag k="ssr:stedsnr" v="472286" />
	</node>
	<node id="-395048" lat="59.397194444" lon="5.29742500683">
		<tag k="bridge" v="yes" />
		<tag k="layer" v="1" />
		<tag k="name" v="Diktervegen" />
		<tag k="ssr:stedsnr" v="472284" />
	</node>
	<node id="-395047" lat="59.4101250009" lon="5.32469999313">
		<tag k="bridge" v="yes" />
		<tag k="layer" v="1" />
		<tag k="name" v="Dalen" />
		<tag k="ssr:stedsnr" v="472285" />
	</node>
	<node id="-395046" lat="59.4142083329" lon="5.25587778292">
		<tag k="name" v="Skagen" />
		<tag k="natural" v="cape" />
		<tag k="ssr:stedsnr" v="467860" />
	</node>
	<node id="-395045" lat="59.4331638847" lon="5.23948888876">
		<tag k="name" v="Kvalstrynet" />
		<tag k="natural" v="cape" />
		<tag k="ssr:stedsnr" v="466758" />
	</node>
	<node id="-395044" lat="59.4158500015" lon="5.3496277855">
		<tag k="name" v="Floget" />
		<tag k="natural" v="hill" />
		<tag k="place" v="locality" />
		<tag k="ssr:stedsnr" v="460064" />
	</node>
	<node id="-395043" lat="59.4726972185" lon="5.33139999239">
		<tag k="name" v="Duberg" />
		<tag k="natural" v="hill" />
		<tag k="place" v="locality" />
		<tag k="ssr:stedsnr" v="460058" />
	</node>
	<node id="-395042" lat="59.4527694458" lon="5.27558056403">
		<tag k="name" v="Slettebrekkene" />
		<tag k="natural" v="slope" />
		<tag k="place" v="locality" />
		<tag k="ssr:stedsnr" v="460021" />
	</node>
	<node id="-395041" lat="59.4170916652" lon="5.34082777414">
		<tag k="fixme" v="consider natural=peak for the most distinct mountains in the district" />
		<tag k="name" v="Stora Trongjo" />
		<tag k="natural" v="hill" />
		<tag k="place" v="locality" />
		<tag k="ssr:stedsnr" v="452999" />
	</node>
	<node id="-395040" lat="59.3985622267" lon="5.29661158586">
		<tag k="alt_name" v="Rossebø" />
		<tag k="name" v="Rossabø" />
		<tag k="place" v="village" />
		<tag k="ssr:stedsnr" v="452987" />
	</node>
	<node id="-395039" lat="59.4481138913" lon="5.08389165938">
		<tag k="name" v="Austra Varavik" />
		<tag k="natural" v="bay" />
		<tag k="ssr:stedsnr" v="452638" />
	</node>
	<node id="-395038" lat="59.4464583377" lon="5.32098611768">
		<tag k="name" v="Otrabekken" />
		<tag k="ssr:stedsnr" v="452571" />
		<tag k="waterway" v="stream" />
	</node>
	<node id="-395037" lat="59.4429472232" lon="5.33667777459">
		<tag k="alt_name" v="søra Bårdhaugvatnet" />
		<tag k="name" v="Søra Bårdshaugvatnet" />
		<tag k="natural" v="water" />
		<tag k="ssr:stedsnr" v="452568" />
		<tag k="water" v="lake" />
	</node>
	<node id="-395036" lat="59.4380583334" lon="5.07106388246">
		<tag k="name" v="Storanespynten" />
		<tag k="natural" v="cape" />
		<tag k="ssr:stedsnr" v="452561" />
	</node>
	<node id="-395035" lat="59.4498472183" lon="5.30872223062">
		<tag k="name" v="Ruggesteinen" />
		<tag k="natural" v="stone" />
		<tag k="ssr:stedsnr" v="452557" />
	</node>
	<node id="-395034" lat="59.4854416698" lon="5.22525276882">
		<tag k="name" v="Bekkjarvik" />
		<tag k="natural" v="bay" />
		<tag k="ssr:stedsnr" v="451911" />
	</node>
	<node id="-395033" lat="59.4290238212" lon="5.25829657162">
		<tag k="historic" v="heritage" />
		<tag k="name" v="Haraldshaugen" />
		<tag k="place" v="locality" />
		<tag k="ssr:stedsnr" v="451881" />
	</node>
	<node id="-395032" lat="59.4947333369" lon="5.23713610609">
		<tag k="fixme" v="consider natural=peak for the most distinct mountains in the district" />
		<tag k="name" v="Mikkjelsfjellet" />
		<tag k="natural" v="hill" />
		<tag k="place" v="locality" />
		<tag k="ssr:stedsnr" v="451869" />
	</node>
	<node id="-395031" lat="59.4951416676" lon="5.25179166937">
		<tag k="name" v="Haugatjørn" />
		<tag k="natural" v="water" />
		<tag k="ssr:stedsnr" v="451867" />
	</node>
	<node id="-395030" lat="59.489669441" lon="5.26993610633">
		<tag k="name" v="Haglandsøy" />
		<tag k="place" v="islet" />
		<tag k="ssr:stedsnr" v="451612" />
	</node>
	<node id="-395029" lat="59.45575278" lon="5.28439721591">
		<tag k="name" v="Søre Dalshaug" />
		<tag k="natural" v="hill" />
		<tag k="place" v="locality" />
		<tag k="ssr:stedsnr" v="451540" />
	</node>
	<node id="-395028" lat="59.4804388845" lon="5.38050000234">
		<tag k="fixme" v="consider natural=peak for the most distinct mountains in the district" />
		<tag k="name" v="Tømmerhaugen" />
		<tag k="natural" v="hill" />
		<tag k="place" v="locality" />
		<tag k="ssr:stedsnr" v="451324" />
	</node>
	<node id="-395027" lat="59.4257027819" lon="5.09711944366">
		<tag k="name" v="Søre Bryggjeland" />
		<tag k="place" v="islet" />
		<tag k="ssr:stedsnr" v="451112" />
	</node>
	<node id="-395026" lat="59.4415861099" lon="5.09854722509">
		<tag k="name" v="Tednholmsfle" />
		<tag k="natural" v="bay" />
		<tag k="ssr:stedsnr" v="451100" />
	</node>
	<node id="-395025" lat="59.4662305524" lon="5.36047499489">
		<tag k="name" v="Mannabergstjørn" />
		<tag k="natural" v="water" />
		<tag k="ssr:stedsnr" v="451090" />
	</node>
	<node id="-395024" lat="59.4406833304" lon="5.10434166275">
		<tag k="name" v="Stangelandsfle" />
		<tag k="natural" v="strait" />
		<tag k="ssr:stedsnr" v="451081" />
	</node>
	<node id="-395023" lat="59.4799027763" lon="5.33736667196">
		<tag k="fixme" v="consider natural=peak for the most distinct mountains in the district" />
		<tag k="name" v="Ørnanuten" />
		<tag k="natural" v="hill" />
		<tag k="place" v="locality" />
		<tag k="ssr:stedsnr" v="451069" />
	</node>
	<node id="-395021" lat="59.4279666632" lon="5.19135833511">
		<tag k="name" v="Vestreflua" />
		<tag k="natural" v="shoal" />
		<tag k="place" v="locality" />
		<tag k="ssr:stedsnr" v="450504" />
	</node>
	<node id="-395020" lat="59.4581027786" lon="5.18130555451">
		<tag k="name" v="Søre Rosse" />
		<tag k="natural" v="shoal" />
		<tag k="place" v="locality" />
		<tag k="ssr:stedsnr" v="450344" />
	</node>
	<node id="-395019" lat="59.4603111077" lon="5.18001667205">
		<tag k="name" v="Nordre Rosse" />
		<tag k="natural" v="shoal" />
		<tag k="place" v="locality" />
		<tag k="ssr:stedsnr" v="450341" />
	</node>
	<node id="-395018" lat="59.5055305537" lon="5.11938334013">
		<tag k="alt_name" v="Gåseskjer" />
		<tag k="fixme" v="consider seamark:type=rock or natural=shoal" />
		<tag k="name" v="Gåseskjeret" />
		<tag k="place" v="islet" />
		<tag k="ssr:stedsnr" v="428113" />
	</node>
	<node id="-395017" lat="59.465136112" lon="5.23835832953">
		<tag k="alt_name" v="Tømmervik" />
		<tag k="name" v="Tømmervågen" />
		<tag k="natural" v="bay" />
		<tag k="ssr:stedsnr" v="427689" />
	</node>
	<node id="-395016" lat="59.4821766444" lon="5.24748725319">
		<tag k="fixme" v="consider place=hamlet" />
		<tag k="name" v="Bergstøl" />
		<tag k="place" v="farm" />
		<tag k="ssr:stedsnr" v="427685" />
	</node>
	<node id="-395015" lat="59.4828305573" lon="5.22735277378">
		<tag k="alt_name" v="Stemnevågen;Stemmevik" />
		<tag k="name" v="Stemmevika" />
		<tag k="natural" v="bay" />
		<tag k="ssr:stedsnr" v="427683" />
	</node>
	<node id="-395014" lat="59.4924361108" lon="5.22581667031">
		<tag k="name" v="Bogshamn" />
		<tag k="natural" v="bay" />
		<tag k="ssr:stedsnr" v="427682" />
	</node>
	<node id="-395013" lat="59.4421416641" lon="5.10238333985">
		<tag k="alt_name" v="Terneholmane;store Tednholmen" />
		<tag k="name" v="Terneholmen" />
		<tag k="place" v="islet" />
		<tag k="ssr:stedsnr" v="427649" />
	</node>
	<node id="-395012" lat="59.4428166696" lon="5.29971944317">
		<tag k="alt_name" v="Tjelltjørn" />
		<tag k="name" v="Tjelltjørna" />
		<tag k="natural" v="water" />
		<tag k="ssr:stedsnr" v="426675" />
	</node>
	<node id="-395011" lat="59.416863891" lon="5.25343889701">
		<tag k="alt_name" v="Hasseløy" />
		<tag k="name" v="Hasseløya" />
		<tag k="place" v="island" />
		<tag k="ssr:stedsnr" v="426653" />
	</node>
	<node id="-395010" lat="59.4235583331" lon="5.27008889447">
		<tag k="name" v="Nygard" />
		<tag k="place" v="isolated_dwelling" />
		<tag k="ssr:stedsnr" v="426651" />
	</node>
	<node id="-395009" lat="59.4366972224" lon="5.26390555745">
		<tag k="alt_name" v="Kvale" />
		<tag k="name" v="Kvala" />
		<tag k="place" v="farm" />
		<tag k="ssr:stedsnr" v="426636" />
	</node>
	<node id="-395008" lat="59.4010166638" lon="5.33072500298">
		<tag k="fixme" v="consider natural=peak for the most distinct mountains in the district" />
		<tag k="name" v="Skjenarefjellet" />
		<tag k="natural" v="hill" />
		<tag k="place" v="locality" />
		<tag k="ssr:stedsnr" v="426624" />
	</node>
	<node id="-395007" lat="59.3994777755" lon="5.28955277094">
		<tag k="alt_name" v="Rossabø" />
		<tag k="amenity" v="place_of_worship" />
		<tag k="denomination" v="lutheran" />
		<tag k="name" v="Rossabø kirke" />
		<tag k="religion" v="christian" />
		<tag k="ssr:stedsnr" v="426623" />
	</node>
	<node id="-395006" lat="59.414833334" lon="5.25067778625">
		<tag k="name" v="Søra Løvågen" />
		<tag k="natural" v="bay" />
		<tag k="ssr:stedsnr" v="423927" />
	</node>
	<node id="-395005" lat="59.3978972239" lon="5.28138888703">
		<tag k="name" v="Hemmingstadvika" />
		<tag k="natural" v="bay" />
		<tag k="ssr:stedsnr" v="421090" />
	</node>
	<node id="-395004" lat="59.4843611073" lon="5.3630583369">
		<tag k="alt_name" v="Kjersfjellet" />
		<tag k="fixme" v="consider natural=peak for the most distinct mountains in the district" />
		<tag k="name" v="Kjersfjell" />
		<tag k="natural" v="hill" />
		<tag k="place" v="locality" />
		<tag k="ssr:stedsnr" v="245682" />
	</node>
	<node id="-395003" lat="59.4740944415" lon="5.28209999415">
		<tag k="name" v="Bakkavatnet" />
		<tag k="natural" v="water" />
		<tag k="ssr:stedsnr" v="245678" />
	</node>
	<node id="-395002" lat="59.4633948142" lon="5.25796542216">
		<tag k="fixme" v="consider place=hamlet" />
		<tag k="name" v="Førland" />
		<tag k="place" v="farm" />
		<tag k="ssr:stedsnr" v="245677" />
	</node>
	<node id="-395001" lat="59.4433861141" lon="5.07592778007">
		<tag k="alt_name" v="Utslettaneset" />
		<tag k="name" v="Utslettneset" />
		<tag k="natural" v="cape" />
		<tag k="ssr:stedsnr" v="245277" />
	</node>
	<node id="-395000" lat="59.4459972202" lon="5.06997777222">
		<tag k="name" v="Holmosen" />
		<tag k="natural" v="bay" />
		<tag k="ssr:stedsnr" v="245278" />
	</node>
	<node id="-394999" lat="59.4420749962" lon="5.26209999338">
		<tag k="name" v="Tornesvatnet" />
		<tag k="natural" v="water" />
		<tag k="ssr:stedsnr" v="244705" />
	</node>
	<node id="-394998" lat="59.4304999987" lon="5.11083055606">
		<tag k="name" v="Flatholmen" />
		<tag k="place" v="islet" />
		<tag k="ssr:stedsnr" v="244675" />
	</node>
	<node id="-394996" lat="59.4172222215" lon="5.30804445325">
		<tag k="name" v="Eivindsvatnet" />
		<tag k="natural" v="water" />
		<tag k="ssr:stedsnr" v="244637" />
		<tag k="water" v="lake" />
	</node>
	<node id="-394995" lat="59.4131215417" lon="5.28753286223">
		<tag k="fixme" v="consider place=hamlet" />
		<tag k="name" v="Saltveit" />
		<tag k="place" v="farm" />
		<tag k="ssr:stedsnr" v="244636" />
	</node>
	<node id="-394994" lat="59.4327472242" lon="5.10325554964">
		<tag k="name" v="Øreholmane" />
		<tag k="place" v="islet" />
		<tag k="ssr:stedsnr" v="269101" />
	</node>
	<node id="-394993" lat="59.4433555577" lon="5.10056666583">
		<tag k="name" v="Litle Tednholmen" />
		<tag k="place" v="islet" />
		<tag k="ssr:stedsnr" v="269091" />
	</node>
	<node id="-394992" lat="59.4390722191" lon="5.09631666673">
		<tag k="alt_name" v="Sandesundet" />
		<tag k="name" v="Sandsund" />
		<tag k="natural" v="strait" />
		<tag k="ssr:stedsnr" v="269074" />
	</node>
	<node id="-394991" lat="59.41758611" lon="5.30044443745">
		<tag k="name" v="Skåreskard" />
		<tag k="natural" v="valley" />
		<tag k="place" v="locality" />
		<tag k="ssr:stedsnr" v="241896" />
	</node>
	<node id="-394990" lat="59.391083338" lon="5.28895833932">
		<tag k="name" v="Rossabøvik" />
		<tag k="natural" v="bay" />
		<tag k="ssr:stedsnr" v="239100" />
	</node>
	<node id="-394989" lat="59.3971527754" lon="5.28208888063">
		<tag k="name" v="Kvernaneset" />
		<tag k="natural" v="cape" />
		<tag k="ssr:stedsnr" v="239091" />
	</node>
	<node id="-394988" lat="59.4061305543" lon="5.2946444507">
		<tag k="name" v="Grønåsen" />
		<tag k="natural" v="hill" />
		<tag k="place" v="locality" />
		<tag k="ssr:stedsnr" v="239075" />
	</node>
	<node id="-394987" lat="59.4097027805" lon="5.28047222677">
		<tag k="bridge" v="yes" />
		<tag k="layer" v="1" />
		<tag k="name" v="Fylkessykehuset" />
		<tag k="ssr:stedsnr" v="229301" />
	</node>
	<node id="-394986" lat="59.4204972266" lon="5.3352722269">
		<tag k="fixme" v="consider natural=peak for the most distinct mountains in the district" />
		<tag k="name" v="Hetleberg" />
		<tag k="natural" v="hill" />
		<tag k="place" v="locality" />
		<tag k="ssr:stedsnr" v="209999" />
	</node>
	<node id="-394985" lat="59.4877444403" lon="5.25966944162">
		<tag k="fixme" v="consider natural=peak for the most distinct mountains in the district" />
		<tag k="name" v="Hammaren" />
		<tag k="natural" v="hill" />
		<tag k="place" v="locality" />
		<tag k="ssr:stedsnr" v="209864" />
	</node>
	<node id="-394984" lat="59.4182777824" lon="5.13973056078">
		<tag k="fixme" v="consider seamark:type=rock or natural=shoal" />
		<tag k="name" v="Kapp Lars" />
		<tag k="place" v="islet" />
		<tag k="ssr:stedsnr" v="209776" />
	</node>
	<node id="-394983" lat="59.4453972201" lon="5.08559722466">
		<tag k="name" v="Melkevikslettene" />
		<tag k="place" v="locality" />
		<tag k="ssr:stedsnr" v="209633" />
	</node>
	<node id="-394982" lat="59.4885194439" lon="5.27697499545">
		<tag k="alt_name" v="Torsholmen" />
		<tag k="name" v="Torøy" />
		<tag k="place" v="islet" />
		<tag k="ssr:stedsnr" v="209627" />
	</node>
	<node id="-394981" lat="59.4410833305" lon="5.06802221596">
		<tag k="fixme" v="consider seamark:type=rock or natural=shoal" />
		<tag k="name" v="Skarvaskjeret" />
		<tag k="place" v="islet" />
		<tag k="ssr:stedsnr" v="209625" />
	</node>
	<node id="-394980" lat="59.4853027792" lon="5.26228056022">
		<tag k="name" v="Mjelkevik" />
		<tag k="natural" v="bay" />
		<tag k="ssr:stedsnr" v="209621" />
	</node>
	<node id="-394979" lat="59.427205555" lon="5.28167222146">
		<tag k="leisure" v="pitch" />
		<tag k="name" v="Haraldsvang" />
		<tag k="ssr:stedsnr" v="209573" />
	</node>
	<node id="-394978" lat="59.4271166648" lon="5.31378889418">
		<tag k="name" v="Djupadalen" />
		<tag k="natural" v="valley" />
		<tag k="place" v="locality" />
		<tag k="ssr:stedsnr" v="209564" />
	</node>
	<node id="-394977" lat="59.4373444433" lon="5.06190833549">
		<tag k="name" v="Skasundsholmen" />
		<tag k="place" v="islet" />
		<tag k="ssr:stedsnr" v="209549" />
	</node>
	<node id="-394976" lat="59.4448111075" lon="5.33490000041">
		<tag k="alt_name" v="norda Bårdshaugvatnet" />
		<tag k="name" v="Nordra Bårdshaugvatnet" />
		<tag k="natural" v="water" />
		<tag k="ssr:stedsnr" v="209550" />
		<tag k="water" v="lake" />
	</node>
	<node id="-394975" lat="59.4361083321" lon="5.06473888403">
		<tag k="alt_name" v="Midtre Seleningen" />
		<tag k="name" v="Midtre Sileningen" />
		<tag k="place" v="islet" />
		<tag k="ssr:stedsnr" v="209529" />
	</node>
	<node id="-394974" lat="59.4926500038" lon="5.36456388373">
		<tag k="fixme" v="consider natural=peak for the most distinct mountains in the district" />
		<tag k="name" v="Brotaskogfjellet" />
		<tag k="natural" v="hill" />
		<tag k="place" v="locality" />
		<tag k="ssr:stedsnr" v="209088" />
	</node>
	<node id="-394973" lat="59.4665805569" lon="5.34588333033">
		<tag k="name" v="Dråttetjørn" />
		<tag k="natural" v="water" />
		<tag k="ssr:stedsnr" v="209082" />
	</node>
	<node id="-394972" lat="59.4364638865" lon="5.10557222955">
		<tag k="name" v="Søre Ulvøyvåg" />
		<tag k="natural" v="bay" />
		<tag k="ssr:stedsnr" v="209071" />
	</node>
	<node id="-394971" lat="59.4395333334" lon="5.1061305576">
		<tag k="name" v="Stangelandsvågen" />
		<tag k="natural" v="bay" />
		<tag k="ssr:stedsnr" v="209066" />
	</node>
	<node id="-394970" lat="59.4730666653" lon="5.25771667162">
		<tag k="name" v="Sandtjørn" />
		<tag k="natural" v="water" />
		<tag k="ssr:stedsnr" v="208894" />
	</node>
	<node id="-394969" lat="59.4757999991" lon="5.24263611587">
		<tag k="name" v="Søravik" />
		<tag k="natural" v="bay" />
		<tag k="ssr:stedsnr" v="208891" />
	</node>
	<node id="-394968" lat="59.4739777794" lon="5.23977500652">
		<tag k="name" v="Djupevik" />
		<tag k="natural" v="bay" />
		<tag k="ssr:stedsnr" v="208890" />
	</node>
	<node id="-394967" lat="59.4564194441" lon="5.23504721357">
		<tag k="name" v="Tømmehammarsodden" />
		<tag k="natural" v="cape" />
		<tag k="ssr:stedsnr" v="208867" />
	</node>
	<node id="-394966" lat="59.448272224" lon="5.25459166306">
		<tag k="name" v="Longafjellsmyr" />
		<tag k="natural" v="wetland" />
		<tag k="ssr:stedsnr" v="208863" />
	</node>
	<node id="-394965" lat="59.4977333367" lon="5.25576388586">
		<tag k="name" v="Straumen" />
		<tag k="natural" v="strait" />
		<tag k="ssr:stedsnr" v="208855" />
	</node>
	<node id="-394964" lat="59.4141602441" lon="5.25682189432">
		<tag k="man_made" v="quay" />
		<tag k="name" v="Skagen" />
		<tag k="place" v="locality" />
		<tag k="ssr:stedsnr" v="208801" />
	</node>
	<node id="-394963" lat="59.4830694421" lon="5.38673055782">
		<tag k="fixme" v="consider natural=peak for the most distinct mountains in the district" />
		<tag k="name" v="Litle Grasåsen" />
		<tag k="natural" v="hill" />
		<tag k="place" v="locality" />
		<tag k="ssr:stedsnr" v="208307" />
	</node>
	<node id="-394962" lat="59.4883885053" lon="5.24992972266">
		<tag k="alt_name" v="Hagland store;Vestre Hagland" />
		<tag k="fixme" v="consider place=hamlet" />
		<tag k="name" v="Store Hagland" />
		<tag k="place" v="farm" />
		<tag k="ssr:stedsnr" v="208277" />
	</node>
	<node id="-394961" lat="59.4594055588" lon="5.25381388601">
		<tag k="alt_name" v="Fiskavatnet" />
		<tag k="name" v="Fiskevatnet" />
		<tag k="natural" v="water" />
		<tag k="ssr:stedsnr" v="185620" />
	</node>
	<node id="-394960" lat="59.4623475596" lon="5.34876814907">
		<tag k="fixme" v="consider natural=peak for the most distinct mountains in the district" />
		<tag k="name" v="Lauvåsen" />
		<tag k="natural" v="hill" />
		<tag k="place" v="locality" />
		<tag k="ssr:stedsnr" v="185615" />
	</node>
	<node id="-394959" lat="59.4182972205" lon="5.12967777101">
		<tag k="name" v="Vårskru" />
		<tag k="place" v="islet" />
		<tag k="ssr:stedsnr" v="183649" />
	</node>
	<node id="-394958" lat="59.42913875" lon="5.25899321833">
		<tag k="name" v="Haraldstøtta" />
		<tag k="ssr:stedsnr" v="183626" />
		<tag k="tourism" v="attraction" />
	</node>
	<node id="-394957" lat="59.4368138903" lon="5.3083388953">
		<tag k="name" v="Kattanakk" />
		<tag k="place" v="hamlet" />
		<tag k="ssr:stedsnr" v="183623" />
	</node>
	<node id="-394956" lat="59.4346166697" lon="5.28256389408">
		<tag k="alt_name" v="Uradalsvatnet" />
		<tag k="name" v="Urdadalsvatnet" />
		<tag k="natural" v="water" />
		<tag k="ssr:stedsnr" v="183622" />
	</node>
	<node id="-394955" lat="59.4209165218" lon="5.25619870917">
		<tag k="name" v="Svinholmsundet" />
		<tag k="natural" v="strait" />
		<tag k="ssr:stedsnr" v="180902" />
	</node>
	<node id="-394954" lat="59.403191666" lon="5.33463888729">
		<tag k="bridge" v="yes" />
		<tag k="layer" v="1" />
		<tag k="name" v="Løkjen" />
		<tag k="ssr:stedsnr" v="168281" />
	</node>
	<node id="-394953" lat="59.4124972201" lon="5.25666665917">
		<tag k="man_made" v="quay" />
		<tag k="name" v="Nordre Garpeskjærkai" />
		<tag k="place" v="locality" />
		<tag k="ssr:stedsnr" v="163868" />
	</node>
	<node id="-394952" lat="59.4070694418" lon="5.27309999374">
		<tag k="building" v="commercial" />
		<tag k="name" v="Stoltenberg" />
		<tag k="ssr:stedsnr" v="163843" />
	</node>
	<node id="-394951" lat="59.4116166654" lon="5.2626722245">
		<tag k="name" v="Vestberg" />
		<tag k="place" v="quarter" />
		<tag k="ssr:stedsnr" v="163842" />
	</node>
	<node id="-394949" lat="59.4347277744" lon="5.25450832959">
		<tag k="name" v="Kvala" />
		<tag k="place" v="suburb" />
		<tag k="ssr:stedsnr" v="162770" />
	</node>
	<node id="-394947" lat="59.4815611092" lon="5.23058610967">
		<tag k="name" v="Varden" />
		<tag k="natural" v="hill" />
		<tag k="place" v="locality" />
		<tag k="ssr:stedsnr" v="157046" />
	</node>
	<node id="-394946" lat="59.4147249955" lon="5.33269165896">
		<tag k="name" v="Buene" />
		<tag k="natural" v="slope" />
		<tag k="place" v="locality" />
		<tag k="ssr:stedsnr" v="157042" />
	</node>
	<node id="-394945" lat="59.4451305522" lon="5.34150832604">
		<tag k="name" v="Skårepyttane" />
		<tag k="natural" v="water" />
		<tag k="ssr:stedsnr" v="157005" />
		<tag k="water" v="pond" />
	</node>
	<node id="-394944" lat="59.4122055529" lon="5.29956388052">
		<tag k="fixme" v="consider natural=peak for the most distinct mountains in the district" />
		<tag k="name" v="Vardafjellet" />
		<tag k="natural" v="hill" />
		<tag k="place" v="locality" />
		<tag k="ssr:stedsnr" v="148943" />
	</node>
	<node id="-394943" lat="59.4817277794" lon="5.27638888629">
		<tag k="name" v="Kvednabekken" />
		<tag k="ssr:stedsnr" v="148662" />
		<tag k="waterway" v="stream" />
	</node>
	<node id="-394942" lat="59.4443249986" lon="5.08507778547">
		<tag k="name" v="Seiavågen" />
		<tag k="natural" v="bay" />
		<tag k="ssr:stedsnr" v="148650" />
	</node>
	<node id="-394941" lat="59.4701333351" lon="5.3224388871">
		<tag k="name" v="Dyrsnes" />
		<tag k="natural" v="cape" />
		<tag k="ssr:stedsnr" v="148049" />
	</node>
	<node id="-394940" lat="59.4130388923" lon="5.27933888424">
		<tag k="leisure" v="pitch" />
		<tag k="name" v="Haugesund stadion" />
		<tag k="ssr:stedsnr" v="147890" />
	</node>
	<node id="-394939" lat="59.4238166699" lon="5.08849443612">
		<tag k="name" v="Luseflua" />
		<tag k="natural" v="shoal" />
		<tag k="place" v="locality" />
		<tag k="ssr:stedsnr" v="147882" />
	</node>
	<node id="-394938" lat="59.4236472202" lon="5.23805277564">
		<tag k="name" v="Sørhaugøy" />
		<tag k="place" v="island" />
		<tag k="ssr:stedsnr" v="147843" />
	</node>
	<node id="-394937" lat="59.4506972182" lon="5.23853611515">
		<tag k="name" v="Grunnasund" />
		<tag k="natural" v="strait" />
		<tag k="ssr:stedsnr" v="147840" />
	</node>
	<node id="-394936" lat="59.4406472203" lon="5.23911110536">
		<tag k="name" v="Sjåvik" />
		<tag k="natural" v="bay" />
		<tag k="ssr:stedsnr" v="147821" />
	</node>
	<node id="-394935" lat="59.4188972191" lon="5.25783055313">
		<tag k="alt_name" v="Haugasjøen" />
		<tag k="name" v="Haugesjøen" />
		<tag k="natural" v="strait" />
		<tag k="ssr:stedsnr" v="147769" />
	</node>
	<node id="-394934" lat="59.4835055516" lon="5.39113888845">
		<tag k="name" v="Skarpaneset" />
		<tag k="natural" v="cape" />
		<tag k="ssr:stedsnr" v="147317" />
	</node>
	<node id="-394933" lat="59.4331861071" lon="5.06918333407">
		<tag k="name" v="Torkildsflua" />
		<tag k="natural" v="shoal" />
		<tag k="place" v="locality" />
		<tag k="ssr:stedsnr" v="147108" />
	</node>
	<node id="-394931" lat="59.5004361108" lon="5.22307500794">
		<tag k="name" v="Smørsundneset" />
		<tag k="natural" v="cape" />
		<tag k="ssr:stedsnr" v="146309" />
	</node>
	<node id="-394930" lat="59.44018611" lon="5.21497499385">
		<tag k="name" v="Tueskolten" />
		<tag k="natural" v="shoal" />
		<tag k="place" v="locality" />
		<tag k="ssr:stedsnr" v="146310" />
	</node>
	<node id="-394929" lat="59.4810361144" lon="5.34791944973">
		<tag k="fixme" v="consider natural=peak for the most distinct mountains in the district" />
		<tag k="name" v="Såt" />
		<tag k="natural" v="hill" />
		<tag k="place" v="locality" />
		<tag k="ssr:stedsnr" v="123740" />
	</node>
	<node id="-394928" lat="59.4780243082" lon="5.24683190843">
		<tag k="fixme" v="consider place=hamlet" />
		<tag k="name" v="Bleivik" />
		<tag k="place" v="farm" />
		<tag k="ssr:stedsnr" v="123724" />
	</node>
	<node id="-394927" lat="59.4480111081" lon="5.2805611033">
		<tag k="fixme" v="consider natural=peak for the most distinct mountains in the district" />
		<tag k="name" v="Nuten" />
		<tag k="natural" v="hill" />
		<tag k="place" v="locality" />
		<tag k="ssr:stedsnr" v="122672" />
	</node>
	<node id="-394926" lat="59.4385361144" lon="5.10560556022">
		<tag k="alt_name" v="Ulvøy" />
		<tag k="name" v="Ulvøya" />
		<tag k="place" v="island" />
		<tag k="ssr:stedsnr" v="122660" />
	</node>
	<node id="-394925" lat="59.4470472209" lon="5.34208333755">
		<tag k="alt_name" v="Høgafjellet" />
		<tag k="fixme" v="consider natural=peak for the most distinct mountains in the district" />
		<tag k="name" v="Høgafjell" />
		<tag k="natural" v="hill" />
		<tag k="place" v="locality" />
		<tag k="ssr:stedsnr" v="122657" />
	</node>
	<node id="-394924" lat="59.4448630749" lon="5.27989575642">
		<tag k="fixme" v="consider place=hamlet" />
		<tag k="name" v="Kvala" />
		<tag k="place" v="farm" />
		<tag k="ssr:stedsnr" v="122654" />
	</node>
	<node id="-394923" lat="59.4286805597" lon="5.30313333849">
		<tag k="alt_name" v="Arkjå" />
		<tag k="fixme" v="consider natural=peak for the most distinct mountains in the district" />
		<tag k="name" v="Arka" />
		<tag k="natural" v="hill" />
		<tag k="place" v="locality" />
		<tag k="ssr:stedsnr" v="122641" />
	</node>
	<node id="-394922" lat="59.4194694457" lon="5.26350000096">
		<tag k="alt_name" v="Skåre" />
		<tag k="amenity" v="place_of_worship" />
		<tag k="denomination" v="lutheran" />
		<tag k="name" v="Skåre kirke" />
		<tag k="religion" v="christian" />
		<tag k="ssr:stedsnr" v="122587" />
	</node>
	<node id="-394921" lat="59.4233805524" lon="5.25502223126">
		<tag k="name" v="Haugaklubben" />
		<tag k="natural" v="cape" />
		<tag k="ssr:stedsnr" v="119955" />
	</node>
	<node id="-394920" lat="59.4259" lon="5.25731944697">
		<tag k="name" v="Skreppa" />
		<tag k="natural" v="bay" />
		<tag k="ssr:stedsnr" v="119950" />
	</node>
	<node id="-394919" lat="59.3867666665" lon="5.2955805625">
		<tag k="name" v="Djupastø" />
		<tag k="natural" v="bay" />
		<tag k="ssr:stedsnr" v="118099" />
	</node>
	<node id="-394918" lat="59.3890361121" lon="5.29503055208">
		<tag k="name" v="Sakkastadhaugen" />
		<tag k="natural" v="hill" />
		<tag k="place" v="locality" />
		<tag k="ssr:stedsnr" v="118097" />
	</node>
	<node id="-394917" lat="59.391431627" lon="5.31368997911">
		<tag k="name" v="Niphaug" />
		<tag k="natural" v="hill" />
		<tag k="place" v="locality" />
		<tag k="ssr:stedsnr" v="118092" />
	</node>
	<node id="-394916" lat="59.3935083299" lon="5.31073889731">
		<tag k="name" v="Skuggaberg" />
		<tag k="natural" v="hill" />
		<tag k="place" v="locality" />
		<tag k="ssr:stedsnr" v="118088" />
	</node>
	<node id="-394915" lat="59.4167888884" lon="5.27374166046">
		<tag k="highway" v="bus_stop" />
		<tag k="name" v="Haugesund Rutebilstasjon" />
		<tag k="ssr:stedsnr" v="118071" />
	</node>
	<node id="-394914" lat="59.419097219" lon="5.29560555166">
		<tag k="bridge" v="yes" />
		<tag k="layer" v="1" />
		<tag k="name" v="Djupadalsporten" />
		<tag k="ssr:stedsnr" v="108304" />
	</node>
	<node id="-394913" lat="59.4033750002" lon="5.29723611022">
		<tag k="bridge" v="yes" />
		<tag k="layer" v="1" />
		<tag k="name" v="Fjelltun" />
		<tag k="ssr:stedsnr" v="108302" />
	</node>
	<node id="-394912" lat="59.413438893" lon="5.26291111732">
		<tag k="name" v="Kortaneset" />
		<tag k="natural" v="cape" />
		<tag k="ssr:stedsnr" v="103838" />
	</node>
	<node id="-394910" lat="59.4116861073" lon="5.26749167453">
		<tag k="name" v="Smedasundet" />
		<tag k="natural" v="strait" />
		<tag k="ssr:stedsnr" v="87941" />
	</node>
	<node id="-394909" lat="59.4281722214" lon="5.25971666169">
		<tag k="name" v="Krosshaugen" />
		<tag k="natural" v="hill" />
		<tag k="place" v="locality" />
		<tag k="ssr:stedsnr" v="87865" />
	</node>
	<node id="-394908" lat="59.458497223" lon="5.24709722143">
		<tag k="name" v="Revadalen" />
		<tag k="natural" v="valley" />
		<tag k="place" v="locality" />
		<tag k="ssr:stedsnr" v="87858" />
	</node>
	<node id="-394907" lat="59.4900527748" lon="5.24447222285">
		<tag k="name" v="Kvednavatnet" />
		<tag k="natural" v="water" />
		<tag k="ssr:stedsnr" v="87855" />
		<tag k="water" v="lake" />
	</node>
	<node id="-394906" lat="59.4964000029" lon="5.23937222611">
		<tag k="fixme" v="consider natural=peak for the most distinct mountains in the district" />
		<tag k="name" v="Syllarefjellet" />
		<tag k="natural" v="hill" />
		<tag k="place" v="locality" />
		<tag k="ssr:stedsnr" v="87853" />
	</node>
	<node id="-394905" lat="59.417972218" lon="5.13625000476">
		<tag k="fixme" v="consider seamark:type=rock or natural=shoal" />
		<tag k="name" v="Kapp Horn" />
		<tag k="place" v="islet" />
		<tag k="ssr:stedsnr" v="87771" />
	</node>
	<node id="-394904" lat="59.4752972194" lon="5.29080278015">
		<tag k="name" v="Løkjene" />
		<tag k="natural" v="wetland" />
		<tag k="ssr:stedsnr" v="87606" />
	</node>
	<node id="-394903" lat="59.4715972216" lon="5.31469444149">
		<tag k="name" v="Dyrtjørn" />
		<tag k="natural" v="water" />
		<tag k="ssr:stedsnr" v="87607" />
	</node>
	<node id="-394902" lat="59.4441583338" lon="5.07631944149">
		<tag k="name" v="Kjydleren" />
		<tag k="place" v="islet" />
		<tag k="ssr:stedsnr" v="87600" />
	</node>
	<node id="-394901" lat="59.4274138911" lon="5.27079445073">
		<tag k="amenity" v="nursing_home" />
		<tag k="name" v="Skåreheimen" />
		<tag k="ssr:stedsnr" v="87549" />
	</node>
	<node id="-394900" lat="59.4203284399" lon="5.27013543173">
		<tag k="fixme" v="consider place=hamlet" />
		<tag k="name" v="Haugo" />
		<tag k="place" v="farm" />
		<tag k="ssr:stedsnr" v="87533" />
	</node>
	<node id="-394899" lat="59.4582722237" lon="5.27242778612">
		<tag k="name" v="Sletthammar" />
		<tag k="natural" v="hill" />
		<tag k="place" v="locality" />
		<tag k="ssr:stedsnr" v="87528" />
	</node>
	<node id="-394898" lat="59.4572194423" lon="5.29686944264">
		<tag k="name" v="Slottet" />
		<tag k="place" v="farm" />
		<tag k="ssr:stedsnr" v="87526" />
	</node>
	<node id="-394897" lat="59.457572223" lon="5.28324443741">
		<tag k="alt_name" v="norde Dalshaug" />
		<tag k="name" v="Nordre Dalshaug" />
		<tag k="natural" v="hill" />
		<tag k="place" v="locality" />
		<tag k="ssr:stedsnr" v="87525" />
	</node>
	<node id="-394896" lat="59.45852222" lon="5.26280555784">
		<tag k="name" v="Nesavatnet" />
		<tag k="natural" v="water" />
		<tag k="ssr:stedsnr" v="87519" />
		<tag k="water" v="lake" />
	</node>
	<node id="-394895" lat="59.4355749995" lon="5.06278889393">
		<tag k="alt_name" v="Søre Seleningen" />
		<tag k="name" v="Søre Sileningen" />
		<tag k="place" v="islet" />
		<tag k="ssr:stedsnr" v="87518" />
	</node>
	<node id="-394894" lat="59.444333337" lon="5.28797778242">
		<tag k="name" v="Kleivane" />
		<tag k="natural" v="valley" />
		<tag k="place" v="locality" />
		<tag k="ssr:stedsnr" v="87515" />
	</node>
	<node id="-394893" lat="59.4501111112" lon="5.31857221615">
		<tag k="name" v="Kvala" />
		<tag k="place" v="locality" />
		<tag k="ssr:stedsnr" v="87362" />
	</node>
	<node id="-394892" lat="59.4826638905" lon="5.3775777734">
		<tag k="fixme" v="consider natural=peak for the most distinct mountains in the district" />
		<tag k="name" v="Bruhaugen" />
		<tag k="natural" v="hill" />
		<tag k="place" v="locality" />
		<tag k="ssr:stedsnr" v="87288" />
	</node>
	<node id="-394891" lat="59.4331555554" lon="5.09841667123">
		<tag k="name" v="Hidlerstongjen" />
		<tag k="natural" v="cape" />
		<tag k="ssr:stedsnr" v="87090" />
	</node>
	<node id="-394890" lat="59.4644916663" lon="5.3200055487">
		<tag k="name" v="Eidsfjellmyrane" />
		<tag k="natural" v="wetland" />
		<tag k="ssr:stedsnr" v="87061" />
	</node>
	<node id="-394889" lat="59.4286249963" lon="5.21086944104">
		<tag k="name" v="Indreflua" />
		<tag k="natural" v="shoal" />
		<tag k="place" v="locality" />
		<tag k="ssr:stedsnr" v="86505" />
	</node>
	<node id="-394888" lat="59.5102277742" lon="5.19159167269">
		<tag k="alt_name" v="Ramnsholmane" />
		<tag k="name" v="Ramsholmane" />
		<tag k="place" v="islet" />
		<tag k="ssr:stedsnr" v="64175" />
	</node>
	<node id="-394887" lat="59.4773023967" lon="5.3751201617">
		<tag k="fixme" v="consider place=hamlet" />
		<tag k="name" v="Halseid" />
		<tag k="place" v="farm" />
		<tag k="ssr:stedsnr" v="63704" />
	</node>
	<node id="-394886" lat="59.4758083691" lon="5.24891774399">
		<tag k="fixme" v="consider place=hamlet" />
		<tag k="name" v="Grønhiller" />
		<tag k="place" v="farm" />
		<tag k="ssr:stedsnr" v="63701" />
	</node>
	<node id="-394885" lat="59.4666744817" lon="5.28959205785">
		<tag k="fixme" v="consider place=hamlet" />
		<tag k="name" v="Saltveit" />
		<tag k="place" v="farm" />
		<tag k="ssr:stedsnr" v="63699" />
	</node>
	<node id="-394884" lat="59.4685673175" lon="5.33200237989">
		<tag k="fixme" v="consider place=hamlet" />
		<tag k="name" v="Kalland" />
		<tag k="place" v="farm" />
		<tag k="ssr:stedsnr" v="63697" />
	</node>
	<node id="-394883" lat="59.4725499968" lon="5.22881110418">
		<tag k="name" v="Stølsholmen" />
		<tag k="place" v="islet" />
		<tag k="ssr:stedsnr" v="63695" />
	</node>
	<node id="-394882" lat="59.4575611097" lon="5.1841749962">
		<tag k="name" v="Dettingen" />
		<tag k="natural" v="shoal" />
		<tag k="place" v="locality" />
		<tag k="ssr:stedsnr" v="63673" />
	</node>
	<node id="-394881" lat="59.4326454124" lon="5.07327597242">
		<tag k="alt_name" v="Kråkevågskjeret" />
		<tag k="fixme" v="consider seamark:type=rock or natural=shoal" />
		<tag k="name" v="Kråkvågskjeret" />
		<tag k="place" v="islet" />
		<tag k="ssr:stedsnr" v="63317" />
	</node>
	<node id="-394880" lat="59.4365166693" lon="5.21498056114">
		<tag k="alt_name" v="Redjung" />
		<tag k="fixme" v="consider seamark:type=rock or natural=shoal" />
		<tag k="name" v="Reidungen" />
		<tag k="place" v="islet" />
		<tag k="ssr:stedsnr" v="62683" />
	</node>
	<node id="-394879" lat="59.441203497" lon="5.24516473438">
		<tag k="alt_name" v="Årebrot" />
		<tag k="fixme" v="consider place=hamlet" />
		<tag k="name" v="Årabrot" />
		<tag k="old_name" v="Arabrot" />
		<tag k="place" v="farm" />
		<tag k="ssr:stedsnr" v="62681" />
	</node>
	<node id="-394878" lat="59.4415972203" lon="5.09543055323">
		<tag k="alt_name" v="Ur" />
		<tag k="name" v="Urd" />
		<tag k="place" v="islet" />
		<tag k="ssr:stedsnr" v="62680" />
	</node>
	<node id="-394877" lat="59.4391162324" lon="5.25338785217">
		<tag k="alt_name" v="Torsnes" />
		<tag k="fixme" v="consider place=hamlet" />
		<tag k="name" v="Tornes" />
		<tag k="place" v="farm" />
		<tag k="ssr:stedsnr" v="62675" />
	</node>
	<node id="-394876" lat="59.4478583291" lon="5.30459166211">
		<tag k="name" v="Fjellstad" />
		<tag k="place" v="farm" />
		<tag k="ssr:stedsnr" v="62674" />
	</node>
	<node id="-394875" lat="59.4199805589" lon="5.13985555722">
		<tag k="name" v="Indrevær" />
		<tag k="place" v="island" />
		<tag k="ssr:stedsnr" v="62662" />
	</node>
	<node id="-394874" lat="59.4265133512" lon="5.29875310914">
		<tag k="alt_name" v="Ramsdal" />
		<tag k="name" v="Ramsdalen" />
		<tag k="place" v="farm" />
		<tag k="ssr:stedsnr" v="62659" />
	</node>
	<node id="-394873" lat="59.4336138876" lon="5.19654167428">
		<tag k="alt_name" v="Skåreskage" />
		<tag k="name" v="Skåreskaget" />
		<tag k="place" v="islet" />
		<tag k="ssr:stedsnr" v="62646" />
	</node>
	<node id="-394872" lat="59.4114972187" lon="5.3491500009">
		<tag k="name" v="Toskatjørn" />
		<tag k="natural" v="water" />
		<tag k="ssr:stedsnr" v="62614" />
	</node>
	<node id="-394871" lat="59.3893444448" lon="5.29862777924">
		<tag k="name" v="Holane" />
		<tag k="place" v="isolated_dwelling" />
		<tag k="ssr:stedsnr" v="57096" />
	</node>
	<node id="-394870" lat="59.3994722249" lon="5.32330000417">
		<tag k="name" v="Brakahaug" />
		<tag k="place" v="quarter" />
		<tag k="ssr:stedsnr" v="55138" />
	</node>
	<node id="-394869" lat="59.4811833353" lon="5.2891499952">
		<tag k="bridge" v="yes" />
		<tag k="layer" v="1" />
		<tag k="name" v="Viksevatn" />
		<tag k="ssr:stedsnr" v="47294" />
	</node>
	<node id="-394868" lat="59.4039326321" lon="5.27548544457">
		<tag k="alt_name" v="Østre Storasundflua" />
		<tag k="name" v="Austra Storasundflua" />
		<tag k="place" v="locality" />
		<tag k="seamark:type" v="rock" />
		<tag k="ssr:stedsnr" v="42812" />
	</node>
	<node id="-394867" lat="59.4169222195" lon="5.24674166421">
		<tag k="name" v="Løvågen" />
		<tag k="natural" v="bay" />
		<tag k="ssr:stedsnr" v="42806" />
	</node>
	<node id="-394866" lat="59.3964611089" lon="5.32998888374">
		<tag k="layer" v="-1" />
		<tag k="name" v="Skjenhaugundergangen" />
		<tag k="ssr:stedsnr" v="40011" />
		<tag k="tunnel" v="yes" />
	</node>
	<node id="-394865" lat="59.4475444401" lon="5.23911110987">
		<tag k="name" v="Høgeholmen" />
		<tag k="place" v="islet" />
		<tag k="ssr:stedsnr" v="27877" />
	</node>
	<node id="-394864" lat="59.4426472181" lon="5.23910834032">
		<tag k="fixme" v="consider seamark:type=rock or natural=shoal" />
		<tag k="name" v="Rauaskjer" />
		<tag k="place" v="islet" />
		<tag k="ssr:stedsnr" v="27852" />
	</node>
	<node id="-394863" lat="59.4922333302" lon="5.26684722188">
		<tag k="name" v="Nesatuå" />
		<tag k="natural" v="hill" />
		<tag k="place" v="locality" />
		<tag k="ssr:stedsnr" v="27641" />
	</node>
	<node id="-394862" lat="59.4871138857" lon="5.26792222728">
		<tag k="name" v="Haglandsholmen" />
		<tag k="place" v="islet" />
		<tag k="ssr:stedsnr" v="27638" />
	</node>
	<node id="-394861" lat="59.4443888876" lon="5.09024721412">
		<tag k="name" v="Nipsholmfle" />
		<tag k="natural" v="bay" />
		<tag k="ssr:stedsnr" v="27634" />
	</node>
	<node id="-394860" lat="59.4397749964" lon="5.07358611329">
		<tag k="name" v="Ravnareilet" />
		<tag k="natural" v="bay" />
		<tag k="ssr:stedsnr" v="27557" />
	</node>
	<node id="-394859" lat="59.4166083297" lon="5.13884166716">
		<tag k="alt_name" v="Julabåen" />
		<tag k="fixme" v="consider seamark:type=rock or natural=shoal" />
		<tag k="name" v="Julaboane" />
		<tag k="place" v="islet" />
		<tag k="ssr:stedsnr" v="27781" />
	</node>
	<node id="-394858" lat="59.4260805525" lon="5.09140555772">
		<tag k="name" v="Fugleholmane" />
		<tag k="place" v="islet" />
		<tag k="ssr:stedsnr" v="27550" />
	</node>
	<node id="-394857" lat="59.4267749998" lon="5.12880278325">
		<tag k="name" v="Midt-Glåpen" />
		<tag k="place" v="islet" />
		<tag k="ssr:stedsnr" v="27088" />
	</node>
	<node id="-394856" lat="59.4451888917" lon="5.09358889159">
		<tag k="name" v="Austra Nipsholmsundet" />
		<tag k="natural" v="strait" />
		<tag k="ssr:stedsnr" v="27082" />
	</node>
	<node id="-394855" lat="59.4428916669" lon="5.09870277113">
		<tag k="name" v="Lusakloven" />
		<tag k="natural" v="bay" />
		<tag k="ssr:stedsnr" v="27076" />
	</node>
	<node id="-394854" lat="59.4800722221" lon="5.36614166234">
		<tag k="name" v="Ørehaugen" />
		<tag k="natural" v="hill" />
		<tag k="place" v="locality" />
		<tag k="ssr:stedsnr" v="27045" />
	</node>
	<node id="-394853" lat="59.4172750012" lon="5.26449722553">
		<tag k="leisure" v="park" />
		<tag k="name" v="Byparken" />
		<tag k="ssr:stedsnr" v="26951" />
	</node>
	<node id="-394852" lat="59.491719441" lon="5.2338527742">
		<tag k="name" v="Kvitabergsmyr" />
		<tag k="natural" v="wetland" />
		<tag k="ssr:stedsnr" v="26871" />
	</node>
	<node id="-394851" lat="59.4999500014" lon="5.23183055916">
		<tag k="name" v="Ospemyr" />
		<tag k="natural" v="wetland" />
		<tag k="ssr:stedsnr" v="26869" />
	</node>
	<node id="-394850" lat="59.5011055533" lon="5.24347222559">
		<tag k="name" v="Ellingsmyr" />
		<tag k="natural" v="wetland" />
		<tag k="ssr:stedsnr" v="26860" />
	</node>
	<node id="-394849" lat="59.4330944471" lon="5.2392861039">
		<tag k="name" v="Kvalen" />
		<tag k="natural" v="cape" />
		<tag k="ssr:stedsnr" v="26819" />
	</node>
	<node id="-394848" lat="59.4460027793" lon="5.24407778549">
		<tag k="name" v="Joå" />
		<tag k="natural" v="bay" />
		<tag k="ssr:stedsnr" v="26818" />
	</node>
	<node id="-394847" lat="59.4108194422" lon="5.25866944545">
		<tag k="man_made" v="quay" />
		<tag k="name" v="Garpeskjærkaien" />
		<tag k="place" v="locality" />
		<tag k="ssr:stedsnr" v="26753" />
	</node>
	<node id="-394846" lat="59.4740583344" lon="5.3791611117">
		<tag k="name" v="Butrevika" />
		<tag k="natural" v="bay" />
		<tag k="ssr:stedsnr" v="26317" />
	</node>
	<node id="-394845" lat="59.4393833366" lon="5.05435834087">
		<tag k="name" v="Søra Brokeflua" />
		<tag k="natural" v="shoal" />
		<tag k="place" v="locality" />
		<tag k="ssr:stedsnr" v="26112" />
	</node>
	<node id="-394844" lat="59.4439444446" lon="5.21584444224">
		<tag k="name" v="Nordre Skolten" />
		<tag k="natural" v="shoal" />
		<tag k="place" v="locality" />
		<tag k="ssr:stedsnr" v="25351" />
	</node>
	<node id="-394843" lat="59.4833722234" lon="5.25595277457">
		<tag k="fixme" v="consider natural=peak for the most distinct mountains in the district" />
		<tag k="name" v="Bergafjellet" />
		<tag k="natural" v="hill" />
		<tag k="place" v="locality" />
		<tag k="ssr:stedsnr" v="2697" />
	</node>
	<node id="-394841" lat="59.4449638909" lon="5.09505554962">
		<tag k="alt_name" v="Hollkoppe" />
		<tag k="name" v="Holkopp" />
		<tag k="natural" v="cape" />
		<tag k="ssr:stedsnr" v="2673" />
	</node>
	<node id="-394839" lat="59.4278249966" lon="5.27882500746">
		<tag k="alt_name" v="norda Skeisvatnet" />
		<tag k="name" v="Skeisvatnet" />
		<tag k="natural" v="water" />
		<tag k="ssr:stedsnr" v="1657" />
	</node>
	<node id="-394838" lat="59.4191297093" lon="5.28338810232">
		<tag k="fixme" v="consider place=hamlet" />
		<tag k="name" v="Grønhaug" />
		<tag k="place" v="farm" />
		<tag k="ssr:stedsnr" v="1605" />
	</node>
	<node id="-394837" lat="59.5065194478" lon="5.22331389225">
		<tag k="name" v="Smørsundboen" />
		<tag k="natural" v="shoal" />
		<tag k="place" v="locality" />
		<tag k="ssr:stedsnr" v="267279" />
	</node>
	<node id="-394824" lat="59.4147044704" lon="5.24810639196">
		<tag k="fixme" v="consider place=hamlet" />
		<tag k="name" v="Vibrandsøya" />
		<tag k="place" v="farm" />
		<tag k="ssr:stedsnr" v="990931" />
	</node>
	<node id="-394823" lat="59.4957222208" lon="5.26166389763">
		<tag k="name" v="Vikasjøen" />
		<tag k="natural" v="bay" />
		<tag k="ssr:stedsnr" v="632720" />
	</node>
	<node id="-394822" lat="59.439824998" lon="5.27839166206">
		<tag k="bridge" v="yes" />
		<tag k="layer" v="1" />
		<tag k="name" v="Austrheim" />
		<tag k="ssr:stedsnr" v="897301" />
	</node>
	<node id="-394821" lat="59.4709555549" lon="5.29083333228">
		<tag k="bridge" v="yes" />
		<tag k="layer" v="1" />
		<tag k="name" v="Saltveit" />
		<tag k="ssr:stedsnr" v="897278" />
	</node>
	<node id="-394820" lat="59.4374916632" lon="5.27045555651">
		<tag k="bridge" v="yes" />
		<tag k="layer" v="1" />
		<tag k="name" v="Kvalaelva" />
		<tag k="ssr:stedsnr" v="897274" />
	</node>
	<node id="-394819" lat="59.4101027762" lon="5.26001666387">
		<tag k="man_made" v="quay" />
		<tag k="name" v="Søra Garpeskjærkai" />
		<tag k="place" v="locality" />
		<tag k="ssr:stedsnr" v="892828" />
	</node>
	<node id="-394818" lat="59.4310694438" lon="5.29615000409">
		<tag k="name" v="Slettebrekka" />
		<tag k="natural" v="slope" />
		<tag k="place" v="locality" />
		<tag k="ssr:stedsnr" v="885015" />
	</node>
	<node id="-394817" lat="59.4316527764" lon="5.06094166359">
		<tag k="name" v="Vestra Sileningsflua" />
		<tag k="natural" v="shoal" />
		<tag k="place" v="locality" />
		<tag k="ssr:stedsnr" v="269902" />
	</node>
	<node id="-394816" lat="59.4093638852" lon="5.33941110591">
		<tag k="bridge" v="yes" />
		<tag k="layer" v="1" />
		<tag k="name" v="Høye" />
		<tag k="ssr:stedsnr" v="411270" />
	</node>
	<node id="-394814" lat="59.4179749992" lon="5.25151111955">
		<tag k="name" v="Hansavågen" />
		<tag k="natural" v="bay" />
		<tag k="ssr:stedsnr" v="406847" />
	</node>
	<node id="-394813" lat="59.4199305537" lon="5.25607500513">
		<tag k="name" v="Svinholmen" />
		<tag k="place" v="islet" />
		<tag k="ssr:stedsnr" v="406846" />
	</node>
	<node id="-394812" lat="59.4316416695" lon="5.25098334101">
		<tag k="name" v="Bussevik" />
		<tag k="natural" v="bay" />
		<tag k="ssr:stedsnr" v="405783" />
	</node>
	<node id="-394811" lat="59.4332750008" lon="5.3129833325">
		<tag k="name" v="Klump" />
		<tag k="natural" v="hill" />
		<tag k="place" v="locality" />
		<tag k="ssr:stedsnr" v="399049" />
	</node>
	<node id="-394810" lat="59.4647277762" lon="5.3347972285">
		<tag k="name" v="Leitene" />
		<tag k="natural" v="hill" />
		<tag k="place" v="locality" />
		<tag k="ssr:stedsnr" v="399042" />
	</node>
	<node id="-394809" lat="59.4355694458" lon="5.31552221721">
		<tag k="name" v="Åsestølen" />
		<tag k="natural" v="hill" />
		<tag k="place" v="locality" />
		<tag k="ssr:stedsnr" v="399006" />
	</node>
	<node id="-394808" lat="59.438258338" lon="5.27018611585">
		<tag k="amenity" v="place_of_worship" />
		<tag k="denomination" v="lutheran" />
		<tag k="name" v="Udland kirke" />
		<tag k="religion" v="christian" />
		<tag k="ssr:stedsnr" v="393856" />
	</node>
	<node id="-394807" lat="59.4035500016" lon="5.31354166478">
		<tag k="fixme" v="consider natural=peak for the most distinct mountains in the district" />
		<tag k="name" v="Lysskarfjellet" />
		<tag k="natural" v="hill" />
		<tag k="place" v="locality" />
		<tag k="ssr:stedsnr" v="391918" />
	</node>
	<node id="-394806" lat="59.4913555526" lon="5.25553610656">
		<tag k="name" v="Løkjen" />
		<tag k="natural" v="wetland" />
		<tag k="ssr:stedsnr" v="391891" />
	</node>
	<node id="-394805" lat="59.4383361067" lon="5.12350277873">
		<tag k="name" v="Gitterøyskallen" />
		<tag k="natural" v="shoal" />
		<tag k="place" v="locality" />
		<tag k="ssr:stedsnr" v="390893" />
	</node>
	<node id="-394804" lat="59.4300027787" lon="5.0885222285">
		<tag k="name" v="Kåretåsundet" />
		<tag k="natural" v="strait" />
		<tag k="ssr:stedsnr" v="390886" />
	</node>
	<node id="-394803" lat="59.4643999994" lon="5.25112777072">
		<tag k="name" v="Bjørkhaug" />
		<tag k="natural" v="hill" />
		<tag k="place" v="locality" />
		<tag k="ssr:stedsnr" v="390882" />
	</node>
	<node id="-394802" lat="59.4344638894" lon="5.23827500022">
		<tag k="alt_name" v="norde Kvalen" />
		<tag k="name" v="Nordre Kvalen" />
		<tag k="natural" v="cape" />
		<tag k="ssr:stedsnr" v="390858" />
	</node>
	<node id="-394801" lat="59.4388555568" lon="5.24038611338">
		<tag k="name" v="Årabrotsvågen" />
		<tag k="natural" v="bay" />
		<tag k="ssr:stedsnr" v="390859" />
	</node>
	<node id="-394800" lat="59.450549997" lon="5.26016943641">
		<tag k="fixme" v="consider natural=peak for the most distinct mountains in the district" />
		<tag k="name" v="Raunefjell" />
		<tag k="natural" v="hill" />
		<tag k="place" v="locality" />
		<tag k="ssr:stedsnr" v="390849" />
	</node>
	<node id="-394799" lat="59.4185000044" lon="5.24490277547">
		<tag k="alt_name" v="Varøy" />
		<tag k="name" v="Vardøya" />
		<tag k="place" v="island" />
		<tag k="ssr:stedsnr" v="390781" />
	</node>
	<node id="-394798" lat="59.491106276" lon="5.26532802168">
		<tag k="alt_name" v="Hagland litle;Østre Hagland" />
		<tag k="fixme" v="consider place=hamlet" />
		<tag k="name" v="Litle Hagland" />
		<tag k="place" v="farm" />
		<tag k="ssr:stedsnr" v="390575" />
	</node>
	<node id="-394797" lat="59.4426611066" lon="5.09195277251">
		<tag k="name" v="Mjørsund" />
		<tag k="natural" v="strait" />
		<tag k="ssr:stedsnr" v="390565" />
	</node>
	<node id="-394796" lat="59.4290499979" lon="5.29513610584">
		<tag k="name" v="Geitaklubben" />
		<tag k="natural" v="hill" />
		<tag k="place" v="locality" />
		<tag k="ssr:stedsnr" v="390507" />
	</node>
	<node id="-394795" lat="59.4473194485" lon="5.31531943642">
		<tag k="name" v="Litlestemtjørn" />
		<tag k="natural" v="water" />
		<tag k="ssr:stedsnr" v="390488" />
	</node>
	<node id="-394794" lat="59.4346833299" lon="5.0828194519">
		<tag k="name" v="Kvalbeintjørn" />
		<tag k="natural" v="water" />
		<tag k="ssr:stedsnr" v="390487" />
	</node>
	<node id="-394793" lat="59.4348416634" lon="5.09147777394">
		<tag k="name" v="Uttavågen" />
		<tag k="natural" v="bay" />
		<tag k="ssr:stedsnr" v="390485" />
	</node>
	<node id="-394792" lat="59.4510083302" lon="5.06614722144">
		<tag k="name" v="Holmasundet" />
		<tag k="natural" v="strait" />
		<tag k="ssr:stedsnr" v="390479" />
	</node>
	<node id="-394791" lat="59.4872472216" lon="5.36252222281">
		<tag k="name" v="Skogaskar" />
		<tag k="natural" v="valley" />
		<tag k="place" v="locality" />
		<tag k="ssr:stedsnr" v="390083" />
	</node>
	<node id="-394790" lat="59.4899916641" lon="5.36506111498">
		<tag k="name" v="Ormhaugen" />
		<tag k="natural" v="hill" />
		<tag k="place" v="locality" />
		<tag k="ssr:stedsnr" v="390081" />
	</node>
	<node id="-394789" lat="59.4596166641" lon="5.36320277025">
		<tag k="name" v="Kvernavatnet" />
		<tag k="natural" v="water" />
		<tag k="ssr:stedsnr" v="367597" />
	</node>
	<node id="-394788" lat="59.4789749982" lon="5.06682222924">
		<tag k="name" v="Sletta" />
		<tag k="place" v="sea" />
		<tag k="ssr:stedsnr" v="366289" />
	</node>
	<node id="-394787" lat="59.4424750024" lon="5.33640000573">
		<tag k="name" v="Bårdshaugvatna" />
		<tag k="natural" v="water" />
		<tag k="ssr:stedsnr" v="365685" />
	</node>
	<node id="-394786" lat="59.425983333" lon="5.10708889293">
		<tag k="name" v="Røværsosen" />
		<tag k="natural" v="strait" />
		<tag k="ssr:stedsnr" v="365663" />
	</node>
	<node id="-394785" lat="59.4272561274" lon="5.2654499069">
		<tag k="fixme" v="consider place=hamlet" />
		<tag k="name" v="Gard" />
		<tag k="place" v="farm" />
		<tag k="ssr:stedsnr" v="365659" />
	</node>
	<node id="-394784" lat="59.4303340091" lon="5.12573206542">
		<tag k="alt_name" v="Glåpasundet" />
		<tag k="name" v="Gloppasundet" />
		<tag k="natural" v="strait" />
		<tag k="ssr:stedsnr" v="365653" />
	</node>
	<node id="-394783" lat="59.4104638926" lon="5.31401110317">
		<tag k="name" v="Gåsavatnet" />
		<tag k="natural" v="water" />
		<tag k="ssr:stedsnr" v="365626" />
	</node>
	<node id="-394782" lat="59.4201555554" lon="5.33493055403">
		<tag k="name" v="Kringsjå" />
		<tag k="place" v="isolated_dwelling" />
		<tag k="ssr:stedsnr" v="365613" />
	</node>
	<node id="-394780" lat="59.4062944407" lon="5.2764638891">
		<tag k="building" v="civic" />
		<tag k="name" v="Haugesund politistasjon" />
		<tag k="ssr:stedsnr" v="362909" />
	</node>
	<node id="-394779" lat="59.4024305524" lon="5.28845554841">
		<tag k="name" v="Kyrkjeberget" />
		<tag k="place" v="locality" />
		<tag k="ssr:stedsnr" v="360067" />
	</node>
	<node id="-394778" lat="59.4003222255" lon="5.2873111103">
		<tag k="name" v="Havåsen" />
		<tag k="natural" v="hill" />
		<tag k="place" v="locality" />
		<tag k="ssr:stedsnr" v="360062" />
	</node>
	<node id="-394777" lat="59.4047861153" lon="5.33551111235">
		<tag k="bridge" v="yes" />
		<tag k="layer" v="1" />
		<tag k="name" v="Ørpetveit" />
		<tag k="ssr:stedsnr" v="350251" />
	</node>
	<node id="-394776" lat="59.4164638896" lon="5.27258889126">
		<tag k="bridge" v="yes" />
		<tag k="layer" v="1" />
		<tag k="name" v="Skjoldavegen" />
		<tag k="ssr:stedsnr" v="350250" />
	</node>
	<node id="-394775" lat="59.4052222208" lon="5.27004166441">
		<tag k="name" v="Risøyvågen" />
		<tag k="natural" v="bay" />
		<tag k="ssr:stedsnr" v="345852" />
	</node>
	<node id="-394774" lat="59.4343277777" lon="5.23844165852">
		<tag k="name" v="Vesteneset" />
		<tag k="natural" v="cape" />
		<tag k="ssr:stedsnr" v="344774" />
	</node>
	<node id="-394773" lat="59.4510472258" lon="5.34975833972">
		<tag k="name" v="Utboredalen" />
		<tag k="natural" v="valley" />
		<tag k="place" v="locality" />
		<tag k="ssr:stedsnr" v="339006" />
	</node>
	<node id="-394772" lat="59.4225638891" lon="5.25288888957">
		<tag k="man_made" v="quay" />
		<tag k="name" v="Svarteskjeret" />
		<tag k="place" v="locality" />
		<tag k="ssr:stedsnr" v="119924" />
	</node>
	<node id="-394771" lat="59.4061860911" lon="5.29255196325">
		<tag k="fixme" v="consider place=hamlet" />
		<tag k="name" v="Storasund" />
		<tag k="place" v="farm" />
		<tag k="ssr:stedsnr" v="330950" />
	</node>
	<node id="-394770" lat="59.4209175841" lon="5.32466305261">
		<tag k="fixme" v="consider place=hamlet" />
		<tag k="name" v="Tømmerdal" />
		<tag k="place" v="farm" />
		<tag k="ssr:stedsnr" v="330715" />
	</node>
	<node id="-394769" lat="59.464936108" lon="5.26292221951">
		<tag k="name" v="Breiavatnet" />
		<tag k="natural" v="water" />
		<tag k="ssr:stedsnr" v="330662" />
		<tag k="water" v="lake" />
	</node>
	<node id="-394768" lat="59.4466750023" lon="5.08260555949">
		<tag k="name" v="Vestra Varavik" />
		<tag k="natural" v="bay" />
		<tag k="ssr:stedsnr" v="330661" />
	</node>
	<node id="-394767" lat="59.465086109" lon="5.29110277297">
		<tag k="alt_name" v="Saltveit" />
		<tag k="name" v="Nordre Saltveit" />
		<tag k="place" v="farm" />
		<tag k="ssr:stedsnr" v="330659" />
	</node>
	<node id="-394766" lat="59.4379833303" lon="5.33868610321">
		<tag k="name" v="Raudtjørn" />
		<tag k="natural" v="water" />
		<tag k="ssr:stedsnr" v="330648" />
	</node>
	<node id="-394765" lat="59.4627300802" lon="5.34930449714">
		<tag k="alt_name" v="norde Lauvåsen" />
		<tag k="fixme" v="consider natural=peak for the most distinct mountains in the district" />
		<tag k="name" v="Nordre Lauvåsen" />
		<tag k="natural" v="hill" />
		<tag k="place" v="locality" />
		<tag k="ssr:stedsnr" v="330571" />
	</node>
	<node id="-394764" lat="59.4316666709" lon="5.08039166899">
		<tag k="name" v="Buholmsundet" />
		<tag k="natural" v="strait" />
		<tag k="ssr:stedsnr" v="330562" />
	</node>
	<node id="-394763" lat="59.4433527739" lon="5.09540555333">
		<tag k="name" v="Hollkoppevik" />
		<tag k="natural" v="bay" />
		<tag k="ssr:stedsnr" v="330115" />
	</node>
	<node id="-394762" lat="59.5018749986" lon="5.23253889478">
		<tag k="name" v="Smørsundsdalen" />
		<tag k="natural" v="valley" />
		<tag k="place" v="locality" />
		<tag k="ssr:stedsnr" v="329885" />
	</node>
	<node id="-394761" lat="59.5047138852" lon="5.23158333596">
		<tag k="name" v="Midtsundet" />
		<tag k="natural" v="strait" />
		<tag k="ssr:stedsnr" v="329884" />
	</node>
	<node id="-394759" lat="59.4800500005" lon="5.25860833331">
		<tag k="name" v="Kyrkjedalsmyr" />
		<tag k="natural" v="wetland" />
		<tag k="ssr:stedsnr" v="329878" />
	</node>
	<node id="-394758" lat="59.40137222" lon="5.27541667272">
		<tag k="fixme" v="consider seamark:type=rock or natural=shoal" />
		<tag k="name" v="Storasundskjer" />
		<tag k="place" v="islet" />
		<tag k="ssr:stedsnr" v="329852" />
	</node>
	<node id="-394757" lat="59.4225444427" lon="5.24805555169">
		<tag k="name" v="Killingøy" />
		<tag k="place" v="island" />
		<tag k="ssr:stedsnr" v="329845" />
	</node>
	<node id="-394756" lat="59.4554833354" lon="5.25578056255">
		<tag k="alt_name" v="norde Asparhaug" />
		<tag k="name" v="Nordre Asparhaug" />
		<tag k="natural" v="hill" />
		<tag k="place" v="locality" />
		<tag k="ssr:stedsnr" v="329833" />
	</node>
	<node id="-394755" lat="59.4875416676" lon="5.2420111191">
		<tag k="name" v="Rennevatnet" />
		<tag k="natural" v="water" />
		<tag k="ssr:stedsnr" v="329824" />
		<tag k="water" v="lake" />
	</node>
	<node id="-394754" lat="59.4137027799" lon="5.24471666038">
		<tag k="name" v="Trollholmen" />
		<tag k="place" v="islet" />
		<tag k="ssr:stedsnr" v="329759" />
	</node>
	<node id="-394753" lat="59.4135722246" lon="5.25947499923">
		<tag k="name" v="Krossen" />
		<tag k="natural" v="strait" />
		<tag k="ssr:stedsnr" v="329755" />
	</node>
	<node id="-394752" lat="59.4778000026" lon="5.37931943952">
		<tag k="name" v="Kunes" />
		<tag k="natural" v="cape" />
		<tag k="ssr:stedsnr" v="329301" />
	</node>
	<node id="-394751" lat="59.4790472216" lon="5.38157499176">
		<tag k="name" v="Tømmervik" />
		<tag k="natural" v="bay" />
		<tag k="ssr:stedsnr" v="329299" />
	</node>
	<node id="-394750" lat="59.4426361139" lon="5.05756389381">
		<tag k="fixme" v="consider seamark:type=rock or natural=shoal" />
		<tag k="name" v="Broka" />
		<tag k="place" v="islet" />
		<tag k="ssr:stedsnr" v="329115" />
	</node>
	<node id="-394749" lat="59.4630083309" lon="5.18154723021">
		<tag k="name" v="Steinen" />
		<tag k="natural" v="shoal" />
		<tag k="place" v="locality" />
		<tag k="ssr:stedsnr" v="328302" />
	</node>
	<node id="-394748" lat="59.4777249979" lon="5.32421944351">
		<tag k="alt_name" v="Holmalidvatnet" />
		<tag k="name" v="Holmalivatnet" />
		<tag k="natural" v="water" />
		<tag k="ssr:stedsnr" v="306685" />
		<tag k="water" v="lake" />
	</node>
	<node id="-394747" lat="59.4639444425" lon="5.26897500409">
		<tag k="name" v="Førlandsvatnet" />
		<tag k="natural" v="water" />
		<tag k="ssr:stedsnr" v="306673" />
	</node>
	<node id="-394746" lat="59.4879438668" lon="5.25457091268">
		<tag k="name" v="Hagland" />
		<tag k="place" v="hamlet" />
		<tag k="ssr:stedsnr" v="306672" />
	</node>
	<node id="-394745" lat="59.4969444461" lon="5.25432777463">
		<tag k="name" v="Straumsnes" />
		<tag k="place" v="isolated_dwelling" />
		<tag k="ssr:stedsnr" v="305741" />
	</node>
	<node id="-394744" lat="59.4513444483" lon="5.25656111311">
		<tag k="alt_name" v="Torevaren" />
		<tag k="name" v="Torevarden" />
		<tag k="natural" v="hill" />
		<tag k="place" v="locality" />
		<tag k="ssr:stedsnr" v="305707" />
	</node>
	<node id="-394743" lat="59.4249361111" lon="5.23731389101">
		<tag k="name" v="Tonjer" />
		<tag k="place" v="islet" />
		<tag k="ssr:stedsnr" v="305681" />
	</node>
	<node id="-394742" lat="59.4218777785" lon="5.32878889367">
		<tag k="fixme" v="consider natural=peak for the most distinct mountains in the district" />
		<tag k="name" v="Steinsfjellet" />
		<tag k="natural" v="hill" />
		<tag k="place" v="locality" />
		<tag k="ssr:stedsnr" v="305679" />
	</node>
	<node id="-394741" lat="59.4308655409" lon="5.25326995516">
		<tag k="fixme" v="consider place=hamlet" />
		<tag k="name" v="Veste" />
		<tag k="place" v="farm" />
		<tag k="ssr:stedsnr" v="305672" />
	</node>
	<node id="-394740" lat="59.4302361114" lon="5.08071110591">
		<tag k="name" v="Buholmen" />
		<tag k="place" v="islet" />
		<tag k="ssr:stedsnr" v="305306" />
	</node>
	<node id="-394739" lat="59.4182777801" lon="5.29449444787">
		<tag k="name" v="Bellevue" />
		<tag k="natural" v="hill" />
		<tag k="place" v="locality" />
		<tag k="ssr:stedsnr" v="301934" />
	</node>
	<node id="-394738" lat="59.385991669" lon="5.29740834127">
		<tag k="name" v="Sakkastøvik" />
		<tag k="natural" v="bay" />
		<tag k="ssr:stedsnr" v="300107" />
	</node>
	<node id="-394737" lat="59.3939333295" lon="5.2836055579">
		<tag k="name" v="Hansastø" />
		<tag k="natural" v="bay" />
		<tag k="ssr:stedsnr" v="300097" />
	</node>
	<node id="-394736" lat="59.404291671" lon="5.28627499624">
		<tag k="name" v="Litlasund" />
		<tag k="place" v="quarter" />
		<tag k="ssr:stedsnr" v="300090" />
	</node>
	<node id="-394735" lat="59.4028583357" lon="5.29690554959">
		<tag k="name" v="Hestmyr" />
		<tag k="place" v="locality" />
		<tag k="ssr:stedsnr" v="300089" />
	</node>
	<node id="-394734" lat="59.4172305578" lon="5.2720833272">
		<tag k="bridge" v="yes" />
		<tag k="layer" v="1" />
		<tag k="name" v="Tuhauggate" />
		<tag k="ssr:stedsnr" v="290278" />
	</node>
	<node id="-394733" lat="59.4797527792" lon="5.37670277899">
		<tag k="bridge" v="yes" />
		<tag k="layer" v="1" />
		<tag k="name" v="Halseid" />
		<tag k="ssr:stedsnr" v="290270" />
	</node>
	<node id="-394732" lat="59.4177055547" lon="5.25804999386">
		<tag k="leisure" v="marina" />
		<tag k="name" v="Hasseløy småbåthavn" />
		<tag k="ssr:stedsnr" v="285838" />
	</node>
	<node id="-394730" lat="59.4139027807" lon="5.35479444443">
		<tag k="name" v="Litla Floget" />
		<tag k="natural" v="hill" />
		<tag k="place" v="locality" />
		<tag k="ssr:stedsnr" v="278058" />
	</node>
	<node id="-394729" lat="59.4463638874" lon="5.28949722789">
		<tag k="name" v="Karikovane" />
		<tag k="place" v="locality" />
		<tag k="ssr:stedsnr" v="278056" />
	</node>
	<node id="-394728" lat="59.4342611109" lon="5.30975277939">
		<tag k="name" v="Svartaberg" />
		<tag k="natural" v="hill" />
		<tag k="place" v="locality" />
		<tag k="ssr:stedsnr" v="278015" />
	</node>
	<node id="-394727" lat="59.4082472177" lon="5.32464166389">
		<tag k="fixme" v="consider natural=peak for the most distinct mountains in the district" />
		<tag k="name" v="Eikjehammar" />
		<tag k="natural" v="hill" />
		<tag k="place" v="locality" />
		<tag k="ssr:stedsnr" v="269996" />
	</node>
	<node id="-394726" lat="59.3944166709" lon="5.28789444678">
		<tag k="cemetery" v="grave" />
		<tag k="name" v="Vår Frelsers gravlund" />
		<tag k="place" v="locality" />
		<tag k="ssr:stedsnr" v="269976" />
	</node>
	<node id="-394725" lat="59.3900583304" lon="5.29507222134">
		<tag k="name" v="Isdammen" />
		<tag k="natural" v="water" />
		<tag k="ssr:stedsnr" v="269975" />
	</node>
	<node id="-394724" lat="59.4884638843" lon="5.22485554748">
		<tag k="alt_name" v="Breidbukta" />
		<tag k="name" v="Breibukta" />
		<tag k="natural" v="bay" />
		<tag k="ssr:stedsnr" v="269898" />
	</node>
	<node id="-394723" lat="59.4126999961" lon="5.31906943959">
		<tag k="name" v="Tømmerdal" />
		<tag k="place" v="farm" />
		<tag k="ssr:stedsnr" v="269679" />
	</node>
	<node id="-394722" lat="59.4829083332" lon="5.26780834126">
		<tag k="name" v="Lintjørn" />
		<tag k="natural" v="water" />
		<tag k="ssr:stedsnr" v="269637" />
	</node>
	<node id="-394721" lat="59.4798916668" lon="5.2736944399">
		<tag k="name" v="Toratjørn" />
		<tag k="natural" v="water" />
		<tag k="ssr:stedsnr" v="269632" />
	</node>
	<node id="-394720" lat="59.4449638911" lon="5.08206944729">
		<tag k="name" v="Gannvik" />
		<tag k="natural" v="bay" />
		<tag k="ssr:stedsnr" v="269621" />
	</node>
	<node id="-394719" lat="59.4934083355" lon="5.2690388961">
		<tag k="name" v="Roaldsneset" />
		<tag k="natural" v="cape" />
		<tag k="ssr:stedsnr" v="269622" />
	</node>
	<node id="-394718" lat="59.4241666651" lon="5.27962777143">
		<tag k="leisure" v="pitch" />
		<tag k="name" v="Haraldshallen" />
		<tag k="ssr:stedsnr" v="269546" />
	</node>
	<node id="-394717" lat="59.4588138887" lon="5.35101388231">
		<tag k="name" v="Liggvarmyr" />
		<tag k="natural" v="wetland" />
		<tag k="ssr:stedsnr" v="269538" />
	</node>
	<node id="-394716" lat="59.4402000039" lon="5.08336111934">
		<tag k="alt_name" v="Brøvaren;Varden" />
		<tag k="name" v="Brødvarden" />
		<tag k="natural" v="hill" />
		<tag k="place" v="locality" />
		<tag k="ssr:stedsnr" v="269527" />
	</node>
	<node id="-394715" lat="59.3925777803" lon="5.33119721364">
		<tag k="name" v="Legehaug" />
		<tag k="natural" v="hill" />
		<tag k="place" v="locality" />
		<tag k="ssr:stedsnr" v="269522" />
	</node>
	<node id="-394714" lat="59.4308611119" lon="5.08447499193">
		<tag k="name" v="Buaneset" />
		<tag k="natural" v="cape" />
		<tag k="ssr:stedsnr" v="269516" />
	</node>
	<node id="-394713" lat="59.4305416675" lon="5.09269444752">
		<tag k="alt_name" v="himre Bryggjeland" />
		<tag k="name" v="Heimre Bryggjeland" />
		<tag k="place" v="islet" />
		<tag k="ssr:stedsnr" v="269513" />
	</node>
	<node id="-395377" lat="59.3915455986" lon="5.31878760201">
		<tag k="name" v="Jamnhaug" />
		<tag k="natural" v="hill" />
		<tag k="place" v="locality" />
		<tag k="ssr:stedsnr" v="979849" />
	</node>
	<node id="-395376" lat="59.3940549615" lon="5.31809349618">
		<tag k="name" v="Raglatua" />
		<tag k="natural" v="hill" />
		<tag k="place" v="locality" />
		<tag k="ssr:stedsnr" v="979848" />
	</node>
	<node id="-395375" lat="59.4121361001" lon="5.25568768652">
		<tag k="amenity" v="ferry_terminal" />
		<tag k="name" v="Haugesund ferjekai" />
		<tag k="ssr:stedsnr" v="978620" />
	</node>
	<node id="-395374" lat="59.4280323996" lon="5.12859050566">
		<tag k="loc_name" v="Glåpene" />
		<tag k="name" v="Gloppene" />
		<tag k="place" v="islet" />
		<tag k="ssr:stedsnr" v="977641" />
	</node>
	<node id="-395371" lat="59.4172000022" lon="5.29480833467">
		<tag k="name" v="Presthaug" />
		<tag k="place" v="isolated_dwelling" />
		<tag k="ssr:stedsnr" v="969907" />
	</node>
	<node id="-395370" lat="59.388894444" lon="5.29259721743">
		<tag k="name" v="Kleivastø" />
		<tag k="natural" v="bay" />
		<tag k="ssr:stedsnr" v="967088" />
	</node>
	<node id="-395369" lat="59.3928944484" lon="5.30111388077">
		<tag k="name" v="Longebjørg" />
		<tag k="place" v="isolated_dwelling" />
		<tag k="ssr:stedsnr" v="967083" />
	</node>
	<node id="-395368" lat="59.4019166622" lon="5.30173332729">
		<tag k="name" v="Porshaug" />
		<tag k="natural" v="hill" />
		<tag k="place" v="locality" />
		<tag k="ssr:stedsnr" v="967078" />
	</node>
	<node id="-395367" lat="59.3939527759" lon="5.30074999747">
		<tag k="name" v="Stuttebjørg" />
		<tag k="place" v="isolated_dwelling" />
		<tag k="ssr:stedsnr" v="967075" />
	</node>
	<node id="-395366" lat="59.4138861113" lon="5.28384721711">
		<tag k="name" v="Varhaug" />
		<tag k="place" v="isolated_dwelling" />
		<tag k="ssr:stedsnr" v="967067" />
	</node>
	<node id="-395365" lat="59.411122219" lon="5.3338333397">
		<tag k="name" v="Fedjedalen" />
		<tag k="place" v="quarter" />
		<tag k="ssr:stedsnr" v="965241" />
	</node>
	<node id="-395364" lat="59.4164444487" lon="5.22185555336">
		<tag k="fixme" v="consider seamark:type=rock or natural=shoal" />
		<tag k="name" v="Avlaupsøy" />
		<tag k="place" v="islet" />
		<tag k="ssr:stedsnr" v="951781" />
	</node>
	<node id="-395363" lat="59.4225666624" lon="5.24047221636">
		<tag k="name" v="Sjursundet" />
		<tag k="natural" v="strait" />
		<tag k="ssr:stedsnr" v="951776" />
	</node>
	<node id="-395362" lat="59.4245333345" lon="5.30688610831">
		<tag k="historic" v="shieling" />
		<tag k="name" v="Setrene" />
		<tag k="place" v="locality" />
		<tag k="ssr:stedsnr" v="946008" />
	</node>
	<node id="-395361" lat="59.4104298364" lon="5.28989524043">
		<tag k="fixme" v="consider place=hamlet" />
		<tag k="name" v="Litlasund" />
		<tag k="place" v="farm" />
		<tag k="ssr:stedsnr" v="937932" />
	</node>
	<node id="-395360" lat="59.4687277788" lon="5.28500834053">
		<tag k="amenity" v="school" />
		<tag k="name" v="Saltveit skole" />
		<tag k="ssr:stedsnr" v="937656" />
	</node>
	<node id="-395359" lat="59.4663583356" lon="5.29472499315">
		<tag k="name" v="Åsen" />
		<tag k="natural" v="hill" />
		<tag k="place" v="locality" />
		<tag k="ssr:stedsnr" v="937654" />
	</node>
	<node id="-395358" lat="59.4930805595" lon="5.26360555737">
		<tag k="name" v="Storhaug" />
		<tag k="natural" v="hill" />
		<tag k="place" v="locality" />
		<tag k="ssr:stedsnr" v="937652" />
	</node>
	<node id="-395357" lat="59.488741667" lon="5.2629083398">
		<tag k="name" v="Størkårsvik" />
		<tag k="natural" v="bay" />
		<tag k="ssr:stedsnr" v="937648" />
	</node>
	<node id="-395356" lat="59.4323305539" lon="5.33172500701">
		<tag k="fixme" v="consider natural=peak for the most distinct mountains in the district" />
		<tag k="name" v="Ørnanuten" />
		<tag k="natural" v="hill" />
		<tag k="place" v="locality" />
		<tag k="ssr:stedsnr" v="937641" />
	</node>
	<node id="-395355" lat="59.433266667" lon="5.30224445181">
		<tag k="name" v="Svartabergsmyr" />
		<tag k="natural" v="wetland" />
		<tag k="ssr:stedsnr" v="937583" />
	</node>
	<node id="-395354" lat="59.4221055599" lon="5.30245000496">
		<tag k="name" v="Kvernahaugen" />
		<tag k="natural" v="hill" />
		<tag k="place" v="locality" />
		<tag k="ssr:stedsnr" v="937582" />
	</node>
	<node id="-395353" lat="59.4612055555" lon="5.34790555934">
		<tag k="fixme" v="consider natural=peak for the most distinct mountains in the district" />
		<tag k="name" v="Søre Lauvåsen" />
		<tag k="natural" v="hill" />
		<tag k="place" v="locality" />
		<tag k="ssr:stedsnr" v="937573" />
	</node>
	<node id="-395352" lat="59.4498916697" lon="5.33895276864">
		<tag k="name" v="Sandvassbrekkene" />
		<tag k="natural" v="slope" />
		<tag k="place" v="locality" />
		<tag k="ssr:stedsnr" v="937572" />
	</node>
	<node id="-395351" lat="59.4394444439" lon="5.06574721979">
		<tag k="alt_name" v="norde Seleningen;Nordre Seleningen" />
		<tag k="name" v="Nordre Sileningen" />
		<tag k="place" v="islet" />
		<tag k="ssr:stedsnr" v="937568" />
	</node>
	<node id="-395350" lat="59.4488888912" lon="5.30268056029">
		<tag k="name" v="Skoklandstjørn" />
		<tag k="natural" v="water" />
		<tag k="ssr:stedsnr" v="937565" />
	</node>
	<node id="-395349" lat="59.4252805598" lon="5.08814445017">
		<tag k="fixme" v="consider seamark:type=rock or natural=shoal" />
		<tag k="name" v="Litle Hatt" />
		<tag k="place" v="islet" />
		<tag k="ssr:stedsnr" v="937557" />
	</node>
	<node id="-395348" lat="59.4332944412" lon="5.08467500637">
		<tag k="name" v="Va" />
		<tag k="natural" v="bay" />
		<tag k="ssr:stedsnr" v="937539" />
	</node>
	<node id="-395347" lat="59.4343833343" lon="5.11169443889">
		<tag k="fixme" v="consider seamark:type=rock or natural=shoal" />
		<tag k="name" v="Ankerskjer" />
		<tag k="place" v="islet" />
		<tag k="ssr:stedsnr" v="937114" />
	</node>
	<node id="-395346" lat="59.4287750037" lon="5.1276611185">
		<tag k="alt_name" v="norde Glåpen" />
		<tag k="name" v="Nordre Glåpen" />
		<tag k="place" v="islet" />
		<tag k="ssr:stedsnr" v="937109" />
	</node>
	<node id="-395345" lat="59.4852000041" lon="5.35243888426">
		<tag k="fixme" v="consider natural=peak for the most distinct mountains in the district" />
		<tag k="name" v="Trettelivarden" />
		<tag k="natural" v="hill" />
		<tag k="place" v="locality" />
		<tag k="ssr:stedsnr" v="937067" />
	</node>
	<node id="-395344" lat="59.4939694449" lon="5.22617778649">
		<tag k="name" v="Litla Skiftesvik" />
		<tag k="natural" v="bay" />
		<tag k="ssr:stedsnr" v="936884" />
	</node>
	<node id="-395343" lat="59.467083336" lon="5.24306389278">
		<tag k="name" v="Skitneviksholmen" />
		<tag k="place" v="islet" />
		<tag k="ssr:stedsnr" v="936876" />
	</node>
	<node id="-395342" lat="59.4117277774" lon="5.25162500432">
		<tag k="name" v="Møllerodden" />
		<tag k="natural" v="cape" />
		<tag k="ssr:stedsnr" v="936762" />
	</node>
	<node id="-395340" lat="59.4552722229" lon="5.18384999315">
		<tag k="name" v="Jøsseflua" />
		<tag k="natural" v="shoal" />
		<tag k="place" v="locality" />
		<tag k="ssr:stedsnr" v="935326" />
	</node>
	<node id="-395339" lat="59.4814293947" lon="5.2839971191">
		<tag k="fixme" v="consider place=hamlet" />
		<tag k="name" v="Støle" />
		<tag k="place" v="farm" />
		<tag k="ssr:stedsnr" v="913694" />
	</node>
	<node id="-395338" lat="59.4780407101" lon="5.28526141637">
		<tag k="fixme" v="consider place=hamlet" />
		<tag k="name" v="Bakken" />
		<tag k="place" v="farm" />
		<tag k="ssr:stedsnr" v="913691" />
	</node>
	<node id="-395337" lat="59.4979000015" lon="5.11613888099">
		<tag k="alt_name" v="Gåseskallen" />
		<tag k="name" v="Gåsaskallen" />
		<tag k="natural" v="shoal" />
		<tag k="place" v="locality" />
		<tag k="ssr:stedsnr" v="912741" />
	</node>
	<node id="-395336" lat="59.4379007299" lon="5.09017853986">
		<tag k="fixme" v="consider place=hamlet" />
		<tag k="name" v="Røvær" />
		<tag k="place" v="village" />
		<tag k="ssr:stedsnr" v="912306" />
	</node>
	<node id="-395335" lat="59.4144527732" lon="5.27006665842">
		<tag k="amenity" v="place_of_worship" />
		<tag k="denomination" v="lutheran" />
		<tag k="name" v="Vår Frelsers kirke" />
		<tag k="religion" v="christian" />
		<tag k="ssr:stedsnr" v="907067" />
	</node>
	<node id="-395334" lat="59.4158166695" lon="5.31918056282">
		<tag k="name" v="Stølshaug" />
		<tag k="place" v="quarter" />
		<tag k="ssr:stedsnr" v="905225" />
	</node>
	<node id="-395333" lat="59.3945499994" lon="5.28442223024">
		<tag k="name" v="Hansastø" />
		<tag k="place" v="quarter" />
		<tag k="ssr:stedsnr" v="905145" />
	</node>
	<node id="-395332" lat="59.3980805565" lon="5.31446110253">
		<tag k="name" v="Svehaug" />
		<tag k="place" v="quarter" />
		<tag k="ssr:stedsnr" v="905128" />
	</node>
	<node id="-395331" lat="59.4156837174" lon="5.28613000341">
		<tag k="fixme" v="consider place=hamlet" />
		<tag k="name" v="Sørhaug" />
		<tag k="place" v="farm" />
		<tag k="ssr:stedsnr" v="876936" />
	</node>
	<node id="-395330" lat="59.4903138904" lon="5.2375305591">
		<tag k="name" v="Bogshamnshaugen" />
		<tag k="natural" v="hill" />
		<tag k="place" v="locality" />
		<tag k="ssr:stedsnr" v="876898" />
	</node>
	<node id="-395329" lat="59.4951500041" lon="5.22414444283">
		<tag k="fixme" v="consider seamark:type=rock or natural=shoal" />
		<tag k="name" v="Skiftesvikskjeret" />
		<tag k="place" v="islet" />
		<tag k="ssr:stedsnr" v="876896" />
	</node>
	<node id="-395328" lat="59.50367222" lon="5.22568332634">
		<tag k="name" v="Smørsundholmen" />
		<tag k="place" v="islet" />
		<tag k="ssr:stedsnr" v="876893" />
	</node>
	<node id="-395327" lat="59.4292694475" lon="5.24068055406">
		<tag k="name" v="Gardsvik" />
		<tag k="natural" v="bay" />
		<tag k="ssr:stedsnr" v="876873" />
	</node>
	<node id="-395326" lat="59.4033416654" lon="5.27178889345">
		<tag k="fixme" v="consider seamark:type=rock or natural=shoal" />
		<tag k="name" v="Risøyskjer" />
		<tag k="place" v="islet" />
		<tag k="ssr:stedsnr" v="876874" />
	</node>
	<node id="-395325" lat="59.4810194467" lon="5.27902778256">
		<tag k="name" v="Liavik" />
		<tag k="natural" v="bay" />
		<tag k="ssr:stedsnr" v="876639" />
	</node>
	<node id="-395324" lat="59.4858666704" lon="5.29046944591">
		<tag k="alt_name" v="Vikseholmen" />
		<tag k="name" v="Viksesholmen" />
		<tag k="place" v="islet" />
		<tag k="ssr:stedsnr" v="876625" />
	</node>
	<node id="-395323" lat="59.4436638898" lon="5.07950834197">
		<tag k="name" v="Straumen" />
		<tag k="natural" v="bay" />
		<tag k="ssr:stedsnr" v="876626" />
	</node>
	<node id="-395322" lat="59.4493694422" lon="5.06694999233">
		<tag k="name" v="Søreholmen" />
		<tag k="place" v="islet" />
		<tag k="ssr:stedsnr" v="876623" />
	</node>
	<node id="-395321" lat="59.427186114" lon="5.33560000654">
		<tag k="name" v="Iglavasstjørn" />
		<tag k="natural" v="water" />
		<tag k="ssr:stedsnr" v="876622" />
	</node>
	<node id="-395320" lat="59.4388111132" lon="5.29610278136">
		<tag k="name" v="Risbrekka" />
		<tag k="natural" v="mountain_range" />
		<tag k="ssr:stedsnr" v="876562" />
	</node>
	<node id="-395319" lat="59.4331277738" lon="5.26558889768">
		<tag k="name" v="Steinsneshaugen" />
		<tag k="natural" v="hill" />
		<tag k="place" v="locality" />
		<tag k="ssr:stedsnr" v="876561" />
	</node>
	<node id="-395318" lat="59.4348944473" lon="5.06328611224">
		<tag k="fixme" v="consider seamark:type=rock or natural=shoal" />
		<tag k="name" v="Hekssete" />
		<tag k="place" v="islet" />
		<tag k="ssr:stedsnr" v="876551" />
	</node>
	<node id="-395317" lat="59.4449805581" lon="5.29092777647">
		<tag k="name" v="Ølkonå" />
		<tag k="place" v="locality" />
		<tag k="ssr:stedsnr" v="876549" />
	</node>
	<node id="-395316" lat="59.4366555567" lon="5.08751389565">
		<tag k="name" v="Dalen" />
		<tag k="natural" v="valley" />
		<tag k="place" v="locality" />
		<tag k="ssr:stedsnr" v="876544" />
	</node>
	<node id="-395315" lat="59.4323000012" lon="5.08918054762">
		<tag k="name" v="Torjesneset" />
		<tag k="natural" v="cape" />
		<tag k="ssr:stedsnr" v="876538" />
	</node>
	<node id="-395314" lat="59.4278194487" lon="5.09063333357">
		<tag k="name" v="Store Bryggjeland" />
		<tag k="place" v="islet" />
		<tag k="ssr:stedsnr" v="876522" />
	</node>
	<node id="-395313" lat="59.4790888854" lon="5.38885277015">
		<tag k="name" v="Elleflåt" />
		<tag k="place" v="farm" />
		<tag k="ssr:stedsnr" v="876299" />
	</node>
	<node id="-395312" lat="59.4682694469" lon="5.36730276873">
		<tag k="name" v="Mannaberg" />
		<tag k="natural" v="hill" />
		<tag k="place" v="locality" />
		<tag k="ssr:stedsnr" v="876095" />
	</node>
	<node id="-395311" lat="59.486994441" lon="5.3734277706">
		<tag k="name" v="Steivarsund" />
		<tag k="natural" v="strait" />
		<tag k="ssr:stedsnr" v="876085" />
	</node>
	<node id="-395310" lat="59.5117361088" lon="5.1761583349">
		<tag k="fixme" v="consider seamark:type=rock or natural=shoal" />
		<tag k="name" v="Seiskjeret" />
		<tag k="place" v="islet" />
		<tag k="ssr:stedsnr" v="853156" />
	</node>
	<node id="-395309" lat="59.4950777755" lon="5.226419437">
		<tag k="alt_name" v="Skiftesvik;stora Skiftesvik" />
		<tag k="name" v="Skiftesvika" />
		<tag k="natural" v="bay" />
		<tag k="ssr:stedsnr" v="852698" />
	</node>
	<node id="-395308" lat="59.4698416652" lon="5.32585555063">
		<tag k="name" v="Kallandsvatnet" />
		<tag k="natural" v="water" />
		<tag k="ssr:stedsnr" v="852678" />
		<tag k="water" v="lake" />
	</node>
	<node id="-395307" lat="59.4705722179" lon="5.33701111538">
		<tag k="name" v="Kvernavatnet" />
		<tag k="natural" v="water" />
		<tag k="ssr:stedsnr" v="852674" />
	</node>
	<node id="-395306" lat="59.4669104605" lon="5.3727250955">
		<tag k="alt_name" v="Skardstad" />
		<tag k="fixme" v="consider place=hamlet" />
		<tag k="name" v="Skastad" />
		<tag k="place" v="farm" />
		<tag k="ssr:stedsnr" v="852673" />
	</node>
	<node id="-395305" lat="59.4698472203" lon="5.2317805617">
		<tag k="alt_name" v="Rassadleneset" />
		<tag k="name" v="Rassaleneset" />
		<tag k="natural" v="cape" />
		<tag k="ssr:stedsnr" v="852671" />
	</node>
	<node id="-395304" lat="59.4277944442" lon="5.09078888301">
		<tag k="name" v="Bryggelandsholmane" />
		<tag k="place" v="islet" />
		<tag k="ssr:stedsnr" v="852298" />
	</node>
	<node id="-395303" lat="59.4234944461" lon="5.09622776884">
		<tag k="alt_name" v="Hatt, store" />
		<tag k="name" v="Store Hatt" />
		<tag k="place" v="islet" />
		<tag k="ssr:stedsnr" v="851644" />
	</node>
	<node id="-395302" lat="59.4137777778" lon="5.26802777126">
		<tag k="name" v="Haugesund" />
		<tag k="place" v="town" />
		<tag k="ssr:stedsnr" v="851640" />
	</node>
	<node id="-395301" lat="59.4260416682" lon="5.31684443998">
		<tag k="name" v="Stakk" />
		<tag k="natural" v="hill" />
		<tag k="place" v="locality" />
		<tag k="ssr:stedsnr" v="851638" />
	</node>
	<node id="-395300" lat="59.4307722262" lon="5.28056944093">
		<tag k="bridge" v="yes" />
		<tag k="layer" v="1" />
		<tag k="name" v="N Skeisvatn" />
		<tag k="ssr:stedsnr" v="836236" />
	</node>
	<node id="-395299" lat="59.4308444402" lon="5.28633333538">
		<tag k="bridge" v="yes" />
		<tag k="layer" v="1" />
		<tag k="name" v="Gardstøl" />
		<tag k="ssr:stedsnr" v="836235" />
	</node>
	<node id="-395297" lat="59.4204166682" lon="5.3290916745">
		<tag k="fixme" v="consider natural=peak for the most distinct mountains in the district" />
		<tag k="name" v="Taumakisto" />
		<tag k="natural" v="hill" />
		<tag k="place" v="locality" />
		<tag k="ssr:stedsnr" v="816999" />
	</node>
	<node id="-395296" lat="59.4456777819" lon="5.24642777025">
		<tag k="name" v="Ramnehaugen" />
		<tag k="natural" v="hill" />
		<tag k="place" v="locality" />
		<tag k="ssr:stedsnr" v="816886" />
	</node>
	<node id="-395295" lat="59.4862638853" lon="5.25478333221">
		<tag k="name" v="Røyteholå" />
		<tag k="natural" v="bay" />
		<tag k="ssr:stedsnr" v="816883" />
	</node>
	<node id="-395294" lat="59.4439805592" lon="5.081997225">
		<tag k="name" v="Loten" />
		<tag k="natural" v="cape" />
		<tag k="ssr:stedsnr" v="816679" />
	</node>
	<node id="-395293" lat="59.4412722225" lon="5.08106665889">
		<tag k="name" v="Kalvatjørn" />
		<tag k="natural" v="water" />
		<tag k="ssr:stedsnr" v="816675" />
	</node>
	<node id="-395292" lat="59.4498499982" lon="5.06860834105">
		<tag k="name" v="Midtholmen" />
		<tag k="place" v="islet" />
		<tag k="ssr:stedsnr" v="816671" />
	</node>
	<node id="-395291" lat="59.4382722233" lon="5.06253333244">
		<tag k="alt_name" v="Seleningssundet" />
		<tag k="name" v="Sileningssundet" />
		<tag k="natural" v="strait" />
		<tag k="ssr:stedsnr" v="816597" />
	</node>
	<node id="-395290" lat="59.450266667" lon="5.29299444257">
		<tag k="name" v="Grønebrekksdalen" />
		<tag k="natural" v="valley" />
		<tag k="place" v="locality" />
		<tag k="ssr:stedsnr" v="816593" />
	</node>
	<node id="-395289" lat="59.3956500035" lon="5.32195278496">
		<tag k="name" v="Raglamyr" />
		<tag k="place" v="quarter" />
		<tag k="ssr:stedsnr" v="816590" />
	</node>
	<node id="-395288" lat="59.4299277769" lon="5.07645556133">
		<tag k="fixme" v="consider seamark:type=rock or natural=shoal" />
		<tag k="name" v="Buholmskjeret" />
		<tag k="place" v="islet" />
		<tag k="ssr:stedsnr" v="816585" />
	</node>
	<node id="-395287" lat="59.4376722187" lon="5.11318333515">
		<tag k="alt_name" v="Gjitterøysundet" />
		<tag k="name" v="Gitterøysundet" />
		<tag k="natural" v="strait" />
		<tag k="ssr:stedsnr" v="816104" />
	</node>
	<node id="-395286" lat="59.4320527779" lon="5.11951110813">
		<tag k="name" v="Joenhavet" />
		<tag k="natural" v="bay" />
		<tag k="ssr:stedsnr" v="816105" />
	</node>
	<node id="-395285" lat="59.4920888868" lon="5.36317778171">
		<tag k="name" v="Halsatjørn" />
		<tag k="natural" v="water" />
		<tag k="ssr:stedsnr" v="816090" />
	</node>
	<node id="-395284" lat="59.4713861139" lon="5.34764167377">
		<tag k="fixme" v="consider natural=peak for the most distinct mountains in the district" />
		<tag k="name" v="Harafjellet" />
		<tag k="natural" v="hill" />
		<tag k="place" v="locality" />
		<tag k="ssr:stedsnr" v="816070" />
	</node>
	<node id="-395283" lat="59.4753277816" lon="5.34514443922">
		<tag k="name" v="Nipane" />
		<tag k="natural" v="hill" />
		<tag k="place" v="locality" />
		<tag k="ssr:stedsnr" v="816069" />
	</node>
	<node id="-395282" lat="59.4422930553" lon="5.11612474145">
		<tag k="name" v="Ulvøyskallen" />
		<tag k="natural" v="shoal" />
		<tag k="place" v="locality" />
		<tag k="ssr:stedsnr" v="815915" />
	</node>
	<node id="-395281" lat="59.5031055559" lon="5.22780833346">
		<tag k="name" v="Sørasundet" />
		<tag k="natural" v="strait" />
		<tag k="ssr:stedsnr" v="815911" />
	</node>
	<node id="-395280" lat="59.4681555543" lon="5.23621388769">
		<tag k="name" v="Tedneholmen" />
		<tag k="place" v="islet" />
		<tag k="ssr:stedsnr" v="815906" />
	</node>
	<node id="-395279" lat="59.4778861107" lon="5.23918888618">
		<tag k="name" v="Nordavik" />
		<tag k="natural" v="bay" />
		<tag k="ssr:stedsnr" v="815901" />
	</node>
	<node id="-395278" lat="59.4286861107" lon="5.254044438">
		<tag k="name" v="Søtevik" />
		<tag k="natural" v="bay" />
		<tag k="ssr:stedsnr" v="815882" />
	</node>
	<node id="-395277" lat="59.4501666635" lon="5.23758888772">
		<tag k="name" v="Flateholmane" />
		<tag k="place" v="islet" />
		<tag k="ssr:stedsnr" v="815872" />
	</node>
	<node id="-395276" lat="59.4717138915" lon="5.37952778058">
		<tag k="name" v="Krossneset" />
		<tag k="natural" v="cape" />
		<tag k="ssr:stedsnr" v="815296" />
	</node>
	<node id="-395275" lat="59.4675333324" lon="5.17607222561">
		<tag k="name" v="Bonden" />
		<tag k="natural" v="shoal" />
		<tag k="place" v="locality" />
		<tag k="ssr:stedsnr" v="814376" />
	</node>
	<node id="-395274" lat="59.473928671" lon="5.29593045686">
		<tag k="fixme" v="consider place=hamlet" />
		<tag k="name" v="Vikse" />
		<tag k="place" v="farm" />
		<tag k="ssr:stedsnr" v="791703" />
	</node>
	<node id="-395273" lat="59.4749463672" lon="5.33686998457">
		<tag k="alt_name" v="Longatjørn" />
		<tag k="name" v="Langatjørna" />
		<tag k="natural" v="water" />
		<tag k="ssr:stedsnr" v="791702" />
	</node>
	<node id="-395272" lat="59.4863444474" lon="5.27826388465">
		<tag k="alt_name" v="Støleøy" />
		<tag k="name" v="Støleøya" />
		<tag k="place" v="islet" />
		<tag k="ssr:stedsnr" v="791697" />
	</node>
	<node id="-395271" lat="59.4898055558" lon="5.23183333447">
		<tag k="name" v="Svehaug" />
		<tag k="natural" v="hill" />
		<tag k="place" v="locality" />
		<tag k="ssr:stedsnr" v="791696" />
	</node>
	<node id="-395270" lat="59.4537611138" lon="5.23857499691">
		<tag k="name" v="Malmbukta" />
		<tag k="natural" v="bay" />
		<tag k="ssr:stedsnr" v="791684" />
	</node>
	<node id="-395269" lat="59.4383111133" lon="5.14881944489">
		<tag k="bay" v="fjord" />
		<tag k="name" v="Røværsfjorden" />
		<tag k="natural" v="bay" />
		<tag k="ssr:stedsnr" v="790717" />
	</node>
	<node id="-395268" lat="59.4427638886" lon="5.26800554819">
		<tag k="name" v="Godalen" />
		<tag k="place" v="farm" />
		<tag k="ssr:stedsnr" v="790711" />
	</node>
	<node id="-395266" lat="59.4196111158" lon="5.24310000802">
		<tag k="alt_name" v="Gardsøy" />
		<tag k="name" v="Gardsøya" />
		<tag k="place" v="islet" />
		<tag k="ssr:stedsnr" v="790691" />
	</node>
	<node id="-395265" lat="59.4266638902" lon="5.29246665921">
		<tag k="name" v="Arkavatnet" />
		<tag k="natural" v="water" />
		<tag k="ssr:stedsnr" v="790689" />
	</node>
</osm>
