<?xml version="1.0" encoding="UTF-8"?>
<<<<<<< HEAD
<osm version="0.6" generator="osmapis">
	<node lat="59.49995000138813" lon="5.231830559157092" id="-9">
		<tag k="name" v="Ospemyr" />
		<tag k="natural" v="wetland" />
		<tag k="ssr:stedsnr" v="26869" />
	</node>
	<node lat="59.49171944099003" lon="5.233852774200541" id="-10">
		<tag k="name" v="Kvitabergsmyr" />
		<tag k="natural" v="wetland" />
		<tag k="ssr:stedsnr" v="26871" />
	</node>
	<node lat="59.44539722006966" lon="5.0855972246642285" id="-66">
		<tag k="name" v="Melkevikslettene" />
		<tag k="place" v="locality" />
		<tag k="ssr:stedsnr" v="209633" />
	</node>
	<node lat="59.45881388867959" lon="5.351013882313131" id="-70">
		<tag k="name" v="Liggvarmyr" />
		<tag k="natural" v="wetland" />
		<tag k="ssr:stedsnr" v="269538" />
	</node>
	<node lat="59.44984721828341" lon="5.308722230620714" id="-90">
		<tag k="name" v="Ruggesteinen" />
		<tag k="natural" v="stone" />
		<tag k="ssr:stedsnr" v="452557" />
	</node>
	<node lat="59.49135555256222" lon="5.255536106560428" id="-141">
=======
<osm generator="osmapis" version="0.6">
	<node id="-9888" lat="59.4356277748" lon="5.07686388533">
		<tag k="name" v="Breiaviksletta" />
		<tag k="place" v="locality" />
		<tag k="ssr:stedsnr" v="694521" />
	</node>
	<node id="-10142" lat="59.4913555526" lon="5.25553610656">
>>>>>>> e1d4bc35ff8a6074a6f2e91616a996b547c36f15
		<tag k="name" v="Løkjen" />
		<tag k="natural" v="wetland" />
		<tag k="ssr:stedsnr" v="391891" />
	</node>
<<<<<<< HEAD
	<node lat="59.4805527803047" lon="5.386622224759577" id="-199">
		<tag k="name" v="Bleikmyr" />
		<tag k="natural" v="wetland" />
		<tag k="ssr:stedsnr" v="572320" />
	</node>
	<node lat="59.46506944722237" lon="5.351705557193605" id="-211">
=======
	<node id="-9885" lat="59.4650694472" lon="5.35170555719">
>>>>>>> e1d4bc35ff8a6074a6f2e91616a996b547c36f15
		<tag k="name" v="Lauvåsmyr" />
		<tag k="natural" v="wetland" />
		<tag k="ssr:stedsnr" v="694063" />
	</node>
<<<<<<< HEAD
	<node lat="59.43562777479857" lon="5.076863885328224" id="-212">
		<tag k="name" v="Breiaviksletta" />
		<tag k="place" v="locality" />
		<tag k="ssr:stedsnr" v="694521" />
	</node>
	<node lat="59.501076518817875" lon="5.243847952359274" id="-328">
		<tag k="name" v="Ellingsmyr" />
=======
	<node id="-10108" lat="59.4800500005" lon="5.25860833331">
		<tag k="name" v="Kyrkjedalsmyr" />
		<tag k="natural" v="wetland" />
		<tag k="ssr:stedsnr" v="329878" />
	</node>
	<node id="-9819" lat="59.4805527803" lon="5.38662222476">
		<tag k="name" v="Bleikmyr" />
>>>>>>> e1d4bc35ff8a6074a6f2e91616a996b547c36f15
		<tag k="natural" v="wetland" />
		<tag k="ssr:stedsnr" v="26860" />
	</node>
<<<<<<< HEAD
	<node lat="59.475297219419424" lon="5.290802780153765" id="-352">
		<tag k="name" v="Løkjene" />
=======
	<node id="-10073" lat="59.448272224" lon="5.25459166306">
		<tag k="name" v="Longafjellsmyr" />
>>>>>>> e1d4bc35ff8a6074a6f2e91616a996b547c36f15
		<tag k="natural" v="wetland" />
		<tag k="ssr:stedsnr" v="208863" />
	</node>
<<<<<<< HEAD
	<node lat="59.46449166625495" lon="5.320005548698056" id="-354">
=======
	<node id="-10007" lat="59.4644916663" lon="5.3200055487">
>>>>>>> e1d4bc35ff8a6074a6f2e91616a996b547c36f15
		<tag k="name" v="Eidsfjellmyrane" />
		<tag k="natural" v="wetland" />
		<tag k="ssr:stedsnr" v="87061" />
	</node>
<<<<<<< HEAD
	<node lat="59.448272223981306" lon="5.254591663062468" id="-405">
		<tag k="name" v="Longafjellsmyr" />
=======
	<node id="-9854" lat="59.4610972184" lon="5.3035999938">
		<tag k="name" v="Joamyr" />
>>>>>>> e1d4bc35ff8a6074a6f2e91616a996b547c36f15
		<tag k="natural" v="wetland" />
		<tag k="ssr:stedsnr" v="633564" />
	</node>
<<<<<<< HEAD
	<node lat="59.480050000541596" lon="5.258608333310438" id="-431">
		<tag k="name" v="Kyrkjedalsmyr" />
		<tag k="natural" v="wetland" />
		<tag k="ssr:stedsnr" v="329878" />
	</node>
	<node lat="59.43734444465265" lon="5.074999997493403" id="-493">
=======
	<node id="-9968" lat="59.491719441" lon="5.2338527742">
		<tag k="name" v="Kvitabergsmyr" />
		<tag k="natural" v="wetland" />
		<tag k="ssr:stedsnr" v="26871" />
	</node>
	<node id="-9967" lat="59.4999500014" lon="5.23183055916">
		<tag k="name" v="Ospemyr" />
		<tag k="natural" v="wetland" />
		<tag k="ssr:stedsnr" v="26869" />
	</node>
	<node id="-9966" lat="59.5011055533" lon="5.24347222559">
		<tag k="name" v="Ellingsmyr" />
		<tag k="natural" v="wetland" />
		<tag k="ssr:stedsnr" v="26860" />
	</node>
	<node id="-9711" lat="59.4498472183" lon="5.30872223062">
		<tag k="name" v="Ruggesteinen" />
		<tag k="natural" v="stone" />
		<tag k="ssr:stedsnr" v="452557" />
	</node>
	<node id="-9770" lat="59.4373444447" lon="5.07499999749">
>>>>>>> e1d4bc35ff8a6074a6f2e91616a996b547c36f15
		<tag k="name" v="Sloggemyrane" />
		<tag k="natural" v="wetland" />
		<tag k="ssr:stedsnr" v="512558" />
	</node>
<<<<<<< HEAD
	<node lat="59.461097218429416" lon="5.3035999937952045" id="-537">
		<tag k="name" v="Joamyr" />
		<tag k="natural" v="wetland" />
		<tag k="ssr:stedsnr" v="633564" />
	</node>
	<node lat="59.46721944295356" lon="5.313008332900835" id="-539">
=======
	<node id="-9673" lat="59.4588138887" lon="5.35101388231">
		<tag k="name" v="Liggvarmyr" />
		<tag k="natural" v="wetland" />
		<tag k="ssr:stedsnr" v="269538" />
	</node>
	<node id="-9927" lat="59.433266667" lon="5.30224445181">
		<tag k="name" v="Svartabergsmyr" />
		<tag k="natural" v="wetland" />
		<tag k="ssr:stedsnr" v="937583" />
	</node>
	<node id="-10218" lat="59.467219443" lon="5.3130083329">
>>>>>>> e1d4bc35ff8a6074a6f2e91616a996b547c36f15
		<tag k="name" v="Storaleitemyr" />
		<tag k="natural" v="wetland" />
		<tag k="ssr:stedsnr" v="633635" />
	</node>
<<<<<<< HEAD
	<node lat="59.43326666702662" lon="5.3022444518134195" id="-632">
		<tag k="name" v="Svartabergsmyr" />
		<tag k="natural" v="wetland" />
		<tag k="ssr:stedsnr" v="937583" />
=======
	<node id="-9662" lat="59.4752972194" lon="5.29080278015">
		<tag k="name" v="Løkjene" />
		<tag k="natural" v="wetland" />
		<tag k="ssr:stedsnr" v="87606" />
	</node>
	<node id="-10084" lat="59.4453972201" lon="5.08559722466">
		<tag k="name" v="Melkevikslettene" />
		<tag k="place" v="locality" />
		<tag k="ssr:stedsnr" v="209633" />
>>>>>>> e1d4bc35ff8a6074a6f2e91616a996b547c36f15
	</node>
</osm>
