<?xml version="1.0" encoding="UTF-8"?>
<osm generator="osmapis" version="0.6">
	<node id="-7936" lat="59.403191666" lon="5.33463888729">
		<tag k="bridge" v="yes" />
		<tag k="layer" v="1" />
		<tag k="name" v="Løkjen" />
		<tag k="ssr:stedsnr" v="168281" />
	</node>
	<node id="-8171" lat="59.4121361001" lon="5.25568768652">
		<tag k="amenity" v="ferry_terminal" />
		<tag k="name" v="Haugesund ferjekai" />
		<tag k="ssr:stedsnr" v="978620" />
	</node>
	<node id="-7910" lat="59.4225638891" lon="5.25288888957">
		<tag k="man_made" v="quay" />
		<tag k="name" v="Svarteskjeret" />
		<tag k="place" v="locality" />
		<tag k="ssr:stedsnr" v="119924" />
	</node>
	<node id="-7525" lat="59.4097027805" lon="5.28047222677">
		<tag k="bridge" v="yes" />
		<tag k="layer" v="1" />
		<tag k="name" v="Fylkessykehuset" />
		<tag k="ssr:stedsnr" v="229301" />
	</node>
	<node id="-8038" lat="59.4268027745" lon="5.26577777841">
		<tag k="bridge" v="yes" />
		<tag k="layer" v="1" />
		<tag k="name" v="Gard" />
		<tag k="ssr:stedsnr" v="532282" />
	</node>
	<node id="-7905" lat="59.4167888884" lon="5.27374166046">
		<tag k="highway" v="bus_stop" />
		<tag k="name" v="Haugesund Rutebilstasjon" />
		<tag k="ssr:stedsnr" v="118071" />
	</node>
	<node id="-7904" lat="59.419097219" lon="5.29560555166">
		<tag k="bridge" v="yes" />
		<tag k="layer" v="1" />
		<tag k="name" v="Djupadalsporten" />
		<tag k="ssr:stedsnr" v="108304" />
	</node>
	<node id="-7903" lat="59.4033750002" lon="5.29723611022">
		<tag k="bridge" v="yes" />
		<tag k="layer" v="1" />
		<tag k="name" v="Fjelltun" />
		<tag k="ssr:stedsnr" v="108302" />
	</node>
	<node id="-7771" lat="59.439824998" lon="5.27839166206">
		<tag k="bridge" v="yes" />
		<tag k="layer" v="1" />
		<tag k="name" v="Austrheim" />
		<tag k="ssr:stedsnr" v="897301" />
	</node>
	<node id="-7770" lat="59.4709555549" lon="5.29083333228">
		<tag k="bridge" v="yes" />
		<tag k="layer" v="1" />
		<tag k="name" v="Saltveit" />
		<tag k="ssr:stedsnr" v="897278" />
	</node>
	<node id="-8153" lat="59.4307722262" lon="5.28056944093">
		<tag k="bridge" v="yes" />
		<tag k="layer" v="1" />
		<tag k="name" v="N Skeisvatn" />
		<tag k="ssr:stedsnr" v="836236" />
	</node>
	<node id="-8152" lat="59.4308444402" lon="5.28633333538">
		<tag k="bridge" v="yes" />
		<tag k="layer" v="1" />
		<tag k="name" v="Gardstøl" />
		<tag k="ssr:stedsnr" v="836235" />
	</node>
	<node id="-8125" lat="59.4074277815" lon="5.28341944228">
		<tag k="bridge" v="yes" />
		<tag k="layer" v="1" />
		<tag k="name" v="Bjørgvinsgate" />
		<tag k="ssr:stedsnr" v="775272" />
	</node>
	<node id="-7996" lat="59.4047861153" lon="5.33551111235">
		<tag k="bridge" v="yes" />
		<tag k="layer" v="1" />
		<tag k="name" v="Ørpetveit" />
		<tag k="ssr:stedsnr" v="350251" />
	</node>
	<node id="-7995" lat="59.4164638896" lon="5.27258889126">
		<tag k="bridge" v="yes" />
		<tag k="layer" v="1" />
		<tag k="name" v="Skjoldavegen" />
		<tag k="ssr:stedsnr" v="350250" />
	</node>
	<node id="-7607" lat="59.4267416714" lon="5.26506945266">
		<tag k="bridge" v="yes" />
		<tag k="layer" v="1" />
		<tag k="name" v="Gard" />
		<tag k="ssr:stedsnr" v="472286" />
	</node>
	<node id="-7606" lat="59.4101250009" lon="5.32469999313">
		<tag k="bridge" v="yes" />
		<tag k="layer" v="1" />
		<tag k="name" v="Dalen" />
		<tag k="ssr:stedsnr" v="472285" />
	</node>
	<node id="-7861" lat="59.4811833353" lon="5.2891499952">
		<tag k="bridge" v="yes" />
		<tag k="layer" v="1" />
		<tag k="name" v="Viksevatn" />
		<tag k="ssr:stedsnr" v="47294" />
	</node>
	<node id="-7600" lat="59.4797527792" lon="5.37670277899">
		<tag k="bridge" v="yes" />
		<tag k="layer" v="1" />
		<tag k="name" v="Halseid" />
		<tag k="ssr:stedsnr" v="290270" />
	</node>
	<node id="-7599" lat="59.4177055547" lon="5.25804999386">
		<tag k="leisure" v="marina" />
		<tag k="name" v="Hasseløy småbåthavn" />
		<tag k="ssr:stedsnr" v="285838" />
	</node>
	<node id="-8102" lat="59.3942638869" lon="5.30623054972">
		<tag k="bridge" v="yes" />
		<tag k="layer" v="1" />
		<tag k="name" v="Spanneveien" />
		<tag k="ssr:stedsnr" v="654290" />
	</node>
	<node id="-8101" lat="59.3945722195" lon="5.30685000872">
		<tag k="bridge" v="yes" />
		<tag k="layer" v="1" />
		<tag k="name" v="Skuggaberg" />
		<tag k="ssr:stedsnr" v="654289" />
	</node>
	<node id="-8100" lat="59.4130083291" lon="5.26666111808">
		<tag k="man_made" v="quay" />
		<tag k="name" v="Indre kai" />
		<tag k="place" v="locality" />
		<tag k="ssr:stedsnr" v="648841" />
	</node>
	<node id="-7838" lat="59.4108194422" lon="5.25866944545">
		<tag k="man_made" v="quay" />
		<tag k="name" v="Garpeskjærkaien" />
		<tag k="place" v="locality" />
		<tag k="ssr:stedsnr" v="26753" />
	</node>
	<node id="-7605" lat="59.397194444" lon="5.29742500683">
		<tag k="bridge" v="yes" />
		<tag k="layer" v="1" />
		<tag k="name" v="Diktervegen" />
		<tag k="ssr:stedsnr" v="472284" />
	</node>
	<node id="-7708" lat="59.4164222244" lon="5.27265555815">
		<tag k="bridge" v="yes" />
		<tag k="layer" v="1" />
		<tag k="name" v="Flotmyr" />
		<tag k="ssr:stedsnr" v="715336" />
	</node>
	<node id="-7707" lat="59.4305416641" lon="5.2629388831">
		<tag k="bridge" v="yes" />
		<tag k="layer" v="1" />
		<tag k="name" v="Austrheimveien" />
		<tag k="ssr:stedsnr" v="715331" />
	</node>
	<node id="-7706" lat="59.4383027799" lon="5.27304443864">
		<tag k="bridge" v="yes" />
		<tag k="layer" v="1" />
		<tag k="name" v="Udland" />
		<tag k="ssr:stedsnr" v="715317" />
	</node>
	<node id="-7705" lat="59.4800305513" lon="5.3053583339">
		<tag k="bridge" v="yes" />
		<tag k="layer" v="1" />
		<tag k="name" v="Søravåge" />
		<tag k="ssr:stedsnr" v="715315" />
	</node>
	<node id="-7704" lat="59.397083335" lon="5.32093333731">
		<tag k="bridge" v="yes" />
		<tag k="layer" v="1" />
		<tag k="name" v="Raglamyr" />
		<tag k="ssr:stedsnr" v="715310" />
	</node>
	<node id="-7703" lat="59.4068666669" lon="5.26629999344">
		<tag k="man_made" v="quay" />
		<tag k="name" v="Risholmen" />
		<tag k="place" v="locality" />
		<tag k="ssr:stedsnr" v="588890" />
	</node>
	<node id="-7769" lat="59.4374916632" lon="5.27045555651">
		<tag k="bridge" v="yes" />
		<tag k="layer" v="1" />
		<tag k="name" v="Kvalaelva" />
		<tag k="ssr:stedsnr" v="897274" />
	</node>
	<node id="-7569" lat="59.4172305578" lon="5.2720833272">
		<tag k="bridge" v="yes" />
		<tag k="layer" v="1" />
		<tag k="name" v="Tuhauggate" />
		<tag k="ssr:stedsnr" v="290278" />
	</node>
	<node id="-8024" lat="59.4093638852" lon="5.33941110591">
		<tag k="bridge" v="yes" />
		<tag k="layer" v="1" />
		<tag k="name" v="Høye" />
		<tag k="ssr:stedsnr" v="411270" />
	</node>
	<node id="-7566" lat="59.4124972201" lon="5.25666665917">
		<tag k="man_made" v="quay" />
		<tag k="name" v="Nordre Garpeskjærkai" />
		<tag k="place" v="locality" />
		<tag k="ssr:stedsnr" v="163868" />
	</node>
	<node id="-7946" lat="59.4141602441" lon="5.25682189432">
		<tag k="man_made" v="quay" />
		<tag k="name" v="Skagen" />
		<tag k="place" v="locality" />
		<tag k="ssr:stedsnr" v="208801" />
	</node>
	<node id="-7816" lat="59.4101027762" lon="5.26001666387">
		<tag k="man_made" v="quay" />
		<tag k="name" v="Søra Garpeskjærkai" />
		<tag k="place" v="locality" />
		<tag k="ssr:stedsnr" v="892828" />
	</node>
	<node id="-8067" lat="59.3997333295" lon="5.33675278183">
		<tag k="bridge" v="yes" />
		<tag k="layer" v="1" />
		<tag k="name" v="Vassbrekke" />
		<tag k="ssr:stedsnr" v="593259" />
	</node>
</osm>
