<?xml version="1.0" encoding="UTF-8"?>
<<<<<<< HEAD
<osm version="0.6" generator="osmapis">
	<node lat="59.29722222658022" lon="5.326388896975932" id="-1">
		<tag k="name" v="Karmsundet" />
		<tag k="natural" v="strait" />
		<tag k="ssr:stedsnr" v="1101" />
	</node>
	<node lat="59.44496389089922" lon="5.095055549621785" id="-4">
		<tag k="alt_name" v="Hollkoppe" />
		<tag k="name" v="Holkopp" />
		<tag k="natural" v="cape" />
		<tag k="ssr:stedsnr" v="2673" />
	</node>
	<node lat="59.439383336550044" lon="5.054358340872202" id="-5">
		<tag k="name" v="Søra Brokeflua" />
		<tag k="natural" v="shoal" />
		<tag k="place" v="locality" />
		<tag k="ssr:stedsnr" v="26112" />
	</node>
	<node lat="59.446002779264724" lon="5.244077785487586" id="-7">
		<tag k="name" v="Joå" />
		<tag k="natural" v="bay" />
		<tag k="ssr:stedsnr" v="26818" />
	</node>
	<node lat="59.43309444708594" lon="5.239286103896857" id="-8">
		<tag k="name" v="Kvalen" />
		<tag k="natural" v="cape" />
		<tag k="ssr:stedsnr" v="26819" />
	</node>
	<node lat="59.44289166685779" lon="5.098702771132746" id="-11">
		<tag k="name" v="Lusakloven" />
		<tag k="natural" v="bay" />
		<tag k="ssr:stedsnr" v="27076" />
	</node>
	<node lat="59.44518889172824" lon="5.093588891593978" id="-12">
		<tag k="name" v="Austra Nipsholmsundet" />
		<tag k="natural" v="strait" />
		<tag k="ssr:stedsnr" v="27082" />
	</node>
	<node lat="59.416608329737215" lon="5.1388416671575765" id="-13">
		<tag k="alt_name" v="Julabåen" />
		<tag k="fixme" v="consider seamark:type=rock or natural=shoal" />
		<tag k="name" v="Julaboane" />
		<tag k="place" v="islet" />
		<tag k="ssr:stedsnr" v="27781" />
	</node>
	<node lat="59.41692221952463" lon="5.246741664208844" id="-15">
		<tag k="name" v="Løvågen" />
		<tag k="natural" v="bay" />
		<tag k="ssr:stedsnr" v="42806" />
	</node>
	<node lat="59.40393263212188" lon="5.275485444574978" id="-16">
		<tag k="alt_name" v="Østre Storasundflua" />
		<tag k="name" v="Austra Storasundflua" />
		<tag k="place" v="locality" />
		<tag k="seamark:type" v="rock" />
		<tag k="ssr:stedsnr" v="42812" />
	</node>
	<node lat="59.441597220255574" lon="5.095430553231377" id="-21">
		<tag k="alt_name" v="Ur" />
		<tag k="name" v="Urd" />
		<tag k="place" v="island" />
		<tag k="ssr:stedsnr" v="62680" />
	</node>
	<node lat="59.43651666925314" lon="5.2149805611380025" id="-23">
		<tag k="alt_name" v="Redjung" />
		<tag k="fixme" v="consider seamark:type=rock or natural=shoal" />
		<tag k="name" v="Reidungen" />
		<tag k="place" v="islet" />
		<tag k="ssr:stedsnr" v="62683" />
	</node>
	<node lat="59.43264541239898" lon="5.073275972415075" id="-24">
		<tag k="alt_name" v="Kråkevågskjeret" />
		<tag k="fixme" v="consider seamark:type=rock or natural=shoal" />
		<tag k="name" v="Kråkvågskjeret" />
		<tag k="place" v="islet" />
		<tag k="ssr:stedsnr" v="63317" />
	</node>
	<node lat="59.457561109720956" lon="5.18417499620374" id="-26">
		<tag k="name" v="Dettingen" />
		<tag k="natural" v="shoal" />
		<tag k="place" v="locality" />
		<tag k="ssr:stedsnr" v="63673" />
	</node>
	<node lat="59.44338611406251" lon="5.075927780073113" id="-30">
		<tag k="alt_name" v="Utslettaneset" />
		<tag k="name" v="Utslettneset" />
		<tag k="natural" v="cape" />
		<tag k="ssr:stedsnr" v="245277" />
	</node>
	<node lat="59.44599722018352" lon="5.069977772223688" id="-31">
		<tag k="name" v="Holmosen" />
		<tag k="natural" v="bay" />
		<tag k="ssr:stedsnr" v="245278" />
	</node>
	<node lat="59.42862499626387" lon="5.2108694410378735" id="-32">
		<tag k="name" v="Indreflua" />
		<tag k="natural" v="shoal" />
		<tag k="place" v="locality" />
		<tag k="ssr:stedsnr" v="86505" />
	</node>
	<node lat="59.433155555352315" lon="5.098416671231283" id="-33">
		<tag k="name" v="Hidlerstongjen" />
		<tag k="natural" v="cape" />
		<tag k="ssr:stedsnr" v="87090" />
	</node>
	<node lat="59.41797221801223" lon="5.136250004756852" id="-41">
		<tag k="fixme" v="consider seamark:type=rock or natural=shoal" />
		<tag k="name" v="Kapp Horn" />
		<tag k="place" v="islet" />
		<tag k="ssr:stedsnr" v="87771" />
	</node>
	<node lat="59.50043611078858" lon="5.223075007937389" id="-49">
		<tag k="name" v="Smørsundneset" />
		<tag k="natural" v="cape" />
		<tag k="ssr:stedsnr" v="146309" />
	</node>
	<node lat="59.440186110028634" lon="5.214974993848501" id="-50">
		<tag k="name" v="Tueskolten" />
		<tag k="natural" v="shoal" />
		<tag k="place" v="locality" />
		<tag k="ssr:stedsnr" v="146310" />
	</node>
	<node lat="59.43318610706413" lon="5.069183334072167" id="-52">
		<tag k="name" v="Torkildsflua" />
		<tag k="natural" v="shoal" />
		<tag k="place" v="locality" />
		<tag k="ssr:stedsnr" v="147108" />
	</node>
	<node lat="59.41889721908771" lon="5.257830553129118" id="-54">
		<tag k="alt_name" v="Haugasjøen" />
		<tag k="name" v="Haugesjøen" />
		<tag k="natural" v="strait" />
		<tag k="ssr:stedsnr" v="147769" />
	</node>
	<node lat="59.4209165217657" lon="5.256198709173842" id="-57">
		<tag k="name" v="Svinholmsundet" />
		<tag k="natural" v="strait" />
		<tag k="ssr:stedsnr" v="180902" />
	</node>
	<node lat="59.418297220532715" lon="5.129677771012344" id="-58">
		<tag k="name" v="Vårskru" />
		<tag k="place" v="islet" />
		<tag k="ssr:stedsnr" v="183649" />
	</node>
	<node lat="59.50651944783935" lon="5.2233138922460824" id="-59">
		<tag k="name" v="Smørsundboen" />
		<tag k="natural" v="shoal" />
		<tag k="place" v="locality" />
		<tag k="ssr:stedsnr" v="267279" />
	</node>
	<node lat="59.44335555774992" lon="5.100566665827721" id="-63">
		<tag k="name" v="Litle Tednholmen" />
=======
<osm generator="osmapis" version="0.6">
	<node id="-9728" lat="59.4302361114" lon="5.08071110591">
		<tag k="name" v="Buholmen" />
>>>>>>> e1d4bc35ff8a6074a6f2e91616a996b547c36f15
		<tag k="place" v="islet" />
		<tag k="ssr:stedsnr" v="269091" />
	</node>
<<<<<<< HEAD
	<node lat="59.43274722422226" lon="5.103255549637806" id="-64">
		<tag k="name" v="Øreholmane" />
		<tag k="place" v="islet" />
		<tag k="ssr:stedsnr" v="269101" />
	</node>
	<node lat="59.488519443928205" lon="5.276974995452769" id="-65">
		<tag k="alt_name" v="Torsholmen" />
		<tag k="name" v="Torøy" />
		<tag k="place" v="islet" />
		<tag k="ssr:stedsnr" v="209627" />
	</node>
	<node lat="59.436108332074596" lon="5.064738884031814" id="-67">
		<tag k="alt_name" v="Midtre Seleningen" />
		<tag k="name" v="Midtre Sileningen" />
=======
	<node id="-10239" lat="59.4391861152" lon="5.09216389484">
		<tag k="name" v="Kanalen" />
		<tag k="natural" v="strait" />
		<tag k="ssr:stedsnr" v="755554" />
	</node>
	<node id="-10238" lat="59.4339888908" lon="5.07752499245">
		<tag k="name" v="Måsatongjen" />
		<tag k="natural" v="cape" />
		<tag k="ssr:stedsnr" v="755548" />
	</node>
	<node id="-10237" lat="59.4303055539" lon="5.09116666624">
		<tag k="alt_name" v="norde Bryggjeland" />
		<tag k="name" v="Nordre Bryggjeland" />
>>>>>>> e1d4bc35ff8a6074a6f2e91616a996b547c36f15
		<tag k="place" v="islet" />
		<tag k="ssr:stedsnr" v="209529" />
	</node>
<<<<<<< HEAD
	<node lat="59.43054166748392" lon="5.092694447516546" id="-72">
		<tag k="alt_name" v="himre Bryggjeland" />
		<tag k="name" v="Heimre Bryggjeland" />
=======
	<node id="-10235" lat="59.4518444441" lon="5.06836943906">
		<tag k="name" v="Røværsholmen" />
>>>>>>> e1d4bc35ff8a6074a6f2e91616a996b547c36f15
		<tag k="place" v="islet" />
		<tag k="ssr:stedsnr" v="269513" />
	</node>
<<<<<<< HEAD
	<node lat="59.430861111905486" lon="5.084474991928048" id="-73">
		<tag k="name" v="Buaneset" />
		<tag k="natural" v="cape" />
		<tag k="ssr:stedsnr" v="269516" />
	</node>
	<node lat="59.48846388430467" lon="5.22485554748352" id="-74">
		<tag k="alt_name" v="Breidbukta" />
		<tag k="name" v="Breibukta" />
=======
	<node id="-10234" lat="59.4314194438" lon="5.09516944895">
		<tag k="name" v="Bryggjelandsosen" />
>>>>>>> e1d4bc35ff8a6074a6f2e91616a996b547c36f15
		<tag k="natural" v="bay" />
		<tag k="ssr:stedsnr" v="269898" />
	</node>
<<<<<<< HEAD
	<node lat="59.46031110768348" lon="5.180016672053178" id="-77">
		<tag k="name" v="Nordre Rosse" />
		<tag k="natural" v="shoal" />
		<tag k="place" v="locality" />
		<tag k="ssr:stedsnr" v="450341" />
	</node>
	<node lat="59.45810277859481" lon="5.181305554508523" id="-78">
		<tag k="name" v="Søre Rosse" />
=======
	<node id="-10233" lat="59.437202782" lon="5.09410278332">
		<tag k="name" v="Vindkjeft" />
		<tag k="natural" v="strait" />
		<tag k="ssr:stedsnr" v="755081" />
	</node>
	<node id="-9720" lat="59.4316527764" lon="5.06094166359">
		<tag k="name" v="Vestra Sileningsflua" />
>>>>>>> e1d4bc35ff8a6074a6f2e91616a996b547c36f15
		<tag k="natural" v="shoal" />
		<tag k="place" v="locality" />
		<tag k="ssr:stedsnr" v="450344" />
	</node>
<<<<<<< HEAD
	<node lat="59.397152775351934" lon="5.282088880634467" id="-79">
		<tag k="name" v="Kvernaneset" />
		<tag k="natural" v="cape" />
		<tag k="ssr:stedsnr" v="239091" />
	</node>
	<node lat="59.39108333800966" lon="5.288958339324099" id="-80">
		<tag k="name" v="Rossabøvik" />
=======
	<node id="-10231" lat="59.4693444447" lon="5.25052776945">
		<tag k="name" v="Mekjarevik" />
		<tag k="natural" v="bay" />
		<tag k="ssr:stedsnr" v="754891" />
	</node>
	<node id="-10230" lat="59.4526305585" lon="5.24006665776">
		<tag k="name" v="Båsane" />
>>>>>>> e1d4bc35ff8a6074a6f2e91616a996b547c36f15
		<tag k="natural" v="bay" />
		<tag k="ssr:stedsnr" v="239100" />
	</node>
<<<<<<< HEAD
	<node lat="59.44068333035873" lon="5.104341662747132" id="-81">
		<tag k="name" v="Stangelandsfle" />
=======
	<node id="-9717" lat="59.4390722191" lon="5.09631666673">
		<tag k="alt_name" v="Sandesundet" />
		<tag k="name" v="Sandsund" />
>>>>>>> e1d4bc35ff8a6074a6f2e91616a996b547c36f15
		<tag k="natural" v="strait" />
		<tag k="ssr:stedsnr" v="451081" />
	</node>
<<<<<<< HEAD
	<node lat="59.44158610990092" lon="5.098547225088153" id="-83">
		<tag k="name" v="Tednholmsfle" />
		<tag k="natural" v="bay" />
		<tag k="ssr:stedsnr" v="451100" />
	</node>
	<node lat="59.48544166984416" lon="5.2252527688248955" id="-85">
		<tag k="name" v="Bekkjarvik" />
		<tag k="natural" v="bay" />
		<tag k="ssr:stedsnr" v="451911" />
	</node>
	<node lat="59.430499998671415" lon="5.110830556061898" id="-87">
		<tag k="name" v="Flatholmen" />
=======
	<node id="-9726" lat="59.4331638847" lon="5.23948888876">
		<tag k="name" v="Kvalstrynet" />
		<tag k="natural" v="cape" />
		<tag k="ssr:stedsnr" v="466758" />
	</node>
	<node id="-9712" lat="59.4380583334" lon="5.07106388246">
		<tag k="name" v="Storanespynten" />
		<tag k="natural" v="cape" />
		<tag k="ssr:stedsnr" v="452561" />
	</node>
	<node id="-10223" lat="59.4161333325" lon="5.24718056439">
		<tag k="name" v="Svinholmen" />
>>>>>>> e1d4bc35ff8a6074a6f2e91616a996b547c36f15
		<tag k="place" v="islet" />
		<tag k="ssr:stedsnr" v="244675" />
	</node>
<<<<<<< HEAD
	<node lat="59.44811389133486" lon="5.083891659383422" id="-89">
=======
	<node id="-9710" lat="59.4481138913" lon="5.08389165938">
>>>>>>> e1d4bc35ff8a6074a6f2e91616a996b547c36f15
		<tag k="name" v="Austra Varavik" />
		<tag k="natural" v="bay" />
		<tag k="ssr:stedsnr" v="452638" />
	</node>
<<<<<<< HEAD
	<node lat="59.43805833340869" lon="5.071063882461356" id="-91">
		<tag k="name" v="Storanespynten" />
		<tag k="natural" v="cape" />
		<tag k="ssr:stedsnr" v="452561" />
	</node>
	<node lat="59.43907221912769" lon="5.0963166667320285" id="-94">
		<tag k="alt_name" v="Sandesundet" />
		<tag k="name" v="Sandsund" />
=======
	<node id="-10220" lat="59.4682225788" lon="5.23611193812">
		<tag k="name" v="Terneholmen" />
		<tag k="place" v="islet" />
		<tag k="ssr:stedsnr" v="642043" />
	</node>
	<node id="-9705" lat="59.4415861099" lon="5.09854722509">
		<tag k="name" v="Tednholmsfle" />
		<tag k="natural" v="bay" />
		<tag k="ssr:stedsnr" v="451100" />
	</node>
	<node id="-10216" lat="59.4375611117" lon="5.10759445009">
		<tag k="alt_name" v="norde Ulvøyvåg" />
		<tag k="name" v="Nordre Ulvøyvåg" />
		<tag k="natural" v="bay" />
		<tag k="ssr:stedsnr" v="633082" />
	</node>
	<node id="-10215" lat="59.4354638905" lon="5.10247222705">
		<tag k="alt_name" v="Ulvøysund" />
		<tag k="name" v="Ulvøysundet" />
>>>>>>> e1d4bc35ff8a6074a6f2e91616a996b547c36f15
		<tag k="natural" v="strait" />
		<tag k="ssr:stedsnr" v="269074" />
	</node>
<<<<<<< HEAD
	<node lat="59.44496389114845" lon="5.08206944729281" id="-97">
		<tag k="name" v="Gannvik" />
=======
	<node id="-10214" lat="59.4353499977" lon="5.09760832626">
		<tag k="name" v="Storakast" />
>>>>>>> e1d4bc35ff8a6074a6f2e91616a996b547c36f15
		<tag k="natural" v="bay" />
		<tag k="ssr:stedsnr" v="269621" />
	</node>
<<<<<<< HEAD
	<node lat="59.49340833552097" lon="5.269038896104636" id="-98">
		<tag k="name" v="Roaldsneset" />
		<tag k="natural" v="cape" />
		<tag k="ssr:stedsnr" v="269622" />
	</node>
	<node lat="59.4316527764115" lon="5.060941663592507" id="-100">
		<tag k="name" v="Vestra Sileningsflua" />
=======
	<node id="-9701" lat="59.4581027786" lon="5.18130555451">
		<tag k="name" v="Søre Rosse" />
		<tag k="natural" v="shoal" />
		<tag k="place" v="locality" />
		<tag k="ssr:stedsnr" v="450344" />
	</node>
	<node id="-9700" lat="59.4603111077" lon="5.18001667205">
		<tag k="name" v="Nordre Rosse" />
>>>>>>> e1d4bc35ff8a6074a6f2e91616a996b547c36f15
		<tag k="natural" v="shoal" />
		<tag k="place" v="locality" />
		<tag k="ssr:stedsnr" v="269902" />
	</node>
<<<<<<< HEAD
	<node lat="59.38599166902793" lon="5.297408341269137" id="-106">
		<tag k="name" v="Sakkastøvik" />
		<tag k="natural" v="bay" />
		<tag k="ssr:stedsnr" v="300107" />
	</node>
	<node lat="59.43023611139952" lon="5.080711105911159" id="-109">
		<tag k="name" v="Buholmen" />
		<tag k="place" v="islet" />
		<tag k="ssr:stedsnr" v="305306" />
	</node>
	<node lat="59.424936111113986" lon="5.237313891013628" id="-112">
		<tag k="name" v="Tonjer" />
		<tag k="place" v="islet" />
		<tag k="ssr:stedsnr" v="305681" />
	</node>
	<node lat="59.433163884692206" lon="5.239488888762381" id="-114">
		<tag k="name" v="Kvalstrynet" />
		<tag k="natural" v="cape" />
		<tag k="ssr:stedsnr" v="466758" />
	</node>
	<node lat="59.41420833288269" lon="5.2558777829247125" id="-115">
		<tag k="name" v="Skagen" />
		<tag k="natural" v="cape" />
		<tag k="ssr:stedsnr" v="467860" />
	</node>
	<node lat="59.4630083308937" lon="5.181547230209649" id="-116">
		<tag k="name" v="Steinen" />
=======
	<node id="-10211" lat="59.4316975457" lon="5.22364258203">
		<tag k="name" v="Skåre-Treboen" />
		<tag k="natural" v="shoal" />
		<tag k="place" v="locality" />
		<tag k="ssr:stedsnr" v="631609" />
	</node>
	<node id="-10210" lat="59.5085972185" lon="5.16931667366">
		<tag k="name" v="Storflua" />
		<tag k="natural" v="shoal" />
		<tag k="place" v="locality" />
		<tag k="ssr:stedsnr" v="631295" />
	</node>
	<node id="-10209" lat="59.4741916664" lon="5.18795277256">
		<tag k="name" v="Storflua" />
>>>>>>> e1d4bc35ff8a6074a6f2e91616a996b547c36f15
		<tag k="natural" v="shoal" />
		<tag k="place" v="locality" />
		<tag k="ssr:stedsnr" v="328302" />
	</node>
<<<<<<< HEAD
	<node lat="59.44263611394195" lon="5.0575638938129766" id="-117">
=======
	<node id="-10207" lat="59.4687555541" lon="5.18144166463">
		<tag k="alt_name" v="Bleiskjer, store;Stora Bleiskjer" />
>>>>>>> e1d4bc35ff8a6074a6f2e91616a996b547c36f15
		<tag k="fixme" v="consider seamark:type=rock or natural=shoal" />
		<tag k="name" v="Broka" />
		<tag k="place" v="islet" />
		<tag k="ssr:stedsnr" v="329115" />
	</node>
<<<<<<< HEAD
	<node lat="59.40137222004255" lon="5.275416672717481" id="-119">
		<tag k="fixme" v="consider seamark:type=rock or natural=shoal" />
		<tag k="name" v="Storasundskjer" />
		<tag k="place" v="islet" />
		<tag k="ssr:stedsnr" v="329852" />
	</node>
	<node lat="59.41357222456002" lon="5.259474999227605" id="-120">
		<tag k="name" v="Krossen" />
=======
	<node id="-10206" lat="59.4684166627" lon="5.24001944653">
		<tag k="name" v="Førlandsvågen" />
		<tag k="natural" v="bay" />
		<tag k="ssr:stedsnr" v="609670" />
	</node>
	<node id="-9693" lat="59.4209165218" lon="5.25619870917">
		<tag k="name" v="Svinholmsundet" />
>>>>>>> e1d4bc35ff8a6074a6f2e91616a996b547c36f15
		<tag k="natural" v="strait" />
		<tag k="ssr:stedsnr" v="329755" />
	</node>
<<<<<<< HEAD
	<node lat="59.413702779865865" lon="5.244716660384104" id="-121">
		<tag k="name" v="Trollholmen" />
		<tag k="place" v="islet" />
		<tag k="ssr:stedsnr" v="329759" />
	</node>
	<node lat="59.431666670945326" lon="5.080391668991073" id="-122">
		<tag k="name" v="Buholmsundet" />
		<tag k="natural" v="strait" />
		<tag k="ssr:stedsnr" v="330562" />
	</node>
	<node lat="59.43033400909345" lon="5.1257320654204515" id="-130">
		<tag k="alt_name" v="Glåpasundet" />
		<tag k="name" v="Gloppasundet" />
		<tag k="natural" v="strait" />
		<tag k="ssr:stedsnr" v="365653" />
	</node>
	<node lat="59.47897499820681" lon="5.066822229237355" id="-132">
		<tag k="name" v="Sletta" />
		<tag k="place" v="sea" />
		<tag k="ssr:stedsnr" v="366289" />
	</node>
	<node lat="59.48831666425457" lon="5.28835554803001" id="-133">
		<tag k="bay" v="fjord" />
		<tag k="name" v="Viksefjorden" />
=======
	<node id="-10202" lat="59.4344166687" lon="5.24058610292">
		<tag k="name" v="Kvalsvik" />
		<tag k="natural" v="bay" />
		<tag k="ssr:stedsnr" v="608671" />
	</node>
	<node id="-10199" lat="59.4270750003" lon="5.25600833597">
		<tag k="name" v="Tresberg" />
		<tag k="natural" v="cape" />
		<tag k="ssr:stedsnr" v="604951" />
	</node>
	<node id="-10198" lat="59.429683332" lon="5.25384722027">
		<tag k="name" v="Lahammaren" />
		<tag k="natural" v="cape" />
		<tag k="ssr:stedsnr" v="604946" />
	</node>
	<node id="-10197" lat="59.4214472246" lon="5.25661111138">
		<tag k="name" v="Asalvika" />
>>>>>>> e1d4bc35ff8a6074a6f2e91616a996b547c36f15
		<tag k="natural" v="bay" />
		<tag k="ssr:stedsnr" v="366699" />
	</node>
<<<<<<< HEAD
	<node lat="59.384994444583796" lon="5.297727769084069" id="-134">
		<tag k="name" v="Nilsastø" />
		<tag k="natural" v="bay" />
		<tag k="ssr:stedsnr" v="482092" />
	</node>
	<node lat="59.43000277868489" lon="5.0885222284985705" id="-139">
		<tag k="name" v="Kåretåsundet" />
		<tag k="natural" v="strait" />
		<tag k="ssr:stedsnr" v="390886" />
	</node>
	<node lat="59.43833610668713" lon="5.123502778733826" id="-140">
		<tag k="name" v="Gitterøyskallen" />
=======
	<node id="-9683" lat="59.4331861071" lon="5.06918333407">
		<tag k="name" v="Torkildsflua" />
		<tag k="natural" v="shoal" />
		<tag k="place" v="locality" />
		<tag k="ssr:stedsnr" v="147108" />
	</node>
	<node id="-9681" lat="59.4016111154" lon="5.26825832867">
		<tag k="name" v="Vestra Storasundflua" />
		<tag k="natural" v="shoal" />
		<tag k="place" v="locality" />
		<tag k="ssr:stedsnr" v="146357" />
	</node>
	<node id="-9680" lat="59.44018611" lon="5.21497499385">
		<tag k="name" v="Tueskolten" />
>>>>>>> e1d4bc35ff8a6074a6f2e91616a996b547c36f15
		<tag k="natural" v="shoal" />
		<tag k="place" v="locality" />
		<tag k="ssr:stedsnr" v="390893" />
	</node>
<<<<<<< HEAD
	<node lat="59.41564721900351" lon="5.262138887527973" id="-142">
		<tag k="name" v="Nordre Smedasundet" />
		<tag k="natural" v="strait" />
		<tag k="ssr:stedsnr" v="483927" />
	</node>
	<node lat="59.416433330245454" lon="5.249777775091062" id="-143">
		<tag k="fixme" v="consider seamark:type=rock or natural=shoal" />
		<tag k="name" v="Flataskjeret" />
		<tag k="place" v="islet" />
		<tag k="ssr:stedsnr" v="483936" />
	</node>
	<node lat="59.41878333455849" lon="5.145800007765506" id="-148">
		<tag k="fixme" v="consider seamark:type=rock or natural=shoal" />
		<tag k="name" v="Seiskjer" />
		<tag k="place" v="islet" />
		<tag k="ssr:stedsnr" v="486677" />
	</node>
	<node lat="59.43477222435449" lon="5.120038883561539" id="-149">
		<tag k="alt_name" v="Gitterøy;Gjitterøy" />
		<tag k="name" v="Gitterøya" />
		<tag k="place" v="island" />
		<tag k="ssr:stedsnr" v="486695" />
	</node>
	<node lat="59.43728611082509" lon="5.098122215596705" id="-150">
		<tag k="alt_name" v="Hillerøy;Hidlersøy" />
		<tag k="name" v="Hillerøya" />
		<tag k="place" v="islet" />
		<tag k="ssr:stedsnr" v="486696" />
	</node>
	<node lat="59.3978972239" lon="5.281388887026815" id="-153">
		<tag k="name" v="Hemmingstadvika" />
		<tag k="natural" v="bay" />
		<tag k="ssr:stedsnr" v="421090" />
	</node>
	<node lat="59.50553055373841" lon="5.119383340130379" id="-154">
		<tag k="alt_name" v="Gåseskjer" />
		<tag k="fixme" v="consider seamark:type=rock or natural=shoal" />
		<tag k="name" v="Gåseskjeret" />
		<tag k="place" v="islet" />
		<tag k="ssr:stedsnr" v="428113" />
	</node>
	<node lat="59.42796666320634" lon="5.191358335111864" id="-156">
		<tag k="name" v="Vestreflua" />
		<tag k="natural" v="shoal" />
		<tag k="place" v="locality" />
		<tag k="ssr:stedsnr" v="450504" />
	</node>
	<node lat="59.42570278186995" lon="5.097119443663404" id="-157">
		<tag k="name" v="Søre Bryggjeland" />
=======
	<node id="-9679" lat="59.5004361108" lon="5.22307500794">
		<tag k="name" v="Smørsundneset" />
		<tag k="natural" v="cape" />
		<tag k="ssr:stedsnr" v="146309" />
	</node>
	<node id="-9676" lat="59.4884638843" lon="5.22485554748">
		<tag k="alt_name" v="Breidbukta" />
		<tag k="name" v="Breibukta" />
		<tag k="natural" v="bay" />
		<tag k="ssr:stedsnr" v="269898" />
	</node>
	<node id="-9719" lat="59.4934083355" lon="5.2690388961">
		<tag k="name" v="Roaldsneset" />
		<tag k="natural" v="cape" />
		<tag k="ssr:stedsnr" v="269622" />
	</node>
	<node id="-10183" lat="59.4455111128" lon="5.07850832632">
		<tag k="name" v="Gannvikneset" />
		<tag k="natural" v="cape" />
		<tag k="ssr:stedsnr" v="572622" />
	</node>
	<node id="-10182" lat="59.4411472228" lon="5.07385554772">
		<tag k="name" v="Idlaklubb" />
		<tag k="natural" v="cape" />
		<tag k="ssr:stedsnr" v="572619" />
	</node>
	<node id="-10181" lat="59.489891662" lon="5.26865832683">
		<tag k="name" v="Roaldsundet" />
		<tag k="natural" v="strait" />
		<tag k="ssr:stedsnr" v="572616" />
	</node>
	<node id="-10179" lat="59.4423305553" lon="5.08852499696">
		<tag k="alt_name" v="Suggevåg" />
		<tag k="name" v="Suggevågen" />
		<tag k="natural" v="bay" />
		<tag k="ssr:stedsnr" v="572602" />
	</node>
	<node id="-9666" lat="59.4327472242" lon="5.10325554964">
		<tag k="name" v="Øreholmane" />
>>>>>>> e1d4bc35ff8a6074a6f2e91616a996b547c36f15
		<tag k="place" v="islet" />
		<tag k="ssr:stedsnr" v="451112" />
	</node>
<<<<<<< HEAD
	<node lat="59.489669441020816" lon="5.269936106331851" id="-160">
		<tag k="name" v="Haglandsøy" />
=======
	<node id="-9665" lat="59.4433555577" lon="5.10056666583">
		<tag k="name" v="Litle Tednholmen" />
>>>>>>> e1d4bc35ff8a6074a6f2e91616a996b547c36f15
		<tag k="place" v="islet" />
		<tag k="ssr:stedsnr" v="451612" />
	</node>
<<<<<<< HEAD
	<node lat="59.44673346869217" lon="5.238960402564721" id="-171">
		<tag k="alt_name" v="Årebrotholmane" />
		<tag k="name" v="Årabrotholmane" />
		<tag k="place" v="islet" />
		<tag k="ssr:stedsnr" v="486705" />
	</node>
	<node lat="59.4953583349248" lon="5.261413888288436" id="-176">
		<tag k="name" v="Straumen" />
		<tag k="natural" v="strait" />
		<tag k="ssr:stedsnr" v="511713" />
	</node>
	<node lat="59.39359444191348" lon="5.284647221598769" id="-185">
		<tag k="name" v="Rossabønakken" />
		<tag k="natural" v="cape" />
		<tag k="ssr:stedsnr" v="543103" />
	</node>
	<node lat="59.390355558295475" lon="5.2893527741303705" id="-186">
		<tag k="name" v="Rossabøflua" />
=======
	<node id="-10176" lat="59.433561111" lon="5.08833056087">
		<tag k="alt_name" v="Buvågen" />
		<tag k="name" v="Buavågen" />
		<tag k="natural" v="bay" />
		<tag k="ssr:stedsnr" v="572532" />
	</node>
	<node id="-10174" lat="59.4524055572" lon="5.21971666216">
		<tag k="name" v="Tømmerflua" />
		<tag k="natural" v="shoal" />
		<tag k="place" v="locality" />
		<tag k="ssr:stedsnr" v="570280" />
	</node>
	<node id="-9661" lat="59.4286249963" lon="5.21086944104">
		<tag k="name" v="Indreflua" />
		<tag k="natural" v="shoal" />
		<tag k="place" v="locality" />
		<tag k="ssr:stedsnr" v="86505" />
	</node>
	<node id="-10172" lat="59.4546111128" lon="5.20415555639">
		<tag k="name" v="Grunnane" />
>>>>>>> e1d4bc35ff8a6074a6f2e91616a996b547c36f15
		<tag k="natural" v="shoal" />
		<tag k="place" v="locality" />
		<tag k="ssr:stedsnr" v="543107" />
	</node>
<<<<<<< HEAD
	<node lat="59.44178611034205" lon="5.082358333941375" id="-189">
=======
	<node id="-10170" lat="59.4417861103" lon="5.08235833394">
>>>>>>> e1d4bc35ff8a6074a6f2e91616a996b547c36f15
		<tag k="name" v="Røvær" />
		<tag k="place" v="island" />
		<tag k="ssr:stedsnr" v="548311" />
	</node>
<<<<<<< HEAD
	<node lat="59.45461111277751" lon="5.20415555639205" id="-191">
		<tag k="name" v="Grunnane" />
		<tag k="natural" v="shoal" />
		<tag k="place" v="locality" />
		<tag k="ssr:stedsnr" v="548672" />
	</node>
	<node lat="59.508094445431084" lon="5.118225002711836" id="-193">
		<tag k="name" v="Nordra Gåseskjerflua" />
		<tag k="natural" v="shoal" />
		<tag k="place" v="locality" />
		<tag k="ssr:stedsnr" v="692279" />
	</node>
	<node lat="59.50588055111754" lon="5.181524994724082" id="-194">
		<tag k="name" v="Gagnlaus" />
=======
	<node id="-10167" lat="59.3875638871" lon="5.29549166569">
		<tag k="name" v="Klubben" />
		<tag k="natural" v="cape" />
		<tag k="ssr:stedsnr" v="543130" />
	</node>
	<node id="-10166" lat="59.3903555583" lon="5.28935277413">
		<tag k="name" v="Rossabøflua" />
		<tag k="natural" v="shoal" />
		<tag k="place" v="locality" />
		<tag k="ssr:stedsnr" v="543107" />
	</node>
	<node id="-10165" lat="59.3935944419" lon="5.2846472216">
		<tag k="name" v="Rossabønakken" />
		<tag k="natural" v="cape" />
		<tag k="ssr:stedsnr" v="543103" />
	</node>
	<node id="-10164" lat="59.3913972218" lon="5.28832222252">
		<tag k="name" v="Nordre Torgersvik" />
		<tag k="natural" v="bay" />
		<tag k="ssr:stedsnr" v="543098" />
	</node>
	<node id="-10162" lat="59.4087277772" lon="5.26101667215">
		<tag k="name" v="Risøyflua" />
>>>>>>> e1d4bc35ff8a6074a6f2e91616a996b547c36f15
		<tag k="natural" v="shoal" />
		<tag k="place" v="locality" />
		<tag k="ssr:stedsnr" v="692284" />
	</node>
<<<<<<< HEAD
	<node lat="59.429033329161605" lon="5.08323332653885" id="-195">
		<tag k="fixme" v="consider seamark:type=rock or natural=shoal" />
		<tag k="name" v="Gryteskjeret" />
		<tag k="place" v="islet" />
		<tag k="ssr:stedsnr" v="693895" />
	</node>
	<node lat="59.4220305526928" lon="5.120791661113372" id="-196">
		<tag k="fixme" v="consider seamark:type=rock or natural=shoal" />
		<tag k="name" v="Mele" />
		<tag k="place" v="islet" />
		<tag k="ssr:stedsnr" v="693901" />
	</node>
	<node lat="59.4257138853743" lon="5.130394443362451" id="-198">
		<tag k="name" v="Søre Glåpen" />
		<tag k="place" v="islet" />
		<tag k="ssr:stedsnr" v="572115" />
	</node>
	<node lat="59.442330555296444" lon="5.088524996957261" id="-200">
		<tag k="alt_name" v="Suggevåg" />
		<tag k="name" v="Suggevågen" />
=======
	<node id="-10159" lat="59.4651578586" lon="5.23930884946">
		<tag k="alt_name" v="Tømmervik" />
		<tag k="name" v="Tømmervågen" />
		<tag k="natural" v="bay" />
		<tag k="ssr:stedsnr" v="427689" />
	</node>
	<node id="-10157" lat="59.4828305573" lon="5.22735277378">
		<tag k="alt_name" v="Stemnevågen;Stemmevik" />
		<tag k="name" v="Stemmevika" />
		<tag k="natural" v="bay" />
		<tag k="ssr:stedsnr" v="427683" />
	</node>
	<node id="-10156" lat="59.4924361108" lon="5.22581667031">
		<tag k="name" v="Bogshamn" />
>>>>>>> e1d4bc35ff8a6074a6f2e91616a996b547c36f15
		<tag k="natural" v="bay" />
		<tag k="ssr:stedsnr" v="572602" />
	</node>
<<<<<<< HEAD
	<node lat="59.48989166203638" lon="5.268658326834063" id="-202">
		<tag k="name" v="Roaldsundet" />
		<tag k="natural" v="strait" />
		<tag k="ssr:stedsnr" v="572616" />
	</node>
	<node lat="59.4411472228104" lon="5.073855547719478" id="-203">
		<tag k="name" v="Idlaklubb" />
		<tag k="natural" v="cape" />
		<tag k="ssr:stedsnr" v="572619" />
	</node>
	<node lat="59.445511112799636" lon="5.078508326322155" id="-204">
		<tag k="name" v="Gannvikneset" />
		<tag k="natural" v="cape" />
		<tag k="ssr:stedsnr" v="572622" />
	</node>
	<node lat="59.49855832930989" lon="5.246736114688098" id="-206">
		<tag k="loc_name" v="Seilvågen" />
		<tag k="name" v="Selvågen" />
=======
	<node id="-10155" lat="59.4421416641" lon="5.10238333985">
		<tag k="alt_name" v="Terneholmane;store Tednholmen" />
		<tag k="name" v="Terneholmen" />
		<tag k="place" v="islet" />
		<tag k="ssr:stedsnr" v="427649" />
	</node>
	<node id="-10153" lat="59.416863891" lon="5.25343889701">
		<tag k="alt_name" v="Hasseløy" />
		<tag k="name" v="Hasseløya" />
		<tag k="place" v="island" />
		<tag k="ssr:stedsnr" v="426653" />
	</node>
	<node id="-10150" lat="59.3978972239" lon="5.28138888703">
		<tag k="name" v="Hemmingstadvika" />
>>>>>>> e1d4bc35ff8a6074a6f2e91616a996b547c36f15
		<tag k="natural" v="bay" />
		<tag k="ssr:stedsnr" v="572861" />
	</node>
<<<<<<< HEAD
	<node lat="59.44451666861665" lon="5.241594440674407" id="-207">
		<tag k="name" v="Grønavik" />
=======
	<node id="-10147" lat="59.4179749992" lon="5.25151111955">
		<tag k="name" v="Hansavågen" />
>>>>>>> e1d4bc35ff8a6074a6f2e91616a996b547c36f15
		<tag k="natural" v="bay" />
		<tag k="ssr:stedsnr" v="572865" />
	</node>
<<<<<<< HEAD
	<node lat="59.43913055333374" lon="5.238786114653451" id="-217">
		<tag k="name" v="Ørevik" />
		<tag k="natural" v="bay" />
		<tag k="ssr:stedsnr" v="694843" />
	</node>
	<node lat="59.44731388684605" lon="5.2424805561246535" id="-218">
		<tag k="name" v="Kvernaneset" />
		<tag k="natural" v="cape" />
		<tag k="ssr:stedsnr" v="694861" />
	</node>
	<node lat="59.42068332897231" lon="5.2553333295700115" id="-219">
		<tag k="alt_name" v="Norde Svinholmen" />
		<tag k="name" v="Nordre Svinholmen" />
=======
	<node id="-10146" lat="59.4199305537" lon="5.25607500513">
		<tag k="name" v="Svinholmen" />
>>>>>>> e1d4bc35ff8a6074a6f2e91616a996b547c36f15
		<tag k="place" v="islet" />
		<tag k="ssr:stedsnr" v="694863" />
	</node>
<<<<<<< HEAD
	<node lat="59.43458611413582" lon="5.23652222102005" id="-222">
		<tag k="name" v="Fantaflua" />
		<tag k="natural" v="shoal" />
		<tag k="place" v="locality" />
		<tag k="ssr:stedsnr" v="587771" />
	</node>
	<node lat="59.42144722455303" lon="5.256611111380115" id="-226">
		<tag k="name" v="Asalvika" />
=======
	<node id="-10145" lat="59.4316416695" lon="5.25098334101">
		<tag k="name" v="Bussevik" />
>>>>>>> e1d4bc35ff8a6074a6f2e91616a996b547c36f15
		<tag k="natural" v="bay" />
		<tag k="ssr:stedsnr" v="604913" />
	</node>
<<<<<<< HEAD
	<node lat="59.41020832896248" lon="5.264044446403004" id="-227">
		<tag k="alt_name" v="Risøy" />
		<tag k="name" v="Risøya" />
=======
	<node id="-10140" lat="59.4185000044" lon="5.24490277547">
		<tag k="alt_name" v="Varøy" />
		<tag k="name" v="Vardøya" />
>>>>>>> e1d4bc35ff8a6074a6f2e91616a996b547c36f15
		<tag k="place" v="island" />
		<tag k="ssr:stedsnr" v="608645" />
	</node>
<<<<<<< HEAD
	<node lat="59.461566663688025" lon="5.192516668642619" id="-232">
		<tag k="alt_name" v="Bleiskjer, l" />
		<tag k="fixme" v="consider seamark:type=rock or natural=shoal" />
		<tag k="name" v="Litla Bleiskjeret" />
		<tag k="place" v="islet" />
		<tag k="ssr:stedsnr" v="609641" />
	</node>
	<node lat="59.468755554076786" lon="5.181441664633538" id="-233">
		<tag k="alt_name" v="Bleiskjer, store;Stora Bleiskjer" />
		<tag k="fixme" v="consider seamark:type=rock or natural=shoal" />
		<tag k="name" v="Stora Bleiskjeret" />
		<tag k="place" v="islet" />
		<tag k="ssr:stedsnr" v="609681" />
	</node>
	<node lat="59.474191666397246" lon="5.187952772562159" id="-237">
		<tag k="name" v="Storflua" />
		<tag k="natural" v="shoal" />
		<tag k="place" v="locality" />
		<tag k="ssr:stedsnr" v="631291" />
	</node>
	<node lat="59.50859721853208" lon="5.169316673661501" id="-238">
		<tag k="name" v="Storflua" />
		<tag k="natural" v="shoal" />
		<tag k="place" v="locality" />
		<tag k="ssr:stedsnr" v="631295" />
	</node>
	<node lat="59.431697545663184" lon="5.2236425820318475" id="-239">
		<tag k="name" v="Skåre-Treboen" />
		<tag k="natural" v="shoal" />
		<tag k="place" v="locality" />
		<tag k="ssr:stedsnr" v="631609" />
	</node>
	<node lat="59.49572222082096" lon="5.261663897633647" id="-241">
		<tag k="name" v="Vikasjøen" />
		<tag k="natural" v="bay" />
		<tag k="ssr:stedsnr" v="632720" />
	</node>
	<node lat="59.43546389053318" lon="5.102472227051889" id="-242">
		<tag k="alt_name" v="Ulvøysund" />
		<tag k="name" v="Ulvøysundet" />
=======
	<node id="-10137" lat="59.4348416634" lon="5.09147777394">
		<tag k="name" v="Uttavågen" />
		<tag k="natural" v="bay" />
		<tag k="ssr:stedsnr" v="390485" />
	</node>
	<node id="-10136" lat="59.4510083302" lon="5.06614722144">
		<tag k="name" v="Holmasundet" />
		<tag k="natural" v="strait" />
		<tag k="ssr:stedsnr" v="390479" />
	</node>
	<node id="-10132" lat="59.4883166643" lon="5.28835554803">
		<tag k="bay" v="fjord" />
		<tag k="name" v="Viksefjorden" />
		<tag k="natural" v="bay" />
		<tag k="ssr:stedsnr" v="366699" />
	</node>
	<node id="-10130" lat="59.425983333" lon="5.10708889293">
		<tag k="name" v="Røværsosen" />
>>>>>>> e1d4bc35ff8a6074a6f2e91616a996b547c36f15
		<tag k="natural" v="strait" />
		<tag k="ssr:stedsnr" v="633078" />
	</node>
<<<<<<< HEAD
	<node lat="59.43756111173133" lon="5.107594450086177" id="-243">
		<tag k="alt_name" v="norde Ulvøyvåg" />
		<tag k="name" v="Nordre Ulvøyvåg" />
		<tag k="natural" v="bay" />
		<tag k="ssr:stedsnr" v="633082" />
	</node>
	<node lat="59.42523333127543" lon="5.127263890949246" id="-244">
		<tag k="name" v="Glette" />
		<tag k="place" v="islet" />
		<tag k="ssr:stedsnr" v="633105" />
	</node>
	<node lat="59.441483328921926" lon="5.105677771105188" id="-255">
		<tag k="name" v="Stangelandssundet" />
=======
	<node id="-10128" lat="59.4303340091" lon="5.12573206542">
		<tag k="alt_name" v="Glåpasundet" />
		<tag k="name" v="Gloppasundet" />
		<tag k="natural" v="strait" />
		<tag k="ssr:stedsnr" v="365653" />
	</node>
	<node id="-9718" lat="59.4449638911" lon="5.08206944729">
		<tag k="name" v="Gannvik" />
		<tag k="natural" v="bay" />
		<tag k="ssr:stedsnr" v="269621" />
	</node>
	<node id="-10119" lat="59.4343277777" lon="5.23844165852">
		<tag k="name" v="Vesteneset" />
		<tag k="natural" v="cape" />
		<tag k="ssr:stedsnr" v="344774" />
	</node>
	<node id="-10115" lat="59.4316666709" lon="5.08039166899">
		<tag k="name" v="Buholmsundet" />
>>>>>>> e1d4bc35ff8a6074a6f2e91616a996b547c36f15
		<tag k="natural" v="strait" />
		<tag k="ssr:stedsnr" v="694071" />
	</node>
<<<<<<< HEAD
	<node lat="59.435463889107396" lon="5.081383332366117" id="-256">
		<tag k="alt_name" v="Kråkevågen" />
		<tag k="name" v="Kråkvågen" />
=======
	<node id="-10290" lat="59.4225666624" lon="5.24047221636">
		<tag k="name" v="Sjursundet" />
		<tag k="natural" v="strait" />
		<tag k="ssr:stedsnr" v="951776" />
	</node>
	<node id="-10113" lat="59.4466750023" lon="5.08260555949">
		<tag k="name" v="Vestra Varavik" />
>>>>>>> e1d4bc35ff8a6074a6f2e91616a996b547c36f15
		<tag k="natural" v="bay" />
		<tag k="ssr:stedsnr" v="694519" />
	</node>
<<<<<<< HEAD
	<node lat="59.481560771143755" lon="5.301841240687152" id="-257">
		<tag k="name" v="Søra Vågsvågen" />
		<tag k="natural" v="bay" />
		<tag k="ssr:stedsnr" v="694606" />
	</node>
	<node lat="59.43731666478415" lon="5.238502778874774" id="-259">
		<tag k="name" v="Skjelavik" />
		<tag k="natural" v="bay" />
		<tag k="ssr:stedsnr" v="694867" />
	</node>
	<node lat="59.475274996463206" lon="5.234930559475736" id="-260">
		<tag k="name" v="Såteholmen" />
=======
	<node id="-10107" lat="59.40137222" lon="5.27541667272">
		<tag k="fixme" v="consider seamark:type=rock or natural=shoal" />
		<tag k="name" v="Storasundskjer" />
>>>>>>> e1d4bc35ff8a6074a6f2e91616a996b547c36f15
		<tag k="place" v="islet" />
		<tag k="ssr:stedsnr" v="694890" />
	</node>
<<<<<<< HEAD
	<node lat="59.47611110885347" lon="5.229975005591704" id="-265">
		<tag k="alt_name" v="Bleivik" />
		<tag k="name" v="Bleivika" />
		<tag k="natural" v="bay" />
		<tag k="ssr:stedsnr" v="730727" />
	</node>
	<node lat="59.45263055851251" lon="5.24006665776083" id="-270">
		<tag k="name" v="Båsane" />
		<tag k="natural" v="bay" />
		<tag k="ssr:stedsnr" v="754854" />
	</node>
	<node lat="59.433988890794105" lon="5.0775249924519015" id="-271">
		<tag k="name" v="Måsatongjen" />
		<tag k="natural" v="cape" />
		<tag k="ssr:stedsnr" v="755548" />
	</node>
	<node lat="59.43918611523476" lon="5.0921638948373795" id="-272">
		<tag k="name" v="Kanalen" />
=======
	<node id="-10106" lat="59.4225444427" lon="5.24805555169">
		<tag k="name" v="Killingøy" />
		<tag k="place" v="island" />
		<tag k="ssr:stedsnr" v="329845" />
	</node>
	<node id="-10103" lat="59.4137027799" lon="5.24471666038">
		<tag k="name" v="Trollholmen" />
		<tag k="place" v="islet" />
		<tag k="ssr:stedsnr" v="329759" />
	</node>
	<node id="-10102" lat="59.4135722246" lon="5.25947499923">
		<tag k="name" v="Krossen" />
>>>>>>> e1d4bc35ff8a6074a6f2e91616a996b547c36f15
		<tag k="natural" v="strait" />
		<tag k="ssr:stedsnr" v="755554" />
	</node>
<<<<<<< HEAD
	<node lat="59.41185277545498" lon="5.248944440379869" id="-276">
		<tag k="name" v="Storåkergrunnen" />
		<tag k="natural" v="shoal" />
		<tag k="place" v="locality" />
		<tag k="ssr:stedsnr" v="770860" />
	</node>
	<node lat="59.419611115836915" lon="5.24310000801894" id="-280">
		<tag k="alt_name" v="Gardsøy" />
		<tag k="name" v="Gardsøya" />
		<tag k="place" v="islet" />
		<tag k="ssr:stedsnr" v="790691" />
	</node>
	<node lat="59.450166663495004" lon="5.237588887715912" id="-285">
		<tag k="name" v="Flateholmane" />
=======
	<node id="-10099" lat="59.4426361139" lon="5.05756389381">
		<tag k="fixme" v="consider seamark:type=rock or natural=shoal" />
		<tag k="name" v="Broka" />
		<tag k="place" v="islet" />
		<tag k="ssr:stedsnr" v="329115" />
	</node>
	<node id="-10191" lat="59.4345861141" lon="5.23652222102">
		<tag k="name" v="Fantaflua" />
		<tag k="natural" v="shoal" />
		<tag k="place" v="locality" />
		<tag k="ssr:stedsnr" v="587771" />
	</node>
	<node id="-10094" lat="59.4249361111" lon="5.23731389101">
		<tag k="name" v="Tonjer" />
		<tag k="place" v="islet" />
		<tag k="ssr:stedsnr" v="305681" />
	</node>
	<node id="-10089" lat="59.4182777824" lon="5.13973056078">
		<tag k="fixme" v="consider seamark:type=rock or natural=shoal" />
		<tag k="name" v="Kapp Lars" />
>>>>>>> e1d4bc35ff8a6074a6f2e91616a996b547c36f15
		<tag k="place" v="islet" />
		<tag k="ssr:stedsnr" v="815872" />
	</node>
<<<<<<< HEAD
	<node lat="59.4286861106889" lon="5.254044438000076" id="-286">
		<tag k="name" v="Søtevik" />
		<tag k="natural" v="bay" />
		<tag k="ssr:stedsnr" v="815882" />
	</node>
	<node lat="59.50310555590764" lon="5.227808333457394" id="-287">
		<tag k="name" v="Sørasundet" />
		<tag k="natural" v="strait" />
		<tag k="ssr:stedsnr" v="815911" />
	</node>
	<node lat="59.437672218721296" lon="5.113183335148514" id="-288">
		<tag k="alt_name" v="Gjitterøysundet" />
		<tag k="name" v="Gitterøysundet" />
		<tag k="natural" v="strait" />
		<tag k="ssr:stedsnr" v="816104" />
	</node>
	<node lat="59.43205277793612" lon="5.119511108132036" id="-289">
		<tag k="name" v="Joenhavet" />
=======
	<node id="-10085" lat="59.4373444433" lon="5.06190833549">
		<tag k="name" v="Skasundsholmen" />
		<tag k="place" v="islet" />
		<tag k="ssr:stedsnr" v="209549" />
	</node>
	<node id="-10083" lat="59.4885194439" lon="5.27697499545">
		<tag k="alt_name" v="Torsholmen" />
		<tag k="name" v="Torøy" />
		<tag k="place" v="islet" />
		<tag k="ssr:stedsnr" v="209627" />
	</node>
	<node id="-10082" lat="59.4410833305" lon="5.06802221596">
		<tag k="fixme" v="consider seamark:type=rock or natural=shoal" />
		<tag k="name" v="Skarvaskjeret" />
		<tag k="place" v="islet" />
		<tag k="ssr:stedsnr" v="209625" />
	</node>
	<node id="-10081" lat="59.4853027792" lon="5.26228056022">
		<tag k="name" v="Mjelkevik" />
>>>>>>> e1d4bc35ff8a6074a6f2e91616a996b547c36f15
		<tag k="natural" v="bay" />
		<tag k="ssr:stedsnr" v="816105" />
	</node>
<<<<<<< HEAD
	<node lat="59.449849998178976" lon="5.068608341052671" id="-290">
		<tag k="name" v="Midtholmen" />
		<tag k="place" v="islet" />
		<tag k="ssr:stedsnr" v="816671" />
	</node>
	<node lat="59.44398055916768" lon="5.081997225000337" id="-292">
		<tag k="name" v="Loten" />
		<tag k="natural" v="cape" />
		<tag k="ssr:stedsnr" v="816679" />
	</node>
	<node lat="59.48626388533897" lon="5.254783332208779" id="-293">
		<tag k="name" v="Røyteholå" />
=======
	<node id="-10078" lat="59.4364638865" lon="5.10557222955">
		<tag k="name" v="Søre Ulvøyvåg" />
		<tag k="natural" v="bay" />
		<tag k="ssr:stedsnr" v="209071" />
	</node>
	<node id="-10076" lat="59.4757999991" lon="5.24263611587">
		<tag k="name" v="Søravik" />
		<tag k="natural" v="bay" />
		<tag k="ssr:stedsnr" v="208891" />
	</node>
	<node id="-10075" lat="59.4739777794" lon="5.23977500652">
		<tag k="name" v="Djupevik" />
>>>>>>> e1d4bc35ff8a6074a6f2e91616a996b547c36f15
		<tag k="natural" v="bay" />
		<tag k="ssr:stedsnr" v="816883" />
	</node>
<<<<<<< HEAD
	<node lat="59.46984722028818" lon="5.231780561700631" id="-297">
		<tag k="alt_name" v="Rassadleneset" />
		<tag k="name" v="Rassaleneset" />
=======
	<node id="-10074" lat="59.4564194441" lon="5.23504721357">
		<tag k="name" v="Tømmehammarsodden" />
>>>>>>> e1d4bc35ff8a6074a6f2e91616a996b547c36f15
		<tag k="natural" v="cape" />
		<tag k="ssr:stedsnr" v="852671" />
	</node>
<<<<<<< HEAD
	<node lat="59.51173610875857" lon="5.176158334903145" id="-300">
		<tag k="fixme" v="consider seamark:type=rock or natural=shoal" />
		<tag k="name" v="Seiskjeret" />
		<tag k="place" v="islet" />
		<tag k="ssr:stedsnr" v="853156" />
	</node>
	<node lat="59.429269447489" lon="5.240680554063971" id="-301">
		<tag k="name" v="Gardsvik" />
=======
	<node id="-10072" lat="59.4977333367" lon="5.25576388586">
		<tag k="name" v="Straumen" />
		<tag k="natural" v="strait" />
		<tag k="ssr:stedsnr" v="208855" />
	</node>
	<node id="-10068" lat="59.4395333334" lon="5.1061305576">
		<tag k="name" v="Stangelandsvågen" />
>>>>>>> e1d4bc35ff8a6074a6f2e91616a996b547c36f15
		<tag k="natural" v="bay" />
		<tag k="ssr:stedsnr" v="876873" />
	</node>
<<<<<<< HEAD
	<node lat="59.40334166542771" lon="5.271788893445156" id="-302">
		<tag k="fixme" v="consider seamark:type=rock or natural=shoal" />
		<tag k="name" v="Risøyskjer" />
		<tag k="place" v="islet" />
		<tag k="ssr:stedsnr" v="876874" />
	</node>
	<node lat="59.4348944472914" lon="5.063286112243086" id="-303">
		<tag k="fixme" v="consider seamark:type=rock or natural=shoal" />
		<tag k="name" v="Hekssete" />
		<tag k="place" v="islet" />
		<tag k="ssr:stedsnr" v="876551" />
	</node>
	<node lat="59.49790000153624" lon="5.116138880993213" id="-310">
		<tag k="alt_name" v="Gåseskallen" />
		<tag k="name" v="Gåsaskallen" />
		<tag k="natural" v="shoal" />
		<tag k="place" v="locality" />
		<tag k="ssr:stedsnr" v="912741" />
	</node>
	<node lat="59.45527222290901" lon="5.183849993147595" id="-311">
		<tag k="name" v="Jøsseflua" />
		<tag k="natural" v="shoal" />
		<tag k="place" v="locality" />
		<tag k="ssr:stedsnr" v="935326" />
	</node>
	<node lat="59.49396944494899" lon="5.2261777864893535" id="-312">
		<tag k="name" v="Litla Skiftesvik" />
=======
	<node id="-10065" lat="59.4182972205" lon="5.12967777101">
		<tag k="name" v="Vårskru" />
		<tag k="place" v="islet" />
		<tag k="ssr:stedsnr" v="183649" />
	</node>
	<node id="-9698" lat="59.4459972202" lon="5.06997777222">
		<tag k="name" v="Holmosen" />
		<tag k="natural" v="bay" />
		<tag k="ssr:stedsnr" v="245278" />
	</node>
	<node id="-10295" lat="59.4280323996" lon="5.12859050566">
		<tag k="loc_name" v="Glåpene" />
		<tag k="name" v="Gloppene" />
		<tag k="place" v="islet" />
		<tag k="ssr:stedsnr" v="977641" />
	</node>
	<node id="-9697" lat="59.4433861141" lon="5.07592778007">
		<tag k="alt_name" v="Utslettaneset" />
		<tag k="name" v="Utslettneset" />
		<tag k="natural" v="cape" />
		<tag k="ssr:stedsnr" v="245277" />
	</node>
	<node id="-10052" lat="59.4443249986" lon="5.08507778547">
		<tag k="name" v="Seiavågen" />
		<tag k="natural" v="bay" />
		<tag k="ssr:stedsnr" v="148650" />
	</node>
	<node id="-10051" lat="59.4701333351" lon="5.3224388871">
		<tag k="name" v="Dyrsnes" />
		<tag k="natural" v="cape" />
		<tag k="ssr:stedsnr" v="148049" />
	</node>
	<node id="-10049" lat="59.4238166699" lon="5.08849443612">
		<tag k="name" v="Luseflua" />
		<tag k="natural" v="shoal" />
		<tag k="place" v="locality" />
		<tag k="ssr:stedsnr" v="147882" />
	</node>
	<node id="-10048" lat="59.4236472202" lon="5.23805277564">
		<tag k="name" v="Sørhaugøy" />
		<tag k="place" v="island" />
		<tag k="ssr:stedsnr" v="147843" />
	</node>
	<node id="-10047" lat="59.4506972182" lon="5.23853611515">
		<tag k="name" v="Grunnasund" />
		<tag k="natural" v="strait" />
		<tag k="ssr:stedsnr" v="147840" />
	</node>
	<node id="-10046" lat="59.4074888888" lon="5.04586943941">
		<tag k="alt_name" v="Urtrafjorden" />
		<tag k="bay" v="fjord" />
		<tag k="name" v="Urterfjorden" />
>>>>>>> e1d4bc35ff8a6074a6f2e91616a996b547c36f15
		<tag k="natural" v="bay" />
		<tag k="ssr:stedsnr" v="936884" />
	</node>
<<<<<<< HEAD
	<node lat="59.42877500374929" lon="5.127661118499439" id="-313">
		<tag k="alt_name" v="norde Glåpen" />
		<tag k="name" v="Nordre Glåpen" />
		<tag k="place" v="islet" />
		<tag k="ssr:stedsnr" v="937109" />
	</node>
	<node lat="59.434383334273136" lon="5.111694438887928" id="-314">
		<tag k="fixme" v="consider seamark:type=rock or natural=shoal" />
		<tag k="name" v="Ankerskjer" />
		<tag k="place" v="islet" />
		<tag k="ssr:stedsnr" v="937114" />
	</node>
	<node lat="59.43329444115199" lon="5.084675006368107" id="-315">
		<tag k="name" v="Va" />
=======
	<node id="-10042" lat="59.4385361144" lon="5.10560556022">
		<tag k="alt_name" v="Ulvøy" />
		<tag k="name" v="Ulvøya" />
		<tag k="place" v="island" />
		<tag k="ssr:stedsnr" v="122660" />
	</node>
	<node id="-9695" lat="59.4361083321" lon="5.06473888403">
		<tag k="alt_name" v="Midtre Seleningen" />
		<tag k="name" v="Midtre Sileningen" />
		<tag k="place" v="islet" />
		<tag k="ssr:stedsnr" v="209529" />
	</node>
	<node id="-10037" lat="59.4233805524" lon="5.25502223126">
		<tag k="name" v="Haugaklubben" />
		<tag k="natural" v="cape" />
		<tag k="ssr:stedsnr" v="119955" />
	</node>
	<node id="-10036" lat="59.4259" lon="5.25731944697">
		<tag k="name" v="Skreppa" />
>>>>>>> e1d4bc35ff8a6074a6f2e91616a996b547c36f15
		<tag k="natural" v="bay" />
		<tag k="ssr:stedsnr" v="937539" />
	</node>
<<<<<<< HEAD
	<node lat="59.38889444399667" lon="5.292597217425687" id="-319">
		<tag k="name" v="Kleivastø" />
=======
	<node id="-10034" lat="59.3867666665" lon="5.2955805625">
		<tag k="name" v="Djupastø" />
>>>>>>> e1d4bc35ff8a6074a6f2e91616a996b547c36f15
		<tag k="natural" v="bay" />
		<tag k="ssr:stedsnr" v="967088" />
	</node>
<<<<<<< HEAD
	<node lat="59.443944444600845" lon="5.215844442238044" id="-326">
		<tag k="name" v="Nordre Skolten" />
		<tag k="natural" v="shoal" />
		<tag k="place" v="locality" />
		<tag k="ssr:stedsnr" v="25351" />
	</node>
	<node lat="59.42677499978062" lon="5.128802783247735" id="-330">
		<tag k="name" v="Midt-Glåpen" />
		<tag k="place" v="islet" />
		<tag k="ssr:stedsnr" v="27088" />
	</node>
	<node lat="59.44754444007277" lon="5.239111109868406" id="-331">
		<tag k="name" v="Høgeholmen" />
		<tag k="place" v="islet" />
		<tag k="ssr:stedsnr" v="27877" />
	</node>
	<node lat="59.42608055249918" lon="5.091405557719679" id="-333">
		<tag k="name" v="Fugleholmane" />
		<tag k="place" v="islet" />
		<tag k="ssr:stedsnr" v="27550" />
	</node>
	<node lat="59.43977499639367" lon="5.073586113291924" id="-334">
		<tag k="name" v="Ravnareilet" />
		<tag k="natural" v="bay" />
		<tag k="ssr:stedsnr" v="27557" />
	</node>
	<node lat="59.44438888758858" lon="5.090247214123285" id="-335">
		<tag k="name" v="Nipsholmfle" />
		<tag k="natural" v="bay" />
		<tag k="ssr:stedsnr" v="27634" />
	</node>
	<node lat="59.48711388570183" lon="5.267922227280378" id="-336">
		<tag k="name" v="Haglandsholmen" />
		<tag k="place" v="islet" />
		<tag k="ssr:stedsnr" v="27638" />
	</node>
	<node lat="59.44264721805492" lon="5.239108340316069" id="-338">
=======
	<node id="-10027" lat="59.413438893" lon="5.26291111732">
		<tag k="name" v="Kortaneset" />
		<tag k="natural" v="cape" />
		<tag k="ssr:stedsnr" v="103838" />
	</node>
	<node id="-10025" lat="59.4116861073" lon="5.26749167453">
		<tag k="name" v="Smedasundet" />
		<tag k="natural" v="strait" />
		<tag k="ssr:stedsnr" v="87941" />
	</node>
	<node id="-10020" lat="59.417972218" lon="5.13625000476">
>>>>>>> e1d4bc35ff8a6074a6f2e91616a996b547c36f15
		<tag k="fixme" v="consider seamark:type=rock or natural=shoal" />
		<tag k="name" v="Rauaskjer" />
		<tag k="place" v="islet" />
		<tag k="ssr:stedsnr" v="27852" />
	</node>
<<<<<<< HEAD
	<node lat="59.43361388764622" lon="5.1965416742801445" id="-342">
		<tag k="alt_name" v="Skåreskage" />
		<tag k="name" v="Skåreskaget" />
=======
	<node id="-10019" lat="59.4441583338" lon="5.07631944149">
		<tag k="name" v="Kjydleren" />
>>>>>>> e1d4bc35ff8a6074a6f2e91616a996b547c36f15
		<tag k="place" v="islet" />
		<tag k="ssr:stedsnr" v="62646" />
	</node>
<<<<<<< HEAD
	<node lat="59.41998055889262" lon="5.139855557222276" id="-344">
		<tag k="name" v="Indrevær" />
		<tag k="place" v="island" />
		<tag k="ssr:stedsnr" v="62662" />
	</node>
	<node lat="59.472549996822686" lon="5.228811104179796" id="-345">
		<tag k="name" v="Stølsholmen" />
		<tag k="place" v="islet" />
		<tag k="ssr:stedsnr" v="63695" />
	</node>
	<node lat="59.51022777422129" lon="5.191591672688383" id="-350">
=======
	<node id="-10012" lat="59.4355749995" lon="5.06278889393">
		<tag k="alt_name" v="Søre Seleningen" />
		<tag k="name" v="Søre Sileningen" />
		<tag k="place" v="islet" />
		<tag k="ssr:stedsnr" v="87518" />
	</node>
	<node id="-10287" lat="59.4950777755" lon="5.226419437">
		<tag k="alt_name" v="Skiftesvik;stora Skiftesvik" />
		<tag k="name" v="Skiftesvika" />
		<tag k="natural" v="bay" />
		<tag k="ssr:stedsnr" v="852698" />
	</node>
	<node id="-10008" lat="59.4331555554" lon="5.09841667123">
		<tag k="name" v="Hidlerstongjen" />
		<tag k="natural" v="cape" />
		<tag k="ssr:stedsnr" v="87090" />
	</node>
	<node id="-10006" lat="59.5102277742" lon="5.19159167269">
>>>>>>> e1d4bc35ff8a6074a6f2e91616a996b547c36f15
		<tag k="alt_name" v="Ramnsholmane" />
		<tag k="name" v="Ramsholmane" />
		<tag k="place" v="islet" />
		<tag k="ssr:stedsnr" v="64175" />
	</node>
<<<<<<< HEAD
	<node lat="59.44415833375756" lon="5.076319441494077" id="-351">
		<tag k="name" v="Kjydleren" />
=======
	<node id="-10003" lat="59.4725499968" lon="5.22881110418">
		<tag k="name" v="Stølsholmen" />
>>>>>>> e1d4bc35ff8a6074a6f2e91616a996b547c36f15
		<tag k="place" v="islet" />
		<tag k="ssr:stedsnr" v="87600" />
	</node>
<<<<<<< HEAD
	<node lat="59.43557499954928" lon="5.062788893931207" id="-357">
		<tag k="alt_name" v="Søre Seleningen" />
		<tag k="name" v="Søre Sileningen" />
=======
	<node id="-10000" lat="59.4326454124" lon="5.07327597242">
		<tag k="alt_name" v="Kråkevågskjeret" />
		<tag k="fixme" v="consider seamark:type=rock or natural=shoal" />
		<tag k="name" v="Kråkvågskjeret" />
>>>>>>> e1d4bc35ff8a6074a6f2e91616a996b547c36f15
		<tag k="place" v="islet" />
		<tag k="ssr:stedsnr" v="87518" />
	</node>
<<<<<<< HEAD
	<node lat="59.41168610729065" lon="5.267491674527547" id="-365">
		<tag k="name" v="Smedasundet" />
		<tag k="natural" v="strait" />
		<tag k="ssr:stedsnr" v="87941" />
	</node>
	<node lat="59.41343889302594" lon="5.262911117318156" id="-366">
		<tag k="name" v="Kortaneset" />
		<tag k="natural" v="cape" />
		<tag k="ssr:stedsnr" v="103838" />
	</node>
	<node lat="59.386766666454974" lon="5.29558056250106" id="-369">
		<tag k="name" v="Djupastø" />
		<tag k="natural" v="bay" />
		<tag k="ssr:stedsnr" v="118099" />
	</node>
	<node lat="59.42589999997486" lon="5.257319446967812" id="-370">
		<tag k="name" v="Skreppa" />
		<tag k="natural" v="bay" />
		<tag k="ssr:stedsnr" v="119950" />
	</node>
	<node lat="59.423380552441024" lon="5.255022231259609" id="-371">
		<tag k="name" v="Haugaklubben" />
		<tag k="natural" v="cape" />
		<tag k="ssr:stedsnr" v="119955" />
	</node>
	<node lat="59.43853611443407" lon="5.105605560218667" id="-375">
		<tag k="alt_name" v="Ulvøy" />
		<tag k="name" v="Ulvøya" />
=======
	<node id="-9999" lat="59.4365166693" lon="5.21498056114">
		<tag k="alt_name" v="Redjung" />
		<tag k="fixme" v="consider seamark:type=rock or natural=shoal" />
		<tag k="name" v="Reidungen" />
		<tag k="place" v="islet" />
		<tag k="ssr:stedsnr" v="62683" />
	</node>
	<node id="-9997" lat="59.4415972203" lon="5.09543055323">
		<tag k="alt_name" v="Ur" />
		<tag k="name" v="Urd" />
		<tag k="place" v="island" />
		<tag k="ssr:stedsnr" v="62680" />
	</node>
	<node id="-9727" lat="59.385991669" lon="5.29740834127">
		<tag k="name" v="Sakkastøvik" />
		<tag k="natural" v="bay" />
		<tag k="ssr:stedsnr" v="300107" />
	</node>
	<node id="-10257" lat="59.4383111133" lon="5.14881944489">
		<tag k="bay" v="fjord" />
		<tag k="name" v="Røværsfjorden" />
		<tag k="natural" v="bay" />
		<tag k="ssr:stedsnr" v="790717" />
	</node>
	<node id="-9994" lat="59.4199805589" lon="5.13985555722">
		<tag k="name" v="Indrevær" />
>>>>>>> e1d4bc35ff8a6074a6f2e91616a996b547c36f15
		<tag k="place" v="island" />
		<tag k="ssr:stedsnr" v="122660" />
	</node>
<<<<<<< HEAD
	<node lat="59.40748888878126" lon="5.045869439414792" id="-379">
		<tag k="alt_name" v="Urtrafjorden" />
		<tag k="bay" v="fjord" />
		<tag k="name" v="Urterfjorden" />
		<tag k="natural" v="bay" />
		<tag k="ssr:stedsnr" v="123748" />
	</node>
	<node lat="59.40161111540745" lon="5.268258328672679" id="-380">
		<tag k="name" v="Vestra Storasundflua" />
=======
	<node id="-9992" lat="59.4336138876" lon="5.19654167428">
		<tag k="alt_name" v="Skåreskage" />
		<tag k="name" v="Skåreskaget" />
		<tag k="place" v="islet" />
		<tag k="ssr:stedsnr" v="62646" />
	</node>
	<node id="-9990" lat="59.4575611097" lon="5.1841749962">
		<tag k="name" v="Dettingen" />
>>>>>>> e1d4bc35ff8a6074a6f2e91616a996b547c36f15
		<tag k="natural" v="shoal" />
		<tag k="place" v="locality" />
		<tag k="ssr:stedsnr" v="146357" />
	</node>
<<<<<<< HEAD
	<node lat="59.440647220328316" lon="5.239111105363461" id="-381">
		<tag k="name" v="Sjåvik" />
=======
	<node id="-9686" lat="59.4188972191" lon="5.25783055313">
		<tag k="alt_name" v="Haugasjøen" />
		<tag k="name" v="Haugesjøen" />
		<tag k="natural" v="strait" />
		<tag k="ssr:stedsnr" v="147769" />
	</node>
	<node id="-9985" lat="59.3939333295" lon="5.2836055579">
		<tag k="name" v="Hansastø" />
>>>>>>> e1d4bc35ff8a6074a6f2e91616a996b547c36f15
		<tag k="natural" v="bay" />
		<tag k="ssr:stedsnr" v="147821" />
	</node>
<<<<<<< HEAD
	<node lat="59.450697218176295" lon="5.238536115145316" id="-382">
		<tag k="name" v="Grunnasund" />
		<tag k="natural" v="strait" />
		<tag k="ssr:stedsnr" v="147840" />
	</node>
	<node lat="59.42364722022705" lon="5.23805277564398" id="-383">
		<tag k="name" v="Sørhaugøy" />
		<tag k="place" v="island" />
		<tag k="ssr:stedsnr" v="147843" />
	</node>
	<node lat="59.423816669880736" lon="5.0884944361174655" id="-384">
		<tag k="name" v="Luseflua" />
		<tag k="natural" v="shoal" />
=======
	<node id="-9982" lat="59.4039326321" lon="5.27548544457">
		<tag k="alt_name" v="Østre Storasundflua" />
		<tag k="name" v="Austra Storasundflua" />
>>>>>>> e1d4bc35ff8a6074a6f2e91616a996b547c36f15
		<tag k="place" v="locality" />
		<tag k="ssr:stedsnr" v="147882" />
	</node>
<<<<<<< HEAD
	<node lat="59.47013333509649" lon="5.322438887100123" id="-386">
		<tag k="name" v="Dyrsnes" />
		<tag k="natural" v="cape" />
		<tag k="ssr:stedsnr" v="148049" />
	</node>
	<node lat="59.444324998633604" lon="5.0850777854657165" id="-387">
		<tag k="name" v="Seiavågen" />
=======
	<node id="-9981" lat="59.4169222195" lon="5.24674166421">
		<tag k="name" v="Løvågen" />
>>>>>>> e1d4bc35ff8a6074a6f2e91616a996b547c36f15
		<tag k="natural" v="bay" />
		<tag k="ssr:stedsnr" v="148650" />
	</node>
<<<<<<< HEAD
	<node lat="59.497733336671175" lon="5.255763885856606" id="-404">
		<tag k="name" v="Straumen" />
		<tag k="natural" v="strait" />
		<tag k="ssr:stedsnr" v="208855" />
	</node>
	<node lat="59.45641944411364" lon="5.235047213565286" id="-406">
		<tag k="name" v="Tømmehammarsodden" />
		<tag k="natural" v="cape" />
		<tag k="ssr:stedsnr" v="208867" />
	</node>
	<node lat="59.473977779401594" lon="5.239775006522349" id="-407">
		<tag k="name" v="Djupevik" />
		<tag k="natural" v="bay" />
		<tag k="ssr:stedsnr" v="208890" />
	</node>
	<node lat="59.475799999053805" lon="5.242636115868792" id="-408">
		<tag k="name" v="Søravik" />
		<tag k="natural" v="bay" />
		<tag k="ssr:stedsnr" v="208891" />
	</node>
	<node lat="59.43953333343826" lon="5.106130557602968" id="-410">
		<tag k="name" v="Stangelandsvågen" />
=======
	<node id="-9980" lat="59.4475444401" lon="5.23911110987">
		<tag k="name" v="Høgeholmen" />
		<tag k="place" v="islet" />
		<tag k="ssr:stedsnr" v="27877" />
	</node>
	<node id="-9979" lat="59.4426472181" lon="5.23910834032">
		<tag k="fixme" v="consider seamark:type=rock or natural=shoal" />
		<tag k="name" v="Rauaskjer" />
		<tag k="place" v="islet" />
		<tag k="ssr:stedsnr" v="27852" />
	</node>
	<node id="-9978" lat="59.4166083297" lon="5.13884166716">
		<tag k="alt_name" v="Julabåen" />
		<tag k="fixme" v="consider seamark:type=rock or natural=shoal" />
		<tag k="name" v="Julaboane" />
		<tag k="place" v="islet" />
		<tag k="ssr:stedsnr" v="27781" />
	</node>
	<node id="-9976" lat="59.4871138857" lon="5.26792222728">
		<tag k="name" v="Haglandsholmen" />
		<tag k="place" v="islet" />
		<tag k="ssr:stedsnr" v="27638" />
	</node>
	<node id="-9975" lat="59.4443888876" lon="5.09024721412">
		<tag k="name" v="Nipsholmfle" />
>>>>>>> e1d4bc35ff8a6074a6f2e91616a996b547c36f15
		<tag k="natural" v="bay" />
		<tag k="ssr:stedsnr" v="209066" />
	</node>
<<<<<<< HEAD
	<node lat="59.43646388646277" lon="5.105572229554077" id="-411">
		<tag k="name" v="Søre Ulvøyvåg" />
=======
	<node id="-9974" lat="59.4397749964" lon="5.07358611329">
		<tag k="name" v="Ravnareilet" />
>>>>>>> e1d4bc35ff8a6074a6f2e91616a996b547c36f15
		<tag k="natural" v="bay" />
		<tag k="ssr:stedsnr" v="209071" />
	</node>
<<<<<<< HEAD
	<node lat="59.43734444326931" lon="5.061908335491636" id="-412">
		<tag k="name" v="Skasundsholmen" />
=======
	<node id="-9973" lat="59.4260805525" lon="5.09140555772">
		<tag k="name" v="Fugleholmane" />
>>>>>>> e1d4bc35ff8a6074a6f2e91616a996b547c36f15
		<tag k="place" v="islet" />
		<tag k="ssr:stedsnr" v="209549" />
	</node>
<<<<<<< HEAD
	<node lat="59.44108333051656" lon="5.068022215957068" id="-416">
		<tag k="fixme" v="consider seamark:type=rock or natural=shoal" />
		<tag k="name" v="Skarvaskjeret" />
=======
	<node id="-9972" lat="59.4267749998" lon="5.12880278325">
		<tag k="name" v="Midt-Glåpen" />
>>>>>>> e1d4bc35ff8a6074a6f2e91616a996b547c36f15
		<tag k="place" v="islet" />
		<tag k="ssr:stedsnr" v="209625" />
	</node>
<<<<<<< HEAD
	<node lat="59.48530277916767" lon="5.262280560219053" id="-417">
		<tag k="name" v="Mjelkevik" />
		<tag k="natural" v="bay" />
		<tag k="ssr:stedsnr" v="209621" />
	</node>
	<node lat="59.41827778243243" lon="5.139730560782514" id="-418">
		<tag k="fixme" v="consider seamark:type=rock or natural=shoal" />
		<tag k="name" v="Kapp Lars" />
		<tag k="place" v="islet" />
		<tag k="ssr:stedsnr" v="209776" />
	</node>
	<node lat="59.39393332951665" lon="5.283605557896059" id="-424">
		<tag k="name" v="Hansastø" />
=======
	<node id="-9971" lat="59.4451888917" lon="5.09358889159">
		<tag k="name" v="Austra Nipsholmsundet" />
		<tag k="natural" v="strait" />
		<tag k="ssr:stedsnr" v="27082" />
	</node>
	<node id="-9970" lat="59.4428916669" lon="5.09870277113">
		<tag k="name" v="Lusakloven" />
>>>>>>> e1d4bc35ff8a6074a6f2e91616a996b547c36f15
		<tag k="natural" v="bay" />
		<tag k="ssr:stedsnr" v="300097" />
	</node>
<<<<<<< HEAD
	<node lat="59.42254444272661" lon="5.2480555516896885" id="-430">
		<tag k="name" v="Killingøy" />
		<tag k="place" v="island" />
		<tag k="ssr:stedsnr" v="329845" />
	</node>
	<node lat="59.443352773910036" lon="5.095405553327827" id="-437">
		<tag k="name" v="Hollkoppevik" />
		<tag k="natural" v="bay" />
		<tag k="ssr:stedsnr" v="330115" />
	</node>
	<node lat="59.44667500225165" lon="5.082605559488614" id="-439">
		<tag k="name" v="Vestra Varavik" />
		<tag k="natural" v="bay" />
		<tag k="ssr:stedsnr" v="330661" />
	</node>
	<node lat="59.43432777767209" lon="5.238441658522784" id="-443">
		<tag k="name" v="Vesteneset" />
=======
	<node id="-9965" lat="59.4330944471" lon="5.2392861039">
		<tag k="name" v="Kvalen" />
>>>>>>> e1d4bc35ff8a6074a6f2e91616a996b547c36f15
		<tag k="natural" v="cape" />
		<tag k="ssr:stedsnr" v="344774" />
	</node>
<<<<<<< HEAD
	<node lat="59.4052222208341" lon="5.270041664410555" id="-444">
		<tag k="name" v="Risøyvågen" />
=======
	<node id="-9964" lat="59.4460027793" lon="5.24407778549">
		<tag k="name" v="Joå" />
>>>>>>> e1d4bc35ff8a6074a6f2e91616a996b547c36f15
		<tag k="natural" v="bay" />
		<tag k="ssr:stedsnr" v="345852" />
	</node>
<<<<<<< HEAD
	<node lat="59.42598333295269" lon="5.107088892928895" id="-452">
		<tag k="name" v="Røværsosen" />
		<tag k="natural" v="strait" />
		<tag k="ssr:stedsnr" v="365663" />
	</node>
	<node lat="59.45100833020214" lon="5.066147221437914" id="-456">
		<tag k="name" v="Holmasundet" />
		<tag k="natural" v="strait" />
		<tag k="ssr:stedsnr" v="390479" />
	</node>
	<node lat="59.43484166343952" lon="5.0914777739350034" id="-457">
		<tag k="name" v="Uttavågen" />
		<tag k="natural" v="bay" />
		<tag k="ssr:stedsnr" v="390485" />
	</node>
	<node lat="59.442661106558155" lon="5.091952772511953" id="-458">
		<tag k="name" v="Mjørsund" />
		<tag k="natural" v="strait" />
		<tag k="ssr:stedsnr" v="390565" />
	</node>
	<node lat="59.41850000438403" lon="5.244902775470945" id="-460">
		<tag k="alt_name" v="Varøy" />
		<tag k="name" v="Vardøya" />
		<tag k="place" v="island" />
		<tag k="ssr:stedsnr" v="390781" />
	</node>
	<node lat="59.43446388936831" lon="5.238275000220424" id="-461">
		<tag k="alt_name" v="norde Kvalen" />
		<tag k="name" v="Nordre Kvalen" />
		<tag k="natural" v="cape" />
		<tag k="ssr:stedsnr" v="390858" />
	</node>
	<node lat="59.43885555684013" lon="5.240386113379882" id="-462">
		<tag k="name" v="Årabrotsvågen" />
=======
	<node id="-9961" lat="59.4393833366" lon="5.05435834087">
		<tag k="name" v="Søra Brokeflua" />
		<tag k="natural" v="shoal" />
		<tag k="place" v="locality" />
		<tag k="ssr:stedsnr" v="26112" />
	</node>
	<node id="-9960" lat="59.4439444446" lon="5.21584444224">
		<tag k="name" v="Nordre Skolten" />
		<tag k="natural" v="shoal" />
		<tag k="place" v="locality" />
		<tag k="ssr:stedsnr" v="25351" />
	</node>
	<node id="-9957" lat="59.4449638909" lon="5.09505554962">
		<tag k="alt_name" v="Hollkoppe" />
		<tag k="name" v="Holkopp" />
		<tag k="natural" v="cape" />
		<tag k="ssr:stedsnr" v="2673" />
	</node>
	<node id="-9947" lat="59.4332944412" lon="5.08467500637">
		<tag k="name" v="Va" />
>>>>>>> e1d4bc35ff8a6074a6f2e91616a996b547c36f15
		<tag k="natural" v="bay" />
		<tag k="ssr:stedsnr" v="390859" />
	</node>
<<<<<<< HEAD
	<node lat="59.43164166953535" lon="5.250983341013429" id="-468">
		<tag k="name" v="Bussevik" />
		<tag k="natural" v="bay" />
		<tag k="ssr:stedsnr" v="405783" />
	</node>
	<node lat="59.41993055367065" lon="5.256075005133415" id="-469">
		<tag k="name" v="Svinholmen" />
=======
	<node id="-9946" lat="59.4343833343" lon="5.11169443889">
		<tag k="fixme" v="consider seamark:type=rock or natural=shoal" />
		<tag k="name" v="Ankerskjer" />
		<tag k="place" v="islet" />
		<tag k="ssr:stedsnr" v="937114" />
	</node>
	<node id="-9945" lat="59.4287750037" lon="5.1276611185">
		<tag k="alt_name" v="norde Glåpen" />
		<tag k="name" v="Nordre Glåpen" />
>>>>>>> e1d4bc35ff8a6074a6f2e91616a996b547c36f15
		<tag k="place" v="islet" />
		<tag k="ssr:stedsnr" v="406846" />
	</node>
<<<<<<< HEAD
	<node lat="59.41797499917933" lon="5.2515111195527115" id="-470">
		<tag k="name" v="Hansavågen" />
		<tag k="natural" v="bay" />
		<tag k="ssr:stedsnr" v="406847" />
	</node>
	<node lat="59.41483333403069" lon="5.250677786252328" id="-473">
		<tag k="name" v="Søra Løvågen" />
		<tag k="natural" v="bay" />
		<tag k="ssr:stedsnr" v="423927" />
	</node>
	<node lat="59.41686389102421" lon="5.253438897006367" id="-478">
		<tag k="alt_name" v="Hasseløy" />
		<tag k="name" v="Hasseløya" />
		<tag k="place" v="island" />
		<tag k="ssr:stedsnr" v="426653" />
	</node>
	<node lat="59.492436110808555" lon="5.225816670310425" id="-480">
		<tag k="name" v="Bogshamn" />
		<tag k="natural" v="bay" />
		<tag k="ssr:stedsnr" v="427682" />
	</node>
	<node lat="59.48283055727102" lon="5.227352773784023" id="-481">
		<tag k="alt_name" v="Stemnevågen;Stemmevik" />
		<tag k="name" v="Stemmevika" />
		<tag k="natural" v="bay" />
		<tag k="ssr:stedsnr" v="427683" />
	</node>
	<node lat="59.46515785860868" lon="5.23930884946317" id="-483">
		<tag k="alt_name" v="Tømmervik" />
		<tag k="name" v="Tømmervågen" />
=======
	<node id="-10265" lat="59.4286861107" lon="5.254044438">
		<tag k="name" v="Søtevik" />
		<tag k="natural" v="bay" />
		<tag k="ssr:stedsnr" v="815882" />
	</node>
	<node id="-9939" lat="59.4348944473" lon="5.06328611224">
		<tag k="fixme" v="consider seamark:type=rock or natural=shoal" />
		<tag k="name" v="Hekssete" />
		<tag k="place" v="islet" />
		<tag k="ssr:stedsnr" v="876551" />
	</node>
	<node id="-9936" lat="59.4323000012" lon="5.08918054762">
		<tag k="name" v="Torjesneset" />
		<tag k="natural" v="cape" />
		<tag k="ssr:stedsnr" v="876538" />
	</node>
	<node id="-9935" lat="59.4278194487" lon="5.09063333357">
		<tag k="name" v="Store Bryggjeland" />
		<tag k="place" v="islet" />
		<tag k="ssr:stedsnr" v="876522" />
	</node>
	<node id="-9933" lat="59.5117361088" lon="5.1761583349">
		<tag k="fixme" v="consider seamark:type=rock or natural=shoal" />
		<tag k="name" v="Seiskjeret" />
		<tag k="place" v="islet" />
		<tag k="ssr:stedsnr" v="853156" />
	</node>
	<node id="-9929" lat="59.488741667" lon="5.2629083398">
		<tag k="name" v="Størkårsvik" />
>>>>>>> e1d4bc35ff8a6074a6f2e91616a996b547c36f15
		<tag k="natural" v="bay" />
		<tag k="ssr:stedsnr" v="427689" />
	</node>
<<<<<<< HEAD
	<node lat="59.44214166408975" lon="5.102383339852194" id="-484">
		<tag k="alt_name" v="Terneholmane;store Tednholmen" />
		<tag k="name" v="Terneholmen" />
=======
	<node id="-9653" lat="59.391083338" lon="5.28895833932">
		<tag k="name" v="Rossabøvik" />
		<tag k="natural" v="bay" />
		<tag k="ssr:stedsnr" v="239100" />
	</node>
	<node id="-9923" lat="59.4394444439" lon="5.06574721979">
		<tag k="alt_name" v="norde Seleningen;Nordre Seleningen" />
		<tag k="name" v="Nordre Sileningen" />
>>>>>>> e1d4bc35ff8a6074a6f2e91616a996b547c36f15
		<tag k="place" v="islet" />
		<tag k="ssr:stedsnr" v="427649" />
	</node>
<<<<<<< HEAD
	<node lat="59.44656944207924" lon="5.084966671413682" id="-485">
		<tag k="alt_name" v="Veret" />
		<tag k="name" v="Værodden" />
		<tag k="natural" v="cape" />
		<tag k="ssr:stedsnr" v="511490" />
	</node>
	<node lat="59.42365277926115" lon="5.256488884892033" id="-487">
		<tag k="name" v="Rekavik" />
=======
	<node id="-9921" lat="59.4252805598" lon="5.08814445017">
		<tag k="fixme" v="consider seamark:type=rock or natural=shoal" />
		<tag k="name" v="Litle Hatt" />
		<tag k="place" v="islet" />
		<tag k="ssr:stedsnr" v="937557" />
	</node>
	<node id="-9919" lat="59.4939694449" lon="5.22617778649">
		<tag k="name" v="Litla Skiftesvik" />
>>>>>>> e1d4bc35ff8a6074a6f2e91616a996b547c36f15
		<tag k="natural" v="bay" />
		<tag k="ssr:stedsnr" v="511854" />
	</node>
<<<<<<< HEAD
	<node lat="59.43082777615073" lon="5.251352771348905" id="-488">
		<tag k="name" v="Vesteholmen" />
=======
	<node id="-9918" lat="59.467083336" lon="5.24306389278">
		<tag k="name" v="Skitneviksholmen" />
>>>>>>> e1d4bc35ff8a6074a6f2e91616a996b547c36f15
		<tag k="place" v="islet" />
		<tag k="ssr:stedsnr" v="511855" />
	</node>
<<<<<<< HEAD
	<node lat="59.43645000452981" lon="5.091277778658561" id="-490">
		<tag k="alt_name" v="Bekkarvik" />
		<tag k="name" v="Bekkarsvik" />
		<tag k="natural" v="bay" />
		<tag k="ssr:stedsnr" v="512551" />
	</node>
	<node lat="59.43314166372447" lon="5.079902774910061" id="-491">
		<tag k="name" v="Hestamarksodden" />
=======
	<node id="-9917" lat="59.4117277774" lon="5.25162500432">
		<tag k="name" v="Møllerodden" />
>>>>>>> e1d4bc35ff8a6074a6f2e91616a996b547c36f15
		<tag k="natural" v="cape" />
		<tag k="ssr:stedsnr" v="512554" />
	</node>
<<<<<<< HEAD
	<node lat="59.4087277771663" lon="5.261016672146677" id="-497">
		<tag k="name" v="Risøyflua" />
=======
	<node id="-9915" lat="59.4552722229" lon="5.18384999315">
		<tag k="name" v="Jøsseflua" />
>>>>>>> e1d4bc35ff8a6074a6f2e91616a996b547c36f15
		<tag k="natural" v="shoal" />
		<tag k="place" v="locality" />
		<tag k="ssr:stedsnr" v="527862" />
	</node>
<<<<<<< HEAD
	<node lat="59.391397221804105" lon="5.2883222225163395" id="-498">
		<tag k="name" v="Nordre Torgersvik" />
		<tag k="natural" v="bay" />
		<tag k="ssr:stedsnr" v="543098" />
	</node>
	<node lat="59.387563887100725" lon="5.295491665689242" id="-499">
		<tag k="name" v="Klubben" />
		<tag k="natural" v="cape" />
		<tag k="ssr:stedsnr" v="543130" />
	</node>
	<node lat="59.45240555718229" lon="5.219716662162108" id="-501">
		<tag k="name" v="Tømmerflua" />
		<tag k="natural" v="shoal" />
		<tag k="place" v="locality" />
		<tag k="ssr:stedsnr" v="570280" />
	</node>
	<node lat="59.433561110958465" lon="5.088330560869624" id="-506">
		<tag k="alt_name" v="Buvågen" />
		<tag k="name" v="Buavågen" />
		<tag k="natural" v="bay" />
		<tag k="ssr:stedsnr" v="572532" />
	</node>
	<node lat="59.41593611285918" lon="5.240624999210949" id="-511">
		<tag k="fixme" v="consider seamark:type=rock or natural=shoal" />
		<tag k="name" v="Skateskjeret" />
=======
	<node id="-9914" lat="59.4382722233" lon="5.06253333244">
		<tag k="alt_name" v="Seleningssundet" />
		<tag k="name" v="Sileningssundet" />
		<tag k="natural" v="strait" />
		<tag k="ssr:stedsnr" v="816597" />
	</node>
	<node id="-9911" lat="59.4299277769" lon="5.07645556133">
		<tag k="fixme" v="consider seamark:type=rock or natural=shoal" />
		<tag k="name" v="Buholmskjeret" />
		<tag k="place" v="islet" />
		<tag k="ssr:stedsnr" v="816585" />
	</node>
	<node id="-9910" lat="59.4320527779" lon="5.11951110813">
		<tag k="name" v="Joenhavet" />
		<tag k="natural" v="bay" />
		<tag k="ssr:stedsnr" v="816105" />
	</node>
	<node id="-9909" lat="59.4376722187" lon="5.11318333515">
		<tag k="alt_name" v="Gjitterøysundet" />
		<tag k="name" v="Gitterøysundet" />
		<tag k="natural" v="strait" />
		<tag k="ssr:stedsnr" v="816104" />
	</node>
	<node id="-10270" lat="59.4498499982" lon="5.06860834105">
		<tag k="name" v="Midtholmen" />
		<tag k="place" v="islet" />
		<tag k="ssr:stedsnr" v="816671" />
	</node>
	<node id="-9906" lat="59.4501666635" lon="5.23758888772">
		<tag k="name" v="Flateholmane" />
>>>>>>> e1d4bc35ff8a6074a6f2e91616a996b547c36f15
		<tag k="place" v="islet" />
		<tag k="ssr:stedsnr" v="588860" />
	</node>
<<<<<<< HEAD
	<node lat="59.427075000262555" lon="5.256008335969623" id="-515">
		<tag k="name" v="Tresberg" />
		<tag k="natural" v="cape" />
		<tag k="ssr:stedsnr" v="604951" />
	</node>
	<node lat="59.42968333196546" lon="5.253847220273122" id="-516">
		<tag k="name" v="Lahammaren" />
		<tag k="natural" v="cape" />
		<tag k="ssr:stedsnr" v="604946" />
	</node>
	<node lat="59.43441666869614" lon="5.240586102916992" id="-519">
		<tag k="name" v="Kvalsvik" />
=======
	<node id="-9904" lat="59.4118527755" lon="5.24894444038">
		<tag k="name" v="Storåkergrunnen" />
		<tag k="natural" v="shoal" />
		<tag k="place" v="locality" />
		<tag k="ssr:stedsnr" v="770860" />
	</node>
	<node id="-10269" lat="59.4422930553" lon="5.11612474145">
		<tag k="name" v="Ulvøyskallen" />
		<tag k="natural" v="shoal" />
		<tag k="place" v="locality" />
		<tag k="ssr:stedsnr" v="815915" />
	</node>
	<node id="-9900" lat="59.4979000015" lon="5.11613888099">
		<tag k="alt_name" v="Gåseskallen" />
		<tag k="name" v="Gåsaskallen" />
		<tag k="natural" v="shoal" />
		<tag k="place" v="locality" />
		<tag k="ssr:stedsnr" v="912741" />
	</node>
	<node id="-9897" lat="59.4992277754" lon="5.22348056423">
		<tag k="name" v="Grønevik" />
>>>>>>> e1d4bc35ff8a6074a6f2e91616a996b547c36f15
		<tag k="natural" v="bay" />
		<tag k="ssr:stedsnr" v="608671" />
	</node>
<<<<<<< HEAD
	<node lat="59.4161611107133" lon="5.243872225676544" id="-524">
		<tag k="alt_name" v="Vibrandøya;Vibrandsøy" />
		<tag k="name" v="Vibrandsøya" />
		<tag k="place" v="islet" />
		<tag k="ssr:stedsnr" v="608636" />
	</node>
	<node lat="59.46841666274658" lon="5.240019446526499" id="-525">
		<tag k="name" v="Førlandsvågen" />
=======
	<node id="-9893" lat="59.4373166648" lon="5.23850277887">
		<tag k="name" v="Skjelavik" />
>>>>>>> e1d4bc35ff8a6074a6f2e91616a996b547c36f15
		<tag k="natural" v="bay" />
		<tag k="ssr:stedsnr" v="609670" />
	</node>
<<<<<<< HEAD
	<node lat="59.446086109724504" lon="5.091802784081096" id="-526">
		<tag k="name" v="Nipsholmen" />
		<tag k="place" v="islet" />
		<tag k="ssr:stedsnr" v="609615" />
	</node>
	<node lat="59.43534999766308" lon="5.0976083262638605" id="-529">
		<tag k="name" v="Storakast" />
=======
	<node id="-9892" lat="59.420683329" lon="5.25533332957">
		<tag k="alt_name" v="Norde Svinholmen" />
		<tag k="name" v="Nordre Svinholmen" />
		<tag k="place" v="islet" />
		<tag k="ssr:stedsnr" v="694863" />
	</node>
	<node id="-9670" lat="59.4308611119" lon="5.08447499193">
		<tag k="name" v="Buaneset" />
		<tag k="natural" v="cape" />
		<tag k="ssr:stedsnr" v="269516" />
	</node>
	<node id="-9889" lat="59.4815607711" lon="5.30184124069">
		<tag k="name" v="Søra Vågsvågen" />
>>>>>>> e1d4bc35ff8a6074a6f2e91616a996b547c36f15
		<tag k="natural" v="bay" />
		<tag k="ssr:stedsnr" v="633076" />
	</node>
<<<<<<< HEAD
	<node lat="59.4678972250622" lon="5.2515833331201165" id="-530">
		<tag k="name" v="Slumpen" />
=======
	<node id="-9887" lat="59.4354638891" lon="5.08138333237">
		<tag k="alt_name" v="Kråkevågen" />
		<tag k="name" v="Kråkvågen" />
>>>>>>> e1d4bc35ff8a6074a6f2e91616a996b547c36f15
		<tag k="natural" v="bay" />
		<tag k="ssr:stedsnr" v="631303" />
	</node>
<<<<<<< HEAD
	<node lat="59.416447218407065" lon="5.250730550696558" id="-532">
		<tag k="name" v="Vibrandsøysundet" />
		<tag k="natural" v="strait" />
		<tag k="ssr:stedsnr" v="632761" />
	</node>
	<node lat="59.44547221979873" lon="5.089822230232574" id="-533">
		<tag k="name" v="Vestra Nipsholmsundet" />
		<tag k="natural" v="strait" />
		<tag k="ssr:stedsnr" v="633625" />
	</node>
	<node lat="59.45288333502568" lon="5.064050002506493" id="-534">
=======
	<node id="-9886" lat="59.4414833289" lon="5.10567777111">
		<tag k="name" v="Stangelandssundet" />
		<tag k="natural" v="strait" />
		<tag k="ssr:stedsnr" v="694071" />
	</node>
	<node id="-9669" lat="59.4305416675" lon="5.09269444752">
		<tag k="alt_name" v="himre Bryggjeland" />
		<tag k="name" v="Heimre Bryggjeland" />
		<tag k="place" v="islet" />
		<tag k="ssr:stedsnr" v="269513" />
	</node>
	<node id="-9884" lat="59.4283611145" lon="5.25376666146">
		<tag k="name" v="Tresodden" />
		<tag k="natural" v="cape" />
		<tag k="ssr:stedsnr" v="665954" />
	</node>
	<node id="-9883" lat="59.4245194451" lon="5.25339721947">
		<tag k="name" v="Mannabergsholmane" />
		<tag k="place" v="islet" />
		<tag k="ssr:stedsnr" v="665924" />
	</node>
	<node id="-9878" lat="59.4951500041" lon="5.22414444283">
>>>>>>> e1d4bc35ff8a6074a6f2e91616a996b547c36f15
		<tag k="fixme" v="consider seamark:type=rock or natural=shoal" />
		<tag k="name" v="Holmaskajene" />
		<tag k="place" v="islet" />
		<tag k="ssr:stedsnr" v="633554" />
	</node>
<<<<<<< HEAD
	<node lat="59.42945833522297" lon="5.087263889525525" id="-535">
		<tag k="name" v="Kåretåna" />
		<tag k="natural" v="cape" />
		<tag k="ssr:stedsnr" v="633559" />
	</node>
	<node lat="59.468222578822065" lon="5.23611193811662" id="-541">
		<tag k="name" v="Terneholmen" />
		<tag k="place" v="islet" />
		<tag k="ssr:stedsnr" v="642043" />
	</node>
	<node lat="59.41613333245592" lon="5.247180564394863" id="-545">
		<tag k="name" v="Svinholmen" />
=======
	<node id="-9877" lat="59.50367222" lon="5.22568332634">
		<tag k="name" v="Smørsundholmen" />
		<tag k="place" v="islet" />
		<tag k="ssr:stedsnr" v="876893" />
	</node>
	<node id="-9876" lat="59.4033416654" lon="5.27178889345">
		<tag k="fixme" v="consider seamark:type=rock or natural=shoal" />
		<tag k="name" v="Risøyskjer" />
		<tag k="place" v="islet" />
		<tag k="ssr:stedsnr" v="876874" />
	</node>
	<node id="-9875" lat="59.4292694475" lon="5.24068055406">
		<tag k="name" v="Gardsvik" />
		<tag k="natural" v="bay" />
		<tag k="ssr:stedsnr" v="876873" />
	</node>
	<node id="-9874" lat="59.4810194467" lon="5.27902778256">
		<tag k="name" v="Liavik" />
		<tag k="natural" v="bay" />
		<tag k="ssr:stedsnr" v="876639" />
	</node>
	<node id="-9873" lat="59.4436638898" lon="5.07950834197">
		<tag k="name" v="Straumen" />
		<tag k="natural" v="bay" />
		<tag k="ssr:stedsnr" v="876626" />
	</node>
	<node id="-9872" lat="59.4858666704" lon="5.29046944591">
		<tag k="alt_name" v="Vikseholmen" />
		<tag k="name" v="Viksesholmen" />
>>>>>>> e1d4bc35ff8a6074a6f2e91616a996b547c36f15
		<tag k="place" v="islet" />
		<tag k="ssr:stedsnr" v="648828" />
	</node>
<<<<<<< HEAD
	<node lat="59.424519445119884" lon="5.253397219470619" id="-550">
		<tag k="name" v="Mannabergsholmane" />
=======
	<node id="-9871" lat="59.4493694422" lon="5.06694999233">
		<tag k="name" v="Søreholmen" />
>>>>>>> e1d4bc35ff8a6074a6f2e91616a996b547c36f15
		<tag k="place" v="islet" />
		<tag k="ssr:stedsnr" v="665924" />
	</node>
<<<<<<< HEAD
	<node lat="59.42836111450538" lon="5.25376666145672" id="-551">
		<tag k="name" v="Tresodden" />
		<tag k="natural" v="cape" />
		<tag k="ssr:stedsnr" v="665954" />
	</node>
	<node lat="59.504486107169456" lon="5.236997224305746" id="-552">
		<tag k="name" v="Smørsund" />
		<tag k="natural" v="strait" />
		<tag k="ssr:stedsnr" v="670135" />
	</node>
	<node lat="59.47193888879076" lon="5.142019448407786" id="-553">
		<tag k="name" v="Bramsflua" />
		<tag k="natural" v="shoal" />
		<tag k="place" v="locality" />
		<tag k="ssr:stedsnr" v="670675" />
	</node>
	<node lat="59.43149444543519" lon="5.202461111052811" id="-560">
=======
	<node id="-9865" lat="59.4761111089" lon="5.22997500559">
		<tag k="alt_name" v="Bleivik" />
		<tag k="name" v="Bleivika" />
		<tag k="natural" v="bay" />
		<tag k="ssr:stedsnr" v="730727" />
	</node>
	<node id="-9859" lat="59.4364333321" lon="5.06416389384">
		<tag k="alt_name" v="Silenningane" />
		<tag k="name" v="Sileningane" />
		<tag k="place" v="islet" />
		<tag k="ssr:stedsnr" v="730291" />
	</node>
	<node id="-9858" lat="59.4492972185" lon="5.07796388624">
		<tag k="alt_name" v="Åleskjeret;Åleskjer" />
		<tag k="fixme" v="consider seamark:type=rock or natural=shoal" />
		<tag k="name" v="Ålaskjeret" />
		<tag k="place" v="islet" />
		<tag k="ssr:stedsnr" v="730290" />
	</node>
	<node id="-9857" lat="59.4314944454" lon="5.20246111105">
>>>>>>> e1d4bc35ff8a6074a6f2e91616a996b547c36f15
		<tag k="name" v="Skåreholmen" />
		<tag k="place" v="islet" />
		<tag k="ssr:stedsnr" v="729646" />
	</node>
<<<<<<< HEAD
	<node lat="59.449297218452195" lon="5.0779638862449845" id="-562">
		<tag k="alt_name" v="Åleskjeret;Åleskjer" />
=======
	<node id="-9856" lat="59.4454722198" lon="5.08982223023">
		<tag k="name" v="Vestra Nipsholmsundet" />
		<tag k="natural" v="strait" />
		<tag k="ssr:stedsnr" v="633625" />
	</node>
	<node id="-9664" lat="59.5065194478" lon="5.22331389225">
		<tag k="name" v="Smørsundboen" />
		<tag k="natural" v="shoal" />
		<tag k="place" v="locality" />
		<tag k="ssr:stedsnr" v="267279" />
	</node>
	<node id="-9852" lat="59.4294583352" lon="5.08726388953">
		<tag k="name" v="Kåretåna" />
		<tag k="natural" v="cape" />
		<tag k="ssr:stedsnr" v="633559" />
	</node>
	<node id="-9851" lat="59.452883335" lon="5.06405000251">
>>>>>>> e1d4bc35ff8a6074a6f2e91616a996b547c36f15
		<tag k="fixme" v="consider seamark:type=rock or natural=shoal" />
		<tag k="name" v="Ålaskjeret" />
		<tag k="place" v="islet" />
		<tag k="ssr:stedsnr" v="730290" />
	</node>
<<<<<<< HEAD
	<node lat="59.43643333206736" lon="5.064163893843005" id="-563">
		<tag k="alt_name" v="Silenningane" />
		<tag k="name" v="Sileningane" />
=======
	<node id="-9850" lat="59.4252333313" lon="5.12726389095">
		<tag k="name" v="Glette" />
>>>>>>> e1d4bc35ff8a6074a6f2e91616a996b547c36f15
		<tag k="place" v="islet" />
		<tag k="ssr:stedsnr" v="730291" />
	</node>
<<<<<<< HEAD
	<node lat="59.499227775444105" lon="5.223480564233236" id="-564">
		<tag k="name" v="Grønevik" />
		<tag k="natural" v="bay" />
		<tag k="ssr:stedsnr" v="730776" />
	</node>
	<node lat="59.46934444470329" lon="5.250527769447605" id="-569">
		<tag k="name" v="Mekjarevik" />
=======
	<node id="-9849" lat="59.4164472184" lon="5.2507305507">
		<tag k="name" v="Vibrandsøysundet" />
		<tag k="natural" v="strait" />
		<tag k="ssr:stedsnr" v="632761" />
	</node>
	<node id="-9848" lat="59.4957222208" lon="5.26166389763">
		<tag k="name" v="Vikasjøen" />
>>>>>>> e1d4bc35ff8a6074a6f2e91616a996b547c36f15
		<tag k="natural" v="bay" />
		<tag k="ssr:stedsnr" v="754891" />
	</node>
<<<<<<< HEAD
	<node lat="59.43141944376518" lon="5.095169448948523" id="-570">
		<tag k="name" v="Bryggjelandsosen" />
=======
	<node id="-9847" lat="59.4678972251" lon="5.25158333312">
		<tag k="name" v="Slumpen" />
>>>>>>> e1d4bc35ff8a6074a6f2e91616a996b547c36f15
		<tag k="natural" v="bay" />
		<tag k="ssr:stedsnr" v="755100" />
	</node>
<<<<<<< HEAD
	<node lat="59.437202782002736" lon="5.094102783324944" id="-572">
		<tag k="name" v="Vindkjeft" />
		<tag k="natural" v="strait" />
		<tag k="ssr:stedsnr" v="755081" />
	</node>
	<node lat="59.45184444414789" lon="5.068369439058969" id="-573">
		<tag k="name" v="Røværsholmen" />
		<tag k="place" v="islet" />
		<tag k="ssr:stedsnr" v="755527" />
	</node>
	<node lat="59.43030555391588" lon="5.09116666624017" id="-575">
		<tag k="alt_name" v="norde Bryggjeland" />
		<tag k="name" v="Nordre Bryggjeland" />
=======
	<node id="-9844" lat="59.4615666637" lon="5.19251666864">
		<tag k="alt_name" v="Bleiskjer, l" />
		<tag k="fixme" v="consider seamark:type=rock or natural=shoal" />
		<tag k="name" v="Litla Bleiskjeret" />
		<tag k="place" v="islet" />
		<tag k="ssr:stedsnr" v="609641" />
	</node>
	<node id="-9838" lat="59.4460861097" lon="5.09180278408">
		<tag k="name" v="Nipsholmen" />
>>>>>>> e1d4bc35ff8a6074a6f2e91616a996b547c36f15
		<tag k="place" v="islet" />
		<tag k="ssr:stedsnr" v="755543" />
	</node>
<<<<<<< HEAD
	<node lat="59.449908334706315" lon="5.064327771070801" id="-577">
		<tag k="name" v="Kjellaren" />
		<tag k="place" v="islet" />
		<tag k="ssr:stedsnr" v="755620" />
	</node>
	<node lat="59.486291669241496" lon="5.266108325227697" id="-578">
		<tag k="name" v="Mjelkeviksundet" />
		<tag k="natural" v="strait" />
		<tag k="ssr:stedsnr" v="755621" />
	</node>
	<node lat="59.45009999938093" lon="5.065658335473813" id="-579">
		<tag k="name" v="Dammen" />
		<tag k="natural" v="strait" />
		<tag k="ssr:stedsnr" v="755623" />
	</node>
	<node lat="59.41716388529556" lon="5.241441658906478" id="-584">
		<tag k="name" v="Åkerøya" />
		<tag k="place" v="islet" />
		<tag k="ssr:stedsnr" v="770824" />
	</node>
	<node lat="59.43831111327879" lon="5.148819444888745" id="-588">
		<tag k="bay" v="fjord" />
		<tag k="name" v="Røværsfjorden" />
		<tag k="natural" v="bay" />
		<tag k="ssr:stedsnr" v="790717" />
	</node>
	<node lat="59.45376111384895" lon="5.238574996912213" id="-589">
		<tag k="name" v="Malmbukta" />
		<tag k="natural" v="bay" />
		<tag k="ssr:stedsnr" v="791684" />
	</node>
	<node lat="59.48634444742778" lon="5.278263884645867" id="-591">
		<tag k="alt_name" v="Støleøy" />
		<tag k="name" v="Støleøya" />
=======
	<node id="-9836" lat="59.410208329" lon="5.2640444464">
		<tag k="alt_name" v="Risøy" />
		<tag k="name" v="Risøya" />
		<tag k="place" v="island" />
		<tag k="ssr:stedsnr" v="608645" />
	</node>
	<node id="-9835" lat="59.4161611107" lon="5.24387222568">
		<tag k="alt_name" v="Vibrandøya;Vibrandsøy" />
		<tag k="name" v="Vibrandsøya" />
		<tag k="place" v="islet" />
		<tag k="ssr:stedsnr" v="608636" />
	</node>
	<node id="-10267" lat="59.5031055559" lon="5.22780833346">
		<tag k="name" v="Sørasundet" />
		<tag k="natural" v="strait" />
		<tag k="ssr:stedsnr" v="815911" />
	</node>
	<node id="-9827" lat="59.4159361129" lon="5.24062499921">
		<tag k="fixme" v="consider seamark:type=rock or natural=shoal" />
		<tag k="name" v="Skateskjeret" />
>>>>>>> e1d4bc35ff8a6074a6f2e91616a996b547c36f15
		<tag k="place" v="islet" />
		<tag k="ssr:stedsnr" v="791697" />
	</node>
<<<<<<< HEAD
	<node lat="59.467533332409204" lon="5.176072225608004" id="-593">
		<tag k="name" v="Bonden" />
		<tag k="natural" v="shoal" />
		<tag k="place" v="locality" />
		<tag k="ssr:stedsnr" v="814376" />
	</node>
	<node lat="59.47788611070148" lon="5.239188886175569" id="-595">
		<tag k="name" v="Nordavik" />
=======
	<node id="-9822" lat="59.4445166686" lon="5.24159444067">
		<tag k="name" v="Grønavik" />
		<tag k="natural" v="bay" />
		<tag k="ssr:stedsnr" v="572865" />
	</node>
	<node id="-9821" lat="59.4985583293" lon="5.24673611469">
		<tag k="name" v="Selvågen" />
>>>>>>> e1d4bc35ff8a6074a6f2e91616a996b547c36f15
		<tag k="natural" v="bay" />
		<tag k="ssr:stedsnr" v="815901" />
	</node>
<<<<<<< HEAD
	<node lat="59.44229305525239" lon="5.116124741452624" id="-596">
		<tag k="name" v="Ulvøyskallen" />
		<tag k="natural" v="shoal" />
		<tag k="place" v="locality" />
		<tag k="ssr:stedsnr" v="815915" />
	</node>
	<node lat="59.429927776857745" lon="5.07645556132903" id="-600">
		<tag k="fixme" v="consider seamark:type=rock or natural=shoal" />
		<tag k="name" v="Buholmskjeret" />
		<tag k="place" v="islet" />
		<tag k="ssr:stedsnr" v="816585" />
	</node>
	<node lat="59.43827222325534" lon="5.062533332444632" id="-603">
		<tag k="alt_name" v="Seleningssundet" />
		<tag k="name" v="Sileningssundet" />
		<tag k="natural" v="strait" />
		<tag k="ssr:stedsnr" v="816597" />
	</node>
	<node lat="59.42349444608575" lon="5.096227768838798" id="-608">
		<tag k="alt_name" v="Hatt, store" />
		<tag k="name" v="Store Hatt" />
=======
	<node id="-9658" lat="59.4304999987" lon="5.11083055606">
		<tag k="name" v="Flatholmen" />
		<tag k="place" v="islet" />
		<tag k="ssr:stedsnr" v="244675" />
	</node>
	<node id="-9818" lat="59.4257138854" lon="5.13039444336">
		<tag k="name" v="Søre Glåpen" />
		<tag k="place" v="islet" />
		<tag k="ssr:stedsnr" v="572115" />
	</node>
	<node id="-9815" lat="59.4752749965" lon="5.23493055948">
		<tag k="name" v="Såteholmen" />
>>>>>>> e1d4bc35ff8a6074a6f2e91616a996b547c36f15
		<tag k="place" v="islet" />
		<tag k="ssr:stedsnr" v="851644" />
	</node>
<<<<<<< HEAD
	<node lat="59.427794444223835" lon="5.090788883006314" id="-609">
		<tag k="name" v="Bryggelandsholmane" />
		<tag k="place" v="islet" />
		<tag k="ssr:stedsnr" v="852298" />
	</node>
	<node lat="59.495077775536835" lon="5.226419436997545" id="-611">
		<tag k="alt_name" v="Skiftesvik;stora Skiftesvik" />
		<tag k="name" v="Skiftesvika" />
=======
	<node id="-9812" lat="59.4391305533" lon="5.23878611465">
		<tag k="name" v="Ørevik" />
>>>>>>> e1d4bc35ff8a6074a6f2e91616a996b547c36f15
		<tag k="natural" v="bay" />
		<tag k="ssr:stedsnr" v="852698" />
	</node>
<<<<<<< HEAD
	<node lat="59.486994441039144" lon="5.373427770604137" id="-612">
		<tag k="name" v="Steivarsund" />
		<tag k="natural" v="strait" />
		<tag k="ssr:stedsnr" v="876085" />
	</node>
	<node lat="59.42781944870864" lon="5.090633333569892" id="-615">
		<tag k="name" v="Store Bryggjeland" />
=======
	<node id="-10254" lat="59.4196111158" lon="5.24310000802">
		<tag k="alt_name" v="Gardsøy" />
		<tag k="name" v="Gardsøya" />
		<tag k="place" v="islet" />
		<tag k="ssr:stedsnr" v="790691" />
	</node>
	<node id="-9806" lat="59.4220305527" lon="5.12079166111">
		<tag k="fixme" v="consider seamark:type=rock or natural=shoal" />
		<tag k="name" v="Mele" />
		<tag k="place" v="islet" />
		<tag k="ssr:stedsnr" v="693901" />
	</node>
	<node id="-9805" lat="59.4290333292" lon="5.08323332654">
		<tag k="fixme" v="consider seamark:type=rock or natural=shoal" />
		<tag k="name" v="Gryteskjeret" />
>>>>>>> e1d4bc35ff8a6074a6f2e91616a996b547c36f15
		<tag k="place" v="islet" />
		<tag k="ssr:stedsnr" v="876522" />
	</node>
<<<<<<< HEAD
	<node lat="59.4323000011955" lon="5.089180547620782" id="-616">
		<tag k="name" v="Torjesneset" />
		<tag k="natural" v="cape" />
		<tag k="ssr:stedsnr" v="876538" />
	</node>
	<node lat="59.44936944217641" lon="5.066949992330039" id="-620">
		<tag k="name" v="Søreholmen" />
		<tag k="place" v="islet" />
		<tag k="ssr:stedsnr" v="876623" />
	</node>
	<node lat="59.48586667040466" lon="5.290469445913431" id="-621">
		<tag k="alt_name" v="Vikseholmen" />
		<tag k="name" v="Viksesholmen" />
		<tag k="place" v="islet" />
		<tag k="ssr:stedsnr" v="876625" />
	</node>
	<node lat="59.44366388982985" lon="5.079508341973842" id="-622">
		<tag k="name" v="Straumen" />
		<tag k="natural" v="bay" />
		<tag k="ssr:stedsnr" v="876626" />
	</node>
	<node lat="59.48101944671589" lon="5.279027782562622" id="-623">
		<tag k="name" v="Liavik" />
		<tag k="natural" v="bay" />
		<tag k="ssr:stedsnr" v="876639" />
	</node>
	<node lat="59.50367221996727" lon="5.225683326343576" id="-624">
		<tag k="name" v="Smørsundholmen" />
		<tag k="place" v="islet" />
		<tag k="ssr:stedsnr" v="876893" />
	</node>
	<node lat="59.495150004068705" lon="5.224144442830948" id="-625">
		<tag k="fixme" v="consider seamark:type=rock or natural=shoal" />
		<tag k="name" v="Skiftesvikskjeret" />
		<tag k="place" v="islet" />
		<tag k="ssr:stedsnr" v="876896" />
	</node>
	<node lat="59.41172777742148" lon="5.251625004315558" id="-628">
		<tag k="name" v="Møllerodden" />
		<tag k="natural" v="cape" />
		<tag k="ssr:stedsnr" v="936762" />
	</node>
	<node lat="59.46708333600449" lon="5.243063892781606" id="-630">
		<tag k="name" v="Skitneviksholmen" />
=======
	<node id="-9804" lat="59.5058805511" lon="5.18152499472">
		<tag k="name" v="Gagnlaus" />
		<tag k="natural" v="shoal" />
		<tag k="place" v="locality" />
		<tag k="ssr:stedsnr" v="692284" />
	</node>
	<node id="-9803" lat="59.5080944454" lon="5.11822500271">
		<tag k="name" v="Nordra Gåseskjerflua" />
		<tag k="natural" v="shoal" />
		<tag k="place" v="locality" />
		<tag k="ssr:stedsnr" v="692279" />
	</node>
	<node id="-9891" lat="59.4473138868" lon="5.24248055612">
		<tag k="name" v="Kvernaneset" />
		<tag k="natural" v="cape" />
		<tag k="ssr:stedsnr" v="694861" />
	</node>
	<node id="-10249" lat="59.4171638853" lon="5.24144165891">
		<tag k="name" v="Åkerøya" />
		<tag k="place" v="islet" />
		<tag k="ssr:stedsnr" v="770824" />
	</node>
	<node id="-10266" lat="59.4778861107" lon="5.23918888618">
		<tag k="name" v="Nordavik" />
		<tag k="natural" v="bay" />
		<tag k="ssr:stedsnr" v="815901" />
	</node>
	<node id="-9796" lat="59.4467334687" lon="5.23896040256">
		<tag k="alt_name" v="Årebrotholmane" />
		<tag k="name" v="Årabrotholmane" />
		<tag k="place" v="islet" />
		<tag k="ssr:stedsnr" v="486705" />
	</node>
	<node id="-9792" lat="59.4719388888" lon="5.14201944841">
		<tag k="name" v="Bramsflua" />
		<tag k="natural" v="shoal" />
		<tag k="place" v="locality" />
		<tag k="ssr:stedsnr" v="670675" />
	</node>
	<node id="-9791" lat="59.5044861072" lon="5.23699722431">
		<tag k="name" v="Smørsund" />
		<tag k="natural" v="strait" />
		<tag k="ssr:stedsnr" v="670135" />
	</node>
	<node id="-9789" lat="59.4142083329" lon="5.25587778292">
		<tag k="name" v="Skagen" />
		<tag k="natural" v="cape" />
		<tag k="ssr:stedsnr" v="467860" />
	</node>
	<node id="-9703" lat="59.4406833304" lon="5.10434166275">
		<tag k="name" v="Stangelandsfle" />
		<tag k="natural" v="strait" />
		<tag k="ssr:stedsnr" v="451081" />
	</node>
	<node id="-9786" lat="59.4854416698" lon="5.22525276882">
		<tag k="name" v="Bekkjarvik" />
		<tag k="natural" v="bay" />
		<tag k="ssr:stedsnr" v="451911" />
	</node>
	<node id="-9785" lat="59.489669441" lon="5.26993610633">
		<tag k="name" v="Haglandsøy" />
>>>>>>> e1d4bc35ff8a6074a6f2e91616a996b547c36f15
		<tag k="place" v="islet" />
		<tag k="ssr:stedsnr" v="936876" />
	</node>
<<<<<<< HEAD
	<node lat="59.42528055979685" lon="5.088144450168593" id="-633">
		<tag k="fixme" v="consider seamark:type=rock or natural=shoal" />
		<tag k="name" v="Litle Hatt" />
		<tag k="place" v="islet" />
		<tag k="ssr:stedsnr" v="937557" />
	</node>
	<node lat="59.4394444438973" lon="5.065747219793863" id="-635">
		<tag k="alt_name" v="norde Seleningen;Nordre Seleningen" />
		<tag k="name" v="Nordre Sileningen" />
=======
	<node id="-9652" lat="59.3971527754" lon="5.28208888063">
		<tag k="name" v="Kvernaneset" />
		<tag k="natural" v="cape" />
		<tag k="ssr:stedsnr" v="239091" />
	</node>
	<node id="-9782" lat="59.4257027819" lon="5.09711944366">
		<tag k="name" v="Søre Bryggjeland" />
>>>>>>> e1d4bc35ff8a6074a6f2e91616a996b547c36f15
		<tag k="place" v="islet" />
		<tag k="ssr:stedsnr" v="937568" />
	</node>
<<<<<<< HEAD
	<node lat="59.48874166702221" lon="5.262908339799482" id="-639">
		<tag k="name" v="Størkårsvik" />
		<tag k="natural" v="bay" />
		<tag k="ssr:stedsnr" v="937648" />
	</node>
	<node lat="59.42256666243647" lon="5.2404722163588096" id="-643">
		<tag k="name" v="Sjursundet" />
		<tag k="natural" v="strait" />
		<tag k="ssr:stedsnr" v="951776" />
	</node>
	<node lat="59.42803239956144" lon="5.128590505663272" id="-649">
		<tag k="loc_name" v="Glåpene" />
		<tag k="name" v="Gloppene" />
		<tag k="place" v="islet" />
		<tag k="ssr:stedsnr" v="977641" />
=======
	<node id="-10293" lat="59.388894444" lon="5.29259721743">
		<tag k="name" v="Kleivastø" />
		<tag k="natural" v="bay" />
		<tag k="ssr:stedsnr" v="967088" />
	</node>
	<node id="-9780" lat="59.4279666632" lon="5.19135833511">
		<tag k="name" v="Vestreflua" />
		<tag k="natural" v="shoal" />
		<tag k="place" v="locality" />
		<tag k="ssr:stedsnr" v="450504" />
	</node>
	<node id="-9778" lat="59.5055305537" lon="5.11938334013">
		<tag k="alt_name" v="Gåseskjer" />
		<tag k="fixme" v="consider seamark:type=rock or natural=shoal" />
		<tag k="name" v="Gåseskjeret" />
		<tag k="place" v="islet" />
		<tag k="ssr:stedsnr" v="428113" />
	</node>
	<node id="-10288" lat="59.486994441" lon="5.3734277706">
		<tag k="name" v="Steivarsund" />
		<tag k="natural" v="strait" />
		<tag k="ssr:stedsnr" v="876085" />
	</node>
	<node id="-9775" lat="59.414833334" lon="5.25067778625">
		<tag k="name" v="Søra Løvågen" />
		<tag k="natural" v="bay" />
		<tag k="ssr:stedsnr" v="423927" />
	</node>
	<node id="-10283" lat="59.4698472203" lon="5.2317805617">
		<tag k="alt_name" v="Rassadleneset" />
		<tag k="name" v="Rassaleneset" />
		<tag k="natural" v="cape" />
		<tag k="ssr:stedsnr" v="852671" />
>>>>>>> e1d4bc35ff8a6074a6f2e91616a996b547c36f15
	</node>
	<node id="-10282" lat="59.4277944442" lon="5.09078888301">
		<tag k="name" v="Bryggelandsholmane" />
		<tag k="place" v="islet" />
		<tag k="ssr:stedsnr" v="852298" />
	</node>
	<node id="-10281" lat="59.4234944461" lon="5.09622776884">
		<tag k="alt_name" v="Hatt, store" />
		<tag k="name" v="Store Hatt" />
		<tag k="place" v="islet" />
		<tag k="ssr:stedsnr" v="851644" />
	</node>
	<node id="-9768" lat="59.4331416637" lon="5.07990277491">
		<tag k="name" v="Hestamarksodden" />
		<tag k="natural" v="cape" />
		<tag k="ssr:stedsnr" v="512554" />
	</node>
	<node id="-9767" lat="59.4364500045" lon="5.09127777866">
		<tag k="alt_name" v="Bekkarvik" />
		<tag k="name" v="Bekkarsvik" />
		<tag k="natural" v="bay" />
		<tag k="ssr:stedsnr" v="512551" />
	</node>
	<node id="-9765" lat="59.4308277762" lon="5.25135277135">
		<tag k="name" v="Vesteholmen" />
		<tag k="place" v="islet" />
		<tag k="ssr:stedsnr" v="511855" />
	</node>
	<node id="-9764" lat="59.4236527793" lon="5.25648888489">
		<tag k="name" v="Rekavik" />
		<tag k="natural" v="bay" />
		<tag k="ssr:stedsnr" v="511854" />
	</node>
	<node id="-9763" lat="59.4465694421" lon="5.08496667141">
		<tag k="fixme" v="multiple name tags, choose one and add the other to alt_name" />
		<tag k="name" v="Veret;Værodden" />
		<tag k="natural" v="cape" />
		<tag k="ssr:stedsnr" v="511490" />
	</node>
	<node id="-9762" lat="59.4953583349" lon="5.26141388829">
		<tag k="name" v="Straumen" />
		<tag k="natural" v="strait" />
		<tag k="ssr:stedsnr" v="511713" />
	</node>
	<node id="-10273" lat="59.4862638853" lon="5.25478333221">
		<tag k="name" v="Røyteholå" />
		<tag k="natural" v="bay" />
		<tag k="ssr:stedsnr" v="816883" />
	</node>
	<node id="-10272" lat="59.4439805592" lon="5.081997225">
		<tag k="name" v="Loten" />
		<tag k="natural" v="cape" />
		<tag k="ssr:stedsnr" v="816679" />
	</node>
	<node id="-9685" lat="59.4406472203" lon="5.23911110536">
		<tag k="name" v="Sjåvik" />
		<tag k="natural" v="bay" />
		<tag k="ssr:stedsnr" v="147821" />
	</node>
	<node id="-9758" lat="59.4383361067" lon="5.12350277873">
		<tag k="name" v="Gitterøyskallen" />
		<tag k="natural" v="shoal" />
		<tag k="place" v="locality" />
		<tag k="ssr:stedsnr" v="390893" />
	</node>
	<node id="-9757" lat="59.4300027787" lon="5.0885222285">
		<tag k="name" v="Kåretåsundet" />
		<tag k="natural" v="strait" />
		<tag k="ssr:stedsnr" v="390886" />
	</node>
	<node id="-9755" lat="59.4388555568" lon="5.24038611338">
		<tag k="name" v="Årabrotsvågen" />
		<tag k="natural" v="bay" />
		<tag k="ssr:stedsnr" v="390859" />
	</node>
	<node id="-9754" lat="59.4344638894" lon="5.23827500022">
		<tag k="alt_name" v="norde Kvalen" />
		<tag k="name" v="Nordre Kvalen" />
		<tag k="natural" v="cape" />
		<tag k="ssr:stedsnr" v="390858" />
	</node>
	<node id="-9647" lat="59.2972222266" lon="5.32638889698">
		<tag k="name" v="Karmsundet" />
		<tag k="natural" v="strait" />
		<tag k="ssr:stedsnr" v="1101" />
	</node>
	<node id="-9752" lat="59.4426611066" lon="5.09195277251">
		<tag k="name" v="Mjørsund" />
		<tag k="natural" v="strait" />
		<tag k="ssr:stedsnr" v="390565" />
	</node>
	<node id="-10263" lat="59.4675333324" lon="5.17607222561">
		<tag k="name" v="Bonden" />
		<tag k="natural" v="shoal" />
		<tag k="place" v="locality" />
		<tag k="ssr:stedsnr" v="814376" />
	</node>
	<node id="-9750" lat="59.4789749982" lon="5.06682222924">
		<tag k="name" v="Sletta" />
		<tag k="place" v="sea" />
		<tag k="ssr:stedsnr" v="366289" />
	</node>
	<node id="-10260" lat="59.4863444474" lon="5.27826388465">
		<tag k="alt_name" v="Støleøy" />
		<tag k="name" v="Støleøya" />
		<tag k="place" v="islet" />
		<tag k="ssr:stedsnr" v="791697" />
	</node>
	<node id="-10258" lat="59.4537611138" lon="5.23857499691">
		<tag k="name" v="Malmbukta" />
		<tag k="natural" v="bay" />
		<tag k="ssr:stedsnr" v="791684" />
	</node>
	<node id="-9745" lat="59.4052222208" lon="5.27004166441">
		<tag k="name" v="Risøyvågen" />
		<tag k="natural" v="bay" />
		<tag k="ssr:stedsnr" v="345852" />
	</node>
	<node id="-9744" lat="59.4372861108" lon="5.0981222156">
		<tag k="alt_name" v="Hillerøy;Hidlersøy" />
		<tag k="name" v="Hillerøya" />
		<tag k="place" v="islet" />
		<tag k="ssr:stedsnr" v="486696" />
	</node>
	<node id="-9743" lat="59.4347722244" lon="5.12003888356">
		<tag k="alt_name" v="Gitterøy;Gjitterøy" />
		<tag k="name" v="Gitterøya" />
		<tag k="place" v="island" />
		<tag k="ssr:stedsnr" v="486695" />
	</node>
	<node id="-9742" lat="59.4187833346" lon="5.14580000777">
		<tag k="fixme" v="consider seamark:type=rock or natural=shoal" />
		<tag k="name" v="Seiskjer" />
		<tag k="place" v="islet" />
		<tag k="ssr:stedsnr" v="486677" />
	</node>
	<node id="-9739" lat="59.4164333302" lon="5.24977777509">
		<tag k="fixme" v="consider seamark:type=rock or natural=shoal" />
		<tag k="name" v="Flataskjeret" />
		<tag k="place" v="islet" />
		<tag k="ssr:stedsnr" v="483936" />
	</node>
	<node id="-9738" lat="59.415647219" lon="5.26213888753">
		<tag k="name" v="Nordre Smedasundet" />
		<tag k="natural" v="strait" />
		<tag k="ssr:stedsnr" v="483927" />
	</node>
	<node id="-9737" lat="59.3849944446" lon="5.29772776908">
		<tag k="name" v="Nilsastø" />
		<tag k="natural" v="bay" />
		<tag k="ssr:stedsnr" v="482092" />
	</node>
	<node id="-9734" lat="59.4433527739" lon="5.09540555333">
		<tag k="name" v="Hollkoppevik" />
		<tag k="natural" v="bay" />
		<tag k="ssr:stedsnr" v="330115" />
	</node>
	<node id="-9733" lat="59.4630083309" lon="5.18154723021">
		<tag k="name" v="Steinen" />
		<tag k="natural" v="shoal" />
		<tag k="place" v="locality" />
		<tag k="ssr:stedsnr" v="328302" />
	</node>
	<node id="-10243" lat="59.4500999994" lon="5.06565833547">
		<tag k="name" v="Dammen" />
		<tag k="natural" v="strait" />
		<tag k="ssr:stedsnr" v="755623" />
	</node>
	<node id="-10242" lat="59.4862916692" lon="5.26610832523">
		<tag k="name" v="Mjelkeviksundet" />
		<tag k="natural" v="strait" />
		<tag k="ssr:stedsnr" v="755621" />
	</node>
	<node id="-10241" lat="59.4499083347" lon="5.06432777107">
		<tag k="name" v="Kjellaren" />
		<tag k="place" v="islet" />
		<tag k="ssr:stedsnr" v="755620" />
	</node>
</osm>
