<?xml version="1.0" encoding="UTF-8"?>
<<<<<<< HEAD
<osm version="0.6" generator="osmapis">
	<node lat="59.41912970926508" lon="5.28338810231859" id="-2">
		<tag k="fixme" v="consider place=hamlet" />
		<tag k="name" v="Grønhaug" />
		<tag k="place" v="farm" />
		<tag k="ssr:stedsnr" v="1605" />
	</node>
	<node lat="59.44785832905289" lon="5.304591662107849" id="-19">
		<tag k="name" v="Fjellstad" />
		<tag k="place" v="farm" />
		<tag k="ssr:stedsnr" v="62674" />
	</node>
	<node lat="59.439116232412566" lon="5.253387852173405" id="-20">
		<tag k="alt_name" v="Torsnes" />
		<tag k="fixme" v="consider place=hamlet" />
		<tag k="name" v="Tornes" />
		<tag k="place" v="farm" />
		<tag k="ssr:stedsnr" v="62675" />
	</node>
	<node lat="59.44120349695656" lon="5.2451647343839065" id="-22">
		<tag k="alt_name" v="Årebrot" />
		<tag k="fixme" v="consider place=hamlet" />
		<tag k="name" v="Årabrot" />
		<tag k="old_name" v="Arabrot" />
		<tag k="place" v="farm" />
		<tag k="ssr:stedsnr" v="62681" />
	</node>
	<node lat="59.45721944227968" lon="5.296869442638214" id="-36">
		<tag k="name" v="Slottet" />
		<tag k="place" v="farm" />
		<tag k="ssr:stedsnr" v="87526" />
	</node>
	<node lat="59.463394814174315" lon="5.257965422159884" id="-38">
		<tag k="fixme" v="consider place=hamlet" />
		<tag k="name" v="Førland" />
		<tag k="place" v="farm" />
		<tag k="ssr:stedsnr" v="245677" />
	</node>
	<node lat="59.424166665148555" lon="5.2796277714291175" id="-71">
		<tag k="leisure" v="pitch" />
		<tag k="name" v="Haraldshallen" />
		<tag k="ssr:stedsnr" v="269546" />
	</node>
	<node lat="59.41312154168052" lon="5.2875328622305835" id="-86">
=======
<osm generator="osmapis" version="0.6">
	<node id="-10228" lat="59.4328095715" lon="5.2711812722">
>>>>>>> e1d4bc35ff8a6074a6f2e91616a996b547c36f15
		<tag k="fixme" v="consider place=hamlet" />
		<tag k="name" v="Saltveit" />
		<tag k="place" v="farm" />
		<tag k="ssr:stedsnr" v="244636" />
	</node>
<<<<<<< HEAD
	<node lat="59.39856222670469" lon="5.296611585858089" id="-92">
=======
	<node id="-9715" lat="59.3985622267" lon="5.29661158586">
>>>>>>> e1d4bc35ff8a6074a6f2e91616a996b547c36f15
		<tag k="alt_name" v="Rossebø" />
		<tag k="name" v="Rossabø" />
		<tag k="place" v="village" />
		<tag k="ssr:stedsnr" v="452987" />
	</node>
<<<<<<< HEAD
	<node lat="59.412699996099455" lon="5.319069439594391" id="-99">
		<tag k="name" v="Tømmerdal" />
=======
	<node id="-9699" lat="59.4633948142" lon="5.25796542216">
		<tag k="fixme" v="consider place=hamlet" />
		<tag k="name" v="Førland" />
		<tag k="place" v="farm" />
		<tag k="ssr:stedsnr" v="245677" />
	</node>
	<node id="-10205" lat="59.4541191956" lon="5.2991867636">
		<tag k="fixme" v="consider place=hamlet" />
		<tag k="name" v="Skokland" />
>>>>>>> e1d4bc35ff8a6074a6f2e91616a996b547c36f15
		<tag k="place" v="farm" />
		<tag k="ssr:stedsnr" v="269679" />
	</node>
<<<<<<< HEAD
	<node lat="59.40429167098744" lon="5.2862749962359254" id="-108">
		<tag k="name" v="Litlasund" />
		<tag k="place" v="quarter" />
		<tag k="ssr:stedsnr" v="300090" />
	</node>
	<node lat="59.43086554087904" lon="5.25326995516476" id="-110">
=======
	<node id="-10203" lat="59.4488444437" lon="5.26288610727">
		<tag k="name" v="Fagerheim" />
		<tag k="place" v="farm" />
		<tag k="ssr:stedsnr" v="608712" />
	</node>
	<node id="-10200" lat="59.394472397" lon="5.33792437223">
		<tag k="alt_name" v="Vassbrekka" />
>>>>>>> e1d4bc35ff8a6074a6f2e91616a996b547c36f15
		<tag k="fixme" v="consider place=hamlet" />
		<tag k="name" v="Veste" />
		<tag k="place" v="farm" />
<<<<<<< HEAD
		<tag k="ssr:stedsnr" v="305672" />
	</node>
	<node lat="59.41919444331668" lon="5.2793138840592615" id="-144">
		<tag k="name" v="Nerhaug" />
		<tag k="place" v="isolated_dwelling" />
		<tag k="ssr:stedsnr" v="483938" />
	</node>
	<node lat="59.41680555555985" lon="5.280616662643354" id="-145">
		<tag k="name" v="Geitafjellet" />
		<tag k="place" v="quarter" />
		<tag k="ssr:stedsnr" v="483942" />
	</node>
	<node lat="59.479086110596555" lon="5.29444722705997" id="-174">
		<tag k="alt_name" v="Søre Vikse" />
		<tag k="name" v="Vikse" />
=======
		<tag k="ssr:stedsnr" v="608659" />
	</node>
	<node id="-10196" lat="59.3911277738" lon="5.30798611087">
		<tag k="name" v="Bleikemyr" />
		<tag k="place" v="isolated_dwelling" />
		<tag k="ssr:stedsnr" v="603079" />
	</node>
	<node id="-10195" lat="59.3965722204" lon="5.28696388294">
		<tag k="name" v="Skarpavoll" />
		<tag k="place" v="isolated_dwelling" />
		<tag k="ssr:stedsnr" v="603070" />
	</node>
	<node id="-10194" lat="59.4101277801" lon="5.27565555087">
		<tag k="amenity" v="townhall" />
		<tag k="name" v="Haugesund rådhus" />
		<tag k="ssr:stedsnr" v="602247" />
	</node>
	<node id="-10193" lat="59.408880551" lon="5.28013054824">
		<tag k="amenity" v="hospital" />
		<tag k="name" v="Haugesund sykehus" />
		<tag k="ssr:stedsnr" v="602245" />
	</node>
	<node id="-9675" lat="59.4126999961" lon="5.31906943959">
		<tag k="name" v="Tømmerdal" />
		<tag k="place" v="farm" />
		<tag k="ssr:stedsnr" v="269679" />
	</node>
	<node id="-9674" lat="59.4241666651" lon="5.27962777143">
		<tag k="leisure" v="pitch" />
		<tag k="name" v="Haraldshallen" />
		<tag k="ssr:stedsnr" v="269546" />
	</node>
	<node id="-9655" lat="59.4131215417" lon="5.28753286223">
		<tag k="fixme" v="consider place=hamlet" />
		<tag k="name" v="Saltveit" />
>>>>>>> e1d4bc35ff8a6074a6f2e91616a996b547c36f15
		<tag k="place" v="farm" />
		<tag k="ssr:stedsnr" v="488706" />
	</node>
<<<<<<< HEAD
	<node lat="59.43092811946195" lon="5.264107031631359" id="-179">
=======
	<node id="-9648" lat="59.4191297093" lon="5.28338810232">
>>>>>>> e1d4bc35ff8a6074a6f2e91616a996b547c36f15
		<tag k="fixme" v="consider place=hamlet" />
		<tag k="name" v="Steinsnes" />
		<tag k="place" v="farm" />
		<tag k="ssr:stedsnr" v="512578" />
	</node>
<<<<<<< HEAD
	<node lat="59.41051798801194" lon="5.336269142863291" id="-220">
		<tag k="alt_name" v="Fedjedal" />
=======
	<node id="-10158" lat="59.4821766444" lon="5.24748725319">
>>>>>>> e1d4bc35ff8a6074a6f2e91616a996b547c36f15
		<tag k="fixme" v="consider place=hamlet" />
		<tag k="name" v="Fedjedalen" />
		<tag k="place" v="farm" />
<<<<<<< HEAD
		<tag k="ssr:stedsnr" v="694997" />
	</node>
	<node lat="59.414638886067536" lon="5.327308332518553" id="-221">
		<tag k="name" v="Tømmerdal" />
=======
		<tag k="ssr:stedsnr" v="427685" />
	</node>
	<node id="-10152" lat="59.4235583331" lon="5.27008889447">
		<tag k="name" v="Nygard" />
		<tag k="place" v="isolated_dwelling" />
		<tag k="ssr:stedsnr" v="426651" />
	</node>
	<node id="-10151" lat="59.4366972224" lon="5.26390555745">
		<tag k="alt_name" v="Kvale" />
		<tag k="name" v="Kvala" />
>>>>>>> e1d4bc35ff8a6074a6f2e91616a996b547c36f15
		<tag k="place" v="farm" />
		<tag k="ssr:stedsnr" v="694998" />
	</node>
<<<<<<< HEAD
	<node lat="59.410127780065054" lon="5.27565555086667" id="-224">
		<tag k="amenity" v="townhall" />
		<tag k="name" v="Haugesund rådhus" />
		<tag k="ssr:stedsnr" v="602247" />
	</node>
	<node lat="59.39657222037275" lon="5.286963882938553" id="-225">
		<tag k="name" v="Skarpavoll" />
		<tag k="place" v="isolated_dwelling" />
		<tag k="ssr:stedsnr" v="603070" />
	</node>
	<node lat="59.41229444777073" lon="5.326066664096287" id="-228">
		<tag k="name" v="Nyland" />
=======
	<node id="-10129" lat="59.4272561274" lon="5.2654499069">
		<tag k="fixme" v="consider place=hamlet" />
		<tag k="name" v="Gard" />
		<tag k="place" v="farm" />
		<tag k="ssr:stedsnr" v="365659" />
	</node>
	<node id="-10126" lat="59.4201555554" lon="5.33493055403">
		<tag k="name" v="Kringsjå" />
		<tag k="place" v="isolated_dwelling" />
		<tag k="ssr:stedsnr" v="365613" />
	</node>
	<node id="-10124" lat="59.4062944407" lon="5.2764638891">
		<tag k="building" v="civic" />
		<tag k="name" v="Haugesund politistasjon" />
		<tag k="ssr:stedsnr" v="362909" />
	</node>
	<node id="-10117" lat="59.4061860911" lon="5.29255196325">
		<tag k="fixme" v="consider place=hamlet" />
		<tag k="name" v="Storasund" />
>>>>>>> e1d4bc35ff8a6074a6f2e91616a996b547c36f15
		<tag k="place" v="farm" />
		<tag k="ssr:stedsnr" v="608647" />
	</node>
<<<<<<< HEAD
	<node lat="59.45706117521589" lon="5.289415950779509" id="-229">
		<tag k="fixme" v="consider place=hamlet" />
		<tag k="name" v="Storstein" />
=======
	<node id="-10112" lat="59.465086109" lon="5.29110277297">
		<tag k="alt_name" v="Saltveit" />
		<tag k="name" v="Nordre Saltveit" />
>>>>>>> e1d4bc35ff8a6074a6f2e91616a996b547c36f15
		<tag k="place" v="farm" />
		<tag k="ssr:stedsnr" v="609631" />
	</node>
<<<<<<< HEAD
	<node lat="59.431288892276996" lon="5.309219444474681" id="-236">
		<tag k="historic" v="shieling" />
		<tag k="name" v="Arkastølen" />
		<tag k="place" v="isolated_dwelling" />
		<tag k="ssr:stedsnr" v="703058" />
	</node>
	<node lat="59.39392500138507" lon="5.310858333746811" id="-249">
		<tag k="name" v="Skuggaberg" />
		<tag k="place" v="quarter" />
		<tag k="ssr:stedsnr" v="661139" />
	</node>
	<node lat="59.40892221770747" lon="5.276227775826517" id="-250">
		<tag k="amenity" v="university" />
		<tag k="name" v="Haugesund høgskole" />
		<tag k="ssr:stedsnr" v="663234" />
	</node>
	<node lat="59.4003810801291" lon="5.3398088724321715" id="-253">
=======
	<node id="-10096" lat="59.4879438668" lon="5.25457091268">
		<tag k="name" v="Hagland" />
		<tag k="place" v="hamlet" />
		<tag k="ssr:stedsnr" v="306672" />
	</node>
	<node id="-10095" lat="59.4978567249" lon="5.25322412782">
		<tag k="name" v="Straumsnes" />
		<tag k="place" v="farm" />
		<tag k="ssr:stedsnr" v="305741" />
	</node>
	<node id="-10092" lat="59.4308655409" lon="5.25326995516">
		<tag k="fixme" v="consider place=hamlet" />
		<tag k="name" v="Veste" />
		<tag k="place" v="farm" />
		<tag k="ssr:stedsnr" v="305672" />
	</node>
	<node id="-10088" lat="59.427205555" lon="5.28167222146">
		<tag k="leisure" v="pitch" />
		<tag k="name" v="Haraldsvang" />
		<tag k="ssr:stedsnr" v="209573" />
	</node>
	<node id="-10069" lat="59.4883885053" lon="5.24992972266">
		<tag k="alt_name" v="Hagland store;Vestre Hagland" />
>>>>>>> e1d4bc35ff8a6074a6f2e91616a996b547c36f15
		<tag k="fixme" v="consider place=hamlet" />
		<tag k="name" v="Ørpetveit" />
		<tag k="place" v="farm" />
<<<<<<< HEAD
		<tag k="ssr:stedsnr" v="669623" />
	</node>
	<node lat="59.39808055650081" lon="5.314461102533829" id="-268">
		<tag k="name" v="Svehaug" />
		<tag k="place" v="quarter" />
		<tag k="ssr:stedsnr" v="905128" />
	</node>
	<node lat="59.39454999943069" lon="5.284422230235526" id="-269">
		<tag k="name" v="Hansastø" />
=======
		<tag k="ssr:stedsnr" v="208277" />
	</node>
	<node id="-10063" lat="59.4368138903" lon="5.3083388953">
		<tag k="name" v="Kattanakk" />
		<tag k="place" v="hamlet" />
		<tag k="ssr:stedsnr" v="183623" />
	</node>
	<node id="-10060" lat="59.4070694418" lon="5.27309999374">
		<tag k="building" v="commercial" />
		<tag k="name" v="Stoltenberg" />
		<tag k="ssr:stedsnr" v="163843" />
	</node>
	<node id="-10059" lat="59.4116166654" lon="5.2626722245">
		<tag k="name" v="Vestberg" />
>>>>>>> e1d4bc35ff8a6074a6f2e91616a996b547c36f15
		<tag k="place" v="quarter" />
		<tag k="ssr:stedsnr" v="905145" />
	</node>
<<<<<<< HEAD
	<node lat="59.41102222430511" lon="5.258541670351819" id="-275">
		<tag k="building" v="civic" />
		<tag k="name" v="Karmsund Havnevesen" />
		<tag k="ssr:stedsnr" v="770859" />
	</node>
	<node lat="59.40076388633306" lon="5.300261113520321" id="-278">
		<tag k="name" v="Porshaug" />
		<tag k="place" v="quarter" />
		<tag k="ssr:stedsnr" v="783116" />
	</node>
	<node lat="59.473928670983504" lon="5.295930456858918" id="-282">
=======
	<node id="-10057" lat="59.4347277744" lon="5.25450832959">
		<tag k="name" v="Kvala" />
		<tag k="place" v="suburb" />
		<tag k="ssr:stedsnr" v="162770" />
	</node>
	<node id="-10050" lat="59.4130388923" lon="5.27933888424">
		<tag k="leisure" v="pitch" />
		<tag k="name" v="Haugesund stadion" />
		<tag k="ssr:stedsnr" v="147890" />
	</node>
	<node id="-10044" lat="59.4780243082" lon="5.24683190843">
>>>>>>> e1d4bc35ff8a6074a6f2e91616a996b547c36f15
		<tag k="fixme" v="consider place=hamlet" />
		<tag k="name" v="Vikse" />
		<tag k="place" v="farm" />
		<tag k="ssr:stedsnr" v="791703" />
	</node>
<<<<<<< HEAD
	<node lat="59.47804071009532" lon="5.285261416366699" id="-283">
=======
	<node id="-10040" lat="59.4448630749" lon="5.27989575642">
>>>>>>> e1d4bc35ff8a6074a6f2e91616a996b547c36f15
		<tag k="fixme" v="consider place=hamlet" />
		<tag k="name" v="Bakken" />
		<tag k="place" v="farm" />
<<<<<<< HEAD
		<tag k="ssr:stedsnr" v="913691" />
	</node>
	<node lat="59.48142939470804" lon="5.2839971190989425" id="-284">
=======
		<tag k="ssr:stedsnr" v="122654" />
	</node>
	<node id="-10018" lat="59.4274138911" lon="5.27079445073">
		<tag k="amenity" v="nursing_home" />
		<tag k="name" v="Skåreheimen" />
		<tag k="ssr:stedsnr" v="87549" />
	</node>
	<node id="-10017" lat="59.4203284399" lon="5.27013543173">
>>>>>>> e1d4bc35ff8a6074a6f2e91616a996b547c36f15
		<tag k="fixme" v="consider place=hamlet" />
		<tag k="name" v="Støle" />
		<tag k="place" v="farm" />
		<tag k="ssr:stedsnr" v="913694" />
	</node>
<<<<<<< HEAD
	<node lat="59.46691046050018" lon="5.372725095498557" id="-298">
		<tag k="alt_name" v="Skardstad" />
		<tag k="fixme" v="consider place=hamlet" />
		<tag k="name" v="Skastad" />
=======
	<node id="-10015" lat="59.4572194423" lon="5.29686944264">
		<tag k="name" v="Slottet" />
>>>>>>> e1d4bc35ff8a6074a6f2e91616a996b547c36f15
		<tag k="place" v="farm" />
		<tag k="ssr:stedsnr" v="852673" />
	</node>
<<<<<<< HEAD
	<node lat="59.415816669514996" lon="5.319180562823885" id="-308">
		<tag k="name" v="Stølshaug" />
		<tag k="place" v="quarter" />
		<tag k="ssr:stedsnr" v="905225" />
	</node>
	<node lat="59.43790072986135" lon="5.090178539861114" id="-309">
=======
	<node id="-10010" lat="59.4501111112" lon="5.31857221615">
		<tag k="name" v="Kvala" />
		<tag k="place" v="locality" />
		<tag k="ssr:stedsnr" v="87362" />
	</node>
	<node id="-10005" lat="59.4666744817" lon="5.28959205785">
>>>>>>> e1d4bc35ff8a6074a6f2e91616a996b547c36f15
		<tag k="fixme" v="consider place=hamlet" />
		<tag k="name" v="Røvær" />
		<tag k="place" v="farm" />
		<tag k="ssr:stedsnr" v="912306" />
	</node>
<<<<<<< HEAD
	<node lat="59.41042983640152" lon="5.28989524042686" id="-317">
=======
	<node id="-10004" lat="59.4685673175" lon="5.33200237989">
>>>>>>> e1d4bc35ff8a6074a6f2e91616a996b547c36f15
		<tag k="fixme" v="consider place=hamlet" />
		<tag k="name" v="Litlasund" />
		<tag k="place" v="farm" />
		<tag k="ssr:stedsnr" v="937932" />
	</node>
<<<<<<< HEAD
	<node lat="59.424533334516674" lon="5.306886108313123" id="-318">
		<tag k="historic" v="shieling" />
		<tag k="name" v="Setrene" />
		<tag k="place" v="isolated_dwelling" />
		<tag k="ssr:stedsnr" v="946008" />
	</node>
	<node lat="59.41470447041377" lon="5.248106391963334" id="-322">
=======
	<node id="-10002" lat="59.4773023967" lon="5.3751201617">
		<tag k="fixme" v="consider place=hamlet" />
		<tag k="name" v="Halseid" />
		<tag k="place" v="farm" />
		<tag k="ssr:stedsnr" v="63704" />
	</node>
	<node id="-10001" lat="59.4758083691" lon="5.24891774399">
>>>>>>> e1d4bc35ff8a6074a6f2e91616a996b547c36f15
		<tag k="fixme" v="consider place=hamlet" />
		<tag k="name" v="Vibrandsøya" />
		<tag k="place" v="farm" />
		<tag k="ssr:stedsnr" v="990931" />
	</node>
<<<<<<< HEAD
	<node lat="59.41727500119349" lon="5.264497225527384" id="-329">
		<tag k="leisure" v="park" />
		<tag k="name" v="Byparken" />
		<tag k="ssr:stedsnr" v="26951" />
	</node>
	<node lat="59.39947222485339" lon="5.323300004167598" id="-340">
		<tag k="name" v="Brakahaug" />
		<tag k="place" v="quarter" />
		<tag k="ssr:stedsnr" v="55138" />
	</node>
	<node lat="59.38934444476959" lon="5.298627779238598" id="-341">
		<tag k="name" v="Holane" />
		<tag k="place" v="isolated_dwelling" />
		<tag k="ssr:stedsnr" v="57096" />
	</node>
	<node lat="59.42651335115529" lon="5.298753109142878" id="-343">
=======
	<node id="-9998" lat="59.441203497" lon="5.24516473438">
		<tag k="alt_name" v="Årebrot" />
		<tag k="fixme" v="consider place=hamlet" />
		<tag k="name" v="Årabrot" />
		<tag k="old_name" v="Arabrot" />
		<tag k="place" v="farm" />
		<tag k="ssr:stedsnr" v="62681" />
	</node>
	<node id="-9996" lat="59.4391162324" lon="5.25338785217">
		<tag k="alt_name" v="Torsnes" />
		<tag k="fixme" v="consider place=hamlet" />
		<tag k="name" v="Tornes" />
		<tag k="place" v="farm" />
		<tag k="ssr:stedsnr" v="62675" />
	</node>
	<node id="-9995" lat="59.4478583291" lon="5.30459166211">
		<tag k="name" v="Fjellstad" />
		<tag k="place" v="farm" />
		<tag k="ssr:stedsnr" v="62674" />
	</node>
	<node id="-9993" lat="59.4265133512" lon="5.29875310914">
>>>>>>> e1d4bc35ff8a6074a6f2e91616a996b547c36f15
		<tag k="alt_name" v="Ramsdal" />
		<tag k="name" v="Ramsdalen" />
		<tag k="place" v="farm" />
		<tag k="ssr:stedsnr" v="62659" />
	</node>
<<<<<<< HEAD
	<node lat="59.468567317468576" lon="5.332002379887181" id="-346">
		<tag k="fixme" v="consider place=hamlet" />
		<tag k="name" v="Kalland" />
		<tag k="place" v="farm" />
		<tag k="ssr:stedsnr" v="63697" />
	</node>
	<node lat="59.466674481743546" lon="5.289592057847721" id="-347">
		<tag k="fixme" v="consider place=hamlet" />
		<tag k="name" v="Saltveit" />
		<tag k="place" v="farm" />
		<tag k="ssr:stedsnr" v="63699" />
	</node>
	<node lat="59.475808369063174" lon="5.2489177439917905" id="-348">
		<tag k="fixme" v="consider place=hamlet" />
		<tag k="name" v="Grønhiller" />
		<tag k="place" v="farm" />
		<tag k="ssr:stedsnr" v="63701" />
	</node>
	<node lat="59.47730239667618" lon="5.375120161699818" id="-349">
		<tag k="fixme" v="consider place=hamlet" />
		<tag k="name" v="Halseid" />
		<tag k="place" v="farm" />
		<tag k="ssr:stedsnr" v="63704" />
	</node>
	<node lat="59.450111111224" lon="5.318572216153774" id="-356">
		<tag k="name" v="Kvala" />
		<tag k="place" v="locality" />
		<tag k="ssr:stedsnr" v="87362" />
	</node>
	<node lat="59.420328439904836" lon="5.270135431728185" id="-359">
		<tag k="fixme" v="consider place=hamlet" />
		<tag k="name" v="Haugo" />
		<tag k="place" v="farm" />
		<tag k="ssr:stedsnr" v="87533" />
	</node>
	<node lat="59.427413891109474" lon="5.270794450730239" id="-360">
		<tag k="amenity" v="nursing_home" />
		<tag k="name" v="Skåreheimen" />
		<tag k="ssr:stedsnr" v="87549" />
	</node>
	<node lat="59.44486307491342" lon="5.279895756421871" id="-373">
=======
	<node id="-10284" lat="59.4669104605" lon="5.3727250955">
		<tag k="alt_name" v="Skardstad" />
		<tag k="fixme" v="consider place=hamlet" />
		<tag k="name" v="Skastad" />
		<tag k="place" v="farm" />
		<tag k="ssr:stedsnr" v="852673" />
	</node>
	<node id="-9988" lat="59.3893444448" lon="5.29862777924">
		<tag k="name" v="Holane" />
		<tag k="place" v="isolated_dwelling" />
		<tag k="ssr:stedsnr" v="57096" />
	</node>
	<node id="-9987" lat="59.3994722249" lon="5.32330000417">
		<tag k="name" v="Brakahaug" />
		<tag k="place" v="quarter" />
		<tag k="ssr:stedsnr" v="55138" />
	</node>
	<node id="-9984" lat="59.404291671" lon="5.28627499624">
		<tag k="name" v="Litlasund" />
		<tag k="place" v="quarter" />
		<tag k="ssr:stedsnr" v="300090" />
	</node>
	<node id="-9969" lat="59.4172750012" lon="5.26449722553">
		<tag k="leisure" v="park" />
		<tag k="name" v="Byparken" />
		<tag k="ssr:stedsnr" v="26951" />
	</node>
	<node id="-9950" lat="59.3939527759" lon="5.30074999747">
		<tag k="name" v="Stuttebjørg" />
		<tag k="place" v="isolated_dwelling" />
		<tag k="ssr:stedsnr" v="967075" />
	</node>
	<node id="-9949" lat="59.4138861113" lon="5.28384721711">
		<tag k="name" v="Varhaug" />
		<tag k="place" v="isolated_dwelling" />
		<tag k="ssr:stedsnr" v="967067" />
	</node>
	<node id="-9948" lat="59.4104298364" lon="5.28989524043">
>>>>>>> e1d4bc35ff8a6074a6f2e91616a996b547c36f15
		<tag k="fixme" v="consider place=hamlet" />
		<tag k="name" v="Kvala" />
		<tag k="place" v="farm" />
		<tag k="ssr:stedsnr" v="122654" />
	</node>
<<<<<<< HEAD
	<node lat="59.4780243081937" lon="5.246831908429914" id="-377">
=======
	<node id="-9944" lat="59.4379007299" lon="5.09017853986">
>>>>>>> e1d4bc35ff8a6074a6f2e91616a996b547c36f15
		<tag k="fixme" v="consider place=hamlet" />
		<tag k="name" v="Bleivik" />
		<tag k="place" v="farm" />
		<tag k="ssr:stedsnr" v="123724" />
	</node>
<<<<<<< HEAD
	<node lat="59.41303889227543" lon="5.279338884244624" id="-385">
		<tag k="leisure" v="pitch" />
		<tag k="name" v="Haugesund stadion" />
		<tag k="ssr:stedsnr" v="147890" />
	</node>
	<node lat="59.4347277743699" lon="5.254508329594809" id="-393">
		<tag k="name" v="Kvala" />
		<tag k="place" v="suburb" />
		<tag k="ssr:stedsnr" v="162770" />
	</node>
	<node lat="59.41161666543833" lon="5.262672224498016" id="-395">
		<tag k="name" v="Vestberg" />
=======
	<node id="-9943" lat="59.3980805565" lon="5.31446110253">
		<tag k="name" v="Svehaug" />
		<tag k="place" v="quarter" />
		<tag k="ssr:stedsnr" v="905128" />
	</node>
	<node id="-9942" lat="59.4158166695" lon="5.31918056282">
		<tag k="name" v="Stølshaug" />
>>>>>>> e1d4bc35ff8a6074a6f2e91616a996b547c36f15
		<tag k="place" v="quarter" />
		<tag k="ssr:stedsnr" v="163842" />
	</node>
<<<<<<< HEAD
	<node lat="59.40706944176119" lon="5.2730999937352765" id="-396">
		<tag k="building" v="commercial" />
		<tag k="name" v="Stoltenberg" />
		<tag k="ssr:stedsnr" v="163843" />
	</node>
	<node lat="59.43681389029486" lon="5.308338895299322" id="-399">
		<tag k="name" v="Kattanakk" />
		<tag k="place" v="hamlet" />
		<tag k="ssr:stedsnr" v="183623" />
	</node>
	<node lat="59.48838850534162" lon="5.249929722662768" id="-403">
		<tag k="alt_name" v="Hagland store;Vestre Hagland" />
		<tag k="fixme" v="consider place=hamlet" />
		<tag k="name" v="Store Hagland" />
		<tag k="place" v="farm" />
		<tag k="ssr:stedsnr" v="208277" />
	</node>
	<node lat="59.42720555497244" lon="5.281672221460186" id="-415">
		<tag k="leisure" v="pitch" />
		<tag k="name" v="Haraldsvang" />
		<tag k="ssr:stedsnr" v="209573" />
	</node>
	<node lat="59.49785672493682" lon="5.253224127820519" id="-425">
		<tag k="name" v="Straumsnes" />
=======
	<node id="-9934" lat="59.4245333345" lon="5.30688610831">
		<tag k="historic" v="shieling" />
		<tag k="name" v="Setrene" />
		<tag k="place" v="locality" />
		<tag k="ssr:stedsnr" v="946008" />
	</node>
	<node id="-9932" lat="59.4687277788" lon="5.28500834053">
		<tag k="amenity" v="school" />
		<tag k="name" v="Saltveit skole" />
		<tag k="ssr:stedsnr" v="937656" />
	</node>
	<node id="-9912" lat="59.3956500035" lon="5.32195278496">
		<tag k="name" v="Raglamyr" />
		<tag k="place" v="quarter" />
		<tag k="ssr:stedsnr" v="816590" />
	</node>
	<node id="-9903" lat="59.4110222243" lon="5.25854167035">
		<tag k="building" v="civic" />
		<tag k="name" v="Karmsund Havnevesen" />
		<tag k="ssr:stedsnr" v="770859" />
	</node>
	<node id="-9902" lat="59.4814293947" lon="5.2839971191">
		<tag k="fixme" v="consider place=hamlet" />
		<tag k="name" v="Støle" />
>>>>>>> e1d4bc35ff8a6074a6f2e91616a996b547c36f15
		<tag k="place" v="farm" />
		<tag k="ssr:stedsnr" v="305741" />
	</node>
<<<<<<< HEAD
	<node lat="59.48794386681711" lon="5.254570912680907" id="-426">
		<tag k="name" v="Hagland" />
		<tag k="place" v="hamlet" />
		<tag k="ssr:stedsnr" v="306672" />
	</node>
	<node lat="59.40618609109921" lon="5.292551963248589" id="-435">
=======
	<node id="-9901" lat="59.4780407101" lon="5.28526141637">
>>>>>>> e1d4bc35ff8a6074a6f2e91616a996b547c36f15
		<tag k="fixme" v="consider place=hamlet" />
		<tag k="name" v="Storasund" />
		<tag k="place" v="farm" />
		<tag k="ssr:stedsnr" v="330950" />
	</node>
<<<<<<< HEAD
	<node lat="59.4650861090074" lon="5.291102772973035" id="-438">
		<tag k="alt_name" v="Saltveit" />
		<tag k="name" v="Nordre Saltveit" />
		<tag k="place" v="farm" />
		<tag k="ssr:stedsnr" v="330659" />
	</node>
	<node lat="59.42091758407219" lon="5.32466305261485" id="-442">
		<tag k="fixme" v="consider place=hamlet" />
		<tag k="name" v="Tømmerdal" />
		<tag k="place" v="farm" />
		<tag k="ssr:stedsnr" v="330715" />
	</node>
	<node lat="59.40629444071755" lon="5.276463889095269" id="-447">
		<tag k="building" v="civic" />
		<tag k="name" v="Haugesund politistasjon" />
		<tag k="ssr:stedsnr" v="362909" />
	</node>
	<node lat="59.42015555535702" lon="5.334930554027027" id="-449">
		<tag k="name" v="Kringsjå" />
=======
	<node id="-9898" lat="59.3945499994" lon="5.28442223024">
		<tag k="name" v="Hansastø" />
		<tag k="place" v="quarter" />
		<tag k="ssr:stedsnr" v="905145" />
	</node>
	<node id="-9882" lat="59.3948111098" lon="5.304358335">
		<tag k="amenity" v="nursing_home" />
		<tag k="name" v="Rossabøheimen" />
		<tag k="ssr:stedsnr" v="664088" />
	</node>
	<node id="-9881" lat="59.4039861115" lon="5.28153055932">
		<tag k="name" v="Skuggeberg" />
>>>>>>> e1d4bc35ff8a6074a6f2e91616a996b547c36f15
		<tag k="place" v="isolated_dwelling" />
		<tag k="ssr:stedsnr" v="365613" />
	</node>
<<<<<<< HEAD
	<node lat="59.42725612737465" lon="5.265449906902344" id="-451">
=======
	<node id="-9880" lat="59.4156837174" lon="5.28613000341">
>>>>>>> e1d4bc35ff8a6074a6f2e91616a996b547c36f15
		<tag k="fixme" v="consider place=hamlet" />
		<tag k="name" v="Gard" />
		<tag k="place" v="farm" />
		<tag k="ssr:stedsnr" v="365659" />
	</node>
<<<<<<< HEAD
	<node lat="59.4911062760239" lon="5.265328021683281" id="-459">
		<tag k="alt_name" v="Hagland litle;Østre Hagland" />
		<tag k="fixme" v="consider place=hamlet" />
		<tag k="name" v="Litle Hagland" />
		<tag k="place" v="farm" />
		<tag k="ssr:stedsnr" v="390575" />
	</node>
	<node lat="59.43669722239315" lon="5.263905557449098" id="-476">
		<tag k="alt_name" v="Kvale" />
		<tag k="name" v="Kvala" />
=======
	<node id="-9867" lat="59.4790888854" lon="5.38885277015">
		<tag k="name" v="Elleflåt" />
>>>>>>> e1d4bc35ff8a6074a6f2e91616a996b547c36f15
		<tag k="place" v="farm" />
		<tag k="ssr:stedsnr" v="426636" />
	</node>
<<<<<<< HEAD
	<node lat="59.42355833309542" lon="5.270088894469561" id="-477">
		<tag k="name" v="Nygard" />
		<tag k="place" v="isolated_dwelling" />
		<tag k="ssr:stedsnr" v="426651" />
	</node>
	<node lat="59.48217664442892" lon="5.24748725319496" id="-482">
=======
	<node id="-9866" lat="59.4112388858" lon="5.27956110277">
		<tag k="name" v="Hollenderhaugen" />
		<tag k="place" v="quarter" />
		<tag k="ssr:stedsnr" v="646055" />
	</node>
	<node id="-9864" lat="59.4016255828" lon="5.29778156944">
>>>>>>> e1d4bc35ff8a6074a6f2e91616a996b547c36f15
		<tag k="fixme" v="consider place=hamlet" />
		<tag k="name" v="Bergstøl" />
		<tag k="place" v="farm" />
		<tag k="ssr:stedsnr" v="427685" />
	</node>
<<<<<<< HEAD
	<node lat="59.40888055104104" lon="5.280130548235258" id="-513">
		<tag k="amenity" v="hospital" />
		<tag k="name" v="Haugesund sykehus" />
		<tag k="ssr:stedsnr" v="602245" />
	</node>
	<node lat="59.391127773834384" lon="5.307986110868846" id="-514">
		<tag k="name" v="Bleikemyr" />
=======
	<node id="-9862" lat="59.4139277754" lon="5.33098889488">
		<tag k="alt_name" v="Skåredalen" />
		<tag k="name" v="Skåredal" />
		<tag k="place" v="farm" />
		<tag k="ssr:stedsnr" v="730654" />
	</node>
	<node id="-9845" lat="59.4021527791" lon="5.29701666114">
		<tag k="name" v="Storhaug" />
>>>>>>> e1d4bc35ff8a6074a6f2e91616a996b547c36f15
		<tag k="place" v="isolated_dwelling" />
		<tag k="ssr:stedsnr" v="603079" />
	</node>
<<<<<<< HEAD
	<node lat="59.394472396956935" lon="5.337924372225768" id="-517">
		<tag k="alt_name" v="Vassbrekka" />
=======
	<node id="-9841" lat="59.4570611752" lon="5.28941595078">
>>>>>>> e1d4bc35ff8a6074a6f2e91616a996b547c36f15
		<tag k="fixme" v="consider place=hamlet" />
		<tag k="name" v="Vassbrekke" />
		<tag k="place" v="farm" />
		<tag k="ssr:stedsnr" v="608659" />
	</node>
<<<<<<< HEAD
	<node lat="59.44884444365113" lon="5.262886107270099" id="-520">
		<tag k="name" v="Fagerheim" />
=======
	<node id="-9837" lat="59.4122944478" lon="5.3260666641">
		<tag k="name" v="Nyland" />
>>>>>>> e1d4bc35ff8a6074a6f2e91616a996b547c36f15
		<tag k="place" v="farm" />
		<tag k="ssr:stedsnr" v="608712" />
	</node>
<<<<<<< HEAD
	<node lat="59.45411919560197" lon="5.299186763595169" id="-522">
		<tag k="fixme" v="consider place=hamlet" />
		<tag k="name" v="Skokland" />
		<tag k="place" v="farm" />
		<tag k="ssr:stedsnr" v="608717" />
	</node>
	<node lat="59.38926385652023" lon="5.3033491097707435" id="-523">
=======
	<node id="-9834" lat="59.3892638565" lon="5.30334910977">
>>>>>>> e1d4bc35ff8a6074a6f2e91616a996b547c36f15
		<tag k="alt_name" v="Sakkestad" />
		<tag k="name" v="Sakkastad" />
		<tag k="place" v="suburb" />
		<tag k="ssr:stedsnr" v="608617" />
	</node>
<<<<<<< HEAD
	<node lat="59.40240277594232" lon="5.337366670715678" id="-531">
		<tag k="fixme" v="consider place=hamlet" />
		<tag k="name" v="Ørpetveit" />
		<tag k="place" v="village" />
		<tag k="ssr:stedsnr" v="631948" />
	</node>
	<node lat="59.4112388858241" lon="5.279561102766847" id="-544">
		<tag k="name" v="Hollenderhaugen" />
		<tag k="place" v="quarter" />
		<tag k="ssr:stedsnr" v="646055" />
	</node>
	<node lat="59.407680554232" lon="5.328455560754366" id="-547">
		<tag k="name" v="Eikjehammar" />
		<tag k="place" v="quarter" />
		<tag k="ssr:stedsnr" v="661221" />
	</node>
	<node lat="59.394811109778004" lon="5.304358334996402" id="-548">
		<tag k="amenity" v="nursing_home" />
		<tag k="name" v="Rossabøheimen" />
		<tag k="ssr:stedsnr" v="664088" />
	</node>
	<node lat="59.40398611145414" lon="5.28153055932019" id="-549">
		<tag k="name" v="Skuggeberg" />
		<tag k="place" v="isolated_dwelling" />
		<tag k="ssr:stedsnr" v="664076" />
	</node>
	<node lat="59.40215277912068" lon="5.297016661136464" id="-558">
		<tag k="name" v="Storhaug" />
		<tag k="place" v="isolated_dwelling" />
		<tag k="ssr:stedsnr" v="725082" />
	</node>
	<node lat="59.40162558278082" lon="5.297781569437673" id="-561">
=======
	<node id="-9817" lat="59.4312888923" lon="5.30921944447">
		<tag k="historic" v="shieling" />
		<tag k="name" v="Arkastølen" />
		<tag k="place" v="locality" />
		<tag k="ssr:stedsnr" v="703058" />
	</node>
	<node id="-9814" lat="59.4146388861" lon="5.32730833252">
		<tag k="name" v="Tømmerdal" />
		<tag k="place" v="farm" />
		<tag k="ssr:stedsnr" v="694998" />
	</node>
	<node id="-9813" lat="59.410517988" lon="5.33626914286">
		<tag k="alt_name" v="Fedjedal" />
>>>>>>> e1d4bc35ff8a6074a6f2e91616a996b547c36f15
		<tag k="fixme" v="consider place=hamlet" />
		<tag k="name" v="Hemmingstad" />
		<tag k="place" v="farm" />
		<tag k="ssr:stedsnr" v="730678" />
	</node>
<<<<<<< HEAD
	<node lat="59.413927775415274" lon="5.330988894882951" id="-567">
		<tag k="alt_name" v="Skåredalen" />
		<tag k="name" v="Skåredal" />
		<tag k="place" v="farm" />
		<tag k="ssr:stedsnr" v="730654" />
	</node>
	<node lat="59.43280957147996" lon="5.2711812722037905" id="-568">
=======
	<node id="-10252" lat="59.4325488962" lon="5.2766817054">
		<tag k="name" v="Skeisvoll" />
		<tag k="place" v="farm" />
		<tag k="ssr:stedsnr" v="790675" />
	</node>
	<node id="-9790" lat="59.4003810801" lon="5.33980887243">
>>>>>>> e1d4bc35ff8a6074a6f2e91616a996b547c36f15
		<tag k="fixme" v="consider place=hamlet" />
		<tag k="name" v="Austrheim" />
		<tag k="place" v="farm" />
		<tag k="ssr:stedsnr" v="749982" />
	</node>
<<<<<<< HEAD
	<node lat="59.471291665081836" lon="5.2786055636918" id="-580">
		<tag k="name" v="Viksemarka" />
		<tag k="place" v="farm" />
		<tag k="ssr:stedsnr" v="755631" />
	</node>
	<node lat="59.43254889624936" lon="5.276681705395641" id="-585">
		<tag k="name" v="Skeisvoll" />
=======
	<node id="-9787" lat="59.4089222177" lon="5.27622777583">
		<tag k="amenity" v="university" />
		<tag k="name" v="Haugesund høgskole" />
		<tag k="ssr:stedsnr" v="663234" />
	</node>
	<node id="-10297" lat="59.4147044704" lon="5.24810639196">
		<tag k="fixme" v="consider place=hamlet" />
		<tag k="name" v="Vibrandsøya" />
>>>>>>> e1d4bc35ff8a6074a6f2e91616a996b547c36f15
		<tag k="place" v="farm" />
		<tag k="ssr:stedsnr" v="790675" />
	</node>
<<<<<<< HEAD
	<node lat="59.44276388861336" lon="5.268005548190033" id="-587">
		<tag k="name" v="Godalen" />
		<tag k="place" v="farm" />
		<tag k="ssr:stedsnr" v="790711" />
	</node>
	<node lat="59.395650003520906" lon="5.32195278496275" id="-601">
		<tag k="name" v="Raglamyr" />
=======
	<node id="-9784" lat="59.4076805542" lon="5.32845556075">
		<tag k="name" v="Eikjehammar" />
		<tag k="place" v="quarter" />
		<tag k="ssr:stedsnr" v="661221" />
	</node>
	<node id="-9781" lat="59.3939250014" lon="5.31085833375">
		<tag k="name" v="Skuggaberg" />
>>>>>>> e1d4bc35ff8a6074a6f2e91616a996b547c36f15
		<tag k="place" v="quarter" />
		<tag k="ssr:stedsnr" v="816590" />
	</node>
<<<<<<< HEAD
	<node lat="59.41377777775576" lon="5.2680277712634975" id="-607">
		<tag k="name" v="Haugesund" />
		<tag k="place" v="town" />
		<tag k="ssr:stedsnr" v="851640" />
	</node>
	<node lat="59.47908888542383" lon="5.3888527701461175" id="-614">
		<tag k="name" v="Elleflåt" />
		<tag k="place" v="farm" />
		<tag k="ssr:stedsnr" v="876299" />
	</node>
	<node lat="59.41568371737726" lon="5.286130003414076" id="-627">
		<tag k="fixme" v="consider place=hamlet" />
		<tag k="name" v="Sørhaug" />
		<tag k="place" v="farm" />
		<tag k="ssr:stedsnr" v="876936" />
	</node>
	<node lat="59.468727778793756" lon="5.285008340527603" id="-642">
		<tag k="amenity" v="school" />
		<tag k="name" v="Saltveit skole" />
		<tag k="ssr:stedsnr" v="937656" />
	</node>
	<node lat="59.41112221896988" lon="5.333833339703825" id="-644">
=======
	<node id="-10292" lat="59.3928944484" lon="5.30111388077">
		<tag k="name" v="Longebjørg" />
		<tag k="place" v="isolated_dwelling" />
		<tag k="ssr:stedsnr" v="967083" />
	</node>
	<node id="-10291" lat="59.411122219" lon="5.3338333397">
>>>>>>> e1d4bc35ff8a6074a6f2e91616a996b547c36f15
		<tag k="name" v="Fedjedalen" />
		<tag k="place" v="quarter" />
		<tag k="ssr:stedsnr" v="965241" />
	</node>
<<<<<<< HEAD
	<node lat="59.41388611126305" lon="5.283847217105558" id="-645">
		<tag k="name" v="Varhaug" />
		<tag k="place" v="isolated_dwelling" />
		<tag k="ssr:stedsnr" v="967067" />
	</node>
	<node lat="59.39395277589114" lon="5.3007499974723" id="-646">
		<tag k="name" v="Stuttebjørg" />
		<tag k="place" v="isolated_dwelling" />
		<tag k="ssr:stedsnr" v="967075" />
	</node>
	<node lat="59.39289444842819" lon="5.301113880770775" id="-648">
		<tag k="name" v="Longebjørg" />
		<tag k="place" v="isolated_dwelling" />
		<tag k="ssr:stedsnr" v="967083" />
=======
	<node id="-9772" lat="59.4309281195" lon="5.26410703163">
		<tag k="fixme" v="consider place=hamlet" />
		<tag k="name" v="Steinsnes" />
		<tag k="place" v="farm" />
		<tag k="ssr:stedsnr" v="512578" />
>>>>>>> e1d4bc35ff8a6074a6f2e91616a996b547c36f15
	</node>
	<node id="-10280" lat="59.4137777778" lon="5.26802777126">
		<tag k="name" v="Haugesund" />
		<tag k="place" v="town" />
		<tag k="ssr:stedsnr" v="851640" />
	</node>
	<node id="-9753" lat="59.491106276" lon="5.26532802168">
		<tag k="alt_name" v="Hagland litle;Østre Hagland" />
		<tag k="fixme" v="consider place=hamlet" />
		<tag k="name" v="Litle Hagland" />
		<tag k="place" v="farm" />
		<tag k="ssr:stedsnr" v="390575" />
	</node>
	<node id="-10262" lat="59.473928671" lon="5.29593045686">
		<tag k="fixme" v="consider place=hamlet" />
		<tag k="name" v="Vikse" />
		<tag k="place" v="farm" />
		<tag k="ssr:stedsnr" v="791703" />
	</node>
	<node id="-9749" lat="59.4790861106" lon="5.29444722706">
		<tag k="alt_name" v="Søre Vikse" />
		<tag k="name" v="Vikse" />
		<tag k="place" v="farm" />
		<tag k="ssr:stedsnr" v="488706" />
	</node>
	<node id="-10256" lat="59.4427638886" lon="5.26800554819">
		<tag k="name" v="Godalen" />
		<tag k="place" v="farm" />
		<tag k="ssr:stedsnr" v="790711" />
	</node>
	<node id="-9741" lat="59.4168055556" lon="5.28061666264">
		<tag k="name" v="Geitafjellet" />
		<tag k="place" v="quarter" />
		<tag k="ssr:stedsnr" v="483942" />
	</node>
	<node id="-9740" lat="59.4191944433" lon="5.27931388406">
		<tag k="name" v="Nerhaug" />
		<tag k="place" v="isolated_dwelling" />
		<tag k="ssr:stedsnr" v="483938" />
	</node>
	<node id="-10251" lat="59.4007638863" lon="5.30026111352">
		<tag k="name" v="Porshaug" />
		<tag k="place" v="quarter" />
		<tag k="ssr:stedsnr" v="783116" />
	</node>
	<node id="-9735" lat="59.4209175841" lon="5.32466305261">
		<tag k="fixme" v="consider place=hamlet" />
		<tag k="name" v="Tømmerdal" />
		<tag k="place" v="farm" />
		<tag k="ssr:stedsnr" v="330715" />
	</node>
	<node id="-10244" lat="59.4712916651" lon="5.27860556369">
		<tag k="name" v="Viksemarka" />
		<tag k="place" v="farm" />
		<tag k="ssr:stedsnr" v="755631" />
	</node>
</osm>
