<?xml version="1.0" encoding="UTF-8"?>
<osm version="0.6" generator="osmapis">
	<node lat="60.05351163744426" lon="5.160600076848896" id="-72302">
		<tag k="alt_name" v="Grøningen" />
		<tag k="name" v="Grøningen lykt" />
		<tag k="ssr:date" v="2020-09-08" />
		<tag k="ssr:gruppe" v="navigasjon" />
		<tag k="ssr:hovedgruppe" v="infrastruktur" />
		<tag k="ssr:stedsnr" v="5170" />
		<tag k="ssr:type" v="fyrlykt" />
	</node>
	<node lat="60.10226991524643" lon="5.223388962126951" id="-72331">
		<tag k="name" v="Hauglandsvegen" />
		<tag k="ssr:date" v="2019-12-27" />
		<tag k="ssr:gruppe" v="veg" />
		<tag k="ssr:hovedgruppe" v="infrastruktur" />
		<tag k="ssr:stedsnr" v="42831" />
		<tag k="ssr:type" v="adressenavn" />
	</node>
	<node lat="60.13258055904248" lon="5.100983339550634" id="-72332">
		<tag k="alt_name" v="Bakkasund" />
		<tag k="name" v="Bakkasund lykt" />
		<tag k="ssr:date" v="2019-12-27" />
		<tag k="ssr:gruppe" v="navigasjon" />
		<tag k="ssr:hovedgruppe" v="infrastruktur" />
		<tag k="ssr:stedsnr" v="54321" />
		<tag k="ssr:type" v="fyrlykt" />
	</node>
	<node lat="60.00608010590821" lon="5.176381844822687" id="-72334">
		<tag k="name" v="Fagerbakke" />
		<tag k="ssr:date" v="2019-12-27" />
		<tag k="ssr:gruppe" v="veg" />
		<tag k="ssr:hovedgruppe" v="infrastruktur" />
		<tag k="ssr:stedsnr" v="240113" />
		<tag k="ssr:type" v="adressenavn" />
	</node>
	<node lat="59.976118418858675" lon="5.179186204648813" id="-72335">
		<tag k="name" v="Gauksheim" />
		<tag k="ssr:date" v="2019-12-27" />
		<tag k="ssr:gruppe" v="veg" />
		<tag k="ssr:hovedgruppe" v="infrastruktur" />
		<tag k="ssr:stedsnr" v="240115" />
		<tag k="ssr:type" v="adressenavn" />
	</node>
	<node lat="60.05096651249712" lon="5.2978517581049065" id="-72336">
		<tag k="name" v="Sandvik" />
		<tag k="ssr:date" v="2019-12-27" />
		<tag k="ssr:gruppe" v="veg" />
		<tag k="ssr:hovedgruppe" v="infrastruktur" />
		<tag k="ssr:stedsnr" v="240025" />
		<tag k="ssr:type" v="adressenavn" />
	</node>
	<node lat="60.11289617252241" lon="5.154039343430466" id="-72337">
		<tag k="name" v="Taranger" />
		<tag k="ssr:date" v="2019-12-27" />
		<tag k="ssr:gruppe" v="veg" />
		<tag k="ssr:hovedgruppe" v="infrastruktur" />
		<tag k="ssr:stedsnr" v="59024" />
		<tag k="ssr:type" v="adressenavn" />
	</node>
	<node lat="60.13265812160765" lon="5.090393467389046" id="-72425">
		<tag k="name" v="Bakkavegen" />
		<tag k="ssr:date" v="2019-12-27" />
		<tag k="ssr:gruppe" v="veg" />
		<tag k="ssr:hovedgruppe" v="infrastruktur" />
		<tag k="ssr:stedsnr" v="163772" />
		<tag k="ssr:type" v="adressenavn" />
	</node>
	<node lat="59.99096387342741" lon="5.083079872505933" id="-72426">
		<tag k="name" v="Nordre Årland" />
		<tag k="ssr:date" v="2019-12-27" />
		<tag k="ssr:gruppe" v="veg" />
		<tag k="ssr:hovedgruppe" v="infrastruktur" />
		<tag k="ssr:stedsnr" v="180223" />
		<tag k="ssr:type" v="adressenavn" />
	</node>
	<node lat="60.0597897199484" lon="5.0945116910424115" id="-72473">
		<tag k="name" v="Møkster" />
		<tag k="ssr:date" v="2019-12-27" />
		<tag k="ssr:gruppe" v="veg" />
		<tag k="ssr:hovedgruppe" v="infrastruktur" />
		<tag k="ssr:stedsnr" v="224846" />
		<tag k="ssr:type" v="adressenavn" />
	</node>
	<node lat="60.01135456069909" lon="5.2004030565481525" id="-72476">
		<tag k="name" v="Drivenes" />
		<tag k="ssr:date" v="2019-12-27" />
		<tag k="ssr:gruppe" v="veg" />
		<tag k="ssr:hovedgruppe" v="infrastruktur" />
		<tag k="ssr:stedsnr" v="240233" />
		<tag k="ssr:type" v="adressenavn" />
	</node>
	<node lat="59.98741126755357" lon="5.080641011826937" id="-72477">
		<tag k="name" v="Årland" />
		<tag k="ssr:date" v="2019-12-27" />
		<tag k="ssr:gruppe" v="veg" />
		<tag k="ssr:hovedgruppe" v="infrastruktur" />
		<tag k="ssr:stedsnr" v="240240" />
		<tag k="ssr:type" v="adressenavn" />
	</node>
	<node lat="60.126641680716254" lon="5.071097598245051" id="-72545">
		<tag k="name" v="Hillevegen" />
		<tag k="ssr:date" v="2019-12-27" />
		<tag k="ssr:gruppe" v="veg" />
		<tag k="ssr:hovedgruppe" v="infrastruktur" />
		<tag k="ssr:stedsnr" v="467875" />
		<tag k="ssr:type" v="adressenavn" />
	</node>
	<node lat="60.08768517565038" lon="5.1285905449758715" id="-72581">
		<tag k="alt_name" v="Horgesund" />
		<tag k="name" v="Horgesund lykt" />
		<tag k="ssr:date" v="2020-09-03" />
		<tag k="ssr:gruppe" v="navigasjon" />
		<tag k="ssr:hovedgruppe" v="infrastruktur" />
		<tag k="ssr:stedsnr" v="368891" />
		<tag k="ssr:type" v="fyrlykt" />
	</node>
	<node lat="60.033362298189616" lon="5.226865306194498" id="-72589">
		<tag k="name" v="Vassnes" />
		<tag k="ssr:date" v="2019-12-27" />
		<tag k="ssr:gruppe" v="veg" />
		<tag k="ssr:hovedgruppe" v="infrastruktur" />
		<tag k="ssr:stedsnr" v="483011" />
		<tag k="ssr:type" v="adressenavn" />
	</node>
	<node lat="60.03759273779514" lon="5.214848316615381" id="-72590">
		<tag k="name" v="Kolbeinsvik" />
		<tag k="ssr:date" v="2019-12-27" />
		<tag k="ssr:gruppe" v="veg" />
		<tag k="ssr:hovedgruppe" v="infrastruktur" />
		<tag k="ssr:stedsnr" v="483023" />
		<tag k="ssr:type" v="adressenavn" />
	</node>
	<node lat="60.10114556303149" lon="5.158071451484152" id="-72591">
		<tag k="name" v="Melingsvågvegen" />
		<tag k="ssr:date" v="2019-12-27" />
		<tag k="ssr:gruppe" v="veg" />
		<tag k="ssr:hovedgruppe" v="infrastruktur" />
		<tag k="ssr:stedsnr" v="483025" />
		<tag k="ssr:type" v="adressenavn" />
	</node>
	<node lat="60.11900856140347" lon="5.059397936361033" id="-72592">
		<tag k="name" v="Kalve" />
		<tag k="ssr:date" v="2019-12-27" />
		<tag k="ssr:gruppe" v="veg" />
		<tag k="ssr:hovedgruppe" v="infrastruktur" />
		<tag k="ssr:stedsnr" v="483029" />
		<tag k="ssr:type" v="adressenavn" />
	</node>
	<node lat="60.090225288234194" lon="5.239331507359041" id="-72620">
		<tag k="name" v="Skår" />
		<tag k="ssr:date" v="2019-12-27" />
		<tag k="ssr:gruppe" v="veg" />
		<tag k="ssr:hovedgruppe" v="infrastruktur" />
		<tag k="ssr:stedsnr" v="406860" />
		<tag k="ssr:type" v="adressenavn" />
	</node>
	<node lat="60.00961873339289" lon="5.189396710325509" id="-72621">
		<tag k="name" v="Fagerbakkevegen" />
		<tag k="ssr:date" v="2019-12-27" />
		<tag k="ssr:gruppe" v="veg" />
		<tag k="ssr:hovedgruppe" v="infrastruktur" />
		<tag k="ssr:stedsnr" v="406871" />
		<tag k="ssr:type" v="adressenavn" />
	</node>
	<node lat="59.97614881786304" lon="5.176537212711884" id="-72622">
		<tag k="name" v="Gauksheimvegen" />
		<tag k="ssr:date" v="2019-12-27" />
		<tag k="ssr:gruppe" v="veg" />
		<tag k="ssr:hovedgruppe" v="infrastruktur" />
		<tag k="ssr:stedsnr" v="406873" />
		<tag k="ssr:type" v="adressenavn" />
	</node>
	<node lat="59.98639338700677" lon="5.079484333968931" id="-72623">
		<tag k="name" v="Øvre Vågavegen" />
		<tag k="ssr:date" v="2019-12-27" />
		<tag k="ssr:gruppe" v="veg" />
		<tag k="ssr:hovedgruppe" v="infrastruktur" />
		<tag k="ssr:stedsnr" v="406891" />
		<tag k="ssr:type" v="adressenavn" />
	</node>
	<node lat="60.13055055934431" lon="5.0100720974708794" id="-72647">
		<tag k="alt_name" v="Marstein" />
		<tag k="name" v="Marstein fyr" />
		<tag k="ssr:date" v="2019-12-27" />
		<tag k="ssr:gruppe" v="navigasjon" />
		<tag k="ssr:hovedgruppe" v="infrastruktur" />
		<tag k="ssr:stedsnr" v="430725" />
		<tag k="ssr:type" v="fyrstasjon" />
	</node>
	<node lat="60.040478290505526" lon="5.075676979656508" id="-72660">
		<tag k="alt_name" v="Rosmunnholmen" />
		<tag k="name" v="Rosmunnholmen lykt" />
		<tag k="ssr:date" v="2020-09-08" />
		<tag k="ssr:gruppe" v="navigasjon" />
		<tag k="ssr:hovedgruppe" v="infrastruktur" />
		<tag k="ssr:stedsnr" v="671653" />
		<tag k="ssr:type" v="fyrlykt" />
	</node>
	<node lat="60.09485555542289" lon="5.2215861188766866" id="-72707">
		<tag k="alt_name" v="Austevoll" />
		<tag k="name" v="Austevoll kommune" />
		<tag k="ssr:date" v="2019-12-27" />
		<tag k="ssr:gruppe" v="administrativeIndelinger" />
		<tag k="ssr:hovedgruppe" v="offentligAdministrasjon" />
		<tag k="ssr:stedsnr" v="510024" />
		<tag k="ssr:type" v="kommune" />
	</node>
	<node lat="60.003411470396145" lon="5.145137658235344" id="-72730">
		<tag k="name" v="Rabben" />
		<tag k="ssr:date" v="2019-12-27" />
		<tag k="ssr:gruppe" v="veg" />
		<tag k="ssr:hovedgruppe" v="infrastruktur" />
		<tag k="ssr:stedsnr" v="544026" />
		<tag k="ssr:type" v="adressenavn" />
	</node>
	<node lat="60.009190455487754" lon="5.174709467491848" id="-72731">
		<tag k="name" v="Kalvaneset" />
		<tag k="ssr:date" v="2019-12-27" />
		<tag k="ssr:gruppe" v="veg" />
		<tag k="ssr:hovedgruppe" v="infrastruktur" />
		<tag k="ssr:stedsnr" v="544216" />
		<tag k="ssr:type" v="adressenavn" />
	</node>
	<node lat="60.101702158514534" lon="5.165357414486183" id="-72767">
		<tag k="name" v="Melingsåsen" />
		<tag k="ssr:date" v="2019-12-27" />
		<tag k="ssr:gruppe" v="veg" />
		<tag k="ssr:hovedgruppe" v="infrastruktur" />
		<tag k="ssr:stedsnr" v="604018" />
		<tag k="ssr:type" v="adressenavn" />
	</node>
	<node lat="60.01684615791926" lon="5.273651776291236" id="-72768">
		<tag k="name" v="Husavik" />
		<tag k="ssr:date" v="2019-12-27" />
		<tag k="ssr:gruppe" v="veg" />
		<tag k="ssr:hovedgruppe" v="infrastruktur" />
		<tag k="ssr:stedsnr" v="604019" />
		<tag k="ssr:type" v="adressenavn" />
	</node>
	<node lat="60.10605695067103" lon="5.157068080232471" id="-72769">
		<tag k="name" v="Troland" />
		<tag k="ssr:date" v="2019-12-27" />
		<tag k="ssr:gruppe" v="veg" />
		<tag k="ssr:hovedgruppe" v="infrastruktur" />
		<tag k="ssr:stedsnr" v="604023" />
		<tag k="ssr:type" v="adressenavn" />
	</node>
	<node lat="60.03383030335922" lon="5.231753725033254" id="-72770">
		<tag k="name" v="Naustheller" />
		<tag k="ssr:date" v="2019-12-27" />
		<tag k="ssr:gruppe" v="veg" />
		<tag k="ssr:hovedgruppe" v="infrastruktur" />
		<tag k="ssr:stedsnr" v="604025" />
		<tag k="ssr:type" v="adressenavn" />
	</node>
	<node lat="60.06444807780139" lon="5.213312883133379" id="-72772">
		<tag k="name" v="Drønen" />
		<tag k="ssr:date" v="2019-12-27" />
		<tag k="ssr:gruppe" v="veg" />
		<tag k="ssr:hovedgruppe" v="infrastruktur" />
		<tag k="ssr:stedsnr" v="604105" />
		<tag k="ssr:type" v="adressenavn" />
	</node>
	<node lat="60.00188702080887" lon="5.091981265417954" id="-72830">
		<tag k="name" v="Mølnevegen" />
		<tag k="ssr:date" v="2019-12-27" />
		<tag k="ssr:gruppe" v="veg" />
		<tag k="ssr:hovedgruppe" v="infrastruktur" />
		<tag k="ssr:stedsnr" v="648842" />
		<tag k="ssr:type" v="adressenavn" />
	</node>
	<node lat="60.11733684009441" lon="5.146264737394864" id="-72833">
		<tag k="name" v="Økland" />
		<tag k="ssr:date" v="2019-12-27" />
		<tag k="ssr:gruppe" v="veg" />
		<tag k="ssr:hovedgruppe" v="infrastruktur" />
		<tag k="ssr:stedsnr" v="665004" />
		<tag k="ssr:type" v="adressenavn" />
	</node>
	<node lat="60.09850033763874" lon="5.225619872367055" id="-72834">
		<tag k="name" v="Birkelandsvegen" />
		<tag k="ssr:date" v="2019-12-27" />
		<tag k="ssr:gruppe" v="veg" />
		<tag k="ssr:hovedgruppe" v="infrastruktur" />
		<tag k="ssr:stedsnr" v="709761" />
		<tag k="ssr:type" v="adressenavn" />
	</node>
	<node lat="60.00988496312097" lon="5.1939010081010215" id="-72835">
		<tag k="name" v="Nordre Drivenes" />
		<tag k="ssr:date" v="2019-12-27" />
		<tag k="ssr:gruppe" v="veg" />
		<tag k="ssr:hovedgruppe" v="infrastruktur" />
		<tag k="ssr:stedsnr" v="709846" />
		<tag k="ssr:type" v="adressenavn" />
	</node>
	<node lat="60.106666584841946" lon="5.213847121667621" id="-72849">
		<tag k="name" v="Nordre Haugland" />
		<tag k="ssr:date" v="2019-12-27" />
		<tag k="ssr:gruppe" v="veg" />
		<tag k="ssr:hovedgruppe" v="infrastruktur" />
		<tag k="ssr:stedsnr" v="892839" />
		<tag k="ssr:type" v="adressenavn" />
	</node>
	<node lat="60.069439010688" lon="5.186198031029644" id="-72850">
		<tag k="name" v="Drønspollen" />
		<tag k="ssr:date" v="2019-12-27" />
		<tag k="ssr:gruppe" v="veg" />
		<tag k="ssr:hovedgruppe" v="infrastruktur" />
		<tag k="ssr:stedsnr" v="892844" />
		<tag k="ssr:type" v="adressenavn" />
	</node>
	<node lat="60.001756256667285" lon="5.257325814264972" id="-72851">
		<tag k="name" v="Blænesvegen" />
		<tag k="ssr:date" v="2019-12-27" />
		<tag k="ssr:gruppe" v="veg" />
		<tag k="ssr:hovedgruppe" v="infrastruktur" />
		<tag k="ssr:stedsnr" v="892850" />
		<tag k="ssr:type" v="adressenavn" />
	</node>
	<node lat="60.122929217214995" lon="5.19992066877965" id="-72872">
		<tag k="name" v="Sandtorv" />
		<tag k="ssr:date" v="2019-12-27" />
		<tag k="ssr:gruppe" v="veg" />
		<tag k="ssr:hovedgruppe" v="infrastruktur" />
		<tag k="ssr:stedsnr" v="726025" />
		<tag k="ssr:type" v="adressenavn" />
	</node>
	<node lat="60.07281588903108" lon="5.270429780602938" id="-72907">
		<tag k="name" v="Søre Haukanes" />
		<tag k="ssr:date" v="2019-12-27" />
		<tag k="ssr:gruppe" v="veg" />
		<tag k="ssr:hovedgruppe" v="infrastruktur" />
		<tag k="ssr:stedsnr" v="770873" />
		<tag k="ssr:type" v="adressenavn" />
	</node>
	<node lat="60.04859862972017" lon="5.296284272361808" id="-72908">
		<tag k="name" v="Bratten" />
		<tag k="ssr:date" v="2019-12-27" />
		<tag k="ssr:gruppe" v="veg" />
		<tag k="ssr:hovedgruppe" v="infrastruktur" />
		<tag k="ssr:stedsnr" v="908120" />
		<tag k="ssr:type" v="adressenavn" />
	</node>
	<node lat="60.10072487521131" lon="5.18216009737822" id="-72911">
		<tag k="name" v="Øvre Austevoll" />
		<tag k="ssr:date" v="2019-12-27" />
		<tag k="ssr:gruppe" v="veg" />
		<tag k="ssr:hovedgruppe" v="infrastruktur" />
		<tag k="ssr:stedsnr" v="786007" />
		<tag k="ssr:type" v="adressenavn" />
	</node>
	<node lat="60.13123143324881" lon="5.089725587688316" id="-72912">
		<tag k="name" v="Bakke" />
		<tag k="ssr:date" v="2019-12-27" />
		<tag k="ssr:gruppe" v="veg" />
		<tag k="ssr:hovedgruppe" v="infrastruktur" />
		<tag k="ssr:stedsnr" v="786017" />
		<tag k="ssr:type" v="adressenavn" />
	</node>
	<node lat="60.10112796909275" lon="5.223566466940939" id="-72913">
		<tag k="name" v="Haugland" />
		<tag k="ssr:date" v="2019-12-27" />
		<tag k="ssr:gruppe" v="veg" />
		<tag k="ssr:hovedgruppe" v="infrastruktur" />
		<tag k="ssr:stedsnr" v="786100" />
		<tag k="ssr:type" v="adressenavn" />
	</node>
	<node lat="60.14991306341232" lon="5.248968607576836" id="-72936">
		<tag k="alt_name" v="Litle Laugarøy" />
		<tag k="name" v="Litle Laugarøy lykt" />
		<tag k="old_name" v="Laugarøyi, l" />
		<tag k="ssr:date" v="2020-09-08" />
		<tag k="ssr:gruppe" v="navigasjon" />
		<tag k="ssr:hovedgruppe" v="infrastruktur" />
		<tag k="ssr:stedsnr" v="915958" />
		<tag k="ssr:type" v="fyrlykt" />
	</node>
	<node lat="60.09211110990887" lon="5.105916668278158" id="-72957">
		<tag k="name" v="Horgo" />
		<tag k="ssr:date" v="2019-12-27" />
		<tag k="ssr:gruppe" v="veg" />
		<tag k="ssr:hovedgruppe" v="infrastruktur" />
		<tag k="ssr:stedsnr" v="831836" />
		<tag k="ssr:type" v="adressenavn" />
	</node>
	<node lat="59.97583417181593" lon="5.1965460914612445" id="-72965">
		<tag k="alt_name" v="Selbjørn" />
		<tag k="name" v="Selbjørn lykt" />
		<tag k="ssr:date" v="2020-09-03" />
		<tag k="ssr:gruppe" v="navigasjon" />
		<tag k="ssr:hovedgruppe" v="infrastruktur" />
		<tag k="ssr:stedsnr" v="854149" />
		<tag k="ssr:type" v="fyrlykt" />
	</node>
	<node lat="60.08240147035649" lon="5.2504121384180555" id="-72983">
		<tag k="name" v="Søre Eidsbøen" />
		<tag k="ssr:date" v="2019-12-27" />
		<tag k="ssr:gruppe" v="veg" />
		<tag k="ssr:hovedgruppe" v="infrastruktur" />
		<tag k="ssr:stedsnr" v="892863" />
		<tag k="ssr:type" v="adressenavn" />
	</node>
	<node lat="60.00955630970597" lon="5.253622843873336" id="-72984">
		<tag k="name" v="Vinnes" />
		<tag k="ssr:date" v="2019-12-27" />
		<tag k="ssr:gruppe" v="veg" />
		<tag k="ssr:hovedgruppe" v="infrastruktur" />
		<tag k="ssr:stedsnr" v="908003" />
		<tag k="ssr:type" v="adressenavn" />
	</node>
	<node lat="60.047244819023895" lon="5.22125615732314" id="-73015">
		<tag k="name" v="Heiamarkvegen" />
		<tag k="ssr:date" v="2019-12-27" />
		<tag k="ssr:gruppe" v="veg" />
		<tag k="ssr:hovedgruppe" v="infrastruktur" />
		<tag k="ssr:stedsnr" v="952839" />
		<tag k="ssr:type" v="adressenavn" />
	</node>
	<node lat="60.00202731736588" lon="5.129103507047669" id="-73019">
		<tag k="name" v="Tøkje" />
		<tag k="ssr:date" v="2019-12-27" />
		<tag k="ssr:gruppe" v="veg" />
		<tag k="ssr:hovedgruppe" v="infrastruktur" />
		<tag k="ssr:stedsnr" v="977977" />
		<tag k="ssr:type" v="adressenavn" />
	</node>
	<node lat="60.104191657342724" lon="5.175095695569978" id="-73024">
		<tag k="name" v="Øvre Austevollshella" />
		<tag k="ssr:date" v="2019-12-27" />
		<tag k="ssr:gruppe" v="veg" />
		<tag k="ssr:hovedgruppe" v="infrastruktur" />
		<tag k="ssr:stedsnr" v="989370" />
		<tag k="ssr:type" v="adressenavn" />
	</node>
	<node lat="60.10580017019528" lon="5.176158977783395" id="-73026">
		<tag k="name" v="Austevollshellevegen" />
		<tag k="ssr:date" v="2019-12-27" />
		<tag k="ssr:gruppe" v="veg" />
		<tag k="ssr:hovedgruppe" v="infrastruktur" />
		<tag k="ssr:stedsnr" v="989372" />
		<tag k="ssr:type" v="adressenavn" />
	</node>
	<node lat="60.10543688274035" lon="5.175384455024827" id="-73036">
		<tag k="name" v="Nedre Austevollshella" />
		<tag k="ssr:date" v="2019-12-27" />
		<tag k="ssr:gruppe" v="veg" />
		<tag k="ssr:hovedgruppe" v="infrastruktur" />
		<tag k="ssr:stedsnr" v="989382" />
		<tag k="ssr:type" v="adressenavn" />
	</node>
	<node lat="59.96288737377909" lon="5.051743923776611" id="-73042">
		<tag k="name" v="Furen" />
		<tag k="ssr:date" v="2019-12-27" />
		<tag k="ssr:gruppe" v="navigasjon" />
		<tag k="ssr:hovedgruppe" v="infrastruktur" />
		<tag k="ssr:stedsnr" v="990819" />
		<tag k="ssr:type" v="sjøvarde" />
	</node>
	<node lat="60.0013808638245" lon="5.0935884343905515" id="-73099">
		<tag k="name" v="Valhammar" />
		<tag k="ssr:date" v="2019-12-27" />
		<tag k="ssr:gruppe" v="veg" />
		<tag k="ssr:hovedgruppe" v="infrastruktur" />
		<tag k="ssr:stedsnr" v="42842" />
		<tag k="ssr:type" v="adressenavn" />
	</node>
	<node lat="60.10430355795082" lon="5.157127369913407" id="-73100">
		<tag k="name" v="Trolandsvegen" />
		<tag k="ssr:date" v="2019-12-27" />
		<tag k="ssr:gruppe" v="veg" />
		<tag k="ssr:hovedgruppe" v="infrastruktur" />
		<tag k="ssr:stedsnr" v="42845" />
		<tag k="ssr:type" v="adressenavn" />
	</node>
	<node lat="60.00882334192308" lon="5.205202301493193" id="-73101">
		<tag k="name" v="Søre Drivenes" />
		<tag k="ssr:date" v="2019-12-27" />
		<tag k="ssr:gruppe" v="veg" />
		<tag k="ssr:hovedgruppe" v="infrastruktur" />
		<tag k="ssr:stedsnr" v="42846" />
		<tag k="ssr:type" v="adressenavn" />
	</node>
	<node lat="60.09279166661103" lon="5.204094446626185" id="-73120">
		<tag k="alt_name" v="Rostøy" />
		<tag k="name" v="Rostøy lykt" />
		<tag k="ssr:date" v="2019-12-27" />
		<tag k="ssr:gruppe" v="navigasjon" />
		<tag k="ssr:hovedgruppe" v="infrastruktur" />
		<tag k="ssr:stedsnr" v="94990" />
		<tag k="ssr:type" v="fyrlykt" />
	</node>
	<node lat="59.97486923788697" lon="5.178189670253973" id="-73154">
		<tag k="name" v="Gauksheimvika" />
		<tag k="ssr:date" v="2019-12-27" />
		<tag k="ssr:gruppe" v="veg" />
		<tag k="ssr:hovedgruppe" v="infrastruktur" />
		<tag k="ssr:stedsnr" v="103852" />
		<tag k="ssr:type" v="adressenavn" />
	</node>
	<node lat="60.008814045448815" lon="5.2615909939678245" id="-73155">
		<tag k="name" v="Vinnesbrekka" />
		<tag k="ssr:date" v="2019-12-27" />
		<tag k="ssr:gruppe" v="veg" />
		<tag k="ssr:hovedgruppe" v="infrastruktur" />
		<tag k="ssr:stedsnr" v="103859" />
		<tag k="ssr:type" v="adressenavn" />
	</node>
	<node lat="60.09095277510926" lon="5.181161118081694" id="-73158">
		<tag k="alt_name" v="Pirholmen" />
		<tag k="name" v="Pirholmen lykt" />
		<tag k="ssr:date" v="2019-12-27" />
		<tag k="ssr:gruppe" v="navigasjon" />
		<tag k="ssr:hovedgruppe" v="infrastruktur" />
		<tag k="ssr:stedsnr" v="114339" />
		<tag k="ssr:type" v="fyrlykt" />
	</node>
	<node lat="60.01169027081458" lon="5.082227955786792" id="-73217">
		<tag k="name" v="Sætrevikvegen" />
		<tag k="ssr:date" v="2019-12-27" />
		<tag k="ssr:gruppe" v="veg" />
		<tag k="ssr:hovedgruppe" v="infrastruktur" />
		<tag k="ssr:stedsnr" v="163881" />
		<tag k="ssr:type" v="adressenavn" />
	</node>
	<node lat="60.07711095600137" lon="5.2573599751395825" id="-73218">
		<tag k="name" v="Bjellandsvegen" />
		<tag k="ssr:date" v="2019-12-27" />
		<tag k="ssr:gruppe" v="veg" />
		<tag k="ssr:hovedgruppe" v="infrastruktur" />
		<tag k="ssr:stedsnr" v="163855" />
		<tag k="ssr:type" v="adressenavn" />
	</node>
	<node lat="60.12866388570534" lon="5.094349996796213" id="-73219">
		<tag k="alt_name" v="Kassholmboen" />
		<tag k="name" v="Kassholmboen lykt" />
		<tag k="ssr:date" v="2019-12-27" />
		<tag k="ssr:gruppe" v="navigasjon" />
		<tag k="ssr:hovedgruppe" v="infrastruktur" />
		<tag k="ssr:stedsnr" v="175316" />
		<tag k="ssr:type" v="fyrlykt" />
	</node>
	<node lat="60.03989966278544" lon="5.295680368733425" id="-73222">
		<tag k="name" v="Såtendal" />
		<tag k="ssr:date" v="2019-12-27" />
		<tag k="ssr:gruppe" v="veg" />
		<tag k="ssr:hovedgruppe" v="infrastruktur" />
		<tag k="ssr:stedsnr" v="180016" />
		<tag k="ssr:type" v="adressenavn" />
	</node>
	<node lat="59.98556196678099" lon="5.086391342651452" id="-73306">
		<tag k="name" v="Vågasjøen" />
		<tag k="ssr:date" v="2019-12-27" />
		<tag k="ssr:gruppe" v="veg" />
		<tag k="ssr:hovedgruppe" v="infrastruktur" />
		<tag k="ssr:stedsnr" v="285866" />
		<tag k="ssr:type" v="adressenavn" />
	</node>
	<node lat="59.985307771465585" lon="5.079208095732364" id="-73308">
		<tag k="name" v="Våge" />
		<tag k="ssr:date" v="2019-12-27" />
		<tag k="ssr:gruppe" v="veg" />
		<tag k="ssr:hovedgruppe" v="infrastruktur" />
		<tag k="ssr:stedsnr" v="301010" />
		<tag k="ssr:type" v="adressenavn" />
	</node>
	<node lat="60.04116978456522" lon="5.200894607607111" id="-73309">
		<tag k="name" v="Brekka" />
		<tag k="ssr:date" v="2019-12-27" />
		<tag k="ssr:gruppe" v="veg" />
		<tag k="ssr:hovedgruppe" v="infrastruktur" />
		<tag k="ssr:stedsnr" v="301096" />
		<tag k="ssr:type" v="adressenavn" />
	</node>
	<node lat="60.12664633280683" lon="5.070976120670551" id="-73310">
		<tag k="name" v="Hille" />
		<tag k="ssr:date" v="2019-12-27" />
		<tag k="ssr:gruppe" v="veg" />
		<tag k="ssr:hovedgruppe" v="infrastruktur" />
		<tag k="ssr:stedsnr" v="301100" />
		<tag k="ssr:type" v="adressenavn" />
	</node>
	<node lat="60.009317933440386" lon="5.173467769743224" id="-73311">
		<tag k="name" v="Kalvanesvegen" />
		<tag k="ssr:date" v="2019-12-27" />
		<tag k="ssr:gruppe" v="veg" />
		<tag k="ssr:hovedgruppe" v="infrastruktur" />
		<tag k="ssr:stedsnr" v="301115" />
		<tag k="ssr:type" v="adressenavn" />
	</node>
	<node lat="60.010144762835424" lon="5.24788128201249" id="-73369">
		<tag k="name" v="Vik" />
		<tag k="ssr:date" v="2019-12-27" />
		<tag k="ssr:gruppe" v="veg" />
		<tag k="ssr:hovedgruppe" v="infrastruktur" />
		<tag k="ssr:stedsnr" v="362006" />
		<tag k="ssr:type" v="adressenavn" />
	</node>
	<node lat="60.07652969642114" lon="5.204712521083233" id="-73370">
		<tag k="name" v="Rostøy" />
		<tag k="ssr:date" v="2019-12-27" />
		<tag k="ssr:gruppe" v="veg" />
		<tag k="ssr:hovedgruppe" v="infrastruktur" />
		<tag k="ssr:stedsnr" v="362033" />
		<tag k="ssr:type" v="adressenavn" />
	</node>
	<node lat="60.109024705791406" lon="5.211815442198123" id="-73371">
		<tag k="name" v="Hufthammar" />
		<tag k="ssr:date" v="2019-12-27" />
		<tag k="ssr:gruppe" v="veg" />
		<tag k="ssr:hovedgruppe" v="infrastruktur" />
		<tag k="ssr:stedsnr" v="362102" />
		<tag k="ssr:type" v="adressenavn" />
	</node>
	<node lat="60.007274165397334" lon="5.152965570299119" id="-73372">
		<tag k="name" v="Noven" />
		<tag k="ssr:date" v="2019-12-27" />
		<tag k="ssr:gruppe" v="veg" />
		<tag k="ssr:hovedgruppe" v="infrastruktur" />
		<tag k="ssr:stedsnr" v="362231" />
		<tag k="ssr:type" v="adressenavn" />
	</node>
	<node lat="60.11698988253683" lon="5.1470893324424605" id="-73428">
		<tag k="name" v="Tarangsvegen" />
		<tag k="ssr:date" v="2019-12-27" />
		<tag k="ssr:gruppe" v="veg" />
		<tag k="ssr:hovedgruppe" v="infrastruktur" />
		<tag k="ssr:stedsnr" v="406887" />
		<tag k="ssr:type" v="adressenavn" />
	</node>
	<node lat="60.10468916726877" lon="5.227657703608171" id="-73484">
		<tag k="name" v="Birkelandshaugen" />
		<tag k="ssr:date" v="2019-12-27" />
		<tag k="ssr:gruppe" v="veg" />
		<tag k="ssr:hovedgruppe" v="infrastruktur" />
		<tag k="ssr:stedsnr" v="527769" />
		<tag k="ssr:type" v="adressenavn" />
	</node>
	<node lat="60.076780772849744" lon="5.202343154386126" id="-73485">
		<tag k="name" v="Rostøysundet" />
		<tag k="ssr:date" v="2019-12-27" />
		<tag k="ssr:gruppe" v="veg" />
		<tag k="ssr:hovedgruppe" v="infrastruktur" />
		<tag k="ssr:stedsnr" v="527846" />
		<tag k="ssr:type" v="adressenavn" />
	</node>
	<node lat="60.06224911118398" lon="5.243129883900413" id="-73486">
		<tag k="name" v="Eidsbakken" />
		<tag k="ssr:date" v="2019-12-27" />
		<tag k="ssr:gruppe" v="veg" />
		<tag k="ssr:hovedgruppe" v="infrastruktur" />
		<tag k="ssr:stedsnr" v="527852" />
		<tag k="ssr:type" v="adressenavn" />
	</node>
	<node lat="60.131849747502834" lon="5.090568060382814" id="-73543">
		<tag k="name" v="Kleppavegen" />
		<tag k="ssr:date" v="2019-12-27" />
		<tag k="ssr:gruppe" v="veg" />
		<tag k="ssr:hovedgruppe" v="infrastruktur" />
		<tag k="ssr:stedsnr" v="588881" />
		<tag k="ssr:type" v="adressenavn" />
	</node>
	<node lat="60.08087500249785" lon="5.22989721377008" id="-73606">
		<tag k="name" v="Bjånestangen" />
		<tag k="ssr:date" v="2019-12-27" />
		<tag k="ssr:gruppe" v="veg" />
		<tag k="ssr:hovedgruppe" v="infrastruktur" />
		<tag k="ssr:stedsnr" v="648860" />
		<tag k="ssr:type" v="adressenavn" />
	</node>
	<node lat="59.98250548145939" lon="5.196192066161207" id="-73608">
		<tag k="name" v="Sætre" />
		<tag k="ssr:date" v="2019-12-27" />
		<tag k="ssr:gruppe" v="veg" />
		<tag k="ssr:hovedgruppe" v="infrastruktur" />
		<tag k="ssr:stedsnr" v="665031" />
		<tag k="ssr:type" v="adressenavn" />
	</node>
	<node lat="60.07706645298827" lon="5.257082680554649" id="-73613">
		<tag k="name" v="Bjelland" />
		<tag k="ssr:date" v="2019-12-27" />
		<tag k="ssr:gruppe" v="veg" />
		<tag k="ssr:hovedgruppe" v="infrastruktur" />
		<tag k="ssr:stedsnr" v="726095" />
		<tag k="ssr:type" v="adressenavn" />
	</node>
	<node lat="60.064808726969275" lon="5.2927367628249575" id="-73614">
		<tag k="name" v="Haukanes" />
		<tag k="ssr:date" v="2019-12-27" />
		<tag k="ssr:gruppe" v="veg" />
		<tag k="ssr:hovedgruppe" v="infrastruktur" />
		<tag k="ssr:stedsnr" v="726098" />
		<tag k="ssr:type" v="adressenavn" />
	</node>
	<node lat="59.983908033979716" lon="5.200710786906106" id="-73615">
		<tag k="name" v="Bekkjarvik" />
		<tag k="ssr:date" v="2019-12-27" />
		<tag k="ssr:gruppe" v="veg" />
		<tag k="ssr:hovedgruppe" v="infrastruktur" />
		<tag k="ssr:stedsnr" v="726238" />
		<tag k="ssr:type" v="adressenavn" />
	</node>
	<node lat="60.07849226683624" lon="5.270822490787084" id="-73672">
		<tag k="name" v="Kolbeinshamn" />
		<tag k="ssr:date" v="2019-12-27" />
		<tag k="ssr:gruppe" v="veg" />
		<tag k="ssr:hovedgruppe" v="infrastruktur" />
		<tag k="ssr:stedsnr" v="770838" />
		<tag k="ssr:type" v="adressenavn" />
	</node>
	<node lat="60.08701173703541" lon="5.244439730496029" id="-73673">
		<tag k="name" v="Nordre Eidsbøen" />
		<tag k="ssr:date" v="2019-12-27" />
		<tag k="ssr:gruppe" v="veg" />
		<tag k="ssr:hovedgruppe" v="infrastruktur" />
		<tag k="ssr:stedsnr" v="770847" />
		<tag k="ssr:type" v="adressenavn" />
	</node>
	<node lat="60.12674280956092" lon="5.19988316568967" id="-73709">
		<tag k="alt_name" v="Lindholmen" />
		<tag k="name" v="Lindholmen lanterne" />
		<tag k="ssr:date" v="2019-12-27" />
		<tag k="ssr:gruppe" v="navigasjon" />
		<tag k="ssr:hovedgruppe" v="infrastruktur" />
		<tag k="ssr:stedsnr" v="823978" />
		<tag k="ssr:type" v="lanterne" />
	</node>
	<node lat="60.003554447318315" lon="5.143517237739499" id="-73746">
		<tag k="name" v="Ytre Rabben" />
		<tag k="ssr:date" v="2019-12-27" />
		<tag k="ssr:gruppe" v="veg" />
		<tag k="ssr:hovedgruppe" v="infrastruktur" />
		<tag k="ssr:stedsnr" v="831867" />
		<tag k="ssr:type" v="adressenavn" />
	</node>
	<node lat="60.077324954851846" lon="5.2661931767150945" id="-73747">
		<tag k="name" v="Nordre Haukanes" />
		<tag k="ssr:date" v="2019-12-27" />
		<tag k="ssr:gruppe" v="veg" />
		<tag k="ssr:hovedgruppe" v="infrastruktur" />
		<tag k="ssr:stedsnr" v="831823" />
		<tag k="ssr:type" v="adressenavn" />
	</node>
	<node lat="60.06427265039711" lon="5.248559778413356" id="-73750">
		<tag k="name" v="Nordeide" />
		<tag k="ssr:date" v="2019-12-27" />
		<tag k="ssr:gruppe" v="veg" />
		<tag k="ssr:hovedgruppe" v="infrastruktur" />
		<tag k="ssr:stedsnr" v="848020" />
		<tag k="ssr:type" v="adressenavn" />
	</node>
	<node lat="59.989605038365475" lon="5.088140787792341" id="-73853">
		<tag k="name" v="Stangelandsvegen" />
		<tag k="ssr:date" v="2019-12-27" />
		<tag k="ssr:gruppe" v="veg" />
		<tag k="ssr:hovedgruppe" v="infrastruktur" />
		<tag k="ssr:stedsnr" v="952830" />
		<tag k="ssr:type" v="adressenavn" />
	</node>
	<node lat="60.12642591433638" lon="5.13751867729431" id="-73854">
		<tag k="name" v="Skåravegen" />
		<tag k="ssr:date" v="2019-12-27" />
		<tag k="ssr:gruppe" v="veg" />
		<tag k="ssr:hovedgruppe" v="infrastruktur" />
		<tag k="ssr:stedsnr" v="952833" />
		<tag k="ssr:type" v="adressenavn" />
	</node>
	<node lat="60.00887060208134" lon="5.082414150626468" id="-73856">
		<tag k="name" v="Kvalvåg" />
		<tag k="ssr:date" v="2019-12-27" />
		<tag k="ssr:gruppe" v="veg" />
		<tag k="ssr:hovedgruppe" v="infrastruktur" />
		<tag k="ssr:stedsnr" v="968021" />
		<tag k="ssr:type" v="adressenavn" />
	</node>
	<node lat="59.99629398153347" lon="5.099104003425878" id="-73857">
		<tag k="name" v="Stangeland" />
		<tag k="ssr:date" v="2019-12-27" />
		<tag k="ssr:gruppe" v="veg" />
		<tag k="ssr:hovedgruppe" v="infrastruktur" />
		<tag k="ssr:stedsnr" v="968028" />
		<tag k="ssr:type" v="adressenavn" />
	</node>
	<node lat="60.04034468528996" lon="5.2756745730899155" id="-73858">
		<tag k="name" v="Søreide" />
		<tag k="ssr:date" v="2019-12-27" />
		<tag k="ssr:gruppe" v="veg" />
		<tag k="ssr:hovedgruppe" v="infrastruktur" />
		<tag k="ssr:stedsnr" v="968029" />
		<tag k="ssr:type" v="adressenavn" />
	</node>
	<node lat="60.031902524685755" lon="5.224639443732061" id="-73863">
		<tag k="name" v="Vassneshaugen" />
		<tag k="ssr:date" v="2019-12-27" />
		<tag k="ssr:gruppe" v="veg" />
		<tag k="ssr:hovedgruppe" v="infrastruktur" />
		<tag k="ssr:stedsnr" v="971803" />
		<tag k="ssr:type" v="adressenavn" />
	</node>
	<node lat="60.10668899363762" lon="5.2273762842414335" id="-73866">
		<tag k="name" v="Birkelandsbrekka" />
		<tag k="ssr:date" v="2019-12-27" />
		<tag k="ssr:gruppe" v="veg" />
		<tag k="ssr:hovedgruppe" v="infrastruktur" />
		<tag k="ssr:stedsnr" v="976592" />
		<tag k="ssr:type" v="adressenavn" />
	</node>
	<node lat="60.138745910974" lon="5.151764523512416" id="-73880">
		<tag k="name" v="Skårøya" />
		<tag k="ssr:date" v="2019-12-27" />
		<tag k="ssr:gruppe" v="veg" />
		<tag k="ssr:hovedgruppe" v="infrastruktur" />
		<tag k="ssr:stedsnr" v="989313" />
		<tag k="ssr:type" v="adressenavn" />
	</node>
	<node lat="60.05726569043367" lon="5.2149264176783525" id="-73885">
		<tag k="name" v="Straumsøya" />
		<tag k="ssr:date" v="2019-12-27" />
		<tag k="ssr:gruppe" v="veg" />
		<tag k="ssr:hovedgruppe" v="infrastruktur" />
		<tag k="ssr:stedsnr" v="989318" />
		<tag k="ssr:type" v="adressenavn" />
	</node>
	<node lat="60.10558128492108" lon="5.163740256886831" id="-73892">
		<tag k="name" v="Melingsvegen" />
		<tag k="ssr:date" v="2019-12-27" />
		<tag k="ssr:gruppe" v="veg" />
		<tag k="ssr:hovedgruppe" v="infrastruktur" />
		<tag k="ssr:stedsnr" v="989325" />
		<tag k="ssr:type" v="adressenavn" />
	</node>
	<node lat="60.03653628279805" lon="5.215503589460779" id="-73895">
		<tag k="name" v="Vassnesvegen" />
		<tag k="ssr:date" v="2019-12-27" />
		<tag k="ssr:gruppe" v="veg" />
		<tag k="ssr:hovedgruppe" v="infrastruktur" />
		<tag k="ssr:stedsnr" v="989329" />
		<tag k="ssr:type" v="adressenavn" />
	</node>
	<node lat="60.11703052681915" lon="5.141540431921627" id="-73896">
		<tag k="name" v="Øklandsvegen" />
		<tag k="ssr:date" v="2019-12-27" />
		<tag k="ssr:gruppe" v="veg" />
		<tag k="ssr:hovedgruppe" v="infrastruktur" />
		<tag k="ssr:stedsnr" v="989330" />
		<tag k="ssr:type" v="adressenavn" />
	</node>
	<node lat="60.042454399334545" lon="5.251347866428546" id="-73897">
		<tag k="name" v="Nausthellervegen" />
		<tag k="ssr:date" v="2019-12-27" />
		<tag k="ssr:gruppe" v="veg" />
		<tag k="ssr:hovedgruppe" v="infrastruktur" />
		<tag k="ssr:stedsnr" v="989331" />
		<tag k="ssr:type" v="adressenavn" />
	</node>
	<node lat="60.08660082917173" lon="5.222487235132015" id="-73899">
		<tag k="name" v="Bjånesøya" />
		<tag k="ssr:date" v="2019-12-27" />
		<tag k="ssr:gruppe" v="veg" />
		<tag k="ssr:hovedgruppe" v="infrastruktur" />
		<tag k="ssr:stedsnr" v="989348" />
		<tag k="ssr:type" v="adressenavn" />
	</node>
	<node lat="60.081006016986045" lon="5.249292935908866" id="-73901">
		<tag k="name" v="Storebøvegen" />
		<tag k="ssr:date" v="2019-12-27" />
		<tag k="ssr:gruppe" v="veg" />
		<tag k="ssr:hovedgruppe" v="infrastruktur" />
		<tag k="ssr:stedsnr" v="989350" />
		<tag k="ssr:type" v="adressenavn" />
	</node>
	<node lat="60.12039012029945" lon="5.143133145780974" id="-73902">
		<tag k="name" v="Nedre Økland" />
		<tag k="ssr:date" v="2019-12-27" />
		<tag k="ssr:gruppe" v="veg" />
		<tag k="ssr:hovedgruppe" v="infrastruktur" />
		<tag k="ssr:stedsnr" v="989351" />
		<tag k="ssr:type" v="adressenavn" />
	</node>
	<node lat="59.98917931876299" lon="5.087204216760727" id="-73927">
		<tag k="name" v="Stangelandssjøen" />
		<tag k="ssr:date" v="2020-11-13" />
		<tag k="ssr:gruppe" v="veg" />
		<tag k="ssr:hovedgruppe" v="infrastruktur" />
		<tag k="ssr:stedsnr" v="1078906" />
		<tag k="ssr:type" v="adressenavn" />
	</node>
</osm>
