<?xml version="1.0" encoding="UTF-8"?>
<osm generator="osmapis" version="0.6">
	<node id="-420895" lat="59.1374694456" lon="5.58860000255">
		<tag k="alt_name" v="Mortavika" />
		<tag k="amenity" v="ferry_terminal" />
		<tag k="name" v="Mortavika ferjekai" />
		<tag k="ssr:stedsnr" v="24991" />
	</node>
	<node id="-421053" lat="59.0885055552" lon="5.66705278096">
		<tag k="man_made" v="quay" />
		<tag k="name" v="Vodl kai" />
		<tag k="place" v="locality" />
		<tag k="ssr:stedsnr" v="235909" />
	</node>
	<node id="-421148" lat="59.0982166707" lon="5.60911944145">
		<tag k="alt_name" v="Finnesand kai" />
		<tag k="man_made" v="quay" />
		<tag k="name" v="Finnasand kai" />
		<tag k="place" v="locality" />
		<tag k="ssr:stedsnr" v="472478" />
	</node>
	<node id="-421369" lat="59.0777805571" lon="5.76223889542">
		<tag k="bridge" v="yes" />
		<tag k="layer" v="1" />
		<tag k="name" v="Askje" />
		<tag k="ssr:stedsnr" v="775476" />
	</node>
	<node id="-420984" lat="59.0720638901" lon="5.67724166589">
		<tag k="layer" v="-1" />
		<tag k="name" v="Mastrafjordtunnelen" />
		<tag k="ssr:stedsnr" v="142970" />
		<tag k="tunnel" v="yes" />
	</node>
	<node id="-420949" lat="59.0647944458" lon="5.67570000181">
		<tag k="bridge" v="yes" />
		<tag k="layer" v="1" />
		<tag k="name" v="Askje" />
		<tag k="ssr:stedsnr" v="108519" />
	</node>
	<node id="-421522" lat="59.0977222176" lon="5.59344443796">
		<tag k="bridge" v="yes" />
		<tag k="layer" v="1" />
		<tag k="name" v="Utstein kloster" />
		<tag k="ssr:stedsnr" v="957499" />
	</node>
	<node id="-421521" lat="59.0457777769" lon="5.66898611433">
		<tag k="bridge" v="yes" />
		<tag k="layer" v="1" />
		<tag k="name" v="Soknasund" />
		<tag k="ssr:stedsnr" v="957500" />
	</node>
	<node id="-420842" lat="59.1155388927" lon="5.70253610695">
		<tag k="bridge" v="yes" />
		<tag k="layer" v="1" />
		<tag k="name" v="Austbøvågen" />
		<tag k="ssr:stedsnr" v="411479" />
	</node>
	<node id="-420998" lat="59.0861295735" lon="5.79729966306">
		<tag k="man_made" v="quay" />
		<tag k="name" v="Brimse kai" />
		<tag k="place" v="locality" />
		<tag k="ssr:stedsnr" v="168491" />
	</node>
	<node id="-420741" lat="59.1061638922" lon="5.70211110382">
		<tag k="bridge" v="yes" />
		<tag k="layer" v="1" />
		<tag k="name" v="Bergje" />
		<tag k="ssr:stedsnr" v="290439" />
	</node>
	<node id="-420740" lat="59.1179777808" lon="5.76768888602">
		<tag k="amenity" v="ferry_terminal" />
		<tag k="name" v="Hanasand ferjekai" />
		<tag k="ssr:stedsnr" v="290437" />
	</node>
	<node id="-421187" lat="59.1332666681" lon="5.60640278231">
		<tag k="bridge" v="yes" />
		<tag k="layer" v="1" />
		<tag k="name" v="Galta" />
		<tag k="ssr:stedsnr" v="533502" />
	</node>
	<node id="-421186" lat="59.0780222213" lon="5.66818333525">
		<tag k="bridge" v="yes" />
		<tag k="layer" v="1" />
		<tag k="name" v="Vaula Mosterøy" />
		<tag k="ssr:stedsnr" v="533499" />
	</node>
</osm>
