<?xml version="1.0" encoding="UTF-8"?>
<osm generator="osmapis" version="0.6">
	<node id="-421495" lat="59.1033265868" lon="5.59065763705">
		<tag k="amenity" v="place_of_worship" />
		<tag k="denomination" v="lutheran" />
		<tag k="name" v="Utstein klosterkyrkje" />
		<tag k="religion" v="christian" />
		<tag k="ssr:stedsnr" v="991237" />
	</node>
	<node id="-421878" lat="59.1006499995" lon="5.68877500269">
		<tag k="alt_name" v="Hauske" />
		<tag k="amenity" v="place_of_worship" />
		<tag k="denomination" v="lutheran" />
		<tag k="name" v="Hausken kyrkje" />
		<tag k="religion" v="christian" />
		<tag k="ssr:stedsnr" v="608340" />
	</node>
	<node id="-421701" lat="59.1279888891" lon="5.64364444554">
		<tag k="alt_name" v="Sørbø" />
		<tag k="amenity" v="place_of_worship" />
		<tag k="denomination" v="lutheran" />
		<tag k="name" v="Sørbø kyrkje" />
		<tag k="religion" v="christian" />
		<tag k="ssr:stedsnr" v="244349" />
	</node>
	<node id="-421875" lat="59.1031499858" lon="5.59043189861">
		<tag k="name" v="Utstein kloster" />
		<tag k="old_name" v="Ulstein kloster" />
		<tag k="ssr:stedsnr" v="608330" />
		<tag k="tourism" v="attraction" />
	</node>
	<node id="-422026" lat="59.0637361073" lon="5.68708332704">
		<tag k="amenity" v="place_of_worship" />
		<tag k="denomination" v="lutheran" />
		<tag k="name" v="Askje kirke" />
		<tag k="religion" v="christian" />
		<tag k="ssr:stedsnr" v="790856" />
	</node>
</osm>
