<?xml version="1.0" encoding="UTF-8"?>
<osm generator="osmapis" version="0.6">
	<node id="-421885" lat="59.0457277815" lon="5.62762778327">
		<tag k="alt_name" v="Rudlevikane" />
		<tag k="name" v="Rullevikane" />
		<tag k="natural" v="bay" />
		<tag k="ssr:stedsnr" v="608868" />
	</node>
	<node id="-421884" lat="59.067830559" lon="5.71291945122">
		<tag k="fixme" v="consider seamark:type=rock or natural=shoal" />
		<tag k="name" v="Heimdrag" />
		<tag k="place" v="islet" />
		<tag k="ssr:stedsnr" v="608861" />
	</node>
	<node id="-421371" lat="59.033619444" lon="5.71073333249">
		<tag k="name" v="Sørestrand" />
		<tag k="natural" v="beach" />
		<tag k="place" v="locality" />
		<tag k="ssr:stedsnr" v="296050" />
	</node>
	<node id="-421882" lat="59.0660944464" lon="5.6030888884">
		<tag k="name" v="Gallagrunnen" />
		<tag k="natural" v="shoal" />
		<tag k="place" v="locality" />
		<tag k="ssr:stedsnr" v="608847" />
	</node>
	<node id="-421369" lat="59.0500277805" lon="5.67336667076">
		<tag k="name" v="Grottnes" />
		<tag k="natural" v="cape" />
		<tag k="ssr:stedsnr" v="295381" />
	</node>
	<node id="-421879" lat="59.1334305577" lon="5.70031666069">
		<tag k="name" v="Nordbøflua" />
		<tag k="natural" v="shoal" />
		<tag k="place" v="locality" />
		<tag k="ssr:stedsnr" v="608363" />
	</node>
	<node id="-421877" lat="59.1032944447" lon="5.5665250005">
		<tag k="name" v="Klosterneset" />
		<tag k="natural" v="cape" />
		<tag k="ssr:stedsnr" v="608333" />
	</node>
	<node id="-421873" lat="59.0741194418" lon="5.62097500425">
		<tag k="name" v="Nidjeneset" />
		<tag k="natural" v="cape" />
		<tag k="ssr:stedsnr" v="607858" />
	</node>
	<node id="-421360" lat="59.1357444423" lon="5.61499444304">
		<tag k="name" v="Kjemmingsflua" />
		<tag k="natural" v="shoal" />
		<tag k="place" v="locality" />
		<tag k="ssr:stedsnr" v="284789" />
	</node>
	<node id="-421871" lat="59.0849305568" lon="5.67581389506">
		<tag k="alt_name" v="Selneset" />
		<tag k="name" v="Selnes" />
		<tag k="natural" v="cape" />
		<tag k="ssr:stedsnr" v="607848" />
	</node>
	<node id="-421943" lat="59.0964972227" lon="5.67972777385">
		<tag k="name" v="Klubben" />
		<tag k="natural" v="cape" />
		<tag k="ssr:stedsnr" v="708221" />
	</node>
	<node id="-421869" lat="59.0823166661" lon="5.81010278158">
		<tag k="name" v="Brimse" />
		<tag k="place" v="island" />
		<tag k="ssr:stedsnr" v="607803" />
	</node>
	<node id="-421868" lat="59.0880750036" lon="5.56641943975">
		<tag k="name" v="Fluarholmen" />
		<tag k="place" v="islet" />
		<tag k="ssr:stedsnr" v="607358" />
	</node>
	<node id="-421867" lat="59.0537583355" lon="5.76098611014">
		<tag k="name" v="Åshammargrunnen" />
		<tag k="natural" v="shoal" />
		<tag k="place" v="locality" />
		<tag k="ssr:stedsnr" v="605534" />
	</node>
	<node id="-421931" lat="59.1275999989" lon="5.72112499284">
		<tag k="name" v="Kjøglene" />
		<tag k="natural" v="shoal" />
		<tag k="place" v="locality" />
		<tag k="ssr:stedsnr" v="669333" />
	</node>
	<node id="-421861" lat="59.0951916635" lon="5.77761945196">
		<tag k="name" v="Nordhusvågen" />
		<tag k="natural" v="bay" />
		<tag k="ssr:stedsnr" v="599980" />
	</node>
	<node id="-421860" lat="59.0892972226" lon="5.80302499933">
		<tag k="name" v="Håneset" />
		<tag k="natural" v="cape" />
		<tag k="ssr:stedsnr" v="599974" />
	</node>
	<node id="-421900" lat="59.1100916637" lon="5.55891110539">
		<tag k="alt_name" v="Brødene" />
		<tag k="name" v="Brørne" />
		<tag k="place" v="locality" />
		<tag k="seamark:type" v="rock" />
		<tag k="ssr:stedsnr" v="647751" />
	</node>
	<node id="-421858" lat="59.0629749995" lon="5.70516666508">
		<tag k="name" v="Kuneset" />
		<tag k="natural" v="cape" />
		<tag k="ssr:stedsnr" v="599634" />
	</node>
	<node id="-422139" lat="59.0956750033" lon="5.55827777309">
		<tag k="name" v="Kjellsgrunnen" />
		<tag k="natural" v="shoal" />
		<tag k="place" v="locality" />
		<tag k="ssr:stedsnr" v="951762" />
	</node>
	<node id="-421856" lat="59.0459138843" lon="5.65455832784">
		<tag k="name" v="Svartufs" />
		<tag k="natural" v="beach" />
		<tag k="place" v="locality" />
		<tag k="ssr:stedsnr" v="599551" />
	</node>
	<node id="-421436" lat="59.1222305521" lon="5.6832666585">
		<tag k="alt_name" v="Indra Naudholmsvika" />
		<tag k="name" v="Trulsavågen" />
		<tag k="natural" v="bay" />
		<tag k="ssr:stedsnr" v="365379" />
	</node>
	<node id="-421854" lat="59.051580559" lon="5.61046388579">
		<tag k="name" v="Fladaskjeret" />
		<tag k="place" v="islet" />
		<tag k="ssr:stedsnr" v="599527" />
	</node>
	<node id="-422053" lat="59.0771277749" lon="5.78165277194">
		<tag k="name" v="Lyrneset" />
		<tag k="natural" v="cape" />
		<tag k="ssr:stedsnr" v="842325" />
	</node>
	<node id="-421851" lat="59.1175222237" lon="5.58506667333">
		<tag k="name" v="Litle Låderholmen" />
		<tag k="place" v="islet" />
		<tag k="ssr:stedsnr" v="598306" />
	</node>
	<node id="-421850" lat="59.1197305527" lon="5.59753889054">
		<tag k="name" v="Steinsvik" />
		<tag k="natural" v="bay" />
		<tag k="ssr:stedsnr" v="598297" />
	</node>
	<node id="-421845" lat="59.0431388904" lon="5.67154166384">
		<tag k="name" v="Austnesgrunnen" />
		<tag k="natural" v="shoal" />
		<tag k="place" v="locality" />
		<tag k="ssr:stedsnr" v="587488" />
	</node>
	<node id="-421844" lat="59.0845444442" lon="5.71083056032">
		<tag k="name" v="Pallane" />
		<tag k="natural" v="cape" />
		<tag k="ssr:stedsnr" v="587400" />
	</node>
	<node id="-421843" lat="59.0866611083" lon="5.6070694448">
		<tag k="name" v="Kyllingane" />
		<tag k="place" v="islet" />
		<tag k="ssr:stedsnr" v="585588" />
	</node>
	<node id="-421842" lat="59.0882498318" lon="5.59597783307">
		<tag k="fixme" v="consider seamark:type=rock or natural=shoal" />
		<tag k="name" v="Ringaskjeret" />
		<tag k="place" v="islet" />
		<tag k="ssr:stedsnr" v="573370" />
	</node>
	<node id="-421838" lat="59.0465166685" lon="5.66843333303">
		<tag k="alt_name" v="Soknaklubben" />
		<tag k="name" v="Kuhagen" />
		<tag k="natural" v="cape" />
		<tag k="ssr:stedsnr" v="548835" />
	</node>
	<node id="-421837" lat="59.0709999997" lon="5.73913055626">
		<tag k="alt_name" v="Hedl" />
		<tag k="name" v="Hælen" />
		<tag k="natural" v="cape" />
		<tag k="ssr:stedsnr" v="548821" />
	</node>
	<node id="-421836" lat="59.0612999995" lon="5.60799443934">
		<tag k="name" v="Bøtta" />
		<tag k="natural" v="shoal" />
		<tag k="place" v="locality" />
		<tag k="ssr:stedsnr" v="548818" />
	</node>
	<node id="-421834" lat="59.0967888891" lon="5.56249167379">
		<tag k="name" v="Årabrotneset" />
		<tag k="natural" v="cape" />
		<tag k="ssr:stedsnr" v="548347" />
	</node>
	<node id="-421367" lat="59.0359527748" lon="5.6708916696">
		<tag k="name" v="Lineklubben" />
		<tag k="natural" v="cape" />
		<tag k="ssr:stedsnr" v="295304" />
	</node>
	<node id="-421831" lat="59.0879944445" lon="5.70080555581">
		<tag k="name" v="Fenes" />
		<tag k="natural" v="cape" />
		<tag k="ssr:stedsnr" v="547882" />
	</node>
	<node id="-421830" lat="59.0452750013" lon="5.69996944348">
		<tag k="alt_name" v="Kvidanes" />
		<tag k="name" v="Kvitaneset" />
		<tag k="natural" v="cape" />
		<tag k="ssr:stedsnr" v="547815" />
	</node>
	<node id="-421829" lat="59.1078590726" lon="5.63740650749">
		<tag k="alt_name" v="Asmarvika" />
		<tag k="name" v="Asmarvik" />
		<tag k="natural" v="bay" />
		<tag k="ssr:stedsnr" v="547404" />
	</node>
	<node id="-421827" lat="59.1285277785" lon="5.57459999888">
		<tag k="alt_name" v="Longanes" />
		<tag k="name" v="Langenes" />
		<tag k="natural" v="cape" />
		<tag k="ssr:stedsnr" v="547380" />
	</node>
	<node id="-421826" lat="59.153213887" lon="5.68090000558">
		<tag k="alt_name" v="Ertensøyna" />
		<tag k="name" v="Ertensøy" />
		<tag k="place" v="island" />
		<tag k="ssr:stedsnr" v="547289" />
	</node>
	<node id="-421825" lat="59.1583166627" lon="5.68537222224">
		<tag k="alt_name" v="Øyaflagane" />
		<tag k="name" v="Ertensøyflåga" />
		<tag k="natural" v="shoal" />
		<tag k="place" v="locality" />
		<tag k="ssr:stedsnr" v="547281" />
	</node>
	<node id="-421822" lat="59.1540722209" lon="5.6783472243">
		<tag k="name" v="Nordre Vågjen" />
		<tag k="natural" v="bay" />
		<tag k="ssr:stedsnr" v="539850" />
	</node>
	<node id="-421820" lat="59.0329472228" lon="5.67953332962">
		<tag k="name" v="Skålavika" />
		<tag k="natural" v="bay" />
		<tag k="ssr:stedsnr" v="539049" />
	</node>
	<node id="-421817" lat="59.0743416631" lon="5.77547221481">
		<tag k="alt_name" v="Steinbukta" />
		<tag k="name" v="Taravika" />
		<tag k="natural" v="bay" />
		<tag k="ssr:stedsnr" v="538378" />
	</node>
	<node id="-421814" lat="59.0416472257" lon="5.70063332823">
		<tag k="name" v="Kunes" />
		<tag k="natural" v="cape" />
		<tag k="ssr:stedsnr" v="538301" />
	</node>
	<node id="-421813" lat="59.0974472239" lon="5.68706111069">
		<tag k="name" v="Prestvågen" />
		<tag k="natural" v="bay" />
		<tag k="ssr:stedsnr" v="538097" />
	</node>
	<node id="-421405" lat="59.0927416653" lon="5.60011111463">
		<tag k="fixme" v="consider seamark:type=rock or natural=shoal" />
		<tag k="name" v="Knutskjeret" />
		<tag k="place" v="islet" />
		<tag k="ssr:stedsnr" v="343261" />
	</node>
	<node id="-421806" lat="59.0355472196" lon="5.71593611799">
		<tag k="name" v="Åmøystranda" />
		<tag k="natural" v="beach" />
		<tag k="place" v="locality" />
		<tag k="ssr:stedsnr" v="527652" />
	</node>
	<node id="-421805" lat="59.138886107" lon="5.58708332874">
		<tag k="name" v="Mortavikneset" />
		<tag k="natural" v="cape" />
		<tag k="ssr:stedsnr" v="526761" />
	</node>
	<node id="-421804" lat="59.0993861147" lon="5.66728888563">
		<tag k="name" v="Tårnneset" />
		<tag k="natural" v="cape" />
		<tag k="ssr:stedsnr" v="526209" />
	</node>
	<node id="-421803" lat="59.0772361123" lon="5.61753333569">
		<tag k="name" v="Gjelsvikneset" />
		<tag k="natural" v="cape" />
		<tag k="ssr:stedsnr" v="525651" />
	</node>
	<node id="-421802" lat="59.0840999993" lon="5.68951667322">
		<tag k="fixme" v="consider seamark:type=rock or natural=shoal" />
		<tag k="name" v="Torøya" />
		<tag k="place" v="islet" />
		<tag k="ssr:stedsnr" v="513357" />
	</node>
	<node id="-421801" lat="59.0931222258" lon="5.65233332521">
		<tag k="name" v="Kodaholmen" />
		<tag k="place" v="islet" />
		<tag k="ssr:stedsnr" v="513327" />
	</node>
	<node id="-421800" lat="59.0776805525" lon="5.69155000786">
		<tag k="name" v="Vaulaholmen" />
		<tag k="place" v="islet" />
		<tag k="ssr:stedsnr" v="513301" />
	</node>
	<node id="-421799" lat="59.0594505071" lon="5.70342140444">
		<tag k="name" v="Skorpeskjergrunnen" />
		<tag k="natural" v="shoal" />
		<tag k="place" v="locality" />
		<tag k="ssr:stedsnr" v="513299" />
	</node>
	<node id="-421791" lat="59.0513805584" lon="5.68952499505">
		<tag k="fixme" v="consider seamark:type=rock or natural=shoal" />
		<tag k="name" v="Skarvaskjeret" />
		<tag k="place" v="islet" />
		<tag k="ssr:stedsnr" v="487856" />
	</node>
	<node id="-421790" lat="59.0525583368" lon="5.64082776883">
		<tag k="name" v="Soknakrossen" />
		<tag k="natural" v="cape" />
		<tag k="ssr:stedsnr" v="487845" />
	</node>
	<node id="-421788" lat="59.0693222251" lon="5.64311389657">
		<tag k="name" v="Humleneset" />
		<tag k="natural" v="cape" />
		<tag k="ssr:stedsnr" v="487836" />
	</node>
	<node id="-421787" lat="59.0592916692" lon="5.67520555652">
		<tag k="name" v="Askjesundet" />
		<tag k="natural" v="strait" />
		<tag k="ssr:stedsnr" v="487835" />
	</node>
	<node id="-421925" lat="59.0741281741" lon="5.6696261493">
		<tag k="name" v="Dysjalandsvågen" />
		<tag k="natural" v="bay" />
		<tag k="ssr:stedsnr" v="668867" />
	</node>
	<node id="-421359" lat="59.0492388916" lon="5.60861666245">
		<tag k="name" v="Gryda" />
		<tag k="place" v="islet" />
		<tag k="ssr:stedsnr" v="284808" />
	</node>
	<node id="-421782" lat="59.0871194422" lon="5.60254999425">
		<tag k="name" v="Søre Lamholmen" />
		<tag k="place" v="islet" />
		<tag k="ssr:stedsnr" v="486861" />
	</node>
	<node id="-421780" lat="59.0988361113" lon="5.67111665989">
		<tag k="name" v="Hellandsvågen" />
		<tag k="natural" v="bay" />
		<tag k="ssr:stedsnr" v="486845" />
	</node>
	<node id="-421779" lat="59.0405027799" lon="5.62949444668">
		<tag k="name" v="Hausen" />
		<tag k="natural" v="cape" />
		<tag k="ssr:stedsnr" v="486794" />
	</node>
	<node id="-421778" lat="59.0374305534" lon="5.63445000492">
		<tag k="name" v="Fjellarvika" />
		<tag k="natural" v="bay" />
		<tag k="ssr:stedsnr" v="486792" />
	</node>
	<node id="-421443" lat="59.0853194447" lon="5.63668055459">
		<tag k="name" v="Mosterøy" />
		<tag k="place" v="island" />
		<tag k="ssr:stedsnr" v="365887" />
	</node>
	<node id="-421776" lat="59.0319666644" lon="5.64126667034">
		<tag k="name" v="Håneset" />
		<tag k="natural" v="cape" />
		<tag k="ssr:stedsnr" v="486811" />
	</node>
	<node id="-421774" lat="59.090705554" lon="5.71631943666">
		<tag k="name" v="Rennesøy" />
		<tag k="place" v="island" />
		<tag k="ssr:stedsnr" v="486369" />
	</node>
	<node id="-421773" lat="59.1335694435" lon="5.61814722154">
		<tag k="name" v="Vollholmen" />
		<tag k="place" v="islet" />
		<tag k="ssr:stedsnr" v="486293" />
	</node>
	<node id="-421771" lat="59.1458833358" lon="5.60805833972">
		<tag k="alt_name" v="Galtskjer;Galten" />
		<tag k="fixme" v="consider seamark:type=rock or natural=shoal" />
		<tag k="name" v="Galtskjeret" />
		<tag k="place" v="islet" />
		<tag k="ssr:stedsnr" v="486267" />
	</node>
	<node id="-421770" lat="59.041675004" lon="5.68406388763">
		<tag k="name" v="Nerabrandsodden" />
		<tag k="natural" v="cape" />
		<tag k="ssr:stedsnr" v="484509" />
	</node>
	<node id="-421768" lat="59.0612833358" lon="5.77001388859">
		<tag k="name" v="Midtgrunnen" />
		<tag k="natural" v="shoal" />
		<tag k="place" v="locality" />
		<tag k="ssr:stedsnr" v="466333" />
	</node>
	<node id="-421767" lat="59.0853638928" lon="5.57558888705">
		<tag k="name" v="Kjelaberget" />
		<tag k="natural" v="cape" />
		<tag k="ssr:stedsnr" v="465260" />
	</node>
	<node id="-421766" lat="59.0882861154" lon="5.60912778011">
		<tag k="name" v="Hestholmen" />
		<tag k="place" v="islet" />
		<tag k="ssr:stedsnr" v="464633" />
	</node>
	<node id="-421765" lat="59.0840972259" lon="5.59226944038">
		<tag k="name" v="Litla Svarthovet" />
		<tag k="place" v="islet" />
		<tag k="ssr:stedsnr" v="453335" />
	</node>
	<node id="-421764" lat="59.0839444405" lon="5.59839722838">
		<tag k="name" v="Stora Svarthovet" />
		<tag k="place" v="islet" />
		<tag k="ssr:stedsnr" v="453336" />
	</node>
	<node id="-421763" lat="59.0905333318" lon="5.59774445292">
		<tag k="name" v="Skibanes" />
		<tag k="natural" v="cape" />
		<tag k="ssr:stedsnr" v="453316" />
	</node>
	<node id="-421479" lat="59.1042805515" lon="5.61481388461">
		<tag k="name" v="Bakhodnagrunnen" />
		<tag k="natural" v="shoal" />
		<tag k="place" v="locality" />
		<tag k="ssr:stedsnr" v="891257" />
	</node>
	<node id="-421759" lat="59.0473055536" lon="5.67472221377">
		<tag k="name" v="Lamholmen" />
		<tag k="place" v="islet" />
		<tag k="ssr:stedsnr" v="427804" />
	</node>
	<node id="-421757" lat="59.0609194476" lon="5.63634721535">
		<tag k="name" v="Soknarulla" />
		<tag k="natural" v="shoal" />
		<tag k="place" v="locality" />
		<tag k="ssr:stedsnr" v="427796" />
	</node>
	<node id="-421756" lat="59.0707416641" lon="5.56304722812">
		<tag k="bay" v="fjord" />
		<tag k="name" v="Kvitsøyfjorden" />
		<tag k="natural" v="bay" />
		<tag k="ssr:stedsnr" v="427782" />
	</node>
	<node id="-421755" lat="59.0988091619" lon="5.5775949564">
		<tag k="name" v="Fjøløysundet" />
		<tag k="natural" v="strait" />
		<tag k="ssr:stedsnr" v="427350" />
	</node>
	<node id="-421754" lat="59.0752388861" lon="5.62832500148">
		<tag k="name" v="Steinsviga" />
		<tag k="natural" v="bay" />
		<tag k="ssr:stedsnr" v="426887" />
	</node>
	<node id="-421752" lat="59.0872500009" lon="5.5718111058">
		<tag k="name" v="Steinbrotneset" />
		<tag k="natural" v="cape" />
		<tag k="ssr:stedsnr" v="426871" />
	</node>
	<node id="-421748" lat="59.0262388917" lon="5.66095000843">
		<tag k="fixme" v="consider seamark:type=rock or natural=shoal" />
		<tag k="name" v="Fladaskjeret" />
		<tag k="place" v="islet" />
		<tag k="ssr:stedsnr" v="426812" />
	</node>
	<node id="-421950" lat="59.1190222253" lon="5.57205277126">
		<tag k="name" v="Breivika" />
		<tag k="natural" v="bay" />
		<tag k="ssr:stedsnr" v="720319" />
	</node>
	<node id="-421746" lat="59.1176888883" lon="5.57486944235">
		<tag k="name" v="Eplevika" />
		<tag k="natural" v="bay" />
		<tag k="ssr:stedsnr" v="426342" />
	</node>
	<node id="-421745" lat="59.1361138885" lon="5.64339443708">
		<tag k="alt_name" v="Fjerholmen" />
		<tag k="name" v="Fjørholmen" />
		<tag k="place" v="islet" />
		<tag k="ssr:stedsnr" v="426275" />
	</node>
	<node id="-421744" lat="59.1396027736" lon="5.64614722779">
		<tag k="alt_name" v="Feistein" />
		<tag k="fixme" v="consider seamark:type=rock or natural=shoal" />
		<tag k="name" v="Flusteinen" />
		<tag k="place" v="islet" />
		<tag k="ssr:stedsnr" v="426274" />
	</node>
	<node id="-421741" lat="59.0857638925" lon="5.81402222996">
		<tag k="name" v="Branganes" />
		<tag k="natural" v="cape" />
		<tag k="ssr:stedsnr" v="418965" />
	</node>
	<node id="-421737" lat="59.0454916657" lon="5.64903610383">
		<tag k="name" v="Skjenet" />
		<tag k="natural" v="cape" />
		<tag k="ssr:stedsnr" v="418531" />
	</node>
	<node id="-421735" lat="59.0886388896" lon="5.57264167344">
		<tag k="alt_name" v="Vindøyvika" />
		<tag k="name" v="Vinnarvika" />
		<tag k="natural" v="bay" />
		<tag k="ssr:stedsnr" v="418190" />
	</node>
	<node id="-421734" lat="59.1214388908" lon="5.68928611291">
		<tag k="name" v="Longaneset" />
		<tag k="natural" v="cape" />
		<tag k="ssr:stedsnr" v="417694" />
	</node>
	<node id="-421733" lat="59.1222916637" lon="5.71259443646">
		<tag k="name" v="Fladholmen" />
		<tag k="place" v="islet" />
		<tag k="ssr:stedsnr" v="417692" />
	</node>
	<node id="-421732" lat="59.1230333291" lon="5.70741945237">
		<tag k="name" v="Austbøneset" />
		<tag k="natural" v="cape" />
		<tag k="ssr:stedsnr" v="417690" />
	</node>
	<node id="-421731" lat="59.1380055576" lon="5.60866667355">
		<tag k="name" v="Teinemenes" />
		<tag k="natural" v="cape" />
		<tag k="ssr:stedsnr" v="417687" />
	</node>
	<node id="-421730" lat="59.1195388886" lon="5.56916944631">
		<tag k="fixme" v="consider seamark:type=rock or natural=shoal" />
		<tag k="name" v="Mågaskjera" />
		<tag k="place" v="islet" />
		<tag k="ssr:stedsnr" v="417338" />
	</node>
	<node id="-421729" lat="59.0367277782" lon="5.67552499951">
		<tag k="name" v="Jubavika" />
		<tag k="natural" v="bay" />
		<tag k="ssr:stedsnr" v="417313" />
	</node>
	<node id="-421728" lat="59.0832333362" lon="5.67666388054">
		<tag k="name" v="Selvika" />
		<tag k="natural" v="bay" />
		<tag k="ssr:stedsnr" v="417080" />
	</node>
	<node id="-421727" lat="59.0957194453" lon="5.64610556397">
		<tag k="name" v="Gråttnes" />
		<tag k="natural" v="cape" />
		<tag k="ssr:stedsnr" v="417073" />
	</node>
	<node id="-421726" lat="59.1203861113" lon="5.69344444838">
		<tag k="name" v="Habnaholmen" />
		<tag k="place" v="islet" />
		<tag k="ssr:stedsnr" v="417034" />
	</node>
	<node id="-421723" lat="59.0451583373" lon="5.66743610842">
		<tag k="name" v="Hagasundet" />
		<tag k="natural" v="strait" />
		<tag k="ssr:stedsnr" v="417512" />
	</node>
	<node id="-422096" lat="59.0444055544" lon="5.682647217">
		<tag k="name" v="Hamrane" />
		<tag k="natural" v="cape" />
		<tag k="ssr:stedsnr" v="902295" />
	</node>
	<node id="-421716" lat="59.1319166686" lon="5.63028889145">
		<tag k="name" v="Hommervollholmen" />
		<tag k="place" v="islet" />
		<tag k="ssr:stedsnr" v="479618" />
	</node>
	<node id="-421712" lat="59.096333332" lon="5.78191667075">
		<tag k="name" v="Langaneset" />
		<tag k="natural" v="cape" />
		<tag k="ssr:stedsnr" v="244866" />
	</node>
	<node id="-421944" lat="59.1615194444" lon="5.67926944508">
		<tag k="name" v="Sjurflua" />
		<tag k="natural" v="shoal" />
		<tag k="place" v="locality" />
		<tag k="ssr:stedsnr" v="708253" />
	</node>
	<node id="-421709" lat="59.0956916674" lon="5.68897500426">
		<tag k="name" v="Prestholmen" />
		<tag k="place" v="islet" />
		<tag k="ssr:stedsnr" v="244856" />
	</node>
	<node id="-421708" lat="59.0535444462" lon="5.66325555838">
		<tag k="name" v="Sokn" />
		<tag k="place" v="island" />
		<tag k="ssr:stedsnr" v="244848" />
	</node>
	<node id="-421707" lat="59.0745083368" lon="5.77739999879">
		<tag k="name" v="Lyrneset" />
		<tag k="natural" v="cape" />
		<tag k="ssr:stedsnr" v="244842" />
	</node>
	<node id="-421706" lat="59.0749250038" lon="5.72938611902">
		<tag k="name" v="Trisselen" />
		<tag k="natural" v="cape" />
		<tag k="ssr:stedsnr" v="244831" />
	</node>
	<node id="-421705" lat="59.0422555592" lon="5.62995555825">
		<tag k="name" v="Ørnavika" />
		<tag k="natural" v="bay" />
		<tag k="ssr:stedsnr" v="244806" />
	</node>
	<node id="-422125" lat="59.0204361108" lon="5.69252221563">
		<tag k="bay" v="fjord" />
		<tag k="name" v="Åmøyfjorden" />
		<tag k="natural" v="bay" />
		<tag k="ssr:stedsnr" v="912767" />
	</node>
	<node id="-421914" lat="59.1226611139" lon="5.68153056347">
		<tag k="name" v="Ytra Naudholmsvika" />
		<tag k="natural" v="bay" />
		<tag k="ssr:stedsnr" v="660652" />
	</node>
	<node id="-421942" lat="59.0922805565" lon="5.59582500733">
		<tag k="name" v="Skibaneshavnen" />
		<tag k="natural" v="bay" />
		<tag k="ssr:stedsnr" v="695314" />
	</node>
	<node id="-421698" lat="59.0912194476" lon="5.56624721552">
		<tag k="fixme" v="consider seamark:type=rock or natural=shoal" />
		<tag k="name" v="Svartaskjeret" />
		<tag k="place" v="islet" />
		<tag k="ssr:stedsnr" v="244339" />
	</node>
	<node id="-422027" lat="59.0562500033" lon="5.70965000526">
		<tag k="alt_name" v="Rossholmen, litle" />
		<tag k="name" v="Litle Rossholmen" />
		<tag k="place" v="islet" />
		<tag k="ssr:stedsnr" v="790858" />
	</node>
	<node id="-421695" lat="59.0989111073" lon="5.59011111051">
		<tag k="name" v="Fjøløya" />
		<tag k="place" v="islet" />
		<tag k="ssr:stedsnr" v="244310" />
	</node>
	<node id="-421693" lat="59.1235499978" lon="5.56120833015">
		<tag k="name" v="Torr" />
		<tag k="place" v="islet" />
		<tag k="ssr:stedsnr" v="244277" />
	</node>
	<node id="-421692" lat="59.1587333289" lon="5.68027500061">
		<tag k="name" v="Åjo" />
		<tag k="natural" v="shoal" />
		<tag k="place" v="locality" />
		<tag k="ssr:stedsnr" v="244256" />
	</node>
	<node id="-421691" lat="59.0747972186" lon="5.63397499383">
		<tag k="name" v="Naustviga" />
		<tag k="natural" v="bay" />
		<tag k="ssr:stedsnr" v="241895" />
	</node>
	<node id="-421687" lat="59.1256722179" lon="5.59311944933">
		<tag k="name" v="Neset" />
		<tag k="natural" v="cape" />
		<tag k="ssr:stedsnr" v="236854" />
	</node>
	<node id="-422025" lat="59.0701638861" lon="5.76853888289">
		<tag k="name" v="Kvidholmen" />
		<tag k="place" v="islet" />
		<tag k="ssr:stedsnr" v="790848" />
	</node>
	<node id="-421681" lat="59.1233472259" lon="5.56702221882">
		<tag k="name" v="Torrvågen" />
		<tag k="natural" v="bay" />
		<tag k="ssr:stedsnr" v="235885" />
	</node>
	<node id="-421680" lat="59.1226083296" lon="5.56522500286">
		<tag k="name" v="Grydevika" />
		<tag k="natural" v="bay" />
		<tag k="ssr:stedsnr" v="235883" />
	</node>
	<node id="-421679" lat="59.1517694418" lon="5.6786388935">
		<tag k="name" v="Kova" />
		<tag k="natural" v="bay" />
		<tag k="ssr:stedsnr" v="235874" />
	</node>
	<node id="-421678" lat="59.0718694473" lon="5.64274444017">
		<tag k="name" v="Bekkarvika" />
		<tag k="natural" v="bay" />
		<tag k="ssr:stedsnr" v="235695" />
	</node>
	<node id="-421677" lat="59.1402749982" lon="5.60853054858">
		<tag k="alt_name" v="Fladaskjer" />
		<tag k="name" v="Fladaskjeret" />
		<tag k="place" v="islet" />
		<tag k="ssr:stedsnr" v="235689" />
	</node>
	<node id="-421675" lat="59.1251999973" lon="5.74628611192">
		<tag k="name" v="Kuneset" />
		<tag k="natural" v="cape" />
		<tag k="ssr:stedsnr" v="235593" />
	</node>
	<node id="-422124" lat="59.0258277736" lon="5.67095833682">
		<tag k="name" v="Kjeøya" />
		<tag k="place" v="island" />
		<tag k="ssr:stedsnr" v="912757" />
	</node>
	<node id="-421673" lat="59.0492444404" lon="5.67326667441">
		<tag k="name" v="Kvidholmen" />
		<tag k="place" v="islet" />
		<tag k="ssr:stedsnr" v="235393" />
	</node>
	<node id="-421672" lat="59.0731388928" lon="5.77403333062">
		<tag k="fixme" v="consider seamark:type=rock or natural=shoal" />
		<tag k="name" v="Laraskjera" />
		<tag k="place" v="islet" />
		<tag k="ssr:stedsnr" v="235367" />
	</node>
	<node id="-421671" lat="59.1205333351" lon="5.71304444734">
		<tag k="name" v="Laksavika" />
		<tag k="natural" v="bay" />
		<tag k="ssr:stedsnr" v="235042" />
	</node>
	<node id="-421670" lat="59.0323166626" lon="5.70902499778">
		<tag k="name" v="Skarabergneset" />
		<tag k="natural" v="cape" />
		<tag k="ssr:stedsnr" v="224609" />
	</node>
	<node id="-421669" lat="59.0997249988" lon="5.55713889001">
		<tag k="fixme" v="consider seamark:type=rock or natural=shoal" />
		<tag k="name" v="Kvernaboskjeret" />
		<tag k="place" v="islet" />
		<tag k="ssr:stedsnr" v="223770" />
	</node>
	<node id="-421668" lat="59.0353250019" lon="5.65911110453">
		<tag k="name" v="Rauneviga" />
		<tag k="natural" v="bay" />
		<tag k="ssr:stedsnr" v="223737" />
	</node>
	<node id="-421667" lat="59.1291194465" lon="5.70506944201">
		<tag k="fixme" v="consider seamark:type=rock or natural=shoal" />
		<tag k="name" v="Kyllingane" />
		<tag k="place" v="islet" />
		<tag k="ssr:stedsnr" v="223252" />
	</node>
	<node id="-421666" lat="59.0851555582" lon="5.56422223026">
		<tag k="name" v="Fluarholmsflua" />
		<tag k="place" v="locality" />
		<tag k="seamark:type" v="rock" />
		<tag k="ssr:stedsnr" v="210336" />
	</node>
	<node id="-421665" lat="59.0721110569" lon="5.67481496648">
		<tag k="name" v="Foreviga" />
		<tag k="natural" v="bay" />
		<tag k="ssr:stedsnr" v="210300" />
	</node>
	<node id="-421664" lat="59.049836114" lon="5.69213889406">
		<tag k="name" v="Stonggrunnen" />
		<tag k="natural" v="shoal" />
		<tag k="place" v="locality" />
		<tag k="ssr:stedsnr" v="210293" />
	</node>
	<node id="-421953" lat="59.0319416626" lon="5.67324999454">
		<tag k="fixme" v="consider seamark:type=rock or natural=shoal" />
		<tag k="name" v="Lineskjeret" />
		<tag k="place" v="islet" />
		<tag k="ssr:stedsnr" v="721053" />
	</node>
	<node id="-421656" lat="59.0683000036" lon="5.68311667467">
		<tag k="name" v="Askje" />
		<tag k="natural" v="cape" />
		<tag k="ssr:stedsnr" v="207630" />
	</node>
	<node id="-421655" lat="59.0578638902" lon="5.71511111539">
		<tag k="name" v="Rossholmen" />
		<tag k="place" v="islet" />
		<tag k="ssr:stedsnr" v="184810" />
	</node>
	<node id="-421653" lat="59.0769777806" lon="5.81995555789">
		<tag k="alt_name" v="Bleieneset" />
		<tag k="name" v="Blæjeneset" />
		<tag k="natural" v="cape" />
		<tag k="ssr:stedsnr" v="184800" />
	</node>
	<node id="-421652" lat="59.1088750025" lon="5.78463610418">
		<tag k="name" v="Hanasandholmen" />
		<tag k="place" v="islet" />
		<tag k="ssr:stedsnr" v="184330" />
	</node>
	<node id="-421356" lat="59.0866805598" lon="5.81798889071">
		<tag k="name" v="Fiskholmgrunnen" />
		<tag k="natural" v="shoal" />
		<tag k="place" v="locality" />
		<tag k="ssr:stedsnr" v="271302" />
	</node>
	<node id="-421649" lat="59.1002333375" lon="5.64048889512">
		<tag k="bay" v="fjord" />
		<tag k="name" v="Mastrafjorden" />
		<tag k="natural" v="bay" />
		<tag k="ssr:stedsnr" v="184323" />
	</node>
	<node id="-421648" lat="59.100061111" lon="5.56123611481">
		<tag k="name" v="Jensholmen" />
		<tag k="place" v="islet" />
		<tag k="ssr:stedsnr" v="184320" />
	</node>
	<node id="-422157" lat="59.1094091961" lon="5.62664432001">
		<tag k="fixme" v="consider seamark:type=rock or natural=shoal" />
		<tag k="name" v="Båskjeret" />
		<tag k="place" v="islet" />
		<tag k="ssr:stedsnr" v="973719" />
	</node>
	<node id="-421644" lat="59.0795333325" lon="5.82703055112">
		<tag k="alt_name" v="Halsen" />
		<tag k="name" v="Hovud" />
		<tag k="natural" v="cape" />
		<tag k="ssr:stedsnr" v="183829" />
	</node>
	<node id="-422155" lat="59.0356094004" lon="5.66541288637">
		<tag k="name" v="Linegrunnen" />
		<tag k="natural" v="shoal" />
		<tag k="place" v="locality" />
		<tag k="ssr:stedsnr" v="971452" />
	</node>
	<node id="-421642" lat="59.1244833298" lon="5.67547777698">
		<tag k="alt_name" v="Klobben" />
		<tag k="name" v="Klubben" />
		<tag k="natural" v="cape" />
		<tag k="ssr:stedsnr" v="183337" />
	</node>
	<node id="-422152" lat="59.130586109" lon="5.63606944069">
		<tag k="name" v="Fuglavika" />
		<tag k="natural" v="bay" />
		<tag k="ssr:stedsnr" v="964599" />
	</node>
	<node id="-421639" lat="59.0780611113" lon="5.81608054933">
		<tag k="name" v="Smalavika" />
		<tag k="natural" v="bay" />
		<tag k="ssr:stedsnr" v="175963" />
	</node>
	<node id="-422146" lat="59.0954805538" lon="5.69060278223">
		<tag k="name" v="Longemannsneset" />
		<tag k="natural" v="cape" />
		<tag k="ssr:stedsnr" v="963085" />
	</node>
	<node id="-422145" lat="59.0320277755" lon="5.65667777249">
		<tag k="name" v="Brurova" />
		<tag k="natural" v="cape" />
		<tag k="ssr:stedsnr" v="963080" />
	</node>
	<node id="-422016" lat="59.1219750029" lon="5.71166389441">
		<tag k="name" v="Eltarvågen" />
		<tag k="natural" v="bay" />
		<tag k="ssr:stedsnr" v="790334" />
	</node>
	<node id="-422141" lat="59.0701333302" lon="5.67189167331">
		<tag k="name" v="Raunagrunnen" />
		<tag k="natural" v="shoal" />
		<tag k="place" v="locality" />
		<tag k="ssr:stedsnr" v="952561" />
	</node>
	<node id="-422140" lat="59.0767472268" lon="5.7276750022">
		<tag k="name" v="Svinavigberget" />
		<tag k="natural" v="cape" />
		<tag k="ssr:stedsnr" v="952388" />
	</node>
	<node id="-421627" lat="59.0860416676" lon="5.59204166003">
		<tag k="name" v="Kvidaneset" />
		<tag k="natural" v="cape" />
		<tag k="ssr:stedsnr" v="175187" />
	</node>
	<node id="-422138" lat="59.0991250019" lon="5.78294444222">
		<tag k="name" v="Klubben" />
		<tag k="natural" v="cape" />
		<tag k="ssr:stedsnr" v="938328" />
	</node>
	<node id="-421625" lat="59.0487638849" lon="5.66576110586">
		<tag k="name" v="Svinavika" />
		<tag k="natural" v="bay" />
		<tag k="ssr:stedsnr" v="174419" />
	</node>
	<node id="-421624" lat="59.0442361087" lon="5.66274444836">
		<tag k="name" v="Habn" />
		<tag k="natural" v="bay" />
		<tag k="ssr:stedsnr" v="174516" />
	</node>
	<node id="-421623" lat="59.0375861135" lon="5.6806388855">
		<tag k="name" v="Linehamna" />
		<tag k="natural" v="bay" />
		<tag k="ssr:stedsnr" v="174344" />
	</node>
	<node id="-421622" lat="59.03907778" lon="5.67564444064">
		<tag k="name" v="Kobbholmen" />
		<tag k="place" v="islet" />
		<tag k="ssr:stedsnr" v="174340" />
	</node>
	<node id="-421621" lat="59.0469833364" lon="5.68635833887">
		<tag k="name" v="Sandvika" />
		<tag k="natural" v="bay" />
		<tag k="ssr:stedsnr" v="174327" />
	</node>
	<node id="-422014" lat="59.1062388905" lon="5.78483333982">
		<tag k="name" v="Nedrabøholmen" />
		<tag k="place" v="islet" />
		<tag k="ssr:stedsnr" v="790317" />
	</node>
	<node id="-422128" lat="59.0602111133" lon="5.59500000638">
		<tag k="name" v="Nordgrunnen" />
		<tag k="natural" v="shoal" />
		<tag k="place" v="locality" />
		<tag k="ssr:stedsnr" v="912845" />
	</node>
	<node id="-422127" lat="59.0684666689" lon="5.75638889098">
		<tag k="name" v="Ormaneset" />
		<tag k="natural" v="cape" />
		<tag k="ssr:stedsnr" v="912842" />
	</node>
	<node id="-421614" lat="59.0928277756" lon="5.57060000511">
		<tag k="name" v="Søtaholet" />
		<tag k="natural" v="bay" />
		<tag k="ssr:stedsnr" v="161672" />
	</node>
	<node id="-421613" lat="59.1030222212" lon="5.78781944863">
		<tag k="name" v="Skallen" />
		<tag k="natural" v="shoal" />
		<tag k="place" v="locality" />
		<tag k="ssr:stedsnr" v="149319" />
	</node>
	<node id="-421612" lat="59.0738833355" lon="5.63134165989">
		<tag k="name" v="Naustneset" />
		<tag k="natural" v="cape" />
		<tag k="ssr:stedsnr" v="149302" />
	</node>
	<node id="-421611" lat="59.0449777773" lon="5.62579999375">
		<tag k="name" v="Rullevigboen" />
		<tag k="place" v="locality" />
		<tag k="seamark:type" v="rock" />
		<tag k="ssr:stedsnr" v="149286" />
	</node>
	<node id="-421610" lat="59.0621777738" lon="5.70037222877">
		<tag k="name" v="Ferjevågen" />
		<tag k="natural" v="bay" />
		<tag k="ssr:stedsnr" v="149243" />
	</node>
	<node id="-422119" lat="59.1232416668" lon="5.56457778195">
		<tag k="name" v="Skallen" />
		<tag k="place" v="islet" />
		<tag k="ssr:stedsnr" v="912366" />
	</node>
	<node id="-422118" lat="59.1324250014" lon="5.62706945081">
		<tag k="alt_name" v="Risaholmen" />
		<tag k="name" v="Risholmen" />
		<tag k="place" v="islet" />
		<tag k="ssr:stedsnr" v="912356" />
	</node>
	<node id="-422117" lat="59.1321527796" lon="5.58752500842">
		<tag k="name" v="Kjegla" />
		<tag k="natural" v="bay" />
		<tag k="ssr:stedsnr" v="912355" />
	</node>
	<node id="-422116" lat="59.1346527807" lon="5.62854999163">
		<tag k="name" v="Risavika" />
		<tag k="natural" v="bay" />
		<tag k="old_name" v="Risaviga" />
		<tag k="ssr:stedsnr" v="912294" />
	</node>
	<node id="-422115" lat="59.0875333326" lon="5.80625000181">
		<tag k="alt_name" v="Sandvika;Djupevika" />
		<tag k="name" v="Djupevik" />
		<tag k="natural" v="bay" />
		<tag k="ssr:stedsnr" v="911855" />
	</node>
	<node id="-421602" lat="59.057733333" lon="5.600480548">
		<tag k="name" v="Kolsboane" />
		<tag k="place" v="locality" />
		<tag k="seamark:type" v="rock" />
		<tag k="ssr:stedsnr" v="123843" />
	</node>
	<node id="-421601" lat="59.1116277753" lon="5.62308610776">
		<tag k="alt_name" v="Hesthammar" />
		<tag k="name" v="Hesthammaren" />
		<tag k="natural" v="cape" />
		<tag k="ssr:stedsnr" v="123404" />
	</node>
	<node id="-421600" lat="59.1076166649" lon="5.56490832699">
		<tag k="alt_name" v="Lamholmen, nordre;Lamholmen" />
		<tag k="name" v="Nordre Lamholmen" />
		<tag k="place" v="islet" />
		<tag k="ssr:stedsnr" v="123398" />
	</node>
	<node id="-422111" lat="59.0782999997" lon="5.8115416599">
		<tag k="name" v="Flatanes" />
		<tag k="natural" v="cape" />
		<tag k="ssr:stedsnr" v="911820" />
	</node>
	<node id="-422110" lat="59.0781083316" lon="5.68063332588">
		<tag k="name" v="Vaulaviga" />
		<tag k="natural" v="bay" />
		<tag k="ssr:stedsnr" v="911817" />
	</node>
	<node id="-421597" lat="59.0939861067" lon="5.81131943675">
		<tag k="bay" v="fjord" />
		<tag k="name" v="Brimsefjorden" />
		<tag k="natural" v="bay" />
		<tag k="ssr:stedsnr" v="122843" />
	</node>
	<node id="-422107" lat="59.0942027743" lon="5.5622277851">
		<tag k="name" v="Urholmen" />
		<tag k="place" v="islet" />
		<tag k="ssr:stedsnr" v="911349" />
	</node>
	<node id="-421594" lat="59.0307166636" lon="5.65796667302">
		<tag k="name" v="Kjeøyosen" />
		<tag k="natural" v="strait" />
		<tag k="ssr:stedsnr" v="122800" />
	</node>
	<node id="-421593" lat="59.0426777807" lon="5.71263888938">
		<tag k="fixme" v="consider seamark:type=rock or natural=shoal" />
		<tag k="name" v="Torsteinskjera" />
		<tag k="place" v="islet" />
		<tag k="ssr:stedsnr" v="122797" />
	</node>
	<node id="-421592" lat="59.0921944402" lon="5.61043610782">
		<tag k="name" v="Sandviga" />
		<tag k="natural" v="bay" />
		<tag k="ssr:stedsnr" v="122372" />
	</node>
	<node id="-422103" lat="59.0870749968" lon="5.57159445228">
		<tag k="alt_name" v="Vindøyvikneset" />
		<tag k="name" v="Vindhaugneset" />
		<tag k="natural" v="cape" />
		<tag k="ssr:stedsnr" v="904202" />
	</node>
	<node id="-421590" lat="59.1343000019" lon="5.58447499324">
		<tag k="alt_name" v="Jubhammar" />
		<tag k="name" v="Djuphammar" />
		<tag k="natural" v="cape" />
		<tag k="ssr:stedsnr" v="122284" />
	</node>
	<node id="-421915" lat="59.1335527748" lon="5.61125832959">
		<tag k="name" v="Sandvika" />
		<tag k="natural" v="bay" />
		<tag k="ssr:stedsnr" v="660651" />
	</node>
	<node id="-422100" lat="59.0583388898" lon="5.692925005">
		<tag k="name" v="Humravika" />
		<tag k="natural" v="bay" />
		<tag k="ssr:stedsnr" v="903608" />
	</node>
	<node id="-422097" lat="59.0368694472" lon="5.68382777555">
		<tag k="alt_name" v="Litleholmen" />
		<tag k="name" v="Lineholmen" />
		<tag k="place" v="islet" />
		<tag k="ssr:stedsnr" v="902322" />
	</node>
	<node id="-421584" lat="59.137511113" lon="5.58603055202">
		<tag k="name" v="Longemyrnes" />
		<tag k="natural" v="cape" />
		<tag k="ssr:stedsnr" v="115854" />
	</node>
	<node id="-422095" lat="59.0914972265" lon="5.65413611177">
		<tag k="name" v="Varen" />
		<tag k="natural" v="cape" />
		<tag k="ssr:stedsnr" v="902073" />
	</node>
	<node id="-422094" lat="59.1166611109" lon="5.69962499877">
		<tag k="name" v="Austbøvågen" />
		<tag k="natural" v="bay" />
		<tag k="ssr:stedsnr" v="902029" />
	</node>
	<node id="-421581" lat="59.1284194479" lon="5.57941944211">
		<tag k="name" v="Møvåg" />
		<tag k="natural" v="bay" />
		<tag k="ssr:stedsnr" v="114872" />
	</node>
	<node id="-421580" lat="59.123752782" lon="5.67890555774">
		<tag k="name" v="Tjødnaneset" />
		<tag k="natural" v="cape" />
		<tag k="ssr:stedsnr" v="114662" />
	</node>
	<node id="-421579" lat="59.0704249963" lon="5.74424722032">
		<tag k="name" v="Smørstakk" />
		<tag k="natural" v="beach" />
		<tag k="place" v="locality" />
		<tag k="ssr:stedsnr" v="114378" />
	</node>
	<node id="-422090" lat="59.0646999975" lon="5.71112499723">
		<tag k="name" v="Jonsgrunnen" />
		<tag k="natural" v="shoal" />
		<tag k="place" v="locality" />
		<tag k="ssr:stedsnr" v="878285" />
	</node>
	<node id="-421577" lat="59.1008222262" lon="5.56838610473">
		<tag k="name" v="Fjøløyneset" />
		<tag k="natural" v="cape" />
		<tag k="ssr:stedsnr" v="113150" />
	</node>
	<node id="-421575" lat="59.0910472181" lon="5.65519167204">
		<tag k="name" v="Varavika" />
		<tag k="natural" v="bay" />
		<tag k="ssr:stedsnr" v="113065" />
	</node>
	<node id="-421574" lat="59.0795055522" lon="5.61285833081">
		<tag k="name" v="Skorsteinstoveneset" />
		<tag k="natural" v="cape" />
		<tag k="ssr:stedsnr" v="113063" />
	</node>
	<node id="-421899" lat="59.0607888867" lon="5.66368610964">
		<tag k="name" v="Mjågrunnen" />
		<tag k="natural" v="shoal" />
		<tag k="place" v="locality" />
		<tag k="ssr:stedsnr" v="634337" />
	</node>
	<node id="-421569" lat="59.0803222183" lon="5.72258610893">
		<tag k="name" v="Nausterhaugen" />
		<tag k="natural" v="cape" />
		<tag k="ssr:stedsnr" v="102449" />
	</node>
	<node id="-422080" lat="59.0867305546" lon="5.7951277723">
		<tag k="name" v="Kovaholmen" />
		<tag k="place" v="islet" />
		<tag k="ssr:stedsnr" v="851866" />
	</node>
	<node id="-422079" lat="59.0742583362" lon="5.63888055661">
		<tag k="name" v="Hodnafjellsviga" />
		<tag k="natural" v="bay" />
		<tag k="ssr:stedsnr" v="851867" />
	</node>
	<node id="-421626" lat="59.0374861089" lon="5.66512777425">
		<tag k="name" v="Saltraudn" />
		<tag k="place" v="islet" />
		<tag k="ssr:stedsnr" v="174500" />
	</node>
	<node id="-422076" lat="59.0924155949" lon="5.65151020836">
		<tag k="name" v="Kodavågen" />
		<tag k="natural" v="bay" />
		<tag k="ssr:stedsnr" v="851842" />
	</node>
	<node id="-421578" lat="59.1154555601" lon="5.57863055827">
		<tag k="name" v="Larsahola" />
		<tag k="natural" v="cape" />
		<tag k="ssr:stedsnr" v="113309" />
	</node>
	<node id="-422073" lat="59.0257916625" lon="5.66571389167">
		<tag k="name" v="Persholmen" />
		<tag k="place" v="islet" />
		<tag k="ssr:stedsnr" v="851742" />
	</node>
	<node id="-422072" lat="59.114174998" lon="5.61965278302">
		<tag k="alt_name" v="Bøskjera" />
		<tag k="fixme" v="consider seamark:type=rock or natural=shoal" />
		<tag k="name" v="Bøskjeret" />
		<tag k="place" v="islet" />
		<tag k="ssr:stedsnr" v="851353" />
	</node>
	<node id="-422071" lat="59.1255055539" lon="5.73765554886">
		<tag k="name" v="Hellevika" />
		<tag k="natural" v="bay" />
		<tag k="ssr:stedsnr" v="851349" />
	</node>
	<node id="-421370" lat="59.1294138916" lon="5.64359721713">
		<tag k="name" v="Pålavika" />
		<tag k="natural" v="bay" />
		<tag k="ssr:stedsnr" v="297616" />
	</node>
	<node id="-421567" lat="59.0624444478" lon="5.67041944121">
		<tag k="name" v="Kobbholmen" />
		<tag k="place" v="islet" />
		<tag k="ssr:stedsnr" v="89330" />
	</node>
	<node id="-421952" lat="59.0391861069" lon="5.66729999412">
		<tag k="name" v="Rundraudn" />
		<tag k="place" v="islet" />
		<tag k="ssr:stedsnr" v="720480" />
	</node>
	<node id="-422067" lat="59.1178916627" lon="5.59145832555">
		<tag k="name" v="Sandvika" />
		<tag k="natural" v="bay" />
		<tag k="ssr:stedsnr" v="851336" />
	</node>
	<node id="-422066" lat="59.1282305545" lon="5.66133610965">
		<tag k="alt_name" v="Jubhellerneset" />
		<tag k="name" v="Djuphelleneset" />
		<tag k="natural" v="cape" />
		<tag k="ssr:stedsnr" v="851333" />
	</node>
	<node id="-422003" lat="59.0512416676" lon="5.63092500561">
		<tag k="name" v="Bruhalsen" />
		<tag k="place" v="locality" />
		<tag k="ssr:stedsnr" v="782500" />
	</node>
	<node id="-422137" lat="59.0668249982" lon="5.64512222847">
		<tag k="name" v="Humlenesflua" />
		<tag k="place" v="locality" />
		<tag k="seamark:type" v="rock" />
		<tag k="ssr:stedsnr" v="938310" />
	</node>
	<node id="-421551" lat="59.0577611099" lon="5.68034443596">
		<tag k="fixme" v="consider seamark:type=rock or natural=shoal" />
		<tag k="name" v="Golhaugskjera" />
		<tag k="place" v="islet" />
		<tag k="ssr:stedsnr" v="62843" />
	</node>
	<node id="-421550" lat="59.0761666647" lon="5.72867500373">
		<tag k="name" v="Svinaviga" />
		<tag k="natural" v="bay" />
		<tag k="ssr:stedsnr" v="62824" />
	</node>
	<node id="-422112" lat="59.0803027819" lon="5.783419441">
		<tag k="alt_name" v="Gangenes" />
		<tag k="name" v="Gongenes" />
		<tag k="natural" v="cape" />
		<tag k="ssr:stedsnr" v="911819" />
	</node>
	<node id="-421548" lat="59.0734638922" lon="5.69969166505">
		<tag k="name" v="Sandneset" />
		<tag k="natural" v="cape" />
		<tag k="ssr:stedsnr" v="62821" />
	</node>
	<node id="-421547" lat="59.0339277795" lon="5.64736667318">
		<tag k="name" v="Hånesvika" />
		<tag k="natural" v="bay" />
		<tag k="ssr:stedsnr" v="62815" />
	</node>
	<node id="-422058" lat="59.1291250038" lon="5.65159721428">
		<tag k="name" v="Litle Buholmen" />
		<tag k="place" v="islet" />
		<tag k="ssr:stedsnr" v="843643" />
	</node>
	<node id="-422092" lat="59.0526194483" lon="5.6224333359">
		<tag k="name" v="Mannholmen" />
		<tag k="place" v="islet" />
		<tag k="ssr:stedsnr" v="878343" />
	</node>
	<node id="-422056" lat="59.0488777767" lon="5.61505556282">
		<tag k="fixme" v="consider seamark:type=rock or natural=shoal" />
		<tag k="name" v="Lyraskjeret" />
		<tag k="place" v="islet" />
		<tag k="ssr:stedsnr" v="843543" />
	</node>
	<node id="-421541" lat="59.1036777808" lon="5.5805055615">
		<tag k="name" v="Klosterøy" />
		<tag k="place" v="island" />
		<tag k="ssr:stedsnr" v="62314" />
	</node>
	<node id="-422052" lat="59.119986115" lon="5.60078333747">
		<tag k="alt_name" v="Hedleneset" />
		<tag k="name" v="Helleneset" />
		<tag k="natural" v="cape" />
		<tag k="ssr:stedsnr" v="842287" />
	</node>
	<node id="-421537" lat="59.0696777808" lon="5.65285555548">
		<tag k="name" v="Dysjalandsstranda" />
		<tag k="natural" v="beach" />
		<tag k="place" v="locality" />
		<tag k="ssr:stedsnr" v="59885" />
	</node>
	<node id="-422109" lat="59.0382583323" lon="5.71358055995">
		<tag k="name" v="Torsteinvika" />
		<tag k="natural" v="bay" />
		<tag k="ssr:stedsnr" v="911809" />
	</node>
	<node id="-421534" lat="59.0585361129" lon="5.7027638973">
		<tag k="fixme" v="consider seamark:type=rock or natural=shoal" />
		<tag k="name" v="Skorpå" />
		<tag k="place" v="islet" />
		<tag k="ssr:stedsnr" v="54610" />
	</node>
	<node id="-422044" lat="59.0441777814" lon="5.66773888355">
		<tag k="name" v="Austneset" />
		<tag k="natural" v="cape" />
		<tag k="ssr:stedsnr" v="817300" />
	</node>
	<node id="-422043" lat="59.0937777739" lon="5.78150832744">
		<tag k="name" v="Naudholmboen" />
		<tag k="place" v="locality" />
		<tag k="seamark:type" v="rock" />
		<tag k="ssr:stedsnr" v="817265" />
	</node>
	<node id="-422126" lat="59.0356361155" lon="5.67771667468">
		<tag k="name" v="Line" />
		<tag k="place" v="island" />
		<tag k="ssr:stedsnr" v="912813" />
	</node>
	<node id="-421529" lat="59.0748388933" lon="5.78240832931">
		<tag k="fixme" v="consider seamark:type=rock or natural=shoal" />
		<tag k="name" v="Mele" />
		<tag k="place" v="islet" />
		<tag k="ssr:stedsnr" v="53366" />
	</node>
	<node id="-421528" lat="59.1163527808" lon="5.58163611649">
		<tag k="name" v="Selsnes" />
		<tag k="natural" v="cape" />
		<tag k="ssr:stedsnr" v="53323" />
	</node>
	<node id="-421527" lat="59.0394416659" lon="5.68078888277">
		<tag k="alt_name" v="Storholmen" />
		<tag k="name" v="Hegrabergholmen" />
		<tag k="place" v="islet" />
		<tag k="ssr:stedsnr" v="53302" />
	</node>
	<node id="-421525" lat="59.1211138893" lon="5.56513054712">
		<tag k="fixme" v="consider seamark:type=rock or natural=shoal" />
		<tag k="name" v="Skalleskjeret" />
		<tag k="place" v="islet" />
		<tag k="ssr:stedsnr" v="41746" />
	</node>
	<node id="-421524" lat="59.0831611122" lon="5.8298388808">
		<tag k="name" v="Trollholmgrunnen" />
		<tag k="natural" v="shoal" />
		<tag k="place" v="locality" />
		<tag k="ssr:stedsnr" v="28333" />
	</node>
	<node id="-421523" lat="59.0395805587" lon="5.69952499595">
		<tag k="name" v="Båsen" />
		<tag k="natural" v="bay" />
		<tag k="ssr:stedsnr" v="28278" />
	</node>
	<node id="-421544" lat="59.1235027761" lon="5.68239166116">
		<tag k="alt_name" v="Naudolmen" />
		<tag k="name" v="Nautholmen" />
		<tag k="place" v="islet" />
		<tag k="ssr:stedsnr" v="62363" />
	</node>
	<node id="-422010" lat="59.1476250001" lon="5.66682778277">
		<tag k="name" v="Midflu" />
		<tag k="natural" v="shoal" />
		<tag k="place" v="locality" />
		<tag k="ssr:stedsnr" v="790236" />
	</node>
	<node id="-422029" lat="59.0852875953" lon="5.60888381883">
		<tag k="alt_name" v="Knarravik" />
		<tag k="name" v="Knarravika" />
		<tag k="natural" v="bay" />
		<tag k="ssr:stedsnr" v="790880" />
	</node>
	<node id="-422028" lat="59.0498388896" lon="5.6475305558">
		<tag k="name" v="Soknasundet" />
		<tag k="natural" v="strait" />
		<tag k="ssr:stedsnr" v="790864" />
	</node>
	<node id="-421515" lat="59.0508027797" lon="5.61767777979">
		<tag k="name" v="Bruholmen" />
		<tag k="place" v="islet" />
		<tag k="ssr:stedsnr" v="2825" />
	</node>
	<node id="-421514" lat="59.0566694484" lon="5.67502500554">
		<tag k="name" v="Golhaug" />
		<tag k="natural" v="cape" />
		<tag k="ssr:stedsnr" v="2817" />
	</node>
	<node id="-421513" lat="59.0576499977" lon="5.62838889772">
		<tag k="name" v="Smågrunnane" />
		<tag k="natural" v="shoal" />
		<tag k="place" v="locality" />
		<tag k="ssr:stedsnr" v="2816" />
	</node>
	<node id="-421512" lat="59.0727555546" lon="5.60369167463">
		<tag k="name" v="Isgrunnen" />
		<tag k="natural" v="shoal" />
		<tag k="place" v="locality" />
		<tag k="ssr:stedsnr" v="1871" />
	</node>
	<node id="-422023" lat="59.0411055527" lon="5.67382778304">
		<tag k="name" v="Grønland" />
		<tag k="place" v="island" />
		<tag k="ssr:stedsnr" v="790813" />
	</node>
	<node id="-421510" lat="59.083590215" lon="5.58220293363">
		<tag k="name" v="Paradisvika" />
		<tag k="natural" v="bay" />
		<tag k="ssr:stedsnr" v="1862" />
	</node>
	<node id="-422021" lat="59.0433555524" lon="5.69126110343">
		<tag k="name" v="Vestre Åmøy" />
		<tag k="place" v="island" />
		<tag k="ssr:stedsnr" v="790809" />
	</node>
	<node id="-422020" lat="59.1094916686" lon="5.62668611887">
		<tag k="fixme" v="consider seamark:type=rock or natural=shoal" />
		<tag k="name" v="Båskjer" />
		<tag k="place" v="islet" />
		<tag k="ssr:stedsnr" v="790364" />
	</node>
	<node id="-422019" lat="59.1055861103" lon="5.58457500466">
		<tag k="name" v="Taravik" />
		<tag k="natural" v="bay" />
		<tag k="ssr:stedsnr" v="790361" />
	</node>
	<node id="-421506" lat="59.0804055564" lon="5.68007778329">
		<tag k="name" v="Lyngneset" />
		<tag k="natural" v="cape" />
		<tag k="ssr:stedsnr" v="1815" />
	</node>
	<node id="-421505" lat="59.0774638868" lon="5.68643611819">
		<tag k="alt_name" v="Kadlaneset" />
		<tag k="name" v="Kalhagnes" />
		<tag k="natural" v="cape" />
		<tag k="ssr:stedsnr" v="1813" />
	</node>
	<node id="-421504" lat="59.036863886" lon="5.66743055359">
		<tag k="name" v="Lineosen" />
		<tag k="natural" v="strait" />
		<tag k="ssr:stedsnr" v="1806" />
	</node>
	<node id="-421568" lat="59.0860749987" lon="5.57354444604">
		<tag k="name" v="Toskaholet" />
		<tag k="natural" v="bay" />
		<tag k="ssr:stedsnr" v="101253" />
	</node>
	<node id="-421502" lat="59.1075777762" lon="5.78959443814">
		<tag k="name" v="Hanasandsundet" />
		<tag k="natural" v="strait" />
		<tag k="ssr:stedsnr" v="1366" />
	</node>
	<node id="-421501" lat="59.1251138884" lon="5.7464000016">
		<tag k="name" v="Rennaren" />
		<tag k="natural" v="cape" />
		<tag k="ssr:stedsnr" v="1365" />
	</node>
	<node id="-421500" lat="59.1288638889" lon="5.65698889337">
		<tag k="alt_name" v="Hedlenes" />
		<tag k="name" v="Marurd" />
		<tag k="natural" v="cape" />
		<tag k="ssr:stedsnr" v="1345" />
	</node>
	<node id="-422011" lat="59.1657166628" lon="5.65116945224">
		<tag k="name" v="Tjelmen" />
		<tag k="natural" v="shoal" />
		<tag k="place" v="locality" />
		<tag k="ssr:stedsnr" v="790294" />
	</node>
	<node id="-421498" lat="59.1295916659" lon="5.57466111009">
		<tag k="alt_name" v="Håskjer" />
		<tag k="fixme" v="consider seamark:type=rock or natural=shoal" />
		<tag k="name" v="Håskjeret" />
		<tag k="place" v="islet" />
		<tag k="ssr:stedsnr" v="1338" />
	</node>
	<node id="-421497" lat="59.1347999954" lon="5.6072833252">
		<tag k="alt_name" v="Galtavågen" />
		<tag k="name" v="Galtvågen" />
		<tag k="natural" v="bay" />
		<tag k="ssr:stedsnr" v="1289" />
	</node>
	<node id="-422004" lat="59.1277944434" lon="5.59285555061">
		<tag k="name" v="Otraholet" />
		<tag k="natural" v="bay" />
		<tag k="ssr:stedsnr" v="782833" />
	</node>
	<node id="-421566" lat="59.0548222237" lon="5.64140833871">
		<tag k="name" v="Håneset" />
		<tag k="natural" v="cape" />
		<tag k="ssr:stedsnr" v="89325" />
	</node>
	<node id="-422000" lat="59.0603805585" lon="5.64018611295">
		<tag k="fixme" v="consider seamark:type=rock or natural=shoal" />
		<tag k="name" v="Soknarøysa" />
		<tag k="place" v="islet" />
		<tag k="ssr:stedsnr" v="781667" />
	</node>
	<node id="-421998" lat="59.1239194419" lon="5.74967499608">
		<tag k="name" v="Skiftesvika" />
		<tag k="natural" v="bay" />
		<tag k="ssr:stedsnr" v="781560" />
	</node>
	<node id="-421995" lat="59.0757666683" lon="5.78073333288">
		<tag k="name" v="Hokkeren" />
		<tag k="natural" v="cape" />
		<tag k="ssr:stedsnr" v="781342" />
	</node>
	<node id="-421994" lat="59.0996777819" lon="5.58930834077">
		<tag k="name" v="Klostervågen" />
		<tag k="natural" v="bay" />
		<tag k="ssr:stedsnr" v="781315" />
	</node>
	<node id="-421993" lat="59.0972194421" lon="5.67424166">
		<tag k="name" v="Hegning" />
		<tag k="natural" v="beach" />
		<tag k="place" v="locality" />
		<tag k="ssr:stedsnr" v="781088" />
	</node>
	<node id="-421930" lat="59.1298027778" lon="5.64463889442">
		<tag k="name" v="Sørbøvågen" />
		<tag k="natural" v="bay" />
		<tag k="ssr:stedsnr" v="669330" />
	</node>
	<node id="-421615" lat="59.0480083293" lon="5.68157222535">
		<tag k="name" v="Lamholmgrunnen" />
		<tag k="natural" v="shoal" />
		<tag k="place" v="locality" />
		<tag k="ssr:stedsnr" v="162471" />
	</node>
	<node id="-421478" lat="59.0829388896" lon="5.61051110766">
		<tag k="name" v="Steganeset" />
		<tag k="natural" v="cape" />
		<tag k="ssr:stedsnr" v="889590" />
	</node>
	<node id="-421987" lat="59.0935138919" lon="5.60419166098">
		<tag k="name" v="Kobben" />
		<tag k="place" v="locality" />
		<tag k="seamark:type" v="rock" />
		<tag k="ssr:stedsnr" v="768264" />
	</node>
	<node id="-421474" lat="59.0754166656" lon="5.61914445014">
		<tag k="name" v="Humravika" />
		<tag k="natural" v="bay" />
		<tag k="ssr:stedsnr" v="478663" />
	</node>
	<node id="-422075" lat="59.0676694436" lon="5.70590000154">
		<tag k="alt_name" v="Kvitaneset" />
		<tag k="name" v="Kvitanes" />
		<tag k="natural" v="cape" />
		<tag k="ssr:stedsnr" v="851827" />
	</node>
	<node id="-421472" lat="59.0707333288" lon="5.67190277395">
		<tag k="name" v="Kattaraua" />
		<tag k="natural" v="cape" />
		<tag k="ssr:stedsnr" v="478620" />
	</node>
	<node id="-421469" lat="59.0519416709" lon="5.62089444947">
		<tag k="name" v="Litle Bruholmen" />
		<tag k="place" v="islet" />
		<tag k="ssr:stedsnr" v="478540" />
	</node>
	<node id="-421466" lat="59.115944444" lon="5.57533054863">
		<tag k="name" v="Skjenet" />
		<tag k="natural" v="cape" />
		<tag k="ssr:stedsnr" v="477331" />
	</node>
	<node id="-421974" lat="59.0446249982" lon="5.67458056397">
		<tag k="name" v="Kobbholmen" />
		<tag k="place" v="islet" />
		<tag k="ssr:stedsnr" v="730862" />
	</node>
	<node id="-421973" lat="59.0634055572" lon="5.66780832869">
		<tag k="fixme" v="consider seamark:type=rock or natural=shoal" />
		<tag k="name" v="Munken" />
		<tag k="place" v="islet" />
		<tag k="ssr:stedsnr" v="730847" />
	</node>
	<node id="-421458" lat="59.1222888848" lon="5.59670277757">
		<tag k="name" v="Reianesvågen" />
		<tag k="natural" v="bay" />
		<tag k="ssr:stedsnr" v="244359" />
	</node>
	<node id="-421475" lat="59.1526055522" lon="5.68179444118">
		<tag k="name" v="Søre Vågjen" />
		<tag k="natural" v="bay" />
		<tag k="ssr:stedsnr" v="478861" />
	</node>
	<node id="-421503" lat="59.0343666671" lon="5.71318610451">
		<tag k="name" v="Saltvika" />
		<tag k="natural" v="bay" />
		<tag k="ssr:stedsnr" v="1798" />
	</node>
	<node id="-421964" lat="59.1347749957" lon="5.64425833805">
		<tag k="name" v="Sørbøneset" />
		<tag k="natural" v="cape" />
		<tag k="ssr:stedsnr" v="729306" />
	</node>
	<node id="-421929" lat="59.1225999989" lon="5.58182777631">
		<tag k="name" v="Reianes" />
		<tag k="natural" v="cape" />
		<tag k="ssr:stedsnr" v="669328" />
	</node>
	<node id="-421897" lat="59.0854333363" lon="5.82176943799">
		<tag k="name" v="Midtgrunnen" />
		<tag k="natural" v="shoal" />
		<tag k="place" v="locality" />
		<tag k="ssr:stedsnr" v="634285" />
	</node>
	<node id="-421960" lat="59.1398722261" lon="5.59307221734">
		<tag k="name" v="Raudekobb" />
		<tag k="natural" v="cape" />
		<tag k="ssr:stedsnr" v="721859" />
	</node>
	<node id="-422105" lat="59.1171194477" lon="5.77001945115">
		<tag k="name" v="Dravika" />
		<tag k="natural" v="bay" />
		<tag k="ssr:stedsnr" v="904888" />
	</node>
	<node id="-421958" lat="59.1292583375" lon="5.64978332949">
		<tag k="name" v="Store Buholmen" />
		<tag k="place" v="islet" />
		<tag k="ssr:stedsnr" v="721617" />
	</node>
	<node id="-421985" lat="59.0296749955" lon="5.6595555501">
		<tag k="name" v="Raunagrunnen" />
		<tag k="natural" v="shoal" />
		<tag k="place" v="locality" />
		<tag k="ssr:stedsnr" v="756303" />
	</node>
	<node id="-422070" lat="59.1196700112" lon="5.70071188018">
		<tag k="alt_name" v="Nordbøvika" />
		<tag k="name" v="Nordbøvågen" />
		<tag k="natural" v="bay" />
		<tag k="ssr:stedsnr" v="851348" />
	</node>
	<node id="-421442" lat="59.0920583355" lon="5.5781694365">
		<tag k="name" v="Fjøløy" />
		<tag k="place" v="island" />
		<tag k="ssr:stedsnr" v="365885" />
	</node>
	<node id="-421643" lat="59.0322916662" lon="5.65668054958">
		<tag k="alt_name" v="Raunen" />
		<tag k="name" v="Raunes" />
		<tag k="natural" v="cape" />
		<tag k="ssr:stedsnr" v="183820" />
	</node>
	<node id="-421440" lat="59.0997333317" lon="5.78308333048">
		<tag k="name" v="Ullanes" />
		<tag k="natural" v="cape" />
		<tag k="ssr:stedsnr" v="365878" />
	</node>
	<node id="-421984" lat="59.0666805543" lon="5.6655583251">
		<tag k="name" v="Giljeneset" />
		<tag k="natural" v="cape" />
		<tag k="ssr:stedsnr" v="756265" />
	</node>
	<node id="-421438" lat="59.0414305594" lon="5.6438083259">
		<tag k="name" v="Bru" />
		<tag k="place" v="island" />
		<tag k="ssr:stedsnr" v="365815" />
	</node>
	<node id="-421948" lat="59.1058750014" lon="5.55954445254">
		<tag k="fixme" v="consider seamark:type=rock or natural=shoal" />
		<tag k="name" v="Utstein" />
		<tag k="place" v="islet" />
		<tag k="ssr:stedsnr" v="720180" />
	</node>
	<node id="-421947" lat="59.1058194404" lon="5.57108334223">
		<tag k="name" v="Lamholmsundet" />
		<tag k="natural" v="strait" />
		<tag k="ssr:stedsnr" v="720178" />
	</node>
	<node id="-421434" lat="59.135011107" lon="5.64210556199">
		<tag k="name" v="Tristeinsvika" />
		<tag k="natural" v="bay" />
		<tag k="ssr:stedsnr" v="365358" />
	</node>
	<node id="-421945" lat="59.0769749989" lon="5.67410833318">
		<tag k="name" v="Notaneset" />
		<tag k="natural" v="cape" />
		<tag k="ssr:stedsnr" v="709579" />
	</node>
	<node id="-421432" lat="59.1376722181" lon="5.58924722184">
		<tag k="name" v="Mortavika" />
		<tag k="natural" v="bay" />
		<tag k="ssr:stedsnr" v="365280" />
	</node>
	<node id="-421431" lat="59.1395777795" lon="5.5985361082">
		<tag k="name" v="Folavika" />
		<tag k="natural" v="bay" />
		<tag k="ssr:stedsnr" v="365278" />
	</node>
	<node id="-421430" lat="59.1425499995" lon="5.60328055545">
		<tag k="alt_name" v="Kobbaskjer" />
		<tag k="name" v="Kobbaskjeret" />
		<tag k="place" v="islet" />
		<tag k="ssr:stedsnr" v="365272" />
	</node>
	<node id="-421429" lat="59.1430194451" lon="5.60848055715">
		<tag k="name" v="Galtholmen" />
		<tag k="place" v="islet" />
		<tag k="ssr:stedsnr" v="365270" />
	</node>
	<node id="-421428" lat="59.0391805589" lon="5.70751389592">
		<tag k="name" v="Kattaraua" />
		<tag k="natural" v="cape" />
		<tag k="ssr:stedsnr" v="362537" />
	</node>
	<node id="-422156" lat="59.0403934583" lon="5.73394495578">
		<tag k="name" v="Åmøy" />
		<tag k="place" v="island" />
		<tag k="ssr:stedsnr" v="972996" />
	</node>
	<node id="-421457" lat="59.0488611136" lon="5.67164721745">
		<tag k="name" v="Nygardsviga" />
		<tag k="natural" v="bay" />
		<tag k="ssr:stedsnr" v="392288" />
	</node>
	<node id="-421424" lat="59.1134138918" lon="5.77457778198">
		<tag k="name" v="Hanasandvika" />
		<tag k="natural" v="bay" />
		<tag k="ssr:stedsnr" v="357960" />
	</node>
	<node id="-421932" lat="59.1149583305" lon="5.58409166736">
		<tag k="alt_name" v="Store Låderholmen" />
		<tag k="name" v="Låderholmen" />
		<tag k="place" v="islet" />
		<tag k="ssr:stedsnr" v="669343" />
	</node>
	<node id="-421419" lat="59.0632861134" lon="5.66778888212">
		<tag k="fixme" v="consider seamark:type=rock or natural=shoal" />
		<tag k="name" v="Kobbholmen" />
		<tag k="place" v="islet" />
		<tag k="ssr:stedsnr" v="357587" />
	</node>
	<node id="-421418" lat="59.1258277807" lon="5.72690555753">
		<tag k="name" v="Laksavika" />
		<tag k="natural" v="bay" />
		<tag k="ssr:stedsnr" v="357527" />
	</node>
	<node id="-421417" lat="59.1222388846" lon="5.75871666614">
		<tag k="name" v="Kvednavika" />
		<tag k="natural" v="bay" />
		<tag k="ssr:stedsnr" v="357519" />
	</node>
	<node id="-421928" lat="59.1280527823" lon="5.58901945153">
		<tag k="alt_name" v="Nørevåg" />
		<tag k="name" v="Nørdrevågen" />
		<tag k="natural" v="bay" />
		<tag k="ssr:stedsnr" v="669325" />
	</node>
	<node id="-421415" lat="59.120219441" lon="5.60596944639">
		<tag k="name" v="Bøvågen" />
		<tag k="natural" v="bay" />
		<tag k="ssr:stedsnr" v="357049" />
	</node>
	<node id="-421926" lat="59.0783083358" lon="5.6174055533">
		<tag k="name" v="Ballarviga" />
		<tag k="natural" v="bay" />
		<tag k="ssr:stedsnr" v="668869" />
	</node>
	<node id="-421413" lat="59.0775194415" lon="5.8204611028">
		<tag k="name" v="Bleienesvika" />
		<tag k="natural" v="bay" />
		<tag k="ssr:stedsnr" v="356345" />
	</node>
	<node id="-422013" lat="59.0992750044" lon="5.60744167152">
		<tag k="name" v="Finnasandbukta" />
		<tag k="natural" v="bay" />
		<tag k="ssr:stedsnr" v="790307" />
	</node>
	<node id="-421411" lat="59.0318888917" lon="5.6782055534">
		<tag k="name" v="Linetåna" />
		<tag k="natural" v="cape" />
		<tag k="ssr:stedsnr" v="356061" />
	</node>
	<node id="-422064" lat="59.135719445" lon="5.58506666194">
		<tag k="name" v="Djuphammarvika" />
		<tag k="natural" v="bay" />
		<tag k="ssr:stedsnr" v="851260" />
	</node>
	<node id="-421407" lat="59.0981055575" lon="5.55468055052">
		<tag k="name" v="Kvernabofluene" />
		<tag k="natural" v="shoal" />
		<tag k="place" v="locality" />
		<tag k="ssr:stedsnr" v="344764" />
	</node>
	<node id="-421406" lat="59.0705416642" lon="5.66370000765">
		<tag k="name" v="Litleholmen" />
		<tag k="place" v="islet" />
		<tag k="ssr:stedsnr" v="344225" />
	</node>
	<node id="-421433" lat="59.124955556" lon="5.57247221612">
		<tag k="alt_name" v="Skjebavika" />
		<tag k="name" v="Skipavika" />
		<tag k="natural" v="bay" />
		<tag k="ssr:stedsnr" v="365288" />
	</node>
	<node id="-421404" lat="59.0899138902" lon="5.56980833235">
		<tag k="name" v="Fyrklubben" />
		<tag k="natural" v="cape" />
		<tag k="ssr:stedsnr" v="343254" />
	</node>
	<node id="-421403" lat="59.1220972205" lon="5.75981388979">
		<tag k="name" v="Mjølhida" />
		<tag k="natural" v="cape" />
		<tag k="ssr:stedsnr" v="331334" />
	</node>
	<node id="-421402" lat="59.0804694482" lon="5.78518055651">
		<tag k="name" v="Gongenesflua" />
		<tag k="place" v="locality" />
		<tag k="seamark:type" v="rock" />
		<tag k="ssr:stedsnr" v="331277" />
	</node>
	<node id="-421401" lat="59.0376805582" lon="5.68673332965">
		<tag k="name" v="Linesundet" />
		<tag k="natural" v="strait" />
		<tag k="ssr:stedsnr" v="331270" />
	</node>
	<node id="-421910" lat="59.076624996" lon="5.68110832618">
		<tag k="name" v="Vaudl" />
		<tag k="place" v="locality" />
		<tag k="ssr:stedsnr" v="660614" />
	</node>
	<node id="-421908" lat="59.1226666688" lon="5.7552833377">
		<tag k="name" v="Rennarsvika" />
		<tag k="natural" v="bay" />
		<tag k="ssr:stedsnr" v="660558" />
	</node>
	<node id="-421903" lat="59.0979222249" lon="5.67155277743">
		<tag k="name" v="Kattaraua" />
		<tag k="natural" v="cape" />
		<tag k="ssr:stedsnr" v="659103" />
	</node>
	<node id="-421389" lat="59.0331944444" lon="5.6366777782">
		<tag k="name" v="Hånesholmen" />
		<tag k="place" v="islet" />
		<tag k="ssr:stedsnr" v="305816" />
	</node>
	<node id="-421388" lat="59.1131000005" lon="5.58536944882">
		<tag k="name" v="Låderflua" />
		<tag k="natural" v="shoal" />
		<tag k="place" v="locality" />
		<tag k="ssr:stedsnr" v="305385" />
	</node>
	<node id="-421387" lat="59.1191305517" lon="5.56990278102">
		<tag k="fixme" v="consider seamark:type=rock or natural=shoal" />
		<tag k="name" v="Svartaskjer" />
		<tag k="place" v="islet" />
		<tag k="ssr:stedsnr" v="305369" />
	</node>
	<node id="-421898" lat="59.0669777805" lon="5.70528888409">
		<tag k="name" v="Laughammaren" />
		<tag k="natural" v="cape" />
		<tag k="ssr:stedsnr" v="634292" />
	</node>
	<node id="-421385" lat="59.0894999999" lon="5.80035277267">
		<tag k="name" v="Stolsundholmen" />
		<tag k="place" v="islet" />
		<tag k="ssr:stedsnr" v="304882" />
	</node>
	<node id="-421384" lat="59.0814416666" lon="5.82677500343">
		<tag k="name" v="Trollholmen" />
		<tag k="place" v="islet" />
		<tag k="ssr:stedsnr" v="304833" />
	</node>
	<node id="-421383" lat="59.0951305549" lon="5.59883610777">
		<tag k="alt_name" v="Longholmen" />
		<tag k="name" v="Kuholmen" />
		<tag k="place" v="islet" />
		<tag k="ssr:stedsnr" v="304340" />
	</node>
	<node id="-421379" lat="59.128644441" lon="5.58318888251">
		<tag k="name" v="Kallagnes" />
		<tag k="natural" v="cape" />
		<tag k="ssr:stedsnr" v="297853" />
	</node>
	<node id="-421377" lat="59.0904416643" lon="5.60453055852">
		<tag k="name" v="Klosterhamn" />
		<tag k="place" v="locality" />
		<tag k="ssr:stedsnr" v="297218" />
	</node>
</osm>
