<?xml version="1.0" encoding="UTF-8"?>
<osm generator="osmapis" version="0.6">
	<node id="-421244" lat="59.1110638887" lon="5.72700554699">
		<tag k="name" v="Rodemyr" />
		<tag k="natural" v="wetland" />
		<tag k="ssr:stedsnr" v="600932" />
	</node>
	<node id="-421370" lat="59.1079944476" lon="5.67779445021">
		<tag k="name" v="Takmyr" />
		<tag k="natural" v="wetland" />
		<tag k="ssr:stedsnr" v="781020" />
	</node>
	<node id="-420857" lat="59.0945833341" lon="5.58025832914">
		<tag k="name" v="Torvmyra" />
		<tag k="natural" v="wetland" />
		<tag k="ssr:stedsnr" v="479216" />
	</node>
	<node id="-420847" lat="59.0753666698" lon="5.75859999593">
		<tag k="landuse" v="meadow" />
		<tag k="name" v="Øvra Leide" />
		<tag k="ssr:stedsnr" v="477358" />
	</node>
	<node id="-421100" lat="59.1184333296" lon="5.71749166688">
		<tag k="name" v="Slettemyr" />
		<tag k="natural" v="wetland" />
		<tag k="ssr:stedsnr" v="479936" />
	</node>
	<node id="-421098" lat="59.1126944423" lon="5.75046110338">
		<tag k="name" v="Klomamyra" />
		<tag k="natural" v="wetland" />
		<tag k="ssr:stedsnr" v="479923" />
	</node>
	<node id="-421481" lat="59.0906972223" lon="5.71953334085">
		<tag k="name" v="Selsheia" />
		<tag k="place" v="locality" />
		<tag k="ssr:stedsnr" v="903987" />
	</node>
	<node id="-421478" lat="59.0554527798" lon="5.66725833974">
		<tag k="landuse" v="meadow" />
		<tag k="name" v="Rinnå" />
		<tag k="ssr:stedsnr" v="902400" />
	</node>
	<node id="-421477" lat="59.074277781" lon="5.75992499989">
		<tag k="landuse" v="meadow" />
		<tag k="name" v="Nedra Leide" />
		<tag k="ssr:stedsnr" v="902385" />
	</node>
	<node id="-420964" lat="59.1050916633" lon="5.76519167436">
		<tag k="name" v="Udlanesheia" />
		<tag k="place" v="locality" />
		<tag k="ssr:stedsnr" v="115866" />
	</node>
	<node id="-421212" lat="59.1107138894" lon="5.67326388691">
		<tag k="name" v="Hjarthaugmyra" />
		<tag k="natural" v="wetland" />
		<tag k="ssr:stedsnr" v="548334" />
	</node>
	<node id="-420955" lat="59.0901083301" lon="5.71263889697">
		<tag k="name" v="Grønamyr" />
		<tag k="natural" v="wetland" />
		<tag k="ssr:stedsnr" v="113081" />
	</node>
	<node id="-421336" lat="59.0549722232" lon="5.64655832575">
		<tag k="name" v="Bodlekrossen" />
		<tag k="place" v="locality" />
		<tag k="ssr:stedsnr" v="721515" />
	</node>
	<node id="-420950" lat="59.1132277744" lon="5.66695833813">
		<tag k="name" v="Flekkstadmyra" />
		<tag k="natural" v="wetland" />
		<tag k="ssr:stedsnr" v="113001" />
	</node>
	<node id="-421073" lat="59.1119388893" lon="5.66459999981">
		<tag k="name" v="Flekksta" />
		<tag k="place" v="locality" />
		<tag k="ssr:stedsnr" v="244307" />
	</node>
	<node id="-421456" lat="59.0983111144" lon="5.74450278425">
		<tag k="name" v="Skjørvestadmyra" />
		<tag k="natural" v="wetland" />
		<tag k="ssr:stedsnr" v="851859" />
	</node>
	<node id="-421195" lat="59.1012666659" lon="5.60267222856">
		<tag k="name" v="Prestø" />
		<tag k="place" v="locality" />
		<tag k="ssr:stedsnr" v="538332" />
	</node>
	<node id="-421064" lat="59.047102774" lon="5.63529166364">
		<tag k="name" v="Sletthei" />
		<tag k="place" v="locality" />
		<tag k="ssr:stedsnr" v="236510" />
	</node>
	<node id="-420807" lat="59.0809027761" lon="5.74568054791">
		<tag k="name" v="Askheia" />
		<tag k="place" v="locality" />
		<tag k="ssr:stedsnr" v="357993" />
	</node>
	<node id="-421190" lat="59.078122221" lon="5.62390555707">
		<tag k="name" v="Kvidemyr" />
		<tag k="natural" v="wetland" />
		<tag k="ssr:stedsnr" v="538082" />
	</node>
	<node id="-421434" lat="59.0514055582" lon="5.64933333414">
		<tag k="name" v="Brådene" />
		<tag k="place" v="locality" />
		<tag k="ssr:stedsnr" v="843528" />
	</node>
	<node id="-421296" lat="59.0905472216" lon="5.74108333558">
		<tag k="name" v="Eriksmyr" />
		<tag k="natural" v="wetland" />
		<tag k="ssr:stedsnr" v="660994" />
	</node>
	<node id="-421448" lat="59.1163749971" lon="5.62994166144">
		<tag k="alt_name" v="Steinmyr" />
		<tag k="name" v="Steinmyra" />
		<tag k="natural" v="wetland" />
		<tag k="ssr:stedsnr" v="851343" />
	</node>
	<node id="-421020" lat="59.0874027733" lon="5.7386222153">
		<tag k="name" v="Skamyr" />
		<tag k="natural" v="wetland" />
		<tag k="ssr:stedsnr" v="175991" />
	</node>
	<node id="-421019" lat="59.0803888888" lon="5.77469444868">
		<tag k="landuse" v="quarry" />
		<tag k="name" v="Gråurskjenet" />
		<tag k="ssr:stedsnr" v="175966" />
	</node>
	<node id="-421017" lat="59.116769442" lon="5.7426805616">
		<tag k="name" v="Ansetemyra" />
		<tag k="natural" v="wetland" />
		<tag k="ssr:stedsnr" v="175911" />
	</node>
	<node id="-421527" lat="59.076611115" lon="5.77560832973">
		<tag k="name" v="Eigene" />
		<tag k="place" v="locality" />
		<tag k="ssr:stedsnr" v="963372" />
	</node>
	<node id="-420757" lat="59.1114916658" lon="5.64283333165">
		<tag k="name" v="Århei" />
		<tag k="place" v="locality" />
		<tag k="ssr:stedsnr" v="297220" />
	</node>
	<node id="-420952" lat="59.1136555538" lon="5.68187778463">
		<tag k="name" v="Nordbøstemmen" />
		<tag k="natural" v="wetland" />
		<tag k="ssr:stedsnr" v="113027" />
	</node>
	<node id="-421388" lat="59.0822666651" lon="5.73479721576">
		<tag k="name" v="Daleheia" />
		<tag k="place" v="locality" />
		<tag k="ssr:stedsnr" v="782989" />
	</node>
	<node id="-421387" lat="59.0855222244" lon="5.7370888871">
		<tag k="name" v="Sletteheia" />
		<tag k="place" v="locality" />
		<tag k="ssr:stedsnr" v="782987" />
	</node>
	<node id="-421122" lat="59.0828722219" lon="5.74858611626">
		<tag k="name" v="Askmyrane" />
		<tag k="natural" v="wetland" />
		<tag k="ssr:stedsnr" v="418993" />
	</node>
</osm>
