<?xml version="1.0" encoding="UTF-8"?>
<osm generator="osmapis" version="0.6">
	<node id="-421374" lat="59.0944583357" lon="5.72214443657">
		<tag k="fixme" v="consider natural=peak for the most distinct mountains in the district" />
		<tag k="name" v="Glansvollen" />
		<tag k="natural" v="hill" />
		<tag k="place" v="locality" />
		<tag k="ssr:stedsnr" v="296983" />
	</node>
	<node id="-421373" lat="59.0802555524" lon="5.78121944631">
		<tag k="name" v="Pigalhaugen" />
		<tag k="natural" v="hill" />
		<tag k="place" v="locality" />
		<tag k="ssr:stedsnr" v="296968" />
	</node>
	<node id="-421372" lat="59.0693972252" lon="5.67965832897">
		<tag k="name" v="Svinhedler" />
		<tag k="natural" v="hill" />
		<tag k="place" v="locality" />
		<tag k="ssr:stedsnr" v="296585" />
	</node>
	<node id="-421883" lat="59.0667777804" lon="5.68167500804">
		<tag k="fixme" v="consider natural=peak for the most distinct mountains in the district" />
		<tag k="name" v="Askjevarden" />
		<tag k="natural" v="hill" />
		<tag k="place" v="locality" />
		<tag k="ssr:stedsnr" v="608857" />
	</node>
	<node id="-421881" lat="59.1143194414" lon="5.62631667323">
		<tag k="alt_name" v="Niben" />
		<tag k="name" v="Nipen" />
		<tag k="natural" v="hill" />
		<tag k="place" v="locality" />
		<tag k="ssr:stedsnr" v="608385" />
	</node>
	<node id="-421368" lat="59.0761305585" lon="5.73490833439">
		<tag k="fixme" v="consider natural=peak for the most distinct mountains in the district" />
		<tag k="name" v="Vindeim" />
		<tag k="natural" v="hill" />
		<tag k="place" v="locality" />
		<tag k="ssr:stedsnr" v="295365" />
	</node>
	<node id="-421365" lat="59.0362805553" lon="5.69698055507">
		<tag k="name" v="Varaberget" />
		<tag k="natural" v="hill" />
		<tag k="place" v="locality" />
		<tag k="ssr:stedsnr" v="295296" />
	</node>
	<node id="-421364" lat="59.1077777752" lon="5.71260555555">
		<tag k="name" v="Låvahaugen" />
		<tag k="natural" v="hill" />
		<tag k="place" v="locality" />
		<tag k="ssr:stedsnr" v="295037" />
	</node>
	<node id="-421357" lat="59.0737777768" lon="5.75040556083">
		<tag k="fixme" v="multiple name tags, choose one and add the other to alt_name; consider natural=peak for the most distinct mountains in the district" />
		<tag k="name" v="Rennesøyhornet;Hodnenuten" />
		<tag k="natural" v="hill" />
		<tag k="ssr:stedsnr" v="271313" />
	</node>
	<node id="-421866" lat="59.1155083295" lon="5.7269138874">
		<tag k="name" v="Århei" />
		<tag k="natural" v="hill" />
		<tag k="place" v="locality" />
		<tag k="ssr:stedsnr" v="600936" />
	</node>
	<node id="-421864" lat="59.114477779" lon="5.76203611388">
		<tag k="fixme" v="consider natural=peak for the most distinct mountains in the district" />
		<tag k="name" v="Husaråsen" />
		<tag k="natural" v="hill" />
		<tag k="place" v="locality" />
		<tag k="ssr:stedsnr" v="600880" />
	</node>
	<node id="-421863" lat="59.1333805514" lon="5.58924165842">
		<tag k="name" v="Varmekrok" />
		<tag k="natural" v="hill" />
		<tag k="place" v="locality" />
		<tag k="ssr:stedsnr" v="600866" />
	</node>
	<node id="-421859" lat="59.0800055556" lon="5.82654999763">
		<tag k="name" v="Kvidafjellet" />
		<tag k="natural" v="hill" />
		<tag k="place" v="locality" />
		<tag k="ssr:stedsnr" v="599973" />
	</node>
	<node id="-421855" lat="59.0381916659" lon="5.65204999262">
		<tag k="name" v="Vakthus" />
		<tag k="natural" v="hill" />
		<tag k="place" v="locality" />
		<tag k="ssr:stedsnr" v="599536" />
	</node>
	<node id="-421853" lat="59.0711777773" lon="5.76215555216">
		<tag k="name" v="Mortaberget" />
		<tag k="natural" v="slope" />
		<tag k="place" v="locality" />
		<tag k="ssr:stedsnr" v="598337" />
	</node>
	<node id="-421852" lat="59.0714638892" lon="5.76787221485">
		<tag k="name" v="Blindå" />
		<tag k="natural" v="hill" />
		<tag k="place" v="locality" />
		<tag k="ssr:stedsnr" v="598336" />
	</node>
	<node id="-421848" lat="59.078891668" lon="5.63032499557">
		<tag k="name" v="Flunderhaug" />
		<tag k="natural" v="hill" />
		<tag k="place" v="locality" />
		<tag k="ssr:stedsnr" v="598065" />
	</node>
	<node id="-421847" lat="59.0895944404" lon="5.62960554919">
		<tag k="name" v="Kollberg" />
		<tag k="natural" v="hill" />
		<tag k="place" v="locality" />
		<tag k="ssr:stedsnr" v="598063" />
	</node>
	<node id="-421835" lat="59.1039277778" lon="5.65263889165">
		<tag k="name" v="Litladalen" />
		<tag k="natural" v="valley" />
		<tag k="place" v="locality" />
		<tag k="ssr:stedsnr" v="548349" />
	</node>
	<node id="-421823" lat="59.1152138885" lon="5.75343610522">
		<tag k="name" v="Øvre Lyngdalen" />
		<tag k="natural" v="valley" />
		<tag k="place" v="locality" />
		<tag k="ssr:stedsnr" v="539867" />
	</node>
	<node id="-421821" lat="59.043672225" lon="5.63567778302">
		<tag k="name" v="Norvarden" />
		<tag k="natural" v="hill" />
		<tag k="place" v="locality" />
		<tag k="ssr:stedsnr" v="539509" />
	</node>
	<node id="-421819" lat="59.054669447" lon="5.67590000225">
		<tag k="name" v="Golhaug" />
		<tag k="natural" v="hill" />
		<tag k="place" v="locality" />
		<tag k="ssr:stedsnr" v="538407" />
	</node>
	<node id="-421815" lat="59.1030138876" lon="5.60138055329">
		<tag k="name" v="Bakkafjellet" />
		<tag k="natural" v="hill" />
		<tag k="place" v="locality" />
		<tag k="ssr:stedsnr" v="538330" />
	</node>
	<node id="-421812" lat="59.0778194473" lon="5.65311111661">
		<tag k="name" v="Kleivane" />
		<tag k="natural" v="hill" />
		<tag k="place" v="locality" />
		<tag k="ssr:stedsnr" v="538085" />
	</node>
	<node id="-421810" lat="59.1087166646" lon="5.66557777626">
		<tag k="fixme" v="consider natural=peak for the most distinct mountains in the district" />
		<tag k="name" v="Grønhaugane" />
		<tag k="natural" v="hill" />
		<tag k="place" v="locality" />
		<tag k="ssr:stedsnr" v="538021" />
	</node>
	<node id="-421789" lat="59.0675611155" lon="5.67066944959">
		<tag k="name" v="Giljeberget" />
		<tag k="natural" v="hill" />
		<tag k="place" v="locality" />
		<tag k="ssr:stedsnr" v="487838" />
	</node>
	<node id="-421785" lat="59.1077833352" lon="5.75711111157">
		<tag k="alt_name" v="Longafjellet" />
		<tag k="fixme" v="consider natural=peak for the most distinct mountains in the district" />
		<tag k="name" v="Langafjellet" />
		<tag k="natural" v="hill" />
		<tag k="place" v="locality" />
		<tag k="ssr:stedsnr" v="487337" />
	</node>
	<node id="-421956" lat="59.0525138916" lon="5.651944443">
		<tag k="name" v="Soknahodnet" />
		<tag k="natural" v="hill" />
		<tag k="place" v="locality" />
		<tag k="ssr:stedsnr" v="721512" />
	</node>
	<node id="-421777" lat="59.0815916639" lon="5.82186944245">
		<tag k="name" v="Ramshaug" />
		<tag k="natural" v="hill" />
		<tag k="place" v="locality" />
		<tag k="ssr:stedsnr" v="486823" />
	</node>
	<node id="-421951" lat="59.1172611124" lon="5.59046110334">
		<tag k="name" v="Lådervarden" />
		<tag k="natural" v="hill" />
		<tag k="place" v="locality" />
		<tag k="ssr:stedsnr" v="720323" />
	</node>
	<node id="-421922" lat="59.0431249957" lon="5.69063333736">
		<tag k="alt_name" v="Hegraberget" />
		<tag k="name" v="Hegrabergfjellet" />
		<tag k="natural" v="hill" />
		<tag k="place" v="locality" />
		<tag k="ssr:stedsnr" v="668800" />
	</node>
	<node id="-421751" lat="59.0824000006" lon="5.61338610723">
		<tag k="alt_name" v="Stigsafjellet" />
		<tag k="fixme" v="consider natural=peak for the most distinct mountains in the district" />
		<tag k="name" v="Stegafjellet" />
		<tag k="natural" v="hill" />
		<tag k="place" v="locality" />
		<tag k="ssr:stedsnr" v="426868" />
	</node>
	<node id="-421747" lat="59.1195250033" lon="5.6648749961">
		<tag k="fixme" v="consider natural=peak for the most distinct mountains in the district" />
		<tag k="name" v="Lysefjellet" />
		<tag k="natural" v="hill" />
		<tag k="place" v="locality" />
		<tag k="ssr:stedsnr" v="426345" />
	</node>
	<node id="-421742" lat="59.0851222204" lon="5.77853056429">
		<tag k="name" v="Grønhaug" />
		<tag k="natural" v="hill" />
		<tag k="place" v="locality" />
		<tag k="ssr:stedsnr" v="418968" />
	</node>
	<node id="-421740" lat="59.1119277767" lon="5.72066666046">
		<tag k="name" v="Varaleide" />
		<tag k="natural" v="hill" />
		<tag k="place" v="locality" />
		<tag k="ssr:stedsnr" v="418917" />
	</node>
	<node id="-421736" lat="59.0351944429" lon="5.64079722408">
		<tag k="name" v="Ørnadalen" />
		<tag k="natural" v="valley" />
		<tag k="place" v="locality" />
		<tag k="ssr:stedsnr" v="418515" />
	</node>
	<node id="-421725" lat="59.1036833324" lon="5.71593332624">
		<tag k="fixme" v="consider natural=peak for the most distinct mountains in the district" />
		<tag k="name" v="Middagshaugen" />
		<tag k="natural" v="hill" />
		<tag k="place" v="locality" />
		<tag k="ssr:stedsnr" v="417030" />
	</node>
	<node id="-421724" lat="59.1141444448" lon="5.66943888451">
		<tag k="name" v="Vassbakka" />
		<tag k="natural" v="hill" />
		<tag k="place" v="locality" />
		<tag k="ssr:stedsnr" v="417002" />
	</node>
	<node id="-421718" lat="59.1109138855" lon="5.75436945302">
		<tag k="fixme" v="consider natural=peak for the most distinct mountains in the district" />
		<tag k="name" v="Grøneklompen" />
		<tag k="natural" v="hill" />
		<tag k="place" v="locality" />
		<tag k="ssr:stedsnr" v="479886" />
	</node>
	<node id="-421717" lat="59.1239916631" lon="5.65362222708">
		<tag k="name" v="Storhagen" />
		<tag k="natural" v="hill" />
		<tag k="place" v="locality" />
		<tag k="ssr:stedsnr" v="479624" />
	</node>
	<node id="-421711" lat="59.0945833354" lon="5.7055194356">
		<tag k="name" v="Vikefjellet" />
		<tag k="place" v="locality" />
		<tag k="ssr:stedsnr" v="244862" />
	</node>
	<node id="-421703" lat="59.0394833322" lon="5.63899443595">
		<tag k="fixme" v="consider natural=peak for the most distinct mountains in the district" />
		<tag k="name" v="Brufjellet" />
		<tag k="natural" v="hill" />
		<tag k="place" v="locality" />
		<tag k="ssr:stedsnr" v="244805" />
	</node>
	<node id="-421684" lat="59.1077611126" lon="5.6453138821">
		<tag k="fixme" v="consider natural=peak for the most distinct mountains in the district" />
		<tag k="name" v="Kvidakunå" />
		<tag k="natural" v="hill" />
		<tag k="place" v="locality" />
		<tag k="ssr:stedsnr" v="236219" />
	</node>
	<node id="-421682" lat="59.0886416632" lon="5.77736110512">
		<tag k="name" v="Vågedal" />
		<tag k="natural" v="valley" />
		<tag k="place" v="locality" />
		<tag k="ssr:stedsnr" v="235986" />
	</node>
	<node id="-421676" lat="59.1307333291" lon="5.61132778403">
		<tag k="name" v="Storhaug" />
		<tag k="natural" v="hill" />
		<tag k="place" v="locality" />
		<tag k="ssr:stedsnr" v="235672" />
	</node>
	<node id="-421654" lat="59.0734749999" lon="5.73816389685">
		<tag k="name" v="Kastdal" />
		<tag k="natural" v="valley" />
		<tag k="place" v="locality" />
		<tag k="ssr:stedsnr" v="184805" />
	</node>
	<node id="-421650" lat="59.1049111089" lon="5.59663333718">
		<tag k="alt_name" v="Rabnafjellet" />
		<tag k="name" v="Ramnafjellet" />
		<tag k="natural" v="hill" />
		<tag k="place" v="locality" />
		<tag k="ssr:stedsnr" v="184324" />
	</node>
	<node id="-421647" lat="59.1111888905" lon="5.65858889184">
		<tag k="fixme" v="consider natural=peak for the most distinct mountains in the district" />
		<tag k="name" v="Årheia" />
		<tag k="natural" v="hill" />
		<tag k="place" v="locality" />
		<tag k="ssr:stedsnr" v="184310" />
	</node>
	<node id="-422154" lat="59.1030666666" lon="5.72673611737">
		<tag k="name" v="Auglandsbakken" />
		<tag k="natural" v="slope" />
		<tag k="place" v="locality" />
		<tag k="ssr:stedsnr" v="964895" />
	</node>
	<node id="-422149" lat="59.1208333324" lon="5.66497777547">
		<tag k="name" v="Litla Lysefjellet" />
		<tag k="natural" v="hill" />
		<tag k="place" v="locality" />
		<tag k="ssr:stedsnr" v="963684" />
	</node>
	<node id="-422144" lat="59.1032611104" lon="5.6656027751">
		<tag k="fixme" v="consider natural=peak for the most distinct mountains in the district" />
		<tag k="name" v="Varabrekk" />
		<tag k="natural" v="hill" />
		<tag k="place" v="locality" />
		<tag k="ssr:stedsnr" v="963014" />
	</node>
	<node id="-421630" lat="59.0653722252" lon="5.70258054846">
		<tag k="name" v="Laukhammar" />
		<tag k="natural" v="hill" />
		<tag k="place" v="locality" />
		<tag k="ssr:stedsnr" v="175615" />
	</node>
	<node id="-421629" lat="59.0642027744" lon="5.68185277053">
		<tag k="fixme" v="consider natural=peak for the most distinct mountains in the district" />
		<tag k="name" v="Oskeberget" />
		<tag k="natural" v="hill" />
		<tag k="place" v="locality" />
		<tag k="ssr:stedsnr" v="175605" />
	</node>
	<node id="-421628" lat="59.0364722227" lon="5.64604444042">
		<tag k="fixme" v="consider natural=peak for the most distinct mountains in the district" />
		<tag k="name" v="Hasbergfjellet" />
		<tag k="natural" v="hill" />
		<tag k="place" v="locality" />
		<tag k="ssr:stedsnr" v="175527" />
	</node>
	<node id="-422136" lat="59.0321777793" lon="5.70464445246">
		<tag k="name" v="Skaraberg" />
		<tag k="natural" v="hill" />
		<tag k="place" v="locality" />
		<tag k="ssr:stedsnr" v="938268" />
	</node>
	<node id="-421620" lat="59.1041749981" lon="5.57715277139">
		<tag k="name" v="Byrefjellet" />
		<tag k="natural" v="hill" />
		<tag k="place" v="locality" />
		<tag k="ssr:stedsnr" v="174183" />
	</node>
	<node id="-421616" lat="59.0731444407" lon="5.73911944592">
		<tag k="name" v="Kastadalsskaret" />
		<tag k="natural" v="valley" />
		<tag k="place" v="locality" />
		<tag k="ssr:stedsnr" v="163349" />
	</node>
	<node id="-422123" lat="59.1104527771" lon="5.6294055615">
		<tag k="fixme" v="consider natural=peak for the most distinct mountains in the district" />
		<tag k="name" v="Knott" />
		<tag k="natural" v="hill" />
		<tag k="place" v="locality" />
		<tag k="ssr:stedsnr" v="912388" />
	</node>
	<node id="-422114" lat="59.0882166668" lon="5.71129999212">
		<tag k="fixme" v="consider natural=peak for the most distinct mountains in the district" />
		<tag k="name" v="Selsfjellet" />
		<tag k="natural" v="hill" />
		<tag k="place" v="locality" />
		<tag k="ssr:stedsnr" v="911852" />
	</node>
	<node id="-422106" lat="59.1198861113" lon="5.73974444424">
		<tag k="fixme" v="consider natural=peak for the most distinct mountains in the district" />
		<tag k="name" v="Nåtlefjellet" />
		<tag k="natural" v="hill" />
		<tag k="place" v="locality" />
		<tag k="ssr:stedsnr" v="904933" />
	</node>
	<node id="-422104" lat="59.1097861154" lon="5.76499444384">
		<tag k="name" v="Trodlåsen" />
		<tag k="natural" v="hill" />
		<tag k="place" v="locality" />
		<tag k="ssr:stedsnr" v="904882" />
	</node>
	<node id="-421586" lat="59.1175583329" lon="5.7454722309">
		<tag k="fixme" v="consider natural=peak for the most distinct mountains in the district" />
		<tag k="name" v="Ansetevarden" />
		<tag k="natural" v="hill" />
		<tag k="place" v="locality" />
		<tag k="ssr:stedsnr" v="115910" />
	</node>
	<node id="-421582" lat="59.1351638848" lon="5.59626943626">
		<tag k="name" v="Hesthaug" />
		<tag k="natural" v="hill" />
		<tag k="place" v="locality" />
		<tag k="ssr:stedsnr" v="114879" />
	</node>
	<node id="-422091" lat="59.0641472264" lon="5.67191110406">
		<tag k="name" v="Vardane" />
		<tag k="natural" v="hill" />
		<tag k="place" v="locality" />
		<tag k="ssr:stedsnr" v="878289" />
	</node>
	<node id="-422065" lat="59.1065305582" lon="5.68114999803">
		<tag k="name" v="Hjarthaug" />
		<tag k="natural" v="hill" />
		<tag k="place" v="locality" />
		<tag k="ssr:stedsnr" v="851308" />
	</node>
	<node id="-421549" lat="59.0747253601" lon="5.74434541877">
		<tag k="fixme" v="consider natural=peak for the most distinct mountains in the district" />
		<tag k="name" v="Hodnafjellet" />
		<tag k="natural" v="hill" />
		<tag k="place" v="locality" />
		<tag k="ssr:stedsnr" v="62822" />
	</node>
	<node id="-422060" lat="59.1004250044" lon="5.74396944998">
		<tag k="name" v="Skjenhammar" />
		<tag k="natural" v="hill" />
		<tag k="place" v="locality" />
		<tag k="ssr:stedsnr" v="843915" />
	</node>
	<node id="-422059" lat="59.1106194453" lon="5.74116667092">
		<tag k="fixme" v="consider natural=peak for the most distinct mountains in the district" />
		<tag k="name" v="Gravdalsfjellet" />
		<tag k="natural" v="hill" />
		<tag k="place" v="locality" />
		<tag k="ssr:stedsnr" v="843911" />
	</node>
	<node id="-421546" lat="59.1058861146" lon="5.65230833043">
		<tag k="fixme" v="consider natural=peak for the most distinct mountains in the district" />
		<tag k="name" v="Bøheia" />
		<tag k="natural" v="hill" />
		<tag k="place" v="locality" />
		<tag k="ssr:stedsnr" v="62374" />
	</node>
	<node id="-422057" lat="59.1241583374" lon="5.60841111675">
		<tag k="name" v="Tussaberg" />
		<tag k="natural" v="hill" />
		<tag k="place" v="locality" />
		<tag k="ssr:stedsnr" v="843639" />
	</node>
	<node id="-422054" lat="59.0604666638" lon="5.69530277375">
		<tag k="name" v="Skorpefjellet" />
		<tag k="natural" v="hill" />
		<tag k="place" v="locality" />
		<tag k="ssr:stedsnr" v="843621" />
	</node>
	<node id="-421540" lat="59.1069833326" lon="5.66595277117">
		<tag k="fixme" v="consider natural=peak for the most distinct mountains in the district" />
		<tag k="name" v="Skjena" />
		<tag k="natural" v="hill" />
		<tag k="place" v="locality" />
		<tag k="ssr:stedsnr" v="62312" />
	</node>
	<node id="-422050" lat="59.1159055593" lon="5.70773611379">
		<tag k="name" v="Rauneberg" />
		<tag k="natural" v="hill" />
		<tag k="place" v="locality" />
		<tag k="ssr:stedsnr" v="842026" />
	</node>
	<node id="-421536" lat="59.1001305537" lon="5.75299445039">
		<tag k="fixme" v="consider natural=peak for the most distinct mountains in the district" />
		<tag k="name" v="Ørnhus" />
		<tag k="natural" v="hill" />
		<tag k="place" v="locality" />
		<tag k="ssr:stedsnr" v="54930" />
	</node>
	<node id="-421533" lat="59.1146861141" lon="5.63811667368">
		<tag k="fixme" v="consider natural=peak for the most distinct mountains in the district" />
		<tag k="name" v="Blåberfjellet" />
		<tag k="natural" v="hill" />
		<tag k="place" v="locality" />
		<tag k="ssr:stedsnr" v="54215" />
	</node>
	<node id="-421531" lat="59.0777277747" lon="5.63398333328">
		<tag k="name" v="Eigjefjellet" />
		<tag k="natural" v="hill" />
		<tag k="place" v="locality" />
		<tag k="ssr:stedsnr" v="53682" />
	</node>
	<node id="-421530" lat="59.0731777802" lon="5.73936110298">
		<tag k="name" v="Rosejuvet" />
		<tag k="natural" v="gorge" />
		<tag k="ssr:stedsnr" v="53373" />
	</node>
	<node id="-422024" lat="59.0653055521" lon="5.67017778496">
		<tag k="alt_name" v="Haraldshaugen" />
		<tag k="name" v="Haraldhaugen" />
		<tag k="natural" v="hill" />
		<tag k="place" v="locality" />
		<tag k="ssr:stedsnr" v="790842" />
	</node>
	<node id="-421508" lat="59.0884750045" lon="5.62452499989">
		<tag k="fixme" v="consider natural=peak for the most distinct mountains in the district" />
		<tag k="name" v="Mastravarden" />
		<tag k="natural" v="hill" />
		<tag k="place" v="locality" />
		<tag k="ssr:stedsnr" v="1853" />
	</node>
	<node id="-421507" lat="59.0825499966" lon="5.72822223013">
		<tag k="fixme" v="consider natural=peak for the most distinct mountains in the district" />
		<tag k="name" v="Dalsfjellet" />
		<tag k="natural" v="hill" />
		<tag k="place" v="locality" />
		<tag k="ssr:stedsnr" v="1818" />
	</node>
	<node id="-422018" lat="59.1165638854" lon="5.67290556333">
		<tag k="fixme" v="consider natural=peak for the most distinct mountains in the district" />
		<tag k="name" v="Hestvarden" />
		<tag k="natural" v="hill" />
		<tag k="place" v="locality" />
		<tag k="ssr:stedsnr" v="790353" />
	</node>
	<node id="-422007" lat="59.1174861138" lon="5.73333055265">
		<tag k="fixme" v="consider natural=peak for the most distinct mountains in the district" />
		<tag k="name" v="Hommarfjellet" />
		<tag k="natural" v="hill" />
		<tag k="place" v="locality" />
		<tag k="ssr:stedsnr" v="782899" />
	</node>
	<node id="-422006" lat="59.1149972265" lon="5.74625556012">
		<tag k="name" v="Jeidaberget" />
		<tag k="natural" v="hill" />
		<tag k="place" v="locality" />
		<tag k="ssr:stedsnr" v="782894" />
	</node>
	<node id="-422005" lat="59.1169944463" lon="5.75596111308">
		<tag k="name" v="Nedre Lyngdalen" />
		<tag k="natural" v="valley" />
		<tag k="place" v="locality" />
		<tag k="ssr:stedsnr" v="782855" />
	</node>
	<node id="-422002" lat="59.1181333323" lon="5.61832500099">
		<tag k="name" v="Torsbakken" />
		<tag k="natural" v="slope" />
		<tag k="place" v="locality" />
		<tag k="ssr:stedsnr" v="782037" />
	</node>
	<node id="-422001" lat="59.1210638851" lon="5.57109721494">
		<tag k="name" v="Mjukstein" />
		<tag k="natural" v="hill" />
		<tag k="place" v="locality" />
		<tag k="ssr:stedsnr" v="781881" />
	</node>
	<node id="-421999" lat="59.1209861115" lon="5.67688333042">
		<tag k="name" v="Brattebakka" />
		<tag k="natural" v="slope" />
		<tag k="place" v="locality" />
		<tag k="ssr:stedsnr" v="781647" />
	</node>
	<node id="-421996" lat="59.0752138906" lon="5.73176665953">
		<tag k="alt_name" v="Vindheimsnibba" />
		<tag k="fixme" v="consider natural=peak for the most distinct mountains in the district" />
		<tag k="name" v="Vindeimsnibba" />
		<tag k="natural" v="hill" />
		<tag k="place" v="locality" />
		<tag k="ssr:stedsnr" v="781354" />
	</node>
	<node id="-421992" lat="59.1131305569" lon="5.71525555455">
		<tag k="name" v="Århaug" />
		<tag k="natural" v="hill" />
		<tag k="place" v="locality" />
		<tag k="ssr:stedsnr" v="781026" />
	</node>
	<node id="-421476" lat="59.0886972232" lon="5.57684444876">
		<tag k="name" v="Ørnafjellet" />
		<tag k="natural" v="hill" />
		<tag k="place" v="locality" />
		<tag k="ssr:stedsnr" v="479202" />
	</node>
	<node id="-421986" lat="59.0843999986" lon="5.58398055354">
		<tag k="name" v="Svarteberga" />
		<tag k="natural" v="hill" />
		<tag k="place" v="locality" />
		<tag k="ssr:stedsnr" v="768259" />
	</node>
	<node id="-421468" lat="59.0541194445" lon="5.64308333527">
		<tag k="name" v="Århusbakken" />
		<tag k="natural" v="hill" />
		<tag k="place" v="locality" />
		<tag k="ssr:stedsnr" v="478538" />
	</node>
	<node id="-421465" lat="59.0966416634" lon="5.70801388588">
		<tag k="fixme" v="consider natural=peak for the most distinct mountains in the district" />
		<tag k="name" v="Fløyen" />
		<tag k="natural" v="hill" />
		<tag k="ssr:stedsnr" v="477094" />
	</node>
	<node id="-421464" lat="59.1036388873" lon="5.70673054813">
		<tag k="fixme" v="consider natural=peak for the most distinct mountains in the district" />
		<tag k="name" v="Berjefjellet" />
		<tag k="natural" v="hill" />
		<tag k="place" v="locality" />
		<tag k="ssr:stedsnr" v="477027" />
	</node>
	<node id="-421461" lat="59.1144611084" lon="5.63193888324">
		<tag k="name" v="Skafjellet" />
		<tag k="natural" v="hill" />
		<tag k="place" v="locality" />
		<tag k="ssr:stedsnr" v="244377" />
	</node>
	<node id="-421961" lat="59.0803083314" lon="5.75424166516">
		<tag k="fixme" v="consider natural=peak for the most distinct mountains in the district" />
		<tag k="name" v="Askevollen" />
		<tag k="natural" v="hill" />
		<tag k="place" v="locality" />
		<tag k="ssr:stedsnr" v="721941" />
	</node>
	<node id="-421959" lat="59.1214583358" lon="5.66825555639">
		<tag k="name" v="Kobbhaug" />
		<tag k="natural" v="hill" />
		<tag k="place" v="locality" />
		<tag k="ssr:stedsnr" v="721625" />
	</node>
	<node id="-421444" lat="59.1131527776" lon="5.68498333549">
		<tag k="name" v="Nonshaug" />
		<tag k="natural" v="hill" />
		<tag k="place" v="locality" />
		<tag k="ssr:stedsnr" v="366313" />
	</node>
	<node id="-421955" lat="59.0901944441" lon="5.56988332814">
		<tag k="name" v="Vindhaug" />
		<tag k="natural" v="hill" />
		<tag k="place" v="locality" />
		<tag k="ssr:stedsnr" v="721192" />
	</node>
	<node id="-421441" lat="59.0856638321" lon="5.58269186814">
		<tag k="fixme" v="consider natural=peak for the most distinct mountains in the district" />
		<tag k="name" v="Storevarden" />
		<tag k="natural" v="hill" />
		<tag k="place" v="locality" />
		<tag k="ssr:stedsnr" v="365883" />
	</node>
	<node id="-422048" lat="59.1402666648" lon="5.60263611584">
		<tag k="name" v="Hesthammar" />
		<tag k="natural" v="hill" />
		<tag k="place" v="locality" />
		<tag k="ssr:stedsnr" v="842880" />
	</node>
	<node id="-421946" lat="59.1134166636" lon="5.6638805595">
		<tag k="name" v="Flekkstad" />
		<tag k="natural" v="valley" />
		<tag k="place" v="locality" />
		<tag k="ssr:stedsnr" v="720001" />
	</node>
	<node id="-421426" lat="59.0990555574" lon="5.72954721974">
		<tag k="name" v="Øksafallet" />
		<tag k="natural" v="hill" />
		<tag k="place" v="locality" />
		<tag k="ssr:stedsnr" v="357984" />
	</node>
	<node id="-421425" lat="59.091594448" lon="5.76562778384">
		<tag k="name" v="Godalen" />
		<tag k="natural" v="valley" />
		<tag k="place" v="locality" />
		<tag k="ssr:stedsnr" v="357978" />
	</node>
	<node id="-421423" lat="59.0839277767" lon="5.75409166499">
		<tag k="fixme" v="consider natural=peak for the most distinct mountains in the district" />
		<tag k="name" v="Mikalsgrovene" />
		<tag k="natural" v="hill" />
		<tag k="place" v="locality" />
		<tag k="ssr:stedsnr" v="357934" />
	</node>
	<node id="-421416" lat="59.1050333292" lon="5.64863889416">
		<tag k="name" v="Hølikk" />
		<tag k="natural" v="cliff" />
		<tag k="ssr:stedsnr" v="357199" />
	</node>
	<node id="-421414" lat="59.1181194405" lon="5.6288472297">
		<tag k="fixme" v="consider natural=peak for the most distinct mountains in the district" />
		<tag k="name" v="Breivoll" />
		<tag k="natural" v="hill" />
		<tag k="place" v="locality" />
		<tag k="ssr:stedsnr" v="357040" />
	</node>
	<node id="-421410" lat="59.1120583375" lon="5.70032778137">
		<tag k="name" v="Spa" />
		<tag k="place" v="locality" />
		<tag k="ssr:stedsnr" v="356026" />
	</node>
	<node id="-421919" lat="59.13061111" lon="5.59918610688">
		<tag k="name" v="Sersberg" />
		<tag k="natural" v="hill" />
		<tag k="place" v="locality" />
		<tag k="ssr:stedsnr" v="661874" />
	</node>
	<node id="-421637" lat="59.1123499961" lon="5.75601389708">
		<tag k="name" v="Varen" />
		<tag k="natural" v="hill" />
		<tag k="place" v="locality" />
		<tag k="ssr:stedsnr" v="175879" />
	</node>
	<node id="-421916" lat="59.1355444416" lon="5.6018638812">
		<tag k="name" v="Tranhaug" />
		<tag k="natural" v="hill" />
		<tag k="place" v="locality" />
		<tag k="ssr:stedsnr" v="660846" />
	</node>
	<node id="-421912" lat="59.0600722253" lon="5.68928611532">
		<tag k="name" v="Naustbakka" />
		<tag k="natural" v="hill" />
		<tag k="place" v="locality" />
		<tag k="ssr:stedsnr" v="660629" />
	</node>
	<node id="-421911" lat="59.068074998" lon="5.68100833023">
		<tag k="fixme" v="consider natural=peak for the most distinct mountains in the district" />
		<tag k="name" v="Norevarden" />
		<tag k="natural" v="hill" />
		<tag k="place" v="locality" />
		<tag k="ssr:stedsnr" v="660616" />
	</node>
	<node id="-421909" lat="59.1230805586" lon="5.73816388342">
		<tag k="name" v="Jubedal" />
		<tag k="natural" v="valley" />
		<tag k="place" v="locality" />
		<tag k="ssr:stedsnr" v="660560" />
	</node>
	<node id="-421907" lat="59.0399666699" lon="5.65543332574">
		<tag k="name" v="Hedleshaug" />
		<tag k="natural" v="hill" />
		<tag k="place" v="locality" />
		<tag k="ssr:stedsnr" v="660549" />
	</node>
	<node id="-421906" lat="59.0413222231" lon="5.6602555591">
		<tag k="name" v="Lomberen" />
		<tag k="natural" v="hill" />
		<tag k="place" v="locality" />
		<tag k="ssr:stedsnr" v="660550" />
	</node>
	<node id="-421904" lat="59.1014722195" lon="5.57969444366">
		<tag k="name" v="Kneberfjellet" />
		<tag k="natural" v="hill" />
		<tag k="place" v="locality" />
		<tag k="ssr:stedsnr" v="659316" />
	</node>
	<node id="-421902" lat="59.1196750034" lon="5.67161111802">
		<tag k="name" v="Grønhaug" />
		<tag k="natural" v="hill" />
		<tag k="place" v="locality" />
		<tag k="ssr:stedsnr" v="659038" />
	</node>
	<node id="-422061" lat="59.1057444419" lon="5.72284722807">
		<tag k="name" v="Uglesmog" />
		<tag k="natural" v="valley" />
		<tag k="place" v="locality" />
		<tag k="ssr:stedsnr" v="843919" />
	</node>
	<node id="-421381" lat="59.1167888921" lon="5.7596333375">
		<tag k="fixme" v="consider natural=peak for the most distinct mountains in the district" />
		<tag k="name" v="Stølsåsen" />
		<tag k="natural" v="hill" />
		<tag k="place" v="locality" />
		<tag k="ssr:stedsnr" v="297875" />
	</node>
	<node id="-421380" lat="59.123450001" lon="5.5958583411">
		<tag k="fixme" v="consider natural=peak for the most distinct mountains in the district" />
		<tag k="name" v="Nodaberget" />
		<tag k="natural" v="hill" />
		<tag k="place" v="locality" />
		<tag k="ssr:stedsnr" v="297854" />
	</node>
</osm>
