<?xml version="1.0" encoding="UTF-8"?>
<osm generator="osmapis" version="0.6">
	<node id="-421739" lat="59.1026666633" lon="5.74300555583">
		<tag k="name" v="Indre Førsvollsvatnet" />
		<tag k="natural" v="water" />
		<tag k="ssr:stedsnr" v="418912" />
		<tag k="water" v="lake" />
	</node>
	<node id="-421599" lat="59.1087111097" lon="5.74816388384">
		<tag k="name" v="Myrkjavatnet" />
		<tag k="natural" v="water" />
		<tag k="ssr:stedsnr" v="123358" />
		<tag k="water" v="lake" />
	</node>
	<node id="-422078" lat="59.0863916694" lon="5.72406666757">
		<tag k="name" v="Dalestemmen" />
		<tag k="natural" v="water" />
		<tag k="ssr:stedsnr" v="851858" />
		<tag k="water" v="lake" />
	</node>
	<node id="-421962" lat="59.0983361156" lon="5.7563277815">
		<tag k="name" v="Ørnhustjørna" />
		<tag k="natural" v="water" />
		<tag k="ssr:stedsnr" v="721987" />
	</node>
	<node id="-421720" lat="59.1045841049" lon="5.73635281057">
		<tag k="name" v="Ytre Førsvollsvatnet" />
		<tag k="natural" v="water" />
		<tag k="ssr:stedsnr" v="479926" />
		<tag k="water" v="lake" />
	</node>
	<node id="-421553" lat="59.0931666659" lon="5.62100556211">
		<tag k="name" v="Jonepytten" />
		<tag k="natural" v="water" />
		<tag k="ssr:stedsnr" v="62852" />
	</node>
	<node id="-421460" lat="59.1117805519" lon="5.63623055031">
		<tag k="name" v="Asmarvikstemmen" />
		<tag k="natural" v="water" />
		<tag k="ssr:stedsnr" v="244378" />
	</node>
	<node id="-421555" lat="59.086024997" lon="5.63835277143">
		<tag k="name" v="Kådastemmen" />
		<tag k="natural" v="water" />
		<tag k="ssr:stedsnr" v="62869" />
	</node>
	<node id="-421874" lat="59.1126726447" lon="5.73316613843">
		<tag k="name" v="Austbøstemmen" />
		<tag k="natural" v="water" />
		<tag k="ssr:stedsnr" v="608327" />
		<tag k="water" v="lake" />
	</node>
	<node id="-421905" lat="59.0889888913" lon="5.58317500176">
		<tag k="name" v="Fjøløyvatnet" />
		<tag k="natural" v="water" />
		<tag k="ssr:stedsnr" v="660194" />
		<tag k="water" v="lake" />
	</node>
	<node id="-421710" lat="59.0910250003" lon="5.7288277768">
		<tag k="name" v="Bjergavatnet" />
		<tag k="natural" v="water" />
		<tag k="ssr:stedsnr" v="244859" />
		<tag k="water" v="lake" />
	</node>
	<node id="-421901" lat="59.1072472265" lon="5.66156389698">
		<tag k="name" v="Mannsvatnet" />
		<tag k="natural" v="water" />
		<tag k="ssr:stedsnr" v="659029" />
		<tag k="water" v="lake" />
	</node>
	<node id="-421554" lat="59.0839194481" lon="5.6186138935">
		<tag k="name" v="Mørkavatnet" />
		<tag k="natural" v="water" />
		<tag k="ssr:stedsnr" v="62863" />
	</node>
	<node id="-421738" lat="59.1050694426" lon="5.73309722713">
		<tag k="name" v="Spjutavatnet" />
		<tag k="natural" v="water" />
		<tag k="ssr:stedsnr" v="418913" />
	</node>
	<node id="-421543" lat="59.1178888908" lon="5.64716943801">
		<tag k="name" v="Stokkadalsvatnet" />
		<tag k="natural" v="water" />
		<tag k="ssr:stedsnr" v="62361" />
	</node>
	<node id="-421542" lat="59.1034597322" lon="5.73800838937">
		<tag k="name" v="Førsvollvatna" />
		<tag k="natural" v="water" />
		<tag k="ssr:stedsnr" v="62319" />
		<tag k="water" v="lake" />
	</node>
	<node id="-421697" lat="59.099236718" lon="5.71444052328">
		<tag k="name" v="Vikestemmen" />
		<tag k="natural" v="water" />
		<tag k="ssr:stedsnr" v="244331" />
	</node>
	<node id="-421412" lat="59.091616663" lon="5.70688888726">
		<tag k="name" v="Fossane" />
		<tag k="natural" v="waterfall" />
		<tag k="ssr:stedsnr" v="356078" />
	</node>
	<node id="-421409" lat="59.0814639661" lon="5.62934600607">
		<tag k="name" v="Storavatnet" />
		<tag k="natural" v="water" />
		<tag k="ssr:stedsnr" v="356017" />
		<tag k="water" v="lake" />
	</node>
</osm>
