<?xml version="1.0" encoding="UTF-8"?>
<osm generator="osmapis" version="0.6">
	<node id="-421888" lat="59.0643305579" lon="5.68536388191">
		<tag k="name" v="Askje" />
		<tag k="place" v="farm" />
		<tag k="ssr:stedsnr" v="631433" />
	</node>
	<node id="-421887" lat="59.0532861099" lon="5.66554722869">
		<tag k="name" v="Sokn" />
		<tag k="place" v="farm" />
		<tag k="ssr:stedsnr" v="631338" />
	</node>
	<node id="-421886" lat="59.0983222184" lon="5.69942778224">
		<tag k="name" v="Håvastein" />
		<tag k="place" v="farm" />
		<tag k="ssr:stedsnr" v="631128" />
	</node>
	<node id="-421375" lat="59.1134418367" lon="5.70553961751">
		<tag k="fixme" v="consider place=hamlet" />
		<tag k="name" v="Austbø" />
		<tag k="place" v="farm" />
		<tag k="ssr:stedsnr" v="297016" />
	</node>
	<node id="-421366" lat="59.0372985763" lon="5.69298436189">
		<tag k="fixme" v="consider place=hamlet" />
		<tag k="name" v="Varaberg" />
		<tag k="place" v="farm" />
		<tag k="ssr:stedsnr" v="295299" />
	</node>
	<node id="-421876" lat="59.0971777781" lon="5.57175000749">
		<tag k="name" v="Årabrot" />
		<tag k="place" v="farm" />
		<tag k="ssr:stedsnr" v="608331" />
	</node>
	<node id="-421363" lat="59.0998972209" lon="5.6964500005">
		<tag k="name" v="Lamhagen" />
		<tag k="place" v="farm" />
		<tag k="ssr:stedsnr" v="295006" />
	</node>
	<node id="-421971" lat="59.1068083349" lon="5.77563888838">
		<tag k="name" v="Nedrabø" />
		<tag k="place" v="farm" />
		<tag k="ssr:stedsnr" v="730330" />
	</node>
	<node id="-421872" lat="59.0741277243" lon="5.65989493397">
		<tag k="fixme" v="consider place=hamlet" />
		<tag k="name" v="Dysjaland" />
		<tag k="place" v="farm" />
		<tag k="ssr:stedsnr" v="607856" />
	</node>
	<node id="-421870" lat="59.0973916634" lon="5.74260000603">
		<tag k="alt_name" v="Myrdal" />
		<tag k="name" v="Storemyr" />
		<tag k="place" v="farm" />
		<tag k="ssr:stedsnr" v="607839" />
	</node>
	<node id="-421355" lat="59.1279555592" lon="5.64214999472">
		<tag k="name" v="Sørbø" />
		<tag k="place" v="farm" />
		<tag k="ssr:stedsnr" v="269445" />
	</node>
	<node id="-421354" lat="59.1142305517" lon="5.68726943978">
		<tag k="name" v="Nordbø" />
		<tag k="place" v="farm" />
		<tag k="ssr:stedsnr" v="269439" />
	</node>
	<node id="-421353" lat="59.1146956188" lon="5.69364690564">
		<tag k="name" v="Nordbø" />
		<tag k="place" v="farm" />
		<tag k="ssr:stedsnr" v="269437" />
	</node>
	<node id="-421352" lat="59.1118805598" lon="5.69394445019">
		<tag k="name" v="Nordbø" />
		<tag k="place" v="farm" />
		<tag k="ssr:stedsnr" v="269434" />
	</node>
	<node id="-421351" lat="59.1345722247" lon="5.59175000568">
		<tag k="name" v="Galta" />
		<tag k="place" v="farm" />
		<tag k="ssr:stedsnr" v="269431" />
	</node>
	<node id="-421862" lat="59.1219723658" lon="5.59250305839">
		<tag k="fixme" v="consider place=hamlet" />
		<tag k="name" v="Søre Reianes" />
		<tag k="place" v="farm" />
		<tag k="ssr:stedsnr" v="600847" />
	</node>
	<node id="-421349" lat="59.1121722246" lon="5.69544166944">
		<tag k="name" v="Nordbø" />
		<tag k="place" v="farm" />
		<tag k="ssr:stedsnr" v="269398" />
	</node>
	<node id="-421857" lat="59.1220388865" lon="5.72066111937">
		<tag k="name" v="Hauen" />
		<tag k="place" v="farm" />
		<tag k="ssr:stedsnr" v="599556" />
	</node>
	<node id="-421968" lat="59.0789091926" lon="5.76580314132">
		<tag k="fixme" v="consider place=hamlet" />
		<tag k="name" v="Askje" />
		<tag k="place" v="farm" />
		<tag k="ssr:stedsnr" v="729829" />
	</node>
	<node id="-421849" lat="59.0400288261" lon="5.69408942457">
		<tag k="fixme" v="consider place=hamlet" />
		<tag k="name" v="Hegraberg" />
		<tag k="place" v="farm" />
		<tag k="ssr:stedsnr" v="598285" />
	</node>
	<node id="-421846" lat="59.1202194433" lon="5.7091416644">
		<tag k="name" v="Nybø" />
		<tag k="place" v="farm" />
		<tag k="ssr:stedsnr" v="598030" />
	</node>
	<node id="-421966" lat="59.1255083359" lon="5.63453332952">
		<tag k="name" v="Hummervoll" />
		<tag k="place" v="farm" />
		<tag k="ssr:stedsnr" v="729368" />
	</node>
	<node id="-421841" lat="59.0800333348" lon="5.64149166978">
		<tag k="name" v="Hodnafjell" />
		<tag k="place" v="farm" />
		<tag k="ssr:stedsnr" v="571515" />
	</node>
	<node id="-421840" lat="59.0596972213" lon="5.69111388345">
		<tag k="name" v="Askje" />
		<tag k="place" v="farm" />
		<tag k="ssr:stedsnr" v="571463" />
	</node>
	<node id="-421839" lat="59.0681000017" lon="5.67822777602">
		<tag k="name" v="Askje" />
		<tag k="place" v="farm" />
		<tag k="ssr:stedsnr" v="571396" />
	</node>
	<node id="-421965" lat="59.0928833288" lon="5.58716388288">
		<tag k="name" v="Øygarden" />
		<tag k="place" v="farm" />
		<tag k="ssr:stedsnr" v="729360" />
	</node>
	<node id="-421832" lat="59.0884223843" lon="5.64366019539">
		<tag k="alt_name" v="Koda" />
		<tag k="fixme" v="consider place=hamlet" />
		<tag k="name" v="Kåda" />
		<tag k="place" v="farm" />
		<tag k="ssr:stedsnr" v="547884" />
	</node>
	<node id="-421828" lat="59.123086518" lon="5.61220197061">
		<tag k="fixme" v="consider place=hamlet" />
		<tag k="name" v="Bø" />
		<tag k="place" v="farm" />
		<tag k="ssr:stedsnr" v="547392" />
	</node>
	<node id="-421963" lat="59.0428861085" lon="5.75676111581">
		<tag k="name" v="Lundshaugen" />
		<tag k="place" v="farm" />
		<tag k="ssr:stedsnr" v="727525" />
	</node>
	<node id="-421824" lat="59.0969972268" lon="5.76600833723">
		<tag k="name" v="Hauane" />
		<tag k="place" v="farm" />
		<tag k="ssr:stedsnr" v="539982" />
	</node>
	<node id="-421818" lat="59.0767694447" lon="5.75719445184">
		<tag k="name" v="Holmen" />
		<tag k="place" v="farm" />
		<tag k="ssr:stedsnr" v="538380" />
	</node>
	<node id="-421809" lat="59.1035027755" lon="5.68205555309">
		<tag k="name" v="Krogjen" />
		<tag k="place" v="farm" />
		<tag k="ssr:stedsnr" v="538008" />
	</node>
	<node id="-421798" lat="59.1196861083" lon="5.69586945294">
		<tag k="name" v="Nordbø" />
		<tag k="place" v="farm" />
		<tag k="ssr:stedsnr" v="512443" />
	</node>
	<node id="-421797" lat="59.133150003" lon="5.60387222308">
		<tag k="name" v="Galta" />
		<tag k="place" v="farm" />
		<tag k="ssr:stedsnr" v="512438" />
	</node>
	<node id="-421796" lat="59.079769441" lon="5.69721388881">
		<tag k="name" v="Håvastein" />
		<tag k="place" v="farm" />
		<tag k="ssr:stedsnr" v="510747" />
	</node>
	<node id="-421795" lat="59.0967361089" lon="5.69789167293">
		<tag k="name" v="Håvastein" />
		<tag k="place" v="farm" />
		<tag k="ssr:stedsnr" v="510740" />
	</node>
	<node id="-421794" lat="59.0813999981" lon="5.61754444212">
		<tag k="name" v="Hodnafjell" />
		<tag k="place" v="farm" />
		<tag k="ssr:stedsnr" v="510731" />
	</node>
	<node id="-421793" lat="59.0830893449" lon="5.63986146849">
		<tag k="name" v="Hodnafjell" />
		<tag k="place" v="farm" />
		<tag k="ssr:stedsnr" v="510498" />
	</node>
	<node id="-421792" lat="59.080313889" lon="5.63615000005">
		<tag k="name" v="Hodnafjell" />
		<tag k="place" v="farm" />
		<tag k="ssr:stedsnr" v="510497" />
	</node>
	<node id="-422042" lat="59.1225027797" lon="5.59221110511">
		<tag k="name" v="Reianes" />
		<tag k="place" v="farm" />
		<tag k="ssr:stedsnr" v="816431" />
	</node>
	<node id="-421786" lat="59.1035275083" lon="5.70390569995">
		<tag k="alt_name" v="Bergje" />
		<tag k="fixme" v="consider place=hamlet" />
		<tag k="name" v="Berge" />
		<tag k="place" v="farm" />
		<tag k="ssr:stedsnr" v="487344" />
	</node>
	<node id="-421784" lat="59.1190631247" lon="5.68919888298">
		<tag k="name" v="Nordbø" />
		<tag k="place" v="farm" />
		<tag k="ssr:stedsnr" v="487333" />
	</node>
	<node id="-421783" lat="59.0844833345" lon="5.71535834065">
		<tag k="name" v="Rumpehaugen" />
		<tag k="place" v="isolated_dwelling" />
		<tag k="ssr:stedsnr" v="486871" />
	</node>
	<node id="-421781" lat="59.0933534559" lon="5.76083629173">
		<tag k="name" v="Mehus" />
		<tag k="place" v="farm" />
		<tag k="ssr:stedsnr" v="486848" />
	</node>
	<node id="-421775" lat="59.0819388887" lon="5.63344444017">
		<tag k="name" v="Hodnafjell" />
		<tag k="place" v="farm" />
		<tag k="ssr:stedsnr" v="486391" />
	</node>
	<node id="-421772" lat="59.1320998276" lon="5.60084294835">
		<tag k="name" v="Galta" />
		<tag k="place" v="farm" />
		<tag k="ssr:stedsnr" v="486291" />
	</node>
	<node id="-422038" lat="59.0373388922" lon="5.69916944704">
		<tag k="name" v="Vardaberg" />
		<tag k="place" v="farm" />
		<tag k="ssr:stedsnr" v="814729" />
	</node>
	<node id="-421762" lat="59.123661107" lon="5.66457222327">
		<tag k="name" v="Ertenstein" />
		<tag k="place" v="farm" />
		<tag k="ssr:stedsnr" v="451444" />
	</node>
	<node id="-421761" lat="59.1232666634" lon="5.59570832772">
		<tag k="name" v="Reianes" />
		<tag k="place" v="farm" />
		<tag k="ssr:stedsnr" v="451424" />
	</node>
	<node id="-421760" lat="59.1109722241" lon="5.7070111163">
		<tag k="name" v="Austbø" />
		<tag k="place" v="farm" />
		<tag k="ssr:stedsnr" v="451088" />
	</node>
	<node id="-421753" lat="59.0830388901" lon="5.67287499402">
		<tag k="name" v="Selvik" />
		<tag k="place" v="farm" />
		<tag k="ssr:stedsnr" v="426875" />
	</node>
	<node id="-421750" lat="59.0957844718" lon="5.62909113012">
		<tag k="alt_name" v="Hogvallstad" />
		<tag k="fixme" v="consider place=hamlet" />
		<tag k="name" v="Haugvaldstad" />
		<tag k="place" v="farm" />
		<tag k="ssr:stedsnr" v="426856" />
	</node>
	<node id="-421749" lat="59.0762132934" lon="5.75805311171">
		<tag k="fixme" v="consider place=hamlet" />
		<tag k="name" v="Hodne" />
		<tag k="place" v="farm" />
		<tag k="ssr:stedsnr" v="426822" />
	</node>
	<node id="-421894" lat="59.1176000042" lon="5.58534444532">
		<tag k="name" v="Reianes" />
		<tag k="place" v="farm" />
		<tag k="ssr:stedsnr" v="633444" />
	</node>
	<node id="-422120" lat="59.1187924524" lon="5.58508215072">
		<tag k="name" v="Låder" />
		<tag k="place" v="isolated_dwelling" />
		<tag k="ssr:stedsnr" v="912367" />
	</node>
	<node id="-421949" lat="59.1187944421" lon="5.58279167284">
		<tag k="name" v="Låder" />
		<tag k="place" v="farm" />
		<tag k="ssr:stedsnr" v="720316" />
	</node>
	<node id="-422034" lat="59.0426555527" lon="5.69651944163">
		<tag k="name" v="Hegraberg" />
		<tag k="place" v="farm" />
		<tag k="ssr:stedsnr" v="814712" />
	</node>
	<node id="-421376" lat="59.1005940057" lon="5.70069661945">
		<tag k="fixme" v="consider place=hamlet" />
		<tag k="name" v="Vig" />
		<tag k="place" v="farm" />
		<tag k="ssr:stedsnr" v="297076" />
	</node>
	<node id="-421933" lat="59.0620250015" lon="5.68847221845">
		<tag k="name" v="Askje" />
		<tag k="place" v="farm" />
		<tag k="ssr:stedsnr" v="692425" />
	</node>
	<node id="-422033" lat="59.0596305589" lon="5.6684555492">
		<tag k="name" v="Askje" />
		<tag k="place" v="farm" />
		<tag k="ssr:stedsnr" v="814484" />
	</node>
	<node id="-421350" lat="59.1312777738" lon="5.61525000117">
		<tag k="name" v="Galta" />
		<tag k="place" v="farm" />
		<tag k="ssr:stedsnr" v="269429" />
	</node>
	<node id="-422032" lat="59.0673888892" lon="5.6690666587">
		<tag k="name" v="Askje" />
		<tag k="place" v="farm" />
		<tag k="ssr:stedsnr" v="814482" />
	</node>
	<node id="-421722" lat="59.104299997" lon="5.77819723117">
		<tag k="alt_name" v="Nerabø" />
		<tag k="name" v="Nedrabø" />
		<tag k="place" v="farm" />
		<tag k="ssr:stedsnr" v="479974" />
	</node>
	<node id="-422031" lat="59.0660583358" lon="5.69350278003">
		<tag k="name" v="Askje" />
		<tag k="place" v="farm" />
		<tag k="ssr:stedsnr" v="814424" />
	</node>
	<node id="-421715" lat="59.0694722262" lon="5.69106110998">
		<tag k="name" v="Askje" />
		<tag k="place" v="farm" />
		<tag k="ssr:stedsnr" v="268378" />
	</node>
	<node id="-421714" lat="59.0516071502" lon="5.66294563572">
		<tag k="fixme" v="consider place=hamlet" />
		<tag k="name" v="Sokn" />
		<tag k="place" v="farm" />
		<tag k="ssr:stedsnr" v="268356" />
	</node>
	<node id="-421713" lat="59.0917472238" lon="5.77713889275">
		<tag k="fixme" v="consider place=hamlet" />
		<tag k="name" v="Østhusvik" />
		<tag k="place" v="village" />
		<tag k="ssr:stedsnr" v="244879" />
	</node>
	<node id="-422074" lat="59.0729278521" lon="5.68265417608">
		<tag k="name" v="Vaula" />
		<tag k="place" v="farm" />
		<tag k="ssr:stedsnr" v="851822" />
	</node>
	<node id="-421702" lat="59.0404887729" lon="5.69568315115">
		<tag k="name" v="Hegraberg" />
		<tag k="place" v="farm" />
		<tag k="ssr:stedsnr" v="244802" />
	</node>
	<node id="-421700" lat="59.0961555545" lon="5.58413055627">
		<tag k="name" v="Nygard" />
		<tag k="place" v="farm" />
		<tag k="ssr:stedsnr" v="244343" />
	</node>
	<node id="-421699" lat="59.0905611072" lon="5.59183055567">
		<tag k="name" v="Skipanes" />
		<tag k="place" v="farm" />
		<tag k="ssr:stedsnr" v="244340" />
	</node>
	<node id="-421696" lat="59.1014520722" lon="5.67362632775">
		<tag k="fixme" v="consider place=hamlet" />
		<tag k="name" v="Helland" />
		<tag k="place" v="farm" />
		<tag k="ssr:stedsnr" v="244320" />
	</node>
	<node id="-421920" lat="59.1317093776" lon="5.60084107319">
		<tag k="fixme" v="consider place=hamlet" />
		<tag k="name" v="Galta" />
		<tag k="place" v="farm" />
		<tag k="ssr:stedsnr" v="661875" />
	</node>
	<node id="-421688" lat="59.1238975427" lon="5.59294786442">
		<tag k="fixme" v="consider place=hamlet" />
		<tag k="name" v="Nordre Reianes" />
		<tag k="place" v="farm" />
		<tag k="ssr:stedsnr" v="236857" />
	</node>
	<node id="-421686" lat="59.0732752165" lon="5.68248673691">
		<tag k="fixme" v="consider place=hamlet" />
		<tag k="name" v="Vaula" />
		<tag k="place" v="farm" />
		<tag k="ssr:stedsnr" v="236572" />
	</node>
	<node id="-421683" lat="59.0986138865" lon="5.76886111361">
		<tag k="name" v="Hagane" />
		<tag k="place" v="farm" />
		<tag k="ssr:stedsnr" v="235995" />
	</node>
	<node id="-421939" lat="59.1356138894" lon="5.60701944889">
		<tag k="name" v="Galta" />
		<tag k="place" v="farm" />
		<tag k="ssr:stedsnr" v="694414" />
	</node>
	<node id="-422108" lat="59.0389507944" lon="5.66186801221">
		<tag k="fixme" v="consider place=hamlet" />
		<tag k="name" v="Bru" />
		<tag k="place" v="farm" />
		<tag k="ssr:stedsnr" v="911800" />
	</node>
	<node id="-421663" lat="59.122277777" lon="5.67585000831">
		<tag k="name" v="Ertenstein" />
		<tag k="place" v="farm" />
		<tag k="ssr:stedsnr" v="209453" />
	</node>
	<node id="-421662" lat="59.07132778" lon="5.68673610242">
		<tag k="name" v="Vaula" />
		<tag k="place" v="farm" />
		<tag k="ssr:stedsnr" v="209087" />
	</node>
	<node id="-421661" lat="59.1088138859" lon="5.72556945109">
		<tag k="name" v="Austbø" />
		<tag k="place" v="farm" />
		<tag k="ssr:stedsnr" v="209076" />
	</node>
	<node id="-421660" lat="59.101841663" lon="5.69359722708">
		<tag k="name" v="Håvastein" />
		<tag k="place" v="farm" />
		<tag k="ssr:stedsnr" v="207710" />
	</node>
	<node id="-421659" lat="59.1066166686" lon="5.69909722951">
		<tag k="name" v="Håvastein" />
		<tag k="place" v="farm" />
		<tag k="ssr:stedsnr" v="207702" />
	</node>
	<node id="-421658" lat="59.0937194402" lon="5.76200277655">
		<tag k="name" v="Mehus" />
		<tag k="place" v="farm" />
		<tag k="ssr:stedsnr" v="207700" />
	</node>
	<node id="-421657" lat="59.0361861074" lon="5.69397499723">
		<tag k="name" v="Vardaberg" />
		<tag k="place" v="farm" />
		<tag k="ssr:stedsnr" v="207691" />
	</node>
	<node id="-421635" lat="59.0983027805" lon="5.69876388213">
		<tag k="name" v="Håvastein" />
		<tag k="place" v="farm" />
		<tag k="ssr:stedsnr" v="268717" />
	</node>
	<node id="-421646" lat="59.0790388919" lon="5.66414444678">
		<tag k="name" v="Steinsvoll" />
		<tag k="place" v="farm" />
		<tag k="ssr:stedsnr" v="183876" />
	</node>
	<node id="-421651" lat="59.1055949454" lon="5.73838097075">
		<tag k="fixme" v="consider place=hamlet" />
		<tag k="name" v="Førsvoll" />
		<tag k="place" v="farm" />
		<tag k="ssr:stedsnr" v="184325" />
	</node>
	<node id="-422160" lat="59.0857144062" lon="5.58309883987">
		<tag k="fixme" v="consider tourism=alpine_hut or tourism=chalet" />
		<tag k="name" v="Fjøløy" />
		<tag k="ssr:stedsnr" v="978158" />
		<tag k="tourism" v="wilderness_hut" />
	</node>
	<node id="-422158" lat="59.1220574022" lon="5.60200684548">
		<tag k="fixme" v="consider place=hamlet" />
		<tag k="name" v="Klovstein" />
		<tag k="place" v="village" />
		<tag k="ssr:stedsnr" v="973721" />
	</node>
	<node id="-421645" lat="59.087494542" lon="5.66585290739">
		<tag k="alt_name" v="Vodl" />
		<tag k="fixme" v="consider place=hamlet" />
		<tag k="name" v="Voll" />
		<tag k="place" v="farm" />
		<tag k="ssr:stedsnr" v="183869" />
	</node>
	<node id="-422153" lat="59.1159912889" lon="5.76524940223">
		<tag k="fixme" v="consider place=hamlet" />
		<tag k="name" v="Øvre Hanasand" />
		<tag k="place" v="farm" />
		<tag k="ssr:stedsnr" v="964856" />
	</node>
	<node id="-422151" lat="59.0664404539" lon="5.69041379694">
		<tag k="fixme" v="consider place=hamlet" />
		<tag k="name" v="Askje" />
		<tag k="place" v="farm" />
		<tag k="ssr:stedsnr" v="964589" />
	</node>
	<node id="-422150" lat="59.0999944426" lon="5.68828056326">
		<tag k="name" v="Prestagard" />
		<tag k="place" v="farm" />
		<tag k="ssr:stedsnr" v="964062" />
	</node>
	<node id="-421636" lat="59.096674997" lon="5.69838055453">
		<tag k="name" v="Håvastein" />
		<tag k="place" v="farm" />
		<tag k="ssr:stedsnr" v="268720" />
	</node>
	<node id="-422147" lat="59.0439249992" lon="5.65796111103">
		<tag k="name" v="Beite" />
		<tag k="place" v="farm" />
		<tag k="ssr:stedsnr" v="964531" />
	</node>
	<node id="-421634" lat="59.036133332" lon="5.71775000395">
		<tag k="name" v="Vardaberg" />
		<tag k="place" v="farm" />
		<tag k="ssr:stedsnr" v="268713" />
	</node>
	<node id="-421633" lat="59.108124997" lon="5.69021388552">
		<tag k="name" v="Håvastein" />
		<tag k="place" v="farm" />
		<tag k="ssr:stedsnr" v="268712" />
	</node>
	<node id="-421632" lat="59.0332000002" lon="5.70215554789">
		<tag k="name" v="Vardaberg" />
		<tag k="place" v="farm" />
		<tag k="ssr:stedsnr" v="268701" />
	</node>
	<node id="-421631" lat="59.0374638882" lon="5.70543889317">
		<tag k="name" v="Vardaberg" />
		<tag k="place" v="farm" />
		<tag k="ssr:stedsnr" v="268699" />
	</node>
	<node id="-422135" lat="59.1290027735" lon="5.64428611507">
		<tag k="name" v="Sørbø" />
		<tag k="place" v="farm" />
		<tag k="ssr:stedsnr" v="937464" />
	</node>
	<node id="-422134" lat="59.1124916686" lon="5.68517500842">
		<tag k="name" v="Nordbø" />
		<tag k="place" v="farm" />
		<tag k="ssr:stedsnr" v="937458" />
	</node>
	<node id="-422133" lat="59.131005552" lon="5.60369165972">
		<tag k="name" v="Galta" />
		<tag k="place" v="farm" />
		<tag k="ssr:stedsnr" v="937449" />
	</node>
	<node id="-422132" lat="59.125219445" lon="5.61532778415">
		<tag k="name" v="Voll" />
		<tag k="place" v="farm" />
		<tag k="ssr:stedsnr" v="937444" />
	</node>
	<node id="-422131" lat="59.1046611105" lon="5.72030276914">
		<tag k="name" v="Austbø" />
		<tag k="place" v="farm" />
		<tag k="ssr:stedsnr" v="937093" />
	</node>
	<node id="-422130" lat="59.0984907207" lon="5.69987877472">
		<tag k="name" v="Håvastein" />
		<tag k="place" v="farm" />
		<tag k="ssr:stedsnr" v="935725" />
	</node>
	<node id="-422129" lat="59.0666277774" lon="5.68502500119">
		<tag k="name" v="Askje" />
		<tag k="place" v="farm" />
		<tag k="ssr:stedsnr" v="935468" />
	</node>
	<node id="-422122" lat="59.106716671" lon="5.60161944185">
		<tag k="name" v="Bakklandet" />
		<tag k="place" v="farm" />
		<tag k="ssr:stedsnr" v="912386" />
	</node>
	<node id="-421609" lat="59.1166194482" lon="5.69399999647">
		<tag k="name" v="Nordbø" />
		<tag k="place" v="farm" />
		<tag k="ssr:stedsnr" v="148444" />
	</node>
	<node id="-421608" lat="59.1145869173" lon="5.69327443476">
		<tag k="name" v="Nordbø" />
		<tag k="place" v="farm" />
		<tag k="ssr:stedsnr" v="148412" />
	</node>
	<node id="-421607" lat="59.114022223" lon="5.72265554742">
		<tag k="name" v="Austbø" />
		<tag k="place" v="farm" />
		<tag k="ssr:stedsnr" v="148069" />
	</node>
	<node id="-421606" lat="59.0365777749" lon="5.69628888944">
		<tag k="name" v="Vardaberg" />
		<tag k="place" v="farm" />
		<tag k="ssr:stedsnr" v="146698" />
	</node>
	<node id="-421604" lat="59.0770305569" lon="5.64581665808">
		<tag k="name" v="Hodnafjell" />
		<tag k="place" v="farm" />
		<tag k="ssr:stedsnr" v="268510" />
	</node>
	<node id="-421603" lat="59.076827778" lon="5.63866944469">
		<tag k="name" v="Hodnafjell" />
		<tag k="place" v="farm" />
		<tag k="ssr:stedsnr" v="268508" />
	</node>
	<node id="-422113" lat="59.0732727426" lon="5.6890471304">
		<tag k="name" v="Hodnafjell" />
		<tag k="place" v="farm" />
		<tag k="ssr:stedsnr" v="911849" />
	</node>
	<node id="-421934" lat="59.0400555569" lon="5.68613611857">
		<tag k="name" v="Hegraberg" />
		<tag k="place" v="locality" />
		<tag k="ssr:stedsnr" v="692694" />
	</node>
	<node id="-421598" lat="59.0858847418" lon="5.71831416514">
		<tag k="fixme" v="consider place=hamlet" />
		<tag k="name" v="Sel" />
		<tag k="place" v="farm" />
		<tag k="ssr:stedsnr" v="122850" />
	</node>
	<node id="-421596" lat="59.0934631642" lon="5.7573706918">
		<tag k="fixme" v="consider place=hamlet" />
		<tag k="name" v="Østhus" />
		<tag k="place" v="farm" />
		<tag k="ssr:stedsnr" v="122837" />
	</node>
	<node id="-421595" lat="59.0994992791" lon="5.69049724265">
		<tag k="fixme" v="consider place=hamlet" />
		<tag k="name" v="Hauskje" />
		<tag k="place" v="farm" />
		<tag k="ssr:stedsnr" v="122831" />
	</node>
	<node id="-422101" lat="59.0946734058" lon="5.75929903673">
		<tag k="fixme" v="consider place=hamlet" />
		<tag k="name" v="Mehus" />
		<tag k="place" v="farm" />
		<tag k="ssr:stedsnr" v="903943" />
	</node>
	<node id="-422121" lat="59.1234111148" lon="5.67349722964">
		<tag k="name" v="Ertenstein" />
		<tag k="place" v="farm" />
		<tag k="ssr:stedsnr" v="912375" />
	</node>
	<node id="-421583" lat="59.0943638904" lon="5.77072778268">
		<tag k="name" v="Fredheim" />
		<tag k="place" v="farm" />
		<tag k="ssr:stedsnr" v="114987" />
	</node>
	<node id="-422093" lat="59.1177138874" lon="5.69162221963">
		<tag k="name" v="Tinghaug" />
		<tag k="place" v="farm" />
		<tag k="ssr:stedsnr" v="902026" />
	</node>
	<node id="-422089" lat="59.1239211091" lon="5.62638663437">
		<tag k="name" v="Risa" />
		<tag k="place" v="farm" />
		<tag k="ssr:stedsnr" v="876442" />
	</node>
	<node id="-422088" lat="59.1128472206" lon="5.69643056159">
		<tag k="name" v="Nordbø" />
		<tag k="place" v="farm" />
		<tag k="ssr:stedsnr" v="876434" />
	</node>
	<node id="-422087" lat="59.0778083325" lon="5.66755277573">
		<tag k="name" v="Vaula" />
		<tag k="place" v="farm" />
		<tag k="ssr:stedsnr" v="876427" />
	</node>
	<node id="-422086" lat="59.1351444418" lon="5.60632778656">
		<tag k="name" v="Galta" />
		<tag k="place" v="farm" />
		<tag k="ssr:stedsnr" v="876422" />
	</node>
	<node id="-422085" lat="59.1340861081" lon="5.60700277598">
		<tag k="name" v="Galta" />
		<tag k="place" v="farm" />
		<tag k="ssr:stedsnr" v="876417" />
	</node>
	<node id="-421572" lat="59.1096361153" lon="5.69409722724">
		<tag k="name" v="Vestbø" />
		<tag k="place" v="farm" />
		<tag k="ssr:stedsnr" v="113007" />
	</node>
	<node id="-422083" lat="59.0400833328" lon="5.68816667053">
		<tag k="name" v="Hegraberg" />
		<tag k="place" v="farm" />
		<tag k="ssr:stedsnr" v="875700" />
	</node>
	<node id="-422082" lat="59.0801027756" lon="5.64635555063">
		<tag k="name" v="Hodnafjell" />
		<tag k="place" v="farm" />
		<tag k="ssr:stedsnr" v="875513" />
	</node>
	<node id="-422081" lat="59.0997310895" lon="5.69660711712">
		<tag k="name" v="Håvastein" />
		<tag k="place" v="farm" />
		<tag k="ssr:stedsnr" v="874157" />
	</node>
	<node id="-421967" lat="59.0820499994" lon="5.67132499208">
		<tag k="name" v="Voll" />
		<tag k="place" v="farm" />
		<tag k="ssr:stedsnr" v="729375" />
	</node>
	<node id="-421565" lat="59.1204361128" lon="5.6914611059">
		<tag k="name" v="Nordbø" />
		<tag k="place" v="farm" />
		<tag k="ssr:stedsnr" v="87425" />
	</node>
	<node id="-421564" lat="59.1270805571" lon="5.60606666927">
		<tag k="name" v="Voll" />
		<tag k="place" v="farm" />
		<tag k="ssr:stedsnr" v="87401" />
	</node>
	<node id="-421563" lat="59.1119250019" lon="5.70687778326">
		<tag k="name" v="Austbø" />
		<tag k="place" v="farm" />
		<tag k="ssr:stedsnr" v="87072" />
	</node>
	<node id="-421562" lat="59.097186111" lon="5.69738056183">
		<tag k="name" v="Håvastein" />
		<tag k="place" v="farm" />
		<tag k="ssr:stedsnr" v="86724" />
	</node>
	<node id="-421561" lat="59.0988083336" lon="5.69724165985">
		<tag k="name" v="Håvastein" />
		<tag k="place" v="farm" />
		<tag k="ssr:stedsnr" v="86715" />
	</node>
	<node id="-421560" lat="59.0952111148" lon="5.75811667301">
		<tag k="name" v="Mehus" />
		<tag k="place" v="farm" />
		<tag k="ssr:stedsnr" v="86716" />
	</node>
	<node id="-421559" lat="59.0423861153" lon="5.69660833567">
		<tag k="name" v="Hegraberg" />
		<tag k="place" v="farm" />
		<tag k="ssr:stedsnr" v="86707" />
	</node>
	<node id="-421558" lat="59.0803805521" lon="5.65193333683">
		<tag k="name" v="Hodnafjell" />
		<tag k="place" v="farm" />
		<tag k="ssr:stedsnr" v="86522" />
	</node>
	<node id="-421557" lat="59.0518986326" lon="5.65717793817">
		<tag k="alt_name" v="Sokn" />
		<tag k="name" v="Hesthaug" />
		<tag k="place" v="farm" />
		<tag k="ssr:stedsnr" v="86373" />
	</node>
	<node id="-421556" lat="59.1207361091" lon="5.64421110862">
		<tag k="name" v="Stoggdal" />
		<tag k="place" v="farm" />
		<tag k="ssr:stedsnr" v="85115" />
	</node>
	<node id="-421552" lat="59.0975394657" lon="5.69787874405">
		<tag k="name" v="Vikevåg" />
		<tag k="place" v="village" />
		<tag k="ssr:stedsnr" v="62848" />
	</node>
	<node id="-422063" lat="59.0753483819" lon="5.65673562395">
		<tag k="name" v="Torvberget" />
		<tag k="place" v="farm" />
		<tag k="ssr:stedsnr" v="848555" />
	</node>
	<node id="-421545" lat="59.1240361085" lon="5.7183027855">
		<tag k="name" v="Eltarvåg" />
		<tag k="place" v="farm" />
		<tag k="ssr:stedsnr" v="62367" />
	</node>
	<node id="-421539" lat="59.1094232394" lon="5.71354155094">
		<tag k="fixme" v="consider place=hamlet" />
		<tag k="name" v="Dalåker" />
		<tag k="place" v="farm" />
		<tag k="ssr:stedsnr" v="62300" />
	</node>
	<node id="-421538" lat="59.1135298193" lon="5.70456558248">
		<tag k="name" v="Austbø" />
		<tag k="place" v="farm" />
		<tag k="ssr:stedsnr" v="62298" />
	</node>
	<node id="-422049" lat="59.1065305527" lon="5.70383055003">
		<tag k="name" v="Slettebø" />
		<tag k="place" v="farm" />
		<tag k="ssr:stedsnr" v="842007" />
	</node>
	<node id="-421535" lat="59.1243966692" lon="5.63482431368">
		<tag k="fixme" v="consider place=hamlet" />
		<tag k="name" v="Hommervoll" />
		<tag k="place" v="farm" />
		<tag k="ssr:stedsnr" v="54623" />
	</node>
	<node id="-422045" lat="59.0501339872" lon="5.66960960095">
		<tag k="name" v="Nygard" />
		<tag k="place" v="farm" />
		<tag k="ssr:stedsnr" v="831573" />
	</node>
	<node id="-421532" lat="59.1065412358" lon="5.69629413036">
		<tag k="fixme" v="consider place=hamlet" />
		<tag k="name" v="Håvastein" />
		<tag k="place" v="farm" />
		<tag k="ssr:stedsnr" v="54057" />
	</node>
	<node id="-422051" lat="59.0805482127" lon="5.642954244">
		<tag k="fixme" v="consider place=hamlet" />
		<tag k="name" v="Hodnafjellet" />
		<tag k="place" v="farm" />
		<tag k="ssr:stedsnr" v="842072" />
	</node>
	<node id="-422041" lat="59.081930554" lon="5.67118610856">
		<tag k="name" v="Vaula" />
		<tag k="place" v="farm" />
		<tag k="ssr:stedsnr" v="816094" />
	</node>
	<node id="-422040" lat="59.1076749965" lon="5.69933055903">
		<tag k="name" v="Håvastein" />
		<tag k="place" v="farm" />
		<tag k="ssr:stedsnr" v="814735" />
	</node>
	<node id="-422039" lat="59.037606258" lon="5.69699503402">
		<tag k="name" v="Vardaberg" />
		<tag k="place" v="farm" />
		<tag k="ssr:stedsnr" v="814732" />
	</node>
	<node id="-421526" lat="59.0383500026" lon="5.66272499157">
		<tag k="name" v="Raunevig" />
		<tag k="place" v="isolated_dwelling" />
		<tag k="ssr:stedsnr" v="41594" />
	</node>
	<node id="-422037" lat="59.0348722198" lon="5.69640833529">
		<tag k="name" v="Vardaberg" />
		<tag k="place" v="farm" />
		<tag k="ssr:stedsnr" v="814726" />
	</node>
	<node id="-422036" lat="59.0354916644" lon="5.70655555259">
		<tag k="name" v="Vardaberg" />
		<tag k="place" v="farm" />
		<tag k="ssr:stedsnr" v="814720" />
	</node>
	<node id="-422035" lat="59.0784222179" lon="5.63207500146">
		<tag k="name" v="Hodnafjell" />
		<tag k="place" v="farm" />
		<tag k="ssr:stedsnr" v="814716" />
	</node>
	<node id="-421522" lat="59.1178111108" lon="5.69007499815">
		<tag k="name" v="Nordbø" />
		<tag k="place" v="farm" />
		<tag k="ssr:stedsnr" v="27459" />
	</node>
	<node id="-421521" lat="59.1026507771" lon="5.69361760121">
		<tag k="name" v="Håvastein" />
		<tag k="place" v="farm" />
		<tag k="ssr:stedsnr" v="25731" />
	</node>
	<node id="-421520" lat="59.097116666" lon="5.6988472207">
		<tag k="name" v="Håvastein" />
		<tag k="place" v="farm" />
		<tag k="ssr:stedsnr" v="25725" />
	</node>
	<node id="-421519" lat="59.0386027771" lon="5.70793611296">
		<tag k="name" v="Vardaberg" />
		<tag k="place" v="farm" />
		<tag k="ssr:stedsnr" v="25717" />
	</node>
	<node id="-422030" lat="59.0875833325" lon="5.70297777136">
		<tag k="name" v="Skabekken" />
		<tag k="place" v="isolated_dwelling" />
		<tag k="ssr:stedsnr" v="790885" />
	</node>
	<node id="-421517" lat="59.0636472224" lon="5.68441110514">
		<tag k="name" v="Askje" />
		<tag k="place" v="farm" />
		<tag k="ssr:stedsnr" v="25447" />
	</node>
	<node id="-421511" lat="59.0920975067" lon="5.75252271999">
		<tag k="fixme" v="consider place=hamlet" />
		<tag k="name" v="Skjørvestad" />
		<tag k="place" v="farm" />
		<tag k="ssr:stedsnr" v="1867" />
	</node>
	<node id="-422022" lat="59.03719763" lon="5.69225885379">
		<tag k="name" v="Vardaberg" />
		<tag k="place" v="farm" />
		<tag k="ssr:stedsnr" v="790811" />
	</node>
	<node id="-421509" lat="59.096384005" lon="5.73150612495">
		<tag k="fixme" v="consider place=hamlet" />
		<tag k="name" v="Bjerga" />
		<tag k="place" v="farm" />
		<tag k="ssr:stedsnr" v="1856" />
	</node>
	<node id="-422017" lat="59.1186010624" lon="5.61248618362">
		<tag k="alt_name" v="Klomra" />
		<tag k="name" v="Klområ" />
		<tag k="place" v="farm" />
		<tag k="ssr:stedsnr" v="790350" />
	</node>
	<node id="-422015" lat="59.0933805587" lon="5.58120833154">
		<tag k="name" v="Myrvang" />
		<tag k="place" v="farm" />
		<tag k="ssr:stedsnr" v="790326" />
	</node>
	<node id="-422012" lat="59.113877749" lon="5.76820304439">
		<tag k="name" v="Hanasand" />
		<tag k="place" v="hamlet" />
		<tag k="ssr:stedsnr" v="790301" />
	</node>
	<node id="-421499" lat="59.119425004" lon="5.65271388493">
		<tag k="name" v="Sørbø" />
		<tag k="place" v="farm" />
		<tag k="ssr:stedsnr" v="1342" />
	</node>
	<node id="-422084" lat="59.1046611105" lon="5.72030276914">
		<tag k="name" v="Austbø" />
		<tag k="place" v="farm" />
		<tag k="ssr:stedsnr" v="876087" />
	</node>
	<node id="-421494" lat="59.0763841144" lon="5.65308003713">
		<tag k="name" v="Kleivane" />
		<tag k="place" v="quarter" />
		<tag k="ssr:stedsnr" v="982703" />
	</node>
	<node id="-421492" lat="59.0593475856" lon="5.6952452011">
		<tag k="name" v="Skorpefjellet" />
		<tag k="place" v="quarter" />
		<tag k="ssr:stedsnr" v="982113" />
	</node>
	<node id="-421490" lat="59.0648437142" lon="5.70260681511">
		<tag k="name" v="Laukhammar" />
		<tag k="place" v="quarter" />
		<tag k="ssr:stedsnr" v="982100" />
	</node>
	<node id="-421395" lat="59.1303388852" lon="5.6032277698">
		<tag k="name" v="Galta" />
		<tag k="place" v="farm" />
		<tag k="ssr:stedsnr" v="330450" />
	</node>
	<node id="-421485" lat="59.0872158303" lon="5.76182453525">
		<tag k="name" v="Hegglandslia" />
		<tag k="place" v="quarter" />
		<tag k="ssr:stedsnr" v="982022" />
	</node>
	<node id="-421484" lat="59.0881008403" lon="5.77497216459">
		<tag k="name" v="Vågedal" />
		<tag k="place" v="quarter" />
		<tag k="ssr:stedsnr" v="982021" />
	</node>
	<node id="-421482" lat="59.0804195642" lon="5.78081575844">
		<tag k="fixme" v="consider place=hamlet" />
		<tag k="name" v="Gongenes" />
		<tag k="place" v="farm" />
		<tag k="ssr:stedsnr" v="1072025" />
	</node>
	<node id="-421481" lat="59.1084820073" lon="5.63655048735">
		<tag k="fixme" v="consider place=hamlet" />
		<tag k="name" v="Asmarvik" />
		<tag k="place" v="farm" />
		<tag k="ssr:stedsnr" v="1072024" />
	</node>
	<node id="-421480" lat="59.0399694451" lon="5.66209722792">
		<tag k="name" v="Grønland" />
		<tag k="place" v="farm" />
		<tag k="ssr:stedsnr" v="891715" />
	</node>
	<node id="-421473" lat="59.1228255959" lon="5.67022852208">
		<tag k="fixme" v="consider place=hamlet" />
		<tag k="name" v="Ertnstein" />
		<tag k="place" v="farm" />
		<tag k="ssr:stedsnr" v="478654" />
	</node>
	<node id="-421471" lat="59.1240777753" lon="5.72310555933">
		<tag k="name" v="Hålå" />
		<tag k="place" v="farm" />
		<tag k="ssr:stedsnr" v="478566" />
	</node>
	<node id="-421982" lat="59.1281916669" lon="5.62627222143">
		<tag k="name" v="Hummervoll" />
		<tag k="place" v="farm" />
		<tag k="ssr:stedsnr" v="755456" />
	</node>
	<node id="-421981" lat="59.1150916668" lon="5.69345556261">
		<tag k="name" v="Nordbø" />
		<tag k="place" v="farm" />
		<tag k="ssr:stedsnr" v="755450" />
	</node>
	<node id="-421980" lat="59.1301444423" lon="5.60368610523">
		<tag k="name" v="Galta" />
		<tag k="place" v="farm" />
		<tag k="ssr:stedsnr" v="755434" />
	</node>
	<node id="-421979" lat="59.0978694443" lon="5.69786110679">
		<tag k="name" v="Håvastein" />
		<tag k="place" v="farm" />
		<tag k="ssr:stedsnr" v="753684" />
	</node>
	<node id="-421978" lat="59.0362333312" lon="5.70194999576">
		<tag k="name" v="Vardaberg" />
		<tag k="place" v="farm" />
		<tag k="ssr:stedsnr" v="753672" />
	</node>
	<node id="-421977" lat="59.052261111" lon="5.67432222054">
		<tag k="name" v="Sokn" />
		<tag k="place" v="farm" />
		<tag k="ssr:stedsnr" v="753314" />
	</node>
	<node id="-421976" lat="59.0988583337" lon="5.69898610518">
		<tag k="name" v="Håvastein" />
		<tag k="place" v="farm" />
		<tag k="ssr:stedsnr" v="752124" />
	</node>
	<node id="-421463" lat="59.1051249969" lon="5.68890555735">
		<tag k="name" v="Stødl" />
		<tag k="place" v="farm" />
		<tag k="ssr:stedsnr" v="477005" />
	</node>
	<node id="-421972" lat="59.1243611072" lon="5.64064166372">
		<tag k="name" v="Stoggdal" />
		<tag k="place" v="farm" />
		<tag k="ssr:stedsnr" v="730371" />
	</node>
	<node id="-421459" lat="59.1181516987" lon="5.63997502407">
		<tag k="fixme" v="consider place=hamlet" />
		<tag k="name" v="Steinsland" />
		<tag k="place" v="farm" />
		<tag k="ssr:stedsnr" v="244363" />
	</node>
	<node id="-421970" lat="59.1088062884" lon="5.70482860444">
		<tag k="fixme" v="consider place=hamlet" />
		<tag k="name" v="Midbø" />
		<tag k="place" v="farm" />
		<tag k="ssr:stedsnr" v="730314" />
	</node>
	<node id="-421969" lat="59.0968620496" lon="5.76905031104">
		<tag k="fixme" v="consider place=hamlet" />
		<tag k="name" v="Nordhus" />
		<tag k="place" v="farm" />
		<tag k="ssr:stedsnr" v="729849" />
	</node>
	<node id="-421456" lat="59.1219138855" lon="5.67470277567">
		<tag k="name" v="Ertenstein" />
		<tag k="place" v="farm" />
		<tag k="ssr:stedsnr" v="390401" />
	</node>
	<node id="-421455" lat="59.1200277802" lon="5.69294999791">
		<tag k="name" v="Nordbø" />
		<tag k="place" v="farm" />
		<tag k="ssr:stedsnr" v="390394" />
	</node>
	<node id="-421454" lat="59.1276666694" lon="5.60918332445">
		<tag k="name" v="Voll" />
		<tag k="place" v="farm" />
		<tag k="ssr:stedsnr" v="390382" />
	</node>
	<node id="-421453" lat="59.0967992848" lon="5.69790199698">
		<tag k="name" v="Håvastein" />
		<tag k="place" v="farm" />
		<tag k="ssr:stedsnr" v="389722" />
	</node>
	<node id="-421452" lat="59.0968194436" lon="5.69790833735">
		<tag k="name" v="Håvastein" />
		<tag k="place" v="farm" />
		<tag k="ssr:stedsnr" v="389718" />
	</node>
	<node id="-421451" lat="59.0956388881" lon="5.70294443844">
		<tag k="name" v="Håvastein" />
		<tag k="place" v="farm" />
		<tag k="ssr:stedsnr" v="389715" />
	</node>
	<node id="-421450" lat="59.0956388881" lon="5.70294443844">
		<tag k="name" v="Håvastein" />
		<tag k="place" v="farm" />
		<tag k="ssr:stedsnr" v="389709" />
	</node>
	<node id="-421449" lat="59.0390222263" lon="5.69046111661">
		<tag k="name" v="Hegraberg" />
		<tag k="place" v="farm" />
		<tag k="ssr:stedsnr" v="389707" />
	</node>
	<node id="-421448" lat="59.0664388924" lon="5.6910416649">
		<tag k="name" v="Askje" />
		<tag k="place" v="farm" />
		<tag k="ssr:stedsnr" v="389405" />
	</node>
	<node id="-421447" lat="59.1270527783" lon="5.64060833443">
		<tag k="name" v="Stoggdal" />
		<tag k="place" v="farm" />
		<tag k="ssr:stedsnr" v="388126" />
	</node>
	<node id="-421446" lat="59.1036750022" lon="5.77345277064">
		<tag k="name" v="Norheim" />
		<tag k="place" v="farm" />
		<tag k="ssr:stedsnr" v="366340" />
	</node>
	<node id="-421445" lat="59.1003495939" lon="5.69618200687">
		<tag k="name" v="Håvastein" />
		<tag k="place" v="farm" />
		<tag k="ssr:stedsnr" v="366336" />
	</node>
	<node id="-421997" lat="59.0500166657" lon="5.66902222104">
		<tag k="fixme" v="consider place=suburb, village or hamlet" />
		<tag k="name" v="Sokn" />
		<tag k="place" v="quarter" />
		<tag k="ssr:stedsnr" v="781380" />
	</node>
	<node id="-421954" lat="59.1038262818" lon="5.65530046128">
		<tag k="fixme" v="consider place=hamlet" />
		<tag k="name" v="Litladal" />
		<tag k="place" v="farm" />
		<tag k="ssr:stedsnr" v="721187" />
	</node>
	<node id="-421439" lat="59.0937871853" lon="5.74147455014">
		<tag k="fixme" v="consider place=hamlet" />
		<tag k="name" v="Roaldstad" />
		<tag k="place" v="farm" />
		<tag k="ssr:stedsnr" v="365869" />
	</node>
	<node id="-421437" lat="59.1069500026" lon="5.59771666002">
		<tag k="alt_name" v="Beite" />
		<tag k="name" v="Beitet" />
		<tag k="place" v="farm" />
		<tag k="ssr:stedsnr" v="365382" />
	</node>
	<node id="-421435" lat="59.121182548" lon="5.61968625586">
		<tag k="fixme" v="consider place=hamlet" />
		<tag k="name" v="Seglheim" />
		<tag k="place" v="farm" />
		<tag k="ssr:stedsnr" v="365374" />
	</node>
	<node id="-421983" lat="59.1235500665" lon="5.62121028847">
		<tag k="name" v="Risa" />
		<tag k="place" v="farm" />
		<tag k="ssr:stedsnr" v="755460" />
	</node>
	<node id="-422068" lat="59.1233916662" lon="5.62462222258">
		<tag k="name" v="Risa" />
		<tag k="place" v="farm" />
		<tag k="ssr:stedsnr" v="851338" />
	</node>
	<node id="-421941" lat="59.0776361067" lon="5.68569166157">
		<tag k="name" v="Vaula" />
		<tag k="place" v="farm" />
		<tag k="ssr:stedsnr" v="694417" />
	</node>
	<node id="-421940" lat="59.138566667" lon="5.59915276981">
		<tag k="name" v="Galta" />
		<tag k="place" v="farm" />
		<tag k="ssr:stedsnr" v="694413" />
	</node>
	<node id="-421470" lat="59.1229972248" lon="5.74595277505">
		<tag k="name" v="Rennaren" />
		<tag k="place" v="farm" />
		<tag k="ssr:stedsnr" v="478556" />
	</node>
	<node id="-421938" lat="59.133611107" lon="5.59658333008">
		<tag k="name" v="Galta" />
		<tag k="place" v="farm" />
		<tag k="ssr:stedsnr" v="694412" />
	</node>
	<node id="-421937" lat="59.1102194434" lon="5.69722499178">
		<tag k="name" v="Nordbø" />
		<tag k="place" v="farm" />
		<tag k="ssr:stedsnr" v="694388" />
	</node>
	<node id="-421936" lat="59.0784444482" lon="5.64147499459">
		<tag k="name" v="Hodnafjell" />
		<tag k="place" v="farm" />
		<tag k="ssr:stedsnr" v="692699" />
	</node>
	<node id="-421935" lat="59.0396027797" lon="5.69327777717">
		<tag k="name" v="Hegraberg" />
		<tag k="place" v="farm" />
		<tag k="ssr:stedsnr" v="692695" />
	</node>
	<node id="-421422" lat="59.0865916705" lon="5.76611388919">
		<tag k="name" v="Solbakk" />
		<tag k="place" v="farm" />
		<tag k="ssr:stedsnr" v="357930" />
	</node>
	<node id="-421421" lat="59.1224334816" lon="5.64096314219">
		<tag k="fixme" v="consider place=hamlet" />
		<tag k="name" v="Stoggdal" />
		<tag k="place" v="farm" />
		<tag k="ssr:stedsnr" v="357614" />
	</node>
	<node id="-421420" lat="59.123354392" lon="5.6220374134">
		<tag k="fixme" v="consider place=hamlet" />
		<tag k="name" v="Risa" />
		<tag k="place" v="farm" />
		<tag k="ssr:stedsnr" v="357608" />
	</node>
	<node id="-421927" lat="59.0633250033" lon="5.69424167207">
		<tag k="name" v="Askje" />
		<tag k="place" v="farm" />
		<tag k="ssr:stedsnr" v="669831" />
	</node>
	<node id="-421924" lat="59.0829757915" lon="5.76998071723">
		<tag k="fixme" v="consider place=hamlet" />
		<tag k="name" v="Heggland" />
		<tag k="place" v="farm" />
		<tag k="ssr:stedsnr" v="668864" />
	</node>
	<node id="-421923" lat="59.0816132621" lon="5.72218956261">
		<tag k="fixme" v="consider place=hamlet" />
		<tag k="name" v="Dale" />
		<tag k="place" v="farm" />
		<tag k="ssr:stedsnr" v="668857" />
	</node>
	<node id="-421921" lat="59.1031388882" lon="5.58886944695">
		<tag k="name" v="Utstein" />
		<tag k="place" v="farm" />
		<tag k="ssr:stedsnr" v="669301" />
	</node>
	<node id="-421408" lat="59.1188618186" lon="5.69000901906">
		<tag k="fixme" v="consider place=hamlet" />
		<tag k="name" v="Nordbø" />
		<tag k="place" v="farm" />
		<tag k="ssr:stedsnr" v="356005" />
	</node>
	<node id="-421918" lat="59.1282054292" lon="5.63652385245">
		<tag k="fixme" v="consider place=hamlet" />
		<tag k="name" v="Sørbø" />
		<tag k="place" v="farm" />
		<tag k="ssr:stedsnr" v="661604" />
	</node>
	<node id="-421913" lat="59.1293360321" lon="5.6081743295">
		<tag k="fixme" v="consider place=hamlet" />
		<tag k="name" v="Vodl" />
		<tag k="place" v="farm" />
		<tag k="ssr:stedsnr" v="660643" />
	</node>
	<node id="-421400" lat="59.1161277814" lon="5.65762222464">
		<tag k="name" v="Sørbø" />
		<tag k="place" v="farm" />
		<tag k="ssr:stedsnr" v="330471" />
	</node>
	<node id="-421399" lat="59.1261527737" lon="5.6515166642">
		<tag k="name" v="Sørbø" />
		<tag k="place" v="farm" />
		<tag k="ssr:stedsnr" v="330470" />
	</node>
	<node id="-421398" lat="59.1103944478" lon="5.69617777268">
		<tag k="name" v="Nordbø" />
		<tag k="place" v="farm" />
		<tag k="ssr:stedsnr" v="330464" />
	</node>
	<node id="-421397" lat="59.1135083325" lon="5.69513055539">
		<tag k="name" v="Nordbø" />
		<tag k="place" v="farm" />
		<tag k="ssr:stedsnr" v="330463" />
	</node>
	<node id="-421396" lat="59.1322527819" lon="5.60356944463">
		<tag k="name" v="Galta" />
		<tag k="place" v="farm" />
		<tag k="ssr:stedsnr" v="330458" />
	</node>
	<node id="-421518" lat="59.0406888934" lon="5.68661111692">
		<tag k="name" v="Hegraberg" />
		<tag k="place" v="farm" />
		<tag k="ssr:stedsnr" v="25706" />
	</node>
	<node id="-421394" lat="59.1254916692" lon="5.61085277583">
		<tag k="name" v="Voll" />
		<tag k="place" v="farm" />
		<tag k="ssr:stedsnr" v="330446" />
	</node>
	<node id="-421393" lat="59.0703253959" lon="5.69074091675">
		<tag k="name" v="Vaula" />
		<tag k="place" v="farm" />
		<tag k="ssr:stedsnr" v="330097" />
	</node>
	<node id="-421392" lat="59.0417472266" lon="5.69572777363">
		<tag k="name" v="Hegraberg" />
		<tag k="place" v="farm" />
		<tag k="ssr:stedsnr" v="328704" />
	</node>
	<node id="-421391" lat="59.0517444485" lon="5.66965833529">
		<tag k="name" v="Sokn" />
		<tag k="place" v="farm" />
		<tag k="ssr:stedsnr" v="328329" />
	</node>
	<node id="-421390" lat="59.0965194422" lon="5.69408889229">
		<tag k="name" v="Håvastein" />
		<tag k="place" v="farm" />
		<tag k="ssr:stedsnr" v="328124" />
	</node>
	<node id="-421386" lat="59.1258444448" lon="5.60134999823">
		<tag k="name" v="Voll" />
		<tag k="place" v="farm" />
		<tag k="ssr:stedsnr" v="305361" />
	</node>
	<node id="-421975" lat="59.0993999991" lon="5.69323889206">
		<tag k="name" v="Håvastein" />
		<tag k="place" v="farm" />
		<tag k="ssr:stedsnr" v="752122" />
	</node>
	<node id="-421896" lat="59.1253638884" lon="5.64036666432">
		<tag k="name" v="Sørbø" />
		<tag k="place" v="farm" />
		<tag k="ssr:stedsnr" v="633462" />
	</node>
	<node id="-421895" lat="59.1308500003" lon="5.64377499268">
		<tag k="name" v="Sørbø" />
		<tag k="place" v="farm" />
		<tag k="ssr:stedsnr" v="633459" />
	</node>
	<node id="-421382" lat="59.0964148195" lon="5.61228039092">
		<tag k="fixme" v="consider place=hamlet" />
		<tag k="name" v="Finnasand" />
		<tag k="place" v="farm" />
		<tag k="ssr:stedsnr" v="304338" />
	</node>
	<node id="-421893" lat="59.1235432956" lon="5.59164268693">
		<tag k="name" v="Reianes" />
		<tag k="place" v="farm" />
		<tag k="ssr:stedsnr" v="633443" />
	</node>
	<node id="-421891" lat="59.0344138868" lon="5.69919999758">
		<tag k="name" v="Vardaberg" />
		<tag k="place" v="farm" />
		<tag k="ssr:stedsnr" v="631723" />
	</node>
	<node id="-421890" lat="59.0372777761" lon="5.70317777678">
		<tag k="name" v="Vardaberg" />
		<tag k="place" v="farm" />
		<tag k="ssr:stedsnr" v="631718" />
	</node>
	<node id="-421889" lat="59.0798972194" lon="5.61629166167">
		<tag k="name" v="Hodnafjell" />
		<tag k="place" v="farm" />
		<tag k="ssr:stedsnr" v="631717" />
	</node>
</osm>
