<?xml version="1.0" encoding="UTF-8"?>
<osm version="0.6" generator="osmapis">
	<node lat="69.84476944771545" lon="23.119708250448014" id="-41556">
		<tag k="highway" v="path" />
		<tag k="name" v="Gampvassvegen" />
		<tag k="ssr:stedsnr" v="208415" />
	</node>
	<node lat="69.84606111497331" lon="23.110913807875132" id="-41569">
		<tag k="highway" v="path" />
		<tag k="name" v="Finnvegen" />
		<tag k="ssr:stedsnr" v="269430" />
	</node>
	<node lat="70.21803333754542" lon="23.21009992448997" id="-41574">
		<tag k="highway" v="path" />
		<tag k="name" v="Gammelveien" />
		<tag k="ssr:stedsnr" v="211351" />
	</node>
	<node lat="70.20698888787045" lon="23.247274926315942" id="-41644">
		<tag k="highway" v="path" />
		<tag k="name" v="Reinstien" />
		<tag k="ssr:stedsnr" v="453358" />
	</node>
	<node lat="70.03771389352909" lon="22.93414437722621" id="-41691">
		<tag k="highway" v="path" />
		<tag k="name" v="Jota" />
		<tag k="ssr:stedsnr" v="268202" />
	</node>
	<node lat="69.88091388702775" lon="23.254144366186086" id="-41709">
		<tag k="junction" v="yes" />
		<tag k="name" v="Sandsvingen" />
		<tag k="place" v="locality" />
		<tag k="ssr:stedsnr" v="269683" />
	</node>
	<node lat="69.97904166869733" lon="23.35732492400434" id="-41805">
		<tag k="aeroway" v="aerodrome" />
		<tag k="alt_name:no" v="Alta" />
		<tag k="name" v="Alta lufthavn - Álttá girdihámman - Alattion lentohamina" />
		<tag k="name:fkv" v="Alattion lentohamina" />
		<tag k="name:no" v="Alta lufthavn" />
		<tag k="name:se" v="Álttá girdihámman" />
		<tag k="old_name:no" v="Alta flyplass" />
		<tag k="ssr:stedsnr" v="341217" />
	</node>
	<node lat="69.88078055528537" lon="23.60222210873237" id="-42468">
		<tag k="ford" v="yes" />
		<tag k="name" v="Hella" />
		<tag k="place" v="locality" />
		<tag k="ssr:stedsnr" v="693487" />
	</node>
	<node lat="70.20381944444765" lon="23.211736028898716" id="-42485">
		<tag k="highway" v="path" />
		<tag k="name" v="Sandveien" />
		<tag k="ssr:stedsnr" v="696368" />
	</node>
	<node lat="69.89333889541511" lon="23.040130475387155" id="-42567">
		<tag k="highway" v="path" />
		<tag k="name" v="Postvegen" />
		<tag k="ssr:stedsnr" v="754268" />
	</node>
	<node lat="70.20351111166887" lon="23.214166599580672" id="-42835">
		<tag k="highway" v="path" />
		<tag k="name" v="Geitstien" />
		<tag k="ssr:stedsnr" v="878412" />
	</node>
	<node lat="69.94306944738057" lon="23.169452706551716" id="-43395">
		<tag k="highway" v="path" />
		<tag k="name" v="Eide" />
		<tag k="ssr:stedsnr" v="140428" />
	</node>
	<node lat="70.3402000018957" lon="22.837580487739874" id="-43620">
		<tag k="landuse" v="harbour" />
		<tag k="name" v="Russehamna - Ruoššahávdna" />
		<tag k="name:no" v="Russehamna" />
		<tag k="name:se" v="Ruoššahávdna" />
		<tag k="seamark:type" v="harbour" />
		<tag k="ssr:stedsnr" v="201879" />
	</node>
	<node lat="69.94278055997718" lon="23.04658047600839" id="-43664">
		<tag k="man_made" v="quay" />
		<tag k="name" v="Paulsenkaia" />
		<tag k="place" v="locality" />
		<tag k="ssr:stedsnr" v="208375" />
	</node>
	<node lat="69.93731666617349" lon="22.700827719471793" id="-43908">
		<tag k="highway" v="path" />
		<tag k="name" v="Dihkkegeaidnu" />
		<tag k="name:se" v="Dihkkegeaidnu" />
		<tag k="old_name:se" v="Dikkegæidno" />
		<tag k="ssr:stedsnr" v="383062" />
	</node>
	<node lat="69.93980555824172" lon="23.038144379807715" id="-44008">
		<tag k="man_made" v="quay" />
		<tag k="name" v="Malmkaia" />
		<tag k="place" v="locality" />
		<tag k="ssr:stedsnr" v="389228" />
	</node>
	<node lat="69.94395277753286" lon="23.04036382191241" id="-44303">
		<tag k="highway" v="path" />
		<tag k="name" v="Tisselgangen" />
		<tag k="ssr:stedsnr" v="511251" />
	</node>
	<node lat="70.31849219814119" lon="23.50182968750336" id="-45160">
		<tag k="man_made" v="quay" />
		<tag k="name" v="Kroksletta" />
		<tag k="place" v="locality" />
		<tag k="ssr:stedsnr" v="869814" />
	</node>
	<node lat="70.31694444899267" lon="22.867222157970563" id="-45179">
		<tag k="landuse" v="harbour" />
		<tag k="name" v="Kvalfjordhamn" />
		<tag k="seamark:type" v="harbour" />
		<tag k="ssr:stedsnr" v="874989" />
	</node>
	<node lat="69.9776919415592" lon="23.33198987775568" id="-45357">
		<tag k="landuse" v="harbour" />
		<tag k="loc_name:se" v="Álaheaju hámman;Áltá;Álaheajju;Álaheadju" />
		<tag k="name" v="Alta havn - Álttá hámman" />
		<tag k="name:no" v="Alta havn" />
		<tag k="name:se" v="Álttá hámman" />
		<tag k="seamark:type" v="harbour" />
		<tag k="ssr:stedsnr" v="1078070" />
	</node>
	<node lat="69.96433560055301" lon="23.273766586148785" id="-45358">
		<tag k="highway" v="bus_stop" />
		<tag k="loc_name:se" v="Álttá bussestašuvdna;Álaheaju bussestašuvdna;Áltá;Álaheadju;Álaheajju" />
		<tag k="name" v="Alta bussterminal" />
		<tag k="name:no" v="Alta bussterminal" />
		<tag k="ssr:stedsnr" v="1078073" />
	</node>
</osm>
