<?xml version="1.0" encoding="UTF-8"?>
<osm version="0.6" generator="osmapis">
	<node lat="70.02031110932768" lon="22.302830501363104" id="-37377">
		<tag k="name" v="Myra" />
		<tag k="place" v="farm" />
		<tag k="ssr:stedsnr" v="229722" />
	</node>
	<node lat="70.01178333498785" lon="22.318291616291763" id="-37378">
		<tag k="name" v="Moen" />
		<tag k="place" v="farm" />
		<tag k="ssr:stedsnr" v="229723" />
	</node>
	<node lat="69.90216111132636" lon="23.257494349576305" id="-37381">
		<tag k="name" v="Myrmo" />
		<tag k="place" v="farm" />
		<tag k="ssr:stedsnr" v="19297" />
	</node>
	<node lat="69.93781389177116" lon="23.319486024175582" id="-37382">
		<tag k="fixme" v="multiple name tags, choose one and add the other to alt_name" />
		<tag k="name" v="Raipas;Raipas nedre" />
		<tag k="place" v="farm" />
		<tag k="ssr:stedsnr" v="19402" />
	</node>
	<node lat="69.94129166713992" lon="23.23801658235931" id="-37383">
		<tag k="alt_name" v="Storgjerdet nordre" />
		<tag k="name" v="Nordre Storgjerdet" />
		<tag k="place" v="farm" />
		<tag k="ssr:stedsnr" v="19411" />
	</node>
	<node lat="70.04247222110264" lon="22.94985270310519" id="-37395">
		<tag k="loc_name:fkv" v="Talmulahti" />
		<tag k="loc_name:se" v="Dálbmeluovta" />
		<tag k="name" v="Talvik" />
		<tag k="name:no" v="Talvik" />
		<tag k="place" v="village" />
		<tag k="ssr:stedsnr" v="19801" />
	</node>
	<node lat="69.97076666715316" lon="23.381883245717784" id="-37408">
		<tag k="name" v="Øyra" />
		<tag k="place" v="quarter" />
		<tag k="ssr:stedsnr" v="24939" />
	</node>
	<node lat="69.93025555550231" lon="23.32553602930879" id="-37410">
		<tag k="name" v="Moen" />
		<tag k="place" v="farm" />
		<tag k="ssr:stedsnr" v="25222" />
	</node>
	<node lat="69.95168055449867" lon="23.29084991630039" id="-37411">
		<tag k="name" v="Ulvestad" />
		<tag k="place" v="farm" />
		<tag k="ssr:stedsnr" v="25803" />
	</node>
	<node lat="69.94568611678675" lon="23.240305481246867" id="-37412">
		<tag k="name" v="Storgjerdsbakken" />
		<tag k="place" v="farm" />
		<tag k="ssr:stedsnr" v="25804" />
	</node>
	<node lat="69.96253056294853" lon="23.327202688689606" id="-37413">
		<tag k="name" v="Ringstad" />
		<tag k="place" v="farm" />
		<tag k="ssr:stedsnr" v="25808" />
	</node>
	<node lat="70.121733188952" lon="22.983995640859973" id="-37417">
		<tag k="name" v="Heimstein" />
		<tag k="place" v="farm" />
		<tag k="ssr:stedsnr" v="26119" />
	</node>
	<node lat="69.93946667010854" lon="23.03321103356251" id="-37420">
		<tag k="leisure" v="pitch" />
		<tag k="name" v="Lindebergdammen" />
		<tag k="ssr:stedsnr" v="26270" />
	</node>
	<node lat="70.08501667002588" lon="22.621416603773408" id="-37440">
		<tag k="name" v="Skrivarslåtta" />
		<tag k="place" v="farm" />
		<tag k="ssr:stedsnr" v="45681" />
	</node>
	<node lat="69.95706389090563" lon="23.095636027302763" id="-37441">
		<tag k="name" v="Nygård" />
		<tag k="place" v="farm" />
		<tag k="ssr:stedsnr" v="45831" />
	</node>
	<node lat="69.89227500140187" lon="23.480099913601595" id="-37461">
		<tag k="alt_name" v="Losvarsetra" />
		<tag k="historic" v="shieling" />
		<tag k="name" v="Losvarsætra" />
		<tag k="place" v="isolated_dwelling" />
		<tag k="ssr:stedsnr" v="80637" />
	</node>
	<node lat="70.16867778265933" lon="23.27893602262032" id="-37464">
		<tag k="name" v="Kariheimen" />
		<tag k="place" v="locality" />
		<tag k="ssr:stedsnr" v="80648" />
	</node>
	<node lat="70.2424972206336" lon="23.335191583048758" id="-37466">
		<tag k="alt_name" v="Lamvik, in;Lamvik Indre" />
		<tag k="name" v="Indre Lamvik" />
		<tag k="place" v="farm" />
		<tag k="ssr:stedsnr" v="80593" />
	</node>
	<node lat="70.28386111126254" lon="23.538049913049143" id="-37479">
		<tag k="fixme" v="consider place=hamlet" />
		<tag k="name" v="Store Lerresfjord" />
		<tag k="place" v="village" />
		<tag k="ssr:stedsnr" v="81806" />
	</node>
	<node lat="69.98608889326333" lon="23.502105472883812" id="-37484">
		<tag k="name" v="Elvestrand" />
		<tag k="place" v="farm" />
		<tag k="ssr:stedsnr" v="86011" />
	</node>
	<node lat="70.07565000364619" lon="22.98339992324349" id="-37485">
		<tag k="name" v="Gregus Kari" />
		<tag k="place" v="isolated_dwelling" />
		<tag k="ssr:stedsnr" v="86031" />
	</node>
	<node lat="69.95669722742585" lon="23.408305468003054" id="-37486">
		<tag k="name" v="Fossenakken" />
		<tag k="place" v="farm" />
		<tag k="ssr:stedsnr" v="86075" />
	</node>
	<node lat="70.26081667372287" lon="23.409163796267688" id="-37492">
		<tag k="loc_name:se" v="Gámabahta" />
		<tag k="name" v="Komagfjord" />
		<tag k="name:no" v="Komagfjord" />
		<tag k="place" v="hamlet" />
		<tag k="ssr:stedsnr" v="87407" />
	</node>
	<node lat="70.34813333066968" lon="22.782777718542857" id="-37494">
		<tag k="name" v="Åslia" />
		<tag k="place" v="farm" />
		<tag k="ssr:stedsnr" v="87824" />
	</node>
	<node lat="69.87784444453905" lon="23.27280269378828" id="-37518">
		<tag k="name" v="Nedre Stengelse" />
		<tag k="old_name" v="Stengelse, nedre" />
		<tag k="place" v="isolated_dwelling" />
		<tag k="ssr:stedsnr" v="140370" />
	</node>
	<node lat="69.88800833516446" lon="23.208305470110425" id="-37519">
		<tag k="name" v="Flinkestad" />
		<tag k="place" v="farm" />
		<tag k="ssr:stedsnr" v="140375" />
	</node>
	<node lat="69.97006389419533" lon="23.31199159452961" id="-37523">
		<tag k="name" v="Vinterset" />
		<tag k="place" v="farm" />
		<tag k="ssr:stedsnr" v="140398" />
	</node>
	<node lat="69.96183055459666" lon="23.30986658699326" id="-37526">
		<tag k="name" v="Furulund" />
		<tag k="place" v="farm" />
		<tag k="ssr:stedsnr" v="140405" />
	</node>
	<node lat="69.92455000330695" lon="23.305055456182277" id="-37544">
		<tag k="name" v="Talonsaari" />
		<tag k="name:fkv" v="Talonsaari" />
		<tag k="place" v="farm" />
		<tag k="ssr:stedsnr" v="146206" />
	</node>
	<node lat="70.03333055803432" lon="22.927969372737067" id="-37547">
		<tag k="name" v="Kløyva" />
		<tag k="place" v="hamlet" />
		<tag k="ssr:stedsnr" v="146183" />
	</node>
	<node lat="69.94827777608674" lon="23.181436040120374" id="-37549">
		<tag k="name" v="Hjemmeluft nedre" />
		<tag k="place" v="farm" />
		<tag k="ssr:stedsnr" v="146431" />
	</node>
	<node lat="69.95165833479439" lon="23.426747128848348" id="-37557">
		<tag k="name" v="Fjellstad" />
		<tag k="place" v="farm" />
		<tag k="ssr:stedsnr" v="147065" />
	</node>
	<node lat="69.8877472207697" lon="23.205122143680104" id="-37558">
		<tag k="name" v="Øvereng" />
		<tag k="place" v="farm" />
		<tag k="ssr:stedsnr" v="147406" />
	</node>
	<node lat="69.89883888937291" lon="23.28071934403871" id="-37560">
		<tag k="name" v="Raipas-slått" />
		<tag k="place" v="farm" />
		<tag k="ssr:stedsnr" v="147631" />
	</node>
	<node lat="69.88690277692855" lon="23.25779436886765" id="-37561">
		<tag k="name" v="Skogly" />
		<tag k="place" v="farm" />
		<tag k="ssr:stedsnr" v="147635" />
	</node>
	<node lat="69.94172222433387" lon="23.26836102733539" id="-37567">
		<tag k="name" v="Lusieholmen" />
		<tag k="place" v="farm" />
		<tag k="ssr:stedsnr" v="147763" />
	</node>
	<node lat="69.962920926276" lon="23.114610131404028" id="-37592">
		<tag k="name" v="Øgleenga" />
		<tag k="place" v="locality" />
		<tag k="ssr:stedsnr" v="167856" />
	</node>
	<node lat="69.75064722295781" lon="23.7482609886431" id="-37608">
		<tag k="name" v="Sautso-gården" />
		<tag k="old_name" v="Šavčo-gården;Šávču-gården;Šávčugården" />
		<tag k="place" v="isolated_dwelling" />
		<tag k="ssr:stedsnr" v="261712" />
	</node>
	<node lat="69.87061111245295" lon="23.30743047463949" id="-37625">
		<tag k="name" v="Heggelund" />
		<tag k="place" v="farm" />
		<tag k="ssr:stedsnr" v="262339" />
	</node>
	<node lat="69.8714305546228" lon="23.283883242162435" id="-37626">
		<tag k="name" v="Vatnheim" />
		<tag k="place" v="farm" />
		<tag k="ssr:stedsnr" v="262340" />
	</node>
	<node lat="69.86474166628025" lon="23.318827697101806" id="-37628">
		<tag k="name" v="Solheim" />
		<tag k="place" v="farm" />
		<tag k="ssr:stedsnr" v="262269" />
	</node>
	<node lat="69.92391667330554" lon="23.26081103211813" id="-37635">
		<tag k="name" v="Molund" />
		<tag k="place" v="farm" />
		<tag k="ssr:stedsnr" v="262431" />
	</node>
	<node lat="69.95665833191421" lon="23.266052696251105" id="-37639">
		<tag k="name" v="Bjerkeng" />
		<tag k="place" v="farm" />
		<tag k="ssr:stedsnr" v="262382" />
	</node>
	<node lat="69.95234167213601" lon="23.21618603347105" id="-37640">
		<tag k="name" v="Gakori" />
		<tag k="place" v="quarter" />
		<tag k="ssr:stedsnr" v="262385" />
	</node>
	<node lat="69.95738611608917" lon="23.417038788367776" id="-37642">
		<tag k="name" v="Saga" />
		<tag k="place" v="farm" />
		<tag k="ssr:stedsnr" v="262391" />
	</node>
	<node lat="69.92712222711631" lon="23.10490546902001" id="-37647">
		<tag k="fixme" v="consider place=hamlet" />
		<tag k="loc_name:fkv" v="Suislahti" />
		<tag k="name" v="Kvenvik - Šuovošluovta" />
		<tag k="name:no" v="Kvenvik" />
		<tag k="name:se" v="Šuovošluovta" />
		<tag k="place" v="village" />
		<tag k="ssr:stedsnr" v="262435" />
	</node>
	<node lat="70.21798333696867" lon="23.21955547368447" id="-37654">
		<tag k="name" v="Myrvoll" />
		<tag k="place" v="farm" />
		<tag k="ssr:stedsnr" v="262580" />
	</node>
	<node lat="70.01847499933194" lon="22.30812493851126" id="-37661">
		<tag k="alt_name" v="Bekkeplassen nordre" />
		<tag k="name" v="Bekkeplass" />
		<tag k="place" v="farm" />
		<tag k="ssr:stedsnr" v="262618" />
	</node>
	<node lat="70.03366110930178" lon="22.27682773274206" id="-37662">
		<tag k="name" v="Flatstrand" />
		<tag k="place" v="farm" />
		<tag k="ssr:stedsnr" v="262620" />
	</node>
	<node lat="69.88985556042891" lon="23.575611003485655" id="-37667">
		<tag k="alt_name" v="Opgårdsetra" />
		<tag k="historic" v="shieling" />
		<tag k="name" v="Oppgårdsætra" />
		<tag k="place" v="isolated_dwelling" />
		<tag k="ssr:stedsnr" v="262630" />
	</node>
	<node lat="70.13148333984853" lon="22.99257492482488" id="-37680">
		<tag k="name" v="Vollstrand" />
		<tag k="place" v="farm" />
		<tag k="ssr:stedsnr" v="262782" />
	</node>
	<node lat="70.32325772792122" lon="23.51796696120569" id="-37681">
		<tag k="name" v="Gjerdebakken" />
		<tag k="place" v="farm" />
		<tag k="ssr:stedsnr" v="262819" />
	</node>
	<node lat="70.04641389119438" lon="22.94427215173025" id="-37682">
		<tag k="name" v="Åsen" />
		<tag k="place" v="hamlet" />
		<tag k="ssr:stedsnr" v="262821" />
	</node>
	<node lat="70.11324576805261" lon="23.426317423647994" id="-37687">
		<tag k="name" v="Nybrott" />
		<tag k="place" v="farm" />
		<tag k="ssr:stedsnr" v="262941" />
	</node>
	<node lat="70.11541389148384" lon="23.450666582555595" id="-37692">
		<tag k="name" v="Storeng" />
		<tag k="place" v="farm" />
		<tag k="ssr:stedsnr" v="262940" />
	</node>
	<node lat="70.26427500615645" lon="23.419202702811166" id="-37695">
		<tag k="name" v="Solli" />
		<tag k="place" v="farm" />
		<tag k="ssr:stedsnr" v="263822" />
	</node>
	<node lat="69.9516999982216" lon="23.333238810417487" id="-37699">
		<tag k="name" v="Fjellborg" />
		<tag k="place" v="farm" />
		<tag k="ssr:stedsnr" v="201362" />
	</node>
	<node lat="69.95325555586476" lon="23.260774923350173" id="-37700">
		<tag k="name" v="Bakkeslett" />
		<tag k="place" v="farm" />
		<tag k="ssr:stedsnr" v="201369" />
	</node>
	<node lat="69.92963888673073" lon="23.114519370583615" id="-37702">
		<tag k="alt_name" v="Årevik, austre" />
		<tag k="name" v="Austre Årevik" />
		<tag k="place" v="farm" />
		<tag k="ssr:stedsnr" v="201394" />
	</node>
	<node lat="70.09024722111779" lon="22.631855503982145" id="-37705">
		<tag k="loc_name:se" v="Rievvárgohpi" />
		<tag k="name" v="Rivarbukt - Vuojatluovta" />
		<tag k="name:no" v="Rivarbukt" />
		<tag k="name:se" v="Vuojatluovta" />
		<tag k="place" v="hamlet" />
		<tag k="ssr:stedsnr" v="201494" />
	</node>
	<node lat="69.95170833251636" lon="23.415427678557265" id="-37728">
		<tag k="name" v="Maaheinä-kenttä" />
		<tag k="name:fkv" v="Maaheinä-kenttä" />
		<tag k="place" v="locality" />
		<tag k="ssr:stedsnr" v="268073" />
	</node>
	<node lat="69.92879166559497" lon="23.31000823832898" id="-37729">
		<tag k="name" v="Mellommoen" />
		<tag k="place" v="farm" />
		<tag k="ssr:stedsnr" v="268219" />
	</node>
	<node lat="69.94835556196462" lon="23.05667491500536" id="-37730">
		<tag k="name" v="Steinbakken" />
		<tag k="place" v="farm" />
		<tag k="ssr:stedsnr" v="268359" />
	</node>
	<node lat="69.95868056011479" lon="23.09749714307922" id="-37731">
		<tag k="name" v="Kildeengen" />
		<tag k="place" v="farm" />
		<tag k="ssr:stedsnr" v="268360" />
	</node>
	<node lat="69.88469722148247" lon="23.204219349220953" id="-37732">
		<tag k="name" v="Østvold" />
		<tag k="place" v="farm" />
		<tag k="ssr:stedsnr" v="268372" />
	</node>
	<node lat="69.93799722731613" lon="23.248327688799385" id="-37738">
		<tag k="name" v="Elvejord" />
		<tag k="place" v="farm" />
		<tag k="ssr:stedsnr" v="268768" />
	</node>
	<node lat="69.93491944407984" lon="23.282519357615907" id="-37739">
		<tag k="name" v="England vestre" />
		<tag k="place" v="farm" />
		<tag k="ssr:stedsnr" v="268770" />
	</node>
	<node lat="69.92700833340398" lon="23.219847145248387" id="-37740">
		<tag k="name" v="Nyeng" />
		<tag k="place" v="farm" />
		<tag k="ssr:stedsnr" v="268774" />
	</node>
	<node lat="70.33281389259247" lon="22.816902708649508" id="-37742">
		<tag k="name" v="Myrvoll" />
		<tag k="place" v="farm" />
		<tag k="ssr:stedsnr" v="268799" />
	</node>
	<node lat="70.26444722318543" lon="23.346772143374498" id="-37749">
		<tag k="name" v="Slåtten" />
		<tag k="place" v="farm" />
		<tag k="ssr:stedsnr" v="268938" />
	</node>
	<node lat="70.01500278325078" lon="23.04028604292725" id="-37751">
		<tag k="fixme" v="consider place=hamlet" />
		<tag k="name" v="Melsvik" />
		<tag k="place" v="village" />
		<tag k="ssr:stedsnr" v="208022" />
	</node>
	<node lat="70.01636388988216" lon="23.53888880163866" id="-37753">
		<tag k="name" v="Sørelv" />
		<tag k="place" v="farm" />
		<tag k="ssr:stedsnr" v="208028" />
	</node>
	<node lat="70.02754166577522" lon="23.39708325112212" id="-37755">
		<tag k="name" v="Thomasnes" />
		<tag k="place" v="farm" />
		<tag k="ssr:stedsnr" v="208034" />
	</node>
	<node lat="69.9318361155247" lon="23.473324901647004" id="-37756">
		<tag k="name" v="Bjørneng" />
		<tag k="place" v="farm" />
		<tag k="ssr:stedsnr" v="208048" />
	</node>
	<node lat="69.93213888953849" lon="23.499230467580333" id="-37757">
		<tag k="name" v="Kjosvold" />
		<tag k="place" v="farm" />
		<tag k="ssr:stedsnr" v="208080" />
	</node>
	<node lat="70.05871667184277" lon="22.959755490445165" id="-37758">
		<tag k="historic" v="shieling" />
		<tag k="name" v="Finnsjåsetra" />
		<tag k="place" v="isolated_dwelling" />
		<tag k="ssr:stedsnr" v="208096" />
	</node>
	<node lat="69.84532777960833" lon="23.422177689659183" id="-37764">
		<tag k="alt_name:fkv" v="Gavala" />
		<tag k="name" v="Kavala" />
		<tag k="name:fkv" v="Kavala" />
		<tag k="place" v="farm" />
		<tag k="ssr:stedsnr" v="208137" />
	</node>
	<node lat="69.92860833948963" lon="23.48372490972587" id="-37767">
		<tag k="name" v="Holmestad" />
		<tag k="place" v="farm" />
		<tag k="ssr:stedsnr" v="269047" />
	</node>
	<node lat="69.91774444500312" lon="23.475008235659047" id="-37777">
		<tag k="name" v="Furulund" />
		<tag k="place" v="farm" />
		<tag k="ssr:stedsnr" v="269117" />
	</node>
	<node lat="69.84140833344435" lon="23.43082211646523" id="-37781">
		<tag k="loc_name:se" v="Viidnestohpu" />
		<tag k="name" v="Vina" />
		<tag k="name:no" v="Vina" />
		<tag k="place" v="farm" />
		<tag k="ssr:stedsnr" v="269155" />
	</node>
	<node lat="69.83634444843186" lon="23.1336221303399" id="-37785">
		<tag k="name" v="Skogstue" />
		<tag k="place" v="isolated_dwelling" />
		<tag k="ssr:stedsnr" v="269420" />
	</node>
	<node lat="70.01227222505241" lon="23.557630444967632" id="-37787">
		<tag k="name" v="Stangnes" />
		<tag k="place" v="farm" />
		<tag k="ssr:stedsnr" v="269459" />
	</node>
	<node lat="69.9850194448497" lon="23.09246379805005" id="-37788">
		<tag k="alt_name:no" v="Kidelv" />
		<tag k="loc_name:se" v="Gihccejohka" />
		<tag k="name" v="Kidelven" />
		<tag k="name:no" v="Kidelven" />
		<tag k="place" v="farm" />
		<tag k="ssr:stedsnr" v="269464" />
	</node>
	<node lat="69.94551389152632" lon="23.186730466169106" id="-37791">
		<tag k="name" v="Hjemmeluft øvre" />
		<tag k="place" v="farm" />
		<tag k="ssr:stedsnr" v="269491" />
	</node>
	<node lat="69.9449638919054" lon="23.196808262332652" id="-37792">
		<tag k="name" v="Myreng" />
		<tag k="place" v="farm" />
		<tag k="ssr:stedsnr" v="269494" />
	</node>
	<node lat="69.86067222326524" lon="23.32808324716856" id="-37795">
		<tag k="name" v="Skogsletten" />
		<tag k="place" v="farm" />
		<tag k="ssr:stedsnr" v="269759" />
	</node>
	<node lat="70.09315555947214" lon="23.193652693731845" id="-37812">
		<tag k="name" v="Solheim" />
		<tag k="place" v="isolated_dwelling" />
		<tag k="ssr:stedsnr" v="227982" />
	</node>
	<node lat="70.03001667077692" lon="23.52339435944215" id="-37816">
		<tag k="name" v="Bjerkelid" />
		<tag k="place" v="farm" />
		<tag k="ssr:stedsnr" v="450015" />
	</node>
	<node lat="70.03299722212088" lon="22.954791603681958" id="-37819">
		<tag k="name" v="Halsemarka" />
		<tag k="place" v="farm" />
		<tag k="ssr:stedsnr" v="450049" />
	</node>
	<node lat="69.95609167154484" lon="23.41966657007624" id="-37820">
		<tag k="name" v="Sagli" />
		<tag k="place" v="farm" />
		<tag k="ssr:stedsnr" v="450052" />
	</node>
	<node lat="69.86521667092518" lon="23.86013042804987" id="-37822">
		<tag k="fixme" v="consider tourism=alpine_hut or tourism=chalet" />
		<tag k="name" v="Reinbukkelvhytta" />
		<tag k="ssr:stedsnr" v="450189" />
		<tag k="tourism" v="wilderness_hut" />
	</node>
	<node lat="70.0421083373219" lon="22.9293221527551" id="-37823">
		<tag k="name" v="Blåberget" />
		<tag k="place" v="hamlet" />
		<tag k="ssr:stedsnr" v="450151" />
	</node>
	<node lat="69.88286667220439" lon="23.197488798212262" id="-37824">
		<tag k="name" v="Veimoen" />
		<tag k="place" v="farm" />
		<tag k="ssr:stedsnr" v="450388" />
	</node>
	<node lat="69.94875555794252" lon="23.326974917745844" id="-37834">
		<tag k="name" v="Bjørnengen" />
		<tag k="place" v="farm" />
		<tag k="ssr:stedsnr" v="450786" />
	</node>
	<node lat="69.81265278178287" lon="23.484783240516965" id="-37838">
		<tag k="name" v="Soleng" />
		<tag k="place" v="farm" />
		<tag k="ssr:stedsnr" v="451160" />
	</node>
	<node lat="69.99438055507744" lon="22.873449938318956" id="-37843">
		<tag k="name" v="Nonskarholmen" />
		<tag k="place" v="locality" />
		<tag k="ssr:stedsnr" v="451211" />
	</node>
	<node lat="69.99868888910076" lon="22.335030505302267" id="-37870">
		<tag k="name" v="Sletta" />
		<tag k="place" v="farm" />
		<tag k="ssr:stedsnr" v="262018" />
	</node>
	<node lat="69.96363888706058" lon="23.38236102609903" id="-37875">
		<tag k="name" v="Kronstad" />
		<tag k="place" v="suburb" />
		<tag k="ssr:stedsnr" v="262406" />
	</node>
	<node lat="69.88369444506041" lon="23.176072151610054" id="-37880">
		<tag k="name" v="Furuheim" />
		<tag k="place" v="farm" />
		<tag k="ssr:stedsnr" v="262345" />
	</node>
	<node lat="69.8846388923936" lon="23.199136032301404" id="-37881">
		<tag k="alt_name" v="Sæterbakken" />
		<tag k="name" v="Seterbekken" />
		<tag k="place" v="farm" />
		<tag k="ssr:stedsnr" v="262349" />
	</node>
	<node lat="69.95096111239573" lon="23.332927697756986" id="-37882">
		<tag k="alt_name" v="Veibakken" />
		<tag k="name" v="Vegbakken" />
		<tag k="place" v="farm" />
		<tag k="ssr:stedsnr" v="262395" />
	</node>
	<node lat="69.9515583339902" lon="23.270211011581992" id="-37883">
		<tag k="alt_name" v="Myrvold" />
		<tag k="name" v="Myrvoll" />
		<tag k="place" v="farm" />
		<tag k="ssr:stedsnr" v="262400" />
	</node>
	<node lat="69.92207777931333" lon="23.48518600963812" id="-37889">
		<tag k="alt_name" v="Mandsverk" />
		<tag k="name" v="Mannsverk" />
		<tag k="place" v="farm" />
		<tag k="ssr:stedsnr" v="262696" />
	</node>
	<node lat="69.93483888993978" lon="23.436669356220655" id="-37893">
		<tag k="name" v="Solheim" />
		<tag k="place" v="farm" />
		<tag k="ssr:stedsnr" v="262702" />
	</node>
	<node lat="70.24218355403319" lon="23.508424031960594" id="-37895">
		<tag k="name" v="Elvestrand" />
		<tag k="place" v="farm" />
		<tag k="ssr:stedsnr" v="262799" />
	</node>
	<node lat="70.28605833516666" lon="23.09313325525357" id="-37898">
		<tag k="name" v="Vuolmmasgieddi" />
		<tag k="name:se" v="Vuolmmasgieddi" />
		<tag k="old_name:se" v="Vuolmasgieddi" />
		<tag k="place" v="farm" />
		<tag k="ssr:stedsnr" v="262944" />
	</node>
	<node lat="70.1320916713942" lon="22.992841592304167" id="-37904">
		<tag k="name" v="Storeng" />
		<tag k="place" v="hamlet" />
		<tag k="ssr:stedsnr" v="267998" />
	</node>
	<node lat="69.93635277738443" lon="23.303327699524772" id="-37907">
		<tag k="name" v="Bygningsholmen" />
		<tag k="place" v="farm" />
		<tag k="ssr:stedsnr" v="268211" />
	</node>
	<node lat="69.94340000373285" lon="23.366744346683102" id="-37908">
		<tag k="name" v="Bergmo" />
		<tag k="place" v="farm" />
		<tag k="ssr:stedsnr" v="268212" />
	</node>
	<node lat="69.95103889383333" lon="23.206536023847104" id="-37910">
		<tag k="name" v="Moe" />
		<tag k="place" v="farm" />
		<tag k="ssr:stedsnr" v="268476" />
	</node>
	<node lat="69.95296389269039" lon="23.194174914352104" id="-37913">
		<tag k="loc_name:fkv" v="Aapana" />
		<tag k="loc_name:se" v="Áhpan" />
		<tag k="name" v="Apana" />
		<tag k="name:fkv" v="Apana" />
		<tag k="place" v="farm" />
		<tag k="ssr:stedsnr" v="268484" />
	</node>
	<node lat="69.96125000231133" lon="23.335986026956693" id="-37919">
		<tag k="name" v="Energjerdet" />
		<tag k="place" v="hamlet" />
		<tag k="ssr:stedsnr" v="268788" />
	</node>
	<node lat="69.84455000491221" lon="23.35457769606396" id="-37926">
		<tag k="name" v="Sokelma" />
		<tag k="place" v="isolated_dwelling" />
		<tag k="ssr:stedsnr" v="269773" />
	</node>
	<node lat="70.12491666895558" lon="22.98590547971496" id="-37977">
		<tag k="alt_name" v="Gjæran;Gjerand" />
		<tag k="name" v="Gjerdan" />
		<tag k="place" v="farm" />
		<tag k="ssr:stedsnr" v="322728" />
	</node>
	<node lat="69.92274722427914" lon="23.239005481844156" id="-37981">
		<tag k="alt_name" v="Myrseth" />
		<tag k="name" v="Myrset" />
		<tag k="place" v="farm" />
		<tag k="ssr:stedsnr" v="323323" />
	</node>
	<node lat="69.93331111710441" lon="23.250574930774146" id="-37982">
		<tag k="alt_name" v="Lerbakke" />
		<tag k="name" v="Leirbakken" />
		<tag k="place" v="locality" />
		<tag k="ssr:stedsnr" v="323407" />
	</node>
	<node lat="69.9363555604263" lon="23.220727687981974" id="-37983">
		<tag k="name" v="Bergstad" />
		<tag k="place" v="farm" />
		<tag k="ssr:stedsnr" v="323415" />
	</node>
	<node lat="70.08971666849844" lon="22.64422216184385" id="-37990">
		<tag k="name" v="Stabbursneset" />
		<tag k="place" v="isolated_dwelling" />
		<tag k="ssr:stedsnr" v="469645" />
	</node>
	<node lat="69.93222223047016" lon="23.403299900277904" id="-37992">
		<tag k="name" v="Sørås" />
		<tag k="place" v="farm" />
		<tag k="ssr:stedsnr" v="329104" />
	</node>
	<node lat="70.02825278256343" lon="23.06671936031221" id="-37995">
		<tag k="name" v="Kråknes" />
		<tag k="place" v="hamlet" />
		<tag k="ssr:stedsnr" v="329259" />
	</node>
	<node lat="69.95339722596053" lon="23.276369362077286" id="-37999">
		<tag k="name" v="Furulund" />
		<tag k="place" v="farm" />
		<tag k="ssr:stedsnr" v="329708" />
	</node>
	<node lat="69.95884999814027" lon="23.340941585575965" id="-38000">
		<tag k="name" v="Elvemo" />
		<tag k="place" v="farm" />
		<tag k="ssr:stedsnr" v="329772" />
	</node>
	<node lat="70.31991666789474" lon="23.476011031782065" id="-38002">
		<tag k="loc_name:se" v="Sarvvissiidnjárga" />
		<tag k="name" v="Horsnes" />
		<tag k="name:no" v="Horsnes" />
		<tag k="place" v="farm" />
		<tag k="ssr:stedsnr" v="330208" />
	</node>
	<node lat="70.0521638891554" lon="22.324263827981454" id="-38010">
		<tag k="name" v="Indre Sopnesbukta" />
		<tag k="place" v="farm" />
		<tag k="ssr:stedsnr" v="470701" />
	</node>
	<node lat="70.07673611309602" lon="22.69202492601975" id="-38012">
		<tag k="name" v="Ytre Ulvsvåg" />
		<tag k="place" v="farm" />
		<tag k="ssr:stedsnr" v="470839" />
	</node>
	<node lat="70.02809722393091" lon="23.393091575189825" id="-38034">
		<tag k="name" v="Leirbakken" />
		<tag k="place" v="farm" />
		<tag k="ssr:stedsnr" v="348968" />
	</node>
	<node lat="70.02693333927213" lon="23.39828601778848" id="-38035">
		<tag k="name" v="Steinnes" />
		<tag k="place" v="farm" />
		<tag k="ssr:stedsnr" v="348976" />
	</node>
	<node lat="69.75504722333659" lon="23.933144316071985" id="-38043">
		<tag k="fixme" v="consider tourism=alpine_hut or tourism=chalet" />
		<tag k="loc_name" v="Jotka fjellstue" />
		<tag k="name" v="Joatkajávri fjellstue" />
		<tag k="old_name" v="Joatkajávri;Joatkajavri fjellstue" />
		<tag k="ssr:stedsnr" v="479746" />
		<tag k="tourism" v="wilderness_hut" />
	</node>
	<node lat="69.8737638918389" lon="23.29067491567993" id="-38053">
		<tag k="name" v="Øvre Stengelse" />
		<tag k="old_name" v="Stengelse, øvre;Stengelse" />
		<tag k="place" v="farm" />
		<tag k="ssr:stedsnr" v="383360" />
	</node>
	<node lat="69.95100637697634" lon="23.07325843270672" id="-38055">
		<tag k="name" v="Dullan" />
		<tag k="place" v="locality" />
		<tag k="ssr:stedsnr" v="383401" />
	</node>
	<node lat="70.24173611718078" lon="23.3250471476445" id="-38063">
		<tag k="alt_name" v="Lamvik, yt;Lamvik Ytre" />
		<tag k="loc_name" v="Lamvik" />
		<tag k="name" v="Ytre Lamvik" />
		<tag k="place" v="farm" />
		<tag k="ssr:stedsnr" v="383602" />
	</node>
	<node lat="70.24860281668974" lon="22.86802861174367" id="-38064">
		<tag k="name" v="Davatluft" />
		<tag k="place" v="farm" />
		<tag k="ssr:stedsnr" v="383608" />
	</node>
	<node lat="70.29001944893595" lon="22.908672169787312" id="-38075">
		<tag k="fixme" v="consider place=hamlet" />
		<tag k="name" v="Lille Kvalfjord" />
		<tag k="place" v="village" />
		<tag k="ssr:stedsnr" v="383921" />
	</node>
	<node lat="69.93957500243599" lon="23.313661022473383" id="-38091">
		<tag k="name" v="Flatjord" />
		<tag k="place" v="farm" />
		<tag k="ssr:stedsnr" v="389207" />
	</node>
	<node lat="69.93425278030479" lon="23.3059915877619" id="-38093">
		<tag k="name" v="England østre" />
		<tag k="place" v="farm" />
		<tag k="ssr:stedsnr" v="389213" />
	</node>
	<node lat="69.88237777994989" lon="23.193283246876764" id="-38094">
		<tag k="name" v="Furulund" />
		<tag k="place" v="farm" />
		<tag k="ssr:stedsnr" v="389411" />
	</node>
	<node lat="69.91980277716065" lon="23.46769435449959" id="-38098">
		<tag k="name" v="Isberget" />
		<tag k="place" v="farm" />
		<tag k="ssr:stedsnr" v="390157" />
	</node>
	<node lat="70.10227778475401" lon="23.325980461096005" id="-38099">
		<tag k="name" v="Ryggeløs" />
		<tag k="place" v="farm" />
		<tag k="ssr:stedsnr" v="390203" />
	</node>
	<node lat="69.88868611109366" lon="23.262502676659484" id="-38102">
		<tag k="name" v="Flatmark" />
		<tag k="place" v="farm" />
		<tag k="ssr:stedsnr" v="390644" />
	</node>
	<node lat="70.0300361097451" lon="22.982158256462306" id="-38126">
		<tag k="name" v="Duggelv" />
		<tag k="place" v="farm" />
		<tag k="ssr:stedsnr" v="409820" />
	</node>
	<node lat="69.90196921051377" lon="23.2469899778866" id="-38139">
		<tag k="alt_name" v="Litlebakken" />
		<tag k="name" v="Lillebakken" />
		<tag k="place" v="farm" />
		<tag k="ssr:stedsnr" v="444305" />
	</node>
	<node lat="69.91273889230658" lon="23.029488810994412" id="-38142">
		<tag k="name" v="Gryteng" />
		<tag k="place" v="farm" />
		<tag k="ssr:stedsnr" v="444295" />
	</node>
	<node lat="70.01975833358762" lon="22.293866608424757" id="-38147">
		<tag k="alt_name" v="Fjellbakken" />
		<tag k="name" v="Garmo" />
		<tag k="place" v="farm" />
		<tag k="ssr:stedsnr" v="444588" />
	</node>
	<node lat="70.14049722554525" lon="23.23012492626886" id="-38149">
		<tag k="name" v="Bukta" />
		<tag k="place" v="hamlet" />
		<tag k="ssr:stedsnr" v="444630" />
	</node>
	<node lat="70.0141972264388" lon="23.52762767409858" id="-38161">
		<tag k="loc_name:se" v="Láhtetnjárga" />
		<tag k="name" v="Bunes" />
		<tag k="name:no" v="Bunes" />
		<tag k="place" v="farm" />
		<tag k="ssr:stedsnr" v="444981" />
	</node>
	<node lat="70.02773889506969" lon="22.926555483231212" id="-38169">
		<tag k="name" v="Gammelheimen" />
		<tag k="place" v="farm" />
		<tag k="ssr:stedsnr" v="450178" />
	</node>
	<node lat="69.8680111168198" lon="23.318452682260954" id="-38170">
		<tag k="name" v="Tvislebakken" />
		<tag k="place" v="farm" />
		<tag k="ssr:stedsnr" v="450309" />
	</node>
	<node lat="69.86955277737057" lon="23.311361021030343" id="-38171">
		<tag k="name" v="Frydenlund" />
		<tag k="place" v="farm" />
		<tag k="ssr:stedsnr" v="450314" />
	</node>
	<node lat="69.94941111208308" lon="23.19848602119715" id="-38173">
		<tag k="name" v="Nyheim" />
		<tag k="place" v="farm" />
		<tag k="ssr:stedsnr" v="450483" />
	</node>
	<node lat="69.88562500059425" lon="23.205499925246016" id="-38175">
		<tag k="name" v="Bjørkevold" />
		<tag k="place" v="farm" />
		<tag k="ssr:stedsnr" v="450378" />
	</node>
	<node lat="70.02022222080106" lon="22.904499919142317" id="-38177">
		<tag k="name" v="Tyristua" />
		<tag k="place" v="isolated_dwelling" />
		<tag k="ssr:stedsnr" v="451011" />
	</node>
	<node lat="69.94670000775639" lon="23.362794351238033" id="-38181">
		<tag k="name" v="Raipasin-tausta" />
		<tag k="name:fkv" v="Raipasin-tausta" />
		<tag k="place" v="hamlet" />
		<tag k="ssr:stedsnr" v="450784" />
	</node>
	<node lat="69.92135000153598" lon="23.46837212958308" id="-38183">
		<tag k="name" v="Setermo" />
		<tag k="place" v="farm" />
		<tag k="ssr:stedsnr" v="451175" />
	</node>
	<node lat="69.9501833331425" lon="23.362044349459953" id="-38211">
		<tag k="name" v="Mobakken" />
		<tag k="place" v="farm" />
		<tag k="ssr:stedsnr" v="504368" />
	</node>
	<node lat="69.93895555459181" lon="23.288530465295473" id="-38226">
		<tag k="name" v="Skogdal" />
		<tag k="place" v="farm" />
		<tag k="ssr:stedsnr" v="505412" />
	</node>
	<node lat="70.08478889067273" lon="22.98521938208842" id="-38229">
		<tag k="name" v="Hovdenes" />
		<tag k="place" v="farm" />
		<tag k="ssr:stedsnr" v="505705" />
	</node>
	<node lat="69.97752222016413" lon="23.478630469065795" id="-38244">
		<tag k="name" v="Reinholdtholmen" />
		<tag k="place" v="farm" />
		<tag k="ssr:stedsnr" v="511053" />
	</node>
	<node lat="70.04354166530436" lon="22.94391381019298" id="-38248">
		<tag k="name" v="Mogjerdet" />
		<tag k="place" v="isolated_dwelling" />
		<tag k="ssr:stedsnr" v="511195" />
	</node>
	<node lat="69.87531943490913" lon="23.18011856843386" id="-38249">
		<tag k="name" v="Roligheten" />
		<tag k="place" v="farm" />
		<tag k="ssr:stedsnr" v="511401" />
	</node>
	<node lat="69.8871777761894" lon="23.275202693471847" id="-38262">
		<tag k="name" v="Aaset søndre" />
		<tag k="place" v="farm" />
		<tag k="ssr:stedsnr" v="512705" />
	</node>
	<node lat="70.04053611463429" lon="22.269308281340304" id="-38287">
		<tag k="name" v="Russelvnes" />
		<tag k="place" v="farm" />
		<tag k="ssr:stedsnr" v="531728" />
	</node>
	<node lat="69.9575055576133" lon="23.093963814851595" id="-38293">
		<tag k="name" v="Haugen" />
		<tag k="place" v="farm" />
		<tag k="ssr:stedsnr" v="686377" />
	</node>
	<node lat="69.96487500392753" lon="23.40185825387672" id="-38298">
		<tag k="alt_name" v="Teglplana" />
		<tag k="name" v="Teigplana" />
		<tag k="place" v="farm" />
		<tag k="ssr:stedsnr" v="686409" />
	</node>
	<node lat="69.96163889027194" lon="23.105663819153897" id="-38299">
		<tag k="alt_name" v="Løveng" />
		<tag k="name" v="Lauveng" />
		<tag k="place" v="farm" />
		<tag k="ssr:stedsnr" v="686413" />
	</node>
	<node lat="69.96898333409767" lon="23.429633238595976" id="-38313">
		<tag k="fixme" v="consider place=suburb, village or hamlet" />
		<tag k="name" v="Nerskogen - Alaouta" />
		<tag k="name:fkv" v="Alaouta" />
		<tag k="name:no" v="Nerskogen" />
		<tag k="place" v="quarter" />
		<tag k="ssr:stedsnr" v="686656" />
	</node>
	<node lat="70.10860278068333" lon="22.886463831915382" id="-38322">
		<tag k="name" v="Elvenes" />
		<tag k="place" v="hamlet" />
		<tag k="ssr:stedsnr" v="686721" />
	</node>
	<node lat="69.81363611569856" lon="23.481538804832365" id="-38323">
		<tag k="fixme" v="consider place=hamlet" />
		<tag k="name" v="Gargia - Karkia" />
		<tag k="name:fkv" v="Karkia" />
		<tag k="name:no" v="Gargia" />
		<tag k="place" v="village" />
		<tag k="ssr:stedsnr" v="686726" />
	</node>
	<node lat="70.03015555801575" lon="23.509980447911467" id="-38337">
		<tag k="name" v="Elvehaugen" />
		<tag k="place" v="farm" />
		<tag k="ssr:stedsnr" v="686973" />
	</node>
	<node lat="69.86809444812067" lon="22.97161936666668" id="-38344">
		<tag k="name" v="Nordhus" />
		<tag k="place" v="farm" />
		<tag k="ssr:stedsnr" v="687277" />
	</node>
	<node lat="69.9457222208897" lon="23.257833248829577" id="-38346">
		<tag k="name" v="Berge" />
		<tag k="place" v="farm" />
		<tag k="ssr:stedsnr" v="687421" />
	</node>
	<node lat="70.31078055529888" lon="23.48321658314845" id="-38356">
		<tag k="alt_name" v="Ytre Laukeng" />
		<tag k="name" v="Laukeng" />
		<tag k="place" v="hamlet" />
		<tag k="ssr:stedsnr" v="687801" />
	</node>
	<node lat="70.33709515121629" lon="23.062604763876184" id="-38370">
		<tag k="name" v="Dagsvoll - Beaivvašgieddi" />
		<tag k="name:no" v="Dagsvoll" />
		<tag k="name:se" v="Beaivvašgieddi" />
		<tag k="old_name:se" v="Bæivašgieddi" />
		<tag k="place" v="farm" />
		<tag k="ssr:stedsnr" v="687882" />
	</node>
	<node lat="70.27963611565882" lon="23.387230468538885" id="-38375">
		<tag k="name" v="Garnasen - Gárnášša" />
		<tag k="name:no" v="Garnasen" />
		<tag k="name:se" v="Gárnášša" />
		<tag k="old_name:se" v="Garnašša" />
		<tag k="place" v="farm" />
		<tag k="ssr:stedsnr" v="687929" />
	</node>
	<node lat="70.02035555701097" lon="23.536952691354298" id="-38378">
		<tag k="alt_name" v="Rishaug" />
		<tag k="name" v="Rishaugen" />
		<tag k="place" v="farm" />
		<tag k="ssr:stedsnr" v="687977" />
	</node>
	<node lat="69.82121667087983" lon="23.479174906374002" id="-38386">
		<tag k="name" v="Storeng" />
		<tag k="place" v="farm" />
		<tag k="ssr:stedsnr" v="564709" />
	</node>
	<node lat="70.36825333170661" lon="22.88974101479021" id="-38390">
		<tag k="name" v="Høyvik" />
		<tag k="place" v="locality" />
		<tag k="ssr:stedsnr" v="565015" />
	</node>
	<node lat="69.94252222045611" lon="23.29238325065551" id="-38402">
		<tag k="name" v="Masternes" />
		<tag k="place" v="farm" />
		<tag k="ssr:stedsnr" v="565404" />
	</node>
	<node lat="69.94526389008263" lon="23.198222147224183" id="-38404">
		<tag k="name" v="Øvergård" />
		<tag k="place" v="farm" />
		<tag k="ssr:stedsnr" v="565408" />
	</node>
	<node lat="69.94176111333671" lon="23.315422140261752" id="-38408">
		<tag k="name" v="Holmen" />
		<tag k="place" v="farm" />
		<tag k="ssr:stedsnr" v="565413" />
	</node>
	<node lat="69.98064167206097" lon="23.49312491550673" id="-38427">
		<tag k="name" v="Padooda" />
		<tag k="name:fkv" v="Padooda" />
		<tag k="place" v="farm" />
		<tag k="ssr:stedsnr" v="693053" />
	</node>
	<node lat="70.04599624728048" lon="22.958745290422325" id="-38428">
		<tag k="name" v="Talvik" />
		<tag k="place" v="farm" />
		<tag k="ssr:stedsnr" v="693067" />
	</node>
	<node lat="70.04623333747259" lon="22.959049931052515" id="-38429">
		<tag k="name" v="Øra" />
		<tag k="place" v="hamlet" />
		<tag k="ssr:stedsnr" v="693068" />
	</node>
	<node lat="69.93850000566898" lon="23.31081657686273" id="-38435">
		<tag k="name" v="Stengelsholmen" />
		<tag k="place" v="farm" />
		<tag k="ssr:stedsnr" v="693261" />
	</node>
	<node lat="69.96330000282755" lon="23.261927692599382" id="-38440">
		<tag k="name" v="Alta prestegård" />
		<tag k="place" v="farm" />
		<tag k="ssr:stedsnr" v="693629" />
	</node>
	<node lat="70.07430155599518" lon="22.982449973204194" id="-38443">
		<tag k="alt_name" v="Gjermundshest" />
		<tag k="name" v="Gjermund-hessen" />
		<tag k="place" v="farm" />
		<tag k="ssr:stedsnr" v="571020" />
	</node>
	<node lat="69.92285278225215" lon="23.269036030884727" id="-38446">
		<tag k="name" v="Skogro" />
		<tag k="place" v="farm" />
		<tag k="ssr:stedsnr" v="571206" />
	</node>
	<node lat="70.01596584737901" lon="23.042619705295987" id="-38447">
		<tag k="name" v="Westervoll" />
		<tag k="place" v="farm" />
		<tag k="ssr:stedsnr" v="571351" />
	</node>
	<node lat="69.9523527790045" lon="23.323911017770897" id="-38451">
		<tag k="name" v="Mikkelholmen" />
		<tag k="place" v="farm" />
		<tag k="ssr:stedsnr" v="693790" />
	</node>
	<node lat="69.95717778338026" lon="23.369677677637984" id="-38453">
		<tag k="alt_name:fkv" v="Kaiskuro" />
		<tag k="name" v="Kaiskuru" />
		<tag k="name:fkv" v="Kaiskuru" />
		<tag k="place" v="quarter" />
		<tag k="ssr:stedsnr" v="693801" />
	</node>
	<node lat="70.34871944967442" lon="22.788399928624674" id="-38455">
		<tag k="name" v="Myrbakken" />
		<tag k="place" v="farm" />
		<tag k="ssr:stedsnr" v="571801" />
	</node>
	<node lat="69.92841111869505" lon="23.498408233504282" id="-38457">
		<tag k="name" v="Bjerke" />
		<tag k="place" v="farm" />
		<tag k="ssr:stedsnr" v="572062" />
	</node>
	<node lat="69.83467499932314" lon="23.4826915766744" id="-38459">
		<tag k="name" v="Gargiaholmen" />
		<tag k="place" v="farm" />
		<tag k="ssr:stedsnr" v="572158" />
	</node>
	<node lat="69.92910555582024" lon="23.495488791595154" id="-38469">
		<tag k="name" v="Strandsletta" />
		<tag k="place" v="farm" />
		<tag k="ssr:stedsnr" v="694040" />
	</node>
	<node lat="69.8677638929206" lon="23.27882770432273" id="-38475">
		<tag k="name" v="Svingen" />
		<tag k="place" v="farm" />
		<tag k="ssr:stedsnr" v="694331" />
	</node>
	<node lat="70.0137611153633" lon="23.566263791282893" id="-38478">
		<tag k="name" v="Moen" />
		<tag k="place" v="farm" />
		<tag k="ssr:stedsnr" v="694440" />
	</node>
	<node lat="70.0950805538461" lon="22.82515549674253" id="-38498">
		<tag k="name" v="Rundbukt" />
		<tag k="place" v="farm" />
		<tag k="ssr:stedsnr" v="591826" />
	</node>
	<node lat="70.08276111659896" lon="22.46818884010878" id="-38512">
		<tag k="fixme" v="consider place=hamlet" />
		<tag k="name" v="Tappeluft - Dáhpeluokta" />
		<tag k="name:no" v="Tappeluft" />
		<tag k="name:se" v="Dáhpeluokta" />
		<tag k="old_name:se" v="Dappeluokta" />
		<tag k="place" v="village" />
		<tag k="ssr:stedsnr" v="625505" />
	</node>
	<node lat="70.03146666553613" lon="22.28014440058124" id="-38513">
		<tag k="name" v="Midtskog" />
		<tag k="place" v="farm" />
		<tag k="ssr:stedsnr" v="625604" />
	</node>
	<node lat="70.13193333300356" lon="23.35266101780166" id="-38521">
		<tag k="alt_name" v="Masvik;Massvik" />
		<tag k="name" v="Madsvik" />
		<tag k="place" v="farm" />
		<tag k="ssr:stedsnr" v="625753" />
	</node>
	<node lat="70.0284305544632" lon="23.458416577235408" id="-38524">
		<tag k="loc_name:se" v="Boaressiidasajji" />
		<tag k="name" v="Gammelheim" />
		<tag k="name:no" v="Gammelheim" />
		<tag k="place" v="hamlet" />
		<tag k="ssr:stedsnr" v="625901" />
	</node>
	<node lat="69.92763611503374" lon="23.239297148909312" id="-38530">
		<tag k="name" v="Skoglund" />
		<tag k="place" v="farm" />
		<tag k="ssr:stedsnr" v="626452" />
	</node>
	<node lat="70.29876150354674" lon="23.605969873446863" id="-38533">
		<tag k="name" v="Elvegarden" />
		<tag k="place" v="isolated_dwelling" />
		<tag k="ssr:stedsnr" v="626807" />
	</node>
	<node lat="69.88555000461284" lon="23.261886037246736" id="-38540">
		<tag k="name" v="Stengelsmoen" />
		<tag k="place" v="farm" />
		<tag k="ssr:stedsnr" v="630945" />
	</node>
	<node lat="69.98333333384409" lon="23.483333236141117" id="-38541">
		<tag k="fixme" v="consider place=hamlet" />
		<tag k="name" v="Midtstrand" />
		<tag k="place" v="village" />
		<tag k="ssr:stedsnr" v="630996" />
	</node>
	<node lat="70.02724166769744" lon="23.501805465912977" id="-38545">
		<tag k="loc_name:se" v="Gárdatluohkká" />
		<tag k="name" v="Gjerdebakken" />
		<tag k="name:no" v="Gjerdebakken" />
		<tag k="place" v="farm" />
		<tag k="ssr:stedsnr" v="632038" />
	</node>
	<node lat="69.88063055664597" lon="23.189724903713472" id="-38547">
		<tag k="name" v="Tyvold" />
		<tag k="place" v="farm" />
		<tag k="ssr:stedsnr" v="632414" />
	</node>
	<node lat="69.87944722220361" lon="23.187816574900346" id="-38548">
		<tag k="name" v="Nyheim" />
		<tag k="place" v="farm" />
		<tag k="ssr:stedsnr" v="632415" />
	</node>
	<node lat="69.84098334000602" lon="23.45552212637529" id="-38555">
		<tag k="name" v="Bolloholmen" />
		<tag k="place" v="farm" />
		<tag k="ssr:stedsnr" v="633177" />
	</node>
	<node lat="69.93739445186792" lon="23.10216658154437" id="-38559">
		<tag k="name" v="Kvenviknes" />
		<tag k="place" v="farm" />
		<tag k="ssr:stedsnr" v="633495" />
	</node>
	<node lat="70.20847777696927" lon="22.62632493375663" id="-38570">
		<tag k="name" v="Sommarset" />
		<tag k="place" v="locality" />
		<tag k="ssr:stedsnr" v="640716" />
	</node>
	<node lat="70.03614246861115" lon="22.27433968445645" id="-38592">
		<tag k="name" v="Søre Nordskog" />
		<tag k="place" v="farm" />
		<tag k="ssr:stedsnr" v="652704" />
	</node>
	<node lat="70.08352500113698" lon="22.6176943801952" id="-38593">
		<tag k="name" v="Kastnes" />
		<tag k="place" v="farm" />
		<tag k="ssr:stedsnr" v="652684" />
	</node>
	<node lat="70.1443722217799" lon="23.268036026115617" id="-38642">
		<tag k="name" v="Kongshus" />
		<tag k="place" v="hamlet" />
		<tag k="ssr:stedsnr" v="686641" />
	</node>
	<node lat="70.2268466839013" lon="23.339288293267312" id="-38644">
		<tag k="name" v="Fjellstrand" />
		<tag k="place" v="isolated_dwelling" />
		<tag k="ssr:stedsnr" v="686586" />
	</node>
	<node lat="70.12461666837426" lon="23.400319343354358" id="-38646">
		<tag k="alt_name" v="Fossebakken" />
		<tag k="name" v="Fossbakken" />
		<tag k="place" v="farm" />
		<tag k="ssr:stedsnr" v="686737" />
	</node>
	<node lat="69.91504444751297" lon="23.632074903441644" id="-38659">
		<tag k="alt_name" v="Østerelvsetra" />
		<tag k="name" v="Austerelvsætra" />
		<tag k="place" v="locality" />
		<tag k="ssr:stedsnr" v="687641" />
	</node>
	<node lat="70.06980000044362" lon="22.98814159836363" id="-38664">
		<tag k="alt_name:no" v="Finnsjåen" />
		<tag k="loc_name:no" v="Finnsjå" />
		<tag k="loc_name:se" v="Finskievvu" />
		<tag k="name" v="Finnskjåen" />
		<tag k="name:no" v="Finnskjåen" />
		<tag k="place" v="farm" />
		<tag k="ssr:stedsnr" v="687707" />
	</node>
	<node lat="70.3248417225023" lon="23.513104012774527" id="-38668">
		<tag k="name" v="Moen" />
		<tag k="place" v="farm" />
		<tag k="ssr:stedsnr" v="687795" />
	</node>
	<node lat="70.02660833989863" lon="23.519919338160754" id="-38677">
		<tag k="name" v="Furumoen" />
		<tag k="place" v="farm" />
		<tag k="ssr:stedsnr" v="693025" />
	</node>
	<node lat="69.95201389264793" lon="23.27419991292643" id="-38684">
		<tag k="name" v="Rostad" />
		<tag k="place" v="farm" />
		<tag k="ssr:stedsnr" v="693804" />
	</node>
	<node lat="69.95872222608976" lon="23.308244365759162" id="-38685">
		<tag k="name" v="Lillejord" />
		<tag k="place" v="farm" />
		<tag k="ssr:stedsnr" v="693806" />
	</node>
	<node lat="69.95096944364187" lon="23.243416584127083" id="-38689">
		<tag k="name" v="Myreng" />
		<tag k="place" v="farm" />
		<tag k="ssr:stedsnr" v="693769" />
	</node>
	<node lat="69.8622972283767" lon="23.31635547924387" id="-38696">
		<tag k="name" v="Tvestrømmen" />
		<tag k="place" v="farm" />
		<tag k="ssr:stedsnr" v="694723" />
	</node>
	<node lat="70.0566055527023" lon="22.361013845962486" id="-38702">
		<tag k="name" v="Langfjord" />
		<tag k="place" v="hamlet" />
		<tag k="ssr:stedsnr" v="697218" />
	</node>
	<node lat="70.26428889241221" lon="23.346669359333575" id="-38706">
		<tag k="name" v="Jakobsslått" />
		<tag k="place" v="farm" />
		<tag k="ssr:stedsnr" v="701115" />
	</node>
	<node lat="70.12705668162911" lon="23.370337610273342" id="-38724">
		<tag k="name" v="Nordmannsgammen" />
		<tag k="place" v="farm" />
		<tag k="ssr:stedsnr" v="713997" />
	</node>
	<node lat="69.9781694489254" lon="23.454866579266692" id="-38739">
		<tag k="name" v="Rismyr" />
		<tag k="place" v="farm" />
		<tag k="ssr:stedsnr" v="747268" />
	</node>
	<node lat="69.89480000588544" lon="23.21154158950941" id="-38741">
		<tag k="name" v="Fjellmyr" />
		<tag k="place" v="farm" />
		<tag k="ssr:stedsnr" v="747365" />
	</node>
	<node lat="69.95102222589023" lon="23.396424908346045" id="-38743">
		<tag k="name" v="Nordset" />
		<tag k="place" v="farm" />
		<tag k="ssr:stedsnr" v="747372" />
	</node>
	<node lat="70.03356667408768" lon="22.935477699452207" id="-38762">
		<tag k="name" v="Huglin" />
		<tag k="place" v="locality" />
		<tag k="ssr:stedsnr" v="753161" />
	</node>
	<node lat="69.93837778344773" lon="23.32430268712529" id="-38764">
		<tag k="name" v="Raipasin ala" />
		<tag k="name:fkv" v="Raipasin ala" />
		<tag k="place" v="farm" />
		<tag k="ssr:stedsnr" v="753171" />
	</node>
	<node lat="69.95653611092207" lon="23.23720269575553" id="-38766">
		<tag k="name" v="Bakkejord" />
		<tag k="place" v="farm" />
		<tag k="ssr:stedsnr" v="753573" />
	</node>
	<node lat="69.93442500190716" lon="23.247172132381618" id="-38767">
		<tag k="name" v="Flaten" />
		<tag k="place" v="farm" />
		<tag k="ssr:stedsnr" v="753754" />
	</node>
	<node lat="69.93550000357679" lon="23.24998603215765" id="-38768">
		<tag k="name" v="Steinfossen" />
		<tag k="place" v="farm" />
		<tag k="ssr:stedsnr" v="753755" />
	</node>
	<node lat="69.93168611602162" lon="23.430597132812235" id="-38774">
		<tag k="name" v="Furubakken" />
		<tag k="place" v="farm" />
		<tag k="ssr:stedsnr" v="754112" />
	</node>
	<node lat="69.92910278206696" lon="23.44850822943884" id="-38776">
		<tag k="name" v="Pelkiouta" />
		<tag k="name:fkv" v="Pelkiouta" />
		<tag k="place" v="hamlet" />
		<tag k="ssr:stedsnr" v="754101" />
	</node>
	<node lat="69.94087500390525" lon="23.29566935715429" id="-38781">
		<tag k="name" v="Sarholmen søndre" />
		<tag k="place" v="farm" />
		<tag k="ssr:stedsnr" v="754267" />
	</node>
	<node lat="69.8672277788971" lon="23.282983250930876" id="-38784">
		<tag k="name" v="Norddal" />
		<tag k="place" v="farm" />
		<tag k="ssr:stedsnr" v="754402" />
	</node>
	<node lat="70.31771388803192" lon="23.469274914362046" id="-38794">
		<tag k="name" v="Vargo" />
		<tag k="place" v="locality" />
		<tag k="ssr:stedsnr" v="762114" />
	</node>
	<node lat="70.0884277772839" lon="22.765983260547355" id="-38808">
		<tag k="name" v="Mosesheimen" />
		<tag k="place" v="farm" />
		<tag k="ssr:stedsnr" v="773815" />
	</node>
	<node lat="69.90547860903808" lon="23.01897925088965" id="-38826">
		<tag k="alt_name" v="Stokkestad" />
		<tag k="name" v="Stokkstad" />
		<tag k="place" v="farm" />
		<tag k="ssr:stedsnr" v="808301" />
	</node>
	<node lat="70.32473312935322" lon="23.513187334164957" id="-38847">
		<tag k="fixme" v="consider place=hamlet" />
		<tag k="name" v="Lille Lerresfjord - Liidnavuonna" />
		<tag k="name:no" v="Lille Lerresfjord" />
		<tag k="name:se" v="Liidnavuonna" />
		<tag k="place" v="village" />
		<tag k="ssr:stedsnr" v="809790" />
	</node>
	<node lat="69.97501667057661" lon="23.353452687807064" id="-38850">
		<tag k="landuse" v="military" />
		<tag k="name" v="Altagård" />
		<tag k="ssr:stedsnr" v="813933" />
	</node>
	<node lat="70.1294555616203" lon="23.409805460083966" id="-38851">
		<tag k="name" v="Krekedalen" />
		<tag k="place" v="locality" />
		<tag k="ssr:stedsnr" v="814015" />
	</node>
	<node lat="69.93277777764551" lon="23.47803879352429" id="-38854">
		<tag k="name" v="Gamengbakken" />
		<tag k="place" v="farm" />
		<tag k="ssr:stedsnr" v="814082" />
	</node>
	<node lat="69.95109722880504" lon="23.172372144067204" id="-38857">
		<tag k="building" v="civic" />
		<tag k="name" v="Decca-stasjon" />
		<tag k="ssr:stedsnr" v="814506" />
	</node>
	<node lat="69.86344445254772" lon="23.32431101217199" id="-38865">
		<tag k="name" v="Setra" />
		<tag k="place" v="farm" />
		<tag k="ssr:stedsnr" v="815705" />
	</node>
	<node lat="69.86221666795927" lon="23.32546934610212" id="-38866">
		<tag k="name" v="Laksesletta" />
		<tag k="place" v="farm" />
		<tag k="ssr:stedsnr" v="815726" />
	</node>
	<node lat="69.890266668855" lon="23.247447144754187" id="-38898">
		<tag k="fixme" v="multiple name tags, choose one and add the other to alt_name" />
		<tag k="name" v="Tangen;Tangen østre" />
		<tag k="place" v="farm" />
		<tag k="ssr:stedsnr" v="929337" />
	</node>
	<node lat="70.20595000387283" lon="22.621074948340656" id="-38904">
		<tag k="name" v="Sommarbukt" />
		<tag k="place" v="locality" />
		<tag k="ssr:stedsnr" v="929388" />
	</node>
	<node lat="70.07702053742821" lon="22.57857567398891" id="-38907">
		<tag k="name" v="Langelva" />
		<tag k="place" v="farm" />
		<tag k="ssr:stedsnr" v="929499" />
	</node>
	<node lat="70.06168888739263" lon="22.517772152986726" id="-38908">
		<tag k="alt_name" v="Kjerringdal, yt" />
		<tag k="name" v="Ytre Kjerringdal" />
		<tag k="old_name" v="Kjerringdal" />
		<tag k="place" v="farm" />
		<tag k="ssr:stedsnr" v="929487" />
	</node>
	<node lat="70.0561194444338" lon="22.441224949724578" id="-38909">
		<tag k="alt_name" v="Kjerringdal, in" />
		<tag k="name" v="Indre Kjerringdal" />
		<tag k="place" v="farm" />
		<tag k="ssr:stedsnr" v="929489" />
	</node>
	<node lat="70.22541944561124" lon="23.382858257586992" id="-38910">
		<tag k="name" v="Øyra" />
		<tag k="place" v="farm" />
		<tag k="ssr:stedsnr" v="929548" />
	</node>
	<node lat="69.9732805572385" lon="23.48347491360218" id="-38923">
		<tag k="name" v="Elvenes" />
		<tag k="place" v="farm" />
		<tag k="ssr:stedsnr" v="929644" />
	</node>
	<node lat="70.07438109121823" lon="22.672387608988128" id="-38927">
		<tag k="fixme" v="multiple name tags, choose one and add the other to alt_name" />
		<tag k="name" v="Ulvsvåg;Indre Ulvsvåg" />
		<tag k="place" v="hamlet" />
		<tag k="ssr:stedsnr" v="929501" />
	</node>
	<node lat="69.95964167112385" lon="23.29753603303109" id="-38970">
		<tag k="name" v="Flaten" />
		<tag k="place" v="farm" />
		<tag k="ssr:stedsnr" v="869446" />
	</node>
	<node lat="70.07505032874369" lon="22.9822567219339" id="-38979">
		<tag k="name" v="Sørenstykket" />
		<tag k="place" v="isolated_dwelling" />
		<tag k="ssr:stedsnr" v="869723" />
	</node>
	<node lat="69.93586388865499" lon="23.39901934126752" id="-38996">
		<tag k="name" v="Moen" />
		<tag k="place" v="farm" />
		<tag k="ssr:stedsnr" v="930439" />
	</node>
	<node lat="70.29473333550538" lon="23.53599436358481" id="-39013">
		<tag k="name" v="Marivika" />
		<tag k="place" v="farm" />
		<tag k="ssr:stedsnr" v="930816" />
	</node>
	<node lat="69.9227083363683" lon="23.477699916703553" id="-39030">
		<tag k="name" v="Myrseth" />
		<tag k="place" v="farm" />
		<tag k="ssr:stedsnr" v="876115" />
	</node>
	<node lat="70.09870278257279" lon="23.34817492480425" id="-39032">
		<tag k="name" v="Selbakken" />
		<tag k="place" v="farm" />
		<tag k="ssr:stedsnr" v="876202" />
	</node>
	<node lat="69.94580277798751" lon="23.194336018957088" id="-39033">
		<tag k="name" v="Nyeng" />
		<tag k="place" v="farm" />
		<tag k="ssr:stedsnr" v="876506" />
	</node>
	<node lat="69.87606170977234" lon="23.181031640660784" id="-39039">
		<tag k="name" v="Lundmark" />
		<tag k="place" v="farm" />
		<tag k="ssr:stedsnr" v="876424" />
	</node>
	<node lat="69.9385944438775" lon="23.128236036962097" id="-39041">
		<tag k="name" v="Kvenvikbukta" />
		<tag k="place" v="locality" />
		<tag k="ssr:stedsnr" v="876463" />
	</node>
	<node lat="69.86018611200976" lon="23.337174902339388" id="-39046">
		<tag k="name" v="Fjelldalen" />
		<tag k="place" v="farm" />
		<tag k="ssr:stedsnr" v="876751" />
	</node>
	<node lat="70.05694167116886" lon="22.456199957510577" id="-39052">
		<tag k="loc_name:se" v="Siskkit Áhkkávággi" />
		<tag k="name" v="Indre Kjerringdal" />
		<tag k="name:no" v="Indre Kjerringdal" />
		<tag k="place" v="hamlet" />
		<tag k="ssr:stedsnr" v="880300" />
	</node>
	<node lat="70.26145000636308" lon="23.412133257845834" id="-39053">
		<tag k="name" v="Komagfjordbotn" />
		<tag k="place" v="farm" />
		<tag k="ssr:stedsnr" v="883121" />
	</node>
	<node lat="70.33290555691342" lon="23.058958268288453" id="-39055">
		<tag k="name" v="Myreng" />
		<tag k="place" v="farm" />
		<tag k="ssr:stedsnr" v="883554" />
	</node>
	<node lat="70.26543333640517" lon="23.376461013921393" id="-39058">
		<tag k="name" v="Nygård" />
		<tag k="place" v="hamlet" />
		<tag k="ssr:stedsnr" v="934998" />
	</node>
	<node lat="69.96189987597889" lon="23.392136592650825" id="-39076">
		<tag k="name" v="Kroken" />
		<tag k="place" v="farm" />
		<tag k="ssr:stedsnr" v="895798" />
	</node>
	<node lat="70.0771972262244" lon="22.42876940039043" id="-39086">
		<tag k="name" v="Elvedal" />
		<tag k="place" v="locality" />
		<tag k="ssr:stedsnr" v="929504" />
	</node>
	<node lat="69.81695555901129" lon="23.62084432621708" id="-39100">
		<tag k="name" v="Sandiagården" />
		<tag k="place" v="isolated_dwelling" />
		<tag k="ssr:stedsnr" v="929723" />
	</node>
	<node lat="70.02235000045958" lon="23.363366574070987" id="-39104">
		<tag k="loc_name:fkv" v="Ruoslahti" />
		<tag k="name" v="Russeluft - Ruoššaluovta" />
		<tag k="name:no" v="Russeluft" />
		<tag k="name:se" v="Ruoššaluovta" />
		<tag k="place" v="hamlet" />
		<tag k="ssr:stedsnr" v="929755" />
	</node>
	<node lat="69.91093611599862" lon="23.492149903620916" id="-39106">
		<tag k="alt_name" v="Gammelsætra;Gammelseteren" />
		<tag k="name" v="Gammelsetra" />
		<tag k="place" v="locality" />
		<tag k="ssr:stedsnr" v="929650" />
	</node>
	<node lat="70.0409500063175" lon="22.926363822156087" id="-39107">
		<tag k="name" v="Blåberg" />
		<tag k="place" v="farm" />
		<tag k="ssr:stedsnr" v="929805" />
	</node>
	<node lat="69.91133334040536" lon="23.039744367813647" id="-39113">
		<tag k="name" v="Valset" />
		<tag k="place" v="farm" />
		<tag k="ssr:stedsnr" v="930351" />
	</node>
	<node lat="69.93899722408602" lon="23.028644373953647" id="-39118">
		<tag k="fixme" v="consider place=hamlet" />
		<tag k="loc_name:fkv" v="Kaavuono" />
		<tag k="loc_name:se" v="Gávvuonna" />
		<tag k="name" v="Kåfjord" />
		<tag k="name:no" v="Kåfjord" />
		<tag k="place" v="village" />
		<tag k="ssr:stedsnr" v="930448" />
	</node>
	<node lat="70.33727500007234" lon="22.832933276940814" id="-39125">
		<tag k="name" v="Bollu" />
		<tag k="name:se" v="Bollu" />
		<tag k="old_name:se" v="Bållo" />
		<tag k="place" v="farm" />
		<tag k="ssr:stedsnr" v="930882" />
	</node>
	<node lat="69.92797778302668" lon="23.31330545857286" id="-39133">
		<tag k="name" v="Rosten" />
		<tag k="place" v="farm" />
		<tag k="ssr:stedsnr" v="936204" />
	</node>
	<node lat="69.92560556078669" lon="23.317766577863818" id="-39134">
		<tag k="name" v="Volden" />
		<tag k="place" v="farm" />
		<tag k="ssr:stedsnr" v="936206" />
	</node>
	<node lat="69.9253555587636" lon="23.241799928574046" id="-39137">
		<tag k="name" v="Myreng" />
		<tag k="place" v="farm" />
		<tag k="ssr:stedsnr" v="936191" />
	</node>
	<node lat="69.93507778381665" lon="23.326480468193136" id="-39138">
		<tag k="name" v="Risbakken" />
		<tag k="place" v="farm" />
		<tag k="ssr:stedsnr" v="936195" />
	</node>
	<node lat="69.93686389439144" lon="23.308224925872025" id="-39139">
		<tag k="name" v="Kjosheim" />
		<tag k="place" v="farm" />
		<tag k="ssr:stedsnr" v="936197" />
	</node>
	<node lat="69.97825000691377" lon="23.54378600367147" id="-39141">
		<tag k="name" v="Nussurasletta" />
		<tag k="name:se" v="Nussurasletta" />
		<tag k="place" v="locality" />
		<tag k="ssr:stedsnr" v="936445" />
	</node>
	<node lat="69.94420278196088" lon="23.180827690951432" id="-39143">
		<tag k="name" v="Steine" />
		<tag k="place" v="farm" />
		<tag k="ssr:stedsnr" v="936484" />
	</node>
	<node lat="70.02851111254859" lon="23.407899921326347" id="-39152">
		<tag k="name" v="Seterbakken" />
		<tag k="place" v="farm" />
		<tag k="ssr:stedsnr" v="937039" />
	</node>
	<node lat="69.96905000028924" lon="23.352949918391186" id="-39155">
		<tag k="name" v="Sandfallmo" />
		<tag k="place" v="farm" />
		<tag k="ssr:stedsnr" v="937216" />
	</node>
	<node lat="69.88925000685256" lon="23.244922141443446" id="-39160">
		<tag k="name" v="Tangen vestre" />
		<tag k="place" v="farm" />
		<tag k="ssr:stedsnr" v="937705" />
	</node>
	<node lat="69.89173889073264" lon="23.281783252417085" id="-39161">
		<tag k="name" v="Aaset" />
		<tag k="place" v="farm" />
		<tag k="ssr:stedsnr" v="937713" />
	</node>
	<node lat="70.05343889289641" lon="22.325052725622818" id="-39165">
		<tag k="name" v="Fjellsletta" />
		<tag k="place" v="farm" />
		<tag k="ssr:stedsnr" v="228744" />
	</node>
	<node lat="70.03000833728518" lon="22.2815527285006" id="-39166">
		<tag k="name" v="Laukeng" />
		<tag k="place" v="farm" />
		<tag k="ssr:stedsnr" v="228752" />
	</node>
	<node lat="70.0319444466057" lon="22.319880505032117" id="-39167">
		<tag k="name" v="Indre Oldernes" />
		<tag k="place" v="farm" />
		<tag k="ssr:stedsnr" v="228753" />
	</node>
	<node lat="69.93886826486236" lon="22.922616700084752" id="-39183">
		<tag k="fixme" v="consider tourism=alpine_hut or tourism=chalet" />
		<tag k="name" v="Nordlysobservatoriet Halde" />
		<tag k="ssr:stedsnr" v="990984" />
		<tag k="tourism" v="wilderness_hut" />
	</node>
	<node lat="69.86011944467946" lon="23.330544342857365" id="-39199">
		<tag k="name" v="Ryeng" />
		<tag k="place" v="farm" />
		<tag k="ssr:stedsnr" v="19249" />
	</node>
	<node lat="69.8662194491186" lon="23.315749902818222" id="-39200">
		<tag k="name" v="Furulund" />
		<tag k="place" v="farm" />
		<tag k="ssr:stedsnr" v="19250" />
	</node>
	<node lat="69.98396944715043" lon="23.484516578396534" id="-39201">
		<tag k="name" v="Transfarelv - Gáidoš - Kaitusjoki" />
		<tag k="name:fkv" v="Kaitusjoki" />
		<tag k="name:no" v="Transfarelv" />
		<tag k="name:se" v="Gáidoš" />
		<tag k="place" v="hamlet" />
		<tag k="ssr:stedsnr" v="19256" />
	</node>
	<node lat="69.89021111437704" lon="23.256808252865625" id="-39203">
		<tag k="name" v="Fredlund" />
		<tag k="place" v="farm" />
		<tag k="ssr:stedsnr" v="19355" />
	</node>
	<node lat="69.9189777766592" lon="23.2726249080986" id="-39207">
		<tag k="name" v="Myrslett" />
		<tag k="place" v="farm" />
		<tag k="ssr:stedsnr" v="19326" />
	</node>
	<node lat="69.89329444466229" lon="23.20404992467482" id="-39208">
		<tag k="name" v="Bakkehaug" />
		<tag k="place" v="farm" />
		<tag k="ssr:stedsnr" v="19366" />
	</node>
	<node lat="69.94762777647337" lon="23.406569355696266" id="-39209">
		<tag k="name" v="Nybrott" />
		<tag k="place" v="farm" />
		<tag k="ssr:stedsnr" v="19373" />
	</node>
	<node lat="69.95203611313576" lon="23.280394357269657" id="-39210">
		<tag k="name" v="Myreng" />
		<tag k="place" v="farm" />
		<tag k="ssr:stedsnr" v="19379" />
	</node>
	<node lat="69.95180277728284" lon="23.26464992072356" id="-39211">
		<tag k="fixme" v="consider place=hamlet" />
		<tag k="loc_name:fkv" v="Keskiranta" />
		<tag k="name" v="Elvestrand" />
		<tag k="name:no" v="Elvestrand" />
		<tag k="place" v="village" />
		<tag k="ssr:stedsnr" v="19381" />
	</node>
	<node lat="69.96944722382655" lon="23.3735749020433" id="-39212">
		<tag k="loc_name:fkv" v="Joensuu;Jovensuu" />
		<tag k="loc_name:se" v="Joganjálbmi" />
		<tag k="name" v="Elvebakken" />
		<tag k="name:no" v="Elvebakken" />
		<tag k="place" v="suburb" />
		<tag k="ssr:stedsnr" v="19388" />
	</node>
	<node lat="69.9951500484963" lon="23.097006008786916" id="-39215">
		<tag k="alt_name" v="Sanden" />
		<tag k="name" v="Sand" />
		<tag k="place" v="farm" />
		<tag k="ssr:stedsnr" v="19462" />
	</node>
	<node lat="70.21418889069587" lon="23.202163814452973" id="-39221">
		<tag k="fixme" v="consider place=hamlet" />
		<tag k="name" v="Storekorsnes - Giranjárga" />
		<tag k="name:no" v="Storekorsnes" />
		<tag k="name:se" v="Giranjárga" />
		<tag k="old_name:no" v="Storekursnes" />
		<tag k="place" v="village" />
		<tag k="ssr:stedsnr" v="19539" />
	</node>
	<node lat="70.13858889186487" lon="23.328608262428514" id="-39223">
		<tag k="name" v="Mikkelsby" />
		<tag k="place" v="farm" />
		<tag k="ssr:stedsnr" v="19605" />
	</node>
	<node lat="69.8325166692184" lon="23.488119333711335" id="-39225">
		<tag k="name" v="Gargiasetra" />
		<tag k="place" v="isolated_dwelling" />
		<tag k="ssr:stedsnr" v="19613" />
	</node>
	<node lat="69.83527500247062" lon="23.457080470974258" id="-39227">
		<tag k="name" v="Solstad" />
		<tag k="place" v="farm" />
		<tag k="ssr:stedsnr" v="19615" />
	</node>
	<node lat="70.11350277989982" lon="22.89228047921803" id="-39237">
		<tag k="fixme" v="consider place=hamlet" />
		<tag k="loc_name:se" v="Stuora Sáttonjárga" />
		<tag k="name" v="Storsandnes" />
		<tag k="name:no" v="Storsandnes" />
		<tag k="place" v="village" />
		<tag k="ssr:stedsnr" v="19721" />
	</node>
	<node lat="70.01013333643493" lon="22.32261660551809" id="-39240">
		<tag k="name" v="Midtjord" />
		<tag k="old_name" v="Midtfjord" />
		<tag k="place" v="farm" />
		<tag k="ssr:stedsnr" v="19575" />
	</node>
	<node lat="70.02607499961171" lon="22.30881661760136" id="-39241">
		<tag k="name" v="Sandstrand" />
		<tag k="place" v="farm" />
		<tag k="ssr:stedsnr" v="19576" />
	</node>
	<node lat="70.02715000618164" lon="22.31119716976203" id="-39242">
		<tag k="alt_name" v="Raudmyr" />
		<tag k="name" v="Rødmyr" />
		<tag k="place" v="farm" />
		<tag k="ssr:stedsnr" v="19577" />
	</node>
	<node lat="69.92751944346608" lon="23.469544357055238" id="-39246">
		<tag k="alt_name" v="Smedslåtten" />
		<tag k="name" v="Smideslåtten" />
		<tag k="place" v="farm" />
		<tag k="ssr:stedsnr" v="19666" />
	</node>
	<node lat="70.11344722117703" lon="22.985780478077775" id="-39248">
		<tag k="name" v="Gjermundby" />
		<tag k="place" v="farm" />
		<tag k="ssr:stedsnr" v="19726" />
	</node>
	<node lat="70.13678381670698" lon="23.3344998933957" id="-39250">
		<tag k="alt_name" v="Elven" />
		<tag k="name" v="Elva" />
		<tag k="place" v="isolated_dwelling" />
		<tag k="ssr:stedsnr" v="19735" />
	</node>
	<node lat="70.01975000015088" lon="23.52859990409379" id="-39267">
		<tag k="name" v="Moen" />
		<tag k="place" v="farm" />
		<tag k="ssr:stedsnr" v="19964" />
	</node>
	<node lat="70.02255000395367" lon="23.52435824952769" id="-39269">
		<tag k="name" v="Solsletta" />
		<tag k="place" v="farm" />
		<tag k="ssr:stedsnr" v="19966" />
	</node>
	<node lat="69.95453333376715" lon="23.22442769717455" id="-39293">
		<tag k="name" v="Furuli" />
		<tag k="place" v="quarter" />
		<tag k="ssr:stedsnr" v="25610" />
	</node>
	<node lat="69.94430834093477" lon="23.32793601341128" id="-39294">
		<tag k="name" v="Bjerkesletten" />
		<tag k="place" v="farm" />
		<tag k="ssr:stedsnr" v="25797" />
	</node>
	<node lat="69.97508333302414" lon="23.487688800523582" id="-39300">
		<tag k="name" v="Elvenes nordre" />
		<tag k="place" v="farm" />
		<tag k="ssr:stedsnr" v="26010" />
	</node>
	<node lat="69.97086111861351" lon="23.442930452938057" id="-39303">
		<tag k="name" v="Kildeengen" />
		<tag k="place" v="farm" />
		<tag k="ssr:stedsnr" v="26073" />
	</node>
	<node lat="69.98667222871138" lon="23.501858231532214" id="-39306">
		<tag k="name" v="Kildeeng" />
		<tag k="place" v="farm" />
		<tag k="ssr:stedsnr" v="26062" />
	</node>
	<node lat="69.92848055723606" lon="23.26559990530746" id="-39309">
		<tag k="name" v="Stenfossholmen" />
		<tag k="place" v="farm" />
		<tag k="ssr:stedsnr" v="26247" />
	</node>
	<node lat="69.88913056112553" lon="23.211133251116408" id="-39314">
		<tag k="name" v="Flinkestad nedre" />
		<tag k="place" v="farm" />
		<tag k="ssr:stedsnr" v="26431" />
	</node>
	<node lat="69.89251667195526" lon="23.207891585665276" id="-39315">
		<tag k="name" v="Valsethmyra" />
		<tag k="place" v="farm" />
		<tag k="ssr:stedsnr" v="26432" />
	</node>
	<node lat="70.10853334077133" lon="23.55387490640901" id="-39325">
		<tag k="name" v="Trollhaugen" />
		<tag k="place" v="isolated_dwelling" />
		<tag k="ssr:stedsnr" v="26459" />
	</node>
	<node lat="69.9421472198409" lon="23.286638811259778" id="-39329">
		<tag k="name" v="Hareholmen" />
		<tag k="place" v="farm" />
		<tag k="ssr:stedsnr" v="26750" />
	</node>
	<node lat="70.05109444281625" lon="22.311008277505003" id="-39366">
		<tag k="name" v="Aspa" />
		<tag k="place" v="isolated_dwelling" />
		<tag k="ssr:stedsnr" v="45693" />
	</node>
	<node lat="70.0087861121455" lon="22.32578049637714" id="-39368">
		<tag k="name" v="Øverjord" />
		<tag k="place" v="farm" />
		<tag k="ssr:stedsnr" v="46755" />
	</node>
	<node lat="69.92740833644051" lon="23.258138799157116" id="-39381">
		<tag k="name" v="Lampe" />
		<tag k="place" v="farm" />
		<tag k="ssr:stedsnr" v="80418" />
	</node>
	<node lat="69.72493056153444" lon="23.40618046772202" id="-39388">
		<tag k="name" v="Midtstua" />
		<tag k="place" v="isolated_dwelling" />
		<tag k="ssr:stedsnr" v="79723" />
	</node>
	<node lat="69.86667778206908" lon="23.27081657274716" id="-39399">
		<tag k="name" v="Fjellheim" />
		<tag k="place" v="farm" />
		<tag k="ssr:stedsnr" v="80288" />
	</node>
	<node lat="69.91405555713162" lon="23.285605454865202" id="-39403">
		<tag k="name" v="Killi" />
		<tag k="place" v="isolated_dwelling" />
		<tag k="ssr:stedsnr" v="80330" />
	</node>
	<node lat="69.88335555587702" lon="23.201669362546934" id="-39404">
		<tag k="name" v="Skogly" />
		<tag k="place" v="farm" />
		<tag k="ssr:stedsnr" v="80356" />
	</node>
	<node lat="69.89374166525968" lon="23.226533257391083" id="-39405">
		<tag k="alt_name" v="Valsethmoen" />
		<tag k="name" v="Valsetmoen" />
		<tag k="place" v="farm" />
		<tag k="ssr:stedsnr" v="80368" />
	</node>
	<node lat="69.88619166530661" lon="23.20383880558173" id="-39407">
		<tag k="fixme" v="consider place=hamlet" />
		<tag k="loc_name:fkv" v="Äipiö" />
		<tag k="name" v="Eiby" />
		<tag k="name:no" v="Eiby" />
		<tag k="place" v="village" />
		<tag k="ssr:stedsnr" v="80383" />
	</node>
	<node lat="70.07502500415383" lon="22.422180505807564" id="-39411">
		<tag k="name" v="Kobbesteinøra" />
		<tag k="place" v="locality" />
		<tag k="ssr:stedsnr" v="80525" />
	</node>
	<node lat="70.08180833625687" lon="22.44642495096873" id="-39412">
		<tag k="name" v="Bjørndal" />
		<tag k="place" v="farm" />
		<tag k="ssr:stedsnr" v="80527" />
	</node>
	<node lat="69.85951389198507" lon="23.68312766373644" id="-39416">
		<tag k="name" v="Stillasætra" />
		<tag k="place" v="isolated_dwelling" />
		<tag k="ssr:stedsnr" v="80651" />
	</node>
	<node lat="69.98156944909115" lon="23.303961025174015" id="-39421">
		<tag k="alt_name" v="Stenseng" />
		<tag k="name" v="Steinseng" />
		<tag k="place" v="hamlet" />
		<tag k="ssr:stedsnr" v="80479" />
	</node>
	<node lat="70.00306389099762" lon="22.332974943697412" id="-39422">
		<tag k="name" v="Solvoll" />
		<tag k="place" v="farm" />
		<tag k="ssr:stedsnr" v="80611" />
	</node>
	<node lat="69.93155833164985" lon="23.492769354349658" id="-39434">
		<tag k="name" v="Sagslåtten" />
		<tag k="place" v="farm" />
		<tag k="ssr:stedsnr" v="80684" />
	</node>
	<node lat="70.13115556182821" lon="22.948133266914784" id="-39435">
		<tag k="alt_name" v="Sandnes, l" />
		<tag k="name" v="Lillesandnes" />
		<tag k="place" v="farm" />
		<tag k="ssr:stedsnr" v="80757" />
	</node>
	<node lat="70.0956444485275" lon="23.358347123876367" id="-39441">
		<tag k="alt_name" v="Litledalen" />
		<tag k="name" v="Lilledal" />
		<tag k="place" v="farm" />
		<tag k="ssr:stedsnr" v="80710" />
	</node>
	<node lat="70.10072778039799" lon="23.352999925414288" id="-39442">
		<tag k="alt_name" v="Jupvik" />
		<tag k="name" v="Djupvik" />
		<tag k="place" v="farm" />
		<tag k="ssr:stedsnr" v="80711" />
	</node>
</osm>
