<?xml version="1.0" encoding="UTF-8"?>
<osm version="0.6" generator="osmapis">
	<node lat="70.29201945063085" lon="23.603319352451372" id="-36251">
		<tag k="name" v="Stokkeura" />
		<tag k="natural" v="scree" />
		<tag k="ssr:stedsnr" v="27141" />
	</node>
	<node lat="70.32334444719127" lon="23.6385582364989" id="-36262">
		<tag k="landuse" v="meadow" />
		<tag k="name" v="Vuolit Ávžegieddi" />
		<tag k="name:se" v="Vuolit Ávžegieddi" />
		<tag k="ssr:stedsnr" v="41910" />
	</node>
	<node lat="69.90617500034982" lon="23.028541587077697" id="-36315">
		<tag k="name" v="Kroknes" />
		<tag k="place" v="locality" />
		<tag k="ssr:stedsnr" v="86229" />
	</node>
	<node lat="69.87389321506662" lon="23.201772098820225" id="-36318">
		<tag k="name" v="Borkhusholmen" />
		<tag k="place" v="locality" />
		<tag k="ssr:stedsnr" v="87405" />
	</node>
	<node lat="70.14936389184523" lon="23.243405479781213" id="-36321">
		<tag k="name" v="Janknutsastein" />
		<tag k="natural" v="stone" />
		<tag k="ssr:stedsnr" v="87603" />
	</node>
	<node lat="70.32213055514767" lon="23.563438796353683" id="-36332">
		<tag k="landuse" v="meadow" />
		<tag k="name" v="Bajit Čielumielli" />
		<tag k="name:se" v="Bajit Čielumielli" />
		<tag k="ssr:stedsnr" v="110975" />
	</node>
	<node lat="70.32408333387704" lon="23.527305456610062" id="-36334">
		<tag k="landuse" v="meadow" />
		<tag k="name" v="Dieváidduohki" />
		<tag k="name:se" v="Dieváidduohki" />
		<tag k="ssr:stedsnr" v="110984" />
	</node>
	<node lat="69.83757500555834" lon="23.76520543763443" id="-36357">
		<tag k="name" v="Dunkrattet - Uvjarohtu" />
		<tag k="name:no" v="Dunkrattet" />
		<tag k="name:se" v="Uvjarohtu" />
		<tag k="old_name:se" v="Uvjåråtto" />
		<tag k="place" v="locality" />
		<tag k="ssr:stedsnr" v="140635" />
	</node>
	<node lat="70.03349722523271" lon="22.91706381320641" id="-36374">
		<tag k="name" v="Småvedsmarka" />
		<tag k="place" v="locality" />
		<tag k="ssr:stedsnr" v="146178" />
	</node>
	<node lat="69.9000444470943" lon="23.564336016059755" id="-36376">
		<tag k="landuse" v="quarry" />
		<tag k="name" v="Lilledetsika Skiferfelt" />
		<tag k="ssr:stedsnr" v="146420" />
	</node>
	<node lat="69.87982222460428" lon="23.5050360106657" id="-36493">
		<tag k="landuse" v="quarry" />
		<tag k="name" v="Nalganas Skiferfelt - Nálganaš" />
		<tag k="name:no" v="Nalganas Skiferfelt" />
		<tag k="name:se" v="Nálganaš" />
		<tag k="old_name:se" v="Nalganaš" />
		<tag k="ssr:stedsnr" v="262628" />
	</node>
	<node lat="70.25664444972905" lon="23.298252701359516" id="-36516">
		<tag k="name" v="Urdan" />
		<tag k="name:se" v="Urdan" />
		<tag k="natural" v="scree" />
		<tag k="ssr:stedsnr" v="262958" />
	</node>
	<node lat="70.32852222819713" lon="22.804041602241252" id="-36569">
		<tag k="name" v="Láddu" />
		<tag k="name:se" v="Láddu" />
		<tag k="natural" v="scree" />
		<tag k="ssr:stedsnr" v="268796" />
	</node>
	<node lat="70.20214167103624" lon="23.21234436038136" id="-36618">
		<tag k="name" v="Moltebærhola" />
		<tag k="natural" v="wetland" />
		<tag k="ssr:stedsnr" v="211363" />
	</node>
	<node lat="70.24829722790987" lon="23.431463809230728" id="-36625">
		<tag k="name" v="Storura" />
		<tag k="natural" v="scree" />
		<tag k="ssr:stedsnr" v="269830" />
	</node>
	<node lat="70.21888611534808" lon="23.414827683603555" id="-36627">
		<tag k="landuse" v="meadow" />
		<tag k="name" v="Storenga" />
		<tag k="ssr:stedsnr" v="270000" />
	</node>
	<node lat="69.91017777520955" lon="23.0694027076058" id="-36653">
		<tag k="name" v="Kumyra" />
		<tag k="natural" v="wetland" />
		<tag k="ssr:stedsnr" v="450394" />
	</node>
	<node lat="69.82410555487193" lon="23.31164991040039" id="-36702">
		<tag k="alt_name" v="Langvannsbruddene" />
		<tag k="landuse" v="quarry" />
		<tag k="name" v="Langvassbrotta" />
		<tag k="ssr:stedsnr" v="262245" />
	</node>
	<node lat="69.86471666796751" lon="22.9219749333917" id="-36707">
		<tag k="name" v="Setermyra" />
		<tag k="natural" v="wetland" />
		<tag k="ssr:stedsnr" v="262344" />
	</node>
	<node lat="70.10057222086964" lon="22.76250272155914" id="-36713">
		<tag k="alt_name" v="Urlandet" />
		<tag k="name" v="Urdlandet" />
		<tag k="natural" v="scree" />
		<tag k="ssr:stedsnr" v="262552" />
	</node>
	<node lat="69.92215277839622" lon="23.60166655963902" id="-36730">
		<tag k="landuse" v="quarry" />
		<tag k="name" v="Østerelvdalen skiferbrudd" />
		<tag k="old_name" v="Østerelv skiferbrudd;Østerelva Skiferfelt" />
		<tag k="ssr:stedsnr" v="267506" />
	</node>
	<node lat="70.1126166672852" lon="23.476213802995392" id="-36744">
		<tag k="name" v="Furubakkøyran" />
		<tag k="natural" v="beach" />
		<tag k="ssr:stedsnr" v="268490" />
		<tag k="surface" v="sand" />
	</node>
	<node lat="69.97092222176178" lon="23.481991580791593" id="-36769">
		<tag k="name" v="Martinjeaggi" />
		<tag k="name:se" v="Martinjeaggi" />
		<tag k="natural" v="wetland" />
		<tag k="ssr:stedsnr" v="284407" />
	</node>
	<node lat="70.28165833810546" lon="23.492449906613064" id="-36777">
		<tag k="landuse" v="meadow" />
		<tag k="name" v="Bohčinsajji" />
		<tag k="name:se" v="Bohčinsajji" />
		<tag k="ssr:stedsnr" v="299915" />
	</node>
	<node lat="69.78690278287732" lon="23.89875820185155" id="-36786">
		<tag k="name" v="Ordaleakši" />
		<tag k="name:se" v="Ordaleakši" />
		<tag k="natural" v="wetland" />
		<tag k="ssr:stedsnr" v="465335" />
	</node>
	<node lat="69.94259722782147" lon="23.193994377298292" id="-36825">
		<tag k="loc_name:fkv" v="Jiemulahenjänkkä" />
		<tag k="name" v="Hjemmeluftmyra" />
		<tag k="name:no" v="Hjemmeluftmyra" />
		<tag k="natural" v="wetland" />
		<tag k="ssr:stedsnr" v="329469" />
	</node>
	<node lat="69.90306389459734" lon="23.042391586410393" id="-36864">
		<tag k="name" v="Gávvajeaggi" />
		<tag k="name:se" v="Gávvajeaggi" />
		<tag k="natural" v="wetland" />
		<tag k="ssr:stedsnr" v="474090" />
	</node>
	<node lat="70.32533333496892" lon="23.55513045471842" id="-36868">
		<tag k="landuse" v="meadow" />
		<tag k="name" v="Vuolit Čielomielli" />
		<tag k="name:se" v="Vuolit Čielomielli" />
		<tag k="ssr:stedsnr" v="474983" />
	</node>
	<node lat="70.25929167060067" lon="23.41113603800568" id="-36873">
		<tag k="landuse" v="meadow" />
		<tag k="name" v="Geassesajji" />
		<tag k="name:se" v="Geassesajji" />
		<tag k="ssr:stedsnr" v="480151" />
	</node>
	<node lat="69.96133889401605" lon="23.099649933820807" id="-36947">
		<tag k="name" v="Geassesajgieddi" />
		<tag k="name:se" v="Geassesajgieddi" />
		<tag k="place" v="locality" />
		<tag k="ssr:stedsnr" v="405020" />
	</node>
	<node lat="70.37949722752631" lon="22.699455504665806" id="-36991">
		<tag k="landuse" v="meadow" />
		<tag k="name" v="Lillenga" />
		<tag k="ssr:stedsnr" v="445183" />
	</node>
	<node lat="70.14048333280178" lon="23.205472132019022" id="-37015">
		<tag k="name" v="Vikmyra" />
		<tag k="natural" v="wetland" />
		<tag k="ssr:stedsnr" v="451619" />
	</node>
	<node lat="69.85973334078552" lon="23.160474912063208" id="-37079">
		<tag k="name" v="Fjellheim" />
		<tag k="place" v="locality" />
		<tag k="ssr:stedsnr" v="511405" />
	</node>
	<node lat="70.33099167080526" lon="22.807094379086422" id="-37081">
		<tag k="name" v="Ura" />
		<tag k="natural" v="scree" />
		<tag k="ssr:stedsnr" v="511803" />
	</node>
	<node lat="69.93856945080316" lon="23.10334991673724" id="-37103">
		<tag k="landuse" v="meadow" />
		<tag k="name" v="Stuora Boldnegieddi" />
		<tag k="name:se" v="Stuora Boldnegieddi" />
		<tag k="ssr:stedsnr" v="526018" />
	</node>
	<node lat="69.92349999963378" lon="23.54286379854363" id="-37147">
		<tag k="alt_name" v="Borras Skiferfelt;Borras Skiferbrudd" />
		<tag k="landuse" v="quarry" />
		<tag k="name" v="Borras" />
		<tag k="ssr:stedsnr" v="686675" />
	</node>
	<node lat="69.92769444581262" lon="23.45877767961388" id="-37148">
		<tag k="name" v="Floan" />
		<tag k="natural" v="wetland" />
		<tag k="ssr:stedsnr" v="686684" />
	</node>
	<node lat="70.27018611108198" lon="23.614991558946855" id="-37189">
		<tag k="name" v="Snárttalvuopmi" />
		<tag k="name:se" v="Snárttalvuopmi" />
		<tag k="old_name:se" v="Snartalvuobmi" />
		<tag k="place" v="locality" />
		<tag k="ssr:stedsnr" v="687813" />
	</node>
	<node lat="69.86109722427018" lon="23.181780471242202" id="-37229">
		<tag k="name" v="Nergjerdingen" />
		<tag k="place" v="locality" />
		<tag k="ssr:stedsnr" v="565270" />
	</node>
	<node lat="69.89305278396468" lon="23.572855468102084" id="-37264">
		<tag k="landuse" v="quarry" />
		<tag k="name" v="Skomakerdalen Skiferfelt" />
		<tag k="ssr:stedsnr" v="693492" />
	</node>
	<node lat="70.11199444786914" lon="23.49287213978809" id="-37276">
		<tag k="name" v="Øvre Furubakken" />
		<tag k="place" v="locality" />
		<tag k="ssr:stedsnr" v="571462" />
	</node>
	<node lat="70.13192222818147" lon="23.205666585232045" id="-37293">
		<tag k="name" v="Rødtorva" />
		<tag k="natural" v="wetland" />
		<tag k="ssr:stedsnr" v="572603" />
	</node>
	<node lat="69.95490277859722" lon="23.3502249081047" id="-37337">
		<tag k="name" v="Øren" />
		<tag k="place" v="locality" />
		<tag k="ssr:stedsnr" v="625386" />
	</node>
	<node lat="69.85988333277369" lon="23.182477701159996" id="-37377">
		<tag k="name" v="Olderholmen" />
		<tag k="place" v="locality" />
		<tag k="ssr:stedsnr" v="632428" />
	</node>
	<node lat="70.29921389031468" lon="23.585116573286296" id="-37381">
		<tag k="name" v="Lerresura" />
		<tag k="natural" v="scree" />
		<tag k="ssr:stedsnr" v="633206" />
	</node>
	<node lat="69.85127500012109" lon="23.365822118785353" id="-37423">
		<tag k="name" v="Coaganvuovdi" />
		<tag k="name:se" v="Coaganvuovdi" />
		<tag k="place" v="locality" />
		<tag k="ssr:stedsnr" v="707988" />
	</node>
	<node lat="69.92749722434503" lon="23.10129713728514" id="-37428">
		<tag k="landuse" v="meadow" />
		<tag k="name" v="Buollánláttigieddi" />
		<tag k="name:se" v="Buollánláttigieddi" />
		<tag k="ssr:stedsnr" v="708055" />
	</node>
	<node lat="70.26547777780027" lon="23.412897140249314" id="-37440">
		<tag k="landuse" v="meadow" />
		<tag k="name" v="Davvesiida" />
		<tag k="name:se" v="Davvesiida" />
		<tag k="ssr:stedsnr" v="662132" />
	</node>
	<node lat="69.97873611259787" lon="22.790416595041453" id="-37447">
		<tag k="historic" v="shieling" />
		<tag k="name" v="Kjellmannsetra" />
		<tag k="place" v="locality" />
		<tag k="ssr:stedsnr" v="666704" />
	</node>
	<node lat="69.80763611309405" lon="23.80626377039664" id="-37453">
		<tag k="name" v="Bierajeaggi" />
		<tag k="name:se" v="Bierajeaggi" />
		<tag k="natural" v="wetland" />
		<tag k="ssr:stedsnr" v="890365" />
	</node>
	<node lat="70.35045278376087" lon="23.320252686808576" id="-37478">
		<tag k="name" v="Suovvaleakši" />
		<tag k="name:se" v="Suovvaleakši" />
		<tag k="natural" v="wetland" />
		<tag k="old_name:se" v="Suovvalækši" />
		<tag k="ssr:stedsnr" v="687003" />
	</node>
	<node lat="70.13266388751875" lon="23.21211936032557" id="-37523">
		<tag k="name" v="Kivijänkkä" />
		<tag k="name:fkv" v="Kivijänkkä" />
		<tag k="natural" v="wetland" />
		<tag k="ssr:stedsnr" v="694577" />
	</node>
	<node lat="69.70463055743579" lon="23.068105467683793" id="-37560">
		<tag k="name" v="Davit Rákkasleakši" />
		<tag k="name:se" v="Davit Rákkasleakši" />
		<tag k="natural" v="wetland" />
		<tag k="old_name:se" v="Raggaslækši, davit" />
		<tag k="ssr:stedsnr" v="746710" />
	</node>
	<node lat="69.881634854162" lon="23.215780584518356" id="-37692">
		<tag k="name" v="Olderholmen" />
		<tag k="place" v="locality" />
		<tag k="ssr:stedsnr" v="815411" />
	</node>
	<node lat="70.40362500651656" lon="23.335780478971316" id="-37719">
		<tag k="name" v="Leaibevuonjiehkki" />
		<tag k="name:se" v="Leaibevuonjiehkki" />
		<tag k="natural" v="glacier" />
		<tag k="old_name:se" v="Læibevuonjiekki" />
		<tag k="ssr:stedsnr" v="929026" />
	</node>
	<node lat="69.8501916722057" lon="23.29016102749297" id="-37813">
		<tag k="alt_name" v="Peskabruddene" />
		<tag k="landuse" v="quarry" />
		<tag k="name" v="Peskabrotta" />
		<tag k="ssr:stedsnr" v="930283" />
	</node>
	<node lat="69.8612944499713" lon="23.379197127698504" id="-37814">
		<tag k="alt_name" v="Detsika;Detsika Skiferfelt" />
		<tag k="landuse" v="quarry" />
		<tag k="name" v="Detsikabrotta" />
		<tag k="ssr:stedsnr" v="930286" />
	</node>
	<node lat="69.86966737329148" lon="23.16502948987115" id="-37865">
		<tag k="name" v="Bjørnstad" />
		<tag k="place" v="locality" />
		<tag k="ssr:stedsnr" v="876420" />
	</node>
	<node lat="70.36022500369735" lon="23.22629437577269" id="-37901">
		<tag k="name" v="Sievjjuleakši" />
		<tag k="name:se" v="Sievjjuleakši" />
		<tag k="natural" v="wetland" />
		<tag k="ssr:stedsnr" v="891830" />
	</node>
	<node lat="69.89931388883234" lon="23.56280266713827" id="-37921">
		<tag k="alt_name" v="Detsika, l" />
		<tag k="landuse" v="quarry" />
		<tag k="name" v="Lille Detsika" />
		<tag k="ssr:stedsnr" v="929607" />
	</node>
	<node lat="70.23254166776083" lon="23.45146379418269" id="-37977">
		<tag k="name" v="Langmyra" />
		<tag k="natural" v="wetland" />
		<tag k="ssr:stedsnr" v="936797" />
	</node>
	<node lat="70.1711083331868" lon="23.300177702244188" id="-37987">
		<tag k="name" v="Gammelmyra" />
		<tag k="natural" v="wetland" />
		<tag k="ssr:stedsnr" v="937647" />
	</node>
	<node lat="69.84665555785415" lon="23.18867212977406" id="-38026">
		<tag k="name" v="Gammelhansslåtten" />
		<tag k="place" v="locality" />
		<tag k="ssr:stedsnr" v="19242" />
	</node>
	<node lat="70.07894166734783" lon="22.9834665979498" id="-38075">
		<tag k="alt_name" v="Karislåtta" />
		<tag k="name" v="Karislåtten" />
		<tag k="place" v="locality" />
		<tag k="ssr:stedsnr" v="19687" />
	</node>
	<node lat="69.94546944487111" lon="23.02340270954676" id="-38138">
		<tag k="name" v="Torvmyra" />
		<tag k="natural" v="wetland" />
		<tag k="ssr:stedsnr" v="26248" />
	</node>
	<node lat="69.86319166600269" lon="23.188819368841834" id="-38144">
		<tag k="name" v="Stengselsholmen" />
		<tag k="place" v="locality" />
		<tag k="ssr:stedsnr" v="26434" />
	</node>
	<node lat="70.21443611267819" lon="23.445130455767547" id="-38165">
		<tag k="name" v="Skovankimyra" />
		<tag k="natural" v="wetland" />
		<tag k="ssr:stedsnr" v="27987" />
	</node>
	<node lat="69.91107222631211" lon="23.063686035255504" id="-38178">
		<tag k="landuse" v="meadow" />
		<tag k="name" v="Gori-Duopmásgieddi" />
		<tag k="name:se" v="Gori-Duopmásgieddi" />
		<tag k="ssr:stedsnr" v="40045" />
	</node>
	<node lat="70.29909444519821" lon="23.586044357231387" id="-38186">
		<tag k="name" v="Stuorajuovva" />
		<tag k="name:se" v="Stuorajuovva" />
		<tag k="natural" v="scree" />
		<tag k="ssr:stedsnr" v="41456" />
	</node>
</osm>
