<?xml version="1.0" encoding="UTF-8"?>
<osm version="0.6" generator="osmapis">
	<node lat="70.0267308709339" lon="22.945861257966655" id="-95376">
		<tag k="name" v="Seljen" />
		<tag k="place" v="locality" />
		<tag k="ssr:stedsnr" v="140793" />
	</node>
	<node lat="69.95789167081885" lon="23.409555457450082" id="-95766">
		<tag k="name" v="Sagafossen Laksetrapp" />
		<tag k="place" v="locality" />
		<tag k="ssr:stedsnr" v="268084" />
	</node>
	<node lat="70.2590750026822" lon="23.415949909842656" id="-96269">
		<tag k="amenity" v="place_of_worship" />
		<tag k="denomination" v="lutheran" />
		<tag k="name" v="Komagfjord kirke" />
		<tag k="religion" v="christian" />
		<tag k="ssr:stedsnr" v="687944" />
	</node>
	<node lat="69.97938056230683" lon="23.467616581549613" id="-96424">
		<tag k="amenity" v="community_centre" />
		<tag k="name" v="Solvang" />
		<tag k="ssr:stedsnr" v="625665" />
	</node>
	<node lat="69.9031034817185" lon="23.56629463769378" id="-96747">
		<tag k="name" v="Øverstua" />
		<tag k="place" v="locality" />
		<tag k="ssr:stedsnr" v="808636" />
	</node>
	<node lat="69.92111111385253" lon="23.02891104153433" id="-97248">
		<tag k="name" v="Saga" />
		<tag k="place" v="locality" />
		<tag k="ssr:stedsnr" v="26262" />
	</node>
	<node lat="69.89115833146599" lon="23.001569368166273" id="-98019">
		<tag k="name" v="Paulsen" />
		<tag k="place" v="locality" />
		<tag k="ssr:stedsnr" v="329233" />
	</node>
	<node lat="70.31260278401123" lon="23.041194375597584" id="-98057">
		<tag k="name" v="Skjærstøtta" />
		<tag k="place" v="locality" />
		<tag k="ssr:stedsnr" v="330623" />
	</node>
	<node lat="69.96458889097096" lon="23.251772139851983" id="-98136">
		<tag k="alt_name" v="Alta" />
		<tag k="amenity" v="place_of_worship" />
		<tag k="denomination" v="lutheran" />
		<tag k="name" v="Alta kirke" />
		<tag k="religion" v="christian" />
		<tag k="ssr:stedsnr" v="383425" />
	</node>
	<node lat="69.8235055575557" lon="23.88686377542236" id="-98431">
		<tag k="historic" v="heritage" />
		<tag k="name" v="Fállegeađgi" />
		<tag k="name:fkv" v="Haukkakivi" />
		<tag k="name:no" v="Falkesteinen" />
		<tag k="name:se" v="Fállegeađgi" />
		<tag k="old_name:se" v="Fallegæđgi" />
		<tag k="place" v="locality" />
		<tag k="ssr:stedsnr" v="504730" />
	</node>
	<node lat="70.1194333352295" lon="23.395855466751545" id="-98667">
		<tag k="amenity" v="place_of_worship" />
		<tag k="denomination" v="lutheran" />
		<tag k="name" v="Leirbotn kirke" />
		<tag k="religion" v="christian" />
		<tag k="ssr:stedsnr" v="565770" />
	</node>
	<node lat="70.28712778336373" lon="23.544638805509475" id="-98924">
		<tag k="amenity" v="community_centre" />
		<tag k="name" v="Uren" />
		<tag k="ssr:stedsnr" v="633199" />
	</node>
	<node lat="70.05585000498776" lon="22.362644408878307" id="-98989">
		<tag k="amenity" v="place_of_worship" />
		<tag k="denomination" v="lutheran" />
		<tag k="name" v="Langfjord kirke" />
		<tag k="religion" v="christian" />
		<tag k="ssr:stedsnr" v="747491" />
	</node>
	<node lat="70.01895833391187" lon="23.534102672626602" id="-99115">
		<tag k="amenity" v="place_of_worship" />
		<tag k="denomination" v="lutheran" />
		<tag k="name" v="Rafsbotn kapell" />
		<tag k="religion" v="christian" />
		<tag k="ssr:stedsnr" v="761885" />
	</node>
	<node lat="70.32685555246742" lon="23.04402216246854" id="-99493">
		<tag k="alt_name" v="Rognsund" />
		<tag k="amenity" v="place_of_worship" />
		<tag k="denomination" v="lutheran" />
		<tag k="name" v="Rognsund kirke" />
		<tag k="religion" v="christian" />
		<tag k="ssr:stedsnr" v="882828" />
	</node>
	<node lat="69.9771166702536" lon="23.14092770865482" id="-99529">
		<tag k="historic" v="heritage" />
		<tag k="name" v="Storvikkjerringa" />
		<tag k="name:no" v="Storvikkjerringa" />
		<tag k="name:se" v="Gálgu" />
		<tag k="place" v="locality" />
		<tag k="ssr:stedsnr" v="937481" />
	</node>
	<node lat="70.21390277870964" lon="23.201227705569345" id="-99542">
		<tag k="alt_name" v="Storekorsnes" />
		<tag k="amenity" v="place_of_worship" />
		<tag k="denomination" v="lutheran" />
		<tag k="name" v="Storekorsnes bedehuskapell" />
		<tag k="religion" v="christian" />
		<tag k="ssr:stedsnr" v="943838" />
	</node>
	<node lat="70.28241111652957" lon="23.410819369080073" id="-99546">
		<tag k="name" v="Eielborg" />
		<tag k="place" v="locality" />
		<tag k="ssr:stedsnr" v="944108" />
	</node>
	<node lat="69.96512019628877" lon="23.266819593149197" id="-99583">
		<tag k="amenity" v="place_of_worship" />
		<tag k="denomination" v="lutheran" />
		<tag k="name" v="Nordlyskatedralen Alta kirke" />
		<tag k="religion" v="christian" />
		<tag k="ssr:stedsnr" v="990216" />
	</node>
	<node lat="69.98971448517489" lon="23.26484990458857" id="-99853">
		<tag k="historic" v="heritage" />
		<tag k="name" v="Kjerringa" />
		<tag k="name:no" v="Kjerringa" />
		<tag k="name:se" v="Áhkku" />
		<tag k="place" v="locality" />
		<tag k="ssr:stedsnr" v="1076810" />
	</node>
</osm>
