<?xml version="1.0" encoding="UTF-8"?>
<osm version="0.6" generator="osmapis">
	<node lat="70.03429722104079" lon="23.293905468891566" id="-95226">
		<tag k="name" v="Sagelvbukta" />
		<tag k="natural" v="bay" />
		<tag k="ssr:stedsnr" v="19797" />
	</node>
	<node lat="70.32228333730204" lon="22.918847165399207" id="-95227">
		<tag k="alt_name:no" v="Båtbukt" />
		<tag k="name" v="Båtbukta" />
		<tag k="name:no" v="Båtbukta" />
		<tag k="name:se" v="Vanasgohppi" />
		<tag k="natural" v="bay" />
		<tag k="ssr:stedsnr" v="19903" />
	</node>
	<node lat="70.35782500166805" lon="22.799508263661707" id="-95231">
		<tag k="name" v="Steinen" />
		<tag k="name:no" v="Steinen" />
		<tag k="name:se" v="Gearggiriidi" />
		<tag k="natural" v="cape" />
		<tag k="ssr:stedsnr" v="20140" />
	</node>
	<node lat="70.3285661680117" lon="23.442461258103542" id="-95233">
		<tag k="name" v="Várggonjárga" />
		<tag k="name:se" v="Várggonjárga" />
		<tag k="natural" v="cape" />
		<tag k="old_name:se" v="Vargunjarga" />
		<tag k="ssr:stedsnr" v="20807" />
	</node>
	<node lat="70.26722222301821" lon="23.384833246282703" id="-95234">
		<tag k="bay" v="fjord" />
		<tag k="name" v="Komagfjorden" />
		<tag k="name:no" v="Komagfjorden" />
		<tag k="name:se" v="Gámavuonna" />
		<tag k="natural" v="bay" />
		<tag k="old_name:se" v="Gamavuodna;Gámavuotna" />
		<tag k="ssr:stedsnr" v="20938" />
	</node>
	<node lat="70.2728055579485" lon="23.146436036971686" id="-95235">
		<tag k="name" v="Steinnes" />
		<tag k="natural" v="cape" />
		<tag k="ssr:stedsnr" v="20940" />
	</node>
	<node lat="70.33247778434769" lon="22.8250971578406" id="-95243">
		<tag k="name" v="Leirbukta" />
		<tag k="natural" v="bay" />
		<tag k="ssr:stedsnr" v="25812" />
	</node>
	<node lat="70.24193055753524" lon="23.336163817442337" id="-95244">
		<tag k="name" v="Naustneset" />
		<tag k="natural" v="cape" />
		<tag k="ssr:stedsnr" v="25902" />
	</node>
	<node lat="70.25473611776742" lon="23.268208254386092" id="-95245">
		<tag k="name" v="Sandfjæra" />
		<tag k="natural" v="beach" />
		<tag k="ssr:stedsnr" v="25925" />
	</node>
	<node lat="70.17739166722949" lon="23.35562214762849" id="-95254">
		<tag k="name" v="Biettarnesbukta" />
		<tag k="natural" v="bay" />
		<tag k="ssr:stedsnr" v="26591" />
	</node>
	<node lat="70.248816670752" lon="22.85957771071676" id="-95259">
		<tag k="name" v="Nordbukta" />
		<tag k="natural" v="bay" />
		<tag k="ssr:stedsnr" v="34901" />
	</node>
	<node lat="70.02381944224513" lon="22.28904162582652" id="-95274">
		<tag k="name" v="Sandfall" />
		<tag k="natural" v="beach" />
		<tag k="ssr:stedsnr" v="45703" />
	</node>
	<node lat="70.19204445098758" lon="23.23524436578885" id="-95277">
		<tag k="name" v="Jokkeluft" />
		<tag k="natural" v="cape" />
		<tag k="ssr:stedsnr" v="45979" />
	</node>
	<node lat="70.2472972246768" lon="22.849769388288937" id="-95294">
		<tag k="name" v="Állenjárga" />
		<tag k="name:se" v="Állenjárga" />
		<tag k="natural" v="cape" />
		<tag k="old_name:se" v="Allenjarga" />
		<tag k="ssr:stedsnr" v="80602" />
	</node>
	<node lat="70.16197500430202" lon="23.282272132183405" id="-95298">
		<tag k="name" v="Steikbukta" />
		<tag k="natural" v="bay" />
		<tag k="ssr:stedsnr" v="80643" />
	</node>
	<node lat="70.07878889349551" lon="23.150158270178053" id="-95300">
		<tag k="name" v="Piksteinbukta" />
		<tag k="natural" v="bay" />
		<tag k="ssr:stedsnr" v="80690" />
	</node>
	<node lat="70.24584722300523" lon="23.361074910784236" id="-95303">
		<tag k="name" v="Kortbukt" />
		<tag k="name:no" v="Kortbukt" />
		<tag k="name:se" v="Koartagohppi" />
		<tag k="natural" v="bay" />
		<tag k="ssr:stedsnr" v="80599" />
	</node>
	<node lat="70.04233611062612" lon="23.249005471701757" id="-95306">
		<tag k="name" v="Klebersteinneset" />
		<tag k="natural" v="cape" />
		<tag k="ssr:stedsnr" v="80794" />
	</node>
	<node lat="70.05227222576126" lon="23.221433244308994" id="-95310">
		<tag k="name" v="Steinbukta" />
		<tag k="name:no" v="Steinbukta" />
		<tag k="name:se" v="Geargegohppi" />
		<tag k="natural" v="bay" />
		<tag k="ssr:stedsnr" v="80803" />
	</node>
	<node lat="70.2824813749765" lon="23.50046215342627" id="-95315">
		<tag k="alt_name:no" v="Ytre Vigeluft" />
		<tag k="loc_name:se" v="Virgeluokta" />
		<tag k="name" v="Vigeluft - Viđgeluovta" />
		<tag k="name:no" v="Vigeluft" />
		<tag k="name:se" v="Viđgeluovta" />
		<tag k="natural" v="bay" />
		<tag k="ssr:stedsnr" v="81809" />
	</node>
	<node lat="69.97117778076742" lon="23.23711658712852" id="-95323">
		<tag k="fixme" v="consider seamark:type=rock or natural=shoal" />
		<tag k="name" v="Skaialuftskjæret" />
		<tag k="place" v="islet" />
		<tag k="ssr:stedsnr" v="86184" />
	</node>
	<node lat="70.4070694487343" lon="23.11899437280023" id="-95332">
		<tag k="name" v="Store Kufjordbotn" />
		<tag k="natural" v="bay" />
		<tag k="ssr:stedsnr" v="93792" />
	</node>
	<node lat="70.35600555705521" lon="22.91329714656306" id="-95350">
		<tag k="alt_name:no" v="Hamn, l" />
		<tag k="name" v="Lille Hamn - Uhcahávnnaš" />
		<tag k="name:no" v="Lille Hamn" />
		<tag k="name:se" v="Uhcahávnnaš" />
		<tag k="natural" v="bay" />
		<tag k="old_name:se" v="Uccahavnaš" />
		<tag k="ssr:stedsnr" v="140008" />
	</node>
	<node lat="70.21395000034045" lon="22.612341608733207" id="-95358">
		<tag k="name" v="Indre Lokkarfjorden" />
		<tag k="name:no" v="Indre Lokkarfjorden" />
		<tag k="name:se" v="Siskkit Rohkalvuonna" />
		<tag k="natural" v="bay" />
		<tag k="old_name:no" v="Lokkarfjorden, in" />
		<tag k="old_name:se" v="Råkkalvuodna siskit;Siskkit Rohkalvuotna" />
		<tag k="ssr:stedsnr" v="140387" />
	</node>
	<node lat="70.16369167079068" lon="22.91072770390636" id="-95366">
		<tag k="name" v="Laukbukta" />
		<tag k="natural" v="bay" />
		<tag k="ssr:stedsnr" v="140634" />
	</node>
	<node lat="70.03276666874683" lon="22.97491381671602" id="-95371">
		<tag k="name" v="Halsen" />
		<tag k="natural" v="cape" />
		<tag k="ssr:stedsnr" v="140804" />
	</node>
	<node lat="70.13639722312361" lon="23.296961039943728" id="-95374">
		<tag k="alt_name" v="Årøya, l;Lille Årøy" />
		<tag k="name" v="Lille Årøya" />
		<tag k="place" v="island" />
		<tag k="ssr:stedsnr" v="140734" />
	</node>
	<node lat="70.28785833601842" lon="23.44289712954159" id="-95380">
		<tag k="alt_name:no" v="Sommernes" />
		<tag k="name" v="Sommarneset" />
		<tag k="name:no" v="Sommarneset" />
		<tag k="name:se" v="Geassenjárga" />
		<tag k="natural" v="cape" />
		<tag k="ssr:stedsnr" v="141783" />
	</node>
	<node lat="70.31810833723702" lon="22.91044715106815" id="-95389">
		<tag k="name" v="Kivika" />
		<tag k="name:no" v="Kivika" />
		<tag k="name:se" v="Hálddagohppi" />
		<tag k="natural" v="bay" />
		<tag k="ssr:stedsnr" v="146602" />
	</node>
	<node lat="70.17950277734823" lon="23.364555464913852" id="-95391">
		<tag k="name" v="Skillefjordbotn" />
		<tag k="natural" v="bay" />
		<tag k="ssr:stedsnr" v="146953" />
	</node>
	<node lat="70.20629167325517" lon="23.205791591672835" id="-95392">
		<tag k="name" v="Kvenroren" />
		<tag k="name:no" v="Kvenroren" />
		<tag k="name:se" v="Lássávuolli" />
		<tag k="natural" v="bay" />
		<tag k="ssr:stedsnr" v="146868" />
	</node>
	<node lat="70.28213055603727" lon="23.522899906067238" id="-95395">
		<tag k="name" v="Ørnstein" />
		<tag k="name:no" v="Ørnstein" />
		<tag k="name:se" v="Goaskingeargi" />
		<tag k="natural" v="cape" />
		<tag k="ssr:stedsnr" v="147174" />
	</node>
	<node lat="70.13203333378108" lon="23.185938811480444" id="-95405">
		<tag k="name" v="Langstrand" />
		<tag k="natural" v="beach" />
		<tag k="ssr:stedsnr" v="147558" />
	</node>
	<node lat="70.17449444584615" lon="23.32947770355876" id="-95407">
		<tag k="name" v="Láddu" />
		<tag k="name:se" v="Láddu" />
		<tag k="natural" v="cape" />
		<tag k="ssr:stedsnr" v="147571" />
	</node>
	<node lat="70.3455055554072" lon="22.7940138134568" id="-95409">
		<tag k="name" v="Finnsnes" />
		<tag k="natural" v="cape" />
		<tag k="ssr:stedsnr" v="147808" />
	</node>
	<node lat="70.29443055782785" lon="23.28013047626163" id="-95417">
		<tag k="name" v="Kjerringfjordneset" />
		<tag k="natural" v="cape" />
		<tag k="ssr:stedsnr" v="154612" />
	</node>
	<node lat="70.34227777560426" lon="23.28796658997954" id="-95418">
		<tag k="name" v="Store Bekkarfjordbotn" />
		<tag k="natural" v="bay" />
		<tag k="ssr:stedsnr" v="154613" />
	</node>
	<node lat="70.21109999833173" lon="22.589786062252248" id="-95420">
		<tag k="name" v="Skreholet" />
		<tag k="natural" v="bay" />
		<tag k="ssr:stedsnr" v="155650" />
	</node>
	<node lat="70.28310555460327" lon="22.47587493782762" id="-95441">
		<tag k="fixme" v="multiple name:no tags, choose one and add the other to alt_name:no" />
		<tag k="name" v="Háhkábákti" />
		<tag k="name:no" v="Uerneset;Uerberget" />
		<tag k="name:se" v="Háhkábákti" />
		<tag k="natural" v="cape" />
		<tag k="old_name:se" v="Hakkabakti" />
		<tag k="ssr:stedsnr" v="262097" />
	</node>
	<node lat="70.38138333919254" lon="22.790638830329335" id="-95467">
		<tag k="alt_name:no" v="Kvalvikbukta" />
		<tag k="fixme" v="multiple name:se tags, choose one and add the other to alt_name:se" />
		<tag k="name" v="Kvalvika" />
		<tag k="name:no" v="Kvalvika" />
		<tag k="name:se" v="Goalviikgohppi;Bossoluovta" />
		<tag k="natural" v="bay" />
		<tag k="ssr:stedsnr" v="262183" />
	</node>
	<node lat="70.1855583348379" lon="22.96854158797216" id="-95514">
		<tag k="name" v="Lenkebåen" />
		<tag k="natural" v="shoal" />
		<tag k="place" v="locality" />
		<tag k="ssr:stedsnr" v="262685" />
	</node>
	<node lat="70.17895833552835" lon="23.31595269461913" id="-95515">
		<tag k="bay" v="fjord" />
		<tag k="name" v="Skillefjorden - Skirvi" />
		<tag k="name:no" v="Skillefjorden" />
		<tag k="name:se" v="Skirvi" />
		<tag k="natural" v="bay" />
		<tag k="ssr:stedsnr" v="262686" />
	</node>
	<node lat="70.20381388755965" lon="23.205633250347702" id="-95516">
		<tag k="name" v="Skjerneset" />
		<tag k="natural" v="cape" />
		<tag k="ssr:stedsnr" v="262690" />
	</node>
	<node lat="70.07209444709186" lon="23.172269361295214" id="-95517">
		<tag k="name" v="Solbukta" />
		<tag k="natural" v="bay" />
		<tag k="ssr:stedsnr" v="262725" />
	</node>
	<node lat="70.32522777978576" lon="23.50109712898989" id="-95528">
		<tag k="alt_name:no" v="Hamnebukt" />
		<tag k="name" v="Hamnebukta" />
		<tag k="name:no" v="Hamnebukta" />
		<tag k="name:se" v="Láddogohppi" />
		<tag k="natural" v="bay" />
		<tag k="ssr:stedsnr" v="262823" />
	</node>
	<node lat="70.34808888737955" lon="23.03277771401544" id="-95543">
		<tag k="name" v="Biggabukt" />
		<tag k="name:no" v="Biggabukt" />
		<tag k="name:se" v="Bikkobovtgohppi" />
		<tag k="natural" v="bay" />
		<tag k="ssr:stedsnr" v="201006" />
	</node>
	<node lat="70.05416945172294" lon="22.98736380765567" id="-95557">
		<tag k="name" v="Fornesvika" />
		<tag k="natural" v="bay" />
		<tag k="ssr:stedsnr" v="201777" />
	</node>
	<node lat="70.0908305559937" lon="23.150536028711706" id="-95562">
		<tag k="name" v="Pustervika" />
		<tag k="natural" v="bay" />
		<tag k="ssr:stedsnr" v="201701" />
	</node>
	<node lat="70.31600555415227" lon="22.992624920815416" id="-95563">
		<tag k="name" v="Rognsundet - Čoalmmenuorri" />
		<tag k="name:no" v="Rognsundet" />
		<tag k="name:se" v="Čoalmmenuorri" />
		<tag k="natural" v="strait" />
		<tag k="old_name:se" v="Čoalmenuorri" />
		<tag k="ssr:stedsnr" v="201895" />
	</node>
	<node lat="70.25625833697241" lon="22.413894389222612" id="-95567">
		<tag k="fixme" v="multiple name tags, choose one and add the other to alt_name" />
		<tag k="name" v="Skarvholmen;Skarvskjærholmen" />
		<tag k="place" v="islet" />
		<tag k="ssr:stedsnr" v="202093" />
	</node>
	<node lat="70.01378611319214" lon="23.09219158943698" id="-95570">
		<tag k="fixme" v="multiple name tags, choose one and add the other to alt_name" />
		<tag k="name" v="Langnes;Lille Langnes" />
		<tag k="natural" v="cape" />
		<tag k="ssr:stedsnr" v="202446" />
	</node>
	<node lat="70.34137500376407" lon="22.975608270189877" id="-95581">
		<tag k="fixme" v="consider seamark:type=rock or natural=shoal" />
		<tag k="name" v="Lille Kufjordskjæret" />
		<tag k="place" v="islet" />
		<tag k="ssr:stedsnr" v="268530" />
	</node>
	<node lat="70.33096111406327" lon="22.828547172489078" id="-95596">
		<tag k="name" v="Gambuktneset" />
		<tag k="natural" v="cape" />
		<tag k="ssr:stedsnr" v="268807" />
	</node>
	<node lat="70.24000833847128" lon="23.504841565517395" id="-95598">
		<tag k="name" v="Duoldinjárga" />
		<tag k="name:se" v="Duoldinjárga" />
		<tag k="natural" v="cape" />
		<tag k="ssr:stedsnr" v="268813" />
	</node>
	<node lat="70.026375005974" lon="23.476241573348712" id="-95606">
		<tag k="name" v="Mosenesbukta" />
		<tag k="natural" v="bay" />
		<tag k="ssr:stedsnr" v="208032" />
	</node>
	<node lat="70.052261113626" lon="22.987408258831646" id="-95611">
		<tag k="name" v="Svahella" />
		<tag k="natural" v="cape" />
		<tag k="ssr:stedsnr" v="208098" />
	</node>
	<node lat="70.25220555493756" lon="23.250111041879975" id="-95612">
		<tag k="name" v="Klubben" />
		<tag k="natural" v="cape" />
		<tag k="ssr:stedsnr" v="268945" />
	</node>
	<node lat="70.10378889501948" lon="23.356722147563598" id="-95618">
		<tag k="name" v="Svartbergkroken" />
		<tag k="natural" v="bay" />
		<tag k="ssr:stedsnr" v="208183" />
	</node>
	<node lat="70.32194166438393" lon="23.43851936834673" id="-95631">
		<tag k="name" v="Lille Rekvik" />
		<tag k="natural" v="bay" />
		<tag k="ssr:stedsnr" v="209178" />
	</node>
	<node lat="70.13313055783829" lon="23.178994377889623" id="-95647">
		<tag k="name" v="Svinbukta" />
		<tag k="natural" v="bay" />
		<tag k="ssr:stedsnr" v="269601" />
	</node>
	<node lat="70.38790556009823" lon="22.742211058260597" id="-95655">
		<tag k="name" v="Ytre Kjerringfjordnes" />
		<tag k="natural" v="cape" />
		<tag k="ssr:stedsnr" v="216787" />
	</node>
	<node lat="70.06779167246384" lon="22.48985549663234" id="-95667">
		<tag k="name" v="Akkavaggbåen" />
		<tag k="natural" v="shoal" />
		<tag k="place" v="locality" />
		<tag k="ssr:stedsnr" v="228732" />
	</node>
	<node lat="70.01692500571012" lon="23.038116592256518" id="-95682">
		<tag k="name" v="Kariholmen" />
		<tag k="natural" v="cape" />
		<tag k="ssr:stedsnr" v="450349" />
	</node>
	<node lat="70.22839722779393" lon="23.39600546968645" id="-95693">
		<tag k="name" v="Sandbuktnes" />
		<tag k="name:no" v="Sandbuktnes" />
		<tag k="name:se" v="Sáttugohpnjárga" />
		<tag k="natural" v="cape" />
		<tag k="ssr:stedsnr" v="451810" />
	</node>
	<node lat="70.29754722504504" lon="23.596463784717013" id="-95699">
		<tag k="name" v="Gambukt" />
		<tag k="name:no" v="Gambukt" />
		<tag k="name:se" v="Goahtegohppi" />
		<tag k="natural" v="bay" />
		<tag k="ssr:stedsnr" v="451199" />
	</node>
	<node lat="69.96363889228229" lon="23.12638879805158" id="-95706">
		<tag k="name" v="Auskarnesbukta" />
		<tag k="name:no" v="Auskarnesbukta" />
		<tag k="name:se" v="Ávskárnjárgohppi" />
		<tag k="natural" v="bay" />
		<tag k="ssr:stedsnr" v="451459" />
	</node>
	<node lat="70.32948611009047" lon="22.955555493923818" id="-95707">
		<tag k="name" v="Fyrnes" />
		<tag k="natural" v="cape" />
		<tag k="ssr:stedsnr" v="451549" />
	</node>
	<node lat="70.28632778320701" lon="23.429216569533253" id="-95708">
		<tag k="name" v="Store Hansnes" />
		<tag k="name:no" v="Store Hansnes" />
		<tag k="name:se" v="Stuora Hánssanjárga" />
		<tag k="natural" v="cape" />
		<tag k="ssr:stedsnr" v="451885" />
	</node>
	<node lat="70.24946388813336" lon="23.397816572524974" id="-95711">
		<tag k="name" v="Eidbukt" />
		<tag k="natural" v="bay" />
		<tag k="ssr:stedsnr" v="451819" />
	</node>
	<node lat="70.35962778228438" lon="23.432119355512395" id="-95726">
		<tag k="alt_name:no" v="Bekkarfjorden, l" />
		<tag k="bay" v="fjord" />
		<tag k="name" v="Lille Bekkarfjorden" />
		<tag k="name:no" v="Lille Bekkarfjorden" />
		<tag k="name:se" v="Boazovuonna" />
		<tag k="natural" v="bay" />
		<tag k="old_name:se" v="Boazuvuodna;Boazovuotna" />
		<tag k="ssr:stedsnr" v="262010" />
	</node>
	<node lat="70.36495555464099" lon="23.096302709604448" id="-95728">
		<tag k="fixme" v="multiple name tags, choose one and add the other to alt_name" />
		<tag k="name" v="Svensenesa;Halsnes" />
		<tag k="natural" v="cape" />
		<tag k="ssr:stedsnr" v="262013" />
	</node>
	<node lat="69.96132500176175" lon="23.13976381126023" id="-95735">
		<tag k="name" v="Ávskárnjárga" />
		<tag k="name:no" v="Auskarnes" />
		<tag k="name:se" v="Ávskárnjárga" />
		<tag k="natural" v="cape" />
		<tag k="old_name:se" v="Avskarnjarga" />
		<tag k="ssr:stedsnr" v="262414" />
	</node>
	<node lat="70.1967944470938" lon="22.95514160293854" id="-95747">
		<tag k="alt_name:no" v="Klubbeneset" />
		<tag k="name" v="Klubbenes - Liehpanjárga" />
		<tag k="name:no" v="Klubbenes" />
		<tag k="name:se" v="Liehpanjárga" />
		<tag k="natural" v="cape" />
		<tag k="old_name:se" v="Lieppanjarga" />
		<tag k="ssr:stedsnr" v="262695" />
	</node>
	<node lat="70.20513055909544" lon="22.914738810294597" id="-95749">
		<tag k="name" v="Ytterbukt" />
		<tag k="natural" v="bay" />
		<tag k="ssr:stedsnr" v="262697" />
	</node>
	<node lat="70.33297777876774" lon="22.91890270761503" id="-95755">
		<tag k="name" v="Storholmen - Stuorasuolu" />
		<tag k="name:no" v="Storholmen" />
		<tag k="name:se" v="Stuorasuolu" />
		<tag k="old_name:se" v="Stuorasuolo" />
		<tag k="place" v="islet" />
		<tag k="ssr:stedsnr" v="262903" />
	</node>
	<node lat="69.946991668065" lon="23.143991587626022" id="-95776">
		<tag k="loc_name:se" v="Suollegieddi" />
		<tag k="name" v="Saltvik" />
		<tag k="name:no" v="Saltvik" />
		<tag k="natural" v="bay" />
		<tag k="ssr:stedsnr" v="268489" />
	</node>
	<node lat="70.31811944245007" lon="22.900577717683735" id="-95778">
		<tag k="name" v="Ørnbukta" />
		<tag k="natural" v="bay" />
		<tag k="ssr:stedsnr" v="268628" />
	</node>
	<node lat="70.17700833912676" lon="23.36138326368607" id="-95782">
		<tag k="name" v="Skoglandet - Rohtoeatnan" />
		<tag k="name:no" v="Skoglandet" />
		<tag k="name:se" v="Rohtoeatnan" />
		<tag k="natural" v="beach" />
		<tag k="ssr:stedsnr" v="268976" />
	</node>
	<node lat="70.28813334044402" lon="23.567891572163546" id="-95784">
		<tag k="name" v="Ládogohppi" />
		<tag k="name:se" v="Ládogohppi" />
		<tag k="natural" v="bay" />
		<tag k="ssr:stedsnr" v="269175" />
	</node>
	<node lat="70.28197222987347" lon="23.508672128771064" id="-95792">
		<tag k="name" v="Indre Vigeluft" />
		<tag k="natural" v="bay" />
		<tag k="ssr:stedsnr" v="459121" />
	</node>
	<node lat="70.36029166387057" lon="22.967427716140964" id="-95793">
		<tag k="name" v="Botn" />
		<tag k="natural" v="bay" />
		<tag k="ssr:stedsnr" v="459681" />
	</node>
	<node lat="70.20721666429878" lon="22.62185828417138" id="-95794">
		<tag k="name" v="Lillesand" />
		<tag k="natural" v="beach" />
		<tag k="ssr:stedsnr" v="459689" />
	</node>
	<node lat="70.01983055626646" lon="23.047691597116675" id="-95808">
		<tag k="name" v="Neset" />
		<tag k="natural" v="cape" />
		<tag k="ssr:stedsnr" v="288784" />
	</node>
	<node lat="70.15183888772945" lon="23.30120824245532" id="-95839">
		<tag k="name" v="Småvika" />
		<tag k="natural" v="bay" />
		<tag k="ssr:stedsnr" v="322636" />
	</node>
	<node lat="70.0381499988686" lon="23.276222133552604" id="-95842">
		<tag k="name" v="Djupbukta" />
		<tag k="natural" v="bay" />
		<tag k="ssr:stedsnr" v="322787" />
	</node>
	<node lat="70.29286944757443" lon="23.529783240815572" id="-95871">
		<tag k="name" v="Skjærbukt" />
		<tag k="name:no" v="Skjærbukt" />
		<tag k="name:se" v="Lásságohppi" />
		<tag k="natural" v="bay" />
		<tag k="ssr:stedsnr" v="330209" />
	</node>
	<node lat="70.2937500005038" lon="23.528983249032382" id="-95872">
		<tag k="name" v="Odden" />
		<tag k="name:no" v="Odden" />
		<tag k="name:se" v="Skajjájárga" />
		<tag k="natural" v="cape" />
		<tag k="ssr:stedsnr" v="330211" />
	</node>
	<node lat="69.9678555575867" lon="23.110391597583448" id="-95876">
		<tag k="name" v="Storvikeidet" />
		<tag k="place" v="locality" />
		<tag k="ssr:stedsnr" v="330484" />
	</node>
	<node lat="70.24821111346915" lon="23.40456103076494" id="-95879">
		<tag k="name" v="Basnjárga" />
		<tag k="name:se" v="Basnjárga" />
		<tag k="natural" v="cape" />
		<tag k="ssr:stedsnr" v="330867" />
	</node>
	<node lat="69.9584749990716" lon="23.21161381157098" id="-95883">
		<tag k="name" v="Kongsvika" />
		<tag k="natural" v="bay" />
		<tag k="ssr:stedsnr" v="470845" />
	</node>
	<node lat="70.31068055473787" lon="23.04527491914765" id="-95885">
		<tag k="fixme" v="consider seamark:type=rock or natural=shoal" />
		<tag k="name" v="Indre Skjærran" />
		<tag k="place" v="islet" />
		<tag k="ssr:stedsnr" v="336511" />
	</node>
	<node lat="70.28885000285331" lon="23.067983271464186" id="-95886">
		<tag k="name" v="Hakkstabbholmen" />
		<tag k="place" v="islet" />
		<tag k="ssr:stedsnr" v="336534" />
	</node>
	<node lat="70.26471944503457" lon="23.276066596168462" id="-95889">
		<tag k="name" v="Klubbgrunnen" />
		<tag k="natural" v="shoal" />
		<tag k="place" v="locality" />
		<tag k="ssr:stedsnr" v="337119" />
	</node>
	<node lat="70.35578888873927" lon="22.913691596985167" id="-95890">
		<tag k="fixme" v="consider seamark:type=rock or natural=shoal" />
		<tag k="name" v="Lillehamnskjæret" />
		<tag k="place" v="islet" />
		<tag k="ssr:stedsnr" v="337654" />
	</node>
	<node lat="70.07134999984876" lon="22.561499935730403" id="-95905">
		<tag k="name" v="Ytrebåen" />
		<tag k="natural" v="shoal" />
		<tag k="place" v="locality" />
		<tag k="ssr:stedsnr" v="348664" />
	</node>
	<node lat="70.30192222825401" lon="22.947708271929237" id="-95914">
		<tag k="name" v="Lille Kvalfjordneset" />
		<tag k="natural" v="cape" />
		<tag k="ssr:stedsnr" v="476422" />
	</node>
	<node lat="70.35295000147573" lon="22.970380479249215" id="-95921">
		<tag k="bay" v="fjord" />
		<tag k="name" v="Lille Kufjorden - Unna Vuođđovuonaš" />
		<tag k="name:no" v="Lille Kufjorden" />
		<tag k="name:se" v="Unna Vuođđovuonaš" />
		<tag k="natural" v="bay" />
		<tag k="old_name:no" v="Kufjorden, l" />
		<tag k="old_name:se" v="Vuođđuvuonaš unna" />
		<tag k="ssr:stedsnr" v="383015" />
	</node>
	<node lat="69.97619444813462" lon="23.415113794520572" id="-95928">
		<tag k="name" v="Rørholmen" />
		<tag k="place" v="islet" />
		<tag k="ssr:stedsnr" v="383512" />
	</node>
	<node lat="70.26280833467773" lon="23.004099924404517" id="-95930">
		<tag k="alt_name" v="Stjernøyodden" />
		<tag k="name" v="Stjernodden" />
		<tag k="natural" v="cape" />
		<tag k="ssr:stedsnr" v="383551" />
	</node>
	<node lat="70.09560000664584" lon="22.501791602746447" id="-95932">
		<tag k="name" v="Tappelufteidet - Dáhpeluovttmuotki" />
		<tag k="name:no" v="Tappelufteidet" />
		<tag k="name:se" v="Dáhpeluovttmuotki" />
		<tag k="old_name:se" v="Dappeluovtmuotki" />
		<tag k="place" v="locality" />
		<tag k="ssr:stedsnr" v="383558" />
	</node>
	<node lat="70.09991944873396" lon="23.21236935979643" id="-95941">
		<tag k="name" v="Nordneset" />
		<tag k="natural" v="cape" />
		<tag k="ssr:stedsnr" v="383704" />
	</node>
	<node lat="70.29116111303543" lon="23.06748605298064" id="-95944">
		<tag k="name" v="Daudingsberget" />
		<tag k="natural" v="cape" />
		<tag k="ssr:stedsnr" v="383913" />
	</node>
	<node lat="70.34484722215177" lon="23.37861379203779" id="-95950">
		<tag k="fixme" v="consider seamark:type=rock or natural=shoal" />
		<tag k="name" v="Rundingen" />
		<tag k="place" v="islet" />
		<tag k="ssr:stedsnr" v="383898" />
	</node>
	<node lat="70.04577222320596" lon="22.962819383980516" id="-95960">
		<tag k="name" v="Jansnesfjæra" />
		<tag k="natural" v="beach" />
		<tag k="ssr:stedsnr" v="389042" />
	</node>
	<node lat="70.34160277699317" lon="22.83541660382586" id="-95971">
		<tag k="name" v="Russehamnklubben" />
		<tag k="natural" v="cape" />
		<tag k="ssr:stedsnr" v="389802" />
	</node>
	<node lat="70.33077777742874" lon="22.943774941130254" id="-95979">
		<tag k="name" v="Lille Mjånes" />
		<tag k="natural" v="cape" />
		<tag k="ssr:stedsnr" v="390504" />
	</node>
	<node lat="70.32328889207982" lon="23.024555485887074" id="-95980">
		<tag k="name" v="Lillegrunnen" />
		<tag k="natural" v="shoal" />
		<tag k="place" v="locality" />
		<tag k="ssr:stedsnr" v="390537" />
	</node>
	<node lat="70.13876111594297" lon="23.23235270147778" id="-95981">
		<tag k="name" v="Leira" />
		<tag k="natural" v="bay" />
		<tag k="ssr:stedsnr" v="390588" />
	</node>
	<node lat="70.32525277867333" lon="23.440919354749596" id="-95984">
		<tag k="name" v="Rekvik" />
		<tag k="natural" v="bay" />
		<tag k="ssr:stedsnr" v="390845" />
	</node>
	<node lat="70.37437500531476" lon="23.11030826235167" id="-96011">
		<tag k="name" v="Hammarbukta - Hámmargohppi" />
		<tag k="name:no" v="Hammarbukta" />
		<tag k="name:se" v="Hámmargohppi" />
		<tag k="natural" v="bay" />
		<tag k="old_name:se" v="Hammargåppi" />
		<tag k="ssr:stedsnr" v="444015" />
	</node>
	<node lat="70.3963555560972" lon="23.123319382157767" id="-96012">
		<tag k="name" v="Elvenes - Johkanjárga" />
		<tag k="name:no" v="Elvenes" />
		<tag k="name:se" v="Johkanjárga" />
		<tag k="natural" v="cape" />
		<tag k="old_name:se" v="Jåkkanjarga" />
		<tag k="ssr:stedsnr" v="444017" />
	</node>
	<node lat="70.05855556061276" lon="22.99684158547867" id="-96033">
		<tag k="name" v="Fornes" />
		<tag k="natural" v="cape" />
		<tag k="ssr:stedsnr" v="444782" />
	</node>
	<node lat="70.32038889051202" lon="23.051191589384153" id="-96036">
		<tag k="alt_name" v="Skjåvikbukt" />
		<tag k="name" v="Skjåvikbukta" />
		<tag k="natural" v="bay" />
		<tag k="ssr:stedsnr" v="444908" />
	</node>
	<node lat="69.93471666461498" lon="23.03186660018064" id="-96046">
		<tag k="name" v="Gabrielneset" />
		<tag k="name:no" v="Gabrielneset" />
		<tag k="name:se" v="Huhttanjárga" />
		<tag k="natural" v="cape" />
		<tag k="ssr:stedsnr" v="450223" />
	</node>
	<node lat="70.10043611229376" lon="23.30524713577895" id="-96064">
		<tag k="name" v="Pavenes" />
		<tag k="natural" v="cape" />
		<tag k="ssr:stedsnr" v="451212" />
	</node>
	<node lat="70.17457222848475" lon="23.30471936754405" id="-96065">
		<tag k="name" v="Krunes" />
		<tag k="natural" v="cape" />
		<tag k="ssr:stedsnr" v="451610" />
	</node>
	<node lat="70.30001388798739" lon="23.49561379436161" id="-96069">
		<tag k="name" v="Giellagohppi" />
		<tag k="name:se" v="Giellagohppi" />
		<tag k="natural" v="bay" />
		<tag k="ssr:stedsnr" v="451872" />
	</node>
	<node lat="70.05655277669966" lon="22.36207495588579" id="-96097">
		<tag k="name" v="Seakkanjárga" />
		<tag k="name:se" v="Seakkanjárga" />
		<tag k="natural" v="cape" />
		<tag k="old_name:se" v="Sægganjarga" />
		<tag k="ssr:stedsnr" v="504503" />
	</node>
	<node lat="70.06295000078569" lon="22.52194995391685" id="-96099">
		<tag k="name" v="Herranes" />
		<tag k="name:no" v="Herranes" />
		<tag k="name:se" v="Hearranjárga" />
		<tag k="natural" v="cape" />
		<tag k="ssr:stedsnr" v="504510" />
	</node>
	<node lat="70.0033638912728" lon="23.217855461877917" id="-96102">
		<tag k="name" v="Brennholmskjæret" />
		<tag k="natural" v="shoal" />
		<tag k="place" v="locality" />
		<tag k="ssr:stedsnr" v="504771" />
	</node>
	<node lat="70.14783888757867" lon="23.167711036205237" id="-96117">
		<tag k="alt_name" v="Skagen" />
		<tag k="name" v="Vikskaget" />
		<tag k="natural" v="cape" />
		<tag k="ssr:stedsnr" v="505668" />
	</node>
	<node lat="70.27875278087615" lon="23.117097140433795" id="-96125">
		<tag k="alt_name:no" v="Oldervik" />
		<tag k="name" v="Oldervika - Leaibeluovta" />
		<tag k="name:no" v="Oldervika" />
		<tag k="name:se" v="Leaibeluovta" />
		<tag k="natural" v="bay" />
		<tag k="old_name:se" v="Læibeluokta" />
		<tag k="ssr:stedsnr" v="505913" />
	</node>
	<node lat="70.09850555473558" lon="22.990066582595453" id="-96127">
		<tag k="name" v="Karsnesbukta" />
		<tag k="natural" v="bay" />
		<tag k="ssr:stedsnr" v="511113" />
	</node>
	<node lat="70.04070833845569" lon="22.96042771445819" id="-96130">
		<tag k="name" v="Klokkarnes" />
		<tag k="natural" v="cape" />
		<tag k="ssr:stedsnr" v="511057" />
	</node>
	<node lat="70.34450833316095" lon="22.951447150288285" id="-96139">
		<tag k="alt_name" v="Indre Junkerhamna" />
		<tag k="name" v="Junkerhamn" />
		<tag k="natural" v="bay" />
		<tag k="ssr:stedsnr" v="511515" />
	</node>
	<node lat="70.3153638914514" lon="22.88554438219938" id="-96141">
		<tag k="name" v="Biranvika" />
		<tag k="name:no" v="Biranvika" />
		<tag k="name:se" v="Birangohpi" />
		<tag k="natural" v="bay" />
		<tag k="ssr:stedsnr" v="511590" />
	</node>
	<node lat="70.21368611818015" lon="23.183483248451733" id="-96149">
		<tag k="loc_name:fkv" v="Ruoslahti" />
		<tag k="name" v="Russeluft" />
		<tag k="name:no" v="Russeluft" />
		<tag k="natural" v="bay" />
		<tag k="ssr:stedsnr" v="512621" />
	</node>
	<node lat="70.14060556167773" lon="23.28516380739101" id="-96154">
		<tag k="name" v="Skagodden" />
		<tag k="natural" v="cape" />
		<tag k="ssr:stedsnr" v="512905" />
	</node>
	<node lat="70.13851389492979" lon="23.28595826022213" id="-96155">
		<tag k="name" v="Snaget" />
		<tag k="natural" v="strait" />
		<tag k="ssr:stedsnr" v="512907" />
	</node>
	<node lat="70.2704444468811" lon="23.38703325077635" id="-96156">
		<tag k="name" v="Kastar" />
		<tag k="natural" v="beach" />
		<tag k="ssr:stedsnr" v="512870" />
	</node>
	<node lat="70.34993611510217" lon="23.41725546989926" id="-96162">
		<tag k="name" v="Lille Bekkarfjordnes" />
		<tag k="natural" v="cape" />
		<tag k="ssr:stedsnr" v="518505" />
	</node>
	<node lat="70.25642500413736" lon="23.032722153971488" id="-96164">
		<tag k="name" v="Stjernoddgrunnen" />
		<tag k="natural" v="shoal" />
		<tag k="place" v="locality" />
		<tag k="ssr:stedsnr" v="519704" />
	</node>
	<node lat="70.37585833197555" lon="22.89029992937665" id="-96175">
		<tag k="name" v="Svinbukta" />
		<tag k="name:no" v="Svinbukta" />
		<tag k="name:se" v="Olggut Spiidnegohppi" />
		<tag k="natural" v="bay" />
		<tag k="ssr:stedsnr" v="686022" />
	</node>
	<node lat="70.1253277796693" lon="22.99287771803194" id="-96177">
		<tag k="name" v="Gjerøyra" />
		<tag k="natural" v="shoal" />
		<tag k="place" v="locality" />
		<tag k="ssr:stedsnr" v="531854" />
	</node>
	<node lat="70.21330000455168" lon="22.599149955025325" id="-96182">
		<tag k="loc_name:se" v="Láddonjárga" />
		<tag k="name" v="Laddoneset" />
		<tag k="name:no" v="Laddoneset" />
		<tag k="natural" v="cape" />
		<tag k="ssr:stedsnr" v="686374" />
	</node>
	<node lat="69.96578333945408" lon="23.13393325054854" id="-96191">
		<tag k="name" v="Ytterbukta" />
		<tag k="name:no" v="Ytterbukta" />
		<tag k="name:se" v="Ávskárnjárluovta" />
		<tag k="natural" v="bay" />
		<tag k="ssr:stedsnr" v="686415" />
	</node>
	<node lat="70.11036111024998" lon="22.884041595405797" id="-96212">
		<tag k="name" v="Sandnesbukta" />
		<tag k="natural" v="bay" />
		<tag k="ssr:stedsnr" v="686718" />
	</node>
	<node lat="70.36195278329897" lon="22.896794382642494" id="-96229">
		<tag k="name" v="Gammelvær - Boaresvearra" />
		<tag k="name:no" v="Gammelvær" />
		<tag k="name:se" v="Boaresvearra" />
		<tag k="natural" v="cape" />
		<tag k="old_name:se" v="Boaresværra" />
		<tag k="ssr:stedsnr" v="687013" />
	</node>
	<node lat="70.3911104943566" lon="22.77207293042092" id="-96232">
		<tag k="alt_name:no" v="Varneset" />
		<tag k="name" v="Vardnes" />
		<tag k="name:no" v="Vardnes" />
		<tag k="name:se" v="Várnjárga" />
		<tag k="natural" v="cape" />
		<tag k="old_name:se" v="Varnjarga" />
		<tag k="ssr:stedsnr" v="687176" />
	</node>
	<node lat="70.28642778143742" lon="23.439222130831183" id="-96252">
		<tag k="alt_name:no" v="Sommerbukt" />
		<tag k="name" v="Sommarbukt" />
		<tag k="name:no" v="Sommarbukt" />
		<tag k="name:se" v="Geassajji" />
		<tag k="natural" v="bay" />
		<tag k="ssr:stedsnr" v="687805" />
	</node>
	<node lat="70.33548056054416" lon="22.810394382739986" id="-96273">
		<tag k="name" v="Pollrevet" />
		<tag k="natural" v="cape" />
		<tag k="ssr:stedsnr" v="688151" />
	</node>
	<node lat="70.2504305559346" lon="22.466327715286052" id="-96285">
		<tag k="name" v="Juvikneset" />
		<tag k="natural" v="cape" />
		<tag k="ssr:stedsnr" v="565075" />
	</node>
	<node lat="70.017558333174" lon="23.04309435684174" id="-96288">
		<tag k="name" v="Leirholmen" />
		<tag k="natural" v="cape" />
		<tag k="ssr:stedsnr" v="693388" />
	</node>
	<node lat="70.27736111692512" lon="22.506472159854194" id="-96297">
		<tag k="alt_name:no" v="Skogneset" />
		<tag k="name" v="Skognes - Vuovdenjárga" />
		<tag k="name:no" v="Skognes" />
		<tag k="name:se" v="Vuovdenjárga" />
		<tag k="natural" v="cape" />
		<tag k="old_name:se" v="Vuovdenjarga" />
		<tag k="ssr:stedsnr" v="565411" />
	</node>
	<node lat="69.93749444676503" lon="23.098919368413448" id="-96298">
		<tag k="name" v="Leirbukta" />
		<tag k="name:no" v="Leirbukta" />
		<tag k="name:se" v="Reaššebahta" />
		<tag k="natural" v="bay" />
		<tag k="ssr:stedsnr" v="565412" />
	</node>
	<node lat="70.06484444358951" lon="22.994508251286927" id="-96316">
		<tag k="name" v="Krakvika" />
		<tag k="natural" v="bay" />
		<tag k="ssr:stedsnr" v="693035" />
	</node>
	<node lat="69.99311666622413" lon="23.29194436883821" id="-96323">
		<tag k="name" v="Klompagoppa" />
		<tag k="natural" v="bay" />
		<tag k="ssr:stedsnr" v="693277" />
	</node>
	<node lat="70.03780555510889" lon="22.972402703351882" id="-96341">
		<tag k="name" v="Plysterviknes" />
		<tag k="natural" v="cape" />
		<tag k="ssr:stedsnr" v="571050" />
	</node>
	<node lat="70.3284583380824" lon="22.828524932135952" id="-96347">
		<tag k="name" v="Vedbukta" />
		<tag k="natural" v="bay" />
		<tag k="ssr:stedsnr" v="571850" />
	</node>
	<node lat="70.33386389102624" lon="22.882180485242802" id="-96362">
		<tag k="name" v="Havnereset" />
		<tag k="natural" v="cape" />
		<tag k="ssr:stedsnr" v="693848" />
	</node>
	<node lat="70.25843333103813" lon="23.29775548205468" id="-96368">
		<tag k="name" v="Klubbelandet" />
		<tag k="natural" v="beach" />
		<tag k="ssr:stedsnr" v="693926" />
	</node>
	<node lat="70.10493611193681" lon="22.991663808592364" id="-96372">
		<tag k="name" v="Langnesbukta" />
		<tag k="natural" v="bay" />
		<tag k="ssr:stedsnr" v="694089" />
	</node>
	<node lat="70.29785000117342" lon="23.602422131927668" id="-96374">
		<tag k="name" v="Kjosen" />
		<tag k="natural" v="bay" />
		<tag k="ssr:stedsnr" v="694161" />
	</node>
	<node lat="70.2922666707034" lon="23.53558880208176" id="-96375">
		<tag k="name" v="Klubben" />
		<tag k="name:no" v="Klubben" />
		<tag k="name:se" v="Klubbu" />
		<tag k="natural" v="cape" />
		<tag k="ssr:stedsnr" v="694162" />
	</node>
	<node lat="70.00696111447145" lon="23.096994360135128" id="-96379">
		<tag k="name" v="Ølvika" />
		<tag k="natural" v="bay" />
		<tag k="ssr:stedsnr" v="694349" />
	</node>
	<node lat="70.1753861095036" lon="23.283388812639675" id="-96382">
		<tag k="name" v="Biggebåen" />
		<tag k="place" v="locality" />
		<tag k="seamark:type" v="rock" />
		<tag k="ssr:stedsnr" v="694591" />
	</node>
	<node lat="70.24445833197608" lon="23.38354991377591" id="-96384">
		<tag k="name" v="Leksterluft" />
		<tag k="name:no" v="Leksterluft" />
		<tag k="name:se" v="Liektargohppi" />
		<tag k="natural" v="cape" />
		<tag k="ssr:stedsnr" v="694806" />
	</node>
	<node lat="70.24778889420332" lon="23.410902681518476" id="-96385">
		<tag k="name" v="Klubben" />
		<tag k="natural" v="cape" />
		<tag k="ssr:stedsnr" v="694814" />
	</node>
	<node lat="70.34741666862828" lon="23.078069376876137" id="-96390">
		<tag k="name" v="Bjørnebukt" />
		<tag k="natural" v="bay" />
		<tag k="ssr:stedsnr" v="579528" />
	</node>
	<node lat="70.03295277646875" lon="22.934658262691833" id="-96401">
		<tag k="name" v="Storvannstrand" />
		<tag k="natural" v="beach" />
		<tag k="ssr:stedsnr" v="591815" />
	</node>
	<node lat="70.2412277808093" lon="23.319094362413267" id="-96407">
		<tag k="loc_name:se" v="Olggot Láppisluovta;Olggut Láppisluovta" />
		<tag k="name" v="Ytre Lamvik" />
		<tag k="name:no" v="Ytre Lamvik" />
		<tag k="natural" v="bay" />
		<tag k="ssr:stedsnr" v="700848" />
	</node>
	<node lat="70.34040833515994" lon="22.8693416103586" id="-96442">
		<tag k="name" v="Dáččanjárga" />
		<tag k="name:no" v="Nordmannsnes" />
		<tag k="name:se" v="Dáččanjárga" />
		<tag k="natural" v="cape" />
		<tag k="old_name:se" v="Dažžanjarga" />
		<tag k="ssr:stedsnr" v="626903" />
	</node>
	<node lat="70.32498333373047" lon="22.929788815648948" id="-96443">
		<tag k="name" v="Maggaluft" />
		<tag k="name:no" v="Maggaluft" />
		<tag k="name:se" v="Mákkáluovta" />
		<tag k="natural" v="bay" />
		<tag k="ssr:stedsnr" v="626911" />
	</node>
	<node lat="70.1373750002676" lon="23.000769380324993" id="-96461">
		<tag k="name" v="Valtoften" />
		<tag k="natural" v="strait" />
		<tag k="ssr:stedsnr" v="633138" />
	</node>
	<node lat="69.93809167033433" lon="23.124361032188382" id="-96465">
		<tag k="name" v="Hestesjellneset" />
		<tag k="natural" v="cape" />
		<tag k="ssr:stedsnr" v="633490" />
	</node>
	<node lat="70.28571666856571" lon="23.087066604364868" id="-96467">
		<tag k="name" v="Steinnes" />
		<tag k="natural" v="cape" />
		<tag k="ssr:stedsnr" v="633579" />
	</node>
	<node lat="70.23910555637796" lon="23.435744356761788" id="-96469">
		<tag k="name" v="Næverviknes" />
		<tag k="natural" v="cape" />
		<tag k="ssr:stedsnr" v="633838" />
	</node>
	<node lat="70.24948889000514" lon="23.391266567531368" id="-96472">
		<tag k="name" v="Roađđu" />
		<tag k="name:se" v="Roađđu" />
		<tag k="natural" v="beach" />
		<tag k="ssr:stedsnr" v="633800" />
	</node>
	<node lat="70.35759722116607" lon="22.886927708998527" id="-96479">
		<tag k="name" v="Storegrunnen" />
		<tag k="natural" v="shoal" />
		<tag k="place" v="locality" />
		<tag k="ssr:stedsnr" v="640682" />
	</node>
	<node lat="70.39155278001854" lon="22.869497167732796" id="-96480">
		<tag k="name" v="Reinvika" />
		<tag k="natural" v="bay" />
		<tag k="ssr:stedsnr" v="640683" />
	</node>
	<node lat="70.25431110955869" lon="22.68695828525842" id="-96481">
		<tag k="name" v="Bukkebuktneset" />
		<tag k="natural" v="cape" />
		<tag k="ssr:stedsnr" v="640888" />
	</node>
	<node lat="70.02349444678185" lon="23.04734436055598" id="-96502">
		<tag k="name" v="Neseflua" />
		<tag k="natural" v="shoal" />
		<tag k="place" v="locality" />
		<tag k="ssr:stedsnr" v="652784" />
	</node>
	<node lat="70.24558125829202" lon="22.79951105660029" id="-96547">
		<tag k="name" v="Smalneset - Seakkanjárga" />
		<tag k="name:no" v="Smalneset" />
		<tag k="name:se" v="Seakkanjárga" />
		<tag k="natural" v="cape" />
		<tag k="old_name:se" v="Sægganjarga" />
		<tag k="ssr:stedsnr" v="686498" />
	</node>
	<node lat="70.14525278329104" lon="22.89047493170627" id="-96548">
		<tag k="name" v="Laddeøyra" />
		<tag k="natural" v="cape" />
		<tag k="ssr:stedsnr" v="686637" />
	</node>
	<node lat="70.24131110986484" lon="23.27279715122022" id="-96553">
		<tag k="alt_name:no" v="Moseneset" />
		<tag k="name" v="Mosenes - Moršanjárga" />
		<tag k="name:no" v="Mosenes" />
		<tag k="name:se" v="Moršanjárga" />
		<tag k="natural" v="cape" />
		<tag k="old_name:se" v="Måršanjarga;Morsanjárga" />
		<tag k="ssr:stedsnr" v="686588" />
	</node>
	<node lat="70.034736116561" lon="23.287677686294032" id="-96560">
		<tag k="name" v="Sagelvneset" />
		<tag k="natural" v="cape" />
		<tag k="ssr:stedsnr" v="686788" />
	</node>
	<node lat="70.20056666914616" lon="22.943194381751354" id="-96570">
		<tag k="name" v="Inderbukta" />
		<tag k="natural" v="bay" />
		<tag k="ssr:stedsnr" v="687698" />
	</node>
	<node lat="70.20606388876" lon="22.840438817331954" id="-96571">
		<tag k="name" v="Njuorjjogohppi" />
		<tag k="name:se" v="Njuorjjogohppi" />
		<tag k="natural" v="bay" />
		<tag k="old_name:se" v="Njuorjugåppi" />
		<tag k="ssr:stedsnr" v="687590" />
	</node>
	<node lat="70.04447777787354" lon="23.23839992684189" id="-96575">
		<tag k="name" v="Sjøbuktneset" />
		<tag k="natural" v="cape" />
		<tag k="ssr:stedsnr" v="687787" />
	</node>
	<node lat="70.33468055928438" lon="22.820877707347943" id="-96580">
		<tag k="name" v="Pollholmen" />
		<tag k="name:no" v="Pollholmen" />
		<tag k="name:se" v="Bollosuolu" />
		<tag k="place" v="island" />
		<tag k="ssr:stedsnr" v="687888" />
	</node>
	<node lat="70.08783333436361" lon="22.98828048630282" id="-96586">
		<tag k="name" v="Lille Hovdenes" />
		<tag k="natural" v="cape" />
		<tag k="ssr:stedsnr" v="693026" />
	</node>
	<node lat="70.33022222261526" lon="22.828744383386983" id="-96596">
		<tag k="name" v="Gambukta" />
		<tag k="name:no" v="Gambukta" />
		<tag k="name:se" v="Goahtegohppi" />
		<tag k="natural" v="bay" />
		<tag k="ssr:stedsnr" v="693814" />
	</node>
	<node lat="70.13910277749122" lon="22.995388818573172" id="-96601">
		<tag k="name" v="Toftebukta" />
		<tag k="natural" v="bay" />
		<tag k="ssr:stedsnr" v="694108" />
	</node>
	<node lat="70.10183055959365" lon="23.26470548721439" id="-96604">
		<tag k="alt_name" v="Skavvika" />
		<tag k="name" v="Skavikbukta" />
		<tag k="natural" v="bay" />
		<tag k="ssr:stedsnr" v="694179" />
	</node>
	<node lat="70.15013055554917" lon="23.21194437451606" id="-96606">
		<tag k="name" v="Skippet" />
		<tag k="natural" v="cape" />
		<tag k="ssr:stedsnr" v="694603" />
	</node>
	<node lat="70.23242778112483" lon="23.403049923079333" id="-96610">
		<tag k="name" v="Guoviluovta" />
		<tag k="name:se" v="Guoviluovta" />
		<tag k="natural" v="bay" />
		<tag k="ssr:stedsnr" v="694784" />
	</node>
	<node lat="70.24534444781395" lon="23.36951659478979" id="-96611">
		<tag k="fixme" v="consider seamark:type=rock or natural=shoal" />
		<tag k="name" v="Gammelheimskjæret" />
		<tag k="name:no" v="Gammelheimskjæret" />
		<tag k="name:se" v="Ahcingeargi" />
		<tag k="place" v="islet" />
		<tag k="ssr:stedsnr" v="694971" />
	</node>
	<node lat="70.09566111066407" lon="23.199341590557776" id="-96616">
		<tag k="name" v="Berget" />
		<tag k="natural" v="cape" />
		<tag k="ssr:stedsnr" v="895994" />
	</node>
	<node lat="70.34707222092669" lon="22.941236034141955" id="-96621">
		<tag k="name" v="Ytre Junkerhamna" />
		<tag k="natural" v="bay" />
		<tag k="ssr:stedsnr" v="701723" />
	</node>
	<node lat="70.07804722737131" lon="22.595330489048347" id="-96634">
		<tag k="name" v="Skrivarneset" />
		<tag k="natural" v="cape" />
		<tag k="ssr:stedsnr" v="713727" />
	</node>
	<node lat="70.03116389422574" lon="23.180058260586314" id="-96635">
		<tag k="name" v="Tømmerholmgrunnen" />
		<tag k="natural" v="shoal" />
		<tag k="place" v="locality" />
		<tag k="ssr:stedsnr" v="713813" />
	</node>
	<node lat="70.03949722929181" lon="23.11751103181212" id="-96636">
		<tag k="name" v="Skarvegrunnen" />
		<tag k="natural" v="shoal" />
		<tag k="place" v="locality" />
		<tag k="ssr:stedsnr" v="713814" />
	</node>
	<node lat="70.14173333271837" lon="23.170586025767104" id="-96637">
		<tag k="name" v="Vardneset" />
		<tag k="natural" v="cape" />
		<tag k="ssr:stedsnr" v="713995" />
	</node>
	<node lat="70.04016388942233" lon="22.341847168422277" id="-96660">
		<tag k="name" v="Martinusneset" />
		<tag k="natural" v="cape" />
		<tag k="ssr:stedsnr" v="747616" />
	</node>
	<node lat="70.14194166902993" lon="22.881758256141666" id="-96661">
		<tag k="name" v="Báhtegohppi" />
		<tag k="name:se" v="Báhtegohppi" />
		<tag k="natural" v="bay" />
		<tag k="old_name:se" v="Battegåppi" />
		<tag k="ssr:stedsnr" v="747617" />
	</node>
	<node lat="70.29316944670704" lon="23.528405456938717" id="-96673">
		<tag k="name" v="Marines" />
		<tag k="natural" v="cape" />
		<tag k="ssr:stedsnr" v="748813" />
	</node>
	<node lat="70.02221389406323" lon="23.36914435941966" id="-96693">
		<tag k="name" v="Holmebukta" />
		<tag k="natural" v="bay" />
		<tag k="ssr:stedsnr" v="754207" />
	</node>
	<node lat="70.12509167084941" lon="23.371430460486984" id="-96702">
		<tag k="fixme" v="consider seamark:type=rock or natural=shoal" />
		<tag k="name" v="Skjæret" />
		<tag k="place" v="islet" />
		<tag k="ssr:stedsnr" v="754512" />
	</node>
	<node lat="70.3093944494998" lon="23.061638823166422" id="-96707">
		<tag k="name" v="Skjellbukt" />
		<tag k="name:no" v="Skjellbukt" />
		<tag k="name:se" v="Skálžogohppi" />
		<tag k="natural" v="bay" />
		<tag k="ssr:stedsnr" v="755603" />
	</node>
	<node lat="70.14088889194956" lon="23.279972127277503" id="-96748">
		<tag k="alt_name" v="Skagen" />
		<tag k="name" v="Kongshusskaget" />
		<tag k="natural" v="cape" />
		<tag k="ssr:stedsnr" v="808639" />
	</node>
	<node lat="70.24429444713397" lon="23.394472134908284" id="-96754">
		<tag k="name" v="Eidsnes" />
		<tag k="name:no" v="Eidsnes" />
		<tag k="name:se" v="Muotkenjárga" />
		<tag k="natural" v="cape" />
		<tag k="ssr:stedsnr" v="808586" />
	</node>
	<node lat="70.05663055665865" lon="23.203836022912093" id="-96756">
		<tag k="loc_name:se" v="Márttagohppi" />
		<tag k="name" v="Martabukta" />
		<tag k="name:no" v="Martabukta" />
		<tag k="natural" v="bay" />
		<tag k="ssr:stedsnr" v="808788" />
	</node>
	<node lat="70.25151111267606" lon="22.713419372276746" id="-96761">
		<tag k="name" v="Simavikneset" />
		<tag k="natural" v="cape" />
		<tag k="ssr:stedsnr" v="809086" />
	</node>
	<node lat="70.33641666956837" lon="22.832208272419205" id="-96777">
		<tag k="name" v="Bukta" />
		<tag k="natural" v="bay" />
		<tag k="ssr:stedsnr" v="814807" />
	</node>
	<node lat="70.14816389353106" lon="23.306502700365677" id="-96786">
		<tag k="name" v="Brenna" />
		<tag k="natural" v="beach" />
		<tag k="ssr:stedsnr" v="815904" />
	</node>
	<node lat="70.33269166689405" lon="23.036213830853406" id="-96789">
		<tag k="name" v="Seigrunnen" />
		<tag k="natural" v="shoal" />
		<tag k="place" v="locality" />
		<tag k="ssr:stedsnr" v="822507" />
	</node>
	<node lat="70.37471944408863" lon="22.732813821939008" id="-96791">
		<tag k="name" v="Indre Kjerringfjordnes" />
		<tag k="natural" v="cape" />
		<tag k="ssr:stedsnr" v="823776" />
	</node>
	<node lat="70.38798055430425" lon="23.098108260111026" id="-96810">
		<tag k="name" v="Skogneset - Vuovdenjárga" />
		<tag k="name:no" v="Skogneset" />
		<tag k="name:se" v="Vuovdenjárga" />
		<tag k="natural" v="cape" />
		<tag k="old_name:se" v="Vuovdenjarga" />
		<tag k="ssr:stedsnr" v="929014" />
	</node>
	<node lat="70.22948055546443" lon="22.524741614495312" id="-96822">
		<tag k="name" v="Ytre Lokkarfjorden" />
		<tag k="name:no" v="Ytre Lokkarfjorden" />
		<tag k="name:se" v="Olggut Rohkalvuonna" />
		<tag k="natural" v="bay" />
		<tag k="old_name:no" v="Lokkarfjorden, yt" />
		<tag k="old_name:se" v="Råkkalvuodna ålgot;Olggut Rohkalvuotna" />
		<tag k="ssr:stedsnr" v="929367" />
	</node>
	<node lat="70.21192222286139" lon="22.776024930140817" id="-96827">
		<tag k="name" v="Småholman - Joahkogeađgi" />
		<tag k="name:no" v="Småholman" />
		<tag k="name:se" v="Joahkogeađgi" />
		<tag k="old_name:se" v="Joakkugæđgi" />
		<tag k="place" v="islet" />
		<tag k="ssr:stedsnr" v="929391" />
	</node>
	<node lat="70.2411611112233" lon="23.412508257239256" id="-96832">
		<tag k="fixme" v="consider seamark:type=rock or natural=shoal" />
		<tag k="name" v="Flatskjæret" />
		<tag k="place" v="islet" />
		<tag k="ssr:stedsnr" v="929559" />
	</node>
	<node lat="70.11848889011452" lon="23.375447123445966" id="-96852">
		<tag k="name" v="Leirbotn - Ráiru" />
		<tag k="name:no" v="Leirbotn" />
		<tag k="name:se" v="Ráiru" />
		<tag k="natural" v="bay" />
		<tag k="old_name:se" v="Rairo" />
		<tag k="ssr:stedsnr" v="929738" />
	</node>
	<node lat="69.93751944702049" lon="23.102372145365276" id="-96894">
		<tag k="name" v="Kvenviknes" />
		<tag k="natural" v="cape" />
		<tag k="ssr:stedsnr" v="869476" />
	</node>
	<node lat="70.24278333176142" lon="23.29827770573731" id="-96895">
		<tag k="alt_name:no" v="Sjæraluft" />
		<tag k="fixme" v="multiple name:se tags, choose one and add the other to alt_name:se" />
		<tag k="name" v="Skjeraluft" />
		<tag k="name:no" v="Skjeraluft" />
		<tag k="name:se" v="Skierreluovta;Šierranluovta;Šearaluovta" />
		<tag k="natural" v="bay" />
		<tag k="ssr:stedsnr" v="869620" />
	</node>
	<node lat="70.1266111146233" lon="23.369747135619118" id="-96901">
		<tag k="name" v="Nordmannsgammen" />
		<tag k="natural" v="cape" />
		<tag k="ssr:stedsnr" v="869772" />
	</node>
	<node lat="69.9203777769126" lon="23.007186028499323" id="-96910">
		<tag k="name" v="Kåfjordbotn" />
		<tag k="name:no" v="Kåfjordbotn" />
		<tag k="name:se" v="Gávvuonbahta" />
		<tag k="natural" v="bay" />
		<tag k="ssr:stedsnr" v="930362" />
	</node>
	<node lat="70.30872499894437" lon="23.479999909854552" id="-96933">
		<tag k="name" v="Ytterbukt" />
		<tag k="name:no" v="Ytterbukt" />
		<tag k="name:se" v="Olggut Gohppi" />
		<tag k="natural" v="bay" />
		<tag k="ssr:stedsnr" v="930811" />
	</node>
	<node lat="70.26218333997147" lon="23.336063810151074" id="-96943">
		<tag k="alt_name" v="Rakaluft" />
		<tag k="name" v="Kråkevik" />
		<tag k="natural" v="bay" />
		<tag k="ssr:stedsnr" v="930921" />
	</node>
	<node lat="70.08321944491918" lon="22.688605507363018" id="-96948">
		<tag k="bay" v="fjord" />
		<tag k="name" v="Langfjorden" />
		<tag k="name:no" v="Langfjorden" />
		<tag k="name:se" v="Lákkovuonna" />
		<tag k="natural" v="bay" />
		<tag k="old_name:se" v="Lagguvuodna;Lákkovuotna" />
		<tag k="ssr:stedsnr" v="931465" />
	</node>
	<node lat="70.32532500146152" lon="22.89215548197416" id="-96952">
		<tag k="name" v="Filialneset" />
		<tag k="natural" v="cape" />
		<tag k="ssr:stedsnr" v="875591" />
	</node>
	<node lat="70.29629444520705" lon="23.51911657147518" id="-96967">
		<tag k="name" v="Marines" />
		<tag k="name:no" v="Marines" />
		<tag k="name:se" v="Márenjárga" />
		<tag k="natural" v="cape" />
		<tag k="ssr:stedsnr" v="876863" />
	</node>
	<node lat="70.28268333668086" lon="23.409799902636273" id="-96968">
		<tag k="name" v="Eielborg" />
		<tag k="name:no" v="Eielborg" />
		<tag k="name:se" v="Eagilborri" />
		<tag k="natural" v="beach" />
		<tag k="ssr:stedsnr" v="876871" />
	</node>
	<node lat="70.28694166819696" lon="23.086924933355466" id="-96978">
		<tag k="alt_name" v="Forsbukt" />
		<tag k="name" v="Forsbukta" />
		<tag k="natural" v="bay" />
		<tag k="ssr:stedsnr" v="883547" />
	</node>
	<node lat="70.24209444290452" lon="22.99534715511884" id="-96980">
		<tag k="alt_name" v="Seterneset;Sæterodden" />
		<tag k="name" v="Seterodden" />
		<tag k="natural" v="cape" />
		<tag k="ssr:stedsnr" v="884911" />
	</node>
	<node lat="70.24782499800938" lon="22.86001937991014" id="-96981">
		<tag k="name" v="Svømmeneset" />
		<tag k="natural" v="cape" />
		<tag k="ssr:stedsnr" v="884899" />
	</node>
	<node lat="69.98041666493086" lon="23.13511381195139" id="-97015">
		<tag k="alt_name:no" v="Kalkneset" />
		<tag k="name" v="Storvikneset" />
		<tag k="name:no" v="Storvikneset" />
		<tag k="name:se" v="Šorisnjárga" />
		<tag k="natural" v="cape" />
		<tag k="ssr:stedsnr" v="929461" />
	</node>
	<node lat="70.14152777865756" lon="23.013647153052986" id="-97016">
		<tag k="fixme" v="consider seamark:type=rock or natural=shoal" />
		<tag k="name" v="Langnesholmskjæret" />
		<tag k="place" v="islet" />
		<tag k="ssr:stedsnr" v="929603" />
	</node>
	<node lat="70.15006111025376" lon="23.204805468188805" id="-97018">
		<tag k="name" v="Krunesbukta" />
		<tag k="natural" v="bay" />
		<tag k="ssr:stedsnr" v="929615" />
	</node>
	<node lat="70.10917222428459" lon="23.32941936831797" id="-97021">
		<tag k="alt_name" v="Bjerkenesgrunnen" />
		<tag k="name" v="Birkenesgrunnen" />
		<tag k="natural" v="shoal" />
		<tag k="place" v="locality" />
		<tag k="ssr:stedsnr" v="929714" />
	</node>
	<node lat="70.02445278073014" lon="23.332449925775663" id="-97027">
		<tag k="loc_name:se" v="Ovllágohppi" />
		<tag k="name" v="Olabukta" />
		<tag k="name:no" v="Olabukta" />
		<tag k="natural" v="bay" />
		<tag k="ssr:stedsnr" v="929752" />
	</node>
	<node lat="70.19886667004302" lon="22.955963829319604" id="-97044">
		<tag k="fixme" v="consider seamark:type=rock or natural=shoal" />
		<tag k="name" v="Klubbenesskjæret - Liehpageađgi" />
		<tag k="name:no" v="Klubbenesskjæret" />
		<tag k="name:se" v="Liehpageađgi" />
		<tag k="old_name:se" v="Lieppagæđgi" />
		<tag k="place" v="islet" />
		<tag k="ssr:stedsnr" v="930705" />
	</node>
	<node lat="70.31002222489674" lon="23.480544359227423" id="-97047">
		<tag k="name" v="Lauknes" />
		<tag k="natural" v="cape" />
		<tag k="ssr:stedsnr" v="930804" />
	</node>
	<node lat="70.33399166749219" lon="23.360188805653028" id="-97050">
		<tag k="fixme" v="consider seamark:type=rock or natural=shoal" />
		<tag k="name" v="Áillas" />
		<tag k="name:se" v="Áillas" />
		<tag k="old_name:se" v="Ailas" />
		<tag k="place" v="islet" />
		<tag k="ssr:stedsnr" v="930884" />
	</node>
	<node lat="70.057063889022" lon="22.997213803087543" id="-97056">
		<tag k="name" v="Keila" />
		<tag k="natural" v="bay" />
		<tag k="ssr:stedsnr" v="936098" />
	</node>
	<node lat="70.24398889080828" lon="23.469033242633852" id="-97073">
		<tag k="name" v="Riđigáddi" />
		<tag k="name:se" v="Riđigáddi" />
		<tag k="natural" v="beach" />
		<tag k="ssr:stedsnr" v="936787" />
	</node>
	<node lat="70.33935277977865" lon="22.831952711088647" id="-97074">
		<tag k="name" v="Svingen" />
		<tag k="natural" v="cape" />
		<tag k="ssr:stedsnr" v="936796" />
	</node>
	<node lat="70.02271111666887" lon="23.35185268347407" id="-97080">
		<tag k="name" v="Kistaneset" />
		<tag k="natural" v="cape" />
		<tag k="ssr:stedsnr" v="937212" />
	</node>
	<node lat="70.33903333913979" lon="22.713383271872967" id="-97093">
		<tag k="name" v="Revet" />
		<tag k="natural" v="shoal" />
		<tag k="place" v="locality" />
		<tag k="ssr:stedsnr" v="944153" />
	</node>
	<node lat="70.3794777818168" lon="22.893191592139242" id="-97124">
		<tag k="name" v="Nordbukta - Norbohttu" />
		<tag k="name:no" v="Nordbukta" />
		<tag k="name:se" v="Norbohttu" />
		<tag k="natural" v="bay" />
		<tag k="old_name:se" v="Nårbåtto" />
		<tag k="ssr:stedsnr" v="19022" />
	</node>
	<node lat="70.41490278031223" lon="22.97618883027287" id="-97127">
		<tag k="name" v="Seiland - Sievju" />
		<tag k="name:no" v="Seiland" />
		<tag k="name:se" v="Sievju" />
		<tag k="old_name:se" v="Sievjo" />
		<tag k="place" v="island" />
		<tag k="ssr:stedsnr" v="19041" />
	</node>
	<node lat="70.31679166659185" lon="22.663258277083965" id="-97146">
		<tag k="alt_name:no" v="Stjernøy" />
		<tag k="name" v="Stjernøya - Stierdná" />
		<tag k="name:no" v="Stjernøya" />
		<tag k="name:se" v="Stierdná" />
		<tag k="old_name:se" v="Stierdna" />
		<tag k="place" v="island" />
		<tag k="ssr:stedsnr" v="19466" />
	</node>
	<node lat="70.24512499941639" lon="22.478349934298382" id="-97148">
		<tag k="fixme" v="multiple name tags, choose one and add the other to alt_name" />
		<tag k="name" v="Øyvika;Juvika" />
		<tag k="natural" v="bay" />
		<tag k="ssr:stedsnr" v="19484" />
	</node>
	<node lat="70.24476667062989" lon="22.921330479163487" id="-97150">
		<tag k="name" v="Látta" />
		<tag k="name:se" v="Látta" />
		<tag k="natural" v="cape" />
		<tag k="old_name:se" v="Ladda" />
		<tag k="ssr:stedsnr" v="19568" />
	</node>
	<node lat="70.10343889431246" lon="23.325472134792662" id="-97179">
		<tag k="alt_name" v="Bjerkenes" />
		<tag k="name" v="Birkenes" />
		<tag k="natural" v="cape" />
		<tag k="ssr:stedsnr" v="19731" />
	</node>
	<node lat="70.02518333865567" lon="23.06890270803673" id="-97190">
		<tag k="name" v="Vuorašnjárgeahči" />
		<tag k="name:se" v="Vuorašnjárgeahči" />
		<tag k="natural" v="cape" />
		<tag k="old_name:se" v="Vuorašnjargæčči" />
		<tag k="ssr:stedsnr" v="19761" />
	</node>
	<node lat="70.04720833153127" lon="23.233744368001766" id="-97192">
		<tag k="name" v="Sjøbukta" />
		<tag k="natural" v="bay" />
		<tag k="ssr:stedsnr" v="19782" />
	</node>
	<node lat="70.33098889482238" lon="23.321966578314996" id="-97195">
		<tag k="name" v="Simleneset - Áldonjárga" />
		<tag k="name:no" v="Simleneset" />
		<tag k="name:se" v="Áldonjárga" />
		<tag k="natural" v="cape" />
		<tag k="old_name:se" v="Aldunjarga" />
		<tag k="ssr:stedsnr" v="19897" />
	</node>
	<node lat="70.02602777918062" lon="23.483347140648412" id="-97198">
		<tag k="name" v="Ulveberget" />
		<tag k="natural" v="cape" />
		<tag k="ssr:stedsnr" v="19965" />
	</node>
	<node lat="70.34235555983969" lon="23.060616610301945" id="-97200">
		<tag k="alt_name" v="Hummelnes" />
		<tag k="name" v="Hammelnes" />
		<tag k="natural" v="cape" />
		<tag k="ssr:stedsnr" v="19876" />
	</node>
	<node lat="70.34537500518442" lon="22.944374942515058" id="-97202">
		<tag k="name" v="Junkerhamnklubben - Juŋkorhávnnjárga" />
		<tag k="name:no" v="Junkerhamnklubben" />
		<tag k="name:se" v="Juŋkorhávnnjárga" />
		<tag k="natural" v="cape" />
		<tag k="old_name:se" v="Juŋkurhavnnjarga" />
		<tag k="ssr:stedsnr" v="19881" />
	</node>
	<node lat="70.39425000163797" lon="22.744888825305168" id="-97205">
		<tag k="name" v="Varnesgrunnen" />
		<tag k="natural" v="shoal" />
		<tag k="place" v="locality" />
		<tag k="ssr:stedsnr" v="20176" />
	</node>
	<node lat="70.41091111298813" lon="22.817274938899565" id="-97206">
		<tag k="name" v="Bårdfjordneset - Viektanjárga" />
		<tag k="name:no" v="Bårdfjordneset" />
		<tag k="name:se" v="Viektanjárga" />
		<tag k="natural" v="cape" />
		<tag k="old_name:no" v="Bårdfjorneset" />
		<tag k="old_name:se" v="Viektanjarga" />
		<tag k="ssr:stedsnr" v="20177" />
	</node>
	<node lat="70.29037500082157" lon="22.916966602363217" id="-97207">
		<tag k="name" v="Fuglenes" />
		<tag k="natural" v="cape" />
		<tag k="ssr:stedsnr" v="20923" />
	</node>
	<node lat="70.2889749998839" lon="23.540686009327395" id="-97208">
		<tag k="name" v="Storholmen - Guoškilsuolu" />
		<tag k="name:no" v="Storholmen" />
		<tag k="name:se" v="Guoškilsuolu" />
		<tag k="old_name:se" v="Guoškilsuolo" />
		<tag k="place" v="islet" />
		<tag k="ssr:stedsnr" v="20816" />
	</node>
	<node lat="70.28771388955104" lon="23.52920268453723" id="-97209">
		<tag k="alt_name:no" v="Rundholmen" />
		<tag k="name" v="Steinholmen" />
		<tag k="name:no" v="Steinholmen" />
		<tag k="name:se" v="Geargesuolu" />
		<tag k="place" v="islet" />
		<tag k="ssr:stedsnr" v="20818" />
	</node>
	<node lat="70.28318889309433" lon="23.22708882589871" id="-97213">
		<tag k="name" v="Borjjasgeađgi" />
		<tag k="name:se" v="Borjjasgeađgi" />
		<tag k="natural" v="cape" />
		<tag k="old_name:se" v="Bårjasgæđgi" />
		<tag k="ssr:stedsnr" v="20947" />
	</node>
	<node lat="70.25401944981216" lon="23.26223048756413" id="-97214">
		<tag k="loc_name:se" v="Geađgegohppi" />
		<tag k="name" v="Steinvik" />
		<tag k="name:no" v="Steinvik" />
		<tag k="natural" v="bay" />
		<tag k="ssr:stedsnr" v="20957" />
	</node>
	<node lat="70.25242222211367" lon="23.252241577599786" id="-97216">
		<tag k="alt_name:no" v="Klubben" />
		<tag k="name" v="Korsfjordklubben - Snuđanjárga" />
		<tag k="name:no" v="Korsfjordklubben" />
		<tag k="name:se" v="Snuđanjárga" />
		<tag k="natural" v="cape" />
		<tag k="old_name:se" v="Snuđanjarga" />
		<tag k="ssr:stedsnr" v="20962" />
	</node>
	<node lat="70.34070277764194" lon="22.839858277525266" id="-97229">
		<tag k="name" v="Russehamnneset" />
		<tag k="natural" v="cape" />
		<tag k="ssr:stedsnr" v="25818" />
	</node>
	<node lat="70.01983055876521" lon="23.018374914701162" id="-97235">
		<tag k="name" v="Smedvika" />
		<tag k="natural" v="bay" />
		<tag k="ssr:stedsnr" v="26011" />
	</node>
	<node lat="70.00581667218485" lon="23.502755472533167" id="-97240">
		<tag k="loc_name:se" v="Junnagohppi" />
		<tag k="name" v="Rafsnesbukta" />
		<tag k="name:no" v="Rafsnesbukta" />
		<tag k="natural" v="bay" />
		<tag k="ssr:stedsnr" v="26044" />
	</node>
	<node lat="70.21424167007598" lon="23.17957491451696" id="-97257">
		<tag k="name" v="Strømsnes" />
		<tag k="natural" v="cape" />
		<tag k="ssr:stedsnr" v="26580" />
	</node>
	<node lat="70.14575000077551" lon="23.170011038895513" id="-97258">
		<tag k="name" v="Gambukta" />
		<tag k="natural" v="bay" />
		<tag k="ssr:stedsnr" v="26581" />
	</node>
	<node lat="70.3167361127169" lon="22.944680478972476" id="-97262">
		<tag k="name" v="Sennanes" />
		<tag k="natural" v="cape" />
		<tag k="ssr:stedsnr" v="26538" />
	</node>
	<node lat="70.32121944449122" lon="22.948061040596436" id="-97263">
		<tag k="name" v="Maggaluftboya" />
		<tag k="natural" v="bay" />
		<tag k="ssr:stedsnr" v="26541" />
	</node>
	<node lat="70.2400083364867" lon="23.48984435337963" id="-97266">
		<tag k="name" v="Állenjárga" />
		<tag k="name:se" v="Állenjárga" />
		<tag k="natural" v="cape" />
		<tag k="ssr:stedsnr" v="26783" />
	</node>
	<node lat="70.06234722366247" lon="22.359213831058263" id="-97268">
		<tag k="name" v="Frankebukt" />
		<tag k="natural" v="bay" />
		<tag k="ssr:stedsnr" v="26940" />
	</node>
	<node lat="70.05902222485554" lon="22.361516610011368" id="-97271">
		<tag k="name" v="Sopnes" />
		<tag k="natural" v="cape" />
		<tag k="ssr:stedsnr" v="26985" />
	</node>
	<node lat="70.03959166847491" lon="22.293649946291474" id="-97280">
		<tag k="name" v="Langfjordbotn - Lákkovuonbahta" />
		<tag k="name:no" v="Langfjordbotn" />
		<tag k="name:se" v="Lákkovuonbahta" />
		<tag k="natural" v="bay" />
		<tag k="ssr:stedsnr" v="30380" />
	</node>
	<node lat="70.34393333486176" lon="23.04382770669066" id="-97281">
		<tag k="name" v="Ryggen" />
		<tag k="natural" v="shoal" />
		<tag k="place" v="locality" />
		<tag k="ssr:stedsnr" v="33538" />
	</node>
	<node lat="70.2804555549612" lon="23.3715026811024" id="-97284">
		<tag k="name" v="Nordnesgrunnen" />
		<tag k="natural" v="shoal" />
		<tag k="place" v="locality" />
		<tag k="ssr:stedsnr" v="34129" />
	</node>
	<node lat="70.38986389391115" lon="22.880827711744676" id="-97285">
		<tag k="name" v="Geitvika" />
		<tag k="natural" v="bay" />
		<tag k="ssr:stedsnr" v="34641" />
	</node>
	<node lat="70.20733056137783" lon="22.60540271138642" id="-97286">
		<tag k="name" v="Urneset" />
		<tag k="natural" v="cape" />
		<tag k="ssr:stedsnr" v="34680" />
	</node>
	<node lat="70.24330000265327" lon="23.094597155647957" id="-97304">
		<tag k="name" v="Storegrunnen" />
		<tag k="natural" v="shoal" />
		<tag k="place" v="locality" />
		<tag k="ssr:stedsnr" v="45940" />
	</node>
	<node lat="70.25631389362255" lon="22.646458270828187" id="-97351">
		<tag k="name" v="Brenneset" />
		<tag k="name:no" v="Brenneset" />
		<tag k="name:se" v="Buollánnjárga" />
		<tag k="natural" v="cape" />
		<tag k="ssr:stedsnr" v="80535" />
	</node>
	<node lat="70.06847222885601" lon="23.18388047966837" id="-97364">
		<tag k="loc_name:se" v="Málatluovta" />
		<tag k="name" v="Storvika" />
		<tag k="name:no" v="Storvika" />
		<tag k="natural" v="bay" />
		<tag k="old_name:no" v="Storvik" />
		<tag k="ssr:stedsnr" v="80701" />
	</node>
	<node lat="70.39281389250812" lon="23.433716582670858" id="-97365">
		<tag k="bay" v="fjord" />
		<tag k="name" v="Olderfjorden" />
		<tag k="name:no" v="Olderfjorden" />
		<tag k="name:se" v="Leaibevuonna" />
		<tag k="natural" v="bay" />
		<tag k="old_name:se" v="Læibevuodna;Leaibevuotna" />
		<tag k="ssr:stedsnr" v="80541" />
	</node>
	<node lat="70.00983889341539" lon="23.228697137612176" id="-97375">
		<tag k="name" v="Risholmen - Rissesuolu" />
		<tag k="name:no" v="Risholmen" />
		<tag k="name:se" v="Rissesuolu" />
		<tag k="old_name:se" v="Rissesuolo" />
		<tag k="place" v="islet" />
		<tag k="ssr:stedsnr" v="80786" />
	</node>
	<node lat="70.09910278480702" lon="22.990966586304715" id="-97377">
		<tag k="alt_name" v="Kartnes;Karstneset" />
		<tag k="name" v="Karsnes" />
		<tag k="natural" v="cape" />
		<tag k="ssr:stedsnr" v="80706" />
	</node>
	<node lat="70.03413611818036" lon="23.209947140294943" id="-97384">
		<tag k="name" v="Tømmerholmen - Čurot" />
		<tag k="name:no" v="Tømmerholmen" />
		<tag k="name:se" v="Čurot" />
		<tag k="old_name:se" v="Čurut" />
		<tag k="place" v="islet" />
		<tag k="ssr:stedsnr" v="80816" />
	</node>
	<node lat="70.32537541721528" lon="22.959100586134614" id="-97392">
		<tag k="fixme" v="multiple name tags, choose one and add the other to alt_name; consider seamark:type=rock or natural=shoal" />
		<tag k="name" v="Storskjæret;Mjånesskjæret" />
		<tag k="place" v="islet" />
		<tag k="ssr:stedsnr" v="80909" />
	</node>
	<node lat="70.29574166694654" lon="22.9595721471296" id="-97394">
		<tag k="name" v="Seljebukta" />
		<tag k="name:no" v="Seljebukta" />
		<tag k="name:se" v="Sieđgagohppi" />
		<tag k="natural" v="bay" />
		<tag k="ssr:stedsnr" v="80921" />
	</node>
	<node lat="70.27910278086294" lon="23.20126937606404" id="-97404">
		<tag k="alt_name:no" v="Kjerringvik, l" />
		<tag k="name" v="Lille Kjerringvik" />
		<tag k="name:no" v="Lille Kjerringvik" />
		<tag k="name:se" v="Basevuonna" />
		<tag k="natural" v="bay" />
		<tag k="old_name:se" v="Basevuodna;Basevuotna" />
		<tag k="ssr:stedsnr" v="80940" />
	</node>
	<node lat="70.01807778413067" lon="23.033477709682924" id="-97414">
		<tag k="fixme" v="consider seamark:type=rock or natural=shoal" />
		<tag k="name" v="Skjæran" />
		<tag k="place" v="islet" />
		<tag k="ssr:stedsnr" v="86019" />
	</node>
	<node lat="70.02569444778487" lon="23.053836030684536" id="-97416">
		<tag k="name" v="Gunnarsnes" />
		<tag k="natural" v="cape" />
		<tag k="ssr:stedsnr" v="86261" />
	</node>
	<node lat="70.01750556025311" lon="23.04582492541106" id="-97423">
		<tag k="name" v="Kjosen" />
		<tag k="natural" v="bay" />
		<tag k="ssr:stedsnr" v="86357" />
	</node>
	<node lat="70.25076666839632" lon="23.24858046416342" id="-97435">
		<tag k="name" v="Steinvika" />
		<tag k="natural" v="bay" />
		<tag k="ssr:stedsnr" v="86943" />
	</node>
	<node lat="69.97948889291119" lon="23.318344358203902" id="-97446">
		<tag k="name" v="Bukta" />
		<tag k="name:no" v="Bukta" />
		<tag k="name:se" v="Gárgolašmohkki" />
		<tag k="natural" v="bay" />
		<tag k="ssr:stedsnr" v="87158" />
	</node>
	<node lat="70.237386112923" lon="23.427069360083276" id="-97458">
		<tag k="name" v="Nihkenjárga" />
		<tag k="name:se" v="Nihkenjárga" />
		<tag k="natural" v="cape" />
		<tag k="ssr:stedsnr" v="87783" />
	</node>
	<node lat="70.34049166750054" lon="23.29234991066553" id="-97467">
		<tag k="name" v="Nordmannsneset" />
		<tag k="name:no" v="Nordmannsneset" />
		<tag k="name:se" v="Guovllasnjárga" />
		<tag k="natural" v="cape" />
		<tag k="ssr:stedsnr" v="94596" />
	</node>
	<node lat="70.34045000221249" lon="22.93980826207099" id="-97468">
		<tag k="name" v="Junkerhamngrunnen" />
		<tag k="natural" v="shoal" />
		<tag k="place" v="locality" />
		<tag k="ssr:stedsnr" v="94692" />
	</node>
	<node lat="70.18853055593416" lon="23.161161025798204" id="-97518">
		<tag k="name" v="Seibakken" />
		<tag k="natural" v="shoal" />
		<tag k="place" v="locality" />
		<tag k="ssr:stedsnr" v="140652" />
	</node>
	<node lat="70.17784722542869" lon="23.349661030662013" id="-97520">
		<tag k="name" v="Biehtárnjárga" />
		<tag k="name:no" v="Biettarnes" />
		<tag k="name:se" v="Biehtárnjárga" />
		<tag k="natural" v="cape" />
		<tag k="old_name:se" v="Biettarnjarga" />
		<tag k="ssr:stedsnr" v="140658" />
	</node>
	<node lat="70.198761112229" lon="23.211647153894987" id="-97524">
		<tag k="name" v="Perbukta" />
		<tag k="natural" v="bay" />
		<tag k="ssr:stedsnr" v="140671" />
	</node>
	<node lat="70.36298333936827" lon="23.09431660384972" id="-97527">
		<tag k="name" v="Geassesainjárga" />
		<tag k="name:se" v="Geassesainjárga" />
		<tag k="natural" v="cape" />
		<tag k="old_name:se" v="Gæssesajnjarga" />
		<tag k="ssr:stedsnr" v="140010" />
	</node>
	<node lat="70.14028889079792" lon="22.880386031952096" id="-97554">
		<tag k="name" v="Látta" />
		<tag k="name:se" v="Látta" />
		<tag k="natural" v="cape" />
		<tag k="old_name:se" v="Ladda" />
		<tag k="ssr:stedsnr" v="140444" />
	</node>
	<node lat="70.08927222478795" lon="22.743644383568647" id="-97559">
		<tag k="name" v="Eidsnes" />
		<tag k="name:no" v="Eidsnes" />
		<tag k="name:se" v="Áitenjárga" />
		<tag k="natural" v="cape" />
		<tag k="ssr:stedsnr" v="140509" />
	</node>
	<node lat="70.24682500289931" lon="22.74382493839354" id="-97562">
		<tag k="name" v="Luftneset" />
		<tag k="natural" v="cape" />
		<tag k="ssr:stedsnr" v="140475" />
	</node>
	<node lat="70.20553333445567" lon="22.834227724318946" id="-97563">
		<tag k="alt_name" v="Kobbevik, in" />
		<tag k="name" v="Indre Kobbevik" />
		<tag k="natural" v="cape" />
		<tag k="ssr:stedsnr" v="140554" />
	</node>
	<node lat="70.2233305568238" lon="23.295605470524464" id="-97564">
		<tag k="name" v="Kjaskallbukta" />
		<tag k="natural" v="bay" />
		<tag k="ssr:stedsnr" v="140556" />
	</node>
	<node lat="70.22719444728772" lon="23.401066570806034" id="-97565">
		<tag k="alt_name:no" v="Sandbukt" />
		<tag k="name" v="Sandbukta" />
		<tag k="name:no" v="Sandbukta" />
		<tag k="name:se" v="Sáttugohpi" />
		<tag k="natural" v="bay" />
		<tag k="ssr:stedsnr" v="140559" />
	</node>
	<node lat="70.24223333921823" lon="22.968930488373207" id="-97567">
		<tag k="fixme" v="multiple name tags, choose one and add the other to alt_name; multiple name:se tags, choose one and add the other to alt_name:se" />
		<tag k="name" v="Halvorvika;Hallvardvika" />
		<tag k="name:no" v="Halvorvika;Hallvardvika" />
		<tag k="name:se" v="Vuojatluovta;Hállárgohppi" />
		<tag k="natural" v="bay" />
		<tag k="ssr:stedsnr" v="140565" />
	</node>
	<node lat="70.23740833569451" lon="22.99044159616883" id="-97568">
		<tag k="fixme" v="multiple name tags, choose one and add the other to alt_name" />
		<tag k="name" v="Gavlodden;Stjernodden" />
		<tag k="natural" v="cape" />
		<tag k="ssr:stedsnr" v="140566" />
	</node>
	<node lat="70.02729444753601" lon="23.320716568870843" id="-97576">
		<tag k="alt_name" v="Raudbergneset" />
		<tag k="name" v="Rødbergneset" />
		<tag k="natural" v="cape" />
		<tag k="ssr:stedsnr" v="140755" />
	</node>
	<node lat="70.31743333722743" lon="22.891163815360134" id="-97581">
		<tag k="name" v="Bia - Biija" />
		<tag k="name:no" v="Bia" />
		<tag k="name:se" v="Biija" />
		<tag k="natural" v="cape" />
		<tag k="ssr:stedsnr" v="140897" />
	</node>
	<node lat="70.32145277759889" lon="22.89823049003865" id="-97584">
		<tag k="alt_name:no" v="Kvalfjord" />
		<tag k="bay" v="fjord" />
		<tag k="name" v="Store Kvalfjorden" />
		<tag k="name:no" v="Store Kvalfjorden" />
		<tag k="name:se" v="Bossovuonna" />
		<tag k="natural" v="bay" />
		<tag k="old_name:no" v="Kvalfjorden, store" />
		<tag k="old_name:se" v="Båssuvuodna;Bossovuotna" />
		<tag k="ssr:stedsnr" v="140913" />
	</node>
	<node lat="70.25534722087352" lon="22.713177714044843" id="-97595">
		<tag k="name" v="Indre Simavik" />
		<tag k="name:no" v="Indre Simavik" />
		<tag k="name:se" v="Bártnavuonna" />
		<tag k="natural" v="bay" />
		<tag k="old_name:no" v="Simavik, in" />
		<tag k="ssr:stedsnr" v="141082" />
	</node>
	<node lat="70.39026111333905" lon="22.69275271812994" id="-97597">
		<tag k="name" v="Gytta" />
		<tag k="natural" v="bay" />
		<tag k="ssr:stedsnr" v="141179" />
	</node>
	<node lat="70.26389242571766" lon="23.340306295017466" id="-97598">
		<tag k="name" v="Ráhkanluovta" />
		<tag k="name:se" v="Ráhkanluovta" />
		<tag k="natural" v="bay" />
		<tag k="old_name:se" v="Rakkanluokta" />
		<tag k="ssr:stedsnr" v="141914" />
	</node>
	<node lat="70.2971916690144" lon="23.5983776798499" id="-97600">
		<tag k="name" v="Eidnes" />
		<tag k="name:no" v="Eidnes" />
		<tag k="name:se" v="Muotkenjárga" />
		<tag k="natural" v="cape" />
		<tag k="ssr:stedsnr" v="141768" />
	</node>
	<node lat="70.30576111379678" lon="23.46880270112593" id="-97602">
		<tag k="name" v="Linnes" />
		<tag k="name:no" v="Linnes" />
		<tag k="name:se" v="Liinnjárga" />
		<tag k="natural" v="cape" />
		<tag k="ssr:stedsnr" v="141776" />
	</node>
	<node lat="69.94556666970811" lon="23.14126380014009" id="-97606">
		<tag k="name" v="Indre Saltvik" />
		<tag k="natural" v="bay" />
		<tag k="ssr:stedsnr" v="146442" />
	</node>
	<node lat="70.31223055649485" lon="23.486963802766077" id="-97615">
		<tag k="name" v="Innerbukt" />
		<tag k="natural" v="bay" />
		<tag k="ssr:stedsnr" v="147178" />
	</node>
	<node lat="70.2927944519765" lon="23.542355460653557" id="-97617">
		<tag k="name" v="Sørstrand" />
		<tag k="natural" v="beach" />
		<tag k="ssr:stedsnr" v="147186" />
	</node>
	<node lat="70.34146389176485" lon="22.828238819786055" id="-97618">
		<tag k="name" v="Jensnes" />
		<tag k="natural" v="cape" />
		<tag k="ssr:stedsnr" v="146784" />
	</node>
	<node lat="70.34152222163578" lon="22.868302725142588" id="-97619">
		<tag k="fixme" v="consider seamark:type=rock or natural=shoal" />
		<tag k="name" v="Rundskjæret" />
		<tag k="place" v="islet" />
		<tag k="ssr:stedsnr" v="146832" />
	</node>
	<node lat="69.91749166565533" lon="23.013941578789915" id="-97636">
		<tag k="name" v="Skytterhusbukta" />
		<tag k="natural" v="bay" />
		<tag k="ssr:stedsnr" v="147240" />
	</node>
	<node lat="70.28882778292527" lon="23.068172144986974" id="-97647">
		<tag k="name" v="Holmen" />
		<tag k="place" v="islet" />
		<tag k="ssr:stedsnr" v="147530" />
	</node>
	<node lat="70.31312778154862" lon="23.040055480618133" id="-97648">
		<tag k="name" v="Skjærbakken" />
		<tag k="natural" v="shoal" />
		<tag k="place" v="locality" />
		<tag k="ssr:stedsnr" v="147553" />
	</node>
	<node lat="70.23784999947006" lon="23.435780469710142" id="-97649">
		<tag k="name" v="Nævervik" />
		<tag k="name:no" v="Nævervik" />
		<tag k="name:se" v="Beasseloggungohppi" />
		<tag k="natural" v="bay" />
		<tag k="ssr:stedsnr" v="147771" />
	</node>
	<node lat="70.24446944349815" lon="23.392427694697727" id="-97650">
		<tag k="name" v="Neset" />
		<tag k="natural" v="cape" />
		<tag k="ssr:stedsnr" v="147787" />
	</node>
	<node lat="70.24296667121848" lon="23.461124907267656" id="-97651">
		<tag k="name" v="Ravelhavn" />
		<tag k="natural" v="cape" />
		<tag k="ssr:stedsnr" v="147794" />
	</node>
	<node lat="70.33820000050531" lon="23.059549931950194" id="-97665">
		<tag k="name" v="Åsenes" />
		<tag k="natural" v="cape" />
		<tag k="ssr:stedsnr" v="154537" />
	</node>
	<node lat="70.20782778208327" lon="22.81130270930395" id="-97666">
		<tag k="name" v="Kobbevika" />
		<tag k="natural" v="bay" />
		<tag k="ssr:stedsnr" v="155676" />
	</node>
	<node lat="69.95198333361502" lon="23.07980269971536" id="-97698">
		<tag k="name" v="Smørnes" />
		<tag k="natural" v="cape" />
		<tag k="ssr:stedsnr" v="167855" />
	</node>
	<node lat="70.20702500597851" lon="22.617394390625243" id="-97719">
		<tag k="name" v="Geassegohppi" />
		<tag k="name:se" v="Geassegohppi" />
		<tag k="natural" v="bay" />
		<tag k="old_name:se" v="Gæssegåppi" />
		<tag k="ssr:stedsnr" v="201356" />
	</node>
	<node lat="70.371636112122" lon="22.886936059595687" id="-97726">
		<tag k="loc_name:se" v="Ávjegohpnjárga" />
		<tag k="name" v="Høyvikneset" />
		<tag k="name:no" v="Høyvikneset" />
		<tag k="natural" v="cape" />
		<tag k="ssr:stedsnr" v="201014" />
	</node>
	<node lat="70.39755000031931" lon="22.83248606195941" id="-97728">
		<tag k="fixme" v="multiple name tags, choose one and add the other to alt_name; consider seamark:type=rock or natural=shoal" />
		<tag k="name" v="Bårdfjordnesskjæret;Bårdfjordskjæret" />
		<tag k="place" v="islet" />
		<tag k="ssr:stedsnr" v="201028" />
	</node>
	<node lat="70.04962499832864" lon="22.327524935631548" id="-97744">
		<tag k="name" v="Gunnelnes" />
		<tag k="name:no" v="Gunnelnes" />
		<tag k="name:se" v="Gunnarnjárga" />
		<tag k="natural" v="cape" />
		<tag k="ssr:stedsnr" v="201471" />
	</node>
	<node lat="70.11227777647484" lon="22.836366599633642" id="-97749">
		<tag k="alt_name" v="Kovnes" />
		<tag k="name" v="Kovneset" />
		<tag k="natural" v="cape" />
		<tag k="ssr:stedsnr" v="201511" />
	</node>
	<node lat="70.20708611344182" lon="22.864799928389846" id="-97753">
		<tag k="name" v="Beito" />
		<tag k="natural" v="cape" />
		<tag k="ssr:stedsnr" v="201531" />
	</node>
	<node lat="70.04665000418771" lon="22.36107218334335" id="-97761">
		<tag k="name" v="Stålneset" />
		<tag k="natural" v="cape" />
		<tag k="ssr:stedsnr" v="201591" />
	</node>
	<node lat="70.20296389145503" lon="23.287813818747964" id="-97762">
		<tag k="name" v="Girenjárga" />
		<tag k="name:se" v="Girenjárga" />
		<tag k="natural" v="cape" />
		<tag k="old_name:se" v="Girenjarga" />
		<tag k="ssr:stedsnr" v="201643" />
	</node>
	<node lat="70.07633611522559" lon="23.01327769650624" id="-97768">
		<tag k="name" v="Finnskjågrunnen" />
		<tag k="natural" v="shoal" />
		<tag k="place" v="locality" />
		<tag k="ssr:stedsnr" v="201667" />
	</node>
	<node lat="70.24763056057317" lon="23.44567492574466" id="-97777">
		<tag k="alt_name:no" v="Mikkelbukt" />
		<tag k="name" v="Mikkelbukta" />
		<tag k="name:no" v="Mikkelbukta" />
		<tag k="name:se" v="Mihkkelgalgohppi" />
		<tag k="natural" v="bay" />
		<tag k="ssr:stedsnr" v="201760" />
	</node>
	<node lat="70.10108055819705" lon="23.223619357328978" id="-97782">
		<tag k="name" v="Bukta" />
		<tag k="natural" v="bay" />
		<tag k="ssr:stedsnr" v="201685" />
	</node>
	<node lat="70.10674166468745" lon="22.998133270519602" id="-97784">
		<tag k="name" v="Langnes" />
		<tag k="name:no" v="Langnes" />
		<tag k="name:se" v="Uhca Lákkonjárggaš" />
		<tag k="natural" v="cape" />
		<tag k="ssr:stedsnr" v="201714" />
	</node>
	<node lat="70.13034722927422" lon="23.232024918048495" id="-97787">
		<tag k="name" v="Mortensnes" />
		<tag k="natural" v="cape" />
		<tag k="ssr:stedsnr" v="201731" />
	</node>
	<node lat="70.03686389105877" lon="22.972516606079054" id="-97788">
		<tag k="name" v="Plystervika" />
		<tag k="natural" v="bay" />
		<tag k="ssr:stedsnr" v="201791" />
	</node>
	<node lat="70.31742778047176" lon="23.055033265514" id="-97795">
		<tag k="name" v="Hestneset" />
		<tag k="natural" v="cape" />
		<tag k="ssr:stedsnr" v="201887" />
	</node>
	<node lat="70.34316389444322" lon="22.800580502491822" id="-97804">
		<tag k="name" v="Pollen" />
		<tag k="natural" v="bay" />
		<tag k="ssr:stedsnr" v="202150" />
	</node>
	<node lat="70.29171944397734" lon="22.97274716068325" id="-97816">
		<tag k="loc_name:no" v="Tuddevikneset" />
		<tag k="name" v="Tudviknes - Duđeviihnjárga" />
		<tag k="name:no" v="Tudviknes" />
		<tag k="name:se" v="Duđeviihnjárga" />
		<tag k="natural" v="cape" />
		<tag k="old_name:se" v="Duđeviiknjarga" />
		<tag k="ssr:stedsnr" v="202925" />
	</node>
	<node lat="70.27147222510997" lon="22.994605497592016" id="-97817">
		<tag k="name" v="Hallarnes" />
		<tag k="name:no" v="Hallarnes" />
		<tag k="name:se" v="Hállárnjárga" />
		<tag k="natural" v="cape" />
		<tag k="ssr:stedsnr" v="202938" />
	</node>
	<node lat="70.33234444808899" lon="22.814755493670663" id="-97834">
		<tag k="name" v="Myrvollneset" />
		<tag k="natural" v="cape" />
		<tag k="ssr:stedsnr" v="207795" />
	</node>
	<node lat="69.9391083392141" lon="23.06168882692124" id="-97849">
		<tag k="name" v="Dynamittbukta" />
		<tag k="natural" v="bay" />
		<tag k="ssr:stedsnr" v="208466" />
	</node>
	<node lat="70.26368889510621" lon="23.38994157226324" id="-97864">
		<tag k="name" v="Nordmannsnes" />
		<tag k="natural" v="cape" />
		<tag k="ssr:stedsnr" v="209978" />
	</node>
	<node lat="70.34767222022343" lon="23.04660827103822" id="-97866">
		<tag k="name" v="Bukkebuktgrunnen" />
		<tag k="natural" v="shoal" />
		<tag k="place" v="locality" />
		<tag k="ssr:stedsnr" v="215542" />
	</node>
	<node lat="70.34626944344105" lon="23.056749941227082" id="-97892">
		<tag k="name" v="Hamnegrunnen" />
		<tag k="natural" v="shoal" />
		<tag k="place" v="locality" />
		<tag k="ssr:stedsnr" v="276535" />
	</node>
	<node lat="70.32864999926242" lon="23.036155472446026" id="-97893">
		<tag k="name" v="Altnesgrunnen" />
		<tag k="natural" v="shoal" />
		<tag k="place" v="locality" />
		<tag k="ssr:stedsnr" v="276718" />
	</node>
	<node lat="70.21340555437766" lon="22.72684992740357" id="-97894">
		<tag k="name" v="Vortebukta" />
		<tag k="natural" v="bay" />
		<tag k="ssr:stedsnr" v="277695" />
	</node>
	<node lat="70.09010555859639" lon="23.141124926748173" id="-97911">
		<tag k="name" v="Nordre Altenes" />
		<tag k="natural" v="cape" />
		<tag k="ssr:stedsnr" v="288996" />
	</node>
	<node lat="70.40486111186456" lon="22.831358277668357" id="-97937">
		<tag k="alt_name:no" v="Fuglevik" />
		<tag k="fixme" v="multiple name:se tags, choose one and add the other to alt_name:se" />
		<tag k="name" v="Fuglevika" />
		<tag k="name:no" v="Fuglevika" />
		<tag k="name:se" v="Skárstovlla ;Siskkitgohppi" />
		<tag k="natural" v="bay" />
		<tag k="ssr:stedsnr" v="322040" />
	</node>
	<node lat="70.21791111535602" lon="23.20290824934408" id="-97957">
		<tag k="name" v="Nordnes" />
		<tag k="natural" v="cape" />
		<tag k="ssr:stedsnr" v="322561" />
	</node>
	<node lat="70.31395000243356" lon="23.04397215479324" id="-97966">
		<tag k="fixme" v="multiple name tags, choose one and add the other to alt_name; consider seamark:type=rock or natural=shoal" />
		<tag k="name" v="Skarvholman;Skolebuktskjæran" />
		<tag k="place" v="islet" />
		<tag k="ssr:stedsnr" v="322895" />
	</node>
	<node lat="70.3565666653481" lon="22.732741603609895" id="-97976">
		<tag k="name" v="Slettnes" />
		<tag k="natural" v="cape" />
		<tag k="ssr:stedsnr" v="323162" />
	</node>
	<node lat="70.38017222064873" lon="22.73007493442192" id="-97978">
		<tag k="name" v="Sommarnes" />
		<tag k="name:no" v="Sommarnes" />
		<tag k="name:se" v="Geassenjárga" />
		<tag k="natural" v="cape" />
		<tag k="ssr:stedsnr" v="323196" />
	</node>
	<node lat="70.10304445154385" lon="23.27403046612453" id="-97987">
		<tag k="name" v="Klubben" />
		<tag k="natural" v="cape" />
		<tag k="ssr:stedsnr" v="323451" />
	</node>
	<node lat="70.23766944951332" lon="23.331838821507457" id="-97988">
		<tag k="bay" v="fjord" />
		<tag k="name" v="Korsfjorden" />
		<tag k="name:no" v="Korsfjorden" />
		<tag k="name:se" v="Fielvuonna" />
		<tag k="natural" v="bay" />
		<tag k="old_name:se" v="Fielvuodna;Fielvuotna" />
		<tag k="ssr:stedsnr" v="323453" />
	</node>
	<node lat="70.17330000167178" lon="23.26683880110044" id="-97994">
		<tag k="alt_name" v="Skillefjordneset, yt" />
		<tag k="fixme" v="multiple name tags, choose one and add the other to alt_name" />
		<tag k="name" v="Skillefjordnes;Ytre Skillefjordneset" />
		<tag k="natural" v="cape" />
		<tag k="ssr:stedsnr" v="323664" />
	</node>
	<node lat="70.07671388746688" lon="23.153427703978824" id="-97998">
		<tag k="name" v="Aslakbukta" />
		<tag k="natural" v="bay" />
		<tag k="ssr:stedsnr" v="323701" />
	</node>
	<node lat="70.30305278010162" lon="23.550572124255336" id="-98001">
		<tag k="name" v="Liidnanjárga" />
		<tag k="name:se" v="Liidnanjárga" />
		<tag k="natural" v="cape" />
		<tag k="old_name:se" v="Liifnanjarga" />
		<tag k="ssr:stedsnr" v="323795" />
	</node>
	<node lat="70.33302778423534" lon="22.88082215237468" id="-98004">
		<tag k="alt_name:no" v="Havna" />
		<tag k="name" v="Hamna" />
		<tag k="name:no" v="Hamna" />
		<tag k="name:se" v="Hávnnagohppi" />
		<tag k="natural" v="bay" />
		<tag k="ssr:stedsnr" v="323889" />
	</node>
	<node lat="70.33879722461297" lon="22.85189993803352" id="-98008">
		<tag k="name" v="Čevllegohppi" />
		<tag k="name:se" v="Čevllegohppi" />
		<tag k="natural" v="bay" />
		<tag k="ssr:stedsnr" v="329829" />
	</node>
	<node lat="70.00456111853286" lon="23.50360268442844" id="-98012">
		<tag k="name" v="Mellemneset" />
		<tag k="natural" v="cape" />
		<tag k="ssr:stedsnr" v="329040" />
	</node>
	<node lat="70.32455833680181" lon="22.926691614656548" id="-98033">
		<tag k="name" v="Maggaluftnes" />
		<tag k="natural" v="cape" />
		<tag k="ssr:stedsnr" v="329543" />
	</node>
	<node lat="70.2449250017405" lon="23.25519714128127" id="-98044">
		<tag k="name" v="Kjempa" />
		<tag k="natural" v="bay" />
		<tag k="ssr:stedsnr" v="329935" />
	</node>
	<node lat="70.25890833359362" lon="23.291672144054036" id="-98045">
		<tag k="name" v="Sandbukt" />
		<tag k="natural" v="bay" />
		<tag k="ssr:stedsnr" v="329936" />
	</node>
	<node lat="70.05082222216703" lon="22.31793607178727" id="-98046">
		<tag k="name" v="Sopnesbukta" />
		<tag k="natural" v="bay" />
		<tag k="ssr:stedsnr" v="329900" />
	</node>
	<node lat="70.28576388821661" lon="23.537266582471858" id="-98048">
		<tag k="name" v="Hamnes" />
		<tag k="natural" v="cape" />
		<tag k="ssr:stedsnr" v="330192" />
	</node>
	<node lat="70.17556666959854" lon="23.337530467533835" id="-98056">
		<tag k="fixme" v="consider seamark:type=rock or natural=shoal" />
		<tag k="name" v="Skipsstein" />
		<tag k="place" v="islet" />
		<tag k="ssr:stedsnr" v="330653" />
	</node>
	<node lat="70.29873889053523" lon="23.60287212557015" id="-98066">
		<tag k="name" v="Elvegården" />
		<tag k="natural" v="bay" />
		<tag k="ssr:stedsnr" v="336733" />
	</node>
	<node lat="70.12648333515793" lon="23.043172136378985" id="-98088">
		<tag k="name" v="Storebåen" />
		<tag k="natural" v="shoal" />
		<tag k="place" v="locality" />
		<tag k="ssr:stedsnr" v="348986" />
	</node>
	<node lat="70.04808611841831" lon="23.073722142457562" id="-98089">
		<tag k="name" v="Klakken" />
		<tag k="natural" v="shoal" />
		<tag k="ssr:stedsnr" v="348786" />
	</node>
	<node lat="70.33919167216433" lon="23.02185827599087" id="-98112">
		<tag k="bay" v="fjord" />
		<tag k="name" v="Store Kufjorden" />
		<tag k="name:no" v="Store Kufjorden" />
		<tag k="name:se" v="Stuora Vuođđovuonna" />
		<tag k="natural" v="bay" />
		<tag k="old_name:no" v="Kufjorden, store" />
		<tag k="old_name:se" v="Vuođđuvuodna stuora;Stuora Vuođđovuotna" />
		<tag k="ssr:stedsnr" v="383029" />
	</node>
	<node lat="70.39759722521312" lon="22.85274161061303" id="-98116">
		<tag k="name" v="Bláhttát" />
		<tag k="name:se" v="Bláhttát" />
		<tag k="natural" v="cape" />
		<tag k="old_name:se" v="Blattat" />
		<tag k="ssr:stedsnr" v="383041" />
	</node>
	<node lat="70.23793055541881" lon="22.719205501949528" id="-98141">
		<tag k="alt_name:no" v="Stjernøysundet" />
		<tag k="bay" v="fjord" />
		<tag k="name" v="Stjernsundet - Joahkku" />
		<tag k="name:no" v="Stjernsundet" />
		<tag k="name:se" v="Joahkku" />
		<tag k="natural" v="bay" />
		<tag k="old_name:se" v="Joakko" />
		<tag k="ssr:stedsnr" v="383518" />
	</node>
	<node lat="70.17915555663186" lon="22.96349159999955" id="-98157">
		<tag k="alt_name" v="Skålneset" />
		<tag k="name" v="Skallnes" />
		<tag k="natural" v="cape" />
		<tag k="ssr:stedsnr" v="383673" />
	</node>
	<node lat="70.0822388959829" lon="23.14417769115717" id="-98163">
		<tag k="alt_name" v="Kravelvika" />
		<tag k="name" v="Kravelvikbukta" />
		<tag k="natural" v="bay" />
		<tag k="ssr:stedsnr" v="383686" />
	</node>
	<node lat="70.12416111372055" lon="23.37395547723536" id="-98167">
		<tag k="name" v="Kobbenes" />
		<tag k="name:no" v="Kobbenes" />
		<tag k="name:se" v="Njuorjonjárga" />
		<tag k="natural" v="cape" />
		<tag k="ssr:stedsnr" v="383756" />
	</node>
	<node lat="70.13626666584958" lon="23.23118326156257" id="-98180">
		<tag k="name" v="Sjursnes" />
		<tag k="natural" v="cape" />
		<tag k="ssr:stedsnr" v="383743" />
	</node>
	<node lat="70.30018055959403" lon="22.954072160442614" id="-98191">
		<tag k="name" v="Torbenes - Torbennjárga" />
		<tag k="name:no" v="Torbenes" />
		<tag k="name:se" v="Torbennjárga" />
		<tag k="natural" v="cape" />
		<tag k="old_name:se" v="Tårbennjarga" />
		<tag k="ssr:stedsnr" v="383935" />
	</node>
	<node lat="70.27475000123303" lon="23.179880492156638" id="-98196">
		<tag k="alt_name:no" v="Seibukt" />
		<tag k="name" v="Seibukta - Sáidegohppi" />
		<tag k="name:no" v="Seibukta" />
		<tag k="name:se" v="Sáidegohppi" />
		<tag k="natural" v="bay" />
		<tag k="old_name:se" v="Saidegåppi" />
		<tag k="ssr:stedsnr" v="384922" />
	</node>
	<node lat="70.29134167337303" lon="23.57629156435245" id="-98197">
		<tag k="fixme" v="multiple name tags, choose one and add the other to alt_name" />
		<tag k="name" v="Lerresfjordbotn;Store Lerresfjordbotn" />
		<tag k="natural" v="bay" />
		<tag k="old_name" v="Lerresfjordbotn, store" />
		<tag k="ssr:stedsnr" v="384783" />
	</node>
	<node lat="70.28756666553029" lon="23.5350082516235" id="-98199">
		<tag k="name" v="Flatholmen" />
		<tag k="name:no" v="Flatholmen" />
		<tag k="name:se" v="Duolbasuolu" />
		<tag k="place" v="islet" />
		<tag k="ssr:stedsnr" v="384789" />
	</node>
	<node lat="70.31212500349942" lon="23.448680478022357" id="-98226">
		<tag k="name" v="Ulfnes" />
		<tag k="name:no" v="Ulfnes" />
		<tag k="name:se" v="Várgu" />
		<tag k="natural" v="cape" />
		<tag k="ssr:stedsnr" v="390181" />
	</node>
	<node lat="70.29981944667871" lon="23.062705486585752" id="-98232">
		<tag k="name" v="Sennabukt" />
		<tag k="natural" v="bay" />
		<tag k="ssr:stedsnr" v="390519" />
	</node>
	<node lat="70.27304444503984" lon="23.116536026675245" id="-98245">
		<tag k="name" v="Oldervikgrunnen" />
		<tag k="natural" v="shoal" />
		<tag k="place" v="locality" />
		<tag k="ssr:stedsnr" v="397575" />
	</node>
	<node lat="70.08965000466115" lon="22.634174951395707" id="-98246">
		<tag k="alt_name:no" v="Rivarbukt" />
		<tag k="name" v="Rivarbukta - Vuojatluovta" />
		<tag k="name:no" v="Rivarbukta" />
		<tag k="name:se" v="Vuojatluovta" />
		<tag k="natural" v="bay" />
		<tag k="ssr:stedsnr" v="397512" />
	</node>
	<node lat="70.30337778083644" lon="22.949255478849683" id="-98248">
		<tag k="name" v="Kvalfjordbåen" />
		<tag k="natural" v="shoal" />
		<tag k="place" v="locality" />
		<tag k="ssr:stedsnr" v="398675" />
	</node>
	<node lat="70.24478055848118" lon="23.004094369146422" id="-98249">
		<tag k="name" v="Låkallneset" />
		<tag k="natural" v="cape" />
		<tag k="ssr:stedsnr" v="398914" />
	</node>
	<node lat="70.2717333300824" lon="22.552161065204693" id="-98289">
		<tag k="alt_name:no" v="Storebukta" />
		<tag k="name" v="Storbukta" />
		<tag k="name:no" v="Storbukta" />
		<tag k="name:se" v="Stuora Muotkkadat" />
		<tag k="natural" v="bay" />
		<tag k="old_name:se" v="Muotkadat, stuora" />
		<tag k="ssr:stedsnr" v="444090" />
	</node>
	<node lat="70.22502500197685" lon="22.602683276389488" id="-98307">
		<tag k="name" v="Reinvika" />
		<tag k="natural" v="bay" />
		<tag k="ssr:stedsnr" v="444373" />
	</node>
	<node lat="69.98997778083147" lon="23.324211032276253" id="-98311">
		<tag k="bay" v="fjord" />
		<tag k="fixme" v="multiple name:se tags, choose one and add the other to alt_name:se" />
		<tag k="name" v="Altafjorden" />
		<tag k="name:fkv" v="Alattionvuono" />
		<tag k="name:no" v="Altafjorden" />
		<tag k="name:se" v="Álaheajvuonna;Álttávuonna" />
		<tag k="natural" v="bay" />
		<tag k="old_name:se" v="Áltavuonna" />
		<tag k="ssr:stedsnr" v="444462" />
	</node>
	<node lat="70.14911666751061" lon="23.287624915378657" id="-98328">
		<tag k="name" v="Årøysundet" />
		<tag k="natural" v="strait" />
		<tag k="ssr:stedsnr" v="444618" />
	</node>
	<node lat="70.16012778072583" lon="22.66332215760155" id="-98343">
		<tag k="name" v="Joahkonjárga" />
		<tag k="name:se" v="Joahkonjárga" />
		<tag k="natural" v="cape" />
		<tag k="old_name:se" v="Joakkunjarga" />
		<tag k="ssr:stedsnr" v="444650" />
	</node>
	<node lat="70.20788611098615" lon="23.138861031181055" id="-98347">
		<tag k="alt_name" v="Skjervikbåen" />
		<tag k="name" v="Skjærvikbåen" />
		<tag k="natural" v="shoal" />
		<tag k="place" v="locality" />
		<tag k="ssr:stedsnr" v="444668" />
	</node>
	<node lat="70.028908332346" lon="23.20012769509779" id="-98351">
		<tag k="fixme" v="consider seamark:type=rock or natural=shoal" />
		<tag k="name" v="Skarvskjæret" />
		<tag k="place" v="islet" />
		<tag k="ssr:stedsnr" v="444761" />
	</node>
	<node lat="70.01038055860923" lon="23.21323601923963" id="-98353">
		<tag k="name" v="Brennholmen - Buollánsuolu" />
		<tag k="name:no" v="Brennholmen" />
		<tag k="name:se" v="Buollánsuolu" />
		<tag k="old_name:se" v="Buollansuolo" />
		<tag k="place" v="islet" />
		<tag k="ssr:stedsnr" v="444769" />
	</node>
	<node lat="70.368794447531" lon="22.79480548275982" id="-98373">
		<tag k="name" v="Sanden" />
		<tag k="natural" v="beach" />
		<tag k="ssr:stedsnr" v="445160" />
	</node>
	<node lat="70.37330000607169" lon="22.80153326923342" id="-98374">
		<tag k="name" v="Kvinnenesmolla" />
		<tag k="natural" v="bay" />
		<tag k="ssr:stedsnr" v="445162" />
	</node>
	<node lat="70.25887778042383" lon="22.635469378300638" id="-98375">
		<tag k="name" v="Finneset" />
		<tag k="natural" v="cape" />
		<tag k="ssr:stedsnr" v="445540" />
	</node>
	<node lat="70.34267500069656" lon="22.976205498073668" id="-98376">
		<tag k="name" v="Klubben - Klubbu" />
		<tag k="name:no" v="Klubben" />
		<tag k="name:se" v="Klubbu" />
		<tag k="natural" v="cape" />
		<tag k="old_name:se" v="Klubbo" />
		<tag k="ssr:stedsnr" v="445544" />
	</node>
	<node lat="70.28092500579169" lon="23.100233259794834" id="-98379">
		<tag k="name" v="Kjevelnes" />
		<tag k="natural" v="cape" />
		<tag k="ssr:stedsnr" v="445938" />
	</node>
	<node lat="70.31586666790623" lon="23.479466576815305" id="-98380">
		<tag k="bay" v="fjord" />
		<tag k="loc_name:se" v="Unna Liinnavuonna" />
		<tag k="name" v="Uhca Liidnavuonaš" />
		<tag k="name:no" v="Lille Lerresfjorden" />
		<tag k="name:se" v="Uhca Liidnavuonaš" />
		<tag k="natural" v="bay" />
		<tag k="old_name:se" v="Liinavuonaš ucca" />
		<tag k="ssr:stedsnr" v="445792" />
	</node>
	<node lat="70.07925000228019" lon="22.70022492728503" id="-98409">
		<tag k="name" v="Rotnes" />
		<tag k="natural" v="cape" />
		<tag k="ssr:stedsnr" v="504522" />
	</node>
	<node lat="70.09949999895056" lon="23.34339712735161" id="-98432">
		<tag k="name" v="Djupvika" />
		<tag k="natural" v="bay" />
		<tag k="ssr:stedsnr" v="504735" />
	</node>
	<node lat="70.13365555392953" lon="23.17835826252543" id="-98433">
		<tag k="alt_name" v="Varnesodden" />
		<tag k="name" v="Vardnesodden" />
		<tag k="natural" v="cape" />
		<tag k="ssr:stedsnr" v="504736" />
	</node>
	<node lat="70.02932500203725" lon="22.998763816048896" id="-98435">
		<tag k="alt_name" v="Vintersetnes" />
		<tag k="name" v="Vintersetneset" />
		<tag k="natural" v="cape" />
		<tag k="ssr:stedsnr" v="504791" />
	</node>
	<node lat="70.03475556114931" lon="23.0365193734994" id="-98437">
		<tag k="name" v="Tverrbakken" />
		<tag k="natural" v="shoal" />
		<tag k="place" v="locality" />
		<tag k="ssr:stedsnr" v="504799" />
	</node>
	<node lat="70.3122472277368" lon="23.062661036760627" id="-98440">
		<tag k="alt_name:no" v="Skolebukt" />
		<tag k="name" v="Skolebukta" />
		<tag k="name:no" v="Skolebukta" />
		<tag k="name:se" v="Skuvlagohppi" />
		<tag k="natural" v="bay" />
		<tag k="ssr:stedsnr" v="504899" />
	</node>
	<node lat="70.12925833884404" lon="23.1958082500637" id="-98441">
		<tag k="alt_name:no" v="Fingerneset" />
		<tag k="loc_name:se" v="Suorpmasnjárga" />
		<tag k="name" v="Fingernes" />
		<tag k="name:no" v="Fingernes" />
		<tag k="name:se" v="Suorbmanjárga" />
		<tag k="natural" v="cape" />
		<tag k="ssr:stedsnr" v="504745" />
	</node>
	<node lat="70.36713333215091" lon="22.731327726990735" id="-98456">
		<tag k="name" v="Minebukta" />
		<tag k="natural" v="bay" />
		<tag k="ssr:stedsnr" v="505182" />
	</node>
	<node lat="70.2480083336931" lon="23.24713046914201" id="-98468">
		<tag k="name" v="Klubben - Misnjárga" />
		<tag k="name:no" v="Klubben" />
		<tag k="name:se" v="Misnjárga" />
		<tag k="natural" v="cape" />
		<tag k="ssr:stedsnr" v="505598" />
	</node>
	<node lat="70.17690278219764" lon="23.367733240384815" id="-98469">
		<tag k="name" v="Kobbebukta - Njuorjjogohppi" />
		<tag k="name:no" v="Kobbebukta" />
		<tag k="name:se" v="Njuorjjogohppi" />
		<tag k="natural" v="bay" />
		<tag k="old_name:se" v="Njuorjugåppi" />
		<tag k="ssr:stedsnr" v="505685" />
	</node>
	<node lat="70.17558611560192" lon="23.287652688285306" id="-98470">
		<tag k="name" v="Skillefjordnes" />
		<tag k="name:no" v="Skillefjordnes" />
		<tag k="name:se" v="Válgenjárga" />
		<tag k="natural" v="cape" />
		<tag k="ssr:stedsnr" v="505691" />
	</node>
	<node lat="70.40445556103002" lon="23.563519351025683" id="-98486">
		<tag k="alt_name:no" v="Vargsund" />
		<tag k="name" v="Vargsundet - Várggonuorri" />
		<tag k="name:no" v="Vargsundet" />
		<tag k="name:se" v="Várggonuorri" />
		<tag k="natural" v="strait" />
		<tag k="old_name:se" v="Vargunuorri" />
		<tag k="ssr:stedsnr" v="505919" />
	</node>
	<node lat="70.32995000101053" lon="22.895774935305376" id="-98489">
		<tag k="alt_name:no" v="Skjåholmen" />
		<tag k="name" v="Småholman" />
		<tag k="name:no" v="Småholman" />
		<tag k="name:se" v="Skajjasuolu" />
		<tag k="old_name:se" v="Skaddjasuolo;Skadjasuolu" />
		<tag k="place" v="islet" />
		<tag k="ssr:stedsnr" v="505895" />
	</node>
	<node lat="70.28932500221984" lon="22.97410550113369" id="-98490">
		<tag k="loc_name:no" v="Tuddevika" />
		<tag k="name" v="Tudvik" />
		<tag k="name:no" v="Tudvik" />
		<tag k="name:se" v="Duđeviika" />
		<tag k="natural" v="bay" />
		<tag k="ssr:stedsnr" v="505898" />
	</node>
	<node lat="70.02998889376977" lon="23.07903604565098" id="-98514">
		<tag k="name" v="Jakobskjærnes" />
		<tag k="natural" v="cape" />
		<tag k="ssr:stedsnr" v="511256" />
	</node>
	<node lat="70.31805833706125" lon="22.94583048266436" id="-98523">
		<tag k="name" v="Vedbukta" />
		<tag k="natural" v="bay" />
		<tag k="ssr:stedsnr" v="511527" />
	</node>
	<node lat="70.33976111356756" lon="22.866241616135568" id="-98527">
		<tag k="name" v="Ytterbukta" />
		<tag k="natural" v="bay" />
		<tag k="ssr:stedsnr" v="511843" />
	</node>
	<node lat="70.33544444775038" lon="22.829372168976157" id="-98532">
		<tag k="name" v="Valneset" />
		<tag k="natural" v="cape" />
		<tag k="ssr:stedsnr" v="511794" />
	</node>
	<node lat="70.33694166673878" lon="22.83172494392955" id="-98533">
		<tag k="name" v="Polla" />
		<tag k="natural" v="cape" />
		<tag k="ssr:stedsnr" v="511799" />
	</node>
	<node lat="70.29458056193286" lon="23.56197768066233" id="-98537">
		<tag k="name" v="Guorranjárga" />
		<tag k="name:se" v="Guorranjárga" />
		<tag k="natural" v="cape" />
		<tag k="ssr:stedsnr" v="512180" />
	</node>
	<node lat="70.27411389262005" lon="23.17659437426644" id="-98549">
		<tag k="alt_name" v="Seglstein" />
		<tag k="name" v="Segelstein" />
		<tag k="natural" v="cape" />
		<tag k="ssr:stedsnr" v="512601" />
	</node>
	<node lat="70.13898611464258" lon="23.236158245515504" id="-98554">
		<tag k="name" v="Holmen" />
		<tag k="natural" v="cape" />
		<tag k="ssr:stedsnr" v="512662" />
	</node>
	<node lat="70.14270278040419" lon="23.27310547690131" id="-98557">
		<tag k="name" v="Innerstøa" />
		<tag k="natural" v="bay" />
		<tag k="ssr:stedsnr" v="512920" />
	</node>
	<node lat="70.2470611122303" lon="23.42296102689976" id="-98559">
		<tag k="name" v="Nuppebasnjárga" />
		<tag k="name:se" v="Nuppebasnjárga" />
		<tag k="natural" v="cape" />
		<tag k="ssr:stedsnr" v="512844" />
	</node>
	<node lat="70.2461111164137" lon="22.76481382912836" id="-98563">
		<tag k="name" v="Skarvberget" />
		<tag k="natural" v="cape" />
		<tag k="ssr:stedsnr" v="519900" />
	</node>
	<node lat="70.0931333399531" lon="23.182302695679653" id="-98579">
		<tag k="name" v="Sørneset" />
		<tag k="natural" v="cape" />
		<tag k="ssr:stedsnr" v="530994" />
	</node>
	<node lat="70.03118888775761" lon="23.073963812019883" id="-98603">
		<tag k="name" v="Kråkneset" />
		<tag k="natural" v="cape" />
		<tag k="ssr:stedsnr" v="564806" />
	</node>
	<node lat="70.35301389536049" lon="22.798355492944978" id="-98637">
		<tag k="name" v="Hammaren" />
		<tag k="name:no" v="Hammaren" />
		<tag k="name:se" v="Veahčir" />
		<tag k="natural" v="cape" />
		<tag k="ssr:stedsnr" v="566153" />
	</node>
	<node lat="70.22718333850568" lon="23.323766594192122" id="-98639">
		<tag k="alt_name:no" v="Bergsnes;Bergnes" />
		<tag k="name" v="Bergneset" />
		<tag k="name:no" v="Bergneset" />
		<tag k="name:se" v="Várrenjárga" />
		<tag k="natural" v="cape" />
		<tag k="ssr:stedsnr" v="565592" />
	</node>
	<node lat="70.2485833371299" lon="22.88676103593558" id="-98640">
		<tag k="name" v="Unna Deavutluovttaš" />
		<tag k="name:se" v="Unna Deavutluovttaš" />
		<tag k="natural" v="bay" />
		<tag k="old_name:se" v="Dævotluovtaš, unna" />
		<tag k="ssr:stedsnr" v="565601" />
	</node>
	<node lat="70.13629167138588" lon="22.960122144594386" id="-98650">
		<tag k="name" v="Kvitnes" />
		<tag k="natural" v="cape" />
		<tag k="ssr:stedsnr" v="565642" />
	</node>
	<node lat="70.1585638928886" lon="22.938061036281344" id="-98657">
		<tag k="fixme" v="multiple name:no tags, choose one and add the other to alt_name:no" />
		<tag k="name" v="Olggut Buođgavuonnjárga" />
		<tag k="name:no" v="Ytternes;Ytre Kovneset" />
		<tag k="name:se" v="Olggut Buođgavuonnjárga" />
		<tag k="natural" v="cape" />
		<tag k="old_name:se" v="Buođgavuonnjarga, ålgot" />
		<tag k="ssr:stedsnr" v="565658" />
	</node>
	<node lat="70.10323889611917" lon="23.25021102198558" id="-98658">
		<tag k="alt_name" v="Rørholmen" />
		<tag k="name" v="Røyrholman" />
		<tag k="natural" v="cape" />
		<tag k="ssr:stedsnr" v="565736" />
	</node>
	<node lat="70.1023750054984" lon="23.229188821084502" id="-98659">
		<tag k="alt_name" v="Tømmernes" />
		<tag k="name" v="Tømmerneset" />
		<tag k="natural" v="cape" />
		<tag k="ssr:stedsnr" v="565737" />
	</node>
	<node lat="70.10040000242981" lon="23.310958261403975" id="-98660">
		<tag k="name" v="Kobbevika" />
		<tag k="natural" v="bay" />
		<tag k="ssr:stedsnr" v="565738" />
	</node>
	<node lat="70.2023222268591" lon="23.160866579911072" id="-98664">
		<tag k="name" v="Korsnesflua" />
		<tag k="natural" v="shoal" />
		<tag k="place" v="locality" />
		<tag k="ssr:stedsnr" v="565687" />
	</node>
	<node lat="70.12893888872755" lon="23.217755478038217" id="-98666">
		<tag k="alt_name" v="Brensvik" />
		<tag k="name" v="Brennsvik" />
		<tag k="natural" v="bay" />
		<tag k="ssr:stedsnr" v="565767" />
	</node>
	<node lat="70.37802221988966" lon="23.47201936409133" id="-98669">
		<tag k="name" v="Seines" />
		<tag k="name:no" v="Seines" />
		<tag k="name:se" v="Sáinjárga" />
		<tag k="natural" v="cape" />
		<tag k="ssr:stedsnr" v="565779" />
	</node>
	<node lat="70.02743333739768" lon="23.392605457896916" id="-98670">
		<tag k="alt_name:no" v="Goppa" />
		<tag k="loc_name:se" v="Gohppi" />
		<tag k="name" v="Goppe" />
		<tag k="name:no" v="Goppe" />
		<tag k="natural" v="bay" />
		<tag k="ssr:stedsnr" v="565780" />
	</node>
	<node lat="70.02679722053253" lon="23.215824928519552" id="-98672">
		<tag k="fixme" v="consider seamark:type=rock or natural=shoal" />
		<tag k="name" v="Rundholmen - Jorbán" />
		<tag k="name:no" v="Rundholmen" />
		<tag k="name:se" v="Jorbán" />
		<tag k="old_name:se" v="Jårban" />
		<tag k="place" v="islet" />
		<tag k="ssr:stedsnr" v="565785" />
	</node>
	<node lat="70.31376388987769" lon="23.439388791350304" id="-98674">
		<tag k="name" v="Vargneset - Várgguidgeahči" />
		<tag k="name:no" v="Vargneset" />
		<tag k="name:se" v="Várgguidgeahči" />
		<tag k="natural" v="cape" />
		<tag k="old_name:se" v="Vargoidgæčči" />
		<tag k="ssr:stedsnr" v="565798" />
	</node>
	<node lat="70.13333055617986" lon="23.002024925239137" id="-98675">
		<tag k="alt_name" v="Sommernes" />
		<tag k="name" v="Sommarnes" />
		<tag k="natural" v="cape" />
		<tag k="ssr:stedsnr" v="565748" />
	</node>
	<node lat="70.34326667222913" lon="23.38042768604177" id="-98681">
		<tag k="name" v="Storholmen - Állevuolsuolu" />
		<tag k="name:no" v="Storholmen" />
		<tag k="name:se" v="Állevuolsuolu" />
		<tag k="old_name:se" v="Allevuolsuolo" />
		<tag k="place" v="islet" />
		<tag k="ssr:stedsnr" v="565889" />
	</node>
	<node lat="70.24230833748989" lon="23.446119351874067" id="-98686">
		<tag k="name" v="Revet - Rivdnji" />
		<tag k="name:no" v="Revet" />
		<tag k="name:se" v="Rivdnji" />
		<tag k="natural" v="strait" />
		<tag k="ssr:stedsnr" v="565859" />
	</node>
	<node lat="69.97850278236878" lon="23.25176936987617" id="-98705">
		<tag k="fixme" v="consider seamark:type=rock or natural=shoal" />
		<tag k="name" v="Tollevikskjæret" />
		<tag k="place" v="islet" />
		<tag k="ssr:stedsnr" v="571229" />
	</node>
	<node lat="69.95598611702025" lon="23.093572152689383" id="-98706">
		<tag k="name" v="Israelsnes" />
		<tag k="natural" v="cape" />
		<tag k="ssr:stedsnr" v="571383" />
	</node>
	<node lat="70.14645556187733" lon="23.258777698703916" id="-98709">
		<tag k="name" v="Nøttevika" />
		<tag k="natural" v="bay" />
		<tag k="ssr:stedsnr" v="572640" />
	</node>
	<node lat="70.33416944106892" lon="22.824511058178864" id="-98715">
		<tag k="name" v="Storsteinbukt" />
		<tag k="natural" v="bay" />
		<tag k="ssr:stedsnr" v="571784" />
	</node>
	<node lat="70.27720556045904" lon="23.372205469094595" id="-98731">
		<tag k="name" v="Skjærbukt" />
		<tag k="name:no" v="Skjærbukt" />
		<tag k="name:se" v="Skiregohppi" />
		<tag k="natural" v="bay" />
		<tag k="ssr:stedsnr" v="572874" />
	</node>
	<node lat="70.33931666730865" lon="22.852099926838164" id="-98743">
		<tag k="name" v="Vintersetbukta" />
		<tag k="name:no" v="Vintersetbukta" />
		<tag k="name:se" v="Gonagasgohppi" />
		<tag k="natural" v="bay" />
		<tag k="ssr:stedsnr" v="580148" />
	</node>
	<node lat="70.38641667013046" lon="22.888605491646704" id="-98772">
		<tag k="alt_name:no" v="Sæterbukta" />
		<tag k="name" v="Seterbukta - Gáicagohppi" />
		<tag k="name:no" v="Seterbukta" />
		<tag k="name:se" v="Gáicagohppi" />
		<tag k="natural" v="bay" />
		<tag k="old_name:se" v="Gaicagåppi" />
		<tag k="ssr:stedsnr" v="625021" />
	</node>
	<node lat="70.14231389268653" lon="23.171199921899788" id="-98775">
		<tag k="name" v="Storbukta" />
		<tag k="natural" v="bay" />
		<tag k="ssr:stedsnr" v="625619" />
	</node>
	<node lat="70.15076944737012" lon="23.193516579828092" id="-98779">
		<tag k="alt_name" v="Kruneset" />
		<tag k="name" v="Krunes" />
		<tag k="natural" v="cape" />
		<tag k="ssr:stedsnr" v="625637" />
	</node>
	<node lat="70.2183138951958" lon="23.245827706916593" id="-98790">
		<tag k="name" v="Lávrragohppi" />
		<tag k="name:se" v="Lávrragohppi" />
		<tag k="natural" v="bay" />
		<tag k="old_name:se" v="Lavragåppi" />
		<tag k="ssr:stedsnr" v="625558" />
	</node>
	<node lat="70.22716666983966" lon="23.371072142304293" id="-98793">
		<tag k="name" v="Vannes" />
		<tag k="name:no" v="Vannes" />
		<tag k="name:se" v="Vasnjárga" />
		<tag k="natural" v="cape" />
		<tag k="ssr:stedsnr" v="625570" />
	</node>
	<node lat="70.02372222401446" lon="23.05211938028126" id="-98811">
		<tag k="fixme" v="multiple name tags, choose one and add the other to alt_name" />
		<tag k="name" v="Kråkvik;Store Kråkvik" />
		<tag k="natural" v="bay" />
		<tag k="ssr:stedsnr" v="625767" />
	</node>
	<node lat="70.02181666535296" lon="23.204674928084163" id="-98814">
		<tag k="name" v="Rundholmbåen" />
		<tag k="natural" v="shoal" />
		<tag k="place" v="locality" />
		<tag k="ssr:stedsnr" v="625781" />
	</node>
	<node lat="70.25403888773641" lon="22.681205493329347" id="-98828">
		<tag k="name" v="Bukkebukta" />
		<tag k="name:no" v="Bukkebukta" />
		<tag k="name:se" v="Bohkáidgohpi" />
		<tag k="natural" v="bay" />
		<tag k="ssr:stedsnr" v="626105" />
	</node>
	<node lat="70.33949444816427" lon="22.797977721714627" id="-98833">
		<tag k="name" v="Kobbebukta" />
		<tag k="name:no" v="Kobbebukta" />
		<tag k="name:se" v="Njuorjogohppi" />
		<tag k="natural" v="bay" />
		<tag k="ssr:stedsnr" v="626178" />
	</node>
	<node lat="69.92936944674683" lon="23.03692491426599" id="-98849">
		<tag k="name" v="Njoammelgohppi" />
		<tag k="name:se" v="Njoammelgohppi" />
		<tag k="natural" v="bay" />
		<tag k="old_name:se" v="Njaammelgåppi" />
		<tag k="ssr:stedsnr" v="626467" />
	</node>
	<node lat="70.15646944175084" lon="23.284558260270714" id="-98862">
		<tag k="name" v="Rasmusgambukta" />
		<tag k="natural" v="bay" />
		<tag k="ssr:stedsnr" v="626664" />
	</node>
	<node lat="70.16028055573445" lon="23.27112490764477" id="-98863">
		<tag k="alt_name" v="Skillefjordneset, in" />
		<tag k="fixme" v="multiple name tags, choose one and add the other to alt_name" />
		<tag k="name" v="Innernes;Indre Skillefjordneset" />
		<tag k="natural" v="cape" />
		<tag k="ssr:stedsnr" v="626665" />
	</node>
	<node lat="70.17546389336171" lon="22.9598554846035" id="-98865">
		<tag k="alt_name:no" v="Nils Bårdsavika" />
		<tag k="name" v="Nils Børsavika - Spággoluovta" />
		<tag k="name:no" v="Nils Børsavika" />
		<tag k="name:se" v="Spággoluovta" />
		<tag k="natural" v="bay" />
		<tag k="old_name:se" v="Spagguluokta" />
		<tag k="ssr:stedsnr" v="626669" />
	</node>
	<node lat="70.28222500436308" lon="23.532238792845725" id="-98875">
		<tag k="alt_name:no" v="Elvebukt" />
		<tag k="name" v="Elvebukta - Čuoikaluovta" />
		<tag k="name:no" v="Elvebukta" />
		<tag k="name:se" v="Čuoikaluovta" />
		<tag k="natural" v="bay" />
		<tag k="ssr:stedsnr" v="626817" />
	</node>
	<node lat="70.29466944282245" lon="23.058022161634" id="-98885">
		<tag k="alt_name:no" v="Grandnes" />
		<tag k="loc_name:no" v="Grann-nes" />
		<tag k="name" v="Grannes" />
		<tag k="name:no" v="Grannes" />
		<tag k="name:se" v="Seakkanjárga" />
		<tag k="natural" v="cape" />
		<tag k="ssr:stedsnr" v="626927" />
	</node>
	<node lat="70.30128333913602" lon="23.062947143462445" id="-98887">
		<tag k="fixme" v="multiple name:no tags, choose one and add the other to alt_name:no" />
		<tag k="name" v="Skárffagohppi" />
		<tag k="name:no" v="Skarvbukta;Elvebukta;Elvebukt" />
		<tag k="name:se" v="Skárffagohppi" />
		<tag k="natural" v="bay" />
		<tag k="old_name:se" v="Skarfagåppi" />
		<tag k="ssr:stedsnr" v="626935" />
	</node>
	<node lat="70.24188055995977" lon="23.491808255521224" id="-98889">
		<tag k="alt_name:no" v="Korsfjordbotnen" />
		<tag k="fixme" v="multiple name:se tags, choose one and add the other to alt_name:se" />
		<tag k="name" v="Botnen" />
		<tag k="name:no" v="Botnen" />
		<tag k="name:se" v="Vuonnabahta;Fielvuonbahta" />
		<tag k="natural" v="bay" />
		<tag k="ssr:stedsnr" v="626863" />
	</node>
	<node lat="70.27329722454787" lon="23.137847140573104" id="-98893">
		<tag k="name" v="Buollán" />
		<tag k="name:se" v="Buollán" />
		<tag k="natural" v="cape" />
		<tag k="old_name:se" v="Buollan" />
		<tag k="ssr:stedsnr" v="626943" />
	</node>
	<node lat="69.9357833356845" lon="23.03092492877241" id="-98899">
		<tag k="name" v="Kirkhusbukta" />
		<tag k="natural" v="bay" />
		<tag k="ssr:stedsnr" v="632256" />
	</node>
	<node lat="70.11334445101886" lon="23.368947130609897" id="-98904">
		<tag k="name" v="Landgudnes" />
		<tag k="natural" v="cape" />
		<tag k="ssr:stedsnr" v="632490" />
	</node>
	<node lat="70.31413889525706" lon="22.875369375160698" id="-98908">
		<tag k="name" v="Fjordbotn" />
		<tag k="natural" v="bay" />
		<tag k="ssr:stedsnr" v="632599" />
	</node>
	<node lat="70.23929722739702" lon="23.499749924244654" id="-98913">
		<tag k="name" v="Kokelvbukt" />
		<tag k="natural" v="bay" />
		<tag k="ssr:stedsnr" v="632790" />
	</node>
	<node lat="70.17828611493758" lon="23.37452770363186" id="-98923">
		<tag k="name" v="Kjosen" />
		<tag k="natural" v="strait" />
		<tag k="ssr:stedsnr" v="632958" />
	</node>
	<node lat="70.04990277869871" lon="22.982630478236352" id="-98958">
		<tag k="name" v="Isberget" />
		<tag k="natural" v="cape" />
		<tag k="ssr:stedsnr" v="713837" />
	</node>
	<node lat="70.24474167258651" lon="22.505424949466928" id="-98987">
		<tag k="name" v="Vågneset - Siiggátnjárga" />
		<tag k="name:no" v="Vågneset" />
		<tag k="name:se" v="Siiggátnjárga" />
		<tag k="natural" v="cape" />
		<tag k="old_name:no" v="Vangneset" />
		<tag k="old_name:se" v="Siigatnjarga" />
		<tag k="ssr:stedsnr" v="747481" />
	</node>
	<node lat="70.06465555716422" lon="23.182488800888045" id="-98995">
		<tag k="name" v="Storvikneset" />
		<tag k="natural" v="cape" />
		<tag k="ssr:stedsnr" v="747427" />
	</node>
	<node lat="70.07851111509721" lon="23.20587770346618" id="-99009">
		<tag k="name" v="Altenesodden - Ealenjárga" />
		<tag k="name:no" v="Altenesodden" />
		<tag k="name:se" v="Ealenjárga" />
		<tag k="natural" v="cape" />
		<tag k="old_name:se" v="Ælenjarga" />
		<tag k="ssr:stedsnr" v="747693" />
	</node>
	<node lat="70.20978333962198" lon="23.126555484778535" id="-99010">
		<tag k="name" v="Storbåen" />
		<tag k="natural" v="shoal" />
		<tag k="place" v="locality" />
		<tag k="ssr:stedsnr" v="747557" />
	</node>
	<node lat="70.2065944440095" lon="22.895466596854195" id="-99011">
		<tag k="name" v="Båsen" />
		<tag k="natural" v="cape" />
		<tag k="ssr:stedsnr" v="747558" />
	</node>
	<node lat="70.15147499883999" lon="22.913341599564603" id="-99016">
		<tag k="name" v="Esekiasnjárga" />
		<tag k="name:se" v="Esekiasnjárga" />
		<tag k="natural" v="cape" />
		<tag k="old_name:se" v="Esekiasnjarga" />
		<tag k="ssr:stedsnr" v="747652" />
	</node>
	<node lat="70.33786389191559" lon="22.993405494642687" id="-99024">
		<tag k="alt_name:no" v="Sennabukt" />
		<tag k="name" v="Sennabukta" />
		<tag k="name:no" v="Sennabukta" />
		<tag k="name:se" v="Suoidnegohppi" />
		<tag k="natural" v="bay" />
		<tag k="ssr:stedsnr" v="747888" />
	</node>
	<node lat="70.31505000745328" lon="23.349641578433136" id="-99027">
		<tag k="fixme" v="multiple name:no tags, choose one and add the other to alt_name:no" />
		<tag k="name" v="Bihttánjárga" />
		<tag k="name:no" v="Indre Bekkarfjordnes;Bekkarfjordnes" />
		<tag k="name:se" v="Bihttánjárga" />
		<tag k="natural" v="cape" />
		<tag k="old_name:se" v="Bittanjarga" />
		<tag k="ssr:stedsnr" v="747895" />
	</node>
	<node lat="70.10867794231085" lon="22.829778072745007" id="-99031">
		<tag k="name" v="Kovholmen - Buođgasuolu" />
		<tag k="name:no" v="Kovholmen" />
		<tag k="name:se" v="Buođgasuolu" />
		<tag k="old_name:se" v="Buođgasuolo" />
		<tag k="place" v="islet" />
		<tag k="ssr:stedsnr" v="747723" />
	</node>
	<node lat="70.13871389173991" lon="23.00773603641609" id="-99032">
		<tag k="name" v="Langnesholmen - Lákkosuolu" />
		<tag k="name:no" v="Langnesholmen" />
		<tag k="name:se" v="Lákkosuolu" />
		<tag k="old_name:se" v="Laggusuolo" />
		<tag k="place" v="islet" />
		<tag k="ssr:stedsnr" v="747737" />
	</node>
	<node lat="70.12290833301988" lon="22.92641383068572" id="-99034">
		<tag k="name" v="Skipsteinbukta" />
		<tag k="natural" v="bay" />
		<tag k="ssr:stedsnr" v="747751" />
	</node>
	<node lat="70.01058611351256" lon="23.062047140961408" id="-99035">
		<tag k="name" v="Vuorašnjárga" />
		<tag k="name:se" v="Vuorašnjárga" />
		<tag k="natural" v="cape" />
		<tag k="old_name:se" v="Vuorašnjarga" />
		<tag k="ssr:stedsnr" v="747758" />
	</node>
	<node lat="70.02887222980587" lon="23.227913799600998" id="-99037">
		<tag k="name" v="Brattholmen - Allasuolu" />
		<tag k="name:no" v="Brattholmen" />
		<tag k="name:se" v="Allasuolu" />
		<tag k="old_name:se" v="Allasuolo" />
		<tag k="place" v="islet" />
		<tag k="ssr:stedsnr" v="747763" />
	</node>
	<node lat="70.35277222920296" lon="23.418941578128365" id="-99051">
		<tag k="name" v="Canjárga" />
		<tag k="name:se" v="Canjárga" />
		<tag k="natural" v="cape" />
		<tag k="old_name:se" v="Canjarga" />
		<tag k="ssr:stedsnr" v="748795" />
	</node>
	<node lat="70.26750555544098" lon="23.358894369749766" id="-99054">
		<tag k="name" v="Sørnes" />
		<tag k="natural" v="cape" />
		<tag k="ssr:stedsnr" v="748940" />
	</node>
	<node lat="70.2971083367366" lon="23.604063804685623" id="-99068">
		<tag k="name" v="Stjernebukt" />
		<tag k="natural" v="bay" />
		<tag k="ssr:stedsnr" v="755159" />
	</node>
	<node lat="70.33327500249975" lon="22.826716597651743" id="-99074">
		<tag k="name" v="Valen" />
		<tag k="natural" v="strait" />
		<tag k="ssr:stedsnr" v="753786" />
	</node>
	<node lat="70.34102499841346" lon="22.821458269946195" id="-99075">
		<tag k="fixme" v="consider seamark:type=rock or natural=shoal" />
		<tag k="name" v="Pollskjæran" />
		<tag k="place" v="islet" />
		<tag k="ssr:stedsnr" v="753790" />
	</node>
	<node lat="69.98075266824532" lon="23.458213251361034" id="-99079">
		<tag k="loc_name:fkv" v="Laattari;Laattarinniemi" />
		<tag k="name" v="Lahtarineset" />
		<tag k="name:no" v="Lahtarineset" />
		<tag k="name:se" v="Láhttarnjárga" />
		<tag k="natural" v="cape" />
		<tag k="ssr:stedsnr" v="754060" />
	</node>
	<node lat="70.10231111232774" lon="23.29117768280122" id="-99088">
		<tag k="name" v="Laukvikklubben" />
		<tag k="natural" v="cape" />
		<tag k="ssr:stedsnr" v="754225" />
	</node>
	<node lat="70.34889999897155" lon="22.796836039004802" id="-99101">
		<tag k="name" v="Váillasgohppisuolu" />
		<tag k="name:se" v="Váillasgohppisuolu" />
		<tag k="place" v="islet" />
		<tag k="ssr:stedsnr" v="754825" />
	</node>
	<node lat="69.99235000225538" lon="23.224819371967858" id="-99134">
		<tag k="fixme" v="consider seamark:type=rock or natural=shoal" />
		<tag k="name" v="Indreskjæret" />
		<tag k="place" v="islet" />
		<tag k="ssr:stedsnr" v="773784" />
	</node>
	<node lat="70.0554138914634" lon="22.395722158987507" id="-99137">
		<tag k="name" v="Vaddekeip" />
		<tag k="natural" v="cape" />
		<tag k="ssr:stedsnr" v="774733" />
	</node>
	<node lat="70.36100833820163" lon="23.093855497696786" id="-99154">
		<tag k="name" v="Gambukta" />
		<tag k="natural" v="bay" />
		<tag k="ssr:stedsnr" v="808007" />
	</node>
	<node lat="70.22015000594585" lon="22.64894993360221" id="-99176">
		<tag k="name" v="Tungsjøneset" />
		<tag k="natural" v="cape" />
		<tag k="ssr:stedsnr" v="808377" />
	</node>
	<node lat="70.22310555736702" lon="22.61284160035591" id="-99177">
		<tag k="fixme" v="multiple name:no tags, choose one and add the other to alt_name:no" />
		<tag k="name" v="Siskkit Rohkalvuonnjárga" />
		<tag k="name:no" v="Reinvikneset;Lokkarfjordneset, in;Indre Lokkarfjordneset" />
		<tag k="name:se" v="Siskkit Rohkalvuonnjárga" />
		<tag k="natural" v="cape" />
		<tag k="old_name:se" v="Råkkalvuonnjarga siskit" />
		<tag k="ssr:stedsnr" v="808378" />
	</node>
	<node lat="70.23255833222592" lon="22.558077734592406" id="-99179">
		<tag k="alt_name:no" v="Lokkarfjordneset, yt" />
		<tag k="name" v="Ytre Lokkarfjordneset - Olggut Rohkalvuonnjárga" />
		<tag k="name:no" v="Ytre Lokkarfjordneset" />
		<tag k="name:se" v="Olggut Rohkalvuonnjárga" />
		<tag k="natural" v="cape" />
		<tag k="old_name:se" v="Råkkalvuonnjarga ålgot" />
		<tag k="ssr:stedsnr" v="808382" />
	</node>
	<node lat="70.20598611051075" lon="22.823899925349487" id="-99196">
		<tag k="alt_name" v="Kobbevik, yt" />
		<tag k="name" v="Ytre Kobbevik" />
		<tag k="natural" v="cape" />
		<tag k="ssr:stedsnr" v="808560" />
	</node>
	<node lat="70.24827222056817" lon="23.388227689715393" id="-99200">
		<tag k="name" v="Gohppi" />
		<tag k="name:se" v="Gohppi" />
		<tag k="natural" v="bay" />
		<tag k="old_name:se" v="Gåppi" />
		<tag k="ssr:stedsnr" v="808581" />
	</node>
	<node lat="70.1739027780974" lon="23.318816572590368" id="-99209">
		<tag k="name" v="Fjellbukta" />
		<tag k="natural" v="bay" />
		<tag k="ssr:stedsnr" v="808667" />
	</node>
	<node lat="70.14475000594531" lon="23.17117492391542" id="-99216">
		<tag k="name" v="Vika" />
		<tag k="natural" v="bay" />
		<tag k="ssr:stedsnr" v="808620" />
	</node>
	<node lat="70.24497500317729" lon="23.446727690719513" id="-99223">
		<tag k="fixme" v="multiple name:se tags, choose one and add the other to alt_name:se" />
		<tag k="name" v="Mikkelsnes" />
		<tag k="name:no" v="Mikkelsnes" />
		<tag k="name:se" v="Mihkkelgalnjárga;Mihkkalnjárga" />
		<tag k="natural" v="cape" />
		<tag k="old_name:se" v="Mikkalnjarga" />
		<tag k="ssr:stedsnr" v="808774" />
	</node>
	<node lat="70.3433611154893" lon="23.066322150080932" id="-99227">
		<tag k="alt_name:no" v="Hamnebukt" />
		<tag k="name" v="Hamnebukta - Hávnnagohppi" />
		<tag k="name:no" v="Hamnebukta" />
		<tag k="name:se" v="Hávnnagohppi" />
		<tag k="natural" v="bay" />
		<tag k="old_name:se" v="Havnagåppi" />
		<tag k="ssr:stedsnr" v="808889" />
	</node>
	<node lat="70.02555000652599" lon="23.468455470409133" id="-99238">
		<tag k="alt_name" v="Moseneset" />
		<tag k="loc_name" v="Jeagilnjárga" />
		<tag k="name" v="Mosenes" />
		<tag k="natural" v="cape" />
		<tag k="ssr:stedsnr" v="808972" />
	</node>
	<node lat="70.34746388801848" lon="22.79012493456338" id="-99243">
		<tag k="name" v="Váillasgohppi" />
		<tag k="name:se" v="Váillasgohppi" />
		<tag k="natural" v="bay" />
		<tag k="old_name:se" v="Vailasgåppi" />
		<tag k="ssr:stedsnr" v="809156" />
	</node>
	<node lat="70.26342777702973" lon="22.561208268124222" id="-99244">
		<tag k="alt_name:no" v="Nabberen" />
		<tag k="name" v="Nabbarodden - Náppar" />
		<tag k="name:no" v="Nabbarodden" />
		<tag k="name:se" v="Náppar" />
		<tag k="natural" v="cape" />
		<tag k="old_name:se" v="Nabbar" />
		<tag k="ssr:stedsnr" v="809112" />
	</node>
	<node lat="70.26046944543701" lon="23.01619158977259" id="-99247">
		<tag k="alt_name:no" v="Stjernøyoddholmen" />
		<tag k="name" v="Stjernøyholmen" />
		<tag k="name:no" v="Stjernøyholmen" />
		<tag k="name:se" v="Vinšasuolu" />
		<tag k="old_name:se" v="Vinšasuolo" />
		<tag k="place" v="islet" />
		<tag k="ssr:stedsnr" v="809948" />
	</node>
	<node lat="70.28751389313524" lon="23.549844346939313" id="-99251">
		<tag k="name" v="Myrbukt" />
		<tag k="name:no" v="Myrbukt" />
		<tag k="name:se" v="Jeaggegohppi" />
		<tag k="natural" v="bay" />
		<tag k="ssr:stedsnr" v="815176" />
	</node>
	<node lat="69.99306666975565" lon="23.298444353329486" id="-99262">
		<tag k="name" v="Galdiogoppe" />
		<tag k="natural" v="bay" />
		<tag k="ssr:stedsnr" v="814282" />
	</node>
	<node lat="70.01822778219785" lon="23.086638807329834" id="-99274">
		<tag k="name" v="Skavvik" />
		<tag k="natural" v="bay" />
		<tag k="ssr:stedsnr" v="814383" />
	</node>
	<node lat="70.24369167249631" lon="23.504513796070462" id="-99285">
		<tag k="name" v="Nordbukt" />
		<tag k="natural" v="bay" />
		<tag k="ssr:stedsnr" v="814817" />
	</node>
	<node lat="70.3359222264693" lon="22.880011039487343" id="-99289">
		<tag k="name" v="Gabbalásságohppi" />
		<tag k="name:se" v="Gabbalásságohppi" />
		<tag k="natural" v="bay" />
		<tag k="ssr:stedsnr" v="814860" />
	</node>
	<node lat="70.02651667040801" lon="23.443291573407677" id="-99292">
		<tag k="name" v="Kobbeneset" />
		<tag k="natural" v="cape" />
		<tag k="ssr:stedsnr" v="815037" />
	</node>
	<node lat="70.1288833380383" lon="23.204755476691503" id="-99296">
		<tag k="name" v="Stigevik" />
		<tag k="natural" v="bay" />
		<tag k="ssr:stedsnr" v="815556" />
	</node>
	<node lat="70.14212222452845" lon="23.3186721433345" id="-99313">
		<tag k="name" v="Innervika" />
		<tag k="natural" v="bay" />
		<tag k="ssr:stedsnr" v="815898" />
	</node>
	<node lat="70.02640833268462" lon="22.303122174505525" id="-99315">
		<tag k="name" v="Mikkelbukta" />
		<tag k="natural" v="bay" />
		<tag k="ssr:stedsnr" v="815964" />
	</node>
	<node lat="69.97158056022921" lon="23.24255546522117" id="-99338">
		<tag k="name" v="Skaialuftbåen" />
		<tag k="place" v="locality" />
		<tag k="seamark:type" v="rock" />
		<tag k="ssr:stedsnr" v="835814" />
	</node>
	<node lat="70.14151944805329" lon="23.208063821135806" id="-99354">
		<tag k="name" v="Ladnesuolu" />
		<tag k="name:no" v="Årøya" />
		<tag k="name:se" v="Ladnesuolu" />
		<tag k="old_name:se" v="Ladnesuolo" />
		<tag k="place" v="island" />
		<tag k="ssr:stedsnr" v="868601" />
	</node>
	<node lat="70.2606388904044" lon="22.644933284321144" id="-99358">
		<tag k="name" v="Ytre Simavik" />
		<tag k="name:no" v="Ytre Simavik" />
		<tag k="name:se" v="Lássevuonna" />
		<tag k="natural" v="bay" />
		<tag k="old_name:no" v="Simavik, yt" />
		<tag k="ssr:stedsnr" v="869099" />
	</node>
	<node lat="70.3702499982989" lon="22.70762494475947" id="-99360">
		<tag k="bay" v="fjord" />
		<tag k="name" v="Store Kjerringfjorden" />
		<tag k="name:no" v="Store Kjerringfjorden" />
		<tag k="name:se" v="Stuora Várjevuonna" />
		<tag k="natural" v="bay" />
		<tag k="old_name:no" v="Kjerringfjorden, store" />
		<tag k="old_name:se" v="Varjevuodna stuora;Stuora Várjevuotna" />
		<tag k="ssr:stedsnr" v="869181" />
	</node>
	<node lat="70.38952499836519" lon="22.780647169527892" id="-99361">
		<tag k="name" v="Irvi" />
		<tag k="name:se" v="Irvi" />
		<tag k="natural" v="cape" />
		<tag k="ssr:stedsnr" v="869188" />
	</node>
	<node lat="70.38432222563677" lon="22.788836060497857" id="-99370">
		<tag k="alt_name" v="Kvalvikneset, yt" />
		<tag k="name" v="Ytre Kvalvikneset" />
		<tag k="natural" v="cape" />
		<tag k="ssr:stedsnr" v="869207" />
	</node>
	<node lat="69.98184722088644" lon="23.383630474072117" id="-99390">
		<tag k="name" v="Naustneset" />
		<tag k="natural" v="cape" />
		<tag k="ssr:stedsnr" v="869519" />
	</node>
	<node lat="70.28033333174066" lon="23.378611022885483" id="-99391">
		<tag k="name" v="Nordnes" />
		<tag k="name:no" v="Nordnes" />
		<tag k="name:se" v="Nuortanjárga" />
		<tag k="natural" v="cape" />
		<tag k="ssr:stedsnr" v="869561" />
	</node>
	<node lat="70.1396638912999" lon="22.971377715138544" id="-99395">
		<tag k="alt_name" v="Finneset" />
		<tag k="name" v="Finnes" />
		<tag k="natural" v="cape" />
		<tag k="ssr:stedsnr" v="869666" />
	</node>
	<node lat="70.08572500550153" lon="23.13385826125654" id="-99397">
		<tag k="fixme" v="multiple name tags, choose one and add the other to alt_name" />
		<tag k="loc_name:se" v="Ealegeahči" />
		<tag k="name" v="Altenes;Søre Altenes" />
		<tag k="name:no" v="Altenes;Søre Altenes" />
		<tag k="natural" v="cape" />
		<tag k="ssr:stedsnr" v="869738" />
	</node>
	<node lat="70.11892778376625" lon="22.989513820793867" id="-99400">
		<tag k="name" v="Klubben" />
		<tag k="natural" v="cape" />
		<tag k="ssr:stedsnr" v="869750" />
	</node>
	<node lat="70.1059333369348" lon="23.324086035703097" id="-99401">
		<tag k="fixme" v="multiple name tags, choose one and add the other to alt_name" />
		<tag k="name" v="Storholmen;Holmen" />
		<tag k="place" v="islet" />
		<tag k="ssr:stedsnr" v="869757" />
	</node>
	<node lat="70.1334833336155" lon="23.17818603655963" id="-99402">
		<tag k="name" v="Svinvikodden" />
		<tag k="natural" v="cape" />
		<tag k="ssr:stedsnr" v="869760" />
	</node>
	<node lat="70.02010255624792" lon="23.375975923230822" id="-99404">
		<tag k="name" v="Návggas" />
		<tag k="name:no" v="Russeluftholmen" />
		<tag k="name:se" v="Návggas" />
		<tag k="old_name:se" v="Navgas" />
		<tag k="place" v="islet" />
		<tag k="ssr:stedsnr" v="869789" />
	</node>
	<node lat="69.95033333456347" lon="23.153905471478136" id="-99457">
		<tag k="name" v="Ytre Saltvik" />
		<tag k="natural" v="bay" />
		<tag k="ssr:stedsnr" v="875483" />
	</node>
	<node lat="70.3148611104711" lon="22.94219716213747" id="-99462">
		<tag k="name" v="Stokkandnes" />
		<tag k="natural" v="cape" />
		<tag k="ssr:stedsnr" v="875537" />
	</node>
	<node lat="70.32896111420179" lon="22.894880490533094" id="-99465">
		<tag k="name" v="Holmsund" />
		<tag k="natural" v="strait" />
		<tag k="ssr:stedsnr" v="875839" />
	</node>
	<node lat="70.33286111602482" lon="22.813313840878585" id="-99469">
		<tag k="name" v="Revet" />
		<tag k="name:no" v="Revet" />
		<tag k="name:se" v="Bollorievva" />
		<tag k="natural" v="strait" />
		<tag k="ssr:stedsnr" v="875794" />
	</node>
	<node lat="70.02157778050278" lon="23.361797131980016" id="-99478">
		<tag k="name" v="Russeluftneset" />
		<tag k="natural" v="cape" />
		<tag k="ssr:stedsnr" v="876195" />
	</node>
	<node lat="70.13081944445204" lon="23.237311038580085" id="-99481">
		<tag k="fixme" v="consider seamark:type=rock or natural=shoal" />
		<tag k="name" v="Nesseskjæret" />
		<tag k="place" v="islet" />
		<tag k="ssr:stedsnr" v="876620" />
	</node>
	<node lat="70.13436389274914" lon="23.231044356034527" id="-99482">
		<tag k="name" v="Stranda" />
		<tag k="natural" v="beach" />
		<tag k="ssr:stedsnr" v="876621" />
	</node>
	<node lat="70.28005277878529" lon="23.10822214563239" id="-99484">
		<tag k="name" v="Spavabukta" />
		<tag k="natural" v="bay" />
		<tag k="ssr:stedsnr" v="876578" />
	</node>
	<node lat="70.32776666495252" lon="23.039452701122347" id="-99485">
		<tag k="name" v="Altnesodden" />
		<tag k="natural" v="cape" />
		<tag k="ssr:stedsnr" v="876598" />
	</node>
	<node lat="70.31391389402125" lon="23.044188824792688" id="-99496">
		<tag k="fixme" v="consider seamark:type=rock or natural=shoal" />
		<tag k="name" v="Ytre Skjærran" />
		<tag k="place" v="islet" />
		<tag k="ssr:stedsnr" v="883609" />
	</node>
	<node lat="70.02527222401844" lon="23.007313811824886" id="-99503">
		<tag k="name" v="Lillenes" />
		<tag k="natural" v="cape" />
		<tag k="ssr:stedsnr" v="936020" />
	</node>
	<node lat="70.02180833885329" lon="23.012191589599073" id="-99504">
		<tag k="name" v="Mitterslåka" />
		<tag k="natural" v="bay" />
		<tag k="ssr:stedsnr" v="936022" />
	</node>
	<node lat="69.94826111623384" lon="23.059688818210983" id="-99514">
		<tag k="name" v="Møllnesbukta" />
		<tag k="name:no" v="Møllnesbukta" />
		<tag k="name:se" v="Mánáidjohgohppi" />
		<tag k="natural" v="bay" />
		<tag k="ssr:stedsnr" v="936362" />
	</node>
	<node lat="70.10089444816232" lon="23.338113804786914" id="-99524">
		<tag k="name" v="Bekkenesstrand" />
		<tag k="natural" v="beach" />
		<tag k="ssr:stedsnr" v="937226" />
	</node>
	<node lat="70.3403638876201" lon="23.053549929715047" id="-99540">
		<tag k="name" v="Olanesgrunnen" />
		<tag k="natural" v="shoal" />
		<tag k="place" v="locality" />
		<tag k="ssr:stedsnr" v="943480" />
	</node>
	<node lat="70.24186111708529" lon="23.333147145370877" id="-99541">
		<tag k="name" v="Indre Lamvik" />
		<tag k="name:no" v="Indre Lamvik" />
		<tag k="name:se" v="Siskkit Láppisluovta" />
		<tag k="natural" v="bay" />
		<tag k="ssr:stedsnr" v="943831" />
	</node>
	<node lat="70.37441388988807" lon="22.800997153291146" id="-99548">
		<tag k="name" v="Kvinneneset" />
		<tag k="name:no" v="Kvinneneset" />
		<tag k="name:se" v="Nissonnjárga" />
		<tag k="natural" v="cape" />
		<tag k="ssr:stedsnr" v="944819" />
	</node>
</osm>
