<?xml version="1.0" encoding="UTF-8"?>
<osm version="0.6" generator="osmapis">
	<node lat="69.82279722556473" lon="23.84386932125345" id="-41878">
		<tag k="name" v="Fállegorsa" />
		<tag k="name:se" v="Fállegorsa" />
		<tag k="natural" v="waterfall" />
		<tag k="ssr:stedsnr" v="230567" />
	</node>
	<node lat="69.87166388816722" lon="22.642627720775803" id="-41886">
		<tag k="name" v="Lovppárjávri" />
		<tag k="name:se" v="Lovppárjávri" />
		<tag k="natural" v="water" />
		<tag k="old_name:se" v="Låvparjavri" />
		<tag k="ssr:stedsnr" v="19446" />
	</node>
	<node lat="70.0480500040775" lon="22.26614440032315" id="-41888">
		<tag k="name" v="Langelva" />
		<tag k="ssr:stedsnr" v="19490" />
		<tag k="waterway" v="stream" />
	</node>
	<node lat="70.19018889254752" lon="23.255949930692527" id="-41889">
		<tag k="name" v="Løkelva" />
		<tag k="ssr:stedsnr" v="19641" />
		<tag k="waterway" v="stream" />
	</node>
	<node lat="69.96771667265362" lon="23.37206934956834" id="-41892">
		<tag k="fixme" v="multiple name tags, choose one and add the other to alt_name" />
		<tag k="name" v="Altaelva - Álaheajeatnu;Álttáeatnu - Alattionjoki" />
		<tag k="name:fkv" v="Alattionjoki" />
		<tag k="name:no" v="Altaelva" />
		<tag k="name:se" v="Álaheajeatnu;Álttáeatnu" />
		<tag k="old_name:se" v="Altaædno;Álaheaieatnu" />
		<tag k="ssr:stedsnr" v="19647" />
		<tag k="waterway" v="river" />
	</node>
	<node lat="70.0688472260569" lon="22.858649934597352" id="-41893">
		<tag k="name" v="Giskedaltuvvannet" />
		<tag k="natural" v="water" />
		<tag k="ssr:stedsnr" v="19691" />
	</node>
	<node lat="70.16950000548769" lon="23.643047112791432" id="-41895">
		<tag k="name" v="Holevannet - Biedjojávri" />
		<tag k="name:no" v="Holevannet" />
		<tag k="name:se" v="Biedjojávri" />
		<tag k="natural" v="water" />
		<tag k="old_name:se" v="Bieddjujavri" />
		<tag k="ssr:stedsnr" v="19806" />
	</node>
	<node lat="70.11429722289421" lon="23.775891553629023" id="-41902">
		<tag k="name" v="Miessejohka" />
		<tag k="name:se" v="Miessejohka" />
		<tag k="old_name:se" v="Miessejåkka" />
		<tag k="ssr:stedsnr" v="19912" />
		<tag k="waterway" v="stream" />
	</node>
	<node lat="69.88393333133175" lon="23.443733245460653" id="-41917">
		<tag k="name" v="Kristentjønna" />
		<tag k="natural" v="water" />
		<tag k="ssr:stedsnr" v="26126" />
	</node>
	<node lat="70.36769722254891" lon="23.240208255516617" id="-41927">
		<tag k="name" v="Vuolimus Mielkejávri" />
		<tag k="name:se" v="Vuolimus Mielkejávri" />
		<tag k="natural" v="water" />
		<tag k="ssr:stedsnr" v="40178" />
	</node>
	<node lat="69.90540556019229" lon="23.914358205100335" id="-41930">
		<tag k="name" v="Stážžojohka" />
		<tag k="name:se" v="Stážžojohka" />
		<tag k="old_name:se" v="Stádjojohka" />
		<tag k="ssr:stedsnr" v="41364" />
		<tag k="waterway" v="stream" />
	</node>
	<node lat="70.3061166672506" lon="23.540255476045054" id="-41944">
		<tag k="name" v="Stáđđeláddu" />
		<tag k="name:se" v="Stáđđeláddu" />
		<tag k="natural" v="water" />
		<tag k="ssr:stedsnr" v="49983" />
	</node>
	<node lat="70.3181527838247" lon="22.734569378271928" id="-41945">
		<tag k="name" v="Čearretjávri" />
		<tag k="name:se" v="Čearretjávri" />
		<tag k="natural" v="water" />
		<tag k="ssr:stedsnr" v="60419" />
	</node>
	<node lat="69.74661945046249" lon="22.73012216069929" id="-41952">
		<tag k="name" v="Joalosskáidi" />
		<tag k="name:se" v="Joalosskáidi" />
		<tag k="natural" v="cape" />
		<tag k="old_name:se" v="Joalusskaidi" />
		<tag k="ssr:stedsnr" v="79896" />
	</node>
	<node lat="69.984216665147" lon="22.761716610846168" id="-41953">
		<tag k="name" v="Ladnegobejohka" />
		<tag k="name:se" v="Ladnegobejohka" />
		<tag k="old_name:se" v="Ladnegåbejåkka" />
		<tag k="ssr:stedsnr" v="80042" />
		<tag k="waterway" v="stream" />
	</node>
	<node lat="70.10333610907236" lon="22.916744375217085" id="-41968">
		<tag k="name" v="Áilegasmuotki" />
		<tag k="name:se" v="Áilegasmuotki" />
		<tag k="old_name:se" v="Ailegasmuotki" />
		<tag k="place" v="locality" />
		<tag k="ssr:stedsnr" v="80705" />
	</node>
	<node lat="70.04716666799594" lon="22.90630825733807" id="-41971">
		<tag k="fixme" v="multiple name tags, choose one and add the other to alt_name" />
		<tag k="name" v="Forneselvvatnet;Fornes-vatnet" />
		<tag k="natural" v="water" />
		<tag k="ssr:stedsnr" v="80797" />
		<tag k="water" v="lake" />
	</node>
	<node lat="70.0457222248496" lon="22.917897157282116" id="-41972">
		<tag k="name" v="Talvikvannet" />
		<tag k="natural" v="water" />
		<tag k="ssr:stedsnr" v="80798" />
	</node>
	<node lat="70.1358388885784" lon="23.60227489864592" id="-41975">
		<tag k="name" v="Fanasjohka" />
		<tag k="name:se" v="Fanasjohka" />
		<tag k="old_name:se" v="Fanasjåkka" />
		<tag k="ssr:stedsnr" v="80844" />
		<tag k="waterway" v="stream" />
	</node>
	<node lat="70.00664722201122" lon="23.809672102364573" id="-41977">
		<tag k="name" v="Øverste Sørelvvannet - Sieinnosgobijávri - Yli-Laattijärvi" />
		<tag k="name:fkv" v="Yli-Laattijärvi" />
		<tag k="name:no" v="Øverste Sørelvvannet" />
		<tag k="name:se" v="Sieinnosgobijávri" />
		<tag k="natural" v="water" />
		<tag k="ssr:stedsnr" v="80985" />
	</node>
	<node lat="70.26561111474962" lon="22.96872215498713" id="-41980">
		<tag k="name" v="Hállárjávri" />
		<tag k="name:se" v="Hállárjávri" />
		<tag k="natural" v="water" />
		<tag k="old_name:se" v="Hallarjavri" />
		<tag k="ssr:stedsnr" v="81932" />
	</node>
	<node lat="70.02379722256157" lon="22.91887215477494" id="-41982">
		<tag k="name" v="Hyttebekken" />
		<tag k="ssr:stedsnr" v="86006" />
		<tag k="waterway" v="stream" />
	</node>
	<node lat="70.04944445028845" lon="23.91699154352189" id="-41990">
		<tag k="name" v="Geatkejohka" />
		<tag k="name:se" v="Geatkejohka" />
		<tag k="old_name:se" v="Gætkejåkka" />
		<tag k="ssr:stedsnr" v="87406" />
		<tag k="waterway" v="stream" />
	</node>
	<node lat="69.71971389504924" lon="23.93266653154536" id="-42000">
		<tag k="name" v="Unna Suorrejávrráš" />
		<tag k="name:se" v="Unna Suorrejávrráš" />
		<tag k="natural" v="water" />
		<tag k="ssr:stedsnr" v="102913" />
	</node>
	<node lat="69.98746111141838" lon="22.78898604415541" id="-42012">
		<tag k="name" v="Forhåmovannet" />
		<tag k="natural" v="water" />
		<tag k="ssr:stedsnr" v="140036" />
	</node>
	<node lat="69.77444999915387" lon="23.105599929911218" id="-42015">
		<tag k="name" v="Fáhttejávri" />
		<tag k="name:se" v="Fáhttejávri" />
		<tag k="natural" v="water" />
		<tag k="old_name:se" v="Fattejavri" />
		<tag k="ssr:stedsnr" v="140303" />
	</node>
	<node lat="69.88229444636647" lon="23.264872131693448" id="-42016">
		<tag k="name" v="Granstrømmen" />
		<tag k="natural" v="water" />
		<tag k="ssr:stedsnr" v="140369" />
		<tag k="water" v="lake" />
	</node>
	<node lat="69.95020278160845" lon="23.310874925733476" id="-42020">
		<tag k="name" v="Paskasaari" />
		<tag k="name:fkv" v="Paskasaari" />
		<tag k="old_name:fkv" v="Baskasari" />
		<tag k="place" v="islet" />
		<tag k="ssr:stedsnr" v="140393" />
	</node>
	<node lat="69.97712500717915" lon="23.93836654245677" id="-42023">
		<tag k="name" v="Flatvannet - Duolbajávri" />
		<tag k="name:no" v="Flatvannet" />
		<tag k="name:se" v="Duolbajávri" />
		<tag k="natural" v="water" />
		<tag k="old_name:se" v="Duolbajavri" />
		<tag k="ssr:stedsnr" v="140288" />
		<tag k="water" v="lake" />
	</node>
	<node lat="69.8400277780608" lon="23.43068324791711" id="-42029">
		<tag k="name" v="Vinabekken - Viidnájohka" />
		<tag k="name:no" v="Vinabekken" />
		<tag k="name:se" v="Viidnájohka" />
		<tag k="ssr:stedsnr" v="140638" />
		<tag k="waterway" v="stream" />
	</node>
	<node lat="69.84674167264993" lon="23.794338763576413" id="-42030">
		<tag k="name" v="Repelva - Reaipojohka" />
		<tag k="name:no" v="Repelva" />
		<tag k="name:se" v="Reaipojohka" />
		<tag k="old_name:se" v="Ræipujåkka" />
		<tag k="ssr:stedsnr" v="140641" />
		<tag k="waterway" v="stream" />
	</node>
	<node lat="69.71813333943962" lon="23.704099891215986" id="-42031">
		<tag k="name" v="Gaskajávri" />
		<tag k="name:se" v="Gaskajávri" />
		<tag k="natural" v="water" />
		<tag k="old_name:se" v="Gaskajavri" />
		<tag k="ssr:stedsnr" v="140643" />
	</node>
	<node lat="70.14749167208136" lon="23.527813794353133" id="-42033">
		<tag k="name" v="Havvojávrrit" />
		<tag k="name:se" v="Havvojávrrit" />
		<tag k="natural" v="water" />
		<tag k="old_name:se" v="Havvujavrit" />
		<tag k="ssr:stedsnr" v="140842" />
	</node>
	<node lat="70.01944722231065" lon="22.51546381869662" id="-42034">
		<tag k="name" v="Kjerringvannet - Áhkárjávrrit" />
		<tag k="name:no" v="Kjerringvannet" />
		<tag k="name:se" v="Áhkárjávrrit" />
		<tag k="natural" v="water" />
		<tag k="old_name:se" v="Akkarjavrit" />
		<tag k="ssr:stedsnr" v="140585" />
		<tag k="water" v="lake" />
	</node>
	<node lat="70.0425277817327" lon="23.906791539230564" id="-42038">
		<tag k="name" v="Geatkejávri" />
		<tag k="name:se" v="Geatkejávri" />
		<tag k="natural" v="water" />
		<tag k="old_name:se" v="Gætkejavri" />
		<tag k="ssr:stedsnr" v="140902" />
	</node>
	<node lat="70.32638055439497" lon="23.100297157045503" id="-42039">
		<tag k="name" v="Grytdalsvannet" />
		<tag k="natural" v="water" />
		<tag k="ssr:stedsnr" v="140904" />
	</node>
	<node lat="69.89706388970913" lon="23.12610547477469" id="-42042">
		<tag k="name" v="Storvannet" />
		<tag k="natural" v="water" />
		<tag k="ssr:stedsnr" v="145277" />
		<tag k="water" v="lake" />
	</node>
	<node lat="69.97081389068796" lon="23.095430469836135" id="-42068">
		<tag k="name" v="Flintevannet" />
		<tag k="natural" v="water" />
		<tag k="ssr:stedsnr" v="149460" />
		<tag k="water" v="lake" />
	</node>
	<node lat="69.83056944701283" lon="24.082427647440245" id="-42071">
		<tag k="name" v="Leaikkánjávri" />
		<tag k="name:se" v="Leaikkánjávri" />
		<tag k="natural" v="water" />
		<tag k="ssr:stedsnr" v="153376" />
	</node>
	<node lat="70.31468611654371" lon="23.49146101360627" id="-42082">
		<tag k="name" v="Monsjohka" />
		<tag k="name:se" v="Monsjohka" />
		<tag k="ssr:stedsnr" v="162620" />
		<tag k="waterway" v="river" />
	</node>
	<node lat="70.28431666608144" lon="23.537905454703196" id="-42088">
		<tag k="name" v="Čievra" />
		<tag k="name:se" v="Čievra" />
		<tag k="natural" v="beach" />
		<tag k="ssr:stedsnr" v="162918" />
	</node>
	<node lat="70.32095555734367" lon="22.791324948527436" id="-42089">
		<tag k="name" v="Vuolit Bollojávri" />
		<tag k="name:se" v="Vuolit Bollojávri" />
		<tag k="natural" v="water" />
		<tag k="ssr:stedsnr" v="162924" />
		<tag k="water" v="lake" />
	</node>
	<node lat="70.12728056012708" lon="23.83121376762379" id="-42092">
		<tag k="name" v="Tørrfjellvannene" />
		<tag k="natural" v="water" />
		<tag k="ssr:stedsnr" v="168072" />
		<tag k="water" v="lake" />
	</node>
	<node lat="70.02535278244193" lon="22.912924942008694" id="-42096">
		<tag k="name" v="Småvatna" />
		<tag k="natural" v="water" />
		<tag k="ssr:stedsnr" v="174355" />
		<tag k="water" v="lake" />
	</node>
	<node lat="69.74250556067041" lon="23.850316534017477" id="-42101">
		<tag k="name" v="Gjerdevannet - Oivošjávri" />
		<tag k="name:no" v="Gjerdevannet" />
		<tag k="name:se" v="Oivošjávri" />
		<tag k="natural" v="water" />
		<tag k="old_name:se" v="Åivušjavri" />
		<tag k="ssr:stedsnr" v="261651" />
		<tag k="water" v="lake" />
	</node>
	<node lat="69.72846666791837" lon="23.683260992861324" id="-42104">
		<tag k="name" v="Gaskajohka" />
		<tag k="name:se" v="Gaskajohka" />
		<tag k="old_name:se" v="Gaskajåkka" />
		<tag k="ssr:stedsnr" v="261644" />
		<tag k="waterway" v="stream" />
	</node>
	<node lat="69.75653889793466" lon="23.909735980484545" id="-42108">
		<tag k="fixme" v="multiple name tags, choose one and add the other to alt_name" />
		<tag k="name" v="Nedre Joatkavannet - Vuolit Joatkkajávri;Vuolit Dállojávri;Vuolitjávri" />
		<tag k="name:no" v="Nedre Joatkavannet" />
		<tag k="name:se" v="Vuolit Joatkkajávri;Vuolit Dállojávri;Vuolitjávri" />
		<tag k="natural" v="water" />
		<tag k="old_name:se" v="Vuolitjavri" />
		<tag k="ssr:stedsnr" v="261716" />
	</node>
	<node lat="69.71002499898995" lon="22.965930480868444" id="-42109">
		<tag k="name" v="Ristenjávrrit" />
		<tag k="name:se" v="Ristenjávrrit" />
		<tag k="natural" v="water" />
		<tag k="old_name:se" v="Ristenjavrit" />
		<tag k="ssr:stedsnr" v="261724" />
	</node>
	<node lat="69.70560278350251" lon="22.609061048381115" id="-42117">
		<tag k="name" v="Nagirčazajávri" />
		<tag k="name:se" v="Nagirčazajávri" />
		<tag k="natural" v="water" />
		<tag k="old_name:se" v="Nagirčaccajavri" />
		<tag k="ssr:stedsnr" v="261817" />
	</node>
	<node lat="70.2707916669709" lon="22.657608274195244" id="-42120">
		<tag k="name" v="Lássejávri" />
		<tag k="name:se" v="Lássejávri" />
		<tag k="natural" v="water" />
		<tag k="old_name:se" v="Lassejavri" />
		<tag k="ssr:stedsnr" v="262090" />
	</node>
	<node lat="69.91724445090301" lon="23.10859714114007" id="-42123">
		<tag k="name" v="Kvenvikvannet - Čuvošjávri" />
		<tag k="name:no" v="Kvenvikvannet" />
		<tag k="name:se" v="Čuvošjávri" />
		<tag k="natural" v="water" />
		<tag k="old_name:se" v="Čuvušjavri" />
		<tag k="ssr:stedsnr" v="262320" />
		<tag k="water" v="lake" />
	</node>
	<node lat="69.85020556197233" lon="23.1129554815185" id="-42126">
		<tag k="name" v="Gampvannet - Heasttajávri" />
		<tag k="name:no" v="Gampvannet" />
		<tag k="name:se" v="Heasttajávri" />
		<tag k="natural" v="water" />
		<tag k="old_name:se" v="Hæstajavri" />
		<tag k="ssr:stedsnr" v="262259" />
		<tag k="water" v="lake" />
	</node>
	<node lat="69.86201944643334" lon="23.225866574716303" id="-42128">
		<tag k="name" v="Peskavannet - Beaskejávri" />
		<tag k="name:no" v="Peskavannet" />
		<tag k="name:se" v="Beaskejávri" />
		<tag k="natural" v="water" />
		<tag k="old_name:se" v="Bæskejavri" />
		<tag k="ssr:stedsnr" v="262271" />
		<tag k="water" v="lake" />
	</node>
	<node lat="69.99750000787417" lon="23.581949897403256" id="-42129">
		<tag k="loc_name:se" v="Bovdnajohka" />
		<tag k="name" v="Tuveelva - Pounujoki" />
		<tag k="name:fkv" v="Pounujoki" />
		<tag k="name:no" v="Tuveelva" />
		<tag k="ssr:stedsnr" v="262277" />
		<tag k="waterway" v="river" />
	</node>
	<node lat="69.75773611591154" lon="22.922527706302724" id="-42130">
		<tag k="name" v="Áhkajohka" />
		<tag k="name:se" v="Áhkajohka" />
		<tag k="old_name:se" v="Akkarjåkka;Akkajåkka" />
		<tag k="ssr:stedsnr" v="262279" />
		<tag k="waterway" v="river" />
	</node>
	<node lat="69.76250834063654" lon="23.052044364319137" id="-42131">
		<tag k="name" v="Heavvojávri" />
		<tag k="name:se" v="Heavvojávri" />
		<tag k="natural" v="water" />
		<tag k="old_name:se" v="Hævvujavri" />
		<tag k="ssr:stedsnr" v="262281" />
	</node>
	<node lat="69.9020250028039" lon="23.284986022578494" id="-42135">
		<tag k="name" v="Jorra" />
		<tag k="natural" v="water" />
		<tag k="ssr:stedsnr" v="262371" />
		<tag k="water" v="lake" />
	</node>
	<node lat="69.89343889176047" lon="22.8520054947424" id="-42136">
		<tag k="name" v="Grasdalsvannet - Rássevákkejávri" />
		<tag k="name:no" v="Grasdalsvannet" />
		<tag k="name:se" v="Rássevákkejávri" />
		<tag k="natural" v="water" />
		<tag k="old_name:se" v="Rassevaggejavri" />
		<tag k="ssr:stedsnr" v="262376" />
	</node>
	<node lat="69.81825555652983" lon="22.49596660404592" id="-42142">
		<tag k="name" v="Riebanjávrráš" />
		<tag k="name:se" v="Riebanjávrráš" />
		<tag k="natural" v="water" />
		<tag k="old_name:se" v="Riebanjavraš" />
		<tag k="ssr:stedsnr" v="262459" />
	</node>
	<node lat="69.80845555694651" lon="22.774724939829735" id="-42143">
		<tag k="name" v="Šlubboskáiddejávri" />
		<tag k="name:se" v="Šlubboskáiddejávri" />
		<tag k="natural" v="water" />
		<tag k="old_name:se" v="Šlubbuskaidejavri" />
		<tag k="ssr:stedsnr" v="262460" />
	</node>
	<node lat="70.130358339271" lon="23.674974904846326" id="-42144">
		<tag k="name" v="Njárgajohka" />
		<tag k="name:se" v="Njárgajohka" />
		<tag k="old_name:se" v="Njargajåkka" />
		<tag k="ssr:stedsnr" v="262461" />
		<tag k="waterway" v="stream" />
	</node>
	<node lat="69.86587777610951" lon="22.797244373102888" id="-42145">
		<tag k="name" v="Tverrelvvannet - Buoidatjávri" />
		<tag k="name:no" v="Tverrelvvannet" />
		<tag k="name:se" v="Buoidatjávri" />
		<tag k="natural" v="water" />
		<tag k="old_name:se" v="Buoidatjavri" />
		<tag k="ssr:stedsnr" v="262477" />
	</node>
	<node lat="69.769480554219" lon="22.64915548275485" id="-42147">
		<tag k="name" v="Loahccavákkeluoppal" />
		<tag k="name:se" v="Loahccavákkeluoppal" />
		<tag k="natural" v="water" />
		<tag k="old_name:se" v="Loaccavaggeluobbal" />
		<tag k="ssr:stedsnr" v="262515" />
	</node>
	<node lat="69.87128611206143" lon="22.66883327568374" id="-42148">
		<tag k="name" v="Risslettvannet - Rissebađajávri" />
		<tag k="name:no" v="Risslettvannet" />
		<tag k="name:se" v="Rissebađajávri" />
		<tag k="natural" v="water" />
		<tag k="old_name:se" v="Rissebađajavri" />
		<tag k="ssr:stedsnr" v="262481" />
	</node>
	<node lat="70.24401666420975" lon="23.30923881686318" id="-42150">
		<tag k="alt_name" v="Dalvatnet" />
		<tag k="name" v="Dalavatnet" />
		<tag k="natural" v="water" />
		<tag k="ssr:stedsnr" v="262599" />
	</node>
	<node lat="70.10328333745134" lon="22.596724953133645" id="-42152">
		<tag k="name" v="Brenthaugvannet" />
		<tag k="natural" v="water" />
		<tag k="ssr:stedsnr" v="262557" />
	</node>
	<node lat="70.21235000251832" lon="23.36989990514884" id="-42154">
		<tag k="name" v="Lilleelva" />
		<tag k="ssr:stedsnr" v="262585" />
		<tag k="waterway" v="stream" />
	</node>
	<node lat="69.96440833534801" lon="23.454861006061396" id="-42155">
		<tag k="name" v="Skogvannet - Viessojávri - Outajärvi" />
		<tag k="name:fkv" v="Outajärvi" />
		<tag k="name:no" v="Skogvannet" />
		<tag k="name:se" v="Viessojávri" />
		<tag k="natural" v="water" />
		<tag k="ssr:stedsnr" v="262669" />
	</node>
	<node lat="70.18805000272906" lon="23.28388601675205" id="-42156">
		<tag k="name" v="Lielva" />
		<tag k="ssr:stedsnr" v="262672" />
		<tag k="waterway" v="stream" />
	</node>
	<node lat="69.96208610979862" lon="23.48118602029189" id="-42157">
		<tag k="name" v="Froskebekken - Martinjohka - Sammakko-oja" />
		<tag k="name:fkv" v="Sammakko-oja" />
		<tag k="name:no" v="Froskebekken" />
		<tag k="name:se" v="Martinjohka" />
		<tag k="ssr:stedsnr" v="262673" />
		<tag k="waterway" v="stream" />
	</node>
	<node lat="69.96207500174422" lon="23.61824433766042" id="-42158">
		<tag k="name" v="Nussuravannet - Nussirjávri" />
		<tag k="name:no" v="Nussuravannet" />
		<tag k="name:se" v="Nussirjávri" />
		<tag k="natural" v="water" />
		<tag k="ssr:stedsnr" v="262676" />
	</node>
	<node lat="70.04160000177065" lon="22.381580495546373" id="-42162">
		<tag k="name" v="Melkelva - Mielkejohka" />
		<tag k="name:no" v="Melkelva" />
		<tag k="name:se" v="Mielkejohka" />
		<tag k="old_name:se" v="Mielkejåkka" />
		<tag k="ssr:stedsnr" v="262625" />
		<tag k="waterway" v="stream" />
	</node>
	<node lat="69.8788972281379" lon="23.476347133689313" id="-42163">
		<tag k="name" v="Skogstuevannet - Gožžaláddu - Tupajärvi" />
		<tag k="name:fkv" v="Tupajärvi" />
		<tag k="name:no" v="Skogstuevannet" />
		<tag k="name:se" v="Gožžaláddu" />
		<tag k="natural" v="water" />
		<tag k="ssr:stedsnr" v="262627" />
		<tag k="water" v="lake" />
	</node>
	<node lat="69.8757277798158" lon="23.46012767639452" id="-42165">
		<tag k="name" v="Trollvannet - Trollijärvi" />
		<tag k="name:fkv" v="Trollijärvi" />
		<tag k="name:no" v="Trollvannet" />
		<tag k="natural" v="water" />
		<tag k="ssr:stedsnr" v="262629" />
	</node>
	<node lat="69.90669722669568" lon="23.481619336293534" id="-42167">
		<tag k="name" v="Damtjønna" />
		<tag k="natural" v="water" />
		<tag k="ssr:stedsnr" v="262639" />
	</node>
	<node lat="70.06436667293863" lon="23.244819368401558" id="-42172">
		<tag k="alt_name:no" v="Gamvatna, nedre" />
		<tag k="loc_name:se" v="Vuolit Gámmejávri" />
		<tag k="name" v="Nedre Gamvatna" />
		<tag k="name:no" v="Nedre Gamvatna" />
		<tag k="natural" v="water" />
		<tag k="ssr:stedsnr" v="262726" />
		<tag k="water" v="lake" />
	</node>
	<node lat="70.13546388682927" lon="23.2032304809551" id="-42176">
		<tag k="alt_name" v="Nessevatn" />
		<tag k="name" v="Nesservatnet" />
		<tag k="natural" v="water" />
		<tag k="ssr:stedsnr" v="262769" />
	</node>
	<node lat="70.12673888847046" lon="22.82126937022711" id="-42177">
		<tag k="name" v="Beazedieváidjávrrit" />
		<tag k="name:se" v="Beazedieváidjávrrit" />
		<tag k="natural" v="water" />
		<tag k="old_name:se" v="Bæzedievaidjavrit" />
		<tag k="ssr:stedsnr" v="262773" />
	</node>
	<node lat="70.12165277932135" lon="22.949152708855166" id="-42178">
		<tag k="name" v="Čohkájojohka" />
		<tag k="name:se" v="Čohkájojohka" />
		<tag k="old_name:se" v="Čåkkajujåkka" />
		<tag k="ssr:stedsnr" v="262777" />
		<tag k="waterway" v="stream" />
	</node>
	<node lat="70.24107500170996" lon="23.58995268571625" id="-42185">
		<tag k="name" v="Store Korsfjordbotnvannet - Fielvuonjávri" />
		<tag k="name:no" v="Store Korsfjordbotnvannet" />
		<tag k="name:se" v="Fielvuonjávri" />
		<tag k="natural" v="water" />
		<tag k="old_name:se" v="Fielvuonjavri" />
		<tag k="ssr:stedsnr" v="262887" />
		<tag k="water" v="lake" />
	</node>
	<node lat="70.03657499994686" lon="23.592172122554505" id="-42188">
		<tag k="name" v="Ånneelva - Ánnejohka - Annijoki" />
		<tag k="name:fkv" v="Annijoki" />
		<tag k="name:no" v="Ånneelva" />
		<tag k="name:se" v="Ánnejohka" />
		<tag k="ssr:stedsnr" v="262922" />
		<tag k="waterway" v="river" />
	</node>
	<node lat="70.30436111493935" lon="22.843169387028905" id="-42190">
		<tag k="name" v="Kvalfjorddalvatna - Bossovuonjávrrit" />
		<tag k="name:no" v="Kvalfjorddalvatna" />
		<tag k="name:se" v="Bossovuonjávrrit" />
		<tag k="natural" v="water" />
		<tag k="old_name:se" v="Båssuvuonjavrit" />
		<tag k="ssr:stedsnr" v="262933" />
		<tag k="water" v="lake" />
	</node>
	<node lat="69.67783611566294" lon="24.11303040420924" id="-42195">
		<tag k="name" v="Vahttánjárga" />
		<tag k="name:se" v="Vahttánjárga" />
		<tag k="natural" v="cape" />
		<tag k="old_name:se" v="Vattanjarga" />
		<tag k="ssr:stedsnr" v="200266" />
	</node>
	<node lat="69.68266389094715" lon="22.63993883689229" id="-42196">
		<tag k="name" v="Jalgesjávrrit" />
		<tag k="name:se" v="Jalgesjávrrit" />
		<tag k="natural" v="water" />
		<tag k="old_name:se" v="Jalgesjavrit" />
		<tag k="ssr:stedsnr" v="200845" />
		<tag k="water" v="lake" />
	</node>
	<node lat="70.17861389006158" lon="22.521172165299816" id="-42200">
		<tag k="name" v="Rohkalvuonjávri" />
		<tag k="name:se" v="Rohkalvuonjávri" />
		<tag k="natural" v="water" />
		<tag k="old_name:se" v="Råkkalvuonjavri" />
		<tag k="ssr:stedsnr" v="201370" />
		<tag k="water" v="lake" />
	</node>
	<node lat="70.13587499979265" lon="22.660424943474194" id="-42202">
		<tag k="name" v="Livllevákkejávri" />
		<tag k="name:se" v="Livllevákkejávri" />
		<tag k="natural" v="water" />
		<tag k="old_name:se" v="Livlevaggejavri" />
		<tag k="ssr:stedsnr" v="201401" />
		<tag k="water" v="lake" />
	</node>
	<node lat="70.09844999880487" lon="22.68089993110167" id="-42203">
		<tag k="name" v="Aspenesvannet" />
		<tag k="natural" v="water" />
		<tag k="ssr:stedsnr" v="201503" />
	</node>
	<node lat="70.08435277685837" lon="22.39559160419848" id="-42205">
		<tag k="alt_name:no" v="Elvedalelva" />
		<tag k="loc_name:se" v="Njuorjjojohka" />
		<tag k="name" v="Elvedalselva" />
		<tag k="name:no" v="Elvedalselva" />
		<tag k="ssr:stedsnr" v="201496" />
		<tag k="waterway" v="river" />
	</node>
	<node lat="69.85667777972286" lon="23.845874874349544" id="-42209">
		<tag k="name" v="Reinbukkelva - Golggotjohka" />
		<tag k="name:no" v="Reinbukkelva" />
		<tag k="name:se" v="Golggotjohka" />
		<tag k="old_name:se" v="Gålgutjåkka" />
		<tag k="ssr:stedsnr" v="201618" />
		<tag k="waterway" v="stream" />
	</node>
	<node lat="70.0269861176346" lon="22.935491593026207" id="-42212">
		<tag k="alt_name" v="Halseneset" />
		<tag k="name" v="Halsneset" />
		<tag k="natural" v="cape" />
		<tag k="ssr:stedsnr" v="201782" />
	</node>
	<node lat="70.16702778125838" lon="23.582333227481598" id="-42213">
		<tag k="name" v="Liksebiđđinjávri" />
		<tag k="name:se" v="Liksebiđđinjávri" />
		<tag k="natural" v="water" />
		<tag k="old_name:se" v="Liksebiđđinjavri" />
		<tag k="ssr:stedsnr" v="201800" />
		<tag k="water" v="lake" />
	</node>
	<node lat="70.12863611600719" lon="23.622613787691662" id="-42215">
		<tag k="alt_name:no" v="Stokkedalelva" />
		<tag k="name" v="Stokkdalselva - Stohkkejohka" />
		<tag k="name:no" v="Stokkdalselva" />
		<tag k="name:se" v="Stohkkejohka" />
		<tag k="old_name:se" v="Ståkkejåkka" />
		<tag k="ssr:stedsnr" v="201907" />
		<tag k="waterway" v="river" />
	</node>
	<node lat="69.78187222647752" lon="22.830080499834846" id="-42218">
		<tag k="name" v="Ovlinjávri" />
		<tag k="name:se" v="Ovlinjávri" />
		<tag k="natural" v="water" />
		<tag k="ssr:stedsnr" v="202305" />
	</node>
	<node lat="69.79815000460289" lon="22.9301916078177" id="-42219">
		<tag k="name" v="Bierajávri" />
		<tag k="name:se" v="Bierajávri" />
		<tag k="natural" v="water" />
		<tag k="old_name:se" v="Bierajavri" />
		<tag k="ssr:stedsnr" v="202308" />
	</node>
	<node lat="70.2764194456332" lon="22.61342494080788" id="-42223">
		<tag k="name" v="Lillebuktvannet - Váttesjávri" />
		<tag k="name:no" v="Lillebuktvannet" />
		<tag k="name:se" v="Váttesjávri" />
		<tag k="natural" v="water" />
		<tag k="old_name:se" v="Vaddesjavri" />
		<tag k="ssr:stedsnr" v="202100" />
	</node>
	<node lat="70.2658361131761" lon="22.823483283302632" id="-42225">
		<tag k="name" v="Ruollajávrrit" />
		<tag k="name:se" v="Ruollajávrrit" />
		<tag k="natural" v="water" />
		<tag k="old_name:se" v="Ruollajavrit" />
		<tag k="ssr:stedsnr" v="202941" />
		<tag k="water" v="lake" />
	</node>
	<node lat="70.11105833887716" lon="23.51334435256756" id="-42232">
		<tag k="name" v="Furubakkvannet" />
		<tag k="natural" v="water" />
		<tag k="ssr:stedsnr" v="268455" />
	</node>
	<node lat="70.02759166639538" lon="22.922161042315864" id="-42235">
		<tag k="name" v="Småvannsbekken" />
		<tag k="ssr:stedsnr" v="207184" />
		<tag k="waterway" v="stream" />
	</node>
	<node lat="70.00622778020305" lon="23.57428600430153" id="-42236">
		<tag k="name" v="Skáidi" />
		<tag k="name:se" v="Skáidi" />
		<tag k="natural" v="cape" />
		<tag k="ssr:stedsnr" v="207409" />
	</node>
	<node lat="70.12798888780752" lon="23.423244364248173" id="-42251">
		<tag k="name" v="Tverelven" />
		<tag k="ssr:stedsnr" v="208023" />
		<tag k="waterway" v="stream" />
	</node>
	<node lat="69.89870833287301" lon="23.39686378511668" id="-42260">
		<tag k="name" v="Øvre Kristenvannet" />
		<tag k="natural" v="water" />
		<tag k="ssr:stedsnr" v="208111" />
		<tag k="water" v="lake" />
	</node>
	<node lat="69.90726944546073" lon="23.10723879674538" id="-42268">
		<tag k="name" v="Storvannholmen" />
		<tag k="place" v="islet" />
		<tag k="ssr:stedsnr" v="208408" />
	</node>
	<node lat="70.12368055545333" lon="23.39000547702403" id="-42271">
		<tag k="name" v="Bukkenes" />
		<tag k="natural" v="cape" />
		<tag k="ssr:stedsnr" v="208485" />
	</node>
	<node lat="69.99503055857417" lon="23.67190544739088" id="-42278">
		<tag k="name" v="Sørelva" />
		<tag k="ssr:stedsnr" v="209475" />
		<tag k="waterway" v="river" />
	</node>
	<node lat="70.31914588073205" lon="23.46278014222541" id="-42281">
		<tag k="name" v="Sarasetelva - Sarvvissiidjohka" />
		<tag k="name:no" v="Sarasetelva" />
		<tag k="name:se" v="Sarvvissiidjohka" />
		<tag k="ssr:stedsnr" v="269184" />
		<tag k="waterway" v="stream" />
	</node>
	<node lat="69.9615499972988" lon="22.400413833925036" id="-42282">
		<tag k="loc_name:se" v="Luossajohka" />
		<tag k="name" v="Storveita" />
		<tag k="name:no" v="Storveita" />
		<tag k="ssr:stedsnr" v="210238" />
		<tag k="waterway" v="river" />
	</node>
	<node lat="69.85523333325213" lon="23.34703601904083" id="-42295">
		<tag k="name" v="Detsika" />
		<tag k="natural" v="water" />
		<tag k="ssr:stedsnr" v="269769" />
		<tag k="water" v="lake" />
	</node>
	<node lat="70.24783056130921" lon="23.46054990326546" id="-42297">
		<tag k="name" v="Mikkelbuktvannet" />
		<tag k="natural" v="water" />
		<tag k="ssr:stedsnr" v="269820" />
	</node>
	<node lat="69.77755555726525" lon="23.718269318773828" id="-42309">
		<tag k="name" v="Sunná Biergorsa" />
		<tag k="name:se" v="Sunná Biergorsa" />
		<tag k="natural" v="waterfall" />
		<tag k="ssr:stedsnr" v="223829" />
	</node>
	<node lat="70.10661111014586" lon="23.497080473567024" id="-42328">
		<tag k="name" v="Reinkisten" />
		<tag k="natural" v="waterfall" />
		<tag k="ssr:stedsnr" v="450455" />
	</node>
	<node lat="70.32746389432138" lon="22.85576660984189" id="-42334">
		<tag k="name" v="Øvre Vintersetvannet" />
		<tag k="natural" v="water" />
		<tag k="ssr:stedsnr" v="450848" />
	</node>
	<node lat="69.8449666665344" lon="23.414272136629414" id="-42336">
		<tag k="name" v="Kavala" />
		<tag k="name:fkv" v="Kavala" />
		<tag k="natural" v="water" />
		<tag k="ssr:stedsnr" v="451159" />
		<tag k="water" v="lake" />
	</node>
	<node lat="69.87113611219486" lon="22.909058260434918" id="-42341">
		<tag k="name" v="Skrapdalsvannet" />
		<tag k="natural" v="water" />
		<tag k="ssr:stedsnr" v="451204" />
	</node>
	<node lat="69.97043889182865" lon="22.288183274371917" id="-42354">
		<tag k="name" v="Vesterkråvannene" />
		<tag k="natural" v="water" />
		<tag k="ssr:stedsnr" v="453042" />
		<tag k="water" v="lake" />
	</node>
	<node lat="69.96226389103995" lon="22.631955494521982" id="-42355">
		<tag k="name" v="Gammevannet" />
		<tag k="natural" v="water" />
		<tag k="ssr:stedsnr" v="453239" />
		<tag k="water" v="lake" />
	</node>
	<node lat="70.21595833670531" lon="23.24158325062076" id="-42357">
		<tag k="name" v="Vidjerisbekken" />
		<tag k="ssr:stedsnr" v="453352" />
		<tag k="waterway" v="stream" />
	</node>
	<node lat="69.77261389286546" lon="23.553924891979893" id="-42360">
		<tag k="name" v="Bierdnajohka" />
		<tag k="name:se" v="Bierdnajohka" />
		<tag k="old_name:se" v="Biennajåkka" />
		<tag k="ssr:stedsnr" v="261695" />
		<tag k="waterway" v="stream" />
	</node>
	<node lat="70.31804722651239" lon="23.064299940286578" id="-42363">
		<tag k="name" v="Hestneselva" />
		<tag k="ssr:stedsnr" v="261894" />
		<tag k="waterway" v="river" />
	</node>
	<node lat="70.3876166686511" lon="22.942388816219694" id="-42370">
		<tag k="name" v="Kárrajávri" />
		<tag k="name:se" v="Kárrajávri" />
		<tag k="natural" v="water" />
		<tag k="old_name:se" v="Karrajavri" />
		<tag k="ssr:stedsnr" v="262022" />
		<tag k="water" v="lake" />
	</node>
	<node lat="69.89793333913718" lon="23.020963816296785" id="-42372">
		<tag k="alt_name:no" v="Mathiselva" />
		<tag k="name" v="Mattiselva - Gávvávžžejohka" />
		<tag k="name:no" v="Mattiselva" />
		<tag k="name:se" v="Gávvávžžejohka" />
		<tag k="old_name:se" v="Gavvavžejåkka" />
		<tag k="ssr:stedsnr" v="262300" />
		<tag k="waterway" v="river" />
	</node>
	<node lat="70.24606389542404" lon="23.528738805871257" id="-42376">
		<tag k="name" v="Storelva - Fielvuonjohka" />
		<tag k="name:no" v="Storelva" />
		<tag k="name:se" v="Fielvuonjohka" />
		<tag k="ssr:stedsnr" v="262455" />
		<tag k="waterway" v="river" />
	</node>
	<node lat="69.8984888907522" lon="23.25968325945187" id="-42377">
		<tag k="name" v="Eibyholmen" />
		<tag k="place" v="islet" />
		<tag k="ssr:stedsnr" v="262303" />
	</node>
	<node lat="70.09033889451511" lon="23.174844366554243" id="-42393">
		<tag k="name" v="Sikan" />
		<tag k="ssr:stedsnr" v="262745" />
		<tag k="waterway" v="stream" />
	</node>
	<node lat="70.05436667103487" lon="23.552119336142418" id="-42396">
		<tag k="name" v="Niibeluoppal" />
		<tag k="name:se" v="Niibeluoppal" />
		<tag k="natural" v="water" />
		<tag k="ssr:stedsnr" v="262909" />
	</node>
	<node lat="70.33434166693212" lon="23.07973048598191" id="-42408">
		<tag k="name" v="Dagsvollelva" />
		<tag k="ssr:stedsnr" v="458536" />
		<tag k="waterway" v="stream" />
	</node>
	<node lat="70.09817222233323" lon="23.326211026032173" id="-42422">
		<tag k="name" v="Aslakelva" />
		<tag k="ssr:stedsnr" v="269205" />
		<tag k="waterway" v="stream" />
	</node>
	<node lat="69.78290278052934" lon="22.53560827409943" id="-42426">
		<tag k="name" v="Stuevanntjørnene" />
		<tag k="natural" v="water" />
		<tag k="ssr:stedsnr" v="271245" />
		<tag k="water" v="lake" />
	</node>
	<node lat="69.75669167041501" lon="23.853088769086547" id="-42432">
		<tag k="name" v="Čoalbmi" />
		<tag k="name:se" v="Čoalbmi" />
		<tag k="place" v="locality" />
		<tag k="ssr:stedsnr" v="281891" />
	</node>
	<node lat="70.3760305567071" lon="23.35875824022869" id="-42434">
		<tag k="name" v="Boazovuonrámsojávri" />
		<tag k="name:se" v="Boazovuonrámsojávri" />
		<tag k="natural" v="water" />
		<tag k="ssr:stedsnr" v="283121" />
	</node>
	<node lat="69.78028333855015" lon="23.719972105920245" id="-42436">
		<tag k="name" v="Sunná Bierjohka" />
		<tag k="name:se" v="Sunná Bierjohka" />
		<tag k="ssr:stedsnr" v="283374" />
		<tag k="waterway" v="stream" />
	</node>
	<node lat="70.13905000496307" lon="23.584908240896958" id="-42438">
		<tag k="name" v="Vuolimus Fanasjávri" />
		<tag k="name:se" v="Vuolimus Fanasjávri" />
		<tag k="natural" v="water" />
		<tag k="ssr:stedsnr" v="284325" />
		<tag k="water" v="lake" />
	</node>
	<node lat="70.3479055598649" lon="23.36865269557734" id="-42439">
		<tag k="name" v="Alejohka" />
		<tag k="name:se" v="Alejohka" />
		<tag k="ssr:stedsnr" v="284330" />
		<tag k="waterway" v="stream" />
	</node>
	<node lat="70.06535278242698" lon="23.697227668739814" id="-42446">
		<tag k="name" v="Vuolimus Sarvvisjávri" />
		<tag k="name:se" v="Vuolimus Sarvvisjávri" />
		<tag k="natural" v="water" />
		<tag k="ssr:stedsnr" v="292137" />
		<tag k="water" v="lake" />
	</node>
	<node lat="69.87056111449402" lon="24.040222084830422" id="-42453">
		<tag k="name" v="Stuoroaivvijohka" />
		<tag k="name:se" v="Stuoroaivvijohka" />
		<tag k="ssr:stedsnr" v="465099" />
		<tag k="waterway" v="stream" />
	</node>
	<node lat="69.93249722552711" lon="23.0511138005926" id="-42462">
		<tag k="name" v="Sáhkkobánčievra" />
		<tag k="name:se" v="Sáhkkobánčievra" />
		<tag k="natural" v="beach" />
		<tag k="ssr:stedsnr" v="466029" />
	</node>
	<node lat="69.95520278035518" lon="23.552066573512956" id="-42467">
		<tag k="name" v="Boahráluoppal" />
		<tag k="name:se" v="Boahráluoppal" />
		<tag k="natural" v="water" />
		<tag k="ssr:stedsnr" v="466440" />
	</node>
	<node lat="69.80589999807762" lon="23.071344365560844" id="-42479">
		<tag k="name" v="Tverrvannan - Doaresjávrrit" />
		<tag k="name:no" v="Tverrvannan" />
		<tag k="name:se" v="Doaresjávrrit" />
		<tag k="natural" v="water" />
		<tag k="old_name:se" v="Dvaresjavrit" />
		<tag k="ssr:stedsnr" v="323307" />
	</node>
	<node lat="69.76207499877454" lon="22.763105484926115" id="-42483">
		<tag k="name" v="Åsvatna - Čorrojávri" />
		<tag k="name:no" v="Åsvatna" />
		<tag k="name:se" v="Čorrojávri" />
		<tag k="natural" v="water" />
		<tag k="old_name:se" v="Čårrujavri" />
		<tag k="ssr:stedsnr" v="323511" />
		<tag k="water" v="lake" />
	</node>
	<node lat="70.1792861167294" lon="23.438363800062827" id="-42484">
		<tag k="name" v="Slettfjellelva - Jalgesjohka" />
		<tag k="name:no" v="Slettfjellelva" />
		<tag k="name:se" v="Jalgesjohka" />
		<tag k="ssr:stedsnr" v="323819" />
		<tag k="waterway" v="stream" />
	</node>
	<node lat="70.21620833728575" lon="23.720249907163392" id="-42486">
		<tag k="name" v="Ráššajohka" />
		<tag k="name:se" v="Ráššajohka" />
		<tag k="old_name:se" v="Raššajåkka" />
		<tag k="ssr:stedsnr" v="323874" />
		<tag k="waterway" v="stream" />
	</node>
	<node lat="70.32077222200218" lon="23.61298880249526" id="-42487">
		<tag k="name" v="Lille Lerresfjordelva - Uhca Liinnavuonjohka" />
		<tag k="name:no" v="Lille Lerresfjordelva" />
		<tag k="name:se" v="Uhca Liinnavuonjohka" />
		<tag k="old_name:no" v="Lerresfjordelva, l" />
		<tag k="ssr:stedsnr" v="323786" />
		<tag k="waterway" v="river" />
	</node>
	<node lat="70.01016944812044" lon="22.898088808840377" id="-42492">
		<tag k="name" v="Grofthullet" />
		<tag k="natural" v="water" />
		<tag k="ssr:stedsnr" v="329013" />
		<tag k="water" v="lake" />
	</node>
	<node lat="70.0193222261749" lon="22.90198882092476" id="-42500">
		<tag k="name" v="Tredje Småvannet" />
		<tag k="natural" v="water" />
		<tag k="ssr:stedsnr" v="330008" />
	</node>
	<node lat="69.83110555819216" lon="23.498547125433674" id="-42504">
		<tag k="name" v="Kistaberget" />
		<tag k="natural" v="water" />
		<tag k="ssr:stedsnr" v="330164" />
		<tag k="water" v="lake" />
	</node>
	<node lat="69.84404722015395" lon="22.561658280446732" id="-42510">
		<tag k="name" v="Skredvannet" />
		<tag k="natural" v="water" />
		<tag k="ssr:stedsnr" v="331222" />
		<tag k="water" v="lake" />
	</node>
	<node lat="69.96916389231258" lon="23.10799993234108" id="-42524">
		<tag k="name" v="Muotki" />
		<tag k="name:se" v="Muotki" />
		<tag k="place" v="locality" />
		<tag k="ssr:stedsnr" v="344043" />
	</node>
	<node lat="70.26944166915644" lon="23.63439989699443" id="-42530">
		<tag k="name" v="Bajit Snártaljávri" />
		<tag k="name:se" v="Bajit Snártaljávri" />
		<tag k="natural" v="water" />
		<tag k="ssr:stedsnr" v="344959" />
		<tag k="water" v="lake" />
	</node>
	<node lat="69.92782778162942" lon="22.95866380580215" id="-42537">
		<tag k="name" v="Bierfalanjávri" />
		<tag k="name:se" v="Bierfalanjávri" />
		<tag k="natural" v="water" />
		<tag k="ssr:stedsnr" v="352107" />
		<tag k="water" v="lake" />
	</node>
	<node lat="70.0873277793726" lon="23.635627687417728" id="-42538">
		<tag k="name" v="Jasavuoljávri" />
		<tag k="name:se" v="Jasavuoljávri" />
		<tag k="natural" v="water" />
		<tag k="ssr:stedsnr" v="352152" />
		<tag k="water" v="lake" />
	</node>
	<node lat="69.74082500034781" lon="22.651502710358734" id="-42547">
		<tag k="name" v="Joalosjávri" />
		<tag k="name:se" v="Joalosjávri" />
		<tag k="natural" v="water" />
		<tag k="old_name:se" v="Joalusjavri" />
		<tag k="ssr:stedsnr" v="382903" />
	</node>
	<node lat="70.29994444150168" lon="22.816555500671296" id="-42549">
		<tag k="loc_name:se" v="Bossovuohjávri" />
		<tag k="name" v="Øvre Kvalfjordvannet" />
		<tag k="name:no" v="Øvre Kvalfjordvannet" />
		<tag k="natural" v="water" />
		<tag k="ssr:stedsnr" v="383111" />
	</node>
	<node lat="69.91898610977435" lon="22.92558881917263" id="-42551">
		<tag k="name" v="Ruollagobejávri" />
		<tag k="name:se" v="Ruollagobejávri" />
		<tag k="natural" v="water" />
		<tag k="old_name:se" v="Ruollagåbejavri" />
		<tag k="ssr:stedsnr" v="383350" />
	</node>
	<node lat="70.07586111519423" lon="22.299602732695682" id="-42556">
		<tag k="name" v="Øvre Møllevannet - Bajit Millojávri" />
		<tag k="name:no" v="Øvre Møllevannet" />
		<tag k="name:se" v="Bajit Millojávri" />
		<tag k="natural" v="water" />
		<tag k="old_name:se" v="Millujavri bajit" />
		<tag k="ssr:stedsnr" v="383549" />
		<tag k="water" v="lake" />
	</node>
	<node lat="69.78234444646229" lon="22.690627701279293" id="-42560">
		<tag k="name" v="Krokelva - Gávvajohka" />
		<tag k="name:no" v="Krokelva" />
		<tag k="name:se" v="Gávvajohka" />
		<tag k="old_name:se" v="Gavvajåkka" />
		<tag k="ssr:stedsnr" v="383459" />
		<tag k="waterway" v="river" />
	</node>
	<node lat="70.0201000034425" lon="22.400624940316078" id="-42564">
		<tag k="loc_name:se" v="Ruossajávri" />
		<tag k="name" v="Korselvvannet" />
		<tag k="name:no" v="Korselvvannet" />
		<tag k="natural" v="water" />
		<tag k="ssr:stedsnr" v="383611" />
	</node>
	<node lat="70.1383472264863" lon="23.36124991619175" id="-42567">
		<tag k="name" v="Vasslibekken - Duonnajohka" />
		<tag k="name:no" v="Vasslibekken" />
		<tag k="name:se" v="Duonnajohka" />
		<tag k="ssr:stedsnr" v="383648" />
		<tag k="waterway" v="stream" />
	</node>
	<node lat="70.04854445034294" lon="23.410197143512097" id="-42569">
		<tag k="loc_name:se" v="Gobbajávrrit" />
		<tag k="name" v="Gåppavatna" />
		<tag k="name:no" v="Gåppavatna" />
		<tag k="natural" v="water" />
		<tag k="ssr:stedsnr" v="383798" />
	</node>
	<node lat="70.12704722082836" lon="23.573474912362716" id="-42572">
		<tag k="name" v="Roggevákkejohka" />
		<tag k="name:se" v="Roggevákkejohka" />
		<tag k="old_name:se" v="Råggevaggejåkka" />
		<tag k="ssr:stedsnr" v="383916" />
		<tag k="waterway" v="stream" />
	</node>
	<node lat="70.05966111680155" lon="23.727836012979246" id="-42578">
		<tag k="name" v="Svartvannet - Čáhppesjávri" />
		<tag k="name:no" v="Svartvannet" />
		<tag k="name:se" v="Čáhppesjávri" />
		<tag k="natural" v="water" />
		<tag k="old_name:se" v="Čappesjavri" />
		<tag k="ssr:stedsnr" v="383899" />
	</node>
	<node lat="70.05025000159428" lon="23.588797133228226" id="-42579">
		<tag k="name" v="Nihkojavri - Nikkijärvi" />
		<tag k="name:fkv" v="Nikkijärvi" />
		<tag k="name:se" v="Nihkojavri" />
		<tag k="natural" v="water" />
		<tag k="old_name:se" v="Nikkujavri" />
		<tag k="ssr:stedsnr" v="383901" />
	</node>
	<node lat="70.26491944884583" lon="23.52793325622947" id="-42580">
		<tag k="name" v="Rogergatvannet" />
		<tag k="natural" v="water" />
		<tag k="ssr:stedsnr" v="384802" />
	</node>
	<node lat="70.28066111732628" lon="23.71127490620346" id="-42581">
		<tag k="name" v="Buktevannet - Roancejávri" />
		<tag k="name:no" v="Buktevannet" />
		<tag k="name:se" v="Roancejávri" />
		<tag k="natural" v="water" />
		<tag k="old_name:se" v="Roancejavri" />
		<tag k="ssr:stedsnr" v="384795" />
		<tag k="water" v="lake" />
	</node>
	<node lat="70.0393833405385" lon="23.563480461004463" id="-42600">
		<tag k="name" v="Nikkielva" />
		<tag k="ssr:stedsnr" v="390441" />
		<tag k="waterway" v="stream" />
	</node>
	<node lat="69.9992222271713" lon="22.28110272570115" id="-42610">
		<tag k="name" v="Storfjellvannet" />
		<tag k="natural" v="water" />
		<tag k="ssr:stedsnr" v="392283" />
		<tag k="water" v="lake" />
	</node>
	<node lat="70.32118889018243" lon="23.47979157987154" id="-42621">
		<tag k="name" v="Čuvčče" />
		<tag k="name:se" v="Čuvčče" />
		<tag k="natural" v="beach" />
		<tag k="ssr:stedsnr" v="405383" />
	</node>
	<node lat="70.05716389074132" lon="23.3269082377134" id="-42626">
		<tag k="alt_name:no" v="Sagvatna, andre" />
		<tag k="loc_name:se" v="Bajit Sahájávri" />
		<tag k="name" v="Andre Sagvatna - Borsejávrrit" />
		<tag k="name:no" v="Andre Sagvatna" />
		<tag k="name:se" v="Borsejávrrit" />
		<tag k="natural" v="water" />
		<tag k="old_name:se" v="Bårsejavrit" />
		<tag k="ssr:stedsnr" v="417314" />
	</node>
	<node lat="69.72794444479416" lon="23.895935987968706" id="-42631">
		<tag k="name" v="Kvislelva - Suorrejohka" />
		<tag k="name:no" v="Kvislelva" />
		<tag k="name:se" v="Suorrejohka" />
		<tag k="old_name:se" v="Suorrejåkka" />
		<tag k="ssr:stedsnr" v="443635" />
		<tag k="waterway" v="stream" />
	</node>
	<node lat="69.87239722437606" lon="22.92196103329856" id="-42639">
		<tag k="name" v="Luovosjávri" />
		<tag k="name:se" v="Luovosjávri" />
		<tag k="natural" v="water" />
		<tag k="old_name:se" v="Luovusjavri" />
		<tag k="ssr:stedsnr" v="444332" />
	</node>
	<node lat="69.94070000354517" lon="23.20887212981458" id="-42642">
		<tag k="name" v="Gakorivannet - Gáhkkorjávri" />
		<tag k="name:no" v="Gakorivannet" />
		<tag k="name:se" v="Gáhkkorjávri" />
		<tag k="natural" v="water" />
		<tag k="ssr:stedsnr" v="444402" />
		<tag k="water" v="lake" />
	</node>
	<node lat="70.07661111288604" lon="22.91881659987504" id="-42649">
		<tag k="name" v="Hovdeneselvvannet - Miessejávri" />
		<tag k="name:no" v="Hovdeneselvvannet" />
		<tag k="name:se" v="Miessejávri" />
		<tag k="natural" v="water" />
		<tag k="old_name:se" v="Miessejavri" />
		<tag k="ssr:stedsnr" v="444686" />
	</node>
	<node lat="70.06749444801923" lon="23.306572127086646" id="-42650">
		<tag k="name" v="Langvannet - Guhkesjávri" />
		<tag k="name:no" v="Langvannet" />
		<tag k="name:se" v="Guhkesjávri" />
		<tag k="natural" v="water" />
		<tag k="old_name:se" v="Gukkesjavri" />
		<tag k="ssr:stedsnr" v="444687" />
		<tag k="water" v="lake" />
	</node>
	<node lat="70.13956944979951" lon="23.445194345962435" id="-42653">
		<tag k="name" v="Gaudevarvannene - Guovdavákkejávri" />
		<tag k="name:no" v="Gaudevarvannene" />
		<tag k="name:se" v="Guovdavákkejávri" />
		<tag k="natural" v="water" />
		<tag k="ssr:stedsnr" v="444831" />
	</node>
	<node lat="70.11042778143114" lon="22.972449919839708" id="-42654">
		<tag k="name" v="Gjermundbyelva" />
		<tag k="ssr:stedsnr" v="444727" />
		<tag k="waterway" v="stream" />
	</node>
	<node lat="70.03232222213757" lon="23.90392766541438" id="-42657">
		<tag k="name" v="Biedjojávri" />
		<tag k="name:se" v="Biedjojávri" />
		<tag k="natural" v="water" />
		<tag k="old_name:se" v="Bieddjujavri" />
		<tag k="ssr:stedsnr" v="444905" />
	</node>
	<node lat="70.12137777880956" lon="23.816461011144394" id="-42659">
		<tag k="name" v="Ørevannet - Bealjáidjávri" />
		<tag k="name:no" v="Ørevannet" />
		<tag k="name:se" v="Bealjáidjávri" />
		<tag k="natural" v="water" />
		<tag k="ssr:stedsnr" v="444926" />
		<tag k="water" v="lake" />
	</node>
	<node lat="69.88690555847613" lon="22.974697145476014" id="-42666">
		<tag k="name" v="Grønlitjønna" />
		<tag k="natural" v="water" />
		<tag k="ssr:stedsnr" v="450206" />
	</node>
	<node lat="69.95058611750409" lon="23.32106380286362" id="-42678">
		<tag k="name" v="Andreaskjosen" />
		<tag k="natural" v="bay" />
		<tag k="ssr:stedsnr" v="450778" />
	</node>
	<node lat="69.89235277968794" lon="23.33041935339092" id="-42687">
		<tag k="name" v="Nedre Stengelsvannet" />
		<tag k="natural" v="water" />
		<tag k="ssr:stedsnr" v="451677" />
		<tag k="water" v="lake" />
	</node>
	<node lat="69.7525805555895" lon="23.803322097913426" id="-42690">
		<tag k="name" v="Luovččanjávri" />
		<tag k="name:se" v="Luovččanjávri" />
		<tag k="natural" v="water" />
		<tag k="ssr:stedsnr" v="463521" />
		<tag k="water" v="lake" />
	</node>
	<node lat="69.84881944416959" lon="23.376927675911517" id="-42694">
		<tag k="name" v="Coagan" />
		<tag k="name:se" v="Coagan" />
		<tag k="natural" v="shoal" />
		<tag k="place" v="locality" />
		<tag k="ssr:stedsnr" v="465992" />
	</node>
	<node lat="69.85841666801224" lon="22.804788809841092" id="-42704">
		<tag k="name" v="Tverrelva - Buoidatjohka" />
		<tag k="name:no" v="Tverrelva" />
		<tag k="name:se" v="Buoidatjohka" />
		<tag k="old_name:se" v="Buoidatjåkka" />
		<tag k="ssr:stedsnr" v="504466" />
		<tag k="waterway" v="stream" />
	</node>
	<node lat="69.7599472228965" lon="24.128672092466775" id="-42706">
		<tag k="name" v="Krokvannet - Roancejávri" />
		<tag k="name:no" v="Krokvannet" />
		<tag k="name:se" v="Roancejávri" />
		<tag k="natural" v="water" />
		<tag k="old_name:se" v="Roancejavri" />
		<tag k="ssr:stedsnr" v="504478" />
		<tag k="water" v="lake" />
	</node>
	<node lat="70.20872778271604" lon="23.402061021067702" id="-42714">
		<tag k="name" v="Tverrelva - Doaresjohka" />
		<tag k="name:no" v="Tverrelva" />
		<tag k="name:se" v="Doaresjohka" />
		<tag k="old_name:se" v="Doaresjåkka" />
		<tag k="ssr:stedsnr" v="504575" />
		<tag k="waterway" v="stream" />
	</node>
	<node lat="70.1428027833477" lon="23.79866933412755" id="-42715">
		<tag k="name" v="Laudunvannet - Levddonjávri" />
		<tag k="name:no" v="Laudunvannet" />
		<tag k="name:se" v="Levddonjávri" />
		<tag k="natural" v="water" />
		<tag k="ssr:stedsnr" v="504816" />
		<tag k="water" v="lake" />
	</node>
	<node lat="70.37329166428901" lon="22.7596916100166" id="-42721">
		<tag k="name" v="Storvannet" />
		<tag k="natural" v="water" />
		<tag k="ssr:stedsnr" v="505166" />
	</node>
	<node lat="69.81681388933538" lon="23.180433237383074" id="-42722">
		<tag k="name" v="Bálggesskáidi" />
		<tag k="name:se" v="Bálggesskáidi" />
		<tag k="natural" v="cape" />
		<tag k="ssr:stedsnr" v="505317" />
	</node>
	<node lat="69.83722499909786" lon="23.079108252936617" id="-42723">
		<tag k="name" v="Oksetjønna" />
		<tag k="natural" v="water" />
		<tag k="ssr:stedsnr" v="505265" />
	</node>
	<node lat="69.7761361108133" lon="22.78246938308652" id="-42726">
		<tag k="name" v="Čorroláddot" />
		<tag k="name:se" v="Čorroláddot" />
		<tag k="natural" v="water" />
		<tag k="old_name:se" v="Čårruladdut" />
		<tag k="ssr:stedsnr" v="505503" />
	</node>
	<node lat="70.15652222891785" lon="23.312699915497365" id="-42733">
		<tag k="name" v="Šleaŋgajohka" />
		<tag k="name:se" v="Šleaŋgajohka" />
		<tag k="old_name:se" v="Šlæŋgajåkka" />
		<tag k="ssr:stedsnr" v="505673" />
		<tag k="waterway" v="river" />
	</node>
	<node lat="70.18705555814248" lon="23.36397212449326" id="-42735">
		<tag k="name" v="Gårkielva - Goržžijohka" />
		<tag k="name:no" v="Gårkielva" />
		<tag k="name:se" v="Goržžijohka" />
		<tag k="old_name:se" v="Gåržijåkka" />
		<tag k="ssr:stedsnr" v="505676" />
		<tag k="waterway" v="stream" />
	</node>
	<node lat="70.06338055782113" lon="23.49987491085432" id="-42736">
		<tag k="name" v="Hansedalvatna - Vaakkijärvet" />
		<tag k="name:fkv" v="Vaakkijärvet" />
		<tag k="name:no" v="Hansedalvatna" />
		<tag k="natural" v="water" />
		<tag k="ssr:stedsnr" v="505867" />
		<tag k="water" v="lake" />
	</node>
	<node lat="70.3169250049993" lon="23.592286025048214" id="-42757">
		<tag k="name" v="Stáđđejohka" />
		<tag k="name:se" v="Stáđđejohka" />
		<tag k="ssr:stedsnr" v="512171" />
		<tag k="waterway" v="stream" />
	</node>
	<node lat="70.13475833283438" lon="23.20119157798048" id="-42759">
		<tag k="name" v="Lille Nessevannet" />
		<tag k="natural" v="water" />
		<tag k="ssr:stedsnr" v="512623" />
	</node>
	<node lat="69.96549444798882" lon="22.467388847369836" id="-42766">
		<tag k="name" v="Telegrafvannet" />
		<tag k="natural" v="water" />
		<tag k="ssr:stedsnr" v="513285" />
		<tag k="water" v="lake" />
	</node>
	<node lat="69.96562222328356" lon="22.45169995417294" id="-42767">
		<tag k="name" v="Tønderen" />
		<tag k="place" v="locality" />
		<tag k="ssr:stedsnr" v="513287" />
	</node>
	<node lat="69.93184167084644" lon="22.522494383555905" id="-42768">
		<tag k="name" v="Ulvedalsvannet" />
		<tag k="natural" v="water" />
		<tag k="ssr:stedsnr" v="513290" />
		<tag k="water" v="lake" />
	</node>
	<node lat="69.8981888895583" lon="24.032702651029606" id="-42770">
		<tag k="name" v="Gođđojávri" />
		<tag k="name:se" v="Gođđojávri" />
		<tag k="natural" v="water" />
		<tag k="ssr:stedsnr" v="518379" />
		<tag k="water" v="lake" />
	</node>
	<node lat="70.31835278290617" lon="23.500638796106777" id="-42778">
		<tag k="name" v="Gárnjá" />
		<tag k="name:se" v="Gárnjá" />
		<tag k="natural" v="beach" />
		<tag k="ssr:stedsnr" v="526602" />
	</node>
	<node lat="70.38066111045433" lon="23.316074912959753" id="-42782">
		<tag k="name" v="Várddajávri" />
		<tag k="name:se" v="Várddajávri" />
		<tag k="natural" v="water" />
		<tag k="old_name:se" v="Vardajavri" />
		<tag k="ssr:stedsnr" v="686019" />
		<tag k="water" v="lake" />
	</node>
	<node lat="69.89469166875094" lon="23.358302688984356" id="-42787">
		<tag k="name" v="Hestvannet" />
		<tag k="natural" v="water" />
		<tag k="ssr:stedsnr" v="686352" />
		<tag k="water" v="lake" />
	</node>
	<node lat="69.88607222861704" lon="23.38588045739503" id="-42788">
		<tag k="name" v="Hangorivannet" />
		<tag k="natural" v="water" />
		<tag k="ssr:stedsnr" v="686353" />
	</node>
	<node lat="69.89393611125327" lon="22.995558269161467" id="-42789">
		<tag k="name" v="Paulsenvannet" />
		<tag k="natural" v="water" />
		<tag k="ssr:stedsnr" v="686369" />
	</node>
	<node lat="69.9534305558484" lon="23.04791658729698" id="-42793">
		<tag k="name" v="Hansenvannet" />
		<tag k="natural" v="water" />
		<tag k="ssr:stedsnr" v="686379" />
	</node>
	<node lat="69.95781388958628" lon="23.027497140819346" id="-42794">
		<tag k="name" v="Møllneselva - Mánešjohka" />
		<tag k="name:no" v="Møllneselva" />
		<tag k="name:se" v="Mánešjohka" />
		<tag k="old_name:se" v="Manešjåkka" />
		<tag k="ssr:stedsnr" v="686383" />
		<tag k="waterway" v="river" />
	</node>
	<node lat="69.96646111165875" lon="23.022119371214988" id="-42796">
		<tag k="name" v="Møllnesvannet" />
		<tag k="natural" v="water" />
		<tag k="ssr:stedsnr" v="686394" />
	</node>
	<node lat="70.174774999309" lon="22.664455501558894" id="-42800">
		<tag k="name" v="Livllevákkegierratjávri" />
		<tag k="name:se" v="Livllevákkegierratjávri" />
		<tag k="natural" v="water" />
		<tag k="old_name:se" v="Livlevaggegierratjavri" />
		<tag k="ssr:stedsnr" v="686426" />
	</node>
	<node lat="70.0967861174079" lon="23.732924900392337" id="-42801">
		<tag k="name" v="Bajimus Borgajávri" />
		<tag k="name:se" v="Bajimus Borgajávri" />
		<tag k="natural" v="water" />
		<tag k="ssr:stedsnr" v="534176" />
		<tag k="water" v="lake" />
	</node>
	<node lat="70.0717166653987" lon="22.36578882708013" id="-42805">
		<tag k="name" v="Suborgelva" />
		<tag k="ssr:stedsnr" v="686521" />
		<tag k="waterway" v="stream" />
	</node>
	<node lat="70.0690361120417" lon="22.32828050734733" id="-42808">
		<tag k="name" v="Nedre Møllevannet - Vuolit Millojávri" />
		<tag k="name:no" v="Nedre Møllevannet" />
		<tag k="name:se" v="Vuolit Millojávri" />
		<tag k="natural" v="water" />
		<tag k="old_name:se" v="Millujavri vuolit" />
		<tag k="ssr:stedsnr" v="686531" />
		<tag k="water" v="lake" />
	</node>
	<node lat="70.04375833545085" lon="23.33204158156722" id="-42811">
		<tag k="alt_name" v="Raudbergbuktvatna" />
		<tag k="name" v="Rødbergbuktvannan" />
		<tag k="natural" v="water" />
		<tag k="ssr:stedsnr" v="686797" />
	</node>
	<node lat="69.74451944905705" lon="23.59106933130733" id="-42813">
		<tag k="name" v="Bierdnajohka" />
		<tag k="name:se" v="Bierdnajohka" />
		<tag k="old_name:se" v="Bierdnajåkka" />
		<tag k="ssr:stedsnr" v="686658" />
		<tag k="waterway" v="stream" />
	</node>
	<node lat="69.7408722267587" lon="23.701111012268704" id="-42814">
		<tag k="name" v="Steinfjellelva - Jassavárjohka" />
		<tag k="name:no" v="Steinfjellelva" />
		<tag k="name:se" v="Jassavárjohka" />
		<tag k="old_name:se" v="Jassavarjåkka" />
		<tag k="ssr:stedsnr" v="686660" />
		<tag k="waterway" v="stream" />
	</node>
	<node lat="69.97177500320254" lon="23.50834157682127" id="-42815">
		<tag k="name" v="Nussurabekken - Nussirjohka" />
		<tag k="name:no" v="Nussurabekken" />
		<tag k="name:se" v="Nussirjohka" />
		<tag k="ssr:stedsnr" v="686661" />
		<tag k="waterway" v="stream" />
	</node>
	<node lat="69.96899444549065" lon="23.906233205542023" id="-42816">
		<tag k="alt_name" v="Mákkešjávri" />
		<tag k="name" v="Topptjønna" />
		<tag k="natural" v="water" />
		<tag k="ssr:stedsnr" v="686667" />
	</node>
	<node lat="69.74917222296362" lon="23.953827644916174" id="-42817">
		<tag k="fixme" v="multiple name tags, choose one and add the other to alt_name" />
		<tag k="name" v="Øvrevannet;Øvre Joatkavannet - Bajit Joatkkajávri;Bajit Dállojávri;Bajitjávri" />
		<tag k="name:no" v="Øvrevannet;Øvre Joatkavannet" />
		<tag k="name:se" v="Bajit Joatkkajávri;Bajit Dállojávri;Bajitjávri" />
		<tag k="natural" v="water" />
		<tag k="old_name:se" v="Bajitjavri" />
		<tag k="ssr:stedsnr" v="686671" />
	</node>
	<node lat="70.03978889461405" lon="23.290224930959866" id="-42824">
		<tag k="name" v="Sagelva - Borsejohka" />
		<tag k="name:no" v="Sagelva" />
		<tag k="name:se" v="Borsejohka" />
		<tag k="old_name:se" v="Bårsejåkka" />
		<tag k="ssr:stedsnr" v="686764" />
		<tag k="waterway" v="stream" />
	</node>
	<node lat="70.09067222419289" lon="23.643086012687803" id="-42827">
		<tag k="name" v="Dávvetjohka" />
		<tag k="name:se" v="Dávvetjohka" />
		<tag k="old_name:se" v="Davvetjåkka" />
		<tag k="ssr:stedsnr" v="686864" />
		<tag k="waterway" v="stream" />
	</node>
	<node lat="69.71695555923014" lon="22.66935827437653" id="-42828">
		<tag k="name" v="Seakkajávri" />
		<tag k="name:se" v="Seakkajávri" />
		<tag k="natural" v="water" />
		<tag k="old_name:se" v="Sæggajavri" />
		<tag k="ssr:stedsnr" v="686881" />
	</node>
	<node lat="70.09847500082228" lon="23.71782767876377" id="-42834">
		<tag k="name" v="Biedjojávri" />
		<tag k="name:se" v="Biedjojávri" />
		<tag k="natural" v="water" />
		<tag k="old_name:se" v="Bieddjujavri" />
		<tag k="ssr:stedsnr" v="686928" />
	</node>
	<node lat="69.86205278124514" lon="23.32248603134833" id="-42842">
		<tag k="loc_name:fkv" v="Sorisniva" />
		<tag k="name" v="Tvestraumen" />
		<tag k="name:no" v="Tvestraumen" />
		<tag k="natural" v="waterfall" />
		<tag k="ssr:stedsnr" v="687271" />
	</node>
	<node lat="69.75678055452381" lon="22.68603881870934" id="-42846">
		<tag k="name" v="Isvannet - Joalosjávri" />
		<tag k="name:no" v="Isvannet" />
		<tag k="name:se" v="Joalosjávri" />
		<tag k="natural" v="water" />
		<tag k="old_name:se" v="Joalusjavri" />
		<tag k="ssr:stedsnr" v="687489" />
	</node>
	<node lat="70.31338333477059" lon="23.536813806589727" id="-42848">
		<tag k="name" v="Storvannet - Stáđđejávri" />
		<tag k="name:no" v="Storvannet" />
		<tag k="name:se" v="Stáđđejávri" />
		<tag k="natural" v="water" />
		<tag k="old_name:se" v="Stađđejavri" />
		<tag k="ssr:stedsnr" v="687527" />
		<tag k="water" v="lake" />
	</node>
	<node lat="69.86033333713797" lon="22.732830490714203" id="-42850">
		<tag k="loc_name:fkv" v="Onkajärvi" />
		<tag k="name" v="Fiskarvannet - Oaggojávri" />
		<tag k="name:no" v="Fiskarvannet" />
		<tag k="name:se" v="Oaggojávri" />
		<tag k="natural" v="water" />
		<tag k="old_name:se" v="Oaggujavri" />
		<tag k="ssr:stedsnr" v="687461" />
		<tag k="water" v="lake" />
	</node>
	<node lat="69.79593611539569" lon="22.791569379004827" id="-42851">
		<tag k="name" v="Joalosjohka" />
		<tag k="name:se" v="Joalosjohka" />
		<tag k="old_name:se" v="Joalusjåkka" />
		<tag k="ssr:stedsnr" v="687482" />
		<tag k="waterway" v="river" />
	</node>
	<node lat="70.27822778055929" lon="23.50211657801039" id="-42858">
		<tag k="name" v="Vigeluftelva - Viđgejohka" />
		<tag k="name:no" v="Vigeluftelva" />
		<tag k="name:se" v="Viđgejohka" />
		<tag k="old_name:se" v="Viđgejåkka" />
		<tag k="ssr:stedsnr" v="687804" />
		<tag k="waterway" v="stream" />
	</node>
	<node lat="70.18193889713844" lon="23.81398599999994" id="-42863">
		<tag k="name" v="Leavššejohka" />
		<tag k="name:se" v="Leavššejohka" />
		<tag k="old_name:se" v="Lævšejåkka" />
		<tag k="ssr:stedsnr" v="687829" />
		<tag k="waterway" v="river" />
	</node>
	<node lat="70.22951944538976" lon="23.522722133946324" id="-42867">
		<tag k="alt_name:no" v="Tennvatnet" />
		<tag k="name" v="Ternvatnet - Čearretjávri" />
		<tag k="name:no" v="Ternvatnet" />
		<tag k="name:se" v="Čearretjávri" />
		<tag k="natural" v="water" />
		<tag k="old_name:se" v="Čærretjavri" />
		<tag k="ssr:stedsnr" v="687857" />
		<tag k="water" v="lake" />
	</node>
	<node lat="70.01678889089061" lon="23.708358214620436" id="-42879">
		<tag k="name" v="Rássejohka" />
		<tag k="name:se" v="Rássejohka" />
		<tag k="old_name:se" v="Rassejåkka" />
		<tag k="ssr:stedsnr" v="687981" />
		<tag k="waterway" v="river" />
	</node>
	<node lat="69.76897777583936" lon="22.856777704849492" id="-42882">
		<tag k="name" v="Fielbmáluoppal" />
		<tag k="name:se" v="Fielbmáluoppal" />
		<tag k="natural" v="water" />
		<tag k="ssr:stedsnr" v="691843" />
	</node>
	<node lat="69.72967777881945" lon="24.019844310342073" id="-42884">
		<tag k="name" v="Krokvannet - Roancejávri" />
		<tag k="name:no" v="Krokvannet" />
		<tag k="name:se" v="Roancejávri" />
		<tag k="natural" v="water" />
		<tag k="old_name:se" v="Roancejavri" />
		<tag k="ssr:stedsnr" v="564517" />
		<tag k="water" v="lake" />
	</node>
	<node lat="70.35065833235022" lon="23.30919992396606" id="-42886">
		<tag k="name" v="Suovvajohka" />
		<tag k="name:se" v="Suovvajohka" />
		<tag k="old_name:se" v="Suovvajåkka" />
		<tag k="ssr:stedsnr" v="565002" />
		<tag k="waterway" v="stream" />
	</node>
	<node lat="70.36123610994618" lon="23.280388799792057" id="-42887">
		<tag k="name" v="Nihkkajávri" />
		<tag k="name:se" v="Nihkkajávri" />
		<tag k="natural" v="water" />
		<tag k="old_name:se" v="Nikkajavri" />
		<tag k="ssr:stedsnr" v="565003" />
	</node>
	<node lat="69.8704722283192" lon="23.34133601331302" id="-42894">
		<tag k="name" v="Buolamabekken" />
		<tag k="ssr:stedsnr" v="693378" />
		<tag k="waterway" v="stream" />
	</node>
	<node lat="69.90490833972586" lon="23.17229436266791" id="-42898">
		<tag k="name" v="Holmvannet - Suolojávri" />
		<tag k="name:no" v="Holmvannet" />
		<tag k="name:se" v="Suolojávri" />
		<tag k="natural" v="water" />
		<tag k="ssr:stedsnr" v="565312" />
	</node>
	<node lat="69.90419722686545" lon="23.122999914368187" id="-42899">
		<tag k="name" v="Storneset" />
		<tag k="natural" v="cape" />
		<tag k="ssr:stedsnr" v="565316" />
	</node>
	<node lat="70.01495000260351" lon="22.3726471688745" id="-42908">
		<tag k="loc_name:se" v="Ruossajohka" />
		<tag k="name" v="Korselva" />
		<tag k="name:no" v="Korselva" />
		<tag k="ssr:stedsnr" v="565607" />
		<tag k="waterway" v="stream" />
	</node>
	<node lat="70.10969722252432" lon="22.953966590234934" id="-42910">
		<tag k="name" v="Olavannet" />
		<tag k="natural" v="water" />
		<tag k="ssr:stedsnr" v="565732" />
	</node>
	<node lat="70.08590833452249" lon="22.875722152894774" id="-42915">
		<tag k="name" v="Buvrejávrrit" />
		<tag k="name:se" v="Buvrejávrrit" />
		<tag k="natural" v="water" />
		<tag k="old_name:se" v="Buvrejavrit" />
		<tag k="ssr:stedsnr" v="565700" />
	</node>
	<node lat="70.31308889563266" lon="23.506049910478772" id="-42916">
		<tag k="name" v="Stáđđejohka" />
		<tag k="name:se" v="Stáđđejohka" />
		<tag k="old_name:se" v="Stađejåkka" />
		<tag k="ssr:stedsnr" v="565809" />
		<tag k="waterway" v="stream" />
	</node>
	<node lat="70.04069444523415" lon="23.74749433899337" id="-42917">
		<tag k="name" v="Moskkujohka" />
		<tag k="name:se" v="Moskkujohka" />
		<tag k="old_name:se" v="Måskojåkka" />
		<tag k="ssr:stedsnr" v="565904" />
		<tag k="waterway" v="river" />
	</node>
	<node lat="70.29779166965561" lon="23.64631379006855" id="-42920">
		<tag k="name" v="Jiehtanasjávri" />
		<tag k="name:se" v="Jiehtanasjávri" />
		<tag k="natural" v="water" />
		<tag k="old_name:se" v="Jiettanasjavri" />
		<tag k="ssr:stedsnr" v="566816" />
	</node>
	<node lat="69.88735833716744" lon="23.015436045738724" id="-42932">
		<tag k="name" v="Storgrunnen" />
		<tag k="natural" v="shoal" />
		<tag k="place" v="locality" />
		<tag k="ssr:stedsnr" v="693255" />
	</node>
	<node lat="69.93631666521136" lon="23.333597133095267" id="-42933">
		<tag k="name" v="Larsbekken" />
		<tag k="ssr:stedsnr" v="693257" />
		<tag k="waterway" v="stream" />
	</node>
	<node lat="69.89816111237454" lon="23.565161018985062" id="-42936">
		<tag k="name" v="Styggfossen" />
		<tag k="natural" v="waterfall" />
		<tag k="ssr:stedsnr" v="693493" />
	</node>
	<node lat="70.01181667191199" lon="22.921369386732344" id="-42940">
		<tag k="name" v="Nordbotn" />
		<tag k="natural" v="bay" />
		<tag k="ssr:stedsnr" v="571011" />
	</node>
	<node lat="70.01046110985605" lon="23.031611029435247" id="-42941">
		<tag k="name" v="Storelva" />
		<tag k="ssr:stedsnr" v="571013" />
		<tag k="waterway" v="river" />
	</node>
	<node lat="69.95814166710473" lon="23.318666570973797" id="-42951">
		<tag k="name" v="Tippen" />
		<tag k="natural" v="water" />
		<tag k="ssr:stedsnr" v="693800" />
		<tag k="water" v="lake" />
	</node>
	<node lat="70.33123333009996" lon="22.851388833469464" id="-42962">
		<tag k="name" v="Nedre Vintersetvannet" />
		<tag k="natural" v="water" />
		<tag k="ssr:stedsnr" v="693854" />
	</node>
	<node lat="70.1260861191836" lon="23.61269433885646" id="-42963">
		<tag k="name" v="Svartediket" />
		<tag k="natural" v="water" />
		<tag k="ssr:stedsnr" v="572464" />
		<tag k="water" v="pond" />
	</node>
	<node lat="70.3023638920833" lon="23.071436034839778" id="-42967">
		<tag k="name" v="Lomvannet" />
		<tag k="natural" v="water" />
		<tag k="ssr:stedsnr" v="572546" />
	</node>
	<node lat="69.85791666701681" lon="23.332813808239113" id="-42979">
		<tag k="name" v="Mørkengamholmen" />
		<tag k="place" v="islet" />
		<tag k="ssr:stedsnr" v="694734" />
	</node>
	<node lat="70.22572500722727" lon="23.438594356652956" id="-42982">
		<tag k="name" v="Avvajavri øvre" />
		<tag k="natural" v="water" />
		<tag k="ssr:stedsnr" v="694829" />
	</node>
	<node lat="70.22681667002661" lon="23.496405472196642" id="-42984">
		<tag k="name" v="Lille Tennvannet" />
		<tag k="natural" v="water" />
		<tag k="ssr:stedsnr" v="694857" />
	</node>
	<node lat="69.98320555736954" lon="22.263102730293173" id="-42986">
		<tag k="loc_name:se" v="Ántejávri" />
		<tag k="name" v="Nyvannet" />
		<tag k="name:no" v="Nyvannet" />
		<tag k="natural" v="water" />
		<tag k="ssr:stedsnr" v="695256" />
		<tag k="water" v="lake" />
	</node>
	<node lat="69.803216672117" lon="23.960805438226647" id="-42994">
		<tag k="name" v="Biedjoluoppal" />
		<tag k="name:se" v="Biedjoluoppal" />
		<tag k="natural" v="water" />
		<tag k="ssr:stedsnr" v="587605" />
		<tag k="water" v="lake" />
	</node>
	<node lat="69.88454166848815" lon="23.690649890025558" id="-42998">
		<tag k="name" v="Reaipogorsa" />
		<tag k="name:se" v="Reaipogorsa" />
		<tag k="natural" v="waterfall" />
		<tag k="ssr:stedsnr" v="594557" />
	</node>
	<node lat="69.72519166704113" lon="23.213602686079376" id="-43003">
		<tag k="name" v="Gáržanskáidi" />
		<tag k="name:se" v="Gáržanskáidi" />
		<tag k="natural" v="cape" />
		<tag k="ssr:stedsnr" v="624803" />
	</node>
	<node lat="69.7258944459971" lon="23.150869363678794" id="-43004">
		<tag k="name" v="Gullvannet - Gáržanjávri" />
		<tag k="name:no" v="Gullvannet" />
		<tag k="name:se" v="Gáržanjávri" />
		<tag k="natural" v="water" />
		<tag k="ssr:stedsnr" v="624756" />
	</node>
	<node lat="69.98514166487836" lon="23.545566575616864" id="-43005">
		<tag k="name" v="Isbergvannet" />
		<tag k="natural" v="water" />
		<tag k="ssr:stedsnr" v="625285" />
	</node>
	<node lat="69.9937833367243" lon="23.631111020662058" id="-43006">
		<tag k="loc_name:se" v="Láhtetskáidi" />
		<tag k="name" v="Skáidi" />
		<tag k="name:se" v="Skáidi" />
		<tag k="natural" v="cape" />
		<tag k="old_name:se" v="Skaidi" />
		<tag k="ssr:stedsnr" v="625289" />
	</node>
	<node lat="69.95832222908462" lon="23.076324915426962" id="-43007">
		<tag k="name" v="Dullanvannet - Dullájávri" />
		<tag k="name:no" v="Dullanvannet" />
		<tag k="name:se" v="Dullájávri" />
		<tag k="natural" v="water" />
		<tag k="ssr:stedsnr" v="625381" />
	</node>
	<node lat="69.70910555831445" lon="24.171691523965986" id="-43009">
		<tag k="name" v="Holmsundet - Suolonuorri" />
		<tag k="name:no" v="Holmsundet" />
		<tag k="name:se" v="Suolonuorri" />
		<tag k="natural" v="strait" />
		<tag k="old_name:se" v="Suolunuorri" />
		<tag k="ssr:stedsnr" v="625503" />
	</node>
	<node lat="70.08089722791227" lon="22.580105491959408" id="-43010">
		<tag k="name" v="Langelva" />
		<tag k="ssr:stedsnr" v="625504" />
		<tag k="waterway" v="stream" />
	</node>
	<node lat="69.95578333554033" lon="23.47561380055238" id="-43015">
		<tag k="name" v="Frosketjønna - Beahkajávri - Sammakkojärvi" />
		<tag k="name:fkv" v="Sammakkojärvi" />
		<tag k="name:no" v="Frosketjønna" />
		<tag k="name:se" v="Beahkajávri" />
		<tag k="natural" v="water" />
		<tag k="ssr:stedsnr" v="625654" />
	</node>
	<node lat="69.96929722300179" lon="23.495113797738238" id="-43017">
		<tag k="name" v="Borrasbekken - Boahrájohka - Porhaanjoki" />
		<tag k="name:fkv" v="Porhaanjoki" />
		<tag k="name:no" v="Borrasbekken" />
		<tag k="name:se" v="Boahrájohka" />
		<tag k="ssr:stedsnr" v="625659" />
		<tag k="waterway" v="stream" />
	</node>
	<node lat="70.13083889034817" lon="23.8389971176328" id="-43022">
		<tag k="name" v="Bealjáidluoppal" />
		<tag k="name:se" v="Bealjáidluoppal" />
		<tag k="natural" v="water" />
		<tag k="ssr:stedsnr" v="625913" />
	</node>
	<node lat="69.7602472211081" lon="22.97318881909463" id="-43028">
		<tag k="name" v="Garraskáidi" />
		<tag k="name:se" v="Garraskáidi" />
		<tag k="natural" v="cape" />
		<tag k="ssr:stedsnr" v="626322" />
	</node>
	<node lat="70.055619446736" lon="22.92290270562681" id="-43033">
		<tag k="alt_name" v="Paabakkvatnet" />
		<tag k="name" v="Pabakkvatnet" />
		<tag k="natural" v="water" />
		<tag k="ssr:stedsnr" v="626808" />
	</node>
	<node lat="70.0522305577398" lon="22.967144380084527" id="-43034">
		<tag k="name" v="Åsvannet" />
		<tag k="natural" v="water" />
		<tag k="ssr:stedsnr" v="626809" />
		<tag k="water" v="lake" />
	</node>
	<node lat="70.06422777984929" lon="23.59410267272345" id="-43035">
		<tag k="name" v="Juhánjávri" />
		<tag k="name:se" v="Juhánjávri" />
		<tag k="natural" v="water" />
		<tag k="old_name:se" v="Juhanjavri" />
		<tag k="ssr:stedsnr" v="626902" />
	</node>
	<node lat="70.02248889579933" lon="23.52055546272002" id="-43043">
		<tag k="name" v="Vasskogbekken" />
		<tag k="ssr:stedsnr" v="632031" />
		<tag k="waterway" v="stream" />
	</node>
	<node lat="69.898680555844" lon="23.27486659100507" id="-43060">
		<tag k="name" v="Georgplassen" />
		<tag k="natural" v="water" />
		<tag k="ssr:stedsnr" v="633692" />
		<tag k="water" v="lake" />
	</node>
	<node lat="69.85869167037303" lon="23.33348601002815" id="-43062">
		<tag k="name" v="Mørkengammen" />
		<tag k="natural" v="strait" />
		<tag k="ssr:stedsnr" v="633760" />
	</node>
	<node lat="69.90275278224802" lon="23.270224911007762" id="-43063">
		<tag k="name" v="Jøraholmen" />
		<tag k="place" v="islet" />
		<tag k="ssr:stedsnr" v="633787" />
	</node>
	<node lat="69.9559416709763" lon="22.428802723107665" id="-43067">
		<tag k="loc_name:se" v="Luossajávri" />
		<tag k="name" v="Storveitvannet" />
		<tag k="name:no" v="Storveitvannet" />
		<tag k="natural" v="water" />
		<tag k="ssr:stedsnr" v="634279" />
		<tag k="water" v="lake" />
	</node>
	<node lat="70.38489999969484" lon="23.40600546776897" id="-43075">
		<tag k="name" v="Leaibevuonrámsojávri" />
		<tag k="name:se" v="Leaibevuonrámsojávri" />
		<tag k="natural" v="water" />
		<tag k="ssr:stedsnr" v="646138" />
	</node>
	<node lat="69.81998917511203" lon="23.96616568741266" id="-43085">
		<tag k="alt_name:se" v="Fallejavri" />
		<tag k="name" v="Fállejávri" />
		<tag k="name:se" v="Fállejávri" />
		<tag k="natural" v="water" />
		<tag k="ssr:stedsnr" v="648839" />
		<tag k="water" v="lake" />
	</node>
	<node lat="69.80015278028411" lon="23.980719308141534" id="-43090">
		<tag k="name" v="Biedjojávrrit" />
		<tag k="name:se" v="Biedjojávrrit" />
		<tag k="natural" v="water" />
		<tag k="ssr:stedsnr" v="708233" />
		<tag k="water" v="lake" />
	</node>
	<node lat="70.0822055592654" lon="23.656060999400623" id="-43100">
		<tag k="name" v="Risten Bieraluoppal" />
		<tag k="name:se" v="Risten Bieraluoppal" />
		<tag k="natural" v="water" />
		<tag k="ssr:stedsnr" v="655182" />
		<tag k="water" v="lake" />
	</node>
	<node lat="69.88197222907164" lon="23.468627676920587" id="-43101">
		<tag k="name" v="Ordaláddu" />
		<tag k="name:se" v="Ordaláddu" />
		<tag k="natural" v="water" />
		<tag k="ssr:stedsnr" v="708440" />
		<tag k="water" v="pond" />
	</node>
	<node lat="69.83612777989553" lon="23.444547129279727" id="-43102">
		<tag k="name" v="Viidnáláddu" />
		<tag k="name:se" v="Viidnáláddu" />
		<tag k="natural" v="water" />
		<tag k="ssr:stedsnr" v="708455" />
		<tag k="water" v="pond" />
	</node>
	<node lat="69.87872500498938" lon="22.990555477052517" id="-43121">
		<tag k="name" v="Gávvávžžijohkanjárga" />
		<tag k="name:se" v="Gávvávžžijohkanjárga" />
		<tag k="natural" v="cape" />
		<tag k="ssr:stedsnr" v="890055" />
	</node>
	<node lat="70.32321389006398" lon="23.26536936179401" id="-43122">
		<tag k="name" v="Orrunvákkijohka" />
		<tag k="name:se" v="Orrunvákkijohka" />
		<tag k="ssr:stedsnr" v="890250" />
		<tag k="waterway" v="stream" />
	</node>
	<node lat="69.73070834206624" lon="23.833635986822287" id="-43128">
		<tag k="name" v="Johkaluoppal" />
		<tag k="name:se" v="Johkaluoppal" />
		<tag k="natural" v="water" />
		<tag k="ssr:stedsnr" v="891155" />
	</node>
	<node lat="70.29699166490123" lon="23.28959159473323" id="-43130">
		<tag k="name" v="Duhkku" />
		<tag k="name:se" v="Duhkku" />
		<tag k="natural" v="beach" />
		<tag k="ssr:stedsnr" v="891348" />
	</node>
	<node lat="69.75836944454474" lon="23.785916552598056" id="-43133">
		<tag k="name" v="Vuoskojávri" />
		<tag k="name:se" v="Vuoskojávri" />
		<tag k="natural" v="water" />
		<tag k="ssr:stedsnr" v="891855" />
		<tag k="water" v="lake" />
	</node>
	<node lat="69.72785833172867" lon="23.114533256889768" id="-43136">
		<tag k="name" v="Blærevannet - Fáhttejávri" />
		<tag k="name:no" v="Blærevannet" />
		<tag k="name:se" v="Fáhttejávri" />
		<tag k="natural" v="water" />
		<tag k="old_name:se" v="Fattejavri" />
		<tag k="ssr:stedsnr" v="685797" />
		<tag k="water" v="lake" />
	</node>
	<node lat="70.01745000207008" lon="23.07509437798163" id="-43147">
		<tag k="alt_name" v="Vintersetvatnet" />
		<tag k="name" v="Vintersetnesvatnet" />
		<tag k="natural" v="water" />
		<tag k="ssr:stedsnr" v="686741" />
	</node>
	<node lat="70.13292500674315" lon="23.54727491565202" id="-43148">
		<tag k="name" v="Čuonjájávri" />
		<tag k="name:se" v="Čuonjájávri" />
		<tag k="natural" v="water" />
		<tag k="old_name:se" v="Čuonjajavri" />
		<tag k="ssr:stedsnr" v="686896" />
	</node>
	<node lat="70.04018333329488" lon="23.388411024374626" id="-43152">
		<tag k="name" v="Lilleelva" />
		<tag k="ssr:stedsnr" v="686795" />
		<tag k="waterway" v="stream" />
	</node>
	<node lat="70.11700555985125" lon="23.88956933644819" id="-43153">
		<tag k="name" v="Návggastatluoppal" />
		<tag k="name:se" v="Návggastatluoppal" />
		<tag k="natural" v="water" />
		<tag k="ssr:stedsnr" v="686903" />
	</node>
	<node lat="69.82622777740707" lon="22.968402699544303" id="-43155">
		<tag k="name" v="Store Holmvannet - Stuora Suolojávri" />
		<tag k="name:no" v="Store Holmvannet" />
		<tag k="name:se" v="Stuora Suolojávri" />
		<tag k="natural" v="water" />
		<tag k="old_name:se" v="st Suolujavri" />
		<tag k="ssr:stedsnr" v="687245" />
	</node>
	<node lat="69.91046389045569" lon="23.446938805568315" id="-43157">
		<tag k="name" v="Skrabbtjønna" />
		<tag k="natural" v="water" />
		<tag k="ssr:stedsnr" v="687636" />
	</node>
	<node lat="70.19733611423679" lon="22.83871937926081" id="-43160">
		<tag k="name" v="Kobbevikelva" />
		<tag k="ssr:stedsnr" v="687696" />
		<tag k="waterway" v="stream" />
	</node>
	<node lat="70.06320555553008" lon="23.25716935167043" id="-43165">
		<tag k="alt_name:no" v="Gamvatna, øvre" />
		<tag k="loc_name:se" v="Bajit Gámmejávri" />
		<tag k="name" v="Øvre Gamvatna" />
		<tag k="name:no" v="Øvre Gamvatna" />
		<tag k="natural" v="water" />
		<tag k="ssr:stedsnr" v="687709" />
		<tag k="water" v="lake" />
	</node>
	<node lat="70.06811944489998" lon="23.75872488009815" id="-43170">
		<tag k="name" v="Njárgajávri" />
		<tag k="name:se" v="Njárgajávri" />
		<tag k="natural" v="water" />
		<tag k="old_name:se" v="Njargajavri" />
		<tag k="ssr:stedsnr" v="687885" />
	</node>
	<node lat="70.06561667063063" lon="23.567524912025572" id="-43172">
		<tag k="name" v="Gáimmesáiva" />
		<tag k="name:se" v="Gáimmesáiva" />
		<tag k="natural" v="water" />
		<tag k="old_name:se" v="Gaimesaiva" />
		<tag k="ssr:stedsnr" v="687892" />
	</node>
	<node lat="69.9527444430901" lon="23.460961020154553" id="-43178">
		<tag k="name" v="Stivannet" />
		<tag k="natural" v="water" />
		<tag k="ssr:stedsnr" v="693080" />
	</node>
	<node lat="69.89768055869347" lon="23.337922134314166" id="-43193">
		<tag k="name" v="Øvre Stengelsvannet" />
		<tag k="natural" v="water" />
		<tag k="ssr:stedsnr" v="694668" />
		<tag k="water" v="lake" />
	</node>
	<node lat="70.11355555591948" lon="23.492549904032494" id="-43204">
		<tag k="name" v="Kvanndalshølen" />
		<tag k="place" v="locality" />
		<tag k="ssr:stedsnr" v="896047" />
	</node>
	<node lat="69.90966111412372" lon="23.028708266749277" id="-43209">
		<tag k="name" v="Buollánláttigáddi" />
		<tag k="name:se" v="Buollánláttigáddi" />
		<tag k="natural" v="cape" />
		<tag k="ssr:stedsnr" v="708009" />
	</node>
	<node lat="70.07365278361101" lon="23.721591564177867" id="-43225">
		<tag k="name" v="Gaskkamus Sarvvisjávri" />
		<tag k="name:se" v="Gaskkamus Sarvvisjávri" />
		<tag k="natural" v="water" />
		<tag k="ssr:stedsnr" v="899153" />
		<tag k="water" v="lake" />
	</node>
	<node lat="70.28221944538245" lon="23.523638800421477" id="-43227">
		<tag k="name" v="Goaskingáddi" />
		<tag k="name:se" v="Goaskingáddi" />
		<tag k="natural" v="beach" />
		<tag k="ssr:stedsnr" v="723737" />
	</node>
	<node lat="69.69691110981312" lon="22.992105470900544" id="-43232">
		<tag k="name" v="Ristenjohka" />
		<tag k="name:se" v="Ristenjohka" />
		<tag k="old_name:se" v="Ristenjåkka" />
		<tag k="ssr:stedsnr" v="746716" />
		<tag k="waterway" v="stream" />
	</node>
	<node lat="69.71574444959946" lon="22.770402703084294" id="-43233">
		<tag k="name" v="Stillelvvannet - Fielbmájávri" />
		<tag k="name:no" v="Stillelvvannet" />
		<tag k="name:se" v="Fielbmájávri" />
		<tag k="natural" v="water" />
		<tag k="ssr:stedsnr" v="746804" />
	</node>
	<node lat="69.98088889481899" lon="23.614122115438526" id="-43237">
		<tag k="loc_name:se" v="Bovdnajohjávri" />
		<tag k="name" v="Tuvevannet - Pounujoenjärvi" />
		<tag k="name:fkv" v="Pounujoenjärvi" />
		<tag k="name:no" v="Tuvevannet" />
		<tag k="natural" v="water" />
		<tag k="ssr:stedsnr" v="747266" />
	</node>
	<node lat="70.11066389579047" lon="23.93026656220894" id="-43253">
		<tag k="name" v="Jasavuolesjávri" />
		<tag k="name:se" v="Jasavuolesjávri" />
		<tag k="natural" v="water" />
		<tag k="old_name:se" v="Jasavuolesjavri" />
		<tag k="ssr:stedsnr" v="747909" />
	</node>
	<node lat="70.12189722413181" lon="23.893324881122837" id="-43255">
		<tag k="name" v="Miennajávri" />
		<tag k="name:se" v="Miennajávri" />
		<tag k="natural" v="water" />
		<tag k="old_name:se" v="Miennajavri" />
		<tag k="ssr:stedsnr" v="747915" />
	</node>
	<node lat="70.26987222573347" lon="23.585902695820447" id="-43259">
		<tag k="name" v="Snárttaljávri" />
		<tag k="name:se" v="Snárttaljávri" />
		<tag k="natural" v="water" />
		<tag k="old_name:se" v="Snartaljavri" />
		<tag k="ssr:stedsnr" v="748817" />
		<tag k="water" v="lake" />
	</node>
	<node lat="69.9262472268137" lon="23.28923880704248" id="-43278">
		<tag k="name" v="Haraldstrømmen" />
		<tag k="ssr:stedsnr" v="754260" />
		<tag k="waterway" v="rapids" />
	</node>
	<node lat="69.93791111152085" lon="23.25350547810226" id="-43279">
		<tag k="name" v="Øra" />
		<tag k="place" v="islet" />
		<tag k="ssr:stedsnr" v="754265" />
	</node>
	<node lat="69.9983250038006" lon="22.332386056161724" id="-43288">
		<tag k="name" v="Tverrelva" />
		<tag k="ssr:stedsnr" v="754913" />
		<tag k="waterway" v="stream" />
	</node>
	<node lat="69.95113055996187" lon="23.570663789879415" id="-43302">
		<tag k="name" v="Boahrájávri" />
		<tag k="name:se" v="Boahrájávri" />
		<tag k="natural" v="water" />
		<tag k="ssr:stedsnr" v="769418" />
		<tag k="water" v="lake" />
	</node>
	<node lat="70.34410555889727" lon="23.478647137748762" id="-43309">
		<tag k="name" v="Nannegáddi" />
		<tag k="name:se" v="Nannegáddi" />
		<tag k="natural" v="beach" />
		<tag k="ssr:stedsnr" v="777981" />
	</node>
	<node lat="70.2627416658484" lon="22.94071659121174" id="-43317">
		<tag k="name" v="Vuolit Truollajávri" />
		<tag k="name:se" v="Vuolit Truollajávri" />
		<tag k="natural" v="water" />
		<tag k="ssr:stedsnr" v="788153" />
	</node>
	<node lat="69.9931833374783" lon="22.89641103904344" id="-43326">
		<tag k="name" v="Nonskarbekken - Cirgujohka" />
		<tag k="name:no" v="Nonskarbekken" />
		<tag k="name:se" v="Cirgujohka" />
		<tag k="old_name:se" v="Cirgojåkka" />
		<tag k="ssr:stedsnr" v="808452" />
		<tag k="waterway" v="stream" />
	</node>
	<node lat="70.06396944909514" lon="22.929913812334476" id="-43339">
		<tag k="alt_name" v="Sæterelva" />
		<tag k="name" v="Seterelva" />
		<tag k="ssr:stedsnr" v="808793" />
		<tag k="waterway" v="stream" />
	</node>
	<node lat="70.0244222286654" lon="22.935888808413434" id="-43340">
		<tag k="alt_name" v="Kaffeholmen" />
		<tag k="name" v="Kaffiholmen" />
		<tag k="place" v="islet" />
		<tag k="ssr:stedsnr" v="808798" />
	</node>
	<node lat="70.05047222445687" lon="23.66379433118973" id="-43341">
		<tag k="name" v="Máhtosskáidi" />
		<tag k="name:se" v="Máhtosskáidi" />
		<tag k="natural" v="cape" />
		<tag k="old_name:se" v="Mattusskaidi" />
		<tag k="ssr:stedsnr" v="808903" />
	</node>
	<node lat="70.0244000063317" lon="22.91333326203372" id="-43361">
		<tag k="name" v="Andre Småvannet" />
		<tag k="natural" v="water" />
		<tag k="ssr:stedsnr" v="815004" />
	</node>
	<node lat="69.97151944492772" lon="23.710294339927458" id="-43373">
		<tag k="name" v="Goikegorssajohka" />
		<tag k="name:se" v="Goikegorssajohka" />
		<tag k="ssr:stedsnr" v="830375" />
		<tag k="waterway" v="river" />
	</node>
	<node lat="69.94692222154242" lon="23.786144338703174" id="-43374">
		<tag k="name" v="Ávžžanluoppal" />
		<tag k="name:se" v="Ávžžanluoppal" />
		<tag k="natural" v="water" />
		<tag k="ssr:stedsnr" v="830385" />
	</node>
	<node lat="70.26878889144622" lon="22.93422492437146" id="-43379">
		<tag k="name" v="Bajit Truollajávri" />
		<tag k="name:se" v="Bajit Truollajávri" />
		<tag k="natural" v="water" />
		<tag k="ssr:stedsnr" v="849172" />
	</node>
	<node lat="69.73593888920999" lon="23.839749889937767" id="-43380">
		<tag k="name" v="Joatkkajároaivvuš" />
		<tag k="name:se" v="Joatkkajároaivvuš" />
		<tag k="natural" v="bay" />
		<tag k="ssr:stedsnr" v="855128" />
	</node>
	<node lat="69.71003888823131" lon="22.56678050579807" id="-43381">
		<tag k="name" v="Jussejunnejávri" />
		<tag k="name:se" v="Jussejunnejávri" />
		<tag k="natural" v="water" />
		<tag k="old_name:se" v="Jussejunnejavri" />
		<tag k="ssr:stedsnr" v="928837" />
	</node>
	<node lat="69.71134722469957" lon="22.58152215192943" id="-43382">
		<tag k="name" v="Geinnodatjávri" />
		<tag k="name:se" v="Geinnodatjávri" />
		<tag k="natural" v="water" />
		<tag k="old_name:se" v="Geinudatjavri" />
		<tag k="ssr:stedsnr" v="928838" />
	</node>
	<node lat="69.6821861167213" lon="24.0717720793702" id="-43383">
		<tag k="name" v="Vahttáfielbmá" />
		<tag k="name:se" v="Vahttáfielbmá" />
		<tag k="old_name:se" v="Vattafielbma" />
		<tag k="ssr:stedsnr" v="928467" />
		<tag k="waterway" v="river" />
	</node>
	<node lat="69.71056111706245" lon="24.125313739389675" id="-43384">
		<tag k="name" v="Gytebukta - Gođđoluokta" />
		<tag k="name:no" v="Gytebukta" />
		<tag k="name:se" v="Gođđoluokta" />
		<tag k="natural" v="bay" />
		<tag k="old_name:se" v="Gåđđuluokta" />
		<tag k="ssr:stedsnr" v="928471" />
	</node>
	<node lat="69.65055556225467" lon="22.775044374234135" id="-43386">
		<tag k="name" v="Hoallojávri" />
		<tag k="name:se" v="Hoallojávri" />
		<tag k="natural" v="water" />
		<tag k="old_name:se" v="Hoallujavri" />
		<tag k="ssr:stedsnr" v="928863" />
	</node>
	<node lat="69.87336389254567" lon="23.102577705212358" id="-43394">
		<tag k="name" v="Antonseterbekken" />
		<tag k="ssr:stedsnr" v="929318" />
		<tag k="waterway" v="stream" />
	</node>
	<node lat="69.88439722506946" lon="23.313008257903125" id="-43396">
		<tag k="name" v="Stengelsbekken" />
		<tag k="ssr:stedsnr" v="929332" />
		<tag k="waterway" v="stream" />
	</node>
	<node lat="70.06653611636246" lon="22.598699942452264" id="-43412">
		<tag k="name" v="Ordoleakjohka" />
		<tag k="name:se" v="Ordoleakjohka" />
		<tag k="old_name:se" v="Årdulækjåkka" />
		<tag k="ssr:stedsnr" v="929598" />
		<tag k="waterway" v="stream" />
	</node>
	<node lat="69.94926944780381" lon="23.4570943483413" id="-43414">
		<tag k="name" v="Gropvannet" />
		<tag k="natural" v="water" />
		<tag k="ssr:stedsnr" v="929629" />
		<tag k="water" v="lake" />
	</node>
	<node lat="69.94985000496979" lon="23.575749908986847" id="-43415">
		<tag k="name" v="Borrasvannan - Porhaanjärvet" />
		<tag k="name:fkv" v="Porhaanjärvet" />
		<tag k="name:no" v="Borrasvannan" />
		<tag k="natural" v="water" />
		<tag k="ssr:stedsnr" v="929631" />
		<tag k="water" v="lake" />
	</node>
	<node lat="69.94707500329059" lon="23.977088765803224" id="-43417">
		<tag k="name" v="Ramlevannet - Ráhtalanjávri" />
		<tag k="name:no" v="Ramlevannet" />
		<tag k="name:se" v="Ráhtalanjávri" />
		<tag k="natural" v="water" />
		<tag k="old_name:se" v="Rattalanjavri" />
		<tag k="ssr:stedsnr" v="929634" />
		<tag k="water" v="lake" />
	</node>
	<node lat="69.73216944332216" lon="23.511430462977017" id="-43419">
		<tag k="name" v="Lille Trangdalselva - Ortnahasávžžejohka" />
		<tag k="name:no" v="Lille Trangdalselva" />
		<tag k="name:se" v="Ortnahasávžžejohka" />
		<tag k="old_name:se" v="Årdnahasavžejåkka" />
		<tag k="ssr:stedsnr" v="929639" />
		<tag k="waterway" v="stream" />
	</node>
	<node lat="69.74178611251122" lon="23.992441546370962" id="-43423">
		<tag k="name" v="Roanceluoppal" />
		<tag k="name:se" v="Roanceluoppal" />
		<tag k="natural" v="water" />
		<tag k="old_name:se" v="Roanceluobbal" />
		<tag k="ssr:stedsnr" v="929645" />
	</node>
	<node lat="70.19985555730554" lon="23.31451103656977" id="-43424">
		<tag k="name" v="Jamnetuvvannet" />
		<tag k="natural" v="water" />
		<tag k="ssr:stedsnr" v="929653" />
	</node>
	<node lat="69.94482778463087" lon="24.129658205739393" id="-43427">
		<tag k="name" v="Ruhkkojávri" />
		<tag k="name:se" v="Ruhkkojávri" />
		<tag k="natural" v="water" />
		<tag k="old_name:se" v="Rukkujavri" />
		<tag k="ssr:stedsnr" v="929733" />
		<tag k="water" v="lake" />
	</node>
	<node lat="69.76399444991705" lon="23.516252683899342" id="-43429">
		<tag k="name" v="Lille Trangdalsvannet - Ordnohašjávri" />
		<tag k="name:no" v="Lille Trangdalsvannet" />
		<tag k="name:se" v="Ordnohašjávri" />
		<tag k="natural" v="water" />
		<tag k="old_name:se" v="Årdnuhašjavri" />
		<tag k="ssr:stedsnr" v="929736" />
	</node>
	<node lat="70.13523611062811" lon="23.518786014756177" id="-43433">
		<tag k="name" v="Njárgajávri" />
		<tag k="name:se" v="Njárgajávri" />
		<tag k="natural" v="water" />
		<tag k="old_name:se" v="Njargajavri" />
		<tag k="ssr:stedsnr" v="929831" />
	</node>
	<node lat="70.13639167129068" lon="23.473130456850047" id="-43434">
		<tag k="name" v="Vuoiŋŋastanjávri" />
		<tag k="name:se" v="Vuoiŋŋastanjávri" />
		<tag k="natural" v="water" />
		<tag k="old_name:se" v="Vuoiŋastanjavri" />
		<tag k="ssr:stedsnr" v="929832" />
	</node>
	<node lat="70.12677500392087" lon="23.494269359077286" id="-43437">
		<tag k="name" v="Njárgajohka" />
		<tag k="name:se" v="Njárgajohka" />
		<tag k="old_name:se" v="Njargajåkka" />
		<tag k="ssr:stedsnr" v="929914" />
		<tag k="waterway" v="stream" />
	</node>
	<node lat="70.13189167121875" lon="23.77394712598738" id="-43438">
		<tag k="name" v="Heaikkabierjávrrit" />
		<tag k="name:se" v="Heaikkabierjávrrit" />
		<tag k="natural" v="water" />
		<tag k="old_name:se" v="Hæikabierjavrit" />
		<tag k="ssr:stedsnr" v="929918" />
	</node>
	<node lat="70.01852777707613" lon="23.570655453825808" id="-43440">
		<tag k="name" v="Ulveelva - Gumppejohka - Hukkajoki" />
		<tag k="name:fkv" v="Hukkajoki" />
		<tag k="name:no" v="Ulveelva" />
		<tag k="name:se" v="Gumppejohka" />
		<tag k="ssr:stedsnr" v="929976" />
		<tag k="waterway" v="river" />
	</node>
	<node lat="70.10474167185994" lon="23.672091577974108" id="-43443">
		<tag k="name" v="Rávdojávri" />
		<tag k="name:se" v="Rávdojávri" />
		<tag k="natural" v="water" />
		<tag k="old_name:se" v="Ravdujavri" />
		<tag k="ssr:stedsnr" v="929930" />
	</node>
	<node lat="70.11200278208995" lon="23.61832768352776" id="-43444">
		<tag k="name" v="Goahtemuorskáidi" />
		<tag k="name:se" v="Goahtemuorskáidi" />
		<tag k="natural" v="cape" />
		<tag k="old_name:se" v="Goatemuorskaidi" />
		<tag k="ssr:stedsnr" v="929934" />
	</node>
	<node lat="70.1132000005753" lon="23.480897128852387" id="-43445">
		<tag k="name" v="Kvanndalselva - Hánddaljohka" />
		<tag k="name:no" v="Kvanndalselva" />
		<tag k="name:se" v="Hánddaljohka" />
		<tag k="ssr:stedsnr" v="929936" />
		<tag k="waterway" v="stream" />
	</node>
	<node lat="69.99315278238356" lon="22.35749440619146" id="-43446">
		<tag k="name" v="Ørplasselva - Goddeváhjohka" />
		<tag k="name:no" v="Ørplasselva" />
		<tag k="name:se" v="Goddeváhjohka" />
		<tag k="ssr:stedsnr" v="930014" />
		<tag k="waterway" v="river" />
	</node>
	<node lat="69.91627500141725" lon="22.739658272591004" id="-43448">
		<tag k="name" v="Holmvannet" />
		<tag k="natural" v="water" />
		<tag k="ssr:stedsnr" v="930059" />
		<tag k="water" v="lake" />
	</node>
	<node lat="70.08875000603147" lon="22.32547494310723" id="-43449">
		<tag k="name" v="Nedalsvatna" />
		<tag k="natural" v="water" />
		<tag k="ssr:stedsnr" v="868524" />
		<tag k="water" v="lake" />
	</node>
	<node lat="69.69596111825962" lon="22.80480270385938" id="-43455">
		<tag k="name" v="Sandåsvannet - Stuora Čuorvunjávri" />
		<tag k="name:no" v="Sandåsvannet" />
		<tag k="name:se" v="Stuora Čuorvunjávri" />
		<tag k="natural" v="water" />
		<tag k="old_name:se" v="Čuorvonjavri, stuora;Čuorvunjávri" />
		<tag k="ssr:stedsnr" v="868815" />
		<tag k="water" v="lake" />
	</node>
	<node lat="69.7414861113594" lon="22.794761033942226" id="-43457">
		<tag k="name" v="Stillelva - Fielbmájohka" />
		<tag k="name:no" v="Stillelva" />
		<tag k="name:se" v="Fielbmájohka" />
		<tag k="ssr:stedsnr" v="868875" />
		<tag k="waterway" v="stream" />
	</node>
	<node lat="70.37972222320502" lon="23.19211104659825" id="-43460">
		<tag k="name" v="Nordre Steinvannet - Hammarjávri" />
		<tag k="name:no" v="Nordre Steinvannet" />
		<tag k="name:se" v="Hammarjávri" />
		<tag k="natural" v="water" />
		<tag k="ssr:stedsnr" v="869024" />
		<tag k="water" v="lake" />
	</node>
	<node lat="69.98415555899017" lon="23.902141548456196" id="-43461">
		<tag k="name" v="Sennavannet - Suoidneláddu" />
		<tag k="name:no" v="Sennavannet" />
		<tag k="name:se" v="Suoidneláddu" />
		<tag k="natural" v="water" />
		<tag k="ssr:stedsnr" v="869308" />
	</node>
	<node lat="70.20260278344338" lon="22.73983326757861" id="-43470">
		<tag k="name" v="Spárttavákkejávri" />
		<tag k="name:se" v="Spárttavákkejávri" />
		<tag k="natural" v="water" />
		<tag k="old_name:se" v="Spartavaggejavri;Spartavággejávri" />
		<tag k="ssr:stedsnr" v="869448" />
		<tag k="water" v="lake" />
	</node>
	<node lat="69.86901944285619" lon="23.434608245536396" id="-43475">
		<tag k="name" v="Gåstjønna" />
		<tag k="natural" v="water" />
		<tag k="ssr:stedsnr" v="869680" />
	</node>
	<node lat="70.10711666741311" lon="22.64115828478476" id="-43477">
		<tag k="alt_name:se" v="Gárdejávri" />
		<tag k="name" v="Gardivatna - Gárdejávrrit" />
		<tag k="name:no" v="Gardivatna" />
		<tag k="name:se" v="Gárdejávrrit" />
		<tag k="natural" v="water" />
		<tag k="old_name:se" v="Gardejavrit" />
		<tag k="ssr:stedsnr" v="869579" />
		<tag k="water" v="lake" />
	</node>
	<node lat="69.83487778070032" lon="23.373705460990415" id="-43482">
		<tag k="name" v="Holmvannsbekken - Suolojárjohka" />
		<tag k="name:no" v="Holmvannsbekken" />
		<tag k="name:se" v="Suolojárjohka" />
		<tag k="old_name:se" v="Suolujarjåkka" />
		<tag k="ssr:stedsnr" v="930264" />
		<tag k="waterway" v="stream" />
	</node>
	<node lat="69.83859166970592" lon="23.299280460835202" id="-43483">
		<tag k="name" v="Skilledalsbekken" />
		<tag k="ssr:stedsnr" v="930268" />
		<tag k="waterway" v="stream" />
	</node>
	<node lat="69.86463056125493" lon="22.87237494474429" id="-43486">
		<tag k="name" v="Skrapdalsvannet" />
		<tag k="natural" v="water" />
		<tag k="ssr:stedsnr" v="930287" />
	</node>
	<node lat="70.26762777785451" lon="23.422911028114715" id="-43487">
		<tag k="name" v="Synøvselva - Sunnájohka" />
		<tag k="name:no" v="Synøvselva" />
		<tag k="name:se" v="Sunnájohka" />
		<tag k="ssr:stedsnr" v="870813" />
		<tag k="waterway" v="stream" />
	</node>
</osm>
