<?xml version="1.0" encoding="UTF-8"?>
<osm version="0.6" generator="osmapis">
	<node lat="69.94833611456193" lon="22.983161040213552" id="-36212">
		<tag k="fixme" v="consider natural=peak for the most distinct mountains in the district" />
		<tag k="name" v="Storfjellet" />
		<tag k="natural" v="hill" />
		<tag k="place" v="locality" />
		<tag k="ssr:stedsnr" v="19414" />
	</node>
	<node lat="70.14768611077085" lon="22.57156660785751" id="-36213">
		<tag k="fixme" v="consider natural=peak for the most distinct mountains in the district" />
		<tag k="name" v="Jierarášša" />
		<tag k="name:se" v="Jierarášša" />
		<tag k="natural" v="hill" />
		<tag k="old_name:se" v="Jierarašá;Jierarašša" />
		<tag k="place" v="locality" />
		<tag k="ssr:stedsnr" v="19416" />
	</node>
	<node lat="69.88241111516834" lon="22.637358280707698" id="-36214">
		<tag k="fixme" v="consider natural=peak for the most distinct mountains in the district" />
		<tag k="name" v="Ristindane - Rissebađačohkat" />
		<tag k="name:no" v="Ristindane" />
		<tag k="name:se" v="Rissebađačohkat" />
		<tag k="natural" v="hill" />
		<tag k="old_name:se" v="Rissebađačåkkat" />
		<tag k="place" v="locality" />
		<tag k="ssr:stedsnr" v="19442" />
	</node>
	<node lat="70.1997638888008" lon="22.712802725248498" id="-36216">
		<tag k="name" v="Gaskkamus Spárttavággi" />
		<tag k="name:se" v="Gaskkamus Spárttavággi" />
		<tag k="natural" v="valley" />
		<tag k="old_name:se" v="Spartavaggi, gaskamus" />
		<tag k="place" v="locality" />
		<tag k="ssr:stedsnr" v="19396" />
	</node>
	<node lat="69.72954444494417" lon="23.625505445619847" id="-36219">
		<tag k="fixme" v="consider natural=peak for the most distinct mountains in the district" />
		<tag k="name" v="Store Bjørnhaugen - Stuora Bierdnoaivi" />
		<tag k="name:no" v="Store Bjørnhaugen" />
		<tag k="name:se" v="Stuora Bierdnoaivi" />
		<tag k="natural" v="hill" />
		<tag k="old_name:se" v="Bierdnoaivi, sturoa" />
		<tag k="place" v="locality" />
		<tag k="ssr:stedsnr" v="19643" />
	</node>
	<node lat="69.96955278420057" lon="23.481013789379304" id="-36220">
		<tag k="name" v="Nevllasgohpi - Neulakuoppa" />
		<tag k="name:fkv" v="Neulakuoppa" />
		<tag k="name:se" v="Nevllasgohpi" />
		<tag k="natural" v="valley" />
		<tag k="old_name:fkv" v="Neulagåppa" />
		<tag k="place" v="locality" />
		<tag k="ssr:stedsnr" v="19645" />
	</node>
	<node lat="70.23034444932746" lon="23.586352689727004" id="-36225">
		<tag k="fixme" v="consider natural=peak for the most distinct mountains in the district" />
		<tag k="name" v="Galbboaivi" />
		<tag k="name:se" v="Galbboaivi" />
		<tag k="natural" v="hill" />
		<tag k="old_name:se" v="Galboaivi" />
		<tag k="place" v="locality" />
		<tag k="ssr:stedsnr" v="19838" />
	</node>
	<node lat="69.75770834042598" lon="23.72419156281484" id="-36226">
		<tag k="name" v="Sautso - Čávžu" />
		<tag k="name:no" v="Sautso" />
		<tag k="name:se" v="Čávžu" />
		<tag k="natural" v="valley" />
		<tag k="place" v="locality" />
		<tag k="ssr:stedsnr" v="19740" />
	</node>
	<node lat="70.12877222247131" lon="23.53704989337134" id="-36229">
		<tag k="fixme" v="consider natural=peak for the most distinct mountains in the district" />
		<tag k="name" v="Elloalgi" />
		<tag k="name:se" v="Elloalgi" />
		<tag k="natural" v="hill" />
		<tag k="place" v="locality" />
		<tag k="ssr:stedsnr" v="19906" />
	</node>
	<node lat="70.12847500201113" lon="23.88376099583454" id="-36230">
		<tag k="fixme" v="consider natural=peak for the most distinct mountains in the district" />
		<tag k="name" v="Juovvarášša" />
		<tag k="name:se" v="Juovvarášša" />
		<tag k="natural" v="hill" />
		<tag k="old_name:se" v="Juovvarašša" />
		<tag k="place" v="locality" />
		<tag k="ssr:stedsnr" v="19908" />
	</node>
	<node lat="70.3341027811718" lon="23.57967489534676" id="-36233">
		<tag k="alt_name:no" v="Bukketind" />
		<tag k="fixme" v="consider natural=peak for the most distinct mountains in the district" />
		<tag k="name" v="Bukketinden - Bohkkáčohkka" />
		<tag k="name:no" v="Bukketinden" />
		<tag k="name:se" v="Bohkkáčohkka" />
		<tag k="natural" v="hill" />
		<tag k="place" v="locality" />
		<tag k="ssr:stedsnr" v="20799" />
	</node>
	<node lat="70.04371667168553" lon="22.937072143770337" id="-36237">
		<tag k="name" v="Kjerringhaugen" />
		<tag k="natural" v="hill" />
		<tag k="place" v="locality" />
		<tag k="ssr:stedsnr" v="25174" />
	</node>
	<node lat="70.02565556162958" lon="23.06742492918716" id="-36247">
		<tag k="name" v="Kråkvikdalen" />
		<tag k="natural" v="valley" />
		<tag k="place" v="locality" />
		<tag k="ssr:stedsnr" v="26386" />
	</node>
	<node lat="69.90287222364186" lon="23.293186021526633" id="-36250">
		<tag k="fixme" v="consider natural=peak for the most distinct mountains in the district" />
		<tag k="name" v="Jørahenget" />
		<tag k="natural" v="hill" />
		<tag k="place" v="locality" />
		<tag k="ssr:stedsnr" v="26721" />
	</node>
	<node lat="70.3463194485395" lon="23.351355471090404" id="-36258">
		<tag k="name" v="Gálbevággi" />
		<tag k="name:se" v="Gálbevággi" />
		<tag k="natural" v="valley" />
		<tag k="place" v="locality" />
		<tag k="ssr:stedsnr" v="41320" />
	</node>
	<node lat="69.96211389145766" lon="23.489422114894435" id="-36260">
		<tag k="name" v="Ivvára Biret-Ánne geassesadji" />
		<tag k="name:se" v="Ivvára Biret-Ánne geassesadji" />
		<tag k="natural" v="slope" />
		<tag k="place" v="locality" />
		<tag k="ssr:stedsnr" v="41413" />
	</node>
	<node lat="70.32193611805222" lon="23.623649895509416" id="-36261">
		<tag k="name" v="Baskkánjemmi" />
		<tag k="name:se" v="Baskkánjemmi" />
		<tag k="natural" v="valley" />
		<tag k="place" v="locality" />
		<tag k="ssr:stedsnr" v="41907" />
	</node>
	<node lat="70.32028333924777" lon="23.51938046087013" id="-36272">
		<tag k="fixme" v="consider natural=peak for the most distinct mountains in the district" />
		<tag k="name" v="Čohkka" />
		<tag k="name:se" v="Čohkka" />
		<tag k="natural" v="hill" />
		<tag k="place" v="locality" />
		<tag k="ssr:stedsnr" v="49981" />
	</node>
	<node lat="69.90391389133826" lon="23.912005433023857" id="-36275">
		<tag k="name" v="Stážžogorsagiera" />
		<tag k="name:se" v="Stážžogorsagiera" />
		<tag k="natural" v="slope" />
		<tag k="place" v="locality" />
		<tag k="ssr:stedsnr" v="241146" />
	</node>
	<node lat="70.42199166873922" lon="23.131008270006575" id="-36283">
		<tag k="name" v="Straumskaret - Riehppi" />
		<tag k="name:no" v="Straumskaret" />
		<tag k="name:se" v="Riehppi" />
		<tag k="natural" v="valley" />
		<tag k="old_name:se" v="Rieppi" />
		<tag k="place" v="locality" />
		<tag k="ssr:stedsnr" v="80043" />
	</node>
	<node lat="70.28005555815001" lon="22.569699940885496" id="-36284">
		<tag k="fixme" v="consider natural=peak for the most distinct mountains in the district" />
		<tag k="name" v="Unna Nápparaš" />
		<tag k="name:se" v="Unna Nápparaš" />
		<tag k="natural" v="hill" />
		<tag k="old_name:se" v="Nabbaraš, unna;Unna Nabbaraš" />
		<tag k="place" v="locality" />
		<tag k="ssr:stedsnr" v="80094" />
	</node>
	<node lat="69.8204972197599" lon="23.18189992563384" id="-36285">
		<tag k="name" v="Nassaodden" />
		<tag k="natural" v="slope" />
		<tag k="old_name" v="Naššaodden" />
		<tag k="place" v="locality" />
		<tag k="ssr:stedsnr" v="80310" />
	</node>
	<node lat="70.01667500552206" lon="22.500824952625223" id="-36288">
		<tag k="fixme" v="consider natural=peak for the most distinct mountains in the district" />
		<tag k="name" v="Áhkárnjunni" />
		<tag k="name:se" v="Áhkárnjunni" />
		<tag k="natural" v="hill" />
		<tag k="old_name:se" v="Akkarnjunni" />
		<tag k="place" v="locality" />
		<tag k="ssr:stedsnr" v="80603" />
	</node>
	<node lat="70.13746944662994" lon="23.39528048079168" id="-36290">
		<tag k="fixme" v="consider natural=peak for the most distinct mountains in the district" />
		<tag k="name" v="Dønnevar - Duonnavárri" />
		<tag k="name:no" v="Dønnevar" />
		<tag k="name:se" v="Duonnavárri" />
		<tag k="natural" v="hill" />
		<tag k="place" v="locality" />
		<tag k="ssr:stedsnr" v="80639" />
	</node>
	<node lat="70.23990555763723" lon="22.98766660702066" id="-36295">
		<tag k="name" v="Gálvi" />
		<tag k="name:se" v="Gálvi" />
		<tag k="natural" v="hill" />
		<tag k="old_name:se" v="Galvi" />
		<tag k="place" v="locality" />
		<tag k="ssr:stedsnr" v="80594" />
	</node>
	<node lat="69.83311666836002" lon="23.512758238797034" id="-36298">
		<tag k="name" v="Kistalia" />
		<tag k="natural" v="slope" />
		<tag k="place" v="locality" />
		<tag k="ssr:stedsnr" v="80738" />
	</node>
	<node lat="70.05060278184207" lon="23.711447106065066" id="-36302">
		<tag k="fixme" v="consider natural=peak for the most distinct mountains in the district" />
		<tag k="name" v="Sarvvesvárri - Sarvistunturi" />
		<tag k="name:fkv" v="Sarvistunturi" />
		<tag k="name:se" v="Sarvvesvárri" />
		<tag k="natural" v="hill" />
		<tag k="place" v="locality" />
		<tag k="ssr:stedsnr" v="80904" />
	</node>
	<node lat="70.15217778564222" lon="23.459977681205388" id="-36305">
		<tag k="name" v="Gállovárri" />
		<tag k="name:se" v="Gállovárri" />
		<tag k="natural" v="hill" />
		<tag k="old_name:se" v="Galluvarri" />
		<tag k="place" v="locality" />
		<tag k="ssr:stedsnr" v="80845" />
	</node>
	<node lat="70.22126111665337" lon="23.50030269897345" id="-36310">
		<tag k="alt_name:no" v="Tennvassfjellet;Tennvassfjell" />
		<tag k="fixme" v="consider natural=peak for the most distinct mountains in the district" />
		<tag k="name" v="Ternvassfjellet - Čearretrášša" />
		<tag k="name:no" v="Ternvassfjellet" />
		<tag k="name:se" v="Čearretrášša" />
		<tag k="natural" v="hill" />
		<tag k="old_name:se" v="Čærretrašša" />
		<tag k="place" v="locality" />
		<tag k="ssr:stedsnr" v="85826" />
	</node>
	<node lat="69.89064722258587" lon="23.583483238859987" id="-36317">
		<tag k="name" v="Bjønnbakken" />
		<tag k="natural" v="slope" />
		<tag k="place" v="locality" />
		<tag k="ssr:stedsnr" v="86473" />
	</node>
	<node lat="70.39572222345745" lon="22.85382493975373" id="-36325">
		<tag k="name" v="Fláhttat" />
		<tag k="name:se" v="Fláhttat" />
		<tag k="place" v="locality" />
		<tag k="ssr:stedsnr" v="101777" />
	</node>
	<node lat="69.8727888921623" lon="23.893977665582973" id="-36326">
		<tag k="name" v="Fierbmečohkka" />
		<tag k="name:se" v="Fierbmečohkka" />
		<tag k="natural" v="hill" />
		<tag k="place" v="locality" />
		<tag k="ssr:stedsnr" v="102068" />
	</node>
	<node lat="69.73734722769433" lon="23.980591542033963" id="-36337">
		<tag k="fixme" v="multiple name tags, choose one and add the other to alt_name; consider natural=peak for the most distinct mountains in the district" />
		<tag k="name" v="Olafjellet - Ovllábuolža;Ovllávárri" />
		<tag k="name:no" v="Olafjellet" />
		<tag k="name:se" v="Ovllábuolža;Ovllávárri" />
		<tag k="natural" v="hill" />
		<tag k="old_name:se" v="Åvalavrri" />
		<tag k="place" v="locality" />
		<tag k="ssr:stedsnr" v="139644" />
	</node>
	<node lat="69.74080278180416" lon="23.088961042627286" id="-36338">
		<tag k="fixme" v="consider natural=peak for the most distinct mountains in the district" />
		<tag k="name" v="Fáhttoaivi" />
		<tag k="name:se" v="Fáhttoaivi" />
		<tag k="natural" v="hill" />
		<tag k="old_name:se" v="Fattoaivi" />
		<tag k="place" v="locality" />
		<tag k="ssr:stedsnr" v="139792" />
	</node>
	<node lat="69.98835000235165" lon="22.745480481233603" id="-36342">
		<tag k="alt_name:no" v="Bydalen, l" />
		<tag k="name" v="Lille Bydalen - Ladnegohpi" />
		<tag k="name:no" v="Lille Bydalen" />
		<tag k="name:se" v="Ladnegohpi" />
		<tag k="natural" v="valley" />
		<tag k="old_name:se" v="Ladnegåppi" />
		<tag k="place" v="locality" />
		<tag k="ssr:stedsnr" v="140040" />
	</node>
	<node lat="70.29295833437965" lon="22.76734438555616" id="-36343">
		<tag k="fixme" v="consider natural=peak for the most distinct mountains in the district" />
		<tag k="name" v="Rottenhallen - Gaskarášša" />
		<tag k="name:no" v="Rottenhallen" />
		<tag k="name:se" v="Gaskarášša" />
		<tag k="natural" v="hill" />
		<tag k="place" v="locality" />
		<tag k="ssr:stedsnr" v="140093" />
	</node>
	<node lat="70.23156388927089" lon="22.41541104953175" id="-36350">
		<tag k="fixme" v="multiple name tags, choose one and add the other to alt_name; consider natural=peak for the most distinct mountains in the district" />
		<tag k="name" v="Grasdalsfjell;Middagstinden - Rássevárri" />
		<tag k="name:no" v="Grasdalsfjell;Middagstinden" />
		<tag k="name:se" v="Rássevárri" />
		<tag k="natural" v="hill" />
		<tag k="old_name:se" v="Rassevarri" />
		<tag k="place" v="locality" />
		<tag k="ssr:stedsnr" v="140394" />
	</node>
	<node lat="69.76596667260736" lon="23.26088325188181" id="-36353">
		<tag k="name" v="Vakkertoppen" />
		<tag k="natural" v="hill" />
		<tag k="place" v="locality" />
		<tag k="ssr:stedsnr" v="140299" />
	</node>
	<node lat="70.24340555281677" lon="22.416038849208004" id="-36355">
		<tag k="name" v="Čiekŋalisvággi" />
		<tag k="name:se" v="Čiekŋalisvággi" />
		<tag k="natural" v="valley" />
		<tag k="old_name:se" v="Čiegŋalisvaggi" />
		<tag k="place" v="locality" />
		<tag k="ssr:stedsnr" v="140466" />
	</node>
	<node lat="70.0598333364499" lon="23.279249914095516" id="-36365">
		<tag k="fixme" v="consider natural=peak for the most distinct mountains in the district" />
		<tag k="name" v="Langfjellet" />
		<tag k="natural" v="hill" />
		<tag k="place" v="locality" />
		<tag k="ssr:stedsnr" v="140789" />
	</node>
	<node lat="70.33000833273668" lon="23.240986018825225" id="-36369">
		<tag k="fixme" v="consider natural=peak for the most distinct mountains in the district" />
		<tag k="name" v="Uvssotnjunni" />
		<tag k="name:se" v="Uvssotnjunni" />
		<tag k="natural" v="hill" />
		<tag k="old_name:se" v="Uvsutnjunni" />
		<tag k="place" v="locality" />
		<tag k="ssr:stedsnr" v="140883" />
	</node>
	<node lat="70.02924444276627" lon="22.913424932359398" id="-36373">
		<tag k="name" v="Blåbærhaugen" />
		<tag k="natural" v="hill" />
		<tag k="place" v="locality" />
		<tag k="ssr:stedsnr" v="146171" />
	</node>
	<node lat="70.31841111045973" lon="22.896802701547802" id="-36379">
		<tag k="name" v="Sisteberget" />
		<tag k="natural" v="hill" />
		<tag k="place" v="locality" />
		<tag k="ssr:stedsnr" v="146606" />
	</node>
	<node lat="69.91813611033744" lon="23.508872135501655" id="-36382">
		<tag k="name" v="Skomakerberget" />
		<tag k="natural" v="hill" />
		<tag k="place" v="locality" />
		<tag k="ssr:stedsnr" v="147126" />
	</node>
	<node lat="69.92100000106909" lon="23.456155450539306" id="-36383">
		<tag k="name" v="Isbergbakken" />
		<tag k="natural" v="slope" />
		<tag k="place" v="locality" />
		<tag k="ssr:stedsnr" v="147160" />
	</node>
	<node lat="69.87666004448693" lon="23.16440400620222" id="-36387">
		<tag k="name" v="Bjønnpiggmoen" />
		<tag k="place" v="locality" />
		<tag k="ssr:stedsnr" v="147411" />
	</node>
	<node lat="70.31107500259787" lon="22.935455482910225" id="-36390">
		<tag k="name" v="Storlia" />
		<tag k="natural" v="slope" />
		<tag k="place" v="locality" />
		<tag k="ssr:stedsnr" v="147525" />
	</node>
	<node lat="70.13996666764943" lon="23.277036015462688" id="-36394">
		<tag k="name" v="Jomfruberget" />
		<tag k="natural" v="hill" />
		<tag k="place" v="locality" />
		<tag k="ssr:stedsnr" v="147868" />
	</node>
	<node lat="70.24831389204725" lon="23.371736038259858" id="-36396">
		<tag k="name" v="Giilun" />
		<tag k="name:se" v="Giilun" />
		<tag k="natural" v="slope" />
		<tag k="place" v="locality" />
		<tag k="ssr:stedsnr" v="147962" />
	</node>
	<node lat="69.74711111816764" lon="23.79907210215887" id="-36398">
		<tag k="fixme" v="consider natural=peak for the most distinct mountains in the district" />
		<tag k="name" v="Torghatten" />
		<tag k="natural" v="hill" />
		<tag k="place" v="locality" />
		<tag k="ssr:stedsnr" v="149758" />
	</node>
	<node lat="70.14983055787661" lon="23.732272120259275" id="-36403">
		<tag k="name" v="Biggas - Bigáš" />
		<tag k="name:no" v="Biggas" />
		<tag k="name:se" v="Bigáš" />
		<tag k="natural" v="hill" />
		<tag k="place" v="locality" />
		<tag k="ssr:stedsnr" v="154959" />
	</node>
	<node lat="70.01584722005956" lon="23.045491595755397" id="-36407">
		<tag k="name" v="Vuorašnjáriidi" />
		<tag k="name:se" v="Vuorašnjáriidi" />
		<tag k="natural" v="slope" />
		<tag k="place" v="locality" />
		<tag k="ssr:stedsnr" v="162116" />
	</node>
	<node lat="70.32512222450391" lon="23.32588880878121" id="-36408">
		<tag k="name" v="Stuorajorran" />
		<tag k="name:se" v="Stuorajorran" />
		<tag k="natural" v="cliff" />
		<tag k="ssr:stedsnr" v="162325" />
	</node>
	<node lat="69.88929166923748" lon="23.03703602537756" id="-36409">
		<tag k="name" v="Ájagurra" />
		<tag k="name:se" v="Ájagurra" />
		<tag k="natural" v="valley" />
		<tag k="place" v="locality" />
		<tag k="ssr:stedsnr" v="162004" />
	</node>
	<node lat="70.2839555601143" lon="23.47749990443467" id="-36416">
		<tag k="name" v="Jieŋŋabávti" />
		<tag k="name:se" v="Jieŋŋabávti" />
		<tag k="natural" v="hill" />
		<tag k="place" v="locality" />
		<tag k="ssr:stedsnr" v="162917" />
	</node>
	<node lat="70.29684444479498" lon="23.55698047390766" id="-36426">
		<tag k="name" v="Buollándievvá" />
		<tag k="name:se" v="Buollándievvá" />
		<tag k="natural" v="hill" />
		<tag k="place" v="locality" />
		<tag k="ssr:stedsnr" v="177775" />
	</node>
	<node lat="69.7181638889428" lon="23.45920545074483" id="-36427">
		<tag k="fixme" v="consider natural=peak for the most distinct mountains in the district" />
		<tag k="name" v="Midtkjølen - Goavddesgielas" />
		<tag k="name:no" v="Midtkjølen" />
		<tag k="name:se" v="Goavddesgielas" />
		<tag k="natural" v="hill" />
		<tag k="old_name:se" v="Guovdesgielas;Guovddesgielas" />
		<tag k="place" v="locality" />
		<tag k="ssr:stedsnr" v="261646" />
	</node>
	<node lat="69.72966666641018" lon="23.593577682102715" id="-36428">
		<tag k="fixme" v="consider natural=peak for the most distinct mountains in the district" />
		<tag k="name" v="Davit Unna Bierdnoaivváš" />
		<tag k="name:se" v="Davit Unna Bierdnoaivváš" />
		<tag k="natural" v="hill" />
		<tag k="old_name:se" v="Bierdnoaivaš, davit" />
		<tag k="place" v="locality" />
		<tag k="ssr:stedsnr" v="261647" />
	</node>
	<node lat="69.73517500062067" lon="23.73690265022937" id="-36429">
		<tag k="fixme" v="consider natural=peak for the most distinct mountains in the district" />
		<tag k="name" v="Steinfjellet - Jassavárri" />
		<tag k="name:no" v="Steinfjellet" />
		<tag k="name:se" v="Jassavárri" />
		<tag k="natural" v="hill" />
		<tag k="old_name:se" v="Jassavarri" />
		<tag k="place" v="locality" />
		<tag k="ssr:stedsnr" v="261650" />
	</node>
	<node lat="69.74657500583054" lon="23.948152642250086" id="-36431">
		<tag k="fixme" v="consider natural=peak for the most distinct mountains in the district" />
		<tag k="name" v="Sydkjølen - Dálločorru" />
		<tag k="name:no" v="Sydkjølen" />
		<tag k="name:se" v="Dálločorru" />
		<tag k="natural" v="hill" />
		<tag k="old_name:se" v="Dallučårro" />
		<tag k="place" v="locality" />
		<tag k="ssr:stedsnr" v="261653" />
	</node>
	<node lat="69.71167500668035" lon="23.687297115575205" id="-36432">
		<tag k="fixme" v="consider natural=peak for the most distinct mountains in the district" />
		<tag k="name" v="Mørkfjellet - Čáhppesvárri" />
		<tag k="name:no" v="Mørkfjellet" />
		<tag k="name:se" v="Čáhppesvárri" />
		<tag k="natural" v="hill" />
		<tag k="old_name:se" v="Čappesvarri" />
		<tag k="place" v="locality" />
		<tag k="ssr:stedsnr" v="261637" />
	</node>
	<node lat="69.74437222989161" lon="23.326327684436418" id="-36434">
		<tag k="fixme" v="consider natural=peak for the most distinct mountains in the district" />
		<tag k="name" v="Vuolosvárbeaski" />
		<tag k="name:se" v="Vuolosvárbeaski" />
		<tag k="natural" v="hill" />
		<tag k="old_name:se" v="Vuolusvarbæski" />
		<tag k="place" v="locality" />
		<tag k="ssr:stedsnr" v="261779" />
	</node>
	<node lat="69.74809444443159" lon="23.39709434132978" id="-36435">
		<tag k="fixme" v="consider natural=peak for the most distinct mountains in the district" />
		<tag k="name" v="Orvvošvárri" />
		<tag k="name:se" v="Orvvošvárri" />
		<tag k="natural" v="hill" />
		<tag k="place" v="locality" />
		<tag k="ssr:stedsnr" v="261780" />
	</node>
	<node lat="69.71263889240662" lon="23.04004437757808" id="-36439">
		<tag k="name" v="Vuolit Rákkasmohkki" />
		<tag k="name:se" v="Vuolit Rákkasmohkki" />
		<tag k="natural" v="valley" />
		<tag k="old_name:se" v="Raggasmåkki, vuolit" />
		<tag k="place" v="locality" />
		<tag k="ssr:stedsnr" v="261727" />
	</node>
	<node lat="69.71648611426642" lon="22.61919437459813" id="-36440">
		<tag k="fixme" v="consider natural=peak for the most distinct mountains in the district" />
		<tag k="name" v="Elvekløftfjellet - Ávžešoaivi" />
		<tag k="name:no" v="Elvekløftfjellet" />
		<tag k="name:se" v="Ávžešoaivi" />
		<tag k="natural" v="hill" />
		<tag k="old_name:se" v="Avžešoaivi" />
		<tag k="place" v="locality" />
		<tag k="ssr:stedsnr" v="261859" />
	</node>
	<node lat="70.31753889085503" lon="22.829086040022958" id="-36441">
		<tag k="alt_name:no" v="Saufjell" />
		<tag k="fixme" v="consider natural=peak for the most distinct mountains in the district" />
		<tag k="name" v="Saufjellet - Sávzavárri" />
		<tag k="name:no" v="Saufjellet" />
		<tag k="name:se" v="Sávzavárri" />
		<tag k="natural" v="hill" />
		<tag k="place" v="locality" />
		<tag k="ssr:stedsnr" v="261864" />
	</node>
	<node lat="69.9710333354256" lon="22.36612773195184" id="-36447">
		<tag k="name" v="Bognelvdalen - Bávnnjávži" />
		<tag k="name:no" v="Bognelvdalen" />
		<tag k="name:se" v="Bávnnjávži" />
		<tag k="natural" v="valley" />
		<tag k="old_name:se" v="Bavnjavži;Bavnjjávži" />
		<tag k="place" v="locality" />
		<tag k="ssr:stedsnr" v="262033" />
	</node>
	<node lat="70.25981111082541" lon="22.72442216850242" id="-36448">
		<tag k="name" v="Simavikdalen - Bártnavuonvággi" />
		<tag k="name:no" v="Simavikdalen" />
		<tag k="name:se" v="Bártnavuonvággi" />
		<tag k="natural" v="valley" />
		<tag k="old_name:se" v="Bardnavuonvaggi" />
		<tag k="place" v="locality" />
		<tag k="ssr:stedsnr" v="262077" />
	</node>
	<node lat="69.78848333954251" lon="23.33848325288222" id="-36461">
		<tag k="fixme" v="consider natural=peak for the most distinct mountains in the district" />
		<tag k="name" v="Helletoppen - Rávttašbeaski" />
		<tag k="name:no" v="Helletoppen" />
		<tag k="name:se" v="Rávttašbeaski" />
		<tag k="natural" v="hill" />
		<tag k="old_name:se" v="Ravtašbæski" />
		<tag k="place" v="locality" />
		<tag k="ssr:stedsnr" v="262284" />
	</node>
	<node lat="69.77916111206642" lon="22.961947140551917" id="-36462">
		<tag k="fixme" v="consider natural=peak for the most distinct mountains in the district" />
		<tag k="name" v="Gironvárri" />
		<tag k="name:se" v="Gironvárri" />
		<tag k="natural" v="hill" />
		<tag k="old_name:se" v="Girunvarri" />
		<tag k="place" v="locality" />
		<tag k="ssr:stedsnr" v="262292" />
	</node>
	<node lat="69.89145278424076" lon="23.156708254937648" id="-36466">
		<tag k="fixme" v="consider natural=peak for the most distinct mountains in the district" />
		<tag k="name" v="Skoađđočohkka" />
		<tag k="name:se" v="Skoađđočohkka" />
		<tag k="natural" v="hill" />
		<tag k="old_name:se" v="Skoađđučåkka" />
		<tag k="place" v="locality" />
		<tag k="ssr:stedsnr" v="262378" />
	</node>
	<node lat="70.22280000589527" lon="22.584749935546128" id="-36469">
		<tag k="fixme" v="consider natural=peak for the most distinct mountains in the district" />
		<tag k="name" v="Njalli" />
		<tag k="name:se" v="Njalli" />
		<tag k="natural" v="hill" />
		<tag k="place" v="locality" />
		<tag k="ssr:stedsnr" v="262390" />
	</node>
	<node lat="69.85974166474517" lon="22.78904160025954" id="-36478">
		<tag k="alt_name" v="Sæterfjellet" />
		<tag k="fixme" v="consider natural=peak for the most distinct mountains in the district" />
		<tag k="name" v="Seterfjellet" />
		<tag k="natural" v="hill" />
		<tag k="place" v="locality" />
		<tag k="ssr:stedsnr" v="262491" />
	</node>
	<node lat="70.24740278362489" lon="23.34378602157418" id="-36480">
		<tag k="name" v="Korthaugen" />
		<tag k="natural" v="hill" />
		<tag k="place" v="locality" />
		<tag k="ssr:stedsnr" v="262600" />
	</node>
	<node lat="70.01474166769276" lon="22.728419371900337" id="-36488">
		<tag k="fixme" v="consider natural=peak for the most distinct mountains in the district" />
		<tag k="name" v="Čáhppesčohkat" />
		<tag k="name:se" v="Čáhppesčohkat" />
		<tag k="natural" v="hill" />
		<tag k="old_name:se" v="Čappesčåkkat" />
		<tag k="place" v="locality" />
		<tag k="ssr:stedsnr" v="262607" />
	</node>
	<node lat="70.10418889036781" lon="23.41166379495332" id="-36502">
		<tag k="name" v="Kvibyhaugen - Ráirroaivi" />
		<tag k="name:no" v="Kvibyhaugen" />
		<tag k="name:se" v="Ráirroaivi" />
		<tag k="natural" v="hill" />
		<tag k="old_name:se" v="Rairoaivi" />
		<tag k="place" v="locality" />
		<tag k="ssr:stedsnr" v="262730" />
	</node>
	<node lat="70.09427222814553" lon="23.27795548537862" id="-36503">
		<tag k="fixme" v="consider natural=peak for the most distinct mountains in the district" />
		<tag k="name" v="Laukvikfjellet" />
		<tag k="natural" v="hill" />
		<tag k="place" v="locality" />
		<tag k="ssr:stedsnr" v="262737" />
	</node>
	<node lat="70.00867222528029" lon="23.029258247247736" id="-36504">
		<tag k="name" v="Gaskavuopmi" />
		<tag k="name:se" v="Gaskavuopmi" />
		<tag k="natural" v="valley" />
		<tag k="old_name:se" v="Gaskavuobmi" />
		<tag k="place" v="locality" />
		<tag k="ssr:stedsnr" v="262816" />
	</node>
	<node lat="70.30704444596634" lon="23.641594336553535" id="-36512">
		<tag k="alt_name:no" v="Lerresfjorddalen, store" />
		<tag k="name" v="Store Lerresfjorddalen - Stuora Liidnávži" />
		<tag k="name:no" v="Store Lerresfjorddalen" />
		<tag k="name:se" v="Stuora Liidnávži" />
		<tag k="natural" v="valley" />
		<tag k="old_name:se" v="Liidnavži stuora" />
		<tag k="place" v="locality" />
		<tag k="ssr:stedsnr" v="262824" />
	</node>
	<node lat="70.1296638903909" lon="23.709691549252554" id="-36518">
		<tag k="fixme" v="consider natural=peak for the most distinct mountains in the district" />
		<tag k="name" v="Ruollavárri" />
		<tag k="name:se" v="Ruollavárri" />
		<tag k="natural" v="hill" />
		<tag k="old_name:se" v="Ruollavarri" />
		<tag k="place" v="locality" />
		<tag k="ssr:stedsnr" v="262932" />
	</node>
	<node lat="70.31171944725577" lon="22.78758048990198" id="-36521">
		<tag k="name" v="Bollovággi" />
		<tag k="name:se" v="Bollovággi" />
		<tag k="natural" v="valley" />
		<tag k="old_name:se" v="Bålluvaggi" />
		<tag k="place" v="locality" />
		<tag k="ssr:stedsnr" v="263141" />
	</node>
	<node lat="70.26349722381943" lon="23.440819352225866" id="-36522">
		<tag k="alt_name" v="Halvardhaugen" />
		<tag k="name" v="Halvorhaugen" />
		<tag k="natural" v="hill" />
		<tag k="place" v="locality" />
		<tag k="ssr:stedsnr" v="263821" />
	</node>
	<node lat="69.82985555847874" lon="23.446638795961125" id="-36535">
		<tag k="name" v="Vinahaugan" />
		<tag k="natural" v="hill" />
		<tag k="place" v="locality" />
		<tag k="ssr:stedsnr" v="201611" />
	</node>
	<node lat="69.83642500059493" lon="23.741360991306248" id="-36536">
		<tag k="fixme" v="multiple name tags, choose one and add the other to alt_name" />
		<tag k="name" v="Rundhaugan - Loavskovárri;Jorboaivi" />
		<tag k="name:no" v="Rundhaugan" />
		<tag k="name:se" v="Loavskovárri;Jorboaivi" />
		<tag k="natural" v="hill" />
		<tag k="old_name:se" v="Jårboaivi" />
		<tag k="place" v="locality" />
		<tag k="ssr:stedsnr" v="201612" />
	</node>
	<node lat="69.71334167176425" lon="23.733524895399817" id="-36537">
		<tag k="name" v="Vuollenjoaski" />
		<tag k="name:se" v="Vuollenjoaski" />
		<tag k="natural" v="valley" />
		<tag k="place" v="locality" />
		<tag k="ssr:stedsnr" v="201616" />
	</node>
	<node lat="69.86502777746772" lon="23.80242489436893" id="-36539">
		<tag k="fixme" v="consider natural=peak for the most distinct mountains in the district" />
		<tag k="name" v="Golggotvárit" />
		<tag k="name:se" v="Golggotvárit" />
		<tag k="natural" v="hill" />
		<tag k="old_name:se" v="Gålgutvarit" />
		<tag k="place" v="locality" />
		<tag k="ssr:stedsnr" v="201619" />
	</node>
	<node lat="70.32726111591471" lon="22.87084437620211" id="-36543">
		<tag k="fixme" v="multiple name tags, choose one and add the other to alt_name; consider natural=peak for the most distinct mountains in the district" />
		<tag k="name" v="Havnefjellet;Lifjellet - Sávzavárri" />
		<tag k="name:no" v="Havnefjellet;Lifjellet" />
		<tag k="name:se" v="Sávzavárri" />
		<tag k="natural" v="hill" />
		<tag k="old_name:se" v="Savzavarri" />
		<tag k="place" v="locality" />
		<tag k="ssr:stedsnr" v="201902" />
	</node>
	<node lat="69.93477778338868" lon="23.305613796208604" id="-36555">
		<tag k="name" v="Englandsskogen" />
		<tag k="place" v="locality" />
		<tag k="ssr:stedsnr" v="267949" />
	</node>
	<node lat="69.88548056012046" lon="23.56739155521194" id="-36562">
		<tag k="name" v="Midtlia" />
		<tag k="natural" v="slope" />
		<tag k="place" v="locality" />
		<tag k="ssr:stedsnr" v="268465" />
	</node>
	<node lat="70.2446361166703" lon="23.4829304671124" id="-36571">
		<tag k="name" v="Skoarru" />
		<tag k="name:se" v="Skoarru" />
		<tag k="natural" v="valley" />
		<tag k="place" v="locality" />
		<tag k="ssr:stedsnr" v="268803" />
	</node>
	<node lat="70.2433611181837" lon="23.500241576192252" id="-36573">
		<tag k="name" v="Notberget" />
		<tag k="natural" v="hill" />
		<tag k="place" v="locality" />
		<tag k="ssr:stedsnr" v="268810" />
	</node>
	<node lat="70.23889167104342" lon="23.518349923357377" id="-36575">
		<tag k="name" v="Svartberget" />
		<tag k="natural" v="hill" />
		<tag k="place" v="locality" />
		<tag k="ssr:stedsnr" v="268816" />
	</node>
	<node lat="70.23502500034418" lon="23.519244355152694" id="-36576">
		<tag k="name" v="Bjørnelia" />
		<tag k="natural" v="slope" />
		<tag k="place" v="locality" />
		<tag k="ssr:stedsnr" v="268817" />
	</node>
	<node lat="70.12867777805731" lon="23.38289712891186" id="-36578">
		<tag k="name" v="Mikalhaugen" />
		<tag k="natural" v="hill" />
		<tag k="place" v="locality" />
		<tag k="ssr:stedsnr" v="208021" />
	</node>
	<node lat="69.89080277950576" lon="23.447038781439286" id="-36590">
		<tag k="name" v="Kristendalen" />
		<tag k="natural" v="valley" />
		<tag k="place" v="locality" />
		<tag k="ssr:stedsnr" v="208113" />
	</node>
	<node lat="69.83547500571431" lon="23.40189157347465" id="-36591">
		<tag k="name" v="Henget" />
		<tag k="natural" v="cliff" />
		<tag k="ssr:stedsnr" v="208136" />
	</node>
	<node lat="69.8096888950964" lon="23.490924911170872" id="-36593">
		<tag k="name" v="Gargialia" />
		<tag k="natural" v="slope" />
		<tag k="place" v="locality" />
		<tag k="ssr:stedsnr" v="208140" />
	</node>
	<node lat="69.84222222488951" lon="23.14693602797709" id="-36596">
		<tag k="name" v="Brattberglia" />
		<tag k="natural" v="slope" />
		<tag k="place" v="locality" />
		<tag k="ssr:stedsnr" v="208406" />
	</node>
	<node lat="69.8492611155694" lon="23.141386022973517" id="-36598">
		<tag k="name" v="Gampvasslia" />
		<tag k="natural" v="slope" />
		<tag k="place" v="locality" />
		<tag k="ssr:stedsnr" v="208414" />
	</node>
	<node lat="70.31889722776691" lon="22.928219378099772" id="-36601">
		<tag k="fixme" v="consider natural=peak for the most distinct mountains in the district" />
		<tag k="name" v="Båtbuktfjellan" />
		<tag k="natural" v="hill" />
		<tag k="place" v="locality" />
		<tag k="ssr:stedsnr" v="208536" />
	</node>
	<node lat="70.23694166841493" lon="23.50348325159651" id="-36602">
		<tag k="name" v="Middagslia" />
		<tag k="natural" v="slope" />
		<tag k="place" v="locality" />
		<tag k="ssr:stedsnr" v="208825" />
	</node>
	<node lat="70.3418638888222" lon="22.776149926986342" id="-36603">
		<tag k="fixme" v="multiple name tags, choose one and add the other to alt_name" />
		<tag k="name" v="Jorbban;Váillasgohpijorbban" />
		<tag k="name:se" v="Jorbban;Váillasgohpijorbban" />
		<tag k="natural" v="hill" />
		<tag k="place" v="locality" />
		<tag k="ssr:stedsnr" v="208832" />
	</node>
	<node lat="69.91693333987004" lon="23.497108230348868" id="-36604">
		<tag k="name" v="Åkerbakken" />
		<tag k="natural" v="slope" />
		<tag k="place" v="locality" />
		<tag k="ssr:stedsnr" v="269116" />
	</node>
	<node lat="70.14824167333447" lon="23.24734714401959" id="-36608">
		<tag k="name" v="Store Kvanslåken" />
		<tag k="natural" v="valley" />
		<tag k="place" v="locality" />
		<tag k="ssr:stedsnr" v="209634" />
	</node>
	<node lat="70.13868333940857" lon="23.20743880876319" id="-36614">
		<tag k="name" v="Falkberget" />
		<tag k="natural" v="hill" />
		<tag k="place" v="locality" />
		<tag k="ssr:stedsnr" v="269630" />
	</node>
	<node lat="70.17583611718815" lon="23.28750269152272" id="-36622">
		<tag k="name" v="Olufberget" />
		<tag k="natural" v="hill" />
		<tag k="place" v="locality" />
		<tag k="ssr:stedsnr" v="269616" />
	</node>
	<node lat="70.29231110906134" lon="22.6798471727704" id="-36628">
		<tag k="fixme" v="consider natural=peak for the most distinct mountains in the district" />
		<tag k="name" v="Simavikfjell" />
		<tag k="natural" v="hill" />
		<tag k="place" v="locality" />
		<tag k="ssr:stedsnr" v="216111" />
	</node>
	<node lat="69.79177777915866" lon="23.693869330649665" id="-36631">
		<tag k="name" v="Látnjávárri" />
		<tag k="name:se" v="Látnjávárri" />
		<tag k="natural" v="hill" />
		<tag k="place" v="locality" />
		<tag k="ssr:stedsnr" v="222327" />
	</node>
	<node lat="69.85100556007072" lon="23.364647138168305" id="-36632">
		<tag k="name" v="Coaganduolbadas" />
		<tag k="name:se" v="Coaganduolbadas" />
		<tag k="place" v="locality" />
		<tag k="ssr:stedsnr" v="222994" />
	</node>
	<node lat="69.96729167339642" lon="23.126602692603537" id="-36634">
		<tag k="name" v="Ávskárnjárbohki" />
		<tag k="name:se" v="Ávskárnjárbohki" />
		<tag k="natural" v="slope" />
		<tag k="place" v="locality" />
		<tag k="ssr:stedsnr" v="223025" />
	</node>
	<node lat="69.94921944286479" lon="23.060519378125772" id="-36635">
		<tag k="name" v="Mánáidjohgohpigieddi" />
		<tag k="name:se" v="Mánáidjohgohpigieddi" />
		<tag k="place" v="locality" />
		<tag k="ssr:stedsnr" v="223027" />
	</node>
	<node lat="69.98186389036339" lon="22.439738845914558" id="-36639">
		<tag k="name" v="Talvikstua" />
		<tag k="natural" v="hill" />
		<tag k="place" v="locality" />
		<tag k="ssr:stedsnr" v="271291" />
	</node>
	<node lat="70.006822223315" lon="22.989272146777704" id="-36643">
		<tag k="fixme" v="consider natural=peak for the most distinct mountains in the district" />
		<tag k="name" v="Titind" />
		<tag k="natural" v="hill" />
		<tag k="place" v="locality" />
		<tag k="ssr:stedsnr" v="450013" />
	</node>
	<node lat="70.26590000223146" lon="22.7881804849007" id="-36645">
		<tag k="fixme" v="consider natural=peak for the most distinct mountains in the district" />
		<tag k="name" v="Nordmannsfjellet - Bártnavuonrášša" />
		<tag k="name:no" v="Nordmannsfjellet" />
		<tag k="name:se" v="Bártnavuonrášša" />
		<tag k="natural" v="hill" />
		<tag k="old_name:se" v="Bardnavuonrašša" />
		<tag k="place" v="locality" />
		<tag k="ssr:stedsnr" v="450071" />
	</node>
	<node lat="70.03791110904527" lon="22.951422156815415" id="-36646">
		<tag k="name" v="Klokkerhaugen" />
		<tag k="natural" v="hill" />
		<tag k="place" v="locality" />
		<tag k="ssr:stedsnr" v="450045" />
	</node>
	<node lat="69.94313055614671" lon="23.41133046876688" id="-36649">
		<tag k="name" v="Maaheinäkenttä" />
		<tag k="name:fkv" v="Maaheinäkenttä" />
		<tag k="place" v="locality" />
		<tag k="ssr:stedsnr" v="450059" />
	</node>
	<node lat="70.11559722685064" lon="23.455227694262707" id="-36655">
		<tag k="name" v="Loftbakken" />
		<tag k="natural" v="slope" />
		<tag k="place" v="locality" />
		<tag k="ssr:stedsnr" v="450494" />
	</node>
	<node lat="70.11684722595211" lon="23.506849911421888" id="-36656">
		<tag k="name" v="Brandthaugen" />
		<tag k="natural" v="hill" />
		<tag k="place" v="locality" />
		<tag k="ssr:stedsnr" v="450452" />
	</node>
	<node lat="69.91785278274682" lon="23.570544341403533" id="-36658">
		<tag k="name" v="Trånga" />
		<tag k="natural" v="gorge" />
		<tag k="ssr:stedsnr" v="450460" />
	</node>
	<node lat="70.31696667058026" lon="22.847124935845716" id="-36661">
		<tag k="name" v="Andersskårra" />
		<tag k="natural" v="valley" />
		<tag k="place" v="locality" />
		<tag k="ssr:stedsnr" v="450635" />
	</node>
	<node lat="70.32576389420205" lon="22.760838822121926" id="-36668">
		<tag k="name" v="Bollovággi" />
		<tag k="name:se" v="Bollovággi" />
		<tag k="natural" v="valley" />
		<tag k="place" v="locality" />
		<tag k="ssr:stedsnr" v="241692" />
	</node>
	<node lat="69.7993805544072" lon="23.239630475388548" id="-36672">
		<tag k="name" v="Hammeren" />
		<tag k="natural" v="hill" />
		<tag k="place" v="locality" />
		<tag k="ssr:stedsnr" v="451392" />
	</node>
	<node lat="69.84485833605699" lon="23.203249916453263" id="-36673">
		<tag k="name" v="Gammelhansslåtthenget" />
		<tag k="natural" v="cliff" />
		<tag k="ssr:stedsnr" v="451426" />
	</node>
	<node lat="70.01901944877606" lon="23.559691570204187" id="-36674">
		<tag k="loc_name:se" v="Gumppeguolban" />
		<tag k="name" v="Ulvelvmoen" />
		<tag k="name:no" v="Ulvelvmoen" />
		<tag k="place" v="locality" />
		<tag k="ssr:stedsnr" v="451454" />
	</node>
	<node lat="70.13799166532401" lon="23.346991576427047" id="-36678">
		<tag k="name" v="Vasslia" />
		<tag k="natural" v="slope" />
		<tag k="place" v="locality" />
		<tag k="ssr:stedsnr" v="451903" />
	</node>
	<node lat="70.14083333453436" lon="23.263649915290923" id="-36679">
		<tag k="name" v="Kornbakken" />
		<tag k="natural" v="slope" />
		<tag k="place" v="locality" />
		<tag k="ssr:stedsnr" v="451627" />
	</node>
	<node lat="70.2141472260397" lon="23.431680469650495" id="-36682">
		<tag k="name" v="Goaŋki" />
		<tag k="name:se" v="Goaŋki" />
		<tag k="natural" v="valley" />
		<tag k="place" v="locality" />
		<tag k="ssr:stedsnr" v="452000" />
	</node>
	<node lat="69.88616944282197" lon="22.615613839024277" id="-36685">
		<tag k="name" v="Finnskaret" />
		<tag k="natural" v="valley" />
		<tag k="place" v="locality" />
		<tag k="ssr:stedsnr" v="453240" />
	</node>
	<node lat="70.23222500352828" lon="22.487152715851764" id="-36688">
		<tag k="fixme" v="multiple name tags, choose one and add the other to alt_name; consider natural=peak for the most distinct mountains in the district" />
		<tag k="name" v="Vågnesfjellet;Juvikfjellet - Váhpalashárji" />
		<tag k="name:no" v="Vågnesfjellet;Juvikfjellet" />
		<tag k="name:se" v="Váhpalashárji" />
		<tag k="natural" v="hill" />
		<tag k="old_name:se" v="Vappalasharji" />
		<tag k="place" v="locality" />
		<tag k="ssr:stedsnr" v="261502" />
	</node>
	<node lat="69.80121667313483" lon="23.722791550986084" id="-36690">
		<tag k="name" v="Sakkivuobme - Sadjinvuopmi" />
		<tag k="name:no" v="Sakkivuobme" />
		<tag k="name:se" v="Sadjinvuopmi" />
		<tag k="natural" v="valley" />
		<tag k="old_name:se" v="Saddjinvuobmi" />
		<tag k="place" v="locality" />
		<tag k="ssr:stedsnr" v="261697" />
	</node>
	<node lat="69.79478056078425" lon="24.06716097855689" id="-36691">
		<tag k="fixme" v="consider natural=peak for the most distinct mountains in the district" />
		<tag k="name" v="Nuortahoaŋka" />
		<tag k="name:se" v="Nuortahoaŋka" />
		<tag k="natural" v="hill" />
		<tag k="place" v="locality" />
		<tag k="ssr:stedsnr" v="457356" />
	</node>
	<node lat="70.3544027775583" lon="23.04183605360673" id="-36693">
		<tag k="name" v="Kvitberget - Vilgesbávti" />
		<tag k="name:no" v="Kvitberget" />
		<tag k="name:se" v="Vilgesbávti" />
		<tag k="natural" v="hill" />
		<tag k="place" v="locality" />
		<tag k="ssr:stedsnr" v="262004" />
	</node>
	<node lat="70.36140000218232" lon="23.138611026065433" id="-36694">
		<tag k="fixme" v="consider natural=peak for the most distinct mountains in the district" />
		<tag k="name" v="Storjordtind" />
		<tag k="natural" v="hill" />
		<tag k="place" v="locality" />
		<tag k="ssr:stedsnr" v="262007" />
	</node>
	<node lat="69.98464167196936" lon="22.295163837716355" id="-36696">
		<tag k="fixme" v="consider natural=peak for the most distinct mountains in the district" />
		<tag k="name" v="Goahtemuorvárri" />
		<tag k="name:se" v="Goahtemuorvárri" />
		<tag k="natural" v="hill" />
		<tag k="old_name:se" v="Goattemuorvarri" />
		<tag k="place" v="locality" />
		<tag k="ssr:stedsnr" v="262012" />
	</node>
	<node lat="70.27814722361668" lon="22.662841596944908" id="-36700">
		<tag k="name" v="Lássevággi" />
		<tag k="name:se" v="Lássevággi" />
		<tag k="natural" v="valley" />
		<tag k="old_name:se" v="Lassevaggi" />
		<tag k="place" v="locality" />
		<tag k="ssr:stedsnr" v="262103" />
	</node>
	<node lat="69.9121250009558" lon="23.646655454362467" id="-36714">
		<tag k="name" v="Tverrfjellia" />
		<tag k="natural" v="slope" />
		<tag k="place" v="locality" />
		<tag k="ssr:stedsnr" v="262647" />
	</node>
	<node lat="70.1531972262073" lon="23.395824916051136" id="-36715">
		<tag k="fixme" v="consider natural=peak for the most distinct mountains in the district" />
		<tag k="name" v="Šleaŋgavárri" />
		<tag k="name:se" v="Šleaŋgavárri" />
		<tag k="natural" v="hill" />
		<tag k="old_name:se" v="Šlæŋgavarri" />
		<tag k="place" v="locality" />
		<tag k="ssr:stedsnr" v="262654" />
	</node>
	<node lat="70.25304166633623" lon="23.485241576788397" id="-36719">
		<tag k="alt_name:no" v="Mikkelfjellet" />
		<tag k="alt_name:se" v="Mihkkalvárri" />
		<tag k="fixme" v="consider natural=peak for the most distinct mountains in the district" />
		<tag k="name" v="Mikalfjellet - Mihkkalrášša" />
		<tag k="name:no" v="Mikalfjellet" />
		<tag k="name:se" v="Mihkkalrášša" />
		<tag k="natural" v="hill" />
		<tag k="old_name:se" v="Mikkalrašša;Mihkkálrašša" />
		<tag k="place" v="locality" />
		<tag k="ssr:stedsnr" v="262803" />
	</node>
	<node lat="70.09817222229205" lon="23.593735999293052" id="-36727">
		<tag k="name" v="Luomestealli" />
		<tag k="name:se" v="Luomestealli" />
		<tag k="old_name:se" v="Luomestælli" />
		<tag k="place" v="locality" />
		<tag k="ssr:stedsnr" v="262946" />
	</node>
	<node lat="70.21420000727228" lon="23.642052673272588" id="-36728">
		<tag k="fixme" v="consider natural=peak for the most distinct mountains in the district" />
		<tag k="name" v="Kvitfjellet" />
		<tag k="natural" v="hill" />
		<tag k="place" v="locality" />
		<tag k="ssr:stedsnr" v="262896" />
	</node>
	<node lat="70.33197222226114" lon="22.84066938327243" id="-36729">
		<tag k="name" v="Ruoššačohkka" />
		<tag k="name:se" v="Ruoššačohkka" />
		<tag k="natural" v="hill" />
		<tag k="old_name:se" v="Ruoššačåkka" />
		<tag k="place" v="locality" />
		<tag k="ssr:stedsnr" v="262901" />
	</node>
	<node lat="69.98495278018596" lon="23.51503325018219" id="-36731">
		<tag k="name" v="Sommerbakken" />
		<tag k="natural" v="slope" />
		<tag k="place" v="locality" />
		<tag k="ssr:stedsnr" v="268011" />
	</node>
	<node lat="70.10648889332381" lon="23.37052768273467" id="-36739">
		<tag k="name" v="Jupvikhaugen" />
		<tag k="natural" v="hill" />
		<tag k="place" v="locality" />
		<tag k="ssr:stedsnr" v="268479" />
	</node>
	<node lat="70.10719166803239" lon="23.431455474300183" id="-36740">
		<tag k="fixme" v="consider natural=peak for the most distinct mountains in the district" />
		<tag k="name" v="Svarthammaren" />
		<tag k="natural" v="hill" />
		<tag k="place" v="locality" />
		<tag k="ssr:stedsnr" v="268483" />
	</node>
	<node lat="70.10393333696163" lon="23.386511036872744" id="-36742">
		<tag k="name" v="Kjerringhaugen" />
		<tag k="natural" v="hill" />
		<tag k="place" v="locality" />
		<tag k="ssr:stedsnr" v="268486" />
	</node>
	<node lat="69.95706389123994" lon="23.363527691828896" id="-36746">
		<tag k="name" v="Patomella" />
		<tag k="name:fkv" v="Patomella" />
		<tag k="natural" v="slope" />
		<tag k="place" v="locality" />
		<tag k="ssr:stedsnr" v="268779" />
	</node>
	<node lat="69.8261750033606" lon="23.187727688406344" id="-36749">
		<tag k="name" v="Garajokkmoen søndre" />
		<tag k="place" v="locality" />
		<tag k="ssr:stedsnr" v="269128" />
	</node>
	<node lat="69.83957500002103" lon="23.351716571607106" id="-36753">
		<tag k="name" v="Ravtasvarrelia" />
		<tag k="natural" v="slope" />
		<tag k="place" v="locality" />
		<tag k="ssr:stedsnr" v="269772" />
	</node>
	<node lat="70.21102222324416" lon="23.25206102565346" id="-36757">
		<tag k="name" v="Storfjellbruna" />
		<tag k="natural" v="slope" />
		<tag k="place" v="locality" />
		<tag k="ssr:stedsnr" v="271406" />
	</node>
	<node lat="69.97053055947384" lon="23.37803601253446" id="-36762">
		<tag k="name" v="Joganjálbmi" />
		<tag k="name:se" v="Joganjálbmi" />
		<tag k="place" v="locality" />
		<tag k="ssr:stedsnr" v="282768" />
	</node>
	<node lat="70.3974111143361" lon="23.17538881667573" id="-36764">
		<tag k="name" v="Johkanjárvággi" />
		<tag k="name:se" v="Johkanjárvággi" />
		<tag k="natural" v="valley" />
		<tag k="place" v="locality" />
		<tag k="ssr:stedsnr" v="283127" />
	</node>
	<node lat="70.28337778311867" lon="23.545391568466414" id="-36772">
		<tag k="name" v="Muorki" />
		<tag k="name:se" v="Muorki" />
		<tag k="natural" v="slope" />
		<tag k="place" v="locality" />
		<tag k="ssr:stedsnr" v="284926" />
	</node>
	<node lat="69.83390278200795" lon="23.934294314175308" id="-36774">
		<tag k="fixme" v="consider natural=peak for the most distinct mountains in the district" />
		<tag k="name" v="Fálleoaivi" />
		<tag k="name:se" v="Fálleoaivi" />
		<tag k="natural" v="hill" />
		<tag k="place" v="locality" />
		<tag k="ssr:stedsnr" v="291604" />
	</node>
	<node lat="69.93230000053147" lon="23.094986032184927" id="-36779">
		<tag k="name" v="Boldni" />
		<tag k="name:se" v="Boldni" />
		<tag k="natural" v="slope" />
		<tag k="place" v="locality" />
		<tag k="ssr:stedsnr" v="465030" />
	</node>
	<node lat="69.92576944963554" lon="23.091697139140617" id="-36780">
		<tag k="name" v="Stuoragieddi" />
		<tag k="name:se" v="Stuoragieddi" />
		<tag k="place" v="locality" />
		<tag k="ssr:stedsnr" v="465032" />
	</node>
	<node lat="70.41769166864414" lon="23.15663880732324" id="-36784">
		<tag k="name" v="Gábubohki" />
		<tag k="name:se" v="Gábubohki" />
		<tag k="natural" v="valley" />
		<tag k="place" v="locality" />
		<tag k="ssr:stedsnr" v="465154" />
	</node>
	<node lat="69.84434166867457" lon="23.582069349189048" id="-36785">
		<tag k="fixme" v="consider natural=peak for the most distinct mountains in the district" />
		<tag k="name" v="Muvragámasvárri" />
		<tag k="name:se" v="Muvragámasvárri" />
		<tag k="natural" v="hill" />
		<tag k="place" v="locality" />
		<tag k="ssr:stedsnr" v="465247" />
	</node>
	<node lat="70.34752222157233" lon="23.341522144368398" id="-36787">
		<tag k="fixme" v="consider natural=peak for the most distinct mountains in the district" />
		<tag k="name" v="Stiika" />
		<tag k="name:se" v="Stiika" />
		<tag k="natural" v="hill" />
		<tag k="place" v="locality" />
		<tag k="ssr:stedsnr" v="465339" />
	</node>
	<node lat="70.34321111191551" lon="23.314883263527424" id="-36793">
		<tag k="name" v="Suovvanjunni" />
		<tag k="name:se" v="Suovvanjunni" />
		<tag k="place" v="locality" />
		<tag k="ssr:stedsnr" v="466338" />
	</node>
	<node lat="69.96317500621602" lon="23.759074893024067" id="-36795">
		<tag k="fixme" v="consider natural=peak for the most distinct mountains in the district" />
		<tag k="name" v="Ávžžanskáidi" />
		<tag k="name:se" v="Ávžžanskáidi" />
		<tag k="natural" v="hill" />
		<tag k="place" v="locality" />
		<tag k="ssr:stedsnr" v="466422" />
	</node>
	<node lat="69.74046111254808" lon="24.149158192451402" id="-36798">
		<tag k="name" v="Ginnosdalen - Ginusvuopmi" />
		<tag k="name:no" v="Ginnosdalen" />
		<tag k="name:se" v="Ginusvuopmi" />
		<tag k="natural" v="valley" />
		<tag k="old_name:se" v="Ginosvuobmi" />
		<tag k="place" v="locality" />
		<tag k="ssr:stedsnr" v="321487" />
	</node>
	<node lat="70.094613891381" lon="22.704619387434082" id="-36800">
		<tag k="name" v="Tuvan" />
		<tag k="natural" v="slope" />
		<tag k="place" v="locality" />
		<tag k="ssr:stedsnr" v="322536" />
	</node>
	<node lat="70.09311944786053" lon="22.417988840219056" id="-36801">
		<tag k="fixme" v="consider natural=peak for the most distinct mountains in the district" />
		<tag k="name" v="Kvannlifjellet" />
		<tag k="natural" v="hill" />
		<tag k="place" v="locality" />
		<tag k="ssr:stedsnr" v="322539" />
	</node>
	<node lat="70.14345555781642" lon="23.254319360196735" id="-36802">
		<tag k="fixme" v="consider natural=peak for the most distinct mountains in the district" />
		<tag k="name" v="Ørnsaksa" />
		<tag k="natural" v="hill" />
		<tag k="place" v="locality" />
		<tag k="ssr:stedsnr" v="322634" />
	</node>
	<node lat="69.89589167191802" lon="23.579033243948118" id="-36803">
		<tag k="name" v="Tullmarka" />
		<tag k="place" v="locality" />
		<tag k="ssr:stedsnr" v="322635" />
	</node>
	<node lat="69.75112500029302" lon="23.60963877303873" id="-36806">
		<tag k="name" v="Bjørnhaugen - Bierdnoaivi" />
		<tag k="name:no" v="Bjørnhaugen" />
		<tag k="name:se" v="Bierdnoaivi" />
		<tag k="natural" v="hill" />
		<tag k="place" v="locality" />
		<tag k="ssr:stedsnr" v="322729" />
	</node>
	<node lat="70.16770278143926" lon="23.732963795793392" id="-36814">
		<tag k="fixme" v="consider natural=peak for the most distinct mountains in the district" />
		<tag k="name" v="Bierašbolnnit" />
		<tag k="name:se" v="Bierašbolnnit" />
		<tag k="natural" v="hill" />
		<tag k="old_name:se" v="Bierašbålnit" />
		<tag k="place" v="locality" />
		<tag k="ssr:stedsnr" v="323820" />
	</node>
	<node lat="70.26250278204935" lon="22.84739437094775" id="-36817">
		<tag k="name" v="Girkočohkka" />
		<tag k="name:se" v="Girkočohkka" />
		<tag k="natural" v="hill" />
		<tag k="old_name:se" v="Girkučåkka" />
		<tag k="place" v="locality" />
		<tag k="ssr:stedsnr" v="323924" />
	</node>
	<node lat="70.12728334010674" lon="23.382444348156678" id="-36822">
		<tag k="name" v="Laukberget" />
		<tag k="natural" v="hill" />
		<tag k="place" v="locality" />
		<tag k="ssr:stedsnr" v="329022" />
	</node>
	<node lat="69.86362487833553" lon="23.108576722903315" id="-36824">
		<tag k="name" v="Gurbmovarrelia" />
		<tag k="natural" v="slope" />
		<tag k="place" v="locality" />
		<tag k="ssr:stedsnr" v="329406" />
	</node>
	<node lat="70.31500833854088" lon="22.906844371680833" id="-36826">
		<tag k="name" v="Davitčohkka" />
		<tag k="name:se" v="Davitčohkka" />
		<tag k="natural" v="hill" />
		<tag k="place" v="locality" />
		<tag k="ssr:stedsnr" v="329604" />
	</node>
	<node lat="69.97303333832728" lon="23.102652690259458" id="-36835">
		<tag k="name" v="Storvikbakken" />
		<tag k="natural" v="slope" />
		<tag k="place" v="locality" />
		<tag k="ssr:stedsnr" v="330486" />
	</node>
	<node lat="70.1088249996443" lon="23.545011014841815" id="-36836">
		<tag k="name" v="Kløfta" />
		<tag k="natural" v="valley" />
		<tag k="place" v="locality" />
		<tag k="ssr:stedsnr" v="330490" />
	</node>
	<node lat="70.23567500339074" lon="23.524138790427763" id="-36849">
		<tag k="name" v="Duoldigurra" />
		<tag k="name:se" v="Duoldigurra" />
		<tag k="natural" v="valley" />
		<tag k="place" v="locality" />
		<tag k="ssr:stedsnr" v="342592" />
	</node>
	<node lat="69.92419722777626" lon="23.025569377725144" id="-36865">
		<tag k="name" v="Buollán" />
		<tag k="name:se" v="Buollán" />
		<tag k="place" v="locality" />
		<tag k="ssr:stedsnr" v="352106" />
	</node>
	<node lat="70.28904444414573" lon="23.584111007904554" id="-36869">
		<tag k="name" v="Siertabávti" />
		<tag k="name:se" v="Siertabávti" />
		<tag k="natural" v="hill" />
		<tag k="place" v="locality" />
		<tag k="ssr:stedsnr" v="359417" />
	</node>
	<node lat="70.23935000106447" lon="23.46425547414189" id="-36872">
		<tag k="name" v="Riddi" />
		<tag k="name:se" v="Riddi" />
		<tag k="natural" v="cliff" />
		<tag k="ssr:stedsnr" v="480189" />
	</node>
	<node lat="70.30012500188393" lon="23.54329157976726" id="-36874">
		<tag k="fixme" v="consider natural=peak for the most distinct mountains in the district" />
		<tag k="name" v="Vilgesvárri" />
		<tag k="name:se" v="Vilgesvárri" />
		<tag k="natural" v="hill" />
		<tag k="place" v="locality" />
		<tag k="ssr:stedsnr" v="480753" />
	</node>
	<node lat="69.72672778657888" lon="24.183183198655517" id="-36875">
		<tag k="fixme" v="consider natural=peak for the most distinct mountains in the district" />
		<tag k="name" v="Salttoppen - Sáltečohkka" />
		<tag k="name:no" v="Salttoppen" />
		<tag k="name:se" v="Sáltečohkka" />
		<tag k="natural" v="hill" />
		<tag k="old_name:se" v="Saltečåkka" />
		<tag k="place" v="locality" />
		<tag k="ssr:stedsnr" v="382502" />
	</node>
	<node lat="69.98886666893056" lon="23.49019433963546" id="-36879">
		<tag k="name" v="Transfarelvmoen - Kaituksenkuolpano" />
		<tag k="name:fkv" v="Kaituksenkuolpano" />
		<tag k="name:no" v="Transfarelvmoen" />
		<tag k="place" v="locality" />
		<tag k="ssr:stedsnr" v="383301" />
	</node>
	<node lat="70.08741944588766" lon="22.53863882885929" id="-36887">
		<tag k="fixme" v="consider natural=peak for the most distinct mountains in the district" />
		<tag k="name" v="Rivartinden" />
		<tag k="natural" v="hill" />
		<tag k="place" v="locality" />
		<tag k="ssr:stedsnr" v="383554" />
	</node>
	<node lat="69.75700833268138" lon="22.611330498564033" id="-36890">
		<tag k="name" v="Loahccavággi" />
		<tag k="name:se" v="Loahccavággi" />
		<tag k="natural" v="valley" />
		<tag k="old_name:se" v="Loaccavaggi" />
		<tag k="place" v="locality" />
		<tag k="ssr:stedsnr" v="383500" />
	</node>
	<node lat="70.24979167173517" lon="22.991833276674992" id="-36894">
		<tag k="fixme" v="consider natural=peak for the most distinct mountains in the district" />
		<tag k="name" v="Hállárvárri" />
		<tag k="name:se" v="Hállárvárri" />
		<tag k="natural" v="hill" />
		<tag k="old_name:se" v="Hallarvarri" />
		<tag k="place" v="locality" />
		<tag k="ssr:stedsnr" v="383614" />
	</node>
	<node lat="69.89718889354977" lon="23.567047111728904" id="-36895">
		<tag k="name" v="Skomakerdalen" />
		<tag k="natural" v="valley" />
		<tag k="place" v="locality" />
		<tag k="ssr:stedsnr" v="383647" />
	</node>
	<node lat="70.31599999942766" lon="23.19216658716582" id="-36899">
		<tag k="fixme" v="consider natural=peak for the most distinct mountains in the district" />
		<tag k="name" v="Uvssotrášša" />
		<tag k="name:se" v="Uvssotrášša" />
		<tag k="natural" v="hill" />
		<tag k="old_name:se" v="Uvsutrašša" />
		<tag k="place" v="locality" />
		<tag k="ssr:stedsnr" v="383907" />
	</node>
	<node lat="70.29141111565501" lon="22.93408050243163" id="-36902">
		<tag k="fixme" v="consider natural=peak for the most distinct mountains in the district" />
		<tag k="name" v="Ringfjellet" />
		<tag k="natural" v="hill" />
		<tag k="place" v="locality" />
		<tag k="ssr:stedsnr" v="383920" />
	</node>
	<node lat="70.05943333461626" lon="22.85007493788838" id="-36904">
		<tag k="fixme" v="consider natural=peak for the most distinct mountains in the district" />
		<tag k="name" v="Gjerfjellet" />
		<tag k="natural" v="hill" />
		<tag k="place" v="locality" />
		<tag k="ssr:stedsnr" v="383805" />
	</node>
	<node lat="70.28158055888498" lon="23.580288792092155" id="-36911">
		<tag k="name" v="Goaŋkečohkka" />
		<tag k="name:se" v="Goaŋkečohkka" />
		<tag k="natural" v="hill" />
		<tag k="old_name:se" v="Goaŋkečåkka" />
		<tag k="place" v="locality" />
		<tag k="ssr:stedsnr" v="384796" />
	</node>
	<node lat="69.89977500764807" lon="23.85465266480616" id="-36914">
		<tag k="fixme" v="consider natural=peak for the most distinct mountains in the district" />
		<tag k="name" v="Hellefjellet - Ráktoaivi" />
		<tag k="name:no" v="Hellefjellet" />
		<tag k="name:se" v="Ráktoaivi" />
		<tag k="natural" v="hill" />
		<tag k="old_name:se" v="Raktoaivi" />
		<tag k="place" v="locality" />
		<tag k="ssr:stedsnr" v="387497" />
	</node>
	<node lat="69.96744722789052" lon="23.414686030036783" id="-36916">
		<tag k="name" v="Storskogbakken" />
		<tag k="natural" v="slope" />
		<tag k="place" v="locality" />
		<tag k="ssr:stedsnr" v="389049" />
	</node>
	<node lat="69.9243194500802" lon="23.262502692170692" id="-36917">
		<tag k="name" v="Lakshusbakken" />
		<tag k="natural" v="slope" />
		<tag k="place" v="locality" />
		<tag k="ssr:stedsnr" v="389203" />
	</node>
	<node lat="69.92958333145724" lon="23.255905472531193" id="-36918">
		<tag k="name" v="Mølleelvdalen" />
		<tag k="natural" v="valley" />
		<tag k="place" v="locality" />
		<tag k="ssr:stedsnr" v="389205" />
	</node>
	<node lat="69.9428138946155" lon="23.333191588050518" id="-36920">
		<tag k="name" v="Mikkelbergdalen" />
		<tag k="natural" v="valley" />
		<tag k="place" v="locality" />
		<tag k="ssr:stedsnr" v="389211" />
	</node>
	<node lat="70.24040833481796" lon="23.47998601800475" id="-36923">
		<tag k="name" v="Rávdobákti" />
		<tag k="name:se" v="Rávdobákti" />
		<tag k="natural" v="hill" />
		<tag k="place" v="locality" />
		<tag k="ssr:stedsnr" v="389797" />
	</node>
	<node lat="70.0995305586595" lon="23.212769371685237" id="-36928">
		<tag k="name" v="Knottelberget" />
		<tag k="natural" v="hill" />
		<tag k="place" v="locality" />
		<tag k="ssr:stedsnr" v="390208" />
	</node>
	<node lat="69.88456111852582" lon="23.231558240621105" id="-36931">
		<tag k="name" v="Peskamoen" />
		<tag k="place" v="locality" />
		<tag k="ssr:stedsnr" v="390646" />
	</node>
	<node lat="69.77785000275362" lon="23.308027689264872" id="-36932">
		<tag k="name" v="Trangdalen" />
		<tag k="natural" v="valley" />
		<tag k="place" v="locality" />
		<tag k="ssr:stedsnr" v="390349" />
	</node>
	<node lat="69.90339444498255" lon="23.262899912481757" id="-36936">
		<tag k="name" v="Jøramoen" />
		<tag k="place" v="locality" />
		<tag k="ssr:stedsnr" v="390739" />
	</node>
	<node lat="70.25293611352966" lon="23.45791380539108" id="-36937">
		<tag k="fixme" v="consider natural=peak for the most distinct mountains in the district" />
		<tag k="name" v="Varden" />
		<tag k="natural" v="hill" />
		<tag k="place" v="locality" />
		<tag k="ssr:stedsnr" v="390803" />
	</node>
	<node lat="70.06147222500209" lon="22.22651661107263" id="-36941">
		<tag k="fixme" v="consider natural=peak for the most distinct mountains in the district" />
		<tag k="name" v="Russelvfjellet" />
		<tag k="natural" v="hill" />
		<tag k="place" v="locality" />
		<tag k="ssr:stedsnr" v="394309" />
	</node>
	<node lat="69.97416389073594" lon="23.270219362624164" id="-36944">
		<tag k="loc_name:fkv" v="Kurrankolpeno" />
		<tag k="loc_name:no" v="Komsaflata" />
		<tag k="name" v="Gorraguolban" />
		<tag k="name:se" v="Gorraguolban" />
		<tag k="place" v="locality" />
		<tag k="ssr:stedsnr" v="403248" />
	</node>
	<node lat="69.86713056163411" lon="23.36888602432116" id="-36951">
		<tag k="fixme" v="consider natural=peak for the most distinct mountains in the district" />
		<tag k="name" v="Buollánvárri" />
		<tag k="name:se" v="Buollánvárri" />
		<tag k="natural" v="hill" />
		<tag k="place" v="locality" />
		<tag k="ssr:stedsnr" v="405484" />
	</node>
	<node lat="70.26247500632134" lon="23.411216588522933" id="-36957">
		<tag k="name" v="Gámabahta" />
		<tag k="name:se" v="Gámabahta" />
		<tag k="natural" v="valley" />
		<tag k="place" v="locality" />
		<tag k="ssr:stedsnr" v="420146" />
	</node>
	<node lat="69.71398611428769" lon="23.564363782800214" id="-36958">
		<tag k="name" v="Holgačorru" />
		<tag k="name:se" v="Holgačorru" />
		<tag k="natural" v="hill" />
		<tag k="place" v="locality" />
		<tag k="ssr:stedsnr" v="443631" />
	</node>
	<node lat="69.71239722612006" lon="23.99133597770562" id="-36959">
		<tag k="fixme" v="consider natural=peak for the most distinct mountains in the district" />
		<tag k="name" v="Brennåsen - Roavvoaivi" />
		<tag k="name:no" v="Brennåsen" />
		<tag k="name:se" v="Roavvoaivi" />
		<tag k="natural" v="hill" />
		<tag k="place" v="locality" />
		<tag k="ssr:stedsnr" v="443633" />
	</node>
	<node lat="70.35610833191285" lon="22.95265271022127" id="-36961">
		<tag k="fixme" v="consider natural=peak for the most distinct mountains in the district" />
		<tag k="name" v="Junkerhamnfjellet - Juŋkorhávnvárri" />
		<tag k="name:no" v="Junkerhamnfjellet" />
		<tag k="name:se" v="Juŋkorhávnvárri" />
		<tag k="natural" v="hill" />
		<tag k="old_name:se" v="Juŋkurhavnvarri" />
		<tag k="place" v="locality" />
		<tag k="ssr:stedsnr" v="444010" />
	</node>
	<node lat="70.4016666706181" lon="22.837380508725413" id="-36964">
		<tag k="name" v="Fugleberget - Loddebávttit" />
		<tag k="name:no" v="Fugleberget" />
		<tag k="name:se" v="Loddebávttit" />
		<tag k="natural" v="hill" />
		<tag k="place" v="locality" />
		<tag k="ssr:stedsnr" v="444025" />
	</node>
	<node lat="69.99546667151468" lon="22.847294376994373" id="-36965">
		<tag k="name" v="Vassbotndalen - Dálbmávži" />
		<tag k="name:no" v="Vassbotndalen" />
		<tag k="name:se" v="Dálbmávži" />
		<tag k="natural" v="valley" />
		<tag k="old_name:se" v="Dalbmavži" />
		<tag k="place" v="locality" />
		<tag k="ssr:stedsnr" v="444029" />
	</node>
	<node lat="70.41260278335581" lon="23.143613806291047" id="-36966">
		<tag k="name" v="Siskkimus Vággi" />
		<tag k="name:se" v="Siskkimus Vággi" />
		<tag k="natural" v="valley" />
		<tag k="old_name:se" v="Vaggi, siskimus" />
		<tag k="place" v="locality" />
		<tag k="ssr:stedsnr" v="444030" />
	</node>
	<node lat="69.91061666945586" lon="22.952833261980643" id="-36969">
		<tag k="fixme" v="consider natural=peak for the most distinct mountains in the district" />
		<tag k="name" v="Sivertfjellet - Siivvarskáidi" />
		<tag k="name:no" v="Sivertfjellet" />
		<tag k="name:se" v="Siivvarskáidi" />
		<tag k="natural" v="hill" />
		<tag k="old_name:se" v="Siivarskaidi" />
		<tag k="place" v="locality" />
		<tag k="ssr:stedsnr" v="444290" />
	</node>
	<node lat="69.88091944621891" lon="22.69818327591896" id="-36972">
		<tag k="fixme" v="consider natural=peak for the most distinct mountains in the district" />
		<tag k="name" v="Coagesčohkat" />
		<tag k="name:se" v="Coagesčohkat" />
		<tag k="natural" v="hill" />
		<tag k="old_name:se" v="Coagesčåkkat" />
		<tag k="place" v="locality" />
		<tag k="ssr:stedsnr" v="444436" />
	</node>
	<node lat="70.09106667048152" lon="22.532944385810016" id="-36974">
		<tag k="fixme" v="consider natural=peak for the most distinct mountains in the district" />
		<tag k="name" v="Rivarfjellet - Riidavárri" />
		<tag k="name:no" v="Rivarfjellet" />
		<tag k="name:se" v="Riidavárri" />
		<tag k="natural" v="hill" />
		<tag k="old_name:se" v="Riidavarri" />
		<tag k="place" v="locality" />
		<tag k="ssr:stedsnr" v="444514" />
	</node>
	<node lat="70.03788333886574" lon="22.501369382038533" id="-36976">
		<tag k="name" v="Ristengohpi" />
		<tag k="name:se" v="Ristengohpi" />
		<tag k="natural" v="valley" />
		<tag k="old_name:se" v="Ristengåppi" />
		<tag k="place" v="locality" />
		<tag k="ssr:stedsnr" v="444591" />
	</node>
	<node lat="70.03529722408015" lon="22.829438822188592" id="-36980">
		<tag k="name" v="Gierdduidstealli" />
		<tag k="name:se" v="Gierdduidstealli" />
		<tag k="natural" v="valley" />
		<tag k="old_name:se" v="Gierdoidstælli" />
		<tag k="place" v="locality" />
		<tag k="ssr:stedsnr" v="444808" />
	</node>
	<node lat="70.03605180300788" lon="22.82362446308526" id="-36981">
		<tag k="name" v="Gierdduidbákti" />
		<tag k="name:se" v="Gierdduidbákti" />
		<tag k="natural" v="hill" />
		<tag k="old_name:se" v="Gierdoidbakti" />
		<tag k="place" v="locality" />
		<tag k="ssr:stedsnr" v="444809" />
	</node>
	<node lat="70.02285708098108" lon="22.984424346957578" id="-36985">
		<tag k="fixme" v="consider natural=peak for the most distinct mountains in the district" />
		<tag k="name" v="Titindan - Jáhkobačohkat" />
		<tag k="name:no" v="Titindan" />
		<tag k="name:se" v="Jáhkobačohkat" />
		<tag k="natural" v="hill" />
		<tag k="old_name:se" v="Jakkubačåkkat" />
		<tag k="place" v="locality" />
		<tag k="ssr:stedsnr" v="444790" />
	</node>
	<node lat="70.0067194446366" lon="23.56966657205314" id="-36990">
		<tag k="loc_name:se" v="Bovdnaávži" />
		<tag k="name" v="Boldneávži" />
		<tag k="name:se" v="Boldneávži" />
		<tag k="natural" v="valley" />
		<tag k="old_name:se" v="Båldneavži" />
		<tag k="place" v="locality" />
		<tag k="ssr:stedsnr" v="444985" />
	</node>
	<node lat="70.312930557678" lon="23.57799157171801" id="-36992">
		<tag k="fixme" v="consider natural=peak for the most distinct mountains in the district" />
		<tag k="name" v="Stefjellet" />
		<tag k="natural" v="hill" />
		<tag k="place" v="locality" />
		<tag k="ssr:stedsnr" v="445807" />
	</node>
	<node lat="70.11132499863669" lon="23.40303880065194" id="-37002">
		<tag k="name" v="Hølberget" />
		<tag k="natural" v="hill" />
		<tag k="place" v="locality" />
		<tag k="ssr:stedsnr" v="450485" />
	</node>
	<node lat="70.02243611316693" lon="22.886111050865765" id="-37004">
		<tag k="name" v="Kuttedalen" />
		<tag k="natural" v="valley" />
		<tag k="place" v="locality" />
		<tag k="ssr:stedsnr" v="451006" />
	</node>
	<node lat="69.93389444445243" lon="23.22473046637853" id="-37006">
		<tag k="name" v="Salkodalen" />
		<tag k="natural" v="valley" />
		<tag k="place" v="locality" />
		<tag k="ssr:stedsnr" v="450775" />
	</node>
	<node lat="69.95191389279393" lon="23.331313810378376" id="-37008">
		<tag k="name" v="Mikkelberget" />
		<tag k="natural" v="hill" />
		<tag k="place" v="locality" />
		<tag k="ssr:stedsnr" v="450779" />
	</node>
	<node lat="70.1682527815927" lon="23.32118046716962" id="-37014">
		<tag k="fixme" v="consider natural=peak for the most distinct mountains in the district" />
		<tag k="name" v="Fjellbruna" />
		<tag k="natural" v="hill" />
		<tag k="place" v="locality" />
		<tag k="ssr:stedsnr" v="451611" />
	</node>
	<node lat="69.75872778356654" lon="23.838716537157673" id="-37020">
		<tag k="name" v="Čoalbmevárri" />
		<tag k="name:se" v="Čoalbmevárri" />
		<tag k="natural" v="hill" />
		<tag k="place" v="locality" />
		<tag k="ssr:stedsnr" v="463866" />
	</node>
	<node lat="69.82901944646642" lon="23.679299888043637" id="-37024">
		<tag k="fixme" v="multiple name tags, choose one and add the other to alt_name; consider natural=peak for the most distinct mountains in the district" />
		<tag k="loc_name:se" v="Ságge-Gámasvárri" />
		<tag k="name" v="Geassegámasvárri;Sadjinoaivi" />
		<tag k="name:se" v="Geassegámasvárri;Sadjinoaivi" />
		<tag k="natural" v="hill" />
		<tag k="place" v="locality" />
		<tag k="ssr:stedsnr" v="466379" />
	</node>
	<node lat="69.72847778488203" lon="23.40729433946388" id="-37030">
		<tag k="name" v="Orvvošgurra" />
		<tag k="name:se" v="Orvvošgurra" />
		<tag k="natural" v="valley" />
		<tag k="place" v="locality" />
		<tag k="ssr:stedsnr" v="503703" />
	</node>
	<node lat="70.35571944988415" lon="23.150055479575457" id="-37031">
		<tag k="fixme" v="consider natural=peak for the most distinct mountains in the district" />
		<tag k="name" v="Sommarsettind - Geassesaihárji" />
		<tag k="name:no" v="Sommarsettind" />
		<tag k="name:se" v="Geassesaihárji" />
		<tag k="natural" v="hill" />
		<tag k="old_name:se" v="Gæssesajharji" />
		<tag k="place" v="locality" />
		<tag k="ssr:stedsnr" v="504003" />
	</node>
	<node lat="70.13611388998058" lon="22.72498881761378" id="-37032">
		<tag k="name" v="Trolldalen - Siskkit Ruollavággi" />
		<tag k="name:no" v="Trolldalen" />
		<tag k="name:se" v="Siskkit Ruollavággi" />
		<tag k="natural" v="valley" />
		<tag k="old_name:se" v="Ruollavaggi, siskit" />
		<tag k="place" v="locality" />
		<tag k="ssr:stedsnr" v="504419" />
	</node>
	<node lat="69.99837777894699" lon="23.085702691342398" id="-37034">
		<tag k="fixme" v="consider natural=peak for the most distinct mountains in the district" />
		<tag k="name" v="Ølvikfjellet" />
		<tag k="natural" v="hill" />
		<tag k="place" v="locality" />
		<tag k="ssr:stedsnr" v="504473" />
	</node>
	<node lat="69.98431388786406" lon="22.984963801980896" id="-37036">
		<tag k="fixme" v="consider natural=peak for the most distinct mountains in the district" />
		<tag k="name" v="Stampa - Stámpa" />
		<tag k="name:no" v="Stampa" />
		<tag k="name:se" v="Stámpa" />
		<tag k="natural" v="hill" />
		<tag k="place" v="locality" />
		<tag k="ssr:stedsnr" v="504480" />
	</node>
	<node lat="70.03957500269715" lon="22.47869716111302" id="-37037">
		<tag k="name" v="Kjerringdalen - Áhkárvággi" />
		<tag k="name:no" v="Kjerringdalen" />
		<tag k="name:se" v="Áhkárvággi" />
		<tag k="natural" v="valley" />
		<tag k="old_name:se" v="Akkarvaggi" />
		<tag k="place" v="locality" />
		<tag k="ssr:stedsnr" v="504609" />
	</node>
	<node lat="70.03858611231543" lon="22.218211062722634" id="-37038">
		<tag k="name" v="Čohkkápmir" />
		<tag k="name:se" v="Čohkkápmir" />
		<tag k="natural" v="hill" />
		<tag k="old_name:se" v="Čåkkabmir" />
		<tag k="place" v="locality" />
		<tag k="ssr:stedsnr" v="504610" />
	</node>
	<node lat="70.05131111453963" lon="22.845794367479062" id="-37041">
		<tag k="fixme" v="consider natural=peak for the most distinct mountains in the district" />
		<tag k="name" v="Gierddut" />
		<tag k="name:se" v="Gierddut" />
		<tag k="natural" v="hill" />
		<tag k="old_name:se" v="Gierdot;Gjerddut" />
		<tag k="place" v="locality" />
		<tag k="ssr:stedsnr" v="504504" />
	</node>
	<node lat="70.00322778052947" lon="22.87750271785973" id="-37046">
		<tag k="name" v="Temphaugen" />
		<tag k="natural" v="hill" />
		<tag k="place" v="locality" />
		<tag k="ssr:stedsnr" v="504774" />
	</node>
	<node lat="70.13038333476173" lon="23.651136020376807" id="-37047">
		<tag k="fixme" v="consider natural=peak for the most distinct mountains in the district" />
		<tag k="name" v="Biermáhtestealli" />
		<tag k="name:se" v="Biermáhtestealli" />
		<tag k="natural" v="hill" />
		<tag k="old_name:se" v="Biermattestælli" />
		<tag k="place" v="locality" />
		<tag k="ssr:stedsnr" v="504910" />
	</node>
	<node lat="70.30766111751383" lon="22.878783265431338" id="-37048">
		<tag k="alt_name" v="Haldardalen" />
		<tag k="name" v="Slettdal" />
		<tag k="natural" v="valley" />
		<tag k="place" v="locality" />
		<tag k="ssr:stedsnr" v="504917" />
	</node>
	<node lat="70.30826389474021" lon="23.102324921129625" id="-37049">
		<tag k="alt_name:no" v="Skolebukttind" />
		<tag k="fixme" v="consider natural=peak for the most distinct mountains in the district" />
		<tag k="name" v="Skolebuktfjellet - Skuvlagohvárri" />
		<tag k="name:no" v="Skolebuktfjellet" />
		<tag k="name:se" v="Skuvlagohvárri" />
		<tag k="natural" v="hill" />
		<tag k="old_name:se" v="Skuvlagåpvarri" />
		<tag k="place" v="locality" />
		<tag k="ssr:stedsnr" v="504919" />
	</node>
	<node lat="69.85057222078385" lon="23.049883258645764" id="-37053">
		<tag k="name" v="Gurpmotvuopmi" />
		<tag k="name:se" v="Gurpmotvuopmi" />
		<tag k="natural" v="valley" />
		<tag k="old_name:se" v="Gurbmutvuobmi" />
		<tag k="place" v="locality" />
		<tag k="ssr:stedsnr" v="505271" />
	</node>
	<node lat="69.85792500432295" lon="23.303299907081737" id="-37056">
		<tag k="name" v="Storelvdalen" />
		<tag k="natural" v="valley" />
		<tag k="place" v="locality" />
		<tag k="ssr:stedsnr" v="505504" />
	</node>
	<node lat="70.07796389249131" lon="22.89156661320176" id="-37058">
		<tag k="fixme" v="consider natural=peak for the most distinct mountains in the district" />
		<tag k="name" v="Gierdduidrášša" />
		<tag k="name:se" v="Gierdduidrášša" />
		<tag k="natural" v="hill" />
		<tag k="old_name:se" v="Gierdoidrašša" />
		<tag k="place" v="locality" />
		<tag k="ssr:stedsnr" v="505708" />
	</node>
	<node lat="70.01158610907807" lon="22.388788841947914" id="-37059">
		<tag k="fixme" v="consider natural=peak for the most distinct mountains in the district" />
		<tag k="name" v="Mártenčohkka" />
		<tag k="name:se" v="Mártenčohkka" />
		<tag k="natural" v="hill" />
		<tag k="old_name:se" v="Martenčåkka" />
		<tag k="place" v="locality" />
		<tag k="ssr:stedsnr" v="505607" />
	</node>
	<node lat="69.87750833758106" lon="23.707958233587334" id="-37061">
		<tag k="fixme" v="consider natural=peak for the most distinct mountains in the district" />
		<tag k="name" v="Repfjellet - Reaipovárri" />
		<tag k="name:no" v="Repfjellet" />
		<tag k="name:se" v="Reaipovárri" />
		<tag k="natural" v="hill" />
		<tag k="old_name:se" v="Ræipuvarri" />
		<tag k="place" v="locality" />
		<tag k="ssr:stedsnr" v="505672" />
	</node>
	<node lat="70.15805000366515" lon="23.33201102746401" id="-37063">
		<tag k="alt_name" v="Krøkebærtuva" />
		<tag k="fixme" v="consider natural=peak for the most distinct mountains in the district" />
		<tag k="name" v="Kråketuva" />
		<tag k="natural" v="hill" />
		<tag k="place" v="locality" />
		<tag k="ssr:stedsnr" v="505674" />
	</node>
	<node lat="70.30570000416519" lon="23.05380549074896" id="-37067">
		<tag k="alt_name:no" v="Skarvberget" />
		<tag k="name" v="Skarveberg - Skárffabákti" />
		<tag k="name:no" v="Skarveberg" />
		<tag k="name:se" v="Skárffabákti" />
		<tag k="natural" v="hill" />
		<tag k="old_name:se" v="Skarfabakti" />
		<tag k="place" v="locality" />
		<tag k="ssr:stedsnr" v="505906" />
	</node>
	<node lat="70.18490833112618" lon="23.343702701731623" id="-37069">
		<tag k="name" v="Jorvár" />
		<tag k="name:se" v="Jorvár" />
		<tag k="natural" v="hill" />
		<tag k="place" v="locality" />
		<tag k="ssr:stedsnr" v="510161" />
	</node>
	<node lat="70.00911944922777" lon="22.946836033352216" id="-37071">
		<tag k="fixme" v="consider natural=peak for the most distinct mountains in the district" />
		<tag k="name" v="Tolvtinnan" />
		<tag k="natural" v="hill" />
		<tag k="place" v="locality" />
		<tag k="ssr:stedsnr" v="511019" />
	</node>
	<node lat="69.94653055808091" lon="23.383994355871316" id="-37074">
		<tag k="loc_name:se" v="Luovosvárri" />
		<tag k="name" v="Losvarkollen - Luosvaara" />
		<tag k="name:fkv" v="Luosvaara" />
		<tag k="name:no" v="Losvarkollen" />
		<tag k="natural" v="hill" />
		<tag k="place" v="locality" />
		<tag k="ssr:stedsnr" v="511064" />
	</node>
	<node lat="70.03860000638534" lon="22.91211659927894" id="-37075">
		<tag k="name" v="Blåbergaholm" />
		<tag k="natural" v="slope" />
		<tag k="place" v="locality" />
		<tag k="ssr:stedsnr" v="511208" />
	</node>
	<node lat="70.34356111663668" lon="22.786030501841175" id="-37082">
		<tag k="fixme" v="consider natural=peak for the most distinct mountains in the district" />
		<tag k="name" v="Finnsnesčohkka" />
		<tag k="name:se" v="Finnsnesčohkka" />
		<tag k="natural" v="hill" />
		<tag k="place" v="locality" />
		<tag k="ssr:stedsnr" v="511810" />
	</node>
	<node lat="69.91705278317933" lon="23.548836010753874" id="-37083">
		<tag k="name" v="Sandfallmoen" />
		<tag k="place" v="locality" />
		<tag k="ssr:stedsnr" v="512123" />
	</node>
	<node lat="70.09871944781726" lon="23.266686036502772" id="-37084">
		<tag k="name" v="Skavikdalen" />
		<tag k="natural" v="valley" />
		<tag k="place" v="locality" />
		<tag k="ssr:stedsnr" v="512208" />
	</node>
	<node lat="69.98921111523634" lon="22.872541593126762" id="-37085">
		<tag k="fixme" v="consider natural=peak for the most distinct mountains in the district" />
		<tag k="name" v="Nonskarfjellet" />
		<tag k="natural" v="hill" />
		<tag k="place" v="locality" />
		<tag k="ssr:stedsnr" v="512210" />
	</node>
	<node lat="70.14671389553764" lon="23.179797141184025" id="-37089">
		<tag k="name" v="Rødbergan" />
		<tag k="natural" v="hill" />
		<tag k="place" v="locality" />
		<tag k="ssr:stedsnr" v="512624" />
	</node>
	<node lat="70.21698333558972" lon="23.209152688386766" id="-37091">
		<tag k="name" v="Storhammeren" />
		<tag k="natural" v="hill" />
		<tag k="place" v="locality" />
		<tag k="ssr:stedsnr" v="512903" />
	</node>
	<node lat="70.05602778554885" lon="23.645119340279184" id="-37098">
		<tag k="name" v="Mattiskorsa" />
		<tag k="name:fkv" v="Mattiskorsa" />
		<tag k="natural" v="valley" />
		<tag k="place" v="locality" />
		<tag k="ssr:stedsnr" v="517178" />
	</node>
	<node lat="70.34586389367799" lon="23.34157214252708" id="-37106">
		<tag k="name" v="Stiikkavuolli" />
		<tag k="name:se" v="Stiikkavuolli" />
		<tag k="natural" v="cliff" />
		<tag k="ssr:stedsnr" v="526311" />
	</node>
	<node lat="69.90792222643537" lon="23.289586035229515" id="-37108">
		<tag k="fixme" v="consider natural=peak for the most distinct mountains in the district" />
		<tag k="name" v="Jorbaáidi" />
		<tag k="name:se" v="Jorbaáidi" />
		<tag k="natural" v="hill" />
		<tag k="place" v="locality" />
		<tag k="ssr:stedsnr" v="526884" />
	</node>
	<node lat="70.3901833391349" lon="22.979513822571562" id="-37113">
		<tag k="name" v="Kárravággi" />
		<tag k="name:se" v="Kárravággi" />
		<tag k="natural" v="valley" />
		<tag k="old_name:se" v="Karravaggi" />
		<tag k="place" v="locality" />
		<tag k="ssr:stedsnr" v="686028" />
	</node>
	<node lat="70.21791389140272" lon="22.451377714907675" id="-37120">
		<tag k="fixme" v="consider natural=peak for the most distinct mountains in the district" />
		<tag k="name" v="Fasttalvárri" />
		<tag k="name:se" v="Fasttalvárri" />
		<tag k="natural" v="hill" />
		<tag k="old_name:se" v="Fastalvarri" />
		<tag k="place" v="locality" />
		<tag k="ssr:stedsnr" v="686375" />
	</node>
	<node lat="70.17561389419443" lon="22.54064161678721" id="-37124">
		<tag k="fixme" v="consider natural=peak for the most distinct mountains in the district" />
		<tag k="name" v="Storvikfjellet - Rohkalvuonbáktenjunni" />
		<tag k="name:no" v="Storvikfjellet" />
		<tag k="name:se" v="Rohkalvuonbáktenjunni" />
		<tag k="natural" v="hill" />
		<tag k="old_name:se" v="Råkkalvuonbaktenjunni" />
		<tag k="place" v="locality" />
		<tag k="ssr:stedsnr" v="686393" />
	</node>
	<node lat="70.34075000571735" lon="23.471366575591475" id="-37132">
		<tag k="name" v="Vilgesjuovva" />
		<tag k="name:se" v="Vilgesjuovva" />
		<tag k="natural" v="hill" />
		<tag k="place" v="locality" />
		<tag k="ssr:stedsnr" v="534573" />
	</node>
	<node lat="69.70619722774242" lon="24.080699854527268" id="-37135">
		<tag k="name" v="Kjellia - Gievdnerápma" />
		<tag k="name:no" v="Kjellia" />
		<tag k="name:se" v="Gievdnerápma" />
		<tag k="natural" v="slope" />
		<tag k="old_name:se" v="Gievdnerabma" />
		<tag k="place" v="locality" />
		<tag k="ssr:stedsnr" v="686523" />
	</node>
	<node lat="70.08081111268311" lon="22.40285550006667" id="-37136">
		<tag k="loc_name:se" v="Njuorjjovággi" />
		<tag k="name" v="Elvedalen" />
		<tag k="name:no" v="Elvedalen" />
		<tag k="natural" v="valley" />
		<tag k="place" v="locality" />
		<tag k="ssr:stedsnr" v="686530" />
	</node>
	<node lat="70.14936111576257" lon="23.217047136612916" id="-37138">
		<tag k="alt_name" v="Langskåra" />
		<tag k="name" v="Langskora" />
		<tag k="natural" v="valley" />
		<tag k="place" v="locality" />
		<tag k="ssr:stedsnr" v="686646" />
	</node>
	<node lat="70.22333888953575" lon="23.33455547395746" id="-37139">
		<tag k="name" v="Bjentajonhaugen" />
		<tag k="natural" v="hill" />
		<tag k="old_name" v="Bjentasjonhaugen" />
		<tag k="place" v="locality" />
		<tag k="ssr:stedsnr" v="686585" />
	</node>
	<node lat="70.13366111898982" lon="23.227599910622292" id="-37152">
		<tag k="name" v="Hansbukthaugen" />
		<tag k="natural" v="hill" />
		<tag k="place" v="locality" />
		<tag k="ssr:stedsnr" v="686727" />
	</node>
	<node lat="70.08039722116675" lon="23.500144346010007" id="-37155">
		<tag k="fixme" v="consider natural=peak for the most distinct mountains in the district" />
		<tag k="name" v="Juhánčohkka" />
		<tag k="name:se" v="Juhánčohkka" />
		<tag k="natural" v="hill" />
		<tag k="old_name:se" v="Juhančåkka" />
		<tag k="place" v="locality" />
		<tag k="ssr:stedsnr" v="686862" />
	</node>
	<node lat="70.32165555521968" lon="23.097472147411473" id="-37158">
		<tag k="name" v="Langdalen" />
		<tag k="natural" v="valley" />
		<tag k="place" v="locality" />
		<tag k="ssr:stedsnr" v="686882" />
	</node>
	<node lat="69.73236945054109" lon="22.794574928713228" id="-37159">
		<tag k="fixme" v="consider natural=peak for the most distinct mountains in the district" />
		<tag k="name" v="Fielbmávárri" />
		<tag k="name:se" v="Fielbmávárri" />
		<tag k="natural" v="hill" />
		<tag k="place" v="locality" />
		<tag k="ssr:stedsnr" v="686883" />
	</node>
	<node lat="70.30811388984772" lon="22.83693603932915" id="-37160">
		<tag k="fixme" v="multiple name tags, choose one and add the other to alt_name" />
		<tag k="name" v="Kvalfjorddalen;Kvalfjorddalen, store;Store Kvalfjorddalen - Bossovuonvággi" />
		<tag k="name:no" v="Kvalfjorddalen;Kvalfjorddalen, store;Store Kvalfjorddalen" />
		<tag k="name:se" v="Bossovuonvággi" />
		<tag k="natural" v="valley" />
		<tag k="old_name:se" v="Båssuvuonvaggi" />
		<tag k="place" v="locality" />
		<tag k="ssr:stedsnr" v="686912" />
	</node>
	<node lat="70.10642500082285" lon="23.504308243879443" id="-37161">
		<tag k="name" v="Kvibydalen - Ráirroávži" />
		<tag k="name:no" v="Kvibydalen" />
		<tag k="name:se" v="Ráirroávži" />
		<tag k="natural" v="valley" />
		<tag k="old_name:se" v="Rairuoavži" />
		<tag k="place" v="locality" />
		<tag k="ssr:stedsnr" v="686917" />
	</node>
	<node lat="70.29076110980822" lon="23.59695824363213" id="-37162">
		<tag k="name" v="Vállju" />
		<tag k="name:se" v="Vállju" />
		<tag k="natural" v="slope" />
		<tag k="place" v="locality" />
		<tag k="ssr:stedsnr" v="541415" />
	</node>
	<node lat="69.83516389160499" lon="22.87631105184226" id="-37169">
		<tag k="name" v="Styggdalen - Jámetvággi" />
		<tag k="name:no" v="Styggdalen" />
		<tag k="name:se" v="Jámetvággi" />
		<tag k="natural" v="valley" />
		<tag k="place" v="locality" />
		<tag k="ssr:stedsnr" v="687248" />
	</node>
	<node lat="69.86069167066448" lon="22.874274935938374" id="-37170">
		<tag k="fixme" v="consider natural=peak for the most distinct mountains in the district" />
		<tag k="name" v="Seterkumpen" />
		<tag k="natural" v="hill" />
		<tag k="place" v="locality" />
		<tag k="ssr:stedsnr" v="687267" />
	</node>
	<node lat="69.91034166692334" lon="22.907136030576794" id="-37173">
		<tag k="name" v="Sivertdalen - Siivvarvággi" />
		<tag k="name:no" v="Sivertdalen" />
		<tag k="name:se" v="Siivvarvággi" />
		<tag k="natural" v="valley" />
		<tag k="old_name:se" v="Siivarvaggi" />
		<tag k="place" v="locality" />
		<tag k="ssr:stedsnr" v="687330" />
	</node>
	<node lat="69.88031111836537" lon="22.800013815672944" id="-37176">
		<tag k="fixme" v="consider natural=peak for the most distinct mountains in the district" />
		<tag k="loc_name:se" v="Dihkkečielgi" />
		<tag k="name" v="Lusryggen" />
		<tag k="name:no" v="Lusryggen" />
		<tag k="natural" v="hill" />
		<tag k="place" v="locality" />
		<tag k="ssr:stedsnr" v="687453" />
	</node>
	<node lat="69.85685555920536" lon="22.634774930943596" id="-37178">
		<tag k="fixme" v="consider natural=peak for the most distinct mountains in the district" />
		<tag k="name" v="Botnfrostfjellet - Gollestuollu" />
		<tag k="name:no" v="Botnfrostfjellet" />
		<tag k="name:se" v="Gollestuollu" />
		<tag k="natural" v="hill" />
		<tag k="old_name:se" v="Gållestuollo" />
		<tag k="place" v="locality" />
		<tag k="ssr:stedsnr" v="687457" />
	</node>
	<node lat="70.11800833361643" lon="22.5718054926259" id="-37181">
		<tag k="name" v="Skárpavággi" />
		<tag k="name:se" v="Skárpavággi" />
		<tag k="natural" v="valley" />
		<tag k="old_name:se" v="Skarpavaggi" />
		<tag k="place" v="locality" />
		<tag k="ssr:stedsnr" v="687564" />
	</node>
	<node lat="70.12337778293953" lon="22.64166659826946" id="-37182">
		<tag k="alt_name:no" v="Kjeldalen, store" />
		<tag k="name" v="Store Kjeldalen - Siskkit Gievdnevággi" />
		<tag k="name:no" v="Store Kjeldalen" />
		<tag k="name:se" v="Siskkit Gievdnevággi" />
		<tag k="natural" v="valley" />
		<tag k="old_name:se" v="Gievdnevaggi siskit" />
		<tag k="place" v="locality" />
		<tag k="ssr:stedsnr" v="687566" />
	</node>
	<node lat="70.09544444982883" lon="22.847655483103363" id="-37183">
		<tag k="name" v="Goahtevággi" />
		<tag k="name:se" v="Goahtevággi" />
		<tag k="natural" v="valley" />
		<tag k="old_name:se" v="Goattevaggi" />
		<tag k="place" v="locality" />
		<tag k="ssr:stedsnr" v="687722" />
	</node>
	<node lat="70.15841389470242" lon="23.31070826531257" id="-37185">
		<tag k="alt_name" v="Krøkebærdalen" />
		<tag k="name" v="Kråkelvdalen" />
		<tag k="natural" v="valley" />
		<tag k="place" v="locality" />
		<tag k="ssr:stedsnr" v="687662" />
	</node>
	<node lat="70.18924166735006" lon="22.96434713978004" id="-37186">
		<tag k="name" v="Høgberget" />
		<tag k="natural" v="hill" />
		<tag k="place" v="locality" />
		<tag k="ssr:stedsnr" v="687666" />
	</node>
	<node lat="70.17092499980647" lon="23.600613780643354" id="-37190">
		<tag k="fixme" v="consider natural=peak for the most distinct mountains in the district" />
		<tag k="name" v="Liksebiđđinvárri" />
		<tag k="name:se" v="Liksebiđđinvárri" />
		<tag k="natural" v="hill" />
		<tag k="old_name:se" v="Liksebiđđinvarri" />
		<tag k="place" v="locality" />
		<tag k="ssr:stedsnr" v="687814" />
	</node>
	<node lat="70.17014999924159" lon="23.491774913179093" id="-37191">
		<tag k="fixme" v="consider natural=peak for the most distinct mountains in the district" />
		<tag k="name" v="Stifjellet - Bálggesoaivi" />
		<tag k="name:no" v="Stifjellet" />
		<tag k="name:se" v="Bálggesoaivi" />
		<tag k="natural" v="hill" />
		<tag k="place" v="locality" />
		<tag k="ssr:stedsnr" v="687822" />
	</node>
	<node lat="70.18515278085819" lon="23.48456101576345" id="-37193">
		<tag k="fixme" v="consider natural=peak for the most distinct mountains in the district" />
		<tag k="name" v="Slettfjellet - Jalgesvárri" />
		<tag k="name:no" v="Slettfjellet" />
		<tag k="name:se" v="Jalgesvárri" />
		<tag k="natural" v="hill" />
		<tag k="place" v="locality" />
		<tag k="ssr:stedsnr" v="687833" />
	</node>
	<node lat="70.04073333330619" lon="23.81396099174693" id="-37194">
		<tag k="fixme" v="consider natural=peak for the most distinct mountains in the district" />
		<tag k="name" v="Jievjavárri" />
		<tag k="name:se" v="Jievjavárri" />
		<tag k="natural" v="hill" />
		<tag k="old_name:se" v="Jievjavarri" />
		<tag k="place" v="locality" />
		<tag k="ssr:stedsnr" v="687899" />
	</node>
	<node lat="70.16008611796622" lon="23.766299890311718" id="-37195">
		<tag k="fixme" v="consider natural=peak for the most distinct mountains in the district" />
		<tag k="name" v="Laudunfjellet - Levddonvárri" />
		<tag k="name:no" v="Laudunfjellet" />
		<tag k="name:se" v="Levddonvárri" />
		<tag k="natural" v="hill" />
		<tag k="place" v="locality" />
		<tag k="ssr:stedsnr" v="687848" />
	</node>
	<node lat="70.23020278319025" lon="23.4281082607301" id="-37197">
		<tag k="name" v="Rundhaugen" />
		<tag k="natural" v="hill" />
		<tag k="place" v="locality" />
		<tag k="ssr:stedsnr" v="687858" />
	</node>
	<node lat="70.04641667097482" lon="23.75708044140643" id="-37199">
		<tag k="fixme" v="consider natural=peak for the most distinct mountains in the district" />
		<tag k="name" v="Čáhppesvárri" />
		<tag k="name:se" v="Čáhppesvárri" />
		<tag k="natural" v="hill" />
		<tag k="old_name:se" v="Čappesvarri" />
		<tag k="place" v="locality" />
		<tag k="ssr:stedsnr" v="687902" />
	</node>
	<node lat="70.28738056062323" lon="22.85169437562752" id="-37200">
		<tag k="fixme" v="consider natural=peak for the most distinct mountains in the district" />
		<tag k="name" v="Ánddot" />
		<tag k="name:se" v="Ánddot" />
		<tag k="natural" v="hill" />
		<tag k="old_name:se" v="Andut" />
		<tag k="place" v="locality" />
		<tag k="ssr:stedsnr" v="687911" />
	</node>
	<node lat="70.30618333761778" lon="23.13942493394399" id="-37201">
		<tag k="alt_name" v="Moskovaggetind" />
		<tag k="fixme" v="consider natural=peak for the most distinct mountains in the district" />
		<tag k="name" v="Måskovaggetind" />
		<tag k="natural" v="hill" />
		<tag k="place" v="locality" />
		<tag k="ssr:stedsnr" v="687914" />
	</node>
	<node lat="70.25581111638213" lon="22.915269370888847" id="-37202">
		<tag k="fixme" v="consider natural=peak for the most distinct mountains in the district" />
		<tag k="name" v="Halvorvikfjellet - Dáččarášša" />
		<tag k="name:no" v="Halvorvikfjellet" />
		<tag k="name:se" v="Dáččarášša" />
		<tag k="natural" v="hill" />
		<tag k="old_name:se" v="Dažžarašša" />
		<tag k="place" v="locality" />
		<tag k="ssr:stedsnr" v="687921" />
	</node>
	<node lat="70.01192223078553" lon="23.78110821776365" id="-37204">
		<tag k="fixme" v="consider natural=peak for the most distinct mountains in the district" />
		<tag k="name" v="Oaivvošvárri" />
		<tag k="name:se" v="Oaivvošvárri" />
		<tag k="natural" v="hill" />
		<tag k="old_name:se" v="Oaivušvarri" />
		<tag k="place" v="locality" />
		<tag k="ssr:stedsnr" v="687982" />
	</node>
	<node lat="70.01834722697322" lon="23.738619338577095" id="-37207">
		<tag k="fixme" v="consider natural=peak for the most distinct mountains in the district" />
		<tag k="name" v="Ciikovárri" />
		<tag k="name:se" v="Ciikovárri" />
		<tag k="natural" v="hill" />
		<tag k="old_name:se" v="Ciikuvarri" />
		<tag k="place" v="locality" />
		<tag k="ssr:stedsnr" v="687980" />
	</node>
	<node lat="70.31772738900847" lon="22.704063991776977" id="-37210">
		<tag k="name" v="Kjerringfjorddalen - Várjevuonvággi" />
		<tag k="name:no" v="Kjerringfjorddalen" />
		<tag k="name:se" v="Várjevuonvággi" />
		<tag k="natural" v="valley" />
		<tag k="place" v="locality" />
		<tag k="ssr:stedsnr" v="688158" />
	</node>
	<node lat="70.3617583348154" lon="23.040230489650558" id="-37217">
		<tag k="name" v="Kvitbergdalen" />
		<tag k="natural" v="valley" />
		<tag k="place" v="locality" />
		<tag k="ssr:stedsnr" v="565007" />
	</node>
	<node lat="69.98530000113594" lon="22.665591616667935" id="-37219">
		<tag k="fixme" v="consider natural=peak for the most distinct mountains in the district" />
		<tag k="name" v="Ákšoalgi" />
		<tag k="name:se" v="Ákšoalgi" />
		<tag k="natural" v="hill" />
		<tag k="old_name:se" v="Akšoalgi" />
		<tag k="place" v="locality" />
		<tag k="ssr:stedsnr" v="565017" />
	</node>
	<node lat="69.96243333923191" lon="23.135905486072154" id="-37225">
		<tag k="name" v="Rødstein" />
		<tag k="natural" v="hill" />
		<tag k="place" v="locality" />
		<tag k="ssr:stedsnr" v="693396" />
	</node>
	<node lat="69.89931666419477" lon="23.07709992972895" id="-37226">
		<tag k="fixme" v="consider natural=peak for the most distinct mountains in the district" />
		<tag k="name" v="Gurpmotvárgeahči" />
		<tag k="name:se" v="Gurpmotvárgeahči" />
		<tag k="natural" v="hill" />
		<tag k="old_name:se" v="Gurbmutvargæčči" />
		<tag k="place" v="locality" />
		<tag k="ssr:stedsnr" v="565309" />
	</node>
	<node lat="70.1416138873246" lon="22.651941597981914" id="-37231">
		<tag k="name" v="Livllevággi" />
		<tag k="name:se" v="Livllevággi" />
		<tag k="natural" v="valley" />
		<tag k="old_name:se" v="Livlevaggi" />
		<tag k="place" v="locality" />
		<tag k="ssr:stedsnr" v="565407" />
	</node>
	<node lat="69.98721666791975" lon="23.305197121946268" id="-37235">
		<tag k="name" v="Innerberget" />
		<tag k="natural" v="hill" />
		<tag k="place" v="locality" />
		<tag k="ssr:stedsnr" v="565463" />
	</node>
	<node lat="70.09348611419833" lon="22.98820827317926" id="-37238">
		<tag k="name" v="Storberget" />
		<tag k="natural" v="hill" />
		<tag k="place" v="locality" />
		<tag k="ssr:stedsnr" v="565720" />
	</node>
	<node lat="70.19322222244136" lon="23.307647150251796" id="-37240">
		<tag k="fixme" v="consider natural=peak for the most distinct mountains in the district" />
		<tag k="name" v="Storskredfjellet" />
		<tag k="natural" v="hill" />
		<tag k="place" v="locality" />
		<tag k="ssr:stedsnr" v="565695" />
	</node>
	<node lat="70.19688611348282" lon="22.837816597435722" id="-37241">
		<tag k="name" v="Njuorjjogohvággi" />
		<tag k="name:se" v="Njuorjjogohvággi" />
		<tag k="natural" v="valley" />
		<tag k="old_name:se" v="Njuorjugåpvaggi" />
		<tag k="place" v="locality" />
		<tag k="ssr:stedsnr" v="565696" />
	</node>
	<node lat="69.94267222261712" lon="23.76192488128935" id="-37242">
		<tag k="name" v="Laukdalen - Lávkevuopmi" />
		<tag k="name:no" v="Laukdalen" />
		<tag k="name:se" v="Lávkevuopmi" />
		<tag k="natural" v="valley" />
		<tag k="old_name:se" v="Lavkevuobmi" />
		<tag k="place" v="locality" />
		<tag k="ssr:stedsnr" v="565697" />
	</node>
	<node lat="69.83436944819347" lon="24.16073041652668" id="-37243">
		<tag k="fixme" v="consider natural=peak for the most distinct mountains in the district" />
		<tag k="name" v="Ildfoten - Dollajuolgi" />
		<tag k="name:no" v="Ildfoten" />
		<tag k="name:se" v="Dollajuolgi" />
		<tag k="natural" v="hill" />
		<tag k="old_name:se" v="Dållajuolgi" />
		<tag k="place" v="locality" />
		<tag k="ssr:stedsnr" v="565699" />
	</node>
	<node lat="70.04132222385861" lon="23.416311010013718" id="-37248">
		<tag k="fixme" v="consider natural=peak for the most distinct mountains in the district" />
		<tag k="name" v="Sommerfjellet - Gihccevárri" />
		<tag k="name:no" v="Sommerfjellet" />
		<tag k="name:se" v="Gihccevárri" />
		<tag k="natural" v="hill" />
		<tag k="place" v="locality" />
		<tag k="ssr:stedsnr" v="565909" />
	</node>
	<node lat="70.1309611122725" lon="23.37508602102298" id="-37251">
		<tag k="name" v="Karihollet" />
		<tag k="natural" v="gorge" />
		<tag k="ssr:stedsnr" v="693028" />
	</node>
	<node lat="69.9843500002589" lon="23.532216579165294" id="-37254">
		<tag k="name" v="Himmeldalen" />
		<tag k="natural" v="valley" />
		<tag k="place" v="locality" />
		<tag k="ssr:stedsnr" v="693019" />
	</node>
	<node lat="69.9912472246213" lon="23.28658879756612" id="-37259">
		<tag k="name" v="Lamsgoppe" />
		<tag k="place" v="locality" />
		<tag k="ssr:stedsnr" v="693278" />
	</node>
	<node lat="69.9394361142707" lon="23.02184992152321" id="-37260">
		<tag k="fixme" v="consider natural=peak for the most distinct mountains in the district" />
		<tag k="name" v="Lillefjellet" />
		<tag k="natural" v="hill" />
		<tag k="place" v="locality" />
		<tag k="ssr:stedsnr" v="693280" />
	</node>
	<node lat="70.36910833838982" lon="23.02357215333498" id="-37266">
		<tag k="fixme" v="consider natural=peak for the most distinct mountains in the district" />
		<tag k="name" v="Kufjordtind - Gárdegáisá" />
		<tag k="name:no" v="Kufjordtind" />
		<tag k="name:se" v="Gárdegáisá" />
		<tag k="natural" v="hill" />
		<tag k="old_name:se" v="Gardegaisa" />
		<tag k="place" v="locality" />
		<tag k="ssr:stedsnr" v="570016" />
	</node>
	<node lat="69.85010555920348" lon="22.921988825071352" id="-37267">
		<tag k="name" v="Heggholla" />
		<tag k="natural" v="valley" />
		<tag k="place" v="locality" />
		<tag k="ssr:stedsnr" v="571145" />
	</node>
	<node lat="70.0339583395023" lon="22.976666602973232" id="-37273">
		<tag k="name" v="Tinahaugen" />
		<tag k="natural" v="hill" />
		<tag k="place" v="locality" />
		<tag k="ssr:stedsnr" v="571056" />
	</node>
	<node lat="70.3320583382606" lon="22.839008278788263" id="-37277">
		<tag k="fixme" v="consider natural=peak for the most distinct mountains in the district" />
		<tag k="name" v="Aleanderfjell" />
		<tag k="natural" v="hill" />
		<tag k="place" v="locality" />
		<tag k="ssr:stedsnr" v="571849" />
	</node>
	<node lat="70.33147500265783" lon="22.785016593702515" id="-37282">
		<tag k="fixme" v="consider natural=peak for the most distinct mountains in the district" />
		<tag k="name" v="Uffir" />
		<tag k="name:se" v="Uffir" />
		<tag k="natural" v="hill" />
		<tag k="place" v="locality" />
		<tag k="ssr:stedsnr" v="571798" />
	</node>
	<node lat="70.16931667011234" lon="23.38469157531757" id="-37284">
		<tag k="name" v="Kuelvdalen" />
		<tag k="natural" v="valley" />
		<tag k="place" v="locality" />
		<tag k="ssr:stedsnr" v="571940" />
	</node>
	<node lat="70.22160000479103" lon="23.76854156307455" id="-37286">
		<tag k="fixme" v="consider natural=peak for the most distinct mountains in the district" />
		<tag k="name" v="Veifjellet - Geaidnočohkka" />
		<tag k="name:no" v="Veifjellet" />
		<tag k="name:se" v="Geaidnočohkka" />
		<tag k="natural" v="hill" />
		<tag k="place" v="locality" />
		<tag k="ssr:stedsnr" v="693833" />
	</node>
	<node lat="70.22776389053134" lon="23.4740165842099" id="-37288">
		<tag k="fixme" v="consider natural=peak for the most distinct mountains in the district" />
		<tag k="name" v="Buollánvárri" />
		<tag k="name:se" v="Buollánvárri" />
		<tag k="natural" v="hill" />
		<tag k="place" v="locality" />
		<tag k="ssr:stedsnr" v="693846" />
	</node>
	<node lat="70.17110556087434" lon="23.27196936423567" id="-37294">
		<tag k="name" v="Gistogurra" />
		<tag k="name:se" v="Gistogurra" />
		<tag k="natural" v="valley" />
		<tag k="place" v="locality" />
		<tag k="ssr:stedsnr" v="572614" />
	</node>
	<node lat="69.91536666958508" lon="23.482655468337004" id="-37298">
		<tag k="name" v="Gammelsetermoen" />
		<tag k="place" v="locality" />
		<tag k="ssr:stedsnr" v="694087" />
	</node>
	<node lat="69.98065000461064" lon="22.366352734716887" id="-37302">
		<tag k="fixme" v="consider natural=peak for the most distinct mountains in the district" />
		<tag k="name" v="Nasen" />
		<tag k="natural" v="hill" />
		<tag k="place" v="locality" />
		<tag k="ssr:stedsnr" v="574256" />
	</node>
	<node lat="69.8329277775285" lon="23.331074918078492" id="-37305">
		<tag k="name" v="Moselia" />
		<tag k="natural" v="slope" />
		<tag k="place" v="locality" />
		<tag k="ssr:stedsnr" v="694365" />
	</node>
	<node lat="70.30515555815431" lon="23.488227685695936" id="-37312">
		<tag k="fixme" v="consider natural=peak for the most distinct mountains in the district" />
		<tag k="name" v="Linnesfjellet - Liinnavárri" />
		<tag k="name:no" v="Linnesfjellet" />
		<tag k="name:se" v="Liinnavárri" />
		<tag k="natural" v="hill" />
		<tag k="place" v="locality" />
		<tag k="ssr:stedsnr" v="694853" />
	</node>
	<node lat="69.88794722782693" lon="23.440805468691355" id="-37329">
		<tag k="name" v="Stuoraluhppu" />
		<tag k="name:se" v="Stuoraluhppu" />
		<tag k="natural" v="valley" />
		<tag k="place" v="locality" />
		<tag k="ssr:stedsnr" v="605259" />
	</node>
	<node lat="70.33402500026723" lon="22.72303048657912" id="-37330">
		<tag k="name" v="Pipparoalgi" />
		<tag k="name:se" v="Pipparoalgi" />
		<tag k="place" v="locality" />
		<tag k="ssr:stedsnr" v="605409" />
	</node>
	<node lat="70.04822499997628" lon="22.387305501118693" id="-37342">
		<tag k="fixme" v="consider natural=peak for the most distinct mountains in the district" />
		<tag k="loc_name" v="Finjuvákkečohkka" />
		<tag k="name" v="Skredfjellet" />
		<tag k="natural" v="hill" />
		<tag k="place" v="locality" />
		<tag k="ssr:stedsnr" v="625607" />
	</node>
	<node lat="70.05196389280721" lon="22.41055272608917" id="-37343">
		<tag k="name" v="Njirran" />
		<tag k="name:se" v="Njirran" />
		<tag k="natural" v="slope" />
		<tag k="place" v="locality" />
		<tag k="ssr:stedsnr" v="625608" />
	</node>
	<node lat="69.96526666886017" lon="23.463999903888098" id="-37345">
		<tag k="name" v="Rømlingebergan - Gárgolaščohkat" />
		<tag k="name:no" v="Rømlingebergan" />
		<tag k="name:se" v="Gárgolaščohkat" />
		<tag k="natural" v="hill" />
		<tag k="place" v="locality" />
		<tag k="ssr:stedsnr" v="625658" />
	</node>
	<node lat="69.73874166719338" lon="23.535027662247764" id="-37348">
		<tag k="fixme" v="consider natural=peak for the most distinct mountains in the district" />
		<tag k="name" v="Geassesaivárri" />
		<tag k="name:se" v="Geassesaivárri" />
		<tag k="natural" v="hill" />
		<tag k="old_name:se" v="Gæssesaivarri" />
		<tag k="place" v="locality" />
		<tag k="ssr:stedsnr" v="625668" />
	</node>
	<node lat="69.75717500639347" lon="23.464849910853292" id="-37350">
		<tag k="fixme" v="consider natural=peak for the most distinct mountains in the district" />
		<tag k="name" v="Guovddášgielas" />
		<tag k="name:se" v="Guovddášgielas" />
		<tag k="natural" v="hill" />
		<tag k="old_name:se" v="Guovdašgielas" />
		<tag k="place" v="locality" />
		<tag k="ssr:stedsnr" v="625762" />
	</node>
	<node lat="70.34986944544227" lon="23.3047582459893" id="-37353">
		<tag k="name" v="Suovvavággi" />
		<tag k="name:se" v="Suovvavággi" />
		<tag k="natural" v="valley" />
		<tag k="old_name:se" v="Suovvavaggi" />
		<tag k="place" v="locality" />
		<tag k="ssr:stedsnr" v="626005" />
	</node>
	<node lat="70.35775277756898" lon="23.36899436964407" id="-37354">
		<tag k="name" v="Állevággi" />
		<tag k="name:se" v="Állevággi" />
		<tag k="natural" v="valley" />
		<tag k="old_name:se" v="Allevaggi" />
		<tag k="place" v="locality" />
		<tag k="ssr:stedsnr" v="626008" />
	</node>
	<node lat="69.97228889039074" lon="22.687147153198698" id="-37355">
		<tag k="name" v="Fáktenčohkka" />
		<tag k="name:se" v="Fáktenčohkka" />
		<tag k="natural" v="hill" />
		<tag k="old_name:se" v="Faktenčåkka" />
		<tag k="place" v="locality" />
		<tag k="ssr:stedsnr" v="626051" />
	</node>
	<node lat="69.98024722655909" lon="22.627649950428236" id="-37356">
		<tag k="fixme" v="consider natural=peak for the most distinct mountains in the district" />
		<tag k="name" v="Konespennefjellet - Ákšoalggečohkka" />
		<tag k="name:no" v="Konespennefjellet" />
		<tag k="name:se" v="Ákšoalggečohkka" />
		<tag k="natural" v="hill" />
		<tag k="old_name:se" v="Akšoalgečåkka" />
		<tag k="place" v="locality" />
		<tag k="ssr:stedsnr" v="626052" />
	</node>
	<node lat="70.13752778148721" lon="22.77689439459433" id="-37359">
		<tag k="name" v="Nordbotndalen - Olggut Ruollavággi" />
		<tag k="name:no" v="Nordbotndalen" />
		<tag k="name:se" v="Olggut Ruollavággi" />
		<tag k="natural" v="valley" />
		<tag k="old_name:se" v="Ruollavaggi, ålgot" />
		<tag k="place" v="locality" />
		<tag k="ssr:stedsnr" v="626459" />
	</node>
	<node lat="69.98971389249073" lon="22.90727493454274" id="-37360">
		<tag k="name" v="Nonskaret" />
		<tag k="natural" v="valley" />
		<tag k="place" v="locality" />
		<tag k="ssr:stedsnr" v="626507" />
	</node>
	<node lat="69.77363611527136" lon="23.004977690752675" id="-37367">
		<tag k="name" v="Garragorsa" />
		<tag k="name:se" v="Garragorsa" />
		<tag k="natural" v="valley" />
		<tag k="place" v="locality" />
		<tag k="ssr:stedsnr" v="630814" />
	</node>
	<node lat="70.0255888946686" lon="22.92027771119397" id="-37370">
		<tag k="fixme" v="consider natural=peak for the most distinct mountains in the district" />
		<tag k="name" v="Storvassfjell" />
		<tag k="natural" v="hill" />
		<tag k="place" v="locality" />
		<tag k="ssr:stedsnr" v="632006" />
	</node>
	<node lat="70.00926666764242" lon="22.88632771167698" id="-37371">
		<tag k="name" v="Temphaugdalen" />
		<tag k="natural" v="valley" />
		<tag k="place" v="locality" />
		<tag k="ssr:stedsnr" v="632015" />
	</node>
	<node lat="69.96304722845996" lon="23.119952702025497" id="-37374">
		<tag k="name" v="Kvitberget" />
		<tag k="natural" v="hill" />
		<tag k="place" v="locality" />
		<tag k="ssr:stedsnr" v="632407" />
	</node>
	<node lat="70.33046666837079" lon="22.878683281530453" id="-37378">
		<tag k="name" v="Kråkeberget" />
		<tag k="natural" v="hill" />
		<tag k="place" v="locality" />
		<tag k="ssr:stedsnr" v="632833" />
	</node>
	<node lat="70.24269167024494" lon="23.310263798537104" id="-37379">
		<tag k="name" v="Duonza" />
		<tag k="name:se" v="Duonza" />
		<tag k="natural" v="hill" />
		<tag k="place" v="locality" />
		<tag k="ssr:stedsnr" v="632906" />
	</node>
	<node lat="70.25907777919713" lon="23.343780466787734" id="-37380">
		<tag k="name" v="Rakaluftdalen" />
		<tag k="natural" v="valley" />
		<tag k="place" v="locality" />
		<tag k="ssr:stedsnr" v="632924" />
	</node>
	<node lat="70.29285000532714" lon="23.595536008100368" id="-37384">
		<tag k="name" v="Sjurberget" />
		<tag k="natural" v="hill" />
		<tag k="place" v="locality" />
		<tag k="ssr:stedsnr" v="633190" />
	</node>
	<node lat="70.3187972258374" lon="23.549024898473572" id="-37385">
		<tag k="fixme" v="consider natural=peak for the most distinct mountains in the district" />
		<tag k="name" v="Sankthanshaugen - Idnetčohkka" />
		<tag k="name:no" v="Sankthanshaugen" />
		<tag k="name:se" v="Idnetčohkka" />
		<tag k="natural" v="hill" />
		<tag k="place" v="locality" />
		<tag k="ssr:stedsnr" v="633195" />
	</node>
	<node lat="69.9413749997656" lon="22.455244382875495" id="-37395">
		<tag k="fixme" v="consider natural=peak for the most distinct mountains in the district" />
		<tag k="name" v="Tverrfjellet" />
		<tag k="natural" v="hill" />
		<tag k="place" v="locality" />
		<tag k="ssr:stedsnr" v="634211" />
	</node>
	<node lat="69.949561112293" lon="23.051141591121205" id="-37407">
		<tag k="fixme" v="multiple name tags, choose one and add the other to alt_name" />
		<tag k="name" v="Mánešriidi;Mánáidriidi" />
		<tag k="name:se" v="Mánešriidi;Mánáidriidi" />
		<tag k="natural" v="slope" />
		<tag k="place" v="locality" />
		<tag k="ssr:stedsnr" v="647035" />
	</node>
	<node lat="70.40390000166744" lon="23.349808249282358" id="-37416">
		<tag k="name" v="Leaibevuongiera" />
		<tag k="name:se" v="Leaibevuongiera" />
		<tag k="natural" v="slope" />
		<tag k="place" v="locality" />
		<tag k="ssr:stedsnr" v="707236" />
	</node>
	<node lat="70.30098333736589" lon="23.493894343626756" id="-37433">
		<tag k="name" v="Nihkkeroalgi" />
		<tag k="name:se" v="Nihkkeroalgi" />
		<tag k="place" v="locality" />
		<tag k="ssr:stedsnr" v="708501" />
	</node>
	<node lat="69.98788333376972" lon="23.080263808959682" id="-37454">
		<tag k="name" v="Ájavággi" />
		<tag k="name:se" v="Ájavággi" />
		<tag k="place" v="locality" />
		<tag k="ssr:stedsnr" v="891025" />
	</node>
	<node lat="70.32363611823318" lon="23.51696934535104" id="-37458">
		<tag k="name" v="Dievvá" />
		<tag k="name:se" v="Dievvá" />
		<tag k="natural" v="hill" />
		<tag k="place" v="locality" />
		<tag k="ssr:stedsnr" v="891162" />
	</node>
	<node lat="69.77234722468424" lon="23.97946097944732" id="-37460">
		<tag k="fixme" v="consider natural=peak for the most distinct mountains in the district" />
		<tag k="name" v="Hoaŋka" />
		<tag k="name:se" v="Hoaŋka" />
		<tag k="natural" v="hill" />
		<tag k="place" v="locality" />
		<tag k="ssr:stedsnr" v="891584" />
	</node>
	<node lat="70.18353055649966" lon="23.366766577801364" id="-37464">
		<tag k="name" v="Bajjáluokti" />
		<tag k="name:se" v="Bajjáluokti" />
		<tag k="place" v="locality" />
		<tag k="ssr:stedsnr" v="891925" />
	</node>
	<node lat="70.14274166666344" lon="23.34563323606768" id="-37469">
		<tag k="alt_name" v="Reingården" />
		<tag k="name" v="Regngården" />
		<tag k="natural" v="hill" />
		<tag k="place" v="locality" />
		<tag k="ssr:stedsnr" v="686638" />
	</node>
	<node lat="70.08614166595557" lon="22.435886048384695" id="-37471">
		<tag k="name" v="Bjørndalen - Ájjágohpi" />
		<tag k="name:no" v="Bjørndalen" />
		<tag k="name:se" v="Ájjágohpi" />
		<tag k="natural" v="valley" />
		<tag k="place" v="locality" />
		<tag k="ssr:stedsnr" v="686537" />
	</node>
	<node lat="70.35615833865103" lon="23.283324915718183" id="-37479">
		<tag k="fixme" v="consider natural=peak for the most distinct mountains in the district" />
		<tag k="name" v="Dáččanjunit" />
		<tag k="name:se" v="Dáččanjunit" />
		<tag k="natural" v="hill" />
		<tag k="old_name:se" v="Dažžanjunit" />
		<tag k="place" v="locality" />
		<tag k="ssr:stedsnr" v="687006" />
	</node>
	<node lat="70.26119722050107" lon="22.679366609524365" id="-37483">
		<tag k="name" v="Sommarbuktdalen - Geassevággi" />
		<tag k="name:no" v="Sommarbuktdalen" />
		<tag k="name:se" v="Geassevággi" />
		<tag k="natural" v="valley" />
		<tag k="old_name:se" v="Gæssevaggi" />
		<tag k="place" v="locality" />
		<tag k="ssr:stedsnr" v="687104" />
	</node>
	<node lat="69.77259166746819" lon="23.071277707108926" id="-37485">
		<tag k="name" v="Vuoldávži" />
		<tag k="name:se" v="Vuoldávži" />
		<tag k="natural" v="valley" />
		<tag k="old_name:se" v="Vuoldavži" />
		<tag k="place" v="locality" />
		<tag k="ssr:stedsnr" v="687290" />
	</node>
	<node lat="70.19098056193222" lon="23.410908250421787" id="-37488">
		<tag k="fixme" v="consider natural=peak for the most distinct mountains in the district" />
		<tag k="name" v="Heastavárri" />
		<tag k="name:se" v="Heastavárri" />
		<tag k="natural" v="hill" />
		<tag k="old_name:se" v="Hæstavarri" />
		<tag k="place" v="locality" />
		<tag k="ssr:stedsnr" v="687690" />
	</node>
	<node lat="70.07192778276956" lon="22.92779716581326" id="-37493">
		<tag k="fixme" v="consider natural=peak for the most distinct mountains in the district" />
		<tag k="name" v="Bjørnfjellet" />
		<tag k="natural" v="hill" />
		<tag k="place" v="locality" />
		<tag k="ssr:stedsnr" v="687708" />
	</node>
	<node lat="70.06563333781821" lon="23.43209990740467" id="-37497">
		<tag k="fixme" v="consider natural=peak for the most distinct mountains in the district" />
		<tag k="name" v="Tommelfingertoppen - Bealgeoaivvit - Penkiloivi" />
		<tag k="name:fkv" v="Penkiloivi" />
		<tag k="name:no" v="Tommelfingertoppen" />
		<tag k="name:se" v="Bealgeoaivvit" />
		<tag k="natural" v="hill" />
		<tag k="place" v="locality" />
		<tag k="ssr:stedsnr" v="687883" />
	</node>
	<node lat="70.33034999846286" lon="23.14041102958893" id="-37498">
		<tag k="name" v="Grytdalshaugen" />
		<tag k="natural" v="hill" />
		<tag k="place" v="locality" />
		<tag k="ssr:stedsnr" v="687884" />
	</node>
	<node lat="70.31831111238904" lon="22.805761053608755" id="-37502">
		<tag k="fixme" v="multiple name tags, choose one and add the other to alt_name; consider natural=peak for the most distinct mountains in the district" />
		<tag k="name" v="Russetinden - Ruoššačohkka;Čuođđečohkka" />
		<tag k="name:no" v="Russetinden" />
		<tag k="name:se" v="Ruoššačohkka;Čuođđečohkka" />
		<tag k="natural" v="hill" />
		<tag k="place" v="locality" />
		<tag k="ssr:stedsnr" v="688135" />
	</node>
	<node lat="70.05555833260821" lon="22.71299994798499" id="-37503">
		<tag k="fixme" v="consider natural=peak for the most distinct mountains in the district" />
		<tag k="name" v="Ulvsvågtinden - Ulddaščohkka" />
		<tag k="name:no" v="Ulvsvågtinden" />
		<tag k="name:se" v="Ulddaščohkka" />
		<tag k="natural" v="hill" />
		<tag k="old_name:se" v="Uldaščåkka" />
		<tag k="place" v="locality" />
		<tag k="ssr:stedsnr" v="691482" />
	</node>
	<node lat="69.91742222352026" lon="22.9862860463921" id="-37508">
		<tag k="name" v="Essen" />
		<tag k="natural" v="slope" />
		<tag k="place" v="locality" />
		<tag k="ssr:stedsnr" v="693170" />
	</node>
	<node lat="69.88525556159541" lon="23.193988815456176" id="-37509">
		<tag k="name" v="Klerckedalen" />
		<tag k="natural" v="valley" />
		<tag k="place" v="locality" />
		<tag k="ssr:stedsnr" v="693405" />
	</node>
	<node lat="69.88912500046223" lon="23.1712915900361" id="-37510">
		<tag k="name" v="Skrea" />
		<tag k="natural" v="cliff" />
		<tag k="ssr:stedsnr" v="693412" />
	</node>
	<node lat="70.34200278290169" lon="22.789455506127855" id="-37515">
		<tag k="name" v="Lille Jorban" />
		<tag k="natural" v="hill" />
		<tag k="place" v="locality" />
		<tag k="ssr:stedsnr" v="693815" />
	</node>
	<node lat="70.34212778069968" lon="22.7876554848749" id="-37516">
		<tag k="name" v="Mørkedalen" />
		<tag k="natural" v="valley" />
		<tag k="place" v="locality" />
		<tag k="ssr:stedsnr" v="693821" />
	</node>
	<node lat="69.91270833206133" lon="23.466216578638633" id="-37519">
		<tag k="name" v="Isberglia" />
		<tag k="natural" v="slope" />
		<tag k="place" v="locality" />
		<tag k="ssr:stedsnr" v="694085" />
	</node>
	<node lat="70.20421667083825" lon="23.223741584661" id="-37527">
		<tag k="name" v="Mellombakken" />
		<tag k="natural" v="slope" />
		<tag k="place" v="locality" />
		<tag k="ssr:stedsnr" v="696365" />
	</node>
	<node lat="70.20272222306608" lon="23.210555465059226" id="-37529">
		<tag k="name" v="Skjærneshaugan" />
		<tag k="natural" v="hill" />
		<tag k="place" v="locality" />
		<tag k="ssr:stedsnr" v="696369" />
	</node>
	<node lat="70.34089999758729" lon="23.089936043295832" id="-37532">
		<tag k="fixme" v="consider natural=peak for the most distinct mountains in the district" />
		<tag k="name" v="Hamnetind" />
		<tag k="natural" v="hill" />
		<tag k="place" v="locality" />
		<tag k="ssr:stedsnr" v="700482" />
	</node>
	<node lat="69.76034444477281" lon="23.849330443381447" id="-37536">
		<tag k="fixme" v="consider natural=peak for the most distinct mountains in the district" />
		<tag k="name" v="Jokŋavárri" />
		<tag k="name:se" v="Jokŋavárri" />
		<tag k="natural" v="hill" />
		<tag k="place" v="locality" />
		<tag k="ssr:stedsnr" v="706863" />
	</node>
	<node lat="70.13502222264752" lon="23.587230464937438" id="-37540">
		<tag k="fixme" v="consider natural=peak for the most distinct mountains in the district" />
		<tag k="name" v="Gožžabávtdarddit" />
		<tag k="name:se" v="Gožžabávtdarddit" />
		<tag k="natural" v="hill" />
		<tag k="place" v="locality" />
		<tag k="ssr:stedsnr" v="708318" />
	</node>
	<node lat="70.13708055481932" lon="23.601897135780693" id="-37541">
		<tag k="fixme" v="consider natural=peak for the most distinct mountains in the district" />
		<tag k="name" v="Gožžabávthárjjit" />
		<tag k="name:se" v="Gožžabávthárjjit" />
		<tag k="natural" v="hill" />
		<tag k="place" v="locality" />
		<tag k="ssr:stedsnr" v="708321" />
	</node>
	<node lat="70.34068889382581" lon="23.277447135941813" id="-37542">
		<tag k="name" v="Dimbbargurra" />
		<tag k="name:se" v="Dimbbargurra" />
		<tag k="natural" v="slope" />
		<tag k="place" v="locality" />
		<tag k="ssr:stedsnr" v="708322" />
	</node>
	<node lat="69.92827222853329" lon="23.667433231372158" id="-37543">
		<tag k="fixme" v="consider natural=peak for the most distinct mountains in the district" />
		<tag k="name" v="Sáltečohkka" />
		<tag k="name:se" v="Sáltečohkka" />
		<tag k="natural" v="hill" />
		<tag k="place" v="locality" />
		<tag k="ssr:stedsnr" v="708389" />
	</node>
	<node lat="69.6891833358534" lon="22.740291591237142" id="-37563">
		<tag k="fixme" v="consider natural=peak for the most distinct mountains in the district" />
		<tag k="name" v="Stuora Rávdooaivi" />
		<tag k="name:se" v="Stuora Rávdooaivi" />
		<tag k="natural" v="hill" />
		<tag k="old_name:se" v="Ravduoaivi, stuora" />
		<tag k="place" v="locality" />
		<tag k="ssr:stedsnr" v="746816" />
	</node>
	<node lat="70.3664166671" lon="23.285997139740843" id="-37564">
		<tag k="fixme" v="consider natural=peak for the most distinct mountains in the district" />
		<tag k="name" v="Nihkkavárri" />
		<tag k="name:se" v="Nihkkavárri" />
		<tag k="natural" v="hill" />
		<tag k="old_name:se" v="Nikkavarri" />
		<tag k="place" v="locality" />
		<tag k="ssr:stedsnr" v="747008" />
	</node>
	<node lat="70.37327500446773" lon="23.076422154370192" id="-37565">
		<tag k="name" v="Stuorariidi" />
		<tag k="name:se" v="Stuorariidi" />
		<tag k="natural" v="slope" />
		<tag k="place" v="locality" />
		<tag k="ssr:stedsnr" v="747010" />
	</node>
	<node lat="69.95607777960146" lon="23.039716591675425" id="-37570">
		<tag k="name" v="Hansenhaugen" />
		<tag k="natural" v="hill" />
		<tag k="place" v="locality" />
		<tag k="ssr:stedsnr" v="747370" />
	</node>
	<node lat="70.07950000369883" lon="22.604605507791188" id="-37572">
		<tag k="alt_name" v="Håkjerringberga" />
		<tag k="name" v="Håkjerringbergan" />
		<tag k="natural" v="hill" />
		<tag k="place" v="locality" />
		<tag k="ssr:stedsnr" v="747509" />
	</node>
	<node lat="69.93385000122107" lon="23.512747132508746" id="-37576">
		<tag k="name" v="Borraslia - Boahráluohkká" />
		<tag k="name:no" v="Borraslia" />
		<tag k="name:se" v="Boahráluohkká" />
		<tag k="natural" v="slope" />
		<tag k="place" v="locality" />
		<tag k="ssr:stedsnr" v="747672" />
	</node>
	<node lat="70.03411389148847" lon="22.893308264914612" id="-37578">
		<tag k="fixme" v="consider natural=peak for the most distinct mountains in the district" />
		<tag k="name" v="Bjørkelitind" />
		<tag k="natural" v="hill" />
		<tag k="place" v="locality" />
		<tag k="ssr:stedsnr" v="747808" />
	</node>
	<node lat="69.77494166856943" lon="24.068063765556776" id="-37580">
		<tag k="name" v="Storskaret - Stuoranjoaski" />
		<tag k="name:no" v="Storskaret" />
		<tag k="name:se" v="Stuoranjoaski" />
		<tag k="natural" v="valley" />
		<tag k="place" v="locality" />
		<tag k="ssr:stedsnr" v="747711" />
	</node>
	<node lat="70.02748889083679" lon="23.320680473909903" id="-37581">
		<tag k="alt_name" v="Raudberget" />
		<tag k="name" v="Rødberget" />
		<tag k="natural" v="hill" />
		<tag k="place" v="locality" />
		<tag k="ssr:stedsnr" v="747765" />
	</node>
	<node lat="70.30153611319083" lon="23.244538798762004" id="-37583">
		<tag k="name" v="Gálggovággi" />
		<tag k="name:se" v="Gálggovággi" />
		<tag k="natural" v="valley" />
		<tag k="old_name:se" v="Galguvaggi" />
		<tag k="place" v="locality" />
		<tag k="ssr:stedsnr" v="747911" />
	</node>
	<node lat="70.30436667192566" lon="23.68398324520152" id="-37585">
		<tag k="fixme" v="consider natural=peak for the most distinct mountains in the district" />
		<tag k="name" v="Násterášša" />
		<tag k="name:se" v="Násterášša" />
		<tag k="natural" v="hill" />
		<tag k="old_name:se" v="Nasterašša" />
		<tag k="place" v="locality" />
		<tag k="ssr:stedsnr" v="748804" />
	</node>
	<node lat="70.30283889353137" lon="23.52019434451996" id="-37586">
		<tag k="name" v="Bordefjell - Gearddabákti" />
		<tag k="name:no" v="Bordefjell" />
		<tag k="name:se" v="Gearddabákti" />
		<tag k="natural" v="hill" />
		<tag k="old_name:se" v="Gærdalbakti" />
		<tag k="place" v="locality" />
		<tag k="ssr:stedsnr" v="748805" />
	</node>
	<node lat="70.03488333168703" lon="22.933597149130044" id="-37591">
		<tag k="name" v="Kløyvberget" />
		<tag k="natural" v="hill" />
		<tag k="place" v="locality" />
		<tag k="ssr:stedsnr" v="753162" />
	</node>
	<node lat="70.15526111683081" lon="23.479666583116682" id="-37593">
		<tag k="fixme" v="consider natural=peak for the most distinct mountains in the district" />
		<tag k="name" v="Gullfjellet - Stámpa" />
		<tag k="name:no" v="Gullfjellet" />
		<tag k="name:se" v="Stámpa" />
		<tag k="natural" v="hill" />
		<tag k="old_name:se" v="Stampa" />
		<tag k="place" v="locality" />
		<tag k="ssr:stedsnr" v="753514" />
	</node>
	<node lat="70.24385555479437" lon="23.264636025704664" id="-37597">
		<tag k="name" v="Rødbergan" />
		<tag k="natural" v="hill" />
		<tag k="place" v="locality" />
		<tag k="ssr:stedsnr" v="753908" />
	</node>
	<node lat="70.2523916733696" lon="23.296974913484352" id="-37598">
		<tag k="fixme" v="multiple name tags, choose one and add the other to alt_name; consider natural=peak for the most distinct mountains in the district" />
		<tag k="name" v="Hundhodet;Klubbfjellet" />
		<tag k="natural" v="hill" />
		<tag k="place" v="locality" />
		<tag k="ssr:stedsnr" v="753913" />
	</node>
	<node lat="70.25700000467228" lon="23.276674922744483" id="-37599">
		<tag k="name" v="Rødberget" />
		<tag k="natural" v="hill" />
		<tag k="place" v="locality" />
		<tag k="ssr:stedsnr" v="753916" />
	</node>
	<node lat="70.1731194461914" lon="23.438219344697178" id="-37600">
		<tag k="fixme" v="consider natural=peak for the most distinct mountains in the district" />
		<tag k="name" v="Slettfjellet - Jalgesvárri" />
		<tag k="name:no" v="Slettfjellet" />
		<tag k="name:se" v="Jalgesvárri" />
		<tag k="natural" v="hill" />
		<tag k="place" v="locality" />
		<tag k="ssr:stedsnr" v="753919" />
	</node>
	<node lat="70.20851944455408" lon="23.234291581073485" id="-37601">
		<tag k="name" v="Lindevag" />
		<tag k="natural" v="slope" />
		<tag k="place" v="locality" />
		<tag k="ssr:stedsnr" v="753862" />
	</node>
	<node lat="69.83959166594619" lon="23.389355466859886" id="-37603">
		<tag k="name" v="Øvre Sokelma" />
		<tag k="place" v="locality" />
		<tag k="ssr:stedsnr" v="754166" />
	</node>
	<node lat="69.97850000035385" lon="23.298766583721164" id="-37606">
		<tag k="name" v="Bekkedalen" />
		<tag k="natural" v="valley" />
		<tag k="place" v="locality" />
		<tag k="ssr:stedsnr" v="754254" />
	</node>
	<node lat="69.83275556142914" lon="23.35650268015117" id="-37611">
		<tag k="fixme" v="consider natural=peak for the most distinct mountains in the district" />
		<tag k="name" v="Kvilerfjellet" />
		<tag k="natural" v="hill" />
		<tag k="place" v="locality" />
		<tag k="ssr:stedsnr" v="754417" />
	</node>
	<node lat="70.11167222686335" lon="23.41583880106717" id="-37614">
		<tag k="name" v="Joengberget" />
		<tag k="natural" v="hill" />
		<tag k="place" v="locality" />
		<tag k="ssr:stedsnr" v="754516" />
	</node>
	<node lat="69.86412500440245" lon="23.305913797964156" id="-37615">
		<tag k="name" v="Øvre Stengelsmoen" />
		<tag k="place" v="locality" />
		<tag k="ssr:stedsnr" v="754712" />
	</node>
	<node lat="69.91820278335231" lon="23.29199157689666" id="-37616">
		<tag k="name" v="Lamasmoen" />
		<tag k="place" v="locality" />
		<tag k="ssr:stedsnr" v="754748" />
	</node>
	<node lat="69.99831389169694" lon="22.709458273269842" id="-37619">
		<tag k="fixme" v="consider natural=peak for the most distinct mountains in the district" />
		<tag k="name" v="Vardfjellet" />
		<tag k="natural" v="hill" />
		<tag k="place" v="locality" />
		<tag k="ssr:stedsnr" v="756205" />
	</node>
	<node lat="69.93476944651498" lon="23.123349929484828" id="-37626">
		<tag k="name" v="Fiotkibávti" />
		<tag k="name:se" v="Fiotkibávti" />
		<tag k="natural" v="hill" />
		<tag k="place" v="locality" />
		<tag k="ssr:stedsnr" v="769044" />
	</node>
	<node lat="70.31085277890583" lon="22.776594390840632" id="-37641">
		<tag k="name" v="Jávrrivággi" />
		<tag k="name:se" v="Jávrrivággi" />
		<tag k="natural" v="valley" />
		<tag k="place" v="locality" />
		<tag k="ssr:stedsnr" v="909691" />
	</node>
	<node lat="70.31918611309594" lon="22.71284994828223" id="-37644">
		<tag k="name" v="Čearretoalgi" />
		<tag k="name:se" v="Čearretoalgi" />
		<tag k="place" v="locality" />
		<tag k="ssr:stedsnr" v="787703" />
	</node>
	<node lat="70.33025555828844" lon="22.693994399138198" id="-37645">
		<tag k="name" v="Hávnnavággi" />
		<tag k="name:se" v="Hávnnavággi" />
		<tag k="natural" v="valley" />
		<tag k="place" v="locality" />
		<tag k="ssr:stedsnr" v="787705" />
	</node>
	<node lat="69.78055000385187" lon="23.931072088199457" id="-37647">
		<tag k="fixme" v="consider natural=peak for the most distinct mountains in the district" />
		<tag k="name" v="Ceavnniduottar" />
		<tag k="name:se" v="Ceavnniduottar" />
		<tag k="natural" v="hill" />
		<tag k="place" v="locality" />
		<tag k="ssr:stedsnr" v="788263" />
	</node>
	<node lat="70.08198889004315" lon="22.758697168736635" id="-37649">
		<tag k="name" v="Isakdalen" />
		<tag k="natural" v="valley" />
		<tag k="place" v="locality" />
		<tag k="ssr:stedsnr" v="808508" />
	</node>
	<node lat="70.08617500193067" lon="22.36369995840743" id="-37650">
		<tag k="fixme" v="consider natural=peak for the most distinct mountains in the district" />
		<tag k="name" v="Høgfjellet" />
		<tag k="natural" v="hill" />
		<tag k="place" v="locality" />
		<tag k="ssr:stedsnr" v="808516" />
	</node>
	<node lat="70.09317500092202" lon="22.443049939492358" id="-37651">
		<tag k="fixme" v="consider natural=peak for the most distinct mountains in the district" />
		<tag k="name" v="Storfjellet" />
		<tag k="natural" v="hill" />
		<tag k="place" v="locality" />
		<tag k="ssr:stedsnr" v="808521" />
	</node>
	<node lat="70.12262222156176" lon="22.61260270803994" id="-37652">
		<tag k="alt_name:se" v="Jierranjunni" />
		<tag k="fixme" v="consider natural=peak for the most distinct mountains in the district" />
		<tag k="name" v="Jieranjunni" />
		<tag k="name:se" v="Jieranjunni" />
		<tag k="natural" v="hill" />
		<tag k="place" v="locality" />
		<tag k="ssr:stedsnr" v="808542" />
	</node>
	<node lat="69.79634445093339" lon="23.00864991727647" id="-37653">
		<tag k="fixme" v="consider natural=peak for the most distinct mountains in the district" />
		<tag k="name" v="Vuossogálvárri" />
		<tag k="name:se" v="Vuossogálvárri" />
		<tag k="natural" v="hill" />
		<tag k="old_name:se" v="Vuassugalvarri" />
		<tag k="place" v="locality" />
		<tag k="ssr:stedsnr" v="808289" />
	</node>
	<node lat="69.99766944453748" lon="22.902191584884132" id="-37656">
		<tag k="name" v="Storlia" />
		<tag k="natural" v="slope" />
		<tag k="place" v="locality" />
		<tag k="ssr:stedsnr" v="808453" />
	</node>
	<node lat="70.06461666883177" lon="22.788433260924453" id="-37657">
		<tag k="fixme" v="consider natural=peak for the most distinct mountains in the district" />
		<tag k="name" v="Gierdduidčohkat" />
		<tag k="name:se" v="Gierdduidčohkat" />
		<tag k="natural" v="hill" />
		<tag k="old_name:se" v="Gierdoidčåkkat" />
		<tag k="place" v="locality" />
		<tag k="ssr:stedsnr" v="808488" />
	</node>
	<node lat="70.15898055527433" lon="23.30450825664932" id="-37660">
		<tag k="alt_name" v="Øvre Halsen" />
		<tag k="fixme" v="consider natural=peak for the most distinct mountains in the district" />
		<tag k="name" v="Midterhalsen" />
		<tag k="natural" v="hill" />
		<tag k="place" v="locality" />
		<tag k="ssr:stedsnr" v="808641" />
	</node>
	<node lat="70.1652194439881" lon="22.90779993144733" id="-37661">
		<tag k="alt_name" v="Raudbergan" />
		<tag k="name" v="Rødbergan" />
		<tag k="natural" v="hill" />
		<tag k="place" v="locality" />
		<tag k="ssr:stedsnr" v="808642" />
	</node>
	<node lat="69.84220000602666" lon="23.544055461655283" id="-37662">
		<tag k="fixme" v="consider natural=peak for the most distinct mountains in the district" />
		<tag k="name" v="Ráhpesgámasvárri" />
		<tag k="name:se" v="Ráhpesgámasvárri" />
		<tag k="natural" v="hill" />
		<tag k="old_name:se" v="Rappesgamasvarri" />
		<tag k="place" v="locality" />
		<tag k="ssr:stedsnr" v="808644" />
	</node>
	<node lat="69.75763333411058" lon="24.0303526396609" id="-37663">
		<tag k="name" v="Dødningkløften - Jámetgorsa" />
		<tag k="name:no" v="Dødningkløften" />
		<tag k="name:se" v="Jámetgorsa" />
		<tag k="natural" v="valley" />
		<tag k="place" v="locality" />
		<tag k="ssr:stedsnr" v="808700" />
	</node>
	<node lat="70.20548055799436" lon="23.645447134537363" id="-37664">
		<tag k="fixme" v="consider natural=peak for the most distinct mountains in the district" />
		<tag k="name" v="Jievjarášša" />
		<tag k="name:se" v="Jievjarášša" />
		<tag k="natural" v="hill" />
		<tag k="old_name:se" v="Jievjarašša" />
		<tag k="place" v="locality" />
		<tag k="ssr:stedsnr" v="808854" />
	</node>
	<node lat="69.95610000601008" lon="24.08621376196638" id="-37666">
		<tag k="fixme" v="consider natural=peak for the most distinct mountains in the district" />
		<tag k="name" v="Ruhkkoaivi" />
		<tag k="name:se" v="Ruhkkoaivi" />
		<tag k="natural" v="hill" />
		<tag k="old_name:se" v="Rukkoaivi" />
		<tag k="place" v="locality" />
		<tag k="ssr:stedsnr" v="808743" />
	</node>
	<node lat="70.32489722442065" lon="23.144094372137413" id="-37671">
		<tag k="loc_name:se" v="Ruitovággi" />
		<tag k="name" v="Grytdalen" />
		<tag k="name:no" v="Grytdalen" />
		<tag k="natural" v="valley" />
		<tag k="place" v="locality" />
		<tag k="ssr:stedsnr" v="808906" />
	</node>
	<node lat="70.35867777821721" lon="22.761969372288593" id="-37673">
		<tag k="fixme" v="consider natural=peak for the most distinct mountains in the district" />
		<tag k="name" v="Láddovárri" />
		<tag k="name:se" v="Láddovárri" />
		<tag k="natural" v="hill" />
		<tag k="old_name:se" v="Ladduvarri" />
		<tag k="place" v="locality" />
		<tag k="ssr:stedsnr" v="809173" />
	</node>
	<node lat="70.38652482967233" lon="22.769522353851773" id="-37674">
		<tag k="fixme" v="consider natural=peak for the most distinct mountains in the district" />
		<tag k="name" v="Kjerringfjordklubben - Várjevuonneret" />
		<tag k="name:no" v="Kjerringfjordklubben" />
		<tag k="name:se" v="Várjevuonneret" />
		<tag k="natural" v="hill" />
		<tag k="place" v="locality" />
		<tag k="ssr:stedsnr" v="809193" />
	</node>
	<node lat="70.26987222363208" lon="23.46346380530729" id="-37676">
		<tag k="fixme" v="consider natural=peak for the most distinct mountains in the district" />
		<tag k="name" v="Mihkkalvárri" />
		<tag k="name:se" v="Mihkkalvárri" />
		<tag k="natural" v="hill" />
		<tag k="old_name:se" v="Mikkalvarri" />
		<tag k="place" v="locality" />
		<tag k="ssr:stedsnr" v="809809" />
	</node>
	<node lat="69.934463889035" lon="23.0222165871392" id="-37677">
		<tag k="fixme" v="consider natural=peak for the most distinct mountains in the district" />
		<tag k="name" v="Karl Johan" />
		<tag k="natural" v="hill" />
		<tag k="place" v="locality" />
		<tag k="ssr:stedsnr" v="813929" />
	</node>
	<node lat="70.00643055958514" lon="22.490858272124317" id="-37680">
		<tag k="fixme" v="consider natural=peak for the most distinct mountains in the district" />
		<tag k="name" v="Lassefjellet - Noaidi" />
		<tag k="name:no" v="Lassefjellet" />
		<tag k="name:se" v="Noaidi" />
		<tag k="natural" v="hill" />
		<tag k="place" v="locality" />
		<tag k="ssr:stedsnr" v="814024" />
	</node>
	<node lat="70.05624166939285" lon="22.885666604801038" id="-37681">
		<tag k="fixme" v="consider natural=peak for the most distinct mountains in the district" />
		<tag k="name" v="Gjerdefjellet" />
		<tag k="natural" v="hill" />
		<tag k="place" v="locality" />
		<tag k="ssr:stedsnr" v="814030" />
	</node>
	<node lat="69.94212500699557" lon="23.444130457148503" id="-37683">
		<tag k="fixme" v="consider natural=peak for the most distinct mountains in the district" />
		<tag k="name" v="Bronsiberget" />
		<tag k="natural" v="hill" />
		<tag k="place" v="locality" />
		<tag k="ssr:stedsnr" v="814090" />
	</node>
	<node lat="70.10006111342628" lon="23.397161027817003" id="-37684">
		<tag k="name" v="Småhaugan" />
		<tag k="natural" v="hill" />
		<tag k="place" v="locality" />
		<tag k="ssr:stedsnr" v="814503" />
	</node>
	<node lat="70.20160278268737" lon="23.224136047519796" id="-37687">
		<tag k="name" v="Losvaraksla" />
		<tag k="place" v="locality" />
		<tag k="ssr:stedsnr" v="814879" />
	</node>
	<node lat="70.21345555492995" lon="23.209547154901756" id="-37688">
		<tag k="name" v="Grindhaugen" />
		<tag k="natural" v="hill" />
		<tag k="place" v="locality" />
		<tag k="ssr:stedsnr" v="814881" />
	</node>
	<node lat="70.21224721962462" lon="23.19635826183533" id="-37689">
		<tag k="name" v="Storhaugen" />
		<tag k="natural" v="hill" />
		<tag k="place" v="locality" />
		<tag k="ssr:stedsnr" v="814882" />
	</node>
	<node lat="70.01543056010698" lon="22.909936056617546" id="-37691">
		<tag k="name" v="Gammelstuberget" />
		<tag k="natural" v="hill" />
		<tag k="place" v="locality" />
		<tag k="ssr:stedsnr" v="815007" />
	</node>
	<node lat="70.30468889386782" lon="23.497908241022174" id="-37706">
		<tag k="name" v="Bojje" />
		<tag k="name:se" v="Bojje" />
		<tag k="natural" v="valley" />
		<tag k="place" v="locality" />
		<tag k="ssr:stedsnr" v="845788" />
	</node>
	<node lat="70.01104722122334" lon="23.043241598480684" id="-37707">
		<tag k="name" v="Melsvikdalen" />
		<tag k="natural" v="valley" />
		<tag k="place" v="locality" />
		<tag k="ssr:stedsnr" v="847832" />
	</node>
	<node lat="69.70917222268338" lon="23.32495267944761" id="-37714">
		<tag k="fixme" v="consider natural=peak for the most distinct mountains in the district" />
		<tag k="name" v="Stuoroaivi" />
		<tag k="name:se" v="Stuoroaivi" />
		<tag k="natural" v="hill" />
		<tag k="place" v="locality" />
		<tag k="ssr:stedsnr" v="928725" />
	</node>
	<node lat="69.69355555400159" lon="22.68719160108871" id="-37716">
		<tag k="fixme" v="consider natural=peak for the most distinct mountains in the district" />
		<tag k="name" v="Lille Hellefjellet - Unna Rávdooaivváš" />
		<tag k="name:no" v="Lille Hellefjellet" />
		<tag k="name:se" v="Unna Rávdooaivváš" />
		<tag k="natural" v="hill" />
		<tag k="old_name:se" v="Ravduoaivaš, unna" />
		<tag k="place" v="locality" />
		<tag k="ssr:stedsnr" v="928843" />
	</node>
	<node lat="70.4008416651399" lon="23.141480478297687" id="-37718">
		<tag k="name" v="Elvenesdalen" />
		<tag k="natural" v="valley" />
		<tag k="place" v="locality" />
		<tag k="ssr:stedsnr" v="929024" />
	</node>
	<node lat="69.90046944911464" lon="22.896672160272505" id="-37720">
		<tag k="fixme" v="consider natural=peak for the most distinct mountains in the district" />
		<tag k="name" v="Grasaksla - Rássoalgi" />
		<tag k="name:no" v="Grasaksla" />
		<tag k="name:se" v="Rássoalgi" />
		<tag k="natural" v="hill" />
		<tag k="old_name:se" v="Rassoalgi" />
		<tag k="place" v="locality" />
		<tag k="ssr:stedsnr" v="929278" />
	</node>
	<node lat="70.02823055426467" lon="23.072211033624015" id="-37721">
		<tag k="name" v="Storhaugen" />
		<tag k="natural" v="hill" />
		<tag k="place" v="locality" />
		<tag k="ssr:stedsnr" v="929759" />
	</node>
	<node lat="70.01370555940427" lon="23.06618047862679" id="-37722">
		<tag k="name" v="Skavvikhaugen" />
		<tag k="natural" v="hill" />
		<tag k="place" v="locality" />
		<tag k="ssr:stedsnr" v="929774" />
	</node>
	<node lat="69.86837222610723" lon="23.378158244539126" id="-37724">
		<tag k="fixme" v="consider natural=peak for the most distinct mountains in the district" />
		<tag k="loc_name:se" v="Buollánvárri" />
		<tag k="name" v="Buolamahaugen - Buolamavárri" />
		<tag k="name:no" v="Buolamahaugen" />
		<tag k="name:se" v="Buolamavárri" />
		<tag k="natural" v="hill" />
		<tag k="old_name:se" v="Buolamavarri" />
		<tag k="place" v="locality" />
		<tag k="ssr:stedsnr" v="929322" />
	</node>
	<node lat="69.879663895895" lon="22.96858325304498" id="-37727">
		<tag k="name" v="Bjørndalen" />
		<tag k="natural" v="valley" />
		<tag k="place" v="locality" />
		<tag k="ssr:stedsnr" v="929346" />
	</node>
	<node lat="69.91076111190614" lon="23.214386036584592" id="-37728">
		<tag k="name" v="Skoddevarremoen" />
		<tag k="place" v="locality" />
		<tag k="ssr:stedsnr" v="929297" />
	</node>
	<node lat="69.97532222183253" lon="23.259113792862426" id="-37730">
		<tag k="name" v="Tollevikbakken" />
		<tag k="natural" v="slope" />
		<tag k="place" v="locality" />
		<tag k="ssr:stedsnr" v="929378" />
	</node>
	<node lat="70.21137499906754" lon="22.658074931373015" id="-37733">
		<tag k="fixme" v="consider natural=peak for the most distinct mountains in the district" />
		<tag k="name" v="Teistberget - Rohkalvuonrášša" />
		<tag k="name:no" v="Teistberget" />
		<tag k="name:se" v="Rohkalvuonrášša" />
		<tag k="natural" v="hill" />
		<tag k="old_name:se" v="Råkkalvuonrašša" />
		<tag k="place" v="locality" />
		<tag k="ssr:stedsnr" v="929390" />
	</node>
	<node lat="70.04825278093155" lon="22.482999954388212" id="-37740">
		<tag k="alt_name:no" v="Kollarn" />
		<tag k="fixme" v="consider natural=peak for the most distinct mountains in the district" />
		<tag k="name" v="Kollern - Áhkárvákkečohkka" />
		<tag k="name:no" v="Kollern" />
		<tag k="name:se" v="Áhkárvákkečohkka" />
		<tag k="natural" v="hill" />
		<tag k="old_name:se" v="Akkarvaggečåkka" />
		<tag k="place" v="locality" />
		<tag k="ssr:stedsnr" v="929596" />
	</node>
	<node lat="69.71556111213555" lon="23.603352659966458" id="-37742">
		<tag k="name" v="Lille Bjørnhaugen - Lulit Unna Bierdnoaivváš" />
		<tag k="name:no" v="Lille Bjørnhaugen" />
		<tag k="name:se" v="Lulit Unna Bierdnoaivváš" />
		<tag k="natural" v="hill" />
		<tag k="old_name:se" v="Bierdnoaivaš, lulit" />
		<tag k="place" v="locality" />
		<tag k="ssr:stedsnr" v="929622" />
	</node>
	<node lat="69.72308888848984" lon="23.5386832407108" id="-37745">
		<tag k="fixme" v="consider natural=peak for the most distinct mountains in the district" />
		<tag k="name" v="Lássávárri" />
		<tag k="name:se" v="Lássávárri" />
		<tag k="natural" v="hill" />
		<tag k="old_name:se" v="Lassavarri" />
		<tag k="place" v="locality" />
		<tag k="ssr:stedsnr" v="929633" />
	</node>
	<node lat="69.73736111253164" lon="23.910416552534752" id="-37747">
		<tag k="fixme" v="consider natural=peak for the most distinct mountains in the district" />
		<tag k="name" v="Gjerdeåsen - Vuomagielas" />
		<tag k="name:no" v="Gjerdeåsen" />
		<tag k="name:se" v="Vuomagielas" />
		<tag k="natural" v="hill" />
		<tag k="place" v="locality" />
		<tag k="ssr:stedsnr" v="929635" />
	</node>
	<node lat="69.73083333863877" lon="23.563819346933407" id="-37749">
		<tag k="name" v="Goastebatčorru" />
		<tag k="name:se" v="Goastebatčorru" />
		<tag k="natural" v="hill" />
		<tag k="old_name:se" v="Goastebatčårro" />
		<tag k="place" v="locality" />
		<tag k="ssr:stedsnr" v="929640" />
	</node>
	<node lat="69.96926389448303" lon="23.600824894800553" id="-37750">
		<tag k="name" v="Transfarelvdalen - Gáiddošávži" />
		<tag k="name:no" v="Transfarelvdalen" />
		<tag k="name:se" v="Gáiddošávži" />
		<tag k="natural" v="valley" />
		<tag k="place" v="locality" />
		<tag k="ssr:stedsnr" v="929642" />
	</node>
	<node lat="69.88146111461235" lon="24.080216547331545" id="-37754">
		<tag k="fixme" v="consider natural=peak for the most distinct mountains in the district" />
		<tag k="name" v="Storfjellet - Stuoroaivi" />
		<tag k="name:no" v="Storfjellet" />
		<tag k="name:se" v="Stuoroaivi" />
		<tag k="natural" v="hill" />
		<tag k="place" v="locality" />
		<tag k="ssr:stedsnr" v="929676" />
	</node>
	<node lat="70.12320278173361" lon="22.933408267403877" id="-37757">
		<tag k="name" v="Čohkádju" />
		<tag k="name:se" v="Čohkádju" />
		<tag k="natural" v="slope" />
		<tag k="old_name:se" v="Čåkkaddjo" />
		<tag k="place" v="locality" />
		<tag k="ssr:stedsnr" v="929735" />
	</node>
	<node lat="70.12296389103544" lon="23.430888806580484" id="-37760">
		<tag k="fixme" v="consider natural=peak for the most distinct mountains in the district" />
		<tag k="name" v="Geitfjellet - Vuolit Gáicavárri" />
		<tag k="name:no" v="Geitfjellet" />
		<tag k="name:se" v="Vuolit Gáicavárri" />
		<tag k="natural" v="hill" />
		<tag k="place" v="locality" />
		<tag k="ssr:stedsnr" v="929740" />
	</node>
	<node lat="70.121355555874" lon="23.375894357150514" id="-37761">
		<tag k="name" v="Slåtteberget" />
		<tag k="natural" v="hill" />
		<tag k="place" v="locality" />
		<tag k="ssr:stedsnr" v="929743" />
	</node>
	<node lat="70.02845278255678" lon="23.490658243483136" id="-37764">
		<tag k="loc_name:se" v="Gumpebávti" />
		<tag k="name" v="Ulveberget" />
		<tag k="name:no" v="Ulveberget" />
		<tag k="natural" v="hill" />
		<tag k="place" v="locality" />
		<tag k="ssr:stedsnr" v="929906" />
	</node>
	<node lat="70.12606666627877" lon="23.5148665818226" id="-37765">
		<tag k="fixme" v="consider natural=peak for the most distinct mountains in the district" />
		<tag k="name" v="Kvanndalsfjellet - Hánddalvárri" />
		<tag k="name:no" v="Kvanndalsfjellet" />
		<tag k="name:se" v="Hánddalvárri" />
		<tag k="natural" v="hill" />
		<tag k="place" v="locality" />
		<tag k="ssr:stedsnr" v="929913" />
	</node>
	<node lat="70.03283889004754" lon="23.634063781577964" id="-37768">
		<tag k="fixme" v="consider natural=peak for the most distinct mountains in the district" />
		<tag k="name" v="Stuoračohkka" />
		<tag k="name:se" v="Stuoračohkka" />
		<tag k="natural" v="hill" />
		<tag k="old_name:se" v="Stuoračåkka" />
		<tag k="place" v="locality" />
		<tag k="ssr:stedsnr" v="929969" />
	</node>
	<node lat="70.11493055860088" lon="23.74077212423621" id="-37770">
		<tag k="fixme" v="consider natural=peak for the most distinct mountains in the district" />
		<tag k="name" v="Tørrfjelltoppene - Bealjáidčohkka" />
		<tag k="name:no" v="Tørrfjelltoppene" />
		<tag k="name:se" v="Bealjáidčohkka" />
		<tag k="natural" v="hill" />
		<tag k="place" v="locality" />
		<tag k="ssr:stedsnr" v="929923" />
	</node>
	<node lat="70.10275278181594" lon="23.839830453937765" id="-37771">
		<tag k="fixme" v="consider natural=peak for the most distinct mountains in the district" />
		<tag k="name" v="Goasočohkka" />
		<tag k="name:se" v="Goasočohkka" />
		<tag k="natural" v="hill" />
		<tag k="place" v="locality" />
		<tag k="ssr:stedsnr" v="929928" />
	</node>
	<node lat="70.00308055532415" lon="23.64226655335994" id="-37776">
		<tag k="name" v="Unnávži" />
		<tag k="name:se" v="Unnávži" />
		<tag k="natural" v="valley" />
		<tag k="old_name:se" v="Unnavži" />
		<tag k="place" v="locality" />
		<tag k="ssr:stedsnr" v="929989" />
	</node>
	<node lat="70.09044722097549" lon="22.350824960906856" id="-37779">
		<tag k="fixme" v="consider natural=peak for the most distinct mountains in the district" />
		<tag k="name" v="Sandfjellet" />
		<tag k="natural" v="hill" />
		<tag k="place" v="locality" />
		<tag k="ssr:stedsnr" v="868525" />
	</node>
	<node lat="69.7144388953149" lon="22.83344992625204" id="-37780">
		<tag k="fixme" v="consider natural=peak for the most distinct mountains in the district" />
		<tag k="name" v="Čuorvunvárri" />
		<tag k="name:se" v="Čuorvunvárri" />
		<tag k="natural" v="hill" />
		<tag k="old_name:se" v="Čuorvonvarri" />
		<tag k="place" v="locality" />
		<tag k="ssr:stedsnr" v="868708" />
	</node>
	<node lat="69.83304999939119" lon="23.4733693526126" id="-37781">
		<tag k="name" v="Vinamoen" />
		<tag k="place" v="locality" />
		<tag k="ssr:stedsnr" v="868609" />
	</node>
	<node lat="69.70228333751862" lon="23.811272092542072" id="-37782">
		<tag k="name" v="Jalgesgoidnesvármohkki" />
		<tag k="name:se" v="Jalgesgoidnesvármohkki" />
		<tag k="natural" v="valley" />
		<tag k="old_name:se" v="Jalgesgåidnesvarmåkki" />
		<tag k="place" v="locality" />
		<tag k="ssr:stedsnr" v="868612" />
	</node>
	<node lat="69.84065833347248" lon="23.47516935509955" id="-37783">
		<tag k="name" v="Bollolia" />
		<tag k="natural" v="slope" />
		<tag k="place" v="locality" />
		<tag k="ssr:stedsnr" v="868615" />
	</node>
	<node lat="70.36212222479324" lon="23.06132769548311" id="-37787">
		<tag k="alt_name:no" v="Raudberga" />
		<tag k="name" v="Rødbergan - Ruksesbávttit" />
		<tag k="name:no" v="Rødbergan" />
		<tag k="name:se" v="Ruksesbávttit" />
		<tag k="natural" v="hill" />
		<tag k="place" v="locality" />
		<tag k="ssr:stedsnr" v="869008" />
	</node>
	<node lat="69.98994722792133" lon="22.422891603695227" id="-37788">
		<tag k="name" v="Villreindalen - Goddevággi" />
		<tag k="name:no" v="Villreindalen" />
		<tag k="name:se" v="Goddevággi" />
		<tag k="natural" v="valley" />
		<tag k="old_name:se" v="Gåddevaggi" />
		<tag k="place" v="locality" />
		<tag k="ssr:stedsnr" v="869019" />
	</node>
	<node lat="70.38080000351013" lon="22.67796662043793" id="-37793">
		<tag k="alt_name" v="Kjerringfjordfjellet, store" />
		<tag k="fixme" v="consider natural=peak for the most distinct mountains in the district" />
		<tag k="name" v="Store Kjerringfjordfjellet" />
		<tag k="natural" v="hill" />
		<tag k="place" v="locality" />
		<tag k="ssr:stedsnr" v="930182" />
	</node>
	<node lat="69.96659722671932" lon="22.892472152002444" id="-37794">
		<tag k="fixme" v="consider natural=peak for the most distinct mountains in the district" />
		<tag k="name" v="Talviktoppen" />
		<tag k="natural" v="hill" />
		<tag k="place" v="locality" />
		<tag k="ssr:stedsnr" v="869433" />
	</node>
	<node lat="69.97584722612562" lon="23.275997142965" id="-37795">
		<tag k="fixme" v="consider natural=peak for the most distinct mountains in the district" />
		<tag k="loc_name:fkv" v="Pikku Kurra" />
		<tag k="name" v="Lille-Komsa - Uhca Gorraváráš" />
		<tag k="name:no" v="Lille-Komsa" />
		<tag k="name:se" v="Uhca Gorraváráš" />
		<tag k="natural" v="hill" />
		<tag k="place" v="locality" />
		<tag k="ssr:stedsnr" v="869437" />
	</node>
	<node lat="69.97351944694344" lon="23.322561018047285" id="-37796">
		<tag k="name" v="Storbakken" />
		<tag k="natural" v="slope" />
		<tag k="place" v="locality" />
		<tag k="ssr:stedsnr" v="869439" />
	</node>
	<node lat="70.18909444738085" lon="22.612266619388947" id="-37797">
		<tag k="fixme" v="consider natural=peak for the most distinct mountains in the district" />
		<tag k="name" v="Juhánavárri" />
		<tag k="name:se" v="Juhánavárri" />
		<tag k="natural" v="hill" />
		<tag k="old_name:se" v="Juhanavarri" />
		<tag k="place" v="locality" />
		<tag k="ssr:stedsnr" v="869440" />
	</node>
	<node lat="70.15827222501169" lon="22.862141593751407" id="-37803">
		<tag k="fixme" v="consider natural=peak for the most distinct mountains in the district" />
		<tag k="name" v="Laddefjellet" />
		<tag k="natural" v="hill" />
		<tag k="place" v="locality" />
		<tag k="ssr:stedsnr" v="869676" />
	</node>
	<node lat="70.03102500709056" lon="23.565261010339263" id="-37809">
		<tag k="fixme" v="multiple name tags, choose one and add the other to alt_name" />
		<tag k="name" v="Ruohtoskáidi;Jiehtanasbákti" />
		<tag k="name:se" v="Ruohtoskáidi;Jiehtanasbákti" />
		<tag k="natural" v="hill" />
		<tag k="old_name:se" v="Jiettanasbakti" />
		<tag k="place" v="locality" />
		<tag k="ssr:stedsnr" v="869972" />
	</node>
	<node lat="69.76662222761792" lon="23.1350138194363" id="-37810">
		<tag k="fixme" v="consider natural=peak for the most distinct mountains in the district" />
		<tag k="name" v="Fáhttevárri" />
		<tag k="name:se" v="Fáhttevárri" />
		<tag k="natural" v="hill" />
		<tag k="old_name:se" v="Fattevarri" />
		<tag k="place" v="locality" />
		<tag k="ssr:stedsnr" v="930300" />
	</node>
	<node lat="69.78902500495478" lon="22.861088815333627" id="-37819">
		<tag k="fixme" v="consider natural=peak for the most distinct mountains in the district" />
		<tag k="name" v="Ovlinvárri" />
		<tag k="name:se" v="Ovlinvárri" />
		<tag k="natural" v="hill" />
		<tag k="place" v="locality" />
		<tag k="ssr:stedsnr" v="930317" />
	</node>
	<node lat="70.0111722247955" lon="22.61697217647152" id="-37829">
		<tag k="fixme" v="consider natural=peak for the most distinct mountains in the district" />
		<tag k="name" v="Pølfjellet - Čiekŋalčohkka" />
		<tag k="name:no" v="Pølfjellet" />
		<tag k="name:se" v="Čiekŋalčohkka" />
		<tag k="natural" v="hill" />
		<tag k="old_name:se" v="Čiegŋalčåkka" />
		<tag k="place" v="locality" />
		<tag k="ssr:stedsnr" v="930626" />
	</node>
	<node lat="70.07671389100453" lon="23.24629435195757" id="-37832">
		<tag k="fixme" v="consider natural=peak for the most distinct mountains in the district" />
		<tag k="loc_name:se" v="Gierdduidrášša" />
		<tag k="name" v="Altenesfjellet" />
		<tag k="name:no" v="Altenesfjellet" />
		<tag k="natural" v="hill" />
		<tag k="place" v="locality" />
		<tag k="ssr:stedsnr" v="930711" />
	</node>
	<node lat="70.07356111834235" lon="23.26784435582446" id="-37835">
		<tag k="fixme" v="consider natural=peak for the most distinct mountains in the district" />
		<tag k="name" v="Banddalsryggen - Gierdohárjjit" />
		<tag k="name:no" v="Banddalsryggen" />
		<tag k="name:se" v="Gierdohárjjit" />
		<tag k="natural" v="hill" />
		<tag k="old_name:se" v="Gierduharjit" />
		<tag k="place" v="locality" />
		<tag k="ssr:stedsnr" v="930728" />
	</node>
	<node lat="70.08785556079492" lon="23.24280547516068" id="-37837">
		<tag k="fixme" v="consider natural=peak for the most distinct mountains in the district" />
		<tag k="loc_name:se" v="Gierdduidhárjjit" />
		<tag k="name" v="Altenesryggen" />
		<tag k="name:no" v="Altenesryggen" />
		<tag k="natural" v="hill" />
		<tag k="place" v="locality" />
		<tag k="ssr:stedsnr" v="930741" />
	</node>
	<node lat="70.19958056275797" lon="23.800485998924508" id="-37844">
		<tag k="fixme" v="consider natural=peak for the most distinct mountains in the district" />
		<tag k="name" v="Suolorášša" />
		<tag k="name:se" v="Suolorášša" />
		<tag k="natural" v="hill" />
		<tag k="old_name:se" v="Suolurašša" />
		<tag k="place" v="locality" />
		<tag k="ssr:stedsnr" v="930876" />
	</node>
	<node lat="70.1715944477817" lon="23.809930457115918" id="-37847">
		<tag k="fixme" v="consider natural=peak for the most distinct mountains in the district" />
		<tag k="name" v="Heastavárri" />
		<tag k="name:se" v="Heastavárri" />
		<tag k="natural" v="hill" />
		<tag k="old_name:se" v="Hæstavarri" />
		<tag k="place" v="locality" />
		<tag k="ssr:stedsnr" v="930830" />
	</node>
	<node lat="70.27292222569723" lon="23.415522139572943" id="-37851">
		<tag k="fixme" v="consider natural=peak for the most distinct mountains in the district" />
		<tag k="name" v="Kastarfjellet" />
		<tag k="natural" v="hill" />
		<tag k="place" v="locality" />
		<tag k="ssr:stedsnr" v="930930" />
	</node>
	<node lat="70.2743555562241" lon="22.909216609956985" id="-37853">
		<tag k="alt_name:no" v="Tiptopfjellet" />
		<tag k="fixme" v="consider natural=peak for the most distinct mountains in the district" />
		<tag k="name" v="Middagsfjellet - Rátnorášša" />
		<tag k="name:no" v="Middagsfjellet" />
		<tag k="name:se" v="Rátnorášša" />
		<tag k="natural" v="hill" />
		<tag k="old_name:se" v="Radnurašša" />
		<tag k="place" v="locality" />
		<tag k="ssr:stedsnr" v="930936" />
	</node>
	<node lat="69.8413305578529" lon="22.843269372675483" id="-37859">
		<tag k="name" v="Oaggojokknasen" />
		<tag k="place" v="locality" />
		<tag k="ssr:stedsnr" v="876205" />
	</node>
	<node lat="69.83880833949252" lon="23.15998324062467" id="-37863">
		<tag k="name" v="Brattbergmoen" />
		<tag k="place" v="locality" />
		<tag k="ssr:stedsnr" v="876415" />
	</node>
	<node lat="69.87365233349752" lon="23.15407340413042" id="-37866">
		<tag k="fixme" v="consider natural=peak for the most distinct mountains in the district" />
		<tag k="name" v="Bjønnpiggen" />
		<tag k="natural" v="hill" />
		<tag k="place" v="locality" />
		<tag k="ssr:stedsnr" v="876421" />
	</node>
	<node lat="69.93161111430288" lon="23.196583254776954" id="-37868">
		<tag k="name" v="Heggedalen" />
		<tag k="natural" v="valley" />
		<tag k="place" v="locality" />
		<tag k="ssr:stedsnr" v="876458" />
	</node>
	<node lat="70.24463055718329" lon="23.379427702992924" id="-37870">
		<tag k="name" v="Smedberget" />
		<tag k="natural" v="hill" />
		<tag k="place" v="locality" />
		<tag k="ssr:stedsnr" v="876815" />
	</node>
	<node lat="70.02334444300583" lon="22.254663850241606" id="-37875">
		<tag k="name" v="Pulkeberithaugen" />
		<tag k="natural" v="hill" />
		<tag k="place" v="locality" />
		<tag k="ssr:stedsnr" v="876952" />
	</node>
	<node lat="70.01685278163633" lon="22.27898606914585" id="-37876">
		<tag k="name" v="Brentrabban" />
		<tag k="natural" v="ridge" />
		<tag k="place" v="locality" />
		<tag k="ssr:stedsnr" v="876953" />
	</node>
	<node lat="69.95032222183957" lon="23.23501935294052" id="-37879">
		<tag k="name" v="Altahøyden" />
		<tag k="natural" v="hill" />
		<tag k="place" v="locality" />
		<tag k="ssr:stedsnr" v="878515" />
	</node>
	<node lat="69.79990833472444" lon="23.903974885579363" id="-37887">
		<tag k="name" v="Biedjoráhppát" />
		<tag k="name:se" v="Biedjoráhppát" />
		<tag k="natural" v="hill" />
		<tag k="place" v="locality" />
		<tag k="ssr:stedsnr" v="888755" />
	</node>
	<node lat="70.32913281062407" lon="22.884508914015264" id="-37892">
		<tag k="name" v="Beaškalašbávti" />
		<tag k="name:se" v="Beaškalašbávti" />
		<tag k="natural" v="hill" />
		<tag k="place" v="locality" />
		<tag k="ssr:stedsnr" v="890113" />
	</node>
	<node lat="70.32769999941226" lon="23.501566578071902" id="-37899">
		<tag k="name" v="Láttovárri" />
		<tag k="name:se" v="Láttovárri" />
		<tag k="natural" v="slope" />
		<tag k="place" v="locality" />
		<tag k="ssr:stedsnr" v="891603" />
	</node>
	<node lat="69.90512777633757" lon="22.995669372356165" id="-37912">
		<tag k="fixme" v="consider natural=peak for the most distinct mountains in the district" />
		<tag k="name" v="Stokkstadfjellet" />
		<tag k="natural" v="hill" />
		<tag k="place" v="locality" />
		<tag k="ssr:stedsnr" v="929348" />
	</node>
	<node lat="70.22183333395877" lon="22.564180491924777" id="-37913">
		<tag k="fixme" v="consider natural=peak for the most distinct mountains in the district" />
		<tag k="name" v="Lokkarfjordfjell - Rohkalvuonvárri" />
		<tag k="name:no" v="Lokkarfjordfjell" />
		<tag k="name:se" v="Rohkalvuonvárri" />
		<tag k="natural" v="hill" />
		<tag k="old_name:se" v="Råkkalvuonvarri" />
		<tag k="place" v="locality" />
		<tag k="ssr:stedsnr" v="929355" />
	</node>
	<node lat="70.08651667062757" lon="22.811166611330417" id="-37915">
		<tag k="name" v="Goddevággi" />
		<tag k="name:se" v="Goddevággi" />
		<tag k="natural" v="valley" />
		<tag k="old_name:se" v="Gåddevaggi" />
		<tag k="place" v="locality" />
		<tag k="ssr:stedsnr" v="929510" />
	</node>
	<node lat="70.1479527795952" lon="22.72346659946017" id="-37917">
		<tag k="fixme" v="consider natural=peak for the most distinct mountains in the district" />
		<tag k="name" v="Livellodalsfjellet - Njulgerášša" />
		<tag k="name:no" v="Livellodalsfjellet" />
		<tag k="name:se" v="Njulgerášša" />
		<tag k="natural" v="hill" />
		<tag k="old_name:se" v="Njulgerašša;Njulggerašša" />
		<tag k="place" v="locality" />
		<tag k="ssr:stedsnr" v="929413" />
	</node>
	<node lat="70.14598333960406" lon="23.1990054865805" id="-37924">
		<tag k="alt_name" v="Sjåtind" />
		<tag k="fixme" v="consider natural=peak for the most distinct mountains in the district" />
		<tag k="name" v="Skjåtinden" />
		<tag k="natural" v="hill" />
		<tag k="place" v="locality" />
		<tag k="ssr:stedsnr" v="929618" />
	</node>
	<node lat="70.11122778306053" lon="22.919997143034383" id="-37927">
		<tag k="fixme" v="consider natural=peak for the most distinct mountains in the district" />
		<tag k="name" v="Áilegas" />
		<tag k="name:se" v="Áilegas" />
		<tag k="natural" v="hill" />
		<tag k="old_name:se" v="Ailegas" />
		<tag k="place" v="locality" />
		<tag k="ssr:stedsnr" v="929718" />
	</node>
	<node lat="70.01005555640623" lon="22.83146105635524" id="-37930">
		<tag k="name" v="Bajit Gusaidgohpi" />
		<tag k="name:se" v="Bajit Gusaidgohpi" />
		<tag k="natural" v="valley" />
		<tag k="old_name:se" v="Gusaidgåppi, bajit" />
		<tag k="place" v="locality" />
		<tag k="ssr:stedsnr" v="929748" />
	</node>
	<node lat="70.34685000171163" lon="23.185744366724695" id="-37936">
		<tag k="name" v="Søkkmyrdalen - Leakševággi" />
		<tag k="name:no" v="Søkkmyrdalen" />
		<tag k="name:se" v="Leakševággi" />
		<tag k="natural" v="valley" />
		<tag k="old_name:se" v="Lækševaggi" />
		<tag k="place" v="locality" />
		<tag k="ssr:stedsnr" v="930002" />
	</node>
	<node lat="70.26991666406401" lon="22.722430494848783" id="-37938">
		<tag k="name" v="Storlia" />
		<tag k="natural" v="slope" />
		<tag k="place" v="locality" />
		<tag k="ssr:stedsnr" v="930107" />
	</node>
	<node lat="69.8488638929387" lon="22.8999804772674" id="-37944">
		<tag k="alt_name:no" v="Mathisdalen" />
		<tag k="name" v="Mattisdalen - Gávvávži" />
		<tag k="name:no" v="Mattisdalen" />
		<tag k="name:se" v="Gávvávži" />
		<tag k="natural" v="valley" />
		<tag k="old_name:se" v="Gavvavži" />
		<tag k="place" v="locality" />
		<tag k="ssr:stedsnr" v="930510" />
	</node>
	<node lat="70.08414722822582" lon="23.164302690799502" id="-37949">
		<tag k="fixme" v="consider natural=peak for the most distinct mountains in the district" />
		<tag k="name" v="Vardfjellet" />
		<tag k="natural" v="hill" />
		<tag k="place" v="locality" />
		<tag k="ssr:stedsnr" v="930745" />
	</node>
	<node lat="70.29673888742462" lon="23.071083260628182" id="-37950">
		<tag k="name" v="Ørntind" />
		<tag k="natural" v="hill" />
		<tag k="place" v="locality" />
		<tag k="ssr:stedsnr" v="930908" />
	</node>
	<node lat="70.32090555834475" lon="23.569199902997862" id="-37952">
		<tag k="alt_name:se" v="Liidnaávži" />
		<tag k="loc_name:se" v="Liinvuonávži" />
		<tag k="name" v="Lerresfjorddalen - Liidnávži" />
		<tag k="name:no" v="Lerresfjorddalen" />
		<tag k="name:se" v="Liidnávži" />
		<tag k="natural" v="valley" />
		<tag k="old_name:se" v="Liidnavži" />
		<tag k="place" v="locality" />
		<tag k="ssr:stedsnr" v="930805" />
	</node>
	<node lat="69.78907500365413" lon="22.86119438470697" id="-37957">
		<tag k="fixme" v="consider natural=peak for the most distinct mountains in the district" />
		<tag k="name" v="Rypehompan" />
		<tag k="natural" v="hill" />
		<tag k="place" v="locality" />
		<tag k="ssr:stedsnr" v="935841" />
	</node>
	<node lat="69.93616666694636" lon="23.02117492857536" id="-37958">
		<tag k="name" v="Brakkebakken" />
		<tag k="natural" v="slope" />
		<tag k="place" v="locality" />
		<tag k="ssr:stedsnr" v="935940" />
	</node>
	<node lat="69.93470277803412" lon="23.369961016581577" id="-37968">
		<tag k="name" v="Gruvlia" />
		<tag k="natural" v="slope" />
		<tag k="place" v="locality" />
		<tag k="ssr:stedsnr" v="936198" />
	</node>
	<node lat="70.12593611091867" lon="23.385494367066713" id="-37970">
		<tag k="name" v="Skolehaugen" />
		<tag k="natural" v="hill" />
		<tag k="place" v="locality" />
		<tag k="ssr:stedsnr" v="936483" />
	</node>
	<node lat="70.11020833520602" lon="23.437352696335797" id="-37973">
		<tag k="name" v="Moldforneshaugen" />
		<tag k="natural" v="hill" />
		<tag k="place" v="locality" />
		<tag k="ssr:stedsnr" v="936492" />
	</node>
	<node lat="70.31445000316447" lon="22.879627723909437" id="-37974">
		<tag k="name" v="Signeberget" />
		<tag k="natural" v="hill" />
		<tag k="place" v="locality" />
		<tag k="ssr:stedsnr" v="936610" />
	</node>
	<node lat="70.33056944672875" lon="22.76717770642188" id="-37978">
		<tag k="name" v="Kamuffir" />
		<tag k="place" v="locality" />
		<tag k="ssr:stedsnr" v="936798" />
	</node>
	<node lat="70.24385278266631" lon="23.34052492882423" id="-37979">
		<tag k="name" v="Ájaruobbi" />
		<tag k="name:se" v="Ájaruobbi" />
		<tag k="natural" v="slope" />
		<tag k="place" v="locality" />
		<tag k="ssr:stedsnr" v="936895" />
	</node>
	<node lat="69.9720361138895" lon="23.308938810498038" id="-37981">
		<tag k="name" v="Holstadbakken" />
		<tag k="natural" v="slope" />
		<tag k="place" v="locality" />
		<tag k="ssr:stedsnr" v="937209" />
	</node>
	<node lat="70.12927778454727" lon="23.361794354923543" id="-37984">
		<tag k="name" v="Notberget" />
		<tag k="natural" v="hill" />
		<tag k="place" v="locality" />
		<tag k="ssr:stedsnr" v="937235" />
	</node>
	<node lat="69.98077500137653" lon="23.098377696575394" id="-37985">
		<tag k="name" v="Skarvberget" />
		<tag k="natural" v="hill" />
		<tag k="place" v="locality" />
		<tag k="ssr:stedsnr" v="937487" />
	</node>
	<node lat="70.13575833805444" lon="23.17885548296205" id="-37986">
		<tag k="name" v="Varneshaugen" />
		<tag k="natural" v="hill" />
		<tag k="place" v="locality" />
		<tag k="ssr:stedsnr" v="937630" />
	</node>
	<node lat="69.92021667144132" lon="23.5579221261668" id="-37990">
		<tag k="name" v="Øvre Skårdalen" />
		<tag k="natural" v="valley" />
		<tag k="place" v="locality" />
		<tag k="ssr:stedsnr" v="938608" />
	</node>
	<node lat="70.04900833910393" lon="23.522488790491433" id="-37991">
		<tag k="name" v="Aaronkruuva" />
		<tag k="name:fkv" v="Aaronkruuva" />
		<tag k="natural" v="valley" />
		<tag k="place" v="locality" />
		<tag k="ssr:stedsnr" v="939301" />
	</node>
	<node lat="69.70655277796082" lon="23.923035988019457" id="-37996">
		<tag k="name" v="Mávnnosgielas" />
		<tag k="name:se" v="Mávnnosgielas" />
		<tag k="natural" v="hill" />
		<tag k="place" v="locality" />
		<tag k="ssr:stedsnr" v="949012" />
	</node>
	<node lat="69.87746111419413" lon="22.99518604879986" id="-37997">
		<tag k="name" v="Gunnajávregáddi" />
		<tag k="name:se" v="Gunnajávregáddi" />
		<tag k="place" v="locality" />
		<tag k="ssr:stedsnr" v="950056" />
	</node>
	<node lat="69.91275000417247" lon="23.041116590293026" id="-38000">
		<tag k="name" v="Várreájjagat" />
		<tag k="name:se" v="Várreájjagat" />
		<tag k="natural" v="slope" />
		<tag k="place" v="locality" />
		<tag k="ssr:stedsnr" v="951010" />
	</node>
	<node lat="69.96008611694312" lon="23.731319329642687" id="-38002">
		<tag k="loc_name:se" v="Ávžánávži" />
		<tag k="name" v="Ávžžanávži" />
		<tag k="name:se" v="Ávžžanávži" />
		<tag k="natural" v="valley" />
		<tag k="place" v="locality" />
		<tag k="ssr:stedsnr" v="951391" />
	</node>
	<node lat="69.972291668034" lon="23.455055464390707" id="-38003">
		<tag k="name" v="Ulaibávti" />
		<tag k="name:se" v="Ulaibávti" />
		<tag k="natural" v="cliff" />
		<tag k="ssr:stedsnr" v="951404" />
	</node>
	<node lat="70.32162778005443" lon="23.609683239987636" id="-38006">
		<tag k="name" v="Ellešoalgi" />
		<tag k="name:se" v="Ellešoalgi" />
		<tag k="place" v="locality" />
		<tag k="ssr:stedsnr" v="951998" />
	</node>
	<node lat="69.72722778082237" lon="24.10120542913044" id="-38013">
		<tag k="fixme" v="consider natural=peak for the most distinct mountains in the district" />
		<tag k="name" v="Kjelfjellet - Gievdnevárri" />
		<tag k="name:no" v="Kjelfjellet" />
		<tag k="name:se" v="Gievdnevárri" />
		<tag k="natural" v="hill" />
		<tag k="old_name:se" v="Gievdnevarri" />
		<tag k="place" v="locality" />
		<tag k="ssr:stedsnr" v="18464" />
	</node>
	<node lat="69.75083055996949" lon="24.15647762655067" id="-38014">
		<tag k="fixme" v="consider natural=peak for the most distinct mountains in the district" />
		<tag k="name" v="Ginnosfjellet - Ginusvárri" />
		<tag k="name:no" v="Ginnosfjellet" />
		<tag k="name:se" v="Ginusvárri" />
		<tag k="natural" v="hill" />
		<tag k="old_name:se" v="Ginosvarri" />
		<tag k="place" v="locality" />
		<tag k="ssr:stedsnr" v="18492" />
	</node>
	<node lat="69.93846111532758" lon="23.36027768729252" id="-38016">
		<tag k="fixme" v="consider natural=peak for the most distinct mountains in the district" />
		<tag k="name" v="Lille-Raipas - Unna Ráipásaš - Pikku-Raipas" />
		<tag k="name:fkv" v="Pikku-Raipas" />
		<tag k="name:no" v="Lille-Raipas" />
		<tag k="name:se" v="Unna Ráipásaš" />
		<tag k="natural" v="hill" />
		<tag k="place" v="locality" />
		<tag k="ssr:stedsnr" v="19422" />
	</node>
	<node lat="69.73775555508712" lon="23.21884714100891" id="-38019">
		<tag k="fixme" v="consider natural=peak for the most distinct mountains in the district" />
		<tag k="name" v="Skáidegeašvárri" />
		<tag k="name:se" v="Skáidegeašvárri" />
		<tag k="natural" v="hill" />
		<tag k="place" v="locality" />
		<tag k="ssr:stedsnr" v="18760" />
	</node>
	<node lat="69.99791667132575" lon="22.762941613191707" id="-38021">
		<tag k="fixme" v="consider natural=peak for the most distinct mountains in the district" />
		<tag k="name" v="Lillerundfjellet" />
		<tag k="natural" v="hill" />
		<tag k="place" v="locality" />
		<tag k="ssr:stedsnr" v="19015" />
	</node>
	<node lat="69.97605833124778" lon="22.247708286983496" id="-38024">
		<tag k="fixme" v="consider natural=peak for the most distinct mountains in the district" />
		<tag k="name" v="Stađđu" />
		<tag k="name:se" v="Stađđu" />
		<tag k="natural" v="hill" />
		<tag k="old_name:se" v="Stađđo;Stáđđu" />
		<tag k="place" v="locality" />
		<tag k="ssr:stedsnr" v="19038" />
	</node>
	<node lat="69.8372750036869" lon="23.149866591991238" id="-38032">
		<tag k="name" v="Brattberget" />
		<tag k="natural" v="hill" />
		<tag k="place" v="locality" />
		<tag k="ssr:stedsnr" v="19235" />
	</node>
	<node lat="69.84001667179555" lon="22.82091105211414" id="-38034">
		<tag k="fixme" v="consider natural=peak for the most distinct mountains in the district" />
		<tag k="name" v="Fiskerelvnasen" />
		<tag k="natural" v="hill" />
		<tag k="place" v="locality" />
		<tag k="ssr:stedsnr" v="19241" />
	</node>
	<node lat="70.06343056040748" lon="22.638805498135362" id="-38041">
		<tag k="name" v="Hjordfjellet - Ordoleakoalgi" />
		<tag k="name:no" v="Hjordfjellet" />
		<tag k="name:se" v="Ordoleakoalgi" />
		<tag k="old_name:se" v="Årdulækoalgi" />
		<tag k="place" v="locality" />
		<tag k="ssr:stedsnr" v="19498" />
	</node>
	<node lat="70.06946389074395" lon="22.40358051661422" id="-38042">
		<tag k="name" v="Kariberg - Gáiskebávti" />
		<tag k="name:no" v="Kariberg" />
		<tag k="name:se" v="Gáiskebávti" />
		<tag k="natural" v="hill" />
		<tag k="place" v="locality" />
		<tag k="ssr:stedsnr" v="19499" />
	</node>
	<node lat="70.24763611257552" lon="22.45144995119572" id="-38047">
		<tag k="name" v="Steigelia" />
		<tag k="natural" v="slope" />
		<tag k="place" v="locality" />
		<tag k="ssr:stedsnr" v="19486" />
	</node>
	<node lat="69.91365000481123" lon="23.663752673669098" id="-38052">
		<tag k="fixme" v="consider natural=peak for the most distinct mountains in the district" />
		<tag k="name" v="Tverrfjellet - Buollánoaivi" />
		<tag k="name:no" v="Tverrfjellet" />
		<tag k="name:se" v="Buollánoaivi" />
		<tag k="natural" v="hill" />
		<tag k="place" v="locality" />
		<tag k="ssr:stedsnr" v="19610" />
	</node>
	<node lat="70.17236944616074" lon="23.400419346715154" id="-38056">
		<tag k="fixme" v="consider natural=peak for the most distinct mountains in the district" />
		<tag k="name" v="Stortuva - Njoaskevárri" />
		<tag k="name:no" v="Stortuva" />
		<tag k="name:se" v="Njoaskevárri" />
		<tag k="natural" v="hill" />
		<tag k="old_name:se" v="Njoaskevarri" />
		<tag k="place" v="locality" />
		<tag k="ssr:stedsnr" v="19617" />
	</node>
	<node lat="69.77542500345574" lon="23.467786025123953" id="-38064">
		<tag k="fixme" v="consider natural=peak for the most distinct mountains in the district" />
		<tag k="name" v="Orvvošoaivi" />
		<tag k="name:se" v="Orvvošoaivi" />
		<tag k="natural" v="hill" />
		<tag k="place" v="locality" />
		<tag k="ssr:stedsnr" v="19720" />
	</node>
	<node lat="69.76390000133665" lon="23.950416529899307" id="-38067">
		<tag k="fixme" v="consider natural=peak for the most distinct mountains in the district" />
		<tag k="name" v="Ceavdni" />
		<tag k="name:se" v="Ceavdni" />
		<tag k="natural" v="hill" />
		<tag k="old_name:se" v="Cævdni" />
		<tag k="place" v="locality" />
		<tag k="ssr:stedsnr" v="19723" />
	</node>
	<node lat="70.03725555622988" lon="22.34612495814577" id="-38072">
		<tag k="name" v="Kjerringberget" />
		<tag k="natural" v="hill" />
		<tag k="place" v="locality" />
		<tag k="ssr:stedsnr" v="19586" />
	</node>
	<node lat="70.03515555414198" lon="23.350222144708795" id="-38080">
		<tag k="fixme" v="consider natural=peak for the most distinct mountains in the district" />
		<tag k="name" v="Gistu" />
		<tag k="name:se" v="Gistu" />
		<tag k="natural" v="hill" />
		<tag k="old_name:se" v="Gisto" />
		<tag k="place" v="locality" />
		<tag k="ssr:stedsnr" v="19796" />
	</node>
	<node lat="70.14307777701262" lon="23.60375824383629" id="-38081">
		<tag k="fixme" v="consider natural=peak for the most distinct mountains in the district" />
		<tag k="name" v="Máttarášša" />
		<tag k="name:se" v="Máttarášša" />
		<tag k="natural" v="hill" />
		<tag k="old_name:se" v="Maddarašša" />
		<tag k="place" v="locality" />
		<tag k="ssr:stedsnr" v="19824" />
	</node>
	<node lat="70.14113333896252" lon="23.437144361328585" id="-38082">
		<tag k="name" v="Guovdavággi" />
		<tag k="name:se" v="Guovdavággi" />
		<tag k="natural" v="valley" />
		<tag k="place" v="locality" />
		<tag k="ssr:stedsnr" v="19826" />
	</node>
	<node lat="70.13506667292775" lon="23.686852683312704" id="-38083">
		<tag k="fixme" v="consider natural=peak for the most distinct mountains in the district" />
		<tag k="name" v="Njárgahárji" />
		<tag k="name:se" v="Njárgahárji" />
		<tag k="natural" v="hill" />
		<tag k="old_name:se" v="Njargaharji" />
		<tag k="place" v="locality" />
		<tag k="ssr:stedsnr" v="19829" />
	</node>
	<node lat="70.31444166659715" lon="23.285444375986792" id="-38085">
		<tag k="fixme" v="consider natural=peak for the most distinct mountains in the district" />
		<tag k="name" v="Hábovárri" />
		<tag k="name:se" v="Hábovárri" />
		<tag k="natural" v="hill" />
		<tag k="old_name:se" v="Habuvarri" />
		<tag k="place" v="locality" />
		<tag k="ssr:stedsnr" v="19888" />
	</node>
	<node lat="70.32600000196742" lon="23.266230475546894" id="-38087">
		<tag k="name" v="Orrunvággi" />
		<tag k="name:se" v="Orrunvággi" />
		<tag k="natural" v="valley" />
		<tag k="old_name:se" v="Årronvaggi" />
		<tag k="place" v="locality" />
		<tag k="ssr:stedsnr" v="19895" />
	</node>
	<node lat="70.02290556065059" lon="23.081880472533182" id="-38089">
		<tag k="name" v="Vengbergan" />
		<tag k="natural" v="hill" />
		<tag k="place" v="locality" />
		<tag k="ssr:stedsnr" v="19762" />
	</node>
	<node lat="70.05236667175319" lon="23.247891577561905" id="-38091">
		<tag k="fixme" v="consider natural=peak for the most distinct mountains in the district" />
		<tag k="name" v="Høyviktua" />
		<tag k="natural" v="hill" />
		<tag k="place" v="locality" />
		<tag k="ssr:stedsnr" v="19785" />
	</node>
	<node lat="70.2144888885943" lon="23.492766574781285" id="-38092">
		<tag k="alt_name:se" v="Skárffaleahki" />
		<tag k="name" v="Skárffávži" />
		<tag k="name:se" v="Skárffávži" />
		<tag k="natural" v="valley" />
		<tag k="old_name:se" v="Skarfavži" />
		<tag k="place" v="locality" />
		<tag k="ssr:stedsnr" v="19863" />
	</node>
	<node lat="70.32136111589287" lon="22.762805487156733" id="-38102">
		<tag k="fixme" v="multiple name tags, choose one and add the other to alt_name" />
		<tag k="name" v="Rundhaugen - Bollojorbá;Jorban" />
		<tag k="name:no" v="Rundhaugen" />
		<tag k="name:se" v="Bollojorbá;Jorban" />
		<tag k="natural" v="hill" />
		<tag k="place" v="locality" />
		<tag k="ssr:stedsnr" v="20134" />
	</node>
	<node lat="70.27719444531549" lon="23.451686019052985" id="-38110">
		<tag k="fixme" v="consider natural=peak for the most distinct mountains in the district" />
		<tag k="name" v="Kvitfjellet" />
		<tag k="natural" v="hill" />
		<tag k="place" v="locality" />
		<tag k="ssr:stedsnr" v="20823" />
	</node>
	<node lat="70.25187222242458" lon="23.380169367557137" id="-38113">
		<tag k="fixme" v="consider natural=peak for the most distinct mountains in the district" />
		<tag k="name" v="Kufjellet" />
		<tag k="natural" v="hill" />
		<tag k="place" v="locality" />
		<tag k="ssr:stedsnr" v="20960" />
	</node>
	<node lat="70.25393333670381" lon="22.9876471580653" id="-38115">
		<tag k="fixme" v="consider natural=peak for the most distinct mountains in the district" />
		<tag k="name" v="Gullfjell - Gođđovárri" />
		<tag k="name:no" v="Gullfjell" />
		<tag k="name:se" v="Gođđovárri" />
		<tag k="natural" v="hill" />
		<tag k="old_name:se" v="Gåđđuvarri" />
		<tag k="place" v="locality" />
		<tag k="ssr:stedsnr" v="20963" />
	</node>
	<node lat="70.25395555953801" lon="22.82112494218663" id="-38116">
		<tag k="fixme" v="consider natural=peak for the most distinct mountains in the district" />
		<tag k="name" v="Storfjellet - Birošvárri" />
		<tag k="name:no" v="Storfjellet" />
		<tag k="name:se" v="Birošvárri" />
		<tag k="natural" v="hill" />
		<tag k="old_name:se" v="Birušvarri" />
		<tag k="place" v="locality" />
		<tag k="ssr:stedsnr" v="20965" />
	</node>
	<node lat="69.7987777764644" lon="23.565236012845073" id="-38117">
		<tag k="fixme" v="consider natural=peak for the most distinct mountains in the district" />
		<tag k="name" v="Grønnåsen - Ruonánjunni" />
		<tag k="name:no" v="Grønnåsen" />
		<tag k="name:se" v="Ruonánjunni" />
		<tag k="natural" v="hill" />
		<tag k="old_name:se" v="Ruonanjunni" />
		<tag k="place" v="locality" />
		<tag k="ssr:stedsnr" v="24718" />
	</node>
	<node lat="69.93408889076144" lon="23.312036011122633" id="-38118">
		<tag k="name" v="Storbakken" />
		<tag k="natural" v="slope" />
		<tag k="place" v="locality" />
		<tag k="ssr:stedsnr" v="25224" />
	</node>
	<node lat="69.90781111178818" lon="23.56074435069093" id="-38119">
		<tag k="name" v="Fallet" />
		<tag k="natural" v="gorge" />
		<tag k="ssr:stedsnr" v="25448" />
	</node>
	<node lat="69.88338055431646" lon="23.590211011539523" id="-38120">
		<tag k="name" v="Storbakken" />
		<tag k="natural" v="slope" />
		<tag k="place" v="locality" />
		<tag k="ssr:stedsnr" v="25459" />
	</node>
	<node lat="70.21437777707699" lon="23.198911025605586" id="-38124">
		<tag k="name" v="Galdoberget" />
		<tag k="natural" v="hill" />
		<tag k="place" v="locality" />
		<tag k="ssr:stedsnr" v="25879" />
	</node>
	<node lat="70.21698889359013" lon="23.222016603045272" id="-38125">
		<tag k="name" v="Håresteinen" />
		<tag k="natural" v="hill" />
		<tag k="place" v="locality" />
		<tag k="ssr:stedsnr" v="25880" />
	</node>
	<node lat="69.81645555481467" lon="23.21123601544141" id="-38135">
		<tag k="name" v="Goskamark" />
		<tag k="place" v="locality" />
		<tag k="ssr:stedsnr" v="26150" />
	</node>
	<node lat="69.92120834058628" lon="23.031305476790944" id="-38139">
		<tag k="name" v="Basmajervi" />
		<tag k="place" v="locality" />
		<tag k="ssr:stedsnr" v="26261" />
	</node>
	<node lat="69.87212500091869" lon="23.25092213822955" id="-38141">
		<tag k="name" v="Øvre Peskamoen" />
		<tag k="place" v="locality" />
		<tag k="ssr:stedsnr" v="26363" />
	</node>
	<node lat="69.87032366009765" lon="23.129478447292627" id="-38145">
		<tag k="name" v="Gurbmojokdalen" />
		<tag k="natural" v="valley" />
		<tag k="place" v="locality" />
		<tag k="ssr:stedsnr" v="26444" />
	</node>
	<node lat="70.11867500619137" lon="23.4701887987243" id="-38148">
		<tag k="name" v="Lunnardalen" />
		<tag k="natural" v="valley" />
		<tag k="place" v="locality" />
		<tag k="ssr:stedsnr" v="26500" />
	</node>
	<node lat="70.01946111394012" lon="23.57814433321592" id="-38152">
		<tag k="name" v="Ulvelvdalen" />
		<tag k="natural" v="valley" />
		<tag k="place" v="locality" />
		<tag k="ssr:stedsnr" v="26457" />
	</node>
	<node lat="70.32238889005885" lon="23.058219370324313" id="-38156">
		<tag k="name" v="Skjåvikdalen" />
		<tag k="natural" v="valley" />
		<tag k="place" v="locality" />
		<tag k="ssr:stedsnr" v="26568" />
	</node>
	<node lat="70.24260000637578" lon="23.51900547592983" id="-38159">
		<tag k="name" v="Haugen" />
		<tag k="natural" v="hill" />
		<tag k="place" v="locality" />
		<tag k="ssr:stedsnr" v="26787" />
	</node>
	<node lat="70.15775833627684" lon="23.282119355864552" id="-38162">
		<tag k="name" v="Kvitberget" />
		<tag k="natural" v="hill" />
		<tag k="place" v="locality" />
		<tag k="ssr:stedsnr" v="26864" />
	</node>
	<node lat="69.98719722386355" lon="22.836236052073467" id="-38164">
		<tag k="name" v="Bjørnelvdalsmoen" />
		<tag k="place" v="locality" />
		<tag k="ssr:stedsnr" v="27163" />
	</node>
	<node lat="70.20851389407278" lon="23.257080479363868" id="-38167">
		<tag k="name" v="Vannbakken" />
		<tag k="natural" v="slope" />
		<tag k="place" v="locality" />
		<tag k="ssr:stedsnr" v="28356" />
	</node>
	<node lat="70.2039749995189" lon="23.20931379536372" id="-38169">
		<tag k="name" v="Reveberget" />
		<tag k="natural" v="hill" />
		<tag k="place" v="locality" />
		<tag k="ssr:stedsnr" v="28364" />
	</node>
	<node lat="70.20141944547169" lon="23.209019352479437" id="-38170">
		<tag k="name" v="Adamsskora" />
		<tag k="natural" v="valley" />
		<tag k="place" v="locality" />
		<tag k="ssr:stedsnr" v="28366" />
	</node>
	<node lat="70.13998333412611" lon="23.42454992060963" id="-38174">
		<tag k="fixme" v="consider natural=peak for the most distinct mountains in the district" />
		<tag k="name" v="Gaudevar - Guovdavárri" />
		<tag k="name:no" v="Gaudevar" />
		<tag k="name:se" v="Guovdavárri" />
		<tag k="natural" v="hill" />
		<tag k="place" v="locality" />
		<tag k="ssr:stedsnr" v="33935" />
	</node>
	<node lat="70.34465277904289" lon="23.29036382019544" id="-38179">
		<tag k="name" v="Nihkkabávti" />
		<tag k="name:se" v="Nihkkabávti" />
		<tag k="natural" v="cliff" />
		<tag k="ssr:stedsnr" v="40355" />
	</node>
	<node lat="70.33603611729983" lon="23.278608259876393" id="-38189">
		<tag k="name" v="Heargeriidi" />
		<tag k="name:se" v="Heargeriidi" />
		<tag k="natural" v="slope" />
		<tag k="place" v="locality" />
		<tag k="ssr:stedsnr" v="41387" />
	</node>
	<node lat="69.97861111783811" lon="23.444588787518118" id="-38190">
		<tag k="name" v="Láhttarguolbban" />
		<tag k="name:se" v="Láhttarguolbban" />
		<tag k="place" v="locality" />
		<tag k="ssr:stedsnr" v="41399" />
	</node>
	<node lat="70.32833333929285" lon="23.515494362721075" id="-38193">
		<tag k="name" v="Lokta" />
		<tag k="name:se" v="Lokta" />
		<tag k="natural" v="slope" />
		<tag k="place" v="locality" />
		<tag k="ssr:stedsnr" v="41989" />
	</node>
	<node lat="70.2555666687702" lon="22.942194391138784" id="-38205">
		<tag k="name" v="Bier jonssavággi" />
		<tag k="name:se" v="Bier jonssavággi" />
		<tag k="natural" v="valley" />
		<tag k="place" v="locality" />
		<tag k="ssr:stedsnr" v="60155" />
	</node>
	<node lat="69.92516944343541" lon="23.090549926170365" id="-38210">
		<tag k="name" v="Kvenvikmoen" />
		<tag k="place" v="locality" />
		<tag k="ssr:stedsnr" v="80424" />
	</node>
	<node lat="69.70198889497888" lon="23.977574876316808" id="-38212">
		<tag k="fixme" v="consider natural=peak for the most distinct mountains in the district" />
		<tag k="name" v="Suorroaivi" />
		<tag k="name:se" v="Suorroaivi" />
		<tag k="natural" v="hill" />
		<tag k="place" v="locality" />
		<tag k="ssr:stedsnr" v="79614" />
	</node>
	<node lat="69.72511666986708" lon="23.70430820948801" id="-38213">
		<tag k="fixme" v="consider natural=peak for the most distinct mountains in the district" />
		<tag k="name" v="Gaskavárri" />
		<tag k="name:se" v="Gaskavárri" />
		<tag k="natural" v="hill" />
		<tag k="old_name:se" v="Gaskavarri" />
		<tag k="place" v="locality" />
		<tag k="ssr:stedsnr" v="79620" />
	</node>
	<node lat="69.72478889262673" lon="23.61429989316751" id="-38214">
		<tag k="name" v="Beaskáđas" />
		<tag k="name:se" v="Beaskáđas" />
		<tag k="natural" v="plateau" />
		<tag k="ssr:stedsnr" v="79621" />
	</node>
	<node lat="69.74095555538105" lon="23.466680446830306" id="-38215">
		<tag k="fixme" v="consider natural=peak for the most distinct mountains in the district" />
		<tag k="name" v="Cekkeščorru" />
		<tag k="name:se" v="Cekkeščorru" />
		<tag k="natural" v="hill" />
		<tag k="old_name:se" v="Ceggeščårro" />
		<tag k="place" v="locality" />
		<tag k="ssr:stedsnr" v="79628" />
	</node>
	<node lat="69.74647222545804" lon="22.79023880925913" id="-38219">
		<tag k="name" v="Fielbmáláhku" />
		<tag k="name:se" v="Fielbmáláhku" />
		<tag k="place" v="locality" />
		<tag k="ssr:stedsnr" v="79886" />
	</node>
	<node lat="70.3635527784319" lon="22.986874942384258" id="-38220">
		<tag k="name" v="Návstovággi" />
		<tag k="name:se" v="Návstovággi" />
		<tag k="natural" v="valley" />
		<tag k="old_name:se" v="Navstuvaggi" />
		<tag k="place" v="locality" />
		<tag k="ssr:stedsnr" v="80011" />
	</node>
	<node lat="70.35900277874511" lon="23.379863810615333" id="-38221">
		<tag k="fixme" v="consider natural=peak for the most distinct mountains in the district" />
		<tag k="name" v="Stivfjellet - Stuoravárri" />
		<tag k="name:no" v="Stivfjellet" />
		<tag k="name:se" v="Stuoravárri" />
		<tag k="natural" v="hill" />
		<tag k="old_name:se" v="Stuoravarri" />
		<tag k="place" v="locality" />
		<tag k="ssr:stedsnr" v="80017" />
	</node>
	<node lat="70.3708222235024" lon="23.38534435151302" id="-38222">
		<tag k="name" v="Boazovuonvággi" />
		<tag k="name:se" v="Boazovuonvággi" />
		<tag k="natural" v="valley" />
		<tag k="old_name:se" v="Boazuvuonvaggi" />
		<tag k="place" v="locality" />
		<tag k="ssr:stedsnr" v="80018" />
	</node>
	<node lat="69.9500416665554" lon="22.603566605735463" id="-38223">
		<tag k="name" v="Moalkeluohkká" />
		<tag k="name:se" v="Moalkeluohkká" />
		<tag k="natural" v="slope" />
		<tag k="old_name:se" v="Moalkeluokka" />
		<tag k="place" v="locality" />
		<tag k="ssr:stedsnr" v="80026" />
	</node>
	<node lat="69.85316666534177" lon="22.991552699819366" id="-38226">
		<tag k="fixme" v="consider natural=peak for the most distinct mountains in the district" />
		<tag k="name" v="Urnefjellet" />
		<tag k="natural" v="hill" />
		<tag k="place" v="locality" />
		<tag k="ssr:stedsnr" v="80273" />
	</node>
	<node lat="69.8882277819306" lon="23.28825546348906" id="-38234">
		<tag k="name" v="Stengelslia" />
		<tag k="natural" v="slope" />
		<tag k="place" v="locality" />
		<tag k="ssr:stedsnr" v="80370" />
	</node>
	<node lat="70.0662111145439" lon="22.367922171817305" id="-38238">
		<tag k="name" v="Cuobborri" />
		<tag k="name:se" v="Cuobborri" />
		<tag k="natural" v="slope" />
		<tag k="old_name:se" v="Cuobbårri" />
		<tag k="place" v="locality" />
		<tag k="ssr:stedsnr" v="80512" />
	</node>
	<node lat="69.87007778258652" lon="23.63656101626537" id="-38245">
		<tag k="name" v="Svartberget - Čáhppesbákti" />
		<tag k="name:no" v="Svartberget" />
		<tag k="name:se" v="Čáhppesbákti" />
		<tag k="natural" v="hill" />
		<tag k="place" v="locality" />
		<tag k="ssr:stedsnr" v="80653" />
	</node>
	<node lat="69.95624166932649" lon="23.43982767398777" id="-38246">
		<tag k="fixme" v="consider natural=peak for the most distinct mountains in the district" />
		<tag k="name" v="Lille-Borras - Unnaboahrráš - Pikku-Porhas" />
		<tag k="name:fkv" v="Pikku-Porhas" />
		<tag k="name:no" v="Lille-Borras" />
		<tag k="name:se" v="Unnaboahrráš" />
		<tag k="natural" v="hill" />
		<tag k="place" v="locality" />
		<tag k="ssr:stedsnr" v="80660" />
	</node>
	<node lat="70.1700250051928" lon="22.891366598678452" id="-38247">
		<tag k="name" v="Olggut Buođgavuonvággi" />
		<tag k="name:se" v="Olggut Buođgavuonvággi" />
		<tag k="natural" v="valley" />
		<tag k="old_name:se" v="Buođgavuonvaggi, ålgot" />
		<tag k="place" v="locality" />
		<tag k="ssr:stedsnr" v="80667" />
	</node>
	<node lat="70.03946667015902" lon="22.431452722622364" id="-38251">
		<tag k="fixme" v="multiple name tags, choose one and add the other to alt_name; consider natural=peak for the most distinct mountains in the district" />
		<tag k="name" v="Keiptind;Lasson - Biellogáisá" />
		<tag k="name:no" v="Keiptind;Lasson" />
		<tag k="name:se" v="Biellogáisá" />
		<tag k="natural" v="hill" />
		<tag k="old_name:se" v="Biellugaisa" />
		<tag k="place" v="locality" />
		<tag k="ssr:stedsnr" v="80619" />
	</node>
	<node lat="70.0308805557434" lon="22.603697172703324" id="-38252">
		<tag k="fixme" v="consider natural=peak for the most distinct mountains in the district" />
		<tag k="name" v="Langfjellet" />
		<tag k="natural" v="hill" />
		<tag k="place" v="locality" />
		<tag k="ssr:stedsnr" v="80624" />
	</node>
	<node lat="70.10432222114876" lon="22.689013839830043" id="-38257">
		<tag k="fixme" v="consider natural=peak for the most distinct mountains in the district" />
		<tag k="name" v="Aspenesfjellet" />
		<tag k="natural" v="hill" />
		<tag k="place" v="locality" />
		<tag k="ssr:stedsnr" v="80548" />
	</node>
	<node lat="70.10790555563736" lon="22.77733328068531" id="-38258">
		<tag k="alt_name" v="Indre Koven" />
		<tag k="fixme" v="consider natural=peak for the most distinct mountains in the district" />
		<tag k="name" v="Kovtindan" />
		<tag k="natural" v="hill" />
		<tag k="place" v="locality" />
		<tag k="ssr:stedsnr" v="80555" />
	</node>
	<node lat="70.13490278152945" lon="22.59405828651431" id="-38259">
		<tag k="fixme" v="consider natural=peak for the most distinct mountains in the district" />
		<tag k="name" v="Risefjellet - Gievdnerášša" />
		<tag k="name:no" v="Risefjellet" />
		<tag k="name:se" v="Gievdnerášša" />
		<tag k="natural" v="hill" />
		<tag k="old_name:se" v="Gievdnerašša" />
		<tag k="place" v="locality" />
		<tag k="ssr:stedsnr" v="80571" />
	</node>
	<node lat="69.98028055516633" lon="23.504508245722192" id="-38260">
		<tag k="name" v="Nussuramoen - Nussurankuolpano" />
		<tag k="name:fkv" v="Nussurankuolpano" />
		<tag k="name:no" v="Nussuramoen" />
		<tag k="place" v="locality" />
		<tag k="ssr:stedsnr" v="80671" />
	</node>
	<node lat="70.20144445134935" lon="23.329436030252854" id="-38261">
		<tag k="fixme" v="consider natural=peak for the most distinct mountains in the district" />
		<tag k="name" v="Slettfjellet" />
		<tag k="natural" v="hill" />
		<tag k="place" v="locality" />
		<tag k="ssr:stedsnr" v="80676" />
	</node>
	<node lat="70.24210555763196" lon="23.623663798578452" id="-38264">
		<tag k="fixme" v="consider natural=peak for the most distinct mountains in the district" />
		<tag k="name" v="Gárdevárri" />
		<tag k="name:se" v="Gárdevárri" />
		<tag k="natural" v="hill" />
		<tag k="old_name:se" v="Gardevarri" />
		<tag k="place" v="locality" />
		<tag k="ssr:stedsnr" v="80775" />
	</node>
	<node lat="70.24476944863137" lon="23.521352677388965" id="-38265">
		<tag k="name" v="Fielvuonávži" />
		<tag k="name:se" v="Fielvuonávži" />
		<tag k="natural" v="valley" />
		<tag k="old_name:se" v="Fielvuonavži" />
		<tag k="place" v="locality" />
		<tag k="ssr:stedsnr" v="80782" />
	</node>
	<node lat="69.78491666807349" lon="23.765883230413042" id="-38273">
		<tag k="fixme" v="consider natural=peak for the most distinct mountains in the district" />
		<tag k="name" v="Hoalgir" />
		<tag k="name:se" v="Hoalgir" />
		<tag k="natural" v="hill" />
		<tag k="place" v="locality" />
		<tag k="ssr:stedsnr" v="80729" />
	</node>
	<node lat="70.04055555527331" lon="23.355613804048044" id="-38276">
		<tag k="alt_name:no" v="Raudbergbuktfjellet" />
		<tag k="fixme" v="consider natural=peak for the most distinct mountains in the district" />
		<tag k="loc_name:se" v="Gistovárri" />
		<tag k="name" v="Rødbergbuktfjellet" />
		<tag k="name:no" v="Rødbergbuktfjellet" />
		<tag k="natural" v="hill" />
		<tag k="place" v="locality" />
		<tag k="ssr:stedsnr" v="80821" />
	</node>
</osm>
