<?xml version="1.0" encoding="UTF-8"?>
<osm generator="osmapis" version="0.6">
	<node id="-67712" lat="60.4040777821" lon="12.3562083369">
		<tag k="name" v="Hærakassa" />
		<tag k="place" v="locality" />
		<tag k="ssr:stedsnr" v="239426" />
	</node>
	<node id="-66878" lat="60.4074999975" lon="12.206430553">
		<tag k="amenity" v="community_centre" />
		<tag k="name" v="Frysjøberget skole" />
		<tag k="ssr:stedsnr" v="358545" />
	</node>
	<node id="-68470" lat="60.4273638861" lon="12.242324993">
		<tag k="name" v="Røysene" />
		<tag k="ssr:stedsnr" v="707574" />
		<tag k="tourism" v="attraction" />
	</node>
	<node id="-67337" lat="60.479280558" lon="12.0955361155">
		<tag k="name" v="Utsikten" />
		<tag k="ssr:stedsnr" v="87198" />
		<tag k="tourism" v="viewpoint" />
	</node>
	<node id="-67636" lat="60.524380555" lon="12.0649916686">
		<tag k="amenity" v="community_centre" />
		<tag k="name" v="Alfheim" />
		<tag k="ssr:stedsnr" v="189872" />
	</node>
	<node id="-67344" lat="60.4802888917" lon="12.0022416681">
		<tag k="amenity" v="community_centre" />
		<tag k="name" v="Vestheim" />
		<tag k="ssr:stedsnr" v="87829" />
	</node>
	<node id="-68269" lat="60.3535138887" lon="11.918994452">
		<tag k="alt_name" v="Tjennstua" />
		<tag k="amenity" v="community_centre" />
		<tag k="name" v="Tjernstua" />
		<tag k="ssr:stedsnr" v="612295" />
	</node>
	<node id="-67467" lat="60.4536472205" lon="12.0752222271">
		<tag k="name" v="Gruetunet" />
		<tag k="ssr:stedsnr" v="127769" />
		<tag k="tourism" v="attraction" />
	</node>
	<node id="-68138" lat="60.4491861126" lon="12.052913887">
		<tag k="amenity" v="place_of_worship" />
		<tag k="denomination" v="lutheran" />
		<tag k="name" v="Grue kirke" />
		<tag k="religion" v="christian" />
		<tag k="ssr:stedsnr" v="552761" />
	</node>
	<node id="-67561" lat="60.3980027804" lon="12.5486916645">
		<tag k="amenity" v="community_centre" />
		<tag k="name" v="Vålberget skole" />
		<tag k="ssr:stedsnr" v="178804" />
	</node>
	<node id="-67238" lat="60.4000805596" lon="12.2127055582">
		<tag k="amenity" v="community_centre" />
		<tag k="name" v="Geitryggen" />
		<tag k="ssr:stedsnr" v="55503" />
	</node>
	<node id="-67845" lat="60.4182888862" lon="12.4059833342">
		<tag k="amenity" v="place_of_worship" />
		<tag k="denomination" v="lutheran" />
		<tag k="name" v="Grue Finnskog kirke" />
		<tag k="old_name" v="Grue-Finnskog" />
		<tag k="religion" v="christian" />
		<tag k="ssr:stedsnr" v="431031" />
	</node>
</osm>
