<?xml version="1.0" encoding="UTF-8"?>
<osm generator="osmapis" version="0.6">
	<node id="-67452" lat="60.3748583329" lon="11.8406805516">
		<tag k="highway" v="path" />
		<tag k="name" v="Meitsjøvegen" />
		<tag k="ssr:stedsnr" v="102275" />
	</node>
	<node id="-68731" lat="60.3835277821" lon="12.3790027764">
		<tag k="name" v="Kørsvelta" />
		<tag k="place" v="locality" />
		<tag k="ssr:stedsnr" v="770442" />
	</node>
	<node id="-68472" lat="60.450294447" lon="11.9346527741">
		<tag k="bridge" v="yes" />
		<tag k="layer" v="1" />
		<tag k="name" v="Magnebru" />
		<tag k="ssr:stedsnr" v="666126" />
	</node>
	<node id="-68725" lat="60.4198583355" lon="12.5891000074">
		<tag k="name" v="Rundvelta" />
		<tag k="place" v="locality" />
		<tag k="ssr:stedsnr" v="769756" />
	</node>
	<node id="-66801" lat="60.4667249994" lon="12.3338694519">
		<tag k="alt_name" v="Vaet" />
		<tag k="ford" v="yes" />
		<tag k="name" v="Vadet" />
		<tag k="place" v="locality" />
		<tag k="ssr:stedsnr" v="298309" />
	</node>
	<node id="-67440" lat="60.4262416654" lon="12.3536222263">
		<tag k="fixme" v="consider highway=path" />
		<tag k="highway" v="track" />
		<tag k="name" v="Gamle Skasbergsvegen" />
		<tag k="ssr:stedsnr" v="101412" />
	</node>
	<node id="-68463" lat="60.4495277755" lon="12.6016777857">
		<tag k="highway" v="path" />
		<tag k="name" v="Abbortjennsvegen" />
		<tag k="ssr:stedsnr" v="664638" />
	</node>
	<node id="-67177" lat="60.4563772344" lon="12.0605649548">
		<tag k="name" v="Kirkenær stasjon" />
		<tag k="railway" v="station" />
		<tag k="ssr:stedsnr" v="989992" />
		<tag k="train" v="yes" />
	</node>
	<node id="-67176" lat="60.431755132" lon="12.3180104622">
		<tag k="highway" v="path" />
		<tag k="name" v="Finnevegen" />
		<tag k="ssr:stedsnr" v="1073325" />
	</node>
	<node id="-67174" lat="60.2769361142" lon="12.5054777799">
		<tag k="bridge" v="yes" />
		<tag k="layer" v="1" />
		<tag k="name" v="Rotnemo N." />
		<tag k="ssr:stedsnr" v="895647" />
	</node>
	<node id="-67172" lat="60.4918166642" lon="12.4834555576">
		<tag k="fixme" v="consider highway=path" />
		<tag k="highway" v="track" />
		<tag k="name" v="Gamle Lukashaugsvegen" />
		<tag k="ssr:stedsnr" v="892887" />
	</node>
	<node id="-66912" lat="60.5077416624" lon="12.2052055521">
		<tag k="fixme" v="consider highway=path" />
		<tag k="highway" v="track" />
		<tag k="name" v="Gamle Byersætervegen" />
		<tag k="ssr:stedsnr" v="343658" />
	</node>
	<node id="-68703" lat="60.4372388855" lon="12.3919944394">
		<tag k="highway" v="path" />
		<tag k="name" v="Snøplogen" />
		<tag k="ssr:stedsnr" v="768364" />
	</node>
	<node id="-66781" lat="60.4312055559" lon="12.5458805548">
		<tag k="highway" v="path" />
		<tag k="name" v="Kavlemyrvegen" />
		<tag k="ssr:stedsnr" v="284800" />
	</node>
	<node id="-68053" lat="60.4348250024" lon="12.4917083283">
		<tag k="fixme" v="verify maritime location" />
		<tag k="mooring" v="yes" />
		<tag k="name" v="Valgama" />
		<tag k="place" v="locality" />
		<tag k="ssr:stedsnr" v="491011" />
	</node>
	<node id="-67283" lat="60.3796638907" lon="11.8643444372">
		<tag k="highway" v="path" />
		<tag k="name" v="Halvardsgate" />
		<tag k="ssr:stedsnr" v="41213" />
	</node>
	<node id="-68050" lat="60.3641527767" lon="11.8476722131">
		<tag k="highway" v="path" />
		<tag k="name" v="Meitsjøvegen" />
		<tag k="ssr:stedsnr" v="484271" />
	</node>
	<node id="-68943" lat="60.4497944467" lon="12.5549611064">
		<tag k="junction" v="yes" />
		<tag k="name" v="Håvkrysset" />
		<tag k="place" v="locality" />
		<tag k="ssr:stedsnr" v="848675" />
	</node>
	<node id="-67150" lat="60.3571055569" lon="12.4612861022">
		<tag k="fixme" v="consider highway=path" />
		<tag k="highway" v="track" />
		<tag k="name" v="Østbergsvegen" />
		<tag k="ssr:stedsnr" v="891228" />
	</node>
	<node id="-68686" lat="60.391744445" lon="12.0940944471">
		<tag k="highway" v="path" />
		<tag k="name" v="Lurvegskillet" />
		<tag k="ssr:stedsnr" v="754757" />
	</node>
	<node id="-68423" lat="60.5309833354" lon="12.3571916644">
		<tag k="fixme" v="consider highway=path" />
		<tag k="highway" v="track" />
		<tag k="name" v="Smågårdssætervegen" />
		<tag k="ssr:stedsnr" v="648278" />
	</node>
	<node id="-67448" lat="60.3591361155" lon="12.4341499979">
		<tag k="name" v="Fjortenvelta" />
		<tag k="place" v="locality" />
		<tag k="ssr:stedsnr" v="102140" />
	</node>
	<node id="-68933" lat="60.3693083341" lon="11.9516555633">
		<tag k="highway" v="path" />
		<tag k="name" v="Livegen" />
		<tag k="ssr:stedsnr" v="847046" />
	</node>
	<node id="-68035" lat="60.3652722246" lon="12.2428861089">
		<tag k="highway" v="path" />
		<tag k="name" v="Nedre Smiuskjærvegen" />
		<tag k="ssr:stedsnr" v="480719" />
	</node>
	<node id="-67778" lat="60.3634833359" lon="12.2410916658">
		<tag k="highway" v="path" />
		<tag k="name" v="Øvre Smiuskjærvegen" />
		<tag k="ssr:stedsnr" v="237724" />
	</node>
	<node id="-68032" lat="60.3898833306" lon="12.0450166595">
		<tag k="bridge" v="yes" />
		<tag k="layer" v="1" />
		<tag k="name" v="Kveia" />
		<tag k="ssr:stedsnr" v="470665" />
	</node>
	<node id="-68410" lat="60.4378416685" lon="12.453569447">
		<tag k="fixme" v="consider highway=path" />
		<tag k="highway" v="track" />
		<tag k="name" v="Gamle Finnvegen" />
		<tag k="ssr:stedsnr" v="647027" />
	</node>
	<node id="-68919" lat="60.4204944416" lon="12.1646166691">
		<tag k="highway" v="path" />
		<tag k="name" v="Mastvegen" />
		<tag k="ssr:stedsnr" v="844950" />
	</node>
	<node id="-68918" lat="60.4501666679" lon="12.1520611176">
		<tag k="highway" v="path" />
		<tag k="name" v="Finnvegen" />
		<tag k="ssr:stedsnr" v="844942" />
	</node>
	<node id="-69169" lat="60.4249805566" lon="12.1214305509">
		<tag k="bridge" v="yes" />
		<tag k="layer" v="1" />
		<tag k="name" v="Aurbekkholen bru" />
		<tag k="ssr:stedsnr" v="956703" />
	</node>
	<node id="-68143" lat="60.4102500021" lon="12.0066527817">
		<tag k="bridge" v="yes" />
		<tag k="layer" v="1" />
		<tag k="name" v="Domma" />
		<tag k="ssr:stedsnr" v="531699" />
	</node>
	<node id="-68268" lat="60.5046555589" lon="12.5985472281">
		<tag k="fixme" v="verify maritime location" />
		<tag k="mooring" v="yes" />
		<tag k="name" v="Båtstø" />
		<tag k="place" v="locality" />
		<tag k="ssr:stedsnr" v="587635" />
	</node>
	<node id="-67753" lat="60.5244666693" lon="12.3218527691">
		<tag k="fixme" v="consider highway=path" />
		<tag k="highway" v="track" />
		<tag k="name" v="Grøndalsvegen" />
		<tag k="ssr:stedsnr" v="223240" />
	</node>
	<node id="-68134" lat="60.38905833" lon="12.3487000057">
		<tag k="name" v="Meldalsvelta" />
		<tag k="place" v="locality" />
		<tag k="ssr:stedsnr" v="527453" />
	</node>
	<node id="-67619" lat="60.3785222242" lon="12.2516250007">
		<tag k="highway" v="path" />
		<tag k="name" v="Jønsøkkoievegen" />
		<tag k="ssr:stedsnr" v="176464" />
	</node>
	<node id="-66975" lat="60.5063722205" lon="12.4878555608">
		<tag k="highway" v="path" />
		<tag k="name" v="Gamle Jensilavegen" />
		<tag k="ssr:stedsnr" v="360874" />
	</node>
	<node id="-67119" lat="60.4070527804" lon="12.204205551">
		<tag k="bridge" v="yes" />
		<tag k="layer" v="1" />
		<tag k="name" v="Gullbekken" />
		<tag k="ssr:stedsnr" v="410661" />
	</node>
	<node id="-69142" lat="60.4233083296" lon="12.5477861157">
		<tag k="name" v="Ormvelta" />
		<tag k="place" v="locality" />
		<tag k="ssr:stedsnr" v="951775" />
	</node>
	<node id="-66793" lat="60.4920500039" lon="12.0776416726">
		<tag k="bridge" v="yes" />
		<tag k="layer" v="1" />
		<tag k="name" v="Namnå nordre" />
		<tag k="ssr:stedsnr" v="46717" />
	</node>
	<node id="-68881" lat="60.42101944" lon="12.5497944473">
		<tag k="name" v="Rundvelta" />
		<tag k="place" v="locality" />
		<tag k="ssr:stedsnr" v="830775" />
	</node>
	<node id="-68744" lat="60.4224944463" lon="12.1377333271">
		<tag k="bridge" v="yes" />
		<tag k="layer" v="1" />
		<tag k="name" v="Aurbekken bru" />
		<tag k="ssr:stedsnr" v="774702" />
	</node>
	<node id="-66948" lat="60.4032777776" lon="12.4057972165">
		<tag k="ford" v="yes" />
		<tag k="name" v="Bakkavaet" />
		<tag k="place" v="locality" />
		<tag k="ssr:stedsnr" v="358091" />
	</node>
	<node id="-66946" lat="60.3837916658" lon="12.0084138977">
		<tag k="bridge" v="yes" />
		<tag k="layer" v="1" />
		<tag k="name" v="Neså" />
		<tag k="ssr:stedsnr" v="349713" />
	</node>
	<node id="-66945" lat="60.4295972239" lon="12.0442638945">
		<tag k="bridge" v="yes" />
		<tag k="layer" v="1" />
		<tag k="name" v="Kongshov bru" />
		<tag k="ssr:stedsnr" v="349712" />
	</node>
</osm>
