<?xml version="1.0" encoding="UTF-8"?>
<osm generator="osmapis" version="0.6">
	<node id="-68605" lat="60.3711166656" lon="12.2715499975">
		<tag k="name" v="Frysjøbergsaven" />
		<tag k="natural" v="valley" />
		<tag k="place" v="locality" />
		<tag k="ssr:stedsnr" v="723513" />
	</node>
	<node id="-69115" lat="60.4361805547" lon="12.4381333396">
		<tag k="name" v="Kråkhaugen" />
		<tag k="natural" v="hill" />
		<tag k="place" v="locality" />
		<tag k="ssr:stedsnr" v="950025" />
	</node>
	<node id="-68602" lat="60.3633750029" lon="12.5313388902">
		<tag k="name" v="Styggberget" />
		<tag k="natural" v="hill" />
		<tag k="place" v="locality" />
		<tag k="ssr:stedsnr" v="722924" />
	</node>
	<node id="-67577" lat="60.3675111139" lon="12.4087027711">
		<tag k="name" v="Rundhaugen" />
		<tag k="natural" v="hill" />
		<tag k="place" v="locality" />
		<tag k="ssr:stedsnr" v="162128" />
	</node>
	<node id="-69111" lat="60.4594722255" lon="12.0985583368">
		<tag k="fixme" v="consider natural=peak for the most distinct mountains in the district" />
		<tag k="name" v="Franssen" />
		<tag k="natural" v="hill" />
		<tag k="place" v="locality" />
		<tag k="ssr:stedsnr" v="936813" />
	</node>
	<node id="-69110" lat="60.4814972178" lon="12.0253111181">
		<tag k="name" v="Sundsenga" />
		<tag k="place" v="locality" />
		<tag k="ssr:stedsnr" v="936723" />
	</node>
	<node id="-67241" lat="60.4860527748" lon="11.966752776">
		<tag k="name" v="Flåsetberget" />
		<tag k="natural" v="hill" />
		<tag k="place" v="locality" />
		<tag k="ssr:stedsnr" v="6691" />
	</node>
	<node id="-68083" lat="60.4592555559" lon="12.2314777753">
		<tag k="alt_name" v="Østre Tyriberget" />
		<tag k="name" v="Tyriberget" />
		<tag k="natural" v="hill" />
		<tag k="place" v="locality" />
		<tag k="ssr:stedsnr" v="492063" />
	</node>
	<node id="-68594" lat="60.473444447" lon="12.3293222232">
		<tag k="name" v="Leirhølet" />
		<tag k="natural" v="valley" />
		<tag k="place" v="locality" />
		<tag k="ssr:stedsnr" v="722336" />
	</node>
	<node id="-69105" lat="60.3806249954" lon="12.0796861175">
		<tag k="name" v="Iversbråten" />
		<tag k="place" v="locality" />
		<tag k="ssr:stedsnr" v="936159" />
	</node>
	<node id="-67568" lat="60.5122055578" lon="12.1756277696">
		<tag k="name" v="Klyperud" />
		<tag k="place" v="locality" />
		<tag k="ssr:stedsnr" v="161604" />
	</node>
	<node id="-67052" lat="60.3886361127" lon="12.0681805526">
		<tag k="name" v="Piksrudberget" />
		<tag k="natural" v="hill" />
		<tag k="place" v="locality" />
		<tag k="ssr:stedsnr" v="390148" />
	</node>
	<node id="-68161" lat="60.433766663" lon="11.8352749983">
		<tag k="name" v="Hestkroken" />
		<tag k="place" v="locality" />
		<tag k="ssr:stedsnr" v="542194" />
	</node>
	<node id="-69098" lat="60.5422833363" lon="12.1852138826">
		<tag k="name" v="Grautsjøberget" />
		<tag k="natural" v="hill" />
		<tag k="place" v="locality" />
		<tag k="ssr:stedsnr" v="917974" />
	</node>
	<node id="-67561" lat="60.5066472245" lon="12.0054055513">
		<tag k="fixme" v="consider natural=peak for the most distinct mountains in the district" />
		<tag k="name" v="Bjørkåsen" />
		<tag k="natural" v="hill" />
		<tag k="place" v="locality" />
		<tag k="ssr:stedsnr" v="147207" />
	</node>
	<node id="-68581" lat="60.4624888883" lon="11.9685166732">
		<tag k="name" v="Berget" />
		<tag k="natural" v="hill" />
		<tag k="place" v="locality" />
		<tag k="ssr:stedsnr" v="709854" />
	</node>
	<node id="-69092" lat="60.4392888908" lon="12.0744944458">
		<tag k="name" v="Kila" />
		<tag k="place" v="locality" />
		<tag k="ssr:stedsnr" v="917737" />
	</node>
	<node id="-69090" lat="60.4446166664" lon="11.8743944495">
		<tag k="name" v="Åberget" />
		<tag k="natural" v="hill" />
		<tag k="place" v="locality" />
		<tag k="ssr:stedsnr" v="917725" />
	</node>
	<node id="-69089" lat="60.4475194417" lon="11.8522777762">
		<tag k="name" v="Vingersberget" />
		<tag k="natural" v="hill" />
		<tag k="place" v="locality" />
		<tag k="ssr:stedsnr" v="917722" />
	</node>
	<node id="-69088" lat="60.5070583342" lon="12.2688249956">
		<tag k="fixme" v="consider natural=peak for the most distinct mountains in the district" />
		<tag k="name" v="Mårhellaskjæra" />
		<tag k="natural" v="hill" />
		<tag k="place" v="locality" />
		<tag k="ssr:stedsnr" v="917715" />
	</node>
	<node id="-68061" lat="60.4927888927" lon="12.2966000028">
		<tag k="name" v="Styggdalsberget" />
		<tag k="natural" v="hill" />
		<tag k="place" v="locality" />
		<tag k="ssr:stedsnr" v="491070" />
	</node>
	<node id="-69083" lat="60.4345888905" lon="11.9066249975">
		<tag k="name" v="Domklinten" />
		<tag k="natural" v="hill" />
		<tag k="place" v="locality" />
		<tag k="ssr:stedsnr" v="917673" />
	</node>
	<node id="-69082" lat="60.3669027797" lon="11.9788249993">
		<tag k="name" v="Nesberget" />
		<tag k="natural" v="hill" />
		<tag k="place" v="locality" />
		<tag k="ssr:stedsnr" v="917321" />
	</node>
	<node id="-68569" lat="60.5010833293" lon="12.3625555592">
		<tag k="name" v="Brennberget" />
		<tag k="natural" v="hill" />
		<tag k="place" v="locality" />
		<tag k="ssr:stedsnr" v="709297" />
	</node>
	<node id="-69079" lat="60.3663749955" lon="11.8592777796">
		<tag k="name" v="Lauvberget" />
		<tag k="natural" v="hill" />
		<tag k="place" v="locality" />
		<tag k="ssr:stedsnr" v="917229" />
	</node>
	<node id="-67542" lat="60.4633083329" lon="12.1107583344">
		<tag k="name" v="Hammarberget" />
		<tag k="natural" v="hill" />
		<tag k="place" v="locality" />
		<tag k="ssr:stedsnr" v="127751" />
	</node>
	<node id="-68430" lat="60.4800055536" lon="12.594002782">
		<tag k="name" v="Faligbakken" />
		<tag k="natural" v="slope" />
		<tag k="place" v="locality" />
		<tag k="ssr:stedsnr" v="648613" />
	</node>
	<node id="-67537" lat="60.4796388912" lon="11.923149995">
		<tag k="fixme" v="consider natural=peak for the most distinct mountains in the district" />
		<tag k="name" v="Fjøråsen" />
		<tag k="natural" v="hill" />
		<tag k="place" v="locality" />
		<tag k="ssr:stedsnr" v="127676" />
	</node>
	<node id="-69071" lat="60.4640694481" lon="11.9247861107">
		<tag k="name" v="Buberget" />
		<tag k="natural" v="hill" />
		<tag k="place" v="locality" />
		<tag k="ssr:stedsnr" v="916683" />
	</node>
	<node id="-69069" lat="60.4623750022" lon="11.8921027703">
		<tag k="name" v="Revklinten" />
		<tag k="natural" v="hill" />
		<tag k="place" v="locality" />
		<tag k="ssr:stedsnr" v="916681" />
	</node>
	<node id="-66978" lat="60.4856305536" lon="11.8803972191">
		<tag k="alt_name" v="Holmslia" />
		<tag k="name" v="Holmsjølia" />
		<tag k="natural" v="slope" />
		<tag k="place" v="locality" />
		<tag k="ssr:stedsnr" v="361048" />
	</node>
	<node id="-69065" lat="60.3860416633" lon="12.1110444364">
		<tag k="name" v="Langlia" />
		<tag k="natural" v="slope" />
		<tag k="place" v="locality" />
		<tag k="ssr:stedsnr" v="916380" />
	</node>
	<node id="-68039" lat="60.3743666651" lon="12.4111416655">
		<tag k="name" v="Helgeklinten" />
		<tag k="natural" v="hill" />
		<tag k="place" v="locality" />
		<tag k="ssr:stedsnr" v="482093" />
	</node>
	<node id="-68036" lat="60.3646277741" lon="12.2345333314">
		<tag k="name" v="Horisonten" />
		<tag k="natural" v="hill" />
		<tag k="place" v="locality" />
		<tag k="ssr:stedsnr" v="480721" />
	</node>
	<node id="-67574" lat="60.4511388855" lon="12.352211106">
		<tag k="name" v="Knappaskjæra" />
		<tag k="natural" v="hill" />
		<tag k="place" v="locality" />
		<tag k="ssr:stedsnr" v="161385" />
	</node>
	<node id="-68034" lat="60.4503000033" lon="12.2318055571">
		<tag k="name" v="Holstadberget" />
		<tag k="natural" v="hill" />
		<tag k="place" v="locality" />
		<tag k="ssr:stedsnr" v="480590" />
	</node>
	<node id="-67521" lat="60.34983889" lon="12.4524805547">
		<tag k="name" v="Moberget" />
		<tag k="natural" v="hill" />
		<tag k="place" v="locality" />
		<tag k="ssr:stedsnr" v="127253" />
	</node>
	<node id="-68028" lat="60.4039694425" lon="12.3246055591">
		<tag k="name" v="Storhaugen" />
		<tag k="natural" v="hill" />
		<tag k="place" v="locality" />
		<tag k="ssr:stedsnr" v="467469" />
	</node>
	<node id="-69051" lat="60.4702666668" lon="12.2784666662">
		<tag k="name" v="Veltberget" />
		<tag k="natural" v="hill" />
		<tag k="place" v="locality" />
		<tag k="ssr:stedsnr" v="916088" />
	</node>
	<node id="-69050" lat="60.4863916689" lon="12.2237194385">
		<tag k="name" v="Blomberget" />
		<tag k="natural" v="hill" />
		<tag k="place" v="locality" />
		<tag k="ssr:stedsnr" v="916083" />
	</node>
	<node id="-68025" lat="60.4121555593" lon="12.4173888821">
		<tag k="name" v="Lukberget" />
		<tag k="natural" v="hill" />
		<tag k="place" v="locality" />
		<tag k="ssr:stedsnr" v="467039" />
	</node>
	<node id="-67017" lat="60.394066665" lon="11.9682861076">
		<tag k="alt_name" v="Skarliberget" />
		<tag k="name" v="Skaraliberget" />
		<tag k="natural" v="hill" />
		<tag k="place" v="locality" />
		<tag k="ssr:stedsnr" v="370381" />
	</node>
	<node id="-68510" lat="60.390630557" lon="12.1962138809">
		<tag k="name" v="Knarten" />
		<tag k="natural" v="hill" />
		<tag k="place" v="locality" />
		<tag k="ssr:stedsnr" v="674360" />
	</node>
	<node id="-67506" lat="60.3793444401" lon="12.3923999987">
		<tag k="alt_name" v="Skrivilen" />
		<tag k="name" v="Skrivilberget" />
		<tag k="natural" v="hill" />
		<tag k="place" v="locality" />
		<tag k="ssr:stedsnr" v="127061" />
	</node>
	<node id="-67571" lat="60.3391999967" lon="12.2072361157">
		<tag k="name" v="Jonasmyrberget" />
		<tag k="natural" v="hill" />
		<tag k="place" v="locality" />
		<tag k="ssr:stedsnr" v="161656" />
	</node>
	<node id="-68014" lat="60.3781916643" lon="12.4890027723">
		<tag k="name" v="Metsigaberget" />
		<tag k="natural" v="hill" />
		<tag k="place" v="locality" />
		<tag k="ssr:stedsnr" v="466169" />
	</node>
	<node id="-67997" lat="60.4517055528" lon="12.4288194531">
		<tag k="name" v="Lindalen" />
		<tag k="natural" v="valley" />
		<tag k="place" v="locality" />
		<tag k="ssr:stedsnr" v="465017" />
	</node>
	<node id="-68082" lat="60.4547833365" lon="11.8655611118">
		<tag k="name" v="Grevlingberget" />
		<tag k="natural" v="hill" />
		<tag k="place" v="locality" />
		<tag k="ssr:stedsnr" v="491724" />
	</node>
	<node id="-66985" lat="60.4512583363" lon="11.8547166607">
		<tag k="name" v="Gryta" />
		<tag k="natural" v="valley" />
		<tag k="place" v="locality" />
		<tag k="ssr:stedsnr" v="362040" />
	</node>
	<node id="-69031" lat="60.3547055515" lon="12.2029833281">
		<tag k="fixme" v="consider natural=peak for the most distinct mountains in the district" />
		<tag k="name" v="Høgtidsbergtoppen" />
		<tag k="natural" v="hill" />
		<tag k="ssr:stedsnr" v="907631" />
	</node>
	<node id="-68006" lat="60.3305555525" lon="12.2072861127">
		<tag k="name" v="Skjæra" />
		<tag k="natural" v="hill" />
		<tag k="place" v="locality" />
		<tag k="ssr:stedsnr" v="465670" />
	</node>
	<node id="-69029" lat="60.370172219" lon="12.2232361031">
		<tag k="name" v="Rosedalen" />
		<tag k="natural" v="valley" />
		<tag k="place" v="locality" />
		<tag k="ssr:stedsnr" v="907478" />
	</node>
	<node id="-67492" lat="60.4951083309" lon="12.3126972202">
		<tag k="name" v="Fuglemyrbakken" />
		<tag k="natural" v="hill" />
		<tag k="place" v="locality" />
		<tag k="ssr:stedsnr" v="118281" />
	</node>
	<node id="-69027" lat="60.3973583369" lon="11.9547805567">
		<tag k="name" v="Myssmørhella" />
		<tag k="natural" v="hill" />
		<tag k="place" v="locality" />
		<tag k="ssr:stedsnr" v="907094" />
	</node>
	<node id="-69026" lat="60.3690194425" lon="11.9654555469">
		<tag k="name" v="Domtjennslia" />
		<tag k="natural" v="slope" />
		<tag k="place" v="locality" />
		<tag k="ssr:stedsnr" v="907023" />
	</node>
	<node id="-69022" lat="60.3681083303" lon="12.5369666715">
		<tag k="name" v="Gåntigallinabben" />
		<tag k="place" v="locality" />
		<tag k="ssr:stedsnr" v="905912" />
	</node>
	<node id="-69021" lat="60.3914750012" lon="12.2284777756">
		<tag k="name" v="Øvre Gullhaugen" />
		<tag k="natural" v="hill" />
		<tag k="place" v="locality" />
		<tag k="ssr:stedsnr" v="905550" />
	</node>
	<node id="-67235" lat="60.4833749971" lon="12.1393444518">
		<tag k="name" v="Torsberget" />
		<tag k="natural" v="hill" />
		<tag k="place" v="locality" />
		<tag k="ssr:stedsnr" v="6659" />
	</node>
	<node id="-69015" lat="60.4379777758" lon="12.2214638945">
		<tag k="name" v="Rafjellskjæra" />
		<tag k="natural" v="hill" />
		<tag k="place" v="locality" />
		<tag k="ssr:stedsnr" v="904550" />
	</node>
	<node id="-69013" lat="60.4658166681" lon="12.1062222293">
		<tag k="name" v="Igletjennsdalen" />
		<tag k="natural" v="valley" />
		<tag k="place" v="locality" />
		<tag k="ssr:stedsnr" v="876857" />
	</node>
	<node id="-68500" lat="60.4847805541" lon="12.3230666595">
		<tag k="name" v="Storberget" />
		<tag k="natural" v="hill" />
		<tag k="place" v="locality" />
		<tag k="ssr:stedsnr" v="674074" />
	</node>
	<node id="-69009" lat="60.4666416695" lon="12.0988305577">
		<tag k="fixme" v="consider natural=peak for the most distinct mountains in the district" />
		<tag k="name" v="Høgåsen" />
		<tag k="natural" v="hill" />
		<tag k="place" v="locality" />
		<tag k="ssr:stedsnr" v="876245" />
	</node>
	<node id="-67983" lat="60.4794027771" lon="11.8339083288">
		<tag k="name" v="Mikkelsberget" />
		<tag k="natural" v="hill" />
		<tag k="place" v="locality" />
		<tag k="ssr:stedsnr" v="450375" />
	</node>
	<node id="-66797" lat="60.4895999975" lon="11.9417583268">
		<tag k="name" v="Skyrudhaugen" />
		<tag k="natural" v="hill" />
		<tag k="place" v="locality" />
		<tag k="ssr:stedsnr" v="298102" />
	</node>
	<node id="-67980" lat="60.5153750001" lon="12.0845111049">
		<tag k="name" v="Sorknesmoen" />
		<tag k="place" v="locality" />
		<tag k="ssr:stedsnr" v="432897" />
	</node>
	<node id="-67467" lat="60.3815249996" lon="12.3734333298">
		<tag k="fixme" v="consider natural=peak for the most distinct mountains in the district" />
		<tag k="name" v="Vollerberget" />
		<tag k="natural" v="hill" />
		<tag k="place" v="locality" />
		<tag k="ssr:stedsnr" v="103468" />
	</node>
	<node id="-69002" lat="60.3949055574" lon="12.0763749951">
		<tag k="name" v="Brynberget" />
		<tag k="natural" v="hill" />
		<tag k="place" v="locality" />
		<tag k="ssr:stedsnr" v="876154" />
	</node>
	<node id="-68959" lat="60.4078888863" lon="12.3475750015">
		<tag k="name" v="Løvberget" />
		<tag k="natural" v="hill" />
		<tag k="place" v="locality" />
		<tag k="ssr:stedsnr" v="856031" />
	</node>
	<node id="-68485" lat="60.3693499988" lon="12.4614250023">
		<tag k="name" v="Ryaberget" />
		<tag k="natural" v="hill" />
		<tag k="place" v="locality" />
		<tag k="ssr:stedsnr" v="673212" />
	</node>
	<node id="-68482" lat="60.4606527777" lon="12.5893194412">
		<tag k="name" v="Iversberget" />
		<tag k="natural" v="hill" />
		<tag k="place" v="locality" />
		<tag k="ssr:stedsnr" v="673129" />
	</node>
	<node id="-68481" lat="60.4659583359" lon="12.5978805522">
		<tag k="name" v="Balagombo" />
		<tag k="natural" v="hill" />
		<tag k="place" v="locality" />
		<tag k="ssr:stedsnr" v="673122" />
	</node>
	<node id="-68477" lat="60.4263277809" lon="12.572024993">
		<tag k="name" v="Skåkberget" />
		<tag k="natural" v="hill" />
		<tag k="place" v="locality" />
		<tag k="ssr:stedsnr" v="673023" />
	</node>
	<node id="-68988" lat="60.4266249988" lon="11.8900166658">
		<tag k="name" v="Juvberget" />
		<tag k="natural" v="hill" />
		<tag k="place" v="locality" />
		<tag k="ssr:stedsnr" v="856716" />
	</node>
	<node id="-66939" lat="60.344027779" lon="12.2405000062">
		<tag k="name" v="Karlsbruberget" />
		<tag k="natural" v="hill" />
		<tag k="place" v="locality" />
		<tag k="ssr:stedsnr" v="345645" />
	</node>
	<node id="-67450" lat="60.3802277765" lon="12.5050027828">
		<tag k="name" v="Dammikkalamminmæk" />
		<tag k="natural" v="hill" />
		<tag k="place" v="locality" />
		<tag k="ssr:stedsnr" v="102173" />
	</node>
	<node id="-69183" lat="60.35815278" lon="12.5440416612">
		<tag k="name" v="Gokkonårrå" />
		<tag k="natural" v="valley" />
		<tag k="place" v="locality" />
		<tag k="ssr:stedsnr" v="965915" />
	</node>
	<node id="-66936" lat="60.4682555588" lon="12.2848333391">
		<tag k="name" v="Sanderberget" />
		<tag k="natural" v="hill" />
		<tag k="place" v="locality" />
		<tag k="ssr:stedsnr" v="345572" />
	</node>
	<node id="-68471" lat="60.4447972213" lon="11.9281611137">
		<tag k="name" v="Revklinten" />
		<tag k="natural" v="hill" />
		<tag k="place" v="locality" />
		<tag k="ssr:stedsnr" v="666127" />
	</node>
	<node id="-68470" lat="60.4736666679" lon="12.1266305601">
		<tag k="name" v="Jerphaugen" />
		<tag k="natural" v="hill" />
		<tag k="place" v="locality" />
		<tag k="ssr:stedsnr" v="665829" />
	</node>
	<node id="-67957" lat="60.5088638924" lon="11.9726527854">
		<tag k="alt_name" v="Rønåsberget" />
		<tag k="name" v="Rønnåsberget" />
		<tag k="natural" v="hill" />
		<tag k="place" v="locality" />
		<tag k="ssr:stedsnr" v="431696" />
	</node>
	<node id="-67956" lat="60.4616777767" lon="11.9153666588">
		<tag k="name" v="Skurven" />
		<tag k="natural" v="hill" />
		<tag k="place" v="locality" />
		<tag k="ssr:stedsnr" v="431687" />
	</node>
	<node id="-67955" lat="60.4737638878" lon="12.1418083331">
		<tag k="name" v="Sormsberget" />
		<tag k="natural" v="hill" />
		<tag k="place" v="locality" />
		<tag k="ssr:stedsnr" v="431673" />
	</node>
	<node id="-68466" lat="60.3540111084" lon="12.2097277726">
		<tag k="fixme" v="consider natural=peak for the most distinct mountains in the district" />
		<tag k="name" v="Servtjennsberget" />
		<tag k="natural" v="hill" />
		<tag k="place" v="locality" />
		<tag k="ssr:stedsnr" v="664666" />
	</node>
	<node id="-66928" lat="60.4275277765" lon="12.3229555578">
		<tag k="fixme" v="consider natural=peak for the most distinct mountains in the district" />
		<tag k="name" v="Søndre Skasberget" />
		<tag k="natural" v="hill" />
		<tag k="place" v="locality" />
		<tag k="ssr:stedsnr" v="345397" />
	</node>
	<node id="-68972" lat="60.3966277806" lon="11.8790916591">
		<tag k="name" v="Pasoberget" />
		<tag k="natural" v="hill" />
		<tag k="place" v="locality" />
		<tag k="ssr:stedsnr" v="856344" />
	</node>
	<node id="-66922" lat="60.3854111135" lon="11.8776388938">
		<tag k="name" v="Korpberget" />
		<tag k="natural" v="hill" />
		<tag k="place" v="locality" />
		<tag k="ssr:stedsnr" v="344221" />
	</node>
	<node id="-67945" lat="60.3745277787" lon="11.8988416677">
		<tag k="name" v="Bleigen" />
		<tag k="natural" v="hill" />
		<tag k="place" v="locality" />
		<tag k="ssr:stedsnr" v="431376" />
	</node>
	<node id="-67942" lat="60.414794442" lon="11.9863499936">
		<tag k="fixme" v="consider natural=peak for the most distinct mountains in the district" />
		<tag k="name" v="Kulåsen" />
		<tag k="natural" v="hill" />
		<tag k="place" v="locality" />
		<tag k="ssr:stedsnr" v="431358" />
	</node>
	<node id="-68453" lat="60.3727666667" lon="12.1343499932">
		<tag k="name" v="Veltsæterberget" />
		<tag k="natural" v="hill" />
		<tag k="place" v="locality" />
		<tag k="ssr:stedsnr" v="662909" />
	</node>
	<node id="-66916" lat="60.3786166691" lon="12.5385777801">
		<tag k="fixme" v="consider natural=peak for the most distinct mountains in the district" />
		<tag k="name" v="Maurberget" />
		<tag k="natural" v="hill" />
		<tag k="place" v="locality" />
		<tag k="ssr:stedsnr" v="343781" />
	</node>
	<node id="-68451" lat="60.3782555597" lon="12.1357666724">
		<tag k="name" v="Barkesjødalen" />
		<tag k="natural" v="valley" />
		<tag k="place" v="locality" />
		<tag k="ssr:stedsnr" v="662894" />
	</node>
	<node id="-68450" lat="60.3635333366" lon="11.9767249969">
		<tag k="name" v="Neskjølen" />
		<tag k="place" v="locality" />
		<tag k="ssr:stedsnr" v="662889" />
	</node>
	<node id="-67424" lat="60.5049055534" lon="12.0731972195">
		<tag k="name" v="Stemsrudsmoen" />
		<tag k="place" v="locality" />
		<tag k="ssr:stedsnr" v="87856" />
	</node>
	<node id="-67935" lat="60.4468388847" lon="12.4910138804">
		<tag k="name" v="Tvengsberget" />
		<tag k="natural" v="hill" />
		<tag k="place" v="locality" />
		<tag k="ssr:stedsnr" v="431139" />
	</node>
	<node id="-66789" lat="60.4289305545" lon="12.3314527777">
		<tag k="name" v="Halsimæki" />
		<tag k="natural" v="hill" />
		<tag k="place" v="locality" />
		<tag k="ssr:stedsnr" v="285424" />
	</node>
	<node id="-68440" lat="60.372194443" lon="12.4506749915">
		<tag k="fixme" v="consider natural=peak for the most distinct mountains in the district" />
		<tag k="name" v="Mærraskjulberget" />
		<tag k="natural" v="hill" />
		<tag k="place" v="locality" />
		<tag k="ssr:stedsnr" v="661097" />
	</node>
	<node id="-67927" lat="60.4059055536" lon="12.6056999968">
		<tag k="fixme" v="consider natural=peak for the most distinct mountains in the district" />
		<tag k="name" v="Moldusen" />
		<tag k="natural" v="hill" />
		<tag k="place" v="locality" />
		<tag k="ssr:stedsnr" v="431044" />
	</node>
	<node id="-67924" lat="60.4130527766" lon="12.4462833409">
		<tag k="name" v="Torgardsberget" />
		<tag k="natural" v="hill" />
		<tag k="place" v="locality" />
		<tag k="ssr:stedsnr" v="431030" />
	</node>
	<node id="-67409" lat="60.5228888889" lon="12.205461105">
		<tag k="name" v="Juvberget" />
		<tag k="natural" v="hill" />
		<tag k="old_name" v="Juberget" />
		<tag k="place" v="locality" />
		<tag k="ssr:stedsnr" v="68917" />
	</node>
	<node id="-67524" lat="60.3678055586" lon="11.920586115">
		<tag k="name" v="Hauga" />
		<tag k="natural" v="hill" />
		<tag k="place" v="locality" />
		<tag k="ssr:stedsnr" v="127372" />
	</node>
	<node id="-68942" lat="60.4427749997" lon="11.9134444489">
		<tag k="name" v="Løvhaugen" />
		<tag k="natural" v="hill" />
		<tag k="place" v="locality" />
		<tag k="ssr:stedsnr" v="848126" />
	</node>
	<node id="-68426" lat="60.5313916638" lon="12.1806388878">
		<tag k="name" v="Galleriet" />
		<tag k="natural" v="slope" />
		<tag k="place" v="locality" />
		<tag k="ssr:stedsnr" v="648490" />
	</node>
	<node id="-68937" lat="60.4650416648" lon="11.8518694391">
		<tag k="name" v="Svartnakken" />
		<tag k="natural" v="hill" />
		<tag k="place" v="locality" />
		<tag k="ssr:stedsnr" v="848027" />
	</node>
	<node id="-66956" lat="60.4471916622" lon="12.2205805618">
		<tag k="name" v="Brutjennsberget" />
		<tag k="natural" v="hill" />
		<tag k="place" v="locality" />
		<tag k="ssr:stedsnr" v="358595" />
	</node>
	<node id="-66886" lat="60.3816944429" lon="12.0738833345">
		<tag k="name" v="Fuglemyrberget" />
		<tag k="natural" v="hill" />
		<tag k="place" v="locality" />
		<tag k="ssr:stedsnr" v="329161" />
	</node>
	<node id="-68932" lat="60.5166638885" lon="12.4968527823">
		<tag k="fixme" v="consider natural=peak for the most distinct mountains in the district" />
		<tag k="name" v="Diasinnoppi" />
		<tag k="natural" v="hill" />
		<tag k="place" v="locality" />
		<tag k="ssr:stedsnr" v="846919" />
	</node>
	<node id="-68419" lat="60.3851777778" lon="12.5193083374">
		<tag k="name" v="Mullulampberget" />
		<tag k="natural" v="hill" />
		<tag k="place" v="locality" />
		<tag k="ssr:stedsnr" v="648123" />
	</node>
	<node id="-68418" lat="60.3898722182" lon="11.8911444372">
		<tag k="name" v="Oksedalen" />
		<tag k="natural" v="valley" />
		<tag k="place" v="locality" />
		<tag k="ssr:stedsnr" v="648115" />
	</node>
	<node id="-66881" lat="60.3831027809" lon="12.5592972296">
		<tag k="name" v="Musholen" />
		<tag k="natural" v="ridge" />
		<tag k="place" v="locality" />
		<tag k="ssr:stedsnr" v="101829" />
	</node>
	<node id="-67391" lat="60.4213333354" lon="11.9416444472">
		<tag k="fixme" v="consider natural=peak for the most distinct mountains in the district" />
		<tag k="name" v="Tenåsen" />
		<tag k="natural" v="hill" />
		<tag k="place" v="locality" />
		<tag k="ssr:stedsnr" v="67716" />
	</node>
	<node id="-68925" lat="60.4947638853" lon="12.3214944413">
		<tag k="name" v="Haugen" />
		<tag k="natural" v="hill" />
		<tag k="place" v="locality" />
		<tag k="ssr:stedsnr" v="846251" />
	</node>
	<node id="-67387" lat="60.4804500002" lon="11.8988499989">
		<tag k="fixme" v="consider natural=peak for the most distinct mountains in the district" />
		<tag k="name" v="Snaufjellet" />
		<tag k="natural" v="hill" />
		<tag k="place" v="locality" />
		<tag k="ssr:stedsnr" v="67643" />
	</node>
	<node id="-67763" lat="60.4870694483" lon="12.4391444499">
		<tag k="name" v="Flaskeposten" />
		<tag k="place" v="locality" />
		<tag k="ssr:stedsnr" v="224909" />
	</node>
	<node id="-67124" lat="60.4661999992" lon="12.3590444464">
		<tag k="name" v="Trollkjerka" />
		<tag k="natural" v="hill" />
		<tag k="place" v="locality" />
		<tag k="ssr:stedsnr" v="479320" />
	</node>
	<node id="-66870" lat="60.5313833295" lon="12.4206055541">
		<tag k="name" v="Kaketjennsberget" />
		<tag k="natural" v="hill" />
		<tag k="place" v="locality" />
		<tag k="ssr:stedsnr" v="310708" />
	</node>
	<node id="-68917" lat="60.444425004" lon="12.1213833259">
		<tag k="fixme" v="consider natural=peak for the most distinct mountains in the district" />
		<tag k="name" v="Lundebyberget" />
		<tag k="natural" v="hill" />
		<tag k="place" v="locality" />
		<tag k="ssr:stedsnr" v="844939" />
	</node>
	<node id="-66868" lat="60.3750222261" lon="11.8529416687">
		<tag k="name" v="Bratthøgda" />
		<tag k="natural" v="hill" />
		<tag k="place" v="locality" />
		<tag k="ssr:stedsnr" v="310354" />
	</node>
	<node id="-68915" lat="60.3696472237" lon="12.141538892">
		<tag k="name" v="Eftasberget" />
		<tag k="natural" v="hill" />
		<tag k="place" v="locality" />
		<tag k="ssr:stedsnr" v="844918" />
	</node>
	<node id="-67377" lat="60.3383638916" lon="12.4898500042">
		<tag k="name" v="Ogonlampsberget" />
		<tag k="natural" v="hill" />
		<tag k="place" v="locality" />
		<tag k="ssr:stedsnr" v="67246" />
	</node>
	<node id="-67887" lat="60.4661194425" lon="12.306711118">
		<tag k="name" v="Kveinhauga" />
		<tag k="natural" v="hill" />
		<tag k="place" v="locality" />
		<tag k="ssr:stedsnr" v="419343" />
	</node>
	<node id="-68397" lat="60.4770777794" lon="12.0224805617">
		<tag k="name" v="Gåsholmen" />
		<tag k="place" v="locality" />
		<tag k="ssr:stedsnr" v="632261" />
	</node>
	<node id="-66860" lat="60.4689749966" lon="11.9080666668">
		<tag k="name" v="Rognberget" />
		<tag k="natural" v="hill" />
		<tag k="place" v="locality" />
		<tag k="ssr:stedsnr" v="309662" />
	</node>
	<node id="-68393" lat="60.3791416695" lon="12.1079138948">
		<tag k="name" v="Kostvedholen" />
		<tag k="natural" v="ridge" />
		<tag k="place" v="locality" />
		<tag k="ssr:stedsnr" v="632201" />
	</node>
	<node id="-67368" lat="60.4980500038" lon="12.4432722154">
		<tag k="alt_name" v="Bornolaget" />
		<tag k="name" v="Bornoberget" />
		<tag k="natural" v="hill" />
		<tag k="place" v="locality" />
		<tag k="ssr:stedsnr" v="67084" />
	</node>
	<node id="-66855" lat="60.4903500007" lon="12.268577786">
		<tag k="name" v="Bjørsjøberget" />
		<tag k="natural" v="hill" />
		<tag k="place" v="locality" />
		<tag k="ssr:stedsnr" v="309454" />
	</node>
	<node id="-66851" lat="60.3673166676" lon="12.4972666617">
		<tag k="name" v="Gallabakken" />
		<tag k="natural" v="hill" />
		<tag k="place" v="locality" />
		<tag k="ssr:stedsnr" v="309219" />
	</node>
	<node id="-67873" lat="60.5106083347" lon="12.2391305625">
		<tag k="alt_name" v="Håkåsberget" />
		<tag k="name" v="Hokåsberget" />
		<tag k="natural" v="hill" />
		<tag k="place" v="locality" />
		<tag k="ssr:stedsnr" v="250720" />
	</node>
	<node id="-67360" lat="60.3617499968" lon="12.3977333372">
		<tag k="name" v="Kalvberget" />
		<tag k="natural" v="hill" />
		<tag k="place" v="locality" />
		<tag k="ssr:stedsnr" v="66208" />
	</node>
	<node id="-66847" lat="60.3672638912" lon="12.5615027802">
		<tag k="name" v="Kalsjøberget" />
		<tag k="natural" v="hill" />
		<tag k="place" v="locality" />
		<tag k="ssr:stedsnr" v="309212" />
	</node>
	<node id="-67357" lat="60.4664972252" lon="12.1533777796">
		<tag k="fixme" v="consider natural=peak for the most distinct mountains in the district" />
		<tag k="name" v="Økstadberget" />
		<tag k="natural" v="hill" />
		<tag k="place" v="locality" />
		<tag k="ssr:stedsnr" v="59790" />
	</node>
	<node id="-68380" lat="60.4460055594" lon="11.8995000075">
		<tag k="name" v="Byerberget" />
		<tag k="natural" v="hill" />
		<tag k="place" v="locality" />
		<tag k="ssr:stedsnr" v="613717" />
	</node>
	<node id="-68379" lat="60.4402305577" lon="11.9239583335">
		<tag k="name" v="Høgberget" />
		<tag k="natural" v="hill" />
		<tag k="place" v="locality" />
		<tag k="ssr:stedsnr" v="613714" />
	</node>
	<node id="-67348" lat="60.4311555592" lon="11.873358336">
		<tag k="name" v="Næverhaugen" />
		<tag k="natural" v="hill" />
		<tag k="place" v="locality" />
		<tag k="ssr:stedsnr" v="59034" />
	</node>
	<node id="-67347" lat="60.4693750009" lon="11.8733638875">
		<tag k="name" v="Hakasjøkallen" />
		<tag k="natural" v="hill" />
		<tag k="place" v="locality" />
		<tag k="ssr:stedsnr" v="59027" />
	</node>
	<node id="-67858" lat="60.3861361117" lon="11.9075888959">
		<tag k="name" v="Hestvola" />
		<tag k="natural" v="hill" />
		<tag k="place" v="locality" />
		<tag k="ssr:stedsnr" v="249367" />
	</node>
	<node id="-66832" lat="60.4673250045" lon="11.9404694442">
		<tag k="name" v="Nysæterberget" />
		<tag k="natural" v="hill" />
		<tag k="place" v="locality" />
		<tag k="ssr:stedsnr" v="302150" />
	</node>
	<node id="-68367" lat="60.3604194466" lon="11.9334111164">
		<tag k="name" v="Kvernberget" />
		<tag k="natural" v="hill" />
		<tag k="place" v="locality" />
		<tag k="ssr:stedsnr" v="613265" />
	</node>
	<node id="-68876" lat="60.3688694451" lon="11.8245083251">
		<tag k="name" v="Nordbakkdalen" />
		<tag k="natural" v="valley" />
		<tag k="place" v="locality" />
		<tag k="ssr:stedsnr" v="830195" />
	</node>
	<node id="-67850" lat="60.3986638857" lon="12.1315500008">
		<tag k="name" v="Storberget" />
		<tag k="natural" v="hill" />
		<tag k="place" v="locality" />
		<tag k="ssr:stedsnr" v="249326" />
	</node>
	<node id="-68361" lat="60.4835277784" lon="12.2561999934">
		<tag k="name" v="Sesselberget" />
		<tag k="natural" v="hill" />
		<tag k="place" v="locality" />
		<tag k="ssr:stedsnr" v="613081" />
	</node>
	<node id="-66824" lat="60.402944446" lon="12.4743666612">
		<tag k="name" v="Rimaskamyrberget" />
		<tag k="natural" v="hill" />
		<tag k="place" v="locality" />
		<tag k="ssr:stedsnr" v="301069" />
	</node>
	<node id="-67335" lat="60.4995888903" lon="12.3054027849">
		<tag k="name" v="Knivskjeknappen" />
		<tag k="natural" v="hill" />
		<tag k="place" v="locality" />
		<tag k="ssr:stedsnr" v="57251" />
	</node>
	<node id="-66822" lat="60.4477055572" lon="11.8277750014">
		<tag k="name" v="Åtdalen" />
		<tag k="natural" v="valley" />
		<tag k="place" v="locality" />
		<tag k="ssr:stedsnr" v="301030" />
	</node>
	<node id="-67011" lat="60.3725416631" lon="12.568450005">
		<tag k="name" v="Vålbergsklinten" />
		<tag k="natural" v="hill" />
		<tag k="place" v="locality" />
		<tag k="ssr:stedsnr" v="370225" />
	</node>
	<node id="-66818" lat="60.3660416707" lon="12.1753916719">
		<tag k="name" v="Slomphaugen" />
		<tag k="natural" v="hill" />
		<tag k="place" v="locality" />
		<tag k="ssr:stedsnr" v="300682" />
	</node>
	<node id="-67327" lat="60.4659722228" lon="11.9536333352">
		<tag k="name" v="Åslihaugen" />
		<tag k="natural" v="hill" />
		<tag k="place" v="locality" />
		<tag k="ssr:stedsnr" v="55894" />
	</node>
	<node id="-68346" lat="60.3550277752" lon="12.2032083401">
		<tag k="name" v="Høgtidsberget" />
		<tag k="natural" v="hill" />
		<tag k="place" v="locality" />
		<tag k="ssr:stedsnr" v="612268" />
	</node>
	<node id="-66808" lat="60.3618583327" lon="11.8951805613">
		<tag k="fixme" v="consider natural=peak for the most distinct mountains in the district" />
		<tag k="name" v="Lemmyrhola" />
		<tag k="natural" v="hill" />
		<tag k="place" v="locality" />
		<tag k="ssr:stedsnr" v="300056" />
	</node>
	<node id="-66807" lat="60.4791138906" lon="11.873111111">
		<tag k="fixme" v="consider natural=peak for the most distinct mountains in the district" />
		<tag k="name" v="Eftasberget" />
		<tag k="natural" v="hill" />
		<tag k="place" v="locality" />
		<tag k="ssr:stedsnr" v="300051" />
	</node>
	<node id="-68342" lat="60.4712611114" lon="12.4938749922">
		<tag k="name" v="Lauvberget" />
		<tag k="natural" v="hill" />
		<tag k="place" v="locality" />
		<tag k="ssr:stedsnr" v="612120" />
	</node>
	<node id="-67317" lat="60.452347224" lon="12.2763527767">
		<tag k="fixme" v="consider natural=peak for the most distinct mountains in the district" />
		<tag k="name" v="Revmyrberget" />
		<tag k="natural" v="hill" />
		<tag k="place" v="locality" />
		<tag k="ssr:stedsnr" v="55558" />
	</node>
	<node id="-68851" lat="60.4655138866" lon="12.0848833416">
		<tag k="fixme" v="consider natural=peak for the most distinct mountains in the district" />
		<tag k="name" v="Kingelsrudberget" />
		<tag k="natural" v="hill" />
		<tag k="place" v="locality" />
		<tag k="ssr:stedsnr" v="815860" />
	</node>
	<node id="-66802" lat="60.3590888855" lon="12.2829333247">
		<tag k="name" v="Furuhaugen" />
		<tag k="natural" v="hill" />
		<tag k="place" v="locality" />
		<tag k="ssr:stedsnr" v="298683" />
	</node>
	<node id="-67825" lat="60.3543111102" lon="12.5234444451">
		<tag k="alt_name" v="Kvernberget, vesle" />
		<tag k="name" v="Vesle Kvernberget" />
		<tag k="natural" v="hill" />
		<tag k="place" v="locality" />
		<tag k="ssr:stedsnr" v="248237" />
	</node>
	<node id="-67822" lat="60.3663388896" lon="12.5260888819">
		<tag k="name" v="Gåntigalli" />
		<tag k="natural" v="hill" />
		<tag k="place" v="locality" />
		<tag k="ssr:stedsnr" v="248179" />
	</node>
	<node id="-67821" lat="60.4473027772" lon="12.4214638826">
		<tag k="name" v="Styggberget" />
		<tag k="natural" v="hill" />
		<tag k="place" v="locality" />
		<tag k="ssr:stedsnr" v="248123" />
	</node>
	<node id="-67819" lat="60.4440666711" lon="12.235258325">
		<tag k="name" v="Nytorpknappen" />
		<tag k="natural" v="hill" />
		<tag k="place" v="locality" />
		<tag k="ssr:stedsnr" v="248112" />
	</node>
	<node id="-68842" lat="60.4613694433" lon="12.0808222146">
		<tag k="name" v="Bårderudskollen" />
		<tag k="natural" v="hill" />
		<tag k="place" v="locality" />
		<tag k="ssr:stedsnr" v="815232" />
	</node>
	<node id="-67304" lat="60.5084777798" lon="12.4258666743">
		<tag k="name" v="Rybråtåknappen" />
		<tag k="natural" v="hill" />
		<tag k="place" v="locality" />
		<tag k="ssr:stedsnr" v="42851" />
	</node>
	<node id="-67964" lat="60.4248111122" lon="11.843947231">
		<tag k="name" v="Bukkeberget" />
		<tag k="natural" v="hill" />
		<tag k="place" v="locality" />
		<tag k="ssr:stedsnr" v="431720" />
	</node>
	<node id="-68326" lat="60.3927722191" lon="12.5474944441">
		<tag k="fixme" v="consider natural=peak for the most distinct mountains in the district" />
		<tag k="name" v="Porkalaberget" />
		<tag k="natural" v="hill" />
		<tag k="place" v="locality" />
		<tag k="ssr:stedsnr" v="603774" />
	</node>
	<node id="-67813" lat="60.4424944442" lon="12.4288888956">
		<tag k="name" v="Høgbråten" />
		<tag k="natural" v="hill" />
		<tag k="place" v="locality" />
		<tag k="ssr:stedsnr" v="248004" />
	</node>
	<node id="-68324" lat="60.4074638918" lon="12.3887083383">
		<tag k="name" v="Mattesmøte" />
		<tag k="place" v="locality" />
		<tag k="ssr:stedsnr" v="603438" />
	</node>
	<node id="-68835" lat="60.521741701" lon="12.1776360972">
		<tag k="fixme" v="multiple name tags, choose one and add the other to alt_name" />
		<tag k="name" v="Bruberget;Knarten" />
		<tag k="natural" v="hill" />
		<tag k="place" v="locality" />
		<tag k="ssr:stedsnr" v="796930" />
	</node>
	<node id="-68321" lat="60.4317805576" lon="11.8269999931">
		<tag k="name" v="Høybråten" />
		<tag k="natural" v="hill" />
		<tag k="place" v="locality" />
		<tag k="ssr:stedsnr" v="603187" />
	</node>
	<node id="-66783" lat="60.533475002" lon="12.4095694409">
		<tag k="fixme" v="consider natural=peak for the most distinct mountains in the district" />
		<tag k="name" v="Revtjennsberget" />
		<tag k="natural" v="hill" />
		<tag k="place" v="locality" />
		<tag k="ssr:stedsnr" v="284930" />
	</node>
	<node id="-67293" lat="60.3894749982" lon="11.8922916639">
		<tag k="name" v="Okseknappen" />
		<tag k="natural" v="valley" />
		<tag k="place" v="locality" />
		<tag k="ssr:stedsnr" v="42112" />
	</node>
	<node id="-68316" lat="60.3961361108" lon="12.4120527845">
		<tag k="name" v="Gryta" />
		<tag k="natural" v="valley" />
		<tag k="place" v="locality" />
		<tag k="ssr:stedsnr" v="603067" />
	</node>
	<node id="-67803" lat="60.4489083373" lon="11.9161222196">
		<tag k="fixme" v="consider natural=peak for the most distinct mountains in the district" />
		<tag k="name" v="Lemyrberget" />
		<tag k="natural" v="hill" />
		<tag k="place" v="locality" />
		<tag k="ssr:stedsnr" v="241112" />
	</node>
	<node id="-67416" lat="60.5377861127" lon="12.0765250038">
		<tag k="name" v="Ulvhaugen" />
		<tag k="natural" v="hill" />
		<tag k="place" v="locality" />
		<tag k="ssr:stedsnr" v="87210" />
	</node>
	<node id="-68303" lat="60.458399998" lon="12.2947138954">
		<tag k="name" v="Rundhauga" />
		<tag k="natural" v="hill" />
		<tag k="place" v="locality" />
		<tag k="ssr:stedsnr" v="601306" />
	</node>
	<node id="-67799" lat="60.3987388868" lon="12.5039972304">
		<tag k="name" v="Åsanoppi" />
		<tag k="natural" v="hill" />
		<tag k="place" v="locality" />
		<tag k="ssr:stedsnr" v="240045" />
	</node>
	<node id="-67798" lat="60.3992805544" lon="12.4851916615">
		<tag k="name" v="Havskaberget" />
		<tag k="natural" v="hill" />
		<tag k="place" v="locality" />
		<tag k="ssr:stedsnr" v="240042" />
	</node>
	<node id="-68820" lat="60.4278944478" lon="12.0242666679">
		<tag k="name" v="Enga" />
		<tag k="place" v="locality" />
		<tag k="ssr:stedsnr" v="795708" />
	</node>
	<node id="-66770" lat="60.3713972256" lon="12.4843527805">
		<tag k="name" v="Kallapaika" />
		<tag k="place" v="locality" />
		<tag k="ssr:stedsnr" v="284159" />
	</node>
	<node id="-68304" lat="60.3803388848" lon="12.2709166642">
		<tag k="name" v="Jønsøkmyrdråga" />
		<tag k="natural" v="valley" />
		<tag k="place" v="locality" />
		<tag k="ssr:stedsnr" v="601507" />
	</node>
	<node id="-68815" lat="60.4006583349" lon="11.9833444365">
		<tag k="name" v="Tjyrutullen" />
		<tag k="natural" v="hill" />
		<tag k="place" v="locality" />
		<tag k="ssr:stedsnr" v="795368" />
	</node>
	<node id="-67299" lat="60.4136888909" lon="12.4461166604">
		<tag k="name" v="Dansarskjæret" />
		<tag k="natural" v="hill" />
		<tag k="place" v="locality" />
		<tag k="ssr:stedsnr" v="42067" />
	</node>
	<node id="-67787" lat="60.3568194426" lon="12.5018749964">
		<tag k="fixme" v="consider natural=peak for the most distinct mountains in the district" />
		<tag k="name" v="Kjerkesjøberget" />
		<tag k="natural" v="hill" />
		<tag k="place" v="locality" />
		<tag k="ssr:stedsnr" v="239138" />
	</node>
	<node id="-68809" lat="60.3559055544" lon="12.1703583277">
		<tag k="name" v="Granberget" />
		<tag k="natural" v="hill" />
		<tag k="place" v="locality" />
		<tag k="ssr:stedsnr" v="795296" />
	</node>
	<node id="-68808" lat="60.3326611097" lon="12.2185166596">
		<tag k="fixme" v="consider natural=peak for the most distinct mountains in the district" />
		<tag k="name" v="Aursåsen" />
		<tag k="natural" v="hill" />
		<tag k="place" v="locality" />
		<tag k="ssr:stedsnr" v="795282" />
	</node>
	<node id="-67788" lat="60.3603166642" lon="12.5199888826">
		<tag k="name" v="Laskobakken" />
		<tag k="natural" v="hill" />
		<tag k="place" v="locality" />
		<tag k="ssr:stedsnr" v="239143" />
	</node>
	<node id="-67105" lat="60.4135972198" lon="11.8991833353">
		<tag k="name" v="Prinsdalen" />
		<tag k="natural" v="valley" />
		<tag k="place" v="locality" />
		<tag k="ssr:stedsnr" v="406117" />
	</node>
	<node id="-67266" lat="60.3726305531" lon="12.0741777687">
		<tag k="name" v="Grevlingskjæra" />
		<tag k="natural" v="hill" />
		<tag k="place" v="locality" />
		<tag k="ssr:stedsnr" v="26221" />
	</node>
	<node id="-68800" lat="60.4637499977" lon="12.4387805537">
		<tag k="fixme" v="multiple name tags, choose one and add the other to alt_name" />
		<tag k="name" v="Halvortjennsberget;Håberget" />
		<tag k="natural" v="hill" />
		<tag k="place" v="locality" />
		<tag k="ssr:stedsnr" v="795128" />
	</node>
	<node id="-68287" lat="60.5011694445" lon="12.4287777867">
		<tag k="name" v="Albertbakken" />
		<tag k="natural" v="slope" />
		<tag k="place" v="locality" />
		<tag k="ssr:stedsnr" v="588901" />
	</node>
	<node id="-68798" lat="60.476200002" lon="12.3146277828">
		<tag k="name" v="Haugsberget" />
		<tag k="natural" v="hill" />
		<tag k="place" v="locality" />
		<tag k="ssr:stedsnr" v="795112" />
	</node>
	<node id="-67772" lat="60.3237805591" lon="12.4984222266">
		<tag k="name" v="Suru" />
		<tag k="natural" v="hill" />
		<tag k="place" v="locality" />
		<tag k="ssr:stedsnr" v="237182" />
	</node>
	<node id="-67258" lat="60.5234916676" lon="12.5318555534">
		<tag k="alt_name" v="Aronkallio" />
		<tag k="name" v="Arongallio" />
		<tag k="natural" v="hill" />
		<tag k="place" v="locality" />
		<tag k="ssr:stedsnr" v="7697" />
	</node>
	<node id="-68281" lat="60.4186111117" lon="11.8995638812">
		<tag k="name" v="Eftasberget" />
		<tag k="natural" v="hill" />
		<tag k="place" v="locality" />
		<tag k="ssr:stedsnr" v="588110" />
	</node>
	<node id="-68791" lat="60.3988111147" lon="12.3493638803">
		<tag k="name" v="Revholen" />
		<tag k="natural" v="hill" />
		<tag k="place" v="locality" />
		<tag k="ssr:stedsnr" v="795058" />
	</node>
	<node id="-68041" lat="60.4053527742" lon="12.3840611177">
		<tag k="name" v="Langdalen" />
		<tag k="natural" v="valley" />
		<tag k="place" v="locality" />
		<tag k="ssr:stedsnr" v="482438" />
	</node>
	<node id="-67764" lat="60.4864888885" lon="12.4922333417">
		<tag k="fixme" v="consider natural=peak for the most distinct mountains in the district" />
		<tag k="name" v="Pimpen" />
		<tag k="natural" v="hill" />
		<tag k="place" v="locality" />
		<tag k="ssr:stedsnr" v="224980" />
	</node>
	<node id="-66739" lat="60.3765861118" lon="12.0685694441">
		<tag k="name" v="Langebråten" />
		<tag k="natural" v="slope" />
		<tag k="place" v="locality" />
		<tag k="ssr:stedsnr" v="269206" />
	</node>
	<node id="-68273" lat="60.5293222237" lon="12.4279250015">
		<tag k="name" v="Galtryggen" />
		<tag k="natural" v="ridge" />
		<tag k="place" v="locality" />
		<tag k="ssr:stedsnr" v="587918" />
	</node>
	<node id="-68296" lat="60.4338222183" lon="12.215288888">
		<tag k="name" v="Møllerkoia" />
		<tag k="place" v="locality" />
		<tag k="ssr:stedsnr" v="600552" />
	</node>
	<node id="-67271" lat="60.3670472217" lon="12.1050916675">
		<tag k="name" v="Trelen" />
		<tag k="natural" v="hill" />
		<tag k="place" v="locality" />
		<tag k="ssr:stedsnr" v="26732" />
	</node>
	<node id="-67747" lat="60.3808888843" lon="12.5251666726">
		<tag k="name" v="Lemænmæki" />
		<tag k="natural" v="hill" />
		<tag k="place" v="locality" />
		<tag k="ssr:stedsnr" v="222796" />
	</node>
	<node id="-68770" lat="60.359577778" lon="12.2194472252">
		<tag k="fixme" v="consider natural=peak for the most distinct mountains in the district" />
		<tag k="name" v="Rottjennsberget" />
		<tag k="natural" v="hill" />
		<tag k="place" v="locality" />
		<tag k="ssr:stedsnr" v="785659" />
	</node>
	<node id="-68107" lat="60.3735527808" lon="12.1136388936">
		<tag k="name" v="Gresberget" />
		<tag k="natural" v="hill" />
		<tag k="place" v="locality" />
		<tag k="ssr:stedsnr" v="511731" />
	</node>
	<node id="-67744" lat="60.3403833296" lon="12.1769388817">
		<tag k="name" v="Rogndalen" />
		<tag k="natural" v="valley" />
		<tag k="place" v="locality" />
		<tag k="ssr:stedsnr" v="222653" />
	</node>
	<node id="-68767" lat="60.4655999989" lon="12.2847111072">
		<tag k="fixme" v="consider natural=peak for the most distinct mountains in the district" />
		<tag k="name" v="Kølaberget" />
		<tag k="natural" v="hill" />
		<tag k="place" v="locality" />
		<tag k="ssr:stedsnr" v="785572" />
	</node>
	<node id="-68765" lat="60.3991222221" lon="12.3505333329">
		<tag k="name" v="Styggdalsskjæra" />
		<tag k="natural" v="hill" />
		<tag k="place" v="locality" />
		<tag k="ssr:stedsnr" v="785404" />
	</node>
	<node id="-67740" lat="60.4373111156" lon="12.2294027773">
		<tag k="fixme" v="consider natural=peak for the most distinct mountains in the district" />
		<tag k="name" v="Tjeldåsen" />
		<tag k="natural" v="hill" />
		<tag k="place" v="locality" />
		<tag k="ssr:stedsnr" v="222533" />
	</node>
	<node id="-68762" lat="60.4940888863" lon="12.3108166706">
		<tag k="name" v="Kveinberget" />
		<tag k="natural" v="hill" />
		<tag k="place" v="locality" />
		<tag k="ssr:stedsnr" v="785271" />
	</node>
	<node id="-67225" lat="60.4046027796" lon="12.107816669">
		<tag k="fixme" v="consider natural=peak for the most distinct mountains in the district" />
		<tag k="name" v="Dagsåsen" />
		<tag k="natural" v="hill" />
		<tag k="place" v="locality" />
		<tag k="ssr:stedsnr" v="6341" />
	</node>
	<node id="-67223" lat="60.3779555522" lon="12.4664611173">
		<tag k="name" v="Skallberget" />
		<tag k="natural" v="hill" />
		<tag k="place" v="locality" />
		<tag k="ssr:stedsnr" v="6218" />
	</node>
	<node id="-69151" lat="60.3718694472" lon="12.398080554">
		<tag k="name" v="Dritarbakken" />
		<tag k="natural" v="slope" />
		<tag k="place" v="locality" />
		<tag k="ssr:stedsnr" v="952451" />
	</node>
	<node id="-67221" lat="60.3227638913" lon="12.488347227">
		<tag k="name" v="Metsigaberget" />
		<tag k="natural" v="hill" />
		<tag k="place" v="locality" />
		<tag k="ssr:stedsnr" v="6142" />
	</node>
	<node id="-67220" lat="60.3177611076" lon="12.4742416661">
		<tag k="name" v="Hokaberget" />
		<tag k="natural" v="hill" />
		<tag k="place" v="locality" />
		<tag k="ssr:stedsnr" v="6134" />
	</node>
	<node id="-68243" lat="60.4709944429" lon="12.5097277867">
		<tag k="name" v="Koivikkoskjæra" />
		<tag k="natural" v="hill" />
		<tag k="place" v="locality" />
		<tag k="ssr:stedsnr" v="585972" />
	</node>
	<node id="-68754" lat="60.3904666684" lon="12.2524138802">
		<tag k="name" v="Oterdalen" />
		<tag k="natural" v="valley" />
		<tag k="place" v="locality" />
		<tag k="ssr:stedsnr" v="783510" />
	</node>
	<node id="-68753" lat="60.3678916661" lon="12.2674749977">
		<tag k="name" v="Falibakken" />
		<tag k="natural" v="slope" />
		<tag k="place" v="locality" />
		<tag k="ssr:stedsnr" v="783500" />
	</node>
	<node id="-68239" lat="60.5274249981" lon="12.0480250078">
		<tag k="name" v="Storsand" />
		<tag k="place" v="locality" />
		<tag k="ssr:stedsnr" v="572846" />
	</node>
	<node id="-68238" lat="60.4292805574" lon="12.0884749998">
		<tag k="name" v="Tomtdalen" />
		<tag k="natural" v="valley" />
		<tag k="place" v="locality" />
		<tag k="ssr:stedsnr" v="572790" />
	</node>
	<node id="-68236" lat="60.3862888869" lon="12.0734027803">
		<tag k="name" v="Håkåsberget" />
		<tag k="natural" v="hill" />
		<tag k="place" v="locality" />
		<tag k="ssr:stedsnr" v="572786" />
	</node>
	<node id="-67211" lat="60.3974694416" lon="12.4008805478">
		<tag k="alt_name" v="Hokaberget" />
		<tag k="name" v="Rokaberget" />
		<tag k="natural" v="hill" />
		<tag k="place" v="locality" />
		<tag k="ssr:stedsnr" v="6053" />
	</node>
	<node id="-67948" lat="60.3930111151" lon="11.9308444474">
		<tag k="name" v="Linndalsberget" />
		<tag k="natural" v="hill" />
		<tag k="place" v="locality" />
		<tag k="ssr:stedsnr" v="431395" />
	</node>
	<node id="-67009" lat="60.4511861082" lon="12.5163888909">
		<tag k="name" v="Nætkinaho" />
		<tag k="natural" v="hill" />
		<tag k="place" v="locality" />
		<tag k="ssr:stedsnr" v="370153" />
	</node>
	<node id="-67716" lat="60.4697805525" lon="12.0995305483">
		<tag k="name" v="Vardåsen" />
		<tag k="natural" v="hill" />
		<tag k="place" v="locality" />
		<tag k="ssr:stedsnr" v="202671" />
	</node>
	<node id="-67791" lat="60.4089833375" lon="12.3907194386">
		<tag k="name" v="Gjevertaven" />
		<tag k="natural" v="valley" />
		<tag k="place" v="locality" />
		<tag k="ssr:stedsnr" v="239434" />
	</node>
	<node id="-67709" lat="60.5174444451" lon="12.3753249933">
		<tag k="name" v="Stemsrudberget" />
		<tag k="natural" v="hill" />
		<tag k="place" v="locality" />
		<tag k="ssr:stedsnr" v="189680" />
	</node>
	<node id="-67708" lat="60.4403499991" lon="12.0635361036">
		<tag k="name" v="Veslekila" />
		<tag k="place" v="locality" />
		<tag k="ssr:stedsnr" v="188774" />
	</node>
	<node id="-67893" lat="60.3480416701" lon="12.2382222162">
		<tag k="name" v="Karlsbruberget" />
		<tag k="natural" v="hill" />
		<tag k="place" v="locality" />
		<tag k="ssr:stedsnr" v="419717" />
	</node>
	<node id="-68729" lat="60.3824333297" lon="11.8969166638">
		<tag k="name" v="Djupdalen" />
		<tag k="natural" v="valley" />
		<tag k="place" v="locality" />
		<tag k="ssr:stedsnr" v="770102" />
	</node>
	<node id="-66921" lat="60.3805472197" lon="11.8589166703">
		<tag k="name" v="Helvetesdalen" />
		<tag k="natural" v="valley" />
		<tag k="place" v="locality" />
		<tag k="ssr:stedsnr" v="344217" />
	</node>
	<node id="-67620" lat="60.3748944432" lon="12.2378111078">
		<tag k="name" v="Snupvåla" />
		<tag k="natural" v="hill" />
		<tag k="place" v="locality" />
		<tag k="ssr:stedsnr" v="176469" />
	</node>
	<node id="-68286" lat="60.3110722183" lon="12.231302784">
		<tag k="name" v="Smiuskjæra" />
		<tag k="natural" v="hill" />
		<tag k="place" v="locality" />
		<tag k="ssr:stedsnr" v="588626" />
	</node>
	<node id="-66983" lat="60.4497611127" lon="12.5924055622">
		<tag k="name" v="Karjolsvingen" />
		<tag k="place" v="locality" />
		<tag k="ssr:stedsnr" v="361687" />
	</node>
	<node id="-68719" lat="60.5128416704" lon="12.6062749933">
		<tag k="fixme" v="consider natural=peak for the most distinct mountains in the district" />
		<tag k="name" v="Baksjøberget" />
		<tag k="natural" v="hill" />
		<tag k="place" v="locality" />
		<tag k="ssr:stedsnr" v="769597" />
	</node>
	<node id="-68206" lat="60.3807611088" lon="11.970519449">
		<tag k="fixme" v="consider natural=peak for the most distinct mountains in the district" />
		<tag k="name" v="Kringleåsen" />
		<tag k="natural" v="hill" />
		<tag k="place" v="locality" />
		<tag k="ssr:stedsnr" v="552410" />
	</node>
	<node id="-68204" lat="60.3728083341" lon="12.036411113">
		<tag k="name" v="Grinderenga" />
		<tag k="place" v="locality" />
		<tag k="ssr:stedsnr" v="552401" />
	</node>
	<node id="-68203" lat="60.383349997" lon="12.1494999929">
		<tag k="name" v="Brennhaugen" />
		<tag k="natural" v="hill" />
		<tag k="place" v="locality" />
		<tag k="ssr:stedsnr" v="552391" />
	</node>
	<node id="-68713" lat="60.3743500032" lon="12.4697833364">
		<tag k="name" v="Pokkikalli" />
		<tag k="natural" v="hill" />
		<tag k="place" v="locality" />
		<tag k="ssr:stedsnr" v="769139" />
	</node>
	<node id="-68827" lat="60.4437000017" lon="11.9975861111">
		<tag k="fixme" v="consider natural=peak for the most distinct mountains in the district" />
		<tag k="name" v="Oppsetåsen" />
		<tag k="natural" v="hill" />
		<tag k="place" v="locality" />
		<tag k="ssr:stedsnr" v="795742" />
	</node>
	<node id="-68195" lat="60.3591333377" lon="11.845366673">
		<tag k="name" v="Balsjøberget" />
		<tag k="natural" v="hill" />
		<tag k="place" v="locality" />
		<tag k="ssr:stedsnr" v="552298" />
	</node>
	<node id="-67681" lat="60.3793861073" lon="11.8721416585">
		<tag k="name" v="Gobærsknappen" />
		<tag k="natural" v="hill" />
		<tag k="place" v="locality" />
		<tag k="ssr:stedsnr" v="188409" />
	</node>
	<node id="-67679" lat="60.3870750001" lon="11.9481916732">
		<tag k="name" v="Knappholsberget" />
		<tag k="natural" v="hill" />
		<tag k="place" v="locality" />
		<tag k="ssr:stedsnr" v="188402" />
	</node>
	<node id="-66917" lat="60.399819446" lon="12.5955472304">
		<tag k="fixme" v="consider natural=peak for the most distinct mountains in the district" />
		<tag k="name" v="Vesle Moldusen" />
		<tag k="natural" v="hill" />
		<tag k="place" v="locality" />
		<tag k="ssr:stedsnr" v="343845" />
	</node>
	<node id="-68185" lat="60.422325001" lon="12.3484944461">
		<tag k="name" v="Hesthaugen" />
		<tag k="natural" v="hill" />
		<tag k="place" v="locality" />
		<tag k="ssr:stedsnr" v="552030" />
	</node>
	<node id="-67672" lat="60.3589555517" lon="11.906763885">
		<tag k="name" v="Svartberget" />
		<tag k="natural" v="hill" />
		<tag k="place" v="locality" />
		<tag k="ssr:stedsnr" v="188293" />
	</node>
	<node id="-68452" lat="60.3702722188" lon="12.1692833291">
		<tag k="name" v="Surballsholen" />
		<tag k="natural" v="hill" />
		<tag k="place" v="locality" />
		<tag k="ssr:stedsnr" v="662895" />
	</node>
	<node id="-67669" lat="60.4497666668" lon="12.2241111098">
		<tag k="name" v="Holstadknappen" />
		<tag k="natural" v="hill" />
		<tag k="place" v="locality" />
		<tag k="ssr:stedsnr" v="188135" />
	</node>
	<node id="-67473" lat="60.4619833304" lon="12.4884777734">
		<tag k="name" v="Larstorpsknappen" />
		<tag k="natural" v="hill" />
		<tag k="place" v="locality" />
		<tag k="ssr:stedsnr" v="103973" />
	</node>
	<node id="-68178" lat="60.2886499976" lon="12.5021416722">
		<tag k="name" v="Ilveshaugen" />
		<tag k="natural" v="hill" />
		<tag k="place" v="locality" />
		<tag k="ssr:stedsnr" v="551171" />
	</node>
	<node id="-67171" lat="60.5115222217" lon="12.4041111194">
		<tag k="name" v="Brenna" />
		<tag k="natural" v="hill" />
		<tag k="place" v="locality" />
		<tag k="ssr:stedsnr" v="892881" />
	</node>
	<node id="-67151" lat="60.5201527769" lon="12.3264166726">
		<tag k="name" v="Kontoret" />
		<tag k="place" v="locality" />
		<tag k="ssr:stedsnr" v="891279" />
	</node>
	<node id="-68420" lat="60.388691667" lon="12.5087527771">
		<tag k="name" v="Sandsjøberget" />
		<tag k="natural" v="hill" />
		<tag k="place" v="locality" />
		<tag k="ssr:stedsnr" v="648128" />
	</node>
	<node id="-67426" lat="60.5029972226" lon="12.4809083294">
		<tag k="name" v="Bekkebakka" />
		<tag k="natural" v="slope" />
		<tag k="place" v="locality" />
		<tag k="ssr:stedsnr" v="100865" />
	</node>
	<node id="-69194" lat="60.4625388894" lon="12.4500222256">
		<tag k="fixme" v="consider natural=peak for the most distinct mountains in the district" />
		<tag k="name" v="Idaharjo" />
		<tag k="natural" v="hill" />
		<tag k="place" v="locality" />
		<tag k="ssr:stedsnr" v="967947" />
	</node>
	<node id="-68680" lat="60.4905305573" lon="12.0624972237">
		<tag k="name" v="Heggerenga" />
		<tag k="place" v="locality" />
		<tag k="ssr:stedsnr" v="754238" />
	</node>
	<node id="-67142" lat="60.4908805515" lon="12.3712138958">
		<tag k="name" v="Dansarplassen" />
		<tag k="place" v="locality" />
		<tag k="ssr:stedsnr" v="890307" />
	</node>
	<node id="-67138" lat="60.439413886" lon="12.4337888935">
		<tag k="name" v="Neverhaugen" />
		<tag k="natural" v="hill" />
		<tag k="place" v="locality" />
		<tag k="ssr:stedsnr" v="890025" />
	</node>
	<node id="-69185" lat="60.4212861151" lon="12.1271222182">
		<tag k="name" v="Gråbeinhaugen" />
		<tag k="natural" v="hill" />
		<tag k="place" v="locality" />
		<tag k="ssr:stedsnr" v="965954" />
	</node>
	<node id="-68931" lat="60.3913361068" lon="12.5654972244">
		<tag k="name" v="Dritarbakken" />
		<tag k="natural" v="slope" />
		<tag k="place" v="locality" />
		<tag k="ssr:stedsnr" v="846812" />
	</node>
	<node id="-67645" lat="60.3810444457" lon="12.1849916728">
		<tag k="name" v="Grådden" />
		<tag k="natural" v="hill" />
		<tag k="place" v="locality" />
		<tag k="ssr:stedsnr" v="179512" />
	</node>
	<node id="-67644" lat="60.3792888871" lon="12.2194222256">
		<tag k="name" v="Lønhaugsberget" />
		<tag k="natural" v="hill" />
		<tag k="place" v="locality" />
		<tag k="ssr:stedsnr" v="179513" />
	</node>
	<node id="-69177" lat="60.4750916691" lon="12.3062027755">
		<tag k="fixme" v="consider natural=peak for the most distinct mountains in the district" />
		<tag k="name" v="Solliberget" />
		<tag k="natural" v="hill" />
		<tag k="place" v="locality" />
		<tag k="ssr:stedsnr" v="965352" />
	</node>
	<node id="-69176" lat="60.3076277751" lon="12.4992694425">
		<tag k="name" v="Mullubakka" />
		<tag k="natural" v="hill" />
		<tag k="place" v="locality" />
		<tag k="ssr:stedsnr" v="965188" />
	</node>
	<node id="-66740" lat="60.5294444484" lon="12.0696333322">
		<tag k="name" v="Smørhaugen" />
		<tag k="natural" v="hill" />
		<tag k="place" v="locality" />
		<tag k="ssr:stedsnr" v="269227" />
	</node>
	<node id="-67638" lat="60.3983583311" lon="12.3751361048">
		<tag k="name" v="Helvete" />
		<tag k="natural" v="slope" />
		<tag k="place" v="locality" />
		<tag k="ssr:stedsnr" v="178426" />
	</node>
	<node id="-67637" lat="60.3970000024" lon="12.3816638948">
		<tag k="name" v="Steinhaugen" />
		<tag k="natural" v="hill" />
		<tag k="place" v="locality" />
		<tag k="ssr:stedsnr" v="178422" />
	</node>
	<node id="-67636" lat="60.3910861134" lon="12.3790249933">
		<tag k="name" v="Klonkerudberget" />
		<tag k="natural" v="hill" />
		<tag k="place" v="locality" />
		<tag k="ssr:stedsnr" v="178423" />
	</node>
	<node id="-67633" lat="60.4829166644" lon="12.3284972206">
		<tag k="name" v="Pelsskjæra" />
		<tag k="natural" v="hill" />
		<tag k="place" v="locality" />
		<tag k="ssr:stedsnr" v="178273" />
	</node>
	<node id="-68656" lat="60.491327781" lon="11.8959944431">
		<tag k="name" v="Årnesberget" />
		<tag k="natural" v="hill" />
		<tag k="place" v="locality" />
		<tag k="ssr:stedsnr" v="734699" />
	</node>
	<node id="-67336" lat="60.5026916639" lon="12.2944500008">
		<tag k="fixme" v="consider natural=peak for the most distinct mountains in the district" />
		<tag k="name" v="Svarttjennsåsen" />
		<tag k="natural" v="hill" />
		<tag k="place" v="locality" />
		<tag k="ssr:stedsnr" v="57254" />
	</node>
	<node id="-67118" lat="60.4887250009" lon="12.4874916674">
		<tag k="name" v="Gampinåråbakken" />
		<tag k="natural" v="slope" />
		<tag k="place" v="locality" />
		<tag k="ssr:stedsnr" v="406986" />
	</node>
	<node id="-67117" lat="60.4880972182" lon="12.4326611043">
		<tag k="name" v="Skjærposten" />
		<tag k="place" v="locality" />
		<tag k="ssr:stedsnr" v="406921" />
	</node>
	<node id="-69163" lat="60.4810583348" lon="12.4230833333">
		<tag k="name" v="Kangasmæg" />
		<tag k="natural" v="hill" />
		<tag k="place" v="locality" />
		<tag k="ssr:stedsnr" v="952893" />
	</node>
	<node id="-69162" lat="60.5127749973" lon="12.551624998">
		<tag k="name" v="Svarttjennsberget" />
		<tag k="natural" v="hill" />
		<tag k="place" v="locality" />
		<tag k="ssr:stedsnr" v="952589" />
	</node>
	<node id="-67113" lat="60.5046722211" lon="12.4127472271">
		<tag k="name" v="Kontorpet" />
		<tag k="natural" v="hill" />
		<tag k="place" v="locality" />
		<tag k="ssr:stedsnr" v="406901" />
	</node>
	<node id="-68845" lat="60.4757666659" lon="12.0428416692">
		<tag k="name" v="Graverenga" />
		<tag k="place" v="locality" />
		<tag k="ssr:stedsnr" v="815240" />
	</node>
	<node id="-67621" lat="60.4456055554" lon="12.2103472263">
		<tag k="name" v="Brutjennsåsen" />
		<tag k="natural" v="hill" />
		<tag k="place" v="locality" />
		<tag k="ssr:stedsnr" v="176555" />
	</node>
	<node id="-68644" lat="60.3723138925" lon="12.3889999947">
		<tag k="fixme" v="consider natural=peak for the most distinct mountains in the district" />
		<tag k="name" v="Måsåhuken" />
		<tag k="natural" v="hill" />
		<tag k="place" v="locality" />
		<tag k="ssr:stedsnr" v="734219" />
	</node>
	<node id="-68642" lat="60.4448999984" lon="12.2984361091">
		<tag k="name" v="Skasberget" />
		<tag k="natural" v="hill" />
		<tag k="place" v="locality" />
		<tag k="ssr:stedsnr" v="734116" />
	</node>
	<node id="-68129" lat="60.4257555579" lon="11.9255499987">
		<tag k="name" v="Tenåsen" />
		<tag k="natural" v="hill" />
		<tag k="place" v="locality" />
		<tag k="ssr:stedsnr" v="527125" />
	</node>
	<node id="-67616" lat="60.4562555572" lon="12.3918916729">
		<tag k="name" v="Hemmyrberget" />
		<tag k="natural" v="hill" />
		<tag k="place" v="locality" />
		<tag k="ssr:stedsnr" v="176301" />
	</node>
	<node id="-67650" lat="60.4319055583" lon="11.9313166649">
		<tag k="name" v="Brennberget" />
		<tag k="natural" v="hill" />
		<tag k="place" v="locality" />
		<tag k="ssr:stedsnr" v="180124" />
	</node>
	<node id="-69148" lat="60.3994138929" lon="11.935244437">
		<tag k="name" v="Fengsberget" />
		<tag k="natural" v="hill" />
		<tag k="place" v="locality" />
		<tag k="ssr:stedsnr" v="952124" />
	</node>
	<node id="-67097" lat="60.505191664" lon="12.3649055569">
		<tag k="name" v="Flisbakken" />
		<tag k="natural" v="slope" />
		<tag k="place" v="locality" />
		<tag k="ssr:stedsnr" v="405229" />
	</node>
	<node id="-67096" lat="60.5124722262" lon="12.372302773">
		<tag k="name" v="Blåkollen" />
		<tag k="natural" v="hill" />
		<tag k="place" v="locality" />
		<tag k="ssr:stedsnr" v="405227" />
	</node>
	<node id="-67607" lat="60.4054694432" lon="12.4495055552">
		<tag k="name" v="Revhaugen" />
		<tag k="natural" v="hill" />
		<tag k="place" v="locality" />
		<tag k="ssr:stedsnr" v="176100" />
	</node>
	<node id="-67522" lat="60.3595944442" lon="12.5367527783">
		<tag k="alt_name" v="Kvernberget, store" />
		<tag k="name" v="Store Kvernberget" />
		<tag k="natural" v="hill" />
		<tag k="place" v="locality" />
		<tag k="ssr:stedsnr" v="127255" />
	</node>
	<node id="-68115" lat="60.5078555555" lon="12.2756638916">
		<tag k="name" v="Eftasmyrdalen" />
		<tag k="natural" v="valley" />
		<tag k="place" v="locality" />
		<tag k="ssr:stedsnr" v="525473" />
	</node>
	<node id="-69137" lat="60.3012694474" lon="12.4852472257">
		<tag k="name" v="Heinagangas" />
		<tag k="natural" v="hill" />
		<tag k="place" v="locality" />
		<tag k="ssr:stedsnr" v="951241" />
	</node>
	<node id="-67928" lat="60.3906555572" lon="12.3815194452">
		<tag k="name" v="Skrivilen" />
		<tag k="natural" v="hill" />
		<tag k="place" v="locality" />
		<tag k="ssr:stedsnr" v="431062" />
	</node>
	<node id="-67598" lat="60.5227805544" lon="12.5213722208">
		<tag k="name" v="Pekkankallio" />
		<tag k="natural" v="slope" />
		<tag k="place" v="locality" />
		<tag k="ssr:stedsnr" v="163581" />
	</node>
	<node id="-69133" lat="60.502533337" lon="12.3760027858">
		<tag k="name" v="Ormskjæra" />
		<tag k="natural" v="hill" />
		<tag k="place" v="locality" />
		<tag k="ssr:stedsnr" v="951227" />
	</node>
	<node id="-68620" lat="60.4860055552" lon="12.3035472203">
		<tag k="name" v="Dølpeberget" />
		<tag k="natural" v="hill" />
		<tag k="place" v="locality" />
		<tag k="ssr:stedsnr" v="725282" />
	</node>
	<node id="-69131" lat="60.5135666637" lon="12.3818333285">
		<tag k="name" v="Furua" />
		<tag k="place" v="locality" />
		<tag k="ssr:stedsnr" v="951220" />
	</node>
	<node id="-69130" lat="60.3664055545" lon="12.407136117">
		<tag k="name" v="Såimaberget" />
		<tag k="natural" v="hill" />
		<tag k="place" v="locality" />
		<tag k="ssr:stedsnr" v="951146" />
	</node>
	<node id="-67159" lat="60.4708583362" lon="11.9775027839">
		<tag k="name" v="Skavåsen" />
		<tag k="natural" v="hill" />
		<tag k="place" v="locality" />
		<tag k="ssr:stedsnr" v="891662" />
	</node>
	<node id="-68616" lat="60.3635333295" lon="12.21673333">
		<tag k="name" v="Gardsgiveren" />
		<tag k="natural" v="valley" />
		<tag k="place" v="locality" />
		<tag k="ssr:stedsnr" v="724664" />
	</node>
	<node id="-67855" lat="60.3714138908" lon="12.1409833365">
		<tag k="name" v="Gubbetorpet" />
		<tag k="natural" v="hill" />
		<tag k="place" v="locality" />
		<tag k="ssr:stedsnr" v="249355" />
	</node>
	<node id="-66815" lat="60.4039722206" lon="11.8409888857">
		<tag k="name" v="Rybråtåberget" />
		<tag k="natural" v="hill" />
		<tag k="place" v="locality" />
		<tag k="ssr:stedsnr" v="300579" />
	</node>
	<node id="-67074" lat="60.3314777805" lon="12.4962972185">
		<tag k="fixme" v="consider natural=peak for the most distinct mountains in the district" />
		<tag k="name" v="Høybråtåberget" />
		<tag k="natural" v="hill" />
		<tag k="place" v="locality" />
		<tag k="ssr:stedsnr" v="404211" />
	</node>
	<node id="-68011" lat="60.4105249993" lon="11.9275472222">
		<tag k="fixme" v="consider natural=peak for the most distinct mountains in the district" />
		<tag k="name" v="Svartberget" />
		<tag k="natural" v="hill" />
		<tag k="place" v="locality" />
		<tag k="ssr:stedsnr" v="466100" />
	</node>
</osm>
