<?xml version="1.0" encoding="UTF-8"?>
<osm version="0.6" generator="osmapis">
	<node lat="64.00534166776377" lon="10.065516664716434" id="-42014">
		<tag k="fixme" v="consider natural=peak for the most distinct mountains in the district" />
		<tag k="name" v="Legdafjellet" />
		<tag k="natural" v="hill" />
		<tag k="place" v="locality" />
		<tag k="ssr:stedsnr" v="13106" />
	</node>
	<node lat="63.894794448881626" lon="10.331300006089732" id="-42015">
		<tag k="name" v="Estentjønna" />
		<tag k="natural" v="water" />
		<tag k="ssr:stedsnr" v="13310" />
	</node>
	<node lat="63.90420833577706" lon="10.476030548234528" id="-42016">
		<tag k="fixme" v="consider natural=peak for the most distinct mountains in the district" />
		<tag k="name" v="Gullbergnova" />
		<tag k="natural" v="hill" />
		<tag k="place" v="locality" />
		<tag k="ssr:stedsnr" v="13315" />
	</node>
	<node lat="63.90294721897178" lon="10.365594446705325" id="-42017">
		<tag k="name" v="Lauvhattan" />
		<tag k="natural" v="hill" />
		<tag k="place" v="locality" />
		<tag k="ssr:stedsnr" v="13321" />
	</node>
	<node lat="63.8149500006132" lon="10.442286118284176" id="-42019">
		<tag k="name" v="Juvvassneset" />
		<tag k="natural" v="cape" />
		<tag k="ssr:stedsnr" v="13472" />
	</node>
	<node lat="63.89188611124837" lon="10.170369453020193" id="-42020">
		<tag k="name" v="Svarttjønna" />
		<tag k="natural" v="water" />
		<tag k="ssr:stedsnr" v="13601" />
	</node>
	<node lat="63.902113889230115" lon="10.102291670151923" id="-42021">
		<tag k="name" v="Granskardlona" />
		<tag k="natural" v="water" />
		<tag k="ssr:stedsnr" v="13613" />
	</node>
	<node lat="63.89884999754105" lon="10.116955554917327" id="-42022">
		<tag k="name" v="Grovliheian" />
		<tag k="natural" v="hill" />
		<tag k="place" v="locality" />
		<tag k="ssr:stedsnr" v="13615" />
	</node>
	<node lat="63.922474999351635" lon="10.603344442443909" id="-42023">
		<tag k="fixme" v="consider natural=peak for the most distinct mountains in the district" />
		<tag k="name" v="Langløfta" />
		<tag k="natural" v="hill" />
		<tag k="place" v="locality" />
		<tag k="ssr:stedsnr" v="13367" />
	</node>
	<node lat="63.96495833569237" lon="10.211630553441188" id="-42024">
		<tag k="fixme" v="consider place=suburb, village or hamlet" />
		<tag k="name" v="Vassneset" />
		<tag k="place" v="quarter" />
		<tag k="ssr:stedsnr" v="13707" />
	</node>
	<node lat="64.01391389280626" lon="10.23168888478054" id="-42025">
		<tag k="fixme" v="consider natural=peak for the most distinct mountains in the district" />
		<tag k="name" v="Halsaunfjellet" />
		<tag k="natural" v="hill" />
		<tag k="place" v="locality" />
		<tag k="ssr:stedsnr" v="13715" />
	</node>
	<node lat="64.01733611187115" lon="10.226175000322497" id="-42026">
		<tag k="alt_name" v="Kvisla" />
		<tag k="name" v="Kvislaelva" />
		<tag k="ssr:stedsnr" v="13717" />
		<tag k="waterway" v="stream" />
	</node>
	<node lat="64.0222666662119" lon="10.657613894992968" id="-42027">
		<tag k="name" v="Klumptjønnan" />
		<tag k="natural" v="water" />
		<tag k="ssr:stedsnr" v="13721" />
	</node>
	<node lat="64.20821944303624" lon="10.31691389806959" id="-42028">
		<tag k="name" v="Nordvika" />
		<tag k="natural" v="bay" />
		<tag k="ssr:stedsnr" v="14005" />
	</node>
	<node lat="64.19844166821647" lon="10.266508334566035" id="-42029">
		<tag k="fixme" v="consider natural=peak for the most distinct mountains in the district" />
		<tag k="name" v="Ramnen" />
		<tag k="natural" v="hill" />
		<tag k="place" v="locality" />
		<tag k="ssr:stedsnr" v="14015" />
	</node>
	<node lat="64.19480833608544" lon="10.034491669343241" id="-42030">
		<tag k="name" v="Vedøya" />
		<tag k="place" v="island" />
		<tag k="ssr:stedsnr" v="13993" />
	</node>
	<node lat="64.02504721924207" lon="10.038763888227441" id="-42031">
		<tag k="name" v="Vikafjorden" />
		<tag k="natural" v="bay" />
		<tag k="ssr:stedsnr" v="14103" />
	</node>
	<node lat="64.01813333146985" lon="9.970230546079751" id="-42032">
		<tag k="fixme" v="consider seamark:type=rock or natural=shoal" />
		<tag k="name" v="Stabbfluan" />
		<tag k="place" v="islet" />
		<tag k="ssr:stedsnr" v="14093" />
	</node>
	<node lat="64.028725004389" lon="9.940225003311674" id="-42033">
		<tag k="fixme" v="consider seamark:type=rock or natural=shoal" />
		<tag k="name" v="Bruskjæret" />
		<tag k="place" v="islet" />
		<tag k="ssr:stedsnr" v="14095" />
	</node>
	<node lat="64.02657777793162" lon="9.923819442475933" id="-42034">
		<tag k="name" v="Straumen" />
		<tag k="natural" v="bay" />
		<tag k="ssr:stedsnr" v="14098" />
	</node>
	<node lat="64.02633888958884" lon="10.102461102716571" id="-42035">
		<tag k="fixme" v="consider place=hamlet" />
		<tag k="name" v="Bjørkan" />
		<tag k="place" v="farm" />
		<tag k="ssr:stedsnr" v="14099" />
	</node>
	<node lat="64.04282777897572" lon="10.231658343573839" id="-42036">
		<tag k="name" v="Grønlia" />
		<tag k="place" v="isolated_dwelling" />
		<tag k="ssr:stedsnr" v="14207" />
	</node>
	<node lat="64.04371388575285" lon="10.353652770556586" id="-42037">
		<tag k="fixme" v="consider natural=peak for the most distinct mountains in the district" />
		<tag k="name" v="Svartliheia" />
		<tag k="natural" v="hill" />
		<tag k="place" v="locality" />
		<tag k="ssr:stedsnr" v="14211" />
	</node>
	<node lat="64.0503111116985" lon="10.53631666151356" id="-42038">
		<tag k="name" v="Litlfisktjønna" />
		<tag k="natural" v="water" />
		<tag k="ssr:stedsnr" v="14216" />
	</node>
	<node lat="64.06120278197595" lon="10.412802780391775" id="-42039">
		<tag k="name" v="Trolldalen" />
		<tag k="natural" v="valley" />
		<tag k="place" v="locality" />
		<tag k="ssr:stedsnr" v="14224" />
	</node>
	<node lat="64.10438332933826" lon="10.433366658820061" id="-42040">
		<tag k="name" v="Finnlitjønna" />
		<tag k="natural" v="water" />
		<tag k="ssr:stedsnr" v="14273" />
	</node>
	<node lat="64.16931111376414" lon="10.004886112942922" id="-42041">
		<tag k="name" v="Valhovden" />
		<tag k="natural" v="hill" />
		<tag k="place" v="locality" />
		<tag k="ssr:stedsnr" v="14200" />
	</node>
	<node lat="64.12755833149662" lon="10.392449996554316" id="-42042">
		<tag k="fixme" v="consider natural=peak for the most distinct mountains in the district" />
		<tag k="name" v="Storklumpen" />
		<tag k="natural" v="hill" />
		<tag k="place" v="locality" />
		<tag k="ssr:stedsnr" v="14305" />
	</node>
	<node lat="64.13567499679803" lon="10.65783333447754" id="-42043">
		<tag k="fixme" v="consider natural=peak for the most distinct mountains in the district" />
		<tag k="name" v="Grønliklumpen" />
		<tag k="natural" v="hill" />
		<tag k="place" v="locality" />
		<tag k="ssr:stedsnr" v="14314" />
	</node>
	<node lat="64.14302499705076" lon="10.661313894293702" id="-42044">
		<tag k="name" v="Grønlivatnet" />
		<tag k="natural" v="water" />
		<tag k="ssr:stedsnr" v="14326" />
	</node>
	<node lat="64.16901666600329" lon="10.298780558524305" id="-42045">
		<tag k="fixme" v="consider natural=peak for the most distinct mountains in the district" />
		<tag k="name" v="Voliheia" />
		<tag k="natural" v="hill" />
		<tag k="place" v="locality" />
		<tag k="ssr:stedsnr" v="14364" />
	</node>
	<node lat="64.17798888866355" lon="10.481041673150411" id="-42046">
		<tag k="name" v="Grytelva" />
		<tag k="ssr:stedsnr" v="14371" />
		<tag k="waterway" v="stream" />
	</node>
	<node lat="64.16884999732338" lon="10.225908332005456" id="-42047">
		<tag k="name" v="Skipparvika" />
		<tag k="place" v="farm" />
		<tag k="ssr:stedsnr" v="14373" />
	</node>
	<node lat="64.17310277917286" lon="10.3401833232508" id="-42048">
		<tag k="alt_name" v="Bakkan" />
		<tag k="name" v="Bakken" />
		<tag k="place" v="farm" />
		<tag k="ssr:stedsnr" v="14380" />
	</node>
	<node lat="64.00593333461876" lon="10.570941666198497" id="-42049">
		<tag k="name" v="Dulmålstjønna" />
		<tag k="natural" v="water" />
		<tag k="ssr:stedsnr" v="14709" />
	</node>
	<node lat="63.959987601476456" lon="10.099734062478785" id="-42050">
		<tag k="alt_name" v="Borgarholmen" />
		<tag k="fixme" v="multiple name tags, choose one and add the other to alt_name" />
		<tag k="name" v="Borgaren;Borgaholmen" />
		<tag k="place" v="islet" />
		<tag k="ssr:stedsnr" v="14659" />
	</node>
	<node lat="64.24824166846861" lon="10.155711105387777" id="-42051">
		<tag k="name" v="Bukkfallet" />
		<tag k="natural" v="shoal" />
		<tag k="place" v="locality" />
		<tag k="ssr:stedsnr" v="14975" />
	</node>
	<node lat="64.07680555589175" lon="10.162802774109732" id="-42052">
		<tag k="name" v="Simavika" />
		<tag k="natural" v="bay" />
		<tag k="ssr:stedsnr" v="21041" />
	</node>
	<node lat="64.14635000333132" lon="10.755341667376323" id="-42053">
		<tag k="name" v="Sørhaugan" />
		<tag k="natural" v="hill" />
		<tag k="place" v="locality" />
		<tag k="ssr:stedsnr" v="21822" />
	</node>
	<node lat="64.11710277818334" lon="10.167799996770533" id="-42054">
		<tag k="name" v="Dalaholet" />
		<tag k="natural" v="valley" />
		<tag k="place" v="locality" />
		<tag k="ssr:stedsnr" v="24535" />
	</node>
	<node lat="64.11272500323105" lon="10.867122213389637" id="-42055">
		<tag k="fixme" v="consider natural=peak for the most distinct mountains in the district" />
		<tag k="name" v="Finnvollheia - Raassje" />
		<tag k="name:no" v="Finnvollheia" />
		<tag k="name:sma" v="Raassje" />
		<tag k="natural" v="hill" />
		<tag k="old_name:sma" v="Roassje" />
		<tag k="place" v="locality" />
		<tag k="ssr:stedsnr" v="24598" />
	</node>
	<node lat="64.21103056006062" lon="10.108752771255176" id="-42056">
		<tag k="fixme" v="consider seamark:type=rock or natural=shoal" />
		<tag k="name" v="Drevflesskjæret" />
		<tag k="place" v="islet" />
		<tag k="ssr:stedsnr" v="26229" />
	</node>
	<node lat="64.00350555863984" lon="9.87439166381551" id="-42057">
		<tag k="name" v="Kjervikneset" />
		<tag k="natural" v="cape" />
		<tag k="ssr:stedsnr" v="30106" />
	</node>
	<node lat="64.007988889204" lon="9.965483328433274" id="-42058">
		<tag k="name" v="Linesflua" />
		<tag k="natural" v="shoal" />
		<tag k="place" v="locality" />
		<tag k="ssr:stedsnr" v="30278" />
	</node>
	<node lat="63.96288611199423" lon="9.923458331195057" id="-42059">
		<tag k="name" v="Storflua" />
		<tag k="natural" v="shoal" />
		<tag k="place" v="locality" />
		<tag k="ssr:stedsnr" v="30315" />
	</node>
	<node lat="63.89502222533364" lon="9.989588881293601" id="-42060">
		<tag k="name" v="Kjøremneset" />
		<tag k="natural" v="cape" />
		<tag k="ssr:stedsnr" v="30638" />
	</node>
	<node lat="63.90056944723977" lon="9.995916664236745" id="-42061">
		<tag k="fixme" v="consider seamark:type=rock or natural=shoal" />
		<tag k="name" v="Hommelvikskjæret" />
		<tag k="place" v="islet" />
		<tag k="ssr:stedsnr" v="30644" />
	</node>
	<node lat="64.01806388542809" lon="10.418105548886501" id="-42062">
		<tag k="name" v="Stakkenget" />
		<tag k="place" v="locality" />
		<tag k="ssr:stedsnr" v="30675" />
	</node>
	<node lat="63.994638890344156" lon="10.401477784329066" id="-42063">
		<tag k="name" v="Moltdalshaugen" />
		<tag k="natural" v="hill" />
		<tag k="place" v="locality" />
		<tag k="ssr:stedsnr" v="30786" />
	</node>
	<node lat="63.99415555139504" lon="10.39524722294813" id="-42064">
		<tag k="name" v="Moltdalsbekken" />
		<tag k="ssr:stedsnr" v="30788" />
		<tag k="waterway" v="stream" />
	</node>
	<node lat="63.904183332802845" lon="10.016866662580277" id="-42065">
		<tag k="name" v="Ravikstranda" />
		<tag k="natural" v="beach" />
		<tag k="ssr:stedsnr" v="31002" />
	</node>
	<node lat="64.19137778115321" lon="10.268747223529214" id="-42066">
		<tag k="name" v="Bekkedalen" />
		<tag k="natural" v="valley" />
		<tag k="place" v="locality" />
		<tag k="ssr:stedsnr" v="31005" />
	</node>
	<node lat="63.91770555883102" lon="9.991849994794011" id="-42067">
		<tag k="name" v="Eidsbakkan" />
		<tag k="natural" v="slope" />
		<tag k="place" v="locality" />
		<tag k="ssr:stedsnr" v="31006" />
	</node>
	<node lat="64.19483333691343" lon="10.221011115108453" id="-42068">
		<tag k="fixme" v="consider natural=peak for the most distinct mountains in the district" />
		<tag k="name" v="Tverfjellet" />
		<tag k="natural" v="hill" />
		<tag k="place" v="locality" />
		<tag k="ssr:stedsnr" v="31013" />
	</node>
	<node lat="63.98108611483418" lon="10.323411101847586" id="-42069">
		<tag k="name" v="Bølsmarkmyran" />
		<tag k="natural" v="wetland" />
		<tag k="ssr:stedsnr" v="31015" />
	</node>
	<node lat="64.19918611072104" lon="10.30914166740269" id="-42070">
		<tag k="name" v="Kjeurda" />
		<tag k="natural" v="scree" />
		<tag k="ssr:stedsnr" v="31020" />
	</node>
	<node lat="64.19358610847654" lon="10.308838880193504" id="-42071">
		<tag k="name" v="Sellikrommen" />
		<tag k="place" v="locality" />
		<tag k="ssr:stedsnr" v="31021" />
	</node>
	<node lat="64.17833333348827" lon="10.218233324951468" id="-42072">
		<tag k="name" v="Myrahaugen" />
		<tag k="natural" v="hill" />
		<tag k="place" v="locality" />
		<tag k="ssr:stedsnr" v="31101" />
	</node>
	<node lat="63.97359721796022" lon="10.125808335653906" id="-42073">
		<tag k="name" v="Stuaholan" />
		<tag k="place" v="locality" />
		<tag k="ssr:stedsnr" v="31102" />
	</node>
	<node lat="64.0115083337457" lon="10.317402774294827" id="-42074">
		<tag k="historic" v="shieling" />
		<tag k="name" v="Gammelseteren" />
		<tag k="place" v="locality" />
		<tag k="ssr:stedsnr" v="31110" />
	</node>
	<node lat="64.15772499638005" lon="10.319874999090713" id="-42075">
		<tag k="historic" v="shieling" />
		<tag k="name" v="Gammelsetervollen" />
		<tag k="place" v="locality" />
		<tag k="ssr:stedsnr" v="31122" />
	</node>
	<node lat="64.00339444104961" lon="10.155247217898427" id="-42076">
		<tag k="fixme" v="consider natural=peak for the most distinct mountains in the district" />
		<tag k="name" v="Bjørkengsholan" />
		<tag k="natural" v="hill" />
		<tag k="place" v="locality" />
		<tag k="ssr:stedsnr" v="31164" />
	</node>
	<node lat="64.03632499835192" lon="10.040891670420017" id="-42077">
		<tag k="name" v="Halen" />
		<tag k="natural" v="cape" />
		<tag k="ssr:stedsnr" v="31165" />
	</node>
	<node lat="64.17513055632263" lon="10.3425694449559" id="-42078">
		<tag k="name" v="Myrahaugen" />
		<tag k="natural" v="hill" />
		<tag k="place" v="locality" />
		<tag k="ssr:stedsnr" v="31166" />
	</node>
	<node lat="64.16978055785256" lon="10.352230565494219" id="-42079">
		<tag k="name" v="Revdalshaugan" />
		<tag k="natural" v="hill" />
		<tag k="place" v="locality" />
		<tag k="ssr:stedsnr" v="31169" />
	</node>
	<node lat="63.98797500078433" lon="10.057349998283124" id="-42080">
		<tag k="name" v="Rapet" />
		<tag k="natural" v="cliff" />
		<tag k="ssr:stedsnr" v="31173" />
	</node>
	<node lat="64.19308888635354" lon="10.403024990167756" id="-42081">
		<tag k="name" v="Bommabakkan" />
		<tag k="place" v="locality" />
		<tag k="ssr:stedsnr" v="31180" />
	</node>
	<node lat="64.05353889094077" lon="10.14080832553297" id="-42082">
		<tag k="name" v="Hellskardet" />
		<tag k="natural" v="valley" />
		<tag k="place" v="locality" />
		<tag k="ssr:stedsnr" v="31181" />
	</node>
	<node lat="64.16108888837408" lon="10.365116659948088" id="-42083">
		<tag k="name" v="Slettstranda" />
		<tag k="natural" v="beach" />
		<tag k="ssr:stedsnr" v="31182" />
	</node>
	<node lat="64.25160000395353" lon="10.35506387947456" id="-42084">
		<tag k="fixme" v="consider natural=peak for the most distinct mountains in the district" />
		<tag k="name" v="Geitakleivhammaren" />
		<tag k="natural" v="hill" />
		<tag k="place" v="locality" />
		<tag k="ssr:stedsnr" v="31186" />
	</node>
	<node lat="63.92765277488824" lon="9.938505546750703" id="-42085">
		<tag k="name" v="Lauvøya" />
		<tag k="place" v="farm" />
		<tag k="ssr:stedsnr" v="31302" />
	</node>
	<node lat="64.1671027816494" lon="10.446999992152051" id="-42086">
		<tag k="name" v="Sagfossen" />
		<tag k="natural" v="waterfall" />
		<tag k="ssr:stedsnr" v="31304" />
	</node>
	<node lat="63.98568333300684" lon="10.001986108891955" id="-42087">
		<tag k="name" v="Hestvik" />
		<tag k="place" v="farm" />
		<tag k="ssr:stedsnr" v="31318" />
	</node>
	<node lat="64.15368611133258" lon="10.344322231361142" id="-42088">
		<tag k="name" v="Vesterlia" />
		<tag k="natural" v="slope" />
		<tag k="place" v="locality" />
		<tag k="ssr:stedsnr" v="31325" />
	</node>
	<node lat="64.12415555327416" lon="10.281966675169754" id="-42089">
		<tag k="name" v="Eldingholmyra" />
		<tag k="natural" v="wetland" />
		<tag k="ssr:stedsnr" v="31064" />
	</node>
	<node lat="64.22802500096262" lon="10.337272213333069" id="-42090">
		<tag k="name" v="Hermannslimoen" />
		<tag k="place" v="locality" />
		<tag k="ssr:stedsnr" v="31202" />
	</node>
	<node lat="63.92430278043767" lon="9.88483056562392" id="-42091">
		<tag k="fixme" v="consider seamark:type=rock or natural=shoal" />
		<tag k="name" v="Smørholmskjæret" />
		<tag k="place" v="islet" />
		<tag k="ssr:stedsnr" v="31205" />
	</node>
	<node lat="64.02164444749522" lon="10.108602784945939" id="-42092">
		<tag k="name" v="Litlolaskardet" />
		<tag k="natural" v="valley" />
		<tag k="place" v="locality" />
		<tag k="ssr:stedsnr" v="31206" />
	</node>
	<node lat="64.23664444184546" lon="10.384169434937736" id="-42093">
		<tag k="fixme" v="consider natural=peak for the most distinct mountains in the district" />
		<tag k="name" v="Setermarkfjellet" />
		<tag k="natural" v="hill" />
		<tag k="place" v="locality" />
		<tag k="ssr:stedsnr" v="31207" />
	</node>
	<node lat="64.23118332978476" lon="10.293136119189784" id="-42094">
		<tag k="name" v="Ramsvikskardet" />
		<tag k="natural" v="valley" />
		<tag k="place" v="locality" />
		<tag k="ssr:stedsnr" v="31213" />
	</node>
	<node lat="64.23473889035684" lon="10.414755552453602" id="-42095">
		<tag k="name" v="Øyster Granholhøgda" />
		<tag k="natural" v="hill" />
		<tag k="place" v="locality" />
		<tag k="ssr:stedsnr" v="31214" />
	</node>
	<node lat="64.27302221866432" lon="10.353263894636328" id="-42096">
		<tag k="name" v="Klumpen" />
		<tag k="natural" v="hill" />
		<tag k="place" v="locality" />
		<tag k="ssr:stedsnr" v="31216" />
	</node>
	<node lat="64.00081388791051" lon="10.231997226457718" id="-42097">
		<tag k="name" v="Imsen" />
		<tag k="place" v="farm" />
		<tag k="ssr:stedsnr" v="31262" />
	</node>
	<node lat="64.1751277769318" lon="10.469677780917404" id="-42098">
		<tag k="name" v="Storbubukta" />
		<tag k="place" v="locality" />
		<tag k="ssr:stedsnr" v="31265" />
	</node>
	<node lat="64.18160000023927" lon="10.551205559180039" id="-42099">
		<tag k="name" v="Setertjønna" />
		<tag k="natural" v="water" />
		<tag k="ssr:stedsnr" v="31269" />
	</node>
	<node lat="64.20903888735663" lon="10.495630564156" id="-42100">
		<tag k="fixme" v="consider natural=peak for the most distinct mountains in the district" />
		<tag k="name" v="Øysterkrummen" />
		<tag k="natural" v="hill" />
		<tag k="place" v="locality" />
		<tag k="ssr:stedsnr" v="31274" />
	</node>
	<node lat="64.12757778185498" lon="10.628802786477033" id="-42101">
		<tag k="name" v="Fremmer Vargfossnesa" />
		<tag k="natural" v="slope" />
		<tag k="place" v="locality" />
		<tag k="ssr:stedsnr" v="31279" />
	</node>
	<node lat="63.994011108030485" lon="10.764058343010138" id="-42102">
		<tag k="name" v="Bårdlielva" />
		<tag k="ssr:stedsnr" v="31282" />
		<tag k="waterway" v="river" />
	</node>
	<node lat="64.04089999850461" lon="10.591930565658876" id="-42103">
		<tag k="name" v="Tjerrabrennbekken" />
		<tag k="ssr:stedsnr" v="31408" />
		<tag k="waterway" v="stream" />
	</node>
	<node lat="64.06444444712312" lon="10.643147218596525" id="-42104">
		<tag k="name" v="Vakkerheimen" />
		<tag k="natural" v="slope" />
		<tag k="place" v="locality" />
		<tag k="ssr:stedsnr" v="31416" />
	</node>
	<node lat="64.02439722280835" lon="10.543199999347445" id="-42105">
		<tag k="name" v="Granholmen" />
		<tag k="place" v="islet" />
		<tag k="ssr:stedsnr" v="31512" />
	</node>
	<node lat="63.92470277896934" lon="10.068877781353578" id="-42106">
		<tag k="name" v="Kvennhusbekken" />
		<tag k="ssr:stedsnr" v="31516" />
		<tag k="waterway" v="stream" />
	</node>
	<node lat="63.92563333022091" lon="10.080799995183051" id="-42107">
		<tag k="name" v="Øyster Brattvika" />
		<tag k="natural" v="bay" />
		<tag k="ssr:stedsnr" v="31517" />
	</node>
	<node lat="63.94957777746763" lon="10.508563890765624" id="-42108">
		<tag k="name" v="Trongstadlifossen" />
		<tag k="natural" v="waterfall" />
		<tag k="ssr:stedsnr" v="31562" />
	</node>
	<node lat="63.946566670935745" lon="10.495761109578266" id="-42109">
		<tag k="name" v="Gråfjellkamurda" />
		<tag k="natural" v="scree" />
		<tag k="ssr:stedsnr" v="31565" />
	</node>
	<node lat="63.95293611384987" lon="10.564261111863992" id="-42110">
		<tag k="name" v="Damtjønna" />
		<tag k="natural" v="water" />
		<tag k="ssr:stedsnr" v="31573" />
	</node>
	<node lat="64.00480833200477" lon="10.475730547851173" id="-42111">
		<tag k="name" v="Fagerlimyra" />
		<tag k="natural" v="wetland" />
		<tag k="ssr:stedsnr" v="31574" />
	</node>
	<node lat="63.939041662312746" lon="10.166838890567341" id="-42112">
		<tag k="name" v="Ørnhaugan" />
		<tag k="natural" v="hill" />
		<tag k="place" v="locality" />
		<tag k="ssr:stedsnr" v="31575" />
	</node>
	<node lat="63.93678889190805" lon="10.185580545980825" id="-42113">
		<tag k="name" v="Breivika" />
		<tag k="natural" v="bay" />
		<tag k="ssr:stedsnr" v="31579" />
	</node>
	<node lat="63.93964999817773" lon="10.474086112704912" id="-42114">
		<tag k="name" v="Gråfjellbekken" />
		<tag k="ssr:stedsnr" v="31705" />
		<tag k="waterway" v="stream" />
	</node>
	<node lat="63.97904721914489" lon="10.460263885033967" id="-42115">
		<tag k="name" v="Ommunddalsbekken" />
		<tag k="ssr:stedsnr" v="31713" />
		<tag k="waterway" v="stream" />
	</node>
	<node lat="64.06621111246957" lon="10.496744450774461" id="-42116">
		<tag k="historic" v="shieling" />
		<tag k="name" v="Klingerstolseteren" />
		<tag k="place" v="locality" />
		<tag k="ssr:stedsnr" v="31604" />
	</node>
	<node lat="64.06700277817062" lon="10.557613889059297" id="-42117">
		<tag k="name" v="Seterlia" />
		<tag k="natural" v="slope" />
		<tag k="place" v="locality" />
		<tag k="ssr:stedsnr" v="31606" />
	</node>
	<node lat="64.06763888518692" lon="10.488352787418506" id="-42118">
		<tag k="name" v="Slåttamyran" />
		<tag k="natural" v="wetland" />
		<tag k="ssr:stedsnr" v="31613" />
	</node>
	<node lat="63.963544444040316" lon="10.111447215130983" id="-42119">
		<tag k="fixme" v="consider seamark:type=rock or natural=shoal" />
		<tag k="name" v="Ospvikskjæret" />
		<tag k="place" v="islet" />
		<tag k="ssr:stedsnr" v="31621" />
	</node>
	<node lat="63.96146111135537" lon="10.111308338422852" id="-42120">
		<tag k="name" v="Moldbakkan" />
		<tag k="place" v="farm" />
		<tag k="ssr:stedsnr" v="31623" />
	</node>
	<node lat="64.02367500385633" lon="10.5437805643979" id="-42121">
		<tag k="name" v="Storholmen" />
		<tag k="place" v="islet" />
		<tag k="ssr:stedsnr" v="31624" />
	</node>
	<node lat="64.02036389071345" lon="10.55627776982272" id="-42122">
		<tag k="name" v="Klumptjønna" />
		<tag k="natural" v="water" />
		<tag k="ssr:stedsnr" v="31625" />
	</node>
	<node lat="63.90190277775208" lon="10.231702780101553" id="-42123">
		<tag k="name" v="Avlsgården" />
		<tag k="place" v="locality" />
		<tag k="ssr:stedsnr" v="31663" />
	</node>
	<node lat="64.01329722074296" lon="10.449358328415467" id="-42124">
		<tag k="name" v="Bjørnatømyra" />
		<tag k="natural" v="wetland" />
		<tag k="ssr:stedsnr" v="31681" />
	</node>
	<node lat="64.02599999852272" lon="9.913124992672767" id="-42125">
		<tag k="name" v="Straumen" />
		<tag k="natural" v="water" />
		<tag k="ssr:stedsnr" v="31806" />
		<tag k="water" v="lake" />
	</node>
	<node lat="63.97932500223739" lon="10.432083333799083" id="-42126">
		<tag k="name" v="Haugen" />
		<tag k="natural" v="hill" />
		<tag k="place" v="locality" />
		<tag k="ssr:stedsnr" v="31766" />
	</node>
	<node lat="63.97931389000933" lon="10.442927768490303" id="-42127">
		<tag k="name" v="Bjørnabakken" />
		<tag k="natural" v="slope" />
		<tag k="place" v="locality" />
		<tag k="ssr:stedsnr" v="31770" />
	</node>
	<node lat="63.994672222927754" lon="10.42041111268403" id="-42128">
		<tag k="name" v="Fjellmyra" />
		<tag k="natural" v="wetland" />
		<tag k="ssr:stedsnr" v="31774" />
	</node>
	<node lat="63.984697222771494" lon="10.365983328389772" id="-42129">
		<tag k="name" v="Bjørnbekken" />
		<tag k="ssr:stedsnr" v="31779" />
		<tag k="waterway" v="stream" />
	</node>
	<node lat="64.1539388864432" lon="10.1897472154521" id="-42130">
		<tag k="name" v="Nesvika" />
		<tag k="natural" v="bay" />
		<tag k="ssr:stedsnr" v="31901" />
	</node>
	<node lat="63.92843888980158" lon="10.402419434927202" id="-42131">
		<tag k="name" v="Moenholmen" />
		<tag k="place" v="islet" />
		<tag k="ssr:stedsnr" v="31905" />
	</node>
	<node lat="63.86453055891214" lon="10.310027774567775" id="-42132">
		<tag k="name" v="Fremmer Tverrlitjønna" />
		<tag k="natural" v="water" />
		<tag k="ssr:stedsnr" v="31908" />
	</node>
	<node lat="63.852888889461894" lon="10.410466676093217" id="-42133">
		<tag k="name" v="Nordre Løsvassheia" />
		<tag k="natural" v="hill" />
		<tag k="place" v="locality" />
		<tag k="ssr:stedsnr" v="31915" />
	</node>
	<node lat="63.9251777751473" lon="10.45526667366562" id="-42134">
		<tag k="name" v="Kvernhusfossen" />
		<tag k="natural" v="waterfall" />
		<tag k="ssr:stedsnr" v="31981" />
	</node>
	<node lat="64.07724721944709" lon="10.03632777027631" id="-42135">
		<tag k="name" v="Skreddarplassen" />
		<tag k="place" v="locality" />
		<tag k="ssr:stedsnr" v="31982" />
	</node>
	<node lat="63.921005553012584" lon="10.41733055907081" id="-42136">
		<tag k="name" v="Moabekken" />
		<tag k="ssr:stedsnr" v="31984" />
		<tag k="waterway" v="stream" />
	</node>
	<node lat="64.00170000266787" lon="9.993480555159369" id="-42137">
		<tag k="alt_name" v="Kattavikholmen" />
		<tag k="name" v="Lamholmen" />
		<tag k="place" v="islet" />
		<tag k="ssr:stedsnr" v="31862" />
	</node>
	<node lat="63.9927416664259" lon="9.99624721432556" id="-42138">
		<tag k="name" v="Vorpvikberga" />
		<tag k="natural" v="hill" />
		<tag k="place" v="locality" />
		<tag k="ssr:stedsnr" v="31865" />
	</node>
	<node lat="63.9994777816357" lon="9.999261116373374" id="-42139">
		<tag k="name" v="Nordneset" />
		<tag k="natural" v="cape" />
		<tag k="ssr:stedsnr" v="31869" />
	</node>
	<node lat="63.993469446015716" lon="10.018091667350593" id="-42140">
		<tag k="name" v="Sandholan" />
		<tag k="place" v="isolated_dwelling" />
		<tag k="ssr:stedsnr" v="31872" />
	</node>
	<node lat="63.923219446851434" lon="10.417091666878989" id="-42141">
		<tag k="name" v="Kvennhusbakken" />
		<tag k="natural" v="slope" />
		<tag k="place" v="locality" />
		<tag k="ssr:stedsnr" v="31874" />
	</node>
	<node lat="64.14077777362516" lon="10.16306388822892" id="-42142">
		<tag k="fixme" v="consider natural=peak for the most distinct mountains in the district" />
		<tag k="name" v="Båtfjellet" />
		<tag k="natural" v="hill" />
		<tag k="place" v="locality" />
		<tag k="ssr:stedsnr" v="31875" />
	</node>
	<node lat="63.96135277753185" lon="10.20159166019418" id="-42143">
		<tag k="alt_name" v="Nummer 11" />
		<tag k="amenity" v="community_centre" />
		<tag k="name" v="Furuly" />
		<tag k="ssr:stedsnr" v="237348" />
	</node>
	<node lat="63.92254722229612" lon="10.418469444952441" id="-42144">
		<tag k="amenity" v="community_centre" />
		<tag k="name" v="Sørdalshuset" />
		<tag k="old_name" v="Sørdalen grendahus" />
		<tag k="ssr:stedsnr" v="237358" />
	</node>
	<node lat="64.15431666639654" lon="10.533061121066835" id="-42145">
		<tag k="amenity" v="community_centre" />
		<tag k="name" v="Skistua" />
		<tag k="ssr:stedsnr" v="239299" />
	</node>
	<node lat="63.8564749988357" lon="10.2271805514812" id="-42146">
		<tag k="amenity" v="parking" />
		<tag k="name" v="Austdalen parkering" />
		<tag k="ssr:stedsnr" v="59707" />
	</node>
	<node lat="64.03906666533717" lon="10.062177784394839" id="-42147">
		<tag k="name" v="Aquarius brygge" />
		<tag k="ssr:stedsnr" v="59723" />
		<tag k="tourism" v="guest_house" />
	</node>
	<node lat="64.05406389121951" lon="9.952100005781084" id="-42148">
		<tag k="name" v="Stokkøya sjøsenter" />
		<tag k="ssr:stedsnr" v="59724" />
		<tag k="tourism" v="guest_house" />
	</node>
	<node lat="63.9885499987866" lon="10.738366672827341" id="-42149">
		<tag k="amenity" v="parking" />
		<tag k="name" v="Skansen gård parkering" />
		<tag k="ssr:stedsnr" v="241707" />
	</node>
	<node lat="63.93931944037865" lon="10.546744442314596" id="-42150">
		<tag k="name" v="Ommunddalen" />
		<tag k="place" v="farm" />
		<tag k="ssr:stedsnr" v="242122" />
	</node>
	<node lat="63.9277833227932" lon="10.160994677614173" id="-42151">
		<tag k="name" v="Kroken" />
		<tag k="place" v="farm" />
		<tag k="ssr:stedsnr" v="242200" />
	</node>
	<node lat="63.944864605186496" lon="10.072560988019207" id="-42152">
		<tag k="name" v="Eid" />
		<tag k="place" v="farm" />
		<tag k="ssr:stedsnr" v="242216" />
	</node>
	<node lat="64.00347777455663" lon="10.230969438489645" id="-42153">
		<tag k="name" v="Imsen" />
		<tag k="place" v="farm" />
		<tag k="ssr:stedsnr" v="242722" />
	</node>
	<node lat="63.990000003884006" lon="10.175533341351366" id="-42154">
		<tag k="name" v="Dolmset" />
		<tag k="place" v="farm" />
		<tag k="ssr:stedsnr" v="242733" />
	</node>
	<node lat="63.975490261481525" lon="10.088154805333168" id="-42155">
		<tag k="fixme" v="consider place=hamlet" />
		<tag k="name" v="Morka" />
		<tag k="place" v="farm" />
		<tag k="ssr:stedsnr" v="242741" />
	</node>
	<node lat="63.94723055313733" lon="10.259847219087764" id="-42156">
		<tag k="fixme" v="consider natural=peak for the most distinct mountains in the district" />
		<tag k="name" v="Jofjellet" />
		<tag k="natural" v="hill" />
		<tag k="place" v="locality" />
		<tag k="ssr:stedsnr" v="73376" />
	</node>
	<node lat="63.97805278060838" lon="10.112655547798886" id="-42157">
		<tag k="name" v="Kvenndalsholmen" />
		<tag k="place" v="islet" />
		<tag k="ssr:stedsnr" v="73718" />
	</node>
	<node lat="64.2347027773677" lon="10.434749991674892" id="-42159">
		<tag k="name" v="Vikseteren" />
		<tag k="place" v="isolated_dwelling" />
		<tag k="ssr:stedsnr" v="74038" />
	</node>
	<node lat="64.23970555239462" lon="10.29085833151581" id="-42160">
		<tag k="name" v="Vettavik" />
		<tag k="place" v="farm" />
		<tag k="ssr:stedsnr" v="74041" />
	</node>
	<node lat="64.2266888885269" lon="10.379638897446364" id="-42161">
		<tag k="name" v="Spissteintjønna" />
		<tag k="natural" v="water" />
		<tag k="ssr:stedsnr" v="74063" />
	</node>
	<node lat="63.972924999387224" lon="10.49219167621138" id="-42162">
		<tag k="name" v="Kattatjønna" />
		<tag k="natural" v="water" />
		<tag k="ssr:stedsnr" v="74121" />
	</node>
	<node lat="63.98515000098772" lon="10.411419452998315" id="-42163">
		<tag k="alt_name" v="Ytterlia" />
		<tag k="name" v="Bylia" />
		<tag k="place" v="farm" />
		<tag k="ssr:stedsnr" v="74155" />
	</node>
	<node lat="64.07709213650766" lon="10.172975004001918" id="-42164">
		<tag k="fixme" v="consider place=hamlet" />
		<tag k="name" v="Simavika" />
		<tag k="place" v="farm" />
		<tag k="ssr:stedsnr" v="74161" />
	</node>
	<node lat="63.99269444668979" lon="10.381972218797404" id="-42165">
		<tag k="fixme" v="consider natural=peak for the most distinct mountains in the district" />
		<tag k="name" v="Tverråsen" />
		<tag k="natural" v="hill" />
		<tag k="place" v="locality" />
		<tag k="ssr:stedsnr" v="74165" />
	</node>
	<node lat="63.99783860910132" lon="10.311064545497409" id="-42166">
		<tag k="alt_name" v="Mølsletta, vestre" />
		<tag k="name" v="Vestre Mølsletta" />
		<tag k="place" v="farm" />
		<tag k="ssr:stedsnr" v="74167" />
	</node>
	<node lat="63.99817222102808" lon="10.287880562968825" id="-42167">
		<tag k="name" v="Søre Berdalsvatnet" />
		<tag k="natural" v="water" />
		<tag k="ssr:stedsnr" v="74171" />
		<tag k="water" v="lake" />
	</node>
	<node lat="64.17758889066205" lon="9.925675003233213" id="-42168">
		<tag k="name" v="Leiafallet" />
		<tag k="natural" v="shoal" />
		<tag k="place" v="locality" />
		<tag k="ssr:stedsnr" v="74209" />
	</node>
	<node lat="64.14400555997979" lon="10.363200003081625" id="-42169">
		<tag k="name" v="Kjerringholet" />
		<tag k="natural" v="valley" />
		<tag k="place" v="locality" />
		<tag k="ssr:stedsnr" v="74410" />
	</node>
	<node lat="64.15475277971767" lon="10.503450009808937" id="-42170">
		<tag k="fixme" v="consider natural=peak for the most distinct mountains in the district" />
		<tag k="name" v="Rundfjellet" />
		<tag k="natural" v="hill" />
		<tag k="place" v="locality" />
		<tag k="ssr:stedsnr" v="74417" />
	</node>
	<node lat="64.08343610714218" lon="10.327769438654368" id="-42171">
		<tag k="fixme" v="consider natural=peak for the most distinct mountains in the district" />
		<tag k="name" v="Steinheia" />
		<tag k="natural" v="hill" />
		<tag k="place" v="locality" />
		<tag k="ssr:stedsnr" v="74305" />
	</node>
	<node lat="63.88379722626538" lon="10.04260277767603" id="-42172">
		<tag k="name" v="Oksbåsen" />
		<tag k="place" v="locality" />
		<tag k="ssr:stedsnr" v="74566" />
	</node>
	<node lat="63.87934721993106" lon="10.001925007951913" id="-42173">
		<tag k="alt_name" v="Gammelsæterheia;Gammelseterfjellet" />
		<tag k="name" v="Gammelseterheia" />
		<tag k="natural" v="hill" />
		<tag k="place" v="locality" />
		<tag k="ssr:stedsnr" v="74569" />
	</node>
	<node lat="63.897355551709964" lon="10.003766671121982" id="-42174">
		<tag k="alt_name" v="Hummelvika" />
		<tag k="name" v="Hommelvika" />
		<tag k="natural" v="bay" />
		<tag k="ssr:stedsnr" v="74617" />
	</node>
	<node lat="64.00244722379658" lon="10.288177786230792" id="-42175">
		<tag k="name" v="Bualia" />
		<tag k="natural" v="slope" />
		<tag k="place" v="locality" />
		<tag k="ssr:stedsnr" v="74701" />
	</node>
	<node lat="63.98951944062567" lon="9.856397226629795" id="-42176">
		<tag k="name" v="Hellesøya" />
		<tag k="place" v="islet" />
		<tag k="ssr:stedsnr" v="74705" />
	</node>
	<node lat="64.01214166744934" lon="10.385694436874633" id="-42177">
		<tag k="name" v="Stigknoppen" />
		<tag k="natural" v="hill" />
		<tag k="place" v="locality" />
		<tag k="ssr:stedsnr" v="74707" />
	</node>
	<node lat="64.21659444609139" lon="10.273333340448158" id="-42178">
		<tag k="name" v="Storvika" />
		<tag k="place" v="farm" />
		<tag k="ssr:stedsnr" v="75006" />
	</node>
	<node lat="64.20387500029749" lon="10.433480554628012" id="-42179">
		<tag k="name" v="Hestmarka" />
		<tag k="natural" v="valley" />
		<tag k="place" v="locality" />
		<tag k="ssr:stedsnr" v="75013" />
	</node>
	<node lat="64.00682778011893" lon="10.028513878809934" id="-42180">
		<tag k="name" v="Herfjorden" />
		<tag k="natural" v="bay" />
		<tag k="ssr:stedsnr" v="75068" />
	</node>
	<node lat="64.03481944416174" lon="10.118661110519659" id="-42181">
		<tag k="name" v="Høgbakktjønna" />
		<tag k="natural" v="water" />
		<tag k="ssr:stedsnr" v="75101" />
	</node>
	<node lat="64.02333055666828" lon="9.800727785687837" id="-42182">
		<tag k="alt_name" v="Tøflua, yt" />
		<tag k="name" v="Ytre Tøflua" />
		<tag k="natural" v="shoal" />
		<tag k="place" v="locality" />
		<tag k="ssr:stedsnr" v="75106" />
	</node>
	<node lat="64.02804722186741" lon="9.886413881062294" id="-42183">
		<tag k="alt_name" v="Eid" />
		<tag k="fixme" v="consider place=hamlet" />
		<tag k="name" v="Eide" />
		<tag k="place" v="farm" />
		<tag k="ssr:stedsnr" v="75110" />
	</node>
	<node lat="64.09076111151036" lon="9.868899997543378" id="-42184">
		<tag k="name" v="Lyngøya" />
		<tag k="place" v="island" />
		<tag k="ssr:stedsnr" v="75162" />
	</node>
	<node lat="64.09694722473301" lon="9.877341665276795" id="-42185">
		<tag k="fixme" v="consider seamark:type=rock or natural=shoal" />
		<tag k="name" v="Svartskjæret" />
		<tag k="place" v="islet" />
		<tag k="ssr:stedsnr" v="75166" />
	</node>
	<node lat="64.09470000050872" lon="9.867669453813633" id="-42186">
		<tag k="name" v="Kalvøya" />
		<tag k="place" v="island" />
		<tag k="ssr:stedsnr" v="75167" />
	</node>
	<node lat="64.04289999877274" lon="10.260780550729123" id="-42187">
		<tag k="name" v="Gammelgårdsvatnet" />
		<tag k="natural" v="water" />
		<tag k="ssr:stedsnr" v="75251" />
	</node>
	<node lat="64.17170555343883" lon="10.244983330879146" id="-42188">
		<tag k="name" v="Mølnhusmoen" />
		<tag k="place" v="farm" />
		<tag k="ssr:stedsnr" v="75459" />
	</node>
	<node lat="64.1710416685624" lon="10.295358338572017" id="-42189">
		<tag k="name" v="Slettskardvatnet" />
		<tag k="natural" v="water" />
		<tag k="ssr:stedsnr" v="75468" />
	</node>
	<node lat="63.942033336495" lon="10.082333327098143" id="-42190">
		<tag k="alt_name" v="Råneslia" />
		<tag k="name" v="Rånesli" />
		<tag k="natural" v="slope" />
		<tag k="place" v="locality" />
		<tag k="ssr:stedsnr" v="75567" />
	</node>
	<node lat="64.23573888461027" lon="9.936277769844667" id="-42191">
		<tag k="name" v="Evena" />
		<tag k="natural" v="shoal" />
		<tag k="place" v="locality" />
		<tag k="ssr:stedsnr" v="75999" />
	</node>
	<node lat="64.17445555751651" lon="10.109038897312272" id="-42192">
		<tag k="name" v="Kyrpingrevet" />
		<tag k="natural" v="shoal" />
		<tag k="place" v="locality" />
		<tag k="ssr:stedsnr" v="86105" />
	</node>
	<node lat="64.15482248552134" lon="10.186442551793146" id="-42193">
		<tag k="fixme" v="consider place=hamlet" />
		<tag k="name" v="Nes" />
		<tag k="place" v="farm" />
		<tag k="ssr:stedsnr" v="86988" />
	</node>
	<node lat="64.27616666953888" lon="10.361994435343824" id="-42194">
		<tag k="name" v="Lekkersvika" />
		<tag k="place" v="farm" />
		<tag k="ssr:stedsnr" v="87011" />
	</node>
	<node lat="64.2671027818464" lon="10.278327773396818" id="-42195">
		<tag k="fixme" v="consider seamark:type=rock or natural=shoal" />
		<tag k="name" v="Spjeldskjæret" />
		<tag k="place" v="islet" />
		<tag k="ssr:stedsnr" v="88092" />
	</node>
	<node lat="64.28074269749634" lon="10.359926096492632" id="-42196">
		<tag k="fixme" v="multiple name tags, choose one and add the other to alt_name" />
		<tag k="name" v="Augunsvika;Nordvika" />
		<tag k="natural" v="bay" />
		<tag k="ssr:stedsnr" v="88974" />
	</node>
	<node lat="64.01525000171276" lon="10.286638883211271" id="-42197">
		<tag k="name" v="Fagerlibekken" />
		<tag k="ssr:stedsnr" v="91117" />
		<tag k="waterway" v="stream" />
	</node>
	<node lat="64.01911666945425" lon="10.265636116667114" id="-42198">
		<tag k="name" v="Grøndalslia" />
		<tag k="natural" v="slope" />
		<tag k="place" v="locality" />
		<tag k="ssr:stedsnr" v="91119" />
	</node>
	<node lat="64.01534721791512" lon="10.245436117428545" id="-42199">
		<tag k="name" v="Storøyklia" />
		<tag k="natural" v="slope" />
		<tag k="place" v="locality" />
		<tag k="ssr:stedsnr" v="91124" />
	</node>
	<node lat="64.07849721897134" lon="10.171766664031924" id="-42200">
		<tag k="name" v="Buvika" />
		<tag k="place" v="locality" />
		<tag k="ssr:stedsnr" v="91140" />
	</node>
	<node lat="63.9236861135372" lon="10.219258328887015" id="-42201">
		<tag k="name" v="Hjorthornlia" />
		<tag k="natural" v="slope" />
		<tag k="place" v="locality" />
		<tag k="ssr:stedsnr" v="91141" />
	</node>
	<node lat="64.07029722418426" lon="10.129249999221132" id="-42202">
		<tag k="name" v="Kjerkvikhammaren" />
		<tag k="natural" v="cape" />
		<tag k="ssr:stedsnr" v="91142" />
	</node>
	<node lat="64.01588055509889" lon="10.068466658641064" id="-42203">
		<tag k="name" v="Staggalibekken" />
		<tag k="ssr:stedsnr" v="91165" />
		<tag k="waterway" v="stream" />
	</node>
	<node lat="63.91154444580486" lon="9.879638898949226" id="-42204">
		<tag k="name" v="Austaren" />
		<tag k="natural" v="shoal" />
		<tag k="place" v="locality" />
		<tag k="ssr:stedsnr" v="91171" />
	</node>
	<node lat="64.04241944664575" lon="9.941716661254993" id="-42205">
		<tag k="name" v="Stor-Torsholmen" />
		<tag k="place" v="islet" />
		<tag k="ssr:stedsnr" v="91173" />
	</node>
	<node lat="64.04873055770076" lon="9.943997215068338" id="-42206">
		<tag k="name" v="Sossvika" />
		<tag k="natural" v="bay" />
		<tag k="ssr:stedsnr" v="91174" />
	</node>
	<node lat="64.06342777797624" lon="10.142394448570991" id="-42207">
		<tag k="fixme" v="consider natural=peak for the most distinct mountains in the district" />
		<tag k="name" v="Nypkollen" />
		<tag k="natural" v="hill" />
		<tag k="place" v="locality" />
		<tag k="ssr:stedsnr" v="91178" />
	</node>
	<node lat="63.96490555162702" lon="10.264863895879914" id="-42208">
		<tag k="name" v="Veradalen" />
		<tag k="natural" v="valley" />
		<tag k="place" v="locality" />
		<tag k="ssr:stedsnr" v="91005" />
	</node>
	<node lat="63.98658055237779" lon="10.295266674513988" id="-42209">
		<tag k="name" v="Middagskardet" />
		<tag k="natural" v="valley" />
		<tag k="place" v="locality" />
		<tag k="ssr:stedsnr" v="91010" />
	</node>
	<node lat="63.91760555821234" lon="9.97422500057145" id="-42210">
		<tag k="name" v="Valen" />
		<tag k="place" v="farm" />
		<tag k="ssr:stedsnr" v="91015" />
	</node>
	<node lat="63.97952778077185" lon="10.262866675828711" id="-42211">
		<tag k="fixme" v="consider natural=peak for the most distinct mountains in the district" />
		<tag k="name" v="Rennskjotfjellet" />
		<tag k="natural" v="hill" />
		<tag k="place" v="locality" />
		<tag k="ssr:stedsnr" v="91018" />
	</node>
	<node lat="63.96675277884489" lon="10.285955554493713" id="-42212">
		<tag k="name" v="Storhaugen" />
		<tag k="natural" v="hill" />
		<tag k="place" v="locality" />
		<tag k="ssr:stedsnr" v="91022" />
	</node>
	<node lat="63.92528889063515" lon="9.994383327020413" id="-42213">
		<tag k="name" v="Bjørnavika" />
		<tag k="place" v="farm" />
		<tag k="ssr:stedsnr" v="91365" />
	</node>
	<node lat="63.97787222121545" lon="10.00238333701901" id="-42214">
		<tag k="name" v="Ratvika" />
		<tag k="natural" v="bay" />
		<tag k="ssr:stedsnr" v="91367" />
	</node>
	<node lat="63.9021111094059" lon="10.046794444781366" id="-42215">
		<tag k="name" v="Høgberget" />
		<tag k="natural" v="hill" />
		<tag k="place" v="locality" />
		<tag k="ssr:stedsnr" v="91369" />
	</node>
	<node lat="64.10476389001137" lon="10.05858612090279" id="-42216">
		<tag k="name" v="Tuvaodden" />
		<tag k="natural" v="cape" />
		<tag k="ssr:stedsnr" v="91522" />
	</node>
	<node lat="63.930319447872016" lon="10.154716664287786" id="-42217">
		<tag k="name" v="Kalvskinnet" />
		<tag k="place" v="locality" />
		<tag k="ssr:stedsnr" v="91532" />
	</node>
	<node lat="63.95161111401608" lon="10.52004999215656" id="-42218">
		<tag k="name" v="Øsodden" />
		<tag k="natural" v="cape" />
		<tag k="ssr:stedsnr" v="91567" />
	</node>
	<node lat="64.1116333301959" lon="10.532152775354204" id="-42219">
		<tag k="name" v="Rørskogbekken" />
		<tag k="ssr:stedsnr" v="91420" />
		<tag k="waterway" v="stream" />
	</node>
	<node lat="64.06884721989337" lon="10.507488890299387" id="-42220">
		<tag k="name" v="Purkholet" />
		<tag k="natural" v="valley" />
		<tag k="place" v="locality" />
		<tag k="ssr:stedsnr" v="91603" />
	</node>
	<node lat="63.97837500248569" lon="10.180088892041503" id="-42221">
		<tag k="name" v="Mellombekken" />
		<tag k="ssr:stedsnr" v="91609" />
		<tag k="waterway" v="stream" />
	</node>
	<node lat="63.951091664694246" lon="10.150850005189628" id="-42222">
		<tag k="name" v="Pervika" />
		<tag k="natural" v="slope" />
		<tag k="place" v="locality" />
		<tag k="ssr:stedsnr" v="91616" />
	</node>
	<node lat="64.01033889209599" lon="10.402305558680228" id="-42223">
		<tag k="fixme" v="consider natural=peak for the most distinct mountains in the district" />
		<tag k="name" v="Granfjellet" />
		<tag k="natural" v="hill" />
		<tag k="place" v="locality" />
		<tag k="ssr:stedsnr" v="91705" />
	</node>
	<node lat="63.952741667857644" lon="10.485747215979254" id="-42224">
		<tag k="name" v="Meheia" />
		<tag k="natural" v="hill" />
		<tag k="place" v="locality" />
		<tag k="ssr:stedsnr" v="91711" />
	</node>
	<node lat="63.982997219871706" lon="10.477747216189792" id="-42225">
		<tag k="name" v="Almdalen" />
		<tag k="natural" v="valley" />
		<tag k="place" v="locality" />
		<tag k="ssr:stedsnr" v="91719" />
	</node>
	<node lat="63.978025004434144" lon="10.48556388802042" id="-42226">
		<tag k="name" v="Vika" />
		<tag k="natural" v="slope" />
		<tag k="place" v="locality" />
		<tag k="ssr:stedsnr" v="91722" />
	</node>
	<node lat="63.9364472238852" lon="10.479291676069606" id="-42227">
		<tag k="name" v="Bjørnastrupen" />
		<tag k="natural" v="valley" />
		<tag k="place" v="locality" />
		<tag k="ssr:stedsnr" v="91764" />
	</node>
	<node lat="63.936077779624334" lon="10.467152783756266" id="-42228">
		<tag k="name" v="Øyster Tjønnmyra" />
		<tag k="natural" v="wetland" />
		<tag k="ssr:stedsnr" v="91769" />
	</node>
	<node lat="63.98437499911108" lon="10.393936112816485" id="-42229">
		<tag k="name" v="Liabakkan" />
		<tag k="place" v="farm" />
		<tag k="ssr:stedsnr" v="91771" />
	</node>
	<node lat="64.03891666270961" lon="9.87459999446236" id="-42230">
		<tag k="name" v="Tørrvika" />
		<tag k="natural" v="bay" />
		<tag k="ssr:stedsnr" v="91780" />
	</node>
	<node lat="63.97374166230505" lon="10.395847230321507" id="-42231">
		<tag k="fixme" v="consider natural=peak for the most distinct mountains in the district" />
		<tag k="name" v="Uggdalsåsen" />
		<tag k="natural" v="hill" />
		<tag k="place" v="locality" />
		<tag k="ssr:stedsnr" v="91783" />
	</node>
	<node lat="63.91185832923055" lon="10.449036116797338" id="-42232">
		<tag k="name" v="Langholbekken" />
		<tag k="ssr:stedsnr" v="91915" />
		<tag k="waterway" v="stream" />
	</node>
	<node lat="64.04759999941342" lon="10.115772218928269" id="-42233">
		<tag k="name" v="Setermarka" />
		<tag k="place" v="locality" />
		<tag k="ssr:stedsnr" v="91916" />
	</node>
	<node lat="63.92556111407138" lon="10.407619452903354" id="-42234">
		<tag k="name" v="Morvoll" />
		<tag k="place" v="locality" />
		<tag k="ssr:stedsnr" v="91917" />
	</node>
	<node lat="63.93035000379831" lon="10.408794434523225" id="-42236">
		<tag k="name" v="Solvang" />
		<tag k="place" v="farm" />
		<tag k="ssr:stedsnr" v="91922" />
	</node>
	<node lat="63.85571944866468" lon="10.374799993420691" id="-42237">
		<tag k="name" v="Plogbakkskardet" />
		<tag k="natural" v="valley" />
		<tag k="place" v="locality" />
		<tag k="ssr:stedsnr" v="91926" />
	</node>
	<node lat="64.00556666412433" lon="10.415902769252906" id="-42238">
		<tag k="name" v="Vargheia" />
		<tag k="natural" v="hill" />
		<tag k="place" v="locality" />
		<tag k="ssr:stedsnr" v="91866" />
	</node>
	<node lat="64.00816944672017" lon="10.349066663933707" id="-42239">
		<tag k="name" v="Grøthølen" />
		<tag k="natural" v="wetland" />
		<tag k="ssr:stedsnr" v="91869" />
	</node>
	<node lat="64.15948333773443" lon="10.320433339880209" id="-42240">
		<tag k="name" v="Rotjønnbekken" />
		<tag k="ssr:stedsnr" v="92107" />
		<tag k="waterway" v="stream" />
	</node>
	<node lat="64.14900277790068" lon="10.309149998734473" id="-42241">
		<tag k="name" v="Nysetermyran" />
		<tag k="natural" v="wetland" />
		<tag k="ssr:stedsnr" v="92113" />
	</node>
	<node lat="64.18824999916109" lon="10.405588879085084" id="-42242">
		<tag k="fixme" v="consider natural=peak for the most distinct mountains in the district" />
		<tag k="name" v="Silkehammaren" />
		<tag k="natural" v="hill" />
		<tag k="place" v="locality" />
		<tag k="ssr:stedsnr" v="92118" />
	</node>
	<node lat="64.1880138932757" lon="10.365030565762241" id="-42243">
		<tag k="fixme" v="consider natural=peak for the most distinct mountains in the district" />
		<tag k="name" v="Tømmerhylla" />
		<tag k="natural" v="hill" />
		<tag k="place" v="locality" />
		<tag k="ssr:stedsnr" v="92123" />
	</node>
	<node lat="64.05639166472008" lon="9.95250832871801" id="-42244">
		<tag k="name" v="Middagshaugen" />
		<tag k="natural" v="hill" />
		<tag k="place" v="locality" />
		<tag k="ssr:stedsnr" v="92167" />
	</node>
	<node lat="63.99182499979759" lon="10.002930558367884" id="-42245">
		<tag k="name" v="Grøttingssanden" />
		<tag k="natural" v="bay" />
		<tag k="ssr:stedsnr" v="92170" />
	</node>
	<node lat="64.17631420914837" lon="10.359142864023767" id="-42246">
		<tag k="fixme" v="consider place=hamlet" />
		<tag k="name" v="Halsvika" />
		<tag k="place" v="farm" />
		<tag k="ssr:stedsnr" v="92172" />
	</node>
	<node lat="64.19114999762895" lon="10.404777782620336" id="-42247">
		<tag k="name" v="Gjøssøra" />
		<tag k="natural" v="beach" />
		<tag k="ssr:stedsnr" v="92178" />
	</node>
	<node lat="64.20216110683373" lon="10.394313882963893" id="-42248">
		<tag k="name" v="Nausthaugen" />
		<tag k="natural" v="hill" />
		<tag k="place" v="locality" />
		<tag k="ssr:stedsnr" v="92180" />
	</node>
	<node lat="64.18033889148575" lon="10.386919435454342" id="-42249">
		<tag k="name" v="Vargmyrpynten" />
		<tag k="natural" v="hill" />
		<tag k="place" v="locality" />
		<tag k="ssr:stedsnr" v="92181" />
	</node>
	<node lat="64.24971944773927" lon="10.367483340280412" id="-42250">
		<tag k="name" v="Smådalan" />
		<tag k="natural" v="valley" />
		<tag k="place" v="locality" />
		<tag k="ssr:stedsnr" v="92186" />
	</node>
	<node lat="64.1600777815258" lon="10.170658333022802" id="-42251">
		<tag k="name" v="Kvalholet" />
		<tag k="natural" v="hill" />
		<tag k="place" v="locality" />
		<tag k="ssr:stedsnr" v="92072" />
	</node>
	<node lat="64.10906944541506" lon="10.27009721510451" id="-42252">
		<tag k="name" v="Sjursvikdalen" />
		<tag k="natural" v="valley" />
		<tag k="place" v="locality" />
		<tag k="ssr:stedsnr" v="92078" />
	</node>
	<node lat="64.1085111076864" lon="10.276600006674682" id="-42253">
		<tag k="name" v="Nordveghøgda" />
		<tag k="natural" v="hill" />
		<tag k="place" v="locality" />
		<tag k="ssr:stedsnr" v="92083" />
	</node>
	<node lat="64.23234999685401" lon="10.302647228031104" id="-42254">
		<tag k="name" v="Joholet" />
		<tag k="natural" v="valley" />
		<tag k="place" v="locality" />
		<tag k="ssr:stedsnr" v="92208" />
	</node>
	<node lat="64.27129166954884" lon="10.355413882073188" id="-42255">
		<tag k="name" v="Kleivan" />
		<tag k="natural" v="hill" />
		<tag k="place" v="locality" />
		<tag k="ssr:stedsnr" v="92215" />
	</node>
	<node lat="64.17288611015717" lon="10.523102776589436" id="-42256">
		<tag k="name" v="Soløystrandlia" />
		<tag k="natural" v="slope" />
		<tag k="place" v="locality" />
		<tag k="ssr:stedsnr" v="92266" />
	</node>
	<node lat="64.13978889065609" lon="10.65376944785371" id="-42257">
		<tag k="name" v="Grønlihalsen" />
		<tag k="natural" v="valley" />
		<tag k="place" v="locality" />
		<tag k="ssr:stedsnr" v="92279" />
	</node>
	<node lat="64.03276944355686" lon="9.92389721710262" id="-42258">
		<tag k="name" v="Grindavika" />
		<tag k="natural" v="bay" />
		<tag k="ssr:stedsnr" v="92816" />
	</node>
	<node lat="64.11715555706601" lon="10.127269435119619" id="-42259">
		<tag k="name" v="Otersteinan" />
		<tag k="natural" v="cape" />
		<tag k="ssr:stedsnr" v="92861" />
	</node>
	<node lat="64.13818333535485" lon="10.162127778523066" id="-42260">
		<tag k="name" v="Jardalen" />
		<tag k="natural" v="valley" />
		<tag k="place" v="locality" />
		<tag k="ssr:stedsnr" v="92864" />
	</node>
	<node lat="64.14088889138573" lon="10.129897230408757" id="-42261">
		<tag k="fixme" v="consider seamark:type=rock or natural=shoal" />
		<tag k="name" v="Nord Veimannskjæret" />
		<tag k="place" v="islet" />
		<tag k="ssr:stedsnr" v="92866" />
	</node>
	<node lat="64.14566944510325" lon="10.157827768496572" id="-42262">
		<tag k="name" v="Hongsandhaugen" />
		<tag k="natural" v="hill" />
		<tag k="place" v="locality" />
		<tag k="ssr:stedsnr" v="92867" />
	</node>
	<node lat="64.14896110698591" lon="10.188625005704852" id="-42263">
		<tag k="name" v="Siverskardet" />
		<tag k="natural" v="valley" />
		<tag k="place" v="locality" />
		<tag k="ssr:stedsnr" v="92881" />
	</node>
	<node lat="64.10588611457351" lon="10.225025005357429" id="-42264">
		<tag k="name" v="Sjånesodden" />
		<tag k="natural" v="cape" />
		<tag k="ssr:stedsnr" v="92913" />
	</node>
	<node lat="64.10368333536853" lon="10.21320278153805" id="-42265">
		<tag k="name" v="Strandaodden" />
		<tag k="natural" v="cape" />
		<tag k="ssr:stedsnr" v="92914" />
	</node>
	<node lat="64.04312222526534" lon="10.048136114036499" id="-42266">
		<tag k="name" v="Kjerkholmsundet" />
		<tag k="natural" v="strait" />
		<tag k="ssr:stedsnr" v="92927" />
	</node>
	<node lat="64.01465833608742" lon="10.066163895910151" id="-42267">
		<tag k="name" v="Staggalia" />
		<tag k="natural" v="slope" />
		<tag k="place" v="locality" />
		<tag k="ssr:stedsnr" v="92964" />
	</node>
	<node lat="64.01986944707893" lon="10.090194444824416" id="-42268">
		<tag k="name" v="Tjønnlia" />
		<tag k="natural" v="slope" />
		<tag k="place" v="locality" />
		<tag k="ssr:stedsnr" v="92967" />
	</node>
	<node lat="63.85866666620689" lon="10.393608324314371" id="-42269">
		<tag k="name" v="Sleppen" />
		<tag k="natural" v="water" />
		<tag k="ssr:stedsnr" v="104589" />
		<tag k="water" v="lake" />
	</node>
	<node lat="64.04404721913295" lon="9.837141669004831" id="-42270">
		<tag k="fixme" v="consider seamark:type=rock or natural=shoal" />
		<tag k="name" v="Storholmleiskjæret" />
		<tag k="place" v="islet" />
		<tag k="ssr:stedsnr" v="107915" />
	</node>
	<node lat="64.24536388637915" lon="10.324749993643103" id="-42271">
		<tag k="fixme" v="consider place=hamlet" />
		<tag k="name" v="Bessaker" />
		<tag k="place" v="village" />
		<tag k="ssr:stedsnr" v="134057" />
	</node>
	<node lat="64.08056944123868" lon="10.064288897618326" id="-42272">
		<tag k="name" v="Harbakshola" />
		<tag k="ssr:stedsnr" v="134207" />
		<tag k="tourism" v="attraction" />
	</node>
	<node lat="64.00116111479159" lon="10.182341672958014" id="-42273">
		<tag k="fixme" v="consider natural=peak for the most distinct mountains in the district" />
		<tag k="name" v="Grytfjellet" />
		<tag k="natural" v="hill" />
		<tag k="place" v="locality" />
		<tag k="ssr:stedsnr" v="134112" />
	</node>
	<node lat="64.06880278115486" lon="10.168338891757672" id="-42274">
		<tag k="fixme" v="consider natural=peak for the most distinct mountains in the district" />
		<tag k="name" v="Liakammen" />
		<tag k="natural" v="hill" />
		<tag k="place" v="locality" />
		<tag k="ssr:stedsnr" v="134155" />
	</node>
	<node lat="64.0591416626" lon="9.953583332358864" id="-42275">
		<tag k="fixme" v="consider place=hamlet" />
		<tag k="name" v="Svenningen" />
		<tag k="place" v="farm" />
		<tag k="ssr:stedsnr" v="134159" />
	</node>
	<node lat="63.97605278068065" lon="10.56816110857228" id="-42276">
		<tag k="name" v="Haravasstjønnan" />
		<tag k="natural" v="water" />
		<tag k="ssr:stedsnr" v="134165" />
	</node>
	<node lat="63.93278611118593" lon="10.351788881555079" id="-42277">
		<tag k="name" v="Bjørnaholmen" />
		<tag k="place" v="islet" />
		<tag k="ssr:stedsnr" v="134363" />
	</node>
	<node lat="63.92504166264707" lon="10.239600007344173" id="-42278">
		<tag k="fixme" v="consider natural=peak for the most distinct mountains in the district" />
		<tag k="name" v="Vardfjellet" />
		<tag k="natural" v="hill" />
		<tag k="place" v="locality" />
		<tag k="ssr:stedsnr" v="134368" />
	</node>
	<node lat="64.08321944256531" lon="10.307374993151376" id="-42279">
		<tag k="name" v="Agnettjønna" />
		<tag k="natural" v="water" />
		<tag k="ssr:stedsnr" v="134372" />
	</node>
	<node lat="63.965019444176804" lon="10.254763889135653" id="-42280">
		<tag k="name" v="Fossmoen" />
		<tag k="place" v="farm" />
		<tag k="ssr:stedsnr" v="134402" />
	</node>
	<node lat="63.956433330459575" lon="10.368466661117495" id="-42281">
		<tag k="historic" v="shieling" />
		<tag k="name" v="Uggdalsseteren" />
		<tag k="place" v="isolated_dwelling" />
		<tag k="ssr:stedsnr" v="134403" />
	</node>
	<node lat="63.95680555215144" lon="10.356744450404534" id="-42282">
		<tag k="name" v="Rundhaugen" />
		<tag k="natural" v="hill" />
		<tag k="place" v="locality" />
		<tag k="ssr:stedsnr" v="134405" />
	</node>
	<node lat="63.942902777697824" lon="10.301913893694476" id="-42283">
		<tag k="fixme" v="multiple name tags, choose one and add the other to alt_name" />
		<tag k="name" v="Andreasdaltjønna;Ner Rogndalstjønna" />
		<tag k="natural" v="water" />
		<tag k="ssr:stedsnr" v="134411" />
	</node>
	<node lat="63.94570000320401" lon="10.404169441371831" id="-42284">
		<tag k="name" v="Okstjønnan" />
		<tag k="natural" v="water" />
		<tag k="ssr:stedsnr" v="134419" />
	</node>
	<node lat="64.14941666842041" lon="10.383819438862123" id="-42285">
		<tag k="name" v="Gaupdalen" />
		<tag k="natural" v="valley" />
		<tag k="place" v="locality" />
		<tag k="ssr:stedsnr" v="134456" />
	</node>
	<node lat="63.969619445186815" lon="10.068119435005972" id="-42286">
		<tag k="name" v="Morkamoen" />
		<tag k="place" v="farm" />
		<tag k="ssr:stedsnr" v="134705" />
	</node>
	<node lat="63.96919166687356" lon="10.01265278712636" id="-42287">
		<tag k="name" v="Tørhoggvågen" />
		<tag k="natural" v="bay" />
		<tag k="ssr:stedsnr" v="134706" />
	</node>
	<node lat="64.02550555183142" lon="10.591897221348884" id="-42288">
		<tag k="name" v="Leirdalan" />
		<tag k="natural" v="valley" />
		<tag k="place" v="locality" />
		<tag k="ssr:stedsnr" v="134707" />
	</node>
	<node lat="63.988055559374274" lon="10.08376387901181" id="-42289">
		<tag k="name" v="Femholmvatnet" />
		<tag k="natural" v="water" />
		<tag k="ssr:stedsnr" v="134752" />
	</node>
	<node lat="63.915038886272214" lon="10.140347220117091" id="-42290">
		<tag k="alt_name" v="Krokaelva" />
		<tag k="name" v="Krokelva" />
		<tag k="ssr:stedsnr" v="134653" />
		<tag k="waterway" v="stream" />
	</node>
	<node lat="63.91463333619164" lon="10.146202772672154" id="-42291">
		<tag k="name" v="Grovlielva" />
		<tag k="ssr:stedsnr" v="134654" />
		<tag k="waterway" v="stream" />
	</node>
	<node lat="64.21105833329499" lon="10.302030562972059" id="-42292">
		<tag k="name" v="Spælodden" />
		<tag k="natural" v="cape" />
		<tag k="ssr:stedsnr" v="135008" />
	</node>
	<node lat="64.21598888821022" lon="10.514769435253218" id="-42293">
		<tag k="name" v="Vardeheia" />
		<tag k="natural" v="hill" />
		<tag k="place" v="locality" />
		<tag k="ssr:stedsnr" v="135010" />
	</node>
	<node lat="64.20554166609475" lon="10.479838888299103" id="-42294">
		<tag k="alt_name" v="Setervasshøgda" />
		<tag k="fixme" v="consider natural=peak for the most distinct mountains in the district" />
		<tag k="name" v="Fremre Setervasshøgda" />
		<tag k="natural" v="hill" />
		<tag k="place" v="locality" />
		<tag k="ssr:stedsnr" v="135015" />
	</node>
	<node lat="64.21055277967812" lon="10.397130556495037" id="-42295">
		<tag k="name" v="Botnan" />
		<tag k="natural" v="valley" />
		<tag k="place" v="locality" />
		<tag k="ssr:stedsnr" v="135021" />
	</node>
	<node lat="64.11281111359494" lon="10.548675007504269" id="-42296">
		<tag k="name" v="Stein" />
		<tag k="place" v="farm" />
		<tag k="ssr:stedsnr" v="135321" />
	</node>
	<node lat="64.12524721842858" lon="10.29053610207395" id="-42297">
		<tag k="name" v="Sømarka" />
		<tag k="place" v="farm" />
		<tag k="ssr:stedsnr" v="135338" />
	</node>
	<node lat="64.15615833359503" lon="10.029966673004884" id="-42298">
		<tag k="fixme" v="consider seamark:type=rock or natural=shoal" />
		<tag k="name" v="Rotskjæret" />
		<tag k="place" v="islet" />
		<tag k="ssr:stedsnr" v="135219" />
	</node>
	<node lat="64.16147656115619" lon="10.187995413395393" id="-42299">
		<tag k="fixme" v="multiple name tags, choose one and add the other to alt_name" />
		<tag k="name" v="Reina;Brandsøya" />
		<tag k="place" v="farm" />
		<tag k="ssr:stedsnr" v="135223" />
	</node>
	<node lat="64.03584444165068" lon="10.438466671609767" id="-42300">
		<tag k="name" v="Bukkastakkhaugen" />
		<tag k="natural" v="hill" />
		<tag k="place" v="locality" />
		<tag k="ssr:stedsnr" v="135252" />
	</node>
	<node lat="64.04550832943093" lon="10.282836110285928" id="-42301">
		<tag k="name" v="Okslitjønna" />
		<tag k="natural" v="water" />
		<tag k="ssr:stedsnr" v="135257" />
	</node>
	<node lat="64.04875833053143" lon="10.243369441789591" id="-42302">
		<tag k="name" v="Røyrkromtjønna" />
		<tag k="natural" v="water" />
		<tag k="ssr:stedsnr" v="135259" />
	</node>
	<node lat="64.0517555582601" lon="10.554750007732036" id="-42303">
		<tag k="alt_name" v="Vester Haukvassheia;Haukvassheia, vestre" />
		<tag k="fixme" v="consider natural=peak for the most distinct mountains in the district" />
		<tag k="name" v="Vestre Haukvassheia" />
		<tag k="natural" v="hill" />
		<tag k="place" v="locality" />
		<tag k="ssr:stedsnr" v="135263" />
	</node>
	<node lat="64.04629166553684" lon="10.52845555031421" id="-42304">
		<tag k="name" v="Storfisktjønna" />
		<tag k="natural" v="water" />
		<tag k="ssr:stedsnr" v="135268" />
	</node>
	<node lat="64.06016111043044" lon="10.223566661951802" id="-42305">
		<tag k="name" v="Langvatnet" />
		<tag k="natural" v="water" />
		<tag k="ssr:stedsnr" v="135271" />
	</node>
	<node lat="64.17699999683619" lon="10.292527771716042" id="-42306">
		<tag k="name" v="Kvernvatna" />
		<tag k="natural" v="water" />
		<tag k="ssr:stedsnr" v="135451" />
	</node>
	<node lat="64.1818750026942" lon="10.379424993970886" id="-42307">
		<tag k="name" v="Olvika" />
		<tag k="place" v="isolated_dwelling" />
		<tag k="ssr:stedsnr" v="135454" />
	</node>
	<node lat="64.18154166736309" lon="10.455358334608388" id="-42308">
		<tag k="fixme" v="consider natural=peak for the most distinct mountains in the district" />
		<tag k="name" v="Blåfetfjellet" />
		<tag k="natural" v="hill" />
		<tag k="place" v="locality" />
		<tag k="ssr:stedsnr" v="135457" />
	</node>
	<node lat="64.18329721918586" lon="10.550902771499755" id="-42309">
		<tag k="historic" v="shieling" />
		<tag k="name" v="Fagerdalsseteren" />
		<tag k="place" v="isolated_dwelling" />
		<tag k="ssr:stedsnr" v="135459" />
	</node>
	<node lat="64.18285833333418" lon="10.273061113635649" id="-42310">
		<tag k="fixme" v="consider place=hamlet" />
		<tag k="name" v="Fjorden" />
		<tag k="place" v="farm" />
		<tag k="ssr:stedsnr" v="135462" />
	</node>
	<node lat="64.18119999825771" lon="10.352141670644752" id="-42311">
		<tag k="name" v="Dalen" />
		<tag k="place" v="farm" />
		<tag k="ssr:stedsnr" v="135463" />
	</node>
	<node lat="64.18539444599548" lon="10.325011103129743" id="-42312">
		<tag k="name" v="Hagaskardet" />
		<tag k="natural" v="valley" />
		<tag k="place" v="locality" />
		<tag k="ssr:stedsnr" v="135466" />
	</node>
	<node lat="64.11730833729969" lon="10.266822218016614" id="-42313">
		<tag k="fixme" v="consider natural=peak for the most distinct mountains in the district" />
		<tag k="name" v="Smefjellet" />
		<tag k="natural" v="hill" />
		<tag k="place" v="locality" />
		<tag k="ssr:stedsnr" v="142865" />
	</node>
	<node lat="63.85452500101848" lon="10.233827771174077" id="-42314">
		<tag k="name" v="Stormyrkråa" />
		<tag k="ssr:stedsnr" v="255284" />
		<tag k="waterway" v="stream" />
	</node>
	<node lat="63.903874999584005" lon="10.591480560064133" id="-42315">
		<tag k="name" v="Fosstjønna" />
		<tag k="natural" v="water" />
		<tag k="ssr:stedsnr" v="255294" />
	</node>
	<node lat="63.8674694476245" lon="10.492522212431009" id="-42316">
		<tag k="name" v="Grunnlåtelva" />
		<tag k="ssr:stedsnr" v="255256" />
		<tag k="waterway" v="river" />
	</node>
	<node lat="63.86492221959184" lon="10.309986115360598" id="-42317">
		<tag k="name" v="Tverrlitjønnan" />
		<tag k="natural" v="water" />
		<tag k="ssr:stedsnr" v="255262" />
	</node>
	<node lat="63.91564444098015" lon="10.419422221506746" id="-42318">
		<tag k="alt_name" v="Oldernes" />
		<tag k="name" v="Olderneset" />
		<tag k="place" v="farm" />
		<tag k="ssr:stedsnr" v="255333" />
	</node>
	<node lat="63.91976175796263" lon="10.447326524768059" id="-42319">
		<tag k="fixme" v="consider place=hamlet" />
		<tag k="name" v="Flenstad" />
		<tag k="place" v="farm" />
		<tag k="ssr:stedsnr" v="255337" />
	</node>
	<node lat="63.921341666739565" lon="10.42315833196674" id="-42320">
		<tag k="name" v="Vinnahaugen" />
		<tag k="natural" v="hill" />
		<tag k="place" v="locality" />
		<tag k="ssr:stedsnr" v="255339" />
	</node>
	<node lat="63.955568913686655" lon="10.376667155852799" id="-42321">
		<tag k="name" v="Svanatjønna" />
		<tag k="natural" v="water" />
		<tag k="ssr:stedsnr" v="255343" />
	</node>
	<node lat="64.02558888778248" lon="10.050733325825313" id="-42322">
		<tag k="fixme" v="consider place=hamlet" />
		<tag k="name" v="Åknes" />
		<tag k="place" v="farm" />
		<tag k="ssr:stedsnr" v="256121" />
	</node>
	<node lat="64.03782222035913" lon="10.084977771252866" id="-42323">
		<tag k="name" v="Litlvatnet" />
		<tag k="natural" v="water" />
		<tag k="ssr:stedsnr" v="256091" />
	</node>
	<node lat="64.04029500608404" lon="9.98498835198723" id="-42324">
		<tag k="fixme" v="consider place=hamlet" />
		<tag k="name" v="Guttelvika" />
		<tag k="place" v="farm" />
		<tag k="ssr:stedsnr" v="256097" />
	</node>
	<node lat="64.02930833174337" lon="10.123436104919108" id="-42325">
		<tag k="name" v="Gråkamvatnet" />
		<tag k="natural" v="water" />
		<tag k="ssr:stedsnr" v="256101" />
	</node>
	<node lat="64.02502499696504" lon="10.03450278543454" id="-42326">
		<tag k="name" v="Lauvstranda" />
		<tag k="natural" v="beach" />
		<tag k="ssr:stedsnr" v="256109" />
	</node>
	<node lat="64.19777499713801" lon="10.146958339786229" id="-42327">
		<tag k="name" v="Kjeøytaren" />
		<tag k="natural" v="shoal" />
		<tag k="place" v="locality" />
		<tag k="ssr:stedsnr" v="148225" />
	</node>
	<node lat="64.05701389180533" lon="10.041552783411829" id="-42328">
		<tag k="name" v="Skjærvika" />
		<tag k="place" v="farm" />
		<tag k="ssr:stedsnr" v="256124" />
	</node>
	<node lat="64.07228888840835" lon="10.192263882754123" id="-42329">
		<tag k="fixme" v="consider natural=peak for the most distinct mountains in the district" />
		<tag k="name" v="Isaksla" />
		<tag k="natural" v="hill" />
		<tag k="place" v="locality" />
		<tag k="ssr:stedsnr" v="256126" />
	</node>
	<node lat="64.06040555630842" lon="9.926188891939809" id="-42330">
		<tag k="fixme" v="consider seamark:type=rock or natural=shoal" />
		<tag k="name" v="Naustskjæret" />
		<tag k="place" v="islet" />
		<tag k="ssr:stedsnr" v="256127" />
	</node>
	<node lat="64.05913055851128" lon="9.941597212481403" id="-42331">
		<tag k="name" v="Troningen" />
		<tag k="place" v="farm" />
		<tag k="ssr:stedsnr" v="256129" />
	</node>
	<node lat="64.06923055969685" lon="10.149702780020082" id="-42332">
		<tag k="name" v="Liaelva" />
		<tag k="ssr:stedsnr" v="256132" />
		<tag k="waterway" v="stream" />
	</node>
	<node lat="63.96806110928739" lon="10.229922231196577" id="-42333">
		<tag k="name" v="Elvebakk" />
		<tag k="place" v="farm" />
		<tag k="ssr:stedsnr" v="256137" />
	</node>
	<node lat="63.98355278110482" lon="10.469216665078687" id="-42334">
		<tag k="name" v="Seljemo" />
		<tag k="place" v="farm" />
		<tag k="ssr:stedsnr" v="256139" />
	</node>
	<node lat="64.04782915887827" lon="10.014243194876165" id="-42335">
		<tag k="fixme" v="consider place=hamlet" />
		<tag k="name" v="Harsvika" />
		<tag k="place" v="village" />
		<tag k="ssr:stedsnr" v="256140" />
	</node>
	<node lat="64.04788889185181" lon="9.84468889904048" id="-42336">
		<tag k="fixme" v="consider seamark:type=rock or natural=shoal" />
		<tag k="name" v="Litltaren" />
		<tag k="place" v="islet" />
		<tag k="ssr:stedsnr" v="256147" />
	</node>
	<node lat="63.97661666313685" lon="10.31347223078695" id="-42337">
		<tag k="name" v="Bølsvika" />
		<tag k="natural" v="bay" />
		<tag k="ssr:stedsnr" v="256151" />
	</node>
	<node lat="64.05093611515458" lon="10.101177785803554" id="-42338">
		<tag k="name" v="Salbuvikvatnet" />
		<tag k="natural" v="water" />
		<tag k="ssr:stedsnr" v="256152" />
	</node>
	<node lat="64.05348610772359" lon="9.943863891122414" id="-42339">
		<tag k="name" v="Hosnavika" />
		<tag k="natural" v="bay" />
		<tag k="ssr:stedsnr" v="256153" />
	</node>
	<node lat="63.98795000435467" lon="10.645727778144678" id="-42340">
		<tag k="name" v="Sarabranntjønna" />
		<tag k="natural" v="water" />
		<tag k="ssr:stedsnr" v="256154" />
	</node>
	<node lat="63.97508055268548" lon="10.223180556204495" id="-42341">
		<tag k="name" v="Brattskardet" />
		<tag k="natural" v="valley" />
		<tag k="place" v="locality" />
		<tag k="ssr:stedsnr" v="256156" />
	</node>
	<node lat="63.9948055554148" lon="10.708102786990008" id="-42342">
		<tag k="name" v="Krokvatnet" />
		<tag k="natural" v="water" />
		<tag k="ssr:stedsnr" v="256157" />
	</node>
	<node lat="64.19081110675846" lon="10.191591673564423" id="-42343">
		<tag k="name" v="Naustholmen" />
		<tag k="place" v="islet" />
		<tag k="ssr:stedsnr" v="256224" />
	</node>
	<node lat="63.99403611508134" lon="10.425116675027597" id="-42344">
		<tag k="fixme" v="consider natural=peak for the most distinct mountains in the district" />
		<tag k="name" v="Hårstadfjellet" />
		<tag k="natural" v="hill" />
		<tag k="place" v="locality" />
		<tag k="ssr:stedsnr" v="256182" />
	</node>
	<node lat="64.14509722179999" lon="10.2073888905738" id="-42345">
		<tag k="fixme" v="consider natural=peak for the most distinct mountains in the district" />
		<tag k="name" v="Himmerikfjellet" />
		<tag k="natural" v="hill" />
		<tag k="place" v="locality" />
		<tag k="ssr:stedsnr" v="256194" />
	</node>
	<node lat="64.14041666290727" lon="9.914366671166" id="-42346">
		<tag k="fixme" v="consider seamark:type=rock or natural=shoal" />
		<tag k="name" v="Seiskjæra" />
		<tag k="place" v="islet" />
		<tag k="ssr:stedsnr" v="256197" />
	</node>
	<node lat="64.14450847433427" lon="10.064196320717073" id="-42347">
		<tag k="name" v="Måøya" />
		<tag k="place" v="island" />
		<tag k="ssr:stedsnr" v="256199" />
	</node>
	<node lat="64.04717222515681" lon="10.397980562753489" id="-42348">
		<tag k="name" v="Lona" />
		<tag k="place" v="locality" />
		<tag k="ssr:stedsnr" v="256272" />
	</node>
	<node lat="64.06626944185939" lon="10.581594443339691" id="-42349">
		<tag k="name" v="Ørnbergtjønna" />
		<tag k="natural" v="water" />
		<tag k="ssr:stedsnr" v="256276" />
	</node>
	<node lat="64.1896666678561" lon="10.059413887191225" id="-42350">
		<tag k="fixme" v="consider seamark:type=rock or natural=shoal" />
		<tag k="name" v="Annsteinskjæra" />
		<tag k="place" v="islet" />
		<tag k="ssr:stedsnr" v="256237" />
	</node>
	<node lat="64.15254166811015" lon="9.971219441637423" id="-42351">
		<tag k="fixme" v="consider seamark:type=rock or natural=shoal" />
		<tag k="name" v="Pålskjæret" />
		<tag k="place" v="islet" />
		<tag k="ssr:stedsnr" v="256241" />
	</node>
	<node lat="64.15210555338024" lon="10.153191665702824" id="-42352">
		<tag k="alt_name" v="Kråkøya" />
		<tag k="name" v="Sørkråkøya" />
		<tag k="place" v="island" />
		<tag k="ssr:stedsnr" v="256244" />
	</node>
	<node lat="64.17115555678907" lon="9.980636100906903" id="-42353">
		<tag k="name" v="Skattabogfallet" />
		<tag k="natural" v="shoal" />
		<tag k="place" v="locality" />
		<tag k="ssr:stedsnr" v="256248" />
	</node>
	<node lat="64.07900000090915" lon="10.699744453187412" id="-42354">
		<tag k="fixme" v="consider natural=peak for the most distinct mountains in the district" />
		<tag k="name" v="Lonheia" />
		<tag k="natural" v="hill" />
		<tag k="place" v="locality" />
		<tag k="ssr:stedsnr" v="256286" />
	</node>
	<node lat="64.0844305511769" lon="10.281772221485662" id="-42355">
		<tag k="alt_name" v="Kjerringheivatnet, øvre" />
		<tag k="name" v="Øvre Kjerringheivatnet" />
		<tag k="natural" v="water" />
		<tag k="ssr:stedsnr" v="256288" />
	</node>
	<node lat="64.07254444485693" lon="10.622361117804815" id="-42356">
		<tag k="name" v="Vestre Skurvelva" />
		<tag k="ssr:stedsnr" v="256297" />
		<tag k="waterway" v="river" />
	</node>
	<node lat="64.09220833649394" lon="10.221836107359705" id="-42357">
		<tag k="name" v="Øykvikskardet" />
		<tag k="natural" v="valley" />
		<tag k="place" v="locality" />
		<tag k="ssr:stedsnr" v="256299" />
	</node>
	<node lat="63.78572500045542" lon="10.44211389235423" id="-42358">
		<tag k="name" v="Austre Skurvtjønna" />
		<tag k="natural" v="water" />
		<tag k="ssr:stedsnr" v="256375" />
	</node>
	<node lat="64.15215555817511" lon="10.28849721915561" id="-42359">
		<tag k="alt_name" v="Jenselivatnet, østre" />
		<tag k="name" v="Østre Jenselivatnet" />
		<tag k="natural" v="water" />
		<tag k="ssr:stedsnr" v="256376" />
		<tag k="water" v="lake" />
	</node>
	<node lat="64.14878055885154" lon="10.266200001370791" id="-42360">
		<tag k="fixme" v="consider natural=peak for the most distinct mountains in the district" />
		<tag k="name" v="Høgbakkheia" />
		<tag k="natural" v="hill" />
		<tag k="place" v="locality" />
		<tag k="ssr:stedsnr" v="256380" />
	</node>
	<node lat="64.14739444185473" lon="10.242577786956119" id="-42361">
		<tag k="fixme" v="consider natural=peak for the most distinct mountains in the district" />
		<tag k="name" v="Nypa" />
		<tag k="natural" v="hill" />
		<tag k="place" v="locality" />
		<tag k="ssr:stedsnr" v="256383" />
	</node>
	<node lat="64.18618332948947" lon="10.3175166693361" id="-42362">
		<tag k="fixme" v="consider natural=peak for the most distinct mountains in the district" />
		<tag k="name" v="Ruvllia" />
		<tag k="natural" v="hill" />
		<tag k="place" v="locality" />
		<tag k="ssr:stedsnr" v="256439" />
	</node>
	<node lat="64.18199999910905" lon="10.364427769871453" id="-42363">
		<tag k="name" v="Minusodden" />
		<tag k="natural" v="cape" />
		<tag k="ssr:stedsnr" v="256441" />
	</node>
	<node lat="64.19920833620581" lon="10.502727776042784" id="-42364">
		<tag k="name" v="Killingbekken" />
		<tag k="ssr:stedsnr" v="256452" />
		<tag k="waterway" v="stream" />
	</node>
	<node lat="64.20280833434825" lon="10.535469439573289" id="-42365">
		<tag k="name" v="Langvatnet" />
		<tag k="natural" v="water" />
		<tag k="ssr:stedsnr" v="256455" />
		<tag k="water" v="lake" />
	</node>
	<node lat="63.96270833542579" lon="10.613813886965549" id="-42366">
		<tag k="name" v="Bomma" />
		<tag k="natural" v="water" />
		<tag k="ssr:stedsnr" v="256327" />
	</node>
	<node lat="64.11168333483289" lon="10.592038892379831" id="-42367">
		<tag k="fixme" v="consider natural=peak for the most distinct mountains in the district" />
		<tag k="name" v="Seterfjellet" />
		<tag k="natural" v="hill" />
		<tag k="place" v="locality" />
		<tag k="ssr:stedsnr" v="256340" />
	</node>
	<node lat="64.11094166453934" lon="10.268091675497272" id="-42368">
		<tag k="name" v="Storskardtjønna" />
		<tag k="natural" v="water" />
		<tag k="ssr:stedsnr" v="256341" />
	</node>
	<node lat="64.11501666347792" lon="10.334202772145622" id="-42369">
		<tag k="fixme" v="consider natural=peak for the most distinct mountains in the district" />
		<tag k="name" v="Svartholheia" />
		<tag k="natural" v="hill" />
		<tag k="place" v="locality" />
		<tag k="ssr:stedsnr" v="256343" />
	</node>
	<node lat="64.13354444340803" lon="10.49905555201775" id="-42370">
		<tag k="fixme" v="consider natural=peak for the most distinct mountains in the district" />
		<tag k="name" v="Grovalikollen" />
		<tag k="natural" v="hill" />
		<tag k="place" v="locality" />
		<tag k="ssr:stedsnr" v="256350" />
	</node>
	<node lat="64.01720000386669" lon="9.962261119840994" id="-42372">
		<tag k="fixme" v="consider seamark:type=rock or natural=shoal" />
		<tag k="name" v="Nesaskjæret" />
		<tag k="place" v="islet" />
		<tag k="ssr:stedsnr" v="151317" />
	</node>
	<node lat="63.98431388511343" lon="9.95042221599257" id="-42373">
		<tag k="name" v="Djuptaren" />
		<tag k="natural" v="shoal" />
		<tag k="place" v="locality" />
		<tag k="ssr:stedsnr" v="151322" />
	</node>
	<node lat="63.9420111151092" lon="9.864861113211393" id="-42374">
		<tag k="name" v="Krabbholmen" />
		<tag k="place" v="islet" />
		<tag k="ssr:stedsnr" v="256509" />
	</node>
	<node lat="63.942099997886444" lon="9.84235833139291" id="-42375">
		<tag k="fixme" v="consider seamark:type=rock or natural=shoal" />
		<tag k="name" v="Skarvkletten" />
		<tag k="place" v="islet" />
		<tag k="ssr:stedsnr" v="256511" />
	</node>
	<node lat="63.945058335062825" lon="9.937766670818394" id="-42376">
		<tag k="alt_name" v="Bingsholmen, store" />
		<tag k="name" v="Store Bingsholmen" />
		<tag k="place" v="islet" />
		<tag k="ssr:stedsnr" v="256514" />
	</node>
	<node lat="63.93400833110911" lon="10.028169442743817" id="-42377">
		<tag k="name" v="Fagerheim" />
		<tag k="place" v="isolated_dwelling" />
		<tag k="ssr:stedsnr" v="256495" />
	</node>
	<node lat="63.93239166675323" lon="9.956150002598351" id="-42378">
		<tag k="name" v="Bergaholmen" />
		<tag k="place" v="islet" />
		<tag k="ssr:stedsnr" v="256497" />
	</node>
	<node lat="63.94064722454619" lon="9.928763890501196" id="-42379">
		<tag k="name" v="Bingsholmsråsa" />
		<tag k="natural" v="strait" />
		<tag k="ssr:stedsnr" v="256500" />
	</node>
	<node lat="63.906972219950084" lon="9.949924998437885" id="-42380">
		<tag k="name" v="Langhaugan" />
		<tag k="natural" v="cape" />
		<tag k="ssr:stedsnr" v="256579" />
	</node>
	<node lat="63.911197219095264" lon="9.994336117206245" id="-42381">
		<tag k="name" v="Øyan" />
		<tag k="natural" v="cape" />
		<tag k="ssr:stedsnr" v="256582" />
	</node>
	<node lat="63.90689444721934" lon="10.038099997738035" id="-42382">
		<tag k="alt_name" v="Kammaskardet" />
		<tag k="name" v="Skaret" />
		<tag k="natural" v="valley" />
		<tag k="place" v="locality" />
		<tag k="ssr:stedsnr" v="256584" />
	</node>
	<node lat="64.07826944075916" lon="10.185652782136874" id="-42383">
		<tag k="fixme" v="consider natural=peak for the most distinct mountains in the district" />
		<tag k="name" v="Krokanfjellet" />
		<tag k="natural" v="hill" />
		<tag k="place" v="locality" />
		<tag k="ssr:stedsnr" v="151504" />
	</node>
	<node lat="64.14706389014468" lon="10.165275008732197" id="-42384">
		<tag k="fixme" v="consider seamark:type=rock or natural=shoal" />
		<tag k="name" v="Hongsandskjæret" />
		<tag k="place" v="islet" />
		<tag k="ssr:stedsnr" v="151672" />
	</node>
	<node lat="63.99739167063569" lon="10.208588897633069" id="-42385">
		<tag k="name" v="Halsaunneset" />
		<tag k="natural" v="cape" />
		<tag k="ssr:stedsnr" v="152102" />
	</node>
	<node lat="63.95396666674983" lon="9.97631667099785" id="-42386">
		<tag k="name" v="Hamkilhaugen" />
		<tag k="natural" v="hill" />
		<tag k="place" v="locality" />
		<tag k="ssr:stedsnr" v="152104" />
	</node>
	<node lat="64.1070472211341" lon="10.258802781758273" id="-42387">
		<tag k="name" v="Sjursvika" />
		<tag k="natural" v="bay" />
		<tag k="ssr:stedsnr" v="152110" />
	</node>
	<node lat="64.0069111073443" lon="10.300780546140182" id="-42388">
		<tag k="name" v="Buenget" />
		<tag k="natural" v="slope" />
		<tag k="place" v="locality" />
		<tag k="ssr:stedsnr" v="152114" />
	</node>
	<node lat="63.98990833588578" lon="10.265330547422806" id="-42389">
		<tag k="name" v="Buktadalen" />
		<tag k="natural" v="valley" />
		<tag k="place" v="locality" />
		<tag k="ssr:stedsnr" v="152119" />
	</node>
	<node lat="63.96760833453807" lon="10.111522215554984" id="-42390">
		<tag k="name" v="Engdalen" />
		<tag k="natural" v="valley" />
		<tag k="place" v="locality" />
		<tag k="ssr:stedsnr" v="152120" />
	</node>
	<node lat="64.17773888575474" lon="10.273227771887921" id="-42391">
		<tag k="name" v="Fjordabekken" />
		<tag k="ssr:stedsnr" v="152121" />
		<tag k="waterway" v="stream" />
	</node>
	<node lat="64.18425277787574" lon="10.29956111154985" id="-42392">
		<tag k="name" v="Sørholet" />
		<tag k="natural" v="valley" />
		<tag k="place" v="locality" />
		<tag k="ssr:stedsnr" v="152123" />
	</node>
	<node lat="64.02807777394236" lon="10.300747221745233" id="-42393">
		<tag k="name" v="Fjellsauna" />
		<tag k="natural" v="hill" />
		<tag k="place" v="locality" />
		<tag k="ssr:stedsnr" v="152124" />
	</node>
	<node lat="64.03445555644036" lon="10.281319434509951" id="-42394">
		<tag k="bridge" v="yes" />
		<tag k="layer" v="1" />
		<tag k="name" v="Øver Jordbrua" />
		<tag k="ssr:stedsnr" v="152128" />
	</node>
	<node lat="63.96797221790762" lon="10.134683327708848" id="-42395">
		<tag k="name" v="Ivervika" />
		<tag k="natural" v="bay" />
		<tag k="ssr:stedsnr" v="152129" />
	</node>
	<node lat="63.89317777644859" lon="10.061097226861566" id="-42396">
		<tag k="name" v="Merraholet" />
		<tag k="natural" v="hill" />
		<tag k="place" v="locality" />
		<tag k="ssr:stedsnr" v="152132" />
	</node>
	<node lat="64.18176111353962" lon="10.236066674330745" id="-42397">
		<tag k="name" v="Øygårdan" />
		<tag k="place" v="farm" />
		<tag k="ssr:stedsnr" v="152003" />
	</node>
	<node lat="64.18931666428409" lon="10.237544452163869" id="-42398">
		<tag k="fixme" v="consider natural=peak for the most distinct mountains in the district" />
		<tag k="name" v="Grønnlifjellet" />
		<tag k="natural" v="hill" />
		<tag k="place" v="locality" />
		<tag k="ssr:stedsnr" v="152007" />
	</node>
	<node lat="63.983788885573055" lon="10.296150006404245" id="-42399">
		<tag k="name" v="Merradalen" />
		<tag k="natural" v="valley" />
		<tag k="place" v="locality" />
		<tag k="ssr:stedsnr" v="152010" />
	</node>
	<node lat="63.91824166406403" lon="9.970438887983303" id="-42400">
		<tag k="alt_name" v="Barøy nordre" />
		<tag k="name" v="Nordre Barøy nordre" />
		<tag k="place" v="farm" />
		<tag k="ssr:stedsnr" v="152017" />
	</node>
	<node lat="63.97658610941449" lon="9.992519443721816" id="-42401">
		<tag k="name" v="Torsnes" />
		<tag k="place" v="farm" />
		<tag k="ssr:stedsnr" v="152057" />
	</node>
	<node lat="63.977705554015174" lon="9.981750004688733" id="-42402">
		<tag k="fixme" v="consider seamark:type=rock or natural=shoal" />
		<tag k="name" v="Kvalen" />
		<tag k="place" v="islet" />
		<tag k="ssr:stedsnr" v="152058" />
	</node>
	<node lat="63.93625000370065" lon="10.268569446241745" id="-42403">
		<tag k="name" v="Sørlia" />
		<tag k="natural" v="slope" />
		<tag k="place" v="locality" />
		<tag k="ssr:stedsnr" v="152059" />
	</node>
	<node lat="63.96740832988806" lon="9.980041665371663" id="-42404">
		<tag k="name" v="Bakkahaugen" />
		<tag k="natural" v="hill" />
		<tag k="place" v="locality" />
		<tag k="ssr:stedsnr" v="152063" />
	</node>
	<node lat="64.22301389271485" lon="10.25103889110227" id="-42405">
		<tag k="name" v="Keila" />
		<tag k="natural" v="bay" />
		<tag k="ssr:stedsnr" v="152069" />
	</node>
	<node lat="63.977847221672846" lon="10.007905561100483" id="-42406">
		<tag k="name" v="Mellomskogen" />
		<tag k="place" v="farm" />
		<tag k="ssr:stedsnr" v="152071" />
	</node>
	<node lat="63.969099996545644" lon="9.995408334353911" id="-42407">
		<tag k="name" v="Trøa" />
		<tag k="place" v="isolated_dwelling" />
		<tag k="ssr:stedsnr" v="152076" />
	</node>
	<node lat="64.05287778182684" lon="10.134066664045296" id="-42408">
		<tag k="name" v="Storbukthaugen" />
		<tag k="natural" v="hill" />
		<tag k="place" v="locality" />
		<tag k="ssr:stedsnr" v="152204" />
	</node>
	<node lat="64.24918888459982" lon="10.34610000547476" id="-42409">
		<tag k="fixme" v="consider natural=peak for the most distinct mountains in the district" />
		<tag k="name" v="Hundskardfjellet" />
		<tag k="natural" v="hill" />
		<tag k="place" v="locality" />
		<tag k="ssr:stedsnr" v="152256" />
	</node>
	<node lat="63.93695833200843" lon="9.955744446561733" id="-42410">
		<tag k="fixme" v="consider seamark:type=rock or natural=shoal" />
		<tag k="name" v="Trollskjæret" />
		<tag k="place" v="islet" />
		<tag k="ssr:stedsnr" v="152262" />
	</node>
	<node lat="64.00465277823695" lon="10.778894443449289" id="-42411">
		<tag k="name" v="Selavatnet" />
		<tag k="natural" v="water" />
		<tag k="ssr:stedsnr" v="152466" />
		<tag k="water" v="lake" />
	</node>
	<node lat="64.06736389050624" lon="10.633272225011819" id="-42412">
		<tag k="name" v="Habroheilia" />
		<tag k="natural" v="slope" />
		<tag k="place" v="locality" />
		<tag k="ssr:stedsnr" v="152467" />
	</node>
	<node lat="63.959408329093144" lon="10.10736110685354" id="-42413">
		<tag k="name" v="Storvika" />
		<tag k="place" v="farm" />
		<tag k="ssr:stedsnr" v="256667" />
	</node>
	<node lat="64.08178055812455" lon="10.135038880810315" id="-42414">
		<tag k="name" v="Lukasvika" />
		<tag k="place" v="locality" />
		<tag k="ssr:stedsnr" v="152154" />
	</node>
	<node lat="64.07481666371247" lon="10.160927775216226" id="-42415">
		<tag k="name" v="Liin" />
		<tag k="natural" v="slope" />
		<tag k="place" v="locality" />
		<tag k="ssr:stedsnr" v="152157" />
	</node>
	<node lat="64.12479166262389" lon="10.654677781553717" id="-42416">
		<tag k="name" v="Olaneset" />
		<tag k="natural" v="cape" />
		<tag k="ssr:stedsnr" v="152302" />
	</node>
	<node lat="64.17249166487558" lon="10.328019445928996" id="-42417">
		<tag k="name" v="Kvernalia" />
		<tag k="natural" v="slope" />
		<tag k="place" v="locality" />
		<tag k="ssr:stedsnr" v="152308" />
	</node>
	<node lat="64.1105833307586" lon="10.382705555186648" id="-42418">
		<tag k="name" v="Krokvasslia" />
		<tag k="natural" v="slope" />
		<tag k="place" v="locality" />
		<tag k="ssr:stedsnr" v="152315" />
	</node>
	<node lat="63.9633750024351" lon="10.197155563954553" id="-42419">
		<tag k="name" v="Joenget" />
		<tag k="place" v="farm" />
		<tag k="ssr:stedsnr" v="152316" />
	</node>
	<node lat="63.984333332636645" lon="10.017238884613976" id="-42420">
		<tag k="fixme" v="consider natural=peak for the most distinct mountains in the district" />
		<tag k="name" v="Kufjellet" />
		<tag k="natural" v="hill" />
		<tag k="place" v="locality" />
		<tag k="ssr:stedsnr" v="152356" />
	</node>
	<node lat="64.11983333688318" lon="10.425838899052463" id="-42421">
		<tag k="name" v="Elgkolva" />
		<tag k="natural" v="wetland" />
		<tag k="ssr:stedsnr" v="152362" />
	</node>
	<node lat="63.87458333637363" lon="10.233155559621595" id="-42422">
		<tag k="name" v="Skjeftholsbekken" />
		<tag k="ssr:stedsnr" v="152655" />
		<tag k="waterway" v="stream" />
	</node>
	<node lat="64.05915277913915" lon="10.392880563528783" id="-42423">
		<tag k="historic" v="shieling" />
		<tag k="name" v="Bakkaseteren" />
		<tag k="place" v="isolated_dwelling" />
		<tag k="ssr:stedsnr" v="152656" />
	</node>
	<node lat="63.90325555828581" lon="10.252513886221836" id="-42424">
		<tag k="fixme" v="consider natural=peak for the most distinct mountains in the district" />
		<tag k="name" v="Skallen" />
		<tag k="natural" v="hill" />
		<tag k="place" v="locality" />
		<tag k="ssr:stedsnr" v="152664" />
	</node>
	<node lat="64.05990555541177" lon="10.377413894035097" id="-42425">
		<tag k="name" v="Litl-Nittalia" />
		<tag k="natural" v="slope" />
		<tag k="place" v="locality" />
		<tag k="ssr:stedsnr" v="152665" />
	</node>
	<node lat="63.91956944117181" lon="10.240544438591474" id="-42426">
		<tag k="name" v="Småråkheian" />
		<tag k="place" v="locality" />
		<tag k="ssr:stedsnr" v="152670" />
	</node>
	<node lat="64.03493332937055" lon="10.452941660269358" id="-42427">
		<tag k="name" v="Kråklia" />
		<tag k="natural" v="slope" />
		<tag k="place" v="locality" />
		<tag k="ssr:stedsnr" v="152671" />
	</node>
	<node lat="63.914177778421696" lon="10.24073888048378" id="-42428">
		<tag k="name" v="Flaugamyra" />
		<tag k="natural" v="wetland" />
		<tag k="ssr:stedsnr" v="152672" />
	</node>
	<node lat="64.04634999699947" lon="9.963819443355163" id="-42429">
		<tag k="name" v="Legden" />
		<tag k="natural" v="hill" />
		<tag k="place" v="locality" />
		<tag k="ssr:stedsnr" v="152807" />
	</node>
	<node lat="64.05971389187651" lon="10.058633340648507" id="-42430">
		<tag k="fixme" v="consider natural=peak for the most distinct mountains in the district" />
		<tag k="name" v="Svana" />
		<tag k="natural" v="hill" />
		<tag k="place" v="locality" />
		<tag k="ssr:stedsnr" v="152813" />
	</node>
	<node lat="63.96366388666294" lon="10.441816658618684" id="-42431">
		<tag k="fixme" v="consider natural=peak for the most distinct mountains in the district" />
		<tag k="name" v="Bengelholklumpen" />
		<tag k="natural" v="hill" />
		<tag k="place" v="locality" />
		<tag k="ssr:stedsnr" v="152814" />
	</node>
	<node lat="64.04299722034655" lon="9.980244435159605" id="-42432">
		<tag k="name" v="Sebbersmyra" />
		<tag k="place" v="locality" />
		<tag k="ssr:stedsnr" v="152819" />
	</node>
	<node lat="64.01246944209427" lon="10.372983327364892" id="-42433">
		<tag k="name" v="Holet" />
		<tag k="place" v="locality" />
		<tag k="ssr:stedsnr" v="152851" />
	</node>
	<node lat="63.99927109828677" lon="10.205764596422158" id="-42434">
		<tag k="fixme" v="consider place=hamlet" />
		<tag k="name" v="Grytan" />
		<tag k="place" v="farm" />
		<tag k="ssr:stedsnr" v="256689" />
	</node>
	<node lat="64.01115000248228" lon="10.502988880470145" id="-42435">
		<tag k="alt_name" v="Forfot, øvre" />
		<tag k="name" v="Øvre Forfot" />
		<tag k="place" v="farm" />
		<tag k="ssr:stedsnr" v="256692" />
	</node>
	<node lat="64.00814721851464" lon="10.499186117144891" id="-42436">
		<tag k="alt_name" v="Forfot, nedre" />
		<tag k="name" v="Nedre Forfot" />
		<tag k="place" v="farm" />
		<tag k="ssr:stedsnr" v="256694" />
	</node>
	<node lat="64.01698055462242" lon="10.502891659829066" id="-42437">
		<tag k="fixme" v="consider natural=peak for the most distinct mountains in the district" />
		<tag k="name" v="Tømmerfjellet" />
		<tag k="natural" v="hill" />
		<tag k="place" v="locality" />
		<tag k="ssr:stedsnr" v="152562" />
	</node>
	<node lat="64.0271694462919" lon="10.410436105616883" id="-42438">
		<tag k="name" v="Storengdalen" />
		<tag k="natural" v="valley" />
		<tag k="place" v="locality" />
		<tag k="ssr:stedsnr" v="152704" />
	</node>
	<node lat="64.02577500156845" lon="10.405013887587677" id="-42439">
		<tag k="historic" v="shieling" />
		<tag k="name" v="Byseteren" />
		<tag k="place" v="locality" />
		<tag k="ssr:stedsnr" v="152706" />
	</node>
	<node lat="63.96385833119904" lon="10.50511110807465" id="-42440">
		<tag k="name" v="Olausbukta" />
		<tag k="natural" v="bay" />
		<tag k="ssr:stedsnr" v="152713" />
	</node>
	<node lat="63.953361115419085" lon="10.490794446810158" id="-42441">
		<tag k="name" v="Bjørklia" />
		<tag k="natural" v="slope" />
		<tag k="place" v="locality" />
		<tag k="ssr:stedsnr" v="152714" />
	</node>
	<node lat="63.969022219688284" lon="10.205297228730705" id="-42442">
		<tag k="name" v="Buenget" />
		<tag k="place" v="farm" />
		<tag k="ssr:stedsnr" v="152754" />
	</node>
	<node lat="63.94171666513539" lon="10.482641671103584" id="-42443">
		<tag k="name" v="Hælen" />
		<tag k="natural" v="valley" />
		<tag k="place" v="locality" />
		<tag k="ssr:stedsnr" v="152757" />
	</node>
	<node lat="63.98664722248569" lon="10.199599989801486" id="-42444">
		<tag k="name" v="Fjellenden" />
		<tag k="place" v="locality" />
		<tag k="ssr:stedsnr" v="152764" />
	</node>
	<node lat="63.972330558647045" lon="10.205133332839535" id="-42445">
		<tag k="name" v="Buengdalen" />
		<tag k="natural" v="valley" />
		<tag k="place" v="locality" />
		<tag k="ssr:stedsnr" v="152766" />
	</node>
	<node lat="63.98434444452898" lon="10.205361118353633" id="-42446">
		<tag k="name" v="Skolalia" />
		<tag k="natural" v="slope" />
		<tag k="place" v="locality" />
		<tag k="ssr:stedsnr" v="152768" />
	</node>
	<node lat="63.97231111507247" lon="10.407736111525344" id="-42447">
		<tag k="name" v="Hogstern" />
		<tag k="place" v="locality" />
		<tag k="ssr:stedsnr" v="152769" />
	</node>
	<node lat="63.99130277750114" lon="10.063155564739036" id="-42448">
		<tag k="historic" v="shieling" />
		<tag k="name" v="Herfjordseteren" />
		<tag k="place" v="isolated_dwelling" />
		<tag k="ssr:stedsnr" v="152770" />
	</node>
	<node lat="63.907619446672044" lon="10.44306111093531" id="-42449">
		<tag k="name" v="Svartbekkhhaugen" />
		<tag k="natural" v="hill" />
		<tag k="place" v="locality" />
		<tag k="ssr:stedsnr" v="152902" />
	</node>
	<node lat="64.15282222062903" lon="10.181102781611536" id="-42450">
		<tag k="fixme" v="consider natural=peak for the most distinct mountains in the district" />
		<tag k="name" v="Torvfjellet" />
		<tag k="natural" v="hill" />
		<tag k="place" v="locality" />
		<tag k="ssr:stedsnr" v="152903" />
	</node>
	<node lat="64.03257222221956" lon="10.123649995386154" id="-42451">
		<tag k="name" v="Gråkammen" />
		<tag k="natural" v="ridge" />
		<tag k="place" v="locality" />
		<tag k="ssr:stedsnr" v="152904" />
	</node>
	<node lat="64.1153777765308" lon="10.251227782616393" id="-42452">
		<tag k="name" v="Einvika" />
		<tag k="natural" v="bay" />
		<tag k="ssr:stedsnr" v="152905" />
	</node>
	<node lat="64.04405277979889" lon="10.059066668603505" id="-42453">
		<tag k="name" v="Kobbslottet" />
		<tag k="natural" v="shoal" />
		<tag k="place" v="locality" />
		<tag k="ssr:stedsnr" v="152952" />
	</node>
	<node lat="64.02094166469986" lon="10.072847219175042" id="-42454">
		<tag k="name" v="Tytberbakkan" />
		<tag k="natural" v="slope" />
		<tag k="place" v="locality" />
		<tag k="ssr:stedsnr" v="152967" />
	</node>
	<node lat="64.1456597331763" lon="10.177956845688918" id="-42455">
		<tag k="fixme" v="consider place=hamlet" />
		<tag k="name" v="Stranda" />
		<tag k="place" v="farm" />
		<tag k="ssr:stedsnr" v="153763" />
	</node>
	<node lat="64.03536110853905" lon="10.753277780124586" id="-42456">
		<tag k="name" v="Finnburskardet" />
		<tag k="natural" v="valley" />
		<tag k="place" v="locality" />
		<tag k="ssr:stedsnr" v="256932" />
	</node>
	<node lat="64.04529444869755" lon="10.73501389424794" id="-42457">
		<tag k="name" v="Finnburtjønna - Buvrientjonne" />
		<tag k="name:no" v="Finnburtjønna" />
		<tag k="name:sma" v="Buvrientjonne" />
		<tag k="natural" v="water" />
		<tag k="ssr:stedsnr" v="256951" />
	</node>
	<node lat="64.19788889253512" lon="10.092266671510592" id="-42458">
		<tag k="name" v="Værøya" />
		<tag k="place" v="island" />
		<tag k="ssr:stedsnr" v="256988" />
	</node>
	<node lat="64.20612778127872" lon="10.212786111898712" id="-42459">
		<tag k="name" v="Roneset" />
		<tag k="natural" v="cape" />
		<tag k="ssr:stedsnr" v="256989" />
	</node>
	<node lat="64.01293611527015" lon="10.136380561497123" id="-42460">
		<tag k="name" v="Olaslåttjønna" />
		<tag k="natural" v="water" />
		<tag k="ssr:stedsnr" v="257074" />
	</node>
	<node lat="64.01469999825744" lon="9.905813894209945" id="-42461">
		<tag k="fixme" v="consider natural=peak for the most distinct mountains in the district" />
		<tag k="name" v="Linesfjellet" />
		<tag k="natural" v="hill" />
		<tag k="place" v="locality" />
		<tag k="ssr:stedsnr" v="257080" />
	</node>
	<node lat="64.09156111071275" lon="10.053427787363361" id="-42462">
		<tag k="name" v="Oterdalen" />
		<tag k="natural" v="valley" />
		<tag k="place" v="locality" />
		<tag k="ssr:stedsnr" v="257167" />
	</node>
	<node lat="64.08743781452182" lon="10.191277872881107" id="-42463">
		<tag k="fixme" v="consider place=hamlet" />
		<tag k="name" v="Håvika" />
		<tag k="place" v="farm" />
		<tag k="ssr:stedsnr" v="257201" />
	</node>
	<node lat="64.09994999976615" lon="10.047463889415507" id="-42464">
		<tag k="name" v="Kvernavika" />
		<tag k="natural" v="bay" />
		<tag k="ssr:stedsnr" v="257233" />
	</node>
	<node lat="64.1035833291745" lon="9.93314722936211" id="-42465">
		<tag k="fixme" v="consider seamark:type=rock or natural=shoal" />
		<tag k="name" v="Sjursskjæra" />
		<tag k="place" v="islet" />
		<tag k="ssr:stedsnr" v="257234" />
	</node>
	<node lat="64.04407499691058" lon="10.27695000326228" id="-42466">
		<tag k="name" v="Oksliklumpen" />
		<tag k="natural" v="hill" />
		<tag k="place" v="locality" />
		<tag k="ssr:stedsnr" v="257296" />
	</node>
	<node lat="64.10683611287675" lon="10.372136108629961" id="-42467">
		<tag k="name" v="Blankstuvatnet" />
		<tag k="natural" v="water" />
		<tag k="ssr:stedsnr" v="257390" />
	</node>
	<node lat="64.16180000119988" lon="10.427441664535172" id="-42468">
		<tag k="fixme" v="consider natural=peak for the most distinct mountains in the district" />
		<tag k="name" v="Spannklumpen" />
		<tag k="natural" v="hill" />
		<tag k="place" v="locality" />
		<tag k="ssr:stedsnr" v="257488" />
	</node>
	<node lat="64.1673250011013" lon="10.250936115820735" id="-42469">
		<tag k="name" v="Prestelva" />
		<tag k="ssr:stedsnr" v="257492" />
		<tag k="waterway" v="stream" />
	</node>
	<node lat="64.16468611396216" lon="10.362383339692359" id="-42470">
		<tag k="name" v="Straumsvatnet" />
		<tag k="natural" v="water" />
		<tag k="ssr:stedsnr" v="257493" />
		<tag k="water" v="lake" />
	</node>
	<node lat="64.16923055700772" lon="10.347363894929455" id="-42471">
		<tag k="fixme" v="consider natural=peak for the most distinct mountains in the district" />
		<tag k="name" v="Stormunken" />
		<tag k="natural" v="hill" />
		<tag k="place" v="locality" />
		<tag k="ssr:stedsnr" v="257494" />
	</node>
	<node lat="64.03733333615124" lon="10.048863890134863" id="-42472">
		<tag k="fixme" v="consider place=hamlet" />
		<tag k="name" v="Revsnes" />
		<tag k="place" v="farm" />
		<tag k="ssr:stedsnr" v="159051" />
	</node>
	<node lat="63.96917500217574" lon="10.330361118356413" id="-42473">
		<tag k="name" v="Svartdalen" />
		<tag k="natural" v="valley" />
		<tag k="place" v="locality" />
		<tag k="ssr:stedsnr" v="257854" />
	</node>
	<node lat="64.27011666792768" lon="10.142252772217537" id="-42474">
		<tag k="name" v="Somstadflesa" />
		<tag k="place" v="island" />
		<tag k="ssr:stedsnr" v="257876" />
	</node>
	<node lat="64.25476110683952" lon="10.191355547880523" id="-42475">
		<tag k="fixme" v="consider seamark:type=rock or natural=shoal" />
		<tag k="name" v="Dorteaskjæret" />
		<tag k="place" v="islet" />
		<tag k="ssr:stedsnr" v="257879" />
	</node>
	<node lat="64.25917499835222" lon="10.125599993635173" id="-42476">
		<tag k="name" v="Litltaren" />
		<tag k="natural" v="shoal" />
		<tag k="place" v="locality" />
		<tag k="ssr:stedsnr" v="257882" />
	</node>
	<node lat="64.29825000044711" lon="10.107536113232719" id="-42477">
		<tag k="name" v="Litltaren" />
		<tag k="natural" v="shoal" />
		<tag k="place" v="locality" />
		<tag k="ssr:stedsnr" v="257900" />
	</node>
	<node lat="64.2339083341459" lon="10.175897229617117" id="-42478">
		<tag k="fixme" v="consider seamark:type=rock or natural=shoal" />
		<tag k="name" v="Svartskjæret" />
		<tag k="place" v="islet" />
		<tag k="ssr:stedsnr" v="257993" />
	</node>
	<node lat="63.96956944156883" lon="10.22016388017411" id="-42479">
		<tag k="name" v="Prestegårdshaugen boligfelt" />
		<tag k="place" v="quarter" />
		<tag k="ssr:stedsnr" v="163019" />
	</node>
	<node lat="63.96004722535085" lon="10.219097219411765" id="-42480">
		<tag k="name" v="Frønes boligfelt" />
		<tag k="place" v="quarter" />
		<tag k="ssr:stedsnr" v="163103" />
	</node>
	<node lat="63.967786109836744" lon="10.223047226369644" id="-42481">
		<tag k="name" v="Naustanstua" />
		<tag k="ssr:stedsnr" v="176324" />
		<tag k="tourism" v="museum" />
	</node>
	<node lat="64.14836389095468" lon="10.1576416570141" id="-42482">
		<tag k="man_made" v="quay" />
		<tag k="name" v="Kråkøya havn" />
		<tag k="place" v="locality" />
		<tag k="ssr:stedsnr" v="179323" />
	</node>
	<node lat="64.09724444890665" lon="10.51354443832713" id="-42483">
		<tag k="amenity" v="parking" />
		<tag k="name" v="Momyrstua parkering" />
		<tag k="ssr:stedsnr" v="180712" />
	</node>
	<node lat="64.02718333788992" lon="10.079449990670254" id="-42484">
		<tag k="alt_name" v="Stokksund skole" />
		<tag k="amenity" v="school" />
		<tag k="name" v="Stokksund oppvekstsenter" />
		<tag k="ssr:stedsnr" v="180868" />
	</node>
	<node lat="64.03909167001297" lon="10.379991666620377" id="-42485">
		<tag k="fixme" v="consider natural=peak for the most distinct mountains in the district" />
		<tag k="name" v="Nittafjellet" />
		<tag k="natural" v="hill" />
		<tag k="place" v="locality" />
		<tag k="ssr:stedsnr" v="263111" />
	</node>
	<node lat="64.26073610906444" lon="10.38490832999061" id="-42486">
		<tag k="alt_name" v="Skjelden" />
		<tag k="fixme" v="consider natural=peak for the most distinct mountains in the district" />
		<tag k="name" v="Vikskjelm" />
		<tag k="natural" v="hill" />
		<tag k="place" v="locality" />
		<tag k="ssr:stedsnr" v="263456" />
	</node>
	<node lat="64.13281944657514" lon="10.14158611443021" id="-42487">
		<tag k="name" v="Aksla" />
		<tag k="place" v="locality" />
		<tag k="ssr:stedsnr" v="267472" />
	</node>
	<node lat="64.12011111005944" lon="10.184313889207338" id="-42488">
		<tag k="name" v="Litlheia" />
		<tag k="natural" v="hill" />
		<tag k="place" v="locality" />
		<tag k="ssr:stedsnr" v="267475" />
	</node>
	<node lat="63.894888889021075" lon="10.364713881564096" id="-42489">
		<tag k="name" v="Kråktjernan" />
		<tag k="natural" v="water" />
		<tag k="ssr:stedsnr" v="195342" />
	</node>
	<node lat="63.930161107524484" lon="10.300547226263532" id="-42490">
		<tag k="name" v="Vassodden" />
		<tag k="place" v="farm" />
		<tag k="ssr:stedsnr" v="195347" />
	</node>
	<node lat="63.9240666646263" lon="10.507908333993042" id="-42491">
		<tag k="fixme" v="consider natural=peak for the most distinct mountains in the district" />
		<tag k="loc_name" v="Klumpen" />
		<tag k="name" v="Kvitkrekkaliklumpen" />
		<tag k="natural" v="hill" />
		<tag k="place" v="locality" />
		<tag k="ssr:stedsnr" v="195363" />
	</node>
	<node lat="63.89227202662189" lon="9.999448468618874" id="-42492">
		<tag k="alt_name" v="Hummelvikheian" />
		<tag k="name" v="Hommelvikheian" />
		<tag k="natural" v="hill" />
		<tag k="place" v="locality" />
		<tag k="ssr:stedsnr" v="195597" />
	</node>
	<node lat="63.99026389158519" lon="10.152466657952827" id="-42493">
		<tag k="name" v="Langdalen" />
		<tag k="natural" v="valley" />
		<tag k="place" v="locality" />
		<tag k="ssr:stedsnr" v="195707" />
	</node>
	<node lat="63.90499444796218" lon="10.079705553688806" id="-42494">
		<tag k="alt_name" v="Brulivatnet, store" />
		<tag k="name" v="Brulivatnet" />
		<tag k="natural" v="water" />
		<tag k="ssr:stedsnr" v="195602" />
		<tag k="water" v="lake" />
	</node>
	<node lat="63.90042585108401" lon="10.189000435513192" id="-42495">
		<tag k="name" v="Bjørnatjønna" />
		<tag k="natural" v="water" />
		<tag k="ssr:stedsnr" v="195606" />
	</node>
	<node lat="63.90790833311294" lon="10.165819454239081" id="-42496">
		<tag k="name" v="Damheia" />
		<tag k="natural" v="hill" />
		<tag k="place" v="locality" />
		<tag k="ssr:stedsnr" v="195609" />
	</node>
	<node lat="64.20286414475135" lon="10.398195802117991" id="-42497">
		<tag k="fixme" v="consider place=hamlet" />
		<tag k="name" v="Moen" />
		<tag k="place" v="farm" />
		<tag k="ssr:stedsnr" v="196029" />
	</node>
	<node lat="64.24465278008599" lon="10.376450003356268" id="-42498">
		<tag k="name" v="Nedre Vikvatnet" />
		<tag k="natural" v="water" />
		<tag k="ssr:stedsnr" v="196037" />
		<tag k="water" v="lake" />
	</node>
	<node lat="64.23797499608499" lon="10.303602777635032" id="-42499">
		<tag k="name" v="Nyheim" />
		<tag k="place" v="farm" />
		<tag k="ssr:stedsnr" v="196039" />
	</node>
	<node lat="64.2287027820259" lon="10.356069443865172" id="-42500">
		<tag k="fixme" v="consider natural=peak for the most distinct mountains in the district" />
		<tag k="name" v="Blåfjellet" />
		<tag k="natural" v="hill" />
		<tag k="place" v="locality" />
		<tag k="ssr:stedsnr" v="196056" />
	</node>
	<node lat="64.01572500127408" lon="9.809574994056474" id="-42501">
		<tag k="fixme" v="consider seamark:type=rock or natural=shoal" />
		<tag k="name" v="Klakkskjæret" />
		<tag k="place" v="islet" />
		<tag k="ssr:stedsnr" v="196058" />
	</node>
	<node lat="64.01732500118143" lon="9.884766661562496" id="-42502">
		<tag k="name" v="Fagervikholmen" />
		<tag k="place" v="islet" />
		<tag k="ssr:stedsnr" v="196061" />
	</node>
	<node lat="64.03279166588437" lon="10.062324997885002" id="-42503">
		<tag k="alt_name" v="Åkenesfjellet" />
		<tag k="fixme" v="consider natural=peak for the most distinct mountains in the district" />
		<tag k="name" v="Åknesfjellet" />
		<tag k="natural" v="hill" />
		<tag k="place" v="locality" />
		<tag k="ssr:stedsnr" v="196108" />
	</node>
	<node lat="64.03508055801264" lon="10.148419436289805" id="-42504">
		<tag k="name" v="Lavatnet" />
		<tag k="natural" v="water" />
		<tag k="ssr:stedsnr" v="196115" />
	</node>
	<node lat="64.02314722019149" lon="10.075200002290623" id="-42505">
		<tag k="name" v="Lunnfjordvatnet" />
		<tag k="natural" v="water" />
		<tag k="ssr:stedsnr" v="196120" />
	</node>
	<node lat="64.06721944093637" lon="10.089216659301846" id="-42506">
		<tag k="fixme" v="consider natural=peak for the most distinct mountains in the district" />
		<tag k="name" v="Brennfjell" />
		<tag k="natural" v="hill" />
		<tag k="place" v="locality" />
		<tag k="ssr:stedsnr" v="196134" />
	</node>
	<node lat="64.07001944060583" lon="9.946616673178358" id="-42507">
		<tag k="name" v="Svenningsneset" />
		<tag k="place" v="farm" />
		<tag k="ssr:stedsnr" v="196144" />
	</node>
	<node lat="63.98231710648028" lon="10.436290093908422" id="-42508">
		<tag k="alt_name" v="Gilde" />
		<tag k="fixme" v="consider place=hamlet" />
		<tag k="name" v="Gilda" />
		<tag k="place" v="farm" />
		<tag k="ssr:stedsnr" v="196154" />
	</node>
	<node lat="64.11320000194948" lon="9.964077783061141" id="-42509">
		<tag k="name" v="Gjæsinga" />
		<tag k="place" v="island" />
		<tag k="ssr:stedsnr" v="196204" />
	</node>
	<node lat="64.10872777932309" lon="9.935349992501239" id="-42510">
		<tag k="alt_name" v="Tennskjer, store" />
		<tag k="fixme" v="consider seamark:type=rock or natural=shoal" />
		<tag k="name" v="Store Tennskjæret" />
		<tag k="place" v="islet" />
		<tag k="ssr:stedsnr" v="196208" />
	</node>
	<node lat="64.12147222345595" lon="9.962969443978366" id="-42511">
		<tag k="fixme" v="consider seamark:type=rock or natural=shoal" />
		<tag k="name" v="Skarvskjæret" />
		<tag k="place" v="islet" />
		<tag k="ssr:stedsnr" v="196210" />
	</node>
	<node lat="64.1631694475281" lon="9.893891658116393" id="-42512">
		<tag k="name" v="Rundflua" />
		<tag k="natural" v="shoal" />
		<tag k="place" v="locality" />
		<tag k="ssr:stedsnr" v="196229" />
	</node>
	<node lat="64.16481666547506" lon="10.166138880625912" id="-42513">
		<tag k="name" v="Vollvika" />
		<tag k="natural" v="cape" />
		<tag k="ssr:stedsnr" v="196231" />
	</node>
	<node lat="64.09003610976629" lon="10.607213886822" id="-42515">
		<tag k="fixme" v="consider natural=peak for the most distinct mountains in the district" />
		<tag k="name" v="Vardheia" />
		<tag k="natural" v="hill" />
		<tag k="place" v="locality" />
		<tag k="ssr:stedsnr" v="196281" />
	</node>
	<node lat="64.08974167076195" lon="10.45879165857814" id="-42516">
		<tag k="name" v="Somdalstjønna" />
		<tag k="natural" v="water" />
		<tag k="ssr:stedsnr" v="196285" />
	</node>
	<node lat="64.08205833542362" lon="10.70076943661731" id="-42517">
		<tag k="name" v="Langvatnet" />
		<tag k="natural" v="water" />
		<tag k="ssr:stedsnr" v="196288" />
	</node>
	<node lat="64.09881666926289" lon="10.306713889753652" id="-42518">
		<tag k="name" v="Eriklitjønna" />
		<tag k="natural" v="water" />
		<tag k="ssr:stedsnr" v="196294" />
	</node>
	<node lat="64.09818333512354" lon="10.242249992601337" id="-42519">
		<tag k="fixme" v="consider natural=peak for the most distinct mountains in the district" />
		<tag k="name" v="Ramnfjellet" />
		<tag k="natural" v="hill" />
		<tag k="place" v="locality" />
		<tag k="ssr:stedsnr" v="196295" />
	</node>
	<node lat="64.1031000025127" lon="10.057577768281874" id="-42520">
		<tag k="name" v="Tømmervika" />
		<tag k="natural" v="bay" />
		<tag k="ssr:stedsnr" v="196179" />
	</node>
	<node lat="64.11004899636782" lon="10.14206923752845" id="-42521">
		<tag k="name" v="Geisnesoddan" />
		<tag k="natural" v="cape" />
		<tag k="ssr:stedsnr" v="196181" />
	</node>
	<node lat="63.983941669495486" lon="10.257819451633274" id="-42522">
		<tag k="name" v="Almlia" />
		<tag k="natural" v="slope" />
		<tag k="place" v="locality" />
		<tag k="ssr:stedsnr" v="196182" />
	</node>
	<node lat="63.78643333578475" lon="10.451219446057843" id="-42523">
		<tag k="name" v="Klokkatospiren" />
		<tag k="natural" v="hill" />
		<tag k="place" v="locality" />
		<tag k="ssr:stedsnr" v="196383" />
	</node>
	<node lat="64.14955833769203" lon="10.466719450306147" id="-42524">
		<tag k="name" v="Tostenelva" />
		<tag k="ssr:stedsnr" v="196384" />
		<tag k="waterway" v="river" />
	</node>
	<node lat="64.03205833109553" lon="10.384838892706982" id="-42525">
		<tag k="name" v="Nittaelva" />
		<tag k="ssr:stedsnr" v="196670" />
		<tag k="waterway" v="river" />
	</node>
	<node lat="64.03222384602435" lon="10.322111820394394" id="-42526">
		<tag k="fixme" v="multiple name tags, choose one and add the other to alt_name" />
		<tag k="name" v="Fjellheim;Valleraunseteren" />
		<tag k="place" v="farm" />
		<tag k="ssr:stedsnr" v="196671" />
	</node>
	<node lat="64.2636138866808" lon="10.179305554819095" id="-42527">
		<tag k="name" v="Olataren" />
		<tag k="natural" v="shoal" />
		<tag k="place" v="locality" />
		<tag k="ssr:stedsnr" v="196837" />
	</node>
	<node lat="64.15308332974037" lon="10.72278333461998" id="-42528">
		<tag k="name" v="Sørlia" />
		<tag k="natural" v="slope" />
		<tag k="place" v="locality" />
		<tag k="ssr:stedsnr" v="196559" />
	</node>
	<node lat="64.27121388790825" lon="10.378827783685319" id="-42529">
		<tag k="alt_name" v="Litlskåret" />
		<tag k="name" v="Litlskardet" />
		<tag k="natural" v="valley" />
		<tag k="place" v="locality" />
		<tag k="ssr:stedsnr" v="196560" />
	</node>
	<node lat="64.02017777834676" lon="10.329674997990248" id="-42530">
		<tag k="fixme" v="consider natural=peak for the most distinct mountains in the district" />
		<tag k="name" v="Storlipynten" />
		<tag k="natural" v="hill" />
		<tag k="place" v="locality" />
		<tag k="ssr:stedsnr" v="196703" />
	</node>
	<node lat="64.02452222096481" lon="10.299452780637676" id="-42531">
		<tag k="fixme" v="consider natural=peak for the most distinct mountains in the district" />
		<tag k="name" v="Storstakkheia" />
		<tag k="natural" v="hill" />
		<tag k="place" v="locality" />
		<tag k="ssr:stedsnr" v="196704" />
	</node>
	<node lat="64.00523333009485" lon="10.255300004434538" id="-42532">
		<tag k="name" v="Bjørnabekken" />
		<tag k="ssr:stedsnr" v="196710" />
		<tag k="waterway" v="stream" />
	</node>
	<node lat="64.10802222505367" lon="10.157277770274845" id="-42533">
		<tag k="name" v="Kvernavika" />
		<tag k="natural" v="bay" />
		<tag k="ssr:stedsnr" v="196778" />
	</node>
	<node lat="64.30998889256394" lon="10.133502771569997" id="-42534">
		<tag k="name" v="Råsskolten" />
		<tag k="natural" v="shoal" />
		<tag k="place" v="locality" />
		<tag k="ssr:stedsnr" v="196860" />
	</node>
	<node lat="64.21983889250001" lon="10.06698056521477" id="-42536">
		<tag k="name" v="Djupbåen" />
		<tag k="natural" v="shoal" />
		<tag k="place" v="locality" />
		<tag k="ssr:stedsnr" v="208095" />
	</node>
	<node lat="64.26629722122604" lon="10.284255562641421" id="-42537">
		<tag k="name" v="Spjeldvika" />
		<tag k="natural" v="bay" />
		<tag k="ssr:stedsnr" v="208130" />
	</node>
	<node lat="64.26479166654026" lon="10.349647219221925" id="-42538">
		<tag k="name" v="Bryggneset" />
		<tag k="natural" v="cape" />
		<tag k="ssr:stedsnr" v="269010" />
	</node>
	<node lat="64.25422777915459" lon="10.345952778386039" id="-42539">
		<tag k="name" v="Teisthaugen" />
		<tag k="natural" v="cape" />
		<tag k="ssr:stedsnr" v="269012" />
	</node>
	<node lat="64.2567527754187" lon="10.290891665004379" id="-42540">
		<tag k="name" v="Børøyaunet" />
		<tag k="place" v="locality" />
		<tag k="ssr:stedsnr" v="269167" />
	</node>
	<node lat="64.18192222113164" lon="10.012649994394078" id="-42541">
		<tag k="name" v="Helsøya" />
		<tag k="place" v="island" />
		<tag k="ssr:stedsnr" v="269336" />
	</node>
	<node lat="64.19100833193299" lon="9.943991674432654" id="-42542">
		<tag k="alt_name" v="Venttaren, n" />
		<tag k="name" v="Nordre Venttaren" />
		<tag k="natural" v="shoal" />
		<tag k="place" v="locality" />
		<tag k="ssr:stedsnr" v="210830" />
	</node>
	<node lat="64.16938333160803" lon="10.14623610321125" id="-42543">
		<tag k="name" v="Langtaren" />
		<tag k="natural" v="shoal" />
		<tag k="place" v="locality" />
		<tag k="ssr:stedsnr" v="210832" />
	</node>
	<node lat="63.93017222062496" lon="9.88603611257455" id="-42544">
		<tag k="name" v="Kalven" />
		<tag k="place" v="island" />
		<tag k="ssr:stedsnr" v="212179" />
	</node>
	<node lat="64.00048333053518" lon="10.219408329644345" id="-42546">
		<tag k="name" v="Valleraunberga" />
		<tag k="natural" v="hill" />
		<tag k="place" v="locality" />
		<tag k="ssr:stedsnr" v="213102" />
	</node>
	<node lat="63.95058610861515" lon="9.971386104998642" id="-42547">
		<tag k="fixme" v="consider seamark:type=rock or natural=shoal" />
		<tag k="name" v="Bryggskjæra" />
		<tag k="place" v="islet" />
		<tag k="ssr:stedsnr" v="213103" />
	</node>
	<node lat="64.00824722101291" lon="10.279116666933293" id="-42548">
		<tag k="name" v="Seterlia" />
		<tag k="natural" v="slope" />
		<tag k="place" v="locality" />
		<tag k="ssr:stedsnr" v="213111" />
	</node>
	<node lat="63.993536113683454" lon="10.284463884321575" id="-42549">
		<tag k="fixme" v="consider natural=peak for the most distinct mountains in the district" />
		<tag k="name" v="Imsadalsfjellet" />
		<tag k="natural" v="hill" />
		<tag k="place" v="locality" />
		<tag k="ssr:stedsnr" v="213112" />
	</node>
	<node lat="64.16281388749724" lon="10.27217777096606" id="-42550">
		<tag k="name" v="Prestfossen" />
		<tag k="natural" v="waterfall" />
		<tag k="ssr:stedsnr" v="213124" />
	</node>
	<node lat="64.02048055122583" lon="10.321066676291569" id="-42551">
		<tag k="name" v="Bjørbuholet" />
		<tag k="natural" v="valley" />
		<tag k="place" v="locality" />
		<tag k="ssr:stedsnr" v="213130" />
	</node>
	<node lat="63.966033331938824" lon="10.271302785310096" id="-42552">
		<tag k="name" v="Tostendalen" />
		<tag k="natural" v="valley" />
		<tag k="place" v="locality" />
		<tag k="ssr:stedsnr" v="213005" />
	</node>
	<node lat="63.92023055365114" lon="10.057913882695292" id="-42553">
		<tag k="name" v="Mjøneshammaren" />
		<tag k="natural" v="hill" />
		<tag k="place" v="locality" />
		<tag k="ssr:stedsnr" v="213010" />
	</node>
	<node lat="63.967958328957536" lon="9.973963888517176" id="-42554">
		<tag k="name" v="Naustmyra" />
		<tag k="place" v="farm" />
		<tag k="ssr:stedsnr" v="213013" />
	</node>
	<node lat="63.91800277372066" lon="10.038038886455968" id="-42555">
		<tag k="name" v="Holsundet" />
		<tag k="natural" v="strait" />
		<tag k="ssr:stedsnr" v="213014" />
	</node>
	<node lat="63.9083027820871" lon="9.95880556563017" id="-42556">
		<tag k="name" v="Myrvang" />
		<tag k="place" v="farm" />
		<tag k="ssr:stedsnr" v="213024" />
	</node>
	<node lat="64.1954138880137" lon="10.312094440590725" id="-42557">
		<tag k="name" v="Hagan" />
		<tag k="place" v="farm" />
		<tag k="ssr:stedsnr" v="213027" />
	</node>
	<node lat="64.00380277643629" lon="10.317480563536767" id="-42558">
		<tag k="name" v="Fjellmyra" />
		<tag k="natural" v="wetland" />
		<tag k="ssr:stedsnr" v="213028" />
	</node>
	<node lat="64.19374444179854" lon="10.281063879021794" id="-42559">
		<tag k="name" v="Innerskåret" />
		<tag k="natural" v="valley" />
		<tag k="place" v="locality" />
		<tag k="ssr:stedsnr" v="213029" />
	</node>
	<node lat="63.910741666903185" lon="9.982455548023875" id="-42560">
		<tag k="fixme" v="consider seamark:type=rock or natural=shoal" />
		<tag k="name" v="Småskjæra" />
		<tag k="place" v="islet" />
		<tag k="ssr:stedsnr" v="213031" />
	</node>
	<node lat="63.960780559971404" lon="10.027688892101434" id="-42561">
		<tag k="name" v="Saltnesholmen" />
		<tag k="natural" v="cape" />
		<tag k="ssr:stedsnr" v="213079" />
	</node>
	<node lat="64.12007499704653" lon="10.281466661714854" id="-42562">
		<tag k="name" v="Oladalen" />
		<tag k="natural" v="valley" />
		<tag k="place" v="locality" />
		<tag k="ssr:stedsnr" v="213087" />
	</node>
	<node lat="64.24320278193949" lon="10.324297214199909" id="-42563">
		<tag k="name" v="Heggegården" />
		<tag k="place" v="farm" />
		<tag k="ssr:stedsnr" v="213225" />
	</node>
	<node lat="64.0405305594484" lon="10.071777775833137" id="-42564">
		<tag k="name" v="Lianselva" />
		<tag k="ssr:stedsnr" v="213226" />
		<tag k="waterway" v="river" />
	</node>
	<node lat="64.23961388731063" lon="10.337744447007822" id="-42565">
		<tag k="name" v="Gaddheia" />
		<tag k="natural" v="hill" />
		<tag k="place" v="locality" />
		<tag k="ssr:stedsnr" v="213228" />
	</node>
	<node lat="64.22935277432315" lon="10.34098889852606" id="-42566">
		<tag k="name" v="Portdalsbekken" />
		<tag k="ssr:stedsnr" v="213229" />
		<tag k="waterway" v="stream" />
	</node>
	<node lat="63.93113055805793" lon="9.87416666919333" id="-42567">
		<tag k="name" v="Hestholman" />
		<tag k="place" v="islet" />
		<tag k="ssr:stedsnr" v="213232" />
	</node>
	<node lat="64.16926388495762" lon="10.48920833941812" id="-42568">
		<tag k="name" v="Sagmoen" />
		<tag k="place" v="farm" />
		<tag k="ssr:stedsnr" v="213279" />
	</node>
	<node lat="64.1754527758828" lon="10.524397220818866" id="-42569">
		<tag k="name" v="Øyan" />
		<tag k="place" v="locality" />
		<tag k="ssr:stedsnr" v="213285" />
	</node>
	<node lat="64.1919527814956" lon="10.54048055012181" id="-42570">
		<tag k="name" v="Tjønnlitjønna" />
		<tag k="natural" v="water" />
		<tag k="ssr:stedsnr" v="213294" />
	</node>
	<node lat="63.95763055239671" lon="10.655877769603888" id="-42571">
		<tag k="name" v="Vakkerlia" />
		<tag k="natural" v="slope" />
		<tag k="place" v="locality" />
		<tag k="ssr:stedsnr" v="213408" />
	</node>
	<node lat="63.96553055950741" lon="10.651272217771579" id="-42572">
		<tag k="name" v="Svartberget" />
		<tag k="natural" v="hill" />
		<tag k="place" v="locality" />
		<tag k="ssr:stedsnr" v="213411" />
	</node>
	<node lat="63.97465000123279" lon="10.662958332384038" id="-42573">
		<tag k="name" v="Finnlidalen" />
		<tag k="natural" v="valley" />
		<tag k="place" v="locality" />
		<tag k="ssr:stedsnr" v="213424" />
	</node>
	<node lat="63.97859444555092" lon="10.655625001583477" id="-42574">
		<tag k="name" v="Litllia" />
		<tag k="natural" v="slope" />
		<tag k="place" v="locality" />
		<tag k="ssr:stedsnr" v="213427" />
	</node>
	<node lat="64.24594722669357" lon="10.397947214697009" id="-42575">
		<tag k="name" v="Jens Jensadalen" />
		<tag k="natural" v="valley" />
		<tag k="place" v="locality" />
		<tag k="ssr:stedsnr" v="213174" />
	</node>
	<node lat="64.17769166347175" lon="10.332591666493325" id="-42576">
		<tag k="name" v="Svarttjønna" />
		<tag k="natural" v="water" />
		<tag k="ssr:stedsnr" v="213180" />
	</node>
	<node lat="64.08375277644478" lon="10.036966672204237" id="-42577">
		<tag k="name" v="Målet" />
		<tag k="natural" v="shoal" />
		<tag k="place" v="locality" />
		<tag k="ssr:stedsnr" v="213184" />
	</node>
	<node lat="64.04548333086751" lon="10.02028054831532" id="-42578">
		<tag k="name" v="Harsvikråsa" />
		<tag k="place" v="sea" />
		<tag k="ssr:stedsnr" v="213185" />
	</node>
	<node lat="64.17472222318399" lon="10.340180557574428" id="-42579">
		<tag k="name" v="Myrabekken" />
		<tag k="ssr:stedsnr" v="213186" />
		<tag k="waterway" v="stream" />
	</node>
	<node lat="64.11299722104127" lon="10.15671388275554" id="-42580">
		<tag k="name" v="Furuhaugan" />
		<tag k="natural" v="hill" />
		<tag k="place" v="locality" />
		<tag k="ssr:stedsnr" v="213307" />
	</node>
	<node lat="64.13653333217144" lon="10.439786106520991" id="-42581">
		<tag k="name" v="Gjertruskardet" />
		<tag k="natural" v="valley" />
		<tag k="place" v="locality" />
		<tag k="ssr:stedsnr" v="213311" />
	</node>
	<node lat="64.17235833673061" lon="10.441416661401183" id="-42582">
		<tag k="name" v="Erikenget" />
		<tag k="place" v="locality" />
		<tag k="ssr:stedsnr" v="213333" />
	</node>
	<node lat="64.21211666984348" lon="10.48658055039578" id="-42583">
		<tag k="fixme" v="consider natural=peak for the most distinct mountains in the district" />
		<tag k="name" v="Nordkrummen" />
		<tag k="natural" v="hill" />
		<tag k="place" v="locality" />
		<tag k="ssr:stedsnr" v="213387" />
	</node>
	<node lat="63.92995277513265" lon="10.190480563335825" id="-42584">
		<tag k="name" v="Ospvika" />
		<tag k="natural" v="bay" />
		<tag k="ssr:stedsnr" v="213392" />
	</node>
	<node lat="64.08869444491343" lon="10.50615000455103" id="-42585">
		<tag k="name" v="Fausklia" />
		<tag k="natural" v="slope" />
		<tag k="place" v="locality" />
		<tag k="ssr:stedsnr" v="213606" />
	</node>
	<node lat="63.97993611276481" lon="10.172663890264724" id="-42586">
		<tag k="name" v="Humstadmyran" />
		<tag k="natural" v="wetland" />
		<tag k="ssr:stedsnr" v="213624" />
	</node>
	<node lat="64.06748611535997" lon="10.547541668707831" id="-42587">
		<tag k="name" v="Svensken" />
		<tag k="natural" v="slope" />
		<tag k="place" v="locality" />
		<tag k="ssr:stedsnr" v="213626" />
	</node>
	<node lat="63.91148055625714" lon="10.2520527724307" id="-42588">
		<tag k="name" v="Sørbekken" />
		<tag k="ssr:stedsnr" v="213678" />
		<tag k="waterway" v="stream" />
	</node>
	<node lat="64.04407499567253" lon="10.412127787135294" id="-42589">
		<tag k="name" v="Lonlimyran" />
		<tag k="natural" v="wetland" />
		<tag k="ssr:stedsnr" v="213682" />
	</node>
	<node lat="63.914702775546004" lon="10.244786119138734" id="-42590">
		<tag k="name" v="Gaupbåsen" />
		<tag k="place" v="locality" />
		<tag k="ssr:stedsnr" v="213683" />
	</node>
	<node lat="63.91158333103657" lon="10.245000008625293" id="-42591">
		<tag k="name" v="Møriaunstranda" />
		<tag k="place" v="farm" />
		<tag k="ssr:stedsnr" v="213684" />
	</node>
	<node lat="64.02331944218804" lon="9.885077780742497" id="-42592">
		<tag k="name" v="Langvik" />
		<tag k="place" v="farm" />
		<tag k="ssr:stedsnr" v="213689" />
	</node>
	<node lat="64.0532916670405" lon="10.032083334835935" id="-42593">
		<tag k="name" v="Langmyra" />
		<tag k="natural" v="wetland" />
		<tag k="ssr:stedsnr" v="213802" />
	</node>
	<node lat="64.06268055276858" lon="10.021958341736333" id="-42594">
		<tag k="name" v="Sundgårsmyra" />
		<tag k="place" v="farm" />
		<tag k="ssr:stedsnr" v="213806" />
	</node>
	<node lat="64.07029721859041" lon="10.012547227768218" id="-42595">
		<tag k="name" v="Sundaberga" />
		<tag k="natural" v="hill" />
		<tag k="place" v="locality" />
		<tag k="ssr:stedsnr" v="213808" />
	</node>
	<node lat="64.05354999871423" lon="10.045263891012056" id="-42596">
		<tag k="fixme" v="consider natural=peak for the most distinct mountains in the district" />
		<tag k="name" v="Mariklova" />
		<tag k="natural" v="hill" />
		<tag k="place" v="locality" />
		<tag k="ssr:stedsnr" v="213813" />
	</node>
	<node lat="64.05208888996178" lon="10.049230558192411" id="-42597">
		<tag k="name" v="Knubben" />
		<tag k="place" v="locality" />
		<tag k="ssr:stedsnr" v="213814" />
	</node>
	<node lat="63.95047222382282" lon="10.422577778176972" id="-42598">
		<tag k="name" v="Roligholet" />
		<tag k="place" v="locality" />
		<tag k="ssr:stedsnr" v="213827" />
	</node>
	<node lat="63.9072111076405" lon="10.075291671357169" id="-42599">
		<tag k="name" v="Vassbukta" />
		<tag k="natural" v="bay" />
		<tag k="ssr:stedsnr" v="213579" />
	</node>
	<node lat="63.99325278002565" lon="10.461947227307403" id="-42600">
		<tag k="name" v="Undlenda" />
		<tag k="place" v="locality" />
		<tag k="ssr:stedsnr" v="213580" />
	</node>
	<node lat="63.99654722096179" lon="10.482430550620911" id="-42601">
		<tag k="name" v="Bjørknesbekken" />
		<tag k="ssr:stedsnr" v="213583" />
		<tag k="waterway" v="stream" />
	</node>
	<node lat="63.91333889173882" lon="10.125497217848606" id="-42602">
		<tag k="name" v="Stormyrhaugen" />
		<tag k="natural" v="hill" />
		<tag k="place" v="locality" />
		<tag k="ssr:stedsnr" v="213587" />
	</node>
	<node lat="63.94683888628865" lon="10.523141668830386" id="-42603">
		<tag k="name" v="Stormyra" />
		<tag k="natural" v="wetland" />
		<tag k="ssr:stedsnr" v="213590" />
	</node>
	<node lat="64.00394444283914" lon="9.910758328689058" id="-42604">
		<tag k="name" v="Skoglidalen" />
		<tag k="natural" v="valley" />
		<tag k="place" v="locality" />
		<tag k="ssr:stedsnr" v="213703" />
	</node>
	<node lat="64.01112222431804" lon="10.430774995100307" id="-42605">
		<tag k="name" v="Bjørklia" />
		<tag k="natural" v="slope" />
		<tag k="place" v="locality" />
		<tag k="ssr:stedsnr" v="213704" />
	</node>
	<node lat="63.9777138852551" lon="10.456508332715847" id="-42606">
		<tag k="name" v="Smistudalen" />
		<tag k="natural" v="valley" />
		<tag k="place" v="locality" />
		<tag k="ssr:stedsnr" v="213727" />
	</node>
	<node lat="63.97563611391536" lon="10.404450007173043" id="-42607">
		<tag k="fixme" v="consider natural=peak for the most distinct mountains in the district" />
		<tag k="name" v="Torskrekkan" />
		<tag k="natural" v="hill" />
		<tag k="place" v="locality" />
		<tag k="ssr:stedsnr" v="213775" />
	</node>
	<node lat="64.06811388913226" lon="9.94341666601983" id="-42608">
		<tag k="name" v="Vadtjønnbekken" />
		<tag k="ssr:stedsnr" v="213784" />
		<tag k="waterway" v="stream" />
	</node>
	<node lat="64.06291110976017" lon="9.947083328366862" id="-42609">
		<tag k="name" v="Nilsmyra" />
		<tag k="natural" v="wetland" />
		<tag k="ssr:stedsnr" v="213786" />
	</node>
	<node lat="63.96890278182255" lon="10.434708328330826" id="-42610">
		<tag k="name" v="Hoggtjønna" />
		<tag k="natural" v="water" />
		<tag k="ssr:stedsnr" v="213787" />
	</node>
	<node lat="63.99829722253769" lon="10.40062223071615" id="-42611">
		<tag k="name" v="Storskardheia" />
		<tag k="natural" v="hill" />
		<tag k="place" v="locality" />
		<tag k="ssr:stedsnr" v="213790" />
	</node>
	<node lat="64.05732222063475" lon="9.955677786663456" id="-42612">
		<tag k="name" v="Stålihaugen" />
		<tag k="natural" v="hill" />
		<tag k="place" v="locality" />
		<tag k="ssr:stedsnr" v="213791" />
	</node>
	<node lat="64.15911944237759" lon="10.181866670256067" id="-42613">
		<tag k="name" v="Munkhaugen" />
		<tag k="place" v="farm" />
		<tag k="ssr:stedsnr" v="213903" />
	</node>
	<node lat="64.15168611440171" lon="10.177994448793333" id="-42614">
		<tag k="name" v="Halsan" />
		<tag k="place" v="farm" />
		<tag k="ssr:stedsnr" v="213904" />
	</node>
	<node lat="63.92986110771623" lon="10.405783332742509" id="-42615">
		<tag k="name" v="Dynekilen" />
		<tag k="natural" v="bay" />
		<tag k="ssr:stedsnr" v="213909" />
	</node>
	<node lat="63.873361111893225" lon="10.304233341889683" id="-42616">
		<tag k="name" v="Andreastjønna" />
		<tag k="natural" v="water" />
		<tag k="ssr:stedsnr" v="213911" />
	</node>
	<node lat="63.919102776541195" lon="10.451397222715961" id="-42617">
		<tag k="name" v="Tangstad" />
		<tag k="place" v="locality" />
		<tag k="ssr:stedsnr" v="213877" />
	</node>
	<node lat="64.07450000060447" lon="10.034161113126226" id="-42618">
		<tag k="name" v="Rammelmyrhaugen" />
		<tag k="natural" v="hill" />
		<tag k="place" v="locality" />
		<tag k="ssr:stedsnr" v="213976" />
	</node>
	<node lat="63.92409444378881" lon="10.41453055103137" id="-42619">
		<tag k="name" v="Bukta" />
		<tag k="place" v="locality" />
		<tag k="ssr:stedsnr" v="213979" />
	</node>
	<node lat="64.05238332960376" lon="10.076622228608063" id="-42620">
		<tag k="name" v="Høvika" />
		<tag k="natural" v="bay" />
		<tag k="ssr:stedsnr" v="213985" />
	</node>
	<node lat="64.02158611434429" lon="10.116397232025086" id="-42621">
		<tag k="fixme" v="consider natural=peak for the most distinct mountains in the district" />
		<tag k="name" v="Hesjbenknova" />
		<tag k="natural" v="hill" />
		<tag k="place" v="locality" />
		<tag k="ssr:stedsnr" v="213995" />
	</node>
	<node lat="64.15246944891268" lon="10.377852779842332" id="-42622">
		<tag k="landuse" v="meadow" />
		<tag k="name" v="Kjerringslætta" />
		<tag k="ssr:stedsnr" v="214324" />
	</node>
	<node lat="64.1474277783366" lon="10.34855555398438" id="-42623">
		<tag k="name" v="Sagmoen" />
		<tag k="place" v="locality" />
		<tag k="ssr:stedsnr" v="214334" />
	</node>
	<node lat="64.25938055696753" lon="10.226269454369847" id="-42624">
		<tag k="name" v="Sandøytaren" />
		<tag k="natural" v="shoal" />
		<tag k="place" v="locality" />
		<tag k="ssr:stedsnr" v="270146" />
	</node>
	<node lat="63.93021793534559" lon="10.149549318726109" id="-42625">
		<tag k="name" v="Brasset" />
		<tag k="place" v="farm" />
		<tag k="ssr:stedsnr" v="222894" />
	</node>
	<node lat="64.22608889292506" lon="10.057986109675488" id="-42626">
		<tag k="name" v="Fåklakken" />
		<tag k="natural" v="shoal" />
		<tag k="ssr:stedsnr" v="271847" />
	</node>
	<node lat="64.23473055538231" lon="10.272088895530954" id="-42627">
		<tag k="name" v="Rundholmen" />
		<tag k="place" v="islet" />
		<tag k="ssr:stedsnr" v="451176" />
	</node>
	<node lat="64.22418889183903" lon="10.10472221995946" id="-42628">
		<tag k="name" v="Langtaren" />
		<tag k="place" v="islet" />
		<tag k="ssr:stedsnr" v="451138" />
	</node>
	<node lat="63.98348610848033" lon="10.422966668078864" id="-42629">
		<tag k="fixme" v="consider place=hamlet" />
		<tag k="name" v="By" />
		<tag k="place" v="village" />
		<tag k="ssr:stedsnr" v="242114" />
	</node>
	<node lat="63.91996944379127" lon="10.450330559827176" id="-42630">
		<tag k="name" v="Flenstad" />
		<tag k="place" v="farm" />
		<tag k="ssr:stedsnr" v="242127" />
	</node>
	<node lat="64.20886667017163" lon="10.248961102694569" id="-42631">
		<tag k="name" v="Flutaran" />
		<tag k="natural" v="shoal" />
		<tag k="place" v="locality" />
		<tag k="ssr:stedsnr" v="451201" />
	</node>
	<node lat="64.24784721923513" lon="10.181730552300731" id="-42632">
		<tag k="fixme" v="consider seamark:type=rock or natural=shoal" />
		<tag k="name" v="Indre Ertnskjæret" />
		<tag k="place" v="islet" />
		<tag k="ssr:stedsnr" v="452116" />
	</node>
	<node lat="63.92098888739686" lon="9.954619451923039" id="-42633">
		<tag k="name" v="Rørholmen" />
		<tag k="place" v="islet" />
		<tag k="ssr:stedsnr" v="455266" />
	</node>
	<node lat="64.07081944792068" lon="10.141288894709563" id="-42634">
		<tag k="name" v="Lielvneset" />
		<tag k="natural" v="cape" />
		<tag k="ssr:stedsnr" v="455233" />
	</node>
	<node lat="63.92809722350172" lon="10.309644445298671" id="-42635">
		<tag k="name" v="Skjærodden" />
		<tag k="natural" v="cape" />
		<tag k="ssr:stedsnr" v="455042" />
	</node>
	<node lat="64.05229444253816" lon="10.642877786265691" id="-42636">
		<tag k="name" v="Hyttjønnbekken" />
		<tag k="ssr:stedsnr" v="455123" />
		<tag k="waterway" v="stream" />
	</node>
	<node lat="64.07382500034058" lon="10.169325001688627" id="-42637">
		<tag k="name" v="Høghaugen" />
		<tag k="natural" v="hill" />
		<tag k="place" v="locality" />
		<tag k="ssr:stedsnr" v="455137" />
	</node>
	<node lat="64.06831666486312" lon="10.133380560836285" id="-42638">
		<tag k="name" v="Vorphaugen" />
		<tag k="natural" v="hill" />
		<tag k="place" v="locality" />
		<tag k="ssr:stedsnr" v="455140" />
	</node>
	<node lat="63.982163885273664" lon="9.963569452710958" id="-42639">
		<tag k="name" v="Stortaren" />
		<tag k="natural" v="shoal" />
		<tag k="place" v="locality" />
		<tag k="ssr:stedsnr" v="455292" />
	</node>
	<node lat="64.0525611122928" lon="10.639358340326408" id="-42640">
		<tag k="name" v="Hyttjønnesa" />
		<tag k="place" v="locality" />
		<tag k="ssr:stedsnr" v="455431" />
	</node>
	<node lat="63.92758055833476" lon="10.375799995170139" id="-42641">
		<tag k="name" v="Aunmoen" />
		<tag k="place" v="locality" />
		<tag k="ssr:stedsnr" v="455996" />
	</node>
	<node lat="64.18559444415595" lon="10.246222225849408" id="-42642">
		<tag k="name" v="Bjørndalsklumpen" />
		<tag k="natural" v="hill" />
		<tag k="place" v="locality" />
		<tag k="ssr:stedsnr" v="456001" />
	</node>
	<node lat="63.96575833003151" lon="10.291138895424023" id="-42643">
		<tag k="name" v="Øysterlia" />
		<tag k="natural" v="slope" />
		<tag k="place" v="locality" />
		<tag k="ssr:stedsnr" v="456071" />
	</node>
	<node lat="64.2058861138677" lon="10.318669440163722" id="-42644">
		<tag k="name" v="Kroken" />
		<tag k="natural" v="valley" />
		<tag k="place" v="locality" />
		<tag k="ssr:stedsnr" v="456072" />
	</node>
	<node lat="63.95441667004127" lon="10.292391664160924" id="-42645">
		<tag k="name" v="Inner Stakkengholet" />
		<tag k="place" v="locality" />
		<tag k="ssr:stedsnr" v="456073" />
	</node>
	<node lat="64.20505000397944" lon="10.30473610866994" id="-42646">
		<tag k="name" v="Breivollen" />
		<tag k="place" v="locality" />
		<tag k="ssr:stedsnr" v="456074" />
	</node>
	<node lat="64.12699722387222" lon="10.260702786858882" id="-42647">
		<tag k="name" v="Løslimyra" />
		<tag k="natural" v="wetland" />
		<tag k="ssr:stedsnr" v="456075" />
	</node>
	<node lat="64.12573055966998" lon="10.272066668296869" id="-42648">
		<tag k="name" v="Øykvikbakkan" />
		<tag k="place" v="farm" />
		<tag k="ssr:stedsnr" v="456076" />
	</node>
	<node lat="64.1314444479658" lon="10.21408055372555" id="-42649">
		<tag k="name" v="Dalan" />
		<tag k="place" v="farm" />
		<tag k="ssr:stedsnr" v="456082" />
	</node>
	<node lat="63.88043055400828" lon="10.041902771531323" id="-42650">
		<tag k="name" v="Tverrelva" />
		<tag k="ssr:stedsnr" v="456089" />
		<tag k="waterway" v="river" />
	</node>
	<node lat="64.12945555749774" lon="10.254025004487037" id="-42651">
		<tag k="name" v="Aneholbekken" />
		<tag k="ssr:stedsnr" v="456090" />
		<tag k="waterway" v="stream" />
	</node>
	<node lat="64.00408889183554" lon="10.232330556711583" id="-42652">
		<tag k="name" v="Valleraunbekken" />
		<tag k="ssr:stedsnr" v="456092" />
		<tag k="waterway" v="stream" />
	</node>
	<node lat="63.98041111064259" lon="10.687027775008342" id="-42653">
		<tag k="name" v="Moen" />
		<tag k="place" v="locality" />
		<tag k="ssr:stedsnr" v="455384" />
	</node>
	<node lat="63.98049166949896" lon="10.6232638841099" id="-42654">
		<tag k="historic" v="shieling" />
		<tag k="name" v="Harravassliseteren" />
		<tag k="place" v="locality" />
		<tag k="ssr:stedsnr" v="455387" />
	</node>
	<node lat="64.01749722371791" lon="10.449966661674356" id="-42655">
		<tag k="name" v="Sør-Orilldalen" />
		<tag k="natural" v="valley" />
		<tag k="place" v="locality" />
		<tag k="ssr:stedsnr" v="455646" />
	</node>
	<node lat="64.01404722103837" lon="10.451202787397236" id="-42656">
		<tag k="fixme" v="consider natural=peak for the most distinct mountains in the district" />
		<tag k="name" v="Bjørnatåa" />
		<tag k="natural" v="hill" />
		<tag k="place" v="locality" />
		<tag k="ssr:stedsnr" v="455653" />
	</node>
	<node lat="63.98092222350336" lon="10.406963885973676" id="-42657">
		<tag k="name" v="Rundtommen" />
		<tag k="place" v="farm" />
		<tag k="ssr:stedsnr" v="455746" />
	</node>
	<node lat="63.975652774503764" lon="10.39446944408077" id="-42658">
		<tag k="name" v="Olderbakken" />
		<tag k="natural" v="slope" />
		<tag k="place" v="locality" />
		<tag k="ssr:stedsnr" v="455749" />
	</node>
	<node lat="63.967247219351144" lon="10.395161114086719" id="-42659">
		<tag k="name" v="Fregglia" />
		<tag k="natural" v="slope" />
		<tag k="place" v="locality" />
		<tag k="ssr:stedsnr" v="455752" />
	</node>
	<node lat="63.974238889970046" lon="10.427286105639288" id="-42660">
		<tag k="name" v="Øykdalsholet" />
		<tag k="natural" v="valley" />
		<tag k="place" v="locality" />
		<tag k="ssr:stedsnr" v="455755" />
	</node>
	<node lat="63.97865277643395" lon="10.43056667275057" id="-42661">
		<tag k="name" v="Tytberhaugen" />
		<tag k="natural" v="hill" />
		<tag k="place" v="locality" />
		<tag k="ssr:stedsnr" v="455758" />
	</node>
	<node lat="63.99223055238925" lon="10.403019449299649" id="-42662">
		<tag k="name" v="Lauvlimyra" />
		<tag k="natural" v="wetland" />
		<tag k="ssr:stedsnr" v="455771" />
	</node>
	<node lat="64.01257222179744" lon="10.41897778413031" id="-42663">
		<tag k="name" v="Bogen" />
		<tag k="natural" v="bay" />
		<tag k="ssr:stedsnr" v="455655" />
	</node>
	<node lat="63.95665555620836" lon="10.432111113530496" id="-42664">
		<tag k="name" v="Skjettenlimyra" />
		<tag k="natural" v="wetland" />
		<tag k="ssr:stedsnr" v="455810" />
	</node>
	<node lat="63.99776110933919" lon="10.386072228562616" id="-42665">
		<tag k="name" v="Storskardbekken" />
		<tag k="ssr:stedsnr" v="455813" />
		<tag k="waterway" v="stream" />
	</node>
	<node lat="63.99221111120854" lon="10.387952767717866" id="-42666">
		<tag k="name" v="Nordenget" />
		<tag k="natural" v="slope" />
		<tag k="place" v="locality" />
		<tag k="ssr:stedsnr" v="455815" />
	</node>
	<node lat="63.995563892290264" lon="10.416200007417522" id="-42667">
		<tag k="name" v="Trongen" />
		<tag k="natural" v="valley" />
		<tag k="place" v="locality" />
		<tag k="ssr:stedsnr" v="455775" />
	</node>
	<node lat="63.9878777784565" lon="10.385558330324272" id="-42668">
		<tag k="alt_name" v="Staven" />
		<tag k="name" v="Løabakkan" />
		<tag k="place" v="farm" />
		<tag k="ssr:stedsnr" v="455788" />
	</node>
	<node lat="63.97663055908541" lon="10.385797213198435" id="-42669">
		<tag k="name" v="Storreina" />
		<tag k="place" v="locality" />
		<tag k="ssr:stedsnr" v="455796" />
	</node>
	<node lat="64.01432499661435" lon="10.3671027678121" id="-42670">
		<tag k="name" v="Seterlia" />
		<tag k="natural" v="slope" />
		<tag k="place" v="locality" />
		<tag k="ssr:stedsnr" v="455828" />
	</node>
	<node lat="64.02985277638429" lon="10.40591666771797" id="-42671">
		<tag k="name" v="Kvennhushølen" />
		<tag k="place" v="locality" />
		<tag k="ssr:stedsnr" v="455831" />
	</node>
	<node lat="64.00888888505857" lon="10.441041670141" id="-42672">
		<tag k="name" v="Litlvasskogen" />
		<tag k="place" v="locality" />
		<tag k="ssr:stedsnr" v="455842" />
	</node>
	<node lat="64.00067500439566" lon="10.42834166590446" id="-42673">
		<tag k="name" v="Tverråsmyra" />
		<tag k="natural" v="wetland" />
		<tag k="ssr:stedsnr" v="455850" />
	</node>
	<node lat="63.99459722357947" lon="10.359766656699897" id="-42674">
		<tag k="fixme" v="consider natural=peak for the most distinct mountains in the district" />
		<tag k="name" v="Tverrfjellet" />
		<tag k="natural" v="hill" />
		<tag k="place" v="locality" />
		<tag k="ssr:stedsnr" v="455858" />
	</node>
	<node lat="64.18198610729617" lon="10.258241669669461" id="-42675">
		<tag k="name" v="Grasholrova" />
		<tag k="natural" v="valley" />
		<tag k="place" v="locality" />
		<tag k="ssr:stedsnr" v="456035" />
	</node>
	<node lat="64.18786389149743" lon="10.289419450379492" id="-42676">
		<tag k="name" v="Pallen" />
		<tag k="natural" v="slope" />
		<tag k="place" v="locality" />
		<tag k="ssr:stedsnr" v="456038" />
	</node>
	<node lat="63.98906388582437" lon="10.300450008844516" id="-42677">
		<tag k="name" v="Kviturda" />
		<tag k="natural" v="scree" />
		<tag k="ssr:stedsnr" v="456039" />
	</node>
	<node lat="64.24320277765804" lon="10.314669439359603" id="-42678">
		<tag k="name" v="Småhaugan" />
		<tag k="natural" v="hill" />
		<tag k="place" v="locality" />
		<tag k="ssr:stedsnr" v="456046" />
	</node>
	<node lat="63.9555388869618" lon="9.95780555643437" id="-42679">
		<tag k="name" v="Båtvikmoen" />
		<tag k="place" v="locality" />
		<tag k="ssr:stedsnr" v="456049" />
	</node>
	<node lat="63.93163889212953" lon="10.282983326340009" id="-42680">
		<tag k="name" v="Støa" />
		<tag k="place" v="locality" />
		<tag k="ssr:stedsnr" v="456051" />
	</node>
	<node lat="63.94856111501121" lon="9.95434444787952" id="-42681">
		<tag k="name" v="Landingsberget" />
		<tag k="natural" v="hill" />
		<tag k="place" v="locality" />
		<tag k="ssr:stedsnr" v="456052" />
	</node>
	<node lat="64.23516110871641" lon="10.297216663490381" id="-42682">
		<tag k="name" v="Voll" />
		<tag k="place" v="farm" />
		<tag k="ssr:stedsnr" v="456054" />
	</node>
	<node lat="63.90900000375672" lon="10.386247226749852" id="-42683">
		<tag k="name" v="Fosskallhaugen" />
		<tag k="natural" v="hill" />
		<tag k="place" v="locality" />
		<tag k="ssr:stedsnr" v="455930" />
	</node>
	<node lat="63.91200277421471" lon="10.371061100920423" id="-42684">
		<tag k="name" v="Lauvhatten" />
		<tag k="natural" v="hill" />
		<tag k="place" v="locality" />
		<tag k="ssr:stedsnr" v="455937" />
	</node>
	<node lat="63.93101667049645" lon="10.389972224620717" id="-42685">
		<tag k="name" v="Lonmunden" />
		<tag k="natural" v="bay" />
		<tag k="ssr:stedsnr" v="455950" />
	</node>
	<node lat="64.23399166542322" lon="10.299269448905681" id="-42686">
		<tag k="name" v="Langhaugen" />
		<tag k="natural" v="hill" />
		<tag k="place" v="locality" />
		<tag k="ssr:stedsnr" v="456058" />
	</node>
	<node lat="63.98313888875839" lon="10.122927773169025" id="-42687">
		<tag k="name" v="Litlenget" />
		<tag k="place" v="farm" />
		<tag k="ssr:stedsnr" v="456125" />
	</node>
	<node lat="63.972375003029875" lon="10.145677775360143" id="-42688">
		<tag k="name" v="Skarsteinneset" />
		<tag k="natural" v="cape" />
		<tag k="ssr:stedsnr" v="456129" />
	</node>
	<node lat="64.16277221937331" lon="10.315997213327122" id="-42689">
		<tag k="name" v="Johola" />
		<tag k="natural" v="valley" />
		<tag k="place" v="locality" />
		<tag k="ssr:stedsnr" v="456134" />
	</node>
	<node lat="64.1422138868845" lon="10.211916672452595" id="-42690">
		<tag k="name" v="Gylta" />
		<tag k="natural" v="hill" />
		<tag k="place" v="locality" />
		<tag k="ssr:stedsnr" v="456135" />
	</node>
	<node lat="64.13779167070255" lon="10.201497228753354" id="-42691">
		<tag k="name" v="Langøra" />
		<tag k="place" v="farm" />
		<tag k="ssr:stedsnr" v="456143" />
	</node>
	<node lat="64.11462777719055" lon="10.297400002066963" id="-42692">
		<tag k="name" v="Tusstjønna" />
		<tag k="natural" v="water" />
		<tag k="ssr:stedsnr" v="456095" />
	</node>
	<node lat="63.99820000248973" lon="10.239022223065572" id="-42693">
		<tag k="name" v="Tuvbekken" />
		<tag k="ssr:stedsnr" v="456096" />
		<tag k="waterway" v="stream" />
	</node>
	<node lat="63.99700277630733" lon="10.244561113519332" id="-42694">
		<tag k="name" v="Nord-Tuva" />
		<tag k="natural" v="hill" />
		<tag k="place" v="locality" />
		<tag k="ssr:stedsnr" v="456098" />
	</node>
	<node lat="63.95768055471492" lon="9.970930564556312" id="-42695">
		<tag k="name" v="Torvhaugen" />
		<tag k="natural" v="hill" />
		<tag k="place" v="locality" />
		<tag k="ssr:stedsnr" v="456099" />
	</node>
	<node lat="64.0113944475273" lon="10.287122212687468" id="-42696">
		<tag k="name" v="Vassbakkan" />
		<tag k="natural" v="slope" />
		<tag k="place" v="locality" />
		<tag k="ssr:stedsnr" v="456146" />
	</node>
	<node lat="64.1755777809646" lon="10.238452781384709" id="-42697">
		<tag k="name" v="Inner Skardet" />
		<tag k="place" v="farm" />
		<tag k="ssr:stedsnr" v="456147" />
	</node>
	<node lat="64.15346389177869" lon="10.192016667208424" id="-42698">
		<tag k="name" v="Neshammaren" />
		<tag k="natural" v="cape" />
		<tag k="ssr:stedsnr" v="456149" />
	</node>
	<node lat="64.19275278171855" lon="10.416500007874195" id="-42699">
		<tag k="name" v="Strandalia" />
		<tag k="natural" v="slope" />
		<tag k="place" v="locality" />
		<tag k="ssr:stedsnr" v="456153" />
	</node>
	<node lat="64.07439999778916" lon="10.039616662567328" id="-42700">
		<tag k="name" v="Dalsbekken" />
		<tag k="ssr:stedsnr" v="456177" />
		<tag k="waterway" v="stream" />
	</node>
	<node lat="64.16767222359863" lon="10.323469436864634" id="-42701">
		<tag k="name" v="Tveråslia" />
		<tag k="natural" v="slope" />
		<tag k="place" v="locality" />
		<tag k="ssr:stedsnr" v="456178" />
	</node>
	<node lat="64.17560555605561" lon="10.357124998228345" id="-42702">
		<tag k="name" v="Halsan" />
		<tag k="place" v="farm" />
		<tag k="ssr:stedsnr" v="456183" />
	</node>
	<node lat="63.99252221896989" lon="10.152727787394008" id="-42703">
		<tag k="fixme" v="consider natural=peak for the most distinct mountains in the district" />
		<tag k="name" v="Lauvåsen" />
		<tag k="natural" v="hill" />
		<tag k="place" v="locality" />
		<tag k="ssr:stedsnr" v="456184" />
	</node>
	<node lat="63.994780557383976" lon="10.062316657027553" id="-42704">
		<tag k="name" v="Storpermyra" />
		<tag k="natural" v="wetland" />
		<tag k="ssr:stedsnr" v="456191" />
	</node>
	<node lat="63.99090833572891" lon="10.024508333792854" id="-42705">
		<tag k="name" v="Nordheian" />
		<tag k="natural" v="hill" />
		<tag k="place" v="locality" />
		<tag k="ssr:stedsnr" v="456193" />
	</node>
	<node lat="64.17106111331454" lon="10.36555832525378" id="-42706">
		<tag k="name" v="Kikbakkan" />
		<tag k="place" v="farm" />
		<tag k="ssr:stedsnr" v="456194" />
	</node>
	<node lat="63.883469440523854" lon="10.483330565109686" id="-42707">
		<tag k="name" v="Funnetjønna" />
		<tag k="natural" v="water" />
		<tag k="ssr:stedsnr" v="255302" />
	</node>
	<node lat="63.89764166283016" lon="10.536036106098884" id="-42708">
		<tag k="name" v="Gjermundsnova" />
		<tag k="natural" v="hill" />
		<tag k="place" v="locality" />
		<tag k="ssr:stedsnr" v="255313" />
	</node>
	<node lat="63.939202777984555" lon="10.455016662758577" id="-42709">
		<tag k="alt_name" v="Øver Kuhaugen" />
		<tag k="name" v="Kuhaugen" />
		<tag k="natural" v="hill" />
		<tag k="place" v="locality" />
		<tag k="ssr:stedsnr" v="255320" />
	</node>
	<node lat="63.99263333300001" lon="10.00141945287418" id="-42710">
		<tag k="name" v="Vorpvika" />
		<tag k="place" v="locality" />
		<tag k="ssr:stedsnr" v="456198" />
	</node>
	<node lat="64.00519444630167" lon="10.012419444211268" id="-42711">
		<tag k="name" v="Langmyra" />
		<tag k="natural" v="wetland" />
		<tag k="ssr:stedsnr" v="456199" />
	</node>
	<node lat="64.01572500300234" lon="9.933913889326302" id="-42712">
		<tag k="fixme" v="consider natural=peak for the most distinct mountains in the district" />
		<tag k="name" v="Storskutan" />
		<tag k="natural" v="hill" />
		<tag k="place" v="locality" />
		<tag k="ssr:stedsnr" v="456201" />
	</node>
	<node lat="64.10545555861927" lon="10.2189527881157" id="-42713">
		<tag k="name" v="Joskjørodden" />
		<tag k="natural" v="cape" />
		<tag k="ssr:stedsnr" v="456286" />
	</node>
	<node lat="64.169861109863" lon="10.371897225644057" id="-42714">
		<tag k="name" v="Myra" />
		<tag k="place" v="farm" />
		<tag k="ssr:stedsnr" v="456293" />
	</node>
	<node lat="64.16197499694044" lon="10.565272226936312" id="-42715">
		<tag k="name" v="Vakkerkrommen" />
		<tag k="natural" v="slope" />
		<tag k="place" v="locality" />
		<tag k="ssr:stedsnr" v="456296" />
	</node>
	<node lat="63.87584166590103" lon="10.503286115012033" id="-42716">
		<tag k="name" v="Blåtjønna" />
		<tag k="natural" v="water" />
		<tag k="ssr:stedsnr" v="255269" />
	</node>
	<node lat="63.87887500386453" lon="10.503244449758727" id="-42717">
		<tag k="name" v="Gjermundstjønna" />
		<tag k="natural" v="water" />
		<tag k="ssr:stedsnr" v="255270" />
	</node>
	<node lat="63.879783334756894" lon="10.301088893864245" id="-42718">
		<tag k="name" v="Setertjønna" />
		<tag k="natural" v="water" />
		<tag k="ssr:stedsnr" v="255275" />
	</node>
	<node lat="64.22743888892654" lon="10.416661120572408" id="-42719">
		<tag k="name" v="Elgtjønna" />
		<tag k="natural" v="water" />
		<tag k="ssr:stedsnr" v="456230" />
	</node>
	<node lat="63.9473194413843" lon="10.501463883135225" id="-42720">
		<tag k="alt_name" v="Kollilia" />
		<tag k="name" v="Kållia" />
		<tag k="natural" v="slope" />
		<tag k="place" v="locality" />
		<tag k="ssr:stedsnr" v="255373" />
	</node>
	<node lat="63.93241667106343" lon="10.015177771889707" id="-42721">
		<tag k="name" v="Klippfiskberga" />
		<tag k="natural" v="hill" />
		<tag k="place" v="locality" />
		<tag k="ssr:stedsnr" v="456242" />
	</node>
	<node lat="63.9262777792909" lon="10.018083329807936" id="-42722">
		<tag k="name" v="Kråktuva" />
		<tag k="natural" v="hill" />
		<tag k="place" v="locality" />
		<tag k="ssr:stedsnr" v="456243" />
	</node>
	<node lat="63.935413888951764" lon="9.9485055548945" id="-42723">
		<tag k="name" v="Tørresodden" />
		<tag k="natural" v="cape" />
		<tag k="ssr:stedsnr" v="456247" />
	</node>
	<node lat="64.25481666930942" lon="10.34374167696109" id="-42724">
		<tag k="name" v="Bjørgskardet" />
		<tag k="natural" v="valley" />
		<tag k="place" v="locality" />
		<tag k="ssr:stedsnr" v="456248" />
	</node>
	<node lat="64.25991389038046" lon="10.33230556201152" id="-42725">
		<tag k="fixme" v="consider seamark:type=rock or natural=shoal" />
		<tag k="name" v="Løaholmskjæret" />
		<tag k="place" v="islet" />
		<tag k="ssr:stedsnr" v="456251" />
	</node>
	<node lat="64.1460472194215" lon="10.666947225946506" id="-42726">
		<tag k="name" v="Grønlia" />
		<tag k="natural" v="slope" />
		<tag k="place" v="locality" />
		<tag k="ssr:stedsnr" v="456255" />
	</node>
	<node lat="64.12611388687512" lon="10.687366660088959" id="-42727">
		<tag k="name" v="Flåan" />
		<tag k="natural" v="wetland" />
		<tag k="ssr:stedsnr" v="456256" />
	</node>
	<node lat="63.951124997557" lon="9.957580563809696" id="-42728">
		<tag k="name" v="Jakobhaugen" />
		<tag k="natural" v="hill" />
		<tag k="place" v="locality" />
		<tag k="ssr:stedsnr" v="456327" />
	</node>
	<node lat="64.17800000190579" lon="10.514416665647415" id="-42729">
		<tag k="name" v="Kvernhusenget" />
		<tag k="place" v="locality" />
		<tag k="ssr:stedsnr" v="456335" />
	</node>
	<node lat="64.13579444432284" lon="10.538713888899034" id="-42730">
		<tag k="name" v="Lonhaugen" />
		<tag k="natural" v="hill" />
		<tag k="place" v="locality" />
		<tag k="ssr:stedsnr" v="456299" />
	</node>
	<node lat="64.01210555742465" lon="10.067186111396115" id="-42731">
		<tag k="fixme" v="consider place=hamlet" />
		<tag k="name" v="Lauvlia" />
		<tag k="place" v="farm" />
		<tag k="ssr:stedsnr" v="256076" />
	</node>
	<node lat="64.05610278026124" lon="10.583597226444326" id="-42732">
		<tag k="alt_name" v="Haukvassheia, østre;Øyster Haukvassheia" />
		<tag k="fixme" v="consider natural=peak for the most distinct mountains in the district" />
		<tag k="name" v="Østre Haukvassheia" />
		<tag k="natural" v="hill" />
		<tag k="place" v="locality" />
		<tag k="ssr:stedsnr" v="256262" />
	</node>
	<node lat="64.05211944467021" lon="10.523244454565324" id="-42733">
		<tag k="name" v="Svarttjønna" />
		<tag k="natural" v="water" />
		<tag k="ssr:stedsnr" v="256264" />
	</node>
	<node lat="64.1774972242583" lon="10.405905556613218" id="-42734">
		<tag k="name" v="Skardlia" />
		<tag k="natural" v="slope" />
		<tag k="place" v="locality" />
		<tag k="ssr:stedsnr" v="456337" />
	</node>
	<node lat="64.17812221806187" lon="10.560613897947864" id="-42735">
		<tag k="fixme" v="consider natural=peak for the most distinct mountains in the district" />
		<tag k="name" v="Seterrabban" />
		<tag k="natural" v="hill" />
		<tag k="place" v="locality" />
		<tag k="ssr:stedsnr" v="456338" />
	</node>
	<node lat="63.9345694414931" lon="10.082736113249386" id="-42736">
		<tag k="name" v="Øset" />
		<tag k="natural" v="bay" />
		<tag k="ssr:stedsnr" v="456342" />
	</node>
	<node lat="64.02747777763501" lon="10.024833330992148" id="-42737">
		<tag k="name" v="Fleskodden" />
		<tag k="natural" v="cape" />
		<tag k="ssr:stedsnr" v="256111" />
	</node>
	<node lat="63.992788889122885" lon="10.444902784120815" id="-42738">
		<tag k="alt_name" v="Fjellmyr" />
		<tag k="name" v="Fjellmyra" />
		<tag k="place" v="farm" />
		<tag k="ssr:stedsnr" v="256159" />
	</node>
	<node lat="63.98795000195211" lon="10.385294452145915" id="-42739">
		<tag k="name" v="Myrvang" />
		<tag k="place" v="farm" />
		<tag k="ssr:stedsnr" v="256165" />
	</node>
	<node lat="63.98339991465985" lon="10.314381241044659" id="-42740">
		<tag k="fixme" v="consider place=hamlet" />
		<tag k="name" v="Bølsmarka" />
		<tag k="place" v="farm" />
		<tag k="ssr:stedsnr" v="256166" />
	</node>
	<node lat="64.13854167102515" lon="10.24152499465319" id="-42741">
		<tag k="name" v="Nonsfjellvatnet" />
		<tag k="natural" v="water" />
		<tag k="ssr:stedsnr" v="256367" />
	</node>
	<node lat="63.918744440012226" lon="9.913850005631563" id="-42742">
		<tag k="name" v="Landhaugholmen" />
		<tag k="place" v="islet" />
		<tag k="ssr:stedsnr" v="256468" />
	</node>
	<node lat="63.920469441526386" lon="10.199352787755613" id="-42743">
		<tag k="name" v="Skavholheia" />
		<tag k="natural" v="hill" />
		<tag k="place" v="locality" />
		<tag k="ssr:stedsnr" v="256470" />
	</node>
	<node lat="63.92752123591924" lon="10.161348756654178" id="-42744">
		<tag k="fixme" v="consider place=hamlet" />
		<tag k="name" v="Kroken" />
		<tag k="place" v="farm" />
		<tag k="ssr:stedsnr" v="256472" />
	</node>
	<node lat="64.03061111487966" lon="10.51313888983461" id="-42745">
		<tag k="name" v="Melian" />
		<tag k="natural" v="slope" />
		<tag k="place" v="locality" />
		<tag k="ssr:stedsnr" v="456519" />
	</node>
	<node lat="63.948013885591735" lon="10.118586109177658" id="-42746">
		<tag k="fixme" v="consider natural=peak for the most distinct mountains in the district" />
		<tag k="name" v="Kleivafjellet" />
		<tag k="natural" v="hill" />
		<tag k="place" v="locality" />
		<tag k="ssr:stedsnr" v="256507" />
	</node>
	<node lat="64.14844166442649" lon="10.727388895122356" id="-42747">
		<tag k="name" v="Grasvassdalen - Kraesievaajja" />
		<tag k="name:no" v="Grasvassdalen" />
		<tag k="name:sma" v="Kraesievaajja" />
		<tag k="natural" v="valley" />
		<tag k="place" v="locality" />
		<tag k="ssr:stedsnr" v="256558" />
	</node>
	<node lat="63.903267903637335" lon="10.064908053957163" id="-42748">
		<tag k="fixme" v="consider place=hamlet" />
		<tag k="name" v="Brulia" />
		<tag k="place" v="farm" />
		<tag k="ssr:stedsnr" v="256560" />
	</node>
	<node lat="63.896538891266836" lon="10.139597213010834" id="-42749">
		<tag k="name" v="Grovlia" />
		<tag k="natural" v="slope" />
		<tag k="place" v="locality" />
		<tag k="ssr:stedsnr" v="256562" />
	</node>
	<node lat="63.910974999070625" lon="10.081788893180898" id="-42750">
		<tag k="name" v="Keipen" />
		<tag k="natural" v="hill" />
		<tag k="place" v="locality" />
		<tag k="ssr:stedsnr" v="256565" />
	</node>
	<node lat="64.26253889191779" lon="10.304102771404496" id="-42752">
		<tag k="fixme" v="consider place=hamlet" />
		<tag k="name" v="Børøya" />
		<tag k="place" v="farm" />
		<tag k="ssr:stedsnr" v="256577" />
	</node>
	<node lat="64.0145444424902" lon="10.511202781073592" id="-42753">
		<tag k="name" v="Fossenghølen" />
		<tag k="place" v="locality" />
		<tag k="ssr:stedsnr" v="456526" />
	</node>
	<node lat="63.93348611326876" lon="10.085208335027536" id="-42754">
		<tag k="name" v="Staurhaugen" />
		<tag k="natural" v="hill" />
		<tag k="place" v="locality" />
		<tag k="ssr:stedsnr" v="456527" />
	</node>
	<node lat="63.99206666833996" lon="10.45817500507772" id="-42755">
		<tag k="name" v="Klaushølen" />
		<tag k="place" v="locality" />
		<tag k="ssr:stedsnr" v="456529" />
	</node>
	<node lat="63.99059166269766" lon="10.48062499224589" id="-42756">
		<tag k="name" v="Mebekken" />
		<tag k="ssr:stedsnr" v="456531" />
		<tag k="waterway" v="stream" />
	</node>
	<node lat="64.0048555550791" lon="10.505016669075168" id="-42757">
		<tag k="name" v="Sørengholmen" />
		<tag k="place" v="islet" />
		<tag k="ssr:stedsnr" v="456539" />
	</node>
	<node lat="63.91416944865924" lon="10.126905554578844" id="-42758">
		<tag k="name" v="Hamsamtronga" />
		<tag k="natural" v="valley" />
		<tag k="place" v="locality" />
		<tag k="ssr:stedsnr" v="456541" />
	</node>
	<node lat="63.91185277839689" lon="10.130538892286538" id="-42759">
		<tag k="name" v="Loppholfossen" />
		<tag k="natural" v="waterfall" />
		<tag k="ssr:stedsnr" v="456542" />
	</node>
	<node lat="64.00246944479592" lon="10.51654722933881" id="-42760">
		<tag k="name" v="Mebekken" />
		<tag k="ssr:stedsnr" v="456545" />
		<tag k="waterway" v="stream" />
	</node>
	<node lat="64.06336944174932" lon="10.498019435216543" id="-42761">
		<tag k="name" v="Bjørnamyran" />
		<tag k="natural" v="wetland" />
		<tag k="ssr:stedsnr" v="456587" />
	</node>
	<node lat="63.96852500255958" lon="10.170091669833262" id="-42762">
		<tag k="name" v="Holtan" />
		<tag k="place" v="locality" />
		<tag k="ssr:stedsnr" v="456593" />
	</node>
	<node lat="63.979736114031475" lon="10.172077781810133" id="-42763">
		<tag k="name" v="Skogly" />
		<tag k="place" v="farm" />
		<tag k="ssr:stedsnr" v="456595" />
	</node>
	<node lat="64.04197222261656" lon="10.572261117424011" id="-42764">
		<tag k="name" v="Hongdalslia" />
		<tag k="natural" v="slope" />
		<tag k="place" v="locality" />
		<tag k="ssr:stedsnr" v="456599" />
	</node>
	<node lat="64.0974722234752" lon="10.285925003225769" id="-42765">
		<tag k="name" v="Høgloftet" />
		<tag k="natural" v="hill" />
		<tag k="place" v="locality" />
		<tag k="ssr:stedsnr" v="257355" />
	</node>
	<node lat="64.10211111062577" lon="10.579769437458332" id="-42766">
		<tag k="fixme" v="consider natural=peak for the most distinct mountains in the district" />
		<tag k="name" v="Perengheia" />
		<tag k="natural" v="hill" />
		<tag k="place" v="locality" />
		<tag k="ssr:stedsnr" v="257357" />
	</node>
	<node lat="64.10210278063823" lon="10.635249997949794" id="-42767">
		<tag k="name" v="Litlnyvatnet" />
		<tag k="natural" v="water" />
		<tag k="ssr:stedsnr" v="257358" />
	</node>
	<node lat="64.09146944153294" lon="10.46960833226419" id="-42768">
		<tag k="fixme" v="consider natural=peak for the most distinct mountains in the district" />
		<tag k="name" v="Somdalsheia" />
		<tag k="natural" v="hill" />
		<tag k="place" v="locality" />
		<tag k="ssr:stedsnr" v="257367" />
	</node>
	<node lat="63.95928888979946" lon="10.13719167091514" id="-42769">
		<tag k="name" v="Rognlikammen" />
		<tag k="natural" v="ridge" />
		<tag k="place" v="locality" />
		<tag k="ssr:stedsnr" v="456626" />
	</node>
	<node lat="63.92229999689979" lon="10.463916668719106" id="-42770">
		<tag k="name" v="Jodalbekken" />
		<tag k="ssr:stedsnr" v="456627" />
		<tag k="waterway" v="stream" />
	</node>
	<node lat="63.91748889063054" lon="10.457583337467797" id="-42771">
		<tag k="name" v="Dummelbekken" />
		<tag k="ssr:stedsnr" v="456630" />
		<tag k="waterway" v="stream" />
	</node>
	<node lat="64.05042222657845" lon="10.410088889456906" id="-42772">
		<tag k="fixme" v="consider natural=peak for the most distinct mountains in the district" />
		<tag k="name" v="Trollfjellet" />
		<tag k="natural" v="hill" />
		<tag k="place" v="locality" />
		<tag k="ssr:stedsnr" v="456632" />
	</node>
	<node lat="63.9376555561175" lon="10.223163897612036" id="-42773">
		<tag k="alt_name" v="Arnvika" />
		<tag k="name" v="Arnevik" />
		<tag k="place" v="farm" />
		<tag k="ssr:stedsnr" v="456635" />
	</node>
	<node lat="64.08092500247017" lon="10.436536112895814" id="-42774">
		<tag k="name" v="Kjerstiholbekken" />
		<tag k="ssr:stedsnr" v="456636" />
		<tag k="waterway" v="stream" />
	</node>
	<node lat="63.93849444740237" lon="10.210958341773496" id="-42775">
		<tag k="name" v="Aunmarka" />
		<tag k="place" v="locality" />
		<tag k="ssr:stedsnr" v="456638" />
	</node>
	<node lat="63.93729722515074" lon="10.209713887935647" id="-42776">
		<tag k="name" v="Heggbervika" />
		<tag k="natural" v="bay" />
		<tag k="ssr:stedsnr" v="456644" />
	</node>
	<node lat="63.88463610755167" lon="10.226855564714212" id="-42777">
		<tag k="fixme" v="consider natural=peak for the most distinct mountains in the district" />
		<tag k="name" v="Garntrappen" />
		<tag k="natural" v="hill" />
		<tag k="place" v="locality" />
		<tag k="ssr:stedsnr" v="456672" />
	</node>
	<node lat="63.88396389172095" lon="10.231833325970925" id="-42778">
		<tag k="name" v="Svartholsbekken" />
		<tag k="ssr:stedsnr" v="456673" />
		<tag k="waterway" v="stream" />
	</node>
	<node lat="63.896488892213284" lon="10.222166657421191" id="-42779">
		<tag k="name" v="Garrabrekkmyra" />
		<tag k="natural" v="wetland" />
		<tag k="ssr:stedsnr" v="456675" />
	</node>
	<node lat="63.966169444968905" lon="10.48927777393362" id="-42780">
		<tag k="name" v="Larsbukta" />
		<tag k="natural" v="bay" />
		<tag k="ssr:stedsnr" v="456676" />
	</node>
	<node lat="63.96496389218589" lon="10.47126943957943" id="-42781">
		<tag k="name" v="Smånesbekken" />
		<tag k="ssr:stedsnr" v="456686" />
		<tag k="waterway" v="stream" />
	</node>
	<node lat="63.98298332952537" lon="10.473413892817504" id="-42782">
		<tag k="name" v="Bjørnbekken" />
		<tag k="ssr:stedsnr" v="456688" />
		<tag k="waterway" v="stream" />
	</node>
	<node lat="64.2746319433038" lon="9.94801444896543" id="-42783">
		<tag k="name" v="Bårklakken" />
		<tag k="natural" v="shoal" />
		<tag k="place" v="locality" />
		<tag k="ssr:stedsnr" v="257904" />
	</node>
	<node lat="64.28870832949403" lon="10.16097500577571" id="-42784">
		<tag k="name" v="Jonsgrunnen" />
		<tag k="natural" v="shoal" />
		<tag k="place" v="locality" />
		<tag k="ssr:stedsnr" v="257905" />
	</node>
	<node lat="64.27897499934028" lon="10.201666658140148" id="-42785">
		<tag k="name" v="Kleppholman" />
		<tag k="place" v="islet" />
		<tag k="ssr:stedsnr" v="257910" />
	</node>
	<node lat="63.93893055769836" lon="10.202200009395694" id="-42786">
		<tag k="fixme" v="consider natural=peak for the most distinct mountains in the district" />
		<tag k="name" v="Gullhammaren" />
		<tag k="natural" v="hill" />
		<tag k="place" v="locality" />
		<tag k="ssr:stedsnr" v="456645" />
	</node>
	<node lat="63.90687222103862" lon="10.258872228677546" id="-42787">
		<tag k="name" v="Melkåtjønna" />
		<tag k="natural" v="water" />
		<tag k="ssr:stedsnr" v="456648" />
	</node>
	<node lat="64.03526944341132" lon="10.442261101230864" id="-42788">
		<tag k="name" v="Bukkastakkmyra" />
		<tag k="natural" v="wetland" />
		<tag k="ssr:stedsnr" v="456652" />
	</node>
	<node lat="63.90567778080162" lon="10.23343055882145" id="-42789">
		<tag k="name" v="Kvennenget" />
		<tag k="place" v="locality" />
		<tag k="ssr:stedsnr" v="456654" />
	</node>
	<node lat="63.93572499586067" lon="10.558666671968178" id="-42790">
		<tag k="name" v="Tverrlibekken" />
		<tag k="ssr:stedsnr" v="456713" />
		<tag k="waterway" v="stream" />
	</node>
	<node lat="63.909797222281746" lon="10.208463898581812" id="-42791">
		<tag k="fixme" v="consider natural=peak for the most distinct mountains in the district" />
		<tag k="name" v="Jofjellet" />
		<tag k="natural" v="hill" />
		<tag k="place" v="locality" />
		<tag k="ssr:stedsnr" v="456715" />
	</node>
	<node lat="63.944369446276724" lon="10.524238881996478" id="-42792">
		<tag k="name" v="Marenengmyra" />
		<tag k="natural" v="wetland" />
		<tag k="ssr:stedsnr" v="456726" />
	</node>
	<node lat="63.96932499982593" lon="10.202677774241407" id="-42793">
		<tag k="name" v="Lomsenget" />
		<tag k="place" v="farm" />
		<tag k="ssr:stedsnr" v="456728" />
	</node>
	<node lat="63.98271666543647" lon="10.209272224333429" id="-42794">
		<tag k="name" v="Skola" />
		<tag k="place" v="locality" />
		<tag k="ssr:stedsnr" v="456733" />
	</node>
	<node lat="64.1814527781811" lon="10.32348611490515" id="-42795">
		<tag k="fixme" v="consider natural=peak for the most distinct mountains in the district" />
		<tag k="name" v="Storlia" />
		<tag k="natural" v="hill" />
		<tag k="place" v="locality" />
		<tag k="ssr:stedsnr" v="456698" />
	</node>
	<node lat="63.95682222548263" lon="10.213213896557228" id="-42796">
		<tag k="name" v="Furuholmen" />
		<tag k="place" v="locality" />
		<tag k="ssr:stedsnr" v="456700" />
	</node>
	<node lat="64.05415278159275" lon="10.05901111088101" id="-42797">
		<tag k="name" v="Høvikholet" />
		<tag k="natural" v="strait" />
		<tag k="ssr:stedsnr" v="456783" />
	</node>
	<node lat="64.19544250112449" lon="10.571878073961889" id="-42798">
		<tag k="name" v="Holbekkskardtjønna" />
		<tag k="natural" v="water" />
		<tag k="ssr:stedsnr" v="456785" />
	</node>
	<node lat="64.23897222266721" lon="9.989305551309373" id="-42799">
		<tag k="name" v="Værknausen" />
		<tag k="natural" v="shoal" />
		<tag k="place" v="locality" />
		<tag k="ssr:stedsnr" v="257978" />
	</node>
	<node lat="63.95142500039803" lon="10.251341665556442" id="-42800">
		<tag k="name" v="Fjøsdalen" />
		<tag k="natural" v="valley" />
		<tag k="place" v="locality" />
		<tag k="ssr:stedsnr" v="456736" />
	</node>
	<node lat="63.92889166401567" lon="10.471313890933336" id="-42801">
		<tag k="name" v="Kvitkrekkalibekken" />
		<tag k="ssr:stedsnr" v="456738" />
		<tag k="waterway" v="stream" />
	</node>
	<node lat="63.98580555534157" lon="10.207786102594838" id="-42802">
		<tag k="name" v="Hudalin" />
		<tag k="natural" v="slope" />
		<tag k="place" v="locality" />
		<tag k="ssr:stedsnr" v="456741" />
	</node>
	<node lat="64.00523333187884" lon="10.033738886779489" id="-42803">
		<tag k="name" v="Sjåberget" />
		<tag k="natural" v="hill" />
		<tag k="place" v="locality" />
		<tag k="ssr:stedsnr" v="456743" />
	</node>
	<node lat="63.994627777328546" lon="9.994911103853049" id="-42804">
		<tag k="name" v="Bryggvika" />
		<tag k="place" v="locality" />
		<tag k="ssr:stedsnr" v="456860" />
	</node>
	<node lat="64.0404138932272" lon="9.976772216360398" id="-42805">
		<tag k="fixme" v="consider natural=peak for the most distinct mountains in the district" />
		<tag k="name" v="Rotvikhammaren" />
		<tag k="natural" v="hill" />
		<tag k="place" v="locality" />
		<tag k="ssr:stedsnr" v="456806" />
	</node>
	<node lat="64.041024997537" lon="9.98029723097793" id="-42806">
		<tag k="name" v="Guttelvikbekken" />
		<tag k="ssr:stedsnr" v="456807" />
		<tag k="waterway" v="stream" />
	</node>
	<node lat="63.990622221249694" lon="10.01540555691456" id="-42807">
		<tag k="name" v="Grøttingdalen" />
		<tag k="natural" v="valley" />
		<tag k="place" v="locality" />
		<tag k="ssr:stedsnr" v="456866" />
	</node>
	<node lat="63.92068610869932" lon="10.455224999718038" id="-42808">
		<tag k="name" v="Tangstadskravlen" />
		<tag k="natural" v="water" />
		<tag k="ssr:stedsnr" v="456869" />
		<tag k="water" v="lake" />
	</node>
	<node lat="64.03909444835178" lon="10.082127776236344" id="-42809">
		<tag k="name" v="Einbakkan" />
		<tag k="place" v="farm" />
		<tag k="ssr:stedsnr" v="456872" />
	</node>
	<node lat="64.0367333347165" lon="10.07724722568242" id="-42810">
		<tag k="fixme" v="consider natural=peak for the most distinct mountains in the district" />
		<tag k="name" v="Olakleiva" />
		<tag k="natural" v="hill" />
		<tag k="place" v="locality" />
		<tag k="ssr:stedsnr" v="456873" />
	</node>
	<node lat="64.12722222346406" lon="10.129266660575329" id="-42811">
		<tag k="name" v="Sjåbakkan" />
		<tag k="place" v="farm" />
		<tag k="ssr:stedsnr" v="456874" />
	</node>
	<node lat="64.03603611557575" lon="9.896955547164549" id="-42812">
		<tag k="name" v="Laukafjellholet" />
		<tag k="natural" v="valley" />
		<tag k="place" v="locality" />
		<tag k="ssr:stedsnr" v="456824" />
	</node>
	<node lat="64.04193889041328" lon="9.922694442688153" id="-42813">
		<tag k="name" v="Litlsandholmen" />
		<tag k="place" v="islet" />
		<tag k="ssr:stedsnr" v="456834" />
	</node>
	<node lat="64.04384166251377" lon="10.070083328268693" id="-42814">
		<tag k="name" v="Garnbøtaren" />
		<tag k="natural" v="bay" />
		<tag k="ssr:stedsnr" v="456876" />
	</node>
	<node lat="64.12312222525016" lon="10.142658334596304" id="-42815">
		<tag k="name" v="Stinesgården" />
		<tag k="place" v="farm" />
		<tag k="ssr:stedsnr" v="456878" />
	</node>
	<node lat="64.12226110931186" lon="10.14363333724682" id="-42816">
		<tag k="name" v="Bakkan" />
		<tag k="place" v="farm" />
		<tag k="ssr:stedsnr" v="456882" />
	</node>
	<node lat="63.92020277732216" lon="10.414444454196065" id="-42817">
		<tag k="name" v="Myra" />
		<tag k="place" v="locality" />
		<tag k="ssr:stedsnr" v="456885" />
	</node>
	<node lat="63.917688892925334" lon="10.417636112810683" id="-42818">
		<tag k="ford" v="yes" />
		<tag k="name" v="Strandavadet" />
		<tag k="place" v="locality" />
		<tag k="ssr:stedsnr" v="456887" />
	</node>
	<node lat="64.13654166384373" lon="10.170636114256197" id="-42819">
		<tag k="fixme" v="consider natural=peak for the most distinct mountains in the district" />
		<tag k="name" v="Grasfjellet" />
		<tag k="natural" v="hill" />
		<tag k="place" v="locality" />
		<tag k="ssr:stedsnr" v="456888" />
	</node>
	<node lat="64.17167777541938" lon="10.179902777317801" id="-42820">
		<tag k="name" v="Nordvika" />
		<tag k="natural" v="bay" />
		<tag k="ssr:stedsnr" v="456891" />
	</node>
	<node lat="64.14835278030301" lon="10.155511114497646" id="-42821">
		<tag k="name" v="Purkholmen" />
		<tag k="place" v="islet" />
		<tag k="ssr:stedsnr" v="456894" />
	</node>
	<node lat="64.14968889061875" lon="10.146672214065333" id="-42822">
		<tag k="name" v="Skaga" />
		<tag k="natural" v="cape" />
		<tag k="ssr:stedsnr" v="456898" />
	</node>
	<node lat="64.01155277456783" lon="10.03248056328465" id="-42823">
		<tag k="name" v="Fagerskogan" />
		<tag k="place" v="locality" />
		<tag k="ssr:stedsnr" v="456851" />
	</node>
	<node lat="63.99819722980114" lon="9.982942889692062" id="-42824">
		<tag k="name" v="Ingebriktsholman" />
		<tag k="place" v="islet" />
		<tag k="ssr:stedsnr" v="456858" />
	</node>
	<node lat="63.86801388859505" lon="10.306699990308324" id="-42825">
		<tag k="name" v="Måstjønna" />
		<tag k="natural" v="water" />
		<tag k="ssr:stedsnr" v="456910" />
	</node>
	<node lat="64.11343055428712" lon="10.256372217240175" id="-42826">
		<tag k="name" v="Jektstøa" />
		<tag k="natural" v="bay" />
		<tag k="ssr:stedsnr" v="456914" />
	</node>
	<node lat="64.07483611268107" lon="10.027369452551495" id="-42827">
		<tag k="name" v="Gangstøa" />
		<tag k="natural" v="beach" />
		<tag k="ssr:stedsnr" v="456964" />
	</node>
	<node lat="64.04138333139215" lon="10.052211118214458" id="-42828">
		<tag k="name" v="Purkholmstøtta" />
		<tag k="place" v="locality" />
		<tag k="seamark:type" v="rock" />
		<tag k="ssr:stedsnr" v="456968" />
	</node>
	<node lat="64.03639166226337" lon="10.0515111196837" id="-42829">
		<tag k="name" v="St.-Hansklumpen" />
		<tag k="natural" v="hill" />
		<tag k="place" v="locality" />
		<tag k="ssr:stedsnr" v="456971" />
	</node>
	<node lat="64.03404166279198" lon="10.051383337766186" id="-42830">
		<tag k="name" v="Jonasvika" />
		<tag k="natural" v="bay" />
		<tag k="ssr:stedsnr" v="456972" />
	</node>
	<node lat="64.01701666445693" lon="10.063572215046873" id="-42831">
		<tag k="name" v="Gartnesvika" />
		<tag k="natural" v="bay" />
		<tag k="ssr:stedsnr" v="456975" />
	</node>
	<node lat="63.9251083342728" lon="10.445802786811555" id="-42832">
		<tag k="highway" v="path" />
		<tag k="name" v="Steinvegen" />
		<tag k="ssr:stedsnr" v="456979" />
	</node>
	<node lat="63.92726388695691" lon="10.43643611540699" id="-42833">
		<tag k="name" v="Småengan" />
		<tag k="place" v="locality" />
		<tag k="ssr:stedsnr" v="456980" />
	</node>
	<node lat="64.0859916671709" lon="10.034308325993603" id="-42834">
		<tag k="name" v="Løsmannsholet" />
		<tag k="natural" v="bay" />
		<tag k="ssr:stedsnr" v="456981" />
	</node>
	<node lat="63.92394999878728" lon="10.453780556520389" id="-42835">
		<tag k="ford" v="yes" />
		<tag k="name" v="Buvadet" />
		<tag k="place" v="locality" />
		<tag k="ssr:stedsnr" v="456982" />
	</node>
	<node lat="64.08348889082224" lon="10.045933336964522" id="-42836">
		<tag k="name" v="Liaberga" />
		<tag k="natural" v="hill" />
		<tag k="place" v="locality" />
		<tag k="ssr:stedsnr" v="456987" />
	</node>
	<node lat="63.943219446659285" lon="10.410397232044847" id="-42837">
		<tag k="name" v="Avlsgårdsbekken" />
		<tag k="ssr:stedsnr" v="456989" />
		<tag k="waterway" v="stream" />
	</node>
	<node lat="63.88688055891057" lon="10.288355545778465" id="-42838">
		<tag k="name" v="Nordholan" />
		<tag k="natural" v="slope" />
		<tag k="place" v="locality" />
		<tag k="ssr:stedsnr" v="456915" />
	</node>
	<node lat="63.88055555343578" lon="10.289686116960356" id="-42839">
		<tag k="name" v="Månstua" />
		<tag k="natural" v="slope" />
		<tag k="place" v="locality" />
		<tag k="ssr:stedsnr" v="456917" />
	</node>
	<node lat="63.9130194433052" lon="10.402605549704422" id="-42840">
		<tag k="name" v="Saghaugen" />
		<tag k="natural" v="hill" />
		<tag k="place" v="locality" />
		<tag k="ssr:stedsnr" v="456927" />
	</node>
	<node lat="64.05010000451836" lon="10.034352773077991" id="-42841">
		<tag k="name" v="Kromhaugen" />
		<tag k="natural" v="hill" />
		<tag k="place" v="locality" />
		<tag k="ssr:stedsnr" v="456944" />
	</node>
	<node lat="64.04551111417412" lon="10.054649992617616" id="-42842">
		<tag k="name" v="Lusialbukta" />
		<tag k="natural" v="bay" />
		<tag k="ssr:stedsnr" v="456950" />
	</node>
	<node lat="64.03675833757451" lon="10.008036106193517" id="-42843">
		<tag k="fixme" v="consider seamark:type=rock or natural=shoal" />
		<tag k="name" v="Bruraskjæret" />
		<tag k="place" v="islet" />
		<tag k="ssr:stedsnr" v="456954" />
	</node>
	<node lat="63.93564722646825" lon="10.370522221834504" id="-42844">
		<tag k="name" v="Kveldlagaholet" />
		<tag k="natural" v="valley" />
		<tag k="place" v="locality" />
		<tag k="ssr:stedsnr" v="456956" />
	</node>
	<node lat="64.19776666571475" lon="10.295969442120338" id="-42845">
		<tag k="name" v="Haganeset" />
		<tag k="natural" v="cape" />
		<tag k="ssr:stedsnr" v="268077" />
	</node>
	<node lat="64.17027777502823" lon="10.216530554342013" id="-42846">
		<tag k="name" v="Sørvikneset" />
		<tag k="natural" v="cape" />
		<tag k="ssr:stedsnr" v="269102" />
	</node>
	<node lat="63.95552222291222" lon="10.281130551934526" id="-42847">
		<tag k="name" v="Storbotnen" />
		<tag k="place" v="locality" />
		<tag k="ssr:stedsnr" v="273082" />
	</node>
	<node lat="64.0151611126826" lon="10.238636100967241" id="-42848">
		<tag k="name" v="Gammelsetermyra" />
		<tag k="natural" v="wetland" />
		<tag k="ssr:stedsnr" v="273084" />
	</node>
	<node lat="64.01679166803581" lon="10.246488893049111" id="-42849">
		<tag k="name" v="Langtjønna" />
		<tag k="natural" v="water" />
		<tag k="ssr:stedsnr" v="273086" />
	</node>
	<node lat="64.00988055400376" lon="10.217702780630523" id="-42850">
		<tag k="name" v="Rapdalen" />
		<tag k="natural" v="valley" />
		<tag k="place" v="locality" />
		<tag k="ssr:stedsnr" v="273094" />
	</node>
	<node lat="63.96449444309805" lon="9.996488891419185" id="-42851">
		<tag k="name" v="Karskardet" />
		<tag k="natural" v="valley" />
		<tag k="place" v="locality" />
		<tag k="ssr:stedsnr" v="273105" />
	</node>
	<node lat="63.98944999598309" lon="10.223494450263912" id="-42852">
		<tag k="fixme" v="consider natural=peak for the most distinct mountains in the district" />
		<tag k="name" v="Engmyrfjellet" />
		<tag k="natural" v="hill" />
		<tag k="place" v="locality" />
		<tag k="ssr:stedsnr" v="273106" />
	</node>
	<node lat="64.00768055820102" lon="10.19895277235024" id="-42853">
		<tag k="name" v="Svarttjønna" />
		<tag k="natural" v="water" />
		<tag k="ssr:stedsnr" v="273108" />
	</node>
	<node lat="63.976825000387514" lon="10.106419448719592" id="-42854">
		<tag k="name" v="Nordøset" />
		<tag k="natural" v="strait" />
		<tag k="ssr:stedsnr" v="273109" />
	</node>
	<node lat="63.97947500299573" lon="10.106872212261404" id="-42855">
		<tag k="name" v="Gløtten" />
		<tag k="place" v="farm" />
		<tag k="ssr:stedsnr" v="273111" />
	</node>
	<node lat="64.02039167021468" lon="10.2846694526062" id="-42856">
		<tag k="name" v="Runddalen" />
		<tag k="natural" v="valley" />
		<tag k="place" v="locality" />
		<tag k="ssr:stedsnr" v="273123" />
	</node>
	<node lat="64.0240666629026" lon="10.27270554552355" id="-42857">
		<tag k="name" v="Sør Kråvassheia" />
		<tag k="natural" v="hill" />
		<tag k="place" v="locality" />
		<tag k="ssr:stedsnr" v="273127" />
	</node>
	<node lat="63.98844999889662" lon="10.136586118102104" id="-42858">
		<tag k="name" v="Sagbrumyra" />
		<tag k="natural" v="wetland" />
		<tag k="ssr:stedsnr" v="273176" />
	</node>
	<node lat="63.99696944179155" lon="10.15112222829145" id="-42860">
		<tag k="name" v="Storlia" />
		<tag k="natural" v="slope" />
		<tag k="place" v="locality" />
		<tag k="ssr:stedsnr" v="273184" />
	</node>
	<node lat="63.99293333195245" lon="10.175236115349836" id="-42861">
		<tag k="name" v="Dalin" />
		<tag k="natural" v="slope" />
		<tag k="place" v="locality" />
		<tag k="ssr:stedsnr" v="273187" />
	</node>
	<node lat="63.97703333471525" lon="10.614697231371352" id="-42863">
		<tag k="name" v="Steinhaugen" />
		<tag k="natural" v="hill" />
		<tag k="place" v="locality" />
		<tag k="ssr:stedsnr" v="273416" />
	</node>
	<node lat="64.10638055938179" lon="10.550016661210492" id="-42864">
		<tag k="name" v="Langdalsbekken" />
		<tag k="ssr:stedsnr" v="273378" />
		<tag k="waterway" v="stream" />
	</node>
	<node lat="64.10570277882691" lon="10.534658337513525" id="-42865">
		<tag k="name" v="Furuly" />
		<tag k="place" v="farm" />
		<tag k="ssr:stedsnr" v="273382" />
	</node>
	<node lat="64.0286666712593" lon="10.502527768686061" id="-42866">
		<tag k="name" v="Hårkallskogen" />
		<tag k="place" v="locality" />
		<tag k="ssr:stedsnr" v="273511" />
	</node>
	<node lat="63.99403888931299" lon="10.463922229804313" id="-42867">
		<tag k="name" v="Trapphølen" />
		<tag k="place" v="locality" />
		<tag k="ssr:stedsnr" v="273523" />
	</node>
	<node lat="64.06526111463242" lon="10.525652771569243" id="-42868">
		<tag k="name" v="Holman" />
		<tag k="natural" v="wetland" />
		<tag k="ssr:stedsnr" v="273573" />
	</node>
	<node lat="64.05877499549808" lon="10.533933338552623" id="-42869">
		<tag k="name" v="Nyseterlia" />
		<tag k="natural" v="slope" />
		<tag k="place" v="locality" />
		<tag k="ssr:stedsnr" v="273589" />
	</node>
	<node lat="63.95806944585849" lon="10.150422213432982" id="-42870">
		<tag k="fixme" v="consider natural=peak for the most distinct mountains in the district" />
		<tag k="name" v="Loppfjellet" />
		<tag k="natural" v="hill" />
		<tag k="place" v="locality" />
		<tag k="ssr:stedsnr" v="273604" />
	</node>
	<node lat="63.94967500086057" lon="10.118258329200733" id="-42871">
		<tag k="name" v="Skolamyra" />
		<tag k="natural" v="wetland" />
		<tag k="ssr:stedsnr" v="273622" />
	</node>
	<node lat="64.0414694466749" lon="10.556927770870224" id="-42872">
		<tag k="name" v="Bjørnbekkhalsen" />
		<tag k="natural" v="valley" />
		<tag k="place" v="locality" />
		<tag k="ssr:stedsnr" v="273625" />
	</node>
	<node lat="64.01322500152092" lon="10.432772222651195" id="-42873">
		<tag k="name" v="Røyrlidalen" />
		<tag k="natural" v="valley" />
		<tag k="place" v="locality" />
		<tag k="ssr:stedsnr" v="273683" />
	</node>
	<node lat="64.04176111360385" lon="10.390597217154596" id="-42874">
		<tag k="name" v="Elvakrokheian" />
		<tag k="natural" v="hill" />
		<tag k="place" v="locality" />
		<tag k="ssr:stedsnr" v="273684" />
	</node>
	<node lat="64.03038333342485" lon="10.406874994702576" id="-42875">
		<tag k="name" v="Kvennhusbekken" />
		<tag k="ssr:stedsnr" v="273688" />
		<tag k="waterway" v="stream" />
	</node>
	<node lat="64.03584166479753" lon="10.429222214679575" id="-42876">
		<tag k="name" v="Høydalsmoan" />
		<tag k="place" v="locality" />
		<tag k="ssr:stedsnr" v="273691" />
	</node>
	<node lat="63.970877777607335" lon="10.369802772474676" id="-42877">
		<tag k="fixme" v="consider natural=peak for the most distinct mountains in the district" />
		<tag k="name" v="Purkhammaren" />
		<tag k="natural" v="hill" />
		<tag k="place" v="locality" />
		<tag k="ssr:stedsnr" v="273806" />
	</node>
	<node lat="63.975058337012165" lon="10.387027772978861" id="-42878">
		<tag k="name" v="Eliasgården" />
		<tag k="place" v="locality" />
		<tag k="ssr:stedsnr" v="273811" />
	</node>
	<node lat="63.962541669047006" lon="10.403141675961402" id="-42879">
		<tag k="name" v="Uggdalsbekken" />
		<tag k="ssr:stedsnr" v="273814" />
		<tag k="waterway" v="stream" />
	</node>
	<node lat="63.959486112449596" lon="10.425199995125913" id="-42880">
		<tag k="name" v="Ormhaugan" />
		<tag k="natural" v="hill" />
		<tag k="place" v="locality" />
		<tag k="ssr:stedsnr" v="273821" />
	</node>
	<node lat="63.98807777408578" lon="10.405563885262223" id="-42881">
		<tag k="name" v="Liamyra" />
		<tag k="natural" v="wetland" />
		<tag k="ssr:stedsnr" v="273824" />
	</node>
	<node lat="63.99998055676856" lon="10.43039721291083" id="-42882">
		<tag k="fixme" v="consider natural=peak for the most distinct mountains in the district" />
		<tag k="name" v="Tverråsen" />
		<tag k="natural" v="hill" />
		<tag k="place" v="locality" />
		<tag k="ssr:stedsnr" v="273871" />
	</node>
	<node lat="63.996752778161515" lon="10.446325007487706" id="-42883">
		<tag k="name" v="Stormyra" />
		<tag k="natural" v="wetland" />
		<tag k="ssr:stedsnr" v="273876" />
	</node>
	<node lat="63.94663333206452" lon="10.46717500770595" id="-42884">
		<tag k="name" v="Seterlia" />
		<tag k="natural" v="slope" />
		<tag k="place" v="locality" />
		<tag k="ssr:stedsnr" v="273725" />
	</node>
	<node lat="63.97848611232533" lon="10.426055560994762" id="-42885">
		<tag k="name" v="Svaberga" />
		<tag k="natural" v="hill" />
		<tag k="place" v="locality" />
		<tag k="ssr:stedsnr" v="273782" />
	</node>
	<node lat="63.98146388862474" lon="10.419761101490861" id="-42886">
		<tag k="name" v="Skålin" />
		<tag k="place" v="farm" />
		<tag k="ssr:stedsnr" v="273784" />
	</node>
	<node lat="63.97833611452879" lon="10.435588886734358" id="-42887">
		<tag k="fixme" v="consider natural=peak for the most distinct mountains in the district" />
		<tag k="name" v="Strupen" />
		<tag k="natural" v="hill" />
		<tag k="place" v="locality" />
		<tag k="ssr:stedsnr" v="273789" />
	</node>
	<node lat="63.94037777877268" lon="10.407841661882442" id="-42888">
		<tag k="name" v="Oladalen" />
		<tag k="natural" v="valley" />
		<tag k="place" v="locality" />
		<tag k="ssr:stedsnr" v="273914" />
	</node>
	<node lat="63.941347219027016" lon="10.409858342043485" id="-42889">
		<tag k="name" v="Stiberget" />
		<tag k="natural" v="hill" />
		<tag k="place" v="locality" />
		<tag k="ssr:stedsnr" v="273916" />
	</node>
	<node lat="64.19979167057264" lon="10.304255561256438" id="-42890">
		<tag k="name" v="Singsneset" />
		<tag k="natural" v="cape" />
		<tag k="ssr:stedsnr" v="274021" />
	</node>
	<node lat="64.19081666265043" lon="10.278691667395465" id="-42891">
		<tag k="fixme" v="consider natural=peak for the most distinct mountains in the district" />
		<tag k="name" v="Slottsfjellet" />
		<tag k="natural" v="hill" />
		<tag k="place" v="locality" />
		<tag k="ssr:stedsnr" v="274023" />
	</node>
	<node lat="63.9039083360606" lon="9.979763887678795" id="-42892">
		<tag k="name" v="Sandan" />
		<tag k="place" v="locality" />
		<tag k="ssr:stedsnr" v="274024" />
	</node>
	<node lat="64.09757777661596" lon="10.260372221579392" id="-42893">
		<tag k="name" v="Staværingsliheia" />
		<tag k="natural" v="hill" />
		<tag k="place" v="locality" />
		<tag k="ssr:stedsnr" v="274084" />
	</node>
	<node lat="64.18601388751463" lon="10.302919439295305" id="-42894">
		<tag k="name" v="Rapet" />
		<tag k="natural" v="slope" />
		<tag k="place" v="locality" />
		<tag k="ssr:stedsnr" v="274094" />
	</node>
	<node lat="64.16863610973213" lon="10.320724998326897" id="-42895">
		<tag k="fixme" v="consider natural=peak for the most distinct mountains in the district" />
		<tag k="name" v="Tveraslitrappen" />
		<tag k="natural" v="hill" />
		<tag k="place" v="locality" />
		<tag k="ssr:stedsnr" v="274095" />
	</node>
	<node lat="64.23074999822005" lon="10.298702771970465" id="-42896">
		<tag k="name" v="Storhøgda" />
		<tag k="natural" v="hill" />
		<tag k="place" v="locality" />
		<tag k="ssr:stedsnr" v="274203" />
	</node>
	<node lat="63.930066669948985" lon="10.013341663320961" id="-42897">
		<tag k="name" v="Eidemsbukta" />
		<tag k="natural" v="bay" />
		<tag k="ssr:stedsnr" v="274222" />
	</node>
	<node lat="64.15976944045946" lon="10.313488895978491" id="-42898">
		<tag k="name" v="Volibekken" />
		<tag k="ssr:stedsnr" v="274110" />
		<tag k="waterway" v="stream" />
	</node>
	<node lat="64.18817499935166" lon="10.402013882512675" id="-42899">
		<tag k="name" v="Silkehammardalen" />
		<tag k="natural" v="valley" />
		<tag k="place" v="locality" />
		<tag k="ssr:stedsnr" v="274124" />
	</node>
	<node lat="64.00959444641077" lon="9.880744443578331" id="-42900">
		<tag k="fixme" v="consider natural=peak for the most distinct mountains in the district" />
		<tag k="name" v="Oterstokkfjellet" />
		<tag k="natural" v="hill" />
		<tag k="place" v="locality" />
		<tag k="ssr:stedsnr" v="274125" />
	</node>
	<node lat="63.878941664931524" lon="10.227402773455086" id="-42901">
		<tag k="name" v="Hytta" />
		<tag k="place" v="locality" />
		<tag k="ssr:stedsnr" v="274129" />
	</node>
	<node lat="64.1682694465578" lon="10.378280560703384" id="-42902">
		<tag k="fixme" v="consider natural=peak for the most distinct mountains in the district" />
		<tag k="name" v="Middagsfjellet" />
		<tag k="natural" v="hill" />
		<tag k="place" v="locality" />
		<tag k="ssr:stedsnr" v="274170" />
	</node>
	<node lat="64.25122222083944" lon="10.367966669413759" id="-42903">
		<tag k="name" v="Gråsteinbakkan" />
		<tag k="natural" v="slope" />
		<tag k="place" v="locality" />
		<tag k="ssr:stedsnr" v="274177" />
	</node>
	<node lat="63.93296110736061" lon="9.94139722561039" id="-42904">
		<tag k="name" v="Myrheim" />
		<tag k="place" v="farm" />
		<tag k="ssr:stedsnr" v="274179" />
	</node>
	<node lat="63.935968329584306" lon="9.938237820577728" id="-42905">
		<tag k="name" v="Langstranda" />
		<tag k="natural" v="beach" />
		<tag k="ssr:stedsnr" v="274180" />
	</node>
	<node lat="64.26460277496302" lon="10.367380564829345" id="-42906">
		<tag k="fixme" v="consider natural=peak for the most distinct mountains in the district" />
		<tag k="name" v="Skåråsen" />
		<tag k="natural" v="hill" />
		<tag k="place" v="locality" />
		<tag k="ssr:stedsnr" v="274186" />
	</node>
	<node lat="64.15891389292332" lon="10.353808333119916" id="-42907">
		<tag k="landuse" v="meadow" />
		<tag k="name" v="Engan" />
		<tag k="ssr:stedsnr" v="274306" />
	</node>
	<node lat="63.978283330214154" lon="10.105244444452712" id="-42908">
		<tag k="name" v="Sørhaugan" />
		<tag k="natural" v="hill" />
		<tag k="place" v="locality" />
		<tag k="ssr:stedsnr" v="274316" />
	</node>
	<node lat="64.1643222257289" lon="10.403238891059665" id="-42909">
		<tag k="historic" v="shieling" />
		<tag k="name" v="Olvikseteren" />
		<tag k="place" v="locality" />
		<tag k="ssr:stedsnr" v="274321" />
	</node>
	<node lat="64.15653888670423" lon="10.458630559947657" id="-42910">
		<tag k="name" v="Lian" />
		<tag k="natural" v="slope" />
		<tag k="place" v="locality" />
		<tag k="ssr:stedsnr" v="274271" />
	</node>
	<node lat="63.94277778176297" lon="10.245877768469692" id="-42911">
		<tag k="name" v="Stranda" />
		<tag k="natural" v="beach" />
		<tag k="ssr:stedsnr" v="274607" />
	</node>
	<node lat="64.0028111090412" lon="10.037561113559422" id="-42912">
		<tag k="name" v="Fjøshaugen" />
		<tag k="natural" v="hill" />
		<tag k="place" v="locality" />
		<tag k="ssr:stedsnr" v="274725" />
	</node>
	<node lat="63.97259166550863" lon="10.482861115815338" id="-42913">
		<tag k="name" v="Meheia" />
		<tag k="natural" v="hill" />
		<tag k="place" v="locality" />
		<tag k="ssr:stedsnr" v="274670" />
	</node>
	<node lat="64.01952500389837" lon="9.997086102433155" id="-42914">
		<tag k="name" v="Knubbholmen" />
		<tag k="place" v="islet" />
		<tag k="ssr:stedsnr" v="274802" />
	</node>
	<node lat="64.02030555181668" lon="10.01526944217724" id="-42915">
		<tag k="name" v="Haugen" />
		<tag k="place" v="farm" />
		<tag k="ssr:stedsnr" v="274807" />
	</node>
	<node lat="64.03401388818953" lon="10.097550004020313" id="-42916">
		<tag k="fixme" v="consider natural=peak for the most distinct mountains in the district" />
		<tag k="name" v="Gunhildklumpen" />
		<tag k="natural" v="hill" />
		<tag k="place" v="locality" />
		<tag k="ssr:stedsnr" v="274877" />
	</node>
	<node lat="64.11574999670071" lon="10.23376665643066" id="-42917">
		<tag k="name" v="Lian" />
		<tag k="natural" v="slope" />
		<tag k="place" v="locality" />
		<tag k="ssr:stedsnr" v="274880" />
	</node>
	<node lat="64.11106388485483" lon="10.256066663364592" id="-42918">
		<tag k="name" v="Oterstokken" />
		<tag k="natural" v="hill" />
		<tag k="place" v="locality" />
		<tag k="ssr:stedsnr" v="274889" />
	</node>
	<node lat="64.02307222145785" lon="9.91411111295582" id="-42919">
		<tag k="name" v="Volldalsbekken" />
		<tag k="ssr:stedsnr" v="274773" />
		<tag k="waterway" v="stream" />
	</node>
	<node lat="64.10345833657931" lon="10.19029444909556" id="-42920">
		<tag k="name" v="Myllavika" />
		<tag k="natural" v="bay" />
		<tag k="ssr:stedsnr" v="274903" />
	</node>
	<node lat="64.1028027784032" lon="10.193124994126391" id="-42921">
		<tag k="name" v="Nesset" />
		<tag k="place" v="farm" />
		<tag k="ssr:stedsnr" v="274912" />
	</node>
	<node lat="64.11026944872802" lon="10.222358341758401" id="-42922">
		<tag k="name" v="Langdalsbekken" />
		<tag k="ssr:stedsnr" v="274916" />
		<tag k="waterway" v="stream" />
	</node>
	<node lat="64.0353694438127" lon="10.034266661014694" id="-42923">
		<tag k="name" v="Halaklumpen" />
		<tag k="natural" v="hill" />
		<tag k="place" v="locality" />
		<tag k="ssr:stedsnr" v="274920" />
	</node>
	<node lat="64.04478888742786" lon="10.038127768831556" id="-42924">
		<tag k="name" v="Kjerkgården" />
		<tag k="place" v="locality" />
		<tag k="ssr:stedsnr" v="274925" />
	</node>
	<node lat="64.02805277584032" lon="10.090236103369215" id="-42925">
		<tag k="name" v="Rognhaugan" />
		<tag k="natural" v="hill" />
		<tag k="place" v="locality" />
		<tag k="ssr:stedsnr" v="274977" />
	</node>
	<node lat="63.952250001002874" lon="10.0326972251319" id="-42926">
		<tag k="fixme" v="consider seamark:type=rock or natural=shoal" />
		<tag k="name" v="Langskjæret" />
		<tag k="place" v="islet" />
		<tag k="ssr:stedsnr" v="275989" />
	</node>
	<node lat="63.967533330107116" lon="9.990250008913417" id="-42927">
		<tag k="fixme" v="consider place=hamlet" />
		<tag k="name" v="Tørhogg" />
		<tag k="place" v="farm" />
		<tag k="ssr:stedsnr" v="279912" />
	</node>
	<node lat="63.972250003377326" lon="10.080172212988188" id="-42928">
		<tag k="name" v="Morka boligfelt" />
		<tag k="place" v="quarter" />
		<tag k="ssr:stedsnr" v="284021" />
	</node>
	<node lat="63.99014722168961" lon="10.745272220868554" id="-42929">
		<tag k="amenity" v="parking" />
		<tag k="name" v="Skansen parkering" />
		<tag k="ssr:stedsnr" v="301722" />
	</node>
	<node lat="63.91437777543773" lon="10.40588611870442" id="-42930">
		<tag k="amenity" v="parking" />
		<tag k="name" v="Kvennavassveien parkering" />
		<tag k="ssr:stedsnr" v="301725" />
	</node>
	<node lat="63.99158967918065" lon="9.999537737181216" id="-42931">
		<tag k="landuse" v="harbour" />
		<tag k="name" v="Grøttingen småbåthavn" />
		<tag k="seamark:type" v="harbour" />
		<tag k="ssr:stedsnr" v="301735" />
	</node>
	<node lat="64.03574444542961" lon="9.992666676395132" id="-42932">
		<tag k="landuse" v="harbour" />
		<tag k="name" v="Flatholmen småbåthavn" />
		<tag k="seamark:type" v="harbour" />
		<tag k="ssr:stedsnr" v="301745" />
	</node>
	<node lat="63.917994444095555" lon="10.41057223000026" id="-42933">
		<tag k="name" v="Breivollen" />
		<tag k="place" v="farm" />
		<tag k="ssr:stedsnr" v="303171" />
	</node>
	<node lat="64.04524585272266" lon="10.008345047905667" id="-42934">
		<tag k="fixme" v="consider place=hamlet" />
		<tag k="name" v="Harsvika" />
		<tag k="place" v="farm" />
		<tag k="ssr:stedsnr" v="303087" />
	</node>
	<node lat="63.930866822750254" lon="10.159570560518166" id="-42935">
		<tag k="name" v="Kroksneset" />
		<tag k="place" v="farm" />
		<tag k="ssr:stedsnr" v="303209" />
	</node>
	<node lat="64.08855277545189" lon="10.502547228414961" id="-42936">
		<tag k="fixme" v="consider place=hamlet" />
		<tag k="name" v="Momyr" />
		<tag k="place" v="farm" />
		<tag k="ssr:stedsnr" v="464334" />
	</node>
	<node lat="63.95796944840347" lon="10.44253610482901" id="-42937">
		<tag k="name" v="Gildesseteren" />
		<tag k="place" v="isolated_dwelling" />
		<tag k="ssr:stedsnr" v="316404" />
	</node>
	<node lat="63.954958333794345" lon="10.469716670528836" id="-42938">
		<tag k="fixme" v="consider natural=peak for the most distinct mountains in the district" />
		<tag k="name" v="Slættfjellet" />
		<tag k="natural" v="hill" />
		<tag k="place" v="locality" />
		<tag k="ssr:stedsnr" v="316406" />
	</node>
	<node lat="63.94527222548452" lon="10.685941657268744" id="-42939">
		<tag k="name" v="Nedre Sekkalona" />
		<tag k="natural" v="water" />
		<tag k="ssr:stedsnr" v="316419" />
	</node>
	<node lat="63.8532833294586" lon="10.274394448221965" id="-42940">
		<tag k="fixme" v="consider natural=peak for the most distinct mountains in the district" />
		<tag k="name" v="Storfjellet" />
		<tag k="natural" v="hill" />
		<tag k="place" v="locality" />
		<tag k="ssr:stedsnr" v="316302" />
	</node>
	<node lat="63.93132777641781" lon="10.340786118180135" id="-42941">
		<tag k="alt_name" v="Øver Granodden" />
		<tag k="name" v="Granodden" />
		<tag k="natural" v="cape" />
		<tag k="ssr:stedsnr" v="316363" />
	</node>
	<node lat="63.926458334472166" lon="10.295908330475088" id="-42942">
		<tag k="name" v="Osa" />
		<tag k="place" v="farm" />
		<tag k="ssr:stedsnr" v="316397" />
	</node>
	<node lat="63.925027961930496" lon="10.409246585549203" id="-42943">
		<tag k="fixme" v="consider place=hamlet" />
		<tag k="name" v="Morrvollen" />
		<tag k="place" v="farm" />
		<tag k="ssr:stedsnr" v="316400" />
	</node>
	<node lat="63.98625737627557" lon="10.183140913208426" id="-42944">
		<tag k="name" v="Humstad" />
		<tag k="place" v="farm" />
		<tag k="ssr:stedsnr" v="316745" />
	</node>
	<node lat="63.98671666878029" lon="10.178255564599118" id="-42945">
		<tag k="name" v="Humstadsundet" />
		<tag k="natural" v="strait" />
		<tag k="ssr:stedsnr" v="316746" />
	</node>
	<node lat="63.980422224366635" lon="10.01332222956333" id="-42946">
		<tag k="alt_name" v="Viksteinen" />
		<tag k="name" v="Vikstein" />
		<tag k="natural" v="hill" />
		<tag k="place" v="locality" />
		<tag k="ssr:stedsnr" v="316751" />
	</node>
	<node lat="63.984358333392414" lon="9.864269440677202" id="-42947">
		<tag k="fixme" v="consider seamark:type=rock or natural=shoal" />
		<tag k="name" v="Skreiskjæra" />
		<tag k="place" v="islet" />
		<tag k="ssr:stedsnr" v="316754" />
	</node>
	<node lat="63.98649722079392" lon="9.846944442234065" id="-42948">
		<tag k="fixme" v="consider seamark:type=rock or natural=shoal" />
		<tag k="name" v="Maurskjæret" />
		<tag k="place" v="islet" />
		<tag k="ssr:stedsnr" v="316755" />
	</node>
	<node lat="64.20878889100399" lon="10.488850000509071" id="-42949">
		<tag k="name" v="Indre Setervatnet" />
		<tag k="natural" v="water" />
		<tag k="ssr:stedsnr" v="317012" />
		<tag k="water" v="lake" />
	</node>
	<node lat="64.20911667115588" lon="10.302883323687931" id="-42950">
		<tag k="fixme" v="consider natural=peak for the most distinct mountains in the district" />
		<tag k="name" v="Ausa" />
		<tag k="natural" v="hill" />
		<tag k="place" v="locality" />
		<tag k="ssr:stedsnr" v="317016" />
	</node>
	<node lat="64.2298000001764" lon="10.436722216277" id="-42951">
		<tag k="name" v="Nedre Skjærlivatnet" />
		<tag k="natural" v="water" />
		<tag k="ssr:stedsnr" v="317052" />
		<tag k="water" v="lake" />
	</node>
	<node lat="64.11775000164658" lon="9.968116667630955" id="-42952">
		<tag k="name" v="Kjøbenhavneren" />
		<tag k="natural" v="cape" />
		<tag k="ssr:stedsnr" v="317202" />
	</node>
	<node lat="64.1059805511961" lon="9.957672230131115" id="-42953">
		<tag k="name" v="Håkkaflua" />
		<tag k="natural" v="shoal" />
		<tag k="place" v="locality" />
		<tag k="ssr:stedsnr" v="317204" />
	</node>
	<node lat="63.9759555600611" lon="10.479319440353338" id="-42954">
		<tag k="name" v="Litlvatnet" />
		<tag k="natural" v="water" />
		<tag k="ssr:stedsnr" v="317107" />
	</node>
	<node lat="64.05490555707362" lon="10.193077773998397" id="-42955">
		<tag k="name" v="Lielvvatna" />
		<tag k="natural" v="water" />
		<tag k="ssr:stedsnr" v="317109" />
	</node>
	<node lat="63.974952779985834" lon="10.321872218032139" id="-42956">
		<tag k="name" v="Stønesodden" />
		<tag k="natural" v="cape" />
		<tag k="ssr:stedsnr" v="317110" />
	</node>
	<node lat="63.98054444063802" lon="10.362613884882553" id="-42957">
		<tag k="alt_name" v="Langneset" />
		<tag k="name" v="Langnesodden" />
		<tag k="natural" v="cape" />
		<tag k="ssr:stedsnr" v="317111" />
	</node>
</osm>
