<?xml version="1.0" encoding="UTF-8"?>
<osm version="0.6" generator="osmapis">
	<node lat="64.01806388542809" lon="10.418105548886501" id="-79413">
		<tag k="name" v="Stakkenget" />
		<tag k="place" v="locality" />
		<tag k="ssr:stedsnr" v="30675" />
	</node>
	<node lat="63.98108611483418" lon="10.323411101847586" id="-79420">
		<tag k="name" v="Bølsmarkmyran" />
		<tag k="natural" v="wetland" />
		<tag k="ssr:stedsnr" v="31015" />
	</node>
	<node lat="64.19918611072104" lon="10.30914166740269" id="-79421">
		<tag k="name" v="Kjeurda" />
		<tag k="natural" v="scree" />
		<tag k="ssr:stedsnr" v="31020" />
	</node>
	<node lat="64.19358610847654" lon="10.308838880193504" id="-79422">
		<tag k="name" v="Sellikrommen" />
		<tag k="place" v="locality" />
		<tag k="ssr:stedsnr" v="31021" />
	</node>
	<node lat="63.97359721796022" lon="10.125808335653906" id="-79424">
		<tag k="name" v="Stuaholan" />
		<tag k="place" v="locality" />
		<tag k="ssr:stedsnr" v="31102" />
	</node>
	<node lat="64.0115083337457" lon="10.317402774294827" id="-79425">
		<tag k="historic" v="shieling" />
		<tag k="name" v="Gammelseteren" />
		<tag k="place" v="locality" />
		<tag k="ssr:stedsnr" v="31110" />
	</node>
	<node lat="64.15772499638005" lon="10.319874999090713" id="-79426">
		<tag k="historic" v="shieling" />
		<tag k="name" v="Gammelsetervollen" />
		<tag k="place" v="locality" />
		<tag k="ssr:stedsnr" v="31122" />
	</node>
	<node lat="64.19308888635354" lon="10.403024990167756" id="-79432">
		<tag k="name" v="Bommabakkan" />
		<tag k="place" v="locality" />
		<tag k="ssr:stedsnr" v="31180" />
	</node>
	<node lat="64.12415555327416" lon="10.281966675169754" id="-79440">
		<tag k="name" v="Eldingholmyra" />
		<tag k="natural" v="wetland" />
		<tag k="ssr:stedsnr" v="31064" />
	</node>
	<node lat="64.22802500096262" lon="10.337272213333069" id="-79441">
		<tag k="name" v="Hermannslimoen" />
		<tag k="place" v="locality" />
		<tag k="ssr:stedsnr" v="31202" />
	</node>
	<node lat="64.1751277769318" lon="10.469677780917404" id="-79449">
		<tag k="name" v="Storbubukta" />
		<tag k="place" v="locality" />
		<tag k="ssr:stedsnr" v="31265" />
	</node>
	<node lat="63.946566670935745" lon="10.495761109578266" id="-79460">
		<tag k="name" v="Gråfjellkamurda" />
		<tag k="natural" v="scree" />
		<tag k="ssr:stedsnr" v="31565" />
	</node>
	<node lat="64.00480833200477" lon="10.475730547851173" id="-79462">
		<tag k="name" v="Fagerlimyra" />
		<tag k="natural" v="wetland" />
		<tag k="ssr:stedsnr" v="31574" />
	</node>
	<node lat="64.06621111246957" lon="10.496744450774461" id="-79467">
		<tag k="historic" v="shieling" />
		<tag k="name" v="Klingerstolseteren" />
		<tag k="place" v="locality" />
		<tag k="ssr:stedsnr" v="31604" />
	</node>
	<node lat="64.06763888518692" lon="10.488352787418506" id="-79469">
		<tag k="name" v="Slåttamyran" />
		<tag k="natural" v="wetland" />
		<tag k="ssr:stedsnr" v="31613" />
	</node>
	<node lat="63.90190277775208" lon="10.231702780101553" id="-79474">
		<tag k="name" v="Avlsgården" />
		<tag k="place" v="locality" />
		<tag k="ssr:stedsnr" v="31663" />
	</node>
	<node lat="64.01329722074296" lon="10.449358328415467" id="-79475">
		<tag k="name" v="Bjørnatømyra" />
		<tag k="natural" v="wetland" />
		<tag k="ssr:stedsnr" v="31681" />
	</node>
	<node lat="63.994672222927754" lon="10.42041111268403" id="-79479">
		<tag k="name" v="Fjellmyra" />
		<tag k="natural" v="wetland" />
		<tag k="ssr:stedsnr" v="31774" />
	</node>
	<node lat="63.88379722626538" lon="10.04260277767603" id="-79524">
		<tag k="name" v="Oksbåsen" />
		<tag k="place" v="locality" />
		<tag k="ssr:stedsnr" v="74566" />
	</node>
	<node lat="64.07849721897134" lon="10.171766664031924" id="-79552">
		<tag k="name" v="Buvika" />
		<tag k="place" v="locality" />
		<tag k="ssr:stedsnr" v="91140" />
	</node>
	<node lat="63.930319447872016" lon="10.154716664287786" id="-79569">
		<tag k="name" v="Kalvskinnet" />
		<tag k="place" v="locality" />
		<tag k="ssr:stedsnr" v="91532" />
	</node>
	<node lat="63.936077779624334" lon="10.467152783756266" id="-79580">
		<tag k="name" v="Øyster Tjønnmyra" />
		<tag k="natural" v="wetland" />
		<tag k="ssr:stedsnr" v="91769" />
	</node>
	<node lat="64.04759999941342" lon="10.115772218928269" id="-79585">
		<tag k="name" v="Setermarka" />
		<tag k="place" v="locality" />
		<tag k="ssr:stedsnr" v="91916" />
	</node>
	<node lat="63.92556111407138" lon="10.407619452903354" id="-79586">
		<tag k="name" v="Morvoll" />
		<tag k="place" v="locality" />
		<tag k="ssr:stedsnr" v="91917" />
	</node>
	<node lat="64.00816944672017" lon="10.349066663933707" id="-79591">
		<tag k="name" v="Grøthølen" />
		<tag k="natural" v="wetland" />
		<tag k="ssr:stedsnr" v="91869" />
	</node>
	<node lat="64.14900277790068" lon="10.309149998734473" id="-79593">
		<tag k="name" v="Nysetermyran" />
		<tag k="natural" v="wetland" />
		<tag k="ssr:stedsnr" v="92113" />
	</node>
	<node lat="64.11983333688318" lon="10.425838899052463" id="-79774">
		<tag k="name" v="Elgkolva" />
		<tag k="natural" v="wetland" />
		<tag k="ssr:stedsnr" v="152362" />
	</node>
	<node lat="63.91956944117181" lon="10.240544438591474" id="-79779">
		<tag k="name" v="Småråkheian" />
		<tag k="place" v="locality" />
		<tag k="ssr:stedsnr" v="152670" />
	</node>
	<node lat="63.914177778421696" lon="10.24073888048378" id="-79781">
		<tag k="name" v="Flaugamyra" />
		<tag k="natural" v="wetland" />
		<tag k="ssr:stedsnr" v="152672" />
	</node>
	<node lat="64.04299722034655" lon="9.980244435159605" id="-79785">
		<tag k="name" v="Sebbersmyra" />
		<tag k="place" v="locality" />
		<tag k="ssr:stedsnr" v="152819" />
	</node>
	<node lat="64.01246944209427" lon="10.372983327364892" id="-79786">
		<tag k="name" v="Holet" />
		<tag k="place" v="locality" />
		<tag k="ssr:stedsnr" v="152851" />
	</node>
	<node lat="64.02577500156845" lon="10.405013887587677" id="-79792">
		<tag k="historic" v="shieling" />
		<tag k="name" v="Byseteren" />
		<tag k="place" v="locality" />
		<tag k="ssr:stedsnr" v="152706" />
	</node>
	<node lat="63.97231111507247" lon="10.407736111525344" id="-79800">
		<tag k="name" v="Hogstern" />
		<tag k="place" v="locality" />
		<tag k="ssr:stedsnr" v="152769" />
	</node>
	<node lat="64.00380277643629" lon="10.317480563536767" id="-79911">
		<tag k="name" v="Fjellmyra" />
		<tag k="natural" v="wetland" />
		<tag k="ssr:stedsnr" v="213028" />
	</node>
	<node lat="64.1754527758828" lon="10.524397220818866" id="-79922">
		<tag k="name" v="Øyan" />
		<tag k="place" v="locality" />
		<tag k="ssr:stedsnr" v="213285" />
	</node>
	<node lat="64.17235833673061" lon="10.441416661401183" id="-79935">
		<tag k="name" v="Erikenget" />
		<tag k="place" v="locality" />
		<tag k="ssr:stedsnr" v="213333" />
	</node>
	<node lat="63.97993611276481" lon="10.172663890264724" id="-79939">
		<tag k="name" v="Humstadmyran" />
		<tag k="natural" v="wetland" />
		<tag k="ssr:stedsnr" v="213624" />
	</node>
	<node lat="64.04407499567253" lon="10.412127787135294" id="-79942">
		<tag k="name" v="Lonlimyran" />
		<tag k="natural" v="wetland" />
		<tag k="ssr:stedsnr" v="213682" />
	</node>
	<node lat="63.914702775546004" lon="10.244786119138734" id="-79943">
		<tag k="name" v="Gaupbåsen" />
		<tag k="place" v="locality" />
		<tag k="ssr:stedsnr" v="213683" />
	</node>
	<node lat="64.0532916670405" lon="10.032083334835935" id="-79946">
		<tag k="name" v="Langmyra" />
		<tag k="natural" v="wetland" />
		<tag k="ssr:stedsnr" v="213802" />
	</node>
	<node lat="64.05208888996178" lon="10.049230558192411" id="-79950">
		<tag k="name" v="Knubben" />
		<tag k="place" v="locality" />
		<tag k="ssr:stedsnr" v="213814" />
	</node>
	<node lat="63.95047222382282" lon="10.422577778176972" id="-79951">
		<tag k="name" v="Roligholet" />
		<tag k="place" v="locality" />
		<tag k="ssr:stedsnr" v="213827" />
	</node>
	<node lat="63.99325278002565" lon="10.461947227307403" id="-79953">
		<tag k="name" v="Undlenda" />
		<tag k="place" v="locality" />
		<tag k="ssr:stedsnr" v="213580" />
	</node>
	<node lat="63.94683888628865" lon="10.523141668830386" id="-79956">
		<tag k="name" v="Stormyra" />
		<tag k="natural" v="wetland" />
		<tag k="ssr:stedsnr" v="213590" />
	</node>
	<node lat="64.06291110976017" lon="9.947083328366862" id="-79963">
		<tag k="name" v="Nilsmyra" />
		<tag k="natural" v="wetland" />
		<tag k="ssr:stedsnr" v="213786" />
	</node>
	<node lat="63.919102776541195" lon="10.451397222715961" id="-79971">
		<tag k="name" v="Tangstad" />
		<tag k="place" v="locality" />
		<tag k="ssr:stedsnr" v="213877" />
	</node>
	<node lat="63.92409444378881" lon="10.41453055103137" id="-79973">
		<tag k="name" v="Bukta" />
		<tag k="place" v="locality" />
		<tag k="ssr:stedsnr" v="213979" />
	</node>
	<node lat="64.15246944891268" lon="10.377852779842332" id="-79976">
		<tag k="landuse" v="meadow" />
		<tag k="name" v="Kjerringslætta" />
		<tag k="ssr:stedsnr" v="214324" />
	</node>
	<node lat="63.92758055833476" lon="10.375799995170139" id="-79997">
		<tag k="name" v="Aunmoen" />
		<tag k="place" v="locality" />
		<tag k="ssr:stedsnr" v="455996" />
	</node>
	<node lat="63.95441667004127" lon="10.292391664160924" id="-80001">
		<tag k="name" v="Inner Stakkengholet" />
		<tag k="place" v="locality" />
		<tag k="ssr:stedsnr" v="456073" />
	</node>
	<node lat="64.20505000397944" lon="10.30473610866994" id="-80002">
		<tag k="name" v="Breivollen" />
		<tag k="place" v="locality" />
		<tag k="ssr:stedsnr" v="456074" />
	</node>
	<node lat="64.12699722387222" lon="10.260702786858882" id="-80003">
		<tag k="name" v="Løslimyra" />
		<tag k="natural" v="wetland" />
		<tag k="ssr:stedsnr" v="456075" />
	</node>
	<node lat="63.98049166949896" lon="10.6232638841099" id="-80010">
		<tag k="historic" v="shieling" />
		<tag k="name" v="Harravassliseteren" />
		<tag k="place" v="locality" />
		<tag k="ssr:stedsnr" v="455387" />
	</node>
	<node lat="63.99223055238925" lon="10.403019449299649" id="-80018">
		<tag k="name" v="Lauvlimyra" />
		<tag k="natural" v="wetland" />
		<tag k="ssr:stedsnr" v="455771" />
	</node>
	<node lat="63.95665555620836" lon="10.432111113530496" id="-80020">
		<tag k="name" v="Skjettenlimyra" />
		<tag k="natural" v="wetland" />
		<tag k="ssr:stedsnr" v="455810" />
	</node>
	<node lat="63.97663055908541" lon="10.385797213198435" id="-80025">
		<tag k="name" v="Storreina" />
		<tag k="place" v="locality" />
		<tag k="ssr:stedsnr" v="455796" />
	</node>
	<node lat="64.00888888505857" lon="10.441041670141" id="-80028">
		<tag k="name" v="Litlvasskogen" />
		<tag k="place" v="locality" />
		<tag k="ssr:stedsnr" v="455842" />
	</node>
	<node lat="64.00067500439566" lon="10.42834166590446" id="-80029">
		<tag k="name" v="Tverråsmyra" />
		<tag k="natural" v="wetland" />
		<tag k="ssr:stedsnr" v="455850" />
	</node>
	<node lat="63.98906388582437" lon="10.300450008844516" id="-80033">
		<tag k="name" v="Kviturda" />
		<tag k="natural" v="scree" />
		<tag k="ssr:stedsnr" v="456039" />
	</node>
	<node lat="63.93163889212953" lon="10.282983326340009" id="-80036">
		<tag k="name" v="Støa" />
		<tag k="place" v="locality" />
		<tag k="ssr:stedsnr" v="456051" />
	</node>
	<node lat="63.994780557383976" lon="10.062316657027553" id="-80060">
		<tag k="name" v="Storpermyra" />
		<tag k="natural" v="wetland" />
		<tag k="ssr:stedsnr" v="456191" />
	</node>
	<node lat="63.99263333300001" lon="10.00141945287418" id="-80066">
		<tag k="name" v="Vorpvika" />
		<tag k="place" v="locality" />
		<tag k="ssr:stedsnr" v="456198" />
	</node>
	<node lat="64.00519444630167" lon="10.012419444211268" id="-80067">
		<tag k="name" v="Langmyra" />
		<tag k="natural" v="wetland" />
		<tag k="ssr:stedsnr" v="456199" />
	</node>
	<node lat="64.12611388687512" lon="10.687366660088959" id="-80083">
		<tag k="name" v="Flåan" />
		<tag k="natural" v="wetland" />
		<tag k="ssr:stedsnr" v="456256" />
	</node>
	<node lat="64.17800000190579" lon="10.514416665647415" id="-80085">
		<tag k="name" v="Kvernhusenget" />
		<tag k="place" v="locality" />
		<tag k="ssr:stedsnr" v="456335" />
	</node>
	<node lat="64.06336944174932" lon="10.498019435216543" id="-80117">
		<tag k="name" v="Bjørnamyran" />
		<tag k="natural" v="wetland" />
		<tag k="ssr:stedsnr" v="456587" />
	</node>
	<node lat="63.96852500255958" lon="10.170091669833262" id="-80118">
		<tag k="name" v="Holtan" />
		<tag k="place" v="locality" />
		<tag k="ssr:stedsnr" v="456593" />
	</node>
	<node lat="63.93849444740237" lon="10.210958341773496" id="-80131">
		<tag k="name" v="Aunmarka" />
		<tag k="place" v="locality" />
		<tag k="ssr:stedsnr" v="456638" />
	</node>
	<node lat="63.896488892213284" lon="10.222166657421191" id="-80135">
		<tag k="name" v="Garrabrekkmyra" />
		<tag k="natural" v="wetland" />
		<tag k="ssr:stedsnr" v="456675" />
	</node>
	<node lat="64.03526944341132" lon="10.442261101230864" id="-80144">
		<tag k="name" v="Bukkastakkmyra" />
		<tag k="natural" v="wetland" />
		<tag k="ssr:stedsnr" v="456652" />
	</node>
	<node lat="63.90567778080162" lon="10.23343055882145" id="-80145">
		<tag k="name" v="Kvennenget" />
		<tag k="place" v="locality" />
		<tag k="ssr:stedsnr" v="456654" />
	</node>
	<node lat="63.944369446276724" lon="10.524238881996478" id="-80149">
		<tag k="name" v="Marenengmyra" />
		<tag k="natural" v="wetland" />
		<tag k="ssr:stedsnr" v="456726" />
	</node>
	<node lat="63.98271666543647" lon="10.209272224333429" id="-80151">
		<tag k="name" v="Skola" />
		<tag k="place" v="locality" />
		<tag k="ssr:stedsnr" v="456733" />
	</node>
	<node lat="63.92020277732216" lon="10.414444454196065" id="-80174">
		<tag k="name" v="Myra" />
		<tag k="place" v="locality" />
		<tag k="ssr:stedsnr" v="456885" />
	</node>
	<node lat="64.01155277456783" lon="10.03248056328465" id="-80180">
		<tag k="name" v="Fagerskogan" />
		<tag k="place" v="locality" />
		<tag k="ssr:stedsnr" v="456851" />
	</node>
	<node lat="63.92726388695691" lon="10.43643611540699" id="-80190">
		<tag k="name" v="Småengan" />
		<tag k="place" v="locality" />
		<tag k="ssr:stedsnr" v="456980" />
	</node>
	<node lat="63.95552222291222" lon="10.281130551934526" id="-80204">
		<tag k="name" v="Storbotnen" />
		<tag k="place" v="locality" />
		<tag k="ssr:stedsnr" v="273082" />
	</node>
	<node lat="64.0151611126826" lon="10.238636100967241" id="-80205">
		<tag k="name" v="Gammelsetermyra" />
		<tag k="natural" v="wetland" />
		<tag k="ssr:stedsnr" v="273084" />
	</node>
	<node lat="63.98844999889662" lon="10.136586118102104" id="-80215">
		<tag k="name" v="Sagbrumyra" />
		<tag k="natural" v="wetland" />
		<tag k="ssr:stedsnr" v="273176" />
	</node>
	<node lat="64.0286666712593" lon="10.502527768686061" id="-80223">
		<tag k="name" v="Hårkallskogen" />
		<tag k="place" v="locality" />
		<tag k="ssr:stedsnr" v="273511" />
	</node>
	<node lat="64.06526111463242" lon="10.525652771569243" id="-80225">
		<tag k="name" v="Holman" />
		<tag k="natural" v="wetland" />
		<tag k="ssr:stedsnr" v="273573" />
	</node>
	<node lat="63.94967500086057" lon="10.118258329200733" id="-80228">
		<tag k="name" v="Skolamyra" />
		<tag k="natural" v="wetland" />
		<tag k="ssr:stedsnr" v="273622" />
	</node>
	<node lat="63.98807777408578" lon="10.405563885262223" id="-80238">
		<tag k="name" v="Liamyra" />
		<tag k="natural" v="wetland" />
		<tag k="ssr:stedsnr" v="273824" />
	</node>
	<node lat="63.996752778161515" lon="10.446325007487706" id="-80240">
		<tag k="name" v="Stormyra" />
		<tag k="natural" v="wetland" />
		<tag k="ssr:stedsnr" v="273876" />
	</node>
	<node lat="63.9039083360606" lon="9.979763887678795" id="-80249">
		<tag k="name" v="Sandan" />
		<tag k="place" v="locality" />
		<tag k="ssr:stedsnr" v="274024" />
	</node>
	<node lat="63.878941664931524" lon="10.227402773455086" id="-80258">
		<tag k="name" v="Hytta" />
		<tag k="place" v="locality" />
		<tag k="ssr:stedsnr" v="274129" />
	</node>
	<node lat="64.15891389292332" lon="10.353808333119916" id="-80264">
		<tag k="landuse" v="meadow" />
		<tag k="name" v="Engan" />
		<tag k="ssr:stedsnr" v="274306" />
	</node>
	<node lat="64.1643222257289" lon="10.403238891059665" id="-80266">
		<tag k="historic" v="shieling" />
		<tag k="name" v="Olvikseteren" />
		<tag k="place" v="locality" />
		<tag k="ssr:stedsnr" v="274321" />
	</node>
	<node lat="63.992597221489405" lon="10.46643332601476" id="-80354">
		<tag k="name" v="Stormyra" />
		<tag k="natural" v="wetland" />
		<tag k="ssr:stedsnr" v="334148" />
	</node>
	<node lat="63.988236114924774" lon="10.154711105837812" id="-80356">
		<tag k="name" v="Korsbakkmyra" />
		<tag k="natural" v="wetland" />
		<tag k="ssr:stedsnr" v="334156" />
	</node>
	<node lat="64.03271110919906" lon="10.559602775713929" id="-80365">
		<tag k="name" v="Hummelbenken" />
		<tag k="place" v="locality" />
		<tag k="ssr:stedsnr" v="334612" />
	</node>
	<node lat="63.90744166391619" lon="10.095047215723696" id="-80374">
		<tag k="name" v="Øykmarka" />
		<tag k="place" v="locality" />
		<tag k="ssr:stedsnr" v="334515" />
	</node>
	<node lat="64.0365249970994" lon="10.542519449778558" id="-80383">
		<tag k="name" v="Beitstadlimyra" />
		<tag k="natural" v="wetland" />
		<tag k="ssr:stedsnr" v="334598" />
	</node>
	<node lat="63.938652774405114" lon="10.492330563964098" id="-80386">
		<tag k="name" v="Finnkråa" />
		<tag k="place" v="locality" />
		<tag k="ssr:stedsnr" v="334712" />
	</node>
	<node lat="64.01403333250398" lon="10.334769445426486" id="-80390">
		<tag k="name" v="Knoppmyran" />
		<tag k="natural" v="wetland" />
		<tag k="ssr:stedsnr" v="334812" />
	</node>
	<node lat="64.00746944566777" lon="10.377433331837102" id="-80394">
		<tag k="name" v="Råmyra" />
		<tag k="natural" v="wetland" />
		<tag k="ssr:stedsnr" v="334856" />
	</node>
	<node lat="63.986369448926" lon="10.452352781342857" id="-80400">
		<tag k="name" v="Rømmesholmen" />
		<tag k="place" v="locality" />
		<tag k="ssr:stedsnr" v="334744" />
	</node>
	<node lat="63.98441110952093" lon="10.445344449654256" id="-80401">
		<tag k="name" v="Auna" />
		<tag k="place" v="locality" />
		<tag k="ssr:stedsnr" v="334745" />
	</node>
	<node lat="64.13055000321687" lon="10.639280546978048" id="-80421">
		<tag k="name" v="Inner Hallen" />
		<tag k="place" v="locality" />
		<tag k="ssr:stedsnr" v="335354" />
	</node>
	<node lat="64.15248888783772" lon="10.537661101440579" id="-80423">
		<tag k="name" v="Korsmyran" />
		<tag k="natural" v="wetland" />
		<tag k="ssr:stedsnr" v="335743" />
	</node>
	<node lat="64.01758611127573" lon="10.399638889001716" id="-80447">
		<tag k="name" v="Kumyra" />
		<tag k="natural" v="wetland" />
		<tag k="ssr:stedsnr" v="394686" />
	</node>
	<node lat="63.98393888961617" lon="10.385777780343792" id="-80448">
		<tag k="name" v="Stavesmyra" />
		<tag k="natural" v="wetland" />
		<tag k="ssr:stedsnr" v="394803" />
	</node>
	<node lat="63.99125277687835" lon="10.413616657723708" id="-80450">
		<tag k="name" v="Kvennamyra" />
		<tag k="natural" v="wetland" />
		<tag k="ssr:stedsnr" v="394790" />
	</node>
	<node lat="63.967972218598376" lon="10.320452776026189" id="-80457">
		<tag k="name" v="Gammelseterstranda" />
		<tag k="place" v="locality" />
		<tag k="ssr:stedsnr" v="395004" />
	</node>
	<node lat="64.18772500063214" lon="10.29281944431557" id="-80460">
		<tag k="name" v="Ystenget" />
		<tag k="place" v="locality" />
		<tag k="ssr:stedsnr" v="395030" />
	</node>
	<node lat="64.02835278109951" lon="10.31798611183715" id="-80479">
		<tag k="name" v="Nesa" />
		<tag k="natural" v="wetland" />
		<tag k="ssr:stedsnr" v="395136" />
	</node>
	<node lat="64.00466111412533" lon="10.180438880532959" id="-80481">
		<tag k="name" v="Stormyra" />
		<tag k="natural" v="wetland" />
		<tag k="ssr:stedsnr" v="395184" />
	</node>
	<node lat="64.07711111051158" lon="10.467969451973893" id="-80488">
		<tag k="name" v="Perslåtten" />
		<tag k="place" v="locality" />
		<tag k="ssr:stedsnr" v="395589" />
	</node>
	<node lat="63.9110861104067" lon="10.241669438255235" id="-80498">
		<tag k="name" v="Permoen" />
		<tag k="place" v="locality" />
		<tag k="ssr:stedsnr" v="395678" />
	</node>
	<node lat="64.03835555188056" lon="10.09536389697723" id="-80505">
		<tag k="name" v="Innerhagan" />
		<tag k="place" v="locality" />
		<tag k="ssr:stedsnr" v="395910" />
	</node>
	<node lat="63.98718610947895" lon="10.27763889402693" id="-80586">
		<tag k="name" v="Berdalsmyra" />
		<tag k="natural" v="wetland" />
		<tag k="ssr:stedsnr" v="456018" />
	</node>
	<node lat="63.90810833171343" lon="9.962844436367062" id="-80587">
		<tag k="name" v="Selnes" />
		<tag k="place" v="locality" />
		<tag k="ssr:stedsnr" v="456021" />
	</node>
	<node lat="63.92398889081133" lon="10.294566668937044" id="-80605">
		<tag k="name" v="Lendarosa" />
		<tag k="place" v="locality" />
		<tag k="ssr:stedsnr" v="456064" />
	</node>
	<node lat="64.23907500056652" lon="10.384194454118365" id="-80614">
		<tag k="name" v="Setermarka" />
		<tag k="place" v="locality" />
		<tag k="ssr:stedsnr" v="456223" />
	</node>
	<node lat="64.17035832906943" lon="10.573469449540765" id="-80619">
		<tag k="name" v="Revnesa" />
		<tag k="natural" v="wetland" />
		<tag k="ssr:stedsnr" v="456272" />
	</node>
	<node lat="63.95371111535291" lon="10.253344439357367" id="-80625">
		<tag k="name" v="Tyskvegen" />
		<tag k="place" v="locality" />
		<tag k="ssr:stedsnr" v="456166" />
	</node>
	<node lat="63.959230551630824" lon="10.111908332044154" id="-80632">
		<tag k="name" v="Granmoen" />
		<tag k="place" v="locality" />
		<tag k="ssr:stedsnr" v="456609" />
	</node>
	<node lat="63.92147222473144" lon="10.552177786827844" id="-80642">
		<tag k="historic" v="shieling" />
		<tag k="name" v="Skjevilldalsseteren" />
		<tag k="place" v="locality" />
		<tag k="ssr:stedsnr" v="456704" />
	</node>
	<node lat="64.02975787464439" lon="10.475471701424963" id="-80749">
		<tag k="historic" v="shieling" />
		<tag k="name" v="Svartbekkseteren" />
		<tag k="place" v="locality" />
		<tag k="ssr:stedsnr" v="499639" />
	</node>
	<node lat="63.972927774330145" lon="10.305175000206914" id="-80791">
		<tag k="name" v="Lauvstranda" />
		<tag k="place" v="locality" />
		<tag k="ssr:stedsnr" v="516004" />
	</node>
	<node lat="63.98472222177246" lon="10.32348889603082" id="-80792">
		<tag k="name" v="Rabban" />
		<tag k="place" v="locality" />
		<tag k="ssr:stedsnr" v="516011" />
	</node>
	<node lat="63.9604111100497" lon="10.279466656498755" id="-80811">
		<tag k="name" v="Langmyra" />
		<tag k="natural" v="wetland" />
		<tag k="ssr:stedsnr" v="516069" />
	</node>
	<node lat="63.92446944479185" lon="10.156486110020646" id="-80817">
		<tag k="name" v="Kvennmoen" />
		<tag k="place" v="locality" />
		<tag k="ssr:stedsnr" v="516502" />
	</node>
	<node lat="63.99135277794716" lon="10.458780563732772" id="-80824">
		<tag k="name" v="Storøra" />
		<tag k="natural" v="beach" />
		<tag k="ssr:stedsnr" v="516526" />
		<tag k="surface" v="sand" />
	</node>
	<node lat="63.95101667048421" lon="10.515661115232591" id="-80826">
		<tag k="name" v="Hyllvadmyra" />
		<tag k="natural" v="wetland" />
		<tag k="ssr:stedsnr" v="516541" />
	</node>
	<node lat="63.945044447826284" lon="10.218711117062728" id="-80833">
		<tag k="name" v="Vargholet" />
		<tag k="place" v="locality" />
		<tag k="ssr:stedsnr" v="516674" />
	</node>
	<node lat="63.96504444362263" lon="10.418536102312888" id="-80837">
		<tag k="name" v="Botnin" />
		<tag k="place" v="locality" />
		<tag k="ssr:stedsnr" v="516805" />
	</node>
	<node lat="63.978038885659934" lon="10.432366673334812" id="-80838">
		<tag k="name" v="Hoggmyra" />
		<tag k="natural" v="wetland" />
		<tag k="ssr:stedsnr" v="516761" />
	</node>
	<node lat="63.94131944898556" lon="10.359055546930101" id="-80846">
		<tag k="name" v="Buktateigen" />
		<tag k="place" v="locality" />
		<tag k="ssr:stedsnr" v="516938" />
	</node>
	<node lat="64.19588888875437" lon="10.22437221569611" id="-80849">
		<tag k="name" v="Bolkmyran" />
		<tag k="natural" v="wetland" />
		<tag k="ssr:stedsnr" v="517006" />
	</node>
	<node lat="64.15351111450056" lon="10.462158339609347" id="-80863">
		<tag k="name" v="Storholmen" />
		<tag k="place" v="locality" />
		<tag k="ssr:stedsnr" v="517322" />
	</node>
	<node lat="64.12887500397801" lon="10.650166667063962" id="-80864">
		<tag k="name" v="Brøytarmyra" />
		<tag k="natural" v="wetland" />
		<tag k="ssr:stedsnr" v="517265" />
	</node>
	<node lat="64.1809249970279" lon="10.552372220928067" id="-80866">
		<tag k="name" v="Tjønnholet" />
		<tag k="natural" v="wetland" />
		<tag k="ssr:stedsnr" v="517291" />
	</node>
	<node lat="64.00202777454393" lon="10.374988886965689" id="-80904">
		<tag k="name" v="Stavesengan" />
		<tag k="place" v="locality" />
		<tag k="ssr:stedsnr" v="559742" />
	</node>
	<node lat="64.01869444376995" lon="10.269652777268075" id="-80907">
		<tag k="name" v="Grandalsmyran" />
		<tag k="natural" v="wetland" />
		<tag k="ssr:stedsnr" v="559700" />
	</node>
	<node lat="63.9606388883606" lon="10.283958342330333" id="-80926">
		<tag k="name" v="Holtan" />
		<tag k="place" v="locality" />
		<tag k="ssr:stedsnr" v="576058" />
	</node>
	<node lat="64.01576666468947" lon="10.513422220599528" id="-80933">
		<tag k="name" v="Fosshauet" />
		<tag k="place" v="locality" />
		<tag k="ssr:stedsnr" v="576544" />
	</node>
	<node lat="63.941055551537445" lon="10.17048889126201" id="-80934">
		<tag k="name" v="Jutulsenga" />
		<tag k="place" v="locality" />
		<tag k="ssr:stedsnr" v="576560" />
	</node>
	<node lat="63.94598333709057" lon="10.212533341437846" id="-80938">
		<tag k="name" v="Stormyra" />
		<tag k="natural" v="wetland" />
		<tag k="ssr:stedsnr" v="576745" />
	</node>
	<node lat="63.96346110758669" lon="10.206155552327855" id="-80939">
		<tag k="name" v="Flatneset" />
		<tag k="place" v="locality" />
		<tag k="ssr:stedsnr" v="576749" />
	</node>
	<node lat="64.01946389223244" lon="10.416888888142054" id="-80940">
		<tag k="name" v="Setermyra" />
		<tag k="natural" v="wetland" />
		<tag k="ssr:stedsnr" v="576693" />
	</node>
	<node lat="64.02398055610351" lon="10.358866658459885" id="-80944">
		<tag k="historic" v="shieling" />
		<tag k="name" v="Berdalsseteren" />
		<tag k="place" v="locality" />
		<tag k="ssr:stedsnr" v="576853" />
	</node>
	<node lat="63.92120833055173" lon="10.439847214270626" id="-80945">
		<tag k="name" v="Torberheimen" />
		<tag k="place" v="locality" />
		<tag k="ssr:stedsnr" v="576901" />
	</node>
	<node lat="63.982427777210205" lon="10.450138891099067" id="-80953">
		<tag k="name" v="Gildesurda" />
		<tag k="natural" v="scree" />
		<tag k="ssr:stedsnr" v="576795" />
	</node>
	<node lat="63.91913333120518" lon="10.417763894537922" id="-80954">
		<tag k="name" v="Dyrholmen" />
		<tag k="place" v="locality" />
		<tag k="ssr:stedsnr" v="576906" />
	</node>
	<node lat="63.93430000271853" lon="10.4108416635814" id="-80955">
		<tag k="name" v="Myran" />
		<tag k="natural" v="wetland" />
		<tag k="ssr:stedsnr" v="576911" />
	</node>
	<node lat="64.17784444645825" lon="10.529022232057262" id="-80975">
		<tag k="name" v="Kroksdalsmyra" />
		<tag k="natural" v="wetland" />
		<tag k="ssr:stedsnr" v="577356" />
	</node>
	<node lat="63.9873222253439" lon="10.132458324722794" id="-80976">
		<tag k="name" v="Benkmyra" />
		<tag k="natural" v="wetland" />
		<tag k="ssr:stedsnr" v="577357" />
	</node>
	<node lat="64.05809999910927" lon="9.936402783075163" id="-80986">
		<tag k="name" v="Sveinmyra" />
		<tag k="natural" v="wetland" />
		<tag k="ssr:stedsnr" v="577795" />
	</node>
	<node lat="63.92493610877336" lon="10.550116663699391" id="-80988">
		<tag k="name" v="Skjevilldalsmyra" />
		<tag k="natural" v="wetland" />
		<tag k="ssr:stedsnr" v="577746" />
	</node>
	<node lat="63.9611138861276" lon="10.046722231068687" id="-81018">
		<tag k="name" v="Steinråa" />
		<tag k="natural" v="stone" />
		<tag k="ssr:stedsnr" v="698055" />
	</node>
	<node lat="64.04766944378882" lon="10.45781944691698" id="-81021">
		<tag k="name" v="Nordskogen" />
		<tag k="place" v="locality" />
		<tag k="ssr:stedsnr" v="698131" />
	</node>
	<node lat="63.89200833503179" lon="10.076333328157599" id="-81022">
		<tag k="name" v="Bjørnastokkurda" />
		<tag k="natural" v="scree" />
		<tag k="ssr:stedsnr" v="698132" />
	</node>
	<node lat="63.922799996507365" lon="10.17013332407465" id="-81023">
		<tag k="name" v="Stormyra" />
		<tag k="natural" v="wetland" />
		<tag k="ssr:stedsnr" v="698133" />
	</node>
	<node lat="64.01926944013287" lon="10.004905564057154" id="-81027">
		<tag k="landuse" v="meadow" />
		<tag k="name" v="Sandvika" />
		<tag k="ssr:stedsnr" v="698162" />
	</node>
	<node lat="63.91062500133282" lon="10.068369437606497" id="-81037">
		<tag k="name" v="Øver Hekkenget" />
		<tag k="place" v="locality" />
		<tag k="ssr:stedsnr" v="698333" />
	</node>
	<node lat="64.01216110902392" lon="10.281022224238066" id="-81045">
		<tag k="name" v="Imsamyran" />
		<tag k="natural" v="wetland" />
		<tag k="ssr:stedsnr" v="698098" />
	</node>
	<node lat="64.01009444552288" lon="10.283869437713923" id="-81046">
		<tag k="historic" v="shieling" />
		<tag k="name" v="Vassbakkseteren" />
		<tag k="place" v="locality" />
		<tag k="ssr:stedsnr" v="698102" />
	</node>
	<node lat="63.96485278120477" lon="10.641166662713683" id="-81049">
		<tag k="name" v="Søyratellmoen" />
		<tag k="place" v="locality" />
		<tag k="ssr:stedsnr" v="698355" />
	</node>
	<node lat="63.94495556002903" lon="10.632044435286016" id="-81050">
		<tag k="name" v="Litlaunet" />
		<tag k="place" v="locality" />
		<tag k="ssr:stedsnr" v="698360" />
	</node>
	<node lat="63.995108336630985" lon="10.770005547673101" id="-81051">
		<tag k="name" v="Eksingøya" />
		<tag k="place" v="locality" />
		<tag k="ssr:stedsnr" v="698396" />
	</node>
	<node lat="64.02339444006148" lon="10.428208341930523" id="-81067">
		<tag k="name" v="Øykgarden" />
		<tag k="place" v="locality" />
		<tag k="ssr:stedsnr" v="698659" />
	</node>
	<node lat="63.89332777815005" lon="10.224116675379944" id="-81069">
		<tag k="name" v="Garrabrekka" />
		<tag k="place" v="locality" />
		<tag k="ssr:stedsnr" v="698666" />
	</node>
	<node lat="63.97680555565372" lon="10.471783338090498" id="-81073">
		<tag k="name" v="Litlvasskogen" />
		<tag k="place" v="locality" />
		<tag k="ssr:stedsnr" v="698684" />
	</node>
	<node lat="63.93630833742442" lon="10.539838883828542" id="-81079">
		<tag k="name" v="Olderneset" />
		<tag k="place" v="locality" />
		<tag k="ssr:stedsnr" v="698703" />
	</node>
	<node lat="64.00655277693987" lon="10.365002787388825" id="-81100">
		<tag k="name" v="Nordstifjellmyra" />
		<tag k="natural" v="wetland" />
		<tag k="ssr:stedsnr" v="698856" />
	</node>
	<node lat="63.92611111011153" lon="10.37868612088557" id="-81113">
		<tag k="name" v="Litlevjemyra" />
		<tag k="natural" v="wetland" />
		<tag k="ssr:stedsnr" v="698990" />
	</node>
	<node lat="64.13061944808861" lon="10.584394439957874" id="-81128">
		<tag k="name" v="Setermyran" />
		<tag k="natural" v="wetland" />
		<tag k="ssr:stedsnr" v="699235" />
	</node>
	<node lat="64.16576389151338" lon="10.472569437574492" id="-81142">
		<tag k="landuse" v="meadow" />
		<tag k="name" v="Hauknesenget" />
		<tag k="ssr:stedsnr" v="699340" />
	</node>
	<node lat="64.14248610961562" lon="10.562933325676529" id="-81146">
		<tag k="landuse" v="meadow" />
		<tag k="name" v="Litlenget" />
		<tag k="ssr:stedsnr" v="699703" />
	</node>
	<node lat="64.00831666942673" lon="10.234905545869863" id="-81212">
		<tag k="name" v="Stormyra" />
		<tag k="natural" v="wetland" />
		<tag k="ssr:stedsnr" v="637085" />
	</node>
	<node lat="63.96439999975709" lon="9.97595554710609" id="-81213">
		<tag k="name" v="Tårnesmyran" />
		<tag k="natural" v="wetland" />
		<tag k="ssr:stedsnr" v="637086" />
	</node>
	<node lat="63.96618055480763" lon="10.041066659681487" id="-81226">
		<tag k="historic" v="shieling" />
		<tag k="name" v="Kallvollen" />
		<tag k="place" v="locality" />
		<tag k="ssr:stedsnr" v="637334" />
	</node>
	<node lat="63.979049997027644" lon="10.143111109897228" id="-81230">
		<tag k="name" v="Raumyra" />
		<tag k="natural" v="wetland" />
		<tag k="ssr:stedsnr" v="637615" />
	</node>
	<node lat="64.06044166224558" lon="10.542194453399452" id="-81232">
		<tag k="name" v="Kolva" />
		<tag k="place" v="locality" />
		<tag k="ssr:stedsnr" v="637626" />
	</node>
	<node lat="63.94212499667207" lon="10.527572226061132" id="-81245">
		<tag k="name" v="Perlimyra" />
		<tag k="natural" v="wetland" />
		<tag k="ssr:stedsnr" v="637732" />
	</node>
	<node lat="64.04545832994675" lon="9.892580556226731" id="-81252">
		<tag k="name" v="Langmyra" />
		<tag k="natural" v="wetland" />
		<tag k="ssr:stedsnr" v="637819" />
	</node>
	<node lat="63.92961666304189" lon="10.385966670801883" id="-81263">
		<tag k="landuse" v="meadow" />
		<tag k="name" v="Storenget" />
		<tag k="ssr:stedsnr" v="637937" />
	</node>
	<node lat="63.92465555430425" lon="10.450361101335496" id="-81267">
		<tag k="name" v="Kumyra" />
		<tag k="natural" v="wetland" />
		<tag k="ssr:stedsnr" v="637983" />
	</node>
	<node lat="64.14659999640286" lon="10.686919434357248" id="-81314">
		<tag k="name" v="Kjølåkran" />
		<tag k="natural" v="wetland" />
		<tag k="old_name" v="Kjølakran" />
		<tag k="ssr:stedsnr" v="681412" />
	</node>
	<node lat="63.958611114073946" lon="10.009638882465465" id="-81330">
		<tag k="name" v="Otervika" />
		<tag k="place" v="locality" />
		<tag k="ssr:stedsnr" v="698311" />
	</node>
	<node lat="63.88931944712435" lon="10.062411108776018" id="-81331">
		<tag k="name" v="Kammaseteren" />
		<tag k="place" v="locality" />
		<tag k="ssr:stedsnr" v="698319" />
	</node>
	<node lat="63.939694448085135" lon="10.085536105795425" id="-81333">
		<tag k="name" v="Løsmyra" />
		<tag k="natural" v="wetland" />
		<tag k="ssr:stedsnr" v="698504" />
	</node>
	<node lat="64.01566388481042" lon="10.356652771784894" id="-81341">
		<tag k="name" v="Nybuenget" />
		<tag k="place" v="locality" />
		<tag k="ssr:stedsnr" v="698814" />
	</node>
	<node lat="64.00865555773595" lon="9.938916663532822" id="-81342">
		<tag k="name" v="Oksåkeren" />
		<tag k="place" v="locality" />
		<tag k="ssr:stedsnr" v="698819" />
	</node>
	<node lat="63.98670555404202" lon="10.137394434170893" id="-81345">
		<tag k="name" v="Sagkneppa" />
		<tag k="place" v="locality" />
		<tag k="ssr:stedsnr" v="698566" />
	</node>
	<node lat="63.940513885173594" lon="10.493300008813907" id="-81347">
		<tag k="historic" v="shieling" />
		<tag k="name" v="Gammelseteren" />
		<tag k="place" v="locality" />
		<tag k="ssr:stedsnr" v="698720" />
	</node>
	<node lat="63.92440555548812" lon="10.457838897492993" id="-81348">
		<tag k="name" v="Buvadvegen" />
		<tag k="place" v="locality" />
		<tag k="ssr:stedsnr" v="698722" />
	</node>
	<node lat="64.24730833387243" lon="10.40851111880261" id="-81369">
		<tag k="name" v="Bjørnamyra" />
		<tag k="natural" v="wetland" />
		<tag k="ssr:stedsnr" v="699209" />
	</node>
	<node lat="63.91986666555175" lon="10.556213880847723" id="-81396">
		<tag k="alt_name" v="Langløftmyran" />
		<tag k="name" v="Langløftmyra" />
		<tag k="natural" v="wetland" />
		<tag k="ssr:stedsnr" v="741387" />
	</node>
	<node lat="64.08939166991952" lon="10.521116669654957" id="-81398">
		<tag k="name" v="Måmyran" />
		<tag k="natural" v="wetland" />
		<tag k="ssr:stedsnr" v="741402" />
	</node>
	<node lat="64.12371110671273" lon="10.559800008001742" id="-81417">
		<tag k="name" v="Nermyran" />
		<tag k="natural" v="wetland" />
		<tag k="ssr:stedsnr" v="742338" />
	</node>
	<node lat="64.03161666672031" lon="10.378388893302976" id="-81425">
		<tag k="name" v="Slåttamyran" />
		<tag k="natural" v="wetland" />
		<tag k="ssr:stedsnr" v="742682" />
	</node>
	<node lat="63.976644447062085" lon="10.288230565084309" id="-81445">
		<tag k="name" v="Vasstrandurda" />
		<tag k="natural" v="scree" />
		<tag k="ssr:stedsnr" v="759010" />
	</node>
	<node lat="63.979674999309545" lon="10.313972226855393" id="-81448">
		<tag k="name" v="Klokkarmyra" />
		<tag k="natural" v="wetland" />
		<tag k="ssr:stedsnr" v="759019" />
	</node>
	<node lat="64.19801110861987" lon="10.206930547871806" id="-81458">
		<tag k="name" v="Plassan" />
		<tag k="place" v="locality" />
		<tag k="ssr:stedsnr" v="759059" />
	</node>
	<node lat="64.09756666683701" lon="10.534891664883563" id="-81471">
		<tag k="name" v="Langmyra" />
		<tag k="natural" v="wetland" />
		<tag k="ssr:stedsnr" v="759344" />
	</node>
	<node lat="63.979780559230136" lon="10.179447221995202" id="-81484">
		<tag k="name" v="Holbekkmyra" />
		<tag k="natural" v="wetland" />
		<tag k="ssr:stedsnr" v="759602" />
	</node>
	<node lat="64.05149166826297" lon="10.436155556156821" id="-81501">
		<tag k="name" v="Øyklimyran" />
		<tag k="natural" v="wetland" />
		<tag k="ssr:stedsnr" v="759651" />
	</node>
	<node lat="64.04120555970589" lon="10.402744436487579" id="-81552">
		<tag k="name" v="Elvakrokan" />
		<tag k="natural" v="wetland" />
		<tag k="ssr:stedsnr" v="803267" />
	</node>
	<node lat="63.91911388711424" lon="10.29902222745358" id="-81563">
		<tag k="name" v="Neverdalsmyran" />
		<tag k="natural" v="wetland" />
		<tag k="ssr:stedsnr" v="819245" />
	</node>
	<node lat="64.18760277468458" lon="10.30585278486061" id="-81567">
		<tag k="name" v="Nordenget" />
		<tag k="place" v="locality" />
		<tag k="ssr:stedsnr" v="820022" />
	</node>
	<node lat="63.92720555366063" lon="10.060930556024715" id="-81583">
		<tag k="name" v="Stormyra" />
		<tag k="natural" v="wetland" />
		<tag k="ssr:stedsnr" v="820227" />
	</node>
	<node lat="64.12675278114938" lon="10.2040361152454" id="-81585">
		<tag k="name" v="Gammelbrenna" />
		<tag k="natural" v="wetland" />
		<tag k="ssr:stedsnr" v="820286" />
	</node>
	<node lat="63.950816665358225" lon="10.637033338353463" id="-81591">
		<tag k="name" v="Stormyra" />
		<tag k="natural" v="wetland" />
		<tag k="ssr:stedsnr" v="820371" />
	</node>
	<node lat="63.94759722635108" lon="10.64861388837312" id="-81592">
		<tag k="historic" v="shieling" />
		<tag k="name" v="Vester Finnvollen" />
		<tag k="place" v="locality" />
		<tag k="ssr:stedsnr" v="820372" />
	</node>
	<node lat="63.93022222311967" lon="10.590605552053304" id="-81593">
		<tag k="historic" v="shieling" />
		<tag k="name" v="Helmerseteren" />
		<tag k="place" v="locality" />
		<tag k="ssr:stedsnr" v="820381" />
	</node>
	<node lat="64.02990555310237" lon="10.562816661428517" id="-81596">
		<tag k="historic" v="shieling" />
		<tag k="name" v="Buavollen" />
		<tag k="place" v="locality" />
		<tag k="ssr:stedsnr" v="820514" />
	</node>
	<node lat="63.90319166603921" lon="10.106302776122435" id="-81601">
		<tag k="name" v="Skjennstallen" />
		<tag k="place" v="locality" />
		<tag k="ssr:stedsnr" v="820526" />
	</node>
	<node lat="64.06391666618957" lon="10.482655551905616" id="-81604">
		<tag k="landuse" v="meadow" />
		<tag k="name" v="Tørrisenget" />
		<tag k="ssr:stedsnr" v="820605" />
	</node>
	<node lat="64.0324972263472" lon="10.525099991507926" id="-81607">
		<tag k="name" v="Kvennavassmyran" />
		<tag k="natural" v="wetland" />
		<tag k="ssr:stedsnr" v="820611" />
	</node>
	<node lat="64.01527499924164" lon="10.398927784258468" id="-81610">
		<tag k="name" v="Byseterholet" />
		<tag k="place" v="locality" />
		<tag k="ssr:stedsnr" v="820668" />
	</node>
	<node lat="63.94798610940438" lon="10.231225006385618" id="-81613">
		<tag k="name" v="Grova" />
		<tag k="place" v="locality" />
		<tag k="ssr:stedsnr" v="820674" />
	</node>
	<node lat="64.02747272737119" lon="10.395306735909399" id="-81619">
		<tag k="name" v="Nittamarka" />
		<tag k="place" v="locality" />
		<tag k="ssr:stedsnr" v="820813" />
	</node>
	<node lat="63.97600833130415" lon="10.249888890760879" id="-81623">
		<tag k="name" v="Kariholmyra" />
		<tag k="natural" v="wetland" />
		<tag k="ssr:stedsnr" v="820710" />
	</node>
	<node lat="63.98259166704205" lon="10.376030559776682" id="-81625">
		<tag k="name" v="Naustvollen" />
		<tag k="place" v="locality" />
		<tag k="ssr:stedsnr" v="820778" />
	</node>
	<node lat="63.96222777453315" lon="10.290763895801598" id="-81639">
		<tag k="name" v="Sålånesmarka" />
		<tag k="place" v="locality" />
		<tag k="ssr:stedsnr" v="923397" />
	</node>
	<node lat="63.99642500146645" lon="10.381277770223164" id="-81732">
		<tag k="name" v="Skottamyra" />
		<tag k="natural" v="wetland" />
		<tag k="ssr:stedsnr" v="863188" />
	</node>
	<node lat="64.13854444701684" lon="10.304858328317735" id="-81734">
		<tag k="name" v="Sørenget" />
		<tag k="natural" v="wetland" />
		<tag k="ssr:stedsnr" v="863400" />
	</node>
	<node lat="64.02646388889421" lon="10.305905556631227" id="-81759">
		<tag k="historic" v="shieling" />
		<tag k="name" v="Imsåseteren" />
		<tag k="place" v="locality" />
		<tag k="ssr:stedsnr" v="880117" />
	</node>
	<node lat="64.03375000027393" lon="10.46666389887558" id="-81768">
		<tag k="historic" v="shieling" />
		<tag k="name" v="Kråklisetra" />
		<tag k="place" v="locality" />
		<tag k="ssr:stedsnr" v="880512" />
	</node>
	<node lat="64.02177222335465" lon="10.537674992120232" id="-81769">
		<tag k="name" v="Flåttåhølmyran" />
		<tag k="natural" v="wetland" />
		<tag k="ssr:stedsnr" v="880516" />
	</node>
	<node lat="63.97802778170926" lon="10.239091667248072" id="-81779">
		<tag k="name" v="Mikkelmomyra" />
		<tag k="natural" v="wetland" />
		<tag k="ssr:stedsnr" v="880758" />
	</node>
	<node lat="63.96370833762682" lon="10.404519446072898" id="-81793">
		<tag k="name" v="Uggdalsmyran" />
		<tag k="natural" v="wetland" />
		<tag k="ssr:stedsnr" v="880810" />
	</node>
	<node lat="63.99861666319224" lon="10.434772224307254" id="-81799">
		<tag k="name" v="Ytterlimyran" />
		<tag k="natural" v="wetland" />
		<tag k="ssr:stedsnr" v="880865" />
	</node>
	<node lat="63.992794445037696" lon="10.346577781294247" id="-81800">
		<tag k="name" v="Stakkmyra" />
		<tag k="natural" v="wetland" />
		<tag k="ssr:stedsnr" v="880870" />
	</node>
	<node lat="64.1405250015081" lon="10.428783324770636" id="-81808">
		<tag k="name" v="Stormyra" />
		<tag k="natural" v="wetland" />
		<tag k="ssr:stedsnr" v="881304" />
	</node>
	<node lat="64.24289999772378" lon="10.414916668631376" id="-81814">
		<tag k="name" v="Joskogen" />
		<tag k="place" v="locality" />
		<tag k="ssr:stedsnr" v="881208" />
	</node>
	<node lat="63.891041670169805" lon="10.219127780797415" id="-81827">
		<tag k="name" v="Øver Garrabrekka" />
		<tag k="natural" v="wetland" />
		<tag k="ssr:stedsnr" v="881668" />
	</node>
	<node lat="63.94941389029" lon="10.666252787339003" id="-81828">
		<tag k="name" v="Stakkenget" />
		<tag k="place" v="locality" />
		<tag k="ssr:stedsnr" v="881360" />
	</node>
	<node lat="64.18265277969324" lon="10.424480550316458" id="-81862">
		<tag k="name" v="Nilsengmyra" />
		<tag k="natural" v="wetland" />
		<tag k="ssr:stedsnr" v="924445" />
	</node>
	<node lat="64.02943888836379" lon="10.559324995637697" id="-81870">
		<tag k="name" v="Trånnåmyra" />
		<tag k="natural" v="wetland" />
		<tag k="ssr:stedsnr" v="924670" />
	</node>
	<node lat="63.91812222397341" lon="10.271783335823438" id="-81997">
		<tag k="name" v="Tungskola" />
		<tag k="place" v="locality" />
		<tag k="ssr:stedsnr" v="31031" />
	</node>
	<node lat="64.15372777516944" lon="10.353569436696676" id="-82034">
		<tag k="historic" v="shieling" />
		<tag k="name" v="Setervollen" />
		<tag k="place" v="locality" />
		<tag k="ssr:stedsnr" v="31328" />
	</node>
	<node lat="64.12448333253337" lon="10.573836104582835" id="-82036">
		<tag k="historic" v="shieling" />
		<tag k="name" v="Vestervollen" />
		<tag k="place" v="locality" />
		<tag k="ssr:stedsnr" v="31331" />
	</node>
	<node lat="63.98109999706111" lon="10.64802221546062" id="-82041">
		<tag k="name" v="Gammeltømtet" />
		<tag k="place" v="locality" />
		<tag k="ssr:stedsnr" v="31390" />
	</node>
	<node lat="64.03914444104659" lon="10.606397225325548" id="-82055">
		<tag k="name" v="Grovahaugmyra" />
		<tag k="natural" v="wetland" />
		<tag k="ssr:stedsnr" v="31432" />
	</node>
	<node lat="63.922563886402706" lon="10.14884167594583" id="-82058">
		<tag k="name" v="Ørlikleiva" />
		<tag k="place" v="locality" />
		<tag k="ssr:stedsnr" v="31546" />
	</node>
	<node lat="64.0645305533153" lon="10.425658339711191" id="-82065">
		<tag k="historic" v="shieling" />
		<tag k="name" v="Trolldalsseteren" />
		<tag k="place" v="locality" />
		<tag k="ssr:stedsnr" v="31653" />
	</node>
	<node lat="64.04936110758251" lon="10.379205560361482" id="-82066">
		<tag k="historic" v="shieling" />
		<tag k="name" v="Litlseteren" />
		<tag k="place" v="locality" />
		<tag k="ssr:stedsnr" v="31655" />
	</node>
	<node lat="63.94472222672094" lon="10.533083323858062" id="-82068">
		<tag k="name" v="Gildesaunet" />
		<tag k="place" v="locality" />
		<tag k="ssr:stedsnr" v="31736" />
	</node>
	<node lat="63.93113333491483" lon="10.355672230916666" id="-82080">
		<tag k="name" v="Sommerhagen" />
		<tag k="place" v="locality" />
		<tag k="ssr:stedsnr" v="31987" />
	</node>
	<node lat="63.99450555241759" lon="10.451652776565997" id="-82083">
		<tag k="name" v="Øyster Tømmerloppet" />
		<tag k="place" v="locality" />
		<tag k="ssr:stedsnr" v="31849" />
	</node>
	<node lat="64.02202777992339" lon="10.053227788059955" id="-82084">
		<tag k="name" v="Aunet" />
		<tag k="place" v="locality" />
		<tag k="ssr:stedsnr" v="31853" />
	</node>
	<node lat="63.93075833431819" lon="10.364277768610181" id="-82110">
		<tag k="name" v="Stormyra" />
		<tag k="natural" v="wetland" />
		<tag k="ssr:stedsnr" v="73314" />
	</node>
	<node lat="64.16040732953263" lon="10.312010370035027" id="-82150">
		<tag k="historic" v="shieling" />
		<tag k="name" v="Einarsdalsseteren" />
		<tag k="place" v="locality" />
		<tag k="ssr:stedsnr" v="74427" />
	</node>
	<node lat="64.16999999600101" lon="10.67060277880083" id="-82188">
		<tag k="name" v="Elgsjømyran" />
		<tag k="natural" v="wetland" />
		<tag k="ssr:stedsnr" v="75474" />
	</node>
	<node lat="63.99748611282365" lon="10.197536100988732" id="-82206">
		<tag k="name" v="Granmarka" />
		<tag k="place" v="locality" />
		<tag k="ssr:stedsnr" v="91095" />
	</node>
	<node lat="64.02549722513746" lon="10.021949993975626" id="-82209">
		<tag k="name" v="Kovven" />
		<tag k="place" v="locality" />
		<tag k="ssr:stedsnr" v="91188" />
	</node>
	<node lat="64.06509166353544" lon="10.123894451558314" id="-82213">
		<tag k="name" v="Kjerkvika" />
		<tag k="place" v="locality" />
		<tag k="ssr:stedsnr" v="91211" />
	</node>
	<node lat="63.924522218178915" lon="10.324886106681868" id="-82227">
		<tag k="historic" v="shieling" />
		<tag k="name" v="Petter Osa-seteren" />
		<tag k="place" v="locality" />
		<tag k="ssr:stedsnr" v="91037" />
	</node>
	<node lat="63.947411107229804" lon="10.27439722358757" id="-82232">
		<tag k="historic" v="shieling" />
		<tag k="name" v="Arnevikseteren" />
		<tag k="place" v="locality" />
		<tag k="ssr:stedsnr" v="91061" />
	</node>
	<node lat="64.02789722274797" lon="10.081811104002107" id="-82236">
		<tag k="name" v="Myran" />
		<tag k="place" v="locality" />
		<tag k="ssr:stedsnr" v="91162" />
	</node>
	<node lat="63.945677777741736" lon="10.343977770692552" id="-82244">
		<tag k="name" v="Seterholet" />
		<tag k="place" v="locality" />
		<tag k="ssr:stedsnr" v="91246" />
	</node>
	<node lat="63.97550555977535" lon="10.413655553194596" id="-82248">
		<tag k="name" v="Krekkan" />
		<tag k="place" v="locality" />
		<tag k="ssr:stedsnr" v="91790" />
	</node>
	<node lat="63.97044722443139" lon="10.115136108661819" id="-82257">
		<tag k="name" v="Stormyra" />
		<tag k="natural" v="wetland" />
		<tag k="ssr:stedsnr" v="91398" />
	</node>
	<node lat="63.95410555274202" lon="10.188819439116287" id="-82258">
		<tag k="name" v="Jovika" />
		<tag k="place" v="locality" />
		<tag k="ssr:stedsnr" v="91408" />
	</node>
	<node lat="64.07839444772688" lon="10.490172227101832" id="-82264">
		<tag k="historic" v="shieling" />
		<tag k="name" v="Storbuengvollen" />
		<tag k="place" v="locality" />
		<tag k="ssr:stedsnr" v="91596" />
	</node>
	<node lat="64.08303055833198" lon="10.49738610423374" id="-82265">
		<tag k="name" v="Krekkan" />
		<tag k="place" v="locality" />
		<tag k="ssr:stedsnr" v="91597" />
	</node>
	<node lat="63.99324444597766" lon="10.46960000023754" id="-82271">
		<tag k="name" v="Storgropen" />
		<tag k="place" v="locality" />
		<tag k="ssr:stedsnr" v="91550" />
	</node>
	<node lat="63.98963055413404" lon="10.469827773400597" id="-82272">
		<tag k="name" v="Novin" />
		<tag k="place" v="locality" />
		<tag k="ssr:stedsnr" v="91551" />
	</node>
	<node lat="64.0636555524923" lon="10.474100008815817" id="-82276">
		<tag k="name" v="Åsmyra" />
		<tag k="natural" v="wetland" />
		<tag k="ssr:stedsnr" v="91625" />
	</node>
	<node lat="64.02206944212494" lon="10.451694436841382" id="-82282">
		<tag k="historic" v="shieling" />
		<tag k="name" v="Leikseteren" />
		<tag k="place" v="locality" />
		<tag k="ssr:stedsnr" v="91690" />
	</node>
	<node lat="63.89450277730321" lon="10.06845833540839" id="-82284">
		<tag k="name" v="Slåtturda" />
		<tag k="natural" v="scree" />
		<tag k="ssr:stedsnr" v="91733" />
	</node>
	<node lat="63.915655555851195" lon="10.231502781233566" id="-82288">
		<tag k="name" v="Storurda" />
		<tag k="natural" v="scree" />
		<tag k="ssr:stedsnr" v="91747" />
	</node>
	<node lat="63.94106110814908" lon="10.53581945256199" id="-82290">
		<tag k="name" v="Langaunet" />
		<tag k="place" v="locality" />
		<tag k="ssr:stedsnr" v="91755" />
	</node>
	<node lat="63.94030833446998" lon="10.484627775330638" id="-82291">
		<tag k="name" v="Gråfjellmyra" />
		<tag k="natural" v="wetland" />
		<tag k="ssr:stedsnr" v="91760" />
	</node>
	<node lat="64.1948611147215" lon="10.430247215045132" id="-82309">
		<tag k="name" v="Tjukkbaret" />
		<tag k="natural" v="wetland" />
		<tag k="ssr:stedsnr" v="92129" />
	</node>
	<node lat="64.19473889189904" lon="10.359733324732574" id="-82310">
		<tag k="name" v="Brekka" />
		<tag k="place" v="locality" />
		<tag k="ssr:stedsnr" v="92136" />
	</node>
	<node lat="64.1094555557098" lon="10.2018472223659" id="-82337">
		<tag k="name" v="Moen" />
		<tag k="place" v="locality" />
		<tag k="ssr:stedsnr" v="92908" />
	</node>
	<node lat="63.943944449027974" lon="10.235374991615208" id="-82341">
		<tag k="name" v="Langmyra" />
		<tag k="natural" v="wetland" />
		<tag k="ssr:stedsnr" v="92649" />
	</node>
	<node lat="64.02095555307632" lon="10.09638889636206" id="-82345">
		<tag k="landuse" v="meadow" />
		<tag k="name" v="Småengan" />
		<tag k="ssr:stedsnr" v="92994" />
	</node>
	<node lat="63.98507222285782" lon="10.212358325066708" id="-82371">
		<tag k="name" v="Skora" />
		<tag k="place" v="locality" />
		<tag k="ssr:stedsnr" v="134715" />
	</node>
	<node lat="63.99491666699008" lon="10.062605555895898" id="-82386">
		<tag k="name" v="Storpølmyra" />
		<tag k="natural" v="wetland" />
		<tag k="ssr:stedsnr" v="134741" />
	</node>
	<node lat="64.02319722225128" lon="10.240880564214086" id="-82449">
		<tag k="name" v="Lonmyra" />
		<tag k="natural" v="wetland" />
		<tag k="ssr:stedsnr" v="152081" />
	</node>
	<node lat="63.90732777650808" lon="9.950847231337981" id="-82457">
		<tag k="name" v="Landhaugan" />
		<tag k="place" v="locality" />
		<tag k="ssr:stedsnr" v="152235" />
	</node>
	<node lat="64.00846388555638" lon="10.311913887142932" id="-82464">
		<tag k="name" v="Langmyra" />
		<tag k="natural" v="wetland" />
		<tag k="ssr:stedsnr" v="152026" />
	</node>
	<node lat="64.17724444845412" lon="10.343458336005293" id="-82477">
		<tag k="name" v="Fjøsmyra" />
		<tag k="natural" v="wetland" />
		<tag k="ssr:stedsnr" v="152185" />
	</node>
	<node lat="63.9761305542039" lon="10.124688893581808" id="-82487">
		<tag k="name" v="Strompmyra" />
		<tag k="natural" v="wetland" />
		<tag k="ssr:stedsnr" v="152375" />
	</node>
	<node lat="63.98003055385788" lon="10.145969445997583" id="-82488">
		<tag k="name" v="Bekkanesa" />
		<tag k="place" v="locality" />
		<tag k="ssr:stedsnr" v="152379" />
	</node>
	<node lat="64.17502500402354" lon="10.43785278587531" id="-82504">
		<tag k="name" v="Blåfotenget" />
		<tag k="place" v="locality" />
		<tag k="ssr:stedsnr" v="152345" />
	</node>
	<node lat="64.14015277790374" lon="10.440380555963857" id="-82506">
		<tag k="landuse" v="meadow" />
		<tag k="name" v="Grønnlislåtten" />
		<tag k="ssr:stedsnr" v="152349" />
	</node>
	<node lat="63.981702781661774" lon="10.693463883965178" id="-82507">
		<tag k="landuse" v="meadow" />
		<tag k="name" v="Litlenget" />
		<tag k="ssr:stedsnr" v="152438" />
	</node>
	<node lat="63.97499721826398" lon="10.174211112134305" id="-82512">
		<tag k="name" v="Nerholtan" />
		<tag k="place" v="locality" />
		<tag k="ssr:stedsnr" v="152625" />
	</node>
	<node lat="64.03979722327796" lon="10.602483335497528" id="-82519">
		<tag k="name" v="Grovahaugmelen" />
		<tag k="place" v="locality" />
		<tag k="ssr:stedsnr" v="152481" />
	</node>
	<node lat="64.00732222294292" lon="10.485561108038697" id="-82523">
		<tag k="name" v="Kattatjønnmyra" />
		<tag k="natural" v="wetland" />
		<tag k="ssr:stedsnr" v="152572" />
	</node>
	<node lat="63.91589721811191" lon="10.139136120959414" id="-82524">
		<tag k="name" v="Evjan" />
		<tag k="place" v="locality" />
		<tag k="ssr:stedsnr" v="152573" />
	</node>
	<node lat="63.9028472220153" lon="10.240058324904375" id="-82527">
		<tag k="name" v="Gammelseteren" />
		<tag k="place" v="locality" />
		<tag k="ssr:stedsnr" v="152674" />
	</node>
	<node lat="63.99792499894654" lon="10.382969443854941" id="-82538">
		<tag k="name" v="Litlmarka" />
		<tag k="place" v="locality" />
		<tag k="ssr:stedsnr" v="152829" />
	</node>
	<node lat="64.02726388661023" lon="10.42234166865925" id="-82552">
		<tag k="name" v="Bjørnalimyra" />
		<tag k="natural" v="wetland" />
		<tag k="ssr:stedsnr" v="152696" />
	</node>
	<node lat="63.915266665451476" lon="10.44703611959412" id="-82566">
		<tag k="name" v="Stormyra" />
		<tag k="natural" v="wetland" />
		<tag k="ssr:stedsnr" v="152892" />
	</node>
	<node lat="63.92857500060621" lon="10.380627782920579" id="-82573">
		<tag k="name" v="Hauken" />
		<tag k="place" v="locality" />
		<tag k="ssr:stedsnr" v="152937" />
	</node>
	<node lat="63.916377779891285" lon="10.264763887908586" id="-82577">
		<tag k="name" v="Stormyra" />
		<tag k="natural" v="wetland" />
		<tag k="ssr:stedsnr" v="273047" />
	</node>
	<node lat="63.968627779980864" lon="10.052011116687739" id="-82677">
		<tag k="landuse" v="meadow" />
		<tag k="name" v="Fuglenget" />
		<tag k="ssr:stedsnr" v="273063" />
	</node>
	<node lat="63.929461111112104" lon="10.58083889017046" id="-82680">
		<tag k="name" v="Granmarka" />
		<tag k="place" v="locality" />
		<tag k="ssr:stedsnr" v="273155" />
	</node>
	<node lat="63.94263611449391" lon="10.386924998727695" id="-82703">
		<tag k="name" v="Langtjønnmyran" />
		<tag k="natural" v="wetland" />
		<tag k="ssr:stedsnr" v="213949" />
	</node>
	<node lat="63.985899995651636" lon="10.345555547961036" id="-82706">
		<tag k="name" v="Tjønnmyra" />
		<tag k="natural" v="wetland" />
		<tag k="ssr:stedsnr" v="213958" />
	</node>
	<node lat="63.944783332720114" lon="10.350938897649751" id="-82709">
		<tag k="name" v="Stigamyra" />
		<tag k="natural" v="wetland" />
		<tag k="ssr:stedsnr" v="213970" />
	</node>
	<node lat="63.90815278157277" lon="10.276780563899411" id="-82713">
		<tag k="name" v="Svarttjønnmyra" />
		<tag k="natural" v="wetland" />
		<tag k="ssr:stedsnr" v="213047" />
	</node>
	<node lat="63.93959444410574" lon="10.606858325330178" id="-82734">
		<tag k="name" v="Plogmyra" />
		<tag k="natural" v="wetland" />
		<tag k="ssr:stedsnr" v="213417" />
	</node>
	<node lat="64.18784166570136" lon="10.357361120023524" id="-82738">
		<tag k="name" v="Stormyra" />
		<tag k="natural" v="wetland" />
		<tag k="ssr:stedsnr" v="213153" />
	</node>
	<node lat="63.95224166501038" lon="10.216625008558493" id="-82745">
		<tag k="name" v="Litlvika" />
		<tag k="place" v="locality" />
		<tag k="ssr:stedsnr" v="213171" />
	</node>
	<node lat="64.0160166696976" lon="10.483249995435733" id="-82774">
		<tag k="name" v="Skavlimyra" />
		<tag k="natural" v="wetland" />
		<tag k="ssr:stedsnr" v="213557" />
	</node>
	<node lat="64.05945555820222" lon="10.531180546506567" id="-82775">
		<tag k="historic" v="shieling" />
		<tag k="name" v="Nyseteren" />
		<tag k="place" v="locality" />
		<tag k="ssr:stedsnr" v="213634" />
	</node>
	<node lat="63.99768055736832" lon="10.377777786133652" id="-82794">
		<tag k="name" v="Langmyra" />
		<tag k="natural" v="wetland" />
		<tag k="ssr:stedsnr" v="213837" />
	</node>
	<node lat="63.94652777405379" lon="10.093194452251742" id="-82795">
		<tag k="name" v="Hyllstrandmyra" />
		<tag k="natural" v="wetland" />
		<tag k="ssr:stedsnr" v="213615" />
	</node>
	<node lat="64.0723583329076" lon="10.033047229117061" id="-82798">
		<tag k="name" v="Rammelmyra" />
		<tag k="natural" v="wetland" />
		<tag k="ssr:stedsnr" v="213816" />
	</node>
	<node lat="64.04673333212472" lon="10.07880000450524" id="-82799">
		<tag k="name" v="Salan" />
		<tag k="place" v="locality" />
		<tag k="ssr:stedsnr" v="213879" />
	</node>
	<node lat="63.867663887588535" lon="10.275438878940818" id="-82809">
		<tag k="name" v="Stranda" />
		<tag k="natural" v="wetland" />
		<tag k="ssr:stedsnr" v="213923" />
	</node>
	<node lat="64.00393611243693" lon="10.364263884886832" id="-82814">
		<tag k="name" v="Setermyra" />
		<tag k="natural" v="wetland" />
		<tag k="ssr:stedsnr" v="213867" />
	</node>
	<node lat="63.874497223078045" lon="10.303716673506232" id="-82820">
		<tag k="historic" v="shieling" />
		<tag k="name" v="Andreasseteren" />
		<tag k="place" v="locality" />
		<tag k="ssr:stedsnr" v="225543" />
	</node>
	<node lat="63.943813885835205" lon="10.108591662881153" id="-82833">
		<tag k="name" v="Kleiva" />
		<tag k="place" v="locality" />
		<tag k="ssr:stedsnr" v="273499" />
	</node>
	<node lat="64.01173610926999" lon="10.44187221698602" id="-82835">
		<tag k="name" v="Kvennhusmyra" />
		<tag k="natural" v="wetland" />
		<tag k="ssr:stedsnr" v="273700" />
	</node>
	<node lat="64.02782777857792" lon="10.414413897722309" id="-82836">
		<tag k="name" v="Støamyra" />
		<tag k="natural" v="wetland" />
		<tag k="ssr:stedsnr" v="273709" />
	</node>
	<node lat="64.02918888477957" lon="10.41732500279733" id="-82838">
		<tag k="name" v="Storenget" />
		<tag k="place" v="locality" />
		<tag k="ssr:stedsnr" v="273713" />
	</node>
	<node lat="64.0043111077869" lon="10.378397212597104" id="-82858">
		<tag k="historic" v="shieling" />
		<tag k="name" v="Stavessetra" />
		<tag k="place" v="locality" />
		<tag k="ssr:stedsnr" v="273835" />
	</node>
	<node lat="64.02757221775018" lon="10.371613893129568" id="-82860">
		<tag k="name" v="Fallet" />
		<tag k="place" v="locality" />
		<tag k="ssr:stedsnr" v="273846" />
	</node>
	<node lat="63.99340555816227" lon="10.351952769297766" id="-82863">
		<tag k="name" v="Tverrfjellmyra" />
		<tag k="natural" v="wetland" />
		<tag k="ssr:stedsnr" v="273881" />
	</node>
	<node lat="63.91617222366877" lon="10.4347249947906" id="-82865">
		<tag k="name" v="Vinnanmoen" />
		<tag k="place" v="locality" />
		<tag k="ssr:stedsnr" v="273900" />
	</node>
	<node lat="63.92498332910387" lon="10.403133323900606" id="-82866">
		<tag k="name" v="Flotta" />
		<tag k="place" v="locality" />
		<tag k="ssr:stedsnr" v="273919" />
	</node>
	<node lat="64.1896027793116" lon="10.320233332896667" id="-82871">
		<tag k="name" v="Stormyra" />
		<tag k="natural" v="wetland" />
		<tag k="ssr:stedsnr" v="274017" />
	</node>
	<node lat="64.16826944498999" lon="10.258461106658709" id="-82873">
		<tag k="name" v="Kaltimarka" />
		<tag k="place" v="locality" />
		<tag k="ssr:stedsnr" v="274097" />
	</node>
	<node lat="64.24048889283547" lon="10.307091662089228" id="-82891">
		<tag k="name" v="Storskardmoen" />
		<tag k="place" v="locality" />
		<tag k="ssr:stedsnr" v="274034" />
	</node>
	<node lat="64.11830277548556" lon="10.290225005651081" id="-82897">
		<tag k="name" v="Seterholet" />
		<tag k="natural" v="wetland" />
		<tag k="ssr:stedsnr" v="274061" />
	</node>
	<node lat="63.90929166285597" lon="10.079277776317337" id="-82899">
		<tag k="name" v="Ner Hekkenget" />
		<tag k="place" v="locality" />
		<tag k="ssr:stedsnr" v="274143" />
	</node>
	<node lat="63.98765000398225" lon="10.050738891189072" id="-82918">
		<tag k="name" v="Osprabben" />
		<tag k="place" v="locality" />
		<tag k="ssr:stedsnr" v="274731" />
	</node>
	<node lat="64.03811111498142" lon="10.058980556939803" id="-82930">
		<tag k="name" v="Sofiaplassen" />
		<tag k="place" v="locality" />
		<tag k="ssr:stedsnr" v="274943" />
	</node>
	<node lat="63.879880555979106" lon="10.30650833737069" id="-82935">
		<tag k="historic" v="shieling" />
		<tag k="name" v="Arnevikseteren" />
		<tag k="place" v="locality" />
		<tag k="ssr:stedsnr" v="285516" />
	</node>
	<node lat="63.911375001862126" lon="10.204975000685979" id="-82955">
		<tag k="name" v="Trollurda" />
		<tag k="natural" v="scree" />
		<tag k="ssr:stedsnr" v="316670" />
	</node>
	<node lat="63.95218055859793" lon="10.279261110230673" id="-83018">
		<tag k="name" v="Kvennamyran" />
		<tag k="natural" v="wetland" />
		<tag k="ssr:stedsnr" v="334006" />
	</node>
	<node lat="63.95289722235063" lon="10.271097214973365" id="-83019">
		<tag k="name" v="Storbotmyra" />
		<tag k="natural" v="wetland" />
		<tag k="ssr:stedsnr" v="334007" />
	</node>
	<node lat="63.95930000284663" lon="10.291830552580763" id="-83029">
		<tag k="name" v="Stakkenget" />
		<tag k="place" v="locality" />
		<tag k="ssr:stedsnr" v="334065" />
	</node>
	<node lat="64.00133610900625" lon="10.225849998365915" id="-83034">
		<tag k="name" v="Imsaleira" />
		<tag k="place" v="locality" />
		<tag k="ssr:stedsnr" v="334081" />
	</node>
	<node lat="64.18965833052029" lon="10.34362778365851" id="-83044">
		<tag k="name" v="Demmingsmyran" />
		<tag k="natural" v="wetland" />
		<tag k="ssr:stedsnr" v="334134" />
	</node>
	<node lat="64.05050833106668" lon="10.136511106871357" id="-83056">
		<tag k="name" v="Sørhauglimyra" />
		<tag k="natural" v="wetland" />
		<tag k="ssr:stedsnr" v="334184" />
	</node>
	<node lat="63.91964722284486" lon="9.923161119058815" id="-83059">
		<tag k="name" v="Landheim" />
		<tag k="place" v="locality" />
		<tag k="ssr:stedsnr" v="334290" />
	</node>
	<node lat="63.96550278092989" lon="10.192013894566001" id="-83061">
		<tag k="name" v="Lomsenget" />
		<tag k="natural" v="wetland" />
		<tag k="ssr:stedsnr" v="334350" />
	</node>
	<node lat="64.10654166294871" lon="10.529261107042856" id="-83063">
		<tag k="historic" v="shieling" />
		<tag k="name" v="Guruseteren" />
		<tag k="place" v="locality" />
		<tag k="ssr:stedsnr" v="334361" />
	</node>
	<node lat="63.948627780590385" lon="10.657333333679086" id="-83064">
		<tag k="historic" v="shieling" />
		<tag k="name" v="Øyster Finnvollen" />
		<tag k="place" v="locality" />
		<tag k="ssr:stedsnr" v="334374" />
	</node>
	<node lat="63.989227775059355" lon="10.743138897887096" id="-83069">
		<tag k="name" v="Kårenget" />
		<tag k="place" v="locality" />
		<tag k="ssr:stedsnr" v="334412" />
	</node>
	<node lat="64.00907222639204" lon="10.750680550441942" id="-83070">
		<tag k="name" v="Ottesteinen" />
		<tag k="natural" v="stone" />
		<tag k="ssr:stedsnr" v="334413" />
	</node>
	<node lat="63.94943055555957" lon="10.498316673999254" id="-83077">
		<tag k="name" v="Bjørnaheimen" />
		<tag k="place" v="locality" />
		<tag k="ssr:stedsnr" v="334534" />
	</node>
	<node lat="63.94625277741207" lon="10.535980557317119" id="-83079">
		<tag k="name" v="Revurda" />
		<tag k="natural" v="scree" />
		<tag k="ssr:stedsnr" v="334540" />
	</node>
	<node lat="64.04130277521719" lon="10.460280550879544" id="-83087">
		<tag k="name" v="Dammyra" />
		<tag k="natural" v="wetland" />
		<tag k="ssr:stedsnr" v="334478" />
	</node>
	<node lat="64.02627777975675" lon="10.535074998733215" id="-83088">
		<tag k="name" v="Stormyra" />
		<tag k="natural" v="wetland" />
		<tag k="ssr:stedsnr" v="334479" />
	</node>
	<node lat="64.0625833377268" lon="10.52895000157217" id="-83093">
		<tag k="name" v="Nysetermarka" />
		<tag k="place" v="locality" />
		<tag k="ssr:stedsnr" v="334566" />
	</node>
	<node lat="64.06958611503593" lon="10.4990361094199" id="-83099">
		<tag k="name" v="Eliasenget" />
		<tag k="natural" v="wetland" />
		<tag k="ssr:stedsnr" v="334593" />
	</node>
	<node lat="63.952147225172034" lon="10.364461107699139" id="-83125">
		<tag k="name" v="Setermyran" />
		<tag k="natural" v="wetland" />
		<tag k="ssr:stedsnr" v="334956" />
	</node>
	<node lat="64.00353333671177" lon="10.436461106475916" id="-83127">
		<tag k="name" v="Dammyra" />
		<tag k="natural" v="wetland" />
		<tag k="ssr:stedsnr" v="334827" />
	</node>
	<node lat="64.00280278194955" lon="10.427452768898164" id="-83129">
		<tag k="name" v="Grøtabakkmyra" />
		<tag k="natural" v="wetland" />
		<tag k="ssr:stedsnr" v="334831" />
	</node>
	<node lat="63.99438333442826" lon="10.443758330483844" id="-83133">
		<tag k="name" v="Tømmerloppet" />
		<tag k="place" v="locality" />
		<tag k="ssr:stedsnr" v="334843" />
	</node>
	<node lat="64.09847222048253" lon="10.278100002289953" id="-83136">
		<tag k="name" v="Myran" />
		<tag k="natural" v="wetland" />
		<tag k="ssr:stedsnr" v="335069" />
	</node>
	<node lat="64.20223333325062" lon="10.391797218231966" id="-83142">
		<tag k="name" v="Purktrøa" />
		<tag k="place" v="locality" />
		<tag k="ssr:stedsnr" v="335154" />
	</node>
	<node lat="63.935405552006856" lon="10.376294438675687" id="-83143">
		<tag k="name" v="Liateigen" />
		<tag k="place" v="locality" />
		<tag k="ssr:stedsnr" v="334930" />
	</node>
	<node lat="63.94313055755428" lon="10.327552771179265" id="-83150">
		<tag k="name" v="Nymoteigen" />
		<tag k="place" v="locality" />
		<tag k="ssr:stedsnr" v="334971" />
	</node>
	<node lat="63.92907499946858" lon="10.452205547039375" id="-83152">
		<tag k="name" v="Stokkdalmyra" />
		<tag k="natural" v="wetland" />
		<tag k="ssr:stedsnr" v="334976" />
	</node>
	<node lat="64.05328888747685" lon="10.078463885452006" id="-83156">
		<tag k="name" v="Øra" />
		<tag k="place" v="locality" />
		<tag k="ssr:stedsnr" v="334989" />
	</node>
	<node lat="64.15800278054195" lon="10.358322231257954" id="-83169">
		<tag k="name" v="Øyan" />
		<tag k="place" v="locality" />
		<tag k="ssr:stedsnr" v="335336" />
	</node>
	<node lat="64.13197500341263" lon="10.1878388876688" id="-83184">
		<tag k="name" v="Lomtjønnmyran" />
		<tag k="natural" v="wetland" />
		<tag k="ssr:stedsnr" v="335934" />
	</node>
	<node lat="63.94901212354211" lon="10.352840352748208" id="-83202">
		<tag k="historic" v="shieling" />
		<tag k="name" v="Karlaunsetran" />
		<tag k="place" v="locality" />
		<tag k="ssr:stedsnr" v="376380" />
	</node>
	<node lat="64.0204348908681" lon="10.422614699989863" id="-83269">
		<tag k="historic" v="shieling" />
		<tag k="name" v="Granfjellseteren" />
		<tag k="place" v="locality" />
		<tag k="ssr:stedsnr" v="377695" />
	</node>
	<node lat="63.93678888953814" lon="10.079811111183371" id="-83304">
		<tag k="name" v="Slåttamyra" />
		<tag k="natural" v="wetland" />
		<tag k="ssr:stedsnr" v="385181" />
	</node>
	<node lat="63.998925001127965" lon="10.443458334538743" id="-83327">
		<tag k="name" v="Granmarka" />
		<tag k="place" v="locality" />
		<tag k="ssr:stedsnr" v="394862" />
	</node>
	<node lat="63.99364721911696" lon="10.217852770583274" id="-83337">
		<tag k="name" v="Langmyra" />
		<tag k="natural" v="wetland" />
		<tag k="ssr:stedsnr" v="395093" />
	</node>
	<node lat="64.20838055399854" lon="10.39606944824396" id="-83363">
		<tag k="name" v="Veltan" />
		<tag k="place" v="locality" />
		<tag k="ssr:stedsnr" v="395161" />
	</node>
	<node lat="63.904308336728285" lon="10.23970555183385" id="-83364">
		<tag k="name" v="Gammelseteren" />
		<tag k="place" v="locality" />
		<tag k="ssr:stedsnr" v="395165" />
	</node>
	<node lat="63.93323332904634" lon="10.024413893801515" id="-83371">
		<tag k="name" v="Flatmoen" />
		<tag k="place" v="locality" />
		<tag k="ssr:stedsnr" v="395243" />
	</node>
	<node lat="64.24026667080513" lon="10.374180560070565" id="-83374">
		<tag k="name" v="Halsurda" />
		<tag k="natural" v="scree" />
		<tag k="ssr:stedsnr" v="395224" />
	</node>
	<node lat="64.17979166860711" lon="10.440211101061404" id="-83376">
		<tag k="name" v="Reppmyra" />
		<tag k="natural" v="wetland" />
		<tag k="ssr:stedsnr" v="395324" />
	</node>
	<node lat="63.91095833662187" lon="10.113811109450516" id="-83380">
		<tag k="name" v="Slirholan" />
		<tag k="place" v="locality" />
		<tag k="ssr:stedsnr" v="395547" />
	</node>
	<node lat="64.00471110913605" lon="10.500358326624086" id="-83382">
		<tag k="name" v="Ottermoen" />
		<tag k="place" v="locality" />
		<tag k="ssr:stedsnr" v="395560" />
	</node>
	<node lat="63.923444447597426" lon="10.17016110403018" id="-83386">
		<tag k="name" v="Stormyra" />
		<tag k="natural" v="wetland" />
		<tag k="ssr:stedsnr" v="395568" />
	</node>
	<node lat="64.1300194427113" lon="10.573586101951193" id="-83389">
		<tag k="name" v="Budstadmyran" />
		<tag k="natural" v="wetland" />
		<tag k="ssr:stedsnr" v="395266" />
	</node>
	<node lat="64.15938888883294" lon="10.466661110668959" id="-83391">
		<tag k="name" v="Boksenget" />
		<tag k="place" v="locality" />
		<tag k="ssr:stedsnr" v="395341" />
	</node>
	<node lat="64.12648333080327" lon="10.580386112003001" id="-83397">
		<tag k="historic" v="shieling" />
		<tag k="name" v="Øystervollen" />
		<tag k="place" v="locality" />
		<tag k="ssr:stedsnr" v="395355" />
	</node>
	<node lat="64.17784722013647" lon="10.523194437671034" id="-83399">
		<tag k="name" v="Fjellsmyra" />
		<tag k="natural" v="wetland" />
		<tag k="ssr:stedsnr" v="395360" />
	</node>
	<node lat="64.06801666696944" lon="10.469169453088663" id="-83406">
		<tag k="name" v="Høgmyra" />
		<tag k="natural" v="wetland" />
		<tag k="ssr:stedsnr" v="395620" />
	</node>
	<node lat="63.96075555627553" lon="10.138283324378008" id="-83407">
		<tag k="name" v="Gløtten" />
		<tag k="place" v="locality" />
		<tag k="ssr:stedsnr" v="395623" />
	</node>
	<node lat="64.02303333190314" lon="9.897850003154579" id="-83411">
		<tag k="name" v="Reksteren" />
		<tag k="place" v="locality" />
		<tag k="ssr:stedsnr" v="395685" />
	</node>
	<node lat="63.93210833673947" lon="10.553441661499125" id="-83425">
		<tag k="name" v="Tverrlimyra" />
		<tag k="natural" v="wetland" />
		<tag k="ssr:stedsnr" v="395743" />
	</node>
	<node lat="63.9769388888737" lon="10.212052784582175" id="-83429">
		<tag k="name" v="Hutjønnmyra" />
		<tag k="natural" v="wetland" />
		<tag k="ssr:stedsnr" v="395758" />
	</node>
	<node lat="63.95319722138211" lon="10.256147228982812" id="-83431">
		<tag k="name" v="Fjøsdalsmyra" />
		<tag k="natural" v="wetland" />
		<tag k="ssr:stedsnr" v="395766" />
	</node>
	<node lat="64.01366111151854" lon="10.055963898120616" id="-83435">
		<tag k="name" v="Bjørnbåsen" />
		<tag k="place" v="locality" />
		<tag k="ssr:stedsnr" v="395873" />
	</node>
	<node lat="63.96708055653783" lon="10.224686101566919" id="-83602">
		<tag k="landuse" v="meadow" />
		<tag k="name" v="Snauvollen" />
		<tag k="ssr:stedsnr" v="516723" />
	</node>
	<node lat="63.94661667029637" lon="10.254013898865976" id="-83606">
		<tag k="name" v="Hallenget" />
		<tag k="place" v="locality" />
		<tag k="ssr:stedsnr" v="516738" />
	</node>
	<node lat="64.0066444482164" lon="10.254122228931761" id="-83615">
		<tag k="name" v="Imsamyran" />
		<tag k="natural" v="wetland" />
		<tag k="ssr:stedsnr" v="516081" />
	</node>
	<node lat="63.966836112086845" lon="10.031233324454318" id="-83622">
		<tag k="name" v="Håkjerringmyra" />
		<tag k="natural" v="wetland" />
		<tag k="ssr:stedsnr" v="516032" />
	</node>
	<node lat="63.950347218938596" lon="9.959580546767786" id="-83627">
		<tag k="name" v="Storjorda" />
		<tag k="place" v="locality" />
		<tag k="ssr:stedsnr" v="516043" />
	</node>
	<node lat="63.96608888944575" lon="9.983341666738994" id="-83630">
		<tag k="name" v="Brekka" />
		<tag k="place" v="locality" />
		<tag k="ssr:stedsnr" v="516060" />
	</node>
	<node lat="63.936674997428014" lon="10.586177785861278" id="-83634">
		<tag k="name" v="Bjørnamyra" />
		<tag k="natural" v="wetland" />
		<tag k="ssr:stedsnr" v="516142" />
	</node>
	<node lat="63.90956389122813" lon="10.139347214733316" id="-83637">
		<tag k="name" v="Mårdholet" />
		<tag k="place" v="locality" />
		<tag k="ssr:stedsnr" v="516153" />
	</node>
	<node lat="63.927147218751955" lon="10.59215832698574" id="-83652">
		<tag k="name" v="Kjerstinaholet" />
		<tag k="place" v="locality" />
		<tag k="ssr:stedsnr" v="516385" />
	</node>
	<node lat="63.98281666748284" lon="10.187558334753218" id="-83656">
		<tag k="name" v="Krekan" />
		<tag k="natural" v="wetland" />
		<tag k="ssr:stedsnr" v="516557" />
	</node>
	<node lat="64.05562499692195" lon="10.435286114195817" id="-83658">
		<tag k="name" v="Skogstua" />
		<tag k="place" v="locality" />
		<tag k="ssr:stedsnr" v="516626" />
	</node>
	<node lat="64.03797222230504" lon="10.43291388050518" id="-83661">
		<tag k="name" v="Stormyra" />
		<tag k="natural" v="wetland" />
		<tag k="ssr:stedsnr" v="516646" />
	</node>
	<node lat="64.08640555739811" lon="10.5135499967992" id="-83664">
		<tag k="name" v="Svartmyrbakken" />
		<tag k="natural" v="wetland" />
		<tag k="ssr:stedsnr" v="516563" />
	</node>
	<node lat="63.977486110894404" lon="10.17506111621936" id="-83671">
		<tag k="name" v="Fjellkråa" />
		<tag k="place" v="locality" />
		<tag k="ssr:stedsnr" v="516580" />
	</node>
	<node lat="64.07284722171946" lon="10.501977786526135" id="-83673">
		<tag k="name" v="Småmyran" />
		<tag k="natural" v="wetland" />
		<tag k="ssr:stedsnr" v="516592" />
	</node>
	<node lat="64.02984722162189" lon="10.092833338630928" id="-83701">
		<tag k="name" v="Stormyra" />
		<tag k="natural" v="wetland" />
		<tag k="ssr:stedsnr" v="516974" />
	</node>
	<node lat="64.19549999918775" lon="10.210402772231681" id="-83710">
		<tag k="name" v="Strået" />
		<tag k="natural" v="wetland" />
		<tag k="ssr:stedsnr" v="517052" />
	</node>
	<node lat="64.13868889315992" lon="10.543944438002802" id="-83711">
		<tag k="name" v="Langmyra" />
		<tag k="natural" v="wetland" />
		<tag k="ssr:stedsnr" v="517234" />
	</node>
	<node lat="64.1789416694163" lon="10.485613888730875" id="-83715">
		<tag k="name" v="Nordmarka" />
		<tag k="place" v="locality" />
		<tag k="ssr:stedsnr" v="517330" />
	</node>
	<node lat="64.14448888917248" lon="10.346541668890715" id="-83717">
		<tag k="name" v="Stimyra" />
		<tag k="natural" v="wetland" />
		<tag k="ssr:stedsnr" v="517337" />
	</node>
	<node lat="64.17729166796337" lon="10.390422229857956" id="-83719">
		<tag k="name" v="Staslimyra" />
		<tag k="natural" v="wetland" />
		<tag k="ssr:stedsnr" v="517341" />
	</node>
	<node lat="64.04785833225216" lon="10.344350007451283" id="-83768">
		<tag k="name" v="Nittalihalsen" />
		<tag k="natural" v="wetland" />
		<tag k="ssr:stedsnr" v="559262" />
	</node>
	<node lat="63.96292777383263" lon="10.138519439721112" id="-83780">
		<tag k="name" v="Langmyra" />
		<tag k="natural" v="wetland" />
		<tag k="ssr:stedsnr" v="559555" />
	</node>
	<node lat="64.00456388512804" lon="10.3106833363173" id="-83806">
		<tag k="name" v="Verstudalsmyra" />
		<tag k="natural" v="wetland" />
		<tag k="ssr:stedsnr" v="576027" />
	</node>
	<node lat="64.06258611483034" lon="10.45614166921531" id="-83827">
		<tag k="name" v="Seterlimyran" />
		<tag k="natural" v="wetland" />
		<tag k="ssr:stedsnr" v="576137" />
	</node>
	<node lat="63.98185833117706" lon="10.713150008049146" id="-83839">
		<tag k="name" v="Stormyra" />
		<tag k="natural" v="wetland" />
		<tag k="ssr:stedsnr" v="576414" />
	</node>
	<node lat="64.04007499740754" lon="10.593944439148274" id="-83841">
		<tag k="name" v="Svartholmyra" />
		<tag k="natural" v="wetland" />
		<tag k="ssr:stedsnr" v="576434" />
	</node>
	<node lat="63.923283333503534" lon="10.15388056420108" id="-83843">
		<tag k="name" v="Kalmoen" />
		<tag k="place" v="locality" />
		<tag k="ssr:stedsnr" v="576523" />
	</node>
	<node lat="64.0278694482134" lon="10.450805551757089" id="-83848">
		<tag k="name" v="Stråmyra" />
		<tag k="natural" v="wetland" />
		<tag k="ssr:stedsnr" v="576686" />
	</node>
	<node lat="63.98261111149375" lon="10.40107500109583" id="-83849">
		<tag k="name" v="Oksvollen" />
		<tag k="place" v="locality" />
		<tag k="ssr:stedsnr" v="576777" />
	</node>
	<node lat="63.948780557525055" lon="10.39838333260629" id="-83856">
		<tag k="name" v="Gandenget" />
		<tag k="place" v="locality" />
		<tag k="ssr:stedsnr" v="576825" />
	</node>
	<node lat="63.903591669057114" lon="9.96370000505276" id="-83861">
		<tag k="name" v="Strømsmyra" />
		<tag k="natural" v="wetland" />
		<tag k="ssr:stedsnr" v="577022" />
	</node>
	<node lat="63.9115416705242" lon="9.988077785555468" id="-83863">
		<tag k="name" v="Skaia" />
		<tag k="place" v="locality" />
		<tag k="ssr:stedsnr" v="577029" />
	</node>
	<node lat="64.02541666685515" lon="10.251069451040586" id="-83877">
		<tag k="name" v="Huken" />
		<tag k="place" v="locality" />
		<tag k="ssr:stedsnr" v="577075" />
	</node>
	<node lat="63.991855552975714" lon="10.148155552733359" id="-83887">
		<tag k="name" v="Øykmyra" />
		<tag k="natural" v="wetland" />
		<tag k="ssr:stedsnr" v="577163" />
	</node>
	<node lat="64.20241666385908" lon="10.400599998040807" id="-83892">
		<tag k="name" v="Varpet" />
		<tag k="place" v="locality" />
		<tag k="ssr:stedsnr" v="577186" />
	</node>
	<node lat="64.16776666939722" lon="10.483972217708937" id="-83902">
		<tag k="name" v="Skardmyra" />
		<tag k="natural" v="wetland" />
		<tag k="ssr:stedsnr" v="577361" />
	</node>
	<node lat="64.00913055596328" lon="10.015958329935238" id="-83936">
		<tag k="name" v="Holet" />
		<tag k="place" v="locality" />
		<tag k="ssr:stedsnr" v="577863" />
	</node>
	<node lat="64.01491666588268" lon="10.027141662001348" id="-83937">
		<tag k="name" v="Barramyra" />
		<tag k="natural" v="wetland" />
		<tag k="ssr:stedsnr" v="577864" />
	</node>
	<node lat="64.08312500229702" lon="10.637086114514773" id="-83993">
		<tag k="name" v="Øyan" />
		<tag k="natural" v="wetland" />
		<tag k="ssr:stedsnr" v="620303" />
	</node>
	<node lat="63.91888889066732" lon="10.130005555630323" id="-84010">
		<tag k="name" v="Brassetmyran" />
		<tag k="natural" v="wetland" />
		<tag k="ssr:stedsnr" v="620596" />
	</node>
	<node lat="64.12947222370722" lon="10.663877781785319" id="-84027">
		<tag k="name" v="Indre Vargfossnesa" />
		<tag k="natural" v="wetland" />
		<tag k="ssr:stedsnr" v="627880" />
	</node>
	<node lat="63.94536944065023" lon="10.280399996226835" id="-84045">
		<tag k="name" v="Hyttholet" />
		<tag k="place" v="locality" />
		<tag k="ssr:stedsnr" v="637055" />
	</node>
	<node lat="64.14239721918213" lon="10.435480551677065" id="-84067">
		<tag k="landuse" v="meadow" />
		<tag k="name" v="Seterenget" />
		<tag k="ssr:stedsnr" v="637343" />
	</node>
	<node lat="63.93402222336182" lon="10.365327777311048" id="-84089">
		<tag k="name" v="Torvmyra" />
		<tag k="natural" v="wetland" />
		<tag k="ssr:stedsnr" v="637949" />
	</node>
	<node lat="63.9824277734403" lon="10.345986103572471" id="-84090">
		<tag k="name" v="Nausturda" />
		<tag k="natural" v="scree" />
		<tag k="ssr:stedsnr" v="637954" />
	</node>
	<node lat="64.15178888672729" lon="10.51525278590932" id="-84104">
		<tag k="name" v="Grovamyran" />
		<tag k="natural" v="wetland" />
		<tag k="ssr:stedsnr" v="637281" />
	</node>
	<node lat="63.93221111247191" lon="10.587283330122794" id="-84109">
		<tag k="name" v="Storneset" />
		<tag k="place" v="locality" />
		<tag k="ssr:stedsnr" v="637419" />
	</node>
	<node lat="63.91209444555741" lon="10.09883334315061" id="-84111">
		<tag k="name" v="Gammelseteren" />
		<tag k="place" v="locality" />
		<tag k="ssr:stedsnr" v="637575" />
	</node>
	<node lat="63.98520000028421" lon="10.186513895100934" id="-84112">
		<tag k="name" v="Heimtun" />
		<tag k="place" v="locality" />
		<tag k="ssr:stedsnr" v="637598" />
	</node>
	<node lat="64.02373888601728" lon="10.397008330085816" id="-84117">
		<tag k="name" v="Stormyra" />
		<tag k="natural" v="wetland" />
		<tag k="ssr:stedsnr" v="637688" />
	</node>
	<node lat="63.98758610872622" lon="10.203994445079145" id="-84123">
		<tag k="name" v="Skolekrysset" />
		<tag k="place" v="locality" />
		<tag k="ssr:stedsnr" v="637750" />
	</node>
	<node lat="64.02786111046842" lon="10.54104443875515" id="-84125">
		<tag k="name" v="Rokkslættmyran" />
		<tag k="natural" v="wetland" />
		<tag k="ssr:stedsnr" v="637559" />
	</node>
	<node lat="64.02470555706675" lon="10.508247227438554" id="-84128">
		<tag k="name" v="Halten" />
		<tag k="place" v="locality" />
		<tag k="ssr:stedsnr" v="637570" />
	</node>
	<node lat="63.964924998174716" lon="10.126419450036689" id="-84131">
		<tag k="name" v="Kvennhusvollen" />
		<tag k="place" v="locality" />
		<tag k="ssr:stedsnr" v="637647" />
	</node>
	<node lat="63.8642249979762" lon="10.231402787819546" id="-84133">
		<tag k="name" v="Kraggaurda" />
		<tag k="natural" v="scree" />
		<tag k="ssr:stedsnr" v="637652" />
	</node>
	<node lat="64.04401944346723" lon="10.434388892285499" id="-84136">
		<tag k="name" v="Bjørnamyra" />
		<tag k="natural" v="wetland" />
		<tag k="ssr:stedsnr" v="637667" />
	</node>
	<node lat="63.9514527749046" lon="10.412436118394318" id="-84139">
		<tag k="name" v="Simabakkmyran" />
		<tag k="natural" v="wetland" />
		<tag k="ssr:stedsnr" v="637799" />
	</node>
	<node lat="64.01643333117677" lon="10.362527783905675" id="-84141">
		<tag k="name" v="Stormyra" />
		<tag k="natural" v="wetland" />
		<tag k="ssr:stedsnr" v="637826" />
	</node>
	<node lat="64.16406944524799" lon="10.301155551029577" id="-84150">
		<tag k="name" v="Tømte" />
		<tag k="place" v="locality" />
		<tag k="ssr:stedsnr" v="638093" />
	</node>
	<node lat="63.982522222521965" lon="10.410194436015338" id="-84152">
		<tag k="name" v="Bymyra" />
		<tag k="place" v="locality" />
		<tag k="ssr:stedsnr" v="637756" />
	</node>
	<node lat="64.00192499964068" lon="10.028158324434907" id="-84153">
		<tag k="name" v="Kleivamyra" />
		<tag k="natural" v="wetland" />
		<tag k="ssr:stedsnr" v="637757" />
	</node>
	<node lat="64.05092500064833" lon="10.431400000991134" id="-84163">
		<tag k="name" v="Elvakrokan" />
		<tag k="natural" v="wetland" />
		<tag k="ssr:stedsnr" v="662264" />
	</node>
	<node lat="64.05949999674878" lon="10.051183331227376" id="-84273">
		<tag k="historic" v="shieling" />
		<tag k="name" v="Hammarvollen" />
		<tag k="place" v="locality" />
		<tag k="ssr:stedsnr" v="759783" />
	</node>
	<node lat="64.13296666304906" lon="10.331363879345345" id="-84283">
		<tag k="name" v="Vesterelvmyran" />
		<tag k="natural" v="wetland" />
		<tag k="ssr:stedsnr" v="759238" />
	</node>
	<node lat="64.16106389040792" lon="10.49478888144255" id="-84286">
		<tag k="name" v="Rørholet" />
		<tag k="place" v="locality" />
		<tag k="ssr:stedsnr" v="759321" />
	</node>
	<node lat="64.12262777734637" lon="10.20478055760863" id="-84288">
		<tag k="name" v="Knutkleiva" />
		<tag k="natural" v="scree" />
		<tag k="ssr:stedsnr" v="759073" />
	</node>
	<node lat="64.16870277597884" lon="10.327383335259093" id="-84295">
		<tag k="name" v="Brunnmyran" />
		<tag k="natural" v="wetland" />
		<tag k="ssr:stedsnr" v="759164" />
	</node>
	<node lat="64.15731944169191" lon="10.45170555392637" id="-84308">
		<tag k="name" v="Tommelhaugsetermyran" />
		<tag k="natural" v="wetland" />
		<tag k="ssr:stedsnr" v="759287" />
	</node>
	<node lat="64.17481111051326" lon="10.433616663004996" id="-84309">
		<tag k="name" v="Tommelenget" />
		<tag k="place" v="locality" />
		<tag k="ssr:stedsnr" v="759290" />
	</node>
	<node lat="64.17864444805858" lon="10.435388896451805" id="-84311">
		<tag k="name" v="Nilsenget" />
		<tag k="place" v="locality" />
		<tag k="ssr:stedsnr" v="759292" />
	</node>
	<node lat="63.999533332375314" lon="10.493208331620735" id="-84317">
		<tag k="name" v="Grønnbakkmyra" />
		<tag k="natural" v="wetland" />
		<tag k="ssr:stedsnr" v="759547" />
	</node>
	<node lat="64.00653055531785" lon="10.504783329153867" id="-84319">
		<tag k="name" v="Sørenget" />
		<tag k="place" v="locality" />
		<tag k="ssr:stedsnr" v="759550" />
	</node>
	<node lat="63.932588884760044" lon="10.172736111379812" id="-84323">
		<tag k="name" v="Finnsetmarka" />
		<tag k="place" v="locality" />
		<tag k="ssr:stedsnr" v="759566" />
	</node>
	<node lat="63.97853333315421" lon="10.183638889694967" id="-84325">
		<tag k="name" v="Middagsstaden" />
		<tag k="place" v="locality" />
		<tag k="ssr:stedsnr" v="759570" />
	</node>
	<node lat="64.06343611337088" lon="10.409063888634531" id="-84334">
		<tag k="name" v="Seterholet" />
		<tag k="place" v="locality" />
		<tag k="ssr:stedsnr" v="759642" />
	</node>
	<node lat="64.03374999830272" lon="10.411983333205672" id="-84338">
		<tag k="name" v="Moan" />
		<tag k="place" v="locality" />
		<tag k="ssr:stedsnr" v="759660" />
	</node>
	<node lat="64.02112499599777" lon="10.454400000555887" id="-84341">
		<tag k="name" v="Erikengmyra" />
		<tag k="natural" v="wetland" />
		<tag k="ssr:stedsnr" v="759669" />
	</node>
	<node lat="63.94054999583111" lon="10.477930552360888" id="-84472">
		<tag k="name" v="Knutdiket" />
		<tag k="natural" v="wetland" />
		<tag k="ssr:stedsnr" v="819157" />
	</node>
	<node lat="64.05721111169508" lon="10.480461107739325" id="-84475">
		<tag k="name" v="Brennmarkskogen" />
		<tag k="place" v="locality" />
		<tag k="ssr:stedsnr" v="819169" />
	</node>
	<node lat="63.94278055784978" lon="10.349269449977658" id="-84499">
		<tag k="historic" v="shieling" />
		<tag k="name" v="Gammelseteren" />
		<tag k="place" v="locality" />
		<tag k="ssr:stedsnr" v="820997" />
	</node>
	<node lat="63.99623333469948" lon="10.31812776850819" id="-84500">
		<tag k="name" v="Skavdalsmyra" />
		<tag k="natural" v="wetland" />
		<tag k="ssr:stedsnr" v="820035" />
	</node>
	<node lat="64.00824166709259" lon="10.26156389395318" id="-84511">
		<tag k="name" v="Holbekkmyra" />
		<tag k="natural" v="wetland" />
		<tag k="ssr:stedsnr" v="820123" />
	</node>
	<node lat="64.17373610965466" lon="10.267086120787981" id="-84512">
		<tag k="name" v="Fjordamyran" />
		<tag k="natural" v="wetland" />
		<tag k="ssr:stedsnr" v="820124" />
	</node>
	<node lat="63.98220277385115" lon="10.130708331684898" id="-84514">
		<tag k="name" v="Morkanesørin" />
		<tag k="natural" v="wetland" />
		<tag k="ssr:stedsnr" v="820131" />
	</node>
	<node lat="63.88279444110511" lon="10.231019445862199" id="-84523">
		<tag k="name" v="Svartholet" />
		<tag k="place" v="locality" />
		<tag k="ssr:stedsnr" v="820167" />
	</node>
	<node lat="64.14379722218311" lon="10.44333889571024" id="-84525">
		<tag k="landuse" v="meadow" />
		<tag k="name" v="Karienget" />
		<tag k="ssr:stedsnr" v="820303" />
	</node>
	<node lat="64.12073611431059" lon="10.260813892356806" id="-84533">
		<tag k="name" v="Brenna" />
		<tag k="place" v="locality" />
		<tag k="ssr:stedsnr" v="820082" />
	</node>
	<node lat="63.914652779995684" lon="10.122288894860015" id="-84538">
		<tag k="name" v="Krokastormyra" />
		<tag k="natural" v="wetland" />
		<tag k="ssr:stedsnr" v="820180" />
	</node>
	<node lat="64.0335305542249" lon="10.053441669937428" id="-84542">
		<tag k="name" v="Benken" />
		<tag k="natural" v="scree" />
		<tag k="ssr:stedsnr" v="820190" />
	</node>
	<node lat="63.96021389285887" lon="10.425219445257909" id="-84549">
		<tag k="name" v="Masterholmyran" />
		<tag k="natural" v="wetland" />
		<tag k="ssr:stedsnr" v="820234" />
	</node>
	<node lat="64.16748889007299" lon="10.472894453646957" id="-84563">
		<tag k="name" v="Børengmyra" />
		<tag k="natural" v="wetland" />
		<tag k="ssr:stedsnr" v="820341" />
	</node>
	<node lat="63.95759444750302" lon="10.169102775748474" id="-84564">
		<tag k="name" v="Leirfallet" />
		<tag k="place" v="locality" />
		<tag k="ssr:stedsnr" v="820344" />
	</node>
	<node lat="63.99786388690344" lon="10.488230557687613" id="-84573">
		<tag k="name" v="Stortralten" />
		<tag k="place" v="locality" />
		<tag k="ssr:stedsnr" v="820538" />
	</node>
	<node lat="63.97265277537486" lon="10.168561116153898" id="-84574">
		<tag k="name" v="Slåttamyra" />
		<tag k="natural" v="wetland" />
		<tag k="ssr:stedsnr" v="820587" />
	</node>
	<node lat="63.95359166539842" lon="10.15253332865453" id="-84577">
		<tag k="name" v="Strandamyra" />
		<tag k="natural" v="wetland" />
		<tag k="ssr:stedsnr" v="820597" />
	</node>
	<node lat="64.05985000228817" lon="10.410716672864002" id="-84581">
		<tag k="name" v="Seterholmyra" />
		<tag k="natural" v="wetland" />
		<tag k="ssr:stedsnr" v="820632" />
	</node>
	<node lat="63.91471111297565" lon="10.25794722252934" id="-84583">
		<tag k="name" v="Granmoen" />
		<tag k="place" v="locality" />
		<tag k="ssr:stedsnr" v="820642" />
	</node>
	<node lat="64.00371944285763" lon="9.91896110514798" id="-84585">
		<tag k="name" v="Storaunet" />
		<tag k="place" v="locality" />
		<tag k="ssr:stedsnr" v="820653" />
	</node>
	<node lat="64.02653611340862" lon="10.415502770708578" id="-84590">
		<tag k="name" v="Sløa" />
		<tag k="place" v="locality" />
		<tag k="ssr:stedsnr" v="820663" />
	</node>
	<node lat="63.93090278078682" lon="10.457897219877271" id="-84592">
		<tag k="name" v="Kjerillmyran" />
		<tag k="natural" v="wetland" />
		<tag k="ssr:stedsnr" v="820728" />
	</node>
	<node lat="63.92785277739714" lon="10.460652777397476" id="-84593">
		<tag k="landuse" v="meadow" />
		<tag k="name" v="Granmarka" />
		<tag k="ssr:stedsnr" v="820731" />
	</node>
	<node lat="63.93114444230782" lon="10.470286110162606" id="-84594">
		<tag k="name" v="Dordiengmyran" />
		<tag k="natural" v="wetland" />
		<tag k="ssr:stedsnr" v="820734" />
	</node>
	<node lat="63.93290277611616" lon="10.465066673153885" id="-84595">
		<tag k="name" v="Tjønnmyra" />
		<tag k="natural" v="wetland" />
		<tag k="ssr:stedsnr" v="820736" />
	</node>
	<node lat="63.9790750004565" lon="10.439402774734498" id="-84602">
		<tag k="name" v="Holmyra" />
		<tag k="natural" v="wetland" />
		<tag k="ssr:stedsnr" v="820760" />
	</node>
	<node lat="63.93018333590828" lon="10.372358334446478" id="-84615">
		<tag k="name" v="Moen" />
		<tag k="place" v="locality" />
		<tag k="ssr:stedsnr" v="820947" />
	</node>
	<node lat="63.97584444188799" lon="10.626219438581733" id="-84645">
		<tag k="name" v="Storfjellmyran" />
		<tag k="natural" v="wetland" />
		<tag k="ssr:stedsnr" v="863134" />
	</node>
	<node lat="64.13111944199164" lon="10.428888887769906" id="-84654">
		<tag k="name" v="Rørholmyran" />
		<tag k="natural" v="wetland" />
		<tag k="ssr:stedsnr" v="863377" />
	</node>
	<node lat="64.18665555135597" lon="10.230422223956278" id="-84662">
		<tag k="name" v="Grønnlimyran" />
		<tag k="natural" v="wetland" />
		<tag k="ssr:stedsnr" v="863490" />
	</node>
	<node lat="63.96563888981425" lon="10.168433323236616" id="-84724">
		<tag k="name" v="Tjønnmyra" />
		<tag k="natural" v="wetland" />
		<tag k="ssr:stedsnr" v="880625" />
	</node>
	<node lat="63.92012221806431" lon="10.457377776472725" id="-84727">
		<tag k="name" v="Fjøsmoen" />
		<tag k="place" v="locality" />
		<tag k="ssr:stedsnr" v="880151" />
	</node>
	<node lat="64.00269722332801" lon="10.23812500146181" id="-84733">
		<tag k="name" v="Brumyr" />
		<tag k="natural" v="wetland" />
		<tag k="ssr:stedsnr" v="880076" />
	</node>
	<node lat="63.95814722236027" lon="10.131972219565128" id="-84749">
		<tag k="name" v="Kjerkskardmyra" />
		<tag k="natural" v="wetland" />
		<tag k="ssr:stedsnr" v="880662" />
	</node>
	<node lat="63.97257777663869" lon="10.416097215177716" id="-84751">
		<tag k="name" v="Tømmerloppet" />
		<tag k="place" v="locality" />
		<tag k="ssr:stedsnr" v="880781" />
	</node>
	<node lat="64.01248889177259" lon="10.366011105372229" id="-84757">
		<tag k="name" v="Myrengøra" />
		<tag k="place" v="locality" />
		<tag k="ssr:stedsnr" v="880832" />
	</node>
	<node lat="63.93377222625127" lon="10.378308336639362" id="-84762">
		<tag k="name" v="Fjellmyra" />
		<tag k="natural" v="wetland" />
		<tag k="ssr:stedsnr" v="880946" />
	</node>
	<node lat="64.18684444148275" lon="10.298255547882341" id="-84764">
		<tag k="name" v="Buloa" />
		<tag k="place" v="locality" />
		<tag k="ssr:stedsnr" v="881025" />
	</node>
	<node lat="63.931680553532296" lon="10.45012222023371" id="-84770">
		<tag k="name" v="Hissigmyran" />
		<tag k="natural" v="wetland" />
		<tag k="ssr:stedsnr" v="880971" />
	</node>
	<node lat="63.92910833673188" lon="10.368758323891313" id="-84774">
		<tag k="name" v="Notvollen" />
		<tag k="place" v="locality" />
		<tag k="ssr:stedsnr" v="880987" />
	</node>
	<node lat="63.95304444012331" lon="10.220627782361369" id="-84790">
		<tag k="name" v="Bakarvika" />
		<tag k="place" v="locality" />
		<tag k="ssr:stedsnr" v="881141" />
	</node>
	<node lat="64.23837777994598" lon="10.32915000768847" id="-84803">
		<tag k="name" v="Bessakermarka" />
		<tag k="place" v="locality" />
		<tag k="ssr:stedsnr" v="881190" />
	</node>
	<node lat="64.16999166321455" lon="10.451722225908355" id="-84805">
		<tag k="name" v="Tverlimyra" />
		<tag k="natural" v="wetland" />
		<tag k="ssr:stedsnr" v="881294" />
	</node>
	<node lat="63.961574997200636" lon="10.647211117617697" id="-84806">
		<tag k="name" v="Kårenget" />
		<tag k="place" v="locality" />
		<tag k="ssr:stedsnr" v="881366" />
	</node>
	<node lat="63.941830556641825" lon="10.225824992657222" id="-84810">
		<tag k="name" v="Brannan" />
		<tag k="place" v="locality" />
		<tag k="ssr:stedsnr" v="881630" />
	</node>
	<node lat="64.14590555348265" lon="10.33226387954833" id="-84821">
		<tag k="landuse" v="meadow" />
		<tag k="name" v="Vesterelvslætta" />
		<tag k="ssr:stedsnr" v="881707" />
	</node>
	<node lat="64.03946111353481" lon="10.087991675836546" id="-84830">
		<tag k="name" v="Bottenmyra" />
		<tag k="natural" v="wetland" />
		<tag k="ssr:stedsnr" v="881894" />
	</node>
	<node lat="63.977877779996895" lon="10.466869436598468" id="-84853">
		<tag k="name" v="Moltmyra" />
		<tag k="natural" v="wetland" />
		<tag k="ssr:stedsnr" v="941701" />
	</node>
	<node lat="64.23414444059411" lon="10.294708328581684" id="-84868">
		<tag k="name" v="Sørenget" />
		<tag k="place" v="locality" />
		<tag k="ssr:stedsnr" v="941043" />
	</node>
	<node lat="63.96936666844747" lon="10.04880832908696" id="-84869">
		<tag k="name" v="Stormyra" />
		<tag k="natural" v="wetland" />
		<tag k="ssr:stedsnr" v="941044" />
	</node>
	<node lat="63.95374444191372" lon="9.964466669165896" id="-84877">
		<tag k="name" v="Gammelgården" />
		<tag k="place" v="locality" />
		<tag k="ssr:stedsnr" v="941081" />
	</node>
	<node lat="63.94695832948451" lon="10.248622228464031" id="-84881">
		<tag k="name" v="Stigan" />
		<tag k="place" v="locality" />
		<tag k="ssr:stedsnr" v="941138" />
	</node>
	<node lat="64.07430278053471" lon="10.146599999607663" id="-84893">
		<tag k="name" v="Kviturda" />
		<tag k="natural" v="scree" />
		<tag k="ssr:stedsnr" v="941130" />
	</node>
	<node lat="64.04222777730817" lon="10.124997223509475" id="-84896">
		<tag k="name" v="Rennmyra" />
		<tag k="natural" v="wetland" />
		<tag k="ssr:stedsnr" v="941194" />
	</node>
	<node lat="64.24406944172368" lon="10.368808339037763" id="-84897">
		<tag k="name" v="Storenget" />
		<tag k="place" v="locality" />
		<tag k="ssr:stedsnr" v="941197" />
	</node>
	<node lat="63.992208337378045" lon="10.155738897827373" id="-84911">
		<tag k="name" v="Langdalmyra" />
		<tag k="natural" v="wetland" />
		<tag k="ssr:stedsnr" v="941152" />
	</node>
	<node lat="64.16180833032759" lon="10.323533330862649" id="-84914">
		<tag k="name" v="Brekkmyran" />
		<tag k="natural" v="wetland" />
		<tag k="ssr:stedsnr" v="941160" />
	</node>
	<node lat="63.96181110720637" lon="10.213288888717882" id="-84925">
		<tag k="name" v="Torholet" />
		<tag k="place" v="locality" />
		<tag k="ssr:stedsnr" v="941293" />
	</node>
	<node lat="63.96308611492104" lon="10.115622212584448" id="-84937">
		<tag k="name" v="Ospvika" />
		<tag k="place" v="locality" />
		<tag k="ssr:stedsnr" v="941359" />
	</node>
	<node lat="64.00577499656129" lon="10.491502782718447" id="-84944">
		<tag k="name" v="Buenget" />
		<tag k="place" v="locality" />
		<tag k="ssr:stedsnr" v="941542" />
	</node>
	<node lat="63.99495277664263" lon="10.457927786563753" id="-84947">
		<tag k="name" v="Moenurda" />
		<tag k="natural" v="scree" />
		<tag k="ssr:stedsnr" v="941557" />
	</node>
	<node lat="64.05166944090075" lon="10.36148055825367" id="-84952">
		<tag k="historic" v="shieling" />
		<tag k="name" v="Nittaliseteren" />
		<tag k="place" v="locality" />
		<tag k="ssr:stedsnr" v="941637" />
	</node>
	<node lat="64.01653055294946" lon="10.528247219850183" id="-84955">
		<tag k="name" v="Fjellsengmyra" />
		<tag k="natural" v="wetland" />
		<tag k="ssr:stedsnr" v="941510" />
	</node>
	<node lat="63.971113889051175" lon="10.176574994518159" id="-84962">
		<tag k="name" v="Neverholet" />
		<tag k="place" v="locality" />
		<tag k="ssr:stedsnr" v="941582" />
	</node>
	<node lat="63.96164166677497" lon="10.15591943871764" id="-84963">
		<tag k="name" v="Setermyra" />
		<tag k="natural" v="wetland" />
		<tag k="ssr:stedsnr" v="941585" />
	</node>
	<node lat="64.07178055362812" lon="10.482116674467392" id="-84965">
		<tag k="name" v="Langglenna" />
		<tag k="natural" v="wetland" />
		<tag k="ssr:stedsnr" v="941594" />
	</node>
	<node lat="64.04244444353178" lon="10.543325003759751" id="-84967">
		<tag k="name" v="Kårenget" />
		<tag k="place" v="locality" />
		<tag k="ssr:stedsnr" v="941614" />
	</node>
	<node lat="63.96364721808146" lon="10.13200000045567" id="-84969">
		<tag k="name" v="Snåtervollan" />
		<tag k="place" v="locality" />
		<tag k="ssr:stedsnr" v="941616" />
	</node>
	<node lat="64.04410833586266" lon="10.570230549830885" id="-84970">
		<tag k="name" v="Finnstadmyra" />
		<tag k="natural" v="wetland" />
		<tag k="ssr:stedsnr" v="941617" />
	</node>
	<node lat="63.92417777963458" lon="10.460913888922715" id="-84972">
		<tag k="name" v="Stormyra" />
		<tag k="natural" v="wetland" />
		<tag k="ssr:stedsnr" v="941620" />
	</node>
	<node lat="63.918799998682964" lon="10.457516668641398" id="-84973">
		<tag k="landuse" v="meadow" />
		<tag k="name" v="Litlenget" />
		<tag k="ssr:stedsnr" v="941626" />
	</node>
	<node lat="63.95571388711489" lon="10.251311120232696" id="-84975">
		<tag k="name" v="Bjørnaenget" />
		<tag k="place" v="locality" />
		<tag k="ssr:stedsnr" v="941734" />
	</node>
	<node lat="64.00461944165322" lon="10.364144440008285" id="-84994">
		<tag k="historic" v="shieling" />
		<tag k="name" v="Naustseteren" />
		<tag k="place" v="locality" />
		<tag k="ssr:stedsnr" v="941864" />
	</node>
	<node lat="64.03775555875293" lon="10.404677769413901" id="-84998">
		<tag k="name" v="Sannamyra" />
		<tag k="natural" v="wetland" />
		<tag k="ssr:stedsnr" v="941652" />
	</node>
	<node lat="63.98584444817818" lon="10.213750009474422" id="-85013">
		<tag k="name" v="Skolanova" />
		<tag k="place" v="locality" />
		<tag k="ssr:stedsnr" v="941728" />
	</node>
	<node lat="64.02845555142197" lon="10.370961117909001" id="-85027">
		<tag k="name" v="Pålmyra" />
		<tag k="natural" v="wetland" />
		<tag k="ssr:stedsnr" v="941829" />
	</node>
	<node lat="63.9081166642741" lon="10.414211120491393" id="-85029">
		<tag k="name" v="Blåfjellmyran" />
		<tag k="natural" v="wetland" />
		<tag k="ssr:stedsnr" v="941874" />
	</node>
	<node lat="63.93816944652544" lon="10.450077770355534" id="-85037">
		<tag k="name" v="Dordienget" />
		<tag k="place" v="locality" />
		<tag k="ssr:stedsnr" v="941970" />
	</node>
	<node lat="64.0996638911555" lon="10.263272229605832" id="-85050">
		<tag k="name" v="Nesa" />
		<tag k="place" v="locality" />
		<tag k="ssr:stedsnr" v="942080" />
	</node>
	<node lat="64.17072778008892" lon="10.437711110610246" id="-85056">
		<tag k="name" v="Spannklumpmyra" />
		<tag k="natural" v="wetland" />
		<tag k="ssr:stedsnr" v="942290" />
	</node>
	<node lat="64.17884166355657" lon="10.401447218078193" id="-85065">
		<tag k="name" v="Skardmyra" />
		<tag k="natural" v="wetland" />
		<tag k="ssr:stedsnr" v="942335" />
	</node>
</osm>
