<?xml version="1.0" encoding="UTF-8"?>
<osm version="0.6" generator="osmapis">
	<node lat="63.96135277753185" lon="10.20159166019418" id="-37502">
		<tag k="alt_name" v="Nummer 11" />
		<tag k="amenity" v="community_centre" />
		<tag k="name" v="Furuly" />
		<tag k="ssr:stedsnr" v="237348" />
	</node>
	<node lat="63.92254722229612" lon="10.418469444952441" id="-37503">
		<tag k="amenity" v="community_centre" />
		<tag k="name" v="Sørdalshuset" />
		<tag k="old_name" v="Sørdalen grendahus" />
		<tag k="ssr:stedsnr" v="237358" />
	</node>
	<node lat="64.15431666639654" lon="10.533061121066835" id="-37504">
		<tag k="amenity" v="community_centre" />
		<tag k="name" v="Skistua" />
		<tag k="ssr:stedsnr" v="239299" />
	</node>
	<node lat="64.08056944123868" lon="10.064288897618326" id="-37631">
		<tag k="name" v="Harbakshola" />
		<tag k="ssr:stedsnr" v="134207" />
		<tag k="tourism" v="attraction" />
	</node>
	<node lat="63.967786109836744" lon="10.223047226369644" id="-37840">
		<tag k="name" v="Naustanstua" />
		<tag k="ssr:stedsnr" v="176324" />
		<tag k="tourism" v="museum" />
	</node>
</osm>
