<?xml version="1.0" encoding="UTF-8"?>
<osm version="0.6" generator="osmapis">
	<node lat="64.20821944303624" lon="10.31691389806959" id="-33200">
		<tag k="name" v="Nordvika" />
		<tag k="natural" v="bay" />
		<tag k="ssr:stedsnr" v="14005" />
	</node>
	<node lat="64.19480833608544" lon="10.034491669343241" id="-33202">
		<tag k="name" v="Vedøya" />
		<tag k="place" v="island" />
		<tag k="ssr:stedsnr" v="13993" />
	</node>
	<node lat="64.02504721924207" lon="10.038763888227441" id="-33203">
		<tag k="name" v="Vikafjorden" />
		<tag k="natural" v="bay" />
		<tag k="ssr:stedsnr" v="14103" />
	</node>
	<node lat="64.01813333146985" lon="9.970230546079751" id="-33204">
		<tag k="fixme" v="consider seamark:type=rock or natural=shoal" />
		<tag k="name" v="Stabbfluan" />
		<tag k="place" v="islet" />
		<tag k="ssr:stedsnr" v="14093" />
	</node>
	<node lat="64.028725004389" lon="9.940225003311674" id="-33205">
		<tag k="fixme" v="consider seamark:type=rock or natural=shoal" />
		<tag k="name" v="Bruskjæret" />
		<tag k="place" v="islet" />
		<tag k="ssr:stedsnr" v="14095" />
	</node>
	<node lat="64.02657777793162" lon="9.923819442475933" id="-33206">
		<tag k="name" v="Straumen" />
		<tag k="natural" v="bay" />
		<tag k="ssr:stedsnr" v="14098" />
	</node>
	<node lat="63.959987601476456" lon="10.099734062478785" id="-33222">
		<tag k="alt_name" v="Borgarholmen" />
		<tag k="fixme" v="multiple name tags, choose one and add the other to alt_name" />
		<tag k="name" v="Borgaren;Borgaholmen" />
		<tag k="place" v="islet" />
		<tag k="ssr:stedsnr" v="14659" />
	</node>
	<node lat="64.24824166846861" lon="10.155711105387777" id="-33223">
		<tag k="name" v="Bukkfallet" />
		<tag k="natural" v="shoal" />
		<tag k="place" v="locality" />
		<tag k="ssr:stedsnr" v="14975" />
	</node>
	<node lat="64.07680555589175" lon="10.162802774109732" id="-33224">
		<tag k="name" v="Simavika" />
		<tag k="natural" v="bay" />
		<tag k="ssr:stedsnr" v="21041" />
	</node>
	<node lat="64.21103056006062" lon="10.108752771255176" id="-33228">
		<tag k="fixme" v="consider seamark:type=rock or natural=shoal" />
		<tag k="name" v="Drevflesskjæret" />
		<tag k="place" v="islet" />
		<tag k="ssr:stedsnr" v="26229" />
	</node>
	<node lat="64.00350555863984" lon="9.87439166381551" id="-33229">
		<tag k="name" v="Kjervikneset" />
		<tag k="natural" v="cape" />
		<tag k="ssr:stedsnr" v="30106" />
	</node>
	<node lat="64.007988889204" lon="9.965483328433274" id="-33230">
		<tag k="name" v="Linesflua" />
		<tag k="natural" v="shoal" />
		<tag k="place" v="locality" />
		<tag k="ssr:stedsnr" v="30278" />
	</node>
	<node lat="63.96288611199423" lon="9.923458331195057" id="-33231">
		<tag k="name" v="Storflua" />
		<tag k="natural" v="shoal" />
		<tag k="place" v="locality" />
		<tag k="ssr:stedsnr" v="30315" />
	</node>
	<node lat="63.89502222533364" lon="9.989588881293601" id="-33232">
		<tag k="name" v="Kjøremneset" />
		<tag k="natural" v="cape" />
		<tag k="ssr:stedsnr" v="30638" />
	</node>
	<node lat="63.90056944723977" lon="9.995916664236745" id="-33233">
		<tag k="fixme" v="consider seamark:type=rock or natural=shoal" />
		<tag k="name" v="Hommelvikskjæret" />
		<tag k="place" v="islet" />
		<tag k="ssr:stedsnr" v="30644" />
	</node>
	<node lat="63.904183332802845" lon="10.016866662580277" id="-33237">
		<tag k="name" v="Ravikstranda" />
		<tag k="natural" v="beach" />
		<tag k="ssr:stedsnr" v="31002" />
	</node>
	<node lat="64.03632499835192" lon="10.040891670420017" id="-33249">
		<tag k="name" v="Halen" />
		<tag k="natural" v="cape" />
		<tag k="ssr:stedsnr" v="31165" />
	</node>
	<node lat="63.92430278043767" lon="9.88483056562392" id="-33263">
		<tag k="fixme" v="consider seamark:type=rock or natural=shoal" />
		<tag k="name" v="Smørholmskjæret" />
		<tag k="place" v="islet" />
		<tag k="ssr:stedsnr" v="31205" />
	</node>
	<node lat="63.92563333022091" lon="10.080799995183051" id="-33279">
		<tag k="name" v="Øyster Brattvika" />
		<tag k="natural" v="bay" />
		<tag k="ssr:stedsnr" v="31517" />
	</node>
	<node lat="63.93678889190805" lon="10.185580545980825" id="-33285">
		<tag k="name" v="Breivika" />
		<tag k="natural" v="bay" />
		<tag k="ssr:stedsnr" v="31579" />
	</node>
	<node lat="63.963544444040316" lon="10.111447215130983" id="-33291">
		<tag k="fixme" v="consider seamark:type=rock or natural=shoal" />
		<tag k="name" v="Ospvikskjæret" />
		<tag k="place" v="islet" />
		<tag k="ssr:stedsnr" v="31621" />
	</node>
	<node lat="64.1539388864432" lon="10.1897472154521" id="-33302">
		<tag k="name" v="Nesvika" />
		<tag k="natural" v="bay" />
		<tag k="ssr:stedsnr" v="31901" />
	</node>
	<node lat="64.00170000266787" lon="9.993480555159369" id="-33309">
		<tag k="alt_name" v="Kattavikholmen" />
		<tag k="name" v="Lamholmen" />
		<tag k="place" v="islet" />
		<tag k="ssr:stedsnr" v="31862" />
	</node>
	<node lat="63.9994777816357" lon="9.999261116373374" id="-33311">
		<tag k="name" v="Nordneset" />
		<tag k="natural" v="cape" />
		<tag k="ssr:stedsnr" v="31869" />
	</node>
	<node lat="63.97805278060838" lon="10.112655547798886" id="-33329">
		<tag k="name" v="Kvenndalsholmen" />
		<tag k="place" v="islet" />
		<tag k="ssr:stedsnr" v="73718" />
	</node>
	<node lat="64.17758889066205" lon="9.925675003233213" id="-33340">
		<tag k="name" v="Leiafallet" />
		<tag k="natural" v="shoal" />
		<tag k="place" v="locality" />
		<tag k="ssr:stedsnr" v="74209" />
	</node>
	<node lat="63.897355551709964" lon="10.003766671121982" id="-33346">
		<tag k="alt_name" v="Hummelvika" />
		<tag k="name" v="Hommelvika" />
		<tag k="natural" v="bay" />
		<tag k="ssr:stedsnr" v="74617" />
	</node>
	<node lat="63.98951944062567" lon="9.856397226629795" id="-33348">
		<tag k="name" v="Hellesøya" />
		<tag k="place" v="islet" />
		<tag k="ssr:stedsnr" v="74705" />
	</node>
	<node lat="64.00682778011893" lon="10.028513878809934" id="-33352">
		<tag k="name" v="Herfjorden" />
		<tag k="natural" v="bay" />
		<tag k="ssr:stedsnr" v="75068" />
	</node>
	<node lat="64.02333055666828" lon="9.800727785687837" id="-33354">
		<tag k="alt_name" v="Tøflua, yt" />
		<tag k="name" v="Ytre Tøflua" />
		<tag k="natural" v="shoal" />
		<tag k="place" v="locality" />
		<tag k="ssr:stedsnr" v="75106" />
	</node>
	<node lat="64.09076111151036" lon="9.868899997543378" id="-33356">
		<tag k="name" v="Lyngøya" />
		<tag k="place" v="island" />
		<tag k="ssr:stedsnr" v="75162" />
	</node>
	<node lat="64.09694722473301" lon="9.877341665276795" id="-33357">
		<tag k="fixme" v="consider seamark:type=rock or natural=shoal" />
		<tag k="name" v="Svartskjæret" />
		<tag k="place" v="islet" />
		<tag k="ssr:stedsnr" v="75166" />
	</node>
	<node lat="64.09470000050872" lon="9.867669453813633" id="-33358">
		<tag k="name" v="Kalvøya" />
		<tag k="place" v="island" />
		<tag k="ssr:stedsnr" v="75167" />
	</node>
	<node lat="64.23573888461027" lon="9.936277769844667" id="-33363">
		<tag k="name" v="Evena" />
		<tag k="natural" v="shoal" />
		<tag k="place" v="locality" />
		<tag k="ssr:stedsnr" v="75999" />
	</node>
	<node lat="64.17445555751651" lon="10.109038897312272" id="-33364">
		<tag k="name" v="Kyrpingrevet" />
		<tag k="natural" v="shoal" />
		<tag k="place" v="locality" />
		<tag k="ssr:stedsnr" v="86105" />
	</node>
	<node lat="64.2671027818464" lon="10.278327773396818" id="-33367">
		<tag k="fixme" v="consider seamark:type=rock or natural=shoal" />
		<tag k="name" v="Spjeldskjæret" />
		<tag k="place" v="islet" />
		<tag k="ssr:stedsnr" v="88092" />
	</node>
	<node lat="64.28074269749634" lon="10.359926096492632" id="-33368">
		<tag k="fixme" v="multiple name tags, choose one and add the other to alt_name" />
		<tag k="name" v="Augunsvika;Nordvika" />
		<tag k="natural" v="bay" />
		<tag k="ssr:stedsnr" v="88974" />
	</node>
	<node lat="64.07029722418426" lon="10.129249999221132" id="-33374">
		<tag k="name" v="Kjerkvikhammaren" />
		<tag k="natural" v="cape" />
		<tag k="ssr:stedsnr" v="91142" />
	</node>
	<node lat="63.91154444580486" lon="9.879638898949226" id="-33376">
		<tag k="name" v="Austaren" />
		<tag k="natural" v="shoal" />
		<tag k="place" v="locality" />
		<tag k="ssr:stedsnr" v="91171" />
	</node>
	<node lat="64.04241944664575" lon="9.941716661254993" id="-33377">
		<tag k="name" v="Stor-Torsholmen" />
		<tag k="place" v="islet" />
		<tag k="ssr:stedsnr" v="91173" />
	</node>
	<node lat="64.04873055770076" lon="9.943997215068338" id="-33378">
		<tag k="name" v="Sossvika" />
		<tag k="natural" v="bay" />
		<tag k="ssr:stedsnr" v="91174" />
	</node>
	<node lat="63.97787222121545" lon="10.00238333701901" id="-33386">
		<tag k="name" v="Ratvika" />
		<tag k="natural" v="bay" />
		<tag k="ssr:stedsnr" v="91367" />
	</node>
	<node lat="64.10476389001137" lon="10.05858612090279" id="-33388">
		<tag k="name" v="Tuvaodden" />
		<tag k="natural" v="cape" />
		<tag k="ssr:stedsnr" v="91522" />
	</node>
	<node lat="64.03891666270961" lon="9.87459999446236" id="-33402">
		<tag k="name" v="Tørrvika" />
		<tag k="natural" v="bay" />
		<tag k="ssr:stedsnr" v="91780" />
	</node>
	<node lat="63.99182499979759" lon="10.002930558367884" id="-33417">
		<tag k="name" v="Grøttingssanden" />
		<tag k="natural" v="bay" />
		<tag k="ssr:stedsnr" v="92170" />
	</node>
	<node lat="64.03276944355686" lon="9.92389721710262" id="-33430">
		<tag k="name" v="Grindavika" />
		<tag k="natural" v="bay" />
		<tag k="ssr:stedsnr" v="92816" />
	</node>
	<node lat="64.11715555706601" lon="10.127269435119619" id="-33431">
		<tag k="name" v="Otersteinan" />
		<tag k="natural" v="cape" />
		<tag k="ssr:stedsnr" v="92861" />
	</node>
	<node lat="64.14088889138573" lon="10.129897230408757" id="-33433">
		<tag k="fixme" v="consider seamark:type=rock or natural=shoal" />
		<tag k="name" v="Nord Veimannskjæret" />
		<tag k="place" v="islet" />
		<tag k="ssr:stedsnr" v="92866" />
	</node>
	<node lat="64.10588611457351" lon="10.225025005357429" id="-33436">
		<tag k="name" v="Sjånesodden" />
		<tag k="natural" v="cape" />
		<tag k="ssr:stedsnr" v="92913" />
	</node>
	<node lat="64.10368333536853" lon="10.21320278153805" id="-33437">
		<tag k="name" v="Strandaodden" />
		<tag k="natural" v="cape" />
		<tag k="ssr:stedsnr" v="92914" />
	</node>
	<node lat="64.04312222526534" lon="10.048136114036499" id="-33438">
		<tag k="name" v="Kjerkholmsundet" />
		<tag k="natural" v="strait" />
		<tag k="ssr:stedsnr" v="92927" />
	</node>
	<node lat="64.04404721913295" lon="9.837141669004831" id="-33442">
		<tag k="fixme" v="consider seamark:type=rock or natural=shoal" />
		<tag k="name" v="Storholmleiskjæret" />
		<tag k="place" v="islet" />
		<tag k="ssr:stedsnr" v="107915" />
	</node>
	<node lat="63.96919166687356" lon="10.01265278712636" id="-33459">
		<tag k="name" v="Tørhoggvågen" />
		<tag k="natural" v="bay" />
		<tag k="ssr:stedsnr" v="134706" />
	</node>
	<node lat="64.21105833329499" lon="10.302030562972059" id="-33464">
		<tag k="name" v="Spælodden" />
		<tag k="natural" v="cape" />
		<tag k="ssr:stedsnr" v="135008" />
	</node>
	<node lat="64.15615833359503" lon="10.029966673004884" id="-33470">
		<tag k="fixme" v="consider seamark:type=rock or natural=shoal" />
		<tag k="name" v="Rotskjæret" />
		<tag k="place" v="islet" />
		<tag k="ssr:stedsnr" v="135219" />
	</node>
	<node lat="64.02502499696504" lon="10.03450278543454" id="-33498">
		<tag k="name" v="Lauvstranda" />
		<tag k="natural" v="beach" />
		<tag k="ssr:stedsnr" v="256109" />
	</node>
	<node lat="64.19777499713801" lon="10.146958339786229" id="-33499">
		<tag k="name" v="Kjeøytaren" />
		<tag k="natural" v="shoal" />
		<tag k="place" v="locality" />
		<tag k="ssr:stedsnr" v="148225" />
	</node>
	<node lat="64.06040555630842" lon="9.926188891939809" id="-33502">
		<tag k="fixme" v="consider seamark:type=rock or natural=shoal" />
		<tag k="name" v="Naustskjæret" />
		<tag k="place" v="islet" />
		<tag k="ssr:stedsnr" v="256127" />
	</node>
	<node lat="64.04788889185181" lon="9.84468889904048" id="-33508">
		<tag k="fixme" v="consider seamark:type=rock or natural=shoal" />
		<tag k="name" v="Litltaren" />
		<tag k="place" v="islet" />
		<tag k="ssr:stedsnr" v="256147" />
	</node>
	<node lat="64.05348610772359" lon="9.943863891122414" id="-33511">
		<tag k="name" v="Hosnavika" />
		<tag k="natural" v="bay" />
		<tag k="ssr:stedsnr" v="256153" />
	</node>
	<node lat="64.19081110675846" lon="10.191591673564423" id="-33515">
		<tag k="name" v="Naustholmen" />
		<tag k="place" v="islet" />
		<tag k="ssr:stedsnr" v="256224" />
	</node>
	<node lat="64.14041666290727" lon="9.914366671166" id="-33518">
		<tag k="fixme" v="consider seamark:type=rock or natural=shoal" />
		<tag k="name" v="Seiskjæra" />
		<tag k="place" v="islet" />
		<tag k="ssr:stedsnr" v="256197" />
	</node>
	<node lat="64.14450847433427" lon="10.064196320717073" id="-33519">
		<tag k="name" v="Måøya" />
		<tag k="place" v="island" />
		<tag k="ssr:stedsnr" v="256199" />
	</node>
	<node lat="64.1896666678561" lon="10.059413887191225" id="-33522">
		<tag k="fixme" v="consider seamark:type=rock or natural=shoal" />
		<tag k="name" v="Annsteinskjæra" />
		<tag k="place" v="islet" />
		<tag k="ssr:stedsnr" v="256237" />
	</node>
	<node lat="64.15254166811015" lon="9.971219441637423" id="-33523">
		<tag k="fixme" v="consider seamark:type=rock or natural=shoal" />
		<tag k="name" v="Pålskjæret" />
		<tag k="place" v="islet" />
		<tag k="ssr:stedsnr" v="256241" />
	</node>
	<node lat="64.15210555338024" lon="10.153191665702824" id="-33524">
		<tag k="alt_name" v="Kråkøya" />
		<tag k="name" v="Sørkråkøya" />
		<tag k="place" v="island" />
		<tag k="ssr:stedsnr" v="256244" />
	</node>
	<node lat="64.17115555678907" lon="9.980636100906903" id="-33525">
		<tag k="name" v="Skattabogfallet" />
		<tag k="natural" v="shoal" />
		<tag k="place" v="locality" />
		<tag k="ssr:stedsnr" v="256248" />
	</node>
	<node lat="64.18199999910905" lon="10.364427769871453" id="-33535">
		<tag k="name" v="Minusodden" />
		<tag k="natural" v="cape" />
		<tag k="ssr:stedsnr" v="256441" />
	</node>
	<node lat="64.01720000386669" lon="9.962261119840994" id="-33544">
		<tag k="fixme" v="consider seamark:type=rock or natural=shoal" />
		<tag k="name" v="Nesaskjæret" />
		<tag k="place" v="islet" />
		<tag k="ssr:stedsnr" v="151317" />
	</node>
	<node lat="63.98431388511343" lon="9.95042221599257" id="-33545">
		<tag k="name" v="Djuptaren" />
		<tag k="natural" v="shoal" />
		<tag k="place" v="locality" />
		<tag k="ssr:stedsnr" v="151322" />
	</node>
	<node lat="63.9420111151092" lon="9.864861113211393" id="-33546">
		<tag k="name" v="Krabbholmen" />
		<tag k="place" v="islet" />
		<tag k="ssr:stedsnr" v="256509" />
	</node>
	<node lat="63.942099997886444" lon="9.84235833139291" id="-33547">
		<tag k="fixme" v="consider seamark:type=rock or natural=shoal" />
		<tag k="name" v="Skarvkletten" />
		<tag k="place" v="islet" />
		<tag k="ssr:stedsnr" v="256511" />
	</node>
	<node lat="63.945058335062825" lon="9.937766670818394" id="-33548">
		<tag k="alt_name" v="Bingsholmen, store" />
		<tag k="name" v="Store Bingsholmen" />
		<tag k="place" v="islet" />
		<tag k="ssr:stedsnr" v="256514" />
	</node>
	<node lat="63.93239166675323" lon="9.956150002598351" id="-33550">
		<tag k="name" v="Bergaholmen" />
		<tag k="place" v="islet" />
		<tag k="ssr:stedsnr" v="256497" />
	</node>
	<node lat="63.94064722454619" lon="9.928763890501196" id="-33551">
		<tag k="name" v="Bingsholmsråsa" />
		<tag k="natural" v="strait" />
		<tag k="ssr:stedsnr" v="256500" />
	</node>
	<node lat="63.906972219950084" lon="9.949924998437885" id="-33552">
		<tag k="name" v="Langhaugan" />
		<tag k="natural" v="cape" />
		<tag k="ssr:stedsnr" v="256579" />
	</node>
	<node lat="63.911197219095264" lon="9.994336117206245" id="-33553">
		<tag k="name" v="Øyan" />
		<tag k="natural" v="cape" />
		<tag k="ssr:stedsnr" v="256582" />
	</node>
	<node lat="64.14706389014468" lon="10.165275008732197" id="-33556">
		<tag k="fixme" v="consider seamark:type=rock or natural=shoal" />
		<tag k="name" v="Hongsandskjæret" />
		<tag k="place" v="islet" />
		<tag k="ssr:stedsnr" v="151672" />
	</node>
	<node lat="63.99739167063569" lon="10.208588897633069" id="-33557">
		<tag k="name" v="Halsaunneset" />
		<tag k="natural" v="cape" />
		<tag k="ssr:stedsnr" v="152102" />
	</node>
	<node lat="64.1070472211341" lon="10.258802781758273" id="-33559">
		<tag k="name" v="Sjursvika" />
		<tag k="natural" v="bay" />
		<tag k="ssr:stedsnr" v="152110" />
	</node>
	<node lat="63.96797221790762" lon="10.134683327708848" id="-33567">
		<tag k="name" v="Ivervika" />
		<tag k="natural" v="bay" />
		<tag k="ssr:stedsnr" v="152129" />
	</node>
	<node lat="63.977705554015174" lon="9.981750004688733" id="-33574">
		<tag k="fixme" v="consider seamark:type=rock or natural=shoal" />
		<tag k="name" v="Kvalen" />
		<tag k="place" v="islet" />
		<tag k="ssr:stedsnr" v="152058" />
	</node>
	<node lat="64.22301389271485" lon="10.25103889110227" id="-33577">
		<tag k="name" v="Keila" />
		<tag k="natural" v="bay" />
		<tag k="ssr:stedsnr" v="152069" />
	</node>
	<node lat="63.93695833200843" lon="9.955744446561733" id="-33582">
		<tag k="fixme" v="consider seamark:type=rock or natural=shoal" />
		<tag k="name" v="Trollskjæret" />
		<tag k="place" v="islet" />
		<tag k="ssr:stedsnr" v="152262" />
	</node>
	<node lat="64.1153777765308" lon="10.251227782616393" id="-33624">
		<tag k="name" v="Einvika" />
		<tag k="natural" v="bay" />
		<tag k="ssr:stedsnr" v="152905" />
	</node>
	<node lat="64.04405277979889" lon="10.059066668603505" id="-33625">
		<tag k="name" v="Kobbslottet" />
		<tag k="natural" v="shoal" />
		<tag k="place" v="locality" />
		<tag k="ssr:stedsnr" v="152952" />
	</node>
	<node lat="64.19788889253512" lon="10.092266671510592" id="-33630">
		<tag k="name" v="Værøya" />
		<tag k="place" v="island" />
		<tag k="ssr:stedsnr" v="256988" />
	</node>
	<node lat="64.20612778127872" lon="10.212786111898712" id="-33631">
		<tag k="name" v="Roneset" />
		<tag k="natural" v="cape" />
		<tag k="ssr:stedsnr" v="256989" />
	</node>
	<node lat="64.09994999976615" lon="10.047463889415507" id="-33636">
		<tag k="name" v="Kvernavika" />
		<tag k="natural" v="bay" />
		<tag k="ssr:stedsnr" v="257233" />
	</node>
	<node lat="64.1035833291745" lon="9.93314722936211" id="-33637">
		<tag k="fixme" v="consider seamark:type=rock or natural=shoal" />
		<tag k="name" v="Sjursskjæra" />
		<tag k="place" v="islet" />
		<tag k="ssr:stedsnr" v="257234" />
	</node>
	<node lat="64.27011666792768" lon="10.142252772217537" id="-33646">
		<tag k="name" v="Somstadflesa" />
		<tag k="place" v="island" />
		<tag k="ssr:stedsnr" v="257876" />
	</node>
	<node lat="64.25476110683952" lon="10.191355547880523" id="-33647">
		<tag k="fixme" v="consider seamark:type=rock or natural=shoal" />
		<tag k="name" v="Dorteaskjæret" />
		<tag k="place" v="islet" />
		<tag k="ssr:stedsnr" v="257879" />
	</node>
	<node lat="64.25917499835222" lon="10.125599993635173" id="-33648">
		<tag k="name" v="Litltaren" />
		<tag k="natural" v="shoal" />
		<tag k="place" v="locality" />
		<tag k="ssr:stedsnr" v="257882" />
	</node>
	<node lat="64.29825000044711" lon="10.107536113232719" id="-33649">
		<tag k="name" v="Litltaren" />
		<tag k="natural" v="shoal" />
		<tag k="place" v="locality" />
		<tag k="ssr:stedsnr" v="257900" />
	</node>
	<node lat="64.2339083341459" lon="10.175897229617117" id="-33650">
		<tag k="fixme" v="consider seamark:type=rock or natural=shoal" />
		<tag k="name" v="Svartskjæret" />
		<tag k="place" v="islet" />
		<tag k="ssr:stedsnr" v="257993" />
	</node>
	<node lat="64.01572500127408" lon="9.809574994056474" id="-33673">
		<tag k="fixme" v="consider seamark:type=rock or natural=shoal" />
		<tag k="name" v="Klakkskjæret" />
		<tag k="place" v="islet" />
		<tag k="ssr:stedsnr" v="196058" />
	</node>
	<node lat="64.01732500118143" lon="9.884766661562496" id="-33674">
		<tag k="name" v="Fagervikholmen" />
		<tag k="place" v="islet" />
		<tag k="ssr:stedsnr" v="196061" />
	</node>
	<node lat="64.11320000194948" lon="9.964077783061141" id="-33681">
		<tag k="name" v="Gjæsinga" />
		<tag k="place" v="island" />
		<tag k="ssr:stedsnr" v="196204" />
	</node>
	<node lat="64.10872777932309" lon="9.935349992501239" id="-33682">
		<tag k="alt_name" v="Tennskjer, store" />
		<tag k="fixme" v="consider seamark:type=rock or natural=shoal" />
		<tag k="name" v="Store Tennskjæret" />
		<tag k="place" v="islet" />
		<tag k="ssr:stedsnr" v="196208" />
	</node>
	<node lat="64.12147222345595" lon="9.962969443978366" id="-33683">
		<tag k="fixme" v="consider seamark:type=rock or natural=shoal" />
		<tag k="name" v="Skarvskjæret" />
		<tag k="place" v="islet" />
		<tag k="ssr:stedsnr" v="196210" />
	</node>
	<node lat="64.1631694475281" lon="9.893891658116393" id="-33684">
		<tag k="name" v="Rundflua" />
		<tag k="natural" v="shoal" />
		<tag k="place" v="locality" />
		<tag k="ssr:stedsnr" v="196229" />
	</node>
	<node lat="64.16481666547506" lon="10.166138880625912" id="-33685">
		<tag k="name" v="Vollvika" />
		<tag k="natural" v="cape" />
		<tag k="ssr:stedsnr" v="196231" />
	</node>
	<node lat="64.1031000025127" lon="10.057577768281874" id="-33692">
		<tag k="name" v="Tømmervika" />
		<tag k="natural" v="bay" />
		<tag k="ssr:stedsnr" v="196179" />
	</node>
	<node lat="64.11004899636782" lon="10.14206923752845" id="-33693">
		<tag k="name" v="Geisnesoddan" />
		<tag k="natural" v="cape" />
		<tag k="ssr:stedsnr" v="196181" />
	</node>
	<node lat="64.2636138866808" lon="10.179305554819095" id="-33699">
		<tag k="name" v="Olataren" />
		<tag k="natural" v="shoal" />
		<tag k="place" v="locality" />
		<tag k="ssr:stedsnr" v="196837" />
	</node>
	<node lat="64.10802222505367" lon="10.157277770274845" id="-33705">
		<tag k="name" v="Kvernavika" />
		<tag k="natural" v="bay" />
		<tag k="ssr:stedsnr" v="196778" />
	</node>
	<node lat="64.30998889256394" lon="10.133502771569997" id="-33706">
		<tag k="name" v="Råsskolten" />
		<tag k="natural" v="shoal" />
		<tag k="place" v="locality" />
		<tag k="ssr:stedsnr" v="196860" />
	</node>
	<node lat="64.21983889250001" lon="10.06698056521477" id="-33708">
		<tag k="name" v="Djupbåen" />
		<tag k="natural" v="shoal" />
		<tag k="place" v="locality" />
		<tag k="ssr:stedsnr" v="208095" />
	</node>
	<node lat="64.26629722122604" lon="10.284255562641421" id="-33709">
		<tag k="name" v="Spjeldvika" />
		<tag k="natural" v="bay" />
		<tag k="ssr:stedsnr" v="208130" />
	</node>
	<node lat="64.26479166654026" lon="10.349647219221925" id="-33710">
		<tag k="name" v="Bryggneset" />
		<tag k="natural" v="cape" />
		<tag k="ssr:stedsnr" v="269010" />
	</node>
	<node lat="64.18192222113164" lon="10.012649994394078" id="-33713">
		<tag k="name" v="Helsøya" />
		<tag k="place" v="island" />
		<tag k="ssr:stedsnr" v="269336" />
	</node>
	<node lat="64.19100833193299" lon="9.943991674432654" id="-33714">
		<tag k="alt_name" v="Venttaren, n" />
		<tag k="name" v="Nordre Venttaren" />
		<tag k="natural" v="shoal" />
		<tag k="place" v="locality" />
		<tag k="ssr:stedsnr" v="210830" />
	</node>
	<node lat="64.16938333160803" lon="10.14623610321125" id="-33715">
		<tag k="name" v="Langtaren" />
		<tag k="natural" v="shoal" />
		<tag k="place" v="locality" />
		<tag k="ssr:stedsnr" v="210832" />
	</node>
	<node lat="63.93017222062496" lon="9.88603611257455" id="-33716">
		<tag k="name" v="Kalven" />
		<tag k="place" v="island" />
		<tag k="ssr:stedsnr" v="212179" />
	</node>
	<node lat="63.95058610861515" lon="9.971386104998642" id="-33719">
		<tag k="fixme" v="consider seamark:type=rock or natural=shoal" />
		<tag k="name" v="Bryggskjæra" />
		<tag k="place" v="islet" />
		<tag k="ssr:stedsnr" v="213103" />
	</node>
	<node lat="63.91800277372066" lon="10.038038886455968" id="-33727">
		<tag k="name" v="Holsundet" />
		<tag k="natural" v="strait" />
		<tag k="ssr:stedsnr" v="213014" />
	</node>
	<node lat="63.910741666903185" lon="9.982455548023875" id="-33732">
		<tag k="fixme" v="consider seamark:type=rock or natural=shoal" />
		<tag k="name" v="Småskjæra" />
		<tag k="place" v="islet" />
		<tag k="ssr:stedsnr" v="213031" />
	</node>
	<node lat="63.960780559971404" lon="10.027688892101434" id="-33733">
		<tag k="name" v="Saltnesholmen" />
		<tag k="natural" v="cape" />
		<tag k="ssr:stedsnr" v="213079" />
	</node>
	<node lat="63.93113055805793" lon="9.87416666919333" id="-33739">
		<tag k="name" v="Hestholman" />
		<tag k="place" v="islet" />
		<tag k="ssr:stedsnr" v="213232" />
	</node>
	<node lat="64.08375277644478" lon="10.036966672204237" id="-33749">
		<tag k="name" v="Målet" />
		<tag k="natural" v="shoal" />
		<tag k="place" v="locality" />
		<tag k="ssr:stedsnr" v="213184" />
	</node>
	<node lat="64.04548333086751" lon="10.02028054831532" id="-33750">
		<tag k="name" v="Harsvikråsa" />
		<tag k="place" v="sea" />
		<tag k="ssr:stedsnr" v="213185" />
	</node>
	<node lat="63.92995277513265" lon="10.190480563335825" id="-33756">
		<tag k="name" v="Ospvika" />
		<tag k="natural" v="bay" />
		<tag k="ssr:stedsnr" v="213392" />
	</node>
	<node lat="63.9072111076405" lon="10.075291671357169" id="-33771">
		<tag k="name" v="Vassbukta" />
		<tag k="natural" v="bay" />
		<tag k="ssr:stedsnr" v="213579" />
	</node>
	<node lat="64.05238332960376" lon="10.076622228608063" id="-33792">
		<tag k="name" v="Høvika" />
		<tag k="natural" v="bay" />
		<tag k="ssr:stedsnr" v="213985" />
	</node>
	<node lat="64.25938055696753" lon="10.226269454369847" id="-33796">
		<tag k="name" v="Sandøytaren" />
		<tag k="natural" v="shoal" />
		<tag k="place" v="locality" />
		<tag k="ssr:stedsnr" v="270146" />
	</node>
	<node lat="64.22608889292506" lon="10.057986109675488" id="-33798">
		<tag k="name" v="Fåklakken" />
		<tag k="natural" v="shoal" />
		<tag k="ssr:stedsnr" v="271847" />
	</node>
	<node lat="64.23473055538231" lon="10.272088895530954" id="-33799">
		<tag k="name" v="Rundholmen" />
		<tag k="place" v="islet" />
		<tag k="ssr:stedsnr" v="451176" />
	</node>
	<node lat="64.22418889183903" lon="10.10472221995946" id="-33800">
		<tag k="name" v="Langtaren" />
		<tag k="place" v="islet" />
		<tag k="ssr:stedsnr" v="451138" />
	</node>
	<node lat="64.20886667017163" lon="10.248961102694569" id="-33803">
		<tag k="name" v="Flutaran" />
		<tag k="natural" v="shoal" />
		<tag k="place" v="locality" />
		<tag k="ssr:stedsnr" v="451201" />
	</node>
	<node lat="64.24784721923513" lon="10.181730552300731" id="-33804">
		<tag k="fixme" v="consider seamark:type=rock or natural=shoal" />
		<tag k="name" v="Indre Ertnskjæret" />
		<tag k="place" v="islet" />
		<tag k="ssr:stedsnr" v="452116" />
	</node>
	<node lat="63.92098888739686" lon="9.954619451923039" id="-33805">
		<tag k="name" v="Rørholmen" />
		<tag k="place" v="islet" />
		<tag k="ssr:stedsnr" v="455266" />
	</node>
	<node lat="64.07081944792068" lon="10.141288894709563" id="-33806">
		<tag k="name" v="Lielvneset" />
		<tag k="natural" v="cape" />
		<tag k="ssr:stedsnr" v="455233" />
	</node>
	<node lat="63.982163885273664" lon="9.963569452710958" id="-33811">
		<tag k="name" v="Stortaren" />
		<tag k="natural" v="shoal" />
		<tag k="place" v="locality" />
		<tag k="ssr:stedsnr" v="455292" />
	</node>
	<node lat="63.972375003029875" lon="10.145677775360143" id="-33860">
		<tag k="name" v="Skarsteinneset" />
		<tag k="natural" v="cape" />
		<tag k="ssr:stedsnr" v="456129" />
	</node>
	<node lat="64.15346389177869" lon="10.192016667208424" id="-33870">
		<tag k="name" v="Neshammaren" />
		<tag k="natural" v="cape" />
		<tag k="ssr:stedsnr" v="456149" />
	</node>
	<node lat="64.10545555861927" lon="10.2189527881157" id="-33885">
		<tag k="name" v="Joskjørodden" />
		<tag k="natural" v="cape" />
		<tag k="ssr:stedsnr" v="456286" />
	</node>
	<node lat="63.935413888951764" lon="9.9485055548945" id="-33895">
		<tag k="name" v="Tørresodden" />
		<tag k="natural" v="cape" />
		<tag k="ssr:stedsnr" v="456247" />
	</node>
	<node lat="64.25991389038046" lon="10.33230556201152" id="-33897">
		<tag k="fixme" v="consider seamark:type=rock or natural=shoal" />
		<tag k="name" v="Løaholmskjæret" />
		<tag k="place" v="islet" />
		<tag k="ssr:stedsnr" v="456251" />
	</node>
	<node lat="63.9345694414931" lon="10.082736113249386" id="-33908">
		<tag k="name" v="Øset" />
		<tag k="natural" v="bay" />
		<tag k="ssr:stedsnr" v="456342" />
	</node>
	<node lat="64.02747777763501" lon="10.024833330992148" id="-33909">
		<tag k="name" v="Fleskodden" />
		<tag k="natural" v="cape" />
		<tag k="ssr:stedsnr" v="256111" />
	</node>
	<node lat="63.918744440012226" lon="9.913850005631563" id="-33914">
		<tag k="name" v="Landhaugholmen" />
		<tag k="place" v="islet" />
		<tag k="ssr:stedsnr" v="256468" />
	</node>
	<node lat="63.93729722515074" lon="10.209713887935647" id="-33948">
		<tag k="name" v="Heggbervika" />
		<tag k="natural" v="bay" />
		<tag k="ssr:stedsnr" v="456644" />
	</node>
	<node lat="64.2746319433038" lon="9.94801444896543" id="-33955">
		<tag k="name" v="Bårklakken" />
		<tag k="natural" v="shoal" />
		<tag k="place" v="locality" />
		<tag k="ssr:stedsnr" v="257904" />
	</node>
	<node lat="64.28870832949403" lon="10.16097500577571" id="-33956">
		<tag k="name" v="Jonsgrunnen" />
		<tag k="natural" v="shoal" />
		<tag k="place" v="locality" />
		<tag k="ssr:stedsnr" v="257905" />
	</node>
	<node lat="64.27897499934028" lon="10.201666658140148" id="-33957">
		<tag k="name" v="Kleppholman" />
		<tag k="place" v="islet" />
		<tag k="ssr:stedsnr" v="257910" />
	</node>
	<node lat="64.05415278159275" lon="10.05901111088101" id="-33969">
		<tag k="name" v="Høvikholet" />
		<tag k="natural" v="strait" />
		<tag k="ssr:stedsnr" v="456783" />
	</node>
	<node lat="64.23897222266721" lon="9.989305551309373" id="-33971">
		<tag k="name" v="Værknausen" />
		<tag k="natural" v="shoal" />
		<tag k="place" v="locality" />
		<tag k="ssr:stedsnr" v="257978" />
	</node>
	<node lat="64.04193889041328" lon="9.922694442688153" id="-33985">
		<tag k="name" v="Litlsandholmen" />
		<tag k="place" v="islet" />
		<tag k="ssr:stedsnr" v="456834" />
	</node>
	<node lat="64.04384166251377" lon="10.070083328268693" id="-33986">
		<tag k="name" v="Garnbøtaren" />
		<tag k="natural" v="bay" />
		<tag k="ssr:stedsnr" v="456876" />
	</node>
	<node lat="64.17167777541938" lon="10.179902777317801" id="-33992">
		<tag k="name" v="Nordvika" />
		<tag k="natural" v="bay" />
		<tag k="ssr:stedsnr" v="456891" />
	</node>
	<node lat="64.14835278030301" lon="10.155511114497646" id="-33993">
		<tag k="name" v="Purkholmen" />
		<tag k="place" v="islet" />
		<tag k="ssr:stedsnr" v="456894" />
	</node>
	<node lat="64.14968889061875" lon="10.146672214065333" id="-33994">
		<tag k="name" v="Skaga" />
		<tag k="natural" v="cape" />
		<tag k="ssr:stedsnr" v="456898" />
	</node>
	<node lat="63.99819722980114" lon="9.982942889692062" id="-33996">
		<tag k="name" v="Ingebriktsholman" />
		<tag k="place" v="islet" />
		<tag k="ssr:stedsnr" v="456858" />
	</node>
	<node lat="64.11343055428712" lon="10.256372217240175" id="-33998">
		<tag k="name" v="Jektstøa" />
		<tag k="natural" v="bay" />
		<tag k="ssr:stedsnr" v="456914" />
	</node>
	<node lat="64.07483611268107" lon="10.027369452551495" id="-33999">
		<tag k="name" v="Gangstøa" />
		<tag k="natural" v="beach" />
		<tag k="ssr:stedsnr" v="456964" />
	</node>
	<node lat="64.04138333139215" lon="10.052211118214458" id="-34000">
		<tag k="name" v="Purkholmstøtta" />
		<tag k="place" v="locality" />
		<tag k="seamark:type" v="rock" />
		<tag k="ssr:stedsnr" v="456968" />
	</node>
	<node lat="64.03404166279198" lon="10.051383337766186" id="-34002">
		<tag k="name" v="Jonasvika" />
		<tag k="natural" v="bay" />
		<tag k="ssr:stedsnr" v="456972" />
	</node>
	<node lat="64.01701666445693" lon="10.063572215046873" id="-34003">
		<tag k="name" v="Gartnesvika" />
		<tag k="natural" v="bay" />
		<tag k="ssr:stedsnr" v="456975" />
	</node>
	<node lat="64.0859916671709" lon="10.034308325993603" id="-34006">
		<tag k="name" v="Løsmannsholet" />
		<tag k="natural" v="bay" />
		<tag k="ssr:stedsnr" v="456981" />
	</node>
	<node lat="64.04551111417412" lon="10.054649992617616" id="-34014">
		<tag k="name" v="Lusialbukta" />
		<tag k="natural" v="bay" />
		<tag k="ssr:stedsnr" v="456950" />
	</node>
	<node lat="64.03675833757451" lon="10.008036106193517" id="-34015">
		<tag k="fixme" v="consider seamark:type=rock or natural=shoal" />
		<tag k="name" v="Bruraskjæret" />
		<tag k="place" v="islet" />
		<tag k="ssr:stedsnr" v="456954" />
	</node>
	<node lat="64.19776666571475" lon="10.295969442120338" id="-34017">
		<tag k="name" v="Haganeset" />
		<tag k="natural" v="cape" />
		<tag k="ssr:stedsnr" v="268077" />
	</node>
	<node lat="64.17027777502823" lon="10.216530554342013" id="-34018">
		<tag k="name" v="Sørvikneset" />
		<tag k="natural" v="cape" />
		<tag k="ssr:stedsnr" v="269102" />
	</node>
	<node lat="63.976825000387514" lon="10.106419448719592" id="-34026">
		<tag k="name" v="Nordøset" />
		<tag k="natural" v="strait" />
		<tag k="ssr:stedsnr" v="273109" />
	</node>
	<node lat="64.19979167057264" lon="10.304255561256438" id="-34062">
		<tag k="name" v="Singsneset" />
		<tag k="natural" v="cape" />
		<tag k="ssr:stedsnr" v="274021" />
	</node>
	<node lat="63.930066669948985" lon="10.013341663320961" id="-34069">
		<tag k="name" v="Eidemsbukta" />
		<tag k="natural" v="bay" />
		<tag k="ssr:stedsnr" v="274222" />
	</node>
	<node lat="63.935968329584306" lon="9.938237820577728" id="-34077">
		<tag k="name" v="Langstranda" />
		<tag k="natural" v="beach" />
		<tag k="ssr:stedsnr" v="274180" />
	</node>
	<node lat="64.01952500389837" lon="9.997086102433155" id="-34086">
		<tag k="name" v="Knubbholmen" />
		<tag k="place" v="islet" />
		<tag k="ssr:stedsnr" v="274802" />
	</node>
	<node lat="64.10345833657931" lon="10.19029444909556" id="-34092">
		<tag k="name" v="Myllavika" />
		<tag k="natural" v="bay" />
		<tag k="ssr:stedsnr" v="274903" />
	</node>
	<node lat="63.952250001002874" lon="10.0326972251319" id="-34098">
		<tag k="fixme" v="consider seamark:type=rock or natural=shoal" />
		<tag k="name" v="Langskjæret" />
		<tag k="place" v="islet" />
		<tag k="ssr:stedsnr" v="275989" />
	</node>
	<node lat="63.98671666878029" lon="10.178255564599118" id="-34117">
		<tag k="name" v="Humstadsundet" />
		<tag k="natural" v="strait" />
		<tag k="ssr:stedsnr" v="316746" />
	</node>
	<node lat="63.984358333392414" lon="9.864269440677202" id="-34119">
		<tag k="fixme" v="consider seamark:type=rock or natural=shoal" />
		<tag k="name" v="Skreiskjæra" />
		<tag k="place" v="islet" />
		<tag k="ssr:stedsnr" v="316754" />
	</node>
	<node lat="63.98649722079392" lon="9.846944442234065" id="-34120">
		<tag k="fixme" v="consider seamark:type=rock or natural=shoal" />
		<tag k="name" v="Maurskjæret" />
		<tag k="place" v="islet" />
		<tag k="ssr:stedsnr" v="316755" />
	</node>
	<node lat="64.11775000164658" lon="9.968116667630955" id="-34124">
		<tag k="name" v="Kjøbenhavneren" />
		<tag k="natural" v="cape" />
		<tag k="ssr:stedsnr" v="317202" />
	</node>
	<node lat="64.1059805511961" lon="9.957672230131115" id="-34125">
		<tag k="name" v="Håkkaflua" />
		<tag k="natural" v="shoal" />
		<tag k="place" v="locality" />
		<tag k="ssr:stedsnr" v="317204" />
	</node>
</osm>
