<?xml version="1.0" encoding="UTF-8"?>
<osm version="0.6" generator="osmapis">
	<node lat="64.00827499837314" lon="10.042291659686839" id="-91404">
		<tag k="fixme" v="specify shooting=range, clay_pigeon etc" />
		<tag k="leisure" v="pitch" />
		<tag k="name" v="Herfjorden skytebane" />
		<tag k="sport" v="shooting" />
		<tag k="ssr:stedsnr" v="423741" />
	</node>
	<node lat="63.990136114848426" lon="10.410855549446863" id="-91758">
		<tag k="fixme" v="specify shooting=range, clay_pigeon etc" />
		<tag k="leisure" v="pitch" />
		<tag k="name" v="By skytebane" />
		<tag k="sport" v="shooting" />
		<tag k="ssr:stedsnr" v="544723" />
	</node>
	<node lat="63.9360083324998" lon="10.367308327327617" id="-92599">
		<tag k="fixme" v="specify shooting=range, clay_pigeon etc" />
		<tag k="leisure" v="pitch" />
		<tag k="name" v="Sørdalen skytebane" />
		<tag k="sport" v="shooting" />
		<tag k="ssr:stedsnr" v="848718" />
	</node>
	<node lat="64.23139166785906" lon="10.34059167220207" id="-92898">
		<tag k="fixme" v="specify shooting=range, clay_pigeon etc" />
		<tag k="leisure" v="pitch" />
		<tag k="name" v="Skyttarbanen" />
		<tag k="sport" v="shooting" />
		<tag k="ssr:stedsnr" v="31200" />
	</node>
	<node lat="64.18808889340121" lon="10.321416665383792" id="-94833">
		<tag k="fixme" v="specify shooting=range, clay_pigeon etc" />
		<tag k="leisure" v="pitch" />
		<tag k="name" v="Sumstad skytebane" />
		<tag k="sport" v="shooting" />
		<tag k="ssr:stedsnr" v="603290" />
	</node>
	<node lat="64.17526944142443" lon="10.458100001702316" id="-95966">
		<tag k="fixme" v="specify shooting=range, clay_pigeon etc" />
		<tag k="leisure" v="pitch" />
		<tag k="name" v="Hopstaddalen skytebane" />
		<tag k="sport" v="shooting" />
		<tag k="ssr:stedsnr" v="967270" />
	</node>
	<node lat="64.12882500058646" lon="10.139511108282425" id="-95967">
		<tag k="fixme" v="specify shooting=range, clay_pigeon etc" />
		<tag k="leisure" v="pitch" />
		<tag k="name" v="Kiran skytebane" />
		<tag k="sport" v="shooting" />
		<tag k="ssr:stedsnr" v="967273" />
	</node>
	<node lat="63.97528889001932" lon="10.216858331894487" id="-95968">
		<tag k="fixme" v="specify shooting=range, clay_pigeon etc" />
		<tag k="leisure" v="pitch" />
		<tag k="name" v="Hutjønna skytebane" />
		<tag k="sport" v="shooting" />
		<tag k="ssr:stedsnr" v="969710" />
	</node>
</osm>
