<?xml version="1.0" encoding="UTF-8"?>
<osm version="0.6" generator="osmapis">
	<node lat="63.96495833569237" lon="10.211630553441188" id="-90256">
		<tag k="fixme" v="consider place=suburb, village or hamlet" />
		<tag k="name" v="Vassneset" />
		<tag k="place" v="quarter" />
		<tag k="ssr:stedsnr" v="13707" />
	</node>
	<node lat="64.17310277917286" lon="10.3401833232508" id="-90280">
		<tag k="alt_name" v="Bakkan" />
		<tag k="name" v="Bakken" />
		<tag k="place" v="farm" />
		<tag k="ssr:stedsnr" v="14380" />
	</node>
	<node lat="63.92765277488824" lon="9.938505546750703" id="-90317">
		<tag k="name" v="Lauvøya" />
		<tag k="place" v="farm" />
		<tag k="ssr:stedsnr" v="31302" />
	</node>
	<node lat="63.98568333300684" lon="10.001986108891955" id="-90319">
		<tag k="name" v="Hestvik" />
		<tag k="place" v="farm" />
		<tag k="ssr:stedsnr" v="31318" />
	</node>
	<node lat="64.00081388791051" lon="10.231997226457718" id="-90329">
		<tag k="name" v="Imsen" />
		<tag k="place" v="farm" />
		<tag k="ssr:stedsnr" v="31262" />
	</node>
	<node lat="63.96146111135537" lon="10.111308338422852" id="-90352">
		<tag k="name" v="Moldbakkan" />
		<tag k="place" v="farm" />
		<tag k="ssr:stedsnr" v="31623" />
	</node>
	<node lat="63.993469446015716" lon="10.018091667350593" id="-90372">
		<tag k="name" v="Sandholan" />
		<tag k="place" v="isolated_dwelling" />
		<tag k="ssr:stedsnr" v="31872" />
	</node>
	<node lat="64.03906666533717" lon="10.062177784394839" id="-90380">
		<tag k="name" v="Aquarius brygge" />
		<tag k="ssr:stedsnr" v="59723" />
		<tag k="tourism" v="guest_house" />
	</node>
	<node lat="64.05406389121951" lon="9.952100005781084" id="-90381">
		<tag k="name" v="Stokkøya sjøsenter" />
		<tag k="ssr:stedsnr" v="59724" />
		<tag k="tourism" v="guest_house" />
	</node>
	<node lat="63.9277833227932" lon="10.160994677614173" id="-90384">
		<tag k="name" v="Kroken" />
		<tag k="place" v="farm" />
		<tag k="ssr:stedsnr" v="242200" />
	</node>
	<node lat="64.00347777455663" lon="10.230969438489645" id="-90386">
		<tag k="name" v="Imsen" />
		<tag k="place" v="farm" />
		<tag k="ssr:stedsnr" v="242722" />
	</node>
	<node lat="63.990000003884006" lon="10.175533341351366" id="-90387">
		<tag k="name" v="Dolmset" />
		<tag k="place" v="farm" />
		<tag k="ssr:stedsnr" v="242733" />
	</node>
	<node lat="64.23970555239462" lon="10.29085833151581" id="-90393">
		<tag k="name" v="Vettavik" />
		<tag k="place" v="farm" />
		<tag k="ssr:stedsnr" v="74041" />
	</node>
	<node lat="63.98515000098772" lon="10.411419452998315" id="-90396">
		<tag k="alt_name" v="Ytterlia" />
		<tag k="name" v="Bylia" />
		<tag k="place" v="farm" />
		<tag k="ssr:stedsnr" v="74155" />
	</node>
	<node lat="63.99783860910132" lon="10.311064545497409" id="-90399">
		<tag k="alt_name" v="Mølsletta, vestre" />
		<tag k="name" v="Vestre Mølsletta" />
		<tag k="place" v="farm" />
		<tag k="ssr:stedsnr" v="74167" />
	</node>
	<node lat="64.21659444609139" lon="10.273333340448158" id="-90411">
		<tag k="name" v="Storvika" />
		<tag k="place" v="farm" />
		<tag k="ssr:stedsnr" v="75006" />
	</node>
	<node lat="64.02804722186741" lon="9.886413881062294" id="-90416">
		<tag k="alt_name" v="Eid" />
		<tag k="fixme" v="consider place=hamlet" />
		<tag k="name" v="Eide" />
		<tag k="place" v="farm" />
		<tag k="ssr:stedsnr" v="75110" />
	</node>
	<node lat="64.15482248552134" lon="10.186442551793146" id="-90426">
		<tag k="fixme" v="consider place=hamlet" />
		<tag k="name" v="Nes" />
		<tag k="place" v="farm" />
		<tag k="ssr:stedsnr" v="86988" />
	</node>
	<node lat="64.27616666953888" lon="10.361994435343824" id="-90427">
		<tag k="name" v="Lekkersvika" />
		<tag k="place" v="farm" />
		<tag k="ssr:stedsnr" v="87011" />
	</node>
	<node lat="63.91760555821234" lon="9.97422500057145" id="-90443">
		<tag k="name" v="Valen" />
		<tag k="place" v="farm" />
		<tag k="ssr:stedsnr" v="91015" />
	</node>
	<node lat="63.92528889063515" lon="9.994383327020413" id="-90446">
		<tag k="name" v="Bjørnavika" />
		<tag k="place" v="farm" />
		<tag k="ssr:stedsnr" v="91365" />
	</node>
	<node lat="63.98437499911108" lon="10.393936112816485" id="-90462">
		<tag k="name" v="Liabakkan" />
		<tag k="place" v="farm" />
		<tag k="ssr:stedsnr" v="91771" />
	</node>
	<node lat="63.93035000379831" lon="10.408794434523225" id="-90469">
		<tag k="name" v="Solvang" />
		<tag k="place" v="farm" />
		<tag k="ssr:stedsnr" v="91922" />
	</node>
	<node lat="64.17631420914837" lon="10.359142864023767" id="-90479">
		<tag k="fixme" v="consider place=hamlet" />
		<tag k="name" v="Halsvika" />
		<tag k="place" v="farm" />
		<tag k="ssr:stedsnr" v="92172" />
	</node>
	<node lat="64.24536388637915" lon="10.324749993643103" id="-90505">
		<tag k="fixme" v="consider place=hamlet" />
		<tag k="name" v="Bessaker" />
		<tag k="place" v="village" />
		<tag k="ssr:stedsnr" v="134057" />
	</node>
	<node lat="64.0591416626" lon="9.953583332358864" id="-90509">
		<tag k="fixme" v="consider place=hamlet" />
		<tag k="name" v="Svenningen" />
		<tag k="place" v="farm" />
		<tag k="ssr:stedsnr" v="134159" />
	</node>
	<node lat="63.965019444176804" lon="10.254763889135653" id="-90514">
		<tag k="name" v="Fossmoen" />
		<tag k="place" v="farm" />
		<tag k="ssr:stedsnr" v="134402" />
	</node>
	<node lat="64.11281111359494" lon="10.548675007504269" id="-90530">
		<tag k="name" v="Stein" />
		<tag k="place" v="farm" />
		<tag k="ssr:stedsnr" v="135321" />
	</node>
	<node lat="64.16147656115619" lon="10.187995413395393" id="-90533">
		<tag k="fixme" v="multiple name tags, choose one and add the other to alt_name" />
		<tag k="name" v="Reina;Brandsøya" />
		<tag k="place" v="farm" />
		<tag k="ssr:stedsnr" v="135223" />
	</node>
	<node lat="64.1818750026942" lon="10.379424993970886" id="-90541">
		<tag k="name" v="Olvika" />
		<tag k="place" v="isolated_dwelling" />
		<tag k="ssr:stedsnr" v="135454" />
	</node>
	<node lat="64.18285833333418" lon="10.273061113635649" id="-90544">
		<tag k="fixme" v="consider place=hamlet" />
		<tag k="name" v="Fjorden" />
		<tag k="place" v="farm" />
		<tag k="ssr:stedsnr" v="135462" />
	</node>
	<node lat="64.18119999825771" lon="10.352141670644752" id="-90545">
		<tag k="name" v="Dalen" />
		<tag k="place" v="farm" />
		<tag k="ssr:stedsnr" v="135463" />
	</node>
	<node lat="63.91564444098015" lon="10.419422221506746" id="-90552">
		<tag k="alt_name" v="Oldernes" />
		<tag k="name" v="Olderneset" />
		<tag k="place" v="farm" />
		<tag k="ssr:stedsnr" v="255333" />
	</node>
	<node lat="63.91976175796263" lon="10.447326524768059" id="-90553">
		<tag k="fixme" v="consider place=hamlet" />
		<tag k="name" v="Flenstad" />
		<tag k="place" v="farm" />
		<tag k="ssr:stedsnr" v="255337" />
	</node>
	<node lat="64.02558888778248" lon="10.050733325825313" id="-90556">
		<tag k="fixme" v="consider place=hamlet" />
		<tag k="name" v="Åknes" />
		<tag k="place" v="farm" />
		<tag k="ssr:stedsnr" v="256121" />
	</node>
	<node lat="64.05913055851128" lon="9.941597212481403" id="-90565">
		<tag k="name" v="Troningen" />
		<tag k="place" v="farm" />
		<tag k="ssr:stedsnr" v="256129" />
	</node>
	<node lat="63.96806110928739" lon="10.229922231196577" id="-90567">
		<tag k="name" v="Elvebakk" />
		<tag k="place" v="farm" />
		<tag k="ssr:stedsnr" v="256137" />
	</node>
	<node lat="63.98355278110482" lon="10.469216665078687" id="-90568">
		<tag k="name" v="Seljemo" />
		<tag k="place" v="farm" />
		<tag k="ssr:stedsnr" v="256139" />
	</node>
	<node lat="63.93400833110911" lon="10.028169442743817" id="-90611">
		<tag k="name" v="Fagerheim" />
		<tag k="place" v="isolated_dwelling" />
		<tag k="ssr:stedsnr" v="256495" />
	</node>
	<node lat="64.18176111353962" lon="10.236066674330745" id="-90631">
		<tag k="name" v="Øygårdan" />
		<tag k="place" v="farm" />
		<tag k="ssr:stedsnr" v="152003" />
	</node>
	<node lat="63.91824166406403" lon="9.970438887983303" id="-90634">
		<tag k="alt_name" v="Barøy nordre" />
		<tag k="name" v="Nordre Barøy nordre" />
		<tag k="place" v="farm" />
		<tag k="ssr:stedsnr" v="152017" />
	</node>
	<node lat="63.97658610941449" lon="9.992519443721816" id="-90635">
		<tag k="name" v="Torsnes" />
		<tag k="place" v="farm" />
		<tag k="ssr:stedsnr" v="152057" />
	</node>
	<node lat="63.977847221672846" lon="10.007905561100483" id="-90640">
		<tag k="name" v="Mellomskogen" />
		<tag k="place" v="farm" />
		<tag k="ssr:stedsnr" v="152071" />
	</node>
	<node lat="63.969099996545644" lon="9.995408334353911" id="-90641">
		<tag k="name" v="Trøa" />
		<tag k="place" v="isolated_dwelling" />
		<tag k="ssr:stedsnr" v="152076" />
	</node>
	<node lat="63.959408329093144" lon="10.10736110685354" id="-90647">
		<tag k="name" v="Storvika" />
		<tag k="place" v="farm" />
		<tag k="ssr:stedsnr" v="256667" />
	</node>
	<node lat="63.9633750024351" lon="10.197155563954553" id="-90653">
		<tag k="name" v="Joenget" />
		<tag k="place" v="farm" />
		<tag k="ssr:stedsnr" v="152316" />
	</node>
	<node lat="64.05915277913915" lon="10.392880563528783" id="-90657">
		<tag k="historic" v="shieling" />
		<tag k="name" v="Bakkaseteren" />
		<tag k="place" v="isolated_dwelling" />
		<tag k="ssr:stedsnr" v="152656" />
	</node>
	<node lat="63.99927109828677" lon="10.205764596422158" id="-90668">
		<tag k="fixme" v="consider place=hamlet" />
		<tag k="name" v="Grytan" />
		<tag k="place" v="farm" />
		<tag k="ssr:stedsnr" v="256689" />
	</node>
	<node lat="64.01115000248228" lon="10.502988880470145" id="-90669">
		<tag k="alt_name" v="Forfot, øvre" />
		<tag k="name" v="Øvre Forfot" />
		<tag k="place" v="farm" />
		<tag k="ssr:stedsnr" v="256692" />
	</node>
	<node lat="64.00814721851464" lon="10.499186117144891" id="-90670">
		<tag k="alt_name" v="Forfot, nedre" />
		<tag k="name" v="Nedre Forfot" />
		<tag k="place" v="farm" />
		<tag k="ssr:stedsnr" v="256694" />
	</node>
	<node lat="63.969022219688284" lon="10.205297228730705" id="-90676">
		<tag k="name" v="Buenget" />
		<tag k="place" v="farm" />
		<tag k="ssr:stedsnr" v="152754" />
	</node>
	<node lat="63.99130277750114" lon="10.063155564739036" id="-90682">
		<tag k="historic" v="shieling" />
		<tag k="name" v="Herfjordseteren" />
		<tag k="place" v="isolated_dwelling" />
		<tag k="ssr:stedsnr" v="152770" />
	</node>
	<node lat="64.1456597331763" lon="10.177956845688918" id="-90689">
		<tag k="fixme" v="consider place=hamlet" />
		<tag k="name" v="Stranda" />
		<tag k="place" v="farm" />
		<tag k="ssr:stedsnr" v="153763" />
	</node>
	<node lat="64.03733333615124" lon="10.048863890134863" id="-90706">
		<tag k="fixme" v="consider place=hamlet" />
		<tag k="name" v="Revsnes" />
		<tag k="place" v="farm" />
		<tag k="ssr:stedsnr" v="159051" />
	</node>
	<node lat="63.96956944156883" lon="10.22016388017411" id="-90713">
		<tag k="name" v="Prestegårdshaugen boligfelt" />
		<tag k="place" v="quarter" />
		<tag k="ssr:stedsnr" v="163019" />
	</node>
	<node lat="63.96004722535085" lon="10.219097219411765" id="-90714">
		<tag k="name" v="Frønes boligfelt" />
		<tag k="place" v="quarter" />
		<tag k="ssr:stedsnr" v="163103" />
	</node>
	<node lat="64.02718333788992" lon="10.079449990670254" id="-90718">
		<tag k="alt_name" v="Stokksund skole" />
		<tag k="amenity" v="school" />
		<tag k="name" v="Stokksund oppvekstsenter" />
		<tag k="ssr:stedsnr" v="180868" />
	</node>
	<node lat="63.930161107524484" lon="10.300547226263532" id="-90724">
		<tag k="name" v="Vassodden" />
		<tag k="place" v="farm" />
		<tag k="ssr:stedsnr" v="195347" />
	</node>
	<node lat="64.20286414475135" lon="10.398195802117991" id="-90731">
		<tag k="fixme" v="consider place=hamlet" />
		<tag k="name" v="Moen" />
		<tag k="place" v="farm" />
		<tag k="ssr:stedsnr" v="196029" />
	</node>
	<node lat="64.23797499608499" lon="10.303602777635032" id="-90733">
		<tag k="name" v="Nyheim" />
		<tag k="place" v="farm" />
		<tag k="ssr:stedsnr" v="196039" />
	</node>
	<node lat="64.07001944060583" lon="9.946616673178358" id="-90741">
		<tag k="name" v="Svenningsneset" />
		<tag k="place" v="farm" />
		<tag k="ssr:stedsnr" v="196144" />
	</node>
	<node lat="63.98231710648028" lon="10.436290093908422" id="-90742">
		<tag k="alt_name" v="Gilde" />
		<tag k="fixme" v="consider place=hamlet" />
		<tag k="name" v="Gilda" />
		<tag k="place" v="farm" />
		<tag k="ssr:stedsnr" v="196154" />
	</node>
	<node lat="64.03222384602435" lon="10.322111820394394" id="-90760">
		<tag k="fixme" v="multiple name tags, choose one and add the other to alt_name" />
		<tag k="name" v="Fjellheim;Valleraunseteren" />
		<tag k="place" v="farm" />
		<tag k="ssr:stedsnr" v="196671" />
	</node>
	<node lat="64.2567527754187" lon="10.290891665004379" id="-90774">
		<tag k="name" v="Børøyaunet" />
		<tag k="place" v="locality" />
		<tag k="ssr:stedsnr" v="269167" />
	</node>
	<node lat="63.967958328957536" lon="9.973963888517176" id="-90788">
		<tag k="name" v="Naustmyra" />
		<tag k="place" v="farm" />
		<tag k="ssr:stedsnr" v="213013" />
	</node>
	<node lat="63.9083027820871" lon="9.95880556563017" id="-90790">
		<tag k="name" v="Myrvang" />
		<tag k="place" v="farm" />
		<tag k="ssr:stedsnr" v="213024" />
	</node>
	<node lat="64.1954138880137" lon="10.312094440590725" id="-90791">
		<tag k="name" v="Hagan" />
		<tag k="place" v="farm" />
		<tag k="ssr:stedsnr" v="213027" />
	</node>
	<node lat="64.24320278193949" lon="10.324297214199909" id="-90797">
		<tag k="name" v="Heggegården" />
		<tag k="place" v="farm" />
		<tag k="ssr:stedsnr" v="213225" />
	</node>
	<node lat="64.16926388495762" lon="10.48920833941812" id="-90802">
		<tag k="name" v="Sagmoen" />
		<tag k="place" v="farm" />
		<tag k="ssr:stedsnr" v="213279" />
	</node>
	<node lat="63.91158333103657" lon="10.245000008625293" id="-90825">
		<tag k="name" v="Møriaunstranda" />
		<tag k="place" v="farm" />
		<tag k="ssr:stedsnr" v="213684" />
	</node>
	<node lat="64.02331944218804" lon="9.885077780742497" id="-90826">
		<tag k="name" v="Langvik" />
		<tag k="place" v="farm" />
		<tag k="ssr:stedsnr" v="213689" />
	</node>
	<node lat="64.06268055276858" lon="10.021958341736333" id="-90828">
		<tag k="name" v="Sundgårsmyra" />
		<tag k="place" v="farm" />
		<tag k="ssr:stedsnr" v="213806" />
	</node>
	<node lat="64.15911944237759" lon="10.181866670256067" id="-90848">
		<tag k="name" v="Munkhaugen" />
		<tag k="place" v="farm" />
		<tag k="ssr:stedsnr" v="213903" />
	</node>
	<node lat="64.15168611440171" lon="10.177994448793333" id="-90849">
		<tag k="name" v="Halsan" />
		<tag k="place" v="farm" />
		<tag k="ssr:stedsnr" v="213904" />
	</node>
	<node lat="63.98348610848033" lon="10.422966668078864" id="-90866">
		<tag k="fixme" v="consider place=hamlet" />
		<tag k="name" v="By" />
		<tag k="place" v="village" />
		<tag k="ssr:stedsnr" v="242114" />
	</node>
	<node lat="63.91996944379127" lon="10.450330559827176" id="-90867">
		<tag k="name" v="Flenstad" />
		<tag k="place" v="farm" />
		<tag k="ssr:stedsnr" v="242127" />
	</node>
	<node lat="64.12573055966998" lon="10.272066668296869" id="-90885">
		<tag k="name" v="Øykvikbakkan" />
		<tag k="place" v="farm" />
		<tag k="ssr:stedsnr" v="456076" />
	</node>
	<node lat="64.1314444479658" lon="10.21408055372555" id="-90886">
		<tag k="name" v="Dalan" />
		<tag k="place" v="farm" />
		<tag k="ssr:stedsnr" v="456082" />
	</node>
	<node lat="63.98092222350336" lon="10.406963885973676" id="-90894">
		<tag k="name" v="Rundtommen" />
		<tag k="place" v="farm" />
		<tag k="ssr:stedsnr" v="455746" />
	</node>
	<node lat="63.9878777784565" lon="10.385558330324272" id="-90905">
		<tag k="alt_name" v="Staven" />
		<tag k="name" v="Løabakkan" />
		<tag k="place" v="farm" />
		<tag k="ssr:stedsnr" v="455788" />
	</node>
	<node lat="64.23516110871641" lon="10.297216663490381" id="-90919">
		<tag k="name" v="Voll" />
		<tag k="place" v="farm" />
		<tag k="ssr:stedsnr" v="456054" />
	</node>
	<node lat="63.98313888875839" lon="10.122927773169025" id="-90924">
		<tag k="name" v="Litlenget" />
		<tag k="place" v="farm" />
		<tag k="ssr:stedsnr" v="456125" />
	</node>
	<node lat="64.13779167070255" lon="10.201497228753354" id="-90928">
		<tag k="name" v="Langøra" />
		<tag k="place" v="farm" />
		<tag k="ssr:stedsnr" v="456143" />
	</node>
	<node lat="64.1755777809646" lon="10.238452781384709" id="-90934">
		<tag k="name" v="Inner Skardet" />
		<tag k="place" v="farm" />
		<tag k="ssr:stedsnr" v="456147" />
	</node>
	<node lat="64.17560555605561" lon="10.357124998228345" id="-90939">
		<tag k="name" v="Halsan" />
		<tag k="place" v="farm" />
		<tag k="ssr:stedsnr" v="456183" />
	</node>
	<node lat="64.17106111331454" lon="10.36555832525378" id="-90943">
		<tag k="name" v="Kikbakkan" />
		<tag k="place" v="farm" />
		<tag k="ssr:stedsnr" v="456194" />
	</node>
	<node lat="64.169861109863" lon="10.371897225644057" id="-90951">
		<tag k="name" v="Myra" />
		<tag k="place" v="farm" />
		<tag k="ssr:stedsnr" v="456293" />
	</node>
	<node lat="64.01210555742465" lon="10.067186111396115" id="-90968">
		<tag k="fixme" v="consider place=hamlet" />
		<tag k="name" v="Lauvlia" />
		<tag k="place" v="farm" />
		<tag k="ssr:stedsnr" v="256076" />
	</node>
	<node lat="63.992788889122885" lon="10.444902784120815" id="-90975">
		<tag k="alt_name" v="Fjellmyr" />
		<tag k="name" v="Fjellmyra" />
		<tag k="place" v="farm" />
		<tag k="ssr:stedsnr" v="256159" />
	</node>
	<node lat="63.98795000195211" lon="10.385294452145915" id="-90976">
		<tag k="name" v="Myrvang" />
		<tag k="place" v="farm" />
		<tag k="ssr:stedsnr" v="256165" />
	</node>
	<node lat="63.92752123591924" lon="10.161348756654178" id="-90981">
		<tag k="fixme" v="consider place=hamlet" />
		<tag k="name" v="Kroken" />
		<tag k="place" v="farm" />
		<tag k="ssr:stedsnr" v="256472" />
	</node>
	<node lat="63.903267903637335" lon="10.064908053957163" id="-90985">
		<tag k="fixme" v="consider place=hamlet" />
		<tag k="name" v="Brulia" />
		<tag k="place" v="farm" />
		<tag k="ssr:stedsnr" v="256560" />
	</node>
	<node lat="64.26253889191779" lon="10.304102771404496" id="-90989">
		<tag k="fixme" v="consider place=hamlet" />
		<tag k="name" v="Børøya" />
		<tag k="place" v="farm" />
		<tag k="ssr:stedsnr" v="256577" />
	</node>
	<node lat="63.979736114031475" lon="10.172077781810133" id="-91000">
		<tag k="name" v="Skogly" />
		<tag k="place" v="farm" />
		<tag k="ssr:stedsnr" v="456595" />
	</node>
	<node lat="63.9376555561175" lon="10.223163897612036" id="-91010">
		<tag k="alt_name" v="Arnvika" />
		<tag k="name" v="Arnevik" />
		<tag k="place" v="farm" />
		<tag k="ssr:stedsnr" v="456635" />
	</node>
	<node lat="63.96932499982593" lon="10.202677774241407" id="-91031">
		<tag k="name" v="Lomsenget" />
		<tag k="place" v="farm" />
		<tag k="ssr:stedsnr" v="456728" />
	</node>
	<node lat="63.994627777328546" lon="9.994911103853049" id="-91042">
		<tag k="name" v="Bryggvika" />
		<tag k="place" v="locality" />
		<tag k="ssr:stedsnr" v="456860" />
	</node>
	<node lat="64.03909444835178" lon="10.082127776236344" id="-91047">
		<tag k="name" v="Einbakkan" />
		<tag k="place" v="farm" />
		<tag k="ssr:stedsnr" v="456872" />
	</node>
	<node lat="64.12722222346406" lon="10.129266660575329" id="-91049">
		<tag k="name" v="Sjåbakkan" />
		<tag k="place" v="farm" />
		<tag k="ssr:stedsnr" v="456874" />
	</node>
	<node lat="64.12312222525016" lon="10.142658334596304" id="-91053">
		<tag k="name" v="Stinesgården" />
		<tag k="place" v="farm" />
		<tag k="ssr:stedsnr" v="456878" />
	</node>
	<node lat="64.12226110931186" lon="10.14363333724682" id="-91054">
		<tag k="name" v="Bakkan" />
		<tag k="place" v="farm" />
		<tag k="ssr:stedsnr" v="456882" />
	</node>
	<node lat="63.97947500299573" lon="10.106872212261404" id="-91093">
		<tag k="name" v="Gløtten" />
		<tag k="place" v="farm" />
		<tag k="ssr:stedsnr" v="273111" />
	</node>
	<node lat="64.10570277882691" lon="10.534658337513525" id="-91103">
		<tag k="name" v="Furuly" />
		<tag k="place" v="farm" />
		<tag k="ssr:stedsnr" v="273382" />
	</node>
	<node lat="63.975058337012165" lon="10.387027772978861" id="-91116">
		<tag k="name" v="Eliasgården" />
		<tag k="place" v="locality" />
		<tag k="ssr:stedsnr" v="273811" />
	</node>
	<node lat="63.98146388862474" lon="10.419761101490861" id="-91124">
		<tag k="name" v="Skålin" />
		<tag k="place" v="farm" />
		<tag k="ssr:stedsnr" v="273784" />
	</node>
	<node lat="63.93296110736061" lon="9.94139722561039" id="-91142">
		<tag k="name" v="Myrheim" />
		<tag k="place" v="farm" />
		<tag k="ssr:stedsnr" v="274179" />
	</node>
	<node lat="64.02030555181668" lon="10.01526944217724" id="-91153">
		<tag k="name" v="Haugen" />
		<tag k="place" v="farm" />
		<tag k="ssr:stedsnr" v="274807" />
	</node>
	<node lat="64.1028027784032" lon="10.193124994126391" id="-91159">
		<tag k="name" v="Nesset" />
		<tag k="place" v="farm" />
		<tag k="ssr:stedsnr" v="274912" />
	</node>
	<node lat="64.04478888742786" lon="10.038127768831556" id="-91162">
		<tag k="name" v="Kjerkgården" />
		<tag k="place" v="locality" />
		<tag k="ssr:stedsnr" v="274925" />
	</node>
	<node lat="63.972250003377326" lon="10.080172212988188" id="-91166">
		<tag k="name" v="Morka boligfelt" />
		<tag k="place" v="quarter" />
		<tag k="ssr:stedsnr" v="284021" />
	</node>
	<node lat="63.926458334472166" lon="10.295908330475088" id="-91180">
		<tag k="name" v="Osa" />
		<tag k="place" v="farm" />
		<tag k="ssr:stedsnr" v="316397" />
	</node>
	<node lat="63.98926985381077" lon="10.459672874854688" id="-91200">
		<tag k="fixme" v="consider place=hamlet" />
		<tag k="name" v="Rømma" />
		<tag k="place" v="farm" />
		<tag k="ssr:stedsnr" v="317127" />
	</node>
	<node lat="64.17403610699864" lon="10.34107499556568" id="-91214">
		<tag k="name" v="Myra" />
		<tag k="place" v="farm" />
		<tag k="ssr:stedsnr" v="317403" />
	</node>
	<node lat="63.944744442105154" lon="10.114313884249912" id="-91216">
		<tag k="name" v="Kleiva" />
		<tag k="place" v="farm" />
		<tag k="ssr:stedsnr" v="317491" />
	</node>
	<node lat="64.02509444115704" lon="10.386625009497168" id="-91218">
		<tag k="alt_name" v="Nittamark, vestre" />
		<tag k="name" v="Vestre Nittamarka" />
		<tag k="place" v="farm" />
		<tag k="ssr:stedsnr" v="317652" />
	</node>
	<node lat="63.91922778171705" lon="9.980886117455286" id="-91241">
		<tag k="name" v="Barøyskardet" />
		<tag k="place" v="isolated_dwelling" />
		<tag k="ssr:stedsnr" v="334307" />
	</node>
	<node lat="63.94395000311532" lon="10.079974995188051" id="-91252">
		<tag k="name" v="Eid" />
		<tag k="place" v="farm" />
		<tag k="ssr:stedsnr" v="334504" />
	</node>
	<node lat="63.98636944124925" lon="10.190024990789327" id="-91257">
		<tag k="name" v="Furuly" />
		<tag k="place" v="farm" />
		<tag k="ssr:stedsnr" v="334549" />
	</node>
	<node lat="63.960969440847336" lon="10.172097213311703" id="-91262">
		<tag k="name" v="Nordheim" />
		<tag k="place" v="locality" />
		<tag k="ssr:stedsnr" v="334595" />
	</node>
	<node lat="63.968478198465306" lon="10.221832658325708" id="-91269">
		<tag k="amenity" v="nursing_home" />
		<tag k="name" v="Åfjord helsesenter" />
		<tag k="ssr:stedsnr" v="334720" />
	</node>
	<node lat="63.99122500031321" lon="10.015880547044585" id="-91277">
		<tag k="name" v="Dalen" />
		<tag k="place" v="farm" />
		<tag k="ssr:stedsnr" v="334861" />
	</node>
	<node lat="63.98543888549472" lon="10.417624997566055" id="-91283">
		<tag k="name" v="Sve" />
		<tag k="place" v="farm" />
		<tag k="ssr:stedsnr" v="334746" />
	</node>
	<node lat="64.03645833073014" lon="9.98195278500596" id="-91285">
		<tag k="name" v="Tjeldvika" />
		<tag k="place" v="farm" />
		<tag k="ssr:stedsnr" v="334794" />
	</node>
	<node lat="64.10009999741212" lon="10.527897214775376" id="-91313">
		<tag k="alt_name" v="Storrdal" />
		<tag k="name" v="Storrdalen" />
		<tag k="place" v="farm" />
		<tag k="ssr:stedsnr" v="378364" />
	</node>
	<node lat="64.10483889211093" lon="10.536244452547495" id="-91314">
		<tag k="name" v="Brenna" />
		<tag k="place" v="farm" />
		<tag k="ssr:stedsnr" v="378365" />
	</node>
	<node lat="63.96424166288448" lon="10.222158323241286" id="-91325">
		<tag k="amenity" v="sports_centre" />
		<tag k="name" v="Åfjordshallen" />
		<tag k="ssr:stedsnr" v="483736" />
	</node>
	<node lat="63.968255559401555" lon="9.972199994472803" id="-91340">
		<tag k="name" v="Haugen" />
		<tag k="place" v="farm" />
		<tag k="ssr:stedsnr" v="395008" />
	</node>
	<node lat="64.16861110742624" lon="10.367733331182832" id="-91363">
		<tag k="name" v="Vassbakkan" />
		<tag k="place" v="farm" />
		<tag k="ssr:stedsnr" v="395187" />
	</node>
	<node lat="63.94977500319898" lon="10.095161114373942" id="-91371">
		<tag k="name" v="Kjerkstøa" />
		<tag k="place" v="isolated_dwelling" />
		<tag k="ssr:stedsnr" v="395592" />
	</node>
	<node lat="63.97231388656205" lon="10.15066110780742" id="-91376">
		<tag k="name" v="Haugen" />
		<tag k="place" v="farm" />
		<tag k="ssr:stedsnr" v="395610" />
	</node>
	<node lat="63.959850002811606" lon="10.183416663156828" id="-91377">
		<tag k="fixme" v="consider place=hamlet" />
		<tag k="name" v="Monstad" />
		<tag k="place" v="farm" />
		<tag k="ssr:stedsnr" v="395629" />
	</node>
	<node lat="64.13600555922721" lon="10.208433323393015" id="-91381">
		<tag k="name" v="Stallvikgården" />
		<tag k="place" v="farm" />
		<tag k="ssr:stedsnr" v="395830" />
	</node>
	<node lat="64.05033055988092" lon="9.888158342288323" id="-91382">
		<tag k="name" v="Laksbua" />
		<tag k="place" v="locality" />
		<tag k="ssr:stedsnr" v="395837" />
	</node>
	<node lat="64.00556944646476" lon="9.932086106320487" id="-91395">
		<tag k="name" v="Lines" />
		<tag k="place" v="farm" />
		<tag k="ssr:stedsnr" v="405333" />
	</node>
	<node lat="64.17429444292979" lon="10.365102772023809" id="-91399">
		<tag k="name" v="Haugen" />
		<tag k="place" v="isolated_dwelling" />
		<tag k="ssr:stedsnr" v="421251" />
	</node>
	<node lat="63.923272225215044" lon="10.215274994719449" id="-91407">
		<tag k="name" v="Møri" />
		<tag k="place" v="farm" />
		<tag k="ssr:stedsnr" v="424217" />
	</node>
	<node lat="64.22234444397583" lon="10.250802786921058" id="-91413">
		<tag k="name" v="Keila" />
		<tag k="place" v="farm" />
		<tag k="ssr:stedsnr" v="438007" />
	</node>
	<node lat="64.15426944525163" lon="10.562355559991865" id="-91420">
		<tag k="name" v="Storskardet" />
		<tag k="place" v="farm" />
		<tag k="ssr:stedsnr" v="438411" />
	</node>
	<node lat="63.96171944281683" lon="10.194869435635063" id="-91425">
		<tag k="fixme" v="consider place=suburb, village or hamlet" />
		<tag k="name" v="Monstad" />
		<tag k="place" v="quarter" />
		<tag k="ssr:stedsnr" v="438548" />
	</node>
	<node lat="63.99966666428904" lon="9.895555557020183" id="-91426">
		<tag k="name" v="Vågen" />
		<tag k="place" v="farm" />
		<tag k="ssr:stedsnr" v="438716" />
	</node>
	<node lat="64.2044333299292" lon="10.391177777016686" id="-91430">
		<tag k="name" v="Vika" />
		<tag k="place" v="farm" />
		<tag k="ssr:stedsnr" v="439011" />
	</node>
	<node lat="64.00557221863644" lon="9.934252771075199" id="-91433">
		<tag k="fixme" v="consider place=hamlet" />
		<tag k="name" v="Lines" />
		<tag k="place" v="village" />
		<tag k="ssr:stedsnr" v="439050" />
	</node>
	<node lat="63.943475002852175" lon="10.205372227220762" id="-91445">
		<tag k="name" v="Breivik" />
		<tag k="place" v="farm" />
		<tag k="ssr:stedsnr" v="439509" />
	</node>
	<node lat="63.97801205467978" lon="10.662044346111147" id="-91455">
		<tag k="loc_name" v="Bårdlia" />
		<tag k="name" v="Bårdli" />
		<tag k="place" v="farm" />
		<tag k="ssr:stedsnr" v="450491" />
	</node>
	<node lat="63.90819444218765" lon="9.966877768209216" id="-91469">
		<tag k="name" v="Nymoen" />
		<tag k="place" v="farm" />
		<tag k="ssr:stedsnr" v="456024" />
	</node>
	<node lat="63.95621388716207" lon="9.971786116010234" id="-91477">
		<tag k="name" v="Tårnes" />
		<tag k="place" v="farm" />
		<tag k="ssr:stedsnr" v="456102" />
	</node>
	<node lat="63.985327776571324" lon="10.465300009347146" id="-91522">
		<tag k="name" v="Lian" />
		<tag k="place" v="farm" />
		<tag k="ssr:stedsnr" v="456703" />
	</node>
	<node lat="63.98734166418502" lon="10.458036119902303" id="-91524">
		<tag k="name" v="Rømma" />
		<tag k="place" v="farm" />
		<tag k="ssr:stedsnr" v="456706" />
	</node>
	<node lat="64.06996944607275" lon="9.946538888569247" id="-91527">
		<tag k="name" v="Vadtjørnvika" />
		<tag k="place" v="farm" />
		<tag k="ssr:stedsnr" v="456770" />
	</node>
	<node lat="64.05379721822123" lon="9.95061665877965" id="-91531">
		<tag k="name" v="Strandbaren" />
		<tag k="ssr:stedsnr" v="483780" />
		<tag k="tourism" v="guest_house" />
	</node>
	<node lat="63.9919555565782" lon="10.293688887913644" id="-91532">
		<tag k="name" v="Berdal" />
		<tag k="place" v="hamlet" />
		<tag k="ssr:stedsnr" v="485706" />
	</node>
	<node lat="63.899091668167365" lon="10.451127779273499" id="-91547">
		<tag k="historic" v="shieling" />
		<tag k="name" v="Vinnaseteren" />
		<tag k="place" v="isolated_dwelling" />
		<tag k="ssr:stedsnr" v="680355" />
	</node>
	<node lat="63.98544168339478" lon="10.000192959829619" id="-91553">
		<tag k="fixme" v="consider place=hamlet" />
		<tag k="name" v="Hestvik" />
		<tag k="place" v="farm" />
		<tag k="ssr:stedsnr" v="680754" />
	</node>
	<node lat="64.24720833264253" lon="10.331786118168242" id="-91555">
		<tag k="name" v="Aurvollan" />
		<tag k="place" v="farm" />
		<tag k="ssr:stedsnr" v="681034" />
	</node>
	<node lat="63.999790957333545" lon="10.315337564134865" id="-91593">
		<tag k="alt_name" v="Mølsletta, østre" />
		<tag k="name" v="Østre Mølsletta" />
		<tag k="place" v="farm" />
		<tag k="ssr:stedsnr" v="499142" />
	</node>
	<node lat="64.17808611365747" lon="10.43336389729526" id="-91621">
		<tag k="name" v="Fagerheim" />
		<tag k="place" v="farm" />
		<tag k="ssr:stedsnr" v="499387" />
	</node>
	<node lat="64.17889722114842" lon="10.24110555938455" id="-91623">
		<tag k="alt_name" v="Ytter Skardet" />
		<tag k="name" v="Skardet" />
		<tag k="place" v="farm" />
		<tag k="ssr:stedsnr" v="499394" />
	</node>
	<node lat="64.17672777553543" lon="10.246213893681842" id="-91624">
		<tag k="alt_name" v="Østmoen" />
		<tag k="name" v="Austmoen" />
		<tag k="place" v="farm" />
		<tag k="ssr:stedsnr" v="499395" />
	</node>
	<node lat="63.96390235638455" lon="10.121477248096971" id="-91631">
		<tag k="fixme" v="consider place=hamlet" />
		<tag k="name" v="Skaset" />
		<tag k="place" v="farm" />
		<tag k="ssr:stedsnr" v="499646" />
	</node>
	<node lat="64.26768681288223" lon="10.356261240969316" id="-91647">
		<tag k="fixme" v="consider place=hamlet" />
		<tag k="name" v="Vikaunet" />
		<tag k="place" v="farm" />
		<tag k="ssr:stedsnr" v="681618" />
	</node>
	<node lat="64.02161666933071" lon="10.508480558230644" id="-91653">
		<tag k="name" v="Skogheim" />
		<tag k="place" v="locality" />
		<tag k="ssr:stedsnr" v="681715" />
	</node>
	<node lat="63.96924935654242" lon="10.094424777327568" id="-91668">
		<tag k="fixme" v="consider place=hamlet" />
		<tag k="name" v="Markanes" />
		<tag k="place" v="farm" />
		<tag k="ssr:stedsnr" v="510018" />
	</node>
	<node lat="63.97487222016406" lon="10.13039445296657" id="-91677">
		<tag k="historic" v="shieling" />
		<tag k="name" v="Selsetseteren" />
		<tag k="place" v="isolated_dwelling" />
		<tag k="ssr:stedsnr" v="516109" />
	</node>
	<node lat="64.17653333227625" lon="10.354272216518465" id="-91687">
		<tag k="name" v="Øra" />
		<tag k="place" v="farm" />
		<tag k="ssr:stedsnr" v="516165" />
	</node>
	<node lat="63.93291388858858" lon="10.07184722826545" id="-91699">
		<tag k="name" v="Bakkan" />
		<tag k="place" v="farm" />
		<tag k="ssr:stedsnr" v="516509" />
	</node>
	<node lat="63.960219445261004" lon="10.187700009989879" id="-91700">
		<tag k="fixme" v="consider place=suburb, village or hamlet" />
		<tag k="name" v="Monstadstranda" />
		<tag k="place" v="quarter" />
		<tag k="ssr:stedsnr" v="516511" />
	</node>
	<node lat="63.94549444677438" lon="10.22164165688703" id="-91715">
		<tag k="name" v="Svalan" />
		<tag k="place" v="farm" />
		<tag k="ssr:stedsnr" v="516677" />
	</node>
	<node lat="63.96282777496371" lon="10.246291661858445" id="-91716">
		<tag k="historic" v="shieling" />
		<tag k="name" v="Bergseteren" />
		<tag k="place" v="isolated_dwelling" />
		<tag k="ssr:stedsnr" v="516678" />
	</node>
	<node lat="64.12239999613136" lon="10.265766658483363" id="-91736">
		<tag k="name" v="Bonkrokan" />
		<tag k="place" v="farm" />
		<tag k="ssr:stedsnr" v="517063" />
	</node>
	<node lat="64.13648888952439" lon="10.208833333609677" id="-91741">
		<tag k="name" v="Klokkargården" />
		<tag k="place" v="farm" />
		<tag k="ssr:stedsnr" v="517102" />
	</node>
	<node lat="64.14167222617125" lon="10.187722219143625" id="-91749">
		<tag k="name" v="Troningsøra" />
		<tag k="place" v="farm" />
		<tag k="ssr:stedsnr" v="517911" />
	</node>
	<node lat="63.99524166987727" lon="10.216866670904968" id="-91753">
		<tag k="name" v="Gottås hyttefelt" />
		<tag k="place" v="neighbourhood" />
		<tag k="ssr:stedsnr" v="527026" />
	</node>
	<node lat="64.11207222012187" lon="10.541427769261349" id="-91776">
		<tag k="name" v="Grensen" />
		<tag k="place" v="farm" />
		<tag k="ssr:stedsnr" v="559338" />
	</node>
	<node lat="63.927163886684404" lon="10.117488885000025" id="-91778">
		<tag k="name" v="Vorpbukta" />
		<tag k="place" v="farm" />
		<tag k="ssr:stedsnr" v="559503" />
	</node>
	<node lat="63.92305277355224" lon="9.93362500230578" id="-91783">
		<tag k="name" v="Sundland" />
		<tag k="place" v="farm" />
		<tag k="ssr:stedsnr" v="559491" />
	</node>
	<node lat="64.02859493005354" lon="10.538220364433615" id="-91786">
		<tag k="name" v="Bjørnlia" />
		<tag k="place" v="farm" />
		<tag k="ssr:stedsnr" v="559690" />
	</node>
	<node lat="63.98949444327236" lon="10.20410833582958" id="-91787">
		<tag k="name" v="Nesheim" />
		<tag k="place" v="farm" />
		<tag k="ssr:stedsnr" v="559696" />
	</node>
	<node lat="63.955194817287286" lon="10.223976523649595" id="-91797">
		<tag k="fixme" v="consider place=hamlet" />
		<tag k="name" v="Melan" />
		<tag k="place" v="farm" />
		<tag k="ssr:stedsnr" v="560810" />
	</node>
	<node lat="63.96645555262035" lon="9.979597221929046" id="-91827">
		<tag k="name" v="Lauvåsen" />
		<tag k="place" v="farm" />
		<tag k="ssr:stedsnr" v="577010" />
	</node>
	<node lat="64.19620000161224" lon="10.305238886051578" id="-91831">
		<tag k="name" v="Blikkstranda" />
		<tag k="place" v="farm" />
		<tag k="ssr:stedsnr" v="577021" />
	</node>
	<node lat="64.17856389266345" lon="10.224672217800642" id="-91841">
		<tag k="name" v="Øygårdslia" />
		<tag k="place" v="farm" />
		<tag k="ssr:stedsnr" v="577109" />
	</node>
	<node lat="64.04722777360232" lon="9.98295834126397" id="-91865">
		<tag k="name" v="Reksteren" />
		<tag k="place" v="farm" />
		<tag k="ssr:stedsnr" v="577819" />
	</node>
	<node lat="63.99743611388147" lon="10.47738888849911" id="-91866">
		<tag k="alt_name" v="Årbogen" />
		<tag k="fixme" v="consider place=hamlet" />
		<tag k="name" v="Årboan" />
		<tag k="place" v="farm" />
		<tag k="ssr:stedsnr" v="577543" />
	</node>
	<node lat="63.997194448674996" lon="10.220624997081215" id="-91893">
		<tag k="name" v="Myra" />
		<tag k="place" v="farm" />
		<tag k="ssr:stedsnr" v="698067" />
	</node>
	<node lat="63.974041670789035" lon="9.980744441706877" id="-91895">
		<tag k="name" v="Kvalneset" />
		<tag k="place" v="farm" />
		<tag k="ssr:stedsnr" v="698042" />
	</node>
	<node lat="63.99134166301287" lon="10.186513896792794" id="-91906">
		<tag k="name" v="Nesodden" />
		<tag k="place" v="farm" />
		<tag k="ssr:stedsnr" v="698148" />
	</node>
	<node lat="63.91974166329481" lon="9.961202773940945" id="-91912">
		<tag k="name" v="Øra" />
		<tag k="place" v="farm" />
		<tag k="ssr:stedsnr" v="698198" />
	</node>
	<node lat="63.920527773916625" lon="9.964997230736413" id="-91913">
		<tag k="name" v="Haugen" />
		<tag k="place" v="farm" />
		<tag k="ssr:stedsnr" v="698200" />
	</node>
	<node lat="63.946469108915984" lon="10.128920017040024" id="-91917">
		<tag k="name" v="Strand" />
		<tag k="place" v="farm" />
		<tag k="ssr:stedsnr" v="698331" />
	</node>
	<node lat="63.96829444476078" lon="10.069311120462839" id="-91928">
		<tag k="name" v="Trappen" />
		<tag k="place" v="farm" />
		<tag k="ssr:stedsnr" v="698103" />
	</node>
	<node lat="64.04140555824338" lon="10.071327784861136" id="-91980">
		<tag k="alt_name" v="Lian nedre" />
		<tag k="name" v="Nedre Lian" />
		<tag k="place" v="farm" />
		<tag k="ssr:stedsnr" v="698883" />
	</node>
	<node lat="63.992291665250875" lon="10.015749990600401" id="-91982">
		<tag k="name" v="Skardet" />
		<tag k="place" v="farm" />
		<tag k="ssr:stedsnr" v="698858" />
	</node>
	<node lat="63.92795555829144" lon="10.407891660340399" id="-91986">
		<tag k="name" v="Ekornberget" />
		<tag k="place" v="farm" />
		<tag k="ssr:stedsnr" v="698899" />
	</node>
	<node lat="64.27869166323997" lon="10.378183325907564" id="-92005">
		<tag k="name" v="Engensvika" />
		<tag k="place" v="isolated_dwelling" />
		<tag k="ssr:stedsnr" v="699198" />
	</node>
	<node lat="64.27394444089619" lon="10.35870555912441" id="-92006">
		<tag k="name" v="Kleivvika" />
		<tag k="place" v="farm" />
		<tag k="ssr:stedsnr" v="699200" />
	</node>
	<node lat="64.16960278054002" lon="10.36208889741339" id="-92012">
		<tag k="name" v="Rumpa" />
		<tag k="place" v="farm" />
		<tag k="ssr:stedsnr" v="699141" />
	</node>
	<node lat="63.954147218415336" lon="10.264444441850353" id="-92038">
		<tag k="historic" v="shieling" />
		<tag k="name" v="Melaseteren" />
		<tag k="place" v="isolated_dwelling" />
		<tag k="ssr:stedsnr" v="619403" />
	</node>
	<node lat="63.91827472577465" lon="10.427429319591074" id="-92044">
		<tag k="name" v="Vinnan" />
		<tag k="place" v="farm" />
		<tag k="ssr:stedsnr" v="619376" />
	</node>
	<node lat="64.19315233274247" lon="10.200834708875782" id="-92056">
		<tag k="fixme" v="consider place=hamlet" />
		<tag k="name" v="Eian" />
		<tag k="place" v="farm" />
		<tag k="ssr:stedsnr" v="620222" />
	</node>
	<node lat="64.16853889118475" lon="10.232680551924076" id="-92059">
		<tag k="name" v="Lauvåsen" />
		<tag k="place" v="farm" />
		<tag k="ssr:stedsnr" v="620420" />
	</node>
	<node lat="63.98639722633096" lon="10.138369440021055" id="-92071">
		<tag k="name" v="Langdalen" />
		<tag k="place" v="isolated_dwelling" />
		<tag k="ssr:stedsnr" v="620685" />
	</node>
	<node lat="63.8624666664809" lon="10.260122230902144" id="-92075">
		<tag k="historic" v="shieling" />
		<tag k="name" v="Juvasseteren" />
		<tag k="place" v="isolated_dwelling" />
		<tag k="ssr:stedsnr" v="634904" />
	</node>
	<node lat="63.99823055918519" lon="10.229713883918896" id="-92097">
		<tag k="name" v="Steinbekken" />
		<tag k="place" v="farm" />
		<tag k="ssr:stedsnr" v="637091" />
	</node>
	<node lat="64.1738388888125" lon="10.369102779453872" id="-92104">
		<tag k="name" v="Stranda" />
		<tag k="place" v="farm" />
		<tag k="ssr:stedsnr" v="637196" />
	</node>
	<node lat="64.03256666649946" lon="9.883180554449309" id="-92130">
		<tag k="name" v="Eid" />
		<tag k="place" v="hamlet" />
		<tag k="ssr:stedsnr" v="637812" />
	</node>
	<node lat="63.91691944139786" lon="10.434572218921257" id="-92134">
		<tag k="name" v="Nytun" />
		<tag k="place" v="farm" />
		<tag k="ssr:stedsnr" v="637877" />
	</node>
	<node lat="64.11958611258207" lon="10.129927769421183" id="-92135">
		<tag k="name" v="Grønnvollen" />
		<tag k="place" v="farm" />
		<tag k="ssr:stedsnr" v="637879" />
	</node>
	<node lat="64.12297500409758" lon="10.145194438016802" id="-92136">
		<tag k="name" v="Dahlgården" />
		<tag k="place" v="farm" />
		<tag k="ssr:stedsnr" v="637882" />
	</node>
	<node lat="64.1040611073574" lon="10.197069441107768" id="-92142">
		<tag k="name" v="Bergheim" />
		<tag k="place" v="farm" />
		<tag k="ssr:stedsnr" v="637931" />
	</node>
	<node lat="64.03767500255044" lon="10.051394448930145" id="-92160">
		<tag k="amenity" v="nursing_home" />
		<tag k="name" v="Stokksund trygdepensjonat" />
		<tag k="ssr:stedsnr" v="663696" />
	</node>
	<node lat="64.17285833086054" lon="10.225427770740882" id="-92161">
		<tag k="amenity" v="nursing_home" />
		<tag k="name" v="Roan sykehjem" />
		<tag k="ssr:stedsnr" v="664283" />
	</node>
	<node lat="63.90893953636509" lon="9.973186825135166" id="-92165">
		<tag k="name" v="Selnes" />
		<tag k="place" v="farm" />
		<tag k="ssr:stedsnr" v="667237" />
	</node>
	<node lat="64.05269722011155" lon="9.957913883641508" id="-92167">
		<tag k="name" v="Hosen hyttefelt" />
		<tag k="place" v="neighbourhood" />
		<tag k="ssr:stedsnr" v="891031" />
	</node>
	<node lat="63.97052106913957" lon="10.036416435856243" id="-92175">
		<tag k="alt_name" v="Tørhoggseteren" />
		<tag k="historic" v="shieling" />
		<tag k="name" v="Tørhoggsætra" />
		<tag k="place" v="isolated_dwelling" />
		<tag k="ssr:stedsnr" v="680735" />
	</node>
	<node lat="63.923402781952674" lon="10.05526944517309" id="-92191">
		<tag k="name" v="Sletten" />
		<tag k="place" v="farm" />
		<tag k="ssr:stedsnr" v="681505" />
	</node>
	<node lat="64.04136944645192" lon="10.07154165685359" id="-92199">
		<tag k="name" v="Lian" />
		<tag k="place" v="farm" />
		<tag k="ssr:stedsnr" v="697465" />
	</node>
	<node lat="63.91225000105109" lon="9.970436102767122" id="-92200">
		<tag k="name" v="Gullvika" />
		<tag k="place" v="farm" />
		<tag k="ssr:stedsnr" v="698012" />
	</node>
	<node lat="63.99515555972449" lon="10.213791670356226" id="-92204">
		<tag k="name" v="Gottås" />
		<tag k="place" v="farm" />
		<tag k="ssr:stedsnr" v="698215" />
	</node>
	<node lat="63.96666666777888" lon="10.105358335422093" id="-92207">
		<tag k="historic" v="shieling" />
		<tag k="name" v="Revsnesseteren" />
		<tag k="place" v="isolated_dwelling" />
		<tag k="ssr:stedsnr" v="698277" />
	</node>
	<node lat="63.92591389095588" lon="10.055272221349695" id="-92210">
		<tag k="name" v="Myrset" />
		<tag k="place" v="farm" />
		<tag k="ssr:stedsnr" v="698303" />
	</node>
	<node lat="64.19344722083304" lon="10.314511112990058" id="-92241">
		<tag k="name" v="Sørmyran" />
		<tag k="place" v="farm" />
		<tag k="ssr:stedsnr" v="699017" />
	</node>
	<node lat="64.18005000224332" lon="10.21774722791743" id="-92247">
		<tag k="name" v="Stagan" />
		<tag k="place" v="farm" />
		<tag k="ssr:stedsnr" v="699088" />
	</node>
	<node lat="63.982629851800446" lon="10.43605222002009" id="-92267">
		<tag k="alt_name" v="Gilde" />
		<tag k="name" v="Gilda" />
		<tag k="place" v="farm" />
		<tag k="ssr:stedsnr" v="728115" />
	</node>
	<node lat="64.00549166583356" lon="10.210194451121184" id="-92268">
		<tag k="alt_name" v="Skogan" />
		<tag k="name" v="Halsaunet" />
		<tag k="place" v="farm" />
		<tag k="ssr:stedsnr" v="728717" />
	</node>
	<node lat="64.17922499902338" lon="10.27865834203234" id="-92301">
		<tag k="name" v="Moan" />
		<tag k="place" v="farm" />
		<tag k="ssr:stedsnr" v="742434" />
	</node>
	<node lat="63.933005551920054" lon="9.919558329829517" id="-92347">
		<tag k="name" v="Fredly" />
		<tag k="place" v="farm" />
		<tag k="ssr:stedsnr" v="759202" />
	</node>
	<node lat="63.91481111023118" lon="9.999788888941156" id="-92355">
		<tag k="name" v="Leirvoll" />
		<tag k="place" v="farm" />
		<tag k="ssr:stedsnr" v="759299" />
	</node>
	<node lat="63.97590833547377" lon="9.999072213414044" id="-92356">
		<tag k="name" v="Haugsneset" />
		<tag k="place" v="farm" />
		<tag k="ssr:stedsnr" v="759302" />
	</node>
	<node lat="63.97972778035518" lon="10.416983342812044" id="-92371">
		<tag k="name" v="Fagerheim" />
		<tag k="place" v="farm" />
		<tag k="ssr:stedsnr" v="759756" />
	</node>
	<node lat="64.01125555687037" lon="10.353350006494681" id="-92374">
		<tag k="historic" v="shieling" />
		<tag k="name" v="Mølslettseteren" />
		<tag k="place" v="isolated_dwelling" />
		<tag k="ssr:stedsnr" v="759802" />
	</node>
	<node lat="64.00975833298597" lon="10.50129999635316" id="-92397">
		<tag k="fixme" v="consider place=hamlet" />
		<tag k="name" v="Forfot" />
		<tag k="place" v="farm" />
		<tag k="ssr:stedsnr" v="766700" />
	</node>
	<node lat="63.96781666569733" lon="10.218391664746074" id="-92398">
		<tag k="amenity" v="kindergarten" />
		<tag k="name" v="Maribo barnehage" />
		<tag k="ssr:stedsnr" v="907647" />
	</node>
	<node lat="64.24834444888371" lon="10.333597230254385" id="-92403">
		<tag k="amenity" v="school" />
		<tag k="name" v="Vik-Bessaker barnehage" />
		<tag k="old_name" v="Vik-Bessaker skole" />
		<tag k="ssr:stedsnr" v="909881" />
	</node>
	<node lat="63.994211112247854" lon="10.29843333180318" id="-92406">
		<tag k="name" v="Berdal" />
		<tag k="place" v="farm" />
		<tag k="ssr:stedsnr" v="910745" />
	</node>
	<node lat="63.98011389131216" lon="10.303805563569426" id="-92409">
		<tag k="name" v="Moen" />
		<tag k="place" v="farm" />
		<tag k="ssr:stedsnr" v="802180" />
	</node>
	<node lat="63.95920555656342" lon="10.228449991267986" id="-92412">
		<tag k="alt_name" v="Melan ø." />
		<tag k="name" v="Melan" />
		<tag k="place" v="farm" />
		<tag k="ssr:stedsnr" v="802417" />
	</node>
	<node lat="63.886908329974595" lon="10.042963891719074" id="-92416">
		<tag k="name" v="Kammasætra" />
		<tag k="place" v="locality" />
		<tag k="ssr:stedsnr" v="802622" />
	</node>
	<node lat="63.9931742110554" lon="10.011020801301925" id="-92426">
		<tag k="fixme" v="consider place=hamlet" />
		<tag k="name" v="Grøttingen" />
		<tag k="place" v="farm" />
		<tag k="ssr:stedsnr" v="802765" />
	</node>
	<node lat="64.12565781307777" lon="10.131768409183278" id="-92430">
		<tag k="fixme" v="consider place=hamlet" />
		<tag k="name" v="Kiran" />
		<tag k="place" v="village" />
		<tag k="ssr:stedsnr" v="803218" />
	</node>
	<node lat="63.92018610790438" lon="9.98234722032662" id="-92439">
		<tag k="name" v="Nordheim" />
		<tag k="place" v="farm" />
		<tag k="ssr:stedsnr" v="810190" />
	</node>
	<node lat="63.94887500326981" lon="10.102313879981343" id="-92441">
		<tag k="name" v="Dragseid" />
		<tag k="place" v="farm" />
		<tag k="ssr:stedsnr" v="814031" />
	</node>
	<node lat="64.18206388931203" lon="10.215327780600889" id="-92446">
		<tag k="name" v="Vika" />
		<tag k="place" v="farm" />
		<tag k="ssr:stedsnr" v="820014" />
	</node>
	<node lat="63.99141235990137" lon="10.292662501544962" id="-92454">
		<tag k="fixme" v="consider place=hamlet" />
		<tag k="name" v="Berdal" />
		<tag k="place" v="farm" />
		<tag k="ssr:stedsnr" v="820117" />
	</node>
	<node lat="63.925436796040614" lon="9.929044645788402" id="-92460">
		<tag k="fixme" v="consider place=hamlet" />
		<tag k="name" v="Lauvøya" />
		<tag k="place" v="farm" />
		<tag k="ssr:stedsnr" v="820208" />
	</node>
	<node lat="63.92631389175435" lon="9.92152221550977" id="-92462">
		<tag k="name" v="Haugen" />
		<tag k="place" v="farm" />
		<tag k="ssr:stedsnr" v="820210" />
	</node>
	<node lat="64.03112222449629" lon="10.082369443838642" id="-92463">
		<tag k="name" v="Seteren" />
		<tag k="place" v="farm" />
		<tag k="ssr:stedsnr" v="820214" />
	</node>
	<node lat="64.03035277882982" lon="10.533833330124223" id="-92475">
		<tag k="historic" v="shieling" />
		<tag k="name" v="Innlegget" />
		<tag k="place" v="isolated_dwelling" />
		<tag k="ssr:stedsnr" v="820512" />
	</node>
	<node lat="64.02361388911768" lon="10.515180555014762" id="-92479">
		<tag k="name" v="Mohaugen" />
		<tag k="place" v="farm" />
		<tag k="ssr:stedsnr" v="820519" />
	</node>
	<node lat="64.01167499619402" lon="9.946419435538797" id="-92501">
		<tag k="name" v="Moen" />
		<tag k="place" v="farm" />
		<tag k="ssr:stedsnr" v="820821" />
	</node>
	<node lat="63.9813277788742" lon="10.381038894420579" id="-92508">
		<tag k="name" v="Vannavika" />
		<tag k="place" v="locality" />
		<tag k="ssr:stedsnr" v="820782" />
	</node>
	<node lat="64.04237221987476" lon="10.076730546486797" id="-92511">
		<tag k="alt_name" v="Lian øvre" />
		<tag k="name" v="Øvre Lian" />
		<tag k="place" v="farm" />
		<tag k="ssr:stedsnr" v="820872" />
	</node>
	<node lat="64.1179777784162" lon="10.15233888228315" id="-92514">
		<tag k="name" v="Dalen" />
		<tag k="place" v="farm" />
		<tag k="ssr:stedsnr" v="820880" />
	</node>
	<node lat="63.96024722552695" lon="10.647469444145996" id="-92515">
		<tag k="name" v="Storfjellet" />
		<tag k="place" v="farm" />
		<tag k="ssr:stedsnr" v="923390" />
	</node>
	<node lat="63.92105555514462" lon="10.228963887447104" id="-92517">
		<tag k="name" v="Råkheim" />
		<tag k="place" v="farm" />
		<tag k="ssr:stedsnr" v="923364" />
	</node>
	<node lat="63.92659166965842" lon="9.934538889705081" id="-92519">
		<tag k="name" v="Haugen" />
		<tag k="place" v="farm" />
		<tag k="ssr:stedsnr" v="923565" />
	</node>
	<node lat="63.97776666220212" lon="10.139388897500144" id="-92526">
		<tag k="name" v="Solstad" />
		<tag k="place" v="farm" />
		<tag k="ssr:stedsnr" v="923736" />
	</node>
	<node lat="64.22858611091966" lon="10.291533329019124" id="-92532">
		<tag k="name" v="Ramsvika" />
		<tag k="place" v="farm" />
		<tag k="ssr:stedsnr" v="924039" />
	</node>
	<node lat="64.00749444366451" lon="10.009233324993906" id="-92537">
		<tag k="name" v="Sandvika" />
		<tag k="place" v="farm" />
		<tag k="ssr:stedsnr" v="924064" />
	</node>
	<node lat="63.987000003457055" lon="10.391788880661334" id="-92546">
		<tag k="name" v="Høglia" />
		<tag k="place" v="farm" />
		<tag k="ssr:stedsnr" v="924140" />
	</node>
	<node lat="64.1074250023352" lon="10.204544438111023" id="-92547">
		<tag k="fixme" v="multiple name tags, choose one and add the other to alt_name" />
		<tag k="name" v="Moen;Myran" />
		<tag k="place" v="farm" />
		<tag k="ssr:stedsnr" v="924147" />
	</node>
	<node lat="64.13573333730001" lon="10.155491672959911" id="-92553">
		<tag k="name" v="Hagadalen" />
		<tag k="place" v="farm" />
		<tag k="ssr:stedsnr" v="924170" />
	</node>
	<node lat="64.07856666418921" lon="10.435300004311488" id="-92570">
		<tag k="name" v="Lauvli" />
		<tag k="place" v="farm" />
		<tag k="ssr:stedsnr" v="924270" />
	</node>
	<node lat="63.972324999255875" lon="10.274477768648387" id="-92577">
		<tag k="alt_name" v="Vasstrand;Vasstrand, østre" />
		<tag k="name" v="Østre Vasstrand" />
		<tag k="place" v="farm" />
		<tag k="ssr:stedsnr" v="924115" />
	</node>
	<node lat="63.78144444661741" lon="10.459061109025283" id="-92586">
		<tag k="historic" v="shieling" />
		<tag k="name" v="Ørsjødalsseteren" />
		<tag k="place" v="isolated_dwelling" />
		<tag k="ssr:stedsnr" v="924402" />
	</node>
	<node lat="64.24842500329737" lon="10.330774993736801" id="-92597">
		<tag k="leisure" v="pitch" />
		<tag k="name" v="Bessaker idrettsplass" />
		<tag k="ssr:stedsnr" v="847331" />
	</node>
	<node lat="63.961958329715216" lon="10.22587500263487" id="-92598">
		<tag k="building" v="commercial" />
		<tag k="name" v="Åfjord rådhus" />
		<tag k="ssr:stedsnr" v="847709" />
	</node>
	<node lat="63.96878463392786" lon="10.265096443851183" id="-92600">
		<tag k="fixme" v="consider place=hamlet" />
		<tag k="name" v="Vasstrand" />
		<tag k="place" v="farm" />
		<tag k="ssr:stedsnr" v="849176" />
	</node>
	<node lat="63.91749722664903" lon="10.428263893334693" id="-92601">
		<tag k="fixme" v="consider place=hamlet" />
		<tag k="name" v="Vinnan" />
		<tag k="place" v="farm" />
		<tag k="ssr:stedsnr" v="849188" />
	</node>
	<node lat="63.95625188838348" lon="9.966777830486489" id="-92602">
		<tag k="name" v="Tårnes" />
		<tag k="place" v="farm" />
		<tag k="ssr:stedsnr" v="849806" />
	</node>
	<node lat="63.921100001707686" lon="10.414908330507268" id="-92605">
		<tag k="name" v="Moen" />
		<tag k="place" v="farm" />
		<tag k="ssr:stedsnr" v="862349" />
	</node>
	<node lat="64.1488166634834" lon="10.17946943812788" id="-92609">
		<tag k="fixme" v="multiple name tags, choose one and add the other to alt_name" />
		<tag k="name" v="Sandmoen;Slettvollen" />
		<tag k="place" v="farm" />
		<tag k="ssr:stedsnr" v="863205" />
	</node>
	<node lat="64.14478055466499" lon="10.158952774982774" id="-92614">
		<tag k="name" v="Hongsand" />
		<tag k="place" v="hamlet" />
		<tag k="ssr:stedsnr" v="863194" />
	</node>
	<node lat="64.18986666739913" lon="10.267041675870905" id="-92616">
		<tag k="name" v="Buavika" />
		<tag k="place" v="farm" />
		<tag k="ssr:stedsnr" v="863512" />
	</node>
	<node lat="63.93021389305153" lon="10.067525003397542" id="-92617">
		<tag k="fixme" v="consider place=hamlet" />
		<tag k="name" v="Rånes" />
		<tag k="place" v="farm" />
		<tag k="ssr:stedsnr" v="863524" />
	</node>
	<node lat="64.19763023189574" lon="10.403328378506828" id="-92624">
		<tag k="fixme" v="consider place=hamlet" />
		<tag k="name" v="Hofstad" />
		<tag k="place" v="village" />
		<tag k="ssr:stedsnr" v="863499" />
	</node>
	<node lat="63.988196317456534" lon="10.73863305922857" id="-92626">
		<tag k="fixme" v="consider place=hamlet" />
		<tag k="name" v="Skansen" />
		<tag k="place" v="farm" />
		<tag k="ssr:stedsnr" v="863593" />
	</node>
	<node lat="64.02453103582799" lon="9.8745134435829" id="-92629">
		<tag k="name" v="Stemma" />
		<tag k="place" v="locality" />
		<tag k="ssr:stedsnr" v="864105" />
	</node>
	<node lat="63.9634666709277" lon="10.238261112342421" id="-92657">
		<tag k="name" v="Elvemo" />
		<tag k="place" v="farm" />
		<tag k="ssr:stedsnr" v="880719" />
	</node>
	<node lat="63.92003611042468" lon="10.007969446088579" id="-92684">
		<tag k="alt_name" v="Reitan østre" />
		<tag k="name" v="Østre Reitan" />
		<tag k="place" v="farm" />
		<tag k="ssr:stedsnr" v="881008" />
	</node>
	<node lat="64.14519721956293" lon="10.223888889815598" id="-92685">
		<tag k="name" v="Aunet" />
		<tag k="place" v="farm" />
		<tag k="ssr:stedsnr" v="881111" />
	</node>
	<node lat="64.27741110698973" lon="10.36253334236081" id="-92696">
		<tag k="name" v="Kynnavika" />
		<tag k="place" v="farm" />
		<tag k="ssr:stedsnr" v="881212" />
	</node>
	<node lat="64.16963148186174" lon="10.4783687098322" id="-92700">
		<tag k="fixme" v="consider place=hamlet" />
		<tag k="name" v="Øverdal" />
		<tag k="place" v="farm" />
		<tag k="ssr:stedsnr" v="881254" />
	</node>
	<node lat="63.9993888929595" lon="9.895358339100767" id="-92707">
		<tag k="name" v="Vågan" />
		<tag k="place" v="farm" />
		<tag k="ssr:stedsnr" v="881662" />
	</node>
	<node lat="63.99481111421991" lon="10.000586118276704" id="-92719">
		<tag k="name" v="Myra" />
		<tag k="place" v="farm" />
		<tag k="ssr:stedsnr" v="881848" />
	</node>
	<node lat="64.04448716613611" lon="10.03882192492831" id="-92722">
		<tag k="fixme" v="consider place=hamlet" />
		<tag k="name" v="Kjerkholmen" />
		<tag k="place" v="farm" />
		<tag k="ssr:stedsnr" v="910099" />
	</node>
	<node lat="63.95238162644391" lon="10.209917812028758" id="-92723">
		<tag k="name" v="Rotnes" />
		<tag k="place" v="farm" />
		<tag k="ssr:stedsnr" v="910209" />
	</node>
	<node lat="63.91228333121783" lon="10.406941671547672" id="-92728">
		<tag k="name" v="Myrset" />
		<tag k="place" v="farm" />
		<tag k="ssr:stedsnr" v="923379" />
	</node>
	<node lat="64.17827778076779" lon="10.244350005880614" id="-92742">
		<tag k="name" v="Moen" />
		<tag k="place" v="farm" />
		<tag k="ssr:stedsnr" v="924442" />
	</node>
	<node lat="63.94102222366186" lon="10.09023055840061" id="-92748">
		<tag k="name" v="Unset" />
		<tag k="place" v="farm" />
		<tag k="ssr:stedsnr" v="924521" />
	</node>
	<node lat="63.9621388886" lon="10.220208333339945" id="-92758">
		<tag k="name" v="Solbakkan boligfelt" />
		<tag k="place" v="quarter" />
		<tag k="ssr:stedsnr" v="952127" />
	</node>
	<node lat="63.96059166841612" lon="10.179208337661722" id="-92759">
		<tag k="name" v="Monstad" />
		<tag k="place" v="farm" />
		<tag k="ssr:stedsnr" v="970340" />
	</node>
	<node lat="63.99771666478739" lon="10.478016673135375" id="-92761">
		<tag k="name" v="Årboan" />
		<tag k="place" v="farm" />
		<tag k="ssr:stedsnr" v="970207" />
	</node>
	<node lat="64.18312499586096" lon="10.211638884669583" id="-92803">
		<tag k="name" v="Vika" />
		<tag k="place" v="isolated_dwelling" />
		<tag k="ssr:stedsnr" v="13239" />
	</node>
	<node lat="64.17224444815719" lon="10.342899992750365" id="-92831">
		<tag k="name" v="Munkan" />
		<tag k="place" v="farm" />
		<tag k="ssr:stedsnr" v="14390" />
	</node>
	<node lat="63.946765731981934" lon="10.132954093487132" id="-92833">
		<tag k="fixme" v="consider place=hamlet" />
		<tag k="name" v="Strand" />
		<tag k="place" v="farm" />
		<tag k="ssr:stedsnr" v="14471" />
	</node>
	<node lat="64.14517500325468" lon="10.179255554981467" id="-92844">
		<tag k="name" v="Stranda" />
		<tag k="place" v="isolated_dwelling" />
		<tag k="ssr:stedsnr" v="14162" />
	</node>
	<node lat="63.99732222301234" lon="10.476197212376901" id="-92848">
		<tag k="name" v="Årbogen" />
		<tag k="place" v="farm" />
		<tag k="ssr:stedsnr" v="14142" />
	</node>
	<node lat="64.19257407867893" lon="10.260681293645682" id="-92858">
		<tag k="fixme" v="consider place=hamlet" />
		<tag k="name" v="Beskeland" />
		<tag k="place" v="farm" />
		<tag k="ssr:stedsnr" v="14420" />
	</node>
	<node lat="64.00064999977887" lon="10.318097230439362" id="-92862">
		<tag k="fixme" v="consider place=hamlet" />
		<tag k="name" v="Mølsletta" />
		<tag k="place" v="farm" />
		<tag k="ssr:stedsnr" v="14683" />
	</node>
	<node lat="63.97546666694845" lon="9.984422218424164" id="-92884">
		<tag k="name" v="Bårdvika" />
		<tag k="place" v="farm" />
		<tag k="ssr:stedsnr" v="31045" />
	</node>
	<node lat="64.12713333715993" lon="10.277541664144493" id="-92890">
		<tag k="name" v="Plassan" />
		<tag k="place" v="farm" />
		<tag k="ssr:stedsnr" v="31086" />
	</node>
	<node lat="64.19070833073032" lon="10.416172214673272" id="-92904">
		<tag k="name" v="Strand" />
		<tag k="place" v="farm" />
		<tag k="ssr:stedsnr" v="31140" />
	</node>
	<node lat="64.17253611166969" lon="10.496111120022752" id="-92914">
		<tag k="building" v="industrial" />
		<tag k="name" v="Fagerdalssaga" />
		<tag k="ssr:stedsnr" v="31260" />
	</node>
	<node lat="64.06549444036273" lon="10.015844450812466" id="-92923">
		<tag k="name" v="Innersunda" />
		<tag k="place" v="farm" />
		<tag k="ssr:stedsnr" v="31784" />
	</node>
	<node lat="63.953363891781876" lon="10.160841671401382" id="-92930">
		<tag k="name" v="Velde" />
		<tag k="place" v="farm" />
		<tag k="ssr:stedsnr" v="31344" />
	</node>
	<node lat="63.93272778032619" lon="10.088302784537847" id="-92938">
		<tag k="name" v="Trollfoten" />
		<tag k="place" v="farm" />
		<tag k="ssr:stedsnr" v="31532" />
	</node>
	<node lat="63.91332282876194" lon="10.253466430977651" id="-92948">
		<tag k="name" v="Øver Mørriaunet" />
		<tag k="old_name" v="Øver Møriaunet" />
		<tag k="place" v="farm" />
		<tag k="ssr:stedsnr" v="31659" />
	</node>
	<node lat="64.0390166676593" lon="10.074555548168869" id="-92956">
		<tag k="name" v="Bekkestad" />
		<tag k="place" v="farm" />
		<tag k="ssr:stedsnr" v="31878" />
	</node>
	<node lat="63.97658610941449" lon="9.992519443721816" id="-92971">
		<tag k="name" v="Torsnes boligfelt" />
		<tag k="place" v="quarter" />
		<tag k="ssr:stedsnr" v="41023" />
	</node>
	<node lat="63.964961114551976" lon="10.221719443514496" id="-92972">
		<tag k="amenity" v="school" />
		<tag k="name" v="Åfjord videregående skole" />
		<tag k="ssr:stedsnr" v="42008" />
	</node>
	<node lat="63.96357777668202" lon="10.224172213215525" id="-92977">
		<tag k="leisure" v="pitch" />
		<tag k="name" v="Åset kunstgressbane" />
		<tag k="ssr:stedsnr" v="59689" />
	</node>
	<node lat="63.96548055966597" lon="10.215677785196553" id="-92978">
		<tag k="building" v="commercial" />
		<tag k="name" v="Åmyra butikksenter" />
		<tag k="ssr:stedsnr" v="59691" />
	</node>
	<node lat="64.15115832985207" lon="10.177516661690852" id="-92980">
		<tag k="amenity" v="school" />
		<tag k="name" v="Sør-Roan skole" />
		<tag k="ssr:stedsnr" v="59867" />
	</node>
	<node lat="64.11320000194948" lon="9.964077783061141" id="-92981">
		<tag k="fixme" v="consider place=hamlet" />
		<tag k="loc_name" v="Gjæsinga" />
		<tag k="name" v="Gjesingen" />
		<tag k="place" v="farm" />
		<tag k="ssr:stedsnr" v="60057" />
	</node>
	<node lat="63.94663263043864" lon="10.133498415190559" id="-92982">
		<tag k="fixme" v="consider place=hamlet" />
		<tag k="name" v="Strand" />
		<tag k="place" v="village" />
		<tag k="ssr:stedsnr" v="60232" />
	</node>
	<node lat="63.93702222424924" lon="10.401186113595523" id="-92993">
		<tag k="name" v="Ospvik" />
		<tag k="old_name" v="Karlsaunet" />
		<tag k="place" v="farm" />
		<tag k="ssr:stedsnr" v="73322" />
	</node>
	<node lat="64.17271111434538" lon="10.229063898752532" id="-92997">
		<tag k="fixme" v="consider place=hamlet" />
		<tag k="name" v="Roan" />
		<tag k="place" v="village" />
		<tag k="ssr:stedsnr" v="74215" />
	</node>
	<node lat="63.97191944084365" lon="10.123583332281104" id="-93002">
		<tag k="name" v="Selset" />
		<tag k="old_name" v="Mo" />
		<tag k="place" v="farm" />
		<tag k="ssr:stedsnr" v="73689" />
	</node>
	<node lat="63.9682393097672" lon="10.264539061460342" id="-93006">
		<tag k="alt_name" v="Skålvika" />
		<tag k="name" v="Vasstrand" />
		<tag k="old_name" v="Vestre Vasstrand;Vasstrand, vestre" />
		<tag k="place" v="farm" />
		<tag k="ssr:stedsnr" v="74133" />
	</node>
	<node lat="64.1255305578611" lon="10.545336116773315" id="-93016">
		<tag k="name" v="Lund" />
		<tag k="place" v="farm" />
		<tag k="ssr:stedsnr" v="74377" />
	</node>
	<node lat="64.12163333087918" lon="10.54647498998056" id="-93066">
		<tag k="name" v="Moen" />
		<tag k="place" v="farm" />
		<tag k="ssr:stedsnr" v="75377" />
	</node>
	<node lat="63.9211805552051" lon="9.930758332867807" id="-93092">
		<tag k="name" v="Rabben" />
		<tag k="place" v="farm" />
		<tag k="ssr:stedsnr" v="91198" />
	</node>
	<node lat="64.03766944222876" lon="10.042969440154948" id="-93100">
		<tag k="name" v="Trøa" />
		<tag k="place" v="isolated_dwelling" />
		<tag k="ssr:stedsnr" v="91349" />
	</node>
	<node lat="63.92660833624823" lon="10.223383342255701" id="-93115">
		<tag k="name" v="Krekkan" />
		<tag k="place" v="farm" />
		<tag k="ssr:stedsnr" v="91144" />
	</node>
	<node lat="63.93879166972348" lon="10.038633326509633" id="-93124">
		<tag k="name" v="Grimstad" />
		<tag k="place" v="farm" />
		<tag k="ssr:stedsnr" v="91242" />
	</node>
	<node lat="63.943694443868864" lon="10.055483335449333" id="-93126">
		<tag k="alt_name" v="Åkerneset v." />
		<tag k="name" v="Vestre Åkerneset" />
		<tag k="place" v="farm" />
		<tag k="ssr:stedsnr" v="91248" />
	</node>
	<node lat="64.04207221932097" lon="10.069491661450508" id="-93131">
		<tag k="name" v="Lianssjøen" />
		<tag k="place" v="farm" />
		<tag k="ssr:stedsnr" v="91896" />
	</node>
	<node lat="64.23638611125737" lon="10.285808340622602" id="-93135">
		<tag k="name" v="Norvika" />
		<tag k="place" v="farm" />
		<tag k="ssr:stedsnr" v="92038" />
	</node>
	<node lat="64.0237138853154" lon="9.942247222272446" id="-93137">
		<tag k="name" v="Stranda" />
		<tag k="place" v="farm" />
		<tag k="ssr:stedsnr" v="91396" />
	</node>
	<node lat="64.08288655309042" lon="10.50165772011551" id="-93144">
		<tag k="name" v="Butli" />
		<tag k="place" v="farm" />
		<tag k="ssr:stedsnr" v="91591" />
	</node>
	<node lat="63.924138888736024" lon="10.14564999038489" id="-93149">
		<tag k="alt_name" v="Brasset" />
		<tag k="name" v="Øra" />
		<tag k="place" v="farm" />
		<tag k="ssr:stedsnr" v="91534" />
	</node>
	<node lat="64.20135277513488" lon="10.210508342655054" id="-93187">
		<tag k="fixme" v="consider place=hamlet" />
		<tag k="name" v="Nordstigan" />
		<tag k="place" v="farm" />
		<tag k="ssr:stedsnr" v="92046" />
	</node>
	<node lat="64.01353333761003" lon="10.047397216014062" id="-93228">
		<tag k="name" v="Herfjorden boligfelt" />
		<tag k="place" v="quarter" />
		<tag k="ssr:stedsnr" v="102029" />
	</node>
	<node lat="63.87762222067636" lon="10.384969448509233" id="-93239">
		<tag k="name" v="Storlia" />
		<tag k="place" v="isolated_dwelling" />
		<tag k="ssr:stedsnr" v="134309" />
	</node>
	<node lat="63.92928610670874" lon="10.044680563922986" id="-93255">
		<tag k="name" v="Minde" />
		<tag k="place" v="farm" />
		<tag k="ssr:stedsnr" v="134559" />
	</node>
	<node lat="63.93278055672729" lon="9.94772221462216" id="-93256">
		<tag k="name" v="Berget" />
		<tag k="place" v="isolated_dwelling" />
		<tag k="ssr:stedsnr" v="134560" />
	</node>
	<node lat="63.99142865713069" lon="10.17001047074848" id="-93258">
		<tag k="fixme" v="consider place=hamlet" />
		<tag k="name" v="Dolmset" />
		<tag k="place" v="farm" />
		<tag k="ssr:stedsnr" v="134721" />
	</node>
	<node lat="63.98839444810089" lon="10.170683338540972" id="-93259">
		<tag k="name" v="Dolmsetaunet" />
		<tag k="place" v="farm" />
		<tag k="ssr:stedsnr" v="134722" />
	</node>
	<node lat="64.23318888550658" lon="10.284655561053144" id="-93272">
		<tag k="name" v="Kåpvika" />
		<tag k="place" v="isolated_dwelling" />
		<tag k="ssr:stedsnr" v="135034" />
	</node>
	<node lat="64.1325000033481" lon="10.344944438209136" id="-93275">
		<tag k="name" v="Finnkrulia" />
		<tag k="place" v="isolated_dwelling" />
		<tag k="ssr:stedsnr" v="135373" />
	</node>
	<node lat="64.04245833494473" lon="9.965897227083204" id="-93285">
		<tag k="name" v="Solberg" />
		<tag k="place" v="farm" />
		<tag k="ssr:stedsnr" v="135131" />
	</node>
	<node lat="63.984199619971314" lon="10.421651140600707" id="-93286">
		<tag k="fixme" v="consider place=hamlet" />
		<tag k="name" v="By" />
		<tag k="place" v="farm" />
		<tag k="ssr:stedsnr" v="135133" />
	</node>
	<node lat="63.98649722315534" lon="10.447705558285342" id="-93287">
		<tag k="alt_name" v="Aunet" />
		<tag k="name" v="Aunan" />
		<tag k="place" v="farm" />
		<tag k="ssr:stedsnr" v="135135" />
	</node>
	<node lat="63.990569447981116" lon="10.448897231206718" id="-93288">
		<tag k="fixme" v="consider place=hamlet" />
		<tag k="name" v="Moan" />
		<tag k="place" v="farm" />
		<tag k="ssr:stedsnr" v="135136" />
	</node>
	<node lat="64.11995555602107" lon="10.547058330699272" id="-93299">
		<tag k="name" v="Aunet" />
		<tag k="place" v="farm" />
		<tag k="ssr:stedsnr" v="135347" />
	</node>
	<node lat="64.00324337406799" lon="10.231235383703673" id="-93307">
		<tag k="fixme" v="consider place=hamlet" />
		<tag k="name" v="Imsen" />
		<tag k="place" v="farm" />
		<tag k="ssr:stedsnr" v="135767" />
	</node>
	<node lat="63.91295555961293" lon="10.001588890623292" id="-93344">
		<tag k="name" v="Øyan" />
		<tag k="place" v="farm" />
		<tag k="ssr:stedsnr" v="152001" />
	</node>
	<node lat="64.17438889161303" lon="10.458627771929082" id="-93364">
		<tag k="name" v="Dalan" />
		<tag k="place" v="isolated_dwelling" />
		<tag k="ssr:stedsnr" v="152285" />
	</node>
	<node lat="63.97120000018039" lon="10.064936116450388" id="-93378">
		<tag k="name" v="Øver Morkamoen" />
		<tag k="place" v="farm" />
		<tag k="ssr:stedsnr" v="152142" />
	</node>
	<node lat="63.923144447080354" lon="10.215436103618215" id="-93416">
		<tag k="fixme" v="consider place=hamlet" />
		<tag k="name" v="Møri" />
		<tag k="place" v="farm" />
		<tag k="ssr:stedsnr" v="152740" />
	</node>
	<node lat="64.10473889193693" lon="10.186400004351945" id="-93430">
		<tag k="name" v="Østvika" />
		<tag k="place" v="farm" />
		<tag k="ssr:stedsnr" v="152926" />
	</node>
	<node lat="63.98086389224957" lon="10.41619721341157" id="-93434">
		<tag k="name" v="Tørrmoen" />
		<tag k="place" v="farm" />
		<tag k="ssr:stedsnr" v="152773" />
	</node>
	<node lat="63.98343055619007" lon="10.421266668015434" id="-93435">
		<tag k="name" v="By" />
		<tag k="place" v="farm" />
		<tag k="ssr:stedsnr" v="152774" />
	</node>
	<node lat="64.00636111244626" lon="10.009016672310336" id="-93443">
		<tag k="name" v="Litlsandvika" />
		<tag k="place" v="farm" />
		<tag k="ssr:stedsnr" v="152879" />
	</node>
	<node lat="63.996011108689544" lon="10.002236114167845" id="-93445">
		<tag k="name" v="Kattavika" />
		<tag k="place" v="hamlet" />
		<tag k="ssr:stedsnr" v="152884" />
	</node>
	<node lat="64.0561999996431" lon="9.948641657764263" id="-93460">
		<tag k="name" v="Sjåberget hyttefelt" />
		<tag k="place" v="neighbourhood" />
		<tag k="ssr:stedsnr" v="163032" />
	</node>
	<node lat="63.898921409026755" lon="10.04191695527005" id="-93463">
		<tag k="name" v="Kammen" />
		<tag k="place" v="farm" />
		<tag k="ssr:stedsnr" v="181226" />
	</node>
	<node lat="63.90352570053478" lon="10.065078209813379" id="-93464">
		<tag k="name" v="Brulia" />
		<tag k="place" v="farm" />
		<tag k="ssr:stedsnr" v="181227" />
	</node>
	<node lat="63.98794163047138" lon="10.73799478509979" id="-93466">
		<tag k="name" v="Skansen" />
		<tag k="place" v="farm" />
		<tag k="ssr:stedsnr" v="182127" />
	</node>
	<node lat="63.97759360637444" lon="10.661198276666862" id="-93467">
		<tag k="fixme" v="consider place=hamlet" />
		<tag k="loc_name" v="Bårdlia" />
		<tag k="name" v="Bårdli" />
		<tag k="place" v="farm" />
		<tag k="ssr:stedsnr" v="182129" />
	</node>
	<node lat="63.95459997452315" lon="10.2251152638914" id="-93468">
		<tag k="name" v="Melan" />
		<tag k="place" v="farm" />
		<tag k="ssr:stedsnr" v="182136" />
	</node>
	<node lat="64.00440104055353" lon="10.226734579320857" id="-93469">
		<tag k="name" v="Valleraunet" />
		<tag k="place" v="farm" />
		<tag k="ssr:stedsnr" v="182732" />
	</node>
	<node lat="63.96276666565772" lon="10.12142222210241" id="-93470">
		<tag k="name" v="Skaset" />
		<tag k="place" v="farm" />
		<tag k="ssr:stedsnr" v="182747" />
	</node>
	<node lat="63.92377499800136" lon="10.047575001836446" id="-93473">
		<tag k="alt_name" v="Sjøgården" />
		<tag k="name" v="Sjøgård" />
		<tag k="place" v="farm" />
		<tag k="ssr:stedsnr" v="195548" />
	</node>
	<node lat="64.2486460140091" lon="10.262516251177802" id="-93477">
		<tag k="fixme" v="consider place=hamlet" />
		<tag k="name" v="Sandøya" />
		<tag k="place" v="farm" />
		<tag k="ssr:stedsnr" v="195100" />
	</node>
	<node lat="63.9808722195011" lon="10.394100000088786" id="-93481">
		<tag k="name" v="Lysbakken" />
		<tag k="place" v="farm" />
		<tag k="ssr:stedsnr" v="195145" />
	</node>
	<node lat="63.95882222628236" lon="10.21855277118186" id="-93489">
		<tag k="fixme" v="consider place=hamlet" />
		<tag k="name" v="Frønes" />
		<tag k="place" v="farm" />
		<tag k="ssr:stedsnr" v="195384" />
	</node>
	<node lat="63.96068333680014" lon="10.224677770155322" id="-93490">
		<tag k="name" v="Åfjord" />
		<tag k="old_name" v="Å i Åfjord;Å" />
		<tag k="place" v="village" />
		<tag k="ssr:stedsnr" v="195386" />
	</node>
	<node lat="63.99301666753743" lon="10.29430833871095" id="-93496">
		<tag k="name" v="Trøen" />
		<tag k="place" v="farm" />
		<tag k="ssr:stedsnr" v="196190" />
	</node>
	<node lat="63.99926110840387" lon="10.226363887671571" id="-93497">
		<tag k="alt_name" v="Steinvollen" />
		<tag k="name" v="Imsen" />
		<tag k="place" v="farm" />
		<tag k="ssr:stedsnr" v="196192" />
	</node>
	<node lat="64.18793556319345" lon="10.208091525510948" id="-93499">
		<tag k="fixme" v="consider place=hamlet" />
		<tag k="name" v="Utro" />
		<tag k="place" v="farm" />
		<tag k="ssr:stedsnr" v="196214" />
	</node>
	<node lat="63.99784444827692" lon="10.000358325715721" id="-93508">
		<tag k="name" v="Kattavika" />
		<tag k="place" v="farm" />
		<tag k="ssr:stedsnr" v="195722" />
	</node>
	<node lat="63.9559698316573" lon="9.966865909012618" id="-93544">
		<tag k="fixme" v="consider place=hamlet" />
		<tag k="name" v="Tårnes" />
		<tag k="place" v="farm" />
		<tag k="ssr:stedsnr" v="196519" />
	</node>
	<node lat="63.91576388887552" lon="9.970280551287884" id="-93581">
		<tag k="alt_name" v="Barøy søre" />
		<tag k="name" v="Søre Barøy" />
		<tag k="place" v="farm" />
		<tag k="ssr:stedsnr" v="213018" />
	</node>
	<node lat="63.97212499651682" lon="10.006641664332305" id="-93602">
		<tag k="name" v="Vågen" />
		<tag k="place" v="farm" />
		<tag k="ssr:stedsnr" v="213073" />
	</node>
	<node lat="63.99016666637998" lon="10.171536113424573" id="-93606">
		<tag k="name" v="Dolmset" />
		<tag k="place" v="hamlet" />
		<tag k="ssr:stedsnr" v="213190" />
	</node>
	<node lat="64.00503889275583" lon="10.025525007518954" id="-93609">
		<tag k="name" v="Herfjord" />
		<tag k="place" v="hamlet" />
		<tag k="ssr:stedsnr" v="213201" />
	</node>
	<node lat="63.92504999585006" lon="9.919969446174605" id="-93612">
		<tag k="name" v="Haugset" />
		<tag k="place" v="farm" />
		<tag k="ssr:stedsnr" v="213218" />
	</node>
	<node lat="64.27964687268994" lon="10.375466113158765" id="-93636">
		<tag k="alt_name" v="Mostervik Østre" />
		<tag k="name" v="Østre Mostervika" />
		<tag k="place" v="farm" />
		<tag k="ssr:stedsnr" v="213251" />
	</node>
	<node lat="63.91472499951218" lon="9.97927223060119" id="-93643">
		<tag k="name" v="Langstranda" />
		<tag k="place" v="farm" />
		<tag k="ssr:stedsnr" v="213346" />
	</node>
	<node lat="63.946944877674106" lon="10.136758878792495" id="-93661">
		<tag k="name" v="Strand" />
		<tag k="place" v="farm" />
		<tag k="ssr:stedsnr" v="213659" />
	</node>
	<node lat="63.9210333332443" lon="10.211844441543738" id="-93665">
		<tag k="name" v="Sørli" />
		<tag k="place" v="farm" />
		<tag k="ssr:stedsnr" v="213743" />
	</node>
	<node lat="63.96666944485174" lon="10.222550005601546" id="-93667">
		<tag k="name" v="Åfjord prestegård" />
		<tag k="place" v="farm" />
		<tag k="ssr:stedsnr" v="213750" />
	</node>
	<node lat="63.97272777565449" lon="10.231341670115699" id="-93668">
		<tag k="name" v="Kleivan" />
		<tag k="place" v="farm" />
		<tag k="ssr:stedsnr" v="213751" />
	</node>
	<node lat="64.03968333339989" lon="10.069341660785717" id="-93681">
		<tag k="name" v="Aunet" />
		<tag k="place" v="farm" />
		<tag k="ssr:stedsnr" v="213880" />
	</node>
	<node lat="63.914319442411085" lon="10.430572231416242" id="-93682">
		<tag k="name" v="Under-Vinnan" />
		<tag k="place" v="farm" />
		<tag k="ssr:stedsnr" v="213887" />
	</node>
	<node lat="63.99967222666861" lon="10.48591387917619" id="-93722">
		<tag k="name" v="Grønnbakken" />
		<tag k="place" v="farm" />
		<tag k="ssr:stedsnr" v="273530" />
	</node>
	<node lat="63.92884166454569" lon="10.16675278003065" id="-93725">
		<tag k="name" v="Smølhaugen" />
		<tag k="place" v="isolated_dwelling" />
		<tag k="ssr:stedsnr" v="273545" />
	</node>
	<node lat="63.96596388687699" lon="10.20543610604299" id="-93734">
		<tag k="name" v="Hubakkan" />
		<tag k="place" v="farm" />
		<tag k="ssr:stedsnr" v="273744" />
	</node>
	<node lat="63.91440555689795" lon="9.967891674372776" id="-93751">
		<tag k="name" v="Lyngsmyr" />
		<tag k="place" v="farm" />
		<tag k="ssr:stedsnr" v="274016" />
	</node>
	<node lat="64.27808888811053" lon="10.374905563686971" id="-93758">
		<tag k="name" v="Gangsmostermyra" />
		<tag k="place" v="farm" />
		<tag k="ssr:stedsnr" v="274216" />
	</node>
	<node lat="64.27894444039038" lon="10.36312500937669" id="-93759">
		<tag k="name" v="Litl Mostervika" />
		<tag k="place" v="farm" />
		<tag k="ssr:stedsnr" v="274218" />
	</node>
	<node lat="64.12194999985351" lon="10.264463891515891" id="-93776">
		<tag k="name" v="Munkhaugen" />
		<tag k="place" v="farm" />
		<tag k="ssr:stedsnr" v="274059" />
	</node>
	<node lat="64.19847222285836" lon="10.364261104908445" id="-93779">
		<tag k="name" v="Hauknes" />
		<tag k="place" v="farm" />
		<tag k="ssr:stedsnr" v="274139" />
	</node>
	<node lat="64.04804167001954" lon="10.020816656997116" id="-93783">
		<tag k="fixme" v="consider place=suburb, village or hamlet" />
		<tag k="name" v="Brenna" />
		<tag k="place" v="quarter" />
		<tag k="ssr:stedsnr" v="274153" />
	</node>
	<node lat="64.17300277702067" lon="10.345924994565413" id="-93784">
		<tag k="name" v="Pettersplassen" />
		<tag k="place" v="farm" />
		<tag k="ssr:stedsnr" v="274156" />
	</node>
	<node lat="64.03996944331341" lon="10.07688610344396" id="-93796">
		<tag k="name" v="Gården" />
		<tag k="place" v="farm" />
		<tag k="ssr:stedsnr" v="274843" />
	</node>
	<node lat="64.06208333419673" lon="10.020622214098102" id="-93800">
		<tag k="name" v="Øvermyra" />
		<tag k="place" v="farm" />
		<tag k="ssr:stedsnr" v="274753" />
	</node>
	<node lat="64.12692777976808" lon="10.132605562812197" id="-93806">
		<tag k="name" v="Nordsjøen" />
		<tag k="place" v="farm" />
		<tag k="ssr:stedsnr" v="274849" />
	</node>
	<node lat="64.12269722004041" lon="10.127311111547028" id="-93807">
		<tag k="name" v="Leirvågen" />
		<tag k="place" v="farm" />
		<tag k="ssr:stedsnr" v="274850" />
	</node>
	<node lat="64.12413888603187" lon="10.128424992165423" id="-93808">
		<tag k="name" v="Dahlstranda" />
		<tag k="place" v="farm" />
		<tag k="ssr:stedsnr" v="274853" />
	</node>
	<node lat="64.15863611238281" lon="10.18364722126955" id="-93810">
		<tag k="name" v="Reina" />
		<tag k="place" v="farm" />
		<tag k="ssr:stedsnr" v="274867" />
	</node>
	<node lat="63.93364444199623" lon="10.023974995894138" id="-93815">
		<tag k="name" v="Hesthagan hyttefelt" />
		<tag k="place" v="neighbourhood" />
		<tag k="ssr:stedsnr" v="284020" />
	</node>
	<node lat="64.04006666241938" lon="9.98657499017807" id="-93818">
		<tag k="leisure" v="pitch" />
		<tag k="name" v="Guttelvika fotballbane" />
		<tag k="ssr:stedsnr" v="301714" />
	</node>
	<node lat="63.93031111170959" lon="10.067911109874036" id="-93819">
		<tag k="name" v="Rånes" />
		<tag k="place" v="farm" />
		<tag k="ssr:stedsnr" v="303239" />
	</node>
	<node lat="63.97805833744663" lon="10.40143889231976" id="-93820">
		<tag k="fixme" v="consider place=hamlet" />
		<tag k="name" v="Staven" />
		<tag k="place" v="farm" />
		<tag k="ssr:stedsnr" v="303157" />
	</node>
	<node lat="63.98366700733403" lon="10.368302056815754" id="-93821">
		<tag k="name" v="Naustan" />
		<tag k="place" v="farm" />
		<tag k="ssr:stedsnr" v="303160" />
	</node>
	<node lat="63.96629721929085" lon="9.976308332133158" id="-93822">
		<tag k="name" v="Tørhogg" />
		<tag k="place" v="hamlet" />
		<tag k="ssr:stedsnr" v="316737" />
	</node>
	<node lat="63.94682222531431" lon="10.534297224061628" id="-93828">
		<tag k="name" v="Granlia" />
		<tag k="place" v="farm" />
		<tag k="ssr:stedsnr" v="316428" />
	</node>
	<node lat="63.91745833736948" lon="9.978738890034393" id="-93833">
		<tag k="name" v="Barøya" />
		<tag k="place" v="isolated_dwelling" />
		<tag k="ssr:stedsnr" v="316567" />
	</node>
	<node lat="63.99797777574424" lon="10.162947214683735" id="-93835">
		<tag k="name" v="Bekken" />
		<tag k="place" v="isolated_dwelling" />
		<tag k="ssr:stedsnr" v="316764" />
	</node>
	<node lat="64.01464722000829" lon="10.069452784816127" id="-93837">
		<tag k="fixme" v="consider place=hamlet" />
		<tag k="name" v="Staggalia" />
		<tag k="place" v="farm" />
		<tag k="ssr:stedsnr" v="317064" />
	</node>
	<node lat="64.00553114567712" lon="10.21383089132205" id="-93839">
		<tag k="fixme" v="consider place=hamlet" />
		<tag k="name" v="Halsaunet" />
		<tag k="place" v="farm" />
		<tag k="ssr:stedsnr" v="317073" />
	</node>
	<node lat="64.20050221748374" lon="10.228212781219305" id="-93845">
		<tag k="fixme" v="consider place=hamlet" />
		<tag k="name" v="Grønningen" />
		<tag k="place" v="farm" />
		<tag k="ssr:stedsnr" v="317028" />
	</node>
	<node lat="63.979100000576096" lon="10.299938894463237" id="-93849">
		<tag k="name" v="Sundhalsen" />
		<tag k="place" v="farm" />
		<tag k="ssr:stedsnr" v="317137" />
	</node>
	<node lat="64.16920555418533" lon="10.179597231122438" id="-93852">
		<tag k="alt_name" v="Nordvollan" />
		<tag k="name" v="Vollan" />
		<tag k="place" v="farm" />
		<tag k="ssr:stedsnr" v="317231" />
	</node>
	<node lat="64.26094485103934" lon="10.363948208467644" id="-93880">
		<tag k="fixme" v="consider place=hamlet" />
		<tag k="name" v="Vik" />
		<tag k="place" v="farm" />
		<tag k="ssr:stedsnr" v="317382" />
	</node>
	<node lat="64.00411457897337" lon="10.225488368682885" id="-93887">
		<tag k="fixme" v="consider place=hamlet" />
		<tag k="name" v="Valleraunet" />
		<tag k="place" v="farm" />
		<tag k="ssr:stedsnr" v="317666" />
	</node>
	<node lat="63.87284722527656" lon="10.451388897753938" id="-93896">
		<tag k="fixme" v="consider tourism=alpine_hut or tourism=chalet" />
		<tag k="name" v="Reinsjøbu" />
		<tag k="old_name" v="Reinsjøbua" />
		<tag k="ssr:stedsnr" v="330388" />
		<tag k="tourism" v="wilderness_hut" />
	</node>
	<node lat="63.980152779851124" lon="10.303827787467014" id="-93901">
		<tag k="name" v="Sandhalsmoen" />
		<tag k="place" v="farm" />
		<tag k="ssr:stedsnr" v="334011" />
	</node>
	<node lat="64.0077638879818" lon="10.175044441954666" id="-93916">
		<tag k="historic" v="shieling" />
		<tag k="name" v="Liaseteren" />
		<tag k="place" v="isolated_dwelling" />
		<tag k="ssr:stedsnr" v="334167" />
	</node>
	<node lat="64.25523056011919" lon="10.342430548525593" id="-93930">
		<tag k="name" v="Teistvika" />
		<tag k="place" v="isolated_dwelling" />
		<tag k="ssr:stedsnr" v="334231" />
	</node>
	<node lat="64.02607222116261" lon="10.522755562832659" id="-93970">
		<tag k="name" v="Kvennaparten" />
		<tag k="place" v="farm" />
		<tag k="ssr:stedsnr" v="334484" />
	</node>
	<node lat="63.98667777836182" lon="10.139744442919925" id="-93973">
		<tag k="amenity" v="school" />
		<tag k="name" v="Langdal skole" />
		<tag k="ssr:stedsnr" v="334565" />
	</node>
	<node lat="63.9871499969237" lon="10.38813887968074" id="-93997">
		<tag k="name" v="Engen" />
		<tag k="place" v="farm" />
		<tag k="ssr:stedsnr" v="334777" />
	</node>
	<node lat="64.05358333114002" lon="10.077724993263498" id="-94003">
		<tag k="name" v="Høvika" />
		<tag k="place" v="hamlet" />
		<tag k="ssr:stedsnr" v="334870" />
	</node>
	<node lat="64.01516111360112" lon="10.025355562459794" id="-94009">
		<tag k="name" v="Grønvollan" />
		<tag k="place" v="farm" />
		<tag k="ssr:stedsnr" v="334829" />
	</node>
	<node lat="64.1680499975246" lon="10.169286101869599" id="-94018">
		<tag k="name" v="Øset" />
		<tag k="place" v="farm" />
		<tag k="ssr:stedsnr" v="335077" />
	</node>
	<node lat="64.05412222078489" lon="10.080266667277215" id="-94038">
		<tag k="name" v="Bakkan" />
		<tag k="place" v="farm" />
		<tag k="ssr:stedsnr" v="334990" />
	</node>
	<node lat="64.17506666553804" lon="10.464766675143807" id="-94043">
		<tag k="name" v="Kløverenget" />
		<tag k="place" v="isolated_dwelling" />
		<tag k="ssr:stedsnr" v="335266" />
	</node>
	<node lat="64.25487222304326" lon="10.360191671177773" id="-94044">
		<tag k="name" v="Moan" />
		<tag k="place" v="farm" />
		<tag k="ssr:stedsnr" v="335163" />
	</node>
	<node lat="64.14390833765245" lon="10.170105551741521" id="-94061">
		<tag k="name" v="Kleiva" />
		<tag k="place" v="isolated_dwelling" />
		<tag k="ssr:stedsnr" v="335888" />
	</node>
	<node lat="63.9584611121086" lon="10.186297219504945" id="-94068">
		<tag k="building" v="commercial" />
		<tag k="name" v="Meieriet" />
		<tag k="ssr:stedsnr" v="358340" />
	</node>
	<node lat="63.98569166866056" lon="10.421197216973532" id="-94070">
		<tag k="amenity" v="kindergarten" />
		<tag k="name" v="By barnehage" />
		<tag k="ssr:stedsnr" v="360672" />
	</node>
	<node lat="63.960219444739636" lon="10.22428888128814" id="-94078">
		<tag k="building" v="commercial" />
		<tag k="name" v="Åfjordstorget" />
		<tag k="ssr:stedsnr" v="362719" />
	</node>
	<node lat="63.91451944405301" lon="10.430661111908224" id="-94084">
		<tag k="name" v="Vinnaplassen" />
		<tag k="place" v="farm" />
		<tag k="ssr:stedsnr" v="376332" />
	</node>
	<node lat="63.970955553354784" lon="10.150755547971194" id="-94089">
		<tag k="name" v="Skogrand" />
		<tag k="place" v="farm" />
		<tag k="ssr:stedsnr" v="376712" />
	</node>
	<node lat="64.1558111132939" lon="10.189000007748245" id="-94117">
		<tag k="name" v="Nesvalen" />
		<tag k="place" v="farm" />
		<tag k="ssr:stedsnr" v="377220" />
	</node>
	<node lat="64.07873610687496" lon="10.420541660780533" id="-94121">
		<tag k="name" v="Nordslåtten" />
		<tag k="place" v="locality" />
		<tag k="ssr:stedsnr" v="377285" />
	</node>
	<node lat="63.95996206916467" lon="10.225878528080667" id="-94133">
		<tag k="fixme" v="consider place=suburb, village or hamlet" />
		<tag k="name" v="Årnes" />
		<tag k="place" v="quarter" />
		<tag k="ssr:stedsnr" v="377358" />
	</node>
	<node lat="63.921391670602176" lon="9.933530556819818" id="-94138">
		<tag k="name" v="Landheim" />
		<tag k="place" v="farm" />
		<tag k="ssr:stedsnr" v="377494" />
	</node>
	<node lat="63.951652776068315" lon="10.144613880445188" id="-94141">
		<tag k="name" v="Gressmyr" />
		<tag k="place" v="farm" />
		<tag k="ssr:stedsnr" v="377542" />
	</node>
	<node lat="63.894598157615754" lon="9.991462453362525" id="-94144">
		<tag k="fixme" v="consider place=hamlet" />
		<tag k="name" v="Kjørem" />
		<tag k="place" v="farm" />
		<tag k="ssr:stedsnr" v="377579" />
	</node>
	<node lat="64.02305555493311" lon="9.918608336248166" id="-94163">
		<tag k="name" v="Moen" />
		<tag k="place" v="farm" />
		<tag k="ssr:stedsnr" v="378108" />
	</node>
	<node lat="64.05824444042024" lon="10.454313880839985" id="-94165">
		<tag k="name" v="Nordbuan" />
		<tag k="place" v="farm" />
		<tag k="ssr:stedsnr" v="378297" />
	</node>
	<node lat="64.18793333534258" lon="10.420988894954606" id="-94166">
		<tag k="amenity" v="school" />
		<tag k="name" v="Brandsfjord" />
		<tag k="ssr:stedsnr" v="378497" />
	</node>
	<node lat="64.11520278037747" lon="10.55521388745051" id="-94170">
		<tag k="name" v="Gråsteinmyra" />
		<tag k="place" v="farm" />
		<tag k="ssr:stedsnr" v="378349" />
	</node>
	<node lat="64.1716388913727" lon="10.468149990861415" id="-94178">
		<tag k="name" v="Nystrand" />
		<tag k="place" v="farm" />
		<tag k="ssr:stedsnr" v="378462" />
	</node>
	<node lat="63.93241944225432" lon="10.016772224861691" id="-94181">
		<tag k="name" v="Sandstad" />
		<tag k="place" v="farm" />
		<tag k="ssr:stedsnr" v="378556" />
	</node>
	<node lat="63.93839444535887" lon="10.041144445678796" id="-94182">
		<tag k="fixme" v="consider place=hamlet" />
		<tag k="name" v="Grimstad" />
		<tag k="place" v="farm" />
		<tag k="ssr:stedsnr" v="378557" />
	</node>
	<node lat="63.9108916676832" lon="9.968433324026414" id="-94215">
		<tag k="name" v="Nordgården" />
		<tag k="place" v="farm" />
		<tag k="ssr:stedsnr" v="395022" />
	</node>
	<node lat="63.978197219370145" lon="10.102019450603134" id="-94220">
		<tag k="name" v="Myrenget" />
		<tag k="place" v="farm" />
		<tag k="ssr:stedsnr" v="395113" />
	</node>
	<node lat="63.97524166515179" lon="10.005522214438948" id="-94237">
		<tag k="name" v="Bjørnavika" />
		<tag k="place" v="farm" />
		<tag k="ssr:stedsnr" v="395063" />
	</node>
	<node lat="63.931899998112364" lon="10.085733342340532" id="-94259">
		<tag k="name" v="Nordvika" />
		<tag k="place" v="farm" />
		<tag k="ssr:stedsnr" v="395539" />
	</node>
	<node lat="64.00776111072528" lon="10.035066665817688" id="-94302">
		<tag k="name" v="Moen" />
		<tag k="place" v="farm" />
		<tag k="ssr:stedsnr" v="395779" />
	</node>
	<node lat="64.01262777822586" lon="10.028752778339394" id="-94313">
		<tag k="name" v="Lauvåsvika" />
		<tag k="place" v="farm" />
		<tag k="ssr:stedsnr" v="395862" />
	</node>
	<node lat="63.93397500159208" lon="10.024313886541455" id="-94324">
		<tag k="name" v="Flatmoen hyttefelt" />
		<tag k="place" v="neighbourhood" />
		<tag k="ssr:stedsnr" v="406025" />
	</node>
	<node lat="63.958186115048555" lon="10.185041675194407" id="-94328">
		<tag k="amenity" v="cafe" />
		<tag k="name" v="Saga" />
		<tag k="ssr:stedsnr" v="419347" />
	</node>
	<node lat="63.976300002570895" lon="10.208650006589753" id="-94329">
		<tag k="leisure" v="pitch" />
		<tag k="name" v="Hutjønna skianlegg" />
		<tag k="ssr:stedsnr" v="423736" />
	</node>
	<node lat="63.98981111239482" lon="10.444852771153139" id="-94330">
		<tag k="name" v="Moan" />
		<tag k="place" v="farm" />
		<tag k="ssr:stedsnr" v="425126" />
	</node>
	<node lat="63.9381722192822" lon="10.04209445153809" id="-94331">
		<tag k="name" v="Grimstad" />
		<tag k="place" v="farm" />
		<tag k="ssr:stedsnr" v="424235" />
	</node>
	<node lat="64.03558333315006" lon="10.41582777273478" id="-94333">
		<tag k="name" v="Bonenget" />
		<tag k="place" v="farm" />
		<tag k="ssr:stedsnr" v="439696" />
	</node>
	<node lat="63.92759166608715" lon="10.364999989790027" id="-94335">
		<tag k="name" v="Myrvoll" />
		<tag k="place" v="farm" />
		<tag k="ssr:stedsnr" v="437355" />
	</node>
	<node lat="63.97854722601937" lon="10.403611104196495" id="-94341">
		<tag k="name" v="Staven" />
		<tag k="place" v="farm" />
		<tag k="ssr:stedsnr" v="438124" />
	</node>
	<node lat="63.899079146454014" lon="10.04301027603685" id="-94360">
		<tag k="fixme" v="consider place=hamlet" />
		<tag k="name" v="Kammen" />
		<tag k="place" v="farm" />
		<tag k="ssr:stedsnr" v="438583" />
	</node>
	<node lat="63.91183775401105" lon="10.056467718265223" id="-94366">
		<tag k="fixme" v="consider place=hamlet" />
		<tag k="name" v="Fjellsaunet" />
		<tag k="place" v="farm" />
		<tag k="ssr:stedsnr" v="438625" />
	</node>
	<node lat="64.01989526127726" lon="10.04355890773677" id="-94371">
		<tag k="alt_name" v="Storvik" />
		<tag k="name" v="Storvika" />
		<tag k="place" v="farm" />
		<tag k="ssr:stedsnr" v="439041" />
	</node>
	<node lat="63.97245000363024" lon="10.33347777697372" id="-94400">
		<tag k="name" v="Grøtan" />
		<tag k="place" v="isolated_dwelling" />
		<tag k="ssr:stedsnr" v="498157" />
	</node>
	<node lat="63.84052557046406" lon="10.459967748924106" id="-94407">
		<tag k="fixme" v="consider place=hamlet" />
		<tag k="name" v="Lysvatnet" />
		<tag k="place" v="farm" />
		<tag k="ssr:stedsnr" v="498525" />
	</node>
	<node lat="63.893952778477534" lon="10.010430554436393" id="-94409">
		<tag k="name" v="Kjøremssætra" />
		<tag k="place" v="locality" />
		<tag k="ssr:stedsnr" v="498626" />
	</node>
	<node lat="64.21896389208726" lon="10.267219448528493" id="-94425">
		<tag k="name" v="Stokkvika" />
		<tag k="place" v="farm" />
		<tag k="ssr:stedsnr" v="499007" />
	</node>
	<node lat="64.03780833418551" lon="10.057502786654437" id="-94430">
		<tag k="name" v="Revsnes" />
		<tag k="place" v="hamlet" />
		<tag k="ssr:stedsnr" v="499066" />
	</node>
	<node lat="64.06246944322844" lon="9.959211121089652" id="-94432">
		<tag k="alt_name" v="Nygården" />
		<tag k="name" v="Nygård" />
		<tag k="place" v="farm" />
		<tag k="ssr:stedsnr" v="499091" />
	</node>
	<node lat="64.06437230190075" lon="10.017815318846019" id="-94434">
		<tag k="alt_name" v="Sundet" />
		<tag k="name" v="Sundgården" />
		<tag k="place" v="farm" />
		<tag k="ssr:stedsnr" v="499098" />
	</node>
	<node lat="64.05742777716169" lon="9.962949991965138" id="-94435">
		<tag k="name" v="Trøa" />
		<tag k="place" v="farm" />
		<tag k="ssr:stedsnr" v="499115" />
	</node>
	<node lat="63.985994444956596" lon="10.377574991385291" id="-94436">
		<tag k="name" v="Tverråsen" />
		<tag k="place" v="farm" />
		<tag k="ssr:stedsnr" v="499126" />
	</node>
	<node lat="63.98977777562909" lon="10.288252777577403" id="-94437">
		<tag k="name" v="Mohaugen" />
		<tag k="place" v="farm" />
		<tag k="ssr:stedsnr" v="499128" />
	</node>
	<node lat="64.04011389188747" lon="10.427013880366454" id="-94440">
		<tag k="name" v="Holmenget" />
		<tag k="place" v="farm" />
		<tag k="ssr:stedsnr" v="499200" />
	</node>
	<node lat="64.07994721845908" lon="10.045052769049367" id="-94445">
		<tag k="fixme" v="consider place=hamlet" />
		<tag k="name" v="Harbak" />
		<tag k="place" v="village" />
		<tag k="ssr:stedsnr" v="499137" />
	</node>
	<node lat="64.10885555719169" lon="10.536630557371321" id="-94453">
		<tag k="name" v="Rørskogen" />
		<tag k="place" v="farm" />
		<tag k="ssr:stedsnr" v="499278" />
	</node>
	<node lat="63.93388055256549" lon="10.065555546386138" id="-94463">
		<tag k="name" v="Myra" />
		<tag k="place" v="farm" />
		<tag k="ssr:stedsnr" v="499451" />
	</node>
	<node lat="64.27489444832415" lon="10.383636104983077" id="-94469">
		<tag k="name" v="Nordstrand" />
		<tag k="place" v="farm" />
		<tag k="ssr:stedsnr" v="499547" />
	</node>
	<node lat="63.96698333038471" lon="10.087447221643458" id="-94498">
		<tag k="name" v="Åkervik" />
		<tag k="place" v="locality" />
		<tag k="ssr:stedsnr" v="516096" />
	</node>
	<node lat="63.94481666463768" lon="10.087561114993699" id="-94547">
		<tag k="name" v="Eidsmyra" />
		<tag k="place" v="farm" />
		<tag k="ssr:stedsnr" v="516567" />
	</node>
	<node lat="63.95235308929679" lon="10.211732916951618" id="-94563">
		<tag k="fixme" v="consider place=hamlet" />
		<tag k="name" v="Rotnes" />
		<tag k="place" v="farm" />
		<tag k="ssr:stedsnr" v="516697" />
	</node>
	<node lat="63.98178610849417" lon="10.357572211879418" id="-94568">
		<tag k="name" v="Vesterheim" />
		<tag k="place" v="farm" />
		<tag k="ssr:stedsnr" v="516785" />
	</node>
	<node lat="64.01754444031039" lon="10.010102776495449" id="-94576">
		<tag k="name" v="Langstranda" />
		<tag k="place" v="farm" />
		<tag k="ssr:stedsnr" v="516854" />
	</node>
	<node lat="64.17801388779709" lon="10.227541670163472" id="-94587">
		<tag k="name" v="Klokkargården" />
		<tag k="place" v="farm" />
		<tag k="ssr:stedsnr" v="517096" />
	</node>
	<node lat="64.12832500160746" lon="10.136308327857181" id="-94606">
		<tag k="name" v="Moen" />
		<tag k="place" v="farm" />
		<tag k="ssr:stedsnr" v="517894" />
	</node>
	<node lat="64.13531389146607" lon="10.151891664349897" id="-94608">
		<tag k="name" v="Sandseter" />
		<tag k="place" v="farm" />
		<tag k="ssr:stedsnr" v="517903" />
	</node>
	<node lat="63.841121480552694" lon="10.459998630121564" id="-94612">
		<tag k="name" v="Lysvatnet" />
		<tag k="place" v="farm" />
		<tag k="ssr:stedsnr" v="545143" />
	</node>
	<node lat="63.95905555468761" lon="10.21968611807264" id="-94613">
		<tag k="name" v="Frønes" />
		<tag k="place" v="farm" />
		<tag k="ssr:stedsnr" v="545226" />
	</node>
	<node lat="64.21375833042843" lon="10.271249990486714" id="-94624">
		<tag k="name" v="Kilsvika" />
		<tag k="place" v="farm" />
		<tag k="ssr:stedsnr" v="559015" />
	</node>
	<node lat="64.19970555653921" lon="10.307141659241289" id="-94625">
		<tag k="fixme" v="consider place=hamlet" />
		<tag k="name" v="Sumstad" />
		<tag k="place" v="village" />
		<tag k="ssr:stedsnr" v="559024" />
	</node>
	<node lat="63.993405557241914" lon="10.45615833323894" id="-94634">
		<tag k="alt_name" v="Moaunet" />
		<tag k="name" v="Aunet" />
		<tag k="place" v="farm" />
		<tag k="ssr:stedsnr" v="559152" />
	</node>
	<node lat="64.08538889055957" lon="10.506188883204567" id="-94644">
		<tag k="name" v="Brottet" />
		<tag k="place" v="farm" />
		<tag k="ssr:stedsnr" v="559313" />
	</node>
	<node lat="64.17326944387841" lon="10.245566672983873" id="-94657">
		<tag k="name" v="Bjørkmoen" />
		<tag k="place" v="farm" />
		<tag k="ssr:stedsnr" v="559465" />
	</node>
	<node lat="64.18216944705414" lon="10.240986106549512" id="-94659">
		<tag k="alt_name" v="Øygården, øvre" />
		<tag k="name" v="Øvre Øygården" />
		<tag k="place" v="farm" />
		<tag k="ssr:stedsnr" v="559480" />
	</node>
	<node lat="63.91901111471317" lon="10.00281110532748" id="-94665">
		<tag k="alt_name" v="Reitan vestre;Vestre Reitan" />
		<tag k="loc_name" v="Reiten" />
		<tag k="name" v="Reitan" />
		<tag k="place" v="farm" />
		<tag k="ssr:stedsnr" v="559625" />
	</node>
	<node lat="64.01519999659796" lon="10.018922213213695" id="-94673">
		<tag k="name" v="Asvika" />
		<tag k="place" v="isolated_dwelling" />
		<tag k="ssr:stedsnr" v="560055" />
	</node>
	<node lat="64.10649652237447" lon="10.212465319670821" id="-94676">
		<tag k="fixme" v="consider place=hamlet" />
		<tag k="name" v="Joskjør" />
		<tag k="place" v="farm" />
		<tag k="ssr:stedsnr" v="560158" />
	</node>
	<node lat="63.94493055151329" lon="10.12241944837835" id="-94692">
		<tag k="name" v="Kråkneset" />
		<tag k="place" v="farm" />
		<tag k="ssr:stedsnr" v="576623" />
	</node>
	<node lat="64.00599166965239" lon="10.216586110043114" id="-94695">
		<tag k="name" v="Halsaunet" />
		<tag k="place" v="farm" />
		<tag k="ssr:stedsnr" v="576079" />
	</node>
	<node lat="63.99265833568316" lon="10.20887777521813" id="-94696">
		<tag k="name" v="Nordli" />
		<tag k="place" v="farm" />
		<tag k="ssr:stedsnr" v="576086" />
	</node>
	<node lat="63.98961944742306" lon="10.441166666928483" id="-94707">
		<tag k="name" v="Moan" />
		<tag k="place" v="farm" />
		<tag k="ssr:stedsnr" v="576134" />
	</node>
	<node lat="63.944705551110836" lon="10.090438893964862" id="-94719">
		<tag k="name" v="Leikvang" />
		<tag k="place" v="farm" />
		<tag k="ssr:stedsnr" v="576583" />
	</node>
	<node lat="63.925377780429784" lon="10.152533339089938" id="-94725">
		<tag k="name" v="Sagnes" />
		<tag k="place" v="farm" />
		<tag k="ssr:stedsnr" v="576524" />
	</node>
	<node lat="64.18721944725908" lon="10.270513882785384" id="-94745">
		<tag k="name" v="Einin" />
		<tag k="place" v="farm" />
		<tag k="ssr:stedsnr" v="577031" />
	</node>
	<node lat="63.925713887151815" lon="10.01483610652796" id="-94774">
		<tag k="name" v="Sivertsenplassen" />
		<tag k="place" v="farm" />
		<tag k="ssr:stedsnr" v="577247" />
	</node>
	<node lat="63.933049997863385" lon="10.063872224212462" id="-94787">
		<tag k="name" v="Nordtømme" />
		<tag k="place" v="farm" />
		<tag k="ssr:stedsnr" v="577232" />
	</node>
	<node lat="63.90632499815881" lon="9.954541674961202" id="-94788">
		<tag k="name" v="Strømsmoen" />
		<tag k="place" v="farm" />
		<tag k="ssr:stedsnr" v="577236" />
	</node>
	<node lat="63.99844166341386" lon="10.470750004781156" id="-94797">
		<tag k="name" v="Granmo" />
		<tag k="place" v="farm" />
		<tag k="ssr:stedsnr" v="577567" />
	</node>
	<node lat="63.93220000100712" lon="10.224038895648285" id="-94803">
		<tag k="name" v="Kvennabakken" />
		<tag k="place" v="farm" />
		<tag k="ssr:stedsnr" v="577640" />
	</node>
	<node lat="64.02846944847568" lon="10.079294442827324" id="-94834">
		<tag k="name" v="Seterlia boligfelt" />
		<tag k="place" v="quarter" />
		<tag k="ssr:stedsnr" v="603632" />
	</node>
	<node lat="63.95988025822329" lon="10.225000041160751" id="-94837">
		<tag k="building" v="commercial" />
		<tag k="name" v="Årnes handel" />
		<tag k="ssr:stedsnr" v="604727" />
	</node>
	<node lat="64.04006666241938" lon="9.98657499017807" id="-94838">
		<tag k="leisure" v="pitch" />
		<tag k="name" v="Stokkøya stadion" />
		<tag k="ssr:stedsnr" v="604736" />
	</node>
	<node lat="63.98997777879376" lon="10.46244167001325" id="-94839">
		<tag k="name" v="Rømma" />
		<tag k="place" v="farm" />
		<tag k="ssr:stedsnr" v="606135" />
	</node>
	<node lat="63.983986110302276" lon="10.399058334062735" id="-94858">
		<tag k="name" v="Ospmo" />
		<tag k="place" v="farm" />
		<tag k="ssr:stedsnr" v="620154" />
	</node>
	<node lat="63.98395656380645" lon="10.368252221696244" id="-94860">
		<tag k="fixme" v="consider place=hamlet" />
		<tag k="name" v="Naustan" />
		<tag k="place" v="farm" />
		<tag k="ssr:stedsnr" v="620156" />
	</node>
	<node lat="64.17100886464051" lon="10.4485531683648" id="-94877">
		<tag k="fixme" v="consider place=hamlet" />
		<tag k="name" v="Nerdal" />
		<tag k="place" v="farm" />
		<tag k="ssr:stedsnr" v="620435" />
	</node>
	<node lat="64.19677526947851" lon="10.365659871496685" id="-94883">
		<tag k="fixme" v="consider place=hamlet" />
		<tag k="name" v="Hauknes" />
		<tag k="place" v="farm" />
		<tag k="ssr:stedsnr" v="620466" />
	</node>
	<node lat="64.19651666689344" lon="10.36994443912092" id="-94912">
		<tag k="alt_name" v="Stranda" />
		<tag k="name" v="Hauknesstranda" />
		<tag k="place" v="farm" />
		<tag k="ssr:stedsnr" v="632067" />
	</node>
	<node lat="63.90909309548933" lon="9.974867559278762" id="-94918">
		<tag k="fixme" v="consider place=hamlet" />
		<tag k="name" v="Selnes" />
		<tag k="place" v="farm" />
		<tag k="ssr:stedsnr" v="636663" />
	</node>
	<node lat="63.97459721947838" lon="9.991324990544594" id="-94927">
		<tag k="name" v="Sandvika" />
		<tag k="place" v="locality" />
		<tag k="ssr:stedsnr" v="637063" />
	</node>
	<node lat="63.97476944204478" lon="9.98795278165609" id="-94928">
		<tag k="name" v="Litl-Bårdvika" />
		<tag k="place" v="locality" />
		<tag k="ssr:stedsnr" v="637065" />
	</node>
	<node lat="64.18236388975136" lon="10.21199722425278" id="-94945">
		<tag k="name" v="Sandskogan" />
		<tag k="place" v="farm" />
		<tag k="ssr:stedsnr" v="637014" />
	</node>
	<node lat="63.90717500060254" lon="9.948733327996697" id="-94977">
		<tag k="name" v="Nygården" />
		<tag k="place" v="farm" />
		<tag k="ssr:stedsnr" v="637243" />
	</node>
	<node lat="63.94835555689847" lon="10.131158337804013" id="-95013">
		<tag k="name" v="Nordstrand" />
		<tag k="place" v="farm" />
		<tag k="ssr:stedsnr" v="637650" />
	</node>
	<node lat="64.00858610949183" lon="9.942619435550595" id="-95024">
		<tag k="name" v="Lines" />
		<tag k="place" v="farm" />
		<tag k="ssr:stedsnr" v="637832" />
	</node>
	<node lat="64.00782222640491" lon="10.019977787080812" id="-95035">
		<tag k="name" v="Hermann" />
		<tag k="place" v="farm" />
		<tag k="ssr:stedsnr" v="637760" />
	</node>
	<node lat="64.06883611473536" lon="10.013116667582107" id="-95038">
		<tag k="name" v="Yttersunda" />
		<tag k="place" v="farm" />
		<tag k="ssr:stedsnr" v="637774" />
	</node>
	<node lat="63.960422220175914" lon="10.225933326457463" id="-95047">
		<tag k="building" v="commercial" />
		<tag k="name" v="Parken" />
		<tag k="ssr:stedsnr" v="665741" />
	</node>
	<node lat="64.09597500308372" lon="10.515608334851828" id="-95049">
		<tag k="name" v="Momyra camping" />
		<tag k="ssr:stedsnr" v="665763" />
		<tag k="tourism" v="camp_site" />
	</node>
	<node lat="63.98199999884184" lon="10.362502767977732" id="-95050">
		<tag k="name" v="Langnesodden camping" />
		<tag k="ssr:stedsnr" v="665765" />
		<tag k="tourism" v="camp_site" />
	</node>
	<node lat="64.17741111204539" lon="10.227583332469973" id="-95054">
		<tag k="leisure" v="pitch" />
		<tag k="name" v="Roan idrettsplass" />
		<tag k="ssr:stedsnr" v="725296" />
	</node>
	<node lat="63.956922225408334" lon="10.22136944116858" id="-95056">
		<tag k="name" v="Åfjord laksecamping" />
		<tag k="ssr:stedsnr" v="726751" />
		<tag k="tourism" v="camp_site" />
	</node>
	<node lat="63.91166984976061" lon="10.05630384520839" id="-95057">
		<tag k="name" v="Fjellsaunet" />
		<tag k="place" v="locality" />
		<tag k="ssr:stedsnr" v="728180" />
	</node>
	<node lat="63.968762395520265" lon="10.092857940116458" id="-95058">
		<tag k="name" v="Markanes" />
		<tag k="place" v="farm" />
		<tag k="ssr:stedsnr" v="728738" />
	</node>
	<node lat="63.99903312363779" lon="10.205477653240555" id="-95059">
		<tag k="name" v="Grytan" />
		<tag k="place" v="farm" />
		<tag k="ssr:stedsnr" v="728740" />
	</node>
	<node lat="63.85316190628994" lon="10.371827261890779" id="-95065">
		<tag k="historic" v="shieling" />
		<tag k="name" v="Plogbakksetra" />
		<tag k="place" v="isolated_dwelling" />
		<tag k="ssr:stedsnr" v="741329" />
	</node>
	<node lat="63.97631111293634" lon="10.006933325452895" id="-95081">
		<tag k="name" v="Ratvika" />
		<tag k="place" v="hamlet" />
		<tag k="ssr:stedsnr" v="741758" />
	</node>
	<node lat="64.01031111493549" lon="9.943674999702395" id="-95085">
		<tag k="name" v="Moen" />
		<tag k="place" v="farm" />
		<tag k="ssr:stedsnr" v="742070" />
	</node>
	<node lat="64.05379722425072" lon="10.437566673483705" id="-95098">
		<tag k="name" v="Grøneng" />
		<tag k="place" v="farm" />
		<tag k="ssr:stedsnr" v="742269" />
	</node>
	<node lat="64.1221388844994" lon="10.26919443840158" id="-95101">
		<tag k="alt_name" v="Nygården" />
		<tag k="name" v="Nygård" />
		<tag k="place" v="farm" />
		<tag k="ssr:stedsnr" v="742347" />
	</node>
	<node lat="64.11054999750918" lon="10.557952787087148" id="-95112">
		<tag k="name" v="Dalamarka" />
		<tag k="place" v="farm" />
		<tag k="ssr:stedsnr" v="742317" />
	</node>
	<node lat="64.17052230774516" lon="10.481896633321497" id="-95115">
		<tag k="fixme" v="consider place=hamlet" />
		<tag k="name" v="Fagerdal" />
		<tag k="place" v="farm" />
		<tag k="ssr:stedsnr" v="742413" />
	</node>
	<node lat="64.05457777950828" lon="10.132258329624602" id="-95131">
		<tag k="name" v="Sørbotnet" />
		<tag k="place" v="farm" />
		<tag k="ssr:stedsnr" v="752548" />
	</node>
	<node lat="64.18422777340955" lon="10.264888895150778" id="-95138">
		<tag k="name" v="Naustbakkan" />
		<tag k="place" v="farm" />
		<tag k="ssr:stedsnr" v="759035" />
	</node>
	<node lat="64.18437246020304" lon="10.267304847438838" id="-95140">
		<tag k="name" v="Indiannaplassen" />
		<tag k="old_name" v="Liabakken" />
		<tag k="place" v="farm" />
		<tag k="ssr:stedsnr" v="759038" />
	</node>
	<node lat="64.07151944115022" lon="9.954569441256377" id="-95149">
		<tag k="name" v="Gramarsvikplassen" />
		<tag k="place" v="farm" />
		<tag k="ssr:stedsnr" v="759771" />
	</node>
	<node lat="64.06769999970736" lon="10.013658341608627" id="-95151">
		<tag k="name" v="Krommen" />
		<tag k="place" v="farm" />
		<tag k="ssr:stedsnr" v="759778" />
	</node>
	<node lat="63.998783336447076" lon="10.21165834195363" id="-95155">
		<tag k="name" v="Vallernes" />
		<tag k="place" v="farm" />
		<tag k="ssr:stedsnr" v="759095" />
	</node>
	<node lat="63.9550444471709" lon="9.964147231190141" id="-95172">
		<tag k="name" v="Tårnes" />
		<tag k="place" v="farm" />
		<tag k="ssr:stedsnr" v="759087" />
	</node>
	<node lat="64.12834722649478" lon="10.280655557099312" id="-95173">
		<tag k="name" v="Brattbakkmoen" />
		<tag k="place" v="farm" />
		<tag k="ssr:stedsnr" v="759088" />
	</node>
	<node lat="64.17982375427634" lon="10.379351768833187" id="-95182">
		<tag k="fixme" v="consider place=hamlet" />
		<tag k="name" v="Olvika" />
		<tag k="place" v="farm" />
		<tag k="ssr:stedsnr" v="759179" />
	</node>
	<node lat="63.96300668486586" lon="10.222746304363495" id="-95226">
		<tag k="alt_name" v="Åset" />
		<tag k="amenity" v="school" />
		<tag k="name" v="Åset skole" />
		<tag k="ssr:stedsnr" v="759690" />
	</node>
	<node lat="64.01034444888907" lon="10.010858326062998" id="-95229">
		<tag k="name" v="Skipparvika" />
		<tag k="place" v="farm" />
		<tag k="ssr:stedsnr" v="759832" />
	</node>
	<node lat="64.03840555146567" lon="10.068083335867483" id="-95240">
		<tag k="name" v="Moen" />
		<tag k="place" v="farm" />
		<tag k="ssr:stedsnr" v="759875" />
	</node>
	<node lat="64.04483333426738" lon="10.07106389632616" id="-95242">
		<tag k="name" v="Sjøtrøa" />
		<tag k="place" v="isolated_dwelling" />
		<tag k="ssr:stedsnr" v="759879" />
	</node>
	<node lat="63.973250000626635" lon="10.012616674692707" id="-95253">
		<tag k="name" v="Ratvikmoen boligfelt" />
		<tag k="place" v="quarter" />
		<tag k="ssr:stedsnr" v="770023" />
	</node>
	<node lat="63.92268611238756" lon="9.922319447680009" id="-95254">
		<tag k="name" v="Skogahaugen boligfelt" />
		<tag k="place" v="neighbourhood" />
		<tag k="ssr:stedsnr" v="770031" />
	</node>
	<node lat="64.05531944229617" lon="9.952449999071355" id="-95255">
		<tag k="name" v="Middagshaugen hyttefelt" />
		<tag k="place" v="neighbourhood" />
		<tag k="ssr:stedsnr" v="770033" />
	</node>
	<node lat="64.0539371755494" lon="9.956955857452352" id="-95256">
		<tag k="name" v="Steinan hyttefelt" />
		<tag k="place" v="neighbourhood" />
		<tag k="ssr:stedsnr" v="770035" />
	</node>
	<node lat="63.9684916700449" lon="10.219258328709717" id="-95259">
		<tag k="amenity" v="kindergarten" />
		<tag k="name" v="Heggli barnehage" />
		<tag k="ssr:stedsnr" v="785678" />
	</node>
	<node lat="63.9592611120037" lon="10.224166674945602" id="-95261">
		<tag k="name" v="Fosen fjordhotell" />
		<tag k="ssr:stedsnr" v="787736" />
		<tag k="tourism" v="hotel" />
	</node>
	<node lat="64.02502499696504" lon="10.03450278543454" id="-95262">
		<tag k="alt_name" v="Lauvstrand" />
		<tag k="fixme" v="consider place=hamlet" />
		<tag k="name" v="Lauvstranda" />
		<tag k="place" v="farm" />
		<tag k="ssr:stedsnr" v="788093" />
	</node>
	<node lat="63.89451324516417" lon="9.992149082314569" id="-95263">
		<tag k="name" v="Kjørem" />
		<tag k="place" v="farm" />
		<tag k="ssr:stedsnr" v="788229" />
	</node>
	<node lat="64.00064999977887" lon="10.318097230439362" id="-95264">
		<tag k="name" v="Mølsletta" />
		<tag k="place" v="farm" />
		<tag k="ssr:stedsnr" v="788739" />
	</node>
	<node lat="63.91119166609862" lon="10.515188895809445" id="-95280">
		<tag k="name" v="Flenstadseteren" />
		<tag k="place" v="isolated_dwelling" />
		<tag k="ssr:stedsnr" v="802330" />
	</node>
	<node lat="63.983019444453646" lon="10.176036112054993" id="-95293">
		<tag k="name" v="Einset" />
		<tag k="place" v="farm" />
		<tag k="ssr:stedsnr" v="802753" />
	</node>
	<node lat="63.986208334725475" lon="10.42345001028304" id="-95311">
		<tag k="name" v="Einmoen" />
		<tag k="place" v="farm" />
		<tag k="ssr:stedsnr" v="803139" />
	</node>
	<node lat="63.98824999571697" lon="10.467133329255617" id="-95313">
		<tag k="name" v="Granbakken" />
		<tag k="place" v="farm" />
		<tag k="ssr:stedsnr" v="803143" />
	</node>
	<node lat="64.14040419649118" lon="10.180230239236932" id="-95319">
		<tag k="fixme" v="consider place=hamlet" />
		<tag k="name" v="Troningen" />
		<tag k="place" v="farm" />
		<tag k="ssr:stedsnr" v="803191" />
	</node>
	<node lat="64.12845555234657" lon="10.280738892676462" id="-95329">
		<tag k="alt_name" v="Brattbakkan" />
		<tag k="name" v="Brattbakken" />
		<tag k="place" v="farm" />
		<tag k="ssr:stedsnr" v="803402" />
	</node>
	<node lat="63.93310833339598" lon="9.91905000175163" id="-95333">
		<tag k="name" v="Føya" />
		<tag k="place" v="farm" />
		<tag k="ssr:stedsnr" v="803537" />
	</node>
	<node lat="64.0156555532854" lon="10.519861112182815" id="-95338">
		<tag k="name" v="Rønningen" />
		<tag k="place" v="farm" />
		<tag k="ssr:stedsnr" v="803732" />
	</node>
	<node lat="63.976183332538646" lon="10.0109500082356" id="-95352">
		<tag k="name" v="Ratvika" />
		<tag k="place" v="farm" />
		<tag k="ssr:stedsnr" v="820072" />
	</node>
	<node lat="63.992358331429344" lon="10.052963896129304" id="-95359">
		<tag k="name" v="Haltstrand" />
		<tag k="place" v="farm" />
		<tag k="ssr:stedsnr" v="819354" />
	</node>
	<node lat="63.964122218086914" lon="10.200222226222552" id="-95363">
		<tag k="name" v="Monstadmoen" />
		<tag k="place" v="farm" />
		<tag k="ssr:stedsnr" v="820700" />
	</node>
	<node lat="64.16748333602855" lon="10.174275007157185" id="-95370">
		<tag k="name" v="Mefjellsmyra" />
		<tag k="place" v="farm" />
		<tag k="ssr:stedsnr" v="820893" />
	</node>
	<node lat="63.930369443062105" lon="10.336719454504042" id="-95379">
		<tag k="name" v="Granodden" />
		<tag k="place" v="farm" />
		<tag k="ssr:stedsnr" v="820995" />
	</node>
	<node lat="64.14678889281092" lon="10.218552772862237" id="-95399">
		<tag k="name" v="Jektvika" />
		<tag k="place" v="farm" />
		<tag k="ssr:stedsnr" v="820146" />
	</node>
	<node lat="63.96965278178224" lon="10.068155550775039" id="-95402">
		<tag k="name" v="Ner Morkamoen" />
		<tag k="place" v="farm" />
		<tag k="ssr:stedsnr" v="820156" />
	</node>
	<node lat="63.92552365713243" lon="10.019014122006839" id="-95407">
		<tag k="name" v="Sør-Eidem" />
		<tag k="place" v="farm" />
		<tag k="ssr:stedsnr" v="820305" />
	</node>
	<node lat="64.09675555999378" lon="10.514955560403372" id="-95411">
		<tag k="name" v="Elvtun" />
		<tag k="place" v="isolated_dwelling" />
		<tag k="ssr:stedsnr" v="820393" />
	</node>
	<node lat="64.17259444104874" lon="10.370727771352819" id="-95425">
		<tag k="name" v="Kikan" />
		<tag k="place" v="farm" />
		<tag k="ssr:stedsnr" v="820198" />
	</node>
	<node lat="63.998522225031465" lon="10.031575001017634" id="-95477">
		<tag k="name" v="Seterstøa" />
		<tag k="place" v="isolated_dwelling" />
		<tag k="ssr:stedsnr" v="820738" />
	</node>
	<node lat="63.994750001415454" lon="10.01419722055628" id="-95478">
		<tag k="name" v="Sjøen" />
		<tag k="place" v="farm" />
		<tag k="ssr:stedsnr" v="820742" />
	</node>
	<node lat="64.08422231793493" lon="10.502187309949946" id="-95504">
		<tag k="fixme" v="consider place=hamlet" />
		<tag k="name" v="Butli" />
		<tag k="place" v="farm" />
		<tag k="ssr:stedsnr" v="849158" />
	</node>
	<node lat="63.92562135661893" lon="10.02004906550474" id="-95505">
		<tag k="fixme" v="consider place=hamlet" />
		<tag k="name" v="Eidem" />
		<tag k="place" v="farm" />
		<tag k="ssr:stedsnr" v="849268" />
	</node>
	<node lat="64.1741055553995" lon="10.374558332182838" id="-95568">
		<tag k="fixme" v="consider place=hamlet" />
		<tag k="name" v="Straum" />
		<tag k="place" v="village" />
		<tag k="ssr:stedsnr" v="864507" />
	</node>
	<node lat="64.11777777812347" lon="10.548580564436925" id="-95576">
		<tag k="alt_name" v="Hestnes" />
		<tag k="name" v="Hestneset" />
		<tag k="place" v="farm" />
		<tag k="ssr:stedsnr" v="864391" />
	</node>
	<node lat="63.97485555670356" lon="10.08655556264628" id="-95616">
		<tag k="name" v="Morka" />
		<tag k="place" v="farm" />
		<tag k="ssr:stedsnr" v="880098" />
	</node>
	<node lat="63.95719166508261" lon="10.206147219815236" id="-95637">
		<tag k="name" v="Asplund" />
		<tag k="place" v="farm" />
		<tag k="ssr:stedsnr" v="880737" />
	</node>
	<node lat="63.929758331315035" lon="10.356000002273204" id="-95654">
		<tag k="name" v="Halsen" />
		<tag k="place" v="farm" />
		<tag k="ssr:stedsnr" v="880985" />
	</node>
	<node lat="64.16681388765609" lon="10.1692833408192" id="-95661">
		<tag k="name" v="Vollan" />
		<tag k="place" v="farm" />
		<tag k="ssr:stedsnr" v="881087" />
	</node>
	<node lat="64.18912777701335" lon="10.418233334145048" id="-95668">
		<tag k="name" v="Strandamyra" />
		<tag k="place" v="farm" />
		<tag k="ssr:stedsnr" v="881130" />
	</node>
	<node lat="63.933947218836195" lon="9.950891669063047" id="-95674">
		<tag k="name" v="Nerplassen" />
		<tag k="place" v="farm" />
		<tag k="ssr:stedsnr" v="881229" />
	</node>
	<node lat="63.98040277436954" lon="10.116691672411191" id="-95678">
		<tag k="fixme" v="consider place=hamlet" />
		<tag k="name" v="Kvenndal" />
		<tag k="place" v="village" />
		<tag k="ssr:stedsnr" v="881325" />
	</node>
	<node lat="63.929855553196475" lon="9.940972216493574" id="-95685">
		<tag k="name" v="Solstad" />
		<tag k="place" v="farm" />
		<tag k="ssr:stedsnr" v="881292" />
	</node>
	<node lat="64.02818888851456" lon="10.530700008756128" id="-95688">
		<tag k="name" v="Aunet" />
		<tag k="place" v="farm" />
		<tag k="ssr:stedsnr" v="881490" />
	</node>
	<node lat="64.03271944629293" lon="9.909922227295874" id="-95705">
		<tag k="name" v="Nordgårda" />
		<tag k="place" v="farm" />
		<tag k="ssr:stedsnr" v="881821" />
	</node>
	<node lat="64.02539722204361" lon="9.932536119397096" id="-95706">
		<tag k="name" v="Stormyra" />
		<tag k="place" v="farm" />
		<tag k="ssr:stedsnr" v="881823" />
	</node>
	<node lat="64.0802694448234" lon="10.044083340099297" id="-95712">
		<tag k="fixme" v="consider place=hamlet" />
		<tag k="name" v="Harbak" />
		<tag k="place" v="farm" />
		<tag k="ssr:stedsnr" v="881976" />
	</node>
	<node lat="64.05228845192312" lon="9.955140689173923" id="-95717">
		<tag k="fixme" v="consider place=hamlet" />
		<tag k="name" v="Hosen" />
		<tag k="place" v="farm" />
		<tag k="ssr:stedsnr" v="935639" />
	</node>
	<node lat="63.9151888866615" lon="9.996336101705593" id="-95740">
		<tag k="fixme" v="consider place=hamlet" />
		<tag k="name" v="Øyan" />
		<tag k="place" v="farm" />
		<tag k="ssr:stedsnr" v="941005" />
	</node>
	<node lat="64.26268610967524" lon="10.349358332820358" id="-95775">
		<tag k="name" v="Småvikan" />
		<tag k="place" v="farm" />
		<tag k="ssr:stedsnr" v="941184" />
	</node>
	<node lat="64.24441667114587" lon="10.325738884526377" id="-95776">
		<tag k="name" v="Thunegården" />
		<tag k="place" v="farm" />
		<tag k="ssr:stedsnr" v="941190" />
	</node>
	<node lat="64.23593055591301" lon="10.281194443465012" id="-95779">
		<tag k="name" v="Jektvika" />
		<tag k="place" v="isolated_dwelling" />
		<tag k="ssr:stedsnr" v="941202" />
	</node>
	<node lat="63.93658333207328" lon="10.025166666771891" id="-95783">
		<tag k="name" v="Vika" />
		<tag k="place" v="farm" />
		<tag k="ssr:stedsnr" v="941211" />
	</node>
	<node lat="64.27466944455668" lon="10.359730548133122" id="-95784">
		<tag k="name" v="Jørnrommet" />
		<tag k="place" v="farm" />
		<tag k="ssr:stedsnr" v="941213" />
	</node>
	<node lat="63.92931111448675" lon="10.014747232531459" id="-95801">
		<tag k="name" v="Nord-Eidem" />
		<tag k="place" v="farm" />
		<tag k="ssr:stedsnr" v="941220" />
	</node>
	<node lat="64.00678611220074" lon="9.936558335123832" id="-95809">
		<tag k="fixme" v="consider place=hamlet" />
		<tag k="name" v="Lines" />
		<tag k="place" v="farm" />
		<tag k="ssr:stedsnr" v="941310" />
	</node>
	<node lat="64.14169722133198" lon="10.427111106999508" id="-95812">
		<tag k="name" v="Larsholhytta" />
		<tag k="place" v="isolated_dwelling" />
		<tag k="ssr:stedsnr" v="941326" />
	</node>
	<node lat="63.91159167101635" lon="10.250419449027449" id="-95834">
		<tag k="name" v="Ner Mørriaunet" />
		<tag k="old_name" v="Ner Møriaunet" />
		<tag k="place" v="farm" />
		<tag k="ssr:stedsnr" v="941641" />
	</node>
	<node lat="63.924763886070245" lon="10.142272214784718" id="-95838">
		<tag k="name" v="Botnen" />
		<tag k="place" v="farm" />
		<tag k="ssr:stedsnr" v="941516" />
	</node>
	<node lat="63.930625000648256" lon="10.066922221559473" id="-95841">
		<tag k="name" v="Rånes" />
		<tag k="place" v="hamlet" />
		<tag k="ssr:stedsnr" v="941524" />
	</node>
	<node lat="64.06341111472955" lon="9.953175000095548" id="-95863">
		<tag k="name" v="Storsteinmyra" />
		<tag k="place" v="farm" />
		<tag k="ssr:stedsnr" v="941776" />
	</node>
	<node lat="64.02025833777346" lon="10.011302781751901" id="-95867">
		<tag k="name" v="Steinvika" />
		<tag k="place" v="farm" />
		<tag k="ssr:stedsnr" v="941836" />
	</node>
	<node lat="63.986575000188616" lon="10.377808336517946" id="-95897">
		<tag k="name" v="Brandmoen" />
		<tag k="place" v="farm" />
		<tag k="ssr:stedsnr" v="941791" />
	</node>
	<node lat="64.144341662578" lon="10.163075000455231" id="-95949">
		<tag k="name" v="Myra" />
		<tag k="place" v="farm" />
		<tag k="ssr:stedsnr" v="942868" />
	</node>
	<node lat="64.12610221627575" lon="10.128946601298127" id="-95951">
		<tag k="fixme" v="consider place=hamlet" />
		<tag k="name" v="Kiran" />
		<tag k="place" v="farm" />
		<tag k="ssr:stedsnr" v="942876" />
	</node>
	<node lat="63.98110277715843" lon="10.40858056507309" id="-95959">
		<tag k="name" v="Tonnomhaugen boligfelt" />
		<tag k="place" v="quarter" />
		<tag k="ssr:stedsnr" v="950628" />
	</node>
	<node lat="64.06754895455053" lon="10.015759522272747" id="-95977">
		<tag k="fixme" v="consider place=hamlet" />
		<tag k="name" v="Sundet" />
		<tag k="place" v="farm" />
		<tag k="ssr:stedsnr" v="973545" />
	</node>
	<node lat="63.96507987925621" lon="10.223519915916544" id="-96184">
		<tag k="amenity" v="sports_centre" />
		<tag k="name" v="Åfjord fotballhall" />
		<tag k="ssr:stedsnr" v="1077303" />
	</node>
	<node lat="63.95069418478204" lon="10.14538758962315" id="-96185">
		<tag k="name" v="Brannakleiva" />
		<tag k="place" v="farm" />
		<tag k="ssr:stedsnr" v="1077860" />
	</node>
</osm>
