<?xml version="1.0" encoding="UTF-8"?>
<osm version="0.6" generator="osmapis">
	<node lat="64.04841935296022" lon="9.91979532355135" id="-95827">
		<tag k="bridge" v="yes" />
		<tag k="layer" v="1" />
		<tag k="name" v="Linesøybrua" />
		<tag k="ssr:stedsnr" v="238136" />
	</node>
	<node lat="63.8564749988357" lon="10.2271805514812" id="-95829">
		<tag k="amenity" v="parking" />
		<tag k="name" v="Austdalen parkering" />
		<tag k="ssr:stedsnr" v="59707" />
	</node>
	<node lat="63.9885499987866" lon="10.738366672827341" id="-95832">
		<tag k="amenity" v="parking" />
		<tag k="name" v="Skansen gård parkering" />
		<tag k="ssr:stedsnr" v="241707" />
	</node>
	<node lat="64.19611268515331" lon="10.405395531847276" id="-95953">
		<tag k="bridge" v="yes" />
		<tag k="layer" v="1" />
		<tag k="name" v="Litlbrua" />
		<tag k="ssr:stedsnr" v="105806" />
	</node>
	<node lat="64.03445555644036" lon="10.281319434509951" id="-96078">
		<tag k="bridge" v="yes" />
		<tag k="layer" v="1" />
		<tag k="name" v="Øver Jordbrua" />
		<tag k="ssr:stedsnr" v="152128" />
	</node>
	<node lat="64.14836389095468" lon="10.1576416570141" id="-96166">
		<tag k="man_made" v="quay" />
		<tag k="name" v="Kråkøya havn" />
		<tag k="place" v="locality" />
		<tag k="ssr:stedsnr" v="179323" />
	</node>
	<node lat="64.09724444890665" lon="10.51354443832713" id="-96167">
		<tag k="amenity" v="parking" />
		<tag k="name" v="Momyrstua parkering" />
		<tag k="ssr:stedsnr" v="180712" />
	</node>
	<node lat="63.95967752489363" lon="10.226426298355747" id="-96290">
		<tag k="bridge" v="yes" />
		<tag k="layer" v="1" />
		<tag k="name" v="Melabrua" />
		<tag k="ssr:stedsnr" v="213725" />
	</node>
	<node lat="64.17333121136046" lon="10.3724617934651" id="-96311">
		<tag k="bridge" v="yes" />
		<tag k="layer" v="1" />
		<tag k="name" v="Straumselvbrua" />
		<tag k="ssr:stedsnr" v="227786" />
	</node>
	<node lat="64.24153315806349" lon="10.401332300429196" id="-96312">
		<tag k="bridge" v="yes" />
		<tag k="layer" v="1" />
		<tag k="name" v="Klavafyllinga" />
		<tag k="ssr:stedsnr" v="227791" />
	</node>
	<node lat="64.15156806520046" lon="10.550682285979716" id="-96479">
		<tag k="bridge" v="yes" />
		<tag k="layer" v="1" />
		<tag k="name" v="Storskardbrua" />
		<tag k="ssr:stedsnr" v="456716" />
	</node>
	<node lat="63.917688892925334" lon="10.417636112810683" id="-96506">
		<tag k="ford" v="yes" />
		<tag k="name" v="Strandavadet" />
		<tag k="place" v="locality" />
		<tag k="ssr:stedsnr" v="456887" />
	</node>
	<node lat="63.9251083342728" lon="10.445802786811555" id="-96520">
		<tag k="highway" v="path" />
		<tag k="name" v="Steinvegen" />
		<tag k="ssr:stedsnr" v="456979" />
	</node>
	<node lat="63.92394999878728" lon="10.453780556520389" id="-96523">
		<tag k="ford" v="yes" />
		<tag k="name" v="Buvadet" />
		<tag k="place" v="locality" />
		<tag k="ssr:stedsnr" v="456982" />
	</node>
	<node lat="63.99014722168961" lon="10.745272220868554" id="-96617">
		<tag k="amenity" v="parking" />
		<tag k="name" v="Skansen parkering" />
		<tag k="ssr:stedsnr" v="301722" />
	</node>
	<node lat="63.91437777543773" lon="10.40588611870442" id="-96618">
		<tag k="amenity" v="parking" />
		<tag k="name" v="Kvennavassveien parkering" />
		<tag k="ssr:stedsnr" v="301725" />
	</node>
	<node lat="63.99158967918065" lon="9.999537737181216" id="-96619">
		<tag k="landuse" v="harbour" />
		<tag k="name" v="Grøttingen småbåthavn" />
		<tag k="seamark:type" v="harbour" />
		<tag k="ssr:stedsnr" v="301735" />
	</node>
	<node lat="64.03574444542961" lon="9.992666676395132" id="-96620">
		<tag k="landuse" v="harbour" />
		<tag k="name" v="Flatholmen småbåthavn" />
		<tag k="seamark:type" v="harbour" />
		<tag k="ssr:stedsnr" v="301745" />
	</node>
	<node lat="64.12550278020046" lon="10.494386115315171" id="-96749">
		<tag k="man_made" v="cairn" />
		<tag k="name" v="Tronsvarden" />
		<tag k="place" v="locality" />
		<tag k="ssr:stedsnr" v="335295" />
	</node>
	<node lat="64.03985573559625" lon="10.060191631275458" id="-96776">
		<tag k="landuse" v="harbour" />
		<tag k="name" v="Kuringvågen småbåthavn" />
		<tag k="seamark:type" v="harbour" />
		<tag k="ssr:stedsnr" v="483757" />
	</node>
	<node lat="63.996578335804664" lon="10.306415478449386" id="-96846">
		<tag k="bridge" v="yes" />
		<tag k="layer" v="1" />
		<tag k="name" v="Mølslettbrua" />
		<tag k="ssr:stedsnr" v="406313" />
	</node>
	<node lat="64.13626666709558" lon="10.148980552556223" id="-96848">
		<tag k="bridge" v="yes" />
		<tag k="layer" v="1" />
		<tag k="name" v="Hagadalsbrua" />
		<tag k="ssr:stedsnr" v="410802" />
	</node>
	<node lat="63.986155554195435" lon="10.71945277078701" id="-96855">
		<tag k="amenity" v="parking" />
		<tag k="name" v="Krokvasselva parkering" />
		<tag k="ssr:stedsnr" v="423751" />
	</node>
	<node lat="64.0477801263803" lon="9.944251574631537" id="-96856">
		<tag k="landuse" v="harbour" />
		<tag k="name" v="Stokkøy marina" />
		<tag k="seamark:type" v="harbour" />
		<tag k="ssr:stedsnr" v="423755" />
	</node>
	<node lat="64.16601944353155" lon="10.334952773356102" id="-96958">
		<tag k="highway" v="path" />
		<tag k="name" v="Brekka" />
		<tag k="ssr:stedsnr" v="456175" />
	</node>
	<node lat="64.03242499830415" lon="10.275547212722214" id="-97126">
		<tag k="bridge" v="yes" />
		<tag k="layer" v="1" />
		<tag k="name" v="Midter Jordbrua" />
		<tag k="ssr:stedsnr" v="516107" />
	</node>
	<node lat="63.97269722009952" lon="10.004197221567518" id="-97141">
		<tag k="junction" v="yes" />
		<tag k="name" v="Korsan" />
		<tag k="place" v="locality" />
		<tag k="ssr:stedsnr" v="516062" />
	</node>
	<node lat="63.9362687392317" lon="10.222521124339517" id="-97160">
		<tag k="bridge" v="yes" />
		<tag k="layer" v="1" />
		<tag k="name" v="Arnvikbrua" />
		<tag k="ssr:stedsnr" v="516624" />
	</node>
	<node lat="64.13179444887885" lon="10.282813887456143" id="-97190">
		<tag k="highway" v="path" />
		<tag k="name" v="Raudsandvegen" />
		<tag k="ssr:stedsnr" v="517082" />
	</node>
	<node lat="63.9624926666222" lon="10.222540951185474" id="-97204">
		<tag k="bridge" v="yes" />
		<tag k="layer" v="1" />
		<tag k="name" v="Årnesbrua" />
		<tag k="ssr:stedsnr" v="528330" />
	</node>
	<node lat="63.97844999797608" lon="9.995069436197443" id="-97475">
		<tag k="landuse" v="harbour" />
		<tag k="name" v="Ratvika småbåthavn" />
		<tag k="seamark:type" v="harbour" />
		<tag k="ssr:stedsnr" v="604750" />
	</node>
	<node lat="63.912741662325224" lon="10.393180555971052" id="-97591">
		<tag k="highway" v="path" />
		<tag k="name" v="Stien" />
		<tag k="ssr:stedsnr" v="637925" />
	</node>
	<node lat="64.14785833780428" lon="10.229136106972685" id="-97606">
		<tag k="bridge" v="yes" />
		<tag k="layer" v="1" />
		<tag k="name" v="Berfjordbrua" />
		<tag k="ssr:stedsnr" v="652789" />
	</node>
	<node lat="64.17184843130583" lon="10.229231923882054" id="-97607">
		<tag k="bridge" v="yes" />
		<tag k="layer" v="1" />
		<tag k="name" v="Prestelvbrua" />
		<tag k="ssr:stedsnr" v="652791" />
	</node>
	<node lat="64.25492778146614" lon="10.355313887671993" id="-97608">
		<tag k="bridge" v="yes" />
		<tag k="layer" v="1" />
		<tag k="name" v="Vikelvbrua" />
		<tag k="ssr:stedsnr" v="653739" />
	</node>
	<node lat="63.92023888850932" lon="9.971299990106328" id="-97651">
		<tag k="man_made" v="quay" />
		<tag k="name" v="Odden" />
		<tag k="place" v="locality" />
		<tag k="ssr:stedsnr" v="698017" />
	</node>
	<node lat="64.2560388847752" lon="10.345622220099619" id="-97701">
		<tag k="man_made" v="quay" />
		<tag k="name" v="Anlegget" />
		<tag k="place" v="locality" />
		<tag k="ssr:stedsnr" v="699212" />
	</node>
	<node lat="63.890722964167175" lon="10.215784707658042" id="-97715">
		<tag k="bridge" v="yes" />
		<tag k="layer" v="1" />
		<tag k="name" v="Garrabrekkbrua" />
		<tag k="ssr:stedsnr" v="710312" />
	</node>
	<node lat="63.90474166720062" lon="10.222549997789503" id="-97817">
		<tag k="highway" v="path" />
		<tag k="name" v="Størkvegen" />
		<tag k="ssr:stedsnr" v="759715" />
	</node>
	<node lat="64.17590913671614" lon="10.352655851199158" id="-97849">
		<tag k="bridge" v="yes" />
		<tag k="layer" v="1" />
		<tag k="name" v="Einarsdalsbrua" />
		<tag k="ssr:stedsnr" v="773772" />
	</node>
	<node lat="64.01253610864326" lon="9.95389721866616" id="-97850">
		<tag k="landuse" v="harbour" />
		<tag k="name" v="Grimsneset småbåthavn" />
		<tag k="seamark:type" v="harbour" />
		<tag k="ssr:stedsnr" v="908775" />
	</node>
	<node lat="63.93401215293412" lon="10.017752692184608" id="-97851">
		<tag k="landuse" v="harbour" />
		<tag k="name" v="Sandstad småbåthavn" />
		<tag k="seamark:type" v="harbour" />
		<tag k="ssr:stedsnr" v="908786" />
	</node>
	<node lat="64.11560694552014" lon="10.257616142096548" id="-98021">
		<tag k="bridge" v="yes" />
		<tag k="layer" v="1" />
		<tag k="name" v="Nordskjørbrua" />
		<tag k="ssr:stedsnr" v="836694" />
	</node>
	<node lat="63.957516664764" lon="10.652625003882456" id="-98160">
		<tag k="highway" v="path" />
		<tag k="name" v="Stigan" />
		<tag k="ssr:stedsnr" v="881364" />
	</node>
	<node lat="64.18336192784002" lon="10.429679109847918" id="-98194">
		<tag k="bridge" v="yes" />
		<tag k="layer" v="1" />
		<tag k="name" v="Reppkleivbrua" />
		<tag k="ssr:stedsnr" v="924448" />
	</node>
	<node lat="64.17118692215814" lon="10.471527314603149" id="-98247">
		<tag k="bridge" v="yes" />
		<tag k="layer" v="1" />
		<tag k="name" v="Grytelvbrua" />
		<tag k="ssr:stedsnr" v="228827" />
	</node>
	<node lat="64.02205282919456" lon="10.377040696815019" id="-98423">
		<tag k="bridge" v="yes" />
		<tag k="layer" v="1" />
		<tag k="name" v="Trømobrua" />
		<tag k="ssr:stedsnr" v="42299" />
	</node>
	<node lat="64.1082870484145" lon="10.538692320488748" id="-98429">
		<tag k="amenity" v="parking" />
		<tag k="name" v="Rørskogen parkering" />
		<tag k="ssr:stedsnr" v="59696" />
	</node>
	<node lat="64.04619621242871" lon="10.041208883693601" id="-98523">
		<tag k="bridge" v="yes" />
		<tag k="layer" v="1" />
		<tag k="name" v="Stokkøybrua" />
		<tag k="ssr:stedsnr" v="82266" />
	</node>
	<node lat="64.20675555742608" lon="10.331308332212851" id="-98655">
		<tag k="landuse" v="harbour" />
		<tag k="name" v="Eshamn" />
		<tag k="seamark:type" v="harbour" />
		<tag k="ssr:stedsnr" v="92198" />
	</node>
	<node lat="63.89424444152576" lon="10.396444449276874" id="-98681">
		<tag k="amenity" v="parking" />
		<tag k="name" v="Storkvernavatnet parkering" />
		<tag k="ssr:stedsnr" v="119736" />
	</node>
	<node lat="64.03640000373211" lon="9.921747219370195" id="-98873">
		<tag k="name" v="Jekthamna" />
		<tag k="place" v="locality" />
		<tag k="ssr:stedsnr" v="152847" />
	</node>
	<node lat="64.02334166704001" lon="10.068088886613939" id="-98912">
		<tag k="bridge" v="yes" />
		<tag k="layer" v="1" />
		<tag k="name" v="Nordre Lunnfjordbrua" />
		<tag k="ssr:stedsnr" v="164357" />
	</node>
	<node lat="63.931844445628315" lon="10.468186109145819" id="-99120">
		<tag k="ford" v="yes" />
		<tag k="name" v="Øver Granmarkvadet" />
		<tag k="place" v="locality" />
		<tag k="ssr:stedsnr" v="213761" />
	</node>
	<node lat="64.17848888651963" lon="10.208138896300587" id="-99468">
		<tag k="landuse" v="harbour" />
		<tag k="name" v="Roan hamn" />
		<tag k="seamark:type" v="harbour" />
		<tag k="ssr:stedsnr" v="335084" />
	</node>
	<node lat="64.17885000090939" lon="10.356002784122905" id="-99520">
		<tag k="man_made" v="quay" />
		<tag k="name" v="Einarsdalen havn" />
		<tag k="place" v="locality" />
		<tag k="ssr:stedsnr" v="361354" />
	</node>
	<node lat="64.20274166555222" lon="10.306727781935251" id="-99521">
		<tag k="leisure" v="marina" />
		<tag k="name" v="Sumstad småbåthavn" />
		<tag k="ssr:stedsnr" v="361356" />
	</node>
	<node lat="64.12445278118413" lon="10.123333333619621" id="-99522">
		<tag k="leisure" v="marina" />
		<tag k="name" v="Kiran småbåthavn" />
		<tag k="ssr:stedsnr" v="361362" />
	</node>
	<node lat="64.15594444277609" lon="10.182777773189565" id="-99523">
		<tag k="leisure" v="marina" />
		<tag k="name" v="Nesvalen småbåthavn" />
		<tag k="ssr:stedsnr" v="361368" />
	</node>
	<node lat="63.95760173251638" lon="10.1836274991198" id="-99528">
		<tag k="landuse" v="harbour" />
		<tag k="name" v="Monstad småbåthavn" />
		<tag k="seamark:type" v="harbour" />
		<tag k="ssr:stedsnr" v="362749" />
	</node>
	<node lat="64.24163333338316" lon="10.324116674903127" id="-99674">
		<tag k="name" v="Storsvingen" />
		<tag k="place" v="locality" />
		<tag k="ssr:stedsnr" v="395216" />
	</node>
	<node lat="63.93251944822743" lon="10.2720888989173" id="-99680">
		<tag k="highway" v="path" />
		<tag k="name" v="Vardfjellvegen" />
		<tag k="ssr:stedsnr" v="395054" />
	</node>
	<node lat="63.92998859386303" lon="10.225444410902123" id="-99775">
		<tag k="layer" v="-1" />
		<tag k="name" v="Mørretunnelen" />
		<tag k="ssr:stedsnr" v="408363" />
		<tag k="tunnel" v="yes" />
	</node>
	<node lat="64.25304722337387" lon="10.359980556803258" id="-99776">
		<tag k="bridge" v="yes" />
		<tag k="layer" v="1" />
		<tag k="name" v="Øvre Vikelvbrua" />
		<tag k="ssr:stedsnr" v="411687" />
	</node>
	<node lat="64.01261876494796" lon="10.20982359867907" id="-99943">
		<tag k="bridge" v="yes" />
		<tag k="layer" v="1" />
		<tag k="name" v="Bakkbrua" />
		<tag k="ssr:stedsnr" v="516073" />
	</node>
	<node lat="63.98177500103724" lon="10.476897219475704" id="-100008">
		<tag k="highway" v="path" />
		<tag k="name" v="Hyllvegen" />
		<tag k="ssr:stedsnr" v="516688" />
	</node>
	<node lat="64.04738952323153" lon="10.020219330363625" id="-100059">
		<tag k="landuse" v="harbour" />
		<tag k="name" v="Sentrum flytekai" />
		<tag k="seamark:type" v="harbour" />
		<tag k="ssr:stedsnr" v="544734" />
	</node>
	<node lat="63.961536110704124" lon="10.22237501012174" id="-100175">
		<tag k="bridge" v="yes" />
		<tag k="layer" v="1" />
		<tag k="name" v="Årnesbrua" />
		<tag k="ssr:stedsnr" v="576729" />
	</node>
	<node lat="63.994644443619144" lon="10.163202776709946" id="-100218">
		<tag k="highway" v="path" />
		<tag k="name" v="Bekkastien" />
		<tag k="ssr:stedsnr" v="577171" />
	</node>
	<node lat="64.00189999994521" lon="10.021436119424383" id="-100263">
		<tag k="highway" v="path" />
		<tag k="name" v="Gangstøa" />
		<tag k="ssr:stedsnr" v="577779" />
	</node>
	<node lat="64.08786944534812" lon="10.03473333286355" id="-100273">
		<tag k="highway" v="path" />
		<tag k="name" v="Storvikkleiva" />
		<tag k="ssr:stedsnr" v="577981" />
	</node>
	<node lat="64.0003805564328" lon="10.207374998761798" id="-100277">
		<tag k="bridge" v="yes" />
		<tag k="layer" v="1" />
		<tag k="name" v="Grytbrua" />
		<tag k="ssr:stedsnr" v="588284" />
	</node>
	<node lat="64.02330496698252" lon="10.06804268830564" id="-100278">
		<tag k="bridge" v="yes" />
		<tag k="layer" v="1" />
		<tag k="name" v="Søre Lunnfjordbrua" />
		<tag k="ssr:stedsnr" v="588287" />
	</node>
	<node lat="64.01703332981253" lon="10.22410833975397" id="-100378">
		<tag k="ford" v="yes" />
		<tag k="name" v="Setervadet" />
		<tag k="place" v="locality" />
		<tag k="ssr:stedsnr" v="637069" />
	</node>
	<node lat="63.94936110705651" lon="10.515555553385266" id="-100390">
		<tag k="ford" v="yes" />
		<tag k="name" v="Hyllvadet" />
		<tag k="place" v="locality" />
		<tag k="ssr:stedsnr" v="637160" />
	</node>
	<node lat="63.927780551565135" lon="10.464122217621892" id="-100452">
		<tag k="ford" v="yes" />
		<tag k="name" v="Ner Granmarkvadet" />
		<tag k="place" v="locality" />
		<tag k="ssr:stedsnr" v="637746" />
	</node>
	<node lat="64.04627222208612" lon="10.075983327515553" id="-100478">
		<tag k="junction" v="yes" />
		<tag k="name" v="Salbuvikkrysset" />
		<tag k="place" v="locality" />
		<tag k="ssr:stedsnr" v="637871" />
	</node>
	<node lat="63.92870277578822" lon="9.917763896093772" id="-100497">
		<tag k="landuse" v="harbour" />
		<tag k="name" v="Kabelvågen småbåthavn" />
		<tag k="seamark:type" v="harbour" />
		<tag k="ssr:stedsnr" v="665761" />
	</node>
	<node lat="64.18626388970448" lon="10.300322228440026" id="-100501">
		<tag k="bridge" v="yes" />
		<tag k="layer" v="1" />
		<tag k="loc_name" v="Hellefjordbrua" />
		<tag k="name" v="Hellfjordbrua" />
		<tag k="ssr:stedsnr" v="713826" />
	</node>
	<node lat="64.16765075322522" lon="10.477188262535194" id="-100707">
		<tag k="bridge" v="yes" />
		<tag k="layer" v="1" />
		<tag k="name" v="Øverdalsbrua" />
		<tag k="ssr:stedsnr" v="774795" />
	</node>
	<node lat="63.9252416680483" lon="10.568016675413638" id="-100709">
		<tag k="amenity" v="parking" />
		<tag k="name" v="Langløftmyra parkering" />
		<tag k="ssr:stedsnr" v="787717" />
	</node>
	<node lat="64.02916666940291" lon="10.264677774638287" id="-100850">
		<tag k="bridge" v="yes" />
		<tag k="layer" v="1" />
		<tag k="name" v="Ner Jordbrua" />
		<tag k="ssr:stedsnr" v="820155" />
	</node>
	<node lat="64.24771388710325" lon="10.321066662646144" id="-100950">
		<tag k="landuse" v="harbour" />
		<tag k="name" v="Bessaker havn" />
		<tag k="seamark:type" v="harbour" />
		<tag k="ssr:stedsnr" v="847337" />
	</node>
	<node lat="64.04721944268238" lon="10.01789998989254" id="-100951">
		<tag k="man_made" v="quay" />
		<tag k="name" v="Stokkøy fiskerikai" />
		<tag k="place" v="locality" />
		<tag k="ssr:stedsnr" v="848731" />
	</node>
	<node lat="63.92892309564852" lon="10.362772520329099" id="-101105">
		<tag k="bridge" v="yes" />
		<tag k="layer" v="1" />
		<tag k="name" v="Skjærbubrua" />
		<tag k="ssr:stedsnr" v="880992" />
	</node>
	<node lat="64.06035277682028" lon="10.512041664813259" id="-101280">
		<tag k="fixme" v="consider highway=path" />
		<tag k="highway" v="track" />
		<tag k="name" v="Åltjønnvegen" />
		<tag k="ssr:stedsnr" v="941576" />
	</node>
	<node lat="64.00130555535354" lon="10.024474997273648" id="-101306">
		<tag k="highway" v="path" />
		<tag k="name" v="Innergangstøa" />
		<tag k="ssr:stedsnr" v="941739" />
	</node>
	<node lat="64.14369710844646" lon="10.177377364391125" id="-101411">
		<tag k="bridge" v="yes" />
		<tag k="layer" v="1" />
		<tag k="name" v="Straumbrua" />
		<tag k="ssr:stedsnr" v="956819" />
	</node>
	<node lat="64.2468459379935" lon="10.32969989719836" id="-101412">
		<tag k="bridge" v="yes" />
		<tag k="layer" v="1" />
		<tag k="name" v="Aurvollbrua" />
		<tag k="ssr:stedsnr" v="957729" />
	</node>
	<node lat="63.99232222219138" lon="10.753811106098329" id="-101418">
		<tag k="amenity" v="parking" />
		<tag k="name" v="Gurbelva parkering" />
		<tag k="ssr:stedsnr" v="969714" />
	</node>
	<node lat="64.02183888614597" lon="9.883436110264418" id="-101419">
		<tag k="landuse" v="harbour" />
		<tag k="name" v="Sørgårdsvågen fiskeri- og småbåthavn" />
		<tag k="seamark:type" v="harbour" />
		<tag k="ssr:stedsnr" v="969726" />
	</node>
	<node lat="63.91833431174081" lon="9.973610943581933" id="-101420">
		<tag k="landuse" v="harbour" />
		<tag k="name" v="Barøya småbåthavn" />
		<tag k="seamark:type" v="harbour" />
		<tag k="ssr:stedsnr" v="969730" />
	</node>
	<node lat="64.14788734819524" lon="10.208822987924464" id="-101641">
		<tag k="layer" v="-1" />
		<tag k="name" v="Berfjordtunnelen" />
		<tag k="ssr:stedsnr" v="1079674" />
		<tag k="tunnel" v="yes" />
	</node>
	<node lat="64.15691423807054" lon="10.224956409755075" id="-101642">
		<tag k="layer" v="-1" />
		<tag k="name" v="Måviktunnelen" />
		<tag k="ssr:stedsnr" v="1079677" />
		<tag k="tunnel" v="yes" />
	</node>
</osm>
