<?xml version="1.0" encoding="UTF-8"?>
<osm version="0.6" generator="osmapis">
	<node lat="63.894794448881626" lon="10.331300006089732" id="-33187">
		<tag k="name" v="Estentjønna" />
		<tag k="natural" v="water" />
		<tag k="ssr:stedsnr" v="13310" />
	</node>
	<node lat="63.8149500006132" lon="10.442286118284176" id="-33191">
		<tag k="name" v="Juvvassneset" />
		<tag k="natural" v="cape" />
		<tag k="ssr:stedsnr" v="13472" />
	</node>
	<node lat="63.89188611124837" lon="10.170369453020193" id="-33192">
		<tag k="name" v="Svarttjønna" />
		<tag k="natural" v="water" />
		<tag k="ssr:stedsnr" v="13601" />
	</node>
	<node lat="63.902113889230115" lon="10.102291670151923" id="-33193">
		<tag k="name" v="Granskardlona" />
		<tag k="natural" v="water" />
		<tag k="ssr:stedsnr" v="13613" />
	</node>
	<node lat="64.01733611187115" lon="10.226175000322497" id="-33198">
		<tag k="alt_name" v="Kvisla" />
		<tag k="name" v="Kvislaelva" />
		<tag k="ssr:stedsnr" v="13717" />
		<tag k="waterway" v="stream" />
	</node>
	<node lat="64.0222666662119" lon="10.657613894992968" id="-33199">
		<tag k="name" v="Klumptjønnan" />
		<tag k="natural" v="water" />
		<tag k="ssr:stedsnr" v="13721" />
	</node>
	<node lat="64.0503111116985" lon="10.53631666151356" id="-33210">
		<tag k="name" v="Litlfisktjønna" />
		<tag k="natural" v="water" />
		<tag k="ssr:stedsnr" v="14216" />
	</node>
	<node lat="64.10438332933826" lon="10.433366658820061" id="-33212">
		<tag k="name" v="Finnlitjønna" />
		<tag k="natural" v="water" />
		<tag k="ssr:stedsnr" v="14273" />
	</node>
	<node lat="64.14302499705076" lon="10.661313894293702" id="-33216">
		<tag k="name" v="Grønlivatnet" />
		<tag k="natural" v="water" />
		<tag k="ssr:stedsnr" v="14326" />
	</node>
	<node lat="64.17798888866355" lon="10.481041673150411" id="-33218">
		<tag k="name" v="Grytelva" />
		<tag k="ssr:stedsnr" v="14371" />
		<tag k="waterway" v="stream" />
	</node>
	<node lat="64.00593333461876" lon="10.570941666198497" id="-33221">
		<tag k="name" v="Dulmålstjønna" />
		<tag k="natural" v="water" />
		<tag k="ssr:stedsnr" v="14709" />
	</node>
	<node lat="63.99415555139504" lon="10.39524722294813" id="-33236">
		<tag k="name" v="Moltdalsbekken" />
		<tag k="ssr:stedsnr" v="30788" />
		<tag k="waterway" v="stream" />
	</node>
	<node lat="64.16108888837408" lon="10.365116659948088" id="-33255">
		<tag k="name" v="Slettstranda" />
		<tag k="natural" v="beach" />
		<tag k="ssr:stedsnr" v="31182" />
	</node>
	<node lat="64.1671027816494" lon="10.446999992152051" id="-33258">
		<tag k="name" v="Sagfossen" />
		<tag k="natural" v="waterfall" />
		<tag k="ssr:stedsnr" v="31304" />
	</node>
	<node lat="64.18160000023927" lon="10.551205559180039" id="-33271">
		<tag k="name" v="Setertjønna" />
		<tag k="natural" v="water" />
		<tag k="ssr:stedsnr" v="31269" />
	</node>
	<node lat="63.994011108030485" lon="10.764058343010138" id="-33274">
		<tag k="name" v="Bårdlielva" />
		<tag k="ssr:stedsnr" v="31282" />
		<tag k="waterway" v="river" />
	</node>
	<node lat="64.04089999850461" lon="10.591930565658876" id="-33275">
		<tag k="name" v="Tjerrabrennbekken" />
		<tag k="ssr:stedsnr" v="31408" />
		<tag k="waterway" v="stream" />
	</node>
	<node lat="64.02439722280835" lon="10.543199999347445" id="-33277">
		<tag k="name" v="Granholmen" />
		<tag k="place" v="islet" />
		<tag k="ssr:stedsnr" v="31512" />
	</node>
	<node lat="63.92470277896934" lon="10.068877781353578" id="-33278">
		<tag k="name" v="Kvennhusbekken" />
		<tag k="ssr:stedsnr" v="31516" />
		<tag k="waterway" v="stream" />
	</node>
	<node lat="63.94957777746763" lon="10.508563890765624" id="-33280">
		<tag k="name" v="Trongstadlifossen" />
		<tag k="natural" v="waterfall" />
		<tag k="ssr:stedsnr" v="31562" />
	</node>
	<node lat="63.95293611384987" lon="10.564261111863992" id="-33282">
		<tag k="name" v="Damtjønna" />
		<tag k="natural" v="water" />
		<tag k="ssr:stedsnr" v="31573" />
	</node>
	<node lat="63.93964999817773" lon="10.474086112704912" id="-33286">
		<tag k="name" v="Gråfjellbekken" />
		<tag k="ssr:stedsnr" v="31705" />
		<tag k="waterway" v="stream" />
	</node>
	<node lat="63.97904721914489" lon="10.460263885033967" id="-33287">
		<tag k="name" v="Ommunddalsbekken" />
		<tag k="ssr:stedsnr" v="31713" />
		<tag k="waterway" v="stream" />
	</node>
	<node lat="64.02367500385633" lon="10.5437805643979" id="-33293">
		<tag k="name" v="Storholmen" />
		<tag k="place" v="islet" />
		<tag k="ssr:stedsnr" v="31624" />
	</node>
	<node lat="64.02036389071345" lon="10.55627776982272" id="-33294">
		<tag k="name" v="Klumptjønna" />
		<tag k="natural" v="water" />
		<tag k="ssr:stedsnr" v="31625" />
	</node>
	<node lat="64.02599999852272" lon="9.913124992672767" id="-33297">
		<tag k="name" v="Straumen" />
		<tag k="natural" v="water" />
		<tag k="ssr:stedsnr" v="31806" />
		<tag k="water" v="lake" />
	</node>
	<node lat="63.984697222771494" lon="10.365983328389772" id="-33301">
		<tag k="name" v="Bjørnbekken" />
		<tag k="ssr:stedsnr" v="31779" />
		<tag k="waterway" v="stream" />
	</node>
	<node lat="63.92843888980158" lon="10.402419434927202" id="-33303">
		<tag k="name" v="Moenholmen" />
		<tag k="place" v="islet" />
		<tag k="ssr:stedsnr" v="31905" />
	</node>
	<node lat="63.86453055891214" lon="10.310027774567775" id="-33304">
		<tag k="name" v="Fremmer Tverrlitjønna" />
		<tag k="natural" v="water" />
		<tag k="ssr:stedsnr" v="31908" />
	</node>
	<node lat="63.9251777751473" lon="10.45526667366562" id="-33306">
		<tag k="name" v="Kvernhusfossen" />
		<tag k="natural" v="waterfall" />
		<tag k="ssr:stedsnr" v="31981" />
	</node>
	<node lat="63.921005553012584" lon="10.41733055907081" id="-33308">
		<tag k="name" v="Moabekken" />
		<tag k="ssr:stedsnr" v="31984" />
		<tag k="waterway" v="stream" />
	</node>
	<node lat="64.2266888885269" lon="10.379638897446364" id="-33333">
		<tag k="name" v="Spissteintjønna" />
		<tag k="natural" v="water" />
		<tag k="ssr:stedsnr" v="74063" />
	</node>
	<node lat="63.972924999387224" lon="10.49219167621138" id="-33334">
		<tag k="name" v="Kattatjønna" />
		<tag k="natural" v="water" />
		<tag k="ssr:stedsnr" v="74121" />
	</node>
	<node lat="63.99817222102808" lon="10.287880562968825" id="-33339">
		<tag k="name" v="Søre Berdalsvatnet" />
		<tag k="natural" v="water" />
		<tag k="ssr:stedsnr" v="74171" />
		<tag k="water" v="lake" />
	</node>
	<node lat="64.03481944416174" lon="10.118661110519659" id="-33353">
		<tag k="name" v="Høgbakktjønna" />
		<tag k="natural" v="water" />
		<tag k="ssr:stedsnr" v="75101" />
	</node>
	<node lat="64.04289999877274" lon="10.260780550729123" id="-33359">
		<tag k="name" v="Gammelgårdsvatnet" />
		<tag k="natural" v="water" />
		<tag k="ssr:stedsnr" v="75251" />
	</node>
	<node lat="64.1710416685624" lon="10.295358338572017" id="-33361">
		<tag k="name" v="Slettskardvatnet" />
		<tag k="natural" v="water" />
		<tag k="ssr:stedsnr" v="75468" />
	</node>
	<node lat="64.01525000171276" lon="10.286638883211271" id="-33369">
		<tag k="name" v="Fagerlibekken" />
		<tag k="ssr:stedsnr" v="91117" />
		<tag k="waterway" v="stream" />
	</node>
	<node lat="64.01588055509889" lon="10.068466658641064" id="-33375">
		<tag k="name" v="Staggalibekken" />
		<tag k="ssr:stedsnr" v="91165" />
		<tag k="waterway" v="stream" />
	</node>
	<node lat="63.95161111401608" lon="10.52004999215656" id="-33390">
		<tag k="name" v="Øsodden" />
		<tag k="natural" v="cape" />
		<tag k="ssr:stedsnr" v="91567" />
	</node>
	<node lat="64.1116333301959" lon="10.532152775354204" id="-33391">
		<tag k="name" v="Rørskogbekken" />
		<tag k="ssr:stedsnr" v="91420" />
		<tag k="waterway" v="stream" />
	</node>
	<node lat="63.97837500248569" lon="10.180088892041503" id="-33393">
		<tag k="name" v="Mellombekken" />
		<tag k="ssr:stedsnr" v="91609" />
		<tag k="waterway" v="stream" />
	</node>
	<node lat="63.91185832923055" lon="10.449036116797338" id="-33404">
		<tag k="name" v="Langholbekken" />
		<tag k="ssr:stedsnr" v="91915" />
		<tag k="waterway" v="stream" />
	</node>
	<node lat="64.15948333773443" lon="10.320433339880209" id="-33412">
		<tag k="name" v="Rotjønnbekken" />
		<tag k="ssr:stedsnr" v="92107" />
		<tag k="waterway" v="stream" />
	</node>
	<node lat="64.19114999762895" lon="10.404777782620336" id="-33419">
		<tag k="name" v="Gjøssøra" />
		<tag k="natural" v="beach" />
		<tag k="ssr:stedsnr" v="92178" />
	</node>
	<node lat="63.85866666620689" lon="10.393608324314371" id="-33441">
		<tag k="name" v="Sleppen" />
		<tag k="natural" v="water" />
		<tag k="ssr:stedsnr" v="104589" />
		<tag k="water" v="lake" />
	</node>
	<node lat="63.97605278068065" lon="10.56816110857228" id="-33448">
		<tag k="name" v="Haravasstjønnan" />
		<tag k="natural" v="water" />
		<tag k="ssr:stedsnr" v="134165" />
	</node>
	<node lat="63.93278611118593" lon="10.351788881555079" id="-33449">
		<tag k="name" v="Bjørnaholmen" />
		<tag k="place" v="islet" />
		<tag k="ssr:stedsnr" v="134363" />
	</node>
	<node lat="64.08321944256531" lon="10.307374993151376" id="-33451">
		<tag k="name" v="Agnettjønna" />
		<tag k="natural" v="water" />
		<tag k="ssr:stedsnr" v="134372" />
	</node>
	<node lat="63.942902777697824" lon="10.301913893694476" id="-33455">
		<tag k="fixme" v="multiple name tags, choose one and add the other to alt_name" />
		<tag k="name" v="Andreasdaltjønna;Ner Rogndalstjønna" />
		<tag k="natural" v="water" />
		<tag k="ssr:stedsnr" v="134411" />
	</node>
	<node lat="63.94570000320401" lon="10.404169441371831" id="-33456">
		<tag k="name" v="Okstjønnan" />
		<tag k="natural" v="water" />
		<tag k="ssr:stedsnr" v="134419" />
	</node>
	<node lat="63.988055559374274" lon="10.08376387901181" id="-33461">
		<tag k="name" v="Femholmvatnet" />
		<tag k="natural" v="water" />
		<tag k="ssr:stedsnr" v="134752" />
	</node>
	<node lat="63.915038886272214" lon="10.140347220117091" id="-33462">
		<tag k="alt_name" v="Krokaelva" />
		<tag k="name" v="Krokelva" />
		<tag k="ssr:stedsnr" v="134653" />
		<tag k="waterway" v="stream" />
	</node>
	<node lat="63.91463333619164" lon="10.146202772672154" id="-33463">
		<tag k="name" v="Grovlielva" />
		<tag k="ssr:stedsnr" v="134654" />
		<tag k="waterway" v="stream" />
	</node>
	<node lat="64.04550832943093" lon="10.282836110285928" id="-33473">
		<tag k="name" v="Okslitjønna" />
		<tag k="natural" v="water" />
		<tag k="ssr:stedsnr" v="135257" />
	</node>
	<node lat="64.04875833053143" lon="10.243369441789591" id="-33474">
		<tag k="name" v="Røyrkromtjønna" />
		<tag k="natural" v="water" />
		<tag k="ssr:stedsnr" v="135259" />
	</node>
	<node lat="64.04629166553684" lon="10.52845555031421" id="-33476">
		<tag k="name" v="Storfisktjønna" />
		<tag k="natural" v="water" />
		<tag k="ssr:stedsnr" v="135268" />
	</node>
	<node lat="64.06016111043044" lon="10.223566661951802" id="-33477">
		<tag k="name" v="Langvatnet" />
		<tag k="natural" v="water" />
		<tag k="ssr:stedsnr" v="135271" />
	</node>
	<node lat="64.17699999683619" lon="10.292527771716042" id="-33478">
		<tag k="name" v="Kvernvatna" />
		<tag k="natural" v="water" />
		<tag k="ssr:stedsnr" v="135451" />
	</node>
	<node lat="63.85452500101848" lon="10.233827771174077" id="-33486">
		<tag k="name" v="Stormyrkråa" />
		<tag k="ssr:stedsnr" v="255284" />
		<tag k="waterway" v="stream" />
	</node>
	<node lat="63.903874999584005" lon="10.591480560064133" id="-33487">
		<tag k="name" v="Fosstjønna" />
		<tag k="natural" v="water" />
		<tag k="ssr:stedsnr" v="255294" />
	</node>
	<node lat="63.8674694476245" lon="10.492522212431009" id="-33488">
		<tag k="name" v="Grunnlåtelva" />
		<tag k="ssr:stedsnr" v="255256" />
		<tag k="waterway" v="river" />
	</node>
	<node lat="63.86492221959184" lon="10.309986115360598" id="-33489">
		<tag k="name" v="Tverrlitjønnan" />
		<tag k="natural" v="water" />
		<tag k="ssr:stedsnr" v="255262" />
	</node>
	<node lat="63.955568913686655" lon="10.376667155852799" id="-33493">
		<tag k="name" v="Svanatjønna" />
		<tag k="natural" v="water" />
		<tag k="ssr:stedsnr" v="255343" />
	</node>
	<node lat="64.03782222035913" lon="10.084977771252866" id="-33495">
		<tag k="name" v="Litlvatnet" />
		<tag k="natural" v="water" />
		<tag k="ssr:stedsnr" v="256091" />
	</node>
	<node lat="64.02930833174337" lon="10.123436104919108" id="-33497">
		<tag k="name" v="Gråkamvatnet" />
		<tag k="natural" v="water" />
		<tag k="ssr:stedsnr" v="256101" />
	</node>
	<node lat="64.06923055969685" lon="10.149702780020082" id="-33504">
		<tag k="name" v="Liaelva" />
		<tag k="ssr:stedsnr" v="256132" />
		<tag k="waterway" v="stream" />
	</node>
	<node lat="63.97661666313685" lon="10.31347223078695" id="-33509">
		<tag k="name" v="Bølsvika" />
		<tag k="natural" v="bay" />
		<tag k="ssr:stedsnr" v="256151" />
	</node>
	<node lat="64.05093611515458" lon="10.101177785803554" id="-33510">
		<tag k="name" v="Salbuvikvatnet" />
		<tag k="natural" v="water" />
		<tag k="ssr:stedsnr" v="256152" />
	</node>
	<node lat="63.98795000435467" lon="10.645727778144678" id="-33512">
		<tag k="name" v="Sarabranntjønna" />
		<tag k="natural" v="water" />
		<tag k="ssr:stedsnr" v="256154" />
	</node>
	<node lat="63.9948055554148" lon="10.708102786990008" id="-33514">
		<tag k="name" v="Krokvatnet" />
		<tag k="natural" v="water" />
		<tag k="ssr:stedsnr" v="256157" />
	</node>
	<node lat="64.04717222515681" lon="10.397980562753489" id="-33520">
		<tag k="name" v="Lona" />
		<tag k="place" v="locality" />
		<tag k="ssr:stedsnr" v="256272" />
	</node>
	<node lat="64.06626944185939" lon="10.581594443339691" id="-33521">
		<tag k="name" v="Ørnbergtjønna" />
		<tag k="natural" v="water" />
		<tag k="ssr:stedsnr" v="256276" />
	</node>
	<node lat="64.0844305511769" lon="10.281772221485662" id="-33527">
		<tag k="alt_name" v="Kjerringheivatnet, øvre" />
		<tag k="name" v="Øvre Kjerringheivatnet" />
		<tag k="natural" v="water" />
		<tag k="ssr:stedsnr" v="256288" />
	</node>
	<node lat="64.07254444485693" lon="10.622361117804815" id="-33528">
		<tag k="name" v="Vestre Skurvelva" />
		<tag k="ssr:stedsnr" v="256297" />
		<tag k="waterway" v="river" />
	</node>
	<node lat="63.78572500045542" lon="10.44211389235423" id="-33530">
		<tag k="name" v="Austre Skurvtjønna" />
		<tag k="natural" v="water" />
		<tag k="ssr:stedsnr" v="256375" />
	</node>
	<node lat="64.15215555817511" lon="10.28849721915561" id="-33531">
		<tag k="alt_name" v="Jenselivatnet, østre" />
		<tag k="name" v="Østre Jenselivatnet" />
		<tag k="natural" v="water" />
		<tag k="ssr:stedsnr" v="256376" />
		<tag k="water" v="lake" />
	</node>
	<node lat="64.19920833620581" lon="10.502727776042784" id="-33536">
		<tag k="name" v="Killingbekken" />
		<tag k="ssr:stedsnr" v="256452" />
		<tag k="waterway" v="stream" />
	</node>
	<node lat="64.20280833434825" lon="10.535469439573289" id="-33537">
		<tag k="name" v="Langvatnet" />
		<tag k="natural" v="water" />
		<tag k="ssr:stedsnr" v="256455" />
		<tag k="water" v="lake" />
	</node>
	<node lat="63.96270833542579" lon="10.613813886965549" id="-33538">
		<tag k="name" v="Bomma" />
		<tag k="natural" v="water" />
		<tag k="ssr:stedsnr" v="256327" />
	</node>
	<node lat="64.11094166453934" lon="10.268091675497272" id="-33540">
		<tag k="name" v="Storskardtjønna" />
		<tag k="natural" v="water" />
		<tag k="ssr:stedsnr" v="256341" />
	</node>
	<node lat="64.17773888575474" lon="10.273227771887921" id="-33563">
		<tag k="name" v="Fjordabekken" />
		<tag k="ssr:stedsnr" v="152121" />
		<tag k="waterway" v="stream" />
	</node>
	<node lat="64.00465277823695" lon="10.778894443449289" id="-33583">
		<tag k="name" v="Selavatnet" />
		<tag k="natural" v="water" />
		<tag k="ssr:stedsnr" v="152466" />
		<tag k="water" v="lake" />
	</node>
	<node lat="64.12479166262389" lon="10.654677781553717" id="-33588">
		<tag k="name" v="Olaneset" />
		<tag k="natural" v="cape" />
		<tag k="ssr:stedsnr" v="152302" />
	</node>
	<node lat="63.87458333637363" lon="10.233155559621595" id="-33594">
		<tag k="name" v="Skjeftholsbekken" />
		<tag k="ssr:stedsnr" v="152655" />
		<tag k="waterway" v="stream" />
	</node>
	<node lat="63.96385833119904" lon="10.50511110807465" id="-33612">
		<tag k="name" v="Olausbukta" />
		<tag k="natural" v="bay" />
		<tag k="ssr:stedsnr" v="152713" />
	</node>
	<node lat="64.04529444869755" lon="10.73501389424794" id="-33629">
		<tag k="name" v="Finnburtjønna - Buvrientjonne" />
		<tag k="name:no" v="Finnburtjønna" />
		<tag k="name:sma" v="Buvrientjonne" />
		<tag k="natural" v="water" />
		<tag k="ssr:stedsnr" v="256951" />
	</node>
	<node lat="64.01293611527015" lon="10.136380561497123" id="-33632">
		<tag k="name" v="Olaslåttjønna" />
		<tag k="natural" v="water" />
		<tag k="ssr:stedsnr" v="257074" />
	</node>
	<node lat="64.10683611287675" lon="10.372136108629961" id="-33639">
		<tag k="name" v="Blankstuvatnet" />
		<tag k="natural" v="water" />
		<tag k="ssr:stedsnr" v="257390" />
	</node>
	<node lat="64.1673250011013" lon="10.250936115820735" id="-33641">
		<tag k="name" v="Prestelva" />
		<tag k="ssr:stedsnr" v="257492" />
		<tag k="waterway" v="stream" />
	</node>
	<node lat="64.16468611396216" lon="10.362383339692359" id="-33642">
		<tag k="name" v="Straumsvatnet" />
		<tag k="natural" v="water" />
		<tag k="ssr:stedsnr" v="257493" />
		<tag k="water" v="lake" />
	</node>
	<node lat="63.894888889021075" lon="10.364713881564096" id="-33661">
		<tag k="name" v="Kråktjernan" />
		<tag k="natural" v="water" />
		<tag k="ssr:stedsnr" v="195342" />
	</node>
	<node lat="63.90499444796218" lon="10.079705553688806" id="-33666">
		<tag k="alt_name" v="Brulivatnet, store" />
		<tag k="name" v="Brulivatnet" />
		<tag k="natural" v="water" />
		<tag k="ssr:stedsnr" v="195602" />
		<tag k="water" v="lake" />
	</node>
	<node lat="63.90042585108401" lon="10.189000435513192" id="-33667">
		<tag k="name" v="Bjørnatjønna" />
		<tag k="natural" v="water" />
		<tag k="ssr:stedsnr" v="195606" />
	</node>
	<node lat="64.24465278008599" lon="10.376450003356268" id="-33670">
		<tag k="name" v="Nedre Vikvatnet" />
		<tag k="natural" v="water" />
		<tag k="ssr:stedsnr" v="196037" />
		<tag k="water" v="lake" />
	</node>
	<node lat="64.03508055801264" lon="10.148419436289805" id="-33676">
		<tag k="name" v="Lavatnet" />
		<tag k="natural" v="water" />
		<tag k="ssr:stedsnr" v="196115" />
	</node>
	<node lat="64.02314722019149" lon="10.075200002290623" id="-33677">
		<tag k="name" v="Lunnfjordvatnet" />
		<tag k="natural" v="water" />
		<tag k="ssr:stedsnr" v="196120" />
	</node>
	<node lat="64.08974167076195" lon="10.45879165857814" id="-33688">
		<tag k="name" v="Somdalstjønna" />
		<tag k="natural" v="water" />
		<tag k="ssr:stedsnr" v="196285" />
	</node>
	<node lat="64.08205833542362" lon="10.70076943661731" id="-33689">
		<tag k="name" v="Langvatnet" />
		<tag k="natural" v="water" />
		<tag k="ssr:stedsnr" v="196288" />
	</node>
	<node lat="64.09881666926289" lon="10.306713889753652" id="-33690">
		<tag k="name" v="Eriklitjønna" />
		<tag k="natural" v="water" />
		<tag k="ssr:stedsnr" v="196294" />
	</node>
	<node lat="64.14955833769203" lon="10.466719450306147" id="-33696">
		<tag k="name" v="Tostenelva" />
		<tag k="ssr:stedsnr" v="196384" />
		<tag k="waterway" v="river" />
	</node>
	<node lat="64.03205833109553" lon="10.384838892706982" id="-33697">
		<tag k="name" v="Nittaelva" />
		<tag k="ssr:stedsnr" v="196670" />
		<tag k="waterway" v="river" />
	</node>
	<node lat="64.00523333009485" lon="10.255300004434538" id="-33704">
		<tag k="name" v="Bjørnabekken" />
		<tag k="ssr:stedsnr" v="196710" />
		<tag k="waterway" v="stream" />
	</node>
	<node lat="64.25422777915459" lon="10.345952778386039" id="-33711">
		<tag k="name" v="Teisthaugen" />
		<tag k="natural" v="cape" />
		<tag k="ssr:stedsnr" v="269012" />
	</node>
	<node lat="64.16281388749724" lon="10.27217777096606" id="-33722">
		<tag k="name" v="Prestfossen" />
		<tag k="natural" v="waterfall" />
		<tag k="ssr:stedsnr" v="213124" />
	</node>
	<node lat="64.0405305594484" lon="10.071777775833137" id="-33736">
		<tag k="name" v="Lianselva" />
		<tag k="ssr:stedsnr" v="213226" />
		<tag k="waterway" v="river" />
	</node>
	<node lat="64.22935277432315" lon="10.34098889852606" id="-33738">
		<tag k="name" v="Portdalsbekken" />
		<tag k="ssr:stedsnr" v="213229" />
		<tag k="waterway" v="stream" />
	</node>
	<node lat="64.1919527814956" lon="10.54048055012181" id="-33742">
		<tag k="name" v="Tjønnlitjønna" />
		<tag k="natural" v="water" />
		<tag k="ssr:stedsnr" v="213294" />
	</node>
	<node lat="64.17769166347175" lon="10.332591666493325" id="-33748">
		<tag k="name" v="Svarttjønna" />
		<tag k="natural" v="water" />
		<tag k="ssr:stedsnr" v="213180" />
	</node>
	<node lat="64.17472222318399" lon="10.340180557574428" id="-33751">
		<tag k="name" v="Myrabekken" />
		<tag k="ssr:stedsnr" v="213186" />
		<tag k="waterway" v="stream" />
	</node>
	<node lat="63.91148055625714" lon="10.2520527724307" id="-33760">
		<tag k="name" v="Sørbekken" />
		<tag k="ssr:stedsnr" v="213678" />
		<tag k="waterway" v="stream" />
	</node>
	<node lat="63.99654722096179" lon="10.482430550620911" id="-33773">
		<tag k="name" v="Bjørknesbekken" />
		<tag k="ssr:stedsnr" v="213583" />
		<tag k="waterway" v="stream" />
	</node>
	<node lat="64.06811388913226" lon="9.94341666601983" id="-33780">
		<tag k="name" v="Vadtjønnbekken" />
		<tag k="ssr:stedsnr" v="213784" />
		<tag k="waterway" v="stream" />
	</node>
	<node lat="63.96890278182255" lon="10.434708328330826" id="-33782">
		<tag k="name" v="Hoggtjønna" />
		<tag k="natural" v="water" />
		<tag k="ssr:stedsnr" v="213787" />
	</node>
	<node lat="63.92986110771623" lon="10.405783332742509" id="-33787">
		<tag k="name" v="Dynekilen" />
		<tag k="natural" v="bay" />
		<tag k="ssr:stedsnr" v="213909" />
	</node>
	<node lat="63.873361111893225" lon="10.304233341889683" id="-33788">
		<tag k="name" v="Andreastjønna" />
		<tag k="natural" v="water" />
		<tag k="ssr:stedsnr" v="213911" />
	</node>
	<node lat="63.92809722350172" lon="10.309644445298671" id="-33807">
		<tag k="name" v="Skjærodden" />
		<tag k="natural" v="cape" />
		<tag k="ssr:stedsnr" v="455042" />
	</node>
	<node lat="64.05229444253816" lon="10.642877786265691" id="-33808">
		<tag k="name" v="Hyttjønnbekken" />
		<tag k="ssr:stedsnr" v="455123" />
		<tag k="waterway" v="stream" />
	</node>
	<node lat="63.88043055400828" lon="10.041902771531323" id="-33822">
		<tag k="name" v="Tverrelva" />
		<tag k="ssr:stedsnr" v="456089" />
		<tag k="waterway" v="river" />
	</node>
	<node lat="64.12945555749774" lon="10.254025004487037" id="-33823">
		<tag k="name" v="Aneholbekken" />
		<tag k="ssr:stedsnr" v="456090" />
		<tag k="waterway" v="stream" />
	</node>
	<node lat="64.00408889183554" lon="10.232330556711583" id="-33824">
		<tag k="name" v="Valleraunbekken" />
		<tag k="ssr:stedsnr" v="456092" />
		<tag k="waterway" v="stream" />
	</node>
	<node lat="64.01257222179744" lon="10.41897778413031" id="-33835">
		<tag k="name" v="Bogen" />
		<tag k="natural" v="bay" />
		<tag k="ssr:stedsnr" v="455655" />
	</node>
	<node lat="63.99776110933919" lon="10.386072228562616" id="-33837">
		<tag k="name" v="Storskardbekken" />
		<tag k="ssr:stedsnr" v="455813" />
		<tag k="waterway" v="stream" />
	</node>
	<node lat="64.02985277638429" lon="10.40591666771797" id="-33843">
		<tag k="name" v="Kvennhushølen" />
		<tag k="place" v="locality" />
		<tag k="ssr:stedsnr" v="455831" />
	</node>
	<node lat="63.93101667049645" lon="10.389972224620717" id="-33857">
		<tag k="name" v="Lonmunden" />
		<tag k="natural" v="bay" />
		<tag k="ssr:stedsnr" v="455950" />
	</node>
	<node lat="64.11462777719055" lon="10.297400002066963" id="-33864">
		<tag k="name" v="Tusstjønna" />
		<tag k="natural" v="water" />
		<tag k="ssr:stedsnr" v="456095" />
	</node>
	<node lat="63.99820000248973" lon="10.239022223065572" id="-33865">
		<tag k="name" v="Tuvbekken" />
		<tag k="ssr:stedsnr" v="456096" />
		<tag k="waterway" v="stream" />
	</node>
	<node lat="64.07439999778916" lon="10.039616662567328" id="-33872">
		<tag k="name" v="Dalsbekken" />
		<tag k="ssr:stedsnr" v="456177" />
		<tag k="waterway" v="stream" />
	</node>
	<node lat="63.883469440523854" lon="10.483330565109686" id="-33879">
		<tag k="name" v="Funnetjønna" />
		<tag k="natural" v="water" />
		<tag k="ssr:stedsnr" v="255302" />
	</node>
	<node lat="63.87584166590103" lon="10.503286115012033" id="-33888">
		<tag k="name" v="Blåtjønna" />
		<tag k="natural" v="water" />
		<tag k="ssr:stedsnr" v="255269" />
	</node>
	<node lat="63.87887500386453" lon="10.503244449758727" id="-33889">
		<tag k="name" v="Gjermundstjønna" />
		<tag k="natural" v="water" />
		<tag k="ssr:stedsnr" v="255270" />
	</node>
	<node lat="63.879783334756894" lon="10.301088893864245" id="-33890">
		<tag k="name" v="Setertjønna" />
		<tag k="natural" v="water" />
		<tag k="ssr:stedsnr" v="255275" />
	</node>
	<node lat="64.22743888892654" lon="10.416661120572408" id="-33891">
		<tag k="name" v="Elgtjønna" />
		<tag k="natural" v="water" />
		<tag k="ssr:stedsnr" v="456230" />
	</node>
	<node lat="64.05211944467021" lon="10.523244454565324" id="-33905">
		<tag k="name" v="Svarttjønna" />
		<tag k="natural" v="water" />
		<tag k="ssr:stedsnr" v="256264" />
	</node>
	<node lat="64.13854167102515" lon="10.24152499465319" id="-33913">
		<tag k="name" v="Nonsfjellvatnet" />
		<tag k="natural" v="water" />
		<tag k="ssr:stedsnr" v="256367" />
	</node>
	<node lat="64.0145444424902" lon="10.511202781073592" id="-33925">
		<tag k="name" v="Fossenghølen" />
		<tag k="place" v="locality" />
		<tag k="ssr:stedsnr" v="456526" />
	</node>
	<node lat="63.99206666833996" lon="10.45817500507772" id="-33927">
		<tag k="name" v="Klaushølen" />
		<tag k="place" v="locality" />
		<tag k="ssr:stedsnr" v="456529" />
	</node>
	<node lat="63.99059166269766" lon="10.48062499224589" id="-33928">
		<tag k="name" v="Mebekken" />
		<tag k="ssr:stedsnr" v="456531" />
		<tag k="waterway" v="stream" />
	</node>
	<node lat="64.0048555550791" lon="10.505016669075168" id="-33929">
		<tag k="name" v="Sørengholmen" />
		<tag k="place" v="islet" />
		<tag k="ssr:stedsnr" v="456539" />
	</node>
	<node lat="63.91185277839689" lon="10.130538892286538" id="-33931">
		<tag k="name" v="Loppholfossen" />
		<tag k="natural" v="waterfall" />
		<tag k="ssr:stedsnr" v="456542" />
	</node>
	<node lat="64.00246944479592" lon="10.51654722933881" id="-33932">
		<tag k="name" v="Mebekken" />
		<tag k="ssr:stedsnr" v="456545" />
		<tag k="waterway" v="stream" />
	</node>
	<node lat="64.10210278063823" lon="10.635249997949794" id="-33939">
		<tag k="name" v="Litlnyvatnet" />
		<tag k="natural" v="water" />
		<tag k="ssr:stedsnr" v="257358" />
	</node>
	<node lat="63.92229999689979" lon="10.463916668719106" id="-33942">
		<tag k="name" v="Jodalbekken" />
		<tag k="ssr:stedsnr" v="456627" />
		<tag k="waterway" v="stream" />
	</node>
	<node lat="63.91748889063054" lon="10.457583337467797" id="-33943">
		<tag k="name" v="Dummelbekken" />
		<tag k="ssr:stedsnr" v="456630" />
		<tag k="waterway" v="stream" />
	</node>
	<node lat="64.08092500247017" lon="10.436536112895814" id="-33946">
		<tag k="name" v="Kjerstiholbekken" />
		<tag k="ssr:stedsnr" v="456636" />
		<tag k="waterway" v="stream" />
	</node>
	<node lat="63.88396389172095" lon="10.231833325970925" id="-33950">
		<tag k="name" v="Svartholsbekken" />
		<tag k="ssr:stedsnr" v="456673" />
		<tag k="waterway" v="stream" />
	</node>
	<node lat="63.966169444968905" lon="10.48927777393362" id="-33952">
		<tag k="name" v="Larsbukta" />
		<tag k="natural" v="bay" />
		<tag k="ssr:stedsnr" v="456676" />
	</node>
	<node lat="63.96496389218589" lon="10.47126943957943" id="-33953">
		<tag k="name" v="Smånesbekken" />
		<tag k="ssr:stedsnr" v="456686" />
		<tag k="waterway" v="stream" />
	</node>
	<node lat="63.98298332952537" lon="10.473413892817504" id="-33954">
		<tag k="name" v="Bjørnbekken" />
		<tag k="ssr:stedsnr" v="456688" />
		<tag k="waterway" v="stream" />
	</node>
	<node lat="63.90687222103862" lon="10.258872228677546" id="-33959">
		<tag k="name" v="Melkåtjønna" />
		<tag k="natural" v="water" />
		<tag k="ssr:stedsnr" v="456648" />
	</node>
	<node lat="63.93572499586067" lon="10.558666671968178" id="-33962">
		<tag k="name" v="Tverrlibekken" />
		<tag k="ssr:stedsnr" v="456713" />
		<tag k="waterway" v="stream" />
	</node>
	<node lat="64.19544250112449" lon="10.571878073961889" id="-33970">
		<tag k="name" v="Holbekkskardtjønna" />
		<tag k="natural" v="water" />
		<tag k="ssr:stedsnr" v="456785" />
	</node>
	<node lat="63.92889166401567" lon="10.471313890933336" id="-33973">
		<tag k="name" v="Kvitkrekkalibekken" />
		<tag k="ssr:stedsnr" v="456738" />
		<tag k="waterway" v="stream" />
	</node>
	<node lat="64.041024997537" lon="9.98029723097793" id="-33978">
		<tag k="name" v="Guttelvikbekken" />
		<tag k="ssr:stedsnr" v="456807" />
		<tag k="waterway" v="stream" />
	</node>
	<node lat="63.92068610869932" lon="10.455224999718038" id="-33980">
		<tag k="name" v="Tangstadskravlen" />
		<tag k="natural" v="water" />
		<tag k="ssr:stedsnr" v="456869" />
		<tag k="water" v="lake" />
	</node>
	<node lat="63.86801388859505" lon="10.306699990308324" id="-33997">
		<tag k="name" v="Måstjønna" />
		<tag k="natural" v="water" />
		<tag k="ssr:stedsnr" v="456910" />
	</node>
	<node lat="63.943219446659285" lon="10.410397232044847" id="-34009">
		<tag k="name" v="Avlsgårdsbekken" />
		<tag k="ssr:stedsnr" v="456989" />
		<tag k="waterway" v="stream" />
	</node>
	<node lat="64.01679166803581" lon="10.246488893049111" id="-34021">
		<tag k="name" v="Langtjønna" />
		<tag k="natural" v="water" />
		<tag k="ssr:stedsnr" v="273086" />
	</node>
	<node lat="64.00768055820102" lon="10.19895277235024" id="-34025">
		<tag k="name" v="Svarttjønna" />
		<tag k="natural" v="water" />
		<tag k="ssr:stedsnr" v="273108" />
	</node>
	<node lat="64.10638055938179" lon="10.550016661210492" id="-34036">
		<tag k="name" v="Langdalsbekken" />
		<tag k="ssr:stedsnr" v="273378" />
		<tag k="waterway" v="stream" />
	</node>
	<node lat="63.99403888931299" lon="10.463922229804313" id="-34039">
		<tag k="name" v="Trapphølen" />
		<tag k="place" v="locality" />
		<tag k="ssr:stedsnr" v="273523" />
	</node>
	<node lat="64.03038333342485" lon="10.406874994702576" id="-34047">
		<tag k="name" v="Kvennhusbekken" />
		<tag k="ssr:stedsnr" v="273688" />
		<tag k="waterway" v="stream" />
	</node>
	<node lat="63.962541669047006" lon="10.403141675961402" id="-34051">
		<tag k="name" v="Uggdalsbekken" />
		<tag k="ssr:stedsnr" v="273814" />
		<tag k="waterway" v="stream" />
	</node>
	<node lat="64.15976944045946" lon="10.313488895978491" id="-34070">
		<tag k="name" v="Volibekken" />
		<tag k="ssr:stedsnr" v="274110" />
		<tag k="waterway" v="stream" />
	</node>
	<node lat="63.94277778176297" lon="10.245877768469692" id="-34083">
		<tag k="name" v="Stranda" />
		<tag k="natural" v="beach" />
		<tag k="ssr:stedsnr" v="274607" />
	</node>
	<node lat="64.02307222145785" lon="9.91411111295582" id="-34091">
		<tag k="name" v="Volldalsbekken" />
		<tag k="ssr:stedsnr" v="274773" />
		<tag k="waterway" v="stream" />
	</node>
	<node lat="64.11026944872802" lon="10.222358341758401" id="-34094">
		<tag k="name" v="Langdalsbekken" />
		<tag k="ssr:stedsnr" v="274916" />
		<tag k="waterway" v="stream" />
	</node>
	<node lat="63.94527222548452" lon="10.685941657268744" id="-34111">
		<tag k="name" v="Nedre Sekkalona" />
		<tag k="natural" v="water" />
		<tag k="ssr:stedsnr" v="316419" />
	</node>
	<node lat="63.93132777641781" lon="10.340786118180135" id="-34113">
		<tag k="alt_name" v="Øver Granodden" />
		<tag k="name" v="Granodden" />
		<tag k="natural" v="cape" />
		<tag k="ssr:stedsnr" v="316363" />
	</node>
	<node lat="64.20878889100399" lon="10.488850000509071" id="-34121">
		<tag k="name" v="Indre Setervatnet" />
		<tag k="natural" v="water" />
		<tag k="ssr:stedsnr" v="317012" />
		<tag k="water" v="lake" />
	</node>
	<node lat="64.2298000001764" lon="10.436722216277" id="-34123">
		<tag k="name" v="Nedre Skjærlivatnet" />
		<tag k="natural" v="water" />
		<tag k="ssr:stedsnr" v="317052" />
		<tag k="water" v="lake" />
	</node>
	<node lat="63.9759555600611" lon="10.479319440353338" id="-34126">
		<tag k="name" v="Litlvatnet" />
		<tag k="natural" v="water" />
		<tag k="ssr:stedsnr" v="317107" />
	</node>
	<node lat="64.05490555707362" lon="10.193077773998397" id="-34127">
		<tag k="name" v="Lielvvatna" />
		<tag k="natural" v="water" />
		<tag k="ssr:stedsnr" v="317109" />
	</node>
	<node lat="63.974952779985834" lon="10.321872218032139" id="-34128">
		<tag k="name" v="Stønesodden" />
		<tag k="natural" v="cape" />
		<tag k="ssr:stedsnr" v="317110" />
	</node>
	<node lat="63.98054444063802" lon="10.362613884882553" id="-34129">
		<tag k="alt_name" v="Langneset" />
		<tag k="name" v="Langnesodden" />
		<tag k="natural" v="cape" />
		<tag k="ssr:stedsnr" v="317111" />
	</node>
</osm>
