<?xml version="1.0" encoding="UTF-8"?>
<osm version="0.6" generator="osmapis">
	<node lat="64.00534166776377" lon="10.065516664716434" id="-33186">
		<tag k="fixme" v="consider natural=peak for the most distinct mountains in the district" />
		<tag k="name" v="Legdafjellet" />
		<tag k="natural" v="hill" />
		<tag k="place" v="locality" />
		<tag k="ssr:stedsnr" v="13106" />
	</node>
	<node lat="63.90420833577706" lon="10.476030548234528" id="-33188">
		<tag k="fixme" v="consider natural=peak for the most distinct mountains in the district" />
		<tag k="name" v="Gullbergnova" />
		<tag k="natural" v="hill" />
		<tag k="place" v="locality" />
		<tag k="ssr:stedsnr" v="13315" />
	</node>
	<node lat="63.90294721897178" lon="10.365594446705325" id="-33189">
		<tag k="name" v="Lauvhattan" />
		<tag k="natural" v="hill" />
		<tag k="place" v="locality" />
		<tag k="ssr:stedsnr" v="13321" />
	</node>
	<node lat="63.89884999754105" lon="10.116955554917327" id="-33194">
		<tag k="name" v="Grovliheian" />
		<tag k="natural" v="hill" />
		<tag k="place" v="locality" />
		<tag k="ssr:stedsnr" v="13615" />
	</node>
	<node lat="63.922474999351635" lon="10.603344442443909" id="-33195">
		<tag k="fixme" v="consider natural=peak for the most distinct mountains in the district" />
		<tag k="name" v="Langløfta" />
		<tag k="natural" v="hill" />
		<tag k="place" v="locality" />
		<tag k="ssr:stedsnr" v="13367" />
	</node>
	<node lat="64.01391389280626" lon="10.23168888478054" id="-33197">
		<tag k="fixme" v="consider natural=peak for the most distinct mountains in the district" />
		<tag k="name" v="Halsaunfjellet" />
		<tag k="natural" v="hill" />
		<tag k="place" v="locality" />
		<tag k="ssr:stedsnr" v="13715" />
	</node>
	<node lat="64.19844166821647" lon="10.266508334566035" id="-33201">
		<tag k="fixme" v="consider natural=peak for the most distinct mountains in the district" />
		<tag k="name" v="Ramnen" />
		<tag k="natural" v="hill" />
		<tag k="place" v="locality" />
		<tag k="ssr:stedsnr" v="14015" />
	</node>
	<node lat="64.04371388575285" lon="10.353652770556586" id="-33209">
		<tag k="fixme" v="consider natural=peak for the most distinct mountains in the district" />
		<tag k="name" v="Svartliheia" />
		<tag k="natural" v="hill" />
		<tag k="place" v="locality" />
		<tag k="ssr:stedsnr" v="14211" />
	</node>
	<node lat="64.06120278197595" lon="10.412802780391775" id="-33211">
		<tag k="name" v="Trolldalen" />
		<tag k="natural" v="valley" />
		<tag k="place" v="locality" />
		<tag k="ssr:stedsnr" v="14224" />
	</node>
	<node lat="64.16931111376414" lon="10.004886112942922" id="-33213">
		<tag k="name" v="Valhovden" />
		<tag k="natural" v="hill" />
		<tag k="place" v="locality" />
		<tag k="ssr:stedsnr" v="14200" />
	</node>
	<node lat="64.12755833149662" lon="10.392449996554316" id="-33214">
		<tag k="fixme" v="consider natural=peak for the most distinct mountains in the district" />
		<tag k="name" v="Storklumpen" />
		<tag k="natural" v="hill" />
		<tag k="place" v="locality" />
		<tag k="ssr:stedsnr" v="14305" />
	</node>
	<node lat="64.13567499679803" lon="10.65783333447754" id="-33215">
		<tag k="fixme" v="consider natural=peak for the most distinct mountains in the district" />
		<tag k="name" v="Grønliklumpen" />
		<tag k="natural" v="hill" />
		<tag k="place" v="locality" />
		<tag k="ssr:stedsnr" v="14314" />
	</node>
	<node lat="64.16901666600329" lon="10.298780558524305" id="-33217">
		<tag k="fixme" v="consider natural=peak for the most distinct mountains in the district" />
		<tag k="name" v="Voliheia" />
		<tag k="natural" v="hill" />
		<tag k="place" v="locality" />
		<tag k="ssr:stedsnr" v="14364" />
	</node>
	<node lat="64.14635000333132" lon="10.755341667376323" id="-33225">
		<tag k="name" v="Sørhaugan" />
		<tag k="natural" v="hill" />
		<tag k="place" v="locality" />
		<tag k="ssr:stedsnr" v="21822" />
	</node>
	<node lat="64.11710277818334" lon="10.167799996770533" id="-33226">
		<tag k="name" v="Dalaholet" />
		<tag k="natural" v="valley" />
		<tag k="place" v="locality" />
		<tag k="ssr:stedsnr" v="24535" />
	</node>
	<node lat="64.11272500323105" lon="10.867122213389637" id="-33227">
		<tag k="fixme" v="consider natural=peak for the most distinct mountains in the district" />
		<tag k="name" v="Finnvollheia - Raassje" />
		<tag k="name:no" v="Finnvollheia" />
		<tag k="name:sma" v="Raassje" />
		<tag k="natural" v="hill" />
		<tag k="old_name:sma" v="Roassje" />
		<tag k="place" v="locality" />
		<tag k="ssr:stedsnr" v="24598" />
	</node>
	<node lat="63.994638890344156" lon="10.401477784329066" id="-33235">
		<tag k="name" v="Moltdalshaugen" />
		<tag k="natural" v="hill" />
		<tag k="place" v="locality" />
		<tag k="ssr:stedsnr" v="30786" />
	</node>
	<node lat="64.19137778115321" lon="10.268747223529214" id="-33238">
		<tag k="name" v="Bekkedalen" />
		<tag k="natural" v="valley" />
		<tag k="place" v="locality" />
		<tag k="ssr:stedsnr" v="31005" />
	</node>
	<node lat="63.91770555883102" lon="9.991849994794011" id="-33239">
		<tag k="name" v="Eidsbakkan" />
		<tag k="natural" v="slope" />
		<tag k="place" v="locality" />
		<tag k="ssr:stedsnr" v="31006" />
	</node>
	<node lat="64.19483333691343" lon="10.221011115108453" id="-33240">
		<tag k="fixme" v="consider natural=peak for the most distinct mountains in the district" />
		<tag k="name" v="Tverfjellet" />
		<tag k="natural" v="hill" />
		<tag k="place" v="locality" />
		<tag k="ssr:stedsnr" v="31013" />
	</node>
	<node lat="64.17833333348827" lon="10.218233324951468" id="-33244">
		<tag k="name" v="Myrahaugen" />
		<tag k="natural" v="hill" />
		<tag k="place" v="locality" />
		<tag k="ssr:stedsnr" v="31101" />
	</node>
	<node lat="64.00339444104961" lon="10.155247217898427" id="-33248">
		<tag k="fixme" v="consider natural=peak for the most distinct mountains in the district" />
		<tag k="name" v="Bjørkengsholan" />
		<tag k="natural" v="hill" />
		<tag k="place" v="locality" />
		<tag k="ssr:stedsnr" v="31164" />
	</node>
	<node lat="64.17513055632263" lon="10.3425694449559" id="-33250">
		<tag k="name" v="Myrahaugen" />
		<tag k="natural" v="hill" />
		<tag k="place" v="locality" />
		<tag k="ssr:stedsnr" v="31166" />
	</node>
	<node lat="64.16978055785256" lon="10.352230565494219" id="-33251">
		<tag k="name" v="Revdalshaugan" />
		<tag k="natural" v="hill" />
		<tag k="place" v="locality" />
		<tag k="ssr:stedsnr" v="31169" />
	</node>
	<node lat="63.98797500078433" lon="10.057349998283124" id="-33252">
		<tag k="name" v="Rapet" />
		<tag k="natural" v="cliff" />
		<tag k="ssr:stedsnr" v="31173" />
	</node>
	<node lat="64.05353889094077" lon="10.14080832553297" id="-33254">
		<tag k="name" v="Hellskardet" />
		<tag k="natural" v="valley" />
		<tag k="place" v="locality" />
		<tag k="ssr:stedsnr" v="31181" />
	</node>
	<node lat="64.25160000395353" lon="10.35506387947456" id="-33256">
		<tag k="fixme" v="consider natural=peak for the most distinct mountains in the district" />
		<tag k="name" v="Geitakleivhammaren" />
		<tag k="natural" v="hill" />
		<tag k="place" v="locality" />
		<tag k="ssr:stedsnr" v="31186" />
	</node>
	<node lat="64.15368611133258" lon="10.344322231361142" id="-33260">
		<tag k="name" v="Vesterlia" />
		<tag k="natural" v="slope" />
		<tag k="place" v="locality" />
		<tag k="ssr:stedsnr" v="31325" />
	</node>
	<node lat="64.02164444749522" lon="10.108602784945939" id="-33264">
		<tag k="name" v="Litlolaskardet" />
		<tag k="natural" v="valley" />
		<tag k="place" v="locality" />
		<tag k="ssr:stedsnr" v="31206" />
	</node>
	<node lat="64.23664444184546" lon="10.384169434937736" id="-33265">
		<tag k="fixme" v="consider natural=peak for the most distinct mountains in the district" />
		<tag k="name" v="Setermarkfjellet" />
		<tag k="natural" v="hill" />
		<tag k="place" v="locality" />
		<tag k="ssr:stedsnr" v="31207" />
	</node>
	<node lat="64.23118332978476" lon="10.293136119189784" id="-33266">
		<tag k="name" v="Ramsvikskardet" />
		<tag k="natural" v="valley" />
		<tag k="place" v="locality" />
		<tag k="ssr:stedsnr" v="31213" />
	</node>
	<node lat="64.23473889035684" lon="10.414755552453602" id="-33267">
		<tag k="name" v="Øyster Granholhøgda" />
		<tag k="natural" v="hill" />
		<tag k="place" v="locality" />
		<tag k="ssr:stedsnr" v="31214" />
	</node>
	<node lat="64.27302221866432" lon="10.353263894636328" id="-33268">
		<tag k="name" v="Klumpen" />
		<tag k="natural" v="hill" />
		<tag k="place" v="locality" />
		<tag k="ssr:stedsnr" v="31216" />
	</node>
	<node lat="64.20903888735663" lon="10.495630564156" id="-33272">
		<tag k="fixme" v="consider natural=peak for the most distinct mountains in the district" />
		<tag k="name" v="Øysterkrummen" />
		<tag k="natural" v="hill" />
		<tag k="place" v="locality" />
		<tag k="ssr:stedsnr" v="31274" />
	</node>
	<node lat="64.12757778185498" lon="10.628802786477033" id="-33273">
		<tag k="name" v="Fremmer Vargfossnesa" />
		<tag k="natural" v="slope" />
		<tag k="place" v="locality" />
		<tag k="ssr:stedsnr" v="31279" />
	</node>
	<node lat="64.06444444712312" lon="10.643147218596525" id="-33276">
		<tag k="name" v="Vakkerheimen" />
		<tag k="natural" v="slope" />
		<tag k="place" v="locality" />
		<tag k="ssr:stedsnr" v="31416" />
	</node>
	<node lat="63.939041662312746" lon="10.166838890567341" id="-33284">
		<tag k="name" v="Ørnhaugan" />
		<tag k="natural" v="hill" />
		<tag k="place" v="locality" />
		<tag k="ssr:stedsnr" v="31575" />
	</node>
	<node lat="64.06700277817062" lon="10.557613889059297" id="-33289">
		<tag k="name" v="Seterlia" />
		<tag k="natural" v="slope" />
		<tag k="place" v="locality" />
		<tag k="ssr:stedsnr" v="31606" />
	</node>
	<node lat="63.97932500223739" lon="10.432083333799083" id="-33298">
		<tag k="name" v="Haugen" />
		<tag k="natural" v="hill" />
		<tag k="place" v="locality" />
		<tag k="ssr:stedsnr" v="31766" />
	</node>
	<node lat="63.97931389000933" lon="10.442927768490303" id="-33299">
		<tag k="name" v="Bjørnabakken" />
		<tag k="natural" v="slope" />
		<tag k="place" v="locality" />
		<tag k="ssr:stedsnr" v="31770" />
	</node>
	<node lat="63.852888889461894" lon="10.410466676093217" id="-33305">
		<tag k="name" v="Nordre Løsvassheia" />
		<tag k="natural" v="hill" />
		<tag k="place" v="locality" />
		<tag k="ssr:stedsnr" v="31915" />
	</node>
	<node lat="64.07724721944709" lon="10.03632777027631" id="-33307">
		<tag k="name" v="Skreddarplassen" />
		<tag k="place" v="locality" />
		<tag k="ssr:stedsnr" v="31982" />
	</node>
	<node lat="63.9927416664259" lon="9.99624721432556" id="-33310">
		<tag k="name" v="Vorpvikberga" />
		<tag k="natural" v="hill" />
		<tag k="place" v="locality" />
		<tag k="ssr:stedsnr" v="31865" />
	</node>
	<node lat="63.923219446851434" lon="10.417091666878989" id="-33313">
		<tag k="name" v="Kvennhusbakken" />
		<tag k="natural" v="slope" />
		<tag k="place" v="locality" />
		<tag k="ssr:stedsnr" v="31874" />
	</node>
	<node lat="64.14077777362516" lon="10.16306388822892" id="-33314">
		<tag k="fixme" v="consider natural=peak for the most distinct mountains in the district" />
		<tag k="name" v="Båtfjellet" />
		<tag k="natural" v="hill" />
		<tag k="place" v="locality" />
		<tag k="ssr:stedsnr" v="31875" />
	</node>
	<node lat="63.94723055313733" lon="10.259847219087764" id="-33328">
		<tag k="fixme" v="consider natural=peak for the most distinct mountains in the district" />
		<tag k="name" v="Jofjellet" />
		<tag k="natural" v="hill" />
		<tag k="place" v="locality" />
		<tag k="ssr:stedsnr" v="73376" />
	</node>
	<node lat="63.99269444668979" lon="10.381972218797404" id="-33337">
		<tag k="fixme" v="consider natural=peak for the most distinct mountains in the district" />
		<tag k="name" v="Tverråsen" />
		<tag k="natural" v="hill" />
		<tag k="place" v="locality" />
		<tag k="ssr:stedsnr" v="74165" />
	</node>
	<node lat="64.14400555997979" lon="10.363200003081625" id="-33341">
		<tag k="name" v="Kjerringholet" />
		<tag k="natural" v="valley" />
		<tag k="place" v="locality" />
		<tag k="ssr:stedsnr" v="74410" />
	</node>
	<node lat="64.15475277971767" lon="10.503450009808937" id="-33342">
		<tag k="fixme" v="consider natural=peak for the most distinct mountains in the district" />
		<tag k="name" v="Rundfjellet" />
		<tag k="natural" v="hill" />
		<tag k="place" v="locality" />
		<tag k="ssr:stedsnr" v="74417" />
	</node>
	<node lat="64.08343610714218" lon="10.327769438654368" id="-33343">
		<tag k="fixme" v="consider natural=peak for the most distinct mountains in the district" />
		<tag k="name" v="Steinheia" />
		<tag k="natural" v="hill" />
		<tag k="place" v="locality" />
		<tag k="ssr:stedsnr" v="74305" />
	</node>
	<node lat="63.87934721993106" lon="10.001925007951913" id="-33345">
		<tag k="alt_name" v="Gammelsæterheia;Gammelseterfjellet" />
		<tag k="name" v="Gammelseterheia" />
		<tag k="natural" v="hill" />
		<tag k="place" v="locality" />
		<tag k="ssr:stedsnr" v="74569" />
	</node>
	<node lat="64.00244722379658" lon="10.288177786230792" id="-33347">
		<tag k="name" v="Bualia" />
		<tag k="natural" v="slope" />
		<tag k="place" v="locality" />
		<tag k="ssr:stedsnr" v="74701" />
	</node>
	<node lat="64.01214166744934" lon="10.385694436874633" id="-33349">
		<tag k="name" v="Stigknoppen" />
		<tag k="natural" v="hill" />
		<tag k="place" v="locality" />
		<tag k="ssr:stedsnr" v="74707" />
	</node>
	<node lat="64.20387500029749" lon="10.433480554628012" id="-33351">
		<tag k="name" v="Hestmarka" />
		<tag k="natural" v="valley" />
		<tag k="place" v="locality" />
		<tag k="ssr:stedsnr" v="75013" />
	</node>
	<node lat="63.942033336495" lon="10.082333327098143" id="-33362">
		<tag k="alt_name" v="Råneslia" />
		<tag k="name" v="Rånesli" />
		<tag k="natural" v="slope" />
		<tag k="place" v="locality" />
		<tag k="ssr:stedsnr" v="75567" />
	</node>
	<node lat="64.01911666945425" lon="10.265636116667114" id="-33370">
		<tag k="name" v="Grøndalslia" />
		<tag k="natural" v="slope" />
		<tag k="place" v="locality" />
		<tag k="ssr:stedsnr" v="91119" />
	</node>
	<node lat="64.01534721791512" lon="10.245436117428545" id="-33371">
		<tag k="name" v="Storøyklia" />
		<tag k="natural" v="slope" />
		<tag k="place" v="locality" />
		<tag k="ssr:stedsnr" v="91124" />
	</node>
	<node lat="63.9236861135372" lon="10.219258328887015" id="-33373">
		<tag k="name" v="Hjorthornlia" />
		<tag k="natural" v="slope" />
		<tag k="place" v="locality" />
		<tag k="ssr:stedsnr" v="91141" />
	</node>
	<node lat="64.06342777797624" lon="10.142394448570991" id="-33379">
		<tag k="fixme" v="consider natural=peak for the most distinct mountains in the district" />
		<tag k="name" v="Nypkollen" />
		<tag k="natural" v="hill" />
		<tag k="place" v="locality" />
		<tag k="ssr:stedsnr" v="91178" />
	</node>
	<node lat="63.96490555162702" lon="10.264863895879914" id="-33380">
		<tag k="name" v="Veradalen" />
		<tag k="natural" v="valley" />
		<tag k="place" v="locality" />
		<tag k="ssr:stedsnr" v="91005" />
	</node>
	<node lat="63.98658055237779" lon="10.295266674513988" id="-33381">
		<tag k="name" v="Middagskardet" />
		<tag k="natural" v="valley" />
		<tag k="place" v="locality" />
		<tag k="ssr:stedsnr" v="91010" />
	</node>
	<node lat="63.97952778077185" lon="10.262866675828711" id="-33383">
		<tag k="fixme" v="consider natural=peak for the most distinct mountains in the district" />
		<tag k="name" v="Rennskjotfjellet" />
		<tag k="natural" v="hill" />
		<tag k="place" v="locality" />
		<tag k="ssr:stedsnr" v="91018" />
	</node>
	<node lat="63.96675277884489" lon="10.285955554493713" id="-33384">
		<tag k="name" v="Storhaugen" />
		<tag k="natural" v="hill" />
		<tag k="place" v="locality" />
		<tag k="ssr:stedsnr" v="91022" />
	</node>
	<node lat="63.9021111094059" lon="10.046794444781366" id="-33387">
		<tag k="name" v="Høgberget" />
		<tag k="natural" v="hill" />
		<tag k="place" v="locality" />
		<tag k="ssr:stedsnr" v="91369" />
	</node>
	<node lat="64.06884721989337" lon="10.507488890299387" id="-33392">
		<tag k="name" v="Purkholet" />
		<tag k="natural" v="valley" />
		<tag k="place" v="locality" />
		<tag k="ssr:stedsnr" v="91603" />
	</node>
	<node lat="63.951091664694246" lon="10.150850005189628" id="-33394">
		<tag k="name" v="Pervika" />
		<tag k="natural" v="slope" />
		<tag k="place" v="locality" />
		<tag k="ssr:stedsnr" v="91616" />
	</node>
	<node lat="64.01033889209599" lon="10.402305558680228" id="-33395">
		<tag k="fixme" v="consider natural=peak for the most distinct mountains in the district" />
		<tag k="name" v="Granfjellet" />
		<tag k="natural" v="hill" />
		<tag k="place" v="locality" />
		<tag k="ssr:stedsnr" v="91705" />
	</node>
	<node lat="63.952741667857644" lon="10.485747215979254" id="-33396">
		<tag k="name" v="Meheia" />
		<tag k="natural" v="hill" />
		<tag k="place" v="locality" />
		<tag k="ssr:stedsnr" v="91711" />
	</node>
	<node lat="63.982997219871706" lon="10.477747216189792" id="-33397">
		<tag k="name" v="Almdalen" />
		<tag k="natural" v="valley" />
		<tag k="place" v="locality" />
		<tag k="ssr:stedsnr" v="91719" />
	</node>
	<node lat="63.978025004434144" lon="10.48556388802042" id="-33398">
		<tag k="name" v="Vika" />
		<tag k="natural" v="slope" />
		<tag k="place" v="locality" />
		<tag k="ssr:stedsnr" v="91722" />
	</node>
	<node lat="63.9364472238852" lon="10.479291676069606" id="-33399">
		<tag k="name" v="Bjørnastrupen" />
		<tag k="natural" v="valley" />
		<tag k="place" v="locality" />
		<tag k="ssr:stedsnr" v="91764" />
	</node>
	<node lat="63.97374166230505" lon="10.395847230321507" id="-33403">
		<tag k="fixme" v="consider natural=peak for the most distinct mountains in the district" />
		<tag k="name" v="Uggdalsåsen" />
		<tag k="natural" v="hill" />
		<tag k="place" v="locality" />
		<tag k="ssr:stedsnr" v="91783" />
	</node>
	<node lat="63.85571944866468" lon="10.374799993420691" id="-33409">
		<tag k="name" v="Plogbakkskardet" />
		<tag k="natural" v="valley" />
		<tag k="place" v="locality" />
		<tag k="ssr:stedsnr" v="91926" />
	</node>
	<node lat="64.00556666412433" lon="10.415902769252906" id="-33410">
		<tag k="name" v="Vargheia" />
		<tag k="natural" v="hill" />
		<tag k="place" v="locality" />
		<tag k="ssr:stedsnr" v="91866" />
	</node>
	<node lat="64.18824999916109" lon="10.405588879085084" id="-33414">
		<tag k="fixme" v="consider natural=peak for the most distinct mountains in the district" />
		<tag k="name" v="Silkehammaren" />
		<tag k="natural" v="hill" />
		<tag k="place" v="locality" />
		<tag k="ssr:stedsnr" v="92118" />
	</node>
	<node lat="64.1880138932757" lon="10.365030565762241" id="-33415">
		<tag k="fixme" v="consider natural=peak for the most distinct mountains in the district" />
		<tag k="name" v="Tømmerhylla" />
		<tag k="natural" v="hill" />
		<tag k="place" v="locality" />
		<tag k="ssr:stedsnr" v="92123" />
	</node>
	<node lat="64.05639166472008" lon="9.95250832871801" id="-33416">
		<tag k="name" v="Middagshaugen" />
		<tag k="natural" v="hill" />
		<tag k="place" v="locality" />
		<tag k="ssr:stedsnr" v="92167" />
	</node>
	<node lat="64.20216110683373" lon="10.394313882963893" id="-33420">
		<tag k="name" v="Nausthaugen" />
		<tag k="natural" v="hill" />
		<tag k="place" v="locality" />
		<tag k="ssr:stedsnr" v="92180" />
	</node>
	<node lat="64.18033889148575" lon="10.386919435454342" id="-33421">
		<tag k="name" v="Vargmyrpynten" />
		<tag k="natural" v="hill" />
		<tag k="place" v="locality" />
		<tag k="ssr:stedsnr" v="92181" />
	</node>
	<node lat="64.24971944773927" lon="10.367483340280412" id="-33422">
		<tag k="name" v="Smådalan" />
		<tag k="natural" v="valley" />
		<tag k="place" v="locality" />
		<tag k="ssr:stedsnr" v="92186" />
	</node>
	<node lat="64.1600777815258" lon="10.170658333022802" id="-33423">
		<tag k="name" v="Kvalholet" />
		<tag k="natural" v="hill" />
		<tag k="place" v="locality" />
		<tag k="ssr:stedsnr" v="92072" />
	</node>
	<node lat="64.10906944541506" lon="10.27009721510451" id="-33424">
		<tag k="name" v="Sjursvikdalen" />
		<tag k="natural" v="valley" />
		<tag k="place" v="locality" />
		<tag k="ssr:stedsnr" v="92078" />
	</node>
	<node lat="64.1085111076864" lon="10.276600006674682" id="-33425">
		<tag k="name" v="Nordveghøgda" />
		<tag k="natural" v="hill" />
		<tag k="place" v="locality" />
		<tag k="ssr:stedsnr" v="92083" />
	</node>
	<node lat="64.23234999685401" lon="10.302647228031104" id="-33426">
		<tag k="name" v="Joholet" />
		<tag k="natural" v="valley" />
		<tag k="place" v="locality" />
		<tag k="ssr:stedsnr" v="92208" />
	</node>
	<node lat="64.27129166954884" lon="10.355413882073188" id="-33427">
		<tag k="name" v="Kleivan" />
		<tag k="natural" v="hill" />
		<tag k="place" v="locality" />
		<tag k="ssr:stedsnr" v="92215" />
	</node>
	<node lat="64.17288611015717" lon="10.523102776589436" id="-33428">
		<tag k="name" v="Soløystrandlia" />
		<tag k="natural" v="slope" />
		<tag k="place" v="locality" />
		<tag k="ssr:stedsnr" v="92266" />
	</node>
	<node lat="64.13978889065609" lon="10.65376944785371" id="-33429">
		<tag k="name" v="Grønlihalsen" />
		<tag k="natural" v="valley" />
		<tag k="place" v="locality" />
		<tag k="ssr:stedsnr" v="92279" />
	</node>
	<node lat="64.13818333535485" lon="10.162127778523066" id="-33432">
		<tag k="name" v="Jardalen" />
		<tag k="natural" v="valley" />
		<tag k="place" v="locality" />
		<tag k="ssr:stedsnr" v="92864" />
	</node>
	<node lat="64.14566944510325" lon="10.157827768496572" id="-33434">
		<tag k="name" v="Hongsandhaugen" />
		<tag k="natural" v="hill" />
		<tag k="place" v="locality" />
		<tag k="ssr:stedsnr" v="92867" />
	</node>
	<node lat="64.14896110698591" lon="10.188625005704852" id="-33435">
		<tag k="name" v="Siverskardet" />
		<tag k="natural" v="valley" />
		<tag k="place" v="locality" />
		<tag k="ssr:stedsnr" v="92881" />
	</node>
	<node lat="64.01465833608742" lon="10.066163895910151" id="-33439">
		<tag k="name" v="Staggalia" />
		<tag k="natural" v="slope" />
		<tag k="place" v="locality" />
		<tag k="ssr:stedsnr" v="92964" />
	</node>
	<node lat="64.01986944707893" lon="10.090194444824416" id="-33440">
		<tag k="name" v="Tjønnlia" />
		<tag k="natural" v="slope" />
		<tag k="place" v="locality" />
		<tag k="ssr:stedsnr" v="92967" />
	</node>
	<node lat="64.00116111479159" lon="10.182341672958014" id="-33445">
		<tag k="fixme" v="consider natural=peak for the most distinct mountains in the district" />
		<tag k="name" v="Grytfjellet" />
		<tag k="natural" v="hill" />
		<tag k="place" v="locality" />
		<tag k="ssr:stedsnr" v="134112" />
	</node>
	<node lat="64.06880278115486" lon="10.168338891757672" id="-33446">
		<tag k="fixme" v="consider natural=peak for the most distinct mountains in the district" />
		<tag k="name" v="Liakammen" />
		<tag k="natural" v="hill" />
		<tag k="place" v="locality" />
		<tag k="ssr:stedsnr" v="134155" />
	</node>
	<node lat="63.92504166264707" lon="10.239600007344173" id="-33450">
		<tag k="fixme" v="consider natural=peak for the most distinct mountains in the district" />
		<tag k="name" v="Vardfjellet" />
		<tag k="natural" v="hill" />
		<tag k="place" v="locality" />
		<tag k="ssr:stedsnr" v="134368" />
	</node>
	<node lat="63.95680555215144" lon="10.356744450404534" id="-33454">
		<tag k="name" v="Rundhaugen" />
		<tag k="natural" v="hill" />
		<tag k="place" v="locality" />
		<tag k="ssr:stedsnr" v="134405" />
	</node>
	<node lat="64.14941666842041" lon="10.383819438862123" id="-33457">
		<tag k="name" v="Gaupdalen" />
		<tag k="natural" v="valley" />
		<tag k="place" v="locality" />
		<tag k="ssr:stedsnr" v="134456" />
	</node>
	<node lat="64.02550555183142" lon="10.591897221348884" id="-33460">
		<tag k="name" v="Leirdalan" />
		<tag k="natural" v="valley" />
		<tag k="place" v="locality" />
		<tag k="ssr:stedsnr" v="134707" />
	</node>
	<node lat="64.21598888821022" lon="10.514769435253218" id="-33465">
		<tag k="name" v="Vardeheia" />
		<tag k="natural" v="hill" />
		<tag k="place" v="locality" />
		<tag k="ssr:stedsnr" v="135010" />
	</node>
	<node lat="64.20554166609475" lon="10.479838888299103" id="-33466">
		<tag k="alt_name" v="Setervasshøgda" />
		<tag k="fixme" v="consider natural=peak for the most distinct mountains in the district" />
		<tag k="name" v="Fremre Setervasshøgda" />
		<tag k="natural" v="hill" />
		<tag k="place" v="locality" />
		<tag k="ssr:stedsnr" v="135015" />
	</node>
	<node lat="64.21055277967812" lon="10.397130556495037" id="-33467">
		<tag k="name" v="Botnan" />
		<tag k="natural" v="valley" />
		<tag k="place" v="locality" />
		<tag k="ssr:stedsnr" v="135021" />
	</node>
	<node lat="64.03584444165068" lon="10.438466671609767" id="-33472">
		<tag k="name" v="Bukkastakkhaugen" />
		<tag k="natural" v="hill" />
		<tag k="place" v="locality" />
		<tag k="ssr:stedsnr" v="135252" />
	</node>
	<node lat="64.0517555582601" lon="10.554750007732036" id="-33475">
		<tag k="alt_name" v="Vester Haukvassheia;Haukvassheia, vestre" />
		<tag k="fixme" v="consider natural=peak for the most distinct mountains in the district" />
		<tag k="name" v="Vestre Haukvassheia" />
		<tag k="natural" v="hill" />
		<tag k="place" v="locality" />
		<tag k="ssr:stedsnr" v="135263" />
	</node>
	<node lat="64.18154166736309" lon="10.455358334608388" id="-33480">
		<tag k="fixme" v="consider natural=peak for the most distinct mountains in the district" />
		<tag k="name" v="Blåfetfjellet" />
		<tag k="natural" v="hill" />
		<tag k="place" v="locality" />
		<tag k="ssr:stedsnr" v="135457" />
	</node>
	<node lat="64.18539444599548" lon="10.325011103129743" id="-33484">
		<tag k="name" v="Hagaskardet" />
		<tag k="natural" v="valley" />
		<tag k="place" v="locality" />
		<tag k="ssr:stedsnr" v="135466" />
	</node>
	<node lat="64.11730833729969" lon="10.266822218016614" id="-33485">
		<tag k="fixme" v="consider natural=peak for the most distinct mountains in the district" />
		<tag k="name" v="Smefjellet" />
		<tag k="natural" v="hill" />
		<tag k="place" v="locality" />
		<tag k="ssr:stedsnr" v="142865" />
	</node>
	<node lat="63.921341666739565" lon="10.42315833196674" id="-33492">
		<tag k="name" v="Vinnahaugen" />
		<tag k="natural" v="hill" />
		<tag k="place" v="locality" />
		<tag k="ssr:stedsnr" v="255339" />
	</node>
	<node lat="64.07228888840835" lon="10.192263882754123" id="-33501">
		<tag k="fixme" v="consider natural=peak for the most distinct mountains in the district" />
		<tag k="name" v="Isaksla" />
		<tag k="natural" v="hill" />
		<tag k="place" v="locality" />
		<tag k="ssr:stedsnr" v="256126" />
	</node>
	<node lat="63.97508055268548" lon="10.223180556204495" id="-33513">
		<tag k="name" v="Brattskardet" />
		<tag k="natural" v="valley" />
		<tag k="place" v="locality" />
		<tag k="ssr:stedsnr" v="256156" />
	</node>
	<node lat="63.99403611508134" lon="10.425116675027597" id="-33516">
		<tag k="fixme" v="consider natural=peak for the most distinct mountains in the district" />
		<tag k="name" v="Hårstadfjellet" />
		<tag k="natural" v="hill" />
		<tag k="place" v="locality" />
		<tag k="ssr:stedsnr" v="256182" />
	</node>
	<node lat="64.14509722179999" lon="10.2073888905738" id="-33517">
		<tag k="fixme" v="consider natural=peak for the most distinct mountains in the district" />
		<tag k="name" v="Himmerikfjellet" />
		<tag k="natural" v="hill" />
		<tag k="place" v="locality" />
		<tag k="ssr:stedsnr" v="256194" />
	</node>
	<node lat="64.07900000090915" lon="10.699744453187412" id="-33526">
		<tag k="fixme" v="consider natural=peak for the most distinct mountains in the district" />
		<tag k="name" v="Lonheia" />
		<tag k="natural" v="hill" />
		<tag k="place" v="locality" />
		<tag k="ssr:stedsnr" v="256286" />
	</node>
	<node lat="64.09220833649394" lon="10.221836107359705" id="-33529">
		<tag k="name" v="Øykvikskardet" />
		<tag k="natural" v="valley" />
		<tag k="place" v="locality" />
		<tag k="ssr:stedsnr" v="256299" />
	</node>
	<node lat="64.14878055885154" lon="10.266200001370791" id="-33532">
		<tag k="fixme" v="consider natural=peak for the most distinct mountains in the district" />
		<tag k="name" v="Høgbakkheia" />
		<tag k="natural" v="hill" />
		<tag k="place" v="locality" />
		<tag k="ssr:stedsnr" v="256380" />
	</node>
	<node lat="64.14739444185473" lon="10.242577786956119" id="-33533">
		<tag k="fixme" v="consider natural=peak for the most distinct mountains in the district" />
		<tag k="name" v="Nypa" />
		<tag k="natural" v="hill" />
		<tag k="place" v="locality" />
		<tag k="ssr:stedsnr" v="256383" />
	</node>
	<node lat="64.18618332948947" lon="10.3175166693361" id="-33534">
		<tag k="fixme" v="consider natural=peak for the most distinct mountains in the district" />
		<tag k="name" v="Ruvllia" />
		<tag k="natural" v="hill" />
		<tag k="place" v="locality" />
		<tag k="ssr:stedsnr" v="256439" />
	</node>
	<node lat="64.11168333483289" lon="10.592038892379831" id="-33539">
		<tag k="fixme" v="consider natural=peak for the most distinct mountains in the district" />
		<tag k="name" v="Seterfjellet" />
		<tag k="natural" v="hill" />
		<tag k="place" v="locality" />
		<tag k="ssr:stedsnr" v="256340" />
	</node>
	<node lat="64.11501666347792" lon="10.334202772145622" id="-33541">
		<tag k="fixme" v="consider natural=peak for the most distinct mountains in the district" />
		<tag k="name" v="Svartholheia" />
		<tag k="natural" v="hill" />
		<tag k="place" v="locality" />
		<tag k="ssr:stedsnr" v="256343" />
	</node>
	<node lat="64.13354444340803" lon="10.49905555201775" id="-33542">
		<tag k="fixme" v="consider natural=peak for the most distinct mountains in the district" />
		<tag k="name" v="Grovalikollen" />
		<tag k="natural" v="hill" />
		<tag k="place" v="locality" />
		<tag k="ssr:stedsnr" v="256350" />
	</node>
	<node lat="63.90689444721934" lon="10.038099997738035" id="-33554">
		<tag k="alt_name" v="Kammaskardet" />
		<tag k="name" v="Skaret" />
		<tag k="natural" v="valley" />
		<tag k="place" v="locality" />
		<tag k="ssr:stedsnr" v="256584" />
	</node>
	<node lat="64.07826944075916" lon="10.185652782136874" id="-33555">
		<tag k="fixme" v="consider natural=peak for the most distinct mountains in the district" />
		<tag k="name" v="Krokanfjellet" />
		<tag k="natural" v="hill" />
		<tag k="place" v="locality" />
		<tag k="ssr:stedsnr" v="151504" />
	</node>
	<node lat="63.95396666674983" lon="9.97631667099785" id="-33558">
		<tag k="name" v="Hamkilhaugen" />
		<tag k="natural" v="hill" />
		<tag k="place" v="locality" />
		<tag k="ssr:stedsnr" v="152104" />
	</node>
	<node lat="64.0069111073443" lon="10.300780546140182" id="-33560">
		<tag k="name" v="Buenget" />
		<tag k="natural" v="slope" />
		<tag k="place" v="locality" />
		<tag k="ssr:stedsnr" v="152114" />
	</node>
	<node lat="63.98990833588578" lon="10.265330547422806" id="-33561">
		<tag k="name" v="Buktadalen" />
		<tag k="natural" v="valley" />
		<tag k="place" v="locality" />
		<tag k="ssr:stedsnr" v="152119" />
	</node>
	<node lat="63.96760833453807" lon="10.111522215554984" id="-33562">
		<tag k="name" v="Engdalen" />
		<tag k="natural" v="valley" />
		<tag k="place" v="locality" />
		<tag k="ssr:stedsnr" v="152120" />
	</node>
	<node lat="64.18425277787574" lon="10.29956111154985" id="-33564">
		<tag k="name" v="Sørholet" />
		<tag k="natural" v="valley" />
		<tag k="place" v="locality" />
		<tag k="ssr:stedsnr" v="152123" />
	</node>
	<node lat="64.02807777394236" lon="10.300747221745233" id="-33565">
		<tag k="name" v="Fjellsauna" />
		<tag k="natural" v="hill" />
		<tag k="place" v="locality" />
		<tag k="ssr:stedsnr" v="152124" />
	</node>
	<node lat="63.89317777644859" lon="10.061097226861566" id="-33568">
		<tag k="name" v="Merraholet" />
		<tag k="natural" v="hill" />
		<tag k="place" v="locality" />
		<tag k="ssr:stedsnr" v="152132" />
	</node>
	<node lat="64.18931666428409" lon="10.237544452163869" id="-33570">
		<tag k="fixme" v="consider natural=peak for the most distinct mountains in the district" />
		<tag k="name" v="Grønnlifjellet" />
		<tag k="natural" v="hill" />
		<tag k="place" v="locality" />
		<tag k="ssr:stedsnr" v="152007" />
	</node>
	<node lat="63.983788885573055" lon="10.296150006404245" id="-33571">
		<tag k="name" v="Merradalen" />
		<tag k="natural" v="valley" />
		<tag k="place" v="locality" />
		<tag k="ssr:stedsnr" v="152010" />
	</node>
	<node lat="63.93625000370065" lon="10.268569446241745" id="-33575">
		<tag k="name" v="Sørlia" />
		<tag k="natural" v="slope" />
		<tag k="place" v="locality" />
		<tag k="ssr:stedsnr" v="152059" />
	</node>
	<node lat="63.96740832988806" lon="9.980041665371663" id="-33576">
		<tag k="name" v="Bakkahaugen" />
		<tag k="natural" v="hill" />
		<tag k="place" v="locality" />
		<tag k="ssr:stedsnr" v="152063" />
	</node>
	<node lat="64.05287778182684" lon="10.134066664045296" id="-33580">
		<tag k="name" v="Storbukthaugen" />
		<tag k="natural" v="hill" />
		<tag k="place" v="locality" />
		<tag k="ssr:stedsnr" v="152204" />
	</node>
	<node lat="64.24918888459982" lon="10.34610000547476" id="-33581">
		<tag k="fixme" v="consider natural=peak for the most distinct mountains in the district" />
		<tag k="name" v="Hundskardfjellet" />
		<tag k="natural" v="hill" />
		<tag k="place" v="locality" />
		<tag k="ssr:stedsnr" v="152256" />
	</node>
	<node lat="64.06736389050624" lon="10.633272225011819" id="-33584">
		<tag k="name" v="Habroheilia" />
		<tag k="natural" v="slope" />
		<tag k="place" v="locality" />
		<tag k="ssr:stedsnr" v="152467" />
	</node>
	<node lat="64.08178055812455" lon="10.135038880810315" id="-33586">
		<tag k="name" v="Lukasvika" />
		<tag k="place" v="locality" />
		<tag k="ssr:stedsnr" v="152154" />
	</node>
	<node lat="64.07481666371247" lon="10.160927775216226" id="-33587">
		<tag k="name" v="Liin" />
		<tag k="natural" v="slope" />
		<tag k="place" v="locality" />
		<tag k="ssr:stedsnr" v="152157" />
	</node>
	<node lat="64.17249166487558" lon="10.328019445928996" id="-33589">
		<tag k="name" v="Kvernalia" />
		<tag k="natural" v="slope" />
		<tag k="place" v="locality" />
		<tag k="ssr:stedsnr" v="152308" />
	</node>
	<node lat="64.1105833307586" lon="10.382705555186648" id="-33590">
		<tag k="name" v="Krokvasslia" />
		<tag k="natural" v="slope" />
		<tag k="place" v="locality" />
		<tag k="ssr:stedsnr" v="152315" />
	</node>
	<node lat="63.984333332636645" lon="10.017238884613976" id="-33592">
		<tag k="fixme" v="consider natural=peak for the most distinct mountains in the district" />
		<tag k="name" v="Kufjellet" />
		<tag k="natural" v="hill" />
		<tag k="place" v="locality" />
		<tag k="ssr:stedsnr" v="152356" />
	</node>
	<node lat="63.90325555828581" lon="10.252513886221836" id="-33596">
		<tag k="fixme" v="consider natural=peak for the most distinct mountains in the district" />
		<tag k="name" v="Skallen" />
		<tag k="natural" v="hill" />
		<tag k="place" v="locality" />
		<tag k="ssr:stedsnr" v="152664" />
	</node>
	<node lat="64.05990555541177" lon="10.377413894035097" id="-33597">
		<tag k="name" v="Litl-Nittalia" />
		<tag k="natural" v="slope" />
		<tag k="place" v="locality" />
		<tag k="ssr:stedsnr" v="152665" />
	</node>
	<node lat="64.03493332937055" lon="10.452941660269358" id="-33599">
		<tag k="name" v="Kråklia" />
		<tag k="natural" v="slope" />
		<tag k="place" v="locality" />
		<tag k="ssr:stedsnr" v="152671" />
	</node>
	<node lat="64.04634999699947" lon="9.963819443355163" id="-33601">
		<tag k="name" v="Legden" />
		<tag k="natural" v="hill" />
		<tag k="place" v="locality" />
		<tag k="ssr:stedsnr" v="152807" />
	</node>
	<node lat="64.05971389187651" lon="10.058633340648507" id="-33602">
		<tag k="fixme" v="consider natural=peak for the most distinct mountains in the district" />
		<tag k="name" v="Svana" />
		<tag k="natural" v="hill" />
		<tag k="place" v="locality" />
		<tag k="ssr:stedsnr" v="152813" />
	</node>
	<node lat="63.96366388666294" lon="10.441816658618684" id="-33603">
		<tag k="fixme" v="consider natural=peak for the most distinct mountains in the district" />
		<tag k="name" v="Bengelholklumpen" />
		<tag k="natural" v="hill" />
		<tag k="place" v="locality" />
		<tag k="ssr:stedsnr" v="152814" />
	</node>
	<node lat="64.01698055462242" lon="10.502891659829066" id="-33609">
		<tag k="fixme" v="consider natural=peak for the most distinct mountains in the district" />
		<tag k="name" v="Tømmerfjellet" />
		<tag k="natural" v="hill" />
		<tag k="place" v="locality" />
		<tag k="ssr:stedsnr" v="152562" />
	</node>
	<node lat="64.0271694462919" lon="10.410436105616883" id="-33610">
		<tag k="name" v="Storengdalen" />
		<tag k="natural" v="valley" />
		<tag k="place" v="locality" />
		<tag k="ssr:stedsnr" v="152704" />
	</node>
	<node lat="63.953361115419085" lon="10.490794446810158" id="-33613">
		<tag k="name" v="Bjørklia" />
		<tag k="natural" v="slope" />
		<tag k="place" v="locality" />
		<tag k="ssr:stedsnr" v="152714" />
	</node>
	<node lat="63.94171666513539" lon="10.482641671103584" id="-33615">
		<tag k="name" v="Hælen" />
		<tag k="natural" v="valley" />
		<tag k="place" v="locality" />
		<tag k="ssr:stedsnr" v="152757" />
	</node>
	<node lat="63.98664722248569" lon="10.199599989801486" id="-33616">
		<tag k="name" v="Fjellenden" />
		<tag k="place" v="locality" />
		<tag k="ssr:stedsnr" v="152764" />
	</node>
	<node lat="63.972330558647045" lon="10.205133332839535" id="-33617">
		<tag k="name" v="Buengdalen" />
		<tag k="natural" v="valley" />
		<tag k="place" v="locality" />
		<tag k="ssr:stedsnr" v="152766" />
	</node>
	<node lat="63.98434444452898" lon="10.205361118353633" id="-33618">
		<tag k="name" v="Skolalia" />
		<tag k="natural" v="slope" />
		<tag k="place" v="locality" />
		<tag k="ssr:stedsnr" v="152768" />
	</node>
	<node lat="63.907619446672044" lon="10.44306111093531" id="-33621">
		<tag k="name" v="Svartbekkhhaugen" />
		<tag k="natural" v="hill" />
		<tag k="place" v="locality" />
		<tag k="ssr:stedsnr" v="152902" />
	</node>
	<node lat="64.15282222062903" lon="10.181102781611536" id="-33622">
		<tag k="fixme" v="consider natural=peak for the most distinct mountains in the district" />
		<tag k="name" v="Torvfjellet" />
		<tag k="natural" v="hill" />
		<tag k="place" v="locality" />
		<tag k="ssr:stedsnr" v="152903" />
	</node>
	<node lat="64.03257222221956" lon="10.123649995386154" id="-33623">
		<tag k="name" v="Gråkammen" />
		<tag k="natural" v="ridge" />
		<tag k="place" v="locality" />
		<tag k="ssr:stedsnr" v="152904" />
	</node>
	<node lat="64.02094166469986" lon="10.072847219175042" id="-33626">
		<tag k="name" v="Tytberbakkan" />
		<tag k="natural" v="slope" />
		<tag k="place" v="locality" />
		<tag k="ssr:stedsnr" v="152967" />
	</node>
	<node lat="64.03536110853905" lon="10.753277780124586" id="-33628">
		<tag k="name" v="Finnburskardet" />
		<tag k="natural" v="valley" />
		<tag k="place" v="locality" />
		<tag k="ssr:stedsnr" v="256932" />
	</node>
	<node lat="64.01469999825744" lon="9.905813894209945" id="-33633">
		<tag k="fixme" v="consider natural=peak for the most distinct mountains in the district" />
		<tag k="name" v="Linesfjellet" />
		<tag k="natural" v="hill" />
		<tag k="place" v="locality" />
		<tag k="ssr:stedsnr" v="257080" />
	</node>
	<node lat="64.09156111071275" lon="10.053427787363361" id="-33634">
		<tag k="name" v="Oterdalen" />
		<tag k="natural" v="valley" />
		<tag k="place" v="locality" />
		<tag k="ssr:stedsnr" v="257167" />
	</node>
	<node lat="64.04407499691058" lon="10.27695000326228" id="-33638">
		<tag k="name" v="Oksliklumpen" />
		<tag k="natural" v="hill" />
		<tag k="place" v="locality" />
		<tag k="ssr:stedsnr" v="257296" />
	</node>
	<node lat="64.16180000119988" lon="10.427441664535172" id="-33640">
		<tag k="fixme" v="consider natural=peak for the most distinct mountains in the district" />
		<tag k="name" v="Spannklumpen" />
		<tag k="natural" v="hill" />
		<tag k="place" v="locality" />
		<tag k="ssr:stedsnr" v="257488" />
	</node>
	<node lat="64.16923055700772" lon="10.347363894929455" id="-33643">
		<tag k="fixme" v="consider natural=peak for the most distinct mountains in the district" />
		<tag k="name" v="Stormunken" />
		<tag k="natural" v="hill" />
		<tag k="place" v="locality" />
		<tag k="ssr:stedsnr" v="257494" />
	</node>
	<node lat="63.96917500217574" lon="10.330361118356413" id="-33645">
		<tag k="name" v="Svartdalen" />
		<tag k="natural" v="valley" />
		<tag k="place" v="locality" />
		<tag k="ssr:stedsnr" v="257854" />
	</node>
	<node lat="64.03909167001297" lon="10.379991666620377" id="-33657">
		<tag k="fixme" v="consider natural=peak for the most distinct mountains in the district" />
		<tag k="name" v="Nittafjellet" />
		<tag k="natural" v="hill" />
		<tag k="place" v="locality" />
		<tag k="ssr:stedsnr" v="263111" />
	</node>
	<node lat="64.26073610906444" lon="10.38490832999061" id="-33658">
		<tag k="alt_name" v="Skjelden" />
		<tag k="fixme" v="consider natural=peak for the most distinct mountains in the district" />
		<tag k="name" v="Vikskjelm" />
		<tag k="natural" v="hill" />
		<tag k="place" v="locality" />
		<tag k="ssr:stedsnr" v="263456" />
	</node>
	<node lat="64.13281944657514" lon="10.14158611443021" id="-33659">
		<tag k="name" v="Aksla" />
		<tag k="place" v="locality" />
		<tag k="ssr:stedsnr" v="267472" />
	</node>
	<node lat="64.12011111005944" lon="10.184313889207338" id="-33660">
		<tag k="name" v="Litlheia" />
		<tag k="natural" v="hill" />
		<tag k="place" v="locality" />
		<tag k="ssr:stedsnr" v="267475" />
	</node>
	<node lat="63.9240666646263" lon="10.507908333993042" id="-33663">
		<tag k="fixme" v="consider natural=peak for the most distinct mountains in the district" />
		<tag k="loc_name" v="Klumpen" />
		<tag k="name" v="Kvitkrekkaliklumpen" />
		<tag k="natural" v="hill" />
		<tag k="place" v="locality" />
		<tag k="ssr:stedsnr" v="195363" />
	</node>
	<node lat="63.89227202662189" lon="9.999448468618874" id="-33664">
		<tag k="alt_name" v="Hummelvikheian" />
		<tag k="name" v="Hommelvikheian" />
		<tag k="natural" v="hill" />
		<tag k="place" v="locality" />
		<tag k="ssr:stedsnr" v="195597" />
	</node>
	<node lat="63.99026389158519" lon="10.152466657952827" id="-33665">
		<tag k="name" v="Langdalen" />
		<tag k="natural" v="valley" />
		<tag k="place" v="locality" />
		<tag k="ssr:stedsnr" v="195707" />
	</node>
	<node lat="63.90790833311294" lon="10.165819454239081" id="-33668">
		<tag k="name" v="Damheia" />
		<tag k="natural" v="hill" />
		<tag k="place" v="locality" />
		<tag k="ssr:stedsnr" v="195609" />
	</node>
	<node lat="64.2287027820259" lon="10.356069443865172" id="-33672">
		<tag k="fixme" v="consider natural=peak for the most distinct mountains in the district" />
		<tag k="name" v="Blåfjellet" />
		<tag k="natural" v="hill" />
		<tag k="place" v="locality" />
		<tag k="ssr:stedsnr" v="196056" />
	</node>
	<node lat="64.03279166588437" lon="10.062324997885002" id="-33675">
		<tag k="alt_name" v="Åkenesfjellet" />
		<tag k="fixme" v="consider natural=peak for the most distinct mountains in the district" />
		<tag k="name" v="Åknesfjellet" />
		<tag k="natural" v="hill" />
		<tag k="place" v="locality" />
		<tag k="ssr:stedsnr" v="196108" />
	</node>
	<node lat="64.06721944093637" lon="10.089216659301846" id="-33678">
		<tag k="fixme" v="consider natural=peak for the most distinct mountains in the district" />
		<tag k="name" v="Brennfjell" />
		<tag k="natural" v="hill" />
		<tag k="place" v="locality" />
		<tag k="ssr:stedsnr" v="196134" />
	</node>
	<node lat="64.09003610976629" lon="10.607213886822" id="-33687">
		<tag k="fixme" v="consider natural=peak for the most distinct mountains in the district" />
		<tag k="name" v="Vardheia" />
		<tag k="natural" v="hill" />
		<tag k="place" v="locality" />
		<tag k="ssr:stedsnr" v="196281" />
	</node>
	<node lat="64.09818333512354" lon="10.242249992601337" id="-33691">
		<tag k="fixme" v="consider natural=peak for the most distinct mountains in the district" />
		<tag k="name" v="Ramnfjellet" />
		<tag k="natural" v="hill" />
		<tag k="place" v="locality" />
		<tag k="ssr:stedsnr" v="196295" />
	</node>
	<node lat="63.983941669495486" lon="10.257819451633274" id="-33694">
		<tag k="name" v="Almlia" />
		<tag k="natural" v="slope" />
		<tag k="place" v="locality" />
		<tag k="ssr:stedsnr" v="196182" />
	</node>
	<node lat="63.78643333578475" lon="10.451219446057843" id="-33695">
		<tag k="name" v="Klokkatospiren" />
		<tag k="natural" v="hill" />
		<tag k="place" v="locality" />
		<tag k="ssr:stedsnr" v="196383" />
	</node>
	<node lat="64.15308332974037" lon="10.72278333461998" id="-33700">
		<tag k="name" v="Sørlia" />
		<tag k="natural" v="slope" />
		<tag k="place" v="locality" />
		<tag k="ssr:stedsnr" v="196559" />
	</node>
	<node lat="64.27121388790825" lon="10.378827783685319" id="-33701">
		<tag k="alt_name" v="Litlskåret" />
		<tag k="name" v="Litlskardet" />
		<tag k="natural" v="valley" />
		<tag k="place" v="locality" />
		<tag k="ssr:stedsnr" v="196560" />
	</node>
	<node lat="64.02017777834676" lon="10.329674997990248" id="-33702">
		<tag k="fixme" v="consider natural=peak for the most distinct mountains in the district" />
		<tag k="name" v="Storlipynten" />
		<tag k="natural" v="hill" />
		<tag k="place" v="locality" />
		<tag k="ssr:stedsnr" v="196703" />
	</node>
	<node lat="64.02452222096481" lon="10.299452780637676" id="-33703">
		<tag k="fixme" v="consider natural=peak for the most distinct mountains in the district" />
		<tag k="name" v="Storstakkheia" />
		<tag k="natural" v="hill" />
		<tag k="place" v="locality" />
		<tag k="ssr:stedsnr" v="196704" />
	</node>
	<node lat="64.00048333053518" lon="10.219408329644345" id="-33718">
		<tag k="name" v="Valleraunberga" />
		<tag k="natural" v="hill" />
		<tag k="place" v="locality" />
		<tag k="ssr:stedsnr" v="213102" />
	</node>
	<node lat="64.00824722101291" lon="10.279116666933293" id="-33720">
		<tag k="name" v="Seterlia" />
		<tag k="natural" v="slope" />
		<tag k="place" v="locality" />
		<tag k="ssr:stedsnr" v="213111" />
	</node>
	<node lat="63.993536113683454" lon="10.284463884321575" id="-33721">
		<tag k="fixme" v="consider natural=peak for the most distinct mountains in the district" />
		<tag k="name" v="Imsadalsfjellet" />
		<tag k="natural" v="hill" />
		<tag k="place" v="locality" />
		<tag k="ssr:stedsnr" v="213112" />
	</node>
	<node lat="64.02048055122583" lon="10.321066676291569" id="-33723">
		<tag k="name" v="Bjørbuholet" />
		<tag k="natural" v="valley" />
		<tag k="place" v="locality" />
		<tag k="ssr:stedsnr" v="213130" />
	</node>
	<node lat="63.966033331938824" lon="10.271302785310096" id="-33724">
		<tag k="name" v="Tostendalen" />
		<tag k="natural" v="valley" />
		<tag k="place" v="locality" />
		<tag k="ssr:stedsnr" v="213005" />
	</node>
	<node lat="63.92023055365114" lon="10.057913882695292" id="-33725">
		<tag k="name" v="Mjøneshammaren" />
		<tag k="natural" v="hill" />
		<tag k="place" v="locality" />
		<tag k="ssr:stedsnr" v="213010" />
	</node>
	<node lat="64.19374444179854" lon="10.281063879021794" id="-33731">
		<tag k="name" v="Innerskåret" />
		<tag k="natural" v="valley" />
		<tag k="place" v="locality" />
		<tag k="ssr:stedsnr" v="213029" />
	</node>
	<node lat="64.12007499704653" lon="10.281466661714854" id="-33734">
		<tag k="name" v="Oladalen" />
		<tag k="natural" v="valley" />
		<tag k="place" v="locality" />
		<tag k="ssr:stedsnr" v="213087" />
	</node>
	<node lat="64.23961388731063" lon="10.337744447007822" id="-33737">
		<tag k="name" v="Gaddheia" />
		<tag k="natural" v="hill" />
		<tag k="place" v="locality" />
		<tag k="ssr:stedsnr" v="213228" />
	</node>
	<node lat="63.95763055239671" lon="10.655877769603888" id="-33743">
		<tag k="name" v="Vakkerlia" />
		<tag k="natural" v="slope" />
		<tag k="place" v="locality" />
		<tag k="ssr:stedsnr" v="213408" />
	</node>
	<node lat="63.96553055950741" lon="10.651272217771579" id="-33744">
		<tag k="name" v="Svartberget" />
		<tag k="natural" v="hill" />
		<tag k="place" v="locality" />
		<tag k="ssr:stedsnr" v="213411" />
	</node>
	<node lat="63.97465000123279" lon="10.662958332384038" id="-33745">
		<tag k="name" v="Finnlidalen" />
		<tag k="natural" v="valley" />
		<tag k="place" v="locality" />
		<tag k="ssr:stedsnr" v="213424" />
	</node>
	<node lat="63.97859444555092" lon="10.655625001583477" id="-33746">
		<tag k="name" v="Litllia" />
		<tag k="natural" v="slope" />
		<tag k="place" v="locality" />
		<tag k="ssr:stedsnr" v="213427" />
	</node>
	<node lat="64.24594722669357" lon="10.397947214697009" id="-33747">
		<tag k="name" v="Jens Jensadalen" />
		<tag k="natural" v="valley" />
		<tag k="place" v="locality" />
		<tag k="ssr:stedsnr" v="213174" />
	</node>
	<node lat="64.11299722104127" lon="10.15671388275554" id="-33752">
		<tag k="name" v="Furuhaugan" />
		<tag k="natural" v="hill" />
		<tag k="place" v="locality" />
		<tag k="ssr:stedsnr" v="213307" />
	</node>
	<node lat="64.13653333217144" lon="10.439786106520991" id="-33753">
		<tag k="name" v="Gjertruskardet" />
		<tag k="natural" v="valley" />
		<tag k="place" v="locality" />
		<tag k="ssr:stedsnr" v="213311" />
	</node>
	<node lat="64.21211666984348" lon="10.48658055039578" id="-33755">
		<tag k="fixme" v="consider natural=peak for the most distinct mountains in the district" />
		<tag k="name" v="Nordkrummen" />
		<tag k="natural" v="hill" />
		<tag k="place" v="locality" />
		<tag k="ssr:stedsnr" v="213387" />
	</node>
	<node lat="64.08869444491343" lon="10.50615000455103" id="-33757">
		<tag k="name" v="Fausklia" />
		<tag k="natural" v="slope" />
		<tag k="place" v="locality" />
		<tag k="ssr:stedsnr" v="213606" />
	</node>
	<node lat="64.06748611535997" lon="10.547541668707831" id="-33759">
		<tag k="name" v="Svensken" />
		<tag k="natural" v="slope" />
		<tag k="place" v="locality" />
		<tag k="ssr:stedsnr" v="213626" />
	</node>
	<node lat="64.07029721859041" lon="10.012547227768218" id="-33767">
		<tag k="name" v="Sundaberga" />
		<tag k="natural" v="hill" />
		<tag k="place" v="locality" />
		<tag k="ssr:stedsnr" v="213808" />
	</node>
	<node lat="64.05354999871423" lon="10.045263891012056" id="-33768">
		<tag k="fixme" v="consider natural=peak for the most distinct mountains in the district" />
		<tag k="name" v="Mariklova" />
		<tag k="natural" v="hill" />
		<tag k="place" v="locality" />
		<tag k="ssr:stedsnr" v="213813" />
	</node>
	<node lat="63.91333889173882" lon="10.125497217848606" id="-33774">
		<tag k="name" v="Stormyrhaugen" />
		<tag k="natural" v="hill" />
		<tag k="place" v="locality" />
		<tag k="ssr:stedsnr" v="213587" />
	</node>
	<node lat="64.00394444283914" lon="9.910758328689058" id="-33776">
		<tag k="name" v="Skoglidalen" />
		<tag k="natural" v="valley" />
		<tag k="place" v="locality" />
		<tag k="ssr:stedsnr" v="213703" />
	</node>
	<node lat="64.01112222431804" lon="10.430774995100307" id="-33777">
		<tag k="name" v="Bjørklia" />
		<tag k="natural" v="slope" />
		<tag k="place" v="locality" />
		<tag k="ssr:stedsnr" v="213704" />
	</node>
	<node lat="63.9777138852551" lon="10.456508332715847" id="-33778">
		<tag k="name" v="Smistudalen" />
		<tag k="natural" v="valley" />
		<tag k="place" v="locality" />
		<tag k="ssr:stedsnr" v="213727" />
	</node>
	<node lat="63.97563611391536" lon="10.404450007173043" id="-33779">
		<tag k="fixme" v="consider natural=peak for the most distinct mountains in the district" />
		<tag k="name" v="Torskrekkan" />
		<tag k="natural" v="hill" />
		<tag k="place" v="locality" />
		<tag k="ssr:stedsnr" v="213775" />
	</node>
	<node lat="63.99829722253769" lon="10.40062223071615" id="-33783">
		<tag k="name" v="Storskardheia" />
		<tag k="natural" v="hill" />
		<tag k="place" v="locality" />
		<tag k="ssr:stedsnr" v="213790" />
	</node>
	<node lat="64.05732222063475" lon="9.955677786663456" id="-33784">
		<tag k="name" v="Stålihaugen" />
		<tag k="natural" v="hill" />
		<tag k="place" v="locality" />
		<tag k="ssr:stedsnr" v="213791" />
	</node>
	<node lat="64.07450000060447" lon="10.034161113126226" id="-33790">
		<tag k="name" v="Rammelmyrhaugen" />
		<tag k="natural" v="hill" />
		<tag k="place" v="locality" />
		<tag k="ssr:stedsnr" v="213976" />
	</node>
	<node lat="64.02158611434429" lon="10.116397232025086" id="-33793">
		<tag k="fixme" v="consider natural=peak for the most distinct mountains in the district" />
		<tag k="name" v="Hesjbenknova" />
		<tag k="natural" v="hill" />
		<tag k="place" v="locality" />
		<tag k="ssr:stedsnr" v="213995" />
	</node>
	<node lat="64.1474277783366" lon="10.34855555398438" id="-33795">
		<tag k="name" v="Sagmoen" />
		<tag k="place" v="locality" />
		<tag k="ssr:stedsnr" v="214334" />
	</node>
	<node lat="64.07382500034058" lon="10.169325001688627" id="-33809">
		<tag k="name" v="Høghaugen" />
		<tag k="natural" v="hill" />
		<tag k="place" v="locality" />
		<tag k="ssr:stedsnr" v="455137" />
	</node>
	<node lat="64.06831666486312" lon="10.133380560836285" id="-33810">
		<tag k="name" v="Vorphaugen" />
		<tag k="natural" v="hill" />
		<tag k="place" v="locality" />
		<tag k="ssr:stedsnr" v="455140" />
	</node>
	<node lat="64.0525611122928" lon="10.639358340326408" id="-33812">
		<tag k="name" v="Hyttjønnesa" />
		<tag k="place" v="locality" />
		<tag k="ssr:stedsnr" v="455431" />
	</node>
	<node lat="64.18559444415595" lon="10.246222225849408" id="-33814">
		<tag k="name" v="Bjørndalsklumpen" />
		<tag k="natural" v="hill" />
		<tag k="place" v="locality" />
		<tag k="ssr:stedsnr" v="456001" />
	</node>
	<node lat="63.96575833003151" lon="10.291138895424023" id="-33815">
		<tag k="name" v="Øysterlia" />
		<tag k="natural" v="slope" />
		<tag k="place" v="locality" />
		<tag k="ssr:stedsnr" v="456071" />
	</node>
	<node lat="64.2058861138677" lon="10.318669440163722" id="-33816">
		<tag k="name" v="Kroken" />
		<tag k="natural" v="valley" />
		<tag k="place" v="locality" />
		<tag k="ssr:stedsnr" v="456072" />
	</node>
	<node lat="63.98041111064259" lon="10.687027775008342" id="-33825">
		<tag k="name" v="Moen" />
		<tag k="place" v="locality" />
		<tag k="ssr:stedsnr" v="455384" />
	</node>
	<node lat="64.01749722371791" lon="10.449966661674356" id="-33827">
		<tag k="name" v="Sør-Orilldalen" />
		<tag k="natural" v="valley" />
		<tag k="place" v="locality" />
		<tag k="ssr:stedsnr" v="455646" />
	</node>
	<node lat="64.01404722103837" lon="10.451202787397236" id="-33828">
		<tag k="fixme" v="consider natural=peak for the most distinct mountains in the district" />
		<tag k="name" v="Bjørnatåa" />
		<tag k="natural" v="hill" />
		<tag k="place" v="locality" />
		<tag k="ssr:stedsnr" v="455653" />
	</node>
	<node lat="63.975652774503764" lon="10.39446944408077" id="-33830">
		<tag k="name" v="Olderbakken" />
		<tag k="natural" v="slope" />
		<tag k="place" v="locality" />
		<tag k="ssr:stedsnr" v="455749" />
	</node>
	<node lat="63.967247219351144" lon="10.395161114086719" id="-33831">
		<tag k="name" v="Fregglia" />
		<tag k="natural" v="slope" />
		<tag k="place" v="locality" />
		<tag k="ssr:stedsnr" v="455752" />
	</node>
	<node lat="63.974238889970046" lon="10.427286105639288" id="-33832">
		<tag k="name" v="Øykdalsholet" />
		<tag k="natural" v="valley" />
		<tag k="place" v="locality" />
		<tag k="ssr:stedsnr" v="455755" />
	</node>
	<node lat="63.97865277643395" lon="10.43056667275057" id="-33833">
		<tag k="name" v="Tytberhaugen" />
		<tag k="natural" v="hill" />
		<tag k="place" v="locality" />
		<tag k="ssr:stedsnr" v="455758" />
	</node>
	<node lat="63.99221111120854" lon="10.387952767717866" id="-33838">
		<tag k="name" v="Nordenget" />
		<tag k="natural" v="slope" />
		<tag k="place" v="locality" />
		<tag k="ssr:stedsnr" v="455815" />
	</node>
	<node lat="63.995563892290264" lon="10.416200007417522" id="-33839">
		<tag k="name" v="Trongen" />
		<tag k="natural" v="valley" />
		<tag k="place" v="locality" />
		<tag k="ssr:stedsnr" v="455775" />
	</node>
	<node lat="64.01432499661435" lon="10.3671027678121" id="-33842">
		<tag k="name" v="Seterlia" />
		<tag k="natural" v="slope" />
		<tag k="place" v="locality" />
		<tag k="ssr:stedsnr" v="455828" />
	</node>
	<node lat="63.99459722357947" lon="10.359766656699897" id="-33846">
		<tag k="fixme" v="consider natural=peak for the most distinct mountains in the district" />
		<tag k="name" v="Tverrfjellet" />
		<tag k="natural" v="hill" />
		<tag k="place" v="locality" />
		<tag k="ssr:stedsnr" v="455858" />
	</node>
	<node lat="64.18198610729617" lon="10.258241669669461" id="-33847">
		<tag k="name" v="Grasholrova" />
		<tag k="natural" v="valley" />
		<tag k="place" v="locality" />
		<tag k="ssr:stedsnr" v="456035" />
	</node>
	<node lat="64.18786389149743" lon="10.289419450379492" id="-33848">
		<tag k="name" v="Pallen" />
		<tag k="natural" v="slope" />
		<tag k="place" v="locality" />
		<tag k="ssr:stedsnr" v="456038" />
	</node>
	<node lat="64.24320277765804" lon="10.314669439359603" id="-33850">
		<tag k="name" v="Småhaugan" />
		<tag k="natural" v="hill" />
		<tag k="place" v="locality" />
		<tag k="ssr:stedsnr" v="456046" />
	</node>
	<node lat="63.9555388869618" lon="9.95780555643437" id="-33851">
		<tag k="name" v="Båtvikmoen" />
		<tag k="place" v="locality" />
		<tag k="ssr:stedsnr" v="456049" />
	</node>
	<node lat="63.94856111501121" lon="9.95434444787952" id="-33853">
		<tag k="name" v="Landingsberget" />
		<tag k="natural" v="hill" />
		<tag k="place" v="locality" />
		<tag k="ssr:stedsnr" v="456052" />
	</node>
	<node lat="63.90900000375672" lon="10.386247226749852" id="-33855">
		<tag k="name" v="Fosskallhaugen" />
		<tag k="natural" v="hill" />
		<tag k="place" v="locality" />
		<tag k="ssr:stedsnr" v="455930" />
	</node>
	<node lat="63.91200277421471" lon="10.371061100920423" id="-33856">
		<tag k="name" v="Lauvhatten" />
		<tag k="natural" v="hill" />
		<tag k="place" v="locality" />
		<tag k="ssr:stedsnr" v="455937" />
	</node>
	<node lat="64.23399166542322" lon="10.299269448905681" id="-33858">
		<tag k="name" v="Langhaugen" />
		<tag k="natural" v="hill" />
		<tag k="place" v="locality" />
		<tag k="ssr:stedsnr" v="456058" />
	</node>
	<node lat="64.16277221937331" lon="10.315997213327122" id="-33861">
		<tag k="name" v="Johola" />
		<tag k="natural" v="valley" />
		<tag k="place" v="locality" />
		<tag k="ssr:stedsnr" v="456134" />
	</node>
	<node lat="64.1422138868845" lon="10.211916672452595" id="-33862">
		<tag k="name" v="Gylta" />
		<tag k="natural" v="hill" />
		<tag k="place" v="locality" />
		<tag k="ssr:stedsnr" v="456135" />
	</node>
	<node lat="63.99700277630733" lon="10.244561113519332" id="-33866">
		<tag k="name" v="Nord-Tuva" />
		<tag k="natural" v="hill" />
		<tag k="place" v="locality" />
		<tag k="ssr:stedsnr" v="456098" />
	</node>
	<node lat="63.95768055471492" lon="9.970930564556312" id="-33867">
		<tag k="name" v="Torvhaugen" />
		<tag k="natural" v="hill" />
		<tag k="place" v="locality" />
		<tag k="ssr:stedsnr" v="456099" />
	</node>
	<node lat="64.0113944475273" lon="10.287122212687468" id="-33868">
		<tag k="name" v="Vassbakkan" />
		<tag k="natural" v="slope" />
		<tag k="place" v="locality" />
		<tag k="ssr:stedsnr" v="456146" />
	</node>
	<node lat="64.19275278171855" lon="10.416500007874195" id="-33871">
		<tag k="name" v="Strandalia" />
		<tag k="natural" v="slope" />
		<tag k="place" v="locality" />
		<tag k="ssr:stedsnr" v="456153" />
	</node>
	<node lat="64.16767222359863" lon="10.323469436864634" id="-33873">
		<tag k="name" v="Tveråslia" />
		<tag k="natural" v="slope" />
		<tag k="place" v="locality" />
		<tag k="ssr:stedsnr" v="456178" />
	</node>
	<node lat="63.99252221896989" lon="10.152727787394008" id="-33875">
		<tag k="fixme" v="consider natural=peak for the most distinct mountains in the district" />
		<tag k="name" v="Lauvåsen" />
		<tag k="natural" v="hill" />
		<tag k="place" v="locality" />
		<tag k="ssr:stedsnr" v="456184" />
	</node>
	<node lat="63.99090833572891" lon="10.024508333792854" id="-33877">
		<tag k="name" v="Nordheian" />
		<tag k="natural" v="hill" />
		<tag k="place" v="locality" />
		<tag k="ssr:stedsnr" v="456193" />
	</node>
	<node lat="63.89764166283016" lon="10.536036106098884" id="-33880">
		<tag k="name" v="Gjermundsnova" />
		<tag k="natural" v="hill" />
		<tag k="place" v="locality" />
		<tag k="ssr:stedsnr" v="255313" />
	</node>
	<node lat="63.939202777984555" lon="10.455016662758577" id="-33881">
		<tag k="alt_name" v="Øver Kuhaugen" />
		<tag k="name" v="Kuhaugen" />
		<tag k="natural" v="hill" />
		<tag k="place" v="locality" />
		<tag k="ssr:stedsnr" v="255320" />
	</node>
	<node lat="64.01572500300234" lon="9.933913889326302" id="-33884">
		<tag k="fixme" v="consider natural=peak for the most distinct mountains in the district" />
		<tag k="name" v="Storskutan" />
		<tag k="natural" v="hill" />
		<tag k="place" v="locality" />
		<tag k="ssr:stedsnr" v="456201" />
	</node>
	<node lat="64.16197499694044" lon="10.565272226936312" id="-33887">
		<tag k="name" v="Vakkerkrommen" />
		<tag k="natural" v="slope" />
		<tag k="place" v="locality" />
		<tag k="ssr:stedsnr" v="456296" />
	</node>
	<node lat="63.9473194413843" lon="10.501463883135225" id="-33892">
		<tag k="alt_name" v="Kollilia" />
		<tag k="name" v="Kållia" />
		<tag k="natural" v="slope" />
		<tag k="place" v="locality" />
		<tag k="ssr:stedsnr" v="255373" />
	</node>
	<node lat="63.93241667106343" lon="10.015177771889707" id="-33893">
		<tag k="name" v="Klippfiskberga" />
		<tag k="natural" v="hill" />
		<tag k="place" v="locality" />
		<tag k="ssr:stedsnr" v="456242" />
	</node>
	<node lat="63.9262777792909" lon="10.018083329807936" id="-33894">
		<tag k="name" v="Kråktuva" />
		<tag k="natural" v="hill" />
		<tag k="place" v="locality" />
		<tag k="ssr:stedsnr" v="456243" />
	</node>
	<node lat="64.25481666930942" lon="10.34374167696109" id="-33896">
		<tag k="name" v="Bjørgskardet" />
		<tag k="natural" v="valley" />
		<tag k="place" v="locality" />
		<tag k="ssr:stedsnr" v="456248" />
	</node>
	<node lat="64.1460472194215" lon="10.666947225946506" id="-33898">
		<tag k="name" v="Grønlia" />
		<tag k="natural" v="slope" />
		<tag k="place" v="locality" />
		<tag k="ssr:stedsnr" v="456255" />
	</node>
	<node lat="63.951124997557" lon="9.957580563809696" id="-33900">
		<tag k="name" v="Jakobhaugen" />
		<tag k="natural" v="hill" />
		<tag k="place" v="locality" />
		<tag k="ssr:stedsnr" v="456327" />
	</node>
	<node lat="64.13579444432284" lon="10.538713888899034" id="-33902">
		<tag k="name" v="Lonhaugen" />
		<tag k="natural" v="hill" />
		<tag k="place" v="locality" />
		<tag k="ssr:stedsnr" v="456299" />
	</node>
	<node lat="64.05610278026124" lon="10.583597226444326" id="-33904">
		<tag k="alt_name" v="Haukvassheia, østre;Øyster Haukvassheia" />
		<tag k="fixme" v="consider natural=peak for the most distinct mountains in the district" />
		<tag k="name" v="Østre Haukvassheia" />
		<tag k="natural" v="hill" />
		<tag k="place" v="locality" />
		<tag k="ssr:stedsnr" v="256262" />
	</node>
	<node lat="64.1774972242583" lon="10.405905556613218" id="-33906">
		<tag k="name" v="Skardlia" />
		<tag k="natural" v="slope" />
		<tag k="place" v="locality" />
		<tag k="ssr:stedsnr" v="456337" />
	</node>
	<node lat="64.17812221806187" lon="10.560613897947864" id="-33907">
		<tag k="fixme" v="consider natural=peak for the most distinct mountains in the district" />
		<tag k="name" v="Seterrabban" />
		<tag k="natural" v="hill" />
		<tag k="place" v="locality" />
		<tag k="ssr:stedsnr" v="456338" />
	</node>
	<node lat="63.920469441526386" lon="10.199352787755613" id="-33915">
		<tag k="name" v="Skavholheia" />
		<tag k="natural" v="hill" />
		<tag k="place" v="locality" />
		<tag k="ssr:stedsnr" v="256470" />
	</node>
	<node lat="64.03061111487966" lon="10.51313888983461" id="-33917">
		<tag k="name" v="Melian" />
		<tag k="natural" v="slope" />
		<tag k="place" v="locality" />
		<tag k="ssr:stedsnr" v="456519" />
	</node>
	<node lat="63.948013885591735" lon="10.118586109177658" id="-33918">
		<tag k="fixme" v="consider natural=peak for the most distinct mountains in the district" />
		<tag k="name" v="Kleivafjellet" />
		<tag k="natural" v="hill" />
		<tag k="place" v="locality" />
		<tag k="ssr:stedsnr" v="256507" />
	</node>
	<node lat="64.14844166442649" lon="10.727388895122356" id="-33919">
		<tag k="name" v="Grasvassdalen - Kraesievaajja" />
		<tag k="name:no" v="Grasvassdalen" />
		<tag k="name:sma" v="Kraesievaajja" />
		<tag k="natural" v="valley" />
		<tag k="place" v="locality" />
		<tag k="ssr:stedsnr" v="256558" />
	</node>
	<node lat="63.896538891266836" lon="10.139597213010834" id="-33921">
		<tag k="name" v="Grovlia" />
		<tag k="natural" v="slope" />
		<tag k="place" v="locality" />
		<tag k="ssr:stedsnr" v="256562" />
	</node>
	<node lat="63.910974999070625" lon="10.081788893180898" id="-33922">
		<tag k="name" v="Keipen" />
		<tag k="natural" v="hill" />
		<tag k="place" v="locality" />
		<tag k="ssr:stedsnr" v="256565" />
	</node>
	<node lat="63.93348611326876" lon="10.085208335027536" id="-33926">
		<tag k="name" v="Staurhaugen" />
		<tag k="natural" v="hill" />
		<tag k="place" v="locality" />
		<tag k="ssr:stedsnr" v="456527" />
	</node>
	<node lat="63.91416944865924" lon="10.126905554578844" id="-33930">
		<tag k="name" v="Hamsamtronga" />
		<tag k="natural" v="valley" />
		<tag k="place" v="locality" />
		<tag k="ssr:stedsnr" v="456541" />
	</node>
	<node lat="64.04197222261656" lon="10.572261117424011" id="-33936">
		<tag k="name" v="Hongdalslia" />
		<tag k="natural" v="slope" />
		<tag k="place" v="locality" />
		<tag k="ssr:stedsnr" v="456599" />
	</node>
	<node lat="64.0974722234752" lon="10.285925003225769" id="-33937">
		<tag k="name" v="Høgloftet" />
		<tag k="natural" v="hill" />
		<tag k="place" v="locality" />
		<tag k="ssr:stedsnr" v="257355" />
	</node>
	<node lat="64.10211111062577" lon="10.579769437458332" id="-33938">
		<tag k="fixme" v="consider natural=peak for the most distinct mountains in the district" />
		<tag k="name" v="Perengheia" />
		<tag k="natural" v="hill" />
		<tag k="place" v="locality" />
		<tag k="ssr:stedsnr" v="257357" />
	</node>
	<node lat="64.09146944153294" lon="10.46960833226419" id="-33940">
		<tag k="fixme" v="consider natural=peak for the most distinct mountains in the district" />
		<tag k="name" v="Somdalsheia" />
		<tag k="natural" v="hill" />
		<tag k="place" v="locality" />
		<tag k="ssr:stedsnr" v="257367" />
	</node>
	<node lat="63.95928888979946" lon="10.13719167091514" id="-33941">
		<tag k="name" v="Rognlikammen" />
		<tag k="natural" v="ridge" />
		<tag k="place" v="locality" />
		<tag k="ssr:stedsnr" v="456626" />
	</node>
	<node lat="64.05042222657845" lon="10.410088889456906" id="-33944">
		<tag k="fixme" v="consider natural=peak for the most distinct mountains in the district" />
		<tag k="name" v="Trollfjellet" />
		<tag k="natural" v="hill" />
		<tag k="place" v="locality" />
		<tag k="ssr:stedsnr" v="456632" />
	</node>
	<node lat="63.88463610755167" lon="10.226855564714212" id="-33949">
		<tag k="fixme" v="consider natural=peak for the most distinct mountains in the district" />
		<tag k="name" v="Garntrappen" />
		<tag k="natural" v="hill" />
		<tag k="place" v="locality" />
		<tag k="ssr:stedsnr" v="456672" />
	</node>
	<node lat="63.93893055769836" lon="10.202200009395694" id="-33958">
		<tag k="fixme" v="consider natural=peak for the most distinct mountains in the district" />
		<tag k="name" v="Gullhammaren" />
		<tag k="natural" v="hill" />
		<tag k="place" v="locality" />
		<tag k="ssr:stedsnr" v="456645" />
	</node>
	<node lat="63.909797222281746" lon="10.208463898581812" id="-33963">
		<tag k="fixme" v="consider natural=peak for the most distinct mountains in the district" />
		<tag k="name" v="Jofjellet" />
		<tag k="natural" v="hill" />
		<tag k="place" v="locality" />
		<tag k="ssr:stedsnr" v="456715" />
	</node>
	<node lat="64.1814527781811" lon="10.32348611490515" id="-33967">
		<tag k="fixme" v="consider natural=peak for the most distinct mountains in the district" />
		<tag k="name" v="Storlia" />
		<tag k="natural" v="hill" />
		<tag k="place" v="locality" />
		<tag k="ssr:stedsnr" v="456698" />
	</node>
	<node lat="63.95682222548263" lon="10.213213896557228" id="-33968">
		<tag k="name" v="Furuholmen" />
		<tag k="place" v="locality" />
		<tag k="ssr:stedsnr" v="456700" />
	</node>
	<node lat="63.95142500039803" lon="10.251341665556442" id="-33972">
		<tag k="name" v="Fjøsdalen" />
		<tag k="natural" v="valley" />
		<tag k="place" v="locality" />
		<tag k="ssr:stedsnr" v="456736" />
	</node>
	<node lat="63.98580555534157" lon="10.207786102594838" id="-33974">
		<tag k="name" v="Hudalin" />
		<tag k="natural" v="slope" />
		<tag k="place" v="locality" />
		<tag k="ssr:stedsnr" v="456741" />
	</node>
	<node lat="64.00523333187884" lon="10.033738886779489" id="-33975">
		<tag k="name" v="Sjåberget" />
		<tag k="natural" v="hill" />
		<tag k="place" v="locality" />
		<tag k="ssr:stedsnr" v="456743" />
	</node>
	<node lat="64.0404138932272" lon="9.976772216360398" id="-33977">
		<tag k="fixme" v="consider natural=peak for the most distinct mountains in the district" />
		<tag k="name" v="Rotvikhammaren" />
		<tag k="natural" v="hill" />
		<tag k="place" v="locality" />
		<tag k="ssr:stedsnr" v="456806" />
	</node>
	<node lat="63.990622221249694" lon="10.01540555691456" id="-33979">
		<tag k="name" v="Grøttingdalen" />
		<tag k="natural" v="valley" />
		<tag k="place" v="locality" />
		<tag k="ssr:stedsnr" v="456866" />
	</node>
	<node lat="64.0367333347165" lon="10.07724722568242" id="-33982">
		<tag k="fixme" v="consider natural=peak for the most distinct mountains in the district" />
		<tag k="name" v="Olakleiva" />
		<tag k="natural" v="hill" />
		<tag k="place" v="locality" />
		<tag k="ssr:stedsnr" v="456873" />
	</node>
	<node lat="64.03603611557575" lon="9.896955547164549" id="-33984">
		<tag k="name" v="Laukafjellholet" />
		<tag k="natural" v="valley" />
		<tag k="place" v="locality" />
		<tag k="ssr:stedsnr" v="456824" />
	</node>
	<node lat="64.13654166384373" lon="10.170636114256197" id="-33991">
		<tag k="fixme" v="consider natural=peak for the most distinct mountains in the district" />
		<tag k="name" v="Grasfjellet" />
		<tag k="natural" v="hill" />
		<tag k="place" v="locality" />
		<tag k="ssr:stedsnr" v="456888" />
	</node>
	<node lat="64.03639166226337" lon="10.0515111196837" id="-34001">
		<tag k="name" v="St.-Hansklumpen" />
		<tag k="natural" v="hill" />
		<tag k="place" v="locality" />
		<tag k="ssr:stedsnr" v="456971" />
	</node>
	<node lat="64.08348889082224" lon="10.045933336964522" id="-34008">
		<tag k="name" v="Liaberga" />
		<tag k="natural" v="hill" />
		<tag k="place" v="locality" />
		<tag k="ssr:stedsnr" v="456987" />
	</node>
	<node lat="63.88688055891057" lon="10.288355545778465" id="-34010">
		<tag k="name" v="Nordholan" />
		<tag k="natural" v="slope" />
		<tag k="place" v="locality" />
		<tag k="ssr:stedsnr" v="456915" />
	</node>
	<node lat="63.88055555343578" lon="10.289686116960356" id="-34011">
		<tag k="name" v="Månstua" />
		<tag k="natural" v="slope" />
		<tag k="place" v="locality" />
		<tag k="ssr:stedsnr" v="456917" />
	</node>
	<node lat="63.9130194433052" lon="10.402605549704422" id="-34012">
		<tag k="name" v="Saghaugen" />
		<tag k="natural" v="hill" />
		<tag k="place" v="locality" />
		<tag k="ssr:stedsnr" v="456927" />
	</node>
	<node lat="64.05010000451836" lon="10.034352773077991" id="-34013">
		<tag k="name" v="Kromhaugen" />
		<tag k="natural" v="hill" />
		<tag k="place" v="locality" />
		<tag k="ssr:stedsnr" v="456944" />
	</node>
	<node lat="63.93564722646825" lon="10.370522221834504" id="-34016">
		<tag k="name" v="Kveldlagaholet" />
		<tag k="natural" v="valley" />
		<tag k="place" v="locality" />
		<tag k="ssr:stedsnr" v="456956" />
	</node>
	<node lat="64.00988055400376" lon="10.217702780630523" id="-34022">
		<tag k="name" v="Rapdalen" />
		<tag k="natural" v="valley" />
		<tag k="place" v="locality" />
		<tag k="ssr:stedsnr" v="273094" />
	</node>
	<node lat="63.96449444309805" lon="9.996488891419185" id="-34023">
		<tag k="name" v="Karskardet" />
		<tag k="natural" v="valley" />
		<tag k="place" v="locality" />
		<tag k="ssr:stedsnr" v="273105" />
	</node>
	<node lat="63.98944999598309" lon="10.223494450263912" id="-34024">
		<tag k="fixme" v="consider natural=peak for the most distinct mountains in the district" />
		<tag k="name" v="Engmyrfjellet" />
		<tag k="natural" v="hill" />
		<tag k="place" v="locality" />
		<tag k="ssr:stedsnr" v="273106" />
	</node>
	<node lat="64.02039167021468" lon="10.2846694526062" id="-34028">
		<tag k="name" v="Runddalen" />
		<tag k="natural" v="valley" />
		<tag k="place" v="locality" />
		<tag k="ssr:stedsnr" v="273123" />
	</node>
	<node lat="64.0240666629026" lon="10.27270554552355" id="-34029">
		<tag k="name" v="Sør Kråvassheia" />
		<tag k="natural" v="hill" />
		<tag k="place" v="locality" />
		<tag k="ssr:stedsnr" v="273127" />
	</node>
	<node lat="63.99696944179155" lon="10.15112222829145" id="-34032">
		<tag k="name" v="Storlia" />
		<tag k="natural" v="slope" />
		<tag k="place" v="locality" />
		<tag k="ssr:stedsnr" v="273184" />
	</node>
	<node lat="63.99293333195245" lon="10.175236115349836" id="-34033">
		<tag k="name" v="Dalin" />
		<tag k="natural" v="slope" />
		<tag k="place" v="locality" />
		<tag k="ssr:stedsnr" v="273187" />
	</node>
	<node lat="63.97703333471525" lon="10.614697231371352" id="-34035">
		<tag k="name" v="Steinhaugen" />
		<tag k="natural" v="hill" />
		<tag k="place" v="locality" />
		<tag k="ssr:stedsnr" v="273416" />
	</node>
	<node lat="64.05877499549808" lon="10.533933338552623" id="-34041">
		<tag k="name" v="Nyseterlia" />
		<tag k="natural" v="slope" />
		<tag k="place" v="locality" />
		<tag k="ssr:stedsnr" v="273589" />
	</node>
	<node lat="63.95806944585849" lon="10.150422213432982" id="-34042">
		<tag k="fixme" v="consider natural=peak for the most distinct mountains in the district" />
		<tag k="name" v="Loppfjellet" />
		<tag k="natural" v="hill" />
		<tag k="place" v="locality" />
		<tag k="ssr:stedsnr" v="273604" />
	</node>
	<node lat="64.0414694466749" lon="10.556927770870224" id="-34044">
		<tag k="name" v="Bjørnbekkhalsen" />
		<tag k="natural" v="valley" />
		<tag k="place" v="locality" />
		<tag k="ssr:stedsnr" v="273625" />
	</node>
	<node lat="64.01322500152092" lon="10.432772222651195" id="-34045">
		<tag k="name" v="Røyrlidalen" />
		<tag k="natural" v="valley" />
		<tag k="place" v="locality" />
		<tag k="ssr:stedsnr" v="273683" />
	</node>
	<node lat="64.04176111360385" lon="10.390597217154596" id="-34046">
		<tag k="name" v="Elvakrokheian" />
		<tag k="natural" v="hill" />
		<tag k="place" v="locality" />
		<tag k="ssr:stedsnr" v="273684" />
	</node>
	<node lat="64.03584166479753" lon="10.429222214679575" id="-34048">
		<tag k="name" v="Høydalsmoan" />
		<tag k="place" v="locality" />
		<tag k="ssr:stedsnr" v="273691" />
	</node>
	<node lat="63.970877777607335" lon="10.369802772474676" id="-34049">
		<tag k="fixme" v="consider natural=peak for the most distinct mountains in the district" />
		<tag k="name" v="Purkhammaren" />
		<tag k="natural" v="hill" />
		<tag k="place" v="locality" />
		<tag k="ssr:stedsnr" v="273806" />
	</node>
	<node lat="63.959486112449596" lon="10.425199995125913" id="-34052">
		<tag k="name" v="Ormhaugan" />
		<tag k="natural" v="hill" />
		<tag k="place" v="locality" />
		<tag k="ssr:stedsnr" v="273821" />
	</node>
	<node lat="63.99998055676856" lon="10.43039721291083" id="-34054">
		<tag k="fixme" v="consider natural=peak for the most distinct mountains in the district" />
		<tag k="name" v="Tverråsen" />
		<tag k="natural" v="hill" />
		<tag k="place" v="locality" />
		<tag k="ssr:stedsnr" v="273871" />
	</node>
	<node lat="63.94663333206452" lon="10.46717500770595" id="-34056">
		<tag k="name" v="Seterlia" />
		<tag k="natural" v="slope" />
		<tag k="place" v="locality" />
		<tag k="ssr:stedsnr" v="273725" />
	</node>
	<node lat="63.97848611232533" lon="10.426055560994762" id="-34057">
		<tag k="name" v="Svaberga" />
		<tag k="natural" v="hill" />
		<tag k="place" v="locality" />
		<tag k="ssr:stedsnr" v="273782" />
	</node>
	<node lat="63.97833611452879" lon="10.435588886734358" id="-34059">
		<tag k="fixme" v="consider natural=peak for the most distinct mountains in the district" />
		<tag k="name" v="Strupen" />
		<tag k="natural" v="hill" />
		<tag k="place" v="locality" />
		<tag k="ssr:stedsnr" v="273789" />
	</node>
	<node lat="63.94037777877268" lon="10.407841661882442" id="-34060">
		<tag k="name" v="Oladalen" />
		<tag k="natural" v="valley" />
		<tag k="place" v="locality" />
		<tag k="ssr:stedsnr" v="273914" />
	</node>
	<node lat="63.941347219027016" lon="10.409858342043485" id="-34061">
		<tag k="name" v="Stiberget" />
		<tag k="natural" v="hill" />
		<tag k="place" v="locality" />
		<tag k="ssr:stedsnr" v="273916" />
	</node>
	<node lat="64.19081666265043" lon="10.278691667395465" id="-34063">
		<tag k="fixme" v="consider natural=peak for the most distinct mountains in the district" />
		<tag k="name" v="Slottsfjellet" />
		<tag k="natural" v="hill" />
		<tag k="place" v="locality" />
		<tag k="ssr:stedsnr" v="274023" />
	</node>
	<node lat="64.09757777661596" lon="10.260372221579392" id="-34065">
		<tag k="name" v="Staværingsliheia" />
		<tag k="natural" v="hill" />
		<tag k="place" v="locality" />
		<tag k="ssr:stedsnr" v="274084" />
	</node>
	<node lat="64.18601388751463" lon="10.302919439295305" id="-34066">
		<tag k="name" v="Rapet" />
		<tag k="natural" v="slope" />
		<tag k="place" v="locality" />
		<tag k="ssr:stedsnr" v="274094" />
	</node>
	<node lat="64.16863610973213" lon="10.320724998326897" id="-34067">
		<tag k="fixme" v="consider natural=peak for the most distinct mountains in the district" />
		<tag k="name" v="Tveraslitrappen" />
		<tag k="natural" v="hill" />
		<tag k="place" v="locality" />
		<tag k="ssr:stedsnr" v="274095" />
	</node>
	<node lat="64.23074999822005" lon="10.298702771970465" id="-34068">
		<tag k="name" v="Storhøgda" />
		<tag k="natural" v="hill" />
		<tag k="place" v="locality" />
		<tag k="ssr:stedsnr" v="274203" />
	</node>
	<node lat="64.18817499935166" lon="10.402013882512675" id="-34071">
		<tag k="name" v="Silkehammardalen" />
		<tag k="natural" v="valley" />
		<tag k="place" v="locality" />
		<tag k="ssr:stedsnr" v="274124" />
	</node>
	<node lat="64.00959444641077" lon="9.880744443578331" id="-34072">
		<tag k="fixme" v="consider natural=peak for the most distinct mountains in the district" />
		<tag k="name" v="Oterstokkfjellet" />
		<tag k="natural" v="hill" />
		<tag k="place" v="locality" />
		<tag k="ssr:stedsnr" v="274125" />
	</node>
	<node lat="64.1682694465578" lon="10.378280560703384" id="-34074">
		<tag k="fixme" v="consider natural=peak for the most distinct mountains in the district" />
		<tag k="name" v="Middagsfjellet" />
		<tag k="natural" v="hill" />
		<tag k="place" v="locality" />
		<tag k="ssr:stedsnr" v="274170" />
	</node>
	<node lat="64.25122222083944" lon="10.367966669413759" id="-34075">
		<tag k="name" v="Gråsteinbakkan" />
		<tag k="natural" v="slope" />
		<tag k="place" v="locality" />
		<tag k="ssr:stedsnr" v="274177" />
	</node>
	<node lat="64.26460277496302" lon="10.367380564829345" id="-34078">
		<tag k="fixme" v="consider natural=peak for the most distinct mountains in the district" />
		<tag k="name" v="Skåråsen" />
		<tag k="natural" v="hill" />
		<tag k="place" v="locality" />
		<tag k="ssr:stedsnr" v="274186" />
	</node>
	<node lat="63.978283330214154" lon="10.105244444452712" id="-34080">
		<tag k="name" v="Sørhaugan" />
		<tag k="natural" v="hill" />
		<tag k="place" v="locality" />
		<tag k="ssr:stedsnr" v="274316" />
	</node>
	<node lat="64.15653888670423" lon="10.458630559947657" id="-34082">
		<tag k="name" v="Lian" />
		<tag k="natural" v="slope" />
		<tag k="place" v="locality" />
		<tag k="ssr:stedsnr" v="274271" />
	</node>
	<node lat="64.0028111090412" lon="10.037561113559422" id="-34084">
		<tag k="name" v="Fjøshaugen" />
		<tag k="natural" v="hill" />
		<tag k="place" v="locality" />
		<tag k="ssr:stedsnr" v="274725" />
	</node>
	<node lat="63.97259166550863" lon="10.482861115815338" id="-34085">
		<tag k="name" v="Meheia" />
		<tag k="natural" v="hill" />
		<tag k="place" v="locality" />
		<tag k="ssr:stedsnr" v="274670" />
	</node>
	<node lat="64.03401388818953" lon="10.097550004020313" id="-34088">
		<tag k="fixme" v="consider natural=peak for the most distinct mountains in the district" />
		<tag k="name" v="Gunhildklumpen" />
		<tag k="natural" v="hill" />
		<tag k="place" v="locality" />
		<tag k="ssr:stedsnr" v="274877" />
	</node>
	<node lat="64.11574999670071" lon="10.23376665643066" id="-34089">
		<tag k="name" v="Lian" />
		<tag k="natural" v="slope" />
		<tag k="place" v="locality" />
		<tag k="ssr:stedsnr" v="274880" />
	</node>
	<node lat="64.11106388485483" lon="10.256066663364592" id="-34090">
		<tag k="name" v="Oterstokken" />
		<tag k="natural" v="hill" />
		<tag k="place" v="locality" />
		<tag k="ssr:stedsnr" v="274889" />
	</node>
	<node lat="64.0353694438127" lon="10.034266661014694" id="-34095">
		<tag k="name" v="Halaklumpen" />
		<tag k="natural" v="hill" />
		<tag k="place" v="locality" />
		<tag k="ssr:stedsnr" v="274920" />
	</node>
	<node lat="64.02805277584032" lon="10.090236103369215" id="-34097">
		<tag k="name" v="Rognhaugan" />
		<tag k="natural" v="hill" />
		<tag k="place" v="locality" />
		<tag k="ssr:stedsnr" v="274977" />
	</node>
	<node lat="63.954958333794345" lon="10.469716670528836" id="-34110">
		<tag k="fixme" v="consider natural=peak for the most distinct mountains in the district" />
		<tag k="name" v="Slættfjellet" />
		<tag k="natural" v="hill" />
		<tag k="place" v="locality" />
		<tag k="ssr:stedsnr" v="316406" />
	</node>
	<node lat="63.8532833294586" lon="10.274394448221965" id="-34112">
		<tag k="fixme" v="consider natural=peak for the most distinct mountains in the district" />
		<tag k="name" v="Storfjellet" />
		<tag k="natural" v="hill" />
		<tag k="place" v="locality" />
		<tag k="ssr:stedsnr" v="316302" />
	</node>
	<node lat="63.980422224366635" lon="10.01332222956333" id="-34118">
		<tag k="alt_name" v="Viksteinen" />
		<tag k="name" v="Vikstein" />
		<tag k="natural" v="hill" />
		<tag k="place" v="locality" />
		<tag k="ssr:stedsnr" v="316751" />
	</node>
	<node lat="64.20911667115588" lon="10.302883323687931" id="-34122">
		<tag k="fixme" v="consider natural=peak for the most distinct mountains in the district" />
		<tag k="name" v="Ausa" />
		<tag k="natural" v="hill" />
		<tag k="place" v="locality" />
		<tag k="ssr:stedsnr" v="317016" />
	</node>
</osm>
