<?xml version="1.0" encoding="UTF-8"?>
<osm version="0.6" generator="osmapis">
	<node id="30201442" lat="60.8745312" lon="5.5827422" version="4" timestamp="2022-08-24T15:28:53Z" changeset="125321647" uid="3497659" user="NKA">
		<tag k="alt_name" v="Matredal" />
		<tag k="name" v="Matre" />
		<tag k="place" v="village" />
		<tag k="ssr:stedsnr" v="615293" />
	</node>
	<node id="448032521" lat="60.8330237" lon="5.3097188" version="3" timestamp="2022-08-24T15:28:53Z" changeset="125321647" uid="3497659" user="NKA">
		<tag k="alt_name" v="Mollandseid" />
		<tag k="name" v="Eidet" />
		<tag k="place" v="hamlet" />
		<tag k="ssr:stedsnr" v="675580" />
	</node>
	<node id="1417120777" lat="60.8882521" lon="5.4688074" version="4" timestamp="2022-08-24T15:28:53Z" changeset="125321647" uid="3497659" user="NKA">
		<tag k="name" v="Solheim" />
		<tag k="place" v="village" />
		<tag k="ssr:stedsnr" v="797323" />
	</node>
	<node id="1417189777" lat="60.8005153" lon="5.3013197" version="2" timestamp="2022-08-24T15:28:53Z" changeset="125321647" uid="3497659" user="NKA">
		<tag k="name" v="Masfjordnes" />
		<tag k="place" v="village" />
		<tag k="ssr:stedsnr" v="631165" />
	</node>
	<node id="3797258285" lat="60.8142222" lon="5.3806353" version="2" timestamp="2022-08-24T15:28:53Z" changeset="125321647" uid="3497659" user="NKA">
		<tag k="name" v="Andvika" />
		<tag k="place" v="hamlet" />
		<tag k="ssr:stedsnr" v="9626" />
	</node>
	<node id="3797258286" lat="60.7520265" lon="5.3787163" version="2" timestamp="2022-08-24T15:28:53Z" changeset="125321647" uid="3497659" user="NKA">
		<tag k="name" v="Nordkvingo" />
		<tag k="place" v="hamlet" />
		<tag k="ssr:stedsnr" v="251777" />
	</node>
	<node id="5254575148" lat="60.95135" lon="5.6827559" version="2" timestamp="2022-08-24T15:28:53Z" changeset="125321647" uid="3497659" user="NKA">
		<tag k="name" v="Persstova" />
		<tag k="place" v="isolated_dwelling" />
		<tag k="ssr:stedsnr" v="8323" />
	</node>
	<node id="6219460042" lat="60.835341" lon="5.2587353" version="2" timestamp="2022-08-24T15:28:53Z" changeset="125321647" uid="3497659" user="NKA">
		<tag k="name" v="Hosteland" />
		<tag k="place" v="village" />
		<tag k="ssr:stedsnr" v="858570" />
	</node>
	<node id="6219460076" lat="60.9045459" lon="5.5219253" version="2" timestamp="2022-08-24T15:28:53Z" changeset="125321647" uid="3497659" user="NKA">
		<tag k="name" v="Haugsvær" />
		<tag k="place" v="hamlet" />
		<tag k="ssr:stedsnr" v="858378" />
	</node>
	<node id="9975171333" lat="60.9081238" lon="5.296676" version="1" timestamp="2022-08-24T15:28:53Z" changeset="125321647" uid="3497659" user="NKA">
		<tag k="name" v="Byrkjeland" />
		<tag k="place" v="hamlet" />
		<tag k="ssr:stedsnr" v="311940" />
	</node>
	<node id="9975171334" lat="60.8895566" lon="5.4156115" version="1" timestamp="2022-08-24T15:28:53Z" changeset="125321647" uid="3497659" user="NKA">
		<tag k="name" v="Eikemo" />
		<tag k="place" v="hamlet" />
		<tag k="ssr:stedsnr" v="312993" />
	</node>
	<node id="9975171335" lat="60.8624358" lon="5.3909314" version="1" timestamp="2022-08-24T15:28:53Z" changeset="125321647" uid="3497659" user="NKA">
		<tag k="name" v="Stigalvika" />
		<tag k="old_name" v="Stegalvik" />
		<tag k="place" v="isolated_dwelling" />
		<tag k="ssr:stedsnr" v="8543" />
	</node>
	<node id="9975171336" lat="60.8270111" lon="5.5669977" version="1" timestamp="2022-08-24T15:28:53Z" changeset="125321647" uid="3497659" user="NKA">
		<tag k="name" v="Stigen" />
		<tag k="place" v="farm" />
		<tag k="ssr:stedsnr" v="809621" />
	</node>
	<node id="9975171337" lat="60.8891167" lon="5.5871364" version="1" timestamp="2022-08-24T15:28:53Z" changeset="125321647" uid="3497659" user="NKA">
		<tag k="historic" v="shieling" />
		<tag k="name" v="Holmane" />
		<tag k="place" v="isolated_dwelling" />
		<tag k="ssr:stedsnr" v="263842" />
	</node>
	<node id="9975171338" lat="60.9014472" lon="5.5338005" version="1" timestamp="2022-08-24T15:28:53Z" changeset="125321647" uid="3497659" user="NKA">
		<tag k="historic" v="shieling" />
		<tag k="name" v="Setsstølen" />
		<tag k="place" v="isolated_dwelling" />
		<tag k="ssr:stedsnr" v="931727" />
	</node>
	<node id="9975171339" lat="60.8129361" lon="5.4873283" version="1" timestamp="2022-08-24T15:28:53Z" changeset="125321647" uid="3497659" user="NKA">
		<tag k="historic" v="shieling" />
		<tag k="name" v="Kupa" />
		<tag k="place" v="isolated_dwelling" />
		<tag k="ssr:stedsnr" v="130339" />
	</node>
	<node id="9975171340" lat="60.8756" lon="5.5926588" version="1" timestamp="2022-08-24T15:28:53Z" changeset="125321647" uid="3497659" user="NKA">
		<tag k="name" v="Stien" />
		<tag k="place" v="farm" />
		<tag k="ssr:stedsnr" v="566886" />
	</node>
	<node id="9975171341" lat="60.8757294" lon="5.5796938" version="1" timestamp="2022-08-24T15:28:53Z" changeset="125321647" uid="3497659" user="NKA">
		<tag k="name" v="Storematre" />
		<tag k="place" v="farm" />
		<tag k="ssr:stedsnr" v="251347" />
	</node>
	<node id="9975171342" lat="60.8317584" lon="5.5596199" version="1" timestamp="2022-08-24T15:28:53Z" changeset="125321647" uid="3497659" user="NKA">
		<tag k="name" v="Fosshaugen" />
		<tag k="place" v="farm" />
		<tag k="ssr:stedsnr" v="69420" />
	</node>
	<node id="9975171343" lat="60.8328361" lon="5.4176672" version="1" timestamp="2022-08-24T15:28:53Z" changeset="125321647" uid="3497659" user="NKA">
		<tag k="name" v="Åsheim" />
		<tag k="place" v="farm" />
		<tag k="ssr:stedsnr" v="312592" />
	</node>
	<node id="9975171344" lat="60.8997417" lon="5.5729532" version="1" timestamp="2022-08-24T15:28:53Z" changeset="125321647" uid="3497659" user="NKA">
		<tag k="historic" v="shieling" />
		<tag k="name" v="Trodalssetret" />
		<tag k="place" v="isolated_dwelling" />
		<tag k="ssr:stedsnr" v="251378" />
	</node>
	<node id="9975171345" lat="60.8456346" lon="5.1785789" version="1" timestamp="2022-08-24T15:28:53Z" changeset="125321647" uid="3497659" user="NKA">
		<tag k="name" v="Hellevika" />
		<tag k="place" v="farm" />
		<tag k="ssr:stedsnr" v="631654" />
	</node>
	<node id="9975171346" lat="60.8234515" lon="5.1713879" version="1" timestamp="2022-08-24T15:28:53Z" changeset="125321647" uid="3497659" user="NKA">
		<tag k="name" v="Haugsøyna" />
		<tag k="place" v="farm" />
		<tag k="ssr:stedsnr" v="658372" />
	</node>
	<node id="9975171347" lat="60.9184694" lon="5.449092" version="1" timestamp="2022-08-24T15:28:53Z" changeset="125321647" uid="3497659" user="NKA">
		<tag k="historic" v="shieling" />
		<tag k="name" v="Gamlesetra" />
		<tag k="place" v="isolated_dwelling" />
		<tag k="ssr:stedsnr" v="931441" />
	</node>
	<node id="9975171348" lat="60.8028917" lon="5.2655672" version="1" timestamp="2022-08-24T15:28:53Z" changeset="125321647" uid="3497659" user="NKA">
		<tag k="name" v="Træsdalen" />
		<tag k="place" v="farm" />
		<tag k="ssr:stedsnr" v="748274" />
	</node>
	<node id="9975171349" lat="60.8507198" lon="5.5142674" version="1" timestamp="2022-08-24T15:28:53Z" changeset="125321647" uid="3497659" user="NKA">
		<tag k="name" v="Haugsdal" />
		<tag k="place" v="hamlet" />
		<tag k="ssr:stedsnr" v="858441" />
	</node>
	<node id="9975171350" lat="60.9136" lon="5.2200894" version="1" timestamp="2022-08-24T15:28:53Z" changeset="125321647" uid="3497659" user="NKA">
		<tag k="name" v="Dalen" />
		<tag k="place" v="isolated_dwelling" />
		<tag k="ssr:stedsnr" v="797878" />
	</node>
	<node id="9975171351" lat="60.8107776" lon="5.3347869" version="1" timestamp="2022-08-24T15:28:53Z" changeset="125321647" uid="3497659" user="NKA">
		<tag k="name" v="Bogen" />
		<tag k="place" v="farm" />
		<tag k="ssr:stedsnr" v="858652" />
	</node>
	<node id="9975171352" lat="60.8535723" lon="5.2053173" version="1" timestamp="2022-08-24T15:28:53Z" changeset="125321647" uid="3497659" user="NKA">
		<tag k="name" v="Stølsneset" />
		<tag k="place" v="farm" />
		<tag k="ssr:stedsnr" v="263653" />
	</node>
	<node id="9975171353" lat="60.7807528" lon="5.4546866" version="1" timestamp="2022-08-24T15:28:53Z" changeset="125321647" uid="3497659" user="NKA">
		<tag k="historic" v="shieling" />
		<tag k="name" v="Reknessetret" />
		<tag k="place" v="isolated_dwelling" />
		<tag k="ssr:stedsnr" v="919665" />
	</node>
	<node id="9975171354" lat="60.8453977" lon="5.3687043" version="1" timestamp="2022-08-24T15:28:53Z" changeset="125321647" uid="3497659" user="NKA">
		<tag k="name" v="Skjeggedalen" />
		<tag k="place" v="farm" />
		<tag k="ssr:stedsnr" v="858580" />
	</node>
	<node id="9975171355" lat="60.7646945" lon="5.387945" version="1" timestamp="2022-08-24T15:28:53Z" changeset="125321647" uid="3497659" user="NKA">
		<tag k="name" v="Fredheim" />
		<tag k="place" v="farm" />
		<tag k="ssr:stedsnr" v="797723" />
	</node>
	<node id="9975171356" lat="60.7817083" lon="5.4572004" version="1" timestamp="2022-08-24T15:28:53Z" changeset="125321647" uid="3497659" user="NKA">
		<tag k="historic" v="shieling" />
		<tag k="name" v="Duesundsetret" />
		<tag k="place" v="isolated_dwelling" />
		<tag k="ssr:stedsnr" v="676681" />
	</node>
	<node id="9975171357" lat="60.872725" lon="5.3326589" version="1" timestamp="2022-08-24T15:28:53Z" changeset="125321647" uid="3497659" user="NKA">
		<tag k="historic" v="shieling" />
		<tag k="name" v="Gamlesetra" />
		<tag k="place" v="isolated_dwelling" />
		<tag k="ssr:stedsnr" v="809420" />
	</node>
	<node id="9975171358" lat="60.9030027" lon="5.5202698" version="1" timestamp="2022-08-24T15:28:53Z" changeset="125321647" uid="3497659" user="NKA">
		<tag k="name" v="Leitet" />
		<tag k="place" v="farm" />
		<tag k="ssr:stedsnr" v="567718" />
	</node>
	<node id="9975171359" lat="60.7758194" lon="5.3523283" version="1" timestamp="2022-08-24T15:28:53Z" changeset="125321647" uid="3497659" user="NKA">
		<tag k="historic" v="shieling" />
		<tag k="name" v="Mjangerssetret" />
		<tag k="place" v="isolated_dwelling" />
		<tag k="ssr:stedsnr" v="494654" />
	</node>
	<node id="9975171360" lat="60.8539361" lon="5.4096922" version="1" timestamp="2022-08-24T15:28:53Z" changeset="125321647" uid="3497659" user="NKA">
		<tag k="historic" v="shieling" />
		<tag k="name" v="Stigalviksetra" />
		<tag k="place" v="isolated_dwelling" />
		<tag k="ssr:stedsnr" v="688413" />
	</node>
	<node id="9975171361" lat="60.8659027" lon="5.3406893" version="1" timestamp="2022-08-24T15:28:53Z" changeset="125321647" uid="3497659" user="NKA">
		<tag k="name" v="Bergsvik" />
		<tag k="place" v="hamlet" />
		<tag k="ssr:stedsnr" v="142373" />
	</node>
	<node id="9975171362" lat="60.7855805" lon="5.3776339" version="1" timestamp="2022-08-24T15:28:53Z" changeset="125321647" uid="3497659" user="NKA">
		<tag k="historic" v="shieling" />
		<tag k="name" v="Grønestølen" />
		<tag k="place" v="isolated_dwelling" />
		<tag k="ssr:stedsnr" v="324464" />
	</node>
	<node id="9975171363" lat="60.8464972" lon="5.4150838" version="1" timestamp="2022-08-24T15:28:53Z" changeset="125321647" uid="3497659" user="NKA">
		<tag k="historic" v="shieling" />
		<tag k="name" v="Totlandssetra" />
		<tag k="place" v="isolated_dwelling" />
		<tag k="ssr:stedsnr" v="384404" />
	</node>
	<node id="9975171364" lat="60.7435006" lon="5.3908525" version="1" timestamp="2022-08-24T15:28:53Z" changeset="125321647" uid="3497659" user="NKA">
		<tag k="name" v="Kvingo" />
		<tag k="place" v="village" />
		<tag k="ssr:stedsnr" v="954165" />
	</node>
	<node id="9975171365" lat="60.8992167" lon="5.5160587" version="1" timestamp="2022-08-24T15:28:53Z" changeset="125321647" uid="3497659" user="NKA">
		<tag k="name" v="Rimmane" />
		<tag k="place" v="farm" />
		<tag k="ssr:stedsnr" v="324737" />
	</node>
	<node id="9975171366" lat="60.7529444" lon="5.3216812" version="1" timestamp="2022-08-24T15:28:53Z" changeset="125321647" uid="3497659" user="NKA">
		<tag k="name" v="Gjerdet" />
		<tag k="place" v="farm" />
		<tag k="ssr:stedsnr" v="494690" />
	</node>
	<node id="9975171367" lat="60.7110012" lon="5.4254986" version="1" timestamp="2022-08-24T15:28:53Z" changeset="125321647" uid="3497659" user="NKA">
		<tag k="name" v="Eikebotnen" />
		<tag k="place" v="farm" />
		<tag k="ssr:stedsnr" v="916196" />
	</node>
	<node id="9975171368" lat="60.7798472" lon="5.4114811" version="1" timestamp="2022-08-24T15:28:53Z" changeset="125321647" uid="3497659" user="NKA">
		<tag k="historic" v="shieling" />
		<tag k="name" v="Øvsta Kvingedalssetret" />
		<tag k="place" v="isolated_dwelling" />
		<tag k="ssr:stedsnr" v="797685" />
	</node>
	<node id="9975171369" lat="60.8312944" lon="5.4307922" version="1" timestamp="2022-08-24T15:28:53Z" changeset="125321647" uid="3497659" user="NKA">
		<tag k="historic" v="shieling" />
		<tag k="name" v="Stølen" />
		<tag k="place" v="isolated_dwelling" />
		<tag k="ssr:stedsnr" v="141510" />
	</node>
	<node id="9975171370" lat="60.7227944" lon="5.4346976" version="1" timestamp="2022-08-24T15:28:53Z" changeset="125321647" uid="3497659" user="NKA">
		<tag k="historic" v="shieling" />
		<tag k="name" v="Einestrandsetret" />
		<tag k="place" v="isolated_dwelling" />
		<tag k="ssr:stedsnr" v="749297" />
	</node>
	<node id="9975171371" lat="60.8905206" lon="5.1709199" version="1" timestamp="2022-08-24T15:28:53Z" changeset="125321647" uid="3497659" user="NKA">
		<tag k="name" v="Tangedal" />
		<tag k="place" v="farm" />
		<tag k="ssr:stedsnr" v="918929" />
	</node>
	<node id="9975171372" lat="60.8865868" lon="5.312116" version="1" timestamp="2022-08-24T15:28:53Z" changeset="125321647" uid="3497659" user="NKA">
		<tag k="name" v="Kvamsdalen" />
		<tag k="place" v="hamlet" />
		<tag k="ssr:stedsnr" v="69988" />
	</node>
	<node id="9975171373" lat="60.7093167" lon="5.4481422" version="1" timestamp="2022-08-24T15:28:53Z" changeset="125321647" uid="3497659" user="NKA">
		<tag k="historic" v="shieling" />
		<tag k="name" v="Stølane" />
		<tag k="place" v="isolated_dwelling" />
		<tag k="ssr:stedsnr" v="81288" />
	</node>
	<node id="9975171374" lat="60.8294862" lon="5.3331561" version="1" timestamp="2022-08-24T15:28:53Z" changeset="125321647" uid="3497659" user="NKA">
		<tag k="name" v="Skjerjebu" />
		<tag k="place" v="isolated_dwelling" />
		<tag k="ssr:stedsnr" v="554629" />
	</node>
	<node id="9975171375" lat="60.9638583" lon="5.7493614" version="1" timestamp="2022-08-24T15:28:53Z" changeset="125321647" uid="3497659" user="NKA">
		<tag k="historic" v="shieling" />
		<tag k="name" v="Bukkedalsstølen" />
		<tag k="place" v="isolated_dwelling" />
		<tag k="ssr:stedsnr" v="676283" />
	</node>
	<node id="9975171376" lat="60.7114087" lon="5.442331" version="1" timestamp="2022-08-24T15:28:53Z" changeset="125321647" uid="3497659" user="NKA">
		<tag k="name" v="Kjekallen" />
		<tag k="place" v="farm" />
		<tag k="ssr:stedsnr" v="673192" />
	</node>
	<node id="9975171377" lat="60.8926944" lon="5.2977589" version="1" timestamp="2022-08-24T15:28:53Z" changeset="125321647" uid="3497659" user="NKA">
		<tag k="name" v="Lia" />
		<tag k="place" v="farm" />
		<tag k="ssr:stedsnr" v="676958" />
	</node>
	<node id="9975171378" lat="60.7925194" lon="5.2182423" version="1" timestamp="2022-08-24T15:28:53Z" changeset="125321647" uid="3497659" user="NKA">
		<tag k="name" v="Raunøyna" />
		<tag k="place" v="farm" />
		<tag k="ssr:stedsnr" v="476578" />
	</node>
	<node id="9975171379" lat="60.7372568" lon="5.4006494" version="1" timestamp="2022-08-24T15:28:53Z" changeset="125321647" uid="3497659" user="NKA">
		<tag k="name" v="Sørkvingo" />
		<tag k="place" v="hamlet" />
		<tag k="ssr:stedsnr" v="491639" />
	</node>
	<node id="9975171380" lat="60.7500361" lon="5.3172393" version="1" timestamp="2022-08-24T15:28:53Z" changeset="125321647" uid="3497659" user="NKA">
		<tag k="name" v="Hopslia" />
		<tag k="place" v="farm" />
		<tag k="ssr:stedsnr" v="130695" />
	</node>
	<node id="9975171381" lat="60.78975" lon="5.3328532" version="1" timestamp="2022-08-24T15:28:53Z" changeset="125321647" uid="3497659" user="NKA">
		<tag k="historic" v="shieling" />
		<tag k="name" v="Sandnessetret" />
		<tag k="place" v="isolated_dwelling" />
		<tag k="ssr:stedsnr" v="433654" />
	</node>
	<node id="9975171382" lat="60.8257029" lon="5.48431" version="1" timestamp="2022-08-24T15:28:53Z" changeset="125321647" uid="3497659" user="NKA">
		<tag k="historic" v="shieling" />
		<tag k="name" v="Haugsdalssetret" />
		<tag k="place" v="isolated_dwelling" />
		<tag k="ssr:stedsnr" v="8421" />
	</node>
	<node id="9975171383" lat="60.9348055" lon="5.6794171" version="1" timestamp="2022-08-24T15:28:53Z" changeset="125321647" uid="3497659" user="NKA">
		<tag k="historic" v="shieling" />
		<tag k="name" v="Fossestølen" />
		<tag k="place" v="isolated_dwelling" />
		<tag k="ssr:stedsnr" v="615231" />
	</node>
	<node id="9975171384" lat="60.9068333" lon="5.5826031" version="1" timestamp="2022-08-24T15:28:53Z" changeset="125321647" uid="3497659" user="NKA">
		<tag k="historic" v="shieling" />
		<tag k="name" v="Gamlestølen" />
		<tag k="place" v="isolated_dwelling" />
		<tag k="ssr:stedsnr" v="384818" />
	</node>
	<node id="9975171385" lat="60.8041834" lon="5.2683339" version="1" timestamp="2022-08-24T15:28:53Z" changeset="125321647" uid="3497659" user="NKA">
		<tag k="name" v="Strandheim" />
		<tag k="place" v="farm" />
		<tag k="ssr:stedsnr" v="433640" />
	</node>
	<node id="9975171386" lat="60.7552556" lon="5.3087255" version="1" timestamp="2022-08-24T15:28:53Z" changeset="125321647" uid="3497659" user="NKA">
		<tag k="name" v="Elvikesetret" />
		<tag k="place" v="farm" />
		<tag k="ssr:stedsnr" v="251752" />
	</node>
	<node id="9975171387" lat="60.91155" lon="5.525581" version="1" timestamp="2022-08-24T15:28:53Z" changeset="125321647" uid="3497659" user="NKA">
		<tag k="name" v="Juvika" />
		<tag k="place" v="farm" />
		<tag k="ssr:stedsnr" v="8388" />
	</node>
	<node id="9975171388" lat="60.7688333" lon="5.3299116" version="1" timestamp="2022-08-24T15:28:53Z" changeset="125321647" uid="3497659" user="NKA">
		<tag k="historic" v="shieling" />
		<tag k="name" v="Setret" />
		<tag k="place" v="isolated_dwelling" />
		<tag k="ssr:stedsnr" v="385347" />
	</node>
	<node id="9975171389" lat="60.771489" lon="5.3867226" version="1" timestamp="2022-08-24T15:28:53Z" changeset="125321647" uid="3497659" user="NKA">
		<tag k="name" v="Kvingedalen" />
		<tag k="place" v="farm" />
		<tag k="ssr:stedsnr" v="554734" />
	</node>
	<node id="9975171390" lat="60.8133333" lon="5.2975201" version="1" timestamp="2022-08-24T15:28:53Z" changeset="125321647" uid="3497659" user="NKA">
		<tag k="name" v="Nesjane" />
		<tag k="place" v="farm" />
		<tag k="ssr:stedsnr" v="191590" />
	</node>
	<node id="9975171391" lat="60.7461724" lon="5.3733035" version="1" timestamp="2022-08-24T15:28:53Z" changeset="125321647" uid="3497659" user="NKA">
		<tag k="name" v="Solbakken" />
		<tag k="place" v="hamlet" />
		<tag k="ssr:stedsnr" v="127705" />
	</node>
	<node id="9975171392" lat="60.7211778" lon="5.4004616" version="1" timestamp="2022-08-24T15:28:53Z" changeset="125321647" uid="3497659" user="NKA">
		<tag k="name" v="Tjørnabakken" />
		<tag k="place" v="farm" />
		<tag k="ssr:stedsnr" v="370198" />
	</node>
	<node id="9975171393" lat="60.7998435" lon="5.3008118" version="1" timestamp="2022-08-24T15:28:53Z" changeset="125321647" uid="3497659" user="NKA">
		<tag k="name" v="Sandnes" />
		<tag k="place" v="farm" />
		<tag k="ssr:stedsnr" v="129645" />
	</node>
	<node id="9975171394" lat="60.7431555" lon="5.3957089" version="1" timestamp="2022-08-24T15:28:53Z" changeset="125321647" uid="3497659" user="NKA">
		<tag k="name" v="Storemyra" />
		<tag k="place" v="farm" />
		<tag k="ssr:stedsnr" v="81326" />
	</node>
	<node id="9975171395" lat="60.7942139" lon="5.3113421" version="1" timestamp="2022-08-24T15:28:53Z" changeset="125321647" uid="3497659" user="NKA">
		<tag k="historic" v="shieling" />
		<tag k="name" v="Setsstølen" />
		<tag k="place" v="isolated_dwelling" />
		<tag k="ssr:stedsnr" v="263370" />
	</node>
	<node id="9975171396" lat="60.7979537" lon="5.2614448" version="1" timestamp="2022-08-24T15:28:53Z" changeset="125321647" uid="3497659" user="NKA">
		<tag k="name" v="Arekletten" />
		<tag k="place" v="hamlet" />
		<tag k="ssr:stedsnr" v="433642" />
	</node>
	<node id="9975171397" lat="60.7677223" lon="5.3483233" version="1" timestamp="2022-08-24T15:28:53Z" changeset="125321647" uid="3497659" user="NKA">
		<tag k="name" v="Mjanger" />
		<tag k="place" v="hamlet" />
		<tag k="ssr:stedsnr" v="858753" />
	</node>
	<node id="9975171398" lat="60.7560471" lon="5.3305335" version="1" timestamp="2022-08-24T15:28:53Z" changeset="125321647" uid="3497659" user="NKA">
		<tag k="name" v="Hope" />
		<tag k="place" v="hamlet" />
		<tag k="ssr:stedsnr" v="433732" />
	</node>
	<node id="9975171399" lat="60.786634" lon="5.219288" version="1" timestamp="2022-08-24T15:28:53Z" changeset="125321647" uid="3497659" user="NKA">
		<tag k="name" v="Raunøyna" />
		<tag k="place" v="farm" />
		<tag k="ssr:stedsnr" v="416321" />
	</node>
	<node id="9975171400" lat="60.859975" lon="5.6610338" version="1" timestamp="2022-08-24T15:28:53Z" changeset="125321647" uid="3497659" user="NKA">
		<tag k="historic" v="shieling" />
		<tag k="name" v="Litlematresstølen" />
		<tag k="place" v="isolated_dwelling" />
		<tag k="ssr:stedsnr" v="372454" />
	</node>
	<node id="9975171401" lat="60.7264389" lon="5.4019588" version="1" timestamp="2022-08-24T15:28:53Z" changeset="125321647" uid="3497659" user="NKA">
		<tag k="name" v="Lia" />
		<tag k="place" v="farm" />
		<tag k="ssr:stedsnr" v="894298" />
	</node>
	<node id="9975171402" lat="60.9133583" lon="5.4569088" version="1" timestamp="2022-08-24T15:28:53Z" changeset="125321647" uid="3497659" user="NKA">
		<tag k="name" v="Legene" />
		<tag k="place" v="farm" />
		<tag k="ssr:stedsnr" v="918935" />
	</node>
	<node id="9975171403" lat="60.8360363" lon="5.3255135" version="1" timestamp="2022-08-24T15:28:53Z" changeset="125321647" uid="3497659" user="NKA">
		<tag k="name" v="Rekneset" />
		<tag k="place" v="hamlet" />
		<tag k="ssr:stedsnr" v="797584" />
	</node>
	<node id="9975171404" lat="60.7871944" lon="5.2207037" version="1" timestamp="2022-08-24T15:28:53Z" changeset="125321647" uid="3497659" user="NKA">
		<tag k="name" v="Gamlegarden" />
		<tag k="place" v="isolated_dwelling" />
		<tag k="ssr:stedsnr" v="449179" />
	</node>
	<node id="9975171405" lat="60.7861528" lon="5.2188134" version="1" timestamp="2022-08-24T15:28:53Z" changeset="125321647" uid="3497659" user="NKA">
		<tag k="name" v="Tjørevikhogen" />
		<tag k="place" v="locality" />
		<tag k="ssr:stedsnr" v="69708" />
	</node>
	<node id="9975171406" lat="60.8931111" lon="5.2870811" version="1" timestamp="2022-08-24T15:28:53Z" changeset="125321647" uid="3497659" user="NKA">
		<tag k="name" v="Lindebotnen" />
		<tag k="place" v="farm" />
		<tag k="ssr:stedsnr" v="433956" />
	</node>
	<node id="9975171407" lat="60.886025" lon="5.3431088" version="1" timestamp="2022-08-24T15:28:53Z" changeset="125321647" uid="3497659" user="NKA">
		<tag k="historic" v="shieling" />
		<tag k="name" v="Kvamsdalsstølen" />
		<tag k="place" v="isolated_dwelling" />
		<tag k="ssr:stedsnr" v="736947" />
	</node>
	<node id="9975171408" lat="60.7771516" lon="5.2790024" version="1" timestamp="2022-08-24T15:28:53Z" changeset="125321647" uid="3497659" user="NKA">
		<tag k="name" v="Kvamme" />
		<tag k="place" v="hamlet" />
		<tag k="ssr:stedsnr" v="615673" />
	</node>
	<node id="9975171410" lat="60.8267772" lon="5.3796911" version="1" timestamp="2022-08-24T15:28:53Z" changeset="125321647" uid="3497659" user="NKA">
		<tag k="name" v="Totlandsdalen" />
		<tag k="place" v="farm" />
		<tag k="ssr:stedsnr" v="919571" />
	</node>
	<node id="9975171411" lat="60.8738277" lon="5.2140367" version="1" timestamp="2022-08-24T15:28:53Z" changeset="125321647" uid="3497659" user="NKA">
		<tag k="name" v="Kjerdal" />
		<tag k="place" v="farm" />
		<tag k="ssr:stedsnr" v="797964" />
	</node>
	<node id="9975171412" lat="60.9004083" lon="5.6117142" version="1" timestamp="2022-08-24T15:28:53Z" changeset="125321647" uid="3497659" user="NKA">
		<tag k="historic" v="shieling" />
		<tag k="name" v="Holene" />
		<tag k="place" v="isolated_dwelling" />
		<tag k="ssr:stedsnr" v="797344" />
	</node>
	<node id="9975171413" lat="60.8439528" lon="5.2126533" version="1" timestamp="2022-08-24T15:28:53Z" changeset="125321647" uid="3497659" user="NKA">
		<tag k="historic" v="shieling" />
		<tag k="name" v="Stølen" />
		<tag k="place" v="isolated_dwelling" />
		<tag k="ssr:stedsnr" v="506624" />
	</node>
	<node id="9975171414" lat="60.8465584" lon="5.4185755" version="1" timestamp="2022-08-24T15:28:53Z" changeset="125321647" uid="3497659" user="NKA">
		<tag k="historic" v="shieling" />
		<tag k="name" v="Floksetra" />
		<tag k="place" v="isolated_dwelling" />
		<tag k="ssr:stedsnr" v="931425" />
	</node>
	<node id="9975171415" lat="60.8416111" lon="5.2512256" version="1" timestamp="2022-08-24T15:28:53Z" changeset="125321647" uid="3497659" user="NKA">
		<tag k="name" v="Ålevollane" />
		<tag k="place" v="farm" />
		<tag k="ssr:stedsnr" v="615552" />
	</node>
	<node id="9975171416" lat="60.8767244" lon="5.3447787" version="1" timestamp="2022-08-24T15:28:53Z" changeset="125321647" uid="3497659" user="NKA">
		<tag k="historic" v="shieling" />
		<tag k="name" v="Bergsviksetra" />
		<tag k="place" v="isolated_dwelling" />
		<tag k="ssr:stedsnr" v="858531" />
	</node>
	<node id="9975199317" lat="60.844325" lon="5.2033007" version="1" timestamp="2022-08-24T15:28:53Z" changeset="125321647" uid="3497659" user="NKA">
		<tag k="name" v="Leirvågen" />
		<tag k="place" v="farm" />
		<tag k="ssr:stedsnr" v="506631" />
	</node>
	<node id="9975199318" lat="60.8896972" lon="5.3661894" version="1" timestamp="2022-08-24T15:28:53Z" changeset="125321647" uid="3497659" user="NKA">
		<tag k="historic" v="shieling" />
		<tag k="name" v="Hogasetret" />
		<tag k="place" v="isolated_dwelling" />
		<tag k="ssr:stedsnr" v="736948" />
	</node>
	<node id="9975199319" lat="60.8962667" lon="5.4170116" version="1" timestamp="2022-08-24T15:28:53Z" changeset="125321647" uid="3497659" user="NKA">
		<tag k="name" v="Stallane" />
		<tag k="place" v="farm" />
		<tag k="ssr:stedsnr" v="736935" />
	</node>
	<node id="9975199320" lat="60.8698223" lon="5.2247451" version="1" timestamp="2022-08-24T15:28:53Z" changeset="125321647" uid="3497659" user="NKA">
		<tag k="historic" v="shieling" />
		<tag k="name" v="Fjelldalsstølen" />
		<tag k="place" v="isolated_dwelling" />
		<tag k="ssr:stedsnr" v="324679" />
	</node>
	<node id="9975199321" lat="60.9321861" lon="5.575631" version="1" timestamp="2022-08-24T15:28:53Z" changeset="125321647" uid="3497659" user="NKA">
		<tag k="historic" v="shieling" />
		<tag k="name" v="Røyrfiten" />
		<tag k="place" v="isolated_dwelling" />
		<tag k="ssr:stedsnr" v="615230" />
	</node>
	<node id="9975199322" lat="60.81755" lon="5.2725921" version="1" timestamp="2022-08-24T15:28:53Z" changeset="125321647" uid="3497659" user="NKA">
		<tag k="name" v="Vikedalen" />
		<tag k="place" v="farm" />
		<tag k="ssr:stedsnr" v="433593" />
	</node>
	<node id="9975199323" lat="60.9181944" lon="5.4377783" version="1" timestamp="2022-08-24T15:28:53Z" changeset="125321647" uid="3497659" user="NKA">
		<tag k="historic" v="shieling" />
		<tag k="name" v="Steinstølen" />
		<tag k="place" v="isolated_dwelling" />
		<tag k="ssr:stedsnr" v="688430" />
	</node>
	<node id="9975199324" lat="60.9077389" lon="5.5589366" version="1" timestamp="2022-08-24T15:28:53Z" changeset="125321647" uid="3497659" user="NKA">
		<tag k="historic" v="shieling" />
		<tag k="name" v="Trommeluren" />
		<tag k="place" v="isolated_dwelling" />
		<tag k="ssr:stedsnr" v="554380" />
	</node>
	<node id="9975199325" lat="60.9259639" lon="5.7181004" version="1" timestamp="2022-08-24T15:28:53Z" changeset="125321647" uid="3497659" user="NKA">
		<tag k="historic" v="shieling" />
		<tag k="name" v="Fagerdalssetret" />
		<tag k="place" v="isolated_dwelling" />
		<tag k="ssr:stedsnr" v="69279" />
	</node>
	<node id="9975199326" lat="60.95495" lon="5.6103504" version="1" timestamp="2022-08-24T15:28:53Z" changeset="125321647" uid="3497659" user="NKA">
		<tag k="historic" v="shieling" />
		<tag k="name" v="Vågsetstølen" />
		<tag k="place" v="isolated_dwelling" />
		<tag k="ssr:stedsnr" v="433293" />
	</node>
	<node id="9975199327" lat="60.8331445" lon="5.2550228" version="1" timestamp="2022-08-24T15:28:53Z" changeset="125321647" uid="3497659" user="NKA">
		<tag k="name" v="Træet" />
		<tag k="place" v="farm" />
		<tag k="ssr:stedsnr" v="263521" />
	</node>
	<node id="9975199328" lat="60.8881497" lon="5.2241562" version="1" timestamp="2022-08-24T15:28:53Z" changeset="125321647" uid="3497659" user="NKA">
		<tag k="name" v="Store Sleire" />
		<tag k="place" v="farm" />
		<tag k="ssr:stedsnr" v="129942" />
	</node>
	<node id="9975199329" lat="60.8469535" lon="5.2118958" version="1" timestamp="2022-08-24T15:28:53Z" changeset="125321647" uid="3497659" user="NKA">
		<tag k="name" v="Risnes" />
		<tag k="place" v="hamlet" />
		<tag k="ssr:stedsnr" v="191493" />
	</node>
	<node id="9975199330" lat="60.8822371" lon="5.3869195" version="1" timestamp="2022-08-24T15:28:53Z" changeset="125321647" uid="3497659" user="NKA">
		<tag k="name" v="Fossheim" />
		<tag k="place" v="farm" />
		<tag k="ssr:stedsnr" v="129989" />
	</node>
	<node id="9975199331" lat="60.8221248" lon="5.385714" version="1" timestamp="2022-08-24T15:28:53Z" changeset="125321647" uid="3497659" user="NKA">
		<tag k="name" v="Nørland" />
		<tag k="place" v="hamlet" />
		<tag k="ssr:stedsnr" v="69661" />
	</node>
	<node id="9975199332" lat="60.87135" lon="5.2998838" version="1" timestamp="2022-08-24T15:28:53Z" changeset="125321647" uid="3497659" user="NKA">
		<tag k="name" v="Mollandsstølen" />
		<tag k="place" v="locality" />
		<tag k="ssr:stedsnr" v="8982" />
	</node>
	<node id="9975199333" lat="60.8836778" lon="5.2397255" version="1" timestamp="2022-08-24T15:28:53Z" changeset="125321647" uid="3497659" user="NKA">
		<tag k="name" v="Saghaugen" />
		<tag k="place" v="farm" />
		<tag k="ssr:stedsnr" v="8946" />
	</node>
	<node id="9975199334" lat="60.8714084" lon="5.2059255" version="1" timestamp="2022-08-24T15:28:53Z" changeset="125321647" uid="3497659" user="NKA">
		<tag k="name" v="Brudal" />
		<tag k="place" v="farm" />
		<tag k="ssr:stedsnr" v="129966" />
	</node>
	<node id="9975199335" lat="60.8127083" lon="5.3356643" version="1" timestamp="2022-08-24T15:28:53Z" changeset="125321647" uid="3497659" user="NKA">
		<tag k="historic" v="shieling" />
		<tag k="name" v="Tostølen" />
		<tag k="place" v="isolated_dwelling" />
		<tag k="ssr:stedsnr" v="81299" />
	</node>
	<node id="9975199336" lat="60.839225" lon="5.2593645" version="1" timestamp="2022-08-24T15:28:53Z" changeset="125321647" uid="3497659" user="NKA">
		<tag k="name" v="Midtbø" />
		<tag k="place" v="farm" />
		<tag k="ssr:stedsnr" v="190559" />
	</node>
	<node id="9975199337" lat="60.8829361" lon="5.2120866" version="1" timestamp="2022-08-24T15:28:53Z" changeset="125321647" uid="3497659" user="NKA">
		<tag k="name" v="Fagrevika" />
		<tag k="place" v="farm" />
		<tag k="ssr:stedsnr" v="203697" />
	</node>
	<node id="9975199338" lat="60.8733055" lon="5.2034838" version="1" timestamp="2022-08-24T15:28:53Z" changeset="125321647" uid="3497659" user="NKA">
		<tag k="name" v="Nordvang" />
		<tag k="place" v="farm" />
		<tag k="ssr:stedsnr" v="69994" />
	</node>
	<node id="9975199339" lat="60.8100028" lon="5.5395894" version="1" timestamp="2022-08-24T15:28:53Z" changeset="125321647" uid="3497659" user="NKA">
		<tag k="name" v="Storemyr" />
		<tag k="place" v="farm" />
		<tag k="ssr:stedsnr" v="8439" />
	</node>
	<node id="9975199340" lat="60.8438" lon="5.1721201" version="1" timestamp="2022-08-24T15:28:53Z" changeset="125321647" uid="3497659" user="NKA">
		<tag k="name" v="Solli" />
		<tag k="place" v="farm" />
		<tag k="ssr:stedsnr" v="931655" />
	</node>
	<node id="9975199341" lat="60.8989806" lon="5.5063809" version="1" timestamp="2022-08-24T15:28:53Z" changeset="125321647" uid="3497659" user="NKA">
		<tag k="name" v="Grimhaugane" />
		<tag k="place" v="farm" />
		<tag k="ssr:stedsnr" v="919335" />
	</node>
	<node id="9975199342" lat="60.8756252" lon="5.5907399" version="1" timestamp="2022-08-24T15:28:53Z" changeset="125321647" uid="3497659" user="NKA">
		<tag k="name" v="Litlematre" />
		<tag k="place" v="farm" />
		<tag k="ssr:stedsnr" v="191289" />
	</node>
	<node id="9975199343" lat="60.8494306" lon="5.1837339" version="1" timestamp="2022-08-24T15:28:53Z" changeset="125321647" uid="3497659" user="NKA">
		<tag k="name" v="Rambjørgsvika" />
		<tag k="place" v="farm" />
		<tag k="ssr:stedsnr" v="615522" />
	</node>
	<node id="9975199344" lat="60.8994806" lon="5.28507" version="1" timestamp="2022-08-24T15:28:53Z" changeset="125321647" uid="3497659" user="NKA">
		<tag k="historic" v="shieling" />
		<tag k="name" v="Dyrebotssetra" />
		<tag k="place" v="isolated_dwelling" />
		<tag k="ssr:stedsnr" v="858954" />
	</node>
	<node id="9975199345" lat="60.9034889" lon="5.5161143" version="1" timestamp="2022-08-24T15:28:53Z" changeset="125321647" uid="3497659" user="NKA">
		<tag k="name" v="Vollen" />
		<tag k="place" v="farm" />
		<tag k="ssr:stedsnr" v="627752" />
	</node>
	<node id="9975199346" lat="60.8882982" lon="5.220287" version="1" timestamp="2022-08-24T15:28:53Z" changeset="125321647" uid="3497659" user="NKA">
		<tag k="name" v="Litle Sleire" />
		<tag k="place" v="farm" />
		<tag k="ssr:stedsnr" v="918956" />
	</node>
	<node id="9975199347" lat="60.9065361" lon="5.252595" version="1" timestamp="2022-08-24T15:28:53Z" changeset="125321647" uid="3497659" user="NKA">
		<tag k="historic" v="shieling" />
		<tag k="name" v="Stølane" />
		<tag k="place" v="isolated_dwelling" />
		<tag k="ssr:stedsnr" v="566623" />
	</node>
	<node id="9975199348" lat="60.8653518" lon="5.2109178" version="1" timestamp="2022-08-24T15:28:53Z" changeset="125321647" uid="3497659" user="NKA">
		<tag k="name" v="Frøyset" />
		<tag k="place" v="hamlet" />
		<tag k="ssr:stedsnr" v="615500" />
	</node>
	<node id="9975199349" lat="60.764325" lon="5.4329004" version="1" timestamp="2022-08-24T15:28:53Z" changeset="125321647" uid="3497659" user="NKA">
		<tag k="historic" v="shieling" />
		<tag k="name" v="Nordkvingesetret" />
		<tag k="place" v="isolated_dwelling" />
		<tag k="ssr:stedsnr" v="8757" />
	</node>
	<node id="9975199350" lat="60.8549705" lon="5.2012571" version="1" timestamp="2022-08-24T15:28:53Z" changeset="125321647" uid="3497659" user="NKA">
		<tag k="name" v="Torsvika" />
		<tag k="place" v="farm" />
		<tag k="ssr:stedsnr" v="312535" />
	</node>
	<node id="9975199351" lat="60.8766926" lon="5.5423413" version="1" timestamp="2022-08-24T15:28:53Z" changeset="125321647" uid="3497659" user="NKA">
		<tag k="name" v="Trodalen" />
		<tag k="place" v="hamlet" />
		<tag k="ssr:stedsnr" v="615309" />
	</node>
	<node id="9975199352" lat="60.8377889" lon="5.3335755" version="1" timestamp="2022-08-24T15:28:53Z" changeset="125321647" uid="3497659" user="NKA">
		<tag k="name" v="Soltun" />
		<tag k="place" v="farm" />
		<tag k="ssr:stedsnr" v="554611" />
	</node>
	<node id="9975199353" lat="60.9289278" lon="5.607667" version="1" timestamp="2022-08-24T15:28:53Z" changeset="125321647" uid="3497659" user="NKA">
		<tag k="historic" v="shieling" />
		<tag k="name" v="Hopsstølen" />
		<tag k="place" v="isolated_dwelling" />
		<tag k="ssr:stedsnr" v="615237" />
	</node>
	<node id="9975199354" lat="60.8708167" lon="5.2245728" version="1" timestamp="2022-08-24T15:28:53Z" changeset="125321647" uid="3497659" user="NKA">
		<tag k="historic" v="shieling" />
		<tag k="name" v="Furestølen" />
		<tag k="place" v="isolated_dwelling" />
		<tag k="ssr:stedsnr" v="931708" />
	</node>
	<node id="9975199355" lat="60.8152028" lon="5.2699506" version="1" timestamp="2022-08-24T15:28:53Z" changeset="125321647" uid="3497659" user="NKA">
		<tag k="name" v="Holsøya" />
		<tag k="place" v="farm" />
		<tag k="ssr:stedsnr" v="566291" />
	</node>
	<node id="9975199356" lat="60.9108329" lon="5.6319315" version="1" timestamp="2022-08-24T15:28:53Z" changeset="125321647" uid="3497659" user="NKA">
		<tag k="name" v="Fossen" />
		<tag k="place" v="hamlet" />
		<tag k="ssr:stedsnr" v="615345" />
	</node>
	<node id="9975199357" lat="60.8582944" lon="5.2073034" version="1" timestamp="2022-08-24T15:28:53Z" changeset="125321647" uid="3497659" user="NKA">
		<tag k="name" v="Rusta" />
		<tag k="place" v="farm" />
		<tag k="ssr:stedsnr" v="251532" />
	</node>
	<node id="9975199358" lat="60.8138611" lon="5.5359171" version="1" timestamp="2022-08-24T15:28:53Z" changeset="125321647" uid="3497659" user="NKA">
		<tag k="historic" v="shieling" />
		<tag k="name" v="Dalesetret" />
		<tag k="place" v="isolated_dwelling" />
		<tag k="ssr:stedsnr" v="615349" />
	</node>
	<node id="9975199359" lat="60.8458611" lon="5.164834" version="1" timestamp="2022-08-24T15:28:53Z" changeset="125321647" uid="3497659" user="NKA">
		<tag k="name" v="Øvrebotnen" />
		<tag k="place" v="farm" />
		<tag k="ssr:stedsnr" v="627690" />
	</node>
	<node id="9975199360" lat="60.8754694" lon="5.2126311" version="1" timestamp="2022-08-24T15:28:53Z" changeset="125321647" uid="3497659" user="NKA">
		<tag k="name" v="Dalset" />
		<tag k="place" v="farm" />
		<tag k="ssr:stedsnr" v="797999" />
	</node>
	<node id="9975199361" lat="60.8487077" lon="5.1552366" version="1" timestamp="2022-08-24T15:28:53Z" changeset="125321647" uid="3497659" user="NKA">
		<tag k="name" v="Haugsdal" />
		<tag k="place" v="farm" />
		<tag k="ssr:stedsnr" v="130498" />
	</node>
	<node id="9975199362" lat="60.8489987" lon="5.3013965" version="1" timestamp="2022-08-24T15:28:53Z" changeset="125321647" uid="3497659" user="NKA">
		<tag k="name" v="Molland" />
		<tag k="place" v="hamlet" />
		<tag k="ssr:stedsnr" v="676558" />
	</node>
	<node id="9975199363" lat="60.845388" lon="5.1761294" version="1" timestamp="2022-08-24T15:28:53Z" changeset="125321647" uid="3497659" user="NKA">
		<tag k="name" v="Hatlevika" />
		<tag k="place" v="farm" />
		<tag k="ssr:stedsnr" v="190531" />
	</node>
	<node id="9975199364" lat="60.8720091" lon="5.2562444" version="1" timestamp="2022-08-24T15:28:53Z" changeset="125321647" uid="3497659" user="NKA">
		<tag k="name" v="Låveidet" />
		<tag k="place" v="farm" />
		<tag k="ssr:stedsnr" v="190965" />
	</node>
	<node id="9975199365" lat="60.86335" lon="5.5143866" version="1" timestamp="2022-08-24T15:28:53Z" changeset="125321647" uid="3497659" user="NKA">
		<tag k="historic" v="shieling" />
		<tag k="name" v="Solheim" />
		<tag k="place" v="isolated_dwelling" />
		<tag k="ssr:stedsnr" v="554344" />
	</node>
	<node id="9975199366" lat="60.8335222" lon="5.5297227" version="1" timestamp="2022-08-24T15:28:53Z" changeset="125321647" uid="3497659" user="NKA">
		<tag k="historic" v="shieling" />
		<tag k="name" v="Stølen" />
		<tag k="place" v="isolated_dwelling" />
		<tag k="ssr:stedsnr" v="263598" />
	</node>
	<node id="9975199367" lat="60.8390414" lon="5.2565145" version="1" timestamp="2022-08-24T15:28:53Z" changeset="125321647" uid="3497659" user="NKA">
		<tag k="name" v="Hogen" />
		<tag k="place" v="farm" />
		<tag k="ssr:stedsnr" v="8584" />
	</node>
	<node id="9975199368" lat="60.9059416" lon="5.5215282" version="1" timestamp="2022-08-24T15:28:53Z" changeset="125321647" uid="3497659" user="NKA">
		<tag k="name" v="Tufta" />
		<tag k="place" v="farm" />
		<tag k="ssr:stedsnr" v="446751" />
	</node>
	<node id="9975199369" lat="60.874375" lon="5.197695" version="1" timestamp="2022-08-24T15:28:53Z" changeset="125321647" uid="3497659" user="NKA">
		<tag k="name" v="Buskhaug" />
		<tag k="place" v="farm" />
		<tag k="ssr:stedsnr" v="142686" />
	</node>
	<node id="9975199370" lat="60.9036083" lon="5.257106" version="1" timestamp="2022-08-24T15:28:53Z" changeset="125321647" uid="3497659" user="NKA">
		<tag k="name" v="Grava" />
		<tag k="place" v="locality" />
		<tag k="ssr:stedsnr" v="311947" />
	</node>
	<node id="9975199371" lat="60.8459888" lon="5.2732618" version="1" timestamp="2022-08-24T15:28:53Z" changeset="125321647" uid="3497659" user="NKA">
		<tag k="historic" v="shieling" />
		<tag k="name" v="Stølane" />
		<tag k="place" v="isolated_dwelling" />
		<tag k="ssr:stedsnr" v="21396" />
	</node>
	<node id="9975199372" lat="60.7164308" lon="5.4144662" version="1" timestamp="2022-08-24T15:28:53Z" changeset="125321647" uid="3497659" user="NKA">
		<tag k="name" v="Einestranda" />
		<tag k="place" v="farm" />
		<tag k="ssr:stedsnr" v="916197" />
	</node>
	<node id="9975199373" lat="60.8336611" lon="5.515067" version="1" timestamp="2022-08-24T15:28:53Z" changeset="125321647" uid="3497659" user="NKA">
		<tag k="name" v="Storemyr" />
		<tag k="place" v="farm" />
		<tag k="ssr:stedsnr" v="203578" />
	</node>
	<node id="9975199374" lat="60.9109278" lon="5.3159394" version="1" timestamp="2022-08-24T15:28:53Z" changeset="125321647" uid="3497659" user="NKA">
		<tag k="name" v="Leitet" />
		<tag k="place" v="locality" />
		<tag k="ssr:stedsnr" v="69937" />
	</node>
	<node id="9975199375" lat="60.7697194" lon="5.2906423" version="1" timestamp="2022-08-24T15:28:53Z" changeset="125321647" uid="3497659" user="NKA">
		<tag k="historic" v="shieling" />
		<tag k="name" v="Fjellstølen" />
		<tag k="place" v="isolated_dwelling" />
		<tag k="ssr:stedsnr" v="506336" />
	</node>
	<node id="9975199376" lat="60.8932055" lon="5.2832311" version="1" timestamp="2022-08-24T15:28:53Z" changeset="125321647" uid="3497659" user="NKA">
		<tag k="name" v="Brekkene" />
		<tag k="place" v="farm" />
		<tag k="ssr:stedsnr" v="130954" />
	</node>
	<node id="9975199377" lat="60.9129143" lon="5.4644017" version="1" timestamp="2022-08-24T15:28:53Z" changeset="125321647" uid="3497659" user="NKA">
		<tag k="name" v="Kalhovda" />
		<tag k="place" v="hamlet" />
		<tag k="ssr:stedsnr" v="433918" />
	</node>
	<node id="9975199378" lat="60.8366999" lon="5.5536222" version="1" timestamp="2022-08-24T15:28:53Z" changeset="125321647" uid="3497659" user="NKA">
		<tag k="name" v="Bjørnekletten" />
		<tag k="place" v="farm" />
		<tag k="ssr:stedsnr" v="494377" />
	</node>
	<node id="9975199379" lat="60.8435" lon="5.2049561" version="1" timestamp="2022-08-24T15:28:53Z" changeset="125321647" uid="3497659" user="NKA">
		<tag k="name" v="Straumsvika" />
		<tag k="place" v="farm" />
		<tag k="ssr:stedsnr" v="615538" />
	</node>
	<node id="9975199380" lat="60.8251973" lon="5.5716416" version="1" timestamp="2022-08-24T15:28:53Z" changeset="125321647" uid="3497659" user="NKA">
		<tag k="name" v="Haukeland" />
		<tag k="place" v="farm" />
		<tag k="ssr:stedsnr" v="676397" />
	</node>
	<node id="9975199381" lat="60.889675" lon="5.2290367" version="1" timestamp="2022-08-24T15:28:53Z" changeset="125321647" uid="3497659" user="NKA">
		<tag k="name" v="Høgemark" />
		<tag k="place" v="farm" />
		<tag k="ssr:stedsnr" v="141625" />
	</node>
	<node id="9975199382" lat="60.7586969" lon="5.2918453" version="1" timestamp="2022-08-24T15:28:53Z" changeset="125321647" uid="3497659" user="NKA">
		<tag k="name" v="Elvika" />
		<tag k="place" v="hamlet" />
		<tag k="ssr:stedsnr" v="554764" />
	</node>
	<node id="9975199383" lat="60.9078478" lon="5.679411" version="1" timestamp="2022-08-24T15:28:53Z" changeset="125321647" uid="3497659" user="NKA">
		<tag k="name" v="Kringlebotnen" />
		<tag k="place" v="farm" />
		<tag k="ssr:stedsnr" v="797336" />
	</node>
	<node id="9975199384" lat="60.8626985" lon="5.1729237" version="1" timestamp="2022-08-24T15:28:53Z" changeset="125321647" uid="3497659" user="NKA">
		<tag k="name" v="Rambjørg" />
		<tag k="place" v="hamlet" />
		<tag k="ssr:stedsnr" v="615485" />
	</node>
	<node id="9975199385" lat="60.8341111" lon="5.259206" version="1" timestamp="2022-08-24T15:28:53Z" changeset="125321647" uid="3497659" user="NKA">
		<tag k="name" v="Vonheim" />
		<tag k="place" v="farm" />
		<tag k="ssr:stedsnr" v="614581" />
	</node>
	<node id="9975199386" lat="60.9114917" lon="5.4175559" version="1" timestamp="2022-08-24T15:28:53Z" changeset="125321647" uid="3497659" user="NKA">
		<tag k="name" v="Klausstølen" />
		<tag k="place" v="locality" />
		<tag k="ssr:stedsnr" v="736919" />
	</node>
	<node id="9975199387" lat="60.9075777" lon="5.3998476" version="1" timestamp="2022-08-24T15:28:53Z" changeset="125321647" uid="3497659" user="NKA">
		<tag k="historic" v="shieling" />
		<tag k="name" v="Øvre Fossdalsstølen" />
		<tag k="place" v="isolated_dwelling" />
		<tag k="ssr:stedsnr" v="675930" />
	</node>
	<node id="9975199388" lat="60.8958825" lon="5.3820359" version="1" timestamp="2022-08-24T15:28:53Z" changeset="125321647" uid="3497659" user="NKA">
		<tag k="name" v="Fossdalen" />
		<tag k="place" v="farm" />
		<tag k="ssr:stedsnr" v="797925" />
	</node>
	<node id="9975199389" lat="60.8485694" lon="5.1878645" version="1" timestamp="2022-08-24T15:28:53Z" changeset="125321647" uid="3497659" user="NKA">
		<tag k="name" v="Havnen" />
		<tag k="place" v="farm" />
		<tag k="ssr:stedsnr" v="324623" />
	</node>
	<node id="9975199390" lat="60.8153361" lon="5.2688227" version="1" timestamp="2022-08-24T15:28:53Z" changeset="125321647" uid="3497659" user="NKA">
		<tag k="name" v="Holsnøyni" />
		<tag k="place" v="isolated_dwelling" />
		<tag k="ssr:stedsnr" v="736587" />
	</node>
	<node id="9975199391" lat="60.8277666" lon="5.4139088" version="1" timestamp="2022-08-24T15:28:53Z" changeset="125321647" uid="3497659" user="NKA">
		<tag k="historic" v="shieling" />
		<tag k="name" v="Florstræet" />
		<tag k="place" v="isolated_dwelling" />
		<tag k="ssr:stedsnr" v="494567" />
	</node>
	<node id="9975199392" lat="60.8247582" lon="5.3820334" version="1" timestamp="2022-08-24T15:28:53Z" changeset="125321647" uid="3497659" user="NKA">
		<tag k="name" v="Totland" />
		<tag k="place" v="hamlet" />
		<tag k="ssr:stedsnr" v="615579" />
	</node>
	<node id="9975199393" lat="60.917683" lon="5.4506981" version="1" timestamp="2022-08-24T15:28:53Z" changeset="125321647" uid="3497659" user="NKA">
		<tag k="historic" v="shieling" />
		<tag k="name" v="Kalhovdasetra" />
		<tag k="place" v="isolated_dwelling" />
		<tag k="ssr:stedsnr" v="614940" />
	</node>
	<node id="9975199394" lat="60.8395333" lon="5.2094755" version="1" timestamp="2022-08-24T15:28:53Z" changeset="125321647" uid="3497659" user="NKA">
		<tag k="name" v="Fagrevika" />
		<tag k="place" v="farm" />
		<tag k="ssr:stedsnr" v="858560" />
	</node>
	<node id="9975199395" lat="60.8463156" lon="5.3351061" version="1" timestamp="2022-08-24T15:28:53Z" changeset="125321647" uid="3497659" user="NKA">
		<tag k="name" v="Lauvvik" />
		<tag k="place" v="farm" />
		<tag k="ssr:stedsnr" v="614556" />
	</node>
	<node id="9975199396" lat="60.8145415" lon="5.305278" version="1" timestamp="2022-08-24T15:28:53Z" changeset="125321647" uid="3497659" user="NKA">
		<tag k="name" v="Duesund" />
		<tag k="place" v="hamlet" />
		<tag k="ssr:stedsnr" v="736598" />
	</node>
	<node id="9975199397" lat="60.9097889" lon="5.4645977" version="1" timestamp="2022-08-24T15:28:53Z" changeset="125321647" uid="3497659" user="NKA">
		<tag k="name" v="Nystykket" />
		<tag k="place" v="farm" />
		<tag k="ssr:stedsnr" v="736910" />
	</node>
	<node id="9975199398" lat="60.8359265" lon="5.3651857" version="1" timestamp="2022-08-24T15:28:53Z" changeset="125321647" uid="3497659" user="NKA">
		<tag k="name" v="Ådnekvamme" />
		<tag k="place" v="hamlet" />
		<tag k="ssr:stedsnr" v="919557" />
	</node>
	<node id="9975199399" lat="60.79965" lon="5.4386254" version="1" timestamp="2022-08-24T15:28:53Z" changeset="125321647" uid="3497659" user="NKA">
		<tag k="historic" v="shieling" />
		<tag k="name" v="Andviksetret" />
		<tag k="place" v="isolated_dwelling" />
		<tag k="ssr:stedsnr" v="311718" />
	</node>
	<node id="9975199400" lat="60.9036415" lon="5.410382" version="1" timestamp="2022-08-24T15:28:53Z" changeset="125321647" uid="3497659" user="NKA">
		<tag k="historic" v="shieling" />
		<tag k="name" v="Eikemosetra" />
		<tag k="place" v="isolated_dwelling" />
		<tag k="ssr:stedsnr" v="433950" />
	</node>
	<node id="9975199401" lat="60.9224776" lon="5.5420068" version="1" timestamp="2022-08-24T15:28:53Z" changeset="125321647" uid="3497659" user="NKA">
		<tag k="name" v="Hope" />
		<tag k="place" v="hamlet" />
		<tag k="ssr:stedsnr" v="372278" />
	</node>
	<node id="9975199402" lat="60.9128694" lon="5.6189336" version="1" timestamp="2022-08-24T15:28:53Z" changeset="125321647" uid="3497659" user="NKA">
		<tag k="historic" v="shieling" />
		<tag k="name" v="Hyttemarkstølen" />
		<tag k="place" v="isolated_dwelling" />
		<tag k="ssr:stedsnr" v="81856" />
	</node>
	<node id="9975199403" lat="60.7546096" lon="5.3232655" version="1" timestamp="2022-08-24T15:28:53Z" changeset="125321647" uid="3497659" user="NKA">
		<tag k="name" v="Solberg" />
		<tag k="place" v="farm" />
		<tag k="ssr:stedsnr" v="388155" />
	</node>
	<node id="9975199404" lat="60.8486889" lon="5.550281" version="1" timestamp="2022-08-24T15:28:53Z" changeset="125321647" uid="3497659" user="NKA">
		<tag k="historic" v="shieling" />
		<tag k="name" v="Smørdalssetret" />
		<tag k="place" v="isolated_dwelling" />
		<tag k="ssr:stedsnr" v="311468" />
	</node>
	<node id="9975199405" lat="60.7700556" lon="5.302306" version="1" timestamp="2022-08-24T15:28:53Z" changeset="125321647" uid="3497659" user="NKA">
		<tag k="historic" v="shieling" />
		<tag k="name" v="Vallestølen" />
		<tag k="place" v="isolated_dwelling" />
		<tag k="ssr:stedsnr" v="870387" />
	</node>
	<node id="9975199406" lat="60.7810389" lon="5.3923393" version="1" timestamp="2022-08-24T15:28:53Z" changeset="125321647" uid="3497659" user="NKA">
		<tag k="historic" v="shieling" />
		<tag k="name" v="Nedsta Kvingedalssetret" />
		<tag k="place" v="isolated_dwelling" />
		<tag k="ssr:stedsnr" v="493690" />
	</node>
	<node id="9975199407" lat="60.9126132" lon="5.518949" version="1" timestamp="2022-08-24T15:28:53Z" changeset="125321647" uid="3497659" user="NKA">
		<tag k="name" v="Vågset" />
		<tag k="place" v="farm" />
		<tag k="ssr:stedsnr" v="129368" />
	</node>
	<node id="9975199408" lat="60.9411805" lon="5.579431" version="1" timestamp="2022-08-24T15:28:53Z" changeset="125321647" uid="3497659" user="NKA">
		<tag k="historic" v="shieling" />
		<tag k="name" v="Dukestølen" />
		<tag k="place" v="isolated_dwelling" />
		<tag k="ssr:stedsnr" v="69292" />
	</node>
	<node id="9975199409" lat="60.9003028" lon="5.5473644" version="1" timestamp="2022-08-24T15:28:53Z" changeset="125321647" uid="3497659" user="NKA">
		<tag k="historic" v="shieling" />
		<tag k="name" v="Søsetret" />
		<tag k="place" v="isolated_dwelling" />
		<tag k="ssr:stedsnr" v="809709" />
	</node>
	<node id="9975199410" lat="60.9008639" lon="5.5150532" version="1" timestamp="2022-08-24T15:28:53Z" changeset="125321647" uid="3497659" user="NKA">
		<tag k="name" v="Skaret" />
		<tag k="place" v="farm" />
		<tag k="ssr:stedsnr" v="142746" />
	</node>
	<node id="9975199411" lat="60.8186111" lon="5.3632061" version="1" timestamp="2022-08-24T15:28:53Z" changeset="125321647" uid="3497659" user="NKA">
		<tag k="name" v="Breimyra" />
		<tag k="place" v="farm" />
		<tag k="ssr:stedsnr" v="433601" />
	</node>
	<node id="9975199412" lat="60.8526472" lon="5.509706" version="1" timestamp="2022-08-24T15:28:53Z" changeset="125321647" uid="3497659" user="NKA">
		<tag k="name" v="Træet" />
		<tag k="place" v="farm" />
		<tag k="ssr:stedsnr" v="566512" />
	</node>
	<node id="9975199413" lat="60.8057083" lon="5.2658089" version="1" timestamp="2022-08-24T15:28:53Z" changeset="125321647" uid="3497659" user="NKA">
		<tag k="name" v="Solstrand" />
		<tag k="place" v="farm" />
		<tag k="ssr:stedsnr" v="737634" />
	</node>
	<node id="9975199414" lat="60.8908778" lon="5.3598561" version="1" timestamp="2022-08-24T15:28:53Z" changeset="125321647" uid="3497659" user="NKA">
		<tag k="historic" v="shieling" />
		<tag k="name" v="Fossdalsstølen" />
		<tag k="place" v="isolated_dwelling" />
		<tag k="ssr:stedsnr" v="372958" />
	</node>
	<node id="9975199415" lat="60.8107111" lon="5.5426422" version="1" timestamp="2022-08-24T15:28:53Z" changeset="125321647" uid="3497659" user="NKA">
		<tag k="historic" v="shieling" />
		<tag k="name" v="Fonnhogen" />
		<tag k="place" v="isolated_dwelling" />
		<tag k="ssr:stedsnr" v="494459" />
	</node>
	<node id="9975199416" lat="60.8976528" lon="5.5827199" version="1" timestamp="2022-08-24T15:28:53Z" changeset="125321647" uid="3497659" user="NKA">
		<tag k="historic" v="shieling" />
		<tag k="name" v="Slottestølen" />
		<tag k="place" v="isolated_dwelling" />
		<tag k="ssr:stedsnr" v="688831" />
	</node>
	<node id="9975199417" lat="60.8292722" lon="5.5285976" version="1" timestamp="2022-08-24T15:28:53Z" changeset="125321647" uid="3497659" user="NKA">
		<tag k="historic" v="shieling" />
		<tag k="name" v="Stølane" />
		<tag k="place" v="isolated_dwelling" />
		<tag k="ssr:stedsnr" v="445600" />
	</node>
	<node id="9975199418" lat="60.8484861" lon="5.3628532" version="1" timestamp="2022-08-24T15:28:53Z" changeset="125321647" uid="3497659" user="NKA">
		<tag k="name" v="Lund" />
		<tag k="place" v="farm" />
		<tag k="ssr:stedsnr" v="251567" />
	</node>
	<node id="9975199419" lat="60.8119806" lon="5.3848448" version="1" timestamp="2022-08-24T15:28:53Z" changeset="125321647" uid="3497659" user="NKA">
		<tag k="name" v="Hovland" />
		<tag k="place" v="farm" />
		<tag k="ssr:stedsnr" v="251659" />
	</node>
	<node id="9975199420" lat="60.7744528" lon="5.463592" version="1" timestamp="2022-08-24T15:28:53Z" changeset="125321647" uid="3497659" user="NKA">
		<tag k="historic" v="shieling" />
		<tag k="name" v="Kleivsetret" />
		<tag k="place" v="isolated_dwelling" />
		<tag k="ssr:stedsnr" v="203482" />
	</node>
	<node id="9975199421" lat="60.8382361" lon="5.505867" version="1" timestamp="2022-08-24T15:28:53Z" changeset="125321647" uid="3497659" user="NKA">
		<tag k="historic" v="shieling" />
		<tag k="name" v="Setstølen" />
		<tag k="place" v="isolated_dwelling" />
		<tag k="ssr:stedsnr" v="203574" />
	</node>
	<node id="9975199422" lat="60.7959666" lon="5.462367" version="1" timestamp="2022-08-24T15:28:53Z" changeset="125321647" uid="3497659" user="NKA">
		<tag k="historic" v="shieling" />
		<tag k="name" v="Ådnekvamssetret" />
		<tag k="place" v="isolated_dwelling" />
		<tag k="ssr:stedsnr" v="797703" />
	</node>
	<node id="9975199423" lat="60.7846445" lon="5.3820087" version="1" timestamp="2022-08-24T15:28:53Z" changeset="125321647" uid="3497659" user="NKA">
		<tag k="historic" v="shieling" />
		<tag k="name" v="Giljestølane" />
		<tag k="place" v="isolated_dwelling" />
		<tag k="ssr:stedsnr" v="627469" />
	</node>
	<node id="9975199424" lat="60.8397888" lon="5.3080144" version="1" timestamp="2022-08-24T15:28:53Z" changeset="125321647" uid="3497659" user="NKA">
		<tag k="name" v="Gildreneset" />
		<tag k="place" v="locality" />
		<tag k="ssr:stedsnr" v="614586" />
	</node>
	<node id="9975199425" lat="60.920525" lon="5.4994754" version="1" timestamp="2022-08-24T15:28:53Z" changeset="125321647" uid="3497659" user="NKA">
		<tag k="historic" v="shieling" />
		<tag k="name" v="Stølen" />
		<tag k="place" v="isolated_dwelling" />
		<tag k="ssr:stedsnr" v="870537" />
	</node>
	<node id="9975199426" lat="60.7377278" lon="5.4305366" version="1" timestamp="2022-08-24T15:28:53Z" changeset="125321647" uid="3497659" user="NKA">
		<tag k="historic" v="shieling" />
		<tag k="name" v="Sørkvingesetra" />
		<tag k="place" v="isolated_dwelling" />
		<tag k="ssr:stedsnr" v="66598" />
	</node>
	<node id="9975199427" lat="60.833801" lon="5.5192755" version="1" timestamp="2022-08-24T15:28:53Z" changeset="125321647" uid="3497659" user="NKA">
		<tag k="name" v="Tverrbjørg" />
		<tag k="place" v="farm" />
		<tag k="ssr:stedsnr" v="190430" />
	</node>
	<node id="9975199428" lat="60.8319247" lon="5.5269896" version="1" timestamp="2022-08-24T15:28:53Z" changeset="125321647" uid="3497659" user="NKA">
		<tag k="name" v="Kjetland" />
		<tag k="place" v="hamlet" />
		<tag k="ssr:stedsnr" v="312409" />
	</node>
	<node id="9975199429" lat="60.8005333" lon="5.4366783" version="1" timestamp="2022-08-24T15:28:53Z" changeset="125321647" uid="3497659" user="NKA">
		<tag k="historic" v="shieling" />
		<tag k="name" v="Nørlandssetret" />
		<tag k="place" v="isolated_dwelling" />
		<tag k="ssr:stedsnr" v="8666" />
	</node>
	<node id="9975199430" lat="60.832625" lon="5.6117754" version="1" timestamp="2022-08-24T15:28:53Z" changeset="125321647" uid="3497659" user="NKA">
		<tag k="historic" v="shieling" />
		<tag k="name" v="Haukelandssetret" />
		<tag k="place" v="isolated_dwelling" />
		<tag k="ssr:stedsnr" v="312390" />
	</node>
	<node id="9975199431" lat="60.9106584" lon="5.4885232" version="1" timestamp="2022-08-24T15:28:53Z" changeset="125321647" uid="3497659" user="NKA">
		<tag k="name" v="Furebotn" />
		<tag k="place" v="hamlet" />
		<tag k="ssr:stedsnr" v="190374" />
	</node>
	<node id="9975199432" lat="60.9055833" lon="5.5818087" version="1" timestamp="2022-08-24T15:28:53Z" changeset="125321647" uid="3497659" user="NKA">
		<tag k="historic" v="shieling" />
		<tag k="name" v="Storematressetret" />
		<tag k="place" v="isolated_dwelling" />
		<tag k="ssr:stedsnr" v="919341" />
	</node>
	<node id="9975199433" lat="60.8848445" lon="5.4583088" version="1" timestamp="2022-08-24T15:28:53Z" changeset="125321647" uid="3497659" user="NKA">
		<tag k="name" v="Knappen" />
		<tag k="place" v="farm" />
		<tag k="ssr:stedsnr" v="372981" />
	</node>
	<node id="9975199434" lat="60.882" lon="5.3896199" version="1" timestamp="2022-08-24T15:28:53Z" changeset="125321647" uid="3497659" user="NKA">
		<tag k="name" v="Solhaug" />
		<tag k="place" v="farm" />
		<tag k="ssr:stedsnr" v="251996" />
	</node>
	<node id="4238036716" lat="60.8782416" lon="5.1902044" version="1" timestamp="2016-06-11T19:09:31Z" changeset="39958698" uid="2114448" user="FredrikLindseth_import" />
	<node id="4238036849" lat="60.8789171" lon="5.1900463" version="2" timestamp="2019-12-02T14:03:16Z" changeset="77826120" uid="715936" user="Gazer75" />
	<node id="4238036927" lat="60.8789511" lon="5.1899672" version="2" timestamp="2019-12-02T14:03:16Z" changeset="77826120" uid="715936" user="Gazer75" />
	<node id="4238036944" lat="60.8789777" lon="5.1899397" version="2" timestamp="2019-12-02T14:03:16Z" changeset="77826120" uid="715936" user="Gazer75" />
	<node id="7026210003" lat="60.8796001" lon="5.189762" version="1" timestamp="2019-12-02T14:03:16Z" changeset="77826120" uid="715936" user="Gazer75" />
	<node id="7026210004" lat="60.8795766" lon="5.1897754" version="1" timestamp="2019-12-02T14:03:16Z" changeset="77826120" uid="715936" user="Gazer75" />
	<node id="7026210005" lat="60.8795538" lon="5.1897767" version="1" timestamp="2019-12-02T14:03:16Z" changeset="77826120" uid="715936" user="Gazer75" />
	<node id="7026210006" lat="60.8795345" lon="5.1897392" version="1" timestamp="2019-12-02T14:03:16Z" changeset="77826120" uid="715936" user="Gazer75" />
	<node id="7026210007" lat="60.879515" lon="5.1897157" version="1" timestamp="2019-12-02T14:03:16Z" changeset="77826120" uid="715936" user="Gazer75" />
	<node id="7026210008" lat="60.8794895" lon="5.1897097" version="1" timestamp="2019-12-02T14:03:16Z" changeset="77826120" uid="715936" user="Gazer75" />
	<node id="7026210009" lat="60.8794637" lon="5.1897573" version="1" timestamp="2019-12-02T14:03:16Z" changeset="77826120" uid="715936" user="Gazer75" />
	<node id="7026210010" lat="60.8794435" lon="5.1898324" version="1" timestamp="2019-12-02T14:03:16Z" changeset="77826120" uid="715936" user="Gazer75" />
	<node id="7026210011" lat="60.8794285" lon="5.1898558" version="1" timestamp="2019-12-02T14:03:16Z" changeset="77826120" uid="715936" user="Gazer75" />
	<node id="7026210012" lat="60.8793903" lon="5.1898384" version="1" timestamp="2019-12-02T14:03:16Z" changeset="77826120" uid="715936" user="Gazer75" />
	<node id="7026210013" lat="60.8793547" lon="5.1898558" version="1" timestamp="2019-12-02T14:03:16Z" changeset="77826120" uid="715936" user="Gazer75" />
	<node id="7026210014" lat="60.879311" lon="5.1898666" version="1" timestamp="2019-12-02T14:03:16Z" changeset="77826120" uid="715936" user="Gazer75" />
	<node id="7026210015" lat="60.8792764" lon="5.1898511" version="1" timestamp="2019-12-02T14:03:16Z" changeset="77826120" uid="715936" user="Gazer75" />
	<node id="7026210016" lat="60.87925" lon="5.1898237" version="1" timestamp="2019-12-02T14:03:16Z" changeset="77826120" uid="715936" user="Gazer75" />
	<node id="7026210017" lat="60.8792304" lon="5.1897935" version="1" timestamp="2019-12-02T14:03:16Z" changeset="77826120" uid="715936" user="Gazer75" />
	<node id="7026210018" lat="60.8792071" lon="5.1898029" version="1" timestamp="2019-12-02T14:03:16Z" changeset="77826120" uid="715936" user="Gazer75" />
	<node id="7026210019" lat="60.8791748" lon="5.1898874" version="1" timestamp="2019-12-02T14:03:16Z" changeset="77826120" uid="715936" user="Gazer75" />
	<node id="7026210020" lat="60.8791418" lon="5.1898917" version="1" timestamp="2019-12-02T14:03:16Z" changeset="77826120" uid="715936" user="Gazer75" />
	<node id="7026210021" lat="60.8791243" lon="5.1898686" version="1" timestamp="2019-12-02T14:03:16Z" changeset="77826120" uid="715936" user="Gazer75" />
	<node id="7026210022" lat="60.8791113" lon="5.1898817" version="1" timestamp="2019-12-02T14:03:16Z" changeset="77826120" uid="715936" user="Gazer75" />
	<node id="7026210023" lat="60.8790831" lon="5.189887" version="1" timestamp="2019-12-02T14:03:16Z" changeset="77826120" uid="715936" user="Gazer75" />
	<node id="7026210024" lat="60.8790692" lon="5.1898753" version="1" timestamp="2019-12-02T14:03:16Z" changeset="77826120" uid="715936" user="Gazer75" />
	<node id="7026210025" lat="60.8790606" lon="5.1898857" version="1" timestamp="2019-12-02T14:03:16Z" changeset="77826120" uid="715936" user="Gazer75" />
	<node id="7026210026" lat="60.8790563" lon="5.1899185" version="1" timestamp="2019-12-02T14:03:16Z" changeset="77826120" uid="715936" user="Gazer75" />
	<node id="7026210027" lat="60.879041" lon="5.1899195" version="1" timestamp="2019-12-02T14:03:16Z" changeset="77826120" uid="715936" user="Gazer75" />
	<node id="7026210028" lat="60.8790359" lon="5.1899061" version="1" timestamp="2019-12-02T14:03:16Z" changeset="77826120" uid="715936" user="Gazer75" />
	<node id="7026210029" lat="60.8790258" lon="5.1898978" version="1" timestamp="2019-12-02T14:03:16Z" changeset="77826120" uid="715936" user="Gazer75" />
	<node id="7026210030" lat="60.8790193" lon="5.1899222" version="1" timestamp="2019-12-02T14:03:16Z" changeset="77826120" uid="715936" user="Gazer75" />
	<node id="7026210031" lat="60.8790077" lon="5.1899373" version="1" timestamp="2019-12-02T14:03:16Z" changeset="77826120" uid="715936" user="Gazer75" />
	<node id="7026210032" lat="60.8789953" lon="5.189938" version="1" timestamp="2019-12-02T14:03:16Z" changeset="77826120" uid="715936" user="Gazer75" />
	<node id="7026210037" lat="60.8780922" lon="5.1903386" version="1" timestamp="2019-12-02T14:03:16Z" changeset="77826120" uid="715936" user="Gazer75" />
	<node id="7026210038" lat="60.8781372" lon="5.1902609" version="1" timestamp="2019-12-02T14:03:16Z" changeset="77826120" uid="715936" user="Gazer75" />
	<node id="7026210039" lat="60.8781744" lon="5.1902246" version="1" timestamp="2019-12-02T14:03:16Z" changeset="77826120" uid="715936" user="Gazer75" />
	<node id="7026210040" lat="60.8788362" lon="5.1900097" version="1" timestamp="2019-12-02T14:03:16Z" changeset="77826120" uid="715936" user="Gazer75" />
	<node id="7026210041" lat="60.8788582" lon="5.1900681" version="1" timestamp="2019-12-02T14:03:16Z" changeset="77826120" uid="715936" user="Gazer75" />
	<node id="7026210042" lat="60.8789047" lon="5.1900651" version="1" timestamp="2019-12-02T14:03:16Z" changeset="77826120" uid="715936" user="Gazer75" />
	<node id="7026210043" lat="60.8785151" lon="5.1900516" version="1" timestamp="2019-12-02T14:03:16Z" changeset="77826120" uid="715936" user="Gazer75" />
	<node id="7026210044" lat="60.8785536" lon="5.1900262" version="1" timestamp="2019-12-02T14:03:16Z" changeset="77826120" uid="715936" user="Gazer75" />
	<node id="7026210045" lat="60.8786776" lon="5.1899564" version="1" timestamp="2019-12-02T14:03:16Z" changeset="77826120" uid="715936" user="Gazer75" />
	<node id="7026210046" lat="60.8787501" lon="5.1899403" version="1" timestamp="2019-12-02T14:03:16Z" changeset="77826120" uid="715936" user="Gazer75" />
	<node id="7026210047" lat="60.8787892" lon="5.189947" version="1" timestamp="2019-12-02T14:03:16Z" changeset="77826120" uid="715936" user="Gazer75" />
	<node id="7026210048" lat="60.878823" lon="5.1899816" version="1" timestamp="2019-12-02T14:03:16Z" changeset="77826120" uid="715936" user="Gazer75" />
	<node id="7026210049" lat="60.8788447" lon="5.1900516" version="1" timestamp="2019-12-02T14:03:16Z" changeset="77826120" uid="715936" user="Gazer75" />
	<node id="7026210050" lat="60.8788896" lon="5.1900731" version="1" timestamp="2019-12-02T14:03:16Z" changeset="77826120" uid="715936" user="Gazer75" />
	<node id="4238036995" lat="60.8799098" lon="5.1895695" version="2" timestamp="2019-12-02T14:03:16Z" changeset="77826120" uid="715936" user="Gazer75" />
	<node id="4238037038" lat="60.8800619" lon="5.1896547" version="2" timestamp="2019-12-02T14:03:16Z" changeset="77826120" uid="715936" user="Gazer75" />
	<node id="4238037064" lat="60.880304" lon="5.1897164" version="2" timestamp="2019-12-02T14:03:16Z" changeset="77826120" uid="715936" user="Gazer75" />
	<node id="4238037076" lat="60.8802799" lon="5.1903681" version="2" timestamp="2019-12-02T14:03:16Z" changeset="77826120" uid="715936" user="Gazer75" />
	<node id="7026209960" lat="60.8802446" lon="5.1903373" version="1" timestamp="2019-12-02T14:03:16Z" changeset="77826120" uid="715936" user="Gazer75" />
	<node id="7026209961" lat="60.880242" lon="5.1902622" version="1" timestamp="2019-12-02T14:03:16Z" changeset="77826120" uid="715936" user="Gazer75" />
	<node id="7026209962" lat="60.8802498" lon="5.1901469" version="1" timestamp="2019-12-02T14:03:16Z" changeset="77826120" uid="715936" user="Gazer75" />
	<node id="7026209963" lat="60.8802626" lon="5.1900852" version="1" timestamp="2019-12-02T14:03:16Z" changeset="77826120" uid="715936" user="Gazer75" />
	<node id="7026209964" lat="60.8802962" lon="5.1900215" version="1" timestamp="2019-12-02T14:03:16Z" changeset="77826120" uid="715936" user="Gazer75" />
	<node id="7026209965" lat="60.8803363" lon="5.1900335" version="1" timestamp="2019-12-02T14:03:16Z" changeset="77826120" uid="715936" user="Gazer75" />
	<node id="7026209966" lat="60.8803879" lon="5.1896634" version="1" timestamp="2019-12-02T14:03:16Z" changeset="77826120" uid="715936" user="Gazer75" />
	<node id="7026209967" lat="60.8804029" lon="5.1896453" version="1" timestamp="2019-12-02T14:03:16Z" changeset="77826120" uid="715936" user="Gazer75" />
	<node id="7026209968" lat="60.8804218" lon="5.1896446" version="1" timestamp="2019-12-02T14:03:16Z" changeset="77826120" uid="715936" user="Gazer75" />
	<node id="7026209969" lat="60.8804433" lon="5.1896688" version="1" timestamp="2019-12-02T14:03:16Z" changeset="77826120" uid="715936" user="Gazer75" />
	<node id="7026209970" lat="60.8804662" lon="5.1897103" version="1" timestamp="2019-12-02T14:03:16Z" changeset="77826120" uid="715936" user="Gazer75" />
	<node id="7026209971" lat="60.8803937" lon="5.1900275" version="1" timestamp="2019-12-02T14:03:16Z" changeset="77826120" uid="715936" user="Gazer75" />
	<node id="7026209972" lat="60.8804218" lon="5.1899732" version="1" timestamp="2019-12-02T14:03:16Z" changeset="77826120" uid="715936" user="Gazer75" />
	<node id="7026209973" lat="60.8804254" lon="5.1899504" version="1" timestamp="2019-12-02T14:03:16Z" changeset="77826120" uid="715936" user="Gazer75" />
	<node id="7026209974" lat="60.8804355" lon="5.1899088" version="1" timestamp="2019-12-02T14:03:16Z" changeset="77826120" uid="715936" user="Gazer75" />
	<node id="7026209975" lat="60.8804443" lon="5.1899068" version="1" timestamp="2019-12-02T14:03:16Z" changeset="77826120" uid="715936" user="Gazer75" />
	<node id="7026209976" lat="60.8804642" lon="5.1899222" version="1" timestamp="2019-12-02T14:03:16Z" changeset="77826120" uid="715936" user="Gazer75" />
	<node id="7026209977" lat="60.8804756" lon="5.1898967" version="1" timestamp="2019-12-02T14:03:16Z" changeset="77826120" uid="715936" user="Gazer75" />
	<node id="7026209978" lat="60.8804763" lon="5.1898337" version="1" timestamp="2019-12-02T14:03:16Z" changeset="77826120" uid="715936" user="Gazer75" />
	<node id="7026209979" lat="60.8804743" lon="5.1897546" version="1" timestamp="2019-12-02T14:03:16Z" changeset="77826120" uid="715936" user="Gazer75" />
	<node id="7026209980" lat="60.8803683" lon="5.1900302" version="1" timestamp="2019-12-02T14:03:16Z" changeset="77826120" uid="715936" user="Gazer75" />
	<node id="7026209981" lat="60.8803605" lon="5.1897271" version="1" timestamp="2019-12-02T14:03:16Z" changeset="77826120" uid="715936" user="Gazer75" />
	<node id="7026209982" lat="60.8803353" lon="5.1897439" version="1" timestamp="2019-12-02T14:03:16Z" changeset="77826120" uid="715936" user="Gazer75" />
	<node id="7026209983" lat="60.8802671" lon="5.1896822" version="1" timestamp="2019-12-02T14:03:16Z" changeset="77826120" uid="715936" user="Gazer75" />
	<node id="7026209984" lat="60.880226" lon="5.1896627" version="1" timestamp="2019-12-02T14:03:16Z" changeset="77826120" uid="715936" user="Gazer75" />
	<node id="7026209985" lat="60.8801859" lon="5.1896319" version="1" timestamp="2019-12-02T14:03:16Z" changeset="77826120" uid="715936" user="Gazer75" />
	<node id="7026209986" lat="60.8801457" lon="5.1896299" version="1" timestamp="2019-12-02T14:03:16Z" changeset="77826120" uid="715936" user="Gazer75" />
	<node id="7026209987" lat="60.880103" lon="5.1896493" version="1" timestamp="2019-12-02T14:03:16Z" changeset="77826120" uid="715936" user="Gazer75" />
	<node id="7026209988" lat="60.8800061" lon="5.1896741" version="1" timestamp="2019-12-02T14:03:16Z" changeset="77826120" uid="715936" user="Gazer75" />
	<node id="7026209989" lat="60.8799581" lon="5.1896419" version="1" timestamp="2019-12-02T14:03:16Z" changeset="77826120" uid="715936" user="Gazer75" />
	<node id="7026209990" lat="60.8798308" lon="5.1895957" version="1" timestamp="2019-12-02T14:03:16Z" changeset="77826120" uid="715936" user="Gazer75" />
	<node id="7026209991" lat="60.879825" lon="5.1895776" version="1" timestamp="2019-12-02T14:03:16Z" changeset="77826120" uid="715936" user="Gazer75" />
	<node id="7026209992" lat="60.8798263" lon="5.1895554" version="1" timestamp="2019-12-02T14:03:16Z" changeset="77826120" uid="715936" user="Gazer75" />
	<node id="7026209993" lat="60.8798465" lon="5.189536" version="1" timestamp="2019-12-02T14:03:16Z" changeset="77826120" uid="715936" user="Gazer75" />
	<node id="7026209994" lat="60.8798693" lon="5.1895414" version="1" timestamp="2019-12-02T14:03:16Z" changeset="77826120" uid="715936" user="Gazer75" />
	<node id="7026209995" lat="60.8798253" lon="5.1896104" version="1" timestamp="2019-12-02T14:03:16Z" changeset="77826120" uid="715936" user="Gazer75" />
	<node id="7026209996" lat="60.8798083" lon="5.189601" version="1" timestamp="2019-12-02T14:03:16Z" changeset="77826120" uid="715936" user="Gazer75" />
	<node id="7026209997" lat="60.879793" lon="5.1895776" version="1" timestamp="2019-12-02T14:03:16Z" changeset="77826120" uid="715936" user="Gazer75" />
	<node id="7026209998" lat="60.8797835" lon="5.1895427" version="1" timestamp="2019-12-02T14:03:16Z" changeset="77826120" uid="715936" user="Gazer75" />
	<node id="7026209999" lat="60.8797914" lon="5.1894877" version="1" timestamp="2019-12-02T14:03:16Z" changeset="77826120" uid="715936" user="Gazer75" />
	<node id="7026210000" lat="60.8797865" lon="5.1894723" version="1" timestamp="2019-12-02T14:03:16Z" changeset="77826120" uid="715936" user="Gazer75" />
	<node id="7026210001" lat="60.8797666" lon="5.1895058" version="1" timestamp="2019-12-02T14:03:16Z" changeset="77826120" uid="715936" user="Gazer75" />
	<node id="7026210002" lat="60.8797026" lon="5.1896258" version="1" timestamp="2019-12-02T14:03:16Z" changeset="77826120" uid="715936" user="Gazer75" />
	<node id="4238036207" lat="60.8751299" lon="5.1942635" version="1" timestamp="2016-06-11T19:09:24Z" changeset="39958698" uid="2114448" user="FredrikLindseth_import" />
	<node id="4238036223" lat="60.8752236" lon="5.1943998" version="1" timestamp="2016-06-11T19:09:25Z" changeset="39958698" uid="2114448" user="FredrikLindseth_import" />
	<node id="4238036237" lat="60.8753323" lon="5.1937969" version="1" timestamp="2016-06-11T19:09:25Z" changeset="39958698" uid="2114448" user="FredrikLindseth_import" />
	<node id="4238036274" lat="60.8756693" lon="5.1945864" version="1" timestamp="2016-06-11T19:09:25Z" changeset="39958698" uid="2114448" user="FredrikLindseth_import" />
	<node id="4238036285" lat="60.8757584" lon="5.1932851" version="1" timestamp="2016-06-11T19:09:26Z" changeset="39958698" uid="2114448" user="FredrikLindseth_import" />
	<node id="4238036451" lat="60.8761836" lon="5.1930684" version="1" timestamp="2016-06-11T19:09:27Z" changeset="39958698" uid="2114448" user="FredrikLindseth_import" />
	<node id="4238036482" lat="60.8764082" lon="5.1927466" version="1" timestamp="2016-06-11T19:09:28Z" changeset="39958698" uid="2114448" user="FredrikLindseth_import" />
	<node id="4238036501" lat="60.8765679" lon="5.194258" version="1" timestamp="2016-06-11T19:09:28Z" changeset="39958698" uid="2114448" user="FredrikLindseth_import" />
	<node id="4238036510" lat="60.8766772" lon="5.1920876" version="1" timestamp="2016-06-11T19:09:28Z" changeset="39958698" uid="2114448" user="FredrikLindseth_import" />
	<node id="4238036560" lat="60.8771274" lon="5.1943388" version="1" timestamp="2016-06-11T19:09:29Z" changeset="39958698" uid="2114448" user="FredrikLindseth_import" />
	<node id="4238036562" lat="60.8771494" lon="5.1916256" version="1" timestamp="2016-06-11T19:09:29Z" changeset="39958698" uid="2114448" user="FredrikLindseth_import" />
	<node id="4238036582" lat="60.8773511" lon="5.1939803" version="1" timestamp="2016-06-11T19:09:29Z" changeset="39958698" uid="2114448" user="FredrikLindseth_import" />
	<node id="4238036588" lat="60.877372" lon="5.1915438" version="1" timestamp="2016-06-11T19:09:29Z" changeset="39958698" uid="2114448" user="FredrikLindseth_import" />
	<node id="4238036609" lat="60.8775716" lon="5.190985" version="1" timestamp="2016-06-11T19:09:30Z" changeset="39958698" uid="2114448" user="FredrikLindseth_import" />
	<node id="4238036671" lat="60.877959" lon="5.1906109" version="2" timestamp="2019-12-02T14:03:16Z" changeset="77826120" uid="715936" user="Gazer75" />
	<node id="4238036739" lat="60.8784021" lon="5.1930067" version="1" timestamp="2016-06-11T19:09:32Z" changeset="39958698" uid="2114448" user="FredrikLindseth_import" />
	<node id="4238036803" lat="60.8787689" lon="5.192631" version="1" timestamp="2016-06-11T19:09:33Z" changeset="39958698" uid="2114448" user="FredrikLindseth_import" />
	<node id="4238036850" lat="60.8790372" lon="5.1922672" version="1" timestamp="2016-06-11T19:09:34Z" changeset="39958698" uid="2114448" user="FredrikLindseth_import" />
	<node id="4238036915" lat="60.8794374" lon="5.1917953" version="1" timestamp="2016-06-11T19:09:35Z" changeset="39958698" uid="2114448" user="FredrikLindseth_import" />
	<node id="7026210033" lat="60.8778141" lon="5.1906739" version="1" timestamp="2019-12-02T14:03:16Z" changeset="77826120" uid="715936" user="Gazer75" />
	<node id="7026210034" lat="60.8778872" lon="5.1906632" version="1" timestamp="2019-12-02T14:03:16Z" changeset="77826120" uid="715936" user="Gazer75" />
	<node id="7026210035" lat="60.8780008" lon="5.1904982" version="1" timestamp="2019-12-02T14:03:16Z" changeset="77826120" uid="715936" user="Gazer75" />
	<node id="7026210036" lat="60.8780302" lon="5.1904915" version="1" timestamp="2019-12-02T14:03:16Z" changeset="77826120" uid="715936" user="Gazer75" />
	<node id="4238036972" lat="60.8797274" lon="5.1912445" version="1" timestamp="2016-06-11T19:09:36Z" changeset="39958698" uid="2114448" user="FredrikLindseth_import" />
	<node id="4238037009" lat="60.8799292" lon="5.1910726" version="1" timestamp="2016-06-11T19:09:37Z" changeset="39958698" uid="2114448" user="FredrikLindseth_import" />
	<node id="4238037027" lat="60.879947" lon="5.1909542" version="2" timestamp="2019-12-02T14:03:16Z" changeset="77826120" uid="715936" user="Gazer75" />
	<node id="4238037072" lat="60.8802048" lon="5.1907893" version="2" timestamp="2019-12-02T14:03:16Z" changeset="77826120" uid="715936" user="Gazer75" />
	<node id="4238037086" lat="60.8803171" lon="5.1904526" version="2" timestamp="2019-12-02T14:03:16Z" changeset="77826120" uid="715936" user="Gazer75" />
	<node id="7026209955" lat="60.8801617" lon="5.1908322" version="1" timestamp="2019-12-02T14:03:16Z" changeset="77826120" uid="715936" user="Gazer75" />
	<node id="7026209956" lat="60.8800945" lon="5.1908657" version="1" timestamp="2019-12-02T14:03:16Z" changeset="77826120" uid="715936" user="Gazer75" />
	<node id="7026209957" lat="60.8799973" lon="5.190867" version="1" timestamp="2019-12-02T14:03:16Z" changeset="77826120" uid="715936" user="Gazer75" />
	<node id="7026209958" lat="60.8802518" lon="5.1906954" version="1" timestamp="2019-12-02T14:03:16Z" changeset="77826120" uid="715936" user="Gazer75" />
	<node id="7026209959" lat="60.8802779" lon="5.1905599" version="1" timestamp="2019-12-02T14:03:16Z" changeset="77826120" uid="715936" user="Gazer75" />
	<way id="424380095" version="2" timestamp="2019-12-02T14:03:16Z" changeset="77826120" uid="715936" user="Gazer75">
		<tag k="source" v="Kartverket N50" />
		<tag k="source:date" v="1984-07-01" />
		<nd ref="4238036944" />
		<nd ref="4238036927" />
		<nd ref="4238036849" />
		<nd ref="7026210042" />
		<nd ref="7026210050" />
		<nd ref="7026210041" />
		<nd ref="7026210049" />
		<nd ref="7026210040" />
		<nd ref="7026210048" />
		<nd ref="7026210047" />
		<nd ref="7026210046" />
		<nd ref="7026210045" />
		<nd ref="7026210044" />
		<nd ref="7026210043" />
		<nd ref="4238036716" />
		<nd ref="7026210039" />
		<nd ref="7026210038" />
		<nd ref="7026210037" />
		<nd ref="7026210036" />
		<nd ref="7026210035" />
		<nd ref="4238036671" />
		<nd ref="7026210034" />
		<nd ref="7026210033" />
		<nd ref="4238036609" />
		<nd ref="4238036588" />
		<nd ref="4238036562" />
		<nd ref="4238036510" />
		<nd ref="4238036482" />
		<nd ref="4238036451" />
		<nd ref="4238036285" />
		<nd ref="4238036237" />
		<nd ref="4238036207" />
		<nd ref="4238036223" />
		<nd ref="4238036274" />
		<nd ref="4238036501" />
		<nd ref="4238036560" />
		<nd ref="4238036582" />
		<nd ref="4238036739" />
		<nd ref="4238036803" />
		<nd ref="4238036850" />
		<nd ref="4238036915" />
		<nd ref="4238036972" />
		<nd ref="4238037009" />
		<nd ref="4238037027" />
	</way>
	<way id="424380631" version="2" timestamp="2019-12-02T14:03:16Z" changeset="77826120" uid="715936" user="Gazer75">
		<nd ref="4238037027" />
		<nd ref="7026209957" />
		<nd ref="7026209956" />
		<nd ref="7026209955" />
		<nd ref="4238037072" />
		<nd ref="7026209958" />
		<nd ref="7026209959" />
		<nd ref="4238037086" />
		<nd ref="4238037076" />
		<nd ref="7026209960" />
		<nd ref="7026209961" />
		<nd ref="7026209962" />
		<nd ref="7026209963" />
		<nd ref="7026209964" />
		<nd ref="7026209965" />
		<nd ref="7026209980" />
		<nd ref="7026209971" />
		<nd ref="7026209972" />
		<nd ref="7026209973" />
		<nd ref="7026209974" />
		<nd ref="7026209975" />
		<nd ref="7026209976" />
		<nd ref="7026209977" />
		<nd ref="7026209978" />
		<nd ref="7026209979" />
		<nd ref="7026209970" />
		<nd ref="7026209969" />
		<nd ref="7026209968" />
		<nd ref="7026209967" />
		<nd ref="7026209966" />
		<nd ref="7026209981" />
		<nd ref="7026209982" />
		<nd ref="4238037064" />
		<nd ref="7026209983" />
		<nd ref="7026209984" />
		<nd ref="7026209985" />
		<nd ref="7026209986" />
		<nd ref="7026209987" />
		<nd ref="4238037038" />
		<nd ref="7026209988" />
		<nd ref="7026209989" />
		<nd ref="4238036995" />
		<nd ref="7026209994" />
		<nd ref="7026209993" />
		<nd ref="7026209992" />
		<nd ref="7026209991" />
		<nd ref="7026209990" />
		<nd ref="7026209995" />
		<nd ref="7026209996" />
		<nd ref="7026209997" />
		<nd ref="7026209998" />
		<nd ref="7026209999" />
		<nd ref="7026210000" />
		<nd ref="7026210001" />
		<nd ref="7026210002" />
		<nd ref="7026210003" />
		<nd ref="7026210004" />
		<nd ref="7026210005" />
		<nd ref="7026210006" />
		<nd ref="7026210007" />
		<nd ref="7026210008" />
		<nd ref="7026210009" />
		<nd ref="7026210010" />
		<nd ref="7026210011" />
		<nd ref="7026210012" />
		<nd ref="7026210013" />
		<nd ref="7026210014" />
		<nd ref="7026210015" />
		<nd ref="7026210016" />
		<nd ref="7026210017" />
		<nd ref="7026210018" />
		<nd ref="7026210019" />
		<nd ref="7026210020" />
		<nd ref="7026210021" />
		<nd ref="7026210022" />
		<nd ref="7026210023" />
		<nd ref="7026210024" />
		<nd ref="7026210025" />
		<nd ref="7026210026" />
		<nd ref="7026210027" />
		<nd ref="7026210028" />
		<nd ref="7026210029" />
		<nd ref="7026210030" />
		<nd ref="7026210031" />
		<nd ref="7026210032" />
		<nd ref="4238036944" />
	</way>
	<relation id="6312767" version="2" timestamp="2019-12-02T14:03:16Z" changeset="77826120" uid="715936" user="Gazer75">
		<tag k="ele" v="38" />
		<tag k="name" v="Tangedalsvatnet" />
		<tag k="natural" v="water" />
		<tag k="ssr:stedsnr" v="858993" />
		<tag k="type" v="multipolygon" />
		<member type="way" ref="424380095" role="outer" />
		<member type="way" ref="424380631" role="outer" />
	</relation>
</osm>
