<?xml version="1.0" encoding="UTF-8"?>
<osm generator="osmapis" version="0.6">
	<node id="-847871" lat="63.9211000017" lon="10.4149083305">
		<tag k="name" v="Moen" />
		<tag k="place" v="farm" />
		<tag k="ssr:stedsnr" v="862349" />
	</node>
	<node id="-849914" lat="63.8939527785" lon="10.0104305544">
		<tag k="name" v="Kjøremssætra" />
		<tag k="place" v="locality" />
		<tag k="ssr:stedsnr" v="498626" />
	</node>
	<node id="-849910" lat="63.9823171065" lon="10.4362900939">
		<tag k="alt_name" v="Gilde" />
		<tag k="fixme" v="consider place=hamlet" />
		<tag k="name" v="Gilda" />
		<tag k="place" v="farm" />
		<tag k="ssr:stedsnr" v="196154" />
	</node>
	<node id="-847859" lat="64.0032433741" lon="10.2312353837">
		<tag k="fixme" v="consider place=hamlet" />
		<tag k="name" v="Imsen" />
		<tag k="place" v="farm" />
		<tag k="ssr:stedsnr" v="135767" />
	</node>
	<node id="-849904" lat="63.936460912" lon="10.1646693135">
		<tag k="name" v="Finnset" />
		<tag k="place" v="farm" />
		<tag k="ssr:stedsnr" v="363199" />
	</node>
	<node id="-847854" lat="63.9927888891" lon="10.4449027841">
		<tag k="alt_name" v="Fjellmyr" />
		<tag k="name" v="Fjellmyra" />
		<tag k="place" v="farm" />
		<tag k="ssr:stedsnr" v="256159" />
	</node>
	<node id="-849898" lat="63.9083027821" lon="9.95880556563">
		<tag k="name" v="Myrvang" />
		<tag k="place" v="farm" />
		<tag k="ssr:stedsnr" v="213024" />
	</node>
	<node id="-847846" lat="64.0008138879" lon="10.2319972265">
		<tag k="name" v="Imsen" />
		<tag k="place" v="farm" />
		<tag k="ssr:stedsnr" v="31262" />
	</node>
	<node id="-847845" lat="63.9039722187" lon="10.218616664">
		<tag k="name" v="Mørriseteren" />
		<tag k="place" v="isolated_dwelling" />
		<tag k="ssr:stedsnr" v="619343" />
	</node>
	<node id="-848550" lat="64.09675556" lon="10.5149555604">
		<tag k="name" v="Elvtun" />
		<tag k="place" v="isolated_dwelling" />
		<tag k="ssr:stedsnr" v="820393" />
	</node>
	<node id="-847839" lat="63.9922916653" lon="10.0157499906">
		<tag k="name" v="Skardet" />
		<tag k="place" v="farm" />
		<tag k="ssr:stedsnr" v="698858" />
	</node>
	<node id="-847836" lat="63.9986169449" lon="10.4672918015">
		<tag k="name" v="Moen" />
		<tag k="place" v="farm" />
		<tag k="ssr:stedsnr" v="377147" />
	</node>
	<node id="-849883" lat="63.9748722202" lon="10.130394453">
		<tag k="historic" v="shieling" />
		<tag k="name" v="Selsetseteren" />
		<tag k="place" v="locality" />
		<tag k="ssr:stedsnr" v="516109" />
	</node>
	<node id="-849882" lat="64.0103111149" lon="9.9436749997">
		<tag k="name" v="Moen" />
		<tag k="place" v="farm" />
		<tag k="ssr:stedsnr" v="742070" />
	</node>
	<node id="-849879" lat="63.9157638889" lon="9.97028055129">
		<tag k="alt_name" v="Barøy søre" />
		<tag k="name" v="Søre Barøy" />
		<tag k="place" v="farm" />
		<tag k="ssr:stedsnr" v="213018" />
	</node>
	<node id="-849877" lat="64.0787361069" lon="10.4205416608">
		<tag k="name" v="Nordslåtten" />
		<tag k="place" v="locality" />
		<tag k="ssr:stedsnr" v="377285" />
	</node>
	<node id="-849876" lat="64.0535833311" lon="10.0777249933">
		<tag k="name" v="Høvika" />
		<tag k="place" v="hamlet" />
		<tag k="ssr:stedsnr" v="334870" />
	</node>
	<node id="-847826" lat="64.0216166693" lon="10.5084805582">
		<tag k="name" v="Skogheim" />
		<tag k="place" v="locality" />
		<tag k="ssr:stedsnr" v="681715" />
	</node>
	<node id="-847823" lat="64.0545777795" lon="10.1322583296">
		<tag k="name" v="Sørbotnet" />
		<tag k="place" v="farm" />
		<tag k="ssr:stedsnr" v="752548" />
	</node>
	<node id="-847821" lat="63.9898111124" lon="10.4448527712">
		<tag k="name" v="Moan" />
		<tag k="place" v="farm" />
		<tag k="ssr:stedsnr" v="425126" />
	</node>
	<node id="-848204" lat="63.98419962" lon="10.4216511406">
		<tag k="fixme" v="consider place=hamlet" />
		<tag k="name" v="By" />
		<tag k="place" v="farm" />
		<tag k="ssr:stedsnr" v="135133" />
	</node>
	<node id="-848545" lat="63.9302138931" lon="10.0675250034">
		<tag k="fixme" v="consider place=hamlet" />
		<tag k="name" v="Rånes" />
		<tag k="place" v="farm" />
		<tag k="ssr:stedsnr" v="863524" />
	</node>
	<node id="-849857" lat="63.9634666709" lon="10.2382611123">
		<tag k="name" v="Elvemo" />
		<tag k="place" v="farm" />
		<tag k="ssr:stedsnr" v="880719" />
	</node>
	<node id="-849853" lat="64.0799472185" lon="10.045052769">
		<tag k="fixme" v="consider place=hamlet" />
		<tag k="name" v="Harbak" />
		<tag k="place" v="village" />
		<tag k="ssr:stedsnr" v="499137" />
	</node>
	<node id="-847802" lat="63.9336141744" lon="10.385956823">
		<tag k="name" v="Karlaunet" />
		<tag k="place" v="farm" />
		<tag k="ssr:stedsnr" v="707294" />
	</node>
	<node id="-849848" lat="63.9569222254" lon="10.2213694412">
		<tag k="name" v="Åfjord laksecamping" />
		<tag k="ssr:stedsnr" v="726751" />
		<tag k="tourism" v="camp_site" />
	</node>
	<node id="-849843" lat="63.9659638869" lon="10.205436106">
		<tag k="name" v="Hubakkan" />
		<tag k="place" v="farm" />
		<tag k="ssr:stedsnr" v="273744" />
	</node>
	<node id="-849842" lat="64.0700194406" lon="9.94661667318">
		<tag k="name" v="Svenningsneset" />
		<tag k="place" v="farm" />
		<tag k="ssr:stedsnr" v="196144" />
	</node>
	<node id="-847792" lat="63.9516527761" lon="10.1446138804">
		<tag k="name" v="Gressmyr" />
		<tag k="place" v="farm" />
		<tag k="ssr:stedsnr" v="377542" />
	</node>
	<node id="-847790" lat="64.0523944452" lon="9.95644721912">
		<tag k="fixme" v="consider place=hamlet" />
		<tag k="name" v="Hosen" />
		<tag k="place" v="farm" />
		<tag k="ssr:stedsnr" v="935639" />
	</node>
	<node id="-849828" lat="64.0215944432" lon="10.5221749946">
		<tag k="fixme" v="consider place=hamlet" />
		<tag k="name" v="Skjern" />
		<tag k="place" v="village" />
		<tag k="ssr:stedsnr" v="196691" />
	</node>
	<node id="-849827" lat="63.9201861079" lon="9.98234722033">
		<tag k="name" v="Nordheim" />
		<tag k="place" v="farm" />
		<tag k="ssr:stedsnr" v="810190" />
	</node>
	<node id="-849824" lat="63.967958329" lon="9.97396388852">
		<tag k="name" v="Naustmyra" />
		<tag k="place" v="farm" />
		<tag k="ssr:stedsnr" v="213013" />
	</node>
	<node id="-849819" lat="63.911837754" lon="10.0564677183">
		<tag k="fixme" v="consider place=hamlet" />
		<tag k="name" v="Fjellsaunet" />
		<tag k="place" v="farm" />
		<tag k="ssr:stedsnr" v="438625" />
	</node>
	<node id="-849813" lat="63.9669833304" lon="10.0874472216">
		<tag k="name" v="Åkervik" />
		<tag k="place" v="locality" />
		<tag k="ssr:stedsnr" v="516096" />
	</node>
	<node id="-849812" lat="64.0141847234" lon="10.2104771115">
		<tag k="fixme" v="consider place=hamlet" />
		<tag k="name" v="Bakkan" />
		<tag k="place" v="farm" />
		<tag k="ssr:stedsnr" v="742066" />
	</node>
	<node id="-849811" lat="63.9997909573" lon="10.3153375641">
		<tag k="alt_name" v="Mølsletta, østre" />
		<tag k="name" v="Østre Mølsletta" />
		<tag k="place" v="farm" />
		<tag k="ssr:stedsnr" v="499142" />
	</node>
	<node id="-849807" lat="63.9897777756" lon="10.2882527776">
		<tag k="name" v="Mohaugen" />
		<tag k="place" v="farm" />
		<tag k="ssr:stedsnr" v="499128" />
	</node>
	<node id="-849803" lat="63.985994445" lon="10.3775749914">
		<tag k="name" v="Tverråsen" />
		<tag k="place" v="farm" />
		<tag k="ssr:stedsnr" v="499126" />
	</node>
	<node id="-847751" lat="63.9365833321" lon="10.0251666668">
		<tag k="name" v="Vika" />
		<tag k="place" v="farm" />
		<tag k="ssr:stedsnr" v="941211" />
	</node>
	<node id="-849798" lat="64.0029055553" lon="10.2441333398">
		<tag k="name" v="Østli" />
		<tag k="place" v="farm" />
		<tag k="ssr:stedsnr" v="499681" />
	</node>
	<node id="-847749" lat="63.9327805567" lon="9.94772221462">
		<tag k="name" v="Berget" />
		<tag k="place" v="isolated_dwelling" />
		<tag k="ssr:stedsnr" v="134560" />
	</node>
	<node id="-847745" lat="64.0862888916" lon="10.4948777871">
		<tag k="fixme" v="multiple name tags, choose one and add the other to alt_name" />
		<tag k="name" v="Momyr;Søre Momyr" />
		<tag k="place" v="farm" />
		<tag k="ssr:stedsnr" v="74346" />
	</node>
	<node id="-847743" lat="63.9809222235" lon="10.406963886">
		<tag k="name" v="Rundtommen" />
		<tag k="place" v="farm" />
		<tag k="ssr:stedsnr" v="455746" />
	</node>
	<node id="-847739" lat="63.9176055582" lon="9.97422500057">
		<tag k="name" v="Valen" />
		<tag k="place" v="farm" />
		<tag k="ssr:stedsnr" v="91015" />
	</node>
	<node id="-847736" lat="64.0196638893" lon="10.0197388796">
		<tag k="fixme" v="consider place=hamlet" />
		<tag k="name" v="Lauvvika" />
		<tag k="place" v="farm" />
		<tag k="ssr:stedsnr" v="559114" />
	</node>
	<node id="-847733" lat="64.0802694448" lon="10.0440833401">
		<tag k="fixme" v="consider place=hamlet" />
		<tag k="name" v="Harbak" />
		<tag k="place" v="farm" />
		<tag k="ssr:stedsnr" v="881976" />
	</node>
	<node id="-849771" lat="63.9978444483" lon="10.0003583257">
		<tag k="name" v="Kattavika" />
		<tag k="place" v="farm" />
		<tag k="ssr:stedsnr" v="195722" />
	</node>
	<node id="-849770" lat="64.0074944437" lon="10.009233325">
		<tag k="name" v="Sandvika" />
		<tag k="place" v="farm" />
		<tag k="ssr:stedsnr" v="924064" />
	</node>
	<node id="-847717" lat="63.9778472217" lon="10.0079055611">
		<tag k="name" v="Mellomskogen" />
		<tag k="place" v="farm" />
		<tag k="ssr:stedsnr" v="152071" />
	</node>
	<node id="-849764" lat="64.0044249956" lon="10.0257277789">
		<tag k="fixme" v="consider place=hamlet" />
		<tag k="name" v="Herfjorden" />
		<tag k="place" v="farm" />
		<tag k="ssr:stedsnr" v="924065" />
	</node>
	<node id="-849763" lat="64.0460722258" lon="10.6007305526">
		<tag k="historic" v="shieling" />
		<tag k="name" v="Svartholseteren" />
		<tag k="place" v="locality" />
		<tag k="ssr:stedsnr" v="196242" />
	</node>
	<node id="-849762" lat="63.919761758" lon="10.4473265248">
		<tag k="fixme" v="consider place=hamlet" />
		<tag k="name" v="Flenstad" />
		<tag k="place" v="farm" />
		<tag k="ssr:stedsnr" v="255337" />
	</node>
	<node id="-847712" lat="63.9279916664" lon="10.1333083261">
		<tag k="name" v="Gjertrudvika" />
		<tag k="place" v="farm" />
		<tag k="ssr:stedsnr" v="802583" />
	</node>
	<node id="-847708" lat="63.9960111087" lon="10.0022361142">
		<tag k="name" v="Kattavika" />
		<tag k="place" v="hamlet" />
		<tag k="ssr:stedsnr" v="152884" />
	</node>
	<node id="-849753" lat="64.0220611154" lon="10.5127861189">
		<tag k="name" v="Moen" />
		<tag k="place" v="farm" />
		<tag k="ssr:stedsnr" v="141112" />
	</node>
	<node id="-849751" lat="64.0233602062" lon="10.5211056972">
		<tag k="fixme" v="consider place=hamlet" />
		<tag k="name" v="Skjern" />
		<tag k="place" v="farm" />
		<tag k="ssr:stedsnr" v="445929" />
	</node>
	<node id="-847702" lat="63.9308668228" lon="10.1595705605">
		<tag k="name" v="Kroksneset" />
		<tag k="place" v="farm" />
		<tag k="ssr:stedsnr" v="303209" />
	</node>
	<node id="-849746" lat="63.9271961462" lon="10.3892257255">
		<tag k="fixme" v="consider place=hamlet" />
		<tag k="name" v="Øykaunet" />
		<tag k="place" v="farm" />
		<tag k="ssr:stedsnr" v="802402" />
	</node>
	<node id="-849745" lat="63.9650194442" lon="10.2547638891">
		<tag k="name" v="Fossmoen" />
		<tag k="place" v="farm" />
		<tag k="ssr:stedsnr" v="134402" />
	</node>
	<node id="-847686" lat="63.9942111122" lon="10.2984333318">
		<tag k="name" v="Berdal" />
		<tag k="place" v="farm" />
		<tag k="ssr:stedsnr" v="910745" />
	</node>
	<node id="-847683" lat="64.0390166677" lon="10.0745555482">
		<tag k="name" v="Bekkestad" />
		<tag k="place" v="farm" />
		<tag k="ssr:stedsnr" v="31878" />
	</node>
	<node id="-849729" lat="63.9664555526" lon="9.97959722193">
		<tag k="name" v="Lauvåsen" />
		<tag k="place" v="farm" />
		<tag k="ssr:stedsnr" v="577010" />
	</node>
	<node id="-847680" lat="63.9765861094" lon="9.99251944372">
		<tag k="name" v="Torsnes boligfelt" />
		<tag k="place" v="quarter" />
		<tag k="ssr:stedsnr" v="41023" />
	</node>
	<node id="-849722" lat="63.915644441" lon="10.4194222215">
		<tag k="alt_name" v="Oldernes" />
		<tag k="name" v="Olderneset" />
		<tag k="place" v="farm" />
		<tag k="ssr:stedsnr" v="255333" />
	</node>
	<node id="-849721" lat="64.0656916676" lon="10.1374444401">
		<tag k="fixme" v="consider place=hamlet" />
		<tag k="name" v="Sunnskjørin" />
		<tag k="place" v="farm" />
		<tag k="ssr:stedsnr" v="317117" />
	</node>
	<node id="-849716" lat="63.8990916682" lon="10.4511277793">
		<tag k="historic" v="shieling" />
		<tag k="name" v="Vinnaseteren" />
		<tag k="place" v="locality" />
		<tag k="ssr:stedsnr" v="680355" />
	</node>
	<node id="-847667" lat="64.0063611124" lon="10.0090166723">
		<tag k="name" v="Litlsandvika" />
		<tag k="place" v="farm" />
		<tag k="ssr:stedsnr" v="152879" />
	</node>
	<node id="-849707" lat="63.9330055519" lon="9.91955832983">
		<tag k="name" v="Fredly" />
		<tag k="place" v="farm" />
		<tag k="ssr:stedsnr" v="759202" />
	</node>
	<node id="-849702" lat="63.9801527799" lon="10.3038277875">
		<tag k="name" v="Sandhalsmoen" />
		<tag k="place" v="farm" />
		<tag k="ssr:stedsnr" v="334011" />
	</node>
	<node id="-847649" lat="63.9765861094" lon="9.99251944372">
		<tag k="name" v="Torsnes" />
		<tag k="place" v="farm" />
		<tag k="ssr:stedsnr" v="152057" />
	</node>
	<node id="-847644" lat="63.9257138872" lon="10.0148361065">
		<tag k="name" v="Sivertsenplassen" />
		<tag k="place" v="farm" />
		<tag k="ssr:stedsnr" v="577247" />
	</node>
	<node id="-847641" lat="63.993469446" lon="10.0180916674">
		<tag k="name" v="Sandholan" />
		<tag k="place" v="isolated_dwelling" />
		<tag k="ssr:stedsnr" v="31872" />
	</node>
	<node id="-849682" lat="63.8776222207" lon="10.3849694485">
		<tag k="name" v="Storlia" />
		<tag k="place" v="isolated_dwelling" />
		<tag k="ssr:stedsnr" v="134309" />
	</node>
	<node id="-847630" lat="63.9696527818" lon="10.0681555508">
		<tag k="name" v="Ner Morkamoen" />
		<tag k="place" v="farm" />
		<tag k="ssr:stedsnr" v="820156" />
	</node>
	<node id="-847625" lat="63.9190111147" lon="10.0028111053">
		<tag k="alt_name" v="Reitan v" />
		<tag k="loc_name" v="Reiten" />
		<tag k="name" v="Reitan" />
		<tag k="place" v="farm" />
		<tag k="ssr:stedsnr" v="559625" />
	</node>
	<node id="-847621" lat="63.9035257005" lon="10.0650782098">
		<tag k="name" v="Brulia" />
		<tag k="place" v="farm" />
		<tag k="ssr:stedsnr" v="181227" />
	</node>
	<node id="-847147" lat="63.9948111142" lon="10.0005861183">
		<tag k="name" v="Myra" />
		<tag k="place" v="farm" />
		<tag k="ssr:stedsnr" v="881848" />
	</node>
	<node id="-847615" lat="63.898921409" lon="10.0419169553">
		<tag k="name" v="Kammen" />
		<tag k="place" v="farm" />
		<tag k="ssr:stedsnr" v="181226" />
	</node>
	<node id="-847613" lat="63.9862573763" lon="10.1831409132">
		<tag k="name" v="Humstad" />
		<tag k="place" v="farm" />
		<tag k="ssr:stedsnr" v="316745" />
	</node>
	<node id="-849655" lat="64.0626805528" lon="10.0219583417">
		<tag k="name" v="Sundgårsmyra" />
		<tag k="place" v="farm" />
		<tag k="ssr:stedsnr" v="213806" />
	</node>
	<node id="-849653" lat="63.9410222237" lon="10.0902305584">
		<tag k="name" v="Unset" />
		<tag k="place" v="farm" />
		<tag k="ssr:stedsnr" v="924521" />
	</node>
	<node id="-847604" lat="64.0825431303" lon="10.5050618326">
		<tag k="name" v="Lia" />
		<tag k="place" v="farm" />
		<tag k="ssr:stedsnr" v="74323" />
	</node>
	<node id="-849651" lat="63.9550444472" lon="9.96414723119">
		<tag k="name" v="Tårnes" />
		<tag k="place" v="farm" />
		<tag k="ssr:stedsnr" v="759087" />
	</node>
	<node id="-847601" lat="64.0526972201" lon="9.95791388364">
		<tag k="name" v="Hosen hyttefelt" />
		<tag k="place" v="neighbourhood" />
		<tag k="ssr:stedsnr" v="891031" />
	</node>
	<node id="-849647" lat="63.9912250003" lon="10.015880547">
		<tag k="name" v="Dalen" />
		<tag k="place" v="farm" />
		<tag k="ssr:stedsnr" v="334861" />
	</node>
	<node id="-849639" lat="63.911591671" lon="10.250419449">
		<tag k="name" v="Ner Mørriaunet" />
		<tag k="old_name" v="Ner Møriaunet" />
		<tag k="place" v="farm" />
		<tag k="ssr:stedsnr" v="941641" />
	</node>
	<node id="-847579" lat="63.9063249982" lon="9.95454167496">
		<tag k="name" v="Strømsmoen" />
		<tag k="place" v="farm" />
		<tag k="ssr:stedsnr" v="577236" />
	</node>
	<node id="-849624" lat="63.9627666657" lon="10.1214222221">
		<tag k="name" v="Skaset" />
		<tag k="place" v="farm" />
		<tag k="ssr:stedsnr" v="182747" />
	</node>
	<node id="-849617" lat="63.9199694438" lon="10.4503305598">
		<tag k="name" v="Flenstad" />
		<tag k="place" v="farm" />
		<tag k="ssr:stedsnr" v="242127" />
	</node>
	<node id="-849612" lat="63.9201499992" lon="10.0110861185">
		<tag k="name" v="Reitskardet" />
		<tag k="place" v="farm" />
		<tag k="ssr:stedsnr" v="334003" />
	</node>
	<node id="-847561" lat="63.9662972193" lon="9.97630833213">
		<tag k="name" v="Tørhogg" />
		<tag k="place" v="hamlet" />
		<tag k="ssr:stedsnr" v="316737" />
	</node>
	<node id="-847560" lat="63.9730305534" lon="10.1549055517">
		<tag k="name" v="Humstad" />
		<tag k="place" v="isolated_dwelling" />
		<tag k="ssr:stedsnr" v="456579" />
	</node>
	<node id="-849601" lat="64.0574277772" lon="9.96294999197">
		<tag k="name" v="Trøa" />
		<tag k="place" v="farm" />
		<tag k="ssr:stedsnr" v="499115" />
	</node>
	<node id="-848500" lat="64.0255888878" lon="10.0507333258">
		<tag k="fixme" v="consider place=hamlet" />
		<tag k="name" v="Åknes" />
		<tag k="place" v="farm" />
		<tag k="ssr:stedsnr" v="256121" />
	</node>
	<node id="-847538" lat="63.9763111129" lon="10.0069333255">
		<tag k="name" v="Ratvika" />
		<tag k="place" v="hamlet" />
		<tag k="ssr:stedsnr" v="741758" />
	</node>
	<node id="-849585" lat="63.9393194404" lon="10.5467444423">
		<tag k="name" v="Ommunddalen" />
		<tag k="place" v="farm" />
		<tag k="ssr:stedsnr" v="242122" />
	</node>
	<node id="-849579" lat="64.009758333" lon="10.5012999964">
		<tag k="fixme" v="consider place=hamlet" />
		<tag k="name" v="Forfot" />
		<tag k="place" v="farm" />
		<tag k="ssr:stedsnr" v="766700" />
	</node>
	<node id="-847473" lat="63.9213916706" lon="9.93353055682">
		<tag k="name" v="Landheim" />
		<tag k="place" v="farm" />
		<tag k="ssr:stedsnr" v="377494" />
	</node>
	<node id="-847523" lat="63.9147249995" lon="9.9792722306">
		<tag k="name" v="Langstranda" />
		<tag k="place" v="farm" />
		<tag k="ssr:stedsnr" v="213346" />
	</node>
	<node id="-849562" lat="63.9590555547" lon="10.2196861181">
		<tag k="name" v="Frønes" />
		<tag k="place" v="farm" />
		<tag k="ssr:stedsnr" v="545226" />
	</node>
	<node id="-847513" lat="64.0653888864" lon="10.5552055525">
		<tag k="name" v="Åltjønnseteren" />
		<tag k="place" v="locality" />
		<tag k="ssr:stedsnr" v="317265" />
	</node>
	<node id="-847506" lat="63.9182416641" lon="9.97043888798">
		<tag k="alt_name" v="Barøy nordre" />
		<tag k="name" v="Nordre Barøy nordre" />
		<tag k="place" v="farm" />
		<tag k="ssr:stedsnr" v="152017" />
	</node>
	<node id="-847502" lat="63.9914123599" lon="10.2926625015">
		<tag k="fixme" v="consider place=hamlet" />
		<tag k="name" v="Berdal" />
		<tag k="place" v="farm" />
		<tag k="ssr:stedsnr" v="820117" />
	</node>
	<node id="-849548" lat="63.9693305575" lon="9.98608611112">
		<tag k="name" v="Tørhogg" />
		<tag k="place" v="farm" />
		<tag k="ssr:stedsnr" v="485736" />
	</node>
	<node id="-849542" lat="63.9090930955" lon="9.97486755928">
		<tag k="fixme" v="consider place=hamlet" />
		<tag k="name" v="Selnes" />
		<tag k="place" v="farm" />
		<tag k="ssr:stedsnr" v="636663" />
	</node>
	<node id="-847492" lat="63.9256213566" lon="10.0200490655">
		<tag k="fixme" v="consider place=hamlet" />
		<tag k="name" v="Eidem" />
		<tag k="place" v="farm" />
		<tag k="ssr:stedsnr" v="849268" />
	</node>
	<node id="-849534" lat="64.0237138853" lon="9.94224722227">
		<tag k="name" v="Stranda" />
		<tag k="place" v="farm" />
		<tag k="ssr:stedsnr" v="91396" />
	</node>
	<node id="-847483" lat="63.9330499979" lon="10.0638722242">
		<tag k="name" v="Nordtømme" />
		<tag k="place" v="farm" />
		<tag k="ssr:stedsnr" v="577232" />
	</node>
	<node id="-847477" lat="63.9982305592" lon="10.2297138839">
		<tag k="name" v="Steinbekken" />
		<tag k="place" v="farm" />
		<tag k="ssr:stedsnr" v="637091" />
	</node>
	<node id="-847795" lat="64.0111500025" lon="10.5029888805">
		<tag k="alt_name" v="Forfot, øvre" />
		<tag k="name" v="Øvre Forfot" />
		<tag k="place" v="farm" />
		<tag k="ssr:stedsnr" v="256692" />
	</node>
	<node id="-849521" lat="64.0044010406" lon="10.2267345793">
		<tag k="name" v="Valleraunet" />
		<tag k="place" v="farm" />
		<tag k="ssr:stedsnr" v="182732" />
	</node>
	<node id="-849514" lat="63.9634838464" lon="10.1247579735">
		<tag k="fixme" v="consider place=hamlet" />
		<tag k="name" v="Skaset" />
		<tag k="place" v="farm" />
		<tag k="ssr:stedsnr" v="499646" />
	</node>
	<node id="-846780" lat="63.9759083355" lon="9.99907221341">
		<tag k="name" v="Haugsneset" />
		<tag k="place" v="farm" />
		<tag k="ssr:stedsnr" v="759302" />
	</node>
	<node id="-847459" lat="63.9179944441" lon="10.41057223">
		<tag k="name" v="Breivollen" />
		<tag k="place" v="farm" />
		<tag k="ssr:stedsnr" v="303171" />
	</node>
	<node id="-849506" lat="64.0271833379" lon="10.0794499907">
		<tag k="alt_name" v="Stokksund skole" />
		<tag k="amenity" v="school" />
		<tag k="name" v="Stokksund oppvekstsenter" />
		<tag k="ssr:stedsnr" v="180868" />
	</node>
	<node id="-849503" lat="64.0582444404" lon="10.4543138808">
		<tag k="name" v="Nordbuan" />
		<tag k="place" v="farm" />
		<tag k="ssr:stedsnr" v="378297" />
	</node>
	<node id="-849499" lat="63.9834861085" lon="10.4229666681">
		<tag k="fixme" v="consider place=hamlet" />
		<tag k="name" v="By" />
		<tag k="place" v="village" />
		<tag k="ssr:stedsnr" v="242114" />
	</node>
	<node id="-849497" lat="63.9826298518" lon="10.43605222">
		<tag k="alt_name" v="Gilde" />
		<tag k="name" v="Gilda" />
		<tag k="place" v="farm" />
		<tag k="ssr:stedsnr" v="728115" />
	</node>
	<node id="-849495" lat="63.9709555534" lon="10.150755548">
		<tag k="name" v="Skogrand" />
		<tag k="place" v="farm" />
		<tag k="ssr:stedsnr" v="376712" />
	</node>
	<node id="-849493" lat="63.9361336068" lon="10.1645515395">
		<tag k="fixme" v="consider place=hamlet" />
		<tag k="name" v="Finnset" />
		<tag k="place" v="farm" />
		<tag k="ssr:stedsnr" v="924495" />
	</node>
	<node id="-847443" lat="63.9303694431" lon="10.3367194545">
		<tag k="name" v="Granodden" />
		<tag k="place" v="farm" />
		<tag k="ssr:stedsnr" v="820995" />
	</node>
	<node id="-847441" lat="64.0279277666" lon="10.3943134818">
		<tag k="fixme" v="consider place=hamlet" />
		<tag k="name" v="Nittamarka" />
		<tag k="place" v="farm" />
		<tag k="ssr:stedsnr" v="606737" />
	</node>
	<node id="-847437" lat="63.9839805556" lon="10.1321833367">
		<tag k="name" v="Morkastranda" />
		<tag k="place" v="farm" />
		<tag k="ssr:stedsnr" v="741760" />
	</node>
	<node id="-847433" lat="64.0476361115" lon="10.4482750052">
		<tag k="name" v="Børmarka" />
		<tag k="place" v="farm" />
		<tag k="ssr:stedsnr" v="606738" />
	</node>
	<node id="-847425" lat="63.9843749991" lon="10.3939361128">
		<tag k="name" v="Liabakkan" />
		<tag k="place" v="farm" />
		<tag k="ssr:stedsnr" v="91771" />
	</node>
	<node id="-849471" lat="63.9205277739" lon="9.96499723074">
		<tag k="name" v="Haugen" />
		<tag k="place" v="farm" />
		<tag k="ssr:stedsnr" v="698200" />
	</node>
	<node id="-849469" lat="64.0448333343" lon="10.0710638963">
		<tag k="name" v="Sjøtrøa" />
		<tag k="place" v="isolated_dwelling" />
		<tag k="ssr:stedsnr" v="759879" />
	</node>
	<node id="-849461" lat="64.032223846" lon="10.3221118204">
		<tag k="fixme" v="multiple name tags, choose one and add the other to alt_name" />
		<tag k="name" v="Fjellheim;Valleraunseteren" />
		<tag k="place" v="farm" />
		<tag k="ssr:stedsnr" v="196671" />
	</node>
	<node id="-849457" lat="63.9197416633" lon="9.96120277394">
		<tag k="name" v="Øra" />
		<tag k="place" v="farm" />
		<tag k="ssr:stedsnr" v="698198" />
	</node>
	<node id="-847408" lat="63.9722500034" lon="10.080172213">
		<tag k="name" v="Morka boligfelt" />
		<tag k="place" v="quarter" />
		<tag k="ssr:stedsnr" v="284021" />
	</node>
	<node id="-847405" lat="63.933644442" lon="10.0239749959">
		<tag k="name" v="Hesthagan hyttefelt" />
		<tag k="place" v="neighbourhood" />
		<tag k="ssr:stedsnr" v="284020" />
	</node>
	<node id="-847794" lat="63.9351194426" lon="9.94136666239">
		<tag k="name" v="Langstranda" />
		<tag k="place" v="farm" />
		<tag k="ssr:stedsnr" v="627031" />
	</node>
	<node id="-849449" lat="64.0384055515" lon="10.0680833359">
		<tag k="name" v="Moen" />
		<tag k="place" v="farm" />
		<tag k="ssr:stedsnr" v="759875" />
	</node>
	<node id="-847396" lat="63.9129555596" lon="10.0015888906">
		<tag k="name" v="Øyan" />
		<tag k="place" v="farm" />
		<tag k="ssr:stedsnr" v="152001" />
	</node>
	<node id="-847393" lat="63.9836670073" lon="10.3683020568">
		<tag k="name" v="Naustan" />
		<tag k="place" v="farm" />
		<tag k="ssr:stedsnr" v="303160" />
	</node>
	<node id="-849434" lat="64.0151611136" lon="10.0253555625">
		<tag k="name" v="Grønvollan" />
		<tag k="place" v="farm" />
		<tag k="ssr:stedsnr" v="334829" />
	</node>
	<node id="-847385" lat="64.0902000035" lon="10.5020833335">
		<tag k="fixme" v="multiple name tags, choose one and add the other to alt_name" />
		<tag k="name" v="Momyr;Nordre Momyr" />
		<tag k="place" v="farm" />
		<tag k="ssr:stedsnr" v="863340" />
	</node>
	<node id="-849430" lat="63.9598500028" lon="10.1834166632">
		<tag k="fixme" v="consider place=hamlet" />
		<tag k="name" v="Monstad" />
		<tag k="place" v="farm" />
		<tag k="ssr:stedsnr" v="395629" />
	</node>
	<node id="-847379" lat="64.0447888874" lon="10.0381277688">
		<tag k="name" v="Kjerkgården" />
		<tag k="place" v="locality" />
		<tag k="ssr:stedsnr" v="274925" />
	</node>
	<node id="-849422" lat="63.9951555597" lon="10.2137916704">
		<tag k="name" v="Gottås" />
		<tag k="place" v="farm" />
		<tag k="ssr:stedsnr" v="698215" />
	</node>
	<node id="-847366" lat="63.9754666669" lon="9.98442221842">
		<tag k="name" v="Bårdvika" />
		<tag k="place" v="farm" />
		<tag k="ssr:stedsnr" v="31045" />
	</node>
	<node id="-849413" lat="63.9666694449" lon="10.2225500056">
		<tag k="name" v="Åfjord prestegård" />
		<tag k="place" v="farm" />
		<tag k="ssr:stedsnr" v="213750" />
	</node>
	<node id="-847363" lat="63.9923583314" lon="10.0529638961">
		<tag k="name" v="Haltstrand" />
		<tag k="place" v="farm" />
		<tag k="ssr:stedsnr" v="819354" />
	</node>
	<node id="-849409" lat="64.0280472219" lon="9.88641388106">
		<tag k="alt_name" v="Eid" />
		<tag k="fixme" v="consider place=hamlet" />
		<tag k="name" v="Eide" />
		<tag k="place" v="farm" />
		<tag k="ssr:stedsnr" v="75110" />
	</node>
	<node id="-847356" lat="63.9032679036" lon="10.064908054">
		<tag k="fixme" v="consider place=hamlet" />
		<tag k="name" v="Brulia" />
		<tag k="place" v="farm" />
		<tag k="ssr:stedsnr" v="256560" />
	</node>
	<node id="-849402" lat="64.0364583307" lon="9.98195278501">
		<tag k="name" v="Tjeldvika" />
		<tag k="place" v="farm" />
		<tag k="ssr:stedsnr" v="334794" />
	</node>
	<node id="-847353" lat="63.9376555561" lon="10.2231638976">
		<tag k="alt_name" v="Arnvika" />
		<tag k="name" v="Arnevik" />
		<tag k="place" v="farm" />
		<tag k="ssr:stedsnr" v="456635" />
	</node>
	<node id="-849395" lat="64.0281888885" lon="10.5307000088">
		<tag k="name" v="Aunet" />
		<tag k="place" v="farm" />
		<tag k="ssr:stedsnr" v="881490" />
	</node>
	<node id="-847346" lat="64.0311222245" lon="10.0823694438">
		<tag k="name" v="Seteren" />
		<tag k="place" v="farm" />
		<tag k="ssr:stedsnr" v="820214" />
	</node>
	<node id="-849385" lat="63.9210333332" lon="10.2118444415">
		<tag k="name" v="Sørli" />
		<tag k="place" v="farm" />
		<tag k="ssr:stedsnr" v="213743" />
	</node>
	<node id="-849382" lat="64.0675489546" lon="10.0157595223">
		<tag k="fixme" v="consider place=hamlet" />
		<tag k="name" v="Sundet" />
		<tag k="place" v="farm" />
		<tag k="ssr:stedsnr" v="973545" />
	</node>
	<node id="-847332" lat="63.9780583374" lon="10.4014388923">
		<tag k="fixme" v="consider place=hamlet" />
		<tag k="name" v="Staven" />
		<tag k="place" v="farm" />
		<tag k="ssr:stedsnr" v="303157" />
	</node>
	<node id="-847319" lat="63.9732500006" lon="10.0126166747">
		<tag k="name" v="Ratvikmoen boligfelt" />
		<tag k="place" v="quarter" />
		<tag k="ssr:stedsnr" v="770023" />
	</node>
	<node id="-847317" lat="63.9761833325" lon="10.0109500082">
		<tag k="name" v="Ratvika" />
		<tag k="place" v="farm" />
		<tag k="ssr:stedsnr" v="820072" />
	</node>
	<node id="-847316" lat="63.9899777788" lon="10.46244167">
		<tag k="name" v="Rømma" />
		<tag k="place" v="farm" />
		<tag k="ssr:stedsnr" v="606135" />
	</node>
	<node id="-849362" lat="63.9252888906" lon="9.99438332702">
		<tag k="name" v="Bjørnavika" />
		<tag k="place" v="farm" />
		<tag k="ssr:stedsnr" v="91365" />
	</node>
	<node id="-849361" lat="63.9310027803" lon="10.0872305513">
		<tag k="name" v="Storvika" />
		<tag k="place" v="farm" />
		<tag k="ssr:stedsnr" v="924478" />
	</node>
	<node id="-847312" lat="64.0654944404" lon="10.0158444508">
		<tag k="name" v="Innersunda" />
		<tag k="place" v="farm" />
		<tag k="ssr:stedsnr" v="31784" />
	</node>
	<node id="-847310" lat="63.923402782" lon="10.0552694452">
		<tag k="name" v="Sletten" />
		<tag k="place" v="farm" />
		<tag k="ssr:stedsnr" v="681505" />
	</node>
	<node id="-849354" lat="63.9678166657" lon="10.2183916647">
		<tag k="amenity" v="kindergarten" />
		<tag k="name" v="Maribo barnehage" />
		<tag k="ssr:stedsnr" v="907647" />
	</node>
	<node id="-849353" lat="63.932200001" lon="10.2240388956">
		<tag k="name" v="Kvennabakken" />
		<tag k="place" v="farm" />
		<tag k="ssr:stedsnr" v="577640" />
	</node>
	<node id="-847300" lat="63.9200361104" lon="10.0079694461">
		<tag k="name" v="Reitan ø." />
		<tag k="place" v="farm" />
		<tag k="ssr:stedsnr" v="881008" />
	</node>
	<node id="-849347" lat="64.0285138892" lon="9.91252500662">
		<tag k="fixme" v="consider place=hamlet" />
		<tag k="name" v="Nordgårdan" />
		<tag k="place" v="farm" />
		<tag k="ssr:stedsnr" v="439087" />
	</node>
	<node id="-847298" lat="64.0041883494" lon="10.5263666491">
		<tag k="name" v="Nakken" />
		<tag k="place" v="locality" />
		<tag k="ssr:stedsnr" v="620731" />
	</node>
	<node id="-849153" lat="63.9682944448" lon="10.0693111205">
		<tag k="name" v="Trappen" />
		<tag k="place" v="farm" />
		<tag k="ssr:stedsnr" v="698103" />
	</node>
	<node id="-847296" lat="64.0085861095" lon="9.94261943555">
		<tag k="name" v="Lines" />
		<tag k="place" v="farm" />
		<tag k="ssr:stedsnr" v="637832" />
	</node>
	<node id="-847776" lat="63.9690999965" lon="9.99540833435">
		<tag k="name" v="Trøa" />
		<tag k="place" v="isolated_dwelling" />
		<tag k="ssr:stedsnr" v="152076" />
	</node>
	<node id="-849341" lat="63.9854416834" lon="10.0001929598">
		<tag k="fixme" v="consider place=hamlet" />
		<tag k="name" v="Hestvik" />
		<tag k="place" v="farm" />
		<tag k="ssr:stedsnr" v="680754" />
	</node>
	<node id="-849340" lat="64.1120722201" lon="10.5414277693">
		<tag k="name" v="Grensen" />
		<tag k="place" v="farm" />
		<tag k="ssr:stedsnr" v="559338" />
	</node>
	<node id="-849334" lat="63.9871499969" lon="10.3881388797">
		<tag k="name" v="Engen" />
		<tag k="place" v="farm" />
		<tag k="ssr:stedsnr" v="334777" />
	</node>
	<node id="-849333" lat="63.9600472254" lon="10.2190972194">
		<tag k="name" v="Frønes boligfelt" />
		<tag k="place" v="quarter" />
		<tag k="ssr:stedsnr" v="163103" />
	</node>
	<node id="-849328" lat="63.9649583357" lon="10.2116305534">
		<tag k="fixme" v="consider place=suburb, village or hamlet" />
		<tag k="name" v="Vassneset" />
		<tag k="place" v="quarter" />
		<tag k="ssr:stedsnr" v="13707" />
	</node>
	<node id="-849327" lat="63.9274063841" lon="10.3886807599">
		<tag k="name" v="Øykaunet" />
		<tag k="place" v="farm" />
		<tag k="ssr:stedsnr" v="485165" />
	</node>
	<node id="-849326" lat="63.9306250006" lon="10.0669222216">
		<tag k="name" v="Rånes" />
		<tag k="place" v="hamlet" />
		<tag k="ssr:stedsnr" v="941524" />
	</node>
	<node id="-849325" lat="63.9705210691" lon="10.0364164359">
		<tag k="alt_name" v="Tørhoggseteren" />
		<tag k="historic" v="shieling" />
		<tag k="name" v="Tørhoggsætra" />
		<tag k="place" v="locality" />
		<tag k="ssr:stedsnr" v="680735" />
	</node>
	<node id="-847271" lat="64.0539371755" lon="9.95695585745">
		<tag k="name" v="Steinan hyttefelt" />
		<tag k="place" v="neighbourhood" />
		<tag k="ssr:stedsnr" v="770035" />
	</node>
	<node id="-849314" lat="64.0376694422" lon="10.0429694402">
		<tag k="name" v="Trøa" />
		<tag k="place" v="isolated_dwelling" />
		<tag k="ssr:stedsnr" v="91349" />
	</node>
	<node id="-847264" lat="64.0537972243" lon="10.4375666735">
		<tag k="name" v="Grøneng" />
		<tag k="place" v="farm" />
		<tag k="ssr:stedsnr" v="742269" />
	</node>
	<node id="-849310" lat="63.9122833312" lon="10.4069416715">
		<tag k="name" v="Myrset" />
		<tag k="place" v="farm" />
		<tag k="ssr:stedsnr" v="923379" />
	</node>
	<node id="-847259" lat="63.9808638922" lon="10.4161972134">
		<tag k="name" v="Tørrmoen" />
		<tag k="place" v="farm" />
		<tag k="ssr:stedsnr" v="152773" />
	</node>
	<node id="-847255" lat="64.0581027776" lon="10.4870749924">
		<tag k="historic" v="shieling" />
		<tag k="name" v="Brennmarka" />
		<tag k="place" v="locality" />
		<tag k="ssr:stedsnr" v="742271" />
	</node>
	<node id="-847253" lat="63.9834305562" lon="10.421266668">
		<tag k="name" v="By" />
		<tag k="place" v="farm" />
		<tag k="ssr:stedsnr" v="152774" />
	</node>
	<node id="-849299" lat="63.9562138872" lon="9.97178611601">
		<tag k="name" v="Tårnes" />
		<tag k="place" v="farm" />
		<tag k="ssr:stedsnr" v="456102" />
	</node>
	<node id="-849297" lat="64.025024997" lon="10.0345027854">
		<tag k="alt_name" v="Lauvstrand" />
		<tag k="fixme" v="consider place=hamlet" />
		<tag k="name" v="Lauvstranda" />
		<tag k="place" v="farm" />
		<tag k="ssr:stedsnr" v="788093" />
	</node>
	<node id="-847245" lat="64.0553194423" lon="9.95244999907">
		<tag k="name" v="Middagshaugen hyttefelt" />
		<tag k="place" v="neighbourhood" />
		<tag k="ssr:stedsnr" v="770033" />
	</node>
	<node id="-849290" lat="64.0537972182" lon="9.95061665878">
		<tag k="name" v="Strandbaren" />
		<tag k="ssr:stedsnr" v="483780" />
		<tag k="tourism" v="guest_house" />
	</node>
	<node id="-849287" lat="64.0112555569" lon="10.3533500065">
		<tag k="historic" v="shieling" />
		<tag k="name" v="Mølslettseteren" />
		<tag k="place" v="locality" />
		<tag k="ssr:stedsnr" v="759802" />
	</node>
	<node id="-848537" lat="63.9434750029" lon="10.2053722272">
		<tag k="name" v="Breivik" />
		<tag k="place" v="farm" />
		<tag k="ssr:stedsnr" v="439509" />
	</node>
	<node id="-850191" lat="63.9947500014" lon="10.0141972206">
		<tag k="name" v="Sjøen" />
		<tag k="place" v="farm" />
		<tag k="ssr:stedsnr" v="820742" />
	</node>
	<node id="-849275" lat="64.0346055583" lon="9.87200556587">
		<tag k="fixme" v="consider place=hamlet" />
		<tag k="name" v="Tørrvika" />
		<tag k="place" v="farm" />
		<tag k="ssr:stedsnr" v="75092" />
	</node>
	<node id="-847224" lat="63.9602194447" lon="10.2242888813">
		<tag k="building" v="commercial" />
		<tag k="name" v="Åfjordstorget" />
		<tag k="ssr:stedsnr" v="362719" />
	</node>
	<node id="-847222" lat="63.9226861124" lon="9.92231944768">
		<tag k="name" v="Skogahaugen boligfelt" />
		<tag k="place" v="neighbourhood" />
		<tag k="ssr:stedsnr" v="770031" />
	</node>
	<node id="-849266" lat="63.9541472184" lon="10.2644444419">
		<tag k="historic" v="shieling" />
		<tag k="name" v="Melaseteren" />
		<tag k="place" v="locality" />
		<tag k="ssr:stedsnr" v="619403" />
	</node>
	<node id="-847215" lat="63.985961222" lon="10.1829128453">
		<tag k="fixme" v="consider place=hamlet" />
		<tag k="name" v="Humstad" />
		<tag k="place" v="farm" />
		<tag k="ssr:stedsnr" v="544082" />
	</node>
	<node id="-849262" lat="63.9754902615" lon="10.0881548053">
		<tag k="fixme" v="consider place=hamlet" />
		<tag k="name" v="Morka" />
		<tag k="place" v="farm" />
		<tag k="ssr:stedsnr" v="242741" />
	</node>
	<node id="-847210" lat="63.9913027775" lon="10.0631555647">
		<tag k="historic" v="shieling" />
		<tag k="name" v="Herfjordseteren" />
		<tag k="place" v="locality" />
		<tag k="ssr:stedsnr" v="152770" />
	</node>
	<node id="-848103" lat="63.9338805526" lon="10.0655555464">
		<tag k="name" v="Myra" />
		<tag k="place" v="farm" />
		<tag k="ssr:stedsnr" v="499451" />
	</node>
	<node id="-849253" lat="63.9919555566" lon="10.2936888879">
		<tag k="name" v="Berdal" />
		<tag k="place" v="hamlet" />
		<tag k="ssr:stedsnr" v="485706" />
	</node>
	<node id="-847203" lat="64.0325666665" lon="9.88318055445">
		<tag k="name" v="Eid" />
		<tag k="place" v="hamlet" />
		<tag k="ssr:stedsnr" v="637812" />
	</node>
	<node id="-849248" lat="63.9854388855" lon="10.4176249976">
		<tag k="name" v="Sve" />
		<tag k="place" v="farm" />
		<tag k="ssr:stedsnr" v="334746" />
	</node>
	<node id="-847197" lat="63.9275212359" lon="10.1613487567">
		<tag k="fixme" v="consider place=hamlet" />
		<tag k="name" v="Kroken" />
		<tag k="place" v="farm" />
		<tag k="ssr:stedsnr" v="256472" />
	</node>
	<node id="-847196" lat="64.0400666624" lon="9.98657499018">
		<tag k="leisure" v="pitch" />
		<tag k="name" v="Stokkøya stadion" />
		<tag k="ssr:stedsnr" v="604736" />
	</node>
	<node id="-849243" lat="63.991341663" lon="10.1865138968">
		<tag k="name" v="Nesodden" />
		<tag k="place" v="farm" />
		<tag k="ssr:stedsnr" v="698148" />
	</node>
	<node id="-847759" lat="64.0813305527" lon="10.4300500077">
		<tag k="name" v="Kjerstiholan" />
		<tag k="place" v="locality" />
		<tag k="ssr:stedsnr" v="317295" />
	</node>
	<node id="-849238" lat="63.9900000039" lon="10.1755333414">
		<tag k="name" v="Dolmset" />
		<tag k="place" v="farm" />
		<tag k="ssr:stedsnr" v="242733" />
	</node>
	<node id="-849229" lat="64.0378083342" lon="10.0575027867">
		<tag k="name" v="Revsnes" />
		<tag k="place" v="hamlet" />
		<tag k="ssr:stedsnr" v="499066" />
	</node>
	<node id="-849224" lat="63.9602472255" lon="10.6474694441">
		<tag k="name" v="Storfjellet" />
		<tag k="place" v="farm" />
		<tag k="ssr:stedsnr" v="923390" />
	</node>
	<node id="-849223" lat="64.0227611147" lon="10.0682083298">
		<tag k="fixme" v="consider place=hamlet" />
		<tag k="name" v="Lunnfjorden" />
		<tag k="place" v="farm" />
		<tag k="ssr:stedsnr" v="196069" />
	</node>
	<node id="-847170" lat="63.9690222197" lon="10.2052972287">
		<tag k="name" v="Buenget" />
		<tag k="place" v="farm" />
		<tag k="ssr:stedsnr" v="152754" />
	</node>
	<node id="-847165" lat="63.9381722193" lon="10.0420944515">
		<tag k="name" v="Grimstad" />
		<tag k="place" v="farm" />
		<tag k="ssr:stedsnr" v="424235" />
	</node>
	<node id="-849210" lat="64.0006499998" lon="10.3180972304">
		<tag k="name" v="Mølsletta" />
		<tag k="place" v="farm" />
		<tag k="ssr:stedsnr" v="788739" />
	</node>
	<node id="-847157" lat="63.9144055569" lon="9.96789167437">
		<tag k="name" v="Lyngsmyr" />
		<tag k="place" v="farm" />
		<tag k="ssr:stedsnr" v="274016" />
	</node>
	<node id="-847156" lat="63.9870000035" lon="10.3917888807">
		<tag k="name" v="Høglia" />
		<tag k="place" v="farm" />
		<tag k="ssr:stedsnr" v="924140" />
	</node>
	<node id="-849195" lat="63.9302179353" lon="10.1495493187">
		<tag k="name" v="Brasset" />
		<tag k="place" v="farm" />
		<tag k="ssr:stedsnr" v="222894" />
	</node>
	<node id="-849191" lat="63.9447444421" lon="10.1143138842">
		<tag k="name" v="Kleiva" />
		<tag k="place" v="farm" />
		<tag k="ssr:stedsnr" v="317491" />
	</node>
	<node id="-847750" lat="63.9292861067" lon="10.0446805639">
		<tag k="name" v="Minde" />
		<tag k="place" v="farm" />
		<tag k="ssr:stedsnr" v="134559" />
	</node>
	<node id="-847134" lat="63.9952416699" lon="10.2168666709">
		<tag k="name" v="Gottås hyttefelt" />
		<tag k="place" v="neighbourhood" />
		<tag k="ssr:stedsnr" v="527026" />
	</node>
	<node id="-847133" lat="63.9232722252" lon="10.2152749947">
		<tag k="name" v="Møri" />
		<tag k="place" v="farm" />
		<tag k="ssr:stedsnr" v="424217" />
	</node>
	<node id="-849180" lat="64.0034777746" lon="10.2309694385">
		<tag k="name" v="Imsen" />
		<tag k="place" v="farm" />
		<tag k="ssr:stedsnr" v="242722" />
	</node>
	<node id="-849177" lat="64.0715194412" lon="9.95456944126">
		<tag k="name" v="Gramarsvikplassen" />
		<tag k="place" v="farm" />
		<tag k="ssr:stedsnr" v="759771" />
	</node>
	<node id="-847127" lat="64.0159549662" lon="10.5706767174">
		<tag k="name" v="Dulmålsenget" />
		<tag k="place" v="locality" />
		<tag k="ssr:stedsnr" v="924699" />
	</node>
	<node id="-849172" lat="63.9210555551" lon="10.2289638874">
		<tag k="name" v="Råkheim" />
		<tag k="place" v="farm" />
		<tag k="ssr:stedsnr" v="923364" />
	</node>
	<node id="-849170" lat="63.9881963175" lon="10.7386330592">
		<tag k="fixme" v="consider place=hamlet" />
		<tag k="name" v="Skansen" />
		<tag k="place" v="farm" />
		<tag k="ssr:stedsnr" v="863593" />
	</node>
	<node id="-847117" lat="64.0444871661" lon="10.0388219249">
		<tag k="fixme" v="consider place=hamlet" />
		<tag k="name" v="Kjerkholmen" />
		<tag k="place" v="farm" />
		<tag k="ssr:stedsnr" v="910099" />
	</node>
	<node id="-849164" lat="63.9468222253" lon="10.5342972241">
		<tag k="name" v="Granlia" />
		<tag k="place" v="farm" />
		<tag k="ssr:stedsnr" v="316428" />
	</node>
	<node id="-847115" lat="63.9599444416" lon="10.2154361157">
		<tag k="building" v="commercial" />
		<tag k="name" v="Årnes handel" />
		<tag k="ssr:stedsnr" v="604727" />
	</node>
	<node id="-849154" lat="63.9318999981" lon="10.0857333423">
		<tag k="name" v="Nordvika" />
		<tag k="place" v="farm" />
		<tag k="ssr:stedsnr" v="395539" />
	</node>
	<node id="-847105" lat="63.9297583313" lon="10.3560000023">
		<tag k="name" v="Halsen" />
		<tag k="place" v="farm" />
		<tag k="ssr:stedsnr" v="880985" />
	</node>
	<node id="-847104" lat="64.0400666624" lon="9.98657499018">
		<tag k="leisure" v="pitch" />
		<tag k="name" v="Guttelvika fotballbane" />
		<tag k="ssr:stedsnr" v="301714" />
	</node>
	<node id="-847099" lat="64.1004916638" lon="10.5553611176">
		<tag k="name" v="Perenget" />
		<tag k="place" v="farm" />
		<tag k="ssr:stedsnr" v="196314" />
	</node>
	<node id="-849144" lat="64.0853888906" lon="10.5061888832">
		<tag k="name" v="Brottet" />
		<tag k="place" v="farm" />
		<tag k="ssr:stedsnr" v="559313" />
	</node>
	<node id="-849142" lat="63.9817861085" lon="10.3575722119">
		<tag k="name" v="Vesterheim" />
		<tag k="place" v="farm" />
		<tag k="ssr:stedsnr" v="516785" />
	</node>
	<node id="-849141" lat="64.0233194422" lon="9.88507778074">
		<tag k="name" v="Langvik" />
		<tag k="place" v="farm" />
		<tag k="ssr:stedsnr" v="213689" />
	</node>
	<node id="-847089" lat="63.9781305578" lon="10.3265361015">
		<tag k="name" v="Torsvika" />
		<tag k="place" v="farm" />
		<tag k="ssr:stedsnr" v="741185" />
	</node>
	<node id="-849132" lat="63.993183337" lon="10.0110055543">
		<tag k="fixme" v="consider place=hamlet" />
		<tag k="name" v="Grøttingen" />
		<tag k="place" v="farm" />
		<tag k="ssr:stedsnr" v="802765" />
	</node>
	<node id="-849124" lat="63.9545999745" lon="10.2251152639">
		<tag k="name" v="Melan" />
		<tag k="place" v="farm" />
		<tag k="ssr:stedsnr" v="182136" />
	</node>
	<node id="-849119" lat="64.0236138891" lon="10.515180555">
		<tag k="name" v="Mohaugen" />
		<tag k="place" v="farm" />
		<tag k="ssr:stedsnr" v="820519" />
	</node>
	<node id="-847069" lat="64.025397222" lon="9.9325361194">
		<tag k="name" v="Stormyra" />
		<tag k="place" v="farm" />
		<tag k="ssr:stedsnr" v="881823" />
	</node>
	<node id="-847068" lat="63.9231444471" lon="10.2154361036">
		<tag k="fixme" v="consider place=hamlet" />
		<tag k="name" v="Møri" />
		<tag k="place" v="farm" />
		<tag k="ssr:stedsnr" v="152740" />
	</node>
	<node id="-849113" lat="64.0055722186" lon="9.93425277108">
		<tag k="fixme" v="consider place=hamlet" />
		<tag k="name" v="Lines" />
		<tag k="place" v="village" />
		<tag k="ssr:stedsnr" v="439050" />
	</node>
	<node id="-849112" lat="63.911583331" lon="10.2450000086">
		<tag k="name" v="Møriaunstranda" />
		<tag k="place" v="farm" />
		<tag k="ssr:stedsnr" v="213684" />
	</node>
	<node id="-847054" lat="63.9174972266" lon="10.4282638933">
		<tag k="fixme" v="consider place=hamlet" />
		<tag k="name" v="Vinnan" />
		<tag k="place" v="farm" />
		<tag k="ssr:stedsnr" v="849188" />
	</node>
	<node id="-849098" lat="63.9247638861" lon="10.1422722148">
		<tag k="name" v="Botnen" />
		<tag k="place" v="farm" />
		<tag k="ssr:stedsnr" v="941516" />
	</node>
	<node id="-847044" lat="63.9752416652" lon="10.0055222144">
		<tag k="name" v="Bjørnavika" />
		<tag k="place" v="farm" />
		<tag k="ssr:stedsnr" v="395063" />
	</node>
	<node id="-849088" lat="63.9533638918" lon="10.1608416714">
		<tag k="name" v="Velde" />
		<tag k="place" v="farm" />
		<tag k="ssr:stedsnr" v="31344" />
	</node>
	<node id="-849087" lat="64.0303527788" lon="10.5338333301">
		<tag k="historic" v="shieling" />
		<tag k="name" v="Innlegget" />
		<tag k="place" v="locality" />
		<tag k="ssr:stedsnr" v="820512" />
	</node>
	<node id="-847038" lat="64.0399694433" lon="10.0768861034">
		<tag k="name" v="Gården" />
		<tag k="place" v="farm" />
		<tag k="ssr:stedsnr" v="274843" />
	</node>
	<node id="-847037" lat="63.8943361141" lon="9.9502888943">
		<tag k="name" v="Aunet" />
		<tag k="place" v="farm" />
		<tag k="ssr:stedsnr" v="577123" />
	</node>
	<node id="-847050" lat="63.946765732" lon="10.1329540935">
		<tag k="fixme" v="consider place=hamlet" />
		<tag k="name" v="Strand" />
		<tag k="place" v="farm" />
		<tag k="ssr:stedsnr" v="14471" />
	</node>
	<node id="-849082" lat="64.0676999997" lon="10.0136583416">
		<tag k="name" v="Krommen" />
		<tag k="place" v="farm" />
		<tag k="ssr:stedsnr" v="759778" />
	</node>
	<node id="-849081" lat="63.9689249982" lon="10.2215694422">
		<tag k="amenity" v="nursing_home" />
		<tag k="name" v="Åfjord helsesenter" />
		<tag k="ssr:stedsnr" v="334720" />
	</node>
	<node id="-847032" lat="64.0327194463" lon="9.9099222273">
		<tag k="name" v="Nordgårda" />
		<tag k="place" v="farm" />
		<tag k="ssr:stedsnr" v="881821" />
	</node>
	<node id="-847030" lat="64.0688361147" lon="10.0131166676">
		<tag k="name" v="Yttersunda" />
		<tag k="place" v="farm" />
		<tag k="ssr:stedsnr" v="637774" />
	</node>
	<node id="-848414" lat="63.9866777784" lon="10.1397444429">
		<tag k="amenity" v="school" />
		<tag k="name" v="Langdal skole" />
		<tag k="ssr:stedsnr" v="334565" />
	</node>
	<node id="-850644" lat="63.9265916697" lon="9.93453888971">
		<tag k="name" v="Haugen" />
		<tag k="place" v="farm" />
		<tag k="ssr:stedsnr" v="923565" />
	</node>
	<node id="-849057" lat="63.9879416305" lon="10.7379947851">
		<tag k="name" v="Skansen" />
		<tag k="place" v="farm" />
		<tag k="ssr:stedsnr" v="182127" />
	</node>
	<node id="-849051" lat="63.9775936064" lon="10.6611982767">
		<tag k="fixme" v="consider place=hamlet" />
		<tag k="loc_name" v="Bårdlia" />
		<tag k="name" v="Bårdli" />
		<tag k="place" v="farm" />
		<tag k="ssr:stedsnr" v="182129" />
	</node>
	<node id="-849049" lat="64.0376750026" lon="10.0513944489">
		<tag k="amenity" v="nursing_home" />
		<tag k="name" v="Stokksund trygdepensjonat" />
		<tag k="ssr:stedsnr" v="663696" />
	</node>
	<node id="-849048" lat="63.9182747258" lon="10.4274293196">
		<tag k="name" v="Vinnan" />
		<tag k="place" v="farm" />
		<tag k="ssr:stedsnr" v="619376" />
	</node>
	<node id="-849036" lat="64.0284694485" lon="10.0792944428">
		<tag k="name" v="Seterlia boligfelt" />
		<tag k="place" v="quarter" />
		<tag k="ssr:stedsnr" v="603632" />
	</node>
	<node id="-849035" lat="64.0198952613" lon="10.0435589077">
		<tag k="name" v="Storvik" />
		<tag k="place" v="farm" />
		<tag k="ssr:stedsnr" v="439041" />
	</node>
	<node id="-849032" lat="63.9649611146" lon="10.2217194435">
		<tag k="amenity" v="school" />
		<tag k="name" v="Åfjord videregående skole" />
		<tag k="ssr:stedsnr" v="42008" />
	</node>
	<node id="-849030" lat="63.9984416634" lon="10.4707500048">
		<tag k="name" v="Granmo" />
		<tag k="place" v="farm" />
		<tag k="ssr:stedsnr" v="577567" />
	</node>
	<node id="-849026" lat="63.9642416629" lon="10.2221583232">
		<tag k="amenity" v="sports_centre" />
		<tag k="name" v="Åfjordshallen" />
		<tag k="ssr:stedsnr" v="483736" />
	</node>
	<node id="-847723" lat="64.04804167" lon="10.020816657">
		<tag k="fixme" v="consider place=suburb, village or hamlet" />
		<tag k="name" v="Brenna" />
		<tag k="place" v="quarter" />
		<tag k="ssr:stedsnr" v="274153" />
	</node>
	<node id="-849024" lat="63.9279555583" lon="10.4078916603">
		<tag k="name" v="Ekornberget" />
		<tag k="place" v="farm" />
		<tag k="ssr:stedsnr" v="698899" />
	</node>
	<node id="-849023" lat="63.8411214806" lon="10.4599986301">
		<tag k="name" v="Lysvatnet" />
		<tag k="place" v="farm" />
		<tag k="ssr:stedsnr" v="545143" />
	</node>
	<node id="-849020" lat="63.8405255705" lon="10.4599677489">
		<tag k="fixme" v="consider place=hamlet" />
		<tag k="name" v="Lysvatnet" />
		<tag k="place" v="farm" />
		<tag k="ssr:stedsnr" v="498525" />
	</node>
	<node id="-849016" lat="64.0245310358" lon="9.87451344358">
		<tag k="name" v="Stemma" />
		<tag k="place" v="locality" />
		<tag k="ssr:stedsnr" v="864105" />
	</node>
	<node id="-849015" lat="63.9089395364" lon="9.97318682514">
		<tag k="name" v="Selnes" />
		<tag k="place" v="farm" />
		<tag k="ssr:stedsnr" v="667237" />
	</node>
	<node id="-846966" lat="64.0078222264" lon="10.0199777871">
		<tag k="name" v="Hermann" />
		<tag k="place" v="farm" />
		<tag k="ssr:stedsnr" v="637760" />
	</node>
	<node id="-846960" lat="63.9250499959" lon="9.91996944617">
		<tag k="name" v="Haugset" />
		<tag k="place" v="farm" />
		<tag k="ssr:stedsnr" v="213218" />
	</node>
	<node id="-846959" lat="64.1088555572" lon="10.5366305574">
		<tag k="name" v="Rørskogen" />
		<tag k="place" v="farm" />
		<tag k="ssr:stedsnr" v="499278" />
	</node>
	<node id="-846955" lat="63.9723249993" lon="10.2744777686">
		<tag k="alt_name" v="Vasstrand;Vasstrand, østre" />
		<tag k="name" v="Østre Vasstrand" />
		<tag k="place" v="farm" />
		<tag k="ssr:stedsnr" v="924115" />
	</node>
	<node id="-846953" lat="64.0151999966" lon="10.0189222132">
		<tag k="name" v="Asvika" />
		<tag k="place" v="isolated_dwelling" />
		<tag k="ssr:stedsnr" v="560055" />
	</node>
	<node id="-846949" lat="63.9108916677" lon="9.96843332403">
		<tag k="name" v="Nordgården" />
		<tag k="place" v="farm" />
		<tag k="ssr:stedsnr" v="395022" />
	</node>
	<node id="-848995" lat="63.9727277757" lon="10.2313416701">
		<tag k="name" v="Kleivan" />
		<tag k="place" v="farm" />
		<tag k="ssr:stedsnr" v="213751" />
	</node>
	<node id="-848992" lat="63.9723138866" lon="10.1506611078">
		<tag k="name" v="Haugen" />
		<tag k="place" v="farm" />
		<tag k="ssr:stedsnr" v="395610" />
	</node>
	<node id="-848991" lat="64.0643723019" lon="10.0178153188">
		<tag k="alt_name" v="Sundet" />
		<tag k="name" v="Sundgården" />
		<tag k="place" v="farm" />
		<tag k="ssr:stedsnr" v="499098" />
	</node>
	<node id="-848990" lat="63.8990791465" lon="10.043010276">
		<tag k="fixme" v="consider place=hamlet" />
		<tag k="name" v="Kammen" />
		<tag k="place" v="farm" />
		<tag k="ssr:stedsnr" v="438583" />
	</node>
	<node id="-848050" lat="64.0785666642" lon="10.4353000043">
		<tag k="name" v="Lauvli" />
		<tag k="place" v="farm" />
		<tag k="ssr:stedsnr" v="924270" />
	</node>
	<node id="-848399" lat="64.0699694461" lon="9.94653888857">
		<tag k="name" v="Vadtjørnvika" />
		<tag k="place" v="farm" />
		<tag k="ssr:stedsnr" v="456770" />
	</node>
	<node id="-848983" lat="64.0175444403" lon="10.0101027765">
		<tag k="name" v="Langstranda" />
		<tag k="place" v="farm" />
		<tag k="ssr:stedsnr" v="516854" />
	</node>
	<node id="-847033" lat="63.9839565638" lon="10.3682522217">
		<tag k="fixme" v="consider place=hamlet" />
		<tag k="name" v="Naustan" />
		<tag k="place" v="farm" />
		<tag k="ssr:stedsnr" v="620156" />
	</node>
	<node id="-848972" lat="64.0103444489" lon="10.0108583261">
		<tag k="name" v="Skipparvika" />
		<tag k="place" v="farm" />
		<tag k="ssr:stedsnr" v="759832" />
	</node>
	<node id="-848970" lat="63.9497750032" lon="10.0951611144">
		<tag k="name" v="Kjerkstøa" />
		<tag k="place" v="isolated_dwelling" />
		<tag k="ssr:stedsnr" v="395592" />
	</node>
	<node id="-848969" lat="63.9780120547" lon="10.6620443461">
		<tag k="loc_name" v="Bårdlia" />
		<tag k="name" v="Bårdli" />
		<tag k="place" v="farm" />
		<tag k="ssr:stedsnr" v="450491" />
	</node>
	<node id="-846919" lat="64.0477861144" lon="10.0801027878">
		<tag k="name" v="Salbuvika" />
		<tag k="place" v="farm" />
		<tag k="ssr:stedsnr" v="181095" />
	</node>
	<node id="-848960" lat="64.0624694432" lon="9.95921112109">
		<tag k="alt_name" v="Nygården" />
		<tag k="name" v="Nygård" />
		<tag k="place" v="farm" />
		<tag k="ssr:stedsnr" v="499091" />
	</node>
	<node id="-846903" lat="64.0202583378" lon="10.0113027818">
		<tag k="name" v="Steinvika" />
		<tag k="place" v="farm" />
		<tag k="ssr:stedsnr" v="941836" />
	</node>
	<node id="-846902" lat="64.0452458527" lon="10.0083450479">
		<tag k="fixme" v="consider place=hamlet" />
		<tag k="name" v="Harsvika" />
		<tag k="place" v="farm" />
		<tag k="ssr:stedsnr" v="303087" />
	</node>
	<node id="-848948" lat="64.0225861092" lon="10.6372055573">
		<tag k="historic" v="shieling" />
		<tag k="name" v="Leirdalsseteren" />
		<tag k="place" v="locality" />
		<tag k="ssr:stedsnr" v="134726" />
	</node>
	<node id="-846896" lat="63.9148111102" lon="9.99978888894">
		<tag k="name" v="Leirvoll" />
		<tag k="place" v="farm" />
		<tag k="ssr:stedsnr" v="759299" />
	</node>
	<node id="-848941" lat="63.9288416645" lon="10.16675278">
		<tag k="name" v="Smølhaugen" />
		<tag k="place" v="isolated_dwelling" />
		<tag k="ssr:stedsnr" v="273545" />
	</node>
	<node id="-846892" lat="63.9687846339" lon="10.2650964439">
		<tag k="fixme" v="consider place=hamlet" />
		<tag k="name" v="Vasstrand" />
		<tag k="place" v="farm" />
		<tag k="ssr:stedsnr" v="849176" />
	</node>
	<node id="-848939" lat="63.9695694416" lon="10.2201638802">
		<tag k="name" v="Prestegårdshaugen boligfelt" />
		<tag k="place" v="quarter" />
		<tag k="ssr:stedsnr" v="163019" />
	</node>
	<node id="-846890" lat="63.9331083334" lon="9.91905000175">
		<tag k="name" v="Føya" />
		<tag k="place" v="farm" />
		<tag k="ssr:stedsnr" v="803537" />
	</node>
	<node id="-848931" lat="63.9264583345" lon="10.2959083305">
		<tag k="name" v="Osa" />
		<tag k="place" v="farm" />
		<tag k="ssr:stedsnr" v="316397" />
	</node>
	<node id="-848929" lat="63.9974361139" lon="10.4773888885">
		<tag k="alt_name" v="Årbogen" />
		<tag k="fixme" v="consider place=hamlet" />
		<tag k="name" v="Årboan" />
		<tag k="place" v="farm" />
		<tag k="ssr:stedsnr" v="577543" />
	</node>
	<node id="-846880" lat="63.9169194414" lon="10.4345722189">
		<tag k="name" v="Nytun" />
		<tag k="place" v="farm" />
		<tag k="ssr:stedsnr" v="637877" />
	</node>
	<node id="-846878" lat="63.974769442" lon="9.98795278166">
		<tag k="name" v="Litl-Bårdvika" />
		<tag k="place" v="locality" />
		<tag k="ssr:stedsnr" v="637065" />
	</node>
	<node id="-846877" lat="63.9324194423" lon="10.0167722249">
		<tag k="name" v="Sandstad" />
		<tag k="place" v="farm" />
		<tag k="ssr:stedsnr" v="378556" />
	</node>
	<node id="-846872" lat="63.9383944454" lon="10.0411444457">
		<tag k="fixme" v="consider place=hamlet" />
		<tag k="name" v="Grimstad" />
		<tag k="place" v="farm" />
		<tag k="ssr:stedsnr" v="378557" />
	</node>
	<node id="-846871" lat="63.9320427868" lon="10.3855108845">
		<tag k="name" v="Karlaunet" />
		<tag k="place" v="farm" />
		<tag k="ssr:stedsnr" v="161286" />
	</node>
	<node id="-846870" lat="63.9745972195" lon="9.99132499054">
		<tag k="name" v="Sandvika" />
		<tag k="place" v="locality" />
		<tag k="ssr:stedsnr" v="637063" />
	</node>
	<node id="-848906" lat="63.9276527749" lon="9.93850554675">
		<tag k="name" v="Lauvøya" />
		<tag k="place" v="farm" />
		<tag k="ssr:stedsnr" v="31302" />
	</node>
	<node id="-847703" lat="63.9293111145" lon="10.0147472325">
		<tag k="name" v="Nord-Eidem" />
		<tag k="place" v="farm" />
		<tag k="ssr:stedsnr" v="941220" />
	</node>
	<node id="-846855" lat="63.9605916684" lon="10.1792083377">
		<tag k="name" v="Monstad" />
		<tag k="place" v="farm" />
		<tag k="ssr:stedsnr" v="970340" />
	</node>
	<node id="-847361" lat="64.0885527755" lon="10.5025472284">
		<tag k="fixme" v="consider place=hamlet" />
		<tag k="name" v="Momyr" />
		<tag k="place" v="farm" />
		<tag k="ssr:stedsnr" v="464334" />
	</node>
	<node id="-846850" lat="63.9340083311" lon="10.0281694427">
		<tag k="name" v="Fagerheim" />
		<tag k="place" v="isolated_dwelling" />
		<tag k="ssr:stedsnr" v="256495" />
	</node>
	<node id="-848897" lat="63.9633750024" lon="10.197155564">
		<tag k="name" v="Joenget" />
		<tag k="place" v="farm" />
		<tag k="ssr:stedsnr" v="152316" />
	</node>
	<node id="-848895" lat="63.9883944481" lon="10.1706833385">
		<tag k="name" v="Dolmsetaunet" />
		<tag k="place" v="farm" />
		<tag k="ssr:stedsnr" v="134722" />
	</node>
	<node id="-848893" lat="63.9914286571" lon="10.1700104707">
		<tag k="fixme" v="consider place=hamlet" />
		<tag k="name" v="Dolmset" />
		<tag k="place" v="farm" />
		<tag k="ssr:stedsnr" v="134721" />
	</node>
	<node id="-848890" lat="63.9250279619" lon="10.4092465855">
		<tag k="fixme" v="consider place=hamlet" />
		<tag k="name" v="Morrvollen" />
		<tag k="place" v="farm" />
		<tag k="ssr:stedsnr" v="316400" />
	</node>
	<node id="-848885" lat="63.7814444466" lon="10.459061109">
		<tag k="historic" v="shieling" />
		<tag k="name" v="Ørsjødalsseteren" />
		<tag k="place" v="locality" />
		<tag k="ssr:stedsnr" v="924402" />
	</node>
	<node id="-846834" lat="63.9682555594" lon="9.97219999447">
		<tag k="name" v="Haugen" />
		<tag k="place" v="farm" />
		<tag k="ssr:stedsnr" v="395008" />
	</node>
	<node id="-848881" lat="63.9562500018" lon="10.1645222203">
		<tag k="name" v="Strandaunet" />
		<tag k="place" v="farm" />
		<tag k="ssr:stedsnr" v="863566" />
	</node>
	<node id="-848878" lat="64.0390944484" lon="10.0821277762">
		<tag k="name" v="Einbakkan" />
		<tag k="place" v="farm" />
		<tag k="ssr:stedsnr" v="456872" />
	</node>
	<node id="-846829" lat="64.0423722199" lon="10.0767305465">
		<tag k="alt_name" v="Lian øvre" />
		<tag k="name" v="Øvre Lian" />
		<tag k="place" v="farm" />
		<tag k="ssr:stedsnr" v="820872" />
	</node>
	<node id="-846828" lat="63.9863972263" lon="10.13836944">
		<tag k="name" v="Langdalen" />
		<tag k="place" v="isolated_dwelling" />
		<tag k="ssr:stedsnr" v="620685" />
	</node>
	<node id="-848874" lat="63.9996722267" lon="10.4859138792">
		<tag k="name" v="Grønnbakken" />
		<tag k="place" v="farm" />
		<tag k="ssr:stedsnr" v="273530" />
	</node>
	<node id="-846821" lat="64.0563666676" lon="10.1432944494">
		<tag k="name" v="Nordbotnet" />
		<tag k="place" v="farm" />
		<tag k="ssr:stedsnr" v="924124" />
	</node>
	<node id="-848867" lat="63.9741388907" lon="10.3843083306">
		<tag k="name" v="Uggdalen" />
		<tag k="place" v="farm" />
		<tag k="ssr:stedsnr" v="425158" />
	</node>
	<node id="-848862" lat="64.0198379333" lon="10.5219768711">
		<tag k="name" v="Skjern" />
		<tag k="place" v="farm" />
		<tag k="ssr:stedsnr" v="870932" />
	</node>
	<node id="-846812" lat="64.0203055518" lon="10.0152694422">
		<tag k="name" v="Haugen" />
		<tag k="place" v="farm" />
		<tag k="ssr:stedsnr" v="274807" />
	</node>
	<node id="-848859" lat="63.9971944487" lon="10.2206249971">
		<tag k="name" v="Myra" />
		<tag k="place" v="farm" />
		<tag k="ssr:stedsnr" v="698067" />
	</node>
	<node id="-846801" lat="64.1132000019" lon="9.96407778306">
		<tag k="fixme" v="consider place=hamlet" />
		<tag k="loc_name" v="Gjæsinga" />
		<tag k="name" v="Gjesingen" />
		<tag k="place" v="farm" />
		<tag k="ssr:stedsnr" v="60057" />
	</node>
	<node id="-848845" lat="64.0135333376" lon="10.047397216">
		<tag k="name" v="Herfjorden boligfelt" />
		<tag k="place" v="quarter" />
		<tag k="ssr:stedsnr" v="102029" />
	</node>
	<node id="-848840" lat="64.0414055582" lon="10.0713277849">
		<tag k="alt_name" v="Lian nedre" />
		<tag k="name" v="Nedre Lian" />
		<tag k="place" v="farm" />
		<tag k="ssr:stedsnr" v="698883" />
	</node>
	<node id="-848837" lat="63.9946277773" lon="9.99491110385">
		<tag k="name" v="Bryggvika" />
		<tag k="place" v="locality" />
		<tag k="ssr:stedsnr" v="456860" />
	</node>
	<node id="-848835" lat="64.0060499968" lon="10.3338527824">
		<tag k="name" v="Stokkslættmyra" />
		<tag k="place" v="farm" />
		<tag k="ssr:stedsnr" v="681733" />
	</node>
	<node id="-848830" lat="64.0390666653" lon="10.0621777844">
		<tag k="name" v="Aquarius brygge" />
		<tag k="ssr:stedsnr" v="59723" />
		<tag k="tourism" v="guest_house" />
	</node>
	<node id="-848828" lat="63.9801138913" lon="10.3038055636">
		<tag k="name" v="Moen" />
		<tag k="place" v="farm" />
		<tag k="ssr:stedsnr" v="802180" />
	</node>
	<node id="-846775" lat="63.9675333301" lon="9.99025000891">
		<tag k="fixme" v="consider place=hamlet" />
		<tag k="name" v="Tørhogg" />
		<tag k="place" v="farm" />
		<tag k="ssr:stedsnr" v="279912" />
	</node>
	<node id="-848821" lat="64.0540638912" lon="9.95210000578">
		<tag k="name" v="Stokkøya sjøsenter" />
		<tag k="ssr:stedsnr" v="59724" />
		<tag k="tourism" v="guest_house" />
	</node>
	<node id="-846770" lat="64.0050388928" lon="10.0255250075">
		<tag k="name" v="Herfjord" />
		<tag k="place" v="hamlet" />
		<tag k="ssr:stedsnr" v="213201" />
	</node>
	<node id="-848816" lat="63.9837836022" lon="10.3166842351">
		<tag k="name" v="Bølsmarka" />
		<tag k="place" v="farm" />
		<tag k="ssr:stedsnr" v="425145" />
	</node>
	<node id="-848811" lat="63.9197833361" lon="10.4091527865">
		<tag k="fixme" v="consider place=hamlet" />
		<tag k="name" v="Breivollen" />
		<tag k="place" v="farm" />
		<tag k="ssr:stedsnr" v="741405" />
	</node>
	<node id="-848809" lat="63.9523530893" lon="10.211732917">
		<tag k="fixme" v="consider place=hamlet" />
		<tag k="name" v="Rotnes" />
		<tag k="place" v="farm" />
		<tag k="ssr:stedsnr" v="516697" />
	</node>
	<node id="-848797" lat="64.1034750003" lon="10.5296861154">
		<tag k="name" v="Seterlia" />
		<tag k="place" v="farm" />
		<tag k="ssr:stedsnr" v="560340" />
	</node>
	<node id="-848794" lat="63.9488750033" lon="10.10231388">
		<tag k="name" v="Dragseid" />
		<tag k="place" v="farm" />
		<tag k="ssr:stedsnr" v="814031" />
	</node>
	<node id="-848789" lat="63.9387916697" lon="10.0386333265">
		<tag k="name" v="Grimstad" />
		<tag k="place" v="farm" />
		<tag k="ssr:stedsnr" v="91242" />
	</node>
	<node id="-848785" lat="63.9696194452" lon="10.068119435">
		<tag k="name" v="Morkamoen" />
		<tag k="place" v="farm" />
		<tag k="ssr:stedsnr" v="134705" />
	</node>
	<node id="-848783" lat="63.9436944439" lon="10.0554833354">
		<tag k="name" v="Åkerneset v." />
		<tag k="place" v="farm" />
		<tag k="ssr:stedsnr" v="91248" />
	</node>
	<node id="-848779" lat="63.9626944474" lon="10.2228638818">
		<tag k="alt_name" v="Åset" />
		<tag k="amenity" v="school" />
		<tag k="name" v="Åset skole" />
		<tag k="ssr:stedsnr" v="759690" />
	</node>
	<node id="-848769" lat="64.0394694463" lon="10.0724722221">
		<tag k="name" v="Blindvågen" />
		<tag k="place" v="hamlet" />
		<tag k="ssr:stedsnr" v="545085" />
	</node>
	<node id="-848768" lat="63.9930611137" lon="10.4346944518">
		<tag k="name" v="Hårstadlia" />
		<tag k="place" v="farm" />
		<tag k="ssr:stedsnr" v="377145" />
	</node>
	<node id="-848763" lat="63.9790972183" lon="10.2501444514">
		<tag k="name" v="Mikkelmoen" />
		<tag k="place" v="farm" />
		<tag k="ssr:stedsnr" v="802188" />
	</node>
	<node id="-848761" lat="63.987950002" lon="10.3852944521">
		<tag k="name" v="Myrvang" />
		<tag k="place" v="farm" />
		<tag k="ssr:stedsnr" v="256165" />
	</node>
	<node id="-848760" lat="63.9833999147" lon="10.314381241">
		<tag k="fixme" v="consider place=hamlet" />
		<tag k="name" v="Bølsmarka" />
		<tag k="place" v="farm" />
		<tag k="ssr:stedsnr" v="256166" />
	</node>
	<node id="-848758" lat="63.9740416708" lon="9.98074444171">
		<tag k="name" v="Kvalneset" />
		<tag k="place" v="farm" />
		<tag k="ssr:stedsnr" v="698042" />
	</node>
	<node id="-848755" lat="63.9241694449" lon="10.4103722268">
		<tag k="name" v="Morrvollen" />
		<tag k="place" v="hamlet" />
		<tag k="ssr:stedsnr" v="667213" />
	</node>
	<node id="-848752" lat="63.9622666706" lon="9.97031944222">
		<tag k="name" v="Nygård" />
		<tag k="place" v="farm" />
		<tag k="ssr:stedsnr" v="558727" />
	</node>
	<node id="-848745" lat="63.923774998" lon="10.0475750018">
		<tag k="alt_name" v="Sjøgården" />
		<tag k="name" v="Sjøgård" />
		<tag k="place" v="farm" />
		<tag k="ssr:stedsnr" v="195548" />
	</node>
	<node id="-848744" lat="63.9830194445" lon="10.1760361121">
		<tag k="name" v="Einset" />
		<tag k="place" v="farm" />
		<tag k="ssr:stedsnr" v="802753" />
	</node>
	<node id="-848739" lat="63.9746611092" lon="10.1610611017">
		<tag k="name" v="Humstad" />
		<tag k="place" v="farm" />
		<tag k="ssr:stedsnr" v="802752" />
	</node>
	<node id="-846814" lat="63.979475003" lon="10.1068722123">
		<tag k="name" v="Gløtten" />
		<tag k="place" v="farm" />
		<tag k="ssr:stedsnr" v="273111" />
	</node>
	<node id="-848732" lat="63.9808447574" lon="10.1137032063">
		<tag k="fixme" v="consider place=hamlet" />
		<tag k="name" v="Kvenndalen" />
		<tag k="place" v="farm" />
		<tag k="ssr:stedsnr" v="134734" />
	</node>
	<node id="-848729" lat="63.976018665" lon="10.0938626648">
		<tag k="name" v="Morka" />
		<tag k="place" v="farm" />
		<tag k="ssr:stedsnr" v="134733" />
	</node>
	<node id="-848726" lat="64.0561999996" lon="9.94864165776">
		<tag k="name" v="Sjåberget hyttefelt" />
		<tag k="place" v="neighbourhood" />
		<tag k="ssr:stedsnr" v="163032" />
	</node>
	<node id="-850772" lat="63.8531619063" lon="10.3718272619">
		<tag k="historic" v="shieling" />
		<tag k="name" v="Plogbakksetra" />
		<tag k="place" v="locality" />
		<tag k="ssr:stedsnr" v="741329" />
	</node>
	<node id="-848723" lat="63.9081944422" lon="9.96687776821">
		<tag k="name" v="Nymoen" />
		<tag k="place" v="farm" />
		<tag k="ssr:stedsnr" v="456024" />
	</node>
	<node id="-848722" lat="63.9579694484" lon="10.4425361048">
		<tag k="name" v="Gildesseteren" />
		<tag k="place" v="isolated_dwelling" />
		<tag k="ssr:stedsnr" v="316404" />
	</node>
	<node id="-850769" lat="63.9901666664" lon="10.1715361134">
		<tag k="name" v="Dolmset" />
		<tag k="place" v="hamlet" />
		<tag k="ssr:stedsnr" v="213190" />
	</node>
	<node id="-848719" lat="64.042827779" lon="10.2316583436">
		<tag k="name" v="Grønlia" />
		<tag k="place" v="isolated_dwelling" />
		<tag k="ssr:stedsnr" v="14207" />
	</node>
	<node id="-848717" lat="63.9797277804" lon="10.4169833428">
		<tag k="name" v="Fagerheim" />
		<tag k="place" v="farm" />
		<tag k="ssr:stedsnr" v="759756" />
	</node>
	<node id="-848709" lat="63.8624666665" lon="10.2601222309">
		<tag k="historic" v="shieling" />
		<tag k="name" v="Juvasseteren" />
		<tag k="place" v="locality" />
		<tag k="ssr:stedsnr" v="634904" />
	</node>
	<node id="-848707" lat="63.8917333373" lon="10.2106333314">
		<tag k="historic" v="shieling" />
		<tag k="name" v="Finnsetseteren" />
		<tag k="place" v="locality" />
		<tag k="ssr:stedsnr" v="863584" />
	</node>
	<node id="-850754" lat="63.9791000006" lon="10.2999388945">
		<tag k="name" v="Sundhalsen" />
		<tag k="place" v="farm" />
		<tag k="ssr:stedsnr" v="317137" />
	</node>
	<node id="-850753" lat="64.0472611085" lon="10.4461250067">
		<tag k="fixme" v="consider place=hamlet" />
		<tag k="name" v="Børmarka" />
		<tag k="place" v="farm" />
		<tag k="ssr:stedsnr" v="439260" />
	</node>
	<node id="-848699" lat="63.985683333" lon="10.0019861089">
		<tag k="name" v="Hestvik" />
		<tag k="place" v="farm" />
		<tag k="ssr:stedsnr" v="31318" />
	</node>
	<node id="-850743" lat="63.9719194408" lon="10.1235833323">
		<tag k="name" v="Selset" />
		<tag k="old_name" v="Mo" />
		<tag k="place" v="farm" />
		<tag k="ssr:stedsnr" v="73689" />
	</node>
	<node id="-848694" lat="64.0400388876" lon="9.98409721418">
		<tag k="name" v="Guttelvika" />
		<tag k="place" v="hamlet" />
		<tag k="ssr:stedsnr" v="363048" />
	</node>
	<node id="-850740" lat="63.9748555567" lon="10.0865555626">
		<tag k="name" v="Morka" />
		<tag k="place" v="farm" />
		<tag k="ssr:stedsnr" v="880098" />
	</node>
	<node id="-850737" lat="63.9562518884" lon="9.96677783049">
		<tag k="name" v="Tårnes" />
		<tag k="place" v="farm" />
		<tag k="ssr:stedsnr" v="849806" />
	</node>
	<node id="-848686" lat="64.0591416626" lon="9.95358333236">
		<tag k="fixme" v="consider place=hamlet" />
		<tag k="name" v="Svenningen" />
		<tag k="place" v="farm" />
		<tag k="ssr:stedsnr" v="134159" />
	</node>
	<node id="-848677" lat="63.9621388886" lon="10.2202083333">
		<tag k="name" v="Solbakkan boligfelt" />
		<tag k="place" v="quarter" />
		<tag k="ssr:stedsnr" v="952127" />
	</node>
	<node id="-848676" lat="63.9454944468" lon="10.2216416569">
		<tag k="name" v="Svalan" />
		<tag k="place" v="farm" />
		<tag k="ssr:stedsnr" v="516677" />
	</node>
	<node id="-850723" lat="63.9619583297" lon="10.2258750026">
		<tag k="building" v="commercial" />
		<tag k="name" v="Åfjord rådhus" />
		<tag k="ssr:stedsnr" v="847709" />
	</node>
	<node id="-848673" lat="63.962827775" lon="10.2462916619">
		<tag k="historic" v="shieling" />
		<tag k="name" v="Bergseteren" />
		<tag k="place" v="locality" />
		<tag k="ssr:stedsnr" v="516678" />
	</node>
	<node id="-850718" lat="64.0126277782" lon="10.0287527783">
		<tag k="name" v="Lauvåsvika" />
		<tag k="place" v="farm" />
		<tag k="ssr:stedsnr" v="395862" />
	</node>
	<node id="-848667" lat="64.0081472185" lon="10.4991861171">
		<tag k="alt_name" v="Forfot, nedre" />
		<tag k="name" v="Nedre Forfot" />
		<tag k="place" v="farm" />
		<tag k="ssr:stedsnr" v="256694" />
	</node>
	<node id="-848666" lat="63.9654805597" lon="10.2156777852">
		<tag k="building" v="commercial" />
		<tag k="name" v="Åmyra butikksenter" />
		<tag k="ssr:stedsnr" v="59691" />
	</node>
	<node id="-850705" lat="64.0465722229" lon="10.478922228">
		<tag k="historic" v="shieling" />
		<tag k="name" v="Dyrskardseteren" />
		<tag k="place" v="locality" />
		<tag k="ssr:stedsnr" v="75278" />
	</node>
	<node id="-848652" lat="63.9449305515" lon="10.1224194484">
		<tag k="name" v="Kråkneset" />
		<tag k="place" v="farm" />
		<tag k="ssr:stedsnr" v="576623" />
	</node>
	<node id="-846978" lat="64.0928500031" lon="10.4297361037">
		<tag k="historic" v="shieling" />
		<tag k="name" v="Momyrseteren" />
		<tag k="place" v="locality" />
		<tag k="ssr:stedsnr" v="864363" />
	</node>
	<node id="-848649" lat="63.9815111071" lon="10.113836108">
		<tag k="name" v="Kvenndalen" />
		<tag k="place" v="farm" />
		<tag k="ssr:stedsnr" v="545742" />
	</node>
	<node id="-850691" lat="63.9151888867" lon="9.99633610171">
		<tag k="fixme" v="consider place=hamlet" />
		<tag k="name" v="Øyan" />
		<tag k="place" v="farm" />
		<tag k="ssr:stedsnr" v="941005" />
	</node>
	<node id="-848640" lat="63.9992710983" lon="10.2057645964">
		<tag k="fixme" v="consider place=hamlet" />
		<tag k="name" v="Grytan" />
		<tag k="place" v="farm" />
		<tag k="ssr:stedsnr" v="256689" />
	</node>
	<node id="-850686" lat="63.9133228288" lon="10.253466431">
		<tag k="name" v="Øver Mørriaunet" />
		<tag k="old_name" v="Øver Møriaunet" />
		<tag k="place" v="farm" />
		<tag k="ssr:stedsnr" v="31659" />
	</node>
	<node id="-850683" lat="63.9892698538" lon="10.4596728749">
		<tag k="fixme" v="consider place=hamlet" />
		<tag k="name" v="Rømma" />
		<tag k="place" v="farm" />
		<tag k="ssr:stedsnr" v="317127" />
	</node>
	<node id="-848630" lat="63.9122500011" lon="9.97043610277">
		<tag k="name" v="Gullvika" />
		<tag k="place" v="farm" />
		<tag k="ssr:stedsnr" v="698012" />
	</node>
	<node id="-850676" lat="64.0634111147" lon="9.9531750001">
		<tag k="name" v="Storsteinmyra" />
		<tag k="place" v="farm" />
		<tag k="ssr:stedsnr" v="941776" />
	</node>
	<node id="-850673" lat="64.0503305599" lon="9.88815834229">
		<tag k="name" v="Laksbua" />
		<tag k="place" v="locality" />
		<tag k="ssr:stedsnr" v="395837" />
	</node>
	<node id="-850671" lat="64.0646548993" lon="10.6707773059">
		<tag k="historic" v="shieling" />
		<tag k="name" v="Skurvseteren" />
		<tag k="old_name" v="Skorvseteren" />
		<tag k="place" v="locality" />
		<tag k="ssr:stedsnr" v="196257" />
	</node>
	<node id="-850669" lat="63.9996666643" lon="9.89555555702">
		<tag k="name" v="Vågen" />
		<tag k="place" v="farm" />
		<tag k="ssr:stedsnr" v="438716" />
	</node>
	<node id="-847314" lat="63.959261112" lon="10.2241666749">
		<tag k="name" v="Fosen fjordhotell" />
		<tag k="ssr:stedsnr" v="787736" />
		<tag k="tourism" v="hotel" />
	</node>
	<node id="-848618" lat="64.0006499998" lon="10.3180972304">
		<tag k="fixme" v="consider place=hamlet" />
		<tag k="name" v="Mølsletta" />
		<tag k="place" v="farm" />
		<tag k="ssr:stedsnr" v="14683" />
	</node>
	<node id="-848605" lat="63.9680611093" lon="10.2299222312">
		<tag k="name" v="Elvebakk" />
		<tag k="place" v="farm" />
		<tag k="ssr:stedsnr" v="256137" />
	</node>
	<node id="-850652" lat="63.9592055566" lon="10.2284499913">
		<tag k="alt_name" v="Melan ø." />
		<tag k="name" v="Melan" />
		<tag k="place" v="farm" />
		<tag k="ssr:stedsnr" v="802417" />
	</node>
	<node id="-848602" lat="63.9211805552" lon="9.93075833287">
		<tag k="name" v="Rabben" />
		<tag k="place" v="farm" />
		<tag k="ssr:stedsnr" v="91198" />
	</node>
	<node id="-850645" lat="63.9271638867" lon="10.117488885">
		<tag k="name" v="Vorpbukta" />
		<tag k="place" v="farm" />
		<tag k="ssr:stedsnr" v="559503" />
	</node>
	<node id="-848596" lat="63.9609694408" lon="10.1720972133">
		<tag k="name" v="Nordheim" />
		<tag k="place" v="locality" />
		<tag k="ssr:stedsnr" v="334595" />
	</node>
	<node id="-848675" lat="63.9635777767" lon="10.2241722132">
		<tag k="leisure" v="pitch" />
		<tag k="name" v="Åset kunstgressbane" />
		<tag k="ssr:stedsnr" v="59689" />
	</node>
	<node id="-848591" lat="63.997322223" lon="10.4761972124">
		<tag k="name" v="Årbogen" />
		<tag k="place" v="farm" />
		<tag k="ssr:stedsnr" v="14142" />
	</node>
	<node id="-848589" lat="64.0478291589" lon="10.0142431949">
		<tag k="fixme" v="consider place=hamlet" />
		<tag k="name" v="Harsvika" />
		<tag k="place" v="village" />
		<tag k="ssr:stedsnr" v="256140" />
	</node>
	<node id="-850634" lat="64.0717055536" lon="10.4430861152">
		<tag k="name" v="Seterlia" />
		<tag k="place" v="farm" />
		<tag k="ssr:stedsnr" v="196274" />
	</node>
	<node id="-848585" lat="63.9433750016" lon="10.1116055485">
		<tag k="name" v="Kopparneset" />
		<tag k="place" v="farm" />
		<tag k="ssr:stedsnr" v="439515" />
	</node>
	<node id="-850625" lat="64.0842223179" lon="10.5021873099">
		<tag k="fixme" v="consider place=hamlet" />
		<tag k="name" v="Butli" />
		<tag k="place" v="farm" />
		<tag k="ssr:stedsnr" v="849158" />
	</node>
	<node id="-848570" lat="63.9451937724" lon="10.0724556848">
		<tag k="fixme" v="consider place=hamlet" />
		<tag k="name" v="Eid" />
		<tag k="place" v="farm" />
		<tag k="ssr:stedsnr" v="439520" />
	</node>
	<node id="-847305" lat="63.9192277817" lon="9.98088611746">
		<tag k="name" v="Barøyskardet" />
		<tag k="place" v="isolated_dwelling" />
		<tag k="ssr:stedsnr" v="334307" />
	</node>
	<node id="-848560" lat="64.0055694465" lon="9.93208610632">
		<tag k="name" v="Lines" />
		<tag k="place" v="farm" />
		<tag k="ssr:stedsnr" v="405333" />
	</node>
	<node id="-848556" lat="63.9559698317" lon="9.96686590901">
		<tag k="fixme" v="consider place=hamlet" />
		<tag k="name" v="Tårnes" />
		<tag k="place" v="farm" />
		<tag k="ssr:stedsnr" v="196519" />
	</node>
	<node id="-850603" lat="63.9784861089" lon="10.4099000022">
		<tag k="name" v="Fagergård" />
		<tag k="place" v="farm" />
		<tag k="ssr:stedsnr" v="924105" />
	</node>
	<node id="-848553" lat="64.0591305585" lon="9.94159721248">
		<tag k="name" v="Troningen" />
		<tag k="place" v="farm" />
		<tag k="ssr:stedsnr" v="256129" />
	</node>
	<node id="-850600" lat="63.9660861094" lon="9.97353611937">
		<tag k="name" v="Storvika" />
		<tag k="place" v="farm" />
		<tag k="ssr:stedsnr" v="498730" />
	</node>
	<node id="-850598" lat="64.0557083313" lon="10.4442861119">
		<tag k="name" v="Austerås" />
		<tag k="place" v="farm" />
		<tag k="ssr:stedsnr" v="196268" />
	</node>
	<node id="-850593" lat="64.0648833362" lon="10.0394888991">
		<tag k="name" v="Nygården" />
		<tag k="place" v="isolated_dwelling" />
		<tag k="ssr:stedsnr" v="924106" />
	</node>
	<node id="-848543" lat="64.0373333362" lon="10.0488638901">
		<tag k="fixme" v="consider place=hamlet" />
		<tag k="name" v="Revsnes" />
		<tag k="place" v="farm" />
		<tag k="ssr:stedsnr" v="159051" />
	</node>
	<node id="-848541" lat="63.9804027744" lon="10.1166916724">
		<tag k="fixme" v="consider place=hamlet" />
		<tag k="name" v="Kvenndal" />
		<tag k="place" v="village" />
		<tag k="ssr:stedsnr" v="881325" />
	</node>
	<node id="-850585" lat="64.0216412308" lon="10.5241376689">
		<tag k="name" v="Skjern" />
		<tag k="place" v="farm" />
		<tag k="ssr:stedsnr" v="445941" />
	</node>
	<node id="-848533" lat="64.0570138918" lon="10.0415527834">
		<tag k="name" v="Skjærvika" />
		<tag k="place" v="farm" />
		<tag k="ssr:stedsnr" v="256124" />
	</node>
	<node id="-850579" lat="64.0215138865" lon="10.7552527864">
		<tag k="name" v="Kastbotnseteren" />
		<tag k="place" v="isolated_dwelling" />
		<tag k="ssr:stedsnr" v="681974" />
	</node>
	<node id="-850569" lat="63.9977166648" lon="10.4780166731">
		<tag k="name" v="Årboan" />
		<tag k="place" v="farm" />
		<tag k="ssr:stedsnr" v="970207" />
	</node>
	<node id="-850568" lat="63.9230527736" lon="9.93362500231">
		<tag k="name" v="Sundland" />
		<tag k="place" v="farm" />
		<tag k="ssr:stedsnr" v="559491" />
	</node>
	<node id="-850564" lat="63.9564333305" lon="10.3684666611">
		<tag k="historic" v="shieling" />
		<tag k="name" v="Uggdalsseteren" />
		<tag k="place" v="locality" />
		<tag k="ssr:stedsnr" v="134403" />
	</node>
	<node id="-848515" lat="63.9594083291" lon="10.1073611069">
		<tag k="name" v="Storvika" />
		<tag k="place" v="farm" />
		<tag k="ssr:stedsnr" v="256667" />
	</node>
	<node id="-850561" lat="63.9791083373" lon="10.3002055616">
		<tag k="name" v="Sandhalsan" />
		<tag k="place" v="farm" />
		<tag k="ssr:stedsnr" v="88282" />
	</node>
	<node id="-850558" lat="64.0620833342" lon="10.0206222141">
		<tag k="name" v="Øvermyra" />
		<tag k="place" v="farm" />
		<tag k="ssr:stedsnr" v="274753" />
	</node>
	<node id="-848506" lat="64.0624972214" lon="10.029133325">
		<tag k="name" v="Tømmervika" />
		<tag k="place" v="farm" />
		<tag k="ssr:stedsnr" v="802154" />
	</node>
	<node id="-850548" lat="64.0591527791" lon="10.3928805635">
		<tag k="historic" v="shieling" />
		<tag k="name" v="Bakkaseteren" />
		<tag k="place" v="locality" />
		<tag k="ssr:stedsnr" v="152656" />
	</node>
	<node id="-850546" lat="64.0386137065" lon="10.0617027935">
		<tag k="fixme" v="consider place=hamlet" />
		<tag k="name" v="Stoksund" />
		<tag k="place" v="village" />
		<tag k="ssr:stedsnr" v="620104" />
	</node>
	<node id="-850545" lat="64.0532654601" lon="10.0798732607">
		<tag k="fixme" v="consider place=hamlet" />
		<tag k="name" v="Høvika" />
		<tag k="place" v="farm" />
		<tag k="ssr:stedsnr" v="317131" />
	</node>
	<node id="-848494" lat="64.0959750031" lon="10.5156083349">
		<tag k="name" v="Momyra camping" />
		<tag k="ssr:stedsnr" v="665763" />
		<tag k="tourism" v="camp_site" />
	</node>
	<node id="-848493" lat="63.9675689569" lon="10.1167306927">
		<tag k="name" v="Strømslia" />
		<tag k="old_name" v="Straumslia" />
		<tag k="place" v="farm" />
		<tag k="ssr:stedsnr" v="941352" />
	</node>
	<node id="-848491" lat="64.022152757" lon="10.5235202075">
		<tag k="name" v="Skjern" />
		<tag k="place" v="farm" />
		<tag k="ssr:stedsnr" v="506928" />
	</node>
	<node id="-850538" lat="64.0400102651" lon="10.0716084343">
		<tag k="fixme" v="consider place=hamlet" />
		<tag k="name" v="Blindvågen" />
		<tag k="place" v="farm" />
		<tag k="ssr:stedsnr" v="924090" />
	</node>
	<node id="-848488" lat="63.9891333323" lon="10.4345777782">
		<tag k="name" v="Hårstad" />
		<tag k="place" v="farm" />
		<tag k="ssr:stedsnr" v="681143" />
	</node>
	<node id="-850533" lat="64.007763888" lon="10.175044442">
		<tag k="historic" v="shieling" />
		<tag k="name" v="Liaseteren" />
		<tag k="place" v="locality" />
		<tag k="ssr:stedsnr" v="334167" />
	</node>
	<node id="-846942" lat="64.053047505" lon="10.0794959183">
		<tag k="name" v="Høvika" />
		<tag k="place" v="farm" />
		<tag k="ssr:stedsnr" v="606089" />
	</node>
	<node id="-850527" lat="64.0828865531" lon="10.5016577201">
		<tag k="name" v="Butli" />
		<tag k="place" v="farm" />
		<tag k="ssr:stedsnr" v="91591" />
	</node>
	<node id="-848478" lat="63.958186115" lon="10.1850416752">
		<tag k="amenity" v="cafe" />
		<tag k="name" v="Saga" />
		<tag k="ssr:stedsnr" v="419347" />
	</node>
	<node id="-850518" lat="64.0116749962" lon="9.94641943554">
		<tag k="name" v="Moen" />
		<tag k="place" v="farm" />
		<tag k="ssr:stedsnr" v="820821" />
	</node>
	<node id="-850515" lat="64.004114579" lon="10.2254883687">
		<tag k="fixme" v="consider place=hamlet" />
		<tag k="name" v="Valleraunet" />
		<tag k="place" v="farm" />
		<tag k="ssr:stedsnr" v="317666" />
	</node>
	<node id="-848461" lat="63.9592833364" lon="10.1857416605">
		<tag k="name" v="Monstadsjøen" />
		<tag k="place" v="quarter" />
		<tag k="ssr:stedsnr" v="759613" />
	</node>
	<node id="-848459" lat="64.0418444442" lon="9.97705554923">
		<tag k="name" v="Rotvika" />
		<tag k="place" v="farm" />
		<tag k="ssr:stedsnr" v="681139" />
	</node>
	<node id="-850503" lat="63.9865750002" lon="10.3778083365">
		<tag k="name" v="Brandmoen" />
		<tag k="place" v="farm" />
		<tag k="ssr:stedsnr" v="941791" />
	</node>
	<node id="-848451" lat="63.9298555532" lon="9.94097221649">
		<tag k="name" v="Solstad" />
		<tag k="place" v="farm" />
		<tag k="ssr:stedsnr" v="881292" />
	</node>
	<node id="-850497" lat="63.9145194441" lon="10.4306611119">
		<tag k="name" v="Vinnaplassen" />
		<tag k="place" v="farm" />
		<tag k="ssr:stedsnr" v="376332" />
	</node>
	<node id="-848441" lat="63.9568888906" lon="10.4994249984">
		<tag k="name" v="Slættet" />
		<tag k="place" v="farm" />
		<tag k="ssr:stedsnr" v="437368" />
	</node>
	<node id="-850488" lat="63.9614611114" lon="10.1113083384">
		<tag k="name" v="Moldbakkan" />
		<tag k="place" v="farm" />
		<tag k="ssr:stedsnr" v="31623" />
	</node>
	<node id="-848438" lat="64.0467750001" lon="10.0806555608">
		<tag k="fixme" v="consider place=hamlet" />
		<tag k="name" v="Salbuvika" />
		<tag k="place" v="farm" />
		<tag k="ssr:stedsnr" v="377092" />
	</node>
	<node id="-848435" lat="63.9551948173" lon="10.2239765236">
		<tag k="fixme" v="consider place=hamlet" />
		<tag k="name" v="Melan" />
		<tag k="place" v="farm" />
		<tag k="ssr:stedsnr" v="560810" />
	</node>
	<node id="-850478" lat="64.0541222208" lon="10.0802666673">
		<tag k="name" v="Bakkan" />
		<tag k="place" v="farm" />
		<tag k="ssr:stedsnr" v="334990" />
	</node>
	<node id="-848306" lat="63.9275916661" lon="10.3649999898">
		<tag k="name" v="Myrvoll" />
		<tag k="place" v="farm" />
		<tag k="ssr:stedsnr" v="437355" />
	</node>
	<node id="-848425" lat="63.9811027772" lon="10.4085805651">
		<tag k="name" v="Tonnomhaugen boligfelt" />
		<tag k="place" v="quarter" />
		<tag k="ssr:stedsnr" v="950628" />
	</node>
	<node id="-848421" lat="64.0241289159" lon="10.522957224">
		<tag k="name" v="Skjern" />
		<tag k="place" v="farm" />
		<tag k="ssr:stedsnr" v="667160" />
	</node>
	<node id="-848420" lat="64.0365222263" lon="10.2849416626">
		<tag k="historic" v="shieling" />
		<tag k="name" v="Kvislan" />
		<tag k="place" v="locality" />
		<tag k="ssr:stedsnr" v="378722" />
	</node>
	<node id="-850462" lat="64.0658845442" lon="10.6300361303">
		<tag k="historic" v="shieling" />
		<tag k="name" v="Habroseteren" />
		<tag k="place" v="locality" />
		<tag k="ssr:stedsnr" v="499219" />
	</node>
	<node id="-848409" lat="63.9447055511" lon="10.090438894">
		<tag k="name" v="Leikvang" />
		<tag k="place" v="farm" />
		<tag k="ssr:stedsnr" v="576583" />
	</node>
	<node id="-847278" lat="63.9781972194" lon="10.1020194506">
		<tag k="name" v="Myrenget" />
		<tag k="place" v="farm" />
		<tag k="ssr:stedsnr" v="395113" />
	</node>
	<node id="-848400" lat="63.9819999988" lon="10.362502768">
		<tag k="name" v="Langnesodden camping" />
		<tag k="ssr:stedsnr" v="665765" />
		<tag k="tourism" v="camp_site" />
	</node>
	<node id="-850447" lat="63.9813277789" lon="10.3810388944">
		<tag k="name" v="Vannavika" />
		<tag k="place" v="locality" />
		<tag k="ssr:stedsnr" v="820782" />
	</node>
	<node id="-847617" lat="63.979736114" lon="10.1720777818">
		<tag k="name" v="Skogly" />
		<tag k="place" v="farm" />
		<tag k="ssr:stedsnr" v="456595" />
	</node>
	<node id="-848388" lat="64.0156555533" lon="10.5198611122">
		<tag k="name" v="Rønningen" />
		<tag k="place" v="farm" />
		<tag k="ssr:stedsnr" v="803732" />
	</node>
	<node id="-850422" lat="63.9295027799" lon="10.3815333266">
		<tag k="name" v="Karlaunet" />
		<tag k="place" v="farm" />
		<tag k="ssr:stedsnr" v="394941" />
	</node>
	<node id="-850421" lat="64.0250944412" lon="10.3866250095">
		<tag k="alt_name" v="Nittamark, vestre" />
		<tag k="name" v="Vestre Nittamarka" />
		<tag k="place" v="farm" />
		<tag k="ssr:stedsnr" v="317652" />
	</node>
	<node id="-850414" lat="63.9978386091" lon="10.3110645455">
		<tag k="alt_name" v="Mølsletta, vestre" />
		<tag k="name" v="Vestre Mølsletta" />
		<tag k="place" v="farm" />
		<tag k="ssr:stedsnr" v="74167" />
	</node>
	<node id="-850757" lat="63.9309858046" lon="10.1606843646">
		<tag k="fixme" v="consider place=hamlet" />
		<tag k="name" v="Kroksneset" />
		<tag k="place" v="farm" />
		<tag k="ssr:stedsnr" v="803520" />
	</node>
	<node id="-848361" lat="63.9863694412" lon="10.1900249908">
		<tag k="name" v="Furuly" />
		<tag k="place" v="farm" />
		<tag k="ssr:stedsnr" v="334549" />
	</node>
	<node id="-848356" lat="63.9266083362" lon="10.2233833423">
		<tag k="name" v="Krekkan" />
		<tag k="place" v="farm" />
		<tag k="ssr:stedsnr" v="91144" />
	</node>
	<node id="-850395" lat="64.0413694465" lon="10.0715416569">
		<tag k="name" v="Lian" />
		<tag k="place" v="farm" />
		<tag k="ssr:stedsnr" v="697465" />
	</node>
	<node id="-850394" lat="63.9464691089" lon="10.128920017">
		<tag k="name" v="Strand" />
		<tag k="place" v="farm" />
		<tag k="ssr:stedsnr" v="698331" />
	</node>
	<node id="-848706" lat="63.9469448777" lon="10.1367588788">
		<tag k="name" v="Strand" />
		<tag k="place" v="farm" />
		<tag k="ssr:stedsnr" v="213659" />
	</node>
	<node id="-850381" lat="64.0225555538" lon="9.90523054937">
		<tag k="fixme" v="consider place=hamlet" />
		<tag k="name" v="Sørgårdan" />
		<tag k="place" v="farm" />
		<tag k="ssr:stedsnr" v="924050" />
	</node>
	<node id="-847607" lat="63.9301611075" lon="10.3005472263">
		<tag k="name" v="Vassodden" />
		<tag k="place" v="farm" />
		<tag k="ssr:stedsnr" v="195347" />
	</node>
	<node id="-848327" lat="63.9339750016" lon="10.0243138865">
		<tag k="name" v="Flatmoen hyttefelt" />
		<tag k="place" v="neighbourhood" />
		<tag k="ssr:stedsnr" v="406025" />
	</node>
	<node id="-848326" lat="64.0237777762" lon="10.3874388942">
		<tag k="historic" v="shieling" />
		<tag k="name" v="Nordlia" />
		<tag k="place" v="locality" />
		<tag k="ssr:stedsnr" v="559710" />
	</node>
	<node id="-848325" lat="64.0263388896" lon="10.1024611027">
		<tag k="fixme" v="consider place=hamlet" />
		<tag k="name" v="Bjørkan" />
		<tag k="place" v="farm" />
		<tag k="ssr:stedsnr" v="14099" />
	</node>
	<node id="-850369" lat="64.0077611107" lon="10.0350666658">
		<tag k="name" v="Moen" />
		<tag k="place" v="farm" />
		<tag k="ssr:stedsnr" v="395779" />
	</node>
	<node id="-847001" lat="64.0090583376" lon="10.5822055489">
		<tag k="name" v="Dulmålseteren" />
		<tag k="place" v="locality" />
		<tag k="ssr:stedsnr" v="620705" />
	</node>
	<node id="-850359" lat="63.9599620692" lon="10.2258785281">
		<tag k="fixme" v="consider place=suburb, village or hamlet" />
		<tag k="name" v="Årnes" />
		<tag k="place" v="quarter" />
		<tag k="ssr:stedsnr" v="377358" />
	</node>
	<node id="-850358" lat="63.9483555569" lon="10.1311583378">
		<tag k="name" v="Nordstrand" />
		<tag k="place" v="farm" />
		<tag k="ssr:stedsnr" v="637650" />
	</node>
	<node id="-850357" lat="64.0520388892" lon="10.4322972309">
		<tag k="name" v="Øyklia" />
		<tag k="place" v="farm" />
		<tag k="ssr:stedsnr" v="499216" />
	</node>
	<node id="-847262" lat="63.9692493565" lon="10.0944247773">
		<tag k="fixme" v="consider place=hamlet" />
		<tag k="name" v="Markanes" />
		<tag k="place" v="farm" />
		<tag k="ssr:stedsnr" v="510018" />
	</node>
	<node id="-850354" lat="64.0764472217" lon="10.1744416759">
		<tag k="fixme" v="consider place=hamlet" />
		<tag k="name" v="Simavika" />
		<tag k="place" v="farm" />
		<tag k="ssr:stedsnr" v="74161" />
	</node>
	<node id="-850339" lat="64.0401138919" lon="10.4270138804">
		<tag k="name" v="Holmenget" />
		<tag k="place" v="farm" />
		<tag k="ssr:stedsnr" v="499200" />
	</node>
	<node id="-848288" lat="64.0402950061" lon="9.98498835199">
		<tag k="fixme" v="consider place=hamlet" />
		<tag k="name" v="Guttelvika" />
		<tag k="place" v="farm" />
		<tag k="ssr:stedsnr" v="256097" />
	</node>
	<node id="-848286" lat="63.9604222202" lon="10.2259333265">
		<tag k="building" v="commercial" />
		<tag k="name" v="Parken" />
		<tag k="ssr:stedsnr" v="665741" />
	</node>
	<node id="-850332" lat="64.0540361105" lon="10.1269916644">
		<tag k="name" v="Sørbotnet" />
		<tag k="place" v="farm" />
		<tag k="ssr:stedsnr" v="438140" />
	</node>
	<node id="-850320" lat="63.9129165336" lon="10.2521840984">
		<tag k="fixme" v="consider place=hamlet" />
		<tag k="name" v="Mørriaunet" />
		<tag k="place" v="farm" />
		<tag k="ssr:stedsnr" v="802392" />
	</node>
	<node id="-848310" lat="63.9763000026" lon="10.2086500066">
		<tag k="leisure" v="pitch" />
		<tag k="name" v="Hutjønna skianlegg" />
		<tag k="ssr:stedsnr" v="423736" />
	</node>
	<node id="-850309" lat="64.0472277736" lon="9.98295834126">
		<tag k="name" v="Reksteren" />
		<tag k="place" v="farm" />
		<tag k="ssr:stedsnr" v="577819" />
	</node>
	<node id="-848257" lat="63.9448166646" lon="10.087561115">
		<tag k="name" v="Eidsmyra" />
		<tag k="place" v="farm" />
		<tag k="ssr:stedsnr" v="516567" />
	</node>
	<node id="-850297" lat="63.985150001" lon="10.411419453">
		<tag k="alt_name" v="Ytterlia" />
		<tag k="name" v="Bylia" />
		<tag k="place" v="farm" />
		<tag k="ssr:stedsnr" v="74155" />
	</node>
	<node id="-850295" lat="64.0183666689" lon="9.94190277977">
		<tag k="name" v="Breivika" />
		<tag k="place" v="farm" />
		<tag k="ssr:stedsnr" v="924053" />
	</node>
	<node id="-850294" lat="63.9241388887" lon="10.1456499904">
		<tag k="alt_name" v="Brasset" />
		<tag k="name" v="Øra" />
		<tag k="place" v="farm" />
		<tag k="ssr:stedsnr" v="91534" />
	</node>
	<node id="-848239" lat="63.990569448" lon="10.4488972312">
		<tag k="fixme" v="consider place=hamlet" />
		<tag k="name" v="Moan" />
		<tag k="place" v="farm" />
		<tag k="ssr:stedsnr" v="135136" />
	</node>
	<node id="-848234" lat="63.9693249998" lon="10.2026777742">
		<tag k="name" v="Lomsenget" />
		<tag k="place" v="farm" />
		<tag k="ssr:stedsnr" v="456728" />
	</node>
	<node id="-848233" lat="63.9864972232" lon="10.4477055583">
		<tag k="alt_name" v="Aunet" />
		<tag k="name" v="Aunan" />
		<tag k="place" v="farm" />
		<tag k="ssr:stedsnr" v="135135" />
	</node>
	<node id="-850279" lat="63.9990331236" lon="10.2054776532">
		<tag k="name" v="Grytan" />
		<tag k="place" v="farm" />
		<tag k="ssr:stedsnr" v="728740" />
	</node>
	<node id="-848227" lat="63.9439500031" lon="10.0799749952">
		<tag k="name" v="Eid" />
		<tag k="place" v="farm" />
		<tag k="ssr:stedsnr" v="334504" />
	</node>
	<node id="-850272" lat="63.9724500036" lon="10.333477777">
		<tag k="name" v="Grøtan" />
		<tag k="place" v="isolated_dwelling" />
		<tag k="ssr:stedsnr" v="498157" />
	</node>
	<node id="-848220" lat="63.8595027761" lon="10.2278611141">
		<tag k="name" v="Austdalsseteren" />
		<tag k="place" v="isolated_dwelling" />
		<tag k="ssr:stedsnr" v="741338" />
	</node>
	<node id="-848210" lat="63.9071750006" lon="9.948733328">
		<tag k="name" v="Nygården" />
		<tag k="place" v="farm" />
		<tag k="ssr:stedsnr" v="637243" />
	</node>
	<node id="-850257" lat="63.9174583374" lon="9.97873889003">
		<tag k="name" v="Barøya" />
		<tag k="place" v="isolated_dwelling" />
		<tag k="ssr:stedsnr" v="316567" />
	</node>
	<node id="-850253" lat="63.999388893" lon="9.8953583391">
		<tag k="name" v="Vågan" />
		<tag k="place" v="farm" />
		<tag k="ssr:stedsnr" v="881662" />
	</node>
	<node id="-850252" lat="63.994330554" lon="9.99712777558">
		<tag k="name" v="Rovika" />
		<tag k="place" v="farm" />
		<tag k="ssr:stedsnr" v="863730" />
	</node>
	<node id="-850250" lat="63.9687623955" lon="10.0928579401">
		<tag k="name" v="Markanes" />
		<tag k="place" v="farm" />
		<tag k="ssr:stedsnr" v="728738" />
	</node>
	<node id="-848200" lat="64.0424583349" lon="9.96589722708">
		<tag k="name" v="Solberg" />
		<tag k="place" v="farm" />
		<tag k="ssr:stedsnr" v="135131" />
	</node>
	<node id="-848199" lat="64.0230555549" lon="9.91860833625">
		<tag k="name" v="Moen" />
		<tag k="place" v="farm" />
		<tag k="ssr:stedsnr" v="378108" />
	</node>
	<node id="-848195" lat="63.9894944433" lon="10.2041083358">
		<tag k="name" v="Nesheim" />
		<tag k="place" v="farm" />
		<tag k="ssr:stedsnr" v="559696" />
	</node>
	<node id="-850240" lat="63.8945132452" lon="9.99214908231">
		<tag k="name" v="Kjørem" />
		<tag k="place" v="farm" />
		<tag k="ssr:stedsnr" v="788229" />
	</node>
	<node id="-848374" lat="63.9890055569" lon="10.4356750078">
		<tag k="fixme" v="consider place=hamlet" />
		<tag k="name" v="Hårstad" />
		<tag k="place" v="farm" />
		<tag k="ssr:stedsnr" v="121140" />
	</node>
	<node id="-850237" lat="63.925913891" lon="10.0552722213">
		<tag k="name" v="Myrset" />
		<tag k="place" v="farm" />
		<tag k="ssr:stedsnr" v="698303" />
	</node>
	<node id="-848184" lat="64.0121055574" lon="10.0671861114">
		<tag k="fixme" v="consider place=hamlet" />
		<tag k="name" v="Lauvlia" />
		<tag k="place" v="farm" />
		<tag k="ssr:stedsnr" v="256076" />
	</node>
	<node id="-850230" lat="63.9116698498" lon="10.0563038452">
		<tag k="name" v="Fjellsaunet" />
		<tag k="place" v="locality" />
		<tag k="ssr:stedsnr" v="728180" />
	</node>
	<node id="-848180" lat="63.9339472188" lon="9.95089166906">
		<tag k="name" v="Nerplassen" />
		<tag k="place" v="farm" />
		<tag k="ssr:stedsnr" v="881229" />
	</node>
	<node id="-848179" lat="64.0067861122" lon="9.93655833512">
		<tag k="fixme" v="consider place=hamlet" />
		<tag k="name" v="Lines" />
		<tag k="place" v="farm" />
		<tag k="ssr:stedsnr" v="941310" />
	</node>
	<node id="-848177" lat="63.9253777804" lon="10.1525333391">
		<tag k="name" v="Sagnes" />
		<tag k="place" v="farm" />
		<tag k="ssr:stedsnr" v="576524" />
	</node>
	<node id="-848264" lat="63.8728472253" lon="10.4513888978">
		<tag k="fixme" v="consider tourism=alpine_hut or tourism=chalet" />
		<tag k="name" v="Reinsjøbu" />
		<tag k="old_name" v="Reinsjøbua" />
		<tag k="ssr:stedsnr" v="330388" />
		<tag k="tourism" v="wilderness_hut" />
	</node>
	<node id="-850219" lat="63.9896194474" lon="10.4411666669">
		<tag k="name" v="Moan" />
		<tag k="place" v="farm" />
		<tag k="ssr:stedsnr" v="576134" />
	</node>
	<node id="-848167" lat="64.1057027788" lon="10.5346583375">
		<tag k="name" v="Furuly" />
		<tag k="place" v="farm" />
		<tag k="ssr:stedsnr" v="273382" />
	</node>
	<node id="-850211" lat="63.998522225" lon="10.031575001">
		<tag k="name" v="Seterstøa" />
		<tag k="place" v="isolated_dwelling" />
		<tag k="ssr:stedsnr" v="820738" />
	</node>
	<node id="-850207" lat="63.9338035244" lon="10.3913513111">
		<tag k="name" v="Karlaunet" />
		<tag k="place" v="farm" />
		<tag k="ssr:stedsnr" v="213892" />
	</node>
	<node id="-848154" lat="63.8945981576" lon="9.99146245336">
		<tag k="fixme" v="consider place=hamlet" />
		<tag k="name" v="Kjørem" />
		<tag k="place" v="farm" />
		<tag k="ssr:stedsnr" v="377579" />
	</node>
	<node id="-849414" lat="63.9831388888" lon="10.1229277732">
		<tag k="name" v="Litlenget" />
		<tag k="place" v="farm" />
		<tag k="ssr:stedsnr" v="456125" />
	</node>
	<node id="-848143" lat="63.9303500038" lon="10.4087944345">
		<tag k="name" v="Solvang" />
		<tag k="place" v="farm" />
		<tag k="ssr:stedsnr" v="91922" />
	</node>
	<node id="-850189" lat="63.9302571363" lon="10.1504783336">
		<tag k="fixme" v="consider place=hamlet" />
		<tag k="name" v="Brasset" />
		<tag k="place" v="farm" />
		<tag k="ssr:stedsnr" v="741599" />
	</node>
	<node id="-850185" lat="63.9448646052" lon="10.072560988">
		<tag k="name" v="Eid" />
		<tag k="place" v="farm" />
		<tag k="ssr:stedsnr" v="242216" />
	</node>
	<node id="-848130" lat="64.0285949301" lon="10.5382203644">
		<tag k="name" v="Bjørnlia" />
		<tag k="place" v="farm" />
		<tag k="ssr:stedsnr" v="559690" />
	</node>
	<node id="-846891" lat="63.9839861103" lon="10.3990583341">
		<tag k="name" v="Ospmo" />
		<tag k="place" v="farm" />
		<tag k="ssr:stedsnr" v="620154" />
	</node>
	<node id="-850175" lat="63.9930166675" lon="10.2943083387">
		<tag k="name" v="Trøen" />
		<tag k="place" v="farm" />
		<tag k="ssr:stedsnr" v="196190" />
	</node>
	<node id="-848124" lat="63.88690833" lon="10.0429638917">
		<tag k="name" v="Kammasætra" />
		<tag k="place" v="locality" />
		<tag k="ssr:stedsnr" v="802622" />
	</node>
	<node id="-850171" lat="63.975058337" lon="10.387027773">
		<tag k="name" v="Eliasgården" />
		<tag k="place" v="locality" />
		<tag k="ssr:stedsnr" v="273811" />
	</node>
	<node id="-850167" lat="63.9992611084" lon="10.2263638877">
		<tag k="alt_name" v="Steinvollen" />
		<tag k="name" v="Imsen" />
		<tag k="place" v="farm" />
		<tag k="ssr:stedsnr" v="196192" />
	</node>
	<node id="-848116" lat="63.9242222212" lon="10.409680565">
		<tag k="amenity" v="school" />
		<tag k="name" v="Sørdalen skole" />
		<tag k="ssr:stedsnr" v="91918" />
	</node>
	<node id="-848112" lat="64.0788973134" lon="10.1578915372">
		<tag k="fixme" v="consider place=hamlet" />
		<tag k="name" v="Kvalvika" />
		<tag k="place" v="farm" />
		<tag k="ssr:stedsnr" v="559161" />
	</node>
	<node id="-850159" lat="64.0055311457" lon="10.2138308913">
		<tag k="fixme" v="consider place=hamlet" />
		<tag k="name" v="Halsaunet" />
		<tag k="place" v="farm" />
		<tag k="ssr:stedsnr" v="317073" />
	</node>
	<node id="-848105" lat="63.9853277766" lon="10.4653000093">
		<tag k="name" v="Lian" />
		<tag k="place" v="farm" />
		<tag k="ssr:stedsnr" v="456703" />
	</node>
	<node id="-848104" lat="63.9882499957" lon="10.4671333293">
		<tag k="name" v="Granbakken" />
		<tag k="place" v="farm" />
		<tag k="ssr:stedsnr" v="803143" />
	</node>
	<node id="-850151" lat="63.9444805544" lon="10.3395555628">
		<tag k="historic" v="shieling" />
		<tag k="name" v="Morrvollseteren" />
		<tag k="place" v="locality" />
		<tag k="ssr:stedsnr" v="558378" />
	</node>
	<node id="-848593" lat="63.9835527811" lon="10.4692166651">
		<tag k="name" v="Seljemo" />
		<tag k="place" v="farm" />
		<tag k="ssr:stedsnr" v="256139" />
	</node>
	<node id="-850144" lat="63.9143194424" lon="10.4305722314">
		<tag k="name" v="Under-Vinnan" />
		<tag k="place" v="farm" />
		<tag k="ssr:stedsnr" v="213887" />
	</node>
	<node id="-850137" lat="63.9641222181" lon="10.2002222262">
		<tag k="name" v="Monstadmoen" />
		<tag k="place" v="farm" />
		<tag k="ssr:stedsnr" v="820700" />
	</node>
	<node id="-848087" lat="63.9712000002" lon="10.0649361165">
		<tag k="name" v="Øver Morkamoen" />
		<tag k="place" v="farm" />
		<tag k="ssr:stedsnr" v="152142" />
	</node>
	<node id="-848249" lat="64.0306361149" lon="10.4040750063">
		<tag k="name" v="Litlenget" />
		<tag k="place" v="farm" />
		<tag k="ssr:stedsnr" v="135685" />
	</node>
	<node id="-848078" lat="63.9934055572" lon="10.4561583332">
		<tag k="alt_name" v="Moaunet" />
		<tag k="name" v="Aunet" />
		<tag k="place" v="farm" />
		<tag k="ssr:stedsnr" v="559152" />
	</node>
	<node id="-850122" lat="64.01464722" lon="10.0694527848">
		<tag k="fixme" v="consider place=hamlet" />
		<tag k="name" v="Staggalia" />
		<tag k="place" v="farm" />
		<tag k="ssr:stedsnr" v="317064" />
	</node>
	<node id="-850121" lat="63.9721249965" lon="10.0066416643">
		<tag k="name" v="Vågen" />
		<tag k="place" v="farm" />
		<tag k="ssr:stedsnr" v="213073" />
	</node>
	<node id="-848072" lat="64.0260722212" lon="10.5227555628">
		<tag k="name" v="Kvennaparten" />
		<tag k="place" v="farm" />
		<tag k="ssr:stedsnr" v="334484" />
	</node>
	<node id="-850119" lat="64.0396833334" lon="10.0693416608">
		<tag k="name" v="Aunet" />
		<tag k="place" v="farm" />
		<tag k="ssr:stedsnr" v="213880" />
	</node>
	<node id="-850112" lat="63.9682393098" lon="10.2645390615">
		<tag k="alt_name" v="Vasstrand, vestre" />
		<tag k="fixme" v="multiple name tags, choose one and add the other to alt_name" />
		<tag k="name" v="Skålvika;Vestre Vasstrand" />
		<tag k="place" v="farm" />
		<tag k="ssr:stedsnr" v="74133" />
	</node>
	<node id="-850110" lat="64.0402444433" lon="10.5794861151">
		<tag k="historic" v="shieling" />
		<tag k="name" v="Hongdalsseteren" />
		<tag k="place" v="locality" />
		<tag k="ssr:stedsnr" v="75743" />
	</node>
	<node id="-848061" lat="64.0958611103" lon="10.527991665">
		<tag k="name" v="Tjønneset" />
		<tag k="place" v="farm" />
		<tag k="ssr:stedsnr" v="620326" />
	</node>
	<node id="-848057" lat="63.9394777864" lon="10.5480890862">
		<tag k="fixme" v="consider place=hamlet" />
		<tag k="name" v="Ommunddalen" />
		<tag k="place" v="farm" />
		<tag k="ssr:stedsnr" v="73324" />
	</node>
	<node id="-850633" lat="63.9404722228" lon="10.2224888898">
		<tag k="fixme" v="consider place=hamlet" />
		<tag k="name" v="Arnvika" />
		<tag k="place" v="farm" />
		<tag k="ssr:stedsnr" v="680404" />
	</node>
	<node id="-848163" lat="63.9255236571" lon="10.019014122">
		<tag k="name" v="Sør-Eidem" />
		<tag k="place" v="farm" />
		<tag k="ssr:stedsnr" v="820305" />
	</node>
	<node id="-850098" lat="64.0274239328" lon="10.3933033908">
		<tag k="name" v="Nittamarka" />
		<tag k="place" v="farm" />
		<tag k="ssr:stedsnr" v="863713" />
	</node>
	<node id="-850097" lat="63.9814638886" lon="10.4197611015">
		<tag k="name" v="Skålin" />
		<tag k="place" v="farm" />
		<tag k="ssr:stedsnr" v="273784" />
	</node>
	<node id="-848046" lat="63.9370222242" lon="10.4011861136">
		<tag k="name" v="Ospvik" />
		<tag k="old_name" v="Karlsaunet" />
		<tag k="place" v="farm" />
		<tag k="ssr:stedsnr" v="73322" />
	</node>
	<node id="-848045" lat="64.0420722193" lon="10.0694916615">
		<tag k="name" v="Lianssjøen" />
		<tag k="place" v="farm" />
		<tag k="ssr:stedsnr" v="91896" />
	</node>
	<node id="-850090" lat="63.9666666678" lon="10.1053583354">
		<tag k="historic" v="shieling" />
		<tag k="name" v="Revsnesseteren" />
		<tag k="place" v="locality" />
		<tag k="ssr:stedsnr" v="698277" />
	</node>
	<node id="-848041" lat="64.0506416634" lon="10.0430138803">
		<tag k="fixme" v="consider place=suburb, village or hamlet" />
		<tag k="name" v="Stokkneset" />
		<tag k="place" v="quarter" />
		<tag k="ssr:stedsnr" v="637180" />
	</node>
	<node id="-850088" lat="63.9740694419" lon="10.3829749959">
		<tag k="fixme" v="consider place=hamlet" />
		<tag k="name" v="Uggdalen" />
		<tag k="place" v="farm" />
		<tag k="ssr:stedsnr" v="195146" />
	</node>
	<node id="-850087" lat="63.978547226" lon="10.4036111042">
		<tag k="name" v="Staven" />
		<tag k="place" v="farm" />
		<tag k="ssr:stedsnr" v="438124" />
	</node>
	<node id="-850071" lat="63.9277833228" lon="10.1609946776">
		<tag k="name" v="Kroken" />
		<tag k="place" v="farm" />
		<tag k="ssr:stedsnr" v="242200" />
	</node>
	<node id="-850062" lat="63.9926583357" lon="10.2088777752">
		<tag k="name" v="Nordli" />
		<tag k="place" v="farm" />
		<tag k="ssr:stedsnr" v="576086" />
	</node>
	<node id="-847998" lat="63.9878777785" lon="10.3855583303">
		<tag k="alt_name" v="Staven" />
		<tag k="name" v="Løabakkan" />
		<tag k="place" v="farm" />
		<tag k="ssr:stedsnr" v="455788" />
	</node>
	<node id="-850045" lat="63.9808722195" lon="10.3941000001">
		<tag k="name" v="Lysbakken" />
		<tag k="place" v="farm" />
		<tag k="ssr:stedsnr" v="195145" />
	</node>
	<node id="-850044" lat="63.9327277803" lon="10.0883027845">
		<tag k="name" v="Trollfoten" />
		<tag k="place" v="farm" />
		<tag k="ssr:stedsnr" v="31532" />
	</node>
	<node id="-847990" lat="63.9323384369" lon="10.3870133983">
		<tag k="fixme" v="consider place=hamlet" />
		<tag k="name" v="Karlaunet" />
		<tag k="place" v="farm" />
		<tag k="ssr:stedsnr" v="73316" />
	</node>
	<node id="-847983" lat="63.9862083347" lon="10.4234500103">
		<tag k="name" v="Einmoen" />
		<tag k="place" v="farm" />
		<tag k="ssr:stedsnr" v="803139" />
	</node>
	<node id="-847981" lat="63.9856916687" lon="10.421197217">
		<tag k="amenity" v="kindergarten" />
		<tag k="name" v="By barnehage" />
		<tag k="ssr:stedsnr" v="360672" />
	</node>
	<node id="-847980" lat="63.96849167" lon="10.2192583287">
		<tag k="amenity" v="kindergarten" />
		<tag k="name" v="Heggli barnehage" />
		<tag k="ssr:stedsnr" v="785678" />
	</node>
	<node id="-847978" lat="63.9777666622" lon="10.1393888975">
		<tag k="name" v="Solstad" />
		<tag k="place" v="farm" />
		<tag k="ssr:stedsnr" v="923736" />
	</node>
	<node id="-847972" lat="63.9329138886" lon="10.0718472283">
		<tag k="name" v="Bakkan" />
		<tag k="place" v="farm" />
		<tag k="ssr:stedsnr" v="516509" />
	</node>
	<node id="-847966" lat="63.9602194453" lon="10.18770001">
		<tag k="fixme" v="consider place=suburb, village or hamlet" />
		<tag k="name" v="Monstadstranda" />
		<tag k="place" v="quarter" />
		<tag k="ssr:stedsnr" v="516511" />
	</node>
	<node id="-850012" lat="64.1048388921" lon="10.5362444525">
		<tag k="name" v="Brenna" />
		<tag k="place" v="farm" />
		<tag k="ssr:stedsnr" v="378365" />
	</node>
	<node id="-847959" lat="63.9523816264" lon="10.209917812">
		<tag k="name" v="Rotnes" />
		<tag k="place" v="farm" />
		<tag k="ssr:stedsnr" v="910209" />
	</node>
	<node id="-850006" lat="64.0355833332" lon="10.4158277727">
		<tag k="name" v="Bonenget" />
		<tag k="place" v="farm" />
		<tag k="ssr:stedsnr" v="439696" />
	</node>
	<node id="-847953" lat="63.9606833368" lon="10.2246777702">
		<tag k="name" v="Åfjord" />
		<tag k="old_name" v="Å i Åfjord;Å" />
		<tag k="place" v="village" />
		<tag k="ssr:stedsnr" v="195386" />
	</node>
	<node id="-847949" lat="63.925436796" lon="9.92904464579">
		<tag k="fixme" v="consider place=hamlet" />
		<tag k="name" v="Lauvøya" />
		<tag k="place" v="farm" />
		<tag k="ssr:stedsnr" v="820208" />
	</node>
	<node id="-849996" lat="63.9111916661" lon="10.5151888958">
		<tag k="name" v="Flenstadseteren" />
		<tag k="place" v="isolated_dwelling" />
		<tag k="ssr:stedsnr" v="802330" />
	</node>
	<node id="-847947" lat="63.9329611074" lon="9.94139722561">
		<tag k="name" v="Myrheim" />
		<tag k="place" v="farm" />
		<tag k="ssr:stedsnr" v="274179" />
	</node>
	<node id="-849984" lat="64.1000999974" lon="10.5278972148">
		<tag k="alt_name" v="Storrdal" />
		<tag k="name" v="Storrdalen" />
		<tag k="place" v="farm" />
		<tag k="ssr:stedsnr" v="378364" />
	</node>
	<node id="-848224" lat="63.9873416642" lon="10.4580361199">
		<tag k="name" v="Rømma" />
		<tag k="place" v="farm" />
		<tag k="ssr:stedsnr" v="456706" />
	</node>
	<node id="-849976" lat="64.0059916697" lon="10.21658611">
		<tag k="name" v="Halsaunet" />
		<tag k="place" v="farm" />
		<tag k="ssr:stedsnr" v="576079" />
	</node>
	<node id="-847926" lat="63.9263138918" lon="9.92152221551">
		<tag k="name" v="Haugen" />
		<tag k="place" v="farm" />
		<tag k="ssr:stedsnr" v="820210" />
	</node>
	<node id="-847917" lat="63.9303111117" lon="10.0679111099">
		<tag k="name" v="Rånes" />
		<tag k="place" v="farm" />
		<tag k="ssr:stedsnr" v="303239" />
	</node>
	<node id="-849964" lat="63.9987833364" lon="10.211658342">
		<tag k="name" v="Vallernes" />
		<tag k="place" v="farm" />
		<tag k="ssr:stedsnr" v="759095" />
	</node>
	<node id="-849958" lat="63.9571916651" lon="10.2061472198">
		<tag k="name" v="Asplund" />
		<tag k="place" v="farm" />
		<tag k="ssr:stedsnr" v="880737" />
	</node>
	<node id="-847899" lat="64.0139035531" lon="10.2088963586">
		<tag k="name" v="Bakkan" />
		<tag k="place" v="farm" />
		<tag k="ssr:stedsnr" v="910750" />
	</node>
	<node id="-847898" lat="63.9466326304" lon="10.1334984152">
		<tag k="fixme" v="consider place=hamlet" />
		<tag k="name" v="Strand" />
		<tag k="place" v="village" />
		<tag k="ssr:stedsnr" v="60232" />
	</node>
	<node id="-849942" lat="64.0054916658" lon="10.2101944511">
		<tag k="alt_name" v="Skogan" />
		<tag k="name" v="Halsaunet" />
		<tag k="place" v="farm" />
		<tag k="ssr:stedsnr" v="728717" />
	</node>
	<node id="-847893" lat="63.9588222263" lon="10.2185527712">
		<tag k="fixme" v="consider place=hamlet" />
		<tag k="name" v="Frønes" />
		<tag k="place" v="farm" />
		<tag k="ssr:stedsnr" v="195384" />
	</node>
	<node id="-849241" lat="63.9617194428" lon="10.1948694356">
		<tag k="fixme" v="consider place=suburb, village or hamlet" />
		<tag k="name" v="Monstad" />
		<tag k="place" v="quarter" />
		<tag k="ssr:stedsnr" v="438548" />
	</node>
	<node id="-847887" lat="63.9979777757" lon="10.1629472147">
		<tag k="name" v="Bekken" />
		<tag k="place" v="isolated_dwelling" />
		<tag k="ssr:stedsnr" v="316764" />
	</node>
</osm>
