<?xml version="1.0" encoding="UTF-8"?>
<osm generator="osmapis" version="0.6">
	<node id="-841208" lat="63.97528889" lon="10.2168583319">
		<tag k="fixme" v="specify shooting=range, clay_pigeon etc" />
		<tag k="leisure" v="pitch" />
		<tag k="name" v="Hutjønna skytebane" />
		<tag k="sport" v="shooting" />
		<tag k="ssr:stedsnr" v="969710" />
	</node>
	<node id="-841661" lat="64.0082749984" lon="10.0422916597">
		<tag k="fixme" v="specify shooting=range, clay_pigeon etc" />
		<tag k="leisure" v="pitch" />
		<tag k="name" v="Herfjorden skytebane" />
		<tag k="sport" v="shooting" />
		<tag k="ssr:stedsnr" v="423741" />
	</node>
	<node id="-841459" lat="63.9360083325" lon="10.3673083273">
		<tag k="fixme" v="specify shooting=range, clay_pigeon etc" />
		<tag k="leisure" v="pitch" />
		<tag k="name" v="Sørdalen skytebane" />
		<tag k="sport" v="shooting" />
		<tag k="ssr:stedsnr" v="848718" />
	</node>
	<node id="-843993" lat="63.9901361148" lon="10.4108555494">
		<tag k="fixme" v="specify shooting=range, clay_pigeon etc" />
		<tag k="leisure" v="pitch" />
		<tag k="name" v="By skytebane" />
		<tag k="sport" v="shooting" />
		<tag k="ssr:stedsnr" v="544723" />
	</node>
</osm>
