<?xml version="1.0" encoding="UTF-8"?>
<osm generator="osmapis" version="0.6">
	<node id="-849916" lat="64.0474666702" lon="9.8894527835">
		<tag k="name" v="Kvalvikstrumpen" />
		<tag k="ssr:stedsnr" v="213840" />
		<tag k="waterway" v="stream" />
	</node>
	<node id="-849913" lat="63.874650004" lon="10.3146055515">
		<tag k="name" v="Sørnesbekken" />
		<tag k="ssr:stedsnr" v="710541" />
		<tag k="waterway" v="stream" />
	</node>
	<node id="-847864" lat="63.8787556113" lon="10.2762736547">
		<tag k="name" v="Juvatnet" />
		<tag k="natural" v="water" />
		<tag k="ssr:stedsnr" v="73295" />
		<tag k="water" v="lake" />
	</node>
	<node id="-849907" lat="63.9630777795" lon="10.4691583285">
		<tag k="name" v="Løadalsbekken" />
		<tag k="ssr:stedsnr" v="820679" />
		<tag k="waterway" v="stream" />
	</node>
	<node id="-849903" lat="63.8871583297" lon="10.0000833252">
		<tag k="name" v="Kjøremsvatnet" />
		<tag k="natural" v="water" />
		<tag k="ssr:stedsnr" v="620566" />
	</node>
	<node id="-849901" lat="63.8586666662" lon="10.3936083243">
		<tag k="name" v="Sleppen" />
		<tag k="natural" v="water" />
		<tag k="ssr:stedsnr" v="104589" />
		<tag k="water" v="lake" />
	</node>
	<node id="-849900" lat="63.8932888845" lon="10.3861555512">
		<tag k="name" v="Dammen" />
		<tag k="natural" v="bay" />
		<tag k="ssr:stedsnr" v="516929" />
	</node>
	<node id="-848551" lat="63.8593583378" lon="10.3943055502">
		<tag k="name" v="Sleppen" />
		<tag k="natural" v="water" />
		<tag k="ssr:stedsnr" v="619313" />
	</node>
	<node id="-849896" lat="64.0127666691" lon="10.3613138792">
		<tag k="name" v="Fossholet" />
		<tag k="place" v="locality" />
		<tag k="ssr:stedsnr" v="394836" />
	</node>
	<node id="-847868" lat="64.0216972184" lon="10.1473499955">
		<tag k="name" v="Østre Holmvatnet" />
		<tag k="natural" v="water" />
		<tag k="ssr:stedsnr" v="637166" />
		<tag k="water" v="lake" />
	</node>
	<node id="-849892" lat="63.8649222196" lon="10.3099861154">
		<tag k="name" v="Tverrlitjønnan" />
		<tag k="natural" v="water" />
		<tag k="ssr:stedsnr" v="255262" />
	</node>
	<node id="-847843" lat="64.0064416651" lon="10.2442888953">
		<tag k="name" v="Imsaelva" />
		<tag k="ssr:stedsnr" v="681737" />
		<tag k="waterway" v="stream" />
	</node>
	<node id="-849890" lat="63.9305638917" lon="10.3909833387">
		<tag k="name" v="Lamodden" />
		<tag k="natural" v="cape" />
		<tag k="ssr:stedsnr" v="759942" />
	</node>
	<node id="-849889" lat="64.0009138864" lon="9.90021945135">
		<tag k="name" v="Vågabekken" />
		<tag k="ssr:stedsnr" v="941663" />
		<tag k="waterway" v="stream" />
	</node>
	<node id="-847838" lat="63.9263694455" lon="10.2993388844">
		<tag k="name" v="Osatangen" />
		<tag k="natural" v="cape" />
		<tag k="ssr:stedsnr" v="91232" />
	</node>
	<node id="-847833" lat="63.9760527807" lon="10.5681611086">
		<tag k="name" v="Haravasstjønnan" />
		<tag k="natural" v="water" />
		<tag k="ssr:stedsnr" v="134165" />
	</node>
	<node id="-847831" lat="63.9879500044" lon="10.6457277781">
		<tag k="name" v="Sarabranntjønna" />
		<tag k="natural" v="water" />
		<tag k="ssr:stedsnr" v="256154" />
	</node>
	<node id="-846841" lat="64.0111555516" lon="10.0668166626">
		<tag k="name" v="Vikabekken" />
		<tag k="ssr:stedsnr" v="820975" />
		<tag k="waterway" v="stream" />
	</node>
	<node id="-849871" lat="63.8674694476" lon="10.4925222124">
		<tag k="name" v="Grunnlåtelva" />
		<tag k="ssr:stedsnr" v="255256" />
		<tag k="waterway" v="river" />
	</node>
	<node id="-849870" lat="64.0109611095" lon="10.4512805504">
		<tag k="name" v="Slavatnet" />
		<tag k="natural" v="water" />
		<tag k="ssr:stedsnr" v="499688" />
	</node>
	<node id="-849869" lat="63.8747638931" lon="10.5325249938">
		<tag k="name" v="Mefjellelva" />
		<tag k="ssr:stedsnr" v="680283" />
		<tag k="waterway" v="river" />
	</node>
	<node id="-849868" lat="63.973041671" lon="10.4737972256">
		<tag k="loc_name" v="Barrabbtjønna" />
		<tag k="name" v="Barabbtjønna" />
		<tag k="natural" v="water" />
		<tag k="ssr:stedsnr" v="577724" />
	</node>
	<node id="-847819" lat="63.9021138892" lon="10.1022916702">
		<tag k="name" v="Granskardlona" />
		<tag k="natural" v="water" />
		<tag k="ssr:stedsnr" v="13613" />
	</node>
	<node id="-849866" lat="63.9608555598" lon="10.5044305549">
		<tag k="name" v="Slættjønna" />
		<tag k="natural" v="water" />
		<tag k="ssr:stedsnr" v="880718" />
	</node>
	<node id="-847815" lat="63.8710583322" lon="10.5297166611">
		<tag k="name" v="Grunnlåttjønna" />
		<tag k="natural" v="water" />
		<tag k="ssr:stedsnr" v="619321" />
	</node>
	<node id="-847814" lat="63.992466663" lon="10.7252611065">
		<tag k="name" v="Kvernhusbekken" />
		<tag k="ssr:stedsnr" v="395429" />
		<tag k="waterway" v="stream" />
	</node>
	<node id="-847813" lat="63.9667555527" lon="10.3110638952">
		<tag k="name" v="Sålanesbukta" />
		<tag k="natural" v="bay" />
		<tag k="ssr:stedsnr" v="698002" />
	</node>
	<node id="-847808" lat="64.0447638859" lon="10.2401583312">
		<tag k="name" v="Langvatnet" />
		<tag k="natural" v="water" />
		<tag k="ssr:stedsnr" v="559773" />
	</node>
	<node id="-847807" lat="63.9948055554" lon="10.708102787">
		<tag k="name" v="Krokvatnet" />
		<tag k="natural" v="water" />
		<tag k="ssr:stedsnr" v="256157" />
	</node>
	<node id="-847805" lat="63.8636083367" lon="10.226858327">
		<tag k="name" v="Inner Austdalsvatnet" />
		<tag k="natural" v="water" />
		<tag k="ssr:stedsnr" v="334621" />
		<tag k="water" v="lake" />
	</node>
	<node id="-847803" lat="63.9983583303" lon="10.3484972178">
		<tag k="name" v="Nordheitjønna" />
		<tag k="natural" v="water" />
		<tag k="ssr:stedsnr" v="681177" />
	</node>
	<node id="-849849" lat="64.0725444449" lon="10.6223611178">
		<tag k="name" v="Vestre Skurvelva" />
		<tag k="ssr:stedsnr" v="256297" />
		<tag k="waterway" v="river" />
	</node>
	<node id="-847800" lat="63.8587472191" lon="10.2196861037">
		<tag k="name" v="Stokkholsbekken" />
		<tag k="ssr:stedsnr" v="334622" />
		<tag k="waterway" v="stream" />
	</node>
	<node id="-847517" lat="64.0145305546" lon="10.2136388907">
		<tag k="name" v="Dravvelbekken" />
		<tag k="ssr:stedsnr" v="637074" />
		<tag k="waterway" v="stream" />
	</node>
	<node id="-849836" lat="63.8813722254" lon="10.4663999904">
		<tag k="name" v="Stromptjønnan" />
		<tag k="natural" v="water" />
		<tag k="ssr:stedsnr" v="134310" />
	</node>
	<node id="-849834" lat="63.9982916662" lon="10.4363638974">
		<tag k="name" v="Dalabekken" />
		<tag k="ssr:stedsnr" v="576882" />
		<tag k="waterway" v="stream" />
	</node>
	<node id="-849833" lat="63.8903972231" lon="10.3921777704">
		<tag k="name" v="Storkvernavatnet" />
		<tag k="natural" v="water" />
		<tag k="ssr:stedsnr" v="377292" />
		<tag k="water" v="lake" />
	</node>
	<node id="-847784" lat="64.0277472218" lon="10.1529694427">
		<tag k="name" v="Røyrtjønnan" />
		<tag k="natural" v="water" />
		<tag k="ssr:stedsnr" v="681063" />
	</node>
	<node id="-847783" lat="64.0809250025" lon="10.4365361129">
		<tag k="name" v="Kjerstiholbekken" />
		<tag k="ssr:stedsnr" v="456636" />
		<tag k="waterway" v="stream" />
	</node>
	<node id="-847780" lat="63.9284388898" lon="10.4024194349">
		<tag k="name" v="Moenholmen" />
		<tag k="place" v="islet" />
		<tag k="ssr:stedsnr" v="31905" />
	</node>
	<node id="-848539" lat="64.0692305597" lon="10.14970278">
		<tag k="name" v="Liaelva" />
		<tag k="ssr:stedsnr" v="256132" />
		<tag k="waterway" v="stream" />
	</node>
	<node id="-849821" lat="63.9894694404" lon="10.725683341">
		<tag k="name" v="Krokvasselva" />
		<tag k="ssr:stedsnr" v="91444" />
		<tag k="waterway" v="river" />
	</node>
	<node id="-849820" lat="63.9427777818" lon="10.2458777685">
		<tag k="name" v="Stranda" />
		<tag k="natural" v="beach" />
		<tag k="ssr:stedsnr" v="274607" />
	</node>
	<node id="-847770" lat="64.0047083301" lon="10.1284138982">
		<tag k="name" v="Storlitjønnan" />
		<tag k="natural" v="water" />
		<tag k="ssr:stedsnr" v="881984" />
	</node>
	<node id="-847769" lat="64.0799111108" lon="10.0458138918">
		<tag k="name" v="Bekken" />
		<tag k="ssr:stedsnr" v="274149" />
		<tag k="waterway" v="stream" />
	</node>
	<node id="-849815" lat="63.8766638884" lon="10.3076611173">
		<tag k="name" v="Brentdalstjønna" />
		<tag k="natural" v="water" />
		<tag k="ssr:stedsnr" v="134312" />
	</node>
	<node id="-847764" lat="64.0465138917" lon="10.1301083356">
		<tag k="name" v="Halltjønna" />
		<tag k="natural" v="water" />
		<tag k="ssr:stedsnr" v="803090" />
	</node>
	<node id="-849810" lat="63.9271361153" lon="10.4061194454">
		<tag k="name" v="Holmen" />
		<tag k="natural" v="cape" />
		<tag k="ssr:stedsnr" v="759903" />
	</node>
	<node id="-849804" lat="63.8748527791" lon="10.3339611025">
		<tag k="name" v="Sørnestjønnan" />
		<tag k="natural" v="water" />
		<tag k="ssr:stedsnr" v="680291" />
	</node>
	<node id="-849802" lat="64.0065111091" lon="10.3067333299">
		<tag k="name" v="Langmyrbukta" />
		<tag k="natural" v="bay" />
		<tag k="ssr:stedsnr" v="334025" />
	</node>
	<node id="-849796" lat="63.8918722222" lon="10.4054999917">
		<tag k="name" v="Innerøset" />
		<tag k="natural" v="bay" />
		<tag k="ssr:stedsnr" v="759926" />
	</node>
	<node id="-847747" lat="64.017794442" lon="10.1232500009">
		<tag k="name" v="Litlvatnet" />
		<tag k="natural" v="water" />
		<tag k="ssr:stedsnr" v="275000" />
		<tag k="water" v="lake" />
	</node>
	<node id="-847746" lat="64.0604972184" lon="10.6290666682">
		<tag k="name" v="Vester Skorvelva" />
		<tag k="ssr:stedsnr" v="576436" />
		<tag k="waterway" v="river" />
	</node>
	<node id="-847463" lat="63.9099888864" lon="10.372969447">
		<tag k="name" v="Halsvatnet" />
		<tag k="natural" v="water" />
		<tag k="ssr:stedsnr" v="195327" />
	</node>
	<node id="-847735" lat="63.9014416684" lon="10.2972000102">
		<tag k="name" v="Storheitjønna" />
		<tag k="natural" v="water" />
		<tag k="ssr:stedsnr" v="498342" />
	</node>
	<node id="-846825" lat="64.090280553" lon="10.4481111164">
		<tag k="name" v="Stortjønnbekken" />
		<tag k="ssr:stedsnr" v="499270" />
		<tag k="waterway" v="stream" />
	</node>
	<node id="-849780" lat="63.9804222232" lon="10.4725750005">
		<tag k="name" v="Rømmesfossen" />
		<tag k="natural" v="waterfall" />
		<tag k="ssr:stedsnr" v="637710" />
	</node>
	<node id="-849779" lat="63.9010416654" lon="10.467019436">
		<tag k="alt_name" v="Gulberselva" />
		<tag k="name" v="Gullbergelva" />
		<tag k="ssr:stedsnr" v="13336" />
		<tag k="waterway" v="river" />
	</node>
	<node id="-847730" lat="63.9770583321" lon="10.4183055544">
		<tag k="name" v="Stordalselva" />
		<tag k="ssr:stedsnr" v="559116" />
		<tag k="waterway" v="river" />
	</node>
	<node id="-847721" lat="63.8810777805" lon="10.22518889">
		<tag k="name" v="Hyttodden" />
		<tag k="natural" v="cape" />
		<tag k="ssr:stedsnr" v="698605" />
	</node>
	<node id="-847720" lat="63.9193388905" lon="10.4416111132">
		<tag k="name" v="Tunga" />
		<tag k="natural" v="cape" />
		<tag k="ssr:stedsnr" v="152891" />
	</node>
	<node id="-847714" lat="63.9368749963" lon="10.3330333393">
		<tag k="name" v="Storvatnet" />
		<tag k="natural" v="water" />
		<tag k="ssr:stedsnr" v="924781" />
		<tag k="water" v="lake" />
	</node>
	<node id="-849760" lat="64.0379388917" lon="10.5716472252">
		<tag k="name" v="Hongdalshølen" />
		<tag k="place" v="locality" />
		<tag k="ssr:stedsnr" v="152632" />
	</node>
	<node id="-849754" lat="64.0428999988" lon="10.2607805507">
		<tag k="name" v="Gammelgårdsvatnet" />
		<tag k="natural" v="water" />
		<tag k="ssr:stedsnr" v="75251" />
	</node>
	<node id="-849749" lat="64.0175055549" lon="10.3779972224">
		<tag k="name" v="Svartdalsbekken" />
		<tag k="ssr:stedsnr" v="880852" />
		<tag k="waterway" v="stream" />
	</node>
	<node id="-849738" lat="64.0382722235" lon="10.3618888958">
		<tag k="name" v="Svarttjønna" />
		<tag k="natural" v="water" />
		<tag k="ssr:stedsnr" v="196246" />
	</node>
	<node id="-849737" lat="64.0489388898" lon="10.3285888916">
		<tag k="name" v="Rumptjønna" />
		<tag k="natural" v="water" />
		<tag k="ssr:stedsnr" v="864291" />
	</node>
	<node id="-849734" lat="64.0446972189" lon="10.6319694373">
		<tag k="name" v="Øystre Blankbergbekken" />
		<tag k="ssr:stedsnr" v="439237" />
		<tag k="waterway" v="stream" />
	</node>
	<node id="-849733" lat="64.0083500022" lon="10.4278222143">
		<tag k="name" v="Tomastjønnan" />
		<tag k="natural" v="water" />
		<tag k="ssr:stedsnr" v="273870" />
	</node>
	<node id="-847499" lat="64.0006888874" lon="10.1559472143">
		<tag k="name" v="Bjørkengsbekken" />
		<tag k="ssr:stedsnr" v="941150" />
		<tag k="waterway" v="stream" />
	</node>
	<node id="-849727" lat="64.0203638907" lon="10.5562777698">
		<tag k="name" v="Klumptjønna" />
		<tag k="natural" v="water" />
		<tag k="ssr:stedsnr" v="31625" />
	</node>
	<node id="-847678" lat="64.03308333" lon="10.0850388878">
		<tag k="name" v="Olatjønna" />
		<tag k="natural" v="water" />
		<tag k="ssr:stedsnr" v="559107" />
	</node>
	<node id="-849723" lat="64.0236750039" lon="10.5437805644">
		<tag k="name" v="Storholmen" />
		<tag k="place" v="islet" />
		<tag k="ssr:stedsnr" v="31624" />
	</node>
	<node id="-847665" lat="64.0129361153" lon="10.1363805615">
		<tag k="name" v="Olaslåttjønna" />
		<tag k="natural" v="water" />
		<tag k="ssr:stedsnr" v="257074" />
	</node>
	<node id="-847664" lat="64.091666666" lon="10.693830563">
		<tag k="name" v="Øystre Skurvelva" />
		<tag k="ssr:stedsnr" v="317289" />
		<tag k="waterway" v="river" />
	</node>
	<node id="-849711" lat="63.9253055547" lon="10.3127138966">
		<tag k="name" v="Storbukta" />
		<tag k="natural" v="bay" />
		<tag k="ssr:stedsnr" v="880044" />
	</node>
	<node id="-847662" lat="64.0560222235" lon="10.7166250017">
		<tag k="name" v="Kastbotnvatnet" />
		<tag k="natural" v="water" />
		<tag k="ssr:stedsnr" v="924241" />
		<tag k="water" v="lake" />
	</node>
	<node id="-847660" lat="64.0497916663" lon="10.6563777801">
		<tag k="name" v="Vestre Hyttjønna" />
		<tag k="natural" v="water" />
		<tag k="ssr:stedsnr" v="924242" />
	</node>
	<node id="-849703" lat="63.9358416638" lon="10.3137083336">
		<tag k="name" v="Hylla" />
		<tag k="natural" v="cape" />
		<tag k="ssr:stedsnr" v="759051" />
	</node>
	<node id="-849699" lat="63.9709277802" lon="10.2835250076">
		<tag k="name" v="Øykneset friluftsområde" />
		<tag k="natural" v="cape" />
		<tag k="ssr:stedsnr" v="891411" />
	</node>
	<node id="-849697" lat="63.9817944443" lon="10.0600444415">
		<tag k="alt_name" v="Ryssdalsvatnet" />
		<tag k="name" v="Rysdalsvatnet" />
		<tag k="natural" v="water" />
		<tag k="ssr:stedsnr" v="376735" />
	</node>
	<node id="-849695" lat="63.9315861148" lon="10.3554444486">
		<tag k="name" v="Halsen" />
		<tag k="natural" v="cape" />
		<tag k="ssr:stedsnr" v="558318" />
	</node>
	<node id="-847646" lat="63.9169166635" lon="10.3770472209">
		<tag k="name" v="Lomtjønna" />
		<tag k="natural" v="water" />
		<tag k="ssr:stedsnr" v="637920" />
	</node>
	<node id="-849692" lat="64.0102277765" lon="10.6855166706">
		<tag k="alt_name" v="Leirdalsvatnet, øvre" />
		<tag k="name" v="Øvre Leirdalsvatnet" />
		<tag k="natural" v="water" />
		<tag k="ssr:stedsnr" v="499675" />
		<tag k="water" v="lake" />
	</node>
	<node id="-849691" lat="63.9060694463" lon="10.4324888798">
		<tag k="name" v="Blåfjellfossen" />
		<tag k="natural" v="waterfall" />
		<tag k="ssr:stedsnr" v="759881" />
	</node>
	<node id="-847642" lat="63.9436972228" lon="10.6571027758">
		<tag k="name" v="Lauvhattelva" />
		<tag k="ssr:stedsnr" v="334386" />
		<tag k="waterway" v="river" />
	</node>
	<node id="-849685" lat="63.907647218" lon="10.2657444502">
		<tag k="name" v="Øver Melkåtjønna" />
		<tag k="natural" v="water" />
		<tag k="ssr:stedsnr" v="759050" />
	</node>
	<node id="-847636" lat="63.8149500006" lon="10.4422861183">
		<tag k="name" v="Juvvassneset" />
		<tag k="natural" v="cape" />
		<tag k="ssr:stedsnr" v="13472" />
	</node>
	<node id="-847633" lat="64.0800527781" lon="10.6023694401">
		<tag k="name" v="Grøndalsvatnet" />
		<tag k="natural" v="water" />
		<tag k="ssr:stedsnr" v="74328" />
	</node>
	<node id="-849678" lat="63.9911527821" lon="10.3351527811">
		<tag k="name" v="Storbekken" />
		<tag k="ssr:stedsnr" v="334852" />
		<tag k="waterway" v="stream" />
	</node>
	<node id="-849676" lat="64.0191805582" lon="10.6390694523">
		<tag k="name" v="Leirdalselva" />
		<tag k="ssr:stedsnr" v="196689" />
		<tag k="waterway" v="river" />
	</node>
	<node id="-847622" lat="63.9370431608" lon="10.5912114552">
		<tag k="name" v="Svartbekken" />
		<tag k="ssr:stedsnr" v="576411" />
		<tag k="waterway" v="stream" />
	</node>
	<node id="-847619" lat="64.088605559" lon="10.4108499967">
		<tag k="name" v="Krokvasselva" />
		<tag k="ssr:stedsnr" v="74325" />
		<tag k="waterway" v="stream" />
	</node>
	<node id="-849662" lat="64.0492638888" lon="10.1377583312">
		<tag k="name" v="Sørhauglitjønna" />
		<tag k="natural" v="water" />
		<tag k="ssr:stedsnr" v="456202" />
	</node>
	<node id="-847612" lat="64.0698499975" lon="10.1483916662">
		<tag k="name" v="Lielva" />
		<tag k="ssr:stedsnr" v="395201" />
		<tag k="waterway" v="river" />
	</node>
	<node id="-849659" lat="64.0363972204" lon="10.4252638858">
		<tag k="name" v="Holmengholmen" />
		<tag k="place" v="islet" />
		<tag k="ssr:stedsnr" v="820651" />
	</node>
	<node id="-847609" lat="63.9940277781" lon="10.0887138834">
		<tag k="name" v="Seterhalstjønna" />
		<tag k="natural" v="water" />
		<tag k="ssr:stedsnr" v="941988" />
	</node>
	<node id="-849656" lat="63.8782277749" lon="10.5222277685">
		<tag k="name" v="Andatjønna" />
		<tag k="natural" v="water" />
		<tag k="ssr:stedsnr" v="680288" />
	</node>
	<node id="-849654" lat="64.0251805569" lon="10.5463500076">
		<tag k="name" v="Skravlbukta" />
		<tag k="natural" v="bay" />
		<tag k="ssr:stedsnr" v="637560" />
	</node>
	<node id="-847602" lat="64.0089222194" lon="10.1581638943">
		<tag k="name" v="Bekkavatnet" />
		<tag k="natural" v="water" />
		<tag k="ssr:stedsnr" v="135059" />
	</node>
	<node id="-849649" lat="63.8595222267" lon="10.2308361036">
		<tag k="name" v="Arnlibekken" />
		<tag k="ssr:stedsnr" v="395660" />
		<tag k="waterway" v="stream" />
	</node>
	<node id="-847600" lat="63.9295055575" lon="10.3716972261">
		<tag k="name" v="Evja" />
		<tag k="ssr:stedsnr" v="941989" />
		<tag k="waterway" v="river" />
	</node>
	<node id="-849646" lat="63.929222226" lon="10.4033694489">
		<tag k="name" v="Evjeviknesodden" />
		<tag k="natural" v="cape" />
		<tag k="ssr:stedsnr" v="516906" />
	</node>
	<node id="-847596" lat="64.0364611129" lon="10.6042833292">
		<tag k="name" v="Grovahaugbekken" />
		<tag k="ssr:stedsnr" v="516446" />
		<tag k="waterway" v="stream" />
	</node>
	<node id="-847592" lat="64.0771805528" lon="10.4941527837">
		<tag k="name" v="Sagbekken" />
		<tag k="ssr:stedsnr" v="456574" />
		<tag k="waterway" v="stream" />
	</node>
	<node id="-847591" lat="63.9826555583" lon="10.1188722177">
		<tag k="name" v="Kvennabekken" />
		<tag k="ssr:stedsnr" v="637117" />
		<tag k="waterway" v="stream" />
	</node>
	<node id="-847586" lat="63.894888889" lon="10.3647138816">
		<tag k="name" v="Kråktjernan" />
		<tag k="natural" v="water" />
		<tag k="ssr:stedsnr" v="195342" />
	</node>
	<node id="-848507" lat="63.9382666627" lon="10.4853499997">
		<tag k="alt_name" v="Ommunddalselva" />
		<tag k="name" v="Sørdalselva" />
		<tag k="ssr:stedsnr" v="741379" />
		<tag k="waterway" v="river" />
	</node>
	<node id="-847581" lat="63.9982472186" lon="10.7796777798">
		<tag k="name" v="Skanslona" />
		<tag k="natural" v="water" />
		<tag k="ssr:stedsnr" v="516427" />
		<tag k="water" v="lake" />
	</node>
	<node id="-847580" lat="64.0102694489" lon="10.1025833338">
		<tag k="name" v="Lonvatnet" />
		<tag k="natural" v="water" />
		<tag k="ssr:stedsnr" v="559084" />
	</node>
	<node id="-849627" lat="64.0046527782" lon="10.7788944434">
		<tag k="name" v="Selavatnet" />
		<tag k="natural" v="water" />
		<tag k="ssr:stedsnr" v="152466" />
		<tag k="water" v="lake" />
	</node>
	<node id="-847576" lat="64.0856916666" lon="10.3799999996">
		<tag k="name" v="Botnheimtjønna" />
		<tag k="natural" v="water" />
		<tag k="ssr:stedsnr" v="74320" />
	</node>
	<node id="-847574" lat="64.0412611139" lon="10.2233333322">
		<tag k="name" v="Nygårdsvatnet" />
		<tag k="natural" v="water" />
		<tag k="ssr:stedsnr" v="924227" />
	</node>
	<node id="-849620" lat="64.0167027756" lon="10.2123805489">
		<tag k="name" v="Bakkelva" />
		<tag k="ssr:stedsnr" v="698212" />
		<tag k="waterway" v="river" />
	</node>
	<node id="-846798" lat="64.0365944422" lon="10.5567111041">
		<tag k="name" v="Okshølen" />
		<tag k="place" v="locality" />
		<tag k="ssr:stedsnr" v="91639" />
	</node>
	<node id="-849618" lat="64.0881333303" lon="10.4900194459">
		<tag k="name" v="Storbekken" />
		<tag k="ssr:stedsnr" v="881554" />
		<tag k="waterway" v="stream" />
	</node>
	<node id="-849616" lat="64.0471722252" lon="10.3979805628">
		<tag k="name" v="Lona" />
		<tag k="place" v="locality" />
		<tag k="ssr:stedsnr" v="256272" />
	</node>
	<node id="-847480" lat="64.0024694448" lon="10.5165472293">
		<tag k="name" v="Mebekken" />
		<tag k="ssr:stedsnr" v="456545" />
		<tag k="waterway" v="stream" />
	</node>
	<node id="-849614" lat="64.0622361153" lon="10.6797027724">
		<tag k="name" v="Lauvhattbekken" />
		<tag k="ssr:stedsnr" v="377267" />
		<tag k="waterway" v="stream" />
	</node>
	<node id="-847563" lat="63.9619861117" lon="10.2094805614">
		<tag k="name" v="Åsmundvatnet" />
		<tag k="natural" v="water" />
		<tag k="ssr:stedsnr" v="681562" />
	</node>
	<node id="-849609" lat="63.8406416688" lon="10.2314694431">
		<tag k="name" v="Smådalsbekken" />
		<tag k="ssr:stedsnr" v="577693" />
		<tag k="waterway" v="stream" />
	</node>
	<node id="-849606" lat="64.0908750004" lon="10.5152805573">
		<tag k="name" v="Musdalsbekken" />
		<tag k="ssr:stedsnr" v="881558" />
		<tag k="waterway" v="stream" />
	</node>
	<node id="-849604" lat="64.0743999978" lon="10.0396166626">
		<tag k="name" v="Dalsbekken" />
		<tag k="ssr:stedsnr" v="456177" />
		<tag k="waterway" v="stream" />
	</node>
	<node id="-849602" lat="63.8792749958" lon="10.3011944424">
		<tag k="name" v="Setertjønna" />
		<tag k="natural" v="water" />
		<tag k="ssr:stedsnr" v="527519" />
	</node>
	<node id="-847552" lat="64.053219967" lon="10.2807680459">
		<tag k="name" v="Vestre Trappvatnet" />
		<tag k="natural" v="water" />
		<tag k="old_name" v="Trappvatna, vestre" />
		<tag k="ssr:stedsnr" v="317271" />
		<tag k="water" v="lake" />
	</node>
	<node id="-847550" lat="63.9719361075" lon="10.0213055516">
		<tag k="name" v="Tørhoggvatnet" />
		<tag k="natural" v="water" />
		<tag k="ssr:stedsnr" v="213350" />
		<tag k="water" v="lake" />
	</node>
	<node id="-849597" lat="64.0681138891" lon="9.94341666602">
		<tag k="name" v="Vadtjønnbekken" />
		<tag k="ssr:stedsnr" v="213784" />
		<tag k="waterway" v="stream" />
	</node>
	<node id="-849596" lat="64.0347416625" lon="10.4227722252">
		<tag k="name" v="Gorflåholman" />
		<tag k="place" v="islet" />
		<tag k="ssr:stedsnr" v="880701" />
	</node>
	<node id="-847818" lat="64.0139833321" lon="10.3847361206">
		<tag k="name" v="Stigbekken" />
		<tag k="ssr:stedsnr" v="698825" />
		<tag k="waterway" v="stream" />
	</node>
	<node id="-849594" lat="64.013174998" lon="10.3689499938">
		<tag k="name" v="Hyllfloa" />
		<tag k="natural" v="water" />
		<tag k="ssr:stedsnr" v="576845" />
		<tag k="water" v="lake" />
	</node>
	<node id="-847543" lat="63.8803749988" lon="10.348413881">
		<tag k="name" v="Olatjønna" />
		<tag k="natural" v="water" />
		<tag k="ssr:stedsnr" v="862289" />
	</node>
	<node id="-847542" lat="63.9220611115" lon="10.2133361078">
		<tag k="name" v="Mørielva" />
		<tag k="ssr:stedsnr" v="395166" />
		<tag k="waterway" v="river" />
	</node>
	<node id="-849589" lat="64.0246722264" lon="10.26982223">
		<tag k="name" v="Kråvatnet" />
		<tag k="natural" v="water" />
		<tag k="ssr:stedsnr" v="499669" />
	</node>
	<node id="-847536" lat="63.8675388875" lon="10.2242055588">
		<tag k="name" v="Stranda" />
		<tag k="natural" v="beach" />
		<tag k="ssr:stedsnr" v="92648" />
	</node>
	<node id="-849582" lat="63.9773555533" lon="10.4099361092">
		<tag k="name" v="Byholmen" />
		<tag k="place" v="islet" />
		<tag k="ssr:stedsnr" v="213771" />
	</node>
	<node id="-848157" lat="63.9251777751" lon="10.4552666737">
		<tag k="name" v="Kvernhusfossen" />
		<tag k="natural" v="waterfall" />
		<tag k="ssr:stedsnr" v="31981" />
	</node>
	<node id="-847529" lat="63.9381361141" lon="10.3953444396">
		<tag k="name" v="Kvennabekken" />
		<tag k="ssr:stedsnr" v="637888" />
		<tag k="waterway" v="stream" />
	</node>
	<node id="-849565" lat="64.035080558" lon="10.1484194363">
		<tag k="name" v="Lavatnet" />
		<tag k="natural" v="water" />
		<tag k="ssr:stedsnr" v="196115" />
	</node>
	<node id="-848069" lat="63.9322111086" lon="10.3982916683">
		<tag k="name" v="Litlvatnet" />
		<tag k="natural" v="water" />
		<tag k="ssr:stedsnr" v="498382" />
		<tag k="water" v="lake" />
	</node>
	<node id="-849555" lat="64.0190833331" lon="10.5396333327">
		<tag k="name" v="Evja" />
		<tag k="natural" v="water" />
		<tag k="ssr:stedsnr" v="499658" />
	</node>
	<node id="-849552" lat="64.0303833334" lon="10.4068749947">
		<tag k="name" v="Kvennhusbekken" />
		<tag k="ssr:stedsnr" v="273688" />
		<tag k="waterway" v="stream" />
	</node>
	<node id="-849550" lat="63.9891944483" lon="10.3467527843">
		<tag k="name" v="Tjønnmyrbekken" />
		<tag k="ssr:stedsnr" v="759853" />
		<tag k="waterway" v="stream" />
	</node>
	<node id="-849547" lat="63.8766111067" lon="10.2228666752">
		<tag k="name" v="Nord Austdalsvatnet" />
		<tag k="natural" v="water" />
		<tag k="ssr:stedsnr" v="456159" />
		<tag k="water" v="lake" />
	</node>
	<node id="-847498" lat="64.0664527757" lon="10.5460999956">
		<tag k="name" v="Storlibekken" />
		<tag k="ssr:stedsnr" v="317264" />
		<tag k="waterway" v="stream" />
	</node>
	<node id="-847493" lat="63.928052781" lon="10.3689500043">
		<tag k="name" v="Lona" />
		<tag k="ssr:stedsnr" v="820989" />
		<tag k="waterway" v="river" />
	</node>
	<node id="-847490" lat="64.0860777766" lon="10.088661103">
		<tag k="name" v="Stordalsvatnet" />
		<tag k="natural" v="water" />
		<tag k="ssr:stedsnr" v="560148" />
	</node>
	<node id="-849536" lat="64.0521194447" lon="10.5232444546">
		<tag k="name" v="Svarttjønna" />
		<tag k="natural" v="water" />
		<tag k="ssr:stedsnr" v="256264" />
	</node>
	<node id="-849535" lat="64.0187194473" lon="10.4292361137">
		<tag k="name" v="Laksvatnet" />
		<tag k="natural" v="water" />
		<tag k="ssr:stedsnr" v="499661" />
		<tag k="water" v="lake" />
	</node>
	<node id="-849533" lat="63.9327222254" lon="10.30436111">
		<tag k="name" v="Vassoddtangen" />
		<tag k="natural" v="cape" />
		<tag k="ssr:stedsnr" v="516049" />
	</node>
	<node id="-847482" lat="63.8757861069" lon="10.2387499955">
		<tag k="name" v="Skjeftholtjønna" />
		<tag k="natural" v="water" />
		<tag k="ssr:stedsnr" v="92644" />
	</node>
	<node id="-849528" lat="64.0995555553" lon="10.7472194515">
		<tag k="name" v="Skurvtjønnin" />
		<tag k="natural" v="water" />
		<tag k="ssr:stedsnr" v="924482" />
	</node>
	<node id="-849525" lat="63.9303916637" lon="10.3297944467">
		<tag k="name" v="Ner Granodden" />
		<tag k="natural" v="cape" />
		<tag k="ssr:stedsnr" v="698999" />
	</node>
	<node id="-847472" lat="63.9988138913" lon="10.7687749945">
		<tag k="name" v="Nordlona" />
		<tag k="natural" v="water" />
		<tag k="ssr:stedsnr" v="30127" />
		<tag k="water" v="lake" />
	</node>
	<node id="-847471" lat="63.9370694422" lon="10.4131083334">
		<tag k="name" v="Hansvegbekken" />
		<tag k="ssr:stedsnr" v="941981" />
		<tag k="waterway" v="stream" />
	</node>
	<node id="-847469" lat="63.9118527784" lon="10.1305388923">
		<tag k="name" v="Loppholfossen" />
		<tag k="natural" v="waterfall" />
		<tag k="ssr:stedsnr" v="456542" />
	</node>
	<node id="-847468" lat="64.0239527808" lon="10.3178277785">
		<tag k="name" v="Bjørnbuholbekken" />
		<tag k="ssr:stedsnr" v="820142" />
		<tag k="waterway" v="stream" />
	</node>
	<node id="-849515" lat="64.1043833293" lon="10.4333666588">
		<tag k="name" v="Finnlitjønna" />
		<tag k="natural" v="water" />
		<tag k="ssr:stedsnr" v="14273" />
	</node>
	<node id="-847465" lat="64.0176500037" lon="10.1733194438">
		<tag k="name" v="Bjørnabakkvatnet" />
		<tag k="natural" v="water" />
		<tag k="ssr:stedsnr" v="803068" />
	</node>
	<node id="-849511" lat="63.9004361094" lon="10.1895305595">
		<tag k="name" v="Bjørnatjønna" />
		<tag k="natural" v="water" />
		<tag k="ssr:stedsnr" v="195606" />
	</node>
	<node id="-847461" lat="64.0105361126" lon="10.356725003">
		<tag k="name" v="Seterholmen" />
		<tag k="place" v="islet" />
		<tag k="ssr:stedsnr" v="152831" />
	</node>
	<node id="-848408" lat="63.8573666676" lon="10.3875944466">
		<tag k="name" v="Sleppen" />
		<tag k="natural" v="water" />
		<tag k="ssr:stedsnr" v="407654" />
		<tag k="water" v="lake" />
	</node>
	<node id="-847446" lat="64.0642166668" lon="10.1335972144">
		<tag k="name" v="Sunnskjørelva" />
		<tag k="ssr:stedsnr" v="941163" />
		<tag k="waterway" v="river" />
	</node>
	<node id="-847445" lat="64.0792305556" lon="10.4314777704">
		<tag k="alt_name" v="Tuvasselva" />
		<tag k="name" v="Tuvvasselva" />
		<tag k="ssr:stedsnr" v="74302" />
		<tag k="waterway" v="river" />
	</node>
	<node id="-847180" lat="63.8734444406" lon="10.4937333429">
		<tag k="name" v="Tvillingtjønnan" />
		<tag k="natural" v="water" />
		<tag k="ssr:stedsnr" v="195284" />
	</node>
	<node id="-849480" lat="63.9842750026" lon="10.2739888874">
		<tag k="name" v="Markhølen" />
		<tag k="place" v="locality" />
		<tag k="ssr:stedsnr" v="334018" />
	</node>
	<node id="-849479" lat="63.9266499959" lon="10.4546333307">
		<tag k="name" v="Rotsildbekken" />
		<tag k="ssr:stedsnr" v="698204" />
		<tag k="waterway" v="stream" />
	</node>
	<node id="-847429" lat="63.8830083322" lon="10.4229888903">
		<tag k="name" v="Saltbekktjønna" />
		<tag k="natural" v="water" />
		<tag k="ssr:stedsnr" v="498307" />
	</node>
	<node id="-847428" lat="64.0489249979" lon="10.1259611083">
		<tag k="name" v="Dromdalsvatnet" />
		<tag k="natural" v="water" />
		<tag k="ssr:stedsnr" v="637893" />
		<tag k="water" v="lake" />
	</node>
	<node id="-847426" lat="63.8961749971" lon="10.0395666615">
		<tag k="name" v="Øver Kammaelva" />
		<tag k="ssr:stedsnr" v="881069" />
		<tag k="waterway" v="river" />
	</node>
	<node id="-847423" lat="64.1128472232" lon="10.4422611106">
		<tag k="name" v="Røyrtjønnan" />
		<tag k="natural" v="water" />
		<tag k="ssr:stedsnr" v="864403" />
	</node>
	<node id="-847421" lat="63.9905916627" lon="10.4806249922">
		<tag k="name" v="Mebekken" />
		<tag k="ssr:stedsnr" v="456531" />
		<tag k="waterway" v="stream" />
	</node>
	<node id="-849468" lat="64.0320583311" lon="10.3848388927">
		<tag k="name" v="Nittaelva" />
		<tag k="ssr:stedsnr" v="196670" />
		<tag k="waterway" v="river" />
	</node>
	<node id="-849466" lat="63.9321888874" lon="10.3936916626">
		<tag k="name" v="Kastneset" />
		<tag k="natural" v="cape" />
		<tag k="ssr:stedsnr" v="516890" />
	</node>
	<node id="-849464" lat="63.9712250028" lon="10.3342499913">
		<tag k="name" v="Grøtabekken" />
		<tag k="ssr:stedsnr" v="394797" />
		<tag k="waterway" v="stream" />
	</node>
	<node id="-847415" lat="63.9920666683" lon="10.4581750051">
		<tag k="name" v="Klaushølen" />
		<tag k="place" v="locality" />
		<tag k="ssr:stedsnr" v="456529" />
	</node>
	<node id="-849462" lat="63.9280583344" lon="10.6244888901">
		<tag k="name" v="Finntjønna" />
		<tag k="natural" v="water" />
		<tag k="ssr:stedsnr" v="558324" />
	</node>
	<node id="-849459" lat="64.0979472226" lon="10.0542027682">
		<tag k="name" v="Lona" />
		<tag k="ssr:stedsnr" v="439135" />
		<tag k="waterway" v="stream" />
	</node>
	<node id="-849458" lat="64.0041611079" lon="10.1117499976">
		<tag k="name" v="Blåvatnet" />
		<tag k="natural" v="water" />
		<tag k="ssr:stedsnr" v="195096" />
	</node>
	<node id="-849456" lat="64.1116333302" lon="10.5321527754">
		<tag k="name" v="Rørskogbekken" />
		<tag k="ssr:stedsnr" v="91420" />
		<tag k="waterway" v="stream" />
	</node>
	<node id="-847400" lat="63.8997888862" lon="10.0628777872">
		<tag k="name" v="Ner Kammaelva" />
		<tag k="ssr:stedsnr" v="334333" />
		<tag k="waterway" v="river" />
	</node>
	<node id="-849446" lat="63.9708361082" lon="10.0181083391">
		<tag k="name" v="Kvennhusbekken" />
		<tag k="ssr:stedsnr" v="759045" />
		<tag k="waterway" v="stream" />
	</node>
	<node id="-849445" lat="64.0662694419" lon="10.5815944433">
		<tag k="name" v="Ørnbergtjønna" />
		<tag k="natural" v="water" />
		<tag k="ssr:stedsnr" v="256276" />
	</node>
	<node id="-849442" lat="63.9116583333" lon="10.4934833284">
		<tag k="name" v="Påltjønna" />
		<tag k="natural" v="water" />
		<tag k="ssr:stedsnr" v="558310" />
	</node>
	<node id="-847392" lat="64.0084611102" lon="10.3795805563">
		<tag k="name" v="Råbekken" />
		<tag k="ssr:stedsnr" v="637860" />
		<tag k="waterway" v="stream" />
	</node>
	<node id="-849439" lat="64.1021027806" lon="10.6352499979">
		<tag k="name" v="Litlnyvatnet" />
		<tag k="natural" v="water" />
		<tag k="ssr:stedsnr" v="257358" />
	</node>
	<node id="-849437" lat="64.0231472202" lon="10.0752000023">
		<tag k="name" v="Lunnfjordvatnet" />
		<tag k="natural" v="water" />
		<tag k="ssr:stedsnr" v="196120" />
	</node>
	<node id="-849435" lat="64.0331194431" lon="10.5574805641">
		<tag k="name" v="Tågberholmen" />
		<tag k="place" v="islet" />
		<tag k="ssr:stedsnr" v="941619" />
	</node>
	<node id="-849433" lat="63.9851944461" lon="10.3280694481">
		<tag k="name" v="Bølsmarkbekken" />
		<tag k="ssr:stedsnr" v="576013" />
		<tag k="waterway" v="stream" />
	</node>
	<node id="-848132" lat="64.0521805569" lon="10.7586777841">
		<tag k="name" v="Tarmtjønnin" />
		<tag k="natural" v="water" />
		<tag k="ssr:stedsnr" v="863975" />
	</node>
	<node id="-849429" lat="63.9689027818" lon="10.4347083283">
		<tag k="name" v="Hoggtjønna" />
		<tag k="natural" v="water" />
		<tag k="ssr:stedsnr" v="213787" />
	</node>
	<node id="-847178" lat="63.9857777767" lon="10.5901472144">
		<tag k="alt_name" v="Harravatnet" />
		<tag k="name" v="Haravatnet" />
		<tag k="natural" v="water" />
		<tag k="ssr:stedsnr" v="741178" />
		<tag k="water" v="lake" />
	</node>
	<node id="-848472" lat="63.9150388863" lon="10.1403472201">
		<tag k="alt_name" v="Krokaelva" />
		<tag k="name" v="Krokelva" />
		<tag k="ssr:stedsnr" v="134653" />
		<tag k="waterway" v="stream" />
	</node>
	<node id="-847374" lat="63.9276722242" lon="10.3572583348">
		<tag k="name" v="Skjærbuvatnet" />
		<tag k="natural" v="water" />
		<tag k="ssr:stedsnr" v="395996" />
		<tag k="water" v="lake" />
	</node>
	<node id="-847373" lat="64.0259999985" lon="9.91312499267">
		<tag k="name" v="Straumen" />
		<tag k="natural" v="water" />
		<tag k="ssr:stedsnr" v="31806" />
		<tag k="water" v="lake" />
	</node>
	<node id="-849418" lat="64.037647222" lon="10.3747944545">
		<tag k="name" v="Fjellholbekken" />
		<tag k="ssr:stedsnr" v="820636" />
		<tag k="waterway" v="stream" />
	</node>
	<node id="-847368" lat="63.9174888906" lon="10.4575833375">
		<tag k="name" v="Dummelbekken" />
		<tag k="ssr:stedsnr" v="456630" />
		<tag k="waterway" v="stream" />
	</node>
	<node id="-847367" lat="63.9641722253" lon="10.6377944503">
		<tag k="alt_name" v="Harravasselva" />
		<tag k="name" v="Haravasselva" />
		<tag k="ssr:stedsnr" v="74352" />
		<tag k="waterway" v="river" />
	</node>
	<node id="-847364" lat="63.8645305589" lon="10.3100277746">
		<tag k="name" v="Fremmer Tverrlitjønna" />
		<tag k="natural" v="water" />
		<tag k="ssr:stedsnr" v="31908" />
	</node>
	<node id="-847362" lat="63.9663138863" lon="10.4705777681">
		<tag k="name" v="Løddastjønna" />
		<tag k="natural" v="water" />
		<tag k="ssr:stedsnr" v="438344" />
	</node>
	<node id="-849405" lat="63.9824694464" lon="10.2696861039">
		<tag k="name" v="Teinhølen" />
		<tag k="place" v="locality" />
		<tag k="ssr:stedsnr" v="516016" />
	</node>
	<node id="-849401" lat="64.0173361119" lon="10.2261750003">
		<tag k="alt_name" v="Kvisla" />
		<tag k="name" v="Kvislaelva" />
		<tag k="ssr:stedsnr" v="13717" />
		<tag k="waterway" v="stream" />
	</node>
	<node id="-849399" lat="63.8137833313" lon="10.4388138879">
		<tag k="name" v="Juvvatnet" />
		<tag k="natural" v="water" />
		<tag k="ssr:stedsnr" v="816356" />
		<tag k="water" v="lake" />
	</node>
	<node id="-847785" lat="63.907738892" lon="10.2649833266">
		<tag k="name" v="Melkåtjønnan" />
		<tag k="natural" v="water" />
		<tag k="ssr:stedsnr" v="73292" />
	</node>
	<node id="-847348" lat="63.8825305532" lon="10.5549805534">
		<tag k="name" v="Storfisktjønna" />
		<tag k="natural" v="water" />
		<tag k="ssr:stedsnr" v="73294" />
	</node>
	<node id="-849392" lat="63.9569138861" lon="10.4051277765">
		<tag k="name" v="Simabakktangen" />
		<tag k="natural" v="cape" />
		<tag k="ssr:stedsnr" v="334790" />
	</node>
	<node id="-849388" lat="64.0408999985" lon="10.5919305657">
		<tag k="name" v="Tjerrabrennbekken" />
		<tag k="ssr:stedsnr" v="31408" />
		<tag k="waterway" v="stream" />
	</node>
	<node id="-847338" lat="63.8466277771" lon="10.508174993">
		<tag k="name" v="Skjerivatnet" />
		<tag k="natural" v="water" />
		<tag k="ssr:stedsnr" v="195305" />
		<tag k="water" v="lake" />
	</node>
	<node id="-849381" lat="64.0895777772" lon="10.5410250072">
		<tag k="name" v="Tjønnbekken" />
		<tag k="ssr:stedsnr" v="559334" />
		<tag k="waterway" v="stream" />
	</node>
	<node id="-847329" lat="63.9734361146" lon="10.3576972227">
		<tag k="name" v="Skravlbukta" />
		<tag k="natural" v="bay" />
		<tag k="ssr:stedsnr" v="152789" />
	</node>
	<node id="-849373" lat="64.0217944457" lon="10.1017083336">
		<tag k="name" v="Stumfossen" />
		<tag k="natural" v="waterfall" />
		<tag k="ssr:stedsnr" v="698995" />
	</node>
	<node id="-849371" lat="63.9432194467" lon="10.410397232">
		<tag k="name" v="Avlsgårdsbekken" />
		<tag k="ssr:stedsnr" v="456989" />
		<tag k="waterway" v="stream" />
	</node>
	<node id="-848949" lat="64.0117444428" lon="10.4643194372">
		<tag k="name" v="Flåvasselva" />
		<tag k="ssr:stedsnr" v="880533" />
		<tag k="waterway" v="river" />
	</node>
	<node id="-847311" lat="63.9118277782" lon="10.4052861026">
		<tag k="name" v="Hestdalbekken" />
		<tag k="ssr:stedsnr" v="941919" />
		<tag k="waterway" v="stream" />
	</node>
	<node id="-847308" lat="63.9291972179" lon="10.3733166742">
		<tag k="name" v="Spelen" />
		<tag k="natural" v="cape" />
		<tag k="ssr:stedsnr" v="820940" />
	</node>
	<node id="-849352" lat="63.9842833352" lon="10.379341666">
		<tag k="name" v="Løabakkbekken" />
		<tag k="ssr:stedsnr" v="334781" />
		<tag k="waterway" v="stream" />
	</node>
	<node id="-849343" lat="63.97735556" lon="10.0961361137">
		<tag k="name" v="Markabekken" />
		<tag k="ssr:stedsnr" v="456116" />
		<tag k="waterway" v="stream" />
	</node>
	<node id="-847290" lat="64.0220277812" lon="10.3667305564">
		<tag k="name" v="Olaustjønna" />
		<tag k="natural" v="water" />
		<tag k="ssr:stedsnr" v="637831" />
	</node>
	<node id="-849332" lat="64.0253027817" lon="10.7078388892">
		<tag k="name" v="Heitjønna" />
		<tag k="natural" v="water" />
		<tag k="ssr:stedsnr" v="499634" />
	</node>
	<node id="-847283" lat="64.0824194441" lon="10.569836113">
		<tag k="name" v="Langtjønna" />
		<tag k="natural" v="water" />
		<tag k="ssr:stedsnr" v="863325" />
	</node>
	<node id="-849330" lat="64.061888891" lon="10.0196027689">
		<tag k="name" v="Sundgårdsbekken" />
		<tag k="ssr:stedsnr" v="334775" />
		<tag k="waterway" v="stream" />
	</node>
	<node id="-849329" lat="64.0348194442" lon="10.1186611105">
		<tag k="name" v="Høgbakktjønna" />
		<tag k="natural" v="water" />
		<tag k="ssr:stedsnr" v="75101" />
	</node>
	<node id="-847432" lat="64.0844222222" lon="10.3987000024">
		<tag k="name" v="Tuvvatnet" />
		<tag k="natural" v="water" />
		<tag k="ssr:stedsnr" v="742294" />
		<tag k="water" v="lake" />
	</node>
	<node id="-847431" lat="64.0536611098" lon="10.1315416651">
		<tag k="name" v="Dromdalselva" />
		<tag k="ssr:stedsnr" v="941166" />
		<tag k="waterway" v="river" />
	</node>
	<node id="-847270" lat="63.9345000004" lon="10.351691665">
		<tag k="name" v="Storsundet" />
		<tag k="natural" v="strait" />
		<tag k="ssr:stedsnr" v="395948" />
	</node>
	<node id="-847269" lat="63.9825527795" lon="10.6481305455">
		<tag k="name" v="Steinelva" />
		<tag k="ssr:stedsnr" v="759380" />
		<tag k="waterway" v="river" />
	</node>
	<node id="-847268" lat="64.0552231492" lon="10.2976903974">
		<tag k="name" v="Trappvatna" />
		<tag k="natural" v="water" />
		<tag k="ssr:stedsnr" v="973758" />
		<tag k="water" v="lake" />
	</node>
	<node id="-847261" lat="63.9807472199" lon="10.6313416748">
		<tag k="name" v="Kampelva" />
		<tag k="ssr:stedsnr" v="759381" />
		<tag k="waterway" v="river" />
	</node>
	<node id="-847260" lat="63.8534638899" lon="10.4478583289">
		<tag k="name" v="Sandvasselva" />
		<tag k="ssr:stedsnr" v="438256" />
		<tag k="waterway" v="river" />
	</node>
	<node id="-849818" lat="63.9342222194" lon="10.3971500083">
		<tag k="name" v="Storholmen" />
		<tag k="place" v="islet" />
		<tag k="ssr:stedsnr" v="334873" />
	</node>
	<node id="-849302" lat="63.9481472264" lon="10.4501333402">
		<tag k="name" v="Veringtjønna" />
		<tag k="natural" v="water" />
		<tag k="ssr:stedsnr" v="619407" />
	</node>
	<node id="-849300" lat="63.9049611082" lon="10.1584833358">
		<tag k="name" v="Grovlivatnet" />
		<tag k="natural" v="water" />
		<tag k="ssr:stedsnr" v="863610" />
		<tag k="water" v="lake" />
	</node>
	<node id="-847249" lat="63.8630888895" lon="10.2193444509">
		<tag k="name" v="Liabekken" />
		<tag k="ssr:stedsnr" v="576317" />
		<tag k="waterway" v="stream" />
	</node>
	<node id="-847248" lat="63.914336114" lon="10.3746055595">
		<tag k="name" v="Nøkktjønna" />
		<tag k="natural" v="water" />
		<tag k="ssr:stedsnr" v="941933" />
	</node>
	<node id="-849295" lat="64.029074721" lon="9.87348387479">
		<tag k="alt_name" v="Kvennavatnet" />
		<tag k="name" v="Kvernavatnet" />
		<tag k="natural" v="water" />
		<tag k="ssr:stedsnr" v="75093" />
	</node>
	<node id="-847246" lat="64.0081722241" lon="10.485519451">
		<tag k="name" v="Kattatjønna" />
		<tag k="natural" v="water" />
		<tag k="ssr:stedsnr" v="698520" />
	</node>
	<node id="-847244" lat="63.9972222226" lon="10.5032749941">
		<tag k="name" v="Middagsbekken" />
		<tag k="ssr:stedsnr" v="698522" />
		<tag k="waterway" v="stream" />
	</node>
	<node id="-847243" lat="63.9848972259" lon="10.7001416706">
		<tag k="name" v="Merkesbekken" />
		<tag k="ssr:stedsnr" v="759377" />
		<tag k="waterway" v="stream" />
	</node>
	<node id="-849285" lat="63.9873527762" lon="10.4079055589">
		<tag k="name" v="Liabekken" />
		<tag k="ssr:stedsnr" v="516810" />
		<tag k="waterway" v="stream" />
	</node>
	<node id="-847236" lat="64.0985833362" lon="10.4676666768">
		<tag k="name" v="Stortjønna" />
		<tag k="natural" v="water" />
		<tag k="ssr:stedsnr" v="439324" />
	</node>
	<node id="-847234" lat="63.9861305528" lon="10.7706944396">
		<tag k="name" v="Solskinselva" />
		<tag k="ssr:stedsnr" v="803584" />
		<tag k="waterway" v="stream" />
	</node>
	<node id="-847233" lat="64.0483361111" lon="10.0127972185">
		<tag k="name" v="Matiasbekken" />
		<tag k="ssr:stedsnr" v="395947" />
		<tag k="waterway" v="stream" />
	</node>
	<node id="-849280" lat="63.9791888897" lon="10.3340500049">
		<tag k="name" v="Ratbukta" />
		<tag k="natural" v="bay" />
		<tag k="ssr:stedsnr" v="698952" />
	</node>
	<node id="-849276" lat="63.9944583376" lon="10.224891666">
		<tag k="name" v="Myrabekken" />
		<tag k="ssr:stedsnr" v="456106" />
		<tag k="waterway" v="stream" />
	</node>
	<node id="-849274" lat="63.9892999965" lon="10.4148361146">
		<tag k="name" v="Svabekken" />
		<tag k="ssr:stedsnr" v="334765" />
		<tag k="waterway" v="stream" />
	</node>
	<node id="-847216" lat="63.9981305526" lon="10.3030583276">
		<tag k="name" v="Sagelva" />
		<tag k="ssr:stedsnr" v="637029" />
		<tag k="waterway" v="river" />
	</node>
	<node id="-849263" lat="64.0679944482" lon="10.6776583299">
		<tag k="name" v="Øyster Skorvelva" />
		<tag k="ssr:stedsnr" v="637450" />
		<tag k="waterway" v="river" />
	</node>
	<node id="-849261" lat="63.9599861147" lon="10.5086472205">
		<tag k="name" v="Slettbekken" />
		<tag k="ssr:stedsnr" v="395565" />
		<tag k="waterway" v="stream" />
	</node>
	<node id="-847209" lat="64.0020194425" lon="10.2991638823">
		<tag k="name" v="Storholmen" />
		<tag k="place" v="islet" />
		<tag k="ssr:stedsnr" v="637028" />
	</node>
	<node id="-847420" lat="63.8562388897" lon="10.467369451">
		<tag k="name" v="Sandvatnet" />
		<tag k="natural" v="water" />
		<tag k="ssr:stedsnr" v="195314" />
	</node>
	<node id="-849250" lat="63.8368611113" lon="10.4115555646">
		<tag k="name" v="Løsvatnet" />
		<tag k="natural" v="water" />
		<tag k="ssr:stedsnr" v="164673" />
		<tag k="water" v="lake" />
	</node>
	<node id="-848442" lat="64.0581305541" lon="10.5251777714">
		<tag k="name" v="Fisktjønnbekken" />
		<tag k="ssr:stedsnr" v="516607" />
		<tag k="waterway" v="stream" />
	</node>
	<node id="-849240" lat="63.9754444424" lon="10.3497444351">
		<tag k="name" v="Litlengodden" />
		<tag k="natural" v="cape" />
		<tag k="ssr:stedsnr" v="516787" />
	</node>
	<node id="-849239" lat="63.929633336" lon="10.4479750037">
		<tag k="name" v="Stokkdalbekken" />
		<tag k="ssr:stedsnr" v="698971" />
		<tag k="waterway" v="stream" />
	</node>
	<node id="-847189" lat="64.0443777791" lon="10.1239277862">
		<tag k="name" v="Renna" />
		<tag k="ssr:stedsnr" v="274864" />
		<tag k="waterway" v="river" />
	</node>
	<node id="-849236" lat="63.9757527747" lon="10.4196722184">
		<tag k="name" v="Krekkabekken" />
		<tag k="ssr:stedsnr" v="334743" />
		<tag k="waterway" v="stream" />
	</node>
	<node id="-849231" lat="63.9050166681" lon="10.1008583358">
		<tag k="name" v="Ospvika" />
		<tag k="natural" v="bay" />
		<tag k="ssr:stedsnr" v="395543" />
	</node>
	<node id="-849228" lat="64.038797226" lon="10.3098638976">
		<tag k="name" v="Rogntjønna" />
		<tag k="natural" v="water" />
		<tag k="ssr:stedsnr" v="378260" />
	</node>
	<node id="-849227" lat="64.0660555557" lon="10.5141666634">
		<tag k="name" v="Lomstjønna" />
		<tag k="natural" v="water" />
		<tag k="ssr:stedsnr" v="681270" />
	</node>
	<node id="-849226" lat="63.880430554" lon="10.0419027715">
		<tag k="name" v="Tverrelva" />
		<tag k="ssr:stedsnr" v="456089" />
		<tag k="waterway" v="river" />
	</node>
	<node id="-847176" lat="64.0088694451" lon="10.2409305519">
		<tag k="name" v="Vallerauntjønna" />
		<tag k="natural" v="water" />
		<tag k="ssr:stedsnr" v="941072" />
	</node>
	<node id="-849222" lat="64.0725222186" lon="10.8235444432">
		<tag k="name" v="Reinsjøelva" />
		<tag k="ssr:stedsnr" v="317496" />
		<tag k="waterway" v="river" />
	</node>
	<node id="-849221" lat="63.9371666646" lon="10.6353277852">
		<tag k="name" v="Finndalsbekken" />
		<tag k="ssr:stedsnr" v="31374" />
		<tag k="waterway" v="stream" />
	</node>
	<node id="-849220" lat="63.9899916688" lon="10.0565277741">
		<tag k="name" v="Fossen" />
		<tag k="natural" v="waterfall" />
		<tag k="ssr:stedsnr" v="334740" />
	</node>
	<node id="-847167" lat="64.0757722251" lon="10.753397231">
		<tag k="name" v="Tekssjølona" />
		<tag k="place" v="locality" />
		<tag k="ssr:stedsnr" v="135533" />
	</node>
	<node id="-849214" lat="64.0563555522" lon="10.2325000092">
		<tag k="name" v="Døltjønna" />
		<tag k="natural" v="water" />
		<tag k="ssr:stedsnr" v="681267" />
	</node>
	<node id="-849212" lat="63.9704527754" lon="10.451955556">
		<tag k="name" v="Sagtjønna" />
		<tag k="natural" v="water" />
		<tag k="ssr:stedsnr" v="334753" />
	</node>
	<node id="-847163" lat="64.0253611147" lon="10.1242111139">
		<tag k="name" v="Taskvatnet" />
		<tag k="natural" v="water" />
		<tag k="ssr:stedsnr" v="577999" />
		<tag k="water" v="lake" />
	</node>
	<node id="-849208" lat="64.0040888918" lon="10.2323305567">
		<tag k="name" v="Valleraunbekken" />
		<tag k="ssr:stedsnr" v="456092" />
		<tag k="waterway" v="stream" />
	</node>
	<node id="-848436" lat="63.9075138871" lon="10.4480777816">
		<tag k="name" v="Jobekktjønna" />
		<tag k="natural" v="water" />
		<tag k="ssr:stedsnr" v="316324" />
	</node>
	<node id="-849203" lat="63.9754333342" lon="10.1613583292">
		<tag k="name" v="Sagbekken" />
		<tag k="ssr:stedsnr" v="152381" />
		<tag k="waterway" v="stream" />
	</node>
	<node id="-849199" lat="63.9982000025" lon="10.2390222231">
		<tag k="name" v="Tuvbekken" />
		<tag k="ssr:stedsnr" v="456096" />
		<tag k="waterway" v="stream" />
	</node>
	<node id="-849197" lat="63.9827861126" lon="10.4478388967">
		<tag k="name" v="Sandgrophølen" />
		<tag k="place" v="locality" />
		<tag k="ssr:stedsnr" v="334747" />
	</node>
	<node id="-847146" lat="63.8424305587" lon="10.4358277821">
		<tag k="name" v="Løsvatnet" />
		<tag k="natural" v="water" />
		<tag k="ssr:stedsnr" v="528620" />
		<tag k="water" v="lake" />
	</node>
	<node id="-847145" lat="63.942580552" lon="10.2739388832">
		<tag k="name" v="Kringlathølen" />
		<tag k="place" v="locality" />
		<tag k="ssr:stedsnr" v="820058" />
	</node>
	<node id="-847144" lat="64.0066916654" lon="10.2122166672">
		<tag k="name" v="Stigbekken" />
		<tag k="ssr:stedsnr" v="941090" />
		<tag k="waterway" v="stream" />
	</node>
	<node id="-849187" lat="63.9782194486" lon="10.3912333321">
		<tag k="name" v="Storreinhølen" />
		<tag k="place" v="locality" />
		<tag k="ssr:stedsnr" v="334730" />
	</node>
	<node id="-847138" lat="63.8855777762" lon="10.2874777821">
		<tag k="name" v="Nordholsbekken" />
		<tag k="ssr:stedsnr" v="395921" />
		<tag k="waterway" v="stream" />
	</node>
	<node id="-847135" lat="63.872358332" lon="10.514602782">
		<tag k="name" v="Grunnlåten" />
		<tag k="natural" v="water" />
		<tag k="ssr:stedsnr" v="74253" />
	</node>
	<node id="-847131" lat="64.1004333338" lon="10.5416083319">
		<tag k="name" v="Måmyrvatnet" />
		<tag k="natural" v="water" />
		<tag k="ssr:stedsnr" v="864379" />
	</node>
	<node id="-847130" lat="63.9282416639" lon="10.2625194366">
		<tag k="name" v="Ner Buskelitjønna" />
		<tag k="natural" v="water" />
		<tag k="ssr:stedsnr" v="820056" />
	</node>
	<node id="-847129" lat="63.9492472258" lon="10.2739833422">
		<tag k="name" v="Storevja" />
		<tag k="natural" v="water" />
		<tag k="ssr:stedsnr" v="395064" />
		<tag k="water" v="lake" />
	</node>
	<node id="-847125" lat="63.9716250033" lon="10.2950055465">
		<tag k="name" v="Mjøsundhammaren" />
		<tag k="natural" v="cape" />
		<tag k="ssr:stedsnr" v="637010" />
	</node>
	<node id="-849171" lat="64.0012861127" lon="10.7805916704">
		<tag k="name" v="Langtangen" />
		<tag k="natural" v="cape" />
		<tag k="ssr:stedsnr" v="560917" />
	</node>
	<node id="-847121" lat="64.0579722181" lon="10.5662472192">
		<tag k="name" v="Finnkråtjønna" />
		<tag k="natural" v="water" />
		<tag k="ssr:stedsnr" v="742249" />
	</node>
	<node id="-847120" lat="64.0087583307" lon="10.2966694391">
		<tag k="name" v="Mjøsundodden" />
		<tag k="natural" v="cape" />
		<tag k="ssr:stedsnr" v="941094" />
	</node>
	<node id="-847119" lat="63.873402782" lon="10.3255000053">
		<tag k="name" v="Sørnestjønnan" />
		<tag k="natural" v="water" />
		<tag k="ssr:stedsnr" v="225553" />
	</node>
	<node id="-849166" lat="63.9777999984" lon="10.6781527701">
		<tag k="name" v="Hundbekken" />
		<tag k="ssr:stedsnr" v="637430" />
		<tag k="waterway" v="stream" />
	</node>
	<node id="-849165" lat="64.0720027776" lon="10.5093027715">
		<tag k="name" v="Klingerstoltjønna" />
		<tag k="natural" v="water" />
		<tag k="ssr:stedsnr" v="14233" />
	</node>
	<node id="-847113" lat="63.9870888909" lon="10.6031000062">
		<tag k="name" v="Huskallen" />
		<tag k="natural" v="water" />
		<tag k="ssr:stedsnr" v="316158" />
	</node>
	<node id="-847107" lat="63.9347250044" lon="10.3080277707">
		<tag k="name" v="Lauvneset" />
		<tag k="natural" v="cape" />
		<tag k="ssr:stedsnr" v="820051" />
	</node>
	<node id="-847106" lat="64.0947805581" lon="10.7092250065">
		<tag k="name" v="Haitjønna" />
		<tag k="natural" v="water" />
		<tag k="ssr:stedsnr" v="863313" />
	</node>
	<node id="-849143" lat="63.9514416708" lon="10.5228527882">
		<tag k="name" v="Øset" />
		<tag k="natural" v="bay" />
		<tag k="ssr:stedsnr" v="880580" />
	</node>
	<node id="-847093" lat="63.9288500044" lon="10.2693972162">
		<tag k="name" v="Støabekken" />
		<tag k="ssr:stedsnr" v="820055" />
		<tag k="waterway" v="stream" />
	</node>
	<node id="-847086" lat="64.0126277798" lon="10.7283833286">
		<tag k="name" v="Gurben - Gurpenjaevrie" />
		<tag k="name:no" v="Gurben" />
		<tag k="name:sma" v="Gurpenjaevrie" />
		<tag k="natural" v="water" />
		<tag k="ssr:stedsnr" v="864907" />
		<tag k="water" v="lake" />
	</node>
	<node id="-847085" lat="64.0526694413" lon="10.2448333239">
		<tag k="name" v="Ormlitjønna" />
		<tag k="natural" v="water" />
		<tag k="ssr:stedsnr" v="742243" />
	</node>
	<node id="-849131" lat="63.9391194454" lon="10.3731166566">
		<tag k="name" v="Stokkdalbekken" />
		<tag k="ssr:stedsnr" v="698946" />
		<tag k="waterway" v="stream" />
	</node>
	<node id="-849130" lat="63.9353527754" lon="10.363877775">
		<tag k="name" v="Veita" />
		<tag k="ssr:stedsnr" v="455220" />
		<tag k="waterway" v="stream" />
	</node>
	<node id="-847078" lat="63.9384999973" lon="10.3436111067">
		<tag k="name" v="Halshauet" />
		<tag k="natural" v="cape" />
		<tag k="ssr:stedsnr" v="273999" />
	</node>
	<node id="-849123" lat="64.0188777757" lon="10.5016111105">
		<tag k="name" v="Minningsbekken" />
		<tag k="ssr:stedsnr" v="820520" />
		<tag k="waterway" v="stream" />
	</node>
	<node id="-848080" lat="64.0375666692" lon="10.1173583425">
		<tag k="name" v="Gorrtjønna" />
		<tag k="natural" v="water" />
		<tag k="ssr:stedsnr" v="681102" />
	</node>
	<node id="-849117" lat="63.9880555594" lon="10.083763879">
		<tag k="name" v="Femholmvatnet" />
		<tag k="natural" v="water" />
		<tag k="ssr:stedsnr" v="134752" />
	</node>
	<node id="-849115" lat="63.9477944481" lon="10.1360444427">
		<tag k="name" v="Strandabekken" />
		<tag k="ssr:stedsnr" v="31346" />
		<tag k="waterway" v="stream" />
	</node>
	<node id="-847064" lat="63.9100944487" lon="10.447147223">
		<tag k="name" v="Jobekken" />
		<tag k="ssr:stedsnr" v="395905" />
		<tag k="waterway" v="stream" />
	</node>
	<node id="-849111" lat="63.9327194415" lon="10.2799388896">
		<tag k="name" v="Kalhølen" />
		<tag k="place" v="locality" />
		<tag k="ssr:stedsnr" v="456059" />
	</node>
	<node id="-847060" lat="63.9333027749" lon="10.2933472155">
		<tag k="name" v="Stristraumen" />
		<tag k="ssr:stedsnr" v="395052" />
		<tag k="waterway" v="rapids" />
	</node>
	<node id="-849106" lat="64.0666277758" lon="10.0998111048">
		<tag k="name" v="Breilivatnet" />
		<tag k="natural" v="water" />
		<tag k="ssr:stedsnr" v="13149" />
	</node>
	<node id="-849105" lat="64.0251527742" lon="10.5029111163">
		<tag k="name" v="Kvennabekken" />
		<tag k="ssr:stedsnr" v="820522" />
		<tag k="waterway" v="stream" />
	</node>
	<node id="-847056" lat="64.0110277763" lon="10.31532222">
		<tag k="name" v="Merrabukta" />
		<tag k="natural" v="bay" />
		<tag k="ssr:stedsnr" v="577117" />
	</node>
	<node id="-849103" lat="64.0102694446" lon="10.2096250014">
		<tag k="name" v="Grytelva" />
		<tag k="ssr:stedsnr" v="439048" />
		<tag k="waterway" v="stream" />
	</node>
	<node id="-847053" lat="63.9680444437" lon="10.2679194352">
		<tag k="name" v="Skålvika" />
		<tag k="natural" v="bay" />
		<tag k="ssr:stedsnr" v="213245" />
	</node>
	<node id="-847043" lat="63.9318027768" lon="10.3566111082">
		<tag k="name" v="Bruraskjærbukta" />
		<tag k="natural" v="bay" />
		<tag k="ssr:stedsnr" v="273991" />
	</node>
	<node id="-847042" lat="63.9324805598" lon="10.3543638885">
		<tag k="name" v="Litlsundet" />
		<tag k="natural" v="strait" />
		<tag k="ssr:stedsnr" v="273990" />
	</node>
	<node id="-849085" lat="64.0059166625" lon="10.3041694385">
		<tag k="name" v="Mjøsundet" />
		<tag k="natural" v="strait" />
		<tag k="ssr:stedsnr" v="681787" />
	</node>
	<node id="-847036" lat="64.0246944426" lon="10.6929416712">
		<tag k="name" v="Korstjønna" />
		<tag k="natural" v="water" />
		<tag k="ssr:stedsnr" v="924668" />
	</node>
	<node id="-849083" lat="63.9484388905" lon="10.2768861107">
		<tag k="name" v="Seterevja" />
		<tag k="natural" v="water" />
		<tag k="ssr:stedsnr" v="456067" />
		<tag k="water" v="lake" />
	</node>
	<node id="-847732" lat="63.8434777803" lon="10.4365472135">
		<tag k="name" v="Løsvatnet" />
		<tag k="natural" v="water" />
		<tag k="ssr:stedsnr" v="680521" />
		<tag k="water" v="lake" />
	</node>
	<node id="-849078" lat="64.0719944432" lon="10.1811805484">
		<tag k="name" v="Simavikvatnet" />
		<tag k="natural" v="water" />
		<tag k="ssr:stedsnr" v="13146" />
	</node>
	<node id="-847029" lat="63.9959361148" lon="10.4762583309">
		<tag k="name" v="Ulvstadfossen" />
		<tag k="natural" v="waterfall" />
		<tag k="ssr:stedsnr" v="819165" />
	</node>
	<node id="-849074" lat="64.0462916655" lon="10.5284555503">
		<tag k="name" v="Storfisktjønna" />
		<tag k="natural" v="water" />
		<tag k="ssr:stedsnr" v="135268" />
	</node>
	<node id="-849072" lat="63.9114805563" lon="10.2520527724">
		<tag k="name" v="Sørbekken" />
		<tag k="ssr:stedsnr" v="213678" />
		<tag k="waterway" v="stream" />
	</node>
	<node id="-849070" lat="64.0908361108" lon="10.6250277684">
		<tag k="name" v="Bytjønna" />
		<tag k="natural" v="water" />
		<tag k="ssr:stedsnr" v="559307" />
	</node>
	<node id="-849069" lat="63.9205999972" lon="10.3487555645">
		<tag k="name" v="Skjærbuelva" />
		<tag k="ssr:stedsnr" v="619378" />
		<tag k="waterway" v="stream" />
	</node>
	<node id="-847018" lat="63.9243972222" lon="10.3885555635">
		<tag k="name" v="Vikan" />
		<tag k="natural" v="bay" />
		<tag k="ssr:stedsnr" v="880965" />
	</node>
	<node id="-849061" lat="63.9311166691" lon="10.2274833242">
		<tag k="name" v="Kvennabekken" />
		<tag k="ssr:stedsnr" v="213667" />
		<tag k="waterway" v="stream" />
	</node>
	<node id="-848411" lat="63.9191749956" lon="10.1721805653">
		<tag k="name" v="Litlnesbekken" />
		<tag k="ssr:stedsnr" v="377623" />
		<tag k="waterway" v="stream" />
	</node>
	<node id="-849053" lat="63.9271444416" lon="10.5398499938">
		<tag k="name" v="Middagsskardbekken" />
		<tag k="ssr:stedsnr" v="334702" />
		<tag k="waterway" v="stream" />
	</node>
	<node id="-848410" lat="63.9707444437" lon="10.3862000028">
		<tag k="name" v="Ugga" />
		<tag k="ssr:stedsnr" v="698774" />
		<tag k="waterway" v="river" />
	</node>
	<node id="-847000" lat="63.9166083377" lon="10.1552527786">
		<tag k="name" v="Løfta" />
		<tag k="ssr:stedsnr" v="741696" />
		<tag k="waterway" v="stream" />
	</node>
	<node id="-846998" lat="63.9182749968" lon="10.4127972154">
		<tag k="name" v="Breivollshølen" />
		<tag k="place" v="locality" />
		<tag k="ssr:stedsnr" v="820890" />
	</node>
	<node id="-849043" lat="63.950305557" lon="10.269761106">
		<tag k="name" v="Skjerva" />
		<tag k="ssr:stedsnr" v="741434" />
		<tag k="waterway" v="river" />
	</node>
	<node id="-849041" lat="64.0799694402" lon="10.482586115">
		<tag k="name" v="Granskardbekken" />
		<tag k="ssr:stedsnr" v="273570" />
		<tag k="waterway" v="stream" />
	</node>
	<node id="-846991" lat="64.0755666623" lon="10.1031555557">
		<tag k="name" v="Finnkolldalsvatnet" />
		<tag k="natural" v="water" />
		<tag k="ssr:stedsnr" v="620166" />
	</node>
	<node id="-846990" lat="64.0947111084" lon="10.5609638854">
		<tag k="name" v="Perengbekken" />
		<tag k="ssr:stedsnr" v="196300" />
		<tag k="waterway" v="stream" />
	</node>
	<node id="-846988" lat="64.051930559" lon="10.3664111203">
		<tag k="name" v="Nittalibekken" />
		<tag k="ssr:stedsnr" v="91660" />
		<tag k="waterway" v="stream" />
	</node>
	<node id="-846987" lat="64.0698944444" lon="10.1138361188">
		<tag k="name" v="Kjerkvikbekken" />
		<tag k="ssr:stedsnr" v="741165" />
		<tag k="waterway" v="stream" />
	</node>
	<node id="-846986" lat="63.9817055571" lon="10.2655027845">
		<tag k="name" v="Teinholman" />
		<tag k="place" v="islet" />
		<tag k="ssr:stedsnr" v="820020" />
	</node>
	<node id="-846984" lat="63.9329888912" lon="10.3959444385">
		<tag k="name" v="Litlholmen" />
		<tag k="place" v="islet" />
		<tag k="ssr:stedsnr" v="820894" />
	</node>
	<node id="-846982" lat="63.9790472191" lon="10.460263885">
		<tag k="name" v="Ommunddalsbekken" />
		<tag k="ssr:stedsnr" v="31713" />
		<tag k="waterway" v="stream" />
	</node>
	<node id="-846981" lat="64.0405305594" lon="10.0717777758">
		<tag k="name" v="Lianselva" />
		<tag k="ssr:stedsnr" v="213226" />
		<tag k="waterway" v="river" />
	</node>
	<node id="-849027" lat="64.0503111117" lon="10.5363166615">
		<tag k="name" v="Litlfisktjønna" />
		<tag k="natural" v="water" />
		<tag k="ssr:stedsnr" v="14216" />
	</node>
	<node id="-849019" lat="64.0162277766" lon="10.4412388889">
		<tag k="name" v="Røyrlitjønna" />
		<tag k="natural" v="water" />
		<tag k="ssr:stedsnr" v="394663" />
	</node>
	<node id="-846970" lat="63.9206861148" lon="10.1539111043">
		<tag k="name" v="Krokavatnet" />
		<tag k="natural" v="water" />
		<tag k="ssr:stedsnr" v="741695" />
	</node>
	<node id="-846969" lat="63.8073111133" lon="10.4778638888">
		<tag k="name" v="Grauttjønnan" />
		<tag k="natural" v="water" />
		<tag k="ssr:stedsnr" v="377434" />
	</node>
	<node id="-849012" lat="63.9452722255" lon="10.6859416573">
		<tag k="name" v="Nedre Sekkalona" />
		<tag k="natural" v="water" />
		<tag k="ssr:stedsnr" v="316419" />
	</node>
	<node id="-849011" lat="64.0835333304" lon="10.4853611155">
		<tag k="name" v="Øyster Granskardbekken" />
		<tag k="ssr:stedsnr" v="577571" />
		<tag k="waterway" v="stream" />
	</node>
	<node id="-849010" lat="64.0166277761" lon="10.1278972288">
		<tag k="name" v="Damvatnet" />
		<tag k="natural" v="water" />
		<tag k="ssr:stedsnr" v="439043" />
	</node>
	<node id="-849009" lat="64.0505638931" lon="10.4869805604">
		<tag k="name" v="Gåstjønna" />
		<tag k="natural" v="water" />
		<tag k="ssr:stedsnr" v="803285" />
	</node>
	<node id="-849007" lat="64.0455083294" lon="10.2828361103">
		<tag k="name" v="Okslitjønna" />
		<tag k="natural" v="water" />
		<tag k="ssr:stedsnr" v="135257" />
	</node>
	<node id="-849006" lat="63.9426861108" lon="10.5160722126">
		<tag k="name" v="Finnkråa" />
		<tag k="ssr:stedsnr" v="619370" />
		<tag k="waterway" v="stream" />
	</node>
	<node id="-846950" lat="63.9489166635" lon="10.2917611089">
		<tag k="name" v="Rogndalsbekken" />
		<tag k="ssr:stedsnr" v="680410" />
		<tag k="waterway" v="stream" />
	</node>
	<node id="-848997" lat="63.904994448" lon="10.0797055537">
		<tag k="alt_name" v="Brulivatnet, store" />
		<tag k="name" v="Brulivatnet" />
		<tag k="natural" v="water" />
		<tag k="ssr:stedsnr" v="195602" />
		<tag k="water" v="lake" />
	</node>
	<node id="-846948" lat="63.9845111085" lon="10.1230416667">
		<tag k="name" v="Litlengbekken" />
		<tag k="ssr:stedsnr" v="273116" />
		<tag k="waterway" v="stream" />
	</node>
	<node id="-848994" lat="64.0245277742" lon="10.6001305454">
		<tag k="name" v="Ospnesa" />
		<tag k="natural" v="cape" />
		<tag k="ssr:stedsnr" v="13725" />
	</node>
	<node id="-846945" lat="63.9927000013" lon="10.2737694498">
		<tag k="name" v="Buktabekken" />
		<tag k="ssr:stedsnr" v="273115" />
		<tag k="waterway" v="stream" />
	</node>
	<node id="-848987" lat="64.0387305592" lon="10.5665722252">
		<tag k="name" v="Hongdalsholmen" />
		<tag k="place" v="islet" />
		<tag k="ssr:stedsnr" v="941589" />
	</node>
	<node id="-848986" lat="64.0126166642" lon="10.2975694424">
		<tag k="name" v="Berdalsvatnet" />
		<tag k="natural" v="water" />
		<tag k="ssr:stedsnr" v="499652" />
		<tag k="water" v="lake" />
	</node>
	<node id="-846937" lat="64.0621666662" lon="10.4116444436">
		<tag k="name" v="Seterholbekken" />
		<tag k="ssr:stedsnr" v="91657" />
		<tag k="waterway" v="stream" />
	</node>
	<node id="-848984" lat="64.0092638852" lon="10.3513861094">
		<tag k="name" v="Ner Seterholmen" />
		<tag k="place" v="islet" />
		<tag k="ssr:stedsnr" v="759862" />
	</node>
	<node id="-846935" lat="63.9364916642" lon="10.3187277723">
		<tag k="name" v="Litlholmen" />
		<tag k="place" v="islet" />
		<tag k="ssr:stedsnr" v="941036" />
	</node>
	<node id="-848982" lat="63.9839638933" lon="10.2092305577">
		<tag k="name" v="Korsbekken" />
		<tag k="ssr:stedsnr" v="213756" />
		<tag k="waterway" v="stream" />
	</node>
	<node id="-846931" lat="63.9396499982" lon="10.4740861127">
		<tag k="name" v="Gråfjellbekken" />
		<tag k="ssr:stedsnr" v="31705" />
		<tag k="waterway" v="stream" />
	</node>
	<node id="-848976" lat="64.0222666662" lon="10.657613895">
		<tag k="name" v="Klumptjønnan" />
		<tag k="natural" v="water" />
		<tag k="ssr:stedsnr" v="13721" />
	</node>
	<node id="-846920" lat="63.9898333292" lon="10.0192027794">
		<tag k="name" v="Grøttingsbekken" />
		<tag k="ssr:stedsnr" v="395888" />
		<tag k="waterway" v="stream" />
	</node>
	<node id="-848965" lat="64.0817138933" lon="10.0842861083">
		<tag k="name" v="Litltjønna" />
		<tag k="natural" v="water" />
		<tag k="ssr:stedsnr" v="13190" />
	</node>
	<node id="-848964" lat="64.1030999984" lon="10.7359666608">
		<tag k="name" v="Snumpen" />
		<tag k="natural" v="water" />
		<tag k="ssr:stedsnr" v="620497" />
	</node>
	<node id="-846913" lat="63.9431194454" lon="10.3526027808">
		<tag k="name" v="Seterbekken" />
		<tag k="ssr:stedsnr" v="273961" />
		<tag k="waterway" v="stream" />
	</node>
	<node id="-846911" lat="64.0402250026" lon="10.6809583277">
		<tag k="name" v="Blankvatnet" />
		<tag k="natural" v="water" />
		<tag k="ssr:stedsnr" v="620674" />
	</node>
	<node id="-846909" lat="63.9097611091" lon="10.3827194375">
		<tag k="name" v="Halsvasstjønna" />
		<tag k="natural" v="water" />
		<tag k="ssr:stedsnr" v="880922" />
	</node>
	<node id="-846908" lat="63.9939833333" lon="10.3015166645">
		<tag k="name" v="Kastarhølen" />
		<tag k="place" v="locality" />
		<tag k="ssr:stedsnr" v="395032" />
	</node>
	<node id="-846901" lat="63.9435555537" lon="10.4635888974">
		<tag k="name" v="Larasengbekken" />
		<tag k="ssr:stedsnr" v="91644" />
		<tag k="waterway" v="stream" />
	</node>
	<node id="-848947" lat="63.9640666657" lon="10.2469055582">
		<tag k="name" v="Støvlfossen" />
		<tag k="natural" v="waterfall" />
		<tag k="ssr:stedsnr" v="334678" />
	</node>
	<node id="-846898" lat="63.9207333317" lon="10.3869666691">
		<tag k="name" v="Vikabekken" />
		<tag k="ssr:stedsnr" v="273945" />
		<tag k="waterway" v="stream" />
	</node>
	<node id="-846897" lat="64.0820583354" lon="10.7007694366">
		<tag k="name" v="Langvatnet" />
		<tag k="natural" v="water" />
		<tag k="ssr:stedsnr" v="196288" />
	</node>
	<node id="-847026" lat="63.9873916644" lon="10.4922888905">
		<tag k="name" v="Mebekktjønna" />
		<tag k="natural" v="water" />
		<tag k="ssr:stedsnr" v="924135" />
	</node>
	<node id="-848937" lat="64.0459111113" lon="10.6946749921">
		<tag k="alt_name" v="Sandvatnet, øvre" />
		<tag k="name" v="Øvre Sandvatnet" />
		<tag k="natural" v="water" />
		<tag k="ssr:stedsnr" v="135242" />
	</node>
	<node id="-848935" lat="63.9331805547" lon="10.5372972214">
		<tag k="name" v="Sauheiholbekken" />
		<tag k="ssr:stedsnr" v="759718" />
		<tag k="waterway" v="stream" />
	</node>
	<node id="-846886" lat="64.0048555551" lon="10.5050166691">
		<tag k="name" v="Sørengholmen" />
		<tag k="place" v="islet" />
		<tag k="ssr:stedsnr" v="456539" />
	</node>
	<node id="-846885" lat="63.9353694441" lon="10.3514750084">
		<tag k="name" v="Larsskjæra" />
		<tag k="place" v="islet" />
		<tag k="ssr:stedsnr" v="395998" />
	</node>
	<node id="-848930" lat="63.9559694428" lon="10.4926916641">
		<tag k="name" v="Bjørklibekken" />
		<tag k="ssr:stedsnr" v="334674" />
		<tag k="waterway" v="stream" />
	</node>
	<node id="-847024" lat="63.9867888882" lon="10.4790666652">
		<tag k="name" v="Ottskardbekken" />
		<tag k="ssr:stedsnr" v="152725" />
		<tag k="waterway" v="stream" />
	</node>
	<node id="-848922" lat="64.0158277794" lon="10.441325009">
		<tag k="name" v="Øsa" />
		<tag k="natural" v="water" />
		<tag k="ssr:stedsnr" v="681749" />
	</node>
	<node id="-848919" lat="63.929358336" lon="10.1609944428">
		<tag k="name" v="Jamtbekken" />
		<tag k="ssr:stedsnr" v="273541" />
		<tag k="waterway" v="stream" />
	</node>
	<node id="-848918" lat="63.800680553" lon="10.4669361054">
		<tag k="name" v="Litlagnettjønna" />
		<tag k="natural" v="water" />
		<tag k="ssr:stedsnr" v="620433" />
	</node>
	<node id="-846869" lat="64.0722111097" lon="10.4952083319">
		<tag k="name" v="Yttertjønna" />
		<tag k="natural" v="water" />
		<tag k="ssr:stedsnr" v="742286" />
	</node>
	<node id="-848916" lat="63.888991667" lon="10.5220361093">
		<tag k="name" v="Bjørnatjønna" />
		<tag k="natural" v="water" />
		<tag k="ssr:stedsnr" v="619353" />
	</node>
	<node id="-848913" lat="64.0205666646" lon="10.2566194356">
		<tag k="alt_name" v="Kvennavatnet" />
		<tag k="name" v="Kvernavatnet" />
		<tag k="natural" v="water" />
		<tag k="ssr:stedsnr" v="377698" />
	</node>
	<node id="-846860" lat="64.0642166656" lon="10.5547305542">
		<tag k="name" v="Åltjønna" />
		<tag k="natural" v="water" />
		<tag k="ssr:stedsnr" v="438276" />
	</node>
	<node id="-846858" lat="64.0125722218" lon="10.4189777841">
		<tag k="name" v="Bogen" />
		<tag k="natural" v="bay" />
		<tag k="ssr:stedsnr" v="455655" />
	</node>
	<node id="-848904" lat="64.0315499992" lon="10.2184888802">
		<tag k="name" v="Skottjønna" />
		<tag k="natural" v="water" />
		<tag k="ssr:stedsnr" v="135236" />
	</node>
	<node id="-848899" lat="63.9494194433" lon="10.1018000035">
		<tag k="name" v="Skolabekken" />
		<tag k="ssr:stedsnr" v="637376" />
		<tag k="waterway" v="stream" />
	</node>
	<node id="-848892" lat="64.0177861141" lon="10.3763999995">
		<tag k="name" v="Stavesfossan" />
		<tag k="natural" v="waterfall" />
		<tag k="ssr:stedsnr" v="681744" />
	</node>
	<node id="-846842" lat="63.9378555582" lon="10.4723861114">
		<tag k="name" v="Gråfjell-lona" />
		<tag k="natural" v="water" />
		<tag k="ssr:stedsnr" v="941137" />
		<tag k="water" v="lake" />
	</node>
	<node id="-848889" lat="64.0346833367" lon="10.2204888896">
		<tag k="name" v="Gammelsetervatnet" />
		<tag k="natural" v="water" />
		<tag k="ssr:stedsnr" v="803272" />
	</node>
	<node id="-846839" lat="64.0145444425" lon="10.5112027811">
		<tag k="name" v="Fossenghølen" />
		<tag k="place" v="locality" />
		<tag k="ssr:stedsnr" v="456526" />
	</node>
	<node id="-846838" lat="63.9323249987" lon="10.5422000023">
		<tag k="name" v="Stubbaunbekken" />
		<tag k="ssr:stedsnr" v="91748" />
		<tag k="waterway" v="stream" />
	</node>
	<node id="-846837" lat="63.9698916632" lon="10.3731722222">
		<tag k="name" v="Dalavika" />
		<tag k="natural" v="bay" />
		<tag k="ssr:stedsnr" v="31791" />
	</node>
	<node id="-846830" lat="63.9838888857" lon="10.2814138844">
		<tag k="name" v="Spelbekken" />
		<tag k="ssr:stedsnr" v="334219" />
		<tag k="waterway" v="stream" />
	</node>
	<node id="-848873" lat="63.935949998" lon="10.528599998">
		<tag k="name" v="Rundheibekken" />
		<tag k="ssr:stedsnr" v="516711" />
		<tag k="waterway" v="stream" />
	</node>
	<node id="-846823" lat="64.01077778" lon="10.0302916645">
		<tag k="name" v="Halsbekken" />
		<tag k="ssr:stedsnr" v="395867" />
		<tag k="waterway" v="stream" />
	</node>
	<node id="-848379" lat="63.9647666684" lon="10.3730194499">
		<tag k="name" v="Dalavikbekken" />
		<tag k="ssr:stedsnr" v="681128" />
		<tag k="waterway" v="stream" />
	</node>
	<node id="-846816" lat="64.0897416708" lon="10.4587916586">
		<tag k="name" v="Somdalstjønna" />
		<tag k="natural" v="water" />
		<tag k="ssr:stedsnr" v="196285" />
	</node>
	<node id="-846815" lat="63.9959416645" lon="10.7581666604">
		<tag k="name" v="Gurbelva" />
		<tag k="ssr:stedsnr" v="802458" />
		<tag k="waterway" v="river" />
	</node>
	<node id="-848861" lat="64.0989583311" lon="10.5538277794">
		<tag k="name" v="Persengbekken" />
		<tag k="ssr:stedsnr" v="637390" />
		<tag k="waterway" v="stream" />
	</node>
	<node id="-847841" lat="63.9969222197" lon="10.3592138802">
		<tag k="name" v="Tverrfjelltjønna" />
		<tag k="natural" v="water" />
		<tag k="ssr:stedsnr" v="698861" />
	</node>
	<node id="-848855" lat="63.9772361148" lon="10.2968305476">
		<tag k="name" v="Sandhalsbukta" />
		<tag k="natural" v="bay" />
		<tag k="ssr:stedsnr" v="456009" />
	</node>
	<node id="-848848" lat="63.9110500008" lon="10.4082055507">
		<tag k="name" v="Blåfjellbekken" />
		<tag k="ssr:stedsnr" v="698881" />
		<tag k="waterway" v="stream" />
	</node>
	<node id="-846799" lat="64.0540888877" lon="10.6720833385">
		<tag k="name" v="Øyster Hyttjønna" />
		<tag k="natural" v="water" />
		<tag k="ssr:stedsnr" v="880131" />
	</node>
	<node id="-848846" lat="63.9965555531" lon="10.2820000096">
		<tag k="name" v="Kjerkodden" />
		<tag k="natural" v="cape" />
		<tag k="ssr:stedsnr" v="377166" />
	</node>
	<node id="-848843" lat="63.906325" lon="10.3089000043">
		<tag k="name" v="Neverdalstjønnan" />
		<tag k="natural" v="water" />
		<tag k="ssr:stedsnr" v="923336" />
	</node>
	<node id="-847351" lat="63.9001805585" lon="10.1714277815">
		<tag k="name" v="Lomtjønna" />
		<tag k="natural" v="water" />
		<tag k="ssr:stedsnr" v="681600" />
	</node>
	<node id="-848839" lat="63.9784166649" lon="10.4653750066">
		<tag k="name" v="Grasdalsbekken" />
		<tag k="ssr:stedsnr" v="516694" />
		<tag k="waterway" v="stream" />
	</node>
	<node id="-848838" lat="63.928577774" lon="10.3093027802">
		<tag k="name" v="Litlskjæret" />
		<tag k="place" v="islet" />
		<tag k="ssr:stedsnr" v="698033" />
	</node>
	<node id="-846788" lat="64.0753861081" lon="10.4442583434">
		<tag k="name" v="Finnjonasbekken" />
		<tag k="ssr:stedsnr" v="91642" />
		<tag k="waterway" v="stream" />
	</node>
	<node id="-846786" lat="63.9411333353" lon="10.2768277783">
		<tag k="name" v="Øver Fosshauhølen" />
		<tag k="place" v="locality" />
		<tag k="ssr:stedsnr" v="941046" />
	</node>
	<node id="-846785" lat="63.9915944455" lon="10.2064888826">
		<tag k="name" v="Hubekken" />
		<tag k="ssr:stedsnr" v="517957" />
		<tag k="waterway" v="stream" />
	</node>
	<node id="-846784" lat="64.0678194479" lon="9.94071944987">
		<tag k="name" v="Flesaholmtjønna" />
		<tag k="natural" v="water" />
		<tag k="ssr:stedsnr" v="637771" />
	</node>
	<node id="-847349" lat="63.9997055513" lon="10.3184861067">
		<tag k="name" v="Mølslettholmen" />
		<tag k="place" v="islet" />
		<tag k="ssr:stedsnr" v="91028" />
	</node>
	<node id="-846779" lat="63.8956222249" lon="10.4047111012">
		<tag k="name" v="Båtvika" />
		<tag k="natural" v="bay" />
		<tag k="ssr:stedsnr" v="880937" />
	</node>
	<node id="-848826" lat="63.994011108" lon="10.764058343">
		<tag k="name" v="Bårdlielva" />
		<tag k="ssr:stedsnr" v="31282" />
		<tag k="waterway" v="river" />
	</node>
	<node id="-846777" lat="63.972641667" lon="10.4994916577">
		<tag k="name" v="Storvasslitjønna" />
		<tag k="natural" v="water" />
		<tag k="ssr:stedsnr" v="741155" />
	</node>
	<node id="-846774" lat="64.0076805582" lon="10.1989527724">
		<tag k="name" v="Svarttjønna" />
		<tag k="natural" v="water" />
		<tag k="ssr:stedsnr" v="273108" />
	</node>
	<node id="-848820" lat="63.925349999" lon="10.3186111082">
		<tag k="name" v="Storbuktbekken" />
		<tag k="ssr:stedsnr" v="698030" />
		<tag k="waterway" v="stream" />
	</node>
	<node id="-846771" lat="63.8926166635" lon="10.403574992">
		<tag k="name" v="Røyrodden" />
		<tag k="natural" v="cape" />
		<tag k="ssr:stedsnr" v="273947" />
	</node>
	<node id="-847005" lat="64.0221333307" lon="10.0971194504">
		<tag k="name" v="Bjørkansbekken" />
		<tag k="ssr:stedsnr" v="213234" />
		<tag k="waterway" v="stream" />
	</node>
	<node id="-848806" lat="64.0055388852" lon="9.88530278063">
		<tag k="name" v="Mådalsbekken" />
		<tag k="ssr:stedsnr" v="334657" />
		<tag k="waterway" v="stream" />
	</node>
	<node id="-848027" lat="63.8373527797" lon="10.2271777827">
		<tag k="name" v="Fantåa" />
		<tag k="ssr:stedsnr" v="698662" />
		<tag k="waterway" v="stream" />
	</node>
	<node id="-848800" lat="63.9928833352" lon="10.2999361152">
		<tag k="name" v="Storholmen" />
		<tag k="place" v="islet" />
		<tag k="ssr:stedsnr" v="698025" />
	</node>
	<node id="-848791" lat="64.069188893" lon="10.7237083291">
		<tag k="name" v="Storelva" />
		<tag k="ssr:stedsnr" v="803792" />
		<tag k="waterway" v="river" />
	</node>
	<node id="-848787" lat="63.9940388893" lon="10.4639222298">
		<tag k="name" v="Trapphølen" />
		<tag k="place" v="locality" />
		<tag k="ssr:stedsnr" v="273523" />
	</node>
	<node id="-848786" lat="63.9692722238" lon="10.6099527839">
		<tag k="name" v="Høglibekken" />
		<tag k="ssr:stedsnr" v="941420" />
		<tag k="waterway" v="stream" />
	</node>
	<node id="-848780" lat="63.9206861087" lon="10.4552249997">
		<tag k="name" v="Tangstadskravlen" />
		<tag k="natural" v="water" />
		<tag k="ssr:stedsnr" v="456869" />
		<tag k="water" v="lake" />
	</node>
	<node id="-848773" lat="63.9085250018" lon="10.2194472224">
		<tag k="name" v="Mørrivatnet" />
		<tag k="natural" v="water" />
		<tag k="ssr:stedsnr" v="13626" />
		<tag k="water" v="lake" />
	</node>
	<node id="-848668" lat="64.0838694462" lon="10.8221944404">
		<tag k="name" v="Finndalselva" />
		<tag k="ssr:stedsnr" v="75554" />
		<tag k="waterway" v="stream" />
	</node>
	<node id="-848765" lat="64.0530444429" lon="10.6709555558">
		<tag k="name" v="Øystre Hyttjønna" />
		<tag k="natural" v="water" />
		<tag k="ssr:stedsnr" v="559253" />
	</node>
	<node id="-848764" lat="64.0349472189" lon="10.3705138984">
		<tag k="name" v="Slåttamyrbekken" />
		<tag k="ssr:stedsnr" v="334637" />
		<tag k="waterway" v="stream" />
	</node>
	<node id="-848762" lat="63.9901833337" lon="10.2968388955">
		<tag k="name" v="Kalneshølen" />
		<tag k="place" v="locality" />
		<tag k="ssr:stedsnr" v="91235" />
	</node>
	<node id="-848757" lat="63.9135055594" lon="10.2513444346">
		<tag k="name" v="Nordbekken" />
		<tag k="ssr:stedsnr" v="334635" />
		<tag k="waterway" v="stream" />
	</node>
	<node id="-848751" lat="64.014877776" lon="10.4680166767">
		<tag k="name" v="Flåvatnet" />
		<tag k="natural" v="water" />
		<tag k="ssr:stedsnr" v="681738" />
	</node>
	<node id="-848750" lat="64.0059333346" lon="10.5709416662">
		<tag k="name" v="Dulmålstjønna" />
		<tag k="natural" v="water" />
		<tag k="ssr:stedsnr" v="14709" />
	</node>
	<node id="-848746" lat="63.9512138902" lon="10.2671444381">
		<tag k="name" v="Struphølen" />
		<tag k="place" v="locality" />
		<tag k="ssr:stedsnr" v="698044" />
	</node>
	<node id="-848738" lat="64.0487583305" lon="10.2433694418">
		<tag k="name" v="Røyrkromtjønna" />
		<tag k="natural" v="water" />
		<tag k="ssr:stedsnr" v="135259" />
	</node>
	<node id="-848731" lat="63.9495833358" lon="10.5175722307">
		<tag k="name" v="Lona" />
		<tag k="natural" v="water" />
		<tag k="ssr:stedsnr" v="880574" />
		<tag k="water" v="lake" />
	</node>
	<node id="-848730" lat="63.9666999959" lon="10.2964944359">
		<tag k="name" v="Stakkengbukta" />
		<tag k="natural" v="bay" />
		<tag k="ssr:stedsnr" v="456025" />
	</node>
	<node id="-850773" lat="63.8344256935" lon="10.4106257884">
		<tag k="name" v="Løsvassenden" />
		<tag k="natural" v="bay" />
		<tag k="ssr:stedsnr" v="649634" />
	</node>
	<node id="-850770" lat="64.0258000007" lon="10.4931138821">
		<tag k="name" v="Kvernatjønna" />
		<tag k="natural" v="water" />
		<tag k="ssr:stedsnr" v="620663" />
	</node>
	<node id="-848715" lat="63.9785333379" lon="10.2139138816">
		<tag k="name" v="Hutjønna" />
		<tag k="natural" v="water" />
		<tag k="ssr:stedsnr" v="134735" />
	</node>
	<node id="-850761" lat="64.0056833304" lon="10.5146972302">
		<tag k="alt_name" v="Kvennabekken" />
		<tag k="name" v="Kvernabekken" />
		<tag k="ssr:stedsnr" v="742731" />
		<tag k="waterway" v="stream" />
	</node>
	<node id="-850760" lat="63.9357138928" lon="10.4003083342">
		<tag k="name" v="Åsvika" />
		<tag k="natural" v="bay" />
		<tag k="ssr:stedsnr" v="880896" />
	</node>
	<node id="-850758" lat="64.0680583323" lon="9.94860000682">
		<tag k="name" v="Vadtjønna" />
		<tag k="natural" v="water" />
		<tag k="ssr:stedsnr" v="620120" />
	</node>
	<node id="-850756" lat="64.0798138868" lon="10.540672223">
		<tag k="name" v="Raptjønna" />
		<tag k="natural" v="water" />
		<tag k="ssr:stedsnr" v="13360" />
	</node>
	<node id="-848702" lat="63.8374249989" lon="10.4530027813">
		<tag k="name" v="Løsvatnet" />
		<tag k="natural" v="water" />
		<tag k="ssr:stedsnr" v="43617" />
		<tag k="water" v="lake" />
	</node>
	<node id="-850748" lat="64.0309694432" lon="10.3363527872">
		<tag k="name" v="Sørtjønna" />
		<tag k="natural" v="water" />
		<tag k="ssr:stedsnr" v="620672" />
	</node>
	<node id="-850747" lat="64.0058611151" lon="10.3263333352">
		<tag k="name" v="Stokkslættbekken" />
		<tag k="ssr:stedsnr" v="820845" />
		<tag k="waterway" v="stream" />
	</node>
	<node id="-848698" lat="63.8680138886" lon="10.3066999903">
		<tag k="name" v="Måstjønna" />
		<tag k="natural" v="water" />
		<tag k="ssr:stedsnr" v="456910" />
	</node>
	<node id="-848351" lat="63.9789551403" lon="10.380248953">
		<tag k="name" v="Storholmen" />
		<tag k="place" v="islet" />
		<tag k="ssr:stedsnr" v="681123" />
	</node>
	<node id="-848693" lat="63.9987777784" lon="10.0804388799">
		<tag k="name" v="Vikatjønna" />
		<tag k="natural" v="water" />
		<tag k="ssr:stedsnr" v="377705" />
	</node>
	<node id="-848690" lat="63.9317972244" lon="10.4677916673">
		<tag k="name" v="Granmarkholmen" />
		<tag k="place" v="islet" />
		<tag k="ssr:stedsnr" v="516743" />
	</node>
	<node id="-848689" lat="63.9995166699" lon="10.0558277766">
		<tag k="name" v="Kleivatjønna" />
		<tag k="natural" v="water" />
		<tag k="ssr:stedsnr" v="802760" />
	</node>
	<node id="-848688" lat="63.8366388878" lon="10.4114083234">
		<tag k="name" v="Lihtsejaevrie" />
		<tag k="natural" v="water" />
		<tag k="ssr:stedsnr" v="832662" />
		<tag k="water" v="lake" />
	</node>
	<node id="-850734" lat="64.0577583342" lon="9.98738333458">
		<tag k="name" v="Kamvatna" />
		<tag k="natural" v="water" />
		<tag k="ssr:stedsnr" v="317145" />
	</node>
	<node id="-850733" lat="64.0098305536" lon="10.7757250009">
		<tag k="name" v="Kastbotn" />
		<tag k="natural" v="water" />
		<tag k="ssr:stedsnr" v="698408" />
		<tag k="water" v="lake" />
	</node>
	<node id="-850732" lat="63.8646972208" lon="10.3089138954">
		<tag k="name" v="Fremmer Tverrlitjønna" />
		<tag k="natural" v="water" />
		<tag k="ssr:stedsnr" v="346538" />
	</node>
	<node id="-850731" lat="64.0513222261" lon="10.3000416753">
		<tag k="name" v="Bomma" />
		<tag k="natural" v="water" />
		<tag k="ssr:stedsnr" v="75284" />
	</node>
	<node id="-850729" lat="64.0216500019" lon="10.1399277699">
		<tag k="name" v="Holmvatna" />
		<tag k="natural" v="water" />
		<tag k="ssr:stedsnr" v="924101" />
	</node>
	<node id="-848680" lat="63.9748166696" lon="10.2397583416">
		<tag k="name" v="Norddalselva" />
		<tag k="ssr:stedsnr" v="377142" />
		<tag k="waterway" v="river" />
	</node>
	<node id="-848678" lat="63.9109777817" lon="10.1014361166">
		<tag k="name" v="Sæterbekken" />
		<tag k="ssr:stedsnr" v="680653" />
		<tag k="waterway" v="stream" />
	</node>
	<node id="-848672" lat="63.9766166631" lon="10.3134722308">
		<tag k="name" v="Bølsvika" />
		<tag k="natural" v="bay" />
		<tag k="ssr:stedsnr" v="256151" />
	</node>
	<node id="-848670" lat="63.9848750015" lon="10.7336250008">
		<tag k="name" v="Grønnbakkbekken" />
		<tag k="ssr:stedsnr" v="820399" />
		<tag k="waterway" v="stream" />
	</node>
	<node id="-850717" lat="63.834930195" lon="10.4107515268">
		<tag k="name" v="Løsvassenden" />
		<tag k="natural" v="bay" />
		<tag k="ssr:stedsnr" v="334215" />
	</node>
	<node id="-850716" lat="63.874855553" lon="10.3017388791">
		<tag k="name" v="Andreasbukta" />
		<tag k="natural" v="bay" />
		<tag k="ssr:stedsnr" v="273936" />
	</node>
	<node id="-850714" lat="64.0284166677" lon="10.168327777">
		<tag k="name" v="Langvatnet" />
		<tag k="natural" v="water" />
		<tag k="ssr:stedsnr" v="924095" />
		<tag k="water" v="lake" />
	</node>
	<node id="-850713" lat="64.0123694421" lon="10.3748444455">
		<tag k="name" v="Holabekken" />
		<tag k="ssr:stedsnr" v="820824" />
		<tag k="waterway" v="stream" />
	</node>
	<node id="-848664" lat="64.0509361152" lon="10.1011777858">
		<tag k="name" v="Salbuvikvatnet" />
		<tag k="natural" v="water" />
		<tag k="ssr:stedsnr" v="256152" />
	</node>
	<node id="-850710" lat="64.0075555556" lon="10.4537250051">
		<tag k="name" v="Motjønna" />
		<tag k="natural" v="water" />
		<tag k="ssr:stedsnr" v="742728" />
	</node>
	<node id="-848658" lat="64.0522944425" lon="10.6428777863">
		<tag k="name" v="Hyttjønnbekken" />
		<tag k="ssr:stedsnr" v="455123" />
		<tag k="waterway" v="stream" />
	</node>
	<node id="-848656" lat="63.9759722197" lon="10.6400027742">
		<tag k="name" v="Svarttjønna" />
		<tag k="natural" v="water" />
		<tag k="ssr:stedsnr" v="395419" />
	</node>
	<node id="-848654" lat="64.0157111121" lon="10.1963361096">
		<tag k="alt_name" v="Kvennabekken" />
		<tag k="name" v="Kvernbekken" />
		<tag k="ssr:stedsnr" v="864069" />
		<tag k="waterway" v="stream" />
	</node>
	<node id="-850701" lat="63.8148611087" lon="10.435208328">
		<tag k="name" v="Gjuvatnet" />
		<tag k="natural" v="water" />
		<tag k="ssr:stedsnr" v="346545" />
		<tag k="water" v="lake" />
	</node>
	<node id="-850699" lat="63.9610916699" lon="10.5838250037">
		<tag k="name" v="Skomakertjønna" />
		<tag k="natural" v="water" />
		<tag k="ssr:stedsnr" v="680387" />
	</node>
	<node id="-850698" lat="63.9577416673" lon="10.6788916765">
		<tag k="name" v="Finnvollbekken" />
		<tag k="ssr:stedsnr" v="376357" />
		<tag k="waterway" v="stream" />
	</node>
	<node id="-848641" lat="63.996547221" lon="10.4824305506">
		<tag k="name" v="Bjørknesbekken" />
		<tag k="ssr:stedsnr" v="213583" />
		<tag k="waterway" v="stream" />
	</node>
	<node id="-850687" lat="64.0546500035" lon="10.4173694358">
		<tag k="name" v="Trolldalsbekken" />
		<tag k="ssr:stedsnr" v="196265" />
		<tag k="waterway" v="stream" />
	</node>
	<node id="-850684" lat="63.9662694458" lon="10.4705388964">
		<tag k="name" v="Løadalsmyrtjønna" />
		<tag k="natural" v="water" />
		<tag k="ssr:stedsnr" v="637703" />
	</node>
	<node id="-848635" lat="63.9648472243" lon="10.5065333393">
		<tag k="name" v="Storvassholmen" />
		<tag k="place" v="islet" />
		<tag k="ssr:stedsnr" v="759685" />
	</node>
	<node id="-848632" lat="63.8519416691" lon="10.2254999997">
		<tag k="name" v="Lunbekken" />
		<tag k="ssr:stedsnr" v="759680" />
		<tag k="waterway" v="stream" />
	</node>
	<node id="-848340" lat="64.1007277737" lon="10.4660777853">
		<tag k="name" v="Langtjønna" />
		<tag k="natural" v="water" />
		<tag k="ssr:stedsnr" v="924321" />
	</node>
	<node id="-850678" lat="64.0386499991" lon="10.1327388965">
		<tag k="name" v="Renntjønna" />
		<tag k="natural" v="water" />
		<tag k="ssr:stedsnr" v="924077" />
	</node>
	<node id="-850677" lat="63.9941555514" lon="10.3952472229">
		<tag k="name" v="Moltdalsbekken" />
		<tag k="ssr:stedsnr" v="30788" />
		<tag k="waterway" v="stream" />
	</node>
	<node id="-848624" lat="63.9310166705" lon="10.3899722246">
		<tag k="name" v="Lonmunden" />
		<tag k="natural" v="bay" />
		<tag k="ssr:stedsnr" v="455950" />
	</node>
	<node id="-850670" lat="63.9429027777" lon="10.3019138937">
		<tag k="fixme" v="multiple name tags, choose one and add the other to alt_name" />
		<tag k="name" v="Andreasdaltjønna;Ner Rogndalstjønna" />
		<tag k="natural" v="water" />
		<tag k="ssr:stedsnr" v="134411" />
	</node>
	<node id="-848621" lat="63.9765638855" lon="10.7504333253">
		<tag k="name" v="Solskinsvatnet" />
		<tag k="natural" v="water" />
		<tag k="ssr:stedsnr" v="196532" />
	</node>
	<node id="-850668" lat="64.067583334" lon="9.95353055924">
		<tag k="name" v="Kvernhusmyrbekken" />
		<tag k="ssr:stedsnr" v="941777" />
		<tag k="waterway" v="stream" />
	</node>
	<node id="-848619" lat="63.9313277764" lon="10.3407861182">
		<tag k="alt_name" v="Øver Granodden" />
		<tag k="name" v="Granodden" />
		<tag k="natural" v="cape" />
		<tag k="ssr:stedsnr" v="316363" />
	</node>
	<node id="-848617" lat="63.8564660102" lon="10.2531867981">
		<tag k="name" v="Juvasselva" />
		<tag k="ssr:stedsnr" v="759679" />
		<tag k="waterway" v="river" />
	</node>
	<node id="-848616" lat="63.8635194456" lon="10.4644722304">
		<tag k="name" v="Langtjønna" />
		<tag k="natural" v="water" />
		<tag k="ssr:stedsnr" v="923306" />
	</node>
	<node id="-848611" lat="63.9770666701" lon="10.6310305611">
		<tag k="name" v="Svartbekken" />
		<tag k="ssr:stedsnr" v="820412" />
		<tag k="waterway" v="stream" />
	</node>
	<node id="-850657" lat="63.9116694468" lon="10.2232527849">
		<tag k="name" v="Mørriholmen" />
		<tag k="place" v="islet" />
		<tag k="ssr:stedsnr" v="196791" />
	</node>
	<node id="-848607" lat="63.8918861112" lon="10.170369453">
		<tag k="name" v="Svarttjønna" />
		<tag k="natural" v="water" />
		<tag k="ssr:stedsnr" v="13601" />
	</node>
	<node id="-850654" lat="63.9322333305" lon="10.3114138945">
		<tag k="name" v="Brentholmen" />
		<tag k="place" v="islet" />
		<tag k="ssr:stedsnr" v="13345" />
	</node>
	<node id="-850650" lat="63.8745833364" lon="10.2331555596">
		<tag k="name" v="Skjeftholsbekken" />
		<tag k="ssr:stedsnr" v="152655" />
		<tag k="waterway" v="stream" />
	</node>
	<node id="-848595" lat="64.0410249975" lon="9.98029723098">
		<tag k="name" v="Guttelvikbekken" />
		<tag k="ssr:stedsnr" v="456807" />
		<tag k="waterway" v="stream" />
	</node>
	<node id="-848590" lat="63.8731361146" lon="10.1793194523">
		<tag k="name" v="Skjerlona" />
		<tag k="natural" v="water" />
		<tag k="ssr:stedsnr" v="134148" />
	</node>
	<node id="-850632" lat="64.0230722215" lon="9.91411111296">
		<tag k="name" v="Volldalsbekken" />
		<tag k="ssr:stedsnr" v="274773" />
		<tag k="waterway" v="stream" />
	</node>
	<node id="-850629" lat="63.9837166677" lon="10.5324166598">
		<tag k="name" v="Kvernatjønna" />
		<tag k="natural" v="water" />
		<tag k="ssr:stedsnr" v="620131" />
	</node>
	<node id="-850623" lat="64.0452944487" lon="10.7350138942">
		<tag k="name" v="Finnburtjønna - Buvrientjonne" />
		<tag k="name:no" v="Finnburtjønna" />
		<tag k="name:sma" v="Buvrientjonne" />
		<tag k="natural" v="water" />
		<tag k="ssr:stedsnr" v="256951" />
	</node>
	<node id="-850622" lat="63.9882111113" lon="10.0759000009">
		<tag k="fixme" v="multiple name tags, choose one and add the other to alt_name" />
		<tag k="name" v="Damvatnet;Langvatnet" />
		<tag k="natural" v="water" />
		<tag k="ssr:stedsnr" v="195739" />
	</node>
	<node id="-850621" lat="64.0527027768" lon="10.0007888947">
		<tag k="name" v="Bjørnlivatnet" />
		<tag k="natural" v="water" />
		<tag k="ssr:stedsnr" v="317143" />
	</node>
	<node id="-850619" lat="64.016791668" lon="10.246488893">
		<tag k="name" v="Langtjønna" />
		<tag k="natural" v="water" />
		<tag k="ssr:stedsnr" v="273086" />
	</node>
	<node id="-850618" lat="64.1115722178" lon="10.7201722318">
		<tag k="name" v="Storskurvelva" />
		<tag k="ssr:stedsnr" v="14425" />
		<tag k="waterway" v="stream" />
	</node>
	<node id="-847647" lat="63.8978583303" lon="10.3202416612">
		<tag k="name" v="Langtjernan" />
		<tag k="natural" v="water" />
		<tag k="ssr:stedsnr" v="862304" />
	</node>
	<node id="-847988" lat="64.0506416669" lon="10.1555333239">
		<tag k="alt_name" v="Nedre Fossvatnet" />
		<tag k="name" v="Fossvatnet" />
		<tag k="natural" v="water" />
		<tag k="ssr:stedsnr" v="803140" />
	</node>
	<node id="-850614" lat="64.007777782" lon="10.6628888912">
		<tag k="alt_name" v="Leirdalsvatnet, nedre" />
		<tag k="name" v="Nedre Leirdalsvatnet" />
		<tag k="natural" v="water" />
		<tag k="ssr:stedsnr" v="438725" />
		<tag k="water" v="lake" />
	</node>
	<node id="-850613" lat="63.8748666698" lon="10.2982583392">
		<tag k="name" v="Andreasbukta" />
		<tag k="natural" v="bay" />
		<tag k="ssr:stedsnr" v="952510" />
	</node>
	<node id="-846963" lat="63.9638583312" lon="10.5051111081">
		<tag k="name" v="Olausbukta" />
		<tag k="natural" v="bay" />
		<tag k="ssr:stedsnr" v="152713" />
	</node>
	<node id="-850607" lat="64.0610694453" lon="10.506702776">
		<tag k="name" v="Svoltenåa" />
		<tag k="ssr:stedsnr" v="75274" />
		<tag k="waterway" v="river" />
	</node>
	<node id="-850605" lat="63.9457000032" lon="10.4041694414">
		<tag k="name" v="Okstjønnan" />
		<tag k="natural" v="water" />
		<tag k="ssr:stedsnr" v="134419" />
	</node>
	<node id="-846962" lat="64.0126361145" lon="10.3241638908">
		<tag k="name" v="Seterbekken" />
		<tag k="ssr:stedsnr" v="620681" />
		<tag k="waterway" v="stream" />
	</node>
	<node id="-850602" lat="64.0058666672" lon="10.4367638791">
		<tag k="name" v="Litlvatnet" />
		<tag k="natural" v="water" />
		<tag k="ssr:stedsnr" v="317687" />
	</node>
	<node id="-850601" lat="64.0724444477" lon="10.0899111124">
		<tag k="name" v="Stivatna" />
		<tag k="natural" v="water" />
		<tag k="ssr:stedsnr" v="620128" />
	</node>
	<node id="-850599" lat="63.8593194473" lon="10.306972232">
		<tag k="name" v="Inner Tverrlitjønna" />
		<tag k="natural" v="water" />
		<tag k="ssr:stedsnr" v="880908" />
	</node>
	<node id="-850597" lat="64.0058138877" lon="10.3761000095">
		<tag k="name" v="Seterbekken" />
		<tag k="ssr:stedsnr" v="941820" />
		<tag k="waterway" v="stream" />
	</node>
	<node id="-850763" lat="64.0369277783" lon="10.5310027682">
		<tag k="name" v="Otertjønnbekken" />
		<tag k="ssr:stedsnr" v="91629" />
		<tag k="waterway" v="stream" />
	</node>
	<node id="-850589" lat="64.0407694456" lon="10.1288833263">
		<tag k="name" v="Renna" />
		<tag k="ssr:stedsnr" v="759235" />
		<tag k="waterway" v="stream" />
	</node>
	<node id="-850587" lat="63.928716669" lon="10.0520666581">
		<tag k="name" v="Vikabekken" />
		<tag k="ssr:stedsnr" v="516240" />
		<tag k="waterway" v="stream" />
	</node>
	<node id="-850584" lat="64.0752027744" lon="10.5001666565">
		<tag k="name" v="Heimertjønna" />
		<tag k="natural" v="water" />
		<tag k="ssr:stedsnr" v="499242" />
	</node>
	<node id="-848535" lat="64.0582277767" lon="10.3773055611">
		<tag k="name" v="Litl-Nittalibekken" />
		<tag k="ssr:stedsnr" v="516635" />
		<tag k="waterway" v="stream" />
	</node>
	<node id="-850581" lat="63.9737333316" lon="10.3328111109">
		<tag k="name" v="Grøtaodden" />
		<tag k="natural" v="cape" />
		<tag k="ssr:stedsnr" v="941786" />
	</node>
	<node id="-848532" lat="64.0134333373" lon="10.4392555462">
		<tag k="name" v="Røyrlielva" />
		<tag k="ssr:stedsnr" v="759656" />
		<tag k="waterway" v="river" />
	</node>
	<node id="-850577" lat="64.0422527818" lon="10.5629861177">
		<tag k="name" v="Hongdalsbekken" />
		<tag k="ssr:stedsnr" v="439254" />
		<tag k="waterway" v="stream" />
	</node>
	<node id="-848528" lat="64.0913416655" lon="10.5320555504">
		<tag k="name" v="Tjønnesa" />
		<tag k="natural" v="cape" />
		<tag k="ssr:stedsnr" v="941383" />
	</node>
	<node id="-850572" lat="63.9783750025" lon="10.180088892">
		<tag k="name" v="Mellombekken" />
		<tag k="ssr:stedsnr" v="91609" />
		<tag k="waterway" v="stream" />
	</node>
	<node id="-848522" lat="64.0804277767" lon="10.7950583417">
		<tag k="name" v="Tekssjøen" />
		<tag k="natural" v="water" />
		<tag k="ssr:stedsnr" v="439512" />
	</node>
	<node id="-848519" lat="64.0925777736" lon="10.5295638988">
		<tag k="name" v="Tjønna" />
		<tag k="natural" v="water" />
		<tag k="ssr:stedsnr" v="941384" />
	</node>
	<node id="-850565" lat="64.0539222257" lon="10.384713884">
		<tag k="name" v="Nittavatnet" />
		<tag k="natural" v="water" />
		<tag k="ssr:stedsnr" v="864315" />
		<tag k="water" v="lake" />
	</node>
	<node id="-848511" lat="64.0404083352" lon="10.4313333244">
		<tag k="name" v="Groftengbekken" />
		<tag k="ssr:stedsnr" v="759654" />
		<tag k="waterway" v="stream" />
	</node>
	<node id="-850556" lat="63.9555689137" lon="10.3766671559">
		<tag k="name" v="Svanatjønna" />
		<tag k="natural" v="water" />
		<tag k="ssr:stedsnr" v="255343" />
	</node>
	<node id="-850555" lat="63.9759416649" lon="10.3760944479">
		<tag k="name" v="Granholmen" />
		<tag k="natural" v="cape" />
		<tag k="ssr:stedsnr" v="941794" />
	</node>
	<node id="-850553" lat="64.0455666679" lon="10.60402501">
		<tag k="name" v="Svarthollona" />
		<tag k="natural" v="water" />
		<tag k="ssr:stedsnr" v="698388" />
		<tag k="water" v="lake" />
	</node>
	<node id="-850552" lat="63.9805722187" lon="10.4698249925">
		<tag k="name" v="Kvennatrappen" />
		<tag k="natural" v="waterfall" />
		<tag k="ssr:stedsnr" v="637711" />
	</node>
	<node id="-850550" lat="63.9250444455" lon="10.4281583392">
		<tag k="name" v="Vaskarlitjønna" />
		<tag k="natural" v="water" />
		<tag k="ssr:stedsnr" v="680378" />
	</node>
	<node id="-848499" lat="64.0390666633" lon="10.0757222274">
		<tag k="name" v="Gårdaelva" />
		<tag k="ssr:stedsnr" v="92859" />
		<tag k="waterway" v="river" />
	</node>
	<node id="-848492" lat="64.0460916659" lon="10.4751083433">
		<tag k="name" v="Dyrskardbekken" />
		<tag k="ssr:stedsnr" v="213541" />
		<tag k="waterway" v="stream" />
	</node>
	<node id="-848487" lat="64.0191555522" lon="10.5452527707">
		<tag k="name" v="Evjefossen" />
		<tag k="natural" v="waterfall" />
		<tag k="ssr:stedsnr" v="759618" />
	</node>
	<node id="-850534" lat="63.9985611121" lon="10.2535972311">
		<tag k="name" v="Granskardbekken" />
		<tag k="ssr:stedsnr" v="880084" />
		<tag k="waterway" v="stream" />
	</node>
	<node id="-850529" lat="63.9571805582" lon="10.1087083373">
		<tag k="name" v="Storvikbekken" />
		<tag k="ssr:stedsnr" v="152645" />
		<tag k="waterway" v="stream" />
	</node>
	<node id="-848480" lat="63.9146333362" lon="10.1462027727">
		<tag k="name" v="Grovlielva" />
		<tag k="ssr:stedsnr" v="134654" />
		<tag k="waterway" v="stream" />
	</node>
	<node id="-848479" lat="64.060649996" lon="10.0576888967">
		<tag k="name" v="Svanabekken" />
		<tag k="ssr:stedsnr" v="698766" />
		<tag k="waterway" v="stream" />
	</node>
	<node id="-850520" lat="64.0103361137" lon="10.0928833271">
		<tag k="name" v="Staggalitjønna" />
		<tag k="natural" v="water" />
		<tag k="ssr:stedsnr" v="213971" />
	</node>
	<node id="-848470" lat="64.0158805551" lon="10.0684666586">
		<tag k="name" v="Staggalibekken" />
		<tag k="ssr:stedsnr" v="91165" />
		<tag k="waterway" v="stream" />
	</node>
	<node id="-850514" lat="64.043930552" lon="9.96990278524">
		<tag k="name" v="Kråkdalsbekken" />
		<tag k="ssr:stedsnr" v="941800" />
		<tag k="waterway" v="stream" />
	</node>
	<node id="-850510" lat="63.9709444402" lon="10.3827083389">
		<tag k="name" v="Uggdalsbukta" />
		<tag k="natural" v="bay" />
		<tag k="ssr:stedsnr" v="941801" />
	</node>
	<node id="-850509" lat="64.0416277735" lon="10.4344638852">
		<tag k="name" v="Stoen" />
		<tag k="place" v="locality" />
		<tag k="ssr:stedsnr" v="75259" />
	</node>
	<node id="-850505" lat="63.9939361147" lon="10.2709638926">
		<tag k="name" v="Svartdalsbekken" />
		<tag k="ssr:stedsnr" v="516234" />
		<tag k="waterway" v="stream" />
	</node>
	<node id="-848456" lat="64.0653777746" lon="10.5596611042">
		<tag k="name" v="Grønndalselva" />
		<tag k="ssr:stedsnr" v="334574" />
		<tag k="waterway" v="river" />
	</node>
	<node id="-850501" lat="64.0092138926" lon="10.0477666648">
		<tag k="name" v="Herfjordvatnet" />
		<tag k="natural" v="water" />
		<tag k="ssr:stedsnr" v="741114" />
	</node>
	<node id="-850499" lat="63.9134055589" lon="10.2995166671">
		<tag k="name" v="Neverdalsbekken" />
		<tag k="ssr:stedsnr" v="516232" />
		<tag k="waterway" v="stream" />
	</node>
	<node id="-850498" lat="63.9570972203" lon="10.4090055553">
		<tag k="name" v="Uggdalsvatnet" />
		<tag k="natural" v="water" />
		<tag k="ssr:stedsnr" v="680382" />
	</node>
	<node id="-850490" lat="63.9402805566" lon="10.3596027865">
		<tag k="name" v="Seterbukta" />
		<tag k="natural" v="bay" />
		<tag k="ssr:stedsnr" v="213954" />
	</node>
	<node id="-850489" lat="64.0499722214" lon="10.6334027707">
		<tag k="name" v="Olakjerkfossen" />
		<tag k="natural" v="waterfall" />
		<tag k="ssr:stedsnr" v="196241" />
	</node>
	<node id="-850486" lat="63.9644361107" lon="10.4786694356">
		<tag k="name" v="Løadalsvatnet" />
		<tag k="natural" v="water" />
		<tag k="ssr:stedsnr" v="134397" />
	</node>
	<node id="-849034" lat="64.0515000026" lon="10.3830194533">
		<tag k="name" v="Langtangen" />
		<tag k="natural" v="cape" />
		<tag k="ssr:stedsnr" v="213671" />
	</node>
	<node id="-850483" lat="63.7857250005" lon="10.4421138924">
		<tag k="name" v="Austre Skurvtjønna" />
		<tag k="natural" v="water" />
		<tag k="ssr:stedsnr" v="256375" />
	</node>
	<node id="-848434" lat="64.0764861113" lon="10.4789222296">
		<tag k="name" v="Røyrbekken" />
		<tag k="ssr:stedsnr" v="334553" />
		<tag k="waterway" v="stream" />
	</node>
	<node id="-850479" lat="63.9283444404" lon="10.362722231">
		<tag k="name" v="Skjærbuodden" />
		<tag k="natural" v="cape" />
		<tag k="ssr:stedsnr" v="576992" />
	</node>
	<node id="-850477" lat="64.0154972252" lon="10.3743527757">
		<tag k="name" v="Seterliholman" />
		<tag k="place" v="islet" />
		<tag k="ssr:stedsnr" v="273861" />
	</node>
	<node id="-848428" lat="63.8655666648" lon="10.2226138949">
		<tag k="name" v="Liabekkøra" />
		<tag k="natural" v="beach" />
		<tag k="ssr:stedsnr" v="759634" />
	</node>
	<node id="-848426" lat="64.0655638922" lon="10.5285722265">
		<tag k="name" v="Lona" />
		<tag k="natural" v="water" />
		<tag k="ssr:stedsnr" v="334554" />
		<tag k="water" v="lake" />
	</node>
	<node id="-850472" lat="63.9252694453" lon="10.3588916578">
		<tag k="name" v="Svarttjønnbekken" />
		<tag k="ssr:stedsnr" v="576995" />
		<tag k="waterway" v="stream" />
	</node>
	<node id="-850471" lat="63.9249388907" lon="10.305116667">
		<tag k="name" v="Møssatjønna" />
		<tag k="natural" v="water" />
		<tag k="ssr:stedsnr" v="134394" />
	</node>
	<node id="-848422" lat="64.107113885" lon="10.5250833282">
		<tag k="name" v="Seterbekken" />
		<tag k="ssr:stedsnr" v="820357" />
		<tag k="waterway" v="stream" />
	</node>
	<node id="-847281" lat="63.9441194484" lon="10.3390833299">
		<tag k="name" v="Sanden" />
		<tag k="natural" v="beach" />
		<tag k="ssr:stedsnr" v="395969" />
	</node>
	<node id="-848419" lat="63.9415805584" lon="10.2444361201">
		<tag k="name" v="Arnvikvatnet" />
		<tag k="natural" v="water" />
		<tag k="ssr:stedsnr" v="498424" />
	</node>
	<node id="-850465" lat="63.7854499992" lon="10.4543555631">
		<tag k="name" v="Spongtjønna" />
		<tag k="natural" v="water" />
		<tag k="ssr:stedsnr" v="378431" />
	</node>
	<node id="-850463" lat="64.034497218" lon="10.5299166564">
		<tag k="alt_name" v="Kvennavatnet" />
		<tag k="name" v="Kvernavatnet" />
		<tag k="natural" v="water" />
		<tag k="ssr:stedsnr" v="438692" />
	</node>
	<node id="-850461" lat="63.951611114" lon="10.5200499922">
		<tag k="name" v="Øsodden" />
		<tag k="natural" v="cape" />
		<tag k="ssr:stedsnr" v="91567" />
	</node>
	<node id="-850459" lat="63.97495278" lon="10.321872218">
		<tag k="name" v="Stønesodden" />
		<tag k="natural" v="cape" />
		<tag k="ssr:stedsnr" v="317110" />
	</node>
	<node id="-850458" lat="63.9537277815" lon="10.439263884">
		<tag k="name" v="Neverhaugbekken" />
		<tag k="ssr:stedsnr" v="759217" />
		<tag k="waterway" v="stream" />
	</node>
	<node id="-847279" lat="64.0388000043" lon="10.3007277706">
		<tag k="name" v="Rogntjønnbekken" />
		<tag k="ssr:stedsnr" v="941100" />
		<tag k="waterway" v="stream" />
	</node>
	<node id="-850456" lat="64.0653805579" lon="10.5335055567">
		<tag k="name" v="Kvennhusbekken" />
		<tag k="ssr:stedsnr" v="152613" />
		<tag k="waterway" v="stream" />
	</node>
	<node id="-850455" lat="63.9648777803" lon="10.4111999906">
		<tag k="name" v="Botntjønna" />
		<tag k="natural" v="water" />
		<tag k="ssr:stedsnr" v="820783" />
	</node>
	<node id="-850453" lat="63.9805444406" lon="10.3626138849">
		<tag k="alt_name" v="Langneset" />
		<tag k="name" v="Langnesodden" />
		<tag k="natural" v="cape" />
		<tag k="ssr:stedsnr" v="317111" />
	</node>
	<node id="-848403" lat="63.8999805526" lon="10.4866055632">
		<tag k="name" v="Rørtjønnan" />
		<tag k="natural" v="water" />
		<tag k="ssr:stedsnr" v="316328" />
	</node>
	<node id="-848402" lat="63.9117000034" lon="10.4336444376">
		<tag k="name" v="Kvennfossen" />
		<tag k="natural" v="waterfall" />
		<tag k="ssr:stedsnr" v="455903" />
	</node>
	<node id="-848401" lat="63.8861694478" lon="10.316474992">
		<tag k="name" v="Perlitjønnan" />
		<tag k="natural" v="water" />
		<tag k="ssr:stedsnr" v="741362" />
	</node>
	<node id="-850448" lat="64.0209722215" lon="10.4732666685">
		<tag k="name" v="Svartbekken" />
		<tag k="ssr:stedsnr" v="742702" />
		<tag k="waterway" v="stream" />
	</node>
	<node id="-848398" lat="64.0404972223" lon="10.5454555572">
		<tag k="name" v="Bjørnbekken" />
		<tag k="ssr:stedsnr" v="759626" />
		<tag k="waterway" v="stream" />
	</node>
	<node id="-848393" lat="64.1048527813" lon="10.4544694414">
		<tag k="name" v="Langvatnet" />
		<tag k="natural" v="water" />
		<tag k="ssr:stedsnr" v="924322" />
	</node>
	<node id="-848300" lat="64.05358889" lon="9.95194998994">
		<tag k="name" v="Valdskiftbekken" />
		<tag k="ssr:stedsnr" v="698749" />
		<tag k="waterway" v="stream" />
	</node>
	<node id="-850436" lat="64.0549055571" lon="10.193077774">
		<tag k="name" v="Lielvvatna" />
		<tag k="natural" v="water" />
		<tag k="ssr:stedsnr" v="317109" />
	</node>
	<node id="-848387" lat="64.0629305528" lon="10.5620722315">
		<tag k="name" v="Finnkråbekken" />
		<tag k="ssr:stedsnr" v="759598" />
		<tag k="waterway" v="stream" />
	</node>
	<node id="-850427" lat="63.998172221" lon="10.287880563">
		<tag k="name" v="Søre Berdalsvatnet" />
		<tag k="natural" v="water" />
		<tag k="ssr:stedsnr" v="74171" />
		<tag k="water" v="lake" />
	</node>
	<node id="-848373" lat="63.9477083356" lon="10.3365944395">
		<tag k="name" v="Seterbekken" />
		<tag k="ssr:stedsnr" v="91980" />
		<tag k="waterway" v="stream" />
	</node>
	<node id="-850420" lat="63.9759555601" lon="10.4793194404">
		<tag k="name" v="Litlvatnet" />
		<tag k="natural" v="water" />
		<tag k="ssr:stedsnr" v="317107" />
	</node>
	<node id="-850417" lat="64.1057722187" lon="10.5035916664">
		<tag k="name" v="Måmyrdalsbekken" />
		<tag k="ssr:stedsnr" v="698335" />
		<tag k="waterway" v="stream" />
	</node>
	<node id="-850413" lat="63.9795277812" lon="10.4283750022">
		<tag k="name" v="Gråsteinhølen" />
		<tag k="place" v="locality" />
		<tag k="ssr:stedsnr" v="820752" />
	</node>
	<node id="-848302" lat="63.928891664" lon="10.4713138909">
		<tag k="name" v="Kvitkrekkalibekken" />
		<tag k="ssr:stedsnr" v="456738" />
		<tag k="waterway" v="stream" />
	</node>
	<node id="-848363" lat="63.7996914683" lon="10.4808382033">
		<tag k="name" v="Grønlibekken" />
		<tag k="ssr:stedsnr" v="742411" />
		<tag k="waterway" v="stream" />
	</node>
	<node id="-848358" lat="64.0143694402" lon="10.4849111153">
		<tag k="name" v="Pertjønna" />
		<tag k="natural" v="water" />
		<tag k="ssr:stedsnr" v="559724" />
	</node>
	<node id="-848357" lat="64.0293083317" lon="10.1234361049">
		<tag k="name" v="Gråkamvatnet" />
		<tag k="natural" v="water" />
		<tag k="ssr:stedsnr" v="256101" />
	</node>
	<node id="-850402" lat="64.0346416641" lon="10.0923277821">
		<tag k="name" v="Storvatnet" />
		<tag k="natural" v="water" />
		<tag k="ssr:stedsnr" v="317095" />
	</node>
	<node id="-850400" lat="64.0199000033" lon="10.0944722242">
		<tag k="name" v="Småengtjønna" />
		<tag k="natural" v="water" />
		<tag k="ssr:stedsnr" v="620077" />
	</node>
	<node id="-850399" lat="63.91198333" lon="10.2834583255">
		<tag k="name" v="Svarttjønna" />
		<tag k="natural" v="water" />
		<tag k="ssr:stedsnr" v="376300" />
	</node>
	<node id="-848342" lat="63.8976361089" lon="10.2616166682">
		<tag k="name" v="Raptjønnan" />
		<tag k="natural" v="water" />
		<tag k="ssr:stedsnr" v="316321" />
	</node>
	<node id="-850389" lat="63.8755166705" lon="10.2204222308">
		<tag k="name" v="Klokkartangen" />
		<tag k="natural" v="cape" />
		<tag k="ssr:stedsnr" v="637655" />
	</node>
	<node id="-850388" lat="64.0246361135" lon="10.4181805625">
		<tag k="name" v="Laksbekken" />
		<tag k="ssr:stedsnr" v="74698" />
		<tag k="waterway" v="stream" />
	</node>
	<node id="-847950" lat="63.9328111067" lon="10.3015638964">
		<tag k="name" v="Sandbukta" />
		<tag k="natural" v="bay" />
		<tag k="ssr:stedsnr" v="91048" />
	</node>
	<node id="-848337" lat="63.8664083368" lon="10.454977786">
		<tag k="name" v="Flåvasstjønna" />
		<tag k="natural" v="water" />
		<tag k="ssr:stedsnr" v="619284" />
	</node>
	<node id="-848335" lat="64.0903972202" lon="10.1109638908">
		<tag k="name" v="Storfossen" />
		<tag k="ssr:stedsnr" v="803190" />
		<tag k="waterway" v="stream" />
	</node>
	<node id="-850382" lat="64.0246416658" lon="10.0880416635">
		<tag k="name" v="Lunnfjordelva" />
		<tag k="ssr:stedsnr" v="334974" />
		<tag k="waterway" v="river" />
	</node>
	<node id="-848333" lat="63.952399998" lon="10.5127111126">
		<tag k="name" v="Sanden" />
		<tag k="natural" v="beach" />
		<tag k="ssr:stedsnr" v="334530" />
	</node>
	<node id="-848329" lat="63.871736112" lon="10.4518111148">
		<tag k="name" v="Reinsjøen" />
		<tag k="natural" v="water" />
		<tag k="ssr:stedsnr" v="619283" />
	</node>
	<node id="-850370" lat="63.8947944489" lon="10.3313000061">
		<tag k="name" v="Estentjønna" />
		<tag k="natural" v="water" />
		<tag k="ssr:stedsnr" v="13310" />
	</node>
	<node id="-848321" lat="64.0205888868" lon="10.4395277844">
		<tag k="name" v="Laksvatnet friluftsområde" />
		<tag k="natural" v="beach" />
		<tag k="ssr:stedsnr" v="848747" />
	</node>
	<node id="-850368" lat="63.9582944465" lon="10.4197305617">
		<tag k="name" v="Seterbekken" />
		<tag k="ssr:stedsnr" v="880815" />
		<tag k="waterway" v="stream" />
	</node>
	<node id="-850367" lat="64.018577781" lon="10.4392388848">
		<tag k="name" v="Sandodden" />
		<tag k="natural" v="cape" />
		<tag k="ssr:stedsnr" v="334138" />
	</node>
	<node id="-848318" lat="63.9391222217" lon="10.3528055478">
		<tag k="name" v="Setersanden" />
		<tag k="natural" v="beach" />
		<tag k="ssr:stedsnr" v="91967" />
	</node>
	<node id="-848316" lat="63.8666055553" lon="10.4620694455">
		<tag k="name" v="Flåvatnet" />
		<tag k="natural" v="water" />
		<tag k="ssr:stedsnr" v="619280" />
	</node>
	<node id="-848313" lat="63.8471222229" lon="10.4365277823">
		<tag k="name" v="Nordbukta" />
		<tag k="natural" v="bay" />
		<tag k="ssr:stedsnr" v="589596" />
	</node>
	<node id="-848308" lat="64.0580666637" lon="10.5470027838">
		<tag k="name" v="Asbjørntjønna" />
		<tag k="natural" v="water" />
		<tag k="ssr:stedsnr" v="759603" />
	</node>
	<node id="-850350" lat="63.8846388863" lon="10.5142861048">
		<tag k="name" v="Gjermundsvatnet" />
		<tag k="natural" v="water" />
		<tag k="ssr:stedsnr" v="680338" />
	</node>
	<node id="-850349" lat="63.8701305594" lon="10.1534055537">
		<tag k="name" v="Svanalona" />
		<tag k="natural" v="water" />
		<tag k="ssr:stedsnr" v="862143" />
	</node>
	<node id="-850348" lat="63.9254277738" lon="10.4142194516">
		<tag k="name" v="Langbekken" />
		<tag k="ssr:stedsnr" v="334980" />
		<tag k="waterway" v="stream" />
	</node>
	<node id="-848294" lat="63.9941277821" lon="10.1414361159">
		<tag k="name" v="Storlibekken" />
		<tag k="ssr:stedsnr" v="152183" />
		<tag k="waterway" v="stream" />
	</node>
	<node id="-847942" lat="63.894744446" lon="10.3974138974">
		<tag k="name" v="Svartåltjønna" />
		<tag k="natural" v="water" />
		<tag k="ssr:stedsnr" v="31930" />
	</node>
	<node id="-849648" lat="63.9387138903" lon="10.2316944523">
		<tag k="name" v="Arnvikelva" />
		<tag k="ssr:stedsnr" v="558333" />
		<tag k="waterway" v="river" />
	</node>
	<node id="-850334" lat="63.9221138888" lon="10.2876249913">
		<tag k="name" v="Valbekken" />
		<tag k="ssr:stedsnr" v="880036" />
		<tag k="waterway" v="stream" />
	</node>
	<node id="-848285" lat="63.8815583299" lon="10.0602333312">
		<tag k="name" v="Hundtjønna" />
		<tag k="natural" v="water" />
		<tag k="ssr:stedsnr" v="395348" />
	</node>
	<node id="-848284" lat="64.0086527799" lon="10.2634888929">
		<tag k="name" v="Holbekken" />
		<tag k="ssr:stedsnr" v="559715" />
		<tag k="waterway" v="stream" />
	</node>
	<node id="-850328" lat="64.0215611083" lon="10.3470777808">
		<tag k="name" v="Bekkanesbekken" />
		<tag k="ssr:stedsnr" v="880837" />
		<tag k="waterway" v="stream" />
	</node>
	<node id="-848279" lat="64.0924527796" lon="10.4878444383">
		<tag k="name" v="Trollbekken" />
		<tag k="ssr:stedsnr" v="759569" />
		<tag k="waterway" v="stream" />
	</node>
	<node id="-850325" lat="63.9437083362" lon="10.3381611113">
		<tag k="name" v="Morvollseterbukta" />
		<tag k="natural" v="bay" />
		<tag k="ssr:stedsnr" v="576970" />
	</node>
	<node id="-848273" lat="64.099075" lon="10.4342194422">
		<tag k="name" v="Flåvatnet" />
		<tag k="natural" v="water" />
		<tag k="old_name" v="Elåvatnet" />
		<tag k="ssr:stedsnr" v="924304" />
	</node>
	<node id="-850319" lat="64.0412222222" lon="10.3380305476">
		<tag k="name" v="Nordtjønna" />
		<tag k="natural" v="water" />
		<tag k="ssr:stedsnr" v="499201" />
	</node>
	<node id="-850313" lat="64.0006555521" lon="10.4842833404">
		<tag k="name" v="Grafossen" />
		<tag k="natural" v="waterfall" />
		<tag k="ssr:stedsnr" v="576141" />
	</node>
	<node id="-848620" lat="63.994011108" lon="10.764058343">
		<tag k="name" v="Skanselva" />
		<tag k="ssr:stedsnr" v="924380" />
		<tag k="waterway" v="river" />
	</node>
	<node id="-848262" lat="64.0378222204" lon="10.0849777713">
		<tag k="name" v="Litlvatnet" />
		<tag k="natural" v="water" />
		<tag k="ssr:stedsnr" v="256091" />
	</node>
	<node id="-850306" lat="63.9298611077" lon="10.4057833327">
		<tag k="name" v="Dynekilen" />
		<tag k="natural" v="bay" />
		<tag k="ssr:stedsnr" v="213909" />
	</node>
	<node id="-848256" lat="64.0897999969" lon="10.5409916716">
		<tag k="name" v="Tjønnbekken" />
		<tag k="ssr:stedsnr" v="273385" />
		<tag k="waterway" v="stream" />
	</node>
	<node id="-850303" lat="64.0515638912" lon="10.1999833245">
		<tag k="name" v="Bengellivatnet" />
		<tag k="natural" v="water" />
		<tag k="ssr:stedsnr" v="742135" />
	</node>
	<node id="-848253" lat="63.9280972235" lon="10.3096444453">
		<tag k="name" v="Skjærodden" />
		<tag k="natural" v="cape" />
		<tag k="ssr:stedsnr" v="455042" />
	</node>
	<node id="-850300" lat="64.0329583361" lon="10.367700006">
		<tag k="name" v="Perengbekken" />
		<tag k="ssr:stedsnr" v="637663" />
		<tag k="waterway" v="stream" />
	</node>
	<node id="-850296" lat="63.8733611119" lon="10.3042333419">
		<tag k="name" v="Andreastjønna" />
		<tag k="natural" v="water" />
		<tag k="ssr:stedsnr" v="213911" />
	</node>
	<node id="-848238" lat="64.0634083377" lon="10.491866665">
		<tag k="name" v="Øver Brennmarkfossen" />
		<tag k="natural" v="waterfall" />
		<tag k="ssr:stedsnr" v="516576" />
	</node>
	<node id="-850283" lat="63.8808416632" lon="10.270911118">
		<tag k="name" v="Tjuvnebben" />
		<tag k="natural" v="cape" />
		<tag k="ssr:stedsnr" v="880034" />
	</node>
	<node id="-848231" lat="64.0372805522" lon="10.525197216">
		<tag k="name" v="Otertjønna" />
		<tag k="natural" v="water" />
		<tag k="ssr:stedsnr" v="560255" />
	</node>
	<node id="-850278" lat="63.8834694405" lon="10.4833305651">
		<tag k="name" v="Funnetjønna" />
		<tag k="natural" v="water" />
		<tag k="ssr:stedsnr" v="255302" />
	</node>
	<node id="-850277" lat="63.9261222181" lon="10.3721833402">
		<tag k="name" v="Storevjebekken" />
		<tag k="ssr:stedsnr" v="516991" />
		<tag k="waterway" v="stream" />
	</node>
	<node id="-848226" lat="63.9695944439" lon="10.3000861168">
		<tag k="name" v="Stordalsvatnet" />
		<tag k="natural" v="water" />
		<tag k="ssr:stedsnr" v="681121" />
		<tag k="water" v="lake" />
	</node>
	<node id="-850273" lat="63.9655249975" lon="10.2086472174">
		<tag k="name" v="Hubekken" />
		<tag k="ssr:stedsnr" v="941705" />
		<tag k="waterway" v="stream" />
	</node>
	<node id="-848223" lat="64.1063805594" lon="10.5500166612">
		<tag k="name" v="Langdalsbekken" />
		<tag k="ssr:stedsnr" v="273378" />
		<tag k="waterway" v="stream" />
	</node>
	<node id="-850269" lat="63.9529361138" lon="10.5642611119">
		<tag k="name" v="Damtjønna" />
		<tag k="natural" v="water" />
		<tag k="ssr:stedsnr" v="31573" />
	</node>
	<node id="-848218" lat="63.9873027799" lon="10.4974166714">
		<tag k="name" v="Bjørnbekktjønna" />
		<tag k="natural" v="water" />
		<tag k="ssr:stedsnr" v="135129" />
	</node>
	<node id="-848215" lat="64.0369055594" lon="10.7790944477">
		<tag k="name" v="Svartvatnet" />
		<tag k="natural" v="water" />
		<tag k="ssr:stedsnr" v="74940" />
	</node>
	<node id="-850262" lat="64.0661583364" lon="10.4589027861">
		<tag k="name" v="Seterlibekken" />
		<tag k="ssr:stedsnr" v="637632" />
		<tag k="waterway" v="stream" />
	</node>
	<node id="-848211" lat="63.8932916665" lon="10.0724499963">
		<tag k="alt_name" v="Brulivatnet, litle" />
		<tag k="fixme" v="multiple name tags, choose one and add the other to alt_name" />
		<tag k="name" v="Litlvatnet;Litle Brulivatnet" />
		<tag k="natural" v="water" />
		<tag k="ssr:stedsnr" v="802648" />
		<tag k="water" v="lake" />
	</node>
	<node id="-850258" lat="64.0497000025" lon="10.6952944476">
		<tag k="alt_name" v="Sandvatnet, nedre" />
		<tag k="name" v="Nedre Sandvatnet" />
		<tag k="natural" v="water" />
		<tag k="ssr:stedsnr" v="499192" />
	</node>
	<node id="-848209" lat="64.079961115" lon="10.5111805653">
		<tag k="name" v="Kattatjønna" />
		<tag k="natural" v="water" />
		<tag k="ssr:stedsnr" v="759580" />
	</node>
	<node id="-848207" lat="64.0152500017" lon="10.2866388832">
		<tag k="name" v="Fagerlibekken" />
		<tag k="ssr:stedsnr" v="91117" />
		<tag k="waterway" v="stream" />
	</node>
	<node id="-850254" lat="63.962541669" lon="10.403141676">
		<tag k="name" v="Uggdalsbekken" />
		<tag k="ssr:stedsnr" v="273814" />
		<tag k="waterway" v="stream" />
	</node>
	<node id="-848202" lat="63.9706166637" lon="10.4523583407">
		<tag k="name" v="Sagatjønna" />
		<tag k="natural" v="water" />
		<tag k="ssr:stedsnr" v="924316" />
	</node>
	<node id="-848198" lat="63.9484194476" lon="10.5617055613">
		<tag k="name" v="Skjerivasselva" />
		<tag k="ssr:stedsnr" v="456707" />
		<tag k="waterway" v="river" />
	</node>
	<node id="-850243" lat="63.9278472263" lon="10.3363027722">
		<tag k="name" v="Granoddbekken" />
		<tag k="ssr:stedsnr" v="516998" />
		<tag k="waterway" v="stream" />
	</node>
	<node id="-848192" lat="64.0364333335" lon="10.4361000024">
		<tag k="name" v="Høydalsbekken" />
		<tag k="ssr:stedsnr" v="152166" />
		<tag k="waterway" v="stream" />
	</node>
	<node id="-848189" lat="63.9357249959" lon="10.558666672">
		<tag k="name" v="Tverrlibekken" />
		<tag k="ssr:stedsnr" v="456713" />
		<tag k="waterway" v="stream" />
	</node>
	<node id="-850236" lat="63.9049527751" lon="10.4493305623">
		<tag k="name" v="Kleivatjønna" />
		<tag k="natural" v="water" />
		<tag k="ssr:stedsnr" v="376290" />
	</node>
	<node id="-848187" lat="63.9186999956" lon="10.2598083381">
		<tag k="name" v="Reksterfjelltjønna" />
		<tag k="natural" v="water" />
		<tag k="ssr:stedsnr" v="498397" />
	</node>
	<node id="-850232" lat="63.9027777769" lon="10.2275944529">
		<tag k="name" v="Austdalselva" />
		<tag k="ssr:stedsnr" v="395750" />
		<tag k="waterway" v="river" />
	</node>
	<node id="-847924" lat="63.9683666642" lon="10.5543305541">
		<tag k="name" v="Skjerivatnet" />
		<tag k="natural" v="water" />
		<tag k="ssr:stedsnr" v="195380" />
		<tag k="water" v="lake" />
	</node>
	<node id="-847273" lat="63.9846972228" lon="10.3659833284">
		<tag k="name" v="Bjørnbekken" />
		<tag k="ssr:stedsnr" v="31779" />
		<tag k="waterway" v="stream" />
	</node>
	<node id="-850229" lat="63.8912555599" lon="10.1426833348">
		<tag k="name" v="Langtjønna" />
		<tag k="natural" v="water" />
		<tag k="ssr:stedsnr" v="924562" />
	</node>
	<node id="-848178" lat="64.0153361139" lon="10.5105250019">
		<tag k="name" v="Litlfossen" />
		<tag k="natural" v="waterfall" />
		<tag k="ssr:stedsnr" v="334507" />
	</node>
	<node id="-850220" lat="63.9533250006" lon="10.3687861103">
		<tag k="name" v="Svanatjønnbekken" />
		<tag k="ssr:stedsnr" v="576964" />
		<tag k="waterway" v="stream" />
	</node>
	<node id="-850217" lat="63.9327861112" lon="10.3517888816">
		<tag k="name" v="Bjørnaholmen" />
		<tag k="place" v="islet" />
		<tag k="ssr:stedsnr" v="134363" />
	</node>
	<node id="-850216" lat="63.9827777744" lon="10.4599972153">
		<tag k="name" v="Kvennelva" />
		<tag k="ssr:stedsnr" v="941703" />
		<tag k="waterway" v="river" />
	</node>
	<node id="-848164" lat="63.921005553" lon="10.4173305591">
		<tag k="name" v="Moabekken" />
		<tag k="ssr:stedsnr" v="31984" />
		<tag k="waterway" v="stream" />
	</node>
	<node id="-850210" lat="63.9147416707" lon="10.3980222144">
		<tag k="name" v="Kvennabekken" />
		<tag k="ssr:stedsnr" v="576941" />
		<tag k="waterway" v="stream" />
	</node>
	<node id="-850205" lat="63.9849388931" lon="10.2772694494">
		<tag k="name" v="Skjærsvollhølen" />
		<tag k="place" v="locality" />
		<tag k="ssr:stedsnr" v="880014" />
	</node>
	<node id="-850204" lat="64.0138833362" lon="10.5105083369">
		<tag k="name" v="Storholmen" />
		<tag k="place" v="islet" />
		<tag k="ssr:stedsnr" v="152564" />
	</node>
	<node id="-850202" lat="63.9434888924" lon="10.3867527711">
		<tag k="name" v="Langtjønna" />
		<tag k="natural" v="water" />
		<tag k="ssr:stedsnr" v="802373" />
	</node>
	<node id="-848153" lat="63.878013891" lon="10.1108138911">
		<tag k="name" v="Lontjønna" />
		<tag k="natural" v="water" />
		<tag k="ssr:stedsnr" v="802621" />
	</node>
	<node id="-850200" lat="63.9495777775" lon="10.5085638908">
		<tag k="name" v="Trongstadlifossen" />
		<tag k="natural" v="waterfall" />
		<tag k="ssr:stedsnr" v="31562" />
	</node>
	<node id="-848150" lat="63.9451000003" lon="10.6977472239">
		<tag k="name" v="Øvre Sekkalona" />
		<tag k="natural" v="water" />
		<tag k="ssr:stedsnr" v="862371" />
	</node>
	<node id="-850197" lat="63.9369583321" lon="10.3535861135">
		<tag k="name" v="Skagen" />
		<tag k="natural" v="cape" />
		<tag k="ssr:stedsnr" v="334936" />
	</node>
	<node id="-848147" lat="64.0366277817" lon="10.1970888934">
		<tag k="name" v="Måstjønnan" />
		<tag k="natural" v="water" />
		<tag k="ssr:stedsnr" v="378102" />
	</node>
	<node id="-848144" lat="63.8970444487" lon="10.0502444367">
		<tag k="alt_name" v="Kammavatnet, nedre;Ner Kammavatnet" />
		<tag k="name" v="Nedre Kammavatnet" />
		<tag k="natural" v="water" />
		<tag k="ssr:stedsnr" v="377580" />
		<tag k="water" v="lake" />
	</node>
	<node id="-850187" lat="64.0147388897" lon="10.2625499936">
		<tag k="name" v="Grandalselva" />
		<tag k="ssr:stedsnr" v="576112" />
		<tag k="waterway" v="stream" />
	</node>
	<node id="-850186" lat="64.0465111133" lon="10.5282750011">
		<tag k="name" v="Fisktjønna" />
		<tag k="natural" v="water" />
		<tag k="ssr:stedsnr" v="637642" />
	</node>
	<node id="-848137" lat="64.0298527764" lon="10.4059166677">
		<tag k="name" v="Kvennhushølen" />
		<tag k="place" v="locality" />
		<tag k="ssr:stedsnr" v="455831" />
	</node>
	<node id="-848136" lat="63.8390527739" lon="10.4189500067">
		<tag k="name" v="Sundet" />
		<tag k="natural" v="strait" />
		<tag k="ssr:stedsnr" v="91928" />
	</node>
	<node id="-850183" lat="63.9424277817" lon="10.6389749926">
		<tag k="name" v="Langvasselva" />
		<tag k="ssr:stedsnr" v="802375" />
		<tag k="waterway" v="stream" />
	</node>
	<node id="-850180" lat="63.9757805571" lon="10.2432750011">
		<tag k="name" v="Hallin" />
		<tag k="natural" v="water" />
		<tag k="ssr:stedsnr" v="941720" />
		<tag k="water" v="lake" />
	</node>
	<node id="-850179" lat="63.9402944423" lon="10.3911861208">
		<tag k="name" v="Kvernatjønna" />
		<tag k="natural" v="water" />
		<tag k="ssr:stedsnr" v="802371" />
	</node>
	<node id="-850178" lat="63.9960027737" lon="10.4704611196">
		<tag k="name" v="Årbofossen" />
		<tag k="natural" v="waterfall" />
		<tag k="ssr:stedsnr" v="152568" />
	</node>
	<node id="-847232" lat="64.0158722255" lon="10.2997555616">
		<tag k="name" v="Bjørbuneset" />
		<tag k="natural" v="cape" />
		<tag k="ssr:stedsnr" v="941108" />
	</node>
	<node id="-850174" lat="63.9261333318" lon="10.3775500086">
		<tag k="name" v="Litlevjebekken" />
		<tag k="ssr:stedsnr" v="516985" />
		<tag k="waterway" v="stream" />
	</node>
	<node id="-850173" lat="63.9565722245" lon="10.6390805512">
		<tag k="name" v="Nøkktjønnbekken" />
		<tag k="ssr:stedsnr" v="576117" />
		<tag k="waterway" v="stream" />
	</node>
	<node id="-848120" lat="63.8901222229" lon="10.412491663">
		<tag k="name" v="Saltbekken" />
		<tag k="ssr:stedsnr" v="437324" />
		<tag k="waterway" v="stream" />
	</node>
	<node id="-847572" lat="64.0566111087" lon="10.3206138806">
		<tag k="name" v="Østre Trappvatnet" />
		<tag k="natural" v="water" />
		<tag k="old_name" v="Trappvatna, østre" />
		<tag k="ssr:stedsnr" v="317273" />
		<tag k="water" v="lake" />
	</node>
	<node id="-846889" lat="63.8668416678" lon="10.3842750094">
		<tag k="name" v="Borttjønnan" />
		<tag k="natural" v="water" />
		<tag k="ssr:stedsnr" v="498302" />
	</node>
	<node id="-850164" lat="63.9816583336" lon="10.3737388791">
		<tag k="name" v="Heggholmen" />
		<tag k="place" v="islet" />
		<tag k="ssr:stedsnr" v="880805" />
	</node>
	<node id="-850163" lat="63.8220666703" lon="10.4494583403">
		<tag k="alt_name" v="Skjerrivasselva" />
		<tag k="name" v="Skjerivasselva" />
		<tag k="ssr:stedsnr" v="619530" />
		<tag k="waterway" v="river" />
	</node>
	<node id="-848111" lat="63.8926972199" lon="10.0330944377">
		<tag k="alt_name" v="Kammavatnet, øvre;Øver Kammavatnet" />
		<tag k="name" v="Øvre Kammavatnet" />
		<tag k="natural" v="water" />
		<tag k="ssr:stedsnr" v="377581" />
		<tag k="water" v="lake" />
	</node>
	<node id="-848110" lat="64.0495027795" lon="10.126788881">
		<tag k="name" v="Dramdalsvatnet" />
		<tag k="natural" v="water" />
		<tag k="ssr:stedsnr" v="803145" />
	</node>
	<node id="-850157" lat="63.9038749996" lon="10.5914805601">
		<tag k="name" v="Fosstjønna" />
		<tag k="natural" v="water" />
		<tag k="ssr:stedsnr" v="255294" />
	</node>
	<node id="-850156" lat="64.0064194444" lon="10.4944305634">
		<tag k="name" v="Rottabekken" />
		<tag k="ssr:stedsnr" v="31549" />
		<tag k="waterway" v="stream" />
	</node>
	<node id="-848107" lat="63.8946500014" lon="10.554775002">
		<tag k="name" v="Prinsvatnet" />
		<tag k="natural" v="water" />
		<tag k="ssr:stedsnr" v="437327" />
	</node>
	<node id="-847911" lat="64.1138027736" lon="10.4257833373">
		<tag k="name" v="Trappvatnet" />
		<tag k="natural" v="water" />
		<tag k="ssr:stedsnr" v="742346" />
	</node>
	<node id="-850152" lat="63.9835027739" lon="10.3732805635">
		<tag k="name" v="Naustevja" />
		<tag k="natural" v="water" />
		<tag k="ssr:stedsnr" v="880807" />
	</node>
	<node id="-848252" lat="63.9382638912" lon="10.5240250082">
		<tag k="name" v="Perlibekken" />
		<tag k="ssr:stedsnr" v="698710" />
		<tag k="waterway" v="stream" />
	</node>
	<node id="-848099" lat="63.9092750028" lon="10.3201055518">
		<tag k="name" v="Skjærbutjønna" />
		<tag k="natural" v="water" />
		<tag k="ssr:stedsnr" v="437313" />
	</node>
	<node id="-850146" lat="63.8819166679" lon="10.2893166753">
		<tag k="fixme" v="multiple name tags, choose one and add the other to alt_name" />
		<tag k="name" v="Månstutjønna;Måntjønna" />
		<tag k="natural" v="water" />
		<tag k="ssr:stedsnr" v="680333" />
	</node>
	<node id="-850145" lat="63.9254972215" lon="10.3490722126">
		<tag k="name" v="Krokbekken" />
		<tag k="ssr:stedsnr" v="759998" />
		<tag k="waterway" v="stream" />
	</node>
	<node id="-848096" lat="63.9977611093" lon="10.3860722286">
		<tag k="name" v="Storskardbekken" />
		<tag k="ssr:stedsnr" v="455813" />
		<tag k="waterway" v="stream" />
	</node>
	<node id="-850143" lat="63.9302999962" lon="10.3513333393">
		<tag k="name" v="Halsenbukta" />
		<tag k="natural" v="bay" />
		<tag k="ssr:stedsnr" v="516987" />
	</node>
	<node id="-848092" lat="63.8830361152" lon="10.1135361174">
		<tag k="name" v="Granskardvatnet" />
		<tag k="natural" v="water" />
		<tag k="ssr:stedsnr" v="802629" />
		<tag k="water" v="lake" />
	</node>
	<node id="-850136" lat="63.913319444" lon="10.2280416577">
		<tag k="name" v="Neset" />
		<tag k="natural" v="cape" />
		<tag k="ssr:stedsnr" v="516138" />
	</node>
	<node id="-848086" lat="63.9988555584" lon="10.2899277809">
		<tag k="name" v="Knutholman" />
		<tag k="place" v="islet" />
		<tag k="ssr:stedsnr" v="31097" />
	</node>
	<node id="-848085" lat="63.9118583292" lon="10.4490361168">
		<tag k="name" v="Langholbekken" />
		<tag k="ssr:stedsnr" v="91915" />
		<tag k="waterway" v="stream" />
	</node>
	<node id="-850132" lat="63.9351027796" lon="10.4618583393">
		<tag k="name" v="Tjønnmyrbekken" />
		<tag k="ssr:stedsnr" v="880769" />
		<tag k="waterway" v="stream" />
	</node>
	<node id="-850128" lat="63.9287277748" lon="10.4646138825">
		<tag k="name" v="Granmarklona" />
		<tag k="natural" v="water" />
		<tag k="ssr:stedsnr" v="880768" />
		<tag k="water" v="lake" />
	</node>
	<node id="-850125" lat="63.9849305589" lon="10.1357361188">
		<tag k="name" v="Sagelva" />
		<tag k="ssr:stedsnr" v="576099" />
		<tag k="waterway" v="river" />
	</node>
	<node id="-850124" lat="63.9346444466" lon="10.4693083235">
		<tag k="name" v="Tjønnmyrlona" />
		<tag k="natural" v="water" />
		<tag k="ssr:stedsnr" v="880770" />
		<tag k="water" v="lake" />
	</node>
	<node id="-847013" lat="64.0150749964" lon="10.1874500075">
		<tag k="name" v="Litllivatnet" />
		<tag k="natural" v="water" />
		<tag k="ssr:stedsnr" v="560065" />
	</node>
	<node id="-850120" lat="63.9705222239" lon="10.284363887">
		<tag k="name" v="Øykneset" />
		<tag k="natural" v="cape" />
		<tag k="ssr:stedsnr" v="74136" />
	</node>
	<node id="-848070" lat="63.9649638922" lon="10.4712694396">
		<tag k="name" v="Smånesbekken" />
		<tag k="ssr:stedsnr" v="456686" />
		<tag k="waterway" v="stream" />
	</node>
	<node id="-850117" lat="63.9507999969" lon="10.2686083378">
		<tag k="name" v="Strupen" />
		<tag k="ssr:stedsnr" v="213072" />
		<tag k="waterway" v="rapids" />
	</node>
	<node id="-850116" lat="63.9061250011" lon="10.2551972173">
		<tag k="name" v="Melkåa" />
		<tag k="ssr:stedsnr" v="881634" />
		<tag k="waterway" v="river" />
	</node>
	<node id="-848064" lat="63.9384749981" lon="10.6053999929">
		<tag k="name" v="Storfjellselva" />
		<tag k="ssr:stedsnr" v="73323" />
		<tag k="waterway" v="river" />
	</node>
	<node id="-848060" lat="63.9829833295" lon="10.4734138928">
		<tag k="name" v="Bjørnbekken" />
		<tag k="ssr:stedsnr" v="456688" />
		<tag k="waterway" v="stream" />
	</node>
	<node id="-850105" lat="63.8770750003" lon="10.222786109">
		<tag k="name" v="Austdalsvatna" />
		<tag k="natural" v="water" />
		<tag k="old_name" v="Austdalsvatnet" />
		<tag k="ssr:stedsnr" v="134350" />
		<tag k="water" v="lake" />
	</node>
	<node id="-850101" lat="63.9683666712" lon="10.1434555485">
		<tag k="name" v="Ivervikbekken" />
		<tag k="ssr:stedsnr" v="576102" />
		<tag k="waterway" v="stream" />
	</node>
	<node id="-848052" lat="64.1205833369" lon="10.5054472137">
		<tag k="name" v="Bartnestjønna" />
		<tag k="natural" v="water" />
		<tag k="ssr:stedsnr" v="317329" />
	</node>
	<node id="-850099" lat="63.8883805599" lon="10.5374638914">
		<tag k="name" v="Trapptjønna" />
		<tag k="natural" v="water" />
		<tag k="ssr:stedsnr" v="802349" />
	</node>
	<node id="-848049" lat="63.8681194436" lon="10.3064861057">
		<tag k="name" v="Måstjønna" />
		<tag k="natural" v="water" />
		<tag k="ssr:stedsnr" v="407556" />
	</node>
	<node id="-848584" lat="64.0372583315" lon="10.3662861132">
		<tag k="name" v="Svarttjønnbekken" />
		<tag k="ssr:stedsnr" v="759647" />
		<tag k="waterway" v="stream" />
	</node>
	<node id="-850093" lat="64.0896888917" lon="10.4865472206">
		<tag k="name" v="Sørskardbekken" />
		<tag k="ssr:stedsnr" v="637601" />
		<tag k="waterway" v="stream" />
	</node>
	<node id="-850091" lat="64.0270249981" lon="10.5385083358">
		<tag k="name" v="Tverrbekken" />
		<tag k="ssr:stedsnr" v="152548" />
		<tag k="waterway" v="stream" />
	</node>
	<node id="-848039" lat="64.0471222239" lon="10.0734888903">
		<tag k="name" v="Salbuvikfossen" />
		<tag k="natural" v="waterfall" />
		<tag k="ssr:stedsnr" v="91895" />
	</node>
	<node id="-850080" lat="63.9627083354" lon="10.613813887">
		<tag k="name" v="Bomma" />
		<tag k="natural" v="water" />
		<tag k="ssr:stedsnr" v="256327" />
	</node>
	<node id="-850077" lat="63.9700027808" lon="10.3997472147">
		<tag k="name" v="Dalabekken" />
		<tag k="ssr:stedsnr" v="74127" />
		<tag k="waterway" v="stream" />
	</node>
	<node id="-850075" lat="63.854525001" lon="10.2338277712">
		<tag k="name" v="Stormyrkråa" />
		<tag k="ssr:stedsnr" v="255284" />
		<tag k="waterway" v="stream" />
	</node>
	<node id="-850072" lat="63.9681666697" lon="10.3070694491">
		<tag k="name" v="Sålåneset" />
		<tag k="natural" v="cape" />
		<tag k="ssr:stedsnr" v="195148" />
	</node>
	<node id="-848023" lat="63.8839638917" lon="10.231833326">
		<tag k="name" v="Svartholsbekken" />
		<tag k="ssr:stedsnr" v="456673" />
		<tag k="waterway" v="stream" />
	</node>
	<node id="-847897" lat="64.0632916649" lon="10.3620250025">
		<tag k="name" v="Finnelva" />
		<tag k="ssr:stedsnr" v="924251" />
		<tag k="waterway" v="stream" />
	</node>
	<node id="-848019" lat="64.0148194422" lon="10.1522722248">
		<tag k="name" v="Bekkalitjønna" />
		<tag k="natural" v="water" />
		<tag k="ssr:stedsnr" v="14056" />
	</node>
	<node id="-848006" lat="63.966169445" lon="10.4892777739">
		<tag k="name" v="Larsbukta" />
		<tag k="natural" v="bay" />
		<tag k="ssr:stedsnr" v="456676" />
	</node>
	<node id="-848005" lat="64.0166999979" lon="10.5162972256">
		<tag k="name" v="Stjernsfossen" />
		<tag k="natural" v="waterfall" />
		<tag k="ssr:stedsnr" v="516524" />
	</node>
	<node id="-850051" lat="63.852124997" lon="10.2135611107">
		<tag k="name" v="Torsengbekken" />
		<tag k="ssr:stedsnr" v="395707" />
		<tag k="waterway" v="stream" />
	</node>
	<node id="-850050" lat="63.9763972249" lon="10.2449000042">
		<tag k="name" v="Struphølen" />
		<tag k="place" v="locality" />
		<tag k="ssr:stedsnr" v="820716" />
	</node>
	<node id="-847997" lat="63.967211112" lon="10.486319442">
		<tag k="name" v="Valen" />
		<tag k="place" v="islet" />
		<tag k="ssr:stedsnr" v="698678" />
	</node>
	<node id="-846917" lat="63.9283277783" lon="10.2621583307">
		<tag k="name" v="Vardfjelltjønnan" />
		<tag k="natural" v="water" />
		<tag k="ssr:stedsnr" v="13375" />
	</node>
	<node id="-848575" lat="63.9700916671" lon="10.2894916593">
		<tag k="name" v="Mjøsundet" />
		<tag k="natural" v="strait" />
		<tag k="ssr:stedsnr" v="377121" />
	</node>
	<node id="-846868" lat="64.0913777734" lon="10.4984222221">
		<tag k="name" v="Litlbekken" />
		<tag k="ssr:stedsnr" v="941144" />
		<tag k="waterway" v="stream" />
	</node>
	<node id="-850036" lat="63.9729249994" lon="10.4921916762">
		<tag k="name" v="Kattatjønna" />
		<tag k="natural" v="water" />
		<tag k="ssr:stedsnr" v="74121" />
	</node>
	<node id="-847987" lat="64.0475250044" lon="10.1727527756">
		<tag k="alt_name" v="Fossvatnet, øvre" />
		<tag k="name" v="Øvre Fossvatnet" />
		<tag k="natural" v="water" />
		<tag k="ssr:stedsnr" v="559136" />
	</node>
	<node id="-847985" lat="63.9546249974" lon="10.5211888877">
		<tag k="name" v="Ommunddalsvatnet" />
		<tag k="natural" v="water" />
		<tag k="ssr:stedsnr" v="195398" />
	</node>
	<node id="-847984" lat="63.9352722201" lon="10.3798722158">
		<tag k="name" v="Langlibekken" />
		<tag k="ssr:stedsnr" v="31939" />
		<tag k="waterway" v="stream" />
	</node>
	<node id="-850029" lat="63.8797833348" lon="10.3010888939">
		<tag k="name" v="Setertjønna" />
		<tag k="natural" v="water" />
		<tag k="ssr:stedsnr" v="255275" />
	</node>
	<node id="-850335" lat="64.016547223" lon="10.1207944466">
		<tag k="name" v="Midtivatnet" />
		<tag k="natural" v="water" />
		<tag k="ssr:stedsnr" v="924057" />
	</node>
	<node id="-850020" lat="63.8711444426" lon="10.5361138977">
		<tag k="name" v="Magerhus" />
		<tag k="natural" v="water" />
		<tag k="ssr:stedsnr" v="134334" />
	</node>
	<node id="-847547" lat="63.9108888851" lon="10.3633083303">
		<tag k="name" v="Svarttjønna" />
		<tag k="natural" v="water" />
		<tag k="ssr:stedsnr" v="637921" />
	</node>
	<node id="-850016" lat="64.0220000024" lon="10.2028000046">
		<tag k="name" v="Rotbakkbekken" />
		<tag k="ssr:stedsnr" v="334074" />
		<tag k="waterway" v="stream" />
	</node>
	<node id="-847961" lat="63.8969611073" lon="10.3816444369">
		<tag k="name" v="Litlkvernavatnet" />
		<tag k="natural" v="water" />
		<tag k="ssr:stedsnr" v="73309" />
	</node>
	<node id="-850004" lat="63.974188891" lon="10.338230559">
		<tag k="name" v="Andsteinen" />
		<tag k="natural" v="cape" />
		<tag k="ssr:stedsnr" v="819801" />
	</node>
	<node id="-850003" lat="64.0117000005" lon="10.3086777676">
		<tag k="name" v="Storholmen" />
		<tag k="place" v="islet" />
		<tag k="ssr:stedsnr" v="516111" />
	</node>
	<node id="-849998" lat="64.0373305597" lon="10.5255749964">
		<tag k="name" v="Otertjønna" />
		<tag k="natural" v="water" />
		<tag k="ssr:stedsnr" v="881605" />
	</node>
	<node id="-847884" lat="64.0423472191" lon="10.2043583265">
		<tag k="name" v="Sandvatnet" />
		<tag k="natural" v="water" />
		<tag k="ssr:stedsnr" v="135084" />
	</node>
	<node id="-849990" lat="64.0239555519" lon="10.3099638825">
		<tag k="name" v="Bjørbuelva" />
		<tag k="ssr:stedsnr" v="516117" />
		<tag k="waterway" v="river" />
	</node>
	<node id="-849988" lat="63.84151111" lon="10.4759972177">
		<tag k="name" v="Kvernatjønna" />
		<tag k="natural" v="water" />
		<tag k="ssr:stedsnr" v="316531" />
	</node>
	<node id="-849983" lat="64.0052333301" lon="10.2553000044">
		<tag k="name" v="Bjørnabekken" />
		<tag k="ssr:stedsnr" v="196710" />
		<tag k="waterway" v="stream" />
	</node>
	<node id="-849981" lat="63.907391664" lon="10.3874361085">
		<tag k="name" v="Kvernaelva" />
		<tag k="ssr:stedsnr" v="802328" />
		<tag k="waterway" v="river" />
	</node>
	<node id="-847932" lat="64.0369111136" lon="10.584038898">
		<tag k="name" v="Fagerlielva" />
		<tag k="ssr:stedsnr" v="576460" />
		<tag k="waterway" v="river" />
	</node>
	<node id="-847882" lat="64.0437027762" lon="10.6139000072">
		<tag k="name" v="Vester Blankbergbekken" />
		<tag k="ssr:stedsnr" v="334426" />
		<tag k="waterway" v="stream" />
	</node>
	<node id="-849978" lat="63.8793749965" lon="10.3793138914">
		<tag k="name" v="Storlitjønna" />
		<tag k="natural" v="water" />
		<tag k="ssr:stedsnr" v="680294" />
	</node>
	<node id="-847929" lat="64.0217749998" lon="10.2142555513">
		<tag k="name" v="Grønlielva" />
		<tag k="ssr:stedsnr" v="14043" />
		<tag k="waterway" v="stream" />
	</node>
	<node id="-848833" lat="64.0505722206" lon="10.5721805615">
		<tag k="name" v="Haukvatnet" />
		<tag k="natural" v="water" />
		<tag k="ssr:stedsnr" v="803260" />
	</node>
	<node id="-849973" lat="63.8727944455" lon="10.2709777853">
		<tag k="name" v="Lensvika" />
		<tag k="natural" v="bay" />
		<tag k="ssr:stedsnr" v="334905" />
	</node>
	<node id="-849972" lat="63.924702779" lon="10.0688777814">
		<tag k="name" v="Kvennhusbekken" />
		<tag k="ssr:stedsnr" v="31516" />
		<tag k="waterway" v="stream" />
	</node>
	<node id="-849971" lat="63.8380916625" lon="10.2260888976">
		<tag k="name" v="Høgsterbekken" />
		<tag k="ssr:stedsnr" v="395704" />
		<tag k="waterway" v="stream" />
	</node>
	<node id="-847919" lat="63.8979444455" lon="10.2231388938">
		<tag k="name" v="Grasholbekken" />
		<tag k="ssr:stedsnr" v="881135" />
		<tag k="waterway" v="stream" />
	</node>
	<node id="-848221" lat="64.0138027746" lon="10.5011499935">
		<tag k="name" v="Holgertjønna" />
		<tag k="natural" v="water" />
		<tag k="ssr:stedsnr" v="334505" />
	</node>
	<node id="-849959" lat="63.8758416659" lon="10.503286115">
		<tag k="name" v="Blåtjønna" />
		<tag k="natural" v="water" />
		<tag k="ssr:stedsnr" v="255269" />
	</node>
	<node id="-847906" lat="63.8154194489" lon="10.4405916698">
		<tag k="name" v="Gjuvassneset" />
		<tag k="natural" v="cape" />
		<tag k="ssr:stedsnr" v="589513" />
	</node>
	<node id="-847905" lat="63.906872221" lon="10.2588722287">
		<tag k="name" v="Melkåtjønna" />
		<tag k="natural" v="water" />
		<tag k="ssr:stedsnr" v="456648" />
	</node>
	<node id="-847904" lat="63.9684388845" lon="10.4997166596">
		<tag k="name" v="Storvatnet" />
		<tag k="natural" v="water" />
		<tag k="ssr:stedsnr" v="317316" />
		<tag k="water" v="lake" />
	</node>
	<node id="-849949" lat="63.989763889" lon="10.6613916694">
		<tag k="name" v="Bårdlitjønna" />
		<tag k="natural" v="water" />
		<tag k="ssr:stedsnr" v="863159" />
	</node>
	<node id="-849945" lat="63.8788750039" lon="10.5032444498">
		<tag k="name" v="Gjermundstjønna" />
		<tag k="natural" v="water" />
		<tag k="ssr:stedsnr" v="255270" />
	</node>
	<node id="-847896" lat="63.8903944434" lon="10.5371666651">
		<tag k="name" v="Buasjøen" />
		<tag k="natural" v="water" />
		<tag k="ssr:stedsnr" v="73300" />
	</node>
	<node id="-849943" lat="64.0243972228" lon="10.5431999993">
		<tag k="name" v="Granholmen" />
		<tag k="place" v="islet" />
		<tag k="ssr:stedsnr" v="31512" />
	</node>
	<node id="-847894" lat="64.0589666647" lon="10.1366361187">
		<tag k="name" v="Sunnskjørvatnet" />
		<tag k="natural" v="water" />
		<tag k="ssr:stedsnr" v="803119" />
	</node>
	<node id="-849937" lat="63.9708499976" lon="10.1081638901">
		<tag k="name" v="Strompodden" />
		<tag k="natural" v="cape" />
		<tag k="ssr:stedsnr" v="516101" />
	</node>
	<node id="-847885" lat="63.9222999969" lon="10.4639166687">
		<tag k="name" v="Jodalbekken" />
		<tag k="ssr:stedsnr" v="456627" />
		<tag k="waterway" v="stream" />
	</node>
	<node id="-849932" lat="63.9494027795" lon="10.5220333286">
		<tag k="name" v="Lomtjønna" />
		<tag k="natural" v="water" />
		<tag k="ssr:stedsnr" v="637593" />
	</node>
	<node id="-849930" lat="63.9804055512" lon="10.2560027718">
		<tag k="name" v="Skifteshølen" />
		<tag k="place" v="locality" />
		<tag k="ssr:stedsnr" v="273749" />
	</node>
	<node id="-849928" lat="64.0216500019" lon="10.1399277699">
		<tag k="name" v="Vestre Holmvatnet" />
		<tag k="natural" v="water" />
		<tag k="ssr:stedsnr" v="335746" />
	</node>
	<node id="-849925" lat="63.846163891" lon="10.2199083273">
		<tag k="name" v="Flintbekken" />
		<tag k="ssr:stedsnr" v="941669" />
		<tag k="waterway" v="stream" />
	</node>
	<node id="-847874" lat="63.874513885" lon="10.3043527816">
		<tag k="name" v="Andreasbekken" />
		<tag k="ssr:stedsnr" v="152910" />
		<tag k="waterway" v="stream" />
	</node>
</osm>
