<?xml version="1.0" encoding="UTF-8"?>
<osm generator="osmapis" version="0.6">
	<node id="-847863" lat="63.9272055537" lon="10.060930556">
		<tag k="name" v="Stormyra" />
		<tag k="natural" v="wetland" />
		<tag k="ssr:stedsnr" v="820227" />
	</node>
	<node id="-847858" lat="64.0217722234" lon="10.5376749921">
		<tag k="name" v="Flåttåhølmyran" />
		<tag k="natural" v="wetland" />
		<tag k="ssr:stedsnr" v="880516" />
	</node>
	<node id="-847850" lat="64.0115527746" lon="10.0324805633">
		<tag k="name" v="Fagerskogan" />
		<tag k="place" v="locality" />
		<tag k="ssr:stedsnr" v="456851" />
	</node>
	<node id="-847848" lat="64.0286666713" lon="10.5025277687">
		<tag k="name" v="Hårkallskogen" />
		<tag k="place" v="locality" />
		<tag k="ssr:stedsnr" v="273511" />
	</node>
	<node id="-849887" lat="63.9249361088" lon="10.5501166637">
		<tag k="name" v="Skjevilldalsmyra" />
		<tag k="natural" v="wetland" />
		<tag k="ssr:stedsnr" v="577746" />
	</node>
	<node id="-849885" lat="64.0038027764" lon="10.3174805635">
		<tag k="name" v="Fjellmyra" />
		<tag k="natural" v="wetland" />
		<tag k="ssr:stedsnr" v="213028" />
	</node>
	<node id="-850595" lat="63.9555222229" lon="10.2811305519">
		<tag k="name" v="Storbotnen" />
		<tag k="place" v="locality" />
		<tag k="ssr:stedsnr" v="273082" />
	</node>
	<node id="-849872" lat="63.9504722238" lon="10.4225777782">
		<tag k="name" v="Roligholet" />
		<tag k="place" v="locality" />
		<tag k="ssr:stedsnr" v="213827" />
	</node>
	<node id="-847799" lat="63.9450444478" lon="10.2187111171">
		<tag k="name" v="Vargholet" />
		<tag k="place" v="locality" />
		<tag k="ssr:stedsnr" v="516674" />
	</node>
	<node id="-849844" lat="63.9110861104" lon="10.2416694383">
		<tag k="name" v="Permoen" />
		<tag k="place" v="locality" />
		<tag k="ssr:stedsnr" v="395678" />
	</node>
	<node id="-849831" lat="63.9187999987" lon="10.4575166686">
		<tag k="landuse" v="meadow" />
		<tag k="name" v="Litlenget" />
		<tag k="ssr:stedsnr" v="941626" />
	</node>
	<node id="-849823" lat="63.9606388884" lon="10.2839583423">
		<tag k="name" v="Holtan" />
		<tag k="place" v="locality" />
		<tag k="ssr:stedsnr" v="576058" />
	</node>
	<node id="-847774" lat="63.91465278" lon="10.1222888949">
		<tag k="name" v="Krokastormyra" />
		<tag k="natural" v="wetland" />
		<tag k="ssr:stedsnr" v="820180" />
	</node>
	<node id="-847768" lat="63.9892277751" lon="10.7431388979">
		<tag k="name" v="Kårenget" />
		<tag k="place" v="locality" />
		<tag k="ssr:stedsnr" v="334412" />
	</node>
	<node id="-849814" lat="63.914711113" lon="10.2579472225">
		<tag k="name" v="Granmoen" />
		<tag k="place" v="locality" />
		<tag k="ssr:stedsnr" v="820642" />
	</node>
	<node id="-847765" lat="64.0090722264" lon="10.7506805504">
		<tag k="name" v="Ottesteinen" />
		<tag k="natural" v="stone" />
		<tag k="ssr:stedsnr" v="334413" />
	</node>
	<node id="-847763" lat="64.0400749974" lon="10.5939444391">
		<tag k="name" v="Svartholmyra" />
		<tag k="natural" v="wetland" />
		<tag k="ssr:stedsnr" v="576434" />
	</node>
	<node id="-849801" lat="64.0074694457" lon="10.3774333318">
		<tag k="name" v="Råmyra" />
		<tag k="natural" v="wetland" />
		<tag k="ssr:stedsnr" v="334856" />
	</node>
	<node id="-849799" lat="63.9839388896" lon="10.3857777803">
		<tag k="name" v="Stavesmyra" />
		<tag k="natural" v="wetland" />
		<tag k="ssr:stedsnr" v="394803" />
	</node>
	<node id="-849793" lat="64.05208889" lon="10.0492305582">
		<tag k="name" v="Knubben" />
		<tag k="place" v="locality" />
		<tag k="ssr:stedsnr" v="213814" />
	</node>
	<node id="-849785" lat="64.0051944463" lon="10.0124194442">
		<tag k="name" v="Langmyra" />
		<tag k="natural" v="wetland" />
		<tag k="ssr:stedsnr" v="456199" />
	</node>
	<node id="-849782" lat="64.0274727274" lon="10.3953067359">
		<tag k="name" v="Nittamarka" />
		<tag k="place" v="locality" />
		<tag k="ssr:stedsnr" v="820813" />
	</node>
	<node id="-849775" lat="63.94495556" lon="10.6320444353">
		<tag k="name" v="Litlaunet" />
		<tag k="place" v="locality" />
		<tag k="ssr:stedsnr" v="698360" />
	</node>
	<node id="-849766" lat="63.9882361149" lon="10.1547111058">
		<tag k="name" v="Korsbakkmyra" />
		<tag k="natural" v="wetland" />
		<tag k="ssr:stedsnr" v="334156" />
	</node>
	<node id="-847715" lat="63.9152666655" lon="10.4470361196">
		<tag k="name" v="Stormyra" />
		<tag k="natural" v="wetland" />
		<tag k="ssr:stedsnr" v="152892" />
	</node>
	<node id="-849747" lat="63.9858999957" lon="10.345555548">
		<tag k="name" v="Tjønnmyra" />
		<tag k="natural" v="wetland" />
		<tag k="ssr:stedsnr" v="213958" />
	</node>
	<node id="-847698" lat="63.9810861148" lon="10.3234111018">
		<tag k="name" v="Bølsmarkmyran" />
		<tag k="natural" v="wetland" />
		<tag k="ssr:stedsnr" v="31015" />
	</node>
	<node id="-849741" lat="63.9648527812" lon="10.6411666627">
		<tag k="name" v="Søyratellmoen" />
		<tag k="place" v="locality" />
		<tag k="ssr:stedsnr" v="698355" />
	</node>
	<node id="-847689" lat="63.9824277734" lon="10.3459861036">
		<tag k="name" v="Nausturda" />
		<tag k="natural" v="scree" />
		<tag k="ssr:stedsnr" v="637954" />
	</node>
	<node id="-849735" lat="63.987650004" lon="10.0507388912">
		<tag k="name" v="Osprabben" />
		<tag k="place" v="locality" />
		<tag k="ssr:stedsnr" v="274731" />
	</node>
	<node id="-849732" lat="63.982591667" lon="10.3760305598">
		<tag k="name" v="Naustvollen" />
		<tag k="place" v="locality" />
		<tag k="ssr:stedsnr" v="820778" />
	</node>
	<node id="-849731" lat="63.9426361145" lon="10.3869249987">
		<tag k="name" v="Langtjønnmyran" />
		<tag k="natural" v="wetland" />
		<tag k="ssr:stedsnr" v="213949" />
	</node>
	<node id="-847674" lat="63.9092916629" lon="10.0792777763">
		<tag k="name" v="Ner Hekkenget" />
		<tag k="place" v="locality" />
		<tag k="ssr:stedsnr" v="274143" />
	</node>
	<node id="-849720" lat="63.9934055582" lon="10.3519527693">
		<tag k="name" v="Tverrfjellmyra" />
		<tag k="natural" v="wetland" />
		<tag k="ssr:stedsnr" v="273881" />
	</node>
	<node id="-849718" lat="63.9163777799" lon="10.2647638879">
		<tag k="name" v="Stormyra" />
		<tag k="natural" v="wetland" />
		<tag k="ssr:stedsnr" v="273047" />
	</node>
	<node id="-849714" lat="63.9749972183" lon="10.1742111121">
		<tag k="name" v="Nerholtan" />
		<tag k="place" v="locality" />
		<tag k="ssr:stedsnr" v="152625" />
	</node>
	<node id="-847657" lat="63.9340222234" lon="10.3653277773">
		<tag k="name" v="Torvmyra" />
		<tag k="natural" v="wetland" />
		<tag k="ssr:stedsnr" v="637949" />
	</node>
	<node id="-847654" lat="64.0335305542" lon="10.0534416699">
		<tag k="name" v="Benken" />
		<tag k="natural" v="scree" />
		<tag k="ssr:stedsnr" v="820190" />
	</node>
	<node id="-847652" lat="63.9592305516" lon="10.111908332">
		<tag k="name" v="Granmoen" />
		<tag k="place" v="locality" />
		<tag k="ssr:stedsnr" v="456609" />
	</node>
	<node id="-849698" lat="64.0278277786" lon="10.4144138977">
		<tag k="name" v="Støamyra" />
		<tag k="natural" v="wetland" />
		<tag k="ssr:stedsnr" v="273709" />
	</node>
	<node id="-848176" lat="63.9828166675" lon="10.1875583348">
		<tag k="name" v="Krekan" />
		<tag k="natural" v="wetland" />
		<tag k="ssr:stedsnr" v="516557" />
	</node>
	<node id="-849693" lat="64.0397972233" lon="10.6024833355">
		<tag k="name" v="Grovahaugmelen" />
		<tag k="place" v="locality" />
		<tag k="ssr:stedsnr" v="152481" />
	</node>
	<node id="-849690" lat="64.0045638851" lon="10.3106833363">
		<tag k="name" v="Verstudalsmyra" />
		<tag k="natural" v="wetland" />
		<tag k="ssr:stedsnr" v="576027" />
	</node>
	<node id="-849686" lat="63.9943833344" lon="10.4437583305">
		<tag k="name" v="Tømmerloppet" />
		<tag k="place" v="locality" />
		<tag k="ssr:stedsnr" v="334843" />
	</node>
	<node id="-849684" lat="63.9521805586" lon="10.2792611102">
		<tag k="name" v="Kvennamyran" />
		<tag k="natural" v="wetland" />
		<tag k="ssr:stedsnr" v="334006" />
	</node>
	<node id="-849683" lat="64.0265361134" lon="10.4155027707">
		<tag k="name" v="Sløa" />
		<tag k="place" v="locality" />
		<tag k="ssr:stedsnr" v="820663" />
	</node>
	<node id="-849679" lat="64.0723583329" lon="10.0330472291">
		<tag k="name" v="Rammelmyra" />
		<tag k="natural" v="wetland" />
		<tag k="ssr:stedsnr" v="213816" />
	</node>
	<node id="-849675" lat="63.992633333" lon="10.0014194529">
		<tag k="name" v="Vorpvika" />
		<tag k="place" v="locality" />
		<tag k="ssr:stedsnr" v="456198" />
	</node>
	<node id="-849667" lat="64.0037194429" lon="9.91896110515">
		<tag k="name" v="Storaunet" />
		<tag k="place" v="locality" />
		<tag k="ssr:stedsnr" v="820653" />
	</node>
	<node id="-849665" lat="64.0066444482" lon="10.2541222289">
		<tag k="name" v="Imsamyran" />
		<tag k="natural" v="wetland" />
		<tag k="ssr:stedsnr" v="516081" />
	</node>
	<node id="-849661" lat="64.0516694409" lon="10.3614805583">
		<tag k="historic" v="shieling" />
		<tag k="name" v="Nittaliseteren" />
		<tag k="place" v="locality" />
		<tag k="ssr:stedsnr" v="941637" />
	</node>
	<node id="-847611" lat="63.9685250026" lon="10.1700916698">
		<tag k="name" v="Holtan" />
		<tag k="place" v="locality" />
		<tag k="ssr:stedsnr" v="456593" />
	</node>
	<node id="-847610" lat="63.8789416649" lon="10.2274027735">
		<tag k="name" v="Hytta" />
		<tag k="place" v="locality" />
		<tag k="ssr:stedsnr" v="274129" />
	</node>
	<node id="-847603" lat="63.9818583312" lon="10.713150008">
		<tag k="name" v="Stormyra" />
		<tag k="natural" v="wetland" />
		<tag k="ssr:stedsnr" v="576414" />
	</node>
	<node id="-849650" lat="64.0278611105" lon="10.5410444388">
		<tag k="name" v="Rokkslættmyran" />
		<tag k="natural" v="wetland" />
		<tag k="ssr:stedsnr" v="637559" />
	</node>
	<node id="-847593" lat="63.8827944411" lon="10.2310194459">
		<tag k="name" v="Svartholet" />
		<tag k="place" v="locality" />
		<tag k="ssr:stedsnr" v="820167" />
	</node>
	<node id="-847590" lat="64.0422277773" lon="10.1249972235">
		<tag k="name" v="Rennmyra" />
		<tag k="natural" v="wetland" />
		<tag k="ssr:stedsnr" v="941194" />
	</node>
	<node id="-847584" lat="63.9486277806" lon="10.6573333337">
		<tag k="historic" v="shieling" />
		<tag k="name" v="Øyster Finnvollen" />
		<tag k="place" v="locality" />
		<tag k="ssr:stedsnr" v="334374" />
	</node>
	<node id="-847577" lat="64.0220277799" lon="10.0532277881">
		<tag k="name" v="Aunet" />
		<tag k="place" v="locality" />
		<tag k="ssr:stedsnr" v="31853" />
	</node>
	<node id="-847570" lat="64.0124694421" lon="10.3729833274">
		<tag k="name" v="Holet" />
		<tag k="place" v="locality" />
		<tag k="ssr:stedsnr" v="152851" />
	</node>
	<node id="-847568" lat="63.9945055524" lon="10.4516527766">
		<tag k="name" v="Øyster Tømmerloppet" />
		<tag k="place" v="locality" />
		<tag k="ssr:stedsnr" v="31849" />
	</node>
	<node id="-849613" lat="64.0424444435" lon="10.5433250038">
		<tag k="name" v="Kårenget" />
		<tag k="place" v="locality" />
		<tag k="ssr:stedsnr" v="941614" />
	</node>
	<node id="-849608" lat="64.0117361093" lon="10.441872217">
		<tag k="name" v="Kvennhusmyra" />
		<tag k="natural" v="wetland" />
		<tag k="ssr:stedsnr" v="273700" />
	</node>
	<node id="-849605" lat="63.9758444419" lon="10.6262194386">
		<tag k="name" v="Storfjellmyran" />
		<tag k="natural" v="wetland" />
		<tag k="ssr:stedsnr" v="863134" />
	</node>
	<node id="-849603" lat="63.9636472181" lon="10.1320000005">
		<tag k="name" v="Snåtervollan" />
		<tag k="place" v="locality" />
		<tag k="ssr:stedsnr" v="941616" />
	</node>
	<node id="-849600" lat="63.9541055527" lon="10.1888194391">
		<tag k="name" v="Jovika" />
		<tag k="place" v="locality" />
		<tag k="ssr:stedsnr" v="91408" />
	</node>
	<node id="-847549" lat="64.0046611141" lon="10.1804388805">
		<tag k="name" v="Stormyra" />
		<tag k="natural" v="wetland" />
		<tag k="ssr:stedsnr" v="395184" />
	</node>
	<node id="-849595" lat="64.0441083359" lon="10.5702305498">
		<tag k="name" v="Finnstadmyra" />
		<tag k="natural" v="wetland" />
		<tag k="ssr:stedsnr" v="941617" />
	</node>
	<node id="-847544" lat="63.9043083367" lon="10.2397055518">
		<tag k="name" v="Gammelseteren" />
		<tag k="place" v="locality" />
		<tag k="ssr:stedsnr" v="395165" />
	</node>
	<node id="-849591" lat="63.9660888894" lon="9.98334166674">
		<tag k="name" v="Brekka" />
		<tag k="place" v="locality" />
		<tag k="ssr:stedsnr" v="516060" />
	</node>
	<node id="-847541" lat="63.9381694465" lon="10.4500777704">
		<tag k="name" v="Dordienget" />
		<tag k="place" v="locality" />
		<tag k="ssr:stedsnr" v="941970" />
	</node>
	<node id="-847539" lat="63.943944449" lon="10.2353749916">
		<tag k="name" v="Langmyra" />
		<tag k="natural" v="wetland" />
		<tag k="ssr:stedsnr" v="92649" />
	</node>
	<node id="-847537" lat="63.9755055598" lon="10.4136555532">
		<tag k="name" v="Krekkan" />
		<tag k="place" v="locality" />
		<tag k="ssr:stedsnr" v="91790" />
	</node>
	<node id="-847535" lat="64.1065416629" lon="10.529261107">
		<tag k="historic" v="shieling" />
		<tag k="name" v="Guruseteren" />
		<tag k="place" v="locality" />
		<tag k="ssr:stedsnr" v="334361" />
	</node>
	<node id="-847532" lat="64.0084638856" lon="10.3119138871">
		<tag k="name" v="Langmyra" />
		<tag k="natural" v="wetland" />
		<tag k="ssr:stedsnr" v="152026" />
	</node>
	<node id="-849576" lat="63.9704472244" lon="10.1151361087">
		<tag k="name" v="Stormyra" />
		<tag k="natural" v="wetland" />
		<tag k="ssr:stedsnr" v="91398" />
	</node>
	<node id="-849574" lat="63.9726527754" lon="10.1685611162">
		<tag k="name" v="Slåttamyra" />
		<tag k="natural" v="wetland" />
		<tag k="ssr:stedsnr" v="820587" />
	</node>
	<node id="-847521" lat="64.038111115" lon="10.0589805569">
		<tag k="name" v="Sofiaplassen" />
		<tag k="place" v="locality" />
		<tag k="ssr:stedsnr" v="274943" />
	</node>
	<node id="-849563" lat="63.9711138891" lon="10.1765749945">
		<tag k="name" v="Neverholet" />
		<tag k="place" v="locality" />
		<tag k="ssr:stedsnr" v="941582" />
	</node>
	<node id="-849560" lat="63.9367888895" lon="10.0798111112">
		<tag k="name" v="Slåttamyra" />
		<tag k="natural" v="wetland" />
		<tag k="ssr:stedsnr" v="385181" />
	</node>
	<node id="-849559" lat="64.0140333325" lon="10.3347694454">
		<tag k="name" v="Knoppmyran" />
		<tag k="natural" v="wetland" />
		<tag k="ssr:stedsnr" v="334812" />
	</node>
	<node id="-849556" lat="63.9487805575" lon="10.3983833326">
		<tag k="name" v="Gandenget" />
		<tag k="place" v="locality" />
		<tag k="ssr:stedsnr" v="576825" />
	</node>
	<node id="-847796" lat="64.021124996" lon="10.4544000006">
		<tag k="name" v="Erikengmyra" />
		<tag k="natural" v="wetland" />
		<tag k="ssr:stedsnr" v="759669" />
	</node>
	<node id="-849544" lat="63.9503472189" lon="9.95958054677">
		<tag k="name" v="Storjorda" />
		<tag k="place" v="locality" />
		<tag k="ssr:stedsnr" v="516043" />
	</node>
	<node id="-847495" lat="64.0082416671" lon="10.261563894">
		<tag k="name" v="Holbekkmyra" />
		<tag k="natural" v="wetland" />
		<tag k="ssr:stedsnr" v="820123" />
	</node>
	<node id="-849541" lat="63.9607555563" lon="10.1382833244">
		<tag k="name" v="Gløtten" />
		<tag k="place" v="locality" />
		<tag k="ssr:stedsnr" v="395623" />
	</node>
	<node id="-847489" lat="63.9922083374" lon="10.1557388978">
		<tag k="name" v="Langdalmyra" />
		<tag k="natural" v="wetland" />
		<tag k="ssr:stedsnr" v="941152" />
	</node>
	<node id="-847478" lat="63.9979249989" lon="10.3829694439">
		<tag k="name" v="Litlmarka" />
		<tag k="place" v="locality" />
		<tag k="ssr:stedsnr" v="152829" />
	</node>
	<node id="-849524" lat="63.9581472224" lon="10.1319722196">
		<tag k="name" v="Kjerkskardmyra" />
		<tag k="natural" v="wetland" />
		<tag k="ssr:stedsnr" v="880662" />
	</node>
	<node id="-849523" lat="63.9796749993" lon="10.3139722269">
		<tag k="name" v="Klokkarmyra" />
		<tag k="natural" v="wetland" />
		<tag k="ssr:stedsnr" v="759019" />
	</node>
	<node id="-849522" lat="64.068016667" lon="10.4691694531">
		<tag k="name" v="Høgmyra" />
		<tag k="natural" v="wetland" />
		<tag k="ssr:stedsnr" v="395620" />
	</node>
	<node id="-849509" lat="64.039144441" lon="10.6063972253">
		<tag k="name" v="Grovahaugmyra" />
		<tag k="natural" v="wetland" />
		<tag k="ssr:stedsnr" v="31432" />
	</node>
	<node id="-849507" lat="63.9817027817" lon="10.693463884">
		<tag k="landuse" v="meadow" />
		<tag k="name" v="Litlenget" />
		<tag k="ssr:stedsnr" v="152438" />
	</node>
	<node id="-849504" lat="64.0717805536" lon="10.4821166745">
		<tag k="name" v="Langglenna" />
		<tag k="natural" v="wetland" />
		<tag k="ssr:stedsnr" v="941594" />
	</node>
	<node id="-847454" lat="63.9427805578" lon="10.34926945">
		<tag k="historic" v="shieling" />
		<tag k="name" v="Gammelseteren" />
		<tag k="place" v="locality" />
		<tag k="ssr:stedsnr" v="820997" />
	</node>
	<node id="-847449" lat="64.0083166694" lon="10.2349055459">
		<tag k="name" v="Stormyra" />
		<tag k="natural" v="wetland" />
		<tag k="ssr:stedsnr" v="637085" />
	</node>
	<node id="-849494" lat="64.0639166662" lon="10.4826555519">
		<tag k="landuse" v="meadow" />
		<tag k="name" v="Tørrisenget" />
		<tag k="ssr:stedsnr" v="820605" />
	</node>
	<node id="-849489" lat="63.9535916654" lon="10.1525333287">
		<tag k="name" v="Strandamyra" />
		<tag k="natural" v="wetland" />
		<tag k="ssr:stedsnr" v="820597" />
	</node>
	<node id="-847439" lat="63.9822027739" lon="10.1307083317">
		<tag k="name" v="Morkanesørin" />
		<tag k="natural" v="wetland" />
		<tag k="ssr:stedsnr" v="820131" />
	</node>
	<node id="-849484" lat="64.053291667" lon="10.0320833348">
		<tag k="name" v="Langmyra" />
		<tag k="natural" v="wetland" />
		<tag k="ssr:stedsnr" v="213802" />
	</node>
	<node id="-849483" lat="63.9528972224" lon="10.271097215">
		<tag k="name" v="Storbotmyra" />
		<tag k="natural" v="wetland" />
		<tag k="ssr:stedsnr" v="334007" />
	</node>
	<node id="-847430" lat="63.9655027809" lon="10.1920138946">
		<tag k="name" v="Lomsenget" />
		<tag k="natural" v="wetland" />
		<tag k="ssr:stedsnr" v="334350" />
	</node>
	<node id="-849476" lat="64.0239805561" lon="10.3588666585">
		<tag k="historic" v="shieling" />
		<tag k="name" v="Berdalsseteren" />
		<tag k="place" v="locality" />
		<tag k="ssr:stedsnr" v="576853" />
	</node>
	<node id="-849475" lat="64.0324972263" lon="10.5250999915">
		<tag k="name" v="Kvennavassmyran" />
		<tag k="natural" v="wetland" />
		<tag k="ssr:stedsnr" v="820611" />
	</node>
	<node id="-847456" lat="63.9643999998" lon="9.97595554711">
		<tag k="name" v="Tårnesmyran" />
		<tag k="natural" v="wetland" />
		<tag k="ssr:stedsnr" v="637086" />
	</node>
	<node id="-847416" lat="64.0283527811" lon="10.3179861118">
		<tag k="name" v="Nesa" />
		<tag k="natural" v="wetland" />
		<tag k="ssr:stedsnr" v="395136" />
	</node>
	<node id="-849463" lat="63.96041111" lon="10.2794666565">
		<tag k="name" v="Langmyra" />
		<tag k="natural" v="wetland" />
		<tag k="ssr:stedsnr" v="516069" />
	</node>
	<node id="-849455" lat="63.9912527769" lon="10.4136166577">
		<tag k="name" v="Kvennamyra" />
		<tag k="natural" v="wetland" />
		<tag k="ssr:stedsnr" v="394790" />
	</node>
	<node id="-849453" lat="63.9947805574" lon="10.062316657">
		<tag k="name" v="Storpermyra" />
		<tag k="natural" v="wetland" />
		<tag k="ssr:stedsnr" v="456191" />
	</node>
	<node id="-849450" lat="64.0291888848" lon="10.4173250028">
		<tag k="name" v="Storenget" />
		<tag k="place" v="locality" />
		<tag k="ssr:stedsnr" v="273713" />
	</node>
	<node id="-847398" lat="64.0429972203" lon="9.98024443516">
		<tag k="name" v="Sebbersmyra" />
		<tag k="place" v="locality" />
		<tag k="ssr:stedsnr" v="152819" />
	</node>
	<node id="-849443" lat="64.0028027819" lon="10.4274527689">
		<tag k="name" v="Grøtabakkmyra" />
		<tag k="natural" v="wetland" />
		<tag k="ssr:stedsnr" v="334831" />
	</node>
	<node id="-847390" lat="63.9403083345" lon="10.4846277753">
		<tag k="name" v="Gråfjellmyra" />
		<tag k="natural" v="wetland" />
		<tag k="ssr:stedsnr" v="91760" />
	</node>
	<node id="-849432" lat="64.0598500023" lon="10.4107166729">
		<tag k="name" v="Seterholmyra" />
		<tag k="natural" v="wetland" />
		<tag k="ssr:stedsnr" v="820632" />
	</node>
	<node id="-849431" lat="63.9537111154" lon="10.2533444394">
		<tag k="name" v="Tyskvegen" />
		<tag k="place" v="locality" />
		<tag k="ssr:stedsnr" v="456166" />
	</node>
	<node id="-849427" lat="63.9241777796" lon="10.4609138889">
		<tag k="name" v="Stormyra" />
		<tag k="natural" v="wetland" />
		<tag k="ssr:stedsnr" v="941620" />
	</node>
	<node id="-849425" lat="64.0629111098" lon="9.94708332837">
		<tag k="name" v="Nilsmyra" />
		<tag k="natural" v="wetland" />
		<tag k="ssr:stedsnr" v="213786" />
	</node>
	<node id="-849424" lat="64.0035333367" lon="10.4364611065">
		<tag k="name" v="Dammyra" />
		<tag k="natural" v="wetland" />
		<tag k="ssr:stedsnr" v="334827" />
	</node>
	<node id="-847370" lat="63.9245222182" lon="10.3248861067">
		<tag k="historic" v="shieling" />
		<tag k="name" v="Petter Osa-seteren" />
		<tag k="place" v="locality" />
		<tag k="ssr:stedsnr" v="91037" />
	</node>
	<node id="-847358" lat="63.933233329" lon="10.0244138938">
		<tag k="name" v="Flatmoen" />
		<tag k="place" v="locality" />
		<tag k="ssr:stedsnr" v="395243" />
	</node>
	<node id="-847344" lat="64.0231972223" lon="10.2408805642">
		<tag k="name" v="Lonmyra" />
		<tag k="natural" v="wetland" />
		<tag k="ssr:stedsnr" v="152081" />
	</node>
	<node id="-847339" lat="63.9271472188" lon="10.592158327">
		<tag k="name" v="Kjerstinaholet" />
		<tag k="place" v="locality" />
		<tag k="ssr:stedsnr" v="516385" />
	</node>
	<node id="-847336" lat="63.9453694407" lon="10.2803999962">
		<tag k="name" v="Hyttholet" />
		<tag k="place" v="locality" />
		<tag k="ssr:stedsnr" v="637055" />
	</node>
	<node id="-849383" lat="63.9826111115" lon="10.4010750011">
		<tag k="name" v="Oksvollen" />
		<tag k="place" v="locality" />
		<tag k="ssr:stedsnr" v="576777" />
	</node>
	<node id="-847326" lat="63.991855553" lon="10.1481555527">
		<tag k="name" v="Øykmyra" />
		<tag k="natural" v="wetland" />
		<tag k="ssr:stedsnr" v="577163" />
	</node>
	<node id="-847108" lat="64.0454583299" lon="9.89258055623">
		<tag k="name" v="Langmyra" />
		<tag k="natural" v="wetland" />
		<tag k="ssr:stedsnr" v="637819" />
	</node>
	<node id="-849366" lat="63.9261111101" lon="10.3786861209">
		<tag k="name" v="Litlevjemyra" />
		<tag k="natural" v="wetland" />
		<tag k="ssr:stedsnr" v="698990" />
	</node>
	<node id="-849364" lat="63.9766444471" lon="10.2882305651">
		<tag k="name" v="Vasstrandurda" />
		<tag k="natural" v="scree" />
		<tag k="ssr:stedsnr" v="759010" />
	</node>
	<node id="-849355" lat="63.9949527766" lon="10.4579277866">
		<tag k="name" v="Moenurda" />
		<tag k="natural" v="scree" />
		<tag k="ssr:stedsnr" v="941557" />
	</node>
	<node id="-849351" lat="64.0192694401" lon="10.0049055641">
		<tag k="landuse" v="meadow" />
		<tag k="name" v="Sandvika" />
		<tag k="ssr:stedsnr" v="698162" />
	</node>
	<node id="-847299" lat="63.9396944481" lon="10.0855361058">
		<tag k="name" v="Løsmyra" />
		<tag k="natural" v="wetland" />
		<tag k="ssr:stedsnr" v="698504" />
	</node>
	<node id="-849344" lat="63.9729277743" lon="10.3051750002">
		<tag k="name" v="Lauvstranda" />
		<tag k="place" v="locality" />
		<tag k="ssr:stedsnr" v="516004" />
	</node>
	<node id="-849140" lat="63.9634611076" lon="10.2061555523">
		<tag k="name" v="Flatneset" />
		<tag k="place" v="locality" />
		<tag k="ssr:stedsnr" v="576749" />
	</node>
	<node id="-847280" lat="63.8945027773" lon="10.0684583354">
		<tag k="name" v="Slåtturda" />
		<tag k="natural" v="scree" />
		<tag k="ssr:stedsnr" v="91733" />
	</node>
	<node id="-849324" lat="63.9227999965" lon="10.1701333241">
		<tag k="name" v="Stormyra" />
		<tag k="natural" v="wetland" />
		<tag k="ssr:stedsnr" v="698133" />
	</node>
	<node id="-847274" lat="63.9946722229" lon="10.4204111127">
		<tag k="name" v="Fjellmyra" />
		<tag k="natural" v="wetland" />
		<tag k="ssr:stedsnr" v="31774" />
	</node>
	<node id="-849321" lat="63.9810999971" lon="10.6480222155">
		<tag k="name" v="Gammeltømtet" />
		<tag k="place" v="locality" />
		<tag k="ssr:stedsnr" v="31390" />
	</node>
	<node id="-849316" lat="63.892008335" lon="10.0763333282">
		<tag k="name" v="Bjørnastokkurda" />
		<tag k="natural" v="scree" />
		<tag k="ssr:stedsnr" v="698132" />
	</node>
	<node id="-847267" lat="63.9884499989" lon="10.1365861181">
		<tag k="name" v="Sagbrumyra" />
		<tag k="natural" v="wetland" />
		<tag k="ssr:stedsnr" v="273176" />
	</node>
	<node id="-849304" lat="63.9978638869" lon="10.4882305577">
		<tag k="name" v="Stortralten" />
		<tag k="place" v="locality" />
		<tag k="ssr:stedsnr" v="820538" />
	</node>
	<node id="-847254" lat="63.9039083361" lon="9.97976388768">
		<tag k="name" v="Sandan" />
		<tag k="place" v="locality" />
		<tag k="ssr:stedsnr" v="274024" />
	</node>
	<node id="-847252" lat="64.0394611135" lon="10.0879916758">
		<tag k="name" v="Bottenmyra" />
		<tag k="natural" v="wetland" />
		<tag k="ssr:stedsnr" v="881894" />
	</node>
	<node id="-849298" lat="63.8837972263" lon="10.0426027777">
		<tag k="name" v="Oksbåsen" />
		<tag k="place" v="locality" />
		<tag k="ssr:stedsnr" v="74566" />
	</node>
	<node id="-847427" lat="63.986705554" lon="10.1373944342">
		<tag k="name" v="Sagkneppa" />
		<tag k="place" v="locality" />
		<tag k="ssr:stedsnr" v="698566" />
	</node>
	<node id="-849292" lat="64.0476694438" lon="10.4578194469">
		<tag k="name" v="Nordskogen" />
		<tag k="place" v="locality" />
		<tag k="ssr:stedsnr" v="698131" />
	</node>
	<node id="-849291" lat="63.9650444436" lon="10.4185361023">
		<tag k="name" v="Botnin" />
		<tag k="place" v="locality" />
		<tag k="ssr:stedsnr" v="516805" />
	</node>
	<node id="-849288" lat="64.0047111091" lon="10.5003583266">
		<tag k="name" v="Ottermoen" />
		<tag k="place" v="locality" />
		<tag k="ssr:stedsnr" v="395560" />
	</node>
	<node id="-847237" lat="63.9936472191" lon="10.2178527706">
		<tag k="name" v="Langmyra" />
		<tag k="natural" v="wetland" />
		<tag k="ssr:stedsnr" v="395093" />
	</node>
	<node id="-849282" lat="63.9234444476" lon="10.170161104">
		<tag k="name" v="Stormyra" />
		<tag k="natural" v="wetland" />
		<tag k="ssr:stedsnr" v="395568" />
	</node>
	<node id="-849277" lat="63.903191666" lon="10.1063027761">
		<tag k="name" v="Skjennstallen" />
		<tag k="place" v="locality" />
		<tag k="ssr:stedsnr" v="820526" />
	</node>
	<node id="-847226" lat="63.879880556" lon="10.3065083374">
		<tag k="historic" v="shieling" />
		<tag k="name" v="Arnevikseteren" />
		<tag k="place" v="locality" />
		<tag k="ssr:stedsnr" v="285516" />
	</node>
	<node id="-847221" lat="63.9301833359" lon="10.3723583344">
		<tag k="name" v="Moen" />
		<tag k="place" v="locality" />
		<tag k="ssr:stedsnr" v="820947" />
	</node>
	<node id="-847218" lat="63.9723111151" lon="10.4077361115">
		<tag k="name" v="Hogstern" />
		<tag k="place" v="locality" />
		<tag k="ssr:stedsnr" v="152769" />
	</node>
	<node id="-849254" lat="63.927263887" lon="10.4364361154">
		<tag k="name" v="Småengan" />
		<tag k="place" v="locality" />
		<tag k="ssr:stedsnr" v="456980" />
	</node>
	<node id="-849252" lat="63.9844111095" lon="10.4453444497">
		<tag k="name" v="Auna" />
		<tag k="place" v="locality" />
		<tag k="ssr:stedsnr" v="334745" />
	</node>
	<node id="-849247" lat="63.9656388898" lon="10.1684333232">
		<tag k="name" v="Tjønnmyra" />
		<tag k="natural" v="wetland" />
		<tag k="ssr:stedsnr" v="880625" />
	</node>
	<node id="-849246" lat="63.9109583366" lon="10.1138111095">
		<tag k="name" v="Slirholan" />
		<tag k="place" v="locality" />
		<tag k="ssr:stedsnr" v="395547" />
	</node>
	<node id="-847187" lat="63.9537444419" lon="9.96446666917">
		<tag k="name" v="Gammelgården" />
		<tag k="place" v="locality" />
		<tag k="ssr:stedsnr" v="941081" />
	</node>
	<node id="-849234" lat="63.9863694489" lon="10.4523527813">
		<tag k="name" v="Rømmesholmen" />
		<tag k="place" v="locality" />
		<tag k="ssr:stedsnr" v="334744" />
	</node>
	<node id="-847074" lat="64.0572111117" lon="10.4804611077">
		<tag k="name" v="Brennmarkskogen" />
		<tag k="place" v="locality" />
		<tag k="ssr:stedsnr" v="819169" />
	</node>
	<node id="-847172" lat="63.9962333347" lon="10.3181277685">
		<tag k="name" v="Skavdalsmyra" />
		<tag k="natural" v="wetland" />
		<tag k="ssr:stedsnr" v="820035" />
	</node>
	<node id="-849218" lat="64.0057749966" lon="10.4915027827">
		<tag k="name" v="Buenget" />
		<tag k="place" v="locality" />
		<tag k="ssr:stedsnr" v="941542" />
	</node>
	<node id="-847169" lat="63.9196472228" lon="9.92316111906">
		<tag k="name" v="Landheim" />
		<tag k="place" v="locality" />
		<tag k="ssr:stedsnr" v="334290" />
	</node>
	<node id="-847162" lat="63.9316805535" lon="10.4501222202">
		<tag k="name" v="Hissigmyran" />
		<tag k="natural" v="wetland" />
		<tag k="ssr:stedsnr" v="880971" />
	</node>
	<node id="-849206" lat="63.9496750009" lon="10.1182583292">
		<tag k="name" v="Skolamyra" />
		<tag k="natural" v="wetland" />
		<tag k="ssr:stedsnr" v="273622" />
	</node>
	<node id="-847753" lat="63.918122224" lon="10.2717833358">
		<tag k="name" v="Tungskola" />
		<tag k="place" v="locality" />
		<tag k="ssr:stedsnr" v="31031" />
	</node>
	<node id="-849204" lat="64.0509250006" lon="10.431400001">
		<tag k="name" v="Elvakrokan" />
		<tag k="natural" v="wetland" />
		<tag k="ssr:stedsnr" v="662264" />
	</node>
	<node id="-847140" lat="64.0164333312" lon="10.3625277839">
		<tag k="name" v="Stormyra" />
		<tag k="natural" v="wetland" />
		<tag k="ssr:stedsnr" v="637826" />
	</node>
	<node id="-849186" lat="63.9761305542" lon="10.1246888936">
		<tag k="name" v="Strompmyra" />
		<tag k="natural" v="wetland" />
		<tag k="ssr:stedsnr" v="152375" />
	</node>
	<node id="-850138" lat="63.9418305566" lon="10.2258249927">
		<tag k="name" v="Brannan" />
		<tag k="place" v="locality" />
		<tag k="ssr:stedsnr" v="881630" />
	</node>
	<node id="-847407" lat="63.9191138871" lon="10.2990222275">
		<tag k="name" v="Neverdalsmyran" />
		<tag k="natural" v="wetland" />
		<tag k="ssr:stedsnr" v="819245" />
	</node>
	<node id="-849168" lat="63.9800305539" lon="10.145969446">
		<tag k="name" v="Bekkanesa" />
		<tag k="place" v="locality" />
		<tag k="ssr:stedsnr" v="152379" />
	</node>
	<node id="-847116" lat="64.0220694421" lon="10.4516944368">
		<tag k="historic" v="shieling" />
		<tag k="name" v="Leikseteren" />
		<tag k="place" v="locality" />
		<tag k="ssr:stedsnr" v="91690" />
	</node>
	<node id="-849161" lat="63.95441667" lon="10.2923916642">
		<tag k="name" v="Inner Stakkengholet" />
		<tag k="place" v="locality" />
		<tag k="ssr:stedsnr" v="456073" />
	</node>
	<node id="-849156" lat="63.9459833371" lon="10.2125333414">
		<tag k="name" v="Stormyra" />
		<tag k="natural" v="wetland" />
		<tag k="ssr:stedsnr" v="576745" />
	</node>
	<node id="-849149" lat="64.0175861113" lon="10.399638889">
		<tag k="name" v="Kumyra" />
		<tag k="natural" v="wetland" />
		<tag k="ssr:stedsnr" v="394686" />
	</node>
	<node id="-847402" lat="64.0743027805" lon="10.1465999996">
		<tag k="name" v="Kviturda" />
		<tag k="natural" v="scree" />
		<tag k="ssr:stedsnr" v="941130" />
	</node>
	<node id="-847098" lat="63.8744972231" lon="10.3037166735">
		<tag k="historic" v="shieling" />
		<tag k="name" v="Andreasseteren" />
		<tag k="place" v="locality" />
		<tag k="ssr:stedsnr" v="225543" />
	</node>
	<node id="-847092" lat="63.9629277738" lon="10.1385194397">
		<tag k="name" v="Langmyra" />
		<tag k="natural" v="wetland" />
		<tag k="ssr:stedsnr" v="559555" />
	</node>
	<node id="-847090" lat="63.9291083367" lon="10.3687583239">
		<tag k="name" v="Notvollen" />
		<tag k="place" v="locality" />
		<tag k="ssr:stedsnr" v="880987" />
	</node>
	<node id="-849137" lat="64.0100944455" lon="10.2838694377">
		<tag k="historic" v="shieling" />
		<tag k="name" v="Vassbakkseteren" />
		<tag k="place" v="locality" />
		<tag k="ssr:stedsnr" v="698102" />
	</node>
	<node id="-847087" lat="63.9113750019" lon="10.2049750007">
		<tag k="name" v="Trollurda" />
		<tag k="natural" v="scree" />
		<tag k="ssr:stedsnr" v="316670" />
	</node>
	<node id="-847084" lat="64.0975666668" lon="10.5348916649">
		<tag k="name" v="Langmyra" />
		<tag k="natural" v="wetland" />
		<tag k="ssr:stedsnr" v="759344" />
	</node>
	<node id="-847082" lat="63.9294611111" lon="10.5808388902">
		<tag k="name" v="Granmarka" />
		<tag k="place" v="locality" />
		<tag k="ssr:stedsnr" v="273155" />
	</node>
	<node id="-849128" lat="64.0165305529" lon="10.5282472199">
		<tag k="name" v="Fjellsengmyra" />
		<tag k="natural" v="wetland" />
		<tag k="ssr:stedsnr" v="941510" />
	</node>
	<node id="-847076" lat="64.0294388884" lon="10.5593249956">
		<tag k="name" v="Trånnåmyra" />
		<tag k="natural" v="wetland" />
		<tag k="ssr:stedsnr" v="924670" />
	</node>
	<node id="-849122" lat="64.0440749957" lon="10.4121277871">
		<tag k="name" v="Lonlimyran" />
		<tag k="natural" v="wetland" />
		<tag k="ssr:stedsnr" v="213682" />
	</node>
	<node id="-847073" lat="64.0046194417" lon="10.36414444">
		<tag k="historic" v="shieling" />
		<tag k="name" v="Naustseteren" />
		<tag k="place" v="locality" />
		<tag k="ssr:stedsnr" v="941864" />
	</node>
	<node id="-847072" lat="63.9447222267" lon="10.5330833239">
		<tag k="name" v="Gildesaunet" />
		<tag k="place" v="locality" />
		<tag k="ssr:stedsnr" v="31736" />
	</node>
	<node id="-849116" lat="63.9386527744" lon="10.492330564">
		<tag k="name" v="Finnkråa" />
		<tag k="place" v="locality" />
		<tag k="ssr:stedsnr" v="334712" />
	</node>
	<node id="-849108" lat="63.9147027755" lon="10.2447861191">
		<tag k="name" v="Gaupbåsen" />
		<tag k="place" v="locality" />
		<tag k="ssr:stedsnr" v="213683" />
	</node>
	<node id="-847395" lat="63.9360777796" lon="10.4671527838">
		<tag k="name" v="Øyster Tjønnmyra" />
		<tag k="natural" v="wetland" />
		<tag k="ssr:stedsnr" v="91769" />
	</node>
	<node id="-849102" lat="63.9780388857" lon="10.4323666733">
		<tag k="name" v="Hoggmyra" />
		<tag k="natural" v="wetland" />
		<tag k="ssr:stedsnr" v="516761" />
	</node>
	<node id="-849096" lat="64.0299055531" lon="10.5628166614">
		<tag k="historic" v="shieling" />
		<tag k="name" v="Buavollen" />
		<tag k="place" v="locality" />
		<tag k="ssr:stedsnr" v="820514" />
	</node>
	<node id="-849094" lat="63.9239888908" lon="10.2945666689">
		<tag k="name" v="Lendarosa" />
		<tag k="place" v="locality" />
		<tag k="ssr:stedsnr" v="456064" />
	</node>
	<node id="-847734" lat="63.929616663" lon="10.3859666708">
		<tag k="landuse" v="meadow" />
		<tag k="name" v="Storenget" />
		<tag k="ssr:stedsnr" v="637937" />
	</node>
	<node id="-847040" lat="64.0383555519" lon="10.095363897">
		<tag k="name" v="Innerhagan" />
		<tag k="place" v="locality" />
		<tag k="ssr:stedsnr" v="395910" />
	</node>
	<node id="-847035" lat="63.9337722263" lon="10.3783083366">
		<tag k="name" v="Fjellmyra" />
		<tag k="natural" v="wetland" />
		<tag k="ssr:stedsnr" v="880946" />
	</node>
	<node id="-847021" lat="63.9514527749" lon="10.4124361184">
		<tag k="name" v="Simabakkmyran" />
		<tag k="natural" v="wetland" />
		<tag k="ssr:stedsnr" v="637799" />
	</node>
	<node id="-849063" lat="64.0209555531" lon="10.0963888964">
		<tag k="landuse" v="meadow" />
		<tag k="name" v="Småengan" />
		<tag k="ssr:stedsnr" v="92994" />
	</node>
	<node id="-849062" lat="63.994916667" lon="10.0626055559">
		<tag k="name" v="Storpølmyra" />
		<tag k="natural" v="wetland" />
		<tag k="ssr:stedsnr" v="134741" />
	</node>
	<node id="-849056" lat="64.0652611146" lon="10.5256527716">
		<tag k="name" v="Holman" />
		<tag k="natural" v="wetland" />
		<tag k="ssr:stedsnr" v="273573" />
	</node>
	<node id="-849047" lat="63.9890638858" lon="10.3004500088">
		<tag k="name" v="Kviturda" />
		<tag k="natural" v="scree" />
		<tag k="ssr:stedsnr" v="456039" />
	</node>
	<node id="-846995" lat="63.9201222181" lon="10.4573777765">
		<tag k="name" v="Fjøsmoen" />
		<tag k="place" v="locality" />
		<tag k="ssr:stedsnr" v="880151" />
	</node>
	<node id="-849091" lat="64.0594999967" lon="10.0511833312">
		<tag k="historic" v="shieling" />
		<tag k="name" v="Hammarvollen" />
		<tag k="place" v="locality" />
		<tag k="ssr:stedsnr" v="759783" />
	</node>
	<node id="-846975" lat="63.9490121235" lon="10.3528403527">
		<tag k="historic" v="shieling" />
		<tag k="name" v="Karlaunsetran" />
		<tag k="place" v="locality" />
		<tag k="ssr:stedsnr" v="376380" />
	</node>
	<node id="-846974" lat="63.9081166643" lon="10.4142111205">
		<tag k="name" v="Blåfjellmyran" />
		<tag k="natural" v="wetland" />
		<tag k="ssr:stedsnr" v="941874" />
	</node>
	<node id="-846956" lat="64.0019249996" lon="10.0281583244">
		<tag k="name" v="Kleivamyra" />
		<tag k="natural" v="wetland" />
		<tag k="ssr:stedsnr" v="637757" />
	</node>
	<node id="-849001" lat="63.9316388921" lon="10.2829833263">
		<tag k="name" v="Støa" />
		<tag k="place" v="locality" />
		<tag k="ssr:stedsnr" v="456051" />
	</node>
	<node id="-846947" lat="63.9825222225" lon="10.410194436">
		<tag k="name" v="Bymyra" />
		<tag k="place" v="locality" />
		<tag k="ssr:stedsnr" v="637756" />
	</node>
	<node id="-848993" lat="63.9616416668" lon="10.1559194387">
		<tag k="name" v="Setermyra" />
		<tag k="natural" v="wetland" />
		<tag k="ssr:stedsnr" v="941585" />
	</node>
	<node id="-848985" lat="63.9668361121" lon="10.0312333245">
		<tag k="name" v="Håkjerringmyra" />
		<tag k="natural" v="wetland" />
		<tag k="ssr:stedsnr" v="516032" />
	</node>
	<node id="-848981" lat="64.0771111105" lon="10.467969452">
		<tag k="name" v="Perslåtten" />
		<tag k="place" v="locality" />
		<tag k="ssr:stedsnr" v="395589" />
	</node>
	<node id="-848979" lat="63.9847222218" lon="10.323488896">
		<tag k="name" v="Rabban" />
		<tag k="place" v="locality" />
		<tag k="ssr:stedsnr" v="516011" />
	</node>
	<node id="-848973" lat="63.9622277745" lon="10.2907638958">
		<tag k="name" v="Sålånesmarka" />
		<tag k="place" v="locality" />
		<tag k="ssr:stedsnr" v="923397" />
	</node>
	<node id="-846924" lat="64.0257750016" lon="10.4050138876">
		<tag k="historic" v="shieling" />
		<tag k="name" v="Byseteren" />
		<tag k="place" v="locality" />
		<tag k="ssr:stedsnr" v="152706" />
	</node>
	<node id="-846914" lat="63.9875861087" lon="10.2039944451">
		<tag k="name" v="Skolekrysset" />
		<tag k="place" v="locality" />
		<tag k="ssr:stedsnr" v="637750" />
	</node>
	<node id="-848959" lat="63.9824277772" lon="10.4501388911">
		<tag k="name" v="Gildesurda" />
		<tag k="natural" v="scree" />
		<tag k="ssr:stedsnr" v="576795" />
	</node>
	<node id="-848958" lat="64.0297578746" lon="10.4754717014">
		<tag k="historic" v="shieling" />
		<tag k="name" v="Svartbekkseteren" />
		<tag k="place" v="locality" />
		<tag k="ssr:stedsnr" v="499639" />
	</node>
	<node id="-846899" lat="63.9405499958" lon="10.4779305524">
		<tag k="name" v="Knutdiket" />
		<tag k="natural" v="wetland" />
		<tag k="ssr:stedsnr" v="819157" />
	</node>
	<node id="-848945" lat="64.0204348909" lon="10.4226147">
		<tag k="historic" v="shieling" />
		<tag k="name" v="Granfjellseteren" />
		<tag k="place" v="locality" />
		<tag k="ssr:stedsnr" v="377695" />
	</node>
	<node id="-846895" lat="63.9693666684" lon="10.0488083291">
		<tag k="name" v="Stormyra" />
		<tag k="natural" v="wetland" />
		<tag k="ssr:stedsnr" v="941044" />
	</node>
	<node id="-848932" lat="63.9611138861" lon="10.0467222311">
		<tag k="name" v="Steinråa" />
		<tag k="natural" v="stone" />
		<tag k="ssr:stedsnr" v="698055" />
	</node>
	<node id="-850437" lat="64.023738886" lon="10.3970083301">
		<tag k="name" v="Stormyra" />
		<tag k="natural" v="wetland" />
		<tag k="ssr:stedsnr" v="637688" />
	</node>
	<node id="-848921" lat="63.9670805565" lon="10.2246861016">
		<tag k="landuse" v="meadow" />
		<tag k="name" v="Snauvollen" />
		<tag k="ssr:stedsnr" v="516723" />
	</node>
	<node id="-848912" lat="64.0194638922" lon="10.4168888881">
		<tag k="name" v="Setermyra" />
		<tag k="natural" v="wetland" />
		<tag k="ssr:stedsnr" v="576693" />
	</node>
	<node id="-846862" lat="63.9410611081" lon="10.5358194526">
		<tag k="name" v="Langaunet" />
		<tag k="place" v="locality" />
		<tag k="ssr:stedsnr" v="91755" />
	</node>
	<node id="-848905" lat="63.9871861095" lon="10.277638894">
		<tag k="name" v="Berdalsmyra" />
		<tag k="natural" v="wetland" />
		<tag k="ssr:stedsnr" v="456018" />
	</node>
	<node id="-848886" lat="63.9081083317" lon="9.96284443637">
		<tag k="name" v="Selnes" />
		<tag k="place" v="locality" />
		<tag k="ssr:stedsnr" v="456021" />
	</node>
	<node id="-846836" lat="63.9469583295" lon="10.2486222285">
		<tag k="name" v="Stigan" />
		<tag k="place" v="locality" />
		<tag k="ssr:stedsnr" v="941138" />
	</node>
	<node id="-848877" lat="63.9275805583" lon="10.3757999952">
		<tag k="name" v="Aunmoen" />
		<tag k="place" v="locality" />
		<tag k="ssr:stedsnr" v="455996" />
	</node>
	<node id="-848876" lat="63.9850722229" lon="10.2123583251">
		<tag k="name" v="Skora" />
		<tag k="place" v="locality" />
		<tag k="ssr:stedsnr" v="134715" />
	</node>
	<node id="-848872" lat="64.0594555582" lon="10.5311805465">
		<tag k="historic" v="shieling" />
		<tag k="name" v="Nyseteren" />
		<tag k="place" v="locality" />
		<tag k="ssr:stedsnr" v="213634" />
	</node>
	<node id="-848866" lat="63.9799361128" lon="10.1726638903">
		<tag k="name" v="Humstadmyran" />
		<tag k="natural" v="wetland" />
		<tag k="ssr:stedsnr" v="213624" />
	</node>
	<node id="-848851" lat="63.9202027773" lon="10.4144444542">
		<tag k="name" v="Myra" />
		<tag k="place" v="locality" />
		<tag k="ssr:stedsnr" v="456885" />
	</node>
	<node id="-846796" lat="64.0272638866" lon="10.4223416687">
		<tag k="name" v="Bjørnalimyra" />
		<tag k="natural" v="wetland" />
		<tag k="ssr:stedsnr" v="152696" />
	</node>
	<node id="-848841" lat="64.0278694482" lon="10.4508055518">
		<tag k="name" v="Stråmyra" />
		<tag k="natural" v="wetland" />
		<tag k="ssr:stedsnr" v="576686" />
	</node>
	<node id="-846791" lat="64.0254166669" lon="10.251069451">
		<tag k="name" v="Huken" />
		<tag k="place" v="locality" />
		<tag k="ssr:stedsnr" v="577075" />
	</node>
	<node id="-848819" lat="64.0065527769" lon="10.3650027874">
		<tag k="name" v="Nordstifjellmyra" />
		<tag k="natural" v="wetland" />
		<tag k="ssr:stedsnr" v="698856" />
	</node>
	<node id="-848818" lat="64.0337500003" lon="10.4666638989">
		<tag k="historic" v="shieling" />
		<tag k="name" v="Kråklisetra" />
		<tag k="place" v="locality" />
		<tag k="ssr:stedsnr" v="880512" />
	</node>
	<node id="-846769" lat="64.0136611115" lon="10.0559638981">
		<tag k="name" v="Bjørnbåsen" />
		<tag k="place" v="locality" />
		<tag k="ssr:stedsnr" v="395873" />
	</node>
	<node id="-848812" lat="64.0478583323" lon="10.3443500075">
		<tag k="name" v="Nittalihalsen" />
		<tag k="natural" v="wetland" />
		<tag k="ssr:stedsnr" v="559262" />
	</node>
	<node id="-848810" lat="63.9615749972" lon="10.6472111176">
		<tag k="name" v="Kårenget" />
		<tag k="place" v="locality" />
		<tag k="ssr:stedsnr" v="881366" />
	</node>
	<node id="-848799" lat="64.0893916699" lon="10.5211166697">
		<tag k="name" v="Måmyran" />
		<tag k="natural" v="wetland" />
		<tag k="ssr:stedsnr" v="741402" />
	</node>
	<node id="-848782" lat="63.9465277741" lon="10.0931944523">
		<tag k="name" v="Hyllstrandmyra" />
		<tag k="natural" v="wetland" />
		<tag k="ssr:stedsnr" v="213615" />
	</node>
	<node id="-848778" lat="63.9494138903" lon="10.6662527873">
		<tag k="name" v="Stakkenget" />
		<tag k="place" v="locality" />
		<tag k="ssr:stedsnr" v="881360" />
	</node>
	<node id="-848777" lat="63.9456777777" lon="10.3439777707">
		<tag k="name" v="Seterholet" />
		<tag k="place" v="locality" />
		<tag k="ssr:stedsnr" v="91246" />
	</node>
	<node id="-848774" lat="64.0412055597" lon="10.4027444365">
		<tag k="name" v="Elvakrokan" />
		<tag k="natural" v="wetland" />
		<tag k="ssr:stedsnr" v="803267" />
	</node>
	<node id="-847335" lat="63.9156555559" lon="10.2315027812">
		<tag k="name" v="Storurda" />
		<tag k="natural" v="scree" />
		<tag k="ssr:stedsnr" v="91747" />
	</node>
	<node id="-848725" lat="64.012161109" lon="10.2810222242">
		<tag k="name" v="Imsamyran" />
		<tag k="natural" v="wetland" />
		<tag k="ssr:stedsnr" v="698098" />
	</node>
	<node id="-848724" lat="63.9322111125" lon="10.5872833301">
		<tag k="name" v="Storneset" />
		<tag k="place" v="locality" />
		<tag k="ssr:stedsnr" v="637419" />
	</node>
	<node id="-850767" lat="63.9421249967" lon="10.5275722261">
		<tag k="name" v="Perlimyra" />
		<tag k="natural" v="wetland" />
		<tag k="ssr:stedsnr" v="637732" />
	</node>
	<node id="-850752" lat="63.9141777784" lon="10.2407388805">
		<tag k="name" v="Flaugamyra" />
		<tag k="natural" v="wetland" />
		<tag k="ssr:stedsnr" v="152672" />
	</node>
	<node id="-848695" lat="63.9466166703" lon="10.2540138989">
		<tag k="name" v="Hallenget" />
		<tag k="place" v="locality" />
		<tag k="ssr:stedsnr" v="516738" />
	</node>
	<node id="-848685" lat="63.9438138858" lon="10.1085916629">
		<tag k="name" v="Kleiva" />
		<tag k="place" v="locality" />
		<tag k="ssr:stedsnr" v="273499" />
	</node>
	<node id="-848684" lat="63.9198666656" lon="10.5562138808">
		<tag k="alt_name" v="Langløftmyran" />
		<tag k="name" v="Langløftmyra" />
		<tag k="natural" v="wetland" />
		<tag k="ssr:stedsnr" v="741387" />
	</node>
	<node id="-850728" lat="64.0132972207" lon="10.4493583284">
		<tag k="name" v="Bjørnatømyra" />
		<tag k="natural" v="wetland" />
		<tag k="ssr:stedsnr" v="31681" />
	</node>
	<node id="-848674" lat="63.9468388863" lon="10.5231416688">
		<tag k="name" v="Stormyra" />
		<tag k="natural" v="wetland" />
		<tag k="ssr:stedsnr" v="213590" />
	</node>
	<node id="-850720" lat="63.9679722186" lon="10.320452776">
		<tag k="name" v="Gammelseterstranda" />
		<tag k="place" v="locality" />
		<tag k="ssr:stedsnr" v="395004" />
	</node>
	<node id="-848660" lat="64.0086555577" lon="9.93891666353">
		<tag k="name" v="Oksåkeren" />
		<tag k="place" v="locality" />
		<tag k="ssr:stedsnr" v="698819" />
	</node>
	<node id="-848651" lat="64.0650916635" lon="10.1238944516">
		<tag k="name" v="Kjerkvika" />
		<tag k="place" v="locality" />
		<tag k="ssr:stedsnr" v="91211" />
	</node>
	<node id="-850695" lat="64.0636555525" lon="10.4741000088">
		<tag k="name" v="Åsmyra" />
		<tag k="natural" v="wetland" />
		<tag k="ssr:stedsnr" v="91625" />
	</node>
	<node id="-848646" lat="64.0327111092" lon="10.5596027757">
		<tag k="name" v="Hummelbenken" />
		<tag k="place" v="locality" />
		<tag k="ssr:stedsnr" v="334612" />
	</node>
	<node id="-848645" lat="63.99325278" lon="10.4619472273">
		<tag k="name" v="Undlenda" />
		<tag k="place" v="locality" />
		<tag k="ssr:stedsnr" v="213580" />
	</node>
	<node id="-850682" lat="63.952241665" lon="10.2166250086">
		<tag k="name" v="Litlvika" />
		<tag k="place" v="locality" />
		<tag k="ssr:stedsnr" v="213171" />
	</node>
	<node id="-850675" lat="64.0645305533" lon="10.4256583397">
		<tag k="historic" v="shieling" />
		<tag k="name" v="Trolldalsseteren" />
		<tag k="place" v="locality" />
		<tag k="ssr:stedsnr" v="31653" />
	</node>
	<node id="-850674" lat="63.9986166632" lon="10.4347722243">
		<tag k="name" v="Ytterlimyran" />
		<tag k="natural" v="wetland" />
		<tag k="ssr:stedsnr" v="880865" />
	</node>
	<node id="-850665" lat="64.0493611076" lon="10.3792055604">
		<tag k="historic" v="shieling" />
		<tag k="name" v="Litlseteren" />
		<tag k="place" v="locality" />
		<tag k="ssr:stedsnr" v="31655" />
	</node>
	<node id="-848610" lat="63.9661805548" lon="10.0410666597">
		<tag k="historic" v="shieling" />
		<tag k="name" v="Kallvollen" />
		<tag k="place" v="locality" />
		<tag k="ssr:stedsnr" v="637334" />
	</node>
	<node id="-848606" lat="64.0365249971" lon="10.5425194498">
		<tag k="name" v="Beitstadlimyra" />
		<tag k="natural" v="wetland" />
		<tag k="ssr:stedsnr" v="334598" />
	</node>
	<node id="-850042" lat="63.979049997" lon="10.1431111099">
		<tag k="name" v="Raumyra" />
		<tag k="natural" v="wetland" />
		<tag k="ssr:stedsnr" v="637615" />
	</node>
	<node id="-850646" lat="63.9195694412" lon="10.2405444386">
		<tag k="name" v="Småråkheian" />
		<tag k="place" v="locality" />
		<tag k="ssr:stedsnr" v="152670" />
	</node>
	<node id="-848587" lat="64.069586115" lon="10.4990361094">
		<tag k="name" v="Eliasenget" />
		<tag k="natural" v="wetland" />
		<tag k="ssr:stedsnr" v="334593" />
	</node>
	<node id="-848583" lat="64.0634361134" lon="10.4090638886">
		<tag k="name" v="Seterholet" />
		<tag k="place" v="locality" />
		<tag k="ssr:stedsnr" v="759642" />
	</node>
	<node id="-848580" lat="64.0379722223" lon="10.4329138805">
		<tag k="name" v="Stormyra" />
		<tag k="natural" v="wetland" />
		<tag k="ssr:stedsnr" v="516646" />
	</node>
	<node id="-850624" lat="64.0284555514" lon="10.3709611179">
		<tag k="name" v="Pålmyra" />
		<tag k="natural" v="wetland" />
		<tag k="ssr:stedsnr" v="941829" />
	</node>
	<node id="-848573" lat="63.9475972264" lon="10.6486138884">
		<tag k="historic" v="shieling" />
		<tag k="name" v="Vester Finnvollen" />
		<tag k="place" v="locality" />
		<tag k="ssr:stedsnr" v="820372" />
	</node>
	<node id="-848568" lat="63.9508166654" lon="10.6370333384">
		<tag k="name" v="Stormyra" />
		<tag k="natural" v="wetland" />
		<tag k="ssr:stedsnr" v="820371" />
	</node>
	<node id="-850609" lat="64.0151611127" lon="10.238636101">
		<tag k="name" v="Gammelsetermyra" />
		<tag k="natural" v="wetland" />
		<tag k="ssr:stedsnr" v="273084" />
	</node>
	<node id="-848559" lat="64.0156638848" lon="10.3566527718">
		<tag k="name" v="Nybuenget" />
		<tag k="place" v="locality" />
		<tag k="ssr:stedsnr" v="698814" />
	</node>
	<node id="-847645" lat="64.0633694417" lon="10.4980194352">
		<tag k="name" v="Bjørnamyran" />
		<tag k="natural" v="wetland" />
		<tag k="ssr:stedsnr" v="456587" />
	</node>
	<node id="-850604" lat="63.9019027778" lon="10.2317027801">
		<tag k="name" v="Avlsgården" />
		<tag k="place" v="locality" />
		<tag k="ssr:stedsnr" v="31663" />
	</node>
	<node id="-848554" lat="64.0160166697" lon="10.4832499954">
		<tag k="name" v="Skavlimyra" />
		<tag k="natural" v="wetland" />
		<tag k="ssr:stedsnr" v="213557" />
	</node>
	<node id="-848552" lat="63.9073277765" lon="9.95084723134">
		<tag k="name" v="Landhaugan" />
		<tag k="place" v="locality" />
		<tag k="ssr:stedsnr" v="152235" />
	</node>
	<node id="-850596" lat="63.9249833291" lon="10.4031333239">
		<tag k="name" v="Flotta" />
		<tag k="place" v="locality" />
		<tag k="ssr:stedsnr" v="273919" />
	</node>
	<node id="-848547" lat="64.0337499983" lon="10.4119833332">
		<tag k="name" v="Moan" />
		<tag k="place" v="locality" />
		<tag k="ssr:stedsnr" v="759660" />
	</node>
	<node id="-848546" lat="64.0254972251" lon="10.021949994">
		<tag k="name" v="Kovven" />
		<tag k="place" v="locality" />
		<tag k="ssr:stedsnr" v="91188" />
	</node>
	<node id="-848536" lat="63.9302222231" lon="10.5906055521">
		<tag k="historic" v="shieling" />
		<tag k="name" v="Helmerseteren" />
		<tag k="place" v="locality" />
		<tag k="ssr:stedsnr" v="820381" />
	</node>
	<node id="-850578" lat="63.9161722237" lon="10.4347249948">
		<tag k="name" v="Vinnanmoen" />
		<tag k="place" v="locality" />
		<tag k="ssr:stedsnr" v="273900" />
	</node>
	<node id="-850574" lat="63.96862778" lon="10.0520111167">
		<tag k="landuse" v="meadow" />
		<tag k="name" v="Fuglenget" />
		<tag k="ssr:stedsnr" v="273063" />
	</node>
	<node id="-848524" lat="64.0514916683" lon="10.4361555562">
		<tag k="name" v="Øyklimyran" />
		<tag k="natural" v="wetland" />
		<tag k="ssr:stedsnr" v="759651" />
	</node>
	<node id="-850551" lat="63.9115416705" lon="9.98807778556">
		<tag k="name" v="Skaia" />
		<tag k="place" v="locality" />
		<tag k="ssr:stedsnr" v="577029" />
	</node>
	<node id="-850547" lat="63.992794445" lon="10.3465777813">
		<tag k="name" v="Stakkmyra" />
		<tag k="natural" v="wetland" />
		<tag k="ssr:stedsnr" v="880870" />
	</node>
	<node id="-850544" lat="64.0505083311" lon="10.1365111069">
		<tag k="name" v="Sørhauglimyra" />
		<tag k="natural" v="wetland" />
		<tag k="ssr:stedsnr" v="334184" />
	</node>
	<node id="-850542" lat="63.9240944438" lon="10.414530551">
		<tag k="name" v="Bukta" />
		<tag k="place" v="locality" />
		<tag k="ssr:stedsnr" v="213979" />
	</node>
	<node id="-850531" lat="63.9447833327" lon="10.3509388976">
		<tag k="name" v="Stigamyra" />
		<tag k="natural" v="wetland" />
		<tag k="ssr:stedsnr" v="213970" />
	</node>
	<node id="-850526" lat="63.9951083366" lon="10.7700055477">
		<tag k="name" v="Eksingøya" />
		<tag k="place" v="locality" />
		<tag k="ssr:stedsnr" v="698396" />
	</node>
	<node id="-850522" lat="64.0830305583" lon="10.4973861042">
		<tag k="name" v="Krekkan" />
		<tag k="place" v="locality" />
		<tag k="ssr:stedsnr" v="91597" />
	</node>
	<node id="-850521" lat="63.9035916691" lon="9.96370000505">
		<tag k="name" v="Strømsmyra" />
		<tag k="natural" v="wetland" />
		<tag k="ssr:stedsnr" v="577022" />
	</node>
	<node id="-850516" lat="64.0783944477" lon="10.4901722271">
		<tag k="historic" v="shieling" />
		<tag k="name" v="Storbuengvollen" />
		<tag k="place" v="locality" />
		<tag k="ssr:stedsnr" v="91596" />
	</node>
	<node id="-848465" lat="64.0556249969" lon="10.4352861142">
		<tag k="name" v="Skogstua" />
		<tag k="place" v="locality" />
		<tag k="ssr:stedsnr" v="516626" />
	</node>
	<node id="-848463" lat="63.9575944475" lon="10.1691027757">
		<tag k="name" v="Leirfallet" />
		<tag k="place" v="locality" />
		<tag k="ssr:stedsnr" v="820344" />
	</node>
	<node id="-850507" lat="64.0026972233" lon="10.2381250015">
		<tag k="name" v="Brumyr" />
		<tag k="natural" v="wetland" />
		<tag k="ssr:stedsnr" v="880076" />
	</node>
	<node id="-848458" lat="64.0020277745" lon="10.374988887">
		<tag k="name" v="Stavesengan" />
		<tag k="place" v="locality" />
		<tag k="ssr:stedsnr" v="559742" />
	</node>
	<node id="-850496" lat="64.009130556" lon="10.0159583299">
		<tag k="name" v="Holet" />
		<tag k="place" v="locality" />
		<tag k="ssr:stedsnr" v="577863" />
	</node>
	<node id="-850494" lat="64.0149166659" lon="10.027141662">
		<tag k="name" v="Barramyra" />
		<tag k="natural" v="wetland" />
		<tag k="ssr:stedsnr" v="577864" />
	</node>
	<node id="-850485" lat="63.9967527782" lon="10.4463250075">
		<tag k="name" v="Stormyra" />
		<tag k="natural" v="wetland" />
		<tag k="ssr:stedsnr" v="273876" />
	</node>
	<node id="-848427" lat="64.0278972227" lon="10.081811104">
		<tag k="name" v="Myran" />
		<tag k="place" v="locality" />
		<tag k="ssr:stedsnr" v="91162" />
	</node>
	<node id="-848423" lat="64.0625833377" lon="10.5289500016">
		<tag k="name" v="Nysetermarka" />
		<tag k="place" v="locality" />
		<tag k="ssr:stedsnr" v="334566" />
	</node>
	<node id="-850469" lat="64.0532888875" lon="10.0784638855">
		<tag k="name" v="Øra" />
		<tag k="place" v="locality" />
		<tag k="ssr:stedsnr" v="334989" />
	</node>
	<node id="-850466" lat="64.0676388852" lon="10.4883527874">
		<tag k="name" v="Slåttamyran" />
		<tag k="natural" v="wetland" />
		<tag k="ssr:stedsnr" v="31613" />
	</node>
	<node id="-848417" lat="63.9630861149" lon="10.1156222126">
		<tag k="name" v="Ospvika" />
		<tag k="place" v="locality" />
		<tag k="ssr:stedsnr" v="941359" />
	</node>
	<node id="-848395" lat="64.0728472217" lon="10.5019777865">
		<tag k="name" v="Småmyran" />
		<tag k="natural" v="wetland" />
		<tag k="ssr:stedsnr" v="516592" />
	</node>
	<node id="-850438" lat="63.9925972215" lon="10.466433326">
		<tag k="name" v="Stormyra" />
		<tag k="natural" v="wetland" />
		<tag k="ssr:stedsnr" v="334148" />
	</node>
	<node id="-848389" lat="63.9410555515" lon="10.1704888913">
		<tag k="name" v="Jutulsenga" />
		<tag k="place" v="locality" />
		<tag k="ssr:stedsnr" v="576560" />
	</node>
	<node id="-848381" lat="63.9462527774" lon="10.5359805573">
		<tag k="name" v="Revurda" />
		<tag k="natural" v="scree" />
		<tag k="ssr:stedsnr" v="334540" />
	</node>
	<node id="-850418" lat="63.9896305541" lon="10.4698277734">
		<tag k="name" v="Novin" />
		<tag k="place" v="locality" />
		<tag k="ssr:stedsnr" v="91551" />
	</node>
	<node id="-850415" lat="63.9858444482" lon="10.2137500095">
		<tag k="name" v="Skolanova" />
		<tag k="place" v="locality" />
		<tag k="ssr:stedsnr" v="941728" />
	</node>
	<node id="-850411" lat="63.993244446" lon="10.4696000002">
		<tag k="name" v="Storgropen" />
		<tag k="place" v="locality" />
		<tag k="ssr:stedsnr" v="91550" />
	</node>
	<node id="-850407" lat="64.0662111125" lon="10.4967444508">
		<tag k="historic" v="shieling" />
		<tag k="name" v="Klingerstolseteren" />
		<tag k="place" v="locality" />
		<tag k="ssr:stedsnr" v="31604" />
	</node>
	<node id="-850406" lat="64.0316166667" lon="10.3783888933">
		<tag k="name" v="Slåttamyran" />
		<tag k="natural" v="wetland" />
		<tag k="ssr:stedsnr" v="742682" />
	</node>
	<node id="-850403" lat="63.9290749995" lon="10.452205547">
		<tag k="name" v="Stokkdalmyra" />
		<tag k="natural" v="wetland" />
		<tag k="ssr:stedsnr" v="334976" />
	</node>
	<node id="-850396" lat="64.0275722178" lon="10.3716138931">
		<tag k="name" v="Fallet" />
		<tag k="place" v="locality" />
		<tag k="ssr:stedsnr" v="273846" />
	</node>
	<node id="-850387" lat="63.9106250013" lon="10.0683694376">
		<tag k="name" v="Øver Hekkenget" />
		<tag k="place" v="locality" />
		<tag k="ssr:stedsnr" v="698333" />
	</node>
	<node id="-848338" lat="64.0157666647" lon="10.5134222206">
		<tag k="name" v="Fosshauet" />
		<tag k="place" v="locality" />
		<tag k="ssr:stedsnr" v="576544" />
	</node>
	<node id="-848334" lat="63.9774861109" lon="10.1750611162">
		<tag k="name" v="Fjellkråa" />
		<tag k="place" v="locality" />
		<tag k="ssr:stedsnr" v="516580" />
	</node>
	<node id="-850379" lat="63.9557138871" lon="10.2513111202">
		<tag k="name" v="Bjørnaenget" />
		<tag k="place" v="locality" />
		<tag k="ssr:stedsnr" v="941734" />
	</node>
	<node id="-850372" lat="63.8676638876" lon="10.2754388789">
		<tag k="name" v="Stranda" />
		<tag k="natural" v="wetland" />
		<tag k="ssr:stedsnr" v="213923" />
	</node>
	<node id="-848315" lat="64.078497219" lon="10.171766664">
		<tag k="name" v="Buvika" />
		<tag k="place" v="locality" />
		<tag k="ssr:stedsnr" v="91140" />
	</node>
	<node id="-850362" lat="63.864224998" lon="10.2314027878">
		<tag k="name" v="Kraggaurda" />
		<tag k="natural" v="scree" />
		<tag k="ssr:stedsnr" v="637652" />
	</node>
	<node id="-848311" lat="63.9827166654" lon="10.2092722243">
		<tag k="name" v="Skola" />
		<tag k="place" v="locality" />
		<tag k="ssr:stedsnr" v="456733" />
	</node>
	<node id="-850351" lat="63.9649249982" lon="10.12641945">
		<tag k="name" v="Kvennhusvollen" />
		<tag k="place" v="locality" />
		<tag k="ssr:stedsnr" v="637647" />
	</node>
	<node id="-850341" lat="64.0043111078" lon="10.3783972126">
		<tag k="historic" v="shieling" />
		<tag k="name" v="Stavessetra" />
		<tag k="place" v="locality" />
		<tag k="ssr:stedsnr" v="273835" />
	</node>
	<node id="-848290" lat="63.9494305556" lon="10.498316674">
		<tag k="name" v="Bjørnaheimen" />
		<tag k="place" v="locality" />
		<tag k="ssr:stedsnr" v="334534" />
	</node>
	<node id="-850333" lat="64.0625861148" lon="10.4561416692">
		<tag k="name" v="Seterlimyran" />
		<tag k="natural" v="wetland" />
		<tag k="ssr:stedsnr" v="576137" />
	</node>
	<node id="-850330" lat="63.9769388889" lon="10.2120527846">
		<tag k="name" v="Hutjønnmyra" />
		<tag k="natural" v="wetland" />
		<tag k="ssr:stedsnr" v="395758" />
	</node>
	<node id="-848281" lat="63.9797805592" lon="10.179447222">
		<tag k="name" v="Holbekkmyra" />
		<tag k="natural" v="wetland" />
		<tag k="ssr:stedsnr" v="759602" />
	</node>
	<node id="-848272" lat="64.0864055574" lon="10.5135499968">
		<tag k="name" v="Svartmyrbakken" />
		<tag k="natural" v="wetland" />
		<tag k="ssr:stedsnr" v="516563" />
	</node>
	<node id="-848271" lat="63.9785333332" lon="10.1836388897">
		<tag k="name" v="Middagsstaden" />
		<tag k="place" v="locality" />
		<tag k="ssr:stedsnr" v="759570" />
	</node>
	<node id="-850318" lat="64.0440194435" lon="10.4343888923">
		<tag k="name" v="Bjørnamyra" />
		<tag k="natural" v="wetland" />
		<tag k="ssr:stedsnr" v="637667" />
	</node>
	<node id="-848267" lat="64.0006750044" lon="10.4283416659">
		<tag k="name" v="Tverråsmyra" />
		<tag k="natural" v="wetland" />
		<tag k="ssr:stedsnr" v="455850" />
	</node>
	<node id="-850314" lat="63.9431305576" lon="10.3275527712">
		<tag k="name" v="Nymoteigen" />
		<tag k="place" v="locality" />
		<tag k="ssr:stedsnr" v="334971" />
	</node>
	<node id="-848265" lat="63.9074416639" lon="10.0950472157">
		<tag k="name" v="Øykmarka" />
		<tag k="place" v="locality" />
		<tag k="ssr:stedsnr" v="334515" />
	</node>
	<node id="-848260" lat="63.9325888848" lon="10.1727361114">
		<tag k="name" v="Finnsetmarka" />
		<tag k="place" v="locality" />
		<tag k="ssr:stedsnr" v="759566" />
	</node>
	<node id="-850305" lat="63.9790750005" lon="10.4394027747">
		<tag k="name" v="Holmyra" />
		<tag k="natural" v="wetland" />
		<tag k="ssr:stedsnr" v="820760" />
	</node>
	<node id="-850301" lat="63.9531972214" lon="10.256147229">
		<tag k="name" v="Fjøsdalsmyra" />
		<tag k="natural" v="wetland" />
		<tag k="ssr:stedsnr" v="395766" />
	</node>
	<node id="-848250" lat="63.9443694463" lon="10.524238882">
		<tag k="name" v="Marenengmyra" />
		<tag k="natural" v="wetland" />
		<tag k="ssr:stedsnr" v="456726" />
	</node>
	<node id="-846910" lat="64.0264638889" lon="10.3059055566">
		<tag k="historic" v="shieling" />
		<tag k="name" v="Imsåseteren" />
		<tag k="place" v="locality" />
		<tag k="ssr:stedsnr" v="880117" />
	</node>
	<node id="-850286" lat="64.0124888918" lon="10.3660111054">
		<tag k="name" v="Myrengøra" />
		<tag k="place" v="locality" />
		<tag k="ssr:stedsnr" v="880832" />
	</node>
	<node id="-850285" lat="63.9303194479" lon="10.1547166643">
		<tag k="name" v="Kalvskinnet" />
		<tag k="place" v="locality" />
		<tag k="ssr:stedsnr" v="91532" />
	</node>
	<node id="-850260" lat="64.004808332" lon="10.4757305479">
		<tag k="name" v="Fagerlimyra" />
		<tag k="natural" v="wetland" />
		<tag k="ssr:stedsnr" v="31574" />
	</node>
	<node id="-850256" lat="63.9309027808" lon="10.4578972199">
		<tag k="name" v="Kjerillmyran" />
		<tag k="natural" v="wetland" />
		<tag k="ssr:stedsnr" v="820728" />
	</node>
	<node id="-848205" lat="64.0088888851" lon="10.4410416701">
		<tag k="name" v="Litlvasskogen" />
		<tag k="place" v="locality" />
		<tag k="ssr:stedsnr" v="455842" />
	</node>
	<node id="-850242" lat="63.9158972181" lon="10.139136121">
		<tag k="name" v="Evjan" />
		<tag k="place" v="locality" />
		<tag k="ssr:stedsnr" v="152573" />
	</node>
	<node id="-850238" lat="64.0604416622" lon="10.5421944534">
		<tag k="name" v="Kolva" />
		<tag k="place" v="locality" />
		<tag k="ssr:stedsnr" v="637626" />
	</node>
	<node id="-850235" lat="63.9880777741" lon="10.4055638853">
		<tag k="name" v="Liamyra" />
		<tag k="natural" v="wetland" />
		<tag k="ssr:stedsnr" v="273824" />
	</node>
	<node id="-850234" lat="64.0073222229" lon="10.485561108">
		<tag k="name" v="Kattatjønnmyra" />
		<tag k="natural" v="wetland" />
		<tag k="ssr:stedsnr" v="152572" />
	</node>
	<node id="-848185" lat="63.9311333349" lon="10.3556722309">
		<tag k="name" v="Sommerhagen" />
		<tag k="place" v="locality" />
		<tag k="ssr:stedsnr" v="31987" />
	</node>
	<node id="-848182" lat="63.9232833335" lon="10.1538805642">
		<tag k="name" v="Kalmoen" />
		<tag k="place" v="locality" />
		<tag k="ssr:stedsnr" v="576523" />
	</node>
	<node id="-850227" lat="63.9521472252" lon="10.3644611077">
		<tag k="name" v="Setermyran" />
		<tag k="natural" v="wetland" />
		<tag k="ssr:stedsnr" v="334956" />
	</node>
	<node id="-850226" lat="63.97787778" lon="10.4668694366">
		<tag k="name" v="Moltmyra" />
		<tag k="natural" v="wetland" />
		<tag k="ssr:stedsnr" v="941701" />
	</node>
	<node id="-850224" lat="63.9465666709" lon="10.4957611096">
		<tag k="name" v="Gråfjellkamurda" />
		<tag k="natural" v="scree" />
		<tag k="ssr:stedsnr" v="31565" />
	</node>
	<node id="-848168" lat="64.0186944438" lon="10.2696527773">
		<tag k="name" v="Grandalsmyran" />
		<tag k="natural" v="wetland" />
		<tag k="ssr:stedsnr" v="559700" />
	</node>
	<node id="-848166" lat="63.9405138852" lon="10.4933000088">
		<tag k="historic" v="shieling" />
		<tag k="name" v="Gammelseteren" />
		<tag k="place" v="locality" />
		<tag k="ssr:stedsnr" v="698720" />
	</node>
	<node id="-848159" lat="63.9244055555" lon="10.4578388975">
		<tag k="name" v="Buvadvegen" />
		<tag k="place" v="locality" />
		<tag k="ssr:stedsnr" v="698722" />
	</node>
	<node id="-850201" lat="63.9637083376" lon="10.4045194461">
		<tag k="name" v="Uggdalsmyran" />
		<tag k="natural" v="wetland" />
		<tag k="ssr:stedsnr" v="880810" />
	</node>
	<node id="-850199" lat="63.9329027761" lon="10.4650666732">
		<tag k="name" v="Tjønnmyra" />
		<tag k="natural" v="wetland" />
		<tag k="ssr:stedsnr" v="820736" />
	</node>
	<node id="-850193" lat="63.9095638912" lon="10.1393472147">
		<tag k="name" v="Mårdholet" />
		<tag k="place" v="locality" />
		<tag k="ssr:stedsnr" v="516153" />
	</node>
	<node id="-850192" lat="63.8893194471" lon="10.0624111088">
		<tag k="name" v="Kammaseteren" />
		<tag k="place" v="locality" />
		<tag k="ssr:stedsnr" v="698319" />
	</node>
	<node id="-848139" lat="64.0115083337" lon="10.3174027743">
		<tag k="historic" v="shieling" />
		<tag k="name" v="Gammelseteren" />
		<tag k="place" v="locality" />
		<tag k="ssr:stedsnr" v="31110" />
	</node>
	<node id="-848138" lat="63.9873222253" lon="10.1324583247">
		<tag k="name" v="Benkmyra" />
		<tag k="natural" v="wetland" />
		<tag k="ssr:stedsnr" v="577357" />
	</node>
	<node id="-848133" lat="63.9510166705" lon="10.5156611152">
		<tag k="name" v="Hyllvadmyra" />
		<tag k="natural" v="wetland" />
		<tag k="ssr:stedsnr" v="516541" />
	</node>
	<node id="-850172" lat="63.9278527774" lon="10.4606527774">
		<tag k="landuse" v="meadow" />
		<tag k="name" v="Granmarka" />
		<tag k="ssr:stedsnr" v="820731" />
	</node>
	<node id="-850170" lat="63.9321083367" lon="10.5534416615">
		<tag k="name" v="Tverrlimyra" />
		<tag k="natural" v="wetland" />
		<tag k="ssr:stedsnr" v="395743" />
	</node>
	<node id="-848119" lat="63.9974861128" lon="10.197536101">
		<tag k="name" v="Granmarka" />
		<tag k="place" v="locality" />
		<tag k="ssr:stedsnr" v="91095" />
	</node>
	<node id="-848118" lat="63.9768055557" lon="10.4717833381">
		<tag k="name" v="Litlvasskogen" />
		<tag k="place" v="locality" />
		<tag k="ssr:stedsnr" v="698684" />
	</node>
	<node id="-850165" lat="63.8910416702" lon="10.2191277808">
		<tag k="name" v="Øver Garrabrekka" />
		<tag k="natural" v="wetland" />
		<tag k="ssr:stedsnr" v="881668" />
	</node>
	<node id="-848115" lat="63.9255611141" lon="10.4076194529">
		<tag k="name" v="Morvoll" />
		<tag k="place" v="locality" />
		<tag k="ssr:stedsnr" v="91917" />
	</node>
	<node id="-850162" lat="63.9311444423" lon="10.4702861102">
		<tag k="name" v="Dordiengmyran" />
		<tag k="natural" v="wetland" />
		<tag k="ssr:stedsnr" v="820734" />
	</node>
	<node id="-850160" lat="64.0580999991" lon="9.93640278308">
		<tag k="name" v="Sveinmyra" />
		<tag k="natural" v="wetland" />
		<tag k="ssr:stedsnr" v="577795" />
	</node>
	<node id="-848108" lat="63.9214722247" lon="10.5521777868">
		<tag k="historic" v="shieling" />
		<tag k="name" v="Skjevilldalsseteren" />
		<tag k="place" v="locality" />
		<tag k="ssr:stedsnr" v="456704" />
	</node>
	<node id="-850155" lat="63.9586111141" lon="10.0096388825">
		<tag k="name" v="Otervika" />
		<tag k="place" v="locality" />
		<tag k="ssr:stedsnr" v="698311" />
	</node>
	<node id="-850147" lat="63.9188888907" lon="10.1300055556">
		<tag k="name" v="Brassetmyran" />
		<tag k="natural" v="wetland" />
		<tag k="ssr:stedsnr" v="620596" />
	</node>
	<node id="-848094" lat="63.973597218" lon="10.1258083357">
		<tag k="name" v="Stuaholan" />
		<tag k="place" v="locality" />
		<tag k="ssr:stedsnr" v="31102" />
	</node>
	<node id="-848093" lat="63.9618111072" lon="10.2132888887">
		<tag k="name" v="Torholet" />
		<tag k="place" v="locality" />
		<tag k="ssr:stedsnr" v="941293" />
	</node>
	<node id="-848091" lat="63.9913527779" lon="10.4587805637">
		<tag k="name" v="Storøra" />
		<tag k="natural" v="beach" />
		<tag k="ssr:stedsnr" v="516526" />
		<tag k="surface" v="sand" />
	</node>
	<node id="-848090" lat="64.0475999994" lon="10.1157722189">
		<tag k="name" v="Setermarka" />
		<tag k="place" v="locality" />
		<tag k="ssr:stedsnr" v="91916" />
	</node>
	<node id="-848089" lat="63.9363083374" lon="10.5398388838">
		<tag k="name" v="Olderneset" />
		<tag k="place" v="locality" />
		<tag k="ssr:stedsnr" v="698703" />
	</node>
	<node id="-850134" lat="64.0467333321" lon="10.0788000045">
		<tag k="name" v="Salan" />
		<tag k="place" v="locality" />
		<tag k="ssr:stedsnr" v="213879" />
	</node>
	<node id="-850130" lat="63.9225638864" lon="10.1488416759">
		<tag k="name" v="Ørlikleiva" />
		<tag k="place" v="locality" />
		<tag k="ssr:stedsnr" v="31546" />
	</node>
	<node id="-848075" lat="64.0065305553" lon="10.5047833292">
		<tag k="name" v="Sørenget" />
		<tag k="place" v="locality" />
		<tag k="ssr:stedsnr" v="759550" />
	</node>
	<node id="-848066" lat="63.9995333324" lon="10.4932083316">
		<tag k="name" v="Grønnbakkmyra" />
		<tag k="natural" v="wetland" />
		<tag k="ssr:stedsnr" v="759547" />
	</node>
	<node id="-850109" lat="63.9366749974" lon="10.5861777859">
		<tag k="name" v="Bjørnamyra" />
		<tag k="natural" v="wetland" />
		<tag k="ssr:stedsnr" v="516142" />
	</node>
	<node id="-848058" lat="64.0413027752" lon="10.4602805509">
		<tag k="name" v="Dammyra" />
		<tag k="natural" v="wetland" />
		<tag k="ssr:stedsnr" v="334478" />
	</node>
	<node id="-848054" lat="64.0262777798" lon="10.5350749987">
		<tag k="name" v="Stormyra" />
		<tag k="natural" v="wetland" />
		<tag k="ssr:stedsnr" v="334479" />
	</node>
	<node id="-848048" lat="63.8933277782" lon="10.2241166754">
		<tag k="name" v="Garrabrekka" />
		<tag k="place" v="locality" />
		<tag k="ssr:stedsnr" v="698666" />
	</node>
	<node id="-850095" lat="64.001336109" lon="10.2258499984">
		<tag k="name" v="Imsaleira" />
		<tag k="place" v="locality" />
		<tag k="ssr:stedsnr" v="334081" />
	</node>
	<node id="-850086" lat="63.935405552" lon="10.3762944387">
		<tag k="name" v="Liateigen" />
		<tag k="place" v="locality" />
		<tag k="ssr:stedsnr" v="334930" />
	</node>
	<node id="-850082" lat="63.9852000003" lon="10.1865138951">
		<tag k="name" v="Heimtun" />
		<tag k="place" v="locality" />
		<tag k="ssr:stedsnr" v="637598" />
	</node>
	<node id="-850073" lat="64.0298472216" lon="10.0928333386">
		<tag k="name" v="Stormyra" />
		<tag k="natural" v="wetland" />
		<tag k="ssr:stedsnr" v="516974" />
	</node>
	<node id="-850628" lat="63.902847222" lon="10.2400583249">
		<tag k="name" v="Gammelseteren" />
		<tag k="place" v="locality" />
		<tag k="ssr:stedsnr" v="152674" />
	</node>
	<node id="-850064" lat="63.9191027765" lon="10.4513972227">
		<tag k="name" v="Tangstad" />
		<tag k="place" v="locality" />
		<tag k="ssr:stedsnr" v="213877" />
	</node>
	<node id="-848014" lat="64.0233944401" lon="10.4282083419">
		<tag k="name" v="Øykgarden" />
		<tag k="place" v="locality" />
		<tag k="ssr:stedsnr" v="698659" />
	</node>
	<node id="-850061" lat="63.9725777766" lon="10.4160972152">
		<tag k="name" v="Tømmerloppet" />
		<tag k="place" v="locality" />
		<tag k="ssr:stedsnr" v="880781" />
	</node>
	<node id="-848011" lat="64.0831250023" lon="10.6370861145">
		<tag k="name" v="Øyan" />
		<tag k="natural" v="wetland" />
		<tag k="ssr:stedsnr" v="620303" />
	</node>
	<node id="-850057" lat="64.0039361124" lon="10.3642638849">
		<tag k="name" v="Setermyra" />
		<tag k="natural" v="wetland" />
		<tag k="ssr:stedsnr" v="213867" />
	</node>
	<node id="-848007" lat="63.9566555562" lon="10.4321111135">
		<tag k="name" v="Skjettenlimyra" />
		<tag k="natural" v="wetland" />
		<tag k="ssr:stedsnr" v="455810" />
	</node>
	<node id="-848004" lat="63.9602138929" lon="10.4252194453">
		<tag k="name" v="Masterholmyran" />
		<tag k="natural" v="wetland" />
		<tag k="ssr:stedsnr" v="820234" />
	</node>
	<node id="-848002" lat="63.8964888922" lon="10.2221666574">
		<tag k="name" v="Garrabrekkmyra" />
		<tag k="natural" v="wetland" />
		<tag k="ssr:stedsnr" v="456675" />
	</node>
	<node id="-848001" lat="63.9474111072" lon="10.2743972236">
		<tag k="historic" v="shieling" />
		<tag k="name" v="Arnevikseteren" />
		<tag k="place" v="locality" />
		<tag k="ssr:stedsnr" v="91061" />
	</node>
	<node id="-847999" lat="63.9285750006" lon="10.3806277829">
		<tag k="name" v="Hauken" />
		<tag k="place" v="locality" />
		<tag k="ssr:stedsnr" v="152937" />
	</node>
	<node id="-847994" lat="63.9244694448" lon="10.15648611">
		<tag k="name" v="Kvennmoen" />
		<tag k="place" v="locality" />
		<tag k="ssr:stedsnr" v="516502" />
	</node>
	<node id="-847986" lat="63.9056777808" lon="10.2334305588">
		<tag k="name" v="Kvennenget" />
		<tag k="place" v="locality" />
		<tag k="ssr:stedsnr" v="456654" />
	</node>
	<node id="-850032" lat="64.0180638854" lon="10.4181055489">
		<tag k="name" v="Stakkenget" />
		<tag k="place" v="locality" />
		<tag k="ssr:stedsnr" v="30675" />
	</node>
	<node id="-850031" lat="63.9989250011" lon="10.4434583345">
		<tag k="name" v="Granmarka" />
		<tag k="place" v="locality" />
		<tag k="ssr:stedsnr" v="394862" />
	</node>
	<node id="-847982" lat="64.0352694434" lon="10.4422611012">
		<tag k="name" v="Bukkastakkmyra" />
		<tag k="natural" v="wetland" />
		<tag k="ssr:stedsnr" v="456652" />
	</node>
	<node id="-850028" lat="63.9760083313" lon="10.2498888908">
		<tag k="name" v="Kariholmyra" />
		<tag k="natural" v="wetland" />
		<tag k="ssr:stedsnr" v="820710" />
	</node>
	<node id="-847979" lat="63.9307583343" lon="10.3642777686">
		<tag k="name" v="Stormyra" />
		<tag k="natural" v="wetland" />
		<tag k="ssr:stedsnr" v="73314" />
	</node>
	<node id="-850019" lat="63.9964250015" lon="10.3812777702">
		<tag k="name" v="Skottamyra" />
		<tag k="natural" v="wetland" />
		<tag k="ssr:stedsnr" v="863188" />
	</node>
	<node id="-847963" lat="63.9766305591" lon="10.3857972132">
		<tag k="name" v="Storreina" />
		<tag k="place" v="locality" />
		<tag k="ssr:stedsnr" v="455796" />
	</node>
	<node id="-850005" lat="63.941319449" lon="10.3590555469">
		<tag k="name" v="Buktateigen" />
		<tag k="place" v="locality" />
		<tag k="ssr:stedsnr" v="516938" />
	</node>
	<node id="-850000" lat="63.9212083306" lon="10.4398472143">
		<tag k="name" v="Torberheimen" />
		<tag k="place" v="locality" />
		<tag k="ssr:stedsnr" v="576901" />
	</node>
	<node id="-847946" lat="64.0081694467" lon="10.3490666639">
		<tag k="name" v="Grøthølen" />
		<tag k="natural" v="wetland" />
		<tag k="ssr:stedsnr" v="91869" />
	</node>
	<node id="-849992" lat="63.9081527816" lon="10.2767805639">
		<tag k="name" v="Svarttjønnmyra" />
		<tag k="natural" v="wetland" />
		<tag k="ssr:stedsnr" v="213047" />
	</node>
	<node id="-847943" lat="63.9922305524" lon="10.4030194493">
		<tag k="name" v="Lauvlimyra" />
		<tag k="natural" v="wetland" />
		<tag k="ssr:stedsnr" v="455771" />
	</node>
	<node id="-847941" lat="63.9384944474" lon="10.2109583418">
		<tag k="name" v="Aunmarka" />
		<tag k="place" v="locality" />
		<tag k="ssr:stedsnr" v="456638" />
	</node>
	<node id="-847940" lat="63.9395944441" lon="10.6068583253">
		<tag k="name" v="Plogmyra" />
		<tag k="natural" v="wetland" />
		<tag k="ssr:stedsnr" v="213417" />
	</node>
	<node id="-847939" lat="63.9530444401" lon="10.2206277824">
		<tag k="name" v="Bakarvika" />
		<tag k="place" v="locality" />
		<tag k="ssr:stedsnr" v="881141" />
	</node>
	<node id="-849982" lat="63.9479861094" lon="10.2312250064">
		<tag k="name" v="Grova" />
		<tag k="place" v="locality" />
		<tag k="ssr:stedsnr" v="820674" />
	</node>
	<node id="-849980" lat="63.9191333312" lon="10.4177638945">
		<tag k="name" v="Dyrholmen" />
		<tag k="place" v="locality" />
		<tag k="ssr:stedsnr" v="576906" />
	</node>
	<node id="-849977" lat="63.9593000028" lon="10.2918305526">
		<tag k="name" v="Stakkenget" />
		<tag k="place" v="locality" />
		<tag k="ssr:stedsnr" v="334065" />
	</node>
	<node id="-849975" lat="63.9120944456" lon="10.0988333432">
		<tag k="name" v="Gammelseteren" />
		<tag k="place" v="locality" />
		<tag k="ssr:stedsnr" v="637575" />
	</node>
	<node id="-849969" lat="63.9804916695" lon="10.6232638841">
		<tag k="historic" v="shieling" />
		<tag k="name" v="Harravassliseteren" />
		<tag k="place" v="locality" />
		<tag k="ssr:stedsnr" v="455387" />
	</node>
	<node id="-849957" lat="64.0377555588" lon="10.4046777694">
		<tag k="name" v="Sannamyra" />
		<tag k="natural" v="wetland" />
		<tag k="ssr:stedsnr" v="941652" />
	</node>
	<node id="-849955" lat="64.0152749992" lon="10.3989277843">
		<tag k="name" v="Byseterholet" />
		<tag k="place" v="locality" />
		<tag k="ssr:stedsnr" v="820668" />
	</node>
	<node id="-849950" lat="63.9343000027" lon="10.4108416636">
		<tag k="name" v="Myran" />
		<tag k="natural" v="wetland" />
		<tag k="ssr:stedsnr" v="576911" />
	</node>
	<node id="-849947" lat="64.0247055571" lon="10.5082472274">
		<tag k="name" v="Halten" />
		<tag k="place" v="locality" />
		<tag k="ssr:stedsnr" v="637570" />
	</node>
	<node id="-849941" lat="64.0230333319" lon="9.89785000315">
		<tag k="name" v="Reksteren" />
		<tag k="place" v="locality" />
		<tag k="ssr:stedsnr" v="395685" />
	</node>
	<node id="-849933" lat="63.9976805574" lon="10.3777777861">
		<tag k="name" v="Langmyra" />
		<tag k="natural" v="wetland" />
		<tag k="ssr:stedsnr" v="213837" />
	</node>
	<node id="-847878" lat="63.9246555543" lon="10.4503611013">
		<tag k="name" v="Kumyra" />
		<tag k="natural" v="wetland" />
		<tag k="ssr:stedsnr" v="637983" />
	</node>
	<node id="-849923" lat="63.9780277817" lon="10.2390916672">
		<tag k="name" v="Mikkelmomyra" />
		<tag k="natural" v="wetland" />
		<tag k="ssr:stedsnr" v="880758" />
	</node>
</osm>
