<?xml version="1.0" encoding="UTF-8"?>
<osm generator="osmapis" version="0.6">
	<node id="-840701" lat="63.9577750002" lon="10.183594452">
		<tag k="landuse" v="harbour" />
		<tag k="name" v="Monstad småbåthavn" />
		<tag k="seamark:type" v="harbour" />
		<tag k="ssr:stedsnr" v="362749" />
	</node>
	<node id="-843256" lat="64.0003805564" lon="10.2073749988">
		<tag k="bridge" v="yes" />
		<tag k="layer" v="1" />
		<tag k="name" v="Grytbrua" />
		<tag k="ssr:stedsnr" v="588284" />
	</node>
	<node id="-840823" lat="64.0364000037" lon="9.92174721937">
		<tag k="name" v="Jekthamna" />
		<tag k="place" v="locality" />
		<tag k="ssr:stedsnr" v="152847" />
	</node>
	<node id="-841334" lat="64.0218388861" lon="9.88343611026">
		<tag k="landuse" v="harbour" />
		<tag k="name" v="Sørgårdsvågen fiskeri- og småbåthavn" />
		<tag k="seamark:type" v="harbour" />
		<tag k="ssr:stedsnr" v="969726" />
	</node>
	<node id="-842228" lat="63.9176888929" lon="10.4176361128">
		<tag k="ford" v="yes" />
		<tag k="name" v="Strandavadet" />
		<tag k="place" v="locality" />
		<tag k="ssr:stedsnr" v="456887" />
	</node>
	<node id="-842990" lat="63.9726972201" lon="10.0041972216">
		<tag k="junction" v="yes" />
		<tag k="name" v="Korsan" />
		<tag k="place" v="locality" />
		<tag k="ssr:stedsnr" v="516062" />
	</node>
	<node id="-840146" lat="64.0462722221" lon="10.0759833275">
		<tag k="junction" v="yes" />
		<tag k="name" v="Salbuvikkrysset" />
		<tag k="place" v="locality" />
		<tag k="ssr:stedsnr" v="637871" />
	</node>
	<node id="-842474" lat="64.0396388861" lon="10.0600694507">
		<tag k="landuse" v="harbour" />
		<tag k="name" v="Kuringvågen småbåthavn" />
		<tag k="seamark:type" v="harbour" />
		<tag k="ssr:stedsnr" v="483757" />
	</node>
	<node id="-841961" lat="64.0972444489" lon="10.5135444383">
		<tag k="amenity" v="parking" />
		<tag k="name" v="Momyrstua parkering" />
		<tag k="ssr:stedsnr" v="180712" />
	</node>
	<node id="-843368" lat="64.0018999999" lon="10.0214361194">
		<tag k="highway" v="path" />
		<tag k="name" v="Gangstøa" />
		<tag k="ssr:stedsnr" v="577779" />
	</node>
	<node id="-841318" lat="64.0344555564" lon="10.2813194345">
		<tag k="bridge" v="yes" />
		<tag k="layer" v="1" />
		<tag k="name" v="Øver Jordbrua" />
		<tag k="ssr:stedsnr" v="152128" />
	</node>
	<node id="-840614" lat="63.9885499988" lon="10.7383666728">
		<tag k="amenity" v="parking" />
		<tag k="name" v="Skansen gård parkering" />
		<tag k="ssr:stedsnr" v="241707" />
	</node>
	<node id="-840412" lat="64.0878694453" lon="10.0347333329">
		<tag k="highway" v="path" />
		<tag k="name" v="Storvikkleiva" />
		<tag k="ssr:stedsnr" v="577981" />
	</node>
	<node id="-842201" lat="63.9047416672" lon="10.2225499978">
		<tag k="highway" v="path" />
		<tag k="name" v="Størkvegen" />
		<tag k="ssr:stedsnr" v="759715" />
	</node>
	<node id="-840916" lat="64.0291666694" lon="10.2646777746">
		<tag k="bridge" v="yes" />
		<tag k="layer" v="1" />
		<tag k="name" v="Ner Jordbrua" />
		<tag k="ssr:stedsnr" v="820155" />
	</node>
	<node id="-840531" lat="63.978449998" lon="9.9950694362">
		<tag k="landuse" v="harbour" />
		<tag k="name" v="Ratvika småbåthavn" />
		<tag k="seamark:type" v="harbour" />
		<tag k="ssr:stedsnr" v="604750" />
	</node>
	<node id="-840786" lat="64.0170333298" lon="10.2241083398">
		<tag k="ford" v="yes" />
		<tag k="name" v="Setervadet" />
		<tag k="place" v="locality" />
		<tag k="ssr:stedsnr" v="637069" />
	</node>
	<node id="-841681" lat="64.0472194427" lon="10.0178999899">
		<tag k="landuse" v="harbour" />
		<tag k="name" v="Stokkøy fiskerikai" />
		<tag k="seamark:type" v="harbour" />
		<tag k="ssr:stedsnr" v="848731" />
	</node>
	<node id="-842573" lat="63.9251083343" lon="10.4458027868">
		<tag k="highway" v="path" />
		<tag k="name" v="Steinvegen" />
		<tag k="ssr:stedsnr" v="456979" />
	</node>
	<node id="-841034" lat="63.9337999969" lon="10.0172305461">
		<tag k="landuse" v="harbour" />
		<tag k="name" v="Sandstad småbåthavn" />
		<tag k="seamark:type" v="harbour" />
		<tag k="ssr:stedsnr" v="908786" />
	</node>
	<node id="-841929" lat="63.9202388885" lon="9.97129999011">
		<tag k="man_made" v="quay" />
		<tag k="name" v="Odden" />
		<tag k="place" v="locality" />
		<tag k="ssr:stedsnr" v="698017" />
	</node>
	<node id="-841159" lat="63.9923222222" lon="10.7538111061">
		<tag k="amenity" v="parking" />
		<tag k="name" v="Gurbelva parkering" />
		<tag k="ssr:stedsnr" v="969714" />
	</node>
	<node id="-840863" lat="63.9127416623" lon="10.393180556">
		<tag k="highway" v="path" />
		<tag k="name" v="Stien" />
		<tag k="ssr:stedsnr" v="637925" />
	</node>
	<node id="-842816" lat="64.0603527768" lon="10.5120416648">
		<tag k="fixme" v="consider highway=path" />
		<tag k="highway" v="track" />
		<tag k="name" v="Åltjønnvegen" />
		<tag k="ssr:stedsnr" v="941576" />
	</node>
	<node id="-843583" lat="64.0013055554" lon="10.0244749973">
		<tag k="highway" v="path" />
		<tag k="name" v="Innergangstøa" />
		<tag k="ssr:stedsnr" v="941739" />
	</node>
	<node id="-843196" lat="64.0324249983" lon="10.2755472127">
		<tag k="bridge" v="yes" />
		<tag k="layer" v="1" />
		<tag k="name" v="Midter Jordbrua" />
		<tag k="ssr:stedsnr" v="516107" />
	</node>
	<node id="-840635" lat="63.9493611071" lon="10.5155555534">
		<tag k="ford" v="yes" />
		<tag k="name" v="Hyllvadet" />
		<tag k="place" v="locality" />
		<tag k="ssr:stedsnr" v="637160" />
	</node>
	<node id="-841145" lat="63.981775001" lon="10.4768972195">
		<tag k="highway" v="path" />
		<tag k="name" v="Hyllvegen" />
		<tag k="ssr:stedsnr" v="516688" />
	</node>
	<node id="-841655" lat="63.8942444415" lon="10.3964444493">
		<tag k="amenity" v="parking" />
		<tag k="name" v="Storkvernavatnet parkering" />
		<tag k="ssr:stedsnr" v="119736" />
	</node>
	<node id="-842549" lat="63.9239499988" lon="10.4537805565">
		<tag k="ford" v="yes" />
		<tag k="name" v="Buvadet" />
		<tag k="place" v="locality" />
		<tag k="ssr:stedsnr" v="456982" />
	</node>
	<node id="-841293" lat="63.9181666645" lon="9.97270832638">
		<tag k="landuse" v="harbour" />
		<tag k="name" v="Barøya småbåthavn" />
		<tag k="seamark:type" v="harbour" />
		<tag k="ssr:stedsnr" v="969730" />
	</node>
	<node id="-840498" lat="63.9917305545" lon="9.99952778513">
		<tag k="landuse" v="harbour" />
		<tag k="name" v="Grøttingen småbåthavn" />
		<tag k="seamark:type" v="harbour" />
		<tag k="ssr:stedsnr" v="301735" />
	</node>
	<node id="-841779" lat="63.9287027758" lon="9.91776389609">
		<tag k="landuse" v="harbour" />
		<tag k="name" v="Kabelvågen småbåthavn" />
		<tag k="seamark:type" v="harbour" />
		<tag k="ssr:stedsnr" v="665761" />
	</node>
	<node id="-840367" lat="63.9325194482" lon="10.2720888989">
		<tag k="highway" v="path" />
		<tag k="name" v="Vardfjellvegen" />
		<tag k="ssr:stedsnr" v="395054" />
	</node>
	<node id="-840492" lat="63.9901472217" lon="10.7452722209">
		<tag k="amenity" v="parking" />
		<tag k="name" v="Skansen parkering" />
		<tag k="ssr:stedsnr" v="301722" />
	</node>
	<node id="-842119" lat="63.9575166648" lon="10.6526250039">
		<tag k="highway" v="path" />
		<tag k="name" v="Stigan" />
		<tag k="ssr:stedsnr" v="881364" />
	</node>
	<node id="-840615" lat="64.0357444454" lon="9.9926666764">
		<tag k="landuse" v="harbour" />
		<tag k="name" v="Flatholmen småbåthavn" />
		<tag k="seamark:type" v="harbour" />
		<tag k="ssr:stedsnr" v="301745" />
	</node>
	<node id="-842790" lat="63.9318444456" lon="10.4681861091">
		<tag k="ford" v="yes" />
		<tag k="name" v="Øver Granmarkvadet" />
		<tag k="place" v="locality" />
		<tag k="ssr:stedsnr" v="213761" />
	</node>
	<node id="-840101" lat="64.0476805514" lon="10.0200055469">
		<tag k="landuse" v="harbour" />
		<tag k="name" v="Sentrum flytekai" />
		<tag k="seamark:type" v="harbour" />
		<tag k="ssr:stedsnr" v="544734" />
	</node>
	<node id="-840482" lat="63.925241668" lon="10.5680166754">
		<tag k="amenity" v="parking" />
		<tag k="name" v="Langløftmyra parkering" />
		<tag k="ssr:stedsnr" v="787717" />
	</node>
	<node id="-842399" lat="63.9615361107" lon="10.2223750101">
		<tag k="bridge" v="yes" />
		<tag k="layer" v="1" />
		<tag k="name" v="Årnesbrua" />
		<tag k="ssr:stedsnr" v="576729" />
	</node>
	<node id="-843932" lat="63.9277805516" lon="10.4641222176">
		<tag k="ford" v="yes" />
		<tag k="name" v="Ner Granmarkvadet" />
		<tag k="place" v="locality" />
		<tag k="ssr:stedsnr" v="637746" />
	</node>
	<node id="-841137" lat="63.8564749988" lon="10.2271805515">
		<tag k="amenity" v="parking" />
		<tag k="name" v="Austdalen parkering" />
		<tag k="ssr:stedsnr" v="59707" />
	</node>
	<node id="-841238" lat="64.023341667" lon="10.0680888866">
		<tag k="bridge" v="yes" />
		<tag k="layer" v="1" />
		<tag k="name" v="Nordre Lunnfjordbrua" />
		<tag k="ssr:stedsnr" v="164357" />
	</node>
	<node id="-840848" lat="64.0125361086" lon="9.95389721867">
		<tag k="landuse" v="harbour" />
		<tag k="name" v="Grimsneset småbåthavn" />
		<tag k="seamark:type" v="harbour" />
		<tag k="ssr:stedsnr" v="908775" />
	</node>
	<node id="-841099" lat="64.0082749984" lon="10.0422916597">
		<tag k="amenity" v="parking" />
		<tag k="name" v="Rørskogen parkering" />
		<tag k="ssr:stedsnr" v="59696" />
	</node>
	<node id="-841737" lat="64.0475972187" lon="9.94489722871">
		<tag k="landuse" v="harbour" />
		<tag k="name" v="Stokkøy marina" />
		<tag k="seamark:type" v="harbour" />
		<tag k="ssr:stedsnr" v="423755" />
	</node>
	<node id="-841480" lat="64.0266916661" lon="9.93446388571">
		<tag k="amenity" v="ferry_terminal" />
		<tag k="name" v="Linesøy ferjehamn" />
		<tag k="ssr:stedsnr" v="941309" />
	</node>
	<node id="-840584" lat="63.9946444436" lon="10.1632027767">
		<tag k="highway" v="path" />
		<tag k="name" v="Bekkastien" />
		<tag k="ssr:stedsnr" v="577171" />
	</node>
	<node id="-840450" lat="63.9143777754" lon="10.4058861187">
		<tag k="amenity" v="parking" />
		<tag k="name" v="Kvennavassveien parkering" />
		<tag k="ssr:stedsnr" v="301725" />
	</node>
	<node id="-841729" lat="63.9861555542" lon="10.7194527708">
		<tag k="amenity" v="parking" />
		<tag k="name" v="Krokvasselva parkering" />
		<tag k="ssr:stedsnr" v="423751" />
	</node>
</osm>
