<?xml version="1.0" encoding="UTF-8"?>
<osm generator="osmapis" version="0.6">
	<node id="-845312" lat="64.080933335" lon="10.0452944494">
		<tag k="amenity" v="community_centre" />
		<tag k="name" v="Harbak bedehus" />
		<tag k="ssr:stedsnr" v="480331" />
	</node>
	<node id="-848894" lat="64.0372838624" lon="10.0470693111">
		<tag k="alt_name" v="Stokksund;Stokksund kirke" />
		<tag k="amenity" v="place_of_worship" />
		<tag k="denomination" v="lutheran" />
		<tag k="name" v="Stoksund kirke" />
		<tag k="religion" v="christian" />
		<tag k="ssr:stedsnr" v="758324" />
	</node>
	<node id="-847529" lat="64.0805694412" lon="10.0642888976">
		<tag k="name" v="Harbakshola" />
		<tag k="ssr:stedsnr" v="134207" />
		<tag k="tourism" v="attraction" />
	</node>
	<node id="-845860" lat="63.9225472223" lon="10.418469445">
		<tag k="amenity" v="community_centre" />
		<tag k="name" v="Sørdalshuset" />
		<tag k="old_name" v="Sørdalen grendahus" />
		<tag k="ssr:stedsnr" v="237358" />
	</node>
	<node id="-846065" lat="64.1021055571" lon="10.533530552">
		<tag k="name" v="Måmyrvatnet" />
		<tag k="place" v="locality" />
		<tag k="ssr:stedsnr" v="909494" />
	</node>
	<node id="-845296" lat="63.9244999979" lon="10.1504805585">
		<tag k="amenity" v="community_centre" />
		<tag k="name" v="Kroken grendahus" />
		<tag k="ssr:stedsnr" v="480330" />
	</node>
	<node id="-846953" lat="63.9227333331" lon="10.414175003">
		<tag k="amenity" v="community_centre" />
		<tag k="name" v="Sørdalen bedehus" />
		<tag k="ssr:stedsnr" v="844338" />
	</node>
	<node id="-847717" lat="63.9653916623" lon="10.2145694451">
		<tag k="amenity" v="community_centre" />
		<tag k="name" v="Bakeriet" />
		<tag k="ssr:stedsnr" v="603670" />
	</node>
	<node id="-847715" lat="63.9627527783" lon="10.2228500092">
		<tag k="amenity" v="community_centre" />
		<tag k="name" v="Kulturstua" />
		<tag k="ssr:stedsnr" v="603671" />
	</node>
	<node id="-847202" lat="64.0235749964" lon="9.92030555809">
		<tag k="alt_name" v="Heimly" />
		<tag k="amenity" v="community_centre" />
		<tag k="name" v="Linesøy grendahus" />
		<tag k="ssr:stedsnr" v="541385" />
	</node>
	<node id="-847580" lat="63.9407583327" lon="10.0909972213">
		<tag k="amenity" v="community_centre" />
		<tag k="name" v="Bergli forsamlingshus" />
		<tag k="ssr:stedsnr" v="905349" />
	</node>
	<node id="-845370" lat="63.9249305547" lon="9.93483055581">
		<tag k="amenity" v="community_centre" />
		<tag k="name" v="Lauvøy grendahus" />
		<tag k="ssr:stedsnr" v="783349" />
	</node>
	<node id="-846935" lat="64.0462361119" lon="9.9467944471">
		<tag k="amenity" v="community_centre" />
		<tag k="name" v="Bygdaboksen" />
		<tag k="ssr:stedsnr" v="424453" />
	</node>
	<node id="-848339" lat="63.9869750031" lon="10.4277611151">
		<tag k="amenity" v="community_centre" />
		<tag k="name" v="By bedehus" />
		<tag k="ssr:stedsnr" v="662340" />
	</node>
	<node id="-845778" lat="63.9650166662" lon="9.98191111496">
		<tag k="amenity" v="community_centre" />
		<tag k="name" v="Tørhogg forsamlingshus" />
		<tag k="old_name" v="Tørrhaug forsamlingshus;Ungdomshuset" />
		<tag k="ssr:stedsnr" v="102439" />
	</node>
	<node id="-848227" lat="64.0191499988" lon="9.93047221626">
		<tag k="alt_name" v="Bergly" />
		<tag k="amenity" v="community_centre" />
		<tag k="name" v="Linesøy ungdomshus" />
		<tag k="ssr:stedsnr" v="662353" />
	</node>
	<node id="-848962" lat="63.8369750001" lon="10.4869805606">
		<tag k="name" v="Ørnnova" />
		<tag k="place" v="locality" />
		<tag k="ssr:stedsnr" v="923526" />
	</node>
	<node id="-846347" lat="64.0967555579" lon="10.5149333369">
		<tag k="amenity" v="community_centre" />
		<tag k="name" v="Momyrstua" />
		<tag k="ssr:stedsnr" v="541379" />
	</node>
	<node id="-847164" lat="63.9636527769" lon="10.238511103">
		<tag k="name" v="Fredmoen" />
		<tag k="ssr:stedsnr" v="541369" />
		<tag k="tourism" v="museum" />
	</node>
	<node id="-846906" lat="63.923652778" lon="10.0217555652">
		<tag k="amenity" v="community_centre" />
		<tag k="name" v="Eidem forsamlingshus" />
		<tag k="ssr:stedsnr" v="965380" />
	</node>
	<node id="-847543" lat="64.0423722259" lon="10.0024472243">
		<tag k="amenity" v="community_centre" />
		<tag k="name" v="Stokkøy samfunnshus" />
		<tag k="ssr:stedsnr" v="55327" />
	</node>
	<node id="-846001" lat="64.0308750022" lon="10.0840333424">
		<tag k="amenity" v="community_centre" />
		<tag k="name" v="Fredvang" />
		<tag k="ssr:stedsnr" v="723348" />
	</node>
	<node id="-847145" lat="63.9890861134" lon="10.2068083405">
		<tag k="amenity" v="community_centre" />
		<tag k="name" v="Imsen ungdomshus" />
		<tag k="ssr:stedsnr" v="601328" />
	</node>
	<node id="-845990" lat="63.9584611121" lon="10.1862972195">
		<tag k="amenity" v="community_centre" />
		<tag k="name" v="Meieriet" />
		<tag k="ssr:stedsnr" v="358340" />
	</node>
	<node id="-846244" lat="63.9613527775" lon="10.2015916602">
		<tag k="alt_name" v="Nummer 11" />
		<tag k="amenity" v="community_centre" />
		<tag k="name" v="Furuly" />
		<tag k="ssr:stedsnr" v="237348" />
	</node>
	<node id="-847262" lat="63.9677861098" lon="10.2230472264">
		<tag k="name" v="Naustanstua" />
		<tag k="ssr:stedsnr" v="176324" />
		<tag k="tourism" v="museum" />
	</node>
	<node id="-847261" lat="63.9494361114" lon="9.95611943827">
		<tag k="cemetery" v="grave" />
		<tag k="name" v="Tårnes gravplass" />
		<tag k="place" v="locality" />
		<tag k="ssr:stedsnr" v="421700" />
	</node>
	<node id="-847631" lat="64.0399944436" lon="9.98163888384">
		<tag k="cemetery" v="grave" />
		<tag k="name" v="Stokkøya gravplass" />
		<tag k="place" v="locality" />
		<tag k="ssr:stedsnr" v="421704" />
	</node>
	<node id="-847374" lat="63.9642138858" lon="10.2199722306">
		<tag k="amenity" v="community_centre" />
		<tag k="name" v="Å misjonshus" />
		<tag k="ssr:stedsnr" v="905335" />
	</node>
	<node id="-849291" lat="63.9669749956" lon="10.2202361139">
		<tag k="amenity" v="place_of_worship" />
		<tag k="denomination" v="lutheran" />
		<tag k="name" v="Åfjord kirke" />
		<tag k="religion" v="christian" />
		<tag k="ssr:stedsnr" v="637733" />
	</node>
	<node id="-845527" lat="63.9493361094" lon="10.1006583308">
		<tag k="name" v="Dragseidet gravfelt" />
		<tag k="ssr:stedsnr" v="544753" />
		<tag k="tourism" v="attraction" />
	</node>
	<node id="-846726" lat="64.0319138933" lon="10.0876777775">
		<tag k="amenity" v="community_centre" />
		<tag k="name" v="Furuly" />
		<tag k="ssr:stedsnr" v="965367" />
	</node>
	<node id="-847621" lat="64.0139416688" lon="9.95173610646">
		<tag k="cemetery" v="grave" />
		<tag k="name" v="Linesøya gravplass" />
		<tag k="place" v="locality" />
		<tag k="ssr:stedsnr" v="421706" />
	</node>
	<node id="-848386" lat="63.9846083328" lon="10.4144999965">
		<tag k="amenity" v="community_centre" />
		<tag k="name" v="By ungdomshus" />
		<tag k="ssr:stedsnr" v="662348" />
	</node>
</osm>
