<?xml version="1.0" encoding="UTF-8"?>
<osm generator="osmapis" version="0.6">
	<node id="-255101" lat="59.0076972237" lon="8.55903055712">
		<tag k="alt_name" v="Treungen kyrkje" />
		<tag k="amenity" v="place_of_worship" />
		<tag k="denomination" v="lutheran" />
		<tag k="name" v="Treungen" />
		<tag k="religion" v="christian" />
		<tag k="ssr:stedsnr" v="2514" />
	</node>
	<node id="-256575" lat="59.144919443" lon="8.58508332857">
		<tag k="name" v="St. Olavsstein" />
		<tag k="place" v="locality" />
		<tag k="ssr:stedsnr" v="517427" />
	</node>
	<node id="-257400" lat="59.0436972241" lon="8.60436666332">
		<tag k="name" v="Lauhomheftet" />
		<tag k="place" v="locality" />
		<tag k="ssr:stedsnr" v="701570" />
	</node>
	<node id="-255735" lat="58.9778111153" lon="8.46601666679">
		<tag k="name" v="Åpåldalsskotet" />
		<tag k="place" v="locality" />
		<tag k="ssr:stedsnr" v="159067" />
	</node>
	<node id="-257782" lat="58.9717000003" lon="8.36198889533">
		<tag k="name" v="Bernsrull" />
		<tag k="place" v="locality" />
		<tag k="ssr:stedsnr" v="775985" />
	</node>
	<node id="-254441" lat="58.8804611085" lon="8.73420278002">
		<tag k="name" v="Sinderhaugane" />
		<tag k="place" v="locality" />
		<tag k="ssr:stedsnr" v="339247" />
	</node>
	<node id="-256112" lat="59.044908331" lon="8.66621943653">
		<tag k="name" v="Bjønnhiet" />
		<tag k="place" v="locality" />
		<tag k="ssr:stedsnr" v="230943" />
	</node>
	<node id="-254236" lat="59.0105888856" lon="8.48874999306">
		<tag k="name" v="Likring" />
		<tag k="place" v="locality" />
		<tag k="ssr:stedsnr" v="289247" />
	</node>
	<node id="-257262" lat="59.0549000023" lon="8.46371667383">
		<tag k="name" v="Fribuskotet" />
		<tag k="place" v="locality" />
		<tag k="ssr:stedsnr" v="653855" />
	</node>
	<node id="-256109" lat="58.993836113" lon="8.72008333428">
		<tag k="name" v="Solkors" />
		<tag k="place" v="locality" />
		<tag k="ssr:stedsnr" v="230476" />
	</node>
	<node id="-257385" lat="59.0832999965" lon="8.50286389496">
		<tag k="name" v="Munkeskrifta" />
		<tag k="place" v="locality" />
		<tag k="ssr:stedsnr" v="700582" />
	</node>
	<node id="-256872" lat="58.9920638865" lon="8.56184167445">
		<tag k="name" v="Dødsfurua" />
		<tag k="place" v="locality" />
		<tag k="ssr:stedsnr" v="579808" />
	</node>
	<node id="-257767" lat="59.1277416697" lon="8.40811389168">
		<tag k="name" v="Lauvbua" />
		<tag k="place" v="locality" />
		<tag k="ssr:stedsnr" v="775697" />
	</node>
	<node id="-258021" lat="58.9824277778" lon="8.40700555728">
		<tag k="name" v="Elgetona" />
		<tag k="place" v="locality" />
		<tag k="ssr:stedsnr" v="833376" />
	</node>
	<node id="-256867" lat="59.064002781" lon="8.5939111139">
		<tag k="name" v="Saga" />
		<tag k="place" v="locality" />
		<tag k="ssr:stedsnr" v="579618" />
	</node>
	<node id="-255682" lat="59.0115944487" lon="8.58246110601">
		<tag k="name" v="Fiskodden" />
		<tag k="place" v="locality" />
		<tag k="ssr:stedsnr" v="155848" />
	</node>
	<node id="-254672" lat="58.997180559" lon="8.57392500097">
		<tag k="cemetery" v="grave" />
		<tag k="name" v="Gravhaugane" />
		<tag k="place" v="locality" />
		<tag k="ssr:stedsnr" v="397766" />
	</node>
	<node id="-257630" lat="59.1618947257" lon="8.50581786876">
		<tag k="alt_name" v="Nissedal" />
		<tag k="amenity" v="place_of_worship" />
		<tag k="denomination" v="lutheran" />
		<tag k="name" v="Nissedal kyrkje" />
		<tag k="religion" v="christian" />
		<tag k="ssr:stedsnr" v="730808" />
	</node>
	<node id="-254181" lat="59.0492249994" lon="8.51116667214">
		<tag k="name" v="Ligruva" />
		<tag k="place" v="locality" />
		<tag k="ssr:stedsnr" v="277466" />
	</node>
	<node id="-255268" lat="59.148658331" lon="8.38364444073">
		<tag k="name" v="Dalanskotet" />
		<tag k="place" v="locality" />
		<tag k="ssr:stedsnr" v="47601" />
	</node>
	<node id="-256730" lat="59.0585111083" lon="8.47397222">
		<tag k="name" v="Fiskeholken" />
		<tag k="place" v="locality" />
		<tag k="ssr:stedsnr" v="532806" />
	</node>
	<node id="-256471" lat="59.0437305536" lon="8.66758610734">
		<tag k="name" v="Det djupe såtet" />
		<tag k="place" v="locality" />
		<tag k="ssr:stedsnr" v="472938" />
	</node>
	<node id="-257492" lat="59.0222638875" lon="8.62757777573">
		<tag k="name" v="Eileivstjønnskotet" />
		<tag k="place" v="locality" />
		<tag k="ssr:stedsnr" v="714132" />
	</node>
	<node id="-254931" lat="58.9372583348" lon="8.3198472202">
		<tag k="name" v="Likkista" />
		<tag k="place" v="locality" />
		<tag k="ssr:stedsnr" v="895969" />
	</node>
	<node id="-254249" lat="58.9207194445" lon="8.40719723039">
		<tag k="name" v="Silverspring" />
		<tag k="place" v="locality" />
		<tag k="ssr:stedsnr" v="289748" />
	</node>
	<node id="-254979" lat="59.0453499977" lon="8.37763054744">
		<tag k="name" v="Det brendte såtet" />
		<tag k="place" v="locality" />
		<tag k="ssr:stedsnr" v="897483" />
	</node>
	<node id="-255696" lat="58.98228333" lon="8.61591110873">
		<tag k="name" v="Nordheiheftet" />
		<tag k="place" v="locality" />
		<tag k="ssr:stedsnr" v="156148" />
	</node>
	<node id="-258382" lat="59.0161305581" lon="8.49466667294">
		<tag k="name" v="Bastholet" />
		<tag k="place" v="locality" />
		<tag k="ssr:stedsnr" v="956149" />
	</node>
	<node id="-254923" lat="58.981883335" lon="8.40056944633">
		<tag k="name" v="Bjønntona" />
		<tag k="place" v="locality" />
		<tag k="ssr:stedsnr" v="894409" />
	</node>
	<node id="-255178" lat="58.9839222231" lon="8.69200554711">
		<tag k="name" v="Bårekvile" />
		<tag k="place" v="locality" />
		<tag k="ssr:stedsnr" v="35026" />
	</node>
	<node id="-257207" lat="58.9788555546" lon="8.40698611068">
		<tag k="name" v="Olavs post" />
		<tag k="place" v="locality" />
		<tag k="ssr:stedsnr" v="651363" />
	</node>
	<node id="-256672" lat="58.9571277803" lon="8.42478611022">
		<tag k="name" v="Furubuskotet" />
		<tag k="place" v="locality" />
		<tag k="ssr:stedsnr" v="531168" />
	</node>
	<node id="-258370" lat="59.1544833348" lon="8.38394166942">
		<tag k="name" v="Syngjarsteinen" />
		<tag k="place" v="locality" />
		<tag k="ssr:stedsnr" v="955593" />
	</node>
	<node id="-256705" lat="59.013136115" lon="8.49246388304">
		<tag k="name" v="Likstein" />
		<tag k="place" v="locality" />
		<tag k="ssr:stedsnr" v="532245" />
	</node>
	<node id="-257983" lat="58.9629722206" lon="8.65911110378">
		<tag k="name" v="Bårekvile" />
		<tag k="place" v="locality" />
		<tag k="ssr:stedsnr" v="824868" />
	</node>
	<node id="-254837" lat="59.1507416638" lon="8.51467499844">
		<tag k="name" v="Søftestad gruve" />
		<tag k="place" v="locality" />
		<tag k="ssr:stedsnr" v="882463" />
	</node>
	<node id="-255164" lat="59.0139833327" lon="8.58837500413">
		<tag k="name" v="Bjortjønnhefti" />
		<tag k="place" v="locality" />
		<tag k="ssr:stedsnr" v="34178" />
	</node>
	<node id="-255803" lat="59.1637249974" lon="8.62652500022">
		<tag k="name" v="Huvtjønnleiken" />
		<tag k="place" v="locality" />
		<tag k="ssr:stedsnr" v="169293" />
	</node>
	<node id="-255162" lat="58.9966138917" lon="8.68507221859">
		<tag k="name" v="Nils Brunåsens såt" />
		<tag k="place" v="locality" />
		<tag k="ssr:stedsnr" v="34071" />
	</node>
	<node id="-254559" lat="59.158733333" lon="8.66376943819">
		<tag k="name" v="Jorunvollen" />
		<tag k="place" v="locality" />
		<tag k="ssr:stedsnr" v="351711" />
	</node>
	<node id="-254136" lat="59.1969749966" lon="8.56130555603">
		<tag k="name" v="Bjønntjønnheftet" />
		<tag k="place" v="locality" />
		<tag k="ssr:stedsnr" v="275569" />
	</node>
	<node id="-258359" lat="58.9328277799" lon="8.75304721621">
		<tag k="name" v="Teinelaget" />
		<tag k="place" v="locality" />
		<tag k="ssr:stedsnr" v="946964" />
	</node>
	<node id="-257973" lat="58.9983777742" lon="8.62659445064">
		<tag k="name" v="Skiphomheftet" />
		<tag k="place" v="locality" />
		<tag k="ssr:stedsnr" v="824322" />
	</node>
	<node id="-255667" lat="58.9989999999" lon="8.6744083391">
		<tag k="name" v="Annessåt" />
		<tag k="place" v="locality" />
		<tag k="ssr:stedsnr" v="155058" />
	</node>
	<node id="-256050" lat="59.1454416712" lon="8.36781388491">
		<tag k="name" v="Leirgrova" />
		<tag k="place" v="locality" />
		<tag k="ssr:stedsnr" v="228691" />
	</node>
	<node id="-255153" lat="58.9468333341" lon="8.51026388313">
		<tag k="name" v="Blekesåte" />
		<tag k="place" v="locality" />
		<tag k="ssr:stedsnr" v="33825" />
	</node>
	<node id="-254154" lat="59.0631611069" lon="8.59287777513">
		<tag k="name" v="Tjæreodden" />
		<tag k="place" v="locality" />
		<tag k="ssr:stedsnr" v="276623" />
	</node>
	<node id="-258365" lat="58.9915194445" lon="8.46613332587">
		<tag k="name" v="Fiskåhola" />
		<tag k="place" v="locality" />
		<tag k="ssr:stedsnr" v="947069" />
	</node>
	<node id="-255273" lat="59.1897416634" lon="8.46357499854">
		<tag k="name" v="Hellemålingane" />
		<tag k="place" v="locality" />
		<tag k="ssr:stedsnr" v="47695" />
	</node>
	<node id="-256936" lat="58.8913611089" lon="8.78955555489">
		<tag k="name" v="Bjønnhiet" />
		<tag k="place" v="locality" />
		<tag k="ssr:stedsnr" v="582692" />
	</node>
	<node id="-255399" lat="59.1664694488" lon="8.55550278238">
		<tag k="name" v="Mannen" />
		<tag k="place" v="locality" />
		<tag k="ssr:stedsnr" v="93632" />
	</node>
	<node id="-256036" lat="58.9358444476" lon="8.48992222747">
		<tag k="name" v="Den brente moen" />
		<tag k="place" v="locality" />
		<tag k="ssr:stedsnr" v="228417" />
	</node>
	<node id="-255523" lat="59.0703472259" lon="8.65104722859">
		<tag k="name" v="Bjønnehiet" />
		<tag k="place" v="locality" />
		<tag k="ssr:stedsnr" v="108130" />
	</node>
	<node id="-256387" lat="58.8936888887" lon="8.77409166742">
		<tag k="name" v="Kvennhuset" />
		<tag k="place" v="locality" />
		<tag k="ssr:stedsnr" v="461698" />
	</node>
	<node id="-255520" lat="59.0477972188" lon="8.42193610829">
		<tag k="name" v="Sundagsbeitet" />
		<tag k="place" v="locality" />
		<tag k="ssr:stedsnr" v="108090" />
	</node>
	<node id="-254704" lat="59.0120805563" lon="8.69007778233">
		<tag k="name" v="Holger danske" />
		<tag k="place" v="locality" />
		<tag k="ssr:stedsnr" v="399331" />
	</node>
	<node id="-258334" lat="58.9933805571" lon="8.64486111164">
		<tag k="name" v="Lonvassheftet" />
		<tag k="place" v="locality" />
		<tag k="ssr:stedsnr" v="945200" />
	</node>
	<node id="-254876" lat="59.054291666" lon="8.5933999939">
		<tag k="name" v="Treskorøysa" />
		<tag k="place" v="locality" />
		<tag k="ssr:stedsnr" v="884526" />
	</node>
	<node id="-257946" lat="59.0257722256" lon="8.56150555101">
		<tag k="name" v="Hagmyrheftet" />
		<tag k="place" v="locality" />
		<tag k="ssr:stedsnr" v="823443" />
	</node>
	<node id="-255000" lat="58.9728111075" lon="8.35663333925">
		<tag k="name" v="Kolbotn" />
		<tag k="place" v="locality" />
		<tag k="ssr:stedsnr" v="897943" />
	</node>
	<node id="-256919" lat="58.9026222196" lon="8.74941667423">
		<tag k="amenity" v="place_of_worship" />
		<tag k="denomination" v="lutheran" />
		<tag k="name" v="Felle kapell" />
		<tag k="religion" v="christian" />
		<tag k="ssr:stedsnr" v="581342" />
	</node>
	<node id="-257686" lat="58.8562861071" lon="8.76026667393">
		<tag k="name" v="Biskopstolen" />
		<tag k="place" v="locality" />
		<tag k="ssr:stedsnr" v="764288" />
	</node>
	<node id="-255252" lat="59.0255083375" lon="8.67520554897">
		<tag k="name" v="Kulten" />
		<tag k="place" v="locality" />
		<tag k="ssr:stedsnr" v="47251" />
	</node>
	<node id="-258377" lat="58.9338722221" lon="8.36637778286">
		<tag k="name" v="Kolbotn" />
		<tag k="place" v="locality" />
		<tag k="ssr:stedsnr" v="955773" />
	</node>
	<node id="-257175" lat="59.00689167" lon="8.62571388128">
		<tag k="name" v="Talsondi" />
		<tag k="place" v="locality" />
		<tag k="ssr:stedsnr" v="641206" />
	</node>
	<node id="-254223" lat="58.9798083346" lon="8.40003056359">
		<tag k="name" v="Gampestille" />
		<tag k="place" v="locality" />
		<tag k="ssr:stedsnr" v="287395" />
	</node>
	<node id="-257165" lat="59.0270861134" lon="8.53673611139">
		<tag k="cemetery" v="grave" />
		<tag k="name" v="Tveit gamle kirkegard" />
		<tag k="place" v="locality" />
		<tag k="ssr:stedsnr" v="640815" />
	</node>
	<node id="-254670" lat="59.0584861095" lon="8.60313334171">
		<tag k="name" v="Bjønnehiet" />
		<tag k="place" v="locality" />
		<tag k="ssr:stedsnr" v="397585" />
	</node>
	<node id="-255764" lat="59.2146138864" lon="8.45095277486">
		<tag k="name" v="Lindefjellskotet" />
		<tag k="place" v="locality" />
		<tag k="ssr:stedsnr" v="168202" />
	</node>
	<node id="-254960" lat="59.1558388901" lon="8.46012778575">
		<tag k="name" v="Kjempehaugane" />
		<tag k="place" v="locality" />
		<tag k="ssr:stedsnr" v="897034" />
	</node>
	<node id="-254469" lat="58.9886055529" lon="8.47409443765">
		<tag k="name" v="Homlegarden" />
		<tag k="place" v="locality" />
		<tag k="ssr:stedsnr" v="348058" />
	</node>
	<node id="-257156" lat="59.0378999956" lon="8.51652499659">
		<tag k="name" v="Tvåttvadet" />
		<tag k="place" v="locality" />
		<tag k="ssr:stedsnr" v="640513" />
	</node>
	<node id="-257539" lat="59.1136972261" lon="8.42767500434">
		<tag k="name" v="Landtaket" />
		<tag k="place" v="locality" />
		<tag k="ssr:stedsnr" v="714972" />
	</node>
	<node id="-254721" lat="58.9772833314" lon="8.78945832772">
		<tag k="name" v="Kvennhusa" />
		<tag k="place" v="locality" />
		<tag k="ssr:stedsnr" v="400173" />
	</node>
</osm>
