<?xml version="1.0" encoding="UTF-8"?>
<osm generator="osmapis" version="0.6">
	<node id="-254456" lat="59.0504527751" lon="8.45328610615">
		<tag k="ford" v="yes" />
		<tag k="name" v="Vadet" />
		<tag k="place" v="locality" />
		<tag k="ssr:stedsnr" v="411834" />
	</node>
	<node id="-258035" lat="59.0142166704" lon="8.44204166685">
		<tag k="highway" v="path" />
		<tag k="name" v="Stigen" />
		<tag k="ssr:stedsnr" v="956246" />
	</node>
	<node id="-258022" lat="59.1511611102" lon="8.37398055275">
		<tag k="highway" v="path" />
		<tag k="name" v="Dalskleiva" />
		<tag k="ssr:stedsnr" v="955597" />
	</node>
	<node id="-255461" lat="59.0392472192" lon="8.67277499179">
		<tag k="highway" v="path" />
		<tag k="name" v="Kolbjørnstigen" />
		<tag k="ssr:stedsnr" v="169949" />
	</node>
	<node id="-256994" lat="59.2170888904" lon="8.45240000757">
		<tag k="landuse" v="industrial" />
		<tag k="name" v="Fjone kraftstasjon" />
		<tag k="power" v="plant" />
		<tag k="ssr:stedsnr" v="669035" />
	</node>
	<node id="-254943" lat="59.1147972229" lon="8.40396943912">
		<tag k="ford" v="yes" />
		<tag k="name" v="Barlinvadet" />
		<tag k="place" v="locality" />
		<tag k="ssr:stedsnr" v="47999" />
	</node>
	<node id="-253917" lat="59.1599666628" lon="8.44468332726">
		<tag k="bridge" v="yes" />
		<tag k="layer" v="1" />
		<tag k="name" v="Bergvadbrua" />
		<tag k="ssr:stedsnr" v="290373" />
	</node>
	<node id="-253914" lat="59.1932000003" lon="8.3991749986">
		<tag k="ford" v="yes" />
		<tag k="name" v="Reinstøylvadet" />
		<tag k="place" v="locality" />
		<tag k="ssr:stedsnr" v="290328" />
	</node>
	<node id="-254424" lat="58.9972638907" lon="8.46785278082">
		<tag k="highway" v="path" />
		<tag k="name" v="Lusebakkjen" />
		<tag k="ssr:stedsnr" v="411260" />
	</node>
	<node id="-254419" lat="59.2124666623" lon="8.43542221414">
		<tag k="ford" v="yes" />
		<tag k="name" v="Lindefjellvadet" />
		<tag k="place" v="locality" />
		<tag k="ssr:stedsnr" v="411196" />
	</node>
	<node id="-254929" lat="59.1569138921" lon="8.42181666219">
		<tag k="highway" v="path" />
		<tag k="name" v="Hoppadaua" />
		<tag k="ssr:stedsnr" v="47777" />
	</node>
	<node id="-254925" lat="59.1421388914" lon="8.40396388491">
		<tag k="highway" v="path" />
		<tag k="name" v="Kvålstigen" />
		<tag k="ssr:stedsnr" v="47724" />
	</node>
	<node id="-253898" lat="59.0763722243" lon="8.44234999751">
		<tag k="highway" v="path" />
		<tag k="name" v="Ingrid stigen" />
		<tag k="ssr:stedsnr" v="289596" />
	</node>
	<node id="-253895" lat="59.2015916692" lon="8.50874721386">
		<tag k="bridge" v="yes" />
		<tag k="layer" v="1" />
		<tag k="name" v="Nordbø" />
		<tag k="ssr:stedsnr" v="289459" />
	</node>
	<node id="-253894" lat="59.1468555568" lon="8.51281111628">
		<tag k="bridge" v="yes" />
		<tag k="layer" v="1" />
		<tag k="name" v="Meinstad" />
		<tag k="ssr:stedsnr" v="289460" />
	</node>
	<node id="-255429" lat="59.0312583299" lon="8.51338610914">
		<tag k="bridge" v="yes" />
		<tag k="layer" v="1" />
		<tag k="name" v="Skjeggestad" />
		<tag k="ssr:stedsnr" v="168426" />
	</node>
	<node id="-254915" lat="59.1260388896" lon="8.43156666942">
		<tag k="ford" v="yes" />
		<tag k="name" v="Vettervadet" />
		<tag k="place" v="locality" />
		<tag k="ssr:stedsnr" v="47475" />
	</node>
	<node id="-253889" lat="59.0116583349" lon="8.48831944898">
		<tag k="highway" v="path" />
		<tag k="name" v="Gaurakskleivane" />
		<tag k="ssr:stedsnr" v="289249" />
	</node>
	<node id="-257984" lat="58.9948944453" lon="8.62199444667">
		<tag k="highway" v="path" />
		<tag k="name" v="Uvdalsvegen" />
		<tag k="ssr:stedsnr" v="945192" />
	</node>
	<node id="-253887" lat="58.9514222259" lon="8.39489445202">
		<tag k="landuse" v="industrial" />
		<tag k="name" v="Dynjanfoss kraftverk" />
		<tag k="power" v="plant" />
		<tag k="ssr:stedsnr" v="289177" />
	</node>
	<node id="-253886" lat="59.0175916675" lon="8.61527221947">
		<tag k="name" v="Fuglliskotet" />
		<tag k="place" v="locality" />
		<tag k="ssr:stedsnr" v="289159" />
	</node>
	<node id="-254879" lat="59.1573055566" lon="8.5043861149">
		<tag k="bridge" v="yes" />
		<tag k="layer" v="1" />
		<tag k="name" v="Tingstå" />
		<tag k="ssr:stedsnr" v="46473" />
	</node>
	<node id="-253879" lat="58.9857222235" lon="8.47697222458">
		<tag k="highway" v="path" />
		<tag k="name" v="Juvekleiva" />
		<tag k="ssr:stedsnr" v="288081" />
	</node>
	<node id="-254389" lat="59.1311500015" lon="8.3624444468">
		<tag k="highway" v="path" />
		<tag k="name" v="Primkleiv" />
		<tag k="ssr:stedsnr" v="409551" />
	</node>
	<node id="-254900" lat="59.2104138897" lon="8.49113889379">
		<tag k="name" v="Flesjekastet" />
		<tag k="place" v="locality" />
		<tag k="ssr:stedsnr" v="47220" />
	</node>
	<node id="-257402" lat="59.0263694454" lon="8.51951666376">
		<tag k="bridge" v="yes" />
		<tag k="layer" v="1" />
		<tag k="name" v="Landvik" />
		<tag k="ssr:stedsnr" v="775411" />
	</node>
	<node id="-254382" lat="59.1000388863" lon="8.37915000477">
		<tag k="highway" v="path" />
		<tag k="name" v="Vrestebakken" />
		<tag k="ssr:stedsnr" v="408287" />
	</node>
	<node id="-254381" lat="58.9786111084" lon="8.46228056358">
		<tag k="highway" v="path" />
		<tag k="name" v="Sommerbratt kleiv" />
		<tag k="ssr:stedsnr" v="402058" />
	</node>
	<node id="-257958" lat="59.0417166644" lon="8.51528332751">
		<tag k="fixme" v="consider highway=path" />
		<tag k="highway" v="track" />
		<tag k="name" v="Napevegen" />
		<tag k="ssr:stedsnr" v="944111" />
	</node>
	<node id="-254881" lat="59.0713222236" lon="8.43726667223">
		<tag k="man_made" v="cairn" />
		<tag k="name" v="Steinar i skaret" />
		<tag k="place" v="locality" />
		<tag k="ssr:stedsnr" v="46488" />
	</node>
	<node id="-256927" lat="59.2592749967" lon="8.4255805622">
		<tag k="highway" v="path" />
		<tag k="name" v="Skompen" />
		<tag k="ssr:stedsnr" v="654163" />
	</node>
	<node id="-257949" lat="59.240138886" lon="8.55828333853">
		<tag k="man_made" v="cairn" />
		<tag k="name" v="Blikavarden" />
		<tag k="place" v="locality" />
		<tag k="ssr:stedsnr" v="943613" />
	</node>
	<node id="-257940" lat="59.1756555554" lon="8.52249722813">
		<tag k="ford" v="yes" />
		<tag k="name" v="Ordalsvadet" />
		<tag k="place" v="locality" />
		<tag k="ssr:stedsnr" v="942979" />
	</node>
	<node id="-256914" lat="59.1556861125" lon="8.40968611038">
		<tag k="name" v="Stormyrkastet" />
		<tag k="place" v="locality" />
		<tag k="ssr:stedsnr" v="653875" />
	</node>
	<node id="-254865" lat="58.9371638872" lon="8.36062778032">
		<tag k="highway" v="path" />
		<tag k="name" v="Tørfurkleiva" />
		<tag k="ssr:stedsnr" v="45918" />
	</node>
	<node id="-256911" lat="59.1575972242" lon="8.41743055778">
		<tag k="bridge" v="yes" />
		<tag k="layer" v="1" />
		<tag k="name" v="Lisleåbrua" />
		<tag k="ssr:stedsnr" v="653795" />
	</node>
	<node id="-257415" lat="59.1736833308" lon="8.67095277208">
		<tag k="ford" v="yes" />
		<tag k="name" v="Bergvad" />
		<tag k="place" v="locality" />
		<tag k="ssr:stedsnr" v="775577" />
	</node>
	<node id="-254342" lat="59.0178277757" lon="8.52445832625">
		<tag k="alt_name" v="Tveitsund" />
		<tag k="bridge" v="yes" />
		<tag k="layer" v="1" />
		<tag k="name" v="Tveitsund bru" />
		<tag k="ssr:stedsnr" v="398938" />
	</node>
	<node id="-256894" lat="59.0186777772" lon="8.60931943642">
		<tag k="bridge" v="yes" />
		<tag k="layer" v="1" />
		<tag k="name" v="Bjørnevannsbekken" />
		<tag k="ssr:stedsnr" v="653436" />
	</node>
	<node id="-256892" lat="59.1231611137" lon="8.51762222145">
		<tag k="bridge" v="yes" />
		<tag k="layer" v="1" />
		<tag k="name" v="Nes søndre" />
		<tag k="ssr:stedsnr" v="653433" />
	</node>
	<node id="-256891" lat="59.1602944423" lon="8.52558610708">
		<tag k="bridge" v="yes" />
		<tag k="layer" v="1" />
		<tag k="name" v="Døla" />
		<tag k="ssr:stedsnr" v="653432" />
	</node>
	<node id="-256378" lat="59.1528944478" lon="8.43600277629">
		<tag k="highway" v="path" />
		<tag k="name" v="Skavgrånslepa" />
		<tag k="ssr:stedsnr" v="532767" />
	</node>
	<node id="-257401" lat="58.9524777754" lon="8.4236861055">
		<tag k="bridge" v="yes" />
		<tag k="layer" v="1" />
		<tag k="name" v="Timmernes" />
		<tag k="ssr:stedsnr" v="775404" />
	</node>
	<node id="-257400" lat="58.9809944483" lon="8.38191111455">
		<tag k="highway" v="path" />
		<tag k="name" v="Friarvegen" />
		<tag k="ssr:stedsnr" v="775350" />
	</node>
	<node id="-254014" lat="59.1613777818" lon="8.57056388309">
		<tag k="ford" v="yes" />
		<tag k="name" v="Øksånvadet" />
		<tag k="place" v="locality" />
		<tag k="ssr:stedsnr" v="335526" />
	</node>
	<node id="-256367" lat="58.942591663" lon="8.50565000393">
		<tag k="bridge" v="yes" />
		<tag k="layer" v="1" />
		<tag k="name" v="Haugsjåsund" />
		<tag k="ssr:stedsnr" v="532421" />
	</node>
	<node id="-256366" lat="59.19445556" lon="8.51321389214">
		<tag k="bridge" v="yes" />
		<tag k="layer" v="1" />
		<tag k="name" v="Vik" />
		<tag k="ssr:stedsnr" v="532417" />
	</node>
	<node id="-256365" lat="59.0342527815" lon="8.50970833291">
		<tag k="bridge" v="yes" />
		<tag k="layer" v="1" />
		<tag k="name" v="Årak" />
		<tag k="ssr:stedsnr" v="532415" />
	</node>
	<node id="-254823" lat="59.0489388852" lon="8.50891667404">
		<tag k="fixme" v="verify maritime location" />
		<tag k="mooring" v="yes" />
		<tag k="name" v="Harpestø" />
		<tag k="place" v="locality" />
		<tag k="ssr:stedsnr" v="34525" />
	</node>
	<node id="-257380" lat="59.062341671" lon="8.41307777356">
		<tag k="highway" v="path" />
		<tag k="name" v="Låja" />
		<tag k="ssr:stedsnr" v="774493" />
	</node>
	<node id="-253786" lat="59.2067555523" lon="8.52648610749">
		<tag k="junction" v="yes" />
		<tag k="name" v="Skilet" />
		<tag k="place" v="locality" />
		<tag k="ssr:stedsnr" v="275497" />
	</node>
	<node id="-257365" lat="58.9276861111" lon="8.36603333596">
		<tag k="highway" v="path" />
		<tag k="name" v="Vristekleiv" />
		<tag k="ssr:stedsnr" v="773765" />
	</node>
	<node id="-256338" lat="58.9173638903" lon="8.45590000455">
		<tag k="highway" v="path" />
		<tag k="name" v="Tverrfjellkleiva" />
		<tag k="ssr:stedsnr" v="531652" />
	</node>
	<node id="-256337" lat="58.9168555526" lon="8.45100556206">
		<tag k="highway" v="path" />
		<tag k="name" v="Norstigen" />
		<tag k="ssr:stedsnr" v="531641" />
	</node>
	<node id="-256331" lat="58.94583333" lon="8.48246389089">
		<tag k="landuse" v="industrial" />
		<tag k="name" v="Berli kraftstasjon" />
		<tag k="power" v="plant" />
		<tag k="ssr:stedsnr" v="531400" />
	</node>
	<node id="-256324" lat="58.9524833329" lon="8.45223333951">
		<tag k="ford" v="yes" />
		<tag k="name" v="Vestigardsond" />
		<tag k="place" v="locality" />
		<tag k="ssr:stedsnr" v="531236" />
	</node>
	<node id="-254779" lat="59.1644861116" lon="8.56220833624">
		<tag k="ford" v="yes" />
		<tag k="name" v="Uvdalsvadet" />
		<tag k="place" v="locality" />
		<tag k="ssr:stedsnr" v="32667" />
	</node>
	<node id="-256824" lat="59.0098388921" lon="8.62371389704">
		<tag k="ford" v="yes" />
		<tag k="name" v="Husåvadet" />
		<tag k="place" v="locality" />
		<tag k="ssr:stedsnr" v="641174" />
	</node>
	<node id="-254601" lat="59.2438805593" lon="8.51478054907">
		<tag k="bridge" v="yes" />
		<tag k="layer" v="1" />
		<tag k="name" v="Funnemark" />
		<tag k="ssr:stedsnr" v="896467" />
	</node>
	<node id="-256297" lat="58.9026666644" lon="8.81378610584">
		<tag k="highway" v="path" />
		<tag k="name" v="Klomra" />
		<tag k="ssr:stedsnr" v="521661" />
	</node>
	<node id="-254246" lat="58.9679916669" lon="8.56356389139">
		<tag k="alt_name" v="Veststø" />
		<tag k="fixme" v="verify maritime location" />
		<tag k="mooring" v="yes" />
		<tag k="name" v="Vestå" />
		<tag k="place" v="locality" />
		<tag k="ssr:stedsnr" v="365371" />
	</node>
	<node id="-255764" lat="59.0369333351" lon="8.66770556293">
		<tag k="highway" v="path" />
		<tag k="name" v="Rosstjønnstigen" />
		<tag k="ssr:stedsnr" v="230971" />
	</node>
	<node id="-257298" lat="59.1753666644" lon="8.53241110729">
		<tag k="highway" v="path" />
		<tag k="name" v="Tveitanvegen" />
		<tag k="ssr:stedsnr" v="760982" />
	</node>
	<node id="-255448" lat="59.1596138854" lon="8.3481944482">
		<tag k="bridge" v="yes" />
		<tag k="layer" v="1" />
		<tag k="name" v="Grytebrua" />
		<tag k="ssr:stedsnr" v="168886" />
	</node>
	<node id="-256775" lat="59.1712999959" lon="8.57416666365">
		<tag k="name" v="Rullarplassen" />
		<tag k="place" v="locality" />
		<tag k="ssr:stedsnr" v="638831" />
	</node>
	<node id="-257286" lat="59.2065250023" lon="8.5563472204">
		<tag k="ford" v="yes" />
		<tag k="name" v="Fitjevad" />
		<tag k="place" v="locality" />
		<tag k="ssr:stedsnr" v="730894" />
	</node>
	<node id="-255237" lat="58.951430555" lon="8.5175583418">
		<tag k="alt_name" v="Høgefoss kraftverk" />
		<tag k="landuse" v="industrial" />
		<tag k="name" v="Høgfoss" />
		<tag k="power" v="plant" />
		<tag k="ssr:stedsnr" v="122339" />
	</node>
	<node id="-254207" lat="59.1393833373" lon="8.6903944504">
		<tag k="highway" v="path" />
		<tag k="name" v="Uvdalsstigen" />
		<tag k="ssr:stedsnr" v="351325" />
	</node>
	<node id="-257833" lat="59.0452666632" lon="8.49979443673">
		<tag k="alt_name" v="Nordstø" />
		<tag k="fixme" v="verify maritime location" />
		<tag k="mooring" v="yes" />
		<tag k="name" v="Nordstå" />
		<tag k="place" v="locality" />
		<tag k="ssr:stedsnr" v="852528" />
	</node>
	<node id="-254196" lat="59.1559388869" lon="8.38645833012">
		<tag k="highway" v="path" />
		<tag k="name" v="Bjønnkleiv" />
		<tag k="ssr:stedsnr" v="350968" />
	</node>
	<node id="-255728" lat="59.1501722211" lon="8.46048333385">
		<tag k="bridge" v="yes" />
		<tag k="layer" v="1" />
		<tag k="name" v="Frostdølbrua" />
		<tag k="ssr:stedsnr" v="229409" />
	</node>
	<node id="-254180" lat="59.1377611135" lon="8.39510555823">
		<tag k="highway" v="path" />
		<tag k="name" v="Meselstigen" />
		<tag k="ssr:stedsnr" v="350701" />
	</node>
	<node id="-256219" lat="59.2111944435" lon="8.53900277815">
		<tag k="alt_name" v="Ufsvad" />
		<tag k="ford" v="yes" />
		<tag k="name" v="Ufsevad" />
		<tag k="place" v="locality" />
		<tag k="ssr:stedsnr" v="487888" />
	</node>
	<node id="-255706" lat="59.114786115" lon="8.44109999855">
		<tag k="highway" v="path" />
		<tag k="name" v="Torborstadholet" />
		<tag k="ssr:stedsnr" v="229056" />
	</node>
	<node id="-254167" lat="58.9271805562" lon="8.7822666648">
		<tag k="bridge" v="yes" />
		<tag k="layer" v="1" />
		<tag k="name" v="Vehus" />
		<tag k="ssr:stedsnr" v="350388" />
	</node>
	<node id="-254162" lat="59.12463889" lon="8.47919999206">
		<tag k="man_made" v="quay" />
		<tag k="name" v="Nygårdsbryggja" />
		<tag k="place" v="locality" />
		<tag k="ssr:stedsnr" v="350319" />
	</node>
	<node id="-255693" lat="59.0536666709" lon="8.51388333646">
		<tag k="bridge" v="yes" />
		<tag k="layer" v="1" />
		<tag k="name" v="Vik" />
		<tag k="ssr:stedsnr" v="228488" />
	</node>
	<node id="-255692" lat="59.2249138871" lon="8.49797222447">
		<tag k="bridge" v="yes" />
		<tag k="layer" v="1" />
		<tag k="name" v="Sandnes" />
		<tag k="ssr:stedsnr" v="228482" />
	</node>
	<node id="-255178" lat="59.2225333323" lon="8.42559443928">
		<tag k="ford" v="yes" />
		<tag k="name" v="Tjønnstøylvadet" />
		<tag k="place" v="locality" />
		<tag k="ssr:stedsnr" v="108190" />
	</node>
	<node id="-255176" lat="59.0211499987" lon="8.62805833821">
		<tag k="name" v="Eileivstjønnrullet" />
		<tag k="place" v="locality" />
		<tag k="ssr:stedsnr" v="108161" />
	</node>
	<node id="-255685" lat="59.0965861098" lon="8.49099166358">
		<tag k="man_made" v="quay" />
		<tag k="name" v="Trontveitbryggja" />
		<tag k="place" v="locality" />
		<tag k="ssr:stedsnr" v="228353" />
	</node>
	<node id="-254142" lat="59.0787722215" lon="8.45960000174">
		<tag k="highway" v="path" />
		<tag k="name" v="Bjørkhomstigen" />
		<tag k="ssr:stedsnr" v="349286" />
	</node>
	<node id="-254653" lat="59.1589194441" lon="8.39211944676">
		<tag k="junction" v="yes" />
		<tag k="name" v="Sandbekk" />
		<tag k="place" v="locality" />
		<tag k="ssr:stedsnr" v="897957" />
	</node>
	<node id="-254651" lat="59.1190833307" lon="8.42829166697">
		<tag k="ford" v="yes" />
		<tag k="name" v="Rubbuvadet" />
		<tag k="place" v="locality" />
		<tag k="ssr:stedsnr" v="897930" />
	</node>
	<node id="-255158" lat="59.0505055542" lon="8.46489444363">
		<tag k="bridge" v="yes" />
		<tag k="layer" v="1" />
		<tag k="name" v="Naurak" />
		<tag k="ssr:stedsnr" v="107464" />
	</node>
	<node id="-255157" lat="59.0612555577" lon="8.41679167048">
		<tag k="highway" v="path" />
		<tag k="name" v="Stigen" />
		<tag k="ssr:stedsnr" v="107461" />
	</node>
	<node id="-255668" lat="58.9778222218" lon="8.44560278638">
		<tag k="highway" v="path" />
		<tag k="name" v="Bjønnestigen" />
		<tag k="ssr:stedsnr" v="220095" />
	</node>
	<node id="-257711" lat="58.9650972257" lon="8.51664444471">
		<tag k="bridge" v="yes" />
		<tag k="layer" v="1" />
		<tag k="name" v="Rauå" />
		<tag k="ssr:stedsnr" v="836398" />
	</node>
	<node id="-257710" lat="59.1390722207" lon="8.45559722615">
		<tag k="bridge" v="yes" />
		<tag k="layer" v="1" />
		<tag k="name" v="Håtveit" />
		<tag k="ssr:stedsnr" v="836395" />
	</node>
	<node id="-254637" lat="59.17647778" lon="8.45639167293">
		<tag k="highway" v="path" />
		<tag k="name" v="Den bratte støyten" />
		<tag k="ssr:stedsnr" v="897561" />
	</node>
	<node id="-255602" lat="58.9918583357" lon="8.52367777517">
		<tag k="alt_name" v="Fiskå" />
		<tag k="bridge" v="yes" />
		<tag k="layer" v="1" />
		<tag k="name" v="Fiskånbrua" />
		<tag k="ssr:stedsnr" v="216321" />
	</node>
	<node id="-255431" lat="59.0961888903" lon="8.38721110799">
		<tag k="man_made" v="cairn" />
		<tag k="name" v="Jamndokk" />
		<tag k="place" v="locality" />
		<tag k="ssr:stedsnr" v="168450" />
	</node>
	<node id="-257700" lat="59.0444583305" lon="8.44358889313">
		<tag k="highway" v="path" />
		<tag k="name" v="Grunntjønnkleivane" />
		<tag k="ssr:stedsnr" v="836079" />
	</node>
	<node id="-257187" lat="59.1565472226" lon="8.40288610687">
		<tag k="bridge" v="yes" />
		<tag k="layer" v="1" />
		<tag k="name" v="Frostlibrua" />
		<tag k="ssr:stedsnr" v="714862" />
	</node>
	<node id="-255137" lat="58.9792666691" lon="8.44456110404">
		<tag k="highway" v="path" />
		<tag k="name" v="Korstigane" />
		<tag k="ssr:stedsnr" v="99071" />
	</node>
	<node id="-257182" lat="59.1535083324" lon="8.42796388606">
		<tag k="ford" v="yes" />
		<tag k="name" v="Rustøylvadet" />
		<tag k="place" v="locality" />
		<tag k="ssr:stedsnr" v="714757" />
	</node>
	<node id="-257693" lat="58.9292833337" lon="8.46019444537">
		<tag k="highway" v="path" />
		<tag k="name" v="Stigspranget" />
		<tag k="ssr:stedsnr" v="835487" />
	</node>
	<node id="-255642" lat="58.9691999969" lon="8.64723610734">
		<tag k="bridge" v="yes" />
		<tag k="layer" v="1" />
		<tag k="name" v="Vøylbrona" />
		<tag k="ssr:stedsnr" v="217619" />
	</node>
	<node id="-257682" lat="58.9505694432" lon="8.48605555301">
		<tag k="highway" v="path" />
		<tag k="name" v="Jenstigen" />
		<tag k="ssr:stedsnr" v="835237" />
	</node>
	<node id="-254608" lat="59.0467722229" lon="8.46850554845">
		<tag k="man_made" v="quay" />
		<tag k="name" v="Nauraksbrygga" />
		<tag k="place" v="locality" />
		<tag k="ssr:stedsnr" v="896864" />
	</node>
	<node id="-256653" lat="59.0387083352" lon="8.66543889723">
		<tag k="highway" v="path" />
		<tag k="name" v="Rosstjønnvrengen" />
		<tag k="ssr:stedsnr" v="593941" />
	</node>
	<node id="-254604" lat="59.1194194487" lon="8.51952500249">
		<tag k="bridge" v="yes" />
		<tag k="layer" v="1" />
		<tag k="name" v="Løvik" />
		<tag k="ssr:stedsnr" v="896475" />
	</node>
	<node id="-254602" lat="59.1502222186" lon="8.46054445189">
		<tag k="bridge" v="yes" />
		<tag k="layer" v="1" />
		<tag k="name" v="Frostdøla" />
		<tag k="ssr:stedsnr" v="896469" />
	</node>
	<node id="-257161" lat="58.8963305595" lon="8.71037222171">
		<tag k="bridge" v="yes" />
		<tag k="layer" v="1" />
		<tag k="name" v="Brekke" />
		<tag k="ssr:stedsnr" v="714392" />
	</node>
	<node id="-257160" lat="58.9735972186" lon="8.3651944496">
		<tag k="bridge" v="yes" />
		<tag k="layer" v="1" />
		<tag k="name" v="Dalsbekk" />
		<tag k="ssr:stedsnr" v="714380" />
	</node>
	<node id="-257159" lat="58.9777083303" lon="8.52187221443">
		<tag k="bridge" v="yes" />
		<tag k="layer" v="1" />
		<tag k="name" v="Eidstjønn" />
		<tag k="ssr:stedsnr" v="714379" />
	</node>
	<node id="-257158" lat="59.1554055515" lon="8.45171110683">
		<tag k="bridge" v="yes" />
		<tag k="layer" v="1" />
		<tag k="name" v="Krokan" />
		<tag k="ssr:stedsnr" v="714377" />
	</node>
	<node id="-255106" lat="59.1958027755" lon="8.62145833267">
		<tag k="man_made" v="cairn" />
		<tag k="name" v="Gluggvarden" />
		<tag k="place" v="locality" />
		<tag k="ssr:stedsnr" v="96143" />
	</node>
	<node id="-257144" lat="59.0147583316" lon="8.6083083335">
		<tag k="name" v="Kasti" />
		<tag k="place" v="locality" />
		<tag k="ssr:stedsnr" v="714133" />
	</node>
	<node id="-256117" lat="59.0374083322" lon="8.65123333405">
		<tag k="name" v="Neslaghylen" />
		<tag k="place" v="locality" />
		<tag k="ssr:stedsnr" v="472660" />
	</node>
	<node id="-257138" lat="59.1561305598" lon="8.46455000409">
		<tag k="bridge" v="yes" />
		<tag k="layer" v="1" />
		<tag k="name" v="Holerbrua" />
		<tag k="ssr:stedsnr" v="714014" />
	</node>
	<node id="-257135" lat="58.9633555536" lon="8.48202500403">
		<tag k="highway" v="path" />
		<tag k="name" v="Dåskleivane" />
		<tag k="ssr:stedsnr" v="714010" />
	</node>
	<node id="-256107" lat="59.1496027741" lon="8.43218888885">
		<tag k="name" v="Sigurdstøyl" />
		<tag k="place" v="locality" />
		<tag k="ssr:stedsnr" v="472204" />
	</node>
	<node id="-256617" lat="58.9791972235" lon="8.32929999151">
		<tag k="bridge" v="yes" />
		<tag k="layer" v="1" />
		<tag k="name" v="Rone" />
		<tag k="ssr:stedsnr" v="592470" />
	</node>
	<node id="-256615" lat="59.1481722201" lon="8.47456110436">
		<tag k="name" v="Det store rullekastet" />
		<tag k="place" v="locality" />
		<tag k="ssr:stedsnr" v="592452" />
	</node>
	<node id="-256612" lat="59.1459527766" lon="8.44570832968">
		<tag k="name" v="Bjalkekastet" />
		<tag k="place" v="locality" />
		<tag k="ssr:stedsnr" v="592409" />
	</node>
	<node id="-257632" lat="58.9493916709" lon="8.64833888281">
		<tag k="highway" v="path" />
		<tag k="name" v="Stigen" />
		<tag k="ssr:stedsnr" v="824656" />
	</node>
	<node id="-254154" lat="59.1195694418" lon="8.44589166115">
		<tag k="ford" v="yes" />
		<tag k="name" v="Bergvad" />
		<tag k="place" v="locality" />
		<tag k="ssr:stedsnr" v="350047" />
	</node>
	<node id="-254393" lat="58.9673833348" lon="8.47551945144">
		<tag k="highway" v="path" />
		<tag k="name" v="Jeitekleiv" />
		<tag k="ssr:stedsnr" v="410019" />
	</node>
	<node id="-256084" lat="59.1466027804" lon="8.3720250024">
		<tag k="bridge" v="yes" />
		<tag k="layer" v="1" />
		<tag k="name" v="Åbøbrua" />
		<tag k="ssr:stedsnr" v="471636" />
	</node>
	<node id="-256083" lat="59.1514361149" lon="8.35260834121">
		<tag k="name" v="Vehuskastet" />
		<tag k="place" v="locality" />
		<tag k="ssr:stedsnr" v="471622" />
	</node>
	<node id="-254032" lat="59.2157166696" lon="8.52524444641">
		<tag k="highway" v="path" />
		<tag k="name" v="Skogskoti" />
		<tag k="ssr:stedsnr" v="336585" />
	</node>
	<node id="-254541" lat="58.9914555537" lon="8.65935277791">
		<tag k="highway" v="path" />
		<tag k="name" v="Beinstigen" />
		<tag k="ssr:stedsnr" v="885188" />
	</node>
	<node id="-256075" lat="59.1491083311" lon="8.51227778171">
		<tag k="bridge" v="yes" />
		<tag k="layer" v="1" />
		<tag k="name" v="Århus" />
		<tag k="ssr:stedsnr" v="471449" />
	</node>
	<node id="-256074" lat="59.0081861076" lon="8.58831110345">
		<tag k="bridge" v="yes" />
		<tag k="layer" v="1" />
		<tag k="name" v="Støyl" />
		<tag k="ssr:stedsnr" v="471446" />
	</node>
	<node id="-256073" lat="59.0923944423" lon="8.49295833438">
		<tag k="bridge" v="yes" />
		<tag k="layer" v="1" />
		<tag k="name" v="Trontveit bru" />
		<tag k="ssr:stedsnr" v="471444" />
	</node>
	<node id="-257608" lat="59.0202999992" lon="8.51973332749">
		<tag k="leisure" v="marina" />
		<tag k="name" v="Tvitsto" />
		<tag k="ssr:stedsnr" v="823786" />
	</node>
	<node id="-256070" lat="59.0022111149" lon="8.46746389293">
		<tag k="highway" v="path" />
		<tag k="name" v="Gamakleivane" />
		<tag k="ssr:stedsnr" v="471358" />
	</node>
	<node id="-254021" lat="59.1317638892" lon="8.58083333057">
		<tag k="highway" v="path" />
		<tag k="name" v="Sigridbustigen" />
		<tag k="ssr:stedsnr" v="335848" />
	</node>
	<node id="-256066" lat="59.0924333348" lon="8.45837221836">
		<tag k="name" v="Stolpestaden" />
		<tag k="place" v="locality" />
		<tag k="ssr:stedsnr" v="471243" />
	</node>
	<node id="-255584" lat="59.201916666" lon="8.51734999522">
		<tag k="junction" v="yes" />
		<tag k="name" v="Gardkrik" />
		<tag k="place" v="locality" />
		<tag k="ssr:stedsnr" v="215588" />
	</node>
	<node id="-258110" lat="59.0038527739" lon="8.754441667">
		<tag k="highway" v="path" />
		<tag k="name" v="Stigen" />
		<tag k="ssr:stedsnr" v="958497" />
	</node>
	<node id="-256571" lat="58.9138222251" lon="8.62653333975">
		<tag k="ford" v="yes" />
		<tag k="name" v="Onstadvøylen" />
		<tag k="place" v="locality" />
		<tag k="ssr:stedsnr" v="581348" />
	</node>
	<node id="-257081" lat="58.9640333357" lon="8.705249996">
		<tag k="name" v="Leet" />
		<tag k="place" v="locality" />
		<tag k="ssr:stedsnr" v="703025" />
	</node>
	<node id="-256055" lat="59.1153944429" lon="8.44597221872">
		<tag k="highway" v="path" />
		<tag k="name" v="Hågbakk" />
		<tag k="ssr:stedsnr" v="471051" />
	</node>
	<node id="-256566" lat="58.9588194415" lon="8.75205278278">
		<tag k="highway" v="path" />
		<tag k="name" v="Fellsstien" />
		<tag k="ssr:stedsnr" v="581188" />
	</node>
	<node id="-257075" lat="58.9013750037" lon="8.7254083386">
		<tag k="highway" v="path" />
		<tag k="name" v="Honnekleiv" />
		<tag k="ssr:stedsnr" v="702352" />
	</node>
	<node id="-256263" lat="59.0343388856" lon="8.5047555527">
		<tag k="fixme" v="verify maritime location" />
		<tag k="mooring" v="yes" />
		<tag k="name" v="Åkrokane" />
		<tag k="old_name" v="Åkokane" />
		<tag k="place" v="locality" />
		<tag k="ssr:stedsnr" v="519864" />
	</node>
	<node id="-257576" lat="59.0362666676" lon="8.52453056364">
		<tag k="highway" v="path" />
		<tag k="name" v="Nordgardsrusli" />
		<tag k="ssr:stedsnr" v="822656" />
	</node>
	<node id="-257061" lat="59.0181472235" lon="8.52014167361">
		<tag k="man_made" v="quay" />
		<tag k="name" v="Brygga" />
		<tag k="place" v="locality" />
		<tag k="ssr:stedsnr" v="701939" />
	</node>
	<node id="-257058" lat="59.0088527817" lon="8.59128610439">
		<tag k="ford" v="yes" />
		<tag k="name" v="Støylsvad" />
		<tag k="place" v="locality" />
		<tag k="ssr:stedsnr" v="701868" />
	</node>
	<node id="-258080" lat="58.975475001" lon="8.47968888712">
		<tag k="bridge" v="yes" />
		<tag k="layer" v="1" />
		<tag k="name" v="Rauå" />
		<tag k="ssr:stedsnr" v="957431" />
	</node>
	<node id="-258079" lat="58.9930194474" lon="8.52429166138">
		<tag k="bridge" v="yes" />
		<tag k="layer" v="1" />
		<tag k="name" v="Skuggen" />
		<tag k="ssr:stedsnr" v="957421" />
	</node>
	<node id="-256542" lat="59.0447972225" lon="8.51365833675">
		<tag k="highway" v="path" />
		<tag k="name" v="Lilandskleiva" />
		<tag k="ssr:stedsnr" v="580278" />
	</node>
	<node id="-254298" lat="59.0962916676" lon="8.53576111967">
		<tag k="name" v="Nordstrånd" />
		<tag k="place" v="locality" />
		<tag k="ssr:stedsnr" v="396562" />
	</node>
	<node id="-257199" lat="59.2480777819" lon="8.45336389275">
		<tag k="man_made" v="quay" />
		<tag k="name" v="Horgevikbrygga" />
		<tag k="place" v="locality" />
		<tag k="ssr:stedsnr" v="715241" />
	</node>
	<node id="-258068" lat="59.0795555536" lon="8.46753611133">
		<tag k="highway" v="path" />
		<tag k="name" v="Heivegen" />
		<tag k="ssr:stedsnr" v="957244" />
	</node>
	<node id="-258063" lat="59.260652779" lon="8.39605833683">
		<tag k="fixme" v="verify maritime location" />
		<tag k="mooring" v="yes" />
		<tag k="name" v="Stømoen" />
		<tag k="place" v="locality" />
		<tag k="ssr:stedsnr" v="957157" />
	</node>
	<node id="-258060" lat="59.2629055598" lon="8.37049721539">
		<tag k="ford" v="yes" />
		<tag k="name" v="Krossen" />
		<tag k="place" v="locality" />
		<tag k="ssr:stedsnr" v="957147" />
	</node>
	<node id="-255393" lat="59.1520694448" lon="8.37487222639">
		<tag k="highway" v="path" />
		<tag k="name" v="Vettmyrbakken" />
		<tag k="ssr:stedsnr" v="166575" />
	</node>
	<node id="-254469" lat="59.0693999961" lon="8.64408333249">
		<tag k="ford" v="yes" />
		<tag k="name" v="Torsvassmellom" />
		<tag k="place" v="locality" />
		<tag k="ssr:stedsnr" v="412155" />
	</node>
</osm>
