<?xml version="1.0" encoding="UTF-8"?>
<osm generator="osmapis" version="0.6">
	<node id="-258042" lat="59.0098666702" lon="8.42856665818">
		<tag k="name" v="Knattheim" />
		<tag k="place" v="isolated_dwelling" />
		<tag k="ssr:stedsnr" v="956394" />
	</node>
	<node id="-253944" lat="59.156208332" lon="8.3942361148">
		<tag k="name" v="Holskar" />
		<tag k="place" v="farm" />
		<tag k="ssr:stedsnr" v="290960" />
	</node>
	<node id="-253943" lat="59.1516472211" lon="8.38810000797">
		<tag k="name" v="Rørtveit" />
		<tag k="place" v="farm" />
		<tag k="ssr:stedsnr" v="290954" />
	</node>
	<node id="-255988" lat="58.971338892" lon="8.52111110423">
		<tag k="name" v="Bergland" />
		<tag k="place" v="isolated_dwelling" />
		<tag k="ssr:stedsnr" v="459294" />
	</node>
	<node id="-258034" lat="59.0180638887" lon="8.491452774">
		<tag k="name" v="Ånundsbustøylen" />
		<tag k="place" v="locality" />
		<tag k="ssr:stedsnr" v="956157" />
	</node>
	<node id="-255985" lat="59.027666663" lon="8.51652222361">
		<tag k="name" v="Kåsa nedre" />
		<tag k="place" v="farm" />
		<tag k="ssr:stedsnr" v="459221" />
	</node>
	<node id="-253931" lat="59.1458750043" lon="8.37191944849">
		<tag k="name" v="Åbø" />
		<tag k="place" v="locality" />
		<tag k="ssr:stedsnr" v="290542" />
	</node>
	<node id="-255977" lat="59.0122305523" lon="8.55727777081">
		<tag k="name" v="Homme nedre" />
		<tag k="place" v="farm" />
		<tag k="ssr:stedsnr" v="458917" />
	</node>
	<node id="-258019" lat="58.9810194459" lon="8.41156111728">
		<tag k="name" v="Persståga" />
		<tag k="place" v="locality" />
		<tag k="ssr:stedsnr" v="955349" />
	</node>
	<node id="-255969" lat="59.0012333291" lon="8.57806944746">
		<tag k="name" v="Dekkane" />
		<tag k="place" v="farm" />
		<tag k="ssr:stedsnr" v="458786" />
	</node>
	<node id="-255967" lat="58.9751416678" lon="8.56871111854">
		<tag k="name" v="Loppestad" />
		<tag k="place" v="locality" />
		<tag k="ssr:stedsnr" v="458763" />
	</node>
	<node id="-253912" lat="59.0778000041" lon="8.61563610829">
		<tag k="name" v="Skeimohytta" />
		<tag k="place" v="locality" />
		<tag k="ssr:stedsnr" v="290218" />
	</node>
	<node id="-258007" lat="58.9681666705" lon="8.64260277405">
		<tag k="name" v="Nybustøylen" />
		<tag k="place" v="locality" />
		<tag k="ssr:stedsnr" v="946605" />
	</node>
	<node id="-255958" lat="58.9696194439" lon="8.58670833835">
		<tag k="name" v="Svartvassbu" />
		<tag k="place" v="locality" />
		<tag k="ssr:stedsnr" v="458174" />
	</node>
	<node id="-253909" lat="59.1632527771" lon="8.46248610244">
		<tag k="name" v="Skogheim" />
		<tag k="place" v="isolated_dwelling" />
		<tag k="ssr:stedsnr" v="290126" />
	</node>
	<node id="-253907" lat="59.0330055594" lon="8.61566944718">
		<tag k="name" v="Karibu" />
		<tag k="place" v="locality" />
		<tag k="ssr:stedsnr" v="290051" />
	</node>
	<node id="-253906" lat="59.0261694444" lon="8.6130833334">
		<tag k="name" v="Austigard Støyl" />
		<tag k="place" v="farm" />
		<tag k="ssr:stedsnr" v="290037" />
	</node>
	<node id="-257996" lat="59.1975222191" lon="8.64215555928">
		<tag k="name" v="Fysli" />
		<tag k="place" v="locality" />
		<tag k="ssr:stedsnr" v="946111" />
	</node>
	<node id="-255947" lat="59.1629861098" lon="8.53970000829">
		<tag k="name" v="Grimstveit øvre" />
		<tag k="place" v="farm" />
		<tag k="ssr:stedsnr" v="457557" />
	</node>
	<node id="-255945" lat="59.1600944434" lon="8.51544443801">
		<tag k="fixme" v="consider place=hamlet" />
		<tag k="name" v="Bakka" />
		<tag k="place" v="farm" />
		<tag k="ssr:stedsnr" v="457527" />
	</node>
	<node id="-255938" lat="59.1524861149" lon="8.53110832504">
		<tag k="name" v="Dyrås" />
		<tag k="place" v="farm" />
		<tag k="ssr:stedsnr" v="427719" />
	</node>
	<node id="-257975" lat="58.9995305584" lon="8.58183611282">
		<tag k="name" v="Jordhaugen" />
		<tag k="place" v="locality" />
		<tag k="ssr:stedsnr" v="944774" />
	</node>
	<node id="-257969" lat="59.0386388866" lon="8.51269445144">
		<tag k="name" v="Årak søndre" />
		<tag k="place" v="farm" />
		<tag k="ssr:stedsnr" v="944525" />
	</node>
	<node id="-255917" lat="58.9518249956" lon="8.3704666602">
		<tag k="name" v="Fossheim" />
		<tag k="place" v="isolated_dwelling" />
		<tag k="ssr:stedsnr" v="426916" />
	</node>
	<node id="-257963" lat="58.9745194454" lon="8.51863611424">
		<tag k="name" v="Vang" />
		<tag k="place" v="isolated_dwelling" />
		<tag k="ssr:stedsnr" v="944336" />
	</node>
	<node id="-253866" lat="58.9135111074" lon="8.66976388445">
		<tag k="name" v="Krokane" />
		<tag k="place" v="locality" />
		<tag k="ssr:stedsnr" v="278987" />
	</node>
	<node id="-257960" lat="59.0029861088" lon="8.58215000122">
		<tag k="name" v="Moen øvre" />
		<tag k="place" v="farm" />
		<tag k="ssr:stedsnr" v="944815" />
	</node>
	<node id="-257959" lat="58.9618861079" lon="8.55831943904">
		<tag k="name" v="Breidablikk" />
		<tag k="place" v="locality" />
		<tag k="ssr:stedsnr" v="944137" />
	</node>
	<node id="-257954" lat="59.0252722216" lon="8.5228666716">
		<tag k="name" v="Grova" />
		<tag k="place" v="farm" />
		<tag k="ssr:stedsnr" v="944262" />
	</node>
	<node id="-255905" lat="59.1456111102" lon="8.51881389587">
		<tag k="name" v="Bergland" />
		<tag k="place" v="farm" />
		<tag k="ssr:stedsnr" v="426745" />
	</node>
	<node id="-257945" lat="59.1909111097" lon="8.59371110969">
		<tag k="name" v="Kjarr" />
		<tag k="place" v="locality" />
		<tag k="ssr:stedsnr" v="943595" />
	</node>
	<node id="-255895" lat="59.0456916647" lon="8.51756389092">
		<tag k="alt_name" v="Napen" />
		<tag k="name" v="Nappen" />
		<tag k="place" v="farm" />
		<tag k="ssr:stedsnr" v="426549" />
	</node>
	<node id="-257942" lat="59.0998805515" lon="8.57292500205">
		<tag k="name" v="Doktarhyttene" />
		<tag k="place" v="isolated_dwelling" />
		<tag k="ssr:stedsnr" v="943284" />
	</node>
	<node id="-257939" lat="59.1646472218" lon="8.54740000264">
		<tag k="name" v="Høgtveit" />
		<tag k="place" v="farm" />
		<tag k="ssr:stedsnr" v="942969" />
	</node>
	<node id="-255890" lat="59.0322081228" lon="8.51593755046">
		<tag k="name" v="Skjeggestad" />
		<tag k="place" v="farm" />
		<tag k="ssr:stedsnr" v="426492" />
	</node>
	<node id="-255889" lat="58.9060194411" lon="8.74326389267">
		<tag k="alt_name" v="Bakken, austre" />
		<tag k="name" v="Austre Bakken" />
		<tag k="place" v="farm" />
		<tag k="ssr:stedsnr" v="426467" />
	</node>
	<node id="-257935" lat="59.1632888882" lon="8.54230832491">
		<tag k="name" v="Grimstveit østre" />
		<tag k="place" v="farm" />
		<tag k="ssr:stedsnr" v="942562" />
	</node>
	<node id="-253838" lat="59.0150638934" lon="8.52434167045">
		<tag k="building" v="industrial" />
		<tag k="name" v="Sundsmoen" />
		<tag k="ssr:stedsnr" v="277951" />
	</node>
	<node id="-257931" lat="59.0091666663" lon="8.44580554917">
		<tag k="alt_name" v="Fjellstøyl" />
		<tag k="historic" v="shieling" />
		<tag k="name" v="Fjellstøl" />
		<tag k="place" v="locality" />
		<tag k="ssr:stedsnr" v="912972" />
	</node>
	<node id="-257928" lat="59.2131000033" lon="8.52075278414">
		<tag k="name" v="Nykås" />
		<tag k="place" v="farm" />
		<tag k="ssr:stedsnr" v="912914" />
	</node>
	<node id="-257927" lat="59.2068944439" lon="8.52274165821">
		<tag k="name" v="Kleiva" />
		<tag k="old_name" v="Kleivgrend" />
		<tag k="place" v="farm" />
		<tag k="ssr:stedsnr" v="912879" />
	</node>
	<node id="-253830" lat="58.9760972257" lon="8.520886114">
		<tag k="name" v="Dalemo" />
		<tag k="place" v="isolated_dwelling" />
		<tag k="ssr:stedsnr" v="277274" />
	</node>
	<node id="-257924" lat="59.159716663" lon="8.67135555375">
		<tag k="alt_name" v="Bua" />
		<tag k="name" v="Bui" />
		<tag k="place" v="locality" />
		<tag k="ssr:stedsnr" v="912783" />
	</node>
	<node id="-257923" lat="59.1561777821" lon="8.53547500112">
		<tag k="alt_name" v="Kåsi" />
		<tag k="name" v="Kåsa" />
		<tag k="place" v="farm" />
		<tag k="ssr:stedsnr" v="912755" />
	</node>
	<node id="-253826" lat="59.0297166649" lon="8.51244166398">
		<tag k="name" v="Smeitkollen" />
		<tag k="place" v="quarter" />
		<tag k="ssr:stedsnr" v="277205" />
	</node>
	<node id="-257921" lat="59.1468666637" lon="8.52883055038">
		<tag k="name" v="Liland" />
		<tag k="place" v="farm" />
		<tag k="ssr:stedsnr" v="912746" />
	</node>
	<node id="-255872" lat="58.9878916663" lon="8.477469447">
		<tag k="name" v="Juva og Engjane" />
		<tag k="place" v="farm" />
		<tag k="ssr:stedsnr" v="426285" />
	</node>
	<node id="-255871" lat="58.9978500031" lon="8.73697778152">
		<tag k="name" v="Stolsvassøygarden" />
		<tag k="place" v="locality" />
		<tag k="ssr:stedsnr" v="426270" />
	</node>
	<node id="-255870" lat="58.9801333374" lon="8.5232305628">
		<tag k="name" v="Åsen" />
		<tag k="place" v="farm" />
		<tag k="ssr:stedsnr" v="426267" />
	</node>
	<node id="-253816" lat="59.0024611121" lon="8.58468888379">
		<tag k="name" v="Rinden" />
		<tag k="place" v="farm" />
		<tag k="ssr:stedsnr" v="276853" />
	</node>
	<node id="-257909" lat="59.0566555572" lon="8.51228888515">
		<tag k="name" v="Vik" />
		<tag k="place" v="farm" />
		<tag k="ssr:stedsnr" v="912610" />
	</node>
	<node id="-253811" lat="58.9983694405" lon="8.58962222563">
		<tag k="name" v="Kaldåker" />
		<tag k="place" v="farm" />
		<tag k="ssr:stedsnr" v="276813" />
	</node>
	<node id="-253810" lat="59.0032722256" lon="8.57722776971">
		<tag k="name" v="Bru nedre" />
		<tag k="place" v="farm" />
		<tag k="ssr:stedsnr" v="276801" />
	</node>
	<node id="-257900" lat="59.0183944482" lon="8.49491666805">
		<tag k="name" v="Gaurak" />
		<tag k="place" v="locality" />
		<tag k="ssr:stedsnr" v="912491" />
	</node>
	<node id="-255851" lat="58.97596944" lon="8.51346110457">
		<tag k="name" v="Holte" />
		<tag k="place" v="isolated_dwelling" />
		<tag k="ssr:stedsnr" v="425255" />
	</node>
	<node id="-255850" lat="58.9719944434" lon="8.51432499335">
		<tag k="name" v="Valle" />
		<tag k="place" v="isolated_dwelling" />
		<tag k="ssr:stedsnr" v="425253" />
	</node>
	<node id="-257895" lat="59.051375004" lon="8.46588888304">
		<tag k="name" v="Naurak" />
		<tag k="place" v="isolated_dwelling" />
		<tag k="ssr:stedsnr" v="912243" />
	</node>
	<node id="-255845" lat="59.1629361074" lon="8.53681667037">
		<tag k="alt_name" v="Grimstveit nordre" />
		<tag k="fixme" v="consider place=hamlet" />
		<tag k="name" v="Grimstveit" />
		<tag k="place" v="farm" />
		<tag k="ssr:stedsnr" v="245761" />
	</node>
	<node id="-253796" lat="59.1799305533" lon="8.57162500413">
		<tag k="name" v="Molandshommen" />
		<tag k="place" v="locality" />
		<tag k="ssr:stedsnr" v="275974" />
	</node>
	<node id="-253795" lat="59.1331638882" lon="8.50701111005">
		<tag k="name" v="Matufs" />
		<tag k="place" v="locality" />
		<tag k="ssr:stedsnr" v="275836" />
	</node>
	<node id="-255841" lat="59.0132833312" lon="8.48210555455">
		<tag k="name" v="Gaurakskleivane" />
		<tag k="place" v="locality" />
		<tag k="ssr:stedsnr" v="245434" />
	</node>
	<node id="-255839" lat="59.0876388877" lon="8.4677861174">
		<tag k="name" v="Åkre" />
		<tag k="place" v="farm" />
		<tag k="ssr:stedsnr" v="245149" />
	</node>
	<node id="-253784" lat="59.1025666693" lon="8.59616667343">
		<tag k="historic" v="shieling" />
		<tag k="name" v="Nesdalen" />
		<tag k="place" v="locality" />
		<tag k="ssr:stedsnr" v="275441" />
	</node>
	<node id="-255831" lat="59.2038527738" lon="8.60677777691">
		<tag k="historic" v="shieling" />
		<tag k="name" v="Hongli" />
		<tag k="place" v="locality" />
		<tag k="ssr:stedsnr" v="244893" />
	</node>
	<node id="-257878" lat="58.9162333345" lon="8.75759445044">
		<tag k="name" v="Eikeland" />
		<tag k="place" v="farm" />
		<tag k="ssr:stedsnr" v="911497" />
	</node>
	<node id="-255828" lat="58.9871277772" lon="8.35216388206">
		<tag k="name" v="Fjellheim" />
		<tag k="place" v="isolated_dwelling" />
		<tag k="ssr:stedsnr" v="244857" />
	</node>
	<node id="-257875" lat="58.9026694404" lon="8.68621666385">
		<tag k="name" v="Brunåsen" />
		<tag k="place" v="farm" />
		<tag k="ssr:stedsnr" v="911481" />
	</node>
	<node id="-255826" lat="59.1731722182" lon="8.5067250084">
		<tag k="name" v="Teigen" />
		<tag k="place" v="isolated_dwelling" />
		<tag k="ssr:stedsnr" v="244815" />
	</node>
	<node id="-255825" lat="59.1577388912" lon="8.53492499386">
		<tag k="fixme" v="consider place=hamlet" />
		<tag k="name" v="Brekke" />
		<tag k="place" v="farm" />
		<tag k="ssr:stedsnr" v="244766" />
	</node>
	<node id="-257872" lat="59.0036722265" lon="8.59075000433">
		<tag k="name" v="Vangen" />
		<tag k="place" v="farm" />
		<tag k="ssr:stedsnr" v="911472" />
	</node>
	<node id="-257868" lat="58.9372694424" lon="8.52054443842">
		<tag k="name" v="Gaukåsen" />
		<tag k="place" v="farm" />
		<tag k="ssr:stedsnr" v="911445" />
	</node>
	<node id="-257861" lat="58.930808336" lon="8.59964721999">
		<tag k="alt_name" v="Bergstøyl" />
		<tag k="name" v="Bergstøl" />
		<tag k="place" v="farm" />
		<tag k="ssr:stedsnr" v="911416" />
	</node>
	<node id="-255812" lat="59.0033083339" lon="8.64926666591">
		<tag k="alt_name" v="Breivasskleivane" />
		<tag k="name" v="Breidvasskleivane" />
		<tag k="place" v="locality" />
		<tag k="ssr:stedsnr" v="244503" />
	</node>
	<node id="-257858" lat="58.9601055593" lon="8.47533333852">
		<tag k="name" v="Haugsjå" />
		<tag k="place" v="hamlet" />
		<tag k="ssr:stedsnr" v="911378" />
	</node>
	<node id="-253835" lat="59.0548611125" lon="8.5792722173">
		<tag k="name" v="To-lillbu" />
		<tag k="place" v="isolated_dwelling" />
		<tag k="ssr:stedsnr" v="277544" />
	</node>
	<node id="-255284" lat="59.0193170618" lon="8.5241810144">
		<tag k="name" v="Tveitsund" />
		<tag k="place" v="farm" />
		<tag k="ssr:stedsnr" v="123519" />
	</node>
	<node id="-255796" lat="59.1694083329" lon="8.34653611727">
		<tag k="alt_name" v="Grytestøyl" />
		<tag k="name" v="Grytstøl" />
		<tag k="place" v="isolated_dwelling" />
		<tag k="ssr:stedsnr" v="244131" />
	</node>
	<node id="-257843" lat="59.1607777772" lon="8.39271111092">
		<tag k="name" v="Fjalestadgrenda" />
		<tag k="place" v="hamlet" />
		<tag k="ssr:stedsnr" v="877372" />
	</node>
	<node id="-255794" lat="59.1513249958" lon="8.38172499355">
		<tag k="name" v="Dalane" />
		<tag k="place" v="farm" />
		<tag k="ssr:stedsnr" v="244105" />
	</node>
	<node id="-257840" lat="59.210886107" lon="8.5692194452">
		<tag k="name" v="Melås" />
		<tag k="place" v="isolated_dwelling" />
		<tag k="ssr:stedsnr" v="852875" />
	</node>
	<node id="-255791" lat="59.2354861139" lon="8.45142499207">
		<tag k="alt_name" v="Sandnesstrånda" />
		<tag k="name" v="Sandnesstrondi" />
		<tag k="place" v="isolated_dwelling" />
		<tag k="ssr:stedsnr" v="244004" />
	</node>
	<node id="-257838" lat="59.1747277817" lon="8.658791673">
		<tag k="alt_name" v="Nutstøyl, øvre" />
		<tag k="historic" v="shieling" />
		<tag k="name" v="Øvre Nutstøyl" />
		<tag k="place" v="locality" />
		<tag k="ssr:stedsnr" v="852770" />
	</node>
	<node id="-257837" lat="59.1742305592" lon="8.66441388592">
		<tag k="alt_name" v="Nutstøyl, nedre" />
		<tag k="historic" v="shieling" />
		<tag k="name" v="Nedre Nutstøyl" />
		<tag k="place" v="locality" />
		<tag k="ssr:stedsnr" v="852771" />
	</node>
	<node id="-257836" lat="59.1497861154" lon="8.53614722096">
		<tag k="alt_name" v="Søtveit" />
		<tag k="name" v="Sørtveit" />
		<tag k="place" v="farm" />
		<tag k="ssr:stedsnr" v="852717" />
	</node>
	<node id="-257835" lat="59.1580277809" lon="8.64374444557">
		<tag k="name" v="Kjempåsen" />
		<tag k="place" v="isolated_dwelling" />
		<tag k="ssr:stedsnr" v="852686" />
	</node>
	<node id="-257830" lat="59.0054333314" lon="8.5789277804">
		<tag k="name" v="Rønningen" />
		<tag k="place" v="farm" />
		<tag k="ssr:stedsnr" v="852482" />
	</node>
	<node id="-257828" lat="59.2125861128" lon="8.33345277793">
		<tag k="alt_name" v="Strånd" />
		<tag k="name" v="Strond" />
		<tag k="place" v="isolated_dwelling" />
		<tag k="ssr:stedsnr" v="852059" />
	</node>
	<node id="-254597" lat="59.0036138901" lon="8.41637777601">
		<tag k="name" v="Engjanbua" />
		<tag k="place" v="locality" />
		<tag k="ssr:stedsnr" v="896340" />
	</node>
	<node id="-257815" lat="59.2172416664" lon="8.60446389541">
		<tag k="alt_name" v="Bjørndalen" />
		<tag k="name" v="Bjønndalen" />
		<tag k="place" v="isolated_dwelling" />
		<tag k="ssr:stedsnr" v="851890" />
	</node>
	<node id="-256985" lat="59.2001750011" lon="8.51863610352">
		<tag k="alt_name" v="Midbø" />
		<tag k="fixme" v="consider place=hamlet" />
		<tag k="name" v="Midtbø" />
		<tag k="place" v="farm" />
		<tag k="ssr:stedsnr" v="668859" />
	</node>
	<node id="-257812" lat="59.1955722246" lon="8.51242500388">
		<tag k="name" v="Sandvik" />
		<tag k="place" v="isolated_dwelling" />
		<tag k="ssr:stedsnr" v="851862" />
	</node>
	<node id="-257811" lat="59.1912388874" lon="8.51312777283">
		<tag k="fixme" v="consider place=hamlet" />
		<tag k="name" v="Vik" />
		<tag k="place" v="farm" />
		<tag k="ssr:stedsnr" v="851839" />
	</node>
	<node id="-257806" lat="59.1298861084" lon="8.58466388441">
		<tag k="name" v="Sigridbu" />
		<tag k="place" v="isolated_dwelling" />
		<tag k="ssr:stedsnr" v="851706" />
	</node>
	<node id="-255756" lat="59.161377774" lon="8.39175277967">
		<tag k="name" v="Lisleuppigard" />
		<tag k="place" v="farm" />
		<tag k="ssr:stedsnr" v="229988" />
	</node>
	<node id="-257802" lat="59.1068194437" lon="8.48258333673">
		<tag k="alt_name" v="Nesi" />
		<tag k="name" v="Neset" />
		<tag k="place" v="locality" />
		<tag k="ssr:stedsnr" v="851671" />
	</node>
	<node id="-257801" lat="59.118486109" lon="8.52062777525">
		<tag k="alt_name" v="Lauvika nedre" />
		<tag k="name" v="Lauvviki" />
		<tag k="place" v="farm" />
		<tag k="ssr:stedsnr" v="851659" />
	</node>
	<node id="-257799" lat="59.0880555591" lon="8.46866111558">
		<tag k="name" v="Åkre" />
		<tag k="place" v="locality" />
		<tag k="ssr:stedsnr" v="851641" />
	</node>
	<node id="-255749" lat="59.1838444459" lon="8.32852221405">
		<tag k="historic" v="shieling" />
		<tag k="name" v="Myrbu" />
		<tag k="place" v="locality" />
		<tag k="ssr:stedsnr" v="229845" />
	</node>
	<node id="-257794" lat="59.04583056" lon="8.65638889378">
		<tag k="name" v="Gama" />
		<tag k="place" v="isolated_dwelling" />
		<tag k="ssr:stedsnr" v="851530" />
	</node>
	<node id="-257792" lat="59.0395944451" lon="8.50966667495">
		<tag k="alt_name" v="Årak nordre" />
		<tag k="name" v="Årak" />
		<tag k="place" v="farm" />
		<tag k="ssr:stedsnr" v="851483" />
	</node>
	<node id="-255743" lat="59.1762472185" lon="8.66072777687">
		<tag k="name" v="Myrstøyl" />
		<tag k="place" v="locality" />
		<tag k="ssr:stedsnr" v="229688" />
	</node>
	<node id="-255737" lat="59.1515694463" lon="8.34711944757">
		<tag k="name" v="Vehus" />
		<tag k="place" v="locality" />
		<tag k="ssr:stedsnr" v="229601" />
	</node>
	<node id="-255735" lat="59.1517972259" lon="8.36447222507">
		<tag k="name" v="Bakkane" />
		<tag k="place" v="locality" />
		<tag k="ssr:stedsnr" v="229574" />
	</node>
	<node id="-257774" lat="59.165845658" lon="8.44449303345">
		<tag k="name" v="Kleivane" />
		<tag k="place" v="farm" />
		<tag k="ssr:stedsnr" v="851099" />
	</node>
	<node id="-257773" lat="59.1616250045" lon="8.46178056237">
		<tag k="name" v="Fjone" />
		<tag k="place" v="farm" />
		<tag k="ssr:stedsnr" v="851097" />
	</node>
	<node id="-257762" lat="58.8964194403" lon="8.68955277839">
		<tag k="fixme" v="consider place=hamlet" />
		<tag k="name" v="Haugstøyl" />
		<tag k="place" v="farm" />
		<tag k="ssr:stedsnr" v="850481" />
	</node>
	<node id="-257759" lat="58.9312750018" lon="8.47521389179">
		<tag k="name" v="Setane" />
		<tag k="place" v="farm" />
		<tag k="ssr:stedsnr" v="850434" />
	</node>
	<node id="-255704" lat="59.1593194475" lon="8.46487221502">
		<tag k="name" v="Søgard Fjone nordre" />
		<tag k="place" v="farm" />
		<tag k="ssr:stedsnr" v="229037" />
	</node>
	<node id="-257750" lat="58.9750499992" lon="8.52248611272">
		<tag k="name" v="Tjønnefoss" />
		<tag k="place" v="hamlet" />
		<tag k="ssr:stedsnr" v="850251" />
	</node>
	<node id="-257749" lat="58.9741916636" lon="8.52273889571">
		<tag k="alt_name" v="Tjørull-kroa" />
		<tag k="building" v="commercial" />
		<tag k="name" v="Kjørullkroa" />
		<tag k="ssr:stedsnr" v="850250" />
	</node>
	<node id="-257740" lat="59.1543027789" lon="8.40531666357">
		<tag k="name" v="Øverland" />
		<tag k="place" v="isolated_dwelling" />
		<tag k="ssr:stedsnr" v="836879" />
	</node>
	<node id="-255691" lat="59.0755499976" lon="8.39164166182">
		<tag k="name" v="Myrbustykket" />
		<tag k="place" v="locality" />
		<tag k="ssr:stedsnr" v="228477" />
	</node>
	<node id="-255690" lat="59.0731083354" lon="8.38906110575">
		<tag k="name" v="Myrbu" />
		<tag k="place" v="locality" />
		<tag k="ssr:stedsnr" v="228475" />
	</node>
	<node id="-254241" lat="58.944244448" lon="8.50544721571">
		<tag k="alt_name" v="Haugsjåsundet" />
		<tag k="name" v="Haugsjåsund" />
		<tag k="place" v="hamlet" />
		<tag k="ssr:stedsnr" v="365338" />
	</node>
	<node id="-257732" lat="59.1064638868" lon="8.36165833382">
		<tag k="name" v="Bergbu" />
		<tag k="place" v="locality" />
		<tag k="ssr:stedsnr" v="836680" />
	</node>
	<node id="-257727" lat="59.1795333363" lon="8.612463896">
		<tag k="name" v="Nystøyl" />
		<tag k="place" v="locality" />
		<tag k="ssr:stedsnr" v="836640" />
	</node>
	<node id="-257724" lat="59.1460361132" lon="8.36556110873">
		<tag k="name" v="Nordal" />
		<tag k="place" v="locality" />
		<tag k="ssr:stedsnr" v="836581" />
	</node>
	<node id="-255673" lat="59.1328388931" lon="8.40825555254">
		<tag k="name" v="Brekke" />
		<tag k="place" v="locality" />
		<tag k="ssr:stedsnr" v="227549" />
	</node>
	<node id="-257719" lat="59.1546916705" lon="8.34052777114">
		<tag k="name" v="Kvålen" />
		<tag k="place" v="locality" />
		<tag k="ssr:stedsnr" v="836570" />
	</node>
	<node id="-257718" lat="59.1361527815" lon="8.45896667086">
		<tag k="name" v="Nordstø" />
		<tag k="place" v="isolated_dwelling" />
		<tag k="ssr:stedsnr" v="836569" />
	</node>
	<node id="-257712" lat="59.1790583353" lon="8.44725000287">
		<tag k="name" v="Solhaug" />
		<tag k="place" v="isolated_dwelling" />
		<tag k="ssr:stedsnr" v="836459" />
	</node>
	<node id="-257813" lat="59.1976777818" lon="8.51846943673">
		<tag k="alt_name" v="Grovom;Nordre Grovum" />
		<tag k="fixme" v="consider place=hamlet" />
		<tag k="name" v="Grovum" />
		<tag k="place" v="farm" />
		<tag k="ssr:stedsnr" v="851864" />
	</node>
	<node id="-257707" lat="59.1937138861" lon="8.40302500876">
		<tag k="name" v="Fjellstøyl" />
		<tag k="place" v="locality" />
		<tag k="ssr:stedsnr" v="836299" />
	</node>
	<node id="-255656" lat="58.9224888912" lon="8.64773611892">
		<tag k="name" v="Onstad søndre" />
		<tag k="place" v="farm" />
		<tag k="ssr:stedsnr" v="218359" />
	</node>
	<node id="-257696" lat="59.2152555578" lon="8.37057499808">
		<tag k="name" v="Mjelthombua" />
		<tag k="place" v="locality" />
		<tag k="ssr:stedsnr" v="836002" />
	</node>
	<node id="-257692" lat="58.9297888893" lon="8.45625277332">
		<tag k="name" v="Stigen" />
		<tag k="place" v="locality" />
		<tag k="ssr:stedsnr" v="835488" />
	</node>
	<node id="-257684" lat="58.9424888897" lon="8.41254167074">
		<tag k="name" v="Høymyrseteren" />
		<tag k="place" v="locality" />
		<tag k="ssr:stedsnr" v="835288" />
	</node>
	<node id="-255631" lat="59.1921833294" lon="8.61280833674">
		<tag k="name" v="Tvijyva" />
		<tag k="place" v="locality" />
		<tag k="ssr:stedsnr" v="218135" />
	</node>
	<node id="-255596" lat="59.0163666696" lon="8.56006666433">
		<tag k="name" v="Øverland søndre" />
		<tag k="place" v="farm" />
		<tag k="ssr:stedsnr" v="216134" />
	</node>
	<node id="-255621" lat="59.0281833298" lon="8.52758054993">
		<tag k="name" v="Nedrebø" />
		<tag k="place" v="farm" />
		<tag k="ssr:stedsnr" v="216824" />
	</node>
	<node id="-255620" lat="59.0276694459" lon="8.53858333864">
		<tag k="name" v="Uppigard" />
		<tag k="place" v="farm" />
		<tag k="ssr:stedsnr" v="216817" />
	</node>
	<node id="-255612" lat="59.0458611114" lon="8.54117222506">
		<tag k="name" v="Stompebakkbu" />
		<tag k="place" v="locality" />
		<tag k="ssr:stedsnr" v="216555" />
	</node>
	<node id="-255611" lat="59.045424996" lon="8.5138361151">
		<tag k="name" v="Dukane" />
		<tag k="place" v="locality" />
		<tag k="ssr:stedsnr" v="216525" />
	</node>
	<node id="-257650" lat="58.9038694485" lon="8.77148054982">
		<tag k="name" v="Skåli vestre" />
		<tag k="place" v="farm" />
		<tag k="ssr:stedsnr" v="825281" />
	</node>
	<node id="-255600" lat="58.9850277763" lon="8.57250278476">
		<tag k="historic" v="shieling" />
		<tag k="name" v="Seteren" />
		<tag k="place" v="locality" />
		<tag k="ssr:stedsnr" v="216278" />
	</node>
	<node id="-257647" lat="58.9041027744" lon="8.74235277402">
		<tag k="name" v="Negard" />
		<tag k="place" v="farm" />
		<tag k="ssr:stedsnr" v="825253" />
	</node>
	<node id="-255598" lat="59.0271138888" lon="8.52045555146">
		<tag k="name" v="Søgard" />
		<tag k="place" v="farm" />
		<tag k="ssr:stedsnr" v="216204" />
	</node>
	<node id="-257644" lat="58.8462000038" lon="8.76185556071">
		<tag k="fixme" v="consider tourism=alpine_hut or tourism=chalet" />
		<tag k="name" v="Blekkvasshytta" />
		<tag k="ssr:stedsnr" v="825241" />
		<tag k="tourism" v="wilderness_hut" />
	</node>
	<node id="-255588" lat="59.0027999985" lon="8.57371389182">
		<tag k="name" v="Sønderlandsgrenda" />
		<tag k="place" v="hamlet" />
		<tag k="ssr:stedsnr" v="215923" />
	</node>
	<node id="-255585" lat="59.2117583361" lon="8.54805833743">
		<tag k="name" v="Listøyl" />
		<tag k="place" v="locality" />
		<tag k="ssr:stedsnr" v="215647" />
	</node>
	<node id="-255577" lat="59.1298833334" lon="8.58466666107">
		<tag k="name" v="Sigridbu" />
		<tag k="place" v="isolated_dwelling" />
		<tag k="ssr:stedsnr" v="214847" />
	</node>
	<node id="-255573" lat="59.1532638877" lon="8.5232833273">
		<tag k="name" v="Haugane" />
		<tag k="place" v="farm" />
		<tag k="ssr:stedsnr" v="214554" />
	</node>
	<node id="-257615" lat="58.9942916636" lon="8.5385611148">
		<tag k="name" v="Trytetjønn hyttefelt" />
		<tag k="place" v="neighbourhood" />
		<tag k="ssr:stedsnr" v="823943" />
	</node>
	<node id="-255566" lat="59.1984611121" lon="8.51210554952">
		<tag k="alt_name" v="Nordbygdi" />
		<tag k="fixme" v="consider place=hamlet" />
		<tag k="name" v="Nordbygda" />
		<tag k="place" v="village" />
		<tag k="ssr:stedsnr" v="209374" />
	</node>
	<node id="-255565" lat="59.1541277814" lon="8.45201388279">
		<tag k="fixme" v="consider place=hamlet" />
		<tag k="name" v="Fjone" />
		<tag k="place" v="village" />
		<tag k="ssr:stedsnr" v="209358" />
	</node>
	<node id="-257609" lat="59.0337861115" lon="8.51744999943">
		<tag k="name" v="Lisle Skjeggestad" />
		<tag k="place" v="locality" />
		<tag k="ssr:stedsnr" v="823810" />
	</node>
	<node id="-255558" lat="59.0993527822" lon="8.50054444724">
		<tag k="alt_name" v="Øya" />
		<tag k="name" v="Øyni" />
		<tag k="place" v="farm" />
		<tag k="ssr:stedsnr" v="184638" />
	</node>
	<node id="-257603" lat="59.0038499998" lon="8.67311111521">
		<tag k="name" v="Breivasshytta" />
		<tag k="place" v="isolated_dwelling" />
		<tag k="ssr:stedsnr" v="823655" />
	</node>
	<node id="-255552" lat="59.1051944426" lon="8.48939999681">
		<tag k="name" v="Raudnes" />
		<tag k="place" v="farm" />
		<tag k="ssr:stedsnr" v="184679" />
	</node>
	<node id="-255551" lat="59.1125500008" lon="8.47144443846">
		<tag k="name" v="Sandvik" />
		<tag k="place" v="farm" />
		<tag k="ssr:stedsnr" v="184675" />
	</node>
	<node id="-257593" lat="59.0262805578" lon="8.51040554917">
		<tag k="name" v="Smeitsund" />
		<tag k="place" v="farm" />
		<tag k="ssr:stedsnr" v="823197" />
	</node>
	<node id="-255538" lat="59.1688055586" lon="8.43891111323">
		<tag k="name" v="Heggland" />
		<tag k="place" v="isolated_dwelling" />
		<tag k="ssr:stedsnr" v="184098" />
	</node>
	<node id="-255537" lat="59.1537527742" lon="8.40030278562">
		<tag k="name" v="Frostli" />
		<tag k="place" v="isolated_dwelling" />
		<tag k="ssr:stedsnr" v="184075" />
	</node>
	<node id="-257584" lat="59.0007750002" lon="8.57204721632">
		<tag k="name" v="Nordmo" />
		<tag k="place" v="farm" />
		<tag k="ssr:stedsnr" v="822937" />
	</node>
	<node id="-255533" lat="58.9433361067" lon="8.43634722879">
		<tag k="historic" v="shieling" />
		<tag k="name" v="Nybu" />
		<tag k="place" v="locality" />
		<tag k="ssr:stedsnr" v="183959" />
	</node>
	<node id="-254073" lat="58.998772223" lon="8.52020555698">
		<tag k="name" v="Øygarden" />
		<tag k="place" v="locality" />
		<tag k="ssr:stedsnr" v="337939" />
	</node>
	<node id="-257578" lat="58.9953999979" lon="8.57701111524">
		<tag k="name" v="Kåsa" />
		<tag k="place" v="locality" />
		<tag k="ssr:stedsnr" v="822774" />
	</node>
	<node id="-255529" lat="58.9738111132" lon="8.45646388432">
		<tag k="alt_name" v="Lille Dale" />
		<tag k="fixme" v="consider place=hamlet" />
		<tag k="name" v="Lisledale" />
		<tag k="place" v="farm" />
		<tag k="ssr:stedsnr" v="183929" />
	</node>
	<node id="-255528" lat="59.1938833306" lon="8.52678333945">
		<tag k="name" v="Tveitane" />
		<tag k="place" v="farm" />
		<tag k="ssr:stedsnr" v="183872" />
	</node>
	<node id="-257285" lat="59.2074166682" lon="8.51180278621">
		<tag k="name" v="Rinden" />
		<tag k="place" v="farm" />
		<tag k="ssr:stedsnr" v="730885" />
	</node>
	<node id="-255510" lat="59.0871916639" lon="8.53905278262">
		<tag k="name" v="Sørstrond" />
		<tag k="place" v="isolated_dwelling" />
		<tag k="ssr:stedsnr" v="183645" />
	</node>
	<node id="-257554" lat="59.2099055547" lon="8.51960277589">
		<tag k="name" v="Øvre Rønningen" />
		<tag k="place" v="farm" />
		<tag k="ssr:stedsnr" v="821601" />
	</node>
	<node id="-257553" lat="59.0897722214" lon="8.53833054714">
		<tag k="name" v="Mellomstrånd" />
		<tag k="place" v="farm" />
		<tag k="ssr:stedsnr" v="821594" />
	</node>
	<node id="-257551" lat="59.1624416632" lon="8.53866667174">
		<tag k="name" v="Grimstveit nedre" />
		<tag k="place" v="farm" />
		<tag k="ssr:stedsnr" v="821570" />
	</node>
	<node id="-257549" lat="59.1621527765" lon="8.51393055474">
		<tag k="name" v="Tveit øvre" />
		<tag k="place" v="farm" />
		<tag k="ssr:stedsnr" v="821559" />
	</node>
	<node id="-257548" lat="59.160013886" lon="8.53255555416">
		<tag k="name" v="Mule vesle" />
		<tag k="place" v="farm" />
		<tag k="ssr:stedsnr" v="821538" />
	</node>
	<node id="-257546" lat="59.1436611072" lon="8.51333888435">
		<tag k="name" v="Lia" />
		<tag k="place" v="locality" />
		<tag k="ssr:stedsnr" v="821509" />
	</node>
	<node id="-257543" lat="59.2042638901" lon="8.51404999529">
		<tag k="fixme" v="consider place=hamlet" />
		<tag k="name" v="Nordbø" />
		<tag k="place" v="farm" />
		<tag k="ssr:stedsnr" v="816355" />
	</node>
	<node id="-255494" lat="59.0039777811" lon="8.58005000321">
		<tag k="alt_name" v="Moen nedre" />
		<tag k="name" v="Moen" />
		<tag k="place" v="farm" />
		<tag k="ssr:stedsnr" v="183413" />
	</node>
	<node id="-257541" lat="59.1624027769" lon="8.51235554776">
		<tag k="alt_name" v="Tveit nedre" />
		<tag k="fixme" v="consider place=hamlet" />
		<tag k="name" v="Tveit" />
		<tag k="place" v="farm" />
		<tag k="ssr:stedsnr" v="791778" />
	</node>
	<node id="-257540" lat="59.1651888882" lon="8.51142221358">
		<tag k="name" v="Hagane" />
		<tag k="place" v="locality" />
		<tag k="ssr:stedsnr" v="791777" />
	</node>
	<node id="-257536" lat="59.1010250033" lon="8.56282222296">
		<tag k="historic" v="shieling" />
		<tag k="name" v="Tjovehommen" />
		<tag k="place" v="locality" />
		<tag k="ssr:stedsnr" v="791612" />
	</node>
	<node id="-257532" lat="59.0134416659" lon="8.55810278211">
		<tag k="alt_name" v="Homme øvre" />
		<tag k="fixme" v="consider place=hamlet" />
		<tag k="name" v="Homme" />
		<tag k="place" v="farm" />
		<tag k="ssr:stedsnr" v="791475" />
	</node>
	<node id="-257530" lat="59.0096750018" lon="8.53994999365">
		<tag k="name" v="Lauvland" />
		<tag k="place" v="isolated_dwelling" />
		<tag k="ssr:stedsnr" v="791472" />
	</node>
	<node id="-257525" lat="59.2241444445" lon="8.49809723052">
		<tag k="name" v="Sandnes" />
		<tag k="place" v="isolated_dwelling" />
		<tag k="ssr:stedsnr" v="790942" />
	</node>
	<node id="-257524" lat="59.2145444466" lon="8.58516944942">
		<tag k="alt_name" v="Storstøylane" />
		<tag k="name" v="Støylane" />
		<tag k="place" v="locality" />
		<tag k="ssr:stedsnr" v="790909" />
	</node>
	<node id="-257523" lat="59.198827774" lon="8.51113611896">
		<tag k="name" v="Nerbø" />
		<tag k="place" v="isolated_dwelling" />
		<tag k="ssr:stedsnr" v="790883" />
	</node>
	<node id="-257516" lat="59.1389083336" lon="8.50884721687">
		<tag k="name" v="Steinsland" />
		<tag k="place" v="isolated_dwelling" />
		<tag k="ssr:stedsnr" v="790734" />
	</node>
	<node id="-255467" lat="58.9709138922" lon="8.52086110246">
		<tag k="name" v="Bergland" />
		<tag k="place" v="isolated_dwelling" />
		<tag k="ssr:stedsnr" v="182238" />
	</node>
	<node id="-257513" lat="59.1112305536" lon="8.55624721975">
		<tag k="name" v="Fjelløygarden" />
		<tag k="place" v="locality" />
		<tag k="ssr:stedsnr" v="790712" />
	</node>
	<node id="-257510" lat="59.1184361101" lon="8.47246945304">
		<tag k="name" v="Vik" />
		<tag k="place" v="farm" />
		<tag k="ssr:stedsnr" v="790695" />
	</node>
	<node id="-255459" lat="59.1820138921" lon="8.6452916708">
		<tag k="name" v="Myrstøylbua" />
		<tag k="place" v="locality" />
		<tag k="ssr:stedsnr" v="169646" />
	</node>
	<node id="-255456" lat="58.9968472202" lon="8.7226527752">
		<tag k="name" v="Steinbu" />
		<tag k="place" v="locality" />
		<tag k="ssr:stedsnr" v="169511" />
	</node>
	<node id="-255453" lat="59.0242472232" lon="8.65217499417">
		<tag k="name" v="Kleivtjønnbua" />
		<tag k="place" v="locality" />
		<tag k="ssr:stedsnr" v="169085" />
	</node>
	<node id="-257497" lat="58.9036083317" lon="8.75543055119">
		<tag k="name" v="Helland" />
		<tag k="place" v="farm" />
		<tag k="ssr:stedsnr" v="790462" />
	</node>
	<node id="-255446" lat="59.1847194467" lon="8.32075277102">
		<tag k="historic" v="shieling" />
		<tag k="name" v="Espebuene" />
		<tag k="place" v="locality" />
		<tag k="ssr:stedsnr" v="168838" />
	</node>
	<node id="-255224" lat="58.9853916651" lon="8.57271944772">
		<tag k="name" v="Sønderlandsætta" />
		<tag k="place" v="isolated_dwelling" />
		<tag k="ssr:stedsnr" v="121270" />
	</node>
	<node id="-257485" lat="59.1336666694" lon="8.43125278618">
		<tag k="name" v="Solberg" />
		<tag k="place" v="locality" />
		<tag k="ssr:stedsnr" v="790135" />
	</node>
	<node id="-257484" lat="59.1373888871" lon="8.40431111889">
		<tag k="historic" v="shieling" />
		<tag k="name" v="Mesel" />
		<tag k="place" v="locality" />
		<tag k="ssr:stedsnr" v="790134" />
	</node>
	<node id="-255561" lat="59.1593083303" lon="8.54475277916">
		<tag k="name" v="Tveitane" />
		<tag k="place" v="hamlet" />
		<tag k="ssr:stedsnr" v="184741" />
	</node>
	<node id="-255408" lat="59.1088027769" lon="8.46706389743">
		<tag k="name" v="Evjekosa" />
		<tag k="place" v="locality" />
		<tag k="ssr:stedsnr" v="168008" />
	</node>
	<node id="-257455" lat="58.9867499975" lon="8.6230194369">
		<tag k="name" v="Presthyløygarden" />
		<tag k="place" v="isolated_dwelling" />
		<tag k="ssr:stedsnr" v="789271" />
	</node>
	<node id="-255404" lat="58.9292083335" lon="8.35153611514">
		<tag k="name" v="Moen Espestøyl" />
		<tag k="place" v="farm" />
		<tag k="ssr:stedsnr" v="167790" />
	</node>
	<node id="-255396" lat="58.9595472218" lon="8.47308333032">
		<tag k="name" v="Rondehaug" />
		<tag k="place" v="farm" />
		<tag k="ssr:stedsnr" v="167019" />
	</node>
	<node id="-257440" lat="59.207805554" lon="8.63027499216">
		<tag k="name" v="Måvasshytta" />
		<tag k="place" v="isolated_dwelling" />
		<tag k="ssr:stedsnr" v="776497" />
	</node>
	<node id="-254192" lat="59.1131583374" lon="8.42032499537">
		<tag k="name" v="Rubbu" />
		<tag k="place" v="locality" />
		<tag k="ssr:stedsnr" v="350929" />
	</node>
	<node id="-257437" lat="59.1572194415" lon="8.64598055808">
		<tag k="name" v="Nordstøyl" />
		<tag k="place" v="locality" />
		<tag k="ssr:stedsnr" v="776280" />
	</node>
	<node id="-255384" lat="58.9063277747" lon="8.74351945198">
		<tag k="name" v="Austigard" />
		<tag k="place" v="farm" />
		<tag k="ssr:stedsnr" v="157984" />
	</node>
	<node id="-257428" lat="59.1045000018" lon="8.39490555452">
		<tag k="historic" v="shieling" />
		<tag k="name" v="Heggbærhommen" />
		<tag k="place" v="locality" />
		<tag k="ssr:stedsnr" v="775892" />
	</node>
	<node id="-255555" lat="59.1715166637" lon="8.55334167132">
		<tag k="alt_name" v="Støylslia" />
		<tag k="historic" v="shieling" />
		<tag k="name" v="Støylslii" />
		<tag k="place" v="locality" />
		<tag k="ssr:stedsnr" v="184783" />
	</node>
	<node id="-257422" lat="59.1598055511" lon="8.40746944444">
		<tag k="name" v="Kosa" />
		<tag k="place" v="locality" />
		<tag k="ssr:stedsnr" v="775751" />
	</node>
	<node id="-257413" lat="59.131808336" lon="8.45730000045">
		<tag k="name" v="Mokollen" />
		<tag k="place" v="isolated_dwelling" />
		<tag k="ssr:stedsnr" v="775566" />
	</node>
	<node id="-255894" lat="59.0289694459" lon="8.53127500245">
		<tag k="name" v="Jordet" />
		<tag k="place" v="farm" />
		<tag k="ssr:stedsnr" v="426511" />
	</node>
	<node id="-257393" lat="59.2158166653" lon="8.34910833145">
		<tag k="name" v="Kil" />
		<tag k="place" v="isolated_dwelling" />
		<tag k="ssr:stedsnr" v="775099" />
	</node>
	<node id="-257387" lat="59.1182888848" lon="8.47223611634">
		<tag k="name" v="Vik heimre" />
		<tag k="place" v="farm" />
		<tag k="ssr:stedsnr" v="775037" />
	</node>
	<node id="-257386" lat="59.1178666675" lon="8.47153611552">
		<tag k="name" v="Vik burtre" />
		<tag k="place" v="farm" />
		<tag k="ssr:stedsnr" v="775034" />
	</node>
	<node id="-257385" lat="59.1580916692" lon="8.45854166325">
		<tag k="name" v="Årtun" />
		<tag k="place" v="farm" />
		<tag k="ssr:stedsnr" v="775010" />
	</node>
	<node id="-257379" lat="59.0629277772" lon="8.39402778283">
		<tag k="name" v="Gamle Ånondsbu" />
		<tag k="place" v="locality" />
		<tag k="ssr:stedsnr" v="774458" />
	</node>
	<node id="-255327" lat="58.9529194474" lon="8.51175277228">
		<tag k="fixme" v="consider place=hamlet" />
		<tag k="name" v="Høgefoss" />
		<tag k="place" v="village" />
		<tag k="ssr:stedsnr" v="155374" />
	</node>
	<node id="-255886" lat="59.0028361092" lon="8.57369722173">
		<tag k="alt_name" v="Heimdalsgrenda" />
		<tag k="name" v="Heimdal" />
		<tag k="place" v="hamlet" />
		<tag k="ssr:stedsnr" v="426459" />
	</node>
	<node id="-257362" lat="59.1179638871" lon="8.3725972223">
		<tag k="name" v="Finnstea" />
		<tag k="place" v="locality" />
		<tag k="ssr:stedsnr" v="773649" />
	</node>
	<node id="-255302" lat="59.1277277794" lon="8.5309888896">
		<tag k="name" v="Fjellstøyl" />
		<tag k="place" v="locality" />
		<tag k="ssr:stedsnr" v="153385" />
	</node>
	<node id="-255299" lat="59.2138611153" lon="8.52276945094">
		<tag k="name" v="Skogen" />
		<tag k="place" v="locality" />
		<tag k="ssr:stedsnr" v="123928" />
	</node>
	<node id="-255298" lat="59.2158749957" lon="8.62921667388">
		<tag k="alt_name" v="Floklia" />
		<tag k="name" v="Floklii" />
		<tag k="place" v="locality" />
		<tag k="ssr:stedsnr" v="123909" />
	</node>
	<node id="-255297" lat="59.1598916681" lon="8.5297749969">
		<tag k="alt_name" v="Mule store" />
		<tag k="fixme" v="consider place=hamlet" />
		<tag k="name" v="Mule" />
		<tag k="place" v="farm" />
		<tag k="ssr:stedsnr" v="123792" />
	</node>
	<node id="-255295" lat="59.1647166647" lon="8.54927222156">
		<tag k="name" v="Moen" />
		<tag k="place" v="farm" />
		<tag k="ssr:stedsnr" v="123786" />
	</node>
	<node id="-255294" lat="59.1543416712" lon="8.53952222211">
		<tag k="name" v="Rafoss" />
		<tag k="place" v="farm" />
		<tag k="ssr:stedsnr" v="123769" />
	</node>
	<node id="-255292" lat="59.139722223" lon="8.62053056285">
		<tag k="name" v="Raundalen" />
		<tag k="place" v="locality" />
		<tag k="ssr:stedsnr" v="123730" />
	</node>
	<node id="-257335" lat="58.8587555514" lon="8.7203861153">
		<tag k="fixme" v="consider tourism=alpine_hut or tourism=chalet" />
		<tag k="name" v="Sesstjønnhytta" />
		<tag k="ssr:stedsnr" v="764276" />
		<tag k="tourism" v="wilderness_hut" />
	</node>
	<node id="-257332" lat="58.92584444" lon="8.78064999455">
		<tag k="name" v="Vehus nedre" />
		<tag k="place" v="farm" />
		<tag k="ssr:stedsnr" v="764097" />
	</node>
	<node id="-255279" lat="59.1331666654" lon="8.35661110953">
		<tag k="name" v="Iglehommen" />
		<tag k="place" v="isolated_dwelling" />
		<tag k="ssr:stedsnr" v="123164" />
	</node>
	<node id="-255276" lat="59.2145638901" lon="8.32756388935">
		<tag k="alt_name" v="Lytingsdalen" />
		<tag k="name" v="Lytingsdal" />
		<tag k="place" v="isolated_dwelling" />
		<tag k="ssr:stedsnr" v="123053" />
	</node>
	<node id="-257321" lat="58.934786113" lon="8.50950832813">
		<tag k="name" v="Ståga" />
		<tag k="place" v="locality" />
		<tag k="ssr:stedsnr" v="762965" />
	</node>
	<node id="-257314" lat="59.0516777771" lon="8.58862777946">
		<tag k="name" v="Nokkebu" />
		<tag k="place" v="isolated_dwelling" />
		<tag k="ssr:stedsnr" v="762481" />
	</node>
	<node id="-257311" lat="58.9751611111" lon="8.5136666608">
		<tag k="name" v="Fjellheim" />
		<tag k="place" v="isolated_dwelling" />
		<tag k="ssr:stedsnr" v="762280" />
	</node>
	<node id="-255262" lat="59.1568611097" lon="8.50922499614">
		<tag k="alt_name" v="Søftestad" />
		<tag k="fixme" v="consider place=hamlet" />
		<tag k="name" v="Syftestad" />
		<tag k="place" v="farm" />
		<tag k="ssr:stedsnr" v="122756" />
	</node>
	<node id="-257308" lat="59.0058277808" lon="8.53803611792">
		<tag k="name" v="Nyland" />
		<tag k="place" v="farm" />
		<tag k="ssr:stedsnr" v="762934" />
	</node>
	<node id="-255258" lat="59.0945277778" lon="8.49240278056">
		<tag k="name" v="Holman" />
		<tag k="place" v="isolated_dwelling" />
		<tag k="ssr:stedsnr" v="122645" />
	</node>
	<node id="-257301" lat="59.0372138849" lon="8.51077500488">
		<tag k="fixme" v="consider place=hamlet" />
		<tag k="name" v="Årak søndre" />
		<tag k="place" v="farm" />
		<tag k="ssr:stedsnr" v="761559" />
	</node>
	<node id="-254610" lat="59.1120722232" lon="8.46619721456">
		<tag k="name" v="Sandvikkosa" />
		<tag k="place" v="locality" />
		<tag k="ssr:stedsnr" v="897005" />
	</node>
	<node id="-257297" lat="59.208508335" lon="8.56258889077">
		<tag k="name" v="Fidjevad" />
		<tag k="place" v="locality" />
		<tag k="ssr:stedsnr" v="760928" />
	</node>
	<node id="-257295" lat="59.1727972227" lon="8.58155556202">
		<tag k="name" v="Fitjestøylane" />
		<tag k="place" v="locality" />
		<tag k="ssr:stedsnr" v="760832" />
	</node>
	<node id="-257293" lat="59.2183972197" lon="8.49891944064">
		<tag k="name" v="Flom" />
		<tag k="place" v="locality" />
		<tag k="ssr:stedsnr" v="760582" />
	</node>
	<node id="-255240" lat="58.957030554" lon="8.51128888444">
		<tag k="name" v="Fossli" />
		<tag k="place" v="farm" />
		<tag k="ssr:stedsnr" v="122348" />
	</node>
	<node id="-255239" lat="58.9547583369" lon="8.63197499789">
		<tag k="alt_name" v="Almelia" />
		<tag k="name" v="Almlia" />
		<tag k="place" v="farm" />
		<tag k="ssr:stedsnr" v="122346" />
	</node>
	<node id="-253825" lat="59.0257805545" lon="8.51609722507">
		<tag k="name" v="Leirosen" />
		<tag k="place" v="farm" />
		<tag k="ssr:stedsnr" v="277202" />
	</node>
	<node id="-255234" lat="58.9735111142" lon="8.47730555845">
		<tag k="name" v="Nordli" />
		<tag k="place" v="isolated_dwelling" />
		<tag k="ssr:stedsnr" v="122271" />
	</node>
	<node id="-257279" lat="59.123188889" lon="8.51074721829">
		<tag k="name" v="Nes" />
		<tag k="place" v="hamlet" />
		<tag k="ssr:stedsnr" v="730753" />
	</node>
	<node id="-257277" lat="59.1381777796" lon="8.69590832739">
		<tag k="name" v="Uvdalen" />
		<tag k="place" v="locality" />
		<tag k="ssr:stedsnr" v="730742" />
	</node>
	<node id="-257272" lat="59.0955694402" lon="8.48547500598">
		<tag k="name" v="Gjevland" />
		<tag k="place" v="farm" />
		<tag k="ssr:stedsnr" v="730685" />
	</node>
	<node id="-254071" lat="58.9996611096" lon="8.52125277234">
		<tag k="name" v="Baremsland" />
		<tag k="place" v="farm" />
		<tag k="ssr:stedsnr" v="337931" />
	</node>
	<node id="-257262" lat="59.0206388926" lon="8.52019999794">
		<tag k="name" v="Treungen" />
		<tag k="place" v="village" />
		<tag k="ssr:stedsnr" v="730488" />
	</node>
	<node id="-257260" lat="59.0170138899" lon="8.55954721528">
		<tag k="alt_name" v="Øverland nordre" />
		<tag k="fixme" v="consider place=hamlet" />
		<tag k="name" v="Øverland" />
		<tag k="place" v="farm" />
		<tag k="ssr:stedsnr" v="730484" />
	</node>
	<node id="-255211" lat="59.1742666676" lon="8.40828055758">
		<tag k="name" v="Grånhombua" />
		<tag k="place" v="locality" />
		<tag k="ssr:stedsnr" v="108953" />
	</node>
	<node id="-257258" lat="59.1501111108" lon="8.37438610493">
		<tag k="name" v="Dale" />
		<tag k="place" v="farm" />
		<tag k="ssr:stedsnr" v="730087" />
	</node>
	<node id="-255207" lat="59.1606944482" lon="8.409163885">
		<tag k="name" v="Solstad" />
		<tag k="place" v="isolated_dwelling" />
		<tag k="ssr:stedsnr" v="108761" />
	</node>
	<node id="-255185" lat="59.1540388898" lon="8.45136667229">
		<tag k="name" v="Slettemo" />
		<tag k="place" v="isolated_dwelling" />
		<tag k="ssr:stedsnr" v="108413" />
	</node>
	<node id="-255203" lat="59.1963249981" lon="8.45891667128">
		<tag k="name" v="Sandvikstøylen" />
		<tag k="place" v="locality" />
		<tag k="ssr:stedsnr" v="108694" />
	</node>
	<node id="-255199" lat="59.1676861115" lon="8.46130555516">
		<tag k="name" v="Kosa" />
		<tag k="place" v="isolated_dwelling" />
		<tag k="ssr:stedsnr" v="108626" />
	</node>
	<node id="-255198" lat="59.1645000007" lon="8.46336111157">
		<tag k="name" v="Lauvstad" />
		<tag k="place" v="isolated_dwelling" />
		<tag k="ssr:stedsnr" v="108612" />
	</node>
	<node id="-255197" lat="59.1662055554" lon="8.46376667376">
		<tag k="name" v="Nordjordet" />
		<tag k="place" v="farm" />
		<tag k="ssr:stedsnr" v="108611" />
	</node>
	<node id="-255196" lat="59.1352194434" lon="8.45882499353">
		<tag k="name" v="Heimtrå" />
		<tag k="place" v="isolated_dwelling" />
		<tag k="ssr:stedsnr" v="108605" />
	</node>
	<node id="-257235" lat="59.0405055556" lon="8.66268054843">
		<tag k="alt_name" v="Rosstjørnhytta" />
		<tag k="name" v="Rosstjønnhytta" />
		<tag k="place" v="isolated_dwelling" />
		<tag k="ssr:stedsnr" v="729497" />
	</node>
	<node id="-257233" lat="59.004636115" lon="8.5947249924">
		<tag k="alt_name" v="Nordheim" />
		<tag k="name" v="Norheim" />
		<tag k="place" v="farm" />
		<tag k="ssr:stedsnr" v="729466" />
	</node>
	<node id="-255175" lat="59.234366665" lon="8.36271666414">
		<tag k="name" v="Langli" />
		<tag k="place" v="locality" />
		<tag k="ssr:stedsnr" v="108135" />
	</node>
	<node id="-257222" lat="58.951655555" lon="8.50635277888">
		<tag k="name" v="Brekka" />
		<tag k="place" v="farm" />
		<tag k="ssr:stedsnr" v="729357" />
	</node>
	<node id="-255167" lat="59.1614472238" lon="8.46164166661">
		<tag k="name" v="Uppigard Fjone" />
		<tag k="place" v="farm" />
		<tag k="ssr:stedsnr" v="108022" />
	</node>
	<node id="-254683" lat="59.0246626994" lon="8.47563835807">
		<tag k="name" v="Treungens kirke skogstykke" />
		<tag k="place" v="locality" />
		<tag k="ssr:stedsnr" v="984022" />
	</node>
	<node id="-255155" lat="58.9336388853" lon="8.47241110601">
		<tag k="name" v="Setekleiv" />
		<tag k="place" v="farm" />
		<tag k="ssr:stedsnr" v="107415" />
	</node>
	<node id="-255154" lat="58.9315944402" lon="8.46980278066">
		<tag k="name" v="Nedre Setane" />
		<tag k="place" v="farm" />
		<tag k="ssr:stedsnr" v="107410" />
	</node>
	<node id="-257200" lat="59.1984472178" lon="8.42338055719">
		<tag k="name" v="Kleivanstøylen" />
		<tag k="place" v="locality" />
		<tag k="ssr:stedsnr" v="715284" />
	</node>
	<node id="-255148" lat="58.9607499975" lon="8.47407776918">
		<tag k="name" v="Haugane" />
		<tag k="place" v="farm" />
		<tag k="ssr:stedsnr" v="107016" />
	</node>
	<node id="-257906" lat="59.0261638858" lon="8.53563333359">
		<tag k="alt_name" v="Utistog" />
		<tag k="name" v="Utstog" />
		<tag k="place" v="farm" />
		<tag k="ssr:stedsnr" v="912556" />
	</node>
	<node id="-257193" lat="59.1608861156" lon="8.39341388148">
		<tag k="name" v="Nigard" />
		<tag k="place" v="farm" />
		<tag k="ssr:stedsnr" v="715000" />
	</node>
	<node id="-255142" lat="59.1501388878" lon="8.37426110586">
		<tag k="name" v="Østre Dale" />
		<tag k="place" v="farm" />
		<tag k="ssr:stedsnr" v="105605" />
	</node>
	<node id="-255139" lat="58.9065138889" lon="8.74227499255">
		<tag k="name" v="Bakken" />
		<tag k="place" v="farm" />
		<tag k="ssr:stedsnr" v="103278" />
	</node>
	<node id="-255138" lat="59.0356055587" lon="8.42997221884">
		<tag k="name" v="Sønjanstøylen" />
		<tag k="place" v="locality" />
		<tag k="ssr:stedsnr" v="108115" />
	</node>
	<node id="-256728" lat="59.0164166675" lon="8.52185278031">
		<tag k="name" v="Sundmoen" />
		<tag k="place" v="isolated_dwelling" />
		<tag k="ssr:stedsnr" v="608491" />
	</node>
	<node id="-257178" lat="59.1079416691" lon="8.35221665826">
		<tag k="name" v="Meselhytta" />
		<tag k="place" v="isolated_dwelling" />
		<tag k="ssr:stedsnr" v="714673" />
	</node>
	<node id="-255123" lat="58.9539499966" lon="8.66329722124">
		<tag k="name" v="Rossåhytta" />
		<tag k="place" v="isolated_dwelling" />
		<tag k="ssr:stedsnr" v="96652" />
	</node>
	<node id="-257170" lat="59.1509916712" lon="8.36849167522">
		<tag k="name" v="Nedre Dalen" />
		<tag k="place" v="locality" />
		<tag k="ssr:stedsnr" v="714547" />
	</node>
	<node id="-257162" lat="59.0939055566" lon="8.40512778187">
		<tag k="name" v="Dukanhytta" />
		<tag k="place" v="isolated_dwelling" />
		<tag k="ssr:stedsnr" v="714413" />
	</node>
	<node id="-255112" lat="58.8668305553" lon="8.75796944507">
		<tag k="historic" v="shieling" />
		<tag k="name" v="Ljosvassøygard" />
		<tag k="place" v="locality" />
		<tag k="ssr:stedsnr" v="96294" />
	</node>
	<node id="-257151" lat="59.0871250012" lon="8.45150556129">
		<tag k="name" v="Øykosa" />
		<tag k="place" v="locality" />
		<tag k="ssr:stedsnr" v="714224" />
	</node>
	<node id="-257149" lat="59.0321055551" lon="8.68736389167">
		<tag k="name" v="Slåttebu" />
		<tag k="place" v="locality" />
		<tag k="ssr:stedsnr" v="714182" />
	</node>
	<node id="-257139" lat="59.1607472251" lon="8.46206110614">
		<tag k="name" v="Nigard Fjone" />
		<tag k="place" v="farm" />
		<tag k="ssr:stedsnr" v="714023" />
	</node>
	<node id="-257137" lat="59.1581388905" lon="8.45721389503">
		<tag k="name" v="Kvennhushaugen" />
		<tag k="place" v="isolated_dwelling" />
		<tag k="ssr:stedsnr" v="714015" />
	</node>
	<node id="-255080" lat="58.9995638887" lon="8.68307778224">
		<tag k="name" v="Berghylhytta" />
		<tag k="place" v="isolated_dwelling" />
		<tag k="ssr:stedsnr" v="95046" />
	</node>
	<node id="-257125" lat="59.1036111071" lon="8.36736944973">
		<tag k="name" v="Fjellstøyl" />
		<tag k="place" v="locality" />
		<tag k="ssr:stedsnr" v="712697" />
	</node>
	<node id="-255072" lat="59.0009472201" lon="8.58894166486">
		<tag k="name" v="Bakken" />
		<tag k="place" v="farm" />
		<tag k="ssr:stedsnr" v="94807" />
	</node>
	<node id="-257115" lat="59.1722083348" lon="8.68804444134">
		<tag k="name" v="Den ytre støylen" />
		<tag k="place" v="locality" />
		<tag k="ssr:stedsnr" v="715516" />
	</node>
	<node id="-255059" lat="59.1732027753" lon="8.50622499263">
		<tag k="name" v="Teigen" />
		<tag k="place" v="isolated_dwelling" />
		<tag k="ssr:stedsnr" v="93994" />
	</node>
	<node id="-257106" lat="58.9315833373" lon="8.75308334131">
		<tag k="name" v="Sandtjønnlia" />
		<tag k="place" v="neighbourhood" />
		<tag k="ssr:stedsnr" v="703963" />
	</node>
	<node id="-255843" lat="59.0582916636" lon="8.6100055553">
		<tag k="name" v="Godthol" />
		<tag k="place" v="isolated_dwelling" />
		<tag k="ssr:stedsnr" v="245521" />
	</node>
	<node id="-257096" lat="58.9791888853" lon="8.64779722395">
		<tag k="name" v="Grotåhytta" />
		<tag k="place" v="isolated_dwelling" />
		<tag k="ssr:stedsnr" v="703764" />
	</node>
	<node id="-257095" lat="58.8998666639" lon="8.7797305482">
		<tag k="name" v="Skåli søndre" />
		<tag k="place" v="farm" />
		<tag k="ssr:stedsnr" v="703672" />
	</node>
	<node id="-257094" lat="58.9698472195" lon="8.65116944315">
		<tag k="name" v="Vøylhytta" />
		<tag k="place" v="locality" />
		<tag k="ssr:stedsnr" v="703645" />
	</node>
	<node id="-255044" lat="59.195066665" lon="8.51749721679">
		<tag k="name" v="Dekkane" />
		<tag k="place" v="farm" />
		<tag k="ssr:stedsnr" v="93430" />
	</node>
	<node id="-257087" lat="58.9051777765" lon="8.7405055586">
		<tag k="name" v="Vestigard" />
		<tag k="place" v="farm" />
		<tag k="ssr:stedsnr" v="703352" />
	</node>
	<node id="-255036" lat="59.1510249971" lon="8.61330833247">
		<tag k="alt_name" v="Breilistøylen" />
		<tag k="name" v="Breidlistøylen" />
		<tag k="place" v="isolated_dwelling" />
		<tag k="ssr:stedsnr" v="63705" />
	</node>
	<node id="-255034" lat="59.2637055542" lon="8.47968056112">
		<tag k="name" v="Lauvlunden" />
		<tag k="place" v="isolated_dwelling" />
		<tag k="ssr:stedsnr" v="63543" />
	</node>
	<node id="-255023" lat="58.9515999959" lon="8.41001944633">
		<tag k="name" v="Eikhom" />
		<tag k="old_name" v="Eiknom" />
		<tag k="place" v="farm" />
		<tag k="ssr:stedsnr" v="62922" />
	</node>
	<node id="-255019" lat="59.1860861067" lon="8.58457777385">
		<tag k="name" v="Bulii" />
		<tag k="place" v="isolated_dwelling" />
		<tag k="ssr:stedsnr" v="62835" />
	</node>
	<node id="-255495" lat="59.0009472265" lon="8.58983055887">
		<tag k="name" v="Svalastog" />
		<tag k="place" v="farm" />
		<tag k="ssr:stedsnr" v="183417" />
	</node>
	<node id="-255016" lat="59.1713366406" lon="8.50697236163">
		<tag k="name" v="Rønningen" />
		<tag k="place" v="farm" />
		<tag k="ssr:stedsnr" v="62804" />
	</node>
	<node id="-255014" lat="59.1612749958" lon="8.54671666416">
		<tag k="alt_name" v="Ibrekke" />
		<tag k="fixme" v="consider place=hamlet" />
		<tag k="name" v="Ibrekk" />
		<tag k="place" v="farm" />
		<tag k="ssr:stedsnr" v="62776" />
	</node>
	<node id="-257055" lat="58.9968222209" lon="8.57336667481">
		<tag k="name" v="Åsland" />
		<tag k="place" v="farm" />
		<tag k="ssr:stedsnr" v="701781" />
	</node>
	<node id="-255006" lat="59.090970966" lon="8.48518200891">
		<tag k="name" v="Garden" />
		<tag k="place" v="farm" />
		<tag k="ssr:stedsnr" v="62663" />
	</node>
	<node id="-255002" lat="59.0487194421" lon="8.51167777251">
		<tag k="name" v="Lia" />
		<tag k="place" v="farm" />
		<tag k="ssr:stedsnr" v="62559" />
	</node>
	<node id="-257046" lat="58.9805444475" lon="8.50761666492">
		<tag k="name" v="Svarthølbua" />
		<tag k="place" v="locality" />
		<tag k="ssr:stedsnr" v="701429" />
	</node>
	<node id="-257043" lat="58.9770750036" lon="8.52109722704">
		<tag k="name" v="Vatne" />
		<tag k="place" v="isolated_dwelling" />
		<tag k="ssr:stedsnr" v="701386" />
	</node>
	<node id="-254991" lat="59.0001777749" lon="8.52496110902">
		<tag k="name" v="Baremsland" />
		<tag k="place" v="farm" />
		<tag k="ssr:stedsnr" v="62476" />
	</node>
	<node id="-257038" lat="59.1302722193" lon="8.54308332867">
		<tag k="historic" v="shieling" />
		<tag k="name" v="Vehus" />
		<tag k="place" v="locality" />
		<tag k="ssr:stedsnr" v="700868" />
	</node>
	<node id="-257035" lat="59.1612805525" lon="8.50590278087">
		<tag k="alt_name" v="Nissedal prestegård" />
		<tag k="fixme" v="consider place=hamlet" />
		<tag k="name" v="Prestegarden" />
		<tag k="place" v="farm" />
		<tag k="ssr:stedsnr" v="700549" />
	</node>
	<node id="-257027" lat="59.2593972219" lon="8.44825554681">
		<tag k="alt_name" v="Horgeviki" />
		<tag k="name" v="Horgevikgarden" />
		<tag k="place" v="locality" />
		<tag k="ssr:stedsnr" v="670202" />
	</node>
	<node id="-254975" lat="59.161780556" lon="8.39458333563">
		<tag k="alt_name" v="Reini" />
		<tag k="name" v="Reine" />
		<tag k="place" v="farm" />
		<tag k="ssr:stedsnr" v="62107" />
	</node>
	<node id="-254974" lat="59.164452781" lon="8.40100832686">
		<tag k="name" v="Solli" />
		<tag k="place" v="farm" />
		<tag k="ssr:stedsnr" v="62108" />
	</node>
	<node id="-254973" lat="59.1719250009" lon="8.4395750059">
		<tag k="fixme" v="consider place=hamlet" />
		<tag k="name" v="Borstad" />
		<tag k="place" v="farm" />
		<tag k="ssr:stedsnr" v="62106" />
	</node>
	<node id="-254969" lat="58.9311249996" lon="8.46727778215">
		<tag k="name" v="Setane" />
		<tag k="place" v="farm" />
		<tag k="ssr:stedsnr" v="61997" />
	</node>
	<node id="-257876" lat="58.904186114" lon="8.74247777091">
		<tag k="alt_name" v="Bakken, nedre" />
		<tag k="name" v="Nedre Bakken" />
		<tag k="place" v="farm" />
		<tag k="ssr:stedsnr" v="911488" />
	</node>
	<node id="-257006" lat="59.2034833319" lon="8.61439722479">
		<tag k="name" v="Bronane" />
		<tag k="place" v="locality" />
		<tag k="ssr:stedsnr" v="669885" />
	</node>
	<node id="-257004" lat="59.2096444477" lon="8.6428749914">
		<tag k="alt_name" v="Krisbu" />
		<tag k="name" v="Kressbu" />
		<tag k="place" v="isolated_dwelling" />
		<tag k="ssr:stedsnr" v="669876" />
	</node>
	<node id="-257001" lat="59.1889500014" lon="8.51610833504">
		<tag k="name" v="Liarheim" />
		<tag k="place" v="isolated_dwelling" />
		<tag k="ssr:stedsnr" v="669837" />
	</node>
	<node id="-256998" lat="59.1765138877" lon="8.50738888112">
		<tag k="alt_name" v="Skeidmo" />
		<tag k="name" v="Skeimo" />
		<tag k="place" v="farm" />
		<tag k="ssr:stedsnr" v="669808" />
	</node>
	<node id="-256996" lat="59.0349361123" lon="8.39254167484">
		<tag k="name" v="Grunntjørn" />
		<tag k="place" v="locality" />
		<tag k="ssr:stedsnr" v="669195" />
	</node>
	<node id="-254937" lat="59.1648083334" lon="8.39623054841">
		<tag k="name" v="Vårfjoset" />
		<tag k="place" v="locality" />
		<tag k="ssr:stedsnr" v="47902" />
	</node>
	<node id="-255971" lat="58.9995500015" lon="8.5746500065">
		<tag k="name" v="Nordbø" />
		<tag k="place" v="farm" />
		<tag k="ssr:stedsnr" v="458787" />
	</node>
	<node id="-256978" lat="58.9051805568" lon="8.74053055082">
		<tag k="alt_name" v="Bakken, vestre" />
		<tag k="fixme" v="multiple name tags, choose one and add the other to alt_name" />
		<tag k="name" v="Vestigard;Vestre Bakken" />
		<tag k="place" v="farm" />
		<tag k="ssr:stedsnr" v="668498" />
	</node>
	<node id="-256976" lat="58.9033416689" lon="8.6929638908">
		<tag k="alt_name" v="Øygardsli" />
		<tag k="name" v="Øygardslia" />
		<tag k="place" v="farm" />
		<tag k="ssr:stedsnr" v="668494" />
	</node>
	<node id="-256973" lat="58.9344632255" lon="8.51396660734">
		<tag k="name" v="Åbø" />
		<tag k="place" v="farm" />
		<tag k="ssr:stedsnr" v="668452" />
	</node>
	<node id="-254921" lat="59.1670999991" lon="8.46530833391">
		<tag k="name" v="Vallgardsneset" />
		<tag k="place" v="isolated_dwelling" />
		<tag k="ssr:stedsnr" v="47615" />
	</node>
	<node id="-254918" lat="59.164552779" lon="8.46259166844">
		<tag k="name" v="Fjellheim" />
		<tag k="place" v="isolated_dwelling" />
		<tag k="ssr:stedsnr" v="47602" />
	</node>
	<node id="-254916" lat="59.1736194432" lon="8.46299722921">
		<tag k="name" v="Nordskog" />
		<tag k="place" v="locality" />
		<tag k="ssr:stedsnr" v="47558" />
	</node>
	<node id="-256955" lat="59.1934527771" lon="8.40146665861">
		<tag k="alt_name" v="Reinstøyl" />
		<tag k="historic" v="shieling" />
		<tag k="name" v="Reinstøl" />
		<tag k="place" v="locality" />
		<tag k="ssr:stedsnr" v="668080" />
	</node>
	<node id="-256953" lat="59.0512222203" lon="8.46629166693">
		<tag k="name" v="Naurak" />
		<tag k="place" v="farm" />
		<tag k="ssr:stedsnr" v="659344" />
	</node>
	<node id="-254904" lat="59.2040916688" lon="8.43117500409">
		<tag k="name" v="Skuggebuholtet" />
		<tag k="place" v="locality" />
		<tag k="ssr:stedsnr" v="47270" />
	</node>
	<node id="-254901" lat="59.025766667" lon="8.66824167143">
		<tag k="name" v="Mjåvasstøylen" />
		<tag k="place" v="locality" />
		<tag k="ssr:stedsnr" v="47243" />
	</node>
	<node id="-256948" lat="58.9158111095" lon="8.37426944701">
		<tag k="name" v="Sæteren ved Uvdalsvatn" />
		<tag k="place" v="locality" />
		<tag k="ssr:stedsnr" v="654976" />
	</node>
	<node id="-254895" lat="59.1637999981" lon="8.46245277065">
		<tag k="name" v="Lauvland" />
		<tag k="place" v="isolated_dwelling" />
		<tag k="ssr:stedsnr" v="47109" />
	</node>
	<node id="-256940" lat="59.0478083367" lon="8.63035277144">
		<tag k="name" v="Skogbu" />
		<tag k="place" v="locality" />
		<tag k="ssr:stedsnr" v="654583" />
	</node>
	<node id="-256938" lat="59.1909194427" lon="8.67155000208">
		<tag k="name" v="Steinbu" />
		<tag k="place" v="isolated_dwelling" />
		<tag k="ssr:stedsnr" v="654501" />
	</node>
	<node id="-254888" lat="59.0246027803" lon="8.60986943878">
		<tag k="name" v="Nordgard Støyl" />
		<tag k="place" v="farm" />
		<tag k="ssr:stedsnr" v="47036" />
	</node>
	<node id="-256935" lat="59.1167833316" lon="8.65590832702">
		<tag k="name" v="Raunhommen" />
		<tag k="place" v="locality" />
		<tag k="ssr:stedsnr" v="654392" />
	</node>
	<node id="-256929" lat="59.2482305549" lon="8.45278611906">
		<tag k="name" v="Horgevikbukta" />
		<tag k="place" v="locality" />
		<tag k="ssr:stedsnr" v="654227" />
	</node>
	<node id="-254878" lat="59.0622277774" lon="8.4020111145">
		<tag k="name" v="Ånondsbu" />
		<tag k="place" v="locality" />
		<tag k="ssr:stedsnr" v="46451" />
	</node>
	<node id="-254877" lat="58.9309500044" lon="8.46670833592">
		<tag k="name" v="Øvre Setane" />
		<tag k="place" v="farm" />
		<tag k="ssr:stedsnr" v="46437" />
	</node>
	<node id="-254874" lat="59.0922250003" lon="8.48003889565">
		<tag k="name" v="Fjelli" />
		<tag k="place" v="farm" />
		<tag k="ssr:stedsnr" v="46301" />
	</node>
	<node id="-256921" lat="59.1620888879" lon="8.39168333682">
		<tag k="name" v="Storuppigard" />
		<tag k="place" v="farm" />
		<tag k="ssr:stedsnr" v="653994" />
	</node>
	<node id="-254870" lat="58.9601305577" lon="8.47113888419">
		<tag k="name" v="Nistog" />
		<tag k="place" v="farm" />
		<tag k="ssr:stedsnr" v="46024" />
	</node>
	<node id="-256909" lat="59.1537055597" lon="8.43055277514">
		<tag k="name" v="Vadtveit" />
		<tag k="place" v="locality" />
		<tag k="ssr:stedsnr" v="653786" />
	</node>
	<node id="-256905" lat="59.1287055588" lon="8.44870000227">
		<tag k="name" v="Dukane" />
		<tag k="place" v="locality" />
		<tag k="ssr:stedsnr" v="653608" />
	</node>
	<node id="-254848" lat="58.9791499973" lon="8.64471943854">
		<tag k="name" v="Grotåbua" />
		<tag k="place" v="isolated_dwelling" />
		<tag k="ssr:stedsnr" v="35905" />
	</node>
	<node id="-254101" lat="58.9011111155" lon="8.71941943663">
		<tag k="name" v="Honne" />
		<tag k="place" v="locality" />
		<tag k="ssr:stedsnr" v="339447" />
	</node>
	<node id="-254844" lat="58.8762416677" lon="8.74758055987">
		<tag k="name" v="Bånmonbua" />
		<tag k="place" v="locality" />
		<tag k="ssr:stedsnr" v="35425" />
	</node>
	<node id="-256890" lat="59.0738527768" lon="8.39465832479">
		<tag k="name" v="Støylskrona" />
		<tag k="place" v="locality" />
		<tag k="ssr:stedsnr" v="653421" />
	</node>
	<node id="-256885" lat="59.0935888914" lon="8.49225555553">
		<tag k="name" v="Holmane" />
		<tag k="place" v="isolated_dwelling" />
		<tag k="ssr:stedsnr" v="653323" />
	</node>
	<node id="-256878" lat="59.0349194448" lon="8.40006666315">
		<tag k="name" v="Nordgardstøylen" />
		<tag k="place" v="locality" />
		<tag k="ssr:stedsnr" v="653120" />
	</node>
	<node id="-254827" lat="59.0123416652" lon="8.50642222778">
		<tag k="landuse" v="winter_sports" />
		<tag k="name" v="Skibakken" />
		<tag k="piste:type" v="downhill" />
		<tag k="ssr:stedsnr" v="34939" />
	</node>
	<node id="-256874" lat="58.9612277778" lon="8.47044444369">
		<tag k="name" v="Haugen" />
		<tag k="place" v="farm" />
		<tag k="ssr:stedsnr" v="653022" />
	</node>
	<node id="-256869" lat="58.9308250011" lon="8.35229722504">
		<tag k="name" v="Nordre Espestøyl" />
		<tag k="place" v="farm" />
		<tag k="ssr:stedsnr" v="652765" />
	</node>
	<node id="-256865" lat="58.9235194486" lon="8.46186666865">
		<tag k="name" v="Torsbu" />
		<tag k="place" v="locality" />
		<tag k="ssr:stedsnr" v="652620" />
	</node>
	<node id="-256861" lat="59.1483250033" lon="8.3725666751">
		<tag k="name" v="Vestre Dale" />
		<tag k="place" v="farm" />
		<tag k="ssr:stedsnr" v="651605" />
	</node>
	<node id="-256860" lat="59.1323083375" lon="8.36694999719">
		<tag k="name" v="Nipa" />
		<tag k="place" v="locality" />
		<tag k="ssr:stedsnr" v="651587" />
	</node>
	<node id="-254809" lat="59.0074750045" lon="8.58743054957">
		<tag k="fixme" v="consider natural=beach + surface=sand" />
		<tag k="leisure" v="swimming_area" />
		<tag k="name" v="Lillesand" />
		<tag k="place" v="locality" />
		<tag k="ssr:stedsnr" v="33878" />
	</node>
	<node id="-254801" lat="59.0020111147" lon="8.58033611953">
		<tag k="building" v="industrial" />
		<tag k="name" v="Laudal sagbruk" />
		<tag k="ssr:stedsnr" v="33765" />
	</node>
	<node id="-254800" lat="59.0773277797" lon="8.55512221947">
		<tag k="name" v="Klyvstøyl" />
		<tag k="place" v="locality" />
		<tag k="ssr:stedsnr" v="33617" />
	</node>
	<node id="-254794" lat="58.96479167" lon="8.5156111102">
		<tag k="name" v="Holmen" />
		<tag k="place" v="square" />
		<tag k="ssr:stedsnr" v="33544" />
	</node>
	<node id="-256837" lat="58.8668472233" lon="8.72552222938">
		<tag k="name" v="Eikelihytta" />
		<tag k="place" v="isolated_dwelling" />
		<tag k="ssr:stedsnr" v="642249" />
	</node>
	<node id="-254788" lat="59.1651861129" lon="8.51548055284">
		<tag k="name" v="Bråten" />
		<tag k="place" v="locality" />
		<tag k="ssr:stedsnr" v="32980" />
	</node>
	<node id="-254783" lat="59.2130694489" lon="8.58698332674">
		<tag k="name" v="Jåmtveit" />
		<tag k="place" v="locality" />
		<tag k="ssr:stedsnr" v="32933" />
	</node>
	<node id="-254775" lat="59.1987916709" lon="8.51812499602">
		<tag k="alt_name" v="Voldene" />
		<tag k="name" v="Vollin" />
		<tag k="place" v="farm" />
		<tag k="ssr:stedsnr" v="32463" />
	</node>
	<node id="-254773" lat="59.1121305534" lon="8.56267499306">
		<tag k="name" v="Rapstøyl" />
		<tag k="place" v="locality" />
		<tag k="ssr:stedsnr" v="32441" />
	</node>
	<node id="-254772" lat="59.1943777799" lon="8.5324555603">
		<tag k="name" v="Bergbu" />
		<tag k="place" v="locality" />
		<tag k="ssr:stedsnr" v="32439" />
	</node>
	<node id="-254397" lat="59.024494448" lon="8.47470554762">
		<tag k="name" v="Kyrkjeskogen" />
		<tag k="place" v="locality" />
		<tag k="ssr:stedsnr" v="410218" />
	</node>
	<node id="-254763" lat="59.2095972231" lon="8.51684999594">
		<tag k="alt_name" v="Nedre Rønningen" />
		<tag k="name" v="Rønningen" />
		<tag k="place" v="farm" />
		<tag k="ssr:stedsnr" v="2867" />
	</node>
	<node id="-256810" lat="59.0710361111" lon="8.60781388946">
		<tag k="alt_name" v="Fiskebu" />
		<tag k="name" v="Fiskarbu" />
		<tag k="place" v="locality" />
		<tag k="ssr:stedsnr" v="640548" />
	</node>
	<node id="-254751" lat="59.0202250042" lon="8.53912778127">
		<tag k="name" v="Flangjel" />
		<tag k="place" v="locality" />
		<tag k="ssr:stedsnr" v="2488" />
	</node>
	<node id="-254748" lat="59.1580861134" lon="8.45907499663">
		<tag k="name" v="Haugen" />
		<tag k="place" v="farm" />
		<tag k="ssr:stedsnr" v="2097" />
	</node>
	<node id="-254746" lat="58.9293138925" lon="8.35121111082">
		<tag k="alt_name" v="Espestøl" />
		<tag k="fixme" v="consider place=hamlet" />
		<tag k="name" v="Espestøyl" />
		<tag k="place" v="farm" />
		<tag k="ssr:stedsnr" v="1988" />
	</node>
	<node id="-254743" lat="59.2183923387" lon="8.49894156621">
		<tag k="name" v="Flom" />
		<tag k="place" v="locality" />
		<tag k="ssr:stedsnr" v="1912" />
	</node>
	<node id="-256790" lat="59.2096972191" lon="8.55788611022">
		<tag k="name" v="Paradis" />
		<tag k="place" v="locality" />
		<tag k="ssr:stedsnr" v="639947" />
	</node>
	<node id="-255449" lat="59.1610999956" lon="8.39526666979">
		<tag k="name" v="Smituft" />
		<tag k="place" v="isolated_dwelling" />
		<tag k="ssr:stedsnr" v="168974" />
	</node>
	<node id="-254740" lat="58.9981250038" lon="8.44219166307">
		<tag k="historic" v="shieling" />
		<tag k="name" v="Gloppeøygarden" />
		<tag k="place" v="locality" />
		<tag k="ssr:stedsnr" v="1864" />
	</node>
	<node id="-254736" lat="59.1664722258" lon="8.63195556008">
		<tag k="historic" v="shieling" />
		<tag k="name" v="Homme" />
		<tag k="place" v="locality" />
		<tag k="ssr:stedsnr" v="1768" />
	</node>
	<node id="-254733" lat="59.1276305581" lon="8.47463611741">
		<tag k="name" v="Furulund" />
		<tag k="place" v="isolated_dwelling" />
		<tag k="ssr:stedsnr" v="1710" />
	</node>
	<node id="-254731" lat="58.8409166626" lon="8.73234999946">
		<tag k="name" v="Spjotvasslia" />
		<tag k="place" v="neighbourhood" />
		<tag k="ssr:stedsnr" v="1661" />
	</node>
	<node id="-254729" lat="59.0691250025" lon="8.4774638814">
		<tag k="name" v="Flostad" />
		<tag k="place" v="locality" />
		<tag k="ssr:stedsnr" v="1631" />
	</node>
	<node id="-256770" lat="59.0874388863" lon="8.53839166151">
		<tag k="name" v="Sørstrånd" />
		<tag k="place" v="locality" />
		<tag k="ssr:stedsnr" v="638573" />
	</node>
	<node id="-254719" lat="58.9148805556" lon="8.71845833172">
		<tag k="name" v="Link" />
		<tag k="place" v="isolated_dwelling" />
		<tag k="ssr:stedsnr" v="1504" />
	</node>
	<node id="-254762" lat="59.1745194463" lon="8.47045556252">
		<tag k="name" v="Sundsåsen" />
		<tag k="place" v="farm" />
		<tag k="ssr:stedsnr" v="2788" />
	</node>
	<node id="-256758" lat="59.1797694432" lon="8.5087999953">
		<tag k="name" v="Nesland" />
		<tag k="place" v="farm" />
		<tag k="ssr:stedsnr" v="608840" />
	</node>
	<node id="-254708" lat="59.1621750033" lon="8.40267499465">
		<tag k="alt_name" v="Nærbø" />
		<tag k="name" v="Nedrebø" />
		<tag k="place" v="farm" />
		<tag k="ssr:stedsnr" v="1123" />
	</node>
	<node id="-256753" lat="59.1467055596" lon="8.516352777">
		<tag k="name" v="Berli" />
		<tag k="place" v="farm" />
		<tag k="ssr:stedsnr" v="608771" />
	</node>
	<node id="-256751" lat="59.1303777782" lon="8.54324444836">
		<tag k="name" v="Vehusstøylen" />
		<tag k="place" v="isolated_dwelling" />
		<tag k="ssr:stedsnr" v="608736" />
	</node>
	<node id="-255101" lat="59.0160500034" lon="8.50666110508">
		<tag k="name" v="Klyvstomyra" />
		<tag k="place" v="isolated_dwelling" />
		<tag k="ssr:stedsnr" v="95949" />
	</node>
	<node id="-256744" lat="59.0917249998" lon="8.48125277959">
		<tag k="fixme" v="consider place=hamlet" />
		<tag k="name" v="Trontveit" />
		<tag k="place" v="farm" />
		<tag k="ssr:stedsnr" v="608690" />
	</node>
	<node id="-256742" lat="59.0928361097" lon="8.48506388408">
		<tag k="alt_name" v="Jori" />
		<tag k="name" v="Jordet" />
		<tag k="place" v="farm" />
		<tag k="ssr:stedsnr" v="608687" />
	</node>
	<node id="-254693" lat="58.9344166672" lon="8.53708333375">
		<tag k="name" v="Espebu" />
		<tag k="place" v="isolated_dwelling" />
		<tag k="ssr:stedsnr" v="441" />
	</node>
	<node id="-256731" lat="59.0282027761" lon="8.52787222949">
		<tag k="name" v="Ekrene" />
		<tag k="place" v="farm" />
		<tag k="ssr:stedsnr" v="608568" />
	</node>
	<node id="-254682" lat="58.9605190113" lon="8.4766932646">
		<tag k="fixme" v="consider place=hamlet" />
		<tag k="name" v="Haugsjå" />
		<tag k="place" v="farm" />
		<tag k="ssr:stedsnr" v="984021" />
	</node>
	<node id="-254681" lat="58.9058583107" lon="8.74450363136">
		<tag k="fixme" v="consider place=hamlet" />
		<tag k="name" v="Felle" />
		<tag k="place" v="farm" />
		<tag k="ssr:stedsnr" v="984020" />
	</node>
	<node id="-254680" lat="58.9732145196" lon="8.78765811579">
		<tag k="name" v="Opdalen" />
		<tag k="place" v="locality" />
		<tag k="ssr:stedsnr" v="984019" />
	</node>
	<node id="-255780" lat="58.9237694414" lon="8.51021666553">
		<tag k="name" v="Ugledalen" />
		<tag k="place" v="isolated_dwelling" />
		<tag k="ssr:stedsnr" v="243405" />
	</node>
	<node id="-254678" lat="59.0000074265" lon="8.58748013101">
		<tag k="fixme" v="consider place=hamlet" />
		<tag k="name" v="Nordre Heimdal" />
		<tag k="place" v="farm" />
		<tag k="ssr:stedsnr" v="984015" />
	</node>
	<node id="-254677" lat="59.001118939" lon="8.58196656649">
		<tag k="fixme" v="consider place=hamlet" />
		<tag k="name" v="Søndre Heimdal" />
		<tag k="place" v="farm" />
		<tag k="ssr:stedsnr" v="984014" />
	</node>
	<node id="-254676" lat="59.0393462413" lon="8.51343683999">
		<tag k="name" v="Årak" />
		<tag k="place" v="hamlet" />
		<tag k="ssr:stedsnr" v="984012" />
	</node>
	<node id="-254675" lat="59.040621832" lon="8.50892129598">
		<tag k="fixme" v="consider place=hamlet" />
		<tag k="name" v="Nordre Årak" />
		<tag k="place" v="farm" />
		<tag k="ssr:stedsnr" v="984011" />
	</node>
	<node id="-254674" lat="59.1579703533" lon="8.45985644903">
		<tag k="name" v="Fjone" />
		<tag k="place" v="hamlet" />
		<tag k="ssr:stedsnr" v="984005" />
	</node>
	<node id="-254673" lat="59.1637852662" lon="8.39115297202">
		<tag k="name" v="Fjalestad" />
		<tag k="place" v="hamlet" />
		<tag k="ssr:stedsnr" v="984004" />
	</node>
	<node id="-254672" lat="59.1598775432" lon="8.41704982881">
		<tag k="name" v="Nissedal hovedkirke skogstykke" />
		<tag k="place" v="locality" />
		<tag k="ssr:stedsnr" v="984003" />
	</node>
	<node id="-254671" lat="59.1622373041" lon="8.46311391741">
		<tag k="fixme" v="consider place=hamlet" />
		<tag k="name" v="Mellom Fjone" />
		<tag k="place" v="farm" />
		<tag k="ssr:stedsnr" v="984002" />
	</node>
	<node id="-254670" lat="59.1601947527" lon="8.46080145244">
		<tag k="fixme" v="consider place=hamlet" />
		<tag k="name" v="Nordre Fjone" />
		<tag k="place" v="farm" />
		<tag k="ssr:stedsnr" v="984001" />
	</node>
	<node id="-254669" lat="59.1653220985" lon="8.39268247477">
		<tag k="fixme" v="consider place=hamlet" />
		<tag k="name" v="Øvre Fjalestad" />
		<tag k="place" v="farm" />
		<tag k="ssr:stedsnr" v="984000" />
	</node>
	<node id="-256716" lat="59.1620361154" lon="8.39158889171">
		<tag k="name" v="Fjalestad" />
		<tag k="place" v="farm" />
		<tag k="ssr:stedsnr" v="608106" />
	</node>
	<node id="-254667" lat="59.1489099158" lon="8.37391619244">
		<tag k="fixme" v="consider place=hamlet" />
		<tag k="name" v="Dale" />
		<tag k="place" v="farm" />
		<tag k="ssr:stedsnr" v="983998" />
	</node>
	<node id="-256714" lat="59.1838250004" lon="8.32880000026">
		<tag k="name" v="Myrbu" />
		<tag k="place" v="isolated_dwelling" />
		<tag k="ssr:stedsnr" v="608055" />
	</node>
	<node id="-254665" lat="59.1594939102" lon="8.54476206511">
		<tag k="name" v="Tveitane" />
		<tag k="place" v="hamlet" />
		<tag k="ssr:stedsnr" v="983995" />
	</node>
	<node id="-254664" lat="59.158916867" lon="8.54334495342">
		<tag k="fixme" v="consider place=hamlet" />
		<tag k="name" v="Søndre Tveitane" />
		<tag k="place" v="farm" />
		<tag k="ssr:stedsnr" v="983994" />
	</node>
	<node id="-254663" lat="59.1591816031" lon="8.54676091309">
		<tag k="fixme" v="consider place=hamlet" />
		<tag k="name" v="Øvre Tveitane" />
		<tag k="place" v="farm" />
		<tag k="ssr:stedsnr" v="983993" />
	</node>
	<node id="-255505" lat="59.0285527808" lon="8.53473888986">
		<tag k="alt_name" v="Nordgard Tveit" />
		<tag k="fixme" v="consider place=hamlet" />
		<tag k="name" v="Tveit" />
		<tag k="place" v="farm" />
		<tag k="ssr:stedsnr" v="183491" />
	</node>
	<node id="-254661" lat="59.1625311703" lon="8.541159396">
		<tag k="fixme" v="consider place=hamlet" />
		<tag k="name" v="Søndre Grimstveit" />
		<tag k="place" v="farm" />
		<tag k="ssr:stedsnr" v="983991" />
	</node>
	<node id="-254660" lat="59.1945181876" lon="8.52479540936">
		<tag k="fixme" v="consider place=hamlet" />
		<tag k="name" v="Nedre Tveitene" />
		<tag k="place" v="farm" />
		<tag k="ssr:stedsnr" v="983990" />
	</node>
	<node id="-254659" lat="59.198187082" lon="8.52036147066">
		<tag k="name" v="Grovum" />
		<tag k="place" v="hamlet" />
		<tag k="ssr:stedsnr" v="983989" />
	</node>
	<node id="-254658" lat="59.1966411372" lon="8.51963106671">
		<tag k="fixme" v="consider place=hamlet" />
		<tag k="name" v="Søndre Grovum" />
		<tag k="place" v="farm" />
		<tag k="ssr:stedsnr" v="983988" />
	</node>
	<node id="-254656" lat="59.1196416668" lon="8.41390555515">
		<tag k="name" v="Breivikbuine" />
		<tag k="place" v="locality" />
		<tag k="ssr:stedsnr" v="898000" />
	</node>
	<node id="-256701" lat="58.9037250001" lon="8.73617222147">
		<tag k="name" v="Åsen" />
		<tag k="place" v="isolated_dwelling" />
		<tag k="ssr:stedsnr" v="607490" />
	</node>
	<node id="-256700" lat="58.997463886" lon="8.5765000051">
		<tag k="alt_name" v="Sønderland, øvre" />
		<tag k="name" v="Øvre Sønderland" />
		<tag k="place" v="farm" />
		<tag k="ssr:stedsnr" v="607468" />
	</node>
	<node id="-256698" lat="58.9342916667" lon="8.47713334087">
		<tag k="name" v="Hagane" />
		<tag k="place" v="farm" />
		<tag k="ssr:stedsnr" v="607444" />
	</node>
	<node id="-256696" lat="58.9428249988" lon="8.49515000815">
		<tag k="name" v="Sundsli" />
		<tag k="place" v="farm" />
		<tag k="ssr:stedsnr" v="607433" />
	</node>
	<node id="-254643" lat="59.1010777746" lon="8.41869166785">
		<tag k="name" v="Hågstøyl" />
		<tag k="place" v="locality" />
		<tag k="ssr:stedsnr" v="897771" />
	</node>
	<node id="-254642" lat="59.1758388907" lon="8.33766388574">
		<tag k="name" v="Myrbua" />
		<tag k="place" v="isolated_dwelling" />
		<tag k="ssr:stedsnr" v="897760" />
	</node>
	<node id="-254641" lat="59.1489972187" lon="8.644400003">
		<tag k="name" v="Espelistøylen" />
		<tag k="place" v="locality" />
		<tag k="ssr:stedsnr" v="897698" />
	</node>
	<node id="-256681" lat="58.9461000021" lon="8.56739444176">
		<tag k="fixme" v="consider place=hamlet" />
		<tag k="name" v="Helleslia" />
		<tag k="place" v="farm" />
		<tag k="ssr:stedsnr" v="607327" />
	</node>
	<node id="-254619" lat="59.1540777803" lon="8.40718611336">
		<tag k="name" v="Åheim" />
		<tag k="place" v="farm" />
		<tag k="ssr:stedsnr" v="897174" />
	</node>
	<node id="-254618" lat="59.2571055581" lon="8.40944999786">
		<tag k="name" v="Bjønnstoga" />
		<tag k="place" v="locality" />
		<tag k="ssr:stedsnr" v="897164" />
	</node>
	<node id="-254614" lat="59.0461666661" lon="8.44242500179">
		<tag k="name" v="Allambergstøylen" />
		<tag k="place" v="locality" />
		<tag k="ssr:stedsnr" v="897090" />
	</node>
	<node id="-254611" lat="59.1584749965" lon="8.46450277829">
		<tag k="alt_name" v="Søndre Fjone" />
		<tag k="fixme" v="consider place=hamlet" />
		<tag k="name" v="Søgard Fjone søndre" />
		<tag k="place" v="farm" />
		<tag k="ssr:stedsnr" v="897029" />
	</node>
	<node id="-256658" lat="59.2003638868" lon="8.458086109">
		<tag k="name" v="Sandvikbua" />
		<tag k="place" v="locality" />
		<tag k="ssr:stedsnr" v="593648" />
	</node>
	<node id="-254609" lat="59.0509305548" lon="8.4663555626">
		<tag k="name" v="Naurak søndre" />
		<tag k="place" v="locality" />
		<tag k="ssr:stedsnr" v="896872" />
	</node>
	<node id="-254607" lat="59.0571777767" lon="8.44631111143">
		<tag k="name" v="Svivstøylen" />
		<tag k="place" v="locality" />
		<tag k="ssr:stedsnr" v="896600" />
	</node>
	<node id="-256647" lat="59.0775388877" lon="8.46226666545">
		<tag k="name" v="Øvre Svahommen" />
		<tag k="place" v="locality" />
		<tag k="ssr:stedsnr" v="593492" />
	</node>
	<node id="-256645" lat="59.2158361098" lon="8.62281944823">
		<tag k="name" v="Nystøyl" />
		<tag k="place" v="locality" />
		<tag k="ssr:stedsnr" v="593486" />
	</node>
	<node id="-254741" lat="59.2044250009" lon="8.51399722549">
		<tag k="name" v="Nordli" />
		<tag k="place" v="farm" />
		<tag k="ssr:stedsnr" v="1865" />
	</node>
	<node id="-256636" lat="59.1640222236" lon="8.46336110915">
		<tag k="name" v="Lindestad" />
		<tag k="place" v="isolated_dwelling" />
		<tag k="ssr:stedsnr" v="593121" />
	</node>
	<node id="-256635" lat="59.1567416687" lon="8.46540833882">
		<tag k="name" v="Haugen" />
		<tag k="place" v="farm" />
		<tag k="ssr:stedsnr" v="593116" />
	</node>
	<node id="-256630" lat="59.1317861076" lon="8.46402499733">
		<tag k="name" v="Breivik" />
		<tag k="place" v="farm" />
		<tag k="ssr:stedsnr" v="593333" />
	</node>
	<node id="-256629" lat="59.1335111137" lon="8.46226389464">
		<tag k="name" v="Heimtun" />
		<tag k="place" v="isolated_dwelling" />
		<tag k="ssr:stedsnr" v="593331" />
	</node>
	<node id="-256628" lat="59.1295999982" lon="8.47126666572">
		<tag k="name" v="Nygård" />
		<tag k="place" v="isolated_dwelling" />
		<tag k="ssr:stedsnr" v="593329" />
	</node>
	<node id="-256621" lat="58.9761111143" lon="8.38411944309">
		<tag k="name" v="Flathall" />
		<tag k="place" v="locality" />
		<tag k="ssr:stedsnr" v="592543" />
	</node>
	<node id="-254569" lat="58.9063083361" lon="8.74072500323">
		<tag k="name" v="Bakken" />
		<tag k="place" v="farm" />
		<tag k="ssr:stedsnr" v="886981" />
	</node>
	<node id="-256616" lat="58.9389055547" lon="8.47720000834">
		<tag k="name" v="Berlivollen" />
		<tag k="place" v="locality" />
		<tag k="ssr:stedsnr" v="592457" />
	</node>
	<node id="-256605" lat="59.026705553" lon="8.39572778117">
		<tag k="name" v="Ånund Sollis bu" />
		<tag k="place" v="locality" />
		<tag k="ssr:stedsnr" v="592124" />
	</node>
	<node id="-254550" lat="58.9033027755" lon="8.7467694477">
		<tag k="amenity" v="school" />
		<tag k="name" v="Felle skule" />
		<tag k="ssr:stedsnr" v="885415" />
	</node>
	<node id="-256586" lat="58.9010444418" lon="8.77590833905">
		<tag k="name" v="Nordigard" />
		<tag k="place" v="farm" />
		<tag k="ssr:stedsnr" v="582682" />
	</node>
	<node id="-256579" lat="58.9788388925" lon="8.64348333526">
		<tag k="name" v="Mjåvasshytta" />
		<tag k="place" v="isolated_dwelling" />
		<tag k="ssr:stedsnr" v="581912" />
	</node>
	<node id="-255754" lat="58.9158861122" lon="8.35205277084">
		<tag k="name" v="Stallane" />
		<tag k="place" v="locality" />
		<tag k="ssr:stedsnr" v="229965" />
	</node>
	<node id="-254521" lat="59.0116583358" lon="8.65378611838">
		<tag k="name" v="Byhytta" />
		<tag k="place" v="isolated_dwelling" />
		<tag k="ssr:stedsnr" v="884130" />
	</node>
	<node id="-254518" lat="59.0669805574" lon="8.52031110415">
		<tag k="name" v="Stråndrak" />
		<tag k="place" v="locality" />
		<tag k="ssr:stedsnr" v="883962" />
	</node>
	<node id="-256564" lat="58.8717277803" lon="8.71652221681">
		<tag k="historic" v="shieling" />
		<tag k="name" v="Ørnefjelløygard" />
		<tag k="place" v="locality" />
		<tag k="ssr:stedsnr" v="581151" />
	</node>
	<node id="-254515" lat="59.0015333346" lon="8.5985861129">
		<tag k="name" v="Myri" />
		<tag k="place" v="isolated_dwelling" />
		<tag k="ssr:stedsnr" v="883864" />
	</node>
	<node id="-256561" lat="58.8929944443" lon="8.69443332525">
		<tag k="name" v="Modalen" />
		<tag k="place" v="locality" />
		<tag k="ssr:stedsnr" v="581113" />
	</node>
	<node id="-254511" lat="58.9987777799" lon="8.58014444204">
		<tag k="name" v="Midtbø" />
		<tag k="place" v="isolated_dwelling" />
		<tag k="ssr:stedsnr" v="883815" />
	</node>
	<node id="-256552" lat="59.0284777741" lon="8.53738611322">
		<tag k="name" v="Uppistog" />
		<tag k="place" v="farm" />
		<tag k="ssr:stedsnr" v="580833" />
	</node>
	<node id="-256545" lat="59.0525333335" lon="8.51628333933">
		<tag k="name" v="Sandvik" />
		<tag k="place" v="locality" />
		<tag k="ssr:stedsnr" v="580452" />
	</node>
	<node id="-256541" lat="58.9754027744" lon="8.5154916746">
		<tag k="amenity" v="school" />
		<tag k="name" v="Tjønnefoss skole" />
		<tag k="ssr:stedsnr" v="580252" />
	</node>
	<node id="-254491" lat="59.1618361143" lon="8.53380554775">
		<tag k="name" v="Grimstveit vestre" />
		<tag k="place" v="farm" />
		<tag k="ssr:stedsnr" v="882509" />
	</node>
	<node id="-256538" lat="59.0286694455" lon="8.51737778187">
		<tag k="name" v="Stykket" />
		<tag k="place" v="farm" />
		<tag k="ssr:stedsnr" v="580199" />
	</node>
	<node id="-256535" lat="59.0130472229" lon="8.63573055259">
		<tag k="name" v="Hungersbu" />
		<tag k="place" v="locality" />
		<tag k="ssr:stedsnr" v="580126" />
	</node>
	<node id="-254485" lat="59.2456583317" lon="8.51986111092">
		<tag k="name" v="Urimleg" />
		<tag k="place" v="locality" />
		<tag k="ssr:stedsnr" v="882331" />
	</node>
	<node id="-254722" lat="59.0462111096" lon="8.61836944752">
		<tag k="name" v="Fjellbu" />
		<tag k="place" v="isolated_dwelling" />
		<tag k="ssr:stedsnr" v="1564" />
	</node>
	<node id="-256522" lat="58.9979527818" lon="8.58629722191">
		<tag k="name" v="Nistog" />
		<tag k="place" v="farm" />
		<tag k="ssr:stedsnr" v="579797" />
	</node>
	<node id="-254473" lat="59.0040194444" lon="8.77118334017">
		<tag k="name" v="Hellervassbua" />
		<tag k="place" v="locality" />
		<tag k="ssr:stedsnr" v="412396" />
	</node>
	<node id="-254468" lat="59.0581888932" lon="8.60966666093">
		<tag k="name" v="Godthol" />
		<tag k="place" v="isolated_dwelling" />
		<tag k="ssr:stedsnr" v="412135" />
	</node>
	<node id="-254457" lat="59.1855638926" lon="8.30789445278">
		<tag k="name" v="Fjellbu" />
		<tag k="place" v="isolated_dwelling" />
		<tag k="ssr:stedsnr" v="411836" />
	</node>
	<node id="-256504" lat="59.2145805522" lon="8.55090556407">
		<tag k="name" v="Bærstøyl" />
		<tag k="place" v="locality" />
		<tag k="ssr:stedsnr" v="578592" />
	</node>
	<node id="-254182" lat="59.1594416673" lon="8.42898611904">
		<tag k="name" v="Berge" />
		<tag k="place" v="locality" />
		<tag k="ssr:stedsnr" v="350752" />
	</node>
	<node id="-254446" lat="59.1790388933" lon="8.63361944083">
		<tag k="name" v="Drangstøyl" />
		<tag k="place" v="locality" />
		<tag k="ssr:stedsnr" v="411653" />
	</node>
	<node id="-255058" lat="59.1747083368" lon="8.5070499979">
		<tag k="name" v="Strånd" />
		<tag k="place" v="farm" />
		<tag k="ssr:stedsnr" v="93993" />
	</node>
	<node id="-254442" lat="59.1462305536" lon="8.3600555471">
		<tag k="name" v="Vadder" />
		<tag k="place" v="locality" />
		<tag k="ssr:stedsnr" v="411577" />
	</node>
	<node id="-254440" lat="59.1772805517" lon="8.66885000201">
		<tag k="name" v="Myrbua" />
		<tag k="place" v="locality" />
		<tag k="ssr:stedsnr" v="411573" />
	</node>
	<node id="-256486" lat="58.9440861118" lon="8.3406500017">
		<tag k="name" v="Hurv" />
		<tag k="place" v="isolated_dwelling" />
		<tag k="ssr:stedsnr" v="547971" />
	</node>
	<node id="-256483" lat="59.2219277762" lon="8.54223888742">
		<tag k="name" v="Fjellstøyl" />
		<tag k="place" v="locality" />
		<tag k="ssr:stedsnr" v="547945" />
	</node>
	<node id="-256482" lat="58.9576666636" lon="8.42135277991">
		<tag k="alt_name" v="Korstuv" />
		<tag k="name" v="Kosstuv" />
		<tag k="place" v="isolated_dwelling" />
		<tag k="ssr:stedsnr" v="547933" />
	</node>
	<node id="-254715" lat="58.9607638933" lon="8.51060833274">
		<tag k="name" v="Espeland" />
		<tag k="place" v="farm" />
		<tag k="ssr:stedsnr" v="1348" />
	</node>
	<node id="-256478" lat="59.190402782" lon="8.59742499734">
		<tag k="name" v="Kjerri" />
		<tag k="place" v="locality" />
		<tag k="ssr:stedsnr" v="547849" />
	</node>
	<node id="-256475" lat="59.1488722253" lon="8.51692221421">
		<tag k="name" v="Århus" />
		<tag k="place" v="farm" />
		<tag k="ssr:stedsnr" v="547776" />
	</node>
	<node id="-256472" lat="59.1279305596" lon="8.60477778342">
		<tag k="alt_name" v="Tvogedokk" />
		<tag k="name" v="Tvågedokk" />
		<tag k="place" v="locality" />
		<tag k="ssr:stedsnr" v="547750" />
	</node>
	<node id="-256471" lat="59.1389361139" lon="8.50905000083">
		<tag k="name" v="Bergli" />
		<tag k="place" v="isolated_dwelling" />
		<tag k="ssr:stedsnr" v="547727" />
	</node>
	<node id="-254422" lat="59.023833334" lon="8.6893805623">
		<tag k="name" v="Kråkhomkrona" />
		<tag k="place" v="isolated_dwelling" />
		<tag k="ssr:stedsnr" v="411232" />
	</node>
	<node id="-254416" lat="59.2172472214" lon="8.35357221469">
		<tag k="historic" v="shieling" />
		<tag k="name" v="Kil" />
		<tag k="place" v="locality" />
		<tag k="ssr:stedsnr" v="411126" />
	</node>
	<node id="-254415" lat="59.0383638897" lon="8.41895000093">
		<tag k="name" v="Rustedalsbua" />
		<tag k="place" v="locality" />
		<tag k="ssr:stedsnr" v="411118" />
	</node>
	<node id="-254410" lat="59.157422226" lon="8.45189722715">
		<tag k="name" v="Krokane" />
		<tag k="place" v="farm" />
		<tag k="ssr:stedsnr" v="411067" />
	</node>
	<node id="-254408" lat="59.0244027762" lon="8.61268889718">
		<tag k="name" v="Negård Støyl" />
		<tag k="place" v="locality" />
		<tag k="ssr:stedsnr" v="411036" />
	</node>
	<node id="-256452" lat="58.9223194437" lon="8.647483334">
		<tag k="fixme" v="consider place=hamlet" />
		<tag k="name" v="Onstad" />
		<tag k="place" v="farm" />
		<tag k="ssr:stedsnr" v="547407" />
	</node>
	<node id="-256445" lat="59.0550388857" lon="8.37620000198">
		<tag k="alt_name" v="Nuvassbu" />
		<tag k="name" v="Nuvvassbui" />
		<tag k="place" v="locality" />
		<tag k="ssr:stedsnr" v="547265" />
	</node>
	<node id="-254998" lat="59.0256972239" lon="8.51903888136">
		<tag k="alt_name" v="Tveit, nedre;Tveit nedre" />
		<tag k="name" v="Nedre Tveit" />
		<tag k="place" v="farm" />
		<tag k="ssr:stedsnr" v="62525" />
	</node>
	<node id="-256428" lat="58.9740333335" lon="8.56421944341">
		<tag k="name" v="Eldhuset" />
		<tag k="place" v="isolated_dwelling" />
		<tag k="ssr:stedsnr" v="546335" />
	</node>
	<node id="-254023" lat="59.1652638901" lon="8.50131666917">
		<tag k="name" v="Framnes" />
		<tag k="place" v="quarter" />
		<tag k="ssr:stedsnr" v="335987" />
	</node>
	<node id="-256417" lat="59.1767027765" lon="8.63974444261">
		<tag k="name" v="Rjupehommen" />
		<tag k="place" v="locality" />
		<tag k="ssr:stedsnr" v="533707" />
	</node>
	<node id="-256411" lat="59.2148611071" lon="8.61586389561">
		<tag k="name" v="Åsbog" />
		<tag k="place" v="locality" />
		<tag k="ssr:stedsnr" v="533529" />
	</node>
	<node id="-254703" lat="58.9753805596" lon="8.37965833929">
		<tag k="alt_name" v="Store Dale" />
		<tag k="fixme" v="consider place=hamlet" />
		<tag k="name" v="Stordale" />
		<tag k="place" v="farm" />
		<tag k="ssr:stedsnr" v="887" />
	</node>
	<node id="-256407" lat="59.0911555534" lon="8.6365527721">
		<tag k="name" v="Krossvassbu" />
		<tag k="place" v="locality" />
		<tag k="ssr:stedsnr" v="533465" />
	</node>
	<node id="-254358" lat="58.9235722253" lon="8.64543611275">
		<tag k="name" v="Onstad nordre" />
		<tag k="place" v="farm" />
		<tag k="ssr:stedsnr" v="399398" />
	</node>
	<node id="-256403" lat="59.0109305577" lon="8.76215832595">
		<tag k="name" v="Hellervasshytta" />
		<tag k="place" v="isolated_dwelling" />
		<tag k="ssr:stedsnr" v="533339" />
	</node>
	<node id="-253974" lat="59.149044443" lon="8.52508332753">
		<tag k="name" v="Nordbø" />
		<tag k="place" v="farm" />
		<tag k="ssr:stedsnr" v="304757" />
	</node>
	<node id="-256396" lat="59.1597888915" lon="8.39231388915">
		<tag k="name" v="Søgard" />
		<tag k="place" v="farm" />
		<tag k="ssr:stedsnr" v="532995" />
	</node>
	<node id="-254345" lat="59.0125861083" lon="8.53176389695">
		<tag k="leisure" v="pitch" />
		<tag k="name" v="Fotballbane" />
		<tag k="ssr:stedsnr" v="398986" />
	</node>
	<node id="-256388" lat="59.1082972221" lon="8.39215000764">
		<tag k="name" v="Ørnekro" />
		<tag k="place" v="locality" />
		<tag k="ssr:stedsnr" v="532891" />
	</node>
	<node id="-255883" lat="58.9036166632" lon="8.74396388963">
		<tag k="fixme" v="consider place=hamlet" />
		<tag k="name" v="Felle" />
		<tag k="place" v="village" />
		<tag k="ssr:stedsnr" v="426441" />
	</node>
	<node id="-256383" lat="58.8997305524" lon="8.47302222028">
		<tag k="name" v="Sultenborg" />
		<tag k="place" v="locality" />
		<tag k="ssr:stedsnr" v="532836" />
	</node>
	<node id="-256382" lat="59.0448694448" lon="8.46468611125">
		<tag k="name" v="Dalen" />
		<tag k="place" v="locality" />
		<tag k="ssr:stedsnr" v="532825" />
	</node>
	<node id="-254331" lat="59.0136166688" lon="8.56262777681">
		<tag k="name" v="Grensen" />
		<tag k="place" v="locality" />
		<tag k="ssr:stedsnr" v="398166" />
	</node>
	<node id="-254327" lat="58.9972833351" lon="8.58363333461">
		<tag k="name" v="Haugen" />
		<tag k="place" v="farm" />
		<tag k="ssr:stedsnr" v="397782" />
	</node>
	<node id="-254326" lat="59.0009972195" lon="8.58636667155">
		<tag k="name" v="Bakkane" />
		<tag k="place" v="farm" />
		<tag k="ssr:stedsnr" v="397773" />
	</node>
	<node id="-254312" lat="59.1802777767" lon="8.50781666978">
		<tag k="name" v="Krita" />
		<tag k="place" v="quarter" />
		<tag k="ssr:stedsnr" v="396997" />
	</node>
	<node id="-256359" lat="59.1551527801" lon="8.44817221369">
		<tag k="name" v="Hesmyr" />
		<tag k="place" v="isolated_dwelling" />
		<tag k="ssr:stedsnr" v="532384" />
	</node>
	<node id="-254309" lat="59.1763944435" lon="8.50997778027">
		<tag k="name" v="Nordal" />
		<tag k="place" v="locality" />
		<tag k="ssr:stedsnr" v="396983" />
	</node>
	<node id="-254306" lat="59.2415333289" lon="8.51632499324">
		<tag k="name" v="Fonni" />
		<tag k="place" v="locality" />
		<tag k="ssr:stedsnr" v="396688" />
	</node>
	<node id="-254304" lat="59.1668472202" lon="8.56826944822">
		<tag k="historic" v="shieling" />
		<tag k="name" v="Lidvarshaug" />
		<tag k="place" v="locality" />
		<tag k="ssr:stedsnr" v="396668" />
	</node>
	<node id="-254299" lat="59.203844444" lon="8.60675833201">
		<tag k="historic" v="shieling" />
		<tag k="name" v="Honglia" />
		<tag k="place" v="locality" />
		<tag k="ssr:stedsnr" v="396581" />
	</node>
	<node id="-256343" lat="59.1203722223" lon="8.47082500301">
		<tag k="name" v="Nordvik" />
		<tag k="place" v="isolated_dwelling" />
		<tag k="ssr:stedsnr" v="532037" />
	</node>
	<node id="-256341" lat="59.1007861107" lon="8.45104167483">
		<tag k="historic" v="shieling" />
		<tag k="name" v="Vatneli" />
		<tag k="place" v="locality" />
		<tag k="ssr:stedsnr" v="532019" />
	</node>
	<node id="-256339" lat="58.9296138909" lon="8.35922777772">
		<tag k="name" v="Steinheimoen Espestøyl" />
		<tag k="place" v="farm" />
		<tag k="ssr:stedsnr" v="531793" />
	</node>
	<node id="-254289" lat="59.0999055545" lon="8.56735833316">
		<tag k="historic" v="shieling" />
		<tag k="name" v="Tjovhommen" />
		<tag k="place" v="locality" />
		<tag k="ssr:stedsnr" v="396217" />
	</node>
	<node id="-254284" lat="59.1696222212" lon="8.55902777723">
		<tag k="alt_name" v="Lyslia" />
		<tag k="name" v="Lyslii" />
		<tag k="place" v="locality" />
		<tag k="ssr:stedsnr" v="366786" />
	</node>
	<node id="-254283" lat="59.1529443978" lon="8.53897899926">
		<tag k="name" v="Litveit" />
		<tag k="place" v="farm" />
		<tag k="ssr:stedsnr" v="366740" />
	</node>
	<node id="-254279" lat="59.0953276979" lon="8.48799777617">
		<tag k="name" v="Evja" />
		<tag k="place" v="farm" />
		<tag k="ssr:stedsnr" v="366633" />
	</node>
	<node id="-254006" lat="59.1815527822" lon="8.6595805623">
		<tag k="historic" v="shieling" />
		<tag k="name" v="Lereftshommen" />
		<tag k="place" v="locality" />
		<tag k="ssr:stedsnr" v="305828" />
	</node>
	<node id="-254274" lat="59.1269805586" lon="8.4491499962">
		<tag k="fixme" v="consider place=hamlet" />
		<tag k="name" v="Håtveit" />
		<tag k="place" v="farm" />
		<tag k="ssr:stedsnr" v="366124" />
	</node>
	<node id="-254273" lat="59.2151027755" lon="8.43980000672">
		<tag k="alt_name" v="Lindefjellstøylen" />
		<tag k="historic" v="shieling" />
		<tag k="name" v="Lindefjellstøl" />
		<tag k="place" v="locality" />
		<tag k="ssr:stedsnr" v="366042" />
	</node>
	<node id="-254267" lat="59.1917638875" lon="8.60507222281">
		<tag k="alt_name" v="Gudbjørglia" />
		<tag k="name" v="Gudbjørlii" />
		<tag k="place" v="locality" />
		<tag k="ssr:stedsnr" v="365855" />
	</node>
	<node id="-254247" lat="58.9186416678" lon="8.68077500194">
		<tag k="name" v="Godli" />
		<tag k="place" v="isolated_dwelling" />
		<tag k="ssr:stedsnr" v="365393" />
	</node>
	<node id="-256293" lat="58.8842083374" lon="8.72947222029">
		<tag k="name" v="Goli" />
		<tag k="place" v="locality" />
		<tag k="ssr:stedsnr" v="521384" />
	</node>
	<node id="-256289" lat="59.2017777759" lon="8.61329166858">
		<tag k="name" v="Tarjeisbu" />
		<tag k="place" v="locality" />
		<tag k="ssr:stedsnr" v="521120" />
	</node>
	<node id="-254000" lat="59.1296555568" lon="8.47133611615">
		<tag k="name" v="Nygard" />
		<tag k="place" v="isolated_dwelling" />
		<tag k="ssr:stedsnr" v="305722" />
	</node>
	<node id="-254237" lat="58.9983388915" lon="8.57446944831">
		<tag k="alt_name" v="Sønderland nedre" />
		<tag k="fixme" v="consider place=hamlet" />
		<tag k="name" v="Sønderland" />
		<tag k="place" v="farm" />
		<tag k="ssr:stedsnr" v="365294" />
	</node>
	<node id="-256276" lat="58.9760888859" lon="8.61672222911">
		<tag k="name" v="Lauvåshytta" />
		<tag k="place" v="locality" />
		<tag k="ssr:stedsnr" v="520273" />
	</node>
	<node id="-256273" lat="59.0030027791" lon="8.64524444915">
		<tag k="name" v="Sanden" />
		<tag k="place" v="locality" />
		<tag k="ssr:stedsnr" v="520173" />
	</node>
	<node id="-257752" lat="58.966413892" lon="8.71240277931">
		<tag k="name" v="Ormvasslia" />
		<tag k="place" v="isolated_dwelling" />
		<tag k="ssr:stedsnr" v="850357" />
	</node>
	<node id="-256270" lat="58.9517833363" lon="8.68121110595">
		<tag k="historic" v="shieling" />
		<tag k="name" v="Milskiftebua" />
		<tag k="place" v="locality" />
		<tag k="ssr:stedsnr" v="520053" />
	</node>
	<node id="-254221" lat="58.94209444" lon="8.52530555314">
		<tag k="name" v="Nes" />
		<tag k="place" v="farm" />
		<tag k="ssr:stedsnr" v="364437" />
	</node>
	<node id="-254219" lat="58.9256138861" lon="8.78260833163">
		<tag k="alt_name" v="Vehus" />
		<tag k="name" v="Vehus øvre" />
		<tag k="place" v="isolated_dwelling" />
		<tag k="ssr:stedsnr" v="364402" />
	</node>
	<node id="-254679" lat="59.0018458471" lon="8.58624862225">
		<tag k="name" v="Heimdal" />
		<tag k="place" v="hamlet" />
		<tag k="ssr:stedsnr" v="984016" />
	</node>
	<node id="-254214" lat="58.9141944477" lon="8.38192221834">
		<tag k="name" v="Kvalfangerhytta" />
		<tag k="place" v="isolated_dwelling" />
		<tag k="ssr:stedsnr" v="351975" />
	</node>
	<node id="-254212" lat="59.1534083291" lon="8.69382222037">
		<tag k="name" v="Fjelli" />
		<tag k="place" v="locality" />
		<tag k="ssr:stedsnr" v="351741" />
	</node>
	<node id="-256256" lat="59.0457999985" lon="8.58162499194">
		<tag k="name" v="Skrepptihytta" />
		<tag k="place" v="isolated_dwelling" />
		<tag k="ssr:stedsnr" v="519583" />
	</node>
	<node id="-254206" lat="59.0123027741" lon="8.72405555743">
		<tag k="name" v="Grautedalsbua" />
		<tag k="place" v="locality" />
		<tag k="ssr:stedsnr" v="351273" />
	</node>
	<node id="-256253" lat="59.0396277778" lon="8.51111388821">
		<tag k="name" v="Nordgard" />
		<tag k="place" v="farm" />
		<tag k="ssr:stedsnr" v="519513" />
	</node>
	<node id="-253994" lat="59.0319708981" lon="8.52227564202">
		<tag k="name" v="Solli" />
		<tag k="place" v="farm" />
		<tag k="ssr:stedsnr" v="305582" />
	</node>
	<node id="-256245" lat="59.0279777823" lon="8.51906388389">
		<tag k="name" v="Kåsa" />
		<tag k="place" v="farm" />
		<tag k="ssr:stedsnr" v="519255" />
	</node>
	<node id="-256240" lat="58.9927638891" lon="8.68928333944">
		<tag k="name" v="Teilagsvasshytta" />
		<tag k="place" v="isolated_dwelling" />
		<tag k="ssr:stedsnr" v="519035" />
	</node>
	<node id="-254187" lat="59.1539083325" lon="8.40007222635">
		<tag k="name" v="Øvre Frostli" />
		<tag k="place" v="farm" />
		<tag k="ssr:stedsnr" v="350850" />
	</node>
	<node id="-256230" lat="59.1578000026" lon="8.51328611336">
		<tag k="name" v="Braskerud" />
		<tag k="place" v="locality" />
		<tag k="ssr:stedsnr" v="517562" />
	</node>
	<node id="-256229" lat="59.1579222212" lon="8.50692222389">
		<tag k="name" v="Tingstø" />
		<tag k="place" v="locality" />
		<tag k="ssr:stedsnr" v="517556" />
	</node>
	<node id="-256224" lat="59.0169111112" lon="8.52502221503">
		<tag k="fixme" v="consider place=suburb, village or hamlet" />
		<tag k="name" v="Tveitsund" />
		<tag k="place" v="quarter" />
		<tag k="ssr:stedsnr" v="510401" />
	</node>
	<node id="-256222" lat="59.2159111097" lon="8.4982111178">
		<tag k="name" v="Kilen" />
		<tag k="place" v="farm" />
		<tag k="ssr:stedsnr" v="487925" />
	</node>
	<node id="-254172" lat="59.1522472212" lon="8.36733888456">
		<tag k="name" v="Øvre Dalen" />
		<tag k="place" v="locality" />
		<tag k="ssr:stedsnr" v="350552" />
	</node>
	<node id="-256205" lat="59.1040611147" lon="8.62060834184">
		<tag k="name" v="Sandvasstøylen" />
		<tag k="place" v="locality" />
		<tag k="ssr:stedsnr" v="487681" />
	</node>
	<node id="-254155" lat="59.0521111138" lon="8.45813333774">
		<tag k="name" v="Svivet" />
		<tag k="place" v="locality" />
		<tag k="ssr:stedsnr" v="350094" />
	</node>
	<node id="-256200" lat="59.0247305572" lon="8.60979166441">
		<tag k="name" v="Støyl" />
		<tag k="place" v="farm" />
		<tag k="ssr:stedsnr" v="487559" />
	</node>
	<node id="-254668" lat="59.1591968993" lon="8.39129214692">
		<tag k="fixme" v="consider place=hamlet" />
		<tag k="name" v="Nedre Fjalestad" />
		<tag k="place" v="farm" />
		<tag k="ssr:stedsnr" v="983999" />
	</node>
	<node id="-256194" lat="59.1603694405" lon="8.53531110758">
		<tag k="alt_name" v="Kyrkjebygdi" />
		<tag k="fixme" v="consider place=hamlet" />
		<tag k="name" v="Kyrkjebygda" />
		<tag k="place" v="village" />
		<tag k="ssr:stedsnr" v="487272" />
	</node>
	<node id="-258051" lat="59.1020555571" lon="8.48763889051">
		<tag k="name" v="Ulvestuppa" />
		<tag k="place" v="locality" />
		<tag k="ssr:stedsnr" v="957076" />
	</node>
	<node id="-256190" lat="59.1361999995" lon="8.45964999161">
		<tag k="name" v="Moen" />
		<tag k="place" v="farm" />
		<tag k="ssr:stedsnr" v="487155" />
	</node>
	<node id="-254666" lat="59.1248011815" lon="8.50959030014">
		<tag k="fixme" v="consider place=hamlet" />
		<tag k="name" v="Nes" />
		<tag k="place" v="farm" />
		<tag k="ssr:stedsnr" v="983997" />
	</node>
	<node id="-254135" lat="59.046194449" lon="8.39975555983">
		<tag k="name" v="Finnholbua" />
		<tag k="place" v="locality" />
		<tag k="ssr:stedsnr" v="349126" />
	</node>
	<node id="-256181" lat="59.2449416675" lon="8.5197888969">
		<tag k="name" v="Fonnemark" />
		<tag k="place" v="locality" />
		<tag k="ssr:stedsnr" v="486938" />
	</node>
	<node id="-254131" lat="58.961072225" lon="8.47334722143">
		<tag k="name" v="Austigard" />
		<tag k="place" v="farm" />
		<tag k="ssr:stedsnr" v="349021" />
	</node>
	<node id="-256173" lat="59.1965138884" lon="8.6594694481">
		<tag k="alt_name" v="Fiskevasstøyl" />
		<tag k="name" v="Fiskvatn" />
		<tag k="place" v="isolated_dwelling" />
		<tag k="ssr:stedsnr" v="486849" />
	</node>
	<node id="-256169" lat="59.0898050525" lon="8.53831227067">
		<tag k="name" v="Midstrond" />
		<tag k="place" v="farm" />
		<tag k="ssr:stedsnr" v="486672" />
	</node>
	<node id="-254120" lat="58.9901722243" lon="8.47997778518">
		<tag k="name" v="Larsesbu" />
		<tag k="place" v="locality" />
		<tag k="ssr:stedsnr" v="348059" />
	</node>
	<node id="-254662" lat="59.1634949276" lon="8.53906085864">
		<tag k="name" v="Grimstveit" />
		<tag k="place" v="hamlet" />
		<tag k="ssr:stedsnr" v="983992" />
	</node>
	<node id="-256160" lat="59.0025944481" lon="8.598366667">
		<tag k="name" v="Solberg" />
		<tag k="place" v="isolated_dwelling" />
		<tag k="ssr:stedsnr" v="486484" />
	</node>
	<node id="-256159" lat="58.9011888884" lon="8.77856667138">
		<tag k="fixme" v="consider place=hamlet" />
		<tag k="name" v="Skåli" />
		<tag k="place" v="farm" />
		<tag k="ssr:stedsnr" v="486469" />
	</node>
	<node id="-254102" lat="58.9004083374" lon="8.77836667496">
		<tag k="name" v="Skåli nordre" />
		<tag k="place" v="farm" />
		<tag k="ssr:stedsnr" v="339633" />
	</node>
	<node id="-256149" lat="58.9680333369" lon="8.51334444151">
		<tag k="name" v="Dal" />
		<tag k="place" v="farm" />
		<tag k="ssr:stedsnr" v="486371" />
	</node>
	<node id="-254092" lat="58.9753499968" lon="8.79108611902">
		<tag k="name" v="Uvdalsstoga" />
		<tag k="place" v="isolated_dwelling" />
		<tag k="ssr:stedsnr" v="339201" />
	</node>
	<node id="-256136" lat="59.11045" lon="8.38900833021">
		<tag k="alt_name" v="Støyldalen" />
		<tag k="historic" v="shieling" />
		<tag k="name" v="Støldalen" />
		<tag k="place" v="locality" />
		<tag k="ssr:stedsnr" v="486172" />
	</node>
	<node id="-256131" lat="58.9984027753" lon="8.58965000792">
		<tag k="name" v="Heimdal" />
		<tag k="place" v="farm" />
		<tag k="ssr:stedsnr" v="486305" />
	</node>
	<node id="-256128" lat="58.9426916663" lon="8.51175833573">
		<tag k="alt_name" v="Strand" />
		<tag k="name" v="Strond" />
		<tag k="place" v="farm" />
		<tag k="ssr:stedsnr" v="485369" />
	</node>
	<node id="-256124" lat="59.1640083361" lon="8.39239999343">
		<tag k="name" v="Sessjordet" />
		<tag k="place" v="farm" />
		<tag k="ssr:stedsnr" v="472981" />
	</node>
	<node id="-254074" lat="59.0156222204" lon="8.52070554998">
		<tag k="building" v="industrial" />
		<tag k="name" v="Treungen bruk" />
		<tag k="ssr:stedsnr" v="337940" />
	</node>
	<node id="-256121" lat="59.1554361091" lon="8.40318333655">
		<tag k="name" v="Nedre Frostli" />
		<tag k="place" v="farm" />
		<tag k="ssr:stedsnr" v="472856" />
	</node>
	<node id="-255465" lat="58.9315333375" lon="8.75033888703">
		<tag k="fixme" v="consider tourism=alpine_hut or tourism=chalet" />
		<tag k="name" v="Sandtjennhytta" />
		<tag k="ssr:stedsnr" v="177869" />
		<tag k="tourism" v="wilderness_hut" />
	</node>
	<node id="-256119" lat="59.1559805558" lon="8.65456945154">
		<tag k="name" v="Steinbruhommen" />
		<tag k="place" v="locality" />
		<tag k="ssr:stedsnr" v="472705" />
	</node>
	<node id="-254070" lat="59.0233861097" lon="8.52049167171">
		<tag k="name" v="Solås" />
		<tag k="place" v="quarter" />
		<tag k="ssr:stedsnr" v="337929" />
	</node>
	<node id="-255337" lat="59.0006055511" lon="8.58363332961">
		<tag k="name" v="Jordet" />
		<tag k="place" v="farm" />
		<tag k="ssr:stedsnr" v="155749" />
	</node>
	<node id="-256116" lat="59.1743083354" lon="8.48176388159">
		<tag k="name" v="Sondet" />
		<tag k="place" v="locality" />
		<tag k="ssr:stedsnr" v="472635" />
	</node>
	<node id="-256115" lat="59.1676055575" lon="8.46233610802">
		<tag k="name" v="Nordheim" />
		<tag k="place" v="isolated_dwelling" />
		<tag k="ssr:stedsnr" v="472599" />
	</node>
	<node id="-254066" lat="59.0268583303" lon="8.53185833044">
		<tag k="name" v="Ækrune" />
		<tag k="place" v="farm" />
		<tag k="ssr:stedsnr" v="337840" />
	</node>
	<node id="-254995" lat="58.8995277768" lon="8.47340277231">
		<tag k="name" v="Sultenborg" />
		<tag k="place" v="locality" />
		<tag k="ssr:stedsnr" v="62497" />
	</node>
	<node id="-254062" lat="58.9986638888" lon="8.58524166019">
		<tag k="name" v="Nordgard" />
		<tag k="place" v="farm" />
		<tag k="ssr:stedsnr" v="337762" />
	</node>
	<node id="-254061" lat="59.0026444443" lon="8.57668610937">
		<tag k="name" v="Bru øvre" />
		<tag k="place" v="isolated_dwelling" />
		<tag k="ssr:stedsnr" v="337748" />
	</node>
	<node id="-254311" lat="59.1671611069" lon="8.51358055413">
		<tag k="name" v="Lauvdal" />
		<tag k="place" v="locality" />
		<tag k="ssr:stedsnr" v="396996" />
	</node>
	<node id="-256104" lat="59.2281916692" lon="8.41353056301">
		<tag k="historic" v="shieling" />
		<tag k="name" v="Tjønnstøyl" />
		<tag k="place" v="locality" />
		<tag k="ssr:stedsnr" v="472189" />
	</node>
	<node id="-256100" lat="59.2356222247" lon="8.42052778236">
		<tag k="name" v="Maurstad" />
		<tag k="place" v="locality" />
		<tag k="ssr:stedsnr" v="472130" />
	</node>
	<node id="-256099" lat="59.1597277752" lon="8.4565861038">
		<tag k="name" v="Rui" />
		<tag k="place" v="isolated_dwelling" />
		<tag k="ssr:stedsnr" v="472109" />
	</node>
	<node id="-254050" lat="59.026869444" lon="8.51413333832">
		<tag k="name" v="Landvik" />
		<tag k="place" v="farm" />
		<tag k="ssr:stedsnr" v="337240" />
	</node>
	<node id="-254041" lat="58.9944361132" lon="8.68844445139">
		<tag k="name" v="Teilagsvassbua" />
		<tag k="place" v="locality" />
		<tag k="ssr:stedsnr" v="337060" />
	</node>
	<node id="-254038" lat="59.0188027796" lon="8.56491943974">
		<tag k="name" v="Øvrebø" />
		<tag k="place" v="locality" />
		<tag k="ssr:stedsnr" v="337033" />
	</node>
	<node id="-256081" lat="59.1304944455" lon="8.44727221728">
		<tag k="name" v="Dalen" />
		<tag k="place" v="locality" />
		<tag k="ssr:stedsnr" v="471617" />
	</node>
	<node id="-256078" lat="59.0760638922" lon="8.46876666457">
		<tag k="name" v="Nedre Svahommen" />
		<tag k="place" v="locality" />
		<tag k="ssr:stedsnr" v="471549" />
	</node>
	<node id="-253965" lat="58.9173694413" lon="8.49034167138">
		<tag k="name" v="Dalane" />
		<tag k="place" v="farm" />
		<tag k="ssr:stedsnr" v="304401" />
	</node>
	<node id="-254027" lat="59.1918611115" lon="8.54283889129">
		<tag k="name" v="Listøyl" />
		<tag k="place" v="locality" />
		<tag k="ssr:stedsnr" v="336458" />
	</node>
	<node id="-254024" lat="59.1657777737" lon="8.53315833362">
		<tag k="name" v="Tempelen" />
		<tag k="place" v="locality" />
		<tag k="ssr:stedsnr" v="335988" />
	</node>
	<node id="-256071" lat="59.1295999982" lon="8.47126666572">
		<tag k="name" v="Furulund" />
		<tag k="place" v="isolated_dwelling" />
		<tag k="ssr:stedsnr" v="471363" />
	</node>
	<node id="-254019" lat="59.1569388902" lon="8.54458610515">
		<tag k="name" v="Kåsa" />
		<tag k="place" v="farm" />
		<tag k="ssr:stedsnr" v="335579" />
	</node>
	<node id="-256065" lat="59.0906277739" lon="8.46367222429">
		<tag k="name" v="Fjellåker" />
		<tag k="place" v="locality" />
		<tag k="ssr:stedsnr" v="471244" />
	</node>
	<node id="-254016" lat="59.1602527737" lon="8.5192555627">
		<tag k="name" v="Ulvsbrekk" />
		<tag k="place" v="locality" />
		<tag k="ssr:stedsnr" v="335555" />
	</node>
	<node id="-254012" lat="59.2285166694" lon="8.61555277282">
		<tag k="alt_name" v="Spilldalen" />
		<tag k="name" v="Speldalen" />
		<tag k="place" v="locality" />
		<tag k="ssr:stedsnr" v="305936" />
	</node>
	<node id="-254011" lat="59.212313887" lon="8.51495555423">
		<tag k="name" v="Noraberg" />
		<tag k="place" v="farm" />
		<tag k="ssr:stedsnr" v="305916" />
	</node>
	<node id="-256058" lat="59.0350722184" lon="8.39222776922">
		<tag k="name" v="Grunntjønnbua" />
		<tag k="place" v="locality" />
		<tag k="ssr:stedsnr" v="471113" />
	</node>
	<node id="-256054" lat="58.9609250026" lon="8.47798610266">
		<tag k="name" v="Jore" />
		<tag k="place" v="farm" />
		<tag k="ssr:stedsnr" v="471011" />
	</node>
	<node id="-254002" lat="59.1654666648" lon="8.5211277854">
		<tag k="name" v="Dalane" />
		<tag k="place" v="locality" />
		<tag k="ssr:stedsnr" v="305782" />
	</node>
	<node id="-258096" lat="59.1960138855" lon="8.31031944898">
		<tag k="name" v="Dyrvassbu" />
		<tag k="place" v="isolated_dwelling" />
		<tag k="ssr:stedsnr" v="957867" />
	</node>
	<node id="-256045" lat="59.1230972205" lon="8.35363055795">
		<tag k="name" v="Årtunhytta" />
		<tag k="place" v="isolated_dwelling" />
		<tag k="ssr:stedsnr" v="469562" />
	</node>
	<node id="-258092" lat="58.9131527739" lon="8.40158610638">
		<tag k="historic" v="shieling" />
		<tag k="name" v="Ugledalsseteren" />
		<tag k="place" v="locality" />
		<tag k="ssr:stedsnr" v="957746" />
	</node>
	<node id="-258091" lat="59.1407777812" lon="8.45543055938">
		<tag k="name" v="Modøl" />
		<tag k="place" v="isolated_dwelling" />
		<tag k="ssr:stedsnr" v="957587" />
	</node>
	<node id="-256042" lat="58.9766472197" lon="8.45902500283">
		<tag k="name" v="Nygård" />
		<tag k="place" v="isolated_dwelling" />
		<tag k="ssr:stedsnr" v="463051" />
	</node>
	<node id="-258087" lat="59.1687722224" lon="8.46095833621">
		<tag k="name" v="Solheim" />
		<tag k="place" v="isolated_dwelling" />
		<tag k="ssr:stedsnr" v="957549" />
	</node>
	<node id="-256689" lat="58.9776861154" lon="8.60609167241">
		<tag k="historic" v="shieling" />
		<tag k="name" v="Lauvåsøygarden" />
		<tag k="place" v="locality" />
		<tag k="ssr:stedsnr" v="607391" />
	</node>
	<node id="-258084" lat="59.0788916699" lon="8.4292055506">
		<tag k="name" v="Slettåsstøylen" />
		<tag k="place" v="locality" />
		<tag k="ssr:stedsnr" v="957470" />
	</node>
	<node id="-253983" lat="59.2170500017" lon="8.35356389198">
		<tag k="name" v="Kilskilen" />
		<tag k="place" v="isolated_dwelling" />
		<tag k="ssr:stedsnr" v="305042" />
	</node>
	<node id="-258075" lat="59.1558333343" lon="8.45254166429">
		<tag k="name" v="Solvang" />
		<tag k="place" v="isolated_dwelling" />
		<tag k="ssr:stedsnr" v="957404" />
	</node>
	<node id="-258070" lat="58.9987694438" lon="8.46983889085">
		<tag k="name" v="Hågstøylbua" />
		<tag k="place" v="locality" />
		<tag k="ssr:stedsnr" v="957259" />
	</node>
	<node id="-258069" lat="59.0931666654" lon="8.44654445151">
		<tag k="name" v="Rotstøylen" />
		<tag k="place" v="locality" />
		<tag k="ssr:stedsnr" v="957253" />
	</node>
	<node id="-258065" lat="59.1466611098" lon="8.42082777222">
		<tag k="name" v="Sigurdstøyl" />
		<tag k="place" v="locality" />
		<tag k="ssr:stedsnr" v="957201" />
	</node>
	<node id="-258064" lat="59.2082555591" lon="8.30581110872">
		<tag k="name" v="Dyrvasshytta" />
		<tag k="place" v="isolated_dwelling" />
		<tag k="ssr:stedsnr" v="957173" />
	</node>
	<node id="-256013" lat="58.8791722238" lon="8.69403611088">
		<tag k="historic" v="shieling" />
		<tag k="name" v="Kvåve" />
		<tag k="place" v="locality" />
		<tag k="ssr:stedsnr" v="460195" />
	</node>
	<node id="-258057" lat="59.2293527808" lon="8.42927777155">
		<tag k="name" v="Kvislebuine" />
		<tag k="place" v="locality" />
		<tag k="ssr:stedsnr" v="957116" />
	</node>
	<node id="-256003" lat="59.012713889" lon="8.51905555469">
		<tag k="name" v="Sundsmoen" />
		<tag k="place" v="quarter" />
		<tag k="ssr:stedsnr" v="459995" />
	</node>
	<node id="-256002" lat="59.0125666662" lon="8.5352166657">
		<tag k="fixme" v="consider place=hamlet" />
		<tag k="name" v="Lauvdalen" />
		<tag k="place" v="village" />
		<tag k="ssr:stedsnr" v="459991" />
	</node>
</osm>
