<?xml version="1.0" encoding="UTF-8"?>
<osm generator="osmapis" version="0.6">
	<node id="-750703" lat="69.0656750017" lon="17.0174694451">
		<tag k="name" v="Dragøyskjær" />
		<tag k="old_name" v="Dragøyskjeret" />
		<tag k="ssr:date" v="2016-05-10" />
		<tag k="ssr:gruppe" v="navigasjon" />
		<tag k="ssr:hovedgruppe" v="infrastruktur" />
		<tag k="ssr:stedsnr" v="443002" />
		<tag k="ssr:type" v="fyrlykt" />
	</node>
	<node id="-749904" lat="69.1581166703" lon="16.8429444532">
		<tag k="name" v="Hjelmen" />
		<tag k="ssr:date" v="2016-05-10" />
		<tag k="ssr:gruppe" v="navigasjon" />
		<tag k="ssr:hovedgruppe" v="infrastruktur" />
		<tag k="ssr:stedsnr" v="402898" />
		<tag k="ssr:type" v="fyrlykt" />
	</node>
	<node id="-750300" lat="69.048516665" lon="17.012883332">
		<tag k="name" v="Halsvær" />
		<tag k="ssr:date" v="2016-05-10" />
		<tag k="ssr:gruppe" v="navigasjon" />
		<tag k="ssr:hovedgruppe" v="infrastruktur" />
		<tag k="ssr:stedsnr" v="139115" />
		<tag k="ssr:type" v="fyrlykt" />
	</node>
	<node id="-749898" lat="69.0091555587" lon="17.2347944551">
		<tag k="name" v="Bispeflua" />
		<tag k="ssr:date" v="2016-05-10" />
		<tag k="ssr:gruppe" v="navigasjon" />
		<tag k="ssr:hovedgruppe" v="infrastruktur" />
		<tag k="ssr:stedsnr" v="393315" />
		<tag k="ssr:type" v="fyrlykt" />
	</node>
	<node id="-750037" lat="69.1825129575" lon="17.7421683199">
		<tag k="name" v="Vangsvikveien" />
		<tag k="ssr:date" v="2019-05-30" />
		<tag k="ssr:gruppe" v="veg" />
		<tag k="ssr:hovedgruppe" v="infrastruktur" />
		<tag k="ssr:stedsnr" v="1011463" />
		<tag k="ssr:type" v="adressenavn" />
	</node>
	<node id="-750036" lat="69.1697139691" lon="17.7436850935">
		<tag k="name" v="Rubbestadveien" />
		<tag k="ssr:date" v="2019-05-30" />
		<tag k="ssr:gruppe" v="veg" />
		<tag k="ssr:hovedgruppe" v="infrastruktur" />
		<tag k="ssr:stedsnr" v="1011462" />
		<tag k="ssr:type" v="adressenavn" />
	</node>
	<node id="-750035" lat="69.0832220938" lon="17.1741467603">
		<tag k="name" v="Valvågveien" />
		<tag k="ssr:date" v="2019-05-30" />
		<tag k="ssr:gruppe" v="veg" />
		<tag k="ssr:hovedgruppe" v="infrastruktur" />
		<tag k="ssr:stedsnr" v="1011461" />
		<tag k="ssr:type" v="adressenavn" />
	</node>
	<node id="-750034" lat="69.0805380127" lon="17.0048284681">
		<tag k="name" v="Rødsandveien" />
		<tag k="ssr:date" v="2019-05-30" />
		<tag k="ssr:gruppe" v="veg" />
		<tag k="ssr:hovedgruppe" v="infrastruktur" />
		<tag k="ssr:stedsnr" v="1011460" />
		<tag k="ssr:type" v="adressenavn" />
	</node>
	<node id="-750033" lat="69.1681122869" lon="17.5302818765">
		<tag k="name" v="Skatvikveien" />
		<tag k="ssr:date" v="2019-05-30" />
		<tag k="ssr:gruppe" v="veg" />
		<tag k="ssr:hovedgruppe" v="infrastruktur" />
		<tag k="ssr:stedsnr" v="1011459" />
		<tag k="ssr:type" v="adressenavn" />
	</node>
	<node id="-750032" lat="69.0802487909" lon="17.1756771233">
		<tag k="name" v="Hofsøyveien" />
		<tag k="ssr:date" v="2019-05-30" />
		<tag k="ssr:gruppe" v="veg" />
		<tag k="ssr:hovedgruppe" v="infrastruktur" />
		<tag k="ssr:stedsnr" v="1011458" />
		<tag k="ssr:type" v="adressenavn" />
	</node>
	<node id="-750031" lat="69.212108999" lon="17.6101354681">
		<tag k="name" v="Brygghaugveien" />
		<tag k="ssr:date" v="2019-05-30" />
		<tag k="ssr:gruppe" v="veg" />
		<tag k="ssr:hovedgruppe" v="infrastruktur" />
		<tag k="ssr:stedsnr" v="1011457" />
		<tag k="ssr:type" v="adressenavn" />
	</node>
	<node id="-750030" lat="69.2651907423" lon="17.6452946058">
		<tag k="name" v="Nordliveien" />
		<tag k="ssr:date" v="2019-05-30" />
		<tag k="ssr:gruppe" v="veg" />
		<tag k="ssr:hovedgruppe" v="infrastruktur" />
		<tag k="ssr:stedsnr" v="1011456" />
		<tag k="ssr:type" v="adressenavn" />
	</node>
	<node id="-750029" lat="69.1350275731" lon="17.0253576533">
		<tag k="name" v="Butikkveien" />
		<tag k="ssr:date" v="2019-05-30" />
		<tag k="ssr:gruppe" v="veg" />
		<tag k="ssr:hovedgruppe" v="infrastruktur" />
		<tag k="ssr:stedsnr" v="1011455" />
		<tag k="ssr:type" v="adressenavn" />
	</node>
	<node id="-750028" lat="69.0768174659" lon="17.0455820025">
		<tag k="name" v="Dragøyveien" />
		<tag k="ssr:date" v="2019-05-30" />
		<tag k="ssr:gruppe" v="veg" />
		<tag k="ssr:hovedgruppe" v="infrastruktur" />
		<tag k="ssr:stedsnr" v="1011454" />
		<tag k="ssr:type" v="adressenavn" />
	</node>
	<node id="-750027" lat="69.1339597007" lon="17.0268946043">
		<tag k="name" v="Elveveien" />
		<tag k="ssr:date" v="2019-05-30" />
		<tag k="ssr:gruppe" v="veg" />
		<tag k="ssr:hovedgruppe" v="infrastruktur" />
		<tag k="ssr:stedsnr" v="1011453" />
		<tag k="ssr:type" v="adressenavn" />
	</node>
	<node id="-750026" lat="69.1344224905" lon="17.0272144123">
		<tag k="name" v="Fagervikveien" />
		<tag k="ssr:date" v="2019-05-30" />
		<tag k="ssr:gruppe" v="veg" />
		<tag k="ssr:hovedgruppe" v="infrastruktur" />
		<tag k="ssr:stedsnr" v="1011452" />
		<tag k="ssr:type" v="adressenavn" />
	</node>
	<node id="-750025" lat="69.0674134671" lon="16.8187093984">
		<tag k="name" v="Sjursvikveien" />
		<tag k="ssr:date" v="2019-05-30" />
		<tag k="ssr:gruppe" v="veg" />
		<tag k="ssr:hovedgruppe" v="infrastruktur" />
		<tag k="ssr:stedsnr" v="1011451" />
		<tag k="ssr:type" v="adressenavn" />
	</node>
	<node id="-750024" lat="69.067261537" lon="16.8194996615">
		<tag k="name" v="Skoglundveien" />
		<tag k="ssr:date" v="2019-05-30" />
		<tag k="ssr:gruppe" v="veg" />
		<tag k="ssr:hovedgruppe" v="infrastruktur" />
		<tag k="ssr:stedsnr" v="1011450" />
		<tag k="ssr:type" v="adressenavn" />
	</node>
	<node id="-750023" lat="69.0567202324" lon="16.7965070875">
		<tag k="name" v="Senjehesten" />
		<tag k="ssr:date" v="2019-05-30" />
		<tag k="ssr:gruppe" v="veg" />
		<tag k="ssr:hovedgruppe" v="infrastruktur" />
		<tag k="ssr:stedsnr" v="1011449" />
		<tag k="ssr:type" v="adressenavn" />
	</node>
	<node id="-750022" lat="69.0556721538" lon="16.8031918515">
		<tag k="name" v="Dyrøyhamna" />
		<tag k="ssr:date" v="2019-05-30" />
		<tag k="ssr:gruppe" v="veg" />
		<tag k="ssr:hovedgruppe" v="infrastruktur" />
		<tag k="ssr:stedsnr" v="1011448" />
		<tag k="ssr:type" v="adressenavn" />
	</node>
	<node id="-750021" lat="69.2453407474" lon="17.5058914511">
		<tag k="name" v="Kaperdalsveien" />
		<tag k="ssr:date" v="2019-05-30" />
		<tag k="ssr:gruppe" v="veg" />
		<tag k="ssr:hovedgruppe" v="infrastruktur" />
		<tag k="ssr:stedsnr" v="1011439" />
		<tag k="ssr:type" v="adressenavn" />
	</node>
	<node id="-750020" lat="69.0838530274" lon="17.172152653">
		<tag k="name" v="Skrolsvikveien" />
		<tag k="ssr:date" v="2019-05-30" />
		<tag k="ssr:gruppe" v="veg" />
		<tag k="ssr:hovedgruppe" v="infrastruktur" />
		<tag k="ssr:stedsnr" v="1011438" />
		<tag k="ssr:type" v="adressenavn" />
	</node>
	<node id="-750019" lat="69.2594661268" lon="17.6522187857">
		<tag k="name" v="Svandalsveien" />
		<tag k="ssr:date" v="2019-05-30" />
		<tag k="ssr:gruppe" v="veg" />
		<tag k="ssr:hovedgruppe" v="infrastruktur" />
		<tag k="ssr:stedsnr" v="1011437" />
		<tag k="ssr:type" v="adressenavn" />
	</node>
	<node id="-750018" lat="69.2137502714" lon="17.8199004598">
		<tag k="name" v="Tranøyveien" />
		<tag k="ssr:date" v="2019-05-30" />
		<tag k="ssr:gruppe" v="veg" />
		<tag k="ssr:hovedgruppe" v="infrastruktur" />
		<tag k="ssr:stedsnr" v="1011435" />
		<tag k="ssr:type" v="adressenavn" />
	</node>
	<node id="-750017" lat="69.2333948179" lon="17.6049781966">
		<tag k="name" v="Myrvangveien" />
		<tag k="ssr:date" v="2019-05-30" />
		<tag k="ssr:gruppe" v="veg" />
		<tag k="ssr:hovedgruppe" v="infrastruktur" />
		<tag k="ssr:stedsnr" v="1011431" />
		<tag k="ssr:type" v="adressenavn" />
	</node>
	<node id="-750016" lat="69.1438761865" lon="17.4401886621">
		<tag k="name" v="Tranøya" />
		<tag k="ssr:date" v="2019-05-30" />
		<tag k="ssr:gruppe" v="veg" />
		<tag k="ssr:hovedgruppe" v="infrastruktur" />
		<tag k="ssr:stedsnr" v="1011430" />
		<tag k="ssr:type" v="adressenavn" />
	</node>
	<node id="-750015" lat="69.1711374351" lon="17.737862118">
		<tag k="name" v="Øvre Vangsvik" />
		<tag k="ssr:date" v="2019-05-30" />
		<tag k="ssr:gruppe" v="veg" />
		<tag k="ssr:hovedgruppe" v="infrastruktur" />
		<tag k="ssr:stedsnr" v="1011427" />
		<tag k="ssr:type" v="adressenavn" />
	</node>
	<node id="-750014" lat="69.1723276514" lon="17.7549612492">
		<tag k="name" v="Utsikten" />
		<tag k="ssr:date" v="2019-05-30" />
		<tag k="ssr:gruppe" v="veg" />
		<tag k="ssr:hovedgruppe" v="infrastruktur" />
		<tag k="ssr:stedsnr" v="1011426" />
		<tag k="ssr:type" v="adressenavn" />
	</node>
	<node id="-750013" lat="69.172228919" lon="17.7515941551">
		<tag k="name" v="Vikstrandveien" />
		<tag k="ssr:date" v="2019-05-30" />
		<tag k="ssr:gruppe" v="veg" />
		<tag k="ssr:hovedgruppe" v="infrastruktur" />
		<tag k="ssr:stedsnr" v="1011425" />
		<tag k="ssr:type" v="adressenavn" />
	</node>
	<node id="-750012" lat="69.171425323" lon="17.7462718451">
		<tag k="name" v="Ryet" />
		<tag k="ssr:date" v="2019-05-30" />
		<tag k="ssr:gruppe" v="veg" />
		<tag k="ssr:hovedgruppe" v="infrastruktur" />
		<tag k="ssr:stedsnr" v="1011424" />
		<tag k="ssr:type" v="adressenavn" />
	</node>
	<node id="-750011" lat="69.1659576567" lon="17.7670919905">
		<tag k="name" v="Brennlia Øst" />
		<tag k="ssr:date" v="2019-05-30" />
		<tag k="ssr:gruppe" v="veg" />
		<tag k="ssr:hovedgruppe" v="infrastruktur" />
		<tag k="ssr:stedsnr" v="1011422" />
		<tag k="ssr:type" v="adressenavn" />
	</node>
	<node id="-750010" lat="69.166595112" lon="17.7118239209">
		<tag k="name" v="Hamna" />
		<tag k="ssr:date" v="2019-05-30" />
		<tag k="ssr:gruppe" v="veg" />
		<tag k="ssr:hovedgruppe" v="infrastruktur" />
		<tag k="ssr:stedsnr" v="1011421" />
		<tag k="ssr:type" v="adressenavn" />
	</node>
	<node id="-750009" lat="69.1701899604" lon="17.7541537491">
		<tag k="name" v="Petterbakken" />
		<tag k="ssr:date" v="2019-05-30" />
		<tag k="ssr:gruppe" v="veg" />
		<tag k="ssr:hovedgruppe" v="infrastruktur" />
		<tag k="ssr:stedsnr" v="1011420" />
		<tag k="ssr:type" v="adressenavn" />
	</node>
	<node id="-750008" lat="69.167232636" lon="17.7614790846">
		<tag k="name" v="Brennlia" />
		<tag k="ssr:date" v="2019-05-30" />
		<tag k="ssr:gruppe" v="veg" />
		<tag k="ssr:hovedgruppe" v="infrastruktur" />
		<tag k="ssr:stedsnr" v="1011419" />
		<tag k="ssr:type" v="adressenavn" />
	</node>
	<node id="-750007" lat="69.2059350761" lon="17.5048238352">
		<tag k="name" v="Fosslundveien" />
		<tag k="ssr:date" v="2019-05-30" />
		<tag k="ssr:gruppe" v="veg" />
		<tag k="ssr:hovedgruppe" v="infrastruktur" />
		<tag k="ssr:stedsnr" v="1011418" />
		<tag k="ssr:type" v="adressenavn" />
	</node>
	<node id="-750006" lat="69.1620397519" lon="17.602277369">
		<tag k="name" v="Vassveien" />
		<tag k="ssr:date" v="2019-05-30" />
		<tag k="ssr:gruppe" v="veg" />
		<tag k="ssr:hovedgruppe" v="infrastruktur" />
		<tag k="ssr:stedsnr" v="1011417" />
		<tag k="ssr:type" v="adressenavn" />
	</node>
	<node id="-750005" lat="69.0827988779" lon="17.0001897122">
		<tag k="name" v="Raveien" />
		<tag k="ssr:date" v="2019-05-30" />
		<tag k="ssr:gruppe" v="veg" />
		<tag k="ssr:hovedgruppe" v="infrastruktur" />
		<tag k="ssr:stedsnr" v="1011416" />
		<tag k="ssr:type" v="adressenavn" />
	</node>
	<node id="-750004" lat="69.2370676452" lon="17.6149297703">
		<tag k="name" v="Torsmoveien" />
		<tag k="ssr:date" v="2019-05-30" />
		<tag k="ssr:gruppe" v="veg" />
		<tag k="ssr:hovedgruppe" v="infrastruktur" />
		<tag k="ssr:stedsnr" v="1011414" />
		<tag k="ssr:type" v="adressenavn" />
	</node>
	<node id="-750003" lat="69.0244101754" lon="17.2108029858">
		<tag k="name" v="Lekangsveien" />
		<tag k="ssr:date" v="2019-05-30" />
		<tag k="ssr:gruppe" v="veg" />
		<tag k="ssr:hovedgruppe" v="infrastruktur" />
		<tag k="ssr:stedsnr" v="1011413" />
		<tag k="ssr:type" v="adressenavn" />
	</node>
	<node id="-750002" lat="69.0274864614" lon="17.1948809996">
		<tag k="name" v="Stangnesveien" />
		<tag k="ssr:date" v="2019-05-30" />
		<tag k="ssr:gruppe" v="veg" />
		<tag k="ssr:hovedgruppe" v="infrastruktur" />
		<tag k="ssr:stedsnr" v="1011412" />
		<tag k="ssr:type" v="adressenavn" />
	</node>
	<node id="-750001" lat="69.1776546878" lon="17.5258400703">
		<tag k="name" v="Myklenesveien" />
		<tag k="ssr:date" v="2019-05-30" />
		<tag k="ssr:gruppe" v="veg" />
		<tag k="ssr:hovedgruppe" v="infrastruktur" />
		<tag k="ssr:stedsnr" v="1011410" />
		<tag k="ssr:type" v="adressenavn" />
	</node>
	<node id="-750000" lat="69.158587903" lon="17.5188185921">
		<tag k="name" v="Refsnesveien" />
		<tag k="ssr:date" v="2019-05-30" />
		<tag k="ssr:gruppe" v="veg" />
		<tag k="ssr:hovedgruppe" v="infrastruktur" />
		<tag k="ssr:stedsnr" v="1011409" />
		<tag k="ssr:type" v="adressenavn" />
	</node>
	<node id="-749999" lat="69.0635600692" lon="16.8115164664">
		<tag k="name" v="Mellavikveien" />
		<tag k="ssr:date" v="2019-05-30" />
		<tag k="ssr:gruppe" v="veg" />
		<tag k="ssr:hovedgruppe" v="infrastruktur" />
		<tag k="ssr:stedsnr" v="1011408" />
		<tag k="ssr:type" v="adressenavn" />
	</node>
	<node id="-749998" lat="69.1895880703" lon="17.7615367996">
		<tag k="name" v="Solliveien" />
		<tag k="ssr:date" v="2019-05-30" />
		<tag k="ssr:gruppe" v="veg" />
		<tag k="ssr:hovedgruppe" v="infrastruktur" />
		<tag k="ssr:stedsnr" v="1011407" />
		<tag k="ssr:type" v="adressenavn" />
	</node>
	<node id="-749997" lat="69.0627890029" lon="16.8148642609">
		<tag k="name" v="Vasskråa" />
		<tag k="ssr:date" v="2019-05-30" />
		<tag k="ssr:gruppe" v="veg" />
		<tag k="ssr:hovedgruppe" v="infrastruktur" />
		<tag k="ssr:stedsnr" v="1011405" />
		<tag k="ssr:type" v="adressenavn" />
	</node>
	<node id="-749996" lat="69.0647329918" lon="16.8117387809">
		<tag k="name" v="Bergnakken" />
		<tag k="ssr:date" v="2019-05-30" />
		<tag k="ssr:gruppe" v="veg" />
		<tag k="ssr:hovedgruppe" v="infrastruktur" />
		<tag k="ssr:stedsnr" v="1011404" />
		<tag k="ssr:type" v="adressenavn" />
	</node>
	<node id="-749995" lat="69.1993242345" lon="17.6797830369">
		<tag k="name" v="Torsli" />
		<tag k="ssr:date" v="2019-05-30" />
		<tag k="ssr:gruppe" v="veg" />
		<tag k="ssr:hovedgruppe" v="infrastruktur" />
		<tag k="ssr:stedsnr" v="1011403" />
		<tag k="ssr:type" v="adressenavn" />
	</node>
	<node id="-749994" lat="69.1991400305" lon="17.6716348326">
		<tag k="name" v="Ottemoen" />
		<tag k="ssr:date" v="2019-05-30" />
		<tag k="ssr:gruppe" v="veg" />
		<tag k="ssr:hovedgruppe" v="infrastruktur" />
		<tag k="ssr:stedsnr" v="1011402" />
		<tag k="ssr:type" v="adressenavn" />
	</node>
	<node id="-749993" lat="69.1950909682" lon="17.7778389372">
		<tag k="name" v="Øverslåttveien" />
		<tag k="ssr:date" v="2019-05-30" />
		<tag k="ssr:gruppe" v="veg" />
		<tag k="ssr:hovedgruppe" v="infrastruktur" />
		<tag k="ssr:stedsnr" v="1011401" />
		<tag k="ssr:type" v="adressenavn" />
	</node>
	<node id="-749992" lat="69.1971185259" lon="17.7917842188">
		<tag k="name" v="Holmenveien" />
		<tag k="ssr:date" v="2019-05-30" />
		<tag k="ssr:gruppe" v="veg" />
		<tag k="ssr:hovedgruppe" v="infrastruktur" />
		<tag k="ssr:stedsnr" v="1011400" />
		<tag k="ssr:type" v="adressenavn" />
	</node>
	<node id="-749991" lat="69.1147885898" lon="17.2733028773">
		<tag k="name" v="Vassåsen" />
		<tag k="ssr:date" v="2019-05-30" />
		<tag k="ssr:gruppe" v="veg" />
		<tag k="ssr:hovedgruppe" v="infrastruktur" />
		<tag k="ssr:stedsnr" v="1011399" />
		<tag k="ssr:type" v="adressenavn" />
	</node>
	<node id="-749990" lat="69.0859678877" lon="17.1861481166">
		<tag k="name" v="Hans Kr. Eriksens vei" />
		<tag k="ssr:date" v="2019-05-30" />
		<tag k="ssr:gruppe" v="veg" />
		<tag k="ssr:hovedgruppe" v="infrastruktur" />
		<tag k="ssr:stedsnr" v="1011398" />
		<tag k="ssr:type" v="adressenavn" />
	</node>
	<node id="-749989" lat="69.1997146017" lon="17.68000611">
		<tag k="name" v="Moåsen" />
		<tag k="ssr:date" v="2019-05-30" />
		<tag k="ssr:gruppe" v="veg" />
		<tag k="ssr:hovedgruppe" v="infrastruktur" />
		<tag k="ssr:stedsnr" v="1011397" />
		<tag k="ssr:type" v="adressenavn" />
	</node>
	<node id="-749988" lat="69.200301196" lon="17.6806667419">
		<tag k="name" v="Halvorslia" />
		<tag k="ssr:date" v="2019-05-30" />
		<tag k="ssr:gruppe" v="veg" />
		<tag k="ssr:hovedgruppe" v="infrastruktur" />
		<tag k="ssr:stedsnr" v="1011396" />
		<tag k="ssr:type" v="adressenavn" />
	</node>
	<node id="-749987" lat="69.0815948762" lon="17.1736839685">
		<tag k="name" v="Tømmerveien" />
		<tag k="ssr:date" v="2019-05-30" />
		<tag k="ssr:gruppe" v="veg" />
		<tag k="ssr:hovedgruppe" v="infrastruktur" />
		<tag k="ssr:stedsnr" v="1011395" />
		<tag k="ssr:type" v="adressenavn" />
	</node>
	<node id="-749986" lat="69.0852291009" lon="17.1630194443">
		<tag k="name" v="Mølnelva" />
		<tag k="ssr:date" v="2019-05-30" />
		<tag k="ssr:gruppe" v="veg" />
		<tag k="ssr:hovedgruppe" v="infrastruktur" />
		<tag k="ssr:stedsnr" v="1011394" />
		<tag k="ssr:type" v="adressenavn" />
	</node>
	<node id="-749985" lat="69.086002152" lon="17.1869803464">
		<tag k="name" v="Pegasusveien" />
		<tag k="ssr:date" v="2019-05-30" />
		<tag k="ssr:gruppe" v="veg" />
		<tag k="ssr:hovedgruppe" v="infrastruktur" />
		<tag k="ssr:stedsnr" v="1011393" />
		<tag k="ssr:type" v="adressenavn" />
	</node>
	<node id="-751264" lat="69.0285388848" lon="17.2304583269">
		<tag k="name" v="Lekangsneset" />
		<tag k="ssr:date" v="2016-05-11" />
		<tag k="ssr:gruppe" v="navigasjon" />
		<tag k="ssr:hovedgruppe" v="infrastruktur" />
		<tag k="ssr:stedsnr" v="746074" />
		<tag k="ssr:type" v="fyrlykt" />
	</node>
	<node id="-750875" lat="69.0584638851" lon="16.7611499978">
		<tag k="name" v="Senjehestneset" />
		<tag k="ssr:date" v="2016-05-10" />
		<tag k="ssr:gruppe" v="navigasjon" />
		<tag k="ssr:hovedgruppe" v="infrastruktur" />
		<tag k="ssr:stedsnr" v="563069" />
		<tag k="ssr:type" v="fyrlykt" />
	</node>
	<node id="-751386" lat="69.083366665" lon="17.2175750103">
		<tag k="name" v="Stonglandseidet" />
		<tag k="ssr:date" v="2016-05-11" />
		<tag k="ssr:gruppe" v="navigasjon" />
		<tag k="ssr:hovedgruppe" v="infrastruktur" />
		<tag k="ssr:stedsnr" v="807059" />
		<tag k="ssr:type" v="fyrlykt" />
	</node>
	<node id="-749984" lat="69.0853818633" lon="17.1743611388">
		<tag k="name" v="Helsesenterveien" />
		<tag k="ssr:date" v="2019-05-30" />
		<tag k="ssr:gruppe" v="veg" />
		<tag k="ssr:hovedgruppe" v="infrastruktur" />
		<tag k="ssr:stedsnr" v="1011391" />
		<tag k="ssr:type" v="adressenavn" />
	</node>
	<node id="-751754" lat="68.4849327361" lon="16.2297866207">
		<tag k="fixme" v="multiple name tags, choose one and add the other to alt_name" />
		<tag k="name" v="Nord-Noreg;Nord-Norge" />
		<tag k="ssr:date" v="2017-05-18" />
		<tag k="ssr:gruppe" v="administrativeIndelinger" />
		<tag k="ssr:hovedgruppe" v="offentligAdministrasjon" />
		<tag k="ssr:stedsnr" v="976106" />
		<tag k="ssr:type" v="annenAdministrativInndeling" />
	</node>
	<node id="-749860" lat="69.1504138889" lon="16.9933388751">
		<tag k="name" v="Fiskeneset" />
		<tag k="ssr:date" v="2016-05-10" />
		<tag k="ssr:gruppe" v="navigasjon" />
		<tag k="ssr:hovedgruppe" v="infrastruktur" />
		<tag k="ssr:stedsnr" v="381266" />
		<tag k="ssr:type" v="fyrlykt" />
	</node>
	<node id="-750466" lat="69.1701999964" lon="17.7348222144">
		<tag k="name" v="Tranøy kommune" />
		<tag k="ssr:date" v="2016-05-10" />
		<tag k="ssr:gruppe" v="administrativeIndelinger" />
		<tag k="ssr:hovedgruppe" v="offentligAdministrasjon" />
		<tag k="ssr:stedsnr" v="208353" />
		<tag k="ssr:type" v="kommune" />
	</node>
	<node id="-749739" lat="69.1378777801" lon="17.395930544">
		<tag k="name" v="Hyseskjæret" />
		<tag k="ssr:date" v="2016-05-10" />
		<tag k="ssr:gruppe" v="navigasjon" />
		<tag k="ssr:hovedgruppe" v="infrastruktur" />
		<tag k="ssr:stedsnr" v="321183" />
		<tag k="ssr:type" v="fyrlykt" />
	</node>
</osm>
