<?xml version="1.0" encoding="UTF-8"?>
<osm generator="osmapis" version="0.6">
	<node id="-739328" lat="68.6643000013" lon="17.898741667">
		<tag k="highway" v="path" />
		<tag k="name" v="Stormyrveien" />
		<tag k="name:no" v="Stormyrveien" />
		<tag k="ssr:stedsnr" v="786559" />
	</node>
	<node id="-739172" lat="68.7592277808" lon="17.766372213">
		<tag k="highway" v="path" />
		<tag k="name" v="Bærveien" />
		<tag k="name:no" v="Bærveien" />
		<tag k="ssr:stedsnr" v="604396" />
	</node>
	<node id="-739419" lat="68.7780444465" lon="17.8293861152">
		<tag k="highway" v="path" />
		<tag k="name" v="Småmoveien" />
		<tag k="name:no" v="Småmoveien" />
		<tag k="ssr:stedsnr" v="906584" />
	</node>
	<node id="-738778" lat="68.7799722255" lon="17.8417500107">
		<tag k="highway" v="path" />
		<tag k="name" v="Ørnveien" />
		<tag k="name:no" v="Ørnveien" />
		<tag k="ssr:stedsnr" v="57826" />
	</node>
	<node id="-738645" lat="68.7718194429" lon="17.8622333369">
		<tag k="ford" v="yes" />
		<tag k="name" v="Øvervaet" />
		<tag k="name:no" v="Øvervaet" />
		<tag k="place" v="locality" />
		<tag k="ssr:stedsnr" v="299824" />
	</node>
	<node id="-738771" lat="68.6846833385" lon="17.9723499876">
		<tag k="highway" v="path" />
		<tag k="name" v="Vinterveien" />
		<tag k="name:no" v="Vinterveien" />
		<tag k="ssr:stedsnr" v="57672" />
	</node>
	<node id="-739150" lat="68.7240111122" lon="17.7687277796">
		<tag k="highway" v="path" />
		<tag k="name" v="Rødbergveien" />
		<tag k="name:no" v="Rødbergveien" />
		<tag k="ssr:stedsnr" v="602517" />
	</node>
	<node id="-739275" lat="68.7821000006" lon="17.6037666601">
		<tag k="ford" v="yes" />
		<tag k="name" v="Martavaet" />
		<tag k="name:no" v="Martavaet" />
		<tag k="place" v="locality" />
		<tag k="ssr:stedsnr" v="726274" />
	</node>
	<node id="-738760" lat="68.7945472193" lon="17.7966249901">
		<tag k="highway" v="path" />
		<tag k="name" v="Eidveien" />
		<tag k="name:no" v="Eidveien" />
		<tag k="ssr:stedsnr" v="57511" />
	</node>
	<node id="-738880" lat="68.7713250032" lon="17.852163892">
		<tag k="ford" v="yes" />
		<tag k="name" v="Mellavaet" />
		<tag k="name:no" v="Mellavaet" />
		<tag k="place" v="locality" />
		<tag k="ssr:stedsnr" v="178809" />
	</node>
	<node id="-739259" lat="68.7944250043" lon="17.7997111115">
		<tag k="highway" v="path" />
		<tag k="name" v="Kobbesteinveien" />
		<tag k="name:no" v="Kobbesteinveien" />
		<tag k="ssr:stedsnr" v="724532" />
	</node>
	<node id="-738873" lat="68.7380027795" lon="17.7766222143">
		<tag k="ford" v="yes" />
		<tag k="name" v="Moldforvaet" />
		<tag k="name:no" v="Moldforvaet" />
		<tag k="place" v="locality" />
		<tag k="ssr:stedsnr" v="178466" />
	</node>
	<node id="-738996" lat="68.7706888875" lon="17.8445027714">
		<tag k="ford" v="yes" />
		<tag k="name" v="Nervaet" />
		<tag k="name:no" v="Nervaet" />
		<tag k="place" v="locality" />
		<tag k="ssr:stedsnr" v="421833" />
	</node>
	<node id="-738991" lat="68.6811611075" lon="17.9478277756">
		<tag k="bridge" v="yes" />
		<tag k="layer" v="1" />
		<tag k="name" v="Jordbrua" />
		<tag k="name:no" v="Jordbrua" />
		<tag k="ssr:stedsnr" v="421702" />
	</node>
	<node id="-738989" lat="68.7944277769" lon="17.7935111117">
		<tag k="highway" v="path" />
		<tag k="name" v="Øverveien" />
		<tag k="name:no" v="Øverveien" />
		<tag k="ssr:stedsnr" v="421546" />
	</node>
	<node id="-738985" lat="68.7751222203" lon="17.8269111196">
		<tag k="highway" v="path" />
		<tag k="name" v="Trippegulvveien" />
		<tag k="name:no" v="Trippegulvveien" />
		<tag k="ssr:stedsnr" v="421511" />
	</node>
	<node id="-739362" lat="68.7825777816" lon="17.8239416725">
		<tag k="highway" v="path" />
		<tag k="name" v="Soløyveian" />
		<tag k="name:no" v="Soløyveian" />
		<tag k="ssr:stedsnr" v="846553" />
	</node>
	<node id="-739359" lat="68.7254249975" lon="17.7597083259">
		<tag k="highway" v="path" />
		<tag k="name" v="Eidveien" />
		<tag k="name:no" v="Eidveien" />
		<tag k="ssr:stedsnr" v="846497" />
	</node>
	<node id="-738973" lat="68.8036916649" lon="17.8244666735">
		<tag k="highway" v="path" />
		<tag k="name" v="Kavelsteinveien" />
		<tag k="name:no" v="Kavelsteinveien" />
		<tag k="ssr:stedsnr" v="421395" />
	</node>
	<node id="-739212" lat="68.6843972185" lon="17.9743333299">
		<tag k="highway" v="path" />
		<tag k="name" v="Soldatveien" />
		<tag k="name:no" v="Soldatveien" />
		<tag k="ssr:stedsnr" v="663702" />
	</node>
	<node id="-738826" lat="68.7789305557" lon="17.8192916682">
		<tag k="highway" v="path" />
		<tag k="name" v="Sletthågveien" />
		<tag k="name:no" v="Sletthågveien" />
		<tag k="ssr:stedsnr" v="117569" />
	</node>
	<node id="-738821" lat="68.7268916644" lon="17.8014666596">
		<tag k="highway" v="path" />
		<tag k="name" v="Dalebuveien" />
		<tag k="name:no" v="Dalebuveien" />
		<tag k="ssr:stedsnr" v="117510" />
	</node>
	<node id="-739204" lat="68.7470999998" lon="17.8187777718">
		<tag k="highway" v="path" />
		<tag k="name" v="Trongstien" />
		<tag k="name:no" v="Trongstien" />
		<tag k="ssr:stedsnr" v="663450" />
	</node>
</osm>
