<?xml version="1.0" encoding="UTF-8"?>
<osm generator="osmapis" version="0.6">
	<node id="-737788" lat="68.7544222247" lon="17.8376000068">
		<tag k="name" v="Bangselielva" />
		<tag k="name:no" v="Bangselielva" />
		<tag k="ssr:stedsnr" v="542474" />
		<tag k="waterway" v="stream" />
	</node>
	<node id="-737785" lat="68.7336694422" lon="17.8242027647">
		<tag k="name" v="Kvannelva" />
		<tag k="name:no" v="Kvannelva" />
		<tag k="ssr:stedsnr" v="542471" />
		<tag k="waterway" v="stream" />
	</node>
	<node id="-737780" lat="68.7965527768" lon="17.7162916759">
		<tag k="name" v="Gardselva" />
		<tag k="name:no" v="Gardselva" />
		<tag k="ssr:stedsnr" v="542405" />
		<tag k="waterway" v="stream" />
	</node>
	<node id="-737778" lat="68.7948555548" lon="17.7646055494">
		<tag k="name" v="Mølnelva" />
		<tag k="name:no" v="Mølnelva" />
		<tag k="ssr:stedsnr" v="542400" />
		<tag k="waterway" v="stream" />
	</node>
	<node id="-737776" lat="68.7942277794" lon="17.478930549">
		<tag k="name" v="Kollvasselva" />
		<tag k="name:no" v="Kollvasselva" />
		<tag k="ssr:stedsnr" v="542197" />
		<tag k="waterway" v="stream" />
	</node>
	<node id="-737532" lat="68.7575944489" lon="17.7718138772">
		<tag k="name" v="Bekkelva" />
		<tag k="name:no" v="Bekkelva" />
		<tag k="ssr:stedsnr" v="119406" />
		<tag k="waterway" v="stream" />
	</node>
	<node id="-737617" lat="68.7303972181" lon="17.80719723">
		<tag k="name" v="Middagsmarka" />
		<tag k="name:no" v="Middagsmarka" />
		<tag k="natural" v="water" />
		<tag k="ssr:stedsnr" v="239487" />
	</node>
	<node id="-737764" lat="68.7992944472" lon="17.6968638916">
		<tag k="name" v="Nordelva" />
		<tag k="name:no" v="Nordelva" />
		<tag k="ssr:stedsnr" v="503653" />
		<tag k="waterway" v="stream" />
	</node>
	<node id="-737760" lat="68.6531388873" lon="17.9228472174">
		<tag k="name" v="Skjellbekken" />
		<tag k="name:no" v="Skjellbekken" />
		<tag k="ssr:stedsnr" v="483639" />
		<tag k="waterway" v="stream" />
	</node>
	<node id="-737755" lat="68.7586361108" lon="17.7669666614">
		<tag k="name" v="Gårdselva" />
		<tag k="name:no" v="Gårdselva" />
		<tag k="ssr:stedsnr" v="483415" />
		<tag k="waterway" v="stream" />
	</node>
	<node id="-737754" lat="68.7493972217" lon="17.7410499914">
		<tag k="name" v="Lomvatnan" />
		<tag k="name:no" v="Lomvatnan" />
		<tag k="natural" v="water" />
		<tag k="ssr:stedsnr" v="483412" />
		<tag k="water" v="lake" />
	</node>
	<node id="-737746" lat="68.7680194428" lon="17.6348805605">
		<tag k="name" v="Lomvatnet" />
		<tag k="name:no" v="Lomvatnet" />
		<tag k="natural" v="water" />
		<tag k="ssr:stedsnr" v="483152" />
	</node>
	<node id="-737742" lat="68.730005557" lon="17.8680416598">
		<tag k="name" v="Skádjajohka" />
		<tag k="name:se" v="Skádjajohka" />
		<tag k="ssr:stedsnr" v="481714" />
		<tag k="waterway" v="stream" />
	</node>
	<node id="-737740" lat="68.6851666635" lon="17.9544749897">
		<tag k="name" v="Slettbekken" />
		<tag k="name:no" v="Slettbekken" />
		<tag k="ssr:stedsnr" v="481689" />
		<tag k="waterway" v="stream" />
	</node>
	<node id="-737732" lat="68.7392555523" lon="17.8066805624">
		<tag k="name" v="Fredagshølla" />
		<tag k="name:no" v="Fredagshølla" />
		<tag k="place" v="locality" />
		<tag k="ssr:stedsnr" v="481490" />
	</node>
	<node id="-737731" lat="68.7381027803" lon="17.8242944416">
		<tag k="name" v="Tømmerelva" />
		<tag k="name:no" v="Tømmerelva" />
		<tag k="ssr:stedsnr" v="481488" />
		<tag k="waterway" v="stream" />
	</node>
	<node id="-737727" lat="68.8013805545" lon="17.7779666679">
		<tag k="name" v="Gråsteinvatnet" />
		<tag k="name:no" v="Gråsteinvatnet" />
		<tag k="natural" v="water" />
		<tag k="ssr:stedsnr" v="481420" />
	</node>
	<node id="-737724" lat="68.7838250003" lon="17.5582527658">
		<tag k="name" v="Tverrelva" />
		<tag k="name:no" v="Tverrelva" />
		<tag k="ssr:stedsnr" v="481230" />
		<tag k="waterway" v="stream" />
	</node>
	<node id="-737716" lat="68.7647638896" lon="17.88868888">
		<tag k="alt_name:no" v="Lægdelva" />
		<tag k="name" v="Legdelva" />
		<tag k="name:no" v="Legdelva" />
		<tag k="ssr:stedsnr" v="443696" />
		<tag k="waterway" v="stream" />
	</node>
	<node id="-737713" lat="68.7802361083" lon="17.600491654">
		<tag k="name" v="Finneneselva" />
		<tag k="name:no" v="Finneneselva" />
		<tag k="ssr:stedsnr" v="442753" />
		<tag k="waterway" v="stream" />
	</node>
	<node id="-737712" lat="68.7984555565" lon="17.7689722266">
		<tag k="alt_name:no" v="Holmelva" />
		<tag k="name" v="Holmebekken" />
		<tag k="name:no" v="Holmebekken" />
		<tag k="ssr:stedsnr" v="442741" />
		<tag k="waterway" v="stream" />
	</node>
	<node id="-737352" lat="68.7194000036" lon="17.8608722266">
		<tag k="name" v="Sullo" />
		<tag k="name:se" v="Sullo" />
		<tag k="place" v="islet" />
		<tag k="ssr:stedsnr" v="301600" />
	</node>
	<node id="-737710" lat="68.8096249971" lon="17.6219527804">
		<tag k="name" v="Elveneselva" />
		<tag k="name:no" v="Elveneselva" />
		<tag k="ssr:stedsnr" v="442719" />
		<tag k="waterway" v="stream" />
	</node>
	<node id="-737709" lat="68.8098722257" lon="17.8519750075">
		<tag k="name" v="Loabákáidi - Lavangseidet" />
		<tag k="name:no" v="Lavangseidet" />
		<tag k="name:se" v="Loabákáidi" />
		<tag k="natural" v="strait" />
		<tag k="ssr:stedsnr" v="442711" />
	</node>
	<node id="-737707" lat="68.7190777796" lon="17.854405562">
		<tag k="name" v="Saraelva" />
		<tag k="name:no" v="Saraelva" />
		<tag k="ssr:stedsnr" v="442629" />
		<tag k="waterway" v="stream" />
	</node>
	<node id="-737706" lat="68.6185472221" lon="17.7978749961">
		<tag k="alt_name:no" v="Britavatnet, l" />
		<tag k="name" v="Litle Britavatnet" />
		<tag k="name:no" v="Litle Britavatnet" />
		<tag k="natural" v="water" />
		<tag k="ssr:stedsnr" v="442553" />
	</node>
	<node id="-737704" lat="68.6994138922" lon="18.0098638795">
		<tag k="name" v="Bakdalsbekken" />
		<tag k="name:no" v="Bakdalsbekken" />
		<tag k="ssr:stedsnr" v="442360" />
		<tag k="waterway" v="stream" />
	</node>
	<node id="-737703" lat="68.6856388911" lon="17.96702221">
		<tag k="name" v="Iverfossen" />
		<tag k="name:no" v="Iverfossen" />
		<tag k="natural" v="waterfall" />
		<tag k="ssr:stedsnr" v="441699" />
	</node>
	<node id="-737685" lat="68.7033749997" lon="17.9956055591">
		<tag k="name" v="Kløftbekken" />
		<tag k="name:no" v="Kløftbekken" />
		<tag k="ssr:stedsnr" v="421832" />
		<tag k="waterway" v="stream" />
	</node>
	<node id="-737432" lat="68.6234305574" lon="17.8717527636">
		<tag k="name" v="Småvatnan" />
		<tag k="name:no" v="Småvatnan" />
		<tag k="natural" v="water" />
		<tag k="ssr:stedsnr" v="18471" />
	</node>
	<node id="-737678" lat="68.7962000002" lon="17.8015194397">
		<tag k="name" v="Skittendiket" />
		<tag k="name:no" v="Skittendiket" />
		<tag k="ssr:stedsnr" v="421543" />
		<tag k="waterway" v="stream" />
	</node>
	<node id="-737411" lat="68.7930611147" lon="17.5214860981">
		<tag k="name" v="Plasselva" />
		<tag k="name:no" v="Plasselva" />
		<tag k="ssr:stedsnr" v="381749" />
		<tag k="waterway" v="river" />
	</node>
	<node id="-738186" lat="68.6612888926" lon="17.9140277787">
		<tag k="name" v="Staurloken" />
		<tag k="name:no" v="Staurloken" />
		<tag k="ssr:stedsnr" v="968558" />
		<tag k="waterway" v="stream" />
	</node>
	<node id="-737672" lat="68.7983249992" lon="17.7445305531">
		<tag k="name" v="Hågelva" />
		<tag k="name:no" v="Hågelva" />
		<tag k="ssr:stedsnr" v="421468" />
		<tag k="waterway" v="stream" />
	</node>
	<node id="-737671" lat="68.7412666682" lon="17.8174972316">
		<tag k="name" v="Litjelva" />
		<tag k="name:no" v="Litjelva" />
		<tag k="ssr:stedsnr" v="421461" />
		<tag k="waterway" v="stream" />
	</node>
	<node id="-737662" lat="68.8060833328" lon="17.8381666634">
		<tag k="name" v="Jordelva" />
		<tag k="name:no" v="Jordelva" />
		<tag k="ssr:stedsnr" v="421389" />
		<tag k="waterway" v="stream" />
	</node>
	<node id="-737657" lat="68.6789305553" lon="18.0167555502">
		<tag k="name" v="Soløyvatnet" />
		<tag k="name:no" v="Soløyvatnet" />
		<tag k="natural" v="water" />
		<tag k="ssr:stedsnr" v="415392" />
	</node>
	<node id="-737656" lat="68.7081416657" lon="17.9532666605">
		<tag k="loc_name:se" v="Jorbajávri" />
		<tag k="name" v="Rundvatnet" />
		<tag k="name:no" v="Rundvatnet" />
		<tag k="natural" v="water" />
		<tag k="ssr:stedsnr" v="266596" />
	</node>
	<node id="-738165" lat="68.7293388854" lon="17.8120583295">
		<tag k="name" v="Kryssholmen" />
		<tag k="name:no" v="Kryssholmen" />
		<tag k="place" v="islet" />
		<tag k="ssr:stedsnr" v="967469" />
	</node>
	<node id="-737651" lat="68.7861944434" lon="17.5349083384">
		<tag k="alt_name:no" v="Vardhaugvatnet" />
		<tag k="name" v="Vardhågvatnet" />
		<tag k="name:no" v="Vardhågvatnet" />
		<tag k="natural" v="water" />
		<tag k="ssr:stedsnr" v="260762" />
	</node>
	<node id="-737650" lat="68.7905944443" lon="17.5280722098">
		<tag k="alt_name:no" v="Hollebåtvatnet" />
		<tag k="name" v="Holbåtvatnet" />
		<tag k="name:no" v="Holbåtvatnet" />
		<tag k="natural" v="water" />
		<tag k="ssr:stedsnr" v="260760" />
	</node>
	<node id="-738160" lat="68.7975861102" lon="17.5346694389">
		<tag k="name" v="Skredelva" />
		<tag k="name:no" v="Skredelva" />
		<tag k="ssr:stedsnr" v="967167" />
		<tag k="waterway" v="stream" />
	</node>
	<node id="-737646" lat="68.701875003" lon="17.7365527828">
		<tag k="name" v="Jalgesáidi - Fjordbotneidet" />
		<tag k="name:no" v="Fjordbotneidet" />
		<tag k="name:se" v="Jalgesáidi" />
		<tag k="natural" v="strait" />
		<tag k="old_name:se" v="Jalgesaidi" />
		<tag k="ssr:stedsnr" v="260604" />
	</node>
	<node id="-737636" lat="68.75436389" lon="17.7750972264">
		<tag k="name" v="Finneselva" />
		<tag k="name:no" v="Finneselva" />
		<tag k="ssr:stedsnr" v="240295" />
		<tag k="waterway" v="stream" />
	</node>
	<node id="-738146" lat="68.7335388874" lon="17.6500972202">
		<tag k="name" v="Sandnesbotnelva" />
		<tag k="name:no" v="Sandnesbotnelva" />
		<tag k="ssr:stedsnr" v="928934" />
		<tag k="waterway" v="river" />
	</node>
	<node id="-737631" lat="68.7801194443" lon="17.6000416724">
		<tag k="name" v="Johanelva" />
		<tag k="name:no" v="Johanelva" />
		<tag k="ssr:stedsnr" v="240263" />
		<tag k="waterway" v="stream" />
	</node>
	<node id="-738139" lat="68.7963194439" lon="17.8159666583">
		<tag k="name" v="Åelva" />
		<tag k="name:no" v="Åelva" />
		<tag k="ssr:stedsnr" v="928673" />
		<tag k="waterway" v="river" />
	</node>
	<node id="-738138" lat="68.8024277745" lon="17.7266833351">
		<tag k="name" v="Mølnelva" />
		<tag k="name:no" v="Mølnelva" />
		<tag k="ssr:stedsnr" v="928666" />
		<tag k="waterway" v="stream" />
	</node>
	<node id="-738137" lat="68.8099888895" lon="17.4745861201">
		<tag k="name" v="Mølnelva" />
		<tag k="name:no" v="Mølnelva" />
		<tag k="ssr:stedsnr" v="928660" />
		<tag k="waterway" v="stream" />
	</node>
	<node id="-738136" lat="68.6762194404" lon="17.8973277748">
		<tag k="name" v="Lapphaugvatnet" />
		<tag k="name:no" v="Lapphaugvatnet" />
		<tag k="natural" v="water" />
		<tag k="ssr:stedsnr" v="928575" />
	</node>
	<node id="-738132" lat="68.6298666691" lon="17.9331444339">
		<tag k="name" v="Stormyrelva" />
		<tag k="name:no" v="Stormyrelva" />
		<tag k="ssr:stedsnr" v="928461" />
		<tag k="waterway" v="river" />
	</node>
	<node id="-738130" lat="68.7595055513" lon="17.7460583313">
		<tag k="alt_name:no" v="Svartelva" />
		<tag k="name" v="Litje Sandneselva" />
		<tag k="name:no" v="Litje Sandneselva" />
		<tag k="ssr:stedsnr" v="928241" />
		<tag k="waterway" v="stream" />
	</node>
	<node id="-738129" lat="68.7203250011" lon="17.8595138979">
		<tag k="name" v="Olderneset" />
		<tag k="name:no" v="Olderneset" />
		<tag k="natural" v="cape" />
		<tag k="ssr:stedsnr" v="927939" />
	</node>
	<node id="-737592" lat="68.7104277764" lon="17.9401527788">
		<tag k="loc_name:se" v="Mielkejohka" />
		<tag k="name" v="Melkeelva" />
		<tag k="name:no" v="Melkeelva" />
		<tag k="ssr:stedsnr" v="205632" />
		<tag k="waterway" v="stream" />
	</node>
	<node id="-737604" lat="68.7437583309" lon="17.8085333289">
		<tag k="name" v="Tørrkjerrholmen" />
		<tag k="name:no" v="Tørrkjerrholmen" />
		<tag k="natural" v="cape" />
		<tag k="ssr:stedsnr" v="239290" />
	</node>
	<node id="-738114" lat="68.7222444474" lon="17.8444555444">
		<tag k="name" v="Njárga" />
		<tag k="name:se" v="Njárga" />
		<tag k="natural" v="cape" />
		<tag k="ssr:stedsnr" v="906746" />
	</node>
	<node id="-738113" lat="68.7281833313" lon="17.8706027697">
		<tag k="name" v="Skáidi" />
		<tag k="name:se" v="Skáidi" />
		<tag k="natural" v="cape" />
		<tag k="ssr:stedsnr" v="906738" />
	</node>
	<node id="-737599" lat="68.8026194477" lon="17.6689166544">
		<tag k="name" v="Mefeneselva" />
		<tag k="name:no" v="Mefeneselva" />
		<tag k="ssr:stedsnr" v="238212" />
		<tag k="waterway" v="stream" />
	</node>
	<node id="-738105" lat="68.7313333375" lon="17.8217055605">
		<tag k="name" v="Drågelva" />
		<tag k="name:no" v="Drågelva" />
		<tag k="ssr:stedsnr" v="906506" />
		<tag k="waterway" v="stream" />
	</node>
	<node id="-738104" lat="68.7435166712" lon="17.8177305425">
		<tag k="name" v="Rødvollbekken" />
		<tag k="name:no" v="Rødvollbekken" />
		<tag k="ssr:stedsnr" v="906499" />
		<tag k="waterway" v="stream" />
	</node>
	<node id="-738103" lat="68.7330611088" lon="17.8127249856">
		<tag k="name" v="Løelva" />
		<tag k="name:no" v="Løelva" />
		<tag k="ssr:stedsnr" v="906495" />
		<tag k="waterway" v="stream" />
	</node>
	<node id="-737588" lat="68.796069446" lon="17.487294446">
		<tag k="name" v="Storvatnet" />
		<tag k="name:no" v="Storvatnet" />
		<tag k="natural" v="water" />
		<tag k="ssr:stedsnr" v="200696" />
		<tag k="water" v="lake" />
	</node>
	<node id="-737586" lat="68.7655777781" lon="17.7168222192">
		<tag k="name" v="Lomvatnet" />
		<tag k="name:no" v="Lomvatnet" />
		<tag k="natural" v="water" />
		<tag k="ssr:stedsnr" v="200716" />
	</node>
	<node id="-737584" lat="68.7151333309" lon="17.7555694393">
		<tag k="name" v="Middagselva" />
		<tag k="name:no" v="Middagselva" />
		<tag k="ssr:stedsnr" v="199599" />
		<tag k="waterway" v="stream" />
	</node>
	<node id="-737583" lat="68.7173555509" lon="17.8189500033">
		<tag k="name" v="Tverrelva" />
		<tag k="name:no" v="Tverrelva" />
		<tag k="ssr:stedsnr" v="199585" />
		<tag k="waterway" v="stream" />
	</node>
	<node id="-738094" lat="68.8063305553" lon="17.7896499989">
		<tag k="name" v="Lomvatnet" />
		<tag k="name:no" v="Lomvatnet" />
		<tag k="natural" v="water" />
		<tag k="ssr:stedsnr" v="906413" />
	</node>
	<node id="-738092" lat="68.7881166668" lon="17.588733342">
		<tag k="name" v="Neselva" />
		<tag k="name:no" v="Neselva" />
		<tag k="ssr:stedsnr" v="906232" />
		<tag k="waterway" v="stream" />
	</node>
	<node id="-737577" lat="68.7407722222" lon="17.762052783">
		<tag k="name" v="Reingjerdelva" />
		<tag k="name:no" v="Reingjerdelva" />
		<tag k="ssr:stedsnr" v="179369" />
		<tag k="waterway" v="stream" />
	</node>
	<node id="-737414" lat="68.6397694462" lon="17.8472166521">
		<tag k="loc_name:se" v="Luohttojávri" />
		<tag k="name" v="Baikajávri - Lotvatnet" />
		<tag k="name:no" v="Lotvatnet" />
		<tag k="name:se" v="Baikajávri" />
		<tag k="natural" v="water" />
		<tag k="old_name:se" v="Baikajavri" />
		<tag k="ssr:stedsnr" v="382505" />
		<tag k="water" v="lake" />
	</node>
	<node id="-738077" lat="68.7866805533" lon="17.5675750063">
		<tag k="name" v="Reinlandselva" />
		<tag k="name:no" v="Reinlandselva" />
		<tag k="ssr:stedsnr" v="867740" />
		<tag k="waterway" v="stream" />
	</node>
	<node id="-737560" lat="68.7984083314" lon="17.7997416575">
		<tag k="name" v="Gommelva" />
		<tag k="name:no" v="Gommelva" />
		<tag k="ssr:stedsnr" v="178389" />
		<tag k="waterway" v="stream" />
	</node>
	<node id="-738071" lat="68.7146999993" lon="17.8933027759">
		<tag k="name" v="Sullot" />
		<tag k="name:se" v="Sullot" />
		<tag k="place" v="islet" />
		<tag k="ssr:stedsnr" v="866605" />
	</node>
	<node id="-737582" lat="68.6920250011" lon="18.0374249958">
		<tag k="name" v="Holbekken" />
		<tag k="name:no" v="Holbekken" />
		<tag k="ssr:stedsnr" v="199358" />
		<tag k="waterway" v="stream" />
	</node>
	<node id="-737554" lat="68.7901194413" lon="17.546013878">
		<tag k="name" v="Ingerelva" />
		<tag k="name:no" v="Ingerelva" />
		<tag k="ssr:stedsnr" v="178199" />
		<tag k="waterway" v="stream" />
	</node>
	<node id="-738065" lat="68.7448833312" lon="17.6804333393">
		<tag k="name" v="Tverrelva" />
		<tag k="name:no" v="Tverrelva" />
		<tag k="ssr:stedsnr" v="847387" />
		<tag k="waterway" v="stream" />
	</node>
	<node id="-737550" lat="68.7380138919" lon="17.8354361122">
		<tag k="name" v="Tømmerelva" />
		<tag k="name:no" v="Tømmerelva" />
		<tag k="ssr:stedsnr" v="147766" />
		<tag k="waterway" v="stream" />
	</node>
	<node id="-737410" lat="68.7929666687" lon="17.5248222122">
		<tag k="name" v="Sennevatnet" />
		<tag k="name:no" v="Sennevatnet" />
		<tag k="natural" v="water" />
		<tag k="ssr:stedsnr" v="381750" />
	</node>
	<node id="-737546" lat="68.7775305604" lon="17.8805583237">
		<tag k="name" v="Gorssasjohka - Styggedalselva" />
		<tag k="name:no" v="Styggedalselva" />
		<tag k="name:se" v="Gorssasjohka" />
		<tag k="ssr:stedsnr" v="139683" />
		<tag k="waterway" v="stream" />
	</node>
	<node id="-738052" lat="68.7878083356" lon="17.8056694517">
		<tag k="name" v="Tverrelva" />
		<tag k="name:no" v="Tverrelva" />
		<tag k="ssr:stedsnr" v="846544" />
		<tag k="waterway" v="stream" />
	</node>
	<node id="-737539" lat="68.7320250005" lon="17.6785666547">
		<tag k="name" v="Storelva" />
		<tag k="name:no" v="Storelva" />
		<tag k="ssr:stedsnr" v="138203" />
		<tag k="waterway" v="river" />
	</node>
	<node id="-737538" lat="68.7083194431" lon="17.9642555422">
		<tag k="name" v="Skredranelva" />
		<tag k="name:no" v="Skredranelva" />
		<tag k="ssr:stedsnr" v="119638" />
		<tag k="waterway" v="stream" />
	</node>
	<node id="-738045" lat="68.7352750039" lon="17.7617916755">
		<tag k="name" v="Kvitefossen" />
		<tag k="name:no" v="Kvitefossen" />
		<tag k="natural" v="waterfall" />
		<tag k="ssr:stedsnr" v="846448" />
	</node>
	<node id="-738044" lat="68.7389166638" lon="17.8028777838">
		<tag k="name" v="Middagshølla" />
		<tag k="name:no" v="Middagshølla" />
		<tag k="place" v="locality" />
		<tag k="ssr:stedsnr" v="846438" />
	</node>
	<node id="-737322" lat="68.7411138932" lon="17.7980611122">
		<tag k="name" v="Stordiket" />
		<tag k="name:no" v="Stordiket" />
		<tag k="ssr:stedsnr" v="299472" />
		<tag k="waterway" v="stream" />
	</node>
	<node id="-737530" lat="68.7595361077" lon="17.7068250074">
		<tag k="name" v="Rendalsbekken" />
		<tag k="name:no" v="Rendalsbekken" />
		<tag k="ssr:stedsnr" v="119387" />
		<tag k="waterway" v="stream" />
	</node>
	<node id="-738035" lat="68.7919916629" lon="17.4986860977">
		<tag k="name" v="Langneset" />
		<tag k="name:no" v="Langneset" />
		<tag k="natural" v="cape" />
		<tag k="ssr:stedsnr" v="846184" />
	</node>
	<node id="-738028" lat="68.7714555555" lon="17.5624777857">
		<tag k="name" v="Rundvatnet" />
		<tag k="name:no" v="Rundvatnet" />
		<tag k="natural" v="water" />
		<tag k="ssr:stedsnr" v="807699" />
	</node>
	<node id="-738026" lat="68.8064138891" lon="17.742155551">
		<tag k="name" v="Gamvikelva" />
		<tag k="name:no" v="Gamvikelva" />
		<tag k="ssr:stedsnr" v="806724" />
		<tag k="waterway" v="stream" />
	</node>
	<node id="-738023" lat="68.7151027797" lon="17.8483888795">
		<tag k="loc_name:se" v="Heandrihkágorži" />
		<tag k="name" v="Henrikafossen" />
		<tag k="name:no" v="Henrikafossen" />
		<tag k="natural" v="waterfall" />
		<tag k="ssr:stedsnr" v="786652" />
	</node>
	<node id="-738022" lat="68.6539138936" lon="17.9081888784">
		<tag k="name" v="Odden" />
		<tag k="name:no" v="Odden" />
		<tag k="natural" v="cape" />
		<tag k="ssr:stedsnr" v="786641" />
	</node>
	<node id="-738015" lat="68.6717861103" lon="17.8741166596">
		<tag k="name" v="Bukkemyrbekken" />
		<tag k="name:no" v="Bukkemyrbekken" />
		<tag k="ssr:stedsnr" v="786541" />
		<tag k="waterway" v="stream" />
	</node>
	<node id="-737499" lat="68.690152774" lon="18.0157027821">
		<tag k="name" v="Sæterhaugvatnet" />
		<tag k="name:no" v="Sæterhaugvatnet" />
		<tag k="natural" v="water" />
		<tag k="ssr:stedsnr" v="111700" />
	</node>
	<node id="-737489" lat="68.7696833314" lon="17.8891527845">
		<tag k="alt_name:no" v="Austavindselva" />
		<tag k="name" v="Austadvindelva" />
		<tag k="name:no" v="Austadvindelva" />
		<tag k="ssr:stedsnr" v="79690" />
		<tag k="waterway" v="stream" />
	</node>
	<node id="-737486" lat="68.7778333375" lon="17.5244666584">
		<tag k="alt_name:no" v="Tålevatnet" />
		<tag k="name" v="Tårlevatnet" />
		<tag k="name:no" v="Tårlevatnet" />
		<tag k="natural" v="water" />
		<tag k="ssr:stedsnr" v="78731" />
		<tag k="water" v="lake" />
	</node>
	<node id="-737483" lat="68.6972611082" lon="17.7952416602">
		<tag k="name" v="Middagsselvvatnan" />
		<tag k="name:no" v="Middagsselvvatnan" />
		<tag k="natural" v="water" />
		<tag k="ssr:stedsnr" v="78576" />
	</node>
	<node id="-737992" lat="68.7474999953" lon="17.8150916729">
		<tag k="name" v="Kalvøyra" />
		<tag k="name:no" v="Kalvøyra" />
		<tag k="natural" v="cape" />
		<tag k="ssr:stedsnr" v="785436" />
	</node>
	<node id="-737478" lat="68.6693805529" lon="17.9279527675">
		<tag k="name" v="Finnmyrbekken" />
		<tag k="name:no" v="Finnmyrbekken" />
		<tag k="ssr:stedsnr" v="58565" />
		<tag k="waterway" v="stream" />
	</node>
	<node id="-737989" lat="68.7371694462" lon="17.8075055429">
		<tag k="name" v="Tyttebærhølla" />
		<tag k="name:no" v="Tyttebærhølla" />
		<tag k="place" v="locality" />
		<tag k="ssr:stedsnr" v="785420" />
	</node>
	<node id="-737988" lat="68.7394194473" lon="17.8114249949">
		<tag k="name" v="Grindneset" />
		<tag k="name:no" v="Grindneset" />
		<tag k="natural" v="cape" />
		<tag k="ssr:stedsnr" v="785419" />
	</node>
	<node id="-737984" lat="68.7833444419" lon="17.5188499959">
		<tag k="name" v="Tårleelva" />
		<tag k="name:no" v="Tårleelva" />
		<tag k="ssr:stedsnr" v="785200" />
		<tag k="waterway" v="stream" />
	</node>
	<node id="-737470" lat="68.7170472196" lon="17.7554361134">
		<tag k="name" v="Sletteidet" />
		<tag k="name:no" v="Sletteidet" />
		<tag k="natural" v="strait" />
		<tag k="ssr:stedsnr" v="58184" />
	</node>
	<node id="-737977" lat="68.7271805526" lon="17.7316972277">
		<tag k="name" v="Svartelva" />
		<tag k="name:no" v="Svartelva" />
		<tag k="ssr:stedsnr" v="746922" />
		<tag k="waterway" v="stream" />
	</node>
	<node id="-737975" lat="68.7465083315" lon="17.6150944311">
		<tag k="name" v="Storelvvatnet" />
		<tag k="name:no" v="Storelvvatnet" />
		<tag k="natural" v="water" />
		<tag k="ssr:stedsnr" v="746881" />
	</node>
	<node id="-737971" lat="68.731525001" lon="17.809172225">
		<tag k="alt_name:no" v="Spanselva" />
		<tag k="name" v="Ruŋgujohka - Spansdalselva" />
		<tag k="name:no" v="Spansdalselva" />
		<tag k="name:se" v="Ruŋgujohka" />
		<tag k="ssr:stedsnr" v="745569" />
		<tag k="waterway" v="river" />
	</node>
	<node id="-737458" lat="68.7353666677" lon="17.7906361163">
		<tag k="name" v="Bruporten" />
		<tag k="name:no" v="Bruporten" />
		<tag k="ssr:stedsnr" v="57441" />
		<tag k="waterway" v="stream" />
	</node>
	<node id="-737968" lat="68.664527779" lon="17.9079166617">
		<tag k="name" v="Stormyrloken" />
		<tag k="name:no" v="Stormyrloken" />
		<tag k="ssr:stedsnr" v="726557" />
		<tag k="waterway" v="stream" />
	</node>
	<node id="-737565" lat="68.6853749995" lon="17.9783888907">
		<tag k="name" v="Eggbekken" />
		<tag k="name:no" v="Eggbekken" />
		<tag k="ssr:stedsnr" v="178669" />
		<tag k="waterway" v="stream" />
	</node>
	<node id="-737452" lat="68.7707027769" lon="17.8390055411">
		<tag k="name" v="Mølnelva" />
		<tag k="name:no" v="Mølnelva" />
		<tag k="ssr:stedsnr" v="57534" />
		<tag k="waterway" v="stream" />
	</node>
	<node id="-737960" lat="68.6962694444" lon="17.9821611002">
		<tag k="name" v="Holman" />
		<tag k="name:no" v="Holman" />
		<tag k="place" v="islet" />
		<tag k="ssr:stedsnr" v="724739" />
	</node>
	<node id="-737456" lat="68.7340777814" lon="17.8083055441">
		<tag k="name" v="Berghølla" />
		<tag k="name:no" v="Berghølla" />
		<tag k="place" v="locality" />
		<tag k="ssr:stedsnr" v="57429" />
	</node>
	<node id="-737648" lat="68.6669833319" lon="17.8411777767">
		<tag k="name" v="Bukkemyrvatnet" />
		<tag k="name:no" v="Bukkemyrvatnet" />
		<tag k="natural" v="water" />
		<tag k="ssr:stedsnr" v="260642" />
	</node>
	<node id="-737436" lat="68.7822000028" lon="17.5043416669">
		<tag k="name" v="Kollvatnet" />
		<tag k="name:no" v="Kollvatnet" />
		<tag k="natural" v="water" />
		<tag k="ssr:stedsnr" v="18651" />
	</node>
	<node id="-737945" lat="68.7346749996" lon="17.8085777632">
		<tag k="name" v="Neset" />
		<tag k="name:no" v="Neset" />
		<tag k="natural" v="cape" />
		<tag k="ssr:stedsnr" v="724476" />
	</node>
	<node id="-737944" lat="68.7277166652" lon="17.7896805484">
		<tag k="name" v="Sanddiket" />
		<tag k="name:no" v="Sanddiket" />
		<tag k="ssr:stedsnr" v="724472" />
		<tag k="waterway" v="stream" />
	</node>
	<node id="-737431" lat="68.686008335" lon="18.0163388751">
		<tag k="alt_name:no" v="Kolbranselva" />
		<tag k="fixme" v="multiple name tags, choose one and add the other to alt_name" />
		<tag k="name" v="Tverrelva;Kolbanelva" />
		<tag k="name:no" v="Tverrelva;Kolbanelva" />
		<tag k="ssr:stedsnr" v="18318" />
		<tag k="waterway" v="river" />
	</node>
	<node id="-737430" lat="68.7554555558" lon="17.6760361083">
		<tag k="name" v="Tverrelva" />
		<tag k="name:no" v="Tverrelva" />
		<tag k="ssr:stedsnr" v="18247" />
		<tag k="waterway" v="stream" />
	</node>
	<node id="-737428" lat="68.6983555543" lon="17.8460805637">
		<tag k="name" v="Spanstindvatnet" />
		<tag k="name:no" v="Spanstindvatnet" />
		<tag k="natural" v="water" />
		<tag k="ssr:stedsnr" v="17572" />
	</node>
	<node id="-737938" lat="68.8138527793" lon="17.8549694449">
		<tag k="name" v="Skillajohka" />
		<tag k="name:se" v="Skillajohka" />
		<tag k="ssr:stedsnr" v="724203" />
		<tag k="waterway" v="stream" />
	</node>
	<node id="-737937" lat="68.7954861133" lon="17.5627666554">
		<tag k="name" v="Karielva" />
		<tag k="name:no" v="Karielva" />
		<tag k="ssr:stedsnr" v="724196" />
		<tag k="waterway" v="stream" />
	</node>
	<node id="-737559" lat="68.8006472192" lon="17.8066944283">
		<tag k="name" v="Litjenavarselva" />
		<tag k="name:no" v="Litjenavarselva" />
		<tag k="ssr:stedsnr" v="178386" />
		<tag k="waterway" v="stream" />
	</node>
	<node id="-737416" lat="68.7744527762" lon="17.6338055413">
		<tag k="name" v="Jonelva" />
		<tag k="name:no" v="Jonelva" />
		<tag k="ssr:stedsnr" v="382695" />
		<tag k="waterway" v="stream" />
	</node>
	<node id="-737415" lat="68.7511277792" lon="17.8632638775">
		<tag k="alt_name:no" v="Åsevatnet, l" />
		<tag k="name" v="Litle Åsevatnet" />
		<tag k="name:no" v="Litle Åsevatnet" />
		<tag k="natural" v="water" />
		<tag k="ssr:stedsnr" v="382616" />
	</node>
	<node id="-737926" lat="68.7685444487" lon="17.8610444398">
		<tag k="name" v="Hesjevikelva" />
		<tag k="name:no" v="Hesjevikelva" />
		<tag k="ssr:stedsnr" v="685711" />
		<tag k="waterway" v="river" />
	</node>
	<node id="-737924" lat="68.772574997" lon="17.6450555534">
		<tag k="name" v="Hestneselva" />
		<tag k="name:no" v="Hestneselva" />
		<tag k="ssr:stedsnr" v="685704" />
		<tag k="waterway" v="stream" />
	</node>
	<node id="-737923" lat="68.7757416647" lon="17.6226416713">
		<tag k="name" v="Keiprødelva" />
		<tag k="name:no" v="Keiprødelva" />
		<tag k="ssr:stedsnr" v="685705" />
		<tag k="waterway" v="stream" />
	</node>
	<node id="-737922" lat="68.7749194422" lon="17.5379583315">
		<tag k="name" v="Reinlandsvatnet" />
		<tag k="name:no" v="Reinlandsvatnet" />
		<tag k="natural" v="water" />
		<tag k="ssr:stedsnr" v="685701" />
	</node>
	<node id="-737921" lat="68.7908611142" lon="17.4741194447">
		<tag k="fixme" v="multiple name tags, choose one and add the other to alt_name" />
		<tag k="name" v="Blåvatnet;Kollvatnet" />
		<tag k="name:no" v="Blåvatnet;Kollvatnet" />
		<tag k="natural" v="water" />
		<tag k="ssr:stedsnr" v="685690" />
		<tag k="water" v="lake" />
	</node>
	<node id="-737472" lat="68.7500055556" lon="17.7835860982">
		<tag k="name" v="Skjellbekken" />
		<tag k="name:no" v="Skjellbekken" />
		<tag k="ssr:stedsnr" v="58313" />
		<tag k="waterway" v="stream" />
	</node>
	<node id="-737919" lat="68.8259694467" lon="17.7017694523">
		<tag k="name" v="Gamvikelvvatnan" />
		<tag k="name:no" v="Gamvikelvvatnan" />
		<tag k="natural" v="water" />
		<tag k="ssr:stedsnr" v="685669" />
		<tag k="water" v="lake" />
	</node>
	<node id="-737406" lat="68.7186972198" lon="17.8471916567">
		<tag k="name" v="Saraelva" />
		<tag k="name:no" v="Saraelva" />
		<tag k="ssr:stedsnr" v="361653" />
		<tag k="waterway" v="stream" />
	</node>
	<node id="-737404" lat="68.6483472186" lon="17.9092416559">
		<tag k="name" v="Stormyrelva" />
		<tag k="name:no" v="Stormyrelva" />
		<tag k="ssr:stedsnr" v="361570" />
		<tag k="waterway" v="stream" />
	</node>
	<node id="-737914" lat="68.6558388921" lon="17.8948388985">
		<tag k="name" v="Slipsteinbekken" />
		<tag k="name:no" v="Slipsteinbekken" />
		<tag k="ssr:stedsnr" v="665579" />
		<tag k="waterway" v="stream" />
	</node>
	<node id="-737380" lat="68.7385388867" lon="17.8045138758">
		<tag k="name" v="Gjerdneset" />
		<tag k="name:no" v="Gjerdneset" />
		<tag k="natural" v="cape" />
		<tag k="ssr:stedsnr" v="360420" />
	</node>
	<node id="-737374" lat="68.7483666705" lon="17.8083722258">
		<tag k="name" v="Orneselva" />
		<tag k="name:no" v="Orneselva" />
		<tag k="ssr:stedsnr" v="360266" />
		<tag k="waterway" v="stream" />
	</node>
	<node id="-737883" lat="68.6780888936" lon="17.8893305445">
		<tag k="name" v="Sennekjosen" />
		<tag k="name:no" v="Sennekjosen" />
		<tag k="natural" v="bay" />
		<tag k="ssr:stedsnr" v="632589" />
	</node>
	<node id="-737370" lat="68.739855555" lon="17.8720805437">
		<tag k="name" v="Åsevatnet" />
		<tag k="name:no" v="Åsevatnet" />
		<tag k="natural" v="water" />
		<tag k="ssr:stedsnr" v="321922" />
		<tag k="water" v="lake" />
	</node>
	<node id="-737369" lat="68.7640972258" lon="17.9202444489">
		<tag k="name" v="Lægdevatnet" />
		<tag k="name:no" v="Lægdevatnet" />
		<tag k="natural" v="water" />
		<tag k="ssr:stedsnr" v="321702" />
	</node>
	<node id="-737366" lat="68.8010861127" lon="17.7010472155">
		<tag k="alt_name:no" v="Bjørneslettelva" />
		<tag k="name" v="Bjørnslettelva" />
		<tag k="name:no" v="Bjørnslettelva" />
		<tag k="ssr:stedsnr" v="321673" />
		<tag k="waterway" v="stream" />
	</node>
	<node id="-737365" lat="68.8100416647" lon="17.652219434">
		<tag k="name" v="Småvatnan" />
		<tag k="name:no" v="Småvatnan" />
		<tag k="natural" v="water" />
		<tag k="ssr:stedsnr" v="321670" />
		<tag k="water" v="lake" />
	</node>
	<node id="-737361" lat="68.6092694495" lon="17.8466555422">
		<tag k="name" v="Riikojávri - Grasvatnet" />
		<tag k="name:no" v="Grasvatnet" />
		<tag k="name:se" v="Riikojávri" />
		<tag k="natural" v="water" />
		<tag k="old_name:se" v="Riikujavri" />
		<tag k="ssr:stedsnr" v="321525" />
		<tag k="water" v="lake" />
	</node>
	<node id="-737360" lat="68.6414777746" lon="17.8753249842">
		<tag k="fixme" v="multiple name tags, choose one and add the other to alt_name" />
		<tag k="loc_name:se" v="Luohttojohka" />
		<tag k="name" v="Baikajohka - Lotelva;Tverrelva" />
		<tag k="name:no" v="Lotelva;Tverrelva" />
		<tag k="name:se" v="Baikajohka" />
		<tag k="old_name:se" v="Baikajåkka" />
		<tag k="ssr:stedsnr" v="321478" />
		<tag k="waterway" v="stream" />
	</node>
	<node id="-737357" lat="68.6936611145" lon="18.0349111057">
		<tag k="name" v="Lappjordvatnet" />
		<tag k="name:no" v="Lappjordvatnet" />
		<tag k="natural" v="water" />
		<tag k="ssr:stedsnr" v="321333" />
	</node>
	<node id="-737868" lat="68.7152527785" lon="17.7905444392">
		<tag k="name" v="Forhaugelva" />
		<tag k="name:no" v="Forhaugelva" />
		<tag k="ssr:stedsnr" v="624573" />
		<tag k="waterway" v="stream" />
	</node>
	<node id="-737864" lat="68.8252666706" lon="17.8220222305">
		<tag k="name" v="Stormyrelva" />
		<tag k="name:no" v="Stormyrelva" />
		<tag k="ssr:stedsnr" v="604536" />
		<tag k="waterway" v="stream" />
	</node>
	<node id="-737863" lat="68.8144555547" lon="17.8292360955">
		<tag k="name" v="Butoftelva" />
		<tag k="name:no" v="Butoftelva" />
		<tag k="ssr:stedsnr" v="604532" />
		<tag k="waterway" v="stream" />
	</node>
	<node id="-737857" lat="68.7437305537" lon="17.7939361014">
		<tag k="name" v="Myrelva" />
		<tag k="name:no" v="Myrelva" />
		<tag k="ssr:stedsnr" v="604275" />
		<tag k="waterway" v="stream" />
	</node>
	<node id="-737341" lat="68.812994441" lon="17.8495472233">
		<tag k="name" v="Fjellelva" />
		<tag k="name:no" v="Fjellelva" />
		<tag k="ssr:stedsnr" v="56215" />
		<tag k="waterway" v="stream" />
	</node>
	<node id="-737339" lat="68.703047224" lon="18.0004027732">
		<tag k="name" v="Storbekken" />
		<tag k="name:no" v="Storbekken" />
		<tag k="ssr:stedsnr" v="299818" />
		<tag k="waterway" v="stream" />
	</node>
	<node id="-737336" lat="68.7241861075" lon="17.8628194476">
		<tag k="name" v="Doaresjohka - Tverrelva" />
		<tag k="name:no" v="Tverrelva" />
		<tag k="name:se" v="Doaresjohka" />
		<tag k="ssr:stedsnr" v="299734" />
		<tag k="waterway" v="stream" />
	</node>
	<node id="-737333" lat="68.6794027764" lon="17.9524305573">
		<tag k="name" v="Jordbrubekken" />
		<tag k="name:no" v="Jordbrubekken" />
		<tag k="ssr:stedsnr" v="299713" />
		<tag k="waterway" v="stream" />
	</node>
	<node id="-737838" lat="68.7386305589" lon="17.7995527824">
		<tag k="name" v="Blåstranda" />
		<tag k="name:no" v="Blåstranda" />
		<tag k="natural" v="beach" />
		<tag k="ssr:stedsnr" v="602460" />
	</node>
	<node id="-737324" lat="68.7506611097" lon="17.8113110978">
		<tag k="name" v="Leirholman" />
		<tag k="name:no" v="Leirholman" />
		<tag k="natural" v="cape" />
		<tag k="ssr:stedsnr" v="299489" />
	</node>
	<node id="-737834" lat="68.7966666628" lon="17.4857722237">
		<tag k="name" v="Holmen" />
		<tag k="name:no" v="Holmen" />
		<tag k="place" v="islet" />
		<tag k="ssr:stedsnr" v="602208" />
	</node>
	<node id="-737319" lat="68.8056083327" lon="17.8171694304">
		<tag k="name" v="Stornavarselva" />
		<tag k="name:no" v="Stornavarselva" />
		<tag k="ssr:stedsnr" v="299424" />
		<tag k="waterway" v="stream" />
	</node>
	<node id="-737825" lat="68.7600111106" lon="17.7263666539">
		<tag k="name" v="Sandneselva" />
		<tag k="name:no" v="Sandneselva" />
		<tag k="ssr:stedsnr" v="563772" />
		<tag k="waterway" v="river" />
	</node>
	<node id="-737823" lat="68.7695416705" lon="17.7365222233">
		<tag k="alt_name:no" v="Gårdelva, store" />
		<tag k="fixme" v="multiple name tags, choose one and add the other to alt_name" />
		<tag k="name" v="Gårdselva;Store Gårdelva" />
		<tag k="name:no" v="Gårdselva;Store Gårdelva" />
		<tag k="ssr:stedsnr" v="563762" />
		<tag k="waterway" v="stream" />
	</node>
	<node id="-737822" lat="68.7814222218" lon="17.8183944318">
		<tag k="name" v="Soløyelva" />
		<tag k="name:no" v="Soløyelva" />
		<tag k="ssr:stedsnr" v="563753" />
		<tag k="waterway" v="stream" />
	</node>
	<node id="-737818" lat="68.7178805531" lon="17.8884277646">
		<tag k="name" v="Gihttejohka" />
		<tag k="name:se" v="Gihttejohka" />
		<tag k="ssr:stedsnr" v="563614" />
		<tag k="waterway" v="stream" />
	</node>
	<node id="-737540" lat="68.6936250025" lon="18.0065166682">
		<tag k="name" v="Styggedalsbekken" />
		<tag k="name:no" v="Styggedalsbekken" />
		<tag k="ssr:stedsnr" v="138377" />
		<tag k="waterway" v="stream" />
	</node>
	<node id="-737811" lat="68.64051389" lon="17.9235666615">
		<tag k="name" v="Tverrelva" />
		<tag k="name:no" v="Tverrelva" />
		<tag k="ssr:stedsnr" v="543594" />
		<tag k="waterway" v="stream" />
	</node>
	<node id="-737807" lat="68.6720583289" lon="17.9544694485">
		<tag k="name" v="Jordbekken" />
		<tag k="name:no" v="Jordbekken" />
		<tag k="ssr:stedsnr" v="543520" />
		<tag k="waterway" v="stream" />
	</node>
</osm>
