<?xml version="1.0" encoding="UTF-8"?>
<osm generator="osmapis" version="0.6">
	<node id="-189948" lat="59.6336472193" lon="10.4764444528">
		<tag k="name" v="Rokkestadbukta" />
		<tag k="natural" v="bay" />
		<tag k="ssr:stedsnr" v="362546" />
	</node>
	<node id="-190451" lat="59.6683638894" lon="10.5277888857">
		<tag k="name" v="Slingrebekk" />
		<tag k="ssr:stedsnr" v="604940" />
		<tag k="waterway" v="stream" />
	</node>
	<node id="-190447" lat="59.6857000033" lon="10.51833055">
		<tag k="name" v="Mellomdammen" />
		<tag k="natural" v="water" />
		<tag k="ssr:stedsnr" v="604302" />
	</node>
	<node id="-190446" lat="59.6442416676" lon="10.4829416652">
		<tag k="name" v="Djupebukt" />
		<tag k="natural" v="bay" />
		<tag k="ssr:stedsnr" v="603281" />
	</node>
	<node id="-190445" lat="59.6687996935" lon="10.4785018032">
		<tag k="name" v="Indianervannet" />
		<tag k="natural" v="water" />
		<tag k="ssr:stedsnr" v="603257" />
	</node>
	<node id="-189928" lat="59.61749167" lon="10.5456333253">
		<tag k="name" v="Prestebukta" />
		<tag k="natural" v="bay" />
		<tag k="ssr:stedsnr" v="237517" />
	</node>
	<node id="-189925" lat="59.659311109" lon="10.5137111043">
		<tag k="name" v="Nordbukt" />
		<tag k="natural" v="bay" />
		<tag k="ssr:stedsnr" v="358855" />
	</node>
	<node id="-190426" lat="59.5363388847" lon="10.466369447">
		<tag k="alt_name" v="Knatvoldbekken" />
		<tag k="name" v="Knattvollbekken" />
		<tag k="ssr:stedsnr" v="587181" />
		<tag k="waterway" v="river" />
	</node>
	<node id="-190411" lat="59.6516861066" lon="10.4890888968">
		<tag k="name" v="Lille Sandungen" />
		<tag k="natural" v="water" />
		<tag k="ssr:stedsnr" v="550829" />
	</node>
	<node id="-190409" lat="59.5572277762" lon="10.5409249977">
		<tag k="name" v="Striglevannet" />
		<tag k="natural" v="water" />
		<tag k="ssr:stedsnr" v="549673" />
	</node>
	<node id="-190796" lat="59.5968027767" lon="10.5596722192">
		<tag k="name" v="Svartvann" />
		<tag k="natural" v="water" />
		<tag k="ssr:stedsnr" v="952701" />
	</node>
	<node id="-189892" lat="59.6288527784" lon="10.5593499958">
		<tag k="name" v="Svartvann" />
		<tag k="natural" v="water" />
		<tag k="ssr:stedsnr" v="423653" />
	</node>
	<node id="-189889" lat="59.6327388846" lon="10.5127694467">
		<tag k="name" v="Åsvannet" />
		<tag k="natural" v="water" />
		<tag k="ssr:stedsnr" v="307693" />
	</node>
	<node id="-189885" lat="59.5970838259" lon="10.5387445636">
		<tag k="name" v="Røsvannet" />
		<tag k="natural" v="water" />
		<tag k="ssr:stedsnr" v="306721" />
	</node>
	<node id="-189884" lat="59.5820222259" lon="10.4860055536">
		<tag k="name" v="Rødbyvannet" />
		<tag k="natural" v="water" />
		<tag k="ssr:stedsnr" v="306718" />
		<tag k="water" v="lake" />
	</node>
	<node id="-189883" lat="59.5870333309" lon="10.5257972297">
		<tag k="name" v="Nordvestvannet" />
		<tag k="natural" v="water" />
		<tag k="ssr:stedsnr" v="306715" />
	</node>
	<node id="-189879" lat="59.6268061067" lon="10.5414838329">
		<tag k="name" v="Ausene" />
		<tag k="natural" v="water" />
		<tag k="ssr:stedsnr" v="306634" />
	</node>
	<node id="-190388" lat="59.6476694489" lon="10.4689166603">
		<tag k="name" v="Svartebekk" />
		<tag k="ssr:stedsnr" v="543298" />
		<tag k="waterway" v="stream" />
	</node>
	<node id="-189875" lat="59.6429249998" lon="10.562449998">
		<tag k="name" v="Raubekken" />
		<tag k="ssr:stedsnr" v="302382" />
		<tag k="waterway" v="stream" />
	</node>
	<node id="-190378" lat="59.5766388877" lon="10.5192388897">
		<tag k="name" v="Bunntjern" />
		<tag k="natural" v="water" />
		<tag k="ssr:stedsnr" v="527645" />
		<tag k="water" v="pond" />
	</node>
	<node id="-189864" lat="59.6866138915" lon="10.5208055515">
		<tag k="name" v="Nedredammen" />
		<tag k="natural" v="water" />
		<tag k="ssr:stedsnr" v="301272" />
	</node>
	<node id="-190021" lat="59.6453694471" lon="10.4613805608">
		<tag k="name" v="Svartekulp" />
		<tag k="natural" v="water" />
		<tag k="ssr:stedsnr" v="4849" />
	</node>
	<node id="-189934" lat="59.6539555562" lon="10.4446861067">
		<tag k="name" v="Flaubekken" />
		<tag k="ssr:stedsnr" v="361320" />
		<tag k="waterway" v="stream" />
	</node>
	<node id="-189840" lat="59.6655999979" lon="10.5932055539">
		<tag k="name" v="Nesdammen" />
		<tag k="natural" v="water" />
		<tag k="ssr:stedsnr" v="285328" />
	</node>
	<node id="-189839" lat="59.6416611105" lon="10.5876000065">
		<tag k="name" v="Sundbydammen" />
		<tag k="natural" v="water" />
		<tag k="ssr:stedsnr" v="285325" />
	</node>
	<node id="-189933" lat="59.6622145573" lon="10.4855439401">
		<tag k="alt_name" v="Skoklevann s." />
		<tag k="name" v="Søndre Skoklevann" />
		<tag k="natural" v="water" />
		<tag k="ssr:stedsnr" v="361315" />
	</node>
	<node id="-189836" lat="59.5744527789" lon="10.496761112">
		<tag k="name" v="Kastebekken" />
		<tag k="ssr:stedsnr" v="283672" />
		<tag k="waterway" v="stream" />
	</node>
	<node id="-189825" lat="59.6667333364" lon="10.5103527806">
		<tag k="name" v="Nordre Mørkvannet" />
		<tag k="natural" v="water" />
		<tag k="ssr:stedsnr" v="282765" />
	</node>
	<node id="-190333" lat="59.5497472204" lon="10.5673694496">
		<tag k="name" v="Tofteelva" />
		<tag k="ssr:stedsnr" v="483642" />
		<tag k="waterway" v="river" />
	</node>
	<node id="-190328" lat="59.6668361147" lon="10.5123277758">
		<tag k="alt_name" v="Brendte holmen" />
		<tag k="name" v="Brendteholmen" />
		<tag k="place" v="islet" />
		<tag k="ssr:stedsnr" v="483340" />
	</node>
	<node id="-190326" lat="59.658326532" lon="10.4592560476">
		<tag k="name" v="Pissborovann" />
		<tag k="natural" v="water" />
		<tag k="ssr:stedsnr" v="482258" />
	</node>
	<node id="-190440" lat="59.6046000037" lon="10.5533361121">
		<tag k="name" v="Fjellfiske" />
		<tag k="natural" v="water" />
		<tag k="ssr:stedsnr" v="588758" />
	</node>
	<node id="-190315" lat="59.5934750037" lon="10.5233111036">
		<tag k="name" v="Pæletangen" />
		<tag k="natural" v="cape" />
		<tag k="ssr:stedsnr" v="466698" />
	</node>
	<node id="-190312" lat="59.5766555565" lon="10.5300222291">
		<tag k="name" v="Kjellerbekken" />
		<tag k="ssr:stedsnr" v="466669" />
		<tag k="waterway" v="stream" />
	</node>
	<node id="-190822" lat="59.6363305549" lon="10.4899555628">
		<tag k="name" v="Tjærovnstangen" />
		<tag k="natural" v="cape" />
		<tag k="ssr:stedsnr" v="969556" />
	</node>
	<node id="-190819" lat="59.6629861142" lon="10.5151722214">
		<tag k="name" v="Skogholmen" />
		<tag k="place" v="islet" />
		<tag k="ssr:stedsnr" v="969328" />
	</node>
	<node id="-190817" lat="59.6859333365" lon="10.5160666606">
		<tag k="name" v="Øvredammen" />
		<tag k="natural" v="water" />
		<tag k="ssr:stedsnr" v="969295" />
	</node>
	<node id="-190352" lat="59.6717297611" lon="10.4634316811">
		<tag k="name" v="Kuvannene" />
		<tag k="natural" v="water" />
		<tag k="ssr:stedsnr" v="489860" />
	</node>
	<node id="-190351" lat="59.6635865604" lon="10.4882135888">
		<tag k="name" v="Skoklevanna" />
		<tag k="natural" v="water" />
		<tag k="ssr:stedsnr" v="489859" />
		<tag k="water" v="lake" />
	</node>
	<node id="-190806" lat="59.6189333311" lon="10.507372221">
		<tag k="name" v="Bjørnebåsvann" />
		<tag k="natural" v="water" />
		<tag k="ssr:stedsnr" v="965569" />
	</node>
	<node id="-190804" lat="59.6432333333" lon="10.4864638837">
		<tag k="name" v="Kvernbukt" />
		<tag k="natural" v="bay" />
		<tag k="ssr:stedsnr" v="967256" />
	</node>
	<node id="-190798" lat="59.6056472239" lon="10.5903666752">
		<tag k="name" v="Linnavannet" />
		<tag k="natural" v="water" />
		<tag k="ssr:stedsnr" v="952709" />
	</node>
	<node id="-190284" lat="59.6126472227" lon="10.5617888954">
		<tag k="name" v="Lille Husebyvannet" />
		<tag k="natural" v="water" />
		<tag k="ssr:stedsnr" v="428618" />
	</node>
	<node id="-190519" lat="59.6217805569" lon="10.5153000009">
		<tag k="name" v="Skavmyrvannet" />
		<tag k="natural" v="water" />
		<tag k="ssr:stedsnr" v="670648" />
	</node>
	<node id="-190275" lat="59.6335833362" lon="10.4883249981">
		<tag k="name" v="Semsbukta" />
		<tag k="natural" v="bay" />
		<tag k="ssr:stedsnr" v="423582" />
	</node>
	<node id="-190772" lat="59.647805731" lon="10.4765907557">
		<tag k="name" v="Sandungen" />
		<tag k="natural" v="water" />
		<tag k="ssr:stedsnr" v="914824" />
		<tag k="water" v="lake" />
	</node>
	<node id="-190771" lat="59.6579777793" lon="10.5204472218">
		<tag k="name" v="Mørkvannet" />
		<tag k="natural" v="water" />
		<tag k="ssr:stedsnr" v="914813" />
		<tag k="water" v="lake" />
	</node>
	<node id="-190770" lat="59.6089722266" lon="10.5276611179">
		<tag k="name" v="Rødvannet" />
		<tag k="natural" v="water" />
		<tag k="ssr:stedsnr" v="914654" />
		<tag k="water" v="lake" />
	</node>
	<node id="-190259" lat="59.6411305551" lon="10.4693111091">
		<tag k="name" v="Svartvann" />
		<tag k="natural" v="water" />
		<tag k="ssr:stedsnr" v="246824" />
	</node>
	<node id="-190256" lat="59.6339666699" lon="10.5268277831">
		<tag k="name" v="Ålbyvannet" />
		<tag k="natural" v="water" />
		<tag k="ssr:stedsnr" v="246642" />
	</node>
	<node id="-190765" lat="59.6198666657" lon="10.5248916736">
		<tag k="name" v="Sæterpytten" />
		<tag k="natural" v="water" />
		<tag k="ssr:stedsnr" v="913631" />
	</node>
	<node id="-190249" lat="59.5920805596" lon="10.5286361054">
		<tag k="name" v="Langvann" />
		<tag k="natural" v="water" />
		<tag k="ssr:stedsnr" v="245716" />
		<tag k="water" v="lake" />
	</node>
	<node id="-190245" lat="59.6213083312" lon="10.5794611116">
		<tag k="name" v="Svartvann" />
		<tag k="natural" v="water" />
		<tag k="ssr:stedsnr" v="241618" />
	</node>
	<node id="-190749" lat="59.6731694479" lon="10.5354833336">
		<tag k="name" v="Langsethdammen" />
		<tag k="natural" v="water" />
		<tag k="ssr:stedsnr" v="908321" />
	</node>
	<node id="-190236" lat="59.6297666645" lon="10.518144444">
		<tag k="name" v="Småvannene" />
		<tag k="natural" v="water" />
		<tag k="ssr:stedsnr" v="237887" />
		<tag k="water" v="lake" />
	</node>
	<node id="-190744" lat="59.5696861094" lon="10.4839972226">
		<tag k="name" v="Vassenga" />
		<tag k="natural" v="bay" />
		<tag k="ssr:stedsnr" v="907210" />
	</node>
	<node id="-190741" lat="59.6352444452" lon="10.5662611182">
		<tag k="name" v="Sandbruvann" />
		<tag k="natural" v="water" />
		<tag k="ssr:stedsnr" v="905538" />
	</node>
	<node id="-190224" lat="59.5976055583" lon="10.5070388967">
		<tag k="name" v="Bergervann" />
		<tag k="natural" v="water" />
		<tag k="ssr:stedsnr" v="224601" />
		<tag k="water" v="pond" />
	</node>
	<node id="-190215" lat="59.5539388846" lon="10.5380138955">
		<tag k="name" v="Skogtjern" />
		<tag k="natural" v="water" />
		<tag k="ssr:stedsnr" v="222521" />
	</node>
	<node id="-190714" lat="59.6591722247" lon="10.5585555557">
		<tag k="name" v="Storkleivdammen" />
		<tag k="natural" v="water" />
		<tag k="ssr:stedsnr" v="848360" />
	</node>
	<node id="-190201" lat="59.6374754754" lon="10.556525823">
		<tag k="name" v="Svartvann" />
		<tag k="natural" v="water" />
		<tag k="ssr:stedsnr" v="185830" />
	</node>
	<node id="-190199" lat="59.5935638918" lon="10.5327027788">
		<tag k="name" v="Blankvann" />
		<tag k="natural" v="bay" />
		<tag k="ssr:stedsnr" v="185721" />
	</node>
	<node id="-190197" lat="59.5537273194" lon="10.5524048941">
		<tag k="name" v="Barlindvannet" />
		<tag k="natural" v="water" />
		<tag k="ssr:stedsnr" v="185650" />
		<tag k="water" v="lake" />
	</node>
	<node id="-190190" lat="59.565933953" lon="10.5138863246">
		<tag k="name" v="Lomvannet" />
		<tag k="natural" v="water" />
		<tag k="ssr:stedsnr" v="185673" />
	</node>
	<node id="-190692" lat="59.5995805519" lon="10.569227774">
		<tag k="name" v="Steindamspyttene" />
		<tag k="natural" v="water" />
		<tag k="ssr:stedsnr" v="831681" />
		<tag k="water" v="lake" />
	</node>
	<node id="-190690" lat="59.5906388894" lon="10.5590138861">
		<tag k="alt_name" v="Røedseterpytten" />
		<tag k="name" v="Rødseterpytten" />
		<tag k="natural" v="water" />
		<tag k="ssr:stedsnr" v="831614" />
		<tag k="water" v="pond" />
	</node>
	<node id="-190173" lat="59.6400083308" lon="10.5308833244">
		<tag k="name" v="Stikkvannsbekken" />
		<tag k="ssr:stedsnr" v="176858" />
		<tag k="waterway" v="stream" />
	</node>
	<node id="-190172" lat="59.6453194422" lon="10.5330944456">
		<tag k="alt_name" v="Stikkvann lille" />
		<tag k="name" v="Lille-Stikkvann" />
		<tag k="natural" v="water" />
		<tag k="ssr:stedsnr" v="176856" />
	</node>
	<node id="-190672" lat="59.6456972233" lon="10.5611444384">
		<tag k="name" v="Hesthagadammen" />
		<tag k="natural" v="water" />
		<tag k="ssr:stedsnr" v="793835" />
	</node>
	<node id="-190671" lat="59.6661396278" lon="10.5649016746">
		<tag k="name" v="Verpentjerna" />
		<tag k="natural" v="water" />
		<tag k="ssr:stedsnr" v="792844" />
		<tag k="water" v="lake" />
	</node>
	<node id="-190668" lat="59.5799361107" lon="10.4955777712">
		<tag k="name" v="Svartvann" />
		<tag k="natural" v="water" />
		<tag k="ssr:stedsnr" v="792711" />
	</node>
	<node id="-190152" lat="59.6682684908" lon="10.5476789054">
		<tag k="name" v="Bråtadammen" />
		<tag k="natural" v="water" />
		<tag k="ssr:stedsnr" v="161308" />
	</node>
	<node id="-190662" lat="59.6166427707" lon="10.5465086028">
		<tag k="name" v="Aklangen" />
		<tag k="natural" v="water" />
		<tag k="ssr:stedsnr" v="792626" />
		<tag k="water" v="lake" />
	</node>
	<node id="-190145" lat="59.644169444" lon="10.5991638902">
		<tag k="name" v="Buabekken" />
		<tag k="ssr:stedsnr" v="145896" />
		<tag k="waterway" v="stream" />
	</node>
	<node id="-190143" lat="59.6736527802" lon="10.5185472307">
		<tag k="alt_name" v="Sætreelven" />
		<tag k="name" v="Sætreelva" />
		<tag k="ssr:stedsnr" v="125868" />
		<tag k="waterway" v="stream" />
	</node>
	<node id="-190142" lat="59.6711055598" lon="10.4947111057">
		<tag k="name" v="Bjørvann" />
		<tag k="natural" v="water" />
		<tag k="old_name" v="Bjorvatn;Bjorvann" />
		<tag k="ssr:stedsnr" v="125861" />
	</node>
	<node id="-190651" lat="59.6289111133" lon="10.5745861119">
		<tag k="name" v="Burudvann" />
		<tag k="natural" v="water" />
		<tag k="ssr:stedsnr" v="787636" />
	</node>
	<node id="-190135" lat="59.6320055518" lon="10.5332305506">
		<tag k="name" v="Stikkvannet" />
		<tag k="natural" v="water" />
		<tag k="ssr:stedsnr" v="124613" />
	</node>
	<node id="-190642" lat="59.5470222236" lon="10.5539749959">
		<tag k="name" v="Diamanten" />
		<tag k="natural" v="water" />
		<tag k="ssr:stedsnr" v="786634" />
	</node>
	<node id="-190641" lat="59.6529544728" lon="10.4849839186">
		<tag k="name" v="Vestre Stutøye" />
		<tag k="natural" v="water" />
		<tag k="ssr:stedsnr" v="786298" />
	</node>
	<node id="-190639" lat="59.663834055" lon="10.4868212308">
		<tag k="alt_name" v="Skoklevann m." />
		<tag k="name" v="Midtre Skoklevann" />
		<tag k="natural" v="water" />
		<tag k="ssr:stedsnr" v="786282" />
	</node>
	<node id="-190123" lat="59.6665679249" lon="10.4869130879">
		<tag k="alt_name" v="Skoklevann n." />
		<tag k="name" v="Nordre Skoklevann" />
		<tag k="natural" v="water" />
		<tag k="ssr:stedsnr" v="118262" />
	</node>
	<node id="-190626" lat="59.5754749997" lon="10.5450166699">
		<tag k="name" v="Åsstrøket" />
		<tag k="natural" v="cape" />
		<tag k="ssr:stedsnr" v="770628" />
	</node>
	<node id="-190616" lat="59.6429333359" lon="10.5909083351">
		<tag k="alt_name" v="Sundbydammen nedre" />
		<tag k="name" v="Nedre Sundbydammen" />
		<tag k="natural" v="water" />
		<tag k="ssr:stedsnr" v="770313" />
	</node>
	<node id="-190088" lat="59.6641166694" lon="10.4813638814">
		<tag k="name" v="Nåbyvann" />
		<tag k="natural" v="water" />
		<tag k="ssr:stedsnr" v="65813" />
	</node>
	<node id="-190087" lat="59.6695444402" lon="10.4491166617">
		<tag k="name" v="Rørvikvannet" />
		<tag k="natural" v="water" />
		<tag k="ssr:stedsnr" v="64879" />
	</node>
	<node id="-190080" lat="59.6288059383" lon="10.5749093071">
		<tag k="name" v="Burevannet" />
		<tag k="natural" v="water" />
		<tag k="ssr:stedsnr" v="64672" />
	</node>
	<node id="-190591" lat="59.6492805582" lon="10.4602527695">
		<tag k="alt_name" v="Høgåstjern" />
		<tag k="name" v="Høgåstjernet" />
		<tag k="natural" v="water" />
		<tag k="ssr:stedsnr" v="732825" />
	</node>
	<node id="-190588" lat="59.6431416628" lon="10.5307194401">
		<tag k="name" v="Lille Stikkvannet" />
		<tag k="natural" v="water" />
		<tag k="ssr:stedsnr" v="731832" />
	</node>
	<node id="-190074" lat="59.5942138881" lon="10.5191805514">
		<tag k="name" v="Surtingen" />
		<tag k="natural" v="bay" />
		<tag k="ssr:stedsnr" v="63734" />
	</node>
	<node id="-190073" lat="59.5839527802" lon="10.4457444414">
		<tag k="name" v="Himmelvannet" />
		<tag k="natural" v="water" />
		<tag k="ssr:stedsnr" v="63729" />
	</node>
	<node id="-190066" lat="59.6612833352" lon="10.5149166681">
		<tag k="name" v="Ringeriksholmen" />
		<tag k="place" v="islet" />
		<tag k="ssr:stedsnr" v="59321" />
	</node>
	<node id="-190572" lat="59.6601027754" lon="10.4573750031">
		<tag k="name" v="Eggetjern" />
		<tag k="natural" v="water" />
		<tag k="ssr:stedsnr" v="725272" />
	</node>
	<node id="-190571" lat="59.661986107" lon="10.4664916603">
		<tag k="name" v="Høymyrbukt" />
		<tag k="natural" v="bay" />
		<tag k="ssr:stedsnr" v="725268" />
	</node>
	<node id="-190139" lat="59.6411055533" lon="10.5530361046">
		<tag k="name" v="Båntjern" />
		<tag k="natural" v="water" />
		<tag k="ssr:stedsnr" v="124817" />
	</node>
	<node id="-190045" lat="59.5963138885" lon="10.5712194515">
		<tag k="name" v="Storkelmyrvannet" />
		<tag k="natural" v="water" />
		<tag k="ssr:stedsnr" v="42678" />
	</node>
	<node id="-190038" lat="59.5606583321" lon="10.5476638824">
		<tag k="alt_name" v="Striglevann lille" />
		<tag k="name" v="Lille-Striglevann" />
		<tag k="natural" v="water" />
		<tag k="ssr:stedsnr" v="40581" />
	</node>
	<node id="-190542" lat="59.5654555551" lon="10.5176361139">
		<tag k="name" v="Mørketopytten" />
		<tag k="natural" v="water" />
		<tag k="ssr:stedsnr" v="708599" />
	</node>
	<node id="-190561" lat="59.6510749965" lon="10.5339944426">
		<tag k="name" v="Midtskogvann" />
		<tag k="natural" v="water" />
		<tag k="ssr:stedsnr" v="723848" />
	</node>
	<node id="-190018" lat="59.5905679238" lon="10.4561971845">
		<tag k="name" v="Svartvann" />
		<tag k="natural" v="water" />
		<tag k="ssr:stedsnr" v="3724" />
	</node>
	<node id="-190017" lat="59.5761632888" lon="10.5389591468">
		<tag k="name" v="Røskestadvannet" />
		<tag k="natural" v="water" />
		<tag k="ssr:stedsnr" v="3704" />
		<tag k="water" v="lake" />
	</node>
	<node id="-190524" lat="59.6077249147" lon="10.5637680798">
		<tag k="name" v="Husebyvannet" />
		<tag k="natural" v="water" />
		<tag k="ssr:stedsnr" v="731587" />
		<tag k="water" v="lake" />
	</node>
	<node id="-190007" lat="59.6669897608" lon="10.5636722452">
		<tag k="name" v="Verpentjernet" />
		<tag k="natural" v="water" />
		<tag k="ssr:stedsnr" v="985675" />
	</node>
	<node id="-190006" lat="59.6650678757" lon="10.5662771224">
		<tag k="name" v="Øvre Verpentjernet" />
		<tag k="natural" v="water" />
		<tag k="ssr:stedsnr" v="985674" />
	</node>
	<node id="-190513" lat="59.6747527784" lon="10.5025638939">
		<tag k="name" v="Kalvetjern" />
		<tag k="natural" v="water" />
		<tag k="ssr:stedsnr" v="665364" />
	</node>
	<node id="-190512" lat="59.6681750029" lon="10.4958249995">
		<tag k="name" v="Langbukta" />
		<tag k="natural" v="bay" />
		<tag k="ssr:stedsnr" v="665365" />
	</node>
	<node id="-190510" lat="59.6742361074" lon="10.5370944425">
		<tag k="name" v="Grytnesbekken" />
		<tag k="ssr:stedsnr" v="665348" />
		<tag k="waterway" v="stream" />
	</node>
	<node id="-190503" lat="59.6297916637" lon="10.5382916708">
		<tag k="name" v="Ausebekken" />
		<tag k="ssr:stedsnr" v="662891" />
		<tag k="waterway" v="stream" />
	</node>
	<node id="-190496" lat="59.5780472182" lon="10.5385138911">
		<tag k="name" v="Røskestad" />
		<tag k="natural" v="cape" />
		<tag k="ssr:stedsnr" v="648658" />
	</node>
	<node id="-189979" lat="59.5880555581" lon="10.5335861197">
		<tag k="name" v="Kapteinvika" />
		<tag k="natural" v="bay" />
		<tag k="ssr:stedsnr" v="406642" />
	</node>
	<node id="-189977" lat="59.6144916659" lon="10.5023527701">
		<tag k="alt_name" v="Klopptjern lille" />
		<tag k="name" v="Lille Klopptjern" />
		<tag k="natural" v="water" />
		<tag k="ssr:stedsnr" v="406632" />
	</node>
	<node id="-190465" lat="59.6153805516" lon="10.4975527758">
		<tag k="alt_name" v="Klopptjern" />
		<tag k="name" v="Klopptjernet" />
		<tag k="natural" v="water" />
		<tag k="ssr:stedsnr" v="610672" />
	</node>
	<node id="-190467" lat="59.6474194009" lon="10.4863792646">
		<tag k="alt_name" v="Damtjern" />
		<tag k="name" v="Damtjernet" />
		<tag k="natural" v="water" />
		<tag k="ssr:stedsnr" v="610844" />
	</node>
	<node id="-190466" lat="59.6175027774" lon="10.4788694506">
		<tag k="alt_name" v="Ugstadelva" />
		<tag k="name" v="Ustadelva" />
		<tag k="ssr:stedsnr" v="610674" />
		<tag k="waterway" v="stream" />
	</node>
	<node id="-190635" lat="59.6518944427" lon="10.4924194464">
		<tag k="name" v="Østre Stutøye" />
		<tag k="natural" v="water" />
		<tag k="ssr:stedsnr" v="783874" />
	</node>
</osm>
