<?xml version="1.0" encoding="UTF-8"?>
<osm generator="osmapis" version="0.6">
	<node id="-190238" lat="59.6619861119" lon="10.4567638822">
		<tag k="name" v="RÃ¸ykebu" />
		<tag k="place" v="locality" />
		<tag k="ssr:stedsnr" v="239272" />
	</node>
	<node id="-190653" lat="59.6389722194" lon="10.5266666588">
		<tag k="name" v="Kanon" />
		<tag k="place" v="locality" />
		<tag k="ssr:stedsnr" v="787921" />
	</node>
	<node id="-190285" lat="59.6333166706" lon="10.4957750058">
		<tag k="alt_name" v="Holtebrek" />
		<tag k="amenity" v="community_centre" />
		<tag k="name" v="Holtebrekk" />
		<tag k="ssr:stedsnr" v="428654" />
	</node>
	<node id="-190386" lat="59.6206527762" lon="10.5728527782">
		<tag k="name" v="Isac Allal" />
		<tag k="ssr:stedsnr" v="527753" />
		<tag k="tourism" v="attraction" />
	</node>
	<node id="-190481" lat="59.6767444403" lon="10.4477083352">
		<tag k="name" v="Festningen" />
		<tag k="place" v="locality" />
		<tag k="ssr:stedsnr" v="646249" />
	</node>
	<node id="-190189" lat="59.5697055592" lon="10.5961249957">
		<tag k="alt_name" v="Filtvet;Filtvet kapell" />
		<tag k="amenity" v="place_of_worship" />
		<tag k="denomination" v="lutheran" />
		<tag k="name" v="Filtvet kirke" />
		<tag k="religion" v="christian" />
		<tag k="ssr:stedsnr" v="185672" />
	</node>
	<node id="-190722" lat="59.6146805581" lon="10.4591583396">
		<tag k="alt_name" v="Hurum" />
		<tag k="amenity" v="place_of_worship" />
		<tag k="denomination" v="lutheran" />
		<tag k="name" v="Hurum kirke" />
		<tag k="religion" v="christian" />
		<tag k="ssr:stedsnr" v="853636" />
	</node>
	<node id="-190247" lat="59.658827775" lon="10.5376499914">
		<tag k="name" v="Hvilestein" />
		<tag k="place" v="locality" />
		<tag k="ssr:stedsnr" v="241935" />
	</node>
	<node id="-190598" lat="59.5574861111" lon="10.432763888">
		<tag k="name" v="Havna" />
		<tag k="place" v="locality" />
		<tag k="ssr:stedsnr" v="766146" />
	</node>
	<node id="-189891" lat="59.6708944413" lon="10.5551555528">
		<tag k="alt_name" v="Kongsdelene;Kongsdelene kapell" />
		<tag k="amenity" v="place_of_worship" />
		<tag k="denomination" v="lutheran" />
		<tag k="name" v="Kongsdelene kirke" />
		<tag k="religion" v="christian" />
		<tag k="ssr:stedsnr" v="307867" />
	</node>
	<node id="-190082" lat="59.5568583331" lon="10.4366833313">
		<tag k="alt_name" v="Holmsbu;Holmsbu kapell" />
		<tag k="amenity" v="place_of_worship" />
		<tag k="denomination" v="lutheran" />
		<tag k="name" v="Holmsbu kirke" />
		<tag k="religion" v="christian" />
		<tag k="ssr:stedsnr" v="64701" />
	</node>
</osm>
