<?xml version="1.0" encoding="UTF-8"?>
<osm generator="osmapis" version="0.6">
	<node id="-190335" lat="59.5414166645" lon="10.4539611034">
		<tag k="man_made" v="cairn" />
		<tag k="name" v="Varden" />
		<tag k="place" v="locality" />
		<tag k="ssr:stedsnr" v="484082" />
	</node>
	<node id="-190713" lat="59.6828250024" lon="10.5300638916">
		<tag k="man_made" v="quay" />
		<tag k="name" v="Sætre brygge" />
		<tag k="place" v="locality" />
		<tag k="ssr:stedsnr" v="848327" />
	</node>
	<node id="-190580" lat="59.5414166709" lon="10.5203583297">
		<tag k="bridge" v="yes" />
		<tag k="layer" v="1" />
		<tag k="name" v="Hyttefoss" />
		<tag k="ssr:stedsnr" v="726659" />
	</node>
	<node id="-189939" lat="59.5429472254" lon="10.5642388849">
		<tag k="leisure" v="marina" />
		<tag k="name" v="Tofte båthavn" />
		<tag k="ssr:stedsnr" v="362626" />
	</node>
	<node id="-190320" lat="59.5414527799" lon="10.5203611063">
		<tag k="bridge" v="yes" />
		<tag k="layer" v="1" />
		<tag k="name" v="Sagene" />
		<tag k="ssr:stedsnr" v="471578" />
	</node>
	<node id="-190701" lat="59.6023111074" lon="10.5133250011">
		<tag k="fixme" v="verify maritime location" />
		<tag k="mooring" v="yes" />
		<tag k="name" v="Pramsted" />
		<tag k="place" v="locality" />
		<tag k="ssr:stedsnr" v="831592" />
	</node>
	<node id="-190828" lat="59.6126295867" lon="10.4128532361">
		<tag k="amenity" v="ferry_terminal" />
		<tag k="name" v="Verket ferjekai" />
		<tag k="ssr:stedsnr" v="978665" />
	</node>
	<node id="-190441" lat="59.6683361129" lon="10.5231805584">
		<tag k="bridge" v="yes" />
		<tag k="layer" v="1" />
		<tag k="name" v="Sætreelva" />
		<tag k="ssr:stedsnr" v="592615" />
	</node>
	<node id="-190499" lat="59.6650083327" lon="10.5567388844">
		<tag k="layer" v="-1" />
		<tag k="name" v="Merraskott" />
		<tag k="ssr:stedsnr" v="650314" />
		<tag k="tunnel" v="yes" />
	</node>
	<node id="-189924" lat="59.6790611148" lon="10.5073055618">
		<tag k="bridge" v="yes" />
		<tag k="layer" v="1" />
		<tag k="name" v="Skatvedt" />
		<tag k="ssr:stedsnr" v="349627" />
	</node>
	<node id="-190051" lat="59.6643111083" lon="10.5647777742">
		<tag k="bridge" v="yes" />
		<tag k="layer" v="1" />
		<tag k="name" v="Verpenbrua" />
		<tag k="ssr:stedsnr" v="46626" />
	</node>
	<node id="-190559" lat="59.6374277797" lon="10.5033583247">
		<tag k="highway" v="path" />
		<tag k="name" v="Sandstien" />
		<tag k="ssr:stedsnr" v="723815" />
	</node>
	<node id="-190168" lat="59.6764305535" lon="10.5216361121">
		<tag k="bridge" v="yes" />
		<tag k="layer" v="1" />
		<tag k="name" v="Slingrebekk" />
		<tag k="ssr:stedsnr" v="168554" />
	</node>
	<node id="-190295" lat="59.6519833374" lon="10.6028888824">
		<tag k="fixme" v="verify maritime location" />
		<tag k="mooring" v="yes" />
		<tag k="name" v="Orestøa" />
		<tag k="place" v="locality" />
		<tag k="ssr:stedsnr" v="450898" />
	</node>
	<node id="-190294" lat="59.6138555522" lon="10.6111222239">
		<tag k="fixme" v="verify maritime location" />
		<tag k="mooring" v="yes" />
		<tag k="name" v="Eltornstøa" />
		<tag k="place" v="locality" />
		<tag k="ssr:stedsnr" v="449897" />
	</node>
	<node id="-190631" lat="59.6070111153" lon="10.6117888856">
		<tag k="bridge" v="yes" />
		<tag k="layer" v="1" />
		<tag k="name" v="Elton" />
		<tag k="ssr:stedsnr" v="774937" />
	</node>
	<node id="-190801" lat="59.6126971504" lon="10.4129275016">
		<tag k="bridge" v="yes" />
		<tag k="layer" v="1" />
		<tag k="name" v="Verketsrenna bru" />
		<tag k="ssr:stedsnr" v="957546" />
	</node>
	<node id="-190159" lat="59.6439249977" lon="10.5599250003">
		<tag k="highway" v="path" />
		<tag k="name" v="Sandstien" />
		<tag k="ssr:stedsnr" v="163323" />
	</node>
	<node id="-189900" lat="59.5970333373" lon="10.6153833288">
		<tag k="fixme" v="verify maritime location" />
		<tag k="mooring" v="yes" />
		<tag k="name" v="Solbergstøa" />
		<tag k="place" v="locality" />
		<tag k="ssr:stedsnr" v="328917" />
	</node>
	<node id="-190277" lat="59.5365722182" lon="10.5436777771">
		<tag k="leisure" v="marina" />
		<tag k="name" v="Sagene båthavn" />
		<tag k="ssr:stedsnr" v="423666" />
	</node>
	<node id="-190269" lat="59.6548361091" lon="10.4397194455">
		<tag k="highway" v="path" />
		<tag k="name" v="Fiskestien" />
		<tag k="ssr:stedsnr" v="422275" />
	</node>
	<node id="-190140" lat="59.6429249982" lon="10.6055083277">
		<tag k="man_made" v="quay" />
		<tag k="name" v="Storsand brygge" />
		<tag k="place" v="locality" />
		<tag k="ssr:stedsnr" v="124820" />
	</node>
	<node id="-190774" lat="59.6812916657" lon="10.5273833358">
		<tag k="junction" v="yes" />
		<tag k="name" v="Sætrekrysset" />
		<tag k="place" v="locality" />
		<tag k="ssr:stedsnr" v="926789" />
	</node>
	<node id="-190389" lat="59.6148444436" lon="10.6110638953">
		<tag k="fixme" v="verify maritime location" />
		<tag k="mooring" v="yes" />
		<tag k="name" v="Elgtornstøa" />
		<tag k="place" v="locality" />
		<tag k="ssr:stedsnr" v="543310" />
	</node>
	<node id="-189873" lat="59.5311722181" lon="10.4135055578">
		<tag k="man_made" v="quay" />
		<tag k="name" v="Rødtangen" />
		<tag k="place" v="locality" />
		<tag k="ssr:stedsnr" v="302152" />
	</node>
	<node id="-190508" lat="59.5741361086" lon="10.6178638825">
		<tag k="man_made" v="quay" />
		<tag k="name" v="Filtvet brygge" />
		<tag k="place" v="locality" />
		<tag k="ssr:stedsnr" v="664279" />
	</node>
	<node id="-190507" lat="59.5679627741" lon="10.6113873955">
		<tag k="man_made" v="breakwater" />
		<tag k="name" v="Filtvet molo" />
		<tag k="place" v="locality" />
		<tag k="ssr:stedsnr" v="664278" />
	</node>
	<node id="-190119" lat="59.5704638906" lon="10.5943666655">
		<tag k="bridge" v="yes" />
		<tag k="layer" v="1" />
		<tag k="name" v="Kapellbakken" />
		<tag k="ssr:stedsnr" v="107941" />
	</node>
	<node id="-189862" lat="59.5877472221" lon="10.6160194376">
		<tag k="fixme" v="verify maritime location" />
		<tag k="mooring" v="yes" />
		<tag k="name" v="Husebystrøa" />
		<tag k="place" v="locality" />
		<tag k="ssr:stedsnr" v="300326" />
	</node>
	<node id="-189861" lat="59.653250003" lon="10.4420472138">
		<tag k="fixme" v="consider highway=path" />
		<tag k="highway" v="track" />
		<tag k="name" v="Sagveien" />
		<tag k="ssr:stedsnr" v="300308" />
	</node>
	<node id="-189987" lat="59.5605444421" lon="10.4264361108">
		<tag k="leisure" v="marina" />
		<tag k="name" v="Holmsbu brygge" />
		<tag k="ssr:stedsnr" v="888123" />
	</node>
	<node id="-190114" lat="59.6650083327" lon="10.5567388844">
		<tag k="layer" v="-1" />
		<tag k="name" v="Merraskottunnelen" />
		<tag k="ssr:stedsnr" v="103674" />
		<tag k="tunnel" v="yes" />
	</node>
	<node id="-190113" lat="59.6648222235" lon="10.5400916648">
		<tag k="layer" v="-1" />
		<tag k="name" v="Stampeleinåstunnelen" />
		<tag k="ssr:stedsnr" v="103671" />
		<tag k="tunnel" v="yes" />
	</node>
	<node id="-189856" lat="59.6407583301" lon="10.517400007">
		<tag k="highway" v="path" />
		<tag k="name" v="Sandstien" />
		<tag k="ssr:stedsnr" v="298834" />
	</node>
	<node id="-190239" lat="59.5381930282" lon="10.5510011858">
		<tag k="man_made" v="quay" />
		<tag k="name" v="Tofte brygge" />
		<tag k="place" v="locality" />
		<tag k="ssr:stedsnr" v="240634" />
	</node>
	<node id="-190750" lat="59.6872000022" lon="10.52438334">
		<tag k="fixme" v="verify maritime location" />
		<tag k="mooring" v="yes" />
		<tag k="name" v="Støa" />
		<tag k="place" v="locality" />
		<tag k="ssr:stedsnr" v="908326" />
	</node>
	<node id="-189853" lat="59.5726833292" lon="10.6109138803">
		<tag k="bridge" v="yes" />
		<tag k="layer" v="1" />
		<tag k="name" v="Filtvedt" />
		<tag k="ssr:stedsnr" v="289956" />
	</node>
	<node id="-189852" lat="59.6648222235" lon="10.5400916648">
		<tag k="layer" v="-1" />
		<tag k="name" v="Stampeleinås" />
		<tag k="ssr:stedsnr" v="287743" />
		<tag k="tunnel" v="yes" />
	</node>
	<node id="-189842" lat="59.5879416645" lon="10.4489194392">
		<tag k="man_made" v="cairn" />
		<tag k="name" v="Steinvarden" />
		<tag k="place" v="locality" />
		<tag k="ssr:stedsnr" v="285478" />
	</node>
	<node id="-190736" lat="59.5435722184" lon="10.4146611158">
		<tag k="landuse" v="harbour" />
		<tag k="name" v="Blåbærhavna" />
		<tag k="seamark:type" v="harbour" />
		<tag k="ssr:stedsnr" v="878097" />
	</node>
	<node id="-190094" lat="59.6569833302" lon="10.607011113">
		<tag k="layer" v="-1" />
		<tag k="name" v="Oslofjordtunnelen" />
		<tag k="ssr:stedsnr" v="86382" />
		<tag k="tunnel" v="yes" />
	</node>
	<node id="-190476" lat="59.6455888904" lon="10.6035055479">
		<tag k="fixme" v="verify maritime location" />
		<tag k="mooring" v="yes" />
		<tag k="name" v="Sundbystøa" />
		<tag k="place" v="locality" />
		<tag k="ssr:stedsnr" v="631900" />
	</node>
	<node id="-190347" lat="59.5833777773" lon="10.6168861053">
		<tag k="landuse" v="harbour" />
		<tag k="name" v="Halvorshavn" />
		<tag k="seamark:type" v="harbour" />
		<tag k="ssr:stedsnr" v="488723" />
	</node>
</osm>
