<?xml version="1.0" encoding="UTF-8"?>
<osm generator="osmapis" version="0.6">
	<node id="-190462" lat="59.6174472251" lon="10.5524749966">
		<tag k="name" v="Ambrusmosen" />
		<tag k="natural" v="wetland" />
		<tag k="ssr:stedsnr" v="831700" />
	</node>
	<node id="-190461" lat="59.6060638888" lon="10.5237027734">
		<tag k="name" v="Skrikemyr" />
		<tag k="natural" v="wetland" />
		<tag k="ssr:stedsnr" v="831591" />
	</node>
	<node id="-190317" lat="59.6226833351" lon="10.5371500023">
		<tag k="name" v="Eriksmyr" />
		<tag k="natural" v="wetland" />
		<tag k="ssr:stedsnr" v="723508" />
	</node>
	<node id="-190458" lat="59.5946444457" lon="10.468250002">
		<tag k="name" v="Tveitamyra" />
		<tag k="natural" v="wetland" />
		<tag k="ssr:stedsnr" v="831476" />
	</node>
	<node id="-190453" lat="59.5571000014" lon="10.5439972192">
		<tag k="name" v="Grevlingmyra" />
		<tag k="natural" v="wetland" />
		<tag k="ssr:stedsnr" v="830581" />
	</node>
	<node id="-190450" lat="59.5762055589" lon="10.5115694449">
		<tag k="name" v="Prekestolmyra" />
		<tag k="natural" v="wetland" />
		<tag k="ssr:stedsnr" v="831635" />
	</node>
	<node id="-189934" lat="59.6625055513" lon="10.4905111126">
		<tag k="name" v="Rokkemyra" />
		<tag k="natural" v="wetland" />
		<tag k="ssr:stedsnr" v="179288" />
	</node>
	<node id="-189928" lat="59.6372138882" lon="10.5682888877">
		<tag k="alt_name" v="Svendsmyr søndre" />
		<tag k="name" v="Søndre Svendsmyr" />
		<tag k="natural" v="wetland" />
		<tag k="ssr:stedsnr" v="176468" />
	</node>
	<node id="-189925" lat="59.6020638934" lon="10.5529361071">
		<tag k="name" v="Merramyra" />
		<tag k="natural" v="wetland" />
		<tag k="ssr:stedsnr" v="163754" />
	</node>
	<node id="-189924" lat="59.6102361121" lon="10.5770611122">
		<tag k="name" v="Høymosen" />
		<tag k="natural" v="wetland" />
		<tag k="ssr:stedsnr" v="163741" />
	</node>
	<node id="-190411" lat="59.6283111131" lon="10.5894194519">
		<tag k="fixme" v="multiple name tags, choose one and add the other to alt_name" />
		<tag k="name" v="Børsandmosen;Skogmyr" />
		<tag k="natural" v="wetland" />
		<tag k="ssr:stedsnr" v="787640" />
	</node>
	<node id="-190407" lat="59.6748722262" lon="10.5117138812">
		<tag k="name" v="Arnemyr" />
		<tag k="natural" v="wetland" />
		<tag k="ssr:stedsnr" v="787341" />
	</node>
	<node id="-189886" lat="59.6260388926" lon="10.58198611">
		<tag k="name" v="Børsekastmyra" />
		<tag k="natural" v="wetland" />
		<tag k="ssr:stedsnr" v="119630" />
	</node>
	<node id="-190397" lat="59.6399222234" lon="10.4638083314">
		<tag k="name" v="Orrhanemyra" />
		<tag k="natural" v="wetland" />
		<tag k="ssr:stedsnr" v="786275" />
	</node>
	<node id="-189883" lat="59.6605166703" lon="10.4548888832">
		<tag k="name" v="Sandungmyra" />
		<tag k="natural" v="wetland" />
		<tag k="ssr:stedsnr" v="118272" />
	</node>
	<node id="-189882" lat="59.6655000038" lon="10.4671777838">
		<tag k="name" v="Høymyr" />
		<tag k="natural" v="wetland" />
		<tag k="ssr:stedsnr" v="118270" />
	</node>
	<node id="-190391" lat="59.6337638892" lon="10.5908805562">
		<tag k="name" v="Skoklemyr" />
		<tag k="natural" v="wetland" />
		<tag k="ssr:stedsnr" v="783489" />
	</node>
	<node id="-189877" lat="59.6394916697" lon="10.5632861174">
		<tag k="alt_name" v="Svendsmyr nordre" />
		<tag k="name" v="Nordre Svendsmyr" />
		<tag k="natural" v="wetland" />
		<tag k="ssr:stedsnr" v="116527" />
	</node>
	<node id="-190388" lat="59.6177722253" lon="10.5098388847">
		<tag k="name" v="Eftasmyrene" />
		<tag k="natural" v="wetland" />
		<tag k="ssr:stedsnr" v="770725" />
	</node>
	<node id="-190387" lat="59.5978388872" lon="10.5781805622">
		<tag k="name" v="Ørnsmyr" />
		<tag k="natural" v="wetland" />
		<tag k="ssr:stedsnr" v="770715" />
	</node>
	<node id="-190383" lat="59.6023611155" lon="10.5214083298">
		<tag k="name" v="Feierhølet" />
		<tag k="natural" v="wetland" />
		<tag k="ssr:stedsnr" v="770611" />
	</node>
	<node id="-190382" lat="59.6130083333" lon="10.5078166587">
		<tag k="name" v="Merrahølet" />
		<tag k="natural" v="wetland" />
		<tag k="ssr:stedsnr" v="770609" />
	</node>
	<node id="-189869" lat="59.6010250026" lon="10.5267166696">
		<tag k="name" v="Stampemyr" />
		<tag k="natural" v="wetland" />
		<tag k="ssr:stedsnr" v="103636" />
	</node>
	<node id="-190371" lat="59.5742388917" lon="10.5052138906">
		<tag k="name" v="Fuglemyr" />
		<tag k="natural" v="wetland" />
		<tag k="ssr:stedsnr" v="768564" />
	</node>
	<node id="-190370" lat="59.5726388846" lon="10.5108972231">
		<tag k="name" v="Haremyra" />
		<tag k="natural" v="wetland" />
		<tag k="ssr:stedsnr" v="768563" />
	</node>
	<node id="-189855" lat="59.5711138896" lon="10.4446888904">
		<tag k="name" v="Postmyr" />
		<tag k="natural" v="wetland" />
		<tag k="ssr:stedsnr" v="89113" />
	</node>
	<node id="-190364" lat="59.6784277793" lon="10.4496444436">
		<tag k="name" v="Akkordmyrene" />
		<tag k="natural" v="wetland" />
		<tag k="ssr:stedsnr" v="768241" />
	</node>
	<node id="-189832" lat="59.6101861119" lon="10.5771805475">
		<tag k="name" v="Høgmosan" />
		<tag k="natural" v="wetland" />
		<tag k="ssr:stedsnr" v="64642" />
	</node>
	<node id="-190343" lat="59.6392250008" lon="10.5720361053">
		<tag k="alt_name" v="Kirstimyr øvre" />
		<tag k="name" v="Øvre Kirstimyr" />
		<tag k="natural" v="wetland" />
		<tag k="ssr:stedsnr" v="727325" />
	</node>
	<node id="-190342" lat="59.6539027761" lon="10.5530249989">
		<tag k="name" v="Elgemyr" />
		<tag k="natural" v="wetland" />
		<tag k="ssr:stedsnr" v="727324" />
	</node>
	<node id="-189828" lat="59.6321861118" lon="10.5598055558">
		<tag k="name" v="Postmyr" />
		<tag k="natural" v="wetland" />
		<tag k="ssr:stedsnr" v="59599" />
	</node>
	<node id="-190338" lat="59.5423166708" lon="10.5101222269">
		<tag k="name" v="Stuttdalsmyra" />
		<tag k="natural" v="wetland" />
		<tag k="ssr:stedsnr" v="726646" />
	</node>
	<node id="-189825" lat="59.6496194476" lon="10.5546527801">
		<tag k="name" v="Breimosen" />
		<tag k="natural" v="wetland" />
		<tag k="ssr:stedsnr" v="59326" />
	</node>
	<node id="-189823" lat="59.6803222212" lon="10.5079638906">
		<tag k="name" v="Oremyr" />
		<tag k="natural" v="wetland" />
		<tag k="ssr:stedsnr" v="59324" />
	</node>
	<node id="-190334" lat="59.6781055521" lon="10.5030333288">
		<tag k="name" v="Langemyr" />
		<tag k="natural" v="wetland" />
		<tag k="ssr:stedsnr" v="726355" />
	</node>
	<node id="-190328" lat="59.6495944443" lon="10.4353055477">
		<tag k="name" v="Langbråtan" />
		<tag k="place" v="locality" />
		<tag k="ssr:stedsnr" v="725250" />
	</node>
	<node id="-189813" lat="59.6544972243" lon="10.480769451">
		<tag k="name" v="Stubbleinmyra" />
		<tag k="natural" v="wetland" />
		<tag k="ssr:stedsnr" v="57257" />
	</node>
	<node id="-189810" lat="59.6359305569" lon="10.5486111041">
		<tag k="name" v="Grytnesmyra" />
		<tag k="natural" v="wetland" />
		<tag k="ssr:stedsnr" v="55490" />
	</node>
	<node id="-190321" lat="59.6354222223" lon="10.5376777835">
		<tag k="name" v="Stikkvannsmosen" />
		<tag k="natural" v="wetland" />
		<tag k="ssr:stedsnr" v="723872" />
	</node>
	<node id="-190319" lat="59.6359472241" lon="10.5040749994">
		<tag k="name" v="Portmyr" />
		<tag k="natural" v="wetland" />
		<tag k="ssr:stedsnr" v="723817" />
	</node>
	<node id="-189805" lat="59.5967777801" lon="10.5504055641">
		<tag k="name" v="Langmyrene" />
		<tag k="natural" v="wetland" />
		<tag k="ssr:stedsnr" v="42708" />
	</node>
	<node id="-190314" lat="59.614161109" lon="10.5309833265">
		<tag k="name" v="Paddemyr" />
		<tag k="natural" v="wetland" />
		<tag k="ssr:stedsnr" v="709721" />
	</node>
	<node id="-190312" lat="59.6014333297" lon="10.592719443">
		<tag k="name" v="Gampemyr" />
		<tag k="natural" v="wetland" />
		<tag k="ssr:stedsnr" v="709711" />
	</node>
	<node id="-189799" lat="59.5852666681" lon="10.5278611177">
		<tag k="name" v="Nordvestmyrene" />
		<tag k="natural" v="wetland" />
		<tag k="ssr:stedsnr" v="42606" />
	</node>
	<node id="-190306" lat="59.539952782" lon="10.4851666698">
		<tag k="name" v="Kjoserud" />
		<tag k="place" v="locality" />
		<tag k="ssr:stedsnr" v="709135" />
	</node>
	<node id="-190305" lat="59.5645416647" lon="10.5544111191">
		<tag k="name" v="Høymyr" />
		<tag k="natural" v="wetland" />
		<tag k="ssr:stedsnr" v="708689" />
	</node>
	<node id="-190300" lat="59.5623472204" lon="10.5208944389">
		<tag k="name" v="Haukemyrene" />
		<tag k="natural" v="wetland" />
		<tag k="ssr:stedsnr" v="708598" />
	</node>
	<node id="-190299" lat="59.5609000013" lon="10.5132555644">
		<tag k="name" v="Tronstadmyra" />
		<tag k="natural" v="wetland" />
		<tag k="ssr:stedsnr" v="708594" />
	</node>
	<node id="-189778" lat="59.6496861147" lon="10.5598861034">
		<tag k="name" v="Breidmosan" />
		<tag k="natural" v="wetland" />
		<tag k="ssr:stedsnr" v="4852" />
	</node>
	<node id="-189757" lat="59.610122222" lon="10.5405638934">
		<tag k="name" v="Stallmyrene" />
		<tag k="natural" v="wetland" />
		<tag k="ssr:stedsnr" v="892720" />
	</node>
	<node id="-190261" lat="59.6387666702" lon="10.5063805593">
		<tag k="landuse" v="meadow" />
		<tag k="name" v="Semshagan" />
		<tag k="ssr:stedsnr" v="662884" />
	</node>
	<node id="-190257" lat="59.6157444476" lon="10.5657083272">
		<tag k="name" v="Tjæregravene" />
		<tag k="natural" v="wetland" />
		<tag k="ssr:stedsnr" v="648735" />
	</node>
	<node id="-189741" lat="59.6071694439" lon="10.5434583261">
		<tag k="name" v="Barlindmyr" />
		<tag k="natural" v="wetland" />
		<tag k="ssr:stedsnr" v="406740" />
	</node>
	<node id="-189738" lat="59.5967499995" lon="10.5504944434">
		<tag k="name" v="Langmyr" />
		<tag k="natural" v="wetland" />
		<tag k="ssr:stedsnr" v="406713" />
	</node>
	<node id="-189737" lat="59.594575002" lon="10.5551416706">
		<tag k="name" v="Postmyr" />
		<tag k="natural" v="wetland" />
		<tag k="ssr:stedsnr" v="406649" />
	</node>
	<node id="-190246" lat="59.5676638881" lon="10.5332777831">
		<tag k="name" v="Hestemyrene" />
		<tag k="natural" v="wetland" />
		<tag k="ssr:stedsnr" v="647589" />
	</node>
	<node id="-190512" lat="59.5289611067" lon="10.4540083343">
		<tag k="name" v="Mørketomyra" />
		<tag k="natural" v="wetland" />
		<tag k="ssr:stedsnr" v="909068" />
	</node>
	<node id="-190222" lat="59.6062305554" lon="10.5755444492">
		<tag k="alt_name" v="Julsmosen" />
		<tag k="name" v="Julsmosan" />
		<tag k="natural" v="wetland" />
		<tag k="ssr:stedsnr" v="610657" />
	</node>
	<node id="-189704" lat="59.6398083358" lon="10.5752194496">
		<tag k="alt_name" v="Kirstimyr nedre" />
		<tag k="name" v="Nedre Kirstimyr" />
		<tag k="natural" v="wetland" />
		<tag k="ssr:stedsnr" v="362347" />
	</node>
	<node id="-189700" lat="59.6625694488" lon="10.4983611038">
		<tag k="name" v="Svendsrud Langemyr" />
		<tag k="natural" v="wetland" />
		<tag k="ssr:stedsnr" v="362327" />
	</node>
	<node id="-190208" lat="59.6309749977" lon="10.4501361068">
		<tag k="historic" v="shieling" />
		<tag k="name" v="Potetløkka" />
		<tag k="place" v="locality" />
		<tag k="ssr:stedsnr" v="604573" />
	</node>
	<node id="-189695" lat="59.6222583307" lon="10.5685472297">
		<tag k="name" v="Kjellsmosen" />
		<tag k="natural" v="wetland" />
		<tag k="ssr:stedsnr" v="362620" />
	</node>
	<node id="-190203" lat="59.6459888934" lon="10.4521666603">
		<tag k="name" v="Toppenhaugmyra" />
		<tag k="natural" v="wetland" />
		<tag k="ssr:stedsnr" v="603250" />
	</node>
	<node id="-190201" lat="59.6197638903" lon="10.5325666712">
		<tag k="name" v="Østernmyrene" />
		<tag k="natural" v="wetland" />
		<tag k="ssr:stedsnr" v="601499" />
	</node>
	<node id="-190196" lat="59.6018916704" lon="10.5890027783">
		<tag k="name" v="Moltemyr" />
		<tag k="natural" v="wetland" />
		<tag k="ssr:stedsnr" v="588728" />
	</node>
	<node id="-189683" lat="59.6457638917" lon="10.5102611109">
		<tag k="name" v="Holtemyr" />
		<tag k="natural" v="wetland" />
		<tag k="ssr:stedsnr" v="358858" />
	</node>
	<node id="-189680" lat="59.6236305524" lon="10.5527777803">
		<tag k="name" v="Aklangmosen" />
		<tag k="natural" v="wetland" />
		<tag k="ssr:stedsnr" v="345719" />
	</node>
	<node id="-189679" lat="59.601033336" lon="10.5746805639">
		<tag k="name" v="Langmyr" />
		<tag k="natural" v="wetland" />
		<tag k="ssr:stedsnr" v="345703" />
	</node>
	<node id="-189678" lat="59.5759666707" lon="10.5190999966">
		<tag k="name" v="Bunntjernmyra" />
		<tag k="natural" v="wetland" />
		<tag k="ssr:stedsnr" v="345622" />
	</node>
	<node id="-189677" lat="59.5893666673" lon="10.5738888817">
		<tag k="name" v="Sannemyr" />
		<tag k="natural" v="wetland" />
		<tag k="ssr:stedsnr" v="345613" />
	</node>
	<node id="-190187" lat="59.5850083347" lon="10.5044027692">
		<tag k="name" v="Rødbykollmyrene" />
		<tag k="natural" v="wetland" />
		<tag k="ssr:stedsnr" v="587699" />
	</node>
	<node id="-189672" lat="59.5680833291" lon="10.5049027788">
		<tag k="name" v="Elgemyr" />
		<tag k="natural" v="wetland" />
		<tag k="ssr:stedsnr" v="343596" />
	</node>
	<node id="-189671" lat="59.5659583298" lon="10.5177472305">
		<tag k="name" v="Mørketomyra" />
		<tag k="natural" v="wetland" />
		<tag k="ssr:stedsnr" v="343595" />
	</node>
	<node id="-190181" lat="59.5558638869" lon="10.5588749984">
		<tag k="name" v="Raumyr" />
		<tag k="natural" v="wetland" />
		<tag k="ssr:stedsnr" v="586692" />
	</node>
	<node id="-190179" lat="59.567080558" lon="10.5232666719">
		<tag k="name" v="Langmyra" />
		<tag k="natural" v="wetland" />
		<tag k="ssr:stedsnr" v="586582" />
	</node>
	<node id="-190178" lat="59.5622583321" lon="10.5391916606">
		<tag k="name" v="Strengen" />
		<tag k="natural" v="wetland" />
		<tag k="ssr:stedsnr" v="586566" />
	</node>
	<node id="-190158" lat="59.629791669" lon="10.5827833384">
		<tag k="name" v="Hestemyr" />
		<tag k="natural" v="wetland" />
		<tag k="ssr:stedsnr" v="544614" />
	</node>
	<node id="-190156" lat="59.6263722208" lon="10.5864361114">
		<tag k="name" v="Børsandmosen" />
		<tag k="natural" v="wetland" />
		<tag k="ssr:stedsnr" v="544605" />
	</node>
	<node id="-190155" lat="59.6309500028" lon="10.5498361191">
		<tag k="name" v="Kjelleren" />
		<tag k="natural" v="wetland" />
		<tag k="ssr:stedsnr" v="544603" />
	</node>
	<node id="-190146" lat="59.6320888859" lon="10.5710638971">
		<tag k="name" v="Skjærsmyr" />
		<tag k="natural" v="wetland" />
		<tag k="ssr:stedsnr" v="540509" />
	</node>
	<node id="-190144" lat="59.6158833332" lon="10.4930027844">
		<tag k="name" v="Østbråtemyra" />
		<tag k="natural" v="wetland" />
		<tag k="ssr:stedsnr" v="527742" />
	</node>
	<node id="-190143" lat="59.6103194413" lon="10.5829666664">
		<tag k="name" v="Mellommyr" />
		<tag k="natural" v="wetland" />
		<tag k="ssr:stedsnr" v="527732" />
	</node>
	<node id="-190140" lat="59.5905222191" lon="10.5627472304">
		<tag k="name" v="Førstemyr" />
		<tag k="natural" v="wetland" />
		<tag k="ssr:stedsnr" v="527656" />
	</node>
	<node id="-190139" lat="59.5903555552" lon="10.5443888897">
		<tag k="name" v="Elghølet" />
		<tag k="natural" v="wetland" />
		<tag k="ssr:stedsnr" v="527650" />
	</node>
	<node id="-189626" lat="59.6462120386" lon="10.5386849135">
		<tag k="alt_name" v="Lamyra nedre" />
		<tag k="name" v="Nedre Lamyra" />
		<tag k="natural" v="wetland" />
		<tag k="ssr:stedsnr" v="301950" />
	</node>
	<node id="-190136" lat="59.594686111" lon="10.5751111171">
		<tag k="name" v="Gammelgardsmyra" />
		<tag k="natural" v="wetland" />
		<tag k="ssr:stedsnr" v="527636" />
	</node>
	<node id="-189623" lat="59.6182972215" lon="10.5759333284">
		<tag k="name" v="Kalosjemyra" />
		<tag k="natural" v="wetland" />
		<tag k="ssr:stedsnr" v="301610" />
	</node>
	<node id="-190130" lat="59.5725916636" lon="10.5327750035">
		<tag k="name" v="Svenskemyr" />
		<tag k="natural" v="wetland" />
		<tag k="ssr:stedsnr" v="526699" />
	</node>
	<node id="-190129" lat="59.5683916687" lon="10.5454361039">
		<tag k="name" v="Tronkemyra" />
		<tag k="natural" v="wetland" />
		<tag k="ssr:stedsnr" v="526596" />
	</node>
	<node id="-189615" lat="59.6582638851" lon="10.4916361077">
		<tag k="name" v="Merramyra" />
		<tag k="natural" v="wetland" />
		<tag k="ssr:stedsnr" v="298841" />
	</node>
	<node id="-189608" lat="59.6068305537" lon="10.5704861084">
		<tag k="name" v="Andershøl" />
		<tag k="natural" v="wetland" />
		<tag k="ssr:stedsnr" v="285731" />
	</node>
	<node id="-189809" lat="59.6181388922" lon="10.5409305561">
		<tag k="name" v="Århanemyra" />
		<tag k="natural" v="wetland" />
		<tag k="ssr:stedsnr" v="55476" />
	</node>
	<node id="-189595" lat="59.5857833358" lon="10.5322055628">
		<tag k="name" v="Tjærebrennermyrene" />
		<tag k="natural" v="wetland" />
		<tag k="ssr:stedsnr" v="284672" />
	</node>
	<node id="-189589" lat="59.5608305516" lon="10.5490361033">
		<tag k="name" v="Striglevannsmyra" />
		<tag k="natural" v="wetland" />
		<tag k="ssr:stedsnr" v="283526" />
	</node>
	<node id="-190093" lat="59.6479429926" lon="10.5430044758">
		<tag k="alt_name" v="Lamyra øvre" />
		<tag k="name" v="Øvre Lamyra" />
		<tag k="natural" v="wetland" />
		<tag k="ssr:stedsnr" v="483946" />
	</node>
	<node id="-190080" lat="59.624505554" lon="10.5132083341">
		<tag k="name" v="Skavmyra" />
		<tag k="natural" v="wetland" />
		<tag k="ssr:stedsnr" v="480566" />
	</node>
	<node id="-190076" lat="59.6044083341" lon="10.5852416737">
		<tag k="name" v="Hestemyr" />
		<tag k="natural" v="wetland" />
		<tag k="ssr:stedsnr" v="467737" />
	</node>
	<node id="-189631" lat="59.6426805561" lon="10.56566945">
		<tag k="alt_name" v="Skåhellmyr øvre" />
		<tag k="name" v="Øvre Skåhellmyr" />
		<tag k="natural" v="wetland" />
		<tag k="ssr:stedsnr" v="302380" />
	</node>
	<node id="-190072" lat="59.5796277778" lon="10.533130552">
		<tag k="name" v="Gørrmyr" />
		<tag k="natural" v="wetland" />
		<tag k="ssr:stedsnr" v="466670" />
	</node>
	<node id="-190583" lat="59.619811112" lon="10.5664666605">
		<tag k="alt_name" v="Kjellsmosen lille" />
		<tag k="name" v="Lille-Kjellsmosen" />
		<tag k="natural" v="wetland" />
		<tag k="ssr:stedsnr" v="969632" />
	</node>
	<node id="-190580" lat="59.6438361106" lon="10.5702999974">
		<tag k="alt_name" v="Skåhellmyr nedre" />
		<tag k="name" v="Nedre Skåhellmyr" />
		<tag k="natural" v="wetland" />
		<tag k="ssr:stedsnr" v="969365" />
	</node>
	<node id="-189885" lat="59.6626916659" lon="10.5388749926">
		<tag k="name" v="Hånningsbråta" />
		<tag k="place" v="locality" />
		<tag k="ssr:stedsnr" v="119338" />
	</node>
	<node id="-190564" lat="59.6349638849" lon="10.5686972185">
		<tag k="name" v="Sauemyr" />
		<tag k="natural" v="wetland" />
		<tag k="ssr:stedsnr" v="965514" />
	</node>
	<node id="-190552" lat="59.5881277739" lon="10.5639638833">
		<tag k="name" v="Briskemyr" />
		<tag k="natural" v="wetland" />
		<tag k="ssr:stedsnr" v="952622" />
	</node>
	<node id="-190550" lat="59.6126277801" lon="10.5214472286">
		<tag k="name" v="Pølsemyr" />
		<tag k="natural" v="wetland" />
		<tag k="ssr:stedsnr" v="952606" />
	</node>
	<node id="-190033" lat="59.6736999966" lon="10.5082166584">
		<tag k="name" v="Mørkmyr" />
		<tag k="natural" v="wetland" />
		<tag k="ssr:stedsnr" v="423356" />
	</node>
	<node id="-189624" lat="59.5390055597" lon="10.5036944492">
		<tag k="name" v="Oremyr" />
		<tag k="natural" v="wetland" />
		<tag k="ssr:stedsnr" v="301617" />
	</node>
	<node id="-189793" lat="59.6132305563" lon="10.4782972269">
		<tag k="name" v="Bergsmyrene" />
		<tag k="natural" v="wetland" />
		<tag k="ssr:stedsnr" v="40553" />
	</node>
	<node id="-190527" lat="59.5858361097" lon="10.5497250035">
		<tag k="name" v="Nøklemyr" />
		<tag k="natural" v="wetland" />
		<tag k="ssr:stedsnr" v="913708" />
	</node>
	<node id="-190002" lat="59.6354472261" lon="10.4695888926">
		<tag k="name" v="Svartvannsmyra" />
		<tag k="natural" v="wetland" />
		<tag k="ssr:stedsnr" v="241535" />
	</node>
	<node id="-190000" lat="59.5308500022" lon="10.4503944395">
		<tag k="landuse" v="meadow" />
		<tag k="name" v="Mørketo" />
		<tag k="ssr:stedsnr" v="241061" />
	</node>
	<node id="-189995" lat="59.6476666697" lon="10.4433138848">
		<tag k="landuse" v="meadow" />
		<tag k="name" v="Plasseløkka" />
		<tag k="ssr:stedsnr" v="239257" />
	</node>
	<node id="-189993" lat="59.635916668" lon="10.5443527721">
		<tag k="name" v="Kubakkmyra" />
		<tag k="natural" v="wetland" />
		<tag k="ssr:stedsnr" v="237883" />
	</node>
	<node id="-189991" lat="59.6554083312" lon="10.498591661">
		<tag k="name" v="Tjernsmyrene" />
		<tag k="natural" v="wetland" />
		<tag k="ssr:stedsnr" v="237864" />
	</node>
	<node id="-190502" lat="59.6500416685" lon="10.5269750004">
		<tag k="name" v="Slottemyrene" />
		<tag k="natural" v="wetland" />
		<tag k="ssr:stedsnr" v="905889" />
	</node>
	<node id="-190501" lat="59.650497226" lon="10.4975388919">
		<tag k="name" v="Rokkemyrene" />
		<tag k="natural" v="wetland" />
		<tag k="ssr:stedsnr" v="905877" />
	</node>
	<node id="-189988" lat="59.5859777751" lon="10.5013277775">
		<tag k="name" v="Delemyr" />
		<tag k="natural" v="wetland" />
		<tag k="ssr:stedsnr" v="224633" />
	</node>
	<node id="-189987" lat="59.5887944446" lon="10.5556361104">
		<tag k="name" v="Sirismyr" />
		<tag k="natural" v="wetland" />
		<tag k="ssr:stedsnr" v="224622" />
	</node>
	<node id="-189981" lat="59.5954972187" lon="10.4601222304">
		<tag k="name" v="Tjuvmyra" />
		<tag k="natural" v="wetland" />
		<tag k="ssr:stedsnr" v="224477" />
	</node>
	<node id="-189980" lat="59.5823555598" lon="10.4513888905">
		<tag k="name" v="Langmyrene" />
		<tag k="natural" v="wetland" />
		<tag k="ssr:stedsnr" v="224456" />
	</node>
	<node id="-189979" lat="59.6407111081" lon="10.552911104">
		<tag k="name" v="Båntjernmyra" />
		<tag k="natural" v="wetland" />
		<tag k="ssr:stedsnr" v="224321" />
	</node>
	<node id="-189976" lat="59.5760333361" lon="10.528080557">
		<tag k="name" v="Midtskogmyra" />
		<tag k="natural" v="wetland" />
		<tag k="ssr:stedsnr" v="222673" />
	</node>
	<node id="-190480" lat="59.6097416689" lon="10.586927772">
		<tag k="alt_name" v="Breimosen" />
		<tag k="name" v="Breidmosan" />
		<tag k="natural" v="wetland" />
		<tag k="ssr:stedsnr" v="853633" />
	</node>
</osm>
