<?xml version="1.0" encoding="UTF-8"?>
<osm generator="osmapis" version="0.6">
	<node id="-189935" lat="59.6414194401" lon="10.6059500001">
		<tag k="name" v="Rødtangodden" />
		<tag k="natural" v="cape" />
		<tag k="ssr:stedsnr" v="179923" />
	</node>
	<node id="-190443" lat="59.5204916699" lon="10.4368499916">
		<tag k="name" v="Rusodden" />
		<tag k="natural" v="cape" />
		<tag k="ssr:stedsnr" v="829094" />
	</node>
	<node id="-190442" lat="59.5219416706" lon="10.4462111138">
		<tag k="name" v="Sjøbuodden" />
		<tag k="natural" v="cape" />
		<tag k="ssr:stedsnr" v="829086" />
	</node>
	<node id="-190440" lat="59.5619138858" lon="10.4285805532">
		<tag k="name" v="Bukta" />
		<tag k="natural" v="bay" />
		<tag k="ssr:stedsnr" v="827155" />
	</node>
	<node id="-190436" lat="59.5232944425" lon="10.4497499924">
		<tag k="alt_name" v="Eplevik" />
		<tag k="name" v="Eplevika" />
		<tag k="natural" v="bay" />
		<tag k="ssr:stedsnr" v="817099" />
	</node>
	<node id="-190433" lat="59.5394249815" lon="10.5538208068">
		<tag k="loc_name" v="Smælingen" />
		<tag k="name" v="Smelingen" />
		<tag k="natural" v="bay" />
		<tag k="ssr:stedsnr" v="814862" />
	</node>
	<node id="-189911" lat="59.6638138923" lon="10.5826666648">
		<tag k="name" v="Lagbukta" />
		<tag k="natural" v="bay" />
		<tag k="ssr:stedsnr" v="161328" />
	</node>
	<node id="-189907" lat="59.5177833316" lon="10.4968694421">
		<tag k="name" v="Reierhausen" />
		<tag k="place" v="locality" />
		<tag k="ssr:stedsnr" v="149981" />
	</node>
	<node id="-189906" lat="59.5508805564" lon="10.4133750045">
		<tag k="name" v="Støaflaket" />
		<tag k="natural" v="shoal" />
		<tag k="place" v="locality" />
		<tag k="ssr:stedsnr" v="149082" />
	</node>
	<node id="-190417" lat="59.666666669" lon="10.3916666621">
		<tag k="bay" v="fjord" />
		<tag k="name" v="Drammensfjorden" />
		<tag k="natural" v="bay" />
		<tag k="ssr:stedsnr" v="792266" />
	</node>
	<node id="-190541" lat="59.5263555532" lon="10.5482833337">
		<tag k="name" v="Vealøsgrunnen" />
		<tag k="natural" v="shoal" />
		<tag k="place" v="locality" />
		<tag k="ssr:stedsnr" v="938801" />
	</node>
	<node id="-189891" lat="59.5209444426" lon="10.5461444435">
		<tag k="name" v="Vealøs" />
		<tag k="place" v="islet" />
		<tag k="ssr:stedsnr" v="124462" />
	</node>
	<node id="-190402" lat="59.5193712532" lon="10.4592682607">
		<tag k="name" v="Salpestø" />
		<tag k="natural" v="bay" />
		<tag k="ssr:stedsnr" v="787060" />
	</node>
	<node id="-189889" lat="59.5359305563" lon="10.5403416613">
		<tag k="name" v="Bakkestranda" />
		<tag k="natural" v="beach" />
		<tag k="place" v="locality" />
		<tag k="ssr:stedsnr" v="120613" />
	</node>
	<node id="-190535" lat="59.6769305545" lon="10.5621694361">
		<tag k="name" v="Furuholmbåen" />
		<tag k="natural" v="shoal" />
		<tag k="place" v="locality" />
		<tag k="ssr:stedsnr" v="934862" />
	</node>
	<node id="-189858" lat="59.5658999961" lon="10.4288750075">
		<tag k="alt_name" v="Gunnarskær" />
		<tag k="fixme" v="consider seamark:type=rock or natural=shoal" />
		<tag k="name" v="Gunnarskjær" />
		<tag k="place" v="islet" />
		<tag k="ssr:stedsnr" v="99167" />
	</node>
	<node id="-189856" lat="59.5191500037" lon="10.4548111095">
		<tag k="name" v="Fiskertangen" />
		<tag k="natural" v="cape" />
		<tag k="ssr:stedsnr" v="89116" />
	</node>
	<node id="-189854" lat="59.5204361077" lon="10.4731861106">
		<tag k="name" v="Rødsteinen" />
		<tag k="natural" v="cape" />
		<tag k="ssr:stedsnr" v="89106" />
	</node>
	<node id="-189853" lat="59.5386027791" lon="10.4117138869">
		<tag k="alt_name" v="Holtnestangen" />
		<tag k="name" v="Holtnesodden" />
		<tag k="natural" v="cape" />
		<tag k="old_name" v="Holtnestodden" />
		<tag k="ssr:stedsnr" v="89101" />
	</node>
	<node id="-189848" lat="59.6523444488" lon="10.4310749962">
		<tag k="name" v="Odden" />
		<tag k="natural" v="cape" />
		<tag k="ssr:stedsnr" v="85819" />
	</node>
	<node id="-189845" lat="59.5783222227" lon="10.6186472291">
		<tag k="alt_name" v="Kobberskjærodden" />
		<tag k="name" v="Kobbeskjær" />
		<tag k="natural" v="cape" />
		<tag k="ssr:stedsnr" v="85635" />
	</node>
	<node id="-190356" lat="59.5240361124" lon="10.4500666582">
		<tag k="name" v="Møllestranda" />
		<tag k="natural" v="beach" />
		<tag k="place" v="locality" />
		<tag k="ssr:stedsnr" v="766052" />
	</node>
	<node id="-190354" lat="59.5839475412" lon="10.4355919954">
		<tag k="name" v="Knivsvika" />
		<tag k="natural" v="bay" />
		<tag k="ssr:stedsnr" v="753911" />
	</node>
	<node id="-190353" lat="59.6527000006" lon="10.606686118">
		<tag k="alt_name" v="Tollarhausen" />
		<tag k="name" v="Tollerhausen" />
		<tag k="natural" v="shoal" />
		<tag k="place" v="locality" />
		<tag k="ssr:stedsnr" v="753884" />
	</node>
	<node id="-190360" lat="59.6862638889" lon="10.5245555481">
		<tag k="name" v="Sjøstranda" />
		<tag k="natural" v="beach" />
		<tag k="place" v="locality" />
		<tag k="ssr:stedsnr" v="767788" />
	</node>
	<node id="-189833" lat="59.6241111099" lon="10.5190555621">
		<tag k="name" v="Hurum" />
		<tag k="natural" v="cape" />
		<tag k="ssr:stedsnr" v="64662" />
	</node>
	<node id="-190340" lat="59.5207083307" lon="10.4904527805">
		<tag k="name" v="Kattsundet" />
		<tag k="natural" v="strait" />
		<tag k="ssr:stedsnr" v="727073" />
	</node>
	<node id="-189821" lat="59.6796888862" lon="10.5324083362">
		<tag k="name" v="Øra" />
		<tag k="natural" v="bay" />
		<tag k="ssr:stedsnr" v="59304" />
	</node>
	<node id="-189814" lat="59.5401499988" lon="10.5524916639">
		<tag k="alt_name" v="Smerlingstranda" />
		<tag k="name" v="Smelingsstranda" />
		<tag k="natural" v="beach" />
		<tag k="place" v="locality" />
		<tag k="ssr:stedsnr" v="58619" />
	</node>
	<node id="-190323" lat="59.6234480187" lon="10.4348300601">
		<tag k="name" v="Dramstadbukta" />
		<tag k="natural" v="bay" />
		<tag k="ssr:stedsnr" v="731629" />
	</node>
	<node id="-189806" lat="59.6113416629" lon="10.4141416645">
		<tag k="alt_name" v="Verketsøya" />
		<tag k="name" v="Verksøya" />
		<tag k="place" v="island" />
		<tag k="ssr:stedsnr" v="267731" />
	</node>
	<node id="-189786" lat="59.5513027746" lon="10.5842666733">
		<tag k="alt_name" v="Ramvik;Ramsvika" />
		<tag k="name" v="Ramsvik" />
		<tag k="natural" v="bay" />
		<tag k="ssr:stedsnr" v="28896" />
	</node>
	<node id="-189785" lat="59.5235694428" lon="10.4476833253">
		<tag k="name" v="Skjøttelvika" />
		<tag k="natural" v="bay" />
		<tag k="ssr:stedsnr" v="28832" />
	</node>
	<node id="-189783" lat="59.5470636784" lon="10.4187109312">
		<tag k="name" v="Trollebogen" />
		<tag k="natural" v="bay" />
		<tag k="ssr:stedsnr" v="28095" />
	</node>
	<node id="-189782" lat="59.6354777771" lon="10.4303416601">
		<tag k="name" v="Sandodden" />
		<tag k="natural" v="beach" />
		<tag k="place" v="locality" />
		<tag k="ssr:stedsnr" v="25854" />
	</node>
	<node id="-190285" lat="59.6009722222" lon="10.6288972236">
		<tag k="name" v="Nygrunnen" />
		<tag k="natural" v="shoal" />
		<tag k="place" v="locality" />
		<tag k="ssr:stedsnr" v="692900" />
	</node>
	<node id="-190275" lat="59.5212194477" lon="10.4787222263">
		<tag k="name" v="Smedodden" />
		<tag k="natural" v="cape" />
		<tag k="ssr:stedsnr" v="666069" />
	</node>
	<node id="-189754" lat="59.6007638907" lon="10.4361638907">
		<tag k="name" v="Voldenbukta" />
		<tag k="natural" v="bay" />
		<tag k="ssr:stedsnr" v="892487" />
	</node>
	<node id="-189748" lat="59.6786027796" lon="10.5515749915">
		<tag k="name" v="Fattigmannsholmen" />
		<tag k="place" v="islet" />
		<tag k="ssr:stedsnr" v="890315" />
	</node>
	<node id="-189662" lat="59.5630361075" lon="10.4286472164">
		<tag k="name" v="Trepottodden" />
		<tag k="natural" v="cape" />
		<tag k="ssr:stedsnr" v="341162" />
	</node>
	<node id="-189745" lat="59.5213957845" lon="10.4425516325">
		<tag k="name" v="Korrvik" />
		<tag k="natural" v="bay" />
		<tag k="ssr:stedsnr" v="889095" />
	</node>
	<node id="-189743" lat="59.522511113" lon="10.4516805624">
		<tag k="name" v="Verven" />
		<tag k="natural" v="beach" />
		<tag k="place" v="locality" />
		<tag k="ssr:stedsnr" v="888049" />
	</node>
	<node id="-189653" lat="59.684844444" lon="10.5378472238">
		<tag k="name" v="Bjørnnes" />
		<tag k="natural" v="cape" />
		<tag k="ssr:stedsnr" v="327756" />
	</node>
	<node id="-189660" lat="59.5246000012" lon="10.5113972305">
		<tag k="name" v="Østnestangen" />
		<tag k="natural" v="cape" />
		<tag k="ssr:stedsnr" v="331078" />
	</node>
	<node id="-189659" lat="59.5499083363" lon="10.4185361109">
		<tag k="alt_name" v="Arnestø" />
		<tag k="name" v="Arnestøa" />
		<tag k="natural" v="cape" />
		<tag k="ssr:stedsnr" v="331075" />
	</node>
	<node id="-189728" lat="59.5506638929" lon="10.5814583418">
		<tag k="name" v="Rulleto" />
		<tag k="natural" v="cape" />
		<tag k="ssr:stedsnr" v="392854" />
	</node>
	<node id="-189727" lat="59.5252944464" lon="10.4238305514">
		<tag k="name" v="Brevikbukta" />
		<tag k="natural" v="bay" />
		<tag k="ssr:stedsnr" v="392103" />
	</node>
	<node id="-190238" lat="59.5625388901" lon="10.4275611063">
		<tag k="name" v="Orekilen" />
		<tag k="natural" v="bay" />
		<tag k="ssr:stedsnr" v="634844" />
	</node>
	<node id="-190234" lat="59.6701388848" lon="10.590688889">
		<tag k="name" v="Nesgrunnen" />
		<tag k="natural" v="shoal" />
		<tag k="place" v="locality" />
		<tag k="ssr:stedsnr" v="631888" />
	</node>
	<node id="-190232" lat="59.5659083375" lon="10.4288027747">
		<tag k="fixme" v="consider seamark:type=rock or natural=shoal" />
		<tag k="name" v="Selskjæret" />
		<tag k="place" v="islet" />
		<tag k="ssr:stedsnr" v="630919" />
	</node>
	<node id="-190231" lat="59.6695352713" lon="10.573000739">
		<tag k="fixme" v="multiple name tags, choose one and add the other to alt_name" />
		<tag k="name" v="Verpentangen;Tangen" />
		<tag k="natural" v="cape" />
		<tag k="ssr:stedsnr" v="630855" />
	</node>
	<node id="-190230" lat="59.6661396455" lon="10.5847815958">
		<tag k="name" v="Kapellkilen" />
		<tag k="natural" v="bay" />
		<tag k="ssr:stedsnr" v="630849" />
	</node>
	<node id="-190229" lat="59.6756222249" lon="10.5717333325">
		<tag k="name" v="Stedgrunnen" />
		<tag k="natural" v="cape" />
		<tag k="ssr:stedsnr" v="630846" />
	</node>
	<node id="-190228" lat="59.6681138911" lon="10.5966944368">
		<tag k="name" v="Neset" />
		<tag k="natural" v="cape" />
		<tag k="ssr:stedsnr" v="610895" />
	</node>
	<node id="-190241" lat="59.6642166642" lon="10.5769861157">
		<tag k="name" v="Djuplaget" />
		<tag k="natural" v="bay" />
		<tag k="ssr:stedsnr" v="646312" />
	</node>
	<node id="-190219" lat="59.6822954399" lon="10.5406809853">
		<tag k="name" v="Engene" />
		<tag k="natural" v="cape" />
		<tag k="ssr:stedsnr" v="609737" />
	</node>
	<node id="-190216" lat="59.5234861115" lon="10.5029499938">
		<tag k="name" v="Sandbukta" />
		<tag k="natural" v="bay" />
		<tag k="ssr:stedsnr" v="609491" />
	</node>
	<node id="-190211" lat="59.5191099199" lon="10.4571624879">
		<tag k="name" v="Olashøl" />
		<tag k="natural" v="bay" />
		<tag k="ssr:stedsnr" v="605070" />
	</node>
	<node id="-189693" lat="59.5387944461" lon="10.5594305509">
		<tag k="name" v="Skjæra" />
		<tag k="place" v="islet" />
		<tag k="ssr:stedsnr" v="362611" />
	</node>
	<node id="-189905" lat="59.6171027738" lon="10.4220972282">
		<tag k="name" v="Ryggen" />
		<tag k="natural" v="cape" />
		<tag k="ssr:stedsnr" v="147217" />
	</node>
	<node id="-190174" lat="59.524025001" lon="10.4472361088">
		<tag k="name" v="Sjøbustranda" />
		<tag k="natural" v="beach" />
		<tag k="place" v="locality" />
		<tag k="ssr:stedsnr" v="585085" />
	</node>
	<node id="-190173" lat="59.5428055549" lon="10.5849138918">
		<tag k="name" v="Ramvikgrunnen" />
		<tag k="natural" v="shoal" />
		<tag k="place" v="locality" />
		<tag k="ssr:stedsnr" v="574832" />
	</node>
	<node id="-190172" lat="59.4907749983" lon="10.5012861113">
		<tag k="fixme" v="consider seamark:type=rock or natural=shoal" />
		<tag k="name" v="Mølenskjær" />
		<tag k="place" v="islet" />
		<tag k="ssr:stedsnr" v="574091" />
	</node>
	<node id="-190171" lat="59.6846853519" lon="10.5320741716">
		<tag k="name" v="Sætrepollen" />
		<tag k="natural" v="bay" />
		<tag k="ssr:stedsnr" v="570795" />
	</node>
	<node id="-189656" lat="59.610136108" lon="10.411097222">
		<tag k="name" v="Svelvikstrømmen" />
		<tag k="natural" v="strait" />
		<tag k="ssr:stedsnr" v="328756" />
	</node>
	<node id="-189655" lat="59.5837666625" lon="10.4335277854">
		<tag k="fixme" v="consider seamark:type=rock or natural=shoal" />
		<tag k="name" v="Bjørneskjær" />
		<tag k="place" v="islet" />
		<tag k="ssr:stedsnr" v="327907" />
	</node>
	<node id="-189654" lat="59.6704666625" lon="10.5784166741">
		<tag k="name" v="Flyndregrunnen" />
		<tag k="natural" v="shoal" />
		<tag k="place" v="locality" />
		<tag k="ssr:stedsnr" v="327840" />
	</node>
	<node id="-190165" lat="59.5342861125" lon="10.5320250085">
		<tag k="name" v="Sagene" />
		<tag k="natural" v="cape" />
		<tag k="ssr:stedsnr" v="549522" />
	</node>
	<node id="-190162" lat="59.5146583314" lon="10.5581222259">
		<tag k="name" v="Tofteholmen" />
		<tag k="place" v="islet" />
		<tag k="ssr:stedsnr" v="549484" />
	</node>
	<node id="-189647" lat="59.670936108" lon="10.5741027741">
		<tag k="name" v="Rognholmen" />
		<tag k="place" v="islet" />
		<tag k="ssr:stedsnr" v="307859" />
	</node>
	<node id="-190149" lat="59.606172225" lon="10.6129527859">
		<tag k="name" v="Elgtornstranda" />
		<tag k="natural" v="beach" />
		<tag k="place" v="locality" />
		<tag k="ssr:stedsnr" v="543314" />
	</node>
	<node id="-189633" lat="59.5280444467" lon="10.5165388826">
		<tag k="name" v="Steinvik" />
		<tag k="natural" v="bay" />
		<tag k="ssr:stedsnr" v="302514" />
	</node>
	<node id="-189620" lat="59.5655741975" lon="10.6107907114">
		<tag k="fixme" v="consider seamark:type=rock or natural=shoal" />
		<tag k="name" v="Sørstrandskjæra" />
		<tag k="place" v="islet" />
		<tag k="ssr:stedsnr" v="300331" />
	</node>
	<node id="-190128" lat="59.5620111115" lon="10.6040777754">
		<tag k="name" v="Engersvik" />
		<tag k="natural" v="bay" />
		<tag k="ssr:stedsnr" v="525658" />
	</node>
	<node id="-190122" lat="59.527136115" lon="10.4180055496">
		<tag k="name" v="Håvika" />
		<tag k="natural" v="bay" />
		<tag k="ssr:stedsnr" v="525083" />
	</node>
	<node id="-190117" lat="59.5600888882" lon="10.4237083393">
		<tag k="name" v="Odden" />
		<tag k="natural" v="cape" />
		<tag k="ssr:stedsnr" v="524118" />
	</node>
	<node id="-190116" lat="59.5169666649" lon="10.4896333393">
		<tag k="name" v="Kjørvikgrunnene" />
		<tag k="natural" v="shoal" />
		<tag k="place" v="locality" />
		<tag k="ssr:stedsnr" v="513809" />
	</node>
	<node id="-190112" lat="59.6668755415" lon="10.576794048">
		<tag k="name" v="Sandspollen" />
		<tag k="natural" v="bay" />
		<tag k="ssr:stedsnr" v="489866" />
	</node>
	<node id="-189722" lat="59.6126110504" lon="10.4145075062">
		<tag k="name" v="Verksrenna" />
		<tag k="natural" v="strait" />
		<tag k="ssr:stedsnr" v="389209" />
	</node>
	<node id="-190102" lat="59.5247583348" lon="10.421969444">
		<tag k="name" v="Nebba" />
		<tag k="natural" v="cape" />
		<tag k="ssr:stedsnr" v="488528" />
	</node>
	<node id="-190101" lat="59.5170555518" lon="10.4640833383">
		<tag k="name" v="Haraldstangen" />
		<tag k="natural" v="cape" />
		<tag k="ssr:stedsnr" v="488526" />
	</node>
	<node id="-190100" lat="59.5069777803" lon="10.5071611151">
		<tag k="name" v="Langgrunnen" />
		<tag k="natural" v="shoal" />
		<tag k="place" v="locality" />
		<tag k="ssr:stedsnr" v="488506" />
	</node>
	<node id="-190097" lat="59.6073139118" lon="10.4374916586">
		<tag k="name" v="Vollebukta" />
		<tag k="natural" v="bay" />
		<tag k="ssr:stedsnr" v="488611" />
	</node>
	<node id="-189890" lat="59.518169445" lon="10.5341361166">
		<tag k="alt_name" v="Ranvikholmen" />
		<tag k="name" v="Ramvikholmen" />
		<tag k="place" v="islet" />
		<tag k="ssr:stedsnr" v="124458" />
	</node>
	<node id="-189576" lat="59.4807444469" lon="10.5108444364">
		<tag k="name" v="Sydostgrunnen" />
		<tag k="natural" v="shoal" />
		<tag k="place" v="locality" />
		<tag k="ssr:stedsnr" v="271995" />
	</node>
	<node id="-189575" lat="59.5296750037" lon="10.5322472243">
		<tag k="name" v="Sagenebåen" />
		<tag k="place" v="locality" />
		<tag k="seamark:type" v="rock" />
		<tag k="ssr:stedsnr" v="271904" />
	</node>
	<node id="-190067" lat="59.5604527757" lon="10.6014555532">
		<tag k="name" v="Gammelvikene" />
		<tag k="natural" v="bay" />
		<tag k="ssr:stedsnr" v="465669" />
	</node>
	<node id="-190574" lat="59.5207000014" lon="10.4928388959">
		<tag k="name" v="Kattsundodden" />
		<tag k="natural" v="cape" />
		<tag k="ssr:stedsnr" v="969127" />
	</node>
	<node id="-190060" lat="59.5217027819" lon="10.4493277803">
		<tag k="name" v="Skjøttelvikbukta" />
		<tag k="natural" v="bay" />
		<tag k="old_name" v="Schjøttelvikbukta" />
		<tag k="ssr:stedsnr" v="464075" />
	</node>
	<node id="-190059" lat="59.5626294439" lon="10.4268166535">
		<tag k="alt_name" v="Bakkeskær" />
		<tag k="name" v="Bakkeskjær" />
		<tag k="place" v="islet" />
		<tag k="ssr:stedsnr" v="463133" />
	</node>
	<node id="-190567" lat="59.5819321657" lon="10.4338679042">
		<tag k="name" v="Knivsvik" />
		<tag k="natural" v="bay" />
		<tag k="ssr:stedsnr" v="967187" />
	</node>
	<node id="-190055" lat="59.522655553" lon="10.5140499942">
		<tag k="name" v="Løyegrunnen" />
		<tag k="natural" v="shoal" />
		<tag k="place" v="locality" />
		<tag k="ssr:stedsnr" v="453870" />
	</node>
	<node id="-190051" lat="59.6061472198" lon="10.4278166644">
		<tag k="name" v="Østhaken" />
		<tag k="natural" v="shoal" />
		<tag k="place" v="locality" />
		<tag k="ssr:stedsnr" v="449727" />
	</node>
	<node id="-190049" lat="59.6590999968" lon="10.6096138818">
		<tag k="fixme" v="consider seamark:type=rock or natural=shoal" />
		<tag k="name" v="Storskjær" />
		<tag k="place" v="islet" />
		<tag k="ssr:stedsnr" v="429826" />
	</node>
	<node id="-190047" lat="59.5857638873" lon="10.416469446">
		<tag k="fixme" v="consider seamark:type=rock or natural=shoal" />
		<tag k="name" v="Saltskjær" />
		<tag k="place" v="islet" />
		<tag k="ssr:stedsnr" v="428722" />
	</node>
	<node id="-190045" lat="59.5685980321" lon="10.613158402">
		<tag k="alt_name" v="Ekernbukta" />
		<tag k="name" v="Ekrebukta" />
		<tag k="natural" v="bay" />
		<tag k="ssr:stedsnr" v="428683" />
	</node>
	<node id="-190029" lat="59.5199055512" lon="10.4695250051">
		<tag k="alt_name" v="Røedsteigen" />
		<tag k="name" v="Rødsteigen" />
		<tag k="natural" v="beach" />
		<tag k="place" v="locality" />
		<tag k="ssr:stedsnr" v="423066" />
	</node>
	<node id="-190540" lat="59.638977782" lon="10.604380562">
		<tag k="name" v="Rødtangen" />
		<tag k="natural" v="cape" />
		<tag k="ssr:stedsnr" v="936900" />
	</node>
	<node id="-190537" lat="59.6778852022" lon="10.5527971239">
		<tag k="alt_name" v="Skollvika" />
		<tag k="name" v="Skålevika" />
		<tag k="natural" v="bay" />
		<tag k="ssr:stedsnr" v="935830" />
	</node>
	<node id="-190023" lat="59.5624388898" lon="10.6041888861">
		<tag k="name" v="Vikene" />
		<tag k="natural" v="bay" />
		<tag k="ssr:stedsnr" v="268850" />
	</node>
	<node id="-190022" lat="59.576769448" lon="10.4327333283">
		<tag k="name" v="Sandtangen" />
		<tag k="natural" v="cape" />
		<tag k="ssr:stedsnr" v="267928" />
	</node>
	<node id="-190020" lat="59.6750111094" lon="10.5647055578">
		<tag k="name" v="Furuholmen" />
		<tag k="place" v="islet" />
		<tag k="ssr:stedsnr" v="246837" />
	</node>
	<node id="-190009" lat="59.66866389" lon="10.5823750057">
		<tag k="name" v="Kinnartangen" />
		<tag k="natural" v="cape" />
		<tag k="ssr:stedsnr" v="246013" />
	</node>
	<node id="-190008" lat="59.4854750041" lon="10.4986583254">
		<tag k="name" v="Mølen" />
		<tag k="place" v="island" />
		<tag k="ssr:stedsnr" v="245912" />
	</node>
	<node id="-190519" lat="59.5205750037" lon="10.4334250075">
		<tag k="fixme" v="consider seamark:type=rock or natural=shoal" />
		<tag k="name" v="Solfjellskjæret" />
		<tag k="old_name" v="Solfjellskjær" />
		<tag k="place" v="islet" />
		<tag k="ssr:stedsnr" v="913508" />
	</node>
	<node id="-190518" lat="59.5195750042" lon="10.489602786">
		<tag k="fixme" v="consider seamark:type=rock or natural=shoal" />
		<tag k="name" v="Ertsvikskjæret" />
		<tag k="place" v="islet" />
		<tag k="ssr:stedsnr" v="913486" />
	</node>
	<node id="-190517" lat="59.4943055584" lon="10.4759000046">
		<tag k="bay" v="fjord" />
		<tag k="name" v="Breiangen" />
		<tag k="natural" v="bay" />
		<tag k="ssr:stedsnr" v="913913" />
	</node>
	<node id="-189998" lat="59.5370472208" lon="10.5507194377">
		<tag k="fixme" v="consider seamark:type=rock or natural=shoal" />
		<tag k="name" v="Måkeskjær" />
		<tag k="place" v="islet" />
		<tag k="ssr:stedsnr" v="240636" />
	</node>
	<node id="-190507" lat="59.6633194412" lon="10.5842944376">
		<tag k="name" v="Laget" />
		<tag k="natural" v="bay" />
		<tag k="ssr:stedsnr" v="907873" />
	</node>
	<node id="-190506" lat="59.6651111149" lon="10.5832611144">
		<tag k="name" v="Lagtangen" />
		<tag k="natural" v="cape" />
		<tag k="ssr:stedsnr" v="907871" />
	</node>
	<node id="-190505" lat="59.5633472486" lon="10.6067927151">
		<tag k="name" v="Båsen" />
		<tag k="natural" v="bay" />
		<tag k="ssr:stedsnr" v="907268" />
	</node>
	<node id="-190497" lat="59.5405972235" lon="10.4132472269">
		<tag k="name" v="Holtnesstøa" />
		<tag k="natural" v="bay" />
		<tag k="ssr:stedsnr" v="878832" />
	</node>
	<node id="-190494" lat="59.573077782" lon="10.4167138919">
		<tag k="name" v="Furugrunnen" />
		<tag k="natural" v="shoal" />
		<tag k="place" v="locality" />
		<tag k="ssr:stedsnr" v="877815" />
	</node>
	<node id="-190490" lat="59.6535361107" lon="10.4363805524">
		<tag k="alt_name" v="Selvigstranda" />
		<tag k="name" v="Selvikstranda" />
		<tag k="natural" v="beach" />
		<tag k="place" v="locality" />
		<tag k="ssr:stedsnr" v="874854" />
	</node>
	<node id="-190488" lat="59.6831055598" lon="10.5337361097">
		<tag k="fixme" v="consider seamark:type=rock or natural=shoal" />
		<tag k="name" v="Kavringen" />
		<tag k="place" v="islet" />
		<tag k="ssr:stedsnr" v="866787" />
	</node>
	<node id="-189975" lat="59.5587361139" lon="10.597763885">
		<tag k="name" v="Vestervik" />
		<tag k="natural" v="bay" />
		<tag k="ssr:stedsnr" v="222646" />
	</node>
	<node id="-190484" lat="59.5599638924" lon="10.4179166708">
		<tag k="alt_name" v="Holmsbusteinene" />
		<tag k="fixme" v="consider seamark:type=rock or natural=shoal" />
		<tag k="name" v="Holmsbusteinane" />
		<tag k="place" v="islet" />
		<tag k="ssr:stedsnr" v="853677" />
	</node>
	<node id="-189968" lat="59.5226553736" lon="10.4758874762">
		<tag k="alt_name" v="Knatvoldstranda" />
		<tag k="name" v="Knattvollstranda" />
		<tag k="natural" v="bay" />
		<tag k="ssr:stedsnr" v="210090" />
	</node>
	<node id="-190478" lat="59.5239397128" lon="10.4833786347">
		<tag k="name" v="Ertsvika" />
		<tag k="natural" v="bay" />
		<tag k="ssr:stedsnr" v="852516" />
	</node>
	<node id="-189964" lat="59.5512138877" lon="10.5864916749">
		<tag k="alt_name" v="Røedsodden" />
		<tag k="name" v="Rødsodden" />
		<tag k="natural" v="cape" />
		<tag k="ssr:stedsnr" v="207845" />
	</node>
	<node id="-189961" lat="59.6723638872" lon="10.5722555577">
		<tag k="name" v="Rognholmbåen" />
		<tag k="natural" v="shoal" />
		<tag k="place" v="locality" />
		<tag k="ssr:stedsnr" v="206872" />
	</node>
	<node id="-190470" lat="59.5181601937" lon="10.466596145">
		<tag k="alt_name" v="Dalsvika" />
		<tag k="name" v="Delsvik" />
		<tag k="natural" v="bay" />
		<tag k="ssr:stedsnr" v="848061" />
	</node>
	<node id="-190469" lat="59.6267472298" lon="10.6069697661">
		<tag k="name" v="Plankebukta" />
		<tag k="natural" v="bay" />
		<tag k="ssr:stedsnr" v="847592" />
	</node>
</osm>
