<?xml version="1.0" encoding="UTF-8"?>
<osm generator="osmapis" version="0.6">
	<node id="-189951" lat="59.5504888898" lon="10.5125222255">
		<tag k="name" v="Ospeleina" />
		<tag k="natural" v="slope" />
		<tag k="place" v="locality" />
		<tag k="ssr:stedsnr" v="362639" />
	</node>
	<node id="-189950" lat="59.6210555566" lon="10.4578805514">
		<tag k="alt_name" v="Bråtekollen" />
		<tag k="name" v="Bråtakollen" />
		<tag k="natural" v="hill" />
		<tag k="place" v="locality" />
		<tag k="ssr:stedsnr" v="362558" />
	</node>
	<node id="-190461" lat="59.5396222212" lon="10.5085500057">
		<tag k="alt_name" v="Ranvikkollen" />
		<tag k="fixme" v="consider natural=peak for the most distinct mountains in the district" />
		<tag k="name" v="Ramvikkollen" />
		<tag k="natural" v="hill" />
		<tag k="place" v="locality" />
		<tag k="ssr:stedsnr" v="610575" />
	</node>
	<node id="-189946" lat="59.6471972233" lon="10.570191671">
		<tag k="name" v="Grønsandkleiva" />
		<tag k="natural" v="slope" />
		<tag k="place" v="locality" />
		<tag k="ssr:stedsnr" v="362345" />
	</node>
	<node id="-190456" lat="59.6593249976" lon="10.5750527721">
		<tag k="fixme" v="consider natural=peak for the most distinct mountains in the district" />
		<tag k="name" v="Pinakollen" />
		<tag k="natural" v="hill" />
		<tag k="place" v="locality" />
		<tag k="ssr:stedsnr" v="605360" />
	</node>
	<node id="-190548" lat="59.5396138868" lon="10.4889361035">
		<tag k="name" v="Kjosåsen" />
		<tag k="natural" v="hill" />
		<tag k="place" v="locality" />
		<tag k="ssr:stedsnr" v="709137" />
	</node>
	<node id="-189942" lat="59.5361527765" lon="10.4280222298">
		<tag k="fixme" v="consider natural=peak for the most distinct mountains in the district" />
		<tag k="name" v="Kjelleråsen" />
		<tag k="natural" v="hill" />
		<tag k="place" v="locality" />
		<tag k="ssr:stedsnr" v="362123" />
	</node>
	<node id="-190633" lat="59.6238611078" lon="10.5178583299">
		<tag k="fixme" v="consider natural=peak for the most distinct mountains in the district" />
		<tag k="name" v="Skavmyrfjellet" />
		<tag k="natural" v="hill" />
		<tag k="place" v="locality" />
		<tag k="ssr:stedsnr" v="783559" />
	</node>
	<node id="-189940" lat="59.5498944403" lon="10.5290194422">
		<tag k="name" v="Lesserhøgda" />
		<tag k="natural" v="hill" />
		<tag k="place" v="locality" />
		<tag k="ssr:stedsnr" v="362637" />
	</node>
	<node id="-190450" lat="59.6187444431" lon="10.5610444484">
		<tag k="name" v="Husebyvannsdalen" />
		<tag k="natural" v="valley" />
		<tag k="place" v="locality" />
		<tag k="ssr:stedsnr" v="604633" />
	</node>
	<node id="-189937" lat="59.6334638859" lon="10.5520805558">
		<tag k="fixme" v="consider natural=peak for the most distinct mountains in the district" />
		<tag k="name" v="Kjelleråsen" />
		<tag k="natural" v="hill" />
		<tag k="place" v="locality" />
		<tag k="ssr:stedsnr" v="362616" />
	</node>
	<node id="-189932" lat="59.6541166677" lon="10.4463249932">
		<tag k="name" v="Flaubekkjuvet" />
		<tag k="natural" v="slope" />
		<tag k="place" v="locality" />
		<tag k="ssr:stedsnr" v="361307" />
	</node>
	<node id="-190443" lat="59.6397527779" lon="10.5174944469">
		<tag k="name" v="Småkleivene" />
		<tag k="natural" v="slope" />
		<tag k="place" v="locality" />
		<tag k="ssr:stedsnr" v="601851" />
	</node>
	<node id="-189930" lat="59.634700004" lon="10.5622472229">
		<tag k="fixme" v="consider natural=peak for the most distinct mountains in the district" />
		<tag k="name" v="Rogndalshøgda" />
		<tag k="natural" v="hill" />
		<tag k="place" v="locality" />
		<tag k="ssr:stedsnr" v="237529" />
	</node>
	<node id="-189929" lat="59.6321388922" lon="10.5787444363">
		<tag k="fixme" v="consider natural=peak for the most distinct mountains in the district" />
		<tag k="name" v="Helvetesåsen" />
		<tag k="natural" v="hill" />
		<tag k="place" v="locality" />
		<tag k="ssr:stedsnr" v="237521" />
	</node>
	<node id="-190439" lat="59.6028361087" lon="10.5491249917">
		<tag k="name" v="Eikhaugene" />
		<tag k="natural" v="hill" />
		<tag k="place" v="locality" />
		<tag k="ssr:stedsnr" v="588756" />
	</node>
	<node id="-190438" lat="59.5961277781" lon="10.5414472224">
		<tag k="fixme" v="consider natural=peak for the most distinct mountains in the district" />
		<tag k="name" v="Røsvannsåsen" />
		<tag k="natural" v="hill" />
		<tag k="place" v="locality" />
		<tag k="ssr:stedsnr" v="588748" />
	</node>
	<node id="-190630" lat="59.6189749974" lon="10.5734111081">
		<tag k="name" v="Høymosedalen" />
		<tag k="natural" v="valley" />
		<tag k="place" v="locality" />
		<tag k="ssr:stedsnr" v="770736" />
	</node>
	<node id="-190433" lat="59.5916305598" lon="10.4694666752">
		<tag k="fixme" v="consider natural=peak for the most distinct mountains in the district" />
		<tag k="name" v="Tveitaåsen" />
		<tag k="natural" v="hill" />
		<tag k="place" v="locality" />
		<tag k="ssr:stedsnr" v="588475" />
	</node>
	<node id="-190432" lat="59.5851527744" lon="10.4639583308">
		<tag k="name" v="Hølåsdalen" />
		<tag k="natural" v="valley" />
		<tag k="place" v="locality" />
		<tag k="ssr:stedsnr" v="588474" />
	</node>
	<node id="-190431" lat="59.5916250031" lon="10.4730249915">
		<tag k="alt_name" v="Tveita søndre" />
		<tag k="fixme" v="consider natural=peak for the most distinct mountains in the district" />
		<tag k="name" v="Søndre Tveita" />
		<tag k="natural" v="hill" />
		<tag k="place" v="locality" />
		<tag k="ssr:stedsnr" v="588470" />
	</node>
	<node id="-190429" lat="59.5912555574" lon="10.4939305518">
		<tag k="fixme" v="consider natural=peak for the most distinct mountains in the district" />
		<tag k="name" v="Kleivenåsen" />
		<tag k="natural" v="hill" />
		<tag k="place" v="locality" />
		<tag k="ssr:stedsnr" v="587700" />
	</node>
	<node id="-190425" lat="59.538052781" lon="10.4713416731">
		<tag k="name" v="Karikollen" />
		<tag k="natural" v="hill" />
		<tag k="place" v="locality" />
		<tag k="ssr:stedsnr" v="587178" />
	</node>
	<node id="-190423" lat="59.5669166663" lon="10.5652111046">
		<tag k="name" v="Fosseskogen" />
		<tag k="natural" v="hill" />
		<tag k="place" v="locality" />
		<tag k="ssr:stedsnr" v="586696" />
	</node>
	<node id="-189908" lat="59.6721055564" lon="10.4682833368">
		<tag k="fixme" v="consider natural=peak for the most distinct mountains in the district" />
		<tag k="name" v="Mårberga" />
		<tag k="natural" v="hill" />
		<tag k="place" v="locality" />
		<tag k="ssr:stedsnr" v="343245" />
	</node>
	<node id="-189907" lat="59.5564055548" lon="10.4420611107">
		<tag k="fixme" v="consider natural=peak for the most distinct mountains in the district" />
		<tag k="name" v="Haukåsen" />
		<tag k="natural" v="hill" />
		<tag k="place" v="locality" />
		<tag k="ssr:stedsnr" v="343178" />
	</node>
	<node id="-189906" lat="59.6699083341" lon="10.5153249988">
		<tag k="fixme" v="consider natural=peak for the most distinct mountains in the district" />
		<tag k="name" v="Elvåsen" />
		<tag k="natural" v="hill" />
		<tag k="place" v="locality" />
		<tag k="ssr:stedsnr" v="342754" />
	</node>
	<node id="-190417" lat="59.6747166692" lon="10.4828500024">
		<tag k="fixme" v="consider natural=peak for the most distinct mountains in the district" />
		<tag k="name" v="Brånaråsen" />
		<tag k="natural" v="hill" />
		<tag k="place" v="locality" />
		<tag k="ssr:stedsnr" v="586291" />
	</node>
	<node id="-190416" lat="59.6764305596" lon="10.5483305486">
		<tag k="fixme" v="consider natural=peak for the most distinct mountains in the district" />
		<tag k="name" v="Engenekollen" />
		<tag k="natural" v="hill" />
		<tag k="place" v="locality" />
		<tag k="ssr:stedsnr" v="585261" />
	</node>
	<node id="-189944" lat="59.6644777802" lon="10.5352277857">
		<tag k="fixme" v="consider natural=peak for the most distinct mountains in the district" />
		<tag k="name" v="Stampeleinåsen" />
		<tag k="natural" v="hill" />
		<tag k="place" v="locality" />
		<tag k="ssr:stedsnr" v="362332" />
	</node>
	<node id="-190407" lat="59.6200111129" lon="10.4581527811">
		<tag k="fixme" v="consider natural=peak for the most distinct mountains in the district" />
		<tag k="name" v="Klokkarstuåsen" />
		<tag k="natural" v="hill" />
		<tag k="place" v="locality" />
		<tag k="ssr:stedsnr" v="549647" />
	</node>
	<node id="-190405" lat="59.5373499963" lon="10.4566638971">
		<tag k="fixme" v="consider natural=peak for the most distinct mountains in the district" />
		<tag k="name" v="Haraldsfjellet" />
		<tag k="natural" v="hill" />
		<tag k="place" v="locality" />
		<tag k="ssr:stedsnr" v="549517" />
	</node>
	<node id="-190402" lat="59.6412222255" lon="10.5408194391">
		<tag k="name" v="Kubakken" />
		<tag k="natural" v="slope" />
		<tag k="place" v="locality" />
		<tag k="ssr:stedsnr" v="544890" />
	</node>
	<node id="-190401" lat="59.5508111089" lon="10.5159333405">
		<tag k="name" v="Høibrudalen" />
		<tag k="natural" v="valley" />
		<tag k="place" v="locality" />
		<tag k="ssr:stedsnr" v="544638" />
	</node>
	<node id="-190400" lat="59.5461444442" lon="10.4967416669">
		<tag k="name" v="Lillenga" />
		<tag k="natural" v="slope" />
		<tag k="place" v="locality" />
		<tag k="ssr:stedsnr" v="544615" />
	</node>
	<node id="-190673" lat="59.6779388914" lon="10.5107333379">
		<tag k="fixme" v="consider natural=peak for the most distinct mountains in the district" />
		<tag k="name" v="Sætreåsen" />
		<tag k="natural" v="hill" />
		<tag k="place" v="locality" />
		<tag k="ssr:stedsnr" v="813795" />
	</node>
	<node id="-190394" lat="59.5333833355" lon="10.4317583421">
		<tag k="fixme" v="consider natural=peak for the most distinct mountains in the district" />
		<tag k="name" v="Storleinåsen" />
		<tag k="natural" v="hill" />
		<tag k="place" v="locality" />
		<tag k="ssr:stedsnr" v="544112" />
	</node>
	<node id="-190393" lat="59.5486972207" lon="10.4372194457">
		<tag k="name" v="Braste" />
		<tag k="natural" v="hill" />
		<tag k="place" v="locality" />
		<tag k="ssr:stedsnr" v="544096" />
	</node>
	<node id="-190392" lat="59.5257722197" lon="10.461313887">
		<tag k="name" v="Breileina" />
		<tag k="natural" v="slope" />
		<tag k="place" v="locality" />
		<tag k="ssr:stedsnr" v="544065" />
	</node>
	<node id="-190391" lat="59.526327778" lon="10.479758326">
		<tag k="fixme" v="consider natural=peak for the most distinct mountains in the district" />
		<tag k="name" v="Smedåsen" />
		<tag k="natural" v="hill" />
		<tag k="place" v="locality" />
		<tag k="ssr:stedsnr" v="544062" />
	</node>
	<node id="-189872" lat="59.5384166709" lon="10.4205833317">
		<tag k="fixme" v="consider natural=peak for the most distinct mountains in the district" />
		<tag k="name" v="Smedåsen" />
		<tag k="natural" v="hill" />
		<tag k="place" v="locality" />
		<tag k="ssr:stedsnr" v="302142" />
	</node>
	<node id="-189871" lat="59.5459999972" lon="10.4236611027">
		<tag k="name" v="Holtnesdalen" />
		<tag k="natural" v="valley" />
		<tag k="place" v="locality" />
		<tag k="ssr:stedsnr" v="302140" />
	</node>
	<node id="-190382" lat="59.5793472265" lon="10.4977583304">
		<tag k="fixme" v="consider natural=peak for the most distinct mountains in the district" />
		<tag k="name" v="Svartvannskollen" />
		<tag k="natural" v="hill" />
		<tag k="place" v="locality" />
		<tag k="ssr:stedsnr" v="527673" />
	</node>
	<node id="-190536" lat="59.6064583307" lon="10.4909722203">
		<tag k="fixme" v="consider natural=peak for the most distinct mountains in the district" />
		<tag k="name" v="Dalenåsen" />
		<tag k="natural" v="hill" />
		<tag k="place" v="locality" />
		<tag k="ssr:stedsnr" v="707559" />
	</node>
	<node id="-189868" lat="59.5461888918" lon="10.5155305486">
		<tag k="name" v="Auenkleiva" />
		<tag k="natural" v="slope" />
		<tag k="place" v="locality" />
		<tag k="ssr:stedsnr" v="301619" />
	</node>
	<node id="-190379" lat="59.5811916635" lon="10.533041672">
		<tag k="name" v="Røskestadholen" />
		<tag k="natural" v="hill" />
		<tag k="place" v="locality" />
		<tag k="ssr:stedsnr" v="527648" />
	</node>
	<node id="-189865" lat="59.636766667" lon="10.4510583326">
		<tag k="name" v="Rulten" />
		<tag k="natural" v="hill" />
		<tag k="place" v="locality" />
		<tag k="ssr:stedsnr" v="301559" />
	</node>
	<node id="-190376" lat="59.5913805562" lon="10.5698194492">
		<tag k="name" v="Eikskogen" />
		<tag k="place" v="locality" />
		<tag k="ssr:stedsnr" v="527637" />
	</node>
	<node id="-190375" lat="59.5899277747" lon="10.4683277737">
		<tag k="name" v="Stokkerkjøa" />
		<tag k="natural" v="valley" />
		<tag k="place" v="locality" />
		<tag k="ssr:stedsnr" v="527494" />
	</node>
	<node id="-190372" lat="59.5677027742" lon="10.5528555618">
		<tag k="name" v="Høymyrdalen" />
		<tag k="natural" v="valley" />
		<tag k="place" v="locality" />
		<tag k="ssr:stedsnr" v="526706" />
	</node>
	<node id="-189857" lat="59.6475249998" lon="10.4983833319">
		<tag k="name" v="Gampeskøttdalen" />
		<tag k="natural" v="valley" />
		<tag k="place" v="locality" />
		<tag k="ssr:stedsnr" v="298839" />
	</node>
	<node id="-189855" lat="59.6360416651" lon="10.5769249995">
		<tag k="name" v="Burudkleiva" />
		<tag k="natural" v="slope" />
		<tag k="place" v="locality" />
		<tag k="ssr:stedsnr" v="298497" />
	</node>
	<node id="-190706" lat="59.6425805535" lon="10.5228750052">
		<tag k="name" v="Sandbrøytene" />
		<tag k="natural" v="slope" />
		<tag k="place" v="locality" />
		<tag k="ssr:stedsnr" v="844889" />
	</node>
	<node id="-190364" lat="59.6681861069" lon="10.4467527761">
		<tag k="fixme" v="consider natural=peak for the most distinct mountains in the district" />
		<tag k="name" v="Rørvikfjell" />
		<tag k="natural" v="hill" />
		<tag k="place" v="locality" />
		<tag k="ssr:stedsnr" v="525280" />
	</node>
	<node id="-189850" lat="59.6081555539" lon="10.5437527805">
		<tag k="name" v="Sundbydalen" />
		<tag k="natural" v="valley" />
		<tag k="place" v="locality" />
		<tag k="ssr:stedsnr" v="285720" />
	</node>
	<node id="-189849" lat="59.6025499995" lon="10.585897226">
		<tag k="name" v="Bolldalen" />
		<tag k="natural" v="valley" />
		<tag k="place" v="locality" />
		<tag k="ssr:stedsnr" v="285701" />
	</node>
	<node id="-189848" lat="59.5991500026" lon="10.5554583304">
		<tag k="fixme" v="consider natural=peak for the most distinct mountains in the district" />
		<tag k="name" v="Svartvannskollen" />
		<tag k="natural" v="hill" />
		<tag k="place" v="locality" />
		<tag k="ssr:stedsnr" v="285692" />
	</node>
	<node id="-189847" lat="59.5850249961" lon="10.5696472239">
		<tag k="name" v="Apparatsletta" />
		<tag k="place" v="locality" />
		<tag k="ssr:stedsnr" v="285640" />
	</node>
	<node id="-189846" lat="59.5773916634" lon="10.582147217">
		<tag k="fixme" v="consider natural=peak for the most distinct mountains in the district" />
		<tag k="name" v="Skipperåsen" />
		<tag k="natural" v="hill" />
		<tag k="place" v="locality" />
		<tag k="ssr:stedsnr" v="285639" />
	</node>
	<node id="-189845" lat="59.6012249966" lon="10.5033027777">
		<tag k="name" v="Storemyr" />
		<tag k="natural" v="valley" />
		<tag k="place" v="locality" />
		<tag k="ssr:stedsnr" v="285630" />
	</node>
	<node id="-190755" lat="59.5417694413" lon="10.4376694419">
		<tag k="fixme" v="consider natural=peak for the most distinct mountains in the district" />
		<tag k="name" v="Kølåsen" />
		<tag k="natural" v="hill" />
		<tag k="place" v="locality" />
		<tag k="ssr:stedsnr" v="909111" />
	</node>
	<node id="-190349" lat="59.6526972262" lon="10.5418055485">
		<tag k="fixme" v="consider natural=peak for the most distinct mountains in the district" />
		<tag k="name" v="Midtskogåsen" />
		<tag k="natural" v="hill" />
		<tag k="place" v="locality" />
		<tag k="ssr:stedsnr" v="489835" />
	</node>
	<node id="-190348" lat="59.6603944485" lon="10.5825750063">
		<tag k="fixme" v="consider natural=peak for the most distinct mountains in the district" />
		<tag k="name" v="Lagåsen" />
		<tag k="natural" v="hill" />
		<tag k="place" v="locality" />
		<tag k="ssr:stedsnr" v="489822" />
	</node>
	<node id="-189834" lat="59.5657333309" lon="10.510833339">
		<tag k="fixme" v="consider natural=peak for the most distinct mountains in the district" />
		<tag k="name" v="Lomvannsåsen" />
		<tag k="natural" v="hill" />
		<tag k="place" v="locality" />
		<tag k="ssr:stedsnr" v="283543" />
	</node>
	<node id="-189833" lat="59.5678416685" lon="10.5148416693">
		<tag k="name" v="Kremmerås" />
		<tag k="natural" v="ridge" />
		<tag k="place" v="locality" />
		<tag k="ssr:stedsnr" v="283539" />
	</node>
	<node id="-189831" lat="59.5656972261" lon="10.5309583332">
		<tag k="name" v="Sjuetasjedalen" />
		<tag k="natural" v="valley" />
		<tag k="place" v="locality" />
		<tag k="ssr:stedsnr" v="283522" />
	</node>
	<node id="-189828" lat="59.6703527815" lon="10.4852138802">
		<tag k="name" v="Nåbyvannsdalen" />
		<tag k="natural" v="valley" />
		<tag k="place" v="locality" />
		<tag k="ssr:stedsnr" v="283229" />
	</node>
	<node id="-189827" lat="59.6718916675" lon="10.4569277786">
		<tag k="name" v="Sandungdalen" />
		<tag k="natural" v="valley" />
		<tag k="place" v="locality" />
		<tag k="ssr:stedsnr" v="283220" />
	</node>
	<node id="-189826" lat="59.6798249981" lon="10.4353194502">
		<tag k="name" v="Havneleina" />
		<tag k="natural" v="slope" />
		<tag k="place" v="locality" />
		<tag k="ssr:stedsnr" v="283218" />
	</node>
	<node id="-189931" lat="59.636699999" lon="10.5519805639">
		<tag k="name" v="Bjelkebakk" />
		<tag k="natural" v="slope" />
		<tag k="place" v="locality" />
		<tag k="ssr:stedsnr" v="237532" />
	</node>
	<node id="-190336" lat="59.5368555596" lon="10.4137083393">
		<tag k="name" v="Røysene" />
		<tag k="natural" v="slope" />
		<tag k="place" v="locality" />
		<tag k="ssr:stedsnr" v="484099" />
	</node>
	<node id="-189822" lat="59.5566166664" lon="10.4544916702">
		<tag k="fixme" v="consider natural=peak for the most distinct mountains in the district" />
		<tag k="name" v="Bergåsen" />
		<tag k="natural" v="hill" />
		<tag k="place" v="locality" />
		<tag k="ssr:stedsnr" v="282167" />
	</node>
	<node id="-189821" lat="59.673105552" lon="10.5584583333">
		<tag k="fixme" v="consider natural=peak for the most distinct mountains in the district" />
		<tag k="name" v="Verpenåsen" />
		<tag k="natural" v="hill" />
		<tag k="place" v="locality" />
		<tag k="ssr:stedsnr" v="278104" />
	</node>
	<node id="-189820" lat="59.5742833363" lon="10.4333722153">
		<tag k="name" v="Flatfjell" />
		<tag k="place" v="locality" />
		<tag k="ssr:stedsnr" v="273597" />
	</node>
	<node id="-190783" lat="59.6665638855" lon="10.4431500038">
		<tag k="name" v="Romslia" />
		<tag k="natural" v="slope" />
		<tag k="place" v="locality" />
		<tag k="ssr:stedsnr" v="950268" />
	</node>
	<node id="-190325" lat="59.6477138918" lon="10.4480888898">
		<tag k="fixme" v="consider natural=peak for the most distinct mountains in the district" />
		<tag k="name" v="Blåbærfjell" />
		<tag k="natural" v="hill" />
		<tag k="place" v="locality" />
		<tag k="ssr:stedsnr" v="482257" />
	</node>
	<node id="-190323" lat="59.633266671" lon="10.508919437">
		<tag k="fixme" v="consider natural=peak for the most distinct mountains in the district" />
		<tag k="name" v="Kaståsen" />
		<tag k="natural" v="hill" />
		<tag k="place" v="locality" />
		<tag k="ssr:stedsnr" v="480889" />
	</node>
	<node id="-190322" lat="59.6453194422" lon="10.5330944456">
		<tag k="fixme" v="consider natural=peak for the most distinct mountains in the district" />
		<tag k="name" v="Slottemyråsen" />
		<tag k="natural" v="hill" />
		<tag k="place" v="locality" />
		<tag k="ssr:stedsnr" v="480877" />
	</node>
	<node id="-190319" lat="59.6030555567" lon="10.5601916684">
		<tag k="name" v="Husebytangen" />
		<tag k="natural" v="hill" />
		<tag k="place" v="locality" />
		<tag k="ssr:stedsnr" v="467759" />
	</node>
	<node id="-190318" lat="59.6032722229" lon="10.5365111194">
		<tag k="fixme" v="consider natural=peak for the most distinct mountains in the district" />
		<tag k="name" v="Rødvannsåsen" />
		<tag k="natural" v="hill" />
		<tag k="place" v="locality" />
		<tag k="ssr:stedsnr" v="467752" />
	</node>
	<node id="-190314" lat="59.5891222248" lon="10.5012027735">
		<tag k="name" v="Bjørnsruddalen" />
		<tag k="natural" v="valley" />
		<tag k="place" v="locality" />
		<tag k="ssr:stedsnr" v="466695" />
	</node>
	<node id="-189927" lat="59.6666972182" lon="10.489969438">
		<tag k="fixme" v="consider natural=peak for the most distinct mountains in the district" />
		<tag k="name" v="Rokkemyråsen" />
		<tag k="natural" v="hill" />
		<tag k="place" v="locality" />
		<tag k="ssr:stedsnr" v="358864" />
	</node>
	<node id="-190820" lat="59.6512750004" lon="10.5686944381">
		<tag k="name" v="Mørkganga" />
		<tag k="natural" v="valley" />
		<tag k="place" v="locality" />
		<tag k="ssr:stedsnr" v="969334" />
	</node>
	<node id="-190307" lat="59.6782583367" lon="10.439924999">
		<tag k="name" v="Stordalen" />
		<tag k="natural" v="valley" />
		<tag k="place" v="locality" />
		<tag k="ssr:stedsnr" v="465251" />
	</node>
	<node id="-190818" lat="59.6700138897" lon="10.4921416581">
		<tag k="fixme" v="consider natural=peak for the most distinct mountains in the district" />
		<tag k="name" v="Bjørvannsholene" />
		<tag k="natural" v="hill" />
		<tag k="place" v="locality" />
		<tag k="ssr:stedsnr" v="969312" />
	</node>
	<node id="-190816" lat="59.523041665" lon="10.4931027814">
		<tag k="fixme" v="consider natural=peak for the most distinct mountains in the district" />
		<tag k="name" v="Kattsundåsen" />
		<tag k="natural" v="hill" />
		<tag k="place" v="locality" />
		<tag k="ssr:stedsnr" v="969129" />
	</node>
	<node id="-190303" lat="59.5244138917" lon="10.4404833321">
		<tag k="name" v="Korrvikdalen" />
		<tag k="natural" v="valley" />
		<tag k="place" v="locality" />
		<tag k="ssr:stedsnr" v="464086" />
	</node>
	<node id="-190302" lat="59.5239111071" lon="10.4369972166">
		<tag k="fixme" v="consider natural=peak for the most distinct mountains in the district" />
		<tag k="name" v="Solfjellåsene" />
		<tag k="natural" v="hill" />
		<tag k="place" v="locality" />
		<tag k="ssr:stedsnr" v="464082" />
	</node>
	<node id="-190813" lat="59.5482083303" lon="10.4236833367">
		<tag k="name" v="Amundsåsen" />
		<tag k="natural" v="hill" />
		<tag k="place" v="locality" />
		<tag k="ssr:stedsnr" v="969121" />
	</node>
	<node id="-190812" lat="59.5478888893" lon="10.5497333266">
		<tag k="name" v="Barlinddalen" />
		<tag k="natural" v="valley" />
		<tag k="place" v="locality" />
		<tag k="ssr:stedsnr" v="968641" />
	</node>
	<node id="-190811" lat="59.5485416652" lon="10.5568750086">
		<tag k="name" v="Toftekleiva" />
		<tag k="natural" v="slope" />
		<tag k="place" v="locality" />
		<tag k="ssr:stedsnr" v="968640" />
	</node>
	<node id="-190810" lat="59.5570555524" lon="10.4819388816">
		<tag k="name" v="Graverdalen" />
		<tag k="natural" v="valley" />
		<tag k="place" v="locality" />
		<tag k="ssr:stedsnr" v="967190" />
	</node>
	<node id="-190297" lat="59.5618916661" lon="10.4395888892">
		<tag k="fixme" v="consider natural=peak for the most distinct mountains in the district" />
		<tag k="name" v="Holmsåsen" />
		<tag k="natural" v="hill" />
		<tag k="place" v="locality" />
		<tag k="ssr:stedsnr" v="455565" />
	</node>
	<node id="-190803" lat="59.6601277748" lon="10.475141674">
		<tag k="fixme" v="consider natural=peak for the most distinct mountains in the district" />
		<tag k="name" v="Seteråsen" />
		<tag k="natural" v="hill" />
		<tag k="place" v="locality" />
		<tag k="ssr:stedsnr" v="967240" />
	</node>
	<node id="-190802" lat="59.6519972209" lon="10.4480250083">
		<tag k="fixme" v="consider natural=peak for the most distinct mountains in the district" />
		<tag k="name" v="Tiurfjell" />
		<tag k="natural" v="hill" />
		<tag k="place" v="locality" />
		<tag k="ssr:stedsnr" v="967217" />
	</node>
	<node id="-190800" lat="59.6097166658" lon="10.5551500053">
		<tag k="fixme" v="consider natural=peak for the most distinct mountains in the district" />
		<tag k="name" v="Nilsåsen" />
		<tag k="natural" v="hill" />
		<tag k="place" v="locality" />
		<tag k="ssr:stedsnr" v="952730" />
	</node>
	<node id="-190799" lat="59.6133694415" lon="10.5515083382">
		<tag k="fixme" v="consider natural=peak for the most distinct mountains in the district" />
		<tag k="name" v="Aklangåsen" />
		<tag k="natural" v="hill" />
		<tag k="place" v="locality" />
		<tag k="ssr:stedsnr" v="952724" />
	</node>
	<node id="-190797" lat="59.6035833336" lon="10.5724805496">
		<tag k="name" v="Langmyrholen" />
		<tag k="natural" v="hill" />
		<tag k="place" v="locality" />
		<tag k="ssr:stedsnr" v="952706" />
	</node>
	<node id="-190795" lat="59.5939194447" lon="10.5505055609">
		<tag k="name" v="Sirismyrdalen" />
		<tag k="natural" v="valley" />
		<tag k="place" v="locality" />
		<tag k="ssr:stedsnr" v="952627" />
	</node>
	<node id="-190794" lat="59.5864527772" lon="10.5447416602">
		<tag k="fixme" v="consider natural=peak for the most distinct mountains in the district" />
		<tag k="name" v="Vestre Nøklemyrås" />
		<tag k="natural" v="hill" />
		<tag k="place" v="locality" />
		<tag k="ssr:stedsnr" v="952628" />
	</node>
	<node id="-190792" lat="59.5841555546" lon="10.5362777828">
		<tag k="fixme" v="consider natural=peak for the most distinct mountains in the district" />
		<tag k="name" v="Tjæreeldås" />
		<tag k="natural" v="hill" />
		<tag k="place" v="locality" />
		<tag k="ssr:stedsnr" v="952616" />
	</node>
	<node id="-190669" lat="59.6433722203" lon="10.4593250054">
		<tag k="alt_name" v="Røysås" />
		<tag k="fixme" v="consider natural=peak for the most distinct mountains in the district" />
		<tag k="name" v="Røysåsen" />
		<tag k="natural" v="hill" />
		<tag k="place" v="locality" />
		<tag k="ssr:stedsnr" v="792821" />
	</node>
	<node id="-190278" lat="59.5471138934" lon="10.5372083338">
		<tag k="name" v="Skogfjell" />
		<tag k="natural" v="hill" />
		<tag k="place" v="locality" />
		<tag k="ssr:stedsnr" v="423667" />
	</node>
	<node id="-190789" lat="59.5906166636" lon="10.4500611157">
		<tag k="fixme" v="consider natural=peak for the most distinct mountains in the district" />
		<tag k="name" v="Århaneåsen" />
		<tag k="natural" v="hill" />
		<tag k="place" v="locality" />
		<tag k="ssr:stedsnr" v="952487" />
	</node>
	<node id="-190787" lat="59.5726638881" lon="10.5448166635">
		<tag k="name" v="Snøplogleina" />
		<tag k="natural" v="slope" />
		<tag k="place" v="locality" />
		<tag k="ssr:stedsnr" v="951712" />
	</node>
	<node id="-190273" lat="59.6784999993" lon="10.5095138802">
		<tag k="fixme" v="consider natural=peak for the most distinct mountains in the district" />
		<tag k="name" v="Grevlingåsen" />
		<tag k="natural" v="hill" />
		<tag k="place" v="locality" />
		<tag k="ssr:stedsnr" v="423354" />
	</node>
	<node id="-190272" lat="59.6698666709" lon="10.543572224">
		<tag k="fixme" v="consider natural=peak for the most distinct mountains in the district" />
		<tag k="name" v="Tyrihjellåsen" />
		<tag k="natural" v="hill" />
		<tag k="place" v="locality" />
		<tag k="ssr:stedsnr" v="423351" />
	</node>
	<node id="-190271" lat="59.6736055523" lon="10.4976472177">
		<tag k="name" v="Stordalen" />
		<tag k="natural" v="valley" />
		<tag k="place" v="locality" />
		<tag k="ssr:stedsnr" v="423339" />
	</node>
	<node id="-190268" lat="59.648386107" lon="10.4414999964">
		<tag k="name" v="Kalvedalen" />
		<tag k="natural" v="valley" />
		<tag k="place" v="locality" />
		<tag k="ssr:stedsnr" v="422252" />
	</node>
	<node id="-190267" lat="59.6523305528" lon="10.5247888813">
		<tag k="alt_name" v="Mørkåsen søndre" />
		<tag k="fixme" v="consider natural=peak for the most distinct mountains in the district" />
		<tag k="name" v="Søndre Mørkåsen" />
		<tag k="natural" v="hill" />
		<tag k="place" v="locality" />
		<tag k="ssr:stedsnr" v="419871" />
	</node>
	<node id="-190265" lat="59.6262361154" lon="10.5700444454">
		<tag k="fixme" v="consider natural=peak for the most distinct mountains in the district" />
		<tag k="name" v="Gleinås" />
		<tag k="natural" v="hill" />
		<tag k="place" v="locality" />
		<tag k="ssr:stedsnr" v="268893" />
	</node>
	<node id="-190260" lat="59.6739666686" lon="10.5014805488">
		<tag k="fixme" v="consider natural=peak for the most distinct mountains in the district" />
		<tag k="name" v="Lauvåsen" />
		<tag k="natural" v="hill" />
		<tag k="place" v="locality" />
		<tag k="ssr:stedsnr" v="246831" />
	</node>
	<node id="-190686" lat="59.6706222224" lon="10.4611166747">
		<tag k="fixme" v="consider natural=peak for the most distinct mountains in the district" />
		<tag k="name" v="Høymyrbuktåsen" />
		<tag k="natural" v="hill" />
		<tag k="place" v="locality" />
		<tag k="ssr:stedsnr" v="829255" />
	</node>
	<node id="-190258" lat="59.5696138895" lon="10.5014305556">
		<tag k="fixme" v="consider natural=peak for the most distinct mountains in the district" />
		<tag k="name" v="Dustadkollen" />
		<tag k="natural" v="hill" />
		<tag k="place" v="locality" />
		<tag k="ssr:stedsnr" v="246675" />
	</node>
	<node id="-190257" lat="59.5630416649" lon="10.5368194399">
		<tag k="fixme" v="consider natural=peak for the most distinct mountains in the district" />
		<tag k="name" v="Delåsen" />
		<tag k="natural" v="hill" />
		<tag k="place" v="locality" />
		<tag k="ssr:stedsnr" v="246658" />
	</node>
	<node id="-190617" lat="59.5853500039" lon="10.456758327">
		<tag k="name" v="Svartvannsdalen" />
		<tag k="natural" v="valley" />
		<tag k="place" v="locality" />
		<tag k="ssr:stedsnr" v="770461" />
	</node>
	<node id="-190252" lat="59.6012111083" lon="10.6051305582">
		<tag k="fixme" v="consider natural=peak for the most distinct mountains in the district" />
		<tag k="name" v="Julshøgda" />
		<tag k="natural" v="hill" />
		<tag k="place" v="locality" />
		<tag k="ssr:stedsnr" v="246598" />
	</node>
	<node id="-190246" lat="59.6416694461" lon="10.544155549">
		<tag k="name" v="Midtskogen" />
		<tag k="natural" v="slope" />
		<tag k="place" v="locality" />
		<tag k="ssr:stedsnr" v="241890" />
	</node>
	<node id="-190769" lat="59.5854555554" lon="10.5975583321">
		<tag k="fixme" v="consider natural=peak for the most distinct mountains in the district" />
		<tag k="name" v="Husebykollen" />
		<tag k="natural" v="hill" />
		<tag k="place" v="locality" />
		<tag k="ssr:stedsnr" v="913709" />
	</node>
	<node id="-190243" lat="59.6454416639" lon="10.5508416612">
		<tag k="name" v="Bjørndalen" />
		<tag k="natural" v="valley" />
		<tag k="place" v="locality" />
		<tag k="ssr:stedsnr" v="241350" />
	</node>
	<node id="-190241" lat="59.5490499995" lon="10.4214916729">
		<tag k="name" v="Trollebogåsen" />
		<tag k="natural" v="hill" />
		<tag k="place" v="locality" />
		<tag k="ssr:stedsnr" v="241109" />
	</node>
	<node id="-190752" lat="59.628555558" lon="10.5646916642">
		<tag k="fixme" v="consider natural=peak for the most distinct mountains in the district" />
		<tag k="name" v="Nilsåsen" />
		<tag k="natural" v="hill" />
		<tag k="place" v="locality" />
		<tag k="ssr:stedsnr" v="908646" />
	</node>
	<node id="-190751" lat="59.67542778" lon="10.5071027728">
		<tag k="name" v="Kalvetjernskleiva" />
		<tag k="natural" v="slope" />
		<tag k="place" v="locality" />
		<tag k="ssr:stedsnr" v="908353" />
	</node>
	<node id="-190234" lat="59.637749999" lon="10.5351944422">
		<tag k="fixme" v="consider natural=peak for the most distinct mountains in the district" />
		<tag k="name" v="Kubakkåsen" />
		<tag k="natural" v="hill" />
		<tag k="place" v="locality" />
		<tag k="ssr:stedsnr" v="237881" />
	</node>
	<node id="-190231" lat="59.6083861106" lon="10.5354861071">
		<tag k="fixme" v="consider natural=peak for the most distinct mountains in the district" />
		<tag k="name" v="Nedre Stallås" />
		<tag k="natural" v="hill" />
		<tag k="place" v="locality" />
		<tag k="ssr:stedsnr" v="224723" />
	</node>
	<node id="-189913" lat="59.5686222207" lon="10.5187888892">
		<tag k="fixme" v="consider natural=peak for the most distinct mountains in the district" />
		<tag k="name" v="Mørketoåsen" />
		<tag k="natural" v="hill" />
		<tag k="place" v="locality" />
		<tag k="ssr:stedsnr" v="343593" />
	</node>
	<node id="-190227" lat="59.5817777746" lon="10.5632805627">
		<tag k="name" v="Røstaddalen" />
		<tag k="natural" v="valley" />
		<tag k="place" v="locality" />
		<tag k="ssr:stedsnr" v="224618" />
	</node>
	<node id="-190226" lat="59.588625004" lon="10.6017333257">
		<tag k="name" v="Husebydalen" />
		<tag k="natural" v="valley" />
		<tag k="place" v="locality" />
		<tag k="ssr:stedsnr" v="224603" />
	</node>
	<node id="-190737" lat="59.5226638867" lon="10.4344166661">
		<tag k="fixme" v="consider natural=peak for the most distinct mountains in the district" />
		<tag k="name" v="Solfjell" />
		<tag k="natural" v="hill" />
		<tag k="place" v="locality" />
		<tag k="ssr:stedsnr" v="878101" />
	</node>
	<node id="-190220" lat="59.5417666702" lon="10.4812500056">
		<tag k="name" v="Kåsaåsen" />
		<tag k="natural" v="hill" />
		<tag k="place" v="locality" />
		<tag k="ssr:stedsnr" v="223132" />
	</node>
	<node id="-190219" lat="59.5666222206" lon="10.5508583382">
		<tag k="fixme" v="consider natural=peak for the most distinct mountains in the district" />
		<tag k="name" v="Drammensåsen" />
		<tag k="natural" v="hill" />
		<tag k="place" v="locality" />
		<tag k="ssr:stedsnr" v="222682" />
	</node>
	<node id="-190214" lat="59.5565861126" lon="10.5373555572">
		<tag k="fixme" v="consider natural=peak for the most distinct mountains in the district" />
		<tag k="name" v="Striglevannsås" />
		<tag k="natural" v="hill" />
		<tag k="place" v="locality" />
		<tag k="ssr:stedsnr" v="222522" />
	</node>
	<node id="-190718" lat="59.6183027743" lon="10.5543944513">
		<tag k="fixme" v="consider natural=peak for the most distinct mountains in the district" />
		<tag k="name" v="Samuelsberg" />
		<tag k="natural" v="hill" />
		<tag k="place" v="locality" />
		<tag k="ssr:stedsnr" v="848634" />
	</node>
	<node id="-190200" lat="59.5580472194" lon="10.5535444456">
		<tag k="alt_name" v="Vardeåsen" />
		<tag k="fixme" v="consider natural=peak for the most distinct mountains in the district" />
		<tag k="name" v="Vardåsen" />
		<tag k="natural" v="hill" />
		<tag k="place" v="locality" />
		<tag k="ssr:stedsnr" v="186022" />
	</node>
	<node id="-190198" lat="59.5864694478" lon="10.5091222233">
		<tag k="fixme" v="consider natural=peak for the most distinct mountains in the district" />
		<tag k="name" v="Rødbykollen" />
		<tag k="natural" v="hill" />
		<tag k="place" v="locality" />
		<tag k="ssr:stedsnr" v="185716" />
	</node>
	<node id="-190505" lat="59.6520583293" lon="10.4529972183">
		<tag k="name" v="Råleina" />
		<tag k="natural" v="slope" />
		<tag k="place" v="locality" />
		<tag k="ssr:stedsnr" v="664239" />
	</node>
	<node id="-190708" lat="59.6359277808" lon="10.5290277766">
		<tag k="name" v="Ålbyholene" />
		<tag k="natural" v="hill" />
		<tag k="place" v="locality" />
		<tag k="ssr:stedsnr" v="844904" />
	</node>
	<node id="-190707" lat="59.6461972186" lon="10.4966194354">
		<tag k="fixme" v="consider natural=peak for the most distinct mountains in the district" />
		<tag k="name" v="Gampeskøttåsen" />
		<tag k="natural" v="hill" />
		<tag k="place" v="locality" />
		<tag k="ssr:stedsnr" v="844901" />
	</node>
	<node id="-190194" lat="59.5403555584" lon="10.5212472242">
		<tag k="name" v="Sagenedalen" />
		<tag k="natural" v="valley" />
		<tag k="place" v="locality" />
		<tag k="ssr:stedsnr" v="185492" />
	</node>
	<node id="-190705" lat="59.6197833295" lon="10.495088897">
		<tag k="fixme" v="consider natural=peak for the most distinct mountains in the district" />
		<tag k="name" v="Østernkollen" />
		<tag k="natural" v="hill" />
		<tag k="place" v="locality" />
		<tag k="ssr:stedsnr" v="844561" />
	</node>
	<node id="-190192" lat="59.5776333303" lon="10.5652249928">
		<tag k="fixme" v="consider natural=peak for the most distinct mountains in the district" />
		<tag k="name" v="Ødegårdskollen" />
		<tag k="natural" v="hill" />
		<tag k="place" v="locality" />
		<tag k="ssr:stedsnr" v="185692" />
	</node>
	<node id="-190698" lat="59.5841611079" lon="10.46508611">
		<tag k="fixme" v="consider natural=peak for the most distinct mountains in the district" />
		<tag k="name" v="Stokkeråsen" />
		<tag k="natural" v="hill" />
		<tag k="place" v="locality" />
		<tag k="ssr:stedsnr" v="831473" />
	</node>
	<node id="-190696" lat="59.5658000018" lon="10.5420416648">
		<tag k="fixme" v="consider natural=peak for the most distinct mountains in the district" />
		<tag k="name" v="Tronkåsen" />
		<tag k="natural" v="hill" />
		<tag k="place" v="locality" />
		<tag k="ssr:stedsnr" v="830587" />
	</node>
	<node id="-190332" lat="59.618663885" lon="10.5843694384">
		<tag k="fixme" v="consider natural=peak for the most distinct mountains in the district" />
		<tag k="name" v="Vardeås" />
		<tag k="natural" v="hill" />
		<tag k="place" v="locality" />
		<tag k="ssr:stedsnr" v="483641" />
	</node>
	<node id="-190182" lat="59.5433166674" lon="10.5422527861">
		<tag k="name" v="Strigledalen" />
		<tag k="natural" v="valley" />
		<tag k="place" v="locality" />
		<tag k="ssr:stedsnr" v="180622" />
	</node>
	<node id="-190181" lat="59.6177527803" lon="10.5867916704">
		<tag k="name" v="Rasmuskleiva" />
		<tag k="natural" v="slope" />
		<tag k="place" v="locality" />
		<tag k="ssr:stedsnr" v="180615" />
	</node>
	<node id="-190180" lat="59.6189361087" lon="10.5922361195">
		<tag k="name" v="Myrdalen" />
		<tag k="natural" v="valley" />
		<tag k="place" v="locality" />
		<tag k="ssr:stedsnr" v="180605" />
	</node>
	<node id="-190179" lat="59.5523638914" lon="10.4246722141">
		<tag k="alt_name" v="Jahrsåsen" />
		<tag k="name" v="Jarsåsen" />
		<tag k="natural" v="hill" />
		<tag k="place" v="locality" />
		<tag k="ssr:stedsnr" v="180106" />
	</node>
	<node id="-190175" lat="59.632125" lon="10.5408277782">
		<tag k="fixme" v="consider natural=peak for the most distinct mountains in the district" />
		<tag k="name" v="Rognehaugene" />
		<tag k="natural" v="hill" />
		<tag k="place" v="locality" />
		<tag k="ssr:stedsnr" v="176879" />
	</node>
	<node id="-190174" lat="59.659050004" lon="10.5277027707">
		<tag k="fixme" v="consider natural=peak for the most distinct mountains in the district" />
		<tag k="name" v="Mørkåsen" />
		<tag k="natural" v="hill" />
		<tag k="place" v="locality" />
		<tag k="ssr:stedsnr" v="176861" />
	</node>
	<node id="-190495" lat="59.5797333332" lon="10.529558332">
		<tag k="fixme" v="consider natural=peak for the most distinct mountains in the district" />
		<tag k="name" v="Kjelleråsen" />
		<tag k="natural" v="hill" />
		<tag k="place" v="locality" />
		<tag k="ssr:stedsnr" v="648656" />
	</node>
	<node id="-190679" lat="59.556788891" lon="10.4250555536">
		<tag k="name" v="Helleneberga" />
		<tag k="natural" v="slope" />
		<tag k="place" v="locality" />
		<tag k="ssr:stedsnr" v="827151" />
	</node>
	<node id="-190165" lat="59.5819249974" lon="10.5124805555">
		<tag k="name" v="Avgrunnsdalen" />
		<tag k="natural" v="valley" />
		<tag k="place" v="locality" />
		<tag k="ssr:stedsnr" v="163647" />
	</node>
	<node id="-190163" lat="59.5982333312" lon="10.5134444365">
		<tag k="fixme" v="consider natural=peak for the most distinct mountains in the district" />
		<tag k="name" v="Kåsåsen" />
		<tag k="natural" v="hill" />
		<tag k="place" v="locality" />
		<tag k="ssr:stedsnr" v="163624" />
	</node>
	<node id="-190162" lat="59.5974388911" lon="10.4973583353">
		<tag k="name" v="Bergerdalen" />
		<tag k="natural" v="valley" />
		<tag k="place" v="locality" />
		<tag k="ssr:stedsnr" v="163607" />
	</node>
	<node id="-190161" lat="59.6008027749" lon="10.4945472305">
		<tag k="fixme" v="consider natural=peak for the most distinct mountains in the district" />
		<tag k="name" v="Nygårdskollen" />
		<tag k="natural" v="hill" />
		<tag k="place" v="locality" />
		<tag k="ssr:stedsnr" v="163606" />
	</node>
	<node id="-190160" lat="59.5822222258" lon="10.4626277719">
		<tag k="fixme" v="consider natural=peak for the most distinct mountains in the district" />
		<tag k="name" v="Hølåsen" />
		<tag k="natural" v="hill" />
		<tag k="place" v="locality" />
		<tag k="ssr:stedsnr" v="163434" />
	</node>
	<node id="-190158" lat="59.6430722245" lon="10.5575972248">
		<tag k="name" v="Mannebakk" />
		<tag k="natural" v="slope" />
		<tag k="place" v="locality" />
		<tag k="ssr:stedsnr" v="163321" />
	</node>
	<node id="-190157" lat="59.5644916676" lon="10.5683194478">
		<tag k="name" v="Jetteslottet" />
		<tag k="natural" v="hill" />
		<tag k="place" v="locality" />
		<tag k="ssr:stedsnr" v="162720" />
	</node>
	<node id="-190156" lat="59.5587166697" lon="10.5180055564">
		<tag k="name" v="Oredalen" />
		<tag k="natural" v="valley" />
		<tag k="place" v="locality" />
		<tag k="ssr:stedsnr" v="162614" />
	</node>
	<node id="-190155" lat="59.5606722186" lon="10.5305166697">
		<tag k="fixme" v="consider natural=peak for the most distinct mountains in the district" />
		<tag k="name" v="Masteåsen" />
		<tag k="natural" v="hill" />
		<tag k="place" v="locality" />
		<tag k="ssr:stedsnr" v="162609" />
	</node>
	<node id="-190660" lat="59.5470000026" lon="10.5028666719">
		<tag k="fixme" v="consider natural=peak for the most distinct mountains in the district" />
		<tag k="name" v="Marikollen" />
		<tag k="natural" v="hill" />
		<tag k="place" v="locality" />
		<tag k="ssr:stedsnr" v="792529" />
	</node>
	<node id="-190582" lat="59.5256916628" lon="10.4651638833">
		<tag k="name" v="Delsvikleina" />
		<tag k="natural" v="slope" />
		<tag k="place" v="locality" />
		<tag k="ssr:stedsnr" v="727077" />
	</node>
	<node id="-190667" lat="59.5794305534" lon="10.4568388917">
		<tag k="fixme" v="consider natural=peak for the most distinct mountains in the district" />
		<tag k="name" v="Trevardeåsen" />
		<tag k="natural" v="hill" />
		<tag k="place" v="locality" />
		<tag k="ssr:stedsnr" v="792709" />
	</node>
	<node id="-190655" lat="59.5965916689" lon="10.4496638965">
		<tag k="fixme" v="consider natural=peak for the most distinct mountains in the district" />
		<tag k="name" v="Knivsfjellet" />
		<tag k="natural" v="hill" />
		<tag k="place" v="locality" />
		<tag k="ssr:stedsnr" v="791729" />
	</node>
	<node id="-190649" lat="59.6563722203" lon="10.5653472216">
		<tag k="fixme" v="consider natural=peak for the most distinct mountains in the district" />
		<tag k="name" v="Kaståsen" />
		<tag k="natural" v="hill" />
		<tag k="place" v="locality" />
		<tag k="ssr:stedsnr" v="787345" />
	</node>
	<node id="-190647" lat="59.6769861074" lon="10.503691671">
		<tag k="name" v="Bjørnehi" />
		<tag k="place" v="locality" />
		<tag k="ssr:stedsnr" v="787337" />
	</node>
	<node id="-190646" lat="59.6709777794" lon="10.5300388885">
		<tag k="fixme" v="consider natural=peak for the most distinct mountains in the district" />
		<tag k="name" v="Gunnaråsen" />
		<tag k="natural" v="hill" />
		<tag k="place" v="locality" />
		<tag k="ssr:stedsnr" v="787332" />
	</node>
	<node id="-190640" lat="59.606172225" lon="10.6129527859">
		<tag k="fixme" v="consider natural=peak for the most distinct mountains in the district" />
		<tag k="name" v="Haugåsen" />
		<tag k="natural" v="hill" />
		<tag k="place" v="locality" />
		<tag k="ssr:stedsnr" v="786293" />
	</node>
	<node id="-190121" lat="59.625424997" lon="10.5207138848">
		<tag k="alt_name" v="Askedalen vestre" />
		<tag k="name" v="Vestre Askedalen" />
		<tag k="natural" v="valley" />
		<tag k="place" v="locality" />
		<tag k="ssr:stedsnr" v="116882" />
	</node>
	<node id="-190118" lat="59.6161638899" lon="10.5778722137">
		<tag k="fixme" v="consider natural=peak for the most distinct mountains in the district" />
		<tag k="name" v="Furuåsen" />
		<tag k="natural" v="hill" />
		<tag k="place" v="locality" />
		<tag k="ssr:stedsnr" v="103729" />
	</node>
	<node id="-190117" lat="59.6016138865" lon="10.5385611052">
		<tag k="name" v="Sionsdalen" />
		<tag k="natural" v="valley" />
		<tag k="place" v="locality" />
		<tag k="ssr:stedsnr" v="103720" />
	</node>
	<node id="-190627" lat="59.5802055564" lon="10.5088805485">
		<tag k="fixme" v="consider natural=peak for the most distinct mountains in the district" />
		<tag k="name" v="Prekestolåsen" />
		<tag k="natural" v="hill" />
		<tag k="place" v="locality" />
		<tag k="ssr:stedsnr" v="770652" />
	</node>
	<node id="-190110" lat="59.587366667" lon="10.4977416683">
		<tag k="fixme" v="consider natural=peak for the most distinct mountains in the district" />
		<tag k="name" v="Knivsvikåsen" />
		<tag k="natural" v="hill" />
		<tag k="place" v="locality" />
		<tag k="ssr:stedsnr" v="102722" />
	</node>
	<node id="-190621" lat="59.5962055512" lon="10.5092972304">
		<tag k="fixme" v="consider natural=peak for the most distinct mountains in the district" />
		<tag k="name" v="Bergervannhøgda" />
		<tag k="natural" v="hill" />
		<tag k="place" v="locality" />
		<tag k="ssr:stedsnr" v="770604" />
	</node>
	<node id="-190108" lat="59.5668388854" lon="10.5955277794">
		<tag k="fixme" v="consider natural=peak for the most distinct mountains in the district" />
		<tag k="name" v="Agdeåsen" />
		<tag k="natural" v="hill" />
		<tag k="place" v="locality" />
		<tag k="ssr:stedsnr" v="101691" />
	</node>
	<node id="-190107" lat="59.5704916704" lon="10.5750055494">
		<tag k="alt_name" v="Røedsåsen" />
		<tag k="name" v="Rødsåsen" />
		<tag k="natural" v="hill" />
		<tag k="place" v="locality" />
		<tag k="ssr:stedsnr" v="101676" />
	</node>
	<node id="-190106" lat="59.5571194483" lon="10.5830527849">
		<tag k="fixme" v="consider natural=peak for the most distinct mountains in the district" />
		<tag k="name" v="Ramsvikåsen" />
		<tag k="natural" v="hill" />
		<tag k="place" v="locality" />
		<tag k="ssr:stedsnr" v="101669" />
	</node>
	<node id="-190105" lat="59.5649361072" lon="10.5444111189">
		<tag k="name" v="Tronkedalen" />
		<tag k="natural" v="valley" />
		<tag k="place" v="locality" />
		<tag k="ssr:stedsnr" v="101581" />
	</node>
	<node id="-190615" lat="59.5470916686" lon="10.4670999918">
		<tag k="name" v="Eneråsen" />
		<tag k="natural" v="hill" />
		<tag k="place" v="locality" />
		<tag k="ssr:stedsnr" v="769131" />
	</node>
	<node id="-190614" lat="59.5545999993" lon="10.5581111098">
		<tag k="fixme" v="consider natural=peak for the most distinct mountains in the district" />
		<tag k="name" v="Raumyrfjell" />
		<tag k="natural" v="hill" />
		<tag k="place" v="locality" />
		<tag k="ssr:stedsnr" v="768712" />
	</node>
	<node id="-190095" lat="59.5593999973" lon="10.5794805496">
		<tag k="fixme" v="consider natural=peak for the most distinct mountains in the district" />
		<tag k="name" v="Plassåsen" />
		<tag k="natural" v="hill" />
		<tag k="place" v="locality" />
		<tag k="ssr:stedsnr" v="86849" />
	</node>
	<node id="-190573" lat="59.6492944474" lon="10.4856500082">
		<tag k="fixme" v="consider natural=peak for the most distinct mountains in the district" />
		<tag k="name" v="Djupebuktåsen" />
		<tag k="natural" v="hill" />
		<tag k="place" v="locality" />
		<tag k="ssr:stedsnr" v="725288" />
	</node>
	<node id="-190603" lat="59.5261638917" lon="10.4299666735">
		<tag k="fixme" v="consider natural=peak for the most distinct mountains in the district" />
		<tag k="name" v="Kirkeåsen" />
		<tag k="natural" v="hill" />
		<tag k="place" v="locality" />
		<tag k="ssr:stedsnr" v="768083" />
	</node>
	<node id="-190602" lat="59.5294722208" lon="10.4402750079">
		<tag k="fixme" v="consider natural=peak for the most distinct mountains in the district" />
		<tag k="name" v="Ødegårdsåsen" />
		<tag k="natural" v="hill" />
		<tag k="place" v="locality" />
		<tag k="ssr:stedsnr" v="768080" />
	</node>
	<node id="-190486" lat="59.555522225" lon="10.5475722297">
		<tag k="fixme" v="consider natural=peak for the most distinct mountains in the district" />
		<tag k="name" v="Barlindåsen" />
		<tag k="natural" v="hill" />
		<tag k="place" v="locality" />
		<tag k="ssr:stedsnr" v="647586" />
	</node>
	<node id="-190081" lat="59.6332083326" lon="10.4398749959">
		<tag k="fixme" v="consider natural=peak for the most distinct mountains in the district" />
		<tag k="name" v="Dramstadfjellet" />
		<tag k="natural" v="hill" />
		<tag k="place" v="locality" />
		<tag k="ssr:stedsnr" v="64676" />
	</node>
	<node id="-190079" lat="59.6306611143" lon="10.5245694455">
		<tag k="fixme" v="consider natural=peak for the most distinct mountains in the district" />
		<tag k="name" v="Stikkvannskollen" />
		<tag k="natural" v="hill" />
		<tag k="place" v="locality" />
		<tag k="ssr:stedsnr" v="64668" />
	</node>
	<node id="-189972" lat="59.5606888914" lon="10.428936108">
		<tag k="name" v="Flaueråsen" />
		<tag k="natural" v="hill" />
		<tag k="place" v="locality" />
		<tag k="ssr:stedsnr" v="402156" />
	</node>
	<node id="-190070" lat="59.6404333365" lon="10.5709222248">
		<tag k="fixme" v="consider natural=peak for the most distinct mountains in the district" />
		<tag k="name" v="Kirstiåsene" />
		<tag k="natural" v="hill" />
		<tag k="place" v="locality" />
		<tag k="ssr:stedsnr" v="59328" />
	</node>
	<node id="-190578" lat="59.6287000034" lon="10.5546611104">
		<tag k="fixme" v="consider natural=peak for the most distinct mountains in the district" />
		<tag k="name" v="Eikhaugene" />
		<tag k="natural" v="hill" />
		<tag k="place" v="locality" />
		<tag k="ssr:stedsnr" v="726640" />
	</node>
	<node id="-190064" lat="59.5352694405" lon="10.4241805518">
		<tag k="fixme" v="consider natural=peak for the most distinct mountains in the district" />
		<tag k="name" v="Steinbakkåsen" />
		<tag k="natural" v="hill" />
		<tag k="place" v="locality" />
		<tag k="ssr:stedsnr" v="59098" />
	</node>
	<node id="-190568" lat="59.5547027792" lon="10.4865944445">
		<tag k="fixme" v="consider natural=peak for the most distinct mountains in the district" />
		<tag k="name" v="Nordengkollen" />
		<tag k="natural" v="hill" />
		<tag k="place" v="locality" />
		<tag k="ssr:stedsnr" v="725236" />
	</node>
	<node id="-190061" lat="59.5367166637" lon="10.5075555498">
		<tag k="name" v="Saghøgda" />
		<tag k="natural" v="hill" />
		<tag k="place" v="locality" />
		<tag k="ssr:stedsnr" v="58634" />
	</node>
	<node id="-190060" lat="59.5509305565" lon="10.5606833339">
		<tag k="fixme" v="consider natural=peak for the most distinct mountains in the district" />
		<tag k="name" v="Toftefjell" />
		<tag k="natural" v="hill" />
		<tag k="place" v="locality" />
		<tag k="ssr:stedsnr" v="58632" />
	</node>
	<node id="-190570" lat="59.6521805552" lon="10.4598861038">
		<tag k="fixme" v="consider natural=peak for the most distinct mountains in the district" />
		<tag k="name" v="Høgås" />
		<tag k="natural" v="hill" />
		<tag k="place" v="locality" />
		<tag k="ssr:stedsnr" v="725256" />
	</node>
	<node id="-190056" lat="59.6528527823" lon="10.4648861049">
		<tag k="fixme" v="consider natural=peak for the most distinct mountains in the district" />
		<tag k="name" v="Svartebekkåsen" />
		<tag k="natural" v="hill" />
		<tag k="place" v="locality" />
		<tag k="ssr:stedsnr" v="57230" />
	</node>
	<node id="-190055" lat="59.624627779" lon="10.5281777772">
		<tag k="alt_name" v="Askedalen østre" />
		<tag k="name" v="Østre Askedalen" />
		<tag k="natural" v="valley" />
		<tag k="place" v="locality" />
		<tag k="ssr:stedsnr" v="55895" />
	</node>
	<node id="-189904" lat="59.5618638932" lon="10.4267194496">
		<tag k="name" v="Bakkeåsen" />
		<tag k="natural" v="hill" />
		<tag k="place" v="locality" />
		<tag k="ssr:stedsnr" v="341152" />
	</node>
	<node id="-190565" lat="59.5629250038" lon="10.4756444359">
		<tag k="fixme" v="consider natural=peak for the most distinct mountains in the district" />
		<tag k="name" v="Graveråsen" />
		<tag k="natural" v="hill" />
		<tag k="place" v="locality" />
		<tag k="ssr:stedsnr" v="731672" />
	</node>
	<node id="-190052" lat="59.624152776" lon="10.5048750062">
		<tag k="fixme" v="consider natural=peak for the most distinct mountains in the district" />
		<tag k="name" v="Bjørnebåsen" />
		<tag k="natural" v="hill" />
		<tag k="place" v="locality" />
		<tag k="ssr:stedsnr" v="55527" />
	</node>
	<node id="-189860" lat="59.640811114" lon="10.4461249925">
		<tag k="name" v="Toppenhaug" />
		<tag k="natural" v="hill" />
		<tag k="place" v="locality" />
		<tag k="ssr:stedsnr" v="300291" />
	</node>
	<node id="-190047" lat="59.6125277753" lon="10.5391499947">
		<tag k="fixme" v="consider natural=peak for the most distinct mountains in the district" />
		<tag k="name" v="Øvre Stallås" />
		<tag k="natural" v="hill" />
		<tag k="place" v="locality" />
		<tag k="ssr:stedsnr" v="42696" />
	</node>
	<node id="-190695" lat="59.5669944402" lon="10.5397249968">
		<tag k="name" v="Delåsdalen" />
		<tag k="natural" v="valley" />
		<tag k="place" v="locality" />
		<tag k="ssr:stedsnr" v="830585" />
	</node>
	<node id="-190620" lat="59.6104305517" lon="10.4448888975">
		<tag k="name" v="Fugleleina" />
		<tag k="natural" v="slope" />
		<tag k="place" v="locality" />
		<tag k="ssr:stedsnr" v="770489" />
	</node>
	<node id="-190044" lat="59.5929527797" lon="10.5364833256">
		<tag k="fixme" v="consider natural=peak for the most distinct mountains in the district" />
		<tag k="name" v="Blankvannsåsen" />
		<tag k="natural" v="hill" />
		<tag k="place" v="locality" />
		<tag k="ssr:stedsnr" v="42609" />
	</node>
	<node id="-190042" lat="59.5751527784" lon="10.48032777">
		<tag k="alt_name" v="Holtvedtåsen" />
		<tag k="fixme" v="consider natural=peak for the most distinct mountains in the district" />
		<tag k="name" v="Holtvetåsen" />
		<tag k="natural" v="hill" />
		<tag k="place" v="locality" />
		<tag k="ssr:stedsnr" v="42485" />
	</node>
	<node id="-190041" lat="59.5992611082" lon="10.4445527732">
		<tag k="name" v="Voldenleina" />
		<tag k="natural" v="slope" />
		<tag k="place" v="locality" />
		<tag k="ssr:stedsnr" v="42478" />
	</node>
	<node id="-190552" lat="59.5882805578" lon="10.5290805568">
		<tag k="fixme" v="consider natural=peak for the most distinct mountains in the district" />
		<tag k="name" v="Matheaås" />
		<tag k="natural" v="hill" />
		<tag k="place" v="locality" />
		<tag k="ssr:stedsnr" v="709642" />
	</node>
	<node id="-190039" lat="59.5552000003" lon="10.5167666711">
		<tag k="name" v="Lønnsbergholene" />
		<tag k="natural" v="hill" />
		<tag k="place" v="locality" />
		<tag k="ssr:stedsnr" v="40583" />
	</node>
	<node id="-190550" lat="59.5911472185" lon="10.5989638943">
		<tag k="fixme" v="consider natural=peak for the most distinct mountains in the district" />
		<tag k="name" v="Sanderåsen" />
		<tag k="natural" v="hill" />
		<tag k="place" v="locality" />
		<tag k="ssr:stedsnr" v="709629" />
	</node>
	<node id="-190549" lat="59.5745027805" lon="10.4491749999">
		<tag k="fixme" v="consider natural=peak for the most distinct mountains in the district" />
		<tag k="name" v="Stallåsen" />
		<tag k="natural" v="hill" />
		<tag k="place" v="locality" />
		<tag k="ssr:stedsnr" v="709489" />
	</node>
	<node id="-190036" lat="59.6646138904" lon="10.5534666583">
		<tag k="fixme" v="consider natural=peak for the most distinct mountains in the district" />
		<tag k="name" v="Merraskottet" />
		<tag k="natural" v="hill" />
		<tag k="place" v="locality" />
		<tag k="ssr:stedsnr" v="40339" />
	</node>
	<node id="-190478" lat="59.5259333329" lon="10.4833527708">
		<tag k="name" v="Ertsvik" />
		<tag k="natural" v="valley" />
		<tag k="place" v="locality" />
		<tag k="ssr:stedsnr" v="634078" />
	</node>
	<node id="-190034" lat="59.6642999991" lon="10.4425749946">
		<tag k="name" v="Gampedalen" />
		<tag k="natural" v="valley" />
		<tag k="place" v="locality" />
		<tag k="ssr:stedsnr" v="40271" />
	</node>
	<node id="-190033" lat="59.5290194411" lon="10.4347749929">
		<tag k="name" v="Storleina" />
		<tag k="natural" v="slope" />
		<tag k="place" v="locality" />
		<tag k="ssr:stedsnr" v="40096" />
	</node>
	<node id="-190543" lat="59.5714500033" lon="10.5557555616">
		<tag k="name" v="Marismo" />
		<tag k="place" v="locality" />
		<tag k="ssr:stedsnr" v="708674" />
	</node>
	<node id="-190539" lat="59.5585805546" lon="10.5087277779">
		<tag k="name" v="Sagholen" />
		<tag k="natural" v="hill" />
		<tag k="place" v="locality" />
		<tag k="ssr:stedsnr" v="708593" />
	</node>
	<node id="-190538" lat="59.5664083295" lon="10.5894888835">
		<tag k="name" v="Brastad" />
		<tag k="place" v="locality" />
		<tag k="ssr:stedsnr" v="707677" />
	</node>
	<node id="-190814" lat="59.5310944406" lon="10.4249083289">
		<tag k="fixme" v="consider natural=peak for the most distinct mountains in the district" />
		<tag k="name" v="Siliaåsen" />
		<tag k="natural" v="hill" />
		<tag k="place" v="locality" />
		<tag k="ssr:stedsnr" v="969124" />
	</node>
	<node id="-190024" lat="59.6788694435" lon="10.5194416617">
		<tag k="alt_name" v="Frantzåsen" />
		<tag k="fixme" v="consider natural=peak for the most distinct mountains in the district" />
		<tag k="name" v="Frantsåsen" />
		<tag k="natural" v="hill" />
		<tag k="place" v="locality" />
		<tag k="ssr:stedsnr" v="16779" />
	</node>
	<node id="-190023" lat="59.6588083335" lon="10.5859277848">
		<tag k="name" v="Ødegårdskollen" />
		<tag k="natural" v="hill" />
		<tag k="place" v="locality" />
		<tag k="ssr:stedsnr" v="4916" />
	</node>
	<node id="-190533" lat="59.6833444425" lon="10.5084527862">
		<tag k="fixme" v="consider natural=peak for the most distinct mountains in the district" />
		<tag k="name" v="Vesle Lauvåsen" />
		<tag k="natural" v="hill" />
		<tag k="place" v="locality" />
		<tag k="ssr:stedsnr" v="706783" />
	</node>
	<node id="-190532" lat="59.5586805512" lon="10.426233326">
		<tag k="name" v="Hansåsen" />
		<tag k="natural" v="hill" />
		<tag k="place" v="locality" />
		<tag k="ssr:stedsnr" v="706129" />
	</node>
	<node id="-190019" lat="59.6433055574" lon="10.5438583256">
		<tag k="fixme" v="consider natural=peak for the most distinct mountains in the district" />
		<tag k="name" v="Bjørnåsen" />
		<tag k="natural" v="hill" />
		<tag k="place" v="locality" />
		<tag k="ssr:stedsnr" v="3838" />
	</node>
	<node id="-190530" lat="59.5541194421" lon="10.4309055567">
		<tag k="alt_name" v="Bråten" />
		<tag k="fixme" v="consider natural=peak for the most distinct mountains in the district" />
		<tag k="name" v="Bråtan" />
		<tag k="natural" v="hill" />
		<tag k="place" v="locality" />
		<tag k="ssr:stedsnr" v="695087" />
	</node>
	<node id="-190048" lat="59.6138499966" lon="10.5420111159">
		<tag k="name" v="Mordistbakken" />
		<tag k="natural" v="slope" />
		<tag k="place" v="locality" />
		<tag k="ssr:stedsnr" v="42701" />
	</node>
	<node id="-190012" lat="59.5428833315" lon="10.435519443">
		<tag k="fixme" v="consider natural=peak for the most distinct mountains in the district" />
		<tag k="name" v="Kolåsen" />
		<tag k="natural" v="hill" />
		<tag k="place" v="locality" />
		<tag k="ssr:stedsnr" v="3510" />
	</node>
	<node id="-190010" lat="59.5346138875" lon="10.4398222151">
		<tag k="alt_name" v="Røedåsen" />
		<tag k="fixme" v="consider natural=peak for the most distinct mountains in the district" />
		<tag k="name" v="Rødåsen" />
		<tag k="natural" v="hill" />
		<tag k="place" v="locality" />
		<tag k="ssr:stedsnr" v="3497" />
	</node>
	<node id="-190520" lat="59.5826666627" lon="10.567075006">
		<tag k="fixme" v="consider natural=peak for the most distinct mountains in the district" />
		<tag k="name" v="Siljukollen" />
		<tag k="natural" v="hill" />
		<tag k="place" v="locality" />
		<tag k="ssr:stedsnr" v="670715" />
	</node>
	<node id="-190517" lat="59.5489388849" lon="10.4602111188">
		<tag k="name" v="Jenseleina" />
		<tag k="natural" v="slope" />
		<tag k="place" v="locality" />
		<tag k="ssr:stedsnr" v="666111" />
	</node>
	<node id="-190046" lat="59.6155166648" lon="10.5807999992">
		<tag k="name" v="Svartvannsdalen" />
		<tag k="natural" v="valley" />
		<tag k="place" v="locality" />
		<tag k="ssr:stedsnr" v="42681" />
	</node>
	<node id="-190002" lat="59.6836186937" lon="10.5029223489">
		<tag k="alt_name" v="Kongens dal" />
		<tag k="name" v="Kongensdal" />
		<tag k="natural" v="valley" />
		<tag k="place" v="locality" />
		<tag k="ssr:stedsnr" v="367758" />
	</node>
	<node id="-190511" lat="59.6689750016" lon="10.5028361143">
		<tag k="name" v="Bjørvannshagan" />
		<tag k="natural" v="slope" />
		<tag k="place" v="locality" />
		<tag k="ssr:stedsnr" v="665362" />
	</node>
	<node id="-189998" lat="59.6071555566" lon="10.5046111025">
		<tag k="fixme" v="consider natural=peak for the most distinct mountains in the district" />
		<tag k="name" v="Bramskollen" />
		<tag k="natural" v="hill" />
		<tag k="place" v="locality" />
		<tag k="ssr:stedsnr" v="892620" />
	</node>
	<node id="-189996" lat="59.5857027788" lon="10.5214361031">
		<tag k="fixme" v="consider natural=peak for the most distinct mountains in the district" />
		<tag k="name" v="Nordveståsen" />
		<tag k="natural" v="hill" />
		<tag k="place" v="locality" />
		<tag k="ssr:stedsnr" v="891673" />
	</node>
	<node id="-189993" lat="59.5375027754" lon="10.4764472133">
		<tag k="fixme" v="consider natural=peak for the most distinct mountains in the district" />
		<tag k="name" v="Bråtaåsen" />
		<tag k="natural" v="hill" />
		<tag k="place" v="locality" />
		<tag k="ssr:stedsnr" v="891149" />
	</node>
	<node id="-190504" lat="59.5575527799" lon="10.4712888956">
		<tag k="name" v="Skaholtet" />
		<tag k="place" v="locality" />
		<tag k="ssr:stedsnr" v="664179" />
	</node>
	<node id="-189989" lat="59.5634416671" lon="10.4415666596">
		<tag k="name" v="Skytterhavna" />
		<tag k="natural" v="slope" />
		<tag k="place" v="locality" />
		<tag k="ssr:stedsnr" v="889195" />
	</node>
	<node id="-189985" lat="59.6086777791" lon="10.5656111042">
		<tag k="fixme" v="consider natural=peak for the most distinct mountains in the district" />
		<tag k="name" v="Julelysåsen" />
		<tag k="natural" v="hill" />
		<tag k="place" v="locality" />
		<tag k="ssr:stedsnr" v="406745" />
	</node>
	<node id="-189983" lat="59.6156583333" lon="10.541188893">
		<tag k="fixme" v="consider natural=peak for the most distinct mountains in the district" />
		<tag k="name" v="Aklangfoten" />
		<tag k="natural" v="hill" />
		<tag k="place" v="locality" />
		<tag k="ssr:stedsnr" v="406735" />
	</node>
	<node id="-189982" lat="59.6165555532" lon="10.5967861049">
		<tag k="fixme" v="consider natural=peak for the most distinct mountains in the district" />
		<tag k="name" v="Brønnsåsen" />
		<tag k="natural" v="hill" />
		<tag k="place" v="locality" />
		<tag k="ssr:stedsnr" v="406720" />
	</node>
	<node id="-190492" lat="59.5748305591" lon="10.4771444484">
		<tag k="alt_name" v="Holtvedtryggen" />
		<tag k="name" v="Holtvetryggen" />
		<tag k="natural" v="slope" />
		<tag k="place" v="locality" />
		<tag k="ssr:stedsnr" v="648499" />
	</node>
	<node id="-189978" lat="59.6054916711" lon="10.5025000021">
		<tag k="name" v="Prestedalen" />
		<tag k="natural" v="valley" />
		<tag k="place" v="locality" />
		<tag k="ssr:stedsnr" v="406634" />
	</node>
	<node id="-190489" lat="59.531277775" lon="10.4651583343">
		<tag k="name" v="Trappetrinnkleiva" />
		<tag k="natural" v="slope" />
		<tag k="place" v="locality" />
		<tag k="ssr:stedsnr" v="648188" />
	</node>
	<node id="-190693" lat="59.5572388851" lon="10.5694333377">
		<tag k="name" v="Linnabråten" />
		<tag k="natural" v="hill" />
		<tag k="place" v="locality" />
		<tag k="ssr:stedsnr" v="829678" />
	</node>
	<node id="-189975" lat="59.5592250013" lon="10.5671527719">
		<tag k="fixme" v="consider natural=peak for the most distinct mountains in the district" />
		<tag k="name" v="Kulaåsen" />
		<tag k="natural" v="hill" />
		<tag k="place" v="locality" />
		<tag k="ssr:stedsnr" v="404656" />
	</node>
	<node id="-189974" lat="59.6666694482" lon="10.5595611102">
		<tag k="name" v="Brattebakk" />
		<tag k="natural" v="slope" />
		<tag k="place" v="locality" />
		<tag k="ssr:stedsnr" v="404300" />
	</node>
	<node id="-190809" lat="59.5600777769" lon="10.488583339">
		<tag k="name" v="Stendalen" />
		<tag k="natural" v="valley" />
		<tag k="place" v="locality" />
		<tag k="ssr:stedsnr" v="967189" />
	</node>
	<node id="-190299" lat="59.5562277779" lon="10.4286944458">
		<tag k="fixme" v="consider natural=peak for the most distinct mountains in the district" />
		<tag k="name" v="Jørnsåsen" />
		<tag k="natural" v="hill" />
		<tag k="place" v="locality" />
		<tag k="ssr:stedsnr" v="463130" />
	</node>
	<node id="-189870" lat="59.5252583378" lon="10.462900001">
		<tag k="name" v="Saueåsen" />
		<tag k="natural" v="ridge" />
		<tag k="place" v="locality" />
		<tag k="ssr:stedsnr" v="302091" />
	</node>
	<node id="-189966" lat="59.6323833293" lon="10.6030527851">
		<tag k="name" v="Delet" />
		<tag k="natural" v="valley" />
		<tag k="place" v="locality" />
		<tag k="ssr:stedsnr" v="389896" />
	</node>
	<node id="-190488" lat="59.5699888854" lon="10.5319138904">
		<tag k="fixme" v="consider natural=peak for the most distinct mountains in the district" />
		<tag k="name" v="Svenskeåsen" />
		<tag k="natural" v="hill" />
		<tag k="place" v="locality" />
		<tag k="ssr:stedsnr" v="647705" />
	</node>
	<node id="-189962" lat="59.6425361114" lon="10.4917555641">
		<tag k="fixme" v="consider natural=peak for the most distinct mountains in the district" />
		<tag k="name" v="Korsgårdskollen" />
		<tag k="natural" v="hill" />
		<tag k="place" v="locality" />
		<tag k="ssr:stedsnr" v="367819" />
	</node>
	<node id="-189955" lat="59.6203361132" lon="10.5838777744">
		<tag k="fixme" v="consider natural=peak for the most distinct mountains in the district" />
		<tag k="name" v="Vardåsen" />
		<tag k="natural" v="hill" />
		<tag k="place" v="locality" />
		<tag k="ssr:stedsnr" v="367637" />
	</node>
	<node id="-190687" lat="59.6684194426" lon="10.4524972281">
		<tag k="fixme" v="consider natural=peak for the most distinct mountains in the district" />
		<tag k="name" v="Sandungåsen" />
		<tag k="natural" v="hill" />
		<tag k="place" v="locality" />
		<tag k="ssr:stedsnr" v="829256" />
	</node>
	<node id="-190607" lat="59.6241083326" lon="10.4514333394">
		<tag k="fixme" v="consider natural=peak for the most distinct mountains in the district" />
		<tag k="name" v="Valnebbåsen" />
		<tag k="natural" v="hill" />
		<tag k="place" v="locality" />
		<tag k="ssr:stedsnr" v="768531" />
	</node>
</osm>
