<?xml version="1.0" encoding="UTF-8"?>
<osm generator="osmapis" version="0.6">
	<node id="-190463" lat="59.6273611124" lon="10.4970055504">
		<tag k="name" v="Sørli" />
		<tag k="place" v="locality" />
		<tag k="ssr:stedsnr" v="844562" />
	</node>
	<node id="-189949" lat="59.5713638875" lon="10.4747250083">
		<tag k="name" v="Vangstad" />
		<tag k="place" v="farm" />
		<tag k="ssr:stedsnr" v="185684" />
	</node>
	<node id="-190459" lat="59.5855305581" lon="10.5792166668">
		<tag k="alt_name" v="Eik vestre" />
		<tag k="name" v="Vestre Eik" />
		<tag k="place" v="farm" />
		<tag k="ssr:stedsnr" v="831587" />
	</node>
	<node id="-189946" lat="59.563499998" lon="10.4956916679">
		<tag k="name" v="Dustad" />
		<tag k="place" v="farm" />
		<tag k="ssr:stedsnr" v="185664" />
	</node>
	<node id="-189951" lat="59.5315194468" lon="10.4181166731">
		<tag k="name" v="Rødtangen" />
		<tag k="place" v="hamlet" />
		<tag k="ssr:stedsnr" v="185482" />
	</node>
	<node id="-190456" lat="59.6437861155" lon="10.5879333387">
		<tag k="name" v="Fredheim" />
		<tag k="place" v="farm" />
		<tag k="ssr:stedsnr" v="831323" />
	</node>
	<node id="-189943" lat="59.6022527787" lon="10.4776388956">
		<tag k="name" v="Nordby" />
		<tag k="place" v="farm" />
		<tag k="ssr:stedsnr" v="185581" />
	</node>
	<node id="-189942" lat="59.6513222181" lon="10.5827527712">
		<tag k="name" v="Vollebråten" />
		<tag k="place" v="farm" />
		<tag k="ssr:stedsnr" v="181327" />
	</node>
	<node id="-189941" lat="59.647725" lon="10.5734277697">
		<tag k="name" v="Myrvold" />
		<tag k="place" v="isolated_dwelling" />
		<tag k="ssr:stedsnr" v="181324" />
	</node>
	<node id="-190547" lat="59.6504888918" lon="10.6024444415">
		<tag k="name" v="Sjølyst" />
		<tag k="place" v="isolated_dwelling" />
		<tag k="ssr:stedsnr" v="952343" />
	</node>
	<node id="-190448" lat="59.5808666622" lon="10.5807333354">
		<tag k="alt_name" v="Aasli" />
		<tag k="name" v="Åsli" />
		<tag k="place" v="farm" />
		<tag k="ssr:stedsnr" v="831605" />
	</node>
	<node id="-190447" lat="59.6199796607" lon="10.4504184945">
		<tag k="alt_name" v="Bråten" />
		<tag k="name" v="Bråtan" />
		<tag k="place" v="farm" />
		<tag k="ssr:stedsnr" v="829557" />
	</node>
	<node id="-190444" lat="59.5545472256" lon="10.4588444392">
		<tag k="name" v="Høibråten" />
		<tag k="place" v="farm" />
		<tag k="ssr:stedsnr" v="829180" />
	</node>
	<node id="-190521" lat="59.5553194429" lon="10.5049527824">
		<tag k="alt_name" v="Grønsletta" />
		<tag k="name" v="Grønnsletta" />
		<tag k="place" v="farm" />
		<tag k="ssr:stedsnr" v="913517" />
	</node>
	<node id="-190441" lat="59.5722305557" lon="10.4306305593">
		<tag k="name" v="Postmyr" />
		<tag k="place" v="isolated_dwelling" />
		<tag k="ssr:stedsnr" v="827167" />
	</node>
	<node id="-189927" lat="59.6413277739" lon="10.605308325">
		<tag k="alt_name" v="Freiborg" />
		<tag k="name" v="Freyborg" />
		<tag k="place" v="locality" />
		<tag k="ssr:stedsnr" v="168643" />
	</node>
	<node id="-190437" lat="59.6811694449" lon="10.5147500045">
		<tag k="name" v="Skatvedtfeltet" />
		<tag k="place" v="quarter" />
		<tag k="ssr:stedsnr" v="819771" />
	</node>
	<node id="-190435" lat="59.5598361081" lon="10.44903334">
		<tag k="name" v="Ekelund" />
		<tag k="place" v="farm" />
		<tag k="ssr:stedsnr" v="817095" />
	</node>
	<node id="-190434" lat="59.5574888905" lon="10.5933527812">
		<tag k="alt_name" v="Røedstøa" />
		<tag k="name" v="Rødstøa" />
		<tag k="place" v="isolated_dwelling" />
		<tag k="ssr:stedsnr" v="814861" />
	</node>
	<node id="-189776" lat="59.6374805565" lon="10.5850083351">
		<tag k="name" v="Burud" />
		<tag k="place" v="farm" />
		<tag k="ssr:stedsnr" v="3841" />
	</node>
	<node id="-190429" lat="59.6717777812" lon="10.5658194411">
		<tag k="name" v="Verpen" />
		<tag k="place" v="locality" />
		<tag k="ssr:stedsnr" v="792843" />
	</node>
	<node id="-189651" lat="59.5861888909" lon="10.5893250065">
		<tag k="alt_name" v="Fjeldvang" />
		<tag k="name" v="Fjellvang" />
		<tag k="place" v="isolated_dwelling" />
		<tag k="ssr:stedsnr" v="103632" />
	</node>
	<node id="-190425" lat="59.5666472198" lon="10.5750583328">
		<tag k="name" v="Rød" />
		<tag k="place" v="hamlet" />
		<tag k="ssr:stedsnr" v="792687" />
	</node>
	<node id="-189912" lat="59.540161114" lon="10.4787194475">
		<tag k="alt_name" v="Ranvik lille" />
		<tag k="name" v="Lille-Ramvik" />
		<tag k="place" v="farm" />
		<tag k="ssr:stedsnr" v="162126" />
	</node>
	<node id="-190423" lat="59.6233805599" lon="10.4653916666">
		<tag k="alt_name" v="Nedre Haugen" />
		<tag k="name" v="Haugen" />
		<tag k="place" v="farm" />
		<tag k="ssr:stedsnr" v="792643" />
	</node>
	<node id="-190422" lat="59.6133333323" lon="10.4872888833">
		<tag k="name" v="Nepebråten" />
		<tag k="place" v="farm" />
		<tag k="ssr:stedsnr" v="792629" />
	</node>
	<node id="-189945" lat="59.5601888912" lon="10.4278361131">
		<tag k="name" v="Holmsbu" />
		<tag k="place" v="village" />
		<tag k="ssr:stedsnr" v="185659" />
	</node>
	<node id="-190420" lat="59.5487916683" lon="10.4812916732">
		<tag k="name" v="Graver" />
		<tag k="place" v="farm" />
		<tag k="ssr:stedsnr" v="792528" />
	</node>
	<node id="-189770" lat="59.6099888846" lon="10.4717027709">
		<tag k="name" v="Berg" />
		<tag k="place" v="farm" />
		<tag k="ssr:stedsnr" v="3610" />
	</node>
	<node id="-190416" lat="59.59532222" lon="10.4907249991">
		<tag k="name" v="Berger" />
		<tag k="place" v="farm" />
		<tag k="ssr:stedsnr" v="791733" />
	</node>
	<node id="-189944" lat="59.6024833312" lon="10.4634361139">
		<tag k="fixme" v="consider place=hamlet" />
		<tag k="name" v="Killingstad" />
		<tag k="place" v="farm" />
		<tag k="ssr:stedsnr" v="185584" />
	</node>
	<node id="-189902" lat="59.6628666638" lon="10.5994861034">
		<tag k="name" v="Slottet" />
		<tag k="place" v="farm" />
		<tag k="ssr:stedsnr" v="125876" />
	</node>
	<node id="-190413" lat="59.5929722257" lon="10.481819444">
		<tag k="name" v="Rødby" />
		<tag k="place" v="farm" />
		<tag k="ssr:stedsnr" v="791610" />
	</node>
	<node id="-189899" lat="59.6559277769" lon="10.5864833336">
		<tag k="name" v="Ødegården" />
		<tag k="place" v="farm" />
		<tag k="ssr:stedsnr" v="125833" />
	</node>
	<node id="-190409" lat="59.626525002" lon="10.4756361195">
		<tag k="name" v="Møllerhøi" />
		<tag k="place" v="farm" />
		<tag k="ssr:stedsnr" v="787566" />
	</node>
	<node id="-189896" lat="59.5889583291" lon="10.5963638807">
		<tag k="name" v="Huseby" />
		<tag k="place" v="farm" />
		<tag k="ssr:stedsnr" v="124692" />
	</node>
	<node id="-189894" lat="59.5775055538" lon="10.4425750017">
		<tag k="name" v="Knivsvik" />
		<tag k="place" v="isolated_dwelling" />
		<tag k="ssr:stedsnr" v="124668" />
	</node>
	<node id="-190369" lat="59.6004500013" lon="10.4701888825">
		<tag k="name" v="Skytterbråten" />
		<tag k="place" v="isolated_dwelling" />
		<tag k="ssr:stedsnr" v="768548" />
	</node>
	<node id="-190404" lat="59.5404361069" lon="10.432925">
		<tag k="name" v="Bjerkelund" />
		<tag k="place" v="isolated_dwelling" />
		<tag k="ssr:stedsnr" v="787116" />
	</node>
	<node id="-190403" lat="59.550272224" lon="10.455633341">
		<tag k="name" v="Bergsmyrene" />
		<tag k="place" v="farm" />
		<tag k="ssr:stedsnr" v="787102" />
	</node>
	<node id="-189771" lat="59.5584444458" lon="10.4377944427">
		<tag k="name" v="Holm" />
		<tag k="place" v="farm" />
		<tag k="ssr:stedsnr" v="3673" />
	</node>
	<node id="-189888" lat="59.6403527804" lon="10.5821277698">
		<tag k="name" v="Løvheim" />
		<tag k="place" v="farm" />
		<tag k="ssr:stedsnr" v="120332" />
	</node>
	<node id="-189887" lat="59.6503222207" lon="10.588152785">
		<tag k="name" v="Sundbyløkka" />
		<tag k="place" v="farm" />
		<tag k="ssr:stedsnr" v="120330" />
	</node>
	<node id="-189884" lat="59.5722750026" lon="10.6101249934">
		<tag k="alt_name" v="Ekern vestre" />
		<tag k="name" v="Vestre Ekern" />
		<tag k="place" v="farm" />
		<tag k="ssr:stedsnr" v="118286" />
	</node>
	<node id="-190395" lat="59.6352055558" lon="10.5345472305">
		<tag k="name" v="Stikkvannshytta" />
		<tag k="place" v="isolated_dwelling" />
		<tag k="ssr:stedsnr" v="783886" />
	</node>
	<node id="-189880" lat="59.5521138933" lon="10.4726083335">
		<tag k="name" v="Breidablikk" />
		<tag k="place" v="farm" />
		<tag k="ssr:stedsnr" v="118179" />
	</node>
	<node id="-189879" lat="59.5551250027" lon="10.4675222206">
		<tag k="name" v="Hauge" />
		<tag k="place" v="farm" />
		<tag k="ssr:stedsnr" v="118173" />
	</node>
	<node id="-189769" lat="59.6135222209" lon="10.5935944451">
		<tag k="name" v="Hammersborg" />
		<tag k="place" v="farm" />
		<tag k="ssr:stedsnr" v="3605" />
	</node>
	<node id="-189873" lat="59.6130500032" lon="10.5444916748">
		<tag k="name" v="Vennersborg" />
		<tag k="place" v="isolated_dwelling" />
		<tag k="ssr:stedsnr" v="103717" />
	</node>
	<node id="-190384" lat="59.5825388857" lon="10.5807777804">
		<tag k="alt_name" v="Eik vestre" />
		<tag k="name" v="Vestre Eik" />
		<tag k="place" v="farm" />
		<tag k="ssr:stedsnr" v="770623" />
	</node>
	<node id="-190381" lat="59.5864416692" lon="10.5905944398">
		<tag k="name" v="Karijordet" />
		<tag k="place" v="isolated_dwelling" />
		<tag k="ssr:stedsnr" v="770607" />
	</node>
	<node id="-189868" lat="59.5788277733" lon="10.4802055637">
		<tag k="alt_name" v="Nordre Holtvedt;Holtvedt nordre" />
		<tag k="name" v="Nordre Holtvet" />
		<tag k="place" v="farm" />
		<tag k="ssr:stedsnr" v="103498" />
	</node>
	<node id="-190479" lat="59.5477611078" lon="10.4585861142">
		<tag k="alt_name" v="Myrene;Myhrene" />
		<tag k="name" v="Myrane" />
		<tag k="place" v="farm" />
		<tag k="ssr:stedsnr" v="853526" />
	</node>
	<node id="-190378" lat="59.5753222233" lon="10.4434888813">
		<tag k="name" v="Knivsvikbråten" />
		<tag k="place" v="farm" />
		<tag k="ssr:stedsnr" v="770469" />
	</node>
	<node id="-190377" lat="59.5813027764" lon="10.4378333386">
		<tag k="name" v="Knivsvik" />
		<tag k="place" v="isolated_dwelling" />
		<tag k="ssr:stedsnr" v="770463" />
	</node>
	<node id="-190372" lat="59.563272223" lon="10.5732361153">
		<tag k="alt_name" v="Røed vestre" />
		<tag k="name" v="Vestre Rød" />
		<tag k="place" v="farm" />
		<tag k="ssr:stedsnr" v="768690" />
	</node>
	<node id="-189859" lat="59.6735888922" lon="10.5341166707">
		<tag k="name" v="Damsgård" />
		<tag k="place" v="isolated_dwelling" />
		<tag k="ssr:stedsnr" v="100754" />
	</node>
	<node id="-189857" lat="59.5659972198" lon="10.5820888821">
		<tag k="name" v="Kaltenbakk" />
		<tag k="place" v="quarter" />
		<tag k="ssr:stedsnr" v="89830" />
	</node>
	<node id="-190368" lat="59.6113722203" lon="10.4876083278">
		<tag k="alt_name" v="Ødegården nordre" />
		<tag k="name" v="Nordre Ødegården" />
		<tag k="place" v="farm" />
		<tag k="ssr:stedsnr" v="768543" />
	</node>
	<node id="-190367" lat="59.6093555583" lon="10.4832472222">
		<tag k="alt_name" v="Dalen nordre" />
		<tag k="name" v="Nordre Dalen" />
		<tag k="place" v="isolated_dwelling" />
		<tag k="ssr:stedsnr" v="768540" />
	</node>
	<node id="-190365" lat="59.6245416645" lon="10.4422861043">
		<tag k="name" v="Fjellbu" />
		<tag k="place" v="isolated_dwelling" />
		<tag k="ssr:stedsnr" v="768528" />
	</node>
	<node id="-189852" lat="59.5374722228" lon="10.5436833421">
		<tag k="name" v="Striglesand" />
		<tag k="place" v="quarter" />
		<tag k="ssr:stedsnr" v="86858" />
	</node>
	<node id="-190363" lat="59.5605472214" lon="10.453227777">
		<tag k="name" v="Bergsengene" />
		<tag k="place" v="farm" />
		<tag k="ssr:stedsnr" v="768189" />
	</node>
	<node id="-190359" lat="59.6664833343" lon="10.5172472207">
		<tag k="name" v="Damstua" />
		<tag k="place" v="isolated_dwelling" />
		<tag k="ssr:stedsnr" v="767772" />
	</node>
	<node id="-189846" lat="59.6764972245" lon="10.5387805545">
		<tag k="amenity" v="school" />
		<tag k="name" v="Grytnes" />
		<tag k="ssr:stedsnr" v="85799" />
	</node>
	<node id="-190355" lat="59.5532555556" lon="10.4213138976">
		<tag k="name" v="Holmsbustøa" />
		<tag k="place" v="hamlet" />
		<tag k="ssr:stedsnr" v="756842" />
	</node>
	<node id="-189842" lat="59.6415249958" lon="10.4408500076">
		<tag k="alt_name" v="Selvig" />
		<tag k="name" v="Selvik" />
		<tag k="place" v="farm" />
		<tag k="ssr:stedsnr" v="64856" />
	</node>
	<node id="-189841" lat="59.578144442" lon="10.479074993">
		<tag k="fixme" v="consider place=hamlet" />
		<tag k="name" v="Holtvet" />
		<tag k="place" v="farm" />
		<tag k="ssr:stedsnr" v="64733" />
	</node>
	<node id="-190352" lat="59.6136888875" lon="10.4580222212">
		<tag k="fixme" v="consider place=suburb, village or hamlet" />
		<tag k="name" v="Klokkarstua" />
		<tag k="place" v="quarter" />
		<tag k="ssr:stedsnr" v="753354" />
	</node>
	<node id="-190351" lat="59.6591999995" lon="10.572047227">
		<tag k="name" v="Pina" />
		<tag k="place" v="isolated_dwelling" />
		<tag k="ssr:stedsnr" v="752006" />
	</node>
	<node id="-190349" lat="59.6528390833" lon="10.5846722075">
		<tag k="fixme" v="consider place=hamlet" />
		<tag k="name" v="Grønsand" />
		<tag k="place" v="farm" />
		<tag k="ssr:stedsnr" v="732818" />
	</node>
	<node id="-190348" lat="59.6570361068" lon="10.4370888826">
		<tag k="name" v="Småskjær" />
		<tag k="place" v="isolated_dwelling" />
		<tag k="ssr:stedsnr" v="732816" />
	</node>
	<node id="-190346" lat="59.5942694411" lon="10.602886108">
		<tag k="name" v="Solberg" />
		<tag k="place" v="farm" />
		<tag k="ssr:stedsnr" v="731729" />
	</node>
	<node id="-190345" lat="59.5896944483" lon="10.5845833336">
		<tag k="name" v="Langerud" />
		<tag k="place" v="isolated_dwelling" />
		<tag k="ssr:stedsnr" v="731712" />
	</node>
	<node id="-190344" lat="59.5526833305" lon="10.4634000057">
		<tag k="name" v="Folkestad" />
		<tag k="place" v="farm" />
		<tag k="ssr:stedsnr" v="731510" />
	</node>
	<node id="-189831" lat="59.6081388906" lon="10.4837083384">
		<tag k="alt_name" v="Dalen søndre" />
		<tag k="name" v="Dalen" />
		<tag k="place" v="farm" />
		<tag k="ssr:stedsnr" v="64626" />
	</node>
	<node id="-190358" lat="59.5815166697" lon="10.60782222">
		<tag k="name" v="Nordre Bjørnstad" />
		<tag k="place" v="farm" />
		<tag k="ssr:stedsnr" v="767663" />
	</node>
	<node id="-190336" lat="59.626030556" lon="10.4717305565">
		<tag k="name" v="Haugestad" />
		<tag k="place" v="farm" />
		<tag k="ssr:stedsnr" v="726578" />
	</node>
	<node id="-190335" lat="59.6310083313" lon="10.4609888939">
		<tag k="alt_name" v="Roaas" />
		<tag k="name" v="Roås" />
		<tag k="place" v="isolated_dwelling" />
		<tag k="ssr:stedsnr" v="726574" />
	</node>
	<node id="-189819" lat="59.6346638929" lon="10.4945277767">
		<tag k="name" v="Vestli" />
		<tag k="place" v="farm" />
		<tag k="ssr:stedsnr" v="59096" />
	</node>
	<node id="-189818" lat="59.5382388896" lon="10.4433722269">
		<tag k="alt_name" v="Røed lille" />
		<tag k="name" v="Lille-Rød" />
		<tag k="place" v="farm" />
		<tag k="ssr:stedsnr" v="59090" />
	</node>
	<node id="-189815" lat="59.5485305554" lon="10.4946555516">
		<tag k="name" v="Fredensborg" />
		<tag k="place" v="farm" />
		<tag k="ssr:stedsnr" v="58631" />
	</node>
	<node id="-190326" lat="59.5643583317" lon="10.4633749945">
		<tag k="name" v="Sand" />
		<tag k="place" v="farm" />
		<tag k="ssr:stedsnr" v="731688" />
	</node>
	<node id="-190526" lat="59.5683055536" lon="10.4386583318">
		<tag k="alt_name" v="Aas" />
		<tag k="name" v="Ås" />
		<tag k="place" v="farm" />
		<tag k="ssr:stedsnr" v="913697" />
	</node>
	<node id="-190322" lat="59.6117944469" lon="10.4579194524">
		<tag k="name" v="Hov" />
		<tag k="place" v="farm" />
		<tag k="ssr:stedsnr" v="731605" />
	</node>
	<node id="-190227" lat="59.6447333314" lon="10.5068083418">
		<tag k="name" v="Ødegården" />
		<tag k="place" v="farm" />
		<tag k="ssr:stedsnr" v="610846" />
	</node>
	<node id="-190316" lat="59.6125000022" lon="10.5499777821">
		<tag k="name" v="Plankebru" />
		<tag k="place" v="isolated_dwelling" />
		<tag k="ssr:stedsnr" v="709736" />
	</node>
	<node id="-190315" lat="59.5967416711" lon="10.5359111131">
		<tag k="name" v="Blankvannshytta" />
		<tag k="place" v="locality" />
		<tag k="ssr:stedsnr" v="709734" />
	</node>
	<node id="-190313" lat="59.6130722213" lon="10.5876888878">
		<tag k="name" v="Gammelsetra" />
		<tag k="place" v="locality" />
		<tag k="ssr:stedsnr" v="709712" />
	</node>
	<node id="-189756" lat="59.5805444421" lon="10.5821888815">
		<tag k="alt_name" v="Wold" />
		<tag k="name" v="Vold" />
		<tag k="place" v="farm" />
		<tag k="ssr:stedsnr" v="892628" />
	</node>
	<node id="-190310" lat="59.6026666651" lon="10.5060583311">
		<tag k="name" v="Smedbråten" />
		<tag k="place" v="locality" />
		<tag k="ssr:stedsnr" v="709637" />
	</node>
	<node id="-189971" lat="59.5650916677" lon="10.4661666728">
		<tag k="alt_name" v="Liltvedt" />
		<tag k="name" v="Lilltvet" />
		<tag k="place" v="farm" />
		<tag k="ssr:stedsnr" v="222160" />
	</node>
	<node id="-189796" lat="59.6636944446" lon="10.6000916591">
		<tag k="name" v="Færgestad" />
		<tag k="place" v="isolated_dwelling" />
		<tag k="ssr:stedsnr" v="42324" />
	</node>
	<node id="-190304" lat="59.5665722234" lon="10.5753361089">
		<tag k="alt_name" v="Røed østre" />
		<tag k="name" v="Østre Rød" />
		<tag k="place" v="farm" />
		<tag k="ssr:stedsnr" v="708676" />
	</node>
	<node id="-190303" lat="59.5734527779" lon="10.5602916673">
		<tag k="name" v="Ulvekula" />
		<tag k="place" v="farm" />
		<tag k="ssr:stedsnr" v="708675" />
	</node>
	<node id="-189788" lat="59.5830527802" lon="10.6093305627">
		<tag k="name" v="Svingen" />
		<tag k="place" v="isolated_dwelling" />
		<tag k="ssr:stedsnr" v="39627" />
	</node>
	<node id="-189787" lat="59.5910444426" lon="10.5976500003">
		<tag k="name" v="Nordre Huseby" />
		<tag k="place" v="farm" />
		<tag k="ssr:stedsnr" v="39622" />
	</node>
	<node id="-189839" lat="59.5665611126" lon="10.576930555">
		<tag k="amenity" v="cafe" />
		<tag k="name" v="Vingården" />
		<tag k="ssr:stedsnr" v="64709" />
	</node>
	<node id="-190296" lat="59.616419443" lon="10.467747219">
		<tag k="name" v="Nordjordet" />
		<tag k="place" v="farm" />
		<tag k="ssr:stedsnr" v="707570" />
	</node>
	<node id="-189668" lat="59.6144666698" lon="10.4680361088">
		<tag k="name" v="Myrvang" />
		<tag k="place" v="farm" />
		<tag k="ssr:stedsnr" v="343568" />
	</node>
	<node id="-190294" lat="59.5972333359" lon="10.4902250087">
		<tag k="name" v="Bergli" />
		<tag k="place" v="farm" />
		<tag k="ssr:stedsnr" v="707557" />
	</node>
	<node id="-190293" lat="59.5631333323" lon="10.4548444487">
		<tag k="name" v="Tangerud" />
		<tag k="place" v="isolated_dwelling" />
		<tag k="ssr:stedsnr" v="707204" />
	</node>
	<node id="-190290" lat="59.5686500026" lon="10.4311666716">
		<tag k="alt_name" v="Aasstøa" />
		<tag k="name" v="Åsstøa" />
		<tag k="place" v="isolated_dwelling" />
		<tag k="ssr:stedsnr" v="695821" />
	</node>
	<node id="-190288" lat="59.6544611079" lon="10.601463888">
		<tag k="name" v="Ellingstad" />
		<tag k="place" v="isolated_dwelling" />
		<tag k="ssr:stedsnr" v="693887" />
	</node>
	<node id="-190287" lat="59.6445638928" lon="10.5837111046">
		<tag k="name" v="Frydenlund" />
		<tag k="place" v="isolated_dwelling" />
		<tag k="ssr:stedsnr" v="693879" />
	</node>
	<node id="-190286" lat="59.5857888932" lon="10.6103472184">
		<tag k="name" v="Hyggen" />
		<tag k="place" v="farm" />
		<tag k="ssr:stedsnr" v="692916" />
	</node>
	<node id="-189772" lat="59.5775583339" lon="10.5033611168">
		<tag k="name" v="Rødbysætra" />
		<tag k="place" v="isolated_dwelling" />
		<tag k="ssr:stedsnr" v="3700" />
	</node>
	<node id="-189922" lat="59.5846222252" lon="10.5004888941">
		<tag k="name" v="Setton" />
		<tag k="place" v="locality" />
		<tag k="ssr:stedsnr" v="163648" />
	</node>
	<node id="-190282" lat="59.6516989239" lon="10.5961011838">
		<tag k="fixme" v="consider place=hamlet" />
		<tag k="name" v="Storsand" />
		<tag k="place" v="farm" />
		<tag k="ssr:stedsnr" v="671825" />
	</node>
	<node id="-190281" lat="59.6052888845" lon="10.4693000036">
		<tag k="name" v="Kjøreholet" />
		<tag k="place" v="farm" />
		<tag k="ssr:stedsnr" v="671640" />
	</node>
	<node id="-190280" lat="59.5995583304" lon="10.4864666748">
		<tag k="name" v="Nygård" />
		<tag k="place" v="locality" />
		<tag k="ssr:stedsnr" v="670728" />
	</node>
	<node id="-189767" lat="59.5393388901" lon="10.4470083396">
		<tag k="alt_name" v="Røed" />
		<tag k="name" v="Rød" />
		<tag k="place" v="farm" />
		<tag k="ssr:stedsnr" v="3509" />
	</node>
	<node id="-190277" lat="59.5478999958" lon="10.4445638813">
		<tag k="alt_name" v="Langjahren" />
		<tag k="name" v="Langjaren" />
		<tag k="place" v="farm" />
		<tag k="ssr:stedsnr" v="666119" />
	</node>
	<node id="-190274" lat="59.6290888844" lon="10.4665111117">
		<tag k="name" v="Øvre Inglingstad" />
		<tag k="place" v="isolated_dwelling" />
		<tag k="ssr:stedsnr" v="665605" />
	</node>
	<node id="-190273" lat="59.6227722252" lon="10.4722972266">
		<tag k="name" v="Granheim" />
		<tag k="place" v="isolated_dwelling" />
		<tag k="ssr:stedsnr" v="665600" />
	</node>
	<node id="-190268" lat="59.6871333371" lon="10.5154111139">
		<tag k="name" v="Plassområdet" />
		<tag k="place" v="quarter" />
		<tag k="ssr:stedsnr" v="665342" />
	</node>
	<node id="-189834" lat="59.6208099383" lon="10.486320692">
		<tag k="alt_name" v="Søndre Østren;Østern Søndre" />
		<tag k="fixme" v="consider place=hamlet" />
		<tag k="name" v="Søndre Østern" />
		<tag k="place" v="farm" />
		<tag k="ssr:stedsnr" v="64665" />
	</node>
	<node id="-190265" lat="59.6550833325" lon="10.4764638887">
		<tag k="name" v="Sandungseter" />
		<tag k="place" v="locality" />
		<tag k="ssr:stedsnr" v="664247" />
	</node>
	<node id="-189752" lat="59.6469166663" lon="10.5852944469">
		<tag k="name" v="Høybråten" />
		<tag k="place" v="locality" />
		<tag k="ssr:stedsnr" v="891376" />
	</node>
	<node id="-189751" lat="59.5478777789" lon="10.4881333331">
		<tag k="name" v="Fredheim" />
		<tag k="place" v="farm" />
		<tag k="ssr:stedsnr" v="891156" />
	</node>
	<node id="-189749" lat="59.5678611117" lon="10.6030638824">
		<tag k="name" v="Filtvet" />
		<tag k="place" v="farm" />
		<tag k="ssr:stedsnr" v="890708" />
	</node>
	<node id="-190260" lat="59.5698166661" lon="10.4619305508">
		<tag k="name" v="Torgrimsåsen" />
		<tag k="place" v="neighbourhood" />
		<tag k="ssr:stedsnr" v="662161" />
	</node>
	<node id="-189747" lat="59.6719166638" lon="10.4343250005">
		<tag k="name" v="Lund" />
		<tag k="place" v="isolated_dwelling" />
		<tag k="ssr:stedsnr" v="890265" />
	</node>
	<node id="-189711" lat="59.6135111121" lon="10.4185416696">
		<tag k="fixme" v="consider place=suburb, village or hamlet" />
		<tag k="name" v="Verket" />
		<tag k="place" v="quarter" />
		<tag k="ssr:stedsnr" v="367626" />
	</node>
	<node id="-190256" lat="59.5786916665" lon="10.5898222223">
		<tag k="name" v="Røttervold" />
		<tag k="place" v="isolated_dwelling" />
		<tag k="ssr:stedsnr" v="648662" />
	</node>
	<node id="-190253" lat="59.614052777" lon="10.4576833279">
		<tag k="amenity" v="townhall" />
		<tag k="name" v="Hovtun" />
		<tag k="ssr:stedsnr" v="648505" />
	</node>
	<node id="-190252" lat="59.5778277767" lon="10.479611116">
		<tag k="alt_name" v="Søndre Holtvedt;Holtvedt søndre" />
		<tag k="name" v="Søndre Holtvet" />
		<tag k="place" v="farm" />
		<tag k="ssr:stedsnr" v="648501" />
	</node>
	<node id="-189936" lat="59.5486222254" lon="10.443180563">
		<tag k="name" v="Lovdal" />
		<tag k="place" v="farm" />
		<tag k="ssr:stedsnr" v="180105" />
	</node>
	<node id="-190250" lat="59.5742194471" lon="10.462580554">
		<tag k="name" v="Dalene" />
		<tag k="place" v="farm" />
		<tag k="ssr:stedsnr" v="648474" />
	</node>
	<node id="-190249" lat="59.6242736882" lon="10.4853316441">
		<tag k="name" v="Østern" />
		<tag k="old_name" v="Østen" />
		<tag k="place" v="hamlet" />
		<tag k="ssr:stedsnr" v="648353" />
	</node>
	<node id="-190482" lat="59.6168527754" lon="10.4238888912">
		<tag k="name" v="Ryggen" />
		<tag k="place" v="isolated_dwelling" />
		<tag k="ssr:stedsnr" v="853638" />
	</node>
	<node id="-189733" lat="59.5462277752" lon="10.4862555634">
		<tag k="name" v="Nysveen" />
		<tag k="place" v="farm" />
		<tag k="ssr:stedsnr" v="405123" />
	</node>
	<node id="-190244" lat="59.5985666667" lon="10.4724083278">
		<tag k="building" v="industrial" />
		<tag k="name" v="Mølla" />
		<tag k="ssr:stedsnr" v="646564" />
	</node>
	<node id="-190243" lat="59.6040361128" lon="10.4571416689">
		<tag k="name" v="Røtter" />
		<tag k="place" v="farm" />
		<tag k="ssr:stedsnr" v="646563" />
	</node>
	<node id="-189730" lat="59.672294445" lon="10.5472527691">
		<tag k="name" v="Petterstua" />
		<tag k="place" v="isolated_dwelling" />
		<tag k="ssr:stedsnr" v="403779" />
	</node>
	<node id="-190239" lat="59.5663888924" lon="10.4569305477">
		<tag k="name" v="Mørketo" />
		<tag k="place" v="farm" />
		<tag k="ssr:stedsnr" v="646196" />
	</node>
	<node id="-189726" lat="59.5660027791" lon="10.4337722246">
		<tag k="name" v="Selbråten" />
		<tag k="place" v="farm" />
		<tag k="ssr:stedsnr" v="392096" />
	</node>
	<node id="-189725" lat="59.6425194466" lon="10.6042111075">
		<tag k="name" v="Bua" />
		<tag k="place" v="farm" />
		<tag k="ssr:stedsnr" v="389901" />
	</node>
	<node id="-190236" lat="59.6508611087" lon="10.5747805564">
		<tag k="alt_name" v="Havnemyra" />
		<tag k="name" v="Havnemyr" />
		<tag k="place" v="locality" />
		<tag k="ssr:stedsnr" v="631904" />
	</node>
	<node id="-189781" lat="59.6677111108" lon="10.5961666648">
		<tag k="name" v="Kaldekota" />
		<tag k="place" v="isolated_dwelling" />
		<tag k="ssr:stedsnr" v="24885" />
	</node>
	<node id="-190233" lat="59.5938722249" lon="10.4381027729">
		<tag k="name" v="Ormestua" />
		<tag k="place" v="isolated_dwelling" />
		<tag k="ssr:stedsnr" v="631766" />
	</node>
	<node id="-189720" lat="59.6388333318" lon="10.5911222273">
		<tag k="name" v="Børsand" />
		<tag k="place" v="farm" />
		<tag k="ssr:stedsnr" v="367823" />
	</node>
	<node id="-189718" lat="59.5723333354" lon="10.6049916718">
		<tag k="name" v="Ekra" />
		<tag k="place" v="farm" />
		<tag k="ssr:stedsnr" v="367714" />
	</node>
	<node id="-189717" lat="59.5797083312" lon="10.5762694469">
		<tag k="name" v="Røstad" />
		<tag k="place" v="farm" />
		<tag k="ssr:stedsnr" v="367713" />
	</node>
	<node id="-189866" lat="59.5446805517" lon="10.4715416743">
		<tag k="alt_name" v="Ranvikbråten" />
		<tag k="name" v="Ramvikbråten" />
		<tag k="place" v="isolated_dwelling" />
		<tag k="ssr:stedsnr" v="102142" />
	</node>
	<node id="-189715" lat="59.6314055534" lon="10.4903750073">
		<tag k="name" v="Sem" />
		<tag k="place" v="farm" />
		<tag k="ssr:stedsnr" v="367662" />
	</node>
	<node id="-189714" lat="59.6261852641" lon="10.4846238935">
		<tag k="alt_name" v="Nordre Østren;Østern nordre" />
		<tag k="fixme" v="consider place=hamlet" />
		<tag k="name" v="Nordre Østern" />
		<tag k="place" v="farm" />
		<tag k="ssr:stedsnr" v="367648" />
	</node>
	<node id="-189827" lat="59.6310083313" lon="10.4609888939">
		<tag k="name" v="Solli" />
		<tag k="place" v="locality" />
		<tag k="ssr:stedsnr" v="59552" />
	</node>
	<node id="-190424" lat="59.5598888888" lon="10.4550944462">
		<tag k="name" v="Berg" />
		<tag k="place" v="farm" />
		<tag k="ssr:stedsnr" v="792683" />
	</node>
	<node id="-189710" lat="59.5452249984" lon="10.530541667">
		<tag k="name" v="Skogen" />
		<tag k="place" v="locality" />
		<tag k="ssr:stedsnr" v="367467" />
	</node>
	<node id="-190221" lat="59.6054611135" lon="10.5125611137">
		<tag k="name" v="Daleby" />
		<tag k="place" v="isolated_dwelling" />
		<tag k="ssr:stedsnr" v="610653" />
	</node>
	<node id="-190218" lat="59.5598250015" lon="10.4486499977">
		<tag k="name" v="Engene" />
		<tag k="place" v="farm" />
		<tag k="ssr:stedsnr" v="609666" />
	</node>
	<node id="-190217" lat="59.6208222221" lon="10.6076083297">
		<tag k="name" v="Løkka" />
		<tag k="place" v="isolated_dwelling" />
		<tag k="ssr:stedsnr" v="609622" />
	</node>
	<node id="-190214" lat="59.6582583356" lon="10.5516999965">
		<tag k="name" v="Engenesetra" />
		<tag k="place" v="locality" />
		<tag k="ssr:stedsnr" v="605351" />
	</node>
	<node id="-190212" lat="59.5514583291" lon="10.4328972165">
		<tag k="alt_name" v="Jahren nordre" />
		<tag k="name" v="Nordre Jaren" />
		<tag k="place" v="farm" />
		<tag k="ssr:stedsnr" v="605130" />
	</node>
	<node id="-189698" lat="59.6352916678" lon="10.4960638863">
		<tag k="name" v="Fagerli" />
		<tag k="place" v="farm" />
		<tag k="ssr:stedsnr" v="362118" />
	</node>
	<node id="-190113" lat="59.6730611069" lon="10.4305555634">
		<tag k="alt_name" v="Bukten" />
		<tag k="name" v="Bukta" />
		<tag k="place" v="isolated_dwelling" />
		<tag k="ssr:stedsnr" v="509826" />
	</node>
	<node id="-190207" lat="59.6377750031" lon="10.4558916666">
		<tag k="name" v="Grube" />
		<tag k="place" v="locality" />
		<tag k="ssr:stedsnr" v="604571" />
	</node>
	<node id="-189909" lat="59.5692027795" lon="10.4510527779">
		<tag k="name" v="Killingstaddalen" />
		<tag k="place" v="farm" />
		<tag k="ssr:stedsnr" v="161204" />
	</node>
	<node id="-189692" lat="59.5870944462" lon="10.6099305581">
		<tag k="name" v="Lund" />
		<tag k="place" v="farm" />
		<tag k="ssr:stedsnr" v="361340" />
	</node>
	<node id="-189908" lat="59.6691666679" lon="10.5305416586">
		<tag k="name" v="Gunnaråsen" />
		<tag k="place" v="quarter" />
		<tag k="ssr:stedsnr" v="151751" />
	</node>
	<node id="-190195" lat="59.6032027758" lon="10.5171583264">
		<tag k="fixme" v="consider natural=beach + surface=sand" />
		<tag k="leisure" v="swimming_area" />
		<tag k="name" v="Roligheta" />
		<tag k="place" v="locality" />
		<tag k="ssr:stedsnr" v="588637" />
	</node>
	<node id="-190194" lat="59.6103305558" lon="10.5181888858">
		<tag k="name" v="Prestesetra" />
		<tag k="place" v="locality" />
		<tag k="ssr:stedsnr" v="588634" />
	</node>
	<node id="-190193" lat="59.6112055516" lon="10.43912778">
		<tag k="name" v="Marteplassen" />
		<tag k="place" v="farm" />
		<tag k="ssr:stedsnr" v="588489" />
	</node>
	<node id="-189592" lat="59.5728805589" lon="10.5599472139">
		<tag k="name" v="Solbakken" />
		<tag k="place" v="farm" />
		<tag k="ssr:stedsnr" v="283660" />
	</node>
	<node id="-189967" lat="59.6110777758" lon="10.4562083357">
		<tag k="fixme" v="consider place=hamlet" />
		<tag k="name" v="Hov" />
		<tag k="place" v="farm" />
		<tag k="ssr:stedsnr" v="208526" />
	</node>
	<node id="-189676" lat="59.6111111086" lon="10.5143416711">
		<tag k="name" v="Eikebakken" />
		<tag k="place" v="locality" />
		<tag k="ssr:stedsnr" v="345614" />
	</node>
	<node id="-189675" lat="59.5358583321" lon="10.488311119">
		<tag k="name" v="Kjos" />
		<tag k="place" v="isolated_dwelling" />
		<tag k="ssr:stedsnr" v="344115" />
	</node>
	<node id="-190186" lat="59.5768305597" lon="10.51584723">
		<tag k="name" v="Nysetra" />
		<tag k="place" v="locality" />
		<tag k="ssr:stedsnr" v="587671" />
	</node>
	<node id="-189673" lat="59.5561555535" lon="10.5736833301">
		<tag k="name" v="Brinkeli" />
		<tag k="place" v="isolated_dwelling" />
		<tag k="ssr:stedsnr" v="343702" />
	</node>
	<node id="-190183" lat="59.5412833363" lon="10.4747722248">
		<tag k="alt_name" v="Ranvik lille" />
		<tag k="name" v="Lille-Ramvik" />
		<tag k="place" v="farm" />
		<tag k="ssr:stedsnr" v="587138" />
	</node>
	<node id="-189669" lat="59.5588749987" lon="10.4988638855">
		<tag k="name" v="Sør-Dustad" />
		<tag k="place" v="farm" />
		<tag k="ssr:stedsnr" v="343585" />
	</node>
	<node id="-190180" lat="59.5623861075" lon="10.5663111071">
		<tag k="name" v="Toftebråten" />
		<tag k="place" v="farm" />
		<tag k="ssr:stedsnr" v="586669" />
	</node>
	<node id="-189667" lat="59.6053138924" lon="10.4689111193">
		<tag k="name" v="Kjærholdt" />
		<tag k="place" v="farm" />
		<tag k="ssr:stedsnr" v="343557" />
	</node>
	<node id="-190177" lat="59.5998638923" lon="10.4712083293">
		<tag k="name" v="Teigen" />
		<tag k="place" v="isolated_dwelling" />
		<tag k="ssr:stedsnr" v="586564" />
	</node>
	<node id="-189904" lat="59.5369527819" lon="10.5334916622">
		<tag k="name" v="Sørlia" />
		<tag k="place" v="quarter" />
		<tag k="ssr:stedsnr" v="146845" />
	</node>
	<node id="-190486" lat="59.63829167" lon="10.453355551">
		<tag k="name" v="Selvikhagen" />
		<tag k="place" v="isolated_dwelling" />
		<tag k="ssr:stedsnr" v="853835" />
	</node>
	<node id="-189658" lat="59.5847750029" lon="10.6108305531">
		<tag k="name" v="Hauge" />
		<tag k="place" v="farm" />
		<tag k="ssr:stedsnr" v="328919" />
	</node>
	<node id="-189847" lat="59.6755305555" lon="10.5177638847">
		<tag k="amenity" v="kindergarten" />
		<tag k="name" v="Bjørndalen" />
		<tag k="ssr:stedsnr" v="85800" />
	</node>
	<node id="-190167" lat="59.6288166642" lon="10.465966667">
		<tag k="alt_name" v="Nedre Inglingstad" />
		<tag k="name" v="Inglingstad" />
		<tag k="place" v="farm" />
		<tag k="ssr:stedsnr" v="549654" />
	</node>
	<node id="-189652" lat="59.5861416628" lon="10.5812999951">
		<tag k="name" v="Bråten" />
		<tag k="place" v="farm" />
		<tag k="ssr:stedsnr" v="103633" />
	</node>
	<node id="-190163" lat="59.5427555576" lon="10.5613833377">
		<tag k="name" v="Tofte" />
		<tag k="place" v="village" />
		<tag k="ssr:stedsnr" v="549512" />
	</node>
	<node id="-189650" lat="59.6651583338" lon="10.5724694465">
		<tag k="name" v="Skjærlaget" />
		<tag k="place" v="farm" />
		<tag k="ssr:stedsnr" v="328005" />
	</node>
	<node id="-190499" lat="59.6173638897" lon="10.5204388813">
		<tag k="name" v="Østernsetra" />
		<tag k="place" v="locality" />
		<tag k="ssr:stedsnr" v="905536" />
	</node>
	<node id="-189645" lat="59.6261998482" lon="10.4745184874">
		<tag k="name" v="Ustad" />
		<tag k="place" v="hamlet" />
		<tag k="ssr:stedsnr" v="307688" />
	</node>
	<node id="-190157" lat="59.5500305538" lon="10.4922805567">
		<tag k="name" v="Vollebråten" />
		<tag k="place" v="farm" />
		<tag k="ssr:stedsnr" v="544610" />
	</node>
	<node id="-189643" lat="59.5960861135" lon="10.4757361166">
		<tag k="name" v="Vestby" />
		<tag k="place" v="farm" />
		<tag k="ssr:stedsnr" v="306720" />
	</node>
	<node id="-189644" lat="59.5320583298" lon="10.4829805551">
		<tag k="name" v="Bråten" />
		<tag k="place" v="farm" />
		<tag k="ssr:stedsnr" v="307554" />
	</node>
	<node id="-189638" lat="59.5728083368" lon="10.6140805561">
		<tag k="name" v="Filtvet" />
		<tag k="place" v="village" />
		<tag k="ssr:stedsnr" v="306700" />
	</node>
	<node id="-189637" lat="59.562988888" lon="10.4669611179">
		<tag k="alt_name" v="Liltvedt" />
		<tag k="name" v="Lilltvet" />
		<tag k="place" v="farm" />
		<tag k="ssr:stedsnr" v="306671" />
	</node>
	<node id="-190582" lat="59.625455555" lon="10.4627861107">
		<tag k="name" v="Øvre Haugen" />
		<tag k="place" v="isolated_dwelling" />
		<tag k="ssr:stedsnr" v="969561" />
	</node>
	<node id="-189634" lat="59.5940277779" lon="10.4733805639">
		<tag k="name" v="Tveita" />
		<tag k="place" v="farm" />
		<tag k="ssr:stedsnr" v="306577" />
	</node>
	<node id="-190041" lat="59.5992010283" lon="10.4371353795">
		<tag k="alt_name" v="Volden" />
		<tag k="name" v="Vollen" />
		<tag k="place" v="farm" />
		<tag k="ssr:stedsnr" v="428584" />
	</node>
	<node id="-190142" lat="59.5982083332" lon="10.571308341">
		<tag k="name" v="Branok" />
		<tag k="place" v="isolated_dwelling" />
		<tag k="ssr:stedsnr" v="527723" />
	</node>
	<node id="-190133" lat="59.6423527791" lon="10.5516750035">
		<tag k="name" v="Jordbru" />
		<tag k="place" v="locality" />
		<tag k="ssr:stedsnr" v="527358" />
	</node>
	<node id="-190132" lat="59.6414750002" lon="10.5498777805">
		<tag k="name" v="Setton" />
		<tag k="place" v="locality" />
		<tag k="ssr:stedsnr" v="527353" />
	</node>
	<node id="-189616" lat="59.5693944421" lon="10.4875083339">
		<tag k="alt_name" v="Torstvedtbråten" />
		<tag k="name" v="Torstvetbråten" />
		<tag k="place" v="isolated_dwelling" />
		<tag k="ssr:stedsnr" v="300256" />
	</node>
	<node id="-190127" lat="59.6105388888" lon="10.4674555625">
		<tag k="name" v="Heimtun" />
		<tag k="place" v="farm" />
		<tag k="ssr:stedsnr" v="525561" />
	</node>
	<node id="-190126" lat="59.6218111092" lon="10.4487833399">
		<tag k="name" v="Valnebbet" />
		<tag k="place" v="locality" />
		<tag k="ssr:stedsnr" v="525552" />
	</node>
	<node id="-190125" lat="59.6723527804" lon="10.5521555614">
		<tag k="name" v="Kongsdelene" />
		<tag k="place" v="farm" />
		<tag k="ssr:stedsnr" v="525313" />
	</node>
	<node id="-190124" lat="59.6702638869" lon="10.4399361025">
		<tag k="alt_name" v="Rørvik nordre" />
		<tag k="name" v="Nordre Rørvik" />
		<tag k="place" v="farm" />
		<tag k="ssr:stedsnr" v="525281" />
	</node>
	<node id="-190121" lat="59.6757638888" lon="10.5362055492">
		<tag k="alt_name" v="Ekhaugen" />
		<tag k="name" v="Eikhaugen" />
		<tag k="place" v="isolated_dwelling" />
		<tag k="ssr:stedsnr" v="524771" />
	</node>
	<node id="-190120" lat="59.6744111102" lon="10.5268583253">
		<tag k="name" v="Vang" />
		<tag k="place" v="isolated_dwelling" />
		<tag k="ssr:stedsnr" v="524770" />
	</node>
	<node id="-190119" lat="59.5801944409" lon="10.6100972172">
		<tag k="name" v="Søndre Bjørnstad" />
		<tag k="place" v="farm" />
		<tag k="ssr:stedsnr" v="524634" />
	</node>
	<node id="-190118" lat="59.5677972215" lon="10.4303000036">
		<tag k="fixme" v="consider natural=beach + surface=sand" />
		<tag k="leisure" v="swimming_area" />
		<tag k="name" v="Gryta" />
		<tag k="place" v="locality" />
		<tag k="ssr:stedsnr" v="524131" />
	</node>
	<node id="-190525" lat="59.620883331" lon="10.5471166697">
		<tag k="name" v="Rolfsbu" />
		<tag k="place" v="isolated_dwelling" />
		<tag k="ssr:stedsnr" v="913630" />
	</node>
	<node id="-190115" lat="59.6081138886" lon="10.6126916595">
		<tag k="name" v="Sagflaten" />
		<tag k="place" v="isolated_dwelling" />
		<tag k="ssr:stedsnr" v="510918" />
	</node>
	<node id="-190114" lat="59.6373611112" lon="10.4304750064">
		<tag k="name" v="Nesbyleia" />
		<tag k="place" v="isolated_dwelling" />
		<tag k="ssr:stedsnr" v="510890" />
	</node>
	<node id="-189601" lat="59.5849166647" lon="10.5838638919">
		<tag k="alt_name" v="Eik østre" />
		<tag k="name" v="Østre Eik" />
		<tag k="place" v="farm" />
		<tag k="ssr:stedsnr" v="285620" />
	</node>
	<node id="-189600" lat="59.5835138851" lon="10.4375194461">
		<tag k="alt_name" v="Knivsvik nordre" />
		<tag k="name" v="Nordre Knivsvik" />
		<tag k="place" v="farm" />
		<tag k="ssr:stedsnr" v="285481" />
	</node>
	<node id="-190169" lat="59.5849166697" lon="10.5838805575">
		<tag k="name" v="Eik" />
		<tag k="place" v="hamlet" />
		<tag k="ssr:stedsnr" v="549709" />
	</node>
	<node id="-189598" lat="59.6677194419" lon="10.5962555468">
		<tag k="name" v="Nesset" />
		<tag k="place" v="isolated_dwelling" />
		<tag k="ssr:stedsnr" v="285329" />
	</node>
	<node id="-190109" lat="59.6718916659" lon="10.4369305544">
		<tag k="name" v="Selvik" />
		<tag k="place" v="farm" />
		<tag k="ssr:stedsnr" v="489852" />
	</node>
	<node id="-189594" lat="59.5498194411" lon="10.4902527803">
		<tag k="name" v="Harstad" />
		<tag k="place" v="farm" />
		<tag k="ssr:stedsnr" v="284149" />
	</node>
	<node id="-190105" lat="59.5506166705" lon="10.4698916589">
		<tag k="name" v="Kana" />
		<tag k="place" v="farm" />
		<tag k="ssr:stedsnr" v="488543" />
	</node>
	<node id="-190104" lat="59.5411277777" lon="10.4205722192">
		<tag k="name" v="Holtnes" />
		<tag k="place" v="farm" />
		<tag k="ssr:stedsnr" v="488544" />
	</node>
	<node id="-190103" lat="59.5323361137" lon="10.4741527806">
		<tag k="alt_name" v="Knatvold" />
		<tag k="name" v="Knattvoll" />
		<tag k="place" v="farm" />
		<tag k="ssr:stedsnr" v="488531" />
	</node>
	<node id="-189721" lat="59.6760972262" lon="10.5247305538">
		<tag k="alt_name" v="Bekkevoll" />
		<tag k="name" v="Bekkevold" />
		<tag k="place" v="isolated_dwelling" />
		<tag k="ssr:stedsnr" v="388783" />
	</node>
	<node id="-189587" lat="59.614438886" lon="10.4680333367">
		<tag k="name" v="Høyden" />
		<tag k="place" v="isolated_dwelling" />
		<tag k="ssr:stedsnr" v="283503" />
	</node>
	<node id="-190098" lat="59.6314805516" lon="10.4812972186">
		<tag k="fixme" v="consider place=hamlet" />
		<tag k="name" v="Rokkestad" />
		<tag k="place" v="farm" />
		<tag k="ssr:stedsnr" v="488647" />
	</node>
	<node id="-190096" lat="59.5465194418" lon="10.5743638843">
		<tag k="name" v="Bispen" />
		<tag k="place" v="locality" />
		<tag k="ssr:stedsnr" v="484592" />
	</node>
	<node id="-189674" lat="59.5704166627" lon="10.5899972137">
		<tag k="name" v="Dalebråten" />
		<tag k="place" v="isolated_dwelling" />
		<tag k="ssr:stedsnr" v="343719" />
	</node>
	<node id="-189581" lat="59.5701444447" lon="10.6123972228">
		<tag k="name" v="Birkelund" />
		<tag k="place" v="isolated_dwelling" />
		<tag k="ssr:stedsnr" v="282653" />
	</node>
	<node id="-189580" lat="59.5593277809" lon="10.4587666597">
		<tag k="name" v="Berg" />
		<tag k="place" v="farm" />
		<tag k="ssr:stedsnr" v="282170" />
	</node>
	<node id="-190090" lat="59.6250805554" lon="10.5555749933">
		<tag k="name" v="Flomsbu" />
		<tag k="place" v="locality" />
		<tag k="ssr:stedsnr" v="483638" />
	</node>
	<node id="-190089" lat="59.6263861119" lon="10.4638750039">
		<tag k="name" v="Solbakken" />
		<tag k="place" v="farm" />
		<tag k="ssr:stedsnr" v="483583" />
	</node>
	<node id="-190088" lat="59.6248944412" lon="10.473613896">
		<tag k="name" v="Myrvold" />
		<tag k="place" v="farm" />
		<tag k="ssr:stedsnr" v="483579" />
	</node>
	<node id="-190086" lat="59.6349277781" lon="10.5004638818">
		<tag k="name" v="Østli" />
		<tag k="place" v="locality" />
		<tag k="ssr:stedsnr" v="483131" />
	</node>
	<node id="-190083" lat="59.5724722197" lon="10.4461999973">
		<tag k="name" v="Dalvik" />
		<tag k="place" v="farm" />
		<tag k="ssr:stedsnr" v="482185" />
	</node>
	<node id="-190075" lat="59.6024083314" lon="10.5034083377">
		<tag k="name" v="Gulløkka" />
		<tag k="place" v="locality" />
		<tag k="ssr:stedsnr" v="467658" />
	</node>
	<node id="-190585" lat="59.6694467749" lon="10.5694673641">
		<tag k="name" v="Wærpen" />
		<tag k="place" v="farm" />
		<tag k="ssr:stedsnr" v="973259" />
	</node>
	<node id="-190584" lat="59.6498284366" lon="10.5973155696">
		<tag k="name" v="Søndre Storsand" />
		<tag k="place" v="farm" />
		<tag k="ssr:stedsnr" v="973012" />
	</node>
	<node id="-189716" lat="59.5552611091" lon="10.467858335">
		<tag k="name" v="Haga" />
		<tag k="place" v="farm" />
		<tag k="ssr:stedsnr" v="367683" />
	</node>
	<node id="-190070" lat="59.6469777783" lon="10.5890416693">
		<tag k="name" v="Habakken" />
		<tag k="place" v="locality" />
		<tag k="ssr:stedsnr" v="466363" />
	</node>
	<node id="-190069" lat="59.5554083328" lon="10.4205388811">
		<tag k="name" v="Strømhella" />
		<tag k="place" v="hamlet" />
		<tag k="ssr:stedsnr" v="466147" />
	</node>
	<node id="-190068" lat="59.5712833343" lon="10.5666166696">
		<tag k="alt_name" v="Røedsgrinda" />
		<tag k="name" v="Rødsgrinda" />
		<tag k="place" v="isolated_dwelling" />
		<tag k="ssr:stedsnr" v="465673" />
	</node>
	<node id="-189639" lat="59.5807915754" lon="10.6090511319">
		<tag k="fixme" v="consider place=hamlet" />
		<tag k="name" v="Bjørnstad" />
		<tag k="place" v="farm" />
		<tag k="ssr:stedsnr" v="306704" />
	</node>
	<node id="-190065" lat="59.674708335" lon="10.5273499997">
		<tag k="alt_name" v="Aaslund" />
		<tag k="name" v="Åslund" />
		<tag k="place" v="isolated_dwelling" />
		<tag k="ssr:stedsnr" v="464816" />
	</node>
	<node id="-190064" lat="59.5656888861" lon="10.4559444431">
		<tag k="name" v="Ekli" />
		<tag k="place" v="farm" />
		<tag k="ssr:stedsnr" v="464196" />
	</node>
	<node id="-190063" lat="59.5553166658" lon="10.4585055588">
		<tag k="name" v="Fretheim" />
		<tag k="place" v="farm" />
		<tag k="ssr:stedsnr" v="464190" />
	</node>
	<node id="-189724" lat="59.6356416662" lon="10.6039194363">
		<tag k="name" v="Rønningen" />
		<tag k="place" v="hamlet" />
		<tag k="ssr:stedsnr" v="389897" />
	</node>
	<node id="-190057" lat="59.5583638921" lon="10.4221499944">
		<tag k="name" v="Sørstranda" />
		<tag k="place" v="hamlet" />
		<tag k="ssr:stedsnr" v="463129" />
	</node>
	<node id="-190566" lat="59.6469222181" lon="10.5094972231">
		<tag k="name" v="Holtet" />
		<tag k="place" v="isolated_dwelling" />
		<tag k="ssr:stedsnr" v="965863" />
	</node>
	<node id="-189713" lat="59.6228416625" lon="10.6073833313">
		<tag k="name" v="Teigen" />
		<tag k="place" v="isolated_dwelling" />
		<tag k="ssr:stedsnr" v="367642" />
	</node>
	<node id="-190050" lat="59.6457333355" lon="10.5947666688">
		<tag k="name" v="Sundby" />
		<tag k="place" v="farm" />
		<tag k="ssr:stedsnr" v="429836" />
	</node>
	<node id="-189860" lat="59.6756472261" lon="10.4395444492">
		<tag k="name" v="Korsgården" />
		<tag k="place" v="locality" />
		<tag k="ssr:stedsnr" v="101235" />
	</node>
	<node id="-190046" lat="59.5748944441" lon="10.5613333385">
		<tag k="name" v="Vang" />
		<tag k="place" v="farm" />
		<tag k="ssr:stedsnr" v="428704" />
	</node>
	<node id="-190042" lat="59.6113333313" lon="10.6026222188">
		<tag k="name" v="Eltorn" />
		<tag k="place" v="farm" />
		<tag k="ssr:stedsnr" v="428612" />
	</node>
	<node id="-190223" lat="59.6097333349" lon="10.4887416611">
		<tag k="alt_name" v="Ødegården søndre" />
		<tag k="name" v="Ødegården" />
		<tag k="place" v="farm" />
		<tag k="ssr:stedsnr" v="610673" />
	</node>
	<node id="-190040" lat="59.5445277806" lon="10.4800805493">
		<tag k="name" v="Værby" />
		<tag k="place" v="farm" />
		<tag k="ssr:stedsnr" v="428517" />
	</node>
	<node id="-190039" lat="59.5529555539" lon="10.5715527825">
		<tag k="name" v="Tofte" />
		<tag k="ssr:stedsnr" v="428515" />
		<tag k="tourism" v="guest_house" />
	</node>
	<node id="-190038" lat="59.545008332" lon="10.4924305633">
		<tag k="name" v="Tronstad" />
		<tag k="place" v="farm" />
		<tag k="ssr:stedsnr" v="428503" />
	</node>
	<node id="-190549" lat="59.5898027776" lon="10.4810583402">
		<tag k="alt_name" v="Rødby søndre" />
		<tag k="name" v="Søndre Rødby" />
		<tag k="place" v="farm" />
		<tag k="ssr:stedsnr" v="952496" />
	</node>
	<node id="-190035" lat="59.6240083338" lon="10.4758444412">
		<tag k="alt_name" v="Nedre Ugstad;Ugstad nedre" />
		<tag k="fixme" v="consider place=hamlet" />
		<tag k="name" v="Nedre Ustad" />
		<tag k="place" v="farm" />
		<tag k="ssr:stedsnr" v="423585" />
	</node>
	<node id="-190545" lat="59.5505499965" lon="10.4750361057">
		<tag k="name" v="Granvoll" />
		<tag k="place" v="farm" />
		<tag k="ssr:stedsnr" v="951144" />
	</node>
	<node id="-190544" lat="59.5494249982" lon="10.4901833251">
		<tag k="name" v="Haugen" />
		<tag k="place" v="farm" />
		<tag k="ssr:stedsnr" v="951142" />
	</node>
	<node id="-190543" lat="59.6086166664" lon="10.4667861126">
		<tag k="name" v="Nordland" />
		<tag k="place" v="farm" />
		<tag k="ssr:stedsnr" v="950541" />
	</node>
	<node id="-190539" lat="59.6425805559" lon="10.430377779">
		<tag k="name" v="Sagløkka" />
		<tag k="place" v="isolated_dwelling" />
		<tag k="ssr:stedsnr" v="935856" />
	</node>
	<node id="-190538" lat="59.6667666673" lon="10.551436115">
		<tag k="alt_name" v="Bråten" />
		<tag k="name" v="Bråtan" />
		<tag k="place" v="locality" />
		<tag k="ssr:stedsnr" v="935832" />
	</node>
	<node id="-190536" lat="59.6238305588" lon="10.4442416593">
		<tag k="name" v="Inglingstad" />
		<tag k="place" v="farm" />
		<tag k="ssr:stedsnr" v="935750" />
	</node>
	<node id="-190534" lat="59.6836333314" lon="10.5391055632">
		<tag k="alt_name" v="Engene Fabrikker" />
		<tag k="building" v="industrial" />
		<tag k="industrial" v="factory" />
		<tag k="name" v="Engene" />
		<tag k="ssr:stedsnr" v="934782" />
	</node>
	<node id="-190021" lat="59.6191000013" lon="10.4340583325">
		<tag k="name" v="Dramstad" />
		<tag k="place" v="farm" />
		<tag k="ssr:stedsnr" v="267743" />
	</node>
	<node id="-190532" lat="59.6678861078" lon="10.4394388965">
		<tag k="name" v="Rørvik" />
		<tag k="place" v="farm" />
		<tag k="ssr:stedsnr" v="914869" />
	</node>
	<node id="-190475" lat="59.6271666665" lon="10.4751333413">
		<tag k="name" v="Høiden" />
		<tag k="place" v="farm" />
		<tag k="ssr:stedsnr" v="848564" />
	</node>
	<node id="-190048" lat="59.6812916676" lon="10.5274888889">
		<tag k="name" v="Sætre" />
		<tag k="place" v="village" />
		<tag k="ssr:stedsnr" v="428859" />
	</node>
	<node id="-190014" lat="59.6240749985" lon="10.5657027696">
		<tag k="name" v="Kjellsbu" />
		<tag k="place" v="isolated_dwelling" />
		<tag k="ssr:stedsnr" v="246631" />
	</node>
	<node id="-190013" lat="59.6118083343" lon="10.531725002">
		<tag k="name" v="Torsteinseter" />
		<tag k="place" v="locality" />
		<tag k="ssr:stedsnr" v="246617" />
	</node>
	<node id="-190012" lat="59.601602776" lon="10.4698138923">
		<tag k="name" v="Pælen" />
		<tag k="place" v="farm" />
		<tag k="ssr:stedsnr" v="246601" />
	</node>
	<node id="-189706" lat="59.6278277814" lon="10.4746833354">
		<tag k="alt_name" v="Øvre Ugstad;Ugstad øvre" />
		<tag k="fixme" v="consider place=hamlet" />
		<tag k="name" v="Øvre Ustad" />
		<tag k="place" v="farm" />
		<tag k="ssr:stedsnr" v="362553" />
	</node>
	<node id="-190010" lat="59.5383361121" lon="10.4953888958">
		<tag k="alt_name" v="Ranvik store" />
		<tag k="name" v="Ramvik" />
		<tag k="place" v="farm" />
		<tag k="ssr:stedsnr" v="246508" />
	</node>
	<node id="-189791" lat="59.6635861075" lon="10.5687555502">
		<tag k="name" v="Sarabråten" />
		<tag k="place" v="isolated_dwelling" />
		<tag k="ssr:stedsnr" v="40338" />
	</node>
	<node id="-190520" lat="59.5502250042" lon="10.4929583292">
		<tag k="alt_name" v="Nordi" />
		<tag k="name" v="Nordli" />
		<tag k="place" v="farm" />
		<tag k="ssr:stedsnr" v="913515" />
	</node>
	<node id="-190006" lat="59.5277444471" lon="10.4458722143">
		<tag k="fixme" v="consider place=hamlet" />
		<tag k="name" v="Skjøttelvik" />
		<tag k="old_name" v="Schjøttelvik" />
		<tag k="place" v="farm" />
		<tag k="ssr:stedsnr" v="245506" />
	</node>
	<node id="-190516" lat="59.5483250034" lon="10.429561114">
		<tag k="alt_name" v="Jahren søndre" />
		<tag k="name" v="Søndre Jaren" />
		<tag k="place" v="farm" />
		<tag k="ssr:stedsnr" v="909121" />
	</node>
	<node id="-190515" lat="59.5474888929" lon="10.444988884">
		<tag k="alt_name" v="Jahren nedre" />
		<tag k="name" v="Nedre Jaren" />
		<tag k="place" v="locality" />
		<tag k="ssr:stedsnr" v="909115" />
	</node>
	<node id="-190513" lat="59.5445416709" lon="10.4630277862">
		<tag k="name" v="Haugemyrene" />
		<tag k="place" v="isolated_dwelling" />
		<tag k="ssr:stedsnr" v="909106" />
	</node>
	<node id="-189960" lat="59.6646277757" lon="10.5246916636">
		<tag k="alt_name" v="Nedre Mørk" />
		<tag k="name" v="Mørk" />
		<tag k="place" v="farm" />
		<tag k="ssr:stedsnr" v="186864" />
	</node>
	<node id="-189872" lat="59.6113277738" lon="10.6026888808">
		<tag k="name" v="Elgtorn" />
		<tag k="place" v="farm" />
		<tag k="ssr:stedsnr" v="103706" />
	</node>
	<node id="-190471" lat="59.549277776" lon="10.4301499969">
		<tag k="alt_name" v="Jahren mellom" />
		<tag k="name" v="Mellom-Jaren" />
		<tag k="place" v="farm" />
		<tag k="ssr:stedsnr" v="848113" />
	</node>
	<node id="-190504" lat="59.5670055575" lon="10.4883416646">
		<tag k="name" v="Fugleklo" />
		<tag k="place" v="farm" />
		<tag k="ssr:stedsnr" v="907212" />
	</node>
	<node id="-189702" lat="59.6621111078" lon="10.5255333288">
		<tag k="name" v="Øvre Mørk" />
		<tag k="place" v="locality" />
		<tag k="ssr:stedsnr" v="362333" />
	</node>
	<node id="-190498" lat="59.57234444" lon="10.4349888964">
		<tag k="name" v="Åsskogen" />
		<tag k="place" v="neighbourhood" />
		<tag k="ssr:stedsnr" v="879727" />
	</node>
	<node id="-189892" lat="59.5974555544" lon="10.4781138925">
		<tag k="alt_name" v="Sundby store" />
		<tag k="name" v="Sundby" />
		<tag k="place" v="farm" />
		<tag k="ssr:stedsnr" v="124553" />
	</node>
	<node id="-190415" lat="59.5868499978" lon="10.4743416578">
		<tag k="name" v="Stokker" />
		<tag k="place" v="farm" />
		<tag k="ssr:stedsnr" v="791731" />
	</node>
	<node id="-189983" lat="59.599649998" lon="10.4965527747">
		<tag k="name" v="Tuterløkka" />
		<tag k="place" v="locality" />
		<tag k="ssr:stedsnr" v="224600" />
	</node>
	<node id="-190493" lat="59.5758916649" lon="10.5808722291">
		<tag k="name" v="Fagerheim" />
		<tag k="place" v="isolated_dwelling" />
		<tag k="ssr:stedsnr" v="875912" />
	</node>
	<node id="-190492" lat="59.5727805544" lon="10.5913305571">
		<tag k="name" v="Filtvetbråten" />
		<tag k="place" v="isolated_dwelling" />
		<tag k="ssr:stedsnr" v="875913" />
	</node>
	<node id="-190491" lat="59.6537333306" lon="10.5955555612">
		<tag k="name" v="Nordre Storsand" />
		<tag k="place" v="farm" />
		<tag k="ssr:stedsnr" v="875873" />
	</node>
	<node id="-190489" lat="59.625208332" lon="10.4455055521">
		<tag k="name" v="Langbråten" />
		<tag k="place" v="isolated_dwelling" />
		<tag k="ssr:stedsnr" v="874757" />
	</node>
	<node id="-190487" lat="59.6548833291" lon="10.5137583254">
		<tag k="name" v="Svendsrud" />
		<tag k="place" v="isolated_dwelling" />
		<tag k="ssr:stedsnr" v="854807" />
	</node>
	<node id="-189974" lat="59.5596166629" lon="10.5740388869">
		<tag k="name" v="Tofteplassen" />
		<tag k="place" v="quarter" />
		<tag k="ssr:stedsnr" v="222643" />
	</node>
	<node id="-190485" lat="59.5674750026" lon="10.4746611142">
		<tag k="alt_name" v="Torstvedt" />
		<tag k="fixme" v="consider place=hamlet" />
		<tag k="name" v="Torstvet" />
		<tag k="place" v="farm" />
		<tag k="ssr:stedsnr" v="853694" />
	</node>
	<node id="-190483" lat="59.5572249997" lon="10.5196027745">
		<tag k="name" v="Oredalshytta" />
		<tag k="place" v="locality" />
		<tag k="ssr:stedsnr" v="853669" />
	</node>
	<node id="-189970" lat="59.588972225" lon="10.5981888876">
		<tag k="name" v="Søndre Huseby" />
		<tag k="place" v="farm" />
		<tag k="ssr:stedsnr" v="221628" />
	</node>
	<node id="-189969" lat="59.6714833356" lon="10.5411249952">
		<tag k="name" v="Grytnesfeltet" />
		<tag k="place" v="quarter" />
		<tag k="ssr:stedsnr" v="212744" />
	</node>
	<node id="-189784" lat="59.5712666702" lon="10.5665388868">
		<tag k="name" v="Rødsgrinda" />
		<tag k="place" v="farm" />
		<tag k="ssr:stedsnr" v="28099" />
	</node>
	<node id="-189966" lat="59.5882055541" lon="10.6124999944">
		<tag k="name" v="Hermannsbråten" />
		<tag k="place" v="farm" />
		<tag k="ssr:stedsnr" v="207921" />
	</node>
	<node id="-189965" lat="59.6412555577" lon="10.5855777761">
		<tag k="alt_name" v="Sundbyengen" />
		<tag k="name" v="Sundbyenga" />
		<tag k="place" v="farm" />
		<tag k="ssr:stedsnr" v="207884" />
	</node>
	<node id="-190476" lat="59.619183334" lon="10.5836138937">
		<tag k="name" v="Elgtorn" />
		<tag k="place" v="locality" />
		<tag k="ssr:stedsnr" v="848628" />
	</node>
	<node id="-189963" lat="59.5625083365" lon="10.5787222154">
		<tag k="fixme" v="consider place=suburb, village or hamlet" />
		<tag k="name" v="Fuglebakk" />
		<tag k="place" v="quarter" />
		<tag k="ssr:stedsnr" v="207842" />
	</node>
	<node id="-190474" lat="59.6287917889" lon="10.4724382752">
		<tag k="alt_name" v="Vestre Ugstad" />
		<tag k="name" v="Vestre Ustad" />
		<tag k="old_name" v="Ugstad vestre" />
		<tag k="place" v="locality" />
		<tag k="ssr:stedsnr" v="848565" />
	</node>
	<node id="-190522" lat="59.5513833296" lon="10.4469055477">
		<tag k="name" v="Lysemyr" />
		<tag k="place" v="farm" />
		<tag k="ssr:stedsnr" v="913524" />
	</node>
	<node id="-189840" lat="59.5676972262" lon="10.4523333292">
		<tag k="name" v="Dalen" />
		<tag k="place" v="farm" />
		<tag k="ssr:stedsnr" v="64725" />
	</node>
	<node id="-190468" lat="59.6449222203" lon="10.4413861133">
		<tag k="alt_name" v="Selvig nordre" />
		<tag k="name" v="Nordre Selvig" />
		<tag k="place" v="farm" />
		<tag k="ssr:stedsnr" v="847298" />
	</node>
	<node id="-189954" lat="59.5410333301" lon="10.4750249913">
		<tag k="name" v="Bamvik" />
		<tag k="place" v="farm" />
		<tag k="ssr:stedsnr" v="185500" />
	</node>
	<node id="-189953" lat="59.5493416677" lon="10.429872215">
		<tag k="name" v="Jaren" />
		<tag k="place" v="hamlet" />
		<tag k="ssr:stedsnr" v="185497" />
	</node>
</osm>
