<?xml version="1.0" encoding="UTF-8"?>
<osm generator="osmapis" version="0.6">
	<node id="-348159" lat="58.4568611088" lon="7.74786944601">
		<tag k="name" v="Skridarmyr" />
		<tag k="natural" v="wetland" />
		<tag k="ssr:stedsnr" v="823580" />
	</node>
	<node id="-346110" lat="58.2873972256" lon="7.7297694461">
		<tag k="name" v="Storemyr" />
		<tag k="natural" v="wetland" />
		<tag k="ssr:stedsnr" v="154949" />
	</node>
	<node id="-346107" lat="58.2225277791" lon="7.97344999544">
		<tag k="name" v="Spangemyr" />
		<tag k="natural" v="wetland" />
		<tag k="ssr:stedsnr" v="149420" />
	</node>
	<node id="-348154" lat="58.3724583339" lon="7.83696389174">
		<tag k="name" v="Rundemyr" />
		<tag k="natural" v="wetland" />
		<tag k="ssr:stedsnr" v="823530" />
	</node>
	<node id="-346104" lat="58.3541666679" lon="7.70780555574">
		<tag k="name" v="Surtemyr" />
		<tag k="natural" v="wetland" />
		<tag k="ssr:stedsnr" v="121783" />
	</node>
	<node id="-348151" lat="58.373219449" lon="7.81989445022">
		<tag k="name" v="Tagdalsmyr" />
		<tag k="natural" v="wetland" />
		<tag k="ssr:stedsnr" v="823522" />
	</node>
	<node id="-348144" lat="58.2773611084" lon="8.02189444105">
		<tag k="name" v="Kringlemyr" />
		<tag k="natural" v="wetland" />
		<tag k="ssr:stedsnr" v="823489" />
	</node>
	<node id="-344744" lat="58.2956527756" lon="7.78201943945">
		<tag k="name" v="Skolandsmyr" />
		<tag k="place" v="locality" />
		<tag k="ssr:stedsnr" v="276790" />
	</node>
	<node id="-348139" lat="58.2485111108" lon="7.76732777843">
		<tag k="name" v="Nesane" />
		<tag k="place" v="locality" />
		<tag k="ssr:stedsnr" v="823466" />
	</node>
	<node id="-348138" lat="58.2532166636" lon="7.77882500354">
		<tag k="name" v="Krokmyr" />
		<tag k="natural" v="wetland" />
		<tag k="ssr:stedsnr" v="823459" />
	</node>
	<node id="-348137" lat="58.3912361082" lon="7.823847229">
		<tag k="name" v="Nygårdsmyrane" />
		<tag k="natural" v="wetland" />
		<tag k="ssr:stedsnr" v="823447" />
	</node>
	<node id="-345084" lat="58.4497861125" lon="7.77534722325">
		<tag k="name" v="Bjørnetjønnmyra" />
		<tag k="natural" v="wetland" />
		<tag k="ssr:stedsnr" v="337799" />
	</node>
	<node id="-348133" lat="58.3909888909" lon="7.78491666544">
		<tag k="name" v="Røysmyr" />
		<tag k="natural" v="wetland" />
		<tag k="ssr:stedsnr" v="823434" />
	</node>
	<node id="-348127" lat="58.2326472238" lon="7.94754444652">
		<tag k="name" v="Storedalsmyra" />
		<tag k="natural" v="wetland" />
		<tag k="ssr:stedsnr" v="823387" />
	</node>
	<node id="-348124" lat="58.3216638921" lon="7.67204999639">
		<tag k="name" v="Monen" />
		<tag k="place" v="locality" />
		<tag k="ssr:stedsnr" v="823376" />
	</node>
	<node id="-348123" lat="58.4074444485" lon="7.79452499684">
		<tag k="name" v="Holekjerr" />
		<tag k="natural" v="wetland" />
		<tag k="ssr:stedsnr" v="823362" />
	</node>
	<node id="-348121" lat="58.3365499987" lon="7.76535833068">
		<tag k="name" v="Moltemyr" />
		<tag k="natural" v="wetland" />
		<tag k="ssr:stedsnr" v="823341" />
	</node>
	<node id="-348118" lat="58.3997749977" lon="7.81957221555">
		<tag k="name" v="Holebekkmyr" />
		<tag k="natural" v="wetland" />
		<tag k="ssr:stedsnr" v="823332" />
	</node>
	<node id="-348110" lat="58.3338055577" lon="7.79444444957">
		<tag k="name" v="Eljemyr" />
		<tag k="natural" v="wetland" />
		<tag k="ssr:stedsnr" v="823284" />
	</node>
	<node id="-345421" lat="58.2545055555" lon="7.72911944761">
		<tag k="name" v="Storemyr" />
		<tag k="natural" v="wetland" />
		<tag k="ssr:stedsnr" v="883619" />
	</node>
	<node id="-348107" lat="58.2331527747" lon="7.74645278193">
		<tag k="name" v="Kravlemyr" />
		<tag k="natural" v="wetland" />
		<tag k="ssr:stedsnr" v="823238" />
	</node>
	<node id="-348100" lat="58.2354138901" lon="7.9584555565">
		<tag k="name" v="Normyrane" />
		<tag k="natural" v="wetland" />
		<tag k="ssr:stedsnr" v="823201" />
	</node>
	<node id="-348095" lat="58.3552805594" lon="7.83625555397">
		<tag k="name" v="Haugestølmyr" />
		<tag k="natural" v="wetland" />
		<tag k="ssr:stedsnr" v="823189" />
	</node>
	<node id="-348094" lat="58.278475002" lon="7.92306389192">
		<tag k="name" v="Villemyr" />
		<tag k="natural" v="wetland" />
		<tag k="ssr:stedsnr" v="823188" />
	</node>
	<node id="-348093" lat="58.3624333372" lon="7.83792222748">
		<tag k="name" v="Breimyr" />
		<tag k="natural" v="wetland" />
		<tag k="ssr:stedsnr" v="823186" />
	</node>
	<node id="-348091" lat="58.4043833292" lon="7.69757222013">
		<tag k="name" v="Flåmyr" />
		<tag k="natural" v="wetland" />
		<tag k="ssr:stedsnr" v="823177" />
	</node>
	<node id="-348087" lat="58.3492138857" lon="7.99777221736">
		<tag k="name" v="Blåmyr" />
		<tag k="natural" v="wetland" />
		<tag k="ssr:stedsnr" v="823149" />
	</node>
	<node id="-346037" lat="58.3791999992" lon="7.86709445151">
		<tag k="name" v="Storemyr" />
		<tag k="natural" v="wetland" />
		<tag k="ssr:stedsnr" v="95927" />
	</node>
	<node id="-348077" lat="58.2929111097" lon="7.85601666741">
		<tag k="name" v="Dybemyr" />
		<tag k="natural" v="wetland" />
		<tag k="ssr:stedsnr" v="823049" />
	</node>
	<node id="-348074" lat="58.3350777808" lon="8.01122499842">
		<tag k="name" v="Røyemyra" />
		<tag k="natural" v="wetland" />
		<tag k="ssr:stedsnr" v="823024" />
	</node>
	<node id="-348072" lat="58.3740750033" lon="7.84131389418">
		<tag k="name" v="Røyekjerret" />
		<tag k="natural" v="wetland" />
		<tag k="ssr:stedsnr" v="822946" />
	</node>
	<node id="-344732" lat="58.2909722255" lon="7.78900556359">
		<tag k="name" v="Eikelunden" />
		<tag k="place" v="locality" />
		<tag k="ssr:stedsnr" v="276381" />
	</node>
	<node id="-346020" lat="58.3106416679" lon="7.80571666585">
		<tag k="name" v="Kartane" />
		<tag k="natural" v="wetland" />
		<tag k="ssr:stedsnr" v="95707" />
	</node>
	<node id="-348066" lat="58.3149527799" lon="7.79650000217">
		<tag k="name" v="Revemyr" />
		<tag k="natural" v="wetland" />
		<tag k="ssr:stedsnr" v="822738" />
	</node>
	<node id="-346015" lat="58.3133555553" lon="7.82887499886">
		<tag k="name" v="Bjørnskjeggmyr" />
		<tag k="natural" v="wetland" />
		<tag k="ssr:stedsnr" v="95696" />
	</node>
	<node id="-348062" lat="58.2940305554" lon="7.78980555529">
		<tag k="name" v="Skeia" />
		<tag k="place" v="locality" />
		<tag k="ssr:stedsnr" v="822303" />
	</node>
	<node id="-348055" lat="58.2992555526" lon="7.94963333843">
		<tag k="name" v="Krokmyr" />
		<tag k="natural" v="wetland" />
		<tag k="ssr:stedsnr" v="822197" />
	</node>
	<node id="-348054" lat="58.2834472199" lon="7.93982222037">
		<tag k="name" v="Stedjemyr" />
		<tag k="natural" v="wetland" />
		<tag k="ssr:stedsnr" v="822188" />
	</node>
	<node id="-346004" lat="58.3844805571" lon="7.81255277011">
		<tag k="name" v="Krokevannslåtta" />
		<tag k="natural" v="wetland" />
		<tag k="ssr:stedsnr" v="95462" />
	</node>
	<node id="-345108" lat="58.3516999956" lon="7.65219444229">
		<tag k="name" v="Mauråsmyra" />
		<tag k="natural" v="wetland" />
		<tag k="ssr:stedsnr" v="337983" />
	</node>
	<node id="-345999" lat="58.3664638887" lon="7.6438222164">
		<tag k="name" v="Storemyrøya" />
		<tag k="place" v="locality" />
		<tag k="ssr:stedsnr" v="95631" />
	</node>
	<node id="-345998" lat="58.3844249988" lon="7.67608055188">
		<tag k="name" v="Pråmstemyr" />
		<tag k="natural" v="wetland" />
		<tag k="ssr:stedsnr" v="95630" />
	</node>
	<node id="-345997" lat="58.3857027762" lon="7.70811111894">
		<tag k="name" v="Orreleiksmyr" />
		<tag k="natural" v="wetland" />
		<tag k="ssr:stedsnr" v="95622" />
	</node>
	<node id="-345991" lat="58.2560027761" lon="7.94314999958">
		<tag k="name" v="Andre Låsmyr" />
		<tag k="natural" v="wetland" />
		<tag k="ssr:stedsnr" v="95444" />
	</node>
	<node id="-345067" lat="58.3053388907" lon="7.73731943634">
		<tag k="name" v="Byttingsmyr" />
		<tag k="natural" v="wetland" />
		<tag k="ssr:stedsnr" v="337679" />
	</node>
	<node id="-345984" lat="58.4037250038" lon="7.807705552">
		<tag k="name" v="Markslåtta" />
		<tag k="natural" v="wetland" />
		<tag k="ssr:stedsnr" v="95307" />
	</node>
	<node id="-345981" lat="58.4006555582" lon="7.80017778155">
		<tag k="name" v="Kringlemyr" />
		<tag k="natural" v="wetland" />
		<tag k="ssr:stedsnr" v="95303" />
	</node>
	<node id="-345980" lat="58.3783611093" lon="7.75600832918">
		<tag k="name" v="Bringmyr" />
		<tag k="natural" v="wetland" />
		<tag k="ssr:stedsnr" v="95419" />
	</node>
	<node id="-345976" lat="58.3246444445" lon="7.67202500075">
		<tag k="name" v="Lundemyra" />
		<tag k="place" v="locality" />
		<tag k="ssr:stedsnr" v="95405" />
	</node>
	<node id="-345967" lat="58.3956750019" lon="7.65557223059">
		<tag k="name" v="Fjellmyr" />
		<tag k="natural" v="wetland" />
		<tag k="ssr:stedsnr" v="95198" />
	</node>
	<node id="-345956" lat="58.3872555553" lon="7.64646388578">
		<tag k="name" v="Neset" />
		<tag k="natural" v="wetland" />
		<tag k="ssr:stedsnr" v="95163" />
	</node>
	<node id="-345954" lat="58.4173611109" lon="7.73434721716">
		<tag k="name" v="Joneslåtta" />
		<tag k="natural" v="wetland" />
		<tag k="ssr:stedsnr" v="95114" />
	</node>
	<node id="-345952" lat="58.3945416702" lon="7.76018056306">
		<tag k="name" v="Bjørnebærmyra" />
		<tag k="natural" v="wetland" />
		<tag k="ssr:stedsnr" v="95059" />
	</node>
	<node id="-345951" lat="58.3966138855" lon="7.76886665829">
		<tag k="name" v="Blautekjerret" />
		<tag k="natural" v="wetland" />
		<tag k="ssr:stedsnr" v="95056" />
	</node>
	<node id="-345947" lat="58.3876861094" lon="7.67989444539">
		<tag k="name" v="Djupemyr" />
		<tag k="natural" v="wetland" />
		<tag k="ssr:stedsnr" v="95017" />
	</node>
	<node id="-345944" lat="58.2216583335" lon="7.77526667308">
		<tag k="name" v="Halvorsmyr" />
		<tag k="natural" v="wetland" />
		<tag k="ssr:stedsnr" v="95240" />
	</node>
	<node id="-345943" lat="58.2340027751" lon="7.74563610919">
		<tag k="name" v="Fidjemyr" />
		<tag k="natural" v="wetland" />
		<tag k="ssr:stedsnr" v="95235" />
	</node>
	<node id="-345942" lat="58.2318750016" lon="7.75313055327">
		<tag k="name" v="Tiblemyr" />
		<tag k="place" v="locality" />
		<tag k="ssr:stedsnr" v="95232" />
	</node>
	<node id="-345401" lat="58.286766667" lon="7.85716667258">
		<tag k="name" v="Kringlemyr" />
		<tag k="natural" v="wetland" />
		<tag k="ssr:stedsnr" v="883089" />
	</node>
	<node id="-345940" lat="58.3319138904" lon="7.90170832606">
		<tag k="name" v="Bjørkjerrane" />
		<tag k="natural" v="wetland" />
		<tag k="ssr:stedsnr" v="95225" />
	</node>
	<node id="-347987" lat="58.3522833314" lon="7.65997222244">
		<tag k="name" v="Ospelundholtet" />
		<tag k="place" v="locality" />
		<tag k="ssr:stedsnr" v="762994" />
	</node>
	<node id="-345937" lat="58.4004722268" lon="7.66549445141">
		<tag k="name" v="Elghola" />
		<tag k="natural" v="wetland" />
		<tag k="ssr:stedsnr" v="95202" />
	</node>
	<node id="-345935" lat="58.2741972222" lon="7.96553611546">
		<tag k="name" v="Digemyra" />
		<tag k="natural" v="wetland" />
		<tag k="ssr:stedsnr" v="94936" />
	</node>
	<node id="-345934" lat="58.2763111095" lon="7.96375556213">
		<tag k="name" v="Kalvhagen" />
		<tag k="place" v="locality" />
		<tag k="ssr:stedsnr" v="94934" />
	</node>
	<node id="-347981" lat="58.4303777792" lon="7.73924166299">
		<tag k="name" v="Djupemyr" />
		<tag k="natural" v="wetland" />
		<tag k="ssr:stedsnr" v="762960" />
	</node>
	<node id="-347980" lat="58.4327388887" lon="7.75226111677">
		<tag k="name" v="Løemyrane" />
		<tag k="natural" v="wetland" />
		<tag k="ssr:stedsnr" v="762958" />
	</node>
	<node id="-345929" lat="58.2390055546" lon="7.77951110991">
		<tag k="name" v="Langemyr" />
		<tag k="natural" v="wetland" />
		<tag k="ssr:stedsnr" v="94748" />
	</node>
	<node id="-347974" lat="58.4235583336" lon="7.66945555867">
		<tag k="name" v="Grønemyr" />
		<tag k="natural" v="wetland" />
		<tag k="ssr:stedsnr" v="762886" />
	</node>
	<node id="-347972" lat="58.270683337" lon="7.9926361035">
		<tag k="name" v="Stølemyr" />
		<tag k="natural" v="wetland" />
		<tag k="ssr:stedsnr" v="762879" />
	</node>
	<node id="-345919" lat="58.2396638908" lon="7.73412777209">
		<tag k="name" v="Glugvardsmyrane" />
		<tag k="natural" v="wetland" />
		<tag k="ssr:stedsnr" v="94578" />
	</node>
	<node id="-347961" lat="58.4397111094" lon="7.726433334">
		<tag k="name" v="Runnemyr" />
		<tag k="natural" v="wetland" />
		<tag k="ssr:stedsnr" v="762760" />
	</node>
	<node id="-347959" lat="58.3589361103" lon="7.70759999528">
		<tag k="name" v="Leirånmyra" />
		<tag k="natural" v="wetland" />
		<tag k="ssr:stedsnr" v="762745" />
	</node>
	<node id="-347956" lat="58.3689333302" lon="7.71707777572">
		<tag k="name" v="Kyrkjemyr" />
		<tag k="natural" v="wetland" />
		<tag k="ssr:stedsnr" v="762713" />
	</node>
	<node id="-347953" lat="58.2735055533" lon="7.72621111695">
		<tag k="name" v="Folemyr" />
		<tag k="natural" v="wetland" />
		<tag k="ssr:stedsnr" v="762694" />
	</node>
	<node id="-347948" lat="58.3183249983" lon="7.91221666924">
		<tag k="name" v="Mittslåttan" />
		<tag k="natural" v="wetland" />
		<tag k="ssr:stedsnr" v="762647" />
	</node>
	<node id="-347942" lat="58.3039361081" lon="7.81391111478">
		<tag k="name" v="Hellarkjerrholtan" />
		<tag k="place" v="locality" />
		<tag k="ssr:stedsnr" v="762576" />
	</node>
	<node id="-347940" lat="58.2396361144" lon="7.91584165948">
		<tag k="name" v="Bjønningsmyr" />
		<tag k="natural" v="wetland" />
		<tag k="ssr:stedsnr" v="762541" />
	</node>
	<node id="-347939" lat="58.3726805532" lon="7.83196945237">
		<tag k="name" v="Harelabbmyr" />
		<tag k="natural" v="wetland" />
		<tag k="ssr:stedsnr" v="762528" />
	</node>
	<node id="-345890" lat="58.3157305538" lon="7.85072777748">
		<tag k="name" v="Bumyr" />
		<tag k="natural" v="wetland" />
		<tag k="ssr:stedsnr" v="61081" />
	</node>
	<node id="-347935" lat="58.3771250034" lon="7.83429167311">
		<tag k="name" v="Vintermyr" />
		<tag k="natural" v="wetland" />
		<tag k="ssr:stedsnr" v="762516" />
	</node>
	<node id="-347934" lat="58.2501833313" lon="7.73734166038">
		<tag k="name" v="Tverrbekkstø" />
		<tag k="natural" v="wetland" />
		<tag k="ssr:stedsnr" v="762507" />
	</node>
	<node id="-347932" lat="58.2531055516" lon="7.73471388522">
		<tag k="name" v="Geitemyr" />
		<tag k="natural" v="wetland" />
		<tag k="ssr:stedsnr" v="762488" />
	</node>
	<node id="-347927" lat="58.2559916645" lon="7.92475277161">
		<tag k="name" v="Nedre Bumyr" />
		<tag k="natural" v="wetland" />
		<tag k="ssr:stedsnr" v="762460" />
	</node>
	<node id="-347925" lat="58.3791222234" lon="7.74141388224">
		<tag k="name" v="Blotmyr" />
		<tag k="natural" v="wetland" />
		<tag k="ssr:stedsnr" v="762456" />
	</node>
	<node id="-345875" lat="58.376308331" lon="7.64619722069">
		<tag k="name" v="Strandan" />
		<tag k="natural" v="wetland" />
		<tag k="ssr:stedsnr" v="46201" />
	</node>
	<node id="-347916" lat="58.3933944439" lon="7.82458055066">
		<tag k="name" v="Nygårdsholtane" />
		<tag k="place" v="locality" />
		<tag k="ssr:stedsnr" v="762435" />
	</node>
	<node id="-345865" lat="58.4239722205" lon="7.77122778623">
		<tag k="name" v="Vollestee" />
		<tag k="natural" v="wetland" />
		<tag k="ssr:stedsnr" v="44764" />
	</node>
	<node id="-346412" lat="58.2571666709" lon="7.81977500431">
		<tag k="name" v="Krosskjerr" />
		<tag k="natural" v="wetland" />
		<tag k="ssr:stedsnr" v="216665" />
	</node>
	<node id="-347908" lat="58.3949277796" lon="7.75501111742">
		<tag k="name" v="Torvstrømyra" />
		<tag k="natural" v="wetland" />
		<tag k="ssr:stedsnr" v="762378" />
	</node>
	<node id="-347907" lat="58.2369388898" lon="7.97964999464">
		<tag k="name" v="Lusekjerrane" />
		<tag k="natural" v="wetland" />
		<tag k="ssr:stedsnr" v="762350" />
	</node>
	<node id="-345198" lat="58.259819446" lon="7.87821388295">
		<tag k="name" v="Storrmyr" />
		<tag k="natural" v="wetland" />
		<tag k="ssr:stedsnr" v="397238" />
	</node>
	<node id="-347904" lat="58.403819444" lon="7.80089722118">
		<tag k="name" v="Jensmyr" />
		<tag k="natural" v="wetland" />
		<tag k="ssr:stedsnr" v="762345" />
	</node>
	<node id="-347900" lat="58.3308166662" lon="7.74260277582">
		<tag k="name" v="Kringleåsmyrane" />
		<tag k="natural" v="wetland" />
		<tag k="ssr:stedsnr" v="762330" />
	</node>
	<node id="-347890" lat="58.3273055524" lon="7.84927221623">
		<tag k="name" v="Tjørgrevmyr" />
		<tag k="natural" v="wetland" />
		<tag k="ssr:stedsnr" v="762261" />
	</node>
	<node id="-347879" lat="58.3466638892" lon="7.85575555198">
		<tag k="name" v="Breiemyr" />
		<tag k="natural" v="wetland" />
		<tag k="ssr:stedsnr" v="762198" />
	</node>
	<node id="-347874" lat="58.4271777788" lon="7.75498055204">
		<tag k="name" v="Grosmyr" />
		<tag k="natural" v="wetland" />
		<tag k="ssr:stedsnr" v="762177" />
	</node>
	<node id="-347873" lat="58.4099999976" lon="7.70387777211">
		<tag k="name" v="Langesteinen" />
		<tag k="natural" v="stone" />
		<tag k="ssr:stedsnr" v="762163" />
	</node>
	<node id="-347872" lat="58.427180556" lon="7.73589445048">
		<tag k="name" v="Finnemyr" />
		<tag k="natural" v="wetland" />
		<tag k="ssr:stedsnr" v="762153" />
	</node>
	<node id="-345823" lat="58.3093944413" lon="8.02842222378">
		<tag k="name" v="Jonsmyr" />
		<tag k="natural" v="wetland" />
		<tag k="ssr:stedsnr" v="34957" />
	</node>
	<node id="-347870" lat="58.413125" lon="7.74176666447">
		<tag k="name" v="Stakksteinen" />
		<tag k="natural" v="stone" />
		<tag k="ssr:stedsnr" v="762143" />
	</node>
	<node id="-347869" lat="58.3465694403" lon="8.00516111038">
		<tag k="name" v="Djupemyr" />
		<tag k="natural" v="wetland" />
		<tag k="ssr:stedsnr" v="762144" />
	</node>
	<node id="-347863" lat="58.3599166641" lon="8.0425305568">
		<tag k="name" v="Tverrdalsmyra" />
		<tag k="natural" v="wetland" />
		<tag k="ssr:stedsnr" v="762130" />
	</node>
	<node id="-347860" lat="58.4075194401" lon="7.74840277056">
		<tag k="name" v="Farsmyran" />
		<tag k="natural" v="wetland" />
		<tag k="ssr:stedsnr" v="762107" />
	</node>
	<node id="-347858" lat="58.3877388912" lon="7.71651667406">
		<tag k="name" v="Slåttane" />
		<tag k="natural" v="wetland" />
		<tag k="ssr:stedsnr" v="762104" />
	</node>
	<node id="-347853" lat="58.4202194442" lon="7.67438333951">
		<tag k="name" v="Botnemyra" />
		<tag k="natural" v="wetland" />
		<tag k="ssr:stedsnr" v="762917" />
	</node>
	<node id="-345804" lat="58.2389166702" lon="7.75923611476">
		<tag k="name" v="Slåttane" />
		<tag k="natural" v="wetland" />
		<tag k="ssr:stedsnr" v="34697" />
	</node>
	<node id="-347850" lat="58.3433499997" lon="8.02520834096">
		<tag k="name" v="Brunste" />
		<tag k="natural" v="wetland" />
		<tag k="ssr:stedsnr" v="762077" />
	</node>
	<node id="-347849" lat="58.3971638901" lon="7.7230750024">
		<tag k="name" v="Storemyr" />
		<tag k="natural" v="wetland" />
		<tag k="ssr:stedsnr" v="762039" />
	</node>
	<node id="-347847" lat="58.3934611142" lon="7.67687221969">
		<tag k="name" v="Torkelsmyr" />
		<tag k="natural" v="wetland" />
		<tag k="ssr:stedsnr" v="762024" />
	</node>
	<node id="-345798" lat="58.2506694444" lon="7.83496944631">
		<tag k="name" v="Hestmyr" />
		<tag k="natural" v="wetland" />
		<tag k="ssr:stedsnr" v="34661" />
	</node>
	<node id="-347845" lat="58.3704083334" lon="7.87532500384">
		<tag k="name" v="Fænkjerret" />
		<tag k="natural" v="wetland" />
		<tag k="ssr:stedsnr" v="761932" />
	</node>
	<node id="-345791" lat="58.3734583361" lon="7.64220555295">
		<tag k="name" v="Reverøysa" />
		<tag k="natural" v="scree" />
		<tag k="ssr:stedsnr" v="34619" />
	</node>
	<node id="-345790" lat="58.3794555538" lon="7.64978889663">
		<tag k="name" v="Dukan" />
		<tag k="place" v="locality" />
		<tag k="ssr:stedsnr" v="34599" />
	</node>
	<node id="-345788" lat="58.2455027755" lon="7.92427777606">
		<tag k="name" v="Slåttekjerr" />
		<tag k="natural" v="wetland" />
		<tag k="ssr:stedsnr" v="34563" />
	</node>
	<node id="-345787" lat="58.248886114" lon="7.92883056348">
		<tag k="name" v="Djupemyr" />
		<tag k="natural" v="wetland" />
		<tag k="ssr:stedsnr" v="34560" />
	</node>
	<node id="-345782" lat="58.2418055531" lon="7.91746388715">
		<tag k="name" v="Ravnås Øygard" />
		<tag k="natural" v="wetland" />
		<tag k="ssr:stedsnr" v="34518" />
	</node>
	<node id="-345781" lat="58.246322226" lon="7.91508888258">
		<tag k="name" v="Surtemyrkjerrane" />
		<tag k="natural" v="wetland" />
		<tag k="ssr:stedsnr" v="34514" />
	</node>
	<node id="-345779" lat="58.3764861074" lon="7.82985833765">
		<tag k="name" v="Brønndalskjerret" />
		<tag k="natural" v="wetland" />
		<tag k="ssr:stedsnr" v="34504" />
	</node>
	<node id="-347822" lat="58.3374888854" lon="8.01379445236">
		<tag k="name" v="Steinmyra" />
		<tag k="natural" v="wetland" />
		<tag k="ssr:stedsnr" v="761090" />
	</node>
	<node id="-346900" lat="58.349969441" lon="7.84361389151">
		<tag k="name" v="Knipemyr" />
		<tag k="natural" v="wetland" />
		<tag k="ssr:stedsnr" v="519215" />
	</node>
	<node id="-345766" lat="58.3407250001" lon="7.70513055216">
		<tag k="name" v="Grautmyr" />
		<tag k="natural" v="wetland" />
		<tag k="ssr:stedsnr" v="34372" />
	</node>
	<node id="-345763" lat="58.4029055596" lon="7.79514722858">
		<tag k="name" v="Puttmyr" />
		<tag k="natural" v="wetland" />
		<tag k="ssr:stedsnr" v="34336" />
	</node>
	<node id="-345758" lat="58.3995805548" lon="7.82436388217">
		<tag k="name" v="Ospelimyr" />
		<tag k="natural" v="wetland" />
		<tag k="ssr:stedsnr" v="34320" />
	</node>
	<node id="-347800" lat="58.3708027786" lon="7.66606666231">
		<tag k="name" v="Stilletidkarten" />
		<tag k="natural" v="wetland" />
		<tag k="ssr:stedsnr" v="715070" />
	</node>
	<node id="-345742" lat="58.2226944421" lon="7.9672027732">
		<tag k="name" v="Ikkonkjerrane" />
		<tag k="natural" v="wetland" />
		<tag k="ssr:stedsnr" v="34218" />
	</node>
	<node id="-345738" lat="58.2371500012" lon="7.96183888498">
		<tag k="name" v="Studemyr" />
		<tag k="natural" v="wetland" />
		<tag k="ssr:stedsnr" v="34195" />
	</node>
	<node id="-345732" lat="58.4222805573" lon="7.73596944888">
		<tag k="name" v="Gunnerslåttane" />
		<tag k="natural" v="wetland" />
		<tag k="ssr:stedsnr" v="34162" />
	</node>
	<node id="-345729" lat="58.3513638863" lon="8.01130832581">
		<tag k="name" v="Storemyr" />
		<tag k="natural" v="wetland" />
		<tag k="ssr:stedsnr" v="34144" />
	</node>
	<node id="-345722" lat="58.3891666669" lon="7.69277499944">
		<tag k="name" v="Lonemyr" />
		<tag k="natural" v="wetland" />
		<tag k="ssr:stedsnr" v="34108" />
	</node>
	<node id="-345716" lat="58.3367527821" lon="7.66189444385">
		<tag k="name" v="Storemyr" />
		<tag k="natural" v="wetland" />
		<tag k="ssr:stedsnr" v="34017" />
	</node>
	<node id="-345714" lat="58.2972305546" lon="8.04552777811">
		<tag k="name" v="Sølvdalsmyra" />
		<tag k="natural" v="wetland" />
		<tag k="ssr:stedsnr" v="33987" />
	</node>
	<node id="-345711" lat="58.2603444431" lon="7.90999443897">
		<tag k="name" v="Øygard" />
		<tag k="place" v="locality" />
		<tag k="ssr:stedsnr" v="33928" />
	</node>
	<node id="-346045" lat="58.3421305538" lon="7.65900277514">
		<tag k="name" v="Flåna" />
		<tag k="natural" v="wetland" />
		<tag k="ssr:stedsnr" v="108109" />
	</node>
	<node id="-345706" lat="58.301047226" lon="7.97858611097">
		<tag k="name" v="Sjursmyre" />
		<tag k="natural" v="wetland" />
		<tag k="ssr:stedsnr" v="33907" />
	</node>
	<node id="-345703" lat="58.2797166641" lon="7.71695833424">
		<tag k="name" v="Torvmyra" />
		<tag k="natural" v="wetland" />
		<tag k="ssr:stedsnr" v="33901" />
	</node>
	<node id="-347743" lat="58.2541194488" lon="7.84789443812">
		<tag k="name" v="Nordmyr" />
		<tag k="place" v="locality" />
		<tag k="ssr:stedsnr" v="702657" />
	</node>
	<node id="-345691" lat="58.296261111" lon="7.80659999999">
		<tag k="name" v="Jypemyr" />
		<tag k="natural" v="wetland" />
		<tag k="ssr:stedsnr" v="33297" />
	</node>
	<node id="-345688" lat="58.2601833339" lon="7.84660833458">
		<tag k="name" v="Torkelsmyra" />
		<tag k="natural" v="wetland" />
		<tag k="ssr:stedsnr" v="33232" />
	</node>
	<node id="-345684" lat="58.2841194484" lon="7.9368999926">
		<tag k="name" v="Øygardsmyr" />
		<tag k="natural" v="wetland" />
		<tag k="ssr:stedsnr" v="33193" />
	</node>
	<node id="-345680" lat="58.3709222238" lon="7.77469166402">
		<tag k="name" v="Tromyr" />
		<tag k="natural" v="wetland" />
		<tag k="ssr:stedsnr" v="24069" />
	</node>
	<node id="-347727" lat="58.2346916624" lon="7.97354721878">
		<tag k="name" v="Skarkekjerrane" />
		<tag k="natural" v="wetland" />
		<tag k="ssr:stedsnr" v="702214" />
	</node>
	<node id="-347726" lat="58.2318499987" lon="7.98335000354">
		<tag k="name" v="Eilifsmyr" />
		<tag k="natural" v="wetland" />
		<tag k="ssr:stedsnr" v="702212" />
	</node>
	<node id="-347988" lat="58.2359527821" lon="7.97729444902">
		<tag k="name" v="Sprettmyr" />
		<tag k="natural" v="wetland" />
		<tag k="ssr:stedsnr" v="763265" />
	</node>
	<node id="-347724" lat="58.3312916668" lon="7.65869444794">
		<tag k="name" v="Småmyrane" />
		<tag k="natural" v="wetland" />
		<tag k="ssr:stedsnr" v="702018" />
	</node>
	<node id="-347721" lat="58.3513638931" lon="7.6660027698">
		<tag k="name" v="Kyrkjemyr" />
		<tag k="natural" v="wetland" />
		<tag k="ssr:stedsnr" v="701992" />
	</node>
	<node id="-347712" lat="58.3743694413" lon="7.88227223045">
		<tag k="name" v="Rønningen" />
		<tag k="place" v="locality" />
		<tag k="ssr:stedsnr" v="701928" />
	</node>
	<node id="-347711" lat="58.3039333364" lon="8.04338333539">
		<tag k="name" v="Monemyr" />
		<tag k="natural" v="wetland" />
		<tag k="ssr:stedsnr" v="701920" />
	</node>
	<node id="-347709" lat="58.3800499974" lon="7.84268889207">
		<tag k="name" v="Slettemyr" />
		<tag k="natural" v="wetland" />
		<tag k="ssr:stedsnr" v="701919" />
	</node>
	<node id="-347708" lat="58.3042555517" lon="8.04981111228">
		<tag k="name" v="Monen" />
		<tag k="place" v="locality" />
		<tag k="ssr:stedsnr" v="701918" />
	</node>
	<node id="-347706" lat="58.3709222231" lon="7.89166944407">
		<tag k="name" v="Storemyra" />
		<tag k="natural" v="wetland" />
		<tag k="ssr:stedsnr" v="701909" />
	</node>
	<node id="-347705" lat="58.4157416657" lon="7.71302500306">
		<tag k="name" v="Merrekjerret" />
		<tag k="natural" v="wetland" />
		<tag k="ssr:stedsnr" v="701908" />
	</node>
	<node id="-347704" lat="58.4190083302" lon="7.71944721814">
		<tag k="name" v="Jenseslåtta" />
		<tag k="natural" v="wetland" />
		<tag k="ssr:stedsnr" v="701906" />
	</node>
	<node id="-347700" lat="58.2778972264" lon="7.99093888948">
		<tag k="name" v="Hellåsmyr" />
		<tag k="natural" v="wetland" />
		<tag k="ssr:stedsnr" v="701889" />
	</node>
	<node id="-347694" lat="58.352188893" lon="7.68045277919">
		<tag k="name" v="Knutsmyr" />
		<tag k="natural" v="wetland" />
		<tag k="ssr:stedsnr" v="701823" />
	</node>
	<node id="-347693" lat="58.2913944425" lon="7.7517250022">
		<tag k="name" v="Kloppmyr" />
		<tag k="natural" v="wetland" />
		<tag k="ssr:stedsnr" v="701817" />
	</node>
	<node id="-347690" lat="58.4485499964" lon="7.76118888257">
		<tag k="name" v="Lunneslåttmyra" />
		<tag k="natural" v="wetland" />
		<tag k="ssr:stedsnr" v="701808" />
	</node>
	<node id="-347689" lat="58.4505777746" lon="7.74316944968">
		<tag k="name" v="Øyeslåtta" />
		<tag k="natural" v="wetland" />
		<tag k="ssr:stedsnr" v="701806" />
	</node>
	<node id="-345637" lat="58.4528694478" lon="7.69716111571">
		<tag k="name" v="Skrubbsursteinen" />
		<tag k="natural" v="stone" />
		<tag k="ssr:stedsnr" v="578751" />
	</node>
	<node id="-347684" lat="58.4347027815" lon="7.72471389066">
		<tag k="name" v="Skjelingsmyr" />
		<tag k="natural" v="wetland" />
		<tag k="ssr:stedsnr" v="701793" />
	</node>
	<node id="-347682" lat="58.2944861134" lon="7.74150832971">
		<tag k="name" v="Kringlemyr" />
		<tag k="natural" v="wetland" />
		<tag k="ssr:stedsnr" v="701782" />
	</node>
	<node id="-345631" lat="58.4355444434" lon="7.74933333129">
		<tag k="name" v="Storemyr" />
		<tag k="natural" v="wetland" />
		<tag k="ssr:stedsnr" v="894777" />
	</node>
	<node id="-347670" lat="58.3755916643" lon="7.70610000687">
		<tag k="name" v="Vedremyrane" />
		<tag k="natural" v="wetland" />
		<tag k="ssr:stedsnr" v="701709" />
	</node>
	<node id="-347669" lat="58.2877444487" lon="8.0109111104">
		<tag k="name" v="Slåttekjerrane" />
		<tag k="natural" v="wetland" />
		<tag k="ssr:stedsnr" v="701707" />
	</node>
	<node id="-347666" lat="58.3653638915" lon="7.66797221587">
		<tag k="name" v="Nedre Løemyr" />
		<tag k="natural" v="wetland" />
		<tag k="ssr:stedsnr" v="701697" />
	</node>
	<node id="-347663" lat="58.3699972188" lon="7.65702778137">
		<tag k="name" v="Kverlemyr" />
		<tag k="natural" v="wetland" />
		<tag k="ssr:stedsnr" v="701677" />
	</node>
	<node id="-346029" lat="58.3615027791" lon="7.76201388547">
		<tag k="name" v="Snømyr" />
		<tag k="natural" v="wetland" />
		<tag k="ssr:stedsnr" v="95806" />
	</node>
	<node id="-347654" lat="58.3834583312" lon="7.79511388122">
		<tag k="name" v="Store Knipemyr" />
		<tag k="natural" v="wetland" />
		<tag k="ssr:stedsnr" v="701596" />
	</node>
	<node id="-347648" lat="58.3963472187" lon="7.81037500788">
		<tag k="name" v="Toresmyr" />
		<tag k="natural" v="wetland" />
		<tag k="ssr:stedsnr" v="701527" />
	</node>
	<node id="-345594" lat="58.3549944427" lon="7.6696694374">
		<tag k="name" v="Storemyr" />
		<tag k="natural" v="wetland" />
		<tag k="ssr:stedsnr" v="884991" />
	</node>
	<node id="-347641" lat="58.3993194473" lon="7.74391667448">
		<tag k="name" v="Stokkdalsmyra" />
		<tag k="natural" v="wetland" />
		<tag k="ssr:stedsnr" v="701477" />
	</node>
	<node id="-347638" lat="58.4012972227" lon="7.79863054901">
		<tag k="name" v="Langemyr" />
		<tag k="natural" v="wetland" />
		<tag k="ssr:stedsnr" v="701449" />
	</node>
	<node id="-347637" lat="58.3470805534" lon="7.74527777409">
		<tag k="name" v="Kartan" />
		<tag k="natural" v="wetland" />
		<tag k="ssr:stedsnr" v="701450" />
	</node>
	<node id="-347636" lat="58.4010277822" lon="7.82492221647">
		<tag k="name" v="Eikemyr" />
		<tag k="natural" v="wetland" />
		<tag k="ssr:stedsnr" v="701442" />
	</node>
	<node id="-345584" lat="58.3695999987" lon="7.90498334109">
		<tag k="name" v="Steinbrotsmyra" />
		<tag k="natural" v="wetland" />
		<tag k="ssr:stedsnr" v="884948" />
	</node>
	<node id="-347631" lat="58.3976833311" lon="7.84650556023">
		<tag k="name" v="Maurbakkjerr" />
		<tag k="natural" v="wetland" />
		<tag k="ssr:stedsnr" v="701391" />
	</node>
	<node id="-345581" lat="58.4433249986" lon="7.77809721847">
		<tag k="name" v="Den heimre myra" />
		<tag k="natural" v="wetland" />
		<tag k="ssr:stedsnr" v="884928" />
	</node>
	<node id="-345580" lat="58.378005554" lon="7.87360554852">
		<tag k="name" v="Fuglekjerr" />
		<tag k="natural" v="wetland" />
		<tag k="ssr:stedsnr" v="884921" />
	</node>
	<node id="-347626" lat="58.2767944416" lon="7.80621943618">
		<tag k="name" v="Snømyr" />
		<tag k="natural" v="wetland" />
		<tag k="ssr:stedsnr" v="701366" />
	</node>
	<node id="-345577" lat="58.3029027772" lon="8.04787777038">
		<tag k="name" v="Skjelbakkmyra" />
		<tag k="place" v="locality" />
		<tag k="ssr:stedsnr" v="884907" />
	</node>
	<node id="-345575" lat="58.4356000028" lon="7.79451110635">
		<tag k="name" v="Kjerrane" />
		<tag k="natural" v="wetland" />
		<tag k="ssr:stedsnr" v="884893" />
	</node>
	<node id="-345573" lat="58.3837083298" lon="7.88024166201">
		<tag k="name" v="Svinsokskjerr" />
		<tag k="natural" v="wetland" />
		<tag k="ssr:stedsnr" v="884886" />
	</node>
	<node id="-347617" lat="58.4001055529" lon="7.66090278075">
		<tag k="name" v="Kalvedalsmyr" />
		<tag k="natural" v="wetland" />
		<tag k="ssr:stedsnr" v="701299" />
	</node>
	<node id="-347612" lat="58.27340833" lon="7.91980554863">
		<tag k="name" v="Trettestykket" />
		<tag k="natural" v="wetland" />
		<tag k="ssr:stedsnr" v="701269" />
	</node>
	<node id="-345558" lat="58.3464222226" lon="7.6767250028">
		<tag k="name" v="Gamlestem" />
		<tag k="place" v="locality" />
		<tag k="ssr:stedsnr" v="884741" />
	</node>
	<node id="-345557" lat="58.3485777818" lon="7.72156389517">
		<tag k="name" v="Røyrmyr" />
		<tag k="natural" v="wetland" />
		<tag k="ssr:stedsnr" v="884737" />
	</node>
	<node id="-347601" lat="58.3572444472" lon="7.87496667383">
		<tag k="name" v="Romemyr" />
		<tag k="natural" v="wetland" />
		<tag k="ssr:stedsnr" v="701223" />
	</node>
	<node id="-345549" lat="58.3045805553" lon="7.7750277782">
		<tag k="name" v="Listemmen" />
		<tag k="natural" v="wetland" />
		<tag k="ssr:stedsnr" v="884670" />
	</node>
	<node id="-347593" lat="58.4230638894" lon="7.74394722822">
		<tag k="name" v="Samlemyr" />
		<tag k="natural" v="wetland" />
		<tag k="ssr:stedsnr" v="701176" />
	</node>
	<node id="-347591" lat="58.4161083331" lon="7.7661444509">
		<tag k="name" v="Dei store steinane" />
		<tag k="natural" v="stone" />
		<tag k="ssr:stedsnr" v="701144" />
	</node>
	<node id="-347590" lat="58.4056444478" lon="7.75062777392">
		<tag k="name" v="Lillestemmen" />
		<tag k="natural" v="wetland" />
		<tag k="ssr:stedsnr" v="701121" />
	</node>
	<node id="-347588" lat="58.2810027818" lon="7.88636666929">
		<tag k="name" v="Bjønnsmyr" />
		<tag k="natural" v="wetland" />
		<tag k="ssr:stedsnr" v="701105" />
	</node>
	<node id="-347585" lat="58.2845194467" lon="7.88111666979">
		<tag k="name" v="Dugane" />
		<tag k="place" v="locality" />
		<tag k="ssr:stedsnr" v="701072" />
	</node>
	<node id="-345525" lat="58.3792833343" lon="7.8352500005">
		<tag k="name" v="Sagemyr" />
		<tag k="natural" v="wetland" />
		<tag k="ssr:stedsnr" v="884494" />
	</node>
	<node id="-346014" lat="58.2558694457" lon="7.80492778618">
		<tag k="name" v="Hessmyr" />
		<tag k="natural" v="wetland" />
		<tag k="ssr:stedsnr" v="95671" />
	</node>
	<node id="-345522" lat="58.3852750039" lon="7.82139445067">
		<tag k="name" v="Stakkemyr" />
		<tag k="natural" v="wetland" />
		<tag k="ssr:stedsnr" v="884481" />
	</node>
	<node id="-345517" lat="58.3676111147" lon="7.76305277782">
		<tag k="name" v="Sjøngsmyr" />
		<tag k="natural" v="wetland" />
		<tag k="ssr:stedsnr" v="884457" />
	</node>
	<node id="-345514" lat="58.2512611101" lon="7.92016666659">
		<tag k="name" v="Pålsmyr" />
		<tag k="natural" v="wetland" />
		<tag k="ssr:stedsnr" v="884447" />
	</node>
	<node id="-345513" lat="58.3074749985" lon="7.98107223041">
		<tag k="name" v="Kartmyr" />
		<tag k="natural" v="wetland" />
		<tag k="ssr:stedsnr" v="884439" />
	</node>
	<node id="-345511" lat="58.3135722258" lon="7.98455000602">
		<tag k="name" v="Storemyr" />
		<tag k="natural" v="wetland" />
		<tag k="ssr:stedsnr" v="884434" />
	</node>
	<node id="-345508" lat="58.2474250009" lon="7.95495556396">
		<tag k="name" v="Høgevollen" />
		<tag k="place" v="locality" />
		<tag k="ssr:stedsnr" v="884417" />
	</node>
	<node id="-345505" lat="58.3415749982" lon="7.69465000603">
		<tag k="name" v="Vollane" />
		<tag k="place" v="locality" />
		<tag k="ssr:stedsnr" v="884401" />
	</node>
	<node id="-345500" lat="58.4017055564" lon="7.79610833779">
		<tag k="name" v="Snømyr" />
		<tag k="natural" v="wetland" />
		<tag k="ssr:stedsnr" v="884332" />
	</node>
	<node id="-345498" lat="58.4057999991" lon="7.80173610803">
		<tag k="name" v="Stemmane" />
		<tag k="natural" v="wetland" />
		<tag k="ssr:stedsnr" v="884324" />
	</node>
	<node id="-345492" lat="58.2829666692" lon="7.80529999188">
		<tag k="name" v="Borkehyttkjerrane" />
		<tag k="natural" v="wetland" />
		<tag k="ssr:stedsnr" v="884283" />
	</node>
	<node id="-345491" lat="58.395355559" lon="7.85262778583">
		<tag k="name" v="Langemyr" />
		<tag k="natural" v="wetland" />
		<tag k="ssr:stedsnr" v="884281" />
	</node>
	<node id="-345488" lat="58.323294442" lon="7.83673888293">
		<tag k="name" v="Fosseslåtta" />
		<tag k="natural" v="wetland" />
		<tag k="ssr:stedsnr" v="884273" />
	</node>
	<node id="-345476" lat="58.3353472255" lon="7.89541110513">
		<tag k="name" v="Storemyr" />
		<tag k="natural" v="wetland" />
		<tag k="ssr:stedsnr" v="884232" />
	</node>
	<node id="-346006" lat="58.240069444" lon="7.93643610485">
		<tag k="name" v="Spelemannsteinen" />
		<tag k="natural" v="stone" />
		<tag k="ssr:stedsnr" v="95485" />
	</node>
	<node id="-345470" lat="58.226894441" lon="7.9508833404">
		<tag k="name" v="Moråskjerret" />
		<tag k="natural" v="wetland" />
		<tag k="ssr:stedsnr" v="884190" />
	</node>
	<node id="-347514" lat="58.2576944481" lon="7.81740000049">
		<tag k="name" v="Langemyr" />
		<tag k="natural" v="wetland" />
		<tag k="ssr:stedsnr" v="641664" />
	</node>
	<node id="-345464" lat="58.4261722211" lon="7.75831666319">
		<tag k="name" v="Vierkjerret" />
		<tag k="natural" v="wetland" />
		<tag k="ssr:stedsnr" v="884169" />
	</node>
	<node id="-345463" lat="58.4291666634" lon="7.7524444414">
		<tag k="name" v="Bjørnestea" />
		<tag k="natural" v="wetland" />
		<tag k="ssr:stedsnr" v="884166" />
	</node>
	<node id="-345459" lat="58.4238777767" lon="7.73056389557">
		<tag k="name" v="Kringlemyr" />
		<tag k="natural" v="wetland" />
		<tag k="ssr:stedsnr" v="884149" />
	</node>
	<node id="-347506" lat="58.3502138846" lon="7.65931388641">
		<tag k="name" v="Sigmundskjerret" />
		<tag k="natural" v="wetland" />
		<tag k="ssr:stedsnr" v="640989" />
	</node>
	<node id="-345457" lat="58.3514166653" lon="8.03962499512">
		<tag k="name" v="Langemyr" />
		<tag k="natural" v="wetland" />
		<tag k="ssr:stedsnr" v="884132" />
	</node>
	<node id="-345456" lat="58.4051194481" lon="7.75133888102">
		<tag k="name" v="Føresteane" />
		<tag k="natural" v="wetland" />
		<tag k="ssr:stedsnr" v="884112" />
	</node>
	<node id="-345454" lat="58.3880027814" lon="7.69515834104">
		<tag k="name" v="Dikemyr" />
		<tag k="natural" v="wetland" />
		<tag k="ssr:stedsnr" v="884097" />
	</node>
	<node id="-347501" lat="58.3685583322" lon="7.8978027808">
		<tag k="name" v="Dyblemyr" />
		<tag k="natural" v="wetland" />
		<tag k="ssr:stedsnr" v="640955" />
	</node>
	<node id="-347499" lat="58.3082555516" lon="8.00693889662">
		<tag k="name" v="Kleivemyr" />
		<tag k="natural" v="wetland" />
		<tag k="ssr:stedsnr" v="640940" />
	</node>
	<node id="-345450" lat="58.3992694407" lon="7.71889722095">
		<tag k="name" v="Høgemyr" />
		<tag k="natural" v="wetland" />
		<tag k="ssr:stedsnr" v="884036" />
	</node>
	<node id="-345447" lat="58.3401277769" lon="7.64751943692">
		<tag k="name" v="Langekjerret" />
		<tag k="natural" v="wetland" />
		<tag k="ssr:stedsnr" v="884021" />
	</node>
	<node id="-347491" lat="58.3705805534" lon="7.84533054722">
		<tag k="name" v="Hellemyrane" />
		<tag k="natural" v="wetland" />
		<tag k="ssr:stedsnr" v="640906" />
	</node>
	<node id="-347486" lat="58.4347861077" lon="7.80489999295">
		<tag k="name" v="Den runde myra" />
		<tag k="natural" v="wetland" />
		<tag k="ssr:stedsnr" v="640899" />
	</node>
	<node id="-347483" lat="58.297388885" lon="8.02138056156">
		<tag k="name" v="Jonsmyr" />
		<tag k="natural" v="wetland" />
		<tag k="ssr:stedsnr" v="640876" />
	</node>
	<node id="-347482" lat="58.3448249978" lon="7.73566945002">
		<tag k="name" v="Kileslåtta" />
		<tag k="natural" v="wetland" />
		<tag k="ssr:stedsnr" v="640872" />
	</node>
	<node id="-345433" lat="58.3015500032" lon="8.03220000057">
		<tag k="name" v="Flossekarten" />
		<tag k="natural" v="wetland" />
		<tag k="ssr:stedsnr" v="883920" />
	</node>
	<node id="-347478" lat="58.3641277812" lon="7.77015277418">
		<tag k="name" v="Småsteane" />
		<tag k="natural" v="wetland" />
		<tag k="ssr:stedsnr" v="640832" />
	</node>
	<node id="-345428" lat="58.2391194479" lon="7.75291665858">
		<tag k="name" v="Ytre Slåttane" />
		<tag k="natural" v="wetland" />
		<tag k="ssr:stedsnr" v="883780" />
	</node>
	<node id="-347473" lat="58.4385749983" lon="7.72875000112">
		<tag k="name" v="Blautemyr" />
		<tag k="natural" v="wetland" />
		<tag k="ssr:stedsnr" v="640810" />
	</node>
	<node id="-347472" lat="58.2864194448" lon="7.77145555888">
		<tag k="name" v="Hægelandsmyrane" />
		<tag k="natural" v="wetland" />
		<tag k="ssr:stedsnr" v="640808" />
	</node>
	<node id="-347469" lat="58.4458277805" lon="7.76098055663">
		<tag k="name" v="Lunneslåtta" />
		<tag k="natural" v="wetland" />
		<tag k="ssr:stedsnr" v="640798" />
	</node>
	<node id="-345413" lat="58.2836222217" lon="7.82088610565">
		<tag k="name" v="Storemyr" />
		<tag k="natural" v="wetland" />
		<tag k="ssr:stedsnr" v="883355" />
	</node>
	<node id="-345409" lat="58.297438889" lon="7.81861944151">
		<tag k="name" v="Rusekjerrane" />
		<tag k="natural" v="wetland" />
		<tag k="ssr:stedsnr" v="883321" />
	</node>
	<node id="-345408" lat="58.2988527769" lon="7.81556111304">
		<tag k="name" v="Karten" />
		<tag k="natural" v="wetland" />
		<tag k="ssr:stedsnr" v="883315" />
	</node>
	<node id="-345407" lat="58.2787611153" lon="7.91291667205">
		<tag k="name" v="Radmyr" />
		<tag k="natural" v="wetland" />
		<tag k="ssr:stedsnr" v="883278" />
	</node>
	<node id="-345402" lat="58.2894944425" lon="7.86350277018">
		<tag k="name" v="Langemyr" />
		<tag k="natural" v="wetland" />
		<tag k="ssr:stedsnr" v="883094" />
	</node>
	<node id="-347449" lat="58.3713805598" lon="7.68307500285">
		<tag k="name" v="Grønemyr" />
		<tag k="natural" v="wetland" />
		<tag k="ssr:stedsnr" v="640697" />
	</node>
	<node id="-345399" lat="58.3004027754" lon="7.86100277215">
		<tag k="name" v="Langemyr" />
		<tag k="natural" v="wetland" />
		<tag k="ssr:stedsnr" v="883078" />
	</node>
	<node id="-345396" lat="58.2951833339" lon="7.72848333917">
		<tag k="name" v="Tømmeråsmyr" />
		<tag k="natural" v="wetland" />
		<tag k="ssr:stedsnr" v="882919" />
	</node>
	<node id="-347443" lat="58.3770888901" lon="7.6665361186">
		<tag k="name" v="Eikåsmyra" />
		<tag k="natural" v="wetland" />
		<tag k="ssr:stedsnr" v="640670" />
	</node>
	<node id="-344968" lat="58.3162055568" lon="7.85558611871">
		<tag k="name" v="Loppemyr" />
		<tag k="natural" v="wetland" />
		<tag k="ssr:stedsnr" v="304083" />
	</node>
	<node id="-347437" lat="58.3844277806" lon="7.856213882">
		<tag k="name" v="Blautemyrane" />
		<tag k="natural" v="wetland" />
		<tag k="ssr:stedsnr" v="640617" />
	</node>
	<node id="-347433" lat="58.3753083325" lon="7.82953610466">
		<tag k="name" v="Knutsmyr" />
		<tag k="natural" v="wetland" />
		<tag k="ssr:stedsnr" v="640582" />
	</node>
	<node id="-347431" lat="58.3827638846" lon="7.78692223006">
		<tag k="name" v="Hagane" />
		<tag k="natural" v="wetland" />
		<tag k="ssr:stedsnr" v="640564" />
	</node>
	<node id="-347427" lat="58.2546277805" lon="7.7423861155">
		<tag k="name" v="Geitekjerrane" />
		<tag k="natural" v="wetland" />
		<tag k="ssr:stedsnr" v="640554" />
	</node>
	<node id="-347423" lat="58.3034222205" lon="7.98531388549">
		<tag k="name" v="Hageurane" />
		<tag k="natural" v="scree" />
		<tag k="ssr:stedsnr" v="640512" />
	</node>
	<node id="-347422" lat="58.3789694441" lon="7.76102222357">
		<tag k="name" v="Eikelandsteane" />
		<tag k="place" v="locality" />
		<tag k="ssr:stedsnr" v="640509" />
	</node>
	<node id="-347421" lat="58.3963416669" lon="7.8210444377">
		<tag k="name" v="Årgardsmyr" />
		<tag k="natural" v="wetland" />
		<tag k="ssr:stedsnr" v="640507" />
	</node>
	<node id="-347417" lat="58.3942000008" lon="7.7923861085">
		<tag k="name" v="Smalemyr" />
		<tag k="natural" v="wetland" />
		<tag k="ssr:stedsnr" v="640475" />
	</node>
	<node id="-345305" lat="58.3076944462" lon="7.95496943826">
		<tag k="name" v="Kråkemyr" />
		<tag k="natural" v="wetland" />
		<tag k="ssr:stedsnr" v="398556" />
	</node>
	<node id="-347405" lat="58.2793027739" lon="7.84972777537">
		<tag k="name" v="Myrholane" />
		<tag k="natural" v="wetland" />
		<tag k="ssr:stedsnr" v="640384" />
	</node>
	<node id="-347399" lat="58.2725722205" lon="7.79384721681">
		<tag k="name" v="Storemyr" />
		<tag k="natural" v="wetland" />
		<tag k="ssr:stedsnr" v="640323" />
	</node>
	<node id="-347398" lat="58.3307305524" lon="7.87200555738">
		<tag k="name" v="Tjørgromsmyr" />
		<tag k="natural" v="wetland" />
		<tag k="ssr:stedsnr" v="640316" />
	</node>
	<node id="-347397" lat="58.3004000014" lon="7.83071388184">
		<tag k="name" v="Vormbrokksmyr" />
		<tag k="natural" v="wetland" />
		<tag k="ssr:stedsnr" v="640314" />
	</node>
	<node id="-347388" lat="58.2714305563" lon="7.77817221892">
		<tag k="name" v="Konsmyr" />
		<tag k="natural" v="wetland" />
		<tag k="ssr:stedsnr" v="640285" />
	</node>
	<node id="-347382" lat="58.392930555" lon="7.67197500597">
		<tag k="name" v="Torkelsmyr" />
		<tag k="natural" v="wetland" />
		<tag k="ssr:stedsnr" v="640262" />
	</node>
	<node id="-345330" lat="58.3618583334" lon="7.71203611571">
		<tag k="name" v="Holmemyra" />
		<tag k="natural" v="wetland" />
		<tag k="ssr:stedsnr" v="398786" />
	</node>
	<node id="-345299" lat="58.2472250018" lon="7.72945834038">
		<tag k="name" v="Suvalsmyr" />
		<tag k="natural" v="wetland" />
		<tag k="ssr:stedsnr" v="398494" />
	</node>
	<node id="-347375" lat="58.4084444443" lon="7.67843610753">
		<tag k="name" v="Mailesmyrane" />
		<tag k="natural" v="wetland" />
		<tag k="ssr:stedsnr" v="640236" />
	</node>
	<node id="-345453" lat="58.3276555566" lon="8.00070556262">
		<tag k="name" v="Hvermannshola" />
		<tag k="place" v="locality" />
		<tag k="ssr:stedsnr" v="884095" />
	</node>
	<node id="-347363" lat="58.3714055545" lon="8.03783888324">
		<tag k="name" v="Blåmyr" />
		<tag k="natural" v="wetland" />
		<tag k="ssr:stedsnr" v="640168" />
	</node>
	<node id="-345314" lat="58.3748861139" lon="7.69531111164">
		<tag k="name" v="Loneholtet" />
		<tag k="place" v="locality" />
		<tag k="ssr:stedsnr" v="398656" />
	</node>
	<node id="-345799" lat="58.3667111117" lon="7.70404999183">
		<tag k="name" v="Gåsedammen" />
		<tag k="natural" v="wetland" />
		<tag k="ssr:stedsnr" v="34670" />
	</node>
	<node id="-347359" lat="58.4161027743" lon="7.75386111594">
		<tag k="name" v="Med lona" />
		<tag k="natural" v="wetland" />
		<tag k="ssr:stedsnr" v="640153" />
	</node>
	<node id="-347358" lat="58.2968055528" lon="7.93699443796">
		<tag k="name" v="Velldalen" />
		<tag k="natural" v="wetland" />
		<tag k="ssr:stedsnr" v="640152" />
	</node>
	<node id="-347357" lat="58.4180055539" lon="7.74121388607">
		<tag k="name" v="Kistesteinen" />
		<tag k="natural" v="stone" />
		<tag k="ssr:stedsnr" v="640147" />
	</node>
	<node id="-345307" lat="58.3022305599" lon="7.82205555206">
		<tag k="name" v="Sauemyr" />
		<tag k="place" v="locality" />
		<tag k="ssr:stedsnr" v="398595" />
	</node>
	<node id="-347353" lat="58.2988000021" lon="7.91496943806">
		<tag k="name" v="Langemyr" />
		<tag k="place" v="locality" />
		<tag k="ssr:stedsnr" v="640125" />
	</node>
	<node id="-345303" lat="58.3676388876" lon="7.82061666387">
		<tag k="name" v="Bjønneskjeggmyr" />
		<tag k="natural" v="wetland" />
		<tag k="ssr:stedsnr" v="398546" />
	</node>
	<node id="-345302" lat="58.3688638869" lon="7.82367222046">
		<tag k="name" v="Blautekjerrane" />
		<tag k="natural" v="wetland" />
		<tag k="ssr:stedsnr" v="398542" />
	</node>
	<node id="-347347" lat="58.3977166676" lon="7.77250554979">
		<tag k="name" v="Fjerdingskjerret" />
		<tag k="natural" v="wetland" />
		<tag k="ssr:stedsnr" v="640086" />
	</node>
	<node id="-347344" lat="58.3356444489" lon="8.00871111599">
		<tag k="name" v="Fænemyr" />
		<tag k="natural" v="wetland" />
		<tag k="ssr:stedsnr" v="640077" />
	</node>
	<node id="-347343" lat="58.3952055514" lon="7.77125000474">
		<tag k="name" v="Bjørnehiet" />
		<tag k="natural" v="scree" />
		<tag k="ssr:stedsnr" v="640076" />
	</node>
	<node id="-345293" lat="58.2459250008" lon="7.76381388303">
		<tag k="name" v="Monan" />
		<tag k="place" v="locality" />
		<tag k="ssr:stedsnr" v="398442" />
	</node>
	<node id="-345286" lat="58.2476722204" lon="7.98148332932">
		<tag k="name" v="Gjetemyr" />
		<tag k="natural" v="wetland" />
		<tag k="ssr:stedsnr" v="398409" />
	</node>
	<node id="-345285" lat="58.3951722261" lon="7.80432222693">
		<tag k="name" v="Langemyr" />
		<tag k="natural" v="wetland" />
		<tag k="ssr:stedsnr" v="398408" />
	</node>
	<node id="-345282" lat="58.342269441" lon="7.70361666457">
		<tag k="name" v="Kartane" />
		<tag k="natural" v="wetland" />
		<tag k="ssr:stedsnr" v="398370" />
	</node>
	<node id="-345269" lat="58.3313277757" lon="7.79059444524">
		<tag k="name" v="Åmdalskjerr" />
		<tag k="natural" v="wetland" />
		<tag k="ssr:stedsnr" v="398290" />
	</node>
	<node id="-345262" lat="58.2972444484" lon="7.78835277418">
		<tag k="name" v="Øygardsmyr" />
		<tag k="natural" v="wetland" />
		<tag k="ssr:stedsnr" v="398248" />
	</node>
	<node id="-345259" lat="58.2343055518" lon="7.98211389334">
		<tag k="name" v="Linvannsheislåtta" />
		<tag k="natural" v="wetland" />
		<tag k="ssr:stedsnr" v="398229" />
	</node>
	<node id="-345250" lat="58.4024277804" lon="7.6750333319">
		<tag k="name" v="Langedalsmyra" />
		<tag k="natural" v="wetland" />
		<tag k="ssr:stedsnr" v="398200" />
	</node>
	<node id="-345243" lat="58.3620388932" lon="8.02363333217">
		<tag k="name" v="Tjæregrovmyra" />
		<tag k="natural" v="wetland" />
		<tag k="ssr:stedsnr" v="398180" />
	</node>
	<node id="-345241" lat="58.4174666639" lon="7.73763055987">
		<tag k="name" v="Røsepungen" />
		<tag k="natural" v="wetland" />
		<tag k="ssr:stedsnr" v="398138" />
	</node>
	<node id="-345239" lat="58.3488055526" lon="8.03734444596">
		<tag k="name" v="Bjønndalsmyra" />
		<tag k="natural" v="wetland" />
		<tag k="ssr:stedsnr" v="398124" />
	</node>
	<node id="-345238" lat="58.4226055545" lon="7.75288889429">
		<tag k="name" v="Brulimyr" />
		<tag k="natural" v="wetland" />
		<tag k="ssr:stedsnr" v="398120" />
	</node>
	<node id="-345233" lat="58.4025999975" lon="7.77808333568">
		<tag k="name" v="Moltekarten" />
		<tag k="natural" v="wetland" />
		<tag k="ssr:stedsnr" v="398069" />
	</node>
	<node id="-345231" lat="58.3897138877" lon="7.68763611301">
		<tag k="name" v="Porsmyr" />
		<tag k="natural" v="wetland" />
		<tag k="ssr:stedsnr" v="398029" />
	</node>
	<node id="-347266" lat="58.3514" lon="7.65633332732">
		<tag k="name" v="Toraslåtta" />
		<tag k="natural" v="wetland" />
		<tag k="ssr:stedsnr" v="580976" />
	</node>
	<node id="-345214" lat="58.3015000003" lon="7.78974722528">
		<tag k="name" v="Tuptan" />
		<tag k="place" v="locality" />
		<tag k="ssr:stedsnr" v="397645" />
	</node>
	<node id="-347257" lat="58.3763750025" lon="7.88109999665">
		<tag k="name" v="Langelandskjerrane" />
		<tag k="natural" v="wetland" />
		<tag k="ssr:stedsnr" v="580874" />
	</node>
	<node id="-345203" lat="58.2970805582" lon="7.82923333867">
		<tag k="name" v="Bjørnekjerrane" />
		<tag k="natural" v="wetland" />
		<tag k="ssr:stedsnr" v="397285" />
	</node>
	<node id="-345202" lat="58.2685944428" lon="7.7707250011">
		<tag k="name" v="Røydekjerrane" />
		<tag k="natural" v="wetland" />
		<tag k="ssr:stedsnr" v="397282" />
	</node>
	<node id="-347248" lat="58.3186694463" lon="7.79234167139">
		<tag k="name" v="Reveknatten" />
		<tag k="natural" v="wetland" />
		<tag k="ssr:stedsnr" v="580683" />
	</node>
	<node id="-347247" lat="58.3222000016" lon="7.79103611869">
		<tag k="name" v="Langemyr" />
		<tag k="natural" v="wetland" />
		<tag k="ssr:stedsnr" v="580679" />
	</node>
	<node id="-347246" lat="58.3802111122" lon="7.7103527714">
		<tag k="name" v="Torsmyr" />
		<tag k="natural" v="wetland" />
		<tag k="ssr:stedsnr" v="580656" />
	</node>
	<node id="-347244" lat="58.3846083315" lon="7.71513889376">
		<tag k="name" v="Slåttane" />
		<tag k="natural" v="wetland" />
		<tag k="ssr:stedsnr" v="580653" />
	</node>
	<node id="-345195" lat="58.3002444435" lon="7.94206666906">
		<tag k="name" v="Tjønnmyr" />
		<tag k="natural" v="wetland" />
		<tag k="ssr:stedsnr" v="397160" />
	</node>
	<node id="-345193" lat="58.3295999963" lon="7.97601944387">
		<tag k="name" v="Langemyr" />
		<tag k="natural" v="wetland" />
		<tag k="ssr:stedsnr" v="397134" />
	</node>
	<node id="-345191" lat="58.2990361136" lon="7.86728333397">
		<tag k="name" v="Smalmyr" />
		<tag k="natural" v="wetland" />
		<tag k="ssr:stedsnr" v="397088" />
	</node>
	<node id="-345190" lat="58.2945388924" lon="7.88977221678">
		<tag k="name" v="Lindåsmyr" />
		<tag k="natural" v="wetland" />
		<tag k="ssr:stedsnr" v="397082" />
	</node>
	<node id="-345188" lat="58.3000833323" lon="7.84883055278">
		<tag k="name" v="Hellermyra" />
		<tag k="natural" v="wetland" />
		<tag k="ssr:stedsnr" v="397058" />
	</node>
	<node id="-346299" lat="58.430002782" lon="7.75775277252">
		<tag k="name" v="Kiledalsgrosmyr" />
		<tag k="natural" v="wetland" />
		<tag k="ssr:stedsnr" v="155965" />
	</node>
	<node id="-347224" lat="58.3667777745" lon="7.75744443866">
		<tag k="name" v="Skrapslåtta" />
		<tag k="natural" v="wetland" />
		<tag k="ssr:stedsnr" v="580459" />
	</node>
	<node id="-345173" lat="58.225280557" lon="7.9647555503">
		<tag k="name" v="Laumyr" />
		<tag k="natural" v="wetland" />
		<tag k="ssr:stedsnr" v="350987" />
	</node>
	<node id="-347220" lat="58.3178750027" lon="8.01782500665">
		<tag k="name" v="Hestehagmyra" />
		<tag k="natural" v="wetland" />
		<tag k="ssr:stedsnr" v="580426" />
	</node>
	<node id="-347212" lat="58.3983666709" lon="7.80586111384">
		<tag k="name" v="Knipemyr" />
		<tag k="place" v="locality" />
		<tag k="ssr:stedsnr" v="580404" />
	</node>
	<node id="-347211" lat="58.3966555546" lon="7.78948889729">
		<tag k="name" v="Røysmyr" />
		<tag k="natural" v="wetland" />
		<tag k="ssr:stedsnr" v="580399" />
	</node>
	<node id="-347209" lat="58.2516194412" lon="7.96098333063">
		<tag k="name" v="Kvivollen" />
		<tag k="place" v="locality" />
		<tag k="ssr:stedsnr" v="580380" />
	</node>
	<node id="-347208" lat="58.3975249969" lon="7.75137221692">
		<tag k="name" v="Fyresmyr" />
		<tag k="natural" v="wetland" />
		<tag k="ssr:stedsnr" v="580352" />
	</node>
	<node id="-347202" lat="58.3922444405" lon="7.83892777926">
		<tag k="name" v="Barlønmyr" />
		<tag k="natural" v="wetland" />
		<tag k="ssr:stedsnr" v="580261" />
	</node>
	<node id="-347200" lat="58.4012305533" lon="7.84044722357">
		<tag k="name" v="Revekjerrholtet" />
		<tag k="place" v="locality" />
		<tag k="ssr:stedsnr" v="580259" />
	</node>
	<node id="-347190" lat="58.3979777757" lon="7.66749443923">
		<tag k="name" v="Stemyr" />
		<tag k="natural" v="wetland" />
		<tag k="ssr:stedsnr" v="580201" />
	</node>
	<node id="-347187" lat="58.2280666704" lon="7.96569166901">
		<tag k="name" v="Medåskjerret" />
		<tag k="natural" v="wetland" />
		<tag k="ssr:stedsnr" v="580193" />
	</node>
	<node id="-347184" lat="58.4096833326" lon="7.79494722353">
		<tag k="name" v="17. mai-kjerret" />
		<tag k="natural" v="wetland" />
		<tag k="ssr:stedsnr" v="580186" />
	</node>
	<node id="-347181" lat="58.2238972226" lon="7.77037777042">
		<tag k="name" v="Briskehola" />
		<tag k="natural" v="wetland" />
		<tag k="ssr:stedsnr" v="580172" />
	</node>
	<node id="-347180" lat="58.2226944418" lon="7.76685833413">
		<tag k="name" v="Slåttemyra" />
		<tag k="natural" v="wetland" />
		<tag k="ssr:stedsnr" v="580171" />
	</node>
	<node id="-347173" lat="58.4186638848" lon="7.74371944389">
		<tag k="name" v="Elgspranget" />
		<tag k="natural" v="wetland" />
		<tag k="ssr:stedsnr" v="580127" />
	</node>
	<node id="-347172" lat="58.3519222189" lon="8.03429166534">
		<tag k="name" v="Kynningsmyr" />
		<tag k="natural" v="wetland" />
		<tag k="ssr:stedsnr" v="580115" />
	</node>
	<node id="-347170" lat="58.4053166651" lon="7.75489167372">
		<tag k="name" v="Småsteane" />
		<tag k="natural" v="wetland" />
		<tag k="ssr:stedsnr" v="580097" />
	</node>
	<node id="-345037" lat="58.2595194414" lon="7.80815555555">
		<tag k="name" v="Stemmyran" />
		<tag k="natural" v="wetland" />
		<tag k="ssr:stedsnr" v="337477" />
	</node>
	<node id="-347156" lat="58.2860805549" lon="8.01919721571">
		<tag k="name" v="Hagen" />
		<tag k="place" v="locality" />
		<tag k="ssr:stedsnr" v="579980" />
	</node>
	<node id="-345107" lat="58.4480527811" lon="7.78282778329">
		<tag k="name" v="Instreslåtta" />
		<tag k="natural" v="wetland" />
		<tag k="ssr:stedsnr" v="337978" />
	</node>
	<node id="-345105" lat="58.4342527819" lon="7.74769722451">
		<tag k="name" v="Porskjerret" />
		<tag k="natural" v="wetland" />
		<tag k="ssr:stedsnr" v="337961" />
	</node>
	<node id="-347152" lat="58.3661861074" lon="7.85486389321">
		<tag k="name" v="Myglandskjerrane" />
		<tag k="natural" v="wetland" />
		<tag k="ssr:stedsnr" v="579931" />
	</node>
	<node id="-345103" lat="58.2877555527" lon="8.02110556168">
		<tag k="name" v="Sagvollen" />
		<tag k="place" v="locality" />
		<tag k="ssr:stedsnr" v="337953" />
	</node>
	<node id="-347149" lat="58.2934416699" lon="7.99846944468">
		<tag k="name" v="Gjermundsmyr" />
		<tag k="natural" v="wetland" />
		<tag k="ssr:stedsnr" v="579924" />
	</node>
	<node id="-345099" lat="58.3767250042" lon="7.86720000423">
		<tag k="name" v="Småmyran" />
		<tag k="natural" v="wetland" />
		<tag k="ssr:stedsnr" v="337921" />
	</node>
	<node id="-347146" lat="58.3681749981" lon="7.88734999566">
		<tag k="name" v="Storemyr" />
		<tag k="natural" v="wetland" />
		<tag k="ssr:stedsnr" v="579919" />
	</node>
	<node id="-345096" lat="58.4178722181" lon="7.67367777023">
		<tag k="name" v="Bruskarstean" />
		<tag k="natural" v="wetland" />
		<tag k="ssr:stedsnr" v="337913" />
	</node>
	<node id="-345094" lat="58.4245583367" lon="7.70280833006">
		<tag k="name" v="Surtekjerrane" />
		<tag k="natural" v="wetland" />
		<tag k="ssr:stedsnr" v="337909" />
	</node>
	<node id="-347141" lat="58.3003722266" lon="7.77769166607">
		<tag k="name" v="Kloppemyr" />
		<tag k="natural" v="wetland" />
		<tag k="ssr:stedsnr" v="579778" />
	</node>
	<node id="-347139" lat="58.2857805583" lon="8.00620833267">
		<tag k="name" v="Slettåskjerrane" />
		<tag k="natural" v="wetland" />
		<tag k="ssr:stedsnr" v="579769" />
	</node>
	<node id="-345089" lat="58.2955305588" lon="8.03415554898">
		<tag k="name" v="Karten" />
		<tag k="natural" v="wetland" />
		<tag k="ssr:stedsnr" v="337882" />
	</node>
	<node id="-347133" lat="58.2813000012" lon="8.00910276922">
		<tag k="name" v="Runsekjerr" />
		<tag k="natural" v="wetland" />
		<tag k="ssr:stedsnr" v="579725" />
	</node>
	<node id="-347132" lat="58.2830138888" lon="8.01188055986">
		<tag k="name" v="Stemtjønnmyr" />
		<tag k="natural" v="wetland" />
		<tag k="ssr:stedsnr" v="579720" />
	</node>
	<node id="-345083" lat="58.3527444443" lon="7.71323611946">
		<tag k="name" v="Moltemyr" />
		<tag k="natural" v="wetland" />
		<tag k="ssr:stedsnr" v="337792" />
	</node>
	<node id="-347127" lat="58.2650888886" lon="7.80678611729">
		<tag k="name" v="Kvennhusmyra" />
		<tag k="place" v="locality" />
		<tag k="ssr:stedsnr" v="579564" />
	</node>
	<node id="-345069" lat="58.2745916685" lon="7.71388610402">
		<tag k="name" v="Knutesteane" />
		<tag k="natural" v="wetland" />
		<tag k="ssr:stedsnr" v="337687" />
	</node>
	<node id="-347115" lat="58.2692222238" lon="7.73290277199">
		<tag k="name" v="Øygenesane" />
		<tag k="place" v="locality" />
		<tag k="ssr:stedsnr" v="579284" />
	</node>
	<node id="-345066" lat="58.3859194463" lon="7.71178055995">
		<tag k="name" v="Bjørkeholtet" />
		<tag k="place" v="locality" />
		<tag k="ssr:stedsnr" v="337677" />
	</node>
	<node id="-347112" lat="58.2624361099" lon="7.75657222055">
		<tag k="name" v="Langemyr" />
		<tag k="natural" v="wetland" />
		<tag k="ssr:stedsnr" v="579270" />
	</node>
	<node id="-345061" lat="58.3107027775" lon="7.85505000765">
		<tag k="name" v="Hesteste" />
		<tag k="natural" v="wetland" />
		<tag k="ssr:stedsnr" v="337635" />
	</node>
	<node id="-347108" lat="58.2968055547" lon="7.94469999604">
		<tag k="name" v="Treskokjerrane" />
		<tag k="natural" v="wetland" />
		<tag k="ssr:stedsnr" v="579138" />
	</node>
	<node id="-347103" lat="58.3377194449" lon="8.01210277197">
		<tag k="name" v="Ringkjelmyr" />
		<tag k="natural" v="wetland" />
		<tag k="ssr:stedsnr" v="579077" />
	</node>
	<node id="-345051" lat="58.3049861105" lon="7.92501666953">
		<tag k="name" v="Grådarmyra" />
		<tag k="natural" v="wetland" />
		<tag k="ssr:stedsnr" v="337568" />
	</node>
	<node id="-345044" lat="58.2729666688" lon="8.01791665852">
		<tag k="name" v="Grokjerrene" />
		<tag k="natural" v="wetland" />
		<tag k="ssr:stedsnr" v="337529" />
	</node>
	<node id="-346262" lat="58.2818861148" lon="7.76972500426">
		<tag k="name" v="Suglemyr" />
		<tag k="natural" v="wetland" />
		<tag k="ssr:stedsnr" v="155767" />
	</node>
	<node id="-345040" lat="58.2459250025" lon="7.77324721965">
		<tag k="name" v="Myrane" />
		<tag k="natural" v="wetland" />
		<tag k="ssr:stedsnr" v="337502" />
	</node>
	<node id="-345933" lat="58.2707666638" lon="7.99941944065">
		<tag k="name" v="Storemyr" />
		<tag k="natural" v="wetland" />
		<tag k="ssr:stedsnr" v="94925" />
	</node>
	<node id="-345036" lat="58.3976638851" lon="7.78776111018">
		<tag k="name" v="Trollskillingsmyr" />
		<tag k="natural" v="wetland" />
		<tag k="ssr:stedsnr" v="337468" />
	</node>
	<node id="-346272" lat="58.3567749957" lon="7.760799996">
		<tag k="name" v="Langemyr" />
		<tag k="natural" v="wetland" />
		<tag k="ssr:stedsnr" v="155798" />
	</node>
	<node id="-345012" lat="58.2964083352" lon="7.80366388065">
		<tag k="name" v="Torvmyra" />
		<tag k="natural" v="wetland" />
		<tag k="ssr:stedsnr" v="337268" />
	</node>
	<node id="-345011" lat="58.3597972234" lon="7.84284999279">
		<tag k="name" v="Loneslåtta" />
		<tag k="natural" v="wetland" />
		<tag k="ssr:stedsnr" v="337259" />
	</node>
	<node id="-345006" lat="58.2666277738" lon="7.88106389043">
		<tag k="name" v="Eikebrokkslåtta" />
		<tag k="natural" v="wetland" />
		<tag k="ssr:stedsnr" v="337212" />
	</node>
	<node id="-345005" lat="58.4042611136" lon="7.69009999182">
		<tag k="name" v="Moråsmyr" />
		<tag k="natural" v="wetland" />
		<tag k="ssr:stedsnr" v="337206" />
	</node>
	<node id="-345002" lat="58.3886138877" lon="7.65011110988">
		<tag k="name" v="Djupemyr" />
		<tag k="natural" v="wetland" />
		<tag k="ssr:stedsnr" v="337202" />
	</node>
	<node id="-345000" lat="58.4261583297" lon="7.78183333374">
		<tag k="name" v="Driftestea" />
		<tag k="natural" v="wetland" />
		<tag k="ssr:stedsnr" v="337183" />
	</node>
	<node id="-344999" lat="58.3453777759" lon="7.98842222652">
		<tag k="name" v="Stremyr" />
		<tag k="natural" v="wetland" />
		<tag k="ssr:stedsnr" v="337179" />
	</node>
	<node id="-344997" lat="58.2853194426" lon="7.90180000706">
		<tag k="name" v="Svillåsmyr" />
		<tag k="natural" v="wetland" />
		<tag k="ssr:stedsnr" v="337161" />
	</node>
	<node id="-344996" lat="58.2998361145" lon="7.92875278483">
		<tag k="name" v="Røyråsmyra" />
		<tag k="natural" v="wetland" />
		<tag k="ssr:stedsnr" v="337134" />
	</node>
	<node id="-345926" lat="58.2812722207" lon="8.02763333338">
		<tag k="name" v="Døblemyr" />
		<tag k="natural" v="wetland" />
		<tag k="ssr:stedsnr" v="94726" />
	</node>
	<node id="-344990" lat="58.3429694422" lon="7.99703888658">
		<tag k="name" v="Romen" />
		<tag k="natural" v="wetland" />
		<tag k="ssr:stedsnr" v="337101" />
	</node>
	<node id="-347027" lat="58.2341111089" lon="7.75693889526">
		<tag k="name" v="Langemyr" />
		<tag k="place" v="locality" />
		<tag k="ssr:stedsnr" v="520268" />
	</node>
	<node id="-344978" lat="58.2884361134" lon="7.72923889286">
		<tag k="name" v="Langemyr" />
		<tag k="natural" v="wetland" />
		<tag k="ssr:stedsnr" v="336936" />
	</node>
	<node id="-347025" lat="58.2363055583" lon="7.97238610308">
		<tag k="name" v="Elgsmyrane" />
		<tag k="natural" v="wetland" />
		<tag k="ssr:stedsnr" v="520222" />
	</node>
	<node id="-347024" lat="58.2314583349" lon="7.96206110693">
		<tag k="name" v="Hestesteane" />
		<tag k="natural" v="wetland" />
		<tag k="ssr:stedsnr" v="520218" />
	</node>
	<node id="-347016" lat="58.3231694449" lon="8.04253055613">
		<tag k="name" v="Hågånsmyr" />
		<tag k="natural" v="wetland" />
		<tag k="ssr:stedsnr" v="519964" />
	</node>
	<node id="-344979" lat="58.3968666695" lon="7.68210556013">
		<tag k="name" v="Storemyr" />
		<tag k="natural" v="wetland" />
		<tag k="ssr:stedsnr" v="337025" />
	</node>
	<node id="-347009" lat="58.261991668" lon="7.9431777789">
		<tag k="name" v="Karten" />
		<tag k="natural" v="wetland" />
		<tag k="ssr:stedsnr" v="519932" />
	</node>
	<node id="-347008" lat="58.4172361154" lon="7.67381110925">
		<tag k="name" v="Stigedalsmyr" />
		<tag k="natural" v="wetland" />
		<tag k="ssr:stedsnr" v="519925" />
	</node>
	<node id="-347004" lat="58.300441664" lon="7.98799166382">
		<tag k="name" v="Langemyr" />
		<tag k="natural" v="wetland" />
		<tag k="ssr:stedsnr" v="519917" />
	</node>
	<node id="-347003" lat="58.3708055551" lon="7.88263056027">
		<tag k="name" v="Hagestemyra" />
		<tag k="natural" v="wetland" />
		<tag k="ssr:stedsnr" v="519915" />
	</node>
	<node id="-347002" lat="58.2948388887" lon="7.98498333623">
		<tag k="name" v="Torvstrømyr" />
		<tag k="natural" v="wetland" />
		<tag k="ssr:stedsnr" v="519910" />
	</node>
	<node id="-347000" lat="58.2723111069" lon="8.00233333353">
		<tag k="name" v="Ravnåsmyr" />
		<tag k="natural" v="wetland" />
		<tag k="ssr:stedsnr" v="519903" />
	</node>
	<node id="-346260" lat="58.3455999962" lon="7.66769166971">
		<tag k="name" v="Hodnemyrkarten" />
		<tag k="natural" v="wetland" />
		<tag k="ssr:stedsnr" v="155755" />
	</node>
	<node id="-344894" lat="58.3518194469" lon="7.66384166646">
		<tag k="name" v="Skreppestølmyr" />
		<tag k="natural" v="wetland" />
		<tag k="ssr:stedsnr" v="277993" />
	</node>
	<node id="-346993" lat="58.3595333317" lon="7.7764166714">
		<tag k="name" v="Langemyr" />
		<tag k="natural" v="wetland" />
		<tag k="ssr:stedsnr" v="519841" />
	</node>
	<node id="-346989" lat="58.448130554" lon="7.75100555664">
		<tag k="name" v="Midtslåtta" />
		<tag k="natural" v="wetland" />
		<tag k="ssr:stedsnr" v="519795" />
	</node>
	<node id="-346985" lat="58.4478888847" lon="7.72816388585">
		<tag k="name" v="Storemyr" />
		<tag k="natural" v="wetland" />
		<tag k="ssr:stedsnr" v="519784" />
	</node>
	<node id="-346983" lat="58.4402722197" lon="7.72385554749">
		<tag k="name" v="Kitelslåtta" />
		<tag k="natural" v="wetland" />
		<tag k="ssr:stedsnr" v="519768" />
	</node>
	<node id="-346980" lat="58.2930999995" lon="8.00423888048">
		<tag k="name" v="Honnemyr" />
		<tag k="natural" v="wetland" />
		<tag k="ssr:stedsnr" v="519746" />
	</node>
	<node id="-346976" lat="58.2380111118" lon="7.75586388872">
		<tag k="name" v="Myra" />
		<tag k="natural" v="wetland" />
		<tag k="ssr:stedsnr" v="519733" />
	</node>
	<node id="-346975" lat="58.2376083289" lon="7.77601110693">
		<tag k="name" v="Karten" />
		<tag k="natural" v="wetland" />
		<tag k="ssr:stedsnr" v="519725" />
	</node>
	<node id="-346974" lat="58.3143638927" lon="7.78586388457">
		<tag k="name" v="Øygarden" />
		<tag k="place" v="locality" />
		<tag k="ssr:stedsnr" v="519716" />
	</node>
	<node id="-346968" lat="58.3103111125" lon="7.87121111261">
		<tag k="name" v="Lunnan" />
		<tag k="place" v="locality" />
		<tag k="ssr:stedsnr" v="519660" />
	</node>
	<node id="-345985" lat="58.4024361129" lon="7.78673888528">
		<tag k="name" v="Bakkmekarten" />
		<tag k="natural" v="wetland" />
		<tag k="ssr:stedsnr" v="95313" />
	</node>
	<node id="-346254" lat="58.3542638926" lon="7.78229722361">
		<tag k="name" v="Vedremyrane" />
		<tag k="natural" v="wetland" />
		<tag k="ssr:stedsnr" v="155824" />
	</node>
	<node id="-346962" lat="58.3851555563" lon="7.80522499766">
		<tag k="name" v="Porsmyr" />
		<tag k="natural" v="wetland" />
		<tag k="ssr:stedsnr" v="519544" />
	</node>
	<node id="-346957" lat="58.243491669" lon="7.75091388223">
		<tag k="name" v="Understigen" />
		<tag k="natural" v="wetland" />
		<tag k="ssr:stedsnr" v="519518" />
	</node>
	<node id="-346952" lat="58.3068138849" lon="7.97666111548">
		<tag k="name" v="Stemmyrane" />
		<tag k="natural" v="wetland" />
		<tag k="ssr:stedsnr" v="519503" />
	</node>
	<node id="-346951" lat="58.3027888913" lon="7.98992499441">
		<tag k="name" v="Fidjeåsmyra" />
		<tag k="natural" v="wetland" />
		<tag k="ssr:stedsnr" v="519501" />
	</node>
	<node id="-346949" lat="58.3937361079" lon="7.82047222496">
		<tag k="name" v="Langemyr" />
		<tag k="natural" v="wetland" />
		<tag k="ssr:stedsnr" v="519499" />
	</node>
	<node id="-346948" lat="58.3910027789" lon="7.81526666607">
		<tag k="name" v="Poddetjønnholtane" />
		<tag k="place" v="locality" />
		<tag k="ssr:stedsnr" v="519490" />
	</node>
	<node id="-346946" lat="58.3989277791" lon="7.80689444956">
		<tag k="name" v="Gullreiskjerr" />
		<tag k="natural" v="wetland" />
		<tag k="ssr:stedsnr" v="519479" />
	</node>
	<node id="-346942" lat="58.3968083374" lon="7.72855556384">
		<tag k="name" v="Blekkhusmyr" />
		<tag k="natural" v="wetland" />
		<tag k="ssr:stedsnr" v="519432" />
	</node>
	<node id="-346935" lat="58.3237999987" lon="7.79546388102">
		<tag k="name" v="Trollkjerr" />
		<tag k="natural" v="wetland" />
		<tag k="ssr:stedsnr" v="519351" />
	</node>
	<node id="-346932" lat="58.3893750022" lon="7.88527222783">
		<tag k="name" v="Mørkekjerr" />
		<tag k="natural" v="wetland" />
		<tag k="ssr:stedsnr" v="519334" />
	</node>
	<node id="-346930" lat="58.260569445" lon="7.71578888663">
		<tag k="name" v="Skogkjerrane" />
		<tag k="natural" v="wetland" />
		<tag k="ssr:stedsnr" v="519329" />
	</node>
	<node id="-346928" lat="58.2953444478" lon="7.82220000422">
		<tag k="name" v="Lonemyr" />
		<tag k="natural" v="wetland" />
		<tag k="ssr:stedsnr" v="519317" />
	</node>
	<node id="-344878" lat="58.347891671" lon="7.74031110726">
		<tag k="name" v="Porsmyr" />
		<tag k="natural" v="wetland" />
		<tag k="ssr:stedsnr" v="277876" />
	</node>
	<node id="-346919" lat="58.2974555588" lon="7.79264722564">
		<tag k="name" v="Langekjerr" />
		<tag k="natural" v="wetland" />
		<tag k="ssr:stedsnr" v="519284" />
	</node>
	<node id="-344867" lat="58.3611888899" lon="7.70603610738">
		<tag k="name" v="Timberslåtta" />
		<tag k="natural" v="wetland" />
		<tag k="ssr:stedsnr" v="277761" />
	</node>
	<node id="-346914" lat="58.4039833341" lon="7.67207777896">
		<tag k="name" v="Blautemyr" />
		<tag k="natural" v="wetland" />
		<tag k="ssr:stedsnr" v="519262" />
	</node>
	<node id="-344864" lat="58.368972219" lon="7.72126388071">
		<tag k="name" v="Slåttane" />
		<tag k="natural" v="wetland" />
		<tag k="ssr:stedsnr" v="277722" />
	</node>
	<node id="-344880" lat="58.4212861138" lon="7.72238055756">
		<tag k="name" v="Lauvskårmyr" />
		<tag k="natural" v="wetland" />
		<tag k="ssr:stedsnr" v="277922" />
	</node>
	<node id="-346906" lat="58.2696666662" lon="7.86475000243">
		<tag k="name" v="Klovsteinsmyr" />
		<tag k="natural" v="wetland" />
		<tag k="ssr:stedsnr" v="519227" />
	</node>
	<node id="-346905" lat="58.4050750016" lon="7.68298610622">
		<tag k="name" v="Orreleiksmyr" />
		<tag k="natural" v="wetland" />
		<tag k="ssr:stedsnr" v="519220" />
	</node>
	<node id="-344856" lat="58.3802555563" lon="7.65934444565">
		<tag k="name" v="Mosemyr" />
		<tag k="natural" v="wetland" />
		<tag k="ssr:stedsnr" v="277624" />
	</node>
	<node id="-344852" lat="58.3210027815" lon="7.86190833392">
		<tag k="name" v="Torsmyr" />
		<tag k="natural" v="wetland" />
		<tag k="ssr:stedsnr" v="277618" />
	</node>
	<node id="-346898" lat="58.3602611114" lon="8.02766388238">
		<tag k="name" v="Orremyr" />
		<tag k="natural" v="wetland" />
		<tag k="ssr:stedsnr" v="519195" />
	</node>
	<node id="-346897" lat="58.288852775" lon="7.95835555325">
		<tag k="name" v="Vollan" />
		<tag k="place" v="locality" />
		<tag k="ssr:stedsnr" v="519193" />
	</node>
	<node id="-346896" lat="58.2892833339" lon="7.96394166735">
		<tag k="name" v="Erikstykket" />
		<tag k="place" v="locality" />
		<tag k="ssr:stedsnr" v="519191" />
	</node>
	<node id="-346893" lat="58.3488500031" lon="8.00598888217">
		<tag k="name" v="Dyplemyr" />
		<tag k="natural" v="wetland" />
		<tag k="ssr:stedsnr" v="519159" />
	</node>
	<node id="-346892" lat="58.4201111107" lon="7.7298638876">
		<tag k="name" v="Lunnan" />
		<tag k="place" v="locality" />
		<tag k="ssr:stedsnr" v="519158" />
	</node>
	<node id="-346891" lat="58.4207888852" lon="7.73255554769">
		<tag k="name" v="Storemyr" />
		<tag k="natural" v="wetland" />
		<tag k="ssr:stedsnr" v="519152" />
	</node>
	<node id="-346889" lat="58.3010083306" lon="7.93450000209">
		<tag k="name" v="Rosteane" />
		<tag k="natural" v="wetland" />
		<tag k="ssr:stedsnr" v="519142" />
	</node>
	<node id="-345900" lat="58.2909111153" lon="7.85210833333">
		<tag k="name" v="Utsmyr" />
		<tag k="natural" v="wetland" />
		<tag k="ssr:stedsnr" v="94103" />
	</node>
	<node id="-344837" lat="58.3769638924" lon="7.81810833501">
		<tag k="name" v="Langemyr" />
		<tag k="natural" v="wetland" />
		<tag k="ssr:stedsnr" v="277519" />
	</node>
	<node id="-344836" lat="58.2541249976" lon="7.86862222983">
		<tag k="name" v="Kvennhusmyr" />
		<tag k="natural" v="wetland" />
		<tag k="ssr:stedsnr" v="277509" />
	</node>
	<node id="-346883" lat="58.2871388911" lon="7.85190834165">
		<tag k="name" v="Bukleivmyr" />
		<tag k="natural" v="wetland" />
		<tag k="ssr:stedsnr" v="519098" />
	</node>
	<node id="-346882" lat="58.3351472225" lon="8.04263611278">
		<tag k="name" v="Rundemyr" />
		<tag k="natural" v="wetland" />
		<tag k="ssr:stedsnr" v="519096" />
	</node>
	<node id="-344833" lat="58.3665972248" lon="7.76679444307">
		<tag k="name" v="Tørrgrovmyr" />
		<tag k="natural" v="wetland" />
		<tag k="ssr:stedsnr" v="277473" />
	</node>
	<node id="-346880" lat="58.2926527759" lon="7.85856110843">
		<tag k="name" v="Myra" />
		<tag k="natural" v="wetland" />
		<tag k="ssr:stedsnr" v="519088" />
	</node>
	<node id="-346879" lat="58.2942166684" lon="7.85887777989">
		<tag k="name" v="Lillemyr" />
		<tag k="natural" v="wetland" />
		<tag k="ssr:stedsnr" v="519087" />
	</node>
	<node id="-346876" lat="58.295016665" lon="7.85080278444">
		<tag k="name" v="Holtane" />
		<tag k="place" v="locality" />
		<tag k="ssr:stedsnr" v="519061" />
	</node>
	<node id="-344871" lat="58.4325777773" lon="7.71030555861">
		<tag k="name" v="Moltekarten" />
		<tag k="natural" v="wetland" />
		<tag k="ssr:stedsnr" v="277782" />
	</node>
	<node id="-344807" lat="58.4034277738" lon="7.81361110933">
		<tag k="name" v="Bumyr stø" />
		<tag k="natural" v="wetland" />
		<tag k="ssr:stedsnr" v="277331" />
	</node>
	<node id="-346851" lat="58.3930916671" lon="7.85204721952">
		<tag k="name" v="Djupemyr" />
		<tag k="natural" v="wetland" />
		<tag k="ssr:stedsnr" v="471940" />
	</node>
	<node id="-344800" lat="58.3323194481" lon="7.89209166181">
		<tag k="name" v="Skaudreikjerr" />
		<tag k="natural" v="wetland" />
		<tag k="ssr:stedsnr" v="277271" />
	</node>
	<node id="-344796" lat="58.3272027816" lon="7.8438111158">
		<tag k="name" v="Kartan" />
		<tag k="natural" v="wetland" />
		<tag k="ssr:stedsnr" v="277253" />
	</node>
	<node id="-344791" lat="58.2301166647" lon="7.95835000462">
		<tag k="name" v="Storemyr" />
		<tag k="natural" v="wetland" />
		<tag k="ssr:stedsnr" v="277207" />
	</node>
	<node id="-344785" lat="58.3555999979" lon="7.84626110708">
		<tag k="name" v="Tunballslåtta" />
		<tag k="natural" v="wetland" />
		<tag k="ssr:stedsnr" v="277171" />
	</node>
	<node id="-344783" lat="58.3608944409" lon="7.88489166318">
		<tag k="name" v="Stemmyr" />
		<tag k="natural" v="wetland" />
		<tag k="ssr:stedsnr" v="277165" />
	</node>
	<node id="-344781" lat="58.2278611131" lon="7.74921945184">
		<tag k="name" v="Jordmyr" />
		<tag k="place" v="locality" />
		<tag k="ssr:stedsnr" v="277159" />
	</node>
	<node id="-344780" lat="58.3614444431" lon="7.85013610938">
		<tag k="name" v="Langemyr" />
		<tag k="natural" v="wetland" />
		<tag k="ssr:stedsnr" v="277157" />
	</node>
	<node id="-344779" lat="58.4262194439" lon="7.76083333033">
		<tag k="name" v="Orekjerret" />
		<tag k="natural" v="wetland" />
		<tag k="ssr:stedsnr" v="277153" />
	</node>
	<node id="-344772" lat="58.4185444471" lon="7.75030832919">
		<tag k="name" v="Storemyr" />
		<tag k="natural" v="wetland" />
		<tag k="ssr:stedsnr" v="277117" />
	</node>
	<node id="-344767" lat="58.3342638874" lon="8.01533056269">
		<tag k="name" v="Tjæregrovmyra" />
		<tag k="natural" v="wetland" />
		<tag k="ssr:stedsnr" v="277032" />
	</node>
	<node id="-344765" lat="58.2990305543" lon="8.05352778301">
		<tag k="name" v="Fredriksmyr" />
		<tag k="natural" v="wetland" />
		<tag k="ssr:stedsnr" v="276995" />
	</node>
	<node id="-344757" lat="58.3668361072" lon="7.8473694481">
		<tag k="name" v="Murtetjønnsteane" />
		<tag k="natural" v="wetland" />
		<tag k="ssr:stedsnr" v="276946" />
	</node>
	<node id="-344755" lat="58.3697888906" lon="7.86617222129">
		<tag k="name" v="Okkomkjerr" />
		<tag k="natural" v="wetland" />
		<tag k="ssr:stedsnr" v="276944" />
	</node>
	<node id="-346800" lat="58.3732472221" lon="7.87818889699">
		<tag k="name" v="Spikkekjerret" />
		<tag k="natural" v="wetland" />
		<tag k="ssr:stedsnr" v="459936" />
	</node>
	<node id="-344747" lat="58.3006194468" lon="8.03345555324">
		<tag k="name" v="Såtemyr" />
		<tag k="natural" v="wetland" />
		<tag k="ssr:stedsnr" v="276923" />
	</node>
	<node id="-346792" lat="58.3521388876" lon="7.74737222604">
		<tag k="name" v="Skaremyr" />
		<tag k="natural" v="wetland" />
		<tag k="ssr:stedsnr" v="459818" />
	</node>
	<node id="-346252" lat="58.3598138906" lon="7.73831667248">
		<tag k="name" v="Botnet" />
		<tag k="natural" v="wetland" />
		<tag k="ssr:stedsnr" v="155813" />
	</node>
	<node id="-346787" lat="58.4450722215" lon="7.77149166892">
		<tag k="name" v="Skonneslåtta" />
		<tag k="natural" v="wetland" />
		<tag k="ssr:stedsnr" v="459784" />
	</node>
	<node id="-345200" lat="58.3149861115" lon="7.78264444958">
		<tag k="name" v="Hessvollen" />
		<tag k="place" v="locality" />
		<tag k="ssr:stedsnr" v="397277" />
	</node>
	<node id="-346780" lat="58.3493166688" lon="7.65644722607">
		<tag k="name" v="Lyngkjerret" />
		<tag k="natural" v="wetland" />
		<tag k="ssr:stedsnr" v="459747" />
	</node>
	<node id="-346775" lat="58.3814583295" lon="7.75227777507">
		<tag k="name" v="Hægelandsteane" />
		<tag k="natural" v="wetland" />
		<tag k="ssr:stedsnr" v="459704" />
	</node>
	<node id="-344726" lat="58.273916667" lon="7.78365277236">
		<tag k="name" v="Hagemyr" />
		<tag k="natural" v="wetland" />
		<tag k="ssr:stedsnr" v="276319" />
	</node>
	<node id="-346771" lat="58.3134888926" lon="7.91978889678">
		<tag k="name" v="Revemyr" />
		<tag k="natural" v="wetland" />
		<tag k="ssr:stedsnr" v="459658" />
	</node>
	<node id="-344722" lat="58.2716333331" lon="7.88043054756">
		<tag k="name" v="Dognemyr" />
		<tag k="natural" v="wetland" />
		<tag k="ssr:stedsnr" v="276271" />
	</node>
	<node id="-344721" lat="58.2645722239" lon="7.88632499327">
		<tag k="name" v="Grytemyr" />
		<tag k="natural" v="wetland" />
		<tag k="ssr:stedsnr" v="276265" />
	</node>
	<node id="-346766" lat="58.3829638862" lon="7.6431861138">
		<tag k="name" v="Stedjan" />
		<tag k="natural" v="wetland" />
		<tag k="ssr:stedsnr" v="459621" />
	</node>
	<node id="-344717" lat="58.2827194416" lon="7.93446110556">
		<tag k="name" v="Fjellmyra" />
		<tag k="natural" v="wetland" />
		<tag k="ssr:stedsnr" v="276220" />
	</node>
	<node id="-346761" lat="58.3837833362" lon="7.86548888718">
		<tag k="name" v="Nordmyrane" />
		<tag k="natural" v="wetland" />
		<tag k="ssr:stedsnr" v="459564" />
	</node>
	<node id="-344712" lat="58.2808777796" lon="7.87305556008">
		<tag k="name" v="Storemyr" />
		<tag k="natural" v="wetland" />
		<tag k="ssr:stedsnr" v="276135" />
	</node>
	<node id="-345196" lat="58.2818861153" lon="7.91510833397">
		<tag k="name" v="Skulemyr" />
		<tag k="natural" v="wetland" />
		<tag k="ssr:stedsnr" v="397203" />
	</node>
	<node id="-344709" lat="58.2821611102" lon="7.72103889045">
		<tag k="name" v="Knudestean" />
		<tag k="natural" v="wetland" />
		<tag k="ssr:stedsnr" v="275934" />
	</node>
	<node id="-346755" lat="58.386180559" lon="7.80751388025">
		<tag k="name" v="Bjønnsmyr" />
		<tag k="natural" v="wetland" />
		<tag k="ssr:stedsnr" v="459469" />
	</node>
	<node id="-346744" lat="58.3956361079" lon="7.79036110518">
		<tag k="name" v="Sokkekjerr" />
		<tag k="natural" v="wetland" />
		<tag k="ssr:stedsnr" v="459407" />
	</node>
	<node id="-346743" lat="58.396388893" lon="7.78422777415">
		<tag k="name" v="Bytingsmyr" />
		<tag k="natural" v="wetland" />
		<tag k="ssr:stedsnr" v="459406" />
	</node>
	<node id="-346741" lat="58.3369166701" lon="7.72548610365">
		<tag k="name" v="Tretteslåtta" />
		<tag k="natural" v="wetland" />
		<tag k="ssr:stedsnr" v="459383" />
	</node>
	<node id="-346738" lat="58.340136107" lon="7.80458054945">
		<tag k="name" v="Storemyr" />
		<tag k="natural" v="wetland" />
		<tag k="ssr:stedsnr" v="459323" />
	</node>
	<node id="-346735" lat="58.3426888901" lon="7.84555278502">
		<tag k="name" v="Langemyr" />
		<tag k="natural" v="wetland" />
		<tag k="ssr:stedsnr" v="459296" />
	</node>
	<node id="-346733" lat="58.2289249971" lon="7.77219445174">
		<tag k="name" v="Ånensmyr" />
		<tag k="natural" v="wetland" />
		<tag k="ssr:stedsnr" v="459289" />
	</node>
	<node id="-346725" lat="58.3628805513" lon="7.845586115">
		<tag k="name" v="Storemyr" />
		<tag k="natural" v="wetland" />
		<tag k="ssr:stedsnr" v="459229" />
	</node>
	<node id="-346724" lat="58.4062916654" lon="7.6724583297">
		<tag k="name" v="Sauemyr" />
		<tag k="natural" v="wetland" />
		<tag k="ssr:stedsnr" v="459227" />
	</node>
	<node id="-344848" lat="58.3853916693" lon="7.85303610919">
		<tag k="name" v="Kvernhuskjerret" />
		<tag k="natural" v="wetland" />
		<tag k="ssr:stedsnr" v="277580" />
	</node>
	<node id="-346717" lat="58.2275277757" lon="7.74570278599">
		<tag k="name" v="Tjønnemyrane" />
		<tag k="natural" v="wetland" />
		<tag k="ssr:stedsnr" v="459188" />
	</node>
	<node id="-346711" lat="58.4251805516" lon="7.73969722268">
		<tag k="name" v="Pressummyr" />
		<tag k="natural" v="wetland" />
		<tag k="ssr:stedsnr" v="459158" />
	</node>
	<node id="-346707" lat="58.390708335" lon="7.69748055812">
		<tag k="name" v="Stutemyr" />
		<tag k="natural" v="wetland" />
		<tag k="ssr:stedsnr" v="459111" />
	</node>
	<node id="-346706" lat="58.3348888926" lon="8.02725833717">
		<tag k="name" v="Bjørkekjerrane" />
		<tag k="natural" v="wetland" />
		<tag k="ssr:stedsnr" v="459089" />
	</node>
	<node id="-346703" lat="58.3341861143" lon="8.00423610264">
		<tag k="name" v="Penestad" />
		<tag k="natural" v="wetland" />
		<tag k="ssr:stedsnr" v="459035" />
	</node>
	<node id="-346679" lat="58.2653416708" lon="7.80879166027">
		<tag k="name" v="Stemtjønn" />
		<tag k="natural" v="wetland" />
		<tag k="ssr:stedsnr" v="458562" />
	</node>
	<node id="-344841" lat="58.3706472238" lon="7.83743611883">
		<tag k="name" v="Tverrmyr" />
		<tag k="natural" v="wetland" />
		<tag k="ssr:stedsnr" v="277527" />
	</node>
	<node id="-344839" lat="58.3724388864" lon="7.82206111374">
		<tag k="name" v="Blautemyr" />
		<tag k="natural" v="wetland" />
		<tag k="ssr:stedsnr" v="277525" />
	</node>
	<node id="-344835" lat="58.3832111097" lon="7.80604167461">
		<tag k="name" v="Djupemyr" />
		<tag k="natural" v="wetland" />
		<tag k="ssr:stedsnr" v="277485" />
	</node>
	<node id="-345172" lat="58.4355444434" lon="7.74933333129">
		<tag k="name" v="Finnmyran" />
		<tag k="natural" v="wetland" />
		<tag k="ssr:stedsnr" v="350114" />
	</node>
	<node id="-346614" lat="58.3097166686" lon="7.91717777945">
		<tag k="name" v="Varemyr" />
		<tag k="natural" v="wetland" />
		<tag k="ssr:stedsnr" v="242092" />
	</node>
	<node id="-346566" lat="58.257630558" lon="7.92582222193">
		<tag k="name" v="Øvre Bumyr" />
		<tag k="natural" v="wetland" />
		<tag k="ssr:stedsnr" v="217514" />
	</node>
	<node id="-346564" lat="58.2571611088" lon="7.9431361095">
		<tag k="name" v="Tredje Låsmyr" />
		<tag k="natural" v="wetland" />
		<tag k="ssr:stedsnr" v="217501" />
	</node>
	<node id="-346562" lat="58.2497444463" lon="7.9806611073">
		<tag k="name" v="Lyngmyr" />
		<tag k="natural" v="wetland" />
		<tag k="ssr:stedsnr" v="217436" />
	</node>
	<node id="-346561" lat="58.2559388884" lon="7.99143888234">
		<tag k="name" v="Snømyr" />
		<tag k="natural" v="wetland" />
		<tag k="ssr:stedsnr" v="217432" />
	</node>
	<node id="-346555" lat="58.2327861094" lon="7.978011105">
		<tag k="name" v="Langemyr" />
		<tag k="natural" v="wetland" />
		<tag k="ssr:stedsnr" v="217245" />
	</node>
	<node id="-346553" lat="58.2290444411" lon="7.95458333944">
		<tag k="name" v="Kringlemyr" />
		<tag k="place" v="locality" />
		<tag k="ssr:stedsnr" v="217226" />
	</node>
	<node id="-346546" lat="58.297533332" lon="8.04112499385">
		<tag k="name" v="Veråsmyr" />
		<tag k="natural" v="wetland" />
		<tag k="ssr:stedsnr" v="216982" />
	</node>
	<node id="-346543" lat="58.3570527742" lon="7.63689722528">
		<tag k="name" v="Hæråsslåttan" />
		<tag k="natural" v="wetland" />
		<tag k="ssr:stedsnr" v="216953" />
	</node>
	<node id="-346539" lat="58.4428083316" lon="7.75470000223">
		<tag k="name" v="Strandbergmyra" />
		<tag k="natural" v="wetland" />
		<tag k="ssr:stedsnr" v="216937" />
	</node>
	<node id="-346538" lat="58.3591277744" lon="7.64184166605">
		<tag k="name" v="Kvennhusmyr" />
		<tag k="natural" v="wetland" />
		<tag k="ssr:stedsnr" v="216930" />
	</node>
	<node id="-346537" lat="58.4423249989" lon="7.77909166604">
		<tag k="name" v="Den hole steinen" />
		<tag k="natural" v="stone" />
		<tag k="ssr:stedsnr" v="216924" />
	</node>
	<node id="-346534" lat="58.4110305587" lon="7.68358610729">
		<tag k="name" v="Flekemyrane" />
		<tag k="natural" v="wetland" />
		<tag k="ssr:stedsnr" v="216917" />
	</node>
	<node id="-346532" lat="58.4275138916" lon="7.72202499606">
		<tag k="name" v="Godåsmyr" />
		<tag k="natural" v="wetland" />
		<tag k="ssr:stedsnr" v="216907" />
	</node>
	<node id="-346039" lat="58.4200388846" lon="7.68415833596">
		<tag k="name" v="Ruglesteinen" />
		<tag k="natural" v="stone" />
		<tag k="ssr:stedsnr" v="95933" />
	</node>
	<node id="-346529" lat="58.4425277796" lon="7.80156944143">
		<tag k="name" v="Dei lange myrane" />
		<tag k="natural" v="wetland" />
		<tag k="ssr:stedsnr" v="216894" />
	</node>
	<node id="-346526" lat="58.2790083328" lon="7.99607222239">
		<tag k="name" v="Ågrestem" />
		<tag k="natural" v="wetland" />
		<tag k="ssr:stedsnr" v="216884" />
	</node>
	<node id="-346513" lat="58.4384611108" lon="7.71401111336">
		<tag k="name" v="Revura" />
		<tag k="natural" v="scree" />
		<tag k="ssr:stedsnr" v="216740" />
	</node>
	<node id="-346512" lat="58.441200003" lon="7.7125555536">
		<tag k="name" v="Buveimyra" />
		<tag k="natural" v="wetland" />
		<tag k="ssr:stedsnr" v="216741" />
	</node>
	<node id="-346505" lat="58.2375611101" lon="7.74833055127">
		<tag k="name" v="Geitekjerrane" />
		<tag k="natural" v="wetland" />
		<tag k="ssr:stedsnr" v="216692" />
	</node>
	<node id="-348550" lat="58.3498181782" lon="7.86802359842">
		<tag k="name" v="Nordbø" />
		<tag k="place" v="locality" />
		<tag k="ssr:stedsnr" v="978524" />
	</node>
	<node id="-346501" lat="58.3145972211" lon="7.88759722965">
		<tag k="name" v="Bjelkemyrane" />
		<tag k="natural" v="wetland" />
		<tag k="ssr:stedsnr" v="216595" />
	</node>
	<node id="-346498" lat="58.3770666673" lon="7.79315277945">
		<tag k="name" v="Godmorsmyr" />
		<tag k="natural" v="wetland" />
		<tag k="ssr:stedsnr" v="216536" />
	</node>
	<node id="-345425" lat="58.2838916701" lon="8.00754166304">
		<tag k="name" v="Storemyr" />
		<tag k="natural" v="wetland" />
		<tag k="ssr:stedsnr" v="883740" />
	</node>
	<node id="-348543" lat="58.3049787858" lon="7.72922771104">
		<tag k="name" v="Knipe" />
		<tag k="place" v="locality" />
		<tag k="ssr:stedsnr" v="978503" />
	</node>
	<node id="-346492" lat="58.3205194404" lon="7.99254167386">
		<tag k="name" v="Snømyr" />
		<tag k="natural" v="wetland" />
		<tag k="ssr:stedsnr" v="216463" />
	</node>
	<node id="-346489" lat="58.3971194423" lon="7.81215833686">
		<tag k="name" v="Vaggesteinmyr" />
		<tag k="natural" v="wetland" />
		<tag k="ssr:stedsnr" v="216437" />
	</node>
	<node id="-344809" lat="58.3365555558" lon="7.76066389396">
		<tag k="name" v="Lusemyr" />
		<tag k="natural" v="wetland" />
		<tag k="ssr:stedsnr" v="277335" />
	</node>
	<node id="-346470" lat="58.2607222185" lon="7.76380833148">
		<tag k="name" v="Kringlemyr" />
		<tag k="natural" v="wetland" />
		<tag k="ssr:stedsnr" v="216261" />
	</node>
	<node id="-346466" lat="58.3262611137" lon="7.87043333752">
		<tag k="name" v="Kartemyr" />
		<tag k="natural" v="wetland" />
		<tag k="ssr:stedsnr" v="216245" />
	</node>
	<node id="-346458" lat="58.3634166673" lon="7.83068055566">
		<tag k="name" v="Bjørkeslåtta" />
		<tag k="natural" v="wetland" />
		<tag k="ssr:stedsnr" v="216191" />
	</node>
	<node id="-344803" lat="58.334016663" lon="7.81076111354">
		<tag k="name" v="Kjerran" />
		<tag k="natural" v="wetland" />
		<tag k="ssr:stedsnr" v="277294" />
	</node>
	<node id="-346446" lat="58.4192361075" lon="7.76886388508">
		<tag k="name" v="Rossemyr" />
		<tag k="natural" v="wetland" />
		<tag k="ssr:stedsnr" v="216161" />
	</node>
	<node id="-346445" lat="58.2847972228" lon="7.94611388725">
		<tag k="name" v="Einerstekjerrane" />
		<tag k="place" v="locality" />
		<tag k="ssr:stedsnr" v="216158" />
	</node>
	<node id="-346442" lat="58.2826305585" lon="7.92271944463">
		<tag k="name" v="Breimyr" />
		<tag k="natural" v="wetland" />
		<tag k="ssr:stedsnr" v="216142" />
	</node>
	<node id="-346440" lat="58.4199166645" lon="7.74617777454">
		<tag k="name" v="Dei lange myrane" />
		<tag k="natural" v="wetland" />
		<tag k="ssr:stedsnr" v="216125" />
	</node>
	<node id="-345825" lat="58.3555777738" lon="7.63351110568">
		<tag k="name" v="Strengemyr" />
		<tag k="natural" v="wetland" />
		<tag k="ssr:stedsnr" v="34968" />
	</node>
	<node id="-346435" lat="58.3542749994" lon="8.04142500738">
		<tag k="name" v="Hodnemyr" />
		<tag k="natural" v="wetland" />
		<tag k="ssr:stedsnr" v="216106" />
	</node>
	<node id="-346432" lat="58.3475249968" lon="8.0281694377">
		<tag k="name" v="Skjervedalsmyra" />
		<tag k="place" v="locality" />
		<tag k="ssr:stedsnr" v="216101" />
	</node>
	<node id="-346431" lat="58.2811000039" lon="7.85714722403">
		<tag k="name" v="Sirismyr" />
		<tag k="natural" v="wetland" />
		<tag k="ssr:stedsnr" v="216088" />
	</node>
	<node id="-346422" lat="58.2914166628" lon="7.88335278356">
		<tag k="name" v="Slettåsmyr" />
		<tag k="natural" v="wetland" />
		<tag k="ssr:stedsnr" v="216055" />
	</node>
	<node id="-348466" lat="58.2362388862" lon="7.76769444515">
		<tag k="name" v="Torvstrømyra" />
		<tag k="natural" v="wetland" />
		<tag k="ssr:stedsnr" v="945281" />
	</node>
	<node id="-346416" lat="58.3932694479" lon="7.68110000577">
		<tag k="name" v="Lomtjønnmyr" />
		<tag k="natural" v="wetland" />
		<tag k="ssr:stedsnr" v="216023" />
	</node>
	<node id="-345821" lat="58.3503000017" lon="7.89651944836">
		<tag k="name" v="Øvremyr" />
		<tag k="place" v="locality" />
		<tag k="ssr:stedsnr" v="34946" />
	</node>
	<node id="-348460" lat="58.2273833293" lon="7.95673054812">
		<tag k="name" v="Stokkmyr" />
		<tag k="natural" v="wetland" />
		<tag k="ssr:stedsnr" v="945206" />
	</node>
	<node id="-348457" lat="58.2936583318" lon="8.04846111831">
		<tag k="name" v="Ytreheimyra" />
		<tag k="natural" v="wetland" />
		<tag k="ssr:stedsnr" v="945000" />
	</node>
	<node id="-346408" lat="58.313283329" lon="7.77213055265">
		<tag k="name" v="Bakkan" />
		<tag k="place" v="locality" />
		<tag k="ssr:stedsnr" v="216651" />
	</node>
	<node id="-346404" lat="58.3859972243" lon="7.68150277678">
		<tag k="name" v="Jemyr" />
		<tag k="natural" v="wetland" />
		<tag k="ssr:stedsnr" v="216636" />
	</node>
	<node id="-348446" lat="58.4093777822" lon="7.67650277793">
		<tag k="name" v="Timremyr" />
		<tag k="natural" v="wetland" />
		<tag k="ssr:stedsnr" v="944917" />
	</node>
	<node id="-348445" lat="58.3718638885" lon="7.84052777982">
		<tag k="name" v="Tverrkjerrane" />
		<tag k="natural" v="wetland" />
		<tag k="ssr:stedsnr" v="944915" />
	</node>
	<node id="-348442" lat="58.3721444411" lon="7.86082500356">
		<tag k="name" v="Homevannsmyrane" />
		<tag k="natural" v="wetland" />
		<tag k="ssr:stedsnr" v="944908" />
	</node>
	<node id="-348440" lat="58.3845666654" lon="7.87311667431">
		<tag k="name" v="Lille Svinsokskjerr" />
		<tag k="natural" v="wetland" />
		<tag k="ssr:stedsnr" v="944889" />
	</node>
	<node id="-348437" lat="58.2981027754" lon="8.03612500454">
		<tag k="name" v="Trollmyr" />
		<tag k="natural" v="wetland" />
		<tag k="ssr:stedsnr" v="944876" />
	</node>
	<node id="-348435" lat="58.3534944456" lon="7.73662221889">
		<tag k="name" v="Bjørneskjeggmyr" />
		<tag k="natural" v="wetland" />
		<tag k="ssr:stedsnr" v="944870" />
	</node>
	<node id="-348432" lat="58.4383583351" lon="7.70793333569">
		<tag k="name" v="Den vene myra" />
		<tag k="natural" v="wetland" />
		<tag k="ssr:stedsnr" v="944768" />
	</node>
	<node id="-348428" lat="58.3772083358" lon="7.77218055394">
		<tag k="name" v="Kringlemyr" />
		<tag k="natural" v="wetland" />
		<tag k="ssr:stedsnr" v="944745" />
	</node>
	<node id="-348427" lat="58.3198472233" lon="7.7852916716">
		<tag k="name" v="Bjelkemyr" />
		<tag k="natural" v="wetland" />
		<tag k="ssr:stedsnr" v="944719" />
	</node>
	<node id="-348425" lat="58.3130138887" lon="7.74978611093">
		<tag k="name" v="Myrvollen" />
		<tag k="place" v="locality" />
		<tag k="ssr:stedsnr" v="944715" />
	</node>
	<node id="-348422" lat="58.36665278" lon="7.7000694503">
		<tag k="name" v="Grønemyr" />
		<tag k="natural" v="wetland" />
		<tag k="ssr:stedsnr" v="944712" />
	</node>
	<node id="-348419" lat="58.3856916689" lon="7.72657500187">
		<tag k="name" v="Kattemyr" />
		<tag k="natural" v="wetland" />
		<tag k="ssr:stedsnr" v="944705" />
	</node>
	<node id="-348417" lat="58.2860305576" lon="8.00866111208">
		<tag k="name" v="Lille Slettåskjerret" />
		<tag k="natural" v="wetland" />
		<tag k="ssr:stedsnr" v="944694" />
	</node>
	<node id="-346153" lat="58.2777250004" lon="7.91867499977">
		<tag k="name" v="Døblemyr" />
		<tag k="natural" v="wetland" />
		<tag k="ssr:stedsnr" v="155223" />
	</node>
	<node id="-348403" lat="58.3705000016" lon="7.82460555415">
		<tag k="name" v="Oddermyr" />
		<tag k="natural" v="wetland" />
		<tag k="ssr:stedsnr" v="944590" />
	</node>
	<node id="-346152" lat="58.3576500023" lon="7.81391111224">
		<tag k="name" v="Vanne" />
		<tag k="natural" v="wetland" />
		<tag k="ssr:stedsnr" v="155222" />
	</node>
	<node id="-345424" lat="58.3085888874" lon="7.87384722856">
		<tag k="name" v="Storeste" />
		<tag k="place" v="locality" />
		<tag k="ssr:stedsnr" v="883709" />
	</node>
	<node id="-348389" lat="58.3380638852" lon="7.68951111049">
		<tag k="name" v="Bastemoen" />
		<tag k="place" v="locality" />
		<tag k="ssr:stedsnr" v="944499" />
	</node>
	<node id="-348387" lat="58.2676111073" lon="7.83456943915">
		<tag k="name" v="Flismyr" />
		<tag k="natural" v="wetland" />
		<tag k="ssr:stedsnr" v="944494" />
	</node>
	<node id="-348386" lat="58.2688805531" lon="7.81096666774">
		<tag k="name" v="Moråskjerrane" />
		<tag k="natural" v="wetland" />
		<tag k="ssr:stedsnr" v="944487" />
	</node>
	<node id="-348385" lat="58.3901222261" lon="7.82765833775">
		<tag k="name" v="Tyresmyr" />
		<tag k="natural" v="wetland" />
		<tag k="ssr:stedsnr" v="944477" />
	</node>
	<node id="-348383" lat="58.3332750037" lon="7.68885278215">
		<tag k="name" v="Dølegota" />
		<tag k="natural" v="wetland" />
		<tag k="ssr:stedsnr" v="944463" />
	</node>
	<node id="-348380" lat="58.2762722184" lon="7.84028055832">
		<tag k="name" v="Øygemyr" />
		<tag k="natural" v="wetland" />
		<tag k="ssr:stedsnr" v="944436" />
	</node>
	<node id="-345466" lat="58.3871083337" lon="7.65846944139">
		<tag k="name" v="Brattemyr" />
		<tag k="natural" v="wetland" />
		<tag k="ssr:stedsnr" v="884174" />
	</node>
	<node id="-348375" lat="58.3971250011" lon="7.82542777444">
		<tag k="name" v="Tollakskjerrane" />
		<tag k="natural" v="wetland" />
		<tag k="ssr:stedsnr" v="944422" />
	</node>
	<node id="-346320" lat="58.2570694474" lon="7.82235000507">
		<tag k="name" v="Raunåskjerr" />
		<tag k="natural" v="wetland" />
		<tag k="ssr:stedsnr" v="156680" />
	</node>
	<node id="-348365" lat="58.3927444405" lon="7.87901667246">
		<tag k="name" v="Eikedalskjerrane" />
		<tag k="natural" v="wetland" />
		<tag k="ssr:stedsnr" v="944348" />
	</node>
	<node id="-346311" lat="58.2266638864" lon="7.78028611655">
		<tag k="name" v="Rømyr" />
		<tag k="natural" v="wetland" />
		<tag k="ssr:stedsnr" v="156275" />
	</node>
	<node id="-346310" lat="58.2250694489" lon="7.77888333366">
		<tag k="name" v="Dei hole steinane" />
		<tag k="natural" v="stone" />
		<tag k="ssr:stedsnr" v="156272" />
	</node>
	<node id="-348357" lat="58.2899416625" lon="7.82056388533">
		<tag k="name" v="Suglemyrane" />
		<tag k="natural" v="wetland" />
		<tag k="ssr:stedsnr" v="944300" />
	</node>
	<node id="-348354" lat="58.2709777762" lon="7.74452499701">
		<tag k="name" v="Ormekjerrane" />
		<tag k="natural" v="wetland" />
		<tag k="ssr:stedsnr" v="944290" />
	</node>
	<node id="-346305" lat="58.2278833352" lon="7.76315832683">
		<tag k="name" v="Kravleneset" />
		<tag k="place" v="locality" />
		<tag k="ssr:stedsnr" v="156186" />
	</node>
	<node id="-348347" lat="58.360558332" lon="8.01484999386">
		<tag k="name" v="Kringlemyr" />
		<tag k="natural" v="wetland" />
		<tag k="ssr:stedsnr" v="944189" />
	</node>
	<node id="-348344" lat="58.2819666688" lon="7.9248416635">
		<tag k="name" v="Røyrmyr" />
		<tag k="natural" v="wetland" />
		<tag k="ssr:stedsnr" v="944170" />
	</node>
	<node id="-348343" lat="58.4126249975" lon="7.69108055055">
		<tag k="name" v="Paulen" />
		<tag k="natural" v="wetland" />
		<tag k="ssr:stedsnr" v="944169" />
	</node>
	<node id="-348342" lat="58.2925444409" lon="7.90142778631">
		<tag k="name" v="Holtet" />
		<tag k="place" v="locality" />
		<tag k="ssr:stedsnr" v="944159" />
	</node>
	<node id="-346293" lat="58.4391694423" lon="7.77294721402">
		<tag k="name" v="Ospehommyra" />
		<tag k="natural" v="wetland" />
		<tag k="ssr:stedsnr" v="155939" />
	</node>
	<node id="-346292" lat="58.4184222189" lon="7.71056111621">
		<tag k="name" v="Gråtarmyra" />
		<tag k="natural" v="wetland" />
		<tag k="ssr:stedsnr" v="155901" />
	</node>
	<node id="-348333" lat="58.3421527766" lon="7.9998472229">
		<tag k="name" v="Storemyr" />
		<tag k="natural" v="wetland" />
		<tag k="ssr:stedsnr" v="944094" />
	</node>
	<node id="-348330" lat="58.3322583333" lon="8.05005555101">
		<tag k="name" v="Storemyr" />
		<tag k="natural" v="wetland" />
		<tag k="ssr:stedsnr" v="944081" />
	</node>
	<node id="-346281" lat="58.3772555586" lon="7.88118889064">
		<tag k="name" v="Sommerfjøsmyrane" />
		<tag k="natural" v="wetland" />
		<tag k="ssr:stedsnr" v="155862" />
	</node>
	<node id="-348328" lat="58.2897361131" lon="7.84783054894">
		<tag k="name" v="Lyngmyr" />
		<tag k="natural" v="wetland" />
		<tag k="ssr:stedsnr" v="944078" />
	</node>
	<node id="-346277" lat="58.4213222217" lon="7.69063610676">
		<tag k="name" v="Grokjerrane" />
		<tag k="natural" v="wetland" />
		<tag k="ssr:stedsnr" v="155915" />
	</node>
	<node id="-348324" lat="58.396311108" lon="7.77899444731">
		<tag k="name" v="Tjønneråskarten" />
		<tag k="natural" v="wetland" />
		<tag k="ssr:stedsnr" v="944066" />
	</node>
	<node id="-348322" lat="58.3957888902" lon="7.72628333573">
		<tag k="name" v="Heimermyr" />
		<tag k="natural" v="wetland" />
		<tag k="ssr:stedsnr" v="944039" />
	</node>
	<node id="-348320" lat="58.4093527815" lon="7.79751945172">
		<tag k="name" v="Vierkjerr" />
		<tag k="natural" v="wetland" />
		<tag k="ssr:stedsnr" v="944266" />
	</node>
	<node id="-348317" lat="58.4137722251" lon="7.74899166458">
		<tag k="name" v="Verteslåtta" />
		<tag k="natural" v="wetland" />
		<tag k="ssr:stedsnr" v="944246" />
	</node>
	<node id="-348314" lat="58.3572361068" lon="7.83185277285">
		<tag k="name" v="Limyr" />
		<tag k="natural" v="wetland" />
		<tag k="ssr:stedsnr" v="944235" />
	</node>
	<node id="-346263" lat="58.2875361132" lon="7.76326944883">
		<tag k="name" v="Snømyr" />
		<tag k="natural" v="wetland" />
		<tag k="ssr:stedsnr" v="155769" />
	</node>
	<node id="-348310" lat="58.2862166674" lon="7.72539444367">
		<tag k="name" v="Bukkekjerran" />
		<tag k="natural" v="wetland" />
		<tag k="ssr:stedsnr" v="943933" />
	</node>
	<node id="-348308" lat="58.300619445" lon="7.74165276972">
		<tag k="name" v="Tjovemyran" />
		<tag k="place" v="locality" />
		<tag k="ssr:stedsnr" v="943898" />
	</node>
	<node id="-346257" lat="58.3645249983" lon="7.67723333555">
		<tag k="name" v="Moltekarten" />
		<tag k="natural" v="wetland" />
		<tag k="ssr:stedsnr" v="155731" />
	</node>
	<node id="-346136" lat="58.2852888892" lon="7.90783611412">
		<tag k="name" v="Klovsteinen" />
		<tag k="natural" v="stone" />
		<tag k="ssr:stedsnr" v="155169" />
	</node>
	<node id="-348302" lat="58.3157444479" lon="7.78131944322">
		<tag k="name" v="Solåsmyr" />
		<tag k="natural" v="wetland" />
		<tag k="ssr:stedsnr" v="943264" />
	</node>
	<node id="-346253" lat="58.3614249985" lon="7.75550833203">
		<tag k="name" v="Orreleiksmyr" />
		<tag k="natural" v="wetland" />
		<tag k="ssr:stedsnr" v="155815" />
	</node>
	<node id="-348300" lat="58.3677444442" lon="7.64789723018">
		<tag k="alt_name" v="Stormyra" />
		<tag k="name" v="Storemyr" />
		<tag k="natural" v="wetland" />
		<tag k="ssr:stedsnr" v="910966" />
	</node>
	<node id="-346250" lat="58.2702722201" lon="7.72605000306">
		<tag k="name" v="Jordsmyr" />
		<tag k="natural" v="wetland" />
		<tag k="ssr:stedsnr" v="155685" />
	</node>
	<node id="-345451" lat="58.3925833323" lon="7.71575832757">
		<tag k="name" v="Dalansmyra" />
		<tag k="natural" v="wetland" />
		<tag k="ssr:stedsnr" v="884039" />
	</node>
	<node id="-346234" lat="58.3809777756" lon="7.86233333525">
		<tag k="name" v="Krikken" />
		<tag k="natural" v="wetland" />
		<tag k="ssr:stedsnr" v="155577" />
	</node>
	<node id="-346233" lat="58.3821083364" lon="7.85351388781">
		<tag k="name" v="Stemmyran" />
		<tag k="natural" v="wetland" />
		<tag k="ssr:stedsnr" v="155565" />
	</node>
	<node id="-346231" lat="58.3719861141" lon="7.81108056093">
		<tag k="name" v="Djupemyr" />
		<tag k="natural" v="wetland" />
		<tag k="ssr:stedsnr" v="155538" />
	</node>
	<node id="-346229" lat="58.3725333359" lon="7.80326111574">
		<tag k="name" v="Dyblemyr" />
		<tag k="natural" v="wetland" />
		<tag k="ssr:stedsnr" v="155532" />
	</node>
	<node id="-345824" lat="58.4314416647" lon="7.75118888472">
		<tag k="name" v="Torva" />
		<tag k="natural" v="wetland" />
		<tag k="ssr:stedsnr" v="34963" />
	</node>
	<node id="-346221" lat="58.376299996" lon="7.66007500578">
		<tag k="name" v="Djupemyr" />
		<tag k="natural" v="wetland" />
		<tag k="ssr:stedsnr" v="155634" />
	</node>
	<node id="-346204" lat="58.3990388894" lon="7.81159722765">
		<tag k="name" v="Sessmyr" />
		<tag k="natural" v="wetland" />
		<tag k="ssr:stedsnr" v="155443" />
	</node>
	<node id="-346199" lat="58.4053999983" lon="7.79327499471">
		<tag k="name" v="Det lange kjerret" />
		<tag k="natural" v="wetland" />
		<tag k="ssr:stedsnr" v="155367" />
	</node>
	<node id="-346198" lat="58.4025777806" lon="7.8141222294">
		<tag k="name" v="Bumyr" />
		<tag k="natural" v="wetland" />
		<tag k="ssr:stedsnr" v="155365" />
	</node>
	<node id="-346196" lat="58.4008611144" lon="7.80171389714">
		<tag k="name" v="Blautemyr" />
		<tag k="natural" v="wetland" />
		<tag k="ssr:stedsnr" v="155361" />
	</node>
	<node id="-346193" lat="58.3399444478" lon="7.78044166498">
		<tag k="name" v="Myran" />
		<tag k="natural" v="wetland" />
		<tag k="ssr:stedsnr" v="155348" />
	</node>
	<node id="-346190" lat="58.3267805526" lon="7.82741667112">
		<tag k="name" v="Bjelkemyr" />
		<tag k="natural" v="wetland" />
		<tag k="ssr:stedsnr" v="155322" />
	</node>
	<node id="-346182" lat="58.3887805544" lon="7.80824167276">
		<tag k="name" v="Storevannsmyr" />
		<tag k="natural" v="wetland" />
		<tag k="ssr:stedsnr" v="155424" />
	</node>
	<node id="-346176" lat="58.334741664" lon="7.88973610729">
		<tag k="name" v="Sjuermyr" />
		<tag k="natural" v="wetland" />
		<tag k="ssr:stedsnr" v="155298" />
	</node>
	<node id="-348221" lat="58.2291749985" lon="7.77745000441">
		<tag k="name" v="Blautemyr" />
		<tag k="natural" v="wetland" />
		<tag k="ssr:stedsnr" v="824333" />
	</node>
	<node id="-346170" lat="58.2771027781" lon="7.81257221597">
		<tag k="name" v="Vermyr" />
		<tag k="natural" v="wetland" />
		<tag k="ssr:stedsnr" v="155280" />
	</node>
	<node id="-346169" lat="58.2724083364" lon="7.76886944309">
		<tag k="name" v="Klovsteinsmyr" />
		<tag k="natural" v="wetland" />
		<tag k="ssr:stedsnr" v="155272" />
	</node>
	<node id="-348216" lat="58.235250004" lon="7.9681611155">
		<tag k="name" v="Bjørkemyrane" />
		<tag k="natural" v="wetland" />
		<tag k="ssr:stedsnr" v="824233" />
	</node>
	<node id="-346167" lat="58.2974611145" lon="7.80194166551">
		<tag k="name" v="Fossmyr" />
		<tag k="natural" v="wetland" />
		<tag k="ssr:stedsnr" v="155263" />
	</node>
	<node id="-348211" lat="58.3791055597" lon="7.89738333879">
		<tag k="name" v="Karten" />
		<tag k="natural" v="wetland" />
		<tag k="ssr:stedsnr" v="823955" />
	</node>
	<node id="-348209" lat="58.3808305596" lon="7.90009444978">
		<tag k="name" v="Geitekjerr" />
		<tag k="natural" v="wetland" />
		<tag k="ssr:stedsnr" v="823948" />
	</node>
	<node id="-348208" lat="58.3146472193" lon="8.04140277868">
		<tag k="name" v="Kringlemyr" />
		<tag k="natural" v="wetland" />
		<tag k="ssr:stedsnr" v="823944" />
	</node>
	<node id="-348205" lat="58.3771527798" lon="7.87361944219">
		<tag k="name" v="Surtekjerret" />
		<tag k="natural" v="wetland" />
		<tag k="ssr:stedsnr" v="823905" />
	</node>
	<node id="-348204" lat="58.3780638885" lon="7.87697221738">
		<tag k="name" v="Polmannskjerret" />
		<tag k="natural" v="wetland" />
		<tag k="ssr:stedsnr" v="823903" />
	</node>
	<node id="-346154" lat="58.2744694463" lon="7.92471667487">
		<tag k="name" v="Store Såtemyr" />
		<tag k="natural" v="wetland" />
		<tag k="ssr:stedsnr" v="155226" />
	</node>
	<node id="-348201" lat="58.263286111" lon="7.93062222697">
		<tag k="name" v="Hellingsbrokkstø" />
		<tag k="natural" v="wetland" />
		<tag k="ssr:stedsnr" v="823898" />
	</node>
	<node id="-348200" lat="58.4178805513" lon="7.69301389392">
		<tag k="name" v="Fiskvannsmyr" />
		<tag k="natural" v="wetland" />
		<tag k="ssr:stedsnr" v="823896" />
	</node>
	<node id="-348199" lat="58.3731888845" lon="7.86776388919">
		<tag k="name" v="Moltemyr" />
		<tag k="natural" v="wetland" />
		<tag k="ssr:stedsnr" v="823892" />
	</node>
	<node id="-345435" lat="58.2704499964" lon="7.98110278423">
		<tag k="name" v="Bjørnåskjerrane" />
		<tag k="natural" v="wetland" />
		<tag k="ssr:stedsnr" v="883928" />
	</node>
	<node id="-347117" lat="58.2738694456" lon="7.77954443986">
		<tag k="name" v="Løhusmyr" />
		<tag k="natural" v="wetland" />
		<tag k="ssr:stedsnr" v="579299" />
	</node>
	<node id="-346143" lat="58.2817138886" lon="7.95815000753">
		<tag k="name" v="Lundevoll" />
		<tag k="place" v="locality" />
		<tag k="ssr:stedsnr" v="155187" />
	</node>
	<node id="-348190" lat="58.3014750041" lon="8.03779721803">
		<tag k="name" v="Storemyr" />
		<tag k="natural" v="wetland" />
		<tag k="ssr:stedsnr" v="823851" />
	</node>
	<node id="-346141" lat="58.4178861133" lon="7.77328332606">
		<tag k="name" v="Blautekjerret" />
		<tag k="natural" v="wetland" />
		<tag k="ssr:stedsnr" v="155182" />
	</node>
	<node id="-346140" lat="58.3656972265" lon="8.01951110326">
		<tag k="name" v="Svintoksmyra" />
		<tag k="natural" v="wetland" />
		<tag k="ssr:stedsnr" v="155181" />
	</node>
	<node id="-348184" lat="58.4444638893" lon="7.77761666368">
		<tag k="name" v="Finnestean" />
		<tag k="natural" v="wetland" />
		<tag k="ssr:stedsnr" v="823754" />
	</node>
	<node id="-348181" lat="58.3828583345" lon="7.78013333837">
		<tag k="name" v="Bumyr" />
		<tag k="natural" v="wetland" />
		<tag k="ssr:stedsnr" v="823701" />
	</node>
	<node id="-346132" lat="58.4105166661" lon="7.7429444493">
		<tag k="name" v="Venemyr" />
		<tag k="natural" v="wetland" />
		<tag k="ssr:stedsnr" v="155154" />
	</node>
	<node id="-348178" lat="58.3798833371" lon="7.74630556174">
		<tag k="name" v="Bøykarholtane" />
		<tag k="place" v="locality" />
		<tag k="ssr:stedsnr" v="823696" />
	</node>
	<node id="-348167" lat="58.3716305523" lon="7.67105832927">
		<tag k="name" v="Den lange bytesteinen" />
		<tag k="natural" v="stone" />
		<tag k="ssr:stedsnr" v="823619" />
	</node>
	<node id="-346114" lat="58.2937138904" lon="7.85244167199">
		<tag k="name" v="Vamyrene" />
		<tag k="natural" v="wetland" />
		<tag k="ssr:stedsnr" v="155050" />
	</node>
</osm>
