<?xml version="1.0" encoding="UTF-8"?>
<osm generator="osmapis" version="0.6">
	<node id="-347966" lat="58.3573916699" lon="7.70935555972">
		<tag k="name" v="Kvennhusa" />
		<tag k="place" v="locality" />
		<tag k="ssr:stedsnr" v="762787" />
	</node>
	<node id="-348277" lat="58.2785638909" lon="7.9526138925">
		<tag k="name" v="Bommen" />
		<tag k="ssr:stedsnr" v="850012" />
		<tag k="tourism" v="museum" />
	</node>
	<node id="-346044" lat="58.2533583345" lon="7.90201666236">
		<tag k="name" v="Stølevarden" />
		<tag k="ssr:stedsnr" v="101074" />
		<tag k="tourism" v="viewpoint" />
	</node>
	<node id="-345015" lat="58.2786388878" lon="7.82718888665">
		<tag k="name" v="Hommeheia øst" />
		<tag k="ssr:stedsnr" v="337282" />
		<tag k="tourism" v="viewpoint" />
	</node>
	<node id="-347126" lat="58.2661444422" lon="7.81746943948">
		<tag k="name" v="Varen" />
		<tag k="ssr:stedsnr" v="579536" />
		<tag k="tourism" v="viewpoint" />
	</node>
	<node id="-348405" lat="58.3743972221" lon="7.7850638823">
		<tag k="name" v="Med saga" />
		<tag k="place" v="locality" />
		<tag k="ssr:stedsnr" v="944601" />
	</node>
	<node id="-346612" lat="58.2933361084" lon="7.78949443612">
		<tag k="amenity" v="place_of_worship" />
		<tag k="denomination" v="lutheran" />
		<tag k="name" v="Øvrebø" />
		<tag k="religion" v="christian" />
		<tag k="ssr:stedsnr" v="242016" />
	</node>
	<node id="-345693" lat="58.2773472225" lon="7.81694722468">
		<tag k="name" v="Hommeheia" />
		<tag k="ssr:stedsnr" v="33322" />
		<tag k="tourism" v="viewpoint" />
	</node>
	<node id="-346316" lat="58.247550001" lon="7.85744444599">
		<tag k="name" v="Sjøknuten" />
		<tag k="ssr:stedsnr" v="156507" />
		<tag k="tourism" v="viewpoint" />
	</node>
	<node id="-346213" lat="58.2746388931" lon="8.02118889339">
		<tag k="name" v="Taksteinløa" />
		<tag k="place" v="locality" />
		<tag k="ssr:stedsnr" v="155489" />
	</node>
	<node id="-347556" lat="58.2761722183" lon="7.96878056018">
		<tag k="amenity" v="place_of_worship" />
		<tag k="denomination" v="lutheran" />
		<tag k="name" v="Vennesla" />
		<tag k="religion" v="christian" />
		<tag k="ssr:stedsnr" v="667015" />
	</node>
	<node id="-344961" lat="58.3860527734" lon="7.73999166988">
		<tag k="amenity" v="place_of_worship" />
		<tag k="denomination" v="lutheran" />
		<tag k="name" v="Hægeland" />
		<tag k="religion" v="christian" />
		<tag k="ssr:stedsnr" v="303186" />
	</node>
</osm>
