<?xml version="1.0" encoding="UTF-8"?>
<<<<<<< HEAD
<osm version="0.6" generator="osmapis">
	<node lat="62.31019722207201" lon="7.318452775926563" id="-7051">
		<tag k="name" v="Rugga" />
		<tag k="natural" v="stone" />
		<tag k="ssr:stedsnr" v="21892" />
	</node>
	<node lat="62.24583888563937" lon="7.205216673611944" id="-7068">
		<tag k="name" v="Grønmyra" />
		<tag k="natural" v="wetland" />
		<tag k="ssr:stedsnr" v="35524" />
	</node>
	<node lat="62.34882499733803" lon="7.400791666470995" id="-7081">
		<tag k="name" v="Øvste Bjørnasteinen" />
		<tag k="natural" v="stone" />
		<tag k="ssr:stedsnr" v="45628" />
	</node>
	<node lat="62.26918888700983" lon="7.10345555453701" id="-7083">
		<tag k="name" v="Brisesteinen" />
		<tag k="natural" v="stone" />
		<tag k="ssr:stedsnr" v="46123" />
	</node>
	<node lat="62.4098194420435" lon="6.996619444882522" id="-7116">
		<tag k="historic" v="shieling" />
		<tag k="name" v="Findastølen" />
		<tag k="place" v="locality" />
		<tag k="ssr:stedsnr" v="95514" />
	</node>
	<node lat="62.36789721944131" lon="7.562447226472962" id="-7126">
		<tag k="name" v="Urakamben" />
		<tag k="natural" v="scree" />
		<tag k="ssr:stedsnr" v="105879" />
	</node>
	<node lat="62.35786667014357" lon="7.545941673934166" id="-7127">
		<tag k="name" v="Storura" />
		<tag k="natural" v="scree" />
		<tag k="ssr:stedsnr" v="105881" />
	</node>
	<node lat="62.34034721952139" lon="7.377522216784847" id="-7132">
		<tag k="name" v="Lysteinen" />
		<tag k="natural" v="stone" />
		<tag k="ssr:stedsnr" v="106282" />
	</node>
	<node lat="62.25587500106688" lon="7.495672223410436" id="-7146">
		<tag k="name" v="Sandane" />
		<tag k="natural" v="wetland" />
		<tag k="ssr:stedsnr" v="106802" />
	</node>
	<node lat="62.21471388930669" lon="7.238449990493351" id="-7149">
		<tag k="name" v="Kallsetsteinen" />
		<tag k="natural" v="stone" />
		<tag k="ssr:stedsnr" v="107121" />
	</node>
	<node lat="62.32681110747471" lon="7.398061113940248" id="-7151">
		<tag k="name" v="Håmannmyra" />
		<tag k="natural" v="wetland" />
		<tag k="ssr:stedsnr" v="107704" />
	</node>
	<node lat="62.266319440085915" lon="7.238330555651809" id="-7152">
		<tag k="name" v="Svoraura" />
		<tag k="natural" v="scree" />
		<tag k="ssr:stedsnr" v="107748" />
	</node>
	<node lat="62.37754166454719" lon="6.996727771047757" id="-7207">
		<tag k="name" v="Gråura" />
		<tag k="natural" v="scree" />
		<tag k="ssr:stedsnr" v="155558" />
	</node>
	<node lat="62.39068610938355" lon="7.133272221827699" id="-7209">
		<tag k="historic" v="shieling" />
		<tag k="name" v="Dyrsto" />
		<tag k="place" v="locality" />
		<tag k="ssr:stedsnr" v="156124" />
	</node>
	<node lat="62.21781111538896" lon="7.414194446497172" id="-7229">
		<tag k="name" v="Høystakkmyra" />
		<tag k="natural" v="wetland" />
		<tag k="ssr:stedsnr" v="167105" />
	</node>
	<node lat="62.29512777863635" lon="7.361155551896362" id="-7233">
		<tag k="name" v="Geitsteinen" />
		<tag k="natural" v="stone" />
		<tag k="ssr:stedsnr" v="167510" />
	</node>
	<node lat="62.33470555234587" lon="7.574341659915635" id="-7237">
		<tag k="name" v="Foldesteinane" />
		<tag k="natural" v="stone" />
		<tag k="ssr:stedsnr" v="167810" />
	</node>
	<node lat="62.37369166994038" lon="7.561844443391777" id="-7239">
		<tag k="historic" v="shieling" />
		<tag k="name" v="Litlestølen" />
		<tag k="place" v="locality" />
		<tag k="ssr:stedsnr" v="167866" />
	</node>
	<node lat="62.246205557269526" lon="7.178097216768075" id="-7255">
		<tag k="name" v="Johansfonna" />
		<tag k="place" v="locality" />
		<tag k="ssr:stedsnr" v="217395" />
	</node>
	<node lat="62.37314999877353" lon="7.255916667028615" id="-7258">
		<tag k="landuse" v="meadow" />
		<tag k="name" v="Botnaløslættet" />
		<tag k="ssr:stedsnr" v="217807" />
	</node>
	<node lat="62.191944444474" lon="7.343288896970133" id="-7265">
		<tag k="name" v="Stormyra" />
		<tag k="natural" v="wetland" />
		<tag k="ssr:stedsnr" v="227531" />
	</node>
	<node lat="62.334555553143595" lon="7.391575003287989" id="-7267">
		<tag k="name" v="Lømyra" />
		<tag k="natural" v="wetland" />
		<tag k="ssr:stedsnr" v="227288" />
	</node>
	<node lat="62.22694444449915" lon="7.396419443066234" id="-7275">
		<tag k="name" v="Nygjerdsfonna" />
		<tag k="place" v="locality" />
		<tag k="ssr:stedsnr" v="228434" />
	</node>
	<node lat="62.32291110943683" lon="7.4124861194955995" id="-7277">
		<tag k="name" v="Gråura" />
		<tag k="natural" v="scree" />
		<tag k="ssr:stedsnr" v="228641" />
	</node>
	<node lat="62.378861113566224" lon="6.995108340221435" id="-7301">
		<tag k="name" v="Moseøyane" />
		<tag k="place" v="locality" />
		<tag k="ssr:stedsnr" v="458650" />
	</node>
	<node lat="62.24168333162413" lon="7.4169944417714575" id="-7309">
		<tag k="name" v="Litleura" />
		<tag k="natural" v="scree" />
		<tag k="ssr:stedsnr" v="274417" />
	</node>
	<node lat="62.215144445361716" lon="7.040572219837913" id="-7310">
		<tag k="name" v="Isflåna" />
		<tag k="place" v="locality" />
		<tag k="ssr:stedsnr" v="275391" />
	</node>
	<node lat="62.24317221790056" lon="7.131452774156475" id="-7334">
		<tag k="name" v="Haugfonna" />
=======
<osm generator="osmapis" version="0.6">
	<node id="-102400" lat="62.3387944455" lon="7.10580278146">
		<tag k="name" v="Vitne" />
		<tag k="place" v="locality" />
		<tag k="ssr:stedsnr" v="156592" />
	</node>
	<node id="-101370" lat="62.1820444411" lon="7.50271110328">
		<tag k="name" v="Storskogane" />
		<tag k="natural" v="scree" />
		<tag k="ssr:stedsnr" v="470972" />
	</node>
	<node id="-101458" lat="62.2768444404" lon="7.47007221352">
		<tag k="name" v="Nakkebreen" />
		<tag k="natural" v="glacier" />
		<tag k="ssr:stedsnr" v="497827" />
	</node>
	<node id="-101366" lat="62.2557916703" lon="7.44759166294">
		<tag k="name" v="Flotene" />
		<tag k="natural" v="wetland" />
		<tag k="ssr:stedsnr" v="470793" />
	</node>
	<node id="-102901" lat="62.264691663" lon="7.34802500519">
		<tag k="name" v="Blåsva" />
		<tag k="place" v="locality" />
		<tag k="ssr:stedsnr" v="592313" />
	</node>
	<node id="-102900" lat="62.1957277758" lon="7.49554722686">
		<tag k="name" v="Dektene" />
		<tag k="natural" v="wetland" />
		<tag k="ssr:stedsnr" v="591946" />
	</node>
	<node id="-102895" lat="62.2827111141" lon="7.27325000516">
		<tag k="name" v="Vindsnesurene" />
		<tag k="natural" v="scree" />
		<tag k="ssr:stedsnr" v="591710" />
	</node>
	<node id="-102379" lat="62.3775416645" lon="6.99672777105">
		<tag k="name" v="Gråura" />
		<tag k="natural" v="scree" />
		<tag k="ssr:stedsnr" v="155558" />
	</node>
	<node id="-101866" lat="62.2498722194" lon="7.22560278493">
		<tag k="name" v="Storura" />
		<tag k="natural" v="scree" />
		<tag k="ssr:stedsnr" v="773919" />
	</node>
	<node id="-102888" lat="62.1995861146" lon="7.53405000491">
		<tag k="name" v="Oshammaren" />
		<tag k="natural" v="scree" />
		<tag k="ssr:stedsnr" v="591618" />
	</node>
	<node id="-101351" lat="62.345888889" lon="7.41949999675">
		<tag k="name" v="Furnesmyrane" />
		<tag k="natural" v="wetland" />
		<tag k="ssr:stedsnr" v="470634" />
	</node>
	<node id="-102885" lat="62.1919916677" lon="7.34136666427">
		<tag k="name" v="Reitane" />
		<tag k="place" v="locality" />
		<tag k="ssr:stedsnr" v="591512" />
	</node>
	<node id="-101858" lat="62.1940777802" lon="7.16087777719">
		<tag k="name" v="Teigane" />
		<tag k="place" v="locality" />
		<tag k="ssr:stedsnr" v="763469" />
	</node>
	<node id="-101627" lat="62.1626861132" lon="7.17677221302">
		<tag k="name" v="Hellemyrane" />
		<tag k="natural" v="wetland" />
		<tag k="ssr:stedsnr" v="703418" />
	</node>
	<node id="-101968" lat="62.3236194421" lon="7.33386944438">
		<tag k="name" v="Seljefonnura" />
		<tag k="natural" v="scree" />
		<tag k="ssr:stedsnr" v="834367" />
	</node>
	<node id="-101340" lat="62.1478472188" lon="7.42363889549">
		<tag k="name" v="Inste Øyra" />
		<tag k="place" v="locality" />
		<tag k="ssr:stedsnr" v="470184" />
	</node>
	<node id="-102223" lat="62.322605554" lon="7.4147916632">
		<tag k="name" v="Løypet" />
		<tag k="natural" v="scree" />
		<tag k="ssr:stedsnr" v="46630" />
	</node>
	<node id="-102360" lat="62.2945027779" lon="7.68582777398">
		<tag k="name" v="Storfjellbreen" />
		<tag k="natural" v="glacier" />
		<tag k="ssr:stedsnr" v="132854" />
	</node>
	<node id="-102137" lat="62.3101972221" lon="7.31845277593">
		<tag k="name" v="Rugga" />
		<tag k="natural" v="stone" />
		<tag k="ssr:stedsnr" v="21892" />
	</node>
	<node id="-101330" lat="62.3612527768" lon="7.35008611046">
		<tag k="name" v="Gamlereiten" />
		<tag k="place" v="locality" />
		<tag k="ssr:stedsnr" v="470137" />
	</node>
	<node id="-101795" lat="62.2281111074" lon="7.05163055393">
		<tag k="name" v="Krkesteinen" />
		<tag k="natural" v="stone" />
		<tag k="ssr:stedsnr" v="895080" />
	</node>
	<node id="-101327" lat="62.3385777821" lon="7.36354999053">
		<tag k="name" v="Merrasva" />
		<tag k="place" v="locality" />
		<tag k="ssr:stedsnr" v="469341" />
	</node>
	<node id="-101836" lat="62.1872944442" lon="7.4363805501">
		<tag k="name" v="Kattuglsteinane" />
		<tag k="natural" v="stone" />
		<tag k="ssr:stedsnr" v="895959" />
	</node>
	<node id="-102859" lat="62.4221666626" lon="7.30363054946">
		<tag k="name" v="Kambemyrane" />
		<tag k="natural" v="wetland" />
		<tag k="ssr:stedsnr" v="581704" />
	</node>
	<node id="-101196" lat="62.2404472223" lon="7.40619166066">
		<tag k="name" v="Storsteinane" />
		<tag k="natural" v="stone" />
		<tag k="ssr:stedsnr" v="288733" />
	</node>
	<node id="-101830" lat="62.2127611115" lon="7.46308055561">
		<tag k="name" v="Buskreda" />
		<tag k="natural" v="scree" />
		<tag k="ssr:stedsnr" v="895935" />
	</node>
	<node id="-101315" lat="62.3497944404" lon="7.42257777848">
		<tag k="name" v="Storsteinen" />
		<tag k="natural" v="stone" />
		<tag k="ssr:stedsnr" v="288604" />
	</node>
	<node id="-101826" lat="62.2359305524" lon="7.25097221414">
		<tag k="name" v="Kvitsteinen" />
		<tag k="natural" v="stone" />
		<tag k="ssr:stedsnr" v="895832" />
	</node>
	<node id="-101311" lat="62.1679194472" lon="7.5196861143">
		<tag k="name" v="Storsteinane" />
		<tag k="natural" v="scree" />
		<tag k="ssr:stedsnr" v="288213" />
	</node>
	<node id="-102389" lat="62.3906861094" lon="7.13327222183">
		<tag k="historic" v="shieling" />
		<tag k="name" v="Dyrsto" />
		<tag k="place" v="locality" />
		<tag k="ssr:stedsnr" v="156124" />
	</node>
	<node id="-101819" lat="62.2385444425" lon="7.42135276924">
		<tag k="name" v="Bjørnaura" />
		<tag k="natural" v="scree" />
		<tag k="ssr:stedsnr" v="895759" />
	</node>
	<node id="-102328" lat="62.2663194401" lon="7.23833055565">
		<tag k="name" v="Svoraura" />
		<tag k="natural" v="scree" />
		<tag k="ssr:stedsnr" v="107748" />
	</node>
	<node id="-102327" lat="62.3268111075" lon="7.39806111394">
		<tag k="name" v="Håmannmyra" />
		<tag k="natural" v="wetland" />
		<tag k="ssr:stedsnr" v="107704" />
	</node>
	<node id="-101811" lat="62.3211638852" lon="7.48848610303">
		<tag k="name" v="Sandsteinen" />
		<tag k="natural" v="stone" />
		<tag k="ssr:stedsnr" v="895651" />
	</node>
	<node id="-102322" lat="62.1812277747" lon="7.42867777287">
		<tag k="name" v="Magnhildsætermyra" />
		<tag k="natural" v="wetland" />
		<tag k="ssr:stedsnr" v="106960" />
	</node>
	<node id="-101809" lat="62.3451388917" lon="7.43693611862">
		<tag k="name" v="Grønbakkskogen" />
		<tag k="place" v="locality" />
		<tag k="ssr:stedsnr" v="895594" />
	</node>
	<node id="-101808" lat="62.2531277806" lon="7.37759999064">
		<tag k="name" v="Storvakfonna" />
		<tag k="place" v="locality" />
		<tag k="ssr:stedsnr" v="895506" />
	</node>
	<node id="-102313" lat="62.2558750011" lon="7.49567222341">
		<tag k="name" v="Sandane" />
		<tag k="natural" v="wetland" />
		<tag k="ssr:stedsnr" v="106802" />
	</node>
	<node id="-102307" lat="62.2049027745" lon="7.53451388573">
		<tag k="name" v="Bustura" />
		<tag k="natural" v="scree" />
		<tag k="ssr:stedsnr" v="106747" />
	</node>
	<node id="-103067" lat="62.2241666626" lon="7.164713894">
		<tag k="historic" v="shieling" />
		<tag k="name" v="Kleivasætra" />
>>>>>>> e1d4bc35ff8a6074a6f2e91616a996b547c36f15
		<tag k="place" v="locality" />
		<tag k="ssr:stedsnr" v="460464" />
	</node>
<<<<<<< HEAD
	<node lat="62.167919447232784" lon="7.519686114298188" id="-7336">
		<tag k="name" v="Storsteinane" />
		<tag k="natural" v="scree" />
		<tag k="ssr:stedsnr" v="288213" />
	</node>
	<node lat="62.34979444035076" lon="7.422577778483975" id="-7342">
		<tag k="name" v="Storsteinen" />
		<tag k="natural" v="stone" />
		<tag k="ssr:stedsnr" v="288604" />
	</node>
	<node lat="62.240447222340244" lon="7.40619166066107" id="-7343">
		<tag k="name" v="Storsteinane" />
		<tag k="natural" v="stone" />
		<tag k="ssr:stedsnr" v="288733" />
	</node>
	<node lat="62.33981666792483" lon="7.539594445001443" id="-7345">
		<tag k="name" v="Sætermyrane" />
		<tag k="natural" v="wetland" />
		<tag k="ssr:stedsnr" v="288799" />
	</node>
	<node lat="62.33857778206275" lon="7.363549990531101" id="-7372">
		<tag k="name" v="Merrasva" />
		<tag k="place" v="locality" />
		<tag k="ssr:stedsnr" v="469341" />
	</node>
	<node lat="62.36125277678742" lon="7.350086110459858" id="-7379">
		<tag k="name" v="Gamlereiten" />
		<tag k="place" v="locality" />
		<tag k="ssr:stedsnr" v="470137" />
	</node>
	<node lat="62.1478472188287" lon="7.423638895486537" id="-7387">
		<tag k="name" v="Inste Øyra" />
		<tag k="place" v="locality" />
		<tag k="ssr:stedsnr" v="470184" />
	</node>
	<node lat="62.3458888889505" lon="7.419499996753369" id="-7394">
		<tag k="name" v="Furnesmyrane" />
		<tag k="natural" v="wetland" />
		<tag k="ssr:stedsnr" v="470634" />
	</node>
	<node lat="62.25579167030119" lon="7.4475916629426075" id="-7400">
		<tag k="name" v="Flotene" />
		<tag k="natural" v="wetland" />
		<tag k="ssr:stedsnr" v="470793" />
	</node>
	<node lat="62.378369441505185" lon="7.0570138821454504" id="-7412">
		<tag k="name" v="Sandane" />
		<tag k="place" v="locality" />
		<tag k="ssr:stedsnr" v="338042" />
	</node>
	<node lat="62.38738611459369" lon="7.197049992548332" id="-7420">
		<tag k="name" v="Hjellmyrane" />
		<tag k="natural" v="wetland" />
		<tag k="ssr:stedsnr" v="338851" />
	</node>
	<node lat="62.32027778044884" lon="7.333369453483747" id="-7427">
		<tag k="name" v="Kvigesva" />
		<tag k="place" v="locality" />
		<tag k="ssr:stedsnr" v="348308" />
	</node>
	<node lat="62.33258333191163" lon="7.351463881440002" id="-7428">
		<tag k="name" v="Tverrgardsøyna" />
		<tag k="place" v="locality" />
		<tag k="ssr:stedsnr" v="348322" />
	</node>
	<node lat="62.16624722617045" lon="7.518794449214182" id="-7431">
		<tag k="name" v="Gaddemyrane" />
		<tag k="natural" v="wetland" />
		<tag k="ssr:stedsnr" v="348221" />
	</node>
	<node lat="62.17329722521105" lon="7.514291673509395" id="-7432">
		<tag k="name" v="Sandfarmyrane" />
		<tag k="natural" v="wetland" />
		<tag k="ssr:stedsnr" v="348227" />
	</node>
	<node lat="62.17972500185851" lon="7.166958333254919" id="-7485">
		<tag k="name" v="Leitet" />
		<tag k="place" v="locality" />
		<tag k="ssr:stedsnr" v="399484" />
	</node>
	<node lat="62.313905559395664" lon="7.32497222307895" id="-7496">
		<tag k="name" v="Geitasteinen" />
=======
	<node id="-102640" lat="62.1797250019" lon="7.16695833325">
		<tag k="name" v="Leitet" />
		<tag k="place" v="locality" />
		<tag k="ssr:stedsnr" v="399484" />
	</node>
	<node id="-102299" lat="62.1981194468" lon="7.33533333108">
		<tag k="name" v="Gråsteinberget" />
		<tag k="natural" v="scree" />
		<tag k="ssr:stedsnr" v="106565" />
	</node>
	<node id="-101272" lat="62.2416833316" lon="7.41699444177">
		<tag k="name" v="Litleura" />
		<tag k="natural" v="scree" />
		<tag k="ssr:stedsnr" v="274417" />
	</node>
	<node id="-102295" lat="62.292358331" lon="7.34460000671">
		<tag k="name" v="Stigflåfonna" />
		<tag k="place" v="locality" />
		<tag k="ssr:stedsnr" v="106466" />
	</node>
	<node id="-101269" lat="62.3788611136" lon="6.99510834022">
		<tag k="name" v="Moseøyane" />
		<tag k="place" v="locality" />
		<tag k="ssr:stedsnr" v="458650" />
	</node>
	<node id="-102290" lat="62.3403472195" lon="7.37752221678">
		<tag k="name" v="Lysteinen" />
		<tag k="natural" v="stone" />
		<tag k="ssr:stedsnr" v="106282" />
	</node>
	<node id="-101775" lat="62.3739055535" lon="7.12839999573">
		<tag k="name" v="Myrane" />
		<tag k="natural" v="wetland" />
		<tag k="ssr:stedsnr" v="702124" />
	</node>
	<node id="-102283" lat="62.3578666701" lon="7.54594167393">
		<tag k="name" v="Storura" />
		<tag k="natural" v="scree" />
		<tag k="ssr:stedsnr" v="105881" />
	</node>
	<node id="-102282" lat="62.3678972194" lon="7.56244722647">
		<tag k="name" v="Urakamben" />
		<tag k="natural" v="scree" />
		<tag k="ssr:stedsnr" v="105879" />
	</node>
	<node id="-101769" lat="62.2618583324" lon="7.18459721645">
		<tag k="name" v="Skredene" />
		<tag k="place" v="locality" />
		<tag k="ssr:stedsnr" v="885465" />
	</node>
	<node id="-101768" lat="62.4137083308" lon="7.21968889115">
		<tag k="name" v="Gardskroken" />
		<tag k="natural" v="wetland" />
		<tag k="ssr:stedsnr" v="885632" />
	</node>
	<node id="-101766" lat="62.4232055551" lon="7.24281666414">
		<tag k="name" v="Fokhaugmyrane" />
		<tag k="natural" v="wetland" />
		<tag k="ssr:stedsnr" v="885628" />
	</node>
	<node id="-102789" lat="62.1814138933" lon="7.50810555997">
		<tag k="name" v="Fannamyra" />
		<tag k="natural" v="wetland" />
		<tag k="ssr:stedsnr" v="531976" />
	</node>
	<node id="-102038" lat="62.395669443" lon="7.2150722202">
		<tag k="name" v="Seljebotsmyrane" />
		<tag k="natural" v="wetland" />
		<tag k="ssr:stedsnr" v="945664" />
	</node>
	<node id="-102785" lat="62.2259138848" lon="7.28838610677">
		<tag k="name" v="Øyane" />
		<tag k="natural" v="wetland" />
		<tag k="ssr:stedsnr" v="531401" />
	</node>
	<node id="-101758" lat="62.4035194468" lon="7.00322777406">
		<tag k="name" v="Botnamyra" />
		<tag k="natural" v="wetland" />
		<tag k="ssr:stedsnr" v="884541" />
	</node>
	<node id="-101753" lat="62.4145083328" lon="6.87494166208">
		<tag k="name" v="Heimyrane" />
		<tag k="natural" v="wetland" />
		<tag k="ssr:stedsnr" v="883899" />
	</node>
	<node id="-101239" lat="62.3307111087" lon="7.48978055847">
		<tag k="name" v="Skjervsura" />
		<tag k="natural" v="scree" />
		<tag k="ssr:stedsnr" v="227656" />
	</node>
	<node id="-101237" lat="62.3231333343" lon="7.28737500179">
		<tag k="name" v="Uristeinane" />
		<tag k="natural" v="stone" />
		<tag k="ssr:stedsnr" v="227360" />
	</node>
	<node id="-103284" lat="62.4205191836" lon="7.2272657398">
		<tag k="name" v="Kvitlegjerdet" />
		<tag k="place" v="locality" />
		<tag k="ssr:stedsnr" v="988875" />
	</node>
	<node id="-101235" lat="62.3731499988" lon="7.25591666703">
		<tag k="landuse" v="meadow" />
		<tag k="name" v="Botnaløslættet" />
		<tag k="ssr:stedsnr" v="217807" />
	</node>
	<node id="-102765" lat="62.3215527743" lon="7.32969722933">
		<tag k="name" v="Steinhakka" />
		<tag k="natural" v="scree" />
		<tag k="ssr:stedsnr" v="530337" />
	</node>
	<node id="-102252" lat="62.4221111076" lon="6.94608332918">
		<tag k="name" v="Torva" />
		<tag k="place" v="locality" />
		<tag k="ssr:stedsnr" v="95337" />
	</node>
	<node id="-102887" lat="62.3416444469" lon="7.45507500492">
		<tag k="name" v="Gråsteinen" />
		<tag k="natural" v="stone" />
		<tag k="ssr:stedsnr" v="591612" />
	</node>
	<node id="-101521" lat="62.2475305549" lon="7.57634721839">
		<tag k="name" v="Storbreen" />
		<tag k="natural" v="glacier" />
		<tag k="ssr:stedsnr" v="678494" />
	</node>
	<node id="-103263" lat="62.1836694439" lon="7.4998583352">
		<tag k="name" v="Storura" />
		<tag k="natural" v="scree" />
		<tag k="ssr:stedsnr" v="956982" />
	</node>
	<node id="-102750" lat="62.3924361079" lon="6.95475277531">
		<tag k="name" v="Spjøtura" />
		<tag k="natural" v="scree" />
		<tag k="ssr:stedsnr" v="520712" />
	</node>
	<node id="-103261" lat="62.348416665" lon="7.55199722481">
		<tag k="name" v="Fremstebøen" />
		<tag k="place" v="locality" />
		<tag k="ssr:stedsnr" v="956797" />
	</node>
	<node id="-103260" lat="62.1893583332" lon="7.56696665856">
		<tag k="name" v="Stormyra" />
		<tag k="natural" v="wetland" />
		<tag k="ssr:stedsnr" v="956767" />
	</node>
	<node id="-103258" lat="62.3263861105" lon="7.48576389008">
		<tag k="name" v="Skjervsura" />
		<tag k="natural" v="scree" />
		<tag k="ssr:stedsnr" v="956714" />
	</node>
	<node id="-101720" lat="62.4415138911" lon="7.2321194461">
		<tag k="name" v="Nilsurene" />
		<tag k="natural" v="scree" />
		<tag k="ssr:stedsnr" v="642834" />
	</node>
	<node id="-101719" lat="62.3679138886" lon="7.25738889344">
		<tag k="name" v="Uriskarskogen" />
		<tag k="place" v="locality" />
		<tag k="ssr:stedsnr" v="642816" />
	</node>
	<node id="-101206" lat="62.1980222242" lon="7.48687221967">
		<tag k="name" v="Stigmyra" />
		<tag k="natural" v="wetland" />
		<tag k="ssr:stedsnr" v="288940" />
	</node>
	<node id="-101205" lat="62.3398166679" lon="7.539594445">
		<tag k="name" v="Sætermyrane" />
		<tag k="natural" v="wetland" />
		<tag k="ssr:stedsnr" v="288799" />
	</node>
	<node id="-103250" lat="62.2968000028" lon="7.33396110155">
		<tag k="name" v="Ormura" />
		<tag k="natural" v="scree" />
		<tag k="ssr:stedsnr" v="956486" />
	</node>
	<node id="-101674" lat="62.3005194484" lon="7.31692499364">
		<tag k="name" v="Myrane" />
		<tag k="natural" v="wetland" />
		<tag k="ssr:stedsnr" v="713463" />
	</node>
	<node id="-102735" lat="62.3786611078" lon="7.05480000915">
		<tag k="name" v="Øyane" />
		<tag k="place" v="locality" />
		<tag k="ssr:stedsnr" v="520035" />
	</node>
	<node id="-101198" lat="62.2258861097" lon="7.43758611541">
		<tag k="name" v="Longskredene" />
		<tag k="natural" v="scree" />
		<tag k="ssr:stedsnr" v="288747" />
	</node>
	<node id="-103244" lat="62.2184888885" lon="7.44208611833">
		<tag k="name" v="Mausemyra" />
		<tag k="natural" v="wetland" />
		<tag k="ssr:stedsnr" v="956121" />
	</node>
	<node id="-102219" lat="62.269188887" lon="7.10345555454">
		<tag k="name" v="Brisesteinen" />
		<tag k="natural" v="stone" />
		<tag k="ssr:stedsnr" v="46123" />
	</node>
	<node id="-102213" lat="62.3488249973" lon="7.40079166647">
		<tag k="name" v="Øvste Bjørnasteinen" />
		<tag k="natural" v="stone" />
		<tag k="ssr:stedsnr" v="45628" />
	</node>
	<node id="-101188" lat="62.2938222252" lon="7.3378444361">
		<tag k="name" v="Nerhusurene" />
		<tag k="natural" v="scree" />
		<tag k="ssr:stedsnr" v="288445" />
	</node>
	<node id="-103234" lat="62.3474222198" lon="7.40049167474">
		<tag k="name" v="Bjørnasteinen" />
		<tag k="natural" v="stone" />
		<tag k="ssr:stedsnr" v="955649" />
	</node>
	<node id="-103231" lat="62.3200555532" lon="7.27043610558">
		<tag k="name" v="Jamtefonna" />
		<tag k="place" v="locality" />
		<tag k="ssr:stedsnr" v="955629" />
	</node>
	<node id="-103227" lat="62.3470083377" lon="7.35108056392">
		<tag k="name" v="Storsteinen" />
		<tag k="natural" v="stone" />
		<tag k="ssr:stedsnr" v="955326" />
	</node>
	<node id="-103222" lat="62.2848972205" lon="7.18517222478">
		<tag k="name" v="Havsteinane" />
		<tag k="natural" v="stone" />
		<tag k="ssr:stedsnr" v="955069" />
	</node>
	<node id="-103221" lat="62.286544443" lon="7.21400278184">
		<tag k="name" v="Sildesteinen" />
		<tag k="natural" v="stone" />
		<tag k="ssr:stedsnr" v="955008" />
	</node>
	<node id="-101949" lat="62.3863777735" lon="7.06234445131">
		<tag k="name" v="Gjølsvad" />
		<tag k="place" v="locality" />
		<tag k="ssr:stedsnr" v="824055" />
	</node>
	<node id="-101171" lat="62.2329388859" lon="7.22758333401">
		<tag k="name" v="Øvstemyrane" />
		<tag k="natural" v="wetland" />
		<tag k="ssr:stedsnr" v="167816" />
	</node>
	<node id="-101170" lat="62.3347055523" lon="7.57434165992">
		<tag k="name" v="Foldesteinane" />
		<tag k="natural" v="stone" />
		<tag k="ssr:stedsnr" v="167810" />
	</node>
	<node id="-102704" lat="62.2589861137" lon="7.0336750089">
		<tag k="landuse" v="quarry" />
		<tag k="name" v="Raudbergvika" />
		<tag k="old_name" v="Raudbergvik" />
		<tag k="ssr:stedsnr" v="435949" />
	</node>
	<node id="-101165" lat="62.2951277786" lon="7.3611555519">
		<tag k="name" v="Geitsteinen" />
		<tag k="natural" v="stone" />
		<tag k="ssr:stedsnr" v="167510" />
	</node>
	<node id="-102188" lat="62.4106555523" lon="7.21323889279">
		<tag k="name" v="Haugåkerteigane" />
		<tag k="place" v="locality" />
		<tag k="ssr:stedsnr" v="35832" />
	</node>
	<node id="-103210" lat="62.2473388901" lon="7.19019999426">
		<tag k="name" v="Storåsmyrane" />
		<tag k="natural" v="wetland" />
		<tag k="ssr:stedsnr" v="861241" />
	</node>
	<node id="-101161" lat="62.3536972211" lon="7.33833611767">
		<tag k="name" v="Heimyra" />
		<tag k="natural" v="wetland" />
		<tag k="ssr:stedsnr" v="167156" />
	</node>
	<node id="-102184" lat="62.4302111118" lon="7.22184999731">
		<tag k="name" v="Deplane" />
		<tag k="natural" v="wetland" />
		<tag k="ssr:stedsnr" v="35664" />
	</node>
	<node id="-101159" lat="62.2178111154" lon="7.4141944465">
		<tag k="name" v="Høystakkmyra" />
		<tag k="natural" v="wetland" />
		<tag k="ssr:stedsnr" v="167105" />
	</node>
	<node id="-102181" lat="62.2458388856" lon="7.20521667361">
		<tag k="name" v="Grønmyra" />
		<tag k="natural" v="wetland" />
		<tag k="ssr:stedsnr" v="35524" />
	</node>
	<node id="-102180" lat="62.2515694433" lon="7.13406666544">
		<tag k="name" v="Sætermyrane" />
		<tag k="natural" v="wetland" />
		<tag k="ssr:stedsnr" v="35496" />
	</node>
	<node id="-101667" lat="62.255419447" lon="7.23655278121">
		<tag k="name" v="Kyrkjemyra" />
		<tag k="natural" v="wetland" />
		<tag k="ssr:stedsnr" v="712945" />
	</node>
	<node id="-101154" lat="62.336661112" lon="7.46534444273">
		<tag k="name" v="Storsteinen" />
		<tag k="natural" v="stone" />
		<tag k="ssr:stedsnr" v="166668" />
	</node>
	<node id="-102689" lat="62.4044722242" lon="6.94557777062">
		<tag k="name" v="Aurmedet" />
		<tag k="natural" v="scree" />
		<tag k="ssr:stedsnr" v="415614" />
	</node>
	<node id="-101664" lat="62.2102305586" lon="7.42222221361">
		<tag k="name" v="Kvitura" />
		<tag k="natural" v="scree" />
		<tag k="ssr:stedsnr" v="713093" />
	</node>
	<node id="-102687" lat="62.3878527736" lon="7.55314166438">
		<tag k="name" v="Storsteinane" />
		<tag k="natural" v="stone" />
		<tag k="ssr:stedsnr" v="410881" />
	</node>
	<node id="-101660" lat="62.2718500017" lon="7.34789166713">
		<tag k="name" v="Storsteinen" />
>>>>>>> e1d4bc35ff8a6074a6f2e91616a996b547c36f15
		<tag k="natural" v="stone" />
		<tag k="ssr:stedsnr" v="409312" />
	</node>
<<<<<<< HEAD
	<node lat="62.18305277810527" lon="7.432863883773987" id="-7500">
		<tag k="name" v="Stormyra" />
=======
	<node id="-102681" lat="62.3328916687" lon="7.57116944039">
		<tag k="name" v="Dalemyrane" />
>>>>>>> e1d4bc35ff8a6074a6f2e91616a996b547c36f15
		<tag k="natural" v="wetland" />
		<tag k="ssr:stedsnr" v="409952" />
	</node>
<<<<<<< HEAD
	<node lat="62.271150001357256" lon="7.102752778083905" id="-7552">
		<tag k="name" v="Storsteinen" />
=======
	<node id="-101655" lat="62.3461388889" lon="7.35813889262">
		<tag k="name" v="Ellingsteinen" />
>>>>>>> e1d4bc35ff8a6074a6f2e91616a996b547c36f15
		<tag k="natural" v="stone" />
		<tag k="ssr:stedsnr" v="470115" />
	</node>
<<<<<<< HEAD
	<node lat="62.30351389197351" lon="7.229697213491371" id="-7566">
		<tag k="name" v="Raudfonna" />
=======
	<node id="-101138" lat="62.2370527785" lon="7.13036943926">
		<tag k="name" v="Bertelfonna" />
>>>>>>> e1d4bc35ff8a6074a6f2e91616a996b547c36f15
		<tag k="place" v="locality" />
		<tag k="ssr:stedsnr" v="470776" />
	</node>
<<<<<<< HEAD
	<node lat="62.18204444106739" lon="7.5027111032829845" id="-7567">
		<tag k="name" v="Storskogane" />
		<tag k="natural" v="scree" />
		<tag k="ssr:stedsnr" v="470972" />
	</node>
	<node lat="62.37381110721195" lon="6.9430083278429455" id="-7629">
		<tag k="name" v="Sersjantura" />
		<tag k="natural" v="scree" />
		<tag k="ssr:stedsnr" v="519762" />
	</node>
	<node lat="62.39243610786005" lon="6.954752775314398" id="-7637">
		<tag k="name" v="Spjøtura" />
		<tag k="natural" v="scree" />
		<tag k="ssr:stedsnr" v="520712" />
	</node>
	<node lat="62.22591388476635" lon="7.288386106768955" id="-7647">
		<tag k="name" v="Øyane" />
		<tag k="natural" v="wetland" />
		<tag k="ssr:stedsnr" v="531401" />
	</node>
	<node lat="62.181413893333946" lon="7.508105559969926" id="-7653">
		<tag k="name" v="Fannamyra" />
		<tag k="natural" v="wetland" />
		<tag k="ssr:stedsnr" v="531976" />
	</node>
	<node lat="62.42216666263253" lon="7.30363054946014" id="-7704">
		<tag k="name" v="Kambemyrane" />
		<tag k="natural" v="wetland" />
		<tag k="ssr:stedsnr" v="581704" />
	</node>
	<node lat="62.19199166765858" lon="7.341366664273427" id="-7710">
		<tag k="name" v="Reitane" />
=======
	<node id="-101365" lat="62.303513892" lon="7.22969721349">
		<tag k="name" v="Raudfonna" />
		<tag k="place" v="locality" />
		<tag k="ssr:stedsnr" v="470776" />
	</node>
	<node id="-103175" lat="62.3392972257" lon="7.46346666892">
		<tag k="name" v="Sæterura" />
		<tag k="natural" v="scree" />
		<tag k="ssr:stedsnr" v="834685" />
	</node>
	<node id="-103174" lat="62.3293916689" lon="7.45975832873">
		<tag k="name" v="Svortesteinane" />
		<tag k="natural" v="stone" />
		<tag k="ssr:stedsnr" v="834682" />
	</node>
	<node id="-101761" lat="62.3810055564" lon="7.04451944048">
		<tag k="name" v="Holtøyane" />
		<tag k="place" v="locality" />
		<tag k="ssr:stedsnr" v="885041" />
	</node>
	<node id="-101419" lat="62.3325833319" lon="7.35146388144">
		<tag k="name" v="Tverrgardsøyna" />
		<tag k="place" v="locality" />
		<tag k="ssr:stedsnr" v="348322" />
	</node>
	<node id="-101117" lat="62.2151444454" lon="7.04057221984">
		<tag k="name" v="Isflåna" />
		<tag k="place" v="locality" />
		<tag k="ssr:stedsnr" v="275391" />
	</node>
	<node id="-103163" lat="62.3641166675" lon="7.26838888954">
		<tag k="name" v="Blåura" />
		<tag k="natural" v="scree" />
		<tag k="ssr:stedsnr" v="824848" />
	</node>
	<node id="-103161" lat="62.2665222184" lon="7.16151388519">
		<tag k="name" v="Svora" />
		<tag k="place" v="locality" />
		<tag k="ssr:stedsnr" v="824643" />
	</node>
	<node id="-103159" lat="62.1573916667" lon="7.17785555241">
		<tag k="historic" v="shieling" />
		<tag k="name" v="Indresætra" />
		<tag k="place" v="locality" />
		<tag k="ssr:stedsnr" v="824393" />
	</node>
	<node id="-103156" lat="62.2122749978" lon="7.16697499882">
		<tag k="name" v="Nygjerdet" />
		<tag k="place" v="locality" />
		<tag k="ssr:stedsnr" v="824385" />
	</node>
	<node id="-103152" lat="62.3758555543" lon="7.13745554968">
		<tag k="name" v="Bølømarka" />
>>>>>>> e1d4bc35ff8a6074a6f2e91616a996b547c36f15
		<tag k="place" v="locality" />
		<tag k="ssr:stedsnr" v="591512" />
	</node>
<<<<<<< HEAD
	<node lat="62.341644446949815" lon="7.455075004923459" id="-7712">
		<tag k="name" v="Gråsteinen" />
		<tag k="natural" v="stone" />
		<tag k="ssr:stedsnr" v="591612" />
	</node>
	<node lat="62.19958611463565" lon="7.53405000490601" id="-7713">
		<tag k="name" v="Oshammaren" />
		<tag k="natural" v="scree" />
		<tag k="ssr:stedsnr" v="591618" />
	</node>
	<node lat="62.264691663045255" lon="7.348025005192818" id="-7723">
		<tag k="name" v="Blåsva" />
=======
	<node id="-101613" lat="62.2869694459" lon="7.45783610874">
		<tag k="name" v="Trollkyrkjebreen" />
		<tag k="natural" v="glacier" />
		<tag k="ssr:stedsnr" v="557866" />
	</node>
	<node id="-101091" lat="62.2147138893" lon="7.23844999049">
		<tag k="name" v="Kallsetsteinen" />
		<tag k="natural" v="stone" />
		<tag k="ssr:stedsnr" v="107121" />
	</node>
	<node id="-102626" lat="62.4340722251" lon="6.95460833991">
		<tag k="name" v="Demningane" />
		<tag k="natural" v="wetland" />
		<tag k="ssr:stedsnr" v="398355" />
	</node>
	<node id="-101210" lat="62.2084416681" lon="7.15820555906">
		<tag k="alt_name" v="Steinsmyra" />
		<tag k="name" v="Steinmyra" />
		<tag k="natural" v="wetland" />
		<tag k="ssr:stedsnr" v="192328" />
	</node>
	<node id="-102623" lat="62.4213527737" lon="6.96752222704">
		<tag k="name" v="Dyrkornmyrane" />
		<tag k="natural" v="wetland" />
		<tag k="ssr:stedsnr" v="398274" />
	</node>
	<node id="-101602" lat="62.1839750016" lon="7.64382777819">
		<tag k="name" v="Glupsøyra" />
>>>>>>> e1d4bc35ff8a6074a6f2e91616a996b547c36f15
		<tag k="place" v="locality" />
		<tag k="ssr:stedsnr" v="592313" />
	</node>
<<<<<<< HEAD
	<node lat="62.278105552538385" lon="7.390991670781029" id="-7763">
		<tag k="name" v="Heggura" />
		<tag k="natural" v="scree" />
		<tag k="ssr:stedsnr" v="627912" />
	</node>
	<node lat="62.367913888559656" lon="7.257388893444122" id="-7774">
		<tag k="name" v="Uriskarskogen" />
=======
	<node id="-101413" lat="62.1732972252" lon="7.51429167351">
		<tag k="name" v="Sandfarmyrane" />
		<tag k="natural" v="wetland" />
		<tag k="ssr:stedsnr" v="348227" />
	</node>
	<node id="-101083" lat="62.409819442" lon="6.99661944488">
		<tag k="historic" v="shieling" />
		<tag k="name" v="Findastølen" />
>>>>>>> e1d4bc35ff8a6074a6f2e91616a996b547c36f15
		<tag k="place" v="locality" />
		<tag k="ssr:stedsnr" v="642816" />
	</node>
<<<<<<< HEAD
	<node lat="62.19351388622819" lon="7.338680562390406" id="-7779">
		<tag k="name" v="Holane" />
		<tag k="natural" v="wetland" />
		<tag k="ssr:stedsnr" v="651535" />
	</node>
	<node lat="62.24753055486474" lon="7.576347218392603" id="-7792">
		<tag k="name" v="Storbreen" />
		<tag k="natural" v="glacier" />
		<tag k="ssr:stedsnr" v="678494" />
	</node>
	<node lat="62.22811110741116" lon="7.051630553927494" id="-7809">
		<tag k="name" v="Krkesteinen" />
=======
	<node id="-101081" lat="62.1649499998" lon="7.16966943685">
		<tag k="name" v="Breiskreda" />
		<tag k="place" v="locality" />
		<tag k="ssr:stedsnr" v="95352" />
	</node>
	<node id="-101241" lat="62.357519443" lon="7.55863888194">
		<tag k="name" v="Steinhakka" />
>>>>>>> e1d4bc35ff8a6074a6f2e91616a996b547c36f15
		<tag k="natural" v="stone" />
		<tag k="ssr:stedsnr" v="227855" />
	</node>
	<node id="-102178" lat="62.2749583377" lon="7.03691944471">
		<tag k="name" v="Seifonna" />
		<tag k="place" v="locality" />
		<tag k="ssr:stedsnr" v="35489" />
	</node>
<<<<<<< HEAD
	<node lat="62.25312778064584" lon="7.377599990640442" id="-7828">
		<tag k="name" v="Storvakfonna" />
		<tag k="place" v="locality" />
		<tag k="ssr:stedsnr" v="895506" />
	</node>
	<node lat="62.32116388522321" lon="7.4884861030324" id="-7829">
		<tag k="name" v="Sandsteinen" />
		<tag k="natural" v="stone" />
		<tag k="ssr:stedsnr" v="895651" />
	</node>
	<node lat="62.34513889172427" lon="7.436936118624356" id="-7835">
		<tag k="name" v="Grønbakkskogen" />
=======
	<node id="-103114" lat="62.1479694415" lon="7.65345833288">
		<tag k="name" v="Langfonna" />
		<tag k="natural" v="glacier" />
		<tag k="ssr:stedsnr" v="800081" />
	</node>
	<node id="-101576" lat="62.3418444476" lon="7.55727777992">
		<tag k="name" v="Foldesteinane" />
		<tag k="natural" v="stone" />
		<tag k="ssr:stedsnr" v="531812" />
	</node>
	<node id="-102087" lat="62.4104083342" lon="7.22414999914">
		<tag k="name" v="Hagardsmarkene" />
		<tag k="place" v="locality" />
		<tag k="ssr:stedsnr" v="946849" />
	</node>
	<node id="-102085" lat="62.1889666633" lon="7.57624166208">
		<tag k="historic" v="shieling" />
		<tag k="name" v="Reindalssætra" />
>>>>>>> e1d4bc35ff8a6074a6f2e91616a996b547c36f15
		<tag k="place" v="locality" />
		<tag k="ssr:stedsnr" v="895594" />
	</node>
<<<<<<< HEAD
	<node lat="62.336058331305864" lon="7.4370500060478015" id="-7836">
		<tag k="name" v="Bessmyra" />
		<tag k="natural" v="wetland" />
		<tag k="ssr:stedsnr" v="895602" />
	</node>
	<node lat="62.212761111454164" lon="7.4630805556148125" id="-7840">
		<tag k="name" v="Buskreda" />
=======
	<node id="-101571" lat="62.2597833361" lon="7.45270277274">
		<tag k="name" v="Gråura" />
>>>>>>> e1d4bc35ff8a6074a6f2e91616a996b547c36f15
		<tag k="natural" v="scree" />
		<tag k="ssr:stedsnr" v="895935" />
	</node>
<<<<<<< HEAD
	<node lat="62.24782777827218" lon="7.2407500057940775" id="-7845">
		<tag k="name" v="Tobakksmyra" />
		<tag k="natural" v="wetland" />
		<tag k="ssr:stedsnr" v="895952" />
	</node>
	<node lat="62.37390555348231" lon="7.128399995732234" id="-7851">
		<tag k="name" v="Myrane" />
=======
	<node id="-101835" lat="62.2478277783" lon="7.24075000579">
		<tag k="name" v="Tobakksmyra" />
		<tag k="natural" v="wetland" />
		<tag k="ssr:stedsnr" v="895952" />
	</node>
	<node id="-101563" lat="62.1737944446" lon="7.17128888464">
		<tag k="name" v="Kråkesylvsteinen" />
		<tag k="natural" v="stone" />
		<tag k="ssr:stedsnr" v="520406" />
	</node>
	<node id="-102772" lat="62.3642000019" lon="7.55638889642">
		<tag k="name" v="Bruareiten" />
		<tag k="place" v="locality" />
		<tag k="ssr:stedsnr" v="530852" />
	</node>
	<node id="-103094" lat="62.3014083374" lon="7.28163610846">
		<tag k="name" v="Bjørnamyra" />
>>>>>>> e1d4bc35ff8a6074a6f2e91616a996b547c36f15
		<tag k="natural" v="wetland" />
		<tag k="ssr:stedsnr" v="702124" />
	</node>
<<<<<<< HEAD
	<node lat="62.162686113217795" lon="7.17677221301783" id="-7857">
		<tag k="name" v="Hellemyrane" />
		<tag k="natural" v="wetland" />
		<tag k="ssr:stedsnr" v="703418" />
	</node>
	<node lat="62.27185000173598" lon="7.347891667128612" id="-7862">
		<tag k="name" v="Storsteinen" />
		<tag k="natural" v="stone" />
		<tag k="ssr:stedsnr" v="712274" />
	</node>
	<node lat="62.255397220727865" lon="7.2229833359319064" id="-7866">
		<tag k="name" v="Gullsteinen" />
		<tag k="natural" v="stone" />
		<tag k="ssr:stedsnr" v="712927" />
	</node>
	<node lat="62.255419447016116" lon="7.236552781213958" id="-7867">
		<tag k="name" v="Kyrkjemyra" />
=======
	<node id="-103092" lat="62.365336108" lon="7.3597777719">
		<tag k="name" v="Steinane" />
		<tag k="natural" v="stone" />
		<tag k="ssr:stedsnr" v="774169" />
	</node>
	<node id="-103091" lat="62.3490611123" lon="7.38624721725">
		<tag k="name" v="Gråsteinen" />
		<tag k="natural" v="stone" />
		<tag k="ssr:stedsnr" v="774155" />
	</node>
	<node id="-101127" lat="62.4336916636" lon="6.92263054926">
		<tag k="name" v="Kokarsteinen" />
		<tag k="natural" v="stone" />
		<tag k="ssr:stedsnr" v="277373" />
	</node>
	<node id="-103088" lat="62.3280277799" lon="7.51351666596">
		<tag k="name" v="Smiura" />
		<tag k="natural" v="scree" />
		<tag k="ssr:stedsnr" v="773803" />
	</node>
	<node id="-102059" lat="62.4222583298" lon="6.98524166503">
		<tag k="name" v="Fremstemyrane" />
>>>>>>> e1d4bc35ff8a6074a6f2e91616a996b547c36f15
		<tag k="natural" v="wetland" />
		<tag k="ssr:stedsnr" v="712945" />
	</node>
<<<<<<< HEAD
	<node lat="62.21023055859768" lon="7.422222213609371" id="-7868">
		<tag k="name" v="Kvitura" />
=======
	<node id="-103079" lat="62.2182083363" lon="7.32800000594">
		<tag k="name" v="Bukkeskreda" />
>>>>>>> e1d4bc35ff8a6074a6f2e91616a996b547c36f15
		<tag k="natural" v="scree" />
		<tag k="ssr:stedsnr" v="713093" />
	</node>
<<<<<<< HEAD
	<node lat="62.17908888588555" lon="7.334305555240242" id="-7921">
=======
	<node id="-103075" lat="62.1790888859" lon="7.33430555524">
>>>>>>> e1d4bc35ff8a6074a6f2e91616a996b547c36f15
		<tag k="name" v="Kista" />
		<tag k="natural" v="wetland" />
		<tag k="ssr:stedsnr" v="773491" />
	</node>
<<<<<<< HEAD
	<node lat="62.24987221937158" lon="7.225602784926108" id="-7924">
		<tag k="name" v="Storura" />
		<tag k="natural" v="scree" />
		<tag k="ssr:stedsnr" v="773919" />
	</node>
	<node lat="62.32802777993101" lon="7.513516665961901" id="-7926">
		<tag k="name" v="Smiura" />
		<tag k="natural" v="scree" />
		<tag k="ssr:stedsnr" v="773803" />
	</node>
	<node lat="62.34906111231127" lon="7.386247217247455" id="-7927">
		<tag k="name" v="Gråsteinen" />
=======
	<node id="-102050" lat="62.2624444453" lon="7.19947777712">
		<tag k="name" v="Galten" />
>>>>>>> e1d4bc35ff8a6074a6f2e91616a996b547c36f15
		<tag k="natural" v="stone" />
		<tag k="ssr:stedsnr" v="774155" />
	</node>
<<<<<<< HEAD
	<node lat="62.36533610801229" lon="7.359777771901504" id="-7928">
		<tag k="name" v="Steinane" />
		<tag k="natural" v="stone" />
		<tag k="ssr:stedsnr" v="774169" />
	</node>
	<node lat="62.301408337445366" lon="7.281636108457514" id="-7935">
		<tag k="name" v="Bjørnamyra" />
		<tag k="natural" v="wetland" />
		<tag k="ssr:stedsnr" v="774559" />
	</node>
	<node lat="62.14796944149404" lon="7.653458332879501" id="-7944">
		<tag k="name" v="Langfonna" />
		<tag k="natural" v="glacier" />
		<tag k="ssr:stedsnr" v="800081" />
	</node>
	<node lat="62.26847777597101" lon="7.15196110232461" id="-7965">
		<tag k="name" v="Seljura" />
		<tag k="natural" v="scree" />
		<tag k="ssr:stedsnr" v="820415" />
	</node>
	<node lat="62.20754167032993" lon="7.150194435517872" id="-7983">
		<tag k="name" v="Dølemyra" />
		<tag k="natural" v="wetland" />
		<tag k="ssr:stedsnr" v="824466" />
	</node>
	<node lat="62.30243889050744" lon="7.307547214434" id="-8007">
		<tag k="name" v="Matsteinane" />
		<tag k="natural" v="stone" />
		<tag k="ssr:stedsnr" v="835527" />
	</node>
	<node lat="62.42320555511803" lon="7.242816664135256" id="-8038">
		<tag k="name" v="Fokhaugmyrane" />
=======
	<node id="-102048" lat="62.1840333352" lon="7.14293611679">
		<tag k="name" v="Skredene" />
		<tag k="place" v="locality" />
		<tag k="ssr:stedsnr" v="946422" />
	</node>
	<node id="-102044" lat="62.249791665" lon="7.21362500643">
		<tag k="name" v="Kaistemyra" />
		<tag k="natural" v="wetland" />
		<tag k="ssr:stedsnr" v="946352" />
	</node>
	<node id="-102555" lat="62.4016194487" lon="7.219580557">
		<tag k="name" v="Kroken" />
		<tag k="natural" v="wetland" />
		<tag k="ssr:stedsnr" v="339841" />
	</node>
	<node id="-102552" lat="62.1930527806" lon="7.16254999559">
		<tag k="name" v="Fonna" />
		<tag k="place" v="locality" />
		<tag k="ssr:stedsnr" v="339441" />
	</node>
	<node id="-101015" lat="62.2269444445" lon="7.39641944307">
		<tag k="name" v="Nygjerdsfonna" />
		<tag k="place" v="locality" />
		<tag k="ssr:stedsnr" v="228434" />
	</node>
	<node id="-102550" lat="62.261966666" lon="7.19267500339">
		<tag k="name" v="Storura" />
		<tag k="natural" v="scree" />
		<tag k="ssr:stedsnr" v="339375" />
	</node>
	<node id="-103061" lat="62.178752782" lon="7.15354999393">
		<tag k="name" v="Hjelleteigane" />
		<tag k="place" v="locality" />
		<tag k="ssr:stedsnr" v="763386" />
	</node>
	<node id="-102547" lat="62.3873861146" lon="7.19704999255">
		<tag k="name" v="Hjellmyrane" />
>>>>>>> e1d4bc35ff8a6074a6f2e91616a996b547c36f15
		<tag k="natural" v="wetland" />
		<tag k="ssr:stedsnr" v="885628" />
	</node>
<<<<<<< HEAD
	<node lat="62.23854444251973" lon="7.42135276924211" id="-8043">
		<tag k="name" v="Bjørnaura" />
		<tag k="natural" v="scree" />
		<tag k="ssr:stedsnr" v="895759" />
	</node>
	<node lat="62.23593055236178" lon="7.250972214139952" id="-8051">
		<tag k="name" v="Kvitsteinen" />
		<tag k="natural" v="stone" />
		<tag k="ssr:stedsnr" v="895832" />
	</node>
	<node lat="62.187294444167016" lon="7.436380550098091" id="-8054">
		<tag k="name" v="Kattuglsteinane" />
		<tag k="natural" v="stone" />
		<tag k="ssr:stedsnr" v="895959" />
	</node>
	<node lat="62.18896666329115" lon="7.576241662082794" id="-8076">
		<tag k="historic" v="shieling" />
		<tag k="name" v="Reindalssætra" />
		<tag k="place" v="locality" />
		<tag k="ssr:stedsnr" v="931907" />
	</node>
	<node lat="62.381119447607254" lon="7.151852772389075" id="-8082">
=======
	<node id="-102033" lat="62.3692805545" lon="7.09115833487">
		<tag k="name" v="Porsemyra" />
		<tag k="natural" v="wetland" />
		<tag k="ssr:stedsnr" v="945508" />
	</node>
	<node id="-102253" lat="62.2114027741" lon="7.12468889431">
		<tag k="name" v="Bjørkmyra" />
		<tag k="natural" v="wetland" />
		<tag k="ssr:stedsnr" v="95348" />
	</node>
	<node id="-102027" lat="62.3811194476" lon="7.15185277239">
>>>>>>> e1d4bc35ff8a6074a6f2e91616a996b547c36f15
		<tag k="name" v="Tegane" />
		<tag k="place" v="locality" />
		<tag k="ssr:stedsnr" v="945103" />
	</node>
<<<<<<< HEAD
	<node lat="62.36928055449842" lon="7.091158334870357" id="-8086">
		<tag k="name" v="Porsemyra" />
		<tag k="natural" v="wetland" />
		<tag k="ssr:stedsnr" v="945508" />
	</node>
	<node lat="62.18403333519469" lon="7.142936116794915" id="-8091">
		<tag k="name" v="Skredene" />
=======
	<node id="-102026" lat="62.3799416684" lon="7.15327778512">
		<tag k="name" v="Myrane" />
		<tag k="natural" v="wetland" />
		<tag k="ssr:stedsnr" v="945086" />
	</node>
	<node id="-102537" lat="62.3783694415" lon="7.05701388215">
		<tag k="name" v="Sandane" />
>>>>>>> e1d4bc35ff8a6074a6f2e91616a996b547c36f15
		<tag k="place" v="locality" />
		<tag k="ssr:stedsnr" v="946422" />
	</node>
<<<<<<< HEAD
	<node lat="62.26244444527752" lon="7.199477777118468" id="-8093">
		<tag k="name" v="Galten" />
		<tag k="natural" v="stone" />
		<tag k="ssr:stedsnr" v="946425" />
	</node>
	<node lat="62.21848888847586" lon="7.442086118328451" id="-8101">
		<tag k="name" v="Mausemyra" />
		<tag k="natural" v="wetland" />
		<tag k="ssr:stedsnr" v="956121" />
	</node>
	<node lat="62.32638611052186" lon="7.48576389007809" id="-8106">
		<tag k="name" v="Skjervsura" />
		<tag k="natural" v="scree" />
		<tag k="ssr:stedsnr" v="956714" />
	</node>
	<node lat="62.34841666503" lon="7.551997224813414" id="-8107">
		<tag k="name" v="Fremstebøen" />
		<tag k="place" v="locality" />
		<tag k="ssr:stedsnr" v="956797" />
	</node>
	<node lat="62.191488888616604" lon="7.432113885176678" id="-8154">
=======
	<node id="-101000" lat="62.3345555531" lon="7.39157500329">
		<tag k="name" v="Lømyra" />
		<tag k="natural" v="wetland" />
		<tag k="ssr:stedsnr" v="227288" />
	</node>
	<node id="-100998" lat="62.2795555588" lon="7.30509166327">
		<tag k="name" v="Raudsteinen" />
		<tag k="natural" v="stone" />
		<tag k="ssr:stedsnr" v="227263" />
	</node>
	<node id="-101506" lat="62.2711500014" lon="7.10275277808">
		<tag k="name" v="Storsteinen" />
		<tag k="natural" v="stone" />
		<tag k="ssr:stedsnr" v="470115" />
	</node>
	<node id="-100991" lat="62.1914888886" lon="7.43211388518">
>>>>>>> e1d4bc35ff8a6074a6f2e91616a996b547c36f15
		<tag k="landuse" v="meadow" />
		<tag k="name" v="Litlejorda" />
		<tag k="ssr:stedsnr" v="21913" />
	</node>
<<<<<<< HEAD
	<node lat="62.42141110704667" lon="6.968280559951066" id="-8171">
		<tag k="name" v="Breiskreene" />
		<tag k="natural" v="wetland" />
		<tag k="ssr:stedsnr" v="34331" />
	</node>
	<node lat="62.27495833765158" lon="7.036919444712321" id="-8183">
		<tag k="name" v="Seifonna" />
		<tag k="place" v="locality" />
		<tag k="ssr:stedsnr" v="35489" />
	</node>
	<node lat="62.251569443250716" lon="7.134066665442348" id="-8185">
		<tag k="name" v="Sætermyrane" />
		<tag k="natural" v="wetland" />
		<tag k="ssr:stedsnr" v="35496" />
	</node>
	<node lat="62.430211111799515" lon="7.221849997312522" id="-8186">
		<tag k="name" v="Deplane" />
		<tag k="natural" v="wetland" />
		<tag k="ssr:stedsnr" v="35664" />
	</node>
	<node lat="62.410655552301954" lon="7.213238892787706" id="-8191">
		<tag k="name" v="Haugåkerteigane" />
=======
	<node id="-101002" lat="62.1919444445" lon="7.34328889697">
		<tag k="name" v="Stormyra" />
		<tag k="natural" v="wetland" />
		<tag k="ssr:stedsnr" v="227531" />
	</node>
	<node id="-101019" lat="62.3229111094" lon="7.4124861195">
		<tag k="name" v="Gråura" />
		<tag k="natural" v="scree" />
		<tag k="ssr:stedsnr" v="228641" />
	</node>
	<node id="-100980" lat="62.2027583357" lon="7.15958889769">
		<tag k="name" v="Legene" />
		<tag k="place" v="locality" />
		<tag k="ssr:stedsnr" v="218453" />
	</node>
	<node id="-101481" lat="62.1830527781" lon="7.43286388377">
		<tag k="name" v="Stormyra" />
		<tag k="natural" v="wetland" />
		<tag k="ssr:stedsnr" v="409952" />
	</node>
	<node id="-101479" lat="62.1987472232" lon="7.50894444043">
		<tag k="name" v="Byteura" />
		<tag k="natural" v="scree" />
		<tag k="ssr:stedsnr" v="409904" />
	</node>
	<node id="-101477" lat="62.3139055594" lon="7.32497222308">
		<tag k="name" v="Geitasteinen" />
		<tag k="natural" v="stone" />
		<tag k="ssr:stedsnr" v="409312" />
	</node>
	<node id="-102498" lat="62.2414555545" lon="7.61795555193">
		<tag k="name" v="Illstigbreen" />
		<tag k="natural" v="glacier" />
		<tag k="ssr:stedsnr" v="314531" />
	</node>
	<node id="-101666" lat="62.2553972207" lon="7.22298333593">
		<tag k="name" v="Gullsteinen" />
		<tag k="natural" v="stone" />
		<tag k="ssr:stedsnr" v="712927" />
	</node>
	<node id="-101982" lat="62.2918472235" lon="7.23271110718">
		<tag k="name" v="Sildesteinen" />
		<tag k="natural" v="stone" />
		<tag k="ssr:stedsnr" v="835808" />
	</node>
	<node id="-101981" lat="62.3324138925" lon="7.5798444383">
		<tag k="historic" v="shieling" />
		<tag k="name" v="Fremsteløvollen" />
>>>>>>> e1d4bc35ff8a6074a6f2e91616a996b547c36f15
		<tag k="place" v="locality" />
		<tag k="ssr:stedsnr" v="35832" />
	</node>
<<<<<<< HEAD
	<node lat="62.322605553974356" lon="7.414791663203221" id="-8209">
		<tag k="name" v="Løypet" />
		<tag k="natural" v="scree" />
		<tag k="ssr:stedsnr" v="46630" />
	</node>
	<node lat="62.42211110761398" lon="6.946083329183863" id="-8254">
		<tag k="name" v="Torva" />
		<tag k="place" v="locality" />
		<tag k="ssr:stedsnr" v="95337" />
	</node>
	<node lat="62.21140277406637" lon="7.1246888943061" id="-8257">
		<tag k="name" v="Bjørkmyra" />
		<tag k="natural" v="wetland" />
		<tag k="ssr:stedsnr" v="95348" />
	</node>
	<node lat="62.164949999827535" lon="7.169669436851766" id="-8258">
		<tag k="name" v="Breiskreda" />
		<tag k="place" v="locality" />
		<tag k="ssr:stedsnr" v="95352" />
	</node>
	<node lat="62.29235833098287" lon="7.344600006710509" id="-8274">
		<tag k="name" v="Stigflåfonna" />
=======
	<node id="-101977" lat="62.3024388905" lon="7.30754721443">
		<tag k="name" v="Matsteinane" />
		<tag k="natural" v="stone" />
		<tag k="ssr:stedsnr" v="835527" />
	</node>
	<node id="-101974" lat="62.2823611078" lon="7.29437777617">
		<tag k="name" v="Strengsteinen" />
		<tag k="natural" v="stone" />
		<tag k="ssr:stedsnr" v="835262" />
	</node>
	<node id="-101199" lat="62.2214944455" lon="7.44076111496">
		<tag k="name" v="Klipret" />
		<tag k="natural" v="scree" />
		<tag k="ssr:stedsnr" v="288748" />
	</node>
	<node id="-102994" lat="62.3431444425" lon="7.46473888209">
		<tag k="name" v="Brekkfonna" />
		<tag k="place" v="locality" />
		<tag k="ssr:stedsnr" v="652670" />
	</node>
	<node id="-102992" lat="62.2854972232" lon="7.36219722005">
		<tag k="name" v="Fjøre-Olafonna" />
>>>>>>> e1d4bc35ff8a6074a6f2e91616a996b547c36f15
		<tag k="place" v="locality" />
		<tag k="ssr:stedsnr" v="106466" />
	</node>
<<<<<<< HEAD
	<node lat="62.19811944679014" lon="7.335333331078167" id="-8275">
		<tag k="name" v="Gråsteinberget" />
		<tag k="natural" v="scree" />
		<tag k="ssr:stedsnr" v="106565" />
	</node>
	<node lat="62.20490277454588" lon="7.534513885732967" id="-8279">
		<tag k="name" v="Bustura" />
		<tag k="natural" v="scree" />
		<tag k="ssr:stedsnr" v="106747" />
	</node>
	<node lat="62.181227774747335" lon="7.428677772867576" id="-8286">
		<tag k="name" v="Magnhildsætermyra" />
		<tag k="natural" v="wetland" />
		<tag k="ssr:stedsnr" v="106960" />
	</node>
	<node lat="62.294502777938305" lon="7.685827773975315" id="-8313">
		<tag k="name" v="Storfjellbreen" />
		<tag k="natural" v="glacier" />
		<tag k="ssr:stedsnr" v="132854" />
	</node>
	<node lat="62.338794445473965" lon="7.105802781455228" id="-8343">
		<tag k="name" v="Vitne" />
		<tag k="place" v="locality" />
		<tag k="ssr:stedsnr" v="156592" />
	</node>
	<node lat="62.33666111196863" lon="7.465344442730707" id="-8363">
		<tag k="name" v="Storsteinen" />
		<tag k="natural" v="stone" />
		<tag k="ssr:stedsnr" v="166668" />
	</node>
	<node lat="62.321797220100336" lon="7.372166673622276" id="-8370">
		<tag k="name" v="Stikkfonna" />
		<tag k="place" v="locality" />
		<tag k="ssr:stedsnr" v="167145" />
	</node>
	<node lat="62.353697221145495" lon="7.338336117665703" id="-8374">
		<tag k="name" v="Heimyra" />
=======
	<node id="-101963" lat="62.2860388876" lon="7.17402222214">
		<tag k="name" v="Hundesva" />
		<tag k="place" v="locality" />
		<tag k="ssr:stedsnr" v="834077" />
	</node>
	<node id="-101303" lat="62.2431722179" lon="7.13145277416">
		<tag k="name" v="Haugfonna" />
		<tag k="place" v="locality" />
		<tag k="ssr:stedsnr" v="460464" />
	</node>
	<node id="-102980" lat="62.2726444435" lon="7.08298888941">
		<tag k="name" v="Breimyra" />
>>>>>>> e1d4bc35ff8a6074a6f2e91616a996b547c36f15
		<tag k="natural" v="wetland" />
		<tag k="ssr:stedsnr" v="167156" />
	</node>
<<<<<<< HEAD
	<node lat="62.232938885869764" lon="7.22758333400708" id="-8378">
		<tag k="name" v="Øvstemyrane" />
=======
	<node id="-101955" lat="62.2075416703" lon="7.15019443552">
		<tag k="name" v="Dølemyra" />
>>>>>>> e1d4bc35ff8a6074a6f2e91616a996b547c36f15
		<tag k="natural" v="wetland" />
		<tag k="ssr:stedsnr" v="167816" />
	</node>
<<<<<<< HEAD
	<node lat="62.20844166811675" lon="7.158205559055229" id="-8384">
		<tag k="alt_name" v="Steinsmyra" />
		<tag k="name" v="Steinmyra" />
		<tag k="natural" v="wetland" />
		<tag k="ssr:stedsnr" v="192328" />
	</node>
	<node lat="62.351724997035724" lon="7.765424998573211" id="-8393">
		<tag k="name" v="Storbreen" />
		<tag k="natural" v="glacier" />
		<tag k="ssr:stedsnr" v="193057" />
	</node>
	<node lat="62.20275833574434" lon="7.1595888976889315" id="-8459">
		<tag k="name" v="Legene" />
=======
	<node id="-102974" lat="62.1777749968" lon="7.16862499244">
		<tag k="name" v="Millommyrteigane" />
		<tag k="place" v="locality" />
		<tag k="ssr:stedsnr" v="642370" />
	</node>
	<node id="-102973" lat="62.2518166678" lon="7.19429999876">
		<tag k="name" v="Klingerstemyra" />
		<tag k="natural" v="wetland" />
		<tag k="ssr:stedsnr" v="642356" />
	</node>
	<node id="-102972" lat="62.1874166656" lon="7.16399444328">
		<tag k="name" v="Hans-Magnusgjerdet" />
>>>>>>> e1d4bc35ff8a6074a6f2e91616a996b547c36f15
		<tag k="place" v="locality" />
		<tag k="ssr:stedsnr" v="218453" />
	</node>
<<<<<<< HEAD
	<node lat="62.344791663842564" lon="7.343647214086044" id="-8462">
=======
	<node id="-101942" lat="62.268477776" lon="7.15196110232">
		<tag k="name" v="Seljura" />
		<tag k="natural" v="scree" />
		<tag k="ssr:stedsnr" v="820415" />
	</node>
	<node id="-101001" lat="62.3447916638" lon="7.34364721409">
>>>>>>> e1d4bc35ff8a6074a6f2e91616a996b547c36f15
		<tag k="name" v="Høgsetfonna" />
		<tag k="place" v="locality" />
		<tag k="ssr:stedsnr" v="227329" />
	</node>
<<<<<<< HEAD
	<node lat="62.27955555881675" lon="7.305091663267189" id="-8463">
		<tag k="name" v="Raudsteinen" />
		<tag k="natural" v="stone" />
		<tag k="ssr:stedsnr" v="227263" />
	</node>
	<node lat="62.32313333434917" lon="7.287375001792157" id="-8464">
		<tag k="name" v="Uristeinane" />
		<tag k="natural" v="stone" />
		<tag k="ssr:stedsnr" v="227360" />
	</node>
	<node lat="62.330711108724934" lon="7.489780558467458" id="-8468">
		<tag k="name" v="Skjervsura" />
		<tag k="natural" v="scree" />
		<tag k="ssr:stedsnr" v="227656" />
	</node>
	<node lat="62.35751944302534" lon="7.558638881940799" id="-8471">
		<tag k="name" v="Steinhakka" />
		<tag k="natural" v="stone" />
		<tag k="ssr:stedsnr" v="227855" />
	</node>
	<node lat="62.43369166364" lon="6.922630549257856" id="-8486">
		<tag k="name" v="Kokarsteinen" />
		<tag k="natural" v="stone" />
		<tag k="ssr:stedsnr" v="277373" />
	</node>
	<node lat="62.172608337828855" lon="7.161091666347478" id="-8489">
		<tag k="name" v="Longskreda" />
=======
	<node id="-103173" lat="62.3318583357" lon="7.47988611021">
		<tag k="name" v="Bøplassen" />
		<tag k="place" v="locality" />
		<tag k="ssr:stedsnr" v="834679" />
	</node>
	<node id="-101725" lat="62.3363388888" lon="7.32612777928">
		<tag k="name" v="Ljøsfonna" />
		<tag k="place" v="locality" />
		<tag k="ssr:stedsnr" v="652265" />
	</node>
	<node id="-102444" lat="62.351724997" lon="7.76542499857">
		<tag k="name" v="Storbreen" />
		<tag k="natural" v="glacier" />
		<tag k="ssr:stedsnr" v="193057" />
	</node>
	<node id="-101810" lat="62.3360583313" lon="7.43705000605">
		<tag k="name" v="Bessmyra" />
		<tag k="natural" v="wetland" />
		<tag k="ssr:stedsnr" v="895602" />
	</node>
	<node id="-101418" lat="62.3202777804" lon="7.33336945348">
		<tag k="name" v="Kvigesva" />
>>>>>>> e1d4bc35ff8a6074a6f2e91616a996b547c36f15
		<tag k="place" v="locality" />
		<tag k="ssr:stedsnr" v="277361" />
	</node>
<<<<<<< HEAD
	<node lat="62.237052778490735" lon="7.13036943925958" id="-8493">
		<tag k="name" v="Bertelfonna" />
		<tag k="place" v="locality" />
		<tag k="ssr:stedsnr" v="278411" />
	</node>
	<node lat="62.29382222523639" lon="7.337844436095382" id="-8499">
		<tag k="name" v="Nerhusurene" />
		<tag k="natural" v="scree" />
		<tag k="ssr:stedsnr" v="288445" />
	</node>
	<node lat="62.225886109707425" lon="7.437586115412061" id="-8522">
		<tag k="name" v="Longskredene" />
		<tag k="natural" v="scree" />
		<tag k="ssr:stedsnr" v="288747" />
	</node>
	<node lat="62.22149444550134" lon="7.440761114960009" id="-8523">
		<tag k="name" v="Klipret" />
		<tag k="natural" v="scree" />
		<tag k="ssr:stedsnr" v="288748" />
	</node>
	<node lat="62.19802222417324" lon="7.486872219668047" id="-8526">
		<tag k="name" v="Stigmyra" />
		<tag k="natural" v="wetland" />
		<tag k="ssr:stedsnr" v="288940" />
	</node>
	<node lat="62.24145555452961" lon="7.617955551932066" id="-8540">
		<tag k="name" v="Illstigbreen" />
		<tag k="natural" v="glacier" />
		<tag k="ssr:stedsnr" v="314531" />
	</node>
	<node lat="62.419063123183435" lon="7.2285529170768505" id="-8565">
		<tag k="historic" v="shieling" />
		<tag k="name" v="Kvitlane" />
		<tag k="place" v="locality" />
		<tag k="ssr:stedsnr" v="314976" />
	</node>
	<node lat="62.2619666660435" lon="7.192675003389335" id="-8588">
		<tag k="name" v="Storura" />
		<tag k="natural" v="scree" />
		<tag k="ssr:stedsnr" v="339375" />
	</node>
	<node lat="62.193052780580565" lon="7.1625499955877" id="-8590">
		<tag k="name" v="Fonna" />
		<tag k="place" v="locality" />
		<tag k="ssr:stedsnr" v="339441" />
	</node>
	<node lat="62.401619448660725" lon="7.219580556996621" id="-8591">
		<tag k="name" v="Kroken" />
		<tag k="natural" v="wetland" />
		<tag k="ssr:stedsnr" v="339841" />
	</node>
	<node lat="62.43407222510547" lon="6.95460833991076" id="-8644">
		<tag k="name" v="Demningane" />
		<tag k="natural" v="wetland" />
		<tag k="ssr:stedsnr" v="398355" />
	</node>
	<node lat="62.421352773735535" lon="6.967522227038979" id="-8647">
		<tag k="name" v="Dyrkornmyrane" />
		<tag k="natural" v="wetland" />
		<tag k="ssr:stedsnr" v="398274" />
	</node>
	<node lat="62.19874722322482" lon="7.5089444404341865" id="-8656">
		<tag k="name" v="Byteura" />
		<tag k="natural" v="scree" />
		<tag k="ssr:stedsnr" v="409904" />
	</node>
	<node lat="62.332891668692" lon="7.571169440387499" id="-8671">
		<tag k="name" v="Dalemyrane" />
		<tag k="natural" v="wetland" />
		<tag k="ssr:stedsnr" v="410792" />
	</node>
	<node lat="62.38785277355799" lon="7.553141664375394" id="-8682">
		<tag k="name" v="Storsteinane" />
		<tag k="natural" v="stone" />
		<tag k="ssr:stedsnr" v="410881" />
	</node>
	<node lat="62.404472224176345" lon="6.945577770622448" id="-8683">
		<tag k="name" v="Aurmedet" />
		<tag k="natural" v="scree" />
		<tag k="ssr:stedsnr" v="415614" />
	</node>
	<node lat="62.2589861136505" lon="7.0336750088953055" id="-8687">
		<tag k="landuse" v="quarry" />
		<tag k="name" v="Raudbergvika" />
		<tag k="old_name" v="Raudbergvik" />
		<tag k="ssr:stedsnr" v="435949" />
	</node>
	<node lat="62.27684444041892" lon="7.47007221351645" id="-8748">
		<tag k="name" v="Nakkebreen" />
		<tag k="natural" v="glacier" />
		<tag k="ssr:stedsnr" v="497827" />
	</node>
	<node lat="62.381113892113945" lon="7.009597224778915" id="-8755">
		<tag k="name" v="Kirkebøsandane" />
		<tag k="place" v="locality" />
		<tag k="ssr:stedsnr" v="519628" />
	</node>
	<node lat="62.378661107821195" lon="7.054800009152475" id="-8758">
		<tag k="name" v="Øyane" />
		<tag k="place" v="locality" />
		<tag k="ssr:stedsnr" v="520035" />
	</node>
	<node lat="62.37050555556535" lon="7.100127769367767" id="-8761">
		<tag k="name" v="Holen" />
		<tag k="place" v="locality" />
		<tag k="ssr:stedsnr" v="520075" />
	</node>
	<node lat="62.173794444649666" lon="7.1712888846362794" id="-8767">
		<tag k="name" v="Kråkesylvsteinen" />
		<tag k="natural" v="stone" />
		<tag k="ssr:stedsnr" v="520406" />
	</node>
	<node lat="62.321552774258514" lon="7.329697229330775" id="-8784">
		<tag k="name" v="Steinhakka" />
		<tag k="natural" v="scree" />
		<tag k="ssr:stedsnr" v="530337" />
	</node>
	<node lat="62.259783336061226" lon="7.452702772736355" id="-8792">
		<tag k="name" v="Gråura" />
		<tag k="natural" v="scree" />
		<tag k="ssr:stedsnr" v="530786" />
	</node>
	<node lat="62.3642000019159" lon="7.5563888964212165" id="-8799">
		<tag k="name" v="Bruareiten" />
		<tag k="place" v="locality" />
		<tag k="ssr:stedsnr" v="530852" />
	</node>
	<node lat="62.34184444762417" lon="7.5572777799231625" id="-8805">
		<tag k="name" v="Foldesteinane" />
		<tag k="natural" v="stone" />
		<tag k="ssr:stedsnr" v="531812" />
	</node>
	<node lat="62.18397500163336" lon="7.6438277781947495" id="-8839">
		<tag k="name" v="Glupsøyra" />
		<tag k="place" v="locality" />
		<tag k="ssr:stedsnr" v="557059" />
	</node>
	<node lat="62.28696944587485" lon="7.457836108742219" id="-8850">
		<tag k="name" v="Trollkyrkjebreen" />
		<tag k="natural" v="glacier" />
		<tag k="ssr:stedsnr" v="557866" />
	</node>
	<node lat="62.346138888916016" lon="7.358138892620187" id="-8884">
		<tag k="name" v="Ellingsteinen" />
		<tag k="natural" v="stone" />
		<tag k="ssr:stedsnr" v="591314" />
	</node>
	<node lat="62.2827111141096" lon="7.2732500051594595" id="-8903">
		<tag k="name" v="Vindsnesurene" />
		<tag k="natural" v="scree" />
		<tag k="ssr:stedsnr" v="591710" />
	</node>
	<node lat="62.19572777578035" lon="7.495547226858983" id="-8905">
		<tag k="name" v="Dektene" />
		<tag k="natural" v="wetland" />
		<tag k="ssr:stedsnr" v="591946" />
	</node>
	<node lat="62.1874166656221" lon="7.163994443281679" id="-8967">
		<tag k="name" v="Hans-Magnusgjerdet" />
		<tag k="place" v="locality" />
		<tag k="ssr:stedsnr" v="642351" />
	</node>
	<node lat="62.251816667773845" lon="7.194299998762991" id="-8968">
		<tag k="name" v="Klingerstemyra" />
		<tag k="natural" v="wetland" />
		<tag k="ssr:stedsnr" v="642356" />
	</node>
	<node lat="62.17777499677305" lon="7.168624992444953" id="-8969">
		<tag k="name" v="Millommyrteigane" />
		<tag k="place" v="locality" />
		<tag k="ssr:stedsnr" v="642370" />
	</node>
	<node lat="62.44151389113669" lon="7.232119446101667" id="-8972">
		<tag k="name" v="Nilsurene" />
		<tag k="natural" v="scree" />
		<tag k="ssr:stedsnr" v="642834" />
	</node>
	<node lat="62.27264444351764" lon="7.08298888940548" id="-8974">
		<tag k="name" v="Breimyra" />
		<tag k="natural" v="wetland" />
		<tag k="ssr:stedsnr" v="651176" />
	</node>
	<node lat="62.336338888778336" lon="7.326127779277072" id="-8979">
		<tag k="name" v="Ljøsfonna" />
		<tag k="place" v="locality" />
		<tag k="ssr:stedsnr" v="652265" />
	</node>
	<node lat="62.285497223181686" lon="7.362197220049814" id="-8985">
		<tag k="name" v="Fjøre-Olafonna" />
		<tag k="place" v="locality" />
		<tag k="ssr:stedsnr" v="652472" />
	</node>
	<node lat="62.343144442536406" lon="7.464738882086368" id="-8988">
		<tag k="name" v="Brekkfonna" />
		<tag k="place" v="locality" />
		<tag k="ssr:stedsnr" v="652670" />
	</node>
	<node lat="62.30051944837952" lon="7.3169249936433625" id="-9001">
		<tag k="name" v="Myrane" />
		<tag k="natural" v="wetland" />
		<tag k="ssr:stedsnr" v="713463" />
	</node>
	<node lat="62.38225555954984" lon="7.022525005945348" id="-9056">
		<tag k="name" v="Danmark" />
		<tag k="place" v="locality" />
		<tag k="ssr:stedsnr" v="762556" />
	</node>
	<node lat="62.22416666263347" lon="7.164713894000804" id="-9058">
		<tag k="historic" v="shieling" />
		<tag k="name" v="Kleivasætra" />
		<tag k="place" v="locality" />
		<tag k="ssr:stedsnr" v="763432" />
	</node>
	<node lat="62.178752782011735" lon="7.153549993931641" id="-9062">
		<tag k="name" v="Hjelleteigane" />
		<tag k="place" v="locality" />
		<tag k="ssr:stedsnr" v="763386" />
	</node>
	<node lat="62.19407778019943" lon="7.160877777188298" id="-9064">
		<tag k="name" v="Teigane" />
		<tag k="place" v="locality" />
		<tag k="ssr:stedsnr" v="763469" />
	</node>
	<node lat="62.21820833630357" lon="7.3280000059370405" id="-9080">
		<tag k="name" v="Bukkeskreda" />
		<tag k="natural" v="scree" />
		<tag k="ssr:stedsnr" v="773562" />
	</node>
	<node lat="62.386377773526355" lon="7.0623444513070694" id="-9141">
		<tag k="name" v="Gjølsvad" />
		<tag k="place" v="locality" />
		<tag k="ssr:stedsnr" v="824055" />
	</node>
	<node lat="62.37585555433209" lon="7.137455549675813" id="-9146">
		<tag k="name" v="Bølømarka" />
		<tag k="place" v="locality" />
		<tag k="ssr:stedsnr" v="824140" />
	</node>
	<node lat="62.21227499778113" lon="7.166974998819752" id="-9150">
		<tag k="name" v="Nygjerdet" />
		<tag k="place" v="locality" />
		<tag k="ssr:stedsnr" v="824385" />
	</node>
	<node lat="62.157391666722305" lon="7.177855552414945" id="-9153">
		<tag k="historic" v="shieling" />
		<tag k="name" v="Indresætra" />
		<tag k="place" v="locality" />
		<tag k="ssr:stedsnr" v="824393" />
	</node>
	<node lat="62.26652221835185" lon="7.161513885187434" id="-9157">
		<tag k="name" v="Svora" />
		<tag k="place" v="locality" />
		<tag k="ssr:stedsnr" v="824643" />
	</node>
	<node lat="62.36411666750119" lon="7.268388889540902" id="-9161">
		<tag k="name" v="Blåura" />
		<tag k="natural" v="scree" />
		<tag k="ssr:stedsnr" v="824848" />
	</node>
	<node lat="62.28603888763033" lon="7.1740222221378644" id="-9164">
		<tag k="name" v="Hundesva" />
		<tag k="place" v="locality" />
		<tag k="ssr:stedsnr" v="834077" />
	</node>
	<node lat="62.32361944214185" lon="7.333869444379798" id="-9173">
		<tag k="name" v="Seljefonnura" />
		<tag k="natural" v="scree" />
		<tag k="ssr:stedsnr" v="834367" />
	</node>
	<node lat="62.33185833566155" lon="7.479886110211269" id="-9182">
		<tag k="name" v="Bøplassen" />
		<tag k="place" v="locality" />
		<tag k="ssr:stedsnr" v="834679" />
	</node>
	<node lat="62.32939166887955" lon="7.4597583287296105" id="-9183">
		<tag k="name" v="Svortesteinane" />
		<tag k="natural" v="stone" />
		<tag k="ssr:stedsnr" v="834682" />
	</node>
	<node lat="62.339297225671395" lon="7.463466668920027" id="-9184">
		<tag k="name" v="Sæterura" />
		<tag k="natural" v="scree" />
		<tag k="ssr:stedsnr" v="834685" />
	</node>
	<node lat="62.282361107813784" lon="7.294377776166867" id="-9194">
		<tag k="name" v="Strengsteinen" />
		<tag k="natural" v="stone" />
		<tag k="ssr:stedsnr" v="835262" />
	</node>
	<node lat="62.33241389245047" lon="7.579844438304188" id="-9197">
		<tag k="historic" v="shieling" />
		<tag k="name" v="Fremsteløvollen" />
		<tag k="place" v="locality" />
		<tag k="ssr:stedsnr" v="835807" />
	</node>
	<node lat="62.291847223515525" lon="7.232711107183922" id="-9198">
		<tag k="name" v="Sildesteinen" />
		<tag k="natural" v="stone" />
		<tag k="ssr:stedsnr" v="835808" />
	</node>
	<node lat="62.24733889006781" lon="7.1901999942583625" id="-9235">
		<tag k="name" v="Storåsmyrane" />
		<tag k="natural" v="wetland" />
		<tag k="ssr:stedsnr" v="861241" />
	</node>
	<node lat="62.41450833280877" lon="6.874941662078781" id="-9258">
		<tag k="name" v="Heimyrane" />
		<tag k="natural" v="wetland" />
		<tag k="ssr:stedsnr" v="883899" />
	</node>
	<node lat="62.42225832983766" lon="6.985241665031281" id="-9264">
		<tag k="name" v="Fremstemyrane" />
		<tag k="natural" v="wetland" />
		<tag k="ssr:stedsnr" v="884411" />
	</node>
	<node lat="62.40351944678048" lon="7.0032277740641" id="-9265">
		<tag k="name" v="Botnamyra" />
		<tag k="natural" v="wetland" />
		<tag k="ssr:stedsnr" v="884541" />
	</node>
	<node lat="62.3810055563523" lon="7.0445194404763445" id="-9266">
		<tag k="name" v="Holtøyane" />
		<tag k="place" v="locality" />
		<tag k="ssr:stedsnr" v="885041" />
	</node>
	<node lat="62.26185833244634" lon="7.184597216446022" id="-9269">
		<tag k="name" v="Skredene" />
		<tag k="place" v="locality" />
		<tag k="ssr:stedsnr" v="885465" />
	</node>
	<node lat="62.41370833079656" lon="7.219688891151485" id="-9275">
		<tag k="name" v="Gardskroken" />
		<tag k="natural" v="wetland" />
		<tag k="ssr:stedsnr" v="885632" />
	</node>
	<node lat="62.379941668380354" lon="7.153277785124084" id="-9287">
		<tag k="name" v="Myrane" />
		<tag k="natural" v="wetland" />
		<tag k="ssr:stedsnr" v="945086" />
	</node>
	<node lat="62.39566944304541" lon="7.215072220198522" id="-9294">
		<tag k="name" v="Seljebotsmyrane" />
		<tag k="natural" v="wetland" />
		<tag k="ssr:stedsnr" v="945664" />
	</node>
	<node lat="62.2497916649792" lon="7.213625006427632" id="-9299">
		<tag k="name" v="Kaistemyra" />
		<tag k="natural" v="wetland" />
		<tag k="ssr:stedsnr" v="946352" />
	</node>
	<node lat="62.41040833415219" lon="7.224149999142457" id="-9302">
		<tag k="name" v="Hagardsmarkene" />
		<tag k="place" v="locality" />
		<tag k="ssr:stedsnr" v="946849" />
	</node>
	<node lat="62.28654444300859" lon="7.214002781835026" id="-9303">
		<tag k="name" v="Sildesteinen" />
		<tag k="natural" v="stone" />
		<tag k="ssr:stedsnr" v="955008" />
	</node>
	<node lat="62.284897220540124" lon="7.185172224778898" id="-9305">
		<tag k="name" v="Havsteinane" />
		<tag k="natural" v="stone" />
		<tag k="ssr:stedsnr" v="955069" />
	</node>
	<node lat="62.34700833772093" lon="7.351080563924241" id="-9307">
		<tag k="name" v="Storsteinen" />
		<tag k="natural" v="stone" />
		<tag k="ssr:stedsnr" v="955326" />
	</node>
	<node lat="62.320055553216015" lon="7.270436105579472" id="-9309">
		<tag k="name" v="Jamtefonna" />
		<tag k="place" v="locality" />
		<tag k="ssr:stedsnr" v="955629" />
	</node>
	<node lat="62.34742221975637" lon="7.400491674737415" id="-9312">
		<tag k="name" v="Bjørnasteinen" />
		<tag k="natural" v="stone" />
		<tag k="ssr:stedsnr" v="955649" />
	</node>
	<node lat="62.2968000028405" lon="7.333961101551704" id="-9326">
		<tag k="name" v="Ormura" />
		<tag k="natural" v="scree" />
		<tag k="ssr:stedsnr" v="956486" />
	</node>
	<node lat="62.18935833321319" lon="7.566966658558611" id="-9332">
		<tag k="name" v="Stormyra" />
		<tag k="natural" v="wetland" />
		<tag k="ssr:stedsnr" v="956767" />
	</node>
	<node lat="62.18366944387796" lon="7.49985833519503" id="-9334">
		<tag k="name" v="Storura" />
		<tag k="natural" v="scree" />
		<tag k="ssr:stedsnr" v="956982" />
	</node>
	<node lat="62.420519183609095" lon="7.227265739797563" id="-9359">
		<tag k="name" v="Kvitlegjerdet" />
		<tag k="place" v="locality" />
		<tag k="ssr:stedsnr" v="988875" />
=======
	<node id="-102151" lat="62.421411107" lon="6.96828055995">
		<tag k="name" v="Breiskreene" />
		<tag k="natural" v="wetland" />
		<tag k="ssr:stedsnr" v="34331" />
	</node>
	<node id="-102437" lat="62.3736916699" lon="7.56184444339">
		<tag k="historic" v="shieling" />
		<tag k="name" v="Litlestølen" />
		<tag k="place" v="locality" />
		<tag k="ssr:stedsnr" v="167866" />
	</node>
	<node id="-101412" lat="62.1662472262" lon="7.51879444921">
		<tag k="name" v="Gaddemyrane" />
		<tag k="natural" v="wetland" />
		<tag k="ssr:stedsnr" v="348221" />
	</node>
	<node id="-102738" lat="62.3705055556" lon="7.10012776937">
		<tag k="name" v="Holen" />
		<tag k="place" v="locality" />
		<tag k="ssr:stedsnr" v="520075" />
	</node>
	<node id="-102944" lat="62.2781055525" lon="7.39099167078">
		<tag k="name" v="Heggura" />
		<tag k="natural" v="scree" />
		<tag k="ssr:stedsnr" v="627912" />
	</node>
	<node id="-102576" lat="62.3738111072" lon="6.94300832784">
		<tag k="name" v="Sersjantura" />
		<tag k="natural" v="scree" />
		<tag k="ssr:stedsnr" v="519762" />
	</node>
	<node id="-102430" lat="62.3217972201" lon="7.37216667362">
		<tag k="name" v="Stikkfonna" />
		<tag k="place" v="locality" />
		<tag k="ssr:stedsnr" v="167145" />
	</node>
	<node id="-101125" lat="62.1726083378" lon="7.16109166635">
		<tag k="name" v="Longskreda" />
		<tag k="place" v="locality" />
		<tag k="ssr:stedsnr" v="277361" />
	</node>
	<node id="-101722" lat="62.1935138862" lon="7.33868056239">
		<tag k="name" v="Holane" />
		<tag k="natural" v="wetland" />
		<tag k="ssr:stedsnr" v="651535" />
	</node>
	<node id="-101401" lat="62.3811138921" lon="7.00959722478">
		<tag k="name" v="Kirkebøsandane" />
		<tag k="place" v="locality" />
		<tag k="ssr:stedsnr" v="519628" />
	</node>
	<node id="-102192" lat="62.2462055573" lon="7.17809721677">
		<tag k="name" v="Johansfonna" />
		<tag k="place" v="locality" />
		<tag k="ssr:stedsnr" v="217395" />
	</node>
	<node id="-103050" lat="62.3822555595" lon="7.02252500595">
		<tag k="name" v="Danmark" />
		<tag k="place" v="locality" />
		<tag k="ssr:stedsnr" v="762556" />
>>>>>>> e1d4bc35ff8a6074a6f2e91616a996b547c36f15
	</node>
</osm>
