<?xml version="1.0" encoding="UTF-8"?>
<osm version="0.6" generator="osmapis">
	<node lat="62.38255167226599" lon="7.000474631326574" id="-12195">
		<tag k="amenity" v="place_of_worship" />
		<tag k="denomination" v="lutheran" />
		<tag k="name" v="Stordal kyrkje" />
		<tag k="religion" v="christian" />
		<tag k="ssr:stedsnr" v="314710" />
	</node>
	<node lat="62.243208329233816" lon="7.119841666664908" id="-12359">
		<tag k="name" v="Haugsætra" />
		<tag k="place" v="locality" />
		<tag k="ssr:stedsnr" v="448828" />
	</node>
	<node lat="62.25600308576829" lon="7.237051088734695" id="-12644">
		<tag k="amenity" v="place_of_worship" />
		<tag k="denomination" v="lutheran" />
		<tag k="loc_name" v="Nordal" />
		<tag k="name" v="Norddal kyrkje" />
		<tag k="religion" v="christian" />
		<tag k="ssr:stedsnr" v="691122" />
	</node>
	<node lat="62.38349797210805" lon="6.970057530761943" id="-13278">
		<tag k="name" v="Nessteinen" />
		<tag k="place" v="locality" />
		<tag k="ssr:stedsnr" v="213359" />
	</node>
	<node lat="62.35202777463076" lon="7.089072218597058" id="-13878">
		<tag k="amenity" v="community_centre" />
		<tag k="name" v="Haggardshaugen" />
		<tag k="ssr:stedsnr" v="739563" />
	</node>
	<node lat="62.29932166571483" lon="7.262833321614211" id="-13884">
		<tag k="amenity" v="place_of_worship" />
		<tag k="denomination" v="lutheran" />
		<tag k="name" v="Sylte kyrkje" />
		<tag k="old_name" v="Valldal kyrkje" />
		<tag k="religion" v="christian" />
		<tag k="ssr:stedsnr" v="739851" />
	</node>
	<node lat="62.38314444791993" lon="7.133544438277297" id="-13992">
		<tag k="name" v="Bjørnehi" />
		<tag k="place" v="locality" />
		<tag k="ssr:stedsnr" v="824151" />
	</node>
	<node lat="62.383906441023015" lon="7.014412052684296" id="-14326">
		<tag k="amenity" v="place_of_worship" />
		<tag k="denomination" v="lutheran" />
		<tag k="name" v="Stordal" />
		<tag k="religion" v="christian" />
		<tag k="ssr:stedsnr" v="1081443" />
	</node>
</osm>
