<?xml version="1.0" encoding="UTF-8"?>
<osm generator="osmapis" version="0.6">
	<node id="-100340" lat="62.3716111091" lon="7.07920278425">
		<tag k="name" v="Erikgarden" />
		<tag k="place" v="farm" />
		<tag k="ssr:stedsnr" v="156077" />
	</node>
	<node id="-100321" lat="62.2961250003" lon="7.32793611648">
		<tag k="name" v="Sæterplassane" />
		<tag k="place" v="farm" />
		<tag k="ssr:stedsnr" v="141890" />
	</node>
	<node id="-100311" lat="62.3220448789" lon="7.31607690103">
		<tag k="fixme" v="consider place=hamlet" />
		<tag k="name" v="Valldalen" />
		<tag k="place" v="farm" />
		<tag k="ssr:stedsnr" v="132761" />
	</node>
	<node id="-100304" lat="62.4132628437" lon="6.89848800916">
		<tag k="fixme" v="consider place=hamlet" />
		<tag k="name" v="Skotet" />
		<tag k="place" v="farm" />
		<tag k="ssr:stedsnr" v="132652" />
	</node>
	<node id="-100303" lat="62.3044277796" lon="7.17722221965">
		<tag k="historic" v="shieling" />
		<tag k="name" v="Hogsetdalen" />
		<tag k="place" v="locality" />
		<tag k="ssr:stedsnr" v="132615" />
	</node>
	<node id="-100297" lat="62.2222858471" lon="7.15524911405">
		<tag k="fixme" v="consider place=hamlet" />
		<tag k="name" v="Kleiva" />
		<tag k="place" v="farm" />
		<tag k="ssr:stedsnr" v="132272" />
	</node>
	<node id="-100294" lat="62.1543472193" lon="7.43556945405">
		<tag k="historic" v="shieling" />
		<tag k="name" v="Kaldhussætra" />
		<tag k="place" v="locality" />
		<tag k="ssr:stedsnr" v="132040" />
	</node>
	<node id="-100293" lat="62.1728103675" lon="7.42911497625">
		<tag k="fixme" v="consider tourism=alpine_hut or tourism=chalet" />
		<tag k="name" v="Kaldhusseter" />
		<tag k="old_name" v="Kaldhussæter turisthytte" />
		<tag k="ssr:stedsnr" v="132025" />
		<tag k="tourism" v="wilderness_hut" />
	</node>
	<node id="-100288" lat="62.302516664" lon="7.33841944547">
		<tag k="historic" v="shieling" />
		<tag k="name" v="Nedstestølen" />
		<tag k="place" v="locality" />
		<tag k="ssr:stedsnr" v="131896" />
	</node>
	<node id="-100284" lat="62.3843638639" lon="7.20011033166">
		<tag k="fixme" v="consider place=hamlet" />
		<tag k="name" v="Langhaugen" />
		<tag k="place" v="farm" />
		<tag k="ssr:stedsnr" v="131720" />
	</node>
	<node id="-100283" lat="62.2241972266" lon="7.13213888568">
		<tag k="historic" v="shieling" />
		<tag k="name" v="Øygardssætra" />
		<tag k="place" v="locality" />
		<tag k="ssr:stedsnr" v="131281" />
	</node>
	<node id="-100257" lat="62.3431944462" lon="7.39759999088">
		<tag k="fixme" v="consider place=hamlet" />
		<tag k="name" v="Berlia" />
		<tag k="place" v="farm" />
		<tag k="ssr:stedsnr" v="106647" />
	</node>
	<node id="-100251" lat="62.3012305558" lon="7.31379722356">
		<tag k="name" v="Ytre Hauge" />
		<tag k="place" v="farm" />
		<tag k="ssr:stedsnr" v="106485" />
	</node>
	<node id="-100247" lat="62.2945055595" lon="7.31448055593">
		<tag k="amenity" v="school" />
		<tag k="name" v="Fjørå skule" />
		<tag k="ssr:stedsnr" v="106438" />
	</node>
	<node id="-100242" lat="62.3281833339" lon="7.38661388968">
		<tag k="historic" v="shieling" />
		<tag k="name" v="Småsætrane" />
		<tag k="place" v="locality" />
		<tag k="ssr:stedsnr" v="106274" />
	</node>
	<node id="-100240" lat="62.3263388874" lon="7.3455444424">
		<tag k="historic" v="shieling" />
		<tag k="name" v="Litlesætra" />
		<tag k="place" v="locality" />
		<tag k="ssr:stedsnr" v="106148" />
	</node>
	<node id="-100220" lat="62.3767277785" lon="7.1303166595">
		<tag k="historic" v="shieling" />
		<tag k="name" v="Haugaplassen" />
		<tag k="place" v="locality" />
		<tag k="ssr:stedsnr" v="95116" />
	</node>
	<node id="-100219" lat="62.3823083329" lon="7.16015000204">
		<tag k="historic" v="shieling" />
		<tag k="name" v="Gamlebøen" />
		<tag k="place" v="locality" />
		<tag k="ssr:stedsnr" v="95083" />
	</node>
	<node id="-100193" lat="62.2354131588" lon="7.04201798962">
		<tag k="alt_name" v="Smoge" />
		<tag k="name" v="Ytste Smoge" />
		<tag k="place" v="farm" />
		<tag k="ssr:stedsnr" v="72270" />
	</node>
	<node id="-100192" lat="62.2453088392" lon="7.16150679177">
		<tag k="name" v="Hjellane" />
		<tag k="place" v="hamlet" />
		<tag k="ssr:stedsnr" v="72260" />
	</node>
	<node id="-100189" lat="62.2966174608" lon="7.23156392355">
		<tag k="fixme" v="consider place=hamlet" />
		<tag k="name" v="Lingås" />
		<tag k="place" v="farm" />
		<tag k="ssr:stedsnr" v="71875" />
	</node>
	<node id="-100188" lat="62.3037444465" lon="7.34863333756">
		<tag k="historic" v="shieling" />
		<tag k="name" v="Nysætra" />
		<tag k="place" v="locality" />
		<tag k="ssr:stedsnr" v="71868" />
	</node>
	<node id="-100187" lat="62.302183821" lon="7.31824552743">
		<tag k="name" v="Hauge" />
		<tag k="place" v="hamlet" />
		<tag k="ssr:stedsnr" v="71865" />
	</node>
	<node id="-100183" lat="62.396430555" lon="7.12281388608">
		<tag k="historic" v="shieling" />
		<tag k="name" v="Botnastølen" />
		<tag k="place" v="locality" />
		<tag k="ssr:stedsnr" v="71753" />
	</node>
	<node id="-100181" lat="62.1810668529" lon="7.16211797544">
		<tag k="fixme" v="consider place=hamlet" />
		<tag k="name" v="Indreeide" />
		<tag k="place" v="farm" />
		<tag k="ssr:stedsnr" v="71374" />
	</node>
	<node id="-100159" lat="62.3378703372" lon="7.39244141544">
		<tag k="fixme" v="consider place=hamlet" />
		<tag k="name" v="Hol" />
		<tag k="place" v="farm" />
		<tag k="ssr:stedsnr" v="45283" />
	</node>
	<node id="-100124" lat="62.3799333367" lon="7.14833056432">
		<tag k="name" v="Haugplassen" />
		<tag k="place" v="locality" />
		<tag k="ssr:stedsnr" v="35130" />
	</node>
	<node id="-100123" lat="62.3781111078" lon="7.14159722341">
		<tag k="name" v="Støleplassen" />
		<tag k="place" v="locality" />
		<tag k="ssr:stedsnr" v="35126" />
	</node>
	<node id="-100121" lat="62.3885583377" lon="7.19311112033">
		<tag k="name" v="Plassebøen" />
		<tag k="place" v="locality" />
		<tag k="ssr:stedsnr" v="34838" />
	</node>
	<node id="-100109" lat="62.4350416636" lon="6.93773333646">
		<tag k="name" v="Fjellet" />
		<tag k="place" v="locality" />
		<tag k="ssr:stedsnr" v="34368" />
	</node>
	<node id="-100106" lat="62.4148138848" lon="6.94790555428">
		<tag k="name" v="Reiten" />
		<tag k="place" v="locality" />
		<tag k="ssr:stedsnr" v="34349" />
	</node>
	<node id="-100098" lat="62.3834305534" lon="6.97310833743">
		<tag k="name" v="Hovsstranda" />
		<tag k="place" v="hamlet" />
		<tag k="ssr:stedsnr" v="33775" />
	</node>
	<node id="-100092" lat="62.229061111" lon="7.13611666529">
		<tag k="historic" v="shieling" />
		<tag k="name" v="Framgardssætra" />
		<tag k="place" v="locality" />
		<tag k="ssr:stedsnr" v="23868" />
	</node>
	<node id="-100086" lat="62.2967055519" lon="7.23548888329">
		<tag k="name" v="Nybø" />
		<tag k="place" v="farm" />
		<tag k="ssr:stedsnr" v="11865" />
	</node>
	<node id="-100075" lat="62.2333611088" lon="7.16653888099">
		<tag k="historic" v="shieling" />
		<tag k="name" v="Veibergsætra" />
		<tag k="place" v="locality" />
		<tag k="ssr:stedsnr" v="11278" />
	</node>
	<node id="-100074" lat="62.2403166692" lon="7.17164167272">
		<tag k="historic" v="shieling" />
		<tag k="name" v="Storhjellsætra" />
		<tag k="place" v="locality" />
		<tag k="ssr:stedsnr" v="11269" />
	</node>
	<node id="-100072" lat="62.3857333295" lon="7.14549444254">
		<tag k="historic" v="shieling" />
		<tag k="name" v="Stølesætra" />
		<tag k="place" v="locality" />
		<tag k="ssr:stedsnr" v="10722" />
	</node>
	<node id="-98940" lat="62.3855515763" lon="7.01381281792">
		<tag k="fixme" v="consider place=hamlet" />
		<tag k="name" v="Midtbust" />
		<tag k="place" v="farm" />
		<tag k="ssr:stedsnr" v="11731" />
	</node>
	<node id="-100067" lat="62.4271144415" lon="6.9536373606">
		<tag k="fixme" v="consider place=hamlet" />
		<tag k="name" v="Ytresætra" />
		<tag k="place" v="farm" />
		<tag k="ssr:stedsnr" v="10683" />
	</node>
	<node id="-100062" lat="62.3851746917" lon="7.02939630559">
		<tag k="name" v="Øvrebust" />
		<tag k="place" v="farm" />
		<tag k="ssr:stedsnr" v="986085" />
	</node>
	<node id="-100061" lat="62.3855900582" lon="7.00790981684">
		<tag k="name" v="Midtbust" />
		<tag k="place" v="farm" />
		<tag k="ssr:stedsnr" v="986084" />
	</node>
	<node id="-100060" lat="62.3858266403" lon="7.0160409902">
		<tag k="name" v="Midtbust" />
		<tag k="place" v="farm" />
		<tag k="ssr:stedsnr" v="986083" />
	</node>
	<node id="-100059" lat="62.3857210894" lon="7.01156522173">
		<tag k="name" v="Midtbust" />
		<tag k="place" v="farm" />
		<tag k="ssr:stedsnr" v="986082" />
	</node>
	<node id="-100058" lat="62.38622692" lon="7.0151858586">
		<tag k="name" v="Midtbust" />
		<tag k="place" v="farm" />
		<tag k="ssr:stedsnr" v="986081" />
	</node>
	<node id="-100057" lat="62.3396981857" lon="7.09607959773">
		<tag k="name" v="Ekrane" />
		<tag k="place" v="farm" />
		<tag k="ssr:stedsnr" v="986079" />
	</node>
	<node id="-100056" lat="62.3408271892" lon="7.1087692127">
		<tag k="name" v="Rødsetsætra" />
		<tag k="place" v="farm" />
		<tag k="ssr:stedsnr" v="986077" />
	</node>
	<node id="-100055" lat="62.3439983745" lon="7.09598622179">
		<tag k="name" v="Rødset" />
		<tag k="place" v="farm" />
		<tag k="ssr:stedsnr" v="986074" />
	</node>
	<node id="-100053" lat="62.3844179833" lon="7.02374548858">
		<tag k="name" v="Øvrebust" />
		<tag k="place" v="farm" />
		<tag k="ssr:stedsnr" v="986095" />
	</node>
	<node id="-100052" lat="62.3842479666" lon="7.02188977997">
		<tag k="name" v="Øvrebust" />
		<tag k="place" v="farm" />
		<tag k="ssr:stedsnr" v="986093" />
	</node>
	<node id="-100051" lat="62.3844776567" lon="7.03122911438">
		<tag k="name" v="Øvrebust" />
		<tag k="place" v="farm" />
		<tag k="ssr:stedsnr" v="986092" />
	</node>
	<node id="-100050" lat="62.3839803796" lon="7.02622020026">
		<tag k="name" v="Øvrebust" />
		<tag k="place" v="farm" />
		<tag k="ssr:stedsnr" v="986091" />
	</node>
	<node id="-100049" lat="62.383577831" lon="7.03544113394">
		<tag k="name" v="Øvrebust" />
		<tag k="place" v="farm" />
		<tag k="ssr:stedsnr" v="986089" />
	</node>
	<node id="-100048" lat="62.383753337" lon="6.99219488303">
		<tag k="fixme" v="consider place=hamlet" />
		<tag k="name" v="Hove" />
		<tag k="place" v="farm" />
		<tag k="ssr:stedsnr" v="983643" />
	</node>
	<node id="-100047" lat="62.1738400703" lon="7.41946407042">
		<tag k="name" v="Storvik" />
		<tag k="place" v="locality" />
		<tag k="ssr:stedsnr" v="983491" />
	</node>
	<node id="-100045" lat="62.2325094202" lon="7.41570719606">
		<tag k="fixme" v="consider place=hamlet" />
		<tag k="name" v="Tafjord" />
		<tag k="place" v="farm" />
		<tag k="ssr:stedsnr" v="983486" />
	</node>
	<node id="-100043" lat="62.4259395734" lon="6.96696247546">
		<tag k="name" v="Øggarden" />
		<tag k="place" v="farm" />
		<tag k="ssr:stedsnr" v="982648" />
	</node>
	<node id="-100037" lat="62.3608544186" lon="7.08564724033">
		<tag k="fixme" v="consider place=hamlet" />
		<tag k="name" v="Løset" />
		<tag k="place" v="farm" />
		<tag k="ssr:stedsnr" v="921580" />
	</node>
	<node id="-100034" lat="62.3592916648" lon="7.09751944358">
		<tag k="historic" v="shieling" />
		<tag k="name" v="Løsetnakken" />
		<tag k="place" v="locality" />
		<tag k="ssr:stedsnr" v="921559" />
	</node>
	<node id="-100026" lat="62.3744333344" lon="7.07512500933">
		<tag k="name" v="Plassen" />
		<tag k="place" v="isolated_dwelling" />
		<tag k="ssr:stedsnr" v="217081" />
	</node>
	<node id="-100025" lat="62.3966055517" lon="7.11935000245">
		<tag k="historic" v="shieling" />
		<tag k="name" v="Jasvollstølen" />
		<tag k="place" v="locality" />
		<tag k="ssr:stedsnr" v="217071" />
	</node>
	<node id="-100008" lat="62.3802666682" lon="7.02068334093">
		<tag k="name" v="Flatmark" />
		<tag k="place" v="farm" />
		<tag k="ssr:stedsnr" v="883674" />
	</node>
	<node id="-100004" lat="62.1908972254" lon="7.16119999972">
		<tag k="fixme" v="multiple name tags, choose one and add the other to alt_name" />
		<tag k="name" v="Svora campingplass;Svora" />
		<tag k="ssr:stedsnr" v="873807" />
		<tag k="tourism" v="camp_site" />
	</node>
	<node id="-99973" lat="62.2330699692" lon="7.13764723115">
		<tag k="fixme" v="consider place=hamlet" />
		<tag k="name" v="Rønneberg" />
		<tag k="place" v="farm" />
		<tag k="ssr:stedsnr" v="861268" />
	</node>
	<node id="-99971" lat="62.3672830451" lon="7.08270825369">
		<tag k="fixme" v="consider place=hamlet" />
		<tag k="name" v="Vad" />
		<tag k="place" v="farm" />
		<tag k="ssr:stedsnr" v="861523" />
	</node>
	<node id="-99964" lat="62.2625805593" lon="7.17183611514">
		<tag k="name" v="Eidsdal" />
		<tag k="place" v="village" />
		<tag k="ssr:stedsnr" v="860918" />
	</node>
	<node id="-99955" lat="62.2477117832" lon="7.2189559288">
		<tag k="fixme" v="consider place=hamlet" />
		<tag k="name" v="Hatlestad" />
		<tag k="place" v="farm" />
		<tag k="ssr:stedsnr" v="860525" />
	</node>
	<node id="-99954" lat="62.2402333378" lon="7.26660278331">
		<tag k="name" v="Berg" />
		<tag k="place" v="farm" />
		<tag k="ssr:stedsnr" v="860523" />
	</node>
	<node id="-99938" lat="62.3316222233" lon="7.53193611355">
		<tag k="historic" v="shieling" />
		<tag k="name" v="Sagstølen" />
		<tag k="place" v="locality" />
		<tag k="ssr:stedsnr" v="835819" />
	</node>
	<node id="-99910" lat="62.4258722191" lon="7.2279055504">
		<tag k="historic" v="shieling" />
		<tag k="name" v="Puskestølen" />
		<tag k="place" v="locality" />
		<tag k="ssr:stedsnr" v="824659" />
	</node>
	<node id="-99904" lat="62.3816277805" lon="7.05060834187">
		<tag k="name" v="Holt" />
		<tag k="place" v="farm" />
		<tag k="ssr:stedsnr" v="824062" />
	</node>
	<node id="-99901" lat="62.3882694481" lon="7.17999167209">
		<tag k="name" v="Reiten" />
		<tag k="place" v="farm" />
		<tag k="ssr:stedsnr" v="823819" />
	</node>
	<node id="-99897" lat="62.4175609356" lon="6.94735600362">
		<tag k="alt_name" v="Viken;Flåen" />
		<tag k="fixme" v="consider place=hamlet" />
		<tag k="name" v="Vika" />
		<tag k="place" v="farm" />
		<tag k="ssr:stedsnr" v="823354" />
	</node>
	<node id="-99896" lat="62.2431611108" lon="7.24847777274">
		<tag k="name" v="Dunavollane" />
		<tag k="place" v="farm" />
		<tag k="ssr:stedsnr" v="931895" />
	</node>
	<node id="-99889" lat="62.358066664" lon="7.34750277749">
		<tag k="historic" v="shieling" />
		<tag k="name" v="Valldalssætra" />
		<tag k="place" v="locality" />
		<tag k="ssr:stedsnr" v="800775" />
	</node>
	<node id="-99885" lat="62.283077585" lon="7.31344662416">
		<tag k="fixme" v="consider place=hamlet" />
		<tag k="name" v="Osvika" />
		<tag k="place" v="farm" />
		<tag k="ssr:stedsnr" v="800844" />
	</node>
	<node id="-99884" lat="62.2933527795" lon="7.31609722738">
		<tag k="alt_name" v="Fjøra" />
		<tag k="fixme" v="consider place=hamlet" />
		<tag k="name" v="Fjørå" />
		<tag k="place" v="village" />
		<tag k="ssr:stedsnr" v="800837" />
	</node>
	<node id="-99876" lat="62.2129833375" lon="7.34430555954">
		<tag k="historic" v="shieling" />
		<tag k="name" v="Kallskarsætra" />
		<tag k="place" v="locality" />
		<tag k="ssr:stedsnr" v="800039" />
	</node>
	<node id="-99861" lat="62.3031944432" lon="7.24382776872">
		<tag k="name" v="Åse" />
		<tag k="place" v="farm" />
		<tag k="ssr:stedsnr" v="921852" />
	</node>
	<node id="-99859" lat="62.3406923633" lon="7.39024005517">
		<tag k="alt_name" v="Berli" />
		<tag k="name" v="Berlia" />
		<tag k="place" v="farm" />
		<tag k="ssr:stedsnr" v="921819" />
	</node>
	<node id="-99856" lat="62.3789555527" lon="7.55983056381">
		<tag k="name" v="Nedstestølen" />
		<tag k="place" v="isolated_dwelling" />
		<tag k="ssr:stedsnr" v="921797" />
	</node>
	<node id="-99855" lat="62.3122972243" lon="7.28256111239">
		<tag k="alt_name" v="Ødegård" />
		<tag k="name" v="Øygarden" />
		<tag k="place" v="farm" />
		<tag k="ssr:stedsnr" v="921784" />
	</node>
	<node id="-99854" lat="62.3356722242" lon="7.59561944364">
		<tag k="historic" v="shieling" />
		<tag k="name" v="Steindalsstølen" />
		<tag k="place" v="locality" />
		<tag k="ssr:stedsnr" v="921774" />
	</node>
	<node id="-99853" lat="62.3304370264" lon="7.3760364113">
		<tag k="fixme" v="consider place=hamlet" />
		<tag k="name" v="Heggen" />
		<tag k="place" v="farm" />
		<tag k="ssr:stedsnr" v="921770" />
	</node>
	<node id="-99851" lat="62.4010589751" lon="7.20951052475">
		<tag k="fixme" v="consider place=hamlet" />
		<tag k="name" v="Seljehaugen" />
		<tag k="place" v="farm" />
		<tag k="ssr:stedsnr" v="921751" />
	</node>
	<node id="-99849" lat="62.3719487464" lon="7.10408390874">
		<tag k="fixme" v="consider place=hamlet" />
		<tag k="name" v="Jasvoll" />
		<tag k="place" v="farm" />
		<tag k="ssr:stedsnr" v="921710" />
	</node>
	<node id="-99848" lat="62.2482393997" lon="7.24558443687">
		<tag k="fixme" v="consider place=hamlet" />
		<tag k="name" v="Dale" />
		<tag k="place" v="farm" />
		<tag k="ssr:stedsnr" v="921519" />
	</node>
	<node id="-99847" lat="62.2398772215" lon="7.26366343147">
		<tag k="fixme" v="consider place=hamlet" />
		<tag k="name" v="Engeset" />
		<tag k="place" v="farm" />
		<tag k="ssr:stedsnr" v="921516" />
	</node>
	<node id="-99828" lat="62.4134888908" lon="6.98181389268">
		<tag k="historic" v="shieling" />
		<tag k="name" v="Vikastølen" />
		<tag k="place" v="locality" />
		<tag k="ssr:stedsnr" v="921661" />
	</node>
	<node id="-99812" lat="62.246540654" lon="7.16058949317">
		<tag k="fixme" v="consider place=hamlet" />
		<tag k="name" v="Storhjelle" />
		<tag k="place" v="farm" />
		<tag k="ssr:stedsnr" v="763479" />
	</node>
	<node id="-99806" lat="62.3874027753" lon="7.18963334247">
		<tag k="name" v="Alnås" />
		<tag k="place" v="farm" />
		<tag k="ssr:stedsnr" v="759318" />
	</node>
	<node id="-99804" lat="62.2525166663" lon="7.47533054894">
		<tag k="historic" v="shieling" />
		<tag k="name" v="Muldalsætra" />
		<tag k="place" v="locality" />
		<tag k="ssr:stedsnr" v="740819" />
	</node>
	<node id="-99801" lat="62.2683574514" lon="7.36180500433">
		<tag k="fixme" v="consider place=hamlet" />
		<tag k="name" v="Korsnes" />
		<tag k="place" v="farm" />
		<tag k="ssr:stedsnr" v="739822" />
	</node>
	<node id="-99796" lat="62.2528433552" lon="7.18270237742">
		<tag k="alt_name" v="Storås" />
		<tag k="fixme" v="consider place=hamlet" />
		<tag k="name" v="Storåsen" />
		<tag k="place" v="farm" />
		<tag k="ssr:stedsnr" v="739924" />
	</node>
	<node id="-99795" lat="62.3383138902" lon="7.44332778529">
		<tag k="name" v="Holane" />
		<tag k="place" v="farm" />
		<tag k="ssr:stedsnr" v="739762" />
	</node>
	<node id="-99754" lat="62.3301916691" lon="7.33480834044">
		<tag k="name" v="Myklebost" />
		<tag k="place" v="farm" />
		<tag k="ssr:stedsnr" v="895274" />
	</node>
	<node id="-99730" lat="62.3962416632" lon="7.12264167263">
		<tag k="historic" v="shieling" />
		<tag k="name" v="Stavdalsstølen" />
		<tag k="place" v="locality" />
		<tag k="ssr:stedsnr" v="702063" />
	</node>
	<node id="-99724" lat="62.2363141148" lon="7.14181903094">
		<tag k="fixme" v="consider place=hamlet" />
		<tag k="name" v="Krikane" />
		<tag k="place" v="farm" />
		<tag k="ssr:stedsnr" v="885482" />
	</node>
	<node id="-99713" lat="62.3880305544" lon="7.17603611056">
		<tag k="historic" v="shieling" />
		<tag k="name" v="Litlestølen" />
		<tag k="place" v="locality" />
		<tag k="ssr:stedsnr" v="884839" />
	</node>
	<node id="-99699" lat="62.2519611124" lon="7.16604721255">
		<tag k="name" v="Nyhjelle" />
		<tag k="place" v="farm" />
		<tag k="ssr:stedsnr" v="678915" />
	</node>
	<node id="-99695" lat="62.333658077" lon="7.47094059579">
		<tag k="fixme" v="consider place=hamlet" />
		<tag k="name" v="Alstad" />
		<tag k="place" v="farm" />
		<tag k="ssr:stedsnr" v="678754" />
	</node>
	<node id="-99693" lat="62.4265333308" lon="6.99930555923">
		<tag k="historic" v="shieling" />
		<tag k="name" v="Gjerdsstølen" />
		<tag k="place" v="locality" />
		<tag k="ssr:stedsnr" v="678659" />
	</node>
	<node id="-99687" lat="62.1636083361" lon="7.43399444489">
		<tag k="name" v="Haugen" />
		<tag k="place" v="farm" />
		<tag k="ssr:stedsnr" v="678054" />
	</node>
	<node id="-99676" lat="62.2497222215" lon="7.2185638974">
		<tag k="name" v="Skagen" />
		<tag k="place" v="farm" />
		<tag k="ssr:stedsnr" v="651951" />
	</node>
	<node id="-99669" lat="62.4223388906" lon="7.25658332902">
		<tag k="name" v="Fokhaugstova" />
		<tag k="place" v="isolated_dwelling" />
		<tag k="ssr:stedsnr" v="728612" />
	</node>
	<node id="-99668" lat="62.3739231768" lon="6.93630758329">
		<tag k="fixme" v="consider place=hamlet" />
		<tag k="name" v="Stordalsholmen" />
		<tag k="place" v="farm" />
		<tag k="ssr:stedsnr" v="632971" />
	</node>
	<node id="-99665" lat="62.2951722263" lon="7.31375555463">
		<tag k="name" v="Vikane" />
		<tag k="place" v="farm" />
		<tag k="ssr:stedsnr" v="618829" />
	</node>
	<node id="-99657" lat="62.2747073652" lon="7.13602689464">
		<tag k="alt_name" v="Espehjelle;Ospehjellen" />
		<tag k="fixme" v="consider place=hamlet" />
		<tag k="name" v="Ospahjell" />
		<tag k="place" v="farm" />
		<tag k="ssr:stedsnr" v="617914" />
	</node>
	<node id="-99656" lat="62.3305830322" lon="7.35790503706">
		<tag k="fixme" v="consider place=hamlet" />
		<tag k="name" v="Hjelma" />
		<tag k="place" v="farm" />
		<tag k="ssr:stedsnr" v="617776" />
	</node>
	<node id="-99655" lat="62.3988916702" lon="6.88599999774">
		<tag k="historic" v="shieling" />
		<tag k="name" v="Vidhammarsætra" />
		<tag k="place" v="locality" />
		<tag k="ssr:stedsnr" v="617767" />
	</node>
	<node id="-99646" lat="62.4221632827" lon="6.94511029755">
		<tag k="fixme" v="consider place=hamlet" />
		<tag k="name" v="Nedre Dyrkorn" />
		<tag k="place" v="farm" />
		<tag k="ssr:stedsnr" v="719688" />
	</node>
	<node id="-99638" lat="62.2400944427" lon="7.4261527858">
		<tag k="historic" v="shieling" />
		<tag k="name" v="Høgsæterstølen" />
		<tag k="place" v="locality" />
		<tag k="ssr:stedsnr" v="713791" />
	</node>
	<node id="-99635" lat="62.346147219" lon="7.4272138976">
		<tag k="name" v="Øygarden" />
		<tag k="place" v="locality" />
		<tag k="ssr:stedsnr" v="713660" />
	</node>
	<node id="-99625" lat="62.3591777771" lon="7.34644999308">
		<tag k="historic" v="shieling" />
		<tag k="name" v="Hjellsætra" />
		<tag k="place" v="locality" />
		<tag k="ssr:stedsnr" v="713152" />
	</node>
	<node id="-99616" lat="62.3252333337" lon="7.33360000581">
		<tag k="name" v="Reiten" />
		<tag k="place" v="farm" />
		<tag k="ssr:stedsnr" v="712348" />
	</node>
	<node id="-99615" lat="62.3349249957" lon="7.34553333405">
		<tag k="name" v="Vidåttå" />
		<tag k="place" v="locality" />
		<tag k="ssr:stedsnr" v="712300" />
	</node>
	<node id="-99601" lat="62.3807194464" lon="7.15574721309">
		<tag k="name" v="Granheim" />
		<tag k="place" v="farm" />
		<tag k="ssr:stedsnr" v="581120" />
	</node>
	<node id="-99598" lat="62.4072944471" lon="7.12748610537">
		<tag k="historic" v="shieling" />
		<tag k="name" v="Findastølen" />
		<tag k="place" v="locality" />
		<tag k="ssr:stedsnr" v="581073" />
	</node>
	<node id="-99594" lat="62.3405472251" lon="7.140663889">
		<tag k="historic" v="shieling" />
		<tag k="name" v="Gamlestølen" />
		<tag k="place" v="locality" />
		<tag k="ssr:stedsnr" v="580457" />
	</node>
	<node id="-99579" lat="62.2225833337" lon="7.14446111556">
		<tag k="name" v="Nedstelia" />
		<tag k="place" v="farm" />
		<tag k="ssr:stedsnr" v="703411" />
	</node>
	<node id="-99568" lat="62.3822611145" lon="7.05209721234">
		<tag k="name" v="Holt" />
		<tag k="place" v="farm" />
		<tag k="ssr:stedsnr" v="702049" />
	</node>
	<node id="-99560" lat="62.3359500002" lon="7.12284723029">
		<tag k="historic" v="shieling" />
		<tag k="name" v="Øyesætra" />
		<tag k="place" v="locality" />
		<tag k="ssr:stedsnr" v="557502" />
	</node>
	<node id="-99559" lat="62.2326638971" lon="7.15018911197">
		<tag k="fixme" v="consider place=hamlet" />
		<tag k="name" v="Øye" />
		<tag k="place" v="farm" />
		<tag k="ssr:stedsnr" v="557273" />
	</node>
	<node id="-99558" lat="62.2289315994" lon="7.04889995697">
		<tag k="fixme" v="consider place=hamlet" />
		<tag k="name" v="Smogelia" />
		<tag k="place" v="farm" />
		<tag k="ssr:stedsnr" v="557267" />
	</node>
	<node id="-99551" lat="62.3824684623" lon="7.23163318389">
		<tag k="fixme" v="consider place=hamlet" />
		<tag k="loc_name" v="Seljebotnen" />
		<tag k="name" v="Seljebotn" />
		<tag k="place" v="farm" />
		<tag k="ssr:stedsnr" v="556960" />
	</node>
	<node id="-99549" lat="62.2800083356" lon="7.12862499698">
		<tag k="alt_name" v="Espehjellneset" />
		<tag k="name" v="Ospahjellneset" />
		<tag k="place" v="farm" />
		<tag k="ssr:stedsnr" v="556910" />
	</node>
	<node id="-99537" lat="62.2109729423" lon="7.44661125519">
		<tag k="fixme" v="multiple name tags, choose one and add the other to alt_name; consider place=hamlet" />
		<tag k="name" v="Heimste Rødal;Rødal" />
		<tag k="place" v="farm" />
		<tag k="ssr:stedsnr" v="556006" />
	</node>
	<node id="-99514" lat="62.4148255858" lon="6.8944158482">
		<tag k="fixme" v="multiple name tags, choose one and add the other to alt_name" />
		<tag k="name" v="Ytste Skotet;Skotet" />
		<tag k="place" v="farm" />
		<tag k="ssr:stedsnr" v="507923" />
	</node>
	<node id="-99513" lat="62.2439777746" lon="7.24677499672">
		<tag k="name" v="Heimste Dunavollen" />
		<tag k="place" v="farm" />
		<tag k="ssr:stedsnr" v="506882" />
	</node>
	<node id="-99511" lat="62.3944777807" lon="7.1904638872">
		<tag k="historic" v="shieling" />
		<tag k="name" v="Almåssætra" />
		<tag k="place" v="locality" />
		<tag k="ssr:stedsnr" v="496724" />
	</node>
	<node id="-99510" lat="62.3818377855" lon="6.98750581533">
		<tag k="alt_name" v="Hove" />
		<tag k="name" v="Ellinggarden" />
		<tag k="place" v="farm" />
		<tag k="ssr:stedsnr" v="496718" />
	</node>
	<node id="-99504" lat="62.1980398917" lon="7.15918212051">
		<tag k="fixme" v="consider place=hamlet" />
		<tag k="name" v="Årset" />
		<tag k="place" v="farm" />
		<tag k="ssr:stedsnr" v="496322" />
	</node>
	<node id="-99500" lat="62.3010396829" lon="7.30742014906">
		<tag k="alt_name" v="Sjølbøskor" />
		<tag k="fixme" v="consider place=hamlet" />
		<tag k="name" v="Sjølbørskor" />
		<tag k="old_name" v="Selboskar" />
		<tag k="place" v="farm" />
		<tag k="ssr:stedsnr" v="679836" />
	</node>
	<node id="-99495" lat="62.3348861123" lon="7.12072777041">
		<tag k="historic" v="shieling" />
		<tag k="name" v="Ekrestølen" />
		<tag k="place" v="locality" />
		<tag k="ssr:stedsnr" v="679482" />
	</node>
	<node id="-99494" lat="62.3399892193" lon="7.09651971448">
		<tag k="fixme" v="consider place=hamlet" />
		<tag k="name" v="Ekrane" />
		<tag k="place" v="farm" />
		<tag k="ssr:stedsnr" v="679478" />
	</node>
	<node id="-99490" lat="62.3291888226" lon="7.4702935123">
		<tag k="fixme" v="consider place=hamlet" />
		<tag k="name" v="Alstadsæter" />
		<tag k="place" v="farm" />
		<tag k="ssr:stedsnr" v="678752" />
	</node>
	<node id="-99488" lat="62.3440861084" lon="7.41759166901">
		<tag k="name" v="Furnes" />
		<tag k="place" v="farm" />
		<tag k="ssr:stedsnr" v="678744" />
	</node>
	<node id="-99487" lat="62.3393722213" lon="7.41760833638">
		<tag k="name" v="Holsætra" />
		<tag k="place" v="locality" />
		<tag k="ssr:stedsnr" v="678743" />
	</node>
	<node id="-99486" lat="62.40051321" lon="6.94795401818">
		<tag k="fixme" v="consider place=hamlet" />
		<tag k="name" v="Stavneset" />
		<tag k="place" v="farm" />
		<tag k="ssr:stedsnr" v="678730" />
	</node>
	<node id="-99484" lat="62.3789586091" lon="7.15018315215">
		<tag k="fixme" v="consider place=hamlet" />
		<tag k="name" v="Støle" />
		<tag k="place" v="farm" />
		<tag k="ssr:stedsnr" v="678701" />
	</node>
	<node id="-99480" lat="62.2501027757" lon="7.15522222475">
		<tag k="name" v="Hjellane" />
		<tag k="place" v="farm" />
		<tag k="ssr:stedsnr" v="678647" />
	</node>
	<node id="-99471" lat="62.1945743732" lon="7.15269034085">
		<tag k="fixme" v="consider place=hamlet" />
		<tag k="name" v="Eide" />
		<tag k="place" v="farm" />
		<tag k="ssr:stedsnr" v="678337" />
	</node>
	<node id="-99465" lat="62.1704999978" lon="7.5190777825">
		<tag k="name" v="Rødalssætra" />
		<tag k="place" v="isolated_dwelling" />
		<tag k="ssr:stedsnr" v="678044" />
	</node>
	<node id="-99456" lat="62.2961750014" lon="7.21281110245">
		<tag k="historic" v="shieling" />
		<tag k="name" v="Klovset" />
		<tag k="place" v="locality" />
		<tag k="ssr:stedsnr" v="469012" />
	</node>
	<node id="-99452" lat="62.3011858969" lon="7.26173046802">
		<tag k="fixme" v="consider place=hamlet" />
		<tag k="name" v="Sylte" />
		<tag k="place" v="farm" />
		<tag k="ssr:stedsnr" v="657375" />
	</node>
	<node id="-99449" lat="62.2824027739" lon="7.28862221463">
		<tag k="name" v="Kvernhusneset" />
		<tag k="place" v="farm" />
		<tag k="ssr:stedsnr" v="436859" />
	</node>
	<node id="-99443" lat="62.3687745491" lon="6.94766712973">
		<tag k="fixme" v="consider place=hamlet" />
		<tag k="loc_name" v="Holmehals" />
		<tag k="name" v="Øvstholmen" />
		<tag k="place" v="farm" />
		<tag k="ssr:stedsnr" v="435724" />
	</node>
	<node id="-99440" lat="62.4364868035" lon="6.91372871424">
		<tag k="name" v="Bjørkeneset" />
		<tag k="place" v="locality" />
		<tag k="ssr:stedsnr" v="435710" />
	</node>
	<node id="-99438" lat="62.3764666663" lon="7.63804166739">
		<tag k="name" v="Osvika" />
		<tag k="place" v="locality" />
		<tag k="ssr:stedsnr" v="435805" />
	</node>
	<node id="-99417" lat="62.4090682594" lon="7.2136545146">
		<tag k="fixme" v="consider place=hamlet" />
		<tag k="name" v="Øverøyane" />
		<tag k="place" v="farm" />
		<tag k="ssr:stedsnr" v="374755" />
	</node>
	<node id="-99416" lat="62.3803805241" lon="7.05866656031">
		<tag k="fixme" v="consider place=hamlet" />
		<tag k="name" v="Storheim" />
		<tag k="place" v="farm" />
		<tag k="ssr:stedsnr" v="374711" />
	</node>
	<node id="-99414" lat="62.2191527785" lon="7.14256665727">
		<tag k="name" v="Øvstelia" />
		<tag k="place" v="farm" />
		<tag k="ssr:stedsnr" v="374318" />
	</node>
	<node id="-99412" lat="62.2514652862" lon="7.23221701254">
		<tag k="fixme" v="consider place=hamlet" />
		<tag k="name" v="Rellingen" />
		<tag k="place" v="farm" />
		<tag k="ssr:stedsnr" v="497840" />
	</node>
	<node id="-99408" lat="62.3005149114" lon="7.29608100485">
		<tag k="fixme" v="consider place=hamlet" />
		<tag k="name" v="Ruset" />
		<tag k="place" v="farm" />
		<tag k="ssr:stedsnr" v="496843" />
	</node>
	<node id="-99407" lat="62.302686016" lon="7.24377825911">
		<tag k="fixme" v="consider place=hamlet" />
		<tag k="name" v="Muriås" />
		<tag k="place" v="farm" />
		<tag k="ssr:stedsnr" v="496841" />
	</node>
	<node id="-99405" lat="62.3855527765" lon="7.57690276829">
		<tag k="name" v="Øvstestølen" />
		<tag k="place" v="isolated_dwelling" />
		<tag k="ssr:stedsnr" v="496791" />
	</node>
	<node id="-99399" lat="62.4171780213" lon="6.95443198691">
		<tag k="fixme" v="consider place=hamlet" />
		<tag k="name" v="Indresætra" />
		<tag k="place" v="farm" />
		<tag k="ssr:stedsnr" v="496646" />
	</node>
	<node id="-99387" lat="62.2200000034" lon="7.25333611805">
		<tag k="historic" v="shieling" />
		<tag k="name" v="Innsetsætra" />
		<tag k="place" v="locality" />
		<tag k="ssr:stedsnr" v="496015" />
	</node>
	<node id="-99358" lat="62.3470138912" lon="7.09176388554">
		<tag k="name" v="Bjørkheim" />
		<tag k="place" v="farm" />
		<tag k="ssr:stedsnr" v="333820" />
	</node>
	<node id="-99356" lat="62.4127992805" lon="6.90240142635">
		<tag k="name" v="Me-Skotet" />
		<tag k="place" v="farm" />
		<tag k="ssr:stedsnr" v="325910" />
	</node>
	<node id="-99349" lat="62.2847555522" lon="7.38240556052">
		<tag k="historic" v="shieling" />
		<tag k="name" v="Heggurdalen" />
		<tag k="place" v="locality" />
		<tag k="ssr:stedsnr" v="315860" />
	</node>
	<node id="-99342" lat="62.3189999984" lon="7.32187777714">
		<tag k="name" v="Døving" />
		<tag k="place" v="farm" />
		<tag k="ssr:stedsnr" v="314770" />
	</node>
	<node id="-99341" lat="62.3208638916" lon="7.38675555947">
		<tag k="historic" v="shieling" />
		<tag k="name" v="Hjelmesætra" />
		<tag k="place" v="locality" />
		<tag k="ssr:stedsnr" v="314767" />
	</node>
	<node id="-99340" lat="62.3327804106" lon="7.35947746942">
		<tag k="fixme" v="consider place=hamlet" />
		<tag k="name" v="Omnos" />
		<tag k="place" v="farm" />
		<tag k="ssr:stedsnr" v="314761" />
	</node>
	<node id="-99337" lat="62.3382280988" lon="7.43461474335">
		<tag k="fixme" v="consider place=hamlet" />
		<tag k="name" v="Remset" />
		<tag k="place" v="farm" />
		<tag k="ssr:stedsnr" v="314752" />
	</node>
	<node id="-99331" lat="62.1951166636" lon="7.13921945059">
		<tag k="name" v="Solvang" />
		<tag k="ssr:stedsnr" v="314354" />
		<tag k="tourism" v="camp_site" />
	</node>
	<node id="-101196" lat="62.1606277793" lon="7.43670000176">
		<tag k="historic" v="shieling" />
		<tag k="name" v="Ole-Berntstølane" />
		<tag k="place" v="locality" />
		<tag k="ssr:stedsnr" v="956110" />
	</node>
	<node id="-99258" lat="62.2504499971" lon="7.17501111895">
		<tag k="name" v="Stølen" />
		<tag k="place" v="farm" />
		<tag k="ssr:stedsnr" v="460520" />
	</node>
	<node id="-99253" lat="62.3800138921" lon="7.1509416699">
		<tag k="name" v="Tegeplassen" />
		<tag k="place" v="locality" />
		<tag k="ssr:stedsnr" v="460146" />
	</node>
	<node id="-99252" lat="62.376361112" lon="7.13248888254">
		<tag k="name" v="Nygarden" />
		<tag k="place" v="farm" />
		<tag k="ssr:stedsnr" v="460143" />
	</node>
	<node id="-99251" lat="62.374505559" lon="7.1182583313">
		<tag k="name" v="Stavåplassen" />
		<tag k="place" v="farm" />
		<tag k="ssr:stedsnr" v="460138" />
	</node>
	<node id="-99247" lat="62.3713444408" lon="7.10189721772">
		<tag k="name" v="Ytstegarden" />
		<tag k="place" v="farm" />
		<tag k="ssr:stedsnr" v="460111" />
	</node>
	<node id="-99246" lat="62.4608833298" lon="7.20773888216">
		<tag k="historic" v="shieling" />
		<tag k="name" v="Nilsstølen" />
		<tag k="place" v="locality" />
		<tag k="ssr:stedsnr" v="460104" />
	</node>
	<node id="-99239" lat="62.3686944418" lon="7.08426110901">
		<tag k="name" v="Holen" />
		<tag k="place" v="farm" />
		<tag k="ssr:stedsnr" v="459514" />
	</node>
	<node id="-99238" lat="62.3647888869" lon="7.15254999807">
		<tag k="historic" v="shieling" />
		<tag k="name" v="Gamlesætra" />
		<tag k="place" v="locality" />
		<tag k="ssr:stedsnr" v="459513" />
	</node>
	<node id="-99226" lat="62.366436112" lon="6.94510278179">
		<tag k="name" v="Øygarden" />
		<tag k="place" v="locality" />
		<tag k="ssr:stedsnr" v="458771" />
	</node>
	<node id="-99213" lat="62.2741129874" lon="7.33992651602">
		<tag k="fixme" v="consider place=hamlet" />
		<tag k="name" v="Kastet" />
		<tag k="place" v="farm" />
		<tag k="ssr:stedsnr" v="254857" />
	</node>
	<node id="-99211" lat="62.3475420459" lon="7.08894353035">
		<tag k="fixme" v="consider place=hamlet" />
		<tag k="name" v="Øyane" />
		<tag k="old_name" v="Trettøyane;Trætøie" />
		<tag k="place" v="farm" />
		<tag k="ssr:stedsnr" v="254518" />
	</node>
	<node id="-99209" lat="62.2420922807" lon="7.141115938">
		<tag k="fixme" v="consider place=hamlet" />
		<tag k="name" v="Hesthaugen" />
		<tag k="place" v="farm" />
		<tag k="ssr:stedsnr" v="254252" />
	</node>
	<node id="-99202" lat="62.1051861156" lon="7.52835833589">
		<tag k="fixme" v="consider tourism=alpine_hut or tourism=chalet" />
		<tag k="name" v="Danskehytta" />
		<tag k="ssr:stedsnr" v="446933" />
		<tag k="tourism" v="wilderness_hut" />
	</node>
	<node id="-99201" lat="62.2394555582" lon="7.25841945286">
		<tag k="name" v="Prestegarden" />
		<tag k="place" v="farm" />
		<tag k="ssr:stedsnr" v="228862" />
	</node>
	<node id="-101242" lat="62.3844468394" lon="6.98736552096">
		<tag k="name" v="Andersgarden" />
		<tag k="place" v="farm" />
		<tag k="ssr:stedsnr" v="1074497" />
	</node>
	<node id="-101233" lat="62.234136412" lon="7.04303195369">
		<tag k="fixme" v="consider place=hamlet" />
		<tag k="name" v="Smoge" />
		<tag k="place" v="farm" />
		<tag k="ssr:stedsnr" v="983621" />
	</node>
	<node id="-101232" lat="62.259041267" lon="7.03425533291">
		<tag k="name" v="Raudbergvika" />
		<tag k="place" v="locality" />
		<tag k="ssr:stedsnr" v="983620" />
	</node>
	<node id="-101231" lat="62.2064643613" lon="7.13679525588">
		<tag k="name" v="Fredheim" />
		<tag k="place" v="isolated_dwelling" />
		<tag k="ssr:stedsnr" v="976609" />
	</node>
	<node id="-99182" lat="62.4208207536" lon="6.95684672063">
		<tag k="fixme" v="consider place=hamlet" />
		<tag k="name" v="Øvre Dyrkorn" />
		<tag k="place" v="farm" />
		<tag k="ssr:stedsnr" v="294727" />
	</node>
	<node id="-101226" lat="62.29024577" lon="7.22461177791">
		<tag k="name" v="Negarden" />
		<tag k="place" v="farm" />
		<tag k="ssr:stedsnr" v="976604" />
	</node>
	<node id="-101219" lat="62.3852839294" lon="6.99127681308">
		<tag k="name" v="Toregarden" />
		<tag k="place" v="farm" />
		<tag k="ssr:stedsnr" v="975600" />
	</node>
	<node id="-101218" lat="62.4211959604" lon="6.94911532792">
		<tag k="name" v="Bakkeplassen" />
		<tag k="place" v="farm" />
		<tag k="ssr:stedsnr" v="975598" />
	</node>
	<node id="-101217" lat="62.3817169773" lon="6.9897370728">
		<tag k="name" v="Nilsgarden" />
		<tag k="place" v="farm" />
		<tag k="ssr:stedsnr" v="975594" />
	</node>
	<node id="-101201" lat="62.3208027797" lon="7.38709166067">
		<tag k="historic" v="shieling" />
		<tag k="name" v="Hjelmasætra" />
		<tag k="place" v="locality" />
		<tag k="ssr:stedsnr" v="956144" />
	</node>
	<node id="-99148" lat="62.3276750017" lon="7.50600277732">
		<tag k="name" v="Utigarden" />
		<tag k="place" v="farm" />
		<tag k="ssr:stedsnr" v="288637" />
	</node>
	<node id="-101179" lat="62.3333888885" lon="7.37694721514">
		<tag k="name" v="Gjerde" />
		<tag k="place" v="farm" />
		<tag k="ssr:stedsnr" v="955277" />
	</node>
	<node id="-99130" lat="62.207652778" lon="7.43220278217">
		<tag k="historic" v="shieling" />
		<tag k="name" v="Stølen" />
		<tag k="place" v="locality" />
		<tag k="ssr:stedsnr" v="288105" />
	</node>
	<node id="-99127" lat="62.2001972181" lon="7.49030555145">
		<tag k="name" v="Nedstedalsjuvet" />
		<tag k="place" v="farm" />
		<tag k="ssr:stedsnr" v="167961" />
	</node>
	<node id="-101171" lat="62.3274750041" lon="7.50591111575">
		<tag k="name" v="Grønning" />
		<tag k="place" v="farm" />
		<tag k="ssr:stedsnr" v="861758" />
	</node>
	<node id="-101170" lat="62.3369003808" lon="7.55945141347">
		<tag k="fixme" v="consider place=hamlet" />
		<tag k="name" v="Grønningsæter" />
		<tag k="place" v="farm" />
		<tag k="ssr:stedsnr" v="861745" />
	</node>
	<node id="-101169" lat="62.3319913337" lon="7.33898362993">
		<tag k="fixme" v="consider place=hamlet" />
		<tag k="name" v="Myklebost" />
		<tag k="place" v="farm" />
		<tag k="ssr:stedsnr" v="861743" />
	</node>
	<node id="-101168" lat="62.334915341" lon="7.45721935154">
		<tag k="fixme" v="consider place=hamlet" />
		<tag k="name" v="Myra" />
		<tag k="place" v="farm" />
		<tag k="ssr:stedsnr" v="861742" />
	</node>
	<node id="-101159" lat="62.2997083334" lon="7.24372221787">
		<tag k="name" v="Nerås" />
		<tag k="place" v="farm" />
		<tag k="ssr:stedsnr" v="860871" />
	</node>
	<node id="-101157" lat="62.382698833" lon="7.17257741391">
		<tag k="fixme" v="consider place=hamlet" />
		<tag k="name" v="Nakken" />
		<tag k="place" v="farm" />
		<tag k="ssr:stedsnr" v="860733" />
	</node>
	<node id="-99108" lat="62.3345277784" lon="7.46278611459">
		<tag k="name" v="Raten" />
		<tag k="place" v="farm" />
		<tag k="ssr:stedsnr" v="166669" />
	</node>
	<node id="-101155" lat="62.3744337092" lon="7.13832489349">
		<tag k="fixme" v="consider place=hamlet" />
		<tag k="name" v="Telberg" />
		<tag k="place" v="farm" />
		<tag k="ssr:stedsnr" v="860727" />
	</node>
	<node id="-101149" lat="62.3489305562" lon="7.35700833299">
		<tag k="historic" v="shieling" />
		<tag k="name" v="Omnossætra" />
		<tag k="place" v="locality" />
		<tag k="ssr:stedsnr" v="860831" />
	</node>
	<node id="-101148" lat="62.3497777818" lon="7.34817221706">
		<tag k="historic" v="shieling" />
		<tag k="name" v="Heimsætra" />
		<tag k="place" v="locality" />
		<tag k="ssr:stedsnr" v="860828" />
	</node>
	<node id="-99098" lat="62.4212750027" lon="7.23398611602">
		<tag k="historic" v="shieling" />
		<tag k="name" v="Langsætrane" />
		<tag k="place" v="locality" />
		<tag k="ssr:stedsnr" v="278690" />
	</node>
	<node id="-99089" lat="62.3702777762" lon="7.08238332409">
		<tag k="name" v="Litlebakken" />
		<tag k="place" v="farm" />
		<tag k="ssr:stedsnr" v="278083" />
	</node>
	<node id="-101136" lat="62.3259527739" lon="7.34918332854">
		<tag k="historic" v="shieling" />
		<tag k="name" v="Gamlesætra" />
		<tag k="place" v="locality" />
		<tag k="ssr:stedsnr" v="835140" />
	</node>
	<node id="-99084" lat="62.3693777804" lon="7.0826611024">
		<tag k="name" v="Mo" />
		<tag k="place" v="farm" />
		<tag k="ssr:stedsnr" v="277536" />
	</node>
	<node id="-99082" lat="62.4299111108" lon="6.99351111279">
		<tag k="historic" v="shieling" />
		<tag k="name" v="Puskesætra" />
		<tag k="place" v="locality" />
		<tag k="ssr:stedsnr" v="277431" />
	</node>
	<node id="-101123" lat="62.2273555525" lon="7.04193333724">
		<tag k="name" v="Smogelinaustet" />
		<tag k="place" v="locality" />
		<tag k="ssr:stedsnr" v="834101" />
	</node>
	<node id="-99065" lat="62.2903000021" lon="7.22593610872">
		<tag k="fixme" v="consider place=hamlet" />
		<tag k="name" v="Linge" />
		<tag k="place" v="village" />
		<tag k="ssr:stedsnr" v="132850" />
	</node>
	<node id="-99064" lat="62.2933674274" lon="7.2881895239">
		<tag k="fixme" v="consider place=hamlet" />
		<tag k="name" v="Vika" />
		<tag k="place" v="farm" />
		<tag k="ssr:stedsnr" v="132849" />
	</node>
	<node id="-99057" lat="62.4225593478" lon="6.95627942081">
		<tag k="fixme" v="consider place=hamlet" />
		<tag k="name" v="Gjerdet" />
		<tag k="place" v="farm" />
		<tag k="ssr:stedsnr" v="131672" />
	</node>
	<node id="-99056" lat="62.4301388858" lon="6.99468610405">
		<tag k="historic" v="shieling" />
		<tag k="name" v="Pusken" />
		<tag k="old_name" v="Puskestølen" />
		<tag k="place" v="locality" />
		<tag k="ssr:stedsnr" v="131670" />
	</node>
	<node id="-99055" lat="62.3842694481" lon="7.18252499373">
		<tag k="historic" v="shieling" />
		<tag k="name" v="Nakkesætra" />
		<tag k="place" v="locality" />
		<tag k="ssr:stedsnr" v="131719" />
	</node>
	<node id="-99052" lat="62.3718064416" lon="6.88979362069">
		<tag k="fixme" v="consider place=hamlet" />
		<tag k="name" v="Skjortneset" />
		<tag k="place" v="farm" />
		<tag k="ssr:stedsnr" v="131710" />
	</node>
	<node id="-99049" lat="62.2525169191" lon="7.47533394441">
		<tag k="historic" v="shieling" />
		<tag k="name" v="Muldalssætra" />
		<tag k="place" v="locality" />
		<tag k="ssr:stedsnr" v="263905" />
	</node>
	<node id="-101093" lat="62.2696611128" lon="7.60472221767">
		<tag k="name" v="Illstighytta" />
		<tag k="place" v="isolated_dwelling" />
		<tag k="ssr:stedsnr" v="809916" />
	</node>
	<node id="-101092" lat="62.4264499982" lon="7.2274638888">
		<tag k="historic" v="shieling" />
		<tag k="name" v="Pusken" />
		<tag k="place" v="locality" />
		<tag k="ssr:stedsnr" v="800995" />
	</node>
	<node id="-101090" lat="62.3266777774" lon="7.54416944411">
		<tag k="historic" v="shieling" />
		<tag k="name" v="Djupdalsstølen" />
		<tag k="place" v="locality" />
		<tag k="ssr:stedsnr" v="800745" />
	</node>
	<node id="-101089" lat="62.3203472243" lon="7.24979444974">
		<tag k="historic" v="shieling" />
		<tag k="name" v="Jamtesætra" />
		<tag k="place" v="locality" />
		<tag k="ssr:stedsnr" v="800740" />
	</node>
	<node id="-101088" lat="62.3178833291" lon="7.2446111205">
		<tag k="historic" v="shieling" />
		<tag k="name" v="Berdalssætra" />
		<tag k="place" v="locality" />
		<tag k="ssr:stedsnr" v="800739" />
	</node>
	<node id="-101087" lat="62.3448168897" lon="7.5511159642">
		<tag k="fixme" v="consider place=hamlet" />
		<tag k="name" v="Høyhjellane" />
		<tag k="place" v="farm" />
		<tag k="ssr:stedsnr" v="800719" />
	</node>
	<node id="-99038" lat="62.3823472203" lon="7.04494999248">
		<tag k="name" v="Holtleite" />
		<tag k="place" v="farm" />
		<tag k="ssr:stedsnr" v="96060" />
	</node>
	<node id="-101085" lat="62.3872478023" lon="6.88020347077">
		<tag k="fixme" v="consider place=hamlet" />
		<tag k="name" v="Korsadalen" />
		<tag k="place" v="farm" />
		<tag k="ssr:stedsnr" v="800704" />
	</node>
	<node id="-101084" lat="62.3860888862" lon="6.96693055755">
		<tag k="name" v="Nesplassen" />
		<tag k="place" v="locality" />
		<tag k="ssr:stedsnr" v="800701" />
	</node>
	<node id="-99035" lat="62.3362861113" lon="7.12073054883">
		<tag k="historic" v="shieling" />
		<tag k="name" v="Ekresætra" />
		<tag k="place" v="locality" />
		<tag k="ssr:stedsnr" v="95415" />
	</node>
	<node id="-101082" lat="62.3820250019" lon="6.98629166356">
		<tag k="loc_name" v="Stordalen" />
		<tag k="name" v="Stordal" />
		<tag k="place" v="village" />
		<tag k="ssr:stedsnr" v="800693" />
	</node>
	<node id="-101080" lat="62.2772472211" lon="7.32094444567">
		<tag k="historic" v="shieling" />
		<tag k="name" v="Kastesætra" />
		<tag k="place" v="locality" />
		<tag k="ssr:stedsnr" v="800851" />
	</node>
	<node id="-101079" lat="62.3677805559" lon="7.14985278643">
		<tag k="historic" v="shieling" />
		<tag k="name" v="Telbergsætra" />
		<tag k="place" v="locality" />
		<tag k="ssr:stedsnr" v="800552" />
	</node>
	<node id="-101078" lat="62.3608333309" lon="6.96606944284">
		<tag k="historic" v="shieling" />
		<tag k="name" v="Holmesætra" />
		<tag k="place" v="locality" />
		<tag k="ssr:stedsnr" v="800548" />
	</node>
	<node id="-99027" lat="62.2483138864" lon="7.17562500375">
		<tag k="historic" v="shieling" />
		<tag k="name" v="Toresætra" />
		<tag k="place" v="locality" />
		<tag k="ssr:stedsnr" v="254240" />
	</node>
	<node id="-101073" lat="62.2693500002" lon="7.08325277618">
		<tag k="historic" v="shieling" />
		<tag k="name" v="Verpesdalssætra" />
		<tag k="place" v="locality" />
		<tag k="ssr:stedsnr" v="800578" />
	</node>
	<node id="-101070" lat="62.2366203992" lon="7.15556554311">
		<tag k="fixme" v="consider place=hamlet" />
		<tag k="name" v="Veiberg" />
		<tag k="place" v="farm" />
		<tag k="ssr:stedsnr" v="800274" />
	</node>
	<node id="-99021" lat="62.3147170947" lon="7.30065437177">
		<tag k="alt_name" v="Døving" />
		<tag k="fixme" v="consider place=hamlet" />
		<tag k="name" v="Døvingen" />
		<tag k="place" v="farm" />
		<tag k="ssr:stedsnr" v="253794" />
	</node>
	<node id="-99020" lat="62.3954944443" lon="7.01830833142">
		<tag k="historic" v="shieling" />
		<tag k="name" v="Midtbustsætra" />
		<tag k="place" v="locality" />
		<tag k="ssr:stedsnr" v="253762" />
	</node>
	<node id="-99018" lat="62.3754964025" lon="7.12667896107">
		<tag k="fixme" v="consider place=hamlet" />
		<tag k="name" v="Stavdal" />
		<tag k="place" v="farm" />
		<tag k="ssr:stedsnr" v="253709" />
	</node>
	<node id="-99017" lat="62.4260921238" lon="6.95983671061">
		<tag k="fixme" v="consider place=hamlet" />
		<tag k="name" v="Framsætra" />
		<tag k="place" v="farm" />
		<tag k="ssr:stedsnr" v="253680" />
	</node>
	<node id="-101062" lat="62.3188222192" lon="7.40606667346">
		<tag k="historic" v="shieling" />
		<tag k="name" v="Heggjesætra" />
		<tag k="place" v="locality" />
		<tag k="ssr:stedsnr" v="799802" />
	</node>
	<node id="-99013" lat="62.2444833303" lon="7.23051111064">
		<tag k="name" v="Hatlestadgjerdet" />
		<tag k="place" v="farm" />
		<tag k="ssr:stedsnr" v="253527" />
	</node>
	<node id="-99011" lat="62.1973611125" lon="7.12402777509">
		<tag k="name" v="Skusetsætra" />
		<tag k="place" v="locality" />
		<tag k="ssr:stedsnr" v="253375" />
	</node>
	<node id="-101056" lat="62.4112102612" lon="6.91270001835">
		<tag k="fixme" v="consider place=hamlet" />
		<tag k="name" v="Skotshalsen" />
		<tag k="place" v="farm" />
		<tag k="ssr:stedsnr" v="799665" />
	</node>
	<node id="-101055" lat="62.2113520951" lon="7.13860325763">
		<tag k="fixme" v="consider place=hamlet" />
		<tag k="name" v="Berge" />
		<tag k="place" v="farm" />
		<tag k="ssr:stedsnr" v="799321" />
	</node>
	<node id="-99006" lat="62.2010025542" lon="7.43774503214">
		<tag k="fixme" v="consider place=hamlet" />
		<tag k="name" v="Kaldhusdalen" />
		<tag k="place" v="farm" />
		<tag k="ssr:stedsnr" v="253011" />
	</node>
	<node id="-101051" lat="62.185630557" lon="7.49786110241">
		<tag k="historic" v="shieling" />
		<tag k="name" v="Stølen" />
		<tag k="place" v="locality" />
		<tag k="ssr:stedsnr" v="774971" />
	</node>
	<node id="-101049" lat="62.200205552" lon="7.54863333002">
		<tag k="historic" v="shieling" />
		<tag k="name" v="Heimsætra" />
		<tag k="place" v="locality" />
		<tag k="ssr:stedsnr" v="774689" />
	</node>
	<node id="-99000" lat="62.2563520093" lon="7.43571371167">
		<tag k="fixme" v="consider place=hamlet" />
		<tag k="name" v="Muldal" />
		<tag k="place" v="farm" />
		<tag k="ssr:stedsnr" v="72809" />
	</node>
	<node id="-98999" lat="62.2519399679" lon="7.47875675427">
		<tag k="historic" v="shieling" />
		<tag k="name" v="Tafjordsætra" />
		<tag k="place" v="locality" />
		<tag k="ssr:stedsnr" v="72807" />
	</node>
	<node id="-98998" lat="62.3257638922" lon="7.33182778296">
		<tag k="fixme" v="consider place=hamlet" />
		<tag k="name" v="Bjorstad" />
		<tag k="place" v="farm" />
		<tag k="ssr:stedsnr" v="72747" />
	</node>
	<node id="-98997" lat="62.321755558" lon="7.48041110879">
		<tag k="historic" v="shieling" />
		<tag k="name" v="Alstadsætra" />
		<tag k="place" v="locality" />
		<tag k="ssr:stedsnr" v="72745" />
	</node>
	<node id="-98996" lat="62.3388333351" lon="7.43837778607">
		<tag k="name" v="Furulund" />
		<tag k="place" v="farm" />
		<tag k="ssr:stedsnr" v="72729" />
	</node>
	<node id="-98992" lat="62.2012566678" lon="7.47464153558">
		<tag k="fixme" v="consider place=hamlet" />
		<tag k="name" v="Øyna" />
		<tag k="place" v="farm" />
		<tag k="ssr:stedsnr" v="72016" />
	</node>
	<node id="-98982" lat="62.2045366234" lon="7.13436470298">
		<tag k="fixme" v="consider place=hamlet" />
		<tag k="name" v="Skuset" />
		<tag k="place" v="farm" />
		<tag k="ssr:stedsnr" v="71342" />
	</node>
	<node id="-101011" lat="62.3787611148" lon="7.12389722503">
		<tag k="historic" v="shieling" />
		<tag k="name" v="Gamlesætra" />
		<tag k="place" v="locality" />
		<tag k="ssr:stedsnr" v="763154" />
	</node>
	<node id="-98962" lat="62.2405388933" lon="7.26234167243">
		<tag k="name" v="Engeset" />
		<tag k="place" v="farm" />
		<tag k="ssr:stedsnr" v="227943" />
	</node>
	<node id="-101008" lat="62.3774583338" lon="7.13984722645">
		<tag k="name" v="Leithola" />
		<tag k="place" v="locality" />
		<tag k="ssr:stedsnr" v="763122" />
	</node>
	<node id="-101004" lat="62.3673305582" lon="6.94463332566">
		<tag k="name" v="Jakobsplassen" />
		<tag k="place" v="locality" />
		<tag k="ssr:stedsnr" v="762732" />
	</node>
	<node id="-100997" lat="62.3463055527" lon="7.0937472174">
		<tag k="name" v="Kleiva" />
		<tag k="place" v="farm" />
		<tag k="ssr:stedsnr" v="758822" />
	</node>
	<node id="-98945" lat="62.2375319968" lon="7.21840950835">
		<tag k="historic" v="shieling" />
		<tag k="name" v="Hatlestadsætra" />
		<tag k="old_name" v="Hallstadsætra" />
		<tag k="place" v="locality" />
		<tag k="ssr:stedsnr" v="22905" />
	</node>
	<node id="-100989" lat="62.3941222707" lon="6.89302028375">
		<tag k="fixme" v="consider place=hamlet" />
		<tag k="name" v="Vidhammar" />
		<tag k="old_name" v="Vindhammar" />
		<tag k="place" v="farm" />
		<tag k="ssr:stedsnr" v="739742" />
	</node>
	<node id="-100988" lat="62.3869829272" lon="7.18872409536">
		<tag k="fixme" v="consider place=hamlet" />
		<tag k="name" v="Almås" />
		<tag k="place" v="farm" />
		<tag k="ssr:stedsnr" v="739718" />
	</node>
	<node id="-100986" lat="62.3612138921" lon="6.9428916702">
		<tag k="name" v="Latøyna" />
		<tag k="place" v="locality" />
		<tag k="ssr:stedsnr" v="739684" />
	</node>
	<node id="-100982" lat="62.1885908365" lon="7.50243031743">
		<tag k="alt_name" v="Rødal, øvste" />
		<tag k="fixme" v="consider place=hamlet" />
		<tag k="name" v="Øvste Rødal" />
		<tag k="place" v="farm" />
		<tag k="ssr:stedsnr" v="739054" />
	</node>
	<node id="-98927" lat="62.3994611122" lon="7.20853333914">
		<tag k="loc_name" v="Ytstehaug" />
		<tag k="name" v="Ystehaug" />
		<tag k="place" v="farm" />
		<tag k="ssr:stedsnr" v="217667" />
	</node>
	<node id="-100970" lat="62.38190167" lon="7.15873591262">
		<tag k="fixme" v="consider place=hamlet" />
		<tag k="name" v="Lianes" />
		<tag k="place" v="farm" />
		<tag k="ssr:stedsnr" v="738719" />
	</node>
	<node id="-100962" lat="62.2402111092" lon="7.24899445234">
		<tag k="name" v="Kapteinhjelle" />
		<tag k="place" v="farm" />
		<tag k="ssr:stedsnr" v="738470" />
	</node>
	<node id="-100957" lat="62.3294972193" lon="7.51310556206">
		<tag k="fixme" v="consider place=hamlet" />
		<tag k="name" v="Grønning" />
		<tag k="place" v="farm" />
		<tag k="ssr:stedsnr" v="652815" />
	</node>
	<node id="-100936" lat="62.3302861144" lon="7.37843887964">
		<tag k="name" v="Heggen" />
		<tag k="place" v="farm" />
		<tag k="ssr:stedsnr" v="651294" />
	</node>
	<node id="-100932" lat="62.4057277741" lon="7.3246916709">
		<tag k="historic" v="shieling" />
		<tag k="name" v="Espedalshytta" />
		<tag k="place" v="locality" />
		<tag k="ssr:stedsnr" v="642655" />
	</node>
	<node id="-100930" lat="62.2610055594" lon="7.15448889682">
		<tag k="name" v="Ytste Kilsti" />
		<tag k="place" v="farm" />
		<tag k="ssr:stedsnr" v="642456" />
	</node>
	<node id="-100929" lat="62.2562972266" lon="7.14643332449">
		<tag k="name" v="Fremste Kilsti" />
		<tag k="place" v="farm" />
		<tag k="ssr:stedsnr" v="642454" />
	</node>
	<node id="-100916" lat="62.2123611085" lon="7.13680278422">
		<tag k="name" v="Gamlegarden" />
		<tag k="place" v="isolated_dwelling" />
		<tag k="ssr:stedsnr" v="641353" />
	</node>
	<node id="-100908" lat="62.3725388886" lon="7.11476666826">
		<tag k="historic" v="shieling" />
		<tag k="name" v="Stølen" />
		<tag k="place" v="locality" />
		<tag k="ssr:stedsnr" v="641090" />
	</node>
	<node id="-100901" lat="62.378797219" lon="7.00071110228">
		<tag k="name" v="Vinjesanden" />
		<tag k="place" v="quarter" />
		<tag k="ssr:stedsnr" v="640604" />
	</node>
	<node id="-100898" lat="62.3211944442" lon="7.66747778695">
		<tag k="fixme" v="consider tourism=alpine_hut or tourism=chalet" />
		<tag k="name" v="Tjønnebu" />
		<tag k="ssr:stedsnr" v="629744" />
		<tag k="tourism" v="wilderness_hut" />
	</node>
	<node id="-100896" lat="62.2877166624" lon="7.21860556367">
		<tag k="name" v="Bakken" />
		<tag k="place" v="farm" />
		<tag k="ssr:stedsnr" v="618841" />
	</node>
	<node id="-100895" lat="62.2984847188" lon="7.28356562504">
		<tag k="fixme" v="consider place=hamlet" />
		<tag k="name" v="Ytterli" />
		<tag k="place" v="farm" />
		<tag k="ssr:stedsnr" v="618836" />
	</node>
	<node id="-100894" lat="62.2948498285" lon="7.32562531235">
		<tag k="fixme" v="consider place=hamlet" />
		<tag k="name" v="Nerhus" />
		<tag k="place" v="farm" />
		<tag k="ssr:stedsnr" v="618832" />
	</node>
	<node id="-100890" lat="62.3395916639" lon="7.13526667372">
		<tag k="historic" v="shieling" />
		<tag k="name" v="Riset" />
		<tag k="place" v="locality" />
		<tag k="ssr:stedsnr" v="618514" />
	</node>
	<node id="-100888" lat="62.2586738097" lon="7.14983594463">
		<tag k="fixme" v="consider place=hamlet" />
		<tag k="name" v="Kilsti" />
		<tag k="place" v="farm" />
		<tag k="ssr:stedsnr" v="617926" />
	</node>
	<node id="-100885" lat="62.3789361085" lon="7.0916499976">
		<tag k="historic" v="shieling" />
		<tag k="name" v="Mosætra" />
		<tag k="place" v="locality" />
		<tag k="ssr:stedsnr" v="617722" />
	</node>
	<node id="-100884" lat="62.3736333303" lon="6.8748416576">
		<tag k="historic" v="shieling" />
		<tag k="name" v="Skjortnessætra" />
		<tag k="place" v="locality" />
		<tag k="ssr:stedsnr" v="617713" />
	</node>
	<node id="-100877" lat="62.306394443" lon="7.23063888962">
		<tag k="historic" v="shieling" />
		<tag k="name" v="Åsesætra" />
		<tag k="place" v="locality" />
		<tag k="ssr:stedsnr" v="617791" />
	</node>
	<node id="-100875" lat="62.3112460945" lon="7.25610408256">
		<tag k="fixme" v="consider place=hamlet" />
		<tag k="name" v="Berdal" />
		<tag k="place" v="farm" />
		<tag k="ssr:stedsnr" v="617785" />
	</node>
	<node id="-100870" lat="62.2227527746" lon="7.14451944858">
		<tag k="name" v="Øye" />
		<tag k="place" v="farm" />
		<tag k="ssr:stedsnr" v="617322" />
	</node>
	<node id="-100867" lat="62.1833583358" lon="7.55591111607">
		<tag k="name" v="Stølane" />
		<tag k="place" v="locality" />
		<tag k="ssr:stedsnr" v="617076" />
	</node>
	<node id="-100864" lat="62.1877638892" lon="7.43953054637">
		<tag k="historic" v="shieling" />
		<tag k="name" v="Kaldhusstølen" />
		<tag k="place" v="locality" />
		<tag k="ssr:stedsnr" v="617065" />
	</node>
	<node id="-100858" lat="62.3449099748" lon="7.55061034571">
		<tag k="name" v="Høyhjellane" />
		<tag k="old_name" v="Høyhjelle;Høihjelle" />
		<tag k="place" v="farm" />
		<tag k="ssr:stedsnr" v="605724" />
	</node>
	<node id="-100857" lat="62.1882999966" lon="7.57690832802">
		<tag k="fixme" v="consider tourism=alpine_hut or tourism=chalet" />
		<tag k="name" v="Jakobselet" />
		<tag k="ssr:stedsnr" v="603730" />
		<tag k="tourism" v="wilderness_hut" />
	</node>
	<node id="-100850" lat="62.3001861135" lon="7.22857222726">
		<tag k="historic" v="shieling" />
		<tag k="name" v="Mestølen" />
		<tag k="place" v="locality" />
		<tag k="ssr:stedsnr" v="591755" />
	</node>
	<node id="-100846" lat="62.334047219" lon="7.45942222037">
		<tag k="name" v="Myra" />
		<tag k="place" v="farm" />
		<tag k="ssr:stedsnr" v="591665" />
	</node>
	<node id="-100824" lat="62.3629499988" lon="7.36115277315">
		<tag k="historic" v="shieling" />
		<tag k="name" v="Brekkestølen" />
		<tag k="place" v="locality" />
		<tag k="ssr:stedsnr" v="591140" />
	</node>
	<node id="-100814" lat="62.4160166713" lon="7.32163611878">
		<tag k="name" v="Storvasshytta" />
		<tag k="place" v="isolated_dwelling" />
		<tag k="ssr:stedsnr" v="581715" />
	</node>
	<node id="-100811" lat="62.3986111107" lon="7.21921389529">
		<tag k="historic" v="shieling" />
		<tag k="name" v="Stølen" />
		<tag k="place" v="locality" />
		<tag k="ssr:stedsnr" v="581694" />
	</node>
	<node id="-100803" lat="62.373630558" lon="7.07909721754">
		<tag k="name" v="Torvå" />
		<tag k="place" v="farm" />
		<tag k="ssr:stedsnr" v="581091" />
	</node>
	<node id="-100787" lat="62.3126604363" lon="7.26135147587">
		<tag k="alt_name" v="Jemtegarden" />
		<tag k="fixme" v="consider place=hamlet" />
		<tag k="name" v="Jamtegarden" />
		<tag k="place" v="farm" />
		<tag k="ssr:stedsnr" v="557747" />
	</node>
	<node id="-100785" lat="62.333945588" lon="7.37127192893">
		<tag k="fixme" v="consider place=hamlet" />
		<tag k="name" v="Gjerde" />
		<tag k="place" v="farm" />
		<tag k="ssr:stedsnr" v="557740" />
	</node>
	<node id="-100784" lat="62.3417671677" lon="7.43128200877">
		<tag k="fixme" v="consider place=hamlet" />
		<tag k="name" v="Rem" />
		<tag k="place" v="farm" />
		<tag k="ssr:stedsnr" v="557727" />
	</node>
	<node id="-100783" lat="62.3845860463" lon="7.0295547761">
		<tag k="fixme" v="consider place=hamlet" />
		<tag k="name" v="Øvrebust" />
		<tag k="place" v="farm" />
		<tag k="ssr:stedsnr" v="557698" />
	</node>
	<node id="-100782" lat="62.3923444411" lon="6.98142500173">
		<tag k="historic" v="shieling" />
		<tag k="name" v="Hovsnakken" />
		<tag k="place" v="locality" />
		<tag k="ssr:stedsnr" v="557696" />
	</node>
	<node id="-100780" lat="62.3816527395" lon="6.9967374725">
		<tag k="alt_name" v="Gjestegarden" />
		<tag k="fixme" v="consider place=hamlet" />
		<tag k="name" v="Vinje" />
		<tag k="place" v="farm" />
		<tag k="ssr:stedsnr" v="557682" />
	</node>
	<node id="-100778" lat="62.2992193625" lon="7.25188217307">
		<tag k="fixme" v="consider place=hamlet" />
		<tag k="name" v="Muri" />
		<tag k="place" v="farm" />
		<tag k="ssr:stedsnr" v="557846" />
	</node>
	<node id="-100777" lat="62.3406002743" lon="7.10789376367">
		<tag k="fixme" v="consider place=hamlet" />
		<tag k="name" v="Rødsetsætra" />
		<tag k="place" v="farm" />
		<tag k="ssr:stedsnr" v="557501" />
	</node>
	<node id="-100770" lat="62.2505486021" lon="7.20465523224">
		<tag k="fixme" v="consider place=hamlet" />
		<tag k="name" v="Litleåsen" />
		<tag k="place" v="farm" />
		<tag k="ssr:stedsnr" v="556933" />
	</node>
	<node id="-100763" lat="62.4037499991" lon="6.89669165972">
		<tag k="historic" v="shieling" />
		<tag k="name" v="Skotssætra" />
		<tag k="place" v="locality" />
		<tag k="ssr:stedsnr" v="556651" />
	</node>
	<node id="-100761" lat="62.3823535186" lon="7.04909972303">
		<tag k="fixme" v="consider place=hamlet" />
		<tag k="name" v="Holt" />
		<tag k="place" v="farm" />
		<tag k="ssr:stedsnr" v="556724" />
	</node>
	<node id="-100760" lat="62.3807828254" lon="7.11722830368">
		<tag k="fixme" v="consider place=hamlet" />
		<tag k="name" v="Jasvollsætra" />
		<tag k="place" v="farm" />
		<tag k="ssr:stedsnr" v="556722" />
	</node>
	<node id="-100757" lat="62.428701441" lon="6.94543174019">
		<tag k="fixme" v="consider place=hamlet" />
		<tag k="name" v="Lia" />
		<tag k="place" v="farm" />
		<tag k="ssr:stedsnr" v="556693" />
	</node>
	<node id="-100749" lat="62.3342777769" lon="7.18974722842">
		<tag k="name" v="Karlstad" />
		<tag k="place" v="isolated_dwelling" />
		<tag k="ssr:stedsnr" v="537700" />
	</node>
	<node id="-100748" lat="62.3827653823" lon="7.0052488584">
		<tag k="fixme" v="consider place=hamlet" />
		<tag k="name" v="Busengdal" />
		<tag k="place" v="farm" />
		<tag k="ssr:stedsnr" v="537688" />
	</node>
	<node id="-100721" lat="62.3359527781" lon="7.45208888315">
		<tag k="name" v="Myreplassen" />
		<tag k="place" v="farm" />
		<tag k="ssr:stedsnr" v="530646" />
	</node>
	<node id="-100714" lat="62.2334111126" lon="7.04349722822">
		<tag k="name" v="Inste Smoge" />
		<tag k="place" v="locality" />
		<tag k="ssr:stedsnr" v="530117" />
	</node>
	<node id="-99045" lat="62.2096222195" lon="7.24556389779">
		<tag k="historic" v="shieling" />
		<tag k="name" v="Kallsetstølen" />
		<tag k="place" v="locality" />
		<tag k="ssr:stedsnr" v="107128" />
	</node>
	<node id="-100692" lat="62.3773944457" lon="7.15167777061">
		<tag k="historic" v="shieling" />
		<tag k="name" v="Litlesætra" />
		<tag k="place" v="locality" />
		<tag k="ssr:stedsnr" v="520083" />
	</node>
	<node id="-100690" lat="62.3755694465" lon="7.09247778673">
		<tag k="historic" v="shieling" />
		<tag k="name" v="Gamlesætra" />
		<tag k="place" v="locality" />
		<tag k="ssr:stedsnr" v="520066" />
	</node>
	<node id="-100683" lat="62.2959583377" lon="7.32003610481">
		<tag k="name" v="Almstad" />
		<tag k="place" v="farm" />
		<tag k="ssr:stedsnr" v="436846" />
	</node>
	<node id="-100682" lat="62.298855552" lon="7.32743610278">
		<tag k="name" v="Solbakk" />
		<tag k="place" v="farm" />
		<tag k="ssr:stedsnr" v="436844" />
	</node>
	<node id="-100681" lat="62.3010592067" lon="7.33255542322">
		<tag k="fixme" v="consider place=hamlet" />
		<tag k="name" v="Sætra" />
		<tag k="place" v="farm" />
		<tag k="ssr:stedsnr" v="436842" />
	</node>
	<node id="-100676" lat="62.3083055531" lon="7.25323332506">
		<tag k="name" v="Muribøen" />
		<tag k="place" v="farm" />
		<tag k="ssr:stedsnr" v="436765" />
	</node>
	<node id="-100673" lat="62.3393990854" lon="7.39396513637">
		<tag k="name" v="Hol" />
		<tag k="place" v="farm" />
		<tag k="ssr:stedsnr" v="436742" />
	</node>
	<node id="-100669" lat="62.2759331734" lon="7.06609086859">
		<tag k="fixme" v="consider place=hamlet" />
		<tag k="name" v="Skrednakken" />
		<tag k="place" v="farm" />
		<tag k="ssr:stedsnr" v="436546" />
	</node>
	<node id="-100668" lat="62.2898576128" lon="7.22024323656">
		<tag k="fixme" v="consider place=hamlet" />
		<tag k="name" v="Linge" />
		<tag k="place" v="farm" />
		<tag k="ssr:stedsnr" v="436543" />
	</node>
	<node id="-100667" lat="62.3566509258" lon="6.95510376882">
		<tag k="fixme" v="consider place=hamlet" />
		<tag k="name" v="Djupdalen" />
		<tag k="place" v="farm" />
		<tag k="ssr:stedsnr" v="436534" />
	</node>
	<node id="-100662" lat="62.187413893" lon="7.57813888249">
		<tag k="fixme" v="consider tourism=alpine_hut or tourism=chalet" />
		<tag k="name" v="Reindalseter" />
		<tag k="old_name" v="Reindalsæter turisthytte" />
		<tag k="ssr:stedsnr" v="436056" />
		<tag k="tourism" v="wilderness_hut" />
	</node>
	<node id="-100661" lat="62.1886194458" lon="7.57769445235">
		<tag k="name" v="Reindalsætra" />
		<tag k="place" v="isolated_dwelling" />
		<tag k="ssr:stedsnr" v="436054" />
	</node>
	<node id="-100655" lat="62.3124694467" lon="7.47665555397">
		<tag k="name" v="Heisætra" />
		<tag k="place" v="isolated_dwelling" />
		<tag k="ssr:stedsnr" v="435796" />
	</node>
	<node id="-100653" lat="62.4265953229" lon="6.96985253408">
		<tag k="fixme" v="consider place=hamlet" />
		<tag k="name" v="Øggarden" />
		<tag k="place" v="farm" />
		<tag k="ssr:stedsnr" v="435689" />
	</node>
	<node id="-100648" lat="62.2114871079" lon="7.16093620931">
		<tag k="fixme" v="consider place=hamlet" />
		<tag k="name" v="Løvoll" />
		<tag k="place" v="farm" />
		<tag k="ssr:stedsnr" v="435344" />
	</node>
	<node id="-100643" lat="62.3449053243" lon="7.55215294184">
		<tag k="name" v="Høghjelle" />
		<tag k="place" v="farm" />
		<tag k="ssr:stedsnr" v="424712" />
	</node>
	<node id="-100628" lat="62.3017805549" lon="7.28437778295">
		<tag k="historic" v="shieling" />
		<tag k="name" v="Litlesætra" />
		<tag k="place" v="locality" />
		<tag k="ssr:stedsnr" v="410528" />
	</node>
	<node id="-100616" lat="62.3392222228" lon="7.43774167239">
		<tag k="name" v="Lunden" />
		<tag k="place" v="farm" />
		<tag k="ssr:stedsnr" v="409629" />
	</node>
	<node id="-100612" lat="62.2035472229" lon="7.4342527804">
		<tag k="name" v="Myra" />
		<tag k="place" v="isolated_dwelling" />
		<tag k="ssr:stedsnr" v="409139" />
	</node>
	<node id="-100600" lat="62.3843045267" lon="7.22375704199">
		<tag k="name" v="Bøen" />
		<tag k="place" v="farm" />
		<tag k="ssr:stedsnr" v="399814" />
	</node>
	<node id="-100595" lat="62.2378888928" lon="7.13106667308">
		<tag k="historic" v="shieling" />
		<tag k="name" v="Krikestølen" />
		<tag k="place" v="locality" />
		<tag k="ssr:stedsnr" v="399502" />
	</node>
	<node id="-100588" lat="62.2427687858" lon="7.15763283226">
		<tag k="fixme" v="consider place=hamlet" />
		<tag k="name" v="Fremstehjellane" />
		<tag k="place" v="farm" />
		<tag k="ssr:stedsnr" v="399408" />
	</node>
	<node id="-100586" lat="62.3712111083" lon="7.07889722304">
		<tag k="name" v="Nedstegarden" />
		<tag k="place" v="farm" />
		<tag k="ssr:stedsnr" v="399089" />
	</node>
	<node id="-100578" lat="62.4220499957" lon="6.94849999816">
		<tag k="name" v="Ålund" />
		<tag k="place" v="farm" />
		<tag k="ssr:stedsnr" v="398352" />
	</node>
	<node id="-100564" lat="62.2944388849" lon="7.22811944865">
		<tag k="fixme" v="multiple name tags, choose one and add the other to alt_name" />
		<tag k="name" v="Gamlebøen;Gammalbøen" />
		<tag k="place" v="farm" />
		<tag k="ssr:stedsnr" v="375839" />
	</node>
	<node id="-100559" lat="62.3621725511" lon="7.56037960603">
		<tag k="fixme" v="consider place=hamlet" />
		<tag k="name" v="Langdalen" />
		<tag k="place" v="farm" />
		<tag k="ssr:stedsnr" v="375780" />
	</node>
	<node id="-100553" lat="62.27309167" lon="7.10012777996">
		<tag k="fixme" v="consider place=hamlet" />
		<tag k="name" v="Verpesdalen" />
		<tag k="place" v="farm" />
		<tag k="ssr:stedsnr" v="375533" />
	</node>
	<node id="-100548" lat="62.2607064215" lon="7.16834864055">
		<tag k="fixme" v="consider place=hamlet" />
		<tag k="name" v="Ytterdal" />
		<tag k="place" v="farm" />
		<tag k="ssr:stedsnr" v="374947" />
	</node>
	<node id="-100545" lat="62.3699930618" lon="7.08042965698">
		<tag k="fixme" v="consider place=hamlet" />
		<tag k="name" v="Mo" />
		<tag k="place" v="farm" />
		<tag k="ssr:stedsnr" v="374694" />
	</node>
	<node id="-100544" lat="62.4218083325" lon="6.9460527841">
		<tag k="fixme" v="consider place=hamlet" />
		<tag k="name" v="Dyrkorn" />
		<tag k="place" v="village" />
		<tag k="ssr:stedsnr" v="374675" />
	</node>
	<node id="-100540" lat="62.4163194467" lon="6.9921250023">
		<tag k="historic" v="shieling" />
		<tag k="name" v="Dyrkornstølen" />
		<tag k="place" v="locality" />
		<tag k="ssr:stedsnr" v="374639" />
	</node>
	<node id="-100539" lat="62.2481916629" lon="7.23757500206">
		<tag k="name" v="Rellingen" />
		<tag k="place" v="farm" />
		<tag k="ssr:stedsnr" v="374485" />
	</node>
	<node id="-100532" lat="62.2324250002" lon="7.41769166476">
		<tag k="fixme" v="consider place=hamlet" />
		<tag k="name" v="Tafjord" />
		<tag k="place" v="village" />
		<tag k="ssr:stedsnr" v="374017" />
	</node>
	<node id="-100518" lat="62.2633861076" lon="7.35355555299">
		<tag k="historic" v="shieling" />
		<tag k="name" v="Gamlesætra" />
		<tag k="place" v="locality" />
		<tag k="ssr:stedsnr" v="349359" />
	</node>
	<node id="-100495" lat="62.3399027776" lon="7.12882777149">
		<tag k="historic" v="shieling" />
		<tag k="name" v="Skjetnesetra" />
		<tag k="place" v="locality" />
		<tag k="ssr:stedsnr" v="338437" />
	</node>
	<node id="-100485" lat="62.3659249963" lon="6.94399443659">
		<tag k="name" v="Nedsteplassen" />
		<tag k="place" v="locality" />
		<tag k="ssr:stedsnr" v="337740" />
	</node>
	<node id="-99007" lat="62.2312777782" lon="7.24464167385">
		<tag k="historic" v="shieling" />
		<tag k="name" v="Rellingsætra" />
		<tag k="place" v="locality" />
		<tag k="ssr:stedsnr" v="253013" />
	</node>
	<node id="-100472" lat="62.2425333327" lon="7.25013887964">
		<tag k="name" v="Fremste Dunavollen" />
		<tag k="place" v="farm" />
		<tag k="ssr:stedsnr" v="324882" />
	</node>
	<node id="-100470" lat="62.2965805552" lon="7.21511110259">
		<tag k="historic" v="shieling" />
		<tag k="name" v="Klovsetsætra" />
		<tag k="place" v="locality" />
		<tag k="ssr:stedsnr" v="315565" />
	</node>
	<node id="-100467" lat="62.3449236492" lon="7.09568073623">
		<tag k="fixme" v="consider place=hamlet" />
		<tag k="name" v="Rødset" />
		<tag k="place" v="farm" />
		<tag k="ssr:stedsnr" v="315532" />
	</node>
	<node id="-100464" lat="62.2621527763" lon="7.12111666512">
		<tag k="historic" v="shieling" />
		<tag k="name" v="Kilstisætra" />
		<tag k="place" v="locality" />
		<tag k="ssr:stedsnr" v="314882" />
	</node>
	<node id="-100463" lat="62.3620694422" lon="7.35261666112">
		<tag k="historic" v="shieling" />
		<tag k="name" v="Myklebustsætra" />
		<tag k="place" v="locality" />
		<tag k="ssr:stedsnr" v="314799" />
	</node>
	<node id="-100462" lat="62.3747388911" lon="7.66926665903">
		<tag k="name" v="Osten" />
		<tag k="place" v="isolated_dwelling" />
		<tag k="ssr:stedsnr" v="314792" />
	</node>
	<node id="-100452" lat="62.242141008" lon="7.25105812261">
		<tag k="fixme" v="consider place=hamlet" />
		<tag k="name" v="Dalhus" />
		<tag k="place" v="farm" />
		<tag k="ssr:stedsnr" v="314536" />
	</node>
	<node id="-100445" lat="62.188811107" lon="7.34111111338">
		<tag k="historic" v="shieling" />
		<tag k="name" v="Herdalen" />
		<tag k="place" v="locality" />
		<tag k="ssr:stedsnr" v="314049" />
	</node>
	<node id="-99001" lat="62.2517194431" lon="7.23806387981">
		<tag k="fixme" v="multiple name tags, choose one and add the other to alt_name; consider place=hamlet" />
		<tag k="loc_name" v="Norddalen" />
		<tag k="name" v="Dalsbygda;Norddal" />
		<tag k="place" v="village" />
		<tag k="ssr:stedsnr" v="72812" />
	</node>
	<node id="-100425" lat="62.4117034839" lon="6.90671662504">
		<tag k="name" v="Inste Skotet" />
		<tag k="place" v="farm" />
		<tag k="ssr:stedsnr" v="204924" />
	</node>
	<node id="-100419" lat="62.3142376976" lon="7.28457274919">
		<tag k="fixme" v="consider place=hamlet" />
		<tag k="name" v="Uri" />
		<tag k="place" v="farm" />
		<tag k="ssr:stedsnr" v="193762" />
	</node>
	<node id="-100416" lat="62.280391669" lon="7.27403054941">
		<tag k="historic" v="shieling" />
		<tag k="name" v="Vikasætra" />
		<tag k="place" v="locality" />
		<tag k="ssr:stedsnr" v="193872" />
	</node>
	<node id="-100413" lat="62.297972225" lon="7.26258888929">
		<tag k="name" v="Valldal" />
		<tag k="place" v="village" />
		<tag k="ssr:stedsnr" v="193858" />
	</node>
	<node id="-100410" lat="62.3837480437" lon="7.00929918296">
		<tag k="fixme" v="consider place=hamlet" />
		<tag k="name" v="Kyrkjebøen" />
		<tag k="place" v="farm" />
		<tag k="ssr:stedsnr" v="193688" />
	</node>
	<node id="-100409" lat="62.3798405898" lon="7.01442278083">
		<tag k="fixme" v="consider place=hamlet" />
		<tag k="name" v="Kvammen" />
		<tag k="place" v="farm" />
		<tag k="ssr:stedsnr" v="193687" />
	</node>
	<node id="-100395" lat="62.3103277798" lon="7.34370000654">
		<tag k="name" v="Ytsteheia" />
		<tag k="place" v="locality" />
		<tag k="ssr:stedsnr" v="192798" />
	</node>
	<node id="-100392" lat="62.393336107" lon="7.03788610281">
		<tag k="historic" v="shieling" />
		<tag k="name" v="Litlesætra" />
		<tag k="place" v="locality" />
		<tag k="ssr:stedsnr" v="173331" />
	</node>
	<node id="-100372" lat="62.3172416708" lon="7.28786111815">
		<tag k="historic" v="shieling" />
		<tag k="name" v="Gardstølane" />
		<tag k="place" v="locality" />
		<tag k="ssr:stedsnr" v="166380" />
	</node>
	<node id="-100366" lat="62.297825004" lon="7.26373610894">
		<tag k="name" v="Sylte" />
		<tag k="place" v="quarter" />
		<tag k="ssr:stedsnr" v="159001" />
	</node>
	<node id="-100361" lat="62.4196940608" lon="7.22946735306">
		<tag k="historic" v="shieling" />
		<tag k="name" v="Kvitlestølen" />
		<tag k="place" v="locality" />
		<tag k="ssr:stedsnr" v="157586" />
	</node>
	<node id="-100360" lat="62.2489904453" lon="7.16101392909">
		<tag k="fixme" v="consider place=hamlet" />
		<tag k="name" v="Heimre Hjelle" />
		<tag k="place" v="farm" />
		<tag k="ssr:stedsnr" v="157420" />
	</node>
	<node id="-100355" lat="62.4081805588" lon="6.96348611073">
		<tag k="historic" v="shieling" />
		<tag k="name" v="Stavnessætra" />
		<tag k="place" v="locality" />
		<tag k="ssr:stedsnr" v="156694" />
	</node>
</osm>
