<?xml version="1.0" encoding="UTF-8"?>
<<<<<<< HEAD
<osm version="0.6" generator="osmapis">
	<node lat="62.38841111208021" lon="6.931836101654986" id="-7054">
		<tag k="name" v="Stordalsflua" />
		<tag k="natural" v="shoal" />
		<tag k="place" v="locality" />
		<tag k="ssr:stedsnr" v="31310" />
	</node>
	<node lat="62.25031666760895" lon="7.3979055471060295" id="-7055">
		<tag k="name" v="Seineskoppen" />
=======
<osm generator="osmapis" version="0.6">
	<node id="-101631" lat="62.4224555532" lon="6.9435861117">
		<tag k="name" v="Smivika" />
		<tag k="natural" v="bay" />
		<tag k="ssr:stedsnr" v="577325" />
	</node>
	<node id="-101630" lat="62.3982416626" lon="6.94920277685">
		<tag k="name" v="Stavnesbugen" />
		<tag k="natural" v="bay" />
		<tag k="ssr:stedsnr" v="577324" />
	</node>
	<node id="-101362" lat="62.2620083333" lon="7.2368583248">
		<tag k="name" v="Oterhola" />
		<tag k="natural" v="bay" />
		<tag k="ssr:stedsnr" v="470737" />
	</node>
	<node id="-101873" lat="62.2795138904" lon="7.3649055543">
		<tag k="name" v="Furenesodden" />
		<tag k="natural" v="cape" />
		<tag k="ssr:stedsnr" v="774266" />
	</node>
	<node id="-102384" lat="62.3831277803" lon="6.9743638976">
		<tag k="name" v="Morthola" />
		<tag k="natural" v="bay" />
		<tag k="ssr:stedsnr" v="155743" />
	</node>
	<node id="-102380" lat="62.3763361106" lon="6.97962777897">
		<tag k="name" v="Sessen" />
		<tag k="natural" v="cape" />
		<tag k="ssr:stedsnr" v="155560" />
	</node>
	<node id="-102376" lat="62.4062305578" lon="6.90875277131">
		<tag k="name" v="Korsen" />
		<tag k="natural" v="cape" />
		<tag k="ssr:stedsnr" v="152372" />
	</node>
	<node id="-102374" lat="62.2951777803" lon="7.14411943791">
		<tag k="fixme" v="consider seamark:type=rock or natural=shoal" />
		<tag k="name" v="Kråka" />
		<tag k="place" v="islet" />
		<tag k="ssr:stedsnr" v="151320" />
	</node>
	<node id="-101857" lat="62.4092277796" lon="6.94842499332">
		<tag k="name" v="Landflæene" />
		<tag k="natural" v="shoal" />
		<tag k="place" v="locality" />
		<tag k="ssr:stedsnr" v="762681" />
	</node>
	<node id="-101855" lat="62.3723055574" lon="6.94253610281">
		<tag k="name" v="Brønneset" />
		<tag k="natural" v="cape" />
		<tag k="ssr:stedsnr" v="759338" />
	</node>
	<node id="-101854" lat="62.2823027822" lon="7.30304721799">
		<tag k="name" v="Åkreneset" />
		<tag k="natural" v="cape" />
		<tag k="ssr:stedsnr" v="759329" />
	</node>
	<node id="-101113" lat="62.2623250042" lon="7.40112500714">
		<tag k="name" v="Inste Furneset" />
		<tag k="natural" v="cape" />
		<tag k="ssr:stedsnr" v="133813" />
	</node>
	<node id="-103246" lat="62.2779000037" lon="7.12261665946">
		<tag k="name" v="Pinå" />
		<tag k="natural" v="bay" />
		<tag k="ssr:stedsnr" v="956128" />
	</node>
	<node id="-102353" lat="62.2845666658" lon="7.26548056168">
		<tag k="name" v="Vindsneset" />
		<tag k="natural" v="cape" />
		<tag k="ssr:stedsnr" v="132658" />
	</node>
	<node id="-101840" lat="62.2854833311" lon="7.1771361079">
		<tag k="name" v="Kvitneset" />
		<tag k="natural" v="cape" />
		<tag k="ssr:stedsnr" v="739570" />
	</node>
	<node id="-102346" lat="62.2241999988" lon="7.03917777874">
		<tag k="bay" v="fjord" />
		<tag k="name" v="Sunnylvsfjorden" />
		<tag k="natural" v="bay" />
		<tag k="ssr:stedsnr" v="132298" />
	</node>
	<node id="-102841" lat="62.3676805582" lon="6.94027777155">
		<tag k="name" v="Tobaksnes" />
		<tag k="natural" v="cape" />
		<tag k="ssr:stedsnr" v="579776" />
	</node>
	<node id="-102839" lat="62.3899916655" lon="6.89045555062">
		<tag k="name" v="Litleneset" />
		<tag k="natural" v="cape" />
		<tag k="ssr:stedsnr" v="579182" />
	</node>
	<node id="-102838" lat="62.29369722" lon="7.33657499318">
		<tag k="name" v="Nerhusstranda" />
		<tag k="natural" v="beach" />
		<tag k="place" v="locality" />
		<tag k="ssr:stedsnr" v="577360" />
	</node>
	<node id="-102325" lat="62.2843388925" lon="7.31328333379">
		<tag k="name" v="Litlevika" />
		<tag k="natural" v="bay" />
		<tag k="ssr:stedsnr" v="107475" />
	</node>
	<node id="-102324" lat="62.280244444" lon="7.13165556391">
		<tag k="name" v="Oterskinnet" />
		<tag k="natural" v="cape" />
		<tag k="ssr:stedsnr" v="107099" />
	</node>
	<node id="-102323" lat="62.2767194442" lon="7.10439166343">
		<tag k="name" v="Gobelaget" />
		<tag k="natural" v="cape" />
		<tag k="ssr:stedsnr" v="107094" />
	</node>
	<node id="-102318" lat="62.2532916661" lon="7.22677777557">
		<tag k="name" v="Bugen" />
		<tag k="natural" v="bay" />
		<tag k="ssr:stedsnr" v="106940" />
	</node>
	<node id="-101874" lat="62.4039277745" lon="6.90668610561">
		<tag k="name" v="Heggurbukta" />
		<tag k="natural" v="bay" />
		<tag k="ssr:stedsnr" v="921646" />
	</node>
	<node id="-101277" lat="62.3710166643" lon="6.93915832497">
		<tag k="name" v="Svinerotneset" />
		<tag k="natural" v="cape" />
		<tag k="ssr:stedsnr" v="276803" />
	</node>
	<node id="-101274" lat="62.3616361126" lon="6.94123888349">
		<tag k="name" v="Storneset" />
		<tag k="natural" v="cape" />
		<tag k="ssr:stedsnr" v="458796" />
	</node>
	<node id="-102296" lat="62.2879083342" lon="7.3557583361">
		<tag k="name" v="Sandfonneset" />
		<tag k="natural" v="cape" />
		<tag k="ssr:stedsnr" v="106474" />
	</node>
	<node id="-101271" lat="62.2711305573" lon="7.24290277878">
		<tag k="name" v="Bukkesprangneset" />
		<tag k="natural" v="cape" />
		<tag k="ssr:stedsnr" v="274374" />
	</node>
	<node id="-102805" lat="62.421466664" lon="6.89021667548">
		<tag k="name" v="Vollvikneset" />
		<tag k="natural" v="cape" />
		<tag k="old_name" v="Volvikneset" />
		<tag k="ssr:stedsnr" v="556697" />
	</node>
	<node id="-101266" lat="62.2782805529" lon="7.36984167096">
		<tag k="name" v="Risteneset" />
		<tag k="natural" v="cape" />
		<tag k="ssr:stedsnr" v="456409" />
	</node>
	<node id="-101265" lat="62.2636666711" lon="7.37301944387">
		<tag k="name" v="Alvikneset" />
		<tag k="natural" v="cape" />
		<tag k="ssr:stedsnr" v="456406" />
	</node>
	<node id="-101264" lat="62.2849305599" lon="7.31460000738">
		<tag k="name" v="Kvitneset" />
		<tag k="natural" v="cape" />
		<tag k="ssr:stedsnr" v="456356" />
	</node>
	<node id="-101263" lat="62.3611777818" lon="6.94219721734">
		<tag k="name" v="Latøyvika" />
		<tag k="natural" v="bay" />
		<tag k="ssr:stedsnr" v="456354" />
	</node>
	<node id="-101262" lat="62.2792500024" lon="7.07377777137">
		<tag k="name" v="Rognsteinen" />
		<tag k="natural" v="cape" />
		<tag k="ssr:stedsnr" v="456351" />
	</node>
	<node id="-101772" lat="62.388341666" lon="6.88953055764">
		<tag k="name" v="Korsadalsvika" />
		<tag k="natural" v="bay" />
		<tag k="ssr:stedsnr" v="699308" />
	</node>
	<node id="-102791" lat="62.2966000038" lon="7.25627499406">
		<tag k="name" v="Murigrandane" />
		<tag k="natural" v="beach" />
		<tag k="place" v="locality" />
		<tag k="ssr:stedsnr" v="531823" />
	</node>
	<node id="-102263" lat="62.3864666633" lon="6.95925277175">
		<tag k="name" v="Seljeneshola" />
		<tag k="natural" v="bay" />
		<tag k="ssr:stedsnr" v="95000" />
	</node>
	<node id="-101750" lat="62.2795972202" lon="7.36664721386">
		<tag k="name" v="Ytste Furneset" />
		<tag k="natural" v="cape" />
		<tag k="ssr:stedsnr" v="679860" />
	</node>
	<node id="-101748" lat="62.3653277747" lon="6.89029721679">
		<tag k="name" v="Galtevika" />
		<tag k="natural" v="bay" />
		<tag k="ssr:stedsnr" v="679673" />
	</node>
	<node id="-101232" lat="62.3722750005" lon="6.93878888579">
		<tag k="name" v="Skråvika" />
		<tag k="natural" v="bay" />
		<tag k="ssr:stedsnr" v="216730" />
	</node>
	<node id="-102255" lat="62.216744442" lon="7.03991388396">
		<tag k="name" v="Koppneset" />
		<tag k="natural" v="cape" />
		<tag k="ssr:stedsnr" v="93353" />
	</node>
	<node id="-102254" lat="62.3945694433" lon="6.8951694353">
		<tag k="name" v="Krammaneset" />
		<tag k="natural" v="cape" />
		<tag k="ssr:stedsnr" v="92338" />
	</node>
	<node id="-101225" lat="62.3874518401" lon="6.95787232776">
		<tag k="name" v="Seljeneset" />
		<tag k="natural" v="cape" />
		<tag k="ssr:stedsnr" v="193703" />
	</node>
	<node id="-101732" lat="62.2709861143" lon="7.35414721459">
		<tag k="name" v="Kastekoppen" />
		<tag k="natural" v="bay" />
		<tag k="ssr:stedsnr" v="881417" />
	</node>
	<node id="-101731" lat="62.2763583323" lon="7.25007499815">
		<tag k="name" v="Brudehammaren" />
		<tag k="natural" v="cape" />
		<tag k="ssr:stedsnr" v="881402" />
	</node>
	<node id="-101729" lat="62.3647944443" lon="6.88913611693">
		<tag k="name" v="Skjortnesvika" />
		<tag k="natural" v="bay" />
		<tag k="ssr:stedsnr" v="880059" />
	</node>
	<node id="-102225" lat="62.2837305552" lon="7.26394444695">
		<tag k="name" v="Vindsneskolvet" />
>>>>>>> e1d4bc35ff8a6074a6f2e91616a996b547c36f15
		<tag k="natural" v="bay" />
		<tag k="ssr:stedsnr" v="31414" />
	</node>
<<<<<<< HEAD
	<node lat="62.26590000166631" lon="7.397636106755457" id="-7056">
		<tag k="fixme" v="multiple name tags, choose one and add the other to alt_name" />
		<tag k="name" v="Grynnvikane;Grunnvikane" />
		<tag k="natural" v="bay" />
		<tag k="ssr:stedsnr" v="31417" />
	</node>
	<node lat="62.26969166458039" lon="7.155486120340669" id="-7084">
=======
	<node id="-101711" lat="62.2483236871" lon="7.42524233687">
		<tag k="alt_name" v="Sørdalsvika" />
		<tag k="name" v="Sødalsvika" />
		<tag k="natural" v="bay" />
		<tag k="ssr:stedsnr" v="618806" />
	</node>
	<node id="-102734" lat="62.3721611085" lon="6.93859443664">
		<tag k="name" v="Rorshamna" />
		<tag k="natural" v="bay" />
		<tag k="ssr:stedsnr" v="519914" />
	</node>
	<node id="-102220" lat="62.2696916646" lon="7.15548612034">
>>>>>>> e1d4bc35ff8a6074a6f2e91616a996b547c36f15
		<tag k="name" v="Seljeurneset" />
		<tag k="natural" v="cape" />
		<tag k="ssr:stedsnr" v="46132" />
	</node>
<<<<<<< HEAD
	<node lat="62.28373055518734" lon="7.263944446949759" id="-7088">
		<tag k="name" v="Vindsneskolvet" />
		<tag k="natural" v="bay" />
		<tag k="ssr:stedsnr" v="46811" />
	</node>
	<node lat="62.277574996596286" lon="7.116825008474505" id="-7092">
		<tag k="name" v="Bugane" />
=======
	<node id="-102201" lat="62.2780111128" lon="7.04187221876">
		<tag k="name" v="Skarveskjetet" />
		<tag k="natural" v="cape" />
		<tag k="ssr:stedsnr" v="45140" />
	</node>
	<node id="-103219" lat="62.2773638867" lon="7.33731944444">
		<tag k="name" v="Kastebukta" />
>>>>>>> e1d4bc35ff8a6074a6f2e91616a996b547c36f15
		<tag k="natural" v="bay" />
		<tag k="ssr:stedsnr" v="71622" />
	</node>
<<<<<<< HEAD
	<node lat="62.28790833423914" lon="7.355758336095673" id="-7136">
		<tag k="name" v="Sandfonneset" />
		<tag k="natural" v="cape" />
		<tag k="ssr:stedsnr" v="106474" />
	</node>
	<node lat="62.28433889250742" lon="7.31328333378675" id="-7153">
		<tag k="name" v="Litlevika" />
		<tag k="natural" v="bay" />
		<tag k="ssr:stedsnr" v="107475" />
	</node>
	<node lat="62.26469722053412" lon="7.369186115723246" id="-7170">
		<tag k="name" v="Alvika" />
=======
	<node id="-103213" lat="62.3646416706" lon="6.9386333275">
		<tag k="name" v="Holmeneset" />
		<tag k="natural" v="cape" />
		<tag k="ssr:stedsnr" v="861661" />
	</node>
	<node id="-101676" lat="62.2843083356" lon="7.32931388724">
		<tag k="name" v="Uksnesbugen" />
		<tag k="natural" v="bay" />
		<tag k="ssr:stedsnr" v="713488" />
	</node>
	<node id="-102699" lat="62.4190472249" lon="6.8888583345">
		<tag k="name" v="Vollvika" />
		<tag k="natural" v="bay" />
		<tag k="old_name" v="Volvika" />
		<tag k="ssr:stedsnr" v="435685" />
	</node>
	<node id="-102682" lat="62.2909888884" lon="7.23073888155">
		<tag k="name" v="Åsebugen" />
>>>>>>> e1d4bc35ff8a6074a6f2e91616a996b547c36f15
		<tag k="natural" v="bay" />
		<tag k="ssr:stedsnr" v="132821" />
	</node>
<<<<<<< HEAD
	<node lat="62.2623250042379" lon="7.401125007141242" id="-7173">
		<tag k="name" v="Inste Furneset" />
		<tag k="natural" v="cape" />
		<tag k="ssr:stedsnr" v="133813" />
	</node>
	<node lat="62.286066668645155" lon="7.329225000808435" id="-7198">
		<tag k="alt_name" v="Uksneset" />
		<tag k="name" v="Oksneset" />
		<tag k="natural" v="cape" />
		<tag k="ssr:stedsnr" v="254848" />
	</node>
	<node lat="62.29517778028321" lon="7.144119437908556" id="-7203">
		<tag k="fixme" v="consider seamark:type=rock or natural=shoal" />
		<tag k="name" v="Kråka" />
		<tag k="place" v="islet" />
		<tag k="ssr:stedsnr" v="151320" />
	</node>
	<node lat="62.406230557774535" lon="6.908752771308269" id="-7205">
		<tag k="name" v="Korsen" />
		<tag k="natural" v="cape" />
		<tag k="ssr:stedsnr" v="152372" />
	</node>
	<node lat="62.376336110616364" lon="6.979627778969562" id="-7208">
		<tag k="name" v="Sessen" />
		<tag k="natural" v="cape" />
		<tag k="ssr:stedsnr" v="155560" />
	</node>
	<node lat="62.28097221907039" lon="7.365050006663841" id="-7250">
		<tag k="name" v="Furnesbugen" />
		<tag k="natural" v="bay" />
		<tag k="ssr:stedsnr" v="213383" />
	</node>
	<node lat="62.43046388545101" lon="6.926544447741657" id="-7251">
		<tag k="name" v="Ramskarneset" />
=======
	<node id="-102673" lat="62.2929444465" lon="7.30291389223">
		<tag k="name" v="Hyseneset" />
		<tag k="natural" v="cape" />
		<tag k="ssr:stedsnr" v="410511" />
	</node>
	<node id="-101080" lat="62.2860666686" lon="7.32922500081">
		<tag k="alt_name" v="Uksneset" />
		<tag k="name" v="Oksneset" />
		<tag k="natural" v="cape" />
		<tag k="ssr:stedsnr" v="254848" />
	</node>
	<node id="-102670" lat="62.2693166711" lon="7.39146111064">
		<tag k="name" v="Litle Grynnvika" />
		<tag k="natural" v="bay" />
		<tag k="ssr:stedsnr" v="410252" />
	</node>
	<node id="-101635" lat="62.3840916634" lon="6.98444722872">
		<tag k="name" v="Hovsbugen" />
		<tag k="natural" v="bay" />
		<tag k="ssr:stedsnr" v="579661" />
	</node>
	<node id="-101675" lat="62.2869500039" lon="7.31794721625">
		<tag k="name" v="Skolten" />
		<tag k="natural" v="bay" />
		<tag k="ssr:stedsnr" v="713484" />
	</node>
	<node id="-103168" lat="62.2633500036" lon="7.40015000389">
		<tag k="name" v="Inste Grynnvika" />
		<tag k="natural" v="bay" />
		<tag k="ssr:stedsnr" v="834241" />
	</node>
	<node id="-102143" lat="62.3884111121" lon="6.93183610165">
		<tag k="name" v="Stordalsflua" />
		<tag k="natural" v="shoal" />
		<tag k="place" v="locality" />
		<tag k="ssr:stedsnr" v="31310" />
	</node>
	<node id="-102654" lat="62.2309055586" lon="7.03864444344">
		<tag k="name" v="Smogebugane" />
		<tag k="natural" v="bay" />
		<tag k="ssr:stedsnr" v="409066" />
	</node>
	<node id="-102652" lat="62.2847944401" lon="7.20339444602">
		<tag k="name" v="Grautahamna" />
		<tag k="natural" v="bay" />
		<tag k="ssr:stedsnr" v="409013" />
	</node>
	<node id="-101625" lat="62.4134583356" lon="6.94665832759">
		<tag k="name" v="Saltarvika" />
		<tag k="natural" v="bay" />
		<tag k="ssr:stedsnr" v="702663" />
	</node>
	<node id="-101110" lat="62.2646972205" lon="7.36918611572">
		<tag k="name" v="Alvika" />
		<tag k="natural" v="bay" />
		<tag k="ssr:stedsnr" v="132821" />
	</node>
	<node id="-103147" lat="62.2357027798" lon="7.03684723001">
		<tag k="name" v="Smogeneset" />
>>>>>>> e1d4bc35ff8a6074a6f2e91616a996b547c36f15
		<tag k="natural" v="cape" />
		<tag k="ssr:stedsnr" v="216281" />
	</node>
<<<<<<< HEAD
	<node lat="62.43150555531555" lon="6.923380561187381" id="-7252">
		<tag k="name" v="Hegrehalsen" />
		<tag k="natural" v="cape" />
		<tag k="ssr:stedsnr" v="216378" />
	</node>
	<node lat="62.37227500051303" lon="6.938788885787187" id="-7254">
		<tag k="name" v="Skråvika" />
=======
	<node id="-102115" lat="62.4238583322" lon="6.88621389222">
		<tag k="name" v="Ytste Vollvika" />
>>>>>>> e1d4bc35ff8a6074a6f2e91616a996b547c36f15
		<tag k="natural" v="bay" />
		<tag k="ssr:stedsnr" v="216730" />
	</node>
<<<<<<< HEAD
	<node lat="62.27925000241963" lon="7.073777771367542" id="-7293">
		<tag k="name" v="Rognsteinen" />
		<tag k="natural" v="cape" />
		<tag k="ssr:stedsnr" v="456351" />
	</node>
	<node lat="62.361177781842905" lon="6.942197217335537" id="-7294">
		<tag k="name" v="Latøyvika" />
		<tag k="natural" v="bay" />
		<tag k="ssr:stedsnr" v="456354" />
	</node>
	<node lat="62.284930559850274" lon="7.31460000737914" id="-7295">
		<tag k="name" v="Kvitneset" />
=======
	<node id="-102621" lat="62.3423833371" lon="6.95694721798">
		<tag k="name" v="Knurrestøa" />
>>>>>>> e1d4bc35ff8a6074a6f2e91616a996b547c36f15
		<tag k="natural" v="cape" />
		<tag k="ssr:stedsnr" v="456356" />
	</node>
<<<<<<< HEAD
	<node lat="62.36163611260672" lon="6.941238883489268" id="-7304">
		<tag k="name" v="Storneset" />
		<tag k="natural" v="cape" />
		<tag k="ssr:stedsnr" v="458796" />
	</node>
	<node lat="62.3710166643492" lon="6.939158324971725" id="-7312">
		<tag k="name" v="Svinerotneset" />
=======
	<node id="-102620" lat="62.2863888923" lon="7.2121694377">
		<tag k="name" v="Lingebugen" />
		<tag k="natural" v="bay" />
		<tag k="ssr:stedsnr" v="395365" />
	</node>
	<node id="-102619" lat="62.3846833297" lon="6.88700277109">
		<tag k="name" v="Værflåneset" />
>>>>>>> e1d4bc35ff8a6074a6f2e91616a996b547c36f15
		<tag k="natural" v="cape" />
		<tag k="ssr:stedsnr" v="276803" />
	</node>
<<<<<<< HEAD
	<node lat="62.26232222376227" lon="7.204444436061521" id="-7332">
		<tag k="name" v="Bolletneset" />
		<tag k="natural" v="cape" />
		<tag k="ssr:stedsnr" v="460428" />
	</node>
	<node lat="62.28235833381634" lon="7.288425003276103" id="-7366">
		<tag k="name" v="Kvernhusneset" />
		<tag k="natural" v="cape" />
		<tag k="ssr:stedsnr" v="315857" />
	</node>
	<node lat="62.26200833334061" lon="7.2368583247994795" id="-7399">
		<tag k="name" v="Oterhola" />
=======
	<node id="-103128" lat="62.2735749993" lon="7.24609165905">
		<tag k="name" v="Geitvika" />
		<tag k="natural" v="bay" />
		<tag k="ssr:stedsnr" v="800861" />
	</node>
	<node id="-101590" lat="62.2877388858" lon="7.34379721946">
		<tag k="bay" v="fjord" />
		<tag k="name" v="Tafjorden" />
>>>>>>> e1d4bc35ff8a6074a6f2e91616a996b547c36f15
		<tag k="natural" v="bay" />
		<tag k="ssr:stedsnr" v="470737" />
	</node>
<<<<<<< HEAD
	<node lat="62.41678055950788" lon="6.945525009349189" id="-7407">
		<tag k="name" v="Vikaneset" />
=======
	<node id="-102612" lat="62.2905861091" lon="7.28323888528">
		<tag k="name" v="Honeset" />
>>>>>>> e1d4bc35ff8a6074a6f2e91616a996b547c36f15
		<tag k="natural" v="cape" />
		<tag k="ssr:stedsnr" v="335345" />
	</node>
<<<<<<< HEAD
	<node lat="62.38804999925491" lon="6.957155556081056" id="-7411">
		<tag k="name" v="Galten" />
		<tag k="natural" v="cape" />
		<tag k="ssr:stedsnr" v="337993" />
	</node>
	<node lat="62.36794444016125" lon="6.940958338179549" id="-7456">
=======
	<node id="-102091" lat="62.2510576675" lon="7.4279735416">
		<tag k="name" v="Muldalsvika" />
		<tag k="natural" v="bay" />
		<tag k="ssr:stedsnr" v="982549" />
	</node>
	<node id="-102593" lat="62.3679444402" lon="6.94095833818">
>>>>>>> e1d4bc35ff8a6074a6f2e91616a996b547c36f15
		<tag k="name" v="Roshamna" />
		<tag k="natural" v="bay" />
		<tag k="old_name" v="Roshamn" />
		<tag k="ssr:stedsnr" v="374698" />
	</node>
<<<<<<< HEAD
	<node lat="62.277897224853895" lon="7.223383336011886" id="-7463">
		<tag k="bay" v="fjord" />
		<tag k="name" v="Norddalsfjorden" />
		<tag k="natural" v="bay" />
		<tag k="ssr:stedsnr" v="375611" />
	</node>
	<node lat="62.269316671112115" lon="7.391461110637157" id="-7501">
		<tag k="name" v="Litle Grynnvika" />
		<tag k="natural" v="bay" />
		<tag k="ssr:stedsnr" v="410252" />
	</node>
	<node lat="62.37391666232828" lon="6.959827784122579" id="-7513">
		<tag k="name" v="Holmebugen" />
=======
	<node id="-103093" lat="62.2924166629" lon="7.29503332425">
		<tag k="name" v="Vikaneset" />
		<tag k="natural" v="cape" />
		<tag k="ssr:stedsnr" v="774556" />
	</node>
	<node id="-101030" lat="62.2775749966" lon="7.11682500847">
		<tag k="name" v="Bugane" />
>>>>>>> e1d4bc35ff8a6074a6f2e91616a996b547c36f15
		<tag k="natural" v="bay" />
		<tag k="ssr:stedsnr" v="435720" />
	</node>
<<<<<<< HEAD
	<node lat="62.263666671093574" lon="7.373019443865562" id="-7527">
		<tag k="name" v="Alvikneset" />
=======
	<node id="-101018" lat="62.2379583346" lon="7.40929999271">
		<tag k="name" v="Geitvikneset" />
>>>>>>> e1d4bc35ff8a6074a6f2e91616a996b547c36f15
		<tag k="natural" v="cape" />
		<tag k="ssr:stedsnr" v="456406" />
	</node>
<<<<<<< HEAD
	<node lat="62.27828055294971" lon="7.36984167096069" id="-7528">
		<tag k="name" v="Risteneset" />
		<tag k="natural" v="cape" />
		<tag k="ssr:stedsnr" v="456409" />
	</node>
	<node lat="62.365327774683564" lon="6.8902972167884045" id="-7605">
		<tag k="name" v="Galtevika" />
=======
	<node id="-101017" lat="62.2659000017" lon="7.39763610676">
		<tag k="fixme" v="multiple name tags, choose one and add the other to alt_name" />
		<tag k="name" v="Grunnvikane;Grynnvikane" />
		<tag k="natural" v="bay" />
		<tag k="ssr:stedsnr" v="31417" />
	</node>
	<node id="-101016" lat="62.2503166676" lon="7.39790554711">
		<tag k="name" v="Seineskoppen" />
>>>>>>> e1d4bc35ff8a6074a6f2e91616a996b547c36f15
		<tag k="natural" v="bay" />
		<tag k="ssr:stedsnr" v="679673" />
	</node>
<<<<<<< HEAD
	<node lat="62.27959722020019" lon="7.3666472138599275" id="-7608">
		<tag k="name" v="Ytste Furneset" />
=======
	<node id="-102386" lat="62.3972611139" lon="6.90641666959">
		<tag k="bay" v="fjord" />
		<tag k="name" v="Storfjorden" />
		<tag k="natural" v="bay" />
		<tag k="ssr:stedsnr" v="155849" />
	</node>
	<node id="-102536" lat="62.3880499993" lon="6.95715555608">
		<tag k="name" v="Galten" />
>>>>>>> e1d4bc35ff8a6074a6f2e91616a996b547c36f15
		<tag k="natural" v="cape" />
		<tag k="ssr:stedsnr" v="679860" />
	</node>
<<<<<<< HEAD
	<node lat="62.38146944576229" lon="6.984808336666302" id="-7627">
		<tag k="name" v="Vinjebugen" />
		<tag k="natural" v="bay" />
		<tag k="ssr:stedsnr" v="519624" />
	</node>
	<node lat="62.37216110854811" lon="6.93859443664276" id="-7631">
		<tag k="name" v="Rorshamna" />
		<tag k="natural" v="bay" />
		<tag k="ssr:stedsnr" v="519914" />
	</node>
	<node lat="62.29660000380659" lon="7.256274994056184" id="-7650">
		<tag k="name" v="Murigrandane" />
		<tag k="natural" v="beach" />
		<tag k="ssr:stedsnr" v="531823" />
	</node>
	<node lat="62.293697220026225" lon="7.3365749931837865" id="-7685">
		<tag k="name" v="Nerhusstranda" />
		<tag k="natural" v="beach" />
		<tag k="ssr:stedsnr" v="577360" />
	</node>
	<node lat="62.248323687093006" lon="7.425242336874588" id="-7749">
		<tag k="alt_name" v="Sørdalsvika" />
		<tag k="name" v="Sødalsvika" />
		<tag k="natural" v="bay" />
		<tag k="ssr:stedsnr" v="618806" />
	</node>
	<node lat="62.2925750000396" lon="7.280263880514194" id="-7784">
		<tag k="name" v="Honesbugen" />
=======
	<node id="-103046" lat="62.2917583346" lon="7.15853610215">
		<tag k="name" v="Blikshammarbugen" />
		<tag k="natural" v="bay" />
		<tag k="ssr:stedsnr" v="759351" />
	</node>
	<node id="-102021" lat="62.3805527802" lon="6.98369999639">
		<tag k="name" v="Gyljeneset" />
		<tag k="natural" v="cape" />
		<tag k="ssr:stedsnr" v="944628" />
	</node>
	<node id="-102528" lat="62.2912250009" lon="7.3110083332">
		<tag k="name" v="Selstokkneset" />
		<tag k="natural" v="cape" />
		<tag k="ssr:stedsnr" v="335371" />
	</node>
	<node id="-102527" lat="62.2655722257" lon="7.23860278449">
		<tag k="name" v="Kyrkjefjellneset" />
		<tag k="natural" v="cape" />
		<tag k="ssr:stedsnr" v="335436" />
	</node>
	<node id="-102526" lat="62.2616666678" lon="7.20851111239">
		<tag k="name" v="Svarthammaren" />
		<tag k="natural" v="cape" />
		<tag k="ssr:stedsnr" v="335427" />
	</node>
	<node id="-102525" lat="62.4167805595" lon="6.94552500935">
		<tag k="name" v="Vikaneset" />
		<tag k="natural" v="cape" />
		<tag k="ssr:stedsnr" v="335345" />
	</node>
	<node id="-100986" lat="62.3813555579" lon="6.9749305626">
		<tag k="name" v="Stordalsvika" />
>>>>>>> e1d4bc35ff8a6074a6f2e91616a996b547c36f15
		<tag k="natural" v="bay" />
		<tag k="ssr:stedsnr" v="652493" />
	</node>
<<<<<<< HEAD
	<node lat="62.27099166304271" lon="7.360247215923841" id="-7824">
		<tag k="name" v="Litleneset" />
=======
	<node id="-102009" lat="62.4016833363" lon="6.94471945093">
		<tag k="name" v="Stavnesodden" />
>>>>>>> e1d4bc35ff8a6074a6f2e91616a996b547c36f15
		<tag k="natural" v="cape" />
		<tag k="ssr:stedsnr" v="895285" />
	</node>
<<<<<<< HEAD
	<node lat="62.38834166595753" lon="6.889530557639796" id="-7833">
		<tag k="name" v="Korsadalsvika" />
=======
	<node id="-101489" lat="62.3739166623" lon="6.95982778412">
		<tag k="name" v="Holmebugen" />
>>>>>>> e1d4bc35ff8a6074a6f2e91616a996b547c36f15
		<tag k="natural" v="bay" />
		<tag k="ssr:stedsnr" v="699308" />
	</node>
<<<<<<< HEAD
	<node lat="62.41345833560342" lon="6.946658327594094" id="-7855">
		<tag k="name" v="Saltarvika" />
=======
	<node id="-101484" lat="62.2427583324" lon="7.4017694456">
		<tag k="name" v="Geitvika" />
>>>>>>> e1d4bc35ff8a6074a6f2e91616a996b547c36f15
		<tag k="natural" v="bay" />
		<tag k="ssr:stedsnr" v="702663" />
	</node>
<<<<<<< HEAD
	<node lat="62.2869500039485" lon="7.317947216246064" id="-7872">
		<tag k="name" v="Skolten" />
=======
	<node id="-101992" lat="62.2187888874" lon="7.04269165723">
		<tag k="name" v="Koppvika" />
>>>>>>> e1d4bc35ff8a6074a6f2e91616a996b547c36f15
		<tag k="natural" v="bay" />
		<tag k="ssr:stedsnr" v="713484" />
	</node>
<<<<<<< HEAD
	<node lat="62.28430833563878" lon="7.329313887236324" id="-7873">
		<tag k="name" v="Uksnesbugen" />
		<tag k="natural" v="bay" />
		<tag k="ssr:stedsnr" v="713488" />
	</node>
	<node lat="62.291758334552014" lon="7.158536102152696" id="-7907">
		<tag k="name" v="Blikshammarbugen" />
		<tag k="natural" v="bay" />
		<tag k="ssr:stedsnr" v="759351" />
	</node>
	<node lat="62.27951389040382" lon="7.364905554304719" id="-7931">
		<tag k="name" v="Furenesodden" />
		<tag k="natural" v="cape" />
		<tag k="ssr:stedsnr" v="774266" />
	</node>
	<node lat="62.29241666292237" lon="7.295033324253136" id="-7934">
		<tag k="name" v="Vikaneset" />
=======
	<node id="-101991" lat="62.4004888928" lon="6.9013916745">
		<tag k="name" v="Skotsneset" />
		<tag k="natural" v="cape" />
		<tag k="ssr:stedsnr" v="942323" />
	</node>
	<node id="-103014" lat="62.4240805584" lon="6.94196111035">
		<tag k="name" v="Smineset" />
		<tag k="natural" v="cape" />
		<tag k="ssr:stedsnr" v="738678" />
	</node>
	<node id="-101990" lat="62.4307083337" lon="6.92674444577">
		<tag k="name" v="Ramskjerneset" />
		<tag k="natural" v="cape" />
		<tag k="ssr:stedsnr" v="942319" />
	</node>
	<node id="-101983" lat="62.2934638923" lon="7.23916110487">
		<tag k="name" v="Meneset" />
		<tag k="natural" v="cape" />
		<tag k="ssr:stedsnr" v="835809" />
	</node>
	<node id="-101470" lat="62.2778972249" lon="7.22338333601">
		<tag k="bay" v="fjord" />
		<tag k="name" v="Norddalsfjorden" />
		<tag k="natural" v="bay" />
		<tag k="ssr:stedsnr" v="375611" />
	</node>
	<node id="-102488" lat="62.4315055553" lon="6.92338056119">
		<tag k="name" v="Hegrehalsen" />
>>>>>>> e1d4bc35ff8a6074a6f2e91616a996b547c36f15
		<tag k="natural" v="cape" />
		<tag k="ssr:stedsnr" v="774556" />
	</node>
<<<<<<< HEAD
	<node lat="62.2501194407876" lon="7.401841661600126" id="-7950">
		<tag k="name" v="Seineset" />
=======
	<node id="-102487" lat="62.4304638855" lon="6.92654444774">
		<tag k="name" v="Ramskarneset" />
>>>>>>> e1d4bc35ff8a6074a6f2e91616a996b547c36f15
		<tag k="natural" v="cape" />
		<tag k="ssr:stedsnr" v="800811" />
	</node>
<<<<<<< HEAD
	<node lat="62.403927774527574" lon="6.906686105606142" id="-7978">
		<tag k="name" v="Heggurbukta" />
=======
	<node id="-102482" lat="62.2809722191" lon="7.36505000666">
		<tag k="name" v="Furnesbugen" />
		<tag k="natural" v="bay" />
		<tag k="ssr:stedsnr" v="213383" />
	</node>
	<node id="-102993" lat="62.292575" lon="7.28026388051">
		<tag k="name" v="Honesbugen" />
>>>>>>> e1d4bc35ff8a6074a6f2e91616a996b547c36f15
		<tag k="natural" v="bay" />
		<tag k="ssr:stedsnr" v="921646" />
	</node>
<<<<<<< HEAD
	<node lat="62.4016833362674" lon="6.944719450934628" id="-8019">
		<tag k="name" v="Stavnesodden" />
=======
	<node id="-101961" lat="62.3738277776" lon="6.93728888285">
		<tag k="name" v="Stordalsholmen" />
>>>>>>> e1d4bc35ff8a6074a6f2e91616a996b547c36f15
		<tag k="natural" v="cape" />
		<tag k="ssr:stedsnr" v="860771" />
	</node>
<<<<<<< HEAD
	<node lat="62.27635833233134" lon="7.250074998148109" id="-8028">
		<tag k="name" v="Brudehammaren" />
=======
	<node id="-102464" lat="62.2788222262" lon="7.25160554797">
		<tag k="name" v="Hestholmen" />
>>>>>>> e1d4bc35ff8a6074a6f2e91616a996b547c36f15
		<tag k="natural" v="cape" />
		<tag k="ssr:stedsnr" v="881402" />
	</node>
<<<<<<< HEAD
	<node lat="62.25105766749838" lon="7.427973541597296" id="-8116">
		<tag k="name" v="Muldalsvika" />
=======
	<node id="-101301" lat="62.2623222238" lon="7.20444443606">
		<tag k="name" v="Bolletneset" />
		<tag k="natural" v="cape" />
		<tag k="ssr:stedsnr" v="460428" />
	</node>
	<node id="-102459" lat="62.2936999989" lon="7.29602221474">
		<tag k="name" v="Rusetbugen" />
>>>>>>> e1d4bc35ff8a6074a6f2e91616a996b547c36f15
		<tag k="natural" v="bay" />
		<tag k="ssr:stedsnr" v="982549" />
	</node>
<<<<<<< HEAD
	<node lat="62.42385833223673" lon="6.886213892215649" id="-8130">
		<tag k="name" v="Ytste Vollvika" />
=======
	<node id="-101941" lat="62.3741722214" lon="6.96381388347">
		<tag k="name" v="Stølevika" />
>>>>>>> e1d4bc35ff8a6074a6f2e91616a996b547c36f15
		<tag k="natural" v="bay" />
		<tag k="old_name" v="Volvika, ytste" />
		<tag k="ssr:stedsnr" v="10686" />
	</node>
<<<<<<< HEAD
	<node lat="62.38135555793146" lon="6.974930562599625" id="-8140">
		<tag k="name" v="Stordalsvika" />
		<tag k="natural" v="bay" />
		<tag k="ssr:stedsnr" v="11720" />
	</node>
	<node lat="62.23795833464379" lon="7.409299992711755" id="-8163">
		<tag k="name" v="Geitvikneset" />
		<tag k="natural" v="cape" />
		<tag k="ssr:stedsnr" v="31452" />
	</node>
	<node lat="62.27801111279353" lon="7.041872218762369" id="-8193">
		<tag k="name" v="Skarveskjetet" />
		<tag k="natural" v="cape" />
		<tag k="ssr:stedsnr" v="45140" />
	</node>
	<node lat="62.394569443322595" lon="6.895169435300038" id="-8240">
		<tag k="name" v="Krammaneset" />
=======
	<node id="-101119" lat="62.3744333363" lon="6.96617777332">
		<tag k="name" v="Støleneset" />
		<tag k="natural" v="cape" />
		<tag k="ssr:stedsnr" v="276797" />
	</node>
	<node id="-101930" lat="62.2501194408" lon="7.4018416616">
		<tag k="name" v="Seineset" />
		<tag k="natural" v="cape" />
		<tag k="ssr:stedsnr" v="800811" />
	</node>
	<node id="-101417" lat="62.2747777766" lon="7.34326389666">
		<tag k="name" v="Kastenaustet" />
		<tag k="natural" v="bay" />
		<tag k="ssr:stedsnr" v="348302" />
	</node>
	<node id="-102951" lat="62.3731999972" lon="6.95021667249">
		<tag k="name" v="Køvhola" />
		<tag k="natural" v="bay" />
		<tag k="ssr:stedsnr" v="640756" />
	</node>
	<node id="-102947" lat="62.3871555591" lon="6.88910000805">
		<tag k="name" v="Korsadalsneset" />
>>>>>>> e1d4bc35ff8a6074a6f2e91616a996b547c36f15
		<tag k="natural" v="cape" />
		<tag k="ssr:stedsnr" v="92338" />
	</node>
<<<<<<< HEAD
	<node lat="62.216744442005385" lon="7.039913883964151" id="-8241">
		<tag k="name" v="Koppneset" />
=======
	<node id="-102946" lat="62.2587222213" lon="7.0345999973">
		<tag k="name" v="Raudberg" />
>>>>>>> e1d4bc35ff8a6074a6f2e91616a996b547c36f15
		<tag k="natural" v="cape" />
		<tag k="ssr:stedsnr" v="93353" />
	</node>
<<<<<<< HEAD
	<node lat="62.3864666633091" lon="6.959252771745463" id="-8248">
		<tag k="name" v="Seljeneshola" />
=======
	<node id="-101400" lat="62.3814694458" lon="6.98480833667">
		<tag k="name" v="Vinjebugen" />
>>>>>>> e1d4bc35ff8a6074a6f2e91616a996b547c36f15
		<tag k="natural" v="bay" />
		<tag k="ssr:stedsnr" v="95000" />
	</node>
<<<<<<< HEAD
	<node lat="62.27671944423884" lon="7.104391663425478" id="-8269">
		<tag k="name" v="Gobelaget" />
=======
	<node id="-101395" lat="62.2823583338" lon="7.28842500328">
		<tag k="name" v="Kvernhusneset" />
>>>>>>> e1d4bc35ff8a6074a6f2e91616a996b547c36f15
		<tag k="natural" v="cape" />
		<tag k="ssr:stedsnr" v="107094" />
	</node>
<<<<<<< HEAD
	<node lat="62.28024444399999" lon="7.131655563913425" id="-8270">
		<tag k="name" v="Oterskinnet" />
		<tag k="natural" v="cape" />
		<tag k="ssr:stedsnr" v="107099" />
	</node>
	<node lat="62.25329166613236" lon="7.226777775568568" id="-8282">
		<tag k="name" v="Bugen" />
		<tag k="natural" v="bay" />
		<tag k="ssr:stedsnr" v="106940" />
	</node>
	<node lat="62.224199998793054" lon="7.03917777873958" id="-8305">
		<tag k="bay" v="fjord" />
		<tag k="name" v="Sunnylvsfjorden" />
=======
	<node id="-102918" lat="62.4084138889" lon="6.91245000312">
		<tag k="name" v="Naustvika" />
>>>>>>> e1d4bc35ff8a6074a6f2e91616a996b547c36f15
		<tag k="natural" v="bay" />
		<tag k="ssr:stedsnr" v="132298" />
	</node>
<<<<<<< HEAD
	<node lat="62.284566665780204" lon="7.265480561681518" id="-8310">
		<tag k="name" v="Vindsneset" />
		<tag k="natural" v="cape" />
		<tag k="ssr:stedsnr" v="132658" />
	</node>
	<node lat="62.39726111385378" lon="6.9064166695885465" id="-8328">
		<tag k="bay" v="fjord" />
		<tag k="name" v="Storfjorden" />
		<tag k="natural" v="bay" />
		<tag k="ssr:stedsnr" v="155849" />
	</node>
	<node lat="62.38312778029334" lon="6.974363897599995" id="-8333">
		<tag k="name" v="Morthola" />
		<tag k="natural" v="bay" />
		<tag k="ssr:stedsnr" v="155743" />
	</node>
	<node lat="62.38745184010587" lon="6.957872327758027" id="-8416">
		<tag k="name" v="Seljeneset" />
		<tag k="natural" v="cape" />
		<tag k="ssr:stedsnr" v="193703" />
	</node>
	<node lat="62.293699998916274" lon="7.296022214744636" id="-8423">
		<tag k="name" v="Rusetbugen" />
		<tag k="natural" v="bay" />
		<tag k="ssr:stedsnr" v="193856" />
	</node>
	<node lat="62.27882222623039" lon="7.251605547972909" id="-8428">
		<tag k="name" v="Hestholmen" />
		<tag k="natural" v="cape" />
		<tag k="ssr:stedsnr" v="193873" />
	</node>
	<node lat="62.27113055730577" lon="7.242902778780271" id="-8477">
		<tag k="name" v="Bukkesprangneset" />
		<tag k="natural" v="cape" />
		<tag k="ssr:stedsnr" v="274374" />
	</node>
	<node lat="62.37443333630774" lon="6.966177773321126" id="-8478">
		<tag k="name" v="Støleneset" />
		<tag k="natural" v="cape" />
		<tag k="ssr:stedsnr" v="276797" />
	</node>
	<node lat="62.291225000945175" lon="7.311008333202598" id="-8573">
		<tag k="name" v="Selstokkneset" />
		<tag k="natural" v="cape" />
		<tag k="ssr:stedsnr" v="335371" />
	</node>
	<node lat="62.261666667839584" lon="7.208511112388002" id="-8574">
		<tag k="name" v="Svarthammaren" />
		<tag k="natural" v="cape" />
		<tag k="ssr:stedsnr" v="335427" />
	</node>
	<node lat="62.265572225687116" lon="7.2386027844859" id="-8575">
		<tag k="name" v="Kyrkjefjellneset" />
		<tag k="natural" v="cape" />
		<tag k="ssr:stedsnr" v="335436" />
	</node>
	<node lat="62.274777776571234" lon="7.3432638966589225" id="-8597">
		<tag k="name" v="Kastenaustet" />
		<tag k="natural" v="bay" />
		<tag k="ssr:stedsnr" v="348302" />
	</node>
	<node lat="62.29058610906988" lon="7.28323888527819" id="-8630">
		<tag k="name" v="Honeset" />
		<tag k="natural" v="cape" />
		<tag k="ssr:stedsnr" v="375841" />
	</node>
	<node lat="62.384683329664234" lon="6.887002771092091" id="-8638">
		<tag k="name" v="Værflåneset" />
		<tag k="natural" v="cape" />
		<tag k="ssr:stedsnr" v="395351" />
	</node>
	<node lat="62.28638889225861" lon="7.212169437702156" id="-8639">
		<tag k="name" v="Lingebugen" />
		<tag k="natural" v="bay" />
		<tag k="ssr:stedsnr" v="395365" />
	</node>
	<node lat="62.34238333711181" lon="6.956947217984575" id="-8640">
		<tag k="name" v="Knurrestøa" />
		<tag k="natural" v="cape" />
		<tag k="ssr:stedsnr" v="395374" />
	</node>
	<node lat="62.230905558566825" lon="7.038644443440007" id="-8658">
		<tag k="name" v="Smogebugane" />
		<tag k="natural" v="bay" />
		<tag k="ssr:stedsnr" v="409066" />
	</node>
	<node lat="62.284794440117565" lon="7.203394446015864" id="-8660">
		<tag k="name" v="Grautahamna" />
		<tag k="natural" v="bay" />
		<tag k="ssr:stedsnr" v="409013" />
	</node>
	<node lat="62.290988888363266" lon="7.2307388815478575" id="-8672">
		<tag k="name" v="Åsebugen" />
		<tag k="natural" v="bay" />
		<tag k="ssr:stedsnr" v="410794" />
	</node>
	<node lat="62.29294444650279" lon="7.30291389223227" id="-8676">
		<tag k="name" v="Hyseneset" />
		<tag k="natural" v="cape" />
		<tag k="ssr:stedsnr" v="410511" />
	</node>
	<node lat="62.4190472248916" lon="6.888858334495153" id="-8693">
		<tag k="name" v="Vollvika" />
		<tag k="natural" v="bay" />
		<tag k="old_name" v="Volvika" />
		<tag k="ssr:stedsnr" v="435685" />
	</node>
	<node lat="62.24275833244042" lon="7.401769445603554" id="-8752">
		<tag k="name" v="Geitvika" />
		<tag k="natural" v="bay" />
		<tag k="ssr:stedsnr" v="517453" />
	</node>
	<node lat="62.4214666640213" lon="6.8902166754836776" id="-8817">
		<tag k="name" v="Vollvikneset" />
		<tag k="natural" v="cape" />
		<tag k="old_name" v="Volvikneset" />
		<tag k="ssr:stedsnr" v="556697" />
	</node>
	<node lat="62.28773888577" lon="7.343797219464843" id="-8830">
		<tag k="bay" v="fjord" />
		<tag k="name" v="Tafjorden" />
		<tag k="natural" v="bay" />
		<tag k="ssr:stedsnr" v="556525" />
	</node>
	<node lat="62.39824166261016" lon="6.949202776845373" id="-8855">
		<tag k="name" v="Stavnesbugen" />
		<tag k="natural" v="bay" />
		<tag k="ssr:stedsnr" v="577324" />
	</node>
	<node lat="62.422455553231735" lon="6.943586111704308" id="-8856">
		<tag k="name" v="Smivika" />
		<tag k="natural" v="bay" />
		<tag k="ssr:stedsnr" v="577325" />
	</node>
	<node lat="62.38999166554299" lon="6.8904555506197145" id="-8857">
=======
	<node id="-101803" lat="62.270991663" lon="7.36024721592">
>>>>>>> e1d4bc35ff8a6074a6f2e91616a996b547c36f15
		<tag k="name" v="Litleneset" />
		<tag k="natural" v="cape" />
		<tag k="ssr:stedsnr" v="579182" />
	</node>
<<<<<<< HEAD
	<node lat="62.38409166344733" lon="6.9844472287176735" id="-8859">
		<tag k="name" v="Hovsbugen" />
		<tag k="natural" v="bay" />
		<tag k="ssr:stedsnr" v="579661" />
	</node>
	<node lat="62.36768055824364" lon="6.940277771554516" id="-8861">
		<tag k="name" v="Tobaksnes" />
		<tag k="natural" v="cape" />
		<tag k="ssr:stedsnr" v="579776" />
	</node>
	<node lat="62.40841388888301" lon="6.912450003118342" id="-8922">
		<tag k="name" v="Naustvika" />
		<tag k="natural" v="bay" />
		<tag k="ssr:stedsnr" v="617635" />
	</node>
	<node lat="62.258722221294846" lon="7.034599997299822" id="-8945">
		<tag k="name" v="Raudberg" />
		<tag k="natural" v="cape" />
		<tag k="ssr:stedsnr" v="638128" />
	</node>
	<node lat="62.3871555590902" lon="6.8891000080494855" id="-8946">
		<tag k="name" v="Korsadalsneset" />
		<tag k="natural" v="cape" />
		<tag k="ssr:stedsnr" v="640198" />
	</node>
	<node lat="62.373199997235815" lon="6.9502166724896455" id="-8949">
		<tag k="name" v="Køvhola" />
		<tag k="natural" v="bay" />
		<tag k="ssr:stedsnr" v="640756" />
	</node>
	<node lat="62.42408055838837" lon="6.941961110346723" id="-9023">
		<tag k="name" v="Smineset" />
		<tag k="natural" v="cape" />
		<tag k="ssr:stedsnr" v="738678" />
	</node>
	<node lat="62.28548333110334" lon="7.177136107901841" id="-9034">
		<tag k="name" v="Kvitneset" />
		<tag k="natural" v="cape" />
		<tag k="ssr:stedsnr" v="739570" />
	</node>
	<node lat="62.28230278219973" lon="7.303047217993173" id="-9051">
		<tag k="name" v="Åkreneset" />
		<tag k="natural" v="cape" />
		<tag k="ssr:stedsnr" v="759329" />
	</node>
	<node lat="62.37230555737865" lon="6.942536102805262" id="-9052">
		<tag k="name" v="Brønneset" />
		<tag k="natural" v="cape" />
		<tag k="ssr:stedsnr" v="759338" />
	</node>
	<node lat="62.409227779587646" lon="6.948424993317334" id="-9059">
		<tag k="name" v="Landflæene" />
		<tag k="natural" v="shoal" />
		<tag k="place" v="locality" />
		<tag k="ssr:stedsnr" v="762681" />
	</node>
	<node lat="62.273574999250606" lon="7.246091659053472" id="-9130">
		<tag k="name" v="Geitvika" />
		<tag k="natural" v="bay" />
		<tag k="ssr:stedsnr" v="800861" />
	</node>
	<node lat="62.37417222144552" lon="6.963813883473777" id="-9137">
		<tag k="name" v="Stølevika" />
		<tag k="natural" v="bay" />
		<tag k="ssr:stedsnr" v="820355" />
	</node>
	<node lat="62.235702779753765" lon="7.036847230005406" id="-9138">
		<tag k="name" v="Smogeneset" />
		<tag k="natural" v="cape" />
		<tag k="ssr:stedsnr" v="820477" />
	</node>
	<node lat="62.26335000364635" lon="7.400150003889264" id="-9170">
		<tag k="name" v="Inste Grynnvika" />
		<tag k="natural" v="bay" />
		<tag k="ssr:stedsnr" v="834241" />
	</node>
	<node lat="62.293463892332994" lon="7.2391611048691455" id="-9199">
		<tag k="name" v="Meneset" />
		<tag k="natural" v="cape" />
		<tag k="ssr:stedsnr" v="835809" />
	</node>
	<node lat="62.36464167064027" lon="6.938633327495343" id="-9240">
		<tag k="name" v="Holmeneset" />
		<tag k="natural" v="cape" />
		<tag k="ssr:stedsnr" v="861661" />
	</node>
	<node lat="62.277363886695376" lon="7.337319444444136" id="-9246">
		<tag k="name" v="Kastebukta" />
		<tag k="natural" v="bay" />
		<tag k="ssr:stedsnr" v="861877" />
	</node>
	<node lat="62.36479444433232" lon="6.889136116926555" id="-9250">
		<tag k="name" v="Skjortnesvika" />
		<tag k="natural" v="bay" />
		<tag k="ssr:stedsnr" v="880059" />
	</node>
	<node lat="62.27098611427945" lon="7.354147214589376" id="-9252">
		<tag k="name" v="Kastekoppen" />
		<tag k="natural" v="bay" />
		<tag k="ssr:stedsnr" v="881417" />
	</node>
	<node lat="62.373827777595764" lon="6.937288882845986" id="-9279">
		<tag k="name" v="Stordalsholmen" />
		<tag k="natural" v="cape" />
		<tag k="ssr:stedsnr" v="936970" />
	</node>
	<node lat="62.43070833374101" lon="6.926744445768481" id="-9281">
		<tag k="name" v="Ramskjerneset" />
		<tag k="natural" v="cape" />
		<tag k="ssr:stedsnr" v="942319" />
	</node>
	<node lat="62.40048889281499" lon="6.901391674502821" id="-9282">
		<tag k="name" v="Skotsneset" />
		<tag k="natural" v="cape" />
		<tag k="ssr:stedsnr" v="942323" />
	</node>
	<node lat="62.21878888735874" lon="7.042691657233331" id="-9283">
		<tag k="name" v="Koppvika" />
		<tag k="natural" v="bay" />
		<tag k="ssr:stedsnr" v="942396" />
	</node>
	<node lat="62.380552780158354" lon="6.983699996390297" id="-9285">
		<tag k="name" v="Gyljeneset" />
		<tag k="natural" v="cape" />
		<tag k="ssr:stedsnr" v="944628" />
	</node>
	<node lat="62.27790000366496" lon="7.122616659458701" id="-9321">
		<tag k="name" v="Pinå" />
		<tag k="natural" v="bay" />
		<tag k="ssr:stedsnr" v="956128" />
	</node>
=======
>>>>>>> e1d4bc35ff8a6074a6f2e91616a996b547c36f15
</osm>
