<?xml version="1.0" encoding="UTF-8"?>
<osm generator="osmapis" version="0.6">
	<node id="-12288" lat="62.2487666643" lon="7.18499443869">
		<tag k="name" v="Storåselva" />
		<tag k="ssr:stedsnr" v="521389" />
		<tag k="waterway" v="stream" />
	</node>
	<node id="-12287" lat="62.208141668" lon="7.13420276935">
		<tag k="name" v="Skusetelva" />
		<tag k="ssr:stedsnr" v="521387" />
		<tag k="waterway" v="stream" />
	</node>
	<node id="-12286" lat="62.1692638907" lon="7.1746166698">
		<tag k="name" v="Elvakrokane" />
		<tag k="ssr:stedsnr" v="521382" />
		<tag k="waterway" v="river" />
	</node>
	<node id="-12284" lat="62.1962999991" lon="7.15496666492">
		<tag k="name" v="Raudgrova" />
		<tag k="ssr:stedsnr" v="521375" />
		<tag k="waterway" v="stream" />
	</node>
	<node id="-12280" lat="62.3974888928" lon="7.21367777065">
		<tag k="name" v="Hjellvad" />
		<tag k="natural" v="shoal" />
		<tag k="place" v="locality" />
		<tag k="ssr:stedsnr" v="520701" />
	</node>
	<node id="-12277" lat="62.3620833314" lon="7.08256665818">
		<tag k="name" v="Eineneset" />
		<tag k="natural" v="cape" />
		<tag k="ssr:stedsnr" v="520552" />
	</node>
	<node id="-12264" lat="62.401441671" lon="6.87338611643">
		<tag k="name" v="Vidhammarelva" />
		<tag k="ssr:stedsnr" v="519848" />
		<tag k="waterway" v="stream" />
	</node>
	<node id="-12263" lat="62.4372111119" lon="7.33484444454">
		<tag k="name" v="Litlevatnet" />
		<tag k="natural" v="water" />
		<tag k="ssr:stedsnr" v="436999" />
	</node>
	<node id="-12259" lat="62.2641138874" lon="7.53944723092">
		<tag k="name" v="Stolselva" />
		<tag k="ssr:stedsnr" v="436821" />
		<tag k="waterway" v="stream" />
	</node>
	<node id="-12258" lat="62.2635972218" lon="7.52103888847">
		<tag k="name" v="Muldalselva" />
		<tag k="ssr:stedsnr" v="436818" />
		<tag k="waterway" v="river" />
	</node>
	<node id="-12254" lat="62.3231249984" lon="7.61577221993">
		<tag k="name" v="Grøndalsvatnet" />
		<tag k="natural" v="water" />
		<tag k="ssr:stedsnr" v="436759" />
	</node>
	<node id="-12243" lat="62.1247027766" lon="7.42653055565">
		<tag k="name" v="Fagerbotnvatnet" />
		<tag k="natural" v="water" />
		<tag k="ssr:stedsnr" v="436066" />
		<tag k="water" v="lake" />
	</node>
	<node id="-12239" lat="62.2478944478" lon="7.0618916625">
		<tag k="name" v="Grøtdalsvatnet" />
		<tag k="natural" v="water" />
		<tag k="ssr:stedsnr" v="436241" />
	</node>
	<node id="-12233" lat="62.4339861136" lon="6.99632777989">
		<tag k="name" v="Kroketevatnet" />
		<tag k="natural" v="water" />
		<tag k="ssr:stedsnr" v="435697" />
	</node>
	<node id="-12229" lat="62.3106083325" lon="7.68313611719">
		<tag k="name" v="Illstigvatnet" />
		<tag k="natural" v="water" />
		<tag k="ssr:stedsnr" v="435868" />
	</node>
	<node id="-12225" lat="62.2233583341" lon="7.69322777544">
		<tag k="alt_name" v="Isholvatnet, fremste" />
		<tag k="name" v="Fremste Isholvatnet" />
		<tag k="natural" v="water" />
		<tag k="ssr:stedsnr" v="435001" />
	</node>
	<node id="-12223" lat="62.2275027737" lon="7.56561112034">
		<tag k="name" v="Djupdalsvatnet" />
		<tag k="natural" v="water" />
		<tag k="ssr:stedsnr" v="435031" />
	</node>
	<node id="-12216" lat="62.3842166623" lon="7.5864111064">
		<tag k="name" v="Harpå" />
		<tag k="ssr:stedsnr" v="410806" />
		<tag k="waterway" v="stream" />
	</node>
	<node id="-12211" lat="62.187288891" lon="7.56151111256">
		<tag k="name" v="Longtangen" />
		<tag k="natural" v="cape" />
		<tag k="ssr:stedsnr" v="410733" />
	</node>
	<node id="-12210" lat="62.3979500007" lon="7.59985277666">
		<tag k="name" v="Meiadalskoppelva" />
		<tag k="ssr:stedsnr" v="410725" />
		<tag k="waterway" v="river" />
	</node>
	<node id="-12200" lat="62.3254722202" lon="7.38882777121">
		<tag k="name" v="Heggeelva" />
		<tag k="ssr:stedsnr" v="410124" />
		<tag k="waterway" v="stream" />
	</node>
	<node id="-12196" lat="62.3478194446" lon="7.41071111128">
		<tag k="name" v="Kyrfonnhølen" />
		<tag k="place" v="locality" />
		<tag k="ssr:stedsnr" v="409635" />
	</node>
	<node id="-12194" lat="62.312580554" lon="7.23733332672">
		<tag k="name" v="Kvislegrova" />
		<tag k="ssr:stedsnr" v="409614" />
		<tag k="waterway" v="stream" />
	</node>
	<node id="-12192" lat="62.2158555586" lon="7.42583056348">
		<tag k="name" v="Vika" />
		<tag k="natural" v="bay" />
		<tag k="ssr:stedsnr" v="409157" />
	</node>
	<node id="-12190" lat="62.2303916663" lon="7.04270555507">
		<tag k="name" v="Bytegrova" />
		<tag k="ssr:stedsnr" v="409117" />
		<tag k="waterway" v="stream" />
	</node>
	<node id="-12177" lat="62.432744447" lon="7.31143610498">
		<tag k="name" v="Brynebotselva" />
		<tag k="ssr:stedsnr" v="399694" />
		<tag k="waterway" v="river" />
	</node>
	<node id="-12162" lat="62.407647218" lon="6.95424166468">
		<tag k="name" v="Stavneselva" />
		<tag k="ssr:stedsnr" v="398683" />
		<tag k="waterway" v="stream" />
	</node>
	<node id="-12133" lat="62.2968805521" lon="7.19320556419">
		<tag k="name" v="Vardevatnet" />
		<tag k="natural" v="water" />
		<tag k="ssr:stedsnr" v="375541" />
	</node>
	<node id="-12131" lat="62.3602444409" lon="7.2176888963">
		<tag k="name" v="Geitabottsvatna" />
		<tag k="natural" v="water" />
		<tag k="ssr:stedsnr" v="375490" />
	</node>
	<node id="-12122" lat="62.1144194424" lon="7.40287499789">
		<tag k="name" v="Stordøla" />
		<tag k="ssr:stedsnr" v="375069" />
		<tag k="waterway" v="stream" />
	</node>
	<node id="-12121" lat="62.3810861102" lon="7.44244445012">
		<tag k="name" v="Kyrfonndalsvatnet" />
		<tag k="natural" v="water" />
		<tag k="ssr:stedsnr" v="374801" />
	</node>
	<node id="-12120" lat="62.3169249982" lon="7.34574723118">
		<tag k="name" v="Eggjevatnet" />
		<tag k="natural" v="water" />
		<tag k="ssr:stedsnr" v="374791" />
	</node>
	<node id="-12117" lat="62.2438638876" lon="7.40067221746">
		<tag k="name" v="Slufsa" />
		<tag k="ssr:stedsnr" v="374481" />
		<tag k="waterway" v="stream" />
	</node>
	<node id="-12112" lat="62.2164833336" lon="7.34486388866">
		<tag k="name" v="Kallskarelva" />
		<tag k="ssr:stedsnr" v="374034" />
		<tag k="waterway" v="stream" />
	</node>
	<node id="-12110" lat="62.2150249958" lon="7.49106389497">
		<tag k="name" v="Høgskredvatnet" />
		<tag k="natural" v="water" />
		<tag k="ssr:stedsnr" v="374003" />
	</node>
	<node id="-12101" lat="62.3298527797" lon="7.5343583386">
		<tag k="name" v="Sagelva" />
		<tag k="ssr:stedsnr" v="349836" />
		<tag k="waterway" v="river" />
	</node>
	<node id="-12099" lat="62.2986111074" lon="7.22803610942">
		<tag k="name" v="Fossane" />
		<tag k="natural" v="waterfall" />
		<tag k="ssr:stedsnr" v="349825" />
	</node>
	<node id="-12092" lat="62.2049666666" lon="7.4329388888">
		<tag k="name" v="Kaldhuselva" />
		<tag k="ssr:stedsnr" v="349110" />
		<tag k="waterway" v="stream" />
	</node>
	<node id="-12091" lat="62.2479388853" lon="7.2521750094">
		<tag k="name" v="Kjellsgrova" />
		<tag k="ssr:stedsnr" v="348931" />
		<tag k="waterway" v="stream" />
	</node>
	<node id="-12062" lat="62.393411109" lon="7.01946111126">
		<tag k="name" v="Midtbustelva" />
		<tag k="ssr:stedsnr" v="337599" />
		<tag k="waterway" v="river" />
	</node>
	<node id="-12051" lat="62.2548739575" lon="7.43519524456">
		<tag k="name" v="Muldalsfossen" />
		<tag k="natural" v="waterfall" />
		<tag k="ssr:stedsnr" v="324905" />
	</node>
	<node id="-12047" lat="62.3266999971" lon="7.28336111689">
		<tag k="name" v="Gullåa" />
		<tag k="ssr:stedsnr" v="315626" />
		<tag k="waterway" v="stream" />
	</node>
	<node id="-12044" lat="62.4190631232" lon="7.22855291708">
		<tag k="name" v="Kvitlane" />
		<tag k="natural" v="cape" />
		<tag k="ssr:stedsnr" v="314976" />
	</node>
	<node id="-12043" lat="62.3951166638" lon="7.34358610702">
		<tag k="name" v="Fremstevatnet" />
		<tag k="natural" v="water" />
		<tag k="ssr:stedsnr" v="314940" />
	</node>
	<node id="-12038" lat="62.3790916711" lon="7.60135833964">
		<tag k="name" v="Litlelangdalselva" />
		<tag k="ssr:stedsnr" v="314785" />
		<tag k="waterway" v="stream" />
	</node>
	<node id="-12032" lat="62.4031166693" lon="6.87457222057">
		<tag k="name" v="Vidhammarvatnet" />
		<tag k="natural" v="water" />
		<tag k="ssr:stedsnr" v="314645" />
	</node>
	<node id="-12025" lat="62.1224638857" lon="7.3750499977">
		<tag k="name" v="Slettdalsvatnet" />
		<tag k="natural" v="water" />
		<tag k="ssr:stedsnr" v="314070" />
		<tag k="water" v="lake" />
	</node>
	<node id="-12022" lat="62.1707305524" lon="7.69388610588">
		<tag k="name" v="Smettevatnet" />
		<tag k="natural" v="water" />
		<tag k="ssr:stedsnr" v="314035" />
	</node>
	<node id="-12014" lat="62.3719166626" lon="6.88172221841">
		<tag k="name" v="Skjortneselva" />
		<tag k="ssr:stedsnr" v="216137" />
		<tag k="waterway" v="stream" />
	</node>
	<node id="-12001" lat="62.3518861139" lon="7.24822777678">
		<tag k="name" v="Uriskarbottsvatnet" />
		<tag k="natural" v="water" />
		<tag k="ssr:stedsnr" v="193800" />
	</node>
	<node id="-11984" lat="62.3791861117" lon="7.1903972219">
		<tag k="name" v="Storgrova" />
		<tag k="ssr:stedsnr" v="193629" />
		<tag k="waterway" v="stream" />
	</node>
	<node id="-11982" lat="62.3452805514" lon="7.62925833431">
		<tag k="name" v="Steindalselva" />
		<tag k="ssr:stedsnr" v="193734" />
		<tag k="waterway" v="stream" />
	</node>
	<node id="-11972" lat="62.4249861094" lon="7.15199445196">
		<tag k="name" v="Litlevatnet" />
		<tag k="natural" v="water" />
		<tag k="ssr:stedsnr" v="192700" />
	</node>
	<node id="-11971" lat="62.0828166682" lon="7.5990388885">
		<tag k="name" v="Skrådalsvatnet" />
		<tag k="natural" v="water" />
		<tag k="ssr:stedsnr" v="192137" />
	</node>
	<node id="-11959" lat="62.1728194481" lon="7.41723610948">
		<tag k="name" v="Storvika" />
		<tag k="natural" v="bay" />
		<tag k="ssr:stedsnr" v="167095" />
	</node>
	<node id="-11955" lat="62.3457277764" lon="7.40815278271">
		<tag k="name" v="Berlifossen" />
		<tag k="natural" v="waterfall" />
		<tag k="ssr:stedsnr" v="166633" />
	</node>
	<node id="-11951" lat="62.3242666674" lon="7.32580277459">
		<tag k="name" v="Krabbå" />
		<tag k="ssr:stedsnr" v="166385" />
		<tag k="waterway" v="stream" />
	</node>
	<node id="-11945" lat="62.3368527782" lon="7.38804165896">
		<tag k="name" v="Tusulen" />
		<tag k="place" v="locality" />
		<tag k="ssr:stedsnr" v="166286" />
	</node>
	<node id="-11941" lat="62.3753444489" lon="7.24315555071">
		<tag k="name" v="Storkvitla" />
		<tag k="natural" v="cape" />
		<tag k="ssr:stedsnr" v="157845" />
	</node>
	<node id="-11940" lat="62.4362666648" lon="7.32736389821">
		<tag k="name" v="Litlevatnet" />
		<tag k="natural" v="water" />
		<tag k="ssr:stedsnr" v="157660" />
		<tag k="water" v="lake" />
	</node>
	<node id="-11937" lat="62.1981749994" lon="7.15519721883">
		<tag k="name" v="Raudgrova" />
		<tag k="ssr:stedsnr" v="157352" />
		<tag k="waterway" v="stream" />
	</node>
	<node id="-11936" lat="62.2114249983" lon="7.13645554994">
		<tag k="name" v="Stampelva" />
		<tag k="ssr:stedsnr" v="157351" />
		<tag k="waterway" v="stream" />
	</node>
	<node id="-11925" lat="62.4291027787" lon="6.94001944546">
		<tag k="name" v="Liagrova" />
		<tag k="ssr:stedsnr" v="156399" />
		<tag k="waterway" v="stream" />
	</node>
	<node id="-11912" lat="62.3978472239" lon="6.95460555234">
		<tag k="name" v="Stabbegrova" />
		<tag k="ssr:stedsnr" v="155678" />
		<tag k="waterway" v="stream" />
	</node>
	<node id="-11901" lat="62.1833250009" lon="7.42485278576">
		<tag k="name" v="Svartholvatnet" />
		<tag k="natural" v="water" />
		<tag k="ssr:stedsnr" v="142927" />
	</node>
	<node id="-11894" lat="62.268855559" lon="7.11334165915">
		<tag k="name" v="Verpesdalsvatnet" />
		<tag k="natural" v="water" />
		<tag k="ssr:stedsnr" v="132901" />
	</node>
	<node id="-11893" lat="62.27328056" lon="7.25479999672">
		<tag k="name" v="Bytegrova" />
		<tag k="ssr:stedsnr" v="132866" />
		<tag k="waterway" v="stream" />
	</node>
	<node id="-11892" lat="62.3002000011" lon="7.63524443515">
		<tag k="name" v="Fremsteglupen" />
		<tag k="natural" v="water" />
		<tag k="ssr:stedsnr" v="132856" />
	</node>
	<node id="-11890" lat="62.358197219" lon="7.38005554887">
		<tag k="name" v="Kjørsetdalen" />
		<tag k="ssr:stedsnr" v="132791" />
		<tag k="waterway" v="stream" />
	</node>
	<node id="-11880" lat="62.2975944424" lon="7.1736833401">
		<tag k="name" v="Steiggjelselva" />
		<tag k="ssr:stedsnr" v="132614" />
		<tag k="waterway" v="stream" />
	</node>
	<node id="-11864" lat="62.4316222225" lon="7.21608054846">
		<tag k="name" v="Kleivabottselva" />
		<tag k="ssr:stedsnr" v="131691" />
		<tag k="waterway" v="stream" />
	</node>
	<node id="-11860" lat="62.2082666687" lon="7.52413611849">
		<tag k="name" v="Djupdalselva" />
		<tag k="ssr:stedsnr" v="107762" />
		<tag k="waterway" v="river" />
	</node>
	<node id="-10509" lat="62.1589973303" lon="7.18424128569">
		<tag k="name" v="Hesjeelva" />
		<tag k="ssr:stedsnr" v="218380" />
		<tag k="waterway" v="river" />
	</node>
	<node id="-11845" lat="62.2523972218" lon="7.48757499151">
		<tag k="name" v="Høgremsfossen" />
		<tag k="natural" v="waterfall" />
		<tag k="ssr:stedsnr" v="106803" />
	</node>
	<node id="-11841" lat="62.2298916707" lon="7.40703610221">
		<tag k="name" v="Bjørnatjørna" />
		<tag k="natural" v="water" />
		<tag k="ssr:stedsnr" v="106779" />
	</node>
	<node id="-11837" lat="62.3187555567" lon="7.48249999769">
		<tag k="name" v="Fremsteelva" />
		<tag k="ssr:stedsnr" v="106673" />
		<tag k="waterway" v="stream" />
	</node>
	<node id="-10506" lat="62.4296611125" lon="7.30477221321">
		<tag k="name" v="Litlevasselva" />
		<tag k="ssr:stedsnr" v="217688" />
		<tag k="waterway" v="river" />
	</node>
	<node id="-11831" lat="62.2129222198" lon="7.30594721742">
		<tag k="name" v="Fursetelva" />
		<tag k="ssr:stedsnr" v="106575" />
		<tag k="waterway" v="stream" />
	</node>
	<node id="-11828" lat="62.2975638917" lon="7.34378333801">
		<tag k="name" v="Fjellelva" />
		<tag k="ssr:stedsnr" v="106481" />
		<tag k="waterway" v="stream" />
	</node>
	<node id="-11812" lat="62.4074777761" lon="7.22045276901">
		<tag k="name" v="Kvitlane" />
		<tag k="natural" v="cape" />
		<tag k="ssr:stedsnr" v="96842" />
	</node>
	<node id="-11811" lat="62.3664861137" lon="7.26289166133">
		<tag k="name" v="Uriskarelva" />
		<tag k="ssr:stedsnr" v="96827" />
		<tag k="waterway" v="river" />
	</node>
	<node id="-11810" lat="62.378397225" lon="7.2270555647">
		<tag k="name" v="Geitabotselva" />
		<tag k="ssr:stedsnr" v="96822" />
		<tag k="waterway" v="river" />
	</node>
	<node id="-11809" lat="62.4170111079" lon="7.25342500583">
		<tag k="name" v="Litleådalselva" />
		<tag k="ssr:stedsnr" v="96639" />
		<tag k="waterway" v="river" />
	</node>
	<node id="-11804" lat="62.1909694412" lon="7.13748334013">
		<tag k="name" v="Vikarelvane" />
		<tag k="ssr:stedsnr" v="96380" />
		<tag k="waterway" v="stream" />
	</node>
	<node id="-11802" lat="62.4045305535" lon="7.00233332761">
		<tag k="name" v="Botnagrova" />
		<tag k="ssr:stedsnr" v="95500" />
		<tag k="waterway" v="stream" />
	</node>
	<node id="-11799" lat="62.4451472224" lon="7.19527777282">
		<tag k="name" v="Fremste Tverrelva" />
		<tag k="ssr:stedsnr" v="95148" />
		<tag k="waterway" v="river" />
	</node>
	<node id="-11780" lat="62.426494442" lon="7.30007222041">
		<tag k="name" v="Elvabytet" />
		<tag k="place" v="locality" />
		<tag k="ssr:stedsnr" v="72994" />
	</node>
	<node id="-11778" lat="62.2895944436" lon="7.66439166822">
		<tag k="name" v="Krynkelvatnet" />
		<tag k="natural" v="water" />
		<tag k="ssr:stedsnr" v="72852" />
		<tag k="water" v="lake" />
	</node>
	<node id="-11773" lat="62.3442722183" lon="7.09334722936">
		<tag k="name" v="Røelva" />
		<tag k="ssr:stedsnr" v="72535" />
		<tag k="waterway" v="river" />
	</node>
	<node id="-11769" lat="62.4204833317" lon="7.22186110558">
		<tag k="name" v="Storelva" />
		<tag k="ssr:stedsnr" v="72621" />
		<tag k="waterway" v="river" />
	</node>
	<node id="-11768" lat="62.1318111156" lon="7.52127222359">
		<tag k="name" v="Tjønna" />
		<tag k="natural" v="water" />
		<tag k="ssr:stedsnr" v="72084" />
	</node>
	<node id="-11763" lat="62.4146916685" lon="7.0329722186">
		<tag k="name" v="Svartevatnet" />
		<tag k="natural" v="water" />
		<tag k="ssr:stedsnr" v="71680" />
		<tag k="water" v="lake" />
	</node>
	<node id="-11762" lat="62.4160527788" lon="7.71327499348">
		<tag k="name" v="Isglupane" />
		<tag k="natural" v="water" />
		<tag k="ssr:stedsnr" v="71956" />
	</node>
	<node id="-11758" lat="62.1821083366" lon="7.08080277435">
		<tag k="name" v="Gråsteinvatnet" />
		<tag k="natural" v="water" />
		<tag k="ssr:stedsnr" v="71367" />
	</node>
	<node id="-11757" lat="62.1463527806" lon="7.60339443957">
		<tag k="alt_name" v="Hulderkoppvatnet, øvre" />
		<tag k="name" v="Øvre Hulderkoppvatnet" />
		<tag k="natural" v="water" />
		<tag k="ssr:stedsnr" v="71076" />
	</node>
	<node id="-11752" lat="62.2976527781" lon="7.32331110347">
		<tag k="name" v="Reiteelva" />
		<tag k="ssr:stedsnr" v="46483" />
		<tag k="waterway" v="stream" />
	</node>
	<node id="-11747" lat="62.3358611094" lon="7.52662222254">
		<tag k="name" v="Stormyrvatnet" />
		<tag k="natural" v="water" />
		<tag k="ssr:stedsnr" v="45805" />
	</node>
	<node id="-11746" lat="62.2532444402" lon="7.46799721335">
		<tag k="name" v="Muldalselva" />
		<tag k="ssr:stedsnr" v="45776" />
		<tag k="waterway" v="stream" />
	</node>
	<node id="-11742" lat="62.3224861104" lon="7.27480278357">
		<tag k="name" v="Fossen" />
		<tag k="natural" v="waterfall" />
		<tag k="ssr:stedsnr" v="45362" />
	</node>
	<node id="-11736" lat="62.2726861133" lon="7.3312805563">
		<tag k="name" v="Sliksteingrova" />
		<tag k="ssr:stedsnr" v="45268" />
		<tag k="waterway" v="stream" />
	</node>
	<node id="-11734" lat="62.1475611072" lon="7.42008055367">
		<tag k="name" v="Illstielva" />
		<tag k="ssr:stedsnr" v="45200" />
		<tag k="waterway" v="stream" />
	</node>
	<node id="-11733" lat="62.3551249962" lon="7.33728055916">
		<tag k="name" v="Elvane" />
		<tag k="ssr:stedsnr" v="45155" />
		<tag k="waterway" v="stream" />
	</node>
	<node id="-11731" lat="62.1600305526" lon="7.42977221881">
		<tag k="name" v="Løken" />
		<tag k="ssr:stedsnr" v="45118" />
		<tag k="waterway" v="stream" />
	</node>
	<node id="-11729" lat="62.2517722194" lon="7.04049722897">
		<tag k="name" v="Nonshammarsgrova" />
		<tag k="ssr:stedsnr" v="45051" />
		<tag k="waterway" v="stream" />
	</node>
	<node id="-11726" lat="62.3648694442" lon="7.56465555332">
		<tag k="name" v="Severiselva" />
		<tag k="ssr:stedsnr" v="44853" />
		<tag k="waterway" v="river" />
	</node>
	<node id="-11721" lat="62.4100083301" lon="7.22043333756">
		<tag k="name" v="Langkvitla" />
		<tag k="natural" v="cape" />
		<tag k="ssr:stedsnr" v="35867" />
	</node>
	<node id="-11720" lat="62.4443833344" lon="7.2265277727">
		<tag k="name" v="Jolbotselva" />
		<tag k="ssr:stedsnr" v="35844" />
		<tag k="waterway" v="river" />
	</node>
	<node id="-11717" lat="62.4183527783" lon="7.3104444393">
		<tag k="name" v="Storvasselva" />
		<tag k="ssr:stedsnr" v="35724" />
		<tag k="waterway" v="river" />
	</node>
	<node id="-11716" lat="62.4303194464" lon="7.24130277976">
		<tag k="name" v="Dyrdalselva" />
		<tag k="ssr:stedsnr" v="35666" />
		<tag k="waterway" v="river" />
	</node>
	<node id="-11706" lat="62.2227055583" lon="7.14742499194">
		<tag k="name" v="Juvafossen" />
		<tag k="natural" v="waterfall" />
		<tag k="ssr:stedsnr" v="35464" />
	</node>
	<node id="-11700" lat="62.3758861096" lon="7.04885277854">
		<tag k="name" v="Holtfonna" />
		<tag k="ssr:stedsnr" v="35051" />
		<tag k="waterway" v="stream" />
	</node>
	<node id="-11677" lat="62.3885472239" lon="6.95796388524">
		<tag k="name" v="Åkoma" />
		<tag k="natural" v="spring" />
		<tag k="ssr:stedsnr" v="33992" />
	</node>
	<node id="-11661" lat="62.4571083375" lon="7.27016110419">
		<tag k="name" v="Dyrdalsvatnet" />
		<tag k="natural" v="water" />
		<tag k="ssr:stedsnr" v="11988" />
		<tag k="water" v="lake" />
	</node>
	<node id="-11649" lat="62.3785638911" lon="7.21373889072">
		<tag k="name" v="Svarthammargrova" />
		<tag k="ssr:stedsnr" v="10717" />
		<tag k="waterway" v="stream" />
	</node>
	<node id="-11648" lat="62.1783361092" lon="7.2546444444">
		<tag k="name" v="Storvatnet" />
		<tag k="natural" v="water" />
		<tag k="ssr:stedsnr" v="11052" />
		<tag k="water" v="lake" />
	</node>
	<node id="-11643" lat="62.4406999976" lon="7.19683333839">
		<tag k="name" v="Heimste Tverrelva" />
		<tag k="ssr:stedsnr" v="217172" />
		<tag k="waterway" v="river" />
	</node>
	<node id="-11613" lat="62.3587472207" lon="6.97504443606">
		<tag k="name" v="Djupdalselva" />
		<tag k="ssr:stedsnr" v="921575" />
		<tag k="waterway" v="stream" />
	</node>
	<node id="-11609" lat="62.186391671" lon="7.23354443693">
		<tag k="name" v="Litlevatnet" />
		<tag k="natural" v="water" />
		<tag k="ssr:stedsnr" v="921055" />
	</node>
	<node id="-11608" lat="62.1095416648" lon="7.46923055248">
		<tag k="name" v="Kollhøvatnet" />
		<tag k="natural" v="water" />
		<tag k="ssr:stedsnr" v="921110" />
		<tag k="water" v="lake" />
	</node>
	<node id="-11602" lat="62.3649000042" lon="7.34238610261">
		<tag k="name" v="Storahornelva" />
		<tag k="ssr:stedsnr" v="895153" />
		<tag k="waterway" v="stream" />
	</node>
	<node id="-11600" lat="62.3538694481" lon="7.35288888168">
		<tag k="name" v="Svinegrova" />
		<tag k="ssr:stedsnr" v="895149" />
		<tag k="waterway" v="stream" />
	</node>
	<node id="-11597" lat="62.4116611077" lon="7.20588611273">
		<tag k="name" v="Heimste Tverrelva" />
		<tag k="ssr:stedsnr" v="885757" />
		<tag k="waterway" v="river" />
	</node>
	<node id="-11588" lat="62.4365361135" lon="6.94554167517">
		<tag k="name" v="Geitaskarvatnet" />
		<tag k="natural" v="water" />
		<tag k="ssr:stedsnr" v="884276" />
		<tag k="water" v="lake" />
	</node>
	<node id="-11572" lat="62.3873472256" lon="7.20152777365">
		<tag k="name" v="Odden" />
		<tag k="natural" v="cape" />
		<tag k="ssr:stedsnr" v="945859" />
	</node>
	<node id="-11567" lat="62.34184167" lon="7.11108056168">
		<tag k="name" v="Storgrova" />
		<tag k="ssr:stedsnr" v="945543" />
		<tag k="waterway" v="stream" />
	</node>
	<node id="-10751" lat="62.1637166661" lon="7.55030000119">
		<tag k="name" v="Daurmålsvatnet" />
		<tag k="natural" v="water" />
		<tag k="ssr:stedsnr" v="193046" />
	</node>
	<node id="-11547" lat="62.3452638869" lon="6.98273332889">
		<tag k="name" v="Buskarvatnet" />
		<tag k="natural" v="water" />
		<tag k="ssr:stedsnr" v="861514" />
	</node>
	<node id="-11546" lat="62.1348333345" lon="7.62933888387">
		<tag k="name" v="Femånvatnet" />
		<tag k="natural" v="water" />
		<tag k="ssr:stedsnr" v="861075" />
		<tag k="water" v="lake" />
	</node>
	<node id="-11544" lat="62.1829638855" lon="7.59331389292">
		<tag k="name" v="Glupsvatna" />
		<tag k="natural" v="water" />
		<tag k="ssr:stedsnr" v="861064" />
	</node>
	<node id="-11534" lat="62.3616222266" lon="7.35664166966">
		<tag k="name" v="Myklebustelva" />
		<tag k="ssr:stedsnr" v="860819" />
		<tag k="waterway" v="stream" />
	</node>
	<node id="-11530" lat="62.2081722226" lon="7.3403055532">
		<tag k="name" v="Herdalsvatnet" />
		<tag k="natural" v="water" />
		<tag k="ssr:stedsnr" v="860029" />
		<tag k="water" v="lake" />
	</node>
	<node id="-11529" lat="62.2258749968" lon="7.68478889602">
		<tag k="alt_name" v="Isholvatnet, heimste" />
		<tag k="name" v="Heimste Isholvatnet" />
		<tag k="natural" v="water" />
		<tag k="ssr:stedsnr" v="860026" />
	</node>
	<node id="-11526" lat="62.3867805575" lon="6.87184722874">
		<tag k="name" v="Korsadalselva" />
		<tag k="ssr:stedsnr" v="944185" />
		<tag k="waterway" v="river" />
	</node>
	<node id="-11519" lat="62.1874222214" lon="7.57030277271">
		<tag k="name" v="Reinstangen" />
		<tag k="natural" v="cape" />
		<tag k="ssr:stedsnr" v="835769" />
	</node>
	<node id="-11507" lat="62.2366944447" lon="7.27978054942">
		<tag k="name" v="Rindefossen" />
		<tag k="natural" v="waterfall" />
		<tag k="ssr:stedsnr" v="835419" />
	</node>
	<node id="-11506" lat="62.3569527748" lon="7.35840277001">
		<tag k="name" v="Kjørsetelva" />
		<tag k="ssr:stedsnr" v="835153" />
		<tag k="waterway" v="stream" />
	</node>
	<node id="-11503" lat="62.2092111135" lon="7.4410111133">
		<tag k="name" v="Uraneset" />
		<tag k="natural" v="cape" />
		<tag k="ssr:stedsnr" v="835113" />
	</node>
	<node id="-11485" lat="62.1813916652" lon="7.15397778201">
		<tag k="name" v="Koppen" />
		<tag k="natural" v="bay" />
		<tag k="ssr:stedsnr" v="824462" />
	</node>
	<node id="-11478" lat="62.4234611101" lon="6.87986944535">
		<tag k="name" v="Ytstevollvikgrova" />
		<tag k="ssr:stedsnr" v="823808" />
		<tag k="waterway" v="stream" />
	</node>
	<node id="-11465" lat="62.2989916707" lon="7.59694167123">
		<tag k="name" v="Glupen" />
		<tag k="natural" v="water" />
		<tag k="ssr:stedsnr" v="800850" />
	</node>
	<node id="-11460" lat="62.3060444441" lon="7.19848054792">
		<tag k="name" v="Vassdalsvatnet" />
		<tag k="natural" v="water" />
		<tag k="ssr:stedsnr" v="800607" />
	</node>
	<node id="-11443" lat="62.4140749994" lon="7.32476388132">
		<tag k="name" v="Storvatnet" />
		<tag k="natural" v="water" />
		<tag k="ssr:stedsnr" v="921936" />
	</node>
	<node id="-11442" lat="62.3997972205" lon="7.28511943614">
		<tag k="name" v="Ådalsvatnet" />
		<tag k="natural" v="water" />
		<tag k="ssr:stedsnr" v="921923" />
		<tag k="water" v="lake" />
	</node>
	<node id="-11420" lat="62.2285111134" lon="7.11884166446">
		<tag k="name" v="Høgsetelva" />
		<tag k="ssr:stedsnr" v="921296" />
		<tag k="waterway" v="stream" />
	</node>
	<node id="-11414" lat="62.2308388916" lon="7.64928611724">
		<tag k="alt_name" v="Småkoppvatnet, fremste" />
		<tag k="name" v="Fremste Småkoppvatnet" />
		<tag k="natural" v="water" />
		<tag k="ssr:stedsnr" v="921025" />
	</node>
	<node id="-11410" lat="62.2142500002" lon="7.43393055323">
		<tag k="name" v="Lyngneset" />
		<tag k="natural" v="cape" />
		<tag k="ssr:stedsnr" v="921005" />
	</node>
	<node id="-11403" lat="62.2824138925" lon="7.27851944249">
		<tag k="name" v="Vikasæterelva" />
		<tag k="ssr:stedsnr" v="774261" />
		<tag k="waterway" v="stream" />
	</node>
	<node id="-11398" lat="62.2009333337" lon="7.51529722919">
		<tag k="name" v="Neset" />
		<tag k="natural" v="cape" />
		<tag k="ssr:stedsnr" v="773901" />
	</node>
	<node id="-11393" lat="62.225944442" lon="7.04846388446">
		<tag k="name" v="Svoragrovene" />
		<tag k="ssr:stedsnr" v="773093" />
		<tag k="waterway" v="stream" />
	</node>
	<node id="-11372" lat="62.3408500016" lon="7.71614721841">
		<tag k="name" v="Inste Knutskoppvatnet" />
		<tag k="natural" v="water" />
		<tag k="ssr:stedsnr" v="739757" />
	</node>
	<node id="-11369" lat="62.2479111116" lon="7.19530834024">
		<tag k="name" v="Grøndiket" />
		<tag k="ssr:stedsnr" v="739260" />
		<tag k="waterway" v="stream" />
	</node>
	<node id="-11368" lat="62.4118916686" lon="7.18985832504">
		<tag k="name" v="Øravatnet" />
		<tag k="natural" v="water" />
		<tag k="ssr:stedsnr" v="902547" />
	</node>
	<node id="-11359" lat="62.3913555554" lon="7.54045556255">
		<tag k="name" v="Berilldalselva" />
		<tag k="ssr:stedsnr" v="895874" />
		<tag k="waterway" v="river" />
	</node>
	<node id="-11333" lat="62.3306222199" lon="7.31075833704">
		<tag k="name" v="Fossakroken" />
		<tag k="natural" v="waterfall" />
		<tag k="ssr:stedsnr" v="895278" />
	</node>
	<node id="-11330" lat="62.1509111121" lon="7.42141110171">
		<tag k="name" v="Storvika" />
		<tag k="natural" v="bay" />
		<tag k="ssr:stedsnr" v="895198" />
	</node>
	<node id="-11327" lat="62.232336114" lon="7.04200000042">
		<tag k="name" v="Storgrova" />
		<tag k="ssr:stedsnr" v="895089" />
		<tag k="waterway" v="stream" />
	</node>
	<node id="-11320" lat="62.1513250032" lon="7.43331110669">
		<tag k="name" v="Kvernhuselva" />
		<tag k="ssr:stedsnr" v="713211" />
		<tag k="waterway" v="stream" />
	</node>
	<node id="-11319" lat="62.2498055542" lon="7.24009443559">
		<tag k="name" v="Storelva" />
		<tag k="ssr:stedsnr" v="712954" />
		<tag k="waterway" v="river" />
	</node>
	<node id="-11295" lat="62.1876416676" lon="7.16170833627">
		<tag k="name" v="Gjerdeløneset" />
		<tag k="natural" v="cape" />
		<tag k="ssr:stedsnr" v="885379" />
	</node>
	<node id="-11278" lat="62.3382027752" lon="7.09393055255">
		<tag k="name" v="Ekreelva" />
		<tag k="ssr:stedsnr" v="679459" />
		<tag k="waterway" v="stream" />
	</node>
	<node id="-11274" lat="62.3175305601" lon="7.65948611384">
		<tag k="name" v="Tjørnane" />
		<tag k="natural" v="water" />
		<tag k="ssr:stedsnr" v="678766" />
		<tag k="water" v="lake" />
	</node>
	<node id="-10752" lat="62.1504499976" lon="7.30220000358">
		<tag k="name" v="Grjotdalsvatnet" />
		<tag k="natural" v="water" />
		<tag k="ssr:stedsnr" v="193047" />
	</node>
	<node id="-11259" lat="62.3873499986" lon="7.75723332946">
		<tag k="name" v="Langfjellelva" />
		<tag k="ssr:stedsnr" v="657930" />
		<tag k="waterway" v="stream" />
	</node>
	<node id="-11257" lat="62.427899996" lon="7.65001111311">
		<tag k="name" v="Øvstevatnet" />
		<tag k="natural" v="water" />
		<tag k="ssr:stedsnr" v="652706" />
		<tag k="water" v="lake" />
	</node>
	<node id="-11255" lat="62.3704333372" lon="7.55878333266">
		<tag k="name" v="Øyna" />
		<tag k="place" v="island" />
		<tag k="ssr:stedsnr" v="651869" />
	</node>
	<node id="-11240" lat="62.2766750025" lon="7.62925554655">
		<tag k="name" v="Laupevatnet" />
		<tag k="natural" v="water" />
		<tag k="ssr:stedsnr" v="618797" />
	</node>
	<node id="-11232" lat="62.1743916673" lon="7.12977500731">
		<tag k="name" v="Svartevatnet" />
		<tag k="natural" v="water" />
		<tag k="ssr:stedsnr" v="617359" />
	</node>
	<node id="-11228" lat="62.2028694489" lon="7.52932500617">
		<tag k="name" v="Zakariasvatnet" />
		<tag k="natural" v="water" />
		<tag k="ssr:stedsnr" v="617015" />
		<tag k="water" v="lake" />
	</node>
	<node id="-11222" lat="62.3753000009" lon="7.55024444583">
		<tag k="name" v="Klingreelva" />
		<tag k="ssr:stedsnr" v="713866" />
		<tag k="waterway" v="river" />
	</node>
	<node id="-11219" lat="62.3377472256" lon="7.53421111843">
		<tag k="name" v="Krikane" />
		<tag k="ssr:stedsnr" v="713825" />
		<tag k="waterway" v="stream" />
	</node>
	<node id="-11217" lat="62.2377472189" lon="7.23166667201">
		<tag k="name" v="Kleivaelva" />
		<tag k="ssr:stedsnr" v="713815" />
		<tag k="waterway" v="stream" />
	</node>
	<node id="-11212" lat="62.3188611133" lon="7.24702499388">
		<tag k="name" v="Berdøla" />
		<tag k="ssr:stedsnr" v="713639" />
		<tag k="waterway" v="stream" />
	</node>
	<node id="-11210" lat="62.2198083365" lon="7.40884166711">
		<tag k="name" v="Elvakroken" />
		<tag k="place" v="locality" />
		<tag k="ssr:stedsnr" v="713786" />
	</node>
	<node id="-11204" lat="62.1832250039" lon="7.60974165983">
		<tag k="name" v="Storkvisla" />
		<tag k="ssr:stedsnr" v="713227" />
		<tag k="waterway" v="river" />
	</node>
	<node id="-11199" lat="62.2147444412" lon="7.30934166337">
		<tag k="name" v="Måsevatnet" />
		<tag k="natural" v="water" />
		<tag k="ssr:stedsnr" v="713610" />
	</node>
	<node id="-11192" lat="62.3400694455" lon="7.34823054885">
		<tag k="name" v="Myklebostelva" />
		<tag k="ssr:stedsnr" v="712296" />
		<tag k="waterway" v="stream" />
	</node>
	<node id="-11178" lat="62.3801944417" lon="7.15991667268">
		<tag k="name" v="Nakkehavet" />
		<tag k="place" v="locality" />
		<tag k="ssr:stedsnr" v="581117" />
	</node>
	<node id="-11170" lat="62.4117527793" lon="7.00387499025">
		<tag k="name" v="Svagrova" />
		<tag k="ssr:stedsnr" v="580525" />
		<tag k="waterway" v="stream" />
	</node>
	<node id="-11167" lat="62.3818777738" lon="7.02889165783">
		<tag k="name" v="Rikjenda" />
		<tag k="ssr:stedsnr" v="579666" />
		<tag k="waterway" v="stream" />
	</node>
	<node id="-11164" lat="62.3844722221" lon="6.9960555562">
		<tag k="name" v="Litleelva" />
		<tag k="ssr:stedsnr" v="579656" />
		<tag k="waterway" v="stream" />
	</node>
	<node id="-11140" lat="62.3731250042" lon="6.96704443818">
		<tag k="name" v="Stølegrova" />
		<tag k="ssr:stedsnr" v="701780" />
		<tag k="waterway" v="stream" />
	</node>
	<node id="-11134" lat="62.1289111085" lon="7.56760833353">
		<tag k="name" v="Brusebotnvatnet" />
		<tag k="natural" v="water" />
		<tag k="ssr:stedsnr" v="557069" />
		<tag k="water" v="lake" />
	</node>
	<node id="-11132" lat="62.1843166661" lon="7.64565555552">
		<tag k="name" v="Veltdalselva" />
		<tag k="ssr:stedsnr" v="557057" />
		<tag k="waterway" v="river" />
	</node>
	<node id="-11131" lat="62.4086388882" lon="7.64140000295">
		<tag k="name" v="Slufsa" />
		<tag k="ssr:stedsnr" v="556968" />
		<tag k="waterway" v="stream" />
	</node>
	<node id="-11130" lat="62.3907666682" lon="7.32577500021">
		<tag k="name" v="Espedalsvatnet" />
		<tag k="natural" v="water" />
		<tag k="ssr:stedsnr" v="556967" />
	</node>
	<node id="-11128" lat="62.3991055521" lon="7.64817777244">
		<tag k="name" v="Slufsekoppen" />
		<tag k="natural" v="water" />
		<tag k="ssr:stedsnr" v="556959" />
	</node>
	<node id="-11125" lat="62.3610611088" lon="7.68185276865">
		<tag k="name" v="Litlelangdalsvatnet" />
		<tag k="natural" v="water" />
		<tag k="ssr:stedsnr" v="556813" />
	</node>
	<node id="-11119" lat="62.2327611107" lon="7.32191389113">
		<tag k="alt_name" v="Vassdalsvatnet, nedre" />
		<tag k="name" v="Nedre Vassdalsvatnet" />
		<tag k="natural" v="water" />
		<tag k="ssr:stedsnr" v="556016" />
		<tag k="water" v="lake" />
	</node>
	<node id="-11118" lat="62.3981555532" lon="7.76744166719">
		<tag k="name" v="Kulevatnet" />
		<tag k="natural" v="water" />
		<tag k="ssr:stedsnr" v="556014" />
		<tag k="water" v="lake" />
	</node>
	<node id="-11117" lat="62.2008166705" lon="7.53835277165">
		<tag k="name" v="Reindalsfossen" />
		<tag k="natural" v="waterfall" />
		<tag k="ssr:stedsnr" v="556012" />
	</node>
	<node id="-11085" lat="62.4239055561" lon="6.97526665892">
		<tag k="name" v="Dyrkornelva" />
		<tag k="ssr:stedsnr" v="496669" />
		<tag k="waterway" v="river" />
	</node>
	<node id="-12770" lat="62.2489749993" lon="7.47078332798">
		<tag k="name" v="Storhauggrova" />
		<tag k="ssr:stedsnr" v="955791" />
		<tag k="waterway" v="stream" />
	</node>
	<node id="-11080" lat="62.1050416642" lon="7.49534445183">
		<tag k="name" v="Reindalsvatnet" />
		<tag k="natural" v="water" />
		<tag k="ssr:stedsnr" v="496108" />
	</node>
	<node id="-11079" lat="62.3748361129" lon="7.01539721906">
		<tag k="name" v="Fjellåna" />
		<tag k="old_name" v="Fjellåa" />
		<tag k="ssr:stedsnr" v="495703" />
		<tag k="waterway" v="stream" />
	</node>
	<node id="-11075" lat="62.3671000041" lon="7.02018055864">
		<tag k="name" v="Fjelladalsvatnet" />
		<tag k="natural" v="water" />
		<tag k="ssr:stedsnr" v="679507" />
	</node>
	<node id="-11060" lat="62.3698944452" lon="7.27973055741">
		<tag k="name" v="Rynggrova" />
		<tag k="ssr:stedsnr" v="678784" />
		<tag k="waterway" v="stream" />
	</node>
	<node id="-11059" lat="62.4232472241" lon="6.97836111751">
		<tag k="name" v="Tverrelva" />
		<tag k="ssr:stedsnr" v="678651" />
		<tag k="waterway" v="river" />
	</node>
	<node id="-11047" lat="62.229530559" lon="7.04621665749">
		<tag k="name" v="Smogelielva" />
		<tag k="ssr:stedsnr" v="678299" />
		<tag k="waterway" v="stream" />
	</node>
	<node id="-11042" lat="62.2183750008" lon="7.29970833897">
		<tag k="fixme" v="multiple name tags, choose one and add the other to alt_name" />
		<tag k="name" v="Damfossen;Dampfossen" />
		<tag k="natural" v="waterfall" />
		<tag k="ssr:stedsnr" v="678039" />
	</node>
	<node id="-11036" lat="62.2722500033" lon="7.11979722452">
		<tag k="name" v="Heimste Tjørna" />
		<tag k="natural" v="water" />
		<tag k="ssr:stedsnr" v="470113" />
	</node>
	<node id="-11029" lat="62.3787027757" lon="6.87671111419">
		<tag k="name" v="Bytegrova" />
		<tag k="ssr:stedsnr" v="519190" />
		<tag k="waterway" v="stream" />
	</node>
	<node id="-11025" lat="62.4457083358" lon="7.14648889564">
		<tag k="name" v="Rollsvatnet" />
		<tag k="natural" v="water" />
		<tag k="ssr:stedsnr" v="436354" />
	</node>
	<node id="-11022" lat="62.1105944441" lon="7.53742500491">
		<tag k="alt_name" v="Vikvatnet, heimste" />
		<tag k="name" v="Heimste Vikvatnet" />
		<tag k="natural" v="water" />
		<tag k="ssr:stedsnr" v="436105" />
		<tag k="water" v="lake" />
	</node>
	<node id="-10988" lat="62.2811888919" lon="7.66316389809">
		<tag k="name" v="Hindenburg" />
		<tag k="place" v="islet" />
		<tag k="ssr:stedsnr" v="497821" />
	</node>
	<node id="-10976" lat="62.4016416654" lon="6.83755277158">
		<tag k="name" v="Storebottsvatnet" />
		<tag k="natural" v="water" />
		<tag k="ssr:stedsnr" v="496644" />
	</node>
	<node id="-10972" lat="62.3702333345" lon="7.14395832875">
		<tag k="name" v="Telbergselva" />
		<tag k="ssr:stedsnr" v="496578" />
		<tag k="waterway" v="stream" />
	</node>
	<node id="-10971" lat="62.3536555554" lon="7.16192777908">
		<tag k="name" v="Telbergsvatnet" />
		<tag k="natural" v="water" />
		<tag k="ssr:stedsnr" v="496553" />
	</node>
	<node id="-10968" lat="62.1764444441" lon="7.09791388358">
		<tag k="name" v="Oaldsvatnet" />
		<tag k="natural" v="water" />
		<tag k="ssr:stedsnr" v="496358" />
	</node>
	<node id="-10966" lat="62.234755553" lon="7.50672500031">
		<tag k="name" v="Raudnukdalsvatnet" />
		<tag k="natural" v="water" />
		<tag k="ssr:stedsnr" v="496017" />
	</node>
	<node id="-10963" lat="62.086327774" lon="7.56928888192">
		<tag k="alt_name" v="Vikvatnet, fremste" />
		<tag k="name" v="Fremste Vikvatnet" />
		<tag k="natural" v="water" />
		<tag k="ssr:stedsnr" v="495141" />
		<tag k="water" v="lake" />
	</node>
	<node id="-10956" lat="62.1959250002" lon="7.54122222397">
		<tag k="name" v="Reindølå" />
		<tag k="ssr:stedsnr" v="348712" />
		<tag k="waterway" v="river" />
	</node>
	<node id="-10954" lat="62.2169305599" lon="7.30549721781">
		<tag k="name" v="Herdøla" />
		<tag k="ssr:stedsnr" v="348561" />
		<tag k="waterway" v="river" />
	</node>
	<node id="-10946" lat="62.276838886" lon="7.07870000735">
		<tag k="name" v="Skrednakkelva" />
		<tag k="ssr:stedsnr" v="348159" />
		<tag k="waterway" v="stream" />
	</node>
	<node id="-10937" lat="62.3974749977" lon="7.11833611087">
		<tag k="name" v="Tverelva" />
		<tag k="ssr:stedsnr" v="338057" />
		<tag k="waterway" v="river" />
	</node>
	<node id="-10928" lat="62.2968833358" lon="7.50390000934">
		<tag k="alt_name" v="Heivatnet, fremste" />
		<tag k="name" v="Fremste Heivatnet" />
		<tag k="natural" v="water" />
		<tag k="ssr:stedsnr" v="315862" />
	</node>
	<node id="-10925" lat="62.4504111088" lon="7.30821111312">
		<tag k="fixme" v="multiple name tags, choose one and add the other to alt_name" />
		<tag k="name" v="Ådalsvatnet;Ytste Brynebottsvatnet" />
		<tag k="natural" v="water" />
		<tag k="ssr:stedsnr" v="314964" />
	</node>
	<node id="-10921" lat="62.3170527757" lon="7.43983610187">
		<tag k="name" v="Myrheivatnet" />
		<tag k="natural" v="water" />
		<tag k="ssr:stedsnr" v="314776" />
	</node>
	<node id="-10916" lat="62.3432749967" lon="7.69899167451">
		<tag k="name" v="Heimste Knutskoppvatnet" />
		<tag k="natural" v="water" />
		<tag k="ssr:stedsnr" v="314753" />
	</node>
	<node id="-10911" lat="62.4027583343" lon="6.97536110885">
		<tag k="name" v="Stavnesvatnet" />
		<tag k="natural" v="water" />
		<tag k="ssr:stedsnr" v="314653" />
	</node>
	<node id="-10905" lat="62.1899472212" lon="7.49328054652">
		<tag k="alt_name" v="Rødalsvatnet, heimste" />
		<tag k="name" v="Heimste Rødalsvatnet" />
		<tag k="natural" v="water" />
		<tag k="ssr:stedsnr" v="314055" />
	</node>
	<node id="-10894" lat="62.1846722199" lon="7.58159167596">
		<tag k="name" v="Svarteggelva" />
		<tag k="ssr:stedsnr" v="470755" />
		<tag k="waterway" v="river" />
	</node>
	<node id="-10892" lat="62.1843972232" lon="7.55200833461">
		<tag k="name" v="Daurmålselva" />
		<tag k="ssr:stedsnr" v="470728" />
		<tag k="waterway" v="river" />
	</node>
	<node id="-10890" lat="62.4066777787" lon="7.64469445093">
		<tag k="name" v="Slufså" />
		<tag k="ssr:stedsnr" v="470704" />
		<tag k="waterway" v="river" />
	</node>
	<node id="-10889" lat="62.3190694403" lon="7.47961667256">
		<tag k="name" v="Heimsteelva" />
		<tag k="ssr:stedsnr" v="470672" />
		<tag k="waterway" v="stream" />
	</node>
	<node id="-10888" lat="62.3371916671" lon="7.46949722027">
		<tag k="name" v="Sagelva" />
		<tag k="ssr:stedsnr" v="470670" />
		<tag k="waterway" v="river" />
	</node>
	<node id="-10881" lat="62.2137194481" lon="7.33805556018">
		<tag k="name" v="Kallskarelva" />
		<tag k="ssr:stedsnr" v="470570" />
		<tag k="waterway" v="stream" />
	</node>
	<node id="-10877" lat="62.2991083312" lon="7.34995554991">
		<tag k="name" v="Svartefossen" />
		<tag k="natural" v="waterfall" />
		<tag k="ssr:stedsnr" v="470475" />
	</node>
	<node id="-10875" lat="62.2377583325" lon="7.27829722016">
		<tag k="name" v="Hellehølen" />
		<tag k="place" v="locality" />
		<tag k="ssr:stedsnr" v="470362" />
	</node>
	<node id="-10872" lat="62.2795361076" lon="7.37881389116">
		<tag k="name" v="Heggurelva" />
		<tag k="ssr:stedsnr" v="470230" />
		<tag k="waterway" v="stream" />
	</node>
	<node id="-10866" lat="62.2512750019" lon="7.23763334277">
		<tag k="name" v="Storkvisla" />
		<tag k="ssr:stedsnr" v="469956" />
		<tag k="waterway" v="stream" />
	</node>
	<node id="-10865" lat="62.2570916681" lon="7.24120278505">
		<tag k="name" v="Kyrkjegrova" />
		<tag k="ssr:stedsnr" v="469951" />
		<tag k="waterway" v="stream" />
	</node>
	<node id="-10863" lat="62.2112555599" lon="7.24042777929">
		<tag k="name" v="Kallsetelva" />
		<tag k="ssr:stedsnr" v="470147" />
		<tag k="waterway" v="stream" />
	</node>
	<node id="-10850" lat="62.1851777808" lon="7.55939999481">
		<tag k="name" v="Heimste Stølevika" />
		<tag k="natural" v="bay" />
		<tag k="ssr:stedsnr" v="289812" />
	</node>
	<node id="-10848" lat="62.3456472201" lon="7.53885278341">
		<tag k="name" v="Tverrelva" />
		<tag k="ssr:stedsnr" v="288771" />
		<tag k="waterway" v="river" />
	</node>
	<node id="-10845" lat="62.3537055576" lon="7.41729721523">
		<tag k="name" v="Kyrfonngrova" />
		<tag k="ssr:stedsnr" v="288603" />
		<tag k="waterway" v="stream" />
	</node>
	<node id="-10839" lat="62.3816722259" lon="7.22710277416">
		<tag k="name" v="Seljebotselva" />
		<tag k="ssr:stedsnr" v="460866" />
		<tag k="waterway" v="river" />
	</node>
	<node id="-10835" lat="62.1926416688" lon="7.15341667156">
		<tag k="name" v="Øyrane" />
		<tag k="natural" v="bay" />
		<tag k="ssr:stedsnr" v="460508" />
	</node>
	<node id="-10828" lat="62.3714305584" lon="7.10709721635">
		<tag k="name" v="Fannegrova" />
		<tag k="ssr:stedsnr" v="460137" />
		<tag k="waterway" v="stream" />
	</node>
	<node id="-10807" lat="62.3897277814" lon="7.00180832629">
		<tag k="name" v="Melsetgrova" />
		<tag k="ssr:stedsnr" v="276674" />
		<tag k="waterway" v="stream" />
	</node>
	<node id="-10806" lat="62.3947583376" lon="6.87794167061">
		<tag k="name" v="Lauggrova" />
		<tag k="ssr:stedsnr" v="458873" />
		<tag k="waterway" v="stream" />
	</node>
	<node id="-10799" lat="62.372102776" lon="6.86250278438">
		<tag k="name" v="Skjortnesvatnet" />
		<tag k="natural" v="water" />
		<tag k="ssr:stedsnr" v="458194" />
		<tag k="water" v="lake" />
	</node>
	<node id="-10784" lat="62.1298277787" lon="7.46281944519">
		<tag k="name" v="Fitvatnet" />
		<tag k="natural" v="water" />
		<tag k="ssr:stedsnr" v="254055" />
		<tag k="water" v="lake" />
	</node>
	<node id="-10776" lat="62.1892666674" lon="7.55573611543">
		<tag k="name" v="Longvasstranda" />
		<tag k="natural" v="beach" />
		<tag k="ssr:stedsnr" v="228767" />
	</node>
	<node id="-10774" lat="62.191363888" lon="7.44114999918">
		<tag k="name" v="Sæterelva" />
		<tag k="ssr:stedsnr" v="227952" />
		<tag k="waterway" v="stream" />
	</node>
	<node id="-10769" lat="62.183316669" lon="7.3299722172">
		<tag k="name" v="Raudgrova" />
		<tag k="ssr:stedsnr" v="227522" />
		<tag k="waterway" v="stream" />
	</node>
	<node id="-12815" lat="62.4219442922" lon="7.22429054143">
		<tag k="name" v="Øyna" />
		<tag k="place" v="island" />
		<tag k="ssr:stedsnr" v="988873" />
	</node>
	<node id="-10765" lat="62.419183335" lon="7.26988610371">
		<tag k="name" v="Storådalselva" />
		<tag k="ssr:stedsnr" v="217630" />
		<tag k="waterway" v="river" />
	</node>
	<node id="-10764" lat="62.3397527777" lon="7.14364722664">
		<tag k="name" v="Røelva" />
		<tag k="ssr:stedsnr" v="217502" />
		<tag k="waterway" v="river" />
	</node>
	<node id="-10758" lat="62.2568277767" lon="7.56724167091">
		<tag k="name" v="Stolsvatnet" />
		<tag k="natural" v="water" />
		<tag k="ssr:stedsnr" v="194818" />
	</node>
	<node id="-12802" lat="62.2063650752" lon="7.0745017455">
		<tag k="name" v="Storvatnet" />
		<tag k="natural" v="water" />
		<tag k="ssr:stedsnr" v="976067" />
	</node>
	<node id="-12801" lat="62.2035559592" lon="7.07566915642">
		<tag k="name" v="Kroketevatnet" />
		<tag k="natural" v="water" />
		<tag k="ssr:stedsnr" v="976065" />
	</node>
	<node id="-12800" lat="62.201724306" lon="7.07807894231">
		<tag k="name" v="Litlevatnet" />
		<tag k="natural" v="water" />
		<tag k="ssr:stedsnr" v="976063" />
	</node>
	<node id="-12799" lat="62.1942543998" lon="7.10555152533">
		<tag k="name" v="Nonsvatnet" />
		<tag k="natural" v="water" />
		<tag k="ssr:stedsnr" v="976062" />
	</node>
	<node id="-10750" lat="62.1606638848" lon="7.5726527865">
		<tag k="name" v="Svarteggvatnet" />
		<tag k="natural" v="water" />
		<tag k="ssr:stedsnr" v="193041" />
	</node>
	<node id="-12791" lat="62.1841777816" lon="7.56806944017">
		<tag k="name" v="Fremste Stølevika" />
		<tag k="natural" v="cape" />
		<tag k="ssr:stedsnr" v="956766" />
	</node>
	<node id="-10742" lat="62.4336444457" lon="7.15293333708">
		<tag k="name" v="Medvatnet" />
		<tag k="natural" v="water" />
		<tag k="old_name" v="Mevatnet" />
		<tag k="ssr:stedsnr" v="192720" />
	</node>
	<node id="-10735" lat="62.3348444437" lon="7.52910278232">
		<tag k="name" v="Stormyra" />
		<tag k="natural" v="water" />
		<tag k="ssr:stedsnr" v="288792" />
	</node>
	<node id="-10734" lat="62.4128166679" lon="7.65005555969">
		<tag k="name" v="Longfjellelva" />
		<tag k="ssr:stedsnr" v="288677" />
		<tag k="waterway" v="river" />
	</node>
	<node id="-10733" lat="62.3417972241" lon="7.45244722295">
		<tag k="name" v="Haggardsgrova" />
		<tag k="ssr:stedsnr" v="288585" />
		<tag k="waterway" v="stream" />
	</node>
	<node id="-10724" lat="62.3417972244" lon="7.47254165747">
		<tag k="name" v="Gudbrandsdalsfossen" />
		<tag k="natural" v="waterfall" />
		<tag k="ssr:stedsnr" v="288634" />
	</node>
	<node id="-10722" lat="62.2101027742" lon="7.32745832866">
		<tag k="name" v="Kvernhuselva" />
		<tag k="ssr:stedsnr" v="288532" />
		<tag k="waterway" v="stream" />
	</node>
	<node id="-12769" lat="62.2490250001" lon="7.47974722133">
		<tag k="name" v="Raudnykdalselva" />
		<tag k="ssr:stedsnr" v="955787" />
		<tag k="waterway" v="stream" />
	</node>
	<node id="-12764" lat="62.3466361149" lon="7.43943889084">
		<tag k="name" v="Kroketegrova" />
		<tag k="ssr:stedsnr" v="955637" />
		<tag k="waterway" v="stream" />
	</node>
	<node id="-10715" lat="62.2734583301" lon="7.32799999232">
		<tag k="name" v="Kasteelva" />
		<tag k="ssr:stedsnr" v="288247" />
		<tag k="waterway" v="stream" />
	</node>
	<node id="-12762" lat="62.199391663" lon="7.34091667384">
		<tag k="name" v="Kvislane" />
		<tag k="ssr:stedsnr" v="955595" />
		<tag k="waterway" v="stream" />
	</node>
	<node id="-12757" lat="62.1541027781" lon="7.42491666475">
		<tag k="name" v="Stølevika" />
		<tag k="natural" v="bay" />
		<tag k="ssr:stedsnr" v="955219" />
	</node>
	<node id="-12756" lat="62.2743166664" lon="7.05652500763">
		<tag k="name" v="Grøvene" />
		<tag k="ssr:stedsnr" v="955162" />
		<tag k="waterway" v="stream" />
	</node>
	<node id="-10706" lat="62.2211027795" lon="7.04686111838">
		<tag k="name" v="Hornflågrova" />
		<tag k="ssr:stedsnr" v="288096" />
		<tag k="waterway" v="stream" />
	</node>
	<node id="-10698" lat="62.3108472207" lon="7.24497778719">
		<tag k="name" v="Svinegrova" />
		<tag k="ssr:stedsnr" v="167672" />
		<tag k="waterway" v="stream" />
	</node>
	<node id="-12743" lat="62.3518111137" lon="6.97348333128">
		<tag k="name" v="Fløtåna" />
		<tag k="old_name" v="Fløtåa" />
		<tag k="ssr:stedsnr" v="861535" />
		<tag k="waterway" v="stream" />
	</node>
	<node id="-10693" lat="62.3278777772" lon="7.32143055603">
		<tag k="name" v="Hampetjørna" />
		<tag k="natural" v="water" />
		<tag k="ssr:stedsnr" v="167306" />
	</node>
	<node id="-10688" lat="62.204505558" lon="7.47098056115">
		<tag k="name" v="Rødalselva" />
		<tag k="ssr:stedsnr" v="167102" />
		<tag k="waterway" v="river" />
	</node>
	<node id="-12732" lat="62.4204777764" lon="7.2061861066">
		<tag k="alt_name" v="Fremste Tverrelva" />
		<tag k="name" v="Fremstegrova" />
		<tag k="ssr:stedsnr" v="860682" />
		<tag k="waterway" v="stream" />
	</node>
	<node id="-12731" lat="62.3829805511" lon="7.24979722273">
		<tag k="name" v="Tverrelva" />
		<tag k="ssr:stedsnr" v="860973" />
		<tag k="waterway" v="stream" />
	</node>
	<node id="-12730" lat="62.3847083293" lon="7.35017500978">
		<tag k="name" v="Heimstevatnet" />
		<tag k="natural" v="water" />
		<tag k="ssr:stedsnr" v="860971" />
	</node>
	<node id="-12729" lat="62.3382611135" lon="7.28739444443">
		<tag k="name" v="Gullakoppen" />
		<tag k="natural" v="water" />
		<tag k="ssr:stedsnr" v="860835" />
	</node>
	<node id="-12723" lat="62.1656833325" lon="7.24084166764">
		<tag k="name" v="Litleøvstdalsvatnet" />
		<tag k="natural" v="water" />
		<tag k="ssr:stedsnr" v="860042" />
	</node>
	<node id="-10674" lat="62.2647277739" lon="7.03468054735">
		<tag k="name" v="Djuphamna" />
		<tag k="natural" v="bay" />
		<tag k="ssr:stedsnr" v="278432" />
	</node>
	<node id="-12718" lat="62.3023138866" lon="7.33353611581">
		<tag k="name" v="Sæterelva" />
		<tag k="ssr:stedsnr" v="835495" />
		<tag k="waterway" v="stream" />
	</node>
	<node id="-12716" lat="62.2641388849" lon="7.36190556358">
		<tag k="name" v="Kloppelva" />
		<tag k="ssr:stedsnr" v="835311" />
		<tag k="waterway" v="stream" />
	</node>
	<node id="-12714" lat="62.1686861124" lon="7.42786666654">
		<tag k="name" v="Koparslagneset" />
		<tag k="natural" v="cape" />
		<tag k="ssr:stedsnr" v="835094" />
	</node>
	<node id="-12712" lat="62.1903444458" lon="7.43025000339">
		<tag k="name" v="Litlejordvatnet" />
		<tag k="natural" v="water" />
		<tag k="ssr:stedsnr" v="834949" />
		<tag k="water" v="lake" />
	</node>
	<node id="-10655" lat="62.4182361144" lon="7.21484722923">
		<tag k="name" v="Fonna" />
		<tag k="ssr:stedsnr" v="277211" />
		<tag k="waterway" v="stream" />
	</node>
	<node id="-10649" lat="62.2127555579" lon="7.04449444815">
		<tag k="name" v="Isflåelva" />
		<tag k="ssr:stedsnr" v="153423" />
		<tag k="waterway" v="stream" />
	</node>
	<node id="-10647" lat="62.3462972179" lon="7.09749166495">
		<tag k="name" v="Grønligrova" />
		<tag k="ssr:stedsnr" v="273842" />
		<tag k="waterway" v="stream" />
	</node>
	<node id="-12689" lat="62.258605554" lon="7.13261389101">
		<tag k="name" v="Kjeholmen" />
		<tag k="place" v="islet" />
		<tag k="ssr:stedsnr" v="824388" />
	</node>
	<node id="-10640" lat="62.2781916638" lon="7.68590277577">
		<tag k="name" v="Storfjellvatnet" />
		<tag k="natural" v="water" />
		<tag k="ssr:stedsnr" v="132814" />
	</node>
	<node id="-12681" lat="62.4297805571" lon="6.96853610426">
		<tag k="loc_name" v="Øggardsgrova" />
		<tag k="name" v="Øygardsgrova" />
		<tag k="ssr:stedsnr" v="823382" />
		<tag k="waterway" v="stream" />
	</node>
	<node id="-12680" lat="62.3997472192" lon="7.22853889392">
		<tag k="name" v="Storgrova" />
		<tag k="ssr:stedsnr" v="822478" />
		<tag k="waterway" v="stream" />
	</node>
	<node id="-10629" lat="62.2018277771" lon="7.490016662">
		<tag k="name" v="Zakariasdammen" />
		<tag k="ssr:stedsnr" v="264917" />
		<tag k="waterway" v="dam" />
	</node>
	<node id="-12674" lat="62.1642861114" lon="7.33239444399">
		<tag k="name" v="Herdalselva" />
		<tag k="ssr:stedsnr" v="810926" />
		<tag k="waterway" v="river" />
	</node>
	<node id="-12673" lat="62.1864166625" lon="7.38145833101">
		<tag k="name" v="Ivertjønna" />
		<tag k="natural" v="water" />
		<tag k="ssr:stedsnr" v="810916" />
	</node>
	<node id="-10620" lat="62.2498138855" lon="7.17679722227">
		<tag k="name" v="Slokå" />
		<tag k="ssr:stedsnr" v="96470" />
		<tag k="waterway" v="stream" />
	</node>
	<node id="-10618" lat="62.1840416626" lon="7.14679166207">
		<tag k="name" v="Storfonneset" />
		<tag k="natural" v="cape" />
		<tag k="ssr:stedsnr" v="96361" />
	</node>
	<node id="-12665" lat="62.398788888" lon="7.22657500247">
		<tag k="name" v="Storgrova" />
		<tag k="ssr:stedsnr" v="800717" />
		<tag k="waterway" v="stream" />
	</node>
	<node id="-12662" lat="62.3928694416" lon="7.05056111998">
		<tag k="name" v="Rikjenda" />
		<tag k="ssr:stedsnr" v="800698" />
		<tag k="waterway" v="stream" />
	</node>
	<node id="-10608" lat="62.3282194466" lon="7.68748055208">
		<tag k="name" v="Sylkoppvatnet" />
		<tag k="natural" v="water" />
		<tag k="ssr:stedsnr" v="254738" />
	</node>
	<node id="-12654" lat="62.4143833339" lon="6.98491943981">
		<tag k="name" v="Dyrkornvatnet" />
		<tag k="natural" v="water" />
		<tag k="ssr:stedsnr" v="800636" />
		<tag k="water" v="lake" />
	</node>
	<node id="-12653" lat="62.2933083322" lon="7.21000278044">
		<tag k="name" v="Gullåna" />
		<tag k="old_name" v="Gullåa" />
		<tag k="ssr:stedsnr" v="800598" />
		<tag k="waterway" v="stream" />
	</node>
	<node id="-10602" lat="62.3955166699" lon="7.51010833766">
		<tag k="name" v="Heimste Berilldalsvatnet" />
		<tag k="natural" v="water" />
		<tag k="ssr:stedsnr" v="253961" />
	</node>
	<node id="-10600" lat="62.309908335" lon="7.55719444439">
		<tag k="name" v="Djupdalsvatnet" />
		<tag k="natural" v="water" />
		<tag k="ssr:stedsnr" v="253864" />
	</node>
	<node id="-12647" lat="62.1015888926" lon="7.4119777758">
		<tag k="alt_name" v="Viavatnet, heimste" />
		<tag k="name" v="Heimste Viavatnet" />
		<tag k="natural" v="water" />
		<tag k="ssr:stedsnr" v="800094" />
		<tag k="water" v="lake" />
	</node>
	<node id="-10597" lat="62.3933749976" lon="7.12461111911">
		<tag k="name" v="Stavåna" />
		<tag k="ssr:stedsnr" v="253728" />
		<tag k="waterway" v="river" />
	</node>
	<node id="-10594" lat="62.4230416638" lon="7.14690555025">
		<tag k="name" v="Fossane" />
		<tag k="natural" v="waterfall" />
		<tag k="ssr:stedsnr" v="253669" />
	</node>
	<node id="-10593" lat="62.4069416643" lon="6.85751667288">
		<tag k="name" v="Skotsvatna" />
		<tag k="natural" v="water" />
		<tag k="ssr:stedsnr" v="253661" />
	</node>
	<node id="-12638" lat="62.4410111144" lon="7.13294445267">
		<tag k="name" v="Svartevatnet" />
		<tag k="natural" v="water" />
		<tag k="ssr:stedsnr" v="799708" />
		<tag k="water" v="lake" />
	</node>
	<node id="-10588" lat="62.1399138855" lon="7.39916944409">
		<tag k="name" v="Illstigvatnet" />
		<tag k="natural" v="water" />
		<tag k="ssr:stedsnr" v="253088" />
	</node>
	<node id="-10583" lat="62.1972055569" lon="7.55184722879">
		<tag k="name" v="Sildevatnet" />
		<tag k="natural" v="water" />
		<tag k="ssr:stedsnr" v="253009" />
	</node>
	<node id="-12627" lat="62.2619111081" lon="7.36278888283">
		<tag k="name" v="Storelva" />
		<tag k="ssr:stedsnr" v="774435" />
		<tag k="waterway" v="stream" />
	</node>
	<node id="-12621" lat="62.3676972256" lon="7.55289166869">
		<tag k="name" v="Åkrokelva" />
		<tag k="ssr:stedsnr" v="773843" />
		<tag k="waterway" v="river" />
	</node>
	<node id="-12619" lat="62.1889416632" lon="7.43980277314">
		<tag k="name" v="Sæterfossen" />
		<tag k="natural" v="waterfall" />
		<tag k="ssr:stedsnr" v="773955" />
	</node>
	<node id="-12615" lat="62.230213888" lon="7.42102499195">
		<tag k="name" v="Storelva" />
		<tag k="ssr:stedsnr" v="773750" />
		<tag k="waterway" v="stream" />
	</node>
	<node id="-12612" lat="62.1672916669" lon="7.32185832408">
		<tag k="name" v="Grjotdalselva" />
		<tag k="ssr:stedsnr" v="773563" />
		<tag k="waterway" v="stream" />
	</node>
	<node id="-10563" lat="62.3774555533" lon="7.40720833598">
		<tag k="name" v="Brekkevatnet" />
		<tag k="natural" v="water" />
		<tag k="ssr:stedsnr" v="71812" />
	</node>
	<node id="-12610" lat="62.2160333359" lon="7.32973054911">
		<tag k="name" v="Kallskarstranda" />
		<tag k="natural" v="beach" />
		<tag k="ssr:stedsnr" v="773561" />
	</node>
	<node id="-12609" lat="62.2139388912" lon="7.31533055702">
		<tag k="name" v="Osen" />
		<tag k="natural" v="bay" />
		<tag k="ssr:stedsnr" v="773558" />
	</node>
	<node id="-12608" lat="62.1866833325" lon="7.34786944927">
		<tag k="name" v="Nørdre Herdalselva" />
		<tag k="ssr:stedsnr" v="773501" />
		<tag k="waterway" v="river" />
	</node>
	<node id="-10559" lat="62.2003416655" lon="7.13841945213">
		<tag k="alt_name" v="Storelva" />
		<tag k="name" v="Eidsdalselva" />
		<tag k="ssr:stedsnr" v="71340" />
		<tag k="waterway" v="stream" />
	</node>
	<node id="-10555" lat="62.2200083341" lon="7.42940834267">
		<tag k="name" v="Onilsavatnet" />
		<tag k="natural" v="water" />
		<tag k="ssr:stedsnr" v="71002" />
		<tag k="water" v="lake" />
	</node>
	<node id="-12602" lat="62.4241500032" lon="7.28424167301">
		<tag k="name" v="Innfjordelva" />
		<tag k="ssr:stedsnr" v="763652" />
		<tag k="waterway" v="river" />
	</node>
	<node id="-10632" lat="62.3722972256" lon="7.10878888474">
		<tag k="name" v="Stordalselva" />
		<tag k="ssr:stedsnr" v="131713" />
		<tag k="waterway" v="river" />
	</node>
	<node id="-10542" lat="62.418433331" lon="7.63826667243">
		<tag k="name" v="Slettvikelva" />
		<tag k="ssr:stedsnr" v="228228" />
		<tag k="waterway" v="river" />
	</node>
	<node id="-12585" lat="62.4128611102" lon="6.88785833346">
		<tag k="name" v="Skotselva" />
		<tag k="ssr:stedsnr" v="762836" />
		<tag k="waterway" v="stream" />
	</node>
	<node id="-10535" lat="62.3411083375" lon="7.4716555531">
		<tag k="name" v="Åkrokelva" />
		<tag k="ssr:stedsnr" v="227649" />
		<tag k="waterway" v="river" />
	</node>
	<node id="-10527" lat="62.2334611076" lon="7.04013056024">
		<tag k="name" v="Brunngrova" />
		<tag k="ssr:stedsnr" v="227109" />
		<tag k="waterway" v="stream" />
	</node>
	<node id="-12574" lat="62.3358666704" lon="7.20302777153">
		<tag k="alt_name" v="Tverrelva, fremste" />
		<tag k="name" v="Fremste Tverrelva" />
		<tag k="ssr:stedsnr" v="740500" />
		<tag k="waterway" v="stream" />
	</node>
	<node id="-12573" lat="62.3379472231" lon="7.19378888049">
		<tag k="alt_name" v="Tverrelva, heimste" />
		<tag k="name" v="Heimste Tverrelva" />
		<tag k="ssr:stedsnr" v="740495" />
		<tag k="waterway" v="stream" />
	</node>
	<node id="-10521" lat="62.2713166685" lon="7.12471110668">
		<tag k="fixme" v="multiple name tags, choose one and add the other to alt_name" />
		<tag k="name" v="Fremste Tjørna;Tjørna" />
		<tag k="natural" v="water" />
		<tag k="ssr:stedsnr" v="11914" />
	</node>
	<node id="-10520" lat="62.258188888" lon="7.61578611866">
		<tag k="name" v="Illstigvatnet" />
		<tag k="natural" v="water" />
		<tag k="ssr:stedsnr" v="11838" />
	</node>
	<node id="-10519" lat="62.3402499985" lon="7.53686111804">
		<tag k="name" v="Valldøla" />
		<tag k="ssr:stedsnr" v="11811" />
		<tag k="waterway" v="river" />
	</node>
	<node id="-12564" lat="62.3481277811" lon="6.99826667076">
		<tag k="name" v="Jolgrøvatna" />
		<tag k="natural" v="water" />
		<tag k="ssr:stedsnr" v="739541" />
	</node>
	<node id="-12559" lat="62.1559222237" lon="7.43103610633">
		<tag k="alt_name" v="Kaldhussætervatnet, fremste" />
		<tag k="name" v="Fremste Kaldhussætervatnet" />
		<tag k="natural" v="water" />
		<tag k="ssr:stedsnr" v="739049" />
		<tag k="water" v="lake" />
	</node>
	<node id="-12558" lat="62.3724361154" lon="7.81293888086">
		<tag k="name" v="Langvatnet" />
		<tag k="natural" v="water" />
		<tag k="ssr:stedsnr" v="739033" />
		<tag k="water" v="lake" />
	</node>
	<node id="-12557" lat="62.1676472184" lon="7.42796944349">
		<tag k="alt_name" v="Kaldhussætervatnet, heimste" />
		<tag k="name" v="Heimste Kaldhussætervatnet" />
		<tag k="natural" v="water" />
		<tag k="ssr:stedsnr" v="739031" />
		<tag k="water" v="lake" />
	</node>
	<node id="-12556" lat="62.208069442" lon="7.27298333942">
		<tag k="name" v="Knøsteelva" />
		<tag k="ssr:stedsnr" v="739030" />
		<tag k="waterway" v="stream" />
	</node>
	<node id="-12555" lat="62.2248611104" lon="7.61929166507">
		<tag k="name" v="Småkoppane" />
		<tag k="natural" v="water" />
		<tag k="ssr:stedsnr" v="739020" />
		<tag k="water" v="lake" />
	</node>
	<node id="-12554" lat="62.2331750025" lon="7.33378333318">
		<tag k="alt_name" v="Vassdalsvatnet, øvre" />
		<tag k="name" v="Øvre Vassdalsvatnet" />
		<tag k="natural" v="water" />
		<tag k="ssr:stedsnr" v="739011" />
		<tag k="water" v="lake" />
	</node>
	<node id="-12545" lat="62.4234194408" lon="6.86739999209">
		<tag k="name" v="Plitten" />
		<tag k="ssr:stedsnr" v="738674" />
		<tag k="waterway" v="stream" />
	</node>
	<node id="-12542" lat="62.2414083321" lon="7.28247499799">
		<tag k="fixme" v="multiple name tags, choose one and add the other to alt_name" />
		<tag k="name" v="Rindeelva;Strekelva" />
		<tag k="ssr:stedsnr" v="738472" />
		<tag k="waterway" v="stream" />
	</node>
	<node id="-12531" lat="62.3493416658" lon="7.43632222354">
		<tag k="name" v="Svegrova" />
		<tag k="ssr:stedsnr" v="652652" />
		<tag k="waterway" v="stream" />
	</node>
	<node id="-12527" lat="62.2005777773" lon="7.3377444537">
		<tag k="name" v="Svinevika" />
		<tag k="natural" v="bay" />
		<tag k="ssr:stedsnr" v="652570" />
	</node>
	<node id="-12520" lat="62.2116861124" lon="7.24894443604">
		<tag k="name" v="Elvakrokane" />
		<tag k="natural" v="cape" />
		<tag k="ssr:stedsnr" v="652142" />
	</node>
	<node id="-12519" lat="62.2233805566" lon="7.29599721363">
		<tag k="name" v="Smørelva" />
		<tag k="ssr:stedsnr" v="652359" />
		<tag k="waterway" v="stream" />
	</node>
	<node id="-12517" lat="62.3306750024" lon="7.58674167146">
		<tag k="name" v="Grøndalselva" />
		<tag k="ssr:stedsnr" v="651237" />
		<tag k="waterway" v="stream" />
	</node>
	<node id="-12510" lat="62.4348472181" lon="7.31190278721">
		<tag k="name" v="Ådalselva" />
		<tag k="ssr:stedsnr" v="642648" />
		<tag k="waterway" v="river" />
	</node>
	<node id="-12498" lat="62.4073416634" lon="6.98733332902">
		<tag k="name" v="Storelineset" />
		<tag k="natural" v="cape" />
		<tag k="ssr:stedsnr" v="641531" />
	</node>
	<node id="-12468" lat="62.395888892" lon="7.48371944692">
		<tag k="name" v="Fremste Berilldalsvatnet" />
		<tag k="natural" v="water" />
		<tag k="ssr:stedsnr" v="617949" />
	</node>
	<node id="-12465" lat="62.3895749984" lon="7.17744999727">
		<tag k="name" v="Alnåna" />
		<tag k="ssr:stedsnr" v="617736" />
		<tag k="waterway" v="stream" />
	</node>
	<node id="-12453" lat="62.3339333322" lon="7.56424721398">
		<tag k="name" v="Grønningsæterelva" />
		<tag k="ssr:stedsnr" v="617780" />
		<tag k="waterway" v="stream" />
	</node>
	<node id="-12448" lat="62.3334138913" lon="7.74468888939">
		<tag k="name" v="Bjørnebottvatnet" />
		<tag k="natural" v="water" />
		<tag k="ssr:stedsnr" v="617080" />
		<tag k="water" v="lake" />
	</node>
	<node id="-12445" lat="62.1833972246" lon="7.50536389748">
		<tag k="alt_name" v="Rødalsvatnet, fremste" />
		<tag k="name" v="Fremste Rødalsvatnet" />
		<tag k="natural" v="water" />
		<tag k="ssr:stedsnr" v="617073" />
	</node>
	<node id="-12444" lat="62.1860305553" lon="7.55904723132">
		<tag k="name" v="Langvatnet" />
		<tag k="natural" v="water" />
		<tag k="ssr:stedsnr" v="617069" />
		<tag k="water" v="lake" />
	</node>
	<node id="-12416" lat="62.1959083304" lon="7.34192222306">
		<tag k="name" v="Kvislane" />
		<tag k="ssr:stedsnr" v="591510" />
		<tag k="waterway" v="stream" />
	</node>
	<node id="-12411" lat="62.2228555587" lon="7.28845834166">
		<tag k="name" v="Knøstelva" />
		<tag k="ssr:stedsnr" v="591378" />
		<tag k="waterway" v="stream" />
	</node>
	<node id="-12406" lat="62.2802972243" lon="7.33274721569">
		<tag k="name" v="Kastestranda" />
		<tag k="natural" v="beach" />
		<tag k="ssr:stedsnr" v="591226" />
	</node>
	<node id="-12400" lat="62.16633889" lon="7.4245444432">
		<tag k="name" v="Maritvika" />
		<tag k="natural" v="bay" />
		<tag k="ssr:stedsnr" v="591102" />
	</node>
	<node id="-12399" lat="62.1738861152" lon="7.42712776827">
		<tag k="name" v="Hjellvika" />
		<tag k="natural" v="bay" />
		<tag k="ssr:stedsnr" v="591099" />
	</node>
	<node id="-12396" lat="62.2792277792" lon="7.0767277838">
		<tag k="name" v="Taulowkjelda" />
		<tag k="ssr:stedsnr" v="590174" />
		<tag k="waterway" v="stream" />
	</node>
	<node id="-12395" lat="62.2663666683" lon="7.15942777926">
		<tag k="name" v="Storgrova" />
		<tag k="ssr:stedsnr" v="590163" />
		<tag k="waterway" v="stream" />
	</node>
	<node id="-12389" lat="62.2450472255" lon="7.20896666428">
		<tag k="name" v="Hatlestadelva" />
		<tag k="ssr:stedsnr" v="581415" />
		<tag k="waterway" v="river" />
	</node>
	<node id="-12367" lat="62.207644448" lon="7.24447778326">
		<tag k="name" v="Dyrdøla" />
		<tag k="ssr:stedsnr" v="566930" />
		<tag k="waterway" v="river" />
	</node>
	<node id="-12355" lat="62.4568222231" lon="7.19853889278">
		<tag k="name" v="Kleivavatnet" />
		<tag k="natural" v="water" />
		<tag k="ssr:stedsnr" v="557346" />
	</node>
	<node id="-12354" lat="62.3592250035" lon="7.07195277151">
		<tag k="name" v="Fjellåna" />
		<tag k="old_name" v="Fjellåa" />
		<tag k="ssr:stedsnr" v="557597" />
		<tag k="waterway" v="stream" />
	</node>
	<node id="-12353" lat="62.1884500024" lon="7.45991667377">
		<tag k="name" v="Nykvatnet" />
		<tag k="natural" v="water" />
		<tag k="ssr:stedsnr" v="557050" />
	</node>
	<node id="-12352" lat="62.1995111154" lon="7.59382777638">
		<tag k="name" v="Tverrelva" />
		<tag k="ssr:stedsnr" v="557006" />
		<tag k="waterway" v="river" />
	</node>
	<node id="-12348" lat="62.2589222206" lon="7.12841111668">
		<tag k="name" v="Kilstivatnet" />
		<tag k="natural" v="water" />
		<tag k="ssr:stedsnr" v="556930" />
	</node>
	<node id="-12346" lat="62.3745527818" lon="7.22807223093">
		<tag k="name" v="Litlelva" />
		<tag k="ssr:stedsnr" v="556792" />
		<tag k="waterway" v="stream" />
	</node>
	<node id="-12345" lat="62.3845055529" lon="7.46996111897">
		<tag k="name" v="Bjørnevatnet" />
		<tag k="natural" v="water" />
		<tag k="ssr:stedsnr" v="556789" />
	</node>
	<node id="-12333" lat="62.1870944446" lon="7.14978055247">
		<tag k="name" v="Eidsvatnet" />
		<tag k="natural" v="water" />
		<tag k="ssr:stedsnr" v="556391" />
		<tag k="water" v="lake" />
	</node>
	<node id="-12332" lat="62.093277775" lon="7.42770278062">
		<tag k="name" v="Litledøla" />
		<tag k="ssr:stedsnr" v="556149" />
		<tag k="waterway" v="stream" />
	</node>
	<node id="-12320" lat="62.2557638904" lon="7.46897777312">
		<tag k="name" v="Tverrelva" />
		<tag k="ssr:stedsnr" v="531798" />
		<tag k="waterway" v="stream" />
	</node>
	<node id="-12316" lat="62.3965249973" lon="7.60147500071">
		<tag k="name" v="Tormodvatnet" />
		<tag k="natural" v="water" />
		<tag k="ssr:stedsnr" v="531726" />
	</node>
	<node id="-12310" lat="62.2123083299" lon="7.44393333208">
		<tag k="name" v="Litleneset" />
		<tag k="natural" v="cape" />
		<tag k="ssr:stedsnr" v="531107" />
	</node>
	<node id="-12309" lat="62.211819441" lon="7.45236666879">
		<tag k="name" v="Storhølen" />
		<tag k="place" v="locality" />
		<tag k="ssr:stedsnr" v="531104" />
	</node>
	<node id="-12308" lat="62.2070166637" lon="7.42318889702">
		<tag k="name" v="Furhammarsgrova" />
		<tag k="ssr:stedsnr" v="531090" />
		<tag k="waterway" v="stream" />
	</node>
	<node id="-12306" lat="62.2419805591" lon="7.25668889417">
		<tag k="name" v="Storfossen" />
		<tag k="natural" v="waterfall" />
		<tag k="ssr:stedsnr" v="530936" />
	</node>
	<node id="-12302" lat="62.3289083301" lon="7.49670555077">
		<tag k="name" v="Øyane" />
		<tag k="place" v="island" />
		<tag k="ssr:stedsnr" v="530670" />
	</node>
	<node id="-12299" lat="62.3106111156" lon="7.26540833421">
		<tag k="name" v="Jamtekvisla" />
		<tag k="ssr:stedsnr" v="530630" />
		<tag k="waterway" v="stream" />
	</node>
	<node id="-12296" lat="62.3250249958" lon="7.32143333988">
		<tag k="name" v="Geilveita" />
		<tag k="ssr:stedsnr" v="530399" />
		<tag k="waterway" v="stream" />
	</node>
	<node id="-12295" lat="62.3190972248" lon="7.28185278661">
		<tag k="name" v="Gullåna" />
		<tag k="ssr:stedsnr" v="530391" />
		<tag k="waterway" v="stream" />
	</node>
	<node id="-12291" lat="62.4069749978" lon="7.32337222231">
		<tag k="name" v="Espedalselva" />
		<tag k="ssr:stedsnr" v="521667" />
		<tag k="waterway" v="river" />
	</node>
	<node id="-12290" lat="62.2598250027" lon="7.13416388342">
		<tag k="name" v="Bukta" />
		<tag k="natural" v="bay" />
		<tag k="ssr:stedsnr" v="521455" />
	</node>
</osm>
