<?xml version="1.0" encoding="UTF-8"?>
<osm version="0.6" generator="osmapis">
	<node lat="62.32999444476432" lon="7.510969437431187" id="-11163">
		<tag k="bridge" v="yes" />
		<tag k="layer" v="1" />
		<tag k="name" v="Grønning bru" />
		<tag k="ssr:stedsnr" v="288803" />
	</node>
	<node lat="62.27691388472332" lon="7.328033337629583" id="-11199">
		<tag k="highway" v="path" />
		<tag k="name" v="Sætervegen" />
		<tag k="ssr:stedsnr" v="470234" />
	</node>
	<node lat="62.29281389070753" lon="7.316391670452729" id="-11209">
		<tag k="man_made" v="quay" />
		<tag k="name" v="Fjørå kai" />
		<tag k="place" v="locality" />
		<tag k="ssr:stedsnr" v="470487" />
	</node>
	<node lat="62.4171249996743" lon="7.640622221011886" id="-11361">
		<tag k="bridge" v="yes" />
		<tag k="layer" v="1" />
		<tag k="name" v="Slettvikbrua" />
		<tag k="ssr:stedsnr" v="469220" />
	</node>
	<node lat="62.270361107886956" lon="7.096622217608704" id="-11455">
		<tag k="highway" v="path" />
		<tag k="name" v="Sætrevegen" />
		<tag k="ssr:stedsnr" v="530182" />
	</node>
	<node lat="62.373958336828146" lon="6.885391665427838" id="-11544">
		<tag k="highway" v="path" />
		<tag k="name" v="Seterstien" />
		<tag k="ssr:stedsnr" v="701177" />
	</node>
	<node lat="62.35574722350955" lon="6.94851945226321" id="-11586">
		<tag k="fixme" v="verify maritime location" />
		<tag k="mooring" v="yes" />
		<tag k="name" v="Djupdalsstøa" />
		<tag k="place" v="locality" />
		<tag k="ssr:stedsnr" v="640774" />
	</node>
	<node lat="62.26303333676549" lon="7.171358336066703" id="-11588">
		<tag k="amenity" v="ferry_terminal" />
		<tag k="name" v="Eidsdal ferjekai" />
		<tag k="ssr:stedsnr" v="641260" />
	</node>
	<node lat="62.348661107471564" lon="7.092013897302486" id="-11589">
		<tag k="junction" v="yes" />
		<tag k="name" v="Øyevegskiftet" />
		<tag k="place" v="locality" />
		<tag k="ssr:stedsnr" v="641527" />
	</node>
	<node lat="62.222491665117325" lon="7.249250004214914" id="-11723">
		<tag k="highway" v="path" />
		<tag k="name" v="Nedsteråsa" />
		<tag k="ssr:stedsnr" v="228856" />
	</node>
	<node lat="62.37050833326567" lon="6.944572223777217" id="-12064">
		<tag k="highway" v="path" />
		<tag k="name" v="Holmestien" />
		<tag k="ssr:stedsnr" v="94789" />
	</node>
	<node lat="62.19612500120832" lon="7.484836117901649" id="-12101">
		<tag k="highway" v="path" />
		<tag k="name" v="Gamlestigen" />
		<tag k="ssr:stedsnr" v="106938" />
	</node>
	<node lat="62.34098611271732" lon="7.0985611124380075" id="-12148">
		<tag k="junction" v="yes" />
		<tag k="name" v="Sætrevegskiftet" />
		<tag k="place" v="locality" />
		<tag k="ssr:stedsnr" v="151840" />
	</node>
	<node lat="62.36735555706153" lon="6.950411112819861" id="-12152">
		<tag k="highway" v="path" />
		<tag k="name" v="Sætrevegen" />
		<tag k="ssr:stedsnr" v="155734" />
	</node>
	<node lat="62.30565555667484" lon="7.253022222732137" id="-12182">
		<tag k="bridge" v="yes" />
		<tag k="layer" v="1" />
		<tag k="name" v="Muribøbrua" />
		<tag k="ssr:stedsnr" v="166593" />
	</node>
	<node lat="62.28451111247896" lon="7.18725832481117" id="-12389">
		<tag k="amenity" v="ferry_terminal" />
		<tag k="name" v="Linge ferjekai" />
		<tag k="ssr:stedsnr" v="315549" />
	</node>
	<node lat="62.206827782185755" lon="7.4455055519028415" id="-12419">
		<tag k="highway" v="path" />
		<tag k="name" v="Nevrestigen" />
		<tag k="ssr:stedsnr" v="348125" />
	</node>
	<node lat="62.37384444533976" lon="7.55753054726982" id="-12429">
		<tag k="highway" v="path" />
		<tag k="name" v="Øyaled" />
		<tag k="ssr:stedsnr" v="349889" />
	</node>
	<node lat="62.382172221623776" lon="7.167102778557175" id="-12696">
		<tag k="bridge" v="yes" />
		<tag k="layer" v="1" />
		<tag k="name" v="Nakkebrua" />
		<tag k="ssr:stedsnr" v="580855" />
	</node>
	<node lat="62.37109722555149" lon="6.95028611818507" id="-12774">
		<tag k="highway" v="path" />
		<tag k="name" v="Peknutstien" />
		<tag k="ssr:stedsnr" v="640747" />
	</node>
	<node lat="62.37961389055916" lon="7.095399999298491" id="-12981">
		<tag k="highway" v="path" />
		<tag k="name" v="Heistien" />
		<tag k="ssr:stedsnr" v="824106" />
	</node>
	<node lat="62.32838333154701" lon="7.340686120651143" id="-12997">
		<tag k="bridge" v="yes" />
		<tag k="layer" v="1" />
		<tag k="name" v="Brautabrua" />
		<tag k="ssr:stedsnr" v="834329" />
	</node>
	<node lat="62.22147777953619" lon="7.2402888955712505" id="-13032">
		<tag k="highway" v="path" />
		<tag k="name" v="Øvsteråsa" />
		<tag k="ssr:stedsnr" v="835853" />
	</node>
	<node lat="62.41944445460046" lon="7.222179102572441" id="-13183">
		<tag k="bridge" v="yes" />
		<tag k="layer" v="1" />
		<tag k="name" v="Kvitlebrua" />
		<tag k="ssr:stedsnr" v="988871" />
	</node>
</osm>
