<?xml version="1.0" encoding="UTF-8"?>
<osm generator="osmapis" version="0.6">
	<node id="-67128" lat="60.4150829432" lon="12.3947277074">
		<tag k="name" v="Råbergsvegen" />
		<tag k="ssr:date" v="2019-05-30" />
		<tag k="ssr:gruppe" v="veg" />
		<tag k="ssr:hovedgruppe" v="infrastruktur" />
		<tag k="ssr:stedsnr" v="1007105" />
		<tag k="ssr:type" v="adressenavn" />
	</node>
	<node id="-67127" lat="60.4582689012" lon="12.0576427628">
		<tag k="name" v="Gartnerivegen" />
		<tag k="ssr:date" v="2019-05-30" />
		<tag k="ssr:gruppe" v="veg" />
		<tag k="ssr:hovedgruppe" v="infrastruktur" />
		<tag k="ssr:stedsnr" v="1007102" />
		<tag k="ssr:type" v="adressenavn" />
	</node>
	<node id="-67126" lat="60.4162037378" lon="12.2045440702">
		<tag k="name" v="Sætergrenda" />
		<tag k="ssr:date" v="2019-05-30" />
		<tag k="ssr:gruppe" v="veg" />
		<tag k="ssr:hovedgruppe" v="infrastruktur" />
		<tag k="ssr:stedsnr" v="1007101" />
		<tag k="ssr:type" v="adressenavn" />
	</node>
	<node id="-67125" lat="60.3902580769" lon="11.9949043206">
		<tag k="name" v="Skaraberget" />
		<tag k="ssr:date" v="2019-05-30" />
		<tag k="ssr:gruppe" v="veg" />
		<tag k="ssr:hovedgruppe" v="infrastruktur" />
		<tag k="ssr:stedsnr" v="1007096" />
		<tag k="ssr:type" v="adressenavn" />
	</node>
	<node id="-67124" lat="60.4588791934" lon="12.5567882119">
		<tag k="name" v="Løvhaugen" />
		<tag k="ssr:date" v="2019-05-30" />
		<tag k="ssr:gruppe" v="veg" />
		<tag k="ssr:hovedgruppe" v="infrastruktur" />
		<tag k="ssr:stedsnr" v="1007084" />
		<tag k="ssr:type" v="adressenavn" />
	</node>
	<node id="-67123" lat="60.437363008" lon="12.5335013055">
		<tag k="name" v="Sjøvegen" />
		<tag k="ssr:date" v="2019-05-30" />
		<tag k="ssr:gruppe" v="veg" />
		<tag k="ssr:hovedgruppe" v="infrastruktur" />
		<tag k="ssr:stedsnr" v="1007083" />
		<tag k="ssr:type" v="adressenavn" />
	</node>
	<node id="-67122" lat="60.4441801622" lon="12.5636744793">
		<tag k="name" v="Øvre Skåkbergsveg" />
		<tag k="ssr:date" v="2019-05-30" />
		<tag k="ssr:gruppe" v="veg" />
		<tag k="ssr:hovedgruppe" v="infrastruktur" />
		<tag k="ssr:stedsnr" v="1007082" />
		<tag k="ssr:type" v="adressenavn" />
	</node>
	<node id="-67121" lat="60.4380400891" lon="12.095887568">
		<tag k="name" v="Kvernvegen" />
		<tag k="ssr:date" v="2019-05-30" />
		<tag k="ssr:gruppe" v="veg" />
		<tag k="ssr:hovedgruppe" v="infrastruktur" />
		<tag k="ssr:stedsnr" v="1007074" />
		<tag k="ssr:type" v="adressenavn" />
	</node>
	<node id="-67120" lat="60.4815084357" lon="11.9465705421">
		<tag k="name" v="Granerudvegen" />
		<tag k="ssr:date" v="2019-05-30" />
		<tag k="ssr:gruppe" v="veg" />
		<tag k="ssr:hovedgruppe" v="infrastruktur" />
		<tag k="ssr:stedsnr" v="1006952" />
		<tag k="ssr:type" v="adressenavn" />
	</node>
	<node id="-67119" lat="60.4119042783" lon="12.2396052454">
		<tag k="name" v="Skaslivegen" />
		<tag k="ssr:date" v="2019-05-30" />
		<tag k="ssr:gruppe" v="veg" />
		<tag k="ssr:hovedgruppe" v="infrastruktur" />
		<tag k="ssr:stedsnr" v="1006950" />
		<tag k="ssr:type" v="adressenavn" />
	</node>
	<node id="-67118" lat="60.390987521" lon="12.0419583741">
		<tag k="name" v="Grinderalleen" />
		<tag k="ssr:date" v="2019-05-30" />
		<tag k="ssr:gruppe" v="veg" />
		<tag k="ssr:hovedgruppe" v="infrastruktur" />
		<tag k="ssr:stedsnr" v="1006944" />
		<tag k="ssr:type" v="adressenavn" />
	</node>
	<node id="-67117" lat="60.382648942" lon="12.0380399545">
		<tag k="name" v="Hveberg" />
		<tag k="ssr:date" v="2019-05-30" />
		<tag k="ssr:gruppe" v="veg" />
		<tag k="ssr:hovedgruppe" v="infrastruktur" />
		<tag k="ssr:stedsnr" v="1006943" />
		<tag k="ssr:type" v="adressenavn" />
	</node>
	<node id="-67116" lat="60.5067144836" lon="12.0811774044">
		<tag k="name" v="Modalsvegen vest" />
		<tag k="ssr:date" v="2019-05-30" />
		<tag k="ssr:gruppe" v="veg" />
		<tag k="ssr:hovedgruppe" v="infrastruktur" />
		<tag k="ssr:stedsnr" v="1006939" />
		<tag k="ssr:type" v="adressenavn" />
	</node>
	<node id="-67115" lat="60.5027323301" lon="12.0793051619">
		<tag k="name" v="Modalsvegen" />
		<tag k="ssr:date" v="2019-05-30" />
		<tag k="ssr:gruppe" v="veg" />
		<tag k="ssr:hovedgruppe" v="infrastruktur" />
		<tag k="ssr:stedsnr" v="1006938" />
		<tag k="ssr:type" v="adressenavn" />
	</node>
	<node id="-67114" lat="60.4571444442" lon="12.0600475956">
		<tag k="name" v="Gruetorget" />
		<tag k="ssr:date" v="2019-05-30" />
		<tag k="ssr:gruppe" v="veg" />
		<tag k="ssr:hovedgruppe" v="infrastruktur" />
		<tag k="ssr:stedsnr" v="1006935" />
		<tag k="ssr:type" v="adressenavn" />
	</node>
	<node id="-67113" lat="60.333226389" lon="12.235367719">
		<tag k="name" v="Åsavegen" />
		<tag k="ssr:date" v="2019-05-30" />
		<tag k="ssr:gruppe" v="veg" />
		<tag k="ssr:hovedgruppe" v="infrastruktur" />
		<tag k="ssr:stedsnr" v="1006926" />
		<tag k="ssr:type" v="adressenavn" />
	</node>
	<node id="-67112" lat="60.451461934" lon="12.2520977331">
		<tag k="name" v="Torpvegen" />
		<tag k="ssr:date" v="2019-05-30" />
		<tag k="ssr:gruppe" v="veg" />
		<tag k="ssr:hovedgruppe" v="infrastruktur" />
		<tag k="ssr:stedsnr" v="1006916" />
		<tag k="ssr:type" v="adressenavn" />
	</node>
	<node id="-67111" lat="60.4506111062" lon="12.0538301779">
		<tag k="name" v="Rådhusplassen" />
		<tag k="ssr:date" v="2019-05-30" />
		<tag k="ssr:gruppe" v="veg" />
		<tag k="ssr:hovedgruppe" v="infrastruktur" />
		<tag k="ssr:stedsnr" v="1006913" />
		<tag k="ssr:type" v="adressenavn" />
	</node>
	<node id="-67110" lat="60.4820316245" lon="12.0171675401">
		<tag k="name" v="Holmen" />
		<tag k="ssr:date" v="2019-05-30" />
		<tag k="ssr:gruppe" v="veg" />
		<tag k="ssr:hovedgruppe" v="infrastruktur" />
		<tag k="ssr:stedsnr" v="1006909" />
		<tag k="ssr:type" v="adressenavn" />
	</node>
	<node id="-67109" lat="60.4203328926" lon="12.4122332965">
		<tag k="name" v="Gamle lokalvegen" />
		<tag k="ssr:date" v="2019-05-30" />
		<tag k="ssr:gruppe" v="veg" />
		<tag k="ssr:hovedgruppe" v="infrastruktur" />
		<tag k="ssr:stedsnr" v="1006906" />
		<tag k="ssr:type" v="adressenavn" />
	</node>
	<node id="-67108" lat="60.4066192502" lon="11.9997148494">
		<tag k="name" v="Opaker" />
		<tag k="ssr:date" v="2019-05-30" />
		<tag k="ssr:gruppe" v="veg" />
		<tag k="ssr:hovedgruppe" v="infrastruktur" />
		<tag k="ssr:stedsnr" v="1006904" />
		<tag k="ssr:type" v="adressenavn" />
	</node>
	<node id="-67107" lat="60.4195941344" lon="12.4262962481">
		<tag k="name" v="Karlstorpvegen" />
		<tag k="ssr:date" v="2019-05-30" />
		<tag k="ssr:gruppe" v="veg" />
		<tag k="ssr:hovedgruppe" v="infrastruktur" />
		<tag k="ssr:stedsnr" v="1006887" />
		<tag k="ssr:type" v="adressenavn" />
	</node>
	<node id="-67106" lat="60.5134051994" lon="12.5392729558">
		<tag k="name" v="Vestgarden" />
		<tag k="ssr:date" v="2019-05-30" />
		<tag k="ssr:gruppe" v="veg" />
		<tag k="ssr:hovedgruppe" v="infrastruktur" />
		<tag k="ssr:stedsnr" v="1006886" />
		<tag k="ssr:type" v="adressenavn" />
	</node>
	<node id="-67105" lat="60.3780832116" lon="12.3568931981">
		<tag k="name" v="Villavegen" />
		<tag k="ssr:date" v="2019-05-30" />
		<tag k="ssr:gruppe" v="veg" />
		<tag k="ssr:hovedgruppe" v="infrastruktur" />
		<tag k="ssr:stedsnr" v="1006885" />
		<tag k="ssr:type" v="adressenavn" />
	</node>
	<node id="-67104" lat="60.3495847394" lon="12.2883109659">
		<tag k="name" v="Stampetorpvegen" />
		<tag k="ssr:date" v="2019-05-30" />
		<tag k="ssr:gruppe" v="veg" />
		<tag k="ssr:hovedgruppe" v="infrastruktur" />
		<tag k="ssr:stedsnr" v="1006091" />
		<tag k="ssr:type" v="adressenavn" />
	</node>
	<node id="-67103" lat="60.3756178753" lon="11.890704995">
		<tag k="name" v="Nysæter" />
		<tag k="ssr:date" v="2019-05-30" />
		<tag k="ssr:gruppe" v="veg" />
		<tag k="ssr:hovedgruppe" v="infrastruktur" />
		<tag k="ssr:stedsnr" v="1005717" />
		<tag k="ssr:type" v="adressenavn" />
	</node>
	<node id="-67102" lat="60.4076128696" lon="12.2064234662">
		<tag k="name" v="Frysjøberget" />
		<tag k="ssr:date" v="2019-05-30" />
		<tag k="ssr:gruppe" v="veg" />
		<tag k="ssr:hovedgruppe" v="infrastruktur" />
		<tag k="ssr:stedsnr" v="1005332" />
		<tag k="ssr:type" v="adressenavn" />
	</node>
	<node id="-67101" lat="60.3698030039" lon="12.0213481834">
		<tag k="name" v="Vestre Solørveg" />
		<tag k="ssr:date" v="2019-05-30" />
		<tag k="ssr:gruppe" v="veg" />
		<tag k="ssr:hovedgruppe" v="infrastruktur" />
		<tag k="ssr:stedsnr" v="1004181" />
		<tag k="ssr:type" v="adressenavn" />
	</node>
	<node id="-67100" lat="60.4234993433" lon="12.0117752029">
		<tag k="name" v="Opakersundvegen vest" />
		<tag k="ssr:date" v="2019-05-30" />
		<tag k="ssr:gruppe" v="veg" />
		<tag k="ssr:hovedgruppe" v="infrastruktur" />
		<tag k="ssr:stedsnr" v="1004161" />
		<tag k="ssr:type" v="adressenavn" />
	</node>
	<node id="-67477" lat="60.3921250017" lon="11.9005194391">
		<tag k="name" v="Solør" />
		<tag k="ssr:date" v="2016-05-10" />
		<tag k="ssr:gruppe" v="terrengområder" />
		<tag k="ssr:hovedgruppe" v="terreng" />
		<tag k="ssr:stedsnr" v="146630" />
		<tag k="ssr:type" v="landskapsområde" />
	</node>
	<node id="-67340" lat="60.4513250009" lon="12.0548888836">
		<tag k="name" v="Grue kommune" />
		<tag k="ssr:date" v="2016-05-10" />
		<tag k="ssr:gruppe" v="administrativeIndelinger" />
		<tag k="ssr:hovedgruppe" v="offentligAdministrasjon" />
		<tag k="ssr:stedsnr" v="87311" />
		<tag k="ssr:type" v="kommune" />
	</node>
	<node id="-68235" lat="60.4161972257" lon="12.1403083297">
		<tag k="name" v="Åserudlinna" />
		<tag k="ssr:date" v="2016-05-10" />
		<tag k="ssr:gruppe" v="energi" />
		<tag k="ssr:hovedgruppe" v="infrastruktur" />
		<tag k="ssr:stedsnr" v="601936" />
		<tag k="ssr:type" v="kraftledning" />
	</node>
	<node id="-69124" lat="60.5908609473" lon="9.63819281559">
		<tag k="fixme" v="multiple name tags, choose one and add the other to alt_name" />
		<tag k="name" v="Austlandet;Østlandet" />
		<tag k="ssr:date" v="2018-01-09" />
		<tag k="ssr:gruppe" v="administrativeIndelinger" />
		<tag k="ssr:hovedgruppe" v="offentligAdministrasjon" />
		<tag k="ssr:stedsnr" v="974775" />
		<tag k="ssr:type" v="annenAdministrativInndeling" />
	</node>
	<node id="-68610" lat="60.408338892" lon="12.1032833329">
		<tag k="name" v="Åserudlinna" />
		<tag k="ssr:date" v="2016-05-11" />
		<tag k="ssr:gruppe" v="administrativeIndelinger" />
		<tag k="ssr:hovedgruppe" v="offentligAdministrasjon" />
		<tag k="ssr:stedsnr" v="754768" />
		<tag k="ssr:type" v="annenAdministrativInndeling" />
	</node>
</osm>
