<?xml version="1.0" encoding="UTF-8"?>
<osm version="0.6" generator="osmapis">
	<node lat="62.79186521957451" lon="9.599396582632936" id="-83086">
		<tag k="name" v="Svartdalsveien" />
		<tag k="ssr:date" v="2019-05-30" />
		<tag k="ssr:gruppe" v="veg" />
		<tag k="ssr:hovedgruppe" v="infrastruktur" />
		<tag k="ssr:stedsnr" v="36582" />
		<tag k="ssr:type" v="adressenavn" />
	</node>
	<node lat="62.82840486440448" lon="10.004128296979275" id="-83165">
		<tag k="name" v="Vassliveien" />
		<tag k="ssr:date" v="2019-05-30" />
		<tag k="ssr:gruppe" v="veg" />
		<tag k="ssr:hovedgruppe" v="infrastruktur" />
		<tag k="ssr:stedsnr" v="120804" />
		<tag k="ssr:type" v="adressenavn" />
	</node>
	<node lat="62.917509596820324" lon="9.725133494122176" id="-83288">
		<tag k="name" v="Jøldalsveien" />
		<tag k="ssr:date" v="2019-05-30" />
		<tag k="ssr:gruppe" v="veg" />
		<tag k="ssr:hovedgruppe" v="infrastruktur" />
		<tag k="ssr:stedsnr" v="218981" />
		<tag k="ssr:type" v="adressenavn" />
	</node>
	<node lat="62.8286388916951" lon="10.004861102450576" id="-83316">
		<tag k="name" v="Rennebu kommune" />
		<tag k="ssr:date" v="2018-01-09" />
		<tag k="ssr:gruppe" v="administrativeIndelinger" />
		<tag k="ssr:hovedgruppe" v="offentligAdministrasjon" />
		<tag k="ssr:stedsnr" v="268000" />
		<tag k="ssr:type" v="kommune" />
	</node>
	<node lat="62.82937377208284" lon="9.735315743694066" id="-83899">
		<tag k="name" v="Leverdalsveien" />
		<tag k="ssr:date" v="2019-05-30" />
		<tag k="ssr:gruppe" v="veg" />
		<tag k="ssr:hovedgruppe" v="infrastruktur" />
		<tag k="ssr:stedsnr" v="764653" />
		<tag k="ssr:type" v="adressenavn" />
	</node>
	<node lat="62.69578401073561" lon="9.94005692520734" id="-84132">
		<tag k="name" v="Trondheimsveien" />
		<tag k="ssr:date" v="2019-05-30" />
		<tag k="ssr:gruppe" v="veg" />
		<tag k="ssr:hovedgruppe" v="infrastruktur" />
		<tag k="ssr:stedsnr" v="984471" />
		<tag k="ssr:type" v="adressenavn" />
	</node>
	<node lat="62.8281551907798" lon="10.008727276990173" id="-84133">
		<tag k="name" v="Orkdalsveien" />
		<tag k="ssr:date" v="2019-05-30" />
		<tag k="ssr:gruppe" v="veg" />
		<tag k="ssr:hovedgruppe" v="infrastruktur" />
		<tag k="ssr:stedsnr" v="984472" />
		<tag k="ssr:type" v="adressenavn" />
	</node>
	<node lat="62.88634672226733" lon="9.719766658770522" id="-84134">
		<tag k="name" v="Lauvåsveien" />
		<tag k="ssr:date" v="2019-05-30" />
		<tag k="ssr:gruppe" v="veg" />
		<tag k="ssr:hovedgruppe" v="infrastruktur" />
		<tag k="ssr:stedsnr" v="984473" />
		<tag k="ssr:type" v="adressenavn" />
	</node>
	<node lat="62.90418148639287" lon="9.62453092726636" id="-84135">
		<tag k="name" v="Telveien" />
		<tag k="ssr:date" v="2019-05-30" />
		<tag k="ssr:gruppe" v="veg" />
		<tag k="ssr:hovedgruppe" v="infrastruktur" />
		<tag k="ssr:stedsnr" v="984474" />
		<tag k="ssr:type" v="adressenavn" />
	</node>
	<node lat="62.81659659967198" lon="9.665667405396032" id="-84136">
		<tag k="name" v="Flåsæterenget" />
		<tag k="ssr:date" v="2019-05-30" />
		<tag k="ssr:gruppe" v="veg" />
		<tag k="ssr:hovedgruppe" v="infrastruktur" />
		<tag k="ssr:stedsnr" v="984476" />
		<tag k="ssr:type" v="adressenavn" />
	</node>
	<node lat="62.81796475818596" lon="9.668608686023873" id="-84137">
		<tag k="name" v="Flåsætra" />
		<tag k="ssr:date" v="2019-05-30" />
		<tag k="ssr:gruppe" v="veg" />
		<tag k="ssr:hovedgruppe" v="infrastruktur" />
		<tag k="ssr:stedsnr" v="984477" />
		<tag k="ssr:type" v="adressenavn" />
	</node>
	<node lat="62.821073931437056" lon="9.679613102717303" id="-84138">
		<tag k="name" v="Heldalsveien" />
		<tag k="ssr:date" v="2019-05-30" />
		<tag k="ssr:gruppe" v="veg" />
		<tag k="ssr:hovedgruppe" v="infrastruktur" />
		<tag k="ssr:stedsnr" v="984478" />
		<tag k="ssr:type" v="adressenavn" />
	</node>
	<node lat="62.83256812580003" lon="9.708764459800877" id="-84140">
		<tag k="name" v="Svartbekken" />
		<tag k="ssr:date" v="2019-05-30" />
		<tag k="ssr:gruppe" v="veg" />
		<tag k="ssr:hovedgruppe" v="infrastruktur" />
		<tag k="ssr:stedsnr" v="984480" />
		<tag k="ssr:type" v="adressenavn" />
	</node>
	<node lat="62.83604648494024" lon="9.710874855201716" id="-84141">
		<tag k="name" v="Nedre Svartbekken" />
		<tag k="ssr:date" v="2019-05-30" />
		<tag k="ssr:gruppe" v="veg" />
		<tag k="ssr:hovedgruppe" v="infrastruktur" />
		<tag k="ssr:stedsnr" v="984481" />
		<tag k="ssr:type" v="adressenavn" />
	</node>
	<node lat="62.85720672129188" lon="9.710101888541596" id="-84142">
		<tag k="name" v="Svarthamran" />
		<tag k="ssr:date" v="2019-05-30" />
		<tag k="ssr:gruppe" v="veg" />
		<tag k="ssr:hovedgruppe" v="infrastruktur" />
		<tag k="ssr:stedsnr" v="984482" />
		<tag k="ssr:type" v="adressenavn" />
	</node>
	<node lat="62.80822443060741" lon="9.659657765817084" id="-84143">
		<tag k="name" v="Varghaugkjølen" />
		<tag k="ssr:date" v="2019-05-30" />
		<tag k="ssr:gruppe" v="veg" />
		<tag k="ssr:hovedgruppe" v="infrastruktur" />
		<tag k="ssr:stedsnr" v="984483" />
		<tag k="ssr:type" v="adressenavn" />
	</node>
	<node lat="62.813814595815224" lon="9.661898944674949" id="-84144">
		<tag k="name" v="Minnilla" />
		<tag k="ssr:date" v="2019-05-30" />
		<tag k="ssr:gruppe" v="veg" />
		<tag k="ssr:hovedgruppe" v="infrastruktur" />
		<tag k="ssr:stedsnr" v="984484" />
		<tag k="ssr:type" v="adressenavn" />
	</node>
	<node lat="62.92584402901483" lon="9.760074109026522" id="-84146">
		<tag k="name" v="Selia" />
		<tag k="ssr:date" v="2019-05-30" />
		<tag k="ssr:gruppe" v="veg" />
		<tag k="ssr:hovedgruppe" v="infrastruktur" />
		<tag k="ssr:stedsnr" v="985602" />
		<tag k="ssr:type" v="adressenavn" />
	</node>
	<node lat="62.643870721164255" lon="10.01041397675784" id="-84147">
		<tag k="name" v="Synnersætermorka" />
		<tag k="ssr:date" v="2019-05-30" />
		<tag k="ssr:gruppe" v="veg" />
		<tag k="ssr:hovedgruppe" v="infrastruktur" />
		<tag k="ssr:stedsnr" v="985603" />
		<tag k="ssr:type" v="adressenavn" />
	</node>
	<node lat="62.62788881738176" lon="10.002239035390428" id="-84149">
		<tag k="name" v="Ormmyrholtet" />
		<tag k="ssr:date" v="2019-05-30" />
		<tag k="ssr:gruppe" v="veg" />
		<tag k="ssr:hovedgruppe" v="infrastruktur" />
		<tag k="ssr:stedsnr" v="985605" />
		<tag k="ssr:type" v="adressenavn" />
	</node>
	<node lat="62.62333357582169" lon="10.00663339454365" id="-84150">
		<tag k="name" v="Kubrumyra" />
		<tag k="ssr:date" v="2019-05-30" />
		<tag k="ssr:gruppe" v="veg" />
		<tag k="ssr:hovedgruppe" v="infrastruktur" />
		<tag k="ssr:stedsnr" v="985606" />
		<tag k="ssr:type" v="adressenavn" />
	</node>
	<node lat="62.90298877967026" lon="9.621050572411614" id="-84154">
		<tag k="name" v="Vaulan" />
		<tag k="ssr:date" v="2019-05-30" />
		<tag k="ssr:gruppe" v="veg" />
		<tag k="ssr:hovedgruppe" v="infrastruktur" />
		<tag k="ssr:stedsnr" v="985611" />
		<tag k="ssr:type" v="adressenavn" />
	</node>
	<node lat="62.68066553431321" lon="10.048873534826374" id="-84753">
		<tag k="name" v="Innerdalsveien" />
		<tag k="ssr:date" v="2019-12-12" />
		<tag k="ssr:gruppe" v="veg" />
		<tag k="ssr:hovedgruppe" v="infrastruktur" />
		<tag k="ssr:stedsnr" v="400999" />
		<tag k="ssr:type" v="adressenavn" />
	</node>
	<node lat="62.92267591374491" lon="9.757379033408602" id="-85408">
		<tag k="name" v="Gamle Nerskogsveien" />
		<tag k="ssr:date" v="2019-05-30" />
		<tag k="ssr:gruppe" v="veg" />
		<tag k="ssr:hovedgruppe" v="infrastruktur" />
		<tag k="ssr:stedsnr" v="984453" />
		<tag k="ssr:type" v="adressenavn" />
	</node>
	<node lat="62.733780801629116" lon="9.976649343929884" id="-85409">
		<tag k="name" v="Rennebuskogen" />
		<tag k="ssr:date" v="2019-05-30" />
		<tag k="ssr:gruppe" v="veg" />
		<tag k="ssr:hovedgruppe" v="infrastruktur" />
		<tag k="ssr:stedsnr" v="984454" />
		<tag k="ssr:type" v="adressenavn" />
	</node>
	<node lat="62.70456600793354" lon="9.952173143132097" id="-85410">
		<tag k="name" v="Seierdalsveien" />
		<tag k="ssr:date" v="2019-05-30" />
		<tag k="ssr:gruppe" v="veg" />
		<tag k="ssr:hovedgruppe" v="infrastruktur" />
		<tag k="ssr:stedsnr" v="984455" />
		<tag k="ssr:type" v="adressenavn" />
	</node>
	<node lat="62.815579025726564" lon="10.034790420882642" id="-85412">
		<tag k="name" v="Skaumsjøveien" />
		<tag k="ssr:date" v="2019-05-30" />
		<tag k="ssr:gruppe" v="veg" />
		<tag k="ssr:hovedgruppe" v="infrastruktur" />
		<tag k="ssr:stedsnr" v="984457" />
		<tag k="ssr:type" v="adressenavn" />
	</node>
	<node lat="62.8669506676987" lon="9.819412572065055" id="-85413">
		<tag k="name" v="Furusjøveien" />
		<tag k="ssr:date" v="2019-05-30" />
		<tag k="ssr:gruppe" v="veg" />
		<tag k="ssr:hovedgruppe" v="infrastruktur" />
		<tag k="ssr:stedsnr" v="984458" />
		<tag k="ssr:type" v="adressenavn" />
	</node>
	<node lat="62.77872815209833" lon="9.59827317520832" id="-85414">
		<tag k="name" v="Nerskogen hyttegrend" />
		<tag k="ssr:date" v="2019-05-30" />
		<tag k="ssr:gruppe" v="veg" />
		<tag k="ssr:hovedgruppe" v="infrastruktur" />
		<tag k="ssr:stedsnr" v="984459" />
		<tag k="ssr:type" v="adressenavn" />
	</node>
	<node lat="62.78165387996312" lon="9.604459453816212" id="-85415">
		<tag k="name" v="Sørøyåsveien" />
		<tag k="ssr:date" v="2019-05-30" />
		<tag k="ssr:gruppe" v="veg" />
		<tag k="ssr:hovedgruppe" v="infrastruktur" />
		<tag k="ssr:stedsnr" v="984460" />
		<tag k="ssr:type" v="adressenavn" />
	</node>
	<node lat="62.779711805105805" lon="9.599976248095407" id="-85417">
		<tag k="name" v="Oppstugguvollen" />
		<tag k="ssr:date" v="2019-05-30" />
		<tag k="ssr:gruppe" v="veg" />
		<tag k="ssr:hovedgruppe" v="infrastruktur" />
		<tag k="ssr:stedsnr" v="984462" />
		<tag k="ssr:type" v="adressenavn" />
	</node>
	<node lat="62.773558546681635" lon="9.590373370542604" id="-85419">
		<tag k="name" v="Stensetveien" />
		<tag k="ssr:date" v="2019-05-30" />
		<tag k="ssr:gruppe" v="veg" />
		<tag k="ssr:hovedgruppe" v="infrastruktur" />
		<tag k="ssr:stedsnr" v="984464" />
		<tag k="ssr:type" v="adressenavn" />
	</node>
	<node lat="62.781474686558" lon="9.584840821441167" id="-85420">
		<tag k="name" v="Langglenneveien" />
		<tag k="ssr:date" v="2019-05-30" />
		<tag k="ssr:gruppe" v="veg" />
		<tag k="ssr:hovedgruppe" v="infrastruktur" />
		<tag k="ssr:stedsnr" v="984465" />
		<tag k="ssr:type" v="adressenavn" />
	</node>
	<node lat="62.82811359083562" lon="9.698941151087016" id="-85425">
		<tag k="name" v="Myrslættet" />
		<tag k="ssr:date" v="2019-05-30" />
		<tag k="ssr:gruppe" v="veg" />
		<tag k="ssr:hovedgruppe" v="infrastruktur" />
		<tag k="ssr:stedsnr" v="985016" />
		<tag k="ssr:type" v="adressenavn" />
	</node>
	<node lat="62.8391742136434" lon="9.711344860431797" id="-85426">
		<tag k="name" v="Nedre Granslættet" />
		<tag k="ssr:date" v="2019-05-30" />
		<tag k="ssr:gruppe" v="veg" />
		<tag k="ssr:hovedgruppe" v="infrastruktur" />
		<tag k="ssr:stedsnr" v="985017" />
		<tag k="ssr:type" v="adressenavn" />
	</node>
	<node lat="62.84306506094265" lon="9.710005922860276" id="-85427">
		<tag k="name" v="Øvre Granslættet" />
		<tag k="ssr:date" v="2019-05-30" />
		<tag k="ssr:gruppe" v="veg" />
		<tag k="ssr:hovedgruppe" v="infrastruktur" />
		<tag k="ssr:stedsnr" v="985018" />
		<tag k="ssr:type" v="adressenavn" />
	</node>
	<node lat="62.89070622914598" lon="9.720346214157898" id="-85428">
		<tag k="name" v="Hestvassveien" />
		<tag k="ssr:date" v="2019-05-30" />
		<tag k="ssr:gruppe" v="veg" />
		<tag k="ssr:hovedgruppe" v="infrastruktur" />
		<tag k="ssr:stedsnr" v="985019" />
		<tag k="ssr:type" v="adressenavn" />
	</node>
	<node lat="62.90290195016188" lon="9.620801386888374" id="-85432">
		<tag k="name" v="Slaggbekken" />
		<tag k="ssr:date" v="2019-05-30" />
		<tag k="ssr:gruppe" v="veg" />
		<tag k="ssr:hovedgruppe" v="infrastruktur" />
		<tag k="ssr:stedsnr" v="985626" />
		<tag k="ssr:type" v="adressenavn" />
	</node>
	<node lat="62.72748113882927" lon="9.878132163290271" id="-85434">
		<tag k="name" v="Oppigardsveien" />
		<tag k="ssr:date" v="2019-05-30" />
		<tag k="ssr:gruppe" v="veg" />
		<tag k="ssr:hovedgruppe" v="infrastruktur" />
		<tag k="ssr:stedsnr" v="985628" />
		<tag k="ssr:type" v="adressenavn" />
	</node>
	<node lat="62.676203573786424" lon="10.146304916957062" id="-85438">
		<tag k="name" v="Østerdalsveien" />
		<tag k="ssr:date" v="2019-05-30" />
		<tag k="ssr:gruppe" v="veg" />
		<tag k="ssr:hovedgruppe" v="infrastruktur" />
		<tag k="ssr:stedsnr" v="985633" />
		<tag k="ssr:type" v="adressenavn" />
	</node>
	<node lat="62.84888081235998" lon="9.83159586238576" id="-85439">
		<tag k="name" v="Gunnesveien" />
		<tag k="ssr:date" v="2019-05-30" />
		<tag k="ssr:gruppe" v="veg" />
		<tag k="ssr:hovedgruppe" v="infrastruktur" />
		<tag k="ssr:stedsnr" v="985634" />
		<tag k="ssr:type" v="adressenavn" />
	</node>
	<node lat="62.701732699991545" lon="10.131302806596093" id="-85441">
		<tag k="name" v="Søndre Holtveien" />
		<tag k="ssr:date" v="2019-05-30" />
		<tag k="ssr:gruppe" v="veg" />
		<tag k="ssr:hovedgruppe" v="infrastruktur" />
		<tag k="ssr:stedsnr" v="990314" />
		<tag k="ssr:type" v="adressenavn" />
	</node>
	<node lat="62.87773866918711" lon="9.8398604883542" id="-85497">
		<tag k="name" v="Hårstadkroveien" />
		<tag k="ssr:date" v="2019-11-12" />
		<tag k="ssr:gruppe" v="veg" />
		<tag k="ssr:hovedgruppe" v="infrastruktur" />
		<tag k="ssr:stedsnr" v="1073196" />
		<tag k="ssr:type" v="adressenavn" />
	</node>
	<node lat="62.84987225226055" lon="9.855584527150734" id="-85498">
		<tag k="name" v="Brekkveien" />
		<tag k="ssr:date" v="2019-11-12" />
		<tag k="ssr:gruppe" v="veg" />
		<tag k="ssr:hovedgruppe" v="infrastruktur" />
		<tag k="ssr:stedsnr" v="1073197" />
		<tag k="ssr:type" v="adressenavn" />
	</node>
	<node lat="62.8354051465217" lon="9.935680184095457" id="-85501">
		<tag k="name" v="Flågrenda" />
		<tag k="ssr:date" v="2019-11-12" />
		<tag k="ssr:gruppe" v="veg" />
		<tag k="ssr:hovedgruppe" v="infrastruktur" />
		<tag k="ssr:stedsnr" v="1073200" />
		<tag k="ssr:type" v="adressenavn" />
	</node>
	<node lat="62.865170189433805" lon="10.09977162001336" id="-85502">
		<tag k="name" v="Lerdalsveien" />
		<tag k="ssr:date" v="2019-11-12" />
		<tag k="ssr:gruppe" v="veg" />
		<tag k="ssr:hovedgruppe" v="infrastruktur" />
		<tag k="ssr:stedsnr" v="1073201" />
		<tag k="ssr:type" v="adressenavn" />
	</node>
	<node lat="62.81837313008352" lon="10.049576225775846" id="-85503">
		<tag k="name" v="Gruvveien" />
		<tag k="ssr:date" v="2019-11-12" />
		<tag k="ssr:gruppe" v="veg" />
		<tag k="ssr:hovedgruppe" v="infrastruktur" />
		<tag k="ssr:stedsnr" v="1073203" />
		<tag k="ssr:type" v="adressenavn" />
	</node>
	<node lat="62.69459110520609" lon="10.194009004513777" id="-85504">
		<tag k="name" v="Storhøveien" />
		<tag k="ssr:date" v="2019-11-12" />
		<tag k="ssr:gruppe" v="veg" />
		<tag k="ssr:hovedgruppe" v="infrastruktur" />
		<tag k="ssr:stedsnr" v="1073204" />
		<tag k="ssr:type" v="adressenavn" />
	</node>
	<node lat="62.725268144728375" lon="9.852193557814624" id="-85506">
		<tag k="name" v="Svartbekkdalsveien" />
		<tag k="ssr:date" v="2019-11-12" />
		<tag k="ssr:gruppe" v="veg" />
		<tag k="ssr:hovedgruppe" v="infrastruktur" />
		<tag k="ssr:stedsnr" v="1073206" />
		<tag k="ssr:type" v="adressenavn" />
	</node>
	<node lat="62.744795758999246" lon="9.998733265718517" id="-85508">
		<tag k="name" v="Tørset hyttegrend" />
		<tag k="ssr:date" v="2019-11-12" />
		<tag k="ssr:gruppe" v="veg" />
		<tag k="ssr:hovedgruppe" v="infrastruktur" />
		<tag k="ssr:stedsnr" v="1073208" />
		<tag k="ssr:type" v="adressenavn" />
	</node>
	<node lat="62.74414662017274" lon="9.98514727093523" id="-85512">
		<tag k="name" v="Liaveien" />
		<tag k="ssr:date" v="2019-11-12" />
		<tag k="ssr:gruppe" v="veg" />
		<tag k="ssr:hovedgruppe" v="infrastruktur" />
		<tag k="ssr:stedsnr" v="1073215" />
		<tag k="ssr:type" v="adressenavn" />
	</node>
	<node lat="62.734694134724265" lon="9.99665059749157" id="-85513">
		<tag k="name" v="Jamthaugveien" />
		<tag k="ssr:date" v="2019-11-12" />
		<tag k="ssr:gruppe" v="veg" />
		<tag k="ssr:hovedgruppe" v="infrastruktur" />
		<tag k="ssr:stedsnr" v="1073217" />
		<tag k="ssr:type" v="adressenavn" />
	</node>
	<node lat="62.74324425838099" lon="10.003573936947577" id="-85514">
		<tag k="name" v="Eggasæterveien" />
		<tag k="ssr:date" v="2019-11-12" />
		<tag k="ssr:gruppe" v="veg" />
		<tag k="ssr:hovedgruppe" v="infrastruktur" />
		<tag k="ssr:stedsnr" v="1073216" />
		<tag k="ssr:type" v="adressenavn" />
	</node>
	<node lat="62.724945645751646" lon="10.014219791911463" id="-85516">
		<tag k="name" v="Småholtveien" />
		<tag k="ssr:date" v="2019-11-12" />
		<tag k="ssr:gruppe" v="veg" />
		<tag k="ssr:hovedgruppe" v="infrastruktur" />
		<tag k="ssr:stedsnr" v="1073219" />
		<tag k="ssr:type" v="adressenavn" />
	</node>
	<node lat="62.70391902433312" lon="9.976771793468005" id="-85517">
		<tag k="name" v="Krokbekkveien" />
		<tag k="ssr:date" v="2019-11-12" />
		<tag k="ssr:gruppe" v="veg" />
		<tag k="ssr:hovedgruppe" v="infrastruktur" />
		<tag k="ssr:stedsnr" v="1073221" />
		<tag k="ssr:type" v="adressenavn" />
	</node>
	<node lat="62.88632136887134" lon="9.83048863239976" id="-85534">
		<tag k="name" v="Herremsgrenda" />
		<tag k="ssr:date" v="2020-01-03" />
		<tag k="ssr:gruppe" v="veg" />
		<tag k="ssr:hovedgruppe" v="infrastruktur" />
		<tag k="ssr:stedsnr" v="1074469" />
		<tag k="ssr:type" v="adressenavn" />
	</node>
	<node lat="62.80729081472184" lon="10.079957723703533" id="-85539">
		<tag k="name" v="Haugasæterveien" />
		<tag k="ssr:date" v="2020-01-15" />
		<tag k="ssr:gruppe" v="veg" />
		<tag k="ssr:hovedgruppe" v="infrastruktur" />
		<tag k="ssr:stedsnr" v="1074553" />
		<tag k="ssr:type" v="adressenavn" />
	</node>
	<node lat="62.87058794538363" lon="10.044835327996225" id="-85545">
		<tag k="name" v="Buan" />
		<tag k="ssr:date" v="2020-01-15" />
		<tag k="ssr:gruppe" v="veg" />
		<tag k="ssr:hovedgruppe" v="infrastruktur" />
		<tag k="ssr:stedsnr" v="1074560" />
		<tag k="ssr:type" v="adressenavn" />
	</node>
	<node lat="62.92831250184326" lon="9.727726780587892" id="-85546">
		<tag k="name" v="Seåsveien" />
		<tag k="ssr:date" v="2020-01-15" />
		<tag k="ssr:gruppe" v="veg" />
		<tag k="ssr:hovedgruppe" v="infrastruktur" />
		<tag k="ssr:stedsnr" v="1074561" />
		<tag k="ssr:type" v="adressenavn" />
	</node>
	<node lat="62.86201920412767" lon="10.021066939260677" id="-85547">
		<tag k="name" v="Liarabben" />
		<tag k="ssr:date" v="2020-01-15" />
		<tag k="ssr:gruppe" v="veg" />
		<tag k="ssr:hovedgruppe" v="infrastruktur" />
		<tag k="ssr:stedsnr" v="1074563" />
		<tag k="ssr:type" v="adressenavn" />
	</node>
	<node lat="62.802320522576316" lon="10.03174635561181" id="-85549">
		<tag k="name" v="Tosetveien" />
		<tag k="ssr:date" v="2020-01-15" />
		<tag k="ssr:gruppe" v="veg" />
		<tag k="ssr:hovedgruppe" v="infrastruktur" />
		<tag k="ssr:stedsnr" v="1074564" />
		<tag k="ssr:type" v="adressenavn" />
	</node>
	<node lat="62.907701749774084" lon="9.781850780543577" id="-85550">
		<tag k="name" v="Åsgrenda" />
		<tag k="ssr:date" v="2020-01-15" />
		<tag k="ssr:gruppe" v="veg" />
		<tag k="ssr:hovedgruppe" v="infrastruktur" />
		<tag k="ssr:stedsnr" v="1074565" />
		<tag k="ssr:type" v="adressenavn" />
	</node>
	<node lat="62.832096617051555" lon="9.974837595148783" id="-85551">
		<tag k="name" v="Berkåksmoen" />
		<tag k="ssr:date" v="2020-01-15" />
		<tag k="ssr:gruppe" v="veg" />
		<tag k="ssr:hovedgruppe" v="infrastruktur" />
		<tag k="ssr:stedsnr" v="1074566" />
		<tag k="ssr:type" v="adressenavn" />
	</node>
	<node lat="62.69875196905723" lon="10.13724629035954" id="-85555">
		<tag k="name" v="Kvannliveien" />
		<tag k="ssr:date" v="2020-06-23" />
		<tag k="ssr:gruppe" v="veg" />
		<tag k="ssr:hovedgruppe" v="infrastruktur" />
		<tag k="ssr:stedsnr" v="1077433" />
		<tag k="ssr:type" v="adressenavn" />
	</node>
	<node lat="62.79452365652783" lon="9.983614256655558" id="-85556">
		<tag k="name" v="Brattsetveien" />
		<tag k="ssr:date" v="2020-06-23" />
		<tag k="ssr:gruppe" v="veg" />
		<tag k="ssr:hovedgruppe" v="infrastruktur" />
		<tag k="ssr:stedsnr" v="1077434" />
		<tag k="ssr:type" v="adressenavn" />
	</node>
	<node lat="62.81982441776909" lon="9.655818022307805" id="-85558">
		<tag k="name" v="Vestre Hårdraget" />
		<tag k="ssr:date" v="2020-06-23" />
		<tag k="ssr:gruppe" v="veg" />
		<tag k="ssr:hovedgruppe" v="infrastruktur" />
		<tag k="ssr:stedsnr" v="1077436" />
		<tag k="ssr:type" v="adressenavn" />
	</node>
	<node lat="62.81999047130302" lon="9.659923206698334" id="-85559">
		<tag k="name" v="Østre Hårdraget" />
		<tag k="ssr:date" v="2020-06-23" />
		<tag k="ssr:gruppe" v="veg" />
		<tag k="ssr:hovedgruppe" v="infrastruktur" />
		<tag k="ssr:stedsnr" v="1077437" />
		<tag k="ssr:type" v="adressenavn" />
	</node>
	<node lat="62.78548377404761" lon="9.58645690891071" id="-85560">
		<tag k="name" v="Langglenna" />
		<tag k="ssr:date" v="2020-06-23" />
		<tag k="ssr:gruppe" v="veg" />
		<tag k="ssr:hovedgruppe" v="infrastruktur" />
		<tag k="ssr:stedsnr" v="1077439" />
		<tag k="ssr:type" v="adressenavn" />
	</node>
	<node lat="62.67956044698764" lon="10.027802394035653" id="-85562">
		<tag k="name" v="Grindskårveien" />
		<tag k="ssr:date" v="2020-06-23" />
		<tag k="ssr:gruppe" v="veg" />
		<tag k="ssr:hovedgruppe" v="infrastruktur" />
		<tag k="ssr:stedsnr" v="1077440" />
		<tag k="ssr:type" v="adressenavn" />
	</node>
	<node lat="62.791040699926796" lon="9.596917752613232" id="-85563">
		<tag k="name" v="Herremskjølen" />
		<tag k="ssr:date" v="2020-06-23" />
		<tag k="ssr:gruppe" v="veg" />
		<tag k="ssr:hovedgruppe" v="infrastruktur" />
		<tag k="ssr:stedsnr" v="1077441" />
		<tag k="ssr:type" v="adressenavn" />
	</node>
	<node lat="62.71068876028998" lon="9.930604826972454" id="-85566">
		<tag k="name" v="Danielåsen" />
		<tag k="ssr:date" v="2020-11-09" />
		<tag k="ssr:gruppe" v="veg" />
		<tag k="ssr:hovedgruppe" v="infrastruktur" />
		<tag k="ssr:stedsnr" v="1078855" />
		<tag k="ssr:type" v="adressenavn" />
	</node>
</osm>
