<?xml version="1.0" encoding="UTF-8"?>
<osm generator="osmapis" version="0.6">
	<node id="-778630" lat="70.2881917362" lon="31.0552394434">
		<tag k="name" v="Kibergsneset" />
		<tag k="ssr:date" v="2016-05-10" />
		<tag k="ssr:gruppe" v="navigasjon" />
		<tag k="ssr:hovedgruppe" v="infrastruktur" />
		<tag k="ssr:stedsnr" v="663035" />
		<tag k="ssr:type" v="fyrstasjon" />
	</node>
	<node id="-778781" lat="70.3704278365" lon="31.1075394647">
		<tag k="name" v="Vardø kommune" />
		<tag k="ssr:date" v="2016-05-11" />
		<tag k="ssr:gruppe" v="administrativeIndelinger" />
		<tag k="ssr:hovedgruppe" v="offentligAdministrasjon" />
		<tag k="ssr:stedsnr" v="937436" />
		<tag k="ssr:type" v="kommune" />
	</node>
	<node id="-778779" lat="70.4044528365" lon="31.0708617205">
		<tag k="name" v="Skagodden" />
		<tag k="ssr:date" v="2016-05-11" />
		<tag k="ssr:gruppe" v="navigasjon" />
		<tag k="ssr:hovedgruppe" v="infrastruktur" />
		<tag k="ssr:stedsnr" v="936351" />
		<tag k="ssr:type" v="fyrlykt" />
	</node>
	<node id="-778809" lat="68.4849327361" lon="16.2297866207">
		<tag k="fixme" v="multiple name tags, choose one and add the other to alt_name" />
		<tag k="name" v="Nord-Noreg;Nord-Norge" />
		<tag k="ssr:date" v="2017-05-18" />
		<tag k="ssr:gruppe" v="administrativeIndelinger" />
		<tag k="ssr:hovedgruppe" v="offentligAdministrasjon" />
		<tag k="ssr:stedsnr" v="976106" />
		<tag k="ssr:type" v="annenAdministrativInndeling" />
	</node>
	<node id="-778647" lat="70.0844833947" lon="30.2624037829">
		<tag k="name" v="Lille Ekkerøy" />
		<tag k="ssr:date" v="2016-05-11" />
		<tag k="ssr:gruppe" v="navigasjon" />
		<tag k="ssr:hovedgruppe" v="infrastruktur" />
		<tag k="ssr:stedsnr" v="708246" />
		<tag k="ssr:type" v="fyrlykt" />
	</node>
	<node id="-778643" lat="70.2482750649" lon="30.8979228759">
		<tag k="name" v="Storskjær" />
		<tag k="ssr:date" v="2016-05-11" />
		<tag k="ssr:gruppe" v="navigasjon" />
		<tag k="ssr:hovedgruppe" v="infrastruktur" />
		<tag k="ssr:stedsnr" v="694368" />
		<tag k="ssr:type" v="fyrlykt" />
	</node>
	<node id="-778611" lat="70.3869556175" lon="31.1311588976">
		<tag k="name" v="Reinøysundet" />
		<tag k="ssr:date" v="2016-05-10" />
		<tag k="ssr:gruppe" v="navigasjon" />
		<tag k="ssr:hovedgruppe" v="infrastruktur" />
		<tag k="ssr:stedsnr" v="632397" />
		<tag k="ssr:type" v="fyrlykt" />
	</node>
	<node id="-778800" lat="70.2956556217" lon="31.0236255999">
		<tag k="name" v="Tyskvegen" />
		<tag k="ssr:date" v="2016-05-11" />
		<tag k="ssr:gruppe" v="veg" />
		<tag k="ssr:hovedgruppe" v="infrastruktur" />
		<tag k="ssr:stedsnr" v="956985" />
		<tag k="ssr:type" v="vegstrekning" />
	</node>
	<node id="-778377" lat="70.3815361757" lon="31.1188422444">
		<tag k="name" v="Hasselneset" />
		<tag k="ssr:date" v="2016-05-10" />
		<tag k="ssr:gruppe" v="navigasjon" />
		<tag k="ssr:hovedgruppe" v="infrastruktur" />
		<tag k="ssr:stedsnr" v="87366" />
		<tag k="ssr:type" v="fyrlykt" />
	</node>
	<node id="-778280" lat="70.3755526894" lon="31.0969869767">
		<tag k="name" v="Mellomveien" />
		<tag k="ssr:date" v="2019-05-31" />
		<tag k="ssr:gruppe" v="veg" />
		<tag k="ssr:hovedgruppe" v="infrastruktur" />
		<tag k="ssr:stedsnr" v="1056737" />
		<tag k="ssr:type" v="adressenavn" />
	</node>
	<node id="-778278" lat="70.3889250628" lon="31.157256112">
		<tag k="name" v="Vardø" />
		<tag k="old_name" v="Vardø fyr" />
		<tag k="ssr:date" v="2016-05-10" />
		<tag k="ssr:gruppe" v="navigasjon" />
		<tag k="ssr:hovedgruppe" v="infrastruktur" />
		<tag k="ssr:stedsnr" v="390357" />
		<tag k="ssr:type" v="fyrstasjon" />
	</node>
	<node id="-778758" lat="70.4038222837" lon="31.1201561462">
		<tag k="name" v="Reinøyskjær" />
		<tag k="ssr:date" v="2016-05-11" />
		<tag k="ssr:gruppe" v="navigasjon" />
		<tag k="ssr:hovedgruppe" v="infrastruktur" />
		<tag k="ssr:stedsnr" v="876369" />
		<tag k="ssr:type" v="fyrlykt" />
	</node>
	<node id="-778629" lat="70.2857889473" lon="30.9895950603">
		<tag k="name" v="Ytre Kiberg" />
		<tag k="ssr:date" v="2016-05-10" />
		<tag k="ssr:gruppe" v="navigasjon" />
		<tag k="ssr:hovedgruppe" v="infrastruktur" />
		<tag k="ssr:stedsnr" v="661041" />
		<tag k="ssr:type" v="fyrlykt" />
	</node>
	<node id="-778212" lat="70.3616445051" lon="31.0526561625">
		<tag k="name" v="Svartnes" />
		<tag k="ssr:date" v="2016-05-10" />
		<tag k="ssr:gruppe" v="navigasjon" />
		<tag k="ssr:hovedgruppe" v="infrastruktur" />
		<tag k="ssr:stedsnr" v="269379" />
		<tag k="ssr:type" v="fyrlykt" />
	</node>
	<node id="-778211" lat="70.3635972884" lon="31.1157949986">
		<tag k="name" v="Guldringnes" />
		<tag k="ssr:date" v="2016-05-10" />
		<tag k="ssr:gruppe" v="navigasjon" />
		<tag k="ssr:hovedgruppe" v="infrastruktur" />
		<tag k="ssr:stedsnr" v="269376" />
		<tag k="ssr:type" v="fyrlykt" />
	</node>
</osm>
