<?xml version="1.0" encoding="UTF-8"?>
<osm generator="osmapis" version="0.6">
	<node id="-23550" lat="59.6682611117" lon="10.6354805557">
		<tag k="leisure" v="pitch" />
		<tag k="name" v="Seiersten stadion" />
		<tag k="ssr:stedsnr" v="100823" />
	</node>
	<node id="-23549" lat="59.6298277754" lon="10.6633333264">
		<tag k="name" v="Nedre Kroksrudsand" />
		<tag k="place" v="farm" />
		<tag k="ssr:stedsnr" v="100499" />
	</node>
	<node id="-23548" lat="59.7374916656" lon="10.6409805596">
		<tag k="name" v="Mellom-Gulbjørnrud" />
		<tag k="place" v="farm" />
		<tag k="ssr:stedsnr" v="100464" />
	</node>
	<node id="-23546" lat="59.6744222212" lon="10.6222694418">
		<tag k="name" v="Husvik" />
		<tag k="place" v="isolated_dwelling" />
		<tag k="ssr:stedsnr" v="100442" />
	</node>
	<node id="-23545" lat="59.7198000014" lon="10.6205722299">
		<tag k="name" v="Østskogen" />
		<tag k="place" v="hamlet" />
		<tag k="ssr:stedsnr" v="100439" />
	</node>
	<node id="-23380" lat="59.6770055527" lon="10.6256083258">
		<tag k="name" v="Rolighet" />
		<tag k="place" v="isolated_dwelling" />
		<tag k="ssr:stedsnr" v="282445" />
	</node>
	<node id="-23542" lat="59.7122861084" lon="10.6635138935">
		<tag k="name" v="Skyssrudfeltet" />
		<tag k="place" v="quarter" />
		<tag k="ssr:stedsnr" v="100367" />
	</node>
	<node id="-23540" lat="59.7492277818" lon="10.6491361201">
		<tag k="name" v="Østre Kopperud" />
		<tag k="place" v="farm" />
		<tag k="ssr:stedsnr" v="99459" />
	</node>
	<node id="-23538" lat="59.6920527798" lon="10.6106499969">
		<tag k="name" v="Langebåtfeltet" />
		<tag k="place" v="hamlet" />
		<tag k="ssr:stedsnr" v="95782" />
	</node>
	<node id="-23534" lat="59.6385166706" lon="10.6438249916">
		<tag k="name" v="Skiphelle" />
		<tag k="ssr:stedsnr" v="86021" />
		<tag k="tourism" v="hotel" />
	</node>
	<node id="-23533" lat="59.6303700111" lon="10.6632202785">
		<tag k="fixme" v="consider place=hamlet" />
		<tag k="name" v="Kroksrudsand" />
		<tag k="place" v="farm" />
		<tag k="ssr:stedsnr" v="86022" />
	</node>
	<node id="-23532" lat="59.6998888895" lon="10.6400805634">
		<tag k="name" v="Kleiva" />
		<tag k="place" v="hamlet" />
		<tag k="ssr:stedsnr" v="85905" />
	</node>
	<node id="-23529" lat="59.6674880886" lon="10.6444191725">
		<tag k="fixme" v="consider place=hamlet" />
		<tag k="name" v="Ullerud" />
		<tag k="place" v="farm" />
		<tag k="ssr:stedsnr" v="64880" />
	</node>
	<node id="-23528" lat="59.6772084426" lon="10.6965341209">
		<tag k="fixme" v="consider place=hamlet" />
		<tag k="name" v="Berg" />
		<tag k="place" v="farm" />
		<tag k="ssr:stedsnr" v="64875" />
	</node>
	<node id="-23527" lat="59.6753386777" lon="10.6881590378">
		<tag k="fixme" v="consider place=hamlet" />
		<tag k="name" v="Ermesø" />
		<tag k="place" v="farm" />
		<tag k="ssr:stedsnr" v="64873" />
	</node>
	<node id="-23526" lat="59.7095166677" lon="10.7052750071">
		<tag k="name" v="Stubberud" />
		<tag k="place" v="isolated_dwelling" />
		<tag k="ssr:stedsnr" v="64819" />
	</node>
	<node id="-23525" lat="59.6971750004" lon="10.6329472166">
		<tag k="name" v="Holmen" />
		<tag k="place" v="hamlet" />
		<tag k="ssr:stedsnr" v="64767" />
	</node>
	<node id="-23524" lat="59.7003972224" lon="10.6589083245">
		<tag k="name" v="Monsrud" />
		<tag k="place" v="farm" />
		<tag k="ssr:stedsnr" v="64759" />
	</node>
	<node id="-23523" lat="59.6805027789" lon="10.7079944364">
		<tag k="name" v="Klunderud" />
		<tag k="place" v="farm" />
		<tag k="ssr:stedsnr" v="63840" />
	</node>
	<node id="-23522" lat="59.686816668" lon="10.6822527861">
		<tag k="name" v="Glosli" />
		<tag k="place" v="farm" />
		<tag k="ssr:stedsnr" v="63769" />
	</node>
	<node id="-23520" lat="59.6750833309" lon="10.6881666693">
		<tag k="name" v="Nordre Ermesø" />
		<tag k="place" v="farm" />
		<tag k="ssr:stedsnr" v="58594" />
	</node>
	<node id="-23517" lat="59.692738888" lon="10.7028777708">
		<tag k="name" v="Østre Huseby" />
		<tag k="place" v="farm" />
		<tag k="ssr:stedsnr" v="58143" />
	</node>
	<node id="-23516" lat="59.6643444488" lon="10.6347416748">
		<tag k="name" v="Holmåsen" />
		<tag k="place" v="quarter" />
		<tag k="ssr:stedsnr" v="58042" />
	</node>
	<node id="-23375" lat="59.631011108" lon="10.646527776">
		<tag k="name" v="Søndre Eikeberg hyttefelt" />
		<tag k="place" v="neighbourhood" />
		<tag k="ssr:stedsnr" v="282421" />
	</node>
	<node id="-23512" lat="59.7012222253" lon="10.6026305507">
		<tag k="name" v="Marikova" />
		<tag k="place" v="hamlet" />
		<tag k="ssr:stedsnr" v="39481" />
	</node>
	<node id="-23511" lat="59.6551388904" lon="10.6724861102">
		<tag k="name" v="Kolstadbråten" />
		<tag k="place" v="locality" />
		<tag k="ssr:stedsnr" v="39477" />
	</node>
	<node id="-23510" lat="59.6558222199" lon="10.6581444496">
		<tag k="name" v="Nordre Øyerud hyttefelt" />
		<tag k="place" v="neighbourhood" />
		<tag k="ssr:stedsnr" v="39475" />
	</node>
	<node id="-23374" lat="59.7364333311" lon="10.7154166741">
		<tag k="name" v="Øvre Knardal" />
		<tag k="place" v="farm" />
		<tag k="ssr:stedsnr" v="282418" />
	</node>
	<node id="-23506" lat="59.7475861101" lon="10.7156527849">
		<tag k="name" v="Nordli" />
		<tag k="place" v="isolated_dwelling" />
		<tag k="ssr:stedsnr" v="39398" />
	</node>
	<node id="-23502" lat="59.6846416686" lon="10.7321138822">
		<tag k="name" v="Sørbråten" />
		<tag k="place" v="farm" />
		<tag k="ssr:stedsnr" v="39311" />
	</node>
	<node id="-23499" lat="59.7427833347" lon="10.7203166589">
		<tag k="name" v="Ånebakke" />
		<tag k="place" v="isolated_dwelling" />
		<tag k="ssr:stedsnr" v="25246" />
	</node>
	<node id="-23494" lat="59.7504055557" lon="10.6786138961">
		<tag k="name" v="Måsan" />
		<tag k="old_name" v="Mosen" />
		<tag k="place" v="isolated_dwelling" />
		<tag k="ssr:stedsnr" v="5591" />
	</node>
	<node id="-23493" lat="59.7592812787" lon="10.6865549997">
		<tag k="alt_name" v="Garder, vestre" />
		<tag k="name" v="Vestre Garder" />
		<tag k="place" v="farm" />
		<tag k="ssr:stedsnr" v="4600" />
	</node>
	<node id="-23492" lat="59.7426722198" lon="10.7149027695">
		<tag k="name" v="Fuglesang" />
		<tag k="place" v="farm" />
		<tag k="ssr:stedsnr" v="3947" />
	</node>
	<node id="-23491" lat="59.6845753919" lon="10.6899080104">
		<tag k="fixme" v="consider place=hamlet" />
		<tag k="name" v="Roksrud" />
		<tag k="place" v="farm" />
		<tag k="ssr:stedsnr" v="3847" />
	</node>
	<node id="-23490" lat="59.7204818234" lon="10.608556767">
		<tag k="fixme" v="consider place=hamlet" />
		<tag k="name" v="Digerud" />
		<tag k="place" v="farm" />
		<tag k="ssr:stedsnr" v="3796" />
	</node>
	<node id="-23489" lat="59.678774998" lon="10.6563777855">
		<tag k="name" v="Kringerud" />
		<tag k="place" v="farm" />
		<tag k="ssr:stedsnr" v="3755" />
	</node>
	<node id="-23488" lat="59.6903916622" lon="10.5915583412">
		<tag k="name" v="Tronstad" />
		<tag k="place" v="isolated_dwelling" />
		<tag k="ssr:stedsnr" v="3742" />
	</node>
	<node id="-23486" lat="59.6409222255" lon="10.6545527823">
		<tag k="name" v="Leium" />
		<tag k="place" v="farm" />
		<tag k="ssr:stedsnr" v="3647" />
	</node>
	<node id="-23485" lat="59.6340865438" lon="10.6690320902">
		<tag k="fixme" v="consider place=hamlet" />
		<tag k="name" v="Kroksrud" />
		<tag k="place" v="farm" />
		<tag k="ssr:stedsnr" v="3633" />
	</node>
	<node id="-23478" lat="59.6872493818" lon="10.6109005893">
		<tag k="name" v="Langebåt" />
		<tag k="place" v="hamlet" />
		<tag k="ssr:stedsnr" v="985679" />
	</node>
	<node id="-23453" lat="59.7608583377" lon="10.697744436">
		<tag k="name" v="Endre" />
		<tag k="place" v="isolated_dwelling" />
		<tag k="ssr:stedsnr" v="888415" />
	</node>
	<node id="-23979" lat="59.6914111111" lon="10.6514277791">
		<tag k="name" v="Måna" />
		<tag k="place" v="isolated_dwelling" />
		<tag k="ssr:stedsnr" v="968638" />
	</node>
	<node id="-23978" lat="59.6891666694" lon="10.676241668">
		<tag k="name" v="Østre Oppegård" />
		<tag k="place" v="farm" />
		<tag k="ssr:stedsnr" v="968150" />
	</node>
	<node id="-23977" lat="59.6685777785" lon="10.6381083264">
		<tag k="amenity" v="school" />
		<tag k="name" v="Seiersten ungdomsskole" />
		<tag k="ssr:stedsnr" v="968064" />
	</node>
	<node id="-23974" lat="59.6695138861" lon="10.6269861196">
		<tag k="amenity" v="nursing_home" />
		<tag k="name" v="Grande" />
		<tag k="ssr:stedsnr" v="949830" />
	</node>
	<node id="-23973" lat="59.7196111073" lon="10.5897638902">
		<tag k="name" v="Sollia" />
		<tag k="place" v="farm" />
		<tag k="ssr:stedsnr" v="949511" />
	</node>
	<node id="-23972" lat="59.725541667" lon="10.6606166621">
		<tag k="name" v="Langen" />
		<tag k="place" v="locality" />
		<tag k="ssr:stedsnr" v="949416" />
	</node>
	<node id="-23971" lat="59.72180556" lon="10.6734305497">
		<tag k="name" v="Nordengen" />
		<tag k="place" v="isolated_dwelling" />
		<tag k="ssr:stedsnr" v="949412" />
	</node>
	<node id="-23451" lat="59.7551638892" lon="10.6684583406">
		<tag k="name" v="Søndre Kai" />
		<tag k="place" v="farm" />
		<tag k="ssr:stedsnr" v="888261" />
	</node>
	<node id="-23968" lat="59.7370305574" lon="10.6747416753">
		<tag k="name" v="Lindskau" />
		<tag k="place" v="farm" />
		<tag k="ssr:stedsnr" v="949373" />
	</node>
	<node id="-23967" lat="59.7158361145" lon="10.6519388916">
		<tag k="name" v="Hallangshagen" />
		<tag k="place" v="isolated_dwelling" />
		<tag k="ssr:stedsnr" v="949338" />
	</node>
	<node id="-23454" lat="59.7528249974" lon="10.653105562">
		<tag k="amenity" v="school" />
		<tag k="name" v="Dal skole" />
		<tag k="ssr:stedsnr" v="888641" />
	</node>
	<node id="-23965" lat="59.6658111125" lon="10.6344388835">
		<tag k="name" v="Drøbak og Frogn prestegård" />
		<tag k="place" v="isolated_dwelling" />
		<tag k="ssr:stedsnr" v="949024" />
	</node>
	<node id="-23963" lat="59.6766777812" lon="10.5884416714">
		<tag k="alt_name" v="Orrekleiva" />
		<tag k="name" v="Orrekloa" />
		<tag k="place" v="isolated_dwelling" />
		<tag k="ssr:stedsnr" v="936091" />
	</node>
	<node id="-23962" lat="59.7154499985" lon="10.7101666628">
		<tag k="name" v="Rundvoll" />
		<tag k="place" v="isolated_dwelling" />
		<tag k="ssr:stedsnr" v="935215" />
	</node>
	<node id="-23448" lat="59.705347221" lon="10.6813888925">
		<tag k="name" v="Bjerkebråtan" />
		<tag k="place" v="farm" />
		<tag k="ssr:stedsnr" v="403461" />
	</node>
	<node id="-23447" lat="59.6762000035" lon="10.6491166632">
		<tag k="name" v="Nordre Belsjø" />
		<tag k="place" v="isolated_dwelling" />
		<tag k="ssr:stedsnr" v="403444" />
	</node>
	<node id="-23446" lat="59.7563361074" lon="10.7072361143">
		<tag k="name" v="Åsen" />
		<tag k="place" v="isolated_dwelling" />
		<tag k="ssr:stedsnr" v="403433" />
	</node>
	<node id="-23956" lat="59.7699472178" lon="10.693630559">
		<tag k="name" v="Sagstua" />
		<tag k="place" v="farm" />
		<tag k="ssr:stedsnr" v="915603" />
	</node>
	<node id="-23955" lat="59.6639868202" lon="10.6844413511">
		<tag k="fixme" v="consider place=hamlet" />
		<tag k="name" v="Fjøser" />
		<tag k="place" v="farm" />
		<tag k="ssr:stedsnr" v="914875" />
	</node>
	<node id="-23954" lat="59.6739250043" lon="10.6456305515">
		<tag k="name" v="Belsjø" />
		<tag k="place" v="farm" />
		<tag k="ssr:stedsnr" v="914862" />
	</node>
	<node id="-23441" lat="59.685136115" lon="10.6893805558">
		<tag k="name" v="Nordre Roksrud" />
		<tag k="place" v="farm" />
		<tag k="ssr:stedsnr" v="403141" />
	</node>
	<node id="-23952" lat="59.6393527744" lon="10.6753138969">
		<tag k="fixme" v="multiple name tags, choose one and add the other to alt_name" />
		<tag k="name" v="Eike-Solberg;Øvre Solberg" />
		<tag k="place" v="farm" />
		<tag k="ssr:stedsnr" v="914705" />
	</node>
	<node id="-23439" lat="59.7683498962" lon="10.7090516654">
		<tag k="fixme" v="consider place=hamlet" />
		<tag k="name" v="Haslum" />
		<tag k="place" v="farm" />
		<tag k="ssr:stedsnr" v="389266" />
	</node>
	<node id="-23916" lat="59.7245111084" lon="10.6576999938">
		<tag k="name" v="Asgautrud" />
		<tag k="place" v="farm" />
		<tag k="ssr:stedsnr" v="853768" />
	</node>
	<node id="-23949" lat="59.7174333315" lon="10.6605527853">
		<tag k="name" v="Holtbråten" />
		<tag k="place" v="farm" />
		<tag k="ssr:stedsnr" v="913790" />
	</node>
	<node id="-23947" lat="59.7308416643" lon="10.6719083311">
		<tag k="name" v="Dalen" />
		<tag k="place" v="farm" />
		<tag k="ssr:stedsnr" v="913772" />
	</node>
	<node id="-23946" lat="59.7291555777" lon="10.7041630135">
		<tag k="fixme" v="consider place=hamlet" />
		<tag k="name" v="Bøler" />
		<tag k="place" v="farm" />
		<tag k="ssr:stedsnr" v="913766" />
	</node>
	<node id="-23944" lat="59.6792861111" lon="10.6704166648">
		<tag k="name" v="Flater" />
		<tag k="place" v="farm" />
		<tag k="ssr:stedsnr" v="913759" />
	</node>
	<node id="-23431" lat="59.735163885" lon="10.6924361024">
		<tag k="alt_name" v="Dal, søndre" />
		<tag k="name" v="Søndre Dal" />
		<tag k="place" v="farm" />
		<tag k="ssr:stedsnr" v="367950" />
	</node>
	<node id="-23942" lat="59.7049305575" lon="10.6003138937">
		<tag k="name" v="Marikoven" />
		<tag k="place" v="isolated_dwelling" />
		<tag k="ssr:stedsnr" v="913733" />
	</node>
	<node id="-23940" lat="59.6980055543" lon="10.6556805548">
		<tag k="name" v="Søndre Dammen" />
		<tag k="place" v="farm" />
		<tag k="ssr:stedsnr" v="908892" />
	</node>
	<node id="-23427" lat="59.6988388923" lon="10.6128750014">
		<tag k="name" v="Svartlaget" />
		<tag k="place" v="isolated_dwelling" />
		<tag k="ssr:stedsnr" v="367737" />
	</node>
	<node id="-23423" lat="59.6767305564" lon="10.6961861058">
		<tag k="name" v="Søndre Berg" />
		<tag k="place" v="farm" />
		<tag k="ssr:stedsnr" v="361591" />
	</node>
	<node id="-23934" lat="59.6775861144" lon="10.6067944364">
		<tag k="landuse" v="military" />
		<tag k="name" v="Nordre Oscarsborg" />
		<tag k="ssr:stedsnr" v="907360" />
	</node>
	<node id="-23933" lat="59.6961527777" lon="10.7070500001">
		<tag k="name" v="Vestre Bjerke" />
		<tag k="place" v="farm" />
		<tag k="ssr:stedsnr" v="907126" />
	</node>
	<node id="-23930" lat="59.7751083349" lon="10.7086027836">
		<tag k="name" v="Nordre Haslum" />
		<tag k="place" v="farm" />
		<tag k="ssr:stedsnr" v="875276" />
	</node>
	<node id="-23929" lat="59.7061972181" lon="10.6283027852">
		<tag k="alt_name" v="Strandmyrfeltet" />
		<tag k="name" v="Strandemyra" />
		<tag k="place" v="quarter" />
		<tag k="ssr:stedsnr" v="875254" />
	</node>
	<node id="-23416" lat="59.7696361119" lon="10.7031777712">
		<tag k="name" v="Brattås" />
		<tag k="place" v="isolated_dwelling" />
		<tag k="ssr:stedsnr" v="342569" />
	</node>
	<node id="-23444" lat="59.744941663" lon="10.6882000036">
		<tag k="name" v="Hagan" />
		<tag k="place" v="isolated_dwelling" />
		<tag k="ssr:stedsnr" v="403423" />
	</node>
	<node id="-23923" lat="59.7068972185" lon="10.7110277793">
		<tag k="name" v="Rommerud" />
		<tag k="place" v="locality" />
		<tag k="ssr:stedsnr" v="869980" />
	</node>
	<node id="-23410" lat="59.6380361154" lon="10.6527250009">
		<tag k="name" v="Solhøgda" />
		<tag k="place" v="hamlet" />
		<tag k="ssr:stedsnr" v="342384" />
	</node>
	<node id="-23921" lat="59.7614330822" lon="10.653763273">
		<tag k="alt_name" v="Skog, søndre;Søndre Skau" />
		<tag k="name" v="Søndre Skog" />
		<tag k="place" v="farm" />
		<tag k="ssr:stedsnr" v="855658" />
	</node>
	<node id="-23920" lat="59.6661000009" lon="10.67074167">
		<tag k="name" v="Hauer" />
		<tag k="place" v="farm" />
		<tag k="ssr:stedsnr" v="854876" />
	</node>
	<node id="-23407" lat="59.7427638849" lon="10.6632499944">
		<tag k="name" v="Nordre Lindebråte" />
		<tag k="place" v="farm" />
		<tag k="ssr:stedsnr" v="329442" />
	</node>
	<node id="-23917" lat="59.7058750011" lon="10.7015861067">
		<tag k="name" v="Skjellerud" />
		<tag k="place" v="farm" />
		<tag k="ssr:stedsnr" v="853801" />
	</node>
	<node id="-23404" lat="59.7625722244" lon="10.6620972235">
		<tag k="alt_name" v="Skog, nordre;Nordre Skau" />
		<tag k="name" v="Nordre Skog" />
		<tag k="place" v="farm" />
		<tag k="ssr:stedsnr" v="308619" />
	</node>
	<node id="-23915" lat="59.7027833843" lon="10.6606142033">
		<tag k="fixme" v="consider place=hamlet" />
		<tag k="name" v="Dammen" />
		<tag k="place" v="farm" />
		<tag k="ssr:stedsnr" v="853741" />
	</node>
	<node id="-23914" lat="59.7197777741" lon="10.7194861091">
		<tag k="name" v="Flespjeld" />
		<tag k="place" v="farm" />
		<tag k="ssr:stedsnr" v="853559" />
	</node>
	<node id="-23401" lat="59.6556305574" lon="10.6414333376">
		<tag k="name" v="Sogsti" />
		<tag k="place" v="suburb" />
		<tag k="ssr:stedsnr" v="307818" />
	</node>
	<node id="-23912" lat="59.6902361073" lon="10.6467305499">
		<tag k="name" v="Brakadalen" />
		<tag k="place" v="isolated_dwelling" />
		<tag k="ssr:stedsnr" v="852739" />
	</node>
	<node id="-23910" lat="59.6501468366" lon="10.6473072423">
		<tag k="fixme" v="consider place=hamlet" />
		<tag k="name" v="Elle" />
		<tag k="place" v="farm" />
		<tag k="ssr:stedsnr" v="847948" />
	</node>
	<node id="-23909" lat="59.7041194444" lon="10.625730561">
		<tag k="name" v="Pollen" />
		<tag k="place" v="isolated_dwelling" />
		<tag k="ssr:stedsnr" v="847620" />
	</node>
	<node id="-23396" lat="59.7033790735" lon="10.6181647412">
		<tag k="fixme" v="consider place=hamlet" />
		<tag k="name" v="Hallangen" />
		<tag k="place" v="farm" />
		<tag k="ssr:stedsnr" v="306736" />
	</node>
	<node id="-23907" lat="59.6805666695" lon="10.6272888861">
		<tag k="name" v="Gylteåsen" />
		<tag k="place" v="quarter" />
		<tag k="ssr:stedsnr" v="847578" />
	</node>
	<node id="-23906" lat="59.7276194486" lon="10.697661114">
		<tag k="alt_name" v="Bølerengen" />
		<tag k="name" v="Bølerenga" />
		<tag k="place" v="farm" />
		<tag k="ssr:stedsnr" v="847476" />
	</node>
	<node id="-23905" lat="59.6952944472" lon="10.709386103">
		<tag k="name" v="Nordre Bjerke" />
		<tag k="place" v="farm" />
		<tag k="ssr:stedsnr" v="847153" />
	</node>
	<node id="-23904" lat="59.6925138886" lon="10.7016583289">
		<tag k="name" v="Nordre Huseby" />
		<tag k="place" v="farm" />
		<tag k="ssr:stedsnr" v="847142" />
	</node>
	<node id="-23903" lat="59.6674111084" lon="10.6344638861">
		<tag k="amenity" v="school" />
		<tag k="name" v="Drøbak skole" />
		<tag k="ssr:stedsnr" v="847070" />
	</node>
	<node id="-23388" lat="59.7030062946" lon="10.6583869725">
		<tag k="name" v="Dammen" />
		<tag k="place" v="hamlet" />
		<tag k="ssr:stedsnr" v="282930" />
	</node>
	<node id="-23387" lat="59.7261750003" lon="10.5927805511">
		<tag k="fixme" v="multiple name tags, choose one and add the other to alt_name" />
		<tag k="name" v="Søndre Sandvika;Åstvet" />
		<tag k="place" v="isolated_dwelling" />
		<tag k="ssr:stedsnr" v="282885" />
	</node>
	<node id="-23384" lat="59.6372888853" lon="10.6719527796">
		<tag k="name" v="Øvre Solberg" />
		<tag k="place" v="farm" />
		<tag k="ssr:stedsnr" v="282508" />
	</node>
	<node id="-23383" lat="59.683122226" lon="10.6152638945">
		<tag k="name" v="Godthol" />
		<tag k="place" v="isolated_dwelling" />
		<tag k="ssr:stedsnr" v="282461" />
	</node>
	<node id="-23894" lat="59.719755556" lon="10.6023972193">
		<tag k="name" v="Bråtan" />
		<tag k="place" v="farm" />
		<tag k="ssr:stedsnr" v="828505" />
	</node>
	<node id="-23893" lat="59.6362944472" lon="10.665552776">
		<tag k="name" v="Øvre Kroksrudsand" />
		<tag k="place" v="isolated_dwelling" />
		<tag k="ssr:stedsnr" v="828491" />
	</node>
	<node id="-23892" lat="59.6369000027" lon="10.6652277724">
		<tag k="name" v="Solbergsand" />
		<tag k="place" v="isolated_dwelling" />
		<tag k="ssr:stedsnr" v="828489" />
	</node>
	<node id="-23891" lat="59.7418361135" lon="10.7205000073">
		<tag k="name" v="Fuglesang" />
		<tag k="place" v="isolated_dwelling" />
		<tag k="ssr:stedsnr" v="828457" />
	</node>
	<node id="-23890" lat="59.686313891" lon="10.6511416634">
		<tag k="name" v="Gloslibråten" />
		<tag k="place" v="isolated_dwelling" />
		<tag k="ssr:stedsnr" v="828452" />
	</node>
	<node id="-23377" lat="59.6351472222" lon="10.6488583368">
		<tag k="name" v="Nordre Eikeberg hyttefelt" />
		<tag k="place" v="neighbourhood" />
		<tag k="ssr:stedsnr" v="282425" />
	</node>
	<node id="-23887" lat="59.7498277821" lon="10.6456972262">
		<tag k="name" v="Vestre Kopperud" />
		<tag k="place" v="farm" />
		<tag k="ssr:stedsnr" v="828416" />
	</node>
	<node id="-23886" lat="59.7396111137" lon="10.6708694507">
		<tag k="name" v="Mellom-Lindebråte" />
		<tag k="place" v="farm" />
		<tag k="ssr:stedsnr" v="828413" />
	</node>
	<node id="-23885" lat="59.7359888899" lon="10.7158055615">
		<tag k="name" v="Nedre Knardal" />
		<tag k="place" v="farm" />
		<tag k="ssr:stedsnr" v="828410" />
	</node>
	<node id="-23884" lat="59.7042333306" lon="10.653091674">
		<tag k="name" v="Spervika" />
		<tag k="place" v="hamlet" />
		<tag k="ssr:stedsnr" v="828381" />
	</node>
	<node id="-23883" lat="59.6632749972" lon="10.649122227">
		<tag k="name" v="Granheia" />
		<tag k="place" v="quarter" />
		<tag k="ssr:stedsnr" v="828021" />
	</node>
	<node id="-23370" lat="59.6901888932" lon="10.7289527713">
		<tag k="name" v="Søndre Horgen" />
		<tag k="place" v="farm" />
		<tag k="ssr:stedsnr" v="282346" />
	</node>
	<node id="-23880" lat="59.7567527802" lon="10.6882083409">
		<tag k="alt_name" v="Garder, søndre" />
		<tag k="name" v="Søndre Garder" />
		<tag k="place" v="farm" />
		<tag k="ssr:stedsnr" v="794603" />
	</node>
	<node id="-23879" lat="59.669388892" lon="10.6371361159">
		<tag k="name" v="Seiersten" />
		<tag k="place" v="hamlet" />
		<tag k="ssr:stedsnr" v="792840" />
	</node>
	<node id="-23878" lat="59.7167444412" lon="10.639941673">
		<tag k="alt_name" v="Hallangen, nordre" />
		<tag k="name" v="Nordre Hallangen" />
		<tag k="place" v="farm" />
		<tag k="ssr:stedsnr" v="792783" />
	</node>
	<node id="-23877" lat="59.6415444433" lon="10.675938883">
		<tag k="alt_name" v="Solberg, nordre" />
		<tag k="name" v="Nordre Solberg" />
		<tag k="place" v="farm" />
		<tag k="ssr:stedsnr" v="792657" />
	</node>
	<node id="-23876" lat="59.6945527779" lon="10.6581388973">
		<tag k="name" v="Torshytta" />
		<tag k="place" v="farm" />
		<tag k="ssr:stedsnr" v="791771" />
	</node>
	<node id="-23402" lat="59.6526444456" lon="10.6635361152">
		<tag k="alt_name" v="Øyrud, nordre;Nordre Øyerud" />
		<tag k="name" v="Nordre Øyrud" />
		<tag k="place" v="farm" />
		<tag k="ssr:stedsnr" v="307819" />
	</node>
	<node id="-23873" lat="59.7016861109" lon="10.6564833267">
		<tag k="name" v="Nordre Dammen" />
		<tag k="place" v="farm" />
		<tag k="ssr:stedsnr" v="786863" />
	</node>
	<node id="-23872" lat="59.697941669" lon="10.6102916688">
		<tag k="name" v="Båtstøfeltet" />
		<tag k="place" v="neighbourhood" />
		<tag k="ssr:stedsnr" v="786860" />
	</node>
	<node id="-23869" lat="59.6724222238" lon="10.6926305498">
		<tag k="name" v="Søndre Ermesø" />
		<tag k="place" v="farm" />
		<tag k="ssr:stedsnr" v="786604" />
	</node>
	<node id="-23868" lat="59.6735861104" lon="10.7046055499">
		<tag k="name" v="Nordre Furu" />
		<tag k="place" v="farm" />
		<tag k="ssr:stedsnr" v="786582" />
	</node>
	<node id="-23867" lat="59.6776777794" lon="10.6965722154">
		<tag k="name" v="Nordre Berg" />
		<tag k="place" v="farm" />
		<tag k="ssr:stedsnr" v="786580" />
	</node>
	<node id="-23866" lat="59.6683444423" lon="10.6437583409">
		<tag k="alt_name" v="Ullerud nordre" />
		<tag k="name" v="Nordre Ullerud" />
		<tag k="place" v="farm" />
		<tag k="ssr:stedsnr" v="786461" />
	</node>
	<node id="-23863" lat="59.6857833366" lon="10.6760194477">
		<tag k="name" v="Nedre Tomter" />
		<tag k="place" v="farm" />
		<tag k="ssr:stedsnr" v="786136" />
	</node>
	<node id="-23859" lat="59.6356583308" lon="10.6737499975">
		<tag k="name" v="Nedre Solberg" />
		<tag k="place" v="farm" />
		<tag k="ssr:stedsnr" v="767509" />
	</node>
	<node id="-23858" lat="59.6350861152" lon="10.6722138902">
		<tag k="name" v="Nedre Kroksrud" />
		<tag k="place" v="farm" />
		<tag k="ssr:stedsnr" v="767506" />
	</node>
	<node id="-23857" lat="59.7314750004" lon="10.7224388898">
		<tag k="name" v="Knardal hyttefelt" />
		<tag k="place" v="neighbourhood" />
		<tag k="ssr:stedsnr" v="767485" />
	</node>
	<node id="-23852" lat="59.6633194424" lon="10.6297388913">
		<tag k="name" v="Drøbak" />
		<tag k="place" v="town" />
		<tag k="ssr:stedsnr" v="732857" />
	</node>
	<node id="-23850" lat="59.6914583309" lon="10.7195277766">
		<tag k="name" v="Østli" />
		<tag k="place" v="farm" />
		<tag k="ssr:stedsnr" v="732435" />
	</node>
	<node id="-23846" lat="59.7118222253" lon="10.6003638968">
		<tag k="name" v="Sønderstøa" />
		<tag k="place" v="isolated_dwelling" />
		<tag k="ssr:stedsnr" v="731803" />
	</node>
	<node id="-23430" lat="59.6826861076" lon="10.7148194368">
		<tag k="name" v="Bakker" />
		<tag k="place" v="farm" />
		<tag k="ssr:stedsnr" v="367829" />
	</node>
	<node id="-23841" lat="59.6822583339" lon="10.6508000078">
		<tag k="name" v="Kringerudfeltet" />
		<tag k="place" v="quarter" />
		<tag k="ssr:stedsnr" v="725847" />
	</node>
	<node id="-23839" lat="59.6744194406" lon="10.6804416645">
		<tag k="name" v="Søndre Kykkelsrud" />
		<tag k="place" v="farm" />
		<tag k="ssr:stedsnr" v="725532" />
	</node>
	<node id="-23836" lat="59.6299583289" lon="10.6713222304">
		<tag k="alt_name" v="Solberg, søndre" />
		<tag k="name" v="Søndre Solberg" />
		<tag k="place" v="farm" />
		<tag k="ssr:stedsnr" v="731639" />
	</node>
	<node id="-23835" lat="59.7207666625" lon="10.6078333376">
		<tag k="name" v="Nordre Digerud" />
		<tag k="place" v="farm" />
		<tag k="ssr:stedsnr" v="707467" />
	</node>
	<node id="-23829" lat="59.6840388864" lon="10.6269972198">
		<tag k="name" v="Gylteåsen" />
		<tag k="place" v="neighbourhood" />
		<tag k="ssr:stedsnr" v="706715" />
	</node>
	<node id="-23828" lat="59.7267000015" lon="10.6943583409">
		<tag k="name" v="Berger" />
		<tag k="place" v="farm" />
		<tag k="ssr:stedsnr" v="706461" />
	</node>
	<node id="-23558" lat="59.6653777783" lon="10.6282750002">
		<tag k="amenity" v="nursing_home" />
		<tag k="name" v="Frogn eldresenter" />
		<tag k="ssr:stedsnr" v="118519" />
	</node>
	<node id="-23819" lat="59.7602222263" lon="10.6788583348">
		<tag k="name" v="Granli" />
		<tag k="place" v="isolated_dwelling" />
		<tag k="ssr:stedsnr" v="706284" />
	</node>
	<node id="-23818" lat="59.7700527785" lon="10.6827361186">
		<tag k="name" v="Søndre Gullerud" />
		<tag k="place" v="farm" />
		<tag k="ssr:stedsnr" v="706279" />
	</node>
	<node id="-23817" lat="59.7172249974" lon="10.7111444482">
		<tag k="name" v="Mien" />
		<tag k="place" v="locality" />
		<tag k="ssr:stedsnr" v="693290" />
	</node>
	<node id="-23816" lat="59.7289638846" lon="10.5925555533">
		<tag k="fixme" v="multiple name tags, choose one and add the other to alt_name" />
		<tag k="name" v="Nordre Sandvika;Sandvika" />
		<tag k="place" v="isolated_dwelling" />
		<tag k="ssr:stedsnr" v="693167" />
	</node>
	<node id="-23815" lat="59.7087138897" lon="10.5995388849">
		<tag k="name" v="Solvik" />
		<tag k="place" v="isolated_dwelling" />
		<tag k="ssr:stedsnr" v="693164" />
	</node>
	<node id="-23400" lat="59.6368174428" lon="10.6746878551">
		<tag k="fixme" v="consider place=hamlet" />
		<tag k="name" v="Solberg" />
		<tag k="place" v="farm" />
		<tag k="ssr:stedsnr" v="307696" />
	</node>
	<node id="-23812" lat="59.6611694401" lon="10.645147228">
		<tag k="name" v="Holterteigen" />
		<tag k="place" v="farm" />
		<tag k="ssr:stedsnr" v="693038" />
	</node>
	<node id="-23810" lat="59.7662222261" lon="10.6753861041">
		<tag k="name" v="Skuterud" />
		<tag k="place" v="farm" />
		<tag k="ssr:stedsnr" v="672618" />
	</node>
	<node id="-23809" lat="59.7537638927" lon="10.6640277862">
		<tag k="name" v="Slottet" />
		<tag k="place" v="farm" />
		<tag k="ssr:stedsnr" v="672580" />
	</node>
	<node id="-23808" lat="59.7613861142" lon="10.6861111155">
		<tag k="alt_name" v="Garder, nordre" />
		<tag k="name" v="Nordre Garder" />
		<tag k="place" v="farm" />
		<tag k="ssr:stedsnr" v="672579" />
	</node>
	<node id="-23807" lat="59.7592444436" lon="10.6934083348">
		<tag k="alt_name" v="Garder, østre" />
		<tag k="name" v="Østre Garder" />
		<tag k="place" v="farm" />
		<tag k="ssr:stedsnr" v="672576" />
	</node>
	<node id="-23806" lat="59.6758388918" lon="10.6737805611">
		<tag k="name" v="Finset" />
		<tag k="place" v="farm" />
		<tag k="ssr:stedsnr" v="671859" />
	</node>
	<node id="-23805" lat="59.6740083375" lon="10.6601555476">
		<tag k="name" v="Holter" />
		<tag k="place" v="farm" />
		<tag k="ssr:stedsnr" v="671856" />
	</node>
	<node id="-23804" lat="59.6459138912" lon="10.6621916614">
		<tag k="name" v="Røys" />
		<tag k="place" v="farm" />
		<tag k="ssr:stedsnr" v="671834" />
	</node>
	<node id="-23803" lat="59.7531305584" lon="10.6911749918">
		<tag k="name" v="Garderenga" />
		<tag k="place" v="farm" />
		<tag k="ssr:stedsnr" v="671601" />
	</node>
	<node id="-23801" lat="59.7433638898" lon="10.6977833326">
		<tag k="alt_name" v="Dal, midtre;Mellom Dal" />
		<tag k="name" v="Midtre Dal" />
		<tag k="place" v="farm" />
		<tag k="ssr:stedsnr" v="670946" />
	</node>
	<node id="-23800" lat="59.7419708057" lon="10.6657748308">
		<tag k="fixme" v="consider place=hamlet" />
		<tag k="name" v="Lindebråte" />
		<tag k="place" v="farm" />
		<tag k="ssr:stedsnr" v="670944" />
	</node>
	<node id="-23799" lat="59.7284694443" lon="10.6899083262">
		<tag k="name" v="Tusse" />
		<tag k="place" v="isolated_dwelling" />
		<tag k="ssr:stedsnr" v="670764" />
	</node>
	<node id="-23604" lat="59.6833703684" lon="10.7008486126">
		<tag k="fixme" v="consider place=hamlet" />
		<tag k="name" v="Rød" />
		<tag k="place" v="farm" />
		<tag k="ssr:stedsnr" v="185839" />
	</node>
	<node id="-23422" lat="59.670136109" lon="10.6326972276">
		<tag k="landuse" v="military" />
		<tag k="name" v="Veisvingbatteriet" />
		<tag k="ssr:stedsnr" v="361066" />
	</node>
	<node id="-23790" lat="59.7015722209" lon="10.6949361147">
		<tag k="name" v="Birkeli" />
		<tag k="place" v="farm" />
		<tag k="ssr:stedsnr" v="664214" />
	</node>
	<node id="-23789" lat="59.6875777771" lon="10.6755416746">
		<tag k="name" v="Haneborg" />
		<tag k="place" v="farm" />
		<tag k="ssr:stedsnr" v="664128" />
	</node>
	<node id="-23788" lat="59.6545527763" lon="10.6327027832">
		<tag k="name" v="Torkilsbyen" />
		<tag k="place" v="quarter" />
		<tag k="ssr:stedsnr" v="664098" />
	</node>
	<node id="-23787" lat="59.6655916641" lon="10.6369861116">
		<tag k="name" v="Karlsrud" />
		<tag k="place" v="quarter" />
		<tag k="ssr:stedsnr" v="664037" />
	</node>
	<node id="-23785" lat="59.684527778" lon="10.6236277844">
		<tag k="name" v="Gylte" />
		<tag k="place" v="isolated_dwelling" />
		<tag k="ssr:stedsnr" v="645710" />
	</node>
	<node id="-23784" lat="59.7231166705" lon="10.5895916582">
		<tag k="name" v="Digerud" />
		<tag k="place" v="hamlet" />
		<tag k="ssr:stedsnr" v="645519" />
	</node>
	<node id="-23783" lat="59.7291999974" lon="10.7032361139">
		<tag k="name" v="Søndre Bøler" />
		<tag k="place" v="farm" />
		<tag k="ssr:stedsnr" v="645463" />
	</node>
	<node id="-23782" lat="59.7284750046" lon="10.7043749943">
		<tag k="name" v="Vestre Bøler" />
		<tag k="place" v="farm" />
		<tag k="ssr:stedsnr" v="645462" />
	</node>
	<node id="-23781" lat="59.7418166699" lon="10.6370472223">
		<tag k="name" v="Gulbjørnrud" />
		<tag k="place" v="farm" />
		<tag k="ssr:stedsnr" v="645453" />
	</node>
	<node id="-23778" lat="59.7135333318" lon="10.7006444421">
		<tag k="name" v="Stubberudhytta" />
		<tag k="place" v="isolated_dwelling" />
		<tag k="ssr:stedsnr" v="645439" />
	</node>
	<node id="-23775" lat="59.7609806051" lon="10.6546168441">
		<tag k="fixme" v="consider place=hamlet" />
		<tag k="name" v="Skog" />
		<tag k="place" v="farm" />
		<tag k="ssr:stedsnr" v="645415" />
	</node>
	<node id="-23774" lat="59.750086112" lon="10.6508333256">
		<tag k="name" v="Skjønhaug" />
		<tag k="place" v="farm" />
		<tag k="ssr:stedsnr" v="645414" />
	</node>
	<node id="-23773" lat="59.7176222263" lon="10.728022221">
		<tag k="name" v="Fossen" />
		<tag k="place" v="locality" />
		<tag k="ssr:stedsnr" v="645375" />
	</node>
	<node id="-23418" lat="59.7385194433" lon="10.6528805467">
		<tag k="alt_name" v="Måren" />
		<tag k="name" v="Målen" />
		<tag k="place" v="isolated_dwelling" />
		<tag k="ssr:stedsnr" v="428964" />
	</node>
	<node id="-23770" lat="59.7597042844" lon="10.6867142857">
		<tag k="fixme" v="consider place=hamlet" />
		<tag k="name" v="Garder" />
		<tag k="place" v="farm" />
		<tag k="ssr:stedsnr" v="645271" />
	</node>
	<node id="-23769" lat="59.6842194485" lon="10.6887500083">
		<tag k="name" v="Søndre Roksrud" />
		<tag k="place" v="farm" />
		<tag k="ssr:stedsnr" v="645140" />
	</node>
	<node id="-23768" lat="59.6908194419" lon="10.6276638843">
		<tag k="name" v="Ottarsrud" />
		<tag k="place" v="neighbourhood" />
		<tag k="ssr:stedsnr" v="640813" />
	</node>
	<node id="-23765" lat="59.6497722237" lon="10.6651388832">
		<tag k="alt_name" v="Søndre Øyerud" />
		<tag k="name" v="Søndre Øyrud" />
		<tag k="place" v="farm" />
		<tag k="ssr:stedsnr" v="631032" />
	</node>
	<node id="-23764" lat="59.6839777754" lon="10.6597666742">
		<tag k="fixme" v="consider place=suburb, village or hamlet" />
		<tag k="name" v="Heer" />
		<tag k="place" v="quarter" />
		<tag k="ssr:stedsnr" v="630526" />
	</node>
	<node id="-23762" lat="59.7520500041" lon="10.7051833419">
		<tag k="name" v="Køya" />
		<tag k="old_name" v="Kjøya" />
		<tag k="place" v="farm" />
		<tag k="ssr:stedsnr" v="611608" />
	</node>
	<node id="-23759" lat="59.713577779" lon="10.6632194372">
		<tag k="name" v="Skyssrud" />
		<tag k="place" v="farm" />
		<tag k="ssr:stedsnr" v="610824" />
	</node>
	<node id="-23758" lat="59.6993694461" lon="10.7151916727">
		<tag k="name" v="Økern" />
		<tag k="place" v="farm" />
		<tag k="ssr:stedsnr" v="610767" />
	</node>
	<node id="-23757" lat="59.7359500004" lon="10.6810750083">
		<tag k="alt_name" v="Slåttebråtan" />
		<tag k="name" v="Slåttebråten" />
		<tag k="place" v="farm" />
		<tag k="ssr:stedsnr" v="609972" />
	</node>
	<node id="-23756" lat="59.7361460691" lon="10.7156425049">
		<tag k="fixme" v="consider place=hamlet" />
		<tag k="name" v="Knardal" />
		<tag k="place" v="farm" />
		<tag k="ssr:stedsnr" v="609960" />
	</node>
	<node id="-23753" lat="59.7094694409" lon="10.7474222176">
		<tag k="name" v="Askebakke" />
		<tag k="place" v="farm" />
		<tag k="ssr:stedsnr" v="609542" />
	</node>
	<node id="-23752" lat="59.7030527766" lon="10.7428361022">
		<tag k="name" v="Vassum" />
		<tag k="place" v="farm" />
		<tag k="ssr:stedsnr" v="610430" />
	</node>
	<node id="-23750" lat="59.6749527818" lon="10.6793694387">
		<tag k="name" v="Nordre Kykkelsrud" />
		<tag k="place" v="farm" />
		<tag k="ssr:stedsnr" v="603567" />
	</node>
	<node id="-23745" lat="59.6735138908" lon="10.6070777794">
		<tag k="landuse" v="military" />
		<tag k="name" v="Søndre Oscarsborg" />
		<tag k="ssr:stedsnr" v="603384" />
	</node>
	<node id="-23744" lat="59.6895361148" lon="10.675513892">
		<tag k="name" v="Vestre Oppegård" />
		<tag k="place" v="farm" />
		<tag k="ssr:stedsnr" v="603124" />
	</node>
	<node id="-23743" lat="59.6688777764" lon="10.634855553">
		<tag k="amenity" v="sports_centre" />
		<tag k="name" v="Frognhallen" />
		<tag k="ssr:stedsnr" v="603045" />
	</node>
	<node id="-23740" lat="59.7196805563" lon="10.6077083277">
		<tag k="name" v="Søndre Digerud" />
		<tag k="place" v="farm" />
		<tag k="ssr:stedsnr" v="585410" />
	</node>
	<node id="-23738" lat="59.7056194412" lon="10.6365055521">
		<tag k="name" v="Strandmyr" />
		<tag k="place" v="isolated_dwelling" />
		<tag k="ssr:stedsnr" v="585350" />
	</node>
	<node id="-23733" lat="59.7458222212" lon="10.699366663">
		<tag k="alt_name" v="Dal, nordre" />
		<tag k="name" v="Nordre Dal" />
		<tag k="place" v="farm" />
		<tag k="ssr:stedsnr" v="584454" />
	</node>
	<node id="-23727" lat="59.6530277821" lon="10.6355027795">
		<tag k="name" v="Løkkedal" />
		<tag k="place" v="isolated_dwelling" />
		<tag k="ssr:stedsnr" v="571023" />
	</node>
	<node id="-23726" lat="59.6187500008" lon="10.6516000076">
		<tag k="name" v="Børrebråten" />
		<tag k="place" v="isolated_dwelling" />
		<tag k="ssr:stedsnr" v="571006" />
	</node>
	<node id="-23725" lat="59.6900583357" lon="10.6195083284">
		<tag k="name" v="Tiurlia" />
		<tag k="place" v="hamlet" />
		<tag k="ssr:stedsnr" v="559805" />
	</node>
	<node id="-23724" lat="59.7574999979" lon="10.6720750052">
		<tag k="fixme" v="consider place=hamlet" />
		<tag k="name" v="Kai" />
		<tag k="place" v="farm" />
		<tag k="ssr:stedsnr" v="551601" />
	</node>
	<node id="-23723" lat="59.6627617008" lon="10.6685764265">
		<tag k="fixme" v="consider place=hamlet" />
		<tag k="name" v="Skorkeberg" />
		<tag k="place" v="farm" />
		<tag k="ssr:stedsnr" v="550863" />
	</node>
	<node id="-23721" lat="59.7416201101" lon="10.6370069692">
		<tag k="fixme" v="consider place=hamlet" />
		<tag k="name" v="Gulbjørnrud" />
		<tag k="place" v="farm" />
		<tag k="ssr:stedsnr" v="549967" />
	</node>
	<node id="-23717" lat="59.7687333358" lon="10.708438881">
		<tag k="name" v="Søndre Haslum" />
		<tag k="place" v="farm" />
		<tag k="ssr:stedsnr" v="545514" />
	</node>
	<node id="-23714" lat="59.6620916623" lon="10.6696361174">
		<tag k="name" v="Søndre Skorkeberg" />
		<tag k="place" v="farm" />
		<tag k="ssr:stedsnr" v="543577" />
	</node>
	<node id="-23713" lat="59.6706138914" lon="10.7010972253">
		<tag k="alt_name" v="Furu søndre" />
		<tag k="name" v="Søndre Furu" />
		<tag k="place" v="farm" />
		<tag k="ssr:stedsnr" v="543571" />
	</node>
	<node id="-23712" lat="59.6549111094" lon="10.6464555579">
		<tag k="amenity" v="school" />
		<tag k="name" v="Sogsti skole" />
		<tag k="ssr:stedsnr" v="543553" />
	</node>
	<node id="-23710" lat="59.645319444" lon="10.6555499919">
		<tag k="name" v="Sørli" />
		<tag k="place" v="isolated_dwelling" />
		<tag k="ssr:stedsnr" v="543131" />
	</node>
	<node id="-23709" lat="59.6674944417" lon="10.6320000083">
		<tag k="amenity" v="nursing_home" />
		<tag k="name" v="Seimåsen" />
		<tag k="ssr:stedsnr" v="543068" />
	</node>
	<node id="-23703" lat="59.692155555" lon="10.734386117">
		<tag k="name" v="Årungstua" />
		<tag k="place" v="isolated_dwelling" />
		<tag k="ssr:stedsnr" v="524327" />
	</node>
	<node id="-23700" lat="59.7011027788" lon="10.5612333417">
		<tag k="name" v="Håøya" />
		<tag k="place" v="isolated_dwelling" />
		<tag k="ssr:stedsnr" v="511116" />
	</node>
	<node id="-23699" lat="59.6851166707" lon="10.6239416693">
		<tag k="name" v="Gylte" />
		<tag k="place" v="farm" />
		<tag k="ssr:stedsnr" v="510062" />
	</node>
	<node id="-23698" lat="59.7697888926" lon="10.6823249946">
		<tag k="fixme" v="consider place=hamlet" />
		<tag k="name" v="Gullerud" />
		<tag k="place" v="farm" />
		<tag k="ssr:stedsnr" v="490620" />
	</node>
	<node id="-23697" lat="59.6587694407" lon="10.6733194524">
		<tag k="name" v="Kolstad" />
		<tag k="place" v="farm" />
		<tag k="ssr:stedsnr" v="489827" />
	</node>
	<node id="-23695" lat="59.7027916691" lon="10.6521666746">
		<tag k="alt_name" v="Snerrevik;Sperrvik" />
		<tag k="name" v="Sperrevik" />
		<tag k="place" v="farm" />
		<tag k="ssr:stedsnr" v="488744" />
	</node>
	<node id="-23694" lat="59.6352416712" lon="10.6539138844">
		<tag k="name" v="Eikeberg" />
		<tag k="place" v="farm" />
		<tag k="ssr:stedsnr" v="488659" />
	</node>
	<node id="-23693" lat="59.708380555" lon="10.7488027777">
		<tag k="alt_name" v="Stokkholm" />
		<tag k="name" v="Stokholm" />
		<tag k="place" v="farm" />
		<tag k="ssr:stedsnr" v="488563" />
	</node>
	<node id="-23692" lat="59.6143999973" lon="10.6567944449">
		<tag k="name" v="Saga" />
		<tag k="place" v="isolated_dwelling" />
		<tag k="ssr:stedsnr" v="488616" />
	</node>
	<node id="-23771" lat="59.6909138878" lon="10.7284944481">
		<tag k="name" v="Nordre Horgen" />
		<tag k="place" v="farm" />
		<tag k="ssr:stedsnr" v="645354" />
	</node>
	<node id="-23689" lat="59.67107778" lon="10.7012444414">
		<tag k="name" v="Mellom-Furu" />
		<tag k="place" v="farm" />
		<tag k="ssr:stedsnr" v="482585" />
	</node>
	<node id="-23687" lat="59.6963361088" lon="10.6990805641">
		<tag k="name" v="Husebyhagen" />
		<tag k="place" v="farm" />
		<tag k="ssr:stedsnr" v="482220" />
	</node>
	<node id="-23686" lat="59.6882194423" lon="10.6878305509">
		<tag k="name" v="Ødegården" />
		<tag k="place" v="farm" />
		<tag k="ssr:stedsnr" v="482138" />
	</node>
	<node id="-23685" lat="59.6913166689" lon="10.6996249954">
		<tag k="name" v="Mellom-Huseby" />
		<tag k="place" v="farm" />
		<tag k="ssr:stedsnr" v="482118" />
	</node>
	<node id="-23679" lat="59.6834166657" lon="10.6628999984">
		<tag k="amenity" v="school" />
		<tag k="name" v="Heer skole" />
		<tag k="ssr:stedsnr" v="463721" />
	</node>
	<node id="-23678" lat="59.769213889" lon="10.6983638832">
		<tag k="name" v="Garderbråtan" />
		<tag k="place" v="farm" />
		<tag k="ssr:stedsnr" v="463651" />
	</node>
	<node id="-23676" lat="59.7472638909" lon="10.6481333261">
		<tag k="name" v="Søndre Kopperud" />
		<tag k="place" v="farm" />
		<tag k="ssr:stedsnr" v="463428" />
	</node>
	<node id="-23675" lat="59.6871583353" lon="10.7067166655">
		<tag k="name" v="Rødsholtet" />
		<tag k="place" v="hamlet" />
		<tag k="ssr:stedsnr" v="463140" />
	</node>
	<node id="-23674" lat="59.7426246098" lon="10.7151180071">
		<tag k="name" v="Fuglesang feriehjem" />
		<tag k="ssr:stedsnr" v="451468" />
		<tag k="tourism" v="guest_house" />
	</node>
	<node id="-23673" lat="59.7279916665" lon="10.724927783">
		<tag k="name" v="England" />
		<tag k="place" v="isolated_dwelling" />
		<tag k="ssr:stedsnr" v="450229" />
	</node>
	<node id="-23672" lat="59.7232722224" lon="10.5877499929">
		<tag k="name" v="Hethol" />
		<tag k="place" v="farm" />
		<tag k="ssr:stedsnr" v="450117" />
	</node>
	<node id="-23670" lat="59.7497805614" lon="10.6476069325">
		<tag k="fixme" v="consider place=hamlet" />
		<tag k="name" v="Kopperud" />
		<tag k="place" v="farm" />
		<tag k="ssr:stedsnr" v="430512" />
	</node>
	<node id="-23669" lat="59.6688916703" lon="10.6723000039">
		<tag k="name" v="Espely" />
		<tag k="place" v="farm" />
		<tag k="ssr:stedsnr" v="429874" />
	</node>
	<node id="-23668" lat="59.6497777796" lon="10.6723611063">
		<tag k="fixme" v="consider place=hamlet" />
		<tag k="name" v="Haver" />
		<tag k="place" v="farm" />
		<tag k="ssr:stedsnr" v="429838" />
	</node>
	<node id="-23667" lat="59.6707112336" lon="10.7006490776">
		<tag k="fixme" v="consider place=hamlet" />
		<tag k="name" v="Furu" />
		<tag k="place" v="farm" />
		<tag k="ssr:stedsnr" v="428870" />
	</node>
	<node id="-23666" lat="59.6740138928" lon="10.6549583365">
		<tag k="name" v="Dyrløkke" />
		<tag k="place" v="suburb" />
		<tag k="ssr:stedsnr" v="428861" />
	</node>
	<node id="-23664" lat="59.7207527814" lon="10.6657833418">
		<tag k="name" v="Havsjødalen" />
		<tag k="place" v="farm" />
		<tag k="ssr:stedsnr" v="428805" />
	</node>
	<node id="-23663" lat="59.7154249962" lon="10.7143555467">
		<tag k="name" v="Bonn" />
		<tag k="place" v="farm" />
		<tag k="ssr:stedsnr" v="428803" />
	</node>
	<node id="-23661" lat="59.6868898512" lon="10.6757738175">
		<tag k="fixme" v="consider place=hamlet" />
		<tag k="name" v="Tomter" />
		<tag k="place" v="farm" />
		<tag k="ssr:stedsnr" v="428764" />
	</node>
	<node id="-23660" lat="59.6922353718" lon="10.7015873953">
		<tag k="fixme" v="consider place=hamlet" />
		<tag k="name" v="Huseby" />
		<tag k="place" v="farm" />
		<tag k="ssr:stedsnr" v="428759" />
	</node>
	<node id="-23443" lat="59.7161166683" lon="10.6242694473">
		<tag k="name" v="Nordre Hallangen hyttefelt" />
		<tag k="place" v="neighbourhood" />
		<tag k="ssr:stedsnr" v="403368" />
	</node>
	<node id="-23657" lat="59.6705861111" lon="10.6719222138">
		<tag k="name" v="Kykkelsrudbråten" />
		<tag k="place" v="farm" />
		<tag k="ssr:stedsnr" v="422590" />
	</node>
	<node id="-23655" lat="59.7020416675" lon="10.6940722135">
		<tag k="name" v="Teipa" />
		<tag k="place" v="farm" />
		<tag k="ssr:stedsnr" v="422224" />
	</node>
	<node id="-23654" lat="59.6896833377" lon="10.6941055522">
		<tag k="name" v="Bilitt" />
		<tag k="place" v="farm" />
		<tag k="ssr:stedsnr" v="422143" />
	</node>
	<node id="-23653" lat="59.694583334" lon="10.7075555542">
		<tag k="name" v="Søndre Bjerke" />
		<tag k="place" v="farm" />
		<tag k="ssr:stedsnr" v="422123" />
	</node>
	<node id="-23652" lat="59.7680611097" lon="10.6915750048">
		<tag k="alt_name" v="Garder" />
		<tag k="name" v="Nedre Garder" />
		<tag k="place" v="farm" />
		<tag k="ssr:stedsnr" v="247623" />
	</node>
	<node id="-23398" lat="59.6948838051" lon="10.7084494173">
		<tag k="fixme" v="consider place=hamlet" />
		<tag k="name" v="Bjerke" />
		<tag k="place" v="farm" />
		<tag k="ssr:stedsnr" v="306750" />
	</node>
	<node id="-23650" lat="59.7581249966" lon="10.7021472262">
		<tag k="alt_name" v="Glenne, øvre" />
		<tag k="name" v="Øvre Glenne" />
		<tag k="place" v="farm" />
		<tag k="ssr:stedsnr" v="247585" />
	</node>
	<node id="-23649" lat="59.7524111132" lon="10.7118916733">
		<tag k="name" v="Brevik" />
		<tag k="place" v="hamlet" />
		<tag k="ssr:stedsnr" v="247581" />
	</node>
	<node id="-23648" lat="59.6723749987" lon="10.66748334">
		<tag k="fixme" v="multiple name tags, choose one and add the other to alt_name" />
		<tag k="name" v="Kykkelsrud;Tomta" />
		<tag k="place" v="farm" />
		<tag k="ssr:stedsnr" v="246840" />
	</node>
	<node id="-23397" lat="59.6893161423" lon="10.676225367">
		<tag k="fixme" v="consider place=hamlet" />
		<tag k="name" v="Oppegård" />
		<tag k="place" v="farm" />
		<tag k="ssr:stedsnr" v="306751" />
	</node>
	<node id="-23643" lat="59.7306222189" lon="10.6877083274">
		<tag k="alt_name" v="Dal, østre;Østre Dal" />
		<tag k="name" v="Øvre Dal" />
		<tag k="place" v="farm" />
		<tag k="ssr:stedsnr" v="246748" />
	</node>
	<node id="-23642" lat="59.680516665" lon="10.6650305483">
		<tag k="name" v="Gislerud" />
		<tag k="place" v="farm" />
		<tag k="ssr:stedsnr" v="245748" />
	</node>
	<node id="-23640" lat="59.7194833296" lon="10.5876777781">
		<tag k="name" v="Digerud" />
		<tag k="place" v="isolated_dwelling" />
		<tag k="ssr:stedsnr" v="240904" />
	</node>
	<node id="-23638" lat="59.7123555563" lon="10.6465222277">
		<tag k="name" v="Pollen" />
		<tag k="place" v="isolated_dwelling" />
		<tag k="ssr:stedsnr" v="240642" />
	</node>
	<node id="-23637" lat="59.6640388879" lon="10.6836500036">
		<tag k="name" v="Nordre Fjøser" />
		<tag k="place" v="farm" />
		<tag k="ssr:stedsnr" v="240629" />
	</node>
	<node id="-23636" lat="59.6565083345" lon="10.6401444407">
		<tag k="name" v="Nordre Sogsti" />
		<tag k="place" v="farm" />
		<tag k="ssr:stedsnr" v="240576" />
	</node>
	<node id="-23635" lat="59.7328305517" lon="10.7065333415">
		<tag k="name" v="Bølerbråten" />
		<tag k="place" v="farm" />
		<tag k="ssr:stedsnr" v="240466" />
	</node>
	<node id="-23394" lat="59.6726277754" lon="10.6396722135">
		<tag k="landuse" v="military" />
		<tag k="name" v="Øvre Seiersten skanse" />
		<tag k="ssr:stedsnr" v="300433" />
	</node>
	<node id="-23633" lat="59.6892638921" lon="10.6895555601">
		<tag k="name" v="Mellom-Roksrud" />
		<tag k="place" v="farm" />
		<tag k="ssr:stedsnr" v="240157" />
	</node>
	<node id="-23632" lat="59.6617750018" lon="10.6390166606">
		<tag k="name" v="Tverkjegla" />
		<tag k="place" v="farm" />
		<tag k="ssr:stedsnr" v="240041" />
	</node>
	<node id="-23628" lat="59.6495249978" lon="10.6462444433">
		<tag k="name" v="Nordre Elle" />
		<tag k="place" v="farm" />
		<tag k="ssr:stedsnr" v="221991" />
	</node>
	<node id="-23627" lat="59.702849996" lon="10.6178666602">
		<tag k="name" v="Søndre Hallangen" />
		<tag k="place" v="farm" />
		<tag k="ssr:stedsnr" v="221865" />
	</node>
	<node id="-23626" lat="59.7698722189" lon="10.7119861061">
		<tag k="name" v="Skirstad" />
		<tag k="place" v="farm" />
		<tag k="ssr:stedsnr" v="221589" />
	</node>
	<node id="-23625" lat="59.7122972235" lon="10.650394449">
		<tag k="fixme" v="multiple name tags, choose one and add the other to alt_name" />
		<tag k="name" v="Berget;Holtberget" />
		<tag k="place" v="farm" />
		<tag k="ssr:stedsnr" v="221570" />
	</node>
	<node id="-23621" lat="59.7477611073" lon="10.6980055627">
		<tag k="name" v="Vestre Dal" />
		<tag k="place" v="farm" />
		<tag k="ssr:stedsnr" v="221408" />
	</node>
	<node id="-23616" lat="59.7578305583" lon="10.6719749957">
		<tag k="name" v="Nordre Kai" />
		<tag k="place" v="farm" />
		<tag k="ssr:stedsnr" v="221274" />
	</node>
	<node id="-23615" lat="59.6838333319" lon="10.701288891">
		<tag k="name" v="Nordre Rød" />
		<tag k="place" v="farm" />
		<tag k="ssr:stedsnr" v="221135" />
	</node>
	<node id="-23614" lat="59.7303972215" lon="10.7079583256">
		<tag k="name" v="Østre Bøler" />
		<tag k="place" v="farm" />
		<tag k="ssr:stedsnr" v="221451" />
	</node>
	<node id="-23608" lat="59.6735250009" lon="10.6070777787">
		<tag k="landuse" v="military" />
		<tag k="name" v="Oscarsborg" />
		<tag k="ssr:stedsnr" v="186859" />
	</node>
	<node id="-23607" lat="59.6426999985" lon="10.6410333383">
		<tag k="name" v="Søndre Elle" />
		<tag k="place" v="farm" />
		<tag k="ssr:stedsnr" v="186839" />
	</node>
	<node id="-23606" lat="59.7601444453" lon="10.706125">
		<tag k="alt_name" v="Glenne, nedre" />
		<tag k="name" v="Nedre Glenne" />
		<tag k="place" v="farm" />
		<tag k="ssr:stedsnr" v="186653" />
	</node>
	<node id="-23605" lat="59.690588632" lon="10.7284748082">
		<tag k="fixme" v="consider place=hamlet" />
		<tag k="name" v="Horgen" />
		<tag k="place" v="farm" />
		<tag k="ssr:stedsnr" v="186465" />
	</node>
	<node id="-23393" lat="59.6881833343" lon="10.6687666601">
		<tag k="name" v="Hagen" />
		<tag k="place" v="isolated_dwelling" />
		<tag k="ssr:stedsnr" v="300140" />
	</node>
	<node id="-23601" lat="59.7029833365" lon="10.7044999919">
		<tag k="name" v="Skjønhaug" />
		<tag k="place" v="farm" />
		<tag k="ssr:stedsnr" v="185729" />
	</node>
	<node id="-23600" lat="59.7056638897" lon="10.6735833289">
		<tag k="name" v="Holt" />
		<tag k="place" v="farm" />
		<tag k="ssr:stedsnr" v="185727" />
	</node>
	<node id="-23599" lat="59.7271777763" lon="10.6704250003">
		<tag k="name" v="Tassebråten" />
		<tag k="place" v="farm" />
		<tag k="ssr:stedsnr" v="185770" />
	</node>
	<node id="-23596" lat="59.6871027817" lon="10.6794972212">
		<tag k="name" v="Øvre Tomter" />
		<tag k="place" v="farm" />
		<tag k="ssr:stedsnr" v="179149" />
	</node>
	<node id="-23651" lat="59.7695249956" lon="10.7130833377">
		<tag k="name" v="Solbukta" />
		<tag k="place" v="isolated_dwelling" />
		<tag k="ssr:stedsnr" v="247606" />
	</node>
	<node id="-23590" lat="59.6330666644" lon="10.668549994">
		<tag k="name" v="Øvre Kroksrud" />
		<tag k="place" v="farm" />
		<tag k="ssr:stedsnr" v="160451" />
	</node>
	<node id="-23589" lat="59.737972226" lon="10.6798611127">
		<tag k="name" v="Møglestu" />
		<tag k="place" v="isolated_dwelling" />
		<tag k="ssr:stedsnr" v="160382" />
	</node>
	<node id="-23587" lat="59.7048055545" lon="10.6283416703">
		<tag k="name" v="Høybråtenfeltet" />
		<tag k="place" v="quarter" />
		<tag k="ssr:stedsnr" v="160349" />
	</node>
	<node id="-23586" lat="59.7182500045" lon="10.6253861114">
		<tag k="name" v="Nordre Hallangen" />
		<tag k="place" v="hamlet" />
		<tag k="ssr:stedsnr" v="160342" />
	</node>
	<node id="-23584" lat="59.7043361088" lon="10.7357805605">
		<tag k="name" v="Frydenlund" />
		<tag k="place" v="farm" />
		<tag k="ssr:stedsnr" v="160339" />
	</node>
	<node id="-23583" lat="59.7711472224" lon="10.6827722188">
		<tag k="name" v="Nordre Gullerud" />
		<tag k="place" v="farm" />
		<tag k="ssr:stedsnr" v="160257" />
	</node>
	<node id="-23582" lat="59.7664916693" lon="10.6948444368">
		<tag k="name" v="Høyendal" />
		<tag k="place" v="isolated_dwelling" />
		<tag k="ssr:stedsnr" v="160255" />
	</node>
	<node id="-23581" lat="59.6829416707" lon="10.7006749931">
		<tag k="name" v="Søndre Rød" />
		<tag k="place" v="farm" />
		<tag k="ssr:stedsnr" v="160127" />
	</node>
	<node id="-23578" lat="59.7056638896" lon="10.6629027806">
		<tag k="name" v="Holthagen" />
		<tag k="place" v="farm" />
		<tag k="ssr:stedsnr" v="160408" />
	</node>
	<node id="-23392" lat="59.6664527745" lon="10.6355194401">
		<tag k="amenity" v="townhall" />
		<tag k="name" v="Frogn rådhus" />
		<tag k="ssr:stedsnr" v="300070" />
	</node>
	<node id="-23572" lat="59.6539277773" lon="10.6510055536">
		<tag k="name" v="Odalen" />
		<tag k="place" v="farm" />
		<tag k="ssr:stedsnr" v="146021" />
	</node>
	<node id="-23571" lat="59.7507749995" lon="10.6618138955">
		<tag k="name" v="Myrvoll" />
		<tag k="place" v="isolated_dwelling" />
		<tag k="ssr:stedsnr" v="126597" />
	</node>
	<node id="-23569" lat="59.7459462646" lon="10.699214649">
		<tag k="fixme" v="consider place=hamlet" />
		<tag k="name" v="Dal" />
		<tag k="place" v="farm" />
		<tag k="ssr:stedsnr" v="124932" />
	</node>
	<node id="-23566" lat="59.6873499979" lon="10.6651555507">
		<tag k="name" v="Ottarsrud" />
		<tag k="place" v="farm" />
		<tag k="ssr:stedsnr" v="124723" />
	</node>
	<node id="-23564" lat="59.7033222193" lon="10.6977805526">
		<tag k="name" v="Steinhuk" />
		<tag k="place" v="farm" />
		<tag k="ssr:stedsnr" v="124701" />
	</node>
	<node id="-23563" lat="59.6175638912" lon="10.6564888828">
		<tag k="name" v="Køyta" />
		<tag k="place" v="isolated_dwelling" />
		<tag k="ssr:stedsnr" v="119865" />
	</node>
	<node id="-23561" lat="59.6426305547" lon="10.6503083384">
		<tag k="name" v="Leiumåsen" />
		<tag k="place" v="quarter" />
		<tag k="ssr:stedsnr" v="118953" />
	</node>
	<node id="-23559" lat="59.6629083362" lon="10.6694833368">
		<tag k="name" v="Nordre Skorkeberg" />
		<tag k="place" v="farm" />
		<tag k="ssr:stedsnr" v="118538" />
	</node>
	<node id="-23889" lat="59.7113694431" lon="10.7116277824">
		<tag k="name" v="Bråtan" />
		<tag k="place" v="isolated_dwelling" />
		<tag k="ssr:stedsnr" v="828442" />
	</node>
	<node id="-23557" lat="59.6552361125" lon="10.6427972205">
		<tag k="name" v="Søndre Sogsti" />
		<tag k="place" v="farm" />
		<tag k="ssr:stedsnr" v="118515" />
	</node>
	<node id="-23556" lat="59.6755" lon="10.6482111147">
		<tag k="name" v="Søndre Belsjø" />
		<tag k="place" v="farm" />
		<tag k="ssr:stedsnr" v="118380" />
	</node>
	<node id="-23382" lat="59.7432138849" lon="10.6374333276">
		<tag k="name" v="Nordre Gulbjørnrud" />
		<tag k="place" v="farm" />
		<tag k="ssr:stedsnr" v="282458" />
	</node>
	<node id="-23553" lat="59.7001443757" lon="10.7264284705">
		<tag k="fixme" v="consider place=hamlet" />
		<tag k="name" v="Frogn" />
		<tag k="place" v="farm" />
		<tag k="ssr:stedsnr" v="125416" />
	</node>
</osm>
