<?xml version="1.0" encoding="UTF-8"?>
<osm generator="osmapis" version="0.6">
	<node id="-23551" lat="59.6439083318" lon="10.6364777745">
		<tag k="name" v="Ellebukta" />
		<tag k="natural" v="bay" />
		<tag k="ssr:stedsnr" v="100849" />
	</node>
	<node id="-23541" lat="59.6912784252" lon="10.5920793661">
		<tag k="alt_name" v="Tronstadåsen" />
		<tag k="name" v="Tronstadodden" />
		<tag k="natural" v="cape" />
		<tag k="ssr:stedsnr" v="99556" />
	</node>
	<node id="-23537" lat="59.7147361081" lon="10.5535666707">
		<tag k="name" v="Bjørnhuebukta" />
		<tag k="natural" v="bay" />
		<tag k="ssr:stedsnr" v="86152" />
	</node>
	<node id="-23536" lat="59.727208333" lon="10.5891472217">
		<tag k="name" v="Sandtangen" />
		<tag k="natural" v="cape" />
		<tag k="ssr:stedsnr" v="86140" />
	</node>
	<node id="-23535" lat="59.7002638898" lon="10.6016777705">
		<tag k="name" v="Revjeodden" />
		<tag k="natural" v="cape" />
		<tag k="ssr:stedsnr" v="86137" />
	</node>
	<node id="-23531" lat="59.6750972186" lon="10.5987888817">
		<tag k="name" v="Håøytangen" />
		<tag k="natural" v="cape" />
		<tag k="ssr:stedsnr" v="85859" />
	</node>
	<node id="-23521" lat="59.7064388927" lon="10.5541777805">
		<tag k="name" v="Dragsundodden" />
		<tag k="natural" v="cape" />
		<tag k="ssr:stedsnr" v="58848" />
	</node>
	<node id="-23518" lat="59.7529166649" lon="10.7145888846">
		<tag k="name" v="Brevikbukta" />
		<tag k="natural" v="bay" />
		<tag k="ssr:stedsnr" v="58465" />
	</node>
	<node id="-23515" lat="59.7579944446" lon="10.5825277692">
		<tag k="name" v="Hammaren" />
		<tag k="natural" v="cape" />
		<tag k="ssr:stedsnr" v="56050" />
	</node>
	<node id="-23501" lat="59.6909194453" lon="10.6057444445">
		<tag k="fixme" v="consider seamark:type=rock or natural=shoal" />
		<tag k="name" v="Dronninga" />
		<tag k="place" v="islet" />
		<tag k="ssr:stedsnr" v="26107" />
	</node>
	<node id="-23500" lat="59.7640444445" lon="10.7124722217">
		<tag k="fixme" v="consider seamark:type=rock or natural=shoal" />
		<tag k="name" v="Storskjær" />
		<tag k="place" v="islet" />
		<tag k="ssr:stedsnr" v="25273" />
	</node>
	<node id="-23498" lat="59.7031833328" lon="10.5622361168">
		<tag k="name" v="Håøybukta" />
		<tag k="natural" v="bay" />
		<tag k="ssr:stedsnr" v="25091" />
	</node>
	<node id="-23497" lat="59.6840888904" lon="10.550833331">
		<tag k="bay" v="fjord" />
		<tag k="name" v="Håøyfjorden" />
		<tag k="natural" v="bay" />
		<tag k="ssr:stedsnr" v="25086" />
	</node>
	<node id="-23496" lat="59.6890249975" lon="10.6238277802">
		<tag k="fixme" v="consider seamark:type=rock or natural=shoal" />
		<tag k="name" v="Gylteskjæra" />
		<tag k="place" v="islet" />
		<tag k="ssr:stedsnr" v="25059" />
	</node>
	<node id="-23487" lat="59.7023972226" lon="10.5902111098">
		<tag k="name" v="Askholmene" />
		<tag k="place" v="islet" />
		<tag k="ssr:stedsnr" v="3738" />
	</node>
	<node id="-23976" lat="59.7678472198" lon="10.7115805494">
		<tag k="name" v="Solbukta" />
		<tag k="natural" v="bay" />
		<tag k="ssr:stedsnr" v="966772" />
	</node>
	<node id="-23964" lat="59.6927555593" lon="10.6062055521">
		<tag k="name" v="Sandbukta" />
		<tag k="natural" v="bay" />
		<tag k="ssr:stedsnr" v="936095" />
	</node>
	<node id="-23961" lat="59.7022999963" lon="10.6289833378">
		<tag k="alt_name" v="Pollebukta" />
		<tag k="name" v="Pollen" />
		<tag k="natural" v="bay" />
		<tag k="ssr:stedsnr" v="935210" />
	</node>
	<node id="-23959" lat="59.6941000039" lon="10.6281416611">
		<tag k="name" v="Furuholmen" />
		<tag k="place" v="islet" />
		<tag k="ssr:stedsnr" v="935048" />
	</node>
	<node id="-23957" lat="59.7600472203" lon="10.5444722186">
		<tag k="name" v="Langårgrunnane" />
		<tag k="natural" v="shoal" />
		<tag k="place" v="locality" />
		<tag k="ssr:stedsnr" v="915615" />
	</node>
	<node id="-23953" lat="59.6746805527" lon="10.5883777817">
		<tag k="name" v="Bergholmen" />
		<tag k="place" v="islet" />
		<tag k="ssr:stedsnr" v="914849" />
	</node>
	<node id="-23950" lat="59.7115361129" lon="10.564350007">
		<tag k="alt_name" v="Selskjæret" />
		<tag k="name" v="Selskjæra" />
		<tag k="place" v="islet" />
		<tag k="ssr:stedsnr" v="913801" />
	</node>
	<node id="-23437" lat="59.6846444428" lon="10.62153611">
		<tag k="name" v="Gylteholmen" />
		<tag k="place" v="island" />
		<tag k="ssr:stedsnr" v="384632" />
	</node>
	<node id="-23948" lat="59.7177805551" lon="10.5668611027">
		<tag k="alt_name" v="Rissan" />
		<tag k="name" v="Ristodden" />
		<tag k="natural" v="cape" />
		<tag k="ssr:stedsnr" v="913776" />
	</node>
	<node id="-23434" lat="59.7736666707" lon="10.7123055629">
		<tag k="alt_name" v="Hasletangen" />
		<tag k="name" v="Haslumtangen" />
		<tag k="natural" v="cape" />
		<tag k="ssr:stedsnr" v="369580" />
	</node>
	<node id="-23433" lat="59.6650972263" lon="10.6122861054">
		<tag k="name" v="Småskjær" />
		<tag k="place" v="islet" />
		<tag k="ssr:stedsnr" v="368883" />
	</node>
	<node id="-23432" lat="59.734625001" lon="10.5653361077">
		<tag k="name" v="Lågøya" />
		<tag k="place" v="islet" />
		<tag k="ssr:stedsnr" v="367960" />
	</node>
	<node id="-23941" lat="59.7453999961" lon="10.5615888935">
		<tag k="name" v="Sydvestgrunnen" />
		<tag k="natural" v="shoal" />
		<tag k="place" v="locality" />
		<tag k="ssr:stedsnr" v="913958" />
	</node>
	<node id="-23939" lat="59.6981444459" lon="10.6345222251">
		<tag k="name" v="Holmebukta" />
		<tag k="natural" v="bay" />
		<tag k="ssr:stedsnr" v="908649" />
	</node>
	<node id="-23938" lat="59.7137444429" lon="10.5630861063">
		<tag k="name" v="Selskjærbukta" />
		<tag k="natural" v="bay" />
		<tag k="ssr:stedsnr" v="907833" />
	</node>
	<node id="-23424" lat="59.7006888916" lon="10.5770500006">
		<tag k="name" v="Kjellerenna" />
		<tag k="place" v="locality" />
		<tag k="ssr:stedsnr" v="361875" />
	</node>
	<node id="-23932" lat="59.7638638922" lon="10.5837138877">
		<tag k="name" v="Nordrebukta" />
		<tag k="natural" v="bay" />
		<tag k="ssr:stedsnr" v="906045" />
	</node>
	<node id="-23417" lat="59.6836527745" lon="10.615344447">
		<tag k="name" v="Lyksetodden" />
		<tag k="natural" v="cape" />
		<tag k="ssr:stedsnr" v="342664" />
	</node>
	<node id="-23928" lat="59.7184861107" lon="10.7162583327">
		<tag k="name" v="Bonnebukta" />
		<tag k="natural" v="bay" />
		<tag k="ssr:stedsnr" v="875253" />
	</node>
	<node id="-23926" lat="59.7119416696" lon="10.5986083371">
		<tag k="name" v="Sønderstøbukta" />
		<tag k="natural" v="bay" />
		<tag k="ssr:stedsnr" v="875153" />
	</node>
	<node id="-23924" lat="59.6526583323" lon="10.6305527718">
		<tag k="name" v="Drøbakbanken" />
		<tag k="natural" v="shoal" />
		<tag k="place" v="locality" />
		<tag k="ssr:stedsnr" v="875017" />
	</node>
	<node id="-23919" lat="59.7550472195" lon="10.5631444487">
		<tag k="alt_name" v="Langåra" />
		<tag k="name" v="Søndre Langåra" />
		<tag k="place" v="island" />
		<tag k="ssr:stedsnr" v="854503" />
	</node>
	<node id="-23405" lat="59.7618499993" lon="10.5460694398">
		<tag k="name" v="Klokkegrunnen" />
		<tag k="natural" v="shoal" />
		<tag k="place" v="locality" />
		<tag k="ssr:stedsnr" v="328108" />
	</node>
	<node id="-23403" lat="59.6669295628" lon="10.6206355143">
		<tag k="alt_name" v="Drøbakgrunna" />
		<tag k="name" v="Drøbakgrunnen" />
		<tag k="natural" v="shoal" />
		<tag k="place" v="locality" />
		<tag k="ssr:stedsnr" v="307869" />
	</node>
	<node id="-23913" lat="59.6828555584" lon="10.6031166586">
		<tag k="name" v="Kaholmgrunnen" />
		<tag k="natural" v="shoal" />
		<tag k="place" v="locality" />
		<tag k="ssr:stedsnr" v="852751" />
	</node>
	<node id="-23902" lat="59.7628916649" lon="10.5652388855">
		<tag k="name" v="Langårrabbane" />
		<tag k="natural" v="shoal" />
		<tag k="place" v="locality" />
		<tag k="ssr:stedsnr" v="845040" />
	</node>
	<node id="-23389" lat="59.7015333356" lon="10.634919452">
		<tag k="name" v="Innerpollen" />
		<tag k="natural" v="bay" />
		<tag k="ssr:stedsnr" v="282934" />
	</node>
	<node id="-23386" lat="59.6401250014" lon="10.6373222249">
		<tag k="name" v="Venteberget" />
		<tag k="natural" v="cape" />
		<tag k="ssr:stedsnr" v="282864" />
	</node>
	<node id="-23385" lat="59.6441222196" lon="10.6358694489">
		<tag k="alt_name" v="Elleskjær" />
		<tag k="fixme" v="consider seamark:type=rock or natural=shoal" />
		<tag k="name" v="Elleskjæret" />
		<tag k="place" v="islet" />
		<tag k="ssr:stedsnr" v="282858" />
	</node>
	<node id="-23438" lat="59.6775138897" lon="10.5720361165">
		<tag k="name" v="Munkhattgrunnen" />
		<tag k="natural" v="shoal" />
		<tag k="place" v="locality" />
		<tag k="ssr:stedsnr" v="388009" />
	</node>
	<node id="-23373" lat="59.707327779" lon="10.6427916691">
		<tag k="name" v="Sanddrettet" />
		<tag k="natural" v="beach" />
		<tag k="place" v="locality" />
		<tag k="ssr:stedsnr" v="282377" />
	</node>
	<node id="-23881" lat="59.7034444418" lon="10.5846083336">
		<tag k="name" v="Askholmflaket" />
		<tag k="natural" v="shoal" />
		<tag k="place" v="locality" />
		<tag k="ssr:stedsnr" v="797843" />
	</node>
	<node id="-23875" lat="59.6908194488" lon="10.6143527849">
		<tag k="name" v="Hallangstangen" />
		<tag k="natural" v="cape" />
		<tag k="ssr:stedsnr" v="791760" />
	</node>
	<node id="-23871" lat="59.698308331" lon="10.5545111039">
		<tag k="name" v="Tåjegrunnen" />
		<tag k="natural" v="shoal" />
		<tag k="place" v="locality" />
		<tag k="ssr:stedsnr" v="786857" />
	</node>
	<node id="-23870" lat="59.7056638848" lon="10.5830249974">
		<tag k="name" v="Søre Torskekrakken" />
		<tag k="natural" v="shoal" />
		<tag k="place" v="locality" />
		<tag k="ssr:stedsnr" v="786838" />
	</node>
	<node id="-23865" lat="59.7547750024" lon="10.7174972246">
		<tag k="name" v="Brevikflua" />
		<tag k="natural" v="shoal" />
		<tag k="place" v="locality" />
		<tag k="ssr:stedsnr" v="786447" />
	</node>
	<node id="-23864" lat="59.6746666694" lon="10.6068444484">
		<tag k="alt_name" v="Kaholmene" />
		<tag k="name" v="Kaholmane" />
		<tag k="place" v="islet" />
		<tag k="ssr:stedsnr" v="786445" />
	</node>
	<node id="-23854" lat="59.6980777783" lon="10.5586777818">
		<tag k="name" v="Tåjebukta" />
		<tag k="natural" v="bay" />
		<tag k="ssr:stedsnr" v="754148" />
	</node>
	<node id="-23853" lat="59.6678500042" lon="10.6257333351">
		<tag k="name" v="Parrstranda" />
		<tag k="natural" v="beach" />
		<tag k="place" v="locality" />
		<tag k="ssr:stedsnr" v="737390" />
	</node>
	<node id="-23851" lat="59.6764000038" lon="10.5865250034">
		<tag k="name" v="Kloasundet" />
		<tag k="natural" v="strait" />
		<tag k="ssr:stedsnr" v="732843" />
	</node>
	<node id="-23847" lat="59.6380111068" lon="10.6412111031">
		<tag k="name" v="Skiphellebukta" />
		<tag k="natural" v="bay" />
		<tag k="ssr:stedsnr" v="731837" />
	</node>
	<node id="-23844" lat="59.6856666677" lon="10.6084583277">
		<tag k="fixme" v="consider seamark:type=rock or natural=shoal" />
		<tag k="name" v="Langebåt" />
		<tag k="place" v="islet" />
		<tag k="ssr:stedsnr" v="731763" />
	</node>
	<node id="-23843" lat="59.6832856666" lon="10.5879767219">
		<tag k="name" v="Håøya" />
		<tag k="place" v="island" />
		<tag k="ssr:stedsnr" v="731740" />
	</node>
	<node id="-23842" lat="59.6985999967" lon="10.6304583365">
		<tag k="name" v="Bollesundet" />
		<tag k="natural" v="bay" />
		<tag k="ssr:stedsnr" v="725856" />
	</node>
	<node id="-23840" lat="59.6992694418" lon="10.5883194507">
		<tag k="name" v="Askholmgrunnen" />
		<tag k="natural" v="shoal" />
		<tag k="place" v="locality" />
		<tag k="ssr:stedsnr" v="725803" />
	</node>
	<node id="-23837" lat="59.7565333313" lon="10.7160916629">
		<tag k="name" v="Klatten" />
		<tag k="natural" v="shoal" />
		<tag k="place" v="locality" />
		<tag k="ssr:stedsnr" v="724749" />
	</node>
	<node id="-23833" lat="59.638758329" lon="10.6394916702">
		<tag k="fixme" v="multiple name tags, choose one and add the other to alt_name" />
		<tag k="name" v="Elleodden;Skiphelleodden" />
		<tag k="natural" v="cape" />
		<tag k="ssr:stedsnr" v="706879" />
	</node>
	<node id="-23831" lat="59.6661333363" lon="10.6259499935">
		<tag k="name" v="Badeparken" />
		<tag k="natural" v="beach" />
		<tag k="place" v="locality" />
		<tag k="ssr:stedsnr" v="706850" />
	</node>
	<node id="-23825" lat="59.6901027768" lon="10.6246083248">
		<tag k="name" v="Svartvarpgrunnen" />
		<tag k="natural" v="shoal" />
		<tag k="place" v="locality" />
		<tag k="ssr:stedsnr" v="706451" />
	</node>
	<node id="-23426" lat="59.6983000015" lon="10.6033027865">
		<tag k="fixme" v="multiple name tags, choose one and add the other to alt_name" />
		<tag k="name" v="Båtstø;Nordre Båtstø" />
		<tag k="natural" v="cape" />
		<tag k="ssr:stedsnr" v="367736" />
	</node>
	<node id="-23813" lat="59.6956504924" lon="10.6258127323">
		<tag k="name" v="Skorogrunnen" />
		<tag k="natural" v="shoal" />
		<tag k="place" v="locality" />
		<tag k="ssr:stedsnr" v="693109" />
	</node>
	<node id="-23811" lat="59.6782250003" lon="10.6229138837">
		<tag k="name" v="Vindfangerbukta" />
		<tag k="natural" v="bay" />
		<tag k="ssr:stedsnr" v="692063" />
	</node>
	<node id="-23802" lat="59.7565361126" lon="10.7089888852">
		<tag k="name" v="Åsebukta" />
		<tag k="natural" v="bay" />
		<tag k="ssr:stedsnr" v="671597" />
	</node>
	<node id="-23798" lat="59.7227916674" lon="10.5452277696">
		<tag k="name" v="Flågrunnrenna" />
		<tag k="natural" v="strait" />
		<tag k="ssr:stedsnr" v="665836" />
	</node>
	<node id="-23797" lat="59.6821666684" lon="10.5636555517">
		<tag k="name" v="Møkkalassgrunnene" />
		<tag k="natural" v="shoal" />
		<tag k="place" v="locality" />
		<tag k="ssr:stedsnr" v="664860" />
	</node>
	<node id="-23796" lat="59.709530553" lon="10.5885388825">
		<tag k="name" v="Storegrunnen" />
		<tag k="natural" v="shoal" />
		<tag k="place" v="locality" />
		<tag k="ssr:stedsnr" v="664858" />
	</node>
	<node id="-23794" lat="59.6950333359" lon="10.6035611144">
		<tag k="fixme" v="consider seamark:type=rock or natural=shoal" />
		<tag k="name" v="Sandbuktskjæret" />
		<tag k="place" v="islet" />
		<tag k="ssr:stedsnr" v="664523" />
	</node>
	<node id="-23793" lat="59.7222916661" lon="10.7219500086">
		<tag k="name" v="Stakabukta" />
		<tag k="natural" v="bay" />
		<tag k="ssr:stedsnr" v="664417" />
	</node>
	<node id="-23792" lat="59.7448888902" lon="10.7214222169">
		<tag k="name" v="Kølleberget" />
		<tag k="natural" v="shoal" />
		<tag k="place" v="locality" />
		<tag k="ssr:stedsnr" v="664392" />
	</node>
	<node id="-23786" lat="59.6692815329" lon="10.6237269469">
		<tag k="name" v="Brenneripynten" />
		<tag k="natural" v="cape" />
		<tag k="ssr:stedsnr" v="645831" />
	</node>
	<node id="-23780" lat="59.7008511363" lon="10.6332306102">
		<tag k="fixme" v="consider seamark:type=rock or natural=shoal" />
		<tag k="name" v="Storskjæret" />
		<tag k="place" v="islet" />
		<tag k="ssr:stedsnr" v="645450" />
	</node>
	<node id="-23777" lat="59.6741722263" lon="10.6185638855">
		<tag k="name" v="Husvikbåen" />
		<tag k="place" v="locality" />
		<tag k="seamark:type" v="rock" />
		<tag k="ssr:stedsnr" v="645424" />
	</node>
	<node id="-23767" lat="59.6896166685" lon="10.6064999912">
		<tag k="fixme" v="consider seamark:type=rock or natural=shoal" />
		<tag k="name" v="Kongen" />
		<tag k="place" v="islet" />
		<tag k="ssr:stedsnr" v="632119" />
	</node>
	<node id="-23766" lat="59.767822222" lon="10.5500833398">
		<tag k="name" v="Torpene" />
		<tag k="natural" v="shoal" />
		<tag k="place" v="locality" />
		<tag k="ssr:stedsnr" v="631118" />
	</node>
	<node id="-23760" lat="59.6491388862" lon="10.6344416716">
		<tag k="name" v="Torkilstranda" />
		<tag k="natural" v="beach" />
		<tag k="place" v="locality" />
		<tag k="ssr:stedsnr" v="610848" />
	</node>
	<node id="-23755" lat="59.6259361122" lon="10.6474638854">
		<tag k="name" v="Kjeppestadbukta" />
		<tag k="natural" v="bay" />
		<tag k="ssr:stedsnr" v="609643" />
	</node>
	<node id="-23754" lat="59.621691667" lon="10.6483222245">
		<tag k="alt_name" v="Solbergstranda" />
		<tag k="name" v="Solbergstrand" />
		<tag k="natural" v="beach" />
		<tag k="place" v="locality" />
		<tag k="ssr:stedsnr" v="609613" />
	</node>
	<node id="-23751" lat="59.7030472194" lon="10.5787583381">
		<tag k="name" v="Bjellegrunnen" />
		<tag k="natural" v="shoal" />
		<tag k="place" v="locality" />
		<tag k="ssr:stedsnr" v="603829" />
	</node>
	<node id="-23749" lat="59.6960138931" lon="10.6041944503">
		<tag k="name" v="Søndre Båtstø" />
		<tag k="natural" v="cape" />
		<tag k="ssr:stedsnr" v="603544" />
	</node>
	<node id="-23748" lat="59.7226749974" lon="10.7263444455">
		<tag k="fixme" v="consider seamark:type=rock or natural=shoal" />
		<tag k="name" v="Skjæret" />
		<tag k="place" v="islet" />
		<tag k="ssr:stedsnr" v="603421" />
	</node>
	<node id="-23412" lat="59.6937372427" lon="10.6265465274">
		<tag k="fixme" v="consider seamark:type=rock or natural=shoal" />
		<tag k="name" v="Stakaskjæret" />
		<tag k="place" v="islet" />
		<tag k="ssr:stedsnr" v="342418" />
	</node>
	<node id="-23730" lat="59.7070361113" lon="10.5569416637">
		<tag k="name" v="Dragsundet" />
		<tag k="natural" v="bay" />
		<tag k="ssr:stedsnr" v="571144" />
	</node>
	<node id="-23729" lat="59.6731527824" lon="10.6160999938">
		<tag k="name" v="Drøbaksundet" />
		<tag k="natural" v="strait" />
		<tag k="ssr:stedsnr" v="571089" />
	</node>
	<node id="-23728" lat="59.6784250016" lon="10.606655549">
		<tag k="name" v="Nordre Kaholmen" />
		<tag k="place" v="islet" />
		<tag k="ssr:stedsnr" v="571086" />
	</node>
	<node id="-23720" lat="59.7074472238" lon="10.5569944424">
		<tag k="alt_name" v="Dragsund, vestre" />
		<tag k="name" v="Vestre Dragsund" />
		<tag k="natural" v="bay" />
		<tag k="ssr:stedsnr" v="549799" />
	</node>
	<node id="-23719" lat="59.7216388877" lon="10.5475694364">
		<tag k="name" v="Flågrunnen" />
		<tag k="natural" v="shoal" />
		<tag k="place" v="locality" />
		<tag k="ssr:stedsnr" v="549779" />
	</node>
	<node id="-23718" lat="59.7196055539" lon="10.5553749974">
		<tag k="fixme" v="multiple name tags, choose one and add the other to alt_name" />
		<tag k="name" v="Djupebukta;Nordbukta" />
		<tag k="natural" v="bay" />
		<tag k="ssr:stedsnr" v="549772" />
	</node>
	<node id="-23716" lat="59.6954277813" lon="10.6284027713">
		<tag k="name" v="Holmegrunnen" />
		<tag k="natural" v="shoal" />
		<tag k="place" v="locality" />
		<tag k="ssr:stedsnr" v="544612" />
	</node>
	<node id="-23715" lat="59.70990278" lon="10.5853916681">
		<tag k="name" v="Nordre Torskekrakken" />
		<tag k="natural" v="shoal" />
		<tag k="place" v="locality" />
		<tag k="ssr:stedsnr" v="543825" />
	</node>
	<node id="-23705" lat="59.7608138907" lon="10.713036115">
		<tag k="name" v="Rosestranda" />
		<tag k="natural" v="beach" />
		<tag k="place" v="locality" />
		<tag k="ssr:stedsnr" v="524389" />
	</node>
	<node id="-23379" lat="59.6858333348" lon="10.617561112">
		<tag k="fixme" v="multiple name tags, choose one and add the other to alt_name" />
		<tag k="name" v="Lortbukta;Nordbukta" />
		<tag k="natural" v="bay" />
		<tag k="ssr:stedsnr" v="282440" />
	</node>
	<node id="-23691" lat="59.6963277774" lon="10.6311833347">
		<tag k="name" v="Sandstrand" />
		<tag k="natural" v="beach" />
		<tag k="place" v="locality" />
		<tag k="ssr:stedsnr" v="482851" />
	</node>
	<node id="-23690" lat="59.6773861094" lon="10.5862722201">
		<tag k="name" v="Geitestranda" />
		<tag k="natural" v="beach" />
		<tag k="place" v="locality" />
		<tag k="ssr:stedsnr" v="482843" />
	</node>
	<node id="-23684" lat="59.7612611132" lon="10.5827166686">
		<tag k="name" v="Sørbukta" />
		<tag k="natural" v="bay" />
		<tag k="ssr:stedsnr" v="481055" />
	</node>
	<node id="-23662" lat="59.7282249982" lon="10.5740055596">
		<tag k="name" v="Aspond" />
		<tag k="place" v="island" />
		<tag k="ssr:stedsnr" v="428774" />
	</node>
	<node id="-23659" lat="59.6985361128" lon="10.5572944452">
		<tag k="name" v="Tåjeodden" />
		<tag k="natural" v="bay" />
		<tag k="ssr:stedsnr" v="422865" />
	</node>
	<node id="-23658" lat="59.6898611083" lon="10.5639083345">
		<tag k="name" v="Revjebukta" />
		<tag k="natural" v="bay" />
		<tag k="ssr:stedsnr" v="422862" />
	</node>
	<node id="-23656" lat="59.7553416701" lon="10.7131305547">
		<tag k="name" v="Odden" />
		<tag k="natural" v="cape" />
		<tag k="ssr:stedsnr" v="422379" />
	</node>
	<node id="-23647" lat="59.674049996" lon="10.6071083315">
		<tag k="name" v="Søndre Kaholmen" />
		<tag k="place" v="islet" />
		<tag k="ssr:stedsnr" v="246835" />
	</node>
	<node id="-23646" lat="59.7152388868" lon="10.550261115">
		<tag k="alt_name" v="Bjørnehuet" />
		<tag k="name" v="Bjørnehue" />
		<tag k="natural" v="cape" />
		<tag k="ssr:stedsnr" v="246756" />
	</node>
	<node id="-23641" lat="59.7159555591" lon="10.5928444445">
		<tag k="name" v="Barkebustranda" />
		<tag k="natural" v="beach" />
		<tag k="place" v="locality" />
		<tag k="ssr:stedsnr" v="240911" />
	</node>
	<node id="-23639" lat="59.6826944419" lon="10.5690638881">
		<tag k="name" v="Parisbukta" />
		<tag k="natural" v="bay" />
		<tag k="ssr:stedsnr" v="240861" />
	</node>
	<node id="-23634" lat="59.7439305552" lon="10.7204833387">
		<tag k="name" v="Dragen" />
		<tag k="natural" v="cape" />
		<tag k="ssr:stedsnr" v="240451" />
	</node>
	<node id="-23612" lat="59.6786499974" lon="10.5835083252">
		<tag k="name" v="Munkehatten" />
		<tag k="natural" v="cape" />
		<tag k="ssr:stedsnr" v="208090" />
	</node>
	<node id="-23611" lat="59.6986361143" lon="10.6252166587">
		<tag k="fixme" v="multiple name tags, choose one and add the other to alt_name" />
		<tag k="name" v="Pollesundet;Svartlagsundet" />
		<tag k="natural" v="strait" />
		<tag k="ssr:stedsnr" v="207233" />
	</node>
	<node id="-23610" lat="59.7598305578" lon="10.5436611133">
		<tag k="name" v="Langårgrunnane" />
		<tag k="natural" v="shoal" />
		<tag k="place" v="locality" />
		<tag k="ssr:stedsnr" v="207113" />
	</node>
	<node id="-23609" lat="59.6760361099" lon="10.6222361058">
		<tag k="alt_name" v="Husvikholmen" />
		<tag k="name" v="Husvik" />
		<tag k="natural" v="cape" />
		<tag k="ssr:stedsnr" v="186860" />
	</node>
	<node id="-23602" lat="59.70376667" lon="10.5747194467">
		<tag k="name" v="Håøygrunnen" />
		<tag k="natural" v="shoal" />
		<tag k="place" v="locality" />
		<tag k="ssr:stedsnr" v="185734" />
	</node>
	<node id="-23598" lat="59.7130555528" lon="10.5970277788">
		<tag k="name" v="Revjetangen" />
		<tag k="natural" v="cape" />
		<tag k="ssr:stedsnr" v="180884" />
	</node>
	<node id="-23597" lat="59.7305055558" lon="10.5689722193">
		<tag k="name" v="Lågøysundet" />
		<tag k="natural" v="strait" />
		<tag k="ssr:stedsnr" v="180754" />
	</node>
	<node id="-23592" lat="59.7214750027" lon="10.570008328">
		<tag k="name" v="Ristsundet" />
		<tag k="natural" v="strait" />
		<tag k="ssr:stedsnr" v="160493" />
	</node>
	<node id="-23577" lat="59.6684583333" lon="10.6252111077">
		<tag k="name" v="Skrivarbukta" />
		<tag k="natural" v="bay" />
		<tag k="ssr:stedsnr" v="160404" />
	</node>
	<node id="-23576" lat="59.7061055556" lon="10.6420555563">
		<tag k="name" v="Mortensbergodden" />
		<tag k="natural" v="cape" />
		<tag k="ssr:stedsnr" v="148663" />
	</node>
	<node id="-23575" lat="59.7635666653" lon="10.7119500075">
		<tag k="name" v="Glennestranda" />
		<tag k="natural" v="beach" />
		<tag k="place" v="locality" />
		<tag k="ssr:stedsnr" v="146246" />
	</node>
	<node id="-23574" lat="59.7054694438" lon="10.6427166654">
		<tag k="alt_name" v="Spervikstranda" />
		<tag k="name" v="Sperrevikstranda" />
		<tag k="natural" v="beach" />
		<tag k="place" v="locality" />
		<tag k="ssr:stedsnr" v="146226" />
	</node>
	<node id="-23573" lat="59.7458555529" lon="10.7202777751">
		<tag k="name" v="Lagodden" />
		<tag k="natural" v="cape" />
		<tag k="ssr:stedsnr" v="146222" />
	</node>
	<node id="-23570" lat="59.7474805568" lon="10.5669527844">
		<tag k="name" v="Sydostgrunnen" />
		<tag k="natural" v="shoal" />
		<tag k="place" v="locality" />
		<tag k="ssr:stedsnr" v="124943" />
	</node>
	<node id="-23568" lat="59.7153888901" lon="10.5594611155">
		<tag k="alt_name" v="Håøya, nordre" />
		<tag k="name" v="Nordre Håøya" />
		<tag k="place" v="island" />
		<tag k="ssr:stedsnr" v="124780" />
	</node>
	<node id="-23567" lat="59.6872583302" lon="10.5622777858">
		<tag k="name" v="Møkkalassa" />
		<tag k="place" v="islet" />
		<tag k="ssr:stedsnr" v="124736" />
	</node>
	<node id="-23565" lat="59.6943444402" lon="10.6252583389">
		<tag k="name" v="Hallangspollen" />
		<tag k="natural" v="bay" />
		<tag k="ssr:stedsnr" v="124709" />
	</node>
	<node id="-23560" lat="59.7009444432" lon="10.5818583392">
		<tag k="name" v="Galteryggen" />
		<tag k="natural" v="shoal" />
		<tag k="place" v="locality" />
		<tag k="ssr:stedsnr" v="118831" />
	</node>
	<node id="-23554" lat="59.7753555566" lon="10.7123555619">
		<tag k="name" v="Sindingbukta" />
		<tag k="natural" v="bay" />
		<tag k="ssr:stedsnr" v="117762" />
	</node>
</osm>
