<?xml version="1.0" encoding="UTF-8"?>
<osm version="0.6" generator="osmapis">
	<node lat="61.67458210491769" lon="4.845935930248153" id="-27868">
		<tag k="fixme" v="consider place=hamlet" />
		<tag k="name" v="Domba" />
		<tag k="place" v="farm" />
		<tag k="ssr:stedsnr" v="8018" />
	</node>
	<node lat="61.665062849830456" lon="4.90095841599395" id="-27869">
		<tag k="fixme" v="consider place=hamlet" />
		<tag k="name" v="Barekstadneset" />
		<tag k="place" v="farm" />
		<tag k="ssr:stedsnr" v="8022" />
	</node>
	<node lat="61.56071944501052" lon="5.067938889859461" id="-27882">
		<tag k="name" v="Djupevågen" />
		<tag k="place" v="farm" />
		<tag k="ssr:stedsnr" v="8796" />
	</node>
	<node lat="61.606697218158615" lon="5.298841671504909" id="-27887">
		<tag k="name" v="Fjellvik" />
		<tag k="place" v="farm" />
		<tag k="ssr:stedsnr" v="8989" />
	</node>
	<node lat="61.899485280951644" lon="5.089166004684663" id="-27900">
		<tag k="fixme" v="consider place=hamlet" />
		<tag k="name" v="Tytingvågen" />
		<tag k="place" v="farm" />
		<tag k="ssr:stedsnr" v="10214" />
	</node>
	<node lat="61.9329240353903" lon="5.225218916235204" id="-27902">
		<tag k="alt_name" v="Sør-pollen" />
		<tag k="fixme" v="consider place=hamlet" />
		<tag k="name" v="Sørpollen" />
		<tag k="place" v="farm" />
		<tag k="ssr:stedsnr" v="10245" />
	</node>
	<node lat="61.57506666838511" lon="5.6408666593129775" id="-27950">
		<tag k="historic" v="shieling" />
		<tag k="name" v="Norestølen" />
		<tag k="place" v="isolated_dwelling" />
		<tag k="ssr:stedsnr" v="30632" />
	</node>
	<node lat="61.62759166837718" lon="5.346213879283354" id="-27953">
		<tag k="name" v="Røyremarka" />
		<tag k="place" v="locality" />
		<tag k="ssr:stedsnr" v="30768" />
	</node>
	<node lat="61.53883889347131" lon="5.301622229323498" id="-27962">
		<tag k="name" v="Tunet" />
		<tag k="place" v="farm" />
		<tag k="ssr:stedsnr" v="31912" />
	</node>
	<node lat="61.59974722236133" lon="5.299372216808684" id="-27964">
		<tag k="historic" v="shieling" />
		<tag k="name" v="Ospedalstølen" />
		<tag k="place" v="isolated_dwelling" />
		<tag k="ssr:stedsnr" v="31966" />
	</node>
	<node lat="61.59690555972045" lon="5.03204723045568" id="-27994">
		<tag k="amenity" v="nursing_home" />
		<tag k="name" v="Flora omsorgssenter" />
		<tag k="ssr:stedsnr" v="239326" />
	</node>
	<node lat="61.59174721983342" lon="5.458858329364698" id="-28003">
		<tag k="name" v="Haugane" />
		<tag k="place" v="farm" />
		<tag k="ssr:stedsnr" v="53771" />
	</node>
	<node lat="61.937097219592935" lon="5.138216662416105" id="-28007">
		<tag k="name" v="Trollebø industriområde" />
		<tag k="place" v="quarter" />
		<tag k="ssr:stedsnr" v="58895" />
	</node>
	<node lat="61.6525553459839" lon="5.004395944197257" id="-28017">
		<tag k="fixme" v="consider place=hamlet" />
		<tag k="name" v="Ura" />
		<tag k="place" v="farm" />
		<tag k="ssr:stedsnr" v="69099" />
	</node>
	<node lat="61.56980852240589" lon="5.589251906614803" id="-28031">
		<tag k="fixme" v="consider place=hamlet" />
		<tag k="name" v="Sætelia" />
		<tag k="place" v="farm" />
		<tag k="ssr:stedsnr" v="69522" />
	</node>
	<node lat="61.568748209339844" lon="5.543347276006849" id="-28032">
		<tag k="fixme" v="consider place=hamlet" />
		<tag k="name" v="Sørdalen" />
		<tag k="place" v="farm" />
		<tag k="ssr:stedsnr" v="69525" />
	</node>
	<node lat="61.705513886428996" lon="5.564186105171803" id="-28044">
		<tag k="historic" v="shieling" />
		<tag k="name" v="Grøndalsstøylen" />
		<tag k="place" v="isolated_dwelling" />
		<tag k="ssr:stedsnr" v="69697" />
	</node>
	<node lat="61.65092499807294" lon="5.2892583308378045" id="-28047">
		<tag k="historic" v="shieling" />
		<tag k="name" v="Rimstølen" />
		<tag k="place" v="isolated_dwelling" />
		<tag k="ssr:stedsnr" v="69889" />
	</node>
	<node lat="61.636377776152564" lon="5.113830555505975" id="-28048">
		<tag k="name" v="Nova" />
		<tag k="place" v="farm" />
		<tag k="ssr:stedsnr" v="69896" />
	</node>
	<node lat="61.930288676523546" lon="5.140279340236269" id="-28051">
		<tag k="fixme" v="consider place=hamlet" />
		<tag k="name" v="Deknepollen" />
		<tag k="place" v="farm" />
		<tag k="ssr:stedsnr" v="70231" />
	</node>
	<node lat="61.99840065799217" lon="5.146076649201043" id="-28054">
		<tag k="fixme" v="consider place=hamlet" />
		<tag k="name" v="Hals" />
		<tag k="place" v="farm" />
		<tag k="ssr:stedsnr" v="71182" />
	</node>
	<node lat="61.62658333431327" lon="4.957113881059135" id="-28112">
		<tag k="name" v="Solstrand" />
		<tag k="place" v="farm" />
		<tag k="ssr:stedsnr" v="103474" />
	</node>
	<node lat="61.53425555233954" lon="5.1954527781638555" id="-28118">
		<tag k="name" v="Indrebø" />
		<tag k="place" v="farm" />
		<tag k="ssr:stedsnr" v="113502" />
	</node>
	<node lat="61.6374777818064" lon="5.075052779555404" id="-28138">
		<tag k="name" v="Saga" />
		<tag k="place" v="farm" />
		<tag k="ssr:stedsnr" v="251095" />
	</node>
	<node lat="61.587038212084735" lon="4.813109393650998" id="-28148">
		<tag k="fixme" v="consider place=hamlet" />
		<tag k="name" v="Skorpa" />
		<tag k="place" v="farm" />
		<tag k="ssr:stedsnr" v="251159" />
	</node>
	<node lat="61.59530555952963" lon="5.055702773440073" id="-28151">
		<tag k="name" v="Nybø" />
		<tag k="place" v="farm" />
		<tag k="ssr:stedsnr" v="251239" />
	</node>
	<node lat="61.51358055824132" lon="5.498424999604904" id="-28157">
		<tag k="historic" v="shieling" />
		<tag k="name" v="Svardalsstøylen" />
		<tag k="place" v="isolated_dwelling" />
		<tag k="ssr:stedsnr" v="251433" />
	</node>
	<node lat="61.54960832928279" lon="5.520994444835036" id="-28161">
		<tag k="historic" v="shieling" />
		<tag k="name" v="Vassetestøylen" />
		<tag k="place" v="isolated_dwelling" />
		<tag k="ssr:stedsnr" v="251459" />
	</node>
	<node lat="61.56552063894319" lon="5.128288031896932" id="-28164">
		<tag k="fixme" v="consider place=hamlet" />
		<tag k="name" v="Sætreskaret" />
		<tag k="place" v="farm" />
		<tag k="ssr:stedsnr" v="251549" />
	</node>
	<node lat="61.54211389118722" lon="5.338725004996192" id="-28169">
		<tag k="name" v="Heggkvia" />
		<tag k="place" v="farm" />
		<tag k="ssr:stedsnr" v="251612" />
	</node>
	<node lat="61.531808329370634" lon="5.356655559660609" id="-28171">
		<tag k="historic" v="shieling" />
		<tag k="name" v="Høydalsstølen" />
		<tag k="place" v="isolated_dwelling" />
		<tag k="ssr:stedsnr" v="251627" />
	</node>
	<node lat="61.57317777951658" lon="5.274794452577719" id="-28217">
		<tag k="alt_name" v="Kjærevik" />
		<tag k="name" v="Kjervik" />
		<tag k="place" v="farm" />
		<tag k="ssr:stedsnr" v="129515" />
	</node>
	<node lat="61.638580221609594" lon="4.8119636984619705" id="-28228">
		<tag k="alt_name" v="Store Batalden" />
		<tag k="fixme" v="consider place=hamlet" />
		<tag k="name" v="Batalden" />
		<tag k="place" v="farm" />
		<tag k="ssr:stedsnr" v="130092" />
	</node>
	<node lat="61.64604444374439" lon="5.33014999971027" id="-28236">
		<tag k="historic" v="shieling" />
		<tag k="name" v="Straumsnesstølen" />
		<tag k="place" v="isolated_dwelling" />
		<tag k="ssr:stedsnr" v="130918" />
	</node>
	<node lat="61.66263333368204" lon="5.361091669409335" id="-28240">
		<tag k="name" v="Hestedalsheia" />
		<tag k="place" v="locality" />
		<tag k="ssr:stedsnr" v="130888" />
	</node>
	<node lat="62.013747225317" lon="5.088813898027502" id="-28257">
		<tag k="alt_name" v="Kongshaugen" />
		<tag k="name" v="Kongshaug" />
		<tag k="place" v="farm" />
		<tag k="ssr:stedsnr" v="253659" />
	</node>
	<node lat="61.64269222811142" lon="5.00540743755919" id="-28270">
		<tag k="fixme" v="consider place=hamlet" />
		<tag k="name" v="Årebrotsvågen" />
		<tag k="place" v="farm" />
		<tag k="ssr:stedsnr" v="150405" />
	</node>
	<node lat="61.58928333492673" lon="5.042869441034449" id="-28314">
		<tag k="name" v="Austvik" />
		<tag k="place" v="locality" />
		<tag k="ssr:stedsnr" v="161660" />
	</node>
	<node lat="61.59855833288227" lon="5.426441663029522" id="-28322">
		<tag k="name" v="Bakkane" />
		<tag k="place" v="farm" />
		<tag k="ssr:stedsnr" v="174131" />
	</node>
	<node lat="61.57411388764629" lon="5.345600007195693" id="-28323">
		<tag k="name" v="Lendinga" />
		<tag k="place" v="farm" />
		<tag k="ssr:stedsnr" v="174142" />
	</node>
	<node lat="61.687247982774245" lon="4.973690694506491" id="-28325">
		<tag k="fixme" v="consider place=hamlet" />
		<tag k="name" v="Storevika" />
		<tag k="place" v="farm" />
		<tag k="ssr:stedsnr" v="174673" />
	</node>
	<node lat="61.933034957071094" lon="5.052456130960719" id="-28330">
		<tag k="fixme" v="consider place=hamlet" />
		<tag k="name" v="Vågsberget" />
		<tag k="place" v="farm" />
		<tag k="ssr:stedsnr" v="263016" />
	</node>
	<node lat="61.57036323417736" lon="5.567515403196242" id="-28370">
		<tag k="fixme" v="consider place=hamlet" />
		<tag k="name" v="Langedal" />
		<tag k="place" v="farm" />
		<tag k="ssr:stedsnr" v="191452" />
	</node>
	<node lat="61.57172083752402" lon="5.304610004510569" id="-28379">
		<tag k="fixme" v="consider place=hamlet" />
		<tag k="name" v="Steinhovden" />
		<tag k="place" v="farm" />
		<tag k="ssr:stedsnr" v="263669" />
	</node>
	<node lat="61.64451944509654" lon="5.400644436095666" id="-28387">
		<tag k="name" v="Leirvika" />
		<tag k="place" v="farm" />
		<tag k="ssr:stedsnr" v="203655" />
	</node>
	<node lat="61.93441705472621" lon="5.105996928512716" id="-28450">
		<tag k="name" v="Skram" />
		<tag k="place" v="hamlet" />
		<tag k="ssr:stedsnr" v="215675" />
	</node>
	<node lat="61.598872226798484" lon="5.03506111515858" id="-28457">
		<tag k="amenity" v="hospital" />
		<tag k="name" v="Florø sykehus" />
		<tag k="ssr:stedsnr" v="224490" />
	</node>
	<node lat="61.62851111195718" lon="4.967905564710483" id="-28480">
		<tag k="name" v="Nærøy" />
		<tag k="place" v="farm" />
		<tag k="ssr:stedsnr" v="454317" />
	</node>
	<node lat="61.59753332983276" lon="5.259358333887678" id="-28518">
		<tag k="name" v="Hovdasteinen" />
		<tag k="place" v="farm" />
		<tag k="ssr:stedsnr" v="456083" />
	</node>
	<node lat="62.01381229303962" lon="5.099045964353198" id="-28535">
		<tag k="fixme" v="consider place=hamlet" />
		<tag k="name" v="Vedvika" />
		<tag k="place" v="farm" />
		<tag k="ssr:stedsnr" v="253649" />
	</node>
	<node lat="61.9788140857797" lon="5.158772790607301" id="-28536">
		<tag k="fixme" v="consider place=hamlet" />
		<tag k="name" v="Hjartaneset" />
		<tag k="place" v="farm" />
		<tag k="ssr:stedsnr" v="253776" />
	</node>
	<node lat="62.01261944561718" lon="5.111255552920312" id="-28542">
		<tag k="name" v="Bakke" />
		<tag k="place" v="farm" />
		<tag k="ssr:stedsnr" v="254603" />
	</node>
	<node lat="61.923063891437295" lon="5.206863897633861" id="-28553">
		<tag k="historic" v="shieling" />
		<tag k="name" v="Gamlestølen" />
		<tag k="place" v="isolated_dwelling" />
		<tag k="ssr:stedsnr" v="457569" />
	</node>
	<node lat="61.57467780012924" lon="5.535404674692176" id="-28559">
		<tag k="fixme" v="consider place=hamlet" />
		<tag k="name" v="Eikevollen" />
		<tag k="place" v="farm" />
		<tag k="ssr:stedsnr" v="263695" />
	</node>
	<node lat="62.01143055390247" lon="5.110205560861239" id="-28620">
		<tag k="name" v="Vedvika" />
		<tag k="place" v="quarter" />
		<tag k="ssr:stedsnr" v="283473" />
	</node>
	<node lat="61.91887222255116" lon="5.130033326951507" id="-28621">
		<tag k="name" v="Blålid" />
		<tag k="place" v="quarter" />
		<tag k="ssr:stedsnr" v="283474" />
	</node>
	<node lat="61.594294448291656" lon="5.043644435296151" id="-28622">
		<tag k="amenity" v="school" />
		<tag k="name" v="Flora vidaregåande skule" />
		<tag k="ssr:stedsnr" v="284528" />
	</node>
	<node lat="61.59451666935461" lon="5.0737277817758155" id="-28624">
		<tag k="fixme" v="consider place=hamlet" />
		<tag k="name" v="Krokelandet" />
		<tag k="place" v="village" />
		<tag k="ssr:stedsnr" v="295397" />
	</node>
	<node lat="61.57351944206376" lon="5.42091943914098" id="-28637">
		<tag k="name" v="Remma" />
		<tag k="place" v="farm" />
		<tag k="ssr:stedsnr" v="311578" />
	</node>
	<node lat="61.66317036906463" lon="4.988697005509322" id="-28642">
		<tag k="fixme" v="consider place=hamlet" />
		<tag k="name" v="Sunnarvåg" />
		<tag k="place" v="farm" />
		<tag k="ssr:stedsnr" v="312026" />
	</node>
	<node lat="61.60487778115092" lon="5.072111114843278" id="-28647">
		<tag k="name" v="Plassane" />
		<tag k="place" v="farm" />
		<tag k="ssr:stedsnr" v="312121" />
	</node>
	<node lat="61.56460555196003" lon="4.793441660204474" id="-28648">
		<tag k="fixme" v="consider place=suburb, village or hamlet" />
		<tag k="name" v="Rognaldsvåg" />
		<tag k="place" v="quarter" />
		<tag k="ssr:stedsnr" v="312202" />
	</node>
	<node lat="61.570711107364346" lon="4.871202774020496" id="-28649">
		<tag k="name" v="Selvåg" />
		<tag k="place" v="farm" />
		<tag k="ssr:stedsnr" v="312180" />
	</node>
	<node lat="61.58560555380826" lon="5.539733332834855" id="-28651">
		<tag k="name" v="Øyraskora" />
		<tag k="place" v="isolated_dwelling" />
		<tag k="ssr:stedsnr" v="312464" />
	</node>
	<node lat="61.58392295387738" lon="5.542726646354463" id="-28653">
		<tag k="fixme" v="consider place=hamlet" />
		<tag k="name" v="Øyra" />
		<tag k="place" v="farm" />
		<tag k="ssr:stedsnr" v="312471" />
	</node>
	<node lat="61.52471389162348" lon="4.926000004123581" id="-28661">
		<tag k="name" v="Ura" />
		<tag k="place" v="farm" />
		<tag k="ssr:stedsnr" v="312728" />
	</node>
	<node lat="61.636672636544425" lon="5.325852303367292" id="-28667">
		<tag k="fixme" v="consider place=hamlet" />
		<tag k="name" v="Straumsneset" />
		<tag k="place" v="farm" />
		<tag k="ssr:stedsnr" v="312902" />
	</node>
	<node lat="61.61101667074413" lon="5.075844444307766" id="-28673">
		<tag k="building" v="industrial" />
		<tag k="industrial" v="factory" />
		<tag k="name" v="Fjord Base" />
		<tag k="ssr:stedsnr" v="466533" />
	</node>
	<node lat="61.95219015350252" lon="5.153415422836705" id="-28675">
		<tag k="fixme" v="consider place=hamlet" />
		<tag k="name" v="Saltkjelen" />
		<tag k="place" v="farm" />
		<tag k="ssr:stedsnr" v="313818" />
	</node>
	<node lat="61.632913884915844" lon="5.045016659381996" id="-28676">
		<tag k="name" v="Otrevik" />
		<tag k="place" v="isolated_dwelling" />
		<tag k="ssr:stedsnr" v="466809" />
	</node>
	<node lat="61.66979166562356" lon="5.4068944420764655" id="-28703">
		<tag k="name" v="Stølen" />
		<tag k="place" v="locality" />
		<tag k="ssr:stedsnr" v="333554" />
	</node>
	<node lat="61.49931110805361" lon="5.254486105109338" id="-28766">
		<tag k="alt_name" v="Svortevik" />
		<tag k="name" v="Svortevika" />
		<tag k="place" v="farm" />
		<tag k="ssr:stedsnr" v="371022" />
	</node>
	<node lat="61.634409466094134" lon="5.041322917953277" id="-28770">
		<tag k="fixme" v="consider place=hamlet" />
		<tag k="name" v="Pusavika" />
		<tag k="place" v="farm" />
		<tag k="ssr:stedsnr" v="372103" />
	</node>
	<node lat="61.60090277876182" lon="5.609691658849964" id="-28797">
		<tag k="historic" v="shieling" />
		<tag k="name" v="Endestadstøylen" />
		<tag k="place" v="isolated_dwelling" />
		<tag k="ssr:stedsnr" v="372755" />
	</node>
	<node lat="61.574595706489205" lon="5.666324482448143" id="-28808">
		<tag k="fixme" v="consider place=hamlet" />
		<tag k="name" v="Humlestøylen" />
		<tag k="place" v="farm" />
		<tag k="ssr:stedsnr" v="373496" />
	</node>
	<node lat="61.91537405002526" lon="5.041473429171522" id="-28812">
		<tag k="fixme" v="consider place=hamlet" />
		<tag k="name" v="Husevåg" />
		<tag k="place" v="village" />
		<tag k="ssr:stedsnr" v="374985" />
	</node>
	<node lat="62.02697968558675" lon="4.996446862007508" id="-28815">
		<tag k="fixme" v="consider place=hamlet" />
		<tag k="name" v="Kråkeneset" />
		<tag k="place" v="farm" />
		<tag k="ssr:stedsnr" v="375637" />
	</node>
	<node lat="61.565172224407206" lon="5.123947222592799" id="-28829">
		<tag k="name" v="Skarekvia" />
		<tag k="place" v="farm" />
		<tag k="ssr:stedsnr" v="393094" />
	</node>
	<node lat="61.66571110789525" lon="4.876200002859793" id="-28834">
		<tag k="name" v="Hundevågneset" />
		<tag k="place" v="farm" />
		<tag k="ssr:stedsnr" v="393302" />
	</node>
	<node lat="61.62807222163222" lon="5.3211972225089035" id="-28881">
		<tag k="historic" v="shieling" />
		<tag k="name" v="Grovastølen" />
		<tag k="place" v="isolated_dwelling" />
		<tag k="ssr:stedsnr" v="395606" />
	</node>
	<node lat="61.88058611293577" lon="5.176736106767137" id="-28887">
		<tag k="alt_name" v="Risøy" />
		<tag k="fixme" v="consider place=hamlet" />
		<tag k="name" v="Risøya" />
		<tag k="place" v="farm" />
		<tag k="ssr:stedsnr" v="397283" />
	</node>
	<node lat="61.634108337538876" lon="5.037911116040281" id="-28911">
		<tag k="name" v="Solly" />
		<tag k="place" v="farm" />
		<tag k="ssr:stedsnr" v="433109" />
	</node>
	<node lat="61.57155833308532" lon="5.289238890725315" id="-28920">
		<tag k="name" v="Kvia" />
		<tag k="place" v="farm" />
		<tag k="ssr:stedsnr" v="433507" />
	</node>
	<node lat="61.576287491058494" lon="5.277780531305077" id="-28921">
		<tag k="fixme" v="consider place=hamlet" />
		<tag k="name" v="Høyvik" />
		<tag k="place" v="farm" />
		<tag k="ssr:stedsnr" v="433515" />
	</node>
	<node lat="61.50217930895224" lon="4.965497884986744" id="-28927">
		<tag k="fixme" v="consider place=hamlet" />
		<tag k="name" v="Sunde" />
		<tag k="place" v="farm" />
		<tag k="ssr:stedsnr" v="433812" />
	</node>
	<node lat="61.67198333360684" lon="5.397149993424642" id="-28932">
		<tag k="name" v="Fessestølen" />
		<tag k="place" v="locality" />
		<tag k="ssr:stedsnr" v="433904" />
	</node>
	<node lat="61.593469447081105" lon="5.448755552829758" id="-28935">
		<tag k="name" v="Kleiva" />
		<tag k="place" v="farm" />
		<tag k="ssr:stedsnr" v="434470" />
	</node>
	<node lat="61.64556111301937" lon="5.290924998091956" id="-28942">
		<tag k="name" v="Øyrane" />
		<tag k="place" v="isolated_dwelling" />
		<tag k="ssr:stedsnr" v="434920" />
	</node>
	<node lat="61.989857006309975" lon="5.044348082082781" id="-28948">
		<tag k="fixme" v="consider place=hamlet" />
		<tag k="name" v="Ytre Kvalheim" />
		<tag k="place" v="farm" />
		<tag k="ssr:stedsnr" v="435975" />
	</node>
	<node lat="61.998924996823284" lon="5.08186667559541" id="-28949">
		<tag k="name" v="Refvika" />
		<tag k="place" v="farm" />
		<tag k="ssr:stedsnr" v="435977" />
	</node>
	<node lat="61.56783333074905" lon="5.598455546923782" id="-28970">
		<tag k="name" v="Åsen" />
		<tag k="place" v="farm" />
		<tag k="ssr:stedsnr" v="493492" />
	</node>
	<node lat="61.57829887437743" lon="5.368766128877489" id="-28975">
		<tag k="name" v="Teigen" />
		<tag k="ssr:stedsnr" v="493544" />
		<tag k="tourism" v="hotel" />
	</node>
	<node lat="61.501944441262275" lon="5.253269449482043" id="-28977">
		<tag k="name" v="Droga" />
		<tag k="place" v="farm" />
		<tag k="ssr:stedsnr" v="493639" />
	</node>
	<node lat="61.61503888507585" lon="5.211352769937176" id="-28978">
		<tag k="name" v="Vika" />
		<tag k="place" v="farm" />
		<tag k="ssr:stedsnr" v="493965" />
	</node>
	<node lat="61.66500277366289" lon="4.939508338268799" id="-28979">
		<tag k="name" v="Gåsøy" />
		<tag k="place" v="farm" />
		<tag k="ssr:stedsnr" v="494022" />
	</node>
	<node lat="61.69435705194943" lon="4.985658146737017" id="-28983">
		<tag k="fixme" v="consider place=hamlet" />
		<tag k="name" v="Husefest" />
		<tag k="place" v="farm" />
		<tag k="ssr:stedsnr" v="494052" />
	</node>
	<node lat="61.59198526499581" lon="4.866378837323075" id="-28986">
		<tag k="alt_name" v="Skorpeeidet" />
		<tag k="fixme" v="consider place=hamlet" />
		<tag k="name" v="Skorpeidet" />
		<tag k="place" v="farm" />
		<tag k="ssr:stedsnr" v="494135" />
	</node>
	<node lat="61.54047777523426" lon="5.287586118049209" id="-28997">
		<tag k="name" v="Plassen" />
		<tag k="place" v="farm" />
		<tag k="ssr:stedsnr" v="494551" />
	</node>
	<node lat="61.5400361150584" lon="5.265511102041582" id="-28998">
		<tag k="name" v="Myra" />
		<tag k="place" v="farm" />
		<tag k="ssr:stedsnr" v="494552" />
	</node>
	<node lat="61.53758611223085" lon="5.328130555896159" id="-28999">
		<tag k="name" v="Lia" />
		<tag k="place" v="farm" />
		<tag k="ssr:stedsnr" v="494553" />
	</node>
	<node lat="61.52458888887682" lon="5.465436110380966" id="-29001">
		<tag k="name" v="Øyrakvia" />
		<tag k="place" v="locality" />
		<tag k="ssr:stedsnr" v="494585" />
	</node>
	<node lat="61.510350001871565" lon="5.222719437322578" id="-29004">
		<tag k="name" v="Tyvoll" />
		<tag k="place" v="farm" />
		<tag k="ssr:stedsnr" v="494592" />
	</node>
	<node lat="61.62246111530088" lon="5.580386114677022" id="-29005">
		<tag k="name" v="Oppheim" />
		<tag k="place" v="farm" />
		<tag k="ssr:stedsnr" v="494694" />
	</node>
	<node lat="61.65628834066159" lon="5.474615294680457" id="-29007">
		<tag k="fixme" v="consider place=hamlet" />
		<tag k="name" v="Solheim" />
		<tag k="place" v="farm" />
		<tag k="ssr:stedsnr" v="494646" />
	</node>
	<node lat="61.53048055543617" lon="4.921966675694701" id="-29008">
		<tag k="name" v="Hagen" />
		<tag k="place" v="locality" />
		<tag k="ssr:stedsnr" v="494731" />
	</node>
	<node lat="61.937350001704615" lon="5.052391661682514" id="-29059">
		<tag k="fixme" v="consider place=hamlet" />
		<tag k="name" v="Våge" />
		<tag k="place" v="village" />
		<tag k="ssr:stedsnr" v="457411" />
	</node>
	<node lat="61.57946730359711" lon="4.993442243871882" id="-29078">
		<tag k="fixme" v="consider place=hamlet" />
		<tag k="name" v="Furesund" />
		<tag k="place" v="farm" />
		<tag k="ssr:stedsnr" v="675283" />
	</node>
	<node lat="61.49884772469188" lon="5.077863806874239" id="-29079">
		<tag k="fixme" v="consider place=hamlet" />
		<tag k="name" v="Erikstad" />
		<tag k="place" v="farm" />
		<tag k="ssr:stedsnr" v="675381" />
	</node>
	<node lat="61.58292282128714" lon="5.452377335013568" id="-29095">
		<tag k="name" v="Hella" />
		<tag k="place" v="farm" />
		<tag k="ssr:stedsnr" v="676529" />
	</node>
	<node lat="61.50582499962777" lon="5.097288881039132" id="-29097">
		<tag k="name" v="Heggøy" />
		<tag k="place" v="farm" />
		<tag k="ssr:stedsnr" v="676615" />
	</node>
	<node lat="61.57819721896317" lon="5.612269452368672" id="-29100">
		<tag k="historic" v="shieling" />
		<tag k="name" v="Sætelistøylen" />
		<tag k="place" v="isolated_dwelling" />
		<tag k="ssr:stedsnr" v="676474" />
	</node>
	<node lat="61.52653333654702" lon="5.184855553815812" id="-29104">
		<tag k="name" v="Myra" />
		<tag k="place" v="farm" />
		<tag k="ssr:stedsnr" v="676579" />
	</node>
	<node lat="61.631620987638364" lon="5.173959688971899" id="-29116">
		<tag k="fixme" v="consider place=hamlet" />
		<tag k="loc_name" v="Klauvene" />
		<tag k="name" v="Klauva" />
		<tag k="place" v="farm" />
		<tag k="ssr:stedsnr" v="676930" />
	</node>
	<node lat="61.60416389028393" lon="5.142633329530004" id="-29125">
		<tag k="name" v="Sundet" />
		<tag k="place" v="farm" />
		<tag k="ssr:stedsnr" v="676959" />
	</node>
	<node lat="61.971272180466855" lon="5.070952103126915" id="-29134">
		<tag k="fixme" v="consider place=hamlet" />
		<tag k="name" v="Nordoppedalen" />
		<tag k="place" v="farm" />
		<tag k="ssr:stedsnr" v="477967" />
	</node>
	<node lat="61.94905194002632" lon="5.052845123312641" id="-29137">
		<tag k="name" v="Gravdal" />
		<tag k="place" v="farm" />
		<tag k="ssr:stedsnr" v="478504" />
	</node>
	<node lat="61.95952505605484" lon="5.042349885827231" id="-29139">
		<tag k="fixme" v="consider place=hamlet" />
		<tag k="name" v="Færestranda" />
		<tag k="place" v="farm" />
		<tag k="ssr:stedsnr" v="677956" />
	</node>
	<node lat="61.98637221908307" lon="5.117566660808782" id="-29142">
		<tag k="name" v="Hagen" />
		<tag k="place" v="farm" />
		<tag k="ssr:stedsnr" v="677875" />
	</node>
	<node lat="61.57121388992438" lon="5.284566674583812" id="-29159">
		<tag k="name" v="Furely" />
		<tag k="place" v="farm" />
		<tag k="ssr:stedsnr" v="493516" />
	</node>
	<node lat="61.50696576668806" lon="4.949786651254311" id="-29168">
		<tag k="fixme" v="consider place=hamlet" />
		<tag k="name" v="Espeset" />
		<tag k="place" v="farm" />
		<tag k="ssr:stedsnr" v="493821" />
	</node>
	<node lat="61.60651111393288" lon="5.022999990249946" id="-29171">
		<tag k="name" v="Rota" />
		<tag k="place" v="isolated_dwelling" />
		<tag k="ssr:stedsnr" v="494124" />
	</node>
	<node lat="61.58711667085909" lon="5.3331861098126" id="-29178">
		<tag k="name" v="Sagevik" />
		<tag k="place" v="farm" />
		<tag k="ssr:stedsnr" v="494474" />
	</node>
	<node lat="61.58367556619138" lon="5.240365933593128" id="-29179">
		<tag k="fixme" v="consider place=hamlet" />
		<tag k="name" v="Seljeset" />
		<tag k="place" v="farm" />
		<tag k="ssr:stedsnr" v="494480" />
	</node>
	<node lat="61.59569444368153" lon="5.4503499992197675" id="-29180">
		<tag k="name" v="Bakkane" />
		<tag k="place" v="farm" />
		<tag k="ssr:stedsnr" v="494487" />
	</node>
	<node lat="61.54614375328218" lon="5.1423099526088025" id="-29181">
		<tag k="fixme" v="consider place=hamlet" />
		<tag k="name" v="Storøy" />
		<tag k="place" v="farm" />
		<tag k="ssr:stedsnr" v="494518" />
	</node>
	<node lat="61.998397219965106" lon="5.089886113798262" id="-29197">
		<tag k="name" v="Refvika" />
		<tag k="place" v="hamlet" />
		<tag k="ssr:stedsnr" v="506008" />
	</node>
	<node lat="61.58736944442056" lon="5.01915833921661" id="-29204">
		<tag k="name" v="Fimlandsmarka" />
		<tag k="place" v="quarter" />
		<tag k="ssr:stedsnr" v="510157" />
	</node>
	<node lat="61.651447224607864" lon="5.474116659456314" id="-29226">
		<tag k="name" v="Nesjane" />
		<tag k="place" v="locality" />
		<tag k="ssr:stedsnr" v="515363" />
	</node>
	<node lat="61.657063886591104" lon="5.4120111172950365" id="-29233">
		<tag k="name" v="Lendinga" />
		<tag k="place" v="locality" />
		<tag k="ssr:stedsnr" v="515640" />
	</node>
	<node lat="62.02232222497743" lon="5.02648611943142" id="-29267">
		<tag k="historic" v="shieling" />
		<tag k="name" v="Setra" />
		<tag k="place" v="isolated_dwelling" />
		<tag k="ssr:stedsnr" v="519321" />
	</node>
	<node lat="61.59819166374734" lon="5.040733331616574" id="-29272">
		<tag k="amenity" v="school" />
		<tag k="name" v="Florø barneskole" />
		<tag k="ssr:stedsnr" v="527523" />
	</node>
	<node lat="61.64859166565362" lon="5.444830564995886" id="-29278">
		<tag k="name" v="Solheim" />
		<tag k="place" v="farm" />
		<tag k="ssr:stedsnr" v="538717" />
	</node>
	<node lat="61.49289999748375" lon="5.121283341633943" id="-29292">
		<tag k="name" v="Solhaug" />
		<tag k="place" v="farm" />
		<tag k="ssr:stedsnr" v="553016" />
	</node>
	<node lat="61.66922765511855" lon="4.887053448964042" id="-29296">
		<tag k="fixme" v="consider place=hamlet" />
		<tag k="name" v="Barekstad" />
		<tag k="place" v="farm" />
		<tag k="ssr:stedsnr" v="554001" />
	</node>
	<node lat="61.62859722117329" lon="4.998686105721887" id="-29304">
		<tag k="name" v="Brotet" />
		<tag k="place" v="farm" />
		<tag k="ssr:stedsnr" v="554075" />
	</node>
	<node lat="61.56904609574966" lon="5.052972624777764" id="-29309">
		<tag k="fixme" v="consider place=hamlet" />
		<tag k="name" v="Veidesund" />
		<tag k="place" v="farm" />
		<tag k="ssr:stedsnr" v="554227" />
	</node>
	<node lat="61.57638333125787" lon="5.44937499097422" id="-29316">
		<tag k="name" v="Leirvåg" />
		<tag k="place" v="farm" />
		<tag k="ssr:stedsnr" v="554578" />
	</node>
	<node lat="61.574538888325876" lon="5.37209166215997" id="-29317">
		<tag k="name" v="Holterheim" />
		<tag k="place" v="farm" />
		<tag k="ssr:stedsnr" v="554582" />
	</node>
	<node lat="61.66826736135084" lon="5.602895993401722" id="-29319">
		<tag k="fixme" v="consider place=hamlet" />
		<tag k="name" v="Sunndalen" />
		<tag k="place" v="farm" />
		<tag k="ssr:stedsnr" v="554720" />
	</node>
	<node lat="61.91737866971136" lon="5.160066727619032" id="-29324">
		<tag k="fixme" v="consider place=hamlet" />
		<tag k="name" v="Tennebø" />
		<tag k="place" v="farm" />
		<tag k="ssr:stedsnr" v="555202" />
	</node>
	<node lat="61.609793402775374" lon="5.131149369889389" id="-29326">
		<tag k="fixme" v="consider place=hamlet" />
		<tag k="name" v="Brandsøy" />
		<tag k="place" v="farm" />
		<tag k="ssr:stedsnr" v="554975" />
	</node>
	<node lat="61.91403434916956" lon="5.231930386156726" id="-29329">
		<tag k="fixme" v="consider place=hamlet" />
		<tag k="name" v="Eldevika" />
		<tag k="place" v="farm" />
		<tag k="ssr:stedsnr" v="555181" />
	</node>
	<node lat="62.00766759613677" lon="5.138626602527944" id="-29339">
		<tag k="fixme" v="consider place=hamlet" />
		<tag k="name" v="Kjerringdalen" />
		<tag k="place" v="farm" />
		<tag k="ssr:stedsnr" v="557610" />
	</node>
	<node lat="61.56838889057242" lon="5.660666674420622" id="-29341">
		<tag k="name" v="Reinene" />
		<tag k="place" v="farm" />
		<tag k="ssr:stedsnr" v="565685" />
	</node>
	<node lat="61.60238055736629" lon="5.1387694534286315" id="-29344">
		<tag k="name" v="Røysa" />
		<tag k="place" v="farm" />
		<tag k="ssr:stedsnr" v="574604" />
	</node>
	<node lat="61.578255552577" lon="5.547983335050619" id="-29359">
		<tag k="name" v="Fossheim" />
		<tag k="place" v="farm" />
		<tag k="ssr:stedsnr" v="576216" />
	</node>
	<node lat="61.59047318263801" lon="5.44553082982253" id="-29419">
		<tag k="fixme" v="consider place=hamlet" />
		<tag k="name" v="Hovlandshamn" />
		<tag k="place" v="farm" />
		<tag k="ssr:stedsnr" v="697440" />
	</node>
	<node lat="61.602747226717106" lon="5.412055557588531" id="-29453">
		<tag k="name" v="Instigarden" />
		<tag k="place" v="farm" />
		<tag k="ssr:stedsnr" v="599717" />
	</node>
	<node lat="61.935322218637715" lon="5.239177778620966" id="-29467">
		<tag k="historic" v="shieling" />
		<tag k="name" v="Godfarsetra" />
		<tag k="place" v="isolated_dwelling" />
		<tag k="ssr:stedsnr" v="699540" />
	</node>
	<node lat="61.4796400552375" lon="5.095710985777692" id="-29486">
		<tag k="fixme" v="consider place=hamlet" />
		<tag k="name" v="Kvalstad" />
		<tag k="place" v="farm" />
		<tag k="ssr:stedsnr" v="614067" />
	</node>
	<node lat="61.628199721852454" lon="5.248828074819236" id="-29500">
		<tag k="fixme" v="consider place=hamlet" />
		<tag k="name" v="Fanevik" />
		<tag k="place" v="farm" />
		<tag k="ssr:stedsnr" v="614955" />
	</node>
	<node lat="61.629236113806485" lon="5.443577773266872" id="-29502">
		<tag k="historic" v="shieling" />
		<tag k="name" v="Solheimsstølen" />
		<tag k="place" v="isolated_dwelling" />
		<tag k="ssr:stedsnr" v="614965" />
	</node>
	<node lat="61.51204166358612" lon="5.246861103316127" id="-29512">
		<tag k="name" v="Leirvika" />
		<tag k="place" v="farm" />
		<tag k="ssr:stedsnr" v="615602" />
	</node>
	<node lat="61.513990839155184" lon="5.284475217309967" id="-29516">
		<tag k="alt_name" v="Standal, øvre" />
		<tag k="fixme" v="consider place=hamlet" />
		<tag k="name" v="Øvre Standal" />
		<tag k="place" v="farm" />
		<tag k="ssr:stedsnr" v="615596" />
	</node>
	<node lat="61.61621111521673" lon="5.569930555825598" id="-29518">
		<tag k="name" v="Lykkjebøen" />
		<tag k="place" v="hamlet" />
		<tag k="ssr:stedsnr" v="615708" />
	</node>
	<node lat="61.94306219752811" lon="5.1487363135133375" id="-29532">
		<tag k="fixme" v="consider place=hamlet" />
		<tag k="name" v="Trollebø" />
		<tag k="place" v="farm" />
		<tag k="ssr:stedsnr" v="616803" />
	</node>
	<node lat="61.98501129330412" lon="5.13795110059566" id="-29535">
		<tag k="fixme" v="consider place=hamlet" />
		<tag k="name" v="Raudeberg" />
		<tag k="place" v="village" />
		<tag k="ssr:stedsnr" v="616891" />
	</node>
	<node lat="61.88878888674877" lon="5.153113881285502" id="-29617">
		<tag k="name" v="Rognelund" />
		<tag k="place" v="farm" />
		<tag k="ssr:stedsnr" v="659838" />
	</node>
	<node lat="61.567091509481656" lon="5.649846541523679" id="-29619">
		<tag k="fixme" v="consider place=hamlet" />
		<tag k="name" v="Svarthumla" />
		<tag k="place" v="farm" />
		<tag k="ssr:stedsnr" v="660503" />
	</node>
	<node lat="61.572283436417855" lon="5.460748843503231" id="-29634">
		<tag k="name" v="Sunnarvik" />
		<tag k="place" v="farm" />
		<tag k="ssr:stedsnr" v="675552" />
	</node>
	<node lat="61.59471361148877" lon="5.0771725786611395" id="-29641">
		<tag k="fixme" v="consider place=hamlet" />
		<tag k="name" v="Krokane" />
		<tag k="place" v="farm" />
		<tag k="ssr:stedsnr" v="676219" />
	</node>
	<node lat="61.51794999951181" lon="5.314211118364873" id="-29657">
		<tag k="name" v="Tungene" />
		<tag k="place" v="locality" />
		<tag k="ssr:stedsnr" v="676594" />
	</node>
	<node lat="61.52094962726906" lon="4.920431890348768" id="-29663">
		<tag k="fixme" v="consider place=hamlet" />
		<tag k="name" v="Valvika" />
		<tag k="place" v="farm" />
		<tag k="ssr:stedsnr" v="676797" />
	</node>
	<node lat="61.602924999331854" lon="5.0639055537933215" id="-29671">
		<tag k="name" v="Solbakken" />
		<tag k="ssr:stedsnr" v="891540" />
		<tag k="tourism" v="guest_house" />
	</node>
	<node lat="61.935344444791006" lon="5.1136583343441595" id="-29673">
		<tag k="name" v="Måløy" />
		<tag k="place" v="town" />
		<tag k="ssr:stedsnr" v="677817" />
	</node>
	<node lat="61.57743611161345" lon="5.70951110478435" id="-29680">
		<tag k="historic" v="shieling" />
		<tag k="name" v="Ramsdalsstøylen" />
		<tag k="place" v="isolated_dwelling" />
		<tag k="ssr:stedsnr" v="687684" />
	</node>
	<node lat="61.53712221968399" lon="5.470449995559936" id="-29711">
		<tag k="name" v="Litleteigen" />
		<tag k="place" v="locality" />
		<tag k="ssr:stedsnr" v="698271" />
	</node>
	<node lat="61.95271944129605" lon="5.219597232121992" id="-29723">
		<tag k="name" v="Straumssetra" />
		<tag k="place" v="farm" />
		<tag k="ssr:stedsnr" v="700605" />
	</node>
	<node lat="61.5696972228759" lon="4.831347227545439" id="-29764">
		<tag k="name" v="Nesjane" />
		<tag k="place" v="farm" />
		<tag k="ssr:stedsnr" v="736203" />
	</node>
	<node lat="61.566894448405" lon="4.808288879563897" id="-29765">
		<tag k="alt_name" v="Rindemyra" />
		<tag k="name" v="Rindemyr" />
		<tag k="place" v="farm" />
		<tag k="ssr:stedsnr" v="736204" />
	</node>
	<node lat="61.56142396482489" lon="4.769716202932392" id="-29766">
		<tag k="fixme" v="consider place=hamlet" />
		<tag k="name" v="Kinn" />
		<tag k="place" v="farm" />
		<tag k="ssr:stedsnr" v="736224" />
	</node>
	<node lat="61.57110833360258" lon="5.276341672262585" id="-29768">
		<tag k="name" v="Solstrand" />
		<tag k="place" v="farm" />
		<tag k="ssr:stedsnr" v="736513" />
	</node>
	<node lat="61.61788593849714" lon="5.258696179415057" id="-29772">
		<tag k="alt_name" v="Uføret" />
		<tag k="fixme" v="consider place=hamlet" />
		<tag k="name" v="Uførene" />
		<tag k="place" v="farm" />
		<tag k="ssr:stedsnr" v="736938" />
	</node>
	<node lat="61.59630555582105" lon="5.0916500058534115" id="-29775">
		<tag k="name" v="Orheim" />
		<tag k="place" v="farm" />
		<tag k="ssr:stedsnr" v="737203" />
	</node>
	<node lat="61.61415327088365" lon="5.21986341474702" id="-29777">
		<tag k="fixme" v="consider place=hamlet" />
		<tag k="name" v="Bjørnset" />
		<tag k="place" v="farm" />
		<tag k="ssr:stedsnr" v="736965" />
	</node>
	<node lat="61.574841663757034" lon="5.540802785299453" id="-29782">
		<tag k="fixme" v="consider place=hamlet" />
		<tag k="name" v="Storebru" />
		<tag k="place" v="village" />
		<tag k="ssr:stedsnr" v="737461" />
	</node>
	<node lat="61.59006111517252" lon="5.446941674068719" id="-29785">
		<tag k="alt_name" v="Hamnen" />
		<tag k="name" v="Hamn" />
		<tag k="place" v="farm" />
		<tag k="ssr:stedsnr" v="737508" />
	</node>
	<node lat="61.61388140304606" lon="5.152534462940032" id="-29790">
		<tag k="name" v="Haugen" />
		<tag k="place" v="farm" />
		<tag k="ssr:stedsnr" v="902382" />
	</node>
	<node lat="61.5424166678772" lon="5.186166671987607" id="-29796">
		<tag k="name" v="Tomasvik" />
		<tag k="place" v="farm" />
		<tag k="ssr:stedsnr" v="902568" />
	</node>
	<node lat="61.511019444089364" lon="5.27736944347853" id="-29797">
		<tag k="name" v="Sørbø" />
		<tag k="place" v="farm" />
		<tag k="ssr:stedsnr" v="902572" />
	</node>
	<node lat="61.949544204521594" lon="5.203756112833579" id="-29798">
		<tag k="fixme" v="consider place=hamlet" />
		<tag k="name" v="Reina" />
		<tag k="place" v="farm" />
		<tag k="ssr:stedsnr" v="738815" />
	</node>
	<node lat="61.98276350587013" lon="5.059109921502498" id="-29803">
		<tag k="fixme" v="consider place=hamlet" />
		<tag k="name" v="Indre Kvalheim" />
		<tag k="place" v="farm" />
		<tag k="ssr:stedsnr" v="738960" />
	</node>
	<node lat="61.64617500429647" lon="5.42220833896366" id="-29805">
		<tag k="name" v="Øya" />
		<tag k="place" v="farm" />
		<tag k="ssr:stedsnr" v="902746" />
	</node>
	<node lat="62.01099121163044" lon="5.138737531389593" id="-29807">
		<tag k="fixme" v="consider place=hamlet" />
		<tag k="name" v="Langeneset" />
		<tag k="place" v="farm" />
		<tag k="ssr:stedsnr" v="739636" />
	</node>
	<node lat="61.57235555549186" lon="5.300736103203537" id="-29813">
		<tag k="name" v="Plassen" />
		<tag k="place" v="farm" />
		<tag k="ssr:stedsnr" v="902931" />
	</node>
	<node lat="61.572333337760305" lon="5.3714833340383485" id="-29815">
		<tag k="name" v="Haugland" />
		<tag k="place" v="farm" />
		<tag k="ssr:stedsnr" v="903128" />
	</node>
	<node lat="61.94706667060534" lon="5.050908324621018" id="-29817">
		<tag k="name" v="Nyborg" />
		<tag k="place" v="isolated_dwelling" />
		<tag k="ssr:stedsnr" v="903467" />
	</node>
	<node lat="61.57904444673951" lon="5.571741667200316" id="-29857">
		<tag k="historic" v="shieling" />
		<tag k="name" v="Villumstølen" />
		<tag k="place" v="isolated_dwelling" />
		<tag k="ssr:stedsnr" v="758718" />
	</node>
	<node lat="61.94539166841004" lon="5.161225007743483" id="-29869">
		<tag k="historic" v="shieling" />
		<tag k="name" v="Setra" />
		<tag k="place" v="isolated_dwelling" />
		<tag k="ssr:stedsnr" v="761316" />
	</node>
	<node lat="61.60164166545342" lon="5.0524444539716855" id="-29888">
		<tag k="building" v="industrial" />
		<tag k="industrial" v="factory" />
		<tag k="name" v="Ankerløkken Verft" />
		<tag k="ssr:stedsnr" v="770509" />
	</node>
	<node lat="61.65667684010331" lon="4.999463091747119" id="-29903">
		<tag k="fixme" v="consider place=hamlet" />
		<tag k="name" v="Kvalvik" />
		<tag k="place" v="farm" />
		<tag k="ssr:stedsnr" v="797108" />
	</node>
	<node lat="61.667938888892664" lon="4.9792944359759055" id="-29910">
		<tag k="name" v="Solberg" />
		<tag k="place" v="farm" />
		<tag k="ssr:stedsnr" v="797007" />
	</node>
	<node lat="61.49162500277568" lon="5.14223888119827" id="-29914">
		<tag k="name" v="Plassen" />
		<tag k="place" v="farm" />
		<tag k="ssr:stedsnr" v="797050" />
	</node>
	<node lat="61.574088893019535" lon="5.404924999161426" id="-29923">
		<tag k="name" v="Porsemyr" />
		<tag k="place" v="farm" />
		<tag k="ssr:stedsnr" v="797553" />
	</node>
	<node lat="61.521567789802226" lon="5.565844863160842" id="-29926">
		<tag k="historic" v="shieling" />
		<tag k="name" v="Kvanngrøstøylen" />
		<tag k="place" v="isolated_dwelling" />
		<tag k="ssr:stedsnr" v="797417" />
	</node>
	<node lat="61.65712499727961" lon="5.5499277869138055" id="-29929">
		<tag k="historic" v="shieling" />
		<tag k="name" v="Midbøstøylen" />
		<tag k="place" v="isolated_dwelling" />
		<tag k="ssr:stedsnr" v="797709" />
	</node>
	<node lat="61.65041666850042" lon="5.468763887486138" id="-29930">
		<tag k="name" v="Nesheim" />
		<tag k="place" v="farm" />
		<tag k="ssr:stedsnr" v="797711" />
	</node>
	<node lat="61.59497140146148" lon="5.217320010519366" id="-29946">
		<tag k="fixme" v="consider place=hamlet" />
		<tag k="name" v="Nyttingnes" />
		<tag k="place" v="farm" />
		<tag k="ssr:stedsnr" v="797998" />
	</node>
	<node lat="61.57200277925953" lon="5.607836105498862" id="-29947">
		<tag k="alt_name" v="Listene" />
		<tag k="name" v="Lista" />
		<tag k="place" v="farm" />
		<tag k="ssr:stedsnr" v="798453" />
	</node>
	<node lat="61.58209388105634" lon="5.330620971978814" id="-29948">
		<tag k="alt_name" v="Barlindbotnen" />
		<tag k="fixme" v="consider place=hamlet" />
		<tag k="name" v="Barlindbotn" />
		<tag k="place" v="farm" />
		<tag k="ssr:stedsnr" v="798461" />
	</node>
	<node lat="61.643026004628204" lon="5.377974708401972" id="-29952">
		<tag k="fixme" v="consider place=hamlet" />
		<tag k="name" v="Norddalsfjord" />
		<tag k="place" v="village" />
		<tag k="ssr:stedsnr" v="798922" />
	</node>
	<node lat="61.93275833276587" lon="5.220897218180051" id="-29957">
		<tag k="name" v="Nybø" />
		<tag k="place" v="farm" />
		<tag k="ssr:stedsnr" v="799251" />
	</node>
	<node lat="61.95579444168584" lon="5.1537249914178425" id="-29959">
		<tag k="name" v="Saltkjelvika" />
		<tag k="place" v="farm" />
		<tag k="ssr:stedsnr" v="799803" />
	</node>
	<node lat="61.96249979288538" lon="5.160468391567891" id="-29960">
		<tag k="fixme" v="consider place=hamlet" />
		<tag k="name" v="Hagevik" />
		<tag k="place" v="farm" />
		<tag k="ssr:stedsnr" v="799788" />
	</node>
	<node lat="61.52501944050891" lon="5.54992223017067" id="-29978">
		<tag k="name" v="Sandbotnen" />
		<tag k="place" v="isolated_dwelling" />
		<tag k="ssr:stedsnr" v="918468" />
	</node>
	<node lat="61.55941981865174" lon="5.489256084984003" id="-29979">
		<tag k="fixme" v="consider place=hamlet" />
		<tag k="name" v="Vasset" />
		<tag k="place" v="farm" />
		<tag k="ssr:stedsnr" v="918550" />
	</node>
	<node lat="61.56340277931288" lon="5.506974997784231" id="-29980">
		<tag k="name" v="Osa" />
		<tag k="place" v="farm" />
		<tag k="ssr:stedsnr" v="918551" />
	</node>
	<node lat="61.57202499663584" lon="5.356627783844353" id="-29985">
		<tag k="name" v="Fagerheim" />
		<tag k="place" v="farm" />
		<tag k="ssr:stedsnr" v="918601" />
	</node>
	<node lat="61.599545238070796" lon="5.032847989334186" id="-29992">
		<tag k="name" v="Florø" />
		<tag k="place" v="village" />
		<tag k="ssr:stedsnr" v="919127" />
	</node>
	<node lat="61.579452779455224" lon="5.588397214023872" id="-30004">
		<tag k="historic" v="shieling" />
		<tag k="name" v="Langedalsstøylen" />
		<tag k="place" v="isolated_dwelling" />
		<tag k="ssr:stedsnr" v="919474" />
	</node>
	<node lat="61.5401526230589" lon="5.274830817209411" id="-30006">
		<tag k="fixme" v="consider place=hamlet" />
		<tag k="name" v="Ausevik" />
		<tag k="place" v="farm" />
		<tag k="ssr:stedsnr" v="919568" />
	</node>
	<node lat="61.53284444743242" lon="5.465344452117105" id="-30011">
		<tag k="name" v="Sæten" />
		<tag k="place" v="farm" />
		<tag k="ssr:stedsnr" v="919586" />
	</node>
	<node lat="61.692747226594165" lon="5.572942570263415" id="-30015">
		<tag k="name" v="Grøndalen" />
		<tag k="place" v="farm" />
		<tag k="ssr:stedsnr" v="919635" />
	</node>
	<node lat="61.58584444293535" lon="5.228444448941676" id="-30030">
		<tag k="name" v="Skorane" />
		<tag k="place" v="isolated_dwelling" />
		<tag k="ssr:stedsnr" v="919966" />
	</node>
	<node lat="61.58558055140123" lon="5.2313222252220255" id="-30031">
		<tag k="name" v="Seljesetplassen" />
		<tag k="place" v="farm" />
		<tag k="ssr:stedsnr" v="919967" />
	</node>
	<node lat="61.61395833522498" lon="5.32844165820691" id="-30034">
		<tag k="alt_name" v="Floten" />
		<tag k="name" v="Flåten" />
		<tag k="place" v="farm" />
		<tag k="ssr:stedsnr" v="919982" />
	</node>
	<node lat="61.996552776522044" lon="5.027938880827605" id="-30047">
		<tag k="name" v="Skjenet" />
		<tag k="place" v="locality" />
		<tag k="ssr:stedsnr" v="920528" />
	</node>
	<node lat="61.99740610961019" lon="5.090479832053291" id="-30066">
		<tag k="fixme" v="consider place=hamlet" />
		<tag k="name" v="Refvika" />
		<tag k="place" v="farm" />
		<tag k="ssr:stedsnr" v="920881" />
	</node>
	<node lat="61.91306388957182" lon="5.21622222503564" id="-30075">
		<tag k="name" v="Falkevik" />
		<tag k="place" v="hamlet" />
		<tag k="ssr:stedsnr" v="822589" />
	</node>
	<node lat="61.653211108095995" lon="5.012552774456923" id="-30088">
		<tag k="alt_name" v="Urdadalen" />
		<tag k="name" v="Uradalen" />
		<tag k="place" v="farm" />
		<tag k="ssr:stedsnr" v="842103" />
	</node>
	<node lat="61.67444455998607" lon="4.972105081186618" id="-30103">
		<tag k="fixme" v="consider place=hamlet" />
		<tag k="name" v="Seljestokken" />
		<tag k="place" v="farm" />
		<tag k="ssr:stedsnr" v="858011" />
	</node>
	<node lat="61.53468611014178" lon="5.463591665621672" id="-30115">
		<tag k="name" v="Teigen" />
		<tag k="place" v="farm" />
		<tag k="ssr:stedsnr" v="858622" />
	</node>
	<node lat="61.51395657240221" lon="4.963395907640837" id="-30117">
		<tag k="fixme" v="consider place=hamlet" />
		<tag k="name" v="Vallestad" />
		<tag k="place" v="farm" />
		<tag k="ssr:stedsnr" v="858819" />
	</node>
	<node lat="61.65862777626971" lon="5.6194444364177345" id="-30128">
		<tag k="historic" v="shieling" />
		<tag k="name" v="Sunndalsstøylen" />
		<tag k="place" v="isolated_dwelling" />
		<tag k="ssr:stedsnr" v="858715" />
	</node>
	<node lat="61.634352628019684" lon="5.241310962181893" id="-30133">
		<tag k="fixme" v="consider place=hamlet" />
		<tag k="name" v="Haukå" />
		<tag k="place" v="farm" />
		<tag k="ssr:stedsnr" v="858915" />
	</node>
	<node lat="61.60499999816718" lon="5.435358325168947" id="-30134">
		<tag k="alt_name" v="Kvalvikstølen" />
		<tag k="historic" v="shieling" />
		<tag k="name" v="Kvalvikstølane" />
		<tag k="place" v="isolated_dwelling" />
		<tag k="ssr:stedsnr" v="858966" />
	</node>
	<node lat="61.60888709462837" lon="5.390172508769973" id="-30137">
		<tag k="fixme" v="consider place=hamlet" />
		<tag k="name" v="Tonheimslia" />
		<tag k="place" v="farm" />
		<tag k="ssr:stedsnr" v="858988" />
	</node>
	<node lat="61.6125744830884" lon="5.349920782064716" id="-30138">
		<tag k="fixme" v="consider place=hamlet" />
		<tag k="name" v="Hatleset" />
		<tag k="place" v="farm" />
		<tag k="ssr:stedsnr" v="858989" />
	</node>
	<node lat="61.89389446496437" lon="5.129111223325876" id="-30140">
		<tag k="fixme" v="consider place=hamlet" />
		<tag k="name" v="Grindøya" />
		<tag k="place" v="farm" />
		<tag k="ssr:stedsnr" v="859177" />
	</node>
	<node lat="61.91963312355361" lon="5.131956403297514" id="-30144">
		<tag k="fixme" v="consider place=hamlet" />
		<tag k="name" v="Blålid" />
		<tag k="place" v="farm" />
		<tag k="ssr:stedsnr" v="859218" />
	</node>
	<node lat="61.93739722237015" lon="5.047827772208515" id="-30154">
		<tag k="name" v="Vågsvåg" />
		<tag k="place" v="village" />
		<tag k="ssr:stedsnr" v="860976" />
	</node>
	<node lat="62.0166540859357" lon="5.202165113155336" id="-30157">
		<tag k="fixme" v="consider place=hamlet" />
		<tag k="name" v="Nordsilda" />
		<tag k="place" v="farm" />
		<tag k="ssr:stedsnr" v="861611" />
	</node>
	<node lat="61.655675002719214" lon="5.540447231004411" id="-30167">
		<tag k="historic" v="shieling" />
		<tag k="name" v="Rusta" />
		<tag k="place" v="isolated_dwelling" />
		<tag k="ssr:stedsnr" v="931680" />
	</node>
	<node lat="61.658949997639" lon="5.439511111860241" id="-30183">
		<tag k="name" v="Kvamane" />
		<tag k="place" v="locality" />
		<tag k="ssr:stedsnr" v="879719" />
	</node>
	<node lat="61.60933333608644" lon="5.1935166582188765" id="-30185">
		<tag k="name" v="Uførsteigen" />
		<tag k="place" v="locality" />
		<tag k="ssr:stedsnr" v="879755" />
	</node>
	<node lat="61.63991389159065" lon="5.377558339659378" id="-30228">
		<tag k="name" v="Sørbakken" />
		<tag k="place" v="farm" />
		<tag k="ssr:stedsnr" v="902323" />
	</node>
	<node lat="61.60169999661419" lon="5.028469450926996" id="-30232">
		<tag k="building" v="civic" />
		<tag k="name" v="Florø havnevesen" />
		<tag k="ssr:stedsnr" v="907316" />
	</node>
	<node lat="61.504198922469264" lon="5.243026876897979" id="-30239">
		<tag k="fixme" v="consider place=hamlet" />
		<tag k="name" v="Svortevik" />
		<tag k="place" v="farm" />
		<tag k="ssr:stedsnr" v="918690" />
	</node>
	<node lat="61.64313055812312" lon="5.005386110484985" id="-30245">
		<tag k="name" v="Årebrotet" />
		<tag k="place" v="farm" />
		<tag k="ssr:stedsnr" v="919109" />
	</node>
	<node lat="61.583296838368696" lon="5.331795277011054" id="-30251">
		<tag k="name" v="Botnavik" />
		<tag k="place" v="farm" />
		<tag k="ssr:stedsnr" v="919504" />
	</node>
	<node lat="61.527023559086985" lon="5.186188586720595" id="-30254">
		<tag k="fixme" v="consider place=hamlet" />
		<tag k="name" v="Stokkebekken" />
		<tag k="place" v="farm" />
		<tag k="ssr:stedsnr" v="919562" />
	</node>
	<node lat="61.607602774422425" lon="5.55702777173913" id="-30256">
		<tag k="name" v="Støylsvika" />
		<tag k="place" v="farm" />
		<tag k="ssr:stedsnr" v="919716" />
	</node>
	<node lat="61.61162499728498" lon="5.597230560403583" id="-30257">
		<tag k="name" v="Barlund" />
		<tag k="place" v="farm" />
		<tag k="ssr:stedsnr" v="919717" />
	</node>
	<node lat="61.60561999022077" lon="5.399859536270338" id="-30263">
		<tag k="fixme" v="consider place=hamlet" />
		<tag k="name" v="Tonheim" />
		<tag k="place" v="farm" />
		<tag k="ssr:stedsnr" v="919960" />
	</node>
	<node lat="61.60114999796899" lon="5.333072223693087" id="-30264">
		<tag k="name" v="Ospedal" />
		<tag k="place" v="farm" />
		<tag k="ssr:stedsnr" v="919994" />
	</node>
	<node lat="61.913754001123564" lon="5.216875577114528" id="-30267">
		<tag k="fixme" v="consider place=hamlet" />
		<tag k="name" v="Falkevika" />
		<tag k="old_name" v="Falkevik" />
		<tag k="place" v="farm" />
		<tag k="ssr:stedsnr" v="920212" />
	</node>
	<node lat="61.9141694404245" lon="5.298450004717137" id="-30268">
		<tag k="name" v="Brunnsvika" />
		<tag k="place" v="farm" />
		<tag k="ssr:stedsnr" v="920214" />
	</node>
	<node lat="62.024152777445885" lon="4.997624993502166" id="-30278">
		<tag k="name" v="Teige" />
		<tag k="place" v="farm" />
		<tag k="ssr:stedsnr" v="921691" />
	</node>
	<node lat="61.59447021195395" lon="5.532008428934458" id="-30284">
		<tag k="historic" v="shieling" />
		<tag k="name" v="Indrestøylen" />
		<tag k="place" v="isolated_dwelling" />
		<tag k="ssr:stedsnr" v="931713" />
	</node>
	<node lat="61.9290166645329" lon="5.080797226306494" id="-30286">
		<tag k="fixme" v="consider place=hamlet" />
		<tag k="name" v="Holvika" />
		<tag k="place" v="farm" />
		<tag k="ssr:stedsnr" v="936452" />
	</node>
	<node lat="61.63425119309862" lon="4.9708448862972725" id="-30325">
		<tag k="fixme" v="consider place=hamlet" />
		<tag k="name" v="Nærøyane" />
		<tag k="place" v="farm" />
		<tag k="ssr:stedsnr" v="973726" />
	</node>
	<node lat="61.545673302301076" lon="5.331091851183732" id="-30326">
		<tag k="fixme" v="consider place=hamlet" />
		<tag k="name" v="Høydalen" />
		<tag k="place" v="farm" />
		<tag k="ssr:stedsnr" v="973782" />
	</node>
	<node lat="61.50012504003974" lon="5.065260821493924" id="-30327">
		<tag k="name" v="Tyvåg" />
		<tag k="place" v="locality" />
		<tag k="ssr:stedsnr" v="973791" />
	</node>
	<node lat="61.58490014564238" lon="5.461662138174597" id="-30329">
		<tag k="name" v="Skaret" />
		<tag k="place" v="farm" />
		<tag k="ssr:stedsnr" v="988631" />
	</node>
	<node lat="61.91026532302696" lon="5.167586796959928" id="-30333">
		<tag k="alt_name" v="Evjen" />
		<tag k="fixme" v="consider place=hamlet" />
		<tag k="name" v="Evja" />
		<tag k="place" v="farm" />
		<tag k="ssr:stedsnr" v="10221" />
	</node>
	<node lat="61.64040277627554" lon="5.001600007781932" id="-30341">
		<tag k="name" v="Vaulen" />
		<tag k="place" v="farm" />
		<tag k="ssr:stedsnr" v="8071" />
	</node>
	<node lat="61.62421847162053" lon="5.088218236883526" id="-30343">
		<tag k="name" v="Terøy" />
		<tag k="place" v="farm" />
		<tag k="ssr:stedsnr" v="8189" />
	</node>
	<node lat="61.563982962288584" lon="5.072014320846098" id="-30354">
		<tag k="fixme" v="consider place=hamlet" />
		<tag k="name" v="Andalen" />
		<tag k="place" v="farm" />
		<tag k="ssr:stedsnr" v="8240" />
	</node>
	<node lat="61.47934444768776" lon="5.079405549927057" id="-30358">
		<tag k="name" v="Trædet" />
		<tag k="place" v="farm" />
		<tag k="ssr:stedsnr" v="8373" />
	</node>
	<node lat="61.531566669925255" lon="5.561883329359809" id="-30363">
		<tag k="historic" v="shieling" />
		<tag k="name" v="Steindalsstøylen" />
		<tag k="place" v="isolated_dwelling" />
		<tag k="ssr:stedsnr" v="8487" />
	</node>
	<node lat="61.570336111641495" lon="5.459472227424325" id="-30367">
		<tag k="name" v="Myra" />
		<tag k="place" v="farm" />
		<tag k="ssr:stedsnr" v="8578" />
	</node>
	<node lat="61.516022220334605" lon="5.335041666950881" id="-30369">
		<tag k="name" v="Gamlestølen" />
		<tag k="place" v="locality" />
		<tag k="ssr:stedsnr" v="8626" />
	</node>
	<node lat="61.50374444488235" lon="4.965413896477626" id="-30370">
		<tag k="name" v="Garvoll" />
		<tag k="place" v="farm" />
		<tag k="ssr:stedsnr" v="8807" />
	</node>
	<node lat="61.622900003578124" lon="5.442849990423637" id="-30374">
		<tag k="name" v="Kvanngrø" />
		<tag k="place" v="locality" />
		<tag k="ssr:stedsnr" v="8948" />
	</node>
</osm>
