<?xml version="1.0" encoding="UTF-8"?>
<osm version="0.6" generator="osmapis">
	<node lat="61.6603999968047" lon="5.264927777708833" id="-30757">
		<tag k="name" v="Svartevatnet" />
		<tag k="natural" v="water" />
		<tag k="ssr:stedsnr" v="8907" />
	</node>
	<node lat="61.52986944781366" lon="5.462519448513509" id="-30763">
		<tag k="name" v="Kleivelva" />
		<tag k="ssr:stedsnr" v="9601" />
		<tag k="waterway" v="stream" />
	</node>
	<node lat="61.581175001660824" lon="5.308866671760528" id="-30765">
		<tag k="alt_name" v="Lommevatnet" />
		<tag k="name" v="Lomevatnet" />
		<tag k="natural" v="water" />
		<tag k="ssr:stedsnr" v="9505" />
	</node>
	<node lat="61.58499722311445" lon="5.2874416757736045" id="-30766">
		<tag k="name" v="Høyvikvatnet" />
		<tag k="natural" v="water" />
		<tag k="ssr:stedsnr" v="9510" />
	</node>
	<node lat="61.63785000427088" lon="5.586508340261608" id="-30769">
		<tag k="name" v="Driva" />
		<tag k="ssr:stedsnr" v="9717" />
		<tag k="waterway" v="stream" />
	</node>
	<node lat="61.6489916688197" lon="5.2558916648618945" id="-30771">
		<tag k="name" v="Tjørnesvatnet" />
		<tag k="natural" v="water" />
		<tag k="ssr:stedsnr" v="9912" />
	</node>
	<node lat="61.64413889297904" lon="5.198605557742491" id="-30772">
		<tag k="name" v="Tåelva" />
		<tag k="ssr:stedsnr" v="9921" />
		<tag k="waterway" v="stream" />
	</node>
	<node lat="61.6928250015943" lon="5.583755550090476" id="-30780">
		<tag k="name" v="Storelvfossen" />
		<tag k="natural" v="waterfall" />
		<tag k="ssr:stedsnr" v="20697" />
	</node>
	<node lat="61.66780555733239" lon="5.421436104326326" id="-30819">
		<tag k="name" v="Fesseneset" />
		<tag k="natural" v="cape" />
		<tag k="ssr:stedsnr" v="30531" />
	</node>
	<node lat="61.69728888792159" lon="5.572694435746583" id="-30820">
		<tag k="name" v="Kvanngrøelva" />
		<tag k="ssr:stedsnr" v="30543" />
		<tag k="waterway" v="river" />
	</node>
	<node lat="61.53952778054444" lon="5.3021250055724956" id="-30836">
		<tag k="name" v="Tunelva" />
		<tag k="ssr:stedsnr" v="31913" />
		<tag k="waterway" v="stream" />
	</node>
	<node lat="62.00248889027003" lon="5.0888000021703075" id="-30851">
		<tag k="name" v="Sandelva" />
		<tag k="ssr:stedsnr" v="33714" />
		<tag k="waterway" v="river" />
	</node>
	<node lat="61.69405000129313" lon="4.989658342316887" id="-30883">
		<tag k="alt_name" v="Litlevatnet" />
		<tag k="name" v="Litlevatn" />
		<tag k="natural" v="water" />
		<tag k="ssr:stedsnr" v="69046" />
	</node>
	<node lat="61.58197222160489" lon="5.633799995167631" id="-30901">
		<tag k="name" v="Kyratjørna" />
		<tag k="natural" v="water" />
		<tag k="ssr:stedsnr" v="69513" />
	</node>
	<node lat="61.5833055589706" lon="5.654772220009322" id="-30902">
		<tag k="name" v="Langevatnet" />
		<tag k="natural" v="water" />
		<tag k="ssr:stedsnr" v="69515" />
		<tag k="water" v="lake" />
	</node>
	<node lat="61.64251944378004" lon="5.301038884789038" id="-30915">
		<tag k="alt_name" v="Haukelivatnet" />
		<tag k="name" v="Haukåvatnet" />
		<tag k="natural" v="water" />
		<tag k="ssr:stedsnr" v="69936" />
		<tag k="water" v="lake" />
	</node>
	<node lat="61.55170000184142" lon="5.512169448675" id="-30925">
		<tag k="alt_name" v="Indre Sagelva" />
		<tag k="name" v="Sagelva" />
		<tag k="ssr:stedsnr" v="70713" />
		<tag k="waterway" v="stream" />
	</node>
	<node lat="61.54136666971867" lon="5.490830549171899" id="-30926">
		<tag k="name" v="Støylsneset" />
		<tag k="natural" v="cape" />
		<tag k="ssr:stedsnr" v="70715" />
	</node>
	<node lat="61.53572499750112" lon="5.25305832857498" id="-30929">
		<tag k="name" v="Sandvikelva" />
		<tag k="ssr:stedsnr" v="71833" />
		<tag k="waterway" v="stream" />
	</node>
	<node lat="61.68810227687548" lon="4.855319614694311" id="-30956">
		<tag k="alt_name" v="Svartomnsvatna" />
		<tag k="name" v="Svartomnsvatnet" />
		<tag k="natural" v="water" />
		<tag k="ssr:stedsnr" v="91223" />
		<tag k="water" v="lake" />
	</node>
	<node lat="61.70105833225659" lon="5.572880555067243" id="-30959">
		<tag k="name" v="Langeneset" />
		<tag k="natural" v="cape" />
		<tag k="ssr:stedsnr" v="91570" />
	</node>
	<node lat="61.53063055610356" lon="5.564247231019062" id="-30961">
		<tag k="name" v="Remmaelva" />
		<tag k="ssr:stedsnr" v="91419" />
		<tag k="waterway" v="river" />
	</node>
	<node lat="61.61062777928771" lon="5.619969439057281" id="-30962">
		<tag k="name" v="Krokstadbugen" />
		<tag k="natural" v="bay" />
		<tag k="ssr:stedsnr" v="91702" />
	</node>
	<node lat="61.57683610859461" lon="5.3465055616749835" id="-30964">
		<tag k="name" v="Pollen" />
		<tag k="natural" v="strait" />
		<tag k="ssr:stedsnr" v="91919" />
	</node>
	<node lat="61.514852777554516" lon="5.271641660249851" id="-30968">
		<tag k="name" v="Bøslettet" />
		<tag k="natural" v="beach" />
		<tag k="ssr:stedsnr" v="92524" />
	</node>
	<node lat="62.030996526289414" lon="4.996751679375691" id="-30972">
		<tag k="name" v="Småmyrvatnet" />
		<tag k="natural" v="water" />
		<tag k="ssr:stedsnr" v="93014" />
		<tag k="water" v="lake" />
	</node>
	<node lat="62.01828333196177" lon="5.040622221594802" id="-30981">
		<tag k="name" v="Alskerelva" />
		<tag k="ssr:stedsnr" v="94399" />
		<tag k="waterway" v="river" />
	</node>
	<node lat="61.53582500154737" lon="5.538463889518558" id="-31035">
		<tag k="name" v="Tverrelvevatnet" />
		<tag k="natural" v="water" />
		<tag k="ssr:stedsnr" v="251470" />
	</node>
	<node lat="61.56919721856392" lon="5.32454165852901" id="-31036">
		<tag k="name" v="Storevatnet" />
		<tag k="natural" v="water" />
		<tag k="ssr:stedsnr" v="251538" />
		<tag k="water" v="lake" />
	</node>
	<node lat="61.58593055939495" lon="5.299266657531393" id="-31040">
		<tag k="name" v="Svartevatnet" />
		<tag k="natural" v="water" />
		<tag k="ssr:stedsnr" v="251528" />
	</node>
	<node lat="61.68383611072187" lon="5.660961118586288" id="-31046">
		<tag k="name" v="Langatjønna" />
		<tag k="natural" v="water" />
		<tag k="ssr:stedsnr" v="251707" />
	</node>
	<node lat="61.66891666214671" lon="5.575308326301994" id="-31047">
		<tag k="name" v="Sunndalsvatnet" />
		<tag k="natural" v="water" />
		<tag k="ssr:stedsnr" v="251712" />
		<tag k="water" v="lake" />
	</node>
	<node lat="61.642436113332" lon="5.497750009053876" id="-31050">
		<tag k="name" v="Indre Fiskevasselva" />
		<tag k="ssr:stedsnr" v="251731" />
		<tag k="waterway" v="stream" />
	</node>
	<node lat="61.69079722047829" lon="5.33037221794974" id="-31057">
		<tag k="name" v="Svartevasselva" />
		<tag k="ssr:stedsnr" v="251888" />
		<tag k="waterway" v="stream" />
	</node>
	<node lat="61.63822222555878" lon="5.147813895404931" id="-31064">
		<tag k="name" v="Svartevatnet" />
		<tag k="natural" v="water" />
		<tag k="ssr:stedsnr" v="251950" />
	</node>
	<node lat="61.675631422018824" lon="5.41674957178309" id="-31071">
		<tag k="name" v="Fessevatnet" />
		<tag k="natural" v="water" />
		<tag k="ssr:stedsnr" v="251927" />
		<tag k="water" v="lake" />
	</node>
	<node lat="61.59749166630982" lon="5.36191388985742" id="-31073">
		<tag k="name" v="Grønevikvatnet" />
		<tag k="natural" v="water" />
		<tag k="ssr:stedsnr" v="251993" />
	</node>
	<node lat="61.62733333349025" lon="5.334880558494205" id="-31075">
		<tag k="alt_name" v="Grovatjørna" />
		<tag k="name" v="Stølsvatnet" />
		<tag k="natural" v="water" />
		<tag k="ssr:stedsnr" v="251969" />
	</node>
	<node lat="61.61772500439715" lon="5.457074995501075" id="-31093">
		<tag k="name" v="Nipevatnet" />
		<tag k="natural" v="water" />
		<tag k="ssr:stedsnr" v="129997" />
	</node>
	<node lat="61.64628610712892" lon="5.010930549257254" id="-31100">
		<tag k="name" v="Kvernhusvatnet" />
		<tag k="natural" v="water" />
		<tag k="ssr:stedsnr" v="130086" />
	</node>
	<node lat="61.64977777604773" lon="5.394502774293403" id="-31110">
		<tag k="alt_name" v="Lommetjørna" />
		<tag k="name" v="Lometjørna" />
		<tag k="natural" v="water" />
		<tag k="ssr:stedsnr" v="130926" />
	</node>
	<node lat="61.65973333656727" lon="5.394399997135744" id="-31112">
		<tag k="name" v="Nesjetjønna" />
		<tag k="natural" v="water" />
		<tag k="ssr:stedsnr" v="130882" />
	</node>
	<node lat="61.55070555159167" lon="5.511188895911798" id="-31118">
		<tag k="fixme" v="multiple name tags, choose one and add the other to alt_name" />
		<tag k="name" v="Støylselva;Ytre Sagelva" />
		<tag k="ssr:stedsnr" v="252680" />
		<tag k="waterway" v="stream" />
	</node>
	<node lat="61.99175555163582" lon="5.145108331007748" id="-31128">
		<tag k="name" v="Røysavatnet" />
		<tag k="natural" v="water" />
		<tag k="ssr:stedsnr" v="252836" />
	</node>
	<node lat="61.98823333372864" lon="5.105177776009909" id="-31129">
		<tag k="name" v="Refvikvatnet" />
		<tag k="natural" v="water" />
		<tag k="ssr:stedsnr" v="252841" />
		<tag k="water" v="lake" />
	</node>
	<node lat="61.55118409837959" lon="5.156019702570452" id="-31139">
		<tag k="name" v="Litlevatnet" />
		<tag k="natural" v="water" />
		<tag k="ssr:stedsnr" v="150012" />
		<tag k="water" v="lake" />
	</node>
	<node lat="61.582697218040245" lon="5.461622214678217" id="-31157">
		<tag k="name" v="Sørelva" />
		<tag k="ssr:stedsnr" v="151171" />
		<tag k="waterway" v="river" />
	</node>
	<node lat="61.61978194811757" lon="5.602313872789682" id="-31164">
		<tag k="name" v="Boltholmen" />
		<tag k="place" v="islet" />
		<tag k="ssr:stedsnr" v="151709" />
	</node>
	<node lat="61.643427777344264" lon="4.773413889891614" id="-31171">
		<tag k="name" v="Skiptåna" />
		<tag k="natural" v="cape" />
		<tag k="ssr:stedsnr" v="151861" />
	</node>
	<node lat="61.66318611095414" lon="5.38409722183837" id="-31175">
		<tag k="name" v="Hestedalsfossen" />
		<tag k="natural" v="waterfall" />
		<tag k="ssr:stedsnr" v="151873" />
	</node>
	<node lat="61.93591666594977" lon="5.104516657755962" id="-31183">
		<tag k="name" v="Skramselva" />
		<tag k="ssr:stedsnr" v="154708" />
		<tag k="waterway" v="stream" />
	</node>
	<node lat="61.945113893095346" lon="5.180216660083065" id="-31184">
		<tag k="name" v="Demma" />
		<tag k="natural" v="water" />
		<tag k="ssr:stedsnr" v="154717" />
		<tag k="water" v="lake" />
	</node>
	<node lat="61.63698185174937" lon="5.023090756387418" id="-31208">
		<tag k="name" v="Gyttane" />
		<tag k="natural" v="water" />
		<tag k="ssr:stedsnr" v="190071" />
	</node>
	<node lat="61.651336110916915" lon="5.012397217915332" id="-31213">
		<tag k="alt_name" v="Uravatnet" />
		<tag k="name" v="Storevatnet" />
		<tag k="natural" v="water" />
		<tag k="ssr:stedsnr" v="190103" />
		<tag k="water" v="lake" />
	</node>
	<node lat="61.544300003443965" lon="5.585894448738957" id="-31220">
		<tag k="name" v="Langevatnet" />
		<tag k="natural" v="water" />
		<tag k="ssr:stedsnr" v="190463" />
	</node>
	<node lat="61.53544444884185" lon="5.581727779866961" id="-31223">
		<tag k="name" v="Klenevatnet" />
		<tag k="natural" v="water" />
		<tag k="ssr:stedsnr" v="190481" />
	</node>
	<node lat="61.515919446460984" lon="5.458669448329442" id="-31224">
		<tag k="alt_name" v="Dalelva" />
		<tag k="name" v="Daleelva" />
		<tag k="ssr:stedsnr" v="190612" />
		<tag k="waterway" v="stream" />
	</node>
	<node lat="61.662444442981204" lon="5.172397217864187" id="-31233">
		<tag k="name" v="Rundevasstjønna" />
		<tag k="natural" v="water" />
		<tag k="ssr:stedsnr" v="190903" />
	</node>
	<node lat="61.636244445436205" lon="5.465650001852716" id="-31235">
		<tag k="name" v="Durmålsfossen" />
		<tag k="natural" v="waterfall" />
		<tag k="ssr:stedsnr" v="190927" />
	</node>
	<node lat="61.59197500320239" lon="5.335477771760136" id="-31237">
		<tag k="name" v="Jagedalsvatnet" />
		<tag k="natural" v="water" />
		<tag k="ssr:stedsnr" v="190976" />
		<tag k="water" v="lake" />
	</node>
	<node lat="61.6331666656842" lon="5.5784111047380796" id="-31245">
		<tag k="name" v="Røyrvikelva" />
		<tag k="ssr:stedsnr" v="191651" />
		<tag k="waterway" v="stream" />
	</node>
	<node lat="61.63332499738956" lon="5.624361106841102" id="-31246">
		<tag k="name" v="Bogeelva" />
		<tag k="ssr:stedsnr" v="191652" />
		<tag k="waterway" v="stream" />
	</node>
	<node lat="61.64790386500183" lon="5.339600068491728" id="-31251">
		<tag k="name" v="Pøysa" />
		<tag k="natural" v="water" />
		<tag k="ssr:stedsnr" v="191899" />
	</node>
	<node lat="61.652794445096696" lon="5.110422215033117" id="-31274">
		<tag k="name" v="Tjørna" />
		<tag k="natural" v="water" />
		<tag k="ssr:stedsnr" v="211628" />
	</node>
	<node lat="61.6918455131226" lon="4.875630631980949" id="-31286">
		<tag k="name" v="Nordre Hovdevatnet" />
		<tag k="natural" v="water" />
		<tag k="ssr:stedsnr" v="212274" />
		<tag k="water" v="lake" />
	</node>
	<node lat="61.666319441402884" lon="5.583349995038917" id="-31291">
		<tag k="name" v="Øvstevika" />
		<tag k="natural" v="bay" />
		<tag k="ssr:stedsnr" v="212736" />
	</node>
	<node lat="61.69262500383397" lon="5.562636119137649" id="-31295">
		<tag k="name" v="Svoraelvane" />
		<tag k="ssr:stedsnr" v="212609" />
		<tag k="waterway" v="river" />
	</node>
	<node lat="61.622441665203006" lon="5.61218610380274" id="-31297">
		<tag k="name" v="Tenneskjeret" />
		<tag k="place" v="islet" />
		<tag k="ssr:stedsnr" v="212695" />
	</node>
	<node lat="61.9229222262886" lon="5.15429167399683" id="-31318">
		<tag k="alt_name" v="Deknevatnet" />
		<tag k="name" v="Deknepollvatnet" />
		<tag k="natural" v="water" />
		<tag k="ssr:stedsnr" v="215726" />
		<tag k="water" v="lake" />
	</node>
	<node lat="61.67193241905144" lon="5.167461293757119" id="-31332">
		<tag k="name" v="Langevatnet" />
		<tag k="natural" v="water" />
		<tag k="ssr:stedsnr" v="494836" />
		<tag k="water" v="lake" />
	</node>
	<node lat="61.67672906297868" lon="4.863411135264435" id="-31369">
		<tag k="name" v="Mjellkovsvatnet" />
		<tag k="natural" v="water" />
		<tag k="ssr:stedsnr" v="454296" />
		<tag k="water" v="lake" />
	</node>
	<node lat="61.66178888877957" lon="4.865647226267523" id="-31370">
		<tag k="name" v="Kjetangselva" />
		<tag k="ssr:stedsnr" v="454307" />
		<tag k="waterway" v="stream" />
	</node>
	<node lat="61.56168888889456" lon="5.528705553324527" id="-31380">
		<tag k="name" v="Bruneelva" />
		<tag k="ssr:stedsnr" v="455056" />
		<tag k="waterway" v="river" />
	</node>
	<node lat="61.65340833505814" lon="5.381666668229461" id="-31384">
		<tag k="name" v="Vasssenden" />
		<tag k="natural" v="cape" />
		<tag k="ssr:stedsnr" v="455593" />
	</node>
	<node lat="61.637094446945376" lon="5.224597213782117" id="-31389">
		<tag k="name" v="Breiskortjørna" />
		<tag k="natural" v="water" />
		<tag k="ssr:stedsnr" v="455453" />
	</node>
	<node lat="61.530188890476566" lon="5.538677774971137" id="-31393">
		<tag k="name" v="Tverrelva" />
		<tag k="ssr:stedsnr" v="455377" />
		<tag k="waterway" v="stream" />
	</node>
	<node lat="61.53729166504686" lon="5.474911111424771" id="-31457">
		<tag k="name" v="Strupeneset" />
		<tag k="natural" v="cape" />
		<tag k="ssr:stedsnr" v="273306" />
	</node>
	<node lat="61.62761110795192" lon="5.625024999673994" id="-31465">
		<tag k="name" v="Sandane" />
		<tag k="natural" v="beach" />
		<tag k="ssr:stedsnr" v="273726" />
	</node>
	<node lat="62.0274599451163" lon="5.0037726621561855" id="-31474">
		<tag k="name" v="Kråkenesvatnet" />
		<tag k="natural" v="water" />
		<tag k="ssr:stedsnr" v="275006" />
		<tag k="water" v="lake" />
	</node>
	<node lat="62.01027805927102" lon="5.120060613175209" id="-31480">
		<tag k="name" v="Skitnevatnet" />
		<tag k="natural" v="water" />
		<tag k="ssr:stedsnr" v="275470" />
		<tag k="water" v="lake" />
	</node>
	<node lat="62.0163833349501" lon="5.047741661421261" id="-31489">
		<tag k="name" v="Elva" />
		<tag k="ssr:stedsnr" v="276382" />
		<tag k="waterway" v="river" />
	</node>
	<node lat="61.75034427023762" lon="5.564655359552428" id="-31512">
		<tag k="name" v="Blåbrevatnet" />
		<tag k="natural" v="water" />
		<tag k="ssr:stedsnr" v="311680" />
		<tag k="water" v="lake" />
	</node>
	<node lat="61.703000003317634" lon="5.57230000757875" id="-31527">
		<tag k="name" v="Støylsvatnet" />
		<tag k="natural" v="water" />
		<tag k="ssr:stedsnr" v="312629" />
	</node>
	<node lat="61.66367222438409" lon="5.541674996395479" id="-31529">
		<tag k="name" v="Osen" />
		<tag k="natural" v="bay" />
		<tag k="ssr:stedsnr" v="312666" />
	</node>
	<node lat="61.61038611258969" lon="5.542700003246585" id="-31531">
		<tag k="name" v="Sagelva" />
		<tag k="ssr:stedsnr" v="312717" />
		<tag k="waterway" v="stream" />
	</node>
	<node lat="61.59994722394562" lon="5.575350007939585" id="-31532">
		<tag k="alt_name" v="Kvangreneset" />
		<tag k="name" v="Kvanngrøneset" />
		<tag k="natural" v="cape" />
		<tag k="ssr:stedsnr" v="312721" />
	</node>
	<node lat="61.597797223502006" lon="5.348069450504596" id="-31542">
		<tag k="name" v="Jagetjørna" />
		<tag k="natural" v="water" />
		<tag k="ssr:stedsnr" v="312973" />
	</node>
	<node lat="61.68854461560109" lon="4.878098208778945" id="-31574">
		<tag k="name" v="Søre Hovdevatnet" />
		<tag k="natural" v="water" />
		<tag k="ssr:stedsnr" v="333303" />
		<tag k="water" v="lake" />
	</node>
	<node lat="61.59487221757531" lon="5.4446444363622195" id="-31578">
		<tag k="name" v="Hamnaelva" />
		<tag k="ssr:stedsnr" v="333412" />
		<tag k="waterway" v="stream" />
	</node>
	<node lat="61.54454166665148" lon="5.492977780911999" id="-31584">
		<tag k="name" v="Håmannsneset" />
		<tag k="natural" v="cape" />
		<tag k="ssr:stedsnr" v="334259" />
	</node>
	<node lat="61.56236944732645" lon="5.497063892896807" id="-31586">
		<tag k="name" v="Storeneset" />
		<tag k="natural" v="cape" />
		<tag k="ssr:stedsnr" v="334154" />
	</node>
	<node lat="61.92000000277057" lon="5.277166662759025" id="-31599">
		<tag k="name" v="Fureneset" />
		<tag k="natural" v="cape" />
		<tag k="ssr:stedsnr" v="335624" />
	</node>
	<node lat="61.98373187029669" lon="5.098999819842749" id="-31607">
		<tag k="name" v="Nørdalsvatnet" />
		<tag k="natural" v="water" />
		<tag k="ssr:stedsnr" v="336642" />
		<tag k="water" v="lake" />
	</node>
	<node lat="61.61207221801552" lon="5.640266674666032" id="-31635">
		<tag k="alt_name" v="Krogstadvatnet" />
		<tag k="name" v="Krokstadvatnet" />
		<tag k="natural" v="water" />
		<tag k="ssr:stedsnr" v="478748" />
		<tag k="water" v="lake" />
	</node>
	<node lat="61.654491665049726" lon="5.018625008102893" id="-31644">
		<tag k="alt_name" v="Lonene" />
		<tag k="name" v="Lonevatnet" />
		<tag k="natural" v="water" />
		<tag k="ssr:stedsnr" v="372107" />
	</node>
	<node lat="61.69126944471252" lon="5.022436112063212" id="-31648">
		<tag k="name" v="Tverrdalsvatnet" />
		<tag k="natural" v="water" />
		<tag k="ssr:stedsnr" v="372053" />
	</node>
	<node lat="61.641797225893455" lon="5.029347217286811" id="-31651">
		<tag k="name" v="Dalavatnet" />
		<tag k="natural" v="water" />
		<tag k="ssr:stedsnr" v="372068" />
	</node>
	<node lat="61.54543610826036" lon="5.390916657877498" id="-31666">
		<tag k="name" v="Sagelva" />
		<tag k="ssr:stedsnr" v="372568" />
		<tag k="waterway" v="stream" />
	</node>
	<node lat="61.518999999212056" lon="5.380569443259132" id="-31669">
		<tag k="name" v="Svartevatnet" />
		<tag k="natural" v="water" />
		<tag k="ssr:stedsnr" v="372603" />
	</node>
	<node lat="61.655855551451104" lon="5.381338895327391" id="-31673">
		<tag k="name" v="Litlevatnet" />
		<tag k="natural" v="water" />
		<tag k="ssr:stedsnr" v="372904" />
	</node>
	<node lat="61.6395527742251" lon="5.122708333437161" id="-31680">
		<tag k="alt_name" v="Tirdalselva" />
		<tag k="name" v="Terdalselva" />
		<tag k="ssr:stedsnr" v="372901" />
		<tag k="waterway" v="stream" />
	</node>
	<node lat="61.47590555806586" lon="5.0804722253407" id="-31716">
		<tag k="name" v="Grønskjeret" />
		<tag k="place" v="islet" />
		<tag k="ssr:stedsnr" v="393706" />
	</node>
	<node lat="61.596761112428794" lon="5.089091658058476" id="-31722">
		<tag k="name" v="Dragselva" />
		<tag k="ssr:stedsnr" v="393831" />
		<tag k="waterway" v="river" />
	</node>
	<node lat="61.57021666295375" lon="5.5323805562327335" id="-31725">
		<tag k="name" v="Sørdalsøyra" />
		<tag k="natural" v="cape" />
		<tag k="ssr:stedsnr" v="394004" />
	</node>
	<node lat="61.57203055802254" lon="5.534738883585177" id="-31726">
		<tag k="name" v="Storelva" />
		<tag k="ssr:stedsnr" v="394008" />
		<tag k="waterway" v="river" />
	</node>
	<node lat="61.662583331667" lon="5.543977784163085" id="-31731">
		<tag k="name" v="Støldalselva" />
		<tag k="ssr:stedsnr" v="394316" />
		<tag k="waterway" v="stream" />
	</node>
	<node lat="61.61058333101448" lon="5.562133330286799" id="-31735">
		<tag k="name" v="Øyrane" />
		<tag k="place" v="island" />
		<tag k="ssr:stedsnr" v="394237" />
	</node>
	<node lat="61.65723611168001" lon="5.502902773282154" id="-31738">
		<tag k="name" v="Tåfossen" />
		<tag k="natural" v="waterfall" />
		<tag k="ssr:stedsnr" v="394412" />
	</node>
	<node lat="61.515436111680884" lon="5.5274333246828915" id="-31739">
		<tag k="name" v="Viddalselva" />
		<tag k="ssr:stedsnr" v="394394" />
		<tag k="waterway" v="river" />
	</node>
	<node lat="61.62067508916527" lon="5.313016362021301" id="-31753">
		<tag k="name" v="Liavatnet" />
		<tag k="natural" v="water" />
		<tag k="ssr:stedsnr" v="395602" />
		<tag k="water" v="lake" />
	</node>
	<node lat="62.00026666583298" lon="5.005941664343109" id="-31759">
		<tag k="name" v="Dalselva" />
		<tag k="ssr:stedsnr" v="396408" />
		<tag k="waterway" v="river" />
	</node>
	<node lat="61.922294442044" lon="5.282347216532864" id="-31766">
		<tag k="name" v="Sandvika" />
		<tag k="natural" v="bay" />
		<tag k="ssr:stedsnr" v="397633" />
	</node>
	<node lat="61.92259444863286" lon="5.3024388955990975" id="-31767">
		<tag k="name" v="Tjørna" />
		<tag k="natural" v="water" />
		<tag k="ssr:stedsnr" v="397637" />
	</node>
	<node lat="61.67115555737684" lon="4.851591672129714" id="-31780">
		<tag k="name" v="Dombevatnet" />
		<tag k="natural" v="water" />
		<tag k="ssr:stedsnr" v="433007" />
	</node>
	<node lat="61.52955833192364" lon="5.393400006616556" id="-31809">
		<tag k="name" v="Håsteinsvatnet" />
		<tag k="natural" v="water" />
		<tag k="ssr:stedsnr" v="434602" />
	</node>
	<node lat="61.59851944022458" lon="5.652638893985434" id="-31814">
		<tag k="name" v="Botnavatnet" />
		<tag k="natural" v="water" />
		<tag k="ssr:stedsnr" v="434700" />
	</node>
	<node lat="61.64588889206143" lon="5.164111107869768" id="-31816">
		<tag k="name" v="Keipevatnet" />
		<tag k="natural" v="water" />
		<tag k="ssr:stedsnr" v="435802" />
	</node>
	<node lat="62.00973785189479" lon="5.022096017734101" id="-31824">
		<tag k="name" v="Movatna" />
		<tag k="natural" v="water" />
		<tag k="ssr:stedsnr" v="436609" />
		<tag k="water" v="lake" />
	</node>
	<node lat="62.01405000310415" lon="5.043675008165354" id="-31825">
		<tag k="name" v="Kaldeklovelva" />
		<tag k="ssr:stedsnr" v="436610" />
		<tag k="waterway" v="stream" />
	</node>
	<node lat="61.670592914803294" lon="5.051280773733555" id="-31831">
		<tag k="name" v="Guleskarvatnet" />
		<tag k="natural" v="water" />
		<tag k="ssr:stedsnr" v="493038" />
		<tag k="water" v="lake" />
	</node>
	<node lat="61.522769448574884" lon="5.474638881760918" id="-31844">
		<tag k="name" v="Litleelva" />
		<tag k="ssr:stedsnr" v="493462" />
		<tag k="waterway" v="stream" />
	</node>
	<node lat="61.59674697017267" lon="5.038534975582237" id="-31862">
		<tag k="name" v="Storevatnet" />
		<tag k="natural" v="water" />
		<tag k="ssr:stedsnr" v="494195" />
	</node>
	<node lat="61.541561108910784" lon="5.345947218863999" id="-31869">
		<tag k="name" v="Høydalselva" />
		<tag k="ssr:stedsnr" v="494546" />
		<tag k="waterway" v="stream" />
	</node>
	<node lat="61.68564444180965" lon="5.516233336614468" id="-31879">
		<tag k="name" v="Øvre Myrbærdalsvatnet" />
		<tag k="natural" v="water" />
		<tag k="ssr:stedsnr" v="494629" />
	</node>
	<node lat="61.64473611478456" lon="5.433141659926553" id="-31948">
		<tag k="name" v="Gruvlelva" />
		<tag k="ssr:stedsnr" v="675929" />
		<tag k="waterway" v="stream" />
	</node>
	<node lat="61.5278833351566" lon="4.934283334638727" id="-31980">
		<tag k="name" v="Valvikevatnet" />
		<tag k="natural" v="water" />
		<tag k="ssr:stedsnr" v="676752" />
	</node>
	<node lat="61.62420555301834" lon="5.551869446125266" id="-31985">
		<tag k="name" v="Snorelva" />
		<tag k="ssr:stedsnr" v="676719" />
		<tag k="waterway" v="stream" />
	</node>
	<node lat="61.61368610766996" lon="5.516419447035065" id="-31986">
		<tag k="name" v="Blåvatnet" />
		<tag k="natural" v="water" />
		<tag k="ssr:stedsnr" v="676722" />
	</node>
	<node lat="61.681980554334864" lon="5.3792416583273335" id="-31987">
		<tag k="name" v="Grønskredvatnet" />
		<tag k="natural" v="water" />
		<tag k="ssr:stedsnr" v="676843" />
	</node>
	<node lat="61.65246666784455" lon="5.260402770242552" id="-31992">
		<tag k="name" v="Krokvatnet" />
		<tag k="natural" v="water" />
		<tag k="ssr:stedsnr" v="676864" />
	</node>
	<node lat="61.66083055997116" lon="5.438977784656834" id="-31994">
		<tag k="name" v="Blålielva" />
		<tag k="ssr:stedsnr" v="676871" />
		<tag k="waterway" v="stream" />
	</node>
	<node lat="61.919533337667865" lon="5.278450004995038" id="-32003">
		<tag k="name" v="Ytste Raudeggvatnet" />
		<tag k="natural" v="water" />
		<tag k="ssr:stedsnr" v="677213" />
		<tag k="water" v="lake" />
	</node>
	<node lat="61.986238886723186" lon="5.088119446742774" id="-32013">
		<tag k="name" v="Ongelsvatnet" />
		<tag k="natural" v="water" />
		<tag k="ssr:stedsnr" v="677960" />
	</node>
	<node lat="62.01488333588278" lon="5.124641657879724" id="-32025">
		<tag k="name" v="Storelva" />
		<tag k="ssr:stedsnr" v="678642" />
		<tag k="waterway" v="stream" />
	</node>
	<node lat="61.6402388862898" lon="5.256611103637532" id="-32058">
		<tag k="name" v="Stølstjørna" />
		<tag k="natural" v="water" />
		<tag k="ssr:stedsnr" v="494922" />
	</node>
	<node lat="61.905427781404015" lon="5.074655561667834" id="-32066">
		<tag k="name" v="Vellavatnet" />
		<tag k="natural" v="water" />
		<tag k="ssr:stedsnr" v="495970" />
	</node>
	<node lat="61.633774999566974" lon="5.6054333426649645" id="-32071">
		<tag k="name" v="Lindvika" />
		<tag k="natural" v="bay" />
		<tag k="ssr:stedsnr" v="506656" />
	</node>
	<node lat="61.636825000156186" lon="5.134733334550004" id="-32074">
		<tag k="name" v="Ospelltjørna" />
		<tag k="natural" v="water" />
		<tag k="ssr:stedsnr" v="272344" />
	</node>
	<node lat="61.6847916633072" lon="4.996947230602745" id="-32075">
		<tag k="name" v="Demma" />
		<tag k="ssr:stedsnr" v="272363" />
		<tag k="waterway" v="rapids" />
	</node>
	<node lat="61.6533638927588" lon="5.484327779932266" id="-32103">
		<tag k="name" v="Storeholmen" />
		<tag k="place" v="islet" />
		<tag k="ssr:stedsnr" v="515418" />
	</node>
	<node lat="61.68842675038505" lon="4.849449027577515" id="-32114">
		<tag k="name" v="Storskogsvatnet" />
		<tag k="natural" v="water" />
		<tag k="ssr:stedsnr" v="516225" />
		<tag k="water" v="lake" />
	</node>
	<node lat="61.52767499947112" lon="5.503500009102369" id="-32119">
		<tag k="name" v="Selja" />
		<tag k="natural" v="cape" />
		<tag k="ssr:stedsnr" v="516474" />
	</node>
	<node lat="61.599236106788055" lon="5.609461105283634" id="-32121">
		<tag k="name" v="Svarttjørna" />
		<tag k="natural" v="water" />
		<tag k="ssr:stedsnr" v="516668" />
	</node>
	<node lat="61.96579722629488" lon="5.133011108286313" id="-32133">
		<tag k="alt_name" v="Ulvefalla" />
		<tag k="name" v="Ulvefallet" />
		<tag k="ssr:stedsnr" v="518739" />
		<tag k="waterway" v="stream" />
	</node>
	<node lat="61.56149166510591" lon="5.57194721444571" id="-32164">
		<tag k="name" v="Agledalselva" />
		<tag k="ssr:stedsnr" v="687682" />
		<tag k="waterway" v="river" />
	</node>
	<node lat="61.58541111216621" lon="5.5999611130996545" id="-32179">
		<tag k="name" v="Torsvatnet" />
		<tag k="natural" v="water" />
		<tag k="ssr:stedsnr" v="554503" />
	</node>
	<node lat="61.534097218626336" lon="5.56139444438774" id="-32184">
		<tag k="name" v="Rimmavatnet" />
		<tag k="natural" v="water" />
		<tag k="ssr:stedsnr" v="554479" />
	</node>
	<node lat="61.59097222090495" lon="5.52726666055799" id="-32209">
		<tag k="name" v="Uravatnet" />
		<tag k="natural" v="water" />
		<tag k="ssr:stedsnr" v="688690" />
	</node>
	<node lat="61.58944444022519" lon="5.568733338615173" id="-32210">
		<tag k="name" v="Driva" />
		<tag k="ssr:stedsnr" v="688691" />
		<tag k="waterway" v="stream" />
	</node>
	<node lat="61.619733328901575" lon="5.1210444451803045" id="-32215">
		<tag k="name" v="Grønengsundet" />
		<tag k="natural" v="strait" />
		<tag k="ssr:stedsnr" v="574451" />
	</node>
	<node lat="61.55205555247251" lon="5.485705556777854" id="-32229">
		<tag k="name" v="Hestelineset" />
		<tag k="natural" v="cape" />
		<tag k="ssr:stedsnr" v="576304" />
	</node>
	<node lat="61.59317142592524" lon="5.437379512464063" id="-32238">
		<tag k="name" v="Litlevatnet" />
		<tag k="natural" v="water" />
		<tag k="ssr:stedsnr" v="576393" />
		<tag k="water" v="lake" />
	</node>
	<node lat="61.560680558221435" lon="5.694530554768784" id="-32252">
		<tag k="name" v="Middagselva" />
		<tag k="ssr:stedsnr" v="577592" />
		<tag k="waterway" v="stream" />
	</node>
	<node lat="61.915775001190646" lon="5.293894443822238" id="-32261">
		<tag k="name" v="Raudeggelva" />
		<tag k="ssr:stedsnr" v="578431" />
		<tag k="waterway" v="river" />
	</node>
	<node lat="61.970172587091646" lon="5.117622133859711" id="-32263">
		<tag k="name" v="Rystestølsvatnet" />
		<tag k="natural" v="water" />
		<tag k="ssr:stedsnr" v="578710" />
		<tag k="water" v="lake" />
	</node>
	<node lat="61.63739444517123" lon="5.040272221939537" id="-32274">
		<tag k="name" v="Fossen" />
		<tag k="natural" v="waterfall" />
		<tag k="ssr:stedsnr" v="696527" />
	</node>
	<node lat="61.63658888892371" lon="4.842055553251685" id="-32283">
		<tag k="name" v="Skjeljehølen" />
		<tag k="place" v="locality" />
		<tag k="ssr:stedsnr" v="697259" />
	</node>
	<node lat="61.54112499891844" lon="5.4240555513555995" id="-32285">
		<tag k="name" v="Leirhola" />
		<tag k="natural" v="bay" />
		<tag k="ssr:stedsnr" v="697326" />
	</node>
	<node lat="61.539713887331054" lon="5.423597230215078" id="-32286">
		<tag k="name" v="Bukketåna" />
		<tag k="natural" v="cape" />
		<tag k="ssr:stedsnr" v="697330" />
	</node>
	<node lat="61.66236110887941" lon="5.535261107445483" id="-32288">
		<tag k="name" v="Hundedølen" />
		<tag k="natural" v="bay" />
		<tag k="ssr:stedsnr" v="697350" />
	</node>
	<node lat="61.652455555764305" lon="5.370005549589136" id="-32297">
		<tag k="name" v="Kreken" />
		<tag k="natural" v="bay" />
		<tag k="ssr:stedsnr" v="697510" />
	</node>
	<node lat="61.68836111239933" lon="4.83594166426792" id="-32307">
		<tag k="name" v="Dalselva" />
		<tag k="ssr:stedsnr" v="697933" />
		<tag k="waterway" v="stream" />
	</node>
	<node lat="61.61221666632031" lon="5.569372224914928" id="-32327">
		<tag k="name" v="Skitnevikneset" />
		<tag k="natural" v="cape" />
		<tag k="ssr:stedsnr" v="698651" />
	</node>
	<node lat="61.56468333655755" lon="5.667388892949494" id="-32334">
		<tag k="name" v="Tronkaelva" />
		<tag k="ssr:stedsnr" v="698608" />
		<tag k="waterway" v="river" />
	</node>
	<node lat="61.94103055985521" lon="5.152555548646928" id="-32341">
		<tag k="name" v="Lemveita" />
		<tag k="ssr:stedsnr" v="700286" />
		<tag k="waterway" v="drain" />
	</node>
	<node lat="61.98576101901962" lon="5.094180028310867" id="-32350">
		<tag k="name" v="Lomevatnet" />
		<tag k="natural" v="water" />
		<tag k="ssr:stedsnr" v="700664" />
		<tag k="water" v="lake" />
	</node>
	<node lat="61.63378055657298" lon="5.426322216435925" id="-32374">
		<tag k="name" v="Utlitjørna" />
		<tag k="natural" v="water" />
		<tag k="ssr:stedsnr" v="614959" />
	</node>
	<node lat="61.647983337227174" lon="5.018611108764038" id="-32381">
		<tag k="name" v="Rundevatnet" />
		<tag k="natural" v="water" />
		<tag k="ssr:stedsnr" v="615101" />
	</node>
	<node lat="61.67242500254267" lon="5.647658338485602" id="-32386">
		<tag k="name" v="Budalsvatnet" />
		<tag k="natural" v="water" />
		<tag k="ssr:stedsnr" v="615656" />
	</node>
	<node lat="61.53478557877865" lon="5.443323296086928" id="-32388">
		<tag k="name" v="Svardalsvatnet" />
		<tag k="natural" v="water" />
		<tag k="ssr:stedsnr" v="615592" />
		<tag k="water" v="lake" />
	</node>
	<node lat="61.66202905400284" lon="5.2883925923537" id="-32396">
		<tag k="alt_name" v="Børavatnet" />
		<tag k="name" v="Børevatnet" />
		<tag k="natural" v="water" />
		<tag k="ssr:stedsnr" v="615898" />
		<tag k="water" v="lake" />
	</node>
	<node lat="61.9236250039329" lon="5.292633338521242" id="-32401">
		<tag k="name" v="Setrevika" />
		<tag k="natural" v="bay" />
		<tag k="ssr:stedsnr" v="701631" />
	</node>
	<node lat="61.924097223715684" lon="5.310116659783567" id="-32402">
		<tag k="name" v="Inste Raudeggvatnet" />
		<tag k="natural" v="water" />
		<tag k="ssr:stedsnr" v="616207" />
	</node>
	<node lat="61.58131944502146" lon="5.523722225373242" id="-32431">
		<tag k="name" v="Kvitetjørna" />
		<tag k="natural" v="water" />
		<tag k="ssr:stedsnr" v="636103" />
	</node>
	<node lat="61.647379406772515" lon="5.0438733502866615" id="-32439">
		<tag k="name" v="Indre Uradalsvatnet" />
		<tag k="natural" v="water" />
		<tag k="ssr:stedsnr" v="636503" />
		<tag k="water" v="lake" />
	</node>
	<node lat="61.65433611013433" lon="5.374833332612561" id="-32441">
		<tag k="name" v="Bjørnabeten" />
		<tag k="natural" v="cape" />
		<tag k="ssr:stedsnr" v="636525" />
	</node>
	<node lat="61.674680552861" lon="5.047224996491654" id="-32444">
		<tag k="name" v="Fossane" />
		<tag k="natural" v="waterfall" />
		<tag k="ssr:stedsnr" v="636296" />
	</node>
	<node lat="61.566244442616416" lon="5.718094437533599" id="-32459">
		<tag k="name" v="Brekkeelva" />
		<tag k="ssr:stedsnr" v="637618" />
		<tag k="waterway" v="stream" />
	</node>
	<node lat="61.632488889951716" lon="5.594941673520414" id="-32464">
		<tag k="name" v="Storelielva" />
		<tag k="ssr:stedsnr" v="637707" />
		<tag k="waterway" v="stream" />
	</node>
	<node lat="61.67341944317054" lon="5.573355560169626" id="-32465">
		<tag k="name" v="Grøndalselva" />
		<tag k="ssr:stedsnr" v="637729" />
		<tag k="waterway" v="river" />
	</node>
	<node lat="61.91962499913935" lon="5.290547225725436" id="-32474">
		<tag k="name" v="Osen" />
		<tag k="natural" v="bay" />
		<tag k="ssr:stedsnr" v="639630" />
	</node>
	<node lat="61.998199997190966" lon="5.0705999987939805" id="-32476">
		<tag k="name" v="Steinelva" />
		<tag k="ssr:stedsnr" v="639721" />
		<tag k="waterway" v="river" />
	</node>
	<node lat="61.68082777521769" lon="5.061072230104857" id="-32511">
		<tag k="name" v="Aurbrekkvatnet" />
		<tag k="natural" v="water" />
		<tag k="ssr:stedsnr" v="676014" />
	</node>
	<node lat="61.64516667010453" lon="5.026855548778929" id="-32515">
		<tag k="alt_name" v="Fossevatnet" />
		<tag k="name" v="Fossatjørna" />
		<tag k="natural" v="water" />
		<tag k="ssr:stedsnr" v="676113" />
	</node>
	<node lat="61.64455555912642" lon="5.089163893733342" id="-32516">
		<tag k="name" v="Storelva" />
		<tag k="ssr:stedsnr" v="676114" />
		<tag k="waterway" v="stream" />
	</node>
	<node lat="61.53231944828433" lon="5.202108340936035" id="-32528">
		<tag k="name" v="Storelva" />
		<tag k="ssr:stedsnr" v="676587" />
		<tag k="waterway" v="stream" />
	</node>
	<node lat="61.517636107815655" lon="5.370527783078622" id="-32531">
		<tag k="name" v="Stølsvatnet" />
		<tag k="natural" v="water" />
		<tag k="ssr:stedsnr" v="676600" />
	</node>
	<node lat="61.637191669669" lon="5.596761111532798" id="-32532">
		<tag k="name" v="Glupsa" />
		<tag k="ssr:stedsnr" v="676706" />
		<tag k="waterway" v="stream" />
	</node>
	<node lat="61.963342358592385" lon="5.123768719613079" id="-32549">
		<tag k="name" v="Svartebotnvatnet" />
		<tag k="natural" v="water" />
		<tag k="ssr:stedsnr" v="677777" />
	</node>
	<node lat="61.69018755056313" lon="4.993102700363772" id="-32571">
		<tag k="name" v="Rundevatnet" />
		<tag k="natural" v="water" />
		<tag k="ssr:stedsnr" v="697388" />
		<tag k="water" v="lake" />
	</node>
	<node lat="61.59023888668115" lon="5.347066664235703" id="-32579">
		<tag k="name" v="Garnvika" />
		<tag k="natural" v="bay" />
		<tag k="ssr:stedsnr" v="697905" />
	</node>
	<node lat="61.63586666976395" lon="5.171722224929148" id="-32581">
		<tag k="name" v="Vadet" />
		<tag k="natural" v="water" />
		<tag k="ssr:stedsnr" v="698115" />
		<tag k="water" v="lake" />
	</node>
	<node lat="61.55329722490314" lon="5.540586118407535" id="-32585">
		<tag k="name" v="Langevatnselva" />
		<tag k="ssr:stedsnr" v="698417" />
		<tag k="waterway" v="stream" />
	</node>
	<node lat="61.60814444103249" lon="5.65339167505921" id="-32589">
		<tag k="name" v="Krokstadstranda" />
		<tag k="natural" v="beach" />
		<tag k="ssr:stedsnr" v="698631" />
	</node>
	<node lat="61.98900000064097" lon="5.107344436632417" id="-32603">
		<tag k="name" v="Grimeneset" />
		<tag k="natural" v="cape" />
		<tag k="ssr:stedsnr" v="700715" />
	</node>
	<node lat="61.99958888733147" lon="5.094752770629875" id="-32605">
		<tag k="name" v="Refvikelva" />
		<tag k="ssr:stedsnr" v="700662" />
		<tag k="waterway" v="river" />
	</node>
	<node lat="61.670236111167" lon="5.017861120014073" id="-32632">
		<tag k="name" v="Tverrelva" />
		<tag k="ssr:stedsnr" v="736007" />
		<tag k="waterway" v="stream" />
	</node>
	<node lat="61.51631944828594" lon="5.535330558054329" id="-32640">
		<tag k="alt_name" v="Ystebotntjørna" />
		<tag k="name" v="Ytstebotntjørna" />
		<tag k="natural" v="water" />
		<tag k="ssr:stedsnr" v="736424" />
	</node>
	<node lat="61.64227221947414" lon="5.417952776603024" id="-32666">
		<tag k="name" v="Gruvla" />
		<tag k="ssr:stedsnr" v="737922" />
		<tag k="waterway" v="stream" />
	</node>
	<node lat="61.60137222399895" lon="5.451019445781244" id="-32667">
		<tag k="name" v="Hovlandselva" />
		<tag k="ssr:stedsnr" v="737973" />
		<tag k="waterway" v="stream" />
	</node>
	<node lat="61.61686111166145" lon="5.4847666622230555" id="-32672">
		<tag k="name" v="Nipevatnet" />
		<tag k="natural" v="water" />
		<tag k="ssr:stedsnr" v="738825" />
	</node>
	<node lat="61.95689166582456" lon="5.09850555268895" id="-32673">
		<tag k="name" v="Tuftegrøvatnet" />
		<tag k="natural" v="water" />
		<tag k="ssr:stedsnr" v="738797" />
	</node>
	<node lat="61.95138055721701" lon="5.032425001466502" id="-32674">
		<tag k="name" v="Nykkevatnet" />
		<tag k="natural" v="water" />
		<tag k="ssr:stedsnr" v="738949" />
	</node>
	<node lat="61.650208333599096" lon="5.421419447462604" id="-32677">
		<tag k="name" v="Kylleren" />
		<tag k="ssr:stedsnr" v="902738" />
		<tag k="waterway" v="stream" />
	</node>
	<node lat="62.01983889337779" lon="5.129902777525112" id="-32683">
		<tag k="name" v="Forklevatnet" />
		<tag k="natural" v="water" />
		<tag k="ssr:stedsnr" v="739645" />
	</node>
	<node lat="61.56816389156137" lon="5.566966674796037" id="-32710">
		<tag k="name" v="Langedalselva" />
		<tag k="ssr:stedsnr" v="758016" />
		<tag k="waterway" v="river" />
	</node>
	<node lat="61.546516666870964" lon="5.48100277744328" id="-32724">
		<tag k="name" v="Lyngneset" />
		<tag k="natural" v="cape" />
		<tag k="ssr:stedsnr" v="758347" />
	</node>
	<node lat="61.67971944529021" lon="5.463083328545303" id="-32726">
		<tag k="name" v="Symjinga" />
		<tag k="natural" v="strait" />
		<tag k="ssr:stedsnr" v="758361" />
	</node>
	<node lat="61.65299166826599" lon="5.374977785292511" id="-32729">
		<tag k="name" v="Krekstranda" />
		<tag k="natural" v="beach" />
		<tag k="ssr:stedsnr" v="758553" />
	</node>
	<node lat="61.64242222656301" lon="5.439913890151683" id="-32732">
		<tag k="name" v="Gruvlefossen" />
		<tag k="natural" v="waterfall" />
		<tag k="ssr:stedsnr" v="758750" />
	</node>
	<node lat="61.62432467093265" lon="5.304730724055059" id="-32739">
		<tag k="name" v="Lendingsvatnet" />
		<tag k="natural" v="water" />
		<tag k="ssr:stedsnr" v="759601" />
		<tag k="water" v="lake" />
	</node>
</osm>
