<?xml version="1.0" encoding="UTF-8"?>
<osm version="0.6" generator="osmapis">
	<node lat="61.63480277975118" lon="5.389222214701702" id="-30770">
		<tag k="name" v="Stølsøyra" />
		<tag k="place" v="locality" />
		<tag k="ssr:stedsnr" v="9906" />
	</node>
	<node lat="61.50740277392185" lon="5.2464444356441655" id="-30838">
		<tag k="name" v="Myrane" />
		<tag k="natural" v="wetland" />
		<tag k="ssr:stedsnr" v="31863" />
	</node>
	<node lat="61.56205278114501" lon="4.831005552788746" id="-30945">
		<tag k="name" v="Kalvemarka" />
		<tag k="place" v="locality" />
		<tag k="ssr:stedsnr" v="90396" />
	</node>
	<node lat="61.944891670512746" lon="5.146508323908907" id="-30975">
		<tag k="name" v="Garlosteinen" />
		<tag k="natural" v="stone" />
		<tag k="ssr:stedsnr" v="93220" />
	</node>
	<node lat="61.67484721956232" lon="5.011036120330252" id="-31147">
		<tag k="name" v="Blåura" />
		<tag k="natural" v="scree" />
		<tag k="ssr:stedsnr" v="150469" />
	</node>
	<node lat="61.66097500204537" lon="5.01586389031699" id="-31148">
		<tag k="name" v="Bleikemyrane" />
		<tag k="natural" v="wetland" />
		<tag k="ssr:stedsnr" v="150513" />
	</node>
	<node lat="61.48250833331922" lon="5.104083326332352" id="-31154">
		<tag k="name" v="Kvalstadmyra" />
		<tag k="natural" v="wetland" />
		<tag k="ssr:stedsnr" v="150868" />
	</node>
	<node lat="61.641052774014426" lon="5.3531861123612" id="-31163">
		<tag k="name" v="Kviemyra" />
		<tag k="natural" v="wetland" />
		<tag k="ssr:stedsnr" v="151511" />
	</node>
	<node lat="61.59723888692903" lon="5.584480556858829" id="-31166">
		<tag k="name" v="Rogneskogen" />
		<tag k="place" v="locality" />
		<tag k="ssr:stedsnr" v="151723" />
	</node>
	<node lat="61.59646110674179" lon="4.868661107473004" id="-31267">
		<tag k="name" v="Storefjellsmyra" />
		<tag k="natural" v="wetland" />
		<tag k="ssr:stedsnr" v="211190" />
	</node>
	<node lat="61.59728611039721" lon="5.347905549578428" id="-31302">
		<tag k="name" v="Jagemyrane" />
		<tag k="natural" v="wetland" />
		<tag k="ssr:stedsnr" v="212829" />
	</node>
	<node lat="61.57157777685713" lon="4.835297220364905" id="-31346">
		<tag k="name" v="Myrane" />
		<tag k="natural" v="wetland" />
		<tag k="ssr:stedsnr" v="454097" />
	</node>
	<node lat="61.64524166830804" lon="4.77422500195071" id="-31348">
		<tag k="name" v="Skipesteinane" />
		<tag k="natural" v="stone" />
		<tag k="ssr:stedsnr" v="454884" />
	</node>
	<node lat="61.58688055123134" lon="5.520180560250862" id="-31381">
		<tag k="name" v="Knudskjmyra" />
		<tag k="natural" v="wetland" />
		<tag k="ssr:stedsnr" v="455111" />
	</node>
	<node lat="61.61086389291884" lon="5.3689833406241165" id="-31405">
		<tag k="name" v="Alkemyra" />
		<tag k="natural" v="wetland" />
		<tag k="ssr:stedsnr" v="455791" />
	</node>
	<node lat="61.51800000252822" lon="5.244261102850062" id="-31421">
		<tag k="name" v="Dyrebærsteinen" />
		<tag k="natural" v="stone" />
		<tag k="ssr:stedsnr" v="456537" />
	</node>
	<node lat="61.94641388827731" lon="5.150074995911578" id="-31430">
		<tag k="name" v="Nakken" />
		<tag k="natural" v="wetland" />
		<tag k="ssr:stedsnr" v="457239" />
	</node>
	<node lat="62.007672220561304" lon="5.005083326313734" id="-31488">
		<tag k="name" v="Myrane" />
		<tag k="natural" v="wetland" />
		<tag k="ssr:stedsnr" v="276426" />
	</node>
	<node lat="61.54704722131815" lon="5.166205563346637" id="-31557">
		<tag k="name" v="Skipsvikmyra" />
		<tag k="natural" v="wetland" />
		<tag k="ssr:stedsnr" v="332007" />
	</node>
	<node lat="61.63103611265702" lon="5.144222214514817" id="-31561">
		<tag k="name" v="Blåsteinen" />
		<tag k="natural" v="stone" />
		<tag k="ssr:stedsnr" v="332349" />
	</node>
	<node lat="61.613797223065454" lon="5.31775833067623" id="-31593">
		<tag k="name" v="Tremyra" />
		<tag k="natural" v="wetland" />
		<tag k="ssr:stedsnr" v="334500" />
	</node>
	<node lat="61.52773611453463" lon="5.513994443448291" id="-31594">
		<tag k="name" v="Myrbærmyra" />
		<tag k="natural" v="wetland" />
		<tag k="ssr:stedsnr" v="334605" />
	</node>
	<node lat="61.96590555386852" lon="5.09801388624763" id="-31615">
		<tag k="name" v="Hestesteinen" />
		<tag k="natural" v="stone" />
		<tag k="ssr:stedsnr" v="336718" />
	</node>
	<node lat="61.55028055567087" lon="5.399733338926388" id="-31667">
		<tag k="name" v="Osøyra" />
		<tag k="place" v="locality" />
		<tag k="ssr:stedsnr" v="372570" />
	</node>
	<node lat="61.540630559597005" lon="5.196849991369938" id="-31700">
		<tag k="name" v="Løypemyra" />
		<tag k="natural" v="wetland" />
		<tag k="ssr:stedsnr" v="393008" />
	</node>
	<node lat="61.56583332933133" lon="4.860666671238888" id="-31705">
		<tag k="name" v="Storsteinen" />
		<tag k="natural" v="stone" />
		<tag k="ssr:stedsnr" v="393231" />
	</node>
	<node lat="61.52904166838137" lon="5.514733327894604" id="-31745">
		<tag k="name" v="Børsesteinen" />
		<tag k="natural" v="stone" />
		<tag k="ssr:stedsnr" v="394606" />
	</node>
	<node lat="61.58983055615846" lon="5.355116671543778" id="-31749">
		<tag k="name" v="Skansemyra" />
		<tag k="natural" v="wetland" />
		<tag k="ssr:stedsnr" v="394904" />
	</node>
	<node lat="61.59804166846126" lon="5.245411117818021" id="-31776">
		<tag k="name" v="Øyra" />
		<tag k="place" v="locality" />
		<tag k="ssr:stedsnr" v="416802" />
	</node>
	<node lat="61.741063888934306" lon="5.635530558566881" id="-31798">
		<tag k="name" v="Ålfotbreen" />
		<tag k="natural" v="glacier" />
		<tag k="ssr:stedsnr" v="433632" />
	</node>
	<node lat="61.56139444889799" lon="5.111038891011148" id="-31845">
		<tag k="name" v="Vardemyra" />
		<tag k="natural" v="wetland" />
		<tag k="ssr:stedsnr" v="493533" />
	</node>
	<node lat="61.49530209825989" lon="5.108899510136036" id="-32027">
		<tag k="name" v="Vollen" />
		<tag k="place" v="locality" />
		<tag k="ssr:stedsnr" v="493028" />
	</node>
	<node lat="61.560972220548706" lon="5.082905546951989" id="-32087">
		<tag k="name" v="Storemyra" />
		<tag k="natural" v="wetland" />
		<tag k="ssr:stedsnr" v="514878" />
	</node>
	<node lat="61.6686027764374" lon="5.039738896395352" id="-32100">
		<tag k="name" v="Synnevesteinen" />
		<tag k="natural" v="stone" />
		<tag k="ssr:stedsnr" v="515371" />
	</node>
	<node lat="61.568727780360035" lon="4.79808611565955" id="-32101">
		<tag k="name" v="Otresteinen" />
		<tag k="natural" v="stone" />
		<tag k="ssr:stedsnr" v="515504" />
	</node>
	<node lat="61.946230558712486" lon="5.056144442299453" id="-32125">
		<tag k="name" v="Vassmyra" />
		<tag k="natural" v="wetland" />
		<tag k="ssr:stedsnr" v="518409" />
	</node>
	<node lat="61.99010833458413" lon="5.021788896365243" id="-32139">
		<tag k="name" v="Sletteskormyra" />
		<tag k="natural" v="wetland" />
		<tag k="ssr:stedsnr" v="519403" />
	</node>
	<node lat="61.64941666726413" lon="4.785211115979275" id="-32171">
		<tag k="name" v="Ura" />
		<tag k="natural" v="scree" />
		<tag k="ssr:stedsnr" v="554110" />
	</node>
	<node lat="61.50913889150278" lon="5.503591666164206" id="-32239">
		<tag k="name" v="Sengane" />
		<tag k="natural" v="wetland" />
		<tag k="ssr:stedsnr" v="576401" />
	</node>
	<node lat="61.917511112722224" lon="5.290836111847974" id="-32260">
		<tag k="name" v="Raudeggemyrane" />
		<tag k="natural" v="wetland" />
		<tag k="ssr:stedsnr" v="578427" />
	</node>
	<node lat="61.568913893276545" lon="5.441088893927369" id="-32295">
		<tag k="name" v="Storura" />
		<tag k="natural" v="scree" />
		<tag k="ssr:stedsnr" v="697462" />
	</node>
	<node lat="61.57306667040448" lon="5.529636113173758" id="-32306">
		<tag k="name" v="Eikevolltjønnmyra" />
		<tag k="natural" v="wetland" />
		<tag k="ssr:stedsnr" v="697932" />
	</node>
	<node lat="61.60886111356484" lon="5.581461111960361" id="-32328">
		<tag k="name" v="Mosesteinen" />
		<tag k="natural" v="stone" />
		<tag k="ssr:stedsnr" v="698652" />
	</node>
	<node lat="62.00331111330492" lon="5.10233611988674" id="-32355">
		<tag k="name" v="Breiemyra" />
		<tag k="natural" v="wetland" />
		<tag k="ssr:stedsnr" v="700658" />
	</node>
	<node lat="61.64719444663798" lon="5.502591674621298" id="-32445">
		<tag k="name" v="Pålsmyrøyrane" />
		<tag k="place" v="locality" />
		<tag k="ssr:stedsnr" v="636404" />
	</node>
	<node lat="61.52718611299402" lon="5.5407250059263955" id="-32449">
		<tag k="name" v="Øyrane" />
		<tag k="place" v="locality" />
		<tag k="ssr:stedsnr" v="636425" />
	</node>
	<node lat="61.63719722454746" lon="5.255469439917759" id="-32456">
		<tag k="name" v="Memyra" />
		<tag k="natural" v="wetland" />
		<tag k="ssr:stedsnr" v="637333" />
	</node>
	<node lat="61.58794722390994" lon="5.218683325243665" id="-32462">
		<tag k="name" v="Myrane" />
		<tag k="natural" v="wetland" />
		<tag k="ssr:stedsnr" v="637379" />
	</node>
	<node lat="61.64773333266083" lon="5.482525004546044" id="-32533">
		<tag k="name" v="Søkkjemyra" />
		<tag k="natural" v="wetland" />
		<tag k="ssr:stedsnr" v="676685" />
	</node>
	<node lat="61.64071388995075" lon="5.470205550210038" id="-32566">
		<tag k="name" v="Fiskevassøyrane" />
		<tag k="place" v="locality" />
		<tag k="ssr:stedsnr" v="697364" />
	</node>
	<node lat="61.640461115146806" lon="5.504297212692069" id="-32573">
		<tag k="name" v="Middagsskarøyrane" />
		<tag k="place" v="locality" />
		<tag k="ssr:stedsnr" v="697406" />
	</node>
	<node lat="61.56855277356919" lon="5.415180553316196" id="-32574">
		<tag k="name" v="Bukkesteinen" />
		<tag k="natural" v="stone" />
		<tag k="ssr:stedsnr" v="697470" />
	</node>
	<node lat="61.59292499755036" lon="5.3600777870322345" id="-32580">
		<tag k="name" v="Skitnemyrane" />
		<tag k="natural" v="wetland" />
		<tag k="ssr:stedsnr" v="697983" />
	</node>
	<node lat="62.02757222602706" lon="5.127252784320721" id="-32604">
		<tag k="name" v="Revesteinen" />
		<tag k="natural" v="stone" />
		<tag k="ssr:stedsnr" v="700719" />
	</node>
	<node lat="61.4886055551926" lon="5.105897228089783" id="-32633">
		<tag k="alt_name" v="Kvalstadmyra" />
		<tag k="name" v="Kvalstadmyrane" />
		<tag k="natural" v="wetland" />
		<tag k="ssr:stedsnr" v="736017" />
	</node>
	<node lat="61.588658330957614" lon="5.367988882620031" id="-32659">
		<tag k="name" v="Innlægda" />
		<tag k="natural" v="wetland" />
		<tag k="ssr:stedsnr" v="737511" />
	</node>
	<node lat="61.69160277639458" lon="4.84824722046238" id="-32702">
		<tag k="name" v="Nordre Storskog" />
		<tag k="place" v="locality" />
		<tag k="ssr:stedsnr" v="757264" />
	</node>
	<node lat="61.68230277750038" lon="5.567016659750372" id="-32720">
		<tag k="name" v="Øyra" />
		<tag k="place" v="locality" />
		<tag k="ssr:stedsnr" v="758419" />
	</node>
	<node lat="61.63663611372353" lon="5.250986110995077" id="-32723">
		<tag k="name" v="Strengmyra" />
		<tag k="natural" v="wetland" />
		<tag k="ssr:stedsnr" v="758321" />
	</node>
</osm>
