<?xml version="1.0" encoding="UTF-8"?>
<osm generator="osmapis" version="0.6">
	<node id="-61470" lat="61.9883444421" lon="5.15169444616">
		<tag k="alt_name" v="Vågsøy;Nord-Vågsøy;Nord Vågsøy kyrkje" />
		<tag k="amenity" v="place_of_worship" />
		<tag k="denomination" v="lutheran" />
		<tag k="name" v="Nord-Vågsøy kyrkje" />
		<tag k="religion" v="christian" />
		<tag k="ssr:stedsnr" v="859852" />
	</node>
	<node id="-56829" lat="61.9303416688" lon="5.11093888376">
		<tag k="alt_name" v="Sør-Vågsøy;Sør Vågsøy Kyrkje" />
		<tag k="amenity" v="place_of_worship" />
		<tag k="denomination" v="lutheran" />
		<tag k="name" v="Sør-Vågsøy kyrkje" />
		<tag k="religion" v="christian" />
		<tag k="ssr:stedsnr" v="252789" />
	</node>
	<node id="-58137" lat="61.4910194441" lon="5.08778888054">
		<tag k="amenity" v="community_centre" />
		<tag k="name" v="Våg" />
		<tag k="ssr:stedsnr" v="614352" />
	</node>
	<node id="-61526" lat="61.5350289189" lon="5.18181916913">
		<tag k="amenity" v="place_of_worship" />
		<tag k="denomination" v="lutheran" />
		<tag k="name" v="Stavang kyrkje" />
		<tag k="religion" v="christian" />
		<tag k="ssr:stedsnr" v="991234" />
	</node>
	<node id="-60115" lat="61.585327776" lon="5.4592750092">
		<tag k="alt_name" v="Eikefjord" />
		<tag k="amenity" v="place_of_worship" />
		<tag k="denomination" v="lutheran" />
		<tag k="name" v="Eikefjord kyrkje" />
		<tag k="religion" v="christian" />
		<tag k="ssr:stedsnr" v="328611" />
	</node>
	<node id="-61195" lat="61.5989694455" lon="5.02917778255">
		<tag k="alt_name" v="Florø" />
		<tag k="amenity" v="place_of_worship" />
		<tag k="denomination" v="lutheran" />
		<tag k="name" v="Florø kyrkje" />
		<tag k="religion" v="christian" />
		<tag k="ssr:stedsnr" v="770511" />
	</node>
	<node id="-61482" lat="61.595608337" lon="5.26063887976">
		<tag k="name" v="Myra" />
		<tag k="place" v="locality" />
		<tag k="ssr:stedsnr" v="870647" />
	</node>
	<node id="-56905" lat="61.642749297" lon="5.37855943038">
		<tag k="alt_name" v="Nordal" />
		<tag k="amenity" v="place_of_worship" />
		<tag k="denomination" v="lutheran" />
		<tag k="name" v="Norddal kyrkje" />
		<tag k="religion" v="christian" />
		<tag k="ssr:stedsnr" v="130902" />
	</node>
	<node id="-57602" lat="61.5886777745" lon="5.0424388816">
		<tag k="name" v="Kystmuseet" />
		<tag k="ssr:stedsnr" v="403655" />
		<tag k="tourism" v="museum" />
	</node>
	<node id="-57867" lat="61.5664388901" lon="4.75720277168">
		<tag k="alt_name" v="Kinn" />
		<tag k="amenity" v="place_of_worship" />
		<tag k="denomination" v="lutheran" />
		<tag k="name" v="Kinn kyrkje" />
		<tag k="religion" v="christian" />
		<tag k="ssr:stedsnr" v="676194" />
	</node>
</osm>
