<?xml version="1.0" encoding="UTF-8"?>
<osm version="0.6" generator="osmapis">
	<node lat="61.92054444159991" lon="5.198383334374589" id="-32242">
		<tag k="bridge" v="yes" />
		<tag k="layer" v="1" />
		<tag k="name" v="Leite" />
		<tag k="ssr:stedsnr" v="229670" />
	</node>
	<node lat="61.92043055324368" lon="5.225433337390751" id="-32243">
		<tag k="bridge" v="yes" />
		<tag k="layer" v="1" />
		<tag k="name" v="Myklevatn" />
		<tag k="ssr:stedsnr" v="229674" />
	</node>
	<node lat="61.49620511939026" lon="4.950001583637083" id="-32439">
		<tag k="landuse" v="harbour" />
		<tag k="name" v="Hillershamn" />
		<tag k="seamark:type" v="harbour" />
		<tag k="ssr:stedsnr" v="90121" />
	</node>
	<node lat="61.61808055970213" lon="5.644619448122979" id="-32489">
		<tag k="bridge" v="yes" />
		<tag k="layer" v="1" />
		<tag k="name" v="Svarttjernelva" />
		<tag k="ssr:stedsnr" v="107431" />
	</node>
	<node lat="61.583000002481896" lon="5.4891777779179725" id="-32490">
		<tag k="bridge" v="yes" />
		<tag k="layer" v="1" />
		<tag k="name" v="Knapstad" />
		<tag k="ssr:stedsnr" v="108076" />
	</node>
	<node lat="61.59655555640044" lon="5.434000000655916" id="-32491">
		<tag k="bridge" v="yes" />
		<tag k="layer" v="1" />
		<tag k="name" v="Kvalvik" />
		<tag k="ssr:stedsnr" v="108077" />
	</node>
	<node lat="61.59278888573095" lon="5.457802784713622" id="-32695">
		<tag k="bridge" v="yes" />
		<tag k="layer" v="1" />
		<tag k="name" v="Hovland" />
		<tag k="ssr:stedsnr" v="168103" />
	</node>
	<node lat="61.92958611287779" lon="5.075827780149289" id="-32696">
		<tag k="bridge" v="yes" />
		<tag k="layer" v="1" />
		<tag k="name" v="Holevik" />
		<tag k="ssr:stedsnr" v="168659" />
	</node>
	<node lat="61.5707777751547" lon="5.441366675298053" id="-32999">
		<tag k="bridge" v="yes" />
		<tag k="layer" v="1" />
		<tag k="name" v="Sunnarvik" />
		<tag k="ssr:stedsnr" v="290383" />
	</node>
	<node lat="61.54658055853412" lon="5.3277583333448595" id="-33463">
		<tag k="bridge" v="yes" />
		<tag k="layer" v="1" />
		<tag k="name" v="Høydal Ytre" />
		<tag k="ssr:stedsnr" v="472070" />
	</node>
	<node lat="61.66029999766394" lon="5.513749993793025" id="-33464">
		<tag k="bridge" v="yes" />
		<tag k="layer" v="1" />
		<tag k="name" v="Midtbø" />
		<tag k="ssr:stedsnr" v="472075" />
	</node>
	<node lat="61.59841944844622" lon="5.244733337143085" id="-33465">
		<tag k="bridge" v="yes" />
		<tag k="layer" v="1" />
		<tag k="name" v="Sandvik" />
		<tag k="ssr:stedsnr" v="472081" />
	</node>
	<node lat="61.55640832994196" lon="5.484836109271726" id="-33649">
		<tag k="bridge" v="yes" />
		<tag k="layer" v="1" />
		<tag k="name" v="Vasset" />
		<tag k="ssr:stedsnr" v="531446" />
	</node>
	<node lat="61.602597221264624" lon="5.071513898329449" id="-33650">
		<tag k="bridge" v="yes" />
		<tag k="layer" v="1" />
		<tag k="name" v="Havikbotn" />
		<tag k="ssr:stedsnr" v="533081" />
	</node>
	<node lat="61.966658331842595" lon="5.137791671220571" id="-33651">
		<tag k="bridge" v="yes" />
		<tag k="layer" v="1" />
		<tag k="name" v="Kiåna" />
		<tag k="ssr:stedsnr" v="533676" />
	</node>
	<node lat="61.55778332963191" lon="4.759874995960622" id="-33655">
		<tag k="man_made" v="cairn" />
		<tag k="name" v="Kinnavarden" />
		<tag k="place" v="locality" />
		<tag k="ssr:stedsnr" v="539115" />
	</node>
	<node lat="61.91346389033236" lon="5.295299995663922" id="-33802">
		<tag k="bridge" v="yes" />
		<tag k="layer" v="1" />
		<tag k="name" v="Raudegga" />
		<tag k="ssr:stedsnr" v="593612" />
	</node>
	<node lat="61.91381944692226" lon="5.30710555191221" id="-34100">
		<tag k="highway" v="path" />
		<tag k="name" v="Hjellestien" />
		<tag k="ssr:stedsnr" v="700507" />
	</node>
	<node lat="61.5578111107292" lon="5.354275002974372" id="-34112">
		<tag k="bridge" v="yes" />
		<tag k="layer" v="1" />
		<tag k="name" v="Osstrupen" />
		<tag k="ssr:stedsnr" v="897078" />
	</node>
	<node lat="61.64918055753065" lon="5.194336114782812" id="-34113">
		<tag k="bridge" v="yes" />
		<tag k="layer" v="1" />
		<tag k="name" v="Grytedalen Midtre" />
		<tag k="ssr:stedsnr" v="897085" />
	</node>
	<node lat="61.92056389036335" lon="5.198413880806562" id="-34114">
		<tag k="bridge" v="yes" />
		<tag k="layer" v="1" />
		<tag k="name" v="Leite" />
		<tag k="ssr:stedsnr" v="897632" />
	</node>
	<node lat="61.92044444581568" lon="5.225391660284622" id="-34115">
		<tag k="bridge" v="yes" />
		<tag k="layer" v="1" />
		<tag k="name" v="Myklevatn" />
		<tag k="ssr:stedsnr" v="897638" />
	</node>
	<node lat="61.96498333384904" lon="5.1628138877984675" id="-34182">
		<tag k="highway" v="path" />
		<tag k="name" v="Hagevikstigen" />
		<tag k="ssr:stedsnr" v="902757" />
	</node>
	<node lat="61.58328889258633" lon="5.022605547353462" id="-34613">
		<tag k="aeroway" v="aerodrome" />
		<tag k="alt_name" v="Florø" />
		<tag k="name" v="Florø lufthamn" />
		<tag k="ssr:stedsnr" v="918296" />
	</node>
	<node lat="61.69542222493366" lon="4.987275008984756" id="-34707">
		<tag k="bridge" v="yes" />
		<tag k="layer" v="1" />
		<tag k="name" v="Husefest" />
		<tag k="ssr:stedsnr" v="229068" />
	</node>
	<node lat="61.57456666469746" lon="5.346877782409788" id="-34708">
		<tag k="bridge" v="yes" />
		<tag k="layer" v="1" />
		<tag k="name" v="Lending" />
		<tag k="ssr:stedsnr" v="229074" />
	</node>
	<node lat="61.59006388781163" lon="5.473988893850608" id="-34860">
		<tag k="bridge" v="yes" />
		<tag k="layer" v="1" />
		<tag k="name" v="Øvrebø" />
		<tag k="ssr:stedsnr" v="46458" />
	</node>
	<node lat="61.971513884841805" lon="5.157769444755084" id="-34861">
		<tag k="bridge" v="yes" />
		<tag k="layer" v="1" />
		<tag k="name" v="Tvinneset" />
		<tag k="ssr:stedsnr" v="47672" />
	</node>
	<node lat="61.60065870843225" lon="5.033762626173383" id="-35031">
		<tag k="man_made" v="quay" />
		<tag k="name" v="Meieriets kai" />
		<tag k="place" v="locality" />
		<tag k="ssr:stedsnr" v="118338" />
	</node>
	<node lat="61.65331110677929" lon="5.471605555691469" id="-35192">
		<tag k="bridge" v="yes" />
		<tag k="layer" v="1" />
		<tag k="name" v="Solheim" />
		<tag k="ssr:stedsnr" v="229413" />
	</node>
	<node lat="61.54847221939792" lon="5.174452783970969" id="-35193">
		<tag k="bridge" v="yes" />
		<tag k="layer" v="1" />
		<tag k="name" v="Stongasundet" />
		<tag k="ssr:stedsnr" v="229414" />
	</node>
	<node lat="61.60113610860839" lon="5.03273610869265" id="-35195">
		<tag k="landuse" v="harbour" />
		<tag k="name" v="Florø hamn" />
		<tag k="seamark:type" v="harbour" />
		<tag k="ssr:stedsnr" v="272967" />
	</node>
	<node lat="61.57072222143806" lon="5.452372227011305" id="-35200">
		<tag k="bridge" v="yes" />
		<tag k="layer" v="1" />
		<tag k="name" v="Sørelva" />
		<tag k="ssr:stedsnr" v="167456" />
	</node>
	<node lat="61.64369999892445" lon="5.375975005780396" id="-35201">
		<tag k="bridge" v="yes" />
		<tag k="layer" v="1" />
		<tag k="name" v="Norddal" />
		<tag k="ssr:stedsnr" v="168092" />
	</node>
	<node lat="61.58385555772379" lon="5.455300001861745" id="-35202">
		<tag k="bridge" v="yes" />
		<tag k="layer" v="1" />
		<tag k="name" v="Eikefjord" />
		<tag k="ssr:stedsnr" v="168098" />
	</node>
	<node lat="61.63904444183937" lon="5.200600005632572" id="-35203">
		<tag k="bridge" v="yes" />
		<tag k="layer" v="1" />
		<tag k="name" v="Grytedalen Nedre" />
		<tag k="ssr:stedsnr" v="168100" />
	</node>
	<node lat="61.66463610783548" lon="5.195424995890367" id="-35204">
		<tag k="bridge" v="yes" />
		<tag k="layer" v="1" />
		<tag k="name" v="Grytedalen Øvre" />
		<tag k="ssr:stedsnr" v="168101" />
	</node>
	<node lat="61.59838333718095" lon="5.054916671128514" id="-35645">
		<tag k="bridge" v="yes" />
		<tag k="layer" v="1" />
		<tag k="name" v="Gaddevågen" />
		<tag k="ssr:stedsnr" v="350072" />
	</node>
	<node lat="61.93812803841935" lon="5.118976782353189" id="-35646">
		<tag k="amenity" v="ferry_terminal" />
		<tag k="name" v="Måløy ferjekai" />
		<tag k="ssr:stedsnr" v="350645" />
	</node>
	<node lat="61.934538884596144" lon="5.2293333391311" id="-35647">
		<tag k="bridge" v="yes" />
		<tag k="layer" v="1" />
		<tag k="name" v="Sørpoll" />
		<tag k="ssr:stedsnr" v="350649" />
	</node>
	<node lat="61.60091389295038" lon="5.034516663970766" id="-35827">
		<tag k="man_made" v="quay" />
		<tag k="name" v="Torgkaien" />
		<tag k="place" v="locality" />
		<tag k="ssr:stedsnr" v="421333" />
	</node>
	<node lat="61.60281944615394" lon="5.154736101505578" id="-36216">
		<tag k="bridge" v="yes" />
		<tag k="layer" v="1" />
		<tag k="name" v="Mekevika" />
		<tag k="ssr:stedsnr" v="593078" />
	</node>
	<node lat="61.60034721788809" lon="5.068611102641429" id="-36217">
		<tag k="bridge" v="yes" />
		<tag k="layer" v="1" />
		<tag k="name" v="Ragnarud" />
		<tag k="ssr:stedsnr" v="593081" />
	</node>
	<node lat="61.588000004442016" lon="5.33569166628015" id="-36218">
		<tag k="bridge" v="yes" />
		<tag k="layer" v="1" />
		<tag k="name" v="Sageelva" />
		<tag k="ssr:stedsnr" v="593085" />
	</node>
	<node lat="61.63831388862429" lon="5.260658335263893" id="-36410">
		<tag k="bridge" v="yes" />
		<tag k="layer" v="1" />
		<tag k="name" v="Haukåvatnet" />
		<tag k="ssr:stedsnr" v="654074" />
	</node>
	<node lat="61.96336667073871" lon="5.066652769051014" id="-36411">
		<tag k="bridge" v="yes" />
		<tag k="layer" v="1" />
		<tag k="name" v="Steinhelle" />
		<tag k="ssr:stedsnr" v="654660" />
	</node>
	<node lat="61.6162499972467" lon="5.613583333749414" id="-36431">
		<tag k="bridge" v="yes" />
		<tag k="layer" v="1" />
		<tag k="name" v="Krogstadelva" />
		<tag k="ssr:stedsnr" v="715077" />
	</node>
	<node lat="61.53719166533648" lon="5.423413896070786" id="-36617">
		<tag k="bridge" v="yes" />
		<tag k="layer" v="1" />
		<tag k="name" v="Osneset" />
		<tag k="ssr:stedsnr" v="775077" />
	</node>
	<node lat="61.59378055274041" lon="5.443255549568888" id="-36618">
		<tag k="bridge" v="yes" />
		<tag k="layer" v="1" />
		<tag k="name" v="Hovland Ytre" />
		<tag k="ssr:stedsnr" v="775085" />
	</node>
	<node lat="61.965708332569" lon="5.137775008614045" id="-36619">
		<tag k="bridge" v="yes" />
		<tag k="layer" v="1" />
		<tag k="name" v="Barstadvika" />
		<tag k="ssr:stedsnr" v="775649" />
	</node>
	<node lat="61.661216669282474" lon="5.537630549797412" id="-36795">
		<tag k="bridge" v="yes" />
		<tag k="layer" v="1" />
		<tag k="name" v="Øyrane" />
		<tag k="ssr:stedsnr" v="835459" />
	</node>
	<node lat="61.56683333091585" lon="5.637358325052791" id="-37077">
		<tag k="bridge" v="yes" />
		<tag k="layer" v="1" />
		<tag k="name" v="Svarthumle" />
		<tag k="ssr:stedsnr" v="956458" />
	</node>
	<node lat="61.59335277733598" lon="5.054474999194657" id="-37078">
		<tag k="bridge" v="yes" />
		<tag k="layer" v="1" />
		<tag k="name" v="Kanalen" />
		<tag k="ssr:stedsnr" v="957080" />
	</node>
	<node lat="61.630955558096844" lon="5.33331388833388" id="-37079">
		<tag k="bridge" v="yes" />
		<tag k="layer" v="1" />
		<tag k="name" v="Norddalsfjord" />
		<tag k="ssr:stedsnr" v="957081" />
	</node>
	<node lat="61.91822777521994" lon="5.162308334062366" id="-37080">
		<tag k="bridge" v="yes" />
		<tag k="layer" v="1" />
		<tag k="name" v="Tennebø" />
		<tag k="ssr:stedsnr" v="957671" />
	</node>
	<node lat="61.56128563084038" lon="5.336347066530045" id="-37157">
		<tag k="man_made" v="quay" />
		<tag k="name" v="Høydalsfjord" />
		<tag k="place" v="locality" />
		<tag k="ssr:stedsnr" v="1073030" />
	</node>
	<node lat="61.601827714330184" lon="5.025785855003364" id="-37159">
		<tag k="man_made" v="quay" />
		<tag k="name" v="Vestre hovedkai" />
		<tag k="place" v="locality" />
		<tag k="ssr:stedsnr" v="1073048" />
	</node>
	<node lat="61.601900783547514" lon="5.028213019339403" id="-37160">
		<tag k="man_made" v="quay" />
		<tag k="name" v="Østre hovedkai" />
		<tag k="place" v="locality" />
		<tag k="ssr:stedsnr" v="1073049" />
	</node>
	<node lat="61.60014853847821" lon="5.0305691952252305" id="-37161">
		<tag k="man_made" v="quay" />
		<tag k="name" v="Trovikkaien" />
		<tag k="place" v="locality" />
		<tag k="ssr:stedsnr" v="1073050" />
	</node>
	<node lat="61.93060021488306" lon="5.120079447502552" id="-37201">
		<tag k="man_made" v="quay" />
		<tag k="name" v="Østre Fiskarkai" />
		<tag k="place" v="locality" />
		<tag k="ssr:stedsnr" v="1073702" />
	</node>
	<node lat="61.929874175307035" lon="5.116673182608653" id="-37202">
		<tag k="man_made" v="quay" />
		<tag k="name" v="Vestre Fiskarkai" />
		<tag k="place" v="locality" />
		<tag k="ssr:stedsnr" v="1073703" />
	</node>
	<node lat="61.9335962928741" lon="5.113677715505055" id="-37204">
		<tag k="man_made" v="quay" />
		<tag k="name" v="Torgkaien" />
		<tag k="place" v="locality" />
		<tag k="ssr:stedsnr" v="1073707" />
	</node>
	<node lat="61.9372622966384" lon="5.117410427624246" id="-37205">
		<tag k="man_made" v="quay" />
		<tag k="name" v="Midtgårds allmenning" />
		<tag k="place" v="locality" />
		<tag k="ssr:stedsnr" v="1073709" />
	</node>
	<node lat="61.93377936577708" lon="5.113300691166582" id="-37219">
		<tag k="alt_name" v="Måløy vannstandsmåler" />
		<tag k="man_made" v="monitoring_station" />
		<tag k="monitoring:water_Level" v="yes" />
		<tag k="name" v="Måløy vasstandsmålar" />
		<tag k="ssr:stedsnr" v="1082309" />
	</node>
</osm>
