<?xml version="1.0" encoding="UTF-8"?>
<osm generator="osmapis" version="0.6">
	<node id="-536147" lat="60.8816104596" lon="6.30047518531">
		<tag k="name" v="Vestlandet" />
		<tag k="ssr:date" v="2019-01-06" />
		<tag k="ssr:gruppe" v="administrativeIndelinger" />
		<tag k="ssr:hovedgruppe" v="offentligAdministrasjon" />
		<tag k="ssr:stedsnr" v="974777" />
		<tag k="ssr:type" v="annenAdministrativInndeling" />
	</node>
	<node id="-536044" lat="61.4930166657" lon="5.54040555152">
		<tag k="name" v="Sunnfjord" />
		<tag k="ssr:date" v="2016-05-11" />
		<tag k="ssr:gruppe" v="terrengområder" />
		<tag k="ssr:hovedgruppe" v="terreng" />
		<tag k="ssr:stedsnr" v="875713" />
		<tag k="ssr:type" v="landskapsområde" />
	</node>
	<node id="-534876" lat="61.5015094572" lon="5.68538845554">
		<tag k="name" v="Sælavegen" />
		<tag k="ssr:date" v="2019-05-31" />
		<tag k="ssr:gruppe" v="veg" />
		<tag k="ssr:hovedgruppe" v="infrastruktur" />
		<tag k="ssr:stedsnr" v="1053915" />
		<tag k="ssr:type" v="adressenavn" />
	</node>
	<node id="-534875" lat="61.5148014904" lon="5.73933263734">
		<tag k="name" v="Øvre Grimsethmarka" />
		<tag k="ssr:date" v="2019-05-31" />
		<tag k="ssr:gruppe" v="veg" />
		<tag k="ssr:hovedgruppe" v="infrastruktur" />
		<tag k="ssr:stedsnr" v="1053875" />
		<tag k="ssr:type" v="adressenavn" />
	</node>
	<node id="-534874" lat="61.4957455969" lon="5.31360838921">
		<tag k="name" v="Seljevollvegen" />
		<tag k="ssr:date" v="2019-05-31" />
		<tag k="ssr:gruppe" v="veg" />
		<tag k="ssr:hovedgruppe" v="infrastruktur" />
		<tag k="ssr:stedsnr" v="1053874" />
		<tag k="ssr:type" v="adressenavn" />
	</node>
	<node id="-534873" lat="61.4926269133" lon="5.50347109669">
		<tag k="name" v="Nordvika" />
		<tag k="ssr:date" v="2019-05-31" />
		<tag k="ssr:gruppe" v="veg" />
		<tag k="ssr:hovedgruppe" v="infrastruktur" />
		<tag k="ssr:stedsnr" v="1053873" />
		<tag k="ssr:type" v="adressenavn" />
	</node>
	<node id="-534872" lat="61.4904835701" lon="5.39368093843">
		<tag k="name" v="Vevringskyrkjevegen" />
		<tag k="ssr:date" v="2019-05-31" />
		<tag k="ssr:gruppe" v="veg" />
		<tag k="ssr:hovedgruppe" v="infrastruktur" />
		<tag k="ssr:stedsnr" v="1053872" />
		<tag k="ssr:type" v="adressenavn" />
	</node>
	<node id="-534871" lat="61.4904860202" lon="5.3832656017">
		<tag k="name" v="Vassbotnvegen" />
		<tag k="ssr:date" v="2019-05-31" />
		<tag k="ssr:gruppe" v="veg" />
		<tag k="ssr:hovedgruppe" v="infrastruktur" />
		<tag k="ssr:stedsnr" v="1053871" />
		<tag k="ssr:type" v="adressenavn" />
	</node>
	<node id="-534870" lat="61.4613136354" lon="5.53498825388">
		<tag k="name" v="Klubbavegen" />
		<tag k="ssr:date" v="2019-05-31" />
		<tag k="ssr:gruppe" v="veg" />
		<tag k="ssr:hovedgruppe" v="infrastruktur" />
		<tag k="ssr:stedsnr" v="1053870" />
		<tag k="ssr:type" v="adressenavn" />
	</node>
	<node id="-534869" lat="61.4646513338" lon="5.49783870792">
		<tag k="name" v="Vatnelia" />
		<tag k="ssr:date" v="2019-05-31" />
		<tag k="ssr:gruppe" v="veg" />
		<tag k="ssr:hovedgruppe" v="infrastruktur" />
		<tag k="ssr:stedsnr" v="1053869" />
		<tag k="ssr:type" v="adressenavn" />
	</node>
	<node id="-534868" lat="61.4606345467" lon="5.49431796324">
		<tag k="name" v="Hellenesvegen" />
		<tag k="ssr:date" v="2019-05-31" />
		<tag k="ssr:gruppe" v="veg" />
		<tag k="ssr:hovedgruppe" v="infrastruktur" />
		<tag k="ssr:stedsnr" v="1053868" />
		<tag k="ssr:type" v="adressenavn" />
	</node>
	<node id="-534867" lat="61.4761428938" lon="5.59808424304">
		<tag k="name" v="Storelivegen" />
		<tag k="ssr:date" v="2019-05-31" />
		<tag k="ssr:gruppe" v="veg" />
		<tag k="ssr:hovedgruppe" v="infrastruktur" />
		<tag k="ssr:stedsnr" v="1053867" />
		<tag k="ssr:type" v="adressenavn" />
	</node>
	<node id="-534866" lat="61.4689864355" lon="5.55646855415">
		<tag k="name" v="Hellevegen" />
		<tag k="ssr:date" v="2019-05-31" />
		<tag k="ssr:gruppe" v="veg" />
		<tag k="ssr:hovedgruppe" v="infrastruktur" />
		<tag k="ssr:stedsnr" v="1053866" />
		<tag k="ssr:type" v="adressenavn" />
	</node>
	<node id="-534865" lat="61.4643803948" lon="5.5420832094">
		<tag k="name" v="Vatnevegen" />
		<tag k="ssr:date" v="2019-05-31" />
		<tag k="ssr:gruppe" v="veg" />
		<tag k="ssr:hovedgruppe" v="infrastruktur" />
		<tag k="ssr:stedsnr" v="1053865" />
		<tag k="ssr:type" v="adressenavn" />
	</node>
	<node id="-534864" lat="61.4666017168" lon="5.56084940357">
		<tag k="name" v="Einevollsvegen" />
		<tag k="ssr:date" v="2019-05-31" />
		<tag k="ssr:gruppe" v="veg" />
		<tag k="ssr:hovedgruppe" v="infrastruktur" />
		<tag k="ssr:stedsnr" v="1053864" />
		<tag k="ssr:type" v="adressenavn" />
	</node>
	<node id="-534863" lat="61.4869367694" lon="5.50095234663">
		<tag k="name" v="Under Li" />
		<tag k="ssr:date" v="2019-05-31" />
		<tag k="ssr:gruppe" v="veg" />
		<tag k="ssr:hovedgruppe" v="infrastruktur" />
		<tag k="ssr:stedsnr" v="1053863" />
		<tag k="ssr:type" v="adressenavn" />
	</node>
	<node id="-534862" lat="61.489274217" lon="5.49749401292">
		<tag k="name" v="Kalvenesvegen" />
		<tag k="ssr:date" v="2019-05-31" />
		<tag k="ssr:gruppe" v="veg" />
		<tag k="ssr:hovedgruppe" v="infrastruktur" />
		<tag k="ssr:stedsnr" v="1053862" />
		<tag k="ssr:type" v="adressenavn" />
	</node>
	<node id="-534861" lat="61.4915435286" lon="5.50432595153">
		<tag k="name" v="Øvreredalsvegen" />
		<tag k="ssr:date" v="2019-05-31" />
		<tag k="ssr:gruppe" v="veg" />
		<tag k="ssr:hovedgruppe" v="infrastruktur" />
		<tag k="ssr:stedsnr" v="1053861" />
		<tag k="ssr:type" v="adressenavn" />
	</node>
	<node id="-534860" lat="61.4573491546" lon="5.50263450466">
		<tag k="name" v="Hillersvika" />
		<tag k="ssr:date" v="2019-05-31" />
		<tag k="ssr:gruppe" v="veg" />
		<tag k="ssr:hovedgruppe" v="infrastruktur" />
		<tag k="ssr:stedsnr" v="1053860" />
		<tag k="ssr:type" v="adressenavn" />
	</node>
	<node id="-534859" lat="61.4631609502" lon="5.4758132027">
		<tag k="name" v="Russenesvegen" />
		<tag k="ssr:date" v="2019-05-31" />
		<tag k="ssr:gruppe" v="veg" />
		<tag k="ssr:hovedgruppe" v="infrastruktur" />
		<tag k="ssr:stedsnr" v="1053859" />
		<tag k="ssr:type" v="adressenavn" />
	</node>
	<node id="-534858" lat="61.4598234452" lon="5.47026726118">
		<tag k="name" v="Kunesvegen" />
		<tag k="ssr:date" v="2019-05-31" />
		<tag k="ssr:gruppe" v="veg" />
		<tag k="ssr:hovedgruppe" v="infrastruktur" />
		<tag k="ssr:stedsnr" v="1053858" />
		<tag k="ssr:type" v="adressenavn" />
	</node>
	<node id="-534857" lat="61.464301084" lon="5.46170218021">
		<tag k="name" v="Skarvika" />
		<tag k="ssr:date" v="2019-05-31" />
		<tag k="ssr:gruppe" v="veg" />
		<tag k="ssr:hovedgruppe" v="infrastruktur" />
		<tag k="ssr:stedsnr" v="1053857" />
		<tag k="ssr:type" v="adressenavn" />
	</node>
	<node id="-534856" lat="61.500032689" lon="5.6813453027">
		<tag k="name" v="Sælasteinen" />
		<tag k="ssr:date" v="2019-05-31" />
		<tag k="ssr:gruppe" v="veg" />
		<tag k="ssr:hovedgruppe" v="infrastruktur" />
		<tag k="ssr:stedsnr" v="1053913" />
		<tag k="ssr:type" v="adressenavn" />
	</node>
	<node id="-534855" lat="61.5025710296" lon="5.69006282955">
		<tag k="name" v="Slåttene" />
		<tag k="ssr:date" v="2019-05-31" />
		<tag k="ssr:gruppe" v="veg" />
		<tag k="ssr:hovedgruppe" v="infrastruktur" />
		<tag k="ssr:stedsnr" v="1053912" />
		<tag k="ssr:type" v="adressenavn" />
	</node>
	<node id="-534854" lat="61.4850233561" lon="5.62600048689">
		<tag k="name" v="Slettehaugen" />
		<tag k="ssr:date" v="2019-05-31" />
		<tag k="ssr:gruppe" v="veg" />
		<tag k="ssr:hovedgruppe" v="infrastruktur" />
		<tag k="ssr:stedsnr" v="1053911" />
		<tag k="ssr:type" v="adressenavn" />
	</node>
	<node id="-534853" lat="61.4826346484" lon="5.62787542282">
		<tag k="name" v="Frammarsvikvegen" />
		<tag k="ssr:date" v="2019-05-31" />
		<tag k="ssr:gruppe" v="veg" />
		<tag k="ssr:hovedgruppe" v="infrastruktur" />
		<tag k="ssr:stedsnr" v="1053910" />
		<tag k="ssr:type" v="adressenavn" />
	</node>
	<node id="-534852" lat="61.4688143938" lon="5.60076278243">
		<tag k="name" v="Andalsvegen" />
		<tag k="ssr:date" v="2019-05-31" />
		<tag k="ssr:gruppe" v="veg" />
		<tag k="ssr:hovedgruppe" v="infrastruktur" />
		<tag k="ssr:stedsnr" v="1053909" />
		<tag k="ssr:type" v="adressenavn" />
	</node>
	<node id="-534851" lat="61.4951685161" lon="5.67020824023">
		<tag k="name" v="Indre Liabøen" />
		<tag k="ssr:date" v="2019-05-31" />
		<tag k="ssr:gruppe" v="veg" />
		<tag k="ssr:hovedgruppe" v="infrastruktur" />
		<tag k="ssr:stedsnr" v="1053908" />
		<tag k="ssr:type" v="adressenavn" />
	</node>
	<node id="-534850" lat="61.4939114267" lon="5.66840643443">
		<tag k="name" v="Ytre Liabøen" />
		<tag k="ssr:date" v="2019-05-31" />
		<tag k="ssr:gruppe" v="veg" />
		<tag k="ssr:hovedgruppe" v="infrastruktur" />
		<tag k="ssr:stedsnr" v="1053907" />
		<tag k="ssr:type" v="adressenavn" />
	</node>
	<node id="-534849" lat="61.5052108886" lon="5.70010237349">
		<tag k="name" v="Nedre Mallasvikvegen" />
		<tag k="ssr:date" v="2019-05-31" />
		<tag k="ssr:gruppe" v="veg" />
		<tag k="ssr:hovedgruppe" v="infrastruktur" />
		<tag k="ssr:stedsnr" v="1053897" />
		<tag k="ssr:type" v="adressenavn" />
	</node>
	<node id="-534848" lat="61.5139132008" lon="5.72472934555">
		<tag k="name" v="Løkentunet" />
		<tag k="ssr:date" v="2019-05-31" />
		<tag k="ssr:gruppe" v="veg" />
		<tag k="ssr:hovedgruppe" v="infrastruktur" />
		<tag k="ssr:stedsnr" v="1053893" />
		<tag k="ssr:type" v="adressenavn" />
	</node>
	<node id="-534847" lat="61.5123900347" lon="5.71352263177">
		<tag k="name" v="Brunene" />
		<tag k="ssr:date" v="2019-05-31" />
		<tag k="ssr:gruppe" v="veg" />
		<tag k="ssr:hovedgruppe" v="infrastruktur" />
		<tag k="ssr:stedsnr" v="1053892" />
		<tag k="ssr:type" v="adressenavn" />
	</node>
	<node id="-535201" lat="61.4878722234" lon="5.46414166947">
		<tag k="name" v="Grytten lykt" />
		<tag k="ssr:date" v="2016-05-10" />
		<tag k="ssr:gruppe" v="navigasjon" />
		<tag k="ssr:hovedgruppe" v="infrastruktur" />
		<tag k="ssr:stedsnr" v="165108" />
		<tag k="ssr:type" v="fyrlykt" />
	</node>
	<node id="-536081" lat="61.5103583325" lon="5.71720277848">
		<tag k="name" v="Naustdal kommune" />
		<tag k="ssr:date" v="2016-05-11" />
		<tag k="ssr:gruppe" v="administrativeIndelinger" />
		<tag k="ssr:hovedgruppe" v="offentligAdministrasjon" />
		<tag k="ssr:stedsnr" v="935514" />
		<tag k="ssr:type" v="kommune" />
	</node>
	<node id="-535938" lat="61.4548861126" lon="5.48085278219">
		<tag k="alt_name" v="Helleneset;Hellenes" />
		<tag k="name" v="Helleneset lykt" />
		<tag k="ssr:date" v="2016-05-11" />
		<tag k="ssr:gruppe" v="navigasjon" />
		<tag k="ssr:hovedgruppe" v="infrastruktur" />
		<tag k="ssr:stedsnr" v="797650" />
		<tag k="ssr:type" v="fyrlykt" />
	</node>
</osm>
