<?xml version="1.0" encoding="UTF-8"?>
<osm generator="osmapis" version="0.6">
	<node id="-777888" lat="69.9464750044" lon="21.9307555244">
		<tag k="highway" v="path" />
		<tag k="name" v="Kuhollvegen" />
		<tag k="ssr:stedsnr" v="843650" />
	</node>
	<node id="-777183" lat="69.7834555566" lon="22.1071388333">
		<tag k="highway" v="path" />
		<tag k="name" v="Gruveveg" />
		<tag k="ssr:stedsnr" v="540669" />
	</node>
	<node id="-776446" lat="69.8357138859" lon="21.828580518">
		<tag k="highway" v="path" />
		<tag k="name" v="Hesteveien" />
		<tag k="ssr:stedsnr" v="115179" />
	</node>
	<node id="-777724" lat="69.7262305527" lon="22.1164555071">
		<tag k="highway" v="path" />
		<tag k="name" v="Limpaveien" />
		<tag k="ssr:stedsnr" v="782615" />
	</node>
	<node id="-776923" lat="69.7276194452" lon="22.1758110625">
		<tag k="highway" v="path" />
		<tag k="name" v="Dalveien" />
		<tag k="ssr:stedsnr" v="419635" />
	</node>
	<node id="-778102" lat="70.2049694481" lon="21.2184083121">
		<tag k="man_made" v="quay" />
		<tag k="name" v="Hamna" />
		<tag k="place" v="locality" />
		<tag k="ssr:stedsnr" v="944124" />
	</node>
	<node id="-776318" lat="69.9464361084" lon="21.9363721861">
		<tag k="highway" v="path" />
		<tag k="name" v="Stigavegen" />
		<tag k="ssr:stedsnr" v="54628" />
	</node>
	<node id="-778033" lat="69.9034638939" lon="22.0912221897">
		<tag k="highway" v="path" />
		<tag k="name" v="Rastusvegen" />
		<tag k="ssr:stedsnr" v="904710" />
	</node>
	<node id="-776144" lat="70.0611805607" lon="21.9162833005">
		<tag k="man_made" v="cairn" />
		<tag k="name" v="Sandstein" />
		<tag k="place" v="locality" />
		<tag k="ssr:stedsnr" v="897373" />
	</node>
	<node id="-777583" lat="69.9029722246" lon="22.0865277267">
		<tag k="ford" v="yes" />
		<tag k="name" v="Rastusvaet" />
		<tag k="place" v="locality" />
		<tag k="ssr:stedsnr" v="722534" />
	</node>
	<node id="-776334" lat="69.7415277763" lon="22.0065694007">
		<tag k="highway" v="path" />
		<tag k="name" v="Lillestraumveien" />
		<tag k="ssr:stedsnr" v="54817" />
	</node>
	<node id="-776476" lat="69.7378722273" lon="22.1618638328">
		<tag k="highway" v="path" />
		<tag k="name" v="Gearbbetveien" />
		<tag k="ssr:stedsnr" v="115683" />
	</node>
	<node id="-776126" lat="70.0024305545" lon="21.6780082849">
		<tag k="highway" v="path" />
		<tag k="name" v="Sennaveien" />
		<tag k="ssr:stedsnr" v="479095" />
	</node>
	<node id="-775851" lat="69.7599388878" lon="22.0051944079">
		<tag k="highway" v="path" />
		<tag k="name" v="Storveien" />
		<tag k="ssr:stedsnr" v="297996" />
	</node>
	<node id="-778183" lat="69.7366472261" lon="22.1547304964">
		<tag k="highway" v="path" />
		<tag k="name" v="SÃ¦terveien" />
		<tag k="ssr:stedsnr" v="964698" />
	</node>
	<node id="-775808" lat="69.8440194475" lon="21.8208999547">
		<tag k="junction" v="yes" />
		<tag k="name" v="Krysset" />
		<tag k="place" v="locality" />
		<tag k="ssr:stedsnr" v="296206" />
	</node>
	<node id="-777723" lat="69.9455555602" lon="21.9316027522">
		<tag k="highway" v="path" />
		<tag k="name" v="Steinhaugvegen" />
		<tag k="ssr:stedsnr" v="782605" />
	</node>
</osm>
