<?xml version="1.0" encoding="UTF-8"?>
<osm generator="osmapis" version="0.6">
	<node id="-776178" lat="69.7714970201" lon="22.0395500418">
		<tag k="name" v="Pikkuvirranpakka" />
		<tag k="name:fkv" v="Pikkuvirranpakka" />
		<tag k="place" v="locality" />
		<tag k="ssr:stedsnr" v="987850" />
	</node>
	<node id="-776177" lat="69.7654574647" lon="22.0086300845">
		<tag k="name" v="Virranmukka" />
		<tag k="name:fkv" v="Virranmukka" />
		<tag k="natural" v="bay" />
		<tag k="ssr:stedsnr" v="987849" />
	</node>
	<node id="-776176" lat="69.8286465633" lon="21.8919525092">
		<tag k="name" v="Norttovirta" />
		<tag k="name:fkv" v="Norttovirta" />
		<tag k="natural" v="strait" />
		<tag k="ssr:stedsnr" v="987848" />
	</node>
	<node id="-776175" lat="69.8453995646" lon="21.8671218239">
		<tag k="name" v="Orjasvirta" />
		<tag k="name:fkv" v="Orjasvirta" />
		<tag k="natural" v="strait" />
		<tag k="ssr:stedsnr" v="987847" />
	</node>
	<node id="-776173" lat="69.7876021768" lon="22.0103844962">
		<tag k="fixme" v="consider seamark:type=rock or natural=shoal" />
		<tag k="loc_name:no" v="Øyskjæret" />
		<tag k="name" v="Vuorenlaassa" />
		<tag k="name:fkv" v="Vuorenlaassa" />
		<tag k="place" v="islet" />
		<tag k="ssr:stedsnr" v="987845" />
	</node>
	<node id="-776171" lat="69.7531207252" lon="22.1122576979">
		<tag k="name" v="Tangasenrässi" />
		<tag k="name:fkv" v="Tangasenrässi" />
		<tag k="natural" v="beach" />
		<tag k="place" v="locality" />
		<tag k="ssr:stedsnr" v="987832" />
	</node>
	<node id="-776168" lat="69.7773338258" lon="22.0265493306">
		<tag k="name" v="Kätkäsenväylä" />
		<tag k="name:fkv" v="Kätkäsenväylä" />
		<tag k="place" v="locality" />
		<tag k="ssr:stedsnr" v="987819" />
	</node>
	<node id="-776153" lat="70.0854250002" lon="21.9648916262">
		<tag k="name" v="Várláttu" />
		<tag k="name:se" v="Várláttu" />
		<tag k="natural" v="bay" />
		<tag k="ssr:stedsnr" v="897803" />
	</node>
	<node id="-778200" lat="69.761527777" lon="22.0174193918">
		<tag k="name" v="Innergrunnen" />
		<tag k="natural" v="shoal" />
		<tag k="place" v="locality" />
		<tag k="ssr:stedsnr" v="964995" />
	</node>
	<node id="-776151" lat="70.2062111115" lon="21.2169416438">
		<tag k="name" v="Lallaneset" />
		<tag k="natural" v="cape" />
		<tag k="ssr:stedsnr" v="897730" />
	</node>
	<node id="-776150" lat="70.116" lon="21.3486944041">
		<tag k="name" v="Joffenbukta" />
		<tag k="natural" v="bay" />
		<tag k="ssr:stedsnr" v="897677" />
	</node>
	<node id="-776141" lat="69.9705277792" lon="21.8115805159">
		<tag k="name" v="Flatholmgrunnen" />
		<tag k="natural" v="shoal" />
		<tag k="place" v="locality" />
		<tag k="ssr:stedsnr" v="895727" />
	</node>
	<node id="-778187" lat="69.7342277766" lon="22.0689888514">
		<tag k="name" v="Vanhatalo" />
		<tag k="name:fkv" v="Vanhatalo" />
		<tag k="natural" v="cape" />
		<tag k="ssr:stedsnr" v="964713" />
	</node>
	<node id="-776138" lat="69.878497221" lon="21.8483971897">
		<tag k="name" v="Indre Nøkkelen" />
		<tag k="natural" v="shoal" />
		<tag k="place" v="locality" />
		<tag k="ssr:stedsnr" v="895262" />
	</node>
	<node id="-776136" lat="69.8781472242" lon="21.9030082998">
		<tag k="name" v="Indre Bankenes" />
		<tag k="natural" v="cape" />
		<tag k="ssr:stedsnr" v="894964" />
	</node>
	<node id="-776129" lat="69.8252666727" lon="21.8715610638">
		<tag k="name" v="Gálbemohkki" />
		<tag k="name:se" v="Gálbemohkki" />
		<tag k="natural" v="bay" />
		<tag k="ssr:stedsnr" v="479152" />
	</node>
	<node id="-776125" lat="70.0444305554" lon="21.6195694132">
		<tag k="name" v="Kvalen" />
		<tag k="natural" v="bay" />
		<tag k="ssr:stedsnr" v="479084" />
	</node>
	<node id="-778171" lat="69.9606805594" lon="21.8940693933">
		<tag k="name" v="Kvænbuktneset" />
		<tag k="natural" v="cape" />
		<tag k="ssr:stedsnr" v="964586" />
	</node>
	<node id="-776119" lat="70.0146611124" lon="21.7280110803">
		<tag k="name" v="Guiveluokta" />
		<tag k="name:se" v="Guiveluokta" />
		<tag k="natural" v="bay" />
		<tag k="ssr:stedsnr" v="478791" />
	</node>
	<node id="-776118" lat="70.0165666691" lon="21.7249583119">
		<tag k="name" v="Fattnjárga" />
		<tag k="name:se" v="Fattnjárga" />
		<tag k="natural" v="cape" />
		<tag k="ssr:stedsnr" v="478789" />
	</node>
	<node id="-776117" lat="69.9873722249" lon="21.5047305277">
		<tag k="name" v="Pompefjæra" />
		<tag k="natural" v="beach" />
		<tag k="place" v="locality" />
		<tag k="ssr:stedsnr" v="478486" />
	</node>
	<node id="-778163" lat="70.0131444434" lon="21.4213916397">
		<tag k="name" v="Molla" />
		<tag k="natural" v="bay" />
		<tag k="ssr:stedsnr" v="964394" />
	</node>
	<node id="-778162" lat="69.8505111101" lon="21.8190194024">
		<tag k="name" v="Karviklandet" />
		<tag k="place" v="locality" />
		<tag k="ssr:stedsnr" v="964277" />
	</node>
	<node id="-778160" lat="70.029230553" lon="21.6739499591">
		<tag k="name" v="Trongbukta" />
		<tag k="natural" v="bay" />
		<tag k="ssr:stedsnr" v="964228" />
	</node>
	<node id="-778158" lat="70.0221888864" lon="21.7028332988">
		<tag k="name" v="Nordsida" />
		<tag k="natural" v="bay" />
		<tag k="ssr:stedsnr" v="964210" />
	</node>
	<node id="-776109" lat="69.8896972231" lon="21.8241193953">
		<tag k="name" v="Indre Nøkland" />
		<tag k="natural" v="bay" />
		<tag k="ssr:stedsnr" v="478208" />
	</node>
	<node id="-778154" lat="70.0022000044" lon="21.6478971799">
		<tag k="name" v="Beritlukten - Biretluokta" />
		<tag k="name:no" v="Beritlukten" />
		<tag k="name:se" v="Biretluokta" />
		<tag k="natural" v="bay" />
		<tag k="ssr:stedsnr" v="964126" />
	</node>
	<node id="-778152" lat="70.0375611164" lon="21.6576055183">
		<tag k="name" v="Vedbukta" />
		<tag k="natural" v="bay" />
		<tag k="ssr:stedsnr" v="964109" />
	</node>
	<node id="-778151" lat="69.9962083339" lon="21.6777027353">
		<tag k="name" v="Trandaneset" />
		<tag k="natural" v="cape" />
		<tag k="ssr:stedsnr" v="964105" />
	</node>
	<node id="-778144" lat="70.0448027798" lon="21.803447191">
		<tag k="name" v="Hamnebuktgrunnen" />
		<tag k="natural" v="shoal" />
		<tag k="place" v="locality" />
		<tag k="ssr:stedsnr" v="963798" />
	</node>
	<node id="-776095" lat="69.9705722254" lon="21.6551305106">
		<tag k="name" v="Gråberggrunnen" />
		<tag k="natural" v="shoal" />
		<tag k="place" v="locality" />
		<tag k="ssr:stedsnr" v="410337" />
	</node>
	<node id="-776094" lat="69.938913889" lon="21.6583971774">
		<tag k="name" v="Småseigrunnen" />
		<tag k="natural" v="shoal" />
		<tag k="place" v="locality" />
		<tag k="ssr:stedsnr" v="410308" />
	</node>
	<node id="-778141" lat="70.029605557" lon="22.0870166243">
		<tag k="name" v="Neset" />
		<tag k="natural" v="cape" />
		<tag k="ssr:stedsnr" v="964565" />
	</node>
	<node id="-776091" lat="70.173975005" lon="21.2561249691">
		<tag k="name" v="Torskenesbukta" />
		<tag k="natural" v="bay" />
		<tag k="ssr:stedsnr" v="409907" />
	</node>
	<node id="-778137" lat="69.806388892" lon="22.006447176">
		<tag k="name" v="Årøylandet" />
		<tag k="place" v="locality" />
		<tag k="ssr:stedsnr" v="964538" />
	</node>
	<node id="-776088" lat="69.9909361133" lon="21.9053166378">
		<tag k="name" v="Klakken" />
		<tag k="natural" v="shoal" />
		<tag k="ssr:stedsnr" v="409715" />
	</node>
	<node id="-778128" lat="70.0636388907" lon="21.6911999591">
		<tag k="name" v="Bukta" />
		<tag k="natural" v="bay" />
		<tag k="ssr:stedsnr" v="958904" />
	</node>
	<node id="-778125" lat="70.0604805573" lon="21.7802471888">
		<tag k="name" v="Sandneset" />
		<tag k="natural" v="cape" />
		<tag k="ssr:stedsnr" v="958872" />
	</node>
	<node id="-778123" lat="70.0980583326" lon="21.3284666335">
		<tag k="name" v="Johan-Ellabukta" />
		<tag k="natural" v="bay" />
		<tag k="ssr:stedsnr" v="958721" />
	</node>
	<node id="-778119" lat="70.0631194431" lon="21.9383916312">
		<tag k="name" v="Lillevika" />
		<tag k="natural" v="bay" />
		<tag k="ssr:stedsnr" v="958400" />
	</node>
	<node id="-778118" lat="70.0952583327" lon="22.0285444094">
		<tag k="name" v="Yttersjolmen" />
		<tag k="natural" v="cape" />
		<tag k="ssr:stedsnr" v="958380" />
	</node>
	<node id="-776068" lat="70.0358916643" lon="21.6627110883">
		<tag k="alt_name" v="Goddabealneset" />
		<tag k="name" v="Goddabelneset" />
		<tag k="natural" v="cape" />
		<tag k="ssr:stedsnr" v="383482" />
	</node>
	<node id="-778115" lat="70.2008805606" lon="21.1883944203">
		<tag k="name" v="Snaget" />
		<tag k="natural" v="cape" />
		<tag k="ssr:stedsnr" v="957759" />
	</node>
	<node id="-776065" lat="70.0625638902" lon="22.0478471904">
		<tag k="name" v="Jøkelfjordeidet - Jiehkervuonmuotki" />
		<tag k="name:no" v="Jøkelfjordeidet" />
		<tag k="name:se" v="Jiehkervuonmuotki" />
		<tag k="old_name:se" v="Jiekkervuonmuotki" />
		<tag k="place" v="locality" />
		<tag k="ssr:stedsnr" v="383463" />
	</node>
	<node id="-776063" lat="70.0171749979" lon="21.5518749743">
		<tag k="name" v="Skaga - Skáktá" />
		<tag k="name:no" v="Skaga" />
		<tag k="name:se" v="Skáktá" />
		<tag k="natural" v="cape" />
		<tag k="old_name:se" v="Skakta" />
		<tag k="ssr:stedsnr" v="383357" />
	</node>
	<node id="-776061" lat="70.0184527754" lon="21.2920499609">
		<tag k="alt_name" v="Haukøysundet, l" />
		<tag k="name" v="Lille Haukøysundet" />
		<tag k="natural" v="strait" />
		<tag k="ssr:stedsnr" v="383351" />
	</node>
	<node id="-776060" lat="70.0278499974" lon="21.559636075">
		<tag k="alt_name:no" v="Furuneset;Forraneset" />
		<tag k="name" v="Foraneset - Soarvenjárga" />
		<tag k="name:no" v="Foraneset" />
		<tag k="name:se" v="Soarvenjárga" />
		<tag k="natural" v="cape" />
		<tag k="old_name:se" v="Soarvenjarga" />
		<tag k="ssr:stedsnr" v="383346" />
	</node>
	<node id="-778107" lat="69.8724277803" lon="21.9112249542">
		<tag k="name" v="Steinnesbåen" />
		<tag k="place" v="locality" />
		<tag k="seamark:type" v="rock" />
		<tag k="ssr:stedsnr" v="955958" />
	</node>
	<node id="-778106" lat="69.8684805615" lon="21.9524249531">
		<tag k="name" v="Ravelsvik" />
		<tag k="natural" v="bay" />
		<tag k="ssr:stedsnr" v="955954" />
	</node>
	<node id="-778104" lat="70.024152775" lon="21.296169427">
		<tag k="fixme" v="consider seamark:type=rock or natural=shoal" />
		<tag k="name" v="Rundskjæret" />
		<tag k="place" v="islet" />
		<tag k="ssr:stedsnr" v="955100" />
	</node>
	<node id="-778103" lat="69.8449277777" lon="21.8392166341">
		<tag k="fixme" v="multiple name tags, choose one and add the other to alt_name" />
		<tag k="name" v="Ytre Tømmerbukt;Ytrebukta" />
		<tag k="natural" v="bay" />
		<tag k="ssr:stedsnr" v="955090" />
	</node>
	<node id="-776054" lat="70.0996833341" lon="22.0071777317">
		<tag k="alt_name" v="Skalsa" />
		<tag k="name" v="Skalsaneset" />
		<tag k="natural" v="cape" />
		<tag k="ssr:stedsnr" v="383312" />
	</node>
	<node id="-778101" lat="70.222111112" lon="21.1739971882">
		<tag k="name" v="Lille-Brynnilen" />
		<tag k="place" v="islet" />
		<tag k="ssr:stedsnr" v="940226" />
	</node>
	<node id="-778100" lat="70.1894555542" lon="21.1968027517">
		<tag k="name" v="Fella - Feallá" />
		<tag k="name:no" v="Fella" />
		<tag k="name:se" v="Feallá" />
		<tag k="natural" v="shoal" />
		<tag k="place" v="locality" />
		<tag k="ssr:stedsnr" v="940062" />
	</node>
	<node id="-776048" lat="69.9743805531" lon="21.7822916346">
		<tag k="name" v="Flatholmen" />
		<tag k="place" v="islet" />
		<tag k="ssr:stedsnr" v="383263" />
	</node>
	<node id="-778092" lat="70.0201138939" lon="21.7123083053">
		<tag k="alt_name" v="Buollaneset" />
		<tag k="name" v="Bollaneset" />
		<tag k="natural" v="cape" />
		<tag k="ssr:stedsnr" v="930503" />
	</node>
	<node id="-778086" lat="69.9916638878" lon="21.9893138477">
		<tag k="name" v="Slettneset" />
		<tag k="natural" v="cape" />
		<tag k="ssr:stedsnr" v="930234" />
	</node>
	<node id="-778083" lat="69.8409750008" lon="21.9486888465">
		<tag k="name" v="Sekkemobukta - Säkkimukka" />
		<tag k="name:fkv" v="Säkkimukka" />
		<tag k="name:no" v="Sekkemobukta" />
		<tag k="natural" v="bay" />
		<tag k="ssr:stedsnr" v="930083" />
	</node>
	<node id="-778080" lat="69.9679083356" lon="21.5320416229">
		<tag k="fixme" v="multiple name tags, choose one and add the other to alt_name" />
		<tag k="name" v="Langstrandholmen;Valanholmen" />
		<tag k="place" v="islet" />
		<tag k="ssr:stedsnr" v="929891" />
	</node>
	<node id="-778075" lat="70.0452499995" lon="21.8134943954">
		<tag k="fixme" v="multiple name tags, choose one and add the other to alt_name" />
		<tag k="name" v="Hamnebukta;Hamnebukta, yt;Ytre Hamnebukta - Gazzamohkki" />
		<tag k="name:no" v="Hamnebukta;Hamnebukta, yt;Ytre Hamnebukta" />
		<tag k="name:se" v="Gazzamohkki" />
		<tag k="natural" v="bay" />
		<tag k="old_name:se" v="Gazzamåkki" />
		<tag k="ssr:stedsnr" v="929442" />
	</node>
	<node id="-778072" lat="70.0691749997" lon="21.9746777461">
		<tag k="name" v="Aslakneset" />
		<tag k="natural" v="cape" />
		<tag k="ssr:stedsnr" v="929433" />
	</node>
	<node id="-778070" lat="70.0750694457" lon="21.8288777456">
		<tag k="alt_name" v="Nappen, yt" />
		<tag k="name" v="Ytre Nappen" />
		<tag k="natural" v="cape" />
		<tag k="ssr:stedsnr" v="929426" />
	</node>
	<node id="-778069" lat="70.0647472249" lon="21.9449971798">
		<tag k="name" v="Kjerringneset" />
		<tag k="natural" v="cape" />
		<tag k="ssr:stedsnr" v="929422" />
	</node>
	<node id="-776020" lat="69.8478555604" lon="21.825002749">
		<tag k="name" v="Karvika - Gárbeluokta" />
		<tag k="name:no" v="Karvika" />
		<tag k="name:se" v="Gárbeluokta" />
		<tag k="natural" v="bay" />
		<tag k="ssr:stedsnr" v="383069" />
	</node>
	<node id="-778066" lat="70.0075972241" lon="21.2348360775">
		<tag k="name" v="Bukta" />
		<tag k="natural" v="bay" />
		<tag k="ssr:stedsnr" v="929328" />
	</node>
	<node id="-778065" lat="70.0204500002" lon="21.3726749713">
		<tag k="fixme" v="multiple name tags, choose one and add the other to alt_name" />
		<tag k="name" v="Indre Øyrneset;Øra - Gárgu" />
		<tag k="name:no" v="Indre Øyrneset;Øra" />
		<tag k="name:se" v="Gárgu" />
		<tag k="natural" v="cape" />
		<tag k="old_name:se" v="Gargo" />
		<tag k="ssr:stedsnr" v="929313" />
	</node>
	<node id="-776014" lat="69.7681111158" lon="21.9794888422">
		<tag k="name" v="Bjørnebukta - Äijäsenmukka" />
		<tag k="name:fkv" v="Äijäsenmukka" />
		<tag k="name:no" v="Bjørnebukta" />
		<tag k="natural" v="bay" />
		<tag k="ssr:stedsnr" v="383003" />
	</node>
	<node id="-778059" lat="69.8865027763" lon="21.9777277218">
		<tag k="loc_name:se" v="Báttármuotki" />
		<tag k="name" v="Baddereidet - Spalcamuotki" />
		<tag k="name:no" v="Baddereidet" />
		<tag k="name:se" v="Spalcamuotki" />
		<tag k="place" v="locality" />
		<tag k="ssr:stedsnr" v="929173" />
	</node>
	<node id="-778055" lat="70.1587750026" lon="21.3826499759">
		<tag k="name" v="Coagangáddi" />
		<tag k="name:se" v="Coagangáddi" />
		<tag k="natural" v="beach" />
		<tag k="old_name:se" v="Coagangaddi" />
		<tag k="place" v="locality" />
		<tag k="ssr:stedsnr" v="929149" />
	</node>
	<node id="-775819" lat="69.7894638947" lon="21.9179388399">
		<tag k="name" v="Ytre Navit" />
		<tag k="natural" v="bay" />
		<tag k="ssr:stedsnr" v="296832" />
	</node>
	<node id="-778048" lat="69.9472583294" lon="21.8275083045">
		<tag k="alt_name" v="Høgholman" />
		<tag k="name" v="Høyholman" />
		<tag k="place" v="islet" />
		<tag k="ssr:stedsnr" v="929119" />
	</node>
	<node id="-775998" lat="69.7568111083" lon="22.0234082861">
		<tag k="name" v="Gambukta - Kotamukka" />
		<tag k="name:fkv" v="Kotamukka" />
		<tag k="name:no" v="Gambukta" />
		<tag k="natural" v="bay" />
		<tag k="ssr:stedsnr" v="357998" />
	</node>
	<node id="-775996" lat="69.7716416707" lon="21.9552638555">
		<tag k="name" v="Oterbukta" />
		<tag k="natural" v="bay" />
		<tag k="ssr:stedsnr" v="357919" />
	</node>
	<node id="-775995" lat="69.7913944485" lon="21.9938249486">
		<tag k="name" v="Tirrunniemi" />
		<tag k="name:fkv" v="Tirrunniemi" />
		<tag k="natural" v="cape" />
		<tag k="ssr:stedsnr" v="357906" />
	</node>
	<node id="-775986" lat="69.9521944411" lon="21.9207610796">
		<tag k="name" v="Revbukta" />
		<tag k="natural" v="bay" />
		<tag k="ssr:stedsnr" v="357647" />
	</node>
	<node id="-778030" lat="70.0146027765" lon="21.9313055242">
		<tag k="name" v="Molla" />
		<tag k="natural" v="bay" />
		<tag k="ssr:stedsnr" v="904693" />
	</node>
	<node id="-778028" lat="70.0079277748" lon="21.9886444023">
		<tag k="name" v="Storengbåen" />
		<tag k="place" v="locality" />
		<tag k="seamark:type" v="rock" />
		<tag k="ssr:stedsnr" v="904659" />
	</node>
	<node id="-775979" lat="69.9458361078" lon="21.9812138565">
		<tag k="name" v="Sørkjosen" />
		<tag k="natural" v="bay" />
		<tag k="ssr:stedsnr" v="357617" />
	</node>
	<node id="-778025" lat="69.9546083394" lon="21.9208693978">
		<tag k="name" v="Hampabukta" />
		<tag k="natural" v="bay" />
		<tag k="ssr:stedsnr" v="904628" />
	</node>
	<node id="-778020" lat="69.9548749993" lon="22.0337444073">
		<tag k="name" v="Leirbukt" />
		<tag k="natural" v="bay" />
		<tag k="ssr:stedsnr" v="904610" />
	</node>
	<node id="-778016" lat="69.94126111" lon="22.033699954">
		<tag k="name" v="Nordkjosen" />
		<tag k="natural" v="bay" />
		<tag k="ssr:stedsnr" v="904592" />
	</node>
	<node id="-775963" lat="69.8599499978" lon="21.8081693988">
		<tag k="name" v="Bukteneset" />
		<tag k="natural" v="cape" />
		<tag k="ssr:stedsnr" v="357247" />
	</node>
	<node id="-775962" lat="69.8966750011" lon="21.8448582901">
		<tag k="name" v="Singelbukt" />
		<tag k="natural" v="bay" />
		<tag k="ssr:stedsnr" v="357228" />
	</node>
	<node id="-775812" lat="69.9717194431" lon="21.5252888513">
		<tag k="name" v="Langstrandneset" />
		<tag k="natural" v="cape" />
		<tag k="ssr:stedsnr" v="296435" />
	</node>
	<node id="-775957" lat="69.9921916646" lon="21.6984194073">
		<tag k="name" v="Espeneset" />
		<tag k="natural" v="cape" />
		<tag k="ssr:stedsnr" v="357087" />
	</node>
	<node id="-776152" lat="70.202413891" lon="21.1884610853">
		<tag k="name" v="Ramnnesbukta" />
		<tag k="natural" v="bay" />
		<tag k="ssr:stedsnr" v="897732" />
	</node>
	<node id="-775949" lat="70.0883500025" lon="21.969447196">
		<tag k="name" v="Ytre Gambukta" />
		<tag k="natural" v="bay" />
		<tag k="ssr:stedsnr" v="351836" />
	</node>
	<node id="-775945" lat="70.1691750017" lon="21.4774777424">
		<tag k="name" v="Botnstranda" />
		<tag k="natural" v="beach" />
		<tag k="place" v="locality" />
		<tag k="ssr:stedsnr" v="350999" />
	</node>
	<node id="-777991" lat="69.8430833331" lon="21.8535249559">
		<tag k="name" v="Hávgamohkki" />
		<tag k="name:se" v="Hávgamohkki" />
		<tag k="natural" v="bay" />
		<tag k="ssr:stedsnr" v="903225" />
	</node>
	<node id="-777989" lat="69.9194222238" lon="21.7521305177">
		<tag k="name" v="Nøkkelsundet" />
		<tag k="natural" v="strait" />
		<tag k="ssr:stedsnr" v="903220" />
	</node>
	<node id="-775940" lat="69.9403666677" lon="21.8504610748">
		<tag k="alt_name" v="Røholmen" />
		<tag k="name" v="Rødholmen" />
		<tag k="place" v="islet" />
		<tag k="ssr:stedsnr" v="349330" />
	</node>
	<node id="-775939" lat="69.9415388922" lon="21.8494360617">
		<tag k="name" v="Skolten" />
		<tag k="natural" v="shoal" />
		<tag k="place" v="locality" />
		<tag k="ssr:stedsnr" v="349329" />
	</node>
	<node id="-777986" lat="69.9270999997" lon="21.7349138588">
		<tag k="name" v="Kirkegårdsvika" />
		<tag k="natural" v="bay" />
		<tag k="ssr:stedsnr" v="903177" />
	</node>
	<node id="-775935" lat="69.9604277805" lon="21.7985055074">
		<tag k="name" v="Storbåen" />
		<tag k="natural" v="shoal" />
		<tag k="place" v="locality" />
		<tag k="ssr:stedsnr" v="348732" />
	</node>
	<node id="-777982" lat="70.1120972264" lon="21.1880610945">
		<tag k="name" v="Råvasten" />
		<tag k="natural" v="shoal" />
		<tag k="place" v="locality" />
		<tag k="ssr:stedsnr" v="879728" />
	</node>
	<node id="-777979" lat="69.7453388911" lon="22.0745999597">
		<tag k="bay" v="fjord" />
		<tag k="loc_name:se" v="Sis-Vuonna" />
		<tag k="name" v="Sis-Vuotna" />
		<tag k="name:se" v="Sis-Vuotna" />
		<tag k="natural" v="bay" />
		<tag k="ssr:stedsnr" v="873641" />
	</node>
	<node id="-775930" lat="70.028241671" lon="21.3170833013">
		<tag k="name" v="Lille Haukøygrunnen" />
		<tag k="natural" v="shoal" />
		<tag k="place" v="locality" />
		<tag k="ssr:stedsnr" v="348076" />
	</node>
	<node id="-777977" lat="70.0225305561" lon="21.9797888569">
		<tag k="name" v="Låvanbukta" />
		<tag k="natural" v="bay" />
		<tag k="ssr:stedsnr" v="869520" />
	</node>
	<node id="-777973" lat="70.0632611083" lon="21.9355332927">
		<tag k="alt_name" v="Hamnebukta, in" />
		<tag k="name" v="Indre Hamnebukta" />
		<tag k="natural" v="bay" />
		<tag k="ssr:stedsnr" v="869489" />
	</node>
	<node id="-777971" lat="69.8355638874" lon="21.8893277281">
		<tag k="name" v="Buktenes" />
		<tag k="natural" v="cape" />
		<tag k="ssr:stedsnr" v="869487" />
	</node>
	<node id="-777969" lat="70.0206583354" lon="21.3336027435">
		<tag k="alt_name" v="Hommavikneset" />
		<tag k="name" v="Håmannsvikneset" />
		<tag k="natural" v="cape" />
		<tag k="ssr:stedsnr" v="869378" />
	</node>
	<node id="-777965" lat="70.1053333389" lon="21.9962194012">
		<tag k="alt_name" v="Skalsabukta" />
		<tag k="name" v="Skalsa" />
		<tag k="natural" v="bay" />
		<tag k="ssr:stedsnr" v="869322" />
	</node>
	<node id="-775916" lat="69.9925277803" lon="21.9622110686">
		<tag k="name" v="Vedhoggneset" />
		<tag k="natural" v="cape" />
		<tag k="ssr:stedsnr" v="323240" />
	</node>
	<node id="-777961" lat="69.9885888871" lon="21.7330721779">
		<tag k="alt_name" v="Jernskjeret;Jarnskjæret" />
		<tag k="fixme" v="consider seamark:type=rock or natural=shoal" />
		<tag k="name" v="Jernskjæret" />
		<tag k="place" v="islet" />
		<tag k="ssr:stedsnr" v="869256" />
	</node>
	<node id="-777960" lat="69.9998944426" lon="21.6630193958">
		<tag k="name" v="Hønsebukta" />
		<tag k="natural" v="bay" />
		<tag k="ssr:stedsnr" v="869251" />
	</node>
	<node id="-777959" lat="70.0205944411" lon="21.6311388547">
		<tag k="name" v="Spildra - Spittá" />
		<tag k="name:no" v="Spildra" />
		<tag k="name:se" v="Spittá" />
		<tag k="old_name:se" v="Spidda" />
		<tag k="place" v="island" />
		<tag k="ssr:stedsnr" v="869245" />
	</node>
	<node id="-777949" lat="69.9317222282" lon="21.6898749547">
		<tag k="name" v="Skorpa - Skárfu" />
		<tag k="name:no" v="Skorpa" />
		<tag k="name:se" v="Skárfu" />
		<tag k="place" v="island" />
		<tag k="ssr:stedsnr" v="869173" />
	</node>
	<node id="-777938" lat="69.760083333" lon="21.9205999526">
		<tag k="loc_name:se" v="Návetmuorki" />
		<tag k="name" v="Naviteidet - Navetanmuotka" />
		<tag k="name:fkv" v="Navetanmuotka" />
		<tag k="name:no" v="Naviteidet" />
		<tag k="place" v="locality" />
		<tag k="ssr:stedsnr" v="869033" />
	</node>
	<node id="-775887" lat="70.0773888924" lon="21.9398499734">
		<tag k="alt_name:no" v="Sotneset" />
		<tag k="name" v="Sotnes - Suohnjárga" />
		<tag k="name:no" v="Sotnes" />
		<tag k="name:se" v="Suohnjárga" />
		<tag k="natural" v="cape" />
		<tag k="old_name:se" v="Suohnjarga" />
		<tag k="ssr:stedsnr" v="322446" />
	</node>
	<node id="-775881" lat="70.0826027805" lon="22.0045888398">
		<tag k="name" v="Saltnes - Sáltenjárga" />
		<tag k="name:no" v="Saltnes" />
		<tag k="name:se" v="Sáltenjárga" />
		<tag k="natural" v="cape" />
		<tag k="old_name:se" v="Saltenjarga" />
		<tag k="ssr:stedsnr" v="322279" />
	</node>
	<node id="-775878" lat="70.1279083328" lon="22.0642527416">
		<tag k="name" v="Bayen - Bollu" />
		<tag k="name:no" v="Bayen" />
		<tag k="name:se" v="Bollu" />
		<tag k="natural" v="bay" />
		<tag k="old_name:se" v="Bållo" />
		<tag k="ssr:stedsnr" v="322269" />
	</node>
	<node id="-775875" lat="70.1809694475" lon="21.2568971971">
		<tag k="alt_name" v="Instevika" />
		<tag k="name" v="Lastevika" />
		<tag k="natural" v="bay" />
		<tag k="ssr:stedsnr" v="322154" />
	</node>
	<node id="-776139" lat="69.9735194422" lon="21.646063864">
		<tag k="name" v="Nygrunnen" />
		<tag k="natural" v="shoal" />
		<tag k="place" v="locality" />
		<tag k="ssr:stedsnr" v="895277" />
	</node>
	<node id="-775872" lat="70.1626944439" lon="21.2861888745">
		<tag k="name" v="Bumppat" />
		<tag k="name:se" v="Bumppat" />
		<tag k="natural" v="beach" />
		<tag k="old_name:se" v="Bumpat" />
		<tag k="place" v="locality" />
		<tag k="ssr:stedsnr" v="322143" />
	</node>
	<node id="-775868" lat="69.9454777764" lon="21.8728027423">
		<tag k="alt_name" v="Store Dinganeset" />
		<tag k="fixme" v="multiple name tags, choose one and add the other to alt_name" />
		<tag k="name" v="Sørneset;Stordinganeset" />
		<tag k="natural" v="cape" />
		<tag k="ssr:stedsnr" v="322111" />
	</node>
	<node id="-775864" lat="69.8534166676" lon="21.9462416257">
		<tag k="bay" v="fjord" />
		<tag k="loc_name:se" v="Báttárvuonna" />
		<tag k="name" v="Badderfjorden - Báttárvuotna" />
		<tag k="name:no" v="Badderfjorden" />
		<tag k="name:se" v="Báttárvuotna" />
		<tag k="natural" v="bay" />
		<tag k="ssr:stedsnr" v="322080" />
	</node>
	<node id="-775861" lat="69.7722055534" lon="22.0801249484">
		<tag k="name" v="Grunnberget" />
		<tag k="natural" v="cape" />
		<tag k="ssr:stedsnr" v="322008" />
	</node>
	<node id="-775858" lat="69.7416277775" lon="22.0448277347">
		<tag k="name" v="Hjellnes" />
		<tag k="natural" v="cape" />
		<tag k="ssr:stedsnr" v="297730" />
	</node>
	<node id="-777903" lat="69.9444111171" lon="21.8707444023">
		<tag k="name" v="Friarbukta" />
		<tag k="natural" v="bay" />
		<tag k="ssr:stedsnr" v="843769" />
	</node>
	<node id="-775854" lat="69.7621888937" lon="22.0664638577">
		<tag k="name" v="Løkvika" />
		<tag k="natural" v="bay" />
		<tag k="ssr:stedsnr" v="297655" />
	</node>
	<node id="-775852" lat="69.9506944473" lon="21.9177166301">
		<tag k="name" v="Stranda" />
		<tag k="natural" v="beach" />
		<tag k="place" v="locality" />
		<tag k="ssr:stedsnr" v="297639" />
	</node>
	<node id="-777897" lat="69.7887527809" lon="22.0503499658">
		<tag k="name" v="Indre Storbukt" />
		<tag k="natural" v="bay" />
		<tag k="ssr:stedsnr" v="843692" />
	</node>
	<node id="-777896" lat="69.9818916677" lon="22.009347191">
		<tag k="name" v="Løkengneset" />
		<tag k="natural" v="cape" />
		<tag k="ssr:stedsnr" v="843688" />
	</node>
	<node id="-777895" lat="69.9791527819" lon="22.010288848">
		<tag k="name" v="Hansnes" />
		<tag k="natural" v="cape" />
		<tag k="ssr:stedsnr" v="843681" />
	</node>
	<node id="-775844" lat="70.0290250051" lon="22.0599082949">
		<tag k="name" v="Laslettneset" />
		<tag k="natural" v="cape" />
		<tag k="ssr:stedsnr" v="297527" />
	</node>
	<node id="-777891" lat="69.9585527776" lon="22.0084832767">
		<tag k="name" v="Arneset" />
		<tag k="natural" v="cape" />
		<tag k="ssr:stedsnr" v="843661" />
	</node>
	<node id="-777890" lat="69.9592583312" lon="22.033855509">
		<tag k="name" v="Biehtamohkki" />
		<tag k="name:se" v="Biehtamohkki" />
		<tag k="natural" v="bay" />
		<tag k="ssr:stedsnr" v="843657" />
	</node>
	<node id="-775838" lat="69.8179972249" lon="21.935727748">
		<tag k="name" v="Jonsnes" />
		<tag k="natural" v="cape" />
		<tag k="ssr:stedsnr" v="297489" />
	</node>
	<node id="-775837" lat="69.8144888921" lon="21.9428444139">
		<tag k="name" v="Skjellbukta" />
		<tag k="natural" v="bay" />
		<tag k="ssr:stedsnr" v="297485" />
	</node>
	<node id="-777882" lat="69.8448388951" lon="21.8943221762">
		<tag k="name" v="Ytre Nordstraumen" />
		<tag k="natural" v="bay" />
		<tag k="ssr:stedsnr" v="843552" />
	</node>
	<node id="-777881" lat="69.8414944459" lon="21.8849499547">
		<tag k="name" v="Straumen" />
		<tag k="natural" v="strait" />
		<tag k="ssr:stedsnr" v="843549" />
	</node>
	<node id="-775830" lat="69.9982916698" lon="21.7093110799">
		<tag k="name" v="Underskjærbukta" />
		<tag k="natural" v="bay" />
		<tag k="ssr:stedsnr" v="297113" />
	</node>
	<node id="-775828" lat="69.9188694414" lon="21.7076638584">
		<tag k="name" v="Smånessan" />
		<tag k="natural" v="cape" />
		<tag k="ssr:stedsnr" v="297084" />
	</node>
	<node id="-775790" lat="70.2051749968" lon="21.1876944232">
		<tag k="name" v="Småseikeilan" />
		<tag k="natural" v="bay" />
		<tag k="ssr:stedsnr" v="290746" />
	</node>
	<node id="-775826" lat="69.9073083363" lon="21.602541645">
		<tag k="name" v="Hjellbergbukta" />
		<tag k="natural" v="bay" />
		<tag k="ssr:stedsnr" v="297074" />
	</node>
	<node id="-775823" lat="69.8846638885" lon="21.7049638636">
		<tag k="name" v="Indre Klokkarsteinen" />
		<tag k="natural" v="cape" />
		<tag k="ssr:stedsnr" v="297023" />
	</node>
	<node id="-775822" lat="69.8868666693" lon="21.6932027379">
		<tag k="name" v="Ytre Klokkarsteinen" />
		<tag k="natural" v="cape" />
		<tag k="ssr:stedsnr" v="297020" />
	</node>
	<node id="-775821" lat="69.7933194458" lon="21.9909582993">
		<tag k="name" v="Valen - Vuorenrässi" />
		<tag k="name:fkv" v="Vuorenrässi" />
		<tag k="name:no" v="Valen" />
		<tag k="natural" v="beach" />
		<tag k="place" v="locality" />
		<tag k="ssr:stedsnr" v="296919" />
	</node>
	<node id="-777867" lat="69.9402444465" lon="21.8648499568">
		<tag k="name" v="Rasteneset" />
		<tag k="natural" v="cape" />
		<tag k="ssr:stedsnr" v="843189" />
	</node>
	<node id="-777860" lat="69.8735111145" lon="21.7759055302">
		<tag k="name" v="Rakkeneslandet - Ráhkkonjárgáddi - Rakkuniemenpoto" />
		<tag k="name:fkv" v="Rakkuniemenpoto" />
		<tag k="name:no" v="Rakkeneslandet" />
		<tag k="name:se" v="Ráhkkonjárgáddi" />
		<tag k="place" v="locality" />
		<tag k="ssr:stedsnr" v="843133" />
	</node>
	<node id="-777857" lat="70.0426750035" lon="21.6119027499">
		<tag k="name" v="Gråvika" />
		<tag k="natural" v="bay" />
		<tag k="ssr:stedsnr" v="843093" />
	</node>
	<node id="-777856" lat="70.0006555549" lon="21.7122749752">
		<tag k="name" v="Riddu" />
		<tag k="name:se" v="Riddu" />
		<tag k="natural" v="beach" />
		<tag k="place" v="locality" />
		<tag k="ssr:stedsnr" v="843085" />
	</node>
	<node id="-775807" lat="69.9150111164" lon="21.73253329">
		<tag k="fixme" v="consider seamark:type=rock or natural=shoal" />
		<tag k="name" v="Nesskjæret" />
		<tag k="place" v="islet" />
		<tag k="ssr:stedsnr" v="296202" />
	</node>
	<node id="-775806" lat="69.9459249985" lon="21.8240332957">
		<tag k="fixme" v="multiple name tags, choose one and add the other to alt_name" />
		<tag k="name" v="Skavholmen;Østre Høgholman" />
		<tag k="place" v="islet" />
		<tag k="ssr:stedsnr" v="296195" />
	</node>
	<node id="-777850" lat="69.9415583384" lon="21.5737388553">
		<tag k="name" v="Valaneset" />
		<tag k="natural" v="cape" />
		<tag k="ssr:stedsnr" v="843020" />
	</node>
	<node id="-777846" lat="70.0643222239" lon="21.8082221943">
		<tag k="name" v="Steinneset" />
		<tag k="natural" v="cape" />
		<tag k="ssr:stedsnr" v="837873" />
	</node>
	<node id="-777844" lat="70.0959999975" lon="21.9892027474">
		<tag k="name" v="Morrenjárga" />
		<tag k="name:se" v="Morrenjárga" />
		<tag k="natural" v="cape" />
		<tag k="ssr:stedsnr" v="837831" />
	</node>
	<node id="-777842" lat="70.1016361149" lon="21.9919471934">
		<tag k="name" v="Amundneset" />
		<tag k="natural" v="cape" />
		<tag k="ssr:stedsnr" v="837803" />
	</node>
	<node id="-775792" lat="70.1121388868" lon="22.0651805229">
		<tag k="name" v="Sandholla" />
		<tag k="natural" v="bay" />
		<tag k="ssr:stedsnr" v="290760" />
	</node>
	<node id="-777839" lat="70.0997666695" lon="21.4573749724">
		<tag k="name" v="Gielasnjárga" />
		<tag k="name:se" v="Gielasnjárga" />
		<tag k="natural" v="cape" />
		<tag k="ssr:stedsnr" v="837703" />
	</node>
	<node id="-777838" lat="70.096083334" lon="21.3481749672">
		<tag k="name" v="Vedbukta" />
		<tag k="natural" v="bay" />
		<tag k="ssr:stedsnr" v="837699" />
	</node>
	<node id="-775788" lat="70.2041527759" lon="21.218930532">
		<tag k="name" v="Návstemohkki" />
		<tag k="name:se" v="Návstemohkki" />
		<tag k="natural" v="bay" />
		<tag k="ssr:stedsnr" v="290718" />
	</node>
	<node id="-777835" lat="70.0820666705" lon="21.999824954">
		<tag k="name" v="Saltnesgrunnen" />
		<tag k="natural" v="shoal" />
		<tag k="place" v="locality" />
		<tag k="ssr:stedsnr" v="837399" />
	</node>
	<node id="-777831" lat="70.2057916702" lon="21.2056916551">
		<tag k="name" v="Kubuktan" />
		<tag k="natural" v="bay" />
		<tag k="ssr:stedsnr" v="836766" />
	</node>
	<node id="-775779" lat="70.0567194476" lon="21.8538221892">
		<tag k="name" v="Slettnes" />
		<tag k="natural" v="cape" />
		<tag k="ssr:stedsnr" v="290353" />
	</node>
	<node id="-777826" lat="69.9200833324" lon="21.6958333097">
		<tag k="name" v="Storslettbukta" />
		<tag k="natural" v="bay" />
		<tag k="ssr:stedsnr" v="835312" />
	</node>
	<node id="-776123" lat="69.9431666701" lon="21.6724055291">
		<tag k="name" v="Avløsningen" />
		<tag k="natural" v="bay" />
		<tag k="ssr:stedsnr" v="479006" />
	</node>
	<node id="-777824" lat="70.2076305555" lon="21.212199961">
		<tag k="name" v="Vågen" />
		<tag k="natural" v="bay" />
		<tag k="ssr:stedsnr" v="835219" />
	</node>
	<node id="-775775" lat="70.1598999976" lon="21.3011194068">
		<tag k="name" v="Nils-Ivarneset" />
		<tag k="natural" v="cape" />
		<tag k="ssr:stedsnr" v="288926" />
	</node>
	<node id="-775773" lat="69.9421750031" lon="21.6345166227">
		<tag k="name" v="Sørråsa" />
		<tag k="natural" v="shoal" />
		<tag k="place" v="locality" />
		<tag k="ssr:stedsnr" v="288285" />
	</node>
	<node id="-775772" lat="69.8937222258" lon="21.8125194205">
		<tag k="name" v="Buktebåen" />
		<tag k="natural" v="shoal" />
		<tag k="place" v="locality" />
		<tag k="ssr:stedsnr" v="288277" />
	</node>
	<node id="-775771" lat="69.8864611158" lon="21.8161749685">
		<tag k="name" v="Stålvollgrunnen" />
		<tag k="natural" v="shoal" />
		<tag k="place" v="locality" />
		<tag k="ssr:stedsnr" v="288276" />
	</node>
	<node id="-777818" lat="69.8591500023" lon="21.8748666376">
		<tag k="name" v="Storegrunnen" />
		<tag k="natural" v="shoal" />
		<tag k="place" v="locality" />
		<tag k="ssr:stedsnr" v="834093" />
	</node>
	<node id="-777817" lat="70.1696027799" lon="21.4426249641">
		<tag k="name" v="Hamnekjosen" />
		<tag k="natural" v="bay" />
		<tag k="ssr:stedsnr" v="833975" />
	</node>
	<node id="-777816" lat="69.8779944425" lon="21.9031832794">
		<tag k="name" v="Doarrás" />
		<tag k="name:se" v="Doarrás" />
		<tag k="natural" v="cape" />
		<tag k="ssr:stedsnr" v="833974" />
	</node>
	<node id="-775767" lat="70.0216250039" lon="21.3760833173">
		<tag k="alt_name" v="Mannskarvikøyra" />
		<tag k="name" v="Mannskarvikøra" />
		<tag k="natural" v="shoal" />
		<tag k="place" v="locality" />
		<tag k="ssr:stedsnr" v="288087" />
	</node>
	<node id="-777814" lat="70.1668111166" lon="21.1294555255">
		<tag k="name" v="Nyskallen - Ođđaskálli" />
		<tag k="name:no" v="Nyskallen" />
		<tag k="name:se" v="Ođđaskálli" />
		<tag k="natural" v="shoal" />
		<tag k="place" v="locality" />
		<tag k="ssr:stedsnr" v="818691" />
	</node>
	<node id="-777813" lat="70.1692583358" lon="21.164969415">
		<tag k="name" v="Spilderskallen - Spittáskálli" />
		<tag k="name:no" v="Spilderskallen" />
		<tag k="name:se" v="Spittáskálli" />
		<tag k="natural" v="shoal" />
		<tag k="place" v="locality" />
		<tag k="ssr:stedsnr" v="818688" />
	</node>
	<node id="-775764" lat="70.0787888922" lon="21.8138082983">
		<tag k="fixme" v="consider seamark:type=rock or natural=shoal" />
		<tag k="name" v="Tverfjordskjæret" />
		<tag k="place" v="islet" />
		<tag k="ssr:stedsnr" v="275828" />
	</node>
	<node id="-775762" lat="70.1172166632" lon="21.1979360852">
		<tag k="name" v="Råvasten" />
		<tag k="natural" v="shoal" />
		<tag k="place" v="locality" />
		<tag k="ssr:stedsnr" v="272692" />
	</node>
	<node id="-775761" lat="70.1692888888" lon="21.2407471874">
		<tag k="name" v="Torskenesbakken" />
		<tag k="natural" v="shoal" />
		<tag k="place" v="locality" />
		<tag k="ssr:stedsnr" v="272638" />
	</node>
	<node id="-777808" lat="69.9180555584" lon="21.5694444088">
		<tag k="name" v="Storbukta" />
		<tag k="natural" v="bay" />
		<tag k="ssr:stedsnr" v="808844" />
	</node>
	<node id="-775778" lat="70.0394277813" lon="21.5902833066">
		<tag k="alt_name" v="Avløysinga" />
		<tag k="fixme" v="consider seamark:type=rock or natural=shoal" />
		<tag k="name" v="Avløsningen" />
		<tag k="place" v="islet" />
		<tag k="ssr:stedsnr" v="289787" />
	</node>
	<node id="-777802" lat="70.0228250031" lon="22.0296916356">
		<tag k="bay" v="fjord" />
		<tag k="fixme" v="multiple name tags, choose one and add the other to alt_name" />
		<tag k="loc_name:se" v="Duikkášvuonna" />
		<tag k="name" v="Alta;Altafjorden, l;Lille Altafjorden - Duikkášvuotna" />
		<tag k="name:no" v="Alta;Altafjorden, l;Lille Altafjorden" />
		<tag k="name:se" v="Duikkášvuotna" />
		<tag k="natural" v="bay" />
		<tag k="old_name:se" v="Duikašvuodna" />
		<tag k="ssr:stedsnr" v="808460" />
	</node>
	<node id="-777801" lat="70.0129916661" lon="22.0096749439">
		<tag k="name" v="Storengneset - Okšnjárga" />
		<tag k="name:no" v="Storengneset" />
		<tag k="name:se" v="Okšnjárga" />
		<tag k="natural" v="cape" />
		<tag k="old_name:se" v="Åkšnjarga" />
		<tag k="ssr:stedsnr" v="808457" />
	</node>
	<node id="-777798" lat="70.0206777832" lon="22.0606888424">
		<tag k="alt_name" v="Labukt" />
		<tag k="name" v="Labukta" />
		<tag k="natural" v="bay" />
		<tag k="ssr:stedsnr" v="808451" />
	</node>
	<node id="-777825" lat="69.950155555" lon="21.6710888565">
		<tag k="name" v="Nordråsa" />
		<tag k="natural" v="shoal" />
		<tag k="place" v="locality" />
		<tag k="ssr:stedsnr" v="835308" />
	</node>
	<node id="-777791" lat="70.0400555605" lon="21.645030516">
		<tag k="name" v="Gambukta - Goahtemohkki" />
		<tag k="name:no" v="Gambukta" />
		<tag k="name:se" v="Goahtemohkki" />
		<tag k="natural" v="bay" />
		<tag k="old_name:se" v="Goattemåkki" />
		<tag k="ssr:stedsnr" v="808424" />
	</node>
	<node id="-777788" lat="70.0121138878" lon="21.5916694027">
		<tag k="name" v="Gosnakken - Guossnáhkáš" />
		<tag k="name:no" v="Gosnakken" />
		<tag k="name:se" v="Guossnáhkáš" />
		<tag k="natural" v="cape" />
		<tag k="old_name:se" v="Guossnakkaš" />
		<tag k="ssr:stedsnr" v="808343" />
	</node>
	<node id="-777786" lat="70.0970527822" lon="21.3288971922">
		<tag k="name" v="Solbukta - Beaiveluokta" />
		<tag k="name:no" v="Solbukta" />
		<tag k="name:se" v="Beaiveluokta" />
		<tag k="natural" v="bay" />
		<tag k="old_name:se" v="Bæiveluokta" />
		<tag k="ssr:stedsnr" v="808315" />
	</node>
	<node id="-777783" lat="70.1291833359" lon="21.3571138504">
		<tag k="alt_name" v="Rødøysund" />
		<tag k="name" v="Rødøysundet" />
		<tag k="natural" v="strait" />
		<tag k="ssr:stedsnr" v="808305" />
	</node>
	<node id="-777779" lat="69.7461611089" lon="22.0882971855">
		<tag k="bay" v="fjord" />
		<tag k="name" v="Kvænangen - Návuotna" />
		<tag k="name:no" v="Kvænangen" />
		<tag k="name:se" v="Návuotna" />
		<tag k="natural" v="bay" />
		<tag k="old_name:se" v="Navuotna;Navuodna;Návuonna" />
		<tag k="ssr:stedsnr" v="808281" />
	</node>
	<node id="-777775" lat="69.976969447" lon="21.805183301">
		<tag k="alt_name" v="Sukkelen" />
		<tag k="name" v="Sukkeret" />
		<tag k="place" v="islet" />
		<tag k="ssr:stedsnr" v="808216" />
	</node>
	<node id="-776114" lat="69.9752833348" lon="21.5281416441">
		<tag k="fixme" v="consider seamark:type=rock or natural=shoal" />
		<tag k="name" v="Prestlaskjeret" />
		<tag k="place" v="islet" />
		<tag k="ssr:stedsnr" v="478476" />
	</node>
	<node id="-777770" lat="69.8947888883" lon="21.8443527437">
		<tag k="loc_name:se" v="Lohkal" />
		<tag k="name" v="Nøklan" />
		<tag k="name:no" v="Nøklan" />
		<tag k="natural" v="cape" />
		<tag k="ssr:stedsnr" v="808159" />
	</node>
	<node id="-777759" lat="69.8441527777" lon="21.9195694031">
		<tag k="alt_name" v="Kollerbukt" />
		<tag k="name" v="Kollerbukta" />
		<tag k="natural" v="bay" />
		<tag k="ssr:stedsnr" v="808055" />
	</node>
	<node id="-775769" lat="69.9119250057" lon="21.8609443956">
		<tag k="name" v="Moldvikgrunnen" />
		<tag k="natural" v="shoal" />
		<tag k="place" v="locality" />
		<tag k="ssr:stedsnr" v="288271" />
	</node>
	<node id="-777740" lat="69.7747777795" lon="21.9426777464">
		<tag k="name" v="Leirbukta" />
		<tag k="natural" v="bay" />
		<tag k="ssr:stedsnr" v="782938" />
	</node>
	<node id="-775766" lat="70.0145416699" lon="21.2941444176">
		<tag k="fixme" v="consider seamark:type=rock or natural=shoal" />
		<tag k="name" v="Sandskjæret" />
		<tag k="place" v="islet" />
		<tag k="ssr:stedsnr" v="288047" />
	</node>
	<node id="-777729" lat="69.9878416728" lon="22.0023555093">
		<tag k="name" v="Skjåneset" />
		<tag k="natural" v="cape" />
		<tag k="ssr:stedsnr" v="782635" />
	</node>
	<node id="-777725" lat="69.9620305605" lon="22.0367666304">
		<tag k="name" v="Ráhpesnjárga" />
		<tag k="name:se" v="Ráhpesnjárga" />
		<tag k="natural" v="cape" />
		<tag k="ssr:stedsnr" v="782616" />
	</node>
	<node id="-777719" lat="70.0266833341" lon="22.0761582916">
		<tag k="name" v="Holmen" />
		<tag k="place" v="islet" />
		<tag k="ssr:stedsnr" v="782553" />
	</node>
	<node id="-777713" lat="69.8027638902" lon="22.0193305083">
		<tag k="name" v="Antankenttä" />
		<tag k="name:fkv" v="Antankenttä" />
		<tag k="natural" v="cape" />
		<tag k="ssr:stedsnr" v="782521" />
	</node>
	<node id="-777709" lat="70.0141166679" lon="21.2926277432">
		<tag k="fixme" v="consider seamark:type=rock or natural=shoal" />
		<tag k="name" v="Sandskjæret" />
		<tag k="place" v="islet" />
		<tag k="ssr:stedsnr" v="782363" />
	</node>
	<node id="-777706" lat="69.8826666719" lon="21.8412971888">
		<tag k="name" v="Indre Nøkkelenden" />
		<tag k="natural" v="cape" />
		<tag k="ssr:stedsnr" v="782231" />
	</node>
	<node id="-777705" lat="69.9424055576" lon="21.7200888562">
		<tag k="name" v="Trollhamna" />
		<tag k="natural" v="bay" />
		<tag k="ssr:stedsnr" v="782186" />
	</node>
	<node id="-777701" lat="69.9994972208" lon="21.6686666252">
		<tag k="name" v="Hjellneset" />
		<tag k="natural" v="cape" />
		<tag k="ssr:stedsnr" v="782089" />
	</node>
	<node id="-777698" lat="70.0217472244" lon="21.5669388523">
		<tag k="name" v="Skageholman" />
		<tag k="place" v="islet" />
		<tag k="ssr:stedsnr" v="782074" />
	</node>
	<node id="-775760" lat="70.1968555544" lon="21.2112888504">
		<tag k="name" v="Bøttnesbåen" />
		<tag k="natural" v="shoal" />
		<tag k="place" v="locality" />
		<tag k="ssr:stedsnr" v="272006" />
	</node>
	<node id="-777691" lat="70.1018055562" lon="21.5739166303">
		<tag k="name" v="Skillet" />
		<tag k="natural" v="cape" />
		<tag k="ssr:stedsnr" v="776843" />
	</node>
	<node id="-777688" lat="70.1061527811" lon="21.5909444101">
		<tag k="name" v="Lilleneset" />
		<tag k="natural" v="cape" />
		<tag k="ssr:stedsnr" v="776831" />
	</node>
	<node id="-777687" lat="70.0802972267" lon="21.9562110752">
		<tag k="name" v="Innersotnes" />
		<tag k="natural" v="cape" />
		<tag k="ssr:stedsnr" v="776806" />
	</node>
	<node id="-777685" lat="70.1256416689" lon="22.0581777477">
		<tag k="fixme" v="consider seamark:type=rock or natural=shoal" />
		<tag k="name" v="Bjørnøya" />
		<tag k="place" v="islet" />
		<tag k="ssr:stedsnr" v="776774" />
	</node>
	<node id="-777684" lat="70.0946361156" lon="21.4842138503">
		<tag k="name" v="Bukta" />
		<tag k="natural" v="cape" />
		<tag k="ssr:stedsnr" v="776693" />
	</node>
	<node id="-777681" lat="70.207108334" lon="21.2153360989">
		<tag k="name" v="Lallabukta" />
		<tag k="natural" v="bay" />
		<tag k="ssr:stedsnr" v="775745" />
	</node>
	<node id="-777679" lat="70.0706527756" lon="21.9818721773">
		<tag k="name" v="Vika" />
		<tag k="natural" v="bay" />
		<tag k="ssr:stedsnr" v="775351" />
	</node>
	<node id="-777676" lat="70.0098888905" lon="21.2260888739">
		<tag k="name" v="Småseigrunnen" />
		<tag k="natural" v="shoal" />
		<tag k="place" v="locality" />
		<tag k="ssr:stedsnr" v="774012" />
	</node>
	<node id="-777674" lat="70.0873638863" lon="22.0148416343">
		<tag k="name" v="Leaibinjárga" />
		<tag k="name:se" v="Leaibinjárga" />
		<tag k="natural" v="cape" />
		<tag k="ssr:stedsnr" v="776357" />
	</node>
	<node id="-777663" lat="69.8360027776" lon="21.8891388474">
		<tag k="name" v="Buktenes" />
		<tag k="natural" v="cape" />
		<tag k="ssr:stedsnr" v="747478" />
	</node>
	<node id="-777659" lat="70.0167138884" lon="21.8287943948">
		<tag k="name" v="Kubukta - Gussaluokta" />
		<tag k="name:no" v="Kubukta" />
		<tag k="name:se" v="Gussaluokta" />
		<tag k="natural" v="bay" />
		<tag k="ssr:stedsnr" v="747473" />
	</node>
	<node id="-777648" lat="70.0677805594" lon="21.8188388509">
		<tag k="name" v="Tverrfjordneset - Uhcavuonašnjárga" />
		<tag k="name:no" v="Tverrfjordneset" />
		<tag k="name:se" v="Uhcavuonašnjárga" />
		<tag k="natural" v="cape" />
		<tag k="old_name:se" v="Uccavuonašnjarga" />
		<tag k="ssr:stedsnr" v="747424" />
	</node>
	<node id="-776093" lat="69.7477027773" lon="22.130016629">
		<tag k="fixme" v="consider seamark:type=rock or natural=shoal" />
		<tag k="name" v="Seibiskjæret - Seaibi" />
		<tag k="name:no" v="Seibiskjæret" />
		<tag k="name:se" v="Seaibi" />
		<tag k="place" v="islet" />
		<tag k="ssr:stedsnr" v="410277" />
	</node>
	<node id="-777641" lat="70.2064027822" lon="21.1944138559">
		<tag k="name" v="Ramnnes - Reabbánjárga" />
		<tag k="name:no" v="Ramnnes" />
		<tag k="name:se" v="Reabbánjárga" />
		<tag k="natural" v="cape" />
		<tag k="old_name:se" v="Ræbbatnjarga;Ræbbanjarga" />
		<tag k="ssr:stedsnr" v="747178" />
	</node>
	<node id="-777636" lat="69.9277666688" lon="21.6252083116">
		<tag k="name" v="Skorpeneset" />
		<tag k="natural" v="cape" />
		<tag k="ssr:stedsnr" v="747128" />
	</node>
	<node id="-776089" lat="69.9820250049" lon="21.6549666378">
		<tag k="name" v="Dunvikbåan" />
		<tag k="natural" v="shoal" />
		<tag k="place" v="locality" />
		<tag k="ssr:stedsnr" v="409729" />
	</node>
	<node id="-777606" lat="69.7641000035" lon="22.0129555175">
		<tag k="name" v="Klubben" />
		<tag k="natural" v="cape" />
		<tag k="ssr:stedsnr" v="722975" />
	</node>
	<node id="-777605" lat="69.741161109" lon="22.0907943967">
		<tag k="name" v="Kvænangsbotn" />
		<tag k="natural" v="bay" />
		<tag k="ssr:stedsnr" v="722757" />
	</node>
	<node id="-777590" lat="69.9587916643" lon="21.9022249649">
		<tag k="name" v="Grønneset" />
		<tag k="natural" v="cape" />
		<tag k="ssr:stedsnr" v="722618" />
	</node>
	<node id="-777573" lat="69.9235527767" lon="21.6438083101">
		<tag k="name" v="Kubukta" />
		<tag k="natural" v="bay" />
		<tag k="ssr:stedsnr" v="722072" />
	</node>
	<node id="-776044" lat="70.1956250015" lon="21.2276972064">
		<tag k="name" v="Bøttnes - Eappernjárga" />
		<tag k="name:no" v="Bøttnes" />
		<tag k="name:se" v="Eappernjárga" />
		<tag k="natural" v="cape" />
		<tag k="old_name:se" v="Æbbernjarga" />
		<tag k="ssr:stedsnr" v="383188" />
	</node>
	<node id="-777563" lat="70.0174833359" lon="21.4028416332">
		<tag k="name" v="Ovnan" />
		<tag k="natural" v="bay" />
		<tag k="ssr:stedsnr" v="721427" />
	</node>
	<node id="-777559" lat="69.8413305581" lon="21.8694693951">
		<tag k="name" v="Árresnjárga" />
		<tag k="name:se" v="Árresnjárga" />
		<tag k="natural" v="cape" />
		<tag k="ssr:stedsnr" v="721218" />
	</node>
	<node id="-777558" lat="69.9208888938" lon="21.7336777355">
		<tag k="fixme" v="consider seamark:type=rock or natural=shoal" />
		<tag k="name" v="Moanskjæret" />
		<tag k="place" v="islet" />
		<tag k="ssr:stedsnr" v="721216" />
	</node>
	<node id="-777554" lat="70.1567388886" lon="21.3279721861">
		<tag k="name" v="Nakkeneset" />
		<tag k="natural" v="cape" />
		<tag k="ssr:stedsnr" v="715924" />
	</node>
	<node id="-777551" lat="70.1098027815" lon="21.5776416427">
		<tag k="name" v="Hamna" />
		<tag k="natural" v="bay" />
		<tag k="ssr:stedsnr" v="715852" />
	</node>
	<node id="-777550" lat="70.1081527822" lon="21.585997179">
		<tag k="name" v="Fjordbotn" />
		<tag k="natural" v="bay" />
		<tag k="ssr:stedsnr" v="715848" />
	</node>
	<node id="-777549" lat="70.1253750051" lon="22.0695527427">
		<tag k="name" v="Čuitu" />
		<tag k="name:se" v="Čuitu" />
		<tag k="natural" v="bay" />
		<tag k="ssr:stedsnr" v="715793" />
	</node>
	<node id="-777548" lat="70.0953916667" lon="21.4702555215">
		<tag k="name" v="Grindeskorra" />
		<tag k="natural" v="bay" />
		<tag k="ssr:stedsnr" v="715710" />
	</node>
	<node id="-777547" lat="70.0932611152" lon="21.5018388605">
		<tag k="name" v="Hårnasbukta" />
		<tag k="natural" v="cape" />
		<tag k="ssr:stedsnr" v="715708" />
	</node>
	<node id="-777546" lat="70.0796750029" lon="22.0026832945">
		<tag k="name" v="Sáttonjárga" />
		<tag k="name:se" v="Sáttonjárga" />
		<tag k="natural" v="cape" />
		<tag k="ssr:stedsnr" v="715415" />
	</node>
	<node id="-777540" lat="69.9816222223" lon="21.8019332971">
		<tag k="name" v="Sukkerbåen" />
		<tag k="natural" v="shoal" />
		<tag k="place" v="locality" />
		<tag k="ssr:stedsnr" v="713770" />
	</node>
	<node id="-777539" lat="69.9198000055" lon="21.6780249632">
		<tag k="name" v="Storsteinneset" />
		<tag k="natural" v="bay" />
		<tag k="ssr:stedsnr" v="713303" />
	</node>
	<node id="-777538" lat="69.8938777759" lon="21.8482388399">
		<tag k="name" v="Brennboen" />
		<tag k="natural" v="shoal" />
		<tag k="place" v="locality" />
		<tag k="ssr:stedsnr" v="713293" />
	</node>
	<node id="-777537" lat="69.9522555567" lon="21.8396777371">
		<tag k="name" v="Høgholmgrunnen" />
		<tag k="natural" v="shoal" />
		<tag k="place" v="locality" />
		<tag k="ssr:stedsnr" v="713279" />
	</node>
	<node id="-777536" lat="70.0228750025" lon="21.298852759">
		<tag k="fixme" v="consider seamark:type=rock or natural=shoal" />
		<tag k="name" v="Langskjæret" />
		<tag k="place" v="islet" />
		<tag k="ssr:stedsnr" v="713070" />
	</node>
	<node id="-777535" lat="69.8518000039" lon="21.8175333038">
		<tag k="name" v="Mykleskjæret" />
		<tag k="place" v="locality" />
		<tag k="seamark:type" v="rock" />
		<tag k="ssr:stedsnr" v="713068" />
	</node>
	<node id="-777533" lat="69.7814916727" lon="22.0362193914">
		<tag k="name" v="Grunnen" />
		<tag k="natural" v="shoal" />
		<tag k="place" v="locality" />
		<tag k="ssr:stedsnr" v="713061" />
	</node>
	<node id="-777531" lat="69.9062916685" lon="21.6332749657">
		<tag k="name" v="Indre Hjellberggrunnen" />
		<tag k="natural" v="shoal" />
		<tag k="place" v="locality" />
		<tag k="ssr:stedsnr" v="712255" />
	</node>
	<node id="-777529" lat="70.1438305566" lon="21.1264388549">
		<tag k="name" v="Kvænangsdjupet" />
		<tag k="place" v="locality" />
		<tag k="ssr:stedsnr" v="697671" />
	</node>
	<node id="-777528" lat="70.1961472242" lon="21.1942499651">
		<tag k="name" v="Ramnnesbakken" />
		<tag k="natural" v="shoal" />
		<tag k="place" v="locality" />
		<tag k="ssr:stedsnr" v="697067" />
	</node>
	<node id="-777520" lat="70.0614944461" lon="21.9176360707">
		<tag k="name" v="Varneset" />
		<tag k="natural" v="cape" />
		<tag k="ssr:stedsnr" v="687436" />
	</node>
	<node id="-777518" lat="70.0640666661" lon="21.686719402">
		<tag k="name" v="Bjørnvika - Vuolanluokta" />
		<tag k="name:no" v="Bjørnvika" />
		<tag k="name:se" v="Vuolanluokta" />
		<tag k="natural" v="bay" />
		<tag k="old_name:no" v="Bjørnvik" />
		<tag k="ssr:stedsnr" v="687432" />
	</node>
	<node id="-777517" lat="70.0091722261" lon="21.5957166285">
		<tag k="alt_name" v="Vapsgeddholmen" />
		<tag k="fixme" v="multiple name tags, choose one and add the other to alt_name; consider seamark:type=rock or natural=shoal" />
		<tag k="name" v="Systerholmen;Vapseholmen" />
		<tag k="place" v="islet" />
		<tag k="ssr:stedsnr" v="687359" />
	</node>
	<node id="-777509" lat="69.8865888916" lon="21.8364082879">
		<tag k="name" v="Indrenøklan" />
		<tag k="natural" v="cape" />
		<tag k="ssr:stedsnr" v="687171" />
	</node>
	<node id="-778116" lat="70.2030944452" lon="21.1888638638">
		<tag k="name" v="Klubben" />
		<tag k="natural" v="cape" />
		<tag k="ssr:stedsnr" v="957775" />
	</node>
	<node id="-777492" lat="70.0199222246" lon="21.5701166261">
		<tag k="name" v="Skardevågen - Rávdnjeluokta" />
		<tag k="name:no" v="Skardevågen" />
		<tag k="name:se" v="Rávdnjeluokta" />
		<tag k="natural" v="bay" />
		<tag k="old_name:se" v="Ravdnjeluokta" />
		<tag k="ssr:stedsnr" v="686325" />
	</node>
	<node id="-777490" lat="70.0807305532" lon="21.8103860821">
		<tag k="bay" v="fjord" />
		<tag k="name" v="Tverrfjorden - Uhcavuonaš" />
		<tag k="name:no" v="Tverrfjorden" />
		<tag k="name:se" v="Uhcavuonaš" />
		<tag k="natural" v="bay" />
		<tag k="old_name:se" v="Uccavuonaš" />
		<tag k="ssr:stedsnr" v="686280" />
	</node>
	<node id="-777489" lat="70.0958861139" lon="22.0299971779">
		<tag k="name" v="Sjolmen - Šalbmi" />
		<tag k="name:no" v="Sjolmen" />
		<tag k="name:se" v="Šalbmi" />
		<tag k="natural" v="cape" />
		<tag k="ssr:stedsnr" v="686278" />
	</node>
	<node id="-777485" lat="69.9068638917" lon="21.8424305151">
		<tag k="name" v="Lohkkalnuorri" />
		<tag k="name:se" v="Lohkkalnuorri" />
		<tag k="natural" v="strait" />
		<tag k="ssr:stedsnr" v="686154" />
	</node>
	<node id="-777484" lat="69.903611116" lon="21.8225110816">
		<tag k="name" v="Nøklan - Lohkkalsuolu" />
		<tag k="name:no" v="Nøklan" />
		<tag k="name:se" v="Lohkkalsuolu" />
		<tag k="place" v="island" />
		<tag k="ssr:stedsnr" v="686150" />
	</node>
	<node id="-777481" lat="69.91059167" lon="21.8183138533">
		<tag k="alt_name" v="Nøklanhamn" />
		<tag k="name" v="Nøkkelhamn" />
		<tag k="natural" v="bay" />
		<tag k="ssr:stedsnr" v="686136" />
	</node>
	<node id="-777477" lat="69.9512277811" lon="22.0376416297">
		<tag k="name" v="Engenes" />
		<tag k="natural" v="cape" />
		<tag k="ssr:stedsnr" v="686119" />
	</node>
	<node id="-777474" lat="69.7711138937" lon="22.0253693889">
		<tag k="alt_name:no" v="Ytterneset" />
		<tag k="name" v="Ytreneset - Pikkuvirranniemi" />
		<tag k="name:fkv" v="Pikkuvirranniemi" />
		<tag k="name:no" v="Ytreneset" />
		<tag k="natural" v="cape" />
		<tag k="ssr:stedsnr" v="686006" />
	</node>
	<node id="-777462" lat="69.9487027802" lon="21.8899499482">
		<tag k="name" v="Lille Dinganesbukta" />
		<tag k="natural" v="bay" />
		<tag k="ssr:stedsnr" v="661620" />
	</node>
	<node id="-777449" lat="70.0317749969" lon="21.7031055298">
		<tag k="name" v="Spildersundet" />
		<tag k="natural" v="strait" />
		<tag k="ssr:stedsnr" v="661159" />
	</node>
	<node id="-777444" lat="69.901422225" lon="21.6392860804">
		<tag k="name" v="Bukta" />
		<tag k="natural" v="bay" />
		<tag k="ssr:stedsnr" v="661045" />
	</node>
	<node id="-777443" lat="69.9038249976" lon="21.6350944071">
		<tag k="name" v="Sandørgrunnen" />
		<tag k="natural" v="shoal" />
		<tag k="place" v="locality" />
		<tag k="ssr:stedsnr" v="661046" />
	</node>
	<node id="-776059" lat="70.1082361116" lon="21.33167774">
		<tag k="name" v="Rødøya - Rávddá" />
		<tag k="name:no" v="Rødøya" />
		<tag k="name:se" v="Rávddá" />
		<tag k="old_name:se" v="Ravda;Rávdá" />
		<tag k="place" v="island" />
		<tag k="ssr:stedsnr" v="383337" />
	</node>
	<node id="-777436" lat="69.7396166725" lon="21.9635999574">
		<tag k="name" v="Sørfjordbotn" />
		<tag k="natural" v="bay" />
		<tag k="ssr:stedsnr" v="660798" />
	</node>
	<node id="-777433" lat="69.9327611157" lon="21.8638360632">
		<tag k="name" v="Svartbukta" />
		<tag k="natural" v="bay" />
		<tag k="ssr:stedsnr" v="660734" />
	</node>
	<node id="-777426" lat="69.9368333347" lon="21.7294583091">
		<tag k="name" v="Sandørneset" />
		<tag k="natural" v="cape" />
		<tag k="ssr:stedsnr" v="660195" />
	</node>
	<node id="-777418" lat="70.1067777767" lon="21.4506055378">
		<tag k="name" v="Snusbukta" />
		<tag k="natural" v="bay" />
		<tag k="ssr:stedsnr" v="654655" />
	</node>
	<node id="-777414" lat="70.1674749989" lon="21.4791305266">
		<tag k="name" v="Nils-Ivarneset" />
		<tag k="natural" v="cape" />
		<tag k="ssr:stedsnr" v="654000" />
	</node>
	<node id="-777413" lat="70.1648805513" lon="21.4798610914">
		<tag k="name" v="Bukteneset" />
		<tag k="natural" v="cape" />
		<tag k="ssr:stedsnr" v="653989" />
	</node>
	<node id="-777411" lat="70.0612472205" lon="21.8654388484">
		<tag k="alt_name" v="Slettnesodden" />
		<tag k="name" v="Slettnes" />
		<tag k="natural" v="cape" />
		<tag k="ssr:stedsnr" v="653746" />
	</node>
	<node id="-777410" lat="69.9670055547" lon="21.7972388514">
		<tag k="name" v="Torskenesgrunnen" />
		<tag k="natural" v="shoal" />
		<tag k="place" v="locality" />
		<tag k="ssr:stedsnr" v="652723" />
	</node>
	<node id="-777409" lat="69.9910444485" lon="21.744680508">
		<tag k="name" v="Nordbåen" />
		<tag k="natural" v="shoal" />
		<tag k="place" v="locality" />
		<tag k="ssr:stedsnr" v="652722" />
	</node>
	<node id="-777408" lat="69.9500666664" lon="21.5661805345">
		<tag k="name" v="Hamneklubben" />
		<tag k="natural" v="cape" />
		<tag k="ssr:stedsnr" v="652266" />
	</node>
	<node id="-777407" lat="69.9454083381" lon="21.6078305284">
		<tag k="name" v="Stabben" />
		<tag k="natural" v="shoal" />
		<tag k="place" v="locality" />
		<tag k="ssr:stedsnr" v="652261" />
	</node>
	<node id="-777406" lat="69.8850333335" lon="21.8392055281">
		<tag k="name" v="Undervollbukta" />
		<tag k="natural" v="bay" />
		<tag k="ssr:stedsnr" v="652251" />
	</node>
	<node id="-777405" lat="69.9493333299" lon="21.8082749679">
		<tag k="name" v="Vestre Høgholman" />
		<tag k="place" v="islet" />
		<tag k="ssr:stedsnr" v="652240" />
	</node>
	<node id="-777403" lat="70.0210416639" lon="21.3595083125">
		<tag k="name" v="Ytre Øyrneset" />
		<tag k="natural" v="cape" />
		<tag k="ssr:stedsnr" v="652060" />
	</node>
	<node id="-777402" lat="70.0122916644" lon="21.2886083139">
		<tag k="name" v="Storbukta" />
		<tag k="natural" v="bay" />
		<tag k="ssr:stedsnr" v="652002" />
	</node>
	<node id="-777401" lat="70.1686694475" lon="21.478205528">
		<tag k="name" v="Stenga" />
		<tag k="natural" v="beach" />
		<tag k="place" v="locality" />
		<tag k="ssr:stedsnr" v="651967" />
	</node>
	<node id="-777400" lat="69.854833336" lon="21.8111999727">
		<tag k="name" v="Lakseberget" />
		<tag k="natural" v="cape" />
		<tag k="ssr:stedsnr" v="651098" />
	</node>
	<node id="-777398" lat="70.1851916641" lon="21.1765694256">
		<tag k="name" v="Øverskallen" />
		<tag k="natural" v="shoal" />
		<tag k="place" v="locality" />
		<tag k="ssr:stedsnr" v="636058" />
	</node>
	<node id="-777396" lat="70.0045499988" lon="21.6282360872">
		<tag k="alt_name" v="Klemneset" />
		<tag k="name" v="Klemmeneset" />
		<tag k="natural" v="cape" />
		<tag k="ssr:stedsnr" v="626530" />
	</node>
	<node id="-777394" lat="69.7911194495" lon="22.0041583014">
		<tag k="fixme" v="multiple name tags, choose one and add the other to alt_name" />
		<tag k="name" v="Lille Årøya;Lilleøya;Årøya, l - Vuorri - Pikku Vuori" />
		<tag k="name:fkv" v="Pikku Vuori" />
		<tag k="name:no" v="Lille Årøya;Lilleøya;Årøya, l" />
		<tag k="name:se" v="Vuorri" />
		<tag k="place" v="island" />
		<tag k="ssr:stedsnr" v="626525" />
	</node>
	<node id="-777385" lat="70.017480553" lon="21.3085027471">
		<tag k="alt_name" v="Gamneset" />
		<tag k="name" v="Gamnes" />
		<tag k="natural" v="cape" />
		<tag k="ssr:stedsnr" v="626386" />
	</node>
	<node id="-777374" lat="69.9787555533" lon="21.7538999564">
		<tag k="name" v="Kjerringholmen" />
		<tag k="place" v="islet" />
		<tag k="ssr:stedsnr" v="626251" />
	</node>
	<node id="-777372" lat="69.9916555612" lon="22.0163943994">
		<tag k="bay" v="fjord" />
		<tag k="loc_name:se" v="Buvrovuonna;Burovuonna" />
		<tag k="name" v="Burfjorden - Buvrovuotna - Puruvuono" />
		<tag k="name:fkv" v="Puruvuono" />
		<tag k="name:no" v="Burfjorden" />
		<tag k="name:se" v="Buvrovuotna" />
		<tag k="natural" v="bay" />
		<tag k="ssr:stedsnr" v="626248" />
	</node>
	<node id="-777371" lat="69.8596750019" lon="21.8079499559">
		<tag k="fixme" v="multiple name tags, choose one and add the other to alt_name" />
		<tag k="name" v="Bukta - Gárbeluotmohkki;Luokta" />
		<tag k="name:no" v="Bukta" />
		<tag k="name:se" v="Gárbeluotmohkki;Luokta" />
		<tag k="natural" v="bay" />
		<tag k="ssr:stedsnr" v="626101" />
	</node>
	<node id="-777369" lat="69.8487963908" lon="21.8955538238">
		<tag k="fixme" v="multiple name tags, choose one and add the other to alt_name" />
		<tag k="name" v="Nordstraumneset - Rinnjárga - Narkasniemi;Rinniemi" />
		<tag k="name:fkv" v="Narkasniemi;Rinniemi" />
		<tag k="name:no" v="Nordstraumneset" />
		<tag k="name:se" v="Rinnjárga" />
		<tag k="natural" v="cape" />
		<tag k="old_name:no" v="Nordnes" />
		<tag k="ssr:stedsnr" v="626095" />
	</node>
	<node id="-777355" lat="70.072836112" lon="21.8424110698">
		<tag k="name" v="Sommarsetneset" />
		<tag k="natural" v="cape" />
		<tag k="ssr:stedsnr" v="625440" />
	</node>
	<node id="-777354" lat="70.0227888942" lon="21.2876249664">
		<tag k="alt_name:no" v="Haukøya, l" />
		<tag k="name" v="Lille Haukøya - Uhca Ávkkoš" />
		<tag k="name:no" v="Lille Haukøya" />
		<tag k="name:se" v="Uhca Ávkkoš" />
		<tag k="old_name:se" v="Avkuš ucca" />
		<tag k="place" v="island" />
		<tag k="ssr:stedsnr" v="625344" />
	</node>
	<node id="-777353" lat="70.0912722208" lon="21.5275416418">
		<tag k="alt_name" v="Pilvågen" />
		<tag k="name" v="Pilvåg" />
		<tag k="natural" v="bay" />
		<tag k="ssr:stedsnr" v="625331" />
	</node>
	<node id="-777351" lat="70.1143000045" lon="21.2962971887">
		<tag k="name" v="Svartbukta" />
		<tag k="natural" v="bay" />
		<tag k="ssr:stedsnr" v="625323" />
	</node>
	<node id="-777347" lat="69.8965972186" lon="21.6540249697">
		<tag k="alt_name" v="Sandnes" />
		<tag k="name" v="Sandneset" />
		<tag k="natural" v="cape" />
		<tag k="ssr:stedsnr" v="625176" />
	</node>
	<node id="-777344" lat="70.1696972209" lon="21.4480666436">
		<tag k="name" v="Hamna" />
		<tag k="natural" v="bay" />
		<tag k="ssr:stedsnr" v="625161" />
	</node>
	<node id="-777339" lat="69.7699055562" lon="22.0490499527">
		<tag k="name" v="Lohkasnjárga - Lokkasniemi" />
		<tag k="name:fkv" v="Lokkasniemi" />
		<tag k="name:se" v="Lohkasnjárga" />
		<tag k="natural" v="cape" />
		<tag k="ssr:stedsnr" v="625003" />
	</node>
	<node id="-777338" lat="69.767027777" lon="22.0341888558">
		<tag k="alt_name:no" v="Innerneset" />
		<tag k="name" v="Indreneset - Kesorinniemi" />
		<tag k="name:fkv" v="Kesorinniemi" />
		<tag k="name:no" v="Indreneset" />
		<tag k="natural" v="cape" />
		<tag k="ssr:stedsnr" v="625001" />
	</node>
	<node id="-777324" lat="69.9925222219" lon="21.9816277319">
		<tag k="name" v="Djupbukt" />
		<tag k="natural" v="bay" />
		<tag k="ssr:stedsnr" v="600656" />
	</node>
	<node id="-776038" lat="69.9265833357" lon="21.8010082894">
		<tag k="fixme" v="consider seamark:type=rock or natural=shoal" />
		<tag k="name" v="Ytrenøklan" />
		<tag k="place" v="islet" />
		<tag k="ssr:stedsnr" v="383161" />
	</node>
	<node id="-777313" lat="69.8241472204" lon="21.9223860683">
		<tag k="name" v="Indre Nordstraumen" />
		<tag k="natural" v="bay" />
		<tag k="ssr:stedsnr" v="600495" />
	</node>
	<node id="-777304" lat="70.0363583326" lon="21.662711064">
		<tag k="name" v="Vannjárgodden" />
		<tag k="natural" v="cape" />
		<tag k="ssr:stedsnr" v="600091" />
	</node>
	<node id="-777301" lat="70.0229777766" lon="21.5612305225">
		<tag k="name" v="Skagevågen" />
		<tag k="natural" v="bay" />
		<tag k="ssr:stedsnr" v="600074" />
	</node>
	<node id="-777298" lat="69.9192111091" lon="21.6853166172">
		<tag k="name" v="Amorslettneset" />
		<tag k="natural" v="cape" />
		<tag k="ssr:stedsnr" v="600058" />
	</node>
	<node id="-776035" lat="69.9492638952" lon="21.9527221753">
		<tag k="name" v="Hampaeidet - Jeltamuotki" />
		<tag k="name:no" v="Hampaeidet" />
		<tag k="name:se" v="Jeltamuotki" />
		<tag k="place" v="locality" />
		<tag k="ssr:stedsnr" v="383136" />
	</node>
	<node id="-777293" lat="69.9271333353" lon="21.8018582911">
		<tag k="fixme" v="consider seamark:type=rock or natural=shoal" />
		<tag k="name" v="Skjæret" />
		<tag k="place" v="islet" />
		<tag k="ssr:stedsnr" v="599754" />
	</node>
	<node id="-777290" lat="70.00190278" lon="21.2328666348">
		<tag k="fixme" v="consider seamark:type=rock or natural=shoal" />
		<tag k="name" v="Oterstokkene" />
		<tag k="place" v="islet" />
		<tag k="ssr:stedsnr" v="599414" />
	</node>
	<node id="-777289" lat="69.9644750056" lon="21.5223332961">
		<tag k="name" v="Henda" />
		<tag k="natural" v="cape" />
		<tag k="ssr:stedsnr" v="599355" />
	</node>
	<node id="-777288" lat="69.8482972245" lon="21.8209888488">
		<tag k="name" v="Skánnjárga" />
		<tag k="name:se" v="Skánnjárga" />
		<tag k="natural" v="cape" />
		<tag k="ssr:stedsnr" v="599229" />
	</node>
	<node id="-777284" lat="69.8815083313" lon="21.744991619">
		<tag k="alt_name" v="Rakkenesbukta" />
		<tag k="name" v="Per-Gamesbukta" />
		<tag k="natural" v="bay" />
		<tag k="ssr:stedsnr" v="599121" />
	</node>
	<node id="-777279" lat="70.0851472203" lon="21.5897666412">
		<tag k="name" v="Innerneset" />
		<tag k="natural" v="cape" />
		<tag k="ssr:stedsnr" v="593863" />
	</node>
	<node id="-777274" lat="70.1091555535" lon="21.5775721755">
		<tag k="name" v="Hamneneset" />
		<tag k="natural" v="cape" />
		<tag k="ssr:stedsnr" v="593811" />
	</node>
	<node id="-777258" lat="70.1281666654" lon="21.4309305237">
		<tag k="name" v="Atterstokken" />
		<tag k="natural" v="cape" />
		<tag k="ssr:stedsnr" v="593613" />
	</node>
	<node id="-777257" lat="70.1609305569" lon="21.4712694114">
		<tag k="name" v="Storsteinneset" />
		<tag k="natural" v="cape" />
		<tag k="ssr:stedsnr" v="591914" />
	</node>
	<node id="-777254" lat="69.8970055562" lon="21.8727944095">
		<tag k="name" v="Midtvollbakken" />
		<tag k="place" v="locality" />
		<tag k="ssr:stedsnr" v="591256" />
	</node>
	<node id="-777253" lat="70.222727779" lon="21.1748138525">
		<tag k="name" v="Lille-Brynnilsundet" />
		<tag k="natural" v="strait" />
		<tag k="ssr:stedsnr" v="591205" />
	</node>
	<node id="-777252" lat="70.2085527801" lon="21.2088777629">
		<tag k="name" v="Náffenjárga" />
		<tag k="name:se" v="Náffenjárga" />
		<tag k="natural" v="cape" />
		<tag k="ssr:stedsnr" v="591201" />
	</node>
	<node id="-777249" lat="69.8681972225" lon="21.9598055061">
		<tag k="name" v="Einebukta" />
		<tag k="natural" v="bay" />
		<tag k="ssr:stedsnr" v="590960" />
	</node>
	<node id="-777248" lat="70.2328277763" lon="21.0324277458">
		<tag k="fixme" v="multiple name tags, choose one and add the other to alt_name" />
		<tag k="name" v="Larven;Ryggen" />
		<tag k="natural" v="shoal" />
		<tag k="place" v="locality" />
		<tag k="ssr:stedsnr" v="575208" />
	</node>
	<node id="-777247" lat="70.2035527813" lon="21.2189888724">
		<tag k="name" v="Seglvika" />
		<tag k="natural" v="bay" />
		<tag k="ssr:stedsnr" v="575009" />
	</node>
	<node id="-777246" lat="70.2007999982" lon="21.1959055374">
		<tag k="name" v="Ramnnesodden" />
		<tag k="natural" v="cape" />
		<tag k="ssr:stedsnr" v="575010" />
	</node>
	<node id="-777245" lat="70.1769694415" lon="21.1206416518">
		<tag k="name" v="Inner-Tomasen" />
		<tag k="natural" v="shoal" />
		<tag k="place" v="locality" />
		<tag k="ssr:stedsnr" v="575003" />
	</node>
	<node id="-777243" lat="70.1593888925" lon="21.4057249748">
		<tag k="bay" v="fjord" />
		<tag k="loc_name:se" v="Dorskevuonna" />
		<tag k="name" v="Olderfjorden - Dorskevuotna" />
		<tag k="name:no" v="Olderfjorden" />
		<tag k="name:se" v="Dorskevuotna" />
		<tag k="natural" v="bay" />
		<tag k="old_name:se" v="Dårskevuodna" />
		<tag k="ssr:stedsnr" v="566501" />
	</node>
	<node id="-777240" lat="69.9862166638" lon="21.2155638681">
		<tag k="alt_name" v="Skjeret" />
		<tag k="fixme" v="consider seamark:type=rock or natural=shoal" />
		<tag k="name" v="Skjæret" />
		<tag k="place" v="islet" />
		<tag k="ssr:stedsnr" v="565907" />
	</node>
	<node id="-777239" lat="69.9570111166" lon="21.5377860699">
		<tag k="name" v="Neset" />
		<tag k="natural" v="cape" />
		<tag k="ssr:stedsnr" v="565890" />
	</node>
	<node id="-777236" lat="69.948324999" lon="21.5657360745">
		<tag k="name" v="Hamnebukta" />
		<tag k="natural" v="bay" />
		<tag k="ssr:stedsnr" v="565874" />
	</node>
	<node id="-777232" lat="70.0211361134" lon="21.7058138513">
		<tag k="name" v="Bukta - Spittámohkki" />
		<tag k="name:no" v="Bukta" />
		<tag k="name:se" v="Spittámohkki" />
		<tag k="natural" v="bay" />
		<tag k="old_name:se" v="Spiddamåkki" />
		<tag k="ssr:stedsnr" v="565466" />
	</node>
	<node id="-777227" lat="70.0615388871" lon="21.8734138364">
		<tag k="name" v="Gulpenjárga" />
		<tag k="name:se" v="Gulpenjárga" />
		<tag k="natural" v="cape" />
		<tag k="old_name:se" v="Gulpenjarga" />
		<tag k="ssr:stedsnr" v="565443" />
	</node>
	<node id="-777222" lat="70.0613416688" lon="21.8966638539">
		<tag k="alt_name" v="Hjelnes" />
		<tag k="name" v="Hjellnes" />
		<tag k="natural" v="cape" />
		<tag k="ssr:stedsnr" v="565417" />
	</node>
	<node id="-777221" lat="70.0964194417" lon="21.4683832951">
		<tag k="name" v="Áhpenjárgeahči" />
		<tag k="name:se" v="Áhpenjárgeahči" />
		<tag k="natural" v="cape" />
		<tag k="old_name:se" v="Appenjargæčči" />
		<tag k="ssr:stedsnr" v="565321" />
	</node>
	<node id="-776022" lat="69.8681722255" lon="21.9693083016">
		<tag k="name" v="Talkenes" />
		<tag k="natural" v="cape" />
		<tag k="ssr:stedsnr" v="383081" />
	</node>
	<node id="-777214" lat="69.7399527818" lon="22.0703999559">
		<tag k="alt_name:no" v="Litleholmen" />
		<tag k="name" v="Lilleholmen - Ávnnehaš - Aunikainen" />
		<tag k="name:fkv" v="Aunikainen" />
		<tag k="name:no" v="Lilleholmen" />
		<tag k="name:se" v="Ávnnehaš" />
		<tag k="place" v="islet" />
		<tag k="ssr:stedsnr" v="565285" />
	</node>
	<node id="-777212" lat="69.7356111149" lon="22.0105805249">
		<tag k="name" v="Leirbukt - Reaššemohkki" />
		<tag k="name:no" v="Leirbukt" />
		<tag k="name:se" v="Reaššemohkki" />
		<tag k="natural" v="bay" />
		<tag k="ssr:stedsnr" v="565279" />
	</node>
	<node id="-777211" lat="69.7320305602" lon="22.0053832998">
		<tag k="bay" v="fjord" />
		<tag k="loc_name:se" v="Suvdovuonna" />
		<tag k="name" v="Sørfjorden - Suvdovuotna" />
		<tag k="name:no" v="Sørfjorden" />
		<tag k="name:se" v="Suvdovuotna" />
		<tag k="natural" v="bay" />
		<tag k="ssr:stedsnr" v="565280" />
	</node>
	<node id="-777210" lat="69.9542583381" lon="21.9082249619">
		<tag k="name" v="Kvitebergbukta" />
		<tag k="natural" v="bay" />
		<tag k="ssr:stedsnr" v="565237" />
	</node>
	<node id="-777202" lat="70.1750833309" lon="21.2535221878">
		<tag k="name" v="Torskenes" />
		<tag k="natural" v="cape" />
		<tag k="ssr:stedsnr" v="565144" />
	</node>
	<node id="-777184" lat="70.0192333339" lon="22.0456944112">
		<tag k="name" v="Hansnes" />
		<tag k="natural" v="cape" />
		<tag k="ssr:stedsnr" v="540685" />
	</node>
	<node id="-777182" lat="69.7568666665" lon="22.0934416256">
		<tag k="name" v="Aspevika" />
		<tag k="natural" v="bay" />
		<tag k="ssr:stedsnr" v="540654" />
	</node>
	<node id="-777173" lat="69.9919694441" lon="21.695033294">
		<tag k="name" v="Espenesbukta" />
		<tag k="natural" v="bay" />
		<tag k="ssr:stedsnr" v="540099" />
	</node>
	<node id="-777155" lat="69.8940333313" lon="21.8862249521">
		<tag k="name" v="Kabelbukta" />
		<tag k="natural" v="bay" />
		<tag k="ssr:stedsnr" v="539553" />
	</node>
	<node id="-777151" lat="69.8473444458" lon="21.8305999617">
		<tag k="name" v="Báktenjárga" />
		<tag k="name:se" v="Báktenjárga" />
		<tag k="natural" v="cape" />
		<tag k="ssr:stedsnr" v="539209" />
	</node>
	<node id="-777150" lat="69.8433750036" lon="21.8637027496">
		<tag k="name" v="Tørrelvneset" />
		<tag k="natural" v="cape" />
		<tag k="ssr:stedsnr" v="539204" />
	</node>
	<node id="-777149" lat="69.9267527793" lon="21.7841944134">
		<tag k="name" v="Ytre Nøkkelenden" />
		<tag k="natural" v="cape" />
		<tag k="ssr:stedsnr" v="539198" />
	</node>
	<node id="-777142" lat="70.0977000032" lon="21.5676444202">
		<tag k="name" v="Slettaneset" />
		<tag k="natural" v="cape" />
		<tag k="ssr:stedsnr" v="533910" />
	</node>
	<node id="-777139" lat="70.0760722278" lon="21.8012388474">
		<tag k="name" v="Kobbeladdo" />
		<tag k="natural" v="bay" />
		<tag k="ssr:stedsnr" v="533878" />
	</node>
	<node id="-777138" lat="70.1001194427" lon="21.5716332883">
		<tag k="name" v="Sauhamna" />
		<tag k="natural" v="bay" />
		<tag k="ssr:stedsnr" v="533872" />
	</node>
	<node id="-777135" lat="70.1123027837" lon="22.0445888464">
		<tag k="name" v="Álleláttu" />
		<tag k="name:se" v="Álleláttu" />
		<tag k="natural" v="bay" />
		<tag k="ssr:stedsnr" v="533804" />
	</node>
	<node id="-777133" lat="70.0972916646" lon="21.3628027479">
		<tag k="name" v="Innerenden" />
		<tag k="natural" v="cape" />
		<tag k="ssr:stedsnr" v="533711" />
	</node>
	<node id="-777128" lat="70.0967111138" lon="22.0331971711">
		<tag k="name" v="Innersjolmen" />
		<tag k="natural" v="cape" />
		<tag k="ssr:stedsnr" v="533367" />
	</node>
	<node id="-777127" lat="70.2026972226" lon="21.2004221945">
		<tag k="name" v="Hamnebukta" />
		<tag k="natural" v="bay" />
		<tag k="ssr:stedsnr" v="532763" />
	</node>
	<node id="-777122" lat="69.9313972221" lon="21.7298416403">
		<tag k="alt_name" v="Vågan" />
		<tag k="name" v="Vågen" />
		<tag k="natural" v="bay" />
		<tag k="ssr:stedsnr" v="531765" />
	</node>
	<node id="-777121" lat="69.9859194488" lon="21.7263027514">
		<tag k="name" v="Sørbåen" />
		<tag k="natural" v="shoal" />
		<tag k="place" v="locality" />
		<tag k="ssr:stedsnr" v="531753" />
	</node>
	<node id="-777119" lat="69.9143055575" lon="21.7336832988">
		<tag k="name" v="Nesbåen" />
		<tag k="natural" v="shoal" />
		<tag k="place" v="locality" />
		<tag k="ssr:stedsnr" v="531320" />
	</node>
	<node id="-777116" lat="70.1836194415" lon="21.2536277426">
		<tag k="name" v="Lille Torskeneset" />
		<tag k="natural" v="cape" />
		<tag k="ssr:stedsnr" v="530904" />
	</node>
	<node id="-777102" lat="69.9127027754" lon="21.8760138498">
		<tag k="alt_name:no" v="Moldvikbukta" />
		<tag k="name" v="Molvika - Málatluokta" />
		<tag k="name:no" v="Molvika" />
		<tag k="name:se" v="Málatluokta" />
		<tag k="natural" v="bay" />
		<tag k="ssr:stedsnr" v="505455" />
	</node>
	<node id="-777092" lat="69.8526722232" lon="21.867055507">
		<tag k="name" v="Storstraumen - Stuora Rávdnji - Isovirta" />
		<tag k="name:fkv" v="Isovirta" />
		<tag k="name:no" v="Storstraumen" />
		<tag k="name:se" v="Stuora Rávdnji" />
		<tag k="natural" v="strait" />
		<tag k="old_name:se" v="Ravdnji, stuora" />
		<tag k="ssr:stedsnr" v="505067" />
	</node>
	<node id="-776096" lat="70.117591671" lon="22.0484666213">
		<tag k="name" v="Viekseláttu" />
		<tag k="name:se" v="Viekseláttu" />
		<tag k="natural" v="bay" />
		<tag k="ssr:stedsnr" v="412755" />
	</node>
	<node id="-777076" lat="70.0588111117" lon="21.7662332905">
		<tag k="name" v="Stálovuohppi" />
		<tag k="name:se" v="Stálovuohppi" />
		<tag k="natural" v="bay" />
		<tag k="old_name:se" v="Staluvuoppi" />
		<tag k="ssr:stedsnr" v="504462" />
	</node>
	<node id="-777074" lat="70.0027888864" lon="21.4475221815">
		<tag k="name" v="Yttervika" />
		<tag k="natural" v="bay" />
		<tag k="ssr:stedsnr" v="504332" />
	</node>
	<node id="-777073" lat="70.0110305584" lon="21.6030583085">
		<tag k="alt_name:no" v="Bakkjordet" />
		<tag k="name" v="Bakkejordet - Noaidegieddi" />
		<tag k="name:no" v="Bakkejordet" />
		<tag k="name:se" v="Noaidegieddi" />
		<tag k="natural" v="cape" />
		<tag k="ssr:stedsnr" v="504326" />
	</node>
	<node id="-777071" lat="70.0332666638" lon="21.5849138487">
		<tag k="name" v="Skjåvika" />
		<tag k="natural" v="bay" />
		<tag k="ssr:stedsnr" v="504310" />
	</node>
	<node id="-777068" lat="70.0921805585" lon="21.9825221704">
		<tag k="alt_name" v="Gambukta" />
		<tag k="name" v="Gambukt" />
		<tag k="natural" v="bay" />
		<tag k="ssr:stedsnr" v="504283" />
	</node>
	<node id="-777064" lat="70.1066027759" lon="22.0502555169">
		<tag k="bay" v="fjord" />
		<tag k="name" v="Isfjorden - Jiehkkebahta" />
		<tag k="name:no" v="Isfjorden" />
		<tag k="name:se" v="Jiehkkebahta" />
		<tag k="natural" v="bay" />
		<tag k="old_name:se" v="Jiekkebatta" />
		<tag k="ssr:stedsnr" v="504258" />
	</node>
	<node id="-777060" lat="69.8745888932" lon="21.9088305181">
		<tag k="name" v="Steinnes" />
		<tag k="natural" v="cape" />
		<tag k="ssr:stedsnr" v="504154" />
	</node>
	<node id="-777053" lat="69.9411388854" lon="21.8657305212">
		<tag k="fixme" v="multiple name tags, choose one and add the other to alt_name" />
		<tag k="name" v="Rastebukta;Sørbukta" />
		<tag k="natural" v="bay" />
		<tag k="ssr:stedsnr" v="504114" />
	</node>
	<node id="-777042" lat="69.7699000026" lon="22.0388027448">
		<tag k="alt_name:no" v="Litlestraumen" />
		<tag k="name" v="Lillestraumen - Pikkuvirta" />
		<tag k="name:fkv" v="Pikkuvirta" />
		<tag k="name:no" v="Lillestraumen" />
		<tag k="natural" v="strait" />
		<tag k="ssr:stedsnr" v="504002" />
	</node>
	<node id="-777033" lat="70.0901861113" lon="21.5559416419">
		<tag k="fixme" v="consider seamark:type=rock or natural=shoal" />
		<tag k="name" v="Nesseskjæret" />
		<tag k="place" v="islet" />
		<tag k="ssr:stedsnr" v="472892" />
	</node>
	<node id="-777028" lat="70.2018000041" lon="21.199883316">
		<tag k="name" v="Ramneset" />
		<tag k="natural" v="cape" />
		<tag k="ssr:stedsnr" v="472753" />
	</node>
	<node id="-777023" lat="70.1202805533" lon="21.3227055189">
		<tag k="name" v="Småseikeila" />
		<tag k="natural" v="bay" />
		<tag k="ssr:stedsnr" v="472675" />
	</node>
	<node id="-777017" lat="70.0016083358" lon="21.566391623">
		<tag k="name" v="Darupgrunnen" />
		<tag k="natural" v="shoal" />
		<tag k="place" v="locality" />
		<tag k="ssr:stedsnr" v="471736" />
	</node>
	<node id="-777013" lat="69.9908333337" lon="21.6498749587">
		<tag k="name" v="Garnsgrunnen" />
		<tag k="natural" v="shoal" />
		<tag k="place" v="locality" />
		<tag k="ssr:stedsnr" v="470745" />
	</node>
	<node id="-777012" lat="69.9403472201" lon="21.8602582983">
		<tag k="name" v="Rastenesgrunnen" />
		<tag k="natural" v="shoal" />
		<tag k="place" v="locality" />
		<tag k="ssr:stedsnr" v="470252" />
	</node>
	<node id="-777010" lat="70.0095777796" lon="21.2413027386">
		<tag k="alt_name" v="Meilandsøyra" />
		<tag k="name" v="Meilandsøra" />
		<tag k="natural" v="shoal" />
		<tag k="place" v="locality" />
		<tag k="ssr:stedsnr" v="470021" />
	</node>
	<node id="-777009" lat="69.9798305538" lon="21.523819419">
		<tag k="name" v="Vandebergneset" />
		<tag k="natural" v="cape" />
		<tag k="ssr:stedsnr" v="470013" />
	</node>
	<node id="-777006" lat="69.8701861093" lon="21.9300582891">
		<tag k="name" v="Hjellnesbukta" />
		<tag k="natural" v="bay" />
		<tag k="ssr:stedsnr" v="469971" />
	</node>
	<node id="-777005" lat="70.0094805575" lon="21.8642360711">
		<tag k="name" v="Vassnesgrunnen" />
		<tag k="natural" v="shoal" />
		<tag k="place" v="locality" />
		<tag k="ssr:stedsnr" v="470732" />
	</node>
	<node id="-777001" lat="70.07059722" lon="21.8205055293">
		<tag k="name" v="Tverfjordgrunnen" />
		<tag k="natural" v="shoal" />
		<tag k="place" v="locality" />
		<tag k="ssr:stedsnr" v="457839" />
	</node>
	<node id="-777000" lat="70.1747472234" lon="21.1627666541">
		<tag k="name" v="Vannbergskallen" />
		<tag k="natural" v="shoal" />
		<tag k="place" v="locality" />
		<tag k="ssr:stedsnr" v="454002" />
	</node>
	<node id="-776989" lat="70.0443611088" lon="21.6269694095">
		<tag k="alt_name" v="Spildraodden" />
		<tag k="name" v="Spilderodden" />
		<tag k="natural" v="cape" />
		<tag k="ssr:stedsnr" v="444456" />
	</node>
	<node id="-776980" lat="70.0773249974" lon="21.9095416247">
		<tag k="name" v="Langnes" />
		<tag k="natural" v="cape" />
		<tag k="ssr:stedsnr" v="444425" />
	</node>
	<node id="-776977" lat="70.0192583385" lon="21.3461360791">
		<tag k="alt_name" v="Mannskardvika" />
		<tag k="name" v="Mannskarvika" />
		<tag k="natural" v="bay" />
		<tag k="ssr:stedsnr" v="444309" />
	</node>
	<node id="-776976" lat="70.0950583326" lon="21.4772222019">
		<tag k="alt_name:no" v="Spitneset" />
		<tag k="name" v="Spitnes - Áhpenjárga" />
		<tag k="name:no" v="Spitnes" />
		<tag k="name:se" v="Áhpenjárga" />
		<tag k="natural" v="cape" />
		<tag k="old_name:se" v="Appenjarga" />
		<tag k="ssr:stedsnr" v="444302" />
	</node>
	<node id="-776974" lat="69.7491027792" lon="22.0522971642">
		<tag k="alt_name:fkv" v="Morsonjemi" />
		<tag k="fixme" v="multiple name tags, choose one and add the other to alt_name" />
		<tag k="name" v="Hvalrossneset;Morsoneset - Moršanjárga - Mursuniemi" />
		<tag k="name:fkv" v="Mursuniemi" />
		<tag k="name:no" v="Hvalrossneset;Morsoneset" />
		<tag k="name:se" v="Moršanjárga" />
		<tag k="natural" v="cape" />
		<tag k="ssr:stedsnr" v="444285" />
	</node>
	<node id="-776971" lat="69.7403499996" lon="22.0326610761">
		<tag k="fixme" v="multiple name tags, choose one and add the other to alt_name" />
		<tag k="name" v="Eidet;Undereidet" />
		<tag k="place" v="locality" />
		<tag k="ssr:stedsnr" v="444270" />
	</node>
	<node id="-776967" lat="70.1879527783" lon="21.2523583144">
		<tag k="name" v="Innervika" />
		<tag k="natural" v="bay" />
		<tag k="ssr:stedsnr" v="444158" />
	</node>
	<node id="-776959" lat="69.8035583338" lon="21.9064305051">
		<tag k="name" v="Storneset" />
		<tag k="natural" v="cape" />
		<tag k="ssr:stedsnr" v="444113" />
	</node>
	<node id="-776956" lat="69.8425083331" lon="21.9786332816">
		<tag k="name" v="Klubben" />
		<tag k="natural" v="cape" />
		<tag k="ssr:stedsnr" v="444075" />
	</node>
	<node id="-776950" lat="69.7527000039" lon="22.0923305206">
		<tag k="name" v="Tangnesholmen - Daŋassuolu - Tangasensaari" />
		<tag k="name:fkv" v="Tangasensaari" />
		<tag k="name:no" v="Tangnesholmen" />
		<tag k="name:se" v="Daŋassuolu" />
		<tag k="old_name:se" v="Daŋasgaddi" />
		<tag k="place" v="islet" />
		<tag k="ssr:stedsnr" v="444014" />
	</node>
	<node id="-776931" lat="69.9964916645" lon="21.7084110662">
		<tag k="alt_name" v="Gáibeneset" />
		<tag k="name" v="Gaibenes" />
		<tag k="natural" v="cape" />
		<tag k="ssr:stedsnr" v="444207" />
	</node>
	<node id="-776930" lat="69.9888777779" lon="21.9397638435">
		<tag k="name" v="Iisajot-gáddi" />
		<tag k="name:se" v="Iisajot-gáddi" />
		<tag k="natural" v="beach" />
		<tag k="place" v="locality" />
		<tag k="ssr:stedsnr" v="444205" />
	</node>
	<node id="-776916" lat="69.7387555596" lon="21.9714777387">
		<tag k="name" v="Silliplana" />
		<tag k="name:fkv" v="Silliplana" />
		<tag k="natural" v="beach" />
		<tag k="place" v="locality" />
		<tag k="ssr:stedsnr" v="418803" />
	</node>
	<node id="-776914" lat="70.007869449" lon="21.7288749558">
		<tag k="name" v="Fjellnesodden - Fiellanjárga" />
		<tag k="name:no" v="Fjellnesodden" />
		<tag k="name:se" v="Fiellanjárga" />
		<tag k="natural" v="cape" />
		<tag k="ssr:stedsnr" v="418727" />
	</node>
	<node id="-776910" lat="69.7748722214" lon="22.0867277256">
		<tag k="name" v="Sagbukta" />
		<tag k="natural" v="bay" />
		<tag k="ssr:stedsnr" v="418644" />
	</node>
	<node id="-776906" lat="69.9542111126" lon="22.0057638409">
		<tag k="name" v="Hávgemohkki - Haukkimukka" />
		<tag k="name:fkv" v="Haukkimukka" />
		<tag k="name:se" v="Hávgemohkki" />
		<tag k="natural" v="bay" />
		<tag k="ssr:stedsnr" v="418624" />
	</node>
	<node id="-776902" lat="69.890858336" lon="21.8882277445">
		<tag k="name" v="Bankenesbukta" />
		<tag k="natural" v="bay" />
		<tag k="ssr:stedsnr" v="418585" />
	</node>
	<node id="-776897" lat="69.8048722253" lon="22.0129944001">
		<tag k="name" v="Storskjæringa" />
		<tag k="natural" v="cape" />
		<tag k="ssr:stedsnr" v="418526" />
	</node>
	<node id="-776883" lat="69.9571194428" lon="21.5324055215">
		<tag k="name" v="Tomasvågen" />
		<tag k="natural" v="bay" />
		<tag k="ssr:stedsnr" v="418374" />
	</node>
	<node id="-776870" lat="70.014986112" lon="21.5615638508">
		<tag k="name" v="Snarpen" />
		<tag k="natural" v="cape" />
		<tag k="ssr:stedsnr" v="418060" />
	</node>
	<node id="-776867" lat="69.7385722241" lon="22.0949055221">
		<tag k="name" v="Rompeneset" />
		<tag k="natural" v="cape" />
		<tag k="ssr:stedsnr" v="479740" />
	</node>
	<node id="-776866" lat="69.7520535343" lon="22.08371822">
		<tag k="loc_name:no" v="Tangnesgrunnen" />
		<tag k="name" v="Tangneslandet - Tangasenpoot" />
		<tag k="name:fkv" v="Tangasenpoot" />
		<tag k="name:no" v="Tangneslandet" />
		<tag k="place" v="locality" />
		<tag k="ssr:stedsnr" v="479731" />
	</node>
	<node id="-776859" lat="69.7755138876" lon="22.0875916172">
		<tag k="fixme" v="consider seamark:type=rock or natural=shoal" />
		<tag k="name" v="Kjækanskjæret" />
		<tag k="place" v="islet" />
		<tag k="ssr:stedsnr" v="479671" />
	</node>
	<node id="-776850" lat="69.9735583373" lon="21.5113249707">
		<tag k="alt_name" v="Valabotn" />
		<tag k="name" v="Valanbotnen" />
		<tag k="natural" v="bay" />
		<tag k="ssr:stedsnr" v="262899" />
	</node>
	<node id="-776837" lat="70.0359805612" lon="21.8777693959">
		<tag k="name" v="Dusnjárga" />
		<tag k="name:se" v="Dusnjárga" />
		<tag k="natural" v="cape" />
		<tag k="old_name:se" v="Dusnjarga" />
		<tag k="ssr:stedsnr" v="262480" />
	</node>
	<node id="-776828" lat="70.0715805569" lon="21.8741944056">
		<tag k="bay" v="fjord" />
		<tag k="loc_name:se" v="Jiehkervuonna" />
		<tag k="name" v="Jøkelfjorden - Jiehkervuotna" />
		<tag k="name:no" v="Jøkelfjorden" />
		<tag k="name:se" v="Jiehkervuotna" />
		<tag k="natural" v="bay" />
		<tag k="old_name:se" v="Jiekkervuodna" />
		<tag k="ssr:stedsnr" v="262450" />
	</node>
	<node id="-776826" lat="70.013777776" lon="21.4183222042">
		<tag k="alt_name" v="Skittenbergvika" />
		<tag k="name" v="Skitbergvika" />
		<tag k="natural" v="bay" />
		<tag k="old_name" v="Skilbergvika" />
		<tag k="ssr:stedsnr" v="262341" />
	</node>
	<node id="-776824" lat="70.0189333359" lon="21.3191138623">
		<tag k="name" v="Sauvika" />
		<tag k="natural" v="bay" />
		<tag k="ssr:stedsnr" v="262334" />
	</node>
	<node id="-776823" lat="70.0984250025" lon="21.3197360806">
		<tag k="name" v="Målsnes" />
		<tag k="natural" v="cape" />
		<tag k="ssr:stedsnr" v="262317" />
	</node>
	<node id="-776822" lat="70.1079833336" lon="21.2959027441">
		<tag k="name" v="Johan-Ellabukta" />
		<tag k="natural" v="bay" />
		<tag k="ssr:stedsnr" v="262310" />
	</node>
	<node id="-776815" lat="69.9611611108" lon="21.8919693992">
		<tag k="alt_name" v="Kvænbukta" />
		<tag k="name" v="Kvenbukta" />
		<tag k="natural" v="bay" />
		<tag k="ssr:stedsnr" v="262244" />
	</node>
	<node id="-776814" lat="69.9776777763" lon="21.8717388479">
		<tag k="fixme" v="multiple name tags, choose one and add the other to alt_name" />
		<tag k="name" v="Klubben;Klubbodden" />
		<tag k="natural" v="cape" />
		<tag k="ssr:stedsnr" v="262235" />
	</node>
	<node id="-776808" lat="70.1735416715" lon="21.4743583077">
		<tag k="alt_name" v="Samuelsnes" />
		<tag k="name" v="Samuelsneset" />
		<tag k="natural" v="cape" />
		<tag k="ssr:stedsnr" v="262162" />
	</node>
	<node id="-776805" lat="69.9495000023" lon="21.8936444039">
		<tag k="fixme" v="multiple name tags, choose one and add the other to alt_name" />
		<tag k="name" v="Dingalneset;Lille Dinganeset" />
		<tag k="natural" v="cape" />
		<tag k="ssr:stedsnr" v="262137" />
	</node>
	<node id="-776803" lat="69.9456166687" lon="21.7915110868">
		<tag k="alt_name" v="Skarvskjeret;Skarvskjær" />
		<tag k="fixme" v="consider seamark:type=rock or natural=shoal" />
		<tag k="name" v="Skarvskjæret" />
		<tag k="place" v="islet" />
		<tag k="ssr:stedsnr" v="262125" />
	</node>
	<node id="-776801" lat="69.8141416679" lon="21.9538138495">
		<tag k="alt_name" v="Kjøllefjordnes" />
		<tag k="name" v="Kjøllefjordneset" />
		<tag k="natural" v="cape" />
		<tag k="ssr:stedsnr" v="262114" />
	</node>
	<node id="-776799" lat="69.8202999997" lon="21.9693666174">
		<tag k="bay" v="fjord" />
		<tag k="name" v="Kjøllefjorden" />
		<tag k="natural" v="bay" />
		<tag k="ssr:stedsnr" v="262093" />
	</node>
	<node id="-776767" lat="69.7795111107" lon="21.927591618">
		<tag k="name" v="Bukta - Sisä-Navetan mukka" />
		<tag k="name:fkv" v="Sisä-Navetan mukka" />
		<tag k="name:no" v="Bukta" />
		<tag k="natural" v="bay" />
		<tag k="ssr:stedsnr" v="236843" />
	</node>
	<node id="-776760" lat="70.0158638944" lon="21.9406944081">
		<tag k="name" v="Kopparelvbukt" />
		<tag k="natural" v="bay" />
		<tag k="ssr:stedsnr" v="236686" />
	</node>
	<node id="-776752" lat="69.8002083322" lon="22.0256416095">
		<tag k="name" v="Ytre Storbukt" />
		<tag k="natural" v="bay" />
		<tag k="ssr:stedsnr" v="236524" />
	</node>
	<node id="-776746" lat="70.0178666655" lon="21.5496721774">
		<tag k="name" v="Skageklubben" />
		<tag k="natural" v="cape" />
		<tag k="ssr:stedsnr" v="236408" />
	</node>
	<node id="-776744" lat="70.0261611073" lon="21.6822166389">
		<tag k="name" v="Gaskkasbihttá" />
		<tag k="name:se" v="Gaskkasbihttá" />
		<tag k="natural" v="bay" />
		<tag k="ssr:stedsnr" v="236204" />
	</node>
	<node id="-776741" lat="69.8388750052" lon="21.8671582832">
		<tag k="name" v="Strømsnes" />
		<tag k="natural" v="cape" />
		<tag k="ssr:stedsnr" v="236155" />
	</node>
	<node id="-776740" lat="69.8396333351" lon="21.8768610832">
		<tag k="name" v="Båtneset" />
		<tag k="natural" v="cape" />
		<tag k="ssr:stedsnr" v="236140" />
	</node>
	<node id="-776739" lat="69.8747611159" lon="21.7729555096">
		<tag k="name" v="Ruossmohkki" />
		<tag k="name:se" v="Ruossmohkki" />
		<tag k="natural" v="bay" />
		<tag k="ssr:stedsnr" v="236132" />
	</node>
	<node id="-776738" lat="70.0128000012" lon="21.5864360852">
		<tag k="name" v="Gildenluokta" />
		<tag k="name:se" v="Gildenluokta" />
		<tag k="natural" v="bay" />
		<tag k="ssr:stedsnr" v="236118" />
	</node>
	<node id="-775941" lat="69.9119749993" lon="21.8199332823">
		<tag k="name" v="Kjærringneset" />
		<tag k="natural" v="cape" />
		<tag k="ssr:stedsnr" v="349349" />
	</node>
	<node id="-776731" lat="69.9464416719" lon="21.8970944014">
		<tag k="name" v="Sørbukteidet" />
		<tag k="place" v="locality" />
		<tag k="ssr:stedsnr" v="236605" />
	</node>
	<node id="-776727" lat="70.0138944459" lon="21.5775277439">
		<tag k="name" v="Sandbukta" />
		<tag k="natural" v="bay" />
		<tag k="ssr:stedsnr" v="236069" />
	</node>
	<node id="-776725" lat="69.9434083331" lon="21.868952728">
		<tag k="name" v="Oterbukta" />
		<tag k="natural" v="bay" />
		<tag k="ssr:stedsnr" v="235770" />
	</node>
	<node id="-776723" lat="69.9287611162" lon="21.7344249535">
		<tag k="name" v="Hestevika" />
		<tag k="natural" v="bay" />
		<tag k="ssr:stedsnr" v="235212" />
	</node>
	<node id="-776719" lat="70.0638305574" lon="21.6784333111">
		<tag k="name" v="Innernappen" />
		<tag k="natural" v="cape" />
		<tag k="ssr:stedsnr" v="230884" />
	</node>
	<node id="-776716" lat="70.0725861087" lon="21.8087555059">
		<tag k="name" v="Skarveladdo" />
		<tag k="natural" v="bay" />
		<tag k="ssr:stedsnr" v="230844" />
	</node>
	<node id="-776715" lat="70.0984666707" lon="21.3201277445">
		<tag k="name" v="Avløsninga" />
		<tag k="natural" v="cape" />
		<tag k="ssr:stedsnr" v="230705" />
	</node>
	<node id="-776714" lat="70.097177783" lon="21.4628194153">
		<tag k="name" v="Bismarbukta" />
		<tag k="natural" v="cape" />
		<tag k="ssr:stedsnr" v="230668" />
	</node>
	<node id="-776712" lat="70.0995833331" lon="22.0027221911">
		<tag k="fixme" v="consider seamark:type=rock or natural=shoal" />
		<tag k="name" v="Skalsaskjæret" />
		<tag k="place" v="islet" />
		<tag k="ssr:stedsnr" v="229806" />
	</node>
	<node id="-776708" lat="70.0269138914" lon="21.5405583042">
		<tag k="fixme" v="consider seamark:type=rock or natural=shoal" />
		<tag k="name" v="Skagskjæret" />
		<tag k="place" v="islet" />
		<tag k="ssr:stedsnr" v="229728" />
	</node>
	<node id="-776706" lat="69.7463750018" lon="22.1163805093">
		<tag k="fixme" v="consider seamark:type=rock or natural=shoal" />
		<tag k="name" v="Lensmannskjæret" />
		<tag k="place" v="islet" />
		<tag k="ssr:stedsnr" v="228295" />
	</node>
	<node id="-776704" lat="69.9091472241" lon="21.6114472016">
		<tag k="name" v="Ytre Hjellberggrunnen" />
		<tag k="natural" v="shoal" />
		<tag k="place" v="locality" />
		<tag k="ssr:stedsnr" v="227292" />
	</node>
	<node id="-776703" lat="70.2090527756" lon="21.1895944302">
		<tag k="name" v="Ytter-Seikeila" />
		<tag k="natural" v="bay" />
		<tag k="ssr:stedsnr" v="227227" />
	</node>
	<node id="-776702" lat="70.0194833332" lon="21.380302752">
		<tag k="name" v="Øyrbukta" />
		<tag k="natural" v="bay" />
		<tag k="ssr:stedsnr" v="227101" />
	</node>
	<node id="-776701" lat="69.8440305592" lon="21.8450055108">
		<tag k="alt_name" v="Tømmervikbukta" />
		<tag k="name" v="Tømmerbukta" />
		<tag k="natural" v="bay" />
		<tag k="ssr:stedsnr" v="227094" />
	</node>
	<node id="-776699" lat="69.8485472277" lon="21.9057694002">
		<tag k="name" v="Teistflua" />
		<tag k="place" v="locality" />
		<tag k="seamark:type" v="rock" />
		<tag k="ssr:stedsnr" v="227090" />
	</node>
	<node id="-776698" lat="70.1868944455" lon="21.1232110784">
		<tag k="name" v="Ytter-Tomasen" />
		<tag k="natural" v="shoal" />
		<tag k="place" v="locality" />
		<tag k="ssr:stedsnr" v="211001" />
	</node>
	<node id="-775934" lat="69.9778444495" lon="21.78373051">
		<tag k="name" v="Ryggebåen" />
		<tag k="natural" v="shoal" />
		<tag k="place" v="locality" />
		<tag k="ssr:stedsnr" v="348728" />
	</node>
	<node id="-776687" lat="69.9939666665" lon="21.2233832986">
		<tag k="alt_name" v="Pålsavika" />
		<tag k="name" v="Pålsabukta" />
		<tag k="natural" v="bay" />
		<tag k="ssr:stedsnr" v="201892" />
	</node>
	<node id="-776675" lat="70.0533583367" lon="21.7278944151">
		<tag k="alt_name:no" v="Nevernes;Næverneset" />
		<tag k="name" v="Neverneset - Beašnjárga" />
		<tag k="name:no" v="Neverneset" />
		<tag k="name:se" v="Beašnjárga" />
		<tag k="natural" v="cape" />
		<tag k="old_name:se" v="Bæšnjarga" />
		<tag k="ssr:stedsnr" v="201443" />
	</node>
	<node id="-776662" lat="70.0234333388" lon="21.2980749699">
		<tag k="name" v="Rundholman" />
		<tag k="place" v="islet" />
		<tag k="ssr:stedsnr" v="201328" />
	</node>
	<node id="-775929" lat="70.1853166676" lon="21.1573277615">
		<tag k="name" v="Ytterskallen" />
		<tag k="natural" v="shoal" />
		<tag k="place" v="locality" />
		<tag k="ssr:stedsnr" v="333016" />
	</node>
	<node id="-776660" lat="70.0934138944" lon="21.5055305215">
		<tag k="alt_name" v="Hårnasen" />
		<tag k="name" v="Håvnasen" />
		<tag k="natural" v="cape" />
		<tag k="ssr:stedsnr" v="201311" />
	</node>
	<node id="-776658" lat="70.0968666704" lon="21.5821638623">
		<tag k="bay" v="fjord" />
		<tag k="loc_name:se" v="Boazovuonna" />
		<tag k="name" v="Reinfjorden - Boazovuotna" />
		<tag k="name:no" v="Reinfjorden" />
		<tag k="name:se" v="Boazovuotna" />
		<tag k="natural" v="bay" />
		<tag k="old_name:se" v="Boazuvuodna" />
		<tag k="ssr:stedsnr" v="201301" />
	</node>
	<node id="-776647" lat="69.8713333349" lon="21.9251471744">
		<tag k="name" v="Hjellnes" />
		<tag k="natural" v="cape" />
		<tag k="ssr:stedsnr" v="201166" />
	</node>
	<node id="-776640" lat="69.7981222262" lon="21.9773527494">
		<tag k="fixme" v="multiple name tags, choose one and add the other to alt_name" />
		<tag k="name" v="Store Årøya;Årøya;Årøya, store - Vuorri - Iso Vuori;Vuori" />
		<tag k="name:fkv" v="Iso Vuori;Vuori" />
		<tag k="name:no" v="Store Årøya;Årøya;Årøya, store" />
		<tag k="name:se" v="Vuorri" />
		<tag k="place" v="island" />
		<tag k="ssr:stedsnr" v="201098" />
	</node>
	<node id="-776637" lat="69.8821833346" lon="21.8409916207">
		<tag k="fixme" v="multiple name tags, choose one and add the other to alt_name" />
		<tag k="name" v="Indre Nøkkelneset;Nøkkelneset" />
		<tag k="natural" v="cape" />
		<tag k="ssr:stedsnr" v="201159" />
	</node>
	<node id="-776636" lat="69.8876500039" lon="21.8890416392">
		<tag k="fixme" v="multiple name tags, choose one and add the other to alt_name" />
		<tag k="name" v="Bankenes;Bankenesklubben;Ytre Bankenes" />
		<tag k="natural" v="cape" />
		<tag k="ssr:stedsnr" v="201158" />
	</node>
	<node id="-775923" lat="70.0178916682" lon="22.0296832891">
		<tag k="name" v="Peterbukta - Biehtámohkki" />
		<tag k="name:no" v="Peterbukta" />
		<tag k="name:se" v="Biehtámohkki" />
		<tag k="natural" v="bay" />
		<tag k="old_name:se" v="Biettamåkki" />
		<tag k="ssr:stedsnr" v="323480" />
	</node>
	<node id="-776611" lat="69.9393833391" lon="22.0156860632">
		<tag k="name" v="Sjurbukta" />
		<tag k="natural" v="bay" />
		<tag k="ssr:stedsnr" v="176610" />
	</node>
	<node id="-776600" lat="69.7782638882" lon="21.9297944078">
		<tag k="name" v="Lambukta" />
		<tag k="natural" v="bay" />
		<tag k="ssr:stedsnr" v="175852" />
	</node>
	<node id="-776599" lat="69.7272861107" lon="22.0158249453">
		<tag k="name" v="Brennbukt" />
		<tag k="natural" v="bay" />
		<tag k="ssr:stedsnr" v="175825" />
	</node>
	<node id="-776598" lat="69.7361194477" lon="21.9874777412">
		<tag k="name" v="Paloniemi" />
		<tag k="name:fkv" v="Paloniemi" />
		<tag k="natural" v="cape" />
		<tag k="ssr:stedsnr" v="175806" />
	</node>
	<node id="-776592" lat="70.028097222" lon="22.090111058">
		<tag k="name" v="Nylandet" />
		<tag k="natural" v="cape" />
		<tag k="ssr:stedsnr" v="175579" />
	</node>
	<node id="-776591" lat="69.8431722287" lon="22.0106249475">
		<tag k="name" v="Badderen" />
		<tag k="natural" v="bay" />
		<tag k="ssr:stedsnr" v="175577" />
	</node>
	<node id="-776590" lat="70.0311833316" lon="22.0749499651">
		<tag k="name" v="Bukta" />
		<tag k="natural" v="bay" />
		<tag k="ssr:stedsnr" v="175572" />
	</node>
	<node id="-776583" lat="70.0206694442" lon="21.3305221977">
		<tag k="name" v="Håmannsvika" />
		<tag k="natural" v="bay" />
		<tag k="ssr:stedsnr" v="175367" />
	</node>
	<node id="-776581" lat="70.0096583324" lon="21.8645555113">
		<tag k="fixme" v="consider seamark:type=rock or natural=shoal" />
		<tag k="name" v="Vassnesskjæret" />
		<tag k="place" v="islet" />
		<tag k="ssr:stedsnr" v="175754" />
	</node>
	<node id="-776579" lat="69.9307944434" lon="21.7326944154">
		<tag k="name" v="Skjåbergneset" />
		<tag k="natural" v="cape" />
		<tag k="ssr:stedsnr" v="175189" />
	</node>
	<node id="-776578" lat="69.842858331" lon="21.8484166307">
		<tag k="name" v="Samuelneset" />
		<tag k="natural" v="cape" />
		<tag k="ssr:stedsnr" v="175230" />
	</node>
	<node id="-776571" lat="70.1965444412" lon="21.2239527546">
		<tag k="fixme" v="consider seamark:type=rock or natural=shoal" />
		<tag k="name" v="Bøttneskjæret" />
		<tag k="place" v="islet" />
		<tag k="ssr:stedsnr" v="169928" />
	</node>
	<node id="-776565" lat="70.0982111087" lon="21.9899416275">
		<tag k="name" v="Kabelbukta" />
		<tag k="natural" v="bay" />
		<tag k="ssr:stedsnr" v="169795" />
	</node>
	<node id="-776564" lat="70.1025111104" lon="21.2992610865">
		<tag k="name" v="Indre Måsneset" />
		<tag k="natural" v="cape" />
		<tag k="ssr:stedsnr" v="169694" />
	</node>
	<node id="-776560" lat="70.2043166719" lon="21.2018388607">
		<tag k="name" v="Per-Larsabukta" />
		<tag k="natural" v="bay" />
		<tag k="ssr:stedsnr" v="168765" />
	</node>
	<node id="-776558" lat="69.9648888888" lon="21.8130610855">
		<tag k="name" v="Bankenesklubbgrunnen" />
		<tag k="natural" v="shoal" />
		<tag k="place" v="locality" />
		<tag k="ssr:stedsnr" v="167762" />
	</node>
	<node id="-776557" lat="69.9728055589" lon="21.6812332975">
		<tag k="name" v="Ytre Torskegrunnen" />
		<tag k="natural" v="shoal" />
		<tag k="place" v="locality" />
		<tag k="ssr:stedsnr" v="167336" />
	</node>
	<node id="-776554" lat="69.944019445" lon="21.803758287">
		<tag k="name" v="Skaga" />
		<tag k="natural" v="cape" />
		<tag k="ssr:stedsnr" v="167291" />
	</node>
	<node id="-776553" lat="69.9579583366" lon="21.8607194157">
		<tag k="name" v="Kviteberggrunnen" />
		<tag k="natural" v="shoal" />
		<tag k="place" v="locality" />
		<tag k="ssr:stedsnr" v="167283" />
	</node>
	<node id="-776551" lat="70.0147972227" lon="21.2240194155">
		<tag k="name" v="Skallen" />
		<tag k="natural" v="shoal" />
		<tag k="place" v="locality" />
		<tag k="ssr:stedsnr" v="167014" />
	</node>
	<node id="-776550" lat="69.97531667" lon="21.5221888496">
		<tag k="name" v="Prestlaneset" />
		<tag k="natural" v="cape" />
		<tag k="ssr:stedsnr" v="167006" />
	</node>
	<node id="-776548" lat="70.1458527798" lon="21.4070527501">
		<tag k="name" v="Nersokkodden" />
		<tag k="natural" v="cape" />
		<tag k="ssr:stedsnr" v="166905" />
	</node>
	<node id="-776547" lat="70.1512694404" lon="21.4449222023">
		<tag k="name" v="Gambukta" />
		<tag k="natural" v="bay" />
		<tag k="ssr:stedsnr" v="166904" />
	</node>
	<node id="-776545" lat="70.0626583367" lon="21.9026055227">
		<tag k="name" v="Hjellnesgrunnen" />
		<tag k="natural" v="shoal" />
		<tag k="place" v="locality" />
		<tag k="ssr:stedsnr" v="154864" />
	</node>
	<node id="-776530" lat="70.09176667" lon="21.5583527544">
		<tag k="alt_name" v="Reinfjordnes" />
		<tag k="name" v="Reinfjordneset" />
		<tag k="natural" v="cape" />
		<tag k="ssr:stedsnr" v="140345" />
	</node>
	<node id="-776527" lat="70.1055166684" lon="22.0334110718">
		<tag k="name" v="Málesnjárga" />
		<tag k="name:se" v="Málesnjárga" />
		<tag k="natural" v="cape" />
		<tag k="old_name:se" v="Malesnjarga" />
		<tag k="ssr:stedsnr" v="140313" />
	</node>
	<node id="-776520" lat="69.9996861124" lon="21.7143638612">
		<tag k="alt_name" v="Skjeret" />
		<tag k="fixme" v="consider seamark:type=rock or natural=shoal" />
		<tag k="name" v="Skjæret" />
		<tag k="place" v="islet" />
		<tag k="ssr:stedsnr" v="140224" />
	</node>
	<node id="-776517" lat="69.8797666664" lon="21.7603249632">
		<tag k="name" v="Rakkeneset - Ráhkkonjárga - Rakkuniemi" />
		<tag k="name:fkv" v="Rakkuniemi" />
		<tag k="name:no" v="Rakkeneset" />
		<tag k="name:se" v="Ráhkkonjárga" />
		<tag k="natural" v="cape" />
		<tag k="ssr:stedsnr" v="140167" />
	</node>
	<node id="-776504" lat="69.8477972233" lon="22.0172749554">
		<tag k="name" v="Báttárbahta" />
		<tag k="name:se" v="Báttárbahta" />
		<tag k="natural" v="bay" />
		<tag k="ssr:stedsnr" v="140065" />
	</node>
	<node id="-776503" lat="69.8691611088" lon="21.9408694046">
		<tag k="name" v="Ravelsnes" />
		<tag k="natural" v="cape" />
		<tag k="ssr:stedsnr" v="140066" />
	</node>
	<node id="-776498" lat="69.7691666676" lon="22.0723888504">
		<tag k="name" v="Rekbukta" />
		<tag k="natural" v="bay" />
		<tag k="ssr:stedsnr" v="140005" />
	</node>
	<node id="-775777" lat="70.0535666659" lon="21.8104305241">
		<tag k="name" v="Seigrunnen" />
		<tag k="natural" v="shoal" />
		<tag k="place" v="locality" />
		<tag k="ssr:stedsnr" v="289778" />
	</node>
	<node id="-776494" lat="69.9268166679" lon="21.7903332841">
		<tag k="alt_name" v="Ytterbukt" />
		<tag k="name" v="Ytterbukta" />
		<tag k="natural" v="bay" />
		<tag k="ssr:stedsnr" v="140134" />
	</node>
	<node id="-776493" lat="69.9313722237" lon="21.648041635">
		<tag k="alt_name" v="Moldvika" />
		<tag k="name" v="Molvika" />
		<tag k="natural" v="bay" />
		<tag k="ssr:stedsnr" v="140131" />
	</node>
	<node id="-776481" lat="69.7463638932" lon="22.1164055124">
		<tag k="fixme" v="consider seamark:type=rock or natural=shoal" />
		<tag k="name" v="Lensmannsskjæret" />
		<tag k="place" v="islet" />
		<tag k="ssr:stedsnr" v="115708" />
	</node>
	<node id="-776479" lat="69.7399611114" lon="22.0462971885">
		<tag k="alt_name:fkv" v="Baurakkanjemi" />
		<tag k="name" v="Villreinneset - Peurakkaniemi" />
		<tag k="name:fkv" v="Peurakkaniemi" />
		<tag k="name:no" v="Villreinneset" />
		<tag k="natural" v="cape" />
		<tag k="ssr:stedsnr" v="115704" />
	</node>
	<node id="-776459" lat="69.9026666677" lon="21.8886249657">
		<tag k="name" v="Moldfarvika - Gáiskeluokta" />
		<tag k="name:no" v="Moldfarvika" />
		<tag k="name:se" v="Gáiskeluokta" />
		<tag k="natural" v="bay" />
		<tag k="ssr:stedsnr" v="115544" />
	</node>
	<node id="-776455" lat="69.8427111134" lon="21.8911638362">
		<tag k="name" v="Strømbukt" />
		<tag k="natural" v="bay" />
		<tag k="ssr:stedsnr" v="115523" />
	</node>
	<node id="-776445" lat="69.8307638885" lon="21.8697888602">
		<tag k="name" v="Kabelneset" />
		<tag k="natural" v="cape" />
		<tag k="ssr:stedsnr" v="115172" />
	</node>
	<node id="-776443" lat="69.9931944439" lon="21.6800666205">
		<tag k="name" v="Nesodden" />
		<tag k="natural" v="cape" />
		<tag k="ssr:stedsnr" v="115126" />
	</node>
	<node id="-776442" lat="70.0344111114" lon="21.5728222">
		<tag k="name" v="Skjåvikholmen" />
		<tag k="place" v="islet" />
		<tag k="ssr:stedsnr" v="115106" />
	</node>
	<node id="-776437" lat="69.9532638889" lon="21.55502496">
		<tag k="name" v="Molla" />
		<tag k="natural" v="bay" />
		<tag k="ssr:stedsnr" v="115025" />
	</node>
	<node id="-776432" lat="70.0495499979" lon="21.8339638414">
		<tag k="name" v="Sauneset" />
		<tag k="natural" v="cape" />
		<tag k="ssr:stedsnr" v="114792" />
	</node>
	<node id="-775938" lat="70.2074194479" lon="21.1883999774">
		<tag k="name" v="Inste Seikeila" />
		<tag k="natural" v="bay" />
		<tag k="ssr:stedsnr" v="349230" />
	</node>
	<node id="-776425" lat="69.84419445" lon="21.8406971819">
		<tag k="name" v="Tømmerbuktneset" />
		<tag k="natural" v="cape" />
		<tag k="ssr:stedsnr" v="114234" />
	</node>
	<node id="-776424" lat="69.9286277824" lon="21.6510249789">
		<tag k="name" v="Moldvikeidet" />
		<tag k="place" v="locality" />
		<tag k="ssr:stedsnr" v="114094" />
	</node>
	<node id="-776423" lat="70.0929527782" lon="21.5602527544">
		<tag k="name" v="Neset" />
		<tag k="natural" v="cape" />
		<tag k="ssr:stedsnr" v="109880" />
	</node>
	<node id="-776421" lat="70.0854055604" lon="21.8195666222">
		<tag k="name" v="Lillenappen" />
		<tag k="natural" v="cape" />
		<tag k="ssr:stedsnr" v="109838" />
	</node>
	<node id="-776419" lat="70.1576277784" lon="21.3603499779">
		<tag k="name" v="Grunnørlandet" />
		<tag k="natural" v="beach" />
		<tag k="place" v="locality" />
		<tag k="ssr:stedsnr" v="108922" />
	</node>
	<node id="-776414" lat="70.1269694447" lon="22.0652860665">
		<tag k="fixme" v="consider seamark:type=rock or natural=shoal" />
		<tag k="name" v="Revet" />
		<tag k="place" v="islet" />
		<tag k="ssr:stedsnr" v="108786" />
	</node>
	<node id="-776412" lat="70.2054111163" lon="21.2180694212">
		<tag k="name" v="Hamna" />
		<tag k="natural" v="bay" />
		<tag k="ssr:stedsnr" v="108758" />
	</node>
	<node id="-776411" lat="70.2075388869" lon="21.2081944069">
		<tag k="name" v="Ol-Larsabukta" />
		<tag k="natural" v="bay" />
		<tag k="ssr:stedsnr" v="108757" />
	</node>
	<node id="-776408" lat="70.0908083347" lon="22.0192443975">
		<tag k="name" v="Gurramohkki" />
		<tag k="name:se" v="Gurramohkki" />
		<tag k="natural" v="bay" />
		<tag k="ssr:stedsnr" v="108371" />
	</node>
	<node id="-776407" lat="69.9424222257" lon="21.8016582948">
		<tag k="fixme" v="consider seamark:type=rock or natural=shoal" />
		<tag k="name" v="Skagskjæret" />
		<tag k="place" v="islet" />
		<tag k="ssr:stedsnr" v="107275" />
	</node>
	<node id="-776406" lat="69.938622226" lon="21.7973082862">
		<tag k="fixme" v="consider seamark:type=rock or natural=shoal" />
		<tag k="name" v="Seibåen" />
		<tag k="place" v="islet" />
		<tag k="ssr:stedsnr" v="107274" />
	</node>
	<node id="-776404" lat="70.02245556" lon="22.067913837">
		<tag k="name" v="Stranda" />
		<tag k="natural" v="beach" />
		<tag k="place" v="locality" />
		<tag k="ssr:stedsnr" v="106728" />
	</node>
	<node id="-776403" lat="69.9576000037" lon="21.7058388583">
		<tag k="name" v="Nyklakken" />
		<tag k="natural" v="shoal" />
		<tag k="place" v="locality" />
		<tag k="ssr:stedsnr" v="106323" />
	</node>
	<node id="-776402" lat="69.9632638922" lon="21.7330999542">
		<tag k="name" v="Kjerringholmgrunnen" />
		<tag k="natural" v="shoal" />
		<tag k="place" v="locality" />
		<tag k="ssr:stedsnr" v="106321" />
	</node>
	<node id="-776401" lat="69.9093444413" lon="21.761944418">
		<tag k="name" v="Nesskallen" />
		<tag k="natural" v="shoal" />
		<tag k="place" v="locality" />
		<tag k="ssr:stedsnr" v="106299" />
	</node>
	<node id="-776400" lat="69.9790388918" lon="21.2138971879">
		<tag k="alt_name" v="Ytter-Avløysinga" />
		<tag k="name" v="Ytre Avløysinga" />
		<tag k="natural" v="cape" />
		<tag k="ssr:stedsnr" v="106014" />
	</node>
	<node id="-776399" lat="70.0118972234" lon="21.28257776">
		<tag k="alt_name" v="Lilleøyra" />
		<tag k="name" v="Lilleøra" />
		<tag k="natural" v="shoal" />
		<tag k="place" v="locality" />
		<tag k="ssr:stedsnr" v="106003" />
	</node>
	<node id="-776397" lat="70.1582277755" lon="21.1832277492">
		<tag k="name" v="Neidevarskallen - Nieidavárskálli" />
		<tag k="name:no" v="Neidevarskallen" />
		<tag k="name:se" v="Nieidavárskálli" />
		<tag k="natural" v="shoal" />
		<tag k="place" v="locality" />
		<tag k="ssr:stedsnr" v="90661" />
	</node>
	<node id="-776396" lat="70.1807527741" lon="21.1661722048">
		<tag k="name" v="Sørskallen" />
		<tag k="natural" v="shoal" />
		<tag k="place" v="locality" />
		<tag k="ssr:stedsnr" v="90003" />
	</node>
	<node id="-776392" lat="69.91615" lon="21.7322610683">
		<tag k="name" v="Neset" />
		<tag k="natural" v="cape" />
		<tag k="ssr:stedsnr" v="80496" />
	</node>
	<node id="-776384" lat="70.0793750032" lon="21.8186027374">
		<tag k="alt_name" v="Nappen, in" />
		<tag k="fixme" v="multiple name tags, choose one and add the other to alt_name" />
		<tag k="name" v="Stornappen;Indre Nappen" />
		<tag k="natural" v="cape" />
		<tag k="ssr:stedsnr" v="80441" />
	</node>
	<node id="-776378" lat="70.0126138942" lon="21.4383249705">
		<tag k="name" v="Reinnes - Boazonjárga" />
		<tag k="name:no" v="Reinnes" />
		<tag k="name:se" v="Boazonjárga" />
		<tag k="natural" v="cape" />
		<tag k="old_name:se" v="Boazunjarga" />
		<tag k="ssr:stedsnr" v="80354" />
	</node>
	<node id="-776377" lat="69.743500001" lon="22.0358444023">
		<tag k="alt_name:no" v="Toppelbukta" />
		<tag k="name" v="Toppelbukt - Duoppalmohkki" />
		<tag k="name:no" v="Toppelbukt" />
		<tag k="name:se" v="Duoppalmohkki" />
		<tag k="natural" v="bay" />
		<tag k="ssr:stedsnr" v="80312" />
	</node>
	<node id="-776374" lat="70.1263166711" lon="22.0711832845">
		<tag k="name" v="Gullgruva - Reašši" />
		<tag k="name:no" v="Gullgruva" />
		<tag k="name:se" v="Reašši" />
		<tag k="natural" v="beach" />
		<tag k="old_name:se" v="Ræšši" />
		<tag k="place" v="locality" />
		<tag k="ssr:stedsnr" v="80298" />
	</node>
	<node id="-776355" lat="69.7650500006" lon="22.0457777432">
		<tag k="name" v="Skjerbukta" />
		<tag k="natural" v="bay" />
		<tag k="ssr:stedsnr" v="80003" />
	</node>
	<node id="-776346" lat="69.9466611156" lon="21.8892249538">
		<tag k="alt_name:no" v="Dingabukta" />
		<tag k="name" v="Dingalbukta - Diŋggaluokta" />
		<tag k="name:no" v="Dingalbukta" />
		<tag k="name:se" v="Diŋggaluokta" />
		<tag k="natural" v="bay" />
		<tag k="ssr:stedsnr" v="80148" />
	</node>
	<node id="-775776" lat="69.9181222277" lon="21.8382055146">
		<tag k="name" v="Linngrunnen" />
		<tag k="natural" v="shoal" />
		<tag k="place" v="locality" />
		<tag k="ssr:stedsnr" v="289267" />
	</node>
	<node id="-776339" lat="69.773636116" lon="21.9482527287">
		<tag k="name" v="Hansbukta" />
		<tag k="natural" v="bay" />
		<tag k="ssr:stedsnr" v="54944" />
	</node>
	<node id="-776337" lat="69.7918444464" lon="21.9410027386">
		<tag k="bay" v="fjord" />
		<tag k="name" v="Navitfjorden - Navetanvuono" />
		<tag k="name:fkv" v="Navetanvuono" />
		<tag k="name:no" v="Navitfjorden" />
		<tag k="natural" v="bay" />
		<tag k="ssr:stedsnr" v="54851" />
	</node>
	<node id="-776332" lat="69.7432555581" lon="22.1314860526">
		<tag k="fixme" v="consider seamark:type=rock or natural=shoal" />
		<tag k="name" v="Nordbotnskjæret" />
		<tag k="place" v="islet" />
		<tag k="ssr:stedsnr" v="54732" />
	</node>
	<node id="-776322" lat="69.9475500048" lon="21.9796221892">
		<tag k="name" v="Kalvenes" />
		<tag k="natural" v="cape" />
		<tag k="ssr:stedsnr" v="54645" />
	</node>
	<node id="-776316" lat="69.9049749989" lon="21.8858527466">
		<tag k="name" v="Fjellbukta" />
		<tag k="natural" v="bay" />
		<tag k="ssr:stedsnr" v="54585" />
	</node>
	<node id="-776306" lat="69.7265750017" lon="22.058902739">
		<tag k="name" v="Sildneset" />
		<tag k="natural" v="cape" />
		<tag k="ssr:stedsnr" v="54654" />
	</node>
	<node id="-776303" lat="69.9215861077" lon="21.7805805202">
		<tag k="name" v="Ytre Nøkland" />
		<tag k="natural" v="bay" />
		<tag k="ssr:stedsnr" v="54250" />
	</node>
	<node id="-776302" lat="69.8966944415" lon="21.8176916267">
		<tag k="name" v="Blomsterbukta - Guhkkáluokta" />
		<tag k="name:no" v="Blomsterbukta" />
		<tag k="name:se" v="Guhkkáluokta" />
		<tag k="natural" v="bay" />
		<tag k="ssr:stedsnr" v="54237" />
	</node>
	<node id="-776296" lat="70.001969446" lon="21.7152805115">
		<tag k="name" v="Innersida" />
		<tag k="natural" v="bay" />
		<tag k="ssr:stedsnr" v="54190" />
	</node>
	<node id="-776103" lat="70.065949999" lon="21.6702777373">
		<tag k="name" v="Ytternappen" />
		<tag k="natural" v="cape" />
		<tag k="ssr:stedsnr" v="412867" />
	</node>
	<node id="-776293" lat="69.93478333" lon="21.6525749715">
		<tag k="name" v="Steinnes" />
		<tag k="natural" v="cape" />
		<tag k="ssr:stedsnr" v="54019" />
	</node>
	<node id="-776292" lat="70.0406833348" lon="21.7876694111">
		<tag k="fixme" v="consider seamark:type=rock or natural=shoal" />
		<tag k="name" v="Ytterskjæret" />
		<tag k="place" v="islet" />
		<tag k="ssr:stedsnr" v="53790" />
	</node>
	<node id="-776288" lat="70.0178888879" lon="21.5538555324">
		<tag k="name" v="Rottenbukta" />
		<tag k="natural" v="bay" />
		<tag k="ssr:stedsnr" v="54067" />
	</node>
	<node id="-776279" lat="70.103958333" lon="21.2984916351">
		<tag k="name" v="Ytre Måsneset" />
		<tag k="natural" v="cape" />
		<tag k="ssr:stedsnr" v="48669" />
	</node>
	<node id="-776272" lat="69.9282388944" lon="21.8418749593">
		<tag k="name" v="Sortvikgrunnen" />
		<tag k="natural" v="shoal" />
		<tag k="place" v="locality" />
		<tag k="ssr:stedsnr" v="46282" />
	</node>
	<node id="-776269" lat="69.9798638885" lon="21.6452138412">
		<tag k="name" v="Trehaugan" />
		<tag k="natural" v="shoal" />
		<tag k="place" v="locality" />
		<tag k="ssr:stedsnr" v="45736" />
	</node>
	<node id="-776268" lat="69.9571944445" lon="22.0340166297">
		<tag k="name" v="Gråneset" />
		<tag k="natural" v="cape" />
		<tag k="ssr:stedsnr" v="45721" />
	</node>
	<node id="-776267" lat="70.2105166707" lon="21.1884805248">
		<tag k="fixme" v="consider seamark:type=rock or natural=shoal" />
		<tag k="name" v="Fredriksflua" />
		<tag k="place" v="islet" />
		<tag k="ssr:stedsnr" v="45219" />
	</node>
	<node id="-776266" lat="70.2174833359" lon="21.1880249753">
		<tag k="name" v="Roaldsvikneset" />
		<tag k="natural" v="cape" />
		<tag k="ssr:stedsnr" v="45199" />
	</node>
	<node id="-776265" lat="70.020147221" lon="21.3247527569">
		<tag k="name" v="Sauvikneset" />
		<tag k="natural" v="cape" />
		<tag k="ssr:stedsnr" v="45095" />
	</node>
	<node id="-776264" lat="70.1732083385" lon="21.4606916398">
		<tag k="name" v="Revneset" />
		<tag k="natural" v="cape" />
		<tag k="ssr:stedsnr" v="44955" />
	</node>
	<node id="-776258" lat="70.0226027751" lon="21.6980749705">
		<tag k="name" v="Ravelsnes" />
		<tag k="natural" v="cape" />
		<tag k="ssr:stedsnr" v="20504" />
	</node>
	<node id="-776253" lat="70.0026055573" lon="21.7108999576">
		<tag k="name" v="Fjellnes - Fiellanjárga" />
		<tag k="name:no" v="Fjellnes" />
		<tag k="name:se" v="Fiellanjárga" />
		<tag k="natural" v="cape" />
		<tag k="old_name:se" v="Fiellanjarga" />
		<tag k="ssr:stedsnr" v="19482" />
	</node>
	<node id="-776245" lat="70.0113222211" lon="21.8724388378">
		<tag k="fixme" v="multiple name tags, choose one and add the other to alt_name" />
		<tag k="name" v="Vassnesbukta;Vassnesbukta, yt;Ytre Vassnesbukta - Ceiccan" />
		<tag k="name:no" v="Vassnesbukta;Vassnesbukta, yt;Ytre Vassnesbukta" />
		<tag k="name:se" v="Ceiccan" />
		<tag k="natural" v="bay" />
		<tag k="old_name:se" v="Ceican" />
		<tag k="ssr:stedsnr" v="19459" />
	</node>
	<node id="-776234" lat="69.9257555517" lon="21.8030583054">
		<tag k="fixme" v="multiple name tags, choose one and add the other to alt_name" />
		<tag k="name" v="Neset;Ytre Nøkkelneset" />
		<tag k="natural" v="cape" />
		<tag k="ssr:stedsnr" v="19432" />
	</node>
	<node id="-776228" lat="69.7291222271" lon="22.0479916334">
		<tag k="alt_name:no" v="Gaddelvågen" />
		<tag k="loc_name:se" v="Gárdelvuonna" />
		<tag k="name" v="Gardelvågen - Gárdelvuotna" />
		<tag k="name:no" v="Gardelvågen" />
		<tag k="name:se" v="Gárdelvuotna" />
		<tag k="natural" v="bay" />
		<tag k="ssr:stedsnr" v="19269" />
	</node>
	<node id="-776218" lat="69.9438972271" lon="21.6761388596">
		<tag k="alt_name" v="Avløysinga;Avløsningsneset" />
		<tag k="name" v="Avløysingsodden" />
		<tag k="natural" v="cape" />
		<tag k="ssr:stedsnr" v="19137" />
	</node>
	<node id="-776216" lat="69.9372416644" lon="22.0426832832">
		<tag k="alt_name" v="Omsnes" />
		<tag k="name" v="Omnsnes" />
		<tag k="natural" v="cape" />
		<tag k="ssr:stedsnr" v="19127" />
	</node>
	<node id="-776215" lat="69.9497999988" lon="22.003538832">
		<tag k="alt_name" v="Buktenes" />
		<tag k="name" v="Bukteneset" />
		<tag k="natural" v="cape" />
		<tag k="ssr:stedsnr" v="19122" />
	</node>
	<node id="-776204" lat="69.7757638899" lon="22.0813610697">
		<tag k="name" v="Geahkkánluokta - Kätkäsenmukka" />
		<tag k="name:fkv" v="Kätkäsenmukka" />
		<tag k="name:se" v="Geahkkánluokta" />
		<tag k="natural" v="bay" />
		<tag k="ssr:stedsnr" v="19007" />
	</node>
</osm>
