<?xml version="1.0" encoding="UTF-8"?>
<osm generator="osmapis" version="0.6">
	<node id="-578688" lat="62.5229722204" lon="6.18484722724">
		<tag k="name" v="Kalvøysundet" />
		<tag k="ssr:date" v="2016-05-11" />
		<tag k="ssr:gruppe" v="navigasjon" />
		<tag k="ssr:hovedgruppe" v="infrastruktur" />
		<tag k="ssr:stedsnr" v="922731" />
		<tag k="ssr:type" v="fyrlykt" />
	</node>
	<node id="-577151" lat="62.5455138913" lon="6.25058055467">
		<tag k="name" v="Håstein" />
		<tag k="old_name" v="Håsteinen" />
		<tag k="ssr:date" v="2016-05-10" />
		<tag k="ssr:gruppe" v="navigasjon" />
		<tag k="ssr:hovedgruppe" v="infrastruktur" />
		<tag k="ssr:stedsnr" v="133235" />
		<tag k="ssr:type" v="fyrlykt" />
	</node>
	<node id="-578046" lat="62.6550249963" lon="6.17177223071">
		<tag k="name" v="Haramsneset" />
		<tag k="old_name" v="Haramsnes lykt" />
		<tag k="ssr:date" v="2016-05-10" />
		<tag k="ssr:gruppe" v="navigasjon" />
		<tag k="ssr:hovedgruppe" v="infrastruktur" />
		<tag k="ssr:stedsnr" v="638476" />
		<tag k="ssr:type" v="fyrlykt" />
	</node>
	<node id="-577021" lat="62.5895833312" lon="6.24468610167">
		<tag k="name" v="Søre Kverna" />
		<tag k="old_name" v="Lepsøyrev fyr" />
		<tag k="ssr:date" v="2016-05-10" />
		<tag k="ssr:gruppe" v="navigasjon" />
		<tag k="ssr:hovedgruppe" v="infrastruktur" />
		<tag k="ssr:stedsnr" v="85422" />
		<tag k="ssr:type" v="fyrlykt" />
	</node>
	<node id="-577528" lat="62.6130416676" lon="6.33365832838">
		<tag k="name" v="Haugnes" />
		<tag k="old_name" v="Haugneset" />
		<tag k="ssr:date" v="2016-05-10" />
		<tag k="ssr:gruppe" v="navigasjon" />
		<tag k="ssr:hovedgruppe" v="infrastruktur" />
		<tag k="ssr:stedsnr" v="437493" />
		<tag k="ssr:type" v="fyrlykt" />
	</node>
	<node id="-577526" lat="62.682991664" lon="6.19530555759">
		<tag k="name" v="Naustskjæret" />
		<tag k="ssr:date" v="2016-05-10" />
		<tag k="ssr:gruppe" v="navigasjon" />
		<tag k="ssr:hovedgruppe" v="infrastruktur" />
		<tag k="ssr:stedsnr" v="417689" />
		<tag k="ssr:type" v="fyrlykt" />
	</node>
	<node id="-578804" lat="60.8816104596" lon="6.30047518531">
		<tag k="name" v="Vestlandet" />
		<tag k="ssr:date" v="2019-01-06" />
		<tag k="ssr:gruppe" v="administrativeIndelinger" />
		<tag k="ssr:hovedgruppe" v="offentligAdministrasjon" />
		<tag k="ssr:stedsnr" v="974777" />
		<tag k="ssr:type" v="annenAdministrativInndeling" />
	</node>
	<node id="-576619" lat="62.5989777818" lon="6.44484167157">
		<tag k="name" v="Haram kommune" />
		<tag k="ssr:date" v="2016-05-10" />
		<tag k="ssr:gruppe" v="administrativeIndelinger" />
		<tag k="ssr:hovedgruppe" v="offentligAdministrasjon" />
		<tag k="ssr:stedsnr" v="389912" />
		<tag k="ssr:type" v="kommune" />
	</node>
	<node id="-578793" lat="62.6134444414" lon="6.13403887968">
		<tag k="name" v="Ravnen" />
		<tag k="ssr:date" v="2016-05-11" />
		<tag k="ssr:gruppe" v="navigasjon" />
		<tag k="ssr:hovedgruppe" v="infrastruktur" />
		<tag k="ssr:stedsnr" v="951846" />
		<tag k="ssr:type" v="lanterne" />
	</node>
	<node id="-577104" lat="62.6071361141" lon="6.11692777511">
		<tag k="name" v="Flatskjeret" />
		<tag k="ssr:date" v="2016-05-10" />
		<tag k="ssr:gruppe" v="navigasjon" />
		<tag k="ssr:hovedgruppe" v="infrastruktur" />
		<tag k="ssr:stedsnr" v="101859" />
		<tag k="ssr:type" v="lanterne" />
	</node>
	<node id="-578398" lat="62.5489694462" lon="6.51793889261">
		<tag k="name" v="Svingane" />
		<tag k="ssr:date" v="2016-05-11" />
		<tag k="ssr:gruppe" v="veg" />
		<tag k="ssr:hovedgruppe" v="infrastruktur" />
		<tag k="ssr:stedsnr" v="762513" />
		<tag k="ssr:type" v="vegstrekning" />
	</node>
	<node id="-577117" lat="62.5253861085" lon="6.37464721928">
		<tag k="name" v="Kjepinen" />
		<tag k="ssr:date" v="2016-05-10" />
		<tag k="ssr:gruppe" v="navigasjon" />
		<tag k="ssr:hovedgruppe" v="infrastruktur" />
		<tag k="ssr:stedsnr" v="132153" />
		<tag k="ssr:type" v="fyrlykt" />
	</node>
	<node id="-577496" lat="62.6850888917" lon="6.16518055773">
		<tag k="name" v="Ulla" />
		<tag k="ssr:date" v="2016-05-10" />
		<tag k="ssr:gruppe" v="navigasjon" />
		<tag k="ssr:hovedgruppe" v="infrastruktur" />
		<tag k="ssr:stedsnr" v="254719" />
		<tag k="ssr:type" v="fyrlykt" />
	</node>
	<node id="-577360" lat="62.6938861117" lon="6.25003611163">
		<tag k="name" v="Kjeholmen" />
		<tag k="ssr:date" v="2016-05-10" />
		<tag k="ssr:gruppe" v="navigasjon" />
		<tag k="ssr:hovedgruppe" v="infrastruktur" />
		<tag k="ssr:stedsnr" v="194913" />
		<tag k="ssr:type" v="fyrlykt" />
	</node>
	<node id="-578115" lat="62.6451472226" lon="6.14216111313">
		<tag k="name" v="Isaksfallet" />
		<tag k="ssr:date" v="2016-05-10" />
		<tag k="ssr:gruppe" v="navigasjon" />
		<tag k="ssr:hovedgruppe" v="infrastruktur" />
		<tag k="ssr:stedsnr" v="647850" />
		<tag k="ssr:type" v="lysbøye" />
	</node>
	<node id="-576833" lat="62.5894527763" lon="6.26328332744">
		<tag k="name" v="Lepsøyrevet" />
		<tag k="old_name" v="Løvsøyrev" />
		<tag k="ssr:date" v="2016-05-10" />
		<tag k="ssr:gruppe" v="navigasjon" />
		<tag k="ssr:hovedgruppe" v="infrastruktur" />
		<tag k="ssr:stedsnr" v="11393" />
		<tag k="ssr:type" v="fyrlykt" />
	</node>
	<node id="-576822" lat="62.6261960701" lon="6.60583398927">
		<tag k="name" v="Tennøya" />
		<tag k="ssr:date" v="2019-05-30" />
		<tag k="ssr:gruppe" v="veg" />
		<tag k="ssr:hovedgruppe" v="infrastruktur" />
		<tag k="ssr:stedsnr" v="994558" />
		<tag k="ssr:type" v="adressenavn" />
	</node>
	<node id="-578467" lat="62.6372916683" lon="6.17158611938">
		<tag k="alt_name" v="Hellevik lykt" />
		<tag k="name" v="Hellevik" />
		<tag k="old_name" v="Hellevika fyr" />
		<tag k="ssr:date" v="2016-05-11" />
		<tag k="ssr:gruppe" v="navigasjon" />
		<tag k="ssr:hovedgruppe" v="infrastruktur" />
		<tag k="ssr:stedsnr" v="801693" />
		<tag k="ssr:type" v="fyrlykt" />
	</node>
	<node id="-578466" lat="62.6274583329" lon="6.11754721641">
		<tag k="name" v="Innholmen" />
		<tag k="ssr:date" v="2016-05-11" />
		<tag k="ssr:gruppe" v="navigasjon" />
		<tag k="ssr:hovedgruppe" v="infrastruktur" />
		<tag k="ssr:stedsnr" v="801692" />
		<tag k="ssr:type" v="fyrlykt" />
	</node>
	<node id="-578463" lat="62.6107328275" lon="6.44971106539">
		<tag k="name" v="Boltholmen" />
		<tag k="ssr:date" v="2019-03-12" />
		<tag k="ssr:gruppe" v="navigasjon" />
		<tag k="ssr:hovedgruppe" v="infrastruktur" />
		<tag k="ssr:stedsnr" v="801451" />
		<tag k="ssr:type" v="fyrlykt" />
	</node>
	<node id="-576924" lat="62.5528361088" lon="6.48460832695">
		<tag k="name" v="Remmefjellvegen" />
		<tag k="ssr:date" v="2016-05-10" />
		<tag k="ssr:gruppe" v="veg" />
		<tag k="ssr:hovedgruppe" v="infrastruktur" />
		<tag k="ssr:stedsnr" v="34343" />
		<tag k="ssr:type" v="vegstrekning" />
	</node>
	<node id="-577690" lat="62.6373166639" lon="6.39922499255">
		<tag k="alt_name" v="Raudholmen" />
		<tag k="name" v="Raudholmane" />
		<tag k="ssr:date" v="2016-05-10" />
		<tag k="ssr:gruppe" v="navigasjon" />
		<tag k="ssr:hovedgruppe" v="infrastruktur" />
		<tag k="ssr:stedsnr" v="497449" />
		<tag k="ssr:type" v="fyrlykt" />
	</node>
	<node id="-577178" lat="62.7405888925" lon="6.32577776865">
		<tag k="name" v="Brunklegg" />
		<tag k="old_name" v="Brunkleggen" />
		<tag k="ssr:date" v="2016-05-10" />
		<tag k="ssr:gruppe" v="navigasjon" />
		<tag k="ssr:hovedgruppe" v="infrastruktur" />
		<tag k="ssr:stedsnr" v="133851" />
		<tag k="ssr:type" v="fyrlykt" />
	</node>
	<node id="-578444" lat="62.7127027764" lon="6.42470278142">
		<tag k="name" v="Østre Vågholmen" />
		<tag k="ssr:date" v="2016-05-11" />
		<tag k="ssr:gruppe" v="navigasjon" />
		<tag k="ssr:hovedgruppe" v="infrastruktur" />
		<tag k="ssr:stedsnr" v="800788" />
		<tag k="ssr:type" v="fyrlykt" />
	</node>
	<node id="-578059" lat="62.704608337" lon="6.31779721989">
		<tag k="name" v="Fjørtoftneset" />
		<tag k="old_name" v="Fjørtoftenes lykt" />
		<tag k="ssr:date" v="2016-05-10" />
		<tag k="ssr:gruppe" v="navigasjon" />
		<tag k="ssr:hovedgruppe" v="infrastruktur" />
		<tag k="ssr:stedsnr" v="638949" />
		<tag k="ssr:type" v="fyrlykt" />
	</node>
	<node id="-577282" lat="62.7107638871" lon="6.42330555716">
		<tag k="name" v="Vågholmene molo" />
		<tag k="ssr:date" v="2016-05-10" />
		<tag k="ssr:gruppe" v="navigasjon" />
		<tag k="ssr:hovedgruppe" v="infrastruktur" />
		<tag k="ssr:stedsnr" v="162833" />
		<tag k="ssr:type" v="lanterne" />
	</node>
</osm>
