<?xml version="1.0" encoding="UTF-8"?>
<osm version="0.6" generator="osmapis">
	<node lat="62.111578716872835" lon="10.146864815290781" id="-40368">
		<tag k="name" v="Døltjønnsætervegen" />
		<tag k="ssr:date" v="2019-12-27" />
		<tag k="ssr:gruppe" v="veg" />
		<tag k="ssr:hovedgruppe" v="infrastruktur" />
		<tag k="ssr:stedsnr" v="57106" />
		<tag k="ssr:type" v="adressenavn" />
	</node>
	<node lat="61.88546166807095" lon="10.009923701594532" id="-40502">
		<tag k="name" v="Bjørnhollivegen" />
		<tag k="ssr:date" v="2019-12-27" />
		<tag k="ssr:gruppe" v="veg" />
		<tag k="ssr:hovedgruppe" v="infrastruktur" />
		<tag k="ssr:stedsnr" v="173566" />
		<tag k="ssr:type" v="adressenavn" />
	</node>
	<node lat="62.16733895565715" lon="10.189783636551889" id="-40551">
		<tag k="name" v="Gammelsætervegen" />
		<tag k="ssr:date" v="2019-12-27" />
		<tag k="ssr:gruppe" v="veg" />
		<tag k="ssr:hovedgruppe" v="infrastruktur" />
		<tag k="ssr:stedsnr" v="239094" />
		<tag k="ssr:type" v="adressenavn" />
	</node>
	<node lat="62.187510914455196" lon="9.681694427898137" id="-40596">
		<tag k="name" v="Slåsætervegen" />
		<tag k="ssr:date" v="2019-12-27" />
		<tag k="ssr:gruppe" v="veg" />
		<tag k="ssr:hovedgruppe" v="infrastruktur" />
		<tag k="ssr:stedsnr" v="299978" />
		<tag k="ssr:type" v="adressenavn" />
	</node>
	<node lat="62.06932814352761" lon="9.980705205250597" id="-40675">
		<tag k="name" v="Sætersvegen" />
		<tag k="ssr:date" v="2019-12-27" />
		<tag k="ssr:gruppe" v="veg" />
		<tag k="ssr:hovedgruppe" v="infrastruktur" />
		<tag k="ssr:stedsnr" v="481127" />
		<tag k="ssr:type" v="adressenavn" />
	</node>
	<node lat="62.00767444698939" lon="9.841166445612227" id="-40736">
		<tag k="name" v="Dørålsvegen" />
		<tag k="ssr:date" v="2019-12-27" />
		<tag k="ssr:gruppe" v="veg" />
		<tag k="ssr:hovedgruppe" v="infrastruktur" />
		<tag k="ssr:stedsnr" v="422754" />
		<tag k="ssr:type" v="adressenavn" />
	</node>
	<node lat="62.289750001030676" lon="10.329516662694177" id="-40846">
		<tag k="name" v="Marsjølivegen" />
		<tag k="ssr:date" v="2019-12-27" />
		<tag k="ssr:gruppe" v="veg" />
		<tag k="ssr:hovedgruppe" v="infrastruktur" />
		<tag k="ssr:stedsnr" v="538126" />
		<tag k="ssr:type" v="vegstrekning" />
	</node>
	<node lat="62.20034945312337" lon="10.283379996617057" id="-40853">
		<tag k="name" v="Einunndalsvegen" />
		<tag k="ssr:date" v="2019-12-27" />
		<tag k="ssr:gruppe" v="veg" />
		<tag k="ssr:hovedgruppe" v="infrastruktur" />
		<tag k="ssr:stedsnr" v="542170" />
		<tag k="ssr:type" v="adressenavn" />
	</node>
	<node lat="62.318209275517084" lon="10.053725698349947" id="-40868">
		<tag k="name" v="Marsjøvegen" />
		<tag k="ssr:date" v="2019-12-27" />
		<tag k="ssr:gruppe" v="veg" />
		<tag k="ssr:hovedgruppe" v="infrastruktur" />
		<tag k="ssr:stedsnr" v="543624" />
		<tag k="ssr:type" v="adressenavn" />
	</node>
	<node lat="62.11262598079339" lon="9.904559373521456" id="-40873">
		<tag k="name" v="Nygruvvegen" />
		<tag k="ssr:date" v="2019-12-27" />
		<tag k="ssr:gruppe" v="veg" />
		<tag k="ssr:hovedgruppe" v="infrastruktur" />
		<tag k="ssr:stedsnr" v="543519" />
		<tag k="ssr:type" v="adressenavn" />
	</node>
	<node lat="62.06539952294759" lon="9.914224586754607" id="-40925">
		<tag k="name" v="Grimsdalsvegen" />
		<tag k="ssr:date" v="2019-12-27" />
		<tag k="ssr:gruppe" v="veg" />
		<tag k="ssr:hovedgruppe" v="infrastruktur" />
		<tag k="ssr:stedsnr" v="604527" />
		<tag k="ssr:type" v="adressenavn" />
	</node>
	<node lat="62.156076090749714" lon="10.173204728802876" id="-40966">
		<tag k="name" v="Rykrokvegen" />
		<tag k="ssr:date" v="2019-12-27" />
		<tag k="ssr:gruppe" v="veg" />
		<tag k="ssr:hovedgruppe" v="infrastruktur" />
		<tag k="ssr:stedsnr" v="663098" />
		<tag k="ssr:type" v="adressenavn" />
	</node>
	<node lat="62.133283333023826" lon="9.997099999654203" id="-41024">
		<tag k="name" v="Folldal kommune" />
		<tag k="ssr:date" v="2019-12-27" />
		<tag k="ssr:gruppe" v="administrativeIndelinger" />
		<tag k="ssr:hovedgruppe" v="offentligAdministrasjon" />
		<tag k="ssr:stedsnr" v="693507" />
		<tag k="ssr:type" v="kommune" />
	</node>
	<node lat="62.27115282255516" lon="10.165893533809985" id="-41057">
		<tag k="name" v="Gløtvegen" />
		<tag k="ssr:date" v="2019-12-27" />
		<tag k="ssr:gruppe" v="veg" />
		<tag k="ssr:hovedgruppe" v="infrastruktur" />
		<tag k="ssr:stedsnr" v="726186" />
		<tag k="ssr:type" v="adressenavn" />
	</node>
	<node lat="62.16656015666509" lon="9.835254298047522" id="-41163">
		<tag k="name" v="Gamle Dalgardsvegen" />
		<tag k="ssr:date" v="2019-12-27" />
		<tag k="ssr:gruppe" v="veg" />
		<tag k="ssr:hovedgruppe" v="infrastruktur" />
		<tag k="ssr:stedsnr" v="798613" />
		<tag k="ssr:type" v="adressenavn" />
	</node>
	<node lat="61.983873093670105" lon="10.028753501704973" id="-41232">
		<tag k="name" v="Vollen" />
		<tag k="ssr:date" v="2019-12-27" />
		<tag k="ssr:gruppe" v="veg" />
		<tag k="ssr:hovedgruppe" v="infrastruktur" />
		<tag k="ssr:stedsnr" v="829124" />
		<tag k="ssr:type" v="adressenavn" />
	</node>
	<node lat="62.19236557618501" lon="9.767499641878192" id="-41363">
		<tag k="name" v="Borkhusvegen" />
		<tag k="ssr:date" v="2019-12-27" />
		<tag k="ssr:gruppe" v="veg" />
		<tag k="ssr:hovedgruppe" v="infrastruktur" />
		<tag k="ssr:stedsnr" v="978364" />
		<tag k="ssr:type" v="adressenavn" />
	</node>
	<node lat="62.22076730112784" lon="9.737324386647272" id="-41364">
		<tag k="name" v="Kvitdalsvegen" />
		<tag k="ssr:date" v="2019-12-27" />
		<tag k="ssr:gruppe" v="veg" />
		<tag k="ssr:hovedgruppe" v="infrastruktur" />
		<tag k="ssr:stedsnr" v="978365" />
		<tag k="ssr:type" v="adressenavn" />
	</node>
	<node lat="62.1802680367185" lon="9.809950409038585" id="-41366">
		<tag k="name" v="Furuhovdvegen" />
		<tag k="ssr:date" v="2019-12-27" />
		<tag k="ssr:gruppe" v="veg" />
		<tag k="ssr:hovedgruppe" v="infrastruktur" />
		<tag k="ssr:stedsnr" v="978367" />
		<tag k="ssr:type" v="adressenavn" />
	</node>
	<node lat="62.190405624525944" lon="9.824713656473627" id="-41367">
		<tag k="name" v="Stålvegen" />
		<tag k="ssr:date" v="2019-12-27" />
		<tag k="ssr:gruppe" v="veg" />
		<tag k="ssr:hovedgruppe" v="infrastruktur" />
		<tag k="ssr:stedsnr" v="978368" />
		<tag k="ssr:type" v="adressenavn" />
	</node>
	<node lat="62.1906664579594" lon="9.820348244360327" id="-41368">
		<tag k="name" v="Nordlivegen" />
		<tag k="ssr:date" v="2019-12-27" />
		<tag k="ssr:gruppe" v="veg" />
		<tag k="ssr:hovedgruppe" v="infrastruktur" />
		<tag k="ssr:stedsnr" v="978369" />
		<tag k="ssr:type" v="adressenavn" />
	</node>
	<node lat="62.19601266537393" lon="9.81531656162462" id="-41371">
		<tag k="name" v="Tytingvegen" />
		<tag k="ssr:date" v="2019-12-27" />
		<tag k="ssr:gruppe" v="veg" />
		<tag k="ssr:hovedgruppe" v="infrastruktur" />
		<tag k="ssr:stedsnr" v="978372" />
		<tag k="ssr:type" v="adressenavn" />
	</node>
	<node lat="62.19823960837158" lon="9.81379667679502" id="-41372">
		<tag k="name" v="Høgslåvegen" />
		<tag k="ssr:date" v="2019-12-27" />
		<tag k="ssr:gruppe" v="veg" />
		<tag k="ssr:hovedgruppe" v="infrastruktur" />
		<tag k="ssr:stedsnr" v="978373" />
		<tag k="ssr:type" v="adressenavn" />
	</node>
	<node lat="62.14908174576352" lon="9.91746255188167" id="-41374">
		<tag k="name" v="Lonavegen" />
		<tag k="ssr:date" v="2019-12-27" />
		<tag k="ssr:gruppe" v="veg" />
		<tag k="ssr:hovedgruppe" v="infrastruktur" />
		<tag k="ssr:stedsnr" v="978375" />
		<tag k="ssr:type" v="adressenavn" />
	</node>
	<node lat="62.145707007685964" lon="9.95367242117278" id="-41375">
		<tag k="name" v="Bakkesætervegen" />
		<tag k="ssr:date" v="2019-12-27" />
		<tag k="ssr:gruppe" v="veg" />
		<tag k="ssr:hovedgruppe" v="infrastruktur" />
		<tag k="ssr:stedsnr" v="978376" />
		<tag k="ssr:type" v="adressenavn" />
	</node>
	<node lat="62.139431053031174" lon="9.947822658779359" id="-41376">
		<tag k="name" v="Husom" />
		<tag k="ssr:date" v="2019-12-27" />
		<tag k="ssr:gruppe" v="veg" />
		<tag k="ssr:hovedgruppe" v="infrastruktur" />
		<tag k="ssr:stedsnr" v="978377" />
		<tag k="ssr:type" v="adressenavn" />
	</node>
	<node lat="62.339850880171326" lon="9.83930371639702" id="-41381">
		<tag k="name" v="Tanglægervegen" />
		<tag k="ssr:date" v="2019-12-27" />
		<tag k="ssr:gruppe" v="veg" />
		<tag k="ssr:hovedgruppe" v="infrastruktur" />
		<tag k="ssr:stedsnr" v="978382" />
		<tag k="ssr:type" v="adressenavn" />
	</node>
	<node lat="62.328630176308714" lon="9.99160878149949" id="-41382">
		<tag k="name" v="Setaldalen" />
		<tag k="ssr:date" v="2019-12-27" />
		<tag k="ssr:gruppe" v="veg" />
		<tag k="ssr:hovedgruppe" v="infrastruktur" />
		<tag k="ssr:stedsnr" v="978383" />
		<tag k="ssr:type" v="adressenavn" />
	</node>
	<node lat="62.13725222165218" lon="9.986726937155408" id="-41383">
		<tag k="name" v="Bekkelagsvegen" />
		<tag k="ssr:date" v="2019-12-27" />
		<tag k="ssr:gruppe" v="veg" />
		<tag k="ssr:hovedgruppe" v="infrastruktur" />
		<tag k="ssr:stedsnr" v="978384" />
		<tag k="ssr:type" v="adressenavn" />
	</node>
	<node lat="62.13247812455957" lon="9.997012895700381" id="-41384">
		<tag k="name" v="Gruvvegen" />
		<tag k="ssr:date" v="2019-12-27" />
		<tag k="ssr:gruppe" v="veg" />
		<tag k="ssr:hovedgruppe" v="infrastruktur" />
		<tag k="ssr:stedsnr" v="978385" />
		<tag k="ssr:type" v="adressenavn" />
	</node>
	<node lat="62.141283320019916" lon="9.992134157484331" id="-41385">
		<tag k="name" v="Verket" />
		<tag k="ssr:date" v="2019-12-27" />
		<tag k="ssr:gruppe" v="veg" />
		<tag k="ssr:hovedgruppe" v="infrastruktur" />
		<tag k="ssr:stedsnr" v="978386" />
		<tag k="ssr:type" v="adressenavn" />
	</node>
	<node lat="61.958386603708874" lon="10.029144395694097" id="-41430">
		<tag k="name" v="Solvangvegen" />
		<tag k="ssr:date" v="2019-12-27" />
		<tag k="ssr:gruppe" v="veg" />
		<tag k="ssr:hovedgruppe" v="infrastruktur" />
		<tag k="ssr:stedsnr" v="40132" />
		<tag k="ssr:type" v="adressenavn" />
	</node>
	<node lat="62.126163540114575" lon="9.914969682335574" id="-41440">
		<tag k="name" v="Moldalssætervegen" />
		<tag k="ssr:date" v="2019-12-27" />
		<tag k="ssr:gruppe" v="veg" />
		<tag k="ssr:hovedgruppe" v="infrastruktur" />
		<tag k="ssr:stedsnr" v="57496" />
		<tag k="ssr:type" v="adressenavn" />
	</node>
	<node lat="62.19831302132192" lon="9.67458134443613" id="-41442">
		<tag k="name" v="Børsungsætervegen" />
		<tag k="ssr:date" v="2019-12-27" />
		<tag k="ssr:gruppe" v="veg" />
		<tag k="ssr:hovedgruppe" v="infrastruktur" />
		<tag k="ssr:stedsnr" v="57993" />
		<tag k="ssr:type" v="adressenavn" />
	</node>
	<node lat="62.15964438635252" lon="10.178367300575237" id="-41444">
		<tag k="name" v="Fatfjellvegen" />
		<tag k="ssr:date" v="2019-12-27" />
		<tag k="ssr:gruppe" v="veg" />
		<tag k="ssr:hovedgruppe" v="infrastruktur" />
		<tag k="ssr:stedsnr" v="58028" />
		<tag k="ssr:type" v="adressenavn" />
	</node>
	<node lat="62.19709945718653" lon="10.342712271842279" id="-41493">
		<tag k="name" v="Fossvegen" />
		<tag k="ssr:date" v="2019-12-27" />
		<tag k="ssr:gruppe" v="veg" />
		<tag k="ssr:hovedgruppe" v="infrastruktur" />
		<tag k="ssr:stedsnr" v="113078" />
		<tag k="ssr:type" v="adressenavn" />
	</node>
	<node lat="62.12329944310828" lon="10.07143030085894" id="-41521">
		<tag k="name" v="Mjovassdalsvegen" />
		<tag k="ssr:date" v="2019-12-27" />
		<tag k="ssr:gruppe" v="veg" />
		<tag k="ssr:hovedgruppe" v="infrastruktur" />
		<tag k="ssr:stedsnr" v="119053" />
		<tag k="ssr:type" v="adressenavn" />
	</node>
	<node lat="62.14908174576352" lon="9.91746255188167" id="-41522">
		<tag k="name" v="Lonasætervegen" />
		<tag k="ssr:date" v="2019-12-27" />
		<tag k="ssr:gruppe" v="veg" />
		<tag k="ssr:hovedgruppe" v="infrastruktur" />
		<tag k="ssr:stedsnr" v="119596" />
		<tag k="ssr:type" v="adressenavn" />
	</node>
	<node lat="62.2217233643273" lon="10.282614426403532" id="-41712">
		<tag k="name" v="Markbulivegen" />
		<tag k="ssr:date" v="2019-12-27" />
		<tag k="ssr:gruppe" v="veg" />
		<tag k="ssr:hovedgruppe" v="infrastruktur" />
		<tag k="ssr:stedsnr" v="355090" />
		<tag k="ssr:type" v="adressenavn" />
	</node>
	<node lat="62.12745834599785" lon="10.102432024955695" id="-41745">
		<tag k="name" v="Geitryggvegen" />
		<tag k="ssr:date" v="2019-12-27" />
		<tag k="ssr:gruppe" v="veg" />
		<tag k="ssr:hovedgruppe" v="infrastruktur" />
		<tag k="ssr:stedsnr" v="361093" />
		<tag k="ssr:type" v="adressenavn" />
	</node>
	<node lat="62.15488415075095" lon="9.762684923872445" id="-41813">
		<tag k="name" v="Nysætervegen" />
		<tag k="ssr:date" v="2019-12-27" />
		<tag k="ssr:gruppe" v="veg" />
		<tag k="ssr:hovedgruppe" v="infrastruktur" />
		<tag k="ssr:stedsnr" v="420802" />
		<tag k="ssr:type" v="adressenavn" />
	</node>
	<node lat="62.14730656888374" lon="10.160810673951719" id="-41901">
		<tag k="name" v="Sørlivegen" />
		<tag k="ssr:date" v="2019-12-27" />
		<tag k="ssr:gruppe" v="veg" />
		<tag k="ssr:hovedgruppe" v="infrastruktur" />
		<tag k="ssr:stedsnr" v="542096" />
		<tag k="ssr:type" v="adressenavn" />
	</node>
	<node lat="62.12861479139851" lon="10.04200904888584" id="-41964">
		<tag k="name" v="Liavegen" />
		<tag k="ssr:date" v="2019-12-27" />
		<tag k="ssr:gruppe" v="veg" />
		<tag k="ssr:hovedgruppe" v="infrastruktur" />
		<tag k="ssr:stedsnr" v="602087" />
		<tag k="ssr:type" v="adressenavn" />
	</node>
	<node lat="62.17781914733595" lon="10.319748807044476" id="-42024">
		<tag k="name" v="Kolvevegen" />
		<tag k="ssr:date" v="2019-12-27" />
		<tag k="ssr:gruppe" v="veg" />
		<tag k="ssr:hovedgruppe" v="infrastruktur" />
		<tag k="ssr:stedsnr" v="659956" />
		<tag k="ssr:type" v="adressenavn" />
	</node>
	<node lat="62.114592751833705" lon="9.977333451559637" id="-42106">
		<tag k="name" v="Svevegen" />
		<tag k="ssr:date" v="2019-12-27" />
		<tag k="ssr:gruppe" v="veg" />
		<tag k="ssr:hovedgruppe" v="infrastruktur" />
		<tag k="ssr:stedsnr" v="726562" />
		<tag k="ssr:type" v="adressenavn" />
	</node>
	<node lat="62.150412158054706" lon="10.167322460351084" id="-42238">
		<tag k="name" v="Furumoen" />
		<tag k="ssr:date" v="2019-12-27" />
		<tag k="ssr:gruppe" v="veg" />
		<tag k="ssr:hovedgruppe" v="infrastruktur" />
		<tag k="ssr:stedsnr" v="846083" />
		<tag k="ssr:type" v="adressenavn" />
	</node>
	<node lat="62.1133587973252" lon="10.253702407208044" id="-42251">
		<tag k="name" v="Reinslivegen" />
		<tag k="ssr:date" v="2019-12-27" />
		<tag k="ssr:gruppe" v="veg" />
		<tag k="ssr:hovedgruppe" v="infrastruktur" />
		<tag k="ssr:stedsnr" v="847037" />
		<tag k="ssr:type" v="adressenavn" />
	</node>
	<node lat="62.07753619625983" lon="9.962742844998727" id="-42317">
		<tag k="name" v="Holsvegen" />
		<tag k="ssr:date" v="2019-12-27" />
		<tag k="ssr:gruppe" v="veg" />
		<tag k="ssr:hovedgruppe" v="infrastruktur" />
		<tag k="ssr:stedsnr" v="967098" />
		<tag k="ssr:type" v="adressenavn" />
	</node>
	<node lat="62.14760634704181" lon="10.157870871130866" id="-42320">
		<tag k="name" v="Eggemoen" />
		<tag k="ssr:date" v="2019-12-27" />
		<tag k="ssr:gruppe" v="veg" />
		<tag k="ssr:hovedgruppe" v="infrastruktur" />
		<tag k="ssr:stedsnr" v="967081" />
		<tag k="ssr:type" v="adressenavn" />
	</node>
	<node lat="62.141739082837354" lon="9.992259198479198" id="-42349">
		<tag k="name" v="Øvre Verket" />
		<tag k="ssr:date" v="2019-12-27" />
		<tag k="ssr:gruppe" v="veg" />
		<tag k="ssr:hovedgruppe" v="infrastruktur" />
		<tag k="ssr:stedsnr" v="978387" />
		<tag k="ssr:type" v="adressenavn" />
	</node>
	<node lat="62.139545759726765" lon="10.007998160677534" id="-42350">
		<tag k="name" v="Gruvskrabben" />
		<tag k="ssr:date" v="2019-12-27" />
		<tag k="ssr:gruppe" v="veg" />
		<tag k="ssr:hovedgruppe" v="infrastruktur" />
		<tag k="ssr:stedsnr" v="978388" />
		<tag k="ssr:type" v="adressenavn" />
	</node>
	<node lat="62.12326364835595" lon="10.057541590570994" id="-42361">
		<tag k="name" v="Åsagardsvegen" />
		<tag k="ssr:date" v="2019-12-27" />
		<tag k="ssr:gruppe" v="veg" />
		<tag k="ssr:hovedgruppe" v="infrastruktur" />
		<tag k="ssr:stedsnr" v="978399" />
		<tag k="ssr:type" v="adressenavn" />
	</node>
	<node lat="62.12619580991471" lon="10.094254413075674" id="-42362">
		<tag k="name" v="Oddgardan" />
		<tag k="ssr:date" v="2019-12-27" />
		<tag k="ssr:gruppe" v="veg" />
		<tag k="ssr:hovedgruppe" v="infrastruktur" />
		<tag k="ssr:stedsnr" v="978400" />
		<tag k="ssr:type" v="adressenavn" />
	</node>
	<node lat="62.13088473893926" lon="10.034421698469274" id="-42363">
		<tag k="name" v="Rondeslottbakken" />
		<tag k="ssr:date" v="2019-12-27" />
		<tag k="ssr:gruppe" v="veg" />
		<tag k="ssr:hovedgruppe" v="infrastruktur" />
		<tag k="ssr:stedsnr" v="978401" />
		<tag k="ssr:type" v="adressenavn" />
	</node>
	<node lat="62.1512729550514" lon="10.127943880872408" id="-42365">
		<tag k="name" v="Morkagrenda" />
		<tag k="ssr:date" v="2019-12-27" />
		<tag k="ssr:gruppe" v="veg" />
		<tag k="ssr:hovedgruppe" v="infrastruktur" />
		<tag k="ssr:stedsnr" v="978403" />
		<tag k="ssr:type" v="adressenavn" />
	</node>
	<node lat="62.077759068617475" lon="9.956267907527016" id="-42367">
		<tag k="name" v="Fallia og Haugan hyttefelt" />
		<tag k="ssr:date" v="2019-12-27" />
		<tag k="ssr:gruppe" v="veg" />
		<tag k="ssr:hovedgruppe" v="infrastruktur" />
		<tag k="ssr:stedsnr" v="978405" />
		<tag k="ssr:type" v="adressenavn" />
	</node>
	<node lat="62.064701113273706" lon="9.98934201987228" id="-42368">
		<tag k="name" v="Gundhildkroken" />
		<tag k="ssr:date" v="2019-12-27" />
		<tag k="ssr:gruppe" v="veg" />
		<tag k="ssr:hovedgruppe" v="infrastruktur" />
		<tag k="ssr:stedsnr" v="978406" />
		<tag k="ssr:type" v="adressenavn" />
	</node>
	<node lat="61.925227026305045" lon="10.052349137347745" id="-42372">
		<tag k="name" v="Gamle Atndalsvegen" />
		<tag k="ssr:date" v="2019-12-27" />
		<tag k="ssr:gruppe" v="veg" />
		<tag k="ssr:hovedgruppe" v="infrastruktur" />
		<tag k="ssr:stedsnr" v="978514" />
		<tag k="ssr:type" v="adressenavn" />
	</node>
	<node lat="62.125598829983076" lon="10.090132050526991" id="-42374">
		<tag k="name" v="Folldalsvegen" />
		<tag k="ssr:date" v="2019-12-27" />
		<tag k="ssr:gruppe" v="veg" />
		<tag k="ssr:hovedgruppe" v="infrastruktur" />
		<tag k="ssr:stedsnr" v="978362" />
		<tag k="ssr:type" v="adressenavn" />
	</node>
	<node lat="62.19566721604619" lon="9.7619548607628" id="-42375">
		<tag k="name" v="Rundtomvegen" />
		<tag k="ssr:date" v="2019-12-27" />
		<tag k="ssr:gruppe" v="veg" />
		<tag k="ssr:hovedgruppe" v="infrastruktur" />
		<tag k="ssr:stedsnr" v="978363" />
		<tag k="ssr:type" v="adressenavn" />
	</node>
</osm>
