<?xml version="1.0" encoding="UTF-8"?>
<osm generator="osmapis" version="0.6">
	<node id="-57439" lat="60.621064518" lon="11.2533527311">
		<tag k="name" v="Vikslia" />
		<tag k="ssr:date" v="2019-05-30" />
		<tag k="ssr:gruppe" v="veg" />
		<tag k="ssr:hovedgruppe" v="infrastruktur" />
		<tag k="ssr:stedsnr" v="1003268" />
		<tag k="ssr:type" v="adressenavn" />
	</node>
	<node id="-57438" lat="60.6275923656" lon="11.4777996042">
		<tag k="name" v="Storhaugvegen" />
		<tag k="ssr:date" v="2019-05-30" />
		<tag k="ssr:gruppe" v="veg" />
		<tag k="ssr:hovedgruppe" v="infrastruktur" />
		<tag k="ssr:stedsnr" v="1003266" />
		<tag k="ssr:type" v="adressenavn" />
	</node>
	<node id="-57437" lat="60.7262031515" lon="11.4269689468">
		<tag k="name" v="Godhamnvegen" />
		<tag k="ssr:date" v="2019-05-30" />
		<tag k="ssr:gruppe" v="veg" />
		<tag k="ssr:hovedgruppe" v="infrastruktur" />
		<tag k="ssr:stedsnr" v="1003261" />
		<tag k="ssr:type" v="adressenavn" />
	</node>
	<node id="-57436" lat="60.4970708846" lon="11.2561907446">
		<tag k="name" v="Budalslia" />
		<tag k="ssr:date" v="2019-05-30" />
		<tag k="ssr:gruppe" v="veg" />
		<tag k="ssr:hovedgruppe" v="infrastruktur" />
		<tag k="ssr:stedsnr" v="1003257" />
		<tag k="ssr:type" v="adressenavn" />
	</node>
	<node id="-57435" lat="60.785787401" lon="11.1162534946">
		<tag k="name" v="Øverhagan" />
		<tag k="ssr:date" v="2019-05-30" />
		<tag k="ssr:gruppe" v="veg" />
		<tag k="ssr:hovedgruppe" v="infrastruktur" />
		<tag k="ssr:stedsnr" v="1002635" />
		<tag k="ssr:type" v="adressenavn" />
	</node>
	<node id="-58123" lat="60.7157583372" lon="11.1906944523">
		<tag k="name" v="Stange kommune" />
		<tag k="ssr:date" v="2016-05-10" />
		<tag k="ssr:gruppe" v="administrativeIndelinger" />
		<tag k="ssr:hovedgruppe" v="offentligAdministrasjon" />
		<tag k="ssr:stedsnr" v="267043" />
		<tag k="ssr:type" v="kommune" />
	</node>
	<node id="-59457" lat="60.5908609473" lon="9.63819281559">
		<tag k="fixme" v="multiple name tags, choose one and add the other to alt_name" />
		<tag k="name" v="Austlandet;Østlandet" />
		<tag k="ssr:date" v="2018-01-09" />
		<tag k="ssr:gruppe" v="administrativeIndelinger" />
		<tag k="ssr:hovedgruppe" v="offentligAdministrasjon" />
		<tag k="ssr:stedsnr" v="974775" />
		<tag k="ssr:type" v="annenAdministrativInndeling" />
	</node>
</osm>
