<?xml version="1.0" encoding="UTF-8"?>
<<<<<<< HEAD
<osm version="0.6" generator="osmapis">
	<node lat="58.34139999898815" lon="6.1780277847448755" id="-67">
		<tag k="fixme" v="verify maritime location" />
		<tag k="mooring" v="yes" />
		<tag k="name" v="Hedlekroa" />
		<tag k="place" v="locality" />
		<tag k="ssr:stedsnr" v="42087" />
	</node>
	<node lat="58.33618610706241" lon="6.212913883485533" id="-153">
=======
<osm generator="osmapis" version="0.6">
	<node id="-14333" lat="58.3426027811" lon="6.39596388261">
		<tag k="name" v="Nordre Leet" />
		<tag k="place" v="locality" />
		<tag k="ssr:stedsnr" v="876023" />
	</node>
	<node id="-13948" lat="58.3442277816" lon="6.31460555543">
		<tag k="bridge" v="yes" />
		<tag k="layer" v="1" />
		<tag k="name" v="Åmot" />
		<tag k="ssr:stedsnr" v="593247" />
	</node>
	<node id="-13947" lat="58.3330166628" lon="6.35754444055">
		<tag k="layer" v="-1" />
		<tag k="name" v="Jøssinghavn II" />
		<tag k="ssr:stedsnr" v="590270" />
		<tag k="tunnel" v="yes" />
	</node>
	<node id="-15476" lat="58.3502472251" lon="6.31098888732">
		<tag k="bridge" v="yes" />
		<tag k="layer" v="1" />
		<tag k="name" v="Saue" />
		<tag k="ssr:stedsnr" v="836224" />
	</node>
	<node id="-13555" lat="58.3411055597" lon="6.25962500304">
		<tag k="bridge" v="yes" />
		<tag k="layer" v="1" />
		<tag k="name" v="Bråsund" />
		<tag k="ssr:stedsnr" v="472274" />
	</node>
	<node id="-14834" lat="58.3391833355" lon="6.26045278343">
		<tag k="man_made" v="quay" />
		<tag k="name" v="Malmkaien" />
		<tag k="place" v="locality" />
		<tag k="ssr:stedsnr" v="301900" />
	</node>
	<node id="-13949" lat="58.3264138932" lon="6.28444166793">
		<tag k="bridge" v="yes" />
		<tag k="layer" v="1" />
		<tag k="name" v="Åros" />
		<tag k="ssr:stedsnr" v="715297" />
	</node>
	<node id="-14181" lat="58.4010666681" lon="6.39420554792">
>>>>>>> e1d4bc35ff8a6074a6f2e91616a996b547c36f15
		<tag k="bridge" v="yes" />
		<tag k="layer" v="1" />
		<tag k="name" v="Vågane" />
		<tag k="ssr:stedsnr" v="108270" />
	</node>
<<<<<<< HEAD
	<node lat="58.32960555535374" lon="6.356908332340229" id="-154">
=======
	<node id="-14180" lat="58.3304111094" lon="6.35066943849">
>>>>>>> e1d4bc35ff8a6074a6f2e91616a996b547c36f15
		<tag k="bridge" v="yes" />
		<tag k="layer" v="1" />
		<tag k="name" v="Hellernbekken" />
		<tag k="ssr:stedsnr" v="108286" />
	</node>
<<<<<<< HEAD
	<node lat="58.37405000237767" lon="6.16551389377254" id="-156">
		<tag k="name" v="Breiskarleet" />
		<tag k="place" v="locality" />
		<tag k="ssr:stedsnr" v="118821" />
	</node>
	<node lat="58.34902777554871" lon="6.180225005214476" id="-207">
=======
	<node id="-14179" lat="58.4505000032" lon="6.27624166596">
>>>>>>> e1d4bc35ff8a6074a6f2e91616a996b547c36f15
		<tag k="bridge" v="yes" />
		<tag k="layer" v="1" />
		<tag k="name" v="Vatland" />
		<tag k="ssr:stedsnr" v="168262" />
	</node>
<<<<<<< HEAD
	<node lat="58.345008331273156" lon="6.292261113475359" id="-411">
		<tag k="bridge" v="yes" />
		<tag k="layer" v="1" />
		<tag k="name" v="Hauge" />
		<tag k="ssr:stedsnr" v="290283" />
	</node>
	<node lat="58.39766666757004" lon="6.4504944425557404" id="-412">
		<tag k="bridge" v="yes" />
		<tag k="layer" v="1" />
		<tag k="name" v="Mydland" />
		<tag k="ssr:stedsnr" v="290287" />
	</node>
	<node lat="58.36925277970501" lon="6.313669450908644" id="-466">
		<tag k="bridge" v="yes" />
		<tag k="layer" v="1" />
		<tag k="name" v="Bakke" />
		<tag k="ssr:stedsnr" v="472273" />
	</node>
	<node lat="58.341105559678695" lon="6.259625003043235" id="-467">
=======
	<node id="-14045" lat="58.3420027786" lon="6.28509721943">
		<tag k="junction" v="yes" />
		<tag k="name" v="Krossen" />
		<tag k="place" v="locality" />
		<tag k="ssr:stedsnr" v="876389" />
	</node>
	<node id="-15063" lat="58.325816666" lon="6.35228056081">
		<tag k="layer" v="-1" />
		<tag k="name" v="Jøssinghavn I" />
		<tag k="ssr:stedsnr" v="529246" />
		<tag k="tunnel" v="yes" />
	</node>
	<node id="-14934" lat="58.4596277803" lon="6.2580944434">
>>>>>>> e1d4bc35ff8a6074a6f2e91616a996b547c36f15
		<tag k="bridge" v="yes" />
		<tag k="layer" v="1" />
		<tag k="name" v="Bråsund" />
		<tag k="ssr:stedsnr" v="472274" />
	</node>
<<<<<<< HEAD
	<node lat="58.329052776655665" lon="6.356049999713954" id="-468">
=======
	<node id="-14933" lat="58.3412722181" lon="6.28489444645">
>>>>>>> e1d4bc35ff8a6074a6f2e91616a996b547c36f15
		<tag k="bridge" v="yes" />
		<tag k="layer" v="1" />
		<tag k="name" v="Jøssinghamn" />
		<tag k="ssr:stedsnr" v="472275" />
	</node>
<<<<<<< HEAD
	<node lat="58.34624999790091" lon="6.150291663639747" id="-484">
		<tag k="fixme" v="verify maritime location" />
		<tag k="mooring" v="yes" />
		<tag k="name" v="Norastøa" />
		<tag k="place" v="locality" />
		<tag k="ssr:stedsnr" v="479842" />
	</node>
	<node lat="58.35010555445894" lon="6.15674999772731" id="-836">
=======
	<node id="-14032" lat="58.3662083376" lon="6.20111667012">
		<tag k="highway" v="path" />
		<tag k="name" v="Gamle Svåheivegen" />
		<tag k="ssr:stedsnr" v="645915" />
	</node>
	<node id="-13775" lat="58.3501055545" lon="6.15674999773">
>>>>>>> e1d4bc35ff8a6074a6f2e91616a996b547c36f15
		<tag k="highway" v="path" />
		<tag k="name" v="Støvegen" />
		<tag k="ssr:stedsnr" v="661838" />
	</node>
<<<<<<< HEAD
	<node lat="58.36765000067531" lon="6.294427778650247" id="-861">
		<tag k="fixme" v="consider highway=path" />
		<tag k="highway" v="track" />
		<tag k="name" v="Torvvegen" />
		<tag k="ssr:stedsnr" v="694312" />
	</node>
	<node lat="58.45050000316185" lon="6.276241665961234" id="-898">
=======
	<node id="-13386" lat="58.3601777805" lon="6.27151665864">
		<tag k="highway" v="path" />
		<tag k="name" v="Gjenkleiv" />
		<tag k="ssr:stedsnr" v="209312" />
	</node>
	<node id="-13380" lat="58.3976666676" lon="6.45049444256">
>>>>>>> e1d4bc35ff8a6074a6f2e91616a996b547c36f15
		<tag k="bridge" v="yes" />
		<tag k="layer" v="1" />
		<tag k="name" v="Eia" />
		<tag k="ssr:stedsnr" v="897282" />
	</node>
<<<<<<< HEAD
	<node lat="58.330411109390894" lon="6.350669438486376" id="-899">
=======
	<node id="-13379" lat="58.3450083313" lon="6.29226111348">
>>>>>>> e1d4bc35ff8a6074a6f2e91616a996b547c36f15
		<tag k="bridge" v="yes" />
		<tag k="layer" v="1" />
		<tag k="name" v="Hellersheia" />
		<tag k="ssr:stedsnr" v="897284" />
	</node>
<<<<<<< HEAD
	<node lat="58.401066668062086" lon="6.3942055479245195" id="-900">
		<tag k="bridge" v="yes" />
		<tag k="layer" v="1" />
		<tag k="name" v="Vaule" />
		<tag k="ssr:stedsnr" v="897251" />
	</node>
	<node lat="58.375277781780525" lon="6.2836055469621845" id="-940">
=======
	<node id="-14651" lat="58.3740500024" lon="6.16551389377">
		<tag k="name" v="Breiskarleet" />
		<tag k="place" v="locality" />
		<tag k="ssr:stedsnr" v="118821" />
	</node>
	<node id="-15290" lat="58.3752777818" lon="6.28360554696">
>>>>>>> e1d4bc35ff8a6074a6f2e91616a996b547c36f15
		<tag k="highway" v="path" />
		<tag k="name" v="Annarskleiv" />
		<tag k="ssr:stedsnr" v="755364" />
	</node>
<<<<<<< HEAD
	<node lat="58.3426027811049" lon="6.395963882608861" id="-1041">
		<tag k="name" v="Nordre Leet" />
		<tag k="place" v="locality" />
		<tag k="ssr:stedsnr" v="876023" />
	</node>
	<node lat="58.40448889217507" lon="6.405283339259723" id="-1145">
=======
	<node id="-14649" lat="58.3296055554" lon="6.35690833234">
>>>>>>> e1d4bc35ff8a6074a6f2e91616a996b547c36f15
		<tag k="bridge" v="yes" />
		<tag k="layer" v="1" />
		<tag k="name" v="Mysse" />
		<tag k="ssr:stedsnr" v="957287" />
	</node>
<<<<<<< HEAD
	<node lat="58.34196666293866" lon="6.293563893890767" id="-1247">
=======
	<node id="-14648" lat="58.3361861071" lon="6.21291388349">
>>>>>>> e1d4bc35ff8a6074a6f2e91616a996b547c36f15
		<tag k="bridge" v="yes" />
		<tag k="layer" v="1" />
		<tag k="name" v="Årstad" />
		<tag k="ssr:stedsnr" v="47277" />
	</node>
<<<<<<< HEAD
	<node lat="58.41723297538236" lon="6.436794724788229" id="-1248">
=======
	<node id="-14647" lat="58.2940027747" lon="6.43833332549">
>>>>>>> e1d4bc35ff8a6074a6f2e91616a996b547c36f15
		<tag k="bridge" v="yes" />
		<tag k="layer" v="1" />
		<tag k="name" v="Årrestad" />
		<tag k="ssr:stedsnr" v="47278" />
	</node>
<<<<<<< HEAD
	<node lat="58.391091665216784" lon="6.366908337782721" id="-1249">
=======
	<node id="-15030" lat="58.3026388858" lon="6.42961111344">
>>>>>>> e1d4bc35ff8a6074a6f2e91616a996b547c36f15
		<tag k="bridge" v="yes" />
		<tag k="layer" v="1" />
		<tag k="name" v="Ålgård" />
		<tag k="ssr:stedsnr" v="47282" />
	</node>
<<<<<<< HEAD
	<node lat="58.334080554952926" lon="6.217730553558807" id="-1266">
=======
	<node id="-15029" lat="58.348313891" lon="6.2729111106">
>>>>>>> e1d4bc35ff8a6074a6f2e91616a996b547c36f15
		<tag k="bridge" v="yes" />
		<tag k="layer" v="1" />
		<tag k="name" v="Stien" />
		<tag k="ssr:stedsnr" v="229272" />
	</node>
<<<<<<< HEAD
	<node lat="58.36601111503275" lon="6.263077774927707" id="-1267">
		<tag k="bridge" v="yes" />
		<tag k="layer" v="1" />
		<tag k="name" v="Rekeland" />
		<tag k="ssr:stedsnr" v="229274" />
	</node>
	<node lat="58.29285278110567" lon="6.444183326388737" id="-1268">
		<tag k="bridge" v="yes" />
		<tag k="layer" v="1" />
		<tag k="name" v="Åna-Sira" />
		<tag k="ssr:stedsnr" v="229275" />
	</node>
	<node lat="58.32940175795565" lon="6.259385372679028" id="-1340">
=======
	<node id="-15028" lat="58.4240166641" lon="6.27876111919">
		<tag k="bridge" v="yes" />
		<tag k="layer" v="1" />
		<tag k="name" v="Steikatjønn" />
		<tag k="ssr:stedsnr" v="411261" />
	</node>
	<node id="-15026" lat="58.4036833306" lon="6.21283332842">
		<tag k="highway" v="path" />
		<tag k="name" v="Sankt Olavsvegen" />
		<tag k="ssr:stedsnr" v="402645" />
	</node>
	<node id="-14128" lat="58.3676500007" lon="6.29442777865">
		<tag k="fixme" v="consider highway=path" />
		<tag k="highway" v="track" />
		<tag k="name" v="Torvvegen" />
		<tag k="ssr:stedsnr" v="694312" />
	</node>
	<node id="-13556" lat="58.3290527767" lon="6.35604999971">
		<tag k="bridge" v="yes" />
		<tag k="layer" v="1" />
		<tag k="name" v="Jøssinghamn" />
		<tag k="ssr:stedsnr" v="472275" />
	</node>
	<node id="-13230" lat="58.2928527811" lon="6.44418332639">
		<tag k="bridge" v="yes" />
		<tag k="layer" v="1" />
		<tag k="name" v="Åna-Sira" />
		<tag k="ssr:stedsnr" v="229275" />
	</node>
	<node id="-14637" lat="58.329401758" lon="6.25938537268">
>>>>>>> e1d4bc35ff8a6074a6f2e91616a996b547c36f15
		<tag k="landuse" v="harbour" />
		<tag k="name" v="Hamna" />
		<tag k="seamark:type" v="harbour" />
		<tag k="ssr:stedsnr" v="100798" />
	</node>
<<<<<<< HEAD
	<node lat="58.294002774664506" lon="6.438333325493837" id="-1344">
		<tag k="bridge" v="yes" />
		<tag k="layer" v="1" />
		<tag k="name" v="Urdalsbekken" />
		<tag k="ssr:stedsnr" v="108264" />
	</node>
	<node lat="58.36017778045937" lon="6.271516658640241" id="-1487">
		<tag k="highway" v="path" />
		<tag k="name" v="Gjenkleiv" />
		<tag k="ssr:stedsnr" v="209312" />
	</node>
	<node lat="58.33918333550899" lon="6.260452783429812" id="-1543">
		<tag k="man_made" v="quay" />
		<tag k="name" v="Malmkaien" />
		<tag k="place" v="locality" />
		<tag k="ssr:stedsnr" v="301900" />
	</node>
	<node lat="58.45962778030994" lon="6.2580944434017916" id="-1644">
=======
	<node id="-13228" lat="58.334080555" lon="6.21773055356">
		<tag k="bridge" v="yes" />
		<tag k="layer" v="1" />
		<tag k="name" v="Stien" />
		<tag k="ssr:stedsnr" v="229272" />
	</node>
	<node id="-13554" lat="58.3692527797" lon="6.31366945091">
		<tag k="bridge" v="yes" />
		<tag k="layer" v="1" />
		<tag k="name" v="Bakke" />
		<tag k="ssr:stedsnr" v="472273" />
	</node>
	<node id="-14501" lat="58.3910916652" lon="6.36690833778">
		<tag k="bridge" v="yes" />
		<tag k="layer" v="1" />
		<tag k="name" v="Ålgård" />
		<tag k="ssr:stedsnr" v="47282" />
	</node>
	<node id="-14500" lat="58.4172329754" lon="6.43679472479">
>>>>>>> e1d4bc35ff8a6074a6f2e91616a996b547c36f15
		<tag k="bridge" v="yes" />
		<tag k="layer" v="1" />
		<tag k="name" v="Møllebekken" />
		<tag k="ssr:stedsnr" v="350254" />
	</node>
<<<<<<< HEAD
	<node lat="58.34127221812976" lon="6.284894446452294" id="-1645">
		<tag k="bridge" v="yes" />
		<tag k="layer" v="1" />
		<tag k="name" v="Høydalsbekken" />
		<tag k="ssr:stedsnr" v="350252" />
	</node>
	<node lat="58.40368333057514" lon="6.212833328424223" id="-1725">
		<tag k="highway" v="path" />
		<tag k="name" v="Sankt Olavsvegen" />
		<tag k="ssr:stedsnr" v="402645" />
	</node>
	<node lat="58.42401666408901" lon="6.278761119188061" id="-1730">
=======
	<node id="-14499" lat="58.3419666629" lon="6.29356389389">
		<tag k="bridge" v="yes" />
		<tag k="layer" v="1" />
		<tag k="name" v="Årstad" />
		<tag k="ssr:stedsnr" v="47277" />
	</node>
	<node id="-14493" lat="58.341399999" lon="6.17802778474">
		<tag k="fixme" v="verify maritime location" />
		<tag k="mooring" v="yes" />
		<tag k="name" v="Hedlekroa" />
		<tag k="place" v="locality" />
		<tag k="ssr:stedsnr" v="42087" />
	</node>
	<node id="-15388" lat="58.2799999995" lon="6.38166667468">
		<tag k="man_made" v="quay" />
		<tag k="name" v="Oljekaien" />
		<tag k="place" v="locality" />
		<tag k="ssr:stedsnr" v="810395" />
	</node>
	<node id="-13359" lat="58.3490277755" lon="6.18022500521">
		<tag k="bridge" v="yes" />
		<tag k="layer" v="1" />
		<tag k="name" v="Vatland" />
		<tag k="ssr:stedsnr" v="168262" />
	</node>
	<node id="-15512" lat="58.4044888922" lon="6.40528333926">
>>>>>>> e1d4bc35ff8a6074a6f2e91616a996b547c36f15
		<tag k="bridge" v="yes" />
		<tag k="layer" v="1" />
		<tag k="name" v="Steikatjønn" />
		<tag k="ssr:stedsnr" v="411261" />
	</node>
<<<<<<< HEAD
	<node lat="58.34831389104357" lon="6.272911110602029" id="-1731">
=======
	<node id="-15511" lat="58.3146555562" lon="6.33701110321">
>>>>>>> e1d4bc35ff8a6074a6f2e91616a996b547c36f15
		<tag k="bridge" v="yes" />
		<tag k="layer" v="1" />
		<tag k="name" v="Drageland" />
		<tag k="ssr:stedsnr" v="411272" />
	</node>
<<<<<<< HEAD
	<node lat="58.30263888580427" lon="6.429611113442603" id="-1732">
		<tag k="bridge" v="yes" />
		<tag k="layer" v="1" />
		<tag k="name" v="Logsbekken" />
		<tag k="ssr:stedsnr" v="411276" />
	</node>
	<node lat="58.34422778160227" lon="6.314605555426497" id="-1906">
		<tag k="bridge" v="yes" />
		<tag k="layer" v="1" />
		<tag k="name" v="Åmot" />
		<tag k="ssr:stedsnr" v="593247" />
	</node>
	<node lat="58.36620833759597" lon="6.201116670116346" id="-1997">
		<tag k="highway" v="path" />
		<tag k="name" v="Gamle Svåheivegen" />
		<tag k="ssr:stedsnr" v="645915" />
	</node>
	<node lat="58.32641389324864" lon="6.284441667927606" id="-2023">
		<tag k="bridge" v="yes" />
		<tag k="layer" v="1" />
		<tag k="name" v="Åros" />
		<tag k="ssr:stedsnr" v="715297" />
	</node>
	<node lat="58.350247225145445" lon="6.310988887323021" id="-2211">
		<tag k="bridge" v="yes" />
		<tag k="layer" v="1" />
		<tag k="name" v="Saue" />
		<tag k="ssr:stedsnr" v="836224" />
	</node>
	<node lat="58.34200277864507" lon="6.2850972194256745" id="-2241">
		<tag k="junction" v="yes" />
		<tag k="name" v="Krossen" />
		<tag k="place" v="locality" />
		<tag k="ssr:stedsnr" v="876389" />
	</node>
	<node lat="58.31465555619493" lon="6.337011103206579" id="-2352">
		<tag k="bridge" v="yes" />
		<tag k="layer" v="1" />
		<tag k="name" v="Vinterstø" />
		<tag k="ssr:stedsnr" v="957261" />
	</node>
=======
	<node id="-13229" lat="58.366011115" lon="6.26307777493">
		<tag k="bridge" v="yes" />
		<tag k="layer" v="1" />
		<tag k="name" v="Rekeland" />
		<tag k="ssr:stedsnr" v="229274" />
	</node>
	<node id="-13572" lat="58.3462499979" lon="6.15029166364">
		<tag k="fixme" v="verify maritime location" />
		<tag k="mooring" v="yes" />
		<tag k="name" v="Norastøa" />
		<tag k="place" v="locality" />
		<tag k="ssr:stedsnr" v="479842" />
	</node>
>>>>>>> e1d4bc35ff8a6074a6f2e91616a996b547c36f15
</osm>
